"Longitude (x)","Latitude (y)","Station Name","Climate ID","Date/Time (LST)","Year","Month","Day","Time (LST)","Temp (°C)","Temp Flag","Dew Point Temp (°C)","Dew Point Temp Flag","Rel Hum (%)","Rel Hum Flag","Precip. Amount (mm)","Precip. Amount Flag","Wind Dir (10s deg)","Wind Dir Flag","Wind Spd (km/h)","Wind Spd Flag","Visibility (km)","Visibility Flag","Stn Press (kPa)","Stn Press Flag","Hmdx","Hmdx Flag","Wind Chill","Wind Chill Flag","Weather"
"-56.07","51.39","ST. ANTHONY A","8403389","2018-07-01 00:30","2018","07","01","00:30","5.6","","5.3","","98","","0.0","","14","","18","","16.1","","101.21","","","","","","NA"
"-56.07","51.39","ST. ANTHONY A","8403389","2018-07-01 01:30","2018","07","01","01:30","6.0","","5.6","","97","","0.0","","7","","8","","16.1","","101.27","","","","","","NA"
"-56.07","51.39","ST. ANTHONY A","8403389","2018-07-01 02:30","2018","07","01","02:30","6.1","","5.7","","97","","0.0","","14","","18","","16.1","","101.24","","","","","","NA"
"-56.07","51.39","ST. ANTHONY A","8403389","2018-07-01 03:30","2018","07","01","03:30","6.4","","5.5","","94","","0.0","","13","","24","","16.1","","101.26","","","","","","NA"
"-56.07","51.39","ST. ANTHONY A","8403389","2018-07-01 04:30","2018","07","01","04:30","6.4","","5.5","","94","","0.0","","14","","18","","16.1","","101.31","","","","","","NA"
"-56.07","51.39","ST. ANTHONY A","8403389","2018-07-01 05:30","2018","07","01","05:30","6.9","","6.0","","94","","0.0","","13","","18","","16.1","","101.32","","","","","","NA"
"-56.07","51.39","ST. ANTHONY A","8403389","2018-07-01 06:30","2018","07","01","06:30","8.6","","7.2","","91","","0.0","","14","","13","","16.1","","101.38","","","","","","NA"
"-56.07","51.39","ST. ANTHONY A","8403389","2018-07-01 07:30","2018","07","01","07:30","9.2","","7.5","","89","","0.0","","16","","13","","16.1","","101.43","","","","","","NA"
"-56.07","51.39","ST. ANTHONY A","8403389","2018-07-01 08:30","2018","07","01","08:30","9.2","","7.8","","91","","0.0","","15","","11","","16.1","","101.48","","","","","","NA"
"-56.07","51.39","ST. ANTHONY A","8403389","2018-07-01 09:30","2018","07","01","09:30","10.2","","8.6","","90","","0.0","","15","","13","","16.1","","101.50","","","","","","NA"
"-56.07","51.39","ST. ANTHONY A","8403389","2018-07-01 10:30","2018","07","01","10:30","13.4","","10.5","","83","","0.0","","19","","9","","16.1","","101.50","","","","","","NA"
"-56.07","51.39","ST. ANTHONY A","8403389","2018-07-01 11:30","2018","07","01","11:30","13.6","","10.7","","82","","0.0","","30","","18","","16.1","","101.48","","","","","","NA"
"-56.07","51.39","ST. ANTHONY A","8403389","2018-07-01 12:30","2018","07","01","12:30","15.0","","11.4","","79","","0.0","","29","","21","","16.1","","101.45","","","","","","NA"
"-56.07","51.39","ST. ANTHONY A","8403389","2018-07-01 13:30","2018","07","01","13:30","16.1","","11.1","","72","","0.0","","27","","9","","16.1","","101.44","","","","","","NA"
"-56.07","51.39","ST. ANTHONY A","8403389","2018-07-01 14:30","2018","07","01","14:30","16.9","","11.3","","69","","0.0","","16","","9","","16.1","","101.40","","","","","","NA"
"-56.07","51.39","ST. ANTHONY A","8403389","2018-07-01 15:30","2018","07","01","15:30","16.4","","11.3","","72","","0.0","","17","","15","","16.1","","101.43","","","","","","NA"
"-56.07","51.39","ST. ANTHONY A","8403389","2018-07-01 16:30","2018","07","01","16:30","15.3","","11.0","","75","","0.0","","32","","13","","16.1","","101.50","","","","","","NA"
"-56.07","51.39","ST. ANTHONY A","8403389","2018-07-01 17:30","2018","07","01","17:30","15.0","","10.8","","76","","0.0","","33","","11","","16.1","","101.49","","","","","","NA"
"-56.07","51.39","ST. ANTHONY A","8403389","2018-07-01 18:30","2018","07","01","18:30","14.7","","10.9","","78","","0.0","","32","","11","","16.1","","101.52","","","","","","NA"
"-56.07","51.39","ST. ANTHONY A","8403389","2018-07-01 19:30","2018","07","01","19:30","13.8","","10.6","","81","","0.0","","33","","8","","16.1","","101.59","","","","","","NA"
"-56.07","51.39","ST. ANTHONY A","8403389","2018-07-01 20:30","2018","07","01","20:30","11.4","","9.9","","91","","0.0","","30","","9","","16.1","","101.67","","","","","","NA"
"-56.07","51.39","ST. ANTHONY A","8403389","2018-07-01 21:30","2018","07","01","21:30","7.6","","6.9","","96","","0.0","","","M","4","","16.1","","101.76","","","","","","NA"
"-56.07","51.39","ST. ANTHONY A","8403389","2018-07-01 22:30","2018","07","01","22:30","8.6","","8.2","","97","","0.0","","","M","4","","16.1","","101.79","","","","","","NA"
"-56.07","51.39","ST. ANTHONY A","8403389","2018-07-01 23:30","2018","07","01","23:30","5.9","","5.8","","99","","0.0","","16","","13","","6.4","","101.81","","","","","","Fog"
"-56.07","51.39","ST. ANTHONY A","8403389","2018-07-02 00:30","2018","07","02","00:30","4.9","","4.9","","100","","0.0","","17","","15","","0.4","","101.85","","","","","","Fog"
"-56.07","51.39","ST. ANTHONY A","8403389","2018-07-02 01:30","2018","07","02","01:30","5.1","","5.1","","100","","0.0","","14","","13","","0.4","","101.87","","","","","","Fog"
"-56.07","51.39","ST. ANTHONY A","8403389","2018-07-02 02:30","2018","07","02","02:30","4.8","","4.8","","100","","0.0","","14","","18","","0.6","","101.84","","","","","","Fog"
"-56.07","51.39","ST. ANTHONY A","8403389","2018-07-02 03:30","2018","07","02","03:30","4.9","","4.9","","100","","0.0","","15","","24","","1.0","","101.85","","","","","","Fog"
"-56.07","51.39","ST. ANTHONY A","8403389","2018-07-02 04:30","2018","07","02","04:30","5.1","","5.1","","100","","0.0","","13","","13","","0.2","","101.89","","","","","","Fog"
"-56.07","51.39","ST. ANTHONY A","8403389","2018-07-02 05:30","2018","07","02","05:30","5.5","","5.5","","100","","0.0","","11","","11","","0.2","","101.92","","","","","","Fog"
"-56.07","51.39","ST. ANTHONY A","8403389","2018-07-02 06:30","2018","07","02","06:30","5.7","","5.7","","100","","0.0","","15","","13","","0.2","","101.91","","","","","","Fog"
"-56.07","51.39","ST. ANTHONY A","8403389","2018-07-02 07:30","2018","07","02","07:30","6.5","","6.5","","100","","0.0","","15","","11","","0.2","","101.91","","","","","","Fog"
"-56.07","51.39","ST. ANTHONY A","8403389","2018-07-02 08:30","2018","07","02","08:30","8.0","","8.0","","100","","0.0","","15","","5","","0.2","","101.95","","","","","","Fog"
"-56.07","51.39","ST. ANTHONY A","8403389","2018-07-02 09:30","2018","07","02","09:30","11.2","","10.8","","97","","0.0","","","","0","","16.1","","101.95","","","","","","NA"
"-56.07","51.39","ST. ANTHONY A","8403389","2018-07-02 10:30","2018","07","02","10:30","14.4","","12.2","","86","","0.0","","15","","8","","16.1","","101.90","","","","","","NA"
"-56.07","51.39","ST. ANTHONY A","8403389","2018-07-02 11:30","2018","07","02","11:30","15.5","","12.1","","80","","0.0","","14","","17","","16.1","","101.86","","","","","","NA"
"-56.07","51.39","ST. ANTHONY A","8403389","2018-07-02 12:30","2018","07","02","12:30","16.3","","11.6","","73","","0.0","","15","","15","","16.1","","101.85","","","","","","NA"
"-56.07","51.39","ST. ANTHONY A","8403389","2018-07-02 13:30","2018","07","02","13:30","19.3","","11.7","","61","","0.0","","15","","13","","11.3","","101.82","","","","","","NA"
"-56.07","51.39","ST. ANTHONY A","8403389","2018-07-02 14:30","2018","07","02","14:30","17.1","","9.9","","62","","0.0","","16","","11","","16.1","","101.77","","","","","","NA"
"-56.07","51.39","ST. ANTHONY A","8403389","2018-07-02 15:30","2018","07","02","15:30","16.7","","9.8","","63","","0.0","","21","","8","","16.1","","101.79","","","","","","NA"
"-56.07","51.39","ST. ANTHONY A","8403389","2018-07-02 16:30","2018","07","02","16:30","15.7","","9.9","","68","","0.0","","14","","9","","16.1","","101.72","","","","","","NA"
"-56.07","51.39","ST. ANTHONY A","8403389","2018-07-02 17:30","2018","07","02","17:30","11.5","","8.3","","80","","0.0","","17","","9","","16.1","","101.68","","","","","","NA"
"-56.07","51.39","ST. ANTHONY A","8403389","2018-07-02 18:30","2018","07","02","18:30","13.3","","8.6","","73","","0.0","","15","","21","","16.1","","101.63","","","","","","NA"
"-56.07","51.39","ST. ANTHONY A","8403389","2018-07-02 19:30","2018","07","02","19:30","13.2","","8.3","","72","","0.0","","15","","15","","16.1","","101.58","","","","","","NA"
"-56.07","51.39","ST. ANTHONY A","8403389","2018-07-02 20:30","2018","07","02","20:30","12.8","","7.9","","72","","0.0","","15","","17","","16.1","","101.58","","","","","","NA"
"-56.07","51.39","ST. ANTHONY A","8403389","2018-07-02 21:30","2018","07","02","21:30","12.3","","8.3","","76","","0.0","","14","","17","","16.1","","101.61","","","","","","NA"
"-56.07","51.39","ST. ANTHONY A","8403389","2018-07-02 22:30","2018","07","02","22:30","12.5","","8.4","","76","","0.0","","14","","21","","16.1","","101.59","","","","","","NA"
"-56.07","51.39","ST. ANTHONY A","8403389","2018-07-02 23:30","2018","07","02","23:30","12.4","","8.1","","75","","0.0","","13","","18","","16.1","","101.55","","","","","","NA"
"-56.07","51.39","ST. ANTHONY A","8403389","2018-07-03 00:30","2018","07","03","00:30","12.4","","8.3","","76","","0.0","","15","","15","","16.1","","101.49","","","","","","NA"
"-56.07","51.39","ST. ANTHONY A","8403389","2018-07-03 01:30","2018","07","03","01:30","12.4","","9.3","","81","","0.0","","14","","13","","16.1","","101.37","","","","","","NA"
"-56.07","51.39","ST. ANTHONY A","8403389","2018-07-03 02:30","2018","07","03","02:30","11.4","","9.1","","86","","0.0","","18","","9","","16.1","","101.34","","","","","","NA"
"-56.07","51.39","ST. ANTHONY A","8403389","2018-07-03 03:30","2018","07","03","03:30","10.4","","8.5","","88","","0.0","","16","","13","","16.1","","101.29","","","","","","NA"
"-56.07","51.39","ST. ANTHONY A","8403389","2018-07-03 04:30","2018","07","03","04:30","10.0","","8.5","","90","","0.0","","15","","8","","16.1","","101.22","","","","","","NA"
"-56.07","51.39","ST. ANTHONY A","8403389","2018-07-03 05:30","2018","07","03","05:30","11.9","","10.2","","89","","0.0","","18","","9","","16.1","","101.14","","","","","","NA"
"-56.07","51.39","ST. ANTHONY A","8403389","2018-07-03 06:30","2018","07","03","06:30","14.6","","11.3","","81","","0.0","","15","","11","","16.1","","101.09","","","","","","NA"
"-56.07","51.39","ST. ANTHONY A","8403389","2018-07-03 07:30","2018","07","03","07:30","16.2","","12.0","","76","","0.0","","15","","13","","16.1","","101.02","","","","","","NA"
"-56.07","51.39","ST. ANTHONY A","8403389","2018-07-03 08:30","2018","07","03","08:30","16.5","","11.8","","74","","0.0","","15","","17","","16.1","","100.88","","","","","","NA"
"-56.07","51.39","ST. ANTHONY A","8403389","2018-07-03 09:30","2018","07","03","09:30","16.1","","12.0","","76","","0.0","","14","","8","","16.1","","100.83","","","","","","NA"
"-56.07","51.39","ST. ANTHONY A","8403389","2018-07-03 10:30","2018","07","03","10:30","18.8","","15.4","","80","","0.0","","24","","41","","16.1","","100.81","","","","","","NA"
"-56.07","51.39","ST. ANTHONY A","8403389","2018-07-03 11:30","2018","07","03","11:30","16.9","","15.9","","94","","1.2","","23","","34","","14.5","","100.77","","","","","","NA"
"-56.07","51.39","ST. ANTHONY A","8403389","2018-07-03 12:30","2018","07","03","12:30","16.4","","15.4","","94","","0.0","","23","","34","","16.1","","100.68","","","","","","NA"
"-56.07","51.39","ST. ANTHONY A","8403389","2018-07-03 13:30","2018","07","03","13:30","15.6","","15.0","","96","","0.0","","22","","43","","4.8","","100.62","","","","","","Rain,Fog"
"-56.07","51.39","ST. ANTHONY A","8403389","2018-07-03 14:30","2018","07","03","14:30","15.7","","14.9","","95","","0.0","","22","","41","","16.1","","100.53","","","","","","NA"
"-56.07","51.39","ST. ANTHONY A","8403389","2018-07-03 15:30","2018","07","03","15:30","16.7","","15.4","","92","","0.0","","23","","39","","16.1","","100.50","","","","","","NA"
"-56.07","51.39","ST. ANTHONY A","8403389","2018-07-03 16:30","2018","07","03","16:30","17.2","","15.6","","90","","0.0","","22","","37","","16.1","","100.44","","","","","","NA"
"-56.07","51.39","ST. ANTHONY A","8403389","2018-07-03 17:30","2018","07","03","17:30","17.4","","15.8","","90","","0.0","","22","","34","","16.1","","100.43","","","","","","NA"
"-56.07","51.39","ST. ANTHONY A","8403389","2018-07-03 18:30","2018","07","03","18:30","17.5","","16.1","","91","","0.0","","22","","21","","16.1","","100.41","","","","","","NA"
"-56.07","51.39","ST. ANTHONY A","8403389","2018-07-03 19:30","2018","07","03","19:30","17.9","","15.9","","88","","0.0","","26","","22","","16.1","","100.42","","","","","","NA"
"-56.07","51.39","ST. ANTHONY A","8403389","2018-07-03 20:30","2018","07","03","20:30","13.6","","13.0","","96","","0.0","","24","","28","","14.5","","100.44","","","","","","NA"
"-56.07","51.39","ST. ANTHONY A","8403389","2018-07-03 21:30","2018","07","03","21:30","15.3","","14.6","","96","","0.0","","22","","43","","16.1","","100.36","","","","","","NA"
"-56.07","51.39","ST. ANTHONY A","8403389","2018-07-03 22:30","2018","07","03","22:30","14.9","","13.8","","93","","0.0","","24","","35","","16.1","","100.36","","","","","","NA"
"-56.07","51.39","ST. ANTHONY A","8403389","2018-07-03 23:30","2018","07","03","23:30","14.0","","12.9","","93","","0.0","","24","","30","","16.1","","100.37","","","","","","NA"
"-56.07","51.39","ST. ANTHONY A","8403389","2018-07-04 00:30","2018","07","04","00:30","14.2","","12.4","","89","","0.0","","24","","26","","16.1","","100.38","","","","","","NA"
"-56.07","51.39","ST. ANTHONY A","8403389","2018-07-04 01:30","2018","07","04","01:30","13.4","","12.0","","91","","0.0","","25","","28","","16.1","","100.40","","","","","","NA"
"-56.07","51.39","ST. ANTHONY A","8403389","2018-07-04 02:30","2018","07","04","02:30","11.7","","10.9","","95","","0.0","","25","","28","","14.5","","100.45","","","","","","NA"
"-56.07","51.39","ST. ANTHONY A","8403389","2018-07-04 03:30","2018","07","04","03:30","11.4","","10.8","","96","","0.0","","24","","18","","11.3","","100.49","","","","","","NA"
"-56.07","51.39","ST. ANTHONY A","8403389","2018-07-04 04:30","2018","07","04","04:30","11.8","","10.9","","94","","0.0","","22","","17","","16.1","","100.57","","","","","","NA"
"-56.07","51.39","ST. ANTHONY A","8403389","2018-07-04 05:30","2018","07","04","05:30","12.9","","11.6","","92","","0.0","","23","","17","","16.1","","100.63","","","","","","NA"
"-56.07","51.39","ST. ANTHONY A","8403389","2018-07-04 06:30","2018","07","04","06:30","15.0","","11.2","","78","","0.0","","24","","26","","16.1","","100.68","","","","","","NA"
"-56.07","51.39","ST. ANTHONY A","8403389","2018-07-04 07:30","2018","07","04","07:30","16.8","","10.2","","65","","0.0","","26","","26","","16.1","","100.75","","","","","","NA"
"-56.07","51.39","ST. ANTHONY A","8403389","2018-07-04 08:30","2018","07","04","08:30","17.6","","9.7","","59","","0.0","","26","","26","","16.1","","100.82","","","","","","NA"
"-56.07","51.39","ST. ANTHONY A","8403389","2018-07-04 09:30","2018","07","04","09:30","18.8","","8.2","","50","","0.0","","28","","24","","16.1","","100.82","","","","","","NA"
"-56.07","51.39","ST. ANTHONY A","8403389","2018-07-04 10:30","2018","07","04","10:30","19.7","","7.9","","46","","0.0","","29","","21","","16.1","","100.87","","","","","","NA"
"-56.07","51.39","ST. ANTHONY A","8403389","2018-07-04 11:30","2018","07","04","11:30","20.3","","6.9","","42","","0.0","","28","","26","","16.1","","100.91","","","","","","NA"
"-56.07","51.39","ST. ANTHONY A","8403389","2018-07-04 12:30","2018","07","04","12:30","17.4","","8.0","","54","","0.0","","4","","17","","16.1","","101.00","","","","","","NA"
"-56.07","51.39","ST. ANTHONY A","8403389","2018-07-04 13:30","2018","07","04","13:30","15.3","","7.3","","59","","0.0","","15","","18","","16.1","","101.03","","","","","","NA"
"-56.07","51.39","ST. ANTHONY A","8403389","2018-07-04 14:30","2018","07","04","14:30","12.9","","5.9","","62","","0.0","","15","","28","","16.1","","101.11","","","","","","NA"
"-56.07","51.39","ST. ANTHONY A","8403389","2018-07-04 15:30","2018","07","04","15:30","12.6","","5.7","","63","","0.0","","13","","24","","16.1","","101.12","","","","","","NA"
"-56.07","51.39","ST. ANTHONY A","8403389","2018-07-04 16:30","2018","07","04","16:30","11.1","","5.0","","66","","0.0","","14","","24","","16.1","","101.19","","","","","","NA"
"-56.07","51.39","ST. ANTHONY A","8403389","2018-07-04 17:30","2018","07","04","17:30","9.2","","4.3","","71","","0.0","","13","","34","","16.1","","101.26","","","","","","NA"
"-56.07","51.39","ST. ANTHONY A","8403389","2018-07-04 18:30","2018","07","04","18:30","9.2","","4.1","","70","","0.0","","13","","28","","16.1","","101.33","","","","","","NA"
"-56.07","51.39","ST. ANTHONY A","8403389","2018-07-04 19:30","2018","07","04","19:30","9.2","","4.1","","70","","0.0","","11","","21","","16.1","","101.43","","","","","","NA"
"-56.07","51.39","ST. ANTHONY A","8403389","2018-07-04 20:30","2018","07","04","20:30","7.6","","3.8","","77","","0.0","","11","","18","","16.1","","101.49","","","","","","NA"
"-56.07","51.39","ST. ANTHONY A","8403389","2018-07-04 21:30","2018","07","04","21:30","6.7","","4.0","","83","","0.0","","11","","15","","16.1","","101.56","","","","","","NA"
"-56.07","51.39","ST. ANTHONY A","8403389","2018-07-04 22:30","2018","07","04","22:30","5.8","","4.0","","88","","0.0","","11","","11","","16.1","","101.63","","","","","","NA"
"-56.07","51.39","ST. ANTHONY A","8403389","2018-07-04 23:30","2018","07","04","23:30","5.0","","3.3","","89","","0.0","","11","","13","","16.1","","101.64","","","","","","NA"
"-56.07","51.39","ST. ANTHONY A","8403389","2018-07-05 00:30","2018","07","05","00:30","5.5","","3.5","","87","","0.0","","13","","15","","16.1","","101.58","","","","","","NA"
"-56.07","51.39","ST. ANTHONY A","8403389","2018-07-05 01:30","2018","07","05","01:30","5.6","","3.8","","88","","0.0","","14","","15","","16.1","","101.57","","","","","","NA"
"-56.07","51.39","ST. ANTHONY A","8403389","2018-07-05 02:30","2018","07","05","02:30","5.0","","3.4","","89","","0.0","","14","","15","","16.1","","101.55","","","","","","NA"
"-56.07","51.39","ST. ANTHONY A","8403389","2018-07-05 03:30","2018","07","05","03:30","5.1","","3.5","","90","","0.0","","15","","8","","16.1","","101.60","","","","","","NA"
"-56.07","51.39","ST. ANTHONY A","8403389","2018-07-05 04:30","2018","07","05","04:30","3.5","","2.7","","94","","0.0","","9","","4","","16.1","","101.61","","","","","","NA"
"-56.07","51.39","ST. ANTHONY A","8403389","2018-07-05 05:30","2018","07","05","05:30","5.4","","3.8","","90","","0.0","","","","0","","16.1","","101.66","","","","","","NA"
"-56.07","51.39","ST. ANTHONY A","8403389","2018-07-05 06:30","2018","07","05","06:30","8.4","","4.9","","79","","0.0","","","M","4","","16.1","","101.69","","","","","","NA"
"-56.07","51.39","ST. ANTHONY A","8403389","2018-07-05 07:30","2018","07","05","07:30","10.9","","6.1","","72","","0.0","","24","","8","","16.1","","101.68","","","","","","NA"
"-56.07","51.39","ST. ANTHONY A","8403389","2018-07-05 08:30","2018","07","05","08:30","13.2","","6.3","","63","","0.0","","29","","13","","16.1","","101.66","","","","","","NA"
"-56.07","51.39","ST. ANTHONY A","8403389","2018-07-05 09:30","2018","07","05","09:30","16.0","","5.0","","48","","0.0","","31","","17","","16.1","","101.66","","","","","","NA"
"-56.07","51.39","ST. ANTHONY A","8403389","2018-07-05 10:30","2018","07","05","10:30","17.3","","4.2","","41","","0.0","","32","","15","","16.1","","101.62","","","","","","NA"
"-56.07","51.39","ST. ANTHONY A","8403389","2018-07-05 11:30","2018","07","05","11:30","18.4","","4.5","","40","","0.0","","32","","11","","16.1","","101.60","","","","","","NA"
"-56.07","51.39","ST. ANTHONY A","8403389","2018-07-05 12:30","2018","07","05","12:30","19.2","","4.3","","37","","0.0","","29","","15","","16.1","","101.59","","","","","","NA"
"-56.07","51.39","ST. ANTHONY A","8403389","2018-07-05 13:30","2018","07","05","13:30","17.4","","6.7","","49","","0.0","","5","","18","","16.1","","101.56","","","","","","NA"
"-56.07","51.39","ST. ANTHONY A","8403389","2018-07-05 14:30","2018","07","05","14:30","15.8","","7.6","","58","","0.0","","14","","18","","16.1","","101.56","","","","","","NA"
"-56.07","51.39","ST. ANTHONY A","8403389","2018-07-05 15:30","2018","07","05","15:30","13.0","","5.4","","60","","0.0","","13","","28","","16.1","","101.60","","","","","","NA"
"-56.07","51.39","ST. ANTHONY A","8403389","2018-07-05 16:30","2018","07","05","16:30","12.5","","5.0","","60","","0.0","","13","","22","","16.1","","101.62","","","","","","NA"
"-56.07","51.39","ST. ANTHONY A","8403389","2018-07-05 17:30","2018","07","05","17:30","12.0","","4.3","","59","","0.0","","12","","24","","16.1","","101.64","","","","","","NA"
"-56.07","51.39","ST. ANTHONY A","8403389","2018-07-05 18:30","2018","07","05","18:30","11.1","","3.6","","60","","0.0","","13","","18","","16.1","","101.66","","","","","","NA"
"-56.07","51.39","ST. ANTHONY A","8403389","2018-07-05 19:30","2018","07","05","19:30","9.3","","3.3","","66","","0.0","","11","","18","","16.1","","101.63","","","","","","NA"
"-56.07","51.39","ST. ANTHONY A","8403389","2018-07-05 20:30","2018","07","05","20:30","7.4","","3.8","","78","","0.0","","11","","15","","16.1","","101.64","","","","","","NA"
"-56.07","51.39","ST. ANTHONY A","8403389","2018-07-05 21:30","2018","07","05","21:30","6.8","","4.1","","83","","0.0","","12","","21","","16.1","","101.58","","","","","","NA"
"-56.07","51.39","ST. ANTHONY A","8403389","2018-07-05 22:30","2018","07","05","22:30","6.7","","4.7","","87","","0.0","","12","","24","","16.1","","101.53","","","","","","NA"
"-56.07","51.39","ST. ANTHONY A","8403389","2018-07-05 23:30","2018","07","05","23:30","6.7","","4.7","","87","","0.0","","12","","18","","16.1","","101.46","","","","","","NA"
"-56.07","51.39","ST. ANTHONY A","8403389","2018-07-06 00:30","2018","07","06","00:30","6.3","","5.0","","91","","0.0","","12","","26","","16.1","","101.38","","","","","","NA"
"-56.07","51.39","ST. ANTHONY A","8403389","2018-07-06 01:30","2018","07","06","01:30","6.1","","5.1","","93","","0.0","","13","","26","","16.1","","101.29","","","","","","NA"
"-56.07","51.39","ST. ANTHONY A","8403389","2018-07-06 02:30","2018","07","06","02:30","6.8","","5.4","","91","","0.0","","13","","26","","16.1","","101.11","","","","","","NA"
"-56.07","51.39","ST. ANTHONY A","8403389","2018-07-06 03:30","2018","07","06","03:30","7.2","","5.5","","89","","0.0","","12","","21","","16.1","","100.95","","","","","","NA"
"-56.07","51.39","ST. ANTHONY A","8403389","2018-07-06 04:30","2018","07","06","04:30","8.0","","6.0","","87","","0.0","","13","","22","","16.1","","100.85","","","","","","NA"
"-56.07","51.39","ST. ANTHONY A","8403389","2018-07-06 05:30","2018","07","06","05:30","8.4","","6.6","","88","","0.0","","13","","22","","16.1","","100.72","","","","","","NA"
"-56.07","51.39","ST. ANTHONY A","8403389","2018-07-06 06:30","2018","07","06","06:30","10.4","","7.5","","82","","0.0","","13","","28","","16.1","","100.55","","","","","","NA"
"-56.07","51.39","ST. ANTHONY A","8403389","2018-07-06 07:30","2018","07","06","07:30","10.8","","8.0","","83","","0.0","","12","","32","","16.1","","100.39","","","","","","Rain"
"-56.07","51.39","ST. ANTHONY A","8403389","2018-07-06 08:30","2018","07","06","08:30","11.5","","9.1","","85","","0.2","","13","","26","","16.1","","100.17","","","","","","Rain"
"-56.07","51.39","ST. ANTHONY A","8403389","2018-07-06 09:30","2018","07","06","09:30","10.9","","9.1","","88","","0.0","","13","","34","","16.1","","99.99","","","","","","NA"
"-56.07","51.39","ST. ANTHONY A","8403389","2018-07-06 10:30","2018","07","06","10:30","12.3","","10.0","","86","","0.0","","14","","26","","16.1","","99.91","","","","","","NA"
"-56.07","51.39","ST. ANTHONY A","8403389","2018-07-06 11:30","2018","07","06","11:30","13.1","","11.1","","88","","0.0","","13","","34","","16.1","","99.71","","","","","","Rain"
"-56.07","51.39","ST. ANTHONY A","8403389","2018-07-06 12:30","2018","07","06","12:30","13.5","","12.1","","91","","0.0","","14","","34","","16.1","","99.55","","","","","","Rain"
"-56.07","51.39","ST. ANTHONY A","8403389","2018-07-06 13:30","2018","07","06","13:30","13.9","","13.3","","96","","0.8","","15","","17","","14.5","","99.47","","","","","","Rain"
"-56.07","51.39","ST. ANTHONY A","8403389","2018-07-06 14:30","2018","07","06","14:30","12.8","","12.7","","99","","3.0","","17","","13","","4.8","","99.39","","","","","","Moderate Rain,Fog"
"-56.07","51.39","ST. ANTHONY A","8403389","2018-07-06 15:30","2018","07","06","15:30","15.1","","15.1","","100","","0.5","","20","","17","","16.1","","99.31","","","","","","NA"
"-56.07","51.39","ST. ANTHONY A","8403389","2018-07-06 16:30","2018","07","06","16:30","16.9","","16.3","","96","","0.0","","23","","26","","16.1","","99.26","","","","","","NA"
"-56.07","51.39","ST. ANTHONY A","8403389","2018-07-06 17:30","2018","07","06","17:30","17.1","","16.5","","96","","0.0","","21","","17","","16.1","","99.20","","","","","","NA"
"-56.07","51.39","ST. ANTHONY A","8403389","2018-07-06 18:30","2018","07","06","18:30","17.7","","17.1","","96","","0.0","","21","","18","","12.9","","99.14","","","","","","NA"
"-56.07","51.39","ST. ANTHONY A","8403389","2018-07-06 19:30","2018","07","06","19:30","17.5","","16.7","","95","","0.0","","21","","21","","16.1","","99.12","","","","","","NA"
"-56.07","51.39","ST. ANTHONY A","8403389","2018-07-06 20:30","2018","07","06","20:30","17.2","","16.6","","96","","0.0","","22","","11","","16.1","","99.15","","","","","","NA"
"-56.07","51.39","ST. ANTHONY A","8403389","2018-07-06 21:30","2018","07","06","21:30","17.1","","15.8","","92","","0.0","","23","","26","","16.1","","99.12","","","","","","NA"
"-56.07","51.39","ST. ANTHONY A","8403389","2018-07-06 22:30","2018","07","06","22:30","14.1","","13.5","","96","","0.0","","28","","15","","16.1","","99.09","","","","","","NA"
"-56.07","51.39","ST. ANTHONY A","8403389","2018-07-06 23:30","2018","07","06","23:30","15.0","","13.2","","89","","0.0","","23","","22","","16.1","","99.07","","","","","","NA"
"-56.07","51.39","ST. ANTHONY A","8403389","2018-07-07 00:30","2018","07","07","00:30","15.1","","12.6","","85","","0.0","","23","","28","","16.1","","99.01","","","","","","NA"
"-56.07","51.39","ST. ANTHONY A","8403389","2018-07-07 01:30","2018","07","07","01:30"
"-56.07","51.39","ST. ANTHONY A","8403389","2018-07-07 02:30","2018","07","07","02:30"
"-56.07","51.39","ST. ANTHONY A","8403389","2018-07-07 03:30","2018","07","07","03:30","12.8","","10.9","","88","","0.0","","24","","37","","16.1","","99.05","","","","","","NA"
"-56.07","51.39","ST. ANTHONY A","8403389","2018-07-07 04:30","2018","07","07","04:30","12.1","","10.4","","89","","0.0","","23","","35","","16.1","","99.09","","","","","","NA"
"-56.07","51.39","ST. ANTHONY A","8403389","2018-07-07 05:30","2018","07","07","05:30","12.5","","10.6","","88","","0.0","","23","","35","","16.1","","99.15","","","","","","NA"
"-56.07","51.39","ST. ANTHONY A","8403389","2018-07-07 06:30","2018","07","07","06:30","11.7","","11.1","","96","","0.0","","24","","21","","16.1","","99.20","","","","","","Rain"
"-56.07","51.39","ST. ANTHONY A","8403389","2018-07-07 07:30","2018","07","07","07:30","11.8","","10.7","","93","","0.0","","25","","24","","16.1","","99.34","","","","","","NA"
"-56.07","51.39","ST. ANTHONY A","8403389","2018-07-07 08:30","2018","07","07","08:30","13.0","","9.9","","81","","0.2","","27","","24","","16.1","","99.42","","","","","","NA"
"-56.07","51.39","ST. ANTHONY A","8403389","2018-07-07 09:30","2018","07","07","09:30","13.6","","9.0","","73","","0.0","","26","","34","","16.1","","99.51","","","","","","NA"
"-56.07","51.39","ST. ANTHONY A","8403389","2018-07-07 10:30","2018","07","07","10:30","12.8","","7.3","","69","","0.0","","27","","41","","16.1","","99.58","","","","","","NA"
"-56.07","51.39","ST. ANTHONY A","8403389","2018-07-07 11:30","2018","07","07","11:30","12.5","","7.6","","72","","0.0","","26","","41","","16.1","","99.67","","","","","","NA"
"-56.07","51.39","ST. ANTHONY A","8403389","2018-07-07 12:30","2018","07","07","12:30","14.0","","6.8","","62","","0.0","","27","","37","","16.1","","99.71","","","","","","NA"
"-56.07","51.39","ST. ANTHONY A","8403389","2018-07-07 13:30","2018","07","07","13:30","14.0","","5.3","","56","","0.0","","26","","34","","16.1","","99.79","","","","","","NA"
"-56.07","51.39","ST. ANTHONY A","8403389","2018-07-07 14:30","2018","07","07","14:30","15.9","","5.7","","51","","0.0","","27","","34","","16.1","","99.83","","","","","","NA"
"-56.07","51.39","ST. ANTHONY A","8403389","2018-07-07 15:30","2018","07","07","15:30","14.6","","6.6","","58","","0.0","","27","","32","","16.1","","99.94","","","","","","NA"
"-56.07","51.39","ST. ANTHONY A","8403389","2018-07-07 16:30","2018","07","07","16:30","14.2","","4.7","","53","","0.0","","27","","35","","16.1","","100.02","","","","","","NA"
"-56.07","51.39","ST. ANTHONY A","8403389","2018-07-07 17:30","2018","07","07","17:30","13.2","","4.0","","53","","0.0","","29","","43","","16.1","","100.16","","","","","","NA"
"-56.07","51.39","ST. ANTHONY A","8403389","2018-07-07 18:30","2018","07","07","18:30","11.9","","5.2","","63","","0.0","","31","","21","","16.1","","100.31","","","","","","NA"
"-56.07","51.39","ST. ANTHONY A","8403389","2018-07-07 19:30","2018","07","07","19:30","11.5","","4.1","","60","","0.0","","29","","21","","16.1","","100.41","","","","","","NA"
"-56.07","51.39","ST. ANTHONY A","8403389","2018-07-07 20:30","2018","07","07","20:30","10.9","","4.5","","65","","0.0","","27","","18","","16.1","","100.53","","","","","","NA"
"-56.07","51.39","ST. ANTHONY A","8403389","2018-07-07 21:30","2018","07","07","21:30","10.9","","4.6","","65","","0.0","","25","","11","","16.1","","100.59","","","","","","NA"
"-56.07","51.39","ST. ANTHONY A","8403389","2018-07-07 22:30","2018","07","07","22:30","9.3","","4.7","","73","","0.0","","21","","11","","16.1","","100.66","","","","","","NA"
"-56.07","51.39","ST. ANTHONY A","8403389","2018-07-07 23:30","2018","07","07","23:30","8.1","","4.5","","78","","0.0","","21","","11","","16.1","","100.63","","","","","","NA"
"-56.07","51.39","ST. ANTHONY A","8403389","2018-07-08 00:30","2018","07","08","00:30","9.3","","5.7","","78","","0.0","","22","","21","","16.1","","100.63","","","","","","NA"
"-56.07","51.39","ST. ANTHONY A","8403389","2018-07-08 01:30","2018","07","08","01:30","9.3","","5.7","","78","","0.0","","22","","11","","16.1","","100.60","","","","","","NA"
"-56.07","51.39","ST. ANTHONY A","8403389","2018-07-08 02:30","2018","07","08","02:30","7.9","","5.4","","84","","0.0","","20","","11","","16.1","","100.58","","","","","","NA"
"-56.07","51.39","ST. ANTHONY A","8403389","2018-07-08 03:30","2018","07","08","03:30","10.2","","6.6","","78","","0.0","","24","","26","","16.1","","100.66","","","","","","NA"
"-56.07","51.39","ST. ANTHONY A","8403389","2018-07-08 04:30","2018","07","08","04:30","9.5","","6.6","","82","","0.0","","24","","26","","16.1","","100.72","","","","","","NA"
"-56.07","51.39","ST. ANTHONY A","8403389","2018-07-08 05:30","2018","07","08","05:30","10.8","","6.8","","76","","0.0","","26","","18","","16.1","","100.75","","","","","","NA"
"-56.07","51.39","ST. ANTHONY A","8403389","2018-07-08 06:30","2018","07","08","06:30","12.2","","7.6","","73","","0.0","","24","","24","","16.1","","100.79","","","","","","NA"
"-56.07","51.39","ST. ANTHONY A","8403389","2018-07-08 07:30","2018","07","08","07:30","13.9","","8.4","","69","","0.0","","23","","35","","16.1","","100.81","","","","","","NA"
"-56.07","51.39","ST. ANTHONY A","8403389","2018-07-08 08:30","2018","07","08","08:30","14.8","","9.1","","68","","0.0","","24","","32","","16.1","","100.85","","","","","","NA"
"-56.07","51.39","ST. ANTHONY A","8403389","2018-07-08 09:30","2018","07","08","09:30","15.7","","8.9","","64","","0.0","","23","","41","","16.1","","100.89","","","","","","NA"
"-56.07","51.39","ST. ANTHONY A","8403389","2018-07-08 10:30","2018","07","08","10:30","17.2","","8.8","","57","","0.0","","24","","30","","16.1","","100.85","","","","","","NA"
"-56.07","51.39","ST. ANTHONY A","8403389","2018-07-08 11:30","2018","07","08","11:30","18.4","","8.6","","53","","0.0","","24","","34","","16.1","","100.82","","","","","","NA"
"-56.07","51.39","ST. ANTHONY A","8403389","2018-07-08 12:30","2018","07","08","12:30","18.8","","8.8","","52","","0.0","","23","","35","","16.1","","100.82","","","","","","NA"
"-56.07","51.39","ST. ANTHONY A","8403389","2018-07-08 13:30","2018","07","08","13:30","20.1","","8.7","","47","","0.0","","23","","43","","16.1","","100.81","","","","","","NA"
"-56.07","51.39","ST. ANTHONY A","8403389","2018-07-08 14:30","2018","07","08","14:30","20.7","","8.9","","46","","0.0","","22","","37","","16.1","","100.79","","","","","","NA"
"-56.07","51.39","ST. ANTHONY A","8403389","2018-07-08 15:30","2018","07","08","15:30","20.9","","8.9","","46","","0.0","","24","","46","","16.1","","100.78","","","","","","NA"
"-56.07","51.39","ST. ANTHONY A","8403389","2018-07-08 16:30","2018","07","08","16:30","20.8","","9.2","","47","","0.0","","23","","45","","16.1","","100.76","","","","","","NA"
"-56.07","51.39","ST. ANTHONY A","8403389","2018-07-08 17:30","2018","07","08","17:30","19.9","","10.6","","55","","0.0","","23","","45","","16.1","","100.73","","","","","","NA"
"-56.07","51.39","ST. ANTHONY A","8403389","2018-07-08 18:30","2018","07","08","18:30","18.1","","11.5","","65","","0.0","","23","","28","","16.1","","100.78","","","","","","NA"
"-56.07","51.39","ST. ANTHONY A","8403389","2018-07-08 19:30","2018","07","08","19:30","17.9","","11.5","","66","","0.0","","22","","28","","16.1","","100.76","","","","","","NA"
"-56.07","51.39","ST. ANTHONY A","8403389","2018-07-08 20:30","2018","07","08","20:30","17.7","","10.7","","63","","0.0","","22","","30","","16.1","","100.75","","","","","","NA"
"-56.07","51.39","ST. ANTHONY A","8403389","2018-07-08 21:30","2018","07","08","21:30","17.0","","11.6","","70","","0.0","","21","","15","","16.1","","100.77","","","","","","NA"
"-56.07","51.39","ST. ANTHONY A","8403389","2018-07-08 22:30","2018","07","08","22:30","16.6","","12.4","","76","","0.0","","24","","18","","16.1","","100.74","","","","","","NA"
"-56.07","51.39","ST. ANTHONY A","8403389","2018-07-08 23:30","2018","07","08","23:30","17.6","","13.0","","74","","0.0","","23","","28","","16.1","","100.68","","","","","","NA"
"-56.07","51.39","ST. ANTHONY A","8403389","2018-07-09 00:30","2018","07","09","00:30","17.3","","13.9","","80","","0.0","","22","","45","","16.1","","100.54","","","","","","NA"
"-56.07","51.39","ST. ANTHONY A","8403389","2018-07-09 01:30","2018","07","09","01:30","15.6","","14.0","","90","","0.0","","19","","17","","16.1","","100.55","","","","","","Rain"
"-56.07","51.39","ST. ANTHONY A","8403389","2018-07-09 02:30","2018","07","09","02:30","14.1","","13.2","","94","","0.0","","30","","13","","16.1","","100.56","","","","","","NA"
"-56.07","51.39","ST. ANTHONY A","8403389","2018-07-09 03:30","2018","07","09","03:30","13.2","","12.4","","95","","0.0","","25","","9","","16.1","","100.47","","","","","","NA"
"-56.07","51.39","ST. ANTHONY A","8403389","2018-07-09 04:30","2018","07","09","04:30","15.2","","12.4","","83","","0.0","","22","","30","","16.1","","100.35","","","","","","NA"
"-56.07","51.39","ST. ANTHONY A","8403389","2018-07-09 05:30","2018","07","09","05:30","14.9","","12.1","","83","","0.0","","24","","26","","16.1","","100.38","","","","","","NA"
"-56.07","51.39","ST. ANTHONY A","8403389","2018-07-09 06:30","2018","07","09","06:30","16.5","","12.4","","77","","0.0","","24","","30","","16.1","","100.40","","","","","","NA"
"-56.07","51.39","ST. ANTHONY A","8403389","2018-07-09 07:30","2018","07","09","07:30","17.3","","12.3","","72","","0.0","","23","","34","","16.1","","100.33","","","","","","NA"
"-56.07","51.39","ST. ANTHONY A","8403389","2018-07-09 08:30","2018","07","09","08:30","19.6","","12.9","","65","","0.0","","23","","35","","16.1","","100.27","","","","","","NA"
"-56.07","51.39","ST. ANTHONY A","8403389","2018-07-09 09:30","2018","07","09","09:30","20.7","","12.8","","60","","0.0","","23","","46","","16.1","","100.23","","","","","","NA"
"-56.07","51.39","ST. ANTHONY A","8403389","2018-07-09 10:30","2018","07","09","10:30","22.3","","13.0","","55","","0.0","","24","","55","","16.1","","100.24","","25","","","","NA"
"-56.07","51.39","ST. ANTHONY A","8403389","2018-07-09 11:30","2018","07","09","11:30","21.0","","13.1","","60","","0.0","","23","","46","","16.1","","100.20","","","","","","NA"
"-56.07","51.39","ST. ANTHONY A","8403389","2018-07-09 12:30","2018","07","09","12:30","20.8","","12.9","","60","","0.0","","24","","46","","16.1","","100.21","","","","","","NA"
"-56.07","51.39","ST. ANTHONY A","8403389","2018-07-09 13:30","2018","07","09","13:30","16.5","","14.1","","86","","0.5","","22","","37","","16.1","","100.18","","","","","","NA"
"-56.07","51.39","ST. ANTHONY A","8403389","2018-07-09 14:30","2018","07","09","14:30","18.6","","15.2","","81","","0.0","","22","","41","","16.1","","100.16","","","","","","NA"
"-56.07","51.39","ST. ANTHONY A","8403389","2018-07-09 15:30","2018","07","09","15:30","20.0","","14.1","","69","","0.0","","23","","50","","16.1","","100.13","","","","","","NA"
"-56.07","51.39","ST. ANTHONY A","8403389","2018-07-09 16:30","2018","07","09","16:30","19.6","","13.8","","69","","0.0","","24","","46","","16.1","","100.08","","","","","","NA"
"-56.07","51.39","ST. ANTHONY A","8403389","2018-07-09 17:30","2018","07","09","17:30","19.3","","14.0","","71","","0.0","","24","","54","","16.1","","100.01","","","","","","NA"
"-56.07","51.39","ST. ANTHONY A","8403389","2018-07-09 18:30","2018","07","09","18:30","19.0","","14.1","","73","","0.0","","24","","35","","16.1","","100.00","","","","","","NA"
"-56.07","51.39","ST. ANTHONY A","8403389","2018-07-09 19:30","2018","07","09","19:30","18.4","","14.0","","75","","0.0","","25","","28","","16.1","","99.99","","","","","","NA"
"-56.07","51.39","ST. ANTHONY A","8403389","2018-07-09 20:30","2018","07","09","20:30","18.4","","14.2","","76","","0.0","","24","","34","","16.1","","99.98","","","","","","NA"
"-56.07","51.39","ST. ANTHONY A","8403389","2018-07-09 21:30","2018","07","09","21:30","14.2","","11.9","","86","","0.0","","28","","32","","16.1","","100.05","","","","","","NA"
"-56.07","51.39","ST. ANTHONY A","8403389","2018-07-09 22:30","2018","07","09","22:30","18.0","","14.1","","78","","0.0","","25","","32","","16.1","","100.01","","","","","","NA"
"-56.07","51.39","ST. ANTHONY A","8403389","2018-07-09 23:30","2018","07","09","23:30","16.3","","13.3","","82","","0.0","","24","","37","","16.1","","100.02","","","","","","NA"
"-56.07","51.39","ST. ANTHONY A","8403389","2018-07-10 00:30","2018","07","10","00:30","17.6","","14.2","","80","","0.0","","24","","46","","16.1","","100.03","","","","","","Rain"
"-56.07","51.39","ST. ANTHONY A","8403389","2018-07-10 01:30","2018","07","10","01:30","16.3","","14.8","","91","","0.0","","24","","37","","16.1","","99.98","","","","","","NA"
"-56.07","51.39","ST. ANTHONY A","8403389","2018-07-10 02:30","2018","07","10","02:30","16.4","","15.0","","91","","0.0","","23","","32","","16.1","","99.99","","","","","","NA"
"-56.07","51.39","ST. ANTHONY A","8403389","2018-07-10 03:30","2018","07","10","03:30","16.5","","15.0","","91","","0.0","","23","","34","","16.1","","99.98","","","","","","NA"
"-56.07","51.39","ST. ANTHONY A","8403389","2018-07-10 04:30","2018","07","10","04:30","16.6","","14.4","","87","","0.0","","25","","37","","16.1","","100.05","","","","","","NA"
"-56.07","51.39","ST. ANTHONY A","8403389","2018-07-10 05:30","2018","07","10","05:30","15.8","","13.8","","88","","0.0","","25","","34","","16.1","","100.10","","","","","","NA"
"-56.07","51.39","ST. ANTHONY A","8403389","2018-07-10 06:30","2018","07","10","06:30","15.3","","13.7","","90","","0.0","","23","","32","","16.1","","100.15","","","","","","NA"
"-56.07","51.39","ST. ANTHONY A","8403389","2018-07-10 07:30","2018","07","10","07:30","15.4","","13.6","","89","","0.0","","24","","32","","16.1","","100.17","","","","","","NA"
"-56.07","51.39","ST. ANTHONY A","8403389","2018-07-10 08:30","2018","07","10","08:30","16.3","","14.4","","89","","0.0","","24","","24","","16.1","","100.23","","","","","","NA"
"-56.07","51.39","ST. ANTHONY A","8403389","2018-07-10 09:30","2018","07","10","09:30","17.4","","14.5","","83","","0.0","","25","","32","","16.1","","100.22","","","","","","NA"
"-56.07","51.39","ST. ANTHONY A","8403389","2018-07-10 10:30","2018","07","10","10:30","17.2","","15.4","","89","","0.0","","24","","28","","16.1","","100.29","","","","","","Rain"
"-56.07","51.39","ST. ANTHONY A","8403389","2018-07-10 11:30","2018","07","10","11:30","16.1","","15.2","","94","","1.5","","24","","26","","16.1","","100.36","","","","","","Rain"
"-56.07","51.39","ST. ANTHONY A","8403389","2018-07-10 12:30","2018","07","10","12:30","19.8","","16.6","","82","","0.2","","23","","39","","16.1","","100.32","","","","","","NA"
"-56.07","51.39","ST. ANTHONY A","8403389","2018-07-10 13:30","2018","07","10","13:30","21.6","","16.2","","71","","0.0","","23","","37","","16.1","","100.30","","26","","","","NA"
"-56.07","51.39","ST. ANTHONY A","8403389","2018-07-10 14:30","2018","07","10","14:30","22.9","","16.4","","66","","0.0","","23","","32","","16.1","","100.28","","28","","","","NA"
"-56.07","51.39","ST. ANTHONY A","8403389","2018-07-10 15:30","2018","07","10","15:30","23.5","","16.2","","63","","0.0","","25","","28","","16.1","","100.27","","28","","","","NA"
"-56.07","51.39","ST. ANTHONY A","8403389","2018-07-10 16:30","2018","07","10","16:30","23.2","","16.3","","65","","0.0","","24","","22","","16.1","","100.26","","28","","","","NA"
"-56.07","51.39","ST. ANTHONY A","8403389","2018-07-10 17:30","2018","07","10","17:30","21.8","","15.8","","68","","0.0","","25","","18","","16.1","","100.26","","26","","","","NA"
"-56.07","51.39","ST. ANTHONY A","8403389","2018-07-10 18:30","2018","07","10","18:30","18.9","","14.7","","76","","0.0","","27","","17","","16.1","","100.31","","","","","","NA"
"-56.07","51.39","ST. ANTHONY A","8403389","2018-07-10 19:30","2018","07","10","19:30","17.2","","14.2","","83","","0.0","","27","","18","","16.1","","100.37","","","","","","NA"
"-56.07","51.39","ST. ANTHONY A","8403389","2018-07-10 20:30","2018","07","10","20:30","16.4","","14.3","","87","","0.0","","26","","9","","16.1","","100.40","","","","","","NA"
"-56.07","51.39","ST. ANTHONY A","8403389","2018-07-10 21:30","2018","07","10","21:30","16.0","","14.2","","89","","0.0","","23","","11","","16.1","","100.42","","","","","","NA"
"-56.07","51.39","ST. ANTHONY A","8403389","2018-07-10 22:30","2018","07","10","22:30","15.4","","13.8","","90","","0.0","","24","","24","","16.1","","100.41","","","","","","NA"
"-56.07","51.39","ST. ANTHONY A","8403389","2018-07-10 23:30","2018","07","10","23:30","15.7","","14.3","","91","","0.0","","22","","11","","16.1","","100.36","","","","","","NA"
"-56.07","51.39","ST. ANTHONY A","8403389","2018-07-11 00:30","2018","07","11","00:30","13.1","","12.3","","95","","0.0","","16","","13","","16.1","","100.33","","","","","","Rain"
"-56.07","51.39","ST. ANTHONY A","8403389","2018-07-11 01:30","2018","07","11","01:30","11.9","","11.4","","97","","0.0","","25","","15","","16.1","","100.41","","","","","","NA"
"-56.07","51.39","ST. ANTHONY A","8403389","2018-07-11 02:30","2018","07","11","02:30","13.2","","12.6","","96","","0.0","","24","","11","","16.1","","100.43","","","","","","Rain"
"-56.07","51.39","ST. ANTHONY A","8403389","2018-07-11 03:30","2018","07","11","03:30","14.1","","13.3","","95","","0.0","","20","","13","","16.1","","100.41","","","","","","NA"
"-56.07","51.39","ST. ANTHONY A","8403389","2018-07-11 04:30","2018","07","11","04:30","14.5","","13.9","","96","","0.0","","17","","9","","16.1","","100.47","","","","","","NA"
"-56.07","51.39","ST. ANTHONY A","8403389","2018-07-11 05:30","2018","07","11","05:30","15.2","","14.4","","95","","0.0","","22","","8","","16.1","","100.53","","","","","","NA"
"-56.07","51.39","ST. ANTHONY A","8403389","2018-07-11 06:30","2018","07","11","06:30","16.3","","14.1","","87","","0.0","","23","","22","","16.1","","100.56","","","","","","NA"
"-56.07","51.39","ST. ANTHONY A","8403389","2018-07-11 07:30","2018","07","11","07:30","16.7","","14.2","","85","","0.0","","26","","17","","16.1","","100.64","","","","","","NA"
"-56.07","51.39","ST. ANTHONY A","8403389","2018-07-11 08:30","2018","07","11","08:30","17.7","","14.2","","80","","0.0","","24","","24","","16.1","","100.66","","","","","","NA"
"-56.07","51.39","ST. ANTHONY A","8403389","2018-07-11 09:30","2018","07","11","09:30","18.5","","14.5","","77","","0.0","","24","","24","","16.1","","100.73","","","","","","NA"
"-56.07","51.39","ST. ANTHONY A","8403389","2018-07-11 10:30","2018","07","11","10:30","20.0","","13.2","","65","","0.0","","24","","24","","16.1","","100.76","","","","","","NA"
"-56.07","51.39","ST. ANTHONY A","8403389","2018-07-11 11:30","2018","07","11","11:30","19.8","","11.9","","60","","0.0","","24","","35","","16.1","","100.81","","","","","","NA"
"-56.07","51.39","ST. ANTHONY A","8403389","2018-07-11 12:30","2018","07","11","12:30","20.4","","13.3","","64","","0.0","","25","","26","","16.1","","100.85","","","","","","NA"
"-56.07","51.39","ST. ANTHONY A","8403389","2018-07-11 13:30","2018","07","11","13:30","21.2","","10.0","","48","","0.0","","25","","32","","16.1","","100.89","","","","","","NA"
"-56.07","51.39","ST. ANTHONY A","8403389","2018-07-11 14:30","2018","07","11","14:30","22.1","","8.2","","41","","0.0","","26","","26","","16.1","","100.89","","","","","","NA"
"-56.07","51.39","ST. ANTHONY A","8403389","2018-07-11 15:30","2018","07","11","15:30","21.8","","7.1","","38","","0.0","","24","","26","","16.1","","100.92","","","","","","NA"
"-56.07","51.39","ST. ANTHONY A","8403389","2018-07-11 16:30","2018","07","11","16:30","21.1","","4.6","","34","","0.0","","22","","32","","16.1","","100.99","","","","","","NA"
"-56.07","51.39","ST. ANTHONY A","8403389","2018-07-11 17:30","2018","07","11","17:30","20.5","","4.8","","35","","0.0","","23","","28","","16.1","","100.99","","","","","","NA"
"-56.07","51.39","ST. ANTHONY A","8403389","2018-07-11 18:30","2018","07","11","18:30","19.2","","7.1","","45","","0.0","","24","","21","","16.1","","101.02","","","","","","NA"
"-56.07","51.39","ST. ANTHONY A","8403389","2018-07-11 19:30","2018","07","11","19:30","16.1","","10.5","","69","","0.0","","26","","21","","16.1","","101.05","","","","","","NA"
"-56.07","51.39","ST. ANTHONY A","8403389","2018-07-11 20:30","2018","07","11","20:30","15.2","","8.6","","64","","0.0","","24","","11","","16.1","","101.10","","","","","","NA"
"-56.07","51.39","ST. ANTHONY A","8403389","2018-07-11 21:30","2018","07","11","21:30","14.0","","8.5","","69","","0.0","","24","","9","","16.1","","101.12","","","","","","NA"
"-56.07","51.39","ST. ANTHONY A","8403389","2018-07-11 22:30","2018","07","11","22:30","12.7","","8.0","","73","","0.0","","14","","4","","16.1","","101.17","","","","","","NA"
"-56.07","51.39","ST. ANTHONY A","8403389","2018-07-11 23:30","2018","07","11","23:30","10.5","","7.4","","81","","0.0","","","","0","","16.1","","101.19","","","","","","NA"
"-56.07","51.39","ST. ANTHONY A","8403389","2018-07-12 00:30","2018","07","12","00:30","8.9","","6.9","","87","","0.0","","","","0","","16.1","","101.18","","","","","","NA"
"-56.07","51.39","ST. ANTHONY A","8403389","2018-07-12 01:30","2018","07","12","01:30","10.8","","7.5","","80","","0.0","","20","","5","","16.1","","101.16","","","","","","NA"
"-56.07","51.39","ST. ANTHONY A","8403389","2018-07-12 02:30","2018","07","12","02:30","7.5","","5.3","","86","","0.0","","","M","9","","16.1","","101.17","","","","","","NA"
"-56.07","51.39","ST. ANTHONY A","8403389","2018-07-12 03:30","2018","07","12","03:30","9.0","","6.6","","85","","0.0","","17","","4","","16.1","","101.18","","","","","","NA"
"-56.07","51.39","ST. ANTHONY A","8403389","2018-07-12 04:30","2018","07","12","04:30","9.3","","7.1","","86","","0.0","","21","","4","","16.1","","101.21","","","","","","NA"
"-56.07","51.39","ST. ANTHONY A","8403389","2018-07-12 05:30","2018","07","12","05:30","7.6","","6.7","","94","","0.0","","","","0","","16.1","","101.23","","","","","","NA"
"-56.07","51.39","ST. ANTHONY A","8403389","2018-07-12 06:30","2018","07","12","06:30","11.4","","9.5","","88","","0.0","","7","","5","","16.1","","101.26","","","","","","NA"
"-56.07","51.39","ST. ANTHONY A","8403389","2018-07-12 07:30","2018","07","12","07:30","14.3","","9.3","","72","","0.0","","31","","11","","16.1","","101.29","","","","","","NA"
"-56.07","51.39","ST. ANTHONY A","8403389","2018-07-12 08:30","2018","07","12","08:30","16.1","","8.6","","61","","0.0","","30","","18","","16.1","","101.32","","","","","","NA"
"-56.07","51.39","ST. ANTHONY A","8403389","2018-07-12 09:30","2018","07","12","09:30","15.8","","9.2","","65","","0.0","","32","","15","","16.1","","101.35","","","","","","NA"
"-56.07","51.39","ST. ANTHONY A","8403389","2018-07-12 10:30","2018","07","12","10:30","16.7","","9.9","","64","","0.0","","30","","17","","16.1","","101.40","","","","","","NA"
"-56.07","51.39","ST. ANTHONY A","8403389","2018-07-12 11:30","2018","07","12","11:30","18.2","","10.3","","60","","0.0","","34","","21","","16.1","","101.40","","","","","","NA"
"-56.07","51.39","ST. ANTHONY A","8403389","2018-07-12 12:30","2018","07","12","12:30","17.0","","9.9","","63","","0.0","","2","","30","","16.1","","101.45","","","","","","NA"
"-56.07","51.39","ST. ANTHONY A","8403389","2018-07-12 13:30","2018","07","12","13:30","15.3","","8.9","","65","","0.0","","3","","37","","16.1","","101.47","","","","","","NA"
"-56.07","51.39","ST. ANTHONY A","8403389","2018-07-12 14:30","2018","07","12","14:30","15.5","","8.3","","62","","0.0","","3","","35","","16.1","","101.43","","","","","","NA"
"-56.07","51.39","ST. ANTHONY A","8403389","2018-07-12 15:30","2018","07","12","15:30","16.1","","8.0","","59","","0.0","","3","","37","","16.1","","101.38","","","","","","NA"
"-56.07","51.39","ST. ANTHONY A","8403389","2018-07-12 16:30","2018","07","12","16:30","15.0","","8.0","","63","","0.0","","2","","34","","16.1","","101.41","","","","","","NA"
"-56.07","51.39","ST. ANTHONY A","8403389","2018-07-12 17:30","2018","07","12","17:30","14.6","","7.8","","63","","0.0","","4","","35","","16.1","","101.39","","","","","","NA"
"-56.07","51.39","ST. ANTHONY A","8403389","2018-07-12 18:30","2018","07","12","18:30","12.4","","7.6","","72","","0.0","","4","","26","","16.1","","101.44","","","","","","NA"
"-56.07","51.39","ST. ANTHONY A","8403389","2018-07-12 19:30","2018","07","12","19:30","10.8","","6.8","","76","","0.0","","3","","26","","16.1","","101.46","","","","","","NA"
"-56.07","51.39","ST. ANTHONY A","8403389","2018-07-12 20:30","2018","07","12","20:30","9.5","","6.1","","79","","0.0","","3","","30","","16.1","","101.52","","","","","","NA"
"-56.07","51.39","ST. ANTHONY A","8403389","2018-07-12 21:30","2018","07","12","21:30","8.6","","5.7","","82","","0.0","","1","","28","","16.1","","101.57","","","","","","NA"
"-56.07","51.39","ST. ANTHONY A","8403389","2018-07-12 22:30","2018","07","12","22:30","8.8","","5.0","","77","","0.0","","1","","26","","16.1","","101.62","","","","","","NA"
"-56.07","51.39","ST. ANTHONY A","8403389","2018-07-12 23:30","2018","07","12","23:30","8.3","","6.4","","88","","0.0","","35","","21","","16.1","","101.69","","","","","","NA"
"-56.07","51.39","ST. ANTHONY A","8403389","2018-07-13 00:30","2018","07","13","00:30","8.1","","6.4","","89","","0.0","","34","","15","","16.1","","101.70","","","","","","NA"
"-56.07","51.39","ST. ANTHONY A","8403389","2018-07-13 01:30","2018","07","13","01:30","8.2","","6.7","","90","","0.0","","30","","13","","16.1","","101.75","","","","","","NA"
"-56.07","51.39","ST. ANTHONY A","8403389","2018-07-13 02:30","2018","07","13","02:30","8.7","","6.7","","87","","0.0","","30","","18","","16.1","","101.81","","","","","","NA"
"-56.07","51.39","ST. ANTHONY A","8403389","2018-07-13 03:30","2018","07","13","03:30","8.6","","7.1","","90","","0.0","","29","","18","","16.1","","101.85","","","","","","NA"
"-56.07","51.39","ST. ANTHONY A","8403389","2018-07-13 04:30","2018","07","13","04:30","8.7","","7.2","","90","","0.0","","30","","15","","16.1","","101.93","","","","","","NA"
"-56.07","51.39","ST. ANTHONY A","8403389","2018-07-13 05:30","2018","07","13","05:30","9.4","","7.4","","87","","0.0","","26","","11","","16.1","","101.98","","","","","","NA"
"-56.07","51.39","ST. ANTHONY A","8403389","2018-07-13 06:30","2018","07","13","06:30","11.4","","7.8","","78","","0.0","","28","","18","","16.1","","102.04","","","","","","NA"
"-56.07","51.39","ST. ANTHONY A","8403389","2018-07-13 07:30","2018","07","13","07:30","13.2","","7.7","","69","","0.0","","29","","17","","16.1","","102.08","","","","","","NA"
"-56.07","51.39","ST. ANTHONY A","8403389","2018-07-13 08:30","2018","07","13","08:30","15.6","","8.0","","60","","0.0","","28","","15","","16.1","","102.11","","","","","","NA"
"-56.07","51.39","ST. ANTHONY A","8403389","2018-07-13 09:30","2018","07","13","09:30","17.8","","9.5","","58","","0.0","","28","","18","","16.1","","102.13","","","","","","NA"
"-56.07","51.39","ST. ANTHONY A","8403389","2018-07-13 10:30","2018","07","13","10:30","18.4","","9.9","","57","","0.0","","23","","24","","16.1","","102.19","","","","","","NA"
"-56.07","51.39","ST. ANTHONY A","8403389","2018-07-13 11:30","2018","07","13","11:30","19.2","","10.0","","55","","0.0","","23","","30","","16.1","","102.19","","","","","","NA"
"-56.07","51.39","ST. ANTHONY A","8403389","2018-07-13 12:30","2018","07","13","12:30","20.0","","10.3","","53","","0.0","","24","","22","","16.1","","102.14","","","","","","NA"
"-56.07","51.39","ST. ANTHONY A","8403389","2018-07-13 13:30","2018","07","13","13:30","21.1","","9.7","","48","","0.0","","23","","28","","16.1","","102.09","","","","","","NA"
"-56.07","51.39","ST. ANTHONY A","8403389","2018-07-13 14:30","2018","07","13","14:30","21.6","","9.2","","45","","0.0","","24","","32","","16.1","","102.08","","","","","","NA"
"-56.07","51.39","ST. ANTHONY A","8403389","2018-07-13 15:30","2018","07","13","15:30","21.4","","9.1","","45","","0.0","","23","","30","","16.1","","102.05","","","","","","NA"
"-56.07","51.39","ST. ANTHONY A","8403389","2018-07-13 16:30","2018","07","13","16:30","21.0","","9.3","","47","","0.0","","23","","30","","16.1","","102.03","","","","","","NA"
"-56.07","51.39","ST. ANTHONY A","8403389","2018-07-13 17:30","2018","07","13","17:30","21.0","","9.3","","47","","0.0","","25","","24","","16.1","","102.03","","","","","","NA"
"-56.07","51.39","ST. ANTHONY A","8403389","2018-07-13 18:30","2018","07","13","18:30","20.4","","9.2","","48","","0.0","","23","","22","","16.1","","102.04","","","","","","NA"
"-56.07","51.39","ST. ANTHONY A","8403389","2018-07-13 19:30","2018","07","13","19:30","18.7","","9.9","","56","","0.0","","24","","17","","16.1","","102.07","","","","","","NA"
"-56.07","51.39","ST. ANTHONY A","8403389","2018-07-13 20:30","2018","07","13","20:30","17.2","","8.8","","57","","0.0","","22","","22","","16.1","","102.08","","","","","","NA"
"-56.07","51.39","ST. ANTHONY A","8403389","2018-07-13 21:30","2018","07","13","21:30","15.4","","8.9","","65","","0.0","","19","","8","","16.1","","102.14","","","","","","NA"
"-56.07","51.39","ST. ANTHONY A","8403389","2018-07-13 22:30","2018","07","13","22:30","14.3","","8.8","","69","","0.0","","22","","8","","16.1","","102.14","","","","","","NA"
"-56.07","51.39","ST. ANTHONY A","8403389","2018-07-13 23:30","2018","07","13","23:30","13.4","","8.5","","72","","0.0","","22","","11","","16.1","","102.13","","","","","","NA"
"-56.07","51.39","ST. ANTHONY A","8403389","2018-07-14 00:30","2018","07","14","00:30","13.0","","8.8","","75","","0.0","","21","","9","","16.1","","102.11","","","","","","NA"
"-56.07","51.39","ST. ANTHONY A","8403389","2018-07-14 01:30","2018","07","14","01:30","11.9","","8.6","","80","","0.0","","21","","5","","16.1","","102.09","","","","","","NA"
"-56.07","51.39","ST. ANTHONY A","8403389","2018-07-14 02:30","2018","07","14","02:30","12.2","","8.7","","79","","0.0","","21","","9","","16.1","","102.07","","","","","","NA"
"-56.07","51.39","ST. ANTHONY A","8403389","2018-07-14 03:30","2018","07","14","03:30","11.7","","8.6","","81","","0.0","","20","","13","","16.1","","102.05","","","","","","NA"
"-56.07","51.39","ST. ANTHONY A","8403389","2018-07-14 04:30","2018","07","14","04:30","11.0","","8.4","","84","","0.0","","19","","11","","16.1","","102.04","","","","","","NA"
"-56.07","51.39","ST. ANTHONY A","8403389","2018-07-14 05:30","2018","07","14","05:30","11.4","","8.8","","84","","0.0","","19","","11","","16.1","","102.01","","","","","","NA"
"-56.07","51.39","ST. ANTHONY A","8403389","2018-07-14 06:30","2018","07","14","06:30","15.9","","10.0","","68","","0.0","","23","","24","","16.1","","102.03","","","","","","NA"
"-56.07","51.39","ST. ANTHONY A","8403389","2018-07-14 07:30","2018","07","14","07:30","16.9","","9.8","","63","","0.0","","24","","30","","16.1","","101.99","","","","","","NA"
"-56.07","51.39","ST. ANTHONY A","8403389","2018-07-14 08:30","2018","07","14","08:30","17.8","","10.4","","62","","0.0","","24","","28","","16.1","","102.01","","","","","","NA"
"-56.07","51.39","ST. ANTHONY A","8403389","2018-07-14 09:30","2018","07","14","09:30","19.6","","10.3","","55","","0.0","","23","","34","","16.1","","101.98","","","","","","NA"
"-56.07","51.39","ST. ANTHONY A","8403389","2018-07-14 10:30","2018","07","14","10:30","20.7","","9.6","","49","","0.0","","25","","32","","16.1","","101.93","","","","","","NA"
"-56.07","51.39","ST. ANTHONY A","8403389","2018-07-14 11:30","2018","07","14","11:30","21.6","","8.9","","44","","0.0","","23","","32","","16.1","","101.91","","","","","","NA"
"-56.07","51.39","ST. ANTHONY A","8403389","2018-07-14 12:30","2018","07","14","12:30","21.5","","8.3","","42","","0.0","","25","","28","","16.1","","101.87","","","","","","NA"
"-56.07","51.39","ST. ANTHONY A","8403389","2018-07-14 13:30","2018","07","14","13:30","21.7","","7.8","","40","","0.0","","22","","30","","16.1","","101.81","","","","","","NA"
"-56.07","51.39","ST. ANTHONY A","8403389","2018-07-14 14:30","2018","07","14","14:30","21.6","","8.4","","42","","0.0","","24","","28","","16.1","","101.74","","","","","","NA"
"-56.07","51.39","ST. ANTHONY A","8403389","2018-07-14 15:30","2018","07","14","15:30","19.4","","8.0","","47","","0.0","","26","","28","","16.1","","101.71","","","","","","NA"
"-56.07","51.39","ST. ANTHONY A","8403389","2018-07-14 16:30","2018","07","14","16:30","20.2","","8.3","","46","","0.0","","24","","28","","16.1","","101.69","","","","","","NA"
"-56.07","51.39","ST. ANTHONY A","8403389","2018-07-14 17:30","2018","07","14","17:30","19.1","","9.0","","52","","0.0","","24","","22","","16.1","","101.66","","","","","","NA"
"-56.07","51.39","ST. ANTHONY A","8403389","2018-07-14 18:30","2018","07","14","18:30","18.4","","8.6","","53","","0.0","","25","","18","","16.1","","101.63","","","","","","NA"
"-56.07","51.39","ST. ANTHONY A","8403389","2018-07-14 19:30","2018","07","14","19:30","16.7","","8.3","","57","","0.0","","25","","18","","16.1","","101.60","","","","","","NA"
"-56.07","51.39","ST. ANTHONY A","8403389","2018-07-14 20:30","2018","07","14","20:30","14.5","","9.0","","70","","0.0","","24","","15","","16.1","","101.61","","","","","","NA"
"-56.07","51.39","ST. ANTHONY A","8403389","2018-07-14 21:30","2018","07","14","21:30","12.0","","8.4","","79","","0.0","","18","","8","","16.1","","101.59","","","","","","NA"
"-56.07","51.39","ST. ANTHONY A","8403389","2018-07-14 22:30","2018","07","14","22:30","12.7","","8.4","","75","","0.0","","20","","11","","16.1","","101.54","","","","","","NA"
"-56.07","51.39","ST. ANTHONY A","8403389","2018-07-14 23:30","2018","07","14","23:30","11.3","","8.2","","81","","0.0","","21","","5","","16.1","","101.50","","","","","","NA"
"-56.07","51.39","ST. ANTHONY A","8403389","2018-07-15 00:30","2018","07","15","00:30","10.4","","7.8","","84","","0.0","","22","","11","","16.1","","101.48","","","","","","NA"
"-56.07","51.39","ST. ANTHONY A","8403389","2018-07-15 01:30","2018","07","15","01:30","10.3","","8.1","","86","","0.0","","24","","8","","16.1","","101.43","","","","","","NA"
"-56.07","51.39","ST. ANTHONY A","8403389","2018-07-15 02:30","2018","07","15","02:30","9.3","","7.8","","90","","0.0","","21","","9","","16.1","","101.40","","","","","","NA"
"-56.07","51.39","ST. ANTHONY A","8403389","2018-07-15 03:30","2018","07","15","03:30","8.1","","7.1","","93","","0.0","","17","","11","","16.1","","101.34","","","","","","NA"
"-56.07","51.39","ST. ANTHONY A","8403389","2018-07-15 04:30","2018","07","15","04:30","8.4","","7.3","","92","","0.0","","18","","11","","16.1","","101.35","","","","","","NA"
"-56.07","51.39","ST. ANTHONY A","8403389","2018-07-15 05:30","2018","07","15","05:30","12.0","","10.4","","90","","0.0","","23","","22","","16.1","","101.32","","","","","","NA"
"-56.07","51.39","ST. ANTHONY A","8403389","2018-07-15 06:30","2018","07","15","06:30","13.0","","11.2","","89","","0.0","","23","","18","","16.1","","101.30","","","","","","NA"
"-56.07","51.39","ST. ANTHONY A","8403389","2018-07-15 07:30","2018","07","15","07:30","14.5","","11.4","","81","","0.0","","23","","24","","16.1","","101.30","","","","","","NA"
"-56.07","51.39","ST. ANTHONY A","8403389","2018-07-15 08:30","2018","07","15","08:30","16.1","","11.9","","76","","0.0","","24","","26","","16.1","","101.25","","","","","","NA"
"-56.07","51.39","ST. ANTHONY A","8403389","2018-07-15 09:30","2018","07","15","09:30","18.6","","12.2","","66","","0.0","","25","","18","","16.1","","101.17","","","","","","NA"
"-56.07","51.39","ST. ANTHONY A","8403389","2018-07-15 10:30","2018","07","15","10:30","19.9","","12.1","","60","","0.0","","24","","24","","16.1","","101.12","","","","","","NA"
"-56.07","51.39","ST. ANTHONY A","8403389","2018-07-15 11:30","2018","07","15","11:30","20.6","","12.0","","58","","0.0","","25","","22","","16.1","","101.05","","","","","","NA"
"-56.07","51.39","ST. ANTHONY A","8403389","2018-07-15 12:30","2018","07","15","12:30","21.5","","12.4","","56","","0.0","","26","","21","","16.1","","100.98","","","","","","NA"
"-56.07","51.39","ST. ANTHONY A","8403389","2018-07-15 13:30","2018","07","15","13:30","22.1","","11.7","","51","","0.0","","25","","32","","16.1","","100.94","","","","","","NA"
"-56.07","51.39","ST. ANTHONY A","8403389","2018-07-15 14:30","2018","07","15","14:30","22.2","","11.4","","50","","0.0","","24","","30","","16.1","","100.90","","","","","","NA"
"-56.07","51.39","ST. ANTHONY A","8403389","2018-07-15 15:30","2018","07","15","15:30","22.6","","11.1","","48","","0.0","","24","","32","","16.1","","100.86","","","","","","NA"
"-56.07","51.39","ST. ANTHONY A","8403389","2018-07-15 16:30","2018","07","15","16:30","21.5","","10.3","","48","","0.0","","24","","34","","16.1","","100.87","","","","","","NA"
"-56.07","51.39","ST. ANTHONY A","8403389","2018-07-15 17:30","2018","07","15","17:30","20.6","","10.2","","51","","0.0","","24","","39","","16.1","","100.87","","","","","","NA"
"-56.07","51.39","ST. ANTHONY A","8403389","2018-07-15 18:30","2018","07","15","18:30","18.6","","11.4","","63","","0.0","","24","","32","","16.1","","100.89","","","","","","NA"
"-56.07","51.39","ST. ANTHONY A","8403389","2018-07-15 19:30","2018","07","15","19:30","16.9","","11.2","","69","","0.0","","24","","24","","16.1","","100.92","","","","","","NA"
"-56.07","51.39","ST. ANTHONY A","8403389","2018-07-15 20:30","2018","07","15","20:30","14.6","","12.3","","86","","0.0","","25","","21","","16.1","","100.95","","","","","","NA"
"-56.07","51.39","ST. ANTHONY A","8403389","2018-07-15 21:30","2018","07","15","21:30","14.1","","12.7","","91","","0.0","","22","","21","","16.1","","100.97","","","","","","NA"
"-56.07","51.39","ST. ANTHONY A","8403389","2018-07-15 22:30","2018","07","15","22:30","13.8","","12.6","","92","","0.0","","23","","17","","16.1","","100.99","","","","","","NA"
"-56.07","51.39","ST. ANTHONY A","8403389","2018-07-15 23:30","2018","07","15","23:30","13.8","","12.9","","94","","0.0","","22","","22","","16.1","","100.95","","","","","","NA"
"-56.07","51.39","ST. ANTHONY A","8403389","2018-07-16 00:30","2018","07","16","00:30","15.0","","13.9","","93","","0.0","","25","","22","","16.1","","101.00","","","","","","NA"
"-56.07","51.39","ST. ANTHONY A","8403389","2018-07-16 01:30","2018","07","16","01:30","14.3","","13.5","","95","","0.0","","23","","21","","16.1","","101.00","","","","","","NA"
"-56.07","51.39","ST. ANTHONY A","8403389","2018-07-16 02:30","2018","07","16","02:30","14.5","","13.6","","94","","0.0","","24","","22","","16.1","","101.00","","","","","","NA"
"-56.07","51.39","ST. ANTHONY A","8403389","2018-07-16 03:30","2018","07","16","03:30","14.5","","13.6","","94","","0.0","","23","","18","","16.1","","100.99","","","","","","NA"
"-56.07","51.39","ST. ANTHONY A","8403389","2018-07-16 04:30","2018","07","16","04:30","14.7","","13.6","","93","","0.0","","24","","18","","16.1","","101.03","","","","","","NA"
"-56.07","51.39","ST. ANTHONY A","8403389","2018-07-16 05:30","2018","07","16","05:30","14.2","","13.3","","94","","0.0","","24","","32","","16.1","","101.04","","","","","","NA"
"-56.07","51.39","ST. ANTHONY A","8403389","2018-07-16 06:30","2018","07","16","06:30","14.3","","13.2","","93","","0.0","","23","","28","","16.1","","101.05","","","","","","NA"
"-56.07","51.39","ST. ANTHONY A","8403389","2018-07-16 07:30","2018","07","16","07:30","14.6","","13.2","","91","","0.0","","25","","28","","16.1","","101.09","","","","","","NA"
"-56.07","51.39","ST. ANTHONY A","8403389","2018-07-16 08:30","2018","07","16","08:30","15.8","","13.4","","86","","0.0","","24","","30","","16.1","","101.12","","","","","","NA"
"-56.07","51.39","ST. ANTHONY A","8403389","2018-07-16 09:30","2018","07","16","09:30","17.5","","13.9","","79","","0.0","","24","","28","","16.1","","101.12","","","","","","NA"
"-56.07","51.39","ST. ANTHONY A","8403389","2018-07-16 10:30","2018","07","16","10:30","19.1","","13.5","","70","","0.0","","24","","26","","16.1","","101.14","","","","","","NA"
"-56.07","51.39","ST. ANTHONY A","8403389","2018-07-16 11:30","2018","07","16","11:30","20.1","","13.8","","67","","0.0","","25","","30","","16.1","","101.11","","","","","","NA"
"-56.07","51.39","ST. ANTHONY A","8403389","2018-07-16 12:30","2018","07","16","12:30","22.2","","14.4","","61","","0.0","","24","","32","","16.1","","101.05","","26","","","","NA"
"-56.07","51.39","ST. ANTHONY A","8403389","2018-07-16 13:30","2018","07","16","13:30","23.1","","14.9","","59","","0.0","","25","","34","","16.1","","101.03","","27","","","","NA"
"-56.07","51.39","ST. ANTHONY A","8403389","2018-07-16 14:30","2018","07","16","14:30","22.3","","14.2","","60","","0.0","","24","","30","","16.1","","101.03","","26","","","","NA"
"-56.07","51.39","ST. ANTHONY A","8403389","2018-07-16 15:30","2018","07","16","15:30","23.2","","14.6","","58","","0.0","","25","","28","","16.1","","101.04","","27","","","","NA"
"-56.07","51.39","ST. ANTHONY A","8403389","2018-07-16 16:30","2018","07","16","16:30","21.9","","14.3","","61","","0.0","","24","","24","","16.1","","101.03","","25","","","","NA"
"-56.07","51.39","ST. ANTHONY A","8403389","2018-07-16 17:30","2018","07","16","17:30","21.8","","13.8","","60","","0.0","","24","","26","","16.1","","101.04","","25","","","","NA"
"-56.07","51.39","ST. ANTHONY A","8403389","2018-07-16 18:30","2018","07","16","18:30","21.1","","13.3","","61","","0.0","","25","","26","","16.1","","101.00","","","","","","NA"
"-56.07","51.39","ST. ANTHONY A","8403389","2018-07-16 19:30","2018","07","16","19:30","19.6","","13.0","","65","","0.0","","23","","17","","16.1","","101.00","","","","","","NA"
"-56.07","51.39","ST. ANTHONY A","8403389","2018-07-16 20:30","2018","07","16","20:30","17.6","","12.8","","73","","0.0","","28","","8","","16.1","","101.02","","","","","","NA"
"-56.07","51.39","ST. ANTHONY A","8403389","2018-07-16 21:30","2018","07","16","21:30","16.0","","12.2","","78","","0.0","","18","","8","","16.1","","101.03","","","","","","NA"
"-56.07","51.39","ST. ANTHONY A","8403389","2018-07-16 22:30","2018","07","16","22:30","15.4","","12.4","","82","","0.0","","24","","8","","16.1","","101.02","","","","","","NA"
"-56.07","51.39","ST. ANTHONY A","8403389","2018-07-16 23:30","2018","07","16","23:30","15.6","","12.4","","81","","0.0","","22","","8","","16.1","","100.98","","","","","","NA"
"-56.07","51.39","ST. ANTHONY A","8403389","2018-07-17 00:30","2018","07","17","00:30","14.2","","11.9","","86","","0.0","","","","0","","16.1","","100.93","","","","","","NA"
"-56.07","51.39","ST. ANTHONY A","8403389","2018-07-17 01:30","2018","07","17","01:30","14.3","","11.8","","85","","0.0","","26","","5","","16.1","","100.90","","","","","","NA"
"-56.07","51.39","ST. ANTHONY A","8403389","2018-07-17 02:30","2018","07","17","02:30","14.4","","12.1","","86","","0.0","","23","","5","","16.1","","100.86","","","","","","NA"
"-56.07","51.39","ST. ANTHONY A","8403389","2018-07-17 03:30","2018","07","17","03:30","14.8","","12.7","","87","","0.0","","25","","9","","16.1","","100.85","","","","","","NA"
"-56.07","51.39","ST. ANTHONY A","8403389","2018-07-17 04:30","2018","07","17","04:30","14.7","","12.2","","85","","0.0","","22","","9","","16.1","","100.85","","","","","","NA"
"-56.07","51.39","ST. ANTHONY A","8403389","2018-07-17 05:30","2018","07","17","05:30","14.8","","12.4","","85","","0.0","","19","","5","","16.1","","100.87","","","","","","NA"
"-56.07","51.39","ST. ANTHONY A","8403389","2018-07-17 06:30","2018","07","17","06:30","15.3","","12.7","","84","","0.0","","21","","8","","16.1","","100.85","","","","","","NA"
"-56.07","51.39","ST. ANTHONY A","8403389","2018-07-17 07:30","2018","07","17","07:30","18.1","","12.6","","70","","0.0","","23","","18","","16.1","","100.85","","","","","","NA"
"-56.07","51.39","ST. ANTHONY A","8403389","2018-07-17 08:30","2018","07","17","08:30","19.4","","12.9","","66","","0.0","","25","","21","","16.1","","100.79","","","","","","NA"
"-56.07","51.39","ST. ANTHONY A","8403389","2018-07-17 09:30","2018","07","17","09:30","20.6","","12.7","","60","","0.0","","24","","17","","16.1","","100.77","","","","","","NA"
"-56.07","51.39","ST. ANTHONY A","8403389","2018-07-17 10:30","2018","07","17","10:30","22.9","","12.9","","53","","0.0","","24","","21","","16.1","","100.73","","26","","","","NA"
"-56.07","51.39","ST. ANTHONY A","8403389","2018-07-17 11:30","2018","07","17","11:30","24.6","","12.8","","47","","0.0","","23","","18","","16.1","","100.65","","27","","","","NA"
"-56.07","51.39","ST. ANTHONY A","8403389","2018-07-17 12:30","2018","07","17","12:30","25.6","","12.9","","45","","0.0","","25","","24","","16.1","","100.60","","28","","","","NA"
"-56.07","51.39","ST. ANTHONY A","8403389","2018-07-17 13:30","2018","07","17","13:30","25.2","","14.9","","52","","0.0","","24","","28","","16.1","","100.55","","29","","","","NA"
"-56.07","51.39","ST. ANTHONY A","8403389","2018-07-17 14:30","2018","07","17","14:30","25.1","","16.1","","57","","0.0","","23","","30","","16.1","","100.52","","30","","","","NA"
"-56.07","51.39","ST. ANTHONY A","8403389","2018-07-17 15:30","2018","07","17","15:30","24.8","","17.4","","63","","0.0","","25","","32","","16.1","","100.49","","30","","","","NA"
"-56.07","51.39","ST. ANTHONY A","8403389","2018-07-17 16:30","2018","07","17","16:30","23.9","","17.2","","66","","0.0","","25","","32","","16.1","","100.50","","29","","","","NA"
"-56.07","51.39","ST. ANTHONY A","8403389","2018-07-17 17:30","2018","07","17","17:30","22.2","","17.0","","72","","0.0","","24","","28","","16.1","","100.51","","27","","","","NA"
"-56.07","51.39","ST. ANTHONY A","8403389","2018-07-17 18:30","2018","07","17","18:30","21.3","","17.0","","76","","0.0","","24","","34","","16.1","","100.51","","27","","","","NA"
"-56.07","51.39","ST. ANTHONY A","8403389","2018-07-17 19:30","2018","07","17","19:30","18.9","","16.5","","86","","0.0","","24","","30","","16.1","","100.53","","","","","","NA"
"-56.07","51.39","ST. ANTHONY A","8403389","2018-07-17 20:30","2018","07","17","20:30","17.6","","16.3","","92","","0.0","","23","","22","","16.1","","100.55","","","","","","NA"
"-56.07","51.39","ST. ANTHONY A","8403389","2018-07-17 21:30","2018","07","17","21:30","17.6","","16.5","","93","","0.0","","24","","22","","16.1","","100.57","","","","","","NA"
"-56.07","51.39","ST. ANTHONY A","8403389","2018-07-17 22:30","2018","07","17","22:30","17.7","","16.7","","94","","0.0","","22","","13","","16.1","","100.55","","","","","","NA"
"-56.07","51.39","ST. ANTHONY A","8403389","2018-07-17 23:30","2018","07","17","23:30","18.2","","17.1","","93","","0.0","","23","","26","","16.1","","100.52","","","","","","NA"
"-56.07","51.39","ST. ANTHONY A","8403389","2018-07-18 00:30","2018","07","18","00:30","17.7","","16.6","","93","","0.0","","23","","24","","16.1","","100.53","","","","","","NA"
"-56.07","51.39","ST. ANTHONY A","8403389","2018-07-18 01:30","2018","07","18","01:30","16.7","","15.7","","94","","0.0","","20","","5","","16.1","","100.52","","","","","","NA"
"-56.07","51.39","ST. ANTHONY A","8403389","2018-07-18 02:30","2018","07","18","02:30","16.8","","15.3","","91","","0.0","","22","","13","","16.1","","100.51","","","","","","NA"
"-56.07","51.39","ST. ANTHONY A","8403389","2018-07-18 03:30","2018","07","18","03:30","16.2","","15.4","","95","","0.0","","15","","9","","16.1","","100.48","","","","","","NA"
"-56.07","51.39","ST. ANTHONY A","8403389","2018-07-18 04:30","2018","07","18","04:30","14.2","","14.1","","99","","0.0","","16","","13","","2.8","","100.47","","","","","","Fog"
"-56.07","51.39","ST. ANTHONY A","8403389","2018-07-18 05:30","2018","07","18","05:30","15.1","","15.1","","100","","0.0","","14","","9","","8.1","","100.44","","","","","","Fog"
"-56.07","51.39","ST. ANTHONY A","8403389","2018-07-18 06:30","2018","07","18","06:30","17.6","","16.0","","90","","0.0","","14","","17","","16.1","","100.39","","","","","","NA"
"-56.07","51.39","ST. ANTHONY A","8403389","2018-07-18 07:30","2018","07","18","07:30","19.7","","16.6","","82","","0.0","","14","","18","","16.1","","100.37","","","","","","NA"
"-56.07","51.39","ST. ANTHONY A","8403389","2018-07-18 08:30","2018","07","18","08:30","22.6","","17.2","","71","","0.0","","14","","22","","16.1","","100.30","","28","","","","NA"
"-56.07","51.39","ST. ANTHONY A","8403389","2018-07-18 09:30","2018","07","18","09:30","24.3","","16.7","","62","","0.0","","14","","18","","16.1","","100.23","","29","","","","NA"
"-56.07","51.39","ST. ANTHONY A","8403389","2018-07-18 10:30","2018","07","18","10:30","26.2","","16.5","","55","","0.0","","13","","26","","16.1","","100.17","","31","","","","NA"
"-56.07","51.39","ST. ANTHONY A","8403389","2018-07-18 11:30","2018","07","18","11:30","24.4","","15.8","","58","","0.0","","18","","15","","16.1","","100.21","","29","","","","NA"
"-56.07","51.39","ST. ANTHONY A","8403389","2018-07-18 12:30","2018","07","18","12:30","24.1","","17.7","","67","","0.0","","24","","28","","16.1","","100.21","","30","","","","NA"
"-56.07","51.39","ST. ANTHONY A","8403389","2018-07-18 13:30","2018","07","18","13:30","26.7","","19.4","","64","","0.0","","23","","30","","16.1","","100.12","","34","","","","NA"
"-56.07","51.39","ST. ANTHONY A","8403389","2018-07-18 14:30","2018","07","18","14:30","26.5","","19.3","","64","","0.0","","24","","30","","16.1","","100.11","","34","","","","NA"
"-56.07","51.39","ST. ANTHONY A","8403389","2018-07-18 15:30","2018","07","18","15:30","26.4","","19.1","","64","","0.0","","21","","41","","16.1","","100.09","","33","","","","NA"
"-56.07","51.39","ST. ANTHONY A","8403389","2018-07-18 16:30","2018","07","18","16:30","24.0","","19.2","","74","","0.0","","23","","39","","16.1","","100.15","","31","","","","NA"
"-56.07","51.39","ST. ANTHONY A","8403389","2018-07-18 17:30","2018","07","18","17:30","21.6","","18.6","","83","","0.0","","23","","45","","16.1","","100.18","","28","","","","NA"
"-56.07","51.39","ST. ANTHONY A","8403389","2018-07-18 18:30","2018","07","18","18:30","20.9","","18.6","","87","","0.0","","23","","30","","16.1","","100.18","","27","","","","NA"
"-56.07","51.39","ST. ANTHONY A","8403389","2018-07-18 19:30","2018","07","18","19:30","20.0","","19.0","","94","","0.0","","23","","18","","16.1","","100.15","","27","","","","Rain"
"-56.07","51.39","ST. ANTHONY A","8403389","2018-07-18 20:30","2018","07","18","20:30","19.8","","19.0","","95","","0.2","","19","","8","","16.1","","100.19","","","","","","NA"
"-56.07","51.39","ST. ANTHONY A","8403389","2018-07-18 21:30","2018","07","18","21:30","19.5","","19.0","","97","","1.0","","22","","5","","16.1","","100.19","","","","","","Rain"
"-56.07","51.39","ST. ANTHONY A","8403389","2018-07-18 22:30","2018","07","18","22:30","18.5","","18.1","","98","","1.8","","19","","9","","8.1","","100.20","","","","","","Moderate Rain,Fog"
"-56.07","51.39","ST. ANTHONY A","8403389","2018-07-18 23:30","2018","07","18","23:30","18.3","","17.8","","97","","1.8","","23","","17","","12.9","","100.18","","","","","","Rain"
"-56.07","51.39","ST. ANTHONY A","8403389","2018-07-19 00:30","2018","07","19","00:30","17.5","","17.2","","98","","0.0","","26","","15","","4.0","","100.17","","","","","","Fog"
"-56.07","51.39","ST. ANTHONY A","8403389","2018-07-19 01:30","2018","07","19","01:30","16.6","","16.1","","97","","0.0","","21","","13","","16.1","","100.16","","","","","","NA"
"-56.07","51.39","ST. ANTHONY A","8403389","2018-07-19 02:30","2018","07","19","02:30","16.8","","16.3","","97","","0.0","","21","","11","","16.1","","100.17","","","","","","NA"
"-56.07","51.39","ST. ANTHONY A","8403389","2018-07-19 03:30","2018","07","19","03:30","16.9","","16.4","","97","","0.0","","24","","15","","16.1","","100.25","","","","","","NA"
"-56.07","51.39","ST. ANTHONY A","8403389","2018-07-19 04:30","2018","07","19","04:30","15.6","","14.8","","95","","0.0","","24","","13","","16.1","","100.26","","","","","","NA"
"-56.07","51.39","ST. ANTHONY A","8403389","2018-07-19 05:30","2018","07","19","05:30","15.5","","14.5","","94","","0.0","","25","","17","","16.1","","100.37","","","","","","NA"
"-56.07","51.39","ST. ANTHONY A","8403389","2018-07-19 06:30","2018","07","19","06:30","15.4","","14.0","","91","","0.0","","24","","15","","16.1","","100.43","","","","","","NA"
"-56.07","51.39","ST. ANTHONY A","8403389","2018-07-19 07:30","2018","07","19","07:30","16.0","","14.4","","90","","0.0","","25","","22","","16.1","","100.46","","","","","","NA"
"-56.07","51.39","ST. ANTHONY A","8403389","2018-07-19 08:30","2018","07","19","08:30","17.5","","14.0","","80","","0.0","","24","","35","","16.1","","100.50","","","","","","NA"
"-56.07","51.39","ST. ANTHONY A","8403389","2018-07-19 09:30","2018","07","19","09:30","18.4","","14.0","","75","","0.0","","23","","35","","16.1","","100.55","","","","","","NA"
"-56.07","51.39","ST. ANTHONY A","8403389","2018-07-19 10:30","2018","07","19","10:30","18.8","","15.0","","78","","0.0","","25","","34","","16.1","","100.56","","","","","","NA"
"-56.07","51.39","ST. ANTHONY A","8403389","2018-07-19 11:30","2018","07","19","11:30","18.4","","15.1","","81","","0.0","","24","","34","","16.1","","100.61","","","","","","NA"
"-56.07","51.39","ST. ANTHONY A","8403389","2018-07-19 12:30","2018","07","19","12:30","19.4","","15.4","","78","","0.0","","24","","28","","16.1","","100.58","","","","","","NA"
"-56.07","51.39","ST. ANTHONY A","8403389","2018-07-19 13:30","2018","07","19","13:30","21.0","","15.4","","70","","0.0","","24","","28","","16.1","","100.61","","25","","","","NA"
"-56.07","51.39","ST. ANTHONY A","8403389","2018-07-19 14:30","2018","07","19","14:30","21.2","","15.2","","68","","0.0","","24","","28","","16.1","","100.66","","25","","","","NA"
"-56.07","51.39","ST. ANTHONY A","8403389","2018-07-19 15:30","2018","07","19","15:30","21.5","","15.3","","67","","0.0","","25","","30","","16.1","","100.67","","26","","","","NA"
"-56.07","51.39","ST. ANTHONY A","8403389","2018-07-19 16:30","2018","07","19","16:30","22.3","","14.9","","63","","0.0","","25","","28","","16.1","","100.68","","26","","","","NA"
"-56.07","51.39","ST. ANTHONY A","8403389","2018-07-19 17:30","2018","07","19","17:30","20.5","","14.6","","69","","0.0","","14","","13","","16.1","","100.73","","","","","","NA"
"-56.07","51.39","ST. ANTHONY A","8403389","2018-07-19 18:30","2018","07","19","18:30","19.2","","14.3","","73","","0.0","","16","","9","","16.1","","100.78","","","","","","NA"
"-56.07","51.39","ST. ANTHONY A","8403389","2018-07-19 19:30","2018","07","19","19:30","17.2","","12.9","","76","","0.0","","23","","21","","16.1","","100.88","","","","","","NA"
"-56.07","51.39","ST. ANTHONY A","8403389","2018-07-19 20:30","2018","07","19","20:30","15.0","","12.5","","85","","0.0","","24","","9","","16.1","","100.93","","","","","","NA"
"-56.07","51.39","ST. ANTHONY A","8403389","2018-07-19 21:30","2018","07","19","21:30","14.4","","13.0","","91","","0.0","","22","","8","","16.1","","100.95","","","","","","NA"
"-56.07","51.39","ST. ANTHONY A","8403389","2018-07-19 22:30","2018","07","19","22:30","13.3","","12.2","","93","","0.0","","17","","5","","16.1","","100.97","","","","","","NA"
"-56.07","51.39","ST. ANTHONY A","8403389","2018-07-19 23:30","2018","07","19","23:30","12.4","","11.5","","94","","0.0","","26","","9","","16.1","","100.97","","","","","","NA"
"-56.07","51.39","ST. ANTHONY A","8403389","2018-07-20 00:30","2018","07","20","00:30","12.4","","11.2","","92","","0.0","","21","","5","","16.1","","101.02","","","","","","NA"
"-56.07","51.39","ST. ANTHONY A","8403389","2018-07-20 01:30","2018","07","20","01:30","10.8","","9.2","","90","","0.0","","18","","8","","16.1","","101.01","","","","","","NA"
"-56.07","51.39","ST. ANTHONY A","8403389","2018-07-20 02:30","2018","07","20","02:30","11.3","","9.2","","87","","0.0","","16","","8","","16.1","","101.01","","","","","","NA"
"-56.07","51.39","ST. ANTHONY A","8403389","2018-07-20 03:30","2018","07","20","03:30","10.6","","8.7","","88","","0.0","","17","","13","","16.1","","101.02","","","","","","NA"
"-56.07","51.39","ST. ANTHONY A","8403389","2018-07-20 04:30","2018","07","20","04:30","11.4","","9.4","","87","","0.0","","19","","9","","16.1","","101.04","","","","","","NA"
"-56.07","51.39","ST. ANTHONY A","8403389","2018-07-20 05:30","2018","07","20","05:30","13.4","","10.6","","83","","0.0","","21","","9","","16.1","","101.09","","","","","","NA"
"-56.07","51.39","ST. ANTHONY A","8403389","2018-07-20 06:30","2018","07","20","06:30","15.5","","11.7","","78","","0.0","","23","","24","","16.1","","101.10","","","","","","NA"
"-56.07","51.39","ST. ANTHONY A","8403389","2018-07-20 07:30","2018","07","20","07:30","16.7","","11.7","","72","","0.0","","23","","30","","16.1","","101.11","","","","","","NA"
"-56.07","51.39","ST. ANTHONY A","8403389","2018-07-20 08:30","2018","07","20","08:30","18.4","","11.8","","65","","0.0","","24","","39","","16.1","","101.15","","","","","","NA"
"-56.07","51.39","ST. ANTHONY A","8403389","2018-07-20 09:30","2018","07","20","09:30","19.9","","12.0","","60","","0.0","","24","","26","","16.1","","101.19","","","","","","NA"
"-56.07","51.39","ST. ANTHONY A","8403389","2018-07-20 10:30","2018","07","20","10:30","21.0","","9.9","","49","","0.0","","24","","37","","16.1","","101.22","","","","","","NA"
"-56.07","51.39","ST. ANTHONY A","8403389","2018-07-20 11:30","2018","07","20","11:30","22.1","","11.0","","49","","0.0","","24","","41","","16.1","","101.22","","","","","","NA"
"-56.07","51.39","ST. ANTHONY A","8403389","2018-07-20 12:30","2018","07","20","12:30","23.1","","12.1","","50","","0.0","","23","","43","","16.1","","101.24","","25","","","","NA"
"-56.07","51.39","ST. ANTHONY A","8403389","2018-07-20 13:30","2018","07","20","13:30","23.1","","11.3","","47","","0.0","","22","","43","","16.1","","101.26","","25","","","","NA"
"-56.07","51.39","ST. ANTHONY A","8403389","2018-07-20 14:30","2018","07","20","14:30","23.9","","11.8","","46","","0.0","","23","","45","","16.1","","101.24","","26","","","","NA"
"-56.07","51.39","ST. ANTHONY A","8403389","2018-07-20 15:30","2018","07","20","15:30","24.7","","11.4","","43","","0.0","","23","","45","","16.1","","101.21","","27","","","","NA"
"-56.07","51.39","ST. ANTHONY A","8403389","2018-07-20 16:30","2018","07","20","16:30","24.7","","12.4","","46","","0.0","","23","","37","","16.1","","101.21","","27","","","","NA"
"-56.07","51.39","ST. ANTHONY A","8403389","2018-07-20 17:30","2018","07","20","17:30","23.0","","11.9","","49","","0.0","","23","","41","","16.1","","101.25","","25","","","","NA"
"-56.07","51.39","ST. ANTHONY A","8403389","2018-07-20 18:30","2018","07","20","18:30","21.4","","13.2","","59","","0.0","","24","","41","","16.1","","101.27","","","","","","NA"
"-56.07","51.39","ST. ANTHONY A","8403389","2018-07-20 19:30","2018","07","20","19:30","20.4","","13.3","","64","","0.0","","24","","24","","16.1","","101.30","","","","","","NA"
"-56.07","51.39","ST. ANTHONY A","8403389","2018-07-20 20:30","2018","07","20","20:30","19.6","","13.4","","67","","0.0","","24","","30","","16.1","","101.37","","","","","","NA"
"-56.07","51.39","ST. ANTHONY A","8403389","2018-07-20 21:30","2018","07","20","21:30","18.4","","13.1","","71","","0.0","","25","","28","","16.1","","101.40","","","","","","NA"
"-56.07","51.39","ST. ANTHONY A","8403389","2018-07-20 22:30","2018","07","20","22:30","18.0","","13.4","","74","","0.0","","25","","28","","16.1","","101.41","","","","","","NA"
"-56.07","51.39","ST. ANTHONY A","8403389","2018-07-20 23:30","2018","07","20","23:30","17.0","","13.8","","81","","0.0","","26","","34","","16.1","","101.47","","","","","","NA"
"-56.07","51.39","ST. ANTHONY A","8403389","2018-07-21 00:30","2018","07","21","00:30","15.8","","13.7","","87","","0.0","","26","","35","","16.1","","101.51","","","","","","NA"
"-56.07","51.39","ST. ANTHONY A","8403389","2018-07-21 01:30","2018","07","21","01:30","15.2","","13.6","","90","","0.0","","25","","26","","16.1","","101.56","","","","","","NA"
"-56.07","51.39","ST. ANTHONY A","8403389","2018-07-21 02:30","2018","07","21","02:30","15.0","","13.6","","91","","0.0","","25","","21","","16.1","","101.68","","","","","","NA"
"-56.07","51.39","ST. ANTHONY A","8403389","2018-07-21 03:30","2018","07","21","03:30","14.9","","13.5","","91","","0.0","","25","","24","","16.1","","101.75","","","","","","NA"
"-56.07","51.39","ST. ANTHONY A","8403389","2018-07-21 04:30","2018","07","21","04:30","15.1","","13.7","","91","","0.0","","25","","18","","16.1","","101.82","","","","","","NA"
"-56.07","51.39","ST. ANTHONY A","8403389","2018-07-21 05:30","2018","07","21","05:30","15.4","","13.8","","90","","0.0","","25","","17","","16.1","","101.93","","","","","","NA"
"-56.07","51.39","ST. ANTHONY A","8403389","2018-07-21 06:30","2018","07","21","06:30","16.6","","14.1","","85","","0.0","","25","","21","","16.1","","101.93","","","","","","NA"
"-56.07","51.39","ST. ANTHONY A","8403389","2018-07-21 07:30","2018","07","21","07:30","18.0","","14.5","","80","","0.0","","30","","5","","16.1","","102.02","","","","","","NA"
"-56.07","51.39","ST. ANTHONY A","8403389","2018-07-21 08:30","2018","07","21","08:30","18.9","","14.9","","77","","0.0","","","M","4","","16.1","","102.06","","","","","","NA"
"-56.07","51.39","ST. ANTHONY A","8403389","2018-07-21 09:30","2018","07","21","09:30","20.6","","15.7","","73","","0.0","","11","","13","","16.1","","102.06","","25","","","","NA"
"-56.07","51.39","ST. ANTHONY A","8403389","2018-07-21 10:30","2018","07","21","10:30","19.3","","14.2","","72","","0.0","","12","","21","","16.1","","102.14","","","","","","NA"
"-56.07","51.39","ST. ANTHONY A","8403389","2018-07-21 11:30","2018","07","21","11:30","18.9","","14.0","","73","","0.0","","12","","24","","16.1","","102.14","","","","","","NA"
"-56.07","51.39","ST. ANTHONY A","8403389","2018-07-21 12:30","2018","07","21","12:30","18.6","","13.7","","73","","0.0","","11","","26","","16.1","","102.17","","","","","","NA"
"-56.07","51.39","ST. ANTHONY A","8403389","2018-07-21 13:30","2018","07","21","13:30","18.4","","13.0","","70","","0.0","","11","","22","","16.1","","102.16","","","","","","NA"
"-56.07","51.39","ST. ANTHONY A","8403389","2018-07-21 14:30","2018","07","21","14:30","18.1","","11.5","","65","","0.0","","11","","30","","16.1","","102.13","","","","","","NA"
"-56.07","51.39","ST. ANTHONY A","8403389","2018-07-21 15:30","2018","07","21","15:30","19.3","","11.9","","62","","0.0","","10","","21","","16.1","","102.17","","","","","","NA"
"-56.07","51.39","ST. ANTHONY A","8403389","2018-07-21 16:30","2018","07","21","16:30","20.0","","11.8","","59","","0.0","","12","","24","","16.1","","102.14","","","","","","NA"
"-56.07","51.39","ST. ANTHONY A","8403389","2018-07-21 17:30","2018","07","21","17:30","19.1","","11.5","","61","","0.0","","12","","22","","16.1","","102.10","","","","","","NA"
"-56.07","51.39","ST. ANTHONY A","8403389","2018-07-21 18:30","2018","07","21","18:30","18.7","","11.6","","63","","0.0","","15","","11","","16.1","","102.15","","","","","","NA"
"-56.07","51.39","ST. ANTHONY A","8403389","2018-07-21 19:30","2018","07","21","19:30","16.7","","11.3","","70","","0.0","","18","","8","","16.1","","102.16","","","","","","NA"
"-56.07","51.39","ST. ANTHONY A","8403389","2018-07-21 20:30","2018","07","21","20:30","14.6","","11.1","","79","","0.0","","18","","9","","16.1","","102.18","","","","","","NA"
"-56.07","51.39","ST. ANTHONY A","8403389","2018-07-21 21:30","2018","07","21","21:30","17.0","","13.2","","78","","0.0","","24","","21","","16.1","","102.25","","","","","","NA"
"-56.07","51.39","ST. ANTHONY A","8403389","2018-07-21 22:30","2018","07","21","22:30","16.1","","13.3","","83","","0.0","","25","","9","","16.1","","102.24","","","","","","NA"
"-56.07","51.39","ST. ANTHONY A","8403389","2018-07-21 23:30","2018","07","21","23:30","14.5","","12.5","","88","","0.0","","19","","4","","16.1","","102.14","","","","","","NA"
"-56.07","51.39","ST. ANTHONY A","8403389","2018-07-22 00:30","2018","07","22","00:30","15.2","","13.0","","87","","0.0","","21","","5","","16.1","","102.12","","","","","","NA"
"-56.07","51.39","ST. ANTHONY A","8403389","2018-07-22 01:30","2018","07","22","01:30","16.1","","13.6","","85","","0.0","","20","","17","","16.1","","102.01","","","","","","NA"
"-56.07","51.39","ST. ANTHONY A","8403389","2018-07-22 02:30","2018","07","22","02:30","17.2","","14.1","","82","","0.0","","22","","17","","16.1","","102.00","","","","","","NA"
"-56.07","51.39","ST. ANTHONY A","8403389","2018-07-22 03:30","2018","07","22","03:30","17.7","","16.0","","90","","0.0","","25","","11","","16.1","","102.00","","","","","","NA"
"-56.07","51.39","ST. ANTHONY A","8403389","2018-07-22 04:30","2018","07","22","04:30","16.9","","15.3","","90","","0.0","","","M","8","","16.1","","102.03","","","","","","NA"
"-56.07","51.39","ST. ANTHONY A","8403389","2018-07-22 05:30","2018","07","22","05:30","15.9","","15.0","","94","","0.0","","36","","13","","16.1","","102.11","","","","","","NA"
"-56.07","51.39","ST. ANTHONY A","8403389","2018-07-22 06:30","2018","07","22","06:30","16.6","","15.7","","94","","0.0","","27","","8","","16.1","","102.11","","","","","","NA"
"-56.07","51.39","ST. ANTHONY A","8403389","2018-07-22 07:30","2018","07","22","07:30","18.6","","16.2","","86","","0.0","","25","","15","","16.1","","102.11","","","","","","NA"
"-56.07","51.39","ST. ANTHONY A","8403389","2018-07-22 08:30","2018","07","22","08:30","19.9","","17.5","","86","","0.0","","24","","17","","16.1","","102.12","","","","","","NA"
"-56.07","51.39","ST. ANTHONY A","8403389","2018-07-22 09:30","2018","07","22","09:30","22.2","","17.8","","76","","0.0","","26","","13","","16.1","","102.11","","28","","","","NA"
"-56.07","51.39","ST. ANTHONY A","8403389","2018-07-22 10:30","2018","07","22","10:30","23.2","","17.9","","72","","0.0","","27","","13","","16.1","","102.09","","29","","","","NA"
"-56.07","51.39","ST. ANTHONY A","8403389","2018-07-22 11:30","2018","07","22","11:30","23.5","","18.4","","73","","0.0","","28","","13","","16.1","","102.10","","30","","","","NA"
"-56.07","51.39","ST. ANTHONY A","8403389","2018-07-22 12:30","2018","07","22","12:30","24.2","","18.9","","72","","0.0","","25","","11","","16.1","","102.06","","31","","","","NA"
"-56.07","51.39","ST. ANTHONY A","8403389","2018-07-22 13:30","2018","07","22","13:30","21.7","","16.8","","73","","0.0","","3","","21","","16.1","","102.07","","27","","","","NA"
"-56.07","51.39","ST. ANTHONY A","8403389","2018-07-22 14:30","2018","07","22","14:30","20.5","","15.9","","75","","0.0","","2","","13","","16.1","","102.10","","25","","","","NA"
"-56.07","51.39","ST. ANTHONY A","8403389","2018-07-22 15:30","2018","07","22","15:30","20.4","","15.9","","75","","0.0","","10","","9","","16.1","","102.09","","25","","","","NA"
"-56.07","51.39","ST. ANTHONY A","8403389","2018-07-22 16:30","2018","07","22","16:30","18.6","","14.7","","78","","0.0","","15","","21","","16.1","","102.09","","","","","","NA"
"-56.07","51.39","ST. ANTHONY A","8403389","2018-07-22 17:30","2018","07","22","17:30","19.0","","15.1","","78","","0.0","","13","","18","","16.1","","102.05","","","","","","NA"
"-56.07","51.39","ST. ANTHONY A","8403389","2018-07-22 18:30","2018","07","22","18:30","18.5","","15.1","","80","","0.0","","13","","8","","16.1","","102.01","","","","","","NA"
"-56.07","51.39","ST. ANTHONY A","8403389","2018-07-22 19:30","2018","07","22","19:30","17.0","","14.5","","85","","0.0","","15","","4","","16.1","","101.99","","","","","","NA"
"-56.07","51.39","ST. ANTHONY A","8403389","2018-07-22 20:30","2018","07","22","20:30","15.3","","14.1","","92","","0.0","","14","","9","","16.1","","102.04","","","","","","NA"
"-56.07","51.39","ST. ANTHONY A","8403389","2018-07-22 21:30","2018","07","22","21:30","15.4","","14.8","","96","","0.0","","13","","9","","16.1","","102.03","","","","","","NA"
"-56.07","51.39","ST. ANTHONY A","8403389","2018-07-22 22:30","2018","07","22","22:30","15.3","","14.5","","95","","0.0","","17","","9","","16.1","","102.04","","","","","","NA"
"-56.07","51.39","ST. ANTHONY A","8403389","2018-07-22 23:30","2018","07","22","23:30","13.5","","13.0","","97","","0.0","","19","","11","","16.1","","101.98","","","","","","NA"
"-56.07","51.39","ST. ANTHONY A","8403389","2018-07-23 00:30","2018","07","23","00:30","13.1","","12.8","","98","","0.0","","17","","13","","16.1","","101.91","","","","","","NA"
"-56.07","51.39","ST. ANTHONY A","8403389","2018-07-23 01:30","2018","07","23","01:30","14.1","","13.6","","97","","0.0","","18","","11","","16.1","","101.82","","","","","","NA"
"-56.07","51.39","ST. ANTHONY A","8403389","2018-07-23 02:30","2018","07","23","02:30","16.5","","16.0","","97","","0.0","","24","","18","","16.1","","101.80","","","","","","NA"
"-56.07","51.39","ST. ANTHONY A","8403389","2018-07-23 03:30","2018","07","23","03:30","16.1","","15.6","","97","","0.0","","25","","18","","16.1","","101.75","","","","","","NA"
"-56.07","51.39","ST. ANTHONY A","8403389","2018-07-23 04:30","2018","07","23","04:30","16.0","","15.4","","96","","0.0","","24","","22","","16.1","","101.74","","","","","","NA"
"-56.07","51.39","ST. ANTHONY A","8403389","2018-07-23 05:30","2018","07","23","05:30","16.4","","15.8","","96","","0.0","","22","","18","","16.1","","101.67","","","","","","NA"
"-56.07","51.39","ST. ANTHONY A","8403389","2018-07-23 06:30","2018","07","23","06:30","16.9","","15.9","","94","","0.0","","21","","22","","16.1","","101.58","","","","","","NA"
"-56.07","51.39","ST. ANTHONY A","8403389","2018-07-23 07:30","2018","07","23","07:30","16.9","","15.8","","93","","0.0","","24","","30","","16.1","","101.56","","","","","","NA"
"-56.07","51.39","ST. ANTHONY A","8403389","2018-07-23 08:30","2018","07","23","08:30","17.4","","15.9","","91","","0.0","","26","","35","","16.1","","101.53","","","","","","NA"
"-56.07","51.39","ST. ANTHONY A","8403389","2018-07-23 09:30","2018","07","23","09:30","15.3","","14.7","","96","","0.0","","25","","35","","11.3","","101.57","","","","","","NA"
"-56.07","51.39","ST. ANTHONY A","8403389","2018-07-23 10:30","2018","07","23","10:30","16.9","","15.5","","92","","0.0","","25","","30","","16.1","","101.55","","","","","","NA"
"-56.07","51.39","ST. ANTHONY A","8403389","2018-07-23 11:30","2018","07","23","11:30","18.1","","16.1","","88","","0.0","","25","","24","","16.1","","101.52","","","","","","NA"
"-56.07","51.39","ST. ANTHONY A","8403389","2018-07-23 12:30","2018","07","23","12:30","17.6","","16.0","","90","","0.0","","24","","28","","16.1","","101.51","","","","","","NA"
"-56.07","51.39","ST. ANTHONY A","8403389","2018-07-23 13:30","2018","07","23","13:30","19.3","","16.8","","85","","0.0","","24","","18","","16.1","","101.55","","","","","","NA"
"-56.07","51.39","ST. ANTHONY A","8403389","2018-07-23 14:30","2018","07","23","14:30","14.8","","14.7","","100","","0.8","","","M","15","","9.7","","101.73","","","","","","Moderate Rain,Fog"
"-56.07","51.39","ST. ANTHONY A","8403389","2018-07-23 15:30","2018","07","23","15:30","12.6","","11.6","","93","","2.0","","1","","28","","16.1","","101.86","","","","","","Rain"
"-56.07","51.39","ST. ANTHONY A","8403389","2018-07-23 16:30","2018","07","23","16:30","12.5","","11.5","","93","","0.0","","2","","24","","16.1","","101.97","","","","","","NA"
"-56.07","51.39","ST. ANTHONY A","8403389","2018-07-23 17:30","2018","07","23","17:30","13.0","","11.3","","89","","0.0","","2","","24","","16.1","","102.07","","","","","","NA"
"-56.07","51.39","ST. ANTHONY A","8403389","2018-07-23 18:30","2018","07","23","18:30","12.7","","10.9","","89","","0.0","","4","","21","","16.1","","102.12","","","","","","NA"
"-56.07","51.39","ST. ANTHONY A","8403389","2018-07-23 19:30","2018","07","23","19:30","11.4","","9.8","","90","","0.0","","3","","17","","16.1","","102.21","","","","","","NA"
"-56.07","51.39","ST. ANTHONY A","8403389","2018-07-23 20:30","2018","07","23","20:30","10.1","","9.3","","95","","0.0","","6","","8","","16.1","","102.29","","","","","","NA"
"-56.07","51.39","ST. ANTHONY A","8403389","2018-07-23 21:30","2018","07","23","21:30","9.1","","8.5","","96","","0.0","","14","","9","","16.1","","102.33","","","","","","NA"
"-56.07","51.39","ST. ANTHONY A","8403389","2018-07-23 22:30","2018","07","23","22:30","9.4","","9.0","","98","","0.0","","18","","11","","16.1","","102.33","","","","","","NA"
"-56.07","51.39","ST. ANTHONY A","8403389","2018-07-23 23:30","2018","07","23","23:30","8.6","","8.3","","98","","0.0","","18","","13","","16.1","","102.37","","","","","","NA"
"-56.07","51.39","ST. ANTHONY A","8403389","2018-07-24 00:30","2018","07","24","00:30","8.0","","7.9","","99","","0.0","","18","","11","","16.1","","102.39","","","","","","NA"
"-56.07","51.39","ST. ANTHONY A","8403389","2018-07-24 01:30","2018","07","24","01:30","7.7","","7.7","","100","","0.0","","16","","13","","16.1","","102.36","","","","","","NA"
"-56.07","51.39","ST. ANTHONY A","8403389","2018-07-24 02:30","2018","07","24","02:30","8.3","","8.3","","100","","0.0","","15","","13","","11.3","","102.34","","","","","","NA"
"-56.07","51.39","ST. ANTHONY A","8403389","2018-07-24 03:30","2018","07","24","03:30","7.7","","7.7","","100","","0.0","","15","","13","","4.0","","102.29","","","","","","Fog"
"-56.07","51.39","ST. ANTHONY A","8403389","2018-07-24 04:30","2018","07","24","04:30","8.8","","8.7","","100","","0.0","","15","","11","","16.1","","102.27","","","","","","NA"
"-56.07","51.39","ST. ANTHONY A","8403389","2018-07-24 05:30","2018","07","24","05:30","10.5","","10.2","","98","","0.0","","15","","15","","16.1","","102.25","","","","","","NA"
"-56.07","51.39","ST. ANTHONY A","8403389","2018-07-24 06:30","2018","07","24","06:30","11.3","","10.6","","95","","0.0","","14","","15","","16.1","","102.23","","","","","","NA"
"-56.07","51.39","ST. ANTHONY A","8403389","2018-07-24 07:30","2018","07","24","07:30","12.6","","11.5","","93","","0.0","","15","","17","","16.1","","102.20","","","","","","NA"
"-56.07","51.39","ST. ANTHONY A","8403389","2018-07-24 08:30","2018","07","24","08:30","13.4","","12.2","","92","","0.0","","15","","13","","16.1","","102.16","","","","","","NA"
"-56.07","51.39","ST. ANTHONY A","8403389","2018-07-24 09:30","2018","07","24","09:30","16.5","","14.0","","85","","0.0","","15","","11","","16.1","","102.07","","","","","","NA"
"-56.07","51.39","ST. ANTHONY A","8403389","2018-07-24 10:30","2018","07","24","10:30","18.8","","15.1","","79","","0.0","","16","","15","","16.1","","101.96","","","","","","NA"
"-56.07","51.39","ST. ANTHONY A","8403389","2018-07-24 11:30","2018","07","24","11:30","20.4","","17.0","","80","","0.0","","23","","26","","16.1","","101.91","","26","","","","NA"
"-56.07","51.39","ST. ANTHONY A","8403389","2018-07-24 12:30","2018","07","24","12:30","20.5","","17.4","","82","","0.0","","23","","28","","16.1","","101.83","","26","","","","NA"
"-56.07","51.39","ST. ANTHONY A","8403389","2018-07-24 13:30","2018","07","24","13:30","21.3","","17.5","","79","","0.0","","24","","34","","16.1","","101.74","","27","","","","NA"
"-56.07","51.39","ST. ANTHONY A","8403389","2018-07-24 14:30","2018","07","24","14:30","22.1","","18.0","","77","","0.0","","24","","34","","16.1","","101.65","","28","","","","NA"
"-56.07","51.39","ST. ANTHONY A","8403389","2018-07-24 15:30","2018","07","24","15:30","21.1","","17.9","","82","","0.0","","24","","30","","16.1","","101.58","","27","","","","NA"
"-56.07","51.39","ST. ANTHONY A","8403389","2018-07-24 16:30","2018","07","24","16:30","20.7","","17.7","","83","","0.0","","24","","37","","16.1","","101.52","","26","","","","NA"
"-56.07","51.39","ST. ANTHONY A","8403389","2018-07-24 17:30","2018","07","24","17:30","20.1","","18.2","","88","","0.0","","24","","26","","16.1","","101.43","","26","","","","NA"
"-56.07","51.39","ST. ANTHONY A","8403389","2018-07-24 18:30","2018","07","24","18:30","19.0","","18.2","","95","","0.0","","23","","21","","16.1","","101.40","","","","","","NA"
"-56.07","51.39","ST. ANTHONY A","8403389","2018-07-24 19:30","2018","07","24","19:30","18.1","","17.6","","97","","0.0","","24","","18","","6.4","","101.33","","","","","","Fog"
"-56.07","51.39","ST. ANTHONY A","8403389","2018-07-24 20:30","2018","07","24","20:30","17.4","","17.1","","98","","0.0","","25","","22","","3.2","","101.29","","","","","","Rain,Fog"
"-56.07","51.39","ST. ANTHONY A","8403389","2018-07-24 21:30","2018","07","24","21:30","17.2","","16.9","","98","","0.0","","25","","24","","4.8","","101.22","","","","","","Rain,Fog"
"-56.07","51.39","ST. ANTHONY A","8403389","2018-07-24 22:30","2018","07","24","22:30","17.7","","17.5","","99","","0.5","","24","","18","","6.4","","101.15","","","","","","Rain,Fog"
"-56.07","51.39","ST. ANTHONY A","8403389","2018-07-24 23:30","2018","07","24","23:30","17.9","","17.6","","98","","0.2","","24","","24","","16.1","","101.06","","","","","","Rain"
"-56.07","51.39","ST. ANTHONY A","8403389","2018-07-25 00:30","2018","07","25","00:30","18.1","","17.8","","98","","0.5","","23","","24","","16.1","","100.97","","","","","","NA"
"-56.07","51.39","ST. ANTHONY A","8403389","2018-07-25 01:30","2018","07","25","01:30","18.2","","17.9","","98","","0.2","","23","","24","","4.8","","100.86","","","","","","Rain,Fog"
"-56.07","51.39","ST. ANTHONY A","8403389","2018-07-25 02:30","2018","07","25","02:30","19.1","","18.6","","97","","0.0","","24","","32","","16.1","","100.76","","","","","","NA"
"-56.07","51.39","ST. ANTHONY A","8403389","2018-07-25 03:30","2018","07","25","03:30","18.6","","18.0","","96","","0.0","","23","","37","","16.1","","100.68","","","","","","NA"
"-56.07","51.39","ST. ANTHONY A","8403389","2018-07-25 04:30","2018","07","25","04:30","18.2","","17.4","","95","","0.0","","23","","32","","16.1","","100.63","","","","","","NA"
"-56.07","51.39","ST. ANTHONY A","8403389","2018-07-25 05:30","2018","07","25","05:30","18.0","","17.2","","95","","0.0","","24","","34","","16.1","","100.65","","","","","","NA"
"-56.07","51.39","ST. ANTHONY A","8403389","2018-07-25 06:30","2018","07","25","06:30","17.8","","17.0","","95","","0.0","","25","","34","","14.5","","100.68","","","","","","NA"
"-56.07","51.39","ST. ANTHONY A","8403389","2018-07-25 07:30","2018","07","25","07:30","13.5","","13.2","","98","","0.8","","33","","17","","16.1","","100.86","","","","","","Rain"
"-56.07","51.39","ST. ANTHONY A","8403389","2018-07-25 08:30","2018","07","25","08:30","12.2","","11.9","","98","","0.2","","36","","11","","16.1","","100.96","","","","","","Rain"
"-56.07","51.39","ST. ANTHONY A","8403389","2018-07-25 09:30","2018","07","25","09:30","11.8","","11.7","","100","","0.0","","1","","13","","8.1","","100.99","","","","","","Rain,Fog"
"-56.07","51.39","ST. ANTHONY A","8403389","2018-07-25 10:30","2018","07","25","10:30","11.0","","11.0","","100","","0.0","","2","","18","","1.6","","101.03","","","","","","Fog"
"-56.07","51.39","ST. ANTHONY A","8403389","2018-07-25 11:30","2018","07","25","11:30","10.2","","10.1","","99","","0.2","","3","","24","","3.6","","101.05","","","","","","Rain,Fog"
"-56.07","51.39","ST. ANTHONY A","8403389","2018-07-25 12:30","2018","07","25","12:30","10.6","","10.5","","99","","0.2","","1","","18","","6.4","","101.03","","","","","","Rain,Fog"
"-56.07","51.39","ST. ANTHONY A","8403389","2018-07-25 13:30","2018","07","25","13:30","10.9","","10.8","","99","","0.2","","3","","17","","4.0","","101.06","","","","","","Rain,Fog"
"-56.07","51.39","ST. ANTHONY A","8403389","2018-07-25 14:30","2018","07","25","14:30","11.2","","11.1","","99","","0.2","","3","","13","","4.8","","101.07","","","","","","Rain,Fog"
"-56.07","51.39","ST. ANTHONY A","8403389","2018-07-25 15:30","2018","07","25","15:30","11.8","","11.7","","99","","0.0","","15","","13","","6.4","","101.04","","","","","","Rain,Fog"
"-56.07","51.39","ST. ANTHONY A","8403389","2018-07-25 16:30","2018","07","25","16:30","11.6","","11.4","","98","","0.2","","14","","13","","16.1","","100.99","","","","","","NA"
"-56.07","51.39","ST. ANTHONY A","8403389","2018-07-25 17:30","2018","07","25","17:30","11.2","","10.9","","98","","0.0","","12","","21","","16.1","","100.91","","","","","","NA"
"-56.07","51.39","ST. ANTHONY A","8403389","2018-07-25 18:30","2018","07","25","18:30","10.8","","10.5","","98","","0.0","","14","","24","","16.1","","100.94","","","","","","NA"
"-56.07","51.39","ST. ANTHONY A","8403389","2018-07-25 19:30","2018","07","25","19:30","11.2","","11.1","","99","","0.0","","13","","11","","16.1","","100.90","","","","","","NA"
"-56.07","51.39","ST. ANTHONY A","8403389","2018-07-25 20:30","2018","07","25","20:30","12.3","","12.3","","100","","0.0","","14","","11","","4.8","","100.87","","","","","","Fog"
"-56.07","51.39","ST. ANTHONY A","8403389","2018-07-25 21:30","2018","07","25","21:30","12.5","","12.4","","99","","0.0","","17","","13","","9.7","","100.85","","","","","","Fog"
"-56.07","51.39","ST. ANTHONY A","8403389","2018-07-25 22:30","2018","07","25","22:30","11.8","","11.7","","99","","0.0","","16","","18","","14.5","","100.79","","","","","","NA"
"-56.07","51.39","ST. ANTHONY A","8403389","2018-07-25 23:30","2018","07","25","23:30","12.0","","11.8","","99","","0.0","","16","","15","","14.5","","100.74","","","","","","NA"
"-56.07","51.39","ST. ANTHONY A","8403389","2018-07-26 00:30","2018","07","26","00:30","12.4","","12.4","","100","","0.0","","21","","9","","12.9","","100.69","","","","","","NA"
"-56.07","51.39","ST. ANTHONY A","8403389","2018-07-26 01:30","2018","07","26","01:30","18.7","","17.9","","95","","0.0","","24","","22","","16.1","","100.65","","","","","","NA"
"-56.07","51.39","ST. ANTHONY A","8403389","2018-07-26 02:30","2018","07","26","02:30","18.8","","17.7","","93","","0.0","","23","","22","","16.1","","100.63","","","","","","NA"
"-56.07","51.39","ST. ANTHONY A","8403389","2018-07-26 03:30","2018","07","26","03:30","18.8","","17.5","","92","","0.0","","23","","26","","16.1","","100.60","","","","","","NA"
"-56.07","51.39","ST. ANTHONY A","8403389","2018-07-26 04:30","2018","07","26","04:30","18.7","","17.3","","91","","0.0","","23","","28","","16.1","","100.59","","","","","","NA"
"-56.07","51.39","ST. ANTHONY A","8403389","2018-07-26 05:30","2018","07","26","05:30","19.1","","17.5","","90","","0.0","","24","","28","","16.1","","100.57","","","","","","NA"
"-56.07","51.39","ST. ANTHONY A","8403389","2018-07-26 06:30","2018","07","26","06:30","20.3","","18.1","","87","","0.0","","23","","37","","16.1","","100.57","","26","","","","NA"
"-56.07","51.39","ST. ANTHONY A","8403389","2018-07-26 07:30","2018","07","26","07:30","20.9","","18.5","","86","","0.0","","24","","43","","16.1","","100.61","","27","","","","NA"
"-56.07","51.39","ST. ANTHONY A","8403389","2018-07-26 08:30","2018","07","26","08:30","20.9","","18.7","","87","","0.0","","23","","39","","16.1","","100.59","","27","","","","NA"
"-56.07","51.39","ST. ANTHONY A","8403389","2018-07-26 09:30","2018","07","26","09:30","20.4","","18.6","","89","","0.0","","23","","43","","16.1","","100.58","","27","","","","NA"
"-56.07","51.39","ST. ANTHONY A","8403389","2018-07-26 10:30","2018","07","26","10:30","20.9","","18.9","","88","","0.0","","23","","46","","16.1","","100.56","","28","","","","NA"
"-56.07","51.39","ST. ANTHONY A","8403389","2018-07-26 11:30","2018","07","26","11:30","21.0","","19.0","","88","","0.0","","22","","45","","16.1","","100.55","","28","","","","NA"
"-56.07","51.39","ST. ANTHONY A","8403389","2018-07-26 12:30","2018","07","26","12:30","21.3","","19.1","","87","","0.0","","22","","50","","16.1","","100.49","","28","","","","NA"
"-56.07","51.39","ST. ANTHONY A","8403389","2018-07-26 13:30","2018","07","26","13:30","22.0","","19.4","","85","","0.0","","23","","54","","16.1","","100.47","","29","","","","NA"
"-56.07","51.39","ST. ANTHONY A","8403389","2018-07-26 14:30","2018","07","26","14:30","22.2","","19.5","","85","","0.0","","23","","55","","16.1","","100.44","","29","","","","NA"
"-56.07","51.39","ST. ANTHONY A","8403389","2018-07-26 15:30","2018","07","26","15:30","22.0","","19.3","","84","","0.0","","22","","59","","16.1","","100.43","","29","","","","NA"
"-56.07","51.39","ST. ANTHONY A","8403389","2018-07-26 16:30","2018","07","26","16:30","21.5","","19.4","","88","","0.0","","23","","45","","16.1","","100.45","","29","","","","NA"
"-56.07","51.39","ST. ANTHONY A","8403389","2018-07-26 17:30","2018","07","26","17:30","21.7","","19.5","","87","","0.0","","23","","50","","14.5","","100.40","","29","","","","NA"
"-56.07","51.39","ST. ANTHONY A","8403389","2018-07-26 18:30","2018","07","26","18:30","21.6","","19.7","","89","","0.0","","22","","39","","16.1","","100.38","","29","","","","NA"
"-56.07","51.39","ST. ANTHONY A","8403389","2018-07-26 19:30","2018","07","26","19:30","20.6","","19.3","","92","","0.0","","23","","46","","14.5","","100.36","","28","","","","NA"
"-56.07","51.39","ST. ANTHONY A","8403389","2018-07-26 20:30","2018","07","26","20:30","20.1","","19.0","","93","","0.0","","23","","43","","9.7","","100.36","","27","","","","Fog"
"-56.07","51.39","ST. ANTHONY A","8403389","2018-07-26 21:30","2018","07","26","21:30","19.6","","18.8","","95","","0.2","","23","","37","","16.1","","100.38","","","","","","Rain"
"-56.07","51.39","ST. ANTHONY A","8403389","2018-07-26 22:30","2018","07","26","22:30","19.0","","18.4","","96","","0.2","","23","","43","","9.7","","100.34","","","","","","Rain,Fog"
"-56.07","51.39","ST. ANTHONY A","8403389","2018-07-26 23:30","2018","07","26","23:30","18.6","","18.0","","96","","0.2","","24","","32","","16.1","","100.33","","","","","","Rain"
"-56.07","51.39","ST. ANTHONY A","8403389","2018-07-27 00:30","2018","07","27","00:30","18.2","","17.6","","96","","0.2","","24","","32","","16.1","","100.30","","","","","","NA"
"-56.07","51.39","ST. ANTHONY A","8403389","2018-07-27 01:30","2018","07","27","01:30","18.2","","17.6","","96","","0.2","","23","","35","","16.1","","100.25","","","","","","NA"
"-56.07","51.39","ST. ANTHONY A","8403389","2018-07-27 02:30","2018","07","27","02:30","18.0","","17.7","","98","","0.0","","24","","24","","16.1","","100.26","","","","","","NA"
"-56.07","51.39","ST. ANTHONY A","8403389","2018-07-27 03:30","2018","07","27","03:30","17.9","","17.4","","97","","1.0","","23","","21","","16.1","","100.27","","","","","","Rain"
"-56.07","51.39","ST. ANTHONY A","8403389","2018-07-27 04:30","2018","07","27","04:30","17.7","","17.4","","98","","4.2","","24","","9","","14.5","","100.22","","","","","","Moderate Rain"
"-56.07","51.39","ST. ANTHONY A","8403389","2018-07-27 05:30","2018","07","27","05:30","18.2","","17.9","","98","","2.8","","28","","9","","6.4","","100.23","","","","","","Moderate Rain,Fog"
"-56.07","51.39","ST. ANTHONY A","8403389","2018-07-27 06:30","2018","07","27","06:30","15.2","","15.0","","99","","1.8","","36","","13","","2.8","","100.25","","","","","","Rain,Fog"
"-56.07","51.39","ST. ANTHONY A","8403389","2018-07-27 07:30","2018","07","27","07:30","14.4","","14.3","","99","","1.2","","1","","11","","4.8","","100.32","","","","","","Rain,Fog"
"-56.07","51.39","ST. ANTHONY A","8403389","2018-07-27 08:30","2018","07","27","08:30","11.5","","11.0","","97","","3.0","","4","","30","","14.5","","100.41","","","","","","Moderate Rain"
"-56.07","51.39","ST. ANTHONY A","8403389","2018-07-27 09:30","2018","07","27","09:30","11.0","","10.5","","97","","2.5","","4","","32","","14.5","","100.43","","","","","","Rain"
"-56.07","51.39","ST. ANTHONY A","8403389","2018-07-27 10:30","2018","07","27","10:30","10.3","","9.7","","96","","2.8","","4","","30","","16.1","","100.54","","","","","","Rain"
"-56.07","51.39","ST. ANTHONY A","8403389","2018-07-27 11:30","2018","07","27","11:30","10.1","","9.5","","96","","1.2","","4","","26","","16.1","","100.60","","","","","","Rain"
"-56.07","51.39","ST. ANTHONY A","8403389","2018-07-27 12:30","2018","07","27","12:30","9.9","","9.4","","97","","2.2","","4","","24","","16.1","","100.67","","","","","","Rain"
"-56.07","51.39","ST. ANTHONY A","8403389","2018-07-27 13:30","2018","07","27","13:30","10.9","","10.0","","94","","0.2","","1","","26","","16.1","","100.84","","","","","","NA"
"-56.07","51.39","ST. ANTHONY A","8403389","2018-07-27 14:30","2018","07","27","14:30","11.9","","10.7","","92","","0.0","","4","","22","","16.1","","100.95","","","","","","NA"
"-56.07","51.39","ST. ANTHONY A","8403389","2018-07-27 15:30","2018","07","27","15:30","12.6","","11.0","","90","","0.0","","4","","18","","16.1","","101.10","","","","","","NA"
"-56.07","51.39","ST. ANTHONY A","8403389","2018-07-27 16:30","2018","07","27","16:30","12.0","","10.4","","90","","0.0","","3","","15","","11.3","","101.20","","","","","","NA"
"-56.07","51.39","ST. ANTHONY A","8403389","2018-07-27 17:30","2018","07","27","17:30","12.4","","10.1","","86","","0.0","","5","","18","","16.1","","101.25","","","","","","NA"
"-56.07","51.39","ST. ANTHONY A","8403389","2018-07-27 18:30","2018","07","27","18:30","12.6","","10.2","","85","","0.0","","2","","17","","16.1","","101.33","","","","","","NA"
"-56.07","51.39","ST. ANTHONY A","8403389","2018-07-27 19:30","2018","07","27","19:30","10.9","","9.2","","89","","0.0","","3","","9","","16.1","","101.51","","","","","","NA"
"-56.07","51.39","ST. ANTHONY A","8403389","2018-07-27 20:30","2018","07","27","20:30","11.1","","10.0","","93","","0.0","","9","","9","","16.1","","101.57","","","","","","NA"
"-56.07","51.39","ST. ANTHONY A","8403389","2018-07-27 21:30","2018","07","27","21:30","10.2","","9.1","","93","","0.0","","9","","5","","16.1","","101.61","","","","","","NA"
"-56.07","51.39","ST. ANTHONY A","8403389","2018-07-27 22:30","2018","07","27","22:30","8.9","","8.5","","97","","0.0","","11","","4","","16.1","","101.67","","","","","","NA"
"-56.07","51.39","ST. ANTHONY A","8403389","2018-07-27 23:30","2018","07","27","23:30","7.9","","7.7","","98","","0.0","","12","","11","","16.1","","101.68","","","","","","NA"
"-56.07","51.39","ST. ANTHONY A","8403389","2018-07-28 00:30","2018","07","28","00:30","9.1","","8.7","","97","","0.0","","14","","11","","16.1","","101.70","","","","","","NA"
"-56.07","51.39","ST. ANTHONY A","8403389","2018-07-28 01:30","2018","07","28","01:30","8.8","","8.4","","97","","0.0","","11","","13","","16.1","","101.68","","","","","","NA"
"-56.07","51.39","ST. ANTHONY A","8403389","2018-07-28 02:30","2018","07","28","02:30","7.9","","7.4","","97","","0.0","","12","","13","","16.1","","101.65","","","","","","NA"
"-56.07","51.39","ST. ANTHONY A","8403389","2018-07-28 03:30","2018","07","28","03:30","8.6","","8.3","","98","","0.0","","12","","17","","16.1","","101.68","","","","","","NA"
"-56.07","51.39","ST. ANTHONY A","8403389","2018-07-28 04:30","2018","07","28","04:30","9.1","","9.0","","99","","0.0","","14","","13","","16.1","","101.68","","","","","","NA"
"-56.07","51.39","ST. ANTHONY A","8403389","2018-07-28 05:30","2018","07","28","05:30","9.6","","9.3","","98","","0.0","","12","","21","","16.1","","101.61","","","","","","NA"
"-56.07","51.39","ST. ANTHONY A","8403389","2018-07-28 06:30","2018","07","28","06:30","10.2","","9.7","","97","","0.0","","12","","18","","16.1","","101.67","","","","","","NA"
"-56.07","51.39","ST. ANTHONY A","8403389","2018-07-28 07:30","2018","07","28","07:30","10.5","","9.8","","95","","0.0","","12","","18","","16.1","","101.63","","","","","","NA"
"-56.07","51.39","ST. ANTHONY A","8403389","2018-07-28 08:30","2018","07","28","08:30","10.5","","9.9","","96","","0.0","","11","","22","","16.1","","101.62","","","","","","NA"
"-56.07","51.39","ST. ANTHONY A","8403389","2018-07-28 09:30","2018","07","28","09:30","10.3","","9.6","","96","","0.0","","12","","26","","16.1","","101.58","","","","","","NA"
"-56.07","51.39","ST. ANTHONY A","8403389","2018-07-28 10:30","2018","07","28","10:30","11.0","","9.7","","91","","0.0","","12","","32","","16.1","","101.56","","","","","","NA"
"-56.07","51.39","ST. ANTHONY A","8403389","2018-07-28 11:30","2018","07","28","11:30","11.5","","9.9","","90","","0.0","","12","","30","","16.1","","101.52","","","","","","NA"
"-56.07","51.39","ST. ANTHONY A","8403389","2018-07-28 12:30","2018","07","28","12:30","11.3","","9.8","","90","","0.0","","12","","32","","16.1","","101.43","","","","","","NA"
"-56.07","51.39","ST. ANTHONY A","8403389","2018-07-28 13:30","2018","07","28","13:30","10.9","","10.1","","95","","0.2","","12","","21","","12.9","","101.50","","","","","","Rain"
"-56.07","51.39","ST. ANTHONY A","8403389","2018-07-28 14:30","2018","07","28","14:30","11.2","","10.7","","97","","1.5","","11","","21","","14.5","","101.43","","","","","","Rain"
"-56.07","51.39","ST. ANTHONY A","8403389","2018-07-28 15:30","2018","07","28","15:30","11.3","","10.9","","97","","0.5","","11","","21","","11.3","","101.41","","","","","","Rain"
"-56.07","51.39","ST. ANTHONY A","8403389","2018-07-28 16:30","2018","07","28","16:30","11.4","","11.1","","98","","0.8","","11","","18","","16.1","","101.38","","","","","","Rain"
"-56.07","51.39","ST. ANTHONY A","8403389","2018-07-28 17:30","2018","07","28","17:30","11.5","","11.2","","98","","0.2","","12","","17","","16.1","","101.33","","","","","","Rain"
"-56.07","51.39","ST. ANTHONY A","8403389","2018-07-28 18:30","2018","07","28","18:30","11.4","","11.1","","98","","0.0","","12","","18","","16.1","","101.30","","","","","","NA"
"-56.07","51.39","ST. ANTHONY A","8403389","2018-07-28 19:30","2018","07","28","19:30","11.7","","11.4","","98","","0.0","","12","","18","","16.1","","101.29","","","","","","NA"
"-56.07","51.39","ST. ANTHONY A","8403389","2018-07-28 20:30","2018","07","28","20:30","12.2","","11.8","","97","","0.0","","13","","8","","16.1","","101.32","","","","","","NA"
"-56.07","51.39","ST. ANTHONY A","8403389","2018-07-28 21:30","2018","07","28","21:30","12.3","","12.0","","98","","0.0","","14","","15","","16.1","","101.29","","","","","","NA"
"-56.07","51.39","ST. ANTHONY A","8403389","2018-07-28 22:30","2018","07","28","22:30","12.4","","12.1","","98","","0.0","","14","","9","","16.1","","101.26","","","","","","NA"
"-56.07","51.39","ST. ANTHONY A","8403389","2018-07-28 23:30","2018","07","28","23:30","12.7","","12.3","","97","","0.0","","14","","13","","16.1","","101.19","","","","","","NA"
"-56.07","51.39","ST. ANTHONY A","8403389","2018-07-29 00:30","2018","07","29","00:30","12.6","","12.3","","98","","0.0","","18","","9","","16.1","","101.16","","","","","","NA"
"-56.07","51.39","ST. ANTHONY A","8403389","2018-07-29 01:30","2018","07","29","01:30","12.3","","12.2","","99","","0.2","","15","","9","","8.1","","101.13","","","","","","Rain,Fog"
"-56.07","51.39","ST. ANTHONY A","8403389","2018-07-29 02:30","2018","07","29","02:30","12.1","","12.0","","99","","0.5","","16","","9","","11.3","","101.09","","","","","","Rain"
"-56.07","51.39","ST. ANTHONY A","8403389","2018-07-29 03:30","2018","07","29","03:30","12.5","","12.5","","100","","0.0","","15","","8","","4.8","","101.07","","","","","","Fog"
"-56.07","51.39","ST. ANTHONY A","8403389","2018-07-29 04:30","2018","07","29","04:30","13.0","","13.0","","100","","0.0","","16","","5","","0.6","","101.03","","","","","","Fog"
"-56.07","51.39","ST. ANTHONY A","8403389","2018-07-29 05:30","2018","07","29","05:30","14.1","","14.1","","100","","0.0","","15","","11","","0.4","","101.00","","","","","","Fog"
"-56.07","51.39","ST. ANTHONY A","8403389","2018-07-29 06:30","2018","07","29","06:30","14.3","","14.3","","100","","0.0","","16","","8","","0.6","","101.01","","","","","","Fog"
"-56.07","51.39","ST. ANTHONY A","8403389","2018-07-29 07:30","2018","07","29","07:30","14.9","","14.9","","100","","0.0","","14","","9","","1.2","","100.99","","","","","","Fog"
"-56.07","51.39","ST. ANTHONY A","8403389","2018-07-29 08:30","2018","07","29","08:30","15.5","","15.5","","100","","0.0","","17","","11","","0.8","","100.99","","","","","","Fog"
"-56.07","51.39","ST. ANTHONY A","8403389","2018-07-29 09:30","2018","07","29","09:30","15.5","","15.5","","100","","0.0","","16","","9","","1.0","","100.96","","","","","","Fog"
"-56.07","51.39","ST. ANTHONY A","8403389","2018-07-29 10:30","2018","07","29","10:30","16.6","","16.6","","100","","0.0","","12","","8","","2.4","","100.92","","","","","","Fog"
"-56.07","51.39","ST. ANTHONY A","8403389","2018-07-29 11:30","2018","07","29","11:30","18.4","","18.3","","99","","0.0","","13","","5","","14.5","","100.88","","","","","","NA"
"-56.07","51.39","ST. ANTHONY A","8403389","2018-07-29 12:30","2018","07","29","12:30","19.4","","18.9","","97","","0.0","","9","","5","","16.1","","100.83","","","","","","NA"
"-56.07","51.39","ST. ANTHONY A","8403389","2018-07-29 13:30","2018","07","29","13:30","20.4","","19.0","","92","","0.0","","15","","13","","16.1","","100.77","","27","","","","NA"
"-56.07","51.39","ST. ANTHONY A","8403389","2018-07-29 14:30","2018","07","29","14:30","20.8","","18.7","","88","","0.0","","18","","9","","16.1","","100.73","","27","","","","NA"
"-56.07","51.39","ST. ANTHONY A","8403389","2018-07-29 15:30","2018","07","29","15:30","20.1","","18.8","","92","","0.0","","21","","9","","16.1","","100.71","","27","","","","NA"
"-56.07","51.39","ST. ANTHONY A","8403389","2018-07-29 16:30","2018","07","29","16:30","18.2","","17.1","","93","","0.0","","14","","17","","16.1","","100.69","","","","","","NA"
"-56.07","51.39","ST. ANTHONY A","8403389","2018-07-29 17:30","2018","07","29","17:30","18.2","","17.4","","95","","0.0","","16","","9","","16.1","","100.63","","","","","","NA"
"-56.07","51.39","ST. ANTHONY A","8403389","2018-07-29 18:30","2018","07","29","18:30","16.7","","16.2","","97","","0.0","","18","","9","","16.1","","100.62","","","","","","NA"
"-56.07","51.39","ST. ANTHONY A","8403389","2018-07-29 19:30","2018","07","29","19:30","16.9","","16.6","","98","","0.5","","19","","9","","16.1","","100.58","","","","","","NA"
"-56.07","51.39","ST. ANTHONY A","8403389","2018-07-29 20:30","2018","07","29","20:30","17.9","","17.8","","99","","4.5","","20","","13","","4.8","","100.54","","","","","","Rain,Fog"
"-56.07","51.39","ST. ANTHONY A","8403389","2018-07-29 21:30","2018","07","29","21:30","17.9","","17.4","","97","","2.0","","21","","17","","16.1","","100.64","","","","","","Rain"
"-56.07","51.39","ST. ANTHONY A","8403389","2018-07-29 22:30","2018","07","29","22:30","17.8","","17.3","","97","","3.2","","20","","5","","16.1","","100.51","","","","","","Rain"
"-56.07","51.39","ST. ANTHONY A","8403389","2018-07-29 23:30","2018","07","29","23:30","17.7","","17.2","","97","","0.2","","25","","22","","16.1","","100.54","","","","","","NA"
"-56.07","51.39","ST. ANTHONY A","8403389","2018-07-30 00:30","2018","07","30","00:30","17.5","","17.2","","98","","0.0","","25","","18","","16.1","","100.46","","","","","","NA"
"-56.07","51.39","ST. ANTHONY A","8403389","2018-07-30 01:30","2018","07","30","01:30","17.4","","17.1","","98","","0.0","","24","","22","","16.1","","100.39","","","","","","NA"
"-56.07","51.39","ST. ANTHONY A","8403389","2018-07-30 02:30","2018","07","30","02:30","17.5","","16.9","","96","","0.0","","24","","22","","16.1","","100.40","","","","","","NA"
"-56.07","51.39","ST. ANTHONY A","8403389","2018-07-30 03:30","2018","07","30","03:30","17.1","","16.5","","96","","0.0","","23","","15","","16.1","","100.41","","","","","","NA"
"-56.07","51.39","ST. ANTHONY A","8403389","2018-07-30 04:30","2018","07","30","04:30","16.4","","15.6","","95","","0.0","","26","","22","","16.1","","100.41","","","","","","NA"
"-56.07","51.39","ST. ANTHONY A","8403389","2018-07-30 05:30","2018","07","30","05:30","16.4","","15.9","","97","","0.0","","25","","30","","16.1","","100.40","","","","","","NA"
"-56.07","51.39","ST. ANTHONY A","8403389","2018-07-30 06:30","2018","07","30","06:30","16.1","","16.0","","99","","0.0","","25","","21","","2.0","","100.42","","","","","","Fog"
"-56.07","51.39","ST. ANTHONY A","8403389","2018-07-30 07:30","2018","07","30","07:30","16.9","","16.5","","98","","0.0","","26","","26","","11.3","","100.38","","","","","","NA"
"-56.07","51.39","ST. ANTHONY A","8403389","2018-07-30 08:30","2018","07","30","08:30","16.8","","16.2","","96","","0.0","","25","","30","","16.1","","100.35","","","","","","NA"
"-56.07","51.39","ST. ANTHONY A","8403389","2018-07-30 09:30","2018","07","30","09:30","17.9","","16.2","","90","","0.0","","25","","35","","16.1","","100.34","","","","","","NA"
"-56.07","51.39","ST. ANTHONY A","8403389","2018-07-30 10:30","2018","07","30","10:30","19.1","","16.9","","87","","0.0","","23","","30","","16.1","","100.29","","","","","","NA"
"-56.07","51.39","ST. ANTHONY A","8403389","2018-07-30 11:30","2018","07","30","11:30","20.4","","16.9","","80","","0.0","","23","","32","","16.1","","100.27","","26","","","","NA"
"-56.07","51.39","ST. ANTHONY A","8403389","2018-07-30 12:30","2018","07","30","12:30","19.7","","17.0","","84","","0.0","","24","","32","","16.1","","100.25","","","","","","NA"
"-56.07","51.39","ST. ANTHONY A","8403389","2018-07-30 13:30","2018","07","30","13:30","21.2","","16.5","","74","","0.0","","23","","37","","16.1","","100.18","","26","","","","NA"
"-56.07","51.39","ST. ANTHONY A","8403389","2018-07-30 14:30","2018","07","30","14:30","22.2","","16.1","","68","","0.0","","24","","37","","16.1","","100.11","","27","","","","NA"
"-56.07","51.39","ST. ANTHONY A","8403389","2018-07-30 15:30","2018","07","30","15:30","23.2","","15.6","","62","","0.0","","23","","35","","16.1","","100.10","","28","","","","NA"
"-56.07","51.39","ST. ANTHONY A","8403389","2018-07-30 16:30","2018","07","30","16:30","22.8","","15.7","","64","","0.0","","24","","32","","16.1","","100.12","","27","","","","NA"
"-56.07","51.39","ST. ANTHONY A","8403389","2018-07-30 17:30","2018","07","30","17:30","18.8","","15.8","","82","","0.0","","26","","32","","16.1","","100.16","","","","","","NA"
"-56.07","51.39","ST. ANTHONY A","8403389","2018-07-30 18:30","2018","07","30","18:30","17.9","","15.1","","83","","0.0","","23","","34","","16.1","","100.17","","","","","","NA"
"-56.07","51.39","ST. ANTHONY A","8403389","2018-07-30 19:30","2018","07","30","19:30","17.3","","14.8","","85","","0.0","","25","","24","","16.1","","100.19","","","","","","NA"
"-56.07","51.39","ST. ANTHONY A","8403389","2018-07-30 20:30","2018","07","30","20:30","16.3","","14.3","","88","","0.0","","25","","22","","16.1","","100.20","","","","","","NA"
"-56.07","51.39","ST. ANTHONY A","8403389","2018-07-30 21:30","2018","07","30","21:30","15.9","","14.3","","90","","0.0","","24","","28","","16.1","","100.21","","","","","","NA"
"-56.07","51.39","ST. ANTHONY A","8403389","2018-07-30 22:30","2018","07","30","22:30","15.6","","14.6","","94","","0.0","","25","","26","","16.1","","100.19","","","","","","NA"
"-56.07","51.39","ST. ANTHONY A","8403389","2018-07-30 23:30","2018","07","30","23:30","16.1","","14.8","","92","","0.0","","25","","30","","16.1","","100.22","","","","","","NA"
"-56.07","51.39","ST. ANTHONY A","8403389","2018-07-31 00:30","2018","07","31","00:30","15.9","","14.8","","93","","0.0","","26","","17","","16.1","","100.25","","","","","","NA"
"-56.07","51.39","ST. ANTHONY A","8403389","2018-07-31 01:30","2018","07","31","01:30","15.2","","14.4","","95","","0.0","","26","","17","","16.1","","100.25","","","","","","NA"
"-56.07","51.39","ST. ANTHONY A","8403389","2018-07-31 02:30","2018","07","31","02:30","14.4","","13.9","","97","","0.0","","26","","17","","16.1","","100.28","","","","","","NA"
"-56.07","51.39","ST. ANTHONY A","8403389","2018-07-31 03:30","2018","07","31","03:30","14.1","","13.6","","97","","0.0","","27","","17","","16.1","","100.31","","","","","","NA"
"-56.07","51.39","ST. ANTHONY A","8403389","2018-07-31 04:30","2018","07","31","04:30","13.8","","13.7","","99","","0.0","","27","","17","","4.8","","100.35","","","","","","Fog"
"-56.07","51.39","ST. ANTHONY A","8403389","2018-07-31 05:30","2018","07","31","05:30","14.0","","14.0","","100","","0.0","","25","","13","","1.0","","100.41","","","","","","Fog"
"-56.07","51.39","ST. ANTHONY A","8403389","2018-07-31 06:30","2018","07","31","06:30","14.7","","14.6","","99","","0.0","","27","","15","","16.1","","100.47","","","","","","NA"
"-56.07","51.39","ST. ANTHONY A","8403389","2018-07-31 07:30","2018","07","31","07:30","15.2","","14.9","","98","","0.0","","26","","9","","16.1","","100.54","","","","","","NA"
"-56.07","51.39","ST. ANTHONY A","8403389","2018-07-31 08:30","2018","07","31","08:30","16.6","","15.1","","91","","0.0","","24","","13","","16.1","","100.60","","","","","","NA"
"-56.07","51.39","ST. ANTHONY A","8403389","2018-07-31 09:30","2018","07","31","09:30","18.4","","15.2","","82","","0.0","","26","","15","","16.1","","100.62","","","","","","NA"
"-56.07","51.39","ST. ANTHONY A","8403389","2018-07-31 10:30","2018","07","31","10:30","19.3","","15.6","","79","","0.0","","26","","13","","16.1","","100.65","","","","","","NA"
"-56.07","51.39","ST. ANTHONY A","8403389","2018-07-31 11:30","2018","07","31","11:30","20.6","","15.6","","73","","0.0","","27","","21","","16.1","","100.66","","25","","","","NA"
"-56.07","51.39","ST. ANTHONY A","8403389","2018-07-31 12:30","2018","07","31","12:30","21.5","","16.0","","71","","0.0","","26","","21","","16.1","","100.63","","26","","","","NA"
"-56.07","51.39","ST. ANTHONY A","8403389","2018-07-31 13:30","2018","07","31","13:30","22.3","","15.6","","65","","0.0","","25","","32","","16.1","","100.62","","27","","","","NA"
"-56.07","51.39","ST. ANTHONY A","8403389","2018-07-31 14:30","2018","07","31","14:30","23.3","","16.3","","65","","0.0","","26","","26","","16.1","","100.61","","28","","","","NA"
"-56.07","51.39","ST. ANTHONY A","8403389","2018-07-31 15:30","2018","07","31","15:30","23.6","","17.0","","66","","0.0","","25","","22","","16.1","","100.64","","29","","","","NA"
"-56.07","51.39","ST. ANTHONY A","8403389","2018-07-31 16:30","2018","07","31","16:30","23.9","","16.9","","65","","0.0","","24","","22","","16.1","","100.63","","29","","","","NA"
"-56.07","51.39","ST. ANTHONY A","8403389","2018-07-31 17:30","2018","07","31","17:30","23.7","","16.4","","63","","0.0","","24","","24","","16.1","","100.63","","29","","","","NA"
"-56.07","51.39","ST. ANTHONY A","8403389","2018-07-31 18:30","2018","07","31","18:30","22.5","","15.8","","65","","0.0","","21","","24","","16.1","","100.66","","27","","","","NA"
"-56.07","51.39","ST. ANTHONY A","8403389","2018-07-31 19:30","2018","07","31","19:30","20.6","","14.6","","68","","0.0","","22","","17","","16.1","","100.71","","","","","","NA"
"-56.07","51.39","ST. ANTHONY A","8403389","2018-07-31 20:30","2018","07","31","20:30","17.2","","14.1","","82","","0.0","","26","","9","","16.1","","100.86","","","","","","NA"
"-56.07","51.39","ST. ANTHONY A","8403389","2018-07-31 21:30","2018","07","31","21:30","17.1","","14.6","","85","","0.0","","18","","9","","16.1","","100.81","","","","","","NA"
"-56.07","51.39","ST. ANTHONY A","8403389","2018-07-31 22:30","2018","07","31","22:30","17.5","","14.9","","84","","0.2","","20","","21","","11.3","","100.77","","","","","","Rain"
"-56.07","51.39","ST. ANTHONY A","8403389","2018-07-31 23:30","2018","07","31","23:30","16.8","","14.6","","87","","0.0","","22","","11","","16.1","","100.79","","","","","","NA"
