"Longitude (x)","Latitude (y)","Station Name","Climate ID","Date/Time (LST)","Year","Month","Day","Time (LST)","Temp (°C)","Temp Flag","Dew Point Temp (°C)","Dew Point Temp Flag","Rel Hum (%)","Rel Hum Flag","Precip. Amount (mm)","Precip. Amount Flag","Wind Dir (10s deg)","Wind Dir Flag","Wind Spd (km/h)","Wind Spd Flag","Visibility (km)","Visibility Flag","Stn Press (kPa)","Stn Press Flag","Hmdx","Hmdx Flag","Wind Chill","Wind Chill Flag","Weather"
"-64.30","44.36","LUNENBURG","8203210","2019-11-01 00:00","2019","11","01","00:00","15.5","","14.1","","92","","","","19","","38","","","","101.12","","","","","","NA"
"-64.30","44.36","LUNENBURG","8203210","2019-11-01 01:00","2019","11","01","01:00","15.3","","13.8","","91","","","","19","","39","","","","101.07","","","","","","NA"
"-64.30","44.36","LUNENBURG","8203210","2019-11-01 02:00","2019","11","01","02:00","15.1","","13.9","","93","","","","19","","34","","","","101.00","","","","","","NA"
"-64.30","44.36","LUNENBURG","8203210","2019-11-01 03:00","2019","11","01","03:00","14.9","","13.6","","92","","","","18","","33","","","","100.95","","","","","","NA"
"-64.30","44.36","LUNENBURG","8203210","2019-11-01 04:00","2019","11","01","04:00","14.5","","13.4","","93","","","","18","","33","","","","100.87","","","","","","NA"
"-64.30","44.36","LUNENBURG","8203210","2019-11-01 05:00","2019","11","01","05:00","14.9","","13.7","","93","","","","18","","32","","","","100.77","","","","","","NA"
"-64.30","44.36","LUNENBURG","8203210","2019-11-01 06:00","2019","11","01","06:00","14.9","","13.7","","93","","","","18","","30","","","","100.66","","","","","","NA"
"-64.30","44.36","LUNENBURG","8203210","2019-11-01 07:00","2019","11","01","07:00","15.0","","13.7","","91","","","","18","","30","","","","100.63","","","","","","NA"
"-64.30","44.36","LUNENBURG","8203210","2019-11-01 08:00","2019","11","01","08:00","15.2","","13.5","","89","","","","18","","35","","","","100.58","","","","","","NA"
"-64.30","44.36","LUNENBURG","8203210","2019-11-01 09:00","2019","11","01","09:00","15.5","","13.9","","90","","","","18","","39","","","","100.46","","","","","","NA"
"-64.30","44.36","LUNENBURG","8203210","2019-11-01 10:00","2019","11","01","10:00","15.7","","14.0","","90","","","","18","","41","","","","100.31","","","","","","NA"
"-64.30","44.36","LUNENBURG","8203210","2019-11-01 11:00","2019","11","01","11:00","15.7","","14.4","","92","","","","18","","49","","","","100.20","","","","","","NA"
"-64.30","44.36","LUNENBURG","8203210","2019-11-01 12:00","2019","11","01","12:00","16.0","","15.1","","95","","","","19","","40","","","","100.18","","","","","","NA"
"-64.30","44.36","LUNENBURG","8203210","2019-11-01 13:00","2019","11","01","13:00","15.0","","11.5","","80","","","","21","","48","","","","100.18","","","","","","NA"
"-64.30","44.36","LUNENBURG","8203210","2019-11-01 14:00","2019","11","01","14:00","14.7","","8.2","","65","","","","22","","48","","","","100.30","","","","","","NA"
"-64.30","44.36","LUNENBURG","8203210","2019-11-01 15:00","2019","11","01","15:00","14.3","","7.7","","65","","","","22","","45","","","","100.38","","","","","","NA"
"-64.30","44.36","LUNENBURG","8203210","2019-11-01 16:00","2019","11","01","16:00","13.4","","5.3","","58","","","","24","","48","","","","100.53","","","","","","NA"
"-64.30","44.36","LUNENBURG","8203210","2019-11-01 17:00","2019","11","01","17:00","12.1","","3.9","","57","","","","24","","46","","","","100.75","","","","","","NA"
"-64.30","44.36","LUNENBURG","8203210","2019-11-01 18:00","2019","11","01","18:00","11.4","","4.6","","63","","","","23","","37","","","","100.91","","","","","","NA"
"-64.30","44.36","LUNENBURG","8203210","2019-11-01 19:00","2019","11","01","19:00","11.1","","4.6","","64","","","","22","","31","","","","101.03","","","","","","NA"
"-64.30","44.36","LUNENBURG","8203210","2019-11-01 20:00","2019","11","01","20:00","10.9","","4.4","","64","","","","23","","26","","","","101.12","","","","","","NA"
"-64.30","44.36","LUNENBURG","8203210","2019-11-01 21:00","2019","11","01","21:00","10.8","","3.6","","61","","","","22","","24","","","","101.20","","","","","","NA"
"-64.30","44.36","LUNENBURG","8203210","2019-11-01 22:00","2019","11","01","22:00","10.3","","4.7","","68","","","","22","","19","","","","101.27","","","","","","NA"
"-64.30","44.36","LUNENBURG","8203210","2019-11-01 23:00","2019","11","01","23:00","10.0","","2.3","","59","","","","25","","17","","","","101.35","","","","","","NA"
"-64.30","44.36","LUNENBURG","8203210","2019-11-02 00:00","2019","11","02","00:00","9.1","","0.4","","54","","","","27","","22","","","","101.38","","","","","","NA"
"-64.30","44.36","LUNENBURG","8203210","2019-11-02 01:00","2019","11","02","01:00","8.4","","-0.6","","53","","","","26","","23","","","","101.53","","","","","","NA"
"-64.30","44.36","LUNENBURG","8203210","2019-11-02 02:00","2019","11","02","02:00","7.5","","-0.8","","56","","","","27","","26","","","","101.55","","","","","","NA"
"-64.30","44.36","LUNENBURG","8203210","2019-11-02 03:00","2019","11","02","03:00","6.8","","-0.3","","61","","","","25","","20","","","","101.71","","","","","","NA"
"-64.30","44.36","LUNENBURG","8203210","2019-11-02 04:00","2019","11","02","04:00","6.1","","-0.1","","65","","","","24","","14","","","","101.77","","","","","","NA"
"-64.30","44.36","LUNENBURG","8203210","2019-11-02 05:00","2019","11","02","05:00","5.7","","0.7","","70","","","","27","","18","","","","101.84","","","","","","NA"
"-64.30","44.36","LUNENBURG","8203210","2019-11-02 06:00","2019","11","02","06:00","4.6","","-0.1","","72","","","","28","","13","","","","101.92","","","","","","NA"
"-64.30","44.36","LUNENBURG","8203210","2019-11-02 07:00","2019","11","02","07:00","4.3","","0.1","","74","","","","26","","13","","","","101.99","","","","","","NA"
"-64.30","44.36","LUNENBURG","8203210","2019-11-02 08:00","2019","11","02","08:00","4.4","","-0.1","","72","","","","27","","11","","","","102.08","","","","","","NA"
"-64.30","44.36","LUNENBURG","8203210","2019-11-02 09:00","2019","11","02","09:00","5.3","","-1.5","","62","","","","28","","12","","","","102.12","","","","","","NA"
"-64.30","44.36","LUNENBURG","8203210","2019-11-02 10:00","2019","11","02","10:00","6.1","","-1.8","","57","","","","30","","16","","","","102.11","","","","","","NA"
"-64.30","44.36","LUNENBURG","8203210","2019-11-02 11:00","2019","11","02","11:00","6.8","","-1.6","","55","","","","32","","10","","","","102.10","","","","","","NA"
"-64.30","44.36","LUNENBURG","8203210","2019-11-02 12:00","2019","11","02","12:00","8.4","","-1.4","","50","","","","33","","1","","","","102.07","","","","","","NA"
"-64.30","44.36","LUNENBURG","8203210","2019-11-02 13:00","2019","11","02","13:00","9.1","","-0.7","","51","","","","10","","7","","","","102.04","","","","","","NA"
"-64.30","44.36","LUNENBURG","8203210","2019-11-02 14:00","2019","11","02","14:00","7.8","","0.5","","60","","","","11","","19","","","","102.04","","","","","","NA"
"-64.30","44.36","LUNENBURG","8203210","2019-11-02 15:00","2019","11","02","15:00","8.8","","1.4","","60","","","","13","","16","","","","102.04","","","","","","NA"
"-64.30","44.36","LUNENBURG","8203210","2019-11-02 16:00","2019","11","02","16:00","8.6","","2.1","","64","","","","15","","18","","","","102.04","","","","","","NA"
"-64.30","44.36","LUNENBURG","8203210","2019-11-02 17:00","2019","11","02","17:00","7.7","","2.1","","68","","","","17","","15","","","","102.01","","","","","","NA"
"-64.30","44.36","LUNENBURG","8203210","2019-11-02 18:00","2019","11","02","18:00","7.4","","2.0","","68","","","","17","","15","","","","102.04","","","","","","NA"
"-64.30","44.36","LUNENBURG","8203210","2019-11-02 19:00","2019","11","02","19:00","7.4","","2.5","","71","","","","17","","12","","","","102.01","","","","","","NA"
"-64.30","44.36","LUNENBURG","8203210","2019-11-02 20:00","2019","11","02","20:00","6.3","","2.9","","79","","","","24","","3","","","","101.96","","","","","","NA"
"-64.30","44.36","LUNENBURG","8203210","2019-11-02 21:00","2019","11","02","21:00","5.8","","3.6","","86","","","","31","","6","","","","101.90","","","","","","NA"
"-64.30","44.36","LUNENBURG","8203210","2019-11-02 22:00","2019","11","02","22:00","4.9","","3.3","","89","","","","","","0","","","","101.85","","","","","","NA"
"-64.30","44.36","LUNENBURG","8203210","2019-11-02 23:00","2019","11","02","23:00","4.8","","3.4","","90","","","","31","","5","","","","101.80","","","","","","NA"
"-64.30","44.36","LUNENBURG","8203210","2019-11-03 00:00","2019","11","03","00:00","5.1","","3.6","","90","","","","32","","4","","","","101.75","","","","","","NA"
"-64.30","44.36","LUNENBURG","8203210","2019-11-03 01:00","2019","11","03","01:00","5.6","","4.1","","90","","","","31","","5","","","","101.67","","","","","","NA"
"-64.30","44.36","LUNENBURG","8203210","2019-11-03 02:00","2019","11","03","02:00","5.2","","3.5","","89","","","","31","","10","","","","101.56","","","","","","NA"
"-64.30","44.36","LUNENBURG","8203210","2019-11-03 03:00","2019","11","03","03:00","5.6","","3.7","","88","","","","36","","9","","","","101.40","","","","","","NA"
"-64.30","44.36","LUNENBURG","8203210","2019-11-03 04:00","2019","11","03","04:00","7.4","","5.0","","85","","","","2","","7","","","","101.26","","","","","","NA"
"-64.30","44.36","LUNENBURG","8203210","2019-11-03 05:00","2019","11","03","05:00","8.5","","5.5","","81","","","","3","","4","","","","101.23","","","","","","NA"
"-64.30","44.36","LUNENBURG","8203210","2019-11-03 06:00","2019","11","03","06:00","6.0","","4.5","","90","","","","31","","17","","","","101.10","","","","","","NA"
"-64.30","44.36","LUNENBURG","8203210","2019-11-03 07:00","2019","11","03","07:00","6.2","","4.6","","89","","","","31","","15","","","","101.08","","","","","","NA"
"-64.30","44.36","LUNENBURG","8203210","2019-11-03 08:00","2019","11","03","08:00","6.4","","4.7","","89","","","","31","","5","","","","100.97","","","","","","NA"
"-64.30","44.36","LUNENBURG","8203210","2019-11-03 09:00","2019","11","03","09:00","6.8","","4.8","","87","","","","10","","2","","","","101.02","","","","","","NA"
"-64.30","44.36","LUNENBURG","8203210","2019-11-03 10:00","2019","11","03","10:00","7.3","","5.5","","88","","","","25","","5","","","","101.05","","","","","","NA"
"-64.30","44.36","LUNENBURG","8203210","2019-11-03 11:00","2019","11","03","11:00","8.3","","6.0","","85","","","","26","","5","","","","101.00","","","","","","NA"
"-64.30","44.36","LUNENBURG","8203210","2019-11-03 12:00","2019","11","03","12:00","10.5","","6.6","","77","","","","21","","18","","","","100.97","","","","","","NA"
"-64.30","44.36","LUNENBURG","8203210","2019-11-03 13:00","2019","11","03","13:00","11.0","","2.6","","56","","","","24","","30","","","","100.92","","","","","","NA"
"-64.30","44.36","LUNENBURG","8203210","2019-11-03 14:00","2019","11","03","14:00","11.1","","2.4","","55","","","","27","","33","","","","100.93","","","","","","NA"
"-64.30","44.36","LUNENBURG","8203210","2019-11-03 15:00","2019","11","03","15:00","9.9","","3.9","","67","","","","27","","31","","","","101.10","","","","","","NA"
"-64.30","44.36","LUNENBURG","8203210","2019-11-03 16:00","2019","11","03","16:00","9.6","","3.4","","66","","","","27","","26","","","","101.20","","","","","","NA"
"-64.30","44.36","LUNENBURG","8203210","2019-11-03 17:00","2019","11","03","17:00","8.9","","3.0","","67","","","","28","","21","","","","101.29","","","","","","NA"
"-64.30","44.36","LUNENBURG","8203210","2019-11-03 18:00","2019","11","03","18:00","8.0","","2.0","","66","","","","27","","24","","","","101.42","","","","","","NA"
"-64.30","44.36","LUNENBURG","8203210","2019-11-03 19:00","2019","11","03","19:00","7.2","","2.3","","71","","","","27","","19","","","","101.48","","","","","","NA"
"-64.30","44.36","LUNENBURG","8203210","2019-11-03 20:00","2019","11","03","20:00","6.3","","2.4","","76","","","","25","","12","","","","101.55","","","","","","NA"
"-64.30","44.36","LUNENBURG","8203210","2019-11-03 21:00","2019","11","03","21:00","5.8","","2.9","","82","","","","25","","11","","","","101.63","","","","","","NA"
"-64.30","44.36","LUNENBURG","8203210","2019-11-03 22:00","2019","11","03","22:00","5.7","","3.2","","84","","","","24","","10","","","","101.70","","","","","","NA"
"-64.30","44.36","LUNENBURG","8203210","2019-11-03 23:00","2019","11","03","23:00","5.1","","2.8","","85","","","","24","","10","","","","101.74","","","","","","NA"
"-64.30","44.36","LUNENBURG","8203210","2019-11-04 00:00","2019","11","04","00:00","4.3","","2.7","","89","","","","24","","12","","","","101.78","","","","","","NA"
"-64.30","44.36","LUNENBURG","8203210","2019-11-04 01:00","2019","11","04","01:00","4.6","","3.0","","89","","","","25","","10","","","","101.81","","","","","","NA"
"-64.30","44.36","LUNENBURG","8203210","2019-11-04 02:00","2019","11","04","02:00","4.4","","2.6","","88","","","","25","","8","","","","101.85","","","","","","NA"
"-64.30","44.36","LUNENBURG","8203210","2019-11-04 03:00","2019","11","04","03:00","4.0","","2.4","","89","","","","25","","6","","","","101.90","","","","","","NA"
"-64.30","44.36","LUNENBURG","8203210","2019-11-04 04:00","2019","11","04","04:00","3.4","","2.1","","91","","","","23","","8","","","","101.95","","","","","","NA"
"-64.30","44.36","LUNENBURG","8203210","2019-11-04 05:00","2019","11","04","05:00","3.6","","2.2","","91","","","","26","","5","","","","102.01","","","","","","NA"
"-64.30","44.36","LUNENBURG","8203210","2019-11-04 06:00","2019","11","04","06:00","3.9","","2.2","","89","","","","26","","7","","","","102.08","","","","","","NA"
"-64.30","44.36","LUNENBURG","8203210","2019-11-04 07:00","2019","11","04","07:00","4.1","","2.2","","88","","","","25","","7","","","","102.15","","","","","","NA"
"-64.30","44.36","LUNENBURG","8203210","2019-11-04 08:00","2019","11","04","08:00","5.1","","2.7","","85","","","","29","","4","","","","102.25","","","","","","NA"
"-64.30","44.36","LUNENBURG","8203210","2019-11-04 09:00","2019","11","04","09:00","6.6","","3.0","","78","","","","27","","7","","","","102.33","","","","","","NA"
"-64.30","44.36","LUNENBURG","8203210","2019-11-04 10:00","2019","11","04","10:00","7.8","","2.2","","67","","","","29","","19","","","","102.37","","","","","","NA"
"-64.30","44.36","LUNENBURG","8203210","2019-11-04 11:00","2019","11","04","11:00","8.6","","0.4","","56","","","","28","","18","","","","102.41","","","","","","NA"
"-64.30","44.36","LUNENBURG","8203210","2019-11-04 12:00","2019","11","04","12:00","8.8","","-0.7","","51","","","","28","","19","","","","102.41","","","","","","NA"
"-64.30","44.36","LUNENBURG","8203210","2019-11-04 13:00","2019","11","04","13:00","9.5","","-1.4","","46","","","","28","","23","","","","102.42","","","","","","NA"
"-64.30","44.36","LUNENBURG","8203210","2019-11-04 14:00","2019","11","04","14:00","9.8","","-0.6","","49","","","","26","","23","","","","102.45","","","","","","NA"
"-64.30","44.36","LUNENBURG","8203210","2019-11-04 15:00","2019","11","04","15:00","9.6","","-1.5","","46","","","","27","","16","","","","102.48","","","","","","NA"
"-64.30","44.36","LUNENBURG","8203210","2019-11-04 16:00","2019","11","04","16:00","9.9","","-0.6","","48","","","","27","","12","","","","102.54","","","","","","NA"
"-64.30","44.36","LUNENBURG","8203210","2019-11-04 17:00","2019","11","04","17:00","9.4","","-0.8","","49","","","","24","","10","","","","102.62","","","","","","NA"
"-64.30","44.36","LUNENBURG","8203210","2019-11-04 18:00","2019","11","04","18:00","7.8","","1.1","","63","","","","0","","1","","","","102.65","","","","","","NA"
"-64.30","44.36","LUNENBURG","8203210","2019-11-04 19:00","2019","11","04","19:00","7.1","","3.0","","75","","","","28","","3","","","","102.75","","","","","","NA"
"-64.30","44.36","LUNENBURG","8203210","2019-11-04 20:00","2019","11","04","20:00","6.1","","2.4","","77","","","","26","","6","","","","102.78","","","","","","NA"
"-64.30","44.36","LUNENBURG","8203210","2019-11-04 21:00","2019","11","04","21:00","5.8","","2.7","","81","","","","31","","7","","","","102.79","","","","","","NA"
"-64.30","44.36","LUNENBURG","8203210","2019-11-04 22:00","2019","11","04","22:00","5.2","","2.7","","84","","","","29","","4","","","","102.83","","","","","","NA"
"-64.30","44.36","LUNENBURG","8203210","2019-11-04 23:00","2019","11","04","23:00","4.8","","2.6","","86","","","","31","","4","","","","102.87","","","","","","NA"
"-64.30","44.36","LUNENBURG","8203210","2019-11-05 00:00","2019","11","05","00:00","4.1","","2.5","","89","","","","26","","6","","","","102.91","","","","","","NA"
"-64.30","44.36","LUNENBURG","8203210","2019-11-05 01:00","2019","11","05","01:00","4.4","","2.5","","88","","","","31","","3","","","","102.89","","","","","","NA"
"-64.30","44.36","LUNENBURG","8203210","2019-11-05 02:00","2019","11","05","02:00","4.1","","2.7","","91","","","","32","","6","","","","102.88","","","","","","NA"
"-64.30","44.36","LUNENBURG","8203210","2019-11-05 03:00","2019","11","05","03:00","3.9","","2.6","","91","","","","31","","5","","","","102.89","","","","","","NA"
"-64.30","44.36","LUNENBURG","8203210","2019-11-05 04:00","2019","11","05","04:00","4.1","","2.6","","90","","","","29","","1","","","","102.91","","","","","","NA"
"-64.30","44.36","LUNENBURG","8203210","2019-11-05 05:00","2019","11","05","05:00","3.8","","2.5","","92","","","","22","","4","","","","102.93","","","","","","NA"
"-64.30","44.36","LUNENBURG","8203210","2019-11-05 06:00","2019","11","05","06:00","3.8","","2.9","","94","","","","0","","1","","","","102.94","","","","","","NA"
"-64.30","44.36","LUNENBURG","8203210","2019-11-05 07:00","2019","11","05","07:00","3.7","","3.0","","95","","","","","","0","","","","102.97","","","","","","NA"
"-64.30","44.36","LUNENBURG","8203210","2019-11-05 08:00","2019","11","05","08:00","4.0","","3.3","","95","","","","32","","6","","","","103.01","","","","","","NA"
"-64.30","44.36","LUNENBURG","8203210","2019-11-05 09:00","2019","11","05","09:00","7.3","","5.9","","91","","","","","","0","","","","103.03","","","","","","NA"
"-64.30","44.36","LUNENBURG","8203210","2019-11-05 10:00","2019","11","05","10:00","9.4","","5.7","","78","","","","","","0","","","","102.97","","","","","","NA"
"-64.30","44.36","LUNENBURG","8203210","2019-11-05 11:00","2019","11","05","11:00","11.3","","6.3","","71","","","","15","","26","","","","102.94","","","","","","NA"
"-64.30","44.36","LUNENBURG","8203210","2019-11-05 12:00","2019","11","05","12:00","11.3","","6.1","","70","","","","16","","29","","","","102.83","","","","","","NA"
"-64.30","44.36","LUNENBURG","8203210","2019-11-05 13:00","2019","11","05","13:00","12.0","","7.6","","75","","","","16","","29","","","","102.77","","","","","","NA"
"-64.30","44.36","LUNENBURG","8203210","2019-11-05 14:00","2019","11","05","14:00","12.2","","7.9","","75","","","","15","","28","","","","102.70","","","","","","NA"
"-64.30","44.36","LUNENBURG","8203210","2019-11-05 15:00","2019","11","05","15:00","11.8","","8.2","","78","","","","14","","29","","","","102.65","","","","","","NA"
"-64.30","44.36","LUNENBURG","8203210","2019-11-05 16:00","2019","11","05","16:00","11.7","","8.1","","79","","","","14","","24","","","","102.59","","","","","","NA"
"-64.30","44.36","LUNENBURG","8203210","2019-11-05 17:00","2019","11","05","17:00","11.6","","8.6","","82","","","","12","","27","","","","102.50","","","","","","NA"
"-64.30","44.36","LUNENBURG","8203210","2019-11-05 18:00","2019","11","05","18:00","12.0","","10.0","","88","","","","12","","32","","","","102.37","","","","","","NA"
"-64.30","44.36","LUNENBURG","8203210","2019-11-05 19:00","2019","11","05","19:00","12.4","","10.3","","87","","","","13","","28","","","","102.30","","","","","","NA"
"-64.30","44.36","LUNENBURG","8203210","2019-11-05 20:00","2019","11","05","20:00","12.8","","10.6","","87","","","","14","","28","","","","102.18","","","","","","NA"
"-64.30","44.36","LUNENBURG","8203210","2019-11-05 21:00","2019","11","05","21:00","13.2","","10.9","","86","","","","14","","27","","","","102.12","","","","","","NA"
"-64.30","44.36","LUNENBURG","8203210","2019-11-05 22:00","2019","11","05","22:00","12.7","","11.5","","92","","","","14","","23","","","","102.01","","","","","","NA"
"-64.30","44.36","LUNENBURG","8203210","2019-11-05 23:00","2019","11","05","23:00","13.0","","11.5","","91","","","","14","","28","","","","101.79","","","","","","NA"
"-64.30","44.36","LUNENBURG","8203210","2019-11-06 00:00","2019","11","06","00:00","13.1","","12.1","","94","","","","15","","25","","","","101.69","","","","","","NA"
"-64.30","44.36","LUNENBURG","8203210","2019-11-06 01:00","2019","11","06","01:00","13.9","","12.9","","94","","","","16","","40","","","","101.57","","","","","","NA"
"-64.30","44.36","LUNENBURG","8203210","2019-11-06 02:00","2019","11","06","02:00","13.8","","13.0","","95","","","","19","","25","","","","101.44","","","","","","NA"
"-64.30","44.36","LUNENBURG","8203210","2019-11-06 03:00","2019","11","06","03:00","13.0","","12.4","","96","","","","17","","22","","","","101.32","","","","","","NA"
"-64.30","44.36","LUNENBURG","8203210","2019-11-06 04:00","2019","11","06","04:00","12.9","","12.3","","96","","","","19","","16","","","","101.26","","","","","","NA"
"-64.30","44.36","LUNENBURG","8203210","2019-11-06 05:00","2019","11","06","05:00","13.1","","12.5","","97","","","","19","","27","","","","101.22","","","","","","NA"
"-64.30","44.36","LUNENBURG","8203210","2019-11-06 06:00","2019","11","06","06:00","13.5","","11.3","","87","","","","25","","29","","","","101.22","","","","","","NA"
"-64.30","44.36","LUNENBURG","8203210","2019-11-06 07:00","2019","11","06","07:00","12.3","","10.9","","91","","","","25","","22","","","","101.28","","","","","","NA"
"-64.30","44.36","LUNENBURG","8203210","2019-11-06 08:00","2019","11","06","08:00","11.3","","9.0","","86","","","","27","","24","","","","101.43","","","","","","NA"
"-64.30","44.36","LUNENBURG","8203210","2019-11-06 09:00","2019","11","06","09:00","10.9","","8.2","","83","","","","26","","29","","","","101.49","","","","","","NA"
"-64.30","44.36","LUNENBURG","8203210","2019-11-06 10:00","2019","11","06","10:00","10.3","","5.1","","70","","","","27","","38","","","","101.56","","","","","","NA"
"-64.30","44.36","LUNENBURG","8203210","2019-11-06 11:00","2019","11","06","11:00","10.0","","3.3","","63","","","","26","","39","","","","101.63","","","","","","NA"
"-64.30","44.36","LUNENBURG","8203210","2019-11-06 12:00","2019","11","06","12:00","9.7","","1.4","","56","","","","25","","40","","","","101.68","","","","","","NA"
"-64.30","44.36","LUNENBURG","8203210","2019-11-06 13:00","2019","11","06","13:00","9.6","","-1.2","","47","","","","26","","39","","","","101.71","","","","","","NA"
"-64.30","44.36","LUNENBURG","8203210","2019-11-06 14:00","2019","11","06","14:00","9.3","","-3.4","","41","","","","28","","42","","","","101.70","","","","","","NA"
"-64.30","44.36","LUNENBURG","8203210","2019-11-06 15:00","2019","11","06","15:00","9.5","","-2.0","","44","","","","26","","37","","","","101.76","","","","","","NA"
"-64.30","44.36","LUNENBURG","8203210","2019-11-06 16:00","2019","11","06","16:00","9.3","","-2.4","","44","","","","26","","38","","","","101.88","","","","","","NA"
"-64.30","44.36","LUNENBURG","8203210","2019-11-06 17:00","2019","11","06","17:00","8.4","","-1.4","","50","","","","27","","21","","","","101.97","","","","","","NA"
"-64.30","44.36","LUNENBURG","8203210","2019-11-06 18:00","2019","11","06","18:00","7.8","","-0.4","","56","","","","27","","19","","","","102.08","","","","","","NA"
"-64.30","44.36","LUNENBURG","8203210","2019-11-06 19:00","2019","11","06","19:00","7.2","","0.0","","60","","","","25","","12","","","","102.17","","","","","","NA"
"-64.30","44.36","LUNENBURG","8203210","2019-11-06 20:00","2019","11","06","20:00","6.5","","0.3","","65","","","","25","","15","","","","102.26","","","","","","NA"
"-64.30","44.36","LUNENBURG","8203210","2019-11-06 21:00","2019","11","06","21:00","5.8","","-0.5","","64","","","","27","","16","","","","102.35","","","","","","NA"
"-64.30","44.36","LUNENBURG","8203210","2019-11-06 22:00","2019","11","06","22:00","5.0","","-0.5","","68","","","","26","","12","","","","102.40","","","","","","NA"
"-64.30","44.36","LUNENBURG","8203210","2019-11-06 23:00","2019","11","06","23:00","4.5","","0.4","","75","","","","25","","13","","","","102.45","","","","","","NA"
"-64.30","44.36","LUNENBURG","8203210","2019-11-07 00:00","2019","11","07","00:00","3.9","","0.5","","78","","","","25","","12","","","","102.52","","","","","","NA"
"-64.30","44.36","LUNENBURG","8203210","2019-11-07 01:00","2019","11","07","01:00","3.7","","0.5","","80","","","","24","","11","","","","102.54","","","","","","NA"
"-64.30","44.36","LUNENBURG","8203210","2019-11-07 02:00","2019","11","07","02:00","2.7","","-1.1","","76","","","","30","","12","","","","102.49","","","","","","NA"
"-64.30","44.36","LUNENBURG","8203210","2019-11-07 03:00","2019","11","07","03:00","3.0","","-1.6","","72","","","","29","","9","","","","102.48","","","","","","NA"
"-64.30","44.36","LUNENBURG","8203210","2019-11-07 04:00","2019","11","07","04:00","2.0","","-0.8","","82","","","","23","","8","","","","102.51","","","","","","NA"
"-64.30","44.36","LUNENBURG","8203210","2019-11-07 05:00","2019","11","07","05:00","1.9","","-0.2","","86","","","","24","","6","","","","102.49","","","","","","NA"
"-64.30","44.36","LUNENBURG","8203210","2019-11-07 06:00","2019","11","07","06:00","1.6","","-0.4","","87","","","","25","","6","","","","102.44","","","","","","NA"
"-64.30","44.36","LUNENBURG","8203210","2019-11-07 07:00","2019","11","07","07:00","2.4","","0.1","","85","","","","27","","5","","","","102.44","","","","","","NA"
"-64.30","44.36","LUNENBURG","8203210","2019-11-07 08:00","2019","11","07","08:00","3.3","","-0.2","","78","","","","27","","4","","","","102.45","","","","","","NA"
"-64.30","44.36","LUNENBURG","8203210","2019-11-07 09:00","2019","11","07","09:00","7.3","","1.3","","66","","","","14","","23","","","","102.26","","","","","","NA"
"-64.30","44.36","LUNENBURG","8203210","2019-11-07 10:00","2019","11","07","10:00","8.6","","3.1","","68","","","","16","","22","","","","102.29","","","","","","NA"
"-64.30","44.36","LUNENBURG","8203210","2019-11-07 11:00","2019","11","07","11:00","9.7","","5.1","","73","","","","16","","28","","","","102.14","","","","","","NA"
"-64.30","44.36","LUNENBURG","8203210","2019-11-07 12:00","2019","11","07","12:00","10.7","","4.9","","67","","","","18","","41","","","","101.99","","","","","","NA"
"-64.30","44.36","LUNENBURG","8203210","2019-11-07 13:00","2019","11","07","13:00","10.6","","5.9","","73","","","","18","","36","","","","101.91","","","","","","NA"
"-64.30","44.36","LUNENBURG","8203210","2019-11-07 14:00","2019","11","07","14:00","10.9","","5.2","","68","","","","18","","43","","","","101.82","","","","","","NA"
"-64.30","44.36","LUNENBURG","8203210","2019-11-07 15:00","2019","11","07","15:00","10.7","","5.6","","71","","","","19","","40","","","","101.81","","","","","","NA"
"-64.30","44.36","LUNENBURG","8203210","2019-11-07 16:00","2019","11","07","16:00","10.5","","6.2","","75","","","","18","","28","","","","101.74","","","","","","NA"
"-64.30","44.36","LUNENBURG","8203210","2019-11-07 17:00","2019","11","07","17:00","10.2","","6.4","","77","","","","20","","24","","","","101.67","","","","","","NA"
"-64.30","44.36","LUNENBURG","8203210","2019-11-07 18:00","2019","11","07","18:00","10.3","","6.6","","78","","","","19","","23","","","","101.58","","","","","","NA"
"-64.30","44.36","LUNENBURG","8203210","2019-11-07 19:00","2019","11","07","19:00","10.5","","7.2","","80","","","","19","","25","","","","101.59","","","","","","NA"
"-64.30","44.36","LUNENBURG","8203210","2019-11-07 20:00","2019","11","07","20:00","10.8","","8.3","","85","","","","18","","29","","","","101.45","","","","","","NA"
"-64.30","44.36","LUNENBURG","8203210","2019-11-07 21:00","2019","11","07","21:00","11.0","","8.6","","85","","","","19","","25","","","","101.39","","","","","","NA"
"-64.30","44.36","LUNENBURG","8203210","2019-11-07 22:00","2019","11","07","22:00","11.3","","8.3","","81","","","","18","","26","","","","101.27","","","","","","NA"
"-64.30","44.36","LUNENBURG","8203210","2019-11-07 23:00","2019","11","07","23:00","11.5","","8.6","","83","","","","19","","24","","","","101.14","","","","","","NA"
"-64.30","44.36","LUNENBURG","8203210","2019-11-08 00:00","2019","11","08","00:00","11.3","","8.6","","84","","","","15","","25","","","","100.90","","","","","","NA"
"-64.30","44.36","LUNENBURG","8203210","2019-11-08 01:00","2019","11","08","01:00","11.5","","8.6","","82","","","","16","","26","","","","100.75","","","","","","NA"
"-64.30","44.36","LUNENBURG","8203210","2019-11-08 02:00","2019","11","08","02:00","10.7","","9.3","","91","","","","17","","16","","","","100.63","","","","","","NA"
"-64.30","44.36","LUNENBURG","8203210","2019-11-08 03:00","2019","11","08","03:00","7.3","","6.1","","92","","","","31","","31","","","","100.57","","","","","","NA"
"-64.30","44.36","LUNENBURG","8203210","2019-11-08 04:00","2019","11","08","04:00","6.8","","5.8","","94","","","","2","","16","","","","100.38","","","","","","NA"
"-64.30","44.36","LUNENBURG","8203210","2019-11-08 05:00","2019","11","08","05:00","6.6","","5.6","","93","","","","28","","11","","","","100.44","","","","","","NA"
"-64.30","44.36","LUNENBURG","8203210","2019-11-08 06:00","2019","11","08","06:00","6.5","","5.3","","92","","","","28","","16","","","","100.44","","","","","","NA"
"-64.30","44.36","LUNENBURG","8203210","2019-11-08 07:00","2019","11","08","07:00","4.7","","3.1","","90","","","","30","","19","","","","100.43","","","","","","NA"
"-64.30","44.36","LUNENBURG","8203210","2019-11-08 08:00","2019","11","08","08:00","4.3","","2.7","","90","","","","31","","17","","","","100.44","","","","","","NA"
"-64.30","44.36","LUNENBURG","8203210","2019-11-08 09:00","2019","11","08","09:00","4.1","","2.7","","91","","","","28","","18","","","","100.44","","","","","","NA"
"-64.30","44.36","LUNENBURG","8203210","2019-11-08 10:00","2019","11","08","10:00","4.2","","2.4","","88","","","","30","","18","","","","100.35","","","","","","NA"
"-64.30","44.36","LUNENBURG","8203210","2019-11-08 11:00","2019","11","08","11:00","4.1","","2.1","","87","","","","30","","21","","","","100.29","","","","","","NA"
"-64.30","44.36","LUNENBURG","8203210","2019-11-08 12:00","2019","11","08","12:00","4.0","","1.8","","85","","","","28","","26","","","","100.26","","","","","","NA"
"-64.30","44.36","LUNENBURG","8203210","2019-11-08 13:00","2019","11","08","13:00","4.3","","2.1","","86","","","","30","","19","","","","100.26","","","","","","NA"
"-64.30","44.36","LUNENBURG","8203210","2019-11-08 14:00","2019","11","08","14:00","4.6","","2.3","","85","","","","31","","16","","","","100.20","","","","","","NA"
"-64.30","44.36","LUNENBURG","8203210","2019-11-08 15:00","2019","11","08","15:00","5.3","","2.1","","80","","","","30","","18","","","","100.13","","","","","","NA"
"-64.30","44.36","LUNENBURG","8203210","2019-11-08 16:00","2019","11","08","16:00","5.8","","2.0","","77","","","","28","","22","","","","100.14","","","","","","NA"
"-64.30","44.36","LUNENBURG","8203210","2019-11-08 17:00","2019","11","08","17:00","4.1","","0.9","","79","","","","28","","27","","","","100.20","","","","","","NA"
"-64.30","44.36","LUNENBURG","8203210","2019-11-08 18:00","2019","11","08","18:00","3.2","","1.4","","88","","","","30","","27","","","","100.37","","","","","","NA"
"-64.30","44.36","LUNENBURG","8203210","2019-11-08 19:00","2019","11","08","19:00","2.4","","0.7","","88","","","","30","","24","","","","100.42","","","","","","NA"
"-64.30","44.36","LUNENBURG","8203210","2019-11-08 20:00","2019","11","08","20:00","2.0","","-0.5","","83","","","","29","","30","","","","100.50","","","","","","NA"
"-64.30","44.36","LUNENBURG","8203210","2019-11-08 21:00","2019","11","08","21:00","1.5","","-0.3","","88","","","","30","","29","","","","100.61","","","","","","NA"
"-64.30","44.36","LUNENBURG","8203210","2019-11-08 22:00","2019","11","08","22:00","0.7","","-1.4","","86","","","","29","","28","","","","100.68","","","","","","NA"
"-64.30","44.36","LUNENBURG","8203210","2019-11-08 23:00","2019","11","08","23:00","0.5","","-2.1","","83","","","","29","","33","","","","100.75","","","","","","NA"
"-64.30","44.36","LUNENBURG","8203210","2019-11-09 00:00","2019","11","09","00:00","0.2","","-2.3","","83","","","","28","","27","","","","100.84","","","","","","NA"
"-64.30","44.36","LUNENBURG","8203210","2019-11-09 01:00","2019","11","09","01:00","-0.1","","-2.7","","83","","","","29","","30","","","","100.97","","","","-7","","NA"
"-64.30","44.36","LUNENBURG","8203210","2019-11-09 02:00","2019","11","09","02:00","-0.3","","-2.5","","85","","","","28","","30","","","","101.10","","","","-7","","NA"
"-64.30","44.36","LUNENBURG","8203210","2019-11-09 03:00","2019","11","09","03:00","-0.9","","-3.6","","82","","","","28","","29","","","","101.22","","","","-8","","NA"
"-64.30","44.36","LUNENBURG","8203210","2019-11-09 04:00","2019","11","09","04:00","-1.0","","-3.6","","83","","","","28","","25","","","","101.37","","","","-7","","NA"
"-64.30","44.36","LUNENBURG","8203210","2019-11-09 05:00","2019","11","09","05:00","-0.9","","-3.5","","82","","","","29","","26","","","","101.48","","","","-7","","NA"
"-64.30","44.36","LUNENBURG","8203210","2019-11-09 06:00","2019","11","09","06:00","-1.1","","-4.6","","77","","","","29","","26","","","","101.61","","","","-7","","NA"
"-64.30","44.36","LUNENBURG","8203210","2019-11-09 07:00","2019","11","09","07:00","-1.3","","-4.9","","77","","","","28","","21","","","","101.78","","","","-7","","NA"
"-64.30","44.36","LUNENBURG","8203210","2019-11-09 08:00","2019","11","09","08:00","-1.6","","-5.1","","77","","","","28","","17","","","","101.93","","","","-7","","NA"
"-64.30","44.36","LUNENBURG","8203210","2019-11-09 09:00","2019","11","09","09:00","-0.9","","-6.2","","67","","","","28","","29","","","","102.00","","","","-8","","NA"
"-64.30","44.36","LUNENBURG","8203210","2019-11-09 10:00","2019","11","09","10:00","-0.2","","-5.6","","67","","","","29","","32","","","","102.04","","","","-7","","NA"
"-64.30","44.36","LUNENBURG","8203210","2019-11-09 11:00","2019","11","09","11:00","0.6","","-5.4","","64","","","","28","","27","","","","102.13","","","","","","NA"
"-64.30","44.36","LUNENBURG","8203210","2019-11-09 12:00","2019","11","09","12:00","0.9","","-6.1","","60","","","","29","","26","","","","102.12","","","","","","NA"
"-64.30","44.36","LUNENBURG","8203210","2019-11-09 13:00","2019","11","09","13:00","1.9","","-5.5","","58","","","","27","","20","","","","102.12","","","","","","NA"
"-64.30","44.36","LUNENBURG","8203210","2019-11-09 14:00","2019","11","09","14:00","2.5","","-6.3","","52","","","","26","","16","","","","102.15","","","","","","NA"
"-64.30","44.36","LUNENBURG","8203210","2019-11-09 15:00","2019","11","09","15:00","3.0","","-7.2","","47","","","","28","","14","","","","102.18","","","","","","NA"
"-64.30","44.36","LUNENBURG","8203210","2019-11-09 16:00","2019","11","09","16:00","3.4","","-6.2","","49","","","","24","","12","","","","102.22","","","","","","NA"
"-64.30","44.36","LUNENBURG","8203210","2019-11-09 17:00","2019","11","09","17:00","2.8","","-6.6","","50","","","","23","","12","","","","102.27","","","","","","NA"
"-64.30","44.36","LUNENBURG","8203210","2019-11-09 18:00","2019","11","09","18:00","2.7","","-4.3","","60","","","","21","","16","","","","102.35","","","","","","NA"
"-64.30","44.36","LUNENBURG","8203210","2019-11-09 19:00","2019","11","09","19:00","1.8","","-3.8","","66","","","","24","","15","","","","102.39","","","","","","NA"
"-64.30","44.36","LUNENBURG","8203210","2019-11-09 20:00","2019","11","09","20:00","0.8","","-4.2","","69","","","","24","","17","","","","102.42","","","","","","NA"
"-64.30","44.36","LUNENBURG","8203210","2019-11-09 21:00","2019","11","09","21:00","0.5","","-3.6","","74","","","","25","","14","","","","102.41","","","","","","NA"
"-64.30","44.36","LUNENBURG","8203210","2019-11-09 22:00","2019","11","09","22:00","0.7","","-3.7","","72","","","","24","","11","","","","102.41","","","","","","NA"
"-64.30","44.36","LUNENBURG","8203210","2019-11-09 23:00","2019","11","09","23:00","1.0","","-2.8","","76","","","","24","","10","","","","102.36","","","","","","NA"
"-64.30","44.36","LUNENBURG","8203210","2019-11-10 00:00","2019","11","10","00:00","0.8","","-3.4","","74","","","","22","","7","","","","102.30","","","","","","NA"
"-64.30","44.36","LUNENBURG","8203210","2019-11-10 01:00","2019","11","10","01:00","2.7","","-3.1","","65","","","","18","","10","","","","102.26","","","","","","NA"
"-64.30","44.36","LUNENBURG","8203210","2019-11-10 02:00","2019","11","10","02:00","3.3","","-3.3","","62","","","","18","","17","","","","102.20","","","","","","NA"
"-64.30","44.36","LUNENBURG","8203210","2019-11-10 03:00","2019","11","10","03:00","3.4","","-1.2","","72","","","","16","","13","","","","102.15","","","","","","NA"
"-64.30","44.36","LUNENBURG","8203210","2019-11-10 04:00","2019","11","10","04:00","4.0","","-1.3","","68","","","","15","","11","","","","102.13","","","","","","NA"
"-64.30","44.36","LUNENBURG","8203210","2019-11-10 05:00","2019","11","10","05:00","3.4","","-0.1","","78","","","","20","","7","","","","102.11","","","","","","NA"
"-64.30","44.36","LUNENBURG","8203210","2019-11-10 06:00","2019","11","10","06:00","3.2","","-0.1","","79","","","","21","","4","","","","102.11","","","","","","NA"
"-64.30","44.36","LUNENBURG","8203210","2019-11-10 07:00","2019","11","10","07:00","3.9","","-0.5","","73","","","","21","","6","","","","102.09","","","","","","NA"
"-64.30","44.36","LUNENBURG","8203210","2019-11-10 08:00","2019","11","10","08:00","4.8","","-2.3","","60","","","","20","","11","","","","102.09","","","","","","NA"
"-64.30","44.36","LUNENBURG","8203210","2019-11-10 09:00","2019","11","10","09:00","5.5","","-0.9","","63","","","","20","","11","","","","102.09","","","","","","NA"
"-64.30","44.36","LUNENBURG","8203210","2019-11-10 10:00","2019","11","10","10:00","6.5","","-0.6","","60","","","","16","","21","","","","102.01","","","","","","NA"
"-64.30","44.36","LUNENBURG","8203210","2019-11-10 11:00","2019","11","10","11:00","7.2","","1.3","","66","","","","16","","24","","","","101.96","","","","","","NA"
"-64.30","44.36","LUNENBURG","8203210","2019-11-10 12:00","2019","11","10","12:00","7.9","","-0.3","","56","","","","17","","30","","","","101.84","","","","","","NA"
"-64.30","44.36","LUNENBURG","8203210","2019-11-10 13:00","2019","11","10","13:00","7.9","","1.3","","63","","","","20","","28","","","","101.77","","","","","","NA"
"-64.30","44.36","LUNENBURG","8203210","2019-11-10 14:00","2019","11","10","14:00","8.4","","1.6","","62","","","","18","","31","","","","101.68","","","","","","NA"
"-64.30","44.36","LUNENBURG","8203210","2019-11-10 15:00","2019","11","10","15:00","8.4","","1.6","","63","","","","18","","31","","","","101.61","","","","","","NA"
"-64.30","44.36","LUNENBURG","8203210","2019-11-10 16:00","2019","11","10","16:00","8.4","","3.1","","69","","","","18","","29","","","","101.57","","","","","","NA"
"-64.30","44.36","LUNENBURG","8203210","2019-11-10 17:00","2019","11","10","17:00","8.5","","3.7","","72","","","","20","","26","","","","101.56","","","","","","NA"
"-64.30","44.36","LUNENBURG","8203210","2019-11-10 18:00","2019","11","10","18:00","8.6","","4.1","","73","","","","18","","24","","","","101.52","","","","","","NA"
"-64.30","44.36","LUNENBURG","8203210","2019-11-10 19:00","2019","11","10","19:00","8.7","","5.1","","78","","","","17","","29","","","","101.55","","","","","","NA"
"-64.30","44.36","LUNENBURG","8203210","2019-11-10 20:00","2019","11","10","20:00","9.0","","5.2","","77","","","","17","","24","","","","101.51","","","","","","NA"
"-64.30","44.36","LUNENBURG","8203210","2019-11-10 21:00","2019","11","10","21:00","9.4","","6.2","","80","","","","18","","28","","","","101.49","","","","","","NA"
"-64.30","44.36","LUNENBURG","8203210","2019-11-10 22:00","2019","11","10","22:00","9.7","","5.9","","77","","","","17","","24","","","","101.44","","","","","","NA"
"-64.30","44.36","LUNENBURG","8203210","2019-11-10 23:00","2019","11","10","23:00","9.9","","6.3","","78","","","","17","","24","","","","101.40","","","","","","NA"
"-64.30","44.36","LUNENBURG","8203210","2019-11-11 00:00","2019","11","11","00:00","9.9","","6.7","","80","","","","19","","28","","","","101.39","","","","","","NA"
"-64.30","44.36","LUNENBURG","8203210","2019-11-11 01:00","2019","11","11","01:00","9.7","","6.1","","78","","","","23","","21","","","","101.39","","","","","","NA"
"-64.30","44.36","LUNENBURG","8203210","2019-11-11 02:00","2019","11","11","02:00","9.0","","6.0","","81","","","","18","","18","","","","101.41","","","","","","NA"
"-64.30","44.36","LUNENBURG","8203210","2019-11-11 03:00","2019","11","11","03:00","9.0","","5.9","","81","","","","23","","14","","","","101.45","","","","","","NA"
"-64.30","44.36","LUNENBURG","8203210","2019-11-11 04:00","2019","11","11","04:00","8.8","","5.8","","81","","","","24","","12","","","","101.42","","","","","","NA"
"-64.30","44.36","LUNENBURG","8203210","2019-11-11 05:00","2019","11","11","05:00","8.2","","5.5","","83","","","","24","","7","","","","101.48","","","","","","NA"
"-64.30","44.36","LUNENBURG","8203210","2019-11-11 06:00","2019","11","11","06:00","8.5","","5.6","","82","","","","20","","11","","","","101.49","","","","","","NA"
"-64.30","44.36","LUNENBURG","8203210","2019-11-11 07:00","2019","11","11","07:00","8.0","","5.2","","83","","","","21","","6","","","","101.55","","","","","","NA"
"-64.30","44.36","LUNENBURG","8203210","2019-11-11 08:00","2019","11","11","08:00","8.1","","5.2","","82","","","","24","","9","","","","101.66","","","","","","NA"
"-64.30","44.36","LUNENBURG","8203210","2019-11-11 09:00","2019","11","11","09:00","8.3","","4.9","","79","","","","24","","15","","","","101.76","","","","","","NA"
"-64.30","44.36","LUNENBURG","8203210","2019-11-11 10:00","2019","11","11","10:00","8.9","","4.7","","75","","","","26","","16","","","","101.81","","","","","","NA"
"-64.30","44.36","LUNENBURG","8203210","2019-11-11 11:00","2019","11","11","11:00","10.2","","3.0","","61","","","","25","","11","","","","101.82","","","","","","NA"
"-64.30","44.36","LUNENBURG","8203210","2019-11-11 12:00","2019","11","11","12:00","10.2","","1.8","","56","","","","27","","18","","","","101.81","","","","","","NA"
"-64.30","44.36","LUNENBURG","8203210","2019-11-11 13:00","2019","11","11","13:00","10.3","","2.4","","58","","","","25","","15","","","","101.85","","","","","","NA"
"-64.30","44.36","LUNENBURG","8203210","2019-11-11 14:00","2019","11","11","14:00","10.4","","2.9","","60","","","","26","","14","","","","101.87","","","","","","NA"
"-64.30","44.36","LUNENBURG","8203210","2019-11-11 15:00","2019","11","11","15:00","10.4","","2.3","","57","","","","29","","17","","","","101.95","","","","","","NA"
"-64.30","44.36","LUNENBURG","8203210","2019-11-11 16:00","2019","11","11","16:00","10.0","","2.5","","60","","","","32","","8","","","","101.98","","","","","","NA"
"-64.30","44.36","LUNENBURG","8203210","2019-11-11 17:00","2019","11","11","17:00","8.1","","2.9","","70","","","","36","","8","","","","102.06","","","","","","NA"
"-64.30","44.36","LUNENBURG","8203210","2019-11-11 18:00","2019","11","11","18:00","7.1","","2.3","","72","","","","35","","6","","","","102.16","","","","","","NA"
"-64.30","44.36","LUNENBURG","8203210","2019-11-11 19:00","2019","11","11","19:00","6.5","","2.2","","74","","","","34","","6","","","","102.20","","","","","","NA"
"-64.30","44.36","LUNENBURG","8203210","2019-11-11 20:00","2019","11","11","20:00","6.1","","1.7","","73","","","","2","","10","","","","102.21","","","","","","NA"
"-64.30","44.36","LUNENBURG","8203210","2019-11-11 21:00","2019","11","11","21:00","5.8","","1.8","","75","","","","2","","15","","","","102.20","","","","","","NA"
"-64.30","44.36","LUNENBURG","8203210","2019-11-11 22:00","2019","11","11","22:00","6.0","","3.1","","81","","","","4","","18","","","","102.23","","","","","","NA"
"-64.30","44.36","LUNENBURG","8203210","2019-11-11 23:00","2019","11","11","23:00","5.9","","3.8","","86","","","","6","","19","","","","102.19","","","","","","NA"
"-64.30","44.36","LUNENBURG","8203210","2019-11-12 00:00","2019","11","12","00:00","6.3","","4.7","","89","","","","4","","25","","","","102.09","","","","","","NA"
"-64.30","44.36","LUNENBURG","8203210","2019-11-12 01:00","2019","11","12","01:00","8.6","","7.3","","92","","","","6","","29","","","","101.88","","","","","","NA"
"-64.30","44.36","LUNENBURG","8203210","2019-11-12 02:00","2019","11","12","02:00","9.8","","7.6","","86","","","","14","","22","","","","101.87","","","","","","NA"
"-64.30","44.36","LUNENBURG","8203210","2019-11-12 03:00","2019","11","12","03:00","10.2","","7.7","","85","","","","12","","34","","","","101.68","","","","","","NA"
"-64.30","44.36","LUNENBURG","8203210","2019-11-12 04:00","2019","11","12","04:00","10.3","","8.2","","87","","","","12","","28","","","","101.59","","","","","","NA"
"-64.30","44.36","LUNENBURG","8203210","2019-11-12 05:00","2019","11","12","05:00","10.8","","8.8","","88","","","","12","","30","","","","101.32","","","","","","NA"
"-64.30","44.36","LUNENBURG","8203210","2019-11-12 06:00","2019","11","12","06:00","11.4","","10.0","","91","","","","12","","50","","","","101.07","","","","","","NA"
"-64.30","44.36","LUNENBURG","8203210","2019-11-12 07:00","2019","11","12","07:00","12.1","","11.7","","97","","","","13","","49","","","","100.96","","","","","","NA"
"-64.30","44.36","LUNENBURG","8203210","2019-11-12 08:00","2019","11","12","08:00","13.1","","12.6","","97","","","","14","","47","","","","100.92","","","","","","NA"
"-64.30","44.36","LUNENBURG","8203210","2019-11-12 09:00","2019","11","12","09:00","13.7","","12.7","","94","","","","18","","39","","","","100.94","","","","","","NA"
"-64.30","44.36","LUNENBURG","8203210","2019-11-12 10:00","2019","11","12","10:00","13.2","","12.4","","95","","","","18","","33","","","","100.86","","","","","","NA"
"-64.30","44.36","LUNENBURG","8203210","2019-11-12 11:00","2019","11","12","11:00","13.0","","12.4","","96","","","","18","","30","","","","100.77","","","","","","NA"
"-64.30","44.36","LUNENBURG","8203210","2019-11-12 12:00","2019","11","12","12:00","14.4","","13.1","","92","","","","17","","42","","","","100.59","","","","","","NA"
"-64.30","44.36","LUNENBURG","8203210","2019-11-12 13:00","2019","11","12","13:00","13.8","","12.2","","90","","","","18","","37","","","","100.55","","","","","","NA"
"-64.30","44.36","LUNENBURG","8203210","2019-11-12 14:00","2019","11","12","14:00","13.9","","12.8","","93","","","","19","","38","","","","100.45","","","","","","NA"
"-64.30","44.36","LUNENBURG","8203210","2019-11-12 15:00","2019","11","12","15:00","13.2","","12.3","","94","","","","18","","33","","","","100.41","","","","","","NA"
"-64.30","44.36","LUNENBURG","8203210","2019-11-12 16:00","2019","11","12","16:00","13.1","","12.1","","94","","","","19","","33","","","","100.39","","","","","","NA"
"-64.30","44.36","LUNENBURG","8203210","2019-11-12 17:00","2019","11","12","17:00","12.8","","12.0","","95","","","","18","","33","","","","100.32","","","","","","NA"
"-64.30","44.36","LUNENBURG","8203210","2019-11-12 18:00","2019","11","12","18:00","12.4","","11.6","","95","","","","19","","27","","","","100.28","","","","","","NA"
"-64.30","44.36","LUNENBURG","8203210","2019-11-12 19:00","2019","11","12","19:00","12.1","","11.2","","94","","","","18","","31","","","","100.19","","","","","","NA"
"-64.30","44.36","LUNENBURG","8203210","2019-11-12 20:00","2019","11","12","20:00","11.9","","11.0","","95","","","","18","","34","","","","100.13","","","","","","NA"
"-64.30","44.36","LUNENBURG","8203210","2019-11-12 21:00","2019","11","12","21:00","12.1","","11.3","","95","","","","19","","22","","","","100.10","","","","","","NA"
"-64.30","44.36","LUNENBURG","8203210","2019-11-12 22:00","2019","11","12","22:00","11.5","","10.9","","97","","","","19","","18","","","","99.99","","","","","","NA"
"-64.30","44.36","LUNENBURG","8203210","2019-11-12 23:00","2019","11","12","23:00","9.8","","8.5","","91","","","","26","","18","","","","99.96","","","","","","NA"
"-64.30","44.36","LUNENBURG","8203210","2019-11-13 00:00","2019","11","13","00:00","7.9","","6.6","","91","","","","25","","21","","","","100.04","","","","","","NA"
"-64.30","44.36","LUNENBURG","8203210","2019-11-13 01:00","2019","11","13","01:00","4.0","","2.1","","88","","","","28","","36","","","","100.08","","","","","","NA"
"-64.30","44.36","LUNENBURG","8203210","2019-11-13 02:00","2019","11","13","02:00","2.6","","0.8","","88","","","","27","","30","","","","100.18","","","","","","NA"
"-64.30","44.36","LUNENBURG","8203210","2019-11-13 03:00","2019","11","13","03:00","1.9","","0.3","","89","","","","27","","24","","","","100.14","","","","","","NA"
"-64.30","44.36","LUNENBURG","8203210","2019-11-13 04:00","2019","11","13","04:00","1.1","","-1.4","","83","","","","27","","26","","","","100.21","","","","","","NA"
"-64.30","44.36","LUNENBURG","8203210","2019-11-13 05:00","2019","11","13","05:00","0.3","","-2.6","","81","","","","27","","36","","","","100.22","","","","","","NA"
"-64.30","44.36","LUNENBURG","8203210","2019-11-13 06:00","2019","11","13","06:00","0.1","","-2.8","","81","","","","26","","30","","","","100.34","","","","","","NA"
"-64.30","44.36","LUNENBURG","8203210","2019-11-13 07:00","2019","11","13","07:00","-0.8","","-4.4","","77","","","","26","","32","","","","100.40","","","","-8","","NA"
"-64.30","44.36","LUNENBURG","8203210","2019-11-13 08:00","2019","11","13","08:00","-1.6","","-6.1","","72","","","","26","","36","","","","100.52","","","","-9","","NA"
"-64.30","44.36","LUNENBURG","8203210","2019-11-13 09:00","2019","11","13","09:00","-2.2","","-5.3","","79","","","","25","","32","","","","100.56","","","","-10","","NA"
"-64.30","44.36","LUNENBURG","8203210","2019-11-13 10:00","2019","11","13","10:00","-2.1","","-4.9","","81","","","","25","","36","","","","100.62","","","","-10","","NA"
"-64.30","44.36","LUNENBURG","8203210","2019-11-13 11:00","2019","11","13","11:00","-2.1","","-5.5","","78","","","","25","","36","","","","100.75","","","","-10","","NA"
"-64.30","44.36","LUNENBURG","8203210","2019-11-13 12:00","2019","11","13","12:00","-2.0","","-5.2","","79","","","","26","","32","","","","100.80","","","","-9","","NA"
"-64.30","44.36","LUNENBURG","8203210","2019-11-13 13:00","2019","11","13","13:00","-2.7","","-5.5","","81","","","","27","","42","","","","100.83","","","","-11","","NA"
"-64.30","44.36","LUNENBURG","8203210","2019-11-13 14:00","2019","11","13","14:00","-1.9","","-6.7","","70","","","","26","","36","","","","100.89","","","","-10","","NA"
"-64.30","44.36","LUNENBURG","8203210","2019-11-13 15:00","2019","11","13","15:00","-1.5","","-6.8","","67","","","","27","","41","","","","101.05","","","","-9","","NA"
"-64.30","44.36","LUNENBURG","8203210","2019-11-13 16:00","2019","11","13","16:00","-1.4","","-6.3","","70","","","","27","","37","","","","101.21","","","","-9","","NA"
"-64.30","44.36","LUNENBURG","8203210","2019-11-13 17:00","2019","11","13","17:00","-2.0","","-5.8","","75","","","","28","","35","","","","101.40","","","","-10","","NA"
"-64.30","44.36","LUNENBURG","8203210","2019-11-13 18:00","2019","11","13","18:00","-2.7","","-5.9","","79","","","","28","","29","","","","101.60","","","","-10","","NA"
"-64.30","44.36","LUNENBURG","8203210","2019-11-13 19:00","2019","11","13","19:00","-2.9","","-5.7","","81","","","","27","","30","","","","101.74","","","","-10","","NA"
"-64.30","44.36","LUNENBURG","8203210","2019-11-13 20:00","2019","11","13","20:00","-2.9","","-5.9","","79","","","","27","","27","","","","101.86","","","","-10","","NA"
"-64.30","44.36","LUNENBURG","8203210","2019-11-13 21:00","2019","11","13","21:00","-2.9","","-6.7","","75","","","","27","","21","","","","102.00","","","","-9","","NA"
"-64.30","44.36","LUNENBURG","8203210","2019-11-13 22:00","2019","11","13","22:00","-2.7","","-7.7","","68","","","","28","","27","","","","102.13","","","","-10","","NA"
"-64.30","44.36","LUNENBURG","8203210","2019-11-13 23:00","2019","11","13","23:00","-3.2","","-8.3","","68","","","","28","","21","","","","102.23","","","","-9","","NA"
"-64.30","44.36","LUNENBURG","8203210","2019-11-14 00:00","2019","11","14","00:00","-3.5","","-7.7","","73","","","","27","","21","","","","102.37","","","","-10","","NA"
"-64.30","44.36","LUNENBURG","8203210","2019-11-14 01:00","2019","11","14","01:00","-3.8","","-6.8","","80","","","","26","","19","","","","102.49","","","","-10","","NA"
"-64.30","44.36","LUNENBURG","8203210","2019-11-14 02:00","2019","11","14","02:00","-4.0","","-6.9","","80","","","","28","","18","","","","102.58","","","","-10","","NA"
"-64.30","44.36","LUNENBURG","8203210","2019-11-14 03:00","2019","11","14","03:00","-4.1","","-7.0","","80","","","","28","","19","","","","102.64","","","","-10","","NA"
"-64.30","44.36","LUNENBURG","8203210","2019-11-14 04:00","2019","11","14","04:00","-4.2","","-7.2","","80","","","","28","","16","","","","102.68","","","","-10","","NA"
"-64.30","44.36","LUNENBURG","8203210","2019-11-14 05:00","2019","11","14","05:00","-4.2","","-6.4","","85","","","","26","","13","","","","102.78","","","","-9","","NA"
"-64.30","44.36","LUNENBURG","8203210","2019-11-14 06:00","2019","11","14","06:00","-4.5","","-6.7","","84","","","","28","","15","","","","102.87","","","","-10","","NA"
"-64.30","44.36","LUNENBURG","8203210","2019-11-14 07:00","2019","11","14","07:00","-3.9","","-6.0","","85","","","","29","","13","","","","102.97","","","","-9","","NA"
"-64.30","44.36","LUNENBURG","8203210","2019-11-14 08:00","2019","11","14","08:00","-4.0","","-5.9","","86","","","","26","","11","","","","103.09","","","","-8","","NA"
"-64.30","44.36","LUNENBURG","8203210","2019-11-14 09:00","2019","11","14","09:00","-3.1","","-7.1","","74","","","","31","","7","","","","103.17","","","","-6","","NA"
"-64.30","44.36","LUNENBURG","8203210","2019-11-14 10:00","2019","11","14","10:00","-1.7","","-8.0","","62","","","","22","","1","","","","103.21","","","","-2","","NA"
"-64.30","44.36","LUNENBURG","8203210","2019-11-14 11:00","2019","11","14","11:00","-0.5","","-6.5","","64","","","","15","","6","","","","103.25","","","","-3","","NA"
"-64.30","44.36","LUNENBURG","8203210","2019-11-14 12:00","2019","11","14","12:00","-0.1","","-7.9","","56","","","","14","","3","","","","103.20","","","","-1","","NA"
"-64.30","44.36","LUNENBURG","8203210","2019-11-14 13:00","2019","11","14","13:00","-0.4","","-7.6","","58","","","","7","","5","","","","103.15","","","","-2","","NA"
"-64.30","44.36","LUNENBURG","8203210","2019-11-14 14:00","2019","11","14","14:00","-0.1","","-6.4","","62","","","","19","","15","","","","103.19","","","","-5","","NA"
"-64.30","44.36","LUNENBURG","8203210","2019-11-14 15:00","2019","11","14","15:00","0.0","","-8.5","","53","","","","17","","12","","","","103.12","","","","-4","","NA"
"-64.30","44.36","LUNENBURG","8203210","2019-11-14 16:00","2019","11","14","16:00","0.1","","-7.5","","56","","","","16","","14","","","","103.14","","","","","","NA"
"-64.30","44.36","LUNENBURG","8203210","2019-11-14 17:00","2019","11","14","17:00","0.3","","-6.8","","59","","","","16","","13","","","","103.14","","","","","","NA"
"-64.30","44.36","LUNENBURG","8203210","2019-11-14 18:00","2019","11","14","18:00","0.6","","-6.7","","58","","","","17","","13","","","","103.11","","","","","","NA"
"-64.30","44.36","LUNENBURG","8203210","2019-11-14 19:00","2019","11","14","19:00","0.6","","-6.0","","61","","","","18","","8","","","","103.10","","","","","","NA"
"-64.30","44.36","LUNENBURG","8203210","2019-11-14 20:00","2019","11","14","20:00","1.0","","-4.9","","65","","","","20","","6","","","","103.06","","","","","","NA"
"-64.30","44.36","LUNENBURG","8203210","2019-11-14 21:00","2019","11","14","21:00","2.0","","-2.9","","70","","","","15","","14","","","","102.98","","","","","","NA"
"-64.30","44.36","LUNENBURG","8203210","2019-11-14 22:00","2019","11","14","22:00","3.3","","-1.2","","72","","","","14","","18","","","","102.92","","","","","","NA"
"-64.30","44.36","LUNENBURG","8203210","2019-11-14 23:00","2019","11","14","23:00","3.7","","-0.4","","74","","","","20","","13","","","","102.89","","","","","","NA"
"-64.30","44.36","LUNENBURG","8203210","2019-11-15 00:00","2019","11","15","00:00","3.4","","0.6","","82","","","","25","","8","","","","102.86","","","","","","NA"
"-64.30","44.36","LUNENBURG","8203210","2019-11-15 01:00","2019","11","15","01:00","5.1","","1.0","","75","","","","17","","21","","","","102.77","","","","","","NA"
"-64.30","44.36","LUNENBURG","8203210","2019-11-15 02:00","2019","11","15","02:00","5.5","","0.9","","72","","","","17","","20","","","","102.73","","","","","","NA"
"-64.30","44.36","LUNENBURG","8203210","2019-11-15 03:00","2019","11","15","03:00","6.0","","1.7","","74","","","","17","","21","","","","102.65","","","","","","NA"
"-64.30","44.36","LUNENBURG","8203210","2019-11-15 04:00","2019","11","15","04:00","6.2","","2.7","","78","","","","16","","23","","","","102.53","","","","","","NA"
"-64.30","44.36","LUNENBURG","8203210","2019-11-15 05:00","2019","11","15","05:00","7.0","","2.1","","71","","","","17","","25","","","","102.45","","","","","","NA"
"-64.30","44.36","LUNENBURG","8203210","2019-11-15 06:00","2019","11","15","06:00","7.5","","2.9","","72","","","","15","","27","","","","102.32","","","","","","NA"
"-64.30","44.36","LUNENBURG","8203210","2019-11-15 07:00","2019","11","15","07:00","8.1","","4.5","","78","","","","15","","30","","","","102.24","","","","","","NA"
"-64.30","44.36","LUNENBURG","8203210","2019-11-15 08:00","2019","11","15","08:00","8.5","","5.3","","80","","","","15","","34","","","","102.18","","","","","","NA"
"-64.30","44.36","LUNENBURG","8203210","2019-11-15 09:00","2019","11","15","09:00","8.9","","5.7","","80","","","","15","","37","","","","102.07","","","","","","NA"
"-64.30","44.36","LUNENBURG","8203210","2019-11-15 10:00","2019","11","15","10:00","9.2","","6.4","","83","","","","16","","34","","","","101.95","","","","","","NA"
"-64.30","44.36","LUNENBURG","8203210","2019-11-15 11:00","2019","11","15","11:00","9.9","","7.4","","84","","","","17","","46","","","","101.83","","","","","","NA"
"-64.30","44.36","LUNENBURG","8203210","2019-11-15 12:00","2019","11","15","12:00","9.6","","8.0","","90","","","","19","","42","","","","101.67","","","","","","NA"
"-64.30","44.36","LUNENBURG","8203210","2019-11-15 13:00","2019","11","15","13:00","10.4","","8.7","","89","","","","20","","28","","","","101.53","","","","","","NA"
"-64.30","44.36","LUNENBURG","8203210","2019-11-15 14:00","2019","11","15","14:00","10.3","","8.0","","85","","","","21","","35","","","","101.45","","","","","","NA"
"-64.30","44.36","LUNENBURG","8203210","2019-11-15 15:00","2019","11","15","15:00","9.6","","7.0","","84","","","","21","","36","","","","101.40","","","","","","NA"
"-64.30","44.36","LUNENBURG","8203210","2019-11-15 16:00","2019","11","15","16:00","8.8","","6.6","","86","","","","22","","33","","","","101.39","","","","","","NA"
"-64.30","44.36","LUNENBURG","8203210","2019-11-15 17:00","2019","11","15","17:00","8.2","","6.6","","89","","","","21","","22","","","","101.36","","","","","","NA"
"-64.30","44.36","LUNENBURG","8203210","2019-11-15 18:00","2019","11","15","18:00","7.5","","5.6","","88","","","","22","","22","","","","101.34","","","","","","NA"
"-64.30","44.36","LUNENBURG","8203210","2019-11-15 19:00","2019","11","15","19:00","7.1","","5.6","","90","","","","21","","19","","","","101.32","","","","","","NA"
"-64.30","44.36","LUNENBURG","8203210","2019-11-15 20:00","2019","11","15","20:00","6.8","","5.5","","91","","","","21","","15","","","","101.30","","","","","","NA"
"-64.30","44.36","LUNENBURG","8203210","2019-11-15 21:00","2019","11","15","21:00","6.9","","4.6","","85","","","","22","","17","","","","101.25","","","","","","NA"
"-64.30","44.36","LUNENBURG","8203210","2019-11-15 22:00","2019","11","15","22:00","6.5","","4.2","","85","","","","22","","13","","","","101.24","","","","","","NA"
"-64.30","44.36","LUNENBURG","8203210","2019-11-15 23:00","2019","11","15","23:00","5.5","","3.7","","88","","","","23","","10","","","","101.21","","","","","","NA"
"-64.30","44.36","LUNENBURG","8203210","2019-11-16 00:00","2019","11","16","00:00","4.9","","3.4","","90","","","","23","","9","","","","101.19","","","","","","NA"
"-64.30","44.36","LUNENBURG","8203210","2019-11-16 01:00","2019","11","16","01:00","4.6","","3.1","","90","","","","25","","12","","","","101.21","","","","","","NA"
"-64.30","44.36","LUNENBURG","8203210","2019-11-16 02:00","2019","11","16","02:00","5.8","","0.8","","70","","","","27","","24","","","","101.22","","","","","","NA"
"-64.30","44.36","LUNENBURG","8203210","2019-11-16 03:00","2019","11","16","03:00","2.9","","-1.5","","73","","","","29","","49","","","","101.33","","","","","","NA"
"-64.30","44.36","LUNENBURG","8203210","2019-11-16 04:00","2019","11","16","04:00","1.5","","-6.1","","57","","","","28","","37","","","","101.45","","","","","","NA"
"-64.30","44.36","LUNENBURG","8203210","2019-11-16 05:00","2019","11","16","05:00","-0.5","","-10.4","","47","","","","28","","40","","","","101.57","","","","-8","","NA"
"-64.30","44.36","LUNENBURG","8203210","2019-11-16 06:00","2019","11","16","06:00","-1.8","","-10.8","","50","","","","29","","51","","","","101.68","","","","-11","","NA"
"-64.30","44.36","LUNENBURG","8203210","2019-11-16 07:00","2019","11","16","07:00","-2.7","","-9.5","","59","","","","28","","36","","","","101.88","","","","-11","","NA"
"-64.30","44.36","LUNENBURG","8203210","2019-11-16 08:00","2019","11","16","08:00","-3.3","","-11.5","","53","","","","29","","36","","","","102.00","","","","-11","","NA"
"-64.30","44.36","LUNENBURG","8203210","2019-11-16 09:00","2019","11","16","09:00","-2.8","","-11.3","","52","","","","28","","32","","","","102.04","","","","-10","","NA"
"-64.30","44.36","LUNENBURG","8203210","2019-11-16 10:00","2019","11","16","10:00","-1.9","","-9.3","","57","","","","28","","36","","","","102.12","","","","-10","","NA"
"-64.30","44.36","LUNENBURG","8203210","2019-11-16 11:00","2019","11","16","11:00","-1.4","","-9.4","","55","","","","29","","39","","","","102.15","","","","-9","","NA"
"-64.30","44.36","LUNENBURG","8203210","2019-11-16 12:00","2019","11","16","12:00","-0.7","","-7.7","","59","","","","28","","38","","","","102.12","","","","-8","","NA"
"-64.30","44.36","LUNENBURG","8203210","2019-11-16 13:00","2019","11","16","13:00","-0.5","","-8.7","","54","","","","29","","37","","","","102.12","","","","-8","","NA"
"-64.30","44.36","LUNENBURG","8203210","2019-11-16 14:00","2019","11","16","14:00","-0.8","","-10.5","","48","","","","29","","42","","","","102.09","","","","-9","","NA"
"-64.30","44.36","LUNENBURG","8203210","2019-11-16 15:00","2019","11","16","15:00","-0.9","","-10.2","","49","","","","28","","41","","","","102.15","","","","-9","","NA"
"-64.30","44.36","LUNENBURG","8203210","2019-11-16 16:00","2019","11","16","16:00","-1.0","","-10.1","","50","","","","29","","38","","","","102.22","","","","-9","","NA"
"-64.30","44.36","LUNENBURG","8203210","2019-11-16 17:00","2019","11","16","17:00","-1.4","","-9.4","","54","","","","29","","30","","","","102.39","","","","-8","","NA"
"-64.30","44.36","LUNENBURG","8203210","2019-11-16 18:00","2019","11","16","18:00","-1.8","","-9.7","","55","","","","28","","25","","","","102.54","","","","-8","","NA"
"-64.30","44.36","LUNENBURG","8203210","2019-11-16 19:00","2019","11","16","19:00","-1.9","","-8.8","","59","","","","28","","20","","","","102.63","","","","-8","","NA"
"-64.30","44.36","LUNENBURG","8203210","2019-11-16 20:00","2019","11","16","20:00","-2.2","","-8.8","","61","","","","26","","17","","","","102.77","","","","-8","","NA"
"-64.30","44.36","LUNENBURG","8203210","2019-11-16 21:00","2019","11","16","21:00","-2.8","","-9.7","","59","","","","27","","15","","","","102.82","","","","-8","","NA"
"-64.30","44.36","LUNENBURG","8203210","2019-11-16 22:00","2019","11","16","22:00","-2.5","","-8.7","","63","","","","28","","16","","","","102.82","","","","-8","","NA"
"-64.30","44.36","LUNENBURG","8203210","2019-11-16 23:00","2019","11","16","23:00","-2.2","","-8.5","","62","","","","30","","23","","","","102.81","","","","-8","","NA"
"-64.30","44.36","LUNENBURG","8203210","2019-11-17 00:00","2019","11","17","00:00","-2.5","","-8.3","","64","","","","29","","20","","","","102.84","","","","-8","","NA"
"-64.30","44.36","LUNENBURG","8203210","2019-11-17 01:00","2019","11","17","01:00","-2.6","","-7.6","","68","","","","28","","18","","","","102.87","","","","-8","","NA"
"-64.30","44.36","LUNENBURG","8203210","2019-11-17 02:00","2019","11","17","02:00","-2.5","","-6.9","","71","","","","31","","21","","","","102.81","","","","-9","","NA"
"-64.30","44.36","LUNENBURG","8203210","2019-11-17 03:00","2019","11","17","03:00","-2.4","","-6.5","","74","","","","32","","19","","","","102.85","","","","-8","","NA"
"-64.30","44.36","LUNENBURG","8203210","2019-11-17 04:00","2019","11","17","04:00","-3.2","","-7.1","","75","","","","29","","10","","","","102.93","","","","-7","","NA"
"-64.30","44.36","LUNENBURG","8203210","2019-11-17 05:00","2019","11","17","05:00","-3.8","","-6.8","","80","","","","27","","9","","","","102.93","","","","-8","","NA"
"-64.30","44.36","LUNENBURG","8203210","2019-11-17 06:00","2019","11","17","06:00","-3.6","","-6.8","","79","","","","29","","9","","","","102.96","","","","-7","","NA"
"-64.30","44.36","LUNENBURG","8203210","2019-11-17 07:00","2019","11","17","07:00","-3.5","","-6.0","","83","","","","30","","12","","","","103.03","","","","-8","","NA"
"-64.30","44.36","LUNENBURG","8203210","2019-11-17 08:00","2019","11","17","08:00","-3.4","","-6.2","","81","","","","29","","14","","","","103.06","","","","-8","","NA"
"-64.30","44.36","LUNENBURG","8203210","2019-11-17 09:00","2019","11","17","09:00","-2.6","","-6.3","","76","","","","32","","14","","","","103.11","","","","-7","","NA"
"-64.30","44.36","LUNENBURG","8203210","2019-11-17 10:00","2019","11","17","10:00","-1.7","","-5.7","","74","","","","35","","12","","","","103.13","","","","-6","","NA"
"-64.30","44.36","LUNENBURG","8203210","2019-11-17 11:00","2019","11","17","11:00","-0.8","","-5.0","","73","","","","3","","12","","","","103.11","","","","-5","","NA"
"-64.30","44.36","LUNENBURG","8203210","2019-11-17 12:00","2019","11","17","12:00","-0.5","","-6.9","","62","","","","2","","10","","","","103.06","","","","-4","","NA"
"-64.30","44.36","LUNENBURG","8203210","2019-11-17 13:00","2019","11","17","13:00","0.5","","-6.2","","61","","","","36","","5","","","","102.98","","","","","","NA"
"-64.30","44.36","LUNENBURG","8203210","2019-11-17 14:00","2019","11","17","14:00","0.7","","-6.7","","58","","","","3","","11","","","","102.89","","","","","","NA"
"-64.30","44.36","LUNENBURG","8203210","2019-11-17 15:00","2019","11","17","15:00","1.2","","-6.3","","57","","","","4","","5","","","","102.87","","","","","","NA"
"-64.30","44.36","LUNENBURG","8203210","2019-11-17 16:00","2019","11","17","16:00","1.6","","-4.8","","62","","","","6","","13","","","","102.84","","","","","","NA"
"-64.30","44.36","LUNENBURG","8203210","2019-11-17 17:00","2019","11","17","17:00","0.6","","-6.5","","59","","","","3","","6","","","","102.82","","","","","","NA"
"-64.30","44.36","LUNENBURG","8203210","2019-11-17 18:00","2019","11","17","18:00","1.0","","-6.3","","58","","","","4","","10","","","","102.81","","","","","","NA"
"-64.30","44.36","LUNENBURG","8203210","2019-11-17 19:00","2019","11","17","19:00","1.0","","-5.9","","60","","","","3","","12","","","","102.76","","","","","","NA"
"-64.30","44.36","LUNENBURG","8203210","2019-11-17 20:00","2019","11","17","20:00","1.3","","-4.0","","67","","","","3","","12","","","","102.73","","","","","","NA"
"-64.30","44.36","LUNENBURG","8203210","2019-11-17 21:00","2019","11","17","21:00","1.6","","-3.3","","70","","","","2","","12","","","","102.67","","","","","","NA"
"-64.30","44.36","LUNENBURG","8203210","2019-11-17 22:00","2019","11","17","22:00","2.3","","-1.8","","74","","","","3","","13","","","","102.60","","","","","","NA"
"-64.30","44.36","LUNENBURG","8203210","2019-11-17 23:00","2019","11","17","23:00","4.7","","-0.2","","71","","","","7","","24","","","","102.48","","","","","","NA"
"-64.30","44.36","LUNENBURG","8203210","2019-11-18 00:00","2019","11","18","00:00","3.2","","0.1","","80","","","","3","","17","","","","102.40","","","","","","NA"
"-64.30","44.36","LUNENBURG","8203210","2019-11-18 01:00","2019","11","18","01:00","2.2","","-0.4","","83","","","","2","","19","","","","102.28","","","","","","NA"
"-64.30","44.36","LUNENBURG","8203210","2019-11-18 02:00","2019","11","18","02:00","2.3","","0.1","","85","","","","2","","17","","","","102.22","","","","","","NA"
"-64.30","44.36","LUNENBURG","8203210","2019-11-18 03:00","2019","11","18","03:00","2.5","","0.2","","85","","","","2","","19","","","","102.15","","","","","","NA"
"-64.30","44.36","LUNENBURG","8203210","2019-11-18 04:00","2019","11","18","04:00","3.0","","0.7","","85","","","","2","","19","","","","102.05","","","","","","NA"
"-64.30","44.36","LUNENBURG","8203210","2019-11-18 05:00","2019","11","18","05:00","3.5","","1.4","","86","","","","3","","22","","","","102.01","","","","","","NA"
"-64.30","44.36","LUNENBURG","8203210","2019-11-18 06:00","2019","11","18","06:00","3.7","","1.8","","88","","","","3","","21","","","","101.90","","","","","","NA"
"-64.30","44.36","LUNENBURG","8203210","2019-11-18 07:00","2019","11","18","07:00","5.1","","2.9","","86","","","","4","","23","","","","101.85","","","","","","NA"
"-64.30","44.36","LUNENBURG","8203210","2019-11-18 08:00","2019","11","18","08:00","5.1","","3.1","","87","","","","3","","26","","","","101.76","","","","","","NA"
"-64.30","44.36","LUNENBURG","8203210","2019-11-18 09:00","2019","11","18","09:00","5.9","","3.7","","86","","","","4","","28","","","","101.72","","","","","","NA"
"-64.30","44.36","LUNENBURG","8203210","2019-11-18 10:00","2019","11","18","10:00","6.2","","3.6","","84","","","","4","","29","","","","101.64","","","","","","NA"
"-64.30","44.36","LUNENBURG","8203210","2019-11-18 11:00","2019","11","18","11:00","5.7","","3.6","","86","","","","3","","24","","","","101.51","","","","","","NA"
"-64.30","44.36","LUNENBURG","8203210","2019-11-18 12:00","2019","11","18","12:00","6.0","","4.3","","88","","","","3","","24","","","","101.40","","","","","","NA"
"-64.30","44.36","LUNENBURG","8203210","2019-11-18 13:00","2019","11","18","13:00","7.0","","5.8","","92","","","","4","","36","","","","101.21","","","","","","NA"
"-64.30","44.36","LUNENBURG","8203210","2019-11-18 14:00","2019","11","18","14:00","7.2","","6.0","","92","","","","5","","41","","","","101.08","","","","","","NA"
"-64.30","44.36","LUNENBURG","8203210","2019-11-18 15:00","2019","11","18","15:00","7.1","","5.9","","92","","","","4","","39","","","","100.91","","","","","","NA"
"-64.30","44.36","LUNENBURG","8203210","2019-11-18 16:00","2019","11","18","16:00","6.7","","5.8","","94","","","","4","","41","","","","100.81","","","","","","NA"
"-64.30","44.36","LUNENBURG","8203210","2019-11-18 17:00","2019","11","18","17:00","6.3","","5.5","","95","","","","4","","40","","","","100.60","","","","","","NA"
"-64.30","44.36","LUNENBURG","8203210","2019-11-18 18:00","2019","11","18","18:00","5.9","","5.1","","94","","","","3","","39","","","","100.38","","","","","","NA"
"-64.30","44.36","LUNENBURG","8203210","2019-11-18 19:00","2019","11","18","19:00","5.7","","4.7","","93","","","","3","","34","","","","100.25","","","","","","NA"
"-64.30","44.36","LUNENBURG","8203210","2019-11-18 20:00","2019","11","18","20:00","5.7","","4.6","","93","","","","3","","36","","","","100.03","","","","","","NA"
"-64.30","44.36","LUNENBURG","8203210","2019-11-18 21:00","2019","11","18","21:00","6.0","","5.0","","93","","","","3","","29","","","","99.96","","","","","","NA"
"-64.30","44.36","LUNENBURG","8203210","2019-11-18 22:00","2019","11","18","22:00","5.7","","4.8","","94","","","","2","","20","","","","99.80","","","","","","NA"
"-64.30","44.36","LUNENBURG","8203210","2019-11-18 23:00","2019","11","18","23:00","5.3","","4.5","","95","","","","35","","10","","","","99.62","","","","","","NA"
"-64.30","44.36","LUNENBURG","8203210","2019-11-19 00:00","2019","11","19","00:00","5.5","","4.6","","94","","","","35","","14","","","","99.45","","","","","","NA"
"-64.30","44.36","LUNENBURG","8203210","2019-11-19 01:00","2019","11","19","01:00","5.3","","4.4","","94","","","","33","","18","","","","99.39","","","","","","NA"
"-64.30","44.36","LUNENBURG","8203210","2019-11-19 02:00","2019","11","19","02:00","5.5","","4.2","","92","","","","33","","23","","","","99.42","","","","","","NA"
"-64.30","44.36","LUNENBURG","8203210","2019-11-19 03:00","2019","11","19","03:00","5.0","","4.0","","93","","","","32","","22","","","","99.48","","","","","","NA"
"-64.30","44.36","LUNENBURG","8203210","2019-11-19 04:00","2019","11","19","04:00","4.8","","3.8","","93","","","","32","","23","","","","99.46","","","","","","NA"
"-64.30","44.36","LUNENBURG","8203210","2019-11-19 05:00","2019","11","19","05:00","5.4","","3.9","","90","","","","33","","20","","","","99.46","","","","","","NA"
"-64.30","44.36","LUNENBURG","8203210","2019-11-19 06:00","2019","11","19","06:00","5.7","","3.9","","89","","","","32","","18","","","","99.58","","","","","","NA"
"-64.30","44.36","LUNENBURG","8203210","2019-11-19 07:00","2019","11","19","07:00","5.5","","4.1","","91","","","","30","","16","","","","99.72","","","","","","NA"
"-64.30","44.36","LUNENBURG","8203210","2019-11-19 08:00","2019","11","19","08:00","5.2","","4.4","","95","","","","26","","15","","","","99.89","","","","","","NA"
"-64.30","44.36","LUNENBURG","8203210","2019-11-19 09:00","2019","11","19","09:00","5.4","","4.6","","95","","","","26","","13","","","","99.97","","","","","","NA"
"-64.30","44.36","LUNENBURG","8203210","2019-11-19 10:00","2019","11","19","10:00","5.8","","4.5","","91","","","","28","","14","","","","100.03","","","","","","NA"
"-64.30","44.36","LUNENBURG","8203210","2019-11-19 11:00","2019","11","19","11:00","6.1","","4.5","","90","","","","27","","13","","","","100.17","","","","","","NA"
"-64.30","44.36","LUNENBURG","8203210","2019-11-19 12:00","2019","11","19","12:00","6.0","","5.1","","94","","","","25","","15","","","","100.22","","","","","","NA"
"-64.30","44.36","LUNENBURG","8203210","2019-11-19 13:00","2019","11","19","13:00","6.4","","4.8","","90","","","","29","","13","","","","100.21","","","","","","NA"
"-64.30","44.36","LUNENBURG","8203210","2019-11-19 14:00","2019","11","19","14:00","6.9","","4.6","","85","","","","26","","16","","","","100.33","","","","","","NA"
"-64.30","44.36","LUNENBURG","8203210","2019-11-19 15:00","2019","11","19","15:00","6.8","","4.7","","86","","","","27","","12","","","","100.38","","","","","","NA"
"-64.30","44.36","LUNENBURG","8203210","2019-11-19 16:00","2019","11","19","16:00","6.9","","4.8","","86","","","","24","","11","","","","100.50","","","","","","NA"
"-64.30","44.36","LUNENBURG","8203210","2019-11-19 17:00","2019","11","19","17:00","6.6","","5.2","","91","","","","24","","6","","","","100.63","","","","","","NA"
"-64.30","44.36","LUNENBURG","8203210","2019-11-19 18:00","2019","11","19","18:00","6.2","","5.3","","94","","","","28","","10","","","","100.64","","","","","","NA"
"-64.30","44.36","LUNENBURG","8203210","2019-11-19 19:00","2019","11","19","19:00","6.1","","5.5","","96","","","","23","","12","","","","100.76","","","","","","NA"
"-64.30","44.36","LUNENBURG","8203210","2019-11-19 20:00","2019","11","19","20:00","5.9","","5.0","","94","","","","24","","16","","","","100.77","","","","","","NA"
"-64.30","44.36","LUNENBURG","8203210","2019-11-19 21:00","2019","11","19","21:00","5.7","","4.7","","94","","","","25","","13","","","","100.85","","","","","","NA"
"-64.30","44.36","LUNENBURG","8203210","2019-11-19 22:00","2019","11","19","22:00","5.1","","4.0","","93","","","","22","","10","","","","100.86","","","","","","NA"
"-64.30","44.36","LUNENBURG","8203210","2019-11-19 23:00","2019","11","19","23:00","4.7","","3.5","","92","","","","26","","8","","","","100.86","","","","","","NA"
"-64.30","44.36","LUNENBURG","8203210","2019-11-20 00:00","2019","11","20","00:00","4.4","","3.2","","92","","","","28","","10","","","","100.86","","","","","","NA"
"-64.30","44.36","LUNENBURG","8203210","2019-11-20 01:00","2019","11","20","01:00","4.3","","3.2","","92","","","","31","","11","","","","100.87","","","","","","NA"
"-64.30","44.36","LUNENBURG","8203210","2019-11-20 02:00","2019","11","20","02:00","4.4","","3.8","","95","","","","34","","6","","","","100.89","","","","","","NA"
"-64.30","44.36","LUNENBURG","8203210","2019-11-20 03:00","2019","11","20","03:00","3.9","","3.0","","94","","","","36","","11","","","","100.85","","","","","","NA"
"-64.30","44.36","LUNENBURG","8203210","2019-11-20 04:00","2019","11","20","04:00","3.6","","2.4","","92","","","","34","","9","","","","100.84","","","","","","NA"
"-64.30","44.36","LUNENBURG","8203210","2019-11-20 05:00","2019","11","20","05:00","3.0","","1.6","","91","","","","1","","12","","","","100.90","","","","","","NA"
"-64.30","44.36","LUNENBURG","8203210","2019-11-20 06:00","2019","11","20","06:00","2.8","","1.3","","90","","","","33","","13","","","","100.86","","","","","","NA"
"-64.30","44.36","LUNENBURG","8203210","2019-11-20 07:00","2019","11","20","07:00","2.7","","1.0","","89","","","","36","","7","","","","100.93","","","","","","NA"
"-64.30","44.36","LUNENBURG","8203210","2019-11-20 08:00","2019","11","20","08:00","2.5","","0.8","","88","","","","36","","9","","","","100.88","","","","","","NA"
"-64.30","44.36","LUNENBURG","8203210","2019-11-20 09:00","2019","11","20","09:00","2.8","","0.7","","86","","","","1","","14","","","","100.81","","","","","","NA"
"-64.30","44.36","LUNENBURG","8203210","2019-11-20 10:00","2019","11","20","10:00","3.2","","1.2","","86","","","","1","","14","","","","100.73","","","","","","NA"
"-64.30","44.36","LUNENBURG","8203210","2019-11-20 11:00","2019","11","20","11:00","3.4","","1.0","","84","","","","2","","22","","","","100.66","","","","","","NA"
"-64.30","44.36","LUNENBURG","8203210","2019-11-20 12:00","2019","11","20","12:00","4.3","","1.5","","82","","","","2","","20","","","","100.70","","","","","","NA"
"-64.30","44.36","LUNENBURG","8203210","2019-11-20 13:00","2019","11","20","13:00","4.4","","1.4","","81","","","","2","","16","","","","100.72","","","","","","NA"
"-64.30","44.36","LUNENBURG","8203210","2019-11-20 14:00","2019","11","20","14:00","4.3","","2.0","","85","","","","2","","17","","","","100.63","","","","","","NA"
"-64.30","44.36","LUNENBURG","8203210","2019-11-20 15:00","2019","11","20","15:00","4.5","","1.9","","83","","","","1","","18","","","","100.66","","","","","","NA"
"-64.30","44.36","LUNENBURG","8203210","2019-11-20 16:00","2019","11","20","16:00","4.6","","2.0","","83","","","","36","","12","","","","100.68","","","","","","NA"
"-64.30","44.36","LUNENBURG","8203210","2019-11-20 17:00","2019","11","20","17:00","4.6","","1.8","","82","","","","34","","12","","","","100.64","","","","","","NA"
"-64.30","44.36","LUNENBURG","8203210","2019-11-20 18:00","2019","11","20","18:00","4.6","","1.7","","82","","","","33","","15","","","","100.67","","","","","","NA"
"-64.30","44.36","LUNENBURG","8203210","2019-11-20 19:00","2019","11","20","19:00","4.4","","1.5","","82","","","","33","","16","","","","100.64","","","","","","NA"
"-64.30","44.36","LUNENBURG","8203210","2019-11-20 20:00","2019","11","20","20:00","4.4","","1.5","","82","","","","33","","15","","","","100.64","","","","","","NA"
"-64.30","44.36","LUNENBURG","8203210","2019-11-20 21:00","2019","11","20","21:00","4.4","","1.8","","84","","","","34","","13","","","","100.66","","","","","","NA"
"-64.30","44.36","LUNENBURG","8203210","2019-11-20 22:00","2019","11","20","22:00","4.4","","2.2","","85","","","","34","","15","","","","100.62","","","","","","NA"
"-64.30","44.36","LUNENBURG","8203210","2019-11-20 23:00","2019","11","20","23:00","4.4","","2.5","","87","","","","33","","15","","","","100.64","","","","","","NA"
"-64.30","44.36","LUNENBURG","8203210","2019-11-21 00:00","2019","11","21","00:00","4.3","","2.5","","88","","","","32","","18","","","","100.61","","","","","","NA"
"-64.30","44.36","LUNENBURG","8203210","2019-11-21 01:00","2019","11","21","01:00","4.5","","2.9","","89","","","","32","","18","","","","100.58","","","","","","NA"
"-64.30","44.36","LUNENBURG","8203210","2019-11-21 02:00","2019","11","21","02:00","4.7","","2.9","","88","","","","32","","20","","","","100.59","","","","","","NA"
"-64.30","44.36","LUNENBURG","8203210","2019-11-21 03:00","2019","11","21","03:00","4.8","","2.9","","87","","","","32","","18","","","","100.63","","","","","","NA"
"-64.30","44.36","LUNENBURG","8203210","2019-11-21 04:00","2019","11","21","04:00","5.2","","2.7","","84","","","","33","","18","","","","100.67","","","","","","NA"
"-64.30","44.36","LUNENBURG","8203210","2019-11-21 05:00","2019","11","21","05:00","4.8","","3.0","","88","","","","32","","22","","","","100.70","","","","","","NA"
"-64.30","44.36","LUNENBURG","8203210","2019-11-21 06:00","2019","11","21","06:00","4.7","","3.2","","90","","","","32","","20","","","","100.75","","","","","","NA"
"-64.30","44.36","LUNENBURG","8203210","2019-11-21 07:00","2019","11","21","07:00","4.6","","3.0","","90","","","","33","","23","","","","100.80","","","","","","NA"
"-64.30","44.36","LUNENBURG","8203210","2019-11-21 08:00","2019","11","21","08:00","4.8","","2.5","","85","","","","32","","27","","","","100.82","","","","","","NA"
"-64.30","44.36","LUNENBURG","8203210","2019-11-21 09:00","2019","11","21","09:00","5.0","","2.0","","81","","","","32","","32","","","","100.83","","","","","","NA"
"-64.30","44.36","LUNENBURG","8203210","2019-11-21 10:00","2019","11","21","10:00","5.2","","1.8","","79","","","","33","","24","","","","100.90","","","","","","NA"
"-64.30","44.36","LUNENBURG","8203210","2019-11-21 11:00","2019","11","21","11:00","5.3","","1.7","","78","","","","32","","27","","","","100.95","","","","","","NA"
"-64.30","44.36","LUNENBURG","8203210","2019-11-21 12:00","2019","11","21","12:00","5.2","","1.8","","78","","","","32","","27","","","","100.92","","","","","","NA"
"-64.30","44.36","LUNENBURG","8203210","2019-11-21 13:00","2019","11","21","13:00","5.1","","1.4","","77","","","","32","","29","","","","100.88","","","","","","NA"
"-64.30","44.36","LUNENBURG","8203210","2019-11-21 14:00","2019","11","21","14:00","5.2","","1.2","","75","","","","32","","27","","","","100.94","","","","","","NA"
"-64.30","44.36","LUNENBURG","8203210","2019-11-21 15:00","2019","11","21","15:00","5.1","","1.1","","75","","","","32","","27","","","","100.99","","","","","","NA"
"-64.30","44.36","LUNENBURG","8203210","2019-11-21 16:00","2019","11","21","16:00","4.8","","0.9","","76","","","","31","","26","","","","101.07","","","","","","NA"
"-64.30","44.36","LUNENBURG","8203210","2019-11-21 17:00","2019","11","21","17:00","4.7","","1.0","","77","","","","31","","23","","","","101.08","","","","","","NA"
"-64.30","44.36","LUNENBURG","8203210","2019-11-21 18:00","2019","11","21","18:00","4.2","","0.0","","74","","","","31","","29","","","","101.17","","","","","","NA"
"-64.30","44.36","LUNENBURG","8203210","2019-11-21 19:00","2019","11","21","19:00","3.8","","0.2","","78","","","","32","","21","","","","101.21","","","","","","NA"
"-64.30","44.36","LUNENBURG","8203210","2019-11-21 20:00","2019","11","21","20:00","3.1","","0.6","","84","","","","29","","20","","","","101.29","","","","","","NA"
"-64.30","44.36","LUNENBURG","8203210","2019-11-21 21:00","2019","11","21","21:00","2.5","","-0.2","","82","","","","30","","18","","","","101.26","","","","","","NA"
"-64.30","44.36","LUNENBURG","8203210","2019-11-21 22:00","2019","11","21","22:00","2.2","","0.1","","86","","","","29","","18","","","","101.26","","","","","","NA"
"-64.30","44.36","LUNENBURG","8203210","2019-11-21 23:00","2019","11","21","23:00","2.0","","0.1","","87","","","","29","","15","","","","101.23","","","","","","NA"
"-64.30","44.36","LUNENBURG","8203210","2019-11-22 00:00","2019","11","22","00:00","1.7","","0.3","","90","","","","29","","12","","","","101.18","","","","","","NA"
"-64.30","44.36","LUNENBURG","8203210","2019-11-22 01:00","2019","11","22","01:00","1.3","","-0.2","","90","","","","28","","11","","","","101.19","","","","","","NA"
"-64.30","44.36","LUNENBURG","8203210","2019-11-22 02:00","2019","11","22","02:00","0.7","","-0.2","","94","","","","26","","13","","","","101.19","","","","","","NA"
"-64.30","44.36","LUNENBURG","8203210","2019-11-22 03:00","2019","11","22","03:00","0.6","","-0.5","","92","","","","27","","13","","","","101.20","","","","","","NA"
"-64.30","44.36","LUNENBURG","8203210","2019-11-22 04:00","2019","11","22","04:00","0.8","","-0.4","","92","","","","28","","15","","","","101.18","","","","","","NA"
"-64.30","44.36","LUNENBURG","8203210","2019-11-22 05:00","2019","11","22","05:00","1.0","","-0.5","","89","","","","29","","16","","","","101.17","","","","","","NA"
"-64.30","44.36","LUNENBURG","8203210","2019-11-22 06:00","2019","11","22","06:00","1.2","","-1.0","","85","","","","29","","8","","","","101.14","","","","","","NA"
"-64.30","44.36","LUNENBURG","8203210","2019-11-22 07:00","2019","11","22","07:00","1.4","","-0.3","","89","","","","25","","6","","","","101.10","","","","","","NA"
"-64.30","44.36","LUNENBURG","8203210","2019-11-22 08:00","2019","11","22","08:00","1.4","","0.1","","91","","","","22","","8","","","","101.07","","","","","","NA"
"-64.30","44.36","LUNENBURG","8203210","2019-11-22 09:00","2019","11","22","09:00","1.7","","-0.1","","88","","","","22","","9","","","","101.05","","","","","","NA"
"-64.30","44.36","LUNENBURG","8203210","2019-11-22 10:00","2019","11","22","10:00","2.4","","-0.6","","81","","","","20","","11","","","","101.03","","","","","","NA"
"-64.30","44.36","LUNENBURG","8203210","2019-11-22 11:00","2019","11","22","11:00","3.1","","-0.1","","80","","","","15","","9","","","","100.90","","","","","","NA"
"-64.30","44.36","LUNENBURG","8203210","2019-11-22 12:00","2019","11","22","12:00","3.5","","0.4","","80","","","","15","","16","","","","100.71","","","","","","NA"
"-64.30","44.36","LUNENBURG","8203210","2019-11-22 13:00","2019","11","22","13:00","5.0","","2.2","","82","","","","16","","16","","","","100.58","","","","","","NA"
"-64.30","44.36","LUNENBURG","8203210","2019-11-22 14:00","2019","11","22","14:00","5.9","","3.4","","84","","","","16","","17","","","","100.43","","","","","","NA"
"-64.30","44.36","LUNENBURG","8203210","2019-11-22 15:00","2019","11","22","15:00","6.9","","4.4","","84","","","","16","","27","","","","100.33","","","","","","NA"
"-64.30","44.36","LUNENBURG","8203210","2019-11-22 16:00","2019","11","22","16:00","7.7","","4.7","","81","","","","17","","30","","","","100.21","","","","","","NA"
"-64.30","44.36","LUNENBURG","8203210","2019-11-22 17:00","2019","11","22","17:00","7.8","","5.8","","87","","","","16","","28","","","","100.05","","","","","","NA"
"-64.30","44.36","LUNENBURG","8203210","2019-11-22 18:00","2019","11","22","18:00","8.8","","6.8","","88","","","","16","","32","","","","99.87","","","","","","NA"
"-64.30","44.36","LUNENBURG","8203210","2019-11-22 19:00","2019","11","22","19:00","9.1","","7.7","","91","","","","15","","36","","","","99.60","","","","","","NA"
"-64.30","44.36","LUNENBURG","8203210","2019-11-22 20:00","2019","11","22","20:00","9.8","","8.0","","89","","","","15","","45","","","","99.39","","","","","","NA"
"-64.30","44.36","LUNENBURG","8203210","2019-11-22 21:00","2019","11","22","21:00","9.8","","9.0","","95","","","","15","","44","","","","99.17","","","","","","NA"
"-64.30","44.36","LUNENBURG","8203210","2019-11-22 22:00","2019","11","22","22:00","10.0","","9.1","","94","","","","19","","34","","","","99.06","","","","","","NA"
"-64.30","44.36","LUNENBURG","8203210","2019-11-22 23:00","2019","11","22","23:00","7.4","","5.9","","90","","","","26","","26","","","","98.97","","","","","","NA"
"-64.30","44.36","LUNENBURG","8203210","2019-11-23 00:00","2019","11","23","00:00","5.3","","3.5","","89","","","","28","","35","","","","99.03","","","","","","NA"
"-64.30","44.36","LUNENBURG","8203210","2019-11-23 01:00","2019","11","23","01:00","4.3","","2.7","","89","","","","27","","25","","","","99.10","","","","","","NA"
"-64.30","44.36","LUNENBURG","8203210","2019-11-23 02:00","2019","11","23","02:00","4.0","","2.2","","88","","","","26","","27","","","","99.19","","","","","","NA"
"-64.30","44.36","LUNENBURG","8203210","2019-11-23 03:00","2019","11","23","03:00","3.5","","1.7","","88","","","","27","","30","","","","99.26","","","","","","NA"
"-64.30","44.36","LUNENBURG","8203210","2019-11-23 04:00","2019","11","23","04:00","2.6","","1.0","","89","","","","27","","33","","","","99.38","","","","","","NA"
"-64.30","44.36","LUNENBURG","8203210","2019-11-23 05:00","2019","11","23","05:00","2.0","","0.3","","88","","","","25","","32","","","","99.53","","","","","","NA"
"-64.30","44.36","LUNENBURG","8203210","2019-11-23 06:00","2019","11","23","06:00","1.8","","-1.2","","80","","","","27","","33","","","","99.63","","","","","","NA"
"-64.30","44.36","LUNENBURG","8203210","2019-11-23 07:00","2019","11","23","07:00","1.3","","-1.2","","84","","","","27","","28","","","","99.75","","","","","","NA"
"-64.30","44.36","LUNENBURG","8203210","2019-11-23 08:00","2019","11","23","08:00","1.2","","-2.2","","78","","","","28","","34","","","","99.85","","","","","","NA"
"-64.30","44.36","LUNENBURG","8203210","2019-11-23 09:00","2019","11","23","09:00","0.9","","-3.2","","74","","","","27","","45","","","","99.92","","","","","","NA"
"-64.30","44.36","LUNENBURG","8203210","2019-11-23 10:00","2019","11","23","10:00","1.0","","-3.1","","74","","","","27","","35","","","","99.96","","","","","","NA"
"-64.30","44.36","LUNENBURG","8203210","2019-11-23 11:00","2019","11","23","11:00","1.1","","-3.6","","71","","","","27","","45","","","","99.99","","","","","","NA"
"-64.30","44.36","LUNENBURG","8203210","2019-11-23 12:00","2019","11","23","12:00","1.6","","-3.7","","68","","","","27","","53","","","","99.95","","","","","","NA"
"-64.30","44.36","LUNENBURG","8203210","2019-11-23 13:00","2019","11","23","13:00","2.1","","-3.9","","65","","","","27","","49","","","","100.01","","","","","","NA"
"-64.30","44.36","LUNENBURG","8203210","2019-11-23 14:00","2019","11","23","14:00","2.6","","-3.8","","63","","","","27","","51","","","","100.00","","","","","","NA"
"-64.30","44.36","LUNENBURG","8203210","2019-11-23 15:00","2019","11","23","15:00","2.8","","-4.6","","58","","","","27","","30","","","","100.07","","","","","","NA"
"-64.30","44.36","LUNENBURG","8203210","2019-11-23 16:00","2019","11","23","16:00","2.9","","-5.5","","54","","","","26","","32","","","","100.19","","","","","","NA"
"-64.30","44.36","LUNENBURG","8203210","2019-11-23 17:00","2019","11","23","17:00","2.5","","-4.4","","60","","","","26","","29","","","","100.32","","","","","","NA"
"-64.30","44.36","LUNENBURG","8203210","2019-11-23 18:00","2019","11","23","18:00","2.1","","-4.5","","61","","","","25","","20","","","","100.45","","","","","","NA"
"-64.30","44.36","LUNENBURG","8203210","2019-11-23 19:00","2019","11","23","19:00","2.3","","-4.4","","61","","","","25","","23","","","","100.52","","","","","","NA"
"-64.30","44.36","LUNENBURG","8203210","2019-11-23 20:00","2019","11","23","20:00","2.7","","-4.3","","60","","","","26","","35","","","","100.53","","","","","","NA"
"-64.30","44.36","LUNENBURG","8203210","2019-11-23 21:00","2019","11","23","21:00","2.4","","-4.1","","62","","","","26","","28","","","","100.62","","","","","","NA"
"-64.30","44.36","LUNENBURG","8203210","2019-11-23 22:00","2019","11","23","22:00","2.1","","-4.2","","63","","","","28","","18","","","","100.57","","","","","","NA"
"-64.30","44.36","LUNENBURG","8203210","2019-11-23 23:00","2019","11","23","23:00","1.7","","-3.4","","69","","","","26","","16","","","","100.62","","","","","","NA"
"-64.30","44.36","LUNENBURG","8203210","2019-11-24 00:00","2019","11","24","00:00","1.7","","-3.1","","71","","","","26","","13","","","","100.69","","","","","","NA"
"-64.30","44.36","LUNENBURG","8203210","2019-11-24 01:00","2019","11","24","01:00","1.6","","-2.9","","72","","","","23","","17","","","","100.70","","","","","","NA"
"-64.30","44.36","LUNENBURG","8203210","2019-11-24 02:00","2019","11","24","02:00","1.4","","-2.5","","75","","","","21","","9","","","","100.66","","","","","","NA"
"-64.30","44.36","LUNENBURG","8203210","2019-11-24 03:00","2019","11","24","03:00","1.0","","-2.6","","77","","","","22","","10","","","","100.69","","","","","","NA"
"-64.30","44.36","LUNENBURG","8203210","2019-11-24 04:00","2019","11","24","04:00","0.8","","-2.0","","82","","","","25","","11","","","","100.69","","","","","","NA"
"-64.30","44.36","LUNENBURG","8203210","2019-11-24 05:00","2019","11","24","05:00","1.1","","-2.0","","80","","","","24","","12","","","","100.70","","","","","","NA"
"-64.30","44.36","LUNENBURG","8203210","2019-11-24 06:00","2019","11","24","06:00","0.9","","-1.8","","82","","","","26","","4","","","","100.68","","","","","","NA"
"-64.30","44.36","LUNENBURG","8203210","2019-11-24 07:00","2019","11","24","07:00","1.2","","-1.3","","84","","","","22","","5","","","","100.70","","","","","","NA"
"-64.30","44.36","LUNENBURG","8203210","2019-11-24 08:00","2019","11","24","08:00","1.5","","-0.8","","85","","","","30","","4","","","","100.71","","","","","","NA"
"-64.30","44.36","LUNENBURG","8203210","2019-11-24 09:00","2019","11","24","09:00","2.2","","-0.7","","81","","","","0","","1","","","","100.68","","","","","","NA"
"-64.30","44.36","LUNENBURG","8203210","2019-11-24 10:00","2019","11","24","10:00","2.8","","-0.2","","81","","","","1","","6","","","","100.67","","","","","","NA"
"-64.30","44.36","LUNENBURG","8203210","2019-11-24 11:00","2019","11","24","11:00","4.1","","1.1","","81","","","","4","","5","","","","100.58","","","","","","NA"
"-64.30","44.36","LUNENBURG","8203210","2019-11-24 12:00","2019","11","24","12:00","5.2","","1.5","","77","","","","4","","4","","","","100.50","","","","","","NA"
"-64.30","44.36","LUNENBURG","8203210","2019-11-24 13:00","2019","11","24","13:00","5.8","","2.2","","78","","","","36","","3","","","","100.53","","","","","","NA"
"-64.30","44.36","LUNENBURG","8203210","2019-11-24 14:00","2019","11","24","14:00","5.3","","3.5","","88","","","","33","","8","","","","100.42","","","","","","NA"
"-64.30","44.36","LUNENBURG","8203210","2019-11-24 15:00","2019","11","24","15:00","6.1","","4.5","","90","","","","36","","8","","","","100.23","","","","","","NA"
"-64.30","44.36","LUNENBURG","8203210","2019-11-24 16:00","2019","11","24","16:00","7.5","","4.4","","81","","","","7","","23","","","","100.10","","","","","","NA"
"-64.30","44.36","LUNENBURG","8203210","2019-11-24 17:00","2019","11","24","17:00","7.5","","4.9","","84","","","","7","","27","","","","100.02","","","","","","NA"
"-64.30","44.36","LUNENBURG","8203210","2019-11-24 18:00","2019","11","24","18:00","7.4","","5.8","","90","","","","7","","37","","","","99.83","","","","","","NA"
"-64.30","44.36","LUNENBURG","8203210","2019-11-24 19:00","2019","11","24","19:00","7.6","","6.5","","92","","","","6","","37","","","","99.63","","","","","","NA"
"-64.30","44.36","LUNENBURG","8203210","2019-11-24 20:00","2019","11","24","20:00","8.3","","7.5","","95","","","","6","","40","","","","99.41","","","","","","NA"
"-64.30","44.36","LUNENBURG","8203210","2019-11-24 21:00","2019","11","24","21:00","8.5","","8.1","","97","","","","7","","50","","","","99.08","","","","","","NA"
"-64.30","44.36","LUNENBURG","8203210","2019-11-24 22:00","2019","11","24","22:00","8.5","","8.2","","98","","","","6","","58","","","","98.66","","","","","","NA"
"-64.30","44.36","LUNENBURG","8203210","2019-11-24 23:00","2019","11","24","23:00","8.9","","8.7","","99","","","","6","","55","","","","98.51","","","","","","NA"
"-64.30","44.36","LUNENBURG","8203210","2019-11-25 00:00","2019","11","25","00:00","9.5","","9.0","","97","","","","9","","46","","","","98.33","","","","","","NA"
"-64.30","44.36","LUNENBURG","8203210","2019-11-25 01:00","2019","11","25","01:00","10.8","","9.5","","92","","","","20","","32","","","","98.34","","","","","","NA"
"-64.30","44.36","LUNENBURG","8203210","2019-11-25 02:00","2019","11","25","02:00","9.2","","7.8","","91","","","","21","","18","","","","98.31","","","","","","NA"
"-64.30","44.36","LUNENBURG","8203210","2019-11-25 03:00","2019","11","25","03:00","8.8","","7.8","","93","","","","19","","18","","","","98.32","","","","","","NA"
"-64.30","44.36","LUNENBURG","8203210","2019-11-25 04:00","2019","11","25","04:00","9.8","","8.4","","92","","","","16","","29","","","","98.28","","","","","","NA"
"-64.30","44.36","LUNENBURG","8203210","2019-11-25 05:00","2019","11","25","05:00","9.0","","8.1","","95","","","","19","","27","","","","98.28","","","","","","NA"
"-64.30","44.36","LUNENBURG","8203210","2019-11-25 06:00","2019","11","25","06:00","8.6","","7.5","","93","","","","19","","17","","","","98.31","","","","","","NA"
"-64.30","44.36","LUNENBURG","8203210","2019-11-25 07:00","2019","11","25","07:00","8.1","","7.5","","97","","","","20","","17","","","","98.41","","","","","","NA"
"-64.30","44.36","LUNENBURG","8203210","2019-11-25 08:00","2019","11","25","08:00","8.4","","7.4","","94","","","","21","","18","","","","98.50","","","","","","NA"
"-64.30","44.36","LUNENBURG","8203210","2019-11-25 09:00","2019","11","25","09:00","8.3","","7.6","","95","","","","23","","26","","","","98.59","","","","","","NA"
"-64.30","44.36","LUNENBURG","8203210","2019-11-25 10:00","2019","11","25","10:00","5.7","","3.0","","83","","","","26","","45","","","","98.87","","","","","","NA"
"-64.30","44.36","LUNENBURG","8203210","2019-11-25 11:00","2019","11","25","11:00","4.9","","2.1","","82","","","","26","","50","","","","99.06","","","","","","NA"
"-64.30","44.36","LUNENBURG","8203210","2019-11-25 12:00","2019","11","25","12:00","4.6","","1.9","","83","","","","26","","50","","","","99.21","","","","","","NA"
"-64.30","44.36","LUNENBURG","8203210","2019-11-25 13:00","2019","11","25","13:00","4.6","","1.8","","82","","","","27","","47","","","","99.36","","","","","","NA"
"-64.30","44.36","LUNENBURG","8203210","2019-11-25 14:00","2019","11","25","14:00","4.7","","1.6","","80","","","","26","","39","","","","99.56","","","","","","NA"
"-64.30","44.36","LUNENBURG","8203210","2019-11-25 15:00","2019","11","25","15:00","5.0","","1.3","","77","","","","27","","35","","","","99.72","","","","","","NA"
"-64.30","44.36","LUNENBURG","8203210","2019-11-25 16:00","2019","11","25","16:00","4.9","","0.5","","73","","","","27","","41","","","","99.92","","","","","","NA"
"-64.30","44.36","LUNENBURG","8203210","2019-11-25 17:00","2019","11","25","17:00","4.7","","0.6","","75","","","","27","","32","","","","100.07","","","","","","NA"
"-64.30","44.36","LUNENBURG","8203210","2019-11-25 18:00","2019","11","25","18:00","4.4","","0.5","","75","","","","26","","25","","","","100.25","","","","","","NA"
"-64.30","44.36","LUNENBURG","8203210","2019-11-25 19:00","2019","11","25","19:00","4.2","","1.0","","80","","","","25","","21","","","","100.38","","","","","","NA"
"-64.30","44.36","LUNENBURG","8203210","2019-11-25 20:00","2019","11","25","20:00","4.2","","1.5","","82","","","","22","","17","","","","100.53","","","","","","NA"
"-64.30","44.36","LUNENBURG","8203210","2019-11-25 21:00","2019","11","25","21:00","4.9","","1.8","","81","","","","26","","23","","","","100.59","","","","","","NA"
"-64.30","44.36","LUNENBURG","8203210","2019-11-25 22:00","2019","11","25","22:00","5.4","","1.8","","77","","","","25","","22","","","","100.68","","","","","","NA"
"-64.30","44.36","LUNENBURG","8203210","2019-11-25 23:00","2019","11","25","23:00","4.9","","1.7","","80","","","","24","","14","","","","100.77","","","","","","NA"
"-64.30","44.36","LUNENBURG","8203210","2019-11-26 00:00","2019","11","26","00:00","5.5","","0.8","","72","","","","25","","18","","","","100.86","","","","","","NA"
"-64.30","44.36","LUNENBURG","8203210","2019-11-26 01:00","2019","11","26","01:00","5.3","","1.4","","76","","","","24","","15","","","","100.91","","","","","","NA"
"-64.30","44.36","LUNENBURG","8203210","2019-11-26 02:00","2019","11","26","02:00","3.4","","1.3","","86","","","","23","","15","","","","100.98","","","","","","NA"
"-64.30","44.36","LUNENBURG","8203210","2019-11-26 03:00","2019","11","26","03:00","3.3","","0.7","","83","","","","22","","13","","","","101.06","","","","","","NA"
"-64.30","44.36","LUNENBURG","8203210","2019-11-26 04:00","2019","11","26","04:00","2.8","","0.4","","84","","","","22","","12","","","","101.10","","","","","","NA"
"-64.30","44.36","LUNENBURG","8203210","2019-11-26 05:00","2019","11","26","05:00","2.6","","0.6","","87","","","","23","","16","","","","101.14","","","","","","NA"
"-64.30","44.36","LUNENBURG","8203210","2019-11-26 06:00","2019","11","26","06:00","2.5","","0.6","","87","","","","23","","15","","","","101.18","","","","","","NA"
"-64.30","44.36","LUNENBURG","8203210","2019-11-26 07:00","2019","11","26","07:00","2.6","","0.8","","88","","","","23","","16","","","","101.25","","","","","","NA"
"-64.30","44.36","LUNENBURG","8203210","2019-11-26 08:00","2019","11","26","08:00","2.6","","0.5","","86","","","","23","","14","","","","101.33","","","","","","NA"
"-64.30","44.36","LUNENBURG","8203210","2019-11-26 09:00","2019","11","26","09:00","3.1","","0.8","","85","","","","24","","14","","","","101.40","","","","","","NA"
"-64.30","44.36","LUNENBURG","8203210","2019-11-26 10:00","2019","11","26","10:00","5.1","","1.2","","76","","","","24","","14","","","","101.42","","","","","","NA"
"-64.30","44.36","LUNENBURG","8203210","2019-11-26 11:00","2019","11","26","11:00","7.5","","2.2","","69","","","","24","","13","","","","101.39","","","","","","NA"
"-64.30","44.36","LUNENBURG","8203210","2019-11-26 12:00","2019","11","26","12:00","8.6","","1.7","","62","","","","24","","21","","","","101.33","","","","","","NA"
"-64.30","44.36","LUNENBURG","8203210","2019-11-26 13:00","2019","11","26","13:00","9.3","","1.2","","57","","","","23","","25","","","","101.33","","","","","","NA"
"-64.30","44.36","LUNENBURG","8203210","2019-11-26 14:00","2019","11","26","14:00","10.0","","1.5","","55","","","","24","","24","","","","101.34","","","","","","NA"
"-64.30","44.36","LUNENBURG","8203210","2019-11-26 15:00","2019","11","26","15:00","10.0","","1.7","","56","","","","23","","21","","","","101.27","","","","","","NA"
"-64.30","44.36","LUNENBURG","8203210","2019-11-26 16:00","2019","11","26","16:00","8.8","","5.0","","77","","","","18","","23","","","","101.25","","","","","","NA"
"-64.30","44.36","LUNENBURG","8203210","2019-11-26 17:00","2019","11","26","17:00","8.0","","6.0","","87","","","","18","","16","","","","101.23","","","","","","NA"
"-64.30","44.36","LUNENBURG","8203210","2019-11-26 18:00","2019","11","26","18:00","7.3","","5.6","","89","","","","20","","5","","","","101.21","","","","","","NA"
"-64.30","44.36","LUNENBURG","8203210","2019-11-26 19:00","2019","11","26","19:00","7.2","","5.6","","89","","","","20","","8","","","","101.20","","","","","","NA"
"-64.30","44.36","LUNENBURG","8203210","2019-11-26 20:00","2019","11","26","20:00","7.4","","5.7","","89","","","","20","","18","","","","101.17","","","","","","NA"
"-64.30","44.36","LUNENBURG","8203210","2019-11-26 21:00","2019","11","26","21:00","7.7","","6.0","","89","","","","21","","26","","","","101.14","","","","","","NA"
"-64.30","44.36","LUNENBURG","8203210","2019-11-26 22:00","2019","11","26","22:00","7.5","","6.2","","92","","","","22","","21","","","","101.14","","","","","","NA"
"-64.30","44.36","LUNENBURG","8203210","2019-11-26 23:00","2019","11","26","23:00","8.1","","6.7","","90","","","","23","","17","","","","101.16","","","","","","NA"
"-64.30","44.36","LUNENBURG","8203210","2019-11-27 00:00","2019","11","27","00:00","8.1","","6.6","","90","","","","24","","14","","","","101.17","","","","","","NA"
"-64.30","44.36","LUNENBURG","8203210","2019-11-27 01:00","2019","11","27","01:00","7.6","","6.4","","92","","","","23","","15","","","","101.17","","","","","","NA"
"-64.30","44.36","LUNENBURG","8203210","2019-11-27 02:00","2019","11","27","02:00","7.3","","6.1","","92","","","","23","","13","","","","101.24","","","","","","NA"
"-64.30","44.36","LUNENBURG","8203210","2019-11-27 03:00","2019","11","27","03:00","7.6","","5.3","","85","","","","25","","13","","","","101.31","","","","","","NA"
"-64.30","44.36","LUNENBURG","8203210","2019-11-27 04:00","2019","11","27","04:00","7.1","","4.6","","84","","","","25","","14","","","","101.34","","","","","","NA"
"-64.30","44.36","LUNENBURG","8203210","2019-11-27 05:00","2019","11","27","05:00","6.3","","4.2","","87","","","","25","","15","","","","101.41","","","","","","NA"
"-64.30","44.36","LUNENBURG","8203210","2019-11-27 06:00","2019","11","27","06:00","5.1","","3.7","","91","","","","24","","9","","","","101.46","","","","","","NA"
"-64.30","44.36","LUNENBURG","8203210","2019-11-27 07:00","2019","11","27","07:00","4.4","","3.1","","92","","","","25","","12","","","","101.50","","","","","","NA"
"-64.30","44.36","LUNENBURG","8203210","2019-11-27 08:00","2019","11","27","08:00","4.3","","2.9","","91","","","","26","","11","","","","101.54","","","","","","NA"
"-64.30","44.36","LUNENBURG","8203210","2019-11-27 09:00","2019","11","27","09:00","4.4","","3.0","","90","","","","24","","18","","","","101.61","","","","","","NA"
"-64.30","44.36","LUNENBURG","8203210","2019-11-27 10:00","2019","11","27","10:00","6.3","","2.5","","77","","","","27","","18","","","","101.59","","","","","","NA"
"-64.30","44.36","LUNENBURG","8203210","2019-11-27 11:00","2019","11","27","11:00","6.8","","2.0","","71","","","","29","","19","","","","101.54","","","","","","NA"
"-64.30","44.36","LUNENBURG","8203210","2019-11-27 12:00","2019","11","27","12:00","7.8","","1.8","","66","","","","29","","16","","","","101.46","","","","","","NA"
"-64.30","44.36","LUNENBURG","8203210","2019-11-27 13:00","2019","11","27","13:00","8.2","","1.9","","64","","","","29","","15","","","","101.40","","","","","","NA"
"-64.30","44.36","LUNENBURG","8203210","2019-11-27 14:00","2019","11","27","14:00","8.9","","2.0","","62","","","","24","","12","","","","101.35","","","","","","NA"
"-64.30","44.36","LUNENBURG","8203210","2019-11-27 15:00","2019","11","27","15:00","8.8","","2.7","","66","","","","25","","12","","","","101.35","","","","","","NA"
"-64.30","44.36","LUNENBURG","8203210","2019-11-27 16:00","2019","11","27","16:00","8.5","","2.4","","66","","","","25","","11","","","","101.33","","","","","","NA"
"-64.30","44.36","LUNENBURG","8203210","2019-11-27 17:00","2019","11","27","17:00","7.3","","3.8","","78","","","","26","","4","","","","101.29","","","","","","NA"
"-64.30","44.36","LUNENBURG","8203210","2019-11-27 18:00","2019","11","27","18:00","6.5","","3.5","","81","","","","9","","1","","","","101.22","","","","","","NA"
"-64.30","44.36","LUNENBURG","8203210","2019-11-27 19:00","2019","11","27","19:00","6.1","","3.3","","82","","","","29","","4","","","","101.12","","","","","","NA"
"-64.30","44.36","LUNENBURG","8203210","2019-11-27 20:00","2019","11","27","20:00","6.2","","3.7","","84","","","","11","","2","","","","101.09","","","","","","NA"
"-64.30","44.36","LUNENBURG","8203210","2019-11-27 21:00","2019","11","27","21:00","5.5","","3.4","","86","","","","2","","2","","","","100.99","","","","","","NA"
"-64.30","44.36","LUNENBURG","8203210","2019-11-27 22:00","2019","11","27","22:00","6.0","","3.3","","83","","","","3","","13","","","","100.83","","","","","","NA"
"-64.30","44.36","LUNENBURG","8203210","2019-11-27 23:00","2019","11","27","23:00","6.9","","4.4","","84","","","","5","","18","","","","100.66","","","","","","NA"
"-64.30","44.36","LUNENBURG","8203210","2019-11-28 00:00","2019","11","28","00:00","7.8","","6.0","","88","","","","8","","29","","","","100.44","","","","","","NA"
"-64.30","44.36","LUNENBURG","8203210","2019-11-28 01:00","2019","11","28","01:00","7.7","","5.8","","88","","","","9","","34","","","","100.27","","","","","","NA"
"-64.30","44.36","LUNENBURG","8203210","2019-11-28 02:00","2019","11","28","02:00","7.0","","5.6","","91","","","","7","","35","","","","100.09","","","","","","NA"
"-64.30","44.36","LUNENBURG","8203210","2019-11-28 03:00","2019","11","28","03:00","6.9","","5.4","","91","","","","7","","40","","","","99.91","","","","","","NA"
"-64.30","44.36","LUNENBURG","8203210","2019-11-28 04:00","2019","11","28","04:00","7.0","","6.4","","96","","","","6","","43","","","","99.66","","","","","","NA"
"-64.30","44.36","LUNENBURG","8203210","2019-11-28 05:00","2019","11","28","05:00","7.0","","6.4","","96","","","","4","","44","","","","99.46","","","","","","NA"
"-64.30","44.36","LUNENBURG","8203210","2019-11-28 06:00","2019","11","28","06:00","6.7","","6.3","","97","","","","4","","44","","","","99.25","","","","","","NA"
"-64.30","44.36","LUNENBURG","8203210","2019-11-28 07:00","2019","11","28","07:00","7.0","","6.2","","95","","","","4","","39","","","","99.15","","","","","","NA"
"-64.30","44.36","LUNENBURG","8203210","2019-11-28 08:00","2019","11","28","08:00","6.4","","5.6","","95","","","","35","","14","","","","99.12","","","","","","NA"
"-64.30","44.36","LUNENBURG","8203210","2019-11-28 09:00","2019","11","28","09:00","5.2","","4.3","","94","","","","34","","12","","","","99.08","","","","","","NA"
"-64.30","44.36","LUNENBURG","8203210","2019-11-28 10:00","2019","11","28","10:00","4.7","","3.7","","93","","","","36","","17","","","","99.05","","","","","","NA"
"-64.30","44.36","LUNENBURG","8203210","2019-11-28 11:00","2019","11","28","11:00","4.4","","3.4","","93","","","","35","","14","","","","99.01","","","","","","NA"
"-64.30","44.36","LUNENBURG","8203210","2019-11-28 12:00","2019","11","28","12:00","4.2","","2.8","","91","","","","34","","16","","","","98.97","","","","","","NA"
"-64.30","44.36","LUNENBURG","8203210","2019-11-28 13:00","2019","11","28","13:00","4.1","","2.3","","88","","","","36","","19","","","","99.01","","","","","","NA"
"-64.30","44.36","LUNENBURG","8203210","2019-11-28 14:00","2019","11","28","14:00","4.0","","1.9","","86","","","","35","","22","","","","99.04","","","","","","NA"
"-64.30","44.36","LUNENBURG","8203210","2019-11-28 15:00","2019","11","28","15:00","3.4","","2.0","","91","","","","33","","24","","","","99.10","","","","","","NA"
"-64.30","44.36","LUNENBURG","8203210","2019-11-28 16:00","2019","11","28","16:00","2.9","","1.9","","93","","","","34","","23","","","","99.21","","","","","","NA"
"-64.30","44.36","LUNENBURG","8203210","2019-11-28 17:00","2019","11","28","17:00","3.0","","1.8","","92","","","","33","","29","","","","99.31","","","","","","NA"
"-64.30","44.36","LUNENBURG","8203210","2019-11-28 18:00","2019","11","28","18:00","3.6","","1.9","","89","","","","33","","24","","","","99.44","","","","","","NA"
"-64.30","44.36","LUNENBURG","8203210","2019-11-28 19:00","2019","11","28","19:00","3.9","","2.1","","88","","","","33","","34","","","","99.53","","","","","","NA"
"-64.30","44.36","LUNENBURG","8203210","2019-11-28 20:00","2019","11","28","20:00","4.1","","2.1","","87","","","","32","","35","","","","99.65","","","","","","NA"
"-64.30","44.36","LUNENBURG","8203210","2019-11-28 21:00","2019","11","28","21:00","4.0","","1.8","","86","","","","32","","36","","","","99.73","","","","","","NA"
"-64.30","44.36","LUNENBURG","8203210","2019-11-28 22:00","2019","11","28","22:00","4.3","","1.7","","83","","","","33","","38","","","","99.81","","","","","","NA"
"-64.30","44.36","LUNENBURG","8203210","2019-11-28 23:00","2019","11","28","23:00","4.4","","2.0","","84","","","","33","","40","","","","99.86","","","","","","NA"
"-64.30","44.36","LUNENBURG","8203210","2019-11-29 00:00","2019","11","29","00:00","4.4","","2.0","","84","","","","32","","42","","","","99.88","","","","","","NA"
"-64.30","44.36","LUNENBURG","8203210","2019-11-29 01:00","2019","11","29","01:00","4.7","","1.7","","81","","","","32","","45","","","","99.95","","","","","","NA"
"-64.30","44.36","LUNENBURG","8203210","2019-11-29 02:00","2019","11","29","02:00","4.2","","2.1","","86","","","","32","","37","","","","100.08","","","","","","NA"
"-64.30","44.36","LUNENBURG","8203210","2019-11-29 03:00","2019","11","29","03:00","3.9","","2.2","","89","","","","32","","47","","","","100.12","","","","","","NA"
"-64.30","44.36","LUNENBURG","8203210","2019-11-29 04:00","2019","11","29","04:00","3.6","","1.3","","85","","","","32","","47","","","","100.17","","","","","","NA"
"-64.30","44.36","LUNENBURG","8203210","2019-11-29 05:00","2019","11","29","05:00","3.5","","-0.2","","77","","","","32","","50","","","","100.16","","","","","","NA"
"-64.30","44.36","LUNENBURG","8203210","2019-11-29 06:00","2019","11","29","06:00","3.1","","-0.3","","78","","","","32","","56","","","","100.23","","","","","","NA"
"-64.30","44.36","LUNENBURG","8203210","2019-11-29 07:00","2019","11","29","07:00","3.0","","0.4","","83","","","","32","","41","","","","100.35","","","","","","NA"
"-64.30","44.36","LUNENBURG","8203210","2019-11-29 08:00","2019","11","29","08:00","2.6","","0.7","","88","","","","31","","38","","","","100.40","","","","","","NA"
"-64.30","44.36","LUNENBURG","8203210","2019-11-29 09:00","2019","11","29","09:00","2.6","","0.6","","86","","","","31","","36","","","","100.41","","","","","","NA"
"-64.30","44.36","LUNENBURG","8203210","2019-11-29 10:00","2019","11","29","10:00","2.7","","-0.8","","77","","","","32","","45","","","","100.37","","","","","","NA"
"-64.30","44.36","LUNENBURG","8203210","2019-11-29 11:00","2019","11","29","11:00","2.4","","-1.5","","75","","","","31","","44","","","","100.35","","","","","","NA"
"-64.30","44.36","LUNENBURG","8203210","2019-11-29 12:00","2019","11","29","12:00","2.1","","-1.8","","75","","","","30","","51","","","","100.28","","","","","","NA"
"-64.30","44.36","LUNENBURG","8203210","2019-11-29 13:00","2019","11","29","13:00","1.6","","-3.0","","72","","","","32","","47","","","","100.27","","","","","","NA"
"-64.30","44.36","LUNENBURG","8203210","2019-11-29 14:00","2019","11","29","14:00","1.3","","-2.5","","76","","","","32","","37","","","","100.27","","","","","","NA"
"-64.30","44.36","LUNENBURG","8203210","2019-11-29 15:00","2019","11","29","15:00","0.7","","-2.3","","80","","","","31","","39","","","","100.22","","","","","","NA"
"-64.30","44.36","LUNENBURG","8203210","2019-11-29 16:00","2019","11","29","16:00","0.0","","-3.2","","79","","","","31","","48","","","","100.24","","","","-8","","NA"
"-64.30","44.36","LUNENBURG","8203210","2019-11-29 17:00","2019","11","29","17:00","0.2","","-3.7","","75","","","","32","","44","","","","100.25","","","","","","NA"
"-64.30","44.36","LUNENBURG","8203210","2019-11-29 18:00","2019","11","29","18:00","-0.1","","-4.1","","74","","","","32","","36","","","","100.27","","","","-7","","NA"
"-64.30","44.36","LUNENBURG","8203210","2019-11-29 19:00","2019","11","29","19:00","0.0","","-3.5","","78","","","","32","","40","","","","100.25","","","","-7","","NA"
"-64.30","44.36","LUNENBURG","8203210","2019-11-29 20:00","2019","11","29","20:00","-0.5","","-3.8","","78","","","","31","","33","","","","100.23","","","","-7","","NA"
"-64.30","44.36","LUNENBURG","8203210","2019-11-29 21:00","2019","11","29","21:00","-1.1","","-4.8","","76","","","","31","","49","","","","100.13","","","","-10","","NA"
"-64.30","44.36","LUNENBURG","8203210","2019-11-29 22:00","2019","11","29","22:00","-1.6","","-5.6","","74","","","","30","","44","","","","100.07","","","","-10","","NA"
"-64.30","44.36","LUNENBURG","8203210","2019-11-29 23:00","2019","11","29","23:00","-1.7","","-5.9","","73","","","","30","","51","","","","99.96","","","","-11","","NA"
"-64.30","44.36","LUNENBURG","8203210","2019-11-30 00:00","2019","11","30","00:00","-1.9","","-5.9","","74","","","","30","","47","","","","99.90","","","","-11","","NA"
"-64.30","44.36","LUNENBURG","8203210","2019-11-30 01:00","2019","11","30","01:00","-2.0","","-5.9","","74","","","","30","","51","","","","99.84","","","","-11","","NA"
"-64.30","44.36","LUNENBURG","8203210","2019-11-30 02:00","2019","11","30","02:00","-1.9","","-5.8","","75","","","","30","","49","","","","99.82","","","","-11","","NA"
"-64.30","44.36","LUNENBURG","8203210","2019-11-30 03:00","2019","11","30","03:00","-1.7","","-5.3","","76","","","","30","","43","","","","99.82","","","","-10","","NA"
"-64.30","44.36","LUNENBURG","8203210","2019-11-30 04:00","2019","11","30","04:00","-2.2","","-6.4","","73","","","","29","","44","","","","99.73","","","","-11","","NA"
"-64.30","44.36","LUNENBURG","8203210","2019-11-30 05:00","2019","11","30","05:00","-2.1","","-5.6","","77","","","","29","","49","","","","99.76","","","","-11","","NA"
"-64.30","44.36","LUNENBURG","8203210","2019-11-30 06:00","2019","11","30","06:00","-2.1","","-5.4","","78","","","","29","","43","","","","99.75","","","","-10","","NA"
"-64.30","44.36","LUNENBURG","8203210","2019-11-30 07:00","2019","11","30","07:00","-2.5","","-6.0","","77","","","","29","","34","","","","99.78","","","","-10","","NA"
"-64.30","44.36","LUNENBURG","8203210","2019-11-30 08:00","2019","11","30","08:00","-2.6","","-6.1","","77","","","","29","","38","","","","99.76","","","","-11","","NA"
"-64.30","44.36","LUNENBURG","8203210","2019-11-30 09:00","2019","11","30","09:00","-2.1","","-5.6","","77","","","","29","","38","","","","99.77","","","","-10","","NA"
"-64.30","44.36","LUNENBURG","8203210","2019-11-30 10:00","2019","11","30","10:00","-1.2","","-4.1","","81","","","","29","","41","","","","99.81","","","","-9","","NA"
"-64.30","44.36","LUNENBURG","8203210","2019-11-30 11:00","2019","11","30","11:00","-1.0","","-4.5","","77","","","","29","","39","","","","99.78","","","","-9","","NA"
"-64.30","44.36","LUNENBURG","8203210","2019-11-30 12:00","2019","11","30","12:00","-0.9","","-4.8","","75","","","","29","","43","","","","99.70","","","","-9","","NA"
"-64.30","44.36","LUNENBURG","8203210","2019-11-30 13:00","2019","11","30","13:00","-0.5","","-4.6","","74","","","","29","","42","","","","99.67","","","","-8","","NA"
"-64.30","44.36","LUNENBURG","8203210","2019-11-30 14:00","2019","11","30","14:00","-0.4","","-4.3","","75","","","","29","","44","","","","99.67","","","","-8","","NA"
"-64.30","44.36","LUNENBURG","8203210","2019-11-30 15:00","2019","11","30","15:00","-0.2","","-4.8","","71","","","","29","","43","","","","99.73","","","","-8","","NA"
"-64.30","44.36","LUNENBURG","8203210","2019-11-30 16:00","2019","11","30","16:00","-0.5","","-6.0","","67","","","","29","","36","","","","99.78","","","","-8","","NA"
"-64.30","44.36","LUNENBURG","8203210","2019-11-30 17:00","2019","11","30","17:00","-0.5","","-5.2","","70","","","","29","","37","","","","99.83","","","","-8","","NA"
"-64.30","44.36","LUNENBURG","8203210","2019-11-30 18:00","2019","11","30","18:00","-1.0","","-6.1","","68","","","","29","","32","","","","99.85","","","","-8","","NA"
"-64.30","44.36","LUNENBURG","8203210","2019-11-30 19:00","2019","11","30","19:00","-0.6","","-5.1","","72","","","","28","","31","","","","99.90","","","","-7","","NA"
"-64.30","44.36","LUNENBURG","8203210","2019-11-30 20:00","2019","11","30","20:00","-0.6","","-5.5","","70","","","","29","","31","","","","99.97","","","","-7","","NA"
"-64.30","44.36","LUNENBURG","8203210","2019-11-30 21:00","2019","11","30","21:00","-0.6","","-5.5","","69","","","","28","","27","","","","100.05","","","","-7","","NA"
"-64.30","44.36","LUNENBURG","8203210","2019-11-30 22:00","2019","11","30","22:00","-0.4","","-4.7","","73","","","","29","","29","","","","100.11","","","","-7","","NA"
"-64.30","44.36","LUNENBURG","8203210","2019-11-30 23:00","2019","11","30","23:00","-1.0","","-5.7","","70","","","","29","","28","","","","100.18","","","","-8","","NA"
