"Longitude (x)","Latitude (y)","Station Name","Climate ID","Date/Time (LST)","Year","Month","Day","Time (LST)","Temp (°C)","Temp Flag","Dew Point Temp (°C)","Dew Point Temp Flag","Rel Hum (%)","Rel Hum Flag","Precip. Amount (mm)","Precip. Amount Flag","Wind Dir (10s deg)","Wind Dir Flag","Wind Spd (km/h)","Wind Spd Flag","Visibility (km)","Visibility Flag","Stn Press (kPa)","Stn Press Flag","Hmdx","Hmdx Flag","Wind Chill","Wind Chill Flag","Weather"
"-75.56","45.52","OTTAWA GATINEAU A","7032682","2023-03-01 00:00","2023","03","01","00:00"
"-75.56","45.52","OTTAWA GATINEAU A","7032682","2023-03-01 01:00","2023","03","01","01:00"
"-75.56","45.52","OTTAWA GATINEAU A","7032682","2023-03-01 02:00","2023","03","01","02:00"
"-75.56","45.52","OTTAWA GATINEAU A","7032682","2023-03-01 03:00","2023","03","01","03:00"
"-75.56","45.52","OTTAWA GATINEAU A","7032682","2023-03-01 04:00","2023","03","01","04:00"
"-75.56","45.52","OTTAWA GATINEAU A","7032682","2023-03-01 05:00","2023","03","01","05:00"
"-75.56","45.52","OTTAWA GATINEAU A","7032682","2023-03-01 06:00","2023","03","01","06:00"
"-75.56","45.52","OTTAWA GATINEAU A","7032682","2023-03-01 07:00","2023","03","01","07:00","-11.2","","-12.2","","92","","","","36","","2","","24.1","","101.08","","","","-12","","Mostly Cloudy"
"-75.56","45.52","OTTAWA GATINEAU A","7032682","2023-03-01 08:00","2023","03","01","08:00","-10.2","","-11.2","","92","","","","0","","1","","24.1","","101.11","","","","-11","","NA"
"-75.56","45.52","OTTAWA GATINEAU A","7032682","2023-03-01 09:00","2023","03","01","09:00","-7.7","","-8.7","","93","","","","9","","4","","24.1","","101.11","","","","-10","","NA"
"-75.56","45.52","OTTAWA GATINEAU A","7032682","2023-03-01 10:00","2023","03","01","10:00","-4.9","","-6.7","","88","","","","36","","1","","24.1","","101.13","","","","-5","","Cloudy"
"-75.56","45.52","OTTAWA GATINEAU A","7032682","2023-03-01 11:00","2023","03","01","11:00","-3.0","","-5.7","","82","","","","8","","9","","24.1","","101.05","","","","-7","","NA"
"-75.56","45.52","OTTAWA GATINEAU A","7032682","2023-03-01 12:00","2023","03","01","12:00","-1.6","","-5.3","","76","","","","7","","5","","24.1","","101.07","","","","-3","","NA"
"-75.56","45.52","OTTAWA GATINEAU A","7032682","2023-03-01 13:00","2023","03","01","13:00","-0.5","","-4.5","","74","","","","9","","7","","24.1","","100.99","","","","-3","","Cloudy"
"-75.56","45.52","OTTAWA GATINEAU A","7032682","2023-03-01 14:00","2023","03","01","14:00","0.6","","-4.4","","69","","","","10","","14","","24.1","","100.81","","","","","","NA"
"-75.56","45.52","OTTAWA GATINEAU A","7032682","2023-03-01 15:00","2023","03","01","15:00","1.0","","-4.5","","67","","","","8","","9","","24.1","","100.76","","","","","","NA"
"-75.56","45.52","OTTAWA GATINEAU A","7032682","2023-03-01 16:00","2023","03","01","16:00","0.8","","-4.0","","70","","","","7","","9","","24.1","","100.77","","","","","","Mostly Cloudy"
"-75.56","45.52","OTTAWA GATINEAU A","7032682","2023-03-01 17:00","2023","03","01","17:00","0.6","","-4.3","","70","","","","8","","8","","24.1","","100.73","","","","","","NA"
"-75.56","45.52","OTTAWA GATINEAU A","7032682","2023-03-01 18:00","2023","03","01","18:00","-0.1","","-4.3","","73","","","","7","","11","","24.1","","100.69","","","","-4","","NA"
"-75.56","45.52","OTTAWA GATINEAU A","7032682","2023-03-01 19:00","2023","03","01","19:00","-0.2","","-4.7","","71","","","","8","","17","","24.1","","100.59","","","","-5","","Mostly Cloudy"
"-75.56","45.52","OTTAWA GATINEAU A","7032682","2023-03-01 20:00","2023","03","01","20:00","0.0","","-4.9","","70","","","","9","","8","","24.1","","100.60","","","","-3","","NA"
"-75.56","45.52","OTTAWA GATINEAU A","7032682","2023-03-01 21:00","2023","03","01","21:00","-0.5","","-5.0","","72","","","","10","","6","","24.1","","100.55","","","","-3","","NA"
"-75.56","45.52","OTTAWA GATINEAU A","7032682","2023-03-01 22:00","2023","03","01","22:00"
"-75.56","45.52","OTTAWA GATINEAU A","7032682","2023-03-01 23:00","2023","03","01","23:00"
"-75.56","45.52","OTTAWA GATINEAU A","7032682","2023-03-02 00:00","2023","03","02","00:00"
"-75.56","45.52","OTTAWA GATINEAU A","7032682","2023-03-02 01:00","2023","03","02","01:00"
"-75.56","45.52","OTTAWA GATINEAU A","7032682","2023-03-02 02:00","2023","03","02","02:00"
"-75.56","45.52","OTTAWA GATINEAU A","7032682","2023-03-02 03:00","2023","03","02","03:00"
"-75.56","45.52","OTTAWA GATINEAU A","7032682","2023-03-02 04:00","2023","03","02","04:00"
"-75.56","45.52","OTTAWA GATINEAU A","7032682","2023-03-02 05:00","2023","03","02","05:00"
"-75.56","45.52","OTTAWA GATINEAU A","7032682","2023-03-02 06:00","2023","03","02","06:00"
"-75.56","45.52","OTTAWA GATINEAU A","7032682","2023-03-02 07:00","2023","03","02","07:00","-0.9","","-1.9","","92","","","","35","","9","","4.0","","99.79","","","","-4","","Snow"
"-75.56","45.52","OTTAWA GATINEAU A","7032682","2023-03-02 08:00","2023","03","02","08:00","-0.7","","-2.0","","91","","","","1","","8","","6.4","","99.80","","","","-4","","Snow"
"-75.56","45.52","OTTAWA GATINEAU A","7032682","2023-03-02 09:00","2023","03","02","09:00","-0.5","","-1.8","","91","","","","36","","11","","2.4","","99.76","","","","-4","","Snow"
"-75.56","45.52","OTTAWA GATINEAU A","7032682","2023-03-02 10:00","2023","03","02","10:00","0.0","","-2.5","","84","","","","34","","14","","9.7","","99.75","","","","-4","","Snow"
"-75.56","45.52","OTTAWA GATINEAU A","7032682","2023-03-02 11:00","2023","03","02","11:00","0.0","","-2.5","","83","","","","33","","13","","16.1","","99.76","","","","-4","","Snow"
"-75.56","45.52","OTTAWA GATINEAU A","7032682","2023-03-02 12:00","2023","03","02","12:00","0.3","","-2.2","","83","","","","34","","13","","3.2","","99.79","","","","","","Snow"
"-75.56","45.52","OTTAWA GATINEAU A","7032682","2023-03-02 13:00","2023","03","02","13:00","1.1","","-1.5","","83","","","","34","","18","","3.2","","99.81","","","","","","Snow"
"-75.56","45.52","OTTAWA GATINEAU A","7032682","2023-03-02 14:00","2023","03","02","14:00","2.6","","-3.0","","66","","","","35","","23","","24.1","","99.84","","","","","","NA"
"-75.56","45.52","OTTAWA GATINEAU A","7032682","2023-03-02 15:00","2023","03","02","15:00","2.5","","-3.6","","64","","","","33","","22","","24.1","","99.93","","","","","","NA"
"-75.56","45.52","OTTAWA GATINEAU A","7032682","2023-03-02 16:00","2023","03","02","16:00","3.0","","-4.5","","58","","","","32","","17","","24.1","","100.02","","","","","","Mostly Cloudy"
"-75.56","45.52","OTTAWA GATINEAU A","7032682","2023-03-02 17:00","2023","03","02","17:00","2.5","","-4.3","","61","","","","31","","14","","24.1","","100.16","","","","","","NA"
"-75.56","45.52","OTTAWA GATINEAU A","7032682","2023-03-02 18:00","2023","03","02","18:00","1.8","","-3.6","","67","","","","35","","10","","24.1","","100.29","","","","","","NA"
"-75.56","45.52","OTTAWA GATINEAU A","7032682","2023-03-02 19:00","2023","03","02","19:00","0.7","","-6.0","","61","","","","31","","19","","24.1","","100.44","","","","","","Mainly Clear"
"-75.56","45.52","OTTAWA GATINEAU A","7032682","2023-03-02 20:00","2023","03","02","20:00","-1.0","","-7.0","","64","","","","35","","23","","24.1","","100.51","","","","-7","","NA"
"-75.56","45.52","OTTAWA GATINEAU A","7032682","2023-03-02 21:00","2023","03","02","21:00","-1.9","","-8.2","","62","","","","34","","19","","24.1","","100.58","","","","-7","","NA"
"-75.56","45.52","OTTAWA GATINEAU A","7032682","2023-03-02 22:00","2023","03","02","22:00"
"-75.56","45.52","OTTAWA GATINEAU A","7032682","2023-03-02 23:00","2023","03","02","23:00"
"-75.56","45.52","OTTAWA GATINEAU A","7032682","2023-03-03 00:00","2023","03","03","00:00"
"-75.56","45.52","OTTAWA GATINEAU A","7032682","2023-03-03 01:00","2023","03","03","01:00"
"-75.56","45.52","OTTAWA GATINEAU A","7032682","2023-03-03 02:00","2023","03","03","02:00"
"-75.56","45.52","OTTAWA GATINEAU A","7032682","2023-03-03 03:00","2023","03","03","03:00"
"-75.56","45.52","OTTAWA GATINEAU A","7032682","2023-03-03 04:00","2023","03","03","04:00"
"-75.56","45.52","OTTAWA GATINEAU A","7032682","2023-03-03 05:00","2023","03","03","05:00"
"-75.56","45.52","OTTAWA GATINEAU A","7032682","2023-03-03 06:00","2023","03","03","06:00"
"-75.56","45.52","OTTAWA GATINEAU A","7032682","2023-03-03 07:00","2023","03","03","07:00","-16.5","","-18.2","","87","","","","35","","8","","24.1","","101.23","","","","-22","","Clear"
"-75.56","45.52","OTTAWA GATINEAU A","7032682","2023-03-03 08:00","2023","03","03","08:00","-13.3","","-16.2","","79","","","","34","","11","","24.1","","101.30","","","","-20","","NA"
"-75.56","45.52","OTTAWA GATINEAU A","7032682","2023-03-03 09:00","2023","03","03","09:00","-10.1","","-15.8","","63","","","","14","","10","","24.1","","101.31","","","","-15","","NA"
"-75.56","45.52","OTTAWA GATINEAU A","7032682","2023-03-03 10:00","2023","03","03","10:00","-8.3","","-15.3","","58","","","","10","","9","","24.1","","101.38","","","","-13","","Mainly Clear"
"-75.56","45.52","OTTAWA GATINEAU A","7032682","2023-03-03 11:00","2023","03","03","11:00","-6.8","","-14.6","","54","","","","8","","9","","24.1","","101.36","","","","-11","","NA"
"-75.56","45.52","OTTAWA GATINEAU A","7032682","2023-03-03 12:00","2023","03","03","12:00","-5.3","","-13.5","","53","","","","11","","8","","24.1","","101.33","","","","-9","","NA"
"-75.56","45.52","OTTAWA GATINEAU A","7032682","2023-03-03 13:00","2023","03","03","13:00","-4.5","","-12.6","","54","","","","9","","10","","24.1","","101.18","","","","-9","","Mostly Cloudy"
"-75.56","45.52","OTTAWA GATINEAU A","7032682","2023-03-03 14:00","2023","03","03","14:00","-3.7","","-11.7","","54","","","","10","","19","","24.1","","101.03","","","","-10","","NA"
"-75.56","45.52","OTTAWA GATINEAU A","7032682","2023-03-03 15:00","2023","03","03","15:00","-3.8","","-12.0","","53","","","","9","","13","","24.1","","101.02","","","","-9","","NA"
"-75.56","45.52","OTTAWA GATINEAU A","7032682","2023-03-03 16:00","2023","03","03","16:00","-4.0","","-12.5","","52","","","","6","","17","","24.1","","100.88","","","","-10","","Mostly Cloudy"
"-75.56","45.52","OTTAWA GATINEAU A","7032682","2023-03-03 17:00","2023","03","03","17:00","-4.5","","-12.6","","54","","","","9","","14","","24.1","","100.71","","","","-10","","NA"
"-75.56","45.52","OTTAWA GATINEAU A","7032682","2023-03-03 18:00","2023","03","03","18:00","-4.7","","-13.1","","52","","","","8","","17","","24.1","","100.61","","","","-11","","NA"
"-75.56","45.52","OTTAWA GATINEAU A","7032682","2023-03-03 19:00","2023","03","03","19:00","-5.0","","-13.8","","51","","","","7","","16","","24.1","","100.55","","","","-11","","Cloudy"
"-75.56","45.52","OTTAWA GATINEAU A","7032682","2023-03-03 20:00","2023","03","03","20:00","-4.9","","-14.2","","48","","","","8","","17","","24.1","","100.39","","","","-11","","NA"
"-75.56","45.52","OTTAWA GATINEAU A","7032682","2023-03-03 21:00","2023","03","03","21:00","-5.2","","-13.8","","51","","","","9","","17","","24.1","","100.28","","","","-11","","NA"
"-75.56","45.52","OTTAWA GATINEAU A","7032682","2023-03-03 22:00","2023","03","03","22:00"
"-75.56","45.52","OTTAWA GATINEAU A","7032682","2023-03-03 23:00","2023","03","03","23:00"
"-75.56","45.52","OTTAWA GATINEAU A","7032682","2023-03-04 00:00","2023","03","04","00:00"
"-75.56","45.52","OTTAWA GATINEAU A","7032682","2023-03-04 01:00","2023","03","04","01:00"
"-75.56","45.52","OTTAWA GATINEAU A","7032682","2023-03-04 02:00","2023","03","04","02:00"
"-75.56","45.52","OTTAWA GATINEAU A","7032682","2023-03-04 03:00","2023","03","04","03:00"
"-75.56","45.52","OTTAWA GATINEAU A","7032682","2023-03-04 04:00","2023","03","04","04:00"
"-75.56","45.52","OTTAWA GATINEAU A","7032682","2023-03-04 05:00","2023","03","04","05:00"
"-75.56","45.52","OTTAWA GATINEAU A","7032682","2023-03-04 06:00","2023","03","04","06:00"
"-75.56","45.52","OTTAWA GATINEAU A","7032682","2023-03-04 07:00","2023","03","04","07:00","-1.9","","-2.3","","97","","","","8","","28","","0.8","","99.51","","","","-9","","Moderate Snow,Blowing Snow"
"-75.56","45.52","OTTAWA GATINEAU A","7032682","2023-03-04 08:00","2023","03","04","08:00","-2.0","","-2.9","","93","","","","5","","18","","0.8","","99.61","","","","-7","","Moderate Snow,Blowing Snow"
"-75.56","45.52","OTTAWA GATINEAU A","7032682","2023-03-04 09:00","2023","03","04","09:00","-1.8","","-3.1","","91","","","","6","","19","","0.8","","99.67","","","","-7","","Moderate Snow"
"-75.56","45.52","OTTAWA GATINEAU A","7032682","2023-03-04 10:00","2023","03","04","10:00","-1.0","","-2.9","","87","","","","5","","18","","3.2","","99.76","","","","-6","","Snow"
"-75.56","45.52","OTTAWA GATINEAU A","7032682","2023-03-04 11:00","2023","03","04","11:00","-0.5","","-2.6","","86","","","","5","","13","","4.0","","99.83","","","","-5","","Snow"
"-75.56","45.52","OTTAWA GATINEAU A","7032682","2023-03-04 12:00","2023","03","04","12:00","0.2","","-2.4","","83","","","","4","","12","","4.0","","99.91","","","","","","Snow"
"-75.56","45.52","OTTAWA GATINEAU A","7032682","2023-03-04 13:00","2023","03","04","13:00","0.2","","-1.6","","88","","","","3","","5","","3.2","","100.01","","","","","","Snow"
"-75.56","45.52","OTTAWA GATINEAU A","7032682","2023-03-04 14:00","2023","03","04","14:00","0.0","","-1.3","","90","","","","36","","3","","6.4","","100.08","","","","-1","","Snow"
"-75.56","45.52","OTTAWA GATINEAU A","7032682","2023-03-04 15:00","2023","03","04","15:00","0.4","","-0.8","","92","","","","9","","5","","4.0","","100.17","","","","","","Snow"
"-75.56","45.52","OTTAWA GATINEAU A","7032682","2023-03-04 16:00","2023","03","04","16:00","0.2","","-0.5","","95","","","","36","","1","","3.2","","100.30","","","","","","Snow"
"-75.56","45.52","OTTAWA GATINEAU A","7032682","2023-03-04 17:00","2023","03","04","17:00","0.3","","-0.6","","94","","","","29","","3","","4.8","","100.40","","","","","","Snow"
"-75.56","45.52","OTTAWA GATINEAU A","7032682","2023-03-04 18:00","2023","03","04","18:00","0.0","","-0.7","","95","","","","36","","1","","19.3","","100.48","","","","0","","Snow"
"-75.56","45.52","OTTAWA GATINEAU A","7032682","2023-03-04 19:00","2023","03","04","19:00","-0.3","","-0.5","","99","","","","36","","1","","24.1","","100.56","","","","-1","","Snow"
"-75.56","45.52","OTTAWA GATINEAU A","7032682","2023-03-04 20:00","2023","03","04","20:00","-0.8","","-0.8","","100","","","","36","","2","","16.1","","100.63","","","","-1","","Snow"
"-75.56","45.52","OTTAWA GATINEAU A","7032682","2023-03-04 21:00","2023","03","04","21:00","-1.2","","-1.2","","100","","","","36","","1","","19.3","","100.72","","","","-2","","NA"
"-75.56","45.52","OTTAWA GATINEAU A","7032682","2023-03-04 22:00","2023","03","04","22:00"
"-75.56","45.52","OTTAWA GATINEAU A","7032682","2023-03-04 23:00","2023","03","04","23:00"
"-75.56","45.52","OTTAWA GATINEAU A","7032682","2023-03-05 00:00","2023","03","05","00:00"
"-75.56","45.52","OTTAWA GATINEAU A","7032682","2023-03-05 01:00","2023","03","05","01:00"
"-75.56","45.52","OTTAWA GATINEAU A","7032682","2023-03-05 02:00","2023","03","05","02:00"
"-75.56","45.52","OTTAWA GATINEAU A","7032682","2023-03-05 03:00","2023","03","05","03:00"
"-75.56","45.52","OTTAWA GATINEAU A","7032682","2023-03-05 04:00","2023","03","05","04:00"
"-75.56","45.52","OTTAWA GATINEAU A","7032682","2023-03-05 05:00","2023","03","05","05:00"
"-75.56","45.52","OTTAWA GATINEAU A","7032682","2023-03-05 06:00","2023","03","05","06:00"
"-75.56","45.52","OTTAWA GATINEAU A","7032682","2023-03-05 07:00","2023","03","05","07:00","-2.3","","-2.3","","100","","","","36","","2","","0.4","","101.06","","","","-3","","Freezing Fog"
"-75.56","45.52","OTTAWA GATINEAU A","7032682","2023-03-05 08:00","2023","03","05","08:00","-2.1","","-2.1","","100","","","","10","","3","","0.4","","101.09","","","","-3","","Freezing Fog"
"-75.56","45.52","OTTAWA GATINEAU A","7032682","2023-03-05 09:00","2023","03","05","09:00","-1.9","","-1.9","","100","","","","13","","3","","0.8","","101.11","","","","-3","","Freezing Fog"
"-75.56","45.52","OTTAWA GATINEAU A","7032682","2023-03-05 10:00","2023","03","05","10:00","-1.1","","-1.5","","97","","","","21","","4","","1.2","","101.16","","","","-2","","Fog"
"-75.56","45.52","OTTAWA GATINEAU A","7032682","2023-03-05 11:00","2023","03","05","11:00","0.6","","-1.4","","86","","","","36","","2","","16.1","","101.15","","","","","","NA"
"-75.56","45.52","OTTAWA GATINEAU A","7032682","2023-03-05 12:00","2023","03","05","12:00","1.5","","-0.7","","85","","","","8","","4","","24.1","","101.13","","","","","","NA"
"-75.56","45.52","OTTAWA GATINEAU A","7032682","2023-03-05 13:00","2023","03","05","13:00","3.1","","-0.9","","75","","","","36","","2","","24.1","","101.10","","","","","","Mostly Cloudy"
"-75.56","45.52","OTTAWA GATINEAU A","7032682","2023-03-05 14:00","2023","03","05","14:00","4.7","","-1.6","","63","","","","23","","4","","24.1","","101.11","","","","","","NA"
"-75.56","45.52","OTTAWA GATINEAU A","7032682","2023-03-05 15:00","2023","03","05","15:00","4.9","","-1.6","","63","","","","24","","13","","24.1","","101.13","","","","","","NA"
"-75.56","45.52","OTTAWA GATINEAU A","7032682","2023-03-05 16:00","2023","03","05","16:00","4.8","","-0.8","","67","","","","23","","13","","24.1","","101.16","","","","","","Mostly Cloudy"
"-75.56","45.52","OTTAWA GATINEAU A","7032682","2023-03-05 17:00","2023","03","05","17:00","4.9","","-2.5","","59","","","","25","","15","","24.1","","101.21","","","","","","NA"
"-75.56","45.52","OTTAWA GATINEAU A","7032682","2023-03-05 18:00","2023","03","05","18:00","3.0","","-2.7","","66","","","","27","","12","","24.1","","101.27","","","","","","NA"
"-75.56","45.52","OTTAWA GATINEAU A","7032682","2023-03-05 19:00","2023","03","05","19:00","0.3","","-2.8","","79","","","","28","","10","","24.1","","101.33","","","","","","Mainly Clear"
"-75.56","45.52","OTTAWA GATINEAU A","7032682","2023-03-05 20:00","2023","03","05","20:00","1.4","","-3.5","","70","","","","31","","9","","24.1","","101.38","","","","","","NA"
"-75.56","45.52","OTTAWA GATINEAU A","7032682","2023-03-05 21:00","2023","03","05","21:00","-1.8","","-4.5","","82","","","","29","","5","","24.1","","101.41","","","","-4","","NA"
"-75.56","45.52","OTTAWA GATINEAU A","7032682","2023-03-05 22:00","2023","03","05","22:00"
"-75.56","45.52","OTTAWA GATINEAU A","7032682","2023-03-05 23:00","2023","03","05","23:00"
"-75.56","45.52","OTTAWA GATINEAU A","7032682","2023-03-06 00:00","2023","03","06","00:00"
"-75.56","45.52","OTTAWA GATINEAU A","7032682","2023-03-06 01:00","2023","03","06","01:00"
"-75.56","45.52","OTTAWA GATINEAU A","7032682","2023-03-06 02:00","2023","03","06","02:00"
"-75.56","45.52","OTTAWA GATINEAU A","7032682","2023-03-06 03:00","2023","03","06","03:00"
"-75.56","45.52","OTTAWA GATINEAU A","7032682","2023-03-06 04:00","2023","03","06","04:00"
"-75.56","45.52","OTTAWA GATINEAU A","7032682","2023-03-06 05:00","2023","03","06","05:00"
"-75.56","45.52","OTTAWA GATINEAU A","7032682","2023-03-06 06:00","2023","03","06","06:00"
"-75.56","45.52","OTTAWA GATINEAU A","7032682","2023-03-06 07:00","2023","03","06","07:00","-4.3","","-10.8","","61","","","","26","","7","","24.1","","101.65","","","","-7","","Clear"
"-75.56","45.52","OTTAWA GATINEAU A","7032682","2023-03-06 08:00","2023","03","06","08:00","-3.2","","-9.9","","60","","","","34","","8","","24.1","","101.67","","","","-6","","NA"
"-75.56","45.52","OTTAWA GATINEAU A","7032682","2023-03-06 09:00","2023","03","06","09:00","-1.5","","-9.7","","54","","","","33","","17","","24.1","","101.67","","","","-7","","NA"
"-75.56","45.52","OTTAWA GATINEAU A","7032682","2023-03-06 10:00","2023","03","06","10:00","-0.2","","-9.4","","50","","","","33","","17","","24.1","","101.59","","","","-5","","Clear"
"-75.56","45.52","OTTAWA GATINEAU A","7032682","2023-03-06 11:00","2023","03","06","11:00","1.2","","-9.5","","45","","","","33","","18","","24.1","","101.52","","","","","","NA"
"-75.56","45.52","OTTAWA GATINEAU A","7032682","2023-03-06 12:00","2023","03","06","12:00","2.5","","-9.2","","42","","","","31","","18","","24.1","","101.46","","","","","","NA"
"-75.56","45.52","OTTAWA GATINEAU A","7032682","2023-03-06 13:00","2023","03","06","13:00","3.0","","-9.0","","41","","","","29","","21","","24.1","","101.35","","","","","","Mainly Clear"
"-75.56","45.52","OTTAWA GATINEAU A","7032682","2023-03-06 14:00","2023","03","06","14:00","4.5","","-10.7","","32","","","","32","","22","","24.1","","101.21","","","","","","NA"
"-75.56","45.52","OTTAWA GATINEAU A","7032682","2023-03-06 15:00","2023","03","06","15:00","4.9","","-13.6","","25","","","","33","","27","","24.1","","101.12","","","","","","NA"
"-75.56","45.52","OTTAWA GATINEAU A","7032682","2023-03-06 16:00","2023","03","06","16:00","4.9","","-12.8","","27","","","","33","","20","","24.1","","101.01","","","","","","Mainly Clear"
"-75.56","45.52","OTTAWA GATINEAU A","7032682","2023-03-06 17:00","2023","03","06","17:00","4.0","","-13.7","","26","","","","32","","24","","24.1","","100.99","","","","","","NA"
"-75.56","45.52","OTTAWA GATINEAU A","7032682","2023-03-06 18:00","2023","03","06","18:00","2.6","","-13.0","","31","","","","31","","13","","24.1","","100.92","","","","","","NA"
"-75.56","45.52","OTTAWA GATINEAU A","7032682","2023-03-06 19:00","2023","03","06","19:00","1.7","","-13.8","","31","","","","32","","10","","24.1","","100.92","","","","","","Mainly Clear"
"-75.56","45.52","OTTAWA GATINEAU A","7032682","2023-03-06 20:00","2023","03","06","20:00","-0.2","","-13.5","","36","","","","28","","13","","24.1","","100.90","","","","-4","","NA"
"-75.56","45.52","OTTAWA GATINEAU A","7032682","2023-03-06 21:00","2023","03","06","21:00","-0.5","","-13.0","","39","","","","30","","13","","24.1","","100.87","","","","-5","","NA"
"-75.56","45.52","OTTAWA GATINEAU A","7032682","2023-03-06 22:00","2023","03","06","22:00"
"-75.56","45.52","OTTAWA GATINEAU A","7032682","2023-03-06 23:00","2023","03","06","23:00"
"-75.56","45.52","OTTAWA GATINEAU A","7032682","2023-03-07 00:00","2023","03","07","00:00"
"-75.56","45.52","OTTAWA GATINEAU A","7032682","2023-03-07 01:00","2023","03","07","01:00"
"-75.56","45.52","OTTAWA GATINEAU A","7032682","2023-03-07 02:00","2023","03","07","02:00"
"-75.56","45.52","OTTAWA GATINEAU A","7032682","2023-03-07 03:00","2023","03","07","03:00"
"-75.56","45.52","OTTAWA GATINEAU A","7032682","2023-03-07 04:00","2023","03","07","04:00"
"-75.56","45.52","OTTAWA GATINEAU A","7032682","2023-03-07 05:00","2023","03","07","05:00"
"-75.56","45.52","OTTAWA GATINEAU A","7032682","2023-03-07 06:00","2023","03","07","06:00"
"-75.56","45.52","OTTAWA GATINEAU A","7032682","2023-03-07 07:00","2023","03","07","07:00","-6.3","","-12.5","","62","","","","31","","18","","24.1","","100.67","","","","-13","","Mostly Cloudy"
"-75.56","45.52","OTTAWA GATINEAU A","7032682","2023-03-07 08:00","2023","03","07","08:00","-6.1","","-12.7","","60","","","","32","","22","","24.1","","100.69","","","","-13","","NA"
"-75.56","45.52","OTTAWA GATINEAU A","7032682","2023-03-07 09:00","2023","03","07","09:00","-5.8","","-12.6","","59","","","","32","","22","","24.1","","100.71","","","","-13","","NA"
"-75.56","45.52","OTTAWA GATINEAU A","7032682","2023-03-07 10:00","2023","03","07","10:00","-5.5","","-12.7","","58","","","","32","","22","","24.1","","100.73","","","","-13","","Mostly Cloudy"
"-75.56","45.52","OTTAWA GATINEAU A","7032682","2023-03-07 11:00","2023","03","07","11:00","-4.6","","-12.1","","56","","","","31","","20","","24.1","","100.76","","","","-11","","NA"
"-75.56","45.52","OTTAWA GATINEAU A","7032682","2023-03-07 12:00","2023","03","07","12:00","-4.3","","-11.3","","58","","","","33","","17","","19.3","","100.81","","","","-10","","Snow"
"-75.56","45.52","OTTAWA GATINEAU A","7032682","2023-03-07 13:00","2023","03","07","13:00","-4.0","","-11.9","","55","","","","32","","28","","19.3","","100.84","","","","-11","","Snow"
"-75.56","45.52","OTTAWA GATINEAU A","7032682","2023-03-07 14:00","2023","03","07","14:00","-3.4","","-10.3","","59","","","","31","","16","","16.1","","100.91","","","","-9","","Snow"
"-75.56","45.52","OTTAWA GATINEAU A","7032682","2023-03-07 15:00","2023","03","07","15:00","-3.5","","-10.2","","60","","","","31","","21","","16.1","","100.96","","","","-10","","Snow"
"-75.56","45.52","OTTAWA GATINEAU A","7032682","2023-03-07 16:00","2023","03","07","16:00","-3.1","","-11.0","","55","","","","32","","17","","24.1","","101.08","","","","-9","","Snow"
"-75.56","45.52","OTTAWA GATINEAU A","7032682","2023-03-07 17:00","2023","03","07","17:00","-2.9","","-10.9","","55","","","","33","","18","","24.1","","101.17","","","","-9","","NA"
"-75.56","45.52","OTTAWA GATINEAU A","7032682","2023-03-07 18:00","2023","03","07","18:00","-3.0","","-10.3","","57","","","","33","","17","","24.1","","101.28","","","","-9","","NA"
"-75.56","45.52","OTTAWA GATINEAU A","7032682","2023-03-07 19:00","2023","03","07","19:00","-3.2","","-10.4","","58","","","","34","","19","","24.1","","101.35","","","","-9","","Cloudy"
"-75.56","45.52","OTTAWA GATINEAU A","7032682","2023-03-07 20:00","2023","03","07","20:00","-3.7","","-10.3","","60","","","","32","","20","","24.1","","101.44","","","","-10","","NA"
"-75.56","45.52","OTTAWA GATINEAU A","7032682","2023-03-07 21:00","2023","03","07","21:00","-3.9","","-10.6","","60","","","","31","","12","","24.1","","101.53","","","","-9","","NA"
"-75.56","45.52","OTTAWA GATINEAU A","7032682","2023-03-07 22:00","2023","03","07","22:00"
"-75.56","45.52","OTTAWA GATINEAU A","7032682","2023-03-07 23:00","2023","03","07","23:00"
"-75.56","45.52","OTTAWA GATINEAU A","7032682","2023-03-08 00:00","2023","03","08","00:00"
"-75.56","45.52","OTTAWA GATINEAU A","7032682","2023-03-08 01:00","2023","03","08","01:00"
"-75.56","45.52","OTTAWA GATINEAU A","7032682","2023-03-08 02:00","2023","03","08","02:00"
"-75.56","45.52","OTTAWA GATINEAU A","7032682","2023-03-08 03:00","2023","03","08","03:00"
"-75.56","45.52","OTTAWA GATINEAU A","7032682","2023-03-08 04:00","2023","03","08","04:00"
"-75.56","45.52","OTTAWA GATINEAU A","7032682","2023-03-08 05:00","2023","03","08","05:00"
"-75.56","45.52","OTTAWA GATINEAU A","7032682","2023-03-08 06:00","2023","03","08","06:00"
"-75.56","45.52","OTTAWA GATINEAU A","7032682","2023-03-08 07:00","2023","03","08","07:00","-6.7","","-12.2","","65","","","","32","","11","","24.1","","102.00","","","","-12","","Mainly Clear"
"-75.56","45.52","OTTAWA GATINEAU A","7032682","2023-03-08 08:00","2023","03","08","08:00","-6.5","","-12.2","","64","","","","34","","20","","24.1","","102.03","","","","-13","","NA"
"-75.56","45.52","OTTAWA GATINEAU A","7032682","2023-03-08 09:00","2023","03","08","09:00","-5.9","","-11.9","","63","","","","32","","18","","24.1","","102.07","","","","-12","","NA"
"-75.56","45.52","OTTAWA GATINEAU A","7032682","2023-03-08 10:00","2023","03","08","10:00","-4.9","","-11.1","","62","","","","35","","17","","24.1","","102.05","","","","-11","","Mostly Cloudy"
"-75.56","45.52","OTTAWA GATINEAU A","7032682","2023-03-08 11:00","2023","03","08","11:00","-3.4","","-10.7","","57","","","","32","","20","","24.1","","102.05","","","","-10","","NA"
"-75.56","45.52","OTTAWA GATINEAU A","7032682","2023-03-08 12:00","2023","03","08","12:00","-1.4","","-10.1","","52","","","","28","","16","","24.1","","102.03","","","","-6","","NA"
"-75.56","45.52","OTTAWA GATINEAU A","7032682","2023-03-08 13:00","2023","03","08","13:00","-0.4","","-9.4","","51","","","","31","","18","","24.1","","101.99","","","","-5","","Mostly Cloudy"
"-75.56","45.52","OTTAWA GATINEAU A","7032682","2023-03-08 14:00","2023","03","08","14:00","0.6","","-8.8","","49","","","","34","","21","","24.1","","101.94","","","","","","NA"
"-75.56","45.52","OTTAWA GATINEAU A","7032682","2023-03-08 15:00","2023","03","08","15:00","1.4","","-8.1","","50","","","","35","","18","","24.1","","101.95","","","","","","NA"
"-75.56","45.52","OTTAWA GATINEAU A","7032682","2023-03-08 16:00","2023","03","08","16:00","1.7","","-8.3","","48","","","","33","","13","","24.1","","101.92","","","","","","Mostly Cloudy"
"-75.56","45.52","OTTAWA GATINEAU A","7032682","2023-03-08 17:00","2023","03","08","17:00","2.3","","-8.2","","46","","","","34","","14","","24.1","","101.92","","","","","","NA"
"-75.56","45.52","OTTAWA GATINEAU A","7032682","2023-03-08 18:00","2023","03","08","18:00","1.1","","-7.5","","53","","","","34","","10","","24.1","","101.93","","","","","","NA"
"-75.56","45.52","OTTAWA GATINEAU A","7032682","2023-03-08 19:00","2023","03","08","19:00","0.6","","-8.6","","50","","","","33","","17","","24.1","","101.94","","","","","","Mostly Cloudy"
"-75.56","45.52","OTTAWA GATINEAU A","7032682","2023-03-08 20:00","2023","03","08","20:00","-0.3","","-8.6","","53","","","","31","","17","","24.1","","101.92","","","","-5","","NA"
"-75.56","45.52","OTTAWA GATINEAU A","7032682","2023-03-08 21:00","2023","03","08","21:00","-1.0","","-8.6","","56","","","","32","","8","","24.1","","101.93","","","","-4","","NA"
"-75.56","45.52","OTTAWA GATINEAU A","7032682","2023-03-08 22:00","2023","03","08","22:00"
"-75.56","45.52","OTTAWA GATINEAU A","7032682","2023-03-08 23:00","2023","03","08","23:00"
"-75.56","45.52","OTTAWA GATINEAU A","7032682","2023-03-09 00:00","2023","03","09","00:00"
"-75.56","45.52","OTTAWA GATINEAU A","7032682","2023-03-09 01:00","2023","03","09","01:00"
"-75.56","45.52","OTTAWA GATINEAU A","7032682","2023-03-09 02:00","2023","03","09","02:00"
"-75.56","45.52","OTTAWA GATINEAU A","7032682","2023-03-09 03:00","2023","03","09","03:00"
"-75.56","45.52","OTTAWA GATINEAU A","7032682","2023-03-09 04:00","2023","03","09","04:00"
"-75.56","45.52","OTTAWA GATINEAU A","7032682","2023-03-09 05:00","2023","03","09","05:00"
"-75.56","45.52","OTTAWA GATINEAU A","7032682","2023-03-09 06:00","2023","03","09","06:00"
"-75.56","45.52","OTTAWA GATINEAU A","7032682","2023-03-09 07:00","2023","03","09","07:00","-4.9","","-10.2","","67","","","","33","","12","","24.1","","101.90","","","","-10","","Mostly Cloudy"
"-75.56","45.52","OTTAWA GATINEAU A","7032682","2023-03-09 08:00","2023","03","09","08:00","-4.9","","-9.9","","68","","","","33","","21","","24.1","","101.91","","","","-12","","NA"
"-75.56","45.52","OTTAWA GATINEAU A","7032682","2023-03-09 09:00","2023","03","09","09:00","-4.1","","-9.6","","66","","","","33","","14","","24.1","","101.94","","","","-9","","NA"
"-75.56","45.52","OTTAWA GATINEAU A","7032682","2023-03-09 10:00","2023","03","09","10:00","-3.0","","-9.4","","61","","","","32","","16","","24.1","","101.95","","","","-8","","Mostly Cloudy"
"-75.56","45.52","OTTAWA GATINEAU A","7032682","2023-03-09 11:00","2023","03","09","11:00","-1.9","","-9.2","","58","","","","33","","12","","24.1","","101.92","","","","-6","","NA"
"-75.56","45.52","OTTAWA GATINEAU A","7032682","2023-03-09 12:00","2023","03","09","12:00","-1.3","","-9.4","","54","","","","31","","17","","24.1","","101.88","","","","-6","","NA"
"-75.56","45.52","OTTAWA GATINEAU A","7032682","2023-03-09 13:00","2023","03","09","13:00","-0.2","","-8.8","","53","","","","33","","14","","24.1","","101.87","","","","-4","","Mostly Cloudy"
"-75.56","45.52","OTTAWA GATINEAU A","7032682","2023-03-09 14:00","2023","03","09","14:00","1.0","","-7.9","","52","","","","35","","17","","24.1","","101.86","","","","","","NA"
"-75.56","45.52","OTTAWA GATINEAU A","7032682","2023-03-09 15:00","2023","03","09","15:00","1.8","","-7.4","","51","","","","34","","16","","24.1","","101.83","","","","","","NA"
"-75.56","45.52","OTTAWA GATINEAU A","7032682","2023-03-09 16:00","2023","03","09","16:00","2.2","","-7.3","","50","","","","33","","12","","24.1","","101.79","","","","","","Mostly Cloudy"
"-75.56","45.52","OTTAWA GATINEAU A","7032682","2023-03-09 17:00","2023","03","09","17:00","2.3","","-7.1","","50","","","","34","","11","","24.1","","101.78","","","","","","NA"
"-75.56","45.52","OTTAWA GATINEAU A","7032682","2023-03-09 18:00","2023","03","09","18:00","0.9","","-7.1","","55","","","","34","","7","","24.1","","101.79","","","","","","NA"
"-75.56","45.52","OTTAWA GATINEAU A","7032682","2023-03-09 19:00","2023","03","09","19:00","0.7","","-6.6","","58","","","","29","","8","","24.1","","101.83","","","","","","Mostly Cloudy"
"-75.56","45.52","OTTAWA GATINEAU A","7032682","2023-03-09 20:00","2023","03","09","20:00","0.6","","-7.0","","57","","","","30","","8","","24.1","","101.82","","","","","","NA"
"-75.56","45.52","OTTAWA GATINEAU A","7032682","2023-03-09 21:00","2023","03","09","21:00","0.8","","-6.5","","58","","","","31","","9","","24.1","","101.78","","","","","","NA"
"-75.56","45.52","OTTAWA GATINEAU A","7032682","2023-03-09 22:00","2023","03","09","22:00"
"-75.56","45.52","OTTAWA GATINEAU A","7032682","2023-03-09 23:00","2023","03","09","23:00"
"-75.56","45.52","OTTAWA GATINEAU A","7032682","2023-03-10 00:00","2023","03","10","00:00"
"-75.56","45.52","OTTAWA GATINEAU A","7032682","2023-03-10 01:00","2023","03","10","01:00"
"-75.56","45.52","OTTAWA GATINEAU A","7032682","2023-03-10 02:00","2023","03","10","02:00"
"-75.56","45.52","OTTAWA GATINEAU A","7032682","2023-03-10 03:00","2023","03","10","03:00"
"-75.56","45.52","OTTAWA GATINEAU A","7032682","2023-03-10 04:00","2023","03","10","04:00"
"-75.56","45.52","OTTAWA GATINEAU A","7032682","2023-03-10 05:00","2023","03","10","05:00"
"-75.56","45.52","OTTAWA GATINEAU A","7032682","2023-03-10 06:00","2023","03","10","06:00"
"-75.56","45.52","OTTAWA GATINEAU A","7032682","2023-03-10 07:00","2023","03","10","07:00","-3.9","","-8.3","","72","","","","35","","17","","24.1","","101.36","","","","-10","","Cloudy"
"-75.56","45.52","OTTAWA GATINEAU A","7032682","2023-03-10 08:00","2023","03","10","08:00","-4.2","","-8.4","","72","","","","34","","12","","24.1","","101.35","","","","-9","","NA"
"-75.56","45.52","OTTAWA GATINEAU A","7032682","2023-03-10 09:00","2023","03","10","09:00","-4.2","","-8.6","","71","","","","35","","16","","24.1","","101.29","","","","-10","","NA"
"-75.56","45.52","OTTAWA GATINEAU A","7032682","2023-03-10 10:00","2023","03","10","10:00","-4.0","","-8.6","","71","","","","1","","10","","24.1","","101.24","","","","-8","","Cloudy"
"-75.56","45.52","OTTAWA GATINEAU A","7032682","2023-03-10 11:00","2023","03","10","11:00","-3.7","","-8.8","","68","","","","32","","8","","24.1","","101.13","","","","-7","","NA"
"-75.56","45.52","OTTAWA GATINEAU A","7032682","2023-03-10 12:00","2023","03","10","12:00","-3.2","","-8.8","","66","","","","31","","4","","24.1","","101.03","","","","-5","","NA"
"-75.56","45.52","OTTAWA GATINEAU A","7032682","2023-03-10 13:00","2023","03","10","13:00","-2.4","","-8.6","","62","","","","36","","3","","24.1","","100.89","","","","-4","","Mostly Cloudy"
"-75.56","45.52","OTTAWA GATINEAU A","7032682","2023-03-10 14:00","2023","03","10","14:00","-2.0","","-8.5","","62","","","","13","","7","","24.1","","100.76","","","","-5","","NA"
"-75.56","45.52","OTTAWA GATINEAU A","7032682","2023-03-10 15:00","2023","03","10","15:00","-1.7","","-8.2","","61","","","","9","","5","","24.1","","100.66","","","","-4","","NA"
"-75.56","45.52","OTTAWA GATINEAU A","7032682","2023-03-10 16:00","2023","03","10","16:00","-1.4","","-9.0","","56","","","","12","","4","","24.1","","100.57","","","","-3","","Mostly Cloudy"
"-75.56","45.52","OTTAWA GATINEAU A","7032682","2023-03-10 17:00","2023","03","10","17:00","-1.5","","-8.7","","58","","","","12","","4","","24.1","","100.53","","","","-3","","NA"
"-75.56","45.52","OTTAWA GATINEAU A","7032682","2023-03-10 18:00","2023","03","10","18:00","-2.6","","-8.4","","64","","","","11","","6","","24.1","","100.51","","","","-5","","NA"
"-75.56","45.52","OTTAWA GATINEAU A","7032682","2023-03-10 19:00","2023","03","10","19:00","-3.4","","-8.4","","68","","","","6","","5","","24.1","","100.51","","","","-5","","Mostly Cloudy"
"-75.56","45.52","OTTAWA GATINEAU A","7032682","2023-03-10 20:00","2023","03","10","20:00","-4.9","","-9.0","","73","","","","36","","1","","24.1","","100.51","","","","-5","","NA"
"-75.56","45.52","OTTAWA GATINEAU A","7032682","2023-03-10 21:00","2023","03","10","21:00","-6.0","","-9.6","","76","","","","2","","6","","24.1","","100.52","","","","-9","","NA"
"-75.56","45.52","OTTAWA GATINEAU A","7032682","2023-03-10 22:00","2023","03","10","22:00"
"-75.56","45.52","OTTAWA GATINEAU A","7032682","2023-03-10 23:00","2023","03","10","23:00"
"-75.56","45.52","OTTAWA GATINEAU A","7032682","2023-03-11 00:00","2023","03","11","00:00"
"-75.56","45.52","OTTAWA GATINEAU A","7032682","2023-03-11 01:00","2023","03","11","01:00"
"-75.56","45.52","OTTAWA GATINEAU A","7032682","2023-03-11 02:00","2023","03","11","02:00"
"-75.56","45.52","OTTAWA GATINEAU A","7032682","2023-03-11 03:00","2023","03","11","03:00"
"-75.56","45.52","OTTAWA GATINEAU A","7032682","2023-03-11 04:00","2023","03","11","04:00"
"-75.56","45.52","OTTAWA GATINEAU A","7032682","2023-03-11 05:00","2023","03","11","05:00"
"-75.56","45.52","OTTAWA GATINEAU A","7032682","2023-03-11 06:00","2023","03","11","06:00"
"-75.56","45.52","OTTAWA GATINEAU A","7032682","2023-03-11 07:00","2023","03","11","07:00","-4.4","","-8.9","","71","","","","35","","18","","24.1","","100.69","","","","-10","","Mostly Cloudy"
"-75.56","45.52","OTTAWA GATINEAU A","7032682","2023-03-11 08:00","2023","03","11","08:00","-3.2","","-8.6","","67","","","","36","","15","","24.1","","100.74","","","","-8","","NA"
"-75.56","45.52","OTTAWA GATINEAU A","7032682","2023-03-11 09:00","2023","03","11","09:00","-2.0","","-8.1","","63","","","","36","","14","","24.1","","100.82","","","","-7","","NA"
"-75.56","45.52","OTTAWA GATINEAU A","7032682","2023-03-11 10:00","2023","03","11","10:00","-0.7","","-7.5","","60","","","","34","","15","","24.1","","100.85","","","","-5","","Mostly Cloudy"
"-75.56","45.52","OTTAWA GATINEAU A","7032682","2023-03-11 11:00","2023","03","11","11:00","0.3","","-7.2","","57","","","","34","","10","","24.1","","100.84","","","","","","NA"
"-75.56","45.52","OTTAWA GATINEAU A","7032682","2023-03-11 12:00","2023","03","11","12:00","1.5","","-7.3","","52","","","","33","","8","","24.1","","100.82","","","","","","NA"
"-75.56","45.52","OTTAWA GATINEAU A","7032682","2023-03-11 13:00","2023","03","11","13:00","2.0","","-7.3","","51","","","","34","","14","","24.1","","100.75","","","","","","Mainly Clear"
"-75.56","45.52","OTTAWA GATINEAU A","7032682","2023-03-11 14:00","2023","03","11","14:00","3.0","","-6.9","","48","","","","34","","5","","24.1","","100.73","","","","","","NA"
"-75.56","45.52","OTTAWA GATINEAU A","7032682","2023-03-11 15:00","2023","03","11","15:00","3.3","","-6.9","","47","","","","30","","14","","24.1","","100.73","","","","","","NA"
"-75.56","45.52","OTTAWA GATINEAU A","7032682","2023-03-11 16:00","2023","03","11","16:00","3.5","","-7.3","","45","","","","30","","13","","24.1","","100.72","","","","","","Mainly Clear"
"-75.56","45.52","OTTAWA GATINEAU A","7032682","2023-03-11 17:00","2023","03","11","17:00","3.2","","-6.6","","49","","","","32","","8","","24.1","","100.76","","","","","","NA"
"-75.56","45.52","OTTAWA GATINEAU A","7032682","2023-03-11 18:00","2023","03","11","18:00","2.0","","-7.1","","51","","","","30","","7","","24.1","","100.82","","","","","","NA"
"-75.56","45.52","OTTAWA GATINEAU A","7032682","2023-03-11 19:00","2023","03","11","19:00","0.1","","-7.0","","59","","","","25","","10","","24.1","","100.90","","","","","","Clear"
"-75.56","45.52","OTTAWA GATINEAU A","7032682","2023-03-11 20:00","2023","03","11","20:00","-1.4","","-7.1","","65","","","","27","","9","","24.1","","100.95","","","","-5","","NA"
"-75.56","45.52","OTTAWA GATINEAU A","7032682","2023-03-11 21:00","2023","03","11","21:00","-3.4","","-7.4","","74","","","","26","","7","","24.1","","100.96","","","","-6","","NA"
"-75.56","45.52","OTTAWA GATINEAU A","7032682","2023-03-11 22:00","2023","03","11","22:00"
"-75.56","45.52","OTTAWA GATINEAU A","7032682","2023-03-11 23:00","2023","03","11","23:00"
"-75.56","45.52","OTTAWA GATINEAU A","7032682","2023-03-12 00:00","2023","03","12","00:00"
"-75.56","45.52","OTTAWA GATINEAU A","7032682","2023-03-12 01:00","2023","03","12","01:00"
"-75.56","45.52","OTTAWA GATINEAU A","7032682","2023-03-12 02:00","2023","03","12","02:00"
"-75.56","45.52","OTTAWA GATINEAU A","7032682","2023-03-12 03:00","2023","03","12","03:00"
"-75.56","45.52","OTTAWA GATINEAU A","7032682","2023-03-12 04:00","2023","03","12","04:00"
"-75.56","45.52","OTTAWA GATINEAU A","7032682","2023-03-12 05:00","2023","03","12","05:00"
"-75.56","45.52","OTTAWA GATINEAU A","7032682","2023-03-12 06:00","2023","03","12","06:00","-11.5","","-13.5","","85","","","","36","","1","","24.1","","101.10","","","","-12","","NA"
"-75.56","45.52","OTTAWA GATINEAU A","7032682","2023-03-12 07:00","2023","03","12","07:00","-10.9","","-12.5","","88","","","","36","","2","","24.1","","101.08","","","","-12","","Clear"
"-75.56","45.52","OTTAWA GATINEAU A","7032682","2023-03-12 08:00","2023","03","12","08:00","-8.4","","-11.0","","81","","","","36","","1","","24.1","","101.09","","","","-9","","NA"
"-75.56","45.52","OTTAWA GATINEAU A","7032682","2023-03-12 09:00","2023","03","12","09:00","-4.2","","-8.9","","70","","","","26","","3","","24.1","","101.16","","","","-5","","NA"
"-75.56","45.52","OTTAWA GATINEAU A","7032682","2023-03-12 10:00","2023","03","12","10:00","-1.6","","-8.5","","60","","","","8","","7","","24.1","","101.13","","","","-4","","Mostly Cloudy"
"-75.56","45.52","OTTAWA GATINEAU A","7032682","2023-03-12 11:00","2023","03","12","11:00","-0.5","","-8.0","","57","","","","12","","8","","24.1","","101.10","","","","-3","","NA"
"-75.56","45.52","OTTAWA GATINEAU A","7032682","2023-03-12 12:00","2023","03","12","12:00","0.8","","-7.8","","53","","","","9","","9","","24.1","","101.06","","","","","","NA"
"-75.56","45.52","OTTAWA GATINEAU A","7032682","2023-03-12 13:00","2023","03","12","13:00","2.0","","-7.6","","49","","","","9","","13","","24.1","","100.97","","","","","","Mostly Cloudy"
"-75.56","45.52","OTTAWA GATINEAU A","7032682","2023-03-12 14:00","2023","03","12","14:00","2.5","","-6.1","","53","","","","7","","10","","24.1","","100.87","","","","","","NA"
"-75.56","45.52","OTTAWA GATINEAU A","7032682","2023-03-12 15:00","2023","03","12","15:00","2.7","","-6.6","","50","","","","7","","10","","24.1","","100.83","","","","","","NA"
"-75.56","45.52","OTTAWA GATINEAU A","7032682","2023-03-12 16:00","2023","03","12","16:00","2.4","","-6.4","","52","","","","7","","12","","24.1","","100.78","","","","","","Mostly Cloudy"
"-75.56","45.52","OTTAWA GATINEAU A","7032682","2023-03-12 17:00","2023","03","12","17:00","2.7","","-7.6","","47","","","","9","","6","","24.1","","100.80","","","","","","NA"
"-75.56","45.52","OTTAWA GATINEAU A","7032682","2023-03-12 18:00","2023","03","12","18:00","1.8","","-6.7","","54","","","","6","","7","","24.1","","100.81","","","","","","NA"
"-75.56","45.52","OTTAWA GATINEAU A","7032682","2023-03-12 19:00","2023","03","12","19:00","0.3","","-6.1","","62","","","","7","","8","","24.1","","100.80","","","","","","Cloudy"
"-75.56","45.52","OTTAWA GATINEAU A","7032682","2023-03-12 20:00","2023","03","12","20:00","0.3","","-6.7","","59","","","","5","","9","","24.1","","100.78","","","","","","NA"
"-75.56","45.52","OTTAWA GATINEAU A","7032682","2023-03-12 21:00","2023","03","12","21:00"
"-75.56","45.52","OTTAWA GATINEAU A","7032682","2023-03-12 22:00","2023","03","12","22:00"
"-75.56","45.52","OTTAWA GATINEAU A","7032682","2023-03-12 23:00","2023","03","12","23:00"
"-75.56","45.52","OTTAWA GATINEAU A","7032682","2023-03-13 00:00","2023","03","13","00:00"
"-75.56","45.52","OTTAWA GATINEAU A","7032682","2023-03-13 01:00","2023","03","13","01:00"
"-75.56","45.52","OTTAWA GATINEAU A","7032682","2023-03-13 02:00","2023","03","13","02:00"
"-75.56","45.52","OTTAWA GATINEAU A","7032682","2023-03-13 03:00","2023","03","13","03:00"
"-75.56","45.52","OTTAWA GATINEAU A","7032682","2023-03-13 04:00","2023","03","13","04:00"
"-75.56","45.52","OTTAWA GATINEAU A","7032682","2023-03-13 05:00","2023","03","13","05:00"
"-75.56","45.52","OTTAWA GATINEAU A","7032682","2023-03-13 06:00","2023","03","13","06:00","-0.9","","-5.5","","71","","","","6","","9","","24.1","","100.55","","","","-4","","Snow"
"-75.56","45.52","OTTAWA GATINEAU A","7032682","2023-03-13 07:00","2023","03","13","07:00","-1.5","","-4.3","","81","","","","8","","8","","6.4","","100.59","","","","-5","","Snow"
"-75.56","45.52","OTTAWA GATINEAU A","7032682","2023-03-13 08:00","2023","03","13","08:00","-1.3","","-3.9","","82","","","","6","","13","","6.4","","100.57","","","","-6","","Snow"
"-75.56","45.52","OTTAWA GATINEAU A","7032682","2023-03-13 09:00","2023","03","13","09:00","-1.1","","-3.1","","86","","","","8","","16","","4.0","","100.59","","","","-6","","Snow"
"-75.56","45.52","OTTAWA GATINEAU A","7032682","2023-03-13 10:00","2023","03","13","10:00","-0.8","","-2.9","","86","","","","8","","14","","8.1","","100.56","","","","-5","","Snow"
"-75.56","45.52","OTTAWA GATINEAU A","7032682","2023-03-13 11:00","2023","03","13","11:00","-0.2","","-2.3","","86","","","","8","","17","","8.1","","100.53","","","","-5","","Snow"
"-75.56","45.52","OTTAWA GATINEAU A","7032682","2023-03-13 12:00","2023","03","13","12:00","0.3","","-1.5","","88","","","","8","","16","","6.4","","100.50","","","","","","Snow"
"-75.56","45.52","OTTAWA GATINEAU A","7032682","2023-03-13 13:00","2023","03","13","13:00","0.7","","-0.9","","89","","","","9","","16","","4.8","","100.45","","","","","","Snow"
"-75.56","45.52","OTTAWA GATINEAU A","7032682","2023-03-13 14:00","2023","03","13","14:00","1.0","","-0.4","","90","","","","8","","15","","8.1","","100.42","","","","","","Snow"
"-75.56","45.52","OTTAWA GATINEAU A","7032682","2023-03-13 15:00","2023","03","13","15:00","1.0","","-0.1","","92","","","","8","","12","","8.1","","100.39","","","","","","Snow"
"-75.56","45.52","OTTAWA GATINEAU A","7032682","2023-03-13 16:00","2023","03","13","16:00","0.8","","0.2","","95","","","","8","","10","","4.8","","100.38","","","","","","Snow"
"-75.56","45.52","OTTAWA GATINEAU A","7032682","2023-03-13 17:00","2023","03","13","17:00","0.5","","0.2","","97","","","","7","","10","","4.8","","100.38","","","","","","Snow"
"-75.56","45.52","OTTAWA GATINEAU A","7032682","2023-03-13 18:00","2023","03","13","18:00","0.5","","0.3","","98","","","","8","","8","","3.2","","100.40","","","","","","Snow"
"-75.56","45.52","OTTAWA GATINEAU A","7032682","2023-03-13 19:00","2023","03","13","19:00","0.3","","0.2","","99","","","","8","","7","","3.2","","100.40","","","","","","Snow"
"-75.56","45.52","OTTAWA GATINEAU A","7032682","2023-03-13 20:00","2023","03","13","20:00","0.4","","0.4","","100","","","","6","","6","","3.2","","100.39","","","","","","Snow"
"-75.56","45.52","OTTAWA GATINEAU A","7032682","2023-03-13 21:00","2023","03","13","21:00"
"-75.56","45.52","OTTAWA GATINEAU A","7032682","2023-03-13 22:00","2023","03","13","22:00"
"-75.56","45.52","OTTAWA GATINEAU A","7032682","2023-03-13 23:00","2023","03","13","23:00"
"-75.56","45.52","OTTAWA GATINEAU A","7032682","2023-03-14 00:00","2023","03","14","00:00"
"-75.56","45.52","OTTAWA GATINEAU A","7032682","2023-03-14 01:00","2023","03","14","01:00"
"-75.56","45.52","OTTAWA GATINEAU A","7032682","2023-03-14 02:00","2023","03","14","02:00"
"-75.56","45.52","OTTAWA GATINEAU A","7032682","2023-03-14 03:00","2023","03","14","03:00"
"-75.56","45.52","OTTAWA GATINEAU A","7032682","2023-03-14 04:00","2023","03","14","04:00"
"-75.56","45.52","OTTAWA GATINEAU A","7032682","2023-03-14 05:00","2023","03","14","05:00"
"-75.56","45.52","OTTAWA GATINEAU A","7032682","2023-03-14 06:00","2023","03","14","06:00","1.1","","0.4","","95","","","","36","","11","","16.1","","100.12","","","","","","Snow"
"-75.56","45.52","OTTAWA GATINEAU A","7032682","2023-03-14 07:00","2023","03","14","07:00","1.1","","0.4","","95","","","","36","","11","","12.9","","100.14","","","","","","Snow"
"-75.56","45.52","OTTAWA GATINEAU A","7032682","2023-03-14 08:00","2023","03","14","08:00","1.3","","0.5","","94","","","","35","","10","","12.9","","100.12","","","","","","Snow"
"-75.56","45.52","OTTAWA GATINEAU A","7032682","2023-03-14 09:00","2023","03","14","09:00","1.7","","0.6","","92","","","","36","","9","","16.1","","100.12","","","","","","Snow"
"-75.56","45.52","OTTAWA GATINEAU A","7032682","2023-03-14 10:00","2023","03","14","10:00","2.2","","0.8","","91","","","","36","","11","","16.1","","100.10","","","","","","Snow"
"-75.56","45.52","OTTAWA GATINEAU A","7032682","2023-03-14 11:00","2023","03","14","11:00","2.6","","1.1","","90","","","","35","","10","","16.1","","100.09","","","","","","Snow"
"-75.56","45.52","OTTAWA GATINEAU A","7032682","2023-03-14 12:00","2023","03","14","12:00","2.0","","0.8","","92","","","","5","","14","","12.9","","100.09","","","","","","Rain,Snow"
"-75.56","45.52","OTTAWA GATINEAU A","7032682","2023-03-14 13:00","2023","03","14","13:00","2.8","","1.3","","90","","","","3","","9","","16.1","","100.06","","","","","","Rain,Snow"
"-75.56","45.52","OTTAWA GATINEAU A","7032682","2023-03-14 14:00","2023","03","14","14:00","3.2","","0.9","","85","","","","35","","13","","16.1","","100.03","","","","","","Rain"
"-75.56","45.52","OTTAWA GATINEAU A","7032682","2023-03-14 15:00","2023","03","14","15:00","1.5","","0.3","","91","","","","35","","21","","6.4","","100.04","","","","","","Rain,Snow"
"-75.56","45.52","OTTAWA GATINEAU A","7032682","2023-03-14 16:00","2023","03","14","16:00","1.6","","0.0","","89","","","","34","","19","","12.9","","100.08","","","","","","Rain,Snow"
"-75.56","45.52","OTTAWA GATINEAU A","7032682","2023-03-14 17:00","2023","03","14","17:00","1.5","","-0.8","","85","","","","35","","27","","12.9","","100.15","","","","","","NA"
"-75.56","45.52","OTTAWA GATINEAU A","7032682","2023-03-14 18:00","2023","03","14","18:00","1.0","","-0.9","","87","","","","33","","24","","12.9","","100.21","","","","","","Snow"
"-75.56","45.52","OTTAWA GATINEAU A","7032682","2023-03-14 19:00","2023","03","14","19:00","0.8","","-2.0","","81","","","","34","","28","","16.1","","100.25","","","","","","Snow"
"-75.56","45.52","OTTAWA GATINEAU A","7032682","2023-03-14 20:00","2023","03","14","20:00","0.3","","-2.8","","80","","","","34","","32","","24.1","","100.24","","","","","","Snow"
"-75.56","45.52","OTTAWA GATINEAU A","7032682","2023-03-14 21:00","2023","03","14","21:00"
"-75.56","45.52","OTTAWA GATINEAU A","7032682","2023-03-14 22:00","2023","03","14","22:00"
"-75.56","45.52","OTTAWA GATINEAU A","7032682","2023-03-14 23:00","2023","03","14","23:00"
"-75.56","45.52","OTTAWA GATINEAU A","7032682","2023-03-15 00:00","2023","03","15","00:00"
"-75.56","45.52","OTTAWA GATINEAU A","7032682","2023-03-15 01:00","2023","03","15","01:00"
"-75.56","45.52","OTTAWA GATINEAU A","7032682","2023-03-15 02:00","2023","03","15","02:00"
"-75.56","45.52","OTTAWA GATINEAU A","7032682","2023-03-15 03:00","2023","03","15","03:00"
"-75.56","45.52","OTTAWA GATINEAU A","7032682","2023-03-15 04:00","2023","03","15","04:00"
"-75.56","45.52","OTTAWA GATINEAU A","7032682","2023-03-15 05:00","2023","03","15","05:00"
"-75.56","45.52","OTTAWA GATINEAU A","7032682","2023-03-15 06:00","2023","03","15","06:00","-5.5","","-11.5","","63","","","","33","","20","","24.1","","100.56","","","","-12","","NA"
"-75.56","45.52","OTTAWA GATINEAU A","7032682","2023-03-15 07:00","2023","03","15","07:00","-5.7","","-11.7","","63","","","","32","","17","","24.1","","100.66","","","","-12","","Mainly Clear"
"-75.56","45.52","OTTAWA GATINEAU A","7032682","2023-03-15 08:00","2023","03","15","08:00","-5.2","","-11.4","","62","","","","32","","21","","24.1","","100.68","","","","-12","","NA"
"-75.56","45.52","OTTAWA GATINEAU A","7032682","2023-03-15 09:00","2023","03","15","09:00","-3.4","","-10.6","","58","","","","34","","30","","24.1","","100.71","","","","-11","","NA"
"-75.56","45.52","OTTAWA GATINEAU A","7032682","2023-03-15 10:00","2023","03","15","10:00","-1.9","","-10.0","","54","","","","33","","26","","24.1","","100.76","","","","-8","","Mainly Clear"
"-75.56","45.52","OTTAWA GATINEAU A","7032682","2023-03-15 11:00","2023","03","15","11:00","-0.4","","-10.1","","48","","","","33","","29","","24.1","","100.76","","","","-7","","NA"
"-75.56","45.52","OTTAWA GATINEAU A","7032682","2023-03-15 12:00","2023","03","15","12:00","1.0","","-10.0","","44","","","","32","","27","","24.1","","100.74","","","","","","NA"
"-75.56","45.52","OTTAWA GATINEAU A","7032682","2023-03-15 13:00","2023","03","15","13:00","2.4","","-9.6","","41","","","","33","","23","","24.1","","100.69","","","","","","Clear"
"-75.56","45.52","OTTAWA GATINEAU A","7032682","2023-03-15 14:00","2023","03","15","14:00","3.4","","-9.5","","38","","","","32","","23","","24.1","","100.68","","","","","","NA"
"-75.56","45.52","OTTAWA GATINEAU A","7032682","2023-03-15 15:00","2023","03","15","15:00","4.2","","-10.8","","33","","","","33","","26","","24.1","","100.70","","","","","","NA"
"-75.56","45.52","OTTAWA GATINEAU A","7032682","2023-03-15 16:00","2023","03","15","16:00","5.0","","-13.1","","26","","","","33","","18","","24.1","","100.70","","","","","","Clear"
"-75.56","45.52","OTTAWA GATINEAU A","7032682","2023-03-15 17:00","2023","03","15","17:00","5.0","","-14.6","","23","","","","32","","13","","24.1","","100.71","","","","","","NA"
"-75.56","45.52","OTTAWA GATINEAU A","7032682","2023-03-15 18:00","2023","03","15","18:00","3.2","","-13.0","","29","","","","30","","13","","24.1","","100.73","","","","","","NA"
"-75.56","45.52","OTTAWA GATINEAU A","7032682","2023-03-15 19:00","2023","03","15","19:00","2.5","","-14.3","","28","","","","29","","9","","24.1","","100.79","","","","","","Mainly Clear"
"-75.56","45.52","OTTAWA GATINEAU A","7032682","2023-03-15 20:00","2023","03","15","20:00","-1.1","","-10.4","","50","","","","28","","10","","24.1","","100.79","","","","-5","","NA"
"-75.56","45.52","OTTAWA GATINEAU A","7032682","2023-03-15 21:00","2023","03","15","21:00"
"-75.56","45.52","OTTAWA GATINEAU A","7032682","2023-03-15 22:00","2023","03","15","22:00"
"-75.56","45.52","OTTAWA GATINEAU A","7032682","2023-03-15 23:00","2023","03","15","23:00"
"-75.56","45.52","OTTAWA GATINEAU A","7032682","2023-03-16 00:00","2023","03","16","00:00"
"-75.56","45.52","OTTAWA GATINEAU A","7032682","2023-03-16 01:00","2023","03","16","01:00"
"-75.56","45.52","OTTAWA GATINEAU A","7032682","2023-03-16 02:00","2023","03","16","02:00"
"-75.56","45.52","OTTAWA GATINEAU A","7032682","2023-03-16 03:00","2023","03","16","03:00"
"-75.56","45.52","OTTAWA GATINEAU A","7032682","2023-03-16 04:00","2023","03","16","04:00"
"-75.56","45.52","OTTAWA GATINEAU A","7032682","2023-03-16 05:00","2023","03","16","05:00"
"-75.56","45.52","OTTAWA GATINEAU A","7032682","2023-03-16 06:00","2023","03","16","06:00","-0.8","","-5.1","","73","","","","27","","8","","24.1","","100.69","","","","-4","","NA"
"-75.56","45.52","OTTAWA GATINEAU A","7032682","2023-03-16 07:00","2023","03","16","07:00","-0.7","","-4.7","","74","","","","26","","9","","24.1","","100.67","","","","-4","","Cloudy"
"-75.56","45.52","OTTAWA GATINEAU A","7032682","2023-03-16 08:00","2023","03","16","08:00","0.0","","-4.3","","73","","","","26","","7","","19.3","","100.66","","","","-2","","NA"
"-75.56","45.52","OTTAWA GATINEAU A","7032682","2023-03-16 09:00","2023","03","16","09:00","1.1","","-5.8","","60","","","","24","","8","","19.3","","100.63","","","","","","NA"
"-75.56","45.52","OTTAWA GATINEAU A","7032682","2023-03-16 10:00","2023","03","16","10:00","1.6","","-5.7","","59","","","","24","","13","","16.1","","100.63","","","","","","Snow"
"-75.56","45.52","OTTAWA GATINEAU A","7032682","2023-03-16 11:00","2023","03","16","11:00","-0.3","","-1.3","","93","","","","24","","16","","2.4","","100.63","","","","-5","","Snow"
"-75.56","45.52","OTTAWA GATINEAU A","7032682","2023-03-16 12:00","2023","03","16","12:00","0.6","","-0.8","","90","","","","25","","18","","3.2","","100.60","","","","","","Snow"
"-75.56","45.52","OTTAWA GATINEAU A","7032682","2023-03-16 13:00","2023","03","16","13:00","0.7","","-0.6","","91","","","","23","","12","","8.1","","100.55","","","","","","Snow"
"-75.56","45.52","OTTAWA GATINEAU A","7032682","2023-03-16 14:00","2023","03","16","14:00","0.8","","-0.3","","92","","","","24","","13","","8.1","","100.50","","","","","","Snow"
"-75.56","45.52","OTTAWA GATINEAU A","7032682","2023-03-16 15:00","2023","03","16","15:00","1.1","","-0.3","","90","","","","24","","15","","12.9","","100.51","","","","","","NA"
"-75.56","45.52","OTTAWA GATINEAU A","7032682","2023-03-16 16:00","2023","03","16","16:00","1.4","","0.0","","90","","","","25","","9","","19.3","","100.49","","","","","","Cloudy"
"-75.56","45.52","OTTAWA GATINEAU A","7032682","2023-03-16 17:00","2023","03","16","17:00","1.7","","0.0","","89","","","","23","","4","","19.3","","100.45","","","","","","NA"
"-75.56","45.52","OTTAWA GATINEAU A","7032682","2023-03-16 18:00","2023","03","16","18:00","1.8","","0.2","","89","","","","36","","2","","19.3","","100.42","","","","","","NA"
"-75.56","45.52","OTTAWA GATINEAU A","7032682","2023-03-16 19:00","2023","03","16","19:00","1.0","","0.1","","94","","","","8","","4","","19.3","","100.44","","","","","","Cloudy"
"-75.56","45.52","OTTAWA GATINEAU A","7032682","2023-03-16 20:00","2023","03","16","20:00","1.1","","0.0","","92","","","","8","","7","","19.3","","100.42","","","","","","NA"
"-75.56","45.52","OTTAWA GATINEAU A","7032682","2023-03-16 21:00","2023","03","16","21:00"
"-75.56","45.52","OTTAWA GATINEAU A","7032682","2023-03-16 22:00","2023","03","16","22:00"
"-75.56","45.52","OTTAWA GATINEAU A","7032682","2023-03-16 23:00","2023","03","16","23:00"
"-75.56","45.52","OTTAWA GATINEAU A","7032682","2023-03-17 00:00","2023","03","17","00:00"
"-75.56","45.52","OTTAWA GATINEAU A","7032682","2023-03-17 01:00","2023","03","17","01:00"
"-75.56","45.52","OTTAWA GATINEAU A","7032682","2023-03-17 02:00","2023","03","17","02:00"
"-75.56","45.52","OTTAWA GATINEAU A","7032682","2023-03-17 03:00","2023","03","17","03:00"
"-75.56","45.52","OTTAWA GATINEAU A","7032682","2023-03-17 04:00","2023","03","17","04:00"
"-75.56","45.52","OTTAWA GATINEAU A","7032682","2023-03-17 05:00","2023","03","17","05:00"
"-75.56","45.52","OTTAWA GATINEAU A","7032682","2023-03-17 06:00","2023","03","17","06:00","0.9","","-0.8","","89","","","","8","","20","","19.3","","99.72","","","","","","NA"
"-75.56","45.52","OTTAWA GATINEAU A","7032682","2023-03-17 07:00","2023","03","17","07:00","0.9","","-0.7","","89","","","","8","","17","","16.1","","99.62","","","","","","Cloudy"
"-75.56","45.52","OTTAWA GATINEAU A","7032682","2023-03-17 08:00","2023","03","17","08:00","1.4","","-1.0","","84","","","","10","","18","","16.1","","99.55","","","","","","NA"
"-75.56","45.52","OTTAWA GATINEAU A","7032682","2023-03-17 09:00","2023","03","17","09:00","1.4","","-0.8","","85","","","","8","","12","","16.1","","99.45","","","","","","NA"
"-75.56","45.52","OTTAWA GATINEAU A","7032682","2023-03-17 10:00","2023","03","17","10:00","1.3","","-0.4","","89","","","","8","","20","","9.7","","99.29","","","","","","Rain,Fog"
"-75.56","45.52","OTTAWA GATINEAU A","7032682","2023-03-17 11:00","2023","03","17","11:00","1.2","","0.0","","92","","","","9","","16","","3.2","","99.16","","","","","","Rain,Fog"
"-75.56","45.52","OTTAWA GATINEAU A","7032682","2023-03-17 12:00","2023","03","17","12:00","1.1","","0.3","","94","","","","9","","16","","4.0","","99.06","","","","","","Rain,Fog"
"-75.56","45.52","OTTAWA GATINEAU A","7032682","2023-03-17 13:00","2023","03","17","13:00","1.2","","0.7","","96","","","","8","","20","","2.4","","98.92","","","","","","Rain,Fog"
"-75.56","45.52","OTTAWA GATINEAU A","7032682","2023-03-17 14:00","2023","03","17","14:00","1.4","","1.1","","98","","","","8","","18","","2.4","","98.80","","","","","","Rain,Fog"
"-75.56","45.52","OTTAWA GATINEAU A","7032682","2023-03-17 15:00","2023","03","17","15:00","1.4","","1.2","","99","","","","8","","17","","3.2","","98.75","","","","","","Rain,Fog"
"-75.56","45.52","OTTAWA GATINEAU A","7032682","2023-03-17 16:00","2023","03","17","16:00","1.4","","1.4","","99","","","","9","","14","","2.4","","98.67","","","","","","Rain,Fog"
"-75.56","45.52","OTTAWA GATINEAU A","7032682","2023-03-17 17:00","2023","03","17","17:00","1.5","","1.5","","100","","","","8","","14","","1.2","","98.63","","","","","","Rain,Fog"
"-75.56","45.52","OTTAWA GATINEAU A","7032682","2023-03-17 18:00","2023","03","17","18:00","1.6","","1.6","","100","","","","9","","8","","1.2","","98.64","","","","","","Drizzle,Fog"
"-75.56","45.52","OTTAWA GATINEAU A","7032682","2023-03-17 19:00","2023","03","17","19:00","1.3","","1.3","","100","","","","8","","5","","1.2","","98.69","","","","","","Fog"
"-75.56","45.52","OTTAWA GATINEAU A","7032682","2023-03-17 20:00","2023","03","17","20:00","1.6","","1.6","","100","","","","26","","5","","1.6","","98.77","","","","","","Rain,Fog"
"-75.56","45.52","OTTAWA GATINEAU A","7032682","2023-03-17 21:00","2023","03","17","21:00"
"-75.56","45.52","OTTAWA GATINEAU A","7032682","2023-03-17 22:00","2023","03","17","22:00"
"-75.56","45.52","OTTAWA GATINEAU A","7032682","2023-03-17 23:00","2023","03","17","23:00"
"-75.56","45.52","OTTAWA GATINEAU A","7032682","2023-03-18 00:00","2023","03","18","00:00"
"-75.56","45.52","OTTAWA GATINEAU A","7032682","2023-03-18 01:00","2023","03","18","01:00"
"-75.56","45.52","OTTAWA GATINEAU A","7032682","2023-03-18 02:00","2023","03","18","02:00"
"-75.56","45.52","OTTAWA GATINEAU A","7032682","2023-03-18 03:00","2023","03","18","03:00"
"-75.56","45.52","OTTAWA GATINEAU A","7032682","2023-03-18 04:00","2023","03","18","04:00"
"-75.56","45.52","OTTAWA GATINEAU A","7032682","2023-03-18 05:00","2023","03","18","05:00"
"-75.56","45.52","OTTAWA GATINEAU A","7032682","2023-03-18 06:00","2023","03","18","06:00","-0.5","","-5.8","","68","","","","26","","12","","24.1","","99.69","","","","-4","","NA"
"-75.56","45.52","OTTAWA GATINEAU A","7032682","2023-03-18 07:00","2023","03","18","07:00","-0.8","","-5.2","","72","","","","22","","3","","24.1","","99.75","","","","-2","","Mostly Cloudy"
"-75.56","45.52","OTTAWA GATINEAU A","7032682","2023-03-18 08:00","2023","03","18","08:00","0.4","","-6.0","","62","","","","24","","3","","24.1","","99.78","","","","","","NA"
"-75.56","45.52","OTTAWA GATINEAU A","7032682","2023-03-18 09:00","2023","03","18","09:00","1.3","","-5.5","","60","","","","25","","14","","24.1","","99.73","","","","","","NA"
"-75.56","45.52","OTTAWA GATINEAU A","7032682","2023-03-18 10:00","2023","03","18","10:00","1.8","","-6.5","","54","","","","24","","17","","24.1","","99.69","","","","","","Mostly Cloudy"
"-75.56","45.52","OTTAWA GATINEAU A","7032682","2023-03-18 11:00","2023","03","18","11:00","1.8","","-7.1","","52","","","","23","","19","","24.1","","99.68","","","","","","NA"
"-75.56","45.52","OTTAWA GATINEAU A","7032682","2023-03-18 12:00","2023","03","18","12:00","2.4","","-8.1","","46","","","","25","","17","","24.1","","99.63","","","","","","NA"
"-75.56","45.52","OTTAWA GATINEAU A","7032682","2023-03-18 13:00","2023","03","18","13:00","3.2","","-9.2","","40","","","","24","","16","","24.1","","99.55","","","","","","Mostly Cloudy"
"-75.56","45.52","OTTAWA GATINEAU A","7032682","2023-03-18 14:00","2023","03","18","14:00","3.3","","-9.3","","39","","","","24","","23","","24.1","","99.45","","","","","","NA"
"-75.56","45.52","OTTAWA GATINEAU A","7032682","2023-03-18 15:00","2023","03","18","15:00","2.8","","-5.8","","54","","","","19","","30","","16.1","","99.42","","","","","","NA"
"-75.56","45.52","OTTAWA GATINEAU A","7032682","2023-03-18 16:00","2023","03","18","16:00","1.4","","-3.9","","68","","","","22","","22","","16.1","","99.43","","","","","","Mostly Cloudy"
"-75.56","45.52","OTTAWA GATINEAU A","7032682","2023-03-18 17:00","2023","03","18","17:00","0.2","","-3.7","","75","","","","24","","23","","19.3","","99.50","","","","","","NA"
"-75.56","45.52","OTTAWA GATINEAU A","7032682","2023-03-18 18:00","2023","03","18","18:00","0.4","","-5.0","","67","","","","24","","27","","19.3","","99.58","","","","","","NA"
"-75.56","45.52","OTTAWA GATINEAU A","7032682","2023-03-18 19:00","2023","03","18","19:00","-0.9","","-4.8","","75","","","","23","","14","","19.3","","99.61","","","","-5","","Mainly Clear"
"-75.56","45.52","OTTAWA GATINEAU A","7032682","2023-03-18 20:00","2023","03","18","20:00","-2.3","","-4.5","","85","","","","24","","11","","24.1","","99.65","","","","-6","","NA"
"-75.56","45.52","OTTAWA GATINEAU A","7032682","2023-03-18 21:00","2023","03","18","21:00"
"-75.56","45.52","OTTAWA GATINEAU A","7032682","2023-03-18 22:00","2023","03","18","22:00"
"-75.56","45.52","OTTAWA GATINEAU A","7032682","2023-03-18 23:00","2023","03","18","23:00"
"-75.56","45.52","OTTAWA GATINEAU A","7032682","2023-03-19 00:00","2023","03","19","00:00"
"-75.56","45.52","OTTAWA GATINEAU A","7032682","2023-03-19 01:00","2023","03","19","01:00"
"-75.56","45.52","OTTAWA GATINEAU A","7032682","2023-03-19 02:00","2023","03","19","02:00"
"-75.56","45.52","OTTAWA GATINEAU A","7032682","2023-03-19 03:00","2023","03","19","03:00"
"-75.56","45.52","OTTAWA GATINEAU A","7032682","2023-03-19 04:00","2023","03","19","04:00"
"-75.56","45.52","OTTAWA GATINEAU A","7032682","2023-03-19 05:00","2023","03","19","05:00"
"-75.56","45.52","OTTAWA GATINEAU A","7032682","2023-03-19 06:00","2023","03","19","06:00","-7.0","","-9.4","","83","","","","26","","17","","4.8","","99.80","","","","-13","","Snow Showers"
"-75.56","45.52","OTTAWA GATINEAU A","7032682","2023-03-19 07:00","2023","03","19","07:00","-6.7","","-10.7","","73","","","","27","","24","","19.3","","99.88","","","","-14","","Snow Showers"
"-75.56","45.52","OTTAWA GATINEAU A","7032682","2023-03-19 08:00","2023","03","19","08:00","-7.9","","-11.8","","73","","","","26","","34","","12.9","","100.00","","","","-17","","Snow Showers,Blowing Snow"
"-75.56","45.52","OTTAWA GATINEAU A","7032682","2023-03-19 09:00","2023","03","19","09:00","-8.3","","-14.2","","63","","","","27","","27","","24.1","","100.15","","","","-17","","Snow Showers"
"-75.56","45.52","OTTAWA GATINEAU A","7032682","2023-03-19 10:00","2023","03","19","10:00","-7.6","","-15.6","","53","","","","27","","29","","24.1","","100.26","","","","-16","","Mostly Cloudy"
"-75.56","45.52","OTTAWA GATINEAU A","7032682","2023-03-19 11:00","2023","03","19","11:00","-7.7","","-17.1","","48","","","","26","","31","","24.1","","100.34","","","","-17","","NA"
"-75.56","45.52","OTTAWA GATINEAU A","7032682","2023-03-19 12:00","2023","03","19","12:00","-7.2","","-16.0","","50","","","","25","","36","","24.1","","100.43","","","","-17","","NA"
"-75.56","45.52","OTTAWA GATINEAU A","7032682","2023-03-19 13:00","2023","03","19","13:00","-7.2","","-17.1","","46","","","","28","","26","","24.1","","100.46","","","","-15","","Mainly Clear"
"-75.56","45.52","OTTAWA GATINEAU A","7032682","2023-03-19 14:00","2023","03","19","14:00","-5.7","","-16.1","","44","","","","25","","32","","24.1","","100.48","","","","-14","","NA"
"-75.56","45.52","OTTAWA GATINEAU A","7032682","2023-03-19 15:00","2023","03","19","15:00","-5.2","","-15.7","","44","","","","25","","33","","24.1","","100.52","","","","-14","","NA"
"-75.56","45.52","OTTAWA GATINEAU A","7032682","2023-03-19 16:00","2023","03","19","16:00","-4.5","","-15.3","","43","","","","27","","24","","24.1","","100.55","","","","-12","","Mainly Clear"
"-75.56","45.52","OTTAWA GATINEAU A","7032682","2023-03-19 17:00","2023","03","19","17:00","-4.0","","-14.7","","43","","","","26","","29","","24.1","","100.58","","","","-12","","NA"
"-75.56","45.52","OTTAWA GATINEAU A","7032682","2023-03-19 18:00","2023","03","19","18:00","-4.4","","-14.6","","45","","","","25","","14","","24.1","","100.62","","","","-10","","NA"
"-75.56","45.52","OTTAWA GATINEAU A","7032682","2023-03-19 19:00","2023","03","19","19:00","-6.1","","-14.4","","52","","","","30","","4","","24.1","","100.66","","","","-8","","Mainly Clear"
"-75.56","45.52","OTTAWA GATINEAU A","7032682","2023-03-19 20:00","2023","03","19","20:00","-7.7","","-13.4","","64","","","","29","","3","","24.1","","100.71","","","","-9","","NA"
"-75.56","45.52","OTTAWA GATINEAU A","7032682","2023-03-19 21:00","2023","03","19","21:00"
"-75.56","45.52","OTTAWA GATINEAU A","7032682","2023-03-19 22:00","2023","03","19","22:00"
"-75.56","45.52","OTTAWA GATINEAU A","7032682","2023-03-19 23:00","2023","03","19","23:00"
"-75.56","45.52","OTTAWA GATINEAU A","7032682","2023-03-20 00:00","2023","03","20","00:00"
"-75.56","45.52","OTTAWA GATINEAU A","7032682","2023-03-20 01:00","2023","03","20","01:00"
"-75.56","45.52","OTTAWA GATINEAU A","7032682","2023-03-20 02:00","2023","03","20","02:00"
"-75.56","45.52","OTTAWA GATINEAU A","7032682","2023-03-20 03:00","2023","03","20","03:00"
"-75.56","45.52","OTTAWA GATINEAU A","7032682","2023-03-20 04:00","2023","03","20","04:00"
"-75.56","45.52","OTTAWA GATINEAU A","7032682","2023-03-20 05:00","2023","03","20","05:00"
"-75.56","45.52","OTTAWA GATINEAU A","7032682","2023-03-20 06:00","2023","03","20","06:00","-5.2","","-9.3","","73","","","","26","","9","","24.1","","100.79","","","","-9","","NA"
"-75.56","45.52","OTTAWA GATINEAU A","7032682","2023-03-20 07:00","2023","03","20","07:00","-4.0","","-8.5","","71","","","","24","","12","","24.1","","100.86","","","","-9","","Mainly Clear"
"-75.56","45.52","OTTAWA GATINEAU A","7032682","2023-03-20 08:00","2023","03","20","08:00","-2.3","","-7.8","","66","","","","25","","18","","24.1","","100.90","","","","-8","","NA"
"-75.56","45.52","OTTAWA GATINEAU A","7032682","2023-03-20 09:00","2023","03","20","09:00","-0.2","","-7.0","","60","","","","25","","18","","24.1","","100.92","","","","-5","","NA"
"-75.56","45.52","OTTAWA GATINEAU A","7032682","2023-03-20 10:00","2023","03","20","10:00","1.3","","-6.1","","58","","","","25","","21","","24.1","","100.92","","","","","","Clear"
"-75.56","45.52","OTTAWA GATINEAU A","7032682","2023-03-20 11:00","2023","03","20","11:00","2.5","","-5.5","","56","","","","24","","18","","24.1","","100.90","","","","","","NA"
"-75.56","45.52","OTTAWA GATINEAU A","7032682","2023-03-20 12:00","2023","03","20","12:00","2.9","","-6.1","","51","","","","26","","23","","24.1","","100.91","","","","","","NA"
"-75.56","45.52","OTTAWA GATINEAU A","7032682","2023-03-20 13:00","2023","03","20","13:00","4.0","","-6.1","","48","","","","24","","26","","24.1","","100.91","","","","","","Mostly Cloudy"
"-75.56","45.52","OTTAWA GATINEAU A","7032682","2023-03-20 14:00","2023","03","20","14:00","4.0","","-5.7","","49","","","","25","","27","","24.1","","100.90","","","","","","NA"
"-75.56","45.52","OTTAWA GATINEAU A","7032682","2023-03-20 15:00","2023","03","20","15:00","3.8","","-4.9","","53","","","","28","","26","","24.1","","100.93","","","","","","NA"
"-75.56","45.52","OTTAWA GATINEAU A","7032682","2023-03-20 16:00","2023","03","20","16:00","4.0","","-5.1","","52","","","","26","","15","","24.1","","100.92","","","","","","Cloudy"
"-75.56","45.52","OTTAWA GATINEAU A","7032682","2023-03-20 17:00","2023","03","20","17:00","4.4","","-5.0","","51","","","","25","","14","","24.1","","100.93","","","","","","NA"
"-75.56","45.52","OTTAWA GATINEAU A","7032682","2023-03-20 18:00","2023","03","20","18:00","3.7","","-3.7","","58","","","","20","","11","","24.1","","101.00","","","","","","NA"
"-75.56","45.52","OTTAWA GATINEAU A","7032682","2023-03-20 19:00","2023","03","20","19:00","3.8","","-3.8","","58","","","","23","","19","","24.1","","101.06","","","","","","Mostly Cloudy"
"-75.56","45.52","OTTAWA GATINEAU A","7032682","2023-03-20 20:00","2023","03","20","20:00","3.2","","-3.7","","61","","","","21","","12","","24.1","","101.14","","","","","","NA"
"-75.56","45.52","OTTAWA GATINEAU A","7032682","2023-03-20 21:00","2023","03","20","21:00"
"-75.56","45.52","OTTAWA GATINEAU A","7032682","2023-03-20 22:00","2023","03","20","22:00"
"-75.56","45.52","OTTAWA GATINEAU A","7032682","2023-03-20 23:00","2023","03","20","23:00"
"-75.56","45.52","OTTAWA GATINEAU A","7032682","2023-03-21 00:00","2023","03","21","00:00"
"-75.56","45.52","OTTAWA GATINEAU A","7032682","2023-03-21 01:00","2023","03","21","01:00"
"-75.56","45.52","OTTAWA GATINEAU A","7032682","2023-03-21 02:00","2023","03","21","02:00"
"-75.56","45.52","OTTAWA GATINEAU A","7032682","2023-03-21 03:00","2023","03","21","03:00"
"-75.56","45.52","OTTAWA GATINEAU A","7032682","2023-03-21 04:00","2023","03","21","04:00"
"-75.56","45.52","OTTAWA GATINEAU A","7032682","2023-03-21 05:00","2023","03","21","05:00"
"-75.56","45.52","OTTAWA GATINEAU A","7032682","2023-03-21 06:00","2023","03","21","06:00","-0.6","","-2.3","","88","","","","36","","1","","24.1","","101.36","","","","-1","","NA"
"-75.56","45.52","OTTAWA GATINEAU A","7032682","2023-03-21 07:00","2023","03","21","07:00","-0.4","","-2.3","","87","","","","36","","2","","24.1","","101.42","","","","-1","","Cloudy"
"-75.56","45.52","OTTAWA GATINEAU A","7032682","2023-03-21 08:00","2023","03","21","08:00","1.0","","-1.4","","84","","","","33","","11","","24.1","","101.47","","","","","","NA"
"-75.56","45.52","OTTAWA GATINEAU A","7032682","2023-03-21 09:00","2023","03","21","09:00","1.0","","-2.4","","78","","","","33","","14","","24.1","","101.59","","","","","","NA"
"-75.56","45.52","OTTAWA GATINEAU A","7032682","2023-03-21 10:00","2023","03","21","10:00","0.7","","-4.1","","70","","","","1","","16","","24.1","","101.70","","","","","","Mostly Cloudy"
"-75.56","45.52","OTTAWA GATINEAU A","7032682","2023-03-21 11:00","2023","03","21","11:00","1.1","","-5.8","","60","","","","1","","14","","24.1","","101.78","","","","","","NA"
"-75.56","45.52","OTTAWA GATINEAU A","7032682","2023-03-21 12:00","2023","03","21","12:00","2.0","","-5.8","","56","","","","31","","13","","24.1","","101.85","","","","","","NA"
"-75.56","45.52","OTTAWA GATINEAU A","7032682","2023-03-21 13:00","2023","03","21","13:00","2.5","","-6.5","","51","","","","30","","8","","24.1","","101.86","","","","","","Mostly Cloudy"
"-75.56","45.52","OTTAWA GATINEAU A","7032682","2023-03-21 14:00","2023","03","21","14:00","3.5","","-5.8","","51","","","","28","","9","","24.1","","101.86","","","","","","NA"
"-75.56","45.52","OTTAWA GATINEAU A","7032682","2023-03-21 15:00","2023","03","21","15:00","3.3","","-7.3","","46","","","","30","","19","","24.1","","101.89","","","","","","NA"
"-75.56","45.52","OTTAWA GATINEAU A","7032682","2023-03-21 16:00","2023","03","21","16:00","3.4","","-7.4","","45","","","","30","","21","","24.1","","101.92","","","","","","Mainly Clear"
"-75.56","45.52","OTTAWA GATINEAU A","7032682","2023-03-21 17:00","2023","03","21","17:00","3.1","","-7.6","","45","","","","30","","14","","24.1","","101.94","","","","","","NA"
"-75.56","45.52","OTTAWA GATINEAU A","7032682","2023-03-21 18:00","2023","03","21","18:00","1.7","","-7.6","","50","","","","32","","6","","24.1","","102.01","","","","","","NA"
"-75.56","45.52","OTTAWA GATINEAU A","7032682","2023-03-21 19:00","2023","03","21","19:00","0.3","","-7.0","","58","","","","30","","7","","24.1","","102.07","","","","","","Mainly Clear"
"-75.56","45.52","OTTAWA GATINEAU A","7032682","2023-03-21 20:00","2023","03","21","20:00","-1.1","","-7.1","","64","","","","34","","5","","24.1","","102.10","","","","-3","","NA"
"-75.56","45.52","OTTAWA GATINEAU A","7032682","2023-03-21 21:00","2023","03","21","21:00"
"-75.56","45.52","OTTAWA GATINEAU A","7032682","2023-03-21 22:00","2023","03","21","22:00"
"-75.56","45.52","OTTAWA GATINEAU A","7032682","2023-03-21 23:00","2023","03","21","23:00"
"-75.56","45.52","OTTAWA GATINEAU A","7032682","2023-03-22 00:00","2023","03","22","00:00"
"-75.56","45.52","OTTAWA GATINEAU A","7032682","2023-03-22 01:00","2023","03","22","01:00"
"-75.56","45.52","OTTAWA GATINEAU A","7032682","2023-03-22 02:00","2023","03","22","02:00"
"-75.56","45.52","OTTAWA GATINEAU A","7032682","2023-03-22 03:00","2023","03","22","03:00"
"-75.56","45.52","OTTAWA GATINEAU A","7032682","2023-03-22 04:00","2023","03","22","04:00"
"-75.56","45.52","OTTAWA GATINEAU A","7032682","2023-03-22 05:00","2023","03","22","05:00"
"-75.56","45.52","OTTAWA GATINEAU A","7032682","2023-03-22 06:00","2023","03","22","06:00","-5.3","","-11.9","","60","","","","7","","14","","24.1","","102.29","","","","-11","","NA"
"-75.56","45.52","OTTAWA GATINEAU A","7032682","2023-03-22 07:00","2023","03","22","07:00","-4.3","","-11.2","","59","","","","7","","18","","24.1","","102.30","","","","-10","","Mainly Clear"
"-75.56","45.52","OTTAWA GATINEAU A","7032682","2023-03-22 08:00","2023","03","22","08:00","-4.1","","-10.8","","60","","","","7","","24","","24.1","","102.33","","","","-11","","NA"
"-75.56","45.52","OTTAWA GATINEAU A","7032682","2023-03-22 09:00","2023","03","22","09:00","-3.3","","-11.1","","55","","","","8","","25","","24.1","","102.27","","","","-10","","NA"
"-75.56","45.52","OTTAWA GATINEAU A","7032682","2023-03-22 10:00","2023","03","22","10:00","-2.4","","-10.1","","55","","","","7","","21","","24.1","","102.22","","","","-8","","Mainly Clear"
"-75.56","45.52","OTTAWA GATINEAU A","7032682","2023-03-22 11:00","2023","03","22","11:00","-1.2","","-9.9","","52","","","","8","","21","","24.1","","102.14","","","","-7","","NA"
"-75.56","45.52","OTTAWA GATINEAU A","7032682","2023-03-22 12:00","2023","03","22","12:00","-0.5","","-9.4","","51","","","","9","","21","","24.1","","102.02","","","","-6","","NA"
"-75.56","45.52","OTTAWA GATINEAU A","7032682","2023-03-22 13:00","2023","03","22","13:00","0.3","","-9.1","","50","","","","9","","20","","24.1","","101.85","","","","","","Mainly Clear"
"-75.56","45.52","OTTAWA GATINEAU A","7032682","2023-03-22 14:00","2023","03","22","14:00","1.2","","-9.5","","45","","","","9","","22","","24.1","","101.67","","","","","","NA"
"-75.56","45.52","OTTAWA GATINEAU A","7032682","2023-03-22 15:00","2023","03","22","15:00","1.2","","-8.8","","47","","","","9","","20","","24.1","","101.60","","","","","","NA"
"-75.56","45.52","OTTAWA GATINEAU A","7032682","2023-03-22 16:00","2023","03","22","16:00","0.8","","-8.6","","50","","","","9","","21","","24.1","","101.52","","","","","","Cloudy"
"-75.56","45.52","OTTAWA GATINEAU A","7032682","2023-03-22 17:00","2023","03","22","17:00","0.3","","-7.6","","56","","","","9","","16","","24.1","","101.45","","","","","","NA"
"-75.56","45.52","OTTAWA GATINEAU A","7032682","2023-03-22 18:00","2023","03","22","18:00","0.5","","-8.1","","53","","","","9","","16","","24.1","","101.38","","","","","","NA"
"-75.56","45.52","OTTAWA GATINEAU A","7032682","2023-03-22 19:00","2023","03","22","19:00","0.5","","-8.1","","53","","","","11","","9","","24.1","","101.38","","","","","","Cloudy"
"-75.56","45.52","OTTAWA GATINEAU A","7032682","2023-03-22 20:00","2023","03","22","20:00","0.3","","-7.1","","58","","","","8","","10","","24.1","","101.38","","","","","","NA"
"-75.56","45.52","OTTAWA GATINEAU A","7032682","2023-03-22 21:00","2023","03","22","21:00"
"-75.56","45.52","OTTAWA GATINEAU A","7032682","2023-03-22 22:00","2023","03","22","22:00"
"-75.56","45.52","OTTAWA GATINEAU A","7032682","2023-03-22 23:00","2023","03","22","23:00"
"-75.56","45.52","OTTAWA GATINEAU A","7032682","2023-03-23 00:00","2023","03","23","00:00"
"-75.56","45.52","OTTAWA GATINEAU A","7032682","2023-03-23 01:00","2023","03","23","01:00"
"-75.56","45.52","OTTAWA GATINEAU A","7032682","2023-03-23 02:00","2023","03","23","02:00"
"-75.56","45.52","OTTAWA GATINEAU A","7032682","2023-03-23 03:00","2023","03","23","03:00"
"-75.56","45.52","OTTAWA GATINEAU A","7032682","2023-03-23 04:00","2023","03","23","04:00"
"-75.56","45.52","OTTAWA GATINEAU A","7032682","2023-03-23 05:00","2023","03","23","05:00"
"-75.56","45.52","OTTAWA GATINEAU A","7032682","2023-03-23 06:00","2023","03","23","06:00","-1.0","","-4.5","","77","","","","7","","12","","19.3","","100.41","","","","-5","","Freezing Rain"
"-75.56","45.52","OTTAWA GATINEAU A","7032682","2023-03-23 07:00","2023","03","23","07:00","-1.2","","-3.7","","84","","","","9","","13","","16.1","","100.30","","","","-5","","Freezing Rain"
"-75.56","45.52","OTTAWA GATINEAU A","7032682","2023-03-23 08:00","2023","03","23","08:00","-1.2","","-2.3","","93","","","","8","","10","","9.7","","100.24","","","","-5","","Freezing Rain,Fog"
"-75.56","45.52","OTTAWA GATINEAU A","7032682","2023-03-23 09:00","2023","03","23","09:00","-1.1","","-1.6","","96","","","","11","","13","","6.4","","100.08","","","","-5","","Freezing Rain,Fog"
"-75.56","45.52","OTTAWA GATINEAU A","7032682","2023-03-23 10:00","2023","03","23","10:00","-0.6","","-1.1","","96","","","","4","","10","","6.4","","100.04","","","","-4","","Freezing Rain,Fog"
"-75.56","45.52","OTTAWA GATINEAU A","7032682","2023-03-23 11:00","2023","03","23","11:00","0.0","","-0.6","","95","","","","11","","4","","6.4","","100.00","","","","-1","","Rain,Fog"
"-75.56","45.52","OTTAWA GATINEAU A","7032682","2023-03-23 12:00","2023","03","23","12:00","0.1","","-0.3","","97","","","","14","","6","","6.4","","99.90","","","","","","Rain,Fog"
"-75.56","45.52","OTTAWA GATINEAU A","7032682","2023-03-23 13:00","2023","03","23","13:00","0.3","","-0.2","","97","","","","10","","5","","8.1","","99.83","","","","","","Rain,Fog"
"-75.56","45.52","OTTAWA GATINEAU A","7032682","2023-03-23 14:00","2023","03","23","14:00","0.6","","0.0","","96","","","","4","","4","","8.1","","99.77","","","","","","Fog"
"-75.56","45.52","OTTAWA GATINEAU A","7032682","2023-03-23 15:00","2023","03","23","15:00","1.1","","0.3","","94","","","","29","","5","","8.1","","99.76","","","","","","Fog"
"-75.56","45.52","OTTAWA GATINEAU A","7032682","2023-03-23 16:00","2023","03","23","16:00","1.6","","0.8","","94","","","","26","","5","","8.1","","99.74","","","","","","Fog"
"-75.56","45.52","OTTAWA GATINEAU A","7032682","2023-03-23 17:00","2023","03","23","17:00","2.5","","1.5","","93","","","","25","","3","","8.1","","99.76","","","","","","Fog"
"-75.56","45.52","OTTAWA GATINEAU A","7032682","2023-03-23 18:00","2023","03","23","18:00","2.4","","1.9","","96","","","","36","","2","","9.7","","99.82","","","","","","Fog"
"-75.56","45.52","OTTAWA GATINEAU A","7032682","2023-03-23 19:00","2023","03","23","19:00","2.1","","2.0","","99","","","","28","","3","","1.6","","99.87","","","","","","Fog"
"-75.56","45.52","OTTAWA GATINEAU A","7032682","2023-03-23 20:00","2023","03","23","20:00","1.5","","1.5","","100","","","","27","","12","","0.8","","100.00","","","","","","Fog"
"-75.56","45.52","OTTAWA GATINEAU A","7032682","2023-03-23 21:00","2023","03","23","21:00"
"-75.56","45.52","OTTAWA GATINEAU A","7032682","2023-03-23 22:00","2023","03","23","22:00"
"-75.56","45.52","OTTAWA GATINEAU A","7032682","2023-03-23 23:00","2023","03","23","23:00"
"-75.56","45.52","OTTAWA GATINEAU A","7032682","2023-03-24 00:00","2023","03","24","00:00"
"-75.56","45.52","OTTAWA GATINEAU A","7032682","2023-03-24 01:00","2023","03","24","01:00"
"-75.56","45.52","OTTAWA GATINEAU A","7032682","2023-03-24 02:00","2023","03","24","02:00"
"-75.56","45.52","OTTAWA GATINEAU A","7032682","2023-03-24 03:00","2023","03","24","03:00"
"-75.56","45.52","OTTAWA GATINEAU A","7032682","2023-03-24 04:00","2023","03","24","04:00"
"-75.56","45.52","OTTAWA GATINEAU A","7032682","2023-03-24 05:00","2023","03","24","05:00"
"-75.56","45.52","OTTAWA GATINEAU A","7032682","2023-03-24 06:00","2023","03","24","06:00","-0.3","","-7.2","","60","","","","31","","12","","24.1","","100.76","","","","-4","","NA"
"-75.56","45.52","OTTAWA GATINEAU A","7032682","2023-03-24 07:00","2023","03","24","07:00","-0.6","","-7.3","","60","","","","30","","14","","24.1","","100.89","","","","-5","","Mostly Cloudy"
"-75.56","45.52","OTTAWA GATINEAU A","7032682","2023-03-24 08:00","2023","03","24","08:00","-0.6","","-7.7","","59","","","","31","","16","","24.1","","100.89","","","","-5","","NA"
"-75.56","45.52","OTTAWA GATINEAU A","7032682","2023-03-24 09:00","2023","03","24","09:00","-0.2","","-7.6","","57","","","","34","","18","","24.1","","100.95","","","","-5","","NA"
"-75.56","45.52","OTTAWA GATINEAU A","7032682","2023-03-24 10:00","2023","03","24","10:00","0.5","","-7.3","","56","","","","35","","12","","24.1","","100.95","","","","","","Mainly Clear"
"-75.56","45.52","OTTAWA GATINEAU A","7032682","2023-03-24 11:00","2023","03","24","11:00","1.2","","-7.0","","54","","","","34","","8","","24.1","","100.98","","","","","","NA"
"-75.56","45.52","OTTAWA GATINEAU A","7032682","2023-03-24 12:00","2023","03","24","12:00","1.7","","-6.9","","53","","","","26","","18","","24.1","","100.98","","","","","","NA"
"-75.56","45.52","OTTAWA GATINEAU A","7032682","2023-03-24 13:00","2023","03","24","13:00","2.8","","-7.3","","47","","","","31","","14","","24.1","","100.98","","","","","","Mainly Clear"
"-75.56","45.52","OTTAWA GATINEAU A","7032682","2023-03-24 14:00","2023","03","24","14:00","3.7","","-7.8","","43","","","","31","","16","","24.1","","100.97","","","","","","NA"
"-75.56","45.52","OTTAWA GATINEAU A","7032682","2023-03-24 15:00","2023","03","24","15:00","4.0","","-8.5","","40","","","","26","","10","","24.1","","101.00","","","","","","NA"
"-75.56","45.52","OTTAWA GATINEAU A","7032682","2023-03-24 16:00","2023","03","24","16:00","4.3","","-7.9","","41","","","","29","","9","","24.1","","100.98","","","","","","Mainly Clear"
"-75.56","45.52","OTTAWA GATINEAU A","7032682","2023-03-24 17:00","2023","03","24","17:00","3.2","","-6.3","","50","","","","25","","8","","24.1","","101.06","","","","","","NA"
"-75.56","45.52","OTTAWA GATINEAU A","7032682","2023-03-24 18:00","2023","03","24","18:00","1.0","","-5.4","","63","","","","26","","15","","24.1","","101.16","","","","","","NA"
"-75.56","45.52","OTTAWA GATINEAU A","7032682","2023-03-24 19:00","2023","03","24","19:00","0.9","","-6.9","","56","","","","30","","5","","24.1","","101.22","","","","","","Mainly Clear"
"-75.56","45.52","OTTAWA GATINEAU A","7032682","2023-03-24 20:00","2023","03","24","20:00","-1.5","","-6.7","","68","","","","30","","4","","24.1","","101.26","","","","-3","","NA"
"-75.56","45.52","OTTAWA GATINEAU A","7032682","2023-03-24 21:00","2023","03","24","21:00"
"-75.56","45.52","OTTAWA GATINEAU A","7032682","2023-03-24 22:00","2023","03","24","22:00"
"-75.56","45.52","OTTAWA GATINEAU A","7032682","2023-03-24 23:00","2023","03","24","23:00"
"-75.56","45.52","OTTAWA GATINEAU A","7032682","2023-03-25 00:00","2023","03","25","00:00"
"-75.56","45.52","OTTAWA GATINEAU A","7032682","2023-03-25 01:00","2023","03","25","01:00"
"-75.56","45.52","OTTAWA GATINEAU A","7032682","2023-03-25 02:00","2023","03","25","02:00"
"-75.56","45.52","OTTAWA GATINEAU A","7032682","2023-03-25 03:00","2023","03","25","03:00"
"-75.56","45.52","OTTAWA GATINEAU A","7032682","2023-03-25 04:00","2023","03","25","04:00"
"-75.56","45.52","OTTAWA GATINEAU A","7032682","2023-03-25 05:00","2023","03","25","05:00"
"-75.56","45.52","OTTAWA GATINEAU A","7032682","2023-03-25 06:00","2023","03","25","06:00","-2.8","","-7.6","","70","","","","8","","18","","24.1","","101.18","","","","-8","","NA"
"-75.56","45.52","OTTAWA GATINEAU A","7032682","2023-03-25 07:00","2023","03","25","07:00","-2.5","","-7.1","","71","","","","8","","23","","24.1","","101.10","","","","-9","","Cloudy"
"-75.56","45.52","OTTAWA GATINEAU A","7032682","2023-03-25 08:00","2023","03","25","08:00","-1.8","","-7.0","","68","","","","7","","35","","24.1","","100.94","","","","-9","","NA"
"-75.56","45.52","OTTAWA GATINEAU A","7032682","2023-03-25 09:00","2023","03","25","09:00","-1.0","","-6.9","","64","","","","8","","31","","24.1","","100.81","","","","-8","","NA"
"-75.56","45.52","OTTAWA GATINEAU A","7032682","2023-03-25 10:00","2023","03","25","10:00","-0.4","","-7.0","","61","","","","8","","29","","24.1","","100.77","","","","-7","","Cloudy"
"-75.56","45.52","OTTAWA GATINEAU A","7032682","2023-03-25 11:00","2023","03","25","11:00","0.1","","-6.3","","62","","","","8","","22","","24.1","","100.65","","","","","","NA"
"-75.56","45.52","OTTAWA GATINEAU A","7032682","2023-03-25 12:00","2023","03","25","12:00","0.0","","-6.3","","63","","","","9","","34","","24.1","","100.48","","","","-7","","NA"
"-75.56","45.52","OTTAWA GATINEAU A","7032682","2023-03-25 13:00","2023","03","25","13:00","0.2","","-5.6","","65","","","","9","","35","","19.3","","100.19","","","","","","Snow"
"-75.56","45.52","OTTAWA GATINEAU A","7032682","2023-03-25 14:00","2023","03","25","14:00","0.1","","-5.1","","68","","","","10","","30","","19.3","","100.08","","","","","","Snow"
"-75.56","45.52","OTTAWA GATINEAU A","7032682","2023-03-25 15:00","2023","03","25","15:00","-1.2","","-2.0","","95","","","","8","","32","","1.2","","99.89","","","","-8","","Snow"
"-75.56","45.52","OTTAWA GATINEAU A","7032682","2023-03-25 16:00","2023","03","25","16:00","-1.0","","-1.7","","95","","","","8","","33","","1.6","","99.71","","","","-8","","Snow"
"-75.56","45.52","OTTAWA GATINEAU A","7032682","2023-03-25 17:00","2023","03","25","17:00","0.0","","-0.7","","95","","","","10","","32","","2.4","","99.61","","","","-7","","Snow"
"-75.56","45.52","OTTAWA GATINEAU A","7032682","2023-03-25 18:00","2023","03","25","18:00","0.2","","-0.1","","98","","","","10","","34","","1.2","","99.56","","","","","","Snow"
"-75.56","45.52","OTTAWA GATINEAU A","7032682","2023-03-25 19:00","2023","03","25","19:00","0.3","","-0.1","","97","","","","9","","30","","6.4","","99.46","","","","","","Snow"
"-75.56","45.52","OTTAWA GATINEAU A","7032682","2023-03-25 20:00","2023","03","25","20:00","0.5","","0.0","","96","","","","14","","16","","24.1","","99.43","","","","","","Snow"
"-75.56","45.52","OTTAWA GATINEAU A","7032682","2023-03-25 21:00","2023","03","25","21:00"
"-75.56","45.52","OTTAWA GATINEAU A","7032682","2023-03-25 22:00","2023","03","25","22:00"
"-75.56","45.52","OTTAWA GATINEAU A","7032682","2023-03-25 23:00","2023","03","25","23:00"
"-75.56","45.52","OTTAWA GATINEAU A","7032682","2023-03-26 00:00","2023","03","26","00:00"
"-75.56","45.52","OTTAWA GATINEAU A","7032682","2023-03-26 01:00","2023","03","26","01:00"
"-75.56","45.52","OTTAWA GATINEAU A","7032682","2023-03-26 02:00","2023","03","26","02:00"
"-75.56","45.52","OTTAWA GATINEAU A","7032682","2023-03-26 03:00","2023","03","26","03:00"
"-75.56","45.52","OTTAWA GATINEAU A","7032682","2023-03-26 04:00","2023","03","26","04:00"
"-75.56","45.52","OTTAWA GATINEAU A","7032682","2023-03-26 05:00","2023","03","26","05:00"
"-75.56","45.52","OTTAWA GATINEAU A","7032682","2023-03-26 06:00","2023","03","26","06:00","1.9","","-0.4","","85","","","","21","","27","","9.7","","99.26","","","","","","Rain,Fog"
"-75.56","45.52","OTTAWA GATINEAU A","7032682","2023-03-26 07:00","2023","03","26","07:00","1.2","","-0.1","","91","","","","21","","22","","8.1","","99.34","","","","","","Snow,Fog"
"-75.56","45.52","OTTAWA GATINEAU A","7032682","2023-03-26 08:00","2023","03","26","08:00","1.6","","-0.3","","87","","","","23","","25","","16.1","","99.42","","","","","","Snow"
"-75.56","45.52","OTTAWA GATINEAU A","7032682","2023-03-26 09:00","2023","03","26","09:00","1.7","","-0.6","","85","","","","24","","27","","24.1","","99.54","","","","","","Snow"
"-75.56","45.52","OTTAWA GATINEAU A","7032682","2023-03-26 10:00","2023","03","26","10:00","2.3","","-1.5","","76","","","","25","","21","","19.3","","99.65","","","","","","Snow"
"-75.56","45.52","OTTAWA GATINEAU A","7032682","2023-03-26 11:00","2023","03","26","11:00","2.5","","-1.8","","73","","","","25","","27","","24.1","","99.75","","","","","","NA"
"-75.56","45.52","OTTAWA GATINEAU A","7032682","2023-03-26 12:00","2023","03","26","12:00","3.3","","-2.7","","65","","","","27","","33","","24.1","","99.83","","","","","","NA"
"-75.56","45.52","OTTAWA GATINEAU A","7032682","2023-03-26 13:00","2023","03","26","13:00","3.0","","-2.1","","69","","","","27","","36","","16.1","","99.94","","","","","","Rain,Snow"
"-75.56","45.52","OTTAWA GATINEAU A","7032682","2023-03-26 14:00","2023","03","26","14:00","4.2","","-2.3","","63","","","","28","","31","","24.1","","100.03","","","","","","NA"
"-75.56","45.52","OTTAWA GATINEAU A","7032682","2023-03-26 15:00","2023","03","26","15:00","3.8","","-2.5","","63","","","","26","","27","","24.1","","100.13","","","","","","NA"
"-75.56","45.52","OTTAWA GATINEAU A","7032682","2023-03-26 16:00","2023","03","26","16:00","3.9","","-2.5","","63","","","","27","","27","","24.1","","100.23","","","","","","Cloudy"
"-75.56","45.52","OTTAWA GATINEAU A","7032682","2023-03-26 17:00","2023","03","26","17:00","4.3","","-2.8","","60","","","","28","","26","","24.1","","100.34","","","","","","NA"
"-75.56","45.52","OTTAWA GATINEAU A","7032682","2023-03-26 18:00","2023","03","26","18:00","3.8","","-2.6","","63","","","","27","","22","","24.1","","100.44","","","","","","NA"
"-75.56","45.52","OTTAWA GATINEAU A","7032682","2023-03-26 19:00","2023","03","26","19:00","3.4","","-2.6","","65","","","","27","","24","","24.1","","100.58","","","","","","Mostly Cloudy"
"-75.56","45.52","OTTAWA GATINEAU A","7032682","2023-03-26 20:00","2023","03","26","20:00","3.4","","-2.4","","66","","","","28","","16","","24.1","","100.69","","","","","","NA"
"-75.56","45.52","OTTAWA GATINEAU A","7032682","2023-03-26 21:00","2023","03","26","21:00"
"-75.56","45.52","OTTAWA GATINEAU A","7032682","2023-03-26 22:00","2023","03","26","22:00"
"-75.56","45.52","OTTAWA GATINEAU A","7032682","2023-03-26 23:00","2023","03","26","23:00"
"-75.56","45.52","OTTAWA GATINEAU A","7032682","2023-03-27 00:00","2023","03","27","00:00"
"-75.56","45.52","OTTAWA GATINEAU A","7032682","2023-03-27 01:00","2023","03","27","01:00"
"-75.56","45.52","OTTAWA GATINEAU A","7032682","2023-03-27 02:00","2023","03","27","02:00"
"-75.56","45.52","OTTAWA GATINEAU A","7032682","2023-03-27 03:00","2023","03","27","03:00"
"-75.56","45.52","OTTAWA GATINEAU A","7032682","2023-03-27 04:00","2023","03","27","04:00"
"-75.56","45.52","OTTAWA GATINEAU A","7032682","2023-03-27 05:00","2023","03","27","05:00"
"-75.56","45.52","OTTAWA GATINEAU A","7032682","2023-03-27 06:00","2023","03","27","06:00","-4.1","","-4.9","","94","","","","36","","2","","24.1","","101.00","","","","-5","","NA"
"-75.56","45.52","OTTAWA GATINEAU A","7032682","2023-03-27 07:00","2023","03","27","07:00","-3.0","","-3.8","","94","","","","36","","3","","24.1","","101.04","","","","-4","","Mostly Cloudy"
"-75.56","45.52","OTTAWA GATINEAU A","7032682","2023-03-27 08:00","2023","03","27","08:00","-0.6","","-2.4","","88","","","","36","","2","","24.1","","101.05","","","","-1","","NA"
"-75.56","45.52","OTTAWA GATINEAU A","7032682","2023-03-27 09:00","2023","03","27","09:00","1.1","","-1.9","","81","","","","36","","2","","24.1","","101.13","","","","","","NA"
"-75.56","45.52","OTTAWA GATINEAU A","7032682","2023-03-27 10:00","2023","03","27","10:00","4.0","","-1.6","","67","","","","24","","3","","24.1","","101.10","","","","","","Mostly Cloudy"
"-75.56","45.52","OTTAWA GATINEAU A","7032682","2023-03-27 11:00","2023","03","27","11:00","5.2","","-3.0","","55","","","","13","","7","","24.1","","101.07","","","","","","NA"
"-75.56","45.52","OTTAWA GATINEAU A","7032682","2023-03-27 12:00","2023","03","27","12:00","6.6","","-2.8","","51","","","","21","","4","","24.1","","101.03","","","","","","NA"
"-75.56","45.52","OTTAWA GATINEAU A","7032682","2023-03-27 13:00","2023","03","27","13:00","6.7","","-4.4","","45","","","","13","","9","","24.1","","100.99","","","","","","Mostly Cloudy"
"-75.56","45.52","OTTAWA GATINEAU A","7032682","2023-03-27 14:00","2023","03","27","14:00","7.3","","-5.0","","41","","","","13","","7","","24.1","","100.98","","","","","","NA"
"-75.56","45.52","OTTAWA GATINEAU A","7032682","2023-03-27 15:00","2023","03","27","15:00","7.2","","-4.2","","44","","","","3","","6","","24.1","","101.00","","","","","","NA"
"-75.56","45.52","OTTAWA GATINEAU A","7032682","2023-03-27 16:00","2023","03","27","16:00","7.1","","-6.6","","37","","","","1","","12","","24.1","","100.97","","","","","","Mostly Cloudy"
"-75.56","45.52","OTTAWA GATINEAU A","7032682","2023-03-27 17:00","2023","03","27","17:00","6.8","","-6.6","","38","","","","2","","13","","24.1","","100.98","","","","","","NA"
"-75.56","45.52","OTTAWA GATINEAU A","7032682","2023-03-27 18:00","2023","03","27","18:00","6.4","","-6.6","","39","","","","36","","12","","24.1","","101.02","","","","","","NA"
"-75.56","45.52","OTTAWA GATINEAU A","7032682","2023-03-27 19:00","2023","03","27","19:00","4.3","","-6.8","","44","","","","34","","10","","24.1","","101.09","","","","","","Mainly Clear"
"-75.56","45.52","OTTAWA GATINEAU A","7032682","2023-03-27 20:00","2023","03","27","20:00","4.1","","-5.6","","49","","","","35","","15","","24.1","","101.17","","","","","","NA"
"-75.56","45.52","OTTAWA GATINEAU A","7032682","2023-03-27 21:00","2023","03","27","21:00"
"-75.56","45.52","OTTAWA GATINEAU A","7032682","2023-03-27 22:00","2023","03","27","22:00"
"-75.56","45.52","OTTAWA GATINEAU A","7032682","2023-03-27 23:00","2023","03","27","23:00"
"-75.56","45.52","OTTAWA GATINEAU A","7032682","2023-03-28 00:00","2023","03","28","00:00"
"-75.56","45.52","OTTAWA GATINEAU A","7032682","2023-03-28 01:00","2023","03","28","01:00"
"-75.56","45.52","OTTAWA GATINEAU A","7032682","2023-03-28 02:00","2023","03","28","02:00"
"-75.56","45.52","OTTAWA GATINEAU A","7032682","2023-03-28 03:00","2023","03","28","03:00"
"-75.56","45.52","OTTAWA GATINEAU A","7032682","2023-03-28 04:00","2023","03","28","04:00"
"-75.56","45.52","OTTAWA GATINEAU A","7032682","2023-03-28 05:00","2023","03","28","05:00"
"-75.56","45.52","OTTAWA GATINEAU A","7032682","2023-03-28 06:00","2023","03","28","06:00","-3.6","","-6.8","","79","","","","31","","10","","24.1","","101.39","","","","-8","","NA"
"-75.56","45.52","OTTAWA GATINEAU A","7032682","2023-03-28 07:00","2023","03","28","07:00","-3.8","","-6.0","","85","","","","31","","5","","24.1","","101.43","","","","-6","","Mostly Cloudy"
"-75.56","45.52","OTTAWA GATINEAU A","7032682","2023-03-28 08:00","2023","03","28","08:00","-2.0","","-5.8","","75","","","","24","","5","","24.1","","101.44","","","","-4","","NA"
"-75.56","45.52","OTTAWA GATINEAU A","7032682","2023-03-28 09:00","2023","03","28","09:00","0.1","","-5.4","","67","","","","19","","3","","24.1","","101.45","","","","","","NA"
"-75.56","45.52","OTTAWA GATINEAU A","7032682","2023-03-28 10:00","2023","03","28","10:00","1.3","","-6.5","","56","","","","31","","6","","24.1","","101.45","","","","","","Mostly Cloudy"
"-75.56","45.52","OTTAWA GATINEAU A","7032682","2023-03-28 11:00","2023","03","28","11:00","1.5","","-7.2","","53","","","","34","","12","","24.1","","101.40","","","","","","NA"
"-75.56","45.52","OTTAWA GATINEAU A","7032682","2023-03-28 12:00","2023","03","28","12:00","2.3","","-6.8","","51","","","","32","","11","","24.1","","101.36","","","","","","NA"
"-75.56","45.52","OTTAWA GATINEAU A","7032682","2023-03-28 13:00","2023","03","28","13:00","2.3","","-7.2","","49","","","","31","","7","","24.1","","101.35","","","","","","Mostly Cloudy"
"-75.56","45.52","OTTAWA GATINEAU A","7032682","2023-03-28 14:00","2023","03","28","14:00","2.7","","-5.8","","54","","","","27","","19","","24.1","","101.29","","","","","","NA"
"-75.56","45.52","OTTAWA GATINEAU A","7032682","2023-03-28 15:00","2023","03","28","15:00","3.2","","-7.2","","47","","","","28","","8","","24.1","","101.26","","","","","","NA"
"-75.56","45.52","OTTAWA GATINEAU A","7032682","2023-03-28 16:00","2023","03","28","16:00","3.2","","-6.7","","48","","","","26","","12","","24.1","","101.25","","","","","","Mainly Clear"
"-75.56","45.52","OTTAWA GATINEAU A","7032682","2023-03-28 17:00","2023","03","28","17:00","3.6","","-5.7","","51","","","","26","","8","","24.1","","101.22","","","","","","NA"
"-75.56","45.52","OTTAWA GATINEAU A","7032682","2023-03-28 18:00","2023","03","28","18:00","1.8","","-5.1","","60","","","","25","","16","","24.1","","101.25","","","","","","NA"
"-75.56","45.52","OTTAWA GATINEAU A","7032682","2023-03-28 19:00","2023","03","28","19:00","0.6","","-6.2","","61","","","","32","","7","","24.1","","101.28","","","","","","Mainly Clear"
"-75.56","45.52","OTTAWA GATINEAU A","7032682","2023-03-28 20:00","2023","03","28","20:00","-1.0","","-5.7","","70","","","","36","","3","","24.1","","101.29","","","","-2","","NA"
"-75.56","45.52","OTTAWA GATINEAU A","7032682","2023-03-28 21:00","2023","03","28","21:00"
"-75.56","45.52","OTTAWA GATINEAU A","7032682","2023-03-28 22:00","2023","03","28","22:00"
"-75.56","45.52","OTTAWA GATINEAU A","7032682","2023-03-28 23:00","2023","03","28","23:00"
"-75.56","45.52","OTTAWA GATINEAU A","7032682","2023-03-29 00:00","2023","03","29","00:00"
"-75.56","45.52","OTTAWA GATINEAU A","7032682","2023-03-29 01:00","2023","03","29","01:00"
"-75.56","45.52","OTTAWA GATINEAU A","7032682","2023-03-29 02:00","2023","03","29","02:00"
"-75.56","45.52","OTTAWA GATINEAU A","7032682","2023-03-29 03:00","2023","03","29","03:00"
"-75.56","45.52","OTTAWA GATINEAU A","7032682","2023-03-29 04:00","2023","03","29","04:00"
"-75.56","45.52","OTTAWA GATINEAU A","7032682","2023-03-29 05:00","2023","03","29","05:00"
"-75.56","45.52","OTTAWA GATINEAU A","7032682","2023-03-29 06:00","2023","03","29","06:00","-3.8","","-4.9","","92","","","","7","","9","","4.8","","101.05","","","","-8","","Fog"
"-75.56","45.52","OTTAWA GATINEAU A","7032682","2023-03-29 07:00","2023","03","29","07:00","-3.3","","-3.4","","100","","","","9","","10","","0.4","","101.02","","","","-7","","Freezing Fog"
"-75.56","45.52","OTTAWA GATINEAU A","7032682","2023-03-29 08:00","2023","03","29","08:00","-2.6","","-2.8","","99","","","","9","","5","","2.4","","101.01","","","","-5","","Snow Pellets,Fog"
"-75.56","45.52","OTTAWA GATINEAU A","7032682","2023-03-29 09:00","2023","03","29","09:00","-1.2","","-2.3","","92","","","","7","","10","","8.1","","100.91","","","","-5","","Snow Showers,Fog"
"-75.56","45.52","OTTAWA GATINEAU A","7032682","2023-03-29 10:00","2023","03","29","10:00","1.1","","-1.8","","81","","","","8","","13","","24.1","","100.79","","","","","","Mostly Cloudy"
"-75.56","45.52","OTTAWA GATINEAU A","7032682","2023-03-29 11:00","2023","03","29","11:00","4.4","","-0.3","","71","","","","21","","21","","24.1","","100.64","","","","","","NA"
"-75.56","45.52","OTTAWA GATINEAU A","7032682","2023-03-29 12:00","2023","03","29","12:00","6.0","","-2.0","","56","","","","23","","25","","24.1","","100.49","","","","","","NA"
"-75.56","45.52","OTTAWA GATINEAU A","7032682","2023-03-29 13:00","2023","03","29","13:00","6.9","","-2.3","","52","","","","21","","19","","24.1","","100.34","","","","","","Mostly Cloudy"
"-75.56","45.52","OTTAWA GATINEAU A","7032682","2023-03-29 14:00","2023","03","29","14:00","7.3","","-3.2","","47","","","","20","","22","","24.1","","100.21","","","","","","NA"
"-75.56","45.52","OTTAWA GATINEAU A","7032682","2023-03-29 15:00","2023","03","29","15:00","7.3","","-3.6","","46","","","","20","","26","","24.1","","100.07","","","","","","NA"
"-75.56","45.52","OTTAWA GATINEAU A","7032682","2023-03-29 16:00","2023","03","29","16:00","5.7","","-2.4","","56","","","","24","","27","","19.3","","100.02","","","","","","Rain"
"-75.56","45.52","OTTAWA GATINEAU A","7032682","2023-03-29 17:00","2023","03","29","17:00","2.7","","0.8","","87","","","","24","","28","","16.1","","100.07","","","","","","Rain"
"-75.56","45.52","OTTAWA GATINEAU A","7032682","2023-03-29 18:00","2023","03","29","18:00","0.2","","-1.2","","90","","","","29","","34","","3.2","","100.15","","","","","","Snow,Fog"
"-75.56","45.52","OTTAWA GATINEAU A","7032682","2023-03-29 19:00","2023","03","29","19:00","-0.6","","-2.4","","88","","","","26","","17","","24.1","","100.23","","","","-6","","Snow"
"-75.56","45.52","OTTAWA GATINEAU A","7032682","2023-03-29 20:00","2023","03","29","20:00","-0.6","","-5.6","","69","","","","26","","35","","24.1","","100.33","","","","-8","","NA"
"-75.56","45.52","OTTAWA GATINEAU A","7032682","2023-03-29 21:00","2023","03","29","21:00"
"-75.56","45.52","OTTAWA GATINEAU A","7032682","2023-03-29 22:00","2023","03","29","22:00"
"-75.56","45.52","OTTAWA GATINEAU A","7032682","2023-03-29 23:00","2023","03","29","23:00"
"-75.56","45.52","OTTAWA GATINEAU A","7032682","2023-03-30 00:00","2023","03","30","00:00"
"-75.56","45.52","OTTAWA GATINEAU A","7032682","2023-03-30 01:00","2023","03","30","01:00"
"-75.56","45.52","OTTAWA GATINEAU A","7032682","2023-03-30 02:00","2023","03","30","02:00"
"-75.56","45.52","OTTAWA GATINEAU A","7032682","2023-03-30 03:00","2023","03","30","03:00"
"-75.56","45.52","OTTAWA GATINEAU A","7032682","2023-03-30 04:00","2023","03","30","04:00"
"-75.56","45.52","OTTAWA GATINEAU A","7032682","2023-03-30 05:00","2023","03","30","05:00"
"-75.56","45.52","OTTAWA GATINEAU A","7032682","2023-03-30 06:00","2023","03","30","06:00","-10.6","","-14.3","","75","","","","27","","9","","24.1","","101.68","","","","-16","","NA"
"-75.56","45.52","OTTAWA GATINEAU A","7032682","2023-03-30 07:00","2023","03","30","07:00","-8.7","","-13.2","","70","","","","25","","11","","24.1","","101.76","","","","-14","","Clear"
"-75.56","45.52","OTTAWA GATINEAU A","7032682","2023-03-30 08:00","2023","03","30","08:00","-6.4","","-12.5","","62","","","","26","","14","","24.1","","101.78","","","","-12","","NA"
"-75.56","45.52","OTTAWA GATINEAU A","7032682","2023-03-30 09:00","2023","03","30","09:00","-4.8","","-12.2","","57","","","","24","","16","","24.1","","101.77","","","","-11","","NA"
"-75.56","45.52","OTTAWA GATINEAU A","7032682","2023-03-30 10:00","2023","03","30","10:00","-3.6","","-11.7","","54","","","","23","","18","","24.1","","101.75","","","","-9","","Mainly Clear"
"-75.56","45.52","OTTAWA GATINEAU A","7032682","2023-03-30 11:00","2023","03","30","11:00","-2.6","","-12.7","","46","","","","25","","28","","24.1","","101.73","","","","-10","","NA"
"-75.56","45.52","OTTAWA GATINEAU A","7032682","2023-03-30 12:00","2023","03","30","12:00","-2.1","","-12.9","","44","","","","25","","30","","24.1","","101.73","","","","-9","","NA"
"-75.56","45.52","OTTAWA GATINEAU A","7032682","2023-03-30 13:00","2023","03","30","13:00","-1.3","","-12.9","","41","","","","25","","31","","24.1","","101.68","","","","-8","","Mainly Clear"
"-75.56","45.52","OTTAWA GATINEAU A","7032682","2023-03-30 14:00","2023","03","30","14:00","-0.4","","-12.6","","39","","","","27","","26","","24.1","","101.63","","","","-7","","NA"
"-75.56","45.52","OTTAWA GATINEAU A","7032682","2023-03-30 15:00","2023","03","30","15:00","0.0","","-11.6","","42","","","","27","","35","","24.1","","101.60","","","","-7","","NA"
"-75.56","45.52","OTTAWA GATINEAU A","7032682","2023-03-30 16:00","2023","03","30","16:00","0.2","","-10.8","","44","","","","27","","22","","24.1","","101.56","","","","","","Mainly Clear"
"-75.56","45.52","OTTAWA GATINEAU A","7032682","2023-03-30 17:00","2023","03","30","17:00","0.7","","-12.2","","38","","","","27","","21","","24.1","","101.52","","","","","","NA"
"-75.56","45.52","OTTAWA GATINEAU A","7032682","2023-03-30 18:00","2023","03","30","18:00","-0.3","","-11.1","","44","","","","25","","10","","24.1","","101.51","","","","-4","","NA"
"-75.56","45.52","OTTAWA GATINEAU A","7032682","2023-03-30 19:00","2023","03","30","19:00","-1.7","","-11.9","","46","","","","22","","3","","24.1","","101.52","","","","-3","","Clear"
"-75.56","45.52","OTTAWA GATINEAU A","7032682","2023-03-30 20:00","2023","03","30","20:00","-2.8","","-10.9","","54","","","","36","","2","","24.1","","101.57","","","","-4","","NA"
"-75.56","45.52","OTTAWA GATINEAU A","7032682","2023-03-30 21:00","2023","03","30","21:00"
"-75.56","45.52","OTTAWA GATINEAU A","7032682","2023-03-30 22:00","2023","03","30","22:00"
"-75.56","45.52","OTTAWA GATINEAU A","7032682","2023-03-30 23:00","2023","03","30","23:00"
"-75.56","45.52","OTTAWA GATINEAU A","7032682","2023-03-31 00:00","2023","03","31","00:00"
"-75.56","45.52","OTTAWA GATINEAU A","7032682","2023-03-31 01:00","2023","03","31","01:00"
"-75.56","45.52","OTTAWA GATINEAU A","7032682","2023-03-31 02:00","2023","03","31","02:00"
"-75.56","45.52","OTTAWA GATINEAU A","7032682","2023-03-31 03:00","2023","03","31","03:00"
"-75.56","45.52","OTTAWA GATINEAU A","7032682","2023-03-31 04:00","2023","03","31","04:00"
"-75.56","45.52","OTTAWA GATINEAU A","7032682","2023-03-31 05:00","2023","03","31","05:00"
"-75.56","45.52","OTTAWA GATINEAU A","7032682","2023-03-31 06:00","2023","03","31","06:00","-9.1","","-10.8","","87","","","","36","","1","","24.1","","101.63","","","","-10","","NA"
"-75.56","45.52","OTTAWA GATINEAU A","7032682","2023-03-31 07:00","2023","03","31","07:00","-6.6","","-8.9","","84","","","","36","","3","","24.1","","101.58","","","","-8","","Mostly Cloudy"
"-75.56","45.52","OTTAWA GATINEAU A","7032682","2023-03-31 08:00","2023","03","31","08:00","-3.2","","-6.4","","79","","","","8","","7","","24.1","","101.57","","","","-6","","NA"
"-75.56","45.52","OTTAWA GATINEAU A","7032682","2023-03-31 09:00","2023","03","31","09:00","-1.7","","-5.2","","77","","","","7","","8","","19.3","","101.49","","","","-5","","NA"
"-75.56","45.52","OTTAWA GATINEAU A","7032682","2023-03-31 10:00","2023","03","31","10:00","-1.2","","-5.6","","72","","","","8","","13","","24.1","","101.43","","","","-5","","Cloudy"
"-75.56","45.52","OTTAWA GATINEAU A","7032682","2023-03-31 11:00","2023","03","31","11:00","0.0","","-5.5","","67","","","","8","","13","","24.1","","101.29","","","","-4","","NA"
"-75.56","45.52","OTTAWA GATINEAU A","7032682","2023-03-31 12:00","2023","03","31","12:00","0.8","","-5.2","","64","","","","9","","13","","19.3","","101.14","","","","","","NA"
"-75.56","45.52","OTTAWA GATINEAU A","7032682","2023-03-31 13:00","2023","03","31","13:00","1.1","","-5.2","","63","","","","8","","17","","24.1","","101.07","","","","","","Cloudy"
"-75.56","45.52","OTTAWA GATINEAU A","7032682","2023-03-31 14:00","2023","03","31","14:00","1.1","","-3.5","","72","","","","13","","16","","4.8","","100.99","","","","","","Snow"
"-75.56","45.52","OTTAWA GATINEAU A","7032682","2023-03-31 15:00","2023","03","31","15:00","-0.5","","-1.2","","95","","","","8","","14","","1.6","","100.88","","","","-5","","Snow"
"-75.56","45.52","OTTAWA GATINEAU A","7032682","2023-03-31 16:00","2023","03","31","16:00","-0.6","","-1.1","","96","","","","8","","17","","1.6","","100.73","","","","-6","","Snow,Fog"
"-75.56","45.52","OTTAWA GATINEAU A","7032682","2023-03-31 17:00","2023","03","31","17:00","-0.5","","-1.1","","96","","","","8","","21","","1.6","","100.66","","","","-6","","Snow,Fog"
"-75.56","45.52","OTTAWA GATINEAU A","7032682","2023-03-31 18:00","2023","03","31","18:00","-0.7","","-1.2","","96","","","","8","","23","","1.2","","100.59","","","","-7","","Snow,Fog"
"-75.56","45.52","OTTAWA GATINEAU A","7032682","2023-03-31 19:00","2023","03","31","19:00","-0.4","","-1.0","","96","","","","8","","22","","2.4","","100.49","","","","-6","","Snow"
"-75.56","45.52","OTTAWA GATINEAU A","7032682","2023-03-31 20:00","2023","03","31","20:00","-0.3","","-1.0","","95","","","","8","","23","","9.7","","100.49","","","","-6","","Snow"
"-75.56","45.52","OTTAWA GATINEAU A","7032682","2023-03-31 21:00","2023","03","31","21:00"
"-75.56","45.52","OTTAWA GATINEAU A","7032682","2023-03-31 22:00","2023","03","31","22:00"
"-75.56","45.52","OTTAWA GATINEAU A","7032682","2023-03-31 23:00","2023","03","31","23:00"
