"Longitude (x)","Latitude (y)","Station Name","Climate ID","Date/Time (LST)","Year","Month","Day","Time (LST)","Temp (°C)","Temp Flag","Dew Point Temp (°C)","Dew Point Temp Flag","Rel Hum (%)","Rel Hum Flag","Precip. Amount (mm)","Precip. Amount Flag","Wind Dir (10s deg)","Wind Dir Flag","Wind Spd (km/h)","Wind Spd Flag","Visibility (km)","Visibility Flag","Stn Press (kPa)","Stn Press Flag","Hmdx","Hmdx Flag","Wind Chill","Wind Chill Flag","Weather"
"-85.81","79.99","EUREKA A","2401203","2019-05-01 00:00","2019","05","01","00:00","-15.2","","-18.3","","78","","","","36","","3","","24.1","","103.11","","","","-17","","Cloudy"
"-85.81","79.99","EUREKA A","2401203","2019-05-01 01:00","2019","05","01","01:00","-15.3","","-18.2","","79","","","","29","","7","","24.1","","103.10","","","","-20","","NA"
"-85.81","79.99","EUREKA A","2401203","2019-05-01 02:00","2019","05","01","02:00","-15.1","","-18.2","","77","","","","27","","18","","24.1","","103.13","","","","-24","","NA"
"-85.81","79.99","EUREKA A","2401203","2019-05-01 03:00","2019","05","01","03:00","-14.5","","-18.6","","71","","","","23","","13","","24.1","","103.16","","","","-22","","Cloudy"
"-85.81","79.99","EUREKA A","2401203","2019-05-01 04:00","2019","05","01","04:00","-14.2","","-18.7","","69","","","","27","","10","","24.1","","103.18","","","","-20","","NA"
"-85.81","79.99","EUREKA A","2401203","2019-05-01 05:00","2019","05","01","05:00","-13.5","","-18.2","","68","","","","23","","13","","24.1","","103.15","","","","-20","","NA"
"-85.81","79.99","EUREKA A","2401203","2019-05-01 06:00","2019","05","01","06:00","-13.6","","-17.9","","71","","","","20","","6","","24.1","","103.14","","","","-18","","Cloudy"
"-85.81","79.99","EUREKA A","2401203","2019-05-01 07:00","2019","05","01","07:00","-12.9","","-17.4","","69","","","","27","","8","","24.1","","103.12","","","","-18","","NA"
"-85.81","79.99","EUREKA A","2401203","2019-05-01 08:00","2019","05","01","08:00","-12.9","","-17.5","","69","","","","19","","7","","24.1","","103.11","","","","-17","","NA"
"-85.81","79.99","EUREKA A","2401203","2019-05-01 09:00","2019","05","01","09:00","-10.5","","-16.4","","62","","","","34","","4","","24.1","","103.10","","","","-13","","Mostly Cloudy"
"-85.81","79.99","EUREKA A","2401203","2019-05-01 10:00","2019","05","01","10:00","-10.7","","-15.6","","68","","","","24","","4","","24.1","","103.09","","","","-13","","NA"
"-85.81","79.99","EUREKA A","2401203","2019-05-01 11:00","2019","05","01","11:00","-9.5","","-14.5","","68","","","","27","","8","","24.1","","103.08","","","","-14","","NA"
"-85.81","79.99","EUREKA A","2401203","2019-05-01 12:00","2019","05","01","12:00","-8.3","","-14.4","","62","","","","30","","4","","24.1","","103.08","","","","-10","","Mostly Cloudy"
"-85.81","79.99","EUREKA A","2401203","2019-05-01 13:00","2019","05","01","13:00","-9.6","","-14.2","","69","","","","26","","16","","24.1","","103.09","","","","-16","","NA"
"-85.81","79.99","EUREKA A","2401203","2019-05-01 14:00","2019","05","01","14:00","-7.9","","-13.6","","64","","","","30","","7","","24.1","","103.06","","","","-12","","NA"
"-85.81","79.99","EUREKA A","2401203","2019-05-01 15:00","2019","05","01","15:00","-8.6","","-12.5","","73","","","","27","","11","","24.1","","103.09","","","","-14","","Mostly Cloudy"
"-85.81","79.99","EUREKA A","2401203","2019-05-01 16:00","2019","05","01","16:00","-8.4","","-13.1","","69","","","","8","","3","","24.1","","103.10","","","","-10","","NA"
"-85.81","79.99","EUREKA A","2401203","2019-05-01 17:00","2019","05","01","17:00","-9.4","","-13.7","","71","","","","36","","1","","24.1","","103.10","","","","-10","","NA"
"-85.81","79.99","EUREKA A","2401203","2019-05-01 18:00","2019","05","01","18:00","-8.9","","-15.1","","61","","","","31","","9","","24.1","","103.10","","","","-14","","Mainly Clear"
"-85.81","79.99","EUREKA A","2401203","2019-05-01 19:00","2019","05","01","19:00","-9.3","","-17.0","","54","","","","36","","2","","24.1","","103.10","","","","-10","","NA"
"-85.81","79.99","EUREKA A","2401203","2019-05-01 20:00","2019","05","01","20:00","-11.4","","-17.4","","62","","","","7","","5","","24.1","","103.09","","","","-15","","NA"
"-85.81","79.99","EUREKA A","2401203","2019-05-01 21:00","2019","05","01","21:00","-12.0","","-17.9","","62","","","","2","","7","","24.1","","103.11","","","","-16","","Clear"
"-85.81","79.99","EUREKA A","2401203","2019-05-01 22:00","2019","05","01","22:00"
"-85.81","79.99","EUREKA A","2401203","2019-05-01 23:00","2019","05","01","23:00"
"-85.81","79.99","EUREKA A","2401203","2019-05-02 00:00","2019","05","02","00:00","-13.6","","-17.9","","71","","","","14","","6","","24.1","","103.08","","","","-18","","Clear"
"-85.81","79.99","EUREKA A","2401203","2019-05-02 01:00","2019","05","02","01:00","-14.3","","-18.2","","73","","","","34","","3","","24.1","","103.08","","","","-16","","NA"
"-85.81","79.99","EUREKA A","2401203","2019-05-02 02:00","2019","05","02","02:00","-13.9","","-18.7","","67","","","","32","","10","","24.1","","103.07","","","","-20","","NA"
"-85.81","79.99","EUREKA A","2401203","2019-05-02 03:00","2019","05","02","03:00","-14.5","","-20.1","","63","","","","9","","5","","24.1","","103.04","","","","-18","","Clear"
"-85.81","79.99","EUREKA A","2401203","2019-05-02 04:00","2019","05","02","04:00","-14.2","","-18.8","","68","","","","15","","5","","24.1","","103.04","","","","-18","","NA"
"-85.81","79.99","EUREKA A","2401203","2019-05-02 05:00","2019","05","02","05:00","-15.4","","-19.7","","70","","","","5","","7","","24.1","","103.03","","","","-20","","NA"
"-85.81","79.99","EUREKA A","2401203","2019-05-02 06:00","2019","05","02","06:00","-14.0","","-18.8","","67","","","","15","","9","","24.1","","103.03","","","","-20","","Clear"
"-85.81","79.99","EUREKA A","2401203","2019-05-02 07:00","2019","05","02","07:00","-13.5","","-18.3","","67","","","","6","","4","","24.1","","103.01","","","","-16","","NA"
"-85.81","79.99","EUREKA A","2401203","2019-05-02 08:00","2019","05","02","08:00","-13.3","","-17.9","","69","","","","13","","8","","24.1","","102.96","","","","-18","","NA"
"-85.81","79.99","EUREKA A","2401203","2019-05-02 09:00","2019","05","02","09:00","-12.3","","-17.5","","66","","","","13","","14","","24.1","","102.96","","","","-19","","Clear"
"-85.81","79.99","EUREKA A","2401203","2019-05-02 10:00","2019","05","02","10:00","-12.7","","-17.2","","69","","","","13","","14","","24.1","","102.93","","","","-20","","NA"
"-85.81","79.99","EUREKA A","2401203","2019-05-02 11:00","2019","05","02","11:00","-11.7","","-16.4","","68","","","","13","","9","","24.1","","102.92","","","","-17","","NA"
"-85.81","79.99","EUREKA A","2401203","2019-05-02 12:00","2019","05","02","12:00","-11.3","","-15.7","","70","","","","12","","5","","24.1","","102.90","","","","-14","","Mostly Cloudy"
"-85.81","79.99","EUREKA A","2401203","2019-05-02 13:00","2019","05","02","13:00","-11.3","","-15.6","","71","","","","13","","18","","24.1","","102.90","","","","-19","","NA"
"-85.81","79.99","EUREKA A","2401203","2019-05-02 14:00","2019","05","02","14:00","-11.4","","-16.1","","68","","","","13","","10","","24.1","","102.90","","","","-17","","NA"
"-85.81","79.99","EUREKA A","2401203","2019-05-02 15:00","2019","05","02","15:00","-10.9","","-15.2","","71","","","","10","","4","","24.1","","102.90","","","","-13","","Mostly Cloudy"
"-85.81","79.99","EUREKA A","2401203","2019-05-02 16:00","2019","05","02","16:00","-10.9","","-15.1","","71","","","","36","","3","","24.1","","102.90","","","","-13","","NA"
"-85.81","79.99","EUREKA A","2401203","2019-05-02 17:00","2019","05","02","17:00","-10.4","","-14.1","","74","","","","32","","3","","24.1","","102.87","","","","-12","","NA"
"-85.81","79.99","EUREKA A","2401203","2019-05-02 18:00","2019","05","02","18:00","-11.1","","-14.1","","78","","","","28","","11","","24.1","","102.85","","","","-17","","Blowing Snow"
"-85.81","79.99","EUREKA A","2401203","2019-05-02 19:00","2019","05","02","19:00","-11.9","","-15.0","","78","","","","26","","17","","24.1","","102.84","","","","-20","","NA"
"-85.81","79.99","EUREKA A","2401203","2019-05-02 20:00","2019","05","02","20:00","-12.0","","-14.8","","80","","","","27","","7","","24.1","","102.83","","","","-16","","NA"
"-85.81","79.99","EUREKA A","2401203","2019-05-02 21:00","2019","05","02","21:00","-11.3","","-14.3","","79","","","","2","","3","","24.1","","102.84","","","","-13","","Mostly Cloudy"
"-85.81","79.99","EUREKA A","2401203","2019-05-02 22:00","2019","05","02","22:00"
"-85.81","79.99","EUREKA A","2401203","2019-05-02 23:00","2019","05","02","23:00"
"-85.81","79.99","EUREKA A","2401203","2019-05-03 00:00","2019","05","03","00:00","-13.2","","-15.4","","84","","","","30","","7","","24.1","","102.84","","","","-18","","Snow"
"-85.81","79.99","EUREKA A","2401203","2019-05-03 01:00","2019","05","03","01:00","-13.3","","-16.0","","81","","","","27","","15","","24.1","","102.84","","","","-21","","Snow"
"-85.81","79.99","EUREKA A","2401203","2019-05-03 02:00","2019","05","03","02:00","-12.8","","-15.5","","80","","","","26","","16","","24.1","","102.83","","","","-20","","Snow"
"-85.81","79.99","EUREKA A","2401203","2019-05-03 03:00","2019","05","03","03:00","-12.8","","-15.4","","81","","","","27","","14","","24.1","","102.84","","","","-20","","Snow,Blowing Snow"
"-85.81","79.99","EUREKA A","2401203","2019-05-03 04:00","2019","05","03","04:00","-12.0","","-14.9","","79","","","","35","","12","","24.1","","102.86","","","","-18","","Snow"
"-85.81","79.99","EUREKA A","2401203","2019-05-03 05:00","2019","05","03","05:00","-12.3","","-15.1","","80","","","","27","","13","","24.1","","102.85","","","","-19","","Snow"
"-85.81","79.99","EUREKA A","2401203","2019-05-03 06:00","2019","05","03","06:00","-12.2","","-15.0","","80","","","","35","","12","","24.1","","102.86","","","","-19","","Cloudy"
"-85.81","79.99","EUREKA A","2401203","2019-05-03 07:00","2019","05","03","07:00","-12.0","","-14.9","","79","","","","36","","11","","24.1","","102.87","","","","-18","","NA"
"-85.81","79.99","EUREKA A","2401203","2019-05-03 08:00","2019","05","03","08:00","-11.6","","-14.5","","79","","","","36","","11","","24.1","","102.90","","","","-18","","NA"
"-85.81","79.99","EUREKA A","2401203","2019-05-03 09:00","2019","05","03","09:00","-11.1","","-14.9","","74","","","","32","","7","","24.1","","102.91","","","","-15","","Cloudy"
"-85.81","79.99","EUREKA A","2401203","2019-05-03 10:00","2019","05","03","10:00","-10.3","","-14.3","","73","","","","5","","4","","24.1","","102.92","","","","-13","","NA"
"-85.81","79.99","EUREKA A","2401203","2019-05-03 11:00","2019","05","03","11:00","-10.3","","-14.2","","74","","","","13","","6","","24.1","","102.95","","","","-14","","NA"
"-85.81","79.99","EUREKA A","2401203","2019-05-03 12:00","2019","05","03","12:00","-10.4","","-14.2","","74","","","","14","","3","","24.1","","102.96","","","","-12","","Cloudy"
"-85.81","79.99","EUREKA A","2401203","2019-05-03 13:00","2019","05","03","13:00","-10.6","","-14.3","","74","","","","13","","5","","24.1","","102.97","","","","-14","","NA"
"-85.81","79.99","EUREKA A","2401203","2019-05-03 14:00","2019","05","03","14:00","-10.1","","-14.1","","73","","","","36","","2","","24.1","","103.00","","","","-11","","NA"
"-85.81","79.99","EUREKA A","2401203","2019-05-03 15:00","2019","05","03","15:00","-10.1","","-14.1","","72","","","","15","","3","","24.1","","103.03","","","","-12","","Mostly Cloudy"
"-85.81","79.99","EUREKA A","2401203","2019-05-03 16:00","2019","05","03","16:00","-10.7","","-14.2","","76","","","","14","","7","","24.1","","103.05","","","","-15","","NA"
"-85.81","79.99","EUREKA A","2401203","2019-05-03 17:00","2019","05","03","17:00","-10.6","","-14.0","","77","","","","15","","5","","24.1","","103.06","","","","-14","","NA"
"-85.81","79.99","EUREKA A","2401203","2019-05-03 18:00","2019","05","03","18:00","-10.7","","-13.9","","78","","","","36","","3","","24.1","","103.09","","","","-13","","Cloudy"
"-85.81","79.99","EUREKA A","2401203","2019-05-03 19:00","2019","05","03","19:00","-10.7","","-14.2","","75","","","","25","","3","","24.1","","103.10","","","","-13","","NA"
"-85.81","79.99","EUREKA A","2401203","2019-05-03 20:00","2019","05","03","20:00","-11.0","","-14.0","","79","","","","27","","10","","24.1","","103.11","","","","-16","","NA"
"-85.81","79.99","EUREKA A","2401203","2019-05-03 21:00","2019","05","03","21:00","-10.7","","-13.7","","79","","","","1","","6","","24.1","","103.13","","","","-14","","Cloudy"
"-85.81","79.99","EUREKA A","2401203","2019-05-03 22:00","2019","05","03","22:00"
"-85.81","79.99","EUREKA A","2401203","2019-05-03 23:00","2019","05","03","23:00"
"-85.81","79.99","EUREKA A","2401203","2019-05-04 00:00","2019","05","04","00:00","-11.5","","-14.2","","80","","","","1","","6","","24.1","","103.13","","","","-15","","Cloudy"
"-85.81","79.99","EUREKA A","2401203","2019-05-04 01:00","2019","05","04","01:00","-11.9","","-14.6","","81","","","","1","","10","","24.1","","103.12","","","","-18","","NA"
"-85.81","79.99","EUREKA A","2401203","2019-05-04 02:00","2019","05","04","02:00","-12.0","","-14.8","","79","","","","35","","18","","24.1","","103.11","","","","-20","","NA"
"-85.81","79.99","EUREKA A","2401203","2019-05-04 03:00","2019","05","04","03:00","-11.9","","-14.9","","79","","","","36","","20","","24.1","","103.08","","","","-20","","Mostly Cloudy"
"-85.81","79.99","EUREKA A","2401203","2019-05-04 04:00","2019","05","04","04:00","-11.5","","-15.0","","75","","","","35","","18","","24.1","","103.07","","","","-19","","NA"
"-85.81","79.99","EUREKA A","2401203","2019-05-04 05:00","2019","05","04","05:00","-11.7","","-15.5","","74","","","","32","","21","","24.1","","103.05","","","","-20","","NA"
"-85.81","79.99","EUREKA A","2401203","2019-05-04 06:00","2019","05","04","06:00","-10.9","","-15.4","","70","","","","33","","14","","24.1","","103.02","","","","-18","","Mainly Clear"
"-85.81","79.99","EUREKA A","2401203","2019-05-04 07:00","2019","05","04","07:00","-10.9","","-14.8","","73","","","","34","","8","","24.1","","103.00","","","","-16","","NA"
"-85.81","79.99","EUREKA A","2401203","2019-05-04 08:00","2019","05","04","08:00","-10.2","","-14.1","","73","","","","4","","4","","24.1","","103.00","","","","-13","","NA"
"-85.81","79.99","EUREKA A","2401203","2019-05-04 09:00","2019","05","04","09:00","-9.6","","-14.1","","70","","","","32","","7","","24.1","","102.98","","","","-14","","Mostly Cloudy"
"-85.81","79.99","EUREKA A","2401203","2019-05-04 10:00","2019","05","04","10:00","-9.2","","-14.1","","68","","","","30","","7","","24.1","","102.96","","","","-13","","NA"
"-85.81","79.99","EUREKA A","2401203","2019-05-04 11:00","2019","05","04","11:00","-9.9","","-14.3","","70","","","","36","","14","","24.1","","102.93","","","","-16","","NA"
"-85.81","79.99","EUREKA A","2401203","2019-05-04 12:00","2019","05","04","12:00","-9.4","","-14.0","","69","","","","36","","12","","24.1","","102.89","","","","-15","","Mainly Clear"
"-85.81","79.99","EUREKA A","2401203","2019-05-04 13:00","2019","05","04","13:00","-9.2","","-13.8","","69","","","","32","","5","","24.1","","102.84","","","","-12","","NA"
"-85.81","79.99","EUREKA A","2401203","2019-05-04 14:00","2019","05","04","14:00","-9.6","","-14.0","","71","","","","17","","6","","24.1","","102.82","","","","-13","","NA"
"-85.81","79.99","EUREKA A","2401203","2019-05-04 15:00","2019","05","04","15:00","-9.1","","-13.2","","72","","","","27","","7","","24.1","","102.78","","","","-13","","Mainly Clear"
"-85.81","79.99","EUREKA A","2401203","2019-05-04 16:00","2019","05","04","16:00","-9.4","","-13.2","","74","","","","26","","10","","24.1","","102.76","","","","-15","","NA"
"-85.81","79.99","EUREKA A","2401203","2019-05-04 17:00","2019","05","04","17:00","-9.1","","-13.8","","69","","","","31","","10","","24.1","","102.74","","","","-14","","NA"
"-85.81","79.99","EUREKA A","2401203","2019-05-04 18:00","2019","05","04","18:00","-10.4","","-14.6","","72","","","","7","","6","","24.1","","102.72","","","","-14","","Clear"
"-85.81","79.99","EUREKA A","2401203","2019-05-04 19:00","2019","05","04","19:00","-11.5","","-14.7","","77","","","","17","","4","","24.1","","102.71","","","","-14","","NA"
"-85.81","79.99","EUREKA A","2401203","2019-05-04 20:00","2019","05","04","20:00","-13.1","","-16.2","","78","","","","6","","3","","24.1","","102.69","","","","-15","","NA"
"-85.81","79.99","EUREKA A","2401203","2019-05-04 21:00","2019","05","04","21:00","-13.6","","-16.4","","80","","","","8","","3","","24.1","","102.70","","","","-16","","Clear"
"-85.81","79.99","EUREKA A","2401203","2019-05-04 22:00","2019","05","04","22:00"
"-85.81","79.99","EUREKA A","2401203","2019-05-04 23:00","2019","05","04","23:00"
"-85.81","79.99","EUREKA A","2401203","2019-05-05 00:00","2019","05","05","00:00","-14.6","","-16.9","","83","","","","36","","2","","24.1","","102.65","","","","-16","","Clear"
"-85.81","79.99","EUREKA A","2401203","2019-05-05 01:00","2019","05","05","01:00","-13.7","","-15.9","","84","","","","2","","5","","24.1","","102.63","","","","-17","","NA"
"-85.81","79.99","EUREKA A","2401203","2019-05-05 02:00","2019","05","05","02:00","-14.8","","-16.9","","85","","","","19","","3","","24.1","","102.62","","","","-17","","NA"
"-85.81","79.99","EUREKA A","2401203","2019-05-05 03:00","2019","05","05","03:00","-14.7","","-16.8","","84","","","","17","","5","","24.1","","102.62","","","","-18","","Clear"
"-85.81","79.99","EUREKA A","2401203","2019-05-05 04:00","2019","05","05","04:00","-14.9","","-17.2","","82","","","","12","","4","","24.1","","102.62","","","","-18","","NA"
"-85.81","79.99","EUREKA A","2401203","2019-05-05 05:00","2019","05","05","05:00","-14.7","","-17.1","","82","","","","17","","4","","24.1","","102.62","","","","-18","","NA"
"-85.81","79.99","EUREKA A","2401203","2019-05-05 06:00","2019","05","05","06:00","-14.2","","-16.9","","80","","","","0","","1","","24.1","","102.60","","","","-15","","Clear"
"-85.81","79.99","EUREKA A","2401203","2019-05-05 07:00","2019","05","05","07:00","-14.0","","-16.8","","80","","","","19","","8","","24.1","","102.61","","","","-19","","NA"
"-85.81","79.99","EUREKA A","2401203","2019-05-05 08:00","2019","05","05","08:00","-13.9","","-16.7","","79","","","","14","","9","","24.1","","102.58","","","","-20","","NA"
"-85.81","79.99","EUREKA A","2401203","2019-05-05 09:00","2019","05","05","09:00","-13.4","","-16.4","","78","","","","14","","9","","24.1","","102.56","","","","-19","","Clear"
"-85.81","79.99","EUREKA A","2401203","2019-05-05 10:00","2019","05","05","10:00","-13.5","","-16.4","","79","","","","14","","12","","24.1","","102.55","","","","-20","","NA"
"-85.81","79.99","EUREKA A","2401203","2019-05-05 11:00","2019","05","05","11:00","-13.0","","-16.1","","78","","","","15","","14","","24.1","","102.56","","","","-20","","NA"
"-85.81","79.99","EUREKA A","2401203","2019-05-05 12:00","2019","05","05","12:00","-12.5","","-15.7","","77","","","","15","","10","","24.1","","102.54","","","","-18","","Clear"
"-85.81","79.99","EUREKA A","2401203","2019-05-05 13:00","2019","05","05","13:00","-12.0","","-15.2","","77","","","","15","","7","","24.1","","102.52","","","","-16","","NA"
"-85.81","79.99","EUREKA A","2401203","2019-05-05 14:00","2019","05","05","14:00","-11.4","","-14.8","","76","","","","14","","5","","24.1","","102.52","","","","-15","","NA"
"-85.81","79.99","EUREKA A","2401203","2019-05-05 15:00","2019","05","05","15:00","-11.0","","-14.7","","74","","","","13","","5","","24.1","","102.51","","","","-14","","Mainly Clear"
"-85.81","79.99","EUREKA A","2401203","2019-05-05 16:00","2019","05","05","16:00","-10.8","","-14.4","","75","","","","13","","8","","24.1","","102.51","","","","-15","","NA"
"-85.81","79.99","EUREKA A","2401203","2019-05-05 17:00","2019","05","05","17:00","-10.9","","-14.4","","76","","","","14","","7","","24.1","","102.52","","","","-15","","NA"
"-85.81","79.99","EUREKA A","2401203","2019-05-05 18:00","2019","05","05","18:00","-11.0","","-14.4","","76","","","","13","","8","","24.1","","102.50","","","","-16","","Mainly Clear"
"-85.81","79.99","EUREKA A","2401203","2019-05-05 19:00","2019","05","05","19:00","-11.9","","-15.2","","77","","","","8","","8","","24.1","","102.50","","","","-17","","NA"
"-85.81","79.99","EUREKA A","2401203","2019-05-05 20:00","2019","05","05","20:00","-12.4","","-15.3","","79","","","","6","","3","","24.1","","102.49","","","","-14","","NA"
"-85.81","79.99","EUREKA A","2401203","2019-05-05 21:00","2019","05","05","21:00","-12.3","","-15.3","","78","","","","14","","4","","24.1","","102.50","","","","-15","","Mostly Cloudy"
"-85.81","79.99","EUREKA A","2401203","2019-05-05 22:00","2019","05","05","22:00"
"-85.81","79.99","EUREKA A","2401203","2019-05-05 23:00","2019","05","05","23:00"
"-85.81","79.99","EUREKA A","2401203","2019-05-06 00:00","2019","05","06","00:00","-14.1","","-16.3","","83","","","","9","","5","","24.1","","102.52","","","","-18","","Mainly Clear"
"-85.81","79.99","EUREKA A","2401203","2019-05-06 01:00","2019","05","06","01:00","-15.2","","-17.4","","84","","","","7","","5","","24.1","","102.51","","","","-19","","NA"
"-85.81","79.99","EUREKA A","2401203","2019-05-06 02:00","2019","05","06","02:00","-14.9","","-17.1","","84","","","","7","","4","","24.1","","102.52","","","","-18","","NA"
"-85.81","79.99","EUREKA A","2401203","2019-05-06 03:00","2019","05","06","03:00","-14.0","","-16.6","","81","","","","8","","4","","24.1","","102.55","","","","-17","","Clear"
"-85.81","79.99","EUREKA A","2401203","2019-05-06 04:00","2019","05","06","04:00","-13.4","","-16.0","","81","","","","7","","4","","24.1","","102.55","","","","-16","","NA"
"-85.81","79.99","EUREKA A","2401203","2019-05-06 05:00","2019","05","06","05:00","-13.2","","-15.8","","81","","","","8","","3","","24.1","","102.55","","","","-15","","NA"
"-85.81","79.99","EUREKA A","2401203","2019-05-06 06:00","2019","05","06","06:00","-12.8","","-15.7","","79","","","","36","","2","","24.1","","102.57","","","","-14","","Mainly Clear"
"-85.81","79.99","EUREKA A","2401203","2019-05-06 07:00","2019","05","06","07:00","-12.3","","-16.3","","73","","","","21","","3","","24.1","","102.57","","","","-14","","NA"
"-85.81","79.99","EUREKA A","2401203","2019-05-06 08:00","2019","05","06","08:00","-12.7","","-16.0","","76","","","","13","","9","","24.1","","102.58","","","","-18","","NA"
"-85.81","79.99","EUREKA A","2401203","2019-05-06 09:00","2019","05","06","09:00","-11.7","","-15.6","","73","","","","36","","1","","24.1","","102.59","","","","-12","","Clear"
"-85.81","79.99","EUREKA A","2401203","2019-05-06 10:00","2019","05","06","10:00","-10.9","","-14.9","","73","","","","10","","4","","24.1","","102.60","","","","-13","","NA"
"-85.81","79.99","EUREKA A","2401203","2019-05-06 11:00","2019","05","06","11:00","-10.1","","-14.2","","72","","","","14","","7","","24.1","","102.61","","","","-14","","NA"
"-85.81","79.99","EUREKA A","2401203","2019-05-06 12:00","2019","05","06","12:00","-9.4","","-13.8","","71","","","","12","","6","","24.1","","102.64","","","","-13","","Clear"
"-85.81","79.99","EUREKA A","2401203","2019-05-06 13:00","2019","05","06","13:00","-8.8","","-13.4","","70","","","","36","","1","","24.1","","102.65","","","","-9","","NA"
"-85.81","79.99","EUREKA A","2401203","2019-05-06 14:00","2019","05","06","14:00","-7.2","","-12.3","","68","","","","0","","1","","24.1","","102.68","","","","-8","","NA"
"-85.81","79.99","EUREKA A","2401203","2019-05-06 15:00","2019","05","06","15:00","-7.7","","-12.3","","70","","","","15","","4","","24.1","","102.71","","","","-10","","Clear"
"-85.81","79.99","EUREKA A","2401203","2019-05-06 16:00","2019","05","06","16:00","-8.1","","-12.5","","71","","","","7","","4","","24.1","","102.73","","","","-10","","NA"
"-85.81","79.99","EUREKA A","2401203","2019-05-06 17:00","2019","05","06","17:00","-8.1","","-12.7","","70","","","","14","","5","","24.1","","102.76","","","","-11","","NA"
"-85.81","79.99","EUREKA A","2401203","2019-05-06 18:00","2019","05","06","18:00","-8.3","","-12.8","","70","","","","36","","3","","24.1","","102.78","","","","-10","","Clear"
"-85.81","79.99","EUREKA A","2401203","2019-05-06 19:00","2019","05","06","19:00","-8.7","","-12.6","","74","","","","36","","2","","24.1","","102.78","","","","-10","","NA"
"-85.81","79.99","EUREKA A","2401203","2019-05-06 20:00","2019","05","06","20:00","-9.1","","-12.9","","74","","","","36","","2","","24.1","","102.82","","","","-10","","NA"
"-85.81","79.99","EUREKA A","2401203","2019-05-06 21:00","2019","05","06","21:00","-9.3","","-12.8","","76","","","","0","","1","","24.1","","102.82","","","","-10","","Clear"
"-85.81","79.99","EUREKA A","2401203","2019-05-06 22:00","2019","05","06","22:00"
"-85.81","79.99","EUREKA A","2401203","2019-05-06 23:00","2019","05","06","23:00"
"-85.81","79.99","EUREKA A","2401203","2019-05-07 00:00","2019","05","07","00:00","-10.2","","-13.1","","80","","","","29","","4","","24.1","","102.87","","","","-13","","Mainly Clear"
"-85.81","79.99","EUREKA A","2401203","2019-05-07 01:00","2019","05","07","01:00","-12.5","","-15.5","","79","","","","36","","2","","24.1","","102.91","","","","-14","","NA"
"-85.81","79.99","EUREKA A","2401203","2019-05-07 02:00","2019","05","07","02:00","-11.1","","-13.9","","80","","","","33","","6","","24.1","","102.91","","","","-15","","NA"
"-85.81","79.99","EUREKA A","2401203","2019-05-07 03:00","2019","05","07","03:00","-12.7","","-15.7","","78","","","","36","","2","","22.5","","102.91","","","","-14","","Clear"
"-85.81","79.99","EUREKA A","2401203","2019-05-07 04:00","2019","05","07","04:00","-12.3","","-15.5","","77","","","","36","","2","","24.1","","102.93","","","","-14","","NA"
"-85.81","79.99","EUREKA A","2401203","2019-05-07 05:00","2019","05","07","05:00","-12.2","","-15.2","","79","","","","36","","2","","24.1","","102.93","","","","-13","","NA"
"-85.81","79.99","EUREKA A","2401203","2019-05-07 06:00","2019","05","07","06:00","-12.2","","-15.2","","79","","","","36","","2","","24.1","","102.94","","","","-13","","Mostly Cloudy"
"-85.81","79.99","EUREKA A","2401203","2019-05-07 07:00","2019","05","07","07:00","-11.9","","-15.0","","78","","","","12","","4","","24.1","","102.96","","","","-14","","NA"
"-85.81","79.99","EUREKA A","2401203","2019-05-07 08:00","2019","05","07","08:00","-10.3","","-14.2","","73","","","","6","","4","","24.1","","102.93","","","","-13","","NA"
"-85.81","79.99","EUREKA A","2401203","2019-05-07 09:00","2019","05","07","09:00","-11.1","","-14.8","","74","","","","19","","6","","24.1","","102.93","","","","-15","","Mostly Cloudy"
"-85.81","79.99","EUREKA A","2401203","2019-05-07 10:00","2019","05","07","10:00","-9.0","","-13.0","","73","","","","13","","6","","24.1","","102.93","","","","-12","","NA"
"-85.81","79.99","EUREKA A","2401203","2019-05-07 11:00","2019","05","07","11:00","-8.4","","-12.6","","72","","","","17","","4","","24.1","","102.94","","","","-11","","NA"
"-85.81","79.99","EUREKA A","2401203","2019-05-07 12:00","2019","05","07","12:00","-8.0","","-12.4","","71","","","","36","","2","","24.1","","102.95","","","","-9","","Mainly Clear"
"-85.81","79.99","EUREKA A","2401203","2019-05-07 13:00","2019","05","07","13:00","-8.2","","-12.3","","73","","","","19","","6","","24.1","","102.97","","","","-11","","NA"
"-85.81","79.99","EUREKA A","2401203","2019-05-07 14:00","2019","05","07","14:00","-7.3","","-11.7","","71","","","","11","","3","","24.1","","102.98","","","","-9","","NA"
"-85.81","79.99","EUREKA A","2401203","2019-05-07 15:00","2019","05","07","15:00","-7.7","","-12.0","","72","","","","14","","4","","24.1","","103.00","","","","-10","","Mostly Cloudy"
"-85.81","79.99","EUREKA A","2401203","2019-05-07 16:00","2019","05","07","16:00","-7.4","","-11.9","","70","","","","17","","5","","24.1","","103.02","","","","-10","","NA"
"-85.81","79.99","EUREKA A","2401203","2019-05-07 17:00","2019","05","07","17:00","-7.2","","-11.6","","71","","","","0","","1","","24.1","","103.03","","","","-8","","NA"
"-85.81","79.99","EUREKA A","2401203","2019-05-07 18:00","2019","05","07","18:00","-7.4","","-11.7","","72","","","","13","","5","","24.1","","103.04","","","","-10","","Mainly Clear"
"-85.81","79.99","EUREKA A","2401203","2019-05-07 19:00","2019","05","07","19:00","-7.6","","-11.5","","74","","","","7","","3","","24.1","","103.06","","","","-9","","NA"
"-85.81","79.99","EUREKA A","2401203","2019-05-07 20:00","2019","05","07","20:00","-8.0","","-11.6","","75","","","","21","","3","","24.1","","103.08","","","","-10","","NA"
"-85.81","79.99","EUREKA A","2401203","2019-05-07 21:00","2019","05","07","21:00","-7.2","","-11.5","","72","","","","36","","2","","24.1","","103.08","","","","-8","","Mostly Cloudy"
"-85.81","79.99","EUREKA A","2401203","2019-05-07 22:00","2019","05","07","22:00"
"-85.81","79.99","EUREKA A","2401203","2019-05-07 23:00","2019","05","07","23:00"
"-85.81","79.99","EUREKA A","2401203","2019-05-08 00:00","2019","05","08","00:00","-8.7","","-11.8","","78","","","","27","","4","","24.1","","103.18","","","","-11","","Cloudy"
"-85.81","79.99","EUREKA A","2401203","2019-05-08 01:00","2019","05","08","01:00","-8.6","","-11.8","","78","","","","36","","1","","24.1","","103.21","","","","-9","","NA"
"-85.81","79.99","EUREKA A","2401203","2019-05-08 02:00","2019","05","08","02:00","-8.6","","-11.6","","79","","","","33","","5","","24.1","","103.24","","","","-11","","NA"
"-85.81","79.99","EUREKA A","2401203","2019-05-08 03:00","2019","05","08","03:00","-8.3","","-11.5","","78","","","","34","","4","","24.1","","103.25","","","","-10","","Cloudy"
"-85.81","79.99","EUREKA A","2401203","2019-05-08 04:00","2019","05","08","04:00","-8.2","","-11.5","","77","","","","32","","3","","24.1","","103.27","","","","-10","","NA"
"-85.81","79.99","EUREKA A","2401203","2019-05-08 05:00","2019","05","08","05:00","-8.0","","-11.4","","77","","","","0","","1","","24.1","","103.28","","","","-9","","NA"
"-85.81","79.99","EUREKA A","2401203","2019-05-08 06:00","2019","05","08","06:00","-7.8","","-10.7","","79","","","","27","","3","","24.1","","103.29","","","","-9","","Cloudy"
"-85.81","79.99","EUREKA A","2401203","2019-05-08 07:00","2019","05","08","07:00","-7.6","","-10.9","","78","","","","23","","3","","24.1","","103.30","","","","-9","","NA"
"-85.81","79.99","EUREKA A","2401203","2019-05-08 08:00","2019","05","08","08:00","-6.7","","-10.4","","75","","","","6","","3","","24.1","","103.31","","","","-8","","NA"
"-85.81","79.99","EUREKA A","2401203","2019-05-08 09:00","2019","05","08","09:00","-7.1","","-10.2","","79","","","","36","","3","","24.1","","103.32","","","","-9","","Cloudy"
"-85.81","79.99","EUREKA A","2401203","2019-05-08 10:00","2019","05","08","10:00","-6.8","","-10.4","","76","","","","36","","1","","24.1","","103.31","","","","-7","","NA"
"-85.81","79.99","EUREKA A","2401203","2019-05-08 11:00","2019","05","08","11:00","-6.4","","-10.1","","75","","","","36","","1","","24.1","","103.30","","","","-7","","NA"
"-85.81","79.99","EUREKA A","2401203","2019-05-08 12:00","2019","05","08","12:00","-5.3","","-10.2","","69","","","","36","","3","","24.1","","103.30","","","","-7","","Cloudy"
"-85.81","79.99","EUREKA A","2401203","2019-05-08 13:00","2019","05","08","13:00","-5.2","","-9.3","","73","","","","36","","2","","24.1","","103.32","","","","-6","","NA"
"-85.81","79.99","EUREKA A","2401203","2019-05-08 14:00","2019","05","08","14:00","-4.6","","-9.9","","66","","","","36","","1","","24.1","","103.29","","","","-5","","NA"
"-85.81","79.99","EUREKA A","2401203","2019-05-08 15:00","2019","05","08","15:00","-4.3","","-9.8","","66","","","","36","","2","","24.1","","103.27","","","","-5","","Mostly Cloudy"
"-85.81","79.99","EUREKA A","2401203","2019-05-08 16:00","2019","05","08","16:00","-4.3","","-9.3","","69","","","","16","","3","","24.1","","103.27","","","","-6","","NA"
"-85.81","79.99","EUREKA A","2401203","2019-05-08 17:00","2019","05","08","17:00","-4.5","","-8.7","","72","","","","15","","5","","24.1","","103.27","","","","-7","","NA"
"-85.81","79.99","EUREKA A","2401203","2019-05-08 18:00","2019","05","08","18:00","-4.0","","-9.0","","68","","","","36","","3","","24.1","","103.23","","","","-5","","Mostly Cloudy"
"-85.81","79.99","EUREKA A","2401203","2019-05-08 19:00","2019","05","08","19:00","-4.7","","-8.5","","75","","","","14","","8","","24.1","","103.22","","","","-8","","NA"
"-85.81","79.99","EUREKA A","2401203","2019-05-08 20:00","2019","05","08","20:00","-4.8","","-8.3","","76","","","","15","","7","","24.1","","103.19","","","","-8","","NA"
"-85.81","79.99","EUREKA A","2401203","2019-05-08 21:00","2019","05","08","21:00","-5.1","","-8.2","","79","","","","16","","5","","24.1","","103.17","","","","-7","","Mostly Cloudy"
"-85.81","79.99","EUREKA A","2401203","2019-05-08 22:00","2019","05","08","22:00"
"-85.81","79.99","EUREKA A","2401203","2019-05-08 23:00","2019","05","08","23:00"
"-85.81","79.99","EUREKA A","2401203","2019-05-09 00:00","2019","05","09","00:00","-5.4","","-8.2","","81","","","","36","","3","","24.1","","103.11","","","","-7","","Mostly Cloudy"
"-85.81","79.99","EUREKA A","2401203","2019-05-09 01:00","2019","05","09","01:00","-5.5","","-8.2","","81","","","","5","","4","","24.1","","103.10","","","","-7","","NA"
"-85.81","79.99","EUREKA A","2401203","2019-05-09 02:00","2019","05","09","02:00","-6.0","","-8.3","","84","","","","30","","4","","24.1","","103.09","","","","-8","","NA"
"-85.81","79.99","EUREKA A","2401203","2019-05-09 03:00","2019","05","09","03:00","-6.3","","-8.8","","82","","","","31","","6","","24.1","","103.07","","","","-9","","Mostly Cloudy"
"-85.81","79.99","EUREKA A","2401203","2019-05-09 04:00","2019","05","09","04:00","-6.0","","-9.0","","80","","","","27","","8","","24.1","","103.06","","","","-10","","NA"
"-85.81","79.99","EUREKA A","2401203","2019-05-09 05:00","2019","05","09","05:00","-6.2","","-9.3","","79","","","","3","","3","","24.1","","103.00","","","","-8","","NA"
"-85.81","79.99","EUREKA A","2401203","2019-05-09 06:00","2019","05","09","06:00","-7.2","","-10.2","","79","","","","18","","5","","24.1","","102.98","","","","-10","","Clear"
"-85.81","79.99","EUREKA A","2401203","2019-05-09 07:00","2019","05","09","07:00","-6.3","","-9.8","","77","","","","36","","1","","24.1","","102.93","","","","-7","","NA"
"-85.81","79.99","EUREKA A","2401203","2019-05-09 08:00","2019","05","09","08:00","-7.2","","-10.3","","78","","","","24","","6","","24.1","","102.88","","","","-10","","NA"
"-85.81","79.99","EUREKA A","2401203","2019-05-09 09:00","2019","05","09","09:00","-4.9","","-9.6","","70","","","","6","","3","","24.1","","102.82","","","","-6","","Mostly Cloudy"
"-85.81","79.99","EUREKA A","2401203","2019-05-09 10:00","2019","05","09","10:00","-5.0","","-8.7","","75","","","","36","","2","","24.1","","102.75","","","","-6","","NA"
"-85.81","79.99","EUREKA A","2401203","2019-05-09 11:00","2019","05","09","11:00","-5.6","","-8.8","","78","","","","27","","9","","24.1","","102.71","","","","-10","","NA"
"-85.81","79.99","EUREKA A","2401203","2019-05-09 12:00","2019","05","09","12:00","-5.4","","-7.8","","83","","","","28","","8","","24.1","","102.68","","","","-9","","Mostly Cloudy"
"-85.81","79.99","EUREKA A","2401203","2019-05-09 13:00","2019","05","09","13:00","-4.2","","-7.5","","78","","","","28","","7","","24.1","","102.65","","","","-7","","NA"
"-85.81","79.99","EUREKA A","2401203","2019-05-09 14:00","2019","05","09","14:00","-4.4","","-7.2","","81","","","","27","","7","","24.1","","102.61","","","","-8","","NA"
"-85.81","79.99","EUREKA A","2401203","2019-05-09 15:00","2019","05","09","15:00","-4.2","","-7.3","","79","","","","28","","8","","24.1","","102.59","","","","-8","","Mostly Cloudy"
"-85.81","79.99","EUREKA A","2401203","2019-05-09 16:00","2019","05","09","16:00","-4.7","","-7.5","","81","","","","26","","10","","24.1","","102.55","","","","-9","","NA"
"-85.81","79.99","EUREKA A","2401203","2019-05-09 17:00","2019","05","09","17:00","-3.9","","-7.8","","74","","","","28","","11","","24.1","","102.51","","","","-8","","NA"
"-85.81","79.99","EUREKA A","2401203","2019-05-09 18:00","2019","05","09","18:00","-4.6","","-7.9","","78","","","","25","","5","","24.1","","102.47","","","","-7","","Mainly Clear"
"-85.81","79.99","EUREKA A","2401203","2019-05-09 19:00","2019","05","09","19:00","-3.7","","-8.0","","72","","","","22","","4","","24.1","","102.43","","","","-5","","NA"
"-85.81","79.99","EUREKA A","2401203","2019-05-09 20:00","2019","05","09","20:00","-4.4","","-8.2","","75","","","","21","","3","","24.1","","102.41","","","","-6","","NA"
"-85.81","79.99","EUREKA A","2401203","2019-05-09 21:00","2019","05","09","21:00","-6.2","","-9.2","","79","","","","7","","5","","24.1","","102.39","","","","-9","","Mainly Clear"
"-85.81","79.99","EUREKA A","2401203","2019-05-09 22:00","2019","05","09","22:00"
"-85.81","79.99","EUREKA A","2401203","2019-05-09 23:00","2019","05","09","23:00"
"-85.81","79.99","EUREKA A","2401203","2019-05-10 00:00","2019","05","10","00:00","-8.1","","-10.1","","86","","","","12","","11","","24.1","","102.34","","","","-13","","Mainly Clear"
"-85.81","79.99","EUREKA A","2401203","2019-05-10 01:00","2019","05","10","01:00","-7.9","","-9.5","","88","","","","12","","10","","24.1","","102.34","","","","-13","","NA"
"-85.81","79.99","EUREKA A","2401203","2019-05-10 02:00","2019","05","10","02:00","-8.6","","-10.6","","85","","","","7","","4","","24.1","","102.35","","","","-11","","NA"
"-85.81","79.99","EUREKA A","2401203","2019-05-10 03:00","2019","05","10","03:00","-6.9","","-9.4","","83","","","","22","","4","","24.1","","102.32","","","","-9","","Mostly Cloudy"
"-85.81","79.99","EUREKA A","2401203","2019-05-10 04:00","2019","05","10","04:00","-7.3","","-9.8","","82","","","","11","","5","","24.1","","102.31","","","","-10","","NA"
"-85.81","79.99","EUREKA A","2401203","2019-05-10 05:00","2019","05","10","05:00","-5.7","","-8.8","","79","","","","14","","15","","24.1","","102.29","","","","-11","","NA"
"-85.81","79.99","EUREKA A","2401203","2019-05-10 06:00","2019","05","10","06:00","-5.3","","-8.4","","79","","","","15","","17","","24.1","","102.29","","","","-11","","Mostly Cloudy"
"-85.81","79.99","EUREKA A","2401203","2019-05-10 07:00","2019","05","10","07:00","-3.3","","-6.9","","76","","","","15","","19","","24.1","","102.27","","","","-9","","NA"
"-85.81","79.99","EUREKA A","2401203","2019-05-10 08:00","2019","05","10","08:00","-2.1","","-5.4","","78","","","","15","","21","","24.1","","102.24","","","","-8","","NA"
"-85.81","79.99","EUREKA A","2401203","2019-05-10 09:00","2019","05","10","09:00","-1.6","","-4.8","","78","","","","16","","17","","24.1","","102.22","","","","-7","","Cloudy"
"-85.81","79.99","EUREKA A","2401203","2019-05-10 10:00","2019","05","10","10:00","-1.4","","-4.2","","81","","","","14","","16","","24.1","","102.19","","","","-6","","NA"
"-85.81","79.99","EUREKA A","2401203","2019-05-10 11:00","2019","05","10","11:00","-0.7","","-3.6","","81","","","","13","","19","","24.1","","102.19","","","","-6","","NA"
"-85.81","79.99","EUREKA A","2401203","2019-05-10 12:00","2019","05","10","12:00","-0.6","","-3.2","","82","","","","14","","24","","24.1","","102.17","","","","-7","","Cloudy"
"-85.81","79.99","EUREKA A","2401203","2019-05-10 13:00","2019","05","10","13:00","-0.2","","-2.6","","84","","","","14","","27","","24.1","","102.16","","","","-6","","Snow"
"-85.81","79.99","EUREKA A","2401203","2019-05-10 14:00","2019","05","10","14:00","-0.4","","-2.3","","87","","","","14","","26","","24.1","","102.19","","","","-7","","NA"
"-85.81","79.99","EUREKA A","2401203","2019-05-10 15:00","2019","05","10","15:00","-0.4","","-2.2","","88","","","","15","","22","","24.1","","102.20","","","","-6","","Mostly Cloudy"
"-85.81","79.99","EUREKA A","2401203","2019-05-10 16:00","2019","05","10","16:00","-0.4","","-2.3","","87","","","","15","","26","","24.1","","102.20","","","","-7","","NA"
"-85.81","79.99","EUREKA A","2401203","2019-05-10 17:00","2019","05","10","17:00","-0.6","","-2.3","","88","","","","14","","21","","24.1","","102.19","","","","-6","","Snow"
"-85.81","79.99","EUREKA A","2401203","2019-05-10 18:00","2019","05","10","18:00","-0.4","","-2.4","","86","","","","14","","19","","24.1","","102.19","","","","-6","","Snow"
"-85.81","79.99","EUREKA A","2401203","2019-05-10 19:00","2019","05","10","19:00","-0.5","","-2.7","","85","","","","14","","15","","24.1","","102.19","","","","-5","","NA"
"-85.81","79.99","EUREKA A","2401203","2019-05-10 20:00","2019","05","10","20:00","-0.6","","-2.9","","85","","","","14","","14","","24.1","","102.19","","","","-5","","NA"
"-85.81","79.99","EUREKA A","2401203","2019-05-10 21:00","2019","05","10","21:00","-1.4","","-3.2","","87","","","","16","","23","","24.1","","102.18","","","","-7","","Mostly Cloudy"
"-85.81","79.99","EUREKA A","2401203","2019-05-10 22:00","2019","05","10","22:00"
"-85.81","79.99","EUREKA A","2401203","2019-05-10 23:00","2019","05","10","23:00"
"-85.81","79.99","EUREKA A","2401203","2019-05-11 00:00","2019","05","11","00:00","-1.3","","-3.8","","83","","","","15","","19","","24.1","","102.18","","","","-7","","Cloudy"
"-85.81","79.99","EUREKA A","2401203","2019-05-11 01:00","2019","05","11","01:00","-1.3","","-4.1","","81","","","","12","","16","","24.1","","102.22","","","","-6","","NA"
"-85.81","79.99","EUREKA A","2401203","2019-05-11 02:00","2019","05","11","02:00","-1.5","","-4.3","","81","","","","13","","19","","24.1","","102.24","","","","-7","","NA"
"-85.81","79.99","EUREKA A","2401203","2019-05-11 03:00","2019","05","11","03:00","-1.8","","-4.6","","81","","","","14","","19","","24.1","","102.27","","","","-7","","Cloudy"
"-85.81","79.99","EUREKA A","2401203","2019-05-11 04:00","2019","05","11","04:00","-1.6","","-4.7","","80","","","","12","","14","","24.1","","102.27","","","","-6","","NA"
"-85.81","79.99","EUREKA A","2401203","2019-05-11 05:00","2019","05","11","05:00","-1.4","","-5.1","","76","","","","15","","13","","24.1","","102.28","","","","-6","","NA"
"-85.81","79.99","EUREKA A","2401203","2019-05-11 06:00","2019","05","11","06:00","-1.7","","-4.8","","79","","","","13","","12","","24.1","","102.30","","","","-6","","Mostly Cloudy"
"-85.81","79.99","EUREKA A","2401203","2019-05-11 07:00","2019","05","11","07:00","-2.0","","-5.2","","79","","","","15","","10","","24.1","","102.33","","","","-6","","NA"
"-85.81","79.99","EUREKA A","2401203","2019-05-11 08:00","2019","05","11","08:00","-1.9","","-5.7","","75","","","","15","","9","","24.1","","102.35","","","","-5","","NA"
"-85.81","79.99","EUREKA A","2401203","2019-05-11 09:00","2019","05","11","09:00","-1.2","","-5.8","","71","","","","15","","12","","24.1","","102.35","","","","-5","","Cloudy"
"-85.81","79.99","EUREKA A","2401203","2019-05-11 10:00","2019","05","11","10:00","-1.3","","-6.3","","69","","","","14","","10","","24.1","","102.37","","","","-5","","NA"
"-85.81","79.99","EUREKA A","2401203","2019-05-11 11:00","2019","05","11","11:00","-1.2","","-6.0","","70","","","","14","","4","","24.1","","102.36","","","","-3","","NA"
"-85.81","79.99","EUREKA A","2401203","2019-05-11 12:00","2019","05","11","12:00","-0.6","","-6.0","","67","","","","19","","9","","24.1","","102.37","","","","-4","","Cloudy"
"-85.81","79.99","EUREKA A","2401203","2019-05-11 13:00","2019","05","11","13:00","-0.6","","-6.3","","65","","","","17","","14","","24.1","","102.40","","","","-5","","NA"
"-85.81","79.99","EUREKA A","2401203","2019-05-11 14:00","2019","05","11","14:00","-0.5","","-6.2","","66","","","","19","","8","","24.1","","102.43","","","","-3","","NA"
"-85.81","79.99","EUREKA A","2401203","2019-05-11 15:00","2019","05","11","15:00","-0.4","","-5.8","","67","","","","36","","3","","24.1","","102.46","","","","-1","","Mostly Cloudy"
"-85.81","79.99","EUREKA A","2401203","2019-05-11 16:00","2019","05","11","16:00","-0.6","","-5.1","","72","","","","17","","5","","24.1","","102.47","","","","-2","","NA"
"-85.81","79.99","EUREKA A","2401203","2019-05-11 17:00","2019","05","11","17:00","-0.8","","-5.4","","71","","","","15","","13","","24.1","","102.48","","","","-5","","NA"
"-85.81","79.99","EUREKA A","2401203","2019-05-11 18:00","2019","05","11","18:00","-1.0","","-5.4","","72","","","","14","","13","","24.1","","102.50","","","","-5","","Cloudy"
"-85.81","79.99","EUREKA A","2401203","2019-05-11 19:00","2019","05","11","19:00","-1.2","","-5.4","","73","","","","14","","15","","24.1","","102.52","","","","-6","","NA"
"-85.81","79.99","EUREKA A","2401203","2019-05-11 20:00","2019","05","11","20:00","-1.2","","-5.8","","71","","","","13","","13","","24.1","","102.53","","","","-5","","NA"
"-85.81","79.99","EUREKA A","2401203","2019-05-11 21:00","2019","05","11","21:00","-2.2","","-5.8","","77","","","","14","","15","","24.1","","102.53","","","","-7","","Mostly Cloudy"
"-85.81","79.99","EUREKA A","2401203","2019-05-11 22:00","2019","05","11","22:00"
"-85.81","79.99","EUREKA A","2401203","2019-05-11 23:00","2019","05","11","23:00"
"-85.81","79.99","EUREKA A","2401203","2019-05-12 00:00","2019","05","12","00:00","-4.1","","-7.5","","77","","","","0","","1","","24.1","","102.57","","","","-5","","Mostly Cloudy"
"-85.81","79.99","EUREKA A","2401203","2019-05-12 01:00","2019","05","12","01:00","-4.6","","-7.7","","79","","","","36","","3","","24.1","","102.58","","","","-6","","NA"
"-85.81","79.99","EUREKA A","2401203","2019-05-12 02:00","2019","05","12","02:00","-3.9","","-7.2","","78","","","","36","","1","","24.1","","102.60","","","","-4","","NA"
"-85.81","79.99","EUREKA A","2401203","2019-05-12 03:00","2019","05","12","03:00","-3.9","","-7.3","","77","","","","36","","3","","24.1","","102.59","","","","-5","","Cloudy"
"-85.81","79.99","EUREKA A","2401203","2019-05-12 04:00","2019","05","12","04:00","-2.7","","-6.6","","75","","","","36","","3","","24.1","","102.59","","","","-4","","NA"
"-85.81","79.99","EUREKA A","2401203","2019-05-12 05:00","2019","05","12","05:00","-3.1","","-6.3","","78","","","","0","","1","","24.1","","102.59","","","","-4","","NA"
"-85.81","79.99","EUREKA A","2401203","2019-05-12 06:00","2019","05","12","06:00","-3.4","","-6.5","","79","","","","25","","5","","24.1","","102.57","","","","-5","","Cloudy"
"-85.81","79.99","EUREKA A","2401203","2019-05-12 07:00","2019","05","12","07:00","-2.3","","-6.2","","74","","","","35","","3","","24.1","","102.56","","","","-3","","NA"
"-85.81","79.99","EUREKA A","2401203","2019-05-12 08:00","2019","05","12","08:00","-1.9","","-5.8","","75","","","","36","","2","","24.1","","102.54","","","","-3","","NA"
"-85.81","79.99","EUREKA A","2401203","2019-05-12 09:00","2019","05","12","09:00","-0.7","","-5.6","","70","","","","2","","15","","24.1","","102.52","","","","-5","","Cloudy"
"-85.81","79.99","EUREKA A","2401203","2019-05-12 10:00","2019","05","12","10:00","-2.0","","-4.6","","83","","","","26","","10","","24.1","","102.51","","","","-6","","NA"
"-85.81","79.99","EUREKA A","2401203","2019-05-12 11:00","2019","05","12","11:00","-1.9","","-4.2","","85","","","","27","","10","","24.1","","102.49","","","","-6","","NA"
"-85.81","79.99","EUREKA A","2401203","2019-05-12 12:00","2019","05","12","12:00","-2.0","","-4.1","","86","","","","27","","12","","24.1","","102.44","","","","-6","","Cloudy"
"-85.81","79.99","EUREKA A","2401203","2019-05-12 13:00","2019","05","12","13:00","-0.7","","-3.7","","80","","","","7","","8","","24.1","","102.42","","","","-4","","NA"
"-85.81","79.99","EUREKA A","2401203","2019-05-12 14:00","2019","05","12","14:00","-1.0","","-4.2","","79","","","","27","","8","","24.1","","102.42","","","","-4","","NA"
"-85.81","79.99","EUREKA A","2401203","2019-05-12 15:00","2019","05","12","15:00","0.2","","-4.8","","69","","","","34","","4","","24.1","","102.41","","","","","","Cloudy"
"-85.81","79.99","EUREKA A","2401203","2019-05-12 16:00","2019","05","12","16:00","-1.6","","-3.8","","85","","","","28","","11","","24.1","","102.39","","","","-5","","NA"
"-85.81","79.99","EUREKA A","2401203","2019-05-12 17:00","2019","05","12","17:00","0.1","","-4.3","","72","","","","36","","8","","24.1","","102.39","","","","","","NA"
"-85.81","79.99","EUREKA A","2401203","2019-05-12 18:00","2019","05","12","18:00","-0.4","","-4.2","","76","","","","2","","11","","24.1","","102.39","","","","-4","","Cloudy"
"-85.81","79.99","EUREKA A","2401203","2019-05-12 19:00","2019","05","12","19:00","-1.0","","-4.3","","78","","","","36","","13","","24.1","","102.39","","","","-5","","NA"
"-85.81","79.99","EUREKA A","2401203","2019-05-12 20:00","2019","05","12","20:00","-1.2","","-5.0","","75","","","","36","","20","","24.1","","102.39","","","","-7","","NA"
"-85.81","79.99","EUREKA A","2401203","2019-05-12 21:00","2019","05","12","21:00","-2.5","","-5.1","","82","","","","27","","10","","24.1","","102.36","","","","-6","","Cloudy"
"-85.81","79.99","EUREKA A","2401203","2019-05-12 22:00","2019","05","12","22:00"
"-85.81","79.99","EUREKA A","2401203","2019-05-12 23:00","2019","05","12","23:00"
"-85.81","79.99","EUREKA A","2401203","2019-05-13 00:00","2019","05","13","00:00","-3.0","","-5.2","","85","","","","28","","9","","24.1","","102.33","","","","-7","","Cloudy"
"-85.81","79.99","EUREKA A","2401203","2019-05-13 01:00","2019","05","13","01:00","-2.6","","-5.9","","78","","","","31","","12","","24.1","","102.33","","","","-7","","NA"
"-85.81","79.99","EUREKA A","2401203","2019-05-13 02:00","2019","05","13","02:00","-2.4","","-5.8","","78","","","","30","","8","","24.1","","102.34","","","","-6","","NA"
"-85.81","79.99","EUREKA A","2401203","2019-05-13 03:00","2019","05","13","03:00","-1.8","","-6.8","","69","","","","36","","21","","24.1","","102.36","","","","-8","","Cloudy"
"-85.81","79.99","EUREKA A","2401203","2019-05-13 04:00","2019","05","13","04:00","-2.4","","-7.1","","70","","","","33","","13","","24.1","","102.38","","","","-7","","NA"
"-85.81","79.99","EUREKA A","2401203","2019-05-13 05:00","2019","05","13","05:00","-3.2","","-6.0","","81","","","","27","","10","","24.1","","102.38","","","","-7","","NA"
"-85.81","79.99","EUREKA A","2401203","2019-05-13 06:00","2019","05","13","06:00","-1.9","","-6.6","","70","","","","1","","20","","24.1","","102.38","","","","-8","","Cloudy"
"-85.81","79.99","EUREKA A","2401203","2019-05-13 07:00","2019","05","13","07:00","-2.5","","-7.0","","71","","","","32","","6","","24.1","","102.39","","","","-5","","NA"
"-85.81","79.99","EUREKA A","2401203","2019-05-13 08:00","2019","05","13","08:00","-2.7","","-5.5","","81","","","","26","","14","","24.1","","102.40","","","","-8","","NA"
"-85.81","79.99","EUREKA A","2401203","2019-05-13 09:00","2019","05","13","09:00","-1.6","","-6.4","","70","","","","","","0","","24.1","","102.39","","","","","","Cloudy"
"-85.81","79.99","EUREKA A","2401203","2019-05-13 10:00","2019","05","13","10:00","-0.9","","-6.8","","64","","","","1","","11","","24.1","","102.38","","","","-5","","NA"
"-85.81","79.99","EUREKA A","2401203","2019-05-13 11:00","2019","05","13","11:00","-0.8","","-7.4","","61","","","","32","","13","","24.1","","102.37","","","","-5","","NA"
"-85.81","79.99","EUREKA A","2401203","2019-05-13 12:00","2019","05","13","12:00","-0.8","","-7.6","","60","","","","29","","12","","24.1","","102.39","","","","-5","","Mostly Cloudy"
"-85.81","79.99","EUREKA A","2401203","2019-05-13 13:00","2019","05","13","13:00","-1.0","","-7.2","","63","","","","28","","19","","24.1","","102.39","","","","-6","","NA"
"-85.81","79.99","EUREKA A","2401203","2019-05-13 14:00","2019","05","13","14:00","-2.0","","-5.3","","78","","","","27","","28","","24.1","","102.41","","","","-9","","NA"
"-85.81","79.99","EUREKA A","2401203","2019-05-13 15:00","2019","05","13","15:00","-1.2","","-6.8","","66","","","","33","","16","","24.1","","102.43","","","","-6","","Mostly Cloudy"
"-85.81","79.99","EUREKA A","2401203","2019-05-13 16:00","2019","05","13","16:00","-1.6","","-6.6","","69","","","","32","","19","","24.1","","102.45","","","","-7","","NA"
"-85.81","79.99","EUREKA A","2401203","2019-05-13 17:00","2019","05","13","17:00","-2.1","","-6.8","","70","","","","34","","24","","24.1","","102.46","","","","-8","","NA"
"-85.81","79.99","EUREKA A","2401203","2019-05-13 18:00","2019","05","13","18:00","-2.3","","-6.9","","70","","","","26","","14","","24.1","","102.47","","","","-7","","Mostly Cloudy"
"-85.81","79.99","EUREKA A","2401203","2019-05-13 19:00","2019","05","13","19:00","-3.0","","-6.8","","75","","","","19","","9","","24.1","","102.48","","","","-7","","NA"
"-85.81","79.99","EUREKA A","2401203","2019-05-13 20:00","2019","05","13","20:00","-4.5","","-6.5","","86","","","","31","","7","","24.1","","102.48","","","","-8","","NA"
"-85.81","79.99","EUREKA A","2401203","2019-05-13 21:00","2019","05","13","21:00","-3.9","","-6.9","","79","","","","2","","18","","24.1","","102.51","","","","-10","","Mostly Cloudy"
"-85.81","79.99","EUREKA A","2401203","2019-05-13 22:00","2019","05","13","22:00"
"-85.81","79.99","EUREKA A","2401203","2019-05-13 23:00","2019","05","13","23:00"
"-85.81","79.99","EUREKA A","2401203","2019-05-14 00:00","2019","05","14","00:00","-5.7","","-8.0","","84","","","","36","","3","","24.1","","102.51","","","","-7","","Mainly Clear"
"-85.81","79.99","EUREKA A","2401203","2019-05-14 01:00","2019","05","14","01:00","-6.1","","-7.9","","88","","","","27","","12","","24.1","","102.53","","","","-11","","NA"
"-85.81","79.99","EUREKA A","2401203","2019-05-14 02:00","2019","05","14","02:00","-6.2","","-7.8","","88","","","","29","","8","","24.1","","102.54","","","","-10","","NA"
"-85.81","79.99","EUREKA A","2401203","2019-05-14 03:00","2019","05","14","03:00","-6.0","","-7.8","","87","","","","28","","11","","24.1","","102.57","","","","-11","","Clear"
"-85.81","79.99","EUREKA A","2401203","2019-05-14 04:00","2019","05","14","04:00","-5.4","","-7.5","","85","","","","30","","11","","24.1","","102.59","","","","-10","","NA"
"-85.81","79.99","EUREKA A","2401203","2019-05-14 05:00","2019","05","14","05:00","-5.2","","-7.4","","84","","","","31","","8","","24.1","","102.60","","","","-9","","NA"
"-85.81","79.99","EUREKA A","2401203","2019-05-14 06:00","2019","05","14","06:00","-5.0","","-7.3","","84","","","","27","","7","","24.1","","102.60","","","","-8","","Mostly Cloudy"
"-85.81","79.99","EUREKA A","2401203","2019-05-14 07:00","2019","05","14","07:00","-4.4","","-6.9","","83","","","","27","","12","","24.1","","102.62","","","","-9","","NA"
"-85.81","79.99","EUREKA A","2401203","2019-05-14 08:00","2019","05","14","08:00","-3.5","","-6.6","","79","","","","27","","13","","24.1","","102.61","","","","-8","","NA"
"-85.81","79.99","EUREKA A","2401203","2019-05-14 09:00","2019","05","14","09:00","-3.7","","-6.2","","83","","","","26","","20","","24.1","","102.62","","","","-10","","Mostly Cloudy"
"-85.81","79.99","EUREKA A","2401203","2019-05-14 10:00","2019","05","14","10:00","-2.9","","-6.1","","79","","","","26","","16","","24.1","","102.62","","","","-8","","NA"
"-85.81","79.99","EUREKA A","2401203","2019-05-14 11:00","2019","05","14","11:00","-2.2","","-6.3","","73","","","","26","","16","","24.1","","102.62","","","","-7","","NA"
"-85.81","79.99","EUREKA A","2401203","2019-05-14 12:00","2019","05","14","12:00","-2.5","","-5.9","","77","","","","26","","19","","24.1","","102.62","","","","-8","","Mostly Cloudy"
"-85.81","79.99","EUREKA A","2401203","2019-05-14 13:00","2019","05","14","13:00","-2.7","","-5.8","","79","","","","26","","22","","24.1","","102.62","","","","-9","","NA"
"-85.81","79.99","EUREKA A","2401203","2019-05-14 14:00","2019","05","14","14:00","-3.0","","-5.7","","82","","","","26","","22","","24.1","","102.63","","","","-9","","NA"
"-85.81","79.99","EUREKA A","2401203","2019-05-14 15:00","2019","05","14","15:00","-2.9","","-5.6","","82","","","","26","","21","","24.1","","102.64","","","","-9","","Clear"
"-85.81","79.99","EUREKA A","2401203","2019-05-14 16:00","2019","05","14","16:00","-2.7","","-6.3","","76","","","","27","","20","","24.1","","102.65","","","","-9","","NA"
"-85.81","79.99","EUREKA A","2401203","2019-05-14 17:00","2019","05","14","17:00","-3.2","","-5.8","","82","","","","27","","20","","24.1","","102.68","","","","-9","","NA"
"-85.81","79.99","EUREKA A","2401203","2019-05-14 18:00","2019","05","14","18:00","-3.3","","-6.0","","81","","","","27","","12","","24.1","","102.66","","","","-8","","Mainly Clear"
"-85.81","79.99","EUREKA A","2401203","2019-05-14 19:00","2019","05","14","19:00","-4.6","","-7.0","","84","","","","26","","19","","24.1","","102.66","","","","-11","","NA"
"-85.81","79.99","EUREKA A","2401203","2019-05-14 20:00","2019","05","14","20:00","-5.0","","-7.3","","84","","","","27","","18","","24.1","","102.66","","","","-11","","NA"
"-85.81","79.99","EUREKA A","2401203","2019-05-14 21:00","2019","05","14","21:00","-5.1","","-7.5","","84","","","","28","","16","","24.1","","102.67","","","","-11","","Mostly Cloudy"
"-85.81","79.99","EUREKA A","2401203","2019-05-14 22:00","2019","05","14","22:00"
"-85.81","79.99","EUREKA A","2401203","2019-05-14 23:00","2019","05","14","23:00"
"-85.81","79.99","EUREKA A","2401203","2019-05-15 00:00","2019","05","15","00:00","-6.0","","-7.5","","89","","","","27","","22","","24.1","","102.64","","","","-13","","Mainly Clear"
"-85.81","79.99","EUREKA A","2401203","2019-05-15 01:00","2019","05","15","01:00","-7.5","","-9.4","","86","","","","30","","8","","24.1","","102.66","","","","-12","","NA"
"-85.81","79.99","EUREKA A","2401203","2019-05-15 02:00","2019","05","15","02:00","-6.0","","-7.7","","88","","","","28","","15","","24.1","","102.64","","","","-12","","NA"
"-85.81","79.99","EUREKA A","2401203","2019-05-15 03:00","2019","05","15","03:00","-6.9","","-8.9","","86","","","","34","","7","","24.1","","102.66","","","","-10","","Mainly Clear"
"-85.81","79.99","EUREKA A","2401203","2019-05-15 04:00","2019","05","15","04:00","-7.0","","-9.2","","84","","","","29","","7","","24.1","","102.65","","","","-11","","NA"
"-85.81","79.99","EUREKA A","2401203","2019-05-15 05:00","2019","05","15","05:00","-6.4","","-8.4","","86","","","","30","","10","","24.1","","102.64","","","","-11","","NA"
"-85.81","79.99","EUREKA A","2401203","2019-05-15 06:00","2019","05","15","06:00","-6.0","","-8.3","","84","","","","30","","14","","24.1","","102.63","","","","-12","","Mainly Clear"
"-85.81","79.99","EUREKA A","2401203","2019-05-15 07:00","2019","05","15","07:00","-5.5","","-8.3","","81","","","","31","","7","","24.1","","102.60","","","","-9","","NA"
"-85.81","79.99","EUREKA A","2401203","2019-05-15 08:00","2019","05","15","08:00","-5.0","","-8.3","","78","","","","27","","20","","24.1","","102.57","","","","-12","","NA"
"-85.81","79.99","EUREKA A","2401203","2019-05-15 09:00","2019","05","15","09:00","-5.3","","-8.4","","79","","","","27","","30","","24.1","","102.57","","","","-13","","Mainly Clear"
"-85.81","79.99","EUREKA A","2401203","2019-05-15 10:00","2019","05","15","10:00","-4.2","","-9.5","","67","","","","29","","15","","24.1","","102.56","","","","-10","","NA"
"-85.81","79.99","EUREKA A","2401203","2019-05-15 11:00","2019","05","15","11:00","-2.9","","-9.5","","61","","","","36","","3","","24.1","","102.50","","","","-4","","NA"
"-85.81","79.99","EUREKA A","2401203","2019-05-15 12:00","2019","05","15","12:00","-4.0","","-10.1","","63","","","","25","","14","","24.1","","102.46","","","","-9","","Mainly Clear"
"-85.81","79.99","EUREKA A","2401203","2019-05-15 13:00","2019","05","15","13:00","-4.5","","-9.7","","67","","","","22","","8","","24.1","","102.45","","","","-8","","NA"
"-85.81","79.99","EUREKA A","2401203","2019-05-15 14:00","2019","05","15","14:00","-3.9","","-9.5","","66","","","","34","","17","","24.1","","102.47","","","","-10","","NA"
"-85.81","79.99","EUREKA A","2401203","2019-05-15 15:00","2019","05","15","15:00","-4.7","","-9.2","","71","","","","34","","19","","24.1","","102.48","","","","-11","","Mainly Clear"
"-85.81","79.99","EUREKA A","2401203","2019-05-15 16:00","2019","05","15","16:00","-5.0","","-9.6","","70","","","","33","","29","","24.1","","102.46","","","","-13","","NA"
"-85.81","79.99","EUREKA A","2401203","2019-05-15 17:00","2019","05","15","17:00","-6.0","","-10.2","","73","","","","34","","44","","24.1","","102.42","","","","-16","","NA"
"-85.81","79.99","EUREKA A","2401203","2019-05-15 18:00","2019","05","15","18:00","-5.7","","-10.1","","71","","","","34","","23","","24.1","","102.42","","","","-13","","Mostly Cloudy"
"-85.81","79.99","EUREKA A","2401203","2019-05-15 19:00","2019","05","15","19:00","-7.1","","-10.8","","75","","","","35","","31","","24.1","","102.40","","","","-16","","NA"
"-85.81","79.99","EUREKA A","2401203","2019-05-15 20:00","2019","05","15","20:00","-7.9","","-11.8","","74","","","","32","","25","","24.1","","102.37","","","","-16","","NA"
"-85.81","79.99","EUREKA A","2401203","2019-05-15 21:00","2019","05","15","21:00","-10.1","","-12.7","","82","","","","27","","29","","24.1","","102.37","","","","-20","","Blowing Snow"
"-85.81","79.99","EUREKA A","2401203","2019-05-15 22:00","2019","05","15","22:00"
"-85.81","79.99","EUREKA A","2401203","2019-05-15 23:00","2019","05","15","23:00"
"-85.81","79.99","EUREKA A","2401203","2019-05-16 00:00","2019","05","16","00:00","-9.8","","-12.5","","81","","","","11","","4","","24.1","","102.33","","","","-12","","Mainly Clear"
"-85.81","79.99","EUREKA A","2401203","2019-05-16 01:00","2019","05","16","01:00","-9.8","","-12.4","","81","","","","36","","3","","24.1","","102.33","","","","-12","","NA"
"-85.81","79.99","EUREKA A","2401203","2019-05-16 02:00","2019","05","16","02:00","-10.0","","-12.6","","81","","","","28","","15","","24.1","","102.35","","","","-17","","NA"
"-85.81","79.99","EUREKA A","2401203","2019-05-16 03:00","2019","05","16","03:00","-10.7","","-13.4","","81","","","","29","","14","","24.1","","102.37","","","","-17","","Mostly Cloudy"
"-85.81","79.99","EUREKA A","2401203","2019-05-16 04:00","2019","05","16","04:00","-10.8","","-13.3","","82","","","","29","","26","","24.1","","102.40","","","","-20","","NA"
"-85.81","79.99","EUREKA A","2401203","2019-05-16 05:00","2019","05","16","05:00","-10.6","","-13.2","","81","","","","28","","26","","24.1","","102.39","","","","-20","","NA"
"-85.81","79.99","EUREKA A","2401203","2019-05-16 06:00","2019","05","16","06:00","-9.8","","-12.8","","79","","","","28","","27","","24.1","","102.38","","","","-19","","Mostly Cloudy"
"-85.81","79.99","EUREKA A","2401203","2019-05-16 07:00","2019","05","16","07:00","-9.3","","-12.8","","76","","","","29","","20","","24.1","","102.38","","","","-17","","NA"
"-85.81","79.99","EUREKA A","2401203","2019-05-16 08:00","2019","05","16","08:00","-8.5","","-12.4","","73","","","","29","","27","","24.1","","102.36","","","","-17","","NA"
"-85.81","79.99","EUREKA A","2401203","2019-05-16 09:00","2019","05","16","09:00","-8.2","","-12.2","","73","","","","28","","26","","24.1","","102.38","","","","-17","","Mostly Cloudy"
"-85.81","79.99","EUREKA A","2401203","2019-05-16 10:00","2019","05","16","10:00","-6.5","","-11.4","","69","","","","28","","24","","24.1","","102.38","","","","-14","","NA"
"-85.81","79.99","EUREKA A","2401203","2019-05-16 11:00","2019","05","16","11:00","-6.4","","-11.0","","70","","","","28","","24","","24.1","","102.40","","","","-14","","NA"
"-85.81","79.99","EUREKA A","2401203","2019-05-16 12:00","2019","05","16","12:00","-6.7","","-10.5","","75","","","","26","","27","","24.1","","102.39","","","","-15","","Mostly Cloudy"
"-85.81","79.99","EUREKA A","2401203","2019-05-16 13:00","2019","05","16","13:00","-6.2","","-10.0","","75","","","","27","","29","","24.1","","102.38","","","","-14","","NA"
"-85.81","79.99","EUREKA A","2401203","2019-05-16 14:00","2019","05","16","14:00","-4.6","","-8.4","","75","","","","32","","16","","24.1","","102.38","","","","-10","","NA"
"-85.81","79.99","EUREKA A","2401203","2019-05-16 15:00","2019","05","16","15:00","-6.1","","-9.8","","75","","","","29","","25","","24.1","","102.40","","","","-14","","Cloudy"
"-85.81","79.99","EUREKA A","2401203","2019-05-16 16:00","2019","05","16","16:00","-4.1","","-9.4","","67","","","","35","","25","","24.1","","102.41","","","","-11","","NA"
"-85.81","79.99","EUREKA A","2401203","2019-05-16 17:00","2019","05","16","17:00","-6.3","","-10.3","","74","","","","29","","26","","24.1","","102.46","","","","-14","","NA"
"-85.81","79.99","EUREKA A","2401203","2019-05-16 18:00","2019","05","16","18:00","-5.0","","-10.1","","68","","","","1","","27","","24.1","","102.49","","","","-13","","Cloudy"
"-85.81","79.99","EUREKA A","2401203","2019-05-16 19:00","2019","05","16","19:00","-6.5","","-9.8","","77","","","","27","","24","","24.1","","102.48","","","","-14","","NA"
"-85.81","79.99","EUREKA A","2401203","2019-05-16 20:00","2019","05","16","20:00","-7.5","","-10.6","","79","","","","28","","27","","24.1","","102.50","","","","-16","","NA"
"-85.81","79.99","EUREKA A","2401203","2019-05-16 21:00","2019","05","16","21:00","-7.7","","-10.9","","78","","","","28","","21","","24.1","","102.54","","","","-15","","Cloudy"
"-85.81","79.99","EUREKA A","2401203","2019-05-16 22:00","2019","05","16","22:00"
"-85.81","79.99","EUREKA A","2401203","2019-05-16 23:00","2019","05","16","23:00"
"-85.81","79.99","EUREKA A","2401203","2019-05-17 00:00","2019","05","17","00:00","-8.4","","-11.7","","77","","","","28","","21","","24.1","","102.57","","","","-16","","Mostly Cloudy"
"-85.81","79.99","EUREKA A","2401203","2019-05-17 01:00","2019","05","17","01:00","-8.5","","-12.0","","76","","","","28","","17","","24.1","","102.60","","","","-15","","NA"
"-85.81","79.99","EUREKA A","2401203","2019-05-17 02:00","2019","05","17","02:00","-8.9","","-12.4","","76","","","","30","","11","","24.1","","102.62","","","","-14","","NA"
"-85.81","79.99","EUREKA A","2401203","2019-05-17 03:00","2019","05","17","03:00","-7.6","","-12.3","","69","","","","35","","25","","24.1","","102.62","","","","-16","","Mainly Clear"
"-85.81","79.99","EUREKA A","2401203","2019-05-17 04:00","2019","05","17","04:00","-8.8","","-13.1","","71","","","","28","","12","","24.1","","102.66","","","","-14","","NA"
"-85.81","79.99","EUREKA A","2401203","2019-05-17 05:00","2019","05","17","05:00","-7.5","","-11.9","","71","","","","28","","14","","24.1","","102.68","","","","-13","","NA"
"-85.81","79.99","EUREKA A","2401203","2019-05-17 06:00","2019","05","17","06:00","-7.3","","-11.6","","72","","","","28","","15","","24.1","","102.71","","","","-13","","Mainly Clear"
"-85.81","79.99","EUREKA A","2401203","2019-05-17 07:00","2019","05","17","07:00","-7.6","","-11.7","","73","","","","27","","18","","24.1","","102.71","","","","-14","","NA"
"-85.81","79.99","EUREKA A","2401203","2019-05-17 08:00","2019","05","17","08:00","-6.2","","-11.2","","68","","","","27","","12","","24.1","","102.72","","","","-11","","NA"
"-85.81","79.99","EUREKA A","2401203","2019-05-17 09:00","2019","05","17","09:00","-6.0","","-10.8","","69","","","","27","","17","","24.1","","102.74","","","","-12","","Mainly Clear"
"-85.81","79.99","EUREKA A","2401203","2019-05-17 10:00","2019","05","17","10:00","-5.5","","-10.8","","67","","","","30","","12","","24.1","","102.76","","","","-10","","NA"
"-85.81","79.99","EUREKA A","2401203","2019-05-17 11:00","2019","05","17","11:00","-4.8","","-10.7","","64","","","","35","","4","","24.1","","102.75","","","","-7","","NA"
"-85.81","79.99","EUREKA A","2401203","2019-05-17 12:00","2019","05","17","12:00","-4.9","","-10.2","","67","","","","30","","13","","24.1","","102.77","","","","-10","","Mainly Clear"
"-85.81","79.99","EUREKA A","2401203","2019-05-17 13:00","2019","05","17","13:00","-4.7","","-10.3","","65","","","","34","","8","","24.1","","102.78","","","","-8","","NA"
"-85.81","79.99","EUREKA A","2401203","2019-05-17 14:00","2019","05","17","14:00","-4.9","","-9.7","","69","","","","27","","23","","24.1","","102.77","","","","-12","","NA"
"-85.81","79.99","EUREKA A","2401203","2019-05-17 15:00","2019","05","17","15:00","-4.3","","-10.2","","64","","","","28","","21","","24.1","","102.81","","","","-11","","Mainly Clear"
"-85.81","79.99","EUREKA A","2401203","2019-05-17 16:00","2019","05","17","16:00","-4.8","","-9.6","","69","","","","28","","15","","24.1","","102.80","","","","-10","","NA"
"-85.81","79.99","EUREKA A","2401203","2019-05-17 17:00","2019","05","17","17:00","-5.1","","-9.7","","70","","","","28","","16","","24.1","","102.83","","","","-11","","NA"
"-85.81","79.99","EUREKA A","2401203","2019-05-17 18:00","2019","05","17","18:00","-5.4","","-9.6","","72","","","","27","","12","","24.1","","102.84","","","","-10","","Mostly Cloudy"
"-85.81","79.99","EUREKA A","2401203","2019-05-17 19:00","2019","05","17","19:00","-5.9","","-9.9","","74","","","","28","","13","","24.1","","102.85","","","","-11","","NA"
"-85.81","79.99","EUREKA A","2401203","2019-05-17 20:00","2019","05","17","20:00","-6.2","","-10.2","","73","","","","36","","8","","24.1","","102.87","","","","-10","","NA"
"-85.81","79.99","EUREKA A","2401203","2019-05-17 21:00","2019","05","17","21:00","-7.5","","-10.7","","78","","","","14","","10","","24.1","","102.91","","","","-12","","Mostly Cloudy"
"-85.81","79.99","EUREKA A","2401203","2019-05-17 22:00","2019","05","17","22:00"
"-85.81","79.99","EUREKA A","2401203","2019-05-17 23:00","2019","05","17","23:00"
"-85.81","79.99","EUREKA A","2401203","2019-05-18 00:00","2019","05","18","00:00","-8.4","","-11.4","","79","","","","36","","2","","24.1","","102.95","","","","-9","","Mostly Cloudy"
"-85.81","79.99","EUREKA A","2401203","2019-05-18 01:00","2019","05","18","01:00","-9.2","","-12.4","","78","","","","36","","3","","24.1","","102.99","","","","-11","","NA"
"-85.81","79.99","EUREKA A","2401203","2019-05-18 02:00","2019","05","18","02:00","-9.6","","-12.8","","78","","","","33","","3","","24.1","","103.00","","","","-11","","NA"
"-85.81","79.99","EUREKA A","2401203","2019-05-18 03:00","2019","05","18","03:00","-9.0","","-12.7","","75","","","","35","","9","","24.1","","103.01","","","","-14","","Clear"
"-85.81","79.99","EUREKA A","2401203","2019-05-18 04:00","2019","05","18","04:00","-9.4","","-12.8","","76","","","","36","","13","","24.1","","103.03","","","","-15","","NA"
"-85.81","79.99","EUREKA A","2401203","2019-05-18 05:00","2019","05","18","05:00","-8.5","","-12.5","","73","","","","33","","10","","24.1","","103.04","","","","-13","","NA"
"-85.81","79.99","EUREKA A","2401203","2019-05-18 06:00","2019","05","18","06:00","-8.0","","-12.3","","72","","","","34","","8","","24.1","","103.05","","","","-12","","Mostly Cloudy"
"-85.81","79.99","EUREKA A","2401203","2019-05-18 07:00","2019","05","18","07:00","-7.6","","-12.3","","69","","","","33","","8","","24.1","","103.03","","","","-12","","NA"
"-85.81","79.99","EUREKA A","2401203","2019-05-18 08:00","2019","05","18","08:00","-6.9","","-11.9","","68","","","","29","","11","","24.1","","103.01","","","","-12","","NA"
"-85.81","79.99","EUREKA A","2401203","2019-05-18 09:00","2019","05","18","09:00","-6.4","","-11.5","","67","","","","28","","12","","24.1","","103.02","","","","-12","","Mainly Clear"
"-85.81","79.99","EUREKA A","2401203","2019-05-18 10:00","2019","05","18","10:00","-6.1","","-11.4","","66","","","","27","","23","","24.1","","102.98","","","","-13","","NA"
"-85.81","79.99","EUREKA A","2401203","2019-05-18 11:00","2019","05","18","11:00","-5.9","","-10.6","","69","","","","27","","22","","24.1","","102.97","","","","-13","","NA"
"-85.81","79.99","EUREKA A","2401203","2019-05-18 12:00","2019","05","18","12:00","-6.0","","-10.5","","71","","","","27","","21","","24.1","","102.95","","","","-13","","Mainly Clear"
"-85.81","79.99","EUREKA A","2401203","2019-05-18 13:00","2019","05","18","13:00","-5.3","","-10.7","","66","","","","35","","13","","24.1","","102.95","","","","-10","","NA"
"-85.81","79.99","EUREKA A","2401203","2019-05-18 14:00","2019","05","18","14:00","-5.3","","-10.4","","68","","","","29","","15","","24.1","","102.94","","","","-11","","NA"
"-85.81","79.99","EUREKA A","2401203","2019-05-18 15:00","2019","05","18","15:00","-5.8","","-11.0","","67","","","","36","","14","","24.1","","102.93","","","","-11","","Mainly Clear"
"-85.81","79.99","EUREKA A","2401203","2019-05-18 16:00","2019","05","18","16:00","-6.0","","-10.7","","70","","","","34","","13","","24.1","","102.93","","","","-11","","NA"
"-85.81","79.99","EUREKA A","2401203","2019-05-18 17:00","2019","05","18","17:00","-6.9","","-11.4","","71","","","","35","","19","","24.1","","102.92","","","","-14","","NA"
"-85.81","79.99","EUREKA A","2401203","2019-05-18 18:00","2019","05","18","18:00","-7.3","","-11.3","","73","","","","1","","19","","24.1","","102.92","","","","-14","","Mostly Cloudy"
"-85.81","79.99","EUREKA A","2401203","2019-05-18 19:00","2019","05","18","19:00","-6.3","","-10.8","","71","","","","35","","13","","24.1","","102.92","","","","-12","","NA"
"-85.81","79.99","EUREKA A","2401203","2019-05-18 20:00","2019","05","18","20:00","-6.8","","-11.2","","71","","","","35","","13","","24.1","","102.90","","","","-12","","NA"
"-85.81","79.99","EUREKA A","2401203","2019-05-18 21:00","2019","05","18","21:00","-7.8","","-11.8","","73","","","","36","","16","","24.1","","102.90","","","","-14","","Cloudy"
"-85.81","79.99","EUREKA A","2401203","2019-05-18 22:00","2019","05","18","22:00"
"-85.81","79.99","EUREKA A","2401203","2019-05-18 23:00","2019","05","18","23:00"
"-85.81","79.99","EUREKA A","2401203","2019-05-19 00:00","2019","05","19","00:00","-8.5","","-10.5","","85","","","","34","","5","","3.2","","102.88","","","","-11","","Snow"
"-85.81","79.99","EUREKA A","2401203","2019-05-19 01:00","2019","05","19","01:00","-8.3","","-10.7","","83","","","","33","","14","","24.1","","102.86","","","","-14","","Snow,Blowing Snow"
"-85.81","79.99","EUREKA A","2401203","2019-05-19 02:00","2019","05","19","02:00","-8.6","","-11.0","","83","","","","32","","11","","24.1","","102.87","","","","-14","","NA"
"-85.81","79.99","EUREKA A","2401203","2019-05-19 03:00","2019","05","19","03:00","-8.4","","-11.0","","81","","","","29","","14","","24.1","","102.87","","","","-15","","Mostly Cloudy"
"-85.81","79.99","EUREKA A","2401203","2019-05-19 04:00","2019","05","19","04:00","-8.5","","-11.3","","80","","","","29","","19","","24.1","","102.86","","","","-16","","NA"
"-85.81","79.99","EUREKA A","2401203","2019-05-19 05:00","2019","05","19","05:00","-8.0","","-11.2","","77","","","","31","","12","","24.1","","102.88","","","","-13","","NA"
"-85.81","79.99","EUREKA A","2401203","2019-05-19 06:00","2019","05","19","06:00","-7.6","","-11.4","","74","","","","29","","17","","24.1","","102.87","","","","-14","","Mostly Cloudy"
"-85.81","79.99","EUREKA A","2401203","2019-05-19 07:00","2019","05","19","07:00","-7.5","","-11.6","","72","","","","29","","17","","24.1","","102.84","","","","-14","","NA"
"-85.81","79.99","EUREKA A","2401203","2019-05-19 08:00","2019","05","19","08:00","-6.8","","-11.4","","70","","","","29","","18","","24.1","","102.82","","","","-13","","NA"
"-85.81","79.99","EUREKA A","2401203","2019-05-19 09:00","2019","05","19","09:00","-6.6","","-11.2","","70","","","","27","","19","","24.1","","102.82","","","","-13","","Mostly Cloudy"
"-85.81","79.99","EUREKA A","2401203","2019-05-19 10:00","2019","05","19","10:00","-5.7","","-10.6","","69","","","","29","","5","","24.1","","102.77","","","","-8","","NA"
"-85.81","79.99","EUREKA A","2401203","2019-05-19 11:00","2019","05","19","11:00","-5.7","","-10.5","","69","","","","29","","13","","24.1","","102.75","","","","-11","","NA"
"-85.81","79.99","EUREKA A","2401203","2019-05-19 12:00","2019","05","19","12:00","-5.3","","-9.8","","71","","","","29","","17","","24.1","","102.75","","","","-11","","Mainly Clear"
"-85.81","79.99","EUREKA A","2401203","2019-05-19 13:00","2019","05","19","13:00","-4.7","","-10.2","","65","","","","29","","8","","24.1","","102.75","","","","-8","","NA"
"-85.81","79.99","EUREKA A","2401203","2019-05-19 14:00","2019","05","19","14:00","-4.1","","-9.8","","65","","","","27","","5","","24.1","","102.73","","","","-6","","NA"
"-85.81","79.99","EUREKA A","2401203","2019-05-19 15:00","2019","05","19","15:00","-4.4","","-9.2","","69","","","","19","","8","","24.1","","102.73","","","","-8","","Mainly Clear"
"-85.81","79.99","EUREKA A","2401203","2019-05-19 16:00","2019","05","19","16:00","-4.0","","-9.9","","64","","","","25","","10","","24.1","","102.73","","","","-8","","NA"
"-85.81","79.99","EUREKA A","2401203","2019-05-19 17:00","2019","05","19","17:00","-3.9","","-10.2","","62","","","","28","","5","","24.1","","102.72","","","","-6","","NA"
"-85.81","79.99","EUREKA A","2401203","2019-05-19 18:00","2019","05","19","18:00","-4.5","","-9.5","","68","","","","29","","4","","24.1","","102.72","","","","-6","","Clear"
"-85.81","79.99","EUREKA A","2401203","2019-05-19 19:00","2019","05","19","19:00","-4.2","","-10.0","","64","","","","36","","2","","24.1","","102.72","","","","-5","","NA"
"-85.81","79.99","EUREKA A","2401203","2019-05-19 20:00","2019","05","19","20:00","-4.9","","-9.8","","69","","","","36","","2","","24.1","","102.71","","","","-6","","NA"
"-85.81","79.99","EUREKA A","2401203","2019-05-19 21:00","2019","05","19","21:00","-5.4","","-10.2","","69","","","","27","","6","","24.1","","102.72","","","","-8","","Mainly Clear"
"-85.81","79.99","EUREKA A","2401203","2019-05-19 22:00","2019","05","19","22:00"
"-85.81","79.99","EUREKA A","2401203","2019-05-19 23:00","2019","05","19","23:00"
"-85.81","79.99","EUREKA A","2401203","2019-05-20 00:00","2019","05","20","00:00","-6.4","","-10.4","","73","","","","36","","2","","24.1","","102.75","","","","-7","","Mostly Cloudy"
"-85.81","79.99","EUREKA A","2401203","2019-05-20 01:00","2019","05","20","01:00","-6.0","","-9.0","","79","","","","36","","12","","24.1","","102.76","","","","-11","","NA"
"-85.81","79.99","EUREKA A","2401203","2019-05-20 02:00","2019","05","20","02:00","-8.0","","-9.7","","87","","","","36","","21","","24.1","","102.76","","","","-16","","NA"
"-85.81","79.99","EUREKA A","2401203","2019-05-20 03:00","2019","05","20","03:00","-6.8","","-9.0","","85","","","","36","","13","","24.1","","102.78","","","","-12","","Mostly Cloudy"
"-85.81","79.99","EUREKA A","2401203","2019-05-20 04:00","2019","05","20","04:00","-8.4","","-10.6","","84","","","","34","","8","","24.1","","102.81","","","","-13","","NA"
"-85.81","79.99","EUREKA A","2401203","2019-05-20 05:00","2019","05","20","05:00","-7.6","","-10.1","","83","","","","14","","8","","24.1","","102.80","","","","-12","","NA"
"-85.81","79.99","EUREKA A","2401203","2019-05-20 06:00","2019","05","20","06:00","-6.7","","-9.7","","79","","","","14","","6","","24.1","","102.83","","","","-10","","Mostly Cloudy"
"-85.81","79.99","EUREKA A","2401203","2019-05-20 07:00","2019","05","20","07:00","-6.5","","-9.4","","79","","","","16","","4","","24.1","","102.83","","","","-8","","NA"
"-85.81","79.99","EUREKA A","2401203","2019-05-20 08:00","2019","05","20","08:00","-6.0","","-9.4","","77","","","","18","","6","","24.1","","102.84","","","","-9","","NA"
"-85.81","79.99","EUREKA A","2401203","2019-05-20 09:00","2019","05","20","09:00","-5.7","","-9.4","","75","","","","18","","4","","24.1","","102.85","","","","-8","","Clear"
"-85.81","79.99","EUREKA A","2401203","2019-05-20 10:00","2019","05","20","10:00","-5.4","","-9.2","","75","","","","17","","7","","24.1","","102.85","","","","-9","","NA"
"-85.81","79.99","EUREKA A","2401203","2019-05-20 11:00","2019","05","20","11:00","-4.5","","-9.3","","69","","","","26","","4","","24.1","","102.86","","","","-6","","NA"
"-85.81","79.99","EUREKA A","2401203","2019-05-20 12:00","2019","05","20","12:00","-4.3","","-8.9","","71","","","","29","","9","","24.1","","102.87","","","","-8","","Mainly Clear"
"-85.81","79.99","EUREKA A","2401203","2019-05-20 13:00","2019","05","20","13:00","-3.8","","-9.2","","66","","","","34","","7","","24.1","","102.86","","","","-7","","NA"
"-85.81","79.99","EUREKA A","2401203","2019-05-20 14:00","2019","05","20","14:00","-3.9","","-9.5","","65","","","","32","","7","","24.1","","102.86","","","","-7","","NA"
"-85.81","79.99","EUREKA A","2401203","2019-05-20 15:00","2019","05","20","15:00","-4.3","","-9.6","","67","","","","33","","9","","24.1","","102.87","","","","-8","","Mainly Clear"
"-85.81","79.99","EUREKA A","2401203","2019-05-20 16:00","2019","05","20","16:00","-4.1","","-9.5","","66","","","","36","","11","","24.1","","102.88","","","","-9","","NA"
"-85.81","79.99","EUREKA A","2401203","2019-05-20 17:00","2019","05","20","17:00","-4.4","","-9.3","","69","","","","1","","13","","24.1","","102.89","","","","-9","","NA"
"-85.81","79.99","EUREKA A","2401203","2019-05-20 18:00","2019","05","20","18:00","-5.1","","-9.9","","69","","","","36","","14","","24.1","","102.91","","","","-10","","Clear"
"-85.81","79.99","EUREKA A","2401203","2019-05-20 19:00","2019","05","20","19:00","-5.4","","-9.8","","71","","","","36","","12","","24.1","","102.92","","","","-10","","NA"
"-85.81","79.99","EUREKA A","2401203","2019-05-20 20:00","2019","05","20","20:00","-6.0","","-9.7","","75","","","","35","","15","","24.1","","102.94","","","","-12","","NA"
"-85.81","79.99","EUREKA A","2401203","2019-05-20 21:00","2019","05","20","21:00","-6.8","","-9.6","","81","","","","36","","15","","24.1","","102.93","","","","-13","","Clear"
"-85.81","79.99","EUREKA A","2401203","2019-05-20 22:00","2019","05","20","22:00"
"-85.81","79.99","EUREKA A","2401203","2019-05-20 23:00","2019","05","20","23:00"
"-85.81","79.99","EUREKA A","2401203","2019-05-21 00:00","2019","05","21","00:00","-8.6","","-11.0","","83","","","","36","","14","","24.1","","102.98","","","","-15","","Clear"
"-85.81","79.99","EUREKA A","2401203","2019-05-21 01:00","2019","05","21","01:00","-9.0","","-11.6","","81","","","","32","","8","","24.1","","103.01","","","","-13","","NA"
"-85.81","79.99","EUREKA A","2401203","2019-05-21 02:00","2019","05","21","02:00","-9.3","","-11.6","","83","","","","30","","11","","24.1","","103.02","","","","-15","","NA"
"-85.81","79.99","EUREKA A","2401203","2019-05-21 03:00","2019","05","21","03:00","-9.8","","-12.3","","82","","","","31","","11","","24.1","","103.04","","","","-15","","Clear"
"-85.81","79.99","EUREKA A","2401203","2019-05-21 04:00","2019","05","21","04:00","-8.6","","-11.5","","80","","","","35","","3","","24.1","","103.07","","","","-10","","NA"
"-85.81","79.99","EUREKA A","2401203","2019-05-21 05:00","2019","05","21","05:00","-8.2","","-10.1","","87","","","","28","","9","","3.2","","103.08","","","","-13","","Fog"
"-85.81","79.99","EUREKA A","2401203","2019-05-21 06:00","2019","05","21","06:00","-8.3","","-9.9","","89","","","","28","","16","","3.2","","103.09","","","","-15","","Fog"
"-85.81","79.99","EUREKA A","2401203","2019-05-21 07:00","2019","05","21","07:00","-8.2","","-9.8","","88","","","","27","","19","","24.1","","103.09","","","","-15","","NA"
"-85.81","79.99","EUREKA A","2401203","2019-05-21 08:00","2019","05","21","08:00","-7.3","","-9.7","","84","","","","28","","13","","24.1","","103.10","","","","-13","","NA"
"-85.81","79.99","EUREKA A","2401203","2019-05-21 09:00","2019","05","21","09:00","-6.8","","-9.4","","82","","","","28","","16","","24.1","","103.11","","","","-13","","Clear"
"-85.81","79.99","EUREKA A","2401203","2019-05-21 10:00","2019","05","21","10:00","-6.2","","-9.2","","79","","","","27","","18","","24.1","","103.10","","","","-13","","NA"
"-85.81","79.99","EUREKA A","2401203","2019-05-21 11:00","2019","05","21","11:00","-5.2","","-8.9","","75","","","","27","","18","","24.1","","103.10","","","","-11","","NA"
"-85.81","79.99","EUREKA A","2401203","2019-05-21 12:00","2019","05","21","12:00","-4.0","","-8.1","","73","","","","26","","13","","24.1","","103.09","","","","-9","","Clear"
"-85.81","79.99","EUREKA A","2401203","2019-05-21 13:00","2019","05","21","13:00","-3.6","","-8.4","","70","","","","27","","13","","24.1","","103.09","","","","-8","","NA"
"-85.81","79.99","EUREKA A","2401203","2019-05-21 14:00","2019","05","21","14:00","-2.9","","-8.5","","65","","","","2","","20","","24.1","","103.11","","","","-9","","NA"
"-85.81","79.99","EUREKA A","2401203","2019-05-21 15:00","2019","05","21","15:00","-2.4","","-8.9","","61","","","","1","","23","","24.1","","103.11","","","","-9","","Clear"
"-85.81","79.99","EUREKA A","2401203","2019-05-21 16:00","2019","05","21","16:00","-2.7","","-8.9","","63","","","","36","","19","","24.1","","103.12","","","","-8","","NA"
"-85.81","79.99","EUREKA A","2401203","2019-05-21 17:00","2019","05","21","17:00","-4.2","","-8.7","","71","","","","29","","18","","24.1","","103.13","","","","-10","","NA"
"-85.81","79.99","EUREKA A","2401203","2019-05-21 18:00","2019","05","21","18:00","-3.8","","-9.1","","67","","","","1","","20","","24.1","","103.14","","","","-10","","Clear"
"-85.81","79.99","EUREKA A","2401203","2019-05-21 19:00","2019","05","21","19:00","-4.3","","-9.2","","69","","","","32","","16","","24.1","","103.16","","","","-10","","NA"
"-85.81","79.99","EUREKA A","2401203","2019-05-21 20:00","2019","05","21","20:00","-4.6","","-9.7","","68","","","","1","","23","","24.1","","103.16","","","","-12","","NA"
"-85.81","79.99","EUREKA A","2401203","2019-05-21 21:00","2019","05","21","21:00","-5.3","","-10.1","","69","","","","34","","18","","24.1","","103.18","","","","-12","","Clear"
"-85.81","79.99","EUREKA A","2401203","2019-05-21 22:00","2019","05","21","22:00"
"-85.81","79.99","EUREKA A","2401203","2019-05-21 23:00","2019","05","21","23:00"
"-85.81","79.99","EUREKA A","2401203","2019-05-22 00:00","2019","05","22","00:00","-7.5","","-10.5","","79","","","","36","","3","","24.1","","103.21","","","","-9","","Clear"
"-85.81","79.99","EUREKA A","2401203","2019-05-22 01:00","2019","05","22","01:00","-7.8","","-11.1","","77","","","","36","","2","","24.1","","103.22","","","","-9","","NA"
"-85.81","79.99","EUREKA A","2401203","2019-05-22 02:00","2019","05","22","02:00","-8.5","","-12.1","","75","","","","0","","1","","24.1","","103.23","","","","-9","","NA"
"-85.81","79.99","EUREKA A","2401203","2019-05-22 03:00","2019","05","22","03:00","-7.8","","-11.3","","76","","","","1","","7","","24.1","","103.24","","","","-11","","Clear"
"-85.81","79.99","EUREKA A","2401203","2019-05-22 04:00","2019","05","22","04:00","-7.5","","-11.2","","75","","","","35","","3","","24.1","","103.24","","","","-9","","NA"
"-85.81","79.99","EUREKA A","2401203","2019-05-22 05:00","2019","05","22","05:00","-8.3","","-11.7","","77","","","","15","","8","","24.1","","103.26","","","","-12","","NA"
"-85.81","79.99","EUREKA A","2401203","2019-05-22 06:00","2019","05","22","06:00","-7.3","","-11.1","","75","","","","0","","1","","24.1","","103.25","","","","-8","","Clear"
"-85.81","79.99","EUREKA A","2401203","2019-05-22 07:00","2019","05","22","07:00","-7.0","","-11.0","","73","","","","24","","3","","24.1","","103.24","","","","-9","","NA"
"-85.81","79.99","EUREKA A","2401203","2019-05-22 08:00","2019","05","22","08:00","-6.4","","-10.8","","71","","","","22","","4","","24.1","","103.24","","","","-8","","NA"
"-85.81","79.99","EUREKA A","2401203","2019-05-22 09:00","2019","05","22","09:00","-6.2","","-10.5","","71","","","","20","","3","","24.1","","103.20","","","","-8","","Clear"
"-85.81","79.99","EUREKA A","2401203","2019-05-22 10:00","2019","05","22","10:00","-5.4","","-10.0","","70","","","","18","","9","","24.1","","103.19","","","","-9","","NA"
"-85.81","79.99","EUREKA A","2401203","2019-05-22 11:00","2019","05","22","11:00","-5.0","","-9.9","","69","","","","17","","5","","24.1","","103.16","","","","-7","","NA"
"-85.81","79.99","EUREKA A","2401203","2019-05-22 12:00","2019","05","22","12:00","-4.1","","-9.3","","67","","","","21","","4","","24.1","","103.14","","","","-6","","Clear"
"-85.81","79.99","EUREKA A","2401203","2019-05-22 13:00","2019","05","22","13:00","-3.5","","-8.9","","66","","","","20","","5","","24.1","","103.12","","","","-6","","NA"
"-85.81","79.99","EUREKA A","2401203","2019-05-22 14:00","2019","05","22","14:00","-2.9","","-8.4","","66","","","","22","","4","","24.1","","103.11","","","","-4","","NA"
"-85.81","79.99","EUREKA A","2401203","2019-05-22 15:00","2019","05","22","15:00","-3.2","","-8.5","","67","","","","20","","7","","24.1","","103.11","","","","-6","","Clear"
"-85.81","79.99","EUREKA A","2401203","2019-05-22 16:00","2019","05","22","16:00","-3.0","","-8.6","","66","","","","15","","5","","24.1","","103.09","","","","-5","","NA"
"-85.81","79.99","EUREKA A","2401203","2019-05-22 17:00","2019","05","22","17:00","-2.1","","-8.4","","62","","","","36","","2","","24.1","","103.08","","","","-3","","NA"
"-85.81","79.99","EUREKA A","2401203","2019-05-22 18:00","2019","05","22","18:00","-3.1","","-8.2","","68","","","","21","","6","","24.1","","103.06","","","","-6","","Clear"
"-85.81","79.99","EUREKA A","2401203","2019-05-22 19:00","2019","05","22","19:00","-3.3","","-8.4","","68","","","","36","","3","","24.1","","103.04","","","","-5","","NA"
"-85.81","79.99","EUREKA A","2401203","2019-05-22 20:00","2019","05","22","20:00","-3.4","","-8.4","","69","","","","24","","6","","24.1","","103.01","","","","-6","","NA"
"-85.81","79.99","EUREKA A","2401203","2019-05-22 21:00","2019","05","22","21:00","-4.5","","-9.2","","70","","","","6","","3","","24.1","","103.01","","","","-6","","Clear"
"-85.81","79.99","EUREKA A","2401203","2019-05-22 22:00","2019","05","22","22:00"
"-85.81","79.99","EUREKA A","2401203","2019-05-22 23:00","2019","05","22","23:00"
"-85.81","79.99","EUREKA A","2401203","2019-05-23 00:00","2019","05","23","00:00","-6.0","","-10.4","","71","","","","11","","3","","24.1","","102.97","","","","-7","","Clear"
"-85.81","79.99","EUREKA A","2401203","2019-05-23 01:00","2019","05","23","01:00","-6.2","","-10.4","","72","","","","8","","3","","24.1","","102.95","","","","-8","","NA"
"-85.81","79.99","EUREKA A","2401203","2019-05-23 02:00","2019","05","23","02:00","-6.1","","-10.4","","72","","","","4","","4","","24.1","","102.94","","","","-8","","NA"
"-85.81","79.99","EUREKA A","2401203","2019-05-23 03:00","2019","05","23","03:00","-6.4","","-10.7","","72","","","","36","","1","","24.1","","102.91","","","","-7","","Clear"
"-85.81","79.99","EUREKA A","2401203","2019-05-23 04:00","2019","05","23","04:00","-6.0","","-10.3","","71","","","","36","","3","","24.1","","102.89","","","","-7","","NA"
"-85.81","79.99","EUREKA A","2401203","2019-05-23 05:00","2019","05","23","05:00","-6.0","","-10.4","","71","","","","18","","5","","24.1","","102.87","","","","-8","","NA"
"-85.81","79.99","EUREKA A","2401203","2019-05-23 06:00","2019","05","23","06:00","-5.2","","-10.0","","69","","","","10","","3","","24.1","","102.86","","","","-7","","Clear"
"-85.81","79.99","EUREKA A","2401203","2019-05-23 07:00","2019","05","23","07:00","-4.8","","-9.6","","69","","","","32","","5","","24.1","","102.83","","","","-7","","NA"
"-85.81","79.99","EUREKA A","2401203","2019-05-23 08:00","2019","05","23","08:00","-4.6","","-9.8","","67","","","","14","","3","","24.1","","102.79","","","","-6","","NA"
"-85.81","79.99","EUREKA A","2401203","2019-05-23 09:00","2019","05","23","09:00","-4.1","","-9.4","","67","","","","17","","8","","24.1","","102.74","","","","-8","","Clear"
"-85.81","79.99","EUREKA A","2401203","2019-05-23 10:00","2019","05","23","10:00","-3.7","","-9.5","","64","","","","19","","7","","24.1","","102.69","","","","-7","","NA"
"-85.81","79.99","EUREKA A","2401203","2019-05-23 11:00","2019","05","23","11:00","-3.1","","-8.9","","64","","","","17","","7","","24.1","","102.64","","","","-6","","NA"
"-85.81","79.99","EUREKA A","2401203","2019-05-23 12:00","2019","05","23","12:00","-2.2","","-8.6","","62","","","","36","","3","","24.1","","102.59","","","","-3","","Clear"
"-85.81","79.99","EUREKA A","2401203","2019-05-23 13:00","2019","05","23","13:00","-1.9","","-8.3","","62","","","","16","","6","","24.1","","102.54","","","","-4","","NA"
"-85.81","79.99","EUREKA A","2401203","2019-05-23 14:00","2019","05","23","14:00","-1.8","","-8.3","","62","","","","14","","6","","24.1","","102.52","","","","-4","","NA"
"-85.81","79.99","EUREKA A","2401203","2019-05-23 15:00","2019","05","23","15:00","-1.6","","-8.1","","62","","","","17","","8","","24.1","","102.46","","","","-5","","Clear"
"-85.81","79.99","EUREKA A","2401203","2019-05-23 16:00","2019","05","23","16:00","-1.5","","-8.0","","61","","","","36","","3","","24.1","","102.41","","","","-3","","NA"
"-85.81","79.99","EUREKA A","2401203","2019-05-23 17:00","2019","05","23","17:00","-1.1","","-7.6","","61","","","","36","","1","","24.1","","102.37","","","","-1","","NA"
"-85.81","79.99","EUREKA A","2401203","2019-05-23 18:00","2019","05","23","18:00","-1.0","","-7.8","","60","","","","36","","3","","24.1","","102.33","","","","-2","","Clear"
"-85.81","79.99","EUREKA A","2401203","2019-05-23 19:00","2019","05","23","19:00","-1.3","","-7.3","","64","","","","19","","5","","24.1","","102.29","","","","-3","","NA"
"-85.81","79.99","EUREKA A","2401203","2019-05-23 20:00","2019","05","23","20:00","-1.9","","-7.4","","66","","","","12","","7","","24.1","","102.26","","","","-5","","NA"
"-85.81","79.99","EUREKA A","2401203","2019-05-23 21:00","2019","05","23","21:00","-2.3","","-7.7","","66","","","","36","","3","","24.1","","102.24","","","","-3","","Clear"
"-85.81","79.99","EUREKA A","2401203","2019-05-23 22:00","2019","05","23","22:00"
"-85.81","79.99","EUREKA A","2401203","2019-05-23 23:00","2019","05","23","23:00"
"-85.81","79.99","EUREKA A","2401203","2019-05-24 00:00","2019","05","24","00:00","-4.6","","-8.6","","73","","","","4","","5","","24.1","","102.15","","","","-7","","Clear"
"-85.81","79.99","EUREKA A","2401203","2019-05-24 01:00","2019","05","24","01:00","-4.5","","-8.2","","76","","","","2","","10","","24.1","","102.14","","","","-9","","NA"
"-85.81","79.99","EUREKA A","2401203","2019-05-24 02:00","2019","05","24","02:00","-4.4","","-8.4","","74","","","","36","","3","","24.1","","102.11","","","","-6","","NA"
"-85.81","79.99","EUREKA A","2401203","2019-05-24 03:00","2019","05","24","03:00","-5.2","","-8.7","","77","","","","14","","7","","24.1","","102.10","","","","-8","","Clear"
"-85.81","79.99","EUREKA A","2401203","2019-05-24 04:00","2019","05","24","04:00","-4.5","","-8.4","","74","","","","16","","4","","24.1","","102.08","","","","-6","","NA"
"-85.81","79.99","EUREKA A","2401203","2019-05-24 05:00","2019","05","24","05:00","-3.9","","-7.9","","74","","","","36","","2","","24.1","","102.04","","","","-5","","NA"
"-85.81","79.99","EUREKA A","2401203","2019-05-24 06:00","2019","05","24","06:00","-4.2","","-8.4","","73","","","","15","","8","","24.1","","102.03","","","","-8","","Clear"
"-85.81","79.99","EUREKA A","2401203","2019-05-24 07:00","2019","05","24","07:00","-2.9","","-8.0","","68","","","","16","","5","","24.1","","102.01","","","","-5","","NA"
"-85.81","79.99","EUREKA A","2401203","2019-05-24 08:00","2019","05","24","08:00","-2.2","","-7.7","","66","","","","15","","3","","24.1","","101.99","","","","-3","","NA"
"-85.81","79.99","EUREKA A","2401203","2019-05-24 09:00","2019","05","24","09:00","-1.8","","-7.4","","66","","","","17","","8","","24.1","","101.95","","","","-5","","Mainly Clear"
"-85.81","79.99","EUREKA A","2401203","2019-05-24 10:00","2019","05","24","10:00","-0.6","","-7.1","","61","","","","29","","3","","24.1","","101.90","","","","-2","","NA"
"-85.81","79.99","EUREKA A","2401203","2019-05-24 11:00","2019","05","24","11:00","-0.5","","-6.7","","63","","","","18","","8","","24.1","","101.87","","","","-3","","NA"
"-85.81","79.99","EUREKA A","2401203","2019-05-24 12:00","2019","05","24","12:00","0.6","","-6.0","","61","","","","22","","7","","24.1","","101.83","","","","","","Clear"
"-85.81","79.99","EUREKA A","2401203","2019-05-24 13:00","2019","05","24","13:00","3.2","","-6.2","","50","","","","36","","10","","24.1","","101.80","","","","","","NA"
"-85.81","79.99","EUREKA A","2401203","2019-05-24 14:00","2019","05","24","14:00","3.0","","-6.1","","52","","","","36","","18","","24.1","","101.79","","","","","","NA"
"-85.81","79.99","EUREKA A","2401203","2019-05-24 15:00","2019","05","24","15:00","3.3","","-6.2","","50","","","","1","","16","","24.1","","101.75","","","","","","Mainly Clear"
"-85.81","79.99","EUREKA A","2401203","2019-05-24 16:00","2019","05","24","16:00","2.0","","-6.0","","55","","","","1","","21","","24.1","","101.73","","","","","","NA"
"-85.81","79.99","EUREKA A","2401203","2019-05-24 17:00","2019","05","24","17:00","1.8","","-5.5","","58","","","","27","","10","","24.1","","101.69","","","","","","NA"
"-85.81","79.99","EUREKA A","2401203","2019-05-24 18:00","2019","05","24","18:00","2.3","","-6.4","","53","","","","31","","5","","24.1","","101.70","","","","","","Clear"
"-85.81","79.99","EUREKA A","2401203","2019-05-24 19:00","2019","05","24","19:00","0.5","","-6.5","","60","","","","28","","11","","24.1","","101.71","","","","","","NA"
"-85.81","79.99","EUREKA A","2401203","2019-05-24 20:00","2019","05","24","20:00","-1.4","","-5.5","","74","","","","14","","11","","24.1","","101.69","","","","-5","","NA"
"-85.81","79.99","EUREKA A","2401203","2019-05-24 21:00","2019","05","24","21:00","-2.1","","-6.1","","74","","","","14","","11","","24.1","","101.67","","","","-6","","Clear"
"-85.81","79.99","EUREKA A","2401203","2019-05-24 22:00","2019","05","24","22:00"
"-85.81","79.99","EUREKA A","2401203","2019-05-24 23:00","2019","05","24","23:00"
"-85.81","79.99","EUREKA A","2401203","2019-05-25 00:00","2019","05","25","00:00","-3.5","","-6.8","","78","","","","14","","10","","24.1","","101.65","","","","-7","","Mainly Clear"
"-85.81","79.99","EUREKA A","2401203","2019-05-25 01:00","2019","05","25","01:00","-3.4","","-7.0","","76","","","","14","","10","","24.1","","101.65","","","","-7","","NA"
"-85.81","79.99","EUREKA A","2401203","2019-05-25 02:00","2019","05","25","02:00","-3.2","","-7.0","","75","","","","36","","1","","24.1","","101.63","","","","-4","","NA"
"-85.81","79.99","EUREKA A","2401203","2019-05-25 03:00","2019","05","25","03:00","-3.3","","-7.0","","75","","","","15","","4","","24.1","","101.61","","","","-5","","Mostly Cloudy"
"-85.81","79.99","EUREKA A","2401203","2019-05-25 04:00","2019","05","25","04:00","-3.6","","-7.4","","75","","","","14","","16","","24.1","","101.61","","","","-9","","NA"
"-85.81","79.99","EUREKA A","2401203","2019-05-25 05:00","2019","05","25","05:00","-1.9","","-6.7","","70","","","","3","","4","","24.1","","101.56","","","","-3","","NA"
"-85.81","79.99","EUREKA A","2401203","2019-05-25 06:00","2019","05","25","06:00","-3.0","","-7.0","","74","","","","16","","9","","24.1","","101.58","","","","-7","","Mainly Clear"
"-85.81","79.99","EUREKA A","2401203","2019-05-25 07:00","2019","05","25","07:00","-1.7","","-6.9","","68","","","","15","","6","","24.1","","101.55","","","","-4","","NA"
"-85.81","79.99","EUREKA A","2401203","2019-05-25 08:00","2019","05","25","08:00","-1.1","","-6.5","","67","","","","14","","8","","24.1","","101.51","","","","-4","","NA"
"-85.81","79.99","EUREKA A","2401203","2019-05-25 09:00","2019","05","25","09:00","-0.1","","-6.1","","64","","","","17","","3","","24.1","","101.46","","","","-1","","Clear"
"-85.81","79.99","EUREKA A","2401203","2019-05-25 10:00","2019","05","25","10:00","0.9","","-5.4","","63","","","","36","","2","","24.1","","101.42","","","","","","NA"
"-85.81","79.99","EUREKA A","2401203","2019-05-25 11:00","2019","05","25","11:00","0.9","","-5.4","","63","","","","21","","3","","24.1","","101.38","","","","","","NA"
"-85.81","79.99","EUREKA A","2401203","2019-05-25 12:00","2019","05","25","12:00","1.5","","-5.7","","59","","","","23","","7","","24.1","","101.34","","","","","","Clear"
"-85.81","79.99","EUREKA A","2401203","2019-05-25 13:00","2019","05","25","13:00","2.0","","-5.4","","58","","","","25","","9","","24.1","","101.29","","","","","","NA"
"-85.81","79.99","EUREKA A","2401203","2019-05-25 14:00","2019","05","25","14:00","2.2","","-4.3","","62","","","","25","","10","","24.1","","101.24","","","","","","NA"
"-85.81","79.99","EUREKA A","2401203","2019-05-25 15:00","2019","05","25","15:00","4.2","","-4.5","","53","","","","5","","5","","24.1","","101.21","","","","","","Clear"
"-85.81","79.99","EUREKA A","2401203","2019-05-25 16:00","2019","05","25","16:00","4.7","","-4.1","","53","","","","2","","7","","24.1","","101.16","","","","","","NA"
"-85.81","79.99","EUREKA A","2401203","2019-05-25 17:00","2019","05","25","17:00","4.9","","-3.9","","53","","","","2","","9","","24.1","","101.11","","","","","","NA"
"-85.81","79.99","EUREKA A","2401203","2019-05-25 18:00","2019","05","25","18:00","3.7","","-3.6","","59","","","","16","","9","","80.5","","101.04","","","","","","Mainly Clear"
"-85.81","79.99","EUREKA A","2401203","2019-05-25 19:00","2019","05","25","19:00","3.8","","-3.9","","57","","","","2","","13","","24.1","","101.04","","","","","","NA"
"-85.81","79.99","EUREKA A","2401203","2019-05-25 20:00","2019","05","25","20:00","3.3","","-4.1","","58","","","","8","","3","","24.1","","101.02","","","","","","NA"
"-85.81","79.99","EUREKA A","2401203","2019-05-25 21:00","2019","05","25","21:00","2.6","","-3.3","","65","","","","3","","3","","24.1","","100.99","","","","","","Mainly Clear"
"-85.81","79.99","EUREKA A","2401203","2019-05-25 22:00","2019","05","25","22:00"
"-85.81","79.99","EUREKA A","2401203","2019-05-25 23:00","2019","05","25","23:00"
"-85.81","79.99","EUREKA A","2401203","2019-05-26 00:00","2019","05","26","00:00","-0.1","","-4.8","","71","","","","30","","11","","24.1","","100.95","","","","-4","","Mostly Cloudy"
"-85.81","79.99","EUREKA A","2401203","2019-05-26 01:00","2019","05","26","01:00","0.8","","-4.6","","67","","","","30","","8","","24.1","","100.96","","","","","","NA"
"-85.81","79.99","EUREKA A","2401203","2019-05-26 02:00","2019","05","26","02:00","0.9","","-4.9","","65","","","","29","","10","","24.1","","100.97","","","","","","NA"
"-85.81","79.99","EUREKA A","2401203","2019-05-26 03:00","2019","05","26","03:00","0.8","","-5.0","","65","","","","29","","13","","24.1","","100.97","","","","","","Cloudy"
"-85.81","79.99","EUREKA A","2401203","2019-05-26 04:00","2019","05","26","04:00","-0.5","","-4.5","","74","","","","28","","3","","24.1","","101.00","","","","-1","","NA"
"-85.81","79.99","EUREKA A","2401203","2019-05-26 05:00","2019","05","26","05:00","0.4","","-5.1","","66","","","","25","","13","","24.1","","101.03","","","","","","NA"
"-85.81","79.99","EUREKA A","2401203","2019-05-26 06:00","2019","05","26","06:00","0.7","","-4.8","","67","","","","25","","9","","24.1","","101.07","","","","","","Mostly Cloudy"
"-85.81","79.99","EUREKA A","2401203","2019-05-26 07:00","2019","05","26","07:00","1.4","","-4.4","","65","","","","17","","6","","24.1","","101.10","","","","","","NA"
"-85.81","79.99","EUREKA A","2401203","2019-05-26 08:00","2019","05","26","08:00","2.4","","-3.8","","63","","","","17","","7","","24.1","","101.12","","","","","","NA"
"-85.81","79.99","EUREKA A","2401203","2019-05-26 09:00","2019","05","26","09:00","2.2","","-3.9","","64","","","","15","","14","","24.1","","101.14","","","","","","Mostly Cloudy"
"-85.81","79.99","EUREKA A","2401203","2019-05-26 10:00","2019","05","26","10:00","2.6","","-3.8","","63","","","","16","","13","","24.1","","101.16","","","","","","NA"
"-85.81","79.99","EUREKA A","2401203","2019-05-26 11:00","2019","05","26","11:00","4.5","","-4.0","","54","","","","14","","15","","24.1","","101.18","","","","","","NA"
"-85.81","79.99","EUREKA A","2401203","2019-05-26 12:00","2019","05","26","12:00","3.7","","-3.2","","61","","","","14","","9","","24.1","","101.20","","","","","","Mostly Cloudy"
"-85.81","79.99","EUREKA A","2401203","2019-05-26 13:00","2019","05","26","13:00","4.6","","-3.0","","58","","","","14","","10","","24.1","","101.22","","","","","","NA"
"-85.81","79.99","EUREKA A","2401203","2019-05-26 14:00","2019","05","26","14:00","4.7","","-2.9","","57","","","","14","","11","","24.1","","101.24","","","","","","NA"
"-85.81","79.99","EUREKA A","2401203","2019-05-26 15:00","2019","05","26","15:00","4.7","","-3.0","","57","","","","13","","13","","24.1","","101.27","","","","","","Mostly Cloudy"
"-85.81","79.99","EUREKA A","2401203","2019-05-26 16:00","2019","05","26","16:00","4.9","","-3.0","","57","","","","14","","10","","24.1","","101.29","","","","","","NA"
"-85.81","79.99","EUREKA A","2401203","2019-05-26 17:00","2019","05","26","17:00","5.0","","-4.0","","52","","","","14","","5","","24.1","","101.30","","","","","","NA"
"-85.81","79.99","EUREKA A","2401203","2019-05-26 18:00","2019","05","26","18:00","4.9","","-3.3","","55","","","","36","","3","","24.1","","101.33","","","","","","Cloudy"
"-85.81","79.99","EUREKA A","2401203","2019-05-26 19:00","2019","05","26","19:00","5.0","","-4.3","","51","","","","16","","5","","24.1","","101.35","","","","","","NA"
"-85.81","79.99","EUREKA A","2401203","2019-05-26 20:00","2019","05","26","20:00","4.9","","-4.7","","50","","","","20","","3","","24.1","","101.35","","","","","","NA"
"-85.81","79.99","EUREKA A","2401203","2019-05-26 21:00","2019","05","26","21:00","4.7","","-5.0","","50","","","","0","","1","","24.1","","101.35","","","","","","Cloudy"
"-85.81","79.99","EUREKA A","2401203","2019-05-26 22:00","2019","05","26","22:00"
"-85.81","79.99","EUREKA A","2401203","2019-05-26 23:00","2019","05","26","23:00"
"-85.81","79.99","EUREKA A","2401203","2019-05-27 00:00","2019","05","27","00:00","2.3","","-3.4","","66","","","","36","","1","","24.1","","101.36","","","","","","Mostly Cloudy"
"-85.81","79.99","EUREKA A","2401203","2019-05-27 01:00","2019","05","27","01:00","2.3","","-4.6","","60","","","","26","","5","","24.1","","101.37","","","","","","NA"
"-85.81","79.99","EUREKA A","2401203","2019-05-27 02:00","2019","05","27","02:00","1.1","","-3.8","","70","","","","18","","5","","24.1","","101.39","","","","","","NA"
"-85.81","79.99","EUREKA A","2401203","2019-05-27 03:00","2019","05","27","03:00","1.0","","-4.0","","69","","","","29","","8","","24.1","","101.41","","","","","","Mostly Cloudy"
"-85.81","79.99","EUREKA A","2401203","2019-05-27 04:00","2019","05","27","04:00","1.6","","-3.0","","71","","","","29","","7","","24.1","","101.45","","","","","","NA"
"-85.81","79.99","EUREKA A","2401203","2019-05-27 05:00","2019","05","27","05:00","1.1","","-3.4","","72","","","","24","","7","","24.1","","101.49","","","","","","NA"
"-85.81","79.99","EUREKA A","2401203","2019-05-27 06:00","2019","05","27","06:00","1.4","","-3.8","","68","","","","26","","9","","24.1","","101.52","","","","","","Mostly Cloudy"
"-85.81","79.99","EUREKA A","2401203","2019-05-27 07:00","2019","05","27","07:00","1.9","","-3.8","","66","","","","26","","16","","24.1","","101.55","","","","","","NA"
"-85.81","79.99","EUREKA A","2401203","2019-05-27 08:00","2019","05","27","08:00","1.3","","-3.7","","70","","","","22","","8","","24.1","","101.58","","","","","","NA"
"-85.81","79.99","EUREKA A","2401203","2019-05-27 09:00","2019","05","27","09:00","2.2","","-3.4","","66","","","","21","","3","","24.1","","101.61","","","","","","Cloudy"
"-85.81","79.99","EUREKA A","2401203","2019-05-27 10:00","2019","05","27","10:00","3.1","","-2.6","","66","","","","13","","15","","24.1","","101.63","","","","","","NA"
"-85.81","79.99","EUREKA A","2401203","2019-05-27 11:00","2019","05","27","11:00","3.2","","-2.6","","66","","","","13","","16","","24.1","","101.67","","","","","","NA"
"-85.81","79.99","EUREKA A","2401203","2019-05-27 12:00","2019","05","27","12:00","3.6","","-2.7","","63","","","","14","","17","","24.1","","101.71","","","","","","Cloudy"
"-85.81","79.99","EUREKA A","2401203","2019-05-27 13:00","2019","05","27","13:00","3.9","","-2.8","","62","","","","13","","16","","24.1","","101.75","","","","","","NA"
"-85.81","79.99","EUREKA A","2401203","2019-05-27 14:00","2019","05","27","14:00","4.0","","-2.6","","62","","","","16","","14","","24.1","","101.79","","","","","","NA"
"-85.81","79.99","EUREKA A","2401203","2019-05-27 15:00","2019","05","27","15:00","3.6","","-2.6","","64","","","","15","","16","","24.1","","101.82","","","","","","Cloudy"
"-85.81","79.99","EUREKA A","2401203","2019-05-27 16:00","2019","05","27","16:00","3.6","","-2.8","","63","","","","17","","11","","24.1","","101.86","","","","","","NA"
"-85.81","79.99","EUREKA A","2401203","2019-05-27 17:00","2019","05","27","17:00","3.5","","-3.1","","62","","","","15","","14","","24.1","","101.89","","","","","","NA"
"-85.81","79.99","EUREKA A","2401203","2019-05-27 18:00","2019","05","27","18:00","3.4","","-3.5","","61","","","","14","","12","","24.1","","101.92","","","","","","Cloudy"
"-85.81","79.99","EUREKA A","2401203","2019-05-27 19:00","2019","05","27","19:00","3.2","","-2.9","","64","","","","17","","17","","24.1","","101.95","","","","","","NA"
"-85.81","79.99","EUREKA A","2401203","2019-05-27 20:00","2019","05","27","20:00","2.0","","-3.1","","69","","","","16","","17","","24.1","","101.98","","","","","","NA"
"-85.81","79.99","EUREKA A","2401203","2019-05-27 21:00","2019","05","27","21:00","1.8","","-3.6","","68","","","","12","","13","","24.1","","102.06","","","","","","Cloudy"
"-85.81","79.99","EUREKA A","2401203","2019-05-27 22:00","2019","05","27","22:00"
"-85.81","79.99","EUREKA A","2401203","2019-05-27 23:00","2019","05","27","23:00"
"-85.81","79.99","EUREKA A","2401203","2019-05-28 00:00","2019","05","28","00:00","1.9","","-4.1","","64","","","","14","","12","","24.1","","102.15","","","","","","Mostly Cloudy"
"-85.81","79.99","EUREKA A","2401203","2019-05-28 01:00","2019","05","28","01:00","1.1","","-4.4","","67","","","","13","","16","","24.1","","102.20","","","","","","NA"
"-85.81","79.99","EUREKA A","2401203","2019-05-28 02:00","2019","05","28","02:00","1.6","","-4.0","","66","","","","13","","16","","24.1","","102.23","","","","","","NA"
"-85.81","79.99","EUREKA A","2401203","2019-05-28 03:00","2019","05","28","03:00","1.3","","-4.3","","67","","","","14","","19","","24.1","","102.26","","","","","","Mainly Clear"
"-85.81","79.99","EUREKA A","2401203","2019-05-28 04:00","2019","05","28","04:00","1.3","","-4.6","","65","","","","13","","18","","24.1","","102.28","","","","","","NA"
"-85.81","79.99","EUREKA A","2401203","2019-05-28 05:00","2019","05","28","05:00","1.5","","-4.4","","65","","","","14","","21","","24.1","","102.32","","","","","","NA"
"-85.81","79.99","EUREKA A","2401203","2019-05-28 06:00","2019","05","28","06:00","1.6","","-4.2","","66","","","","13","","21","","24.1","","102.35","","","","","","Mostly Cloudy"
"-85.81","79.99","EUREKA A","2401203","2019-05-28 07:00","2019","05","28","07:00","2.4","","-4.0","","62","","","","13","","19","","24.1","","102.36","","","","","","NA"
"-85.81","79.99","EUREKA A","2401203","2019-05-28 08:00","2019","05","28","08:00","2.5","","-4.7","","59","","","","14","","19","","24.1","","102.39","","","","","","NA"
"-85.81","79.99","EUREKA A","2401203","2019-05-28 09:00","2019","05","28","09:00","3.4","","-4.1","","58","","","","14","","12","","24.1","","102.38","","","","","","Mainly Clear"
"-85.81","79.99","EUREKA A","2401203","2019-05-28 10:00","2019","05","28","10:00","3.7","","-4.0","","57","","","","15","","11","","24.1","","102.39","","","","","","NA"
"-85.81","79.99","EUREKA A","2401203","2019-05-28 11:00","2019","05","28","11:00","3.9","","-4.4","","55","","","","14","","12","","24.1","","102.41","","","","","","NA"
"-85.81","79.99","EUREKA A","2401203","2019-05-28 12:00","2019","05","28","12:00","4.0","","-4.6","","53","","","","17","","9","","24.1","","102.42","","","","","","Clear"
"-85.81","79.99","EUREKA A","2401203","2019-05-28 13:00","2019","05","28","13:00","4.5","","-6.6","","44","","","","15","","10","","24.1","","102.44","","","","","","NA"
"-85.81","79.99","EUREKA A","2401203","2019-05-28 14:00","2019","05","28","14:00","4.4","","-6.0","","47","","","","15","","9","","24.1","","102.46","","","","","","NA"
"-85.81","79.99","EUREKA A","2401203","2019-05-28 15:00","2019","05","28","15:00","4.8","","-6.4","","44","","","","15","","10","","24.1","","102.47","","","","","","Clear"
"-85.81","79.99","EUREKA A","2401203","2019-05-28 16:00","2019","05","28","16:00","4.8","","-6.5","","44","","","","15","","10","","24.1","","102.47","","","","","","NA"
"-85.81","79.99","EUREKA A","2401203","2019-05-28 17:00","2019","05","28","17:00","4.8","","-6.4","","44","","","","16","","8","","24.1","","102.49","","","","","","NA"
"-85.81","79.99","EUREKA A","2401203","2019-05-28 18:00","2019","05","28","18:00","4.8","","-4.9","","49","","","","16","","6","","24.1","","102.50","","","","","","Clear"
"-85.81","79.99","EUREKA A","2401203","2019-05-28 19:00","2019","05","28","19:00","4.7","","-5.5","","48","","","","16","","4","","24.1","","102.51","","","","","","NA"
"-85.81","79.99","EUREKA A","2401203","2019-05-28 20:00","2019","05","28","20:00","4.5","","-5.4","","48","","","","36","","1","","24.1","","102.53","","","","","","NA"
"-85.81","79.99","EUREKA A","2401203","2019-05-28 21:00","2019","05","28","21:00","4.2","","-2.3","","63","","","","1","","8","","24.1","","102.54","","","","","","Clear"
"-85.81","79.99","EUREKA A","2401203","2019-05-28 22:00","2019","05","28","22:00"
"-85.81","79.99","EUREKA A","2401203","2019-05-28 23:00","2019","05","28","23:00"
"-85.81","79.99","EUREKA A","2401203","2019-05-29 00:00","2019","05","29","00:00","2.4","","-2.8","","69","","","","2","","13","","24.1","","102.58","","","","","","Clear"
"-85.81","79.99","EUREKA A","2401203","2019-05-29 01:00","2019","05","29","01:00","2.6","","-2.9","","67","","","","1","","8","","24.1","","102.60","","","","","","NA"
"-85.81","79.99","EUREKA A","2401203","2019-05-29 02:00","2019","05","29","02:00","3.0","","-3.2","","64","","","","3","","12","","24.1","","102.64","","","","","","NA"
"-85.81","79.99","EUREKA A","2401203","2019-05-29 03:00","2019","05","29","03:00","2.6","","-3.4","","65","","","","1","","16","","24.1","","102.67","","","","","","Clear"
"-85.81","79.99","EUREKA A","2401203","2019-05-29 04:00","2019","05","29","04:00","2.8","","-2.7","","67","","","","2","","16","","24.1","","102.67","","","","","","NA"
"-85.81","79.99","EUREKA A","2401203","2019-05-29 05:00","2019","05","29","05:00","2.6","","-2.6","","69","","","","36","","2","","24.1","","102.69","","","","","","NA"
"-85.81","79.99","EUREKA A","2401203","2019-05-29 06:00","2019","05","29","06:00","2.6","","-2.3","","70","","","","16","","5","","24.1","","102.70","","","","","","Clear"
"-85.81","79.99","EUREKA A","2401203","2019-05-29 07:00","2019","05","29","07:00","3.4","","-2.3","","66","","","","20","","4","","24.1","","102.71","","","","","","NA"
"-85.81","79.99","EUREKA A","2401203","2019-05-29 08:00","2019","05","29","08:00","4.9","","-1.6","","63","","","","36","","8","","24.1","","102.73","","","","","","NA"
"-85.81","79.99","EUREKA A","2401203","2019-05-29 09:00","2019","05","29","09:00","5.2","","-1.3","","63","","","","13","","7","","24.1","","102.73","","","","","","Clear"
"-85.81","79.99","EUREKA A","2401203","2019-05-29 10:00","2019","05","29","10:00","5.6","","-1.8","","59","","","","2","","9","","24.1","","102.73","","","","","","NA"
"-85.81","79.99","EUREKA A","2401203","2019-05-29 11:00","2019","05","29","11:00","5.7","","-1.9","","58","","","","4","","7","","24.1","","102.74","","","","","","NA"
"-85.81","79.99","EUREKA A","2401203","2019-05-29 12:00","2019","05","29","12:00","6.2","","-2.2","","55","","","","35","","9","","24.1","","102.74","","","","","","Mainly Clear"
"-85.81","79.99","EUREKA A","2401203","2019-05-29 13:00","2019","05","29","13:00","6.1","","-2.0","","56","","","","33","","7","","24.1","","102.78","","","","","","NA"
"-85.81","79.99","EUREKA A","2401203","2019-05-29 14:00","2019","05","29","14:00","5.3","","-0.9","","64","","","","26","","9","","24.1","","102.80","","","","","","NA"
"-85.81","79.99","EUREKA A","2401203","2019-05-29 15:00","2019","05","29","15:00","6.2","","-2.1","","56","","","","1","","15","","24.1","","102.81","","","","","","Clear"
"-85.81","79.99","EUREKA A","2401203","2019-05-29 16:00","2019","05","29","16:00","5.8","","-2.2","","57","","","","1","","21","","24.1","","102.82","","","","","","NA"
"-85.81","79.99","EUREKA A","2401203","2019-05-29 17:00","2019","05","29","17:00","6.2","","-3.3","","50","","","","1","","18","","24.1","","102.80","","","","","","NA"
"-85.81","79.99","EUREKA A","2401203","2019-05-29 18:00","2019","05","29","18:00","5.8","","-3.3","","52","","","","1","","21","","24.1","","102.80","","","","","","Clear"
"-85.81","79.99","EUREKA A","2401203","2019-05-29 19:00","2019","05","29","19:00","5.2","","-2.5","","58","","","","36","","23","","24.1","","102.80","","","","","","NA"
"-85.81","79.99","EUREKA A","2401203","2019-05-29 20:00","2019","05","29","20:00","4.8","","-3.3","","56","","","","35","","26","","24.1","","102.78","","","","","","NA"
"-85.81","79.99","EUREKA A","2401203","2019-05-29 21:00","2019","05","29","21:00","4.4","","-3.0","","59","","","","36","","23","","24.1","","102.77","","","","","","Clear"
"-85.81","79.99","EUREKA A","2401203","2019-05-29 22:00","2019","05","29","22:00"
"-85.81","79.99","EUREKA A","2401203","2019-05-29 23:00","2019","05","29","23:00"
"-85.81","79.99","EUREKA A","2401203","2019-05-30 00:00","2019","05","30","00:00","4.0","","-3.2","","59","","","","35","","22","","24.1","","102.70","","","","","","Clear"
"-85.81","79.99","EUREKA A","2401203","2019-05-30 01:00","2019","05","30","01:00","3.5","","-3.6","","60","","","","2","","27","","24.1","","102.70","","","","","","NA"
"-85.81","79.99","EUREKA A","2401203","2019-05-30 02:00","2019","05","30","02:00","3.4","","-3.4","","61","","","","35","","22","","24.1","","102.69","","","","","","NA"
"-85.81","79.99","EUREKA A","2401203","2019-05-30 03:00","2019","05","30","03:00","3.4","","-3.0","","63","","","","36","","20","","24.1","","102.68","","","","","","Clear"
"-85.81","79.99","EUREKA A","2401203","2019-05-30 04:00","2019","05","30","04:00","3.5","","-3.4","","60","","","","36","","30","","24.1","","102.66","","","","","","NA"
"-85.81","79.99","EUREKA A","2401203","2019-05-30 05:00","2019","05","30","05:00","4.1","","-3.1","","59","","","","35","","18","","24.1","","102.62","","","","","","NA"
"-85.81","79.99","EUREKA A","2401203","2019-05-30 06:00","2019","05","30","06:00","2.1","","-2.4","","72","","","","28","","20","","24.1","","102.62","","","","","","Clear"
"-85.81","79.99","EUREKA A","2401203","2019-05-30 07:00","2019","05","30","07:00","3.0","","-1.9","","70","","","","28","","16","","24.1","","102.58","","","","","","NA"
"-85.81","79.99","EUREKA A","2401203","2019-05-30 08:00","2019","05","30","08:00","2.4","","-2.0","","73","","","","28","","21","","24.1","","102.54","","","","","","NA"
"-85.81","79.99","EUREKA A","2401203","2019-05-30 09:00","2019","05","30","09:00","2.7","","-2.0","","71","","","","28","","25","","24.1","","102.50","","","","","","Mainly Clear"
"-85.81","79.99","EUREKA A","2401203","2019-05-30 10:00","2019","05","30","10:00","2.7","","-1.6","","73","","","","28","","22","","24.1","","102.46","","","","","","NA"
"-85.81","79.99","EUREKA A","2401203","2019-05-30 11:00","2019","05","30","11:00","3.5","","-1.9","","68","","","","28","","22","","24.1","","102.42","","","","","","NA"
"-85.81","79.99","EUREKA A","2401203","2019-05-30 12:00","2019","05","30","12:00","3.1","","-1.9","","70","","","","28","","25","","24.1","","102.38","","","","","","Mainly Clear"
"-85.81","79.99","EUREKA A","2401203","2019-05-30 13:00","2019","05","30","13:00","3.8","","-2.2","","65","","","","27","","29","","24.1","","102.36","","","","","","NA"
"-85.81","79.99","EUREKA A","2401203","2019-05-30 14:00","2019","05","30","14:00","3.1","","-1.8","","70","","","","28","","26","","24.1","","102.35","","","","","","NA"
"-85.81","79.99","EUREKA A","2401203","2019-05-30 15:00","2019","05","30","15:00","4.8","","-0.9","","67","","","","31","","13","","24.1","","102.35","","","","","","Clear"
"-85.81","79.99","EUREKA A","2401203","2019-05-30 16:00","2019","05","30","16:00","4.3","","-2.1","","63","","","","3","","27","","24.1","","102.35","","","","","","NA"
"-85.81","79.99","EUREKA A","2401203","2019-05-30 17:00","2019","05","30","17:00","4.0","","-1.9","","65","","","","1","","25","","24.1","","102.36","","","","","","NA"
"-85.81","79.99","EUREKA A","2401203","2019-05-30 18:00","2019","05","30","18:00","5.0","","-2.8","","57","","","","3","","24","","24.1","","102.36","","","","","","Mostly Cloudy"
"-85.81","79.99","EUREKA A","2401203","2019-05-30 19:00","2019","05","30","19:00","4.4","","-3.7","","56","","","","7","","21","","24.1","","102.37","","","","","","NA"
"-85.81","79.99","EUREKA A","2401203","2019-05-30 20:00","2019","05","30","20:00","3.7","","-4.6","","55","","","","6","","39","","24.1","","102.33","","","","","","NA"
"-85.81","79.99","EUREKA A","2401203","2019-05-30 21:00","2019","05","30","21:00","3.8","","-7.0","","45","","","","7","","39","","24.1","","102.32","","","","","","Mainly Clear"
"-85.81","79.99","EUREKA A","2401203","2019-05-30 22:00","2019","05","30","22:00"
"-85.81","79.99","EUREKA A","2401203","2019-05-30 23:00","2019","05","30","23:00"
"-85.81","79.99","EUREKA A","2401203","2019-05-31 00:00","2019","05","31","00:00","0.9","","-5.5","","62","","","","35","","41","","24.1","","102.36","","","","","","Clear"
"-85.81","79.99","EUREKA A","2401203","2019-05-31 01:00","2019","05","31","01:00","2.5","","-7.9","","46","","","","3","","43","","24.1","","102.33","","","","","","NA"
"-85.81","79.99","EUREKA A","2401203","2019-05-31 02:00","2019","05","31","02:00","1.2","","-6.1","","58","","","","1","","37","","24.1","","102.35","","","","","","NA"
"-85.81","79.99","EUREKA A","2401203","2019-05-31 03:00","2019","05","31","03:00","1.3","","-5.7","","60","","","","2","","41","","24.1","","102.33","","","","","","Mainly Clear"
"-85.81","79.99","EUREKA A","2401203","2019-05-31 04:00","2019","05","31","04:00","1.3","","-5.0","","63","","","","1","","37","","24.1","","102.36","","","","","","NA"
"-85.81","79.99","EUREKA A","2401203","2019-05-31 05:00","2019","05","31","05:00","1.9","","-5.4","","58","","","","36","","26","","24.1","","102.34","","","","","","NA"
"-85.81","79.99","EUREKA A","2401203","2019-05-31 06:00","2019","05","31","06:00","2.3","","-5.5","","57","","","","1","","34","","24.1","","102.31","","","","","","Clear"
"-85.81","79.99","EUREKA A","2401203","2019-05-31 07:00","2019","05","31","07:00","2.6","","-5.5","","55","","","","1","","41","","24.1","","102.32","","","","","","NA"
"-85.81","79.99","EUREKA A","2401203","2019-05-31 08:00","2019","05","31","08:00","3.4","","-4.4","","57","","","","2","","44","","24.1","","102.26","","","","","","NA"
"-85.81","79.99","EUREKA A","2401203","2019-05-31 09:00","2019","05","31","09:00","4.0","","-5.2","","51","","","","2","","33","","24.1","","102.25","","","","","","Clear"
"-85.81","79.99","EUREKA A","2401203","2019-05-31 10:00","2019","05","31","10:00","3.8","","-5.8","","50","","","","2","","30","","24.1","","102.23","","","","","","NA"
"-85.81","79.99","EUREKA A","2401203","2019-05-31 11:00","2019","05","31","11:00","4.2","","-5.0","","51","","","","36","","27","","24.1","","102.21","","","","","","NA"
"-85.81","79.99","EUREKA A","2401203","2019-05-31 12:00","2019","05","31","12:00","4.3","","-4.3","","54","","","","36","","20","","24.1","","102.15","","","","","","Clear"
"-85.81","79.99","EUREKA A","2401203","2019-05-31 13:00","2019","05","31","13:00","4.9","","-5.0","","49","","","","1","","19","","24.1","","102.14","","","","","","NA"
"-85.81","79.99","EUREKA A","2401203","2019-05-31 14:00","2019","05","31","14:00","5.2","","-4.6","","49","","","","2","","22","","24.1","","102.10","","","","","","NA"
"-85.81","79.99","EUREKA A","2401203","2019-05-31 15:00","2019","05","31","15:00","4.5","","-1.4","","66","","","","31","","5","","24.1","","102.10","","","","","","Mainly Clear"
"-85.81","79.99","EUREKA A","2401203","2019-05-31 16:00","2019","05","31","16:00","4.4","","-4.7","","52","","","","1","","16","","24.1","","102.05","","","","","","NA"
"-85.81","79.99","EUREKA A","2401203","2019-05-31 17:00","2019","05","31","17:00","3.9","","-3.3","","59","","","","29","","20","","24.1","","102.02","","","","","","NA"
"-85.81","79.99","EUREKA A","2401203","2019-05-31 18:00","2019","05","31","18:00","2.3","","-2.2","","72","","","","27","","31","","24.1","","101.94","","","","","","Mainly Clear"
"-85.81","79.99","EUREKA A","2401203","2019-05-31 19:00","2019","05","31","19:00","2.2","","-2.4","","72","","","","27","","23","","24.1","","101.90","","","","","","NA"
"-85.81","79.99","EUREKA A","2401203","2019-05-31 20:00","2019","05","31","20:00","1.4","","-2.2","","77","","","","28","","19","","24.1","","101.87","","","","","","NA"
"-85.81","79.99","EUREKA A","2401203","2019-05-31 21:00","2019","05","31","21:00","1.5","","-2.2","","76","","","","27","","11","","24.1","","101.82","","","","","","Mostly Cloudy"
"-85.81","79.99","EUREKA A","2401203","2019-05-31 22:00","2019","05","31","22:00"
"-85.81","79.99","EUREKA A","2401203","2019-05-31 23:00","2019","05","31","23:00"
