"Longitude (x)","Latitude (y)","Station Name","Climate ID","Date/Time (LST)","Year","Month","Day","Time (LST)","Temp (°C)","Temp Flag","Dew Point Temp (°C)","Dew Point Temp Flag","Rel Hum (%)","Rel Hum Flag","Precip. Amount (mm)","Precip. Amount Flag","Wind Dir (10s deg)","Wind Dir Flag","Wind Spd (km/h)","Wind Spd Flag","Visibility (km)","Visibility Flag","Stn Press (kPa)","Stn Press Flag","Hmdx","Hmdx Flag","Wind Chill","Wind Chill Flag","Weather"
"-95.85","68.64","GJOA HAVEN CLIMATE","2302340","2023-02-01 00:00","2023","02","01","00:00","-38.3","","-41.8","","70","","0.0","","5","","12","","","","100.74","","","","-50","","NA"
"-95.85","68.64","GJOA HAVEN CLIMATE","2302340","2023-02-01 01:00","2023","02","01","01:00","-38.0","","-41.4","","70","","0.0","","5","","13","","","","100.75","","","","-50","","NA"
"-95.85","68.64","GJOA HAVEN CLIMATE","2302340","2023-02-01 02:00","2023","02","01","02:00","-37.9","","-41.3","","70","","0.0","","5","","9","","","","100.80","","","","-48","","NA"
"-95.85","68.64","GJOA HAVEN CLIMATE","2302340","2023-02-01 03:00","2023","02","01","03:00","-38.4","","-41.8","","70","","0.0","","5","","14","","","","100.83","","","","-51","","NA"
"-95.85","68.64","GJOA HAVEN CLIMATE","2302340","2023-02-01 04:00","2023","02","01","04:00","-38.5","","-41.9","","70","","0.0","","3","","14","","","","100.87","","","","-51","","NA"
"-95.85","68.64","GJOA HAVEN CLIMATE","2302340","2023-02-01 05:00","2023","02","01","05:00","-39.1","","-42.5","","70","","0.0","","1","","18","","","","100.90","","","","-54","","NA"
"-95.85","68.64","GJOA HAVEN CLIMATE","2302340","2023-02-01 06:00","2023","02","01","06:00","-39.0","","-42.5","","70","","0.0","","3","","16","","","","100.91","","","","-53","","NA"
"-95.85","68.64","GJOA HAVEN CLIMATE","2302340","2023-02-01 07:00","2023","02","01","07:00","-39.0","","-42.5","","70","","0.0","","3","","13","","","","100.92","","","","-52","","NA"
"-95.85","68.64","GJOA HAVEN CLIMATE","2302340","2023-02-01 08:00","2023","02","01","08:00","-39.2","","-42.7","","70","","0.0","","2","","15","","","","100.91","","","","-53","","NA"
"-95.85","68.64","GJOA HAVEN CLIMATE","2302340","2023-02-01 09:00","2023","02","01","09:00","-39.7","","-43.2","","69","","0.0","","2","","12","","","","100.96","","","","-52","","NA"
"-95.85","68.64","GJOA HAVEN CLIMATE","2302340","2023-02-01 10:00","2023","02","01","10:00","-39.2","","-42.7","","70","","0.0","","2","","12","","","","100.94","","","","-51","","NA"
"-95.85","68.64","GJOA HAVEN CLIMATE","2302340","2023-02-01 11:00","2023","02","01","11:00","-38.7","","-42.1","","70","","0.0","","4","","10","","","","100.93","","","","-50","","NA"
"-95.85","68.64","GJOA HAVEN CLIMATE","2302340","2023-02-01 12:00","2023","02","01","12:00","-37.9","","-41.3","","70","","0.0","","","","0","","","","100.94","","","","","","NA"
"-95.85","68.64","GJOA HAVEN CLIMATE","2302340","2023-02-01 13:00","2023","02","01","13:00","-37.6","","-41.0","","70","","0.0","","29","","3","","","","100.96","","","","-42","","NA"
"-95.85","68.64","GJOA HAVEN CLIMATE","2302340","2023-02-01 14:00","2023","02","01","14:00","-38.1","","-41.5","","70","","0.0","","29","","11","","","","100.96","","","","-49","","NA"
"-95.85","68.64","GJOA HAVEN CLIMATE","2302340","2023-02-01 15:00","2023","02","01","15:00","-37.9","","-41.3","","70","","0.0","","29","","6","","","","100.97","","","","-46","","NA"
"-95.85","68.64","GJOA HAVEN CLIMATE","2302340","2023-02-01 16:00","2023","02","01","16:00","-38.0","","-41.4","","70","","0.0","","29","","5","","","","100.98","","","","-45","","NA"
"-95.85","68.64","GJOA HAVEN CLIMATE","2302340","2023-02-01 17:00","2023","02","01","17:00","-38.3","","-41.7","","70","","0.0","","27","","7","","","","100.98","","","","-47","","NA"
"-95.85","68.64","GJOA HAVEN CLIMATE","2302340","2023-02-01 18:00","2023","02","01","18:00","-38.5","","-41.9","","70","","0.0","","27","","7","","","","100.98","","","","-47","","NA"
"-95.85","68.64","GJOA HAVEN CLIMATE","2302340","2023-02-01 19:00","2023","02","01","19:00","-38.8","","-42.2","","70","","0.0","","27","","8","","","","100.99","","","","-48","","NA"
"-95.85","68.64","GJOA HAVEN CLIMATE","2302340","2023-02-01 20:00","2023","02","01","20:00","-39.3","","-42.8","","70","","0.0","","27","","4","","","","100.95","","","","-45","","NA"
"-95.85","68.64","GJOA HAVEN CLIMATE","2302340","2023-02-01 21:00","2023","02","01","21:00","-39.4","","-42.9","","69","","0.0","","27","","6","","","","100.94","","","","-47","","NA"
"-95.85","68.64","GJOA HAVEN CLIMATE","2302340","2023-02-01 22:00","2023","02","01","22:00","-39.7","","-43.2","","69","","0.0","","27","","3","","","","100.95","","","","-44","","NA"
"-95.85","68.64","GJOA HAVEN CLIMATE","2302340","2023-02-01 23:00","2023","02","01","23:00","-39.7","","-43.2","","69","","0.0","","27","","2","","","","100.96","","","","-42","","NA"
"-95.85","68.64","GJOA HAVEN CLIMATE","2302340","2023-02-02 00:00","2023","02","02","00:00","-39.7","","-43.2","","69","","0.0","","27","","4","","","","100.97","","","","-45","","NA"
"-95.85","68.64","GJOA HAVEN CLIMATE","2302340","2023-02-02 01:00","2023","02","02","01:00","-39.4","","-42.9","","69","","0.0","","27","","6","","","","100.98","","","","-47","","NA"
"-95.85","68.64","GJOA HAVEN CLIMATE","2302340","2023-02-02 02:00","2023","02","02","02:00","-39.2","","-42.7","","69","","0.0","","27","","4","","","","100.98","","","","-45","","NA"
"-95.85","68.64","GJOA HAVEN CLIMATE","2302340","2023-02-02 03:00","2023","02","02","03:00","-38.7","","-42.2","","70","","0.0","","27","","12","","","","100.96","","","","-51","","NA"
"-95.85","68.64","GJOA HAVEN CLIMATE","2302340","2023-02-02 04:00","2023","02","02","04:00","-38.2","","-41.6","","70","","0.0","","26","","8","","","","100.96","","","","-48","","NA"
"-95.85","68.64","GJOA HAVEN CLIMATE","2302340","2023-02-02 05:00","2023","02","02","05:00","-37.6","","-41.0","","70","","0.0","","26","","9","","","","100.97","","","","-48","","NA"
"-95.85","68.64","GJOA HAVEN CLIMATE","2302340","2023-02-02 06:00","2023","02","02","06:00","-37.1","","-40.5","","71","","0.0","","25","","11","","","","100.97","","","","-48","","NA"
"-95.85","68.64","GJOA HAVEN CLIMATE","2302340","2023-02-02 07:00","2023","02","02","07:00","-36.9","","-40.3","","71","","0.0","","28","","12","","","","100.94","","","","-49","","NA"
"-95.85","68.64","GJOA HAVEN CLIMATE","2302340","2023-02-02 08:00","2023","02","02","08:00","-36.9","","-40.3","","71","","0.0","","26","","6","","","","100.95","","","","-44","","NA"
"-95.85","68.64","GJOA HAVEN CLIMATE","2302340","2023-02-02 09:00","2023","02","02","09:00","-36.9","","-40.3","","71","","0.0","","28","","12","","","","100.94","","","","-49","","NA"
"-95.85","68.64","GJOA HAVEN CLIMATE","2302340","2023-02-02 10:00","2023","02","02","10:00","-37.2","","-40.6","","71","","0.0","","27","","13","","","","100.93","","","","-49","","NA"
"-95.85","68.64","GJOA HAVEN CLIMATE","2302340","2023-02-02 11:00","2023","02","02","11:00","-37.0","","-40.4","","71","","0.0","","30","","16","","","","100.92","","","","-50","","NA"
"-95.85","68.64","GJOA HAVEN CLIMATE","2302340","2023-02-02 12:00","2023","02","02","12:00","-36.6","","-40.0","","71","","0.0","","30","","21","","","","100.92","","","","-52","","NA"
"-95.85","68.64","GJOA HAVEN CLIMATE","2302340","2023-02-02 13:00","2023","02","02","13:00","-35.7","","-39.0","","72","","0.0","","29","","21","","","","100.92","","","","-51","","NA"
"-95.85","68.64","GJOA HAVEN CLIMATE","2302340","2023-02-02 14:00","2023","02","02","14:00","-35.2","","-38.5","","72","","0.0","","28","","21","","","","100.90","","","","-50","","NA"
"-95.85","68.64","GJOA HAVEN CLIMATE","2302340","2023-02-02 15:00","2023","02","02","15:00","-34.3","","-37.6","","73","","0.0","","29","","22","","","","100.91","","","","-49","","NA"
"-95.85","68.64","GJOA HAVEN CLIMATE","2302340","2023-02-02 16:00","2023","02","02","16:00","-33.5","","-36.7","","73","","0.0","","29","","23","","","","100.90","","","","-48","","NA"
"-95.85","68.64","GJOA HAVEN CLIMATE","2302340","2023-02-02 17:00","2023","02","02","17:00","-33.1","","-36.2","","73","","0.0","","29","","22","","","","100.89","","","","-48","","NA"
"-95.85","68.64","GJOA HAVEN CLIMATE","2302340","2023-02-02 18:00","2023","02","02","18:00","-32.3","","-35.4","","74","","0.0","","28","","21","","","","100.84","","","","-46","","NA"
"-95.85","68.64","GJOA HAVEN CLIMATE","2302340","2023-02-02 19:00","2023","02","02","19:00","-31.6","","-34.7","","74","","0.0","","29","","21","","","","100.80","","","","-45","","NA"
"-95.85","68.64","GJOA HAVEN CLIMATE","2302340","2023-02-02 20:00","2023","02","02","20:00","-30.8","","-33.8","","75","","0.0","","27","","18","","","","100.78","","","","-43","","NA"
"-95.85","68.64","GJOA HAVEN CLIMATE","2302340","2023-02-02 21:00","2023","02","02","21:00","-30.3","","-33.3","","75","","0.0","","29","","19","","","","100.74","","","","-43","","NA"
"-95.85","68.64","GJOA HAVEN CLIMATE","2302340","2023-02-02 22:00","2023","02","02","22:00","-30.4","","-33.4","","75","","0.0","","30","","21","","","","100.73","","","","-44","","NA"
"-95.85","68.64","GJOA HAVEN CLIMATE","2302340","2023-02-02 23:00","2023","02","02","23:00","-30.6","","-33.7","","75","","0.0","","30","","23","","","","100.73","","","","-45","","NA"
"-95.85","68.64","GJOA HAVEN CLIMATE","2302340","2023-02-03 00:00","2023","02","03","00:00","-31.0","","-34.1","","75","","0.0","","31","","23","","","","100.72","","","","-45","","NA"
"-95.85","68.64","GJOA HAVEN CLIMATE","2302340","2023-02-03 01:00","2023","02","03","01:00","-31.4","","-34.5","","75","","0.0","","32","","25","","","","100.74","","","","-46","","NA"
"-95.85","68.64","GJOA HAVEN CLIMATE","2302340","2023-02-03 02:00","2023","02","03","02:00","-31.8","","-34.9","","74","","0.0","","32","","21","","","","100.74","","","","-46","","NA"
"-95.85","68.64","GJOA HAVEN CLIMATE","2302340","2023-02-03 03:00","2023","02","03","03:00","-32.0","","-35.1","","74","","0.0","","33","","19","","","","100.74","","","","-45","","NA"
"-95.85","68.64","GJOA HAVEN CLIMATE","2302340","2023-02-03 04:00","2023","02","03","04:00","-32.1","","-35.2","","74","","0.0","","34","","17","","","","100.71","","","","-45","","NA"
"-95.85","68.64","GJOA HAVEN CLIMATE","2302340","2023-02-03 05:00","2023","02","03","05:00","-32.4","","-35.5","","74","","0.0","","35","","17","","","","100.71","","","","-45","","NA"
"-95.85","68.64","GJOA HAVEN CLIMATE","2302340","2023-02-03 06:00","2023","02","03","06:00","-32.9","","-36.0","","74","","0.0","","33","","13","","","","100.73","","","","-44","","NA"
"-95.85","68.64","GJOA HAVEN CLIMATE","2302340","2023-02-03 07:00","2023","02","03","07:00","-33.2","","-36.3","","74","","0.0","","32","","14","","","","100.72","","","","-45","","NA"
"-95.85","68.64","GJOA HAVEN CLIMATE","2302340","2023-02-03 08:00","2023","02","03","08:00","-32.9","","-36.0","","74","","0.0","","34","","16","","","","100.68","","","","-45","","NA"
"-95.85","68.64","GJOA HAVEN CLIMATE","2302340","2023-02-03 09:00","2023","02","03","09:00","-33.2","","-36.3","","74","","0.0","","33","","18","","","","100.66","","","","-46","","NA"
"-95.85","68.64","GJOA HAVEN CLIMATE","2302340","2023-02-03 10:00","2023","02","03","10:00","-33.7","","-36.8","","73","","0.0","","33","","20","","","","100.65","","","","-48","","NA"
"-95.85","68.64","GJOA HAVEN CLIMATE","2302340","2023-02-03 11:00","2023","02","03","11:00","-33.5","","-36.6","","73","","0.0","","34","","18","","","","100.64","","","","-47","","NA"
"-95.85","68.64","GJOA HAVEN CLIMATE","2302340","2023-02-03 12:00","2023","02","03","12:00","-33.4","","-36.5","","73","","0.0","","29","","7","","","","100.64","","","","-41","","NA"
"-95.85","68.64","GJOA HAVEN CLIMATE","2302340","2023-02-03 13:00","2023","02","03","13:00","-33.3","","-36.4","","73","","0.0","","32","","16","","","","100.62","","","","-46","","NA"
"-95.85","68.64","GJOA HAVEN CLIMATE","2302340","2023-02-03 14:00","2023","02","03","14:00","-33.3","","-36.5","","73","","0.0","","33","","17","","","","100.65","","","","-46","","NA"
"-95.85","68.64","GJOA HAVEN CLIMATE","2302340","2023-02-03 15:00","2023","02","03","15:00","-32.7","","-35.9","","74","","0.0","","33","","12","","","","100.65","","","","-43","","NA"
"-95.85","68.64","GJOA HAVEN CLIMATE","2302340","2023-02-03 16:00","2023","02","03","16:00","-33.4","","-36.5","","74","","0.0","","","M","2","","","","100.64","","","","-36","","NA"
"-95.85","68.64","GJOA HAVEN CLIMATE","2302340","2023-02-03 17:00","2023","02","03","17:00","-33.8","","-36.9","","73","","0.0","","","M","3","","","","100.63","","","","-37","","NA"
"-95.85","68.64","GJOA HAVEN CLIMATE","2302340","2023-02-03 18:00","2023","02","03","18:00","-34.2","","-37.3","","73","","0.0","","","M","5","","","","100.61","","","","-40","","NA"
"-95.85","68.64","GJOA HAVEN CLIMATE","2302340","2023-02-03 19:00","2023","02","03","19:00","-34.6","","-37.8","","73","","0.0","","","M","5","","","","100.60","","","","-41","","NA"
"-95.85","68.64","GJOA HAVEN CLIMATE","2302340","2023-02-03 20:00","2023","02","03","20:00","-35.1","","-38.3","","73","","0.0","","","M","6","","","","100.58","","","","-42","","NA"
"-95.85","68.64","GJOA HAVEN CLIMATE","2302340","2023-02-03 21:00","2023","02","03","21:00","-35.6","","-38.8","","72","","0.0","","","M","7","","","","100.58","","","","-44","","NA"
"-95.85","68.64","GJOA HAVEN CLIMATE","2302340","2023-02-03 22:00","2023","02","03","22:00","-36.0","","-39.2","","72","","0.0","","","M","7","","","","100.59","","","","-44","","NA"
"-95.85","68.64","GJOA HAVEN CLIMATE","2302340","2023-02-03 23:00","2023","02","03","23:00","-36.3","","-39.6","","72","","0.0","","","M","8","","","","100.60","","","","-45","","NA"
"-95.85","68.64","GJOA HAVEN CLIMATE","2302340","2023-02-04 00:00","2023","02","04","00:00","-36.8","","-40.1","","71","","0.0","","","M","6","","","","100.60","","","","-44","","NA"
"-95.85","68.64","GJOA HAVEN CLIMATE","2302340","2023-02-04 01:00","2023","02","04","01:00","-37.1","","-40.5","","71","","0.0","","","M","5","","","","100.62","","","","-44","","NA"
"-95.85","68.64","GJOA HAVEN CLIMATE","2302340","2023-02-04 02:00","2023","02","04","02:00","-37.2","","-40.5","","71","","0.0","","","M","5","","","","100.66","","","","-44","","NA"
"-95.85","68.64","GJOA HAVEN CLIMATE","2302340","2023-02-04 03:00","2023","02","04","03:00","-37.3","","-40.6","","71","","0.0","","","M","7","","","","100.65","","","","-46","","NA"
"-95.85","68.64","GJOA HAVEN CLIMATE","2302340","2023-02-04 04:00","2023","02","04","04:00","-37.5","","-40.9","","71","","0.0","","","M","8","","","","100.65","","","","-47","","NA"
"-95.85","68.64","GJOA HAVEN CLIMATE","2302340","2023-02-04 05:00","2023","02","04","05:00","-37.9","","-41.2","","71","","0.0","","","M","10","","","","100.64","","","","-49","","NA"
"-95.85","68.64","GJOA HAVEN CLIMATE","2302340","2023-02-04 06:00","2023","02","04","06:00","-37.9","","-41.3","","71","","0.0","","","M","10","","","","100.66","","","","-49","","NA"
"-95.85","68.64","GJOA HAVEN CLIMATE","2302340","2023-02-04 07:00","2023","02","04","07:00","-38.3","","-41.7","","70","","0.0","","","M","7","","","","100.66","","","","-47","","NA"
"-95.85","68.64","GJOA HAVEN CLIMATE","2302340","2023-02-04 08:00","2023","02","04","08:00","-38.2","","-41.6","","70","","0.0","","","M","10","","","","100.65","","","","-49","","NA"
"-95.85","68.64","GJOA HAVEN CLIMATE","2302340","2023-02-04 09:00","2023","02","04","09:00","-38.5","","-41.9","","70","","0.0","","","M","11","","","","100.65","","","","-50","","NA"
"-95.85","68.64","GJOA HAVEN CLIMATE","2302340","2023-02-04 10:00","2023","02","04","10:00","-38.2","","-41.6","","70","","0.0","","","M","9","","","","100.66","","","","-48","","NA"
"-95.85","68.64","GJOA HAVEN CLIMATE","2302340","2023-02-04 11:00","2023","02","04","11:00","-38.2","","-41.6","","70","","0.0","","","M","0","","","","100.68","","","","","","NA"
"-95.85","68.64","GJOA HAVEN CLIMATE","2302340","2023-02-04 12:00","2023","02","04","12:00","-37.8","","-41.2","","70","","0.0","","","M","6","","","","100.63","","","","-45","","NA"
"-95.85","68.64","GJOA HAVEN CLIMATE","2302340","2023-02-04 13:00","2023","02","04","13:00","-37.5","","-40.9","","71","","0.0","","","M","9","","","","100.65","","","","-47","","NA"
"-95.85","68.64","GJOA HAVEN CLIMATE","2302340","2023-02-04 14:00","2023","02","04","14:00","-37.1","","-40.5","","71","","0.0","","","M","8","","","","100.63","","","","-46","","NA"
"-95.85","68.64","GJOA HAVEN CLIMATE","2302340","2023-02-04 15:00","2023","02","04","15:00","-37.1","","-40.5","","71","","0.0","","","M","6","","","","100.64","","","","-45","","NA"
"-95.85","68.64","GJOA HAVEN CLIMATE","2302340","2023-02-04 16:00","2023","02","04","16:00","-37.7","","-41.0","","71","","0.0","","","M","7","","","","100.63","","","","-46","","NA"
"-95.85","68.64","GJOA HAVEN CLIMATE","2302340","2023-02-04 17:00","2023","02","04","17:00","-38.0","","-41.4","","71","","0.0","","","M","6","","","","100.61","","","","-46","","NA"
"-95.85","68.64","GJOA HAVEN CLIMATE","2302340","2023-02-04 18:00","2023","02","04","18:00","-38.4","","-41.8","","70","","0.0","","","M","5","","","","100.57","","","","-45","","NA"
"-95.85","68.64","GJOA HAVEN CLIMATE","2302340","2023-02-04 19:00","2023","02","04","19:00","-38.7","","-42.1","","70","","0.0","","","M","6","","","","100.56","","","","-47","","NA"
"-95.85","68.64","GJOA HAVEN CLIMATE","2302340","2023-02-04 20:00","2023","02","04","20:00","-39.0","","-42.4","","70","","0.0","","","M","2","","","","100.53","","","","-42","","NA"
"-95.85","68.64","GJOA HAVEN CLIMATE","2302340","2023-02-04 21:00","2023","02","04","21:00","-39.2","","-42.7","","70","","0.0","","","M","5","","","","100.50","","","","-46","","NA"
"-95.85","68.64","GJOA HAVEN CLIMATE","2302340","2023-02-04 22:00","2023","02","04","22:00","-39.7","","-43.2","","70","","0.0","","","M","4","","","","100.46","","","","-45","","NA"
"-95.85","68.64","GJOA HAVEN CLIMATE","2302340","2023-02-04 23:00","2023","02","04","23:00","-40.0","","-43.4","","69","","0.0","","","M","7","","","","100.39","","","","-49","","NA"
"-95.85","68.64","GJOA HAVEN CLIMATE","2302340","2023-02-05 00:00","2023","02","05","00:00","-40.2","","-43.7","","69","","0.0","","","M","8","","","","100.36","","","","-50","","NA"
"-95.85","68.64","GJOA HAVEN CLIMATE","2302340","2023-02-05 01:00","2023","02","05","01:00","-40.6","","-44.1","","69","","0.0","","","M","6","","","","100.36","","","","-49","","NA"
"-95.85","68.64","GJOA HAVEN CLIMATE","2302340","2023-02-05 02:00","2023","02","05","02:00","-40.6","","-44.1","","69","","0.0","","","M","12","","","","100.35","","","","-53","","NA"
"-95.85","68.64","GJOA HAVEN CLIMATE","2302340","2023-02-05 03:00","2023","02","05","03:00","-40.6","","-44.1","","69","","0.0","","","M","11","","","","100.32","","","","-52","","NA"
"-95.85","68.64","GJOA HAVEN CLIMATE","2302340","2023-02-05 04:00","2023","02","05","04:00","-40.3","","-43.9","","69","","0.0","","","M","13","","","","100.27","","","","-53","","NA"
"-95.85","68.64","GJOA HAVEN CLIMATE","2302340","2023-02-05 05:00","2023","02","05","05:00","-40.1","","-43.6","","69","","0.0","","","M","9","","","","100.23","","","","-51","","NA"
"-95.85","68.64","GJOA HAVEN CLIMATE","2302340","2023-02-05 06:00","2023","02","05","06:00","-39.9","","-43.4","","69","","0.0","","","M","10","","","","100.17","","","","-51","","NA"
"-95.85","68.64","GJOA HAVEN CLIMATE","2302340","2023-02-05 07:00","2023","02","05","07:00","-40.1","","-43.6","","69","","0.0","","","M","12","","","","100.12","","","","-52","","NA"
"-95.85","68.64","GJOA HAVEN CLIMATE","2302340","2023-02-05 08:00","2023","02","05","08:00","-40.0","","-43.5","","69","","0.0","","24","","16","","","","100.05","","","","-54","","NA"
"-95.85","68.64","GJOA HAVEN CLIMATE","2302340","2023-02-05 09:00","2023","02","05","09:00","-40.0","","-43.5","","69","","0.0","","24","","16","","","","100.04","","","","-54","","NA"
"-95.85","68.64","GJOA HAVEN CLIMATE","2302340","2023-02-05 10:00","2023","02","05","10:00","-39.7","","-43.2","","69","","0.0","","23","","14","","","","100.03","","","","-53","","NA"
"-95.85","68.64","GJOA HAVEN CLIMATE","2302340","2023-02-05 11:00","2023","02","05","11:00","-39.2","","-42.7","","69","","0.0","","23","","15","","","","99.99","","","","-53","","NA"
"-95.85","68.64","GJOA HAVEN CLIMATE","2302340","2023-02-05 12:00","2023","02","05","12:00","-38.5","","-42.0","","70","","0.0","","22","","17","","","","99.93","","","","-53","","NA"
"-95.85","68.64","GJOA HAVEN CLIMATE","2302340","2023-02-05 13:00","2023","02","05","13:00","-37.5","","-40.9","","70","","0.0","","22","","14","","","","99.91","","","","-50","","NA"
"-95.85","68.64","GJOA HAVEN CLIMATE","2302340","2023-02-05 14:00","2023","02","05","14:00","-36.9","","-40.3","","71","","0.0","","23","","16","","","","99.87","","","","-50","","NA"
"-95.85","68.64","GJOA HAVEN CLIMATE","2302340","2023-02-05 15:00","2023","02","05","15:00","-36.7","","-40.1","","71","","0.0","","24","","19","","","","99.87","","","","-51","","NA"
"-95.85","68.64","GJOA HAVEN CLIMATE","2302340","2023-02-05 16:00","2023","02","05","16:00","-36.4","","-39.7","","71","","0.0","","23","","17","","","","99.84","","","","-50","","NA"
"-95.85","68.64","GJOA HAVEN CLIMATE","2302340","2023-02-05 17:00","2023","02","05","17:00","-36.4","","-39.8","","71","","0.0","","22","","15","","","","99.81","","","","-49","","NA"
"-95.85","68.64","GJOA HAVEN CLIMATE","2302340","2023-02-05 18:00","2023","02","05","18:00","-36.4","","-39.7","","71","","0.0","","22","","18","","","","99.78","","","","-50","","NA"
"-95.85","68.64","GJOA HAVEN CLIMATE","2302340","2023-02-05 19:00","2023","02","05","19:00","-36.2","","-39.6","","71","","0.0","","23","","18","","","","99.77","","","","-50","","NA"
"-95.85","68.64","GJOA HAVEN CLIMATE","2302340","2023-02-05 20:00","2023","02","05","20:00","-36.0","","-39.3","","71","","0.0","","22","","18","","","","99.72","","","","-50","","NA"
"-95.85","68.64","GJOA HAVEN CLIMATE","2302340","2023-02-05 21:00","2023","02","05","21:00","-35.9","","-39.2","","72","","0.0","","21","","14","","","","99.70","","","","-48","","NA"
"-95.85","68.64","GJOA HAVEN CLIMATE","2302340","2023-02-05 22:00","2023","02","05","22:00","-35.6","","-38.9","","72","","0.0","","23","","14","","","","99.68","","","","-48","","NA"
"-95.85","68.64","GJOA HAVEN CLIMATE","2302340","2023-02-05 23:00","2023","02","05","23:00","-35.5","","-38.8","","72","","0.0","","23","","16","","","","99.69","","","","-49","","NA"
"-95.85","68.64","GJOA HAVEN CLIMATE","2302340","2023-02-06 00:00","2023","02","06","00:00","-35.2","","-38.5","","72","","0.0","","23","","15","","","","99.68","","","","-48","","NA"
"-95.85","68.64","GJOA HAVEN CLIMATE","2302340","2023-02-06 01:00","2023","02","06","01:00","-35.0","","-38.3","","72","","0.0","","21","","14","","","","99.73","","","","-47","","NA"
"-95.85","68.64","GJOA HAVEN CLIMATE","2302340","2023-02-06 02:00","2023","02","06","02:00","-35.3","","-38.6","","72","","0.0","","21","","15","","","","99.71","","","","-48","","NA"
"-95.85","68.64","GJOA HAVEN CLIMATE","2302340","2023-02-06 03:00","2023","02","06","03:00","-36.1","","-39.4","","71","","0.0","","22","","15","","","","99.68","","","","-49","","NA"
"-95.85","68.64","GJOA HAVEN CLIMATE","2302340","2023-02-06 04:00","2023","02","06","04:00","-36.9","","-40.2","","71","","0.0","","21","","16","","","","99.67","","","","-50","","NA"
"-95.85","68.64","GJOA HAVEN CLIMATE","2302340","2023-02-06 05:00","2023","02","06","05:00","-37.5","","-40.9","","71","","0.0","","22","","14","","","","99.64","","","","-50","","NA"
"-95.85","68.64","GJOA HAVEN CLIMATE","2302340","2023-02-06 06:00","2023","02","06","06:00","-38.2","","-41.6","","70","","0.0","","21","","13","","","","99.62","","","","-51","","NA"
"-95.85","68.64","GJOA HAVEN CLIMATE","2302340","2023-02-06 07:00","2023","02","06","07:00","-38.0","","-41.4","","70","","0.0","","22","","15","","","","99.62","","","","-51","","NA"
"-95.85","68.64","GJOA HAVEN CLIMATE","2302340","2023-02-06 08:00","2023","02","06","08:00","-37.3","","-40.7","","71","","0.0","","22","","18","","","","99.59","","","","-52","","NA"
"-95.85","68.64","GJOA HAVEN CLIMATE","2302340","2023-02-06 09:00","2023","02","06","09:00","-36.1","","-39.4","","71","","0.0","","21","","18","","","","99.60","","","","-50","","NA"
"-95.85","68.64","GJOA HAVEN CLIMATE","2302340","2023-02-06 10:00","2023","02","06","10:00","-35.5","","-38.8","","72","","0.0","","22","","18","","","","99.62","","","","-49","","NA"
"-95.85","68.64","GJOA HAVEN CLIMATE","2302340","2023-02-06 11:00","2023","02","06","11:00","-35.7","","-39.0","","72","","0.0","","23","","17","","","","99.64","","","","-49","","NA"
"-95.85","68.64","GJOA HAVEN CLIMATE","2302340","2023-02-06 12:00","2023","02","06","12:00","-35.5","","-38.8","","72","","0.0","","23","","18","","","","99.67","","","","-49","","NA"
"-95.85","68.64","GJOA HAVEN CLIMATE","2302340","2023-02-06 13:00","2023","02","06","13:00","-35.2","","-38.5","","72","","0.0","","23","","15","","","","99.69","","","","-48","","NA"
"-95.85","68.64","GJOA HAVEN CLIMATE","2302340","2023-02-06 14:00","2023","02","06","14:00","-35.8","","-39.1","","72","","0.0","","23","","16","","","","99.71","","","","-49","","NA"
"-95.85","68.64","GJOA HAVEN CLIMATE","2302340","2023-02-06 15:00","2023","02","06","15:00","-35.8","","-39.1","","72","","0.0","","22","","14","","","","99.75","","","","-48","","NA"
"-95.85","68.64","GJOA HAVEN CLIMATE","2302340","2023-02-06 16:00","2023","02","06","16:00","-36.3","","-39.6","","71","","0.0","","21","","15","","","","99.76","","","","-49","","NA"
"-95.85","68.64","GJOA HAVEN CLIMATE","2302340","2023-02-06 17:00","2023","02","06","17:00","-37.1","","-40.4","","71","","0.0","","22","","16","","","","99.78","","","","-51","","NA"
"-95.85","68.64","GJOA HAVEN CLIMATE","2302340","2023-02-06 18:00","2023","02","06","18:00","-37.3","","-40.7","","71","","0.0","","22","","19","","","","99.79","","","","-52","","NA"
"-95.85","68.64","GJOA HAVEN CLIMATE","2302340","2023-02-06 19:00","2023","02","06","19:00","-37.7","","-41.1","","71","","0.0","","22","","17","","","","99.77","","","","-52","","NA"
"-95.85","68.64","GJOA HAVEN CLIMATE","2302340","2023-02-06 20:00","2023","02","06","20:00","-37.8","","-41.2","","70","","0.0","","23","","15","","","","99.78","","","","-51","","NA"
"-95.85","68.64","GJOA HAVEN CLIMATE","2302340","2023-02-06 21:00","2023","02","06","21:00","-37.8","","-41.2","","70","","0.0","","23","","15","","","","99.80","","","","-51","","NA"
"-95.85","68.64","GJOA HAVEN CLIMATE","2302340","2023-02-06 22:00","2023","02","06","22:00","-37.7","","-41.1","","70","","0.0","","22","","14","","","","99.82","","","","-50","","NA"
"-95.85","68.64","GJOA HAVEN CLIMATE","2302340","2023-02-06 23:00","2023","02","06","23:00","-37.7","","-41.1","","70","","0.0","","23","","16","","","","99.85","","","","-51","","NA"
"-95.85","68.64","GJOA HAVEN CLIMATE","2302340","2023-02-07 00:00","2023","02","07","00:00","-37.9","","-41.3","","70","","0.0","","22","","14","","","","99.86","","","","-51","","NA"
"-95.85","68.64","GJOA HAVEN CLIMATE","2302340","2023-02-07 01:00","2023","02","07","01:00","-37.8","","-41.2","","70","","0.0","","24","","15","","","","99.89","","","","-51","","NA"
"-95.85","68.64","GJOA HAVEN CLIMATE","2302340","2023-02-07 02:00","2023","02","07","02:00","-37.7","","-41.1","","70","","0.0","","23","","14","","","","99.90","","","","-50","","NA"
"-95.85","68.64","GJOA HAVEN CLIMATE","2302340","2023-02-07 03:00","2023","02","07","03:00","-37.9","","-41.3","","70","","0.0","","24","","14","","","","99.92","","","","-51","","NA"
"-95.85","68.64","GJOA HAVEN CLIMATE","2302340","2023-02-07 04:00","2023","02","07","04:00","-38.0","","-41.4","","70","","0.0","","23","","15","","","","99.92","","","","-51","","NA"
"-95.85","68.64","GJOA HAVEN CLIMATE","2302340","2023-02-07 05:00","2023","02","07","05:00","-37.8","","-41.3","","70","","0.0","","23","","12","","","","99.93","","","","-50","","NA"
"-95.85","68.64","GJOA HAVEN CLIMATE","2302340","2023-02-07 06:00","2023","02","07","06:00","-37.8","","-41.2","","70","","0.0","","24","","14","","","","99.94","","","","-51","","NA"
"-95.85","68.64","GJOA HAVEN CLIMATE","2302340","2023-02-07 07:00","2023","02","07","07:00","-37.8","","-41.2","","70","","0.0","","22","","9","","","","99.98","","","","-48","","NA"
"-95.85","68.64","GJOA HAVEN CLIMATE","2302340","2023-02-07 08:00","2023","02","07","08:00","-37.8","","-41.2","","70","","0.0","","23","","11","","","","100.00","","","","-49","","NA"
"-95.85","68.64","GJOA HAVEN CLIMATE","2302340","2023-02-07 09:00","2023","02","07","09:00","-37.9","","-41.3","","70","","0.0","","23","","11","","","","100.05","","","","-49","","NA"
"-95.85","68.64","GJOA HAVEN CLIMATE","2302340","2023-02-07 10:00","2023","02","07","10:00","-38.1","","-41.6","","70","","0.0","","24","","12","","","","100.05","","","","-50","","NA"
"-95.85","68.64","GJOA HAVEN CLIMATE","2302340","2023-02-07 11:00","2023","02","07","11:00","-37.7","","-41.1","","70","","0.0","","24","","10","","","","100.07","","","","-48","","NA"
"-95.85","68.64","GJOA HAVEN CLIMATE","2302340","2023-02-07 12:00","2023","02","07","12:00","-36.8","","-40.2","","71","","0.0","","24","","9","","","","100.12","","","","-47","","NA"
"-95.85","68.64","GJOA HAVEN CLIMATE","2302340","2023-02-07 13:00","2023","02","07","13:00","-36.1","","-39.5","","71","","0.0","","23","","8","","","","100.14","","","","-45","","NA"
"-95.85","68.64","GJOA HAVEN CLIMATE","2302340","2023-02-07 14:00","2023","02","07","14:00","-35.5","","-38.8","","72","","0.0","","23","","9","","","","100.17","","","","-45","","NA"
"-95.85","68.64","GJOA HAVEN CLIMATE","2302340","2023-02-07 15:00","2023","02","07","15:00","-35.5","","-38.8","","72","","0.0","","22","","6","","","","100.19","","","","-43","","NA"
"-95.85","68.64","GJOA HAVEN CLIMATE","2302340","2023-02-07 16:00","2023","02","07","16:00","-35.6","","-38.9","","72","","0.0","","23","","7","","","","100.21","","","","-44","","NA"
"-95.85","68.64","GJOA HAVEN CLIMATE","2302340","2023-02-07 17:00","2023","02","07","17:00","-35.6","","-38.9","","72","","0.0","","23","","6","","","","100.24","","","","-43","","NA"
"-95.85","68.64","GJOA HAVEN CLIMATE","2302340","2023-02-07 18:00","2023","02","07","18:00","-36.0","","-39.3","","71","","0.0","","25","","7","","","","100.27","","","","-44","","NA"
"-95.85","68.64","GJOA HAVEN CLIMATE","2302340","2023-02-07 19:00","2023","02","07","19:00","-36.1","","-39.5","","71","","0.0","","25","","6","","","","100.30","","","","-44","","NA"
"-95.85","68.64","GJOA HAVEN CLIMATE","2302340","2023-02-07 20:00","2023","02","07","20:00","-36.5","","-39.9","","71","","0.0","","20","","1","","","","100.32","","","","-38","","NA"
"-95.85","68.64","GJOA HAVEN CLIMATE","2302340","2023-02-07 21:00","2023","02","07","21:00","-36.9","","-40.2","","71","","0.0","","26","","6","","","","100.34","","","","-44","","NA"
"-95.85","68.64","GJOA HAVEN CLIMATE","2302340","2023-02-07 22:00","2023","02","07","22:00","-37.1","","-40.5","","71","","0.0","","28","","8","","","","100.39","","","","-46","","NA"
"-95.85","68.64","GJOA HAVEN CLIMATE","2302340","2023-02-07 23:00","2023","02","07","23:00","-37.2","","-40.6","","71","","0.0","","","","0","","","","100.42","","","","","","NA"
"-95.85","68.64","GJOA HAVEN CLIMATE","2302340","2023-02-08 00:00","2023","02","08","00:00","-37.1","","-40.4","","71","","0.0","","","","0","","","","100.47","","","","","","NA"
"-95.85","68.64","GJOA HAVEN CLIMATE","2302340","2023-02-08 01:00","2023","02","08","01:00","-37.1","","-40.5","","71","","0.0","","0","","1","","","","100.54","","","","-38","","NA"
"-95.85","68.64","GJOA HAVEN CLIMATE","2302340","2023-02-08 02:00","2023","02","08","02:00","-37.1","","-40.5","","71","","0.0","","18","","3","","","","100.55","","","","-41","","NA"
"-95.85","68.64","GJOA HAVEN CLIMATE","2302340","2023-02-08 03:00","2023","02","08","03:00","-36.7","","-40.0","","71","","0.0","","18","","2","","","","100.60","","","","-39","","NA"
"-95.85","68.64","GJOA HAVEN CLIMATE","2302340","2023-02-08 04:00","2023","02","08","04:00","-36.4","","-39.8","","71","","0.0","","23","","8","","","","100.65","","","","-45","","NA"
"-95.85","68.64","GJOA HAVEN CLIMATE","2302340","2023-02-08 05:00","2023","02","08","05:00","-36.0","","-39.3","","71","","0.0","","24","","10","","","","100.71","","","","-46","","NA"
"-95.85","68.64","GJOA HAVEN CLIMATE","2302340","2023-02-08 06:00","2023","02","08","06:00","-35.2","","-38.5","","72","","0.0","","24","","11","","","","100.75","","","","-46","","NA"
"-95.85","68.64","GJOA HAVEN CLIMATE","2302340","2023-02-08 07:00","2023","02","08","07:00","-34.6","","-37.9","","72","","0.0","","24","","9","","","","100.81","","","","-44","","NA"
"-95.85","68.64","GJOA HAVEN CLIMATE","2302340","2023-02-08 08:00","2023","02","08","08:00","-34.3","","-37.5","","72","","0.0","","24","","8","","","","100.84","","","","-43","","NA"
"-95.85","68.64","GJOA HAVEN CLIMATE","2302340","2023-02-08 09:00","2023","02","08","09:00","-33.9","","-37.1","","73","","0.0","","24","","11","","","","100.90","","","","-44","","NA"
"-95.85","68.64","GJOA HAVEN CLIMATE","2302340","2023-02-08 10:00","2023","02","08","10:00","-33.5","","-36.7","","73","","0.0","","23","","10","","","","100.93","","","","-43","","NA"
"-95.85","68.64","GJOA HAVEN CLIMATE","2302340","2023-02-08 11:00","2023","02","08","11:00","-33.2","","-36.3","","73","","0.0","","23","","11","","","","100.97","","","","-44","","NA"
"-95.85","68.64","GJOA HAVEN CLIMATE","2302340","2023-02-08 12:00","2023","02","08","12:00","-32.6","","-35.8","","74","","0.0","","23","","11","","","","101.01","","","","-43","","NA"
"-95.85","68.64","GJOA HAVEN CLIMATE","2302340","2023-02-08 13:00","2023","02","08","13:00","-32.1","","-35.2","","74","","0.0","","24","","12","","","","101.06","","","","-43","","NA"
"-95.85","68.64","GJOA HAVEN CLIMATE","2302340","2023-02-08 14:00","2023","02","08","14:00","-31.8","","-34.9","","74","","0.0","","23","","10","","","","101.11","","","","-41","","NA"
"-95.85","68.64","GJOA HAVEN CLIMATE","2302340","2023-02-08 15:00","2023","02","08","15:00","-31.5","","-34.6","","74","","0.0","","22","","10","","","","101.15","","","","-41","","NA"
"-95.85","68.64","GJOA HAVEN CLIMATE","2302340","2023-02-08 16:00","2023","02","08","16:00","-31.7","","-34.8","","74","","0.0","","21","","11","","","","101.19","","","","-42","","NA"
"-95.85","68.64","GJOA HAVEN CLIMATE","2302340","2023-02-08 17:00","2023","02","08","17:00","-31.7","","-34.7","","74","","0.0","","22","","11","","","","101.24","","","","-42","","NA"
"-95.85","68.64","GJOA HAVEN CLIMATE","2302340","2023-02-08 18:00","2023","02","08","18:00","-31.8","","-34.8","","74","","0.0","","22","","10","","","","101.27","","","","-41","","NA"
"-95.85","68.64","GJOA HAVEN CLIMATE","2302340","2023-02-08 19:00","2023","02","08","19:00","-31.5","","-34.6","","74","","0.0","","22","","11","","","","101.27","","","","-41","","NA"
"-95.85","68.64","GJOA HAVEN CLIMATE","2302340","2023-02-08 20:00","2023","02","08","20:00","-31.9","","-35.0","","74","","0.0","","22","","12","","","","101.27","","","","-42","","NA"
"-95.85","68.64","GJOA HAVEN CLIMATE","2302340","2023-02-08 21:00","2023","02","08","21:00","-31.8","","-34.8","","74","","0.0","","22","","10","","","","101.26","","","","-41","","NA"
"-95.85","68.64","GJOA HAVEN CLIMATE","2302340","2023-02-08 22:00","2023","02","08","22:00","-31.9","","-34.9","","74","","0.0","","21","","10","","","","101.28","","","","-41","","NA"
"-95.85","68.64","GJOA HAVEN CLIMATE","2302340","2023-02-08 23:00","2023","02","08","23:00","-31.9","","-34.9","","74","","0.0","","21","","12","","","","101.28","","","","-42","","NA"
"-95.85","68.64","GJOA HAVEN CLIMATE","2302340","2023-02-09 00:00","2023","02","09","00:00","-32.2","","-35.3","","74","","0.0","","21","","12","","","","101.30","","","","-43","","NA"
"-95.85","68.64","GJOA HAVEN CLIMATE","2302340","2023-02-09 01:00","2023","02","09","01:00","-32.4","","-35.5","","74","","0.0","","21","","10","","","","101.33","","","","-42","","NA"
"-95.85","68.64","GJOA HAVEN CLIMATE","2302340","2023-02-09 02:00","2023","02","09","02:00","-32.6","","-35.7","","74","","0.0","","22","","9","","","","101.36","","","","-42","","NA"
"-95.85","68.64","GJOA HAVEN CLIMATE","2302340","2023-02-09 03:00","2023","02","09","03:00","-32.5","","-35.6","","74","","0.0","","21","","8","","","","101.36","","","","-41","","NA"
"-95.85","68.64","GJOA HAVEN CLIMATE","2302340","2023-02-09 04:00","2023","02","09","04:00","-32.2","","-35.3","","74","","0.0","","21","","9","","","","101.35","","","","-41","","NA"
"-95.85","68.64","GJOA HAVEN CLIMATE","2302340","2023-02-09 05:00","2023","02","09","05:00","-31.9","","-35.0","","74","","0.0","","21","","8","","","","101.32","","","","-40","","NA"
"-95.85","68.64","GJOA HAVEN CLIMATE","2302340","2023-02-09 06:00","2023","02","09","06:00","-32.2","","-35.3","","74","","0.0","","21","","9","","","","101.31","","","","-41","","NA"
"-95.85","68.64","GJOA HAVEN CLIMATE","2302340","2023-02-09 07:00","2023","02","09","07:00","-32.3","","-35.4","","74","","0.0","","22","","11","","","","101.29","","","","-42","","NA"
"-95.85","68.64","GJOA HAVEN CLIMATE","2302340","2023-02-09 08:00","2023","02","09","08:00","-32.9","","-36.0","","74","","0.0","","21","","7","","","","101.29","","","","-41","","NA"
"-95.85","68.64","GJOA HAVEN CLIMATE","2302340","2023-02-09 09:00","2023","02","09","09:00","-32.9","","-36.0","","74","","0.0","","22","","7","","","","101.26","","","","-41","","NA"
"-95.85","68.64","GJOA HAVEN CLIMATE","2302340","2023-02-09 10:00","2023","02","09","10:00","-33.0","","-36.2","","74","","0.0","","22","","6","","","","101.26","","","","-40","","NA"
"-95.85","68.64","GJOA HAVEN CLIMATE","2302340","2023-02-09 11:00","2023","02","09","11:00","-33.1","","-36.2","","74","","0.0","","20","","7","","","","101.23","","","","-41","","NA"
"-95.85","68.64","GJOA HAVEN CLIMATE","2302340","2023-02-09 12:00","2023","02","09","12:00","-33.0","","-36.2","","74","","0.0","","22","","9","","","","101.20","","","","-42","","NA"
"-95.85","68.64","GJOA HAVEN CLIMATE","2302340","2023-02-09 13:00","2023","02","09","13:00","-33.1","","-36.2","","74","","0.0","","23","","7","","","","101.20","","","","-41","","NA"
"-95.85","68.64","GJOA HAVEN CLIMATE","2302340","2023-02-09 14:00","2023","02","09","14:00","-33.0","","-36.1","","74","","0.0","","22","","6","","","","101.20","","","","-40","","NA"
"-95.85","68.64","GJOA HAVEN CLIMATE","2302340","2023-02-09 15:00","2023","02","09","15:00","-33.0","","-36.1","","74","","0.0","","21","","4","","","","101.21","","","","-38","","NA"
"-95.85","68.64","GJOA HAVEN CLIMATE","2302340","2023-02-09 16:00","2023","02","09","16:00","-33.0","","-36.2","","74","","0.0","","19","","4","","","","101.18","","","","-38","","NA"
"-95.85","68.64","GJOA HAVEN CLIMATE","2302340","2023-02-09 17:00","2023","02","09","17:00","-33.1","","-36.2","","74","","0.0","","23","","6","","","","101.17","","","","-40","","NA"
"-95.85","68.64","GJOA HAVEN CLIMATE","2302340","2023-02-09 18:00","2023","02","09","18:00","-32.8","","-36.0","","74","","0.0","","21","","3","","","","101.14","","","","-36","","NA"
"-95.85","68.64","GJOA HAVEN CLIMATE","2302340","2023-02-09 19:00","2023","02","09","19:00","-33.2","","-36.3","","74","","0.0","","25","","2","","","","101.08","","","","-36","","NA"
"-95.85","68.64","GJOA HAVEN CLIMATE","2302340","2023-02-09 20:00","2023","02","09","20:00","-33.6","","-36.8","","73","","0.0","","19","","1","","","","101.08","","","","-35","","NA"
"-95.85","68.64","GJOA HAVEN CLIMATE","2302340","2023-02-09 21:00","2023","02","09","21:00","-33.9","","-37.1","","73","","0.0","","27","","3","","","","101.04","","","","-38","","NA"
"-95.85","68.64","GJOA HAVEN CLIMATE","2302340","2023-02-09 22:00","2023","02","09","22:00","-34.4","","-37.5","","73","","0.0","","33","","6","","","","101.04","","","","-42","","NA"
"-95.85","68.64","GJOA HAVEN CLIMATE","2302340","2023-02-09 23:00","2023","02","09","23:00","-34.3","","-37.5","","73","","0.0","","36","","7","","","","101.04","","","","-42","","NA"
"-95.85","68.64","GJOA HAVEN CLIMATE","2302340","2023-02-10 00:00","2023","02","10","00:00","-34.4","","-37.6","","73","","0.0","","1","","4","","","","101.02","","","","-39","","NA"
"-95.85","68.64","GJOA HAVEN CLIMATE","2302340","2023-02-10 01:00","2023","02","10","01:00","-34.6","","-37.8","","73","","0.0","","1","","8","","","","101.04","","","","-43","","NA"
"-95.85","68.64","GJOA HAVEN CLIMATE","2302340","2023-02-10 02:00","2023","02","10","02:00","-34.7","","-37.9","","73","","0.0","","36","","13","","","","101.02","","","","-46","","NA"
"-95.85","68.64","GJOA HAVEN CLIMATE","2302340","2023-02-10 03:00","2023","02","10","03:00","-34.4","","-37.6","","73","","0.0","","35","","13","","","","101.02","","","","-46","","NA"
"-95.85","68.64","GJOA HAVEN CLIMATE","2302340","2023-02-10 04:00","2023","02","10","04:00","-34.2","","-37.4","","73","","0.0","","34","","12","","","","101.03","","","","-45","","NA"
"-95.85","68.64","GJOA HAVEN CLIMATE","2302340","2023-02-10 05:00","2023","02","10","05:00","-33.8","","-36.9","","73","","0.0","","35","","12","","","","101.03","","","","-45","","NA"
"-95.85","68.64","GJOA HAVEN CLIMATE","2302340","2023-02-10 06:00","2023","02","10","06:00","-34.5","","-37.7","","73","","0.0","","4","","7","","","","101.04","","","","-43","","NA"
"-95.85","68.64","GJOA HAVEN CLIMATE","2302340","2023-02-10 07:00","2023","02","10","07:00","-35.0","","-38.2","","72","","0.0","","34","","17","","","","101.04","","","","-48","","NA"
"-95.85","68.64","GJOA HAVEN CLIMATE","2302340","2023-02-10 08:00","2023","02","10","08:00","-35.3","","-38.6","","72","","0.0","","34","","16","","","","101.05","","","","-48","","NA"
"-95.85","68.64","GJOA HAVEN CLIMATE","2302340","2023-02-10 09:00","2023","02","10","09:00","-36.3","","-39.6","","72","","0.0","","33","","16","","","","101.04","","","","-50","","NA"
"-95.85","68.64","GJOA HAVEN CLIMATE","2302340","2023-02-10 10:00","2023","02","10","10:00","-37.1","","-40.4","","71","","0.0","","33","","18","","","","101.03","","","","-51","","NA"
"-95.85","68.64","GJOA HAVEN CLIMATE","2302340","2023-02-10 11:00","2023","02","10","11:00","-37.6","","-40.9","","71","","0.0","","33","","13","","","","101.07","","","","-50","","NA"
"-95.85","68.64","GJOA HAVEN CLIMATE","2302340","2023-02-10 12:00","2023","02","10","12:00","-37.7","","-41.1","","71","","0.0","","32","","16","","","","101.05","","","","-51","","NA"
"-95.85","68.64","GJOA HAVEN CLIMATE","2302340","2023-02-10 13:00","2023","02","10","13:00","-37.9","","-41.2","","71","","0.0","","32","","16","","","","101.04","","","","-52","","NA"
"-95.85","68.64","GJOA HAVEN CLIMATE","2302340","2023-02-10 14:00","2023","02","10","14:00","-37.6","","-41.0","","71","","0.0","","33","","12","","","","101.08","","","","-49","","NA"
"-95.85","68.64","GJOA HAVEN CLIMATE","2302340","2023-02-10 15:00","2023","02","10","15:00","-37.9","","-41.3","","71","","0.0","","32","","19","","","","101.08","","","","-53","","NA"
"-95.85","68.64","GJOA HAVEN CLIMATE","2302340","2023-02-10 16:00","2023","02","10","16:00","-38.0","","-41.4","","71","","0.0","","32","","20","","","","101.05","","","","-53","","NA"
"-95.85","68.64","GJOA HAVEN CLIMATE","2302340","2023-02-10 17:00","2023","02","10","17:00","-37.8","","-41.2","","71","","0.0","","27","","4","","","","101.09","","","","-43","","NA"
"-95.85","68.64","GJOA HAVEN CLIMATE","2302340","2023-02-10 18:00","2023","02","10","18:00","-38.1","","-41.5","","70","","0.0","","28","","9","","","","101.09","","","","-48","","NA"
"-95.85","68.64","GJOA HAVEN CLIMATE","2302340","2023-02-10 19:00","2023","02","10","19:00","-38.0","","-41.4","","70","","0.0","","28","","6","","","","101.06","","","","-46","","NA"
"-95.85","68.64","GJOA HAVEN CLIMATE","2302340","2023-02-10 20:00","2023","02","10","20:00","-38.3","","-41.7","","70","","0.0","","31","","9","","","","101.00","","","","-48","","NA"
"-95.85","68.64","GJOA HAVEN CLIMATE","2302340","2023-02-10 21:00","2023","02","10","21:00","-38.3","","-41.7","","70","","0.0","","33","","13","","","","100.95","","","","-51","","NA"
"-95.85","68.64","GJOA HAVEN CLIMATE","2302340","2023-02-10 22:00","2023","02","10","22:00","-38.3","","-41.7","","70","","0.0","","32","","19","","","","100.92","","","","-53","","NA"
"-95.85","68.64","GJOA HAVEN CLIMATE","2302340","2023-02-10 23:00","2023","02","10","23:00","-38.0","","-41.4","","70","","0.0","","32","","18","","","","100.95","","","","-52","","NA"
"-95.85","68.64","GJOA HAVEN CLIMATE","2302340","2023-02-11 00:00","2023","02","11","00:00","-38.3","","-41.7","","70","","0.0","","32","","19","","","","100.93","","","","-53","","NA"
"-95.85","68.64","GJOA HAVEN CLIMATE","2302340","2023-02-11 01:00","2023","02","11","01:00","-38.3","","-41.7","","70","","0.0","","32","","20","","","","100.92","","","","-54","","NA"
"-95.85","68.64","GJOA HAVEN CLIMATE","2302340","2023-02-11 02:00","2023","02","11","02:00","-38.3","","-41.7","","70","","0.0","","25","","6","","","","100.93","","","","-46","","NA"
"-95.85","68.64","GJOA HAVEN CLIMATE","2302340","2023-02-11 03:00","2023","02","11","03:00","-38.4","","-41.9","","70","","0.0","","25","","7","","","","100.89","","","","-47","","NA"
"-95.85","68.64","GJOA HAVEN CLIMATE","2302340","2023-02-11 04:00","2023","02","11","04:00","-38.4","","-41.9","","70","","0.0","","25","","8","","","","100.88","","","","-48","","NA"
"-95.85","68.64","GJOA HAVEN CLIMATE","2302340","2023-02-11 05:00","2023","02","11","05:00","-38.9","","-42.3","","70","","0.0","","26","","11","","","","100.81","","","","-50","","NA"
"-95.85","68.64","GJOA HAVEN CLIMATE","2302340","2023-02-11 06:00","2023","02","11","06:00","-39.0","","-42.5","","70","","0.0","","26","","7","","","","100.76","","","","-48","","NA"
"-95.85","68.64","GJOA HAVEN CLIMATE","2302340","2023-02-11 07:00","2023","02","11","07:00","-39.2","","-42.7","","70","","0.0","","25","","9","","","","100.73","","","","-49","","NA"
"-95.85","68.64","GJOA HAVEN CLIMATE","2302340","2023-02-11 08:00","2023","02","11","08:00","-39.1","","-42.6","","70","","0.0","","27","","10","","","","100.69","","","","-50","","NA"
"-95.85","68.64","GJOA HAVEN CLIMATE","2302340","2023-02-11 09:00","2023","02","11","09:00","-39.5","","-43.0","","70","","0.0","","24","","7","","","","100.64","","","","-48","","NA"
"-95.85","68.64","GJOA HAVEN CLIMATE","2302340","2023-02-11 10:00","2023","02","11","10:00","-39.1","","-42.6","","70","","0.0","","24","","6","","","","100.61","","","","-47","","NA"
"-95.85","68.64","GJOA HAVEN CLIMATE","2302340","2023-02-11 11:00","2023","02","11","11:00","-39.0","","-42.5","","70","","0.0","","26","","7","","","","100.58","","","","-48","","NA"
"-95.85","68.64","GJOA HAVEN CLIMATE","2302340","2023-02-11 12:00","2023","02","11","12:00","-38.5","","-41.9","","70","","0.0","","27","","10","","","","100.57","","","","-49","","NA"
"-95.85","68.64","GJOA HAVEN CLIMATE","2302340","2023-02-11 13:00","2023","02","11","13:00","-37.5","","-41.0","","70","","0.0","","25","","11","","","","100.53","","","","-49","","NA"
"-95.85","68.64","GJOA HAVEN CLIMATE","2302340","2023-02-11 14:00","2023","02","11","14:00","-37.1","","-40.5","","70","","0.0","","24","","10","","","","100.55","","","","-48","","NA"
"-95.85","68.64","GJOA HAVEN CLIMATE","2302340","2023-02-11 15:00","2023","02","11","15:00","-37.0","","-40.4","","70","","0.0","","23","","9","","","","100.52","","","","-47","","NA"
"-95.85","68.64","GJOA HAVEN CLIMATE","2302340","2023-02-11 16:00","2023","02","11","16:00","-37.1","","-40.6","","71","","0.0","","23","","8","","","","100.48","","","","-46","","NA"
"-95.85","68.64","GJOA HAVEN CLIMATE","2302340","2023-02-11 17:00","2023","02","11","17:00","-37.7","","-41.1","","70","","0.0","","24","","10","","","","100.46","","","","-48","","NA"
"-95.85","68.64","GJOA HAVEN CLIMATE","2302340","2023-02-11 18:00","2023","02","11","18:00","-38.1","","-41.5","","70","","0.0","","19","","5","","","","100.42","","","","-45","","NA"
"-95.85","68.64","GJOA HAVEN CLIMATE","2302340","2023-02-11 19:00","2023","02","11","19:00","-38.4","","-41.8","","70","","0.0","","22","","5","","","","100.35","","","","-45","","NA"
"-95.85","68.64","GJOA HAVEN CLIMATE","2302340","2023-02-11 20:00","2023","02","11","20:00","-38.4","","-41.9","","70","","0.0","","22","","12","","","","100.32","","","","-50","","NA"
"-95.85","68.64","GJOA HAVEN CLIMATE","2302340","2023-02-11 21:00","2023","02","11","21:00","-38.7","","-42.2","","70","","0.0","","23","","13","","","","100.29","","","","-51","","NA"
"-95.85","68.64","GJOA HAVEN CLIMATE","2302340","2023-02-11 22:00","2023","02","11","22:00","-38.8","","-42.3","","70","","0.0","","23","","13","","","","100.23","","","","-51","","NA"
"-95.85","68.64","GJOA HAVEN CLIMATE","2302340","2023-02-11 23:00","2023","02","11","23:00","-38.8","","-42.2","","70","","0.0","","22","","13","","","","100.21","","","","-51","","NA"
"-95.85","68.64","GJOA HAVEN CLIMATE","2302340","2023-02-12 00:00","2023","02","12","00:00","-38.9","","-42.3","","70","","0.0","","22","","11","","","","100.19","","","","-50","","NA"
"-95.85","68.64","GJOA HAVEN CLIMATE","2302340","2023-02-12 01:00","2023","02","12","01:00","-39.1","","-42.5","","70","","0.0","","19","","10","","","","100.20","","","","-50","","NA"
"-95.85","68.64","GJOA HAVEN CLIMATE","2302340","2023-02-12 02:00","2023","02","12","02:00","-39.4","","-42.9","","70","","0.0","","20","","10","","","","100.17","","","","-50","","NA"
"-95.85","68.64","GJOA HAVEN CLIMATE","2302340","2023-02-12 03:00","2023","02","12","03:00","-39.7","","-43.2","","69","","0.0","","20","","9","","","","100.16","","","","-50","","NA"
"-95.85","68.64","GJOA HAVEN CLIMATE","2302340","2023-02-12 04:00","2023","02","12","04:00","-39.5","","-43.0","","69","","0.0","","21","","13","","","","100.13","","","","-52","","NA"
"-95.85","68.64","GJOA HAVEN CLIMATE","2302340","2023-02-12 05:00","2023","02","12","05:00","-39.7","","-43.2","","69","","0.0","","21","","15","","","","100.07","","","","-53","","NA"
"-95.85","68.64","GJOA HAVEN CLIMATE","2302340","2023-02-12 06:00","2023","02","12","06:00","-39.6","","-43.1","","69","","0.0","","21","","14","","","","100.04","","","","-53","","NA"
"-95.85","68.64","GJOA HAVEN CLIMATE","2302340","2023-02-12 07:00","2023","02","12","07:00","-39.4","","-42.9","","69","","0.0","","21","","9","","","","100.02","","","","-50","","NA"
"-95.85","68.64","GJOA HAVEN CLIMATE","2302340","2023-02-12 08:00","2023","02","12","08:00","-39.6","","-43.1","","69","","0.0","","19","","7","","","","99.99","","","","-48","","NA"
"-95.85","68.64","GJOA HAVEN CLIMATE","2302340","2023-02-12 09:00","2023","02","12","09:00","-39.7","","-43.2","","69","","0.0","","19","","9","","","","99.99","","","","-50","","NA"
"-95.85","68.64","GJOA HAVEN CLIMATE","2302340","2023-02-12 10:00","2023","02","12","10:00","-39.4","","-42.9","","69","","0.0","","19","","9","","","","99.96","","","","-50","","NA"
"-95.85","68.64","GJOA HAVEN CLIMATE","2302340","2023-02-12 11:00","2023","02","12","11:00","-38.7","","-42.2","","70","","0.0","","17","","8","","","","99.95","","","","-48","","NA"
"-95.85","68.64","GJOA HAVEN CLIMATE","2302340","2023-02-12 12:00","2023","02","12","12:00","-37.3","","-40.8","","70","","0.0","","18","","11","","","","99.93","","","","-48","","NA"
"-95.85","68.64","GJOA HAVEN CLIMATE","2302340","2023-02-12 13:00","2023","02","12","13:00","-35.2","","-38.6","","71","","0.0","","20","","12","","","","99.89","","","","-46","","NA"
"-95.85","68.64","GJOA HAVEN CLIMATE","2302340","2023-02-12 14:00","2023","02","12","14:00","-34.6","","-37.9","","72","","0.0","","20","","10","","","","99.85","","","","-45","","NA"
"-95.85","68.64","GJOA HAVEN CLIMATE","2302340","2023-02-12 15:00","2023","02","12","15:00","-34.8","","-38.1","","72","","0.0","","18","","7","","","","99.86","","","","-43","","NA"
"-95.85","68.64","GJOA HAVEN CLIMATE","2302340","2023-02-12 16:00","2023","02","12","16:00","-35.4","","-38.7","","72","","0.0","","17","","4","","","","99.86","","","","-40","","NA"
"-95.85","68.64","GJOA HAVEN CLIMATE","2302340","2023-02-12 17:00","2023","02","12","17:00","-35.6","","-38.9","","72","","0.0","","17","","4","","","","99.85","","","","-41","","NA"
"-95.85","68.64","GJOA HAVEN CLIMATE","2302340","2023-02-12 18:00","2023","02","12","18:00","-35.9","","-39.2","","72","","0.0","","17","","2","","","","99.82","","","","-38","","NA"
"-95.85","68.64","GJOA HAVEN CLIMATE","2302340","2023-02-12 19:00","2023","02","12","19:00","-36.1","","-39.4","","72","","0.0","","16","","11","","","","99.79","","","","-47","","NA"
"-95.85","68.64","GJOA HAVEN CLIMATE","2302340","2023-02-12 20:00","2023","02","12","20:00","-36.2","","-39.6","","71","","0.0","","15","","8","","","","99.77","","","","-45","","NA"
"-95.85","68.64","GJOA HAVEN CLIMATE","2302340","2023-02-12 21:00","2023","02","12","21:00","-36.1","","-39.5","","71","","0.0","","16","","8","","","","99.75","","","","-45","","NA"
"-95.85","68.64","GJOA HAVEN CLIMATE","2302340","2023-02-12 22:00","2023","02","12","22:00","-35.9","","-39.3","","71","","0.0","","15","","3","","","","99.72","","","","-40","","NA"
"-95.85","68.64","GJOA HAVEN CLIMATE","2302340","2023-02-12 23:00","2023","02","12","23:00","-35.8","","-39.1","","71","","0.0","","","","0","","","","99.74","","","","","","NA"
"-95.85","68.64","GJOA HAVEN CLIMATE","2302340","2023-02-13 00:00","2023","02","13","00:00","-36.3","","-39.6","","71","","0.0","","0","","1","","","","99.74","","","","-38","","NA"
"-95.85","68.64","GJOA HAVEN CLIMATE","2302340","2023-02-13 01:00","2023","02","13","01:00","-36.4","","-39.7","","71","","0.0","","15","","2","","","","99.74","","","","-39","","NA"
"-95.85","68.64","GJOA HAVEN CLIMATE","2302340","2023-02-13 02:00","2023","02","13","02:00","-36.5","","-39.9","","71","","0.0","","","","0","","","","99.75","","","","","","NA"
"-95.85","68.64","GJOA HAVEN CLIMATE","2302340","2023-02-13 03:00","2023","02","13","03:00","-36.5","","-39.9","","71","","0.0","","15","","2","","","","99.74","","","","-39","","NA"
"-95.85","68.64","GJOA HAVEN CLIMATE","2302340","2023-02-13 04:00","2023","02","13","04:00","-36.5","","-39.8","","71","","0.0","","15","","2","","","","99.75","","","","-39","","NA"
"-95.85","68.64","GJOA HAVEN CLIMATE","2302340","2023-02-13 05:00","2023","02","13","05:00","-36.4","","-39.7","","71","","0.0","","14","","1","","","","99.77","","","","-38","","NA"
"-95.85","68.64","GJOA HAVEN CLIMATE","2302340","2023-02-13 06:00","2023","02","13","06:00","-36.2","","-39.5","","71","","0.0","","12","","2","","","","99.77","","","","-39","","NA"
"-95.85","68.64","GJOA HAVEN CLIMATE","2302340","2023-02-13 07:00","2023","02","13","07:00","-36.1","","-39.4","","71","","0.0","","","","0","","","","99.77","","","","","","NA"
"-95.85","68.64","GJOA HAVEN CLIMATE","2302340","2023-02-13 08:00","2023","02","13","08:00","-36.0","","-39.3","","71","","0.0","","5","","8","","","","99.78","","","","-45","","NA"
"-95.85","68.64","GJOA HAVEN CLIMATE","2302340","2023-02-13 09:00","2023","02","13","09:00","-36.1","","-39.4","","71","","0.0","","5","","8","","","","99.83","","","","-45","","NA"
"-95.85","68.64","GJOA HAVEN CLIMATE","2302340","2023-02-13 10:00","2023","02","13","10:00","-36.1","","-39.4","","71","","0.0","","7","","4","","","","99.82","","","","-41","","NA"
"-95.85","68.64","GJOA HAVEN CLIMATE","2302340","2023-02-13 11:00","2023","02","13","11:00","-35.8","","-39.1","","72","","0.0","","6","","7","","","","99.81","","","","-44","","NA"
"-95.85","68.64","GJOA HAVEN CLIMATE","2302340","2023-02-13 12:00","2023","02","13","12:00","-35.0","","-38.3","","72","","0.0","","7","","6","","","","99.84","","","","-42","","NA"
"-95.85","68.64","GJOA HAVEN CLIMATE","2302340","2023-02-13 13:00","2023","02","13","13:00","-34.9","","-38.1","","72","","0.0","","7","","6","","","","99.86","","","","-42","","NA"
"-95.85","68.64","GJOA HAVEN CLIMATE","2302340","2023-02-13 14:00","2023","02","13","14:00","-34.7","","-38.0","","72","","0.0","","7","","7","","","","99.89","","","","-43","","NA"
"-95.85","68.64","GJOA HAVEN CLIMATE","2302340","2023-02-13 15:00","2023","02","13","15:00","-34.7","","-38.0","","72","","0.0","","8","","5","","","","99.93","","","","-41","","NA"
"-95.85","68.64","GJOA HAVEN CLIMATE","2302340","2023-02-13 16:00","2023","02","13","16:00","-35.0","","-38.3","","72","","0.0","","5","","6","","","","99.96","","","","-42","","NA"
"-95.85","68.64","GJOA HAVEN CLIMATE","2302340","2023-02-13 17:00","2023","02","13","17:00","-35.5","","-38.7","","72","","0.0","","5","","8","","","","99.97","","","","-44","","NA"
"-95.85","68.64","GJOA HAVEN CLIMATE","2302340","2023-02-13 18:00","2023","02","13","18:00","-36.0","","-39.3","","72","","0.0","","6","","8","","","","100.00","","","","-45","","NA"
"-95.85","68.64","GJOA HAVEN CLIMATE","2302340","2023-02-13 19:00","2023","02","13","19:00","-36.4","","-39.7","","71","","0.0","","7","","6","","","","100.02","","","","-44","","NA"
"-95.85","68.64","GJOA HAVEN CLIMATE","2302340","2023-02-13 20:00","2023","02","13","20:00","-36.3","","-39.7","","71","","0.0","","8","","1","","","","100.04","","","","-38","","NA"
"-95.85","68.64","GJOA HAVEN CLIMATE","2302340","2023-02-13 21:00","2023","02","13","21:00","-36.2","","-39.5","","71","","0.0","","7","","4","","","","100.05","","","","-41","","NA"
"-95.85","68.64","GJOA HAVEN CLIMATE","2302340","2023-02-13 22:00","2023","02","13","22:00","-36.9","","-40.2","","71","","0.0","","6","","7","","","","100.07","","","","-45","","NA"
"-95.85","68.64","GJOA HAVEN CLIMATE","2302340","2023-02-13 23:00","2023","02","13","23:00","-37.3","","-40.7","","71","","0.0","","6","","7","","","","100.08","","","","-46","","NA"
"-95.85","68.64","GJOA HAVEN CLIMATE","2302340","2023-02-14 00:00","2023","02","14","00:00","-37.4","","-40.8","","71","","0.0","","4","","6","","","","100.12","","","","-45","","NA"
"-95.85","68.64","GJOA HAVEN CLIMATE","2302340","2023-02-14 01:00","2023","02","14","01:00","-37.7","","-41.0","","71","","0.0","","7","","4","","","","100.14","","","","-43","","NA"
"-95.85","68.64","GJOA HAVEN CLIMATE","2302340","2023-02-14 02:00","2023","02","14","02:00","-37.6","","-41.0","","71","","0.0","","2","","7","","","","100.20","","","","-46","","NA"
"-95.85","68.64","GJOA HAVEN CLIMATE","2302340","2023-02-14 03:00","2023","02","14","03:00","-37.6","","-41.0","","70","","0.0","","4","","9","","","","100.21","","","","-48","","NA"
"-95.85","68.64","GJOA HAVEN CLIMATE","2302340","2023-02-14 04:00","2023","02","14","04:00","-38.1","","-41.5","","70","","0.0","","8","","4","","","","100.21","","","","-43","","NA"
"-95.85","68.64","GJOA HAVEN CLIMATE","2302340","2023-02-14 05:00","2023","02","14","05:00","-38.0","","-41.4","","70","","0.0","","7","","3","","","","100.25","","","","-42","","NA"
"-95.85","68.64","GJOA HAVEN CLIMATE","2302340","2023-02-14 06:00","2023","02","14","06:00","-38.0","","-41.4","","70","","0.0","","9","","1","","","","100.29","","","","-39","","NA"
"-95.85","68.64","GJOA HAVEN CLIMATE","2302340","2023-02-14 07:00","2023","02","14","07:00","-37.7","","-41.1","","70","","0.0","","7","","3","","","","100.31","","","","-42","","NA"
"-95.85","68.64","GJOA HAVEN CLIMATE","2302340","2023-02-14 08:00","2023","02","14","08:00","-38.0","","-41.4","","70","","0.0","","","","0","","","","100.33","","","","","","NA"
"-95.85","68.64","GJOA HAVEN CLIMATE","2302340","2023-02-14 09:00","2023","02","14","09:00","-37.6","","-41.0","","70","","0.0","","6","","3","","","","100.35","","","","-42","","NA"
"-95.85","68.64","GJOA HAVEN CLIMATE","2302340","2023-02-14 10:00","2023","02","14","10:00","-38.0","","-41.4","","70","","0.0","","7","","2","","","","100.37","","","","-41","","NA"
"-95.85","68.64","GJOA HAVEN CLIMATE","2302340","2023-02-14 11:00","2023","02","14","11:00","-37.6","","-41.0","","70","","0.0","","","","0","","","","100.40","","","","","","NA"
"-95.85","68.64","GJOA HAVEN CLIMATE","2302340","2023-02-14 12:00","2023","02","14","12:00","-37.0","","-40.4","","71","","0.0","","","","0","","","","100.39","","","","","","NA"
"-95.85","68.64","GJOA HAVEN CLIMATE","2302340","2023-02-14 13:00","2023","02","14","13:00","-36.5","","-39.9","","71","","0.0","","","","0","","","","100.39","","","","","","NA"
"-95.85","68.64","GJOA HAVEN CLIMATE","2302340","2023-02-14 14:00","2023","02","14","14:00","-36.1","","-39.5","","71","","0.0","","","","0","","","","100.42","","","","","","NA"
"-95.85","68.64","GJOA HAVEN CLIMATE","2302340","2023-02-14 15:00","2023","02","14","15:00","-35.8","","-39.1","","71","","0.0","","32","","6","","","","100.44","","","","-43","","NA"
"-95.85","68.64","GJOA HAVEN CLIMATE","2302340","2023-02-14 16:00","2023","02","14","16:00","-36.1","","-39.4","","71","","0.0","","30","","8","","","","100.44","","","","-45","","NA"
"-95.85","68.64","GJOA HAVEN CLIMATE","2302340","2023-02-14 17:00","2023","02","14","17:00","-36.5","","-39.8","","71","","0.0","","31","","11","","","","100.42","","","","-47","","NA"
"-95.85","68.64","GJOA HAVEN CLIMATE","2302340","2023-02-14 18:00","2023","02","14","18:00","-37.6","","-41.0","","71","","0.0","","32","","12","","","","100.42","","","","-49","","NA"
"-95.85","68.64","GJOA HAVEN CLIMATE","2302340","2023-02-14 19:00","2023","02","14","19:00","-38.2","","-41.6","","70","","0.0","","31","","12","","","","100.39","","","","-50","","NA"
"-95.85","68.64","GJOA HAVEN CLIMATE","2302340","2023-02-14 20:00","2023","02","14","20:00","-38.7","","-42.1","","70","","0.0","","30","","13","","","","100.41","","","","-51","","NA"
"-95.85","68.64","GJOA HAVEN CLIMATE","2302340","2023-02-14 21:00","2023","02","14","21:00","-39.2","","-42.7","","70","","0.0","","30","","13","","","","100.35","","","","-52","","NA"
"-95.85","68.64","GJOA HAVEN CLIMATE","2302340","2023-02-14 22:00","2023","02","14","22:00","-39.4","","-42.9","","69","","0.0","","27","","10","","","","100.34","","","","-50","","NA"
"-95.85","68.64","GJOA HAVEN CLIMATE","2302340","2023-02-14 23:00","2023","02","14","23:00","-39.4","","-42.9","","69","","0.0","","26","","9","","","","100.28","","","","-50","","NA"
"-95.85","68.64","GJOA HAVEN CLIMATE","2302340","2023-02-15 00:00","2023","02","15","00:00","-39.4","","-42.9","","69","","0.0","","23","","11","","","","100.27","","","","-51","","NA"
"-95.85","68.64","GJOA HAVEN CLIMATE","2302340","2023-02-15 01:00","2023","02","15","01:00","-39.8","","-43.2","","69","","0.0","","24","","12","","","","100.22","","","","-52","","NA"
"-95.85","68.64","GJOA HAVEN CLIMATE","2302340","2023-02-15 02:00","2023","02","15","02:00","-39.5","","-43.0","","69","","0.0","","25","","13","","","","100.21","","","","-52","","NA"
"-95.85","68.64","GJOA HAVEN CLIMATE","2302340","2023-02-15 03:00","2023","02","15","03:00","-39.1","","-42.6","","70","","0.0","","27","","13","","","","100.19","","","","-52","","NA"
"-95.85","68.64","GJOA HAVEN CLIMATE","2302340","2023-02-15 04:00","2023","02","15","04:00","-39.3","","-42.8","","69","","0.0","","24","","9","","","","100.17","","","","-50","","NA"
"-95.85","68.64","GJOA HAVEN CLIMATE","2302340","2023-02-15 05:00","2023","02","15","05:00","-39.4","","-42.9","","69","","0.0","","24","","11","","","","100.15","","","","-51","","NA"
"-95.85","68.64","GJOA HAVEN CLIMATE","2302340","2023-02-15 06:00","2023","02","15","06:00","-39.6","","-43.1","","69","","0.0","","25","","10","","","","100.11","","","","-51","","NA"
"-95.85","68.64","GJOA HAVEN CLIMATE","2302340","2023-02-15 07:00","2023","02","15","07:00","-39.4","","-42.9","","69","","0.0","","","","0","","","","100.12","","","","","","NA"
"-95.85","68.64","GJOA HAVEN CLIMATE","2302340","2023-02-15 08:00","2023","02","15","08:00","-39.1","","-42.6","","70","","0.0","","","","0","","","","100.10","","","","","","NA"
"-95.85","68.64","GJOA HAVEN CLIMATE","2302340","2023-02-15 09:00","2023","02","15","09:00","-39.3","","-42.8","","70","","0.0","","22","","1","","","","100.10","","","","-41","","NA"
"-95.85","68.64","GJOA HAVEN CLIMATE","2302340","2023-02-15 10:00","2023","02","15","10:00","-39.4","","-42.9","","69","","0.0","","34","","10","","","","100.09","","","","-50","","NA"
"-95.85","68.64","GJOA HAVEN CLIMATE","2302340","2023-02-15 11:00","2023","02","15","11:00","-39.3","","-42.8","","69","","0.0","","34","","10","","","","100.13","","","","-50","","NA"
"-95.85","68.64","GJOA HAVEN CLIMATE","2302340","2023-02-15 12:00","2023","02","15","12:00","-39.0","","-42.5","","69","","0.0","","34","","13","","","","100.11","","","","-52","","NA"
"-95.85","68.64","GJOA HAVEN CLIMATE","2302340","2023-02-15 13:00","2023","02","15","13:00","-39.0","","-42.5","","70","","0.0","","32","","12","","","","100.12","","","","-51","","NA"
"-95.85","68.64","GJOA HAVEN CLIMATE","2302340","2023-02-15 14:00","2023","02","15","14:00","-39.0","","-42.5","","70","","0.0","","33","","12","","","","100.18","","","","-51","","NA"
"-95.85","68.64","GJOA HAVEN CLIMATE","2302340","2023-02-15 15:00","2023","02","15","15:00","-39.1","","-42.5","","70","","0.0","","34","","16","","","","100.18","","","","-53","","NA"
"-95.85","68.64","GJOA HAVEN CLIMATE","2302340","2023-02-15 16:00","2023","02","15","16:00","-39.4","","-42.9","","69","","0.0","","35","","19","","","","100.22","","","","-55","","NA"
"-95.85","68.64","GJOA HAVEN CLIMATE","2302340","2023-02-15 17:00","2023","02","15","17:00","-40.0","","-43.5","","69","","0.0","","36","","20","","","","100.23","","","","-56","","NA"
"-95.85","68.64","GJOA HAVEN CLIMATE","2302340","2023-02-15 18:00","2023","02","15","18:00","-40.0","","-43.6","","69","","0.0","","1","","16","","","","100.24","","","","-54","","NA"
"-95.85","68.64","GJOA HAVEN CLIMATE","2302340","2023-02-15 19:00","2023","02","15","19:00","-40.4","","-43.9","","69","","0.0","","36","","17","","","","100.25","","","","-55","","NA"
"-95.85","68.64","GJOA HAVEN CLIMATE","2302340","2023-02-15 20:00","2023","02","15","20:00","-40.1","","-43.7","","69","","0.0","","33","","18","","","","100.24","","","","-55","","NA"
"-95.85","68.64","GJOA HAVEN CLIMATE","2302340","2023-02-15 21:00","2023","02","15","21:00","-40.2","","-43.8","","69","","0.0","","25","","4","","","","100.23","","","","-46","","NA"
"-95.85","68.64","GJOA HAVEN CLIMATE","2302340","2023-02-15 22:00","2023","02","15","22:00","-40.3","","-43.9","","69","","0.0","","28","","5","","","","100.22","","","","-47","","NA"
"-95.85","68.64","GJOA HAVEN CLIMATE","2302340","2023-02-15 23:00","2023","02","15","23:00","-40.1","","-43.7","","69","","0.0","","29","","1","","","","100.21","","","","-41","","NA"
"-95.85","68.64","GJOA HAVEN CLIMATE","2302340","2023-02-16 00:00","2023","02","16","00:00","-40.1","","-43.7","","69","","0.0","","30","","8","","","","100.19","","","","-50","","NA"
"-95.85","68.64","GJOA HAVEN CLIMATE","2302340","2023-02-16 01:00","2023","02","16","01:00","-39.5","","-43.0","","69","","0.0","","28","","9","","","","100.17","","","","-50","","NA"
"-95.85","68.64","GJOA HAVEN CLIMATE","2302340","2023-02-16 02:00","2023","02","16","02:00","-39.2","","-42.7","","69","","0.0","","28","","9","","","","100.15","","","","-49","","NA"
"-95.85","68.64","GJOA HAVEN CLIMATE","2302340","2023-02-16 03:00","2023","02","16","03:00","-38.2","","-41.7","","70","","0.0","","28","","10","","","","100.15","","","","-49","","NA"
"-95.85","68.64","GJOA HAVEN CLIMATE","2302340","2023-02-16 04:00","2023","02","16","04:00","-37.9","","-41.3","","70","","0.0","","30","","10","","","","100.15","","","","-49","","NA"
"-95.85","68.64","GJOA HAVEN CLIMATE","2302340","2023-02-16 05:00","2023","02","16","05:00","-37.7","","-41.1","","70","","0.0","","31","","10","","","","100.15","","","","-48","","NA"
"-95.85","68.64","GJOA HAVEN CLIMATE","2302340","2023-02-16 06:00","2023","02","16","06:00","-37.9","","-41.3","","70","","0.0","","33","","14","","","","100.13","","","","-51","","NA"
"-95.85","68.64","GJOA HAVEN CLIMATE","2302340","2023-02-16 07:00","2023","02","16","07:00","-38.3","","-41.8","","70","","0.0","","32","","18","","","","100.14","","","","-53","","NA"
"-95.85","68.64","GJOA HAVEN CLIMATE","2302340","2023-02-16 08:00","2023","02","16","08:00","-39.0","","-42.5","","70","","0.0","","31","","13","","","","100.13","","","","-52","","NA"
"-95.85","68.64","GJOA HAVEN CLIMATE","2302340","2023-02-16 09:00","2023","02","16","09:00","-39.4","","-42.9","","69","","0.0","","33","","22","","","","100.11","","","","-56","","NA"
"-95.85","68.64","GJOA HAVEN CLIMATE","2302340","2023-02-16 10:00","2023","02","16","10:00","-39.3","","-42.8","","69","","0.0","","31","","19","","","","100.11","","","","-54","","NA"
"-95.85","68.64","GJOA HAVEN CLIMATE","2302340","2023-02-16 11:00","2023","02","16","11:00","-38.1","","-41.5","","70","","0.0","","32","","24","","","","100.10","","","","-55","","NA"
"-95.85","68.64","GJOA HAVEN CLIMATE","2302340","2023-02-16 12:00","2023","02","16","12:00","-37.7","","-41.1","","70","","0.0","","32","","24","","","","100.13","","","","-54","","NA"
"-95.85","68.64","GJOA HAVEN CLIMATE","2302340","2023-02-16 13:00","2023","02","16","13:00","-36.7","","-40.1","","71","","0.0","","32","","26","","","","100.16","","","","-53","","NA"
"-95.85","68.64","GJOA HAVEN CLIMATE","2302340","2023-02-16 14:00","2023","02","16","14:00","-36.5","","-39.8","","71","","0.0","","33","","28","","","","100.18","","","","-54","","NA"
"-95.85","68.64","GJOA HAVEN CLIMATE","2302340","2023-02-16 15:00","2023","02","16","15:00","-36.6","","-40.0","","71","","0.0","","33","","28","","","","100.23","","","","-54","","NA"
"-95.85","68.64","GJOA HAVEN CLIMATE","2302340","2023-02-16 16:00","2023","02","16","16:00","-37.7","","-41.1","","70","","0.0","","33","","24","","","","100.23","","","","-54","","NA"
"-95.85","68.64","GJOA HAVEN CLIMATE","2302340","2023-02-16 17:00","2023","02","16","17:00","-38.0","","-41.4","","70","","0.0","","36","","7","","","","100.29","","","","-47","","NA"
"-95.85","68.64","GJOA HAVEN CLIMATE","2302340","2023-02-16 18:00","2023","02","16","18:00","-38.6","","-42.0","","70","","0.0","","31","","24","","","","100.25","","","","-55","","NA"
"-95.85","68.64","GJOA HAVEN CLIMATE","2302340","2023-02-16 19:00","2023","02","16","19:00","-38.8","","-42.3","","70","","0.0","","32","","23","","","","100.25","","","","-55","","NA"
"-95.85","68.64","GJOA HAVEN CLIMATE","2302340","2023-02-16 20:00","2023","02","16","20:00","-38.5","","-42.0","","70","","0.0","","32","","14","","","","100.28","","","","-51","","NA"
"-95.85","68.64","GJOA HAVEN CLIMATE","2302340","2023-02-16 21:00","2023","02","16","21:00","-38.5","","-41.9","","70","","0.0","","32","","22","","","","100.23","","","","-54","","NA"
"-95.85","68.64","GJOA HAVEN CLIMATE","2302340","2023-02-16 22:00","2023","02","16","22:00","-38.4","","-41.9","","70","","0.0","","29","","11","","","","100.27","","","","-50","","NA"
"-95.85","68.64","GJOA HAVEN CLIMATE","2302340","2023-02-16 23:00","2023","02","16","23:00","-38.7","","-42.2","","70","","0.0","","29","","12","","","","100.25","","","","-51","","NA"
"-95.85","68.64","GJOA HAVEN CLIMATE","2302340","2023-02-17 00:00","2023","02","17","00:00","-39.2","","-42.6","","70","","0.0","","30","","9","","","","100.26","","","","-49","","NA"
"-95.85","68.64","GJOA HAVEN CLIMATE","2302340","2023-02-17 01:00","2023","02","17","01:00","-39.2","","-42.7","","69","","0.0","","29","","11","","","","100.27","","","","-51","","NA"
"-95.85","68.64","GJOA HAVEN CLIMATE","2302340","2023-02-17 02:00","2023","02","17","02:00","-39.4","","-42.9","","69","","0.0","","30","","16","","","","100.28","","","","-53","","NA"
"-95.85","68.64","GJOA HAVEN CLIMATE","2302340","2023-02-17 03:00","2023","02","17","03:00","-39.7","","-43.3","","69","","0.0","","32","","16","","","","100.29","","","","-54","","NA"
"-95.85","68.64","GJOA HAVEN CLIMATE","2302340","2023-02-17 04:00","2023","02","17","04:00","-39.5","","-43.0","","69","","0.0","","33","","17","","","","100.30","","","","-54","","NA"
"-95.85","68.64","GJOA HAVEN CLIMATE","2302340","2023-02-17 05:00","2023","02","17","05:00","-38.7","","-42.2","","69","","0.0","","33","","15","","","","100.28","","","","-52","","NA"
"-95.85","68.64","GJOA HAVEN CLIMATE","2302340","2023-02-17 06:00","2023","02","17","06:00","-38.5","","-42.0","","70","","0.0","","35","","16","","","","100.27","","","","-52","","NA"
"-95.85","68.64","GJOA HAVEN CLIMATE","2302340","2023-02-17 07:00","2023","02","17","07:00","-38.2","","-41.7","","70","","0.0","","35","","17","","","","100.27","","","","-52","","NA"
"-95.85","68.64","GJOA HAVEN CLIMATE","2302340","2023-02-17 08:00","2023","02","17","08:00","-38.4","","-41.9","","70","","0.0","","35","","13","","","","100.30","","","","-51","","NA"
"-95.85","68.64","GJOA HAVEN CLIMATE","2302340","2023-02-17 09:00","2023","02","17","09:00","-38.5","","-42.0","","70","","0.0","","35","","12","","","","100.29","","","","-50","","NA"
"-95.85","68.64","GJOA HAVEN CLIMATE","2302340","2023-02-17 10:00","2023","02","17","10:00","-38.3","","-41.8","","70","","0.0","","35","","12","","","","100.27","","","","-50","","NA"
"-95.85","68.64","GJOA HAVEN CLIMATE","2302340","2023-02-17 11:00","2023","02","17","11:00","-38.0","","-41.5","","70","","0.0","","35","","9","","","","100.28","","","","-48","","NA"
"-95.85","68.64","GJOA HAVEN CLIMATE","2302340","2023-02-17 12:00","2023","02","17","12:00","-37.9","","-41.4","","70","","0.0","","34","","11","","","","100.29","","","","-49","","NA"
"-95.85","68.64","GJOA HAVEN CLIMATE","2302340","2023-02-17 13:00","2023","02","17","13:00","-38.0","","-41.5","","70","","0.0","","34","","12","","","","100.29","","","","-50","","NA"
"-95.85","68.64","GJOA HAVEN CLIMATE","2302340","2023-02-17 14:00","2023","02","17","14:00","-38.1","","-41.6","","70","","0.0","","35","","11","","","","100.29","","","","-49","","NA"
"-95.85","68.64","GJOA HAVEN CLIMATE","2302340","2023-02-17 15:00","2023","02","17","15:00","-38.4","","-41.9","","70","","0.0","","35","","12","","","","100.30","","","","-50","","NA"
"-95.85","68.64","GJOA HAVEN CLIMATE","2302340","2023-02-17 16:00","2023","02","17","16:00","-39.2","","-42.6","","70","","0.0","","36","","12","","","","100.31","","","","-51","","NA"
"-95.85","68.64","GJOA HAVEN CLIMATE","2302340","2023-02-17 17:00","2023","02","17","17:00","-39.4","","-42.9","","69","","0.0","","36","","12","","","","100.32","","","","-52","","NA"
"-95.85","68.64","GJOA HAVEN CLIMATE","2302340","2023-02-17 18:00","2023","02","17","18:00","-39.8","","-43.4","","69","","0.0","","2","","8","","","","100.31","","","","-49","","NA"
"-95.85","68.64","GJOA HAVEN CLIMATE","2302340","2023-02-17 19:00","2023","02","17","19:00","-40.0","","-43.5","","69","","0.0","","2","","8","","","","100.29","","","","-50","","NA"
"-95.85","68.64","GJOA HAVEN CLIMATE","2302340","2023-02-17 20:00","2023","02","17","20:00","-40.3","","-43.9","","69","","0.0","","3","","9","","","","100.28","","","","-51","","NA"
"-95.85","68.64","GJOA HAVEN CLIMATE","2302340","2023-02-17 21:00","2023","02","17","21:00","-40.4","","-43.9","","69","","0.0","","5","","9","","","","100.25","","","","-51","","NA"
"-95.85","68.64","GJOA HAVEN CLIMATE","2302340","2023-02-17 22:00","2023","02","17","22:00","-40.8","","-44.3","","69","","0.0","","4","","9","","","","100.24","","","","-51","","NA"
"-95.85","68.64","GJOA HAVEN CLIMATE","2302340","2023-02-17 23:00","2023","02","17","23:00","-41.3","","-44.9","","68","","0.0","","5","","10","","","","100.24","","","","-53","","NA"
"-95.85","68.64","GJOA HAVEN CLIMATE","2302340","2023-02-18 00:00","2023","02","18","00:00","-41.7","","-45.3","","68","","0.0","","6","","10","","","","100.23","","","","-53","","NA"
"-95.85","68.64","GJOA HAVEN CLIMATE","2302340","2023-02-18 01:00","2023","02","18","01:00","-42.1","","-45.7","","68","","0.0","","6","","5","","","","100.24","","","","-49","","NA"
"-95.85","68.64","GJOA HAVEN CLIMATE","2302340","2023-02-18 02:00","2023","02","18","02:00","-42.3","","-45.9","","68","","0.0","","5","","6","","","","100.27","","","","-51","","NA"
"-95.85","68.64","GJOA HAVEN CLIMATE","2302340","2023-02-18 03:00","2023","02","18","03:00","-42.7","","-46.3","","67","","0.0","","4","","6","","","","100.28","","","","-51","","NA"
"-95.85","68.64","GJOA HAVEN CLIMATE","2302340","2023-02-18 04:00","2023","02","18","04:00","-42.3","","-46.0","","67","","0.0","","3","","4","","","","100.25","","","","-48","","NA"
"-95.85","68.64","GJOA HAVEN CLIMATE","2302340","2023-02-18 05:00","2023","02","18","05:00","-42.3","","-45.9","","67","","0.0","","32","","9","","","","100.23","","","","-53","","NA"
"-95.85","68.64","GJOA HAVEN CLIMATE","2302340","2023-02-18 06:00","2023","02","18","06:00","-42.0","","-45.6","","68","","0.0","","30","","12","","","","100.21","","","","-55","","NA"
"-95.85","68.64","GJOA HAVEN CLIMATE","2302340","2023-02-18 07:00","2023","02","18","07:00","-42.0","","-45.6","","68","","0.0","","24","","5","","","","100.19","","","","-49","","NA"
"-95.85","68.64","GJOA HAVEN CLIMATE","2302340","2023-02-18 08:00","2023","02","18","08:00","-41.8","","-45.5","","68","","0.0","","30","","11","","","","100.14","","","","-54","","NA"
"-95.85","68.64","GJOA HAVEN CLIMATE","2302340","2023-02-18 09:00","2023","02","18","09:00","-40.8","","-44.3","","68","","0.0","","31","","12","","","","100.11","","","","-53","","NA"
"-95.85","68.64","GJOA HAVEN CLIMATE","2302340","2023-02-18 10:00","2023","02","18","10:00","-39.7","","-43.2","","69","","0.0","","31","","13","","","","100.07","","","","-52","","NA"
"-95.85","68.64","GJOA HAVEN CLIMATE","2302340","2023-02-18 11:00","2023","02","18","11:00","-38.7","","-42.2","","69","","0.0","","30","","14","","","","100.03","","","","-52","","NA"
"-95.85","68.64","GJOA HAVEN CLIMATE","2302340","2023-02-18 12:00","2023","02","18","12:00","-37.4","","-40.9","","70","","0.0","","27","","11","","","","99.99","","","","-49","","NA"
"-95.85","68.64","GJOA HAVEN CLIMATE","2302340","2023-02-18 13:00","2023","02","18","13:00","-36.0","","-39.3","","71","","0.0","","31","","20","","","","99.94","","","","-51","","NA"
"-95.85","68.64","GJOA HAVEN CLIMATE","2302340","2023-02-18 14:00","2023","02","18","14:00","-34.4","","-37.6","","72","","0.0","","29","","15","","","","99.90","","","","-47","","NA"
"-95.85","68.64","GJOA HAVEN CLIMATE","2302340","2023-02-18 15:00","2023","02","18","15:00","-33.7","","-36.9","","73","","0.0","","30","","22","","","","99.90","","","","-48","","NA"
"-95.85","68.64","GJOA HAVEN CLIMATE","2302340","2023-02-18 16:00","2023","02","18","16:00","-33.6","","-36.8","","73","","0.0","","30","","23","","","","99.88","","","","-49","","NA"
"-95.85","68.64","GJOA HAVEN CLIMATE","2302340","2023-02-18 17:00","2023","02","18","17:00","-34.2","","-37.4","","72","","0.0","","30","","22","","","","99.88","","","","-49","","NA"
"-95.85","68.64","GJOA HAVEN CLIMATE","2302340","2023-02-18 18:00","2023","02","18","18:00","-34.8","","-38.1","","72","","0.0","","30","","18","","","","99.85","","","","-48","","NA"
"-95.85","68.64","GJOA HAVEN CLIMATE","2302340","2023-02-18 19:00","2023","02","18","19:00","-35.5","","-38.8","","72","","0.0","","30","","18","","","","99.79","","","","-49","","NA"
"-95.85","68.64","GJOA HAVEN CLIMATE","2302340","2023-02-18 20:00","2023","02","18","20:00","-36.0","","-39.4","","71","","0.0","","31","","15","","","","99.74","","","","-49","","NA"
"-95.85","68.64","GJOA HAVEN CLIMATE","2302340","2023-02-18 21:00","2023","02","18","21:00","-36.8","","-40.2","","71","","0.0","","30","","14","","","","99.71","","","","-49","","NA"
"-95.85","68.64","GJOA HAVEN CLIMATE","2302340","2023-02-18 22:00","2023","02","18","22:00","-37.5","","-40.9","","70","","0.0","","29","","11","","","","99.68","","","","-49","","NA"
"-95.85","68.64","GJOA HAVEN CLIMATE","2302340","2023-02-18 23:00","2023","02","18","23:00","-38.4","","-41.9","","70","","0.0","","30","","15","","","","99.63","","","","-52","","NA"
"-95.85","68.64","GJOA HAVEN CLIMATE","2302340","2023-02-19 00:00","2023","02","19","00:00","-39.0","","-42.5","","70","","0.0","","29","","11","","","","99.62","","","","-51","","NA"
"-95.85","68.64","GJOA HAVEN CLIMATE","2302340","2023-02-19 01:00","2023","02","19","01:00","-39.6","","-43.1","","69","","0.0","","29","","9","","","","99.58","","","","-50","","NA"
"-95.85","68.64","GJOA HAVEN CLIMATE","2302340","2023-02-19 02:00","2023","02","19","02:00","-39.7","","-43.3","","69","","0.0","","25","","4","","","","99.55","","","","-45","","NA"
"-95.85","68.64","GJOA HAVEN CLIMATE","2302340","2023-02-19 03:00","2023","02","19","03:00","-40.4","","-44.0","","69","","0.0","","32","","12","","","","99.53","","","","-53","","NA"
"-95.85","68.64","GJOA HAVEN CLIMATE","2302340","2023-02-19 04:00","2023","02","19","04:00","-40.8","","-44.3","","69","","0.0","","30","","7","","","","99.55","","","","-50","","NA"
"-95.85","68.64","GJOA HAVEN CLIMATE","2302340","2023-02-19 05:00","2023","02","19","05:00","-41.0","","-44.5","","69","","0.0","","33","","16","","","","99.53","","","","-55","","NA"
"-95.85","68.64","GJOA HAVEN CLIMATE","2302340","2023-02-19 06:00","2023","02","19","06:00","-40.9","","-44.4","","69","","0.0","","35","","16","","","","99.50","","","","-55","","NA"
"-95.85","68.64","GJOA HAVEN CLIMATE","2302340","2023-02-19 07:00","2023","02","19","07:00","-40.8","","-44.4","","69","","0.0","","35","","14","","","","99.51","","","","-54","","NA"
"-95.85","68.64","GJOA HAVEN CLIMATE","2302340","2023-02-19 08:00","2023","02","19","08:00","-40.7","","-44.3","","69","","0.0","","34","","20","","","","99.48","","","","-57","","NA"
"-95.85","68.64","GJOA HAVEN CLIMATE","2302340","2023-02-19 09:00","2023","02","19","09:00","-40.2","","-43.8","","69","","0.0","","33","","21","","","","99.45","","","","-56","","NA"
"-95.85","68.64","GJOA HAVEN CLIMATE","2302340","2023-02-19 10:00","2023","02","19","10:00","-39.5","","-43.1","","69","","0.0","","33","","19","","","","99.43","","","","-55","","NA"
"-95.85","68.64","GJOA HAVEN CLIMATE","2302340","2023-02-19 11:00","2023","02","19","11:00","-38.9","","-42.4","","69","","0.0","","33","","19","","","","99.44","","","","-54","","NA"
"-95.85","68.64","GJOA HAVEN CLIMATE","2302340","2023-02-19 12:00","2023","02","19","12:00","-38.4","","-41.9","","70","","0.0","","34","","15","","","","99.46","","","","-52","","NA"
"-95.85","68.64","GJOA HAVEN CLIMATE","2302340","2023-02-19 13:00","2023","02","19","13:00","-38.0","","-41.5","","70","","0.0","","32","","14","","","","99.51","","","","-51","","NA"
"-95.85","68.64","GJOA HAVEN CLIMATE","2302340","2023-02-19 14:00","2023","02","19","14:00","-38.0","","-41.5","","70","","0.0","","31","","14","","","","99.52","","","","-51","","NA"
"-95.85","68.64","GJOA HAVEN CLIMATE","2302340","2023-02-19 15:00","2023","02","19","15:00","-38.0","","-41.5","","70","","0.0","","33","","16","","","","99.52","","","","-52","","NA"
"-95.85","68.64","GJOA HAVEN CLIMATE","2302340","2023-02-19 16:00","2023","02","19","16:00","-38.0","","-41.4","","70","","0.0","","33","","11","","","","99.55","","","","-49","","NA"
"-95.85","68.64","GJOA HAVEN CLIMATE","2302340","2023-02-19 17:00","2023","02","19","17:00","-37.8","","-41.3","","70","","0.0","","34","","11","","","","99.55","","","","-49","","NA"
"-95.85","68.64","GJOA HAVEN CLIMATE","2302340","2023-02-19 18:00","2023","02","19","18:00","-38.2","","-41.7","","70","","0.0","","31","","13","","","","99.56","","","","-51","","NA"
"-95.85","68.64","GJOA HAVEN CLIMATE","2302340","2023-02-19 19:00","2023","02","19","19:00","-38.2","","-41.6","","70","","0.0","","33","","14","","","","99.57","","","","-51","","NA"
"-95.85","68.64","GJOA HAVEN CLIMATE","2302340","2023-02-19 20:00","2023","02","19","20:00","-38.2","","-41.6","","70","","0.0","","33","","14","","","","99.59","","","","-51","","NA"
"-95.85","68.64","GJOA HAVEN CLIMATE","2302340","2023-02-19 21:00","2023","02","19","21:00","-38.3","","-41.8","","70","","0.0","","35","","12","","","","99.60","","","","-50","","NA"
"-95.85","68.64","GJOA HAVEN CLIMATE","2302340","2023-02-19 22:00","2023","02","19","22:00","-38.4","","-41.9","","70","","0.0","","35","","12","","","","99.61","","","","-50","","NA"
"-95.85","68.64","GJOA HAVEN CLIMATE","2302340","2023-02-19 23:00","2023","02","19","23:00","-38.4","","-41.9","","70","","0.0","","35","","11","","","","99.63","","","","-50","","NA"
"-95.85","68.64","GJOA HAVEN CLIMATE","2302340","2023-02-20 00:00","2023","02","20","00:00","-38.8","","-42.3","","70","","0.0","","36","","13","","","","99.66","","","","-51","","NA"
"-95.85","68.64","GJOA HAVEN CLIMATE","2302340","2023-02-20 01:00","2023","02","20","01:00","-39.5","","-43.0","","69","","0.0","","36","","14","","","","99.70","","","","-53","","NA"
"-95.85","68.64","GJOA HAVEN CLIMATE","2302340","2023-02-20 02:00","2023","02","20","02:00","-40.2","","-43.7","","69","","0.0","","36","","14","","","","99.73","","","","-54","","NA"
"-95.85","68.64","GJOA HAVEN CLIMATE","2302340","2023-02-20 03:00","2023","02","20","03:00","-40.6","","-44.1","","69","","0.0","","1","","10","","","","99.75","","","","-52","","NA"
"-95.85","68.64","GJOA HAVEN CLIMATE","2302340","2023-02-20 04:00","2023","02","20","04:00","-41.0","","-44.6","","68","","0.0","","3","","12","","","","99.79","","","","-53","","NA"
"-95.85","68.64","GJOA HAVEN CLIMATE","2302340","2023-02-20 05:00","2023","02","20","05:00","-41.0","","-44.6","","68","","0.0","","3","","12","","","","99.85","","","","-53","","NA"
"-95.85","68.64","GJOA HAVEN CLIMATE","2302340","2023-02-20 06:00","2023","02","20","06:00","-41.7","","-45.2","","68","","0.0","","4","","12","","","","99.90","","","","-54","","NA"
"-95.85","68.64","GJOA HAVEN CLIMATE","2302340","2023-02-20 07:00","2023","02","20","07:00","-41.7","","-45.3","","68","","0.0","","4","","11","","","","99.95","","","","-54","","NA"
"-95.85","68.64","GJOA HAVEN CLIMATE","2302340","2023-02-20 08:00","2023","02","20","08:00","-42.0","","-45.7","","68","","0.0","","5","","11","","","","99.99","","","","-54","","NA"
"-95.85","68.64","GJOA HAVEN CLIMATE","2302340","2023-02-20 09:00","2023","02","20","09:00","-42.0","","-45.6","","68","","0.2","","7","","7","","","","100.03","","","","-51","","NA"
"-95.85","68.64","GJOA HAVEN CLIMATE","2302340","2023-02-20 10:00","2023","02","20","10:00","-41.8","","-45.4","","68","","0.0","","3","","8","","","","100.10","","","","-52","","NA"
"-95.85","68.64","GJOA HAVEN CLIMATE","2302340","2023-02-20 11:00","2023","02","20","11:00","-40.9","","-44.5","","68","","0.0","","7","","11","","","","100.12","","","","-53","","NA"
"-95.85","68.64","GJOA HAVEN CLIMATE","2302340","2023-02-20 12:00","2023","02","20","12:00","-40.7","","-44.2","","68","","0.0","","7","","14","","","","100.17","","","","-54","","NA"
"-95.85","68.64","GJOA HAVEN CLIMATE","2302340","2023-02-20 13:00","2023","02","20","13:00","-40.6","","-44.1","","69","","0.0","","8","","14","","","","100.22","","","","-54","","NA"
"-95.85","68.64","GJOA HAVEN CLIMATE","2302340","2023-02-20 14:00","2023","02","20","14:00","-40.7","","-44.2","","69","","0.0","","7","","7","","","","100.30","","","","-50","","NA"
"-95.85","68.64","GJOA HAVEN CLIMATE","2302340","2023-02-20 15:00","2023","02","20","15:00","-40.9","","-44.4","","68","","0.0","","8","","10","","","","100.32","","","","-52","","NA"
"-95.85","68.64","GJOA HAVEN CLIMATE","2302340","2023-02-20 16:00","2023","02","20","16:00","-41.0","","-44.6","","68","","0.0","","6","","8","","","","100.44","","","","-51","","NA"
"-95.85","68.64","GJOA HAVEN CLIMATE","2302340","2023-02-20 17:00","2023","02","20","17:00","-41.7","","-45.3","","68","","0.0","","5","","10","","","","100.45","","","","-53","","NA"
"-95.85","68.64","GJOA HAVEN CLIMATE","2302340","2023-02-20 18:00","2023","02","20","18:00","-41.9","","-45.6","","68","","0.0","","6","","9","","","","100.48","","","","-53","","NA"
"-95.85","68.64","GJOA HAVEN CLIMATE","2302340","2023-02-20 19:00","2023","02","20","19:00","-42.2","","-45.8","","67","","0.0","","5","","10","","","","100.53","","","","-54","","NA"
"-95.85","68.64","GJOA HAVEN CLIMATE","2302340","2023-02-20 20:00","2023","02","20","20:00","-42.8","","-46.5","","67","","0.0","","4","","9","","","","100.56","","","","-54","","NA"
"-95.85","68.64","GJOA HAVEN CLIMATE","2302340","2023-02-20 21:00","2023","02","20","21:00","-43.1","","-46.8","","67","","0.0","","4","","11","","","","100.59","","","","-55","","NA"
"-95.85","68.64","GJOA HAVEN CLIMATE","2302340","2023-02-20 22:00","2023","02","20","22:00","-43.3","","-46.9","","67","","0.0","","1","","11","","","","100.61","","","","-56","","NA"
"-95.85","68.64","GJOA HAVEN CLIMATE","2302340","2023-02-20 23:00","2023","02","20","23:00","-43.2","","-46.9","","67","","0.0","","3","","10","","","","100.63","","","","-55","","NA"
"-95.85","68.64","GJOA HAVEN CLIMATE","2302340","2023-02-21 00:00","2023","02","21","00:00","-43.3","","-47.0","","67","","0.0","","3","","10","","","","100.64","","","","-55","","NA"
"-95.85","68.64","GJOA HAVEN CLIMATE","2302340","2023-02-21 01:00","2023","02","21","01:00","-42.9","","-46.6","","67","","0.0","","3","","11","","","","100.63","","","","-55","","NA"
"-95.85","68.64","GJOA HAVEN CLIMATE","2302340","2023-02-21 02:00","2023","02","21","02:00","-42.6","","-46.3","","67","","0.0","","2","","16","","","","100.64","","","","-57","","NA"
"-95.85","68.64","GJOA HAVEN CLIMATE","2302340","2023-02-21 03:00","2023","02","21","03:00","-42.4","","-46.1","","67","","0.0","","3","","12","","","","100.66","","","","-55","","NA"
"-95.85","68.64","GJOA HAVEN CLIMATE","2302340","2023-02-21 04:00","2023","02","21","04:00","-42.1","","-45.8","","67","","0.0","","5","","5","","","","100.63","","","","-49","","NA"
"-95.85","68.64","GJOA HAVEN CLIMATE","2302340","2023-02-21 05:00","2023","02","21","05:00","-42.0","","-45.6","","68","","0.0","","2","","7","","","","100.67","","","","-51","","NA"
"-95.85","68.64","GJOA HAVEN CLIMATE","2302340","2023-02-21 06:00","2023","02","21","06:00","-41.6","","-45.2","","68","","0.0","","8","","2","","","","100.64","","","","-44","","NA"
"-95.85","68.64","GJOA HAVEN CLIMATE","2302340","2023-02-21 07:00","2023","02","21","07:00","-41.5","","-45.1","","68","","0.0","","12","","4","","","","100.64","","","","-47","","NA"
"-95.85","68.64","GJOA HAVEN CLIMATE","2302340","2023-02-21 08:00","2023","02","21","08:00","-41.7","","-45.3","","68","","0.0","","14","","6","","","","100.63","","","","-50","","NA"
"-95.85","68.64","GJOA HAVEN CLIMATE","2302340","2023-02-21 09:00","2023","02","21","09:00","-41.7","","-45.4","","68","","0.0","","14","","10","","","","100.66","","","","-53","","NA"
"-95.85","68.64","GJOA HAVEN CLIMATE","2302340","2023-02-21 10:00","2023","02","21","10:00","-41.6","","-45.2","","68","","0.0","","14","","5","","","","100.63","","","","-49","","NA"
"-95.85","68.64","GJOA HAVEN CLIMATE","2302340","2023-02-21 11:00","2023","02","21","11:00","-40.8","","-44.5","","68","","0.0","","14","","7","","","","100.59","","","","-50","","NA"
"-95.85","68.64","GJOA HAVEN CLIMATE","2302340","2023-02-21 12:00","2023","02","21","12:00","-40.4","","-44.1","","68","","0.0","","23","","1","","","","100.61","","","","-42","","NA"
"-95.85","68.64","GJOA HAVEN CLIMATE","2302340","2023-02-21 13:00","2023","02","21","13:00","-39.5","","-43.1","","68","","0.0","","","","0","","","","100.63","","","","","","NA"
"-95.85","68.64","GJOA HAVEN CLIMATE","2302340","2023-02-21 14:00","2023","02","21","14:00","-39.0","","-42.6","","69","","0.0","","","","0","","","","100.62","","","","","","NA"
"-95.85","68.64","GJOA HAVEN CLIMATE","2302340","2023-02-21 15:00","2023","02","21","15:00","-38.4","","-42.0","","69","","0.0","","35","","9","","","","100.63","","","","-49","","NA"
"-95.85","68.64","GJOA HAVEN CLIMATE","2302340","2023-02-21 16:00","2023","02","21","16:00","-38.9","","-42.4","","69","","0.0","","35","","9","","","","100.65","","","","-49","","NA"
"-95.85","68.64","GJOA HAVEN CLIMATE","2302340","2023-02-21 17:00","2023","02","21","17:00","-39.2","","-42.7","","69","","0.0","","36","","9","","","","100.62","","","","-49","","NA"
"-95.85","68.64","GJOA HAVEN CLIMATE","2302340","2023-02-21 18:00","2023","02","21","18:00","-39.0","","-42.5","","69","","0.0","","32","","13","","","","100.62","","","","-52","","NA"
"-95.85","68.64","GJOA HAVEN CLIMATE","2302340","2023-02-21 19:00","2023","02","21","19:00","-39.4","","-42.9","","69","","0.0","","33","","14","","","","100.61","","","","-53","","NA"
"-95.85","68.64","GJOA HAVEN CLIMATE","2302340","2023-02-21 20:00","2023","02","21","20:00","-40.2","","-43.7","","69","","0.0","","35","","15","","","","100.61","","","","-54","","NA"
"-95.85","68.64","GJOA HAVEN CLIMATE","2302340","2023-02-21 21:00","2023","02","21","21:00","-40.5","","-44.1","","69","","0.0","","36","","14","","","","100.62","","","","-54","","NA"
"-95.85","68.64","GJOA HAVEN CLIMATE","2302340","2023-02-21 22:00","2023","02","21","22:00","-41.0","","-44.6","","68","","0.0","","36","","17","","","","100.59","","","","-56","","NA"
"-95.85","68.64","GJOA HAVEN CLIMATE","2302340","2023-02-21 23:00","2023","02","21","23:00","-41.4","","-45.0","","68","","0.0","","35","","22","","","","100.59","","","","-58","","NA"
"-95.85","68.64","GJOA HAVEN CLIMATE","2302340","2023-02-22 00:00","2023","02","22","00:00","-41.0","","-44.6","","68","","0.0","","35","","22","","","","100.62","","","","-58","","NA"
"-95.85","68.64","GJOA HAVEN CLIMATE","2302340","2023-02-22 01:00","2023","02","22","01:00","-40.6","","-44.2","","68","","0.0","","34","","21","","","","100.61","","","","-57","","NA"
"-95.85","68.64","GJOA HAVEN CLIMATE","2302340","2023-02-22 02:00","2023","02","22","02:00","-39.7","","-43.3","","69","","0.0","","34","","21","","","","100.67","","","","-56","","NA"
"-95.85","68.64","GJOA HAVEN CLIMATE","2302340","2023-02-22 03:00","2023","02","22","03:00","-39.7","","-43.3","","69","","0.0","","33","","23","","","","100.64","","","","-56","","NA"
"-95.85","68.64","GJOA HAVEN CLIMATE","2302340","2023-02-22 04:00","2023","02","22","04:00","-39.1","","-42.6","","69","","0.0","","33","","23","","","","100.63","","","","-56","","NA"
"-95.85","68.64","GJOA HAVEN CLIMATE","2302340","2023-02-22 05:00","2023","02","22","05:00","-39.0","","-42.5","","69","","0.0","","33","","22","","","","100.61","","","","-55","","NA"
"-95.85","68.64","GJOA HAVEN CLIMATE","2302340","2023-02-22 06:00","2023","02","22","06:00","-38.4","","-41.9","","70","","0.0","","33","","24","","","","100.62","","","","-55","","NA"
"-95.85","68.64","GJOA HAVEN CLIMATE","2302340","2023-02-22 07:00","2023","02","22","07:00","-38.8","","-42.3","","69","","0.0","","32","","28","","","","100.62","","","","-57","","NA"
"-95.85","68.64","GJOA HAVEN CLIMATE","2302340","2023-02-22 08:00","2023","02","22","08:00","-38.2","","-41.7","","70","","0.0","","32","","26","","","","100.65","","","","-55","","NA"
"-95.85","68.64","GJOA HAVEN CLIMATE","2302340","2023-02-22 09:00","2023","02","22","09:00","-37.9","","-41.4","","70","","0.0","","33","","31","","","","100.69","","","","-56","","NA"
"-95.85","68.64","GJOA HAVEN CLIMATE","2302340","2023-02-22 10:00","2023","02","22","10:00","-37.3","","-40.8","","70","","0.0","","33","","33","","","","100.71","","","","-56","","NA"
"-95.85","68.64","GJOA HAVEN CLIMATE","2302340","2023-02-22 11:00","2023","02","22","11:00","-36.8","","-40.2","","71","","0.0","","33","","32","","","","100.75","","","","-55","","NA"
"-95.85","68.64","GJOA HAVEN CLIMATE","2302340","2023-02-22 12:00","2023","02","22","12:00","-36.3","","-39.7","","71","","0.0","","34","","30","","","","100.80","","","","-54","","NA"
"-95.85","68.64","GJOA HAVEN CLIMATE","2302340","2023-02-22 13:00","2023","02","22","13:00","-36.1","","-39.5","","71","","0.0","","34","","34","","","","100.85","","","","-54","","NA"
"-95.85","68.64","GJOA HAVEN CLIMATE","2302340","2023-02-22 14:00","2023","02","22","14:00","-35.6","","-39.0","","71","","0.0","","33","","28","","","","100.95","","","","-52","","NA"
"-95.85","68.64","GJOA HAVEN CLIMATE","2302340","2023-02-22 15:00","2023","02","22","15:00","-35.6","","-39.0","","71","","0.0","","33","","34","","","","100.98","","","","-54","","NA"
"-95.85","68.64","GJOA HAVEN CLIMATE","2302340","2023-02-22 16:00","2023","02","22","16:00","-35.5","","-38.9","","71","","0.0","","33","","29","","","","101.07","","","","-53","","NA"
"-95.85","68.64","GJOA HAVEN CLIMATE","2302340","2023-02-22 17:00","2023","02","22","17:00","-35.3","","-38.6","","72","","0.0","","33","","22","","","","101.12","","","","-50","","NA"
"-95.85","68.64","GJOA HAVEN CLIMATE","2302340","2023-02-22 18:00","2023","02","22","18:00","-35.1","","-38.4","","72","","0.0","","32","","15","","","","101.18","","","","-48","","NA"
"-95.85","68.64","GJOA HAVEN CLIMATE","2302340","2023-02-22 19:00","2023","02","22","19:00","-35.2","","-38.5","","72","","0.0","","34","","21","","","","101.20","","","","-50","","NA"
"-95.85","68.64","GJOA HAVEN CLIMATE","2302340","2023-02-22 20:00","2023","02","22","20:00","-35.3","","-38.6","","72","","0.0","","33","","32","","","","101.17","","","","-53","","NA"
"-95.85","68.64","GJOA HAVEN CLIMATE","2302340","2023-02-22 21:00","2023","02","22","21:00","-35.1","","-38.4","","72","","0.0","","33","","25","","","","101.26","","","","-51","","NA"
"-95.85","68.64","GJOA HAVEN CLIMATE","2302340","2023-02-22 22:00","2023","02","22","22:00","-35.2","","-38.5","","72","","0.0","","33","","25","","","","101.29","","","","-51","","NA"
"-95.85","68.64","GJOA HAVEN CLIMATE","2302340","2023-02-22 23:00","2023","02","22","23:00","-34.7","","-38.0","","72","","0.0","","32","","25","","","","101.30","","","","-51","","NA"
"-95.85","68.64","GJOA HAVEN CLIMATE","2302340","2023-02-23 00:00","2023","02","23","00:00","-33.9","","-37.2","","73","","0.0","","32","","28","","","","101.33","","","","-50","","NA"
"-95.85","68.64","GJOA HAVEN CLIMATE","2302340","2023-02-23 01:00","2023","02","23","01:00","-33.8","","-37.0","","73","","0.0","","32","","26","","","","101.33","","","","-50","","NA"
"-95.85","68.64","GJOA HAVEN CLIMATE","2302340","2023-02-23 02:00","2023","02","23","02:00","-34.1","","-37.3","","72","","0.0","","32","","22","","","","101.35","","","","-49","","NA"
"-95.85","68.64","GJOA HAVEN CLIMATE","2302340","2023-02-23 03:00","2023","02","23","03:00","-34.5","","-37.7","","72","","0.0","","31","","28","","","","101.31","","","","-51","","NA"
"-95.85","68.64","GJOA HAVEN CLIMATE","2302340","2023-02-23 04:00","2023","02","23","04:00","-33.3","","-36.5","","73","","0.0","","33","","30","","","","101.29","","","","-50","","NA"
"-95.85","68.64","GJOA HAVEN CLIMATE","2302340","2023-02-23 05:00","2023","02","23","05:00","-32.7","","-35.9","","73","","0.0","","33","","24","","","","101.27","","","","-48","","NA"
"-95.85","68.64","GJOA HAVEN CLIMATE","2302340","2023-02-23 06:00","2023","02","23","06:00","-32.6","","-35.7","","73","","0.0","","33","","25","","","","101.23","","","","-48","","NA"
"-95.85","68.64","GJOA HAVEN CLIMATE","2302340","2023-02-23 07:00","2023","02","23","07:00","-32.2","","-35.3","","74","","0.0","","34","","23","","","","101.27","","","","-47","","NA"
"-95.85","68.64","GJOA HAVEN CLIMATE","2302340","2023-02-23 08:00","2023","02","23","08:00","-31.9","","-35.1","","74","","0.0","","33","","28","","","","101.22","","","","-48","","NA"
"-95.85","68.64","GJOA HAVEN CLIMATE","2302340","2023-02-23 09:00","2023","02","23","09:00","-32.3","","-35.4","","74","","0.0","","34","","27","","","","101.19","","","","-48","","NA"
"-95.85","68.64","GJOA HAVEN CLIMATE","2302340","2023-02-23 10:00","2023","02","23","10:00","-32.3","","-35.4","","74","","0.0","","33","","25","","","","101.19","","","","-47","","NA"
"-95.85","68.64","GJOA HAVEN CLIMATE","2302340","2023-02-23 11:00","2023","02","23","11:00","-32.2","","-35.3","","74","","0.0","","33","","28","","","","101.15","","","","-48","","NA"
"-95.85","68.64","GJOA HAVEN CLIMATE","2302340","2023-02-23 12:00","2023","02","23","12:00","-31.8","","-34.8","","74","","0.0","","33","","34","","","","101.08","","","","-49","","NA"
"-95.85","68.64","GJOA HAVEN CLIMATE","2302340","2023-02-23 13:00","2023","02","23","13:00","-31.2","","-34.3","","74","","0.0","","33","","32","","","","101.04","","","","-48","","NA"
"-95.85","68.64","GJOA HAVEN CLIMATE","2302340","2023-02-23 14:00","2023","02","23","14:00","-30.8","","-33.8","","75","","0.0","","33","","30","","","","101.01","","","","-47","","NA"
"-95.85","68.64","GJOA HAVEN CLIMATE","2302340","2023-02-23 15:00","2023","02","23","15:00","-30.9","","-33.9","","75","","0.0","","34","","26","","","","100.95","","","","-46","","NA"
"-95.85","68.64","GJOA HAVEN CLIMATE","2302340","2023-02-23 16:00","2023","02","23","16:00","-31.3","","-34.3","","75","","0.0","","33","","25","","","","100.88","","","","-46","","NA"
"-95.85","68.64","GJOA HAVEN CLIMATE","2302340","2023-02-23 17:00","2023","02","23","17:00","-31.9","","-35.0","","74","","0.0","","32","","22","","","","100.81","","","","-46","","NA"
"-95.85","68.64","GJOA HAVEN CLIMATE","2302340","2023-02-23 18:00","2023","02","23","18:00","-32.8","","-35.9","","74","","0.0","","33","","22","","","","100.75","","","","-47","","NA"
"-95.85","68.64","GJOA HAVEN CLIMATE","2302340","2023-02-23 19:00","2023","02","23","19:00","-33.6","","-36.7","","73","","0.0","","32","","18","","","","100.68","","","","-47","","NA"
"-95.85","68.64","GJOA HAVEN CLIMATE","2302340","2023-02-23 20:00","2023","02","23","20:00","-34.4","","-37.6","","73","","0.0","","33","","19","","","","100.60","","","","-48","","NA"
"-95.85","68.64","GJOA HAVEN CLIMATE","2302340","2023-02-23 21:00","2023","02","23","21:00","-34.9","","-38.1","","72","","0.0","","32","","20","","","","100.53","","","","-49","","NA"
"-95.85","68.64","GJOA HAVEN CLIMATE","2302340","2023-02-23 22:00","2023","02","23","22:00","-35.9","","-39.1","","72","","0.0","","34","","24","","","","100.46","","","","-52","","NA"
"-95.85","68.64","GJOA HAVEN CLIMATE","2302340","2023-02-23 23:00","2023","02","23","23:00","-36.2","","-39.5","","72","","0.0","","35","","26","","","","100.42","","","","-53","","NA"
"-95.85","68.64","GJOA HAVEN CLIMATE","2302340","2023-02-24 00:00","2023","02","24","00:00","-36.7","","-40.1","","71","","0.0","","35","","25","","","","100.37","","","","-53","","NA"
"-95.85","68.64","GJOA HAVEN CLIMATE","2302340","2023-02-24 01:00","2023","02","24","01:00","-37.1","","-40.5","","71","","0.0","","35","","24","","","","100.31","","","","-53","","NA"
"-95.85","68.64","GJOA HAVEN CLIMATE","2302340","2023-02-24 02:00","2023","02","24","02:00","-37.7","","-41.1","","71","","0.0","","34","","22","","","","100.28","","","","-53","","NA"
"-95.85","68.64","GJOA HAVEN CLIMATE","2302340","2023-02-24 03:00","2023","02","24","03:00","-37.8","","-41.2","","71","","0.0","","34","","20","","","","100.26","","","","-53","","NA"
"-95.85","68.64","GJOA HAVEN CLIMATE","2302340","2023-02-24 04:00","2023","02","24","04:00","-38.0","","-41.4","","71","","0.0","","34","","21","","","","100.21","","","","-54","","NA"
"-95.85","68.64","GJOA HAVEN CLIMATE","2302340","2023-02-24 05:00","2023","02","24","05:00","-38.3","","-41.6","","70","","0.0","","34","","22","","","","100.13","","","","-54","","NA"
"-95.85","68.64","GJOA HAVEN CLIMATE","2302340","2023-02-24 06:00","2023","02","24","06:00","-38.4","","-41.8","","70","","0.0","","33","","15","","","","100.05","","","","-52","","NA"
"-95.85","68.64","GJOA HAVEN CLIMATE","2302340","2023-02-24 07:00","2023","02","24","07:00","-38.8","","-42.2","","70","","0.0","","33","","23","","","","99.99","","","","-55","","NA"
"-95.85","68.64","GJOA HAVEN CLIMATE","2302340","2023-02-24 08:00","2023","02","24","08:00","-39.0","","-42.4","","70","","0.0","","34","","27","","","","99.91","","","","-57","","NA"
"-95.85","68.64","GJOA HAVEN CLIMATE","2302340","2023-02-24 09:00","2023","02","24","09:00","-38.0","","-41.4","","70","","0.0","","34","","25","","","","99.84","","","","-55","","NA"
"-95.85","68.64","GJOA HAVEN CLIMATE","2302340","2023-02-24 10:00","2023","02","24","10:00","-37.2","","-40.5","","71","","0.0","","30","","10","","","","99.80","","","","-48","","NA"
"-95.85","68.64","GJOA HAVEN CLIMATE","2302340","2023-02-24 11:00","2023","02","24","11:00","-37.0","","-40.3","","71","","0.0","","31","","19","","","","99.69","","","","-52","","NA"
"-95.85","68.64","GJOA HAVEN CLIMATE","2302340","2023-02-24 12:00","2023","02","24","12:00","-36.8","","-40.2","","71","","0.0","","30","","18","","","","99.63","","","","-51","","NA"
"-95.85","68.64","GJOA HAVEN CLIMATE","2302340","2023-02-24 13:00","2023","02","24","13:00","-36.9","","-40.2","","71","","0.0","","29","","19","","","","99.57","","","","-51","","NA"
"-95.85","68.64","GJOA HAVEN CLIMATE","2302340","2023-02-24 14:00","2023","02","24","14:00","-36.5","","-39.8","","71","","0.0","","28","","13","","","","99.55","","","","-49","","NA"
"-95.85","68.64","GJOA HAVEN CLIMATE","2302340","2023-02-24 15:00","2023","02","24","15:00","-36.1","","-39.3","","72","","0.0","","28","","18","","","","99.47","","","","-50","","NA"
"-95.85","68.64","GJOA HAVEN CLIMATE","2302340","2023-02-24 16:00","2023","02","24","16:00","-36.2","","-39.5","","72","","0.0","","26","","13","","","","99.43","","","","-48","","NA"
"-95.85","68.64","GJOA HAVEN CLIMATE","2302340","2023-02-24 17:00","2023","02","24","17:00","-36.8","","-40.2","","71","","0.0","","25","","9","","","","99.39","","","","-47","","NA"
"-95.85","68.64","GJOA HAVEN CLIMATE","2302340","2023-02-24 18:00","2023","02","24","18:00","-37.2","","-40.6","","71","","0.0","","27","","10","","","","99.28","","","","-48","","NA"
"-95.85","68.64","GJOA HAVEN CLIMATE","2302340","2023-02-24 19:00","2023","02","24","19:00","-37.7","","-41.1","","70","","0.0","","26","","9","","","","99.22","","","","-48","","NA"
"-95.85","68.64","GJOA HAVEN CLIMATE","2302340","2023-02-24 20:00","2023","02","24","20:00","-38.2","","-41.6","","70","","0.0","","24","","12","","","","99.16","","","","-50","","NA"
"-95.85","68.64","GJOA HAVEN CLIMATE","2302340","2023-02-24 21:00","2023","02","24","21:00","-38.0","","-41.4","","70","","0.0","","26","","14","","","","99.08","","","","-51","","NA"
"-95.85","68.64","GJOA HAVEN CLIMATE","2302340","2023-02-24 22:00","2023","02","24","22:00","-37.5","","-40.9","","71","","0.0","","25","","15","","","","99.00","","","","-51","","NA"
"-95.85","68.64","GJOA HAVEN CLIMATE","2302340","2023-02-24 23:00","2023","02","24","23:00","-37.1","","-40.4","","71","","0.0","","24","","11","","","","98.96","","","","-48","","NA"
"-95.85","68.64","GJOA HAVEN CLIMATE","2302340","2023-02-25 00:00","2023","02","25","00:00","-36.3","","-39.6","","71","","0.0","","21","","11","","","","98.95","","","","-47","","NA"
"-95.85","68.64","GJOA HAVEN CLIMATE","2302340","2023-02-25 01:00","2023","02","25","01:00","-35.5","","-38.8","","72","","0.0","","23","","11","","","","98.89","","","","-46","","NA"
"-95.85","68.64","GJOA HAVEN CLIMATE","2302340","2023-02-25 02:00","2023","02","25","02:00","-35.1","","-38.4","","72","","0.0","","25","","13","","","","98.87","","","","-47","","NA"
"-95.85","68.64","GJOA HAVEN CLIMATE","2302340","2023-02-25 03:00","2023","02","25","03:00","-34.7","","-38.0","","72","","0.0","","27","","17","","","","98.83","","","","-48","","NA"
"-95.85","68.64","GJOA HAVEN CLIMATE","2302340","2023-02-25 04:00","2023","02","25","04:00","-34.3","","-37.6","","72","","0.0","","26","","18","","","","98.80","","","","-48","","NA"
"-95.85","68.64","GJOA HAVEN CLIMATE","2302340","2023-02-25 05:00","2023","02","25","05:00","-34.4","","-37.7","","73","","0.0","","26","","17","","","","98.78","","","","-48","","NA"
"-95.85","68.64","GJOA HAVEN CLIMATE","2302340","2023-02-25 06:00","2023","02","25","06:00","-34.0","","-37.2","","73","","0.0","","27","","19","","","","98.73","","","","-48","","NA"
"-95.85","68.64","GJOA HAVEN CLIMATE","2302340","2023-02-25 07:00","2023","02","25","07:00","-33.4","","-36.6","","73","","0.0","","26","","15","","","","98.70","","","","-46","","NA"
"-95.85","68.64","GJOA HAVEN CLIMATE","2302340","2023-02-25 08:00","2023","02","25","08:00","-33.1","","-36.3","","73","","0.0","","23","","14","","","","98.68","","","","-45","","NA"
"-95.85","68.64","GJOA HAVEN CLIMATE","2302340","2023-02-25 09:00","2023","02","25","09:00","-33.0","","-36.2","","73","","0.0","","25","","13","","","","98.67","","","","-44","","NA"
"-95.85","68.64","GJOA HAVEN CLIMATE","2302340","2023-02-25 10:00","2023","02","25","10:00","-32.4","","-35.5","","74","","0.0","","24","","13","","","","98.68","","","","-44","","NA"
"-95.85","68.64","GJOA HAVEN CLIMATE","2302340","2023-02-25 11:00","2023","02","25","11:00","-31.9","","-35.0","","74","","0.0","","22","","10","","","","98.67","","","","-41","","NA"
"-95.85","68.64","GJOA HAVEN CLIMATE","2302340","2023-02-25 12:00","2023","02","25","12:00","-31.7","","-34.8","","74","","0.0","","25","","18","","","","98.64","","","","-45","","NA"
"-95.85","68.64","GJOA HAVEN CLIMATE","2302340","2023-02-25 13:00","2023","02","25","13:00","-31.9","","-35.0","","74","","0.0","","25","","12","","","","98.68","","","","-42","","NA"
"-95.85","68.64","GJOA HAVEN CLIMATE","2302340","2023-02-25 14:00","2023","02","25","14:00","-31.8","","-34.8","","74","","0.0","","25","","5","","","","98.68","","","","-38","","NA"
"-95.85","68.64","GJOA HAVEN CLIMATE","2302340","2023-02-25 15:00","2023","02","25","15:00","-31.6","","-34.7","","74","","0.0","","29","","17","","","","98.68","","","","-44","","NA"
"-95.85","68.64","GJOA HAVEN CLIMATE","2302340","2023-02-25 16:00","2023","02","25","16:00","-31.5","","-34.6","","74","","0.0","","29","","13","","","","98.71","","","","-42","","NA"
"-95.85","68.64","GJOA HAVEN CLIMATE","2302340","2023-02-25 17:00","2023","02","25","17:00","-31.7","","-34.7","","74","","0.0","","23","","6","","","","98.71","","","","-38","","NA"
"-95.85","68.64","GJOA HAVEN CLIMATE","2302340","2023-02-25 18:00","2023","02","25","18:00","-32.3","","-35.3","","74","","0.0","","25","","6","","","","98.72","","","","-39","","NA"
"-95.85","68.64","GJOA HAVEN CLIMATE","2302340","2023-02-25 19:00","2023","02","25","19:00","-32.4","","-35.5","","74","","0.0","","26","","13","","","","98.74","","","","-44","","NA"
"-95.85","68.64","GJOA HAVEN CLIMATE","2302340","2023-02-25 20:00","2023","02","25","20:00","-32.9","","-36.0","","74","","0.0","","29","","14","","","","98.73","","","","-45","","NA"
"-95.85","68.64","GJOA HAVEN CLIMATE","2302340","2023-02-25 21:00","2023","02","25","21:00","-33.2","","-36.4","","73","","0.0","","32","","19","","","","98.76","","","","-47","","NA"
"-95.85","68.64","GJOA HAVEN CLIMATE","2302340","2023-02-25 22:00","2023","02","25","22:00","-33.5","","-36.7","","73","","0.0","","21","","2","","","","98.78","","","","-36","","NA"
"-95.85","68.64","GJOA HAVEN CLIMATE","2302340","2023-02-25 23:00","2023","02","25","23:00","-33.7","","-36.9","","73","","0.0","","33","","23","","","","98.80","","","","-49","","NA"
"-95.85","68.64","GJOA HAVEN CLIMATE","2302340","2023-02-26 00:00","2023","02","26","00:00","-33.8","","-37.0","","73","","0.0","","25","","8","","","","98.86","","","","-42","","NA"
"-95.85","68.64","GJOA HAVEN CLIMATE","2302340","2023-02-26 01:00","2023","02","26","01:00","-34.2","","-37.4","","73","","0.0","","27","","7","","","","98.89","","","","-42","","NA"
"-95.85","68.64","GJOA HAVEN CLIMATE","2302340","2023-02-26 02:00","2023","02","26","02:00","-34.9","","-38.1","","73","","0.0","","22","","5","","","","98.92","","","","-41","","NA"
"-95.85","68.64","GJOA HAVEN CLIMATE","2302340","2023-02-26 03:00","2023","02","26","03:00","-35.4","","-38.6","","72","","0.0","","21","","3","","","","98.96","","","","-39","","NA"
"-95.85","68.64","GJOA HAVEN CLIMATE","2302340","2023-02-26 04:00","2023","02","26","04:00","-35.7","","-38.9","","72","","0.0","","29","","9","","","","99.02","","","","-45","","NA"
"-95.85","68.64","GJOA HAVEN CLIMATE","2302340","2023-02-26 05:00","2023","02","26","05:00","-36.1","","-39.3","","72","","0.0","","21","","6","","","","99.10","","","","-44","","NA"
"-95.85","68.64","GJOA HAVEN CLIMATE","2302340","2023-02-26 06:00","2023","02","26","06:00","-36.2","","-39.5","","72","","0.0","","23","","4","","","","99.13","","","","-41","","NA"
"-95.85","68.64","GJOA HAVEN CLIMATE","2302340","2023-02-26 07:00","2023","02","26","07:00","-36.8","","-40.1","","71","","0.0","","22","","3","","","","99.16","","","","-41","","NA"
"-95.85","68.64","GJOA HAVEN CLIMATE","2302340","2023-02-26 08:00","2023","02","26","08:00","-37.1","","-40.5","","71","","0.0","","21","","6","","","","99.22","","","","-45","","NA"
"-95.85","68.64","GJOA HAVEN CLIMATE","2302340","2023-02-26 09:00","2023","02","26","09:00","-37.2","","-40.5","","71","","0.0","","20","","5","","","","99.29","","","","-44","","NA"
"-95.85","68.64","GJOA HAVEN CLIMATE","2302340","2023-02-26 10:00","2023","02","26","10:00","-37.1","","-40.4","","71","","0.0","","24","","5","","","","99.37","","","","-44","","NA"
"-95.85","68.64","GJOA HAVEN CLIMATE","2302340","2023-02-26 11:00","2023","02","26","11:00","-36.2","","-39.5","","71","","0.0","","22","","5","","","","99.43","","","","-43","","NA"
"-95.85","68.64","GJOA HAVEN CLIMATE","2302340","2023-02-26 12:00","2023","02","26","12:00","-35.1","","-38.4","","71","","0.0","","21","","2","","","","99.51","","","","-38","","NA"
"-95.85","68.64","GJOA HAVEN CLIMATE","2302340","2023-02-26 13:00","2023","02","26","13:00","-33.3","","-36.6","","72","","0.0","","","","","M","","","99.57","","","","","","NA"
"-95.85","68.64","GJOA HAVEN CLIMATE","2302340","2023-02-26 14:00","2023","02","26","14:00","-32.2","","-35.5","","73","","0.0","","","","","M","","","99.64","","","","","","NA"
"-95.85","68.64","GJOA HAVEN CLIMATE","2302340","2023-02-26 15:00","2023","02","26","15:00","-31.0","","-34.3","","73","","0.0","","","","","M","","","99.68","","","","","","NA"
"-95.85","68.64","GJOA HAVEN CLIMATE","2302340","2023-02-26 16:00","2023","02","26","16:00","-30.3","","-33.4","","74","","0.0","","","","","M","","","99.72","","","","","","NA"
"-95.85","68.64","GJOA HAVEN CLIMATE","2302340","2023-02-26 17:00","2023","02","26","17:00","-31.0","","-34.1","","74","","0.0","","","","","M","","","99.78","","","","","","NA"
"-95.85","68.64","GJOA HAVEN CLIMATE","2302340","2023-02-26 18:00","2023","02","26","18:00","-31.9","","-35.0","","74","","0.0","","","","","M","","","99.82","","","","","","NA"
"-95.85","68.64","GJOA HAVEN CLIMATE","2302340","2023-02-26 19:00","2023","02","26","19:00","-33.0","","-36.1","","74","","0.0","","","","","M","","","99.88","","","","","","NA"
"-95.85","68.64","GJOA HAVEN CLIMATE","2302340","2023-02-26 20:00","2023","02","26","20:00","-33.9","","-37.0","","73","","0.0","","","","","M","","","99.91","","","","","","NA"
"-95.85","68.64","GJOA HAVEN CLIMATE","2302340","2023-02-26 21:00","2023","02","26","21:00","-34.7","","-37.8","","73","","0.0","","","","","M","","","99.94","","","","","","NA"
"-95.85","68.64","GJOA HAVEN CLIMATE","2302340","2023-02-26 22:00","2023","02","26","22:00","-34.9","","-38.1","","73","","0.0","","","","","M","","","99.98","","","","","","NA"
"-95.85","68.64","GJOA HAVEN CLIMATE","2302340","2023-02-26 23:00","2023","02","26","23:00","-35.8","","-39.0","","72","","0.0","","","","","M","","","100.03","","","","","","NA"
"-95.85","68.64","GJOA HAVEN CLIMATE","2302340","2023-02-27 00:00","2023","02","27","00:00","-36.6","","-39.8","","72","","0.0","","","","","M","","","100.06","","","","","","NA"
"-95.85","68.64","GJOA HAVEN CLIMATE","2302340","2023-02-27 01:00","2023","02","27","01:00","-37.1","","-40.4","","71","","0.0","","","","","M","","","100.10","","","","","","NA"
"-95.85","68.64","GJOA HAVEN CLIMATE","2302340","2023-02-27 02:00","2023","02","27","02:00","-37.2","","-40.5","","71","","0.0","","","","","M","","","100.13","","","","","","NA"
"-95.85","68.64","GJOA HAVEN CLIMATE","2302340","2023-02-27 03:00","2023","02","27","03:00","-37.7","","-41.0","","71","","0.0","","","","","M","","","100.19","","","","","","NA"
"-95.85","68.64","GJOA HAVEN CLIMATE","2302340","2023-02-27 04:00","2023","02","27","04:00","-38.0","","-41.3","","71","","0.0","","","","","M","","","100.21","","","","","","NA"
"-95.85","68.64","GJOA HAVEN CLIMATE","2302340","2023-02-27 05:00","2023","02","27","05:00","-38.1","","-41.4","","71","","0.0","","","","","M","","","100.21","","","","","","NA"
"-95.85","68.64","GJOA HAVEN CLIMATE","2302340","2023-02-27 06:00","2023","02","27","06:00","-38.6","","-42.0","","70","","0.0","","","","","M","","","100.21","","","","","","NA"
"-95.85","68.64","GJOA HAVEN CLIMATE","2302340","2023-02-27 07:00","2023","02","27","07:00","-38.8","","-42.3","","70","","0.0","","","","","M","","","100.24","","","","","","NA"
"-95.85","68.64","GJOA HAVEN CLIMATE","2302340","2023-02-27 08:00","2023","02","27","08:00","-39.4","","-42.8","","70","","0.0","","","","","M","","","100.26","","","","","","NA"
"-95.85","68.64","GJOA HAVEN CLIMATE","2302340","2023-02-27 09:00","2023","02","27","09:00","-39.6","","-43.0","","70","","0.0","","","","","M","","","100.28","","","","","","NA"
"-95.85","68.64","GJOA HAVEN CLIMATE","2302340","2023-02-27 10:00","2023","02","27","10:00","-39.3","","-42.8","","70","","0.0","","","","","M","","","100.26","","","","","","NA"
"-95.85","68.64","GJOA HAVEN CLIMATE","2302340","2023-02-27 11:00","2023","02","27","11:00","-38.7","","-42.2","","70","","0.0","","","","","M","","","100.26","","","","","","NA"
"-95.85","68.64","GJOA HAVEN CLIMATE","2302340","2023-02-27 12:00","2023","02","27","12:00","-38.2","","-41.7","","70","","0.0","","","","","M","","","100.27","","","","","","NA"
"-95.85","68.64","GJOA HAVEN CLIMATE","2302340","2023-02-27 13:00","2023","02","27","13:00","-38.1","","-41.6","","70","","0.0","","","","","M","","","100.30","","","","","","NA"
"-95.85","68.64","GJOA HAVEN CLIMATE","2302340","2023-02-27 14:00","2023","02","27","14:00","-37.9","","-41.3","","70","","0.0","","","","","M","","","100.32","","","","","","NA"
"-95.85","68.64","GJOA HAVEN CLIMATE","2302340","2023-02-27 15:00","2023","02","27","15:00","-37.7","","-41.1","","70","","0.0","","","","","M","","","100.38","","","","","","NA"
"-95.85","68.64","GJOA HAVEN CLIMATE","2302340","2023-02-27 16:00","2023","02","27","16:00","-37.9","","-41.3","","70","","0.0","","","","","M","","","100.41","","","","","","NA"
"-95.85","68.64","GJOA HAVEN CLIMATE","2302340","2023-02-27 17:00","2023","02","27","17:00","-38.0","","-41.4","","70","","0.0","","","","","M","","","100.44","","","","","","NA"
"-95.85","68.64","GJOA HAVEN CLIMATE","2302340","2023-02-27 18:00","2023","02","27","18:00","-38.2","","-41.6","","70","","0.0","","","","","M","","","100.47","","","","","","NA"
"-95.85","68.64","GJOA HAVEN CLIMATE","2302340","2023-02-27 19:00","2023","02","27","19:00","-38.3","","-41.7","","70","","0.0","","","","","M","","","100.51","","","","","","NA"
"-95.85","68.64","GJOA HAVEN CLIMATE","2302340","2023-02-27 20:00","2023","02","27","20:00","-38.4","","-41.8","","70","","0.0","","","","","M","","","100.55","","","","","","NA"
"-95.85","68.64","GJOA HAVEN CLIMATE","2302340","2023-02-27 21:00","2023","02","27","21:00","-38.5","","-41.9","","70","","0.0","","","","","M","","","100.56","","","","","","NA"
"-95.85","68.64","GJOA HAVEN CLIMATE","2302340","2023-02-27 22:00","2023","02","27","22:00","-38.4","","-41.8","","70","","0.0","","","","","M","","","100.56","","","","","","NA"
"-95.85","68.64","GJOA HAVEN CLIMATE","2302340","2023-02-27 23:00","2023","02","27","23:00","-38.3","","-41.7","","70","","0.0","","","","","M","","","100.61","","","","","","NA"
"-95.85","68.64","GJOA HAVEN CLIMATE","2302340","2023-02-28 00:00","2023","02","28","00:00","-38.5","","-41.9","","70","","0.0","","","","","M","","","100.63","","","","","","NA"
"-95.85","68.64","GJOA HAVEN CLIMATE","2302340","2023-02-28 01:00","2023","02","28","01:00","-38.1","","-41.5","","70","","0.0","","","","","M","","","100.66","","","","","","NA"
"-95.85","68.64","GJOA HAVEN CLIMATE","2302340","2023-02-28 02:00","2023","02","28","02:00","-38.0","","-41.4","","70","","0.0","","","","","M","","","100.67","","","","","","NA"
"-95.85","68.64","GJOA HAVEN CLIMATE","2302340","2023-02-28 03:00","2023","02","28","03:00","-37.9","","-41.4","","70","","0.0","","","","","M","","","100.69","","","","","","NA"
"-95.85","68.64","GJOA HAVEN CLIMATE","2302340","2023-02-28 04:00","2023","02","28","04:00","-38.0","","-41.4","","70","","0.0","","","","","M","","","100.72","","","","","","NA"
"-95.85","68.64","GJOA HAVEN CLIMATE","2302340","2023-02-28 05:00","2023","02","28","05:00","-37.6","","-41.0","","70","","0.0","","","","","M","","","100.74","","","","","","NA"
"-95.85","68.64","GJOA HAVEN CLIMATE","2302340","2023-02-28 06:00","2023","02","28","06:00","-37.9","","-41.3","","70","","0.0","","","","","M","","","100.77","","","","","","NA"
"-95.85","68.64","GJOA HAVEN CLIMATE","2302340","2023-02-28 07:00","2023","02","28","07:00","-38.6","","-42.0","","70","","0.0","","","","","M","","","100.80","","","","","","NA"
"-95.85","68.64","GJOA HAVEN CLIMATE","2302340","2023-02-28 08:00","2023","02","28","08:00","-38.8","","-42.3","","70","","0.0","","","","","M","","","100.82","","","","","","NA"
"-95.85","68.64","GJOA HAVEN CLIMATE","2302340","2023-02-28 09:00","2023","02","28","09:00","-38.9","","-42.4","","70","","0.0","","","","","M","","","100.84","","","","","","NA"
"-95.85","68.64","GJOA HAVEN CLIMATE","2302340","2023-02-28 10:00","2023","02","28","10:00","-38.4","","-41.8","","70","","0.0","","","","","M","","","100.84","","","","","","NA"
"-95.85","68.64","GJOA HAVEN CLIMATE","2302340","2023-02-28 11:00","2023","02","28","11:00","-38.0","","-41.4","","70","","0.0","","","","","M","","","100.87","","","","","","NA"
"-95.85","68.64","GJOA HAVEN CLIMATE","2302340","2023-02-28 12:00","2023","02","28","12:00","-36.8","","-40.2","","70","","0.0","","","","","M","","","100.91","","","","","","NA"
"-95.85","68.64","GJOA HAVEN CLIMATE","2302340","2023-02-28 13:00","2023","02","28","13:00","-34.7","","-38.1","","71","","0.0","","","","","M","","","100.95","","","","","","NA"
"-95.85","68.64","GJOA HAVEN CLIMATE","2302340","2023-02-28 14:00","2023","02","28","14:00","-33.2","","-36.4","","73","","0.0","","","","","M","","","100.96","","","","","","NA"
"-95.85","68.64","GJOA HAVEN CLIMATE","2302340","2023-02-28 15:00","2023","02","28","15:00","-33.0","","-36.2","","73","","0.0","","","","","M","","","101.02","","","","","","NA"
"-95.85","68.64","GJOA HAVEN CLIMATE","2302340","2023-02-28 16:00","2023","02","28","16:00","-33.8","","-37.1","","73","","0.0","","","","","M","","","101.05","","","","","","NA"
"-95.85","68.64","GJOA HAVEN CLIMATE","2302340","2023-02-28 17:00","2023","02","28","17:00","-35.4","","-38.7","","72","","0.0","","","","","M","","","101.09","","","","","","NA"
"-95.85","68.64","GJOA HAVEN CLIMATE","2302340","2023-02-28 18:00","2023","02","28","18:00","-36.8","","-40.1","","71","","0.0","","","","","M","","","101.11","","","","","","NA"
"-95.85","68.64","GJOA HAVEN CLIMATE","2302340","2023-02-28 19:00","2023","02","28","19:00","-37.5","","-40.9","","71","","0.0","","","","","M","","","101.13","","","","","","NA"
"-95.85","68.64","GJOA HAVEN CLIMATE","2302340","2023-02-28 20:00","2023","02","28","20:00","-38.0","","-41.4","","70","","0.0","","","","","M","","","101.16","","","","","","NA"
"-95.85","68.64","GJOA HAVEN CLIMATE","2302340","2023-02-28 21:00","2023","02","28","21:00","-38.1","","-41.6","","70","","0.0","","","","","M","","","101.16","","","","","","NA"
"-95.85","68.64","GJOA HAVEN CLIMATE","2302340","2023-02-28 22:00","2023","02","28","22:00","-38.1","","-41.5","","70","","0.0","","","","","M","","","101.17","","","","","","NA"
"-95.85","68.64","GJOA HAVEN CLIMATE","2302340","2023-02-28 23:00","2023","02","28","23:00","-38.1","","-41.5","","70","","0.0","","","","","M","","","101.18","","","","","","NA"
