"Longitude (x)","Latitude (y)","Station Name","Climate ID","Date/Time (LST)","Year","Month","Day","Time (LST)","Temp (°C)","Temp Flag","Dew Point Temp (°C)","Dew Point Temp Flag","Rel Hum (%)","Rel Hum Flag","Precip. Amount (mm)","Precip. Amount Flag","Wind Dir (10s deg)","Wind Dir Flag","Wind Spd (km/h)","Wind Spd Flag","Visibility (km)","Visibility Flag","Stn Press (kPa)","Stn Press Flag","Hmdx","Hmdx Flag","Wind Chill","Wind Chill Flag","Weather"
"-77.29","60.05","PUVIRNITUQ A","7106223","2022-12-01 00:00","2022","12","01","00:00","-10.4","","-12.0","","88","","0.0","","6","","65","","0.6","","99.67","","","","-24","","Moderate Snow"
"-77.29","60.05","PUVIRNITUQ A","7106223","2022-12-01 01:00","2022","12","01","01:00","-10.1","","-11.7","","88","","0.0","","5","","63","","0.6","","99.54","","","","-23","","Moderate Snow"
"-77.29","60.05","PUVIRNITUQ A","7106223","2022-12-01 02:00","2022","12","01","02:00","-9.6","","-11.1","","89","","0.0","","5","","68","","0.6","","99.42","","","","-23","","Moderate Snow"
"-77.29","60.05","PUVIRNITUQ A","7106223","2022-12-01 03:00","2022","12","01","03:00","-9.2","","-10.7","","89","","0.0","","5","","59","","0.6","","99.35","","","","-21","","Moderate Snow"
"-77.29","60.05","PUVIRNITUQ A","7106223","2022-12-01 04:00","2022","12","01","04:00","-8.6","","-10.1","","89","","0.0","","5","","67","","1.0","","99.17","","","","-21","","Snow"
"-77.29","60.05","PUVIRNITUQ A","7106223","2022-12-01 05:00","2022","12","01","05:00","-8.3","","-9.8","","89","","0.0","","5","","63","","1.0","","99.03","","","","-20","","Snow"
"-77.29","60.05","PUVIRNITUQ A","7106223","2022-12-01 06:00","2022","12","01","06:00","-8.3","","-9.8","","89","","0.0","","4","","61","","0.8","","98.93","","","","-20","","Moderate Snow"
"-77.29","60.05","PUVIRNITUQ A","7106223","2022-12-01 07:00","2022","12","01","07:00","-7.9","","-9.4","","89","","0.0","","3","","58","","1.2","","98.86","","","","-20","","Snow"
"-77.29","60.05","PUVIRNITUQ A","7106223","2022-12-01 08:00","2022","12","01","08:00","-7.5","","-9.0","","89","","0.0","","3","","45","","2.4","","98.78","","","","-18","","Snow"
"-77.29","60.05","PUVIRNITUQ A","7106223","2022-12-01 09:00","2022","12","01","09:00","-7.2","","-9.0","","87","","0.0","","5","","46","","1.6","","98.72","","","","-18","","Snow"
"-77.29","60.05","PUVIRNITUQ A","7106223","2022-12-01 10:00","2022","12","01","10:00","-8.6","","-10.5","","86","","0.0","","6","","24","","16.1","","98.69","","","","-17","","Snow"
"-77.29","60.05","PUVIRNITUQ A","7106223","2022-12-01 11:00","2022","12","01","11:00","-8.4","","-10.2","","87","","0.0","","4","","26","","3.6","","98.63","","","","-17","","Snow"
"-77.29","60.05","PUVIRNITUQ A","7106223","2022-12-01 12:00","2022","12","01","12:00","-8.3","","-10.1","","87","","0.0","","4","","21","","11.3","","98.61","","","","-16","","Snow"
"-77.29","60.05","PUVIRNITUQ A","7106223","2022-12-01 13:00","2022","12","01","13:00","-8.2","","-9.9","","88","","0.0","","2","","21","","6.4","","98.53","","","","-16","","Snow"
"-77.29","60.05","PUVIRNITUQ A","7106223","2022-12-01 14:00","2022","12","01","14:00","-7.9","","-9.3","","90","","0.0","","36","","18","","4.8","","98.50","","","","-15","","Snow"
"-77.29","60.05","PUVIRNITUQ A","7106223","2022-12-01 15:00","2022","12","01","15:00","-7.7","","-9.1","","90","","0.0","","34","","17","","1.6","","98.50","","","","-14","","Snow"
"-77.29","60.05","PUVIRNITUQ A","7106223","2022-12-01 16:00","2022","12","01","16:00","-7.3","","-8.5","","91","","0.0","","35","","18","","2.0","","98.48","","","","-14","","Snow"
"-77.29","60.05","PUVIRNITUQ A","7106223","2022-12-01 17:00","2022","12","01","17:00","-7.1","","-8.2","","92","","0.2","","32","","28","","2.0","","98.47","","","","-15","","Snow"
"-77.29","60.05","PUVIRNITUQ A","7106223","2022-12-01 18:00","2022","12","01","18:00","-7.4","","-8.6","","91","","0.0","","32","","28","","4.8","","98.44","","","","-16","","Snow"
"-77.29","60.05","PUVIRNITUQ A","7106223","2022-12-01 19:00","2022","12","01","19:00","-7.4","","-8.5","","92","","0.0","","31","","41","","2.4","","98.42","","","","-17","","Snow"
"-77.29","60.05","PUVIRNITUQ A","7106223","2022-12-01 20:00","2022","12","01","20:00","-7.1","","-8.2","","92","","0.0","","31","","48","","1.2","","98.39","","","","-18","","Snow"
"-77.29","60.05","PUVIRNITUQ A","7106223","2022-12-01 21:00","2022","12","01","21:00","-6.6","","-7.7","","92","","0.0","","32","","58","","0.8","","98.39","","","","-18","","Moderate Snow"
"-77.29","60.05","PUVIRNITUQ A","7106223","2022-12-01 22:00","2022","12","01","22:00","-6.5","","-7.5","","93","","0.0","","32","","58","","0.6","","98.43","","","","-18","","Moderate Snow"
"-77.29","60.05","PUVIRNITUQ A","7106223","2022-12-01 23:00","2022","12","01","23:00","-6.3","","-7.4","","92","","0.0","","31","","52","","1.2","","98.54","","","","-17","","Snow"
"-77.29","60.05","PUVIRNITUQ A","7106223","2022-12-02 00:00","2022","12","02","00:00","-5.9","","-6.9","","93","","0.0","","31","","67","","0.2","","98.64","","","","-17","","Heavy Snow"
"-77.29","60.05","PUVIRNITUQ A","7106223","2022-12-02 01:00","2022","12","02","01:00","-6.6","","-7.6","","93","","0.0","","30","","63","","0.2","","98.76","","","","-18","","Heavy Snow"
"-77.29","60.05","PUVIRNITUQ A","7106223","2022-12-02 02:00","2022","12","02","02:00","-7.5","","-8.6","","92","","0.2","","30","","65","","0.2","","98.92","","","","-20","","Heavy Snow"
"-77.29","60.05","PUVIRNITUQ A","7106223","2022-12-02 03:00","2022","12","02","03:00","-8.1","","-9.3","","91","","0.0","","29","","63","","0.2","","99.08","","","","-20","","Heavy Snow"
"-77.29","60.05","PUVIRNITUQ A","7106223","2022-12-02 04:00","2022","12","02","04:00","-8.6","","-9.8","","91","","0.0","","30","","58","","0.2","","99.23","","","","-21","","Heavy Snow"
"-77.29","60.05","PUVIRNITUQ A","7106223","2022-12-02 05:00","2022","12","02","05:00","-9.3","","-10.9","","88","","0.0","","29","","59","","0.4","","99.36","","","","-22","","Heavy Snow"
"-77.29","60.05","PUVIRNITUQ A","7106223","2022-12-02 06:00","2022","12","02","06:00","-10.3","","-12.1","","87","","0.0","","30","","52","","0.6","","99.44","","","","-22","","Moderate Snow"
"-77.29","60.05","PUVIRNITUQ A","7106223","2022-12-02 07:00","2022","12","02","07:00","-11.1","","-13.3","","84","","0.0","","29","","52","","0.8","","99.56","","","","-23","","Moderate Snow,Blowing Snow"
"-77.29","60.05","PUVIRNITUQ A","7106223","2022-12-02 08:00","2022","12","02","08:00","-11.1","","-13.4","","83","","0.0","","29","","48","","1.6","","99.61","","","","-23","","Snow,Blowing Snow"
"-77.29","60.05","PUVIRNITUQ A","7106223","2022-12-02 09:00","2022","12","02","09:00","-11.4","","-13.9","","82","","0.0","","28","","50","","1.0","","99.68","","","","-24","","Snow,Blowing Snow"
"-77.29","60.05","PUVIRNITUQ A","7106223","2022-12-02 10:00","2022","12","02","10:00","-11.4","","-13.9","","82","","0.0","","28","","45","","0.6","","99.73","","","","-23","","Moderate Snow,Blowing Snow"
"-77.29","60.05","PUVIRNITUQ A","7106223","2022-12-02 11:00","2022","12","02","11:00","-11.8","","-14.9","","78","","0.0","","27","","54","","0.6","","99.77","","","","-25","","Moderate Snow,Blowing Snow"
"-77.29","60.05","PUVIRNITUQ A","7106223","2022-12-02 12:00","2022","12","02","12:00","-11.7","","-14.4","","80","","0.0","","29","","45","","0.6","","99.82","","","","-24","","Moderate Snow,Blowing Snow"
"-77.29","60.05","PUVIRNITUQ A","7106223","2022-12-02 13:00","2022","12","02","13:00","-12.0","","-14.2","","84","","0.0","","26","","48","","0.4","","99.92","","","","-24","","Heavy Snow,Blowing Snow"
"-77.29","60.05","PUVIRNITUQ A","7106223","2022-12-02 14:00","2022","12","02","14:00","-11.8","","-14.2","","83","","0.0","","28","","41","","0.6","","100.00","","","","-23","","Moderate Snow,Blowing Snow"
"-77.29","60.05","PUVIRNITUQ A","7106223","2022-12-02 15:00","2022","12","02","15:00","-11.7","","-15.1","","76","","0.0","","28","","39","","2.4","","100.06","","","","-23","","Snow"
"-77.29","60.05","PUVIRNITUQ A","7106223","2022-12-02 16:00","2022","12","02","16:00","-11.7","","-15.0","","77","","0.0","","28","","39","","2.0","","100.10","","","","-23","","Snow"
"-77.29","60.05","PUVIRNITUQ A","7106223","2022-12-02 17:00","2022","12","02","17:00","-11.5","","-15.3","","74","","0.0","","28","","30","","4.8","","100.16","","","","-21","","Snow"
"-77.29","60.05","PUVIRNITUQ A","7106223","2022-12-02 18:00","2022","12","02","18:00","-11.3","","-15.4","","72","","0.0","","28","","26","","16.1","","100.23","","","","-21","","Snow"
"-77.29","60.05","PUVIRNITUQ A","7106223","2022-12-02 19:00","2022","12","02","19:00","-11.2","","-14.6","","77","","0.0","","27","","21","","6.4","","100.27","","","","-20","","Snow"
"-77.29","60.05","PUVIRNITUQ A","7106223","2022-12-02 20:00","2022","12","02","20:00","-11.0","","-15.9","","68","","0.0","","29","","24","","16.1","","100.27","","","","-20","","Snow"
"-77.29","60.05","PUVIRNITUQ A","7106223","2022-12-02 21:00","2022","12","02","21:00","-11.6","","-14.1","","82","","0.0","","33","","13","","16.1","","100.28","","","","-18","","Snow"
"-77.29","60.05","PUVIRNITUQ A","7106223","2022-12-02 22:00","2022","12","02","22:00","-11.6","","-15.0","","76","","0.0","","36","","8","","16.1","","100.35","","","","-16","","NA"
"-77.29","60.05","PUVIRNITUQ A","7106223","2022-12-02 23:00","2022","12","02","23:00","-12.4","","-14.7","","83","","0.0","","11","","21","","16.1","","100.39","","","","-21","","NA"
"-77.29","60.05","PUVIRNITUQ A","7106223","2022-12-03 00:00","2022","12","03","00:00","-12.4","","-14.6","","84","","0.0","","10","","15","","16.1","","100.41","","","","-20","","Snow"
"-77.29","60.05","PUVIRNITUQ A","7106223","2022-12-03 01:00","2022","12","03","01:00","-12.5","","-14.5","","85","","0.0","","8","","21","","16.1","","100.38","","","","-21","","Snow"
"-77.29","60.05","PUVIRNITUQ A","7106223","2022-12-03 02:00","2022","12","03","02:00","-12.4","","-14.6","","84","","0.0","","9","","18","","16.1","","100.38","","","","-20","","Snow"
"-77.29","60.05","PUVIRNITUQ A","7106223","2022-12-03 03:00","2022","12","03","03:00","-12.3","","-14.6","","83","","0.0","","8","","21","","16.1","","100.38","","","","-21","","Snow"
"-77.29","60.05","PUVIRNITUQ A","7106223","2022-12-03 04:00","2022","12","03","04:00","-13.2","","-15.5","","83","","0.0","","7","","22","","16.1","","100.35","","","","-22","","NA"
"-77.29","60.05","PUVIRNITUQ A","7106223","2022-12-03 05:00","2022","12","03","05:00","-15.5","","-17.8","","83","","0.0","","7","","21","","16.1","","100.32","","","","-25","","NA"
"-77.29","60.05","PUVIRNITUQ A","7106223","2022-12-03 06:00","2022","12","03","06:00","-15.1","","-17.7","","81","","0.0","","6","","24","","16.1","","100.30","","","","-25","","NA"
"-77.29","60.05","PUVIRNITUQ A","7106223","2022-12-03 07:00","2022","12","03","07:00","-14.5","","-16.8","","83","","0.0","","6","","24","","16.1","","100.29","","","","-24","","NA"
"-77.29","60.05","PUVIRNITUQ A","7106223","2022-12-03 08:00","2022","12","03","08:00","-14.0","","-16.6","","81","","0.0","","6","","30","","16.1","","100.26","","","","-25","","NA"
"-77.29","60.05","PUVIRNITUQ A","7106223","2022-12-03 09:00","2022","12","03","09:00","-13.9","","-16.5","","81","","0.0","","6","","30","","16.1","","100.20","","","","-25","","NA"
"-77.29","60.05","PUVIRNITUQ A","7106223","2022-12-03 10:00","2022","12","03","10:00","-13.9","","-16.3","","82","","0.0","","5","","28","","16.1","","100.13","","","","-24","","NA"
"-77.29","60.05","PUVIRNITUQ A","7106223","2022-12-03 11:00","2022","12","03","11:00","-14.0","","-16.7","","80","","0.0","","5","","28","","16.1","","100.04","","","","-24","","NA"
"-77.29","60.05","PUVIRNITUQ A","7106223","2022-12-03 12:00","2022","12","03","12:00","-13.2","","-15.8","","81","","0.0","","5","","32","","9.7","","99.92","","","","-24","","Snow"
"-77.29","60.05","PUVIRNITUQ A","7106223","2022-12-03 13:00","2022","12","03","13:00","-12.9","","-15.5","","81","","0.0","","5","","45","","2.4","","99.86","","","","-25","","Snow,Blowing Snow"
"-77.29","60.05","PUVIRNITUQ A","7106223","2022-12-03 14:00","2022","12","03","14:00","-13.1","","-15.4","","83","","0.0","","4","","45","","2.0","","99.77","","","","-25","","Snow,Blowing Snow"
"-77.29","60.05","PUVIRNITUQ A","7106223","2022-12-03 15:00","2022","12","03","15:00","-14.0","","-16.3","","83","","0.0","","3","","45","","1.6","","99.73","","","","-27","","Snow,Blowing Snow"
"-77.29","60.05","PUVIRNITUQ A","7106223","2022-12-03 16:00","2022","12","03","16:00","-14.2","","-16.4","","84","","0.0","","2","","52","","1.6","","99.58","","","","-28","","Snow,Blowing Snow"
"-77.29","60.05","PUVIRNITUQ A","7106223","2022-12-03 17:00","2022","12","03","17:00","-13.9","","-16.1","","84","","0.0","","1","","37","","2.4","","99.52","","","","-26","","Snow"
"-77.29","60.05","PUVIRNITUQ A","7106223","2022-12-03 18:00","2022","12","03","18:00","-13.5","","-15.5","","85","","0.0","","36","","39","","4.0","","99.39","","","","-25","","Snow"
"-77.29","60.05","PUVIRNITUQ A","7106223","2022-12-03 19:00","2022","12","03","19:00","-13.2","","-15.2","","85","","0.0","","36","","32","","3.2","","99.27","","","","-24","","Snow"
"-77.29","60.05","PUVIRNITUQ A","7106223","2022-12-03 20:00","2022","12","03","20:00","-12.6","","-14.5","","86","","0.0","","36","","32","","3.2","","99.14","","","","-23","","Snow"
"-77.29","60.05","PUVIRNITUQ A","7106223","2022-12-03 21:00","2022","12","03","21:00","-11.9","","-13.8","","86","","0.0","","35","","32","","3.6","","99.03","","","","-22","","Snow"
"-77.29","60.05","PUVIRNITUQ A","7106223","2022-12-03 22:00","2022","12","03","22:00","-11.5","","-13.3","","87","","0.0","","33","","22","","1.6","","98.95","","","","-20","","Snow"
"-77.29","60.05","PUVIRNITUQ A","7106223","2022-12-03 23:00","2022","12","03","23:00","-11.6","","-13.2","","88","","0.0","","31","","22","","2.8","","98.90","","","","-20","","Snow"
"-77.29","60.05","PUVIRNITUQ A","7106223","2022-12-04 00:00","2022","12","04","00:00","-11.6","","-13.1","","89","","0.0","","31","","15","","6.4","","98.84","","","","-19","","Snow"
"-77.29","60.05","PUVIRNITUQ A","7106223","2022-12-04 01:00","2022","12","04","01:00","-13.2","","-14.7","","89","","0.0","","28","","21","","16.1","","98.83","","","","-22","","Snow"
"-77.29","60.05","PUVIRNITUQ A","7106223","2022-12-04 02:00","2022","12","04","02:00","-13.5","","-15.1","","88","","0.0","","26","","21","","16.1","","98.85","","","","-22","","Snow"
"-77.29","60.05","PUVIRNITUQ A","7106223","2022-12-04 03:00","2022","12","04","03:00","-10.4","","-11.9","","89","","0.0","","26","","30","","16.1","","98.90","","","","-20","","Snow"
"-77.29","60.05","PUVIRNITUQ A","7106223","2022-12-04 04:00","2022","12","04","04:00","-11.0","","-13.2","","84","","0.0","","24","","24","","16.1","","98.94","","","","-20","","Snow"
"-77.29","60.05","PUVIRNITUQ A","7106223","2022-12-04 05:00","2022","12","04","05:00","-8.3","","-11.3","","79","","0.0","","25","","35","","16.1","","99.00","","","","-18","","Snow"
"-77.29","60.05","PUVIRNITUQ A","7106223","2022-12-04 06:00","2022","12","04","06:00","-9.0","","-12.7","","75","","0.0","","24","","35","","16.1","","99.04","","","","-19","","NA"
"-77.29","60.05","PUVIRNITUQ A","7106223","2022-12-04 07:00","2022","12","04","07:00","-9.6","","-13.1","","76","","0.0","","23","","28","","16.1","","99.14","","","","-19","","NA"
"-77.29","60.05","PUVIRNITUQ A","7106223","2022-12-04 08:00","2022","12","04","08:00","-9.7","","-13.2","","76","","0.0","","23","","22","","16.1","","99.21","","","","-18","","NA"
"-77.29","60.05","PUVIRNITUQ A","7106223","2022-12-04 09:00","2022","12","04","09:00","-12.3","","-15.1","","80","","0.0","","18","","34","","16.1","","99.25","","","","-23","","NA"
"-77.29","60.05","PUVIRNITUQ A","7106223","2022-12-04 10:00","2022","12","04","10:00","-12.5","","-14.4","","86","","0.0","","18","","32","","16.1","","99.27","","","","-23","","NA"
"-77.29","60.05","PUVIRNITUQ A","7106223","2022-12-04 11:00","2022","12","04","11:00","-10.4","","-11.9","","89","","0.0","","17","","32","","1.2","","99.27","","","","-20","","Snow"
"-77.29","60.05","PUVIRNITUQ A","7106223","2022-12-04 12:00","2022","12","04","12:00","-8.4","","-11.0","","82","","0.0","","20","","48","","0.6","","99.33","","","","-19","","Moderate Snow"
"-77.29","60.05","PUVIRNITUQ A","7106223","2022-12-04 13:00","2022","12","04","13:00","-10.2","","-14.0","","74","","0.0","","19","","41","","3.2","","99.43","","","","-21","","Snow"
"-77.29","60.05","PUVIRNITUQ A","7106223","2022-12-04 14:00","2022","12","04","14:00","-12.3","","-15.9","","75","","0.0","","18","","41","","4.8","","99.50","","","","-24","","Snow"
"-77.29","60.05","PUVIRNITUQ A","7106223","2022-12-04 15:00","2022","12","04","15:00","-13.2","","-16.4","","77","","0.0","","17","","37","","12.9","","99.60","","","","-25","","NA"
"-77.29","60.05","PUVIRNITUQ A","7106223","2022-12-04 16:00","2022","12","04","16:00","-13.9","","-17.3","","76","","0.0","","16","","34","","8.1","","99.71","","","","-25","","Snow"
"-77.29","60.05","PUVIRNITUQ A","7106223","2022-12-04 17:00","2022","12","04","17:00","-15.0","","-18.0","","78","","0.0","","15","","39","","16.1","","99.75","","","","-27","","NA"
"-77.29","60.05","PUVIRNITUQ A","7106223","2022-12-04 18:00","2022","12","04","18:00","-15.4","","-17.8","","82","","0.0","","15","","41","","8.1","","99.78","","","","-28","","Haze"
"-77.29","60.05","PUVIRNITUQ A","7106223","2022-12-04 19:00","2022","12","04","19:00","-15.3","","-17.4","","84","","0.0","","14","","35","","16.1","","99.84","","","","-27","","NA"
"-77.29","60.05","PUVIRNITUQ A","7106223","2022-12-04 20:00","2022","12","04","20:00","-15.8","","-18.5","","80","","0.0","","15","","37","","16.1","","99.85","","","","-28","","NA"
"-77.29","60.05","PUVIRNITUQ A","7106223","2022-12-04 21:00","2022","12","04","21:00","-16.1","","-18.8","","80","","0.0","","14","","35","","14.5","","99.90","","","","-28","","NA"
"-77.29","60.05","PUVIRNITUQ A","7106223","2022-12-04 22:00","2022","12","04","22:00","-16.7","","-19.4","","80","","0.0","","15","","37","","16.1","","99.92","","","","-29","","NA"
"-77.29","60.05","PUVIRNITUQ A","7106223","2022-12-04 23:00","2022","12","04","23:00","-17.2","","-20.2","","78","","0.0","","15","","35","","14.5","","99.97","","","","-30","","NA"
"-77.29","60.05","PUVIRNITUQ A","7106223","2022-12-05 00:00","2022","12","05","00:00","-18.1","","-21.1","","78","","0.0","","14","","37","","16.1","","100.00","","","","-31","","NA"
"-77.29","60.05","PUVIRNITUQ A","7106223","2022-12-05 01:00","2022","12","05","01:00","-18.6","","-21.3","","80","","0.0","","13","","32","","16.1","","100.04","","","","-31","","NA"
"-77.29","60.05","PUVIRNITUQ A","7106223","2022-12-05 02:00","2022","12","05","02:00","-18.6","","-21.3","","80","","0.0","","14","","39","","16.1","","100.09","","","","-32","","NA"
"-77.29","60.05","PUVIRNITUQ A","7106223","2022-12-05 03:00","2022","12","05","03:00","-19.9","","-22.7","","79","","0.0","","13","","37","","16.1","","100.13","","","","-34","","NA"
"-77.29","60.05","PUVIRNITUQ A","7106223","2022-12-05 04:00","2022","12","05","04:00","-20.3","","-23.2","","78","","0.0","","13","","35","","16.1","","100.16","","","","-34","","NA"
"-77.29","60.05","PUVIRNITUQ A","7106223","2022-12-05 05:00","2022","12","05","05:00","-20.2","","-23.3","","77","","0.0","","13","","35","","16.1","","100.18","","","","-34","","NA"
"-77.29","60.05","PUVIRNITUQ A","7106223","2022-12-05 06:00","2022","12","05","06:00","-20.1","","-23.0","","78","","0.0","","12","","34","","16.1","","100.20","","","","-33","","NA"
"-77.29","60.05","PUVIRNITUQ A","7106223","2022-12-05 07:00","2022","12","05","07:00","-20.0","","-22.9","","78","","0.0","","13","","35","","16.1","","100.22","","","","-33","","NA"
"-77.29","60.05","PUVIRNITUQ A","7106223","2022-12-05 08:00","2022","12","05","08:00","-20.4","","-23.3","","78","","0.0","","13","","34","","16.1","","100.25","","","","-34","","NA"
"-77.29","60.05","PUVIRNITUQ A","7106223","2022-12-05 09:00","2022","12","05","09:00","-20.1","","-23.2","","77","","0.0","","12","","34","","16.1","","100.28","","","","-33","","NA"
"-77.29","60.05","PUVIRNITUQ A","7106223","2022-12-05 10:00","2022","12","05","10:00","-20.6","","-23.8","","76","","0.0","","12","","32","","16.1","","100.32","","","","-34","","NA"
"-77.29","60.05","PUVIRNITUQ A","7106223","2022-12-05 11:00","2022","12","05","11:00","-19.6","","-22.8","","76","","0.0","","12","","34","","16.1","","100.34","","","","-33","","NA"
"-77.29","60.05","PUVIRNITUQ A","7106223","2022-12-05 12:00","2022","12","05","12:00","-19.8","","-23.0","","76","","0.0","","11","","37","","16.1","","100.32","","","","-33","","NA"
"-77.29","60.05","PUVIRNITUQ A","7106223","2022-12-05 13:00","2022","12","05","13:00","-19.3","","-22.8","","74","","0.0","","9","","32","","16.1","","100.32","","","","-32","","NA"
"-77.29","60.05","PUVIRNITUQ A","7106223","2022-12-05 14:00","2022","12","05","14:00","-20.1","","-23.3","","76","","0.0","","10","","34","","16.1","","100.32","","","","-33","","NA"
"-77.29","60.05","PUVIRNITUQ A","7106223","2022-12-05 15:00","2022","12","05","15:00","-20.3","","-23.4","","77","","0.0","","9","","35","","16.1","","100.28","","","","-34","","NA"
"-77.29","60.05","PUVIRNITUQ A","7106223","2022-12-05 16:00","2022","12","05","16:00","-19.3","","-22.5","","76","","0.0","","9","","35","","16.1","","100.30","","","","-32","","NA"
"-77.29","60.05","PUVIRNITUQ A","7106223","2022-12-05 17:00","2022","12","05","17:00","-19.2","","-22.4","","76","","0.0","","9","","37","","16.1","","100.25","","","","-33","","NA"
"-77.29","60.05","PUVIRNITUQ A","7106223","2022-12-05 18:00","2022","12","05","18:00","-18.9","","-21.8","","78","","0.0","","10","","41","","6.4","","100.22","","","","-33","","Snow"
"-77.29","60.05","PUVIRNITUQ A","7106223","2022-12-05 19:00","2022","12","05","19:00","-18.2","","-21.0","","79","","0.0","","10","","39","","4.8","","100.16","","","","-32","","Snow"
"-77.29","60.05","PUVIRNITUQ A","7106223","2022-12-05 20:00","2022","12","05","20:00","-17.9","","-20.7","","79","","0.0","","10","","35","","4.8","","100.11","","","","-31","","Snow"
"-77.29","60.05","PUVIRNITUQ A","7106223","2022-12-05 21:00","2022","12","05","21:00","-17.3","","-19.8","","81","","0.0","","10","","32","","4.0","","100.05","","","","-29","","Snow"
"-77.29","60.05","PUVIRNITUQ A","7106223","2022-12-05 22:00","2022","12","05","22:00","-17.0","","-19.5","","81","","0.0","","10","","32","","4.8","","99.99","","","","-29","","Snow"
"-77.29","60.05","PUVIRNITUQ A","7106223","2022-12-05 23:00","2022","12","05","23:00","-16.6","","-19.1","","81","","0.0","","10","","24","","8.1","","100.01","","","","-27","","Snow"
"-77.29","60.05","PUVIRNITUQ A","7106223","2022-12-06 00:00","2022","12","06","00:00","-15.9","","-18.2","","83","","0.0","","10","","24","","4.8","","100.00","","","","-26","","Snow"
"-77.29","60.05","PUVIRNITUQ A","7106223","2022-12-06 01:00","2022","12","06","01:00","-15.5","","-17.8","","83","","0.0","","11","","24","","16.1","","99.99","","","","-26","","Snow"
"-77.29","60.05","PUVIRNITUQ A","7106223","2022-12-06 02:00","2022","12","06","02:00","-15.4","","-17.8","","82","","0.0","","11","","21","","14.5","","100.03","","","","-25","","Snow"
"-77.29","60.05","PUVIRNITUQ A","7106223","2022-12-06 03:00","2022","12","06","03:00","-15.3","","-17.4","","84","","0.0","","12","","18","","12.9","","100.10","","","","-24","","Snow"
"-77.29","60.05","PUVIRNITUQ A","7106223","2022-12-06 04:00","2022","12","06","04:00","-14.9","","-17.3","","82","","0.0","","14","","17","","16.1","","100.12","","","","-23","","NA"
"-77.29","60.05","PUVIRNITUQ A","7106223","2022-12-06 05:00","2022","12","06","05:00","-15.1","","-17.5","","82","","0.0","","15","","18","","16.1","","100.19","","","","-24","","NA"
"-77.29","60.05","PUVIRNITUQ A","7106223","2022-12-06 06:00","2022","12","06","06:00","-14.4","","-16.5","","84","","0.0","","13","","22","","11.3","","100.23","","","","-24","","Snow"
"-77.29","60.05","PUVIRNITUQ A","7106223","2022-12-06 07:00","2022","12","06","07:00","-13.9","","-15.6","","87","","0.0","","16","","17","","9.7","","100.30","","","","-22","","Snow"
"-77.29","60.05","PUVIRNITUQ A","7106223","2022-12-06 08:00","2022","12","06","08:00","-10.1","","-12.2","","85","","0.0","","21","","45","","1.2","","100.39","","","","-21","","Snow"
"-77.29","60.05","PUVIRNITUQ A","7106223","2022-12-06 09:00","2022","12","06","09:00","-12.1","","-14.4","","83","","0.0","","18","","41","","3.2","","100.55","","","","-24","","Snow,Blowing Snow"
"-77.29","60.05","PUVIRNITUQ A","7106223","2022-12-06 10:00","2022","12","06","10:00","-13.8","","-17.0","","77","","0.0","","17","","34","","14.5","","100.68","","","","-25","","Snow"
"-77.29","60.05","PUVIRNITUQ A","7106223","2022-12-06 11:00","2022","12","06","11:00","-12.1","","-13.8","","87","","0.0","","17","","43","","1.2","","100.74","","","","-24","","Snow,Blowing Snow"
"-77.29","60.05","PUVIRNITUQ A","7106223","2022-12-06 12:00","2022","12","06","12:00","-12.4","","-14.1","","87","","0.0","","18","","37","","0.4","","100.89","","","","-24","","Heavy Snow,Blowing Snow"
"-77.29","60.05","PUVIRNITUQ A","7106223","2022-12-06 13:00","2022","12","06","13:00","-12.2","","-13.9","","87","","0.0","","15","","41","","0.4","","101.01","","","","-24","","Heavy Snow,Blowing Snow"
"-77.29","60.05","PUVIRNITUQ A","7106223","2022-12-06 14:00","2022","12","06","14:00","-11.7","","-13.3","","88","","0.0","","16","","39","","0.2","","101.12","","","","-23","","Heavy Snow"
"-77.29","60.05","PUVIRNITUQ A","7106223","2022-12-06 15:00","2022","12","06","15:00","-12.1","","-14.0","","86","","0.0","","17","","48","","0.4","","101.21","","","","-24","","Heavy Snow,Blowing Snow"
"-77.29","60.05","PUVIRNITUQ A","7106223","2022-12-06 16:00","2022","12","06","16:00","-13.1","","-15.1","","85","","0.0","","17","","41","","4.8","","101.33","","","","-25","","Snow"
"-77.29","60.05","PUVIRNITUQ A","7106223","2022-12-06 17:00","2022","12","06","17:00","-12.8","","-14.6","","86","","0.0","","17","","52","","0.8","","101.41","","","","-26","","Moderate Snow,Blowing Snow"
"-77.29","60.05","PUVIRNITUQ A","7106223","2022-12-06 18:00","2022","12","06","18:00","-12.8","","-14.5","","87","","0.0","","17","","48","","0.8","","101.56","","","","-25","","Moderate Snow,Blowing Snow"
"-77.29","60.05","PUVIRNITUQ A","7106223","2022-12-06 19:00","2022","12","06","19:00","-12.9","","-14.8","","86","","0.0","","17","","43","","1.2","","101.70","","","","-25","","Snow,Blowing Snow"
"-77.29","60.05","PUVIRNITUQ A","7106223","2022-12-06 20:00","2022","12","06","20:00","-12.8","","-14.5","","87","","0.0","","17","","43","","0.6","","101.78","","","","-25","","Moderate Snow,Blowing Snow"
"-77.29","60.05","PUVIRNITUQ A","7106223","2022-12-06 21:00","2022","12","06","21:00","-12.8","","-15.0","","84","","0.0","","16","","41","","1.2","","101.88","","","","-25","","Snow,Blowing Snow"
"-77.29","60.05","PUVIRNITUQ A","7106223","2022-12-06 22:00","2022","12","06","22:00","-14.0","","-16.2","","84","","0.0","","16","","45","","1.0","","101.96","","","","-27","","Snow,Blowing Snow"
"-77.29","60.05","PUVIRNITUQ A","7106223","2022-12-06 23:00","2022","12","06","23:00","-13.3","","-15.8","","82","","0.0","","16","","43","","2.0","","102.05","","","","-26","","Snow,Blowing Snow"
"-77.29","60.05","PUVIRNITUQ A","7106223","2022-12-07 00:00","2022","12","07","00:00","-13.1","","-15.6","","82","","0.0","","16","","45","","9.7","","102.14","","","","-25","","Fog"
"-77.29","60.05","PUVIRNITUQ A","7106223","2022-12-07 01:00","2022","12","07","01:00","-13.1","","-15.4","","83","","0.0","","15","","43","","16.1","","102.23","","","","-25","","Snow"
"-77.29","60.05","PUVIRNITUQ A","7106223","2022-12-07 02:00","2022","12","07","02:00","-13.4","","-15.6","","84","","0.0","","15","","39","","16.1","","102.32","","","","-25","","Snow"
"-77.29","60.05","PUVIRNITUQ A","7106223","2022-12-07 03:00","2022","12","07","03:00","-13.4","","-15.9","","82","","0.0","","16","","39","","2.4","","102.35","","","","-25","","Snow"
"-77.29","60.05","PUVIRNITUQ A","7106223","2022-12-07 04:00","2022","12","07","04:00","-14.9","","-17.5","","81","","0.0","","14","","34","","16.1","","102.38","","","","-27","","Snow"
"-77.29","60.05","PUVIRNITUQ A","7106223","2022-12-07 05:00","2022","12","07","05:00","-15.9","","-18.5","","81","","0.0","","14","","39","","16.1","","102.38","","","","-29","","NA"
"-77.29","60.05","PUVIRNITUQ A","7106223","2022-12-07 06:00","2022","12","07","06:00","-15.5","","-18.2","","80","","0.0","","14","","39","","16.1","","102.36","","","","-28","","NA"
"-77.29","60.05","PUVIRNITUQ A","7106223","2022-12-07 07:00","2022","12","07","07:00","-14.6","","-17.2","","81","","0.0","","13","","34","","16.1","","102.30","","","","-26","","NA"
"-77.29","60.05","PUVIRNITUQ A","7106223","2022-12-07 08:00","2022","12","07","08:00","-14.3","","-17.2","","79","","0.0","","12","","34","","16.1","","102.25","","","","-26","","NA"
"-77.29","60.05","PUVIRNITUQ A","7106223","2022-12-07 09:00","2022","12","07","09:00","-15.1","","-18.3","","77","","0.0","","11","","30","","16.1","","102.24","","","","-26","","NA"
"-77.29","60.05","PUVIRNITUQ A","7106223","2022-12-07 10:00","2022","12","07","10:00","-15.1","","-18.1","","78","","0.0","","11","","32","","6.4","","102.19","","","","-26","","Snow"
"-77.29","60.05","PUVIRNITUQ A","7106223","2022-12-07 11:00","2022","12","07","11:00","-15.1","","-17.4","","83","","0.0","","10","","32","","4.8","","102.00","","","","-26","","Snow"
"-77.29","60.05","PUVIRNITUQ A","7106223","2022-12-07 12:00","2022","12","07","12:00","-15.1","","-17.2","","84","","0.0","","11","","39","","1.6","","101.83","","","","-27","","Snow"
"-77.29","60.05","PUVIRNITUQ A","7106223","2022-12-07 13:00","2022","12","07","13:00","-15.0","","-17.1","","84","","0.0","","11","","39","","2.0","","101.73","","","","-27","","Snow,Blowing Snow"
"-77.29","60.05","PUVIRNITUQ A","7106223","2022-12-07 14:00","2022","12","07","14:00","-15.4","","-17.7","","83","","0.0","","11","","39","","2.0","","101.65","","","","-28","","Snow"
"-77.29","60.05","PUVIRNITUQ A","7106223","2022-12-07 15:00","2022","12","07","15:00","-15.3","","-17.6","","83","","0.0","","12","","37","","4.0","","101.56","","","","-27","","Snow"
"-77.29","60.05","PUVIRNITUQ A","7106223","2022-12-07 16:00","2022","12","07","16:00","-15.9","","-18.5","","81","","0.0","","13","","28","","16.1","","101.53","","","","-27","","NA"
"-77.29","60.05","PUVIRNITUQ A","7106223","2022-12-07 17:00","2022","12","07","17:00","-16.3","","-19.0","","80","","0.0","","13","","28","","16.1","","101.46","","","","-27","","NA"
"-77.29","60.05","PUVIRNITUQ A","7106223","2022-12-07 18:00","2022","12","07","18:00","-16.5","","-19.2","","80","","0.0","","14","","22","","16.1","","101.44","","","","-27","","NA"
"-77.29","60.05","PUVIRNITUQ A","7106223","2022-12-07 19:00","2022","12","07","19:00","-16.5","","-19.3","","79","","0.0","","15","","26","","16.1","","101.40","","","","-27","","NA"
"-77.29","60.05","PUVIRNITUQ A","7106223","2022-12-07 20:00","2022","12","07","20:00","-15.7","","-18.1","","82","","0.0","","17","","28","","12.9","","101.39","","","","-27","","Snow"
"-77.29","60.05","PUVIRNITUQ A","7106223","2022-12-07 21:00","2022","12","07","21:00","-14.1","","-16.4","","83","","0.0","","17","","24","","16.1","","101.41","","","","-24","","NA"
"-77.29","60.05","PUVIRNITUQ A","7106223","2022-12-07 22:00","2022","12","07","22:00","-13.2","","-14.9","","87","","0.0","","18","","28","","1.6","","101.41","","","","-23","","Snow"
"-77.29","60.05","PUVIRNITUQ A","7106223","2022-12-07 23:00","2022","12","07","23:00","-11.4","","-13.3","","86","","0.0","","21","","39","","11.3","","101.41","","","","-23","","Snow"
"-77.29","60.05","PUVIRNITUQ A","7106223","2022-12-08 00:00","2022","12","08","00:00","-11.0","","-12.9","","86","","0.0","","23","","24","","14.5","","101.49","","","","-20","","Snow"
"-77.29","60.05","PUVIRNITUQ A","7106223","2022-12-08 01:00","2022","12","08","01:00","-11.3","","-14.0","","80","","0.0","","22","","34","","6.4","","101.52","","","","-22","","Snow"
"-77.29","60.05","PUVIRNITUQ A","7106223","2022-12-08 02:00","2022","12","08","02:00","-11.4","","-13.4","","85","","0.0","","22","","39","","2.0","","101.59","","","","-23","","Snow"
"-77.29","60.05","PUVIRNITUQ A","7106223","2022-12-08 03:00","2022","12","08","03:00","-11.8","","-15.9","","72","","0.0","","19","","28","","12.9","","101.66","","","","-22","","Snow"
"-77.29","60.05","PUVIRNITUQ A","7106223","2022-12-08 04:00","2022","12","08","04:00","-12.1","","-13.8","","87","","0.0","","17","","35","","1.2","","101.72","","","","-23","","Snow"
"-77.29","60.05","PUVIRNITUQ A","7106223","2022-12-08 05:00","2022","12","08","05:00","-12.9","","-14.6","","87","","0.0","","17","","37","","1.2","","101.74","","","","-24","","Snow"
"-77.29","60.05","PUVIRNITUQ A","7106223","2022-12-08 06:00","2022","12","08","06:00","-13.3","","-15.0","","87","","0.0","","17","","37","","1.2","","101.75","","","","-25","","Snow"
"-77.29","60.05","PUVIRNITUQ A","7106223","2022-12-08 07:00","2022","12","08","07:00","-13.3","","-14.9","","88","","0.0","","17","","43","","0.8","","101.76","","","","-26","","Snow,Blowing Snow"
"-77.29","60.05","PUVIRNITUQ A","7106223","2022-12-08 08:00","2022","12","08","08:00","-13.5","","-15.4","","86","","0.0","","17","","39","","1.6","","101.77","","","","-25","","Snow,Blowing Snow"
"-77.29","60.05","PUVIRNITUQ A","7106223","2022-12-08 09:00","2022","12","08","09:00","-13.6","","-16.7","","78","","0.0","","17","","37","","2.8","","101.79","","","","-25","","Snow"
"-77.29","60.05","PUVIRNITUQ A","7106223","2022-12-08 10:00","2022","12","08","10:00","-12.9","","-17.0","","72","","0.0","","16","","45","","12.9","","101.79","","","","-25","","NA"
"-77.29","60.05","PUVIRNITUQ A","7106223","2022-12-08 11:00","2022","12","08","11:00","-13.8","","-17.2","","76","","0.0","","15","","37","","16.1","","101.81","","","","-25","","NA"
"-77.29","60.05","PUVIRNITUQ A","7106223","2022-12-08 12:00","2022","12","08","12:00","-13.2","","-15.8","","81","","0.0","","15","","34","","16.1","","101.78","","","","-24","","NA"
"-77.29","60.05","PUVIRNITUQ A","7106223","2022-12-08 13:00","2022","12","08","13:00","-13.0","","-15.5","","82","","0.0","","14","","35","","16.1","","101.73","","","","-24","","NA"
"-77.29","60.05","PUVIRNITUQ A","7106223","2022-12-08 14:00","2022","12","08","14:00","-12.8","","-15.1","","83","","0.0","","14","","28","","16.1","","101.74","","","","-23","","NA"
"-77.29","60.05","PUVIRNITUQ A","7106223","2022-12-08 15:00","2022","12","08","15:00","-12.6","","-14.9","","83","","0.0","","15","","35","","16.1","","101.70","","","","-24","","Snow"
"-77.29","60.05","PUVIRNITUQ A","7106223","2022-12-08 16:00","2022","12","08","16:00","-12.7","","-15.0","","83","","0.0","","15","","37","","16.1","","101.71","","","","-24","","NA"
"-77.29","60.05","PUVIRNITUQ A","7106223","2022-12-08 17:00","2022","12","08","17:00","-12.7","","-14.7","","85","","0.0","","15","","37","","6.4","","101.70","","","","-24","","Snow"
"-77.29","60.05","PUVIRNITUQ A","7106223","2022-12-08 18:00","2022","12","08","18:00","-13.5","","-15.8","","83","","0.0","","15","","35","","16.1","","101.67","","","","-25","","NA"
"-77.29","60.05","PUVIRNITUQ A","7106223","2022-12-08 19:00","2022","12","08","19:00","-14.1","","-16.5","","82","","0.0","","15","","39","","16.1","","101.67","","","","-26","","NA"
"-77.29","60.05","PUVIRNITUQ A","7106223","2022-12-08 20:00","2022","12","08","20:00","-14.6","","-17.0","","82","","0.0","","14","","37","","16.1","","101.69","","","","-27","","NA"
"-77.29","60.05","PUVIRNITUQ A","7106223","2022-12-08 21:00","2022","12","08","21:00","-14.9","","-17.3","","82","","0.0","","14","","37","","16.1","","101.65","","","","-27","","NA"
"-77.29","60.05","PUVIRNITUQ A","7106223","2022-12-08 22:00","2022","12","08","22:00","-14.8","","-17.2","","82","","0.0","","14","","34","","16.1","","101.67","","","","-26","","NA"
"-77.29","60.05","PUVIRNITUQ A","7106223","2022-12-08 23:00","2022","12","08","23:00","-14.7","","-17.3","","81","","0.0","","14","","30","","16.1","","101.67","","","","-26","","NA"
"-77.29","60.05","PUVIRNITUQ A","7106223","2022-12-09 00:00","2022","12","09","00:00","-15.1","","-17.7","","81","","0.0","","15","","26","","16.1","","101.70","","","","-25","","NA"
"-77.29","60.05","PUVIRNITUQ A","7106223","2022-12-09 01:00","2022","12","09","01:00","-15.9","","-18.5","","81","","0.0","","15","","30","","16.1","","101.70","","","","-27","","NA"
"-77.29","60.05","PUVIRNITUQ A","7106223","2022-12-09 02:00","2022","12","09","02:00","-16.6","","-19.4","","79","","0.0","","15","","26","","16.1","","101.76","","","","-27","","NA"
"-77.29","60.05","PUVIRNITUQ A","7106223","2022-12-09 03:00","2022","12","09","03:00","-18.2","","-20.9","","80","","0.0","","11","","18","","16.1","","101.87","","","","-28","","NA"
"-77.29","60.05","PUVIRNITUQ A","7106223","2022-12-09 04:00","2022","12","09","04:00","-17.8","","-20.5","","80","","0.0","","11","","21","","16.1","","101.93","","","","-28","","NA"
"-77.29","60.05","PUVIRNITUQ A","7106223","2022-12-09 05:00","2022","12","09","05:00","-18.1","","-20.9","","79","","0.0","","11","","18","","16.1","","102.00","","","","-28","","NA"
"-77.29","60.05","PUVIRNITUQ A","7106223","2022-12-09 06:00","2022","12","09","06:00","-19.0","","-21.6","","80","","0.0","","10","","15","","16.1","","102.04","","","","-28","","NA"
"-77.29","60.05","PUVIRNITUQ A","7106223","2022-12-09 07:00","2022","12","09","07:00","-20.0","","-22.5","","81","","0.0","","9","","13","","16.1","","102.15","","","","-28","","NA"
"-77.29","60.05","PUVIRNITUQ A","7106223","2022-12-09 08:00","2022","12","09","08:00","-18.9","","-21.5","","80","","0.0","","8","","9","","16.1","","102.26","","","","-25","","Snow"
"-77.29","60.05","PUVIRNITUQ A","7106223","2022-12-09 09:00","2022","12","09","09:00","-19.4","","-22.0","","80","","0.0","","7","","11","","16.1","","102.35","","","","-27","","Snow"
"-77.29","60.05","PUVIRNITUQ A","7106223","2022-12-09 10:00","2022","12","09","10:00","-20.0","","-22.5","","81","","0.0","","9","","11","","16.1","","102.47","","","","-28","","NA"
"-77.29","60.05","PUVIRNITUQ A","7106223","2022-12-09 11:00","2022","12","09","11:00","-20.4","","-23.0","","80","","0.0","","11","","9","","16.1","","102.57","","","","-27","","NA"
"-77.29","60.05","PUVIRNITUQ A","7106223","2022-12-09 12:00","2022","12","09","12:00","-19.7","","-22.3","","80","","0.0","","18","","8","","16.1","","102.68","","","","-26","","NA"
"-77.29","60.05","PUVIRNITUQ A","7106223","2022-12-09 13:00","2022","12","09","13:00","-19.0","","-21.6","","80","","0.0","","28","","8","","16.1","","102.80","","","","-25","","NA"
"-77.29","60.05","PUVIRNITUQ A","7106223","2022-12-09 14:00","2022","12","09","14:00","-17.8","","-19.6","","86","","0.0","","32","","18","","16.1","","102.94","","","","-27","","NA"
"-77.29","60.05","PUVIRNITUQ A","7106223","2022-12-09 15:00","2022","12","09","15:00","-16.6","","-18.8","","84","","0.0","","32","","21","","16.1","","103.09","","","","-26","","NA"
"-77.29","60.05","PUVIRNITUQ A","7106223","2022-12-09 16:00","2022","12","09","16:00","-14.5","","-17.1","","81","","0.0","","32","","28","","16.1","","103.22","","","","-25","","NA"
"-77.29","60.05","PUVIRNITUQ A","7106223","2022-12-09 17:00","2022","12","09","17:00","-15.4","","-18.3","","79","","0.0","","34","","26","","16.1","","103.32","","","","-26","","NA"
"-77.29","60.05","PUVIRNITUQ A","7106223","2022-12-09 18:00","2022","12","09","18:00","-15.1","","-18.0","","79","","0.0","","33","","21","","16.1","","103.47","","","","-25","","NA"
"-77.29","60.05","PUVIRNITUQ A","7106223","2022-12-09 19:00","2022","12","09","19:00","-15.0","","-17.7","","80","","0.0","","32","","17","","16.1","","103.56","","","","-23","","Snow"
"-77.29","60.05","PUVIRNITUQ A","7106223","2022-12-09 20:00","2022","12","09","20:00","-14.9","","-17.5","","81","","0.0","","33","","8","","16.1","","103.64","","","","-20","","Snow"
"-77.29","60.05","PUVIRNITUQ A","7106223","2022-12-09 21:00","2022","12","09","21:00","-15.1","","-17.5","","82","","0.0","","31","","5","","16.1","","103.73","","","","-19","","NA"
"-77.29","60.05","PUVIRNITUQ A","7106223","2022-12-09 22:00","2022","12","09","22:00","-15.0","","-17.6","","81","","0.0","","","","0","","16.1","","103.77","","","","","","NA"
"-77.29","60.05","PUVIRNITUQ A","7106223","2022-12-09 23:00","2022","12","09","23:00","-15.2","","-18.3","","78","","0.0","","","M","4","","16.1","","103.80","","","","-18","","NA"
"-77.29","60.05","PUVIRNITUQ A","7106223","2022-12-10 00:00","2022","12","10","00:00","-14.7","","-17.4","","80","","0.0","","19","","5","","16.1","","103.84","","","","-18","","NA"
"-77.29","60.05","PUVIRNITUQ A","7106223","2022-12-10 01:00","2022","12","10","01:00","-14.3","","-17.0","","80","","0.0","","13","","8","","16.1","","103.88","","","","-20","","NA"
"-77.29","60.05","PUVIRNITUQ A","7106223","2022-12-10 02:00","2022","12","10","02:00","-13.9","","-16.8","","79","","0.0","","14","","15","","16.1","","103.92","","","","-22","","NA"
"-77.29","60.05","PUVIRNITUQ A","7106223","2022-12-10 03:00","2022","12","10","03:00","-13.7","","-16.8","","78","","0.0","","15","","18","","16.1","","103.95","","","","-22","","NA"
"-77.29","60.05","PUVIRNITUQ A","7106223","2022-12-10 04:00","2022","12","10","04:00","-13.4","","-16.3","","79","","0.0","","16","","21","","16.1","","103.98","","","","-22","","NA"
"-77.29","60.05","PUVIRNITUQ A","7106223","2022-12-10 05:00","2022","12","10","05:00","-13.4","","-16.2","","80","","0.0","","16","","28","","16.1","","104.00","","","","-24","","NA"
"-77.29","60.05","PUVIRNITUQ A","7106223","2022-12-10 06:00","2022","12","10","06:00","-13.2","","-16.0","","80","","0.0","","15","","34","","16.1","","103.97","","","","-24","","NA"
"-77.29","60.05","PUVIRNITUQ A","7106223","2022-12-10 07:00","2022","12","10","07:00","-12.5","","-15.7","","77","","0.0","","15","","26","","16.1","","104.01","","","","-22","","NA"
"-77.29","60.05","PUVIRNITUQ A","7106223","2022-12-10 08:00","2022","12","10","08:00","-13.1","","-16.0","","79","","0.0","","13","","28","","16.1","","103.99","","","","-23","","NA"
"-77.29","60.05","PUVIRNITUQ A","7106223","2022-12-10 09:00","2022","12","10","09:00","-13.2","","-16.1","","79","","0.0","","14","","32","","16.1","","103.97","","","","-24","","NA"
"-77.29","60.05","PUVIRNITUQ A","7106223","2022-12-10 10:00","2022","12","10","10:00","-13.2","","-15.8","","81","","0.0","","14","","35","","14.5","","103.95","","","","-24","","NA"
"-77.29","60.05","PUVIRNITUQ A","7106223","2022-12-10 11:00","2022","12","10","11:00","-12.8","","-15.4","","81","","0.0","","14","","37","","14.5","","103.88","","","","-24","","NA"
"-77.29","60.05","PUVIRNITUQ A","7106223","2022-12-10 12:00","2022","12","10","12:00","-12.3","","-15.1","","80","","0.0","","14","","32","","16.1","","103.86","","","","-23","","NA"
"-77.29","60.05","PUVIRNITUQ A","7106223","2022-12-10 13:00","2022","12","10","13:00","-11.6","","-14.4","","80","","0.0","","14","","34","","16.1","","103.86","","","","-22","","NA"
"-77.29","60.05","PUVIRNITUQ A","7106223","2022-12-10 14:00","2022","12","10","14:00","-11.0","","-13.8","","80","","0.0","","14","","32","","16.1","","103.82","","","","-21","","NA"
"-77.29","60.05","PUVIRNITUQ A","7106223","2022-12-10 15:00","2022","12","10","15:00","-10.5","","-13.0","","82","","0.0","","15","","37","","11.3","","103.81","","","","-21","","NA"
"-77.29","60.05","PUVIRNITUQ A","7106223","2022-12-10 16:00","2022","12","10","16:00","-10.4","","-12.9","","82","","0.0","","14","","26","","16.1","","103.82","","","","-19","","Snow"
"-77.29","60.05","PUVIRNITUQ A","7106223","2022-12-10 17:00","2022","12","10","17:00","-10.5","","-13.0","","82","","0.0","","14","","26","","16.1","","103.81","","","","-20","","Snow"
"-77.29","60.05","PUVIRNITUQ A","7106223","2022-12-10 18:00","2022","12","10","18:00","-10.4","","-12.8","","83","","0.0","","14","","34","","16.1","","103.79","","","","-21","","Snow"
"-77.29","60.05","PUVIRNITUQ A","7106223","2022-12-10 19:00","2022","12","10","19:00","-10.1","","-12.5","","83","","0.0","","14","","28","","16.1","","103.80","","","","-19","","Snow"
"-77.29","60.05","PUVIRNITUQ A","7106223","2022-12-10 20:00","2022","12","10","20:00","-10.0","","-12.2","","84","","0.0","","14","","26","","16.1","","103.76","","","","-19","","Snow"
"-77.29","60.05","PUVIRNITUQ A","7106223","2022-12-10 21:00","2022","12","10","21:00","-9.2","","-11.6","","83","","0.0","","15","","28","","16.1","","103.73","","","","-18","","Snow"
"-77.29","60.05","PUVIRNITUQ A","7106223","2022-12-10 22:00","2022","12","10","22:00","-9.4","","-11.6","","84","","0.0","","13","","26","","16.1","","103.70","","","","-18","","Snow"
"-77.29","60.05","PUVIRNITUQ A","7106223","2022-12-10 23:00","2022","12","10","23:00","-8.9","","-11.6","","81","","0.0","","15","","28","","16.1","","103.65","","","","-18","","Snow"
"-77.29","60.05","PUVIRNITUQ A","7106223","2022-12-11 00:00","2022","12","11","00:00","-10.0","","-12.2","","84","","0.0","","15","","35","","16.1","","103.66","","","","-20","","Snow"
"-77.29","60.05","PUVIRNITUQ A","7106223","2022-12-11 01:00","2022","12","11","01:00","-10.7","","-13.3","","81","","0.0","","15","","37","","16.1","","103.65","","","","-21","","Snow"
"-77.29","60.05","PUVIRNITUQ A","7106223","2022-12-11 02:00","2022","12","11","02:00","-11.1","","-13.6","","82","","0.0","","15","","39","","12.9","","103.65","","","","-22","","Snow"
"-77.29","60.05","PUVIRNITUQ A","7106223","2022-12-11 03:00","2022","12","11","03:00","-11.4","","-14.0","","81","","0.0","","14","","35","","9.7","","103.65","","","","-22","","Snow"
"-77.29","60.05","PUVIRNITUQ A","7106223","2022-12-11 04:00","2022","12","11","04:00","-11.3","","-13.9","","81","","0.0","","14","","34","","14.5","","103.64","","","","-22","","Snow"
"-77.29","60.05","PUVIRNITUQ A","7106223","2022-12-11 05:00","2022","12","11","05:00","-12.0","","-14.6","","81","","0.0","","13","","30","","16.1","","103.63","","","","-22","","Snow"
"-77.29","60.05","PUVIRNITUQ A","7106223","2022-12-11 06:00","2022","12","11","06:00","-12.2","","-14.8","","81","","0.0","","13","","32","","16.1","","103.63","","","","-23","","NA"
"-77.29","60.05","PUVIRNITUQ A","7106223","2022-12-11 07:00","2022","12","11","07:00","-12.0","","-14.6","","81","","0.0","","13","","32","","16.1","","103.64","","","","-22","","Snow"
"-77.29","60.05","PUVIRNITUQ A","7106223","2022-12-11 08:00","2022","12","11","08:00","-12.2","","-14.7","","82","","0.0","","13","","37","","16.1","","103.64","","","","-23","","Snow"
"-77.29","60.05","PUVIRNITUQ A","7106223","2022-12-11 09:00","2022","12","11","09:00","-12.4","","-15.0","","81","","0.0","","13","","30","","16.1","","103.63","","","","-23","","Snow"
"-77.29","60.05","PUVIRNITUQ A","7106223","2022-12-11 10:00","2022","12","11","10:00","-12.5","","-15.3","","80","","0.0","","13","","32","","16.1","","103.63","","","","-23","","Snow"
"-77.29","60.05","PUVIRNITUQ A","7106223","2022-12-11 11:00","2022","12","11","11:00","-12.8","","-15.0","","84","","0.0","","12","","28","","16.1","","103.62","","","","-23","","Snow"
"-77.29","60.05","PUVIRNITUQ A","7106223","2022-12-11 12:00","2022","12","11","12:00","-13.6","","-16.4","","80","","0.0","","13","","26","","16.1","","103.62","","","","-24","","Snow"
"-77.29","60.05","PUVIRNITUQ A","7106223","2022-12-11 13:00","2022","12","11","13:00","-15.1","","-18.6","","75","","0.0","","14","","26","","16.1","","103.64","","","","-25","","NA"
"-77.29","60.05","PUVIRNITUQ A","7106223","2022-12-11 14:00","2022","12","11","14:00","-15.9","","-19.1","","77","","0.0","","14","","18","","16.1","","103.66","","","","-25","","NA"
"-77.29","60.05","PUVIRNITUQ A","7106223","2022-12-11 15:00","2022","12","11","15:00","-16.2","","-19.1","","79","","0.0","","15","","15","","16.1","","103.70","","","","-24","","NA"
"-77.29","60.05","PUVIRNITUQ A","7106223","2022-12-11 16:00","2022","12","11","16:00","-17.3","","-20.0","","80","","0.0","","13","","17","","16.1","","103.70","","","","-26","","NA"
"-77.29","60.05","PUVIRNITUQ A","7106223","2022-12-11 17:00","2022","12","11","17:00","-17.8","","-20.5","","80","","0.0","","12","","21","","16.1","","103.72","","","","-28","","NA"
"-77.29","60.05","PUVIRNITUQ A","7106223","2022-12-11 18:00","2022","12","11","18:00","-18.0","","-20.5","","81","","0.0","","12","","21","","16.1","","103.73","","","","-28","","NA"
"-77.29","60.05","PUVIRNITUQ A","7106223","2022-12-11 19:00","2022","12","11","19:00","-18.2","","-20.7","","81","","0.0","","12","","18","","16.1","","103.74","","","","-28","","NA"
"-77.29","60.05","PUVIRNITUQ A","7106223","2022-12-11 20:00","2022","12","11","20:00","-18.3","","-20.5","","83","","0.0","","12","","18","","16.1","","103.74","","","","-28","","NA"
"-77.29","60.05","PUVIRNITUQ A","7106223","2022-12-11 21:00","2022","12","11","21:00","-19.1","","-21.2","","84","","0.0","","11","","13","","16.1","","103.73","","","","-27","","NA"
"-77.29","60.05","PUVIRNITUQ A","7106223","2022-12-11 22:00","2022","12","11","22:00","-18.8","","-20.7","","85","","0.0","","9","","9","","16.1","","103.72","","","","-25","","NA"
"-77.29","60.05","PUVIRNITUQ A","7106223","2022-12-11 23:00","2022","12","11","23:00","-19.1","","-21.2","","84","","0.0","","10","","11","","16.1","","103.73","","","","-27","","NA"
"-77.29","60.05","PUVIRNITUQ A","7106223","2022-12-12 00:00","2022","12","12","00:00","-19.6","","-21.8","","83","","0.0","","9","","11","","16.1","","103.74","","","","-27","","NA"
"-77.29","60.05","PUVIRNITUQ A","7106223","2022-12-12 01:00","2022","12","12","01:00","-18.7","","-20.8","","84","","0.0","","11","","9","","16.1","","103.73","","","","-25","","NA"
"-77.29","60.05","PUVIRNITUQ A","7106223","2022-12-12 02:00","2022","12","12","02:00","-16.4","","-18.2","","86","","0.0","","12","","8","","16.1","","103.75","","","","-22","","NA"
"-77.29","60.05","PUVIRNITUQ A","7106223","2022-12-12 03:00","2022","12","12","03:00","-16.0","","-17.8","","86","","0.0","","10","","8","","16.1","","103.76","","","","-22","","NA"
"-77.29","60.05","PUVIRNITUQ A","7106223","2022-12-12 04:00","2022","12","12","04:00","-16.2","","-18.2","","85","","0.0","","7","","8","","6.4","","103.75","","","","-22","","Fog"
"-77.29","60.05","PUVIRNITUQ A","7106223","2022-12-12 05:00","2022","12","12","05:00","-16.6","","-18.6","","85","","0.0","","6","","11","","1.2","","103.74","","","","-24","","Fog"
"-77.29","60.05","PUVIRNITUQ A","7106223","2022-12-12 06:00","2022","12","12","06:00","-18.0","","-20.2","","83","","0.0","","8","","9","","1.2","","103.74","","","","-24","","Fog"
"-77.29","60.05","PUVIRNITUQ A","7106223","2022-12-12 07:00","2022","12","12","07:00","-18.1","","-20.3","","83","","0.0","","","","0","","0.8","","103.74","","","","","","Freezing Fog"
"-77.29","60.05","PUVIRNITUQ A","7106223","2022-12-12 08:00","2022","12","12","08:00","-18.4","","-20.6","","83","","0.0","","6","","5","","0.6","","103.71","","","","-22","","Haze"
"-77.29","60.05","PUVIRNITUQ A","7106223","2022-12-12 09:00","2022","12","12","09:00","-18.9","","-21.1","","83","","0.0","","8","","8","","0.2","","103.68","","","","-25","","Freezing Fog"
"-77.29","60.05","PUVIRNITUQ A","7106223","2022-12-12 10:00","2022","12","12","10:00","-19.6","","-21.9","","82","","0.0","","9","","5","","0.4","","103.66","","","","-24","","Freezing Fog"
"-77.29","60.05","PUVIRNITUQ A","7106223","2022-12-12 11:00","2022","12","12","11:00","-19.9","","-22.2","","82","","0.0","","12","","5","","0.2","","103.62","","","","-24","","Freezing Fog"
"-77.29","60.05","PUVIRNITUQ A","7106223","2022-12-12 12:00","2022","12","12","12:00","-19.8","","-22.1","","82","","0.0","","10","","8","","16.1","","103.59","","","","-26","","NA"
"-77.29","60.05","PUVIRNITUQ A","7106223","2022-12-12 13:00","2022","12","12","13:00","-20.0","","-22.5","","81","","0.0","","8","","5","","16.1","","103.58","","","","-24","","NA"
"-77.29","60.05","PUVIRNITUQ A","7106223","2022-12-12 14:00","2022","12","12","14:00","-20.3","","-22.8","","81","","0.0","","10","","8","","16.1","","103.56","","","","-27","","NA"
"-77.29","60.05","PUVIRNITUQ A","7106223","2022-12-12 15:00","2022","12","12","15:00","-20.6","","-23.1","","81","","0.0","","10","","13","","16.1","","103.55","","","","-29","","NA"
"-77.29","60.05","PUVIRNITUQ A","7106223","2022-12-12 16:00","2022","12","12","16:00","-20.7","","-23.2","","81","","0.0","","10","","11","","16.1","","103.57","","","","-28","","NA"
"-77.29","60.05","PUVIRNITUQ A","7106223","2022-12-12 17:00","2022","12","12","17:00","-20.5","","-23.0","","81","","0.0","","12","","13","","16.1","","103.57","","","","-29","","NA"
"-77.29","60.05","PUVIRNITUQ A","7106223","2022-12-12 18:00","2022","12","12","18:00","-19.7","","-22.0","","82","","0.0","","10","","11","","16.1","","103.57","","","","-27","","NA"
"-77.29","60.05","PUVIRNITUQ A","7106223","2022-12-12 19:00","2022","12","12","19:00","-19.2","","-21.5","","82","","0.0","","9","","11","","16.1","","103.55","","","","-27","","NA"
"-77.29","60.05","PUVIRNITUQ A","7106223","2022-12-12 20:00","2022","12","12","20:00","-18.9","","-21.1","","83","","0.0","","10","","15","","16.1","","103.53","","","","-28","","NA"
"-77.29","60.05","PUVIRNITUQ A","7106223","2022-12-12 21:00","2022","12","12","21:00","-18.9","","-21.3","","82","","0.0","","10","","15","","16.1","","103.50","","","","-28","","NA"
"-77.29","60.05","PUVIRNITUQ A","7106223","2022-12-12 22:00","2022","12","12","22:00","-18.1","","-20.3","","83","","0.0","","10","","11","","16.1","","103.48","","","","-25","","NA"
"-77.29","60.05","PUVIRNITUQ A","7106223","2022-12-12 23:00","2022","12","12","23:00","-17.0","","-19.1","","84","","0.0","","13","","8","","16.1","","103.50","","","","-23","","NA"
"-77.29","60.05","PUVIRNITUQ A","7106223","2022-12-13 00:00","2022","12","13","00:00","-16.3","","-18.3","","85","","0.0","","12","","13","","16.1","","103.48","","","","-24","","NA"
"-77.29","60.05","PUVIRNITUQ A","7106223","2022-12-13 01:00","2022","12","13","01:00","-15.6","","-17.6","","85","","0.0","","11","","13","","16.1","","103.45","","","","-23","","NA"
"-77.29","60.05","PUVIRNITUQ A","7106223","2022-12-13 02:00","2022","12","13","02:00","-15.4","","-17.4","","85","","0.0","","11","","18","","16.1","","103.47","","","","-24","","NA"
"-77.29","60.05","PUVIRNITUQ A","7106223","2022-12-13 03:00","2022","12","13","03:00","-15.2","","-17.1","","86","","0.0","","12","","18","","16.1","","103.49","","","","-24","","Snow"
"-77.29","60.05","PUVIRNITUQ A","7106223","2022-12-13 04:00","2022","12","13","04:00","-14.9","","-16.8","","86","","0.0","","10","","15","","16.1","","103.49","","","","-23","","NA"
"-77.29","60.05","PUVIRNITUQ A","7106223","2022-12-13 05:00","2022","12","13","05:00","-14.4","","-16.3","","86","","0.0","","11","","13","","16.1","","103.50","","","","-22","","NA"
"-77.29","60.05","PUVIRNITUQ A","7106223","2022-12-13 06:00","2022","12","13","06:00","-13.8","","-15.5","","87","","0.0","","11","","13","","16.1","","103.50","","","","-21","","NA"
"-77.29","60.05","PUVIRNITUQ A","7106223","2022-12-13 07:00","2022","12","13","07:00","-13.4","","-15.1","","87","","0.0","","12","","24","","16.1","","103.48","","","","-23","","Snow"
"-77.29","60.05","PUVIRNITUQ A","7106223","2022-12-13 08:00","2022","12","13","08:00","-13.4","","-15.1","","87","","0.0","","12","","17","","16.1","","103.48","","","","-21","","NA"
"-77.29","60.05","PUVIRNITUQ A","7106223","2022-12-13 09:00","2022","12","13","09:00","-13.6","","-15.3","","87","","0.0","","12","","22","","16.1","","103.48","","","","-23","","NA"
"-77.29","60.05","PUVIRNITUQ A","7106223","2022-12-13 10:00","2022","12","13","10:00","-13.0","","-14.6","","88","","0.0","","13","","22","","12.9","","103.48","","","","-22","","Snow"
"-77.29","60.05","PUVIRNITUQ A","7106223","2022-12-13 11:00","2022","12","13","11:00","-11.9","","-13.4","","89","","0.0","","14","","22","","16.1","","103.45","","","","-21","","NA"
"-77.29","60.05","PUVIRNITUQ A","7106223","2022-12-13 12:00","2022","12","13","12:00","-11.0","","-12.5","","89","","0.0","","15","","15","","16.1","","103.41","","","","-18","","NA"
"-77.29","60.05","PUVIRNITUQ A","7106223","2022-12-13 13:00","2022","12","13","13:00","-9.5","","-10.7","","91","","0.0","","14","","32","","16.1","","103.35","","","","-19","","Snow"
"-77.29","60.05","PUVIRNITUQ A","7106223","2022-12-13 14:00","2022","12","13","14:00","-10.4","","-11.7","","90","","0.0","","12","","26","","16.1","","103.35","","","","-19","","NA"
"-77.29","60.05","PUVIRNITUQ A","7106223","2022-12-13 15:00","2022","12","13","15:00","-11.1","","-12.6","","89","","0.0","","13","","15","","16.1","","103.35","","","","-18","","NA"
"-77.29","60.05","PUVIRNITUQ A","7106223","2022-12-13 16:00","2022","12","13","16:00","-10.0","","-11.3","","90","","0.0","","13","","32","","16.1","","103.33","","","","-20","","NA"
"-77.29","60.05","PUVIRNITUQ A","7106223","2022-12-13 17:00","2022","12","13","17:00","-10.5","","-11.8","","90","","0.0","","14","","32","","16.1","","103.31","","","","-20","","NA"
"-77.29","60.05","PUVIRNITUQ A","7106223","2022-12-13 18:00","2022","12","13","18:00","-10.8","","-12.1","","90","","0.0","","15","","30","","16.1","","103.28","","","","-21","","NA"
"-77.29","60.05","PUVIRNITUQ A","7106223","2022-12-13 19:00","2022","12","13","19:00","-11.2","","-12.7","","89","","0.0","","15","","32","","16.1","","103.27","","","","-21","","NA"
"-77.29","60.05","PUVIRNITUQ A","7106223","2022-12-13 20:00","2022","12","13","20:00","-11.4","","-12.9","","89","","0.0","","15","","32","","16.1","","103.24","","","","-22","","NA"
"-77.29","60.05","PUVIRNITUQ A","7106223","2022-12-13 21:00","2022","12","13","21:00","-10.8","","-12.1","","90","","0.0","","14","","30","","16.1","","103.19","","","","-21","","NA"
"-77.29","60.05","PUVIRNITUQ A","7106223","2022-12-13 22:00","2022","12","13","22:00","-10.6","","-11.9","","90","","0.0","","15","","32","","16.1","","103.16","","","","-21","","NA"
"-77.29","60.05","PUVIRNITUQ A","7106223","2022-12-13 23:00","2022","12","13","23:00","-10.6","","-12.1","","89","","0.0","","15","","30","","16.1","","103.14","","","","-20","","NA"
"-77.29","60.05","PUVIRNITUQ A","7106223","2022-12-14 00:00","2022","12","14","00:00","-10.4","","-12.0","","88","","0.0","","15","","34","","16.1","","103.10","","","","-21","","NA"
"-77.29","60.05","PUVIRNITUQ A","7106223","2022-12-14 01:00","2022","12","14","01:00","-10.1","","-11.9","","87","","0.0","","16","","30","","16.1","","103.11","","","","-20","","NA"
"-77.29","60.05","PUVIRNITUQ A","7106223","2022-12-14 02:00","2022","12","14","02:00","-9.6","","-11.5","","86","","0.0","","16","","32","","16.1","","103.16","","","","-19","","NA"
"-77.29","60.05","PUVIRNITUQ A","7106223","2022-12-14 03:00","2022","12","14","03:00","-9.9","","-12.0","","85","","0.0","","16","","30","","16.1","","103.20","","","","-19","","NA"
"-77.29","60.05","PUVIRNITUQ A","7106223","2022-12-14 04:00","2022","12","14","04:00","-10.2","","-11.8","","88","","0.0","","16","","30","","16.1","","103.15","","","","-20","","NA"
"-77.29","60.05","PUVIRNITUQ A","7106223","2022-12-14 05:00","2022","12","14","05:00","-9.3","","-10.7","","90","","0.0","","17","","30","","16.1","","103.14","","","","-19","","NA"
"-77.29","60.05","PUVIRNITUQ A","7106223","2022-12-14 06:00","2022","12","14","06:00","-9.3","","-10.5","","91","","0.0","","17","","32","","1.2","","103.14","","","","-19","","Snow"
"-77.29","60.05","PUVIRNITUQ A","7106223","2022-12-14 07:00","2022","12","14","07:00","-9.5","","-10.7","","91","","0.0","","16","","30","","4.8","","103.15","","","","-19","","Snow"
"-77.29","60.05","PUVIRNITUQ A","7106223","2022-12-14 08:00","2022","12","14","08:00","-8.6","","-9.7","","92","","0.0","","17","","28","","2.8","","103.18","","","","-17","","Snow"
"-77.29","60.05","PUVIRNITUQ A","7106223","2022-12-14 09:00","2022","12","14","09:00","-8.8","","-9.9","","92","","0.0","","17","","30","","12.9","","103.18","","","","-18","","Snow"
"-77.29","60.05","PUVIRNITUQ A","7106223","2022-12-14 10:00","2022","12","14","10:00","-8.3","","-9.4","","92","","0.0","","17","","32","","16.1","","103.21","","","","-18","","Snow"
"-77.29","60.05","PUVIRNITUQ A","7106223","2022-12-14 11:00","2022","12","14","11:00","-8.1","","-9.2","","92","","0.0","","17","","34","","4.8","","103.22","","","","-18","","Snow"
"-77.29","60.05","PUVIRNITUQ A","7106223","2022-12-14 12:00","2022","12","14","12:00","-8.5","","-9.7","","91","","0.0","","18","","34","","8.1","","103.21","","","","-18","","Snow"
"-77.29","60.05","PUVIRNITUQ A","7106223","2022-12-14 13:00","2022","12","14","13:00","-8.8","","-9.9","","92","","0.0","","18","","32","","14.5","","103.21","","","","-18","","Snow"
"-77.29","60.05","PUVIRNITUQ A","7106223","2022-12-14 14:00","2022","12","14","14:00","-8.9","","-10.0","","92","","0.0","","17","","24","","3.6","","103.24","","","","-17","","Fog"
"-77.29","60.05","PUVIRNITUQ A","7106223","2022-12-14 15:00","2022","12","14","15:00","-8.9","","-10.1","","91","","0.0","","16","","30","","3.2","","103.25","","","","-18","","Fog"
"-77.29","60.05","PUVIRNITUQ A","7106223","2022-12-14 16:00","2022","12","14","16:00","-10.5","","-11.8","","90","","0.0","","16","","28","","12.9","","103.28","","","","-20","","NA"
"-77.29","60.05","PUVIRNITUQ A","7106223","2022-12-14 17:00","2022","12","14","17:00","-10.1","","-11.4","","90","","0.0","","16","","26","","","M","103.31","","","","-19","","NA"
"-77.29","60.05","PUVIRNITUQ A","7106223","2022-12-14 18:00","2022","12","14","18:00","-9.8","","-11.0","","91","","0.0","","17","","28","","","M","103.29","","","","-19","","NA"
"-77.29","60.05","PUVIRNITUQ A","7106223","2022-12-14 19:00","2022","12","14","19:00","-10.7","","-12.0","","90","","0.0","","16","","18","","","M","103.32","","","","-18","","NA"
"-77.29","60.05","PUVIRNITUQ A","7106223","2022-12-14 20:00","2022","12","14","20:00","-11.3","","-12.8","","89","","0.0","","16","","21","","","M","103.33","","","","-20","","NA"
"-77.29","60.05","PUVIRNITUQ A","7106223","2022-12-14 21:00","2022","12","14","21:00","-11.3","","-12.8","","89","","0.0","","16","","21","","","M","103.35","","","","-20","","NA"
"-77.29","60.05","PUVIRNITUQ A","7106223","2022-12-14 22:00","2022","12","14","22:00","-10.4","","-11.7","","90","","0.0","","16","","26","","","M","103.31","","","","-19","","NA"
"-77.29","60.05","PUVIRNITUQ A","7106223","2022-12-14 23:00","2022","12","14","23:00","-10.0","","-11.3","","90","","0.0","","16","","22","","","M","103.31","","","","-18","","NA"
"-77.29","60.05","PUVIRNITUQ A","7106223","2022-12-15 00:00","2022","12","15","00:00","-10.0","","-11.3","","90","","0.0","","16","","18","","","M","103.29","","","","-17","","NA"
"-77.29","60.05","PUVIRNITUQ A","7106223","2022-12-15 01:00","2022","12","15","01:00","-10.7","","-12.0","","90","","0.0","","16","","22","","","M","103.28","","","","-19","","NA"
"-77.29","60.05","PUVIRNITUQ A","7106223","2022-12-15 02:00","2022","12","15","02:00","-10.7","","-12.0","","90","","0.0","","16","","22","","","M","103.32","","","","-19","","NA"
"-77.29","60.05","PUVIRNITUQ A","7106223","2022-12-15 03:00","2022","12","15","03:00","-11.2","","-12.6","","89","","0.0","","16","","18","","","M","103.34","","","","-19","","NA"
"-77.29","60.05","PUVIRNITUQ A","7106223","2022-12-15 04:00","2022","12","15","04:00","-10.6","","-11.9","","90","","0.0","","16","","22","","","M","103.32","","","","-19","","NA"
"-77.29","60.05","PUVIRNITUQ A","7106223","2022-12-15 05:00","2022","12","15","05:00","-10.6","","-11.9","","90","","0.0","","13","","11","","","M","103.37","","","","-16","","NA"
"-77.29","60.05","PUVIRNITUQ A","7106223","2022-12-15 06:00","2022","12","15","06:00","-10.2","","-11.5","","90","","0.0","","13","","13","","","M","103.38","","","","-16","","NA"
"-77.29","60.05","PUVIRNITUQ A","7106223","2022-12-15 07:00","2022","12","15","07:00","-9.8","","-11.0","","91","","0.0","","14","","11","","","M","103.38","","","","-15","","NA"
"-77.29","60.05","PUVIRNITUQ A","7106223","2022-12-15 08:00","2022","12","15","08:00","-9.6","","-10.8","","91","","0.0","","15","","13","","","M","103.34","","","","-16","","NA"
"-77.29","60.05","PUVIRNITUQ A","7106223","2022-12-15 09:00","2022","12","15","09:00","-10.0","","-11.3","","90","","0.0","","14","","13","","","M","103.34","","","","-16","","NA"
"-77.29","60.05","PUVIRNITUQ A","7106223","2022-12-15 10:00","2022","12","15","10:00","-10.3","","-11.6","","90","","0.0","","13","","21","","","M","103.32","","","","-18","","NA"
"-77.29","60.05","PUVIRNITUQ A","7106223","2022-12-15 11:00","2022","12","15","11:00","-10.3","","-11.6","","90","","0.0","","12","","21","","","M","103.26","","","","-18","","NA"
"-77.29","60.05","PUVIRNITUQ A","7106223","2022-12-15 12:00","2022","12","15","12:00","-9.9","","-11.2","","90","","0.0","","11","","11","","16.1","","103.23","","","","-15","","NA"
"-77.29","60.05","PUVIRNITUQ A","7106223","2022-12-15 13:00","2022","12","15","13:00","-11.3","","-12.8","","89","","0.0","","8","","13","","16.1","","103.25","","","","-18","","NA"
"-77.29","60.05","PUVIRNITUQ A","7106223","2022-12-15 14:00","2022","12","15","14:00","-11.8","","-13.3","","89","","0.0","","9","","17","","16.1","","103.22","","","","-19","","NA"
"-77.29","60.05","PUVIRNITUQ A","7106223","2022-12-15 15:00","2022","12","15","15:00","-13.3","","-15.0","","87","","0.0","","10","","24","","16.1","","103.20","","","","-23","","NA"
"-77.29","60.05","PUVIRNITUQ A","7106223","2022-12-15 16:00","2022","12","15","16:00","-14.4","","-16.1","","87","","0.0","","9","","17","","16.1","","103.16","","","","-23","","NA"
"-77.29","60.05","PUVIRNITUQ A","7106223","2022-12-15 17:00","2022","12","15","17:00","-14.6","","-16.5","","86","","0.0","","10","","22","","16.1","","103.15","","","","-24","","NA"
"-77.29","60.05","PUVIRNITUQ A","7106223","2022-12-15 18:00","2022","12","15","18:00","-15.4","","-17.2","","86","","0.0","","10","","21","","16.1","","103.17","","","","-25","","NA"
"-77.29","60.05","PUVIRNITUQ A","7106223","2022-12-15 19:00","2022","12","15","19:00","-15.5","","-17.3","","86","","0.0","","11","","22","","16.1","","103.06","","","","-25","","NA"
"-77.29","60.05","PUVIRNITUQ A","7106223","2022-12-15 20:00","2022","12","15","20:00","-15.5","","-17.5","","85","","0.0","","10","","21","","16.1","","102.97","","","","-25","","NA"
"-77.29","60.05","PUVIRNITUQ A","7106223","2022-12-15 21:00","2022","12","15","21:00","-15.8","","-17.8","","85","","0.0","","10","","24","","16.1","","102.91","","","","-26","","NA"
"-77.29","60.05","PUVIRNITUQ A","7106223","2022-12-15 22:00","2022","12","15","22:00","-16.0","","-18.0","","85","","0.0","","10","","30","","16.1","","102.76","","","","-27","","NA"
"-77.29","60.05","PUVIRNITUQ A","7106223","2022-12-15 23:00","2022","12","15","23:00","-15.7","","-17.7","","85","","0.0","","10","","13","","16.1","","102.81","","","","-23","","NA"
"-77.29","60.05","PUVIRNITUQ A","7106223","2022-12-16 00:00","2022","12","16","00:00","-16.8","","-18.9","","84","","0.0","","8","","15","","16.1","","102.74","","","","-25","","NA"
"-77.29","60.05","PUVIRNITUQ A","7106223","2022-12-16 01:00","2022","12","16","01:00","-16.7","","-18.7","","85","","0.0","","8","","18","","16.1","","102.66","","","","-26","","NA"
"-77.29","60.05","PUVIRNITUQ A","7106223","2022-12-16 02:00","2022","12","16","02:00","-16.1","","-18.1","","85","","0.0","","8","","21","","16.1","","102.61","","","","-26","","NA"
"-77.29","60.05","PUVIRNITUQ A","7106223","2022-12-16 03:00","2022","12","16","03:00","-16.5","","-18.5","","85","","0.0","","9","","18","","16.1","","102.54","","","","-26","","NA"
"-77.29","60.05","PUVIRNITUQ A","7106223","2022-12-16 04:00","2022","12","16","04:00","-15.7","","-17.7","","85","","0.0","","9","","26","","16.1","","102.47","","","","-26","","NA"
"-77.29","60.05","PUVIRNITUQ A","7106223","2022-12-16 05:00","2022","12","16","05:00","-15.6","","-17.6","","85","","0.0","","7","","22","","16.1","","102.41","","","","-25","","NA"
"-77.29","60.05","PUVIRNITUQ A","7106223","2022-12-16 06:00","2022","12","16","06:00","-14.5","","-16.5","","85","","0.0","","8","","24","","16.1","","102.32","","","","-24","","NA"
"-77.29","60.05","PUVIRNITUQ A","7106223","2022-12-16 07:00","2022","12","16","07:00","-14.4","","-16.5","","84","","0.0","","7","","22","","16.1","","102.30","","","","-24","","NA"
"-77.29","60.05","PUVIRNITUQ A","7106223","2022-12-16 08:00","2022","12","16","08:00","-14.6","","-16.8","","84","","0.0","","8","","18","","16.1","","102.22","","","","-23","","NA"
"-77.29","60.05","PUVIRNITUQ A","7106223","2022-12-16 09:00","2022","12","16","09:00","-13.7","","-16.2","","82","","0.0","","9","","26","","16.1","","102.19","","","","-24","","NA"
"-77.29","60.05","PUVIRNITUQ A","7106223","2022-12-16 10:00","2022","12","16","10:00","-13.4","","-15.7","","83","","0.0","","8","","24","","16.1","","102.09","","","","-23","","NA"
"-77.29","60.05","PUVIRNITUQ A","7106223","2022-12-16 11:00","2022","12","16","11:00","-13.3","","-15.6","","83","","0.0","","10","","21","","16.1","","102.02","","","","-22","","NA"
"-77.29","60.05","PUVIRNITUQ A","7106223","2022-12-16 12:00","2022","12","16","12:00","-12.5","","-15.2","","81","","0.0","","10","","24","","16.1","","101.91","","","","-22","","NA"
"-77.29","60.05","PUVIRNITUQ A","7106223","2022-12-16 13:00","2022","12","16","13:00","-12.2","","-14.8","","81","","0.0","","10","","26","","16.1","","101.80","","","","-22","","NA"
"-77.29","60.05","PUVIRNITUQ A","7106223","2022-12-16 14:00","2022","12","16","14:00","-12.9","","-15.5","","81","","0.0","","9","","34","","16.1","","101.71","","","","-24","","NA"
"-77.29","60.05","PUVIRNITUQ A","7106223","2022-12-16 15:00","2022","12","16","15:00","-13.7","","-16.3","","81","","0.0","","10","","30","","16.1","","101.65","","","","-24","","NA"
"-77.29","60.05","PUVIRNITUQ A","7106223","2022-12-16 16:00","2022","12","16","16:00","-13.5","","-16.3","","80","","0.0","","11","","30","","16.1","","101.57","","","","-24","","NA"
"-77.29","60.05","PUVIRNITUQ A","7106223","2022-12-16 17:00","2022","12","16","17:00","-13.7","","-16.5","","80","","0.0","","11","","28","","16.1","","101.53","","","","-24","","NA"
"-77.29","60.05","PUVIRNITUQ A","7106223","2022-12-16 18:00","2022","12","16","18:00","-13.3","","-16.2","","79","","0.0","","12","","34","","16.1","","101.47","","","","-24","","NA"
"-77.29","60.05","PUVIRNITUQ A","7106223","2022-12-16 19:00","2022","12","16","19:00","-13.0","","-16.1","","78","","0.0","","13","","30","","16.1","","101.46","","","","-23","","NA"
"-77.29","60.05","PUVIRNITUQ A","7106223","2022-12-16 20:00","2022","12","16","20:00","-13.9","","-16.8","","79","","0.0","","12","","22","","16.1","","101.45","","","","-23","","NA"
"-77.29","60.05","PUVIRNITUQ A","7106223","2022-12-16 21:00","2022","12","16","21:00","-13.7","","-16.6","","79","","0.0","","13","","26","","16.1","","101.42","","","","-24","","NA"
"-77.29","60.05","PUVIRNITUQ A","7106223","2022-12-16 22:00","2022","12","16","22:00","-13.5","","-16.4","","79","","0.0","","13","","22","","16.1","","101.38","","","","-23","","NA"
"-77.29","60.05","PUVIRNITUQ A","7106223","2022-12-16 23:00","2022","12","16","23:00","-13.1","","-16.0","","79","","0.0","","13","","21","","16.1","","101.36","","","","-22","","NA"
"-77.29","60.05","PUVIRNITUQ A","7106223","2022-12-17 00:00","2022","12","17","00:00","-12.2","","-15.1","","79","","0.0","","13","","21","","16.1","","101.31","","","","-21","","NA"
"-77.29","60.05","PUVIRNITUQ A","7106223","2022-12-17 01:00","2022","12","17","01:00","-12.1","","-14.9","","80","","0.0","","13","","22","","16.1","","101.29","","","","-21","","NA"
"-77.29","60.05","PUVIRNITUQ A","7106223","2022-12-17 02:00","2022","12","17","02:00","-11.9","","-14.7","","80","","0.0","","13","","24","","16.1","","101.28","","","","-21","","NA"
"-77.29","60.05","PUVIRNITUQ A","7106223","2022-12-17 03:00","2022","12","17","03:00","-11.8","","-14.4","","81","","0.0","","13","","26","","16.1","","101.24","","","","-21","","NA"
"-77.29","60.05","PUVIRNITUQ A","7106223","2022-12-17 04:00","2022","12","17","04:00","-13.0","","-15.8","","80","","0.0","","13","","32","","16.1","","101.19","","","","-24","","NA"
"-77.29","60.05","PUVIRNITUQ A","7106223","2022-12-17 05:00","2022","12","17","05:00","-13.7","","-16.5","","80","","0.0","","13","","30","","16.1","","101.21","","","","-24","","NA"
"-77.29","60.05","PUVIRNITUQ A","7106223","2022-12-17 06:00","2022","12","17","06:00","-13.4","","-15.9","","82","","0.0","","14","","28","","16.1","","101.21","","","","-24","","NA"
"-77.29","60.05","PUVIRNITUQ A","7106223","2022-12-17 07:00","2022","12","17","07:00","-12.9","","-15.4","","82","","0.0","","13","","30","","16.1","","101.21","","","","-23","","NA"
"-77.29","60.05","PUVIRNITUQ A","7106223","2022-12-17 08:00","2022","12","17","08:00","-13.4","","-16.0","","81","","0.0","","13","","26","","16.1","","101.22","","","","-23","","NA"
"-77.29","60.05","PUVIRNITUQ A","7106223","2022-12-17 09:00","2022","12","17","09:00","-13.8","","-16.3","","82","","0.0","","13","","28","","16.1","","101.25","","","","-24","","NA"
"-77.29","60.05","PUVIRNITUQ A","7106223","2022-12-17 10:00","2022","12","17","10:00","-14.1","","-16.7","","81","","0.0","","13","","24","","16.1","","101.27","","","","-24","","NA"
"-77.29","60.05","PUVIRNITUQ A","7106223","2022-12-17 11:00","2022","12","17","11:00","-14.3","","-16.8","","82","","0.0","","10","","24","","16.1","","101.26","","","","-24","","NA"
"-77.29","60.05","PUVIRNITUQ A","7106223","2022-12-17 12:00","2022","12","17","12:00","-13.9","","-16.5","","81","","0.0","","12","","28","","16.1","","101.21","","","","-24","","NA"
"-77.29","60.05","PUVIRNITUQ A","7106223","2022-12-17 13:00","2022","12","17","13:00","-14.7","","-17.3","","81","","0.0","","12","","22","","16.1","","101.20","","","","-24","","NA"
"-77.29","60.05","PUVIRNITUQ A","7106223","2022-12-17 14:00","2022","12","17","14:00","-15.1","","-17.5","","82","","0.0","","11","","17","","16.1","","101.20","","","","-24","","NA"
"-77.29","60.05","PUVIRNITUQ A","7106223","2022-12-17 15:00","2022","12","17","15:00","-15.9","","-18.3","","82","","0.0","","10","","17","","16.1","","101.24","","","","-25","","NA"
"-77.29","60.05","PUVIRNITUQ A","7106223","2022-12-17 16:00","2022","12","17","16:00","-16.2","","-18.6","","82","","0.0","","8","","15","","16.1","","101.26","","","","-24","","NA"
"-77.29","60.05","PUVIRNITUQ A","7106223","2022-12-17 17:00","2022","12","17","17:00","-15.3","","-17.6","","83","","0.0","","9","","21","","16.1","","101.27","","","","-25","","NA"
"-77.29","60.05","PUVIRNITUQ A","7106223","2022-12-17 18:00","2022","12","17","18:00","-14.5","","-16.8","","83","","0.0","","10","","17","","16.1","","101.26","","","","-23","","NA"
"-77.29","60.05","PUVIRNITUQ A","7106223","2022-12-17 19:00","2022","12","17","19:00","-14.0","","-16.4","","82","","0.0","","11","","13","","16.1","","101.28","","","","-21","","NA"
"-77.29","60.05","PUVIRNITUQ A","7106223","2022-12-17 20:00","2022","12","17","20:00","-14.8","","-17.1","","83","","0.0","","9","","15","","16.1","","101.27","","","","-23","","NA"
"-77.29","60.05","PUVIRNITUQ A","7106223","2022-12-17 21:00","2022","12","17","21:00","-14.7","","-17.1","","82","","0.0","","8","","21","","16.1","","101.26","","","","-24","","NA"
"-77.29","60.05","PUVIRNITUQ A","7106223","2022-12-17 22:00","2022","12","17","22:00","-14.6","","-17.0","","82","","0.0","","8","","21","","16.1","","101.24","","","","-24","","NA"
"-77.29","60.05","PUVIRNITUQ A","7106223","2022-12-17 23:00","2022","12","17","23:00","-14.7","","-17.0","","83","","0.0","","8","","15","","16.1","","101.24","","","","-23","","NA"
"-77.29","60.05","PUVIRNITUQ A","7106223","2022-12-18 00:00","2022","12","18","00:00","-15.2","","-17.6","","82","","0.0","","8","","17","","16.1","","101.26","","","","-24","","NA"
"-77.29","60.05","PUVIRNITUQ A","7106223","2022-12-18 01:00","2022","12","18","01:00","-15.4","","-17.8","","82","","0.0","","9","","18","","16.1","","101.27","","","","-24","","NA"
"-77.29","60.05","PUVIRNITUQ A","7106223","2022-12-18 02:00","2022","12","18","02:00","-16.0","","-18.4","","82","","0.0","","8","","17","","16.1","","101.32","","","","-25","","NA"
"-77.29","60.05","PUVIRNITUQ A","7106223","2022-12-18 03:00","2022","12","18","03:00","-16.5","","-18.9","","82","","0.0","","8","","17","","16.1","","101.33","","","","-25","","NA"
"-77.29","60.05","PUVIRNITUQ A","7106223","2022-12-18 04:00","2022","12","18","04:00","-17.0","","-19.2","","83","","0.0","","9","","15","","16.1","","101.34","","","","-25","","NA"
"-77.29","60.05","PUVIRNITUQ A","7106223","2022-12-18 05:00","2022","12","18","05:00","-17.3","","-19.5","","83","","0.0","","8","","18","","16.1","","101.36","","","","-27","","NA"
"-77.29","60.05","PUVIRNITUQ A","7106223","2022-12-18 06:00","2022","12","18","06:00","-17.4","","-19.6","","83","","0.0","","8","","17","","16.1","","101.36","","","","-26","","NA"
"-77.29","60.05","PUVIRNITUQ A","7106223","2022-12-18 07:00","2022","12","18","07:00","-17.4","","-19.8","","82","","0.0","","7","","13","","16.1","","101.41","","","","-25","","NA"
"-77.29","60.05","PUVIRNITUQ A","7106223","2022-12-18 08:00","2022","12","18","08:00","-17.4","","-19.9","","81","","0.0","","5","","15","","16.1","","101.45","","","","-26","","NA"
"-77.29","60.05","PUVIRNITUQ A","7106223","2022-12-18 09:00","2022","12","18","09:00","-17.3","","-19.5","","83","","0.0","","7","","15","","16.1","","101.47","","","","-26","","NA"
"-77.29","60.05","PUVIRNITUQ A","7106223","2022-12-18 10:00","2022","12","18","10:00","-16.8","","-19.2","","82","","0.0","","6","","18","","16.1","","101.53","","","","-26","","NA"
"-77.29","60.05","PUVIRNITUQ A","7106223","2022-12-18 11:00","2022","12","18","11:00","-16.7","","-19.1","","82","","0.0","","7","","22","","16.1","","101.53","","","","-27","","NA"
"-77.29","60.05","PUVIRNITUQ A","7106223","2022-12-18 12:00","2022","12","18","12:00","-15.8","","-18.2","","82","","0.0","","7","","22","","16.1","","101.53","","","","-26","","NA"
"-77.29","60.05","PUVIRNITUQ A","7106223","2022-12-18 13:00","2022","12","18","13:00","-15.2","","-17.8","","81","","0.0","","6","","18","","16.1","","101.54","","","","-24","","NA"
"-77.29","60.05","PUVIRNITUQ A","7106223","2022-12-18 14:00","2022","12","18","14:00","-14.7","","-17.3","","81","","0.0","","5","","28","","16.1","","101.58","","","","-25","","NA"
"-77.29","60.05","PUVIRNITUQ A","7106223","2022-12-18 15:00","2022","12","18","15:00","-14.6","","-17.2","","81","","0.0","","5","","24","","16.1","","101.63","","","","-24","","NA"
"-77.29","60.05","PUVIRNITUQ A","7106223","2022-12-18 16:00","2022","12","18","16:00","-15.6","","-18.0","","82","","0.0","","3","","18","","16.1","","101.71","","","","-24","","NA"
"-77.29","60.05","PUVIRNITUQ A","7106223","2022-12-18 17:00","2022","12","18","17:00","-16.0","","-18.6","","81","","0.0","","2","","21","","16.1","","101.78","","","","-26","","NA"
"-77.29","60.05","PUVIRNITUQ A","7106223","2022-12-18 18:00","2022","12","18","18:00","-16.0","","-18.4","","82","","0.0","","3","","21","","16.1","","101.84","","","","-26","","NA"
"-77.29","60.05","PUVIRNITUQ A","7106223","2022-12-18 19:00","2022","12","18","19:00","-15.6","","-18.1","","82","","0.0","","3","","24","","16.1","","101.87","","","","-26","","NA"
"-77.29","60.05","PUVIRNITUQ A","7106223","2022-12-18 20:00","2022","12","18","20:00","-15.1","","-17.5","","82","","0.0","","3","","24","","16.1","","101.91","","","","-25","","NA"
"-77.29","60.05","PUVIRNITUQ A","7106223","2022-12-18 21:00","2022","12","18","21:00","-14.1","","-16.5","","82","","0.0","","3","","28","","16.1","","101.92","","","","-25","","NA"
"-77.29","60.05","PUVIRNITUQ A","7106223","2022-12-18 22:00","2022","12","18","22:00","-14.1","","-16.5","","82","","0.0","","2","","22","","16.1","","101.94","","","","-23","","NA"
"-77.29","60.05","PUVIRNITUQ A","7106223","2022-12-18 23:00","2022","12","18","23:00","-13.7","","-16.2","","82","","0.0","","3","","26","","16.1","","101.94","","","","-24","","NA"
"-77.29","60.05","PUVIRNITUQ A","7106223","2022-12-19 00:00","2022","12","19","00:00","-13.6","","-15.6","","85","","0.0","","3","","22","","16.1","","101.99","","","","-23","","NA"
"-77.29","60.05","PUVIRNITUQ A","7106223","2022-12-19 01:00","2022","12","19","01:00","-13.1","","-15.0","","86","","0.0","","2","","22","","16.1","","101.99","","","","-22","","NA"
"-77.29","60.05","PUVIRNITUQ A","7106223","2022-12-19 02:00","2022","12","19","02:00","-11.6","","-13.4","","87","","0.0","","1","","18","","16.1","","102.03","","","","-19","","NA"
"-77.29","60.05","PUVIRNITUQ A","7106223","2022-12-19 03:00","2022","12","19","03:00","-10.2","","-11.3","","92","","0.0","","3","","24","","16.1","","102.08","","","","-19","","NA"
"-77.29","60.05","PUVIRNITUQ A","7106223","2022-12-19 04:00","2022","12","19","04:00","-9.3","","-10.5","","91","","0.0","","2","","18","","16.1","","102.13","","","","-17","","Snow"
"-77.29","60.05","PUVIRNITUQ A","7106223","2022-12-19 05:00","2022","12","19","05:00","-8.9","","-10.0","","92","","0.0","","4","","15","","16.1","","102.17","","","","-15","","NA"
"-77.29","60.05","PUVIRNITUQ A","7106223","2022-12-19 06:00","2022","12","19","06:00","-8.5","","-9.6","","92","","0.0","","3","","17","","16.1","","102.20","","","","-15","","Snow"
"-77.29","60.05","PUVIRNITUQ A","7106223","2022-12-19 07:00","2022","12","19","07:00","-8.9","","-10.1","","91","","0.0","","4","","17","","16.1","","102.24","","","","-16","","NA"
"-77.29","60.05","PUVIRNITUQ A","7106223","2022-12-19 08:00","2022","12","19","08:00","-8.8","","-9.9","","92","","0.0","","1","","17","","16.1","","102.27","","","","-16","","NA"
"-77.29","60.05","PUVIRNITUQ A","7106223","2022-12-19 09:00","2022","12","19","09:00","-8.4","","-9.5","","92","","0.0","","1","","15","","16.1","","102.29","","","","-15","","Snow"
"-77.29","60.05","PUVIRNITUQ A","7106223","2022-12-19 10:00","2022","12","19","10:00","-8.1","","-9.2","","92","","0.0","","2","","15","","16.1","","102.33","","","","-14","","Snow"
"-77.29","60.05","PUVIRNITUQ A","7106223","2022-12-19 11:00","2022","12","19","11:00","-7.4","","-8.3","","93","","0.0","","2","","13","","16.1","","102.32","","","","-13","","NA"
"-77.29","60.05","PUVIRNITUQ A","7106223","2022-12-19 12:00","2022","12","19","12:00","-7.5","","-8.4","","93","","0.0","","4","","17","","16.1","","102.34","","","","-14","","Snow"
"-77.29","60.05","PUVIRNITUQ A","7106223","2022-12-19 13:00","2022","12","19","13:00","-7.0","","-8.0","","93","","0.0","","4","","17","","16.1","","102.36","","","","-13","","NA"
"-77.29","60.05","PUVIRNITUQ A","7106223","2022-12-19 14:00","2022","12","19","14:00","-7.5","","-8.4","","93","","0.0","","4","","15","","16.1","","102.40","","","","-14","","NA"
"-77.29","60.05","PUVIRNITUQ A","7106223","2022-12-19 15:00","2022","12","19","15:00","-8.0","","-9.1","","92","","0.0","","3","","11","","4.8","","102.44","","","","-13","","Fog"
"-77.29","60.05","PUVIRNITUQ A","7106223","2022-12-19 16:00","2022","12","19","16:00","-7.5","","-8.4","","93","","0.0","","2","","11","","16.1","","102.47","","","","-13","","Snow"
"-77.29","60.05","PUVIRNITUQ A","7106223","2022-12-19 17:00","2022","12","19","17:00","-6.9","","-7.9","","93","","0.0","","4","","13","","16.1","","102.48","","","","-12","","Snow"
"-77.29","60.05","PUVIRNITUQ A","7106223","2022-12-19 18:00","2022","12","19","18:00","-6.0","","-6.8","","94","","0.0","","2","","13","","4.8","","102.50","","","","-11","","Freezing Rain,Fog"
"-77.29","60.05","PUVIRNITUQ A","7106223","2022-12-19 19:00","2022","12","19","19:00","-5.3","","-6.0","","95","","0.0","","2","","17","","6.4","","102.47","","","","-11","","Freezing Rain,Fog"
"-77.29","60.05","PUVIRNITUQ A","7106223","2022-12-19 20:00","2022","12","19","20:00","-4.9","","-5.6","","95","","0.0","","5","","17","","16.1","","102.46","","","","-11","","Snow"
"-77.29","60.05","PUVIRNITUQ A","7106223","2022-12-19 21:00","2022","12","19","21:00","-5.3","","-6.0","","95","","0.0","","7","","13","","12.9","","102.43","","","","-10","","NA"
"-77.29","60.05","PUVIRNITUQ A","7106223","2022-12-19 22:00","2022","12","19","22:00","-5.6","","-6.3","","95","","0.0","","8","","11","","2.0","","102.44","","","","-10","","Fog"
"-77.29","60.05","PUVIRNITUQ A","7106223","2022-12-19 23:00","2022","12","19","23:00","-5.2","","-5.9","","95","","0.0","","7","","15","","16.1","","102.44","","","","-11","","NA"
"-77.29","60.05","PUVIRNITUQ A","7106223","2022-12-20 00:00","2022","12","20","00:00","-5.2","","-5.9","","95","","0.0","","9","","11","","16.1","","102.45","","","","-10","","NA"
"-77.29","60.05","PUVIRNITUQ A","7106223","2022-12-20 01:00","2022","12","20","01:00","-5.6","","-6.3","","95","","0.0","","10","","9","","16.1","","102.45","","","","-10","","NA"
"-77.29","60.05","PUVIRNITUQ A","7106223","2022-12-20 02:00","2022","12","20","02:00","-5.9","","-6.7","","94","","0.0","","10","","21","","16.1","","102.46","","","","-13","","NA"
"-77.29","60.05","PUVIRNITUQ A","7106223","2022-12-20 03:00","2022","12","20","03:00","-5.4","","-6.1","","95","","0.0","","10","","18","","16.1","","102.47","","","","-12","","NA"
"-77.29","60.05","PUVIRNITUQ A","7106223","2022-12-20 04:00","2022","12","20","04:00","-5.4","","-6.1","","95","","0.0","","10","","22","","16.1","","102.46","","","","-12","","NA"
"-77.29","60.05","PUVIRNITUQ A","7106223","2022-12-20 05:00","2022","12","20","05:00","-5.4","","-6.1","","95","","0.0","","10","","15","","16.1","","102.47","","","","-11","","NA"
"-77.29","60.05","PUVIRNITUQ A","7106223","2022-12-20 06:00","2022","12","20","06:00","-5.1","","-5.8","","95","","0.0","","8","","15","","1.2","","102.47","","","","-11","","Fog"
"-77.29","60.05","PUVIRNITUQ A","7106223","2022-12-20 07:00","2022","12","20","07:00","-5.1","","-5.8","","95","","0.0","","9","","24","","6.4","","102.47","","","","-12","","Snow"
"-77.29","60.05","PUVIRNITUQ A","7106223","2022-12-20 08:00","2022","12","20","08:00","-6.2","","-7.0","","94","","0.0","","7","","30","","16.1","","102.45","","","","-15","","NA"
"-77.29","60.05","PUVIRNITUQ A","7106223","2022-12-20 09:00","2022","12","20","09:00","-6.7","","-7.7","","93","","0.0","","8","","22","","16.1","","102.44","","","","-14","","Snow"
"-77.29","60.05","PUVIRNITUQ A","7106223","2022-12-20 10:00","2022","12","20","10:00","-6.4","","-7.2","","94","","0.0","","7","","21","","16.1","","102.42","","","","-13","","Snow"
"-77.29","60.05","PUVIRNITUQ A","7106223","2022-12-20 11:00","2022","12","20","11:00","-6.4","","-7.2","","94","","0.0","","8","","22","","16.1","","102.39","","","","-14","","Snow"
"-77.29","60.05","PUVIRNITUQ A","7106223","2022-12-20 12:00","2022","12","20","12:00","-6.4","","-7.2","","94","","0.0","","9","","24","","16.1","","102.36","","","","-14","","NA"
"-77.29","60.05","PUVIRNITUQ A","7106223","2022-12-20 13:00","2022","12","20","13:00","-6.5","","-7.3","","94","","0.0","","8","","22","","16.1","","102.30","","","","-14","","Snow"
"-77.29","60.05","PUVIRNITUQ A","7106223","2022-12-20 14:00","2022","12","20","14:00","-6.9","","-7.9","","93","","0.0","","9","","22","","16.1","","102.27","","","","-14","","Snow"
"-77.29","60.05","PUVIRNITUQ A","7106223","2022-12-20 15:00","2022","12","20","15:00","-7.5","","-8.4","","93","","0.0","","10","","28","","16.1","","102.25","","","","-16","","Snow"
"-77.29","60.05","PUVIRNITUQ A","7106223","2022-12-20 16:00","2022","12","20","16:00","-7.9","","-9.0","","92","","0.0","","11","","24","","16.1","","102.25","","","","-16","","Snow"
"-77.29","60.05","PUVIRNITUQ A","7106223","2022-12-20 17:00","2022","12","20","17:00","-8.1","","-9.2","","92","","0.0","","11","","24","","16.1","","102.23","","","","-16","","Snow"
"-77.29","60.05","PUVIRNITUQ A","7106223","2022-12-20 18:00","2022","12","20","18:00","-8.3","","-9.4","","92","","0.0","","13","","21","","16.1","","102.24","","","","-16","","Snow"
"-77.29","60.05","PUVIRNITUQ A","7106223","2022-12-20 19:00","2022","12","20","19:00","-8.7","","-9.8","","92","","0.0","","12","","21","","16.1","","102.22","","","","-16","","NA"
"-77.29","60.05","PUVIRNITUQ A","7106223","2022-12-20 20:00","2022","12","20","20:00","-8.8","","-10.0","","91","","0.0","","12","","22","","16.1","","102.20","","","","-17","","NA"
"-77.29","60.05","PUVIRNITUQ A","7106223","2022-12-20 21:00","2022","12","20","21:00","-8.8","","-10.0","","91","","0.0","","12","","18","","16.1","","102.17","","","","-16","","NA"
"-77.29","60.05","PUVIRNITUQ A","7106223","2022-12-20 22:00","2022","12","20","22:00","-8.7","","-9.9","","91","","0.0","","13","","21","","16.1","","102.16","","","","-16","","Snow"
"-77.29","60.05","PUVIRNITUQ A","7106223","2022-12-20 23:00","2022","12","20","23:00","-8.5","","-9.9","","90","","0.0","","13","","18","","16.1","","102.13","","","","-16","","Snow"
"-77.29","60.05","PUVIRNITUQ A","7106223","2022-12-21 00:00","2022","12","21","00:00","-8.3","","-9.8","","89","","0.0","","11","","15","","16.1","","102.13","","","","-15","","NA"
"-77.29","60.05","PUVIRNITUQ A","7106223","2022-12-21 01:00","2022","12","21","01:00","-8.4","","-9.8","","90","","0.0","","10","","17","","14.5","","102.11","","","","-15","","Snow"
"-77.29","60.05","PUVIRNITUQ A","7106223","2022-12-21 02:00","2022","12","21","02:00","-8.9","","-10.1","","91","","0.0","","10","","17","","16.1","","102.10","","","","-16","","Snow"
"-77.29","60.05","PUVIRNITUQ A","7106223","2022-12-21 03:00","2022","12","21","03:00","-8.9","","-10.1","","91","","0.0","","9","","13","","16.1","","102.08","","","","-15","","Snow"
"-77.29","60.05","PUVIRNITUQ A","7106223","2022-12-21 04:00","2022","12","21","04:00","-8.9","","-10.1","","91","","0.0","","8","","15","","16.1","","102.06","","","","-15","","Snow"
"-77.29","60.05","PUVIRNITUQ A","7106223","2022-12-21 05:00","2022","12","21","05:00","-8.3","","-9.5","","91","","0.0","","8","","15","","16.1","","102.04","","","","-15","","Snow"
"-77.29","60.05","PUVIRNITUQ A","7106223","2022-12-21 06:00","2022","12","21","06:00","-7.7","","-8.5","","94","","0.0","","8","","9","","16.1","","102.01","","","","-12","","NA"
"-77.29","60.05","PUVIRNITUQ A","7106223","2022-12-21 07:00","2022","12","21","07:00","-7.8","","-8.9","","92","","0.0","","8","","22","","16.1","","101.98","","","","-15","","Snow"
"-77.29","60.05","PUVIRNITUQ A","7106223","2022-12-21 08:00","2022","12","21","08:00","-8.0","","-8.9","","93","","0.0","","8","","22","","4.0","","101.94","","","","-16","","Fog"
"-77.29","60.05","PUVIRNITUQ A","7106223","2022-12-21 09:00","2022","12","21","09:00","-9.3","","-10.5","","91","","0.0","","8","","24","","16.1","","101.89","","","","-18","","NA"
"-77.29","60.05","PUVIRNITUQ A","7106223","2022-12-21 10:00","2022","12","21","10:00","-9.8","","-11.1","","90","","0.0","","10","","24","","6.4","","101.88","","","","-18","","Snow"
"-77.29","60.05","PUVIRNITUQ A","7106223","2022-12-21 11:00","2022","12","21","11:00","-9.6","","-11.0","","90","","0.0","","9","","28","","16.1","","101.84","","","","-19","","NA"
"-77.29","60.05","PUVIRNITUQ A","7106223","2022-12-21 12:00","2022","12","21","12:00","-9.8","","-11.0","","91","","0.0","","9","","26","","12.9","","101.78","","","","-19","","Snow"
"-77.29","60.05","PUVIRNITUQ A","7106223","2022-12-21 13:00","2022","12","21","13:00","-9.9","","-11.5","","88","","0.0","","8","","30","","16.1","","101.77","","","","-19","","NA"
"-77.29","60.05","PUVIRNITUQ A","7106223","2022-12-21 14:00","2022","12","21","14:00","-9.8","","-11.4","","88","","0.0","","8","","30","","16.1","","101.74","","","","-19","","NA"
"-77.29","60.05","PUVIRNITUQ A","7106223","2022-12-21 15:00","2022","12","21","15:00","-9.0","","-10.6","","88","","0.0","","8","","26","","16.1","","101.74","","","","-18","","Snow"
"-77.29","60.05","PUVIRNITUQ A","7106223","2022-12-21 16:00","2022","12","21","16:00","-9.1","","-10.6","","89","","0.0","","8","","26","","16.1","","101.74","","","","-18","","Snow"
"-77.29","60.05","PUVIRNITUQ A","7106223","2022-12-21 17:00","2022","12","21","17:00","-10.0","","-11.5","","89","","0.0","","7","","24","","16.1","","101.74","","","","-19","","NA"
"-77.29","60.05","PUVIRNITUQ A","7106223","2022-12-21 18:00","2022","12","21","18:00","-9.0","","-10.8","","87","","0.0","","7","","22","","16.1","","101.75","","","","-17","","Snow"
"-77.29","60.05","PUVIRNITUQ A","7106223","2022-12-21 19:00","2022","12","21","19:00","-9.0","","-10.8","","87","","0.0","","8","","21","","16.1","","101.74","","","","-17","","Snow"
"-77.29","60.05","PUVIRNITUQ A","7106223","2022-12-21 20:00","2022","12","21","20:00","-9.2","","-10.8","","88","","0.0","","8","","22","","16.1","","101.72","","","","-17","","Snow"
"-77.29","60.05","PUVIRNITUQ A","7106223","2022-12-21 21:00","2022","12","21","21:00","-8.2","","-10.0","","87","","0.0","","9","","24","","16.1","","101.72","","","","-16","","Snow"
"-77.29","60.05","PUVIRNITUQ A","7106223","2022-12-21 22:00","2022","12","21","22:00","-9.1","","-10.9","","87","","0.0","","8","","22","","16.1","","101.72","","","","-17","","NA"
"-77.29","60.05","PUVIRNITUQ A","7106223","2022-12-21 23:00","2022","12","21","23:00","-9.2","","-11.1","","86","","0.0","","8","","24","","16.1","","101.73","","","","-18","","NA"
"-77.29","60.05","PUVIRNITUQ A","7106223","2022-12-22 00:00","2022","12","22","00:00","-9.9","","-11.8","","86","","0.0","","8","","22","","16.1","","101.74","","","","-18","","NA"
"-77.29","60.05","PUVIRNITUQ A","7106223","2022-12-22 01:00","2022","12","22","01:00","-8.8","","-10.7","","86","","0.0","","10","","28","","16.1","","101.74","","","","-18","","Snow"
"-77.29","60.05","PUVIRNITUQ A","7106223","2022-12-22 02:00","2022","12","22","02:00","-8.5","","-10.3","","87","","0.0","","10","","30","","16.1","","101.77","","","","-18","","Snow"
"-77.29","60.05","PUVIRNITUQ A","7106223","2022-12-22 03:00","2022","12","22","03:00","-8.4","","-10.2","","87","","0.0","","10","","26","","16.1","","101.81","","","","-17","","NA"
"-77.29","60.05","PUVIRNITUQ A","7106223","2022-12-22 04:00","2022","12","22","04:00","-8.5","","-10.3","","87","","0.0","","10","","22","","16.1","","101.84","","","","-16","","Snow"
"-77.29","60.05","PUVIRNITUQ A","7106223","2022-12-22 05:00","2022","12","22","05:00","-8.5","","-10.3","","87","","0.0","","11","","24","","16.1","","101.87","","","","-17","","Snow"
"-77.29","60.05","PUVIRNITUQ A","7106223","2022-12-22 06:00","2022","12","22","06:00","-8.6","","-10.5","","86","","0.0","","12","","22","","16.1","","101.92","","","","-16","","Snow"
"-77.29","60.05","PUVIRNITUQ A","7106223","2022-12-22 07:00","2022","12","22","07:00","-8.8","","-10.7","","86","","0.0","","12","","24","","16.1","","101.97","","","","-17","","NA"
"-77.29","60.05","PUVIRNITUQ A","7106223","2022-12-22 08:00","2022","12","22","08:00","-9.0","","-10.8","","87","","0.0","","11","","22","","16.1","","102.01","","","","-17","","Snow"
"-77.29","60.05","PUVIRNITUQ A","7106223","2022-12-22 09:00","2022","12","22","09:00","-8.9","","-10.7","","87","","0.0","","12","","22","","16.1","","102.05","","","","-17","","NA"
"-77.29","60.05","PUVIRNITUQ A","7106223","2022-12-22 10:00","2022","12","22","10:00","-9.0","","-10.6","","88","","0.0","","12","","22","","16.1","","102.11","","","","-17","","Snow"
"-77.29","60.05","PUVIRNITUQ A","7106223","2022-12-22 11:00","2022","12","22","11:00","-8.5","","-10.1","","88","","0.0","","13","","24","","11.3","","102.13","","","","-17","","Snow"
"-77.29","60.05","PUVIRNITUQ A","7106223","2022-12-22 12:00","2022","12","22","12:00","-8.8","","-10.6","","87","","0.0","","14","","26","","9.7","","102.17","","","","-17","","Snow"
"-77.29","60.05","PUVIRNITUQ A","7106223","2022-12-22 13:00","2022","12","22","13:00","-10.9","","-12.7","","87","","0.0","","13","","21","","16.1","","102.21","","","","-19","","NA"
"-77.29","60.05","PUVIRNITUQ A","7106223","2022-12-22 14:00","2022","12","22","14:00","-10.1","","-11.7","","88","","0.0","","14","","24","","16.1","","102.24","","","","-19","","NA"
"-77.29","60.05","PUVIRNITUQ A","7106223","2022-12-22 15:00","2022","12","22","15:00","-8.7","","-10.1","","90","","0.0","","17","","26","","4.8","","102.30","","","","-17","","Snow"
"-77.29","60.05","PUVIRNITUQ A","7106223","2022-12-22 16:00","2022","12","22","16:00","-8.6","","-9.8","","91","","0.0","","19","","39","","1.2","","102.34","","","","-19","","Snow"
"-77.29","60.05","PUVIRNITUQ A","7106223","2022-12-22 17:00","2022","12","22","17:00","-9.0","","-10.5","","89","","0.0","","18","","41","","2.4","","102.44","","","","-20","","Snow"
"-77.29","60.05","PUVIRNITUQ A","7106223","2022-12-22 18:00","2022","12","22","18:00","-9.1","","-10.7","","88","","0.0","","19","","24","","8.1","","102.57","","","","-17","","Snow"
"-77.29","60.05","PUVIRNITUQ A","7106223","2022-12-22 19:00","2022","12","22","19:00","-10.8","","-13.8","","79","","0.0","","18","","26","","16.1","","102.66","","","","-20","","NA"
"-77.29","60.05","PUVIRNITUQ A","7106223","2022-12-22 20:00","2022","12","22","20:00","-13.0","","-15.2","","84","","0.0","","16","","26","","16.1","","102.73","","","","-23","","NA"
"-77.29","60.05","PUVIRNITUQ A","7106223","2022-12-22 21:00","2022","12","22","21:00","-13.5","","-15.2","","87","","0.0","","16","","22","","16.1","","102.79","","","","-23","","Snow"
"-77.29","60.05","PUVIRNITUQ A","7106223","2022-12-22 22:00","2022","12","22","22:00","-11.0","","-13.2","","84","","0.0","","17","","24","","12.9","","102.83","","","","-20","","Snow"
"-77.29","60.05","PUVIRNITUQ A","7106223","2022-12-22 23:00","2022","12","22","23:00","-11.5","","-13.8","","83","","0.0","","18","","26","","16.1","","102.90","","","","-21","","NA"
"-77.29","60.05","PUVIRNITUQ A","7106223","2022-12-23 00:00","2022","12","23","00:00","-13.3","","-15.8","","82","","0.0","","17","","30","","16.1","","102.95","","","","-24","","NA"
"-77.29","60.05","PUVIRNITUQ A","7106223","2022-12-23 01:00","2022","12","23","01:00","-16.4","","-18.7","","83","","0.0","","14","","15","","16.1","","103.02","","","","-25","","NA"
"-77.29","60.05","PUVIRNITUQ A","7106223","2022-12-23 02:00","2022","12","23","02:00","-17.3","","-19.8","","81","","0.0","","14","","18","","16.1","","103.07","","","","-27","","NA"
"-77.29","60.05","PUVIRNITUQ A","7106223","2022-12-23 03:00","2022","12","23","03:00","-18.6","","-21.3","","80","","0.0","","12","","13","","16.1","","103.11","","","","-27","","NA"
"-77.29","60.05","PUVIRNITUQ A","7106223","2022-12-23 04:00","2022","12","23","04:00","-18.8","","-21.4","","80","","0.0","","15","","11","","16.1","","103.16","","","","-26","","NA"
"-77.29","60.05","PUVIRNITUQ A","7106223","2022-12-23 05:00","2022","12","23","05:00","-19.7","","-22.3","","80","","0.0","","12","","26","","16.1","","103.12","","","","-31","","NA"
"-77.29","60.05","PUVIRNITUQ A","7106223","2022-12-23 06:00","2022","12","23","06:00","-21.0","","-23.5","","81","","0.0","","9","","18","","16.1","","103.17","","","","-31","","NA"
"-77.29","60.05","PUVIRNITUQ A","7106223","2022-12-23 07:00","2022","12","23","07:00","-21.9","","-24.3","","81","","0.0","","10","","18","","16.1","","103.19","","","","-32","","NA"
"-77.29","60.05","PUVIRNITUQ A","7106223","2022-12-23 08:00","2022","12","23","08:00","-21.9","","-24.2","","82","","0.0","","9","","18","","16.1","","103.19","","","","-32","","NA"
"-77.29","60.05","PUVIRNITUQ A","7106223","2022-12-23 09:00","2022","12","23","09:00","-22.6","","-25.2","","80","","0.0","","8","","18","","16.1","","103.20","","","","-33","","Snow"
"-77.29","60.05","PUVIRNITUQ A","7106223","2022-12-23 10:00","2022","12","23","10:00","-22.4","","-25.0","","80","","0.0","","7","","18","","16.1","","103.14","","","","-33","","NA"
"-77.29","60.05","PUVIRNITUQ A","7106223","2022-12-23 11:00","2022","12","23","11:00","-21.3","","-23.9","","80","","0.0","","7","","24","","16.1","","103.13","","","","-33","","NA"
"-77.29","60.05","PUVIRNITUQ A","7106223","2022-12-23 12:00","2022","12","23","12:00","-20.7","","-23.5","","79","","0.0","","7","","26","","16.1","","103.12","","","","-33","","NA"
"-77.29","60.05","PUVIRNITUQ A","7106223","2022-12-23 13:00","2022","12","23","13:00","-20.8","","-23.7","","78","","0.0","","7","","24","","16.1","","103.11","","","","-32","","NA"
"-77.29","60.05","PUVIRNITUQ A","7106223","2022-12-23 14:00","2022","12","23","14:00","-19.9","","-22.7","","79","","0.0","","6","","32","","16.1","","103.01","","","","-33","","NA"
"-77.29","60.05","PUVIRNITUQ A","7106223","2022-12-23 15:00","2022","12","23","15:00","-19.7","","-22.3","","80","","0.0","","7","","34","","16.1","","102.95","","","","-33","","NA"
"-77.29","60.05","PUVIRNITUQ A","7106223","2022-12-23 16:00","2022","12","23","16:00","-19.2","","-21.8","","80","","0.0","","7","","30","","16.1","","102.98","","","","-32","","NA"
"-77.29","60.05","PUVIRNITUQ A","7106223","2022-12-23 17:00","2022","12","23","17:00","-17.9","","-20.3","","82","","0.0","","8","","34","","8.1","","102.93","","","","-30","","Fog"
"-77.29","60.05","PUVIRNITUQ A","7106223","2022-12-23 18:00","2022","12","23","18:00","-17.6","","-19.8","","83","","0.0","","7","","37","","4.0","","102.73","","","","-31","","Fog"
"-77.29","60.05","PUVIRNITUQ A","7106223","2022-12-23 19:00","2022","12","23","19:00","-18.0","","-20.2","","83","","0.0","","7","","37","","4.8","","102.62","","","","-31","","Snow"
"-77.29","60.05","PUVIRNITUQ A","7106223","2022-12-23 20:00","2022","12","23","20:00","-17.8","","-20.3","","81","","0.0","","8","","28","","16.1","","102.64","","","","-29","","NA"
"-77.29","60.05","PUVIRNITUQ A","7106223","2022-12-23 21:00","2022","12","23","21:00","-16.9","","-19.4","","81","","0.0","","6","","32","","16.1","","102.54","","","","-29","","NA"
"-77.29","60.05","PUVIRNITUQ A","7106223","2022-12-23 22:00","2022","12","23","22:00","-16.6","","-19.1","","81","","0.0","","7","","37","","16.1","","102.47","","","","-29","","NA"
"-77.29","60.05","PUVIRNITUQ A","7106223","2022-12-23 23:00","2022","12","23","23:00","-17.4","","-20.1","","80","","0.0","","5","","30","","16.1","","102.40","","","","-29","","NA"
"-77.29","60.05","PUVIRNITUQ A","7106223","2022-12-24 00:00","2022","12","24","00:00","-17.1","","-19.6","","81","","0.0","","6","","32","","16.1","","102.32","","","","-29","","NA"
"-77.29","60.05","PUVIRNITUQ A","7106223","2022-12-24 01:00","2022","12","24","01:00","-16.5","","-19.2","","80","","0.0","","6","","32","","16.1","","102.29","","","","-28","","NA"
"-77.29","60.05","PUVIRNITUQ A","7106223","2022-12-24 02:00","2022","12","24","02:00","-16.5","","-19.2","","80","","0.0","","6","","32","","16.1","","102.24","","","","-28","","NA"
"-77.29","60.05","PUVIRNITUQ A","7106223","2022-12-24 03:00","2022","12","24","03:00","-16.0","","-18.9","","79","","0.0","","5","","37","","16.1","","102.09","","","","-28","","NA"
"-77.29","60.05","PUVIRNITUQ A","7106223","2022-12-24 04:00","2022","12","24","04:00","-16.3","","-19.0","","80","","0.0","","4","","34","","16.1","","101.93","","","","-28","","NA"
"-77.29","60.05","PUVIRNITUQ A","7106223","2022-12-24 05:00","2022","12","24","05:00","-15.3","","-18.0","","80","","0.0","","6","","35","","16.1","","101.84","","","","-27","","NA"
"-77.29","60.05","PUVIRNITUQ A","7106223","2022-12-24 06:00","2022","12","24","06:00","-15.1","","-17.7","","81","","0.0","","6","","48","","9.7","","101.77","","","","-29","","Haze"
"-77.29","60.05","PUVIRNITUQ A","7106223","2022-12-24 07:00","2022","12","24","07:00","-14.8","","-17.4","","81","","0.0","","6","","48","","8.1","","101.66","","","","-28","","Fog"
"-77.29","60.05","PUVIRNITUQ A","7106223","2022-12-24 08:00","2022","12","24","08:00","-13.2","","-15.7","","82","","0.0","","5","","45","","16.1","","101.60","","","","-26","","NA"
"-77.29","60.05","PUVIRNITUQ A","7106223","2022-12-24 09:00","2022","12","24","09:00","-12.5","","-15.0","","82","","0.0","","6","","52","","16.1","","101.51","","","","-25","","NA"
"-77.29","60.05","PUVIRNITUQ A","7106223","2022-12-24 10:00","2022","12","24","10:00","-12.2","","-14.5","","83","","0.0","","5","","58","","1.2","","101.26","","","","-25","","Snow,Blowing Snow"
"-77.29","60.05","PUVIRNITUQ A","7106223","2022-12-24 11:00","2022","12","24","11:00","-12.1","","-14.6","","82","","0.0","","5","","55","","2.8","","101.11","","","","-25","","Snow,Blowing Snow"
"-77.29","60.05","PUVIRNITUQ A","7106223","2022-12-24 12:00","2022","12","24","12:00","-12.1","","-14.6","","82","","0.0","","5","","59","","2.4","","100.96","","","","-25","","Snow,Blowing Snow"
"-77.29","60.05","PUVIRNITUQ A","7106223","2022-12-24 13:00","2022","12","24","13:00","-12.0","","-14.3","","83","","0.0","","5","","61","","1.6","","100.77","","","","-25","","Snow,Blowing Snow"
"-77.29","60.05","PUVIRNITUQ A","7106223","2022-12-24 14:00","2022","12","24","14:00","-11.6","","-13.6","","85","","0.0","","5","","55","","2.4","","100.66","","","","-24","","Blowing Snow"
"-77.29","60.05","PUVIRNITUQ A","7106223","2022-12-24 15:00","2022","12","24","15:00","-10.6","","-12.4","","87","","0.0","","6","","65","","0.6","","100.49","","","","-24","","Moderate Snow,Blowing Snow"
"-77.29","60.05","PUVIRNITUQ A","7106223","2022-12-24 16:00","2022","12","24","16:00","-9.7","","-11.6","","86","","0.0","","6","","61","","2.0","","100.48","","","","-22","","Snow"
"-77.29","60.05","PUVIRNITUQ A","7106223","2022-12-24 17:00","2022","12","24","17:00","-9.6","","-11.4","","87","","0.0","","5","","61","","2.8","","100.36","","","","-22","","Snow"
"-77.29","60.05","PUVIRNITUQ A","7106223","2022-12-24 18:00","2022","12","24","18:00","-9.5","","-11.3","","87","","0.0","","5","","61","","1.6","","100.20","","","","-22","","Snow"
"-77.29","60.05","PUVIRNITUQ A","7106223","2022-12-24 19:00","2022","12","24","19:00","-9.9","","-11.7","","87","","0.0","","5","","65","","2.0","","100.11","","","","-23","","Snow"
"-77.29","60.05","PUVIRNITUQ A","7106223","2022-12-24 20:00","2022","12","24","20:00","-9.4","","-11.3","","86","","0.0","","5","","58","","2.4","","100.04","","","","-22","","Snow"
"-77.29","60.05","PUVIRNITUQ A","7106223","2022-12-24 21:00","2022","12","24","21:00","-8.5","","-10.3","","87","","0.0","","5","","71","","1.6","","99.86","","","","-21","","Snow"
"-77.29","60.05","PUVIRNITUQ A","7106223","2022-12-24 22:00","2022","12","24","22:00","-8.1","","-9.8","","88","","0.0","","6","","67","","1.2","","99.75","","","","-20","","Snow"
"-77.29","60.05","PUVIRNITUQ A","7106223","2022-12-24 23:00","2022","12","24","23:00","-7.5","","-9.2","","88","","0.0","","6","","68","","1.6","","99.59","","","","-20","","Snow"
"-77.29","60.05","PUVIRNITUQ A","7106223","2022-12-25 00:00","2022","12","25","00:00","-7.2","","-8.9","","88","","0.0","","6","","63","","2.0","","99.52","","","","-19","","Snow"
"-77.29","60.05","PUVIRNITUQ A","7106223","2022-12-25 01:00","2022","12","25","01:00","-6.8","","-8.6","","87","","0.0","","6","","67","","2.4","","99.45","","","","-19","","Snow"
"-77.29","60.05","PUVIRNITUQ A","7106223","2022-12-25 02:00","2022","12","25","02:00","-6.2","","-7.6","","90","","0.0","","6","","59","","1.2","","99.39","","","","-17","","Snow"
"-77.29","60.05","PUVIRNITUQ A","7106223","2022-12-25 03:00","2022","12","25","03:00","-5.8","","-7.0","","91","","0.0","","6","","67","","0.8","","99.32","","","","-17","","Moderate Snow"
"-77.29","60.05","PUVIRNITUQ A","7106223","2022-12-25 04:00","2022","12","25","04:00","-6.0","","-7.4","","90","","0.0","","6","","67","","1.2","","99.26","","","","-18","","Snow"
"-77.29","60.05","PUVIRNITUQ A","7106223","2022-12-25 05:00","2022","12","25","05:00","-6.0","","-7.4","","90","","0.0","","5","","55","","1.2","","99.24","","","","-17","","Snow"
"-77.29","60.05","PUVIRNITUQ A","7106223","2022-12-25 06:00","2022","12","25","06:00","-6.1","","-7.5","","90","","0.0","","5","","58","","2.0","","99.19","","","","-17","","Snow"
"-77.29","60.05","PUVIRNITUQ A","7106223","2022-12-25 07:00","2022","12","25","07:00","-5.8","","-7.2","","90","","0.0","","5","","52","","2.4","","99.16","","","","-16","","Snow"
"-77.29","60.05","PUVIRNITUQ A","7106223","2022-12-25 08:00","2022","12","25","08:00","-5.4","","-6.6","","91","","0.0","","5","","48","","3.6","","99.13","","","","-15","","Snow"
"-77.29","60.05","PUVIRNITUQ A","7106223","2022-12-25 09:00","2022","12","25","09:00","-5.2","","-6.5","","91","","0.0","","6","","52","","2.4","","99.08","","","","-15","","Snow"
"-77.29","60.05","PUVIRNITUQ A","7106223","2022-12-25 10:00","2022","12","25","10:00","-5.0","","-6.4","","90","","0.0","","5","","43","","2.8","","99.03","","","","-14","","Snow"
"-77.29","60.05","PUVIRNITUQ A","7106223","2022-12-25 11:00","2022","12","25","11:00","-5.0","","-6.3","","91","","0.0","","5","","45","","2.4","","98.96","","","","-15","","Snow"
"-77.29","60.05","PUVIRNITUQ A","7106223","2022-12-25 12:00","2022","12","25","12:00","-5.0","","-6.3","","91","","0.0","","5","","43","","1.2","","98.89","","","","-14","","Snow"
"-77.29","60.05","PUVIRNITUQ A","7106223","2022-12-25 13:00","2022","12","25","13:00","-5.1","","-6.2","","92","","0.0","","4","","43","","2.0","","98.79","","","","-14","","Snow"
"-77.29","60.05","PUVIRNITUQ A","7106223","2022-12-25 14:00","2022","12","25","14:00","-5.2","","-6.3","","92","","0.0","","4","","43","","1.2","","98.75","","","","-15","","Snow"
"-77.29","60.05","PUVIRNITUQ A","7106223","2022-12-25 15:00","2022","12","25","15:00","-5.2","","-6.3","","92","","0.0","","5","","46","","1.6","","98.74","","","","-15","","Snow"
"-77.29","60.05","PUVIRNITUQ A","7106223","2022-12-25 16:00","2022","12","25","16:00","-5.1","","-6.4","","91","","0.0","","5","","48","","2.0","","98.70","","","","-15","","Snow"
"-77.29","60.05","PUVIRNITUQ A","7106223","2022-12-25 17:00","2022","12","25","17:00","-5.0","","-6.1","","92","","0.0","","5","","41","","2.4","","98.67","","","","-14","","Snow"
"-77.29","60.05","PUVIRNITUQ A","7106223","2022-12-25 18:00","2022","12","25","18:00","-4.9","","-6.4","","89","","0.0","","5","","41","","14.5","","98.65","","","","-14","","Snow"
"-77.29","60.05","PUVIRNITUQ A","7106223","2022-12-25 19:00","2022","12","25","19:00","-5.4","","-6.8","","90","","0.0","","5","","45","","9.7","","98.62","","","","-15","","Snow"
"-77.29","60.05","PUVIRNITUQ A","7106223","2022-12-25 20:00","2022","12","25","20:00","-5.6","","-7.0","","90","","0.0","","5","","43","","16.1","","98.58","","","","-15","","Snow"
"-77.29","60.05","PUVIRNITUQ A","7106223","2022-12-25 21:00","2022","12","25","21:00","-5.3","","-7.1","","87","","0.0","","4","","32","","16.1","","98.58","","","","-14","","NA"
"-77.29","60.05","PUVIRNITUQ A","7106223","2022-12-25 22:00","2022","12","25","22:00","-5.2","","-7.0","","87","","0.0","","5","","32","","16.1","","98.55","","","","-13","","NA"
"-77.29","60.05","PUVIRNITUQ A","7106223","2022-12-25 23:00","2022","12","25","23:00","-5.6","","-6.8","","91","","0.0","","4","","26","","16.1","","98.53","","","","-13","","NA"
"-77.29","60.05","PUVIRNITUQ A","7106223","2022-12-26 00:00","2022","12","26","00:00","-5.2","","-7.0","","87","","0.0","","3","","30","","16.1","","98.49","","","","-13","","NA"
"-77.29","60.05","PUVIRNITUQ A","7106223","2022-12-26 01:00","2022","12","26","01:00","-5.2","","-7.2","","86","","0.0","","3","","26","","16.1","","98.46","","","","-13","","NA"
"-77.29","60.05","PUVIRNITUQ A","7106223","2022-12-26 02:00","2022","12","26","02:00","-5.7","","-7.5","","87","","0.0","","2","","24","","16.1","","98.46","","","","-13","","NA"
"-77.29","60.05","PUVIRNITUQ A","7106223","2022-12-26 03:00","2022","12","26","03:00","-6.4","","-8.4","","86","","0.0","","2","","26","","16.1","","98.44","","","","-14","","NA"
"-77.29","60.05","PUVIRNITUQ A","7106223","2022-12-26 04:00","2022","12","26","04:00","-5.5","","-7.5","","86","","0.0","","2","","24","","16.1","","98.41","","","","-13","","Snow"
"-77.29","60.05","PUVIRNITUQ A","7106223","2022-12-26 05:00","2022","12","26","05:00","-5.5","","-7.7","","85","","0.0","","2","","26","","16.1","","98.40","","","","-13","","Snow"
"-77.29","60.05","PUVIRNITUQ A","7106223","2022-12-26 06:00","2022","12","26","06:00","-5.0","","-6.3","","91","","0.0","","2","","26","","8.1","","98.41","","","","-12","","Snow"
"-77.29","60.05","PUVIRNITUQ A","7106223","2022-12-26 07:00","2022","12","26","07:00","-4.4","","-5.7","","91","","0.0","","1","","32","","6.4","","98.37","","","","-12","","Snow"
"-77.29","60.05","PUVIRNITUQ A","7106223","2022-12-26 08:00","2022","12","26","08:00","-4.1","","-5.4","","91","","0.0","","2","","34","","8.1","","98.36","","","","-12","","Snow"
"-77.29","60.05","PUVIRNITUQ A","7106223","2022-12-26 09:00","2022","12","26","09:00","-3.7","","-4.8","","92","","0.0","","2","","28","","4.8","","98.37","","","","-11","","Snow"
"-77.29","60.05","PUVIRNITUQ A","7106223","2022-12-26 10:00","2022","12","26","10:00","-4.0","","-6.0","","86","","0.0","","3","","28","","16.1","","98.36","","","","-11","","NA"
"-77.29","60.05","PUVIRNITUQ A","7106223","2022-12-26 11:00","2022","12","26","11:00","-3.5","","-5.1","","89","","0.0","","8","","37","","16.1","","98.40","","","","-12","","Snow"
"-77.29","60.05","PUVIRNITUQ A","7106223","2022-12-26 12:00","2022","12","26","12:00","-6.7","","-8.4","","88","","0.0","","8","","39","","6.4","","98.51","","","","-16","","Snow"
"-77.29","60.05","PUVIRNITUQ A","7106223","2022-12-26 13:00","2022","12","26","13:00","-8.7","","-10.5","","87","","0.0","","8","","37","","9.7","","98.63","","","","-19","","Snow"
"-77.29","60.05","PUVIRNITUQ A","7106223","2022-12-26 14:00","2022","12","26","14:00","-9.4","","-11.5","","85","","0.0","","9","","30","","16.1","","98.73","","","","-19","","NA"
"-77.29","60.05","PUVIRNITUQ A","7106223","2022-12-26 15:00","2022","12","26","15:00","-9.7","","-11.9","","84","","0.0","","9","","21","","16.1","","98.82","","","","-18","","NA"
"-77.29","60.05","PUVIRNITUQ A","7106223","2022-12-26 16:00","2022","12","26","16:00","-10.2","","-12.4","","84","","0.0","","8","","26","","16.1","","98.90","","","","-19","","NA"
"-77.29","60.05","PUVIRNITUQ A","7106223","2022-12-26 17:00","2022","12","26","17:00","-10.9","","-13.3","","83","","0.0","","8","","21","","16.1","","98.98","","","","-19","","NA"
"-77.29","60.05","PUVIRNITUQ A","7106223","2022-12-26 18:00","2022","12","26","18:00","-10.9","","-13.3","","83","","0.0","","10","","26","","16.1","","99.04","","","","-20","","NA"
"-77.29","60.05","PUVIRNITUQ A","7106223","2022-12-26 19:00","2022","12","26","19:00","-10.9","","-13.4","","82","","0.0","","7","","18","","16.1","","99.14","","","","-19","","NA"
"-77.29","60.05","PUVIRNITUQ A","7106223","2022-12-26 20:00","2022","12","26","20:00","-12.6","","-14.8","","84","","0.0","","8","","22","","16.1","","99.19","","","","-22","","NA"
"-77.29","60.05","PUVIRNITUQ A","7106223","2022-12-26 21:00","2022","12","26","21:00","-13.8","","-16.0","","84","","0.0","","7","","22","","16.1","","99.24","","","","-23","","NA"
"-77.29","60.05","PUVIRNITUQ A","7106223","2022-12-26 22:00","2022","12","26","22:00","-14.9","","-17.0","","84","","0.0","","7","","28","","16.1","","99.30","","","","-26","","NA"
"-77.29","60.05","PUVIRNITUQ A","7106223","2022-12-26 23:00","2022","12","26","23:00","-15.5","","-17.8","","83","","0.0","","7","","26","","16.1","","99.33","","","","-26","","NA"
"-77.29","60.05","PUVIRNITUQ A","7106223","2022-12-27 00:00","2022","12","27","00:00","-15.8","","-18.1","","83","","0.0","","6","","26","","16.1","","99.37","","","","-26","","NA"
"-77.29","60.05","PUVIRNITUQ A","7106223","2022-12-27 01:00","2022","12","27","01:00","-16.4","","-18.7","","83","","0.0","","8","","21","","16.1","","99.41","","","","-26","","NA"
"-77.29","60.05","PUVIRNITUQ A","7106223","2022-12-27 02:00","2022","12","27","02:00","-16.4","","-18.7","","83","","0.0","","7","","18","","16.1","","99.46","","","","-25","","NA"
"-77.29","60.05","PUVIRNITUQ A","7106223","2022-12-27 03:00","2022","12","27","03:00","-16.5","","-18.8","","83","","0.0","","6","","24","","16.1","","99.48","","","","-27","","NA"
"-77.29","60.05","PUVIRNITUQ A","7106223","2022-12-27 04:00","2022","12","27","04:00","-16.5","","-18.8","","83","","0.0","","6","","17","","16.1","","99.53","","","","-25","","NA"
"-77.29","60.05","PUVIRNITUQ A","7106223","2022-12-27 05:00","2022","12","27","05:00","-17.9","","-20.1","","83","","0.0","","8","","13","","16.1","","99.54","","","","-26","","NA"
"-77.29","60.05","PUVIRNITUQ A","7106223","2022-12-27 06:00","2022","12","27","06:00","-18.0","","-20.1","","84","","0.0","","3","","13","","16.1","","99.59","","","","-26","","NA"
"-77.29","60.05","PUVIRNITUQ A","7106223","2022-12-27 07:00","2022","12","27","07:00","-16.9","","-19.1","","84","","0.0","","3","","11","","16.1","","99.60","","","","-24","","NA"
"-77.29","60.05","PUVIRNITUQ A","7106223","2022-12-27 08:00","2022","12","27","08:00","-15.8","","-18.1","","83","","0.0","","5","","13","","16.1","","99.61","","","","-23","","NA"
"-77.29","60.05","PUVIRNITUQ A","7106223","2022-12-27 09:00","2022","12","27","09:00","-15.5","","-17.8","","83","","0.0","","6","","13","","16.1","","99.66","","","","-23","","Snow"
"-77.29","60.05","PUVIRNITUQ A","7106223","2022-12-27 10:00","2022","12","27","10:00","-15.8","","-18.1","","83","","0.0","","5","","13","","16.1","","99.67","","","","-23","","NA"
"-77.29","60.05","PUVIRNITUQ A","7106223","2022-12-27 11:00","2022","12","27","11:00","-14.9","","-17.3","","82","","0.0","","8","","11","","16.1","","99.71","","","","-21","","NA"
"-77.29","60.05","PUVIRNITUQ A","7106223","2022-12-27 12:00","2022","12","27","12:00","-16.1","","-18.4","","83","","0.0","","7","","9","","16.1","","99.74","","","","-22","","NA"
"-77.29","60.05","PUVIRNITUQ A","7106223","2022-12-27 13:00","2022","12","27","13:00","-15.5","","-17.8","","83","","0.0","","3","","9","","16.1","","99.74","","","","-21","","NA"
"-77.29","60.05","PUVIRNITUQ A","7106223","2022-12-27 14:00","2022","12","27","14:00","-15.3","","-17.6","","83","","0.0","","2","","5","","16.1","","99.77","","","","-19","","NA"
"-77.29","60.05","PUVIRNITUQ A","7106223","2022-12-27 15:00","2022","12","27","15:00","-15.9","","-18.0","","84","","0.0","","2","","9","","16.1","","99.80","","","","-22","","NA"
"-77.29","60.05","PUVIRNITUQ A","7106223","2022-12-27 16:00","2022","12","27","16:00","-15.7","","-17.7","","85","","0.0","","3","","4","","16.1","","99.82","","","","-19","","NA"
"-77.29","60.05","PUVIRNITUQ A","7106223","2022-12-27 17:00","2022","12","27","17:00","-14.7","","-17.0","","83","","0.0","","","","0","","16.1","","99.90","","","","","","NA"
"-77.29","60.05","PUVIRNITUQ A","7106223","2022-12-27 18:00","2022","12","27","18:00","-14.3","","-16.3","","85","","0.0","","17","","4","","16.1","","99.92","","","","-17","","NA"
"-77.29","60.05","PUVIRNITUQ A","7106223","2022-12-27 19:00","2022","12","27","19:00","-13.7","","-15.9","","84","","0.0","","24","","5","","16.1","","99.95","","","","-17","","NA"
"-77.29","60.05","PUVIRNITUQ A","7106223","2022-12-27 20:00","2022","12","27","20:00","-13.3","","-15.2","","86","","0.0","","","","0","","2.4","","100.02","","","","","","Snow"
"-77.29","60.05","PUVIRNITUQ A","7106223","2022-12-27 21:00","2022","12","27","21:00","-13.1","","-14.8","","87","","0.0","","19","","5","","11.3","","100.05","","","","-16","","Snow"
"-77.29","60.05","PUVIRNITUQ A","7106223","2022-12-27 22:00","2022","12","27","22:00","-12.4","","-14.1","","87","","0.0","","20","","8","","3.2","","100.07","","","","-17","","Fog"
"-77.29","60.05","PUVIRNITUQ A","7106223","2022-12-27 23:00","2022","12","27","23:00","-12.0","","-13.7","","87","","0.0","","22","","4","","2.4","","100.09","","","","-15","","Snow"
"-77.29","60.05","PUVIRNITUQ A","7106223","2022-12-28 00:00","2022","12","28","00:00","-11.8","","-13.6","","87","","0.0","","18","","4","","16.1","","100.13","","","","-14","","NA"
"-77.29","60.05","PUVIRNITUQ A","7106223","2022-12-28 01:00","2022","12","28","01:00","-12.1","","-13.6","","89","","0.0","","18","","8","","16.1","","100.16","","","","-17","","Snow"
"-77.29","60.05","PUVIRNITUQ A","7106223","2022-12-28 02:00","2022","12","28","02:00","-12.0","","-13.5","","89","","0.0","","13","","8","","16.1","","100.22","","","","-17","","Snow"
"-77.29","60.05","PUVIRNITUQ A","7106223","2022-12-28 03:00","2022","12","28","03:00","-11.4","","-13.0","","88","","0.0","","15","","4","","12.9","","100.28","","","","-14","","Snow"
"-77.29","60.05","PUVIRNITUQ A","7106223","2022-12-28 04:00","2022","12","28","04:00","-11.1","","-12.7","","88","","0.0","","21","","8","","9.7","","100.31","","","","-16","","Snow"
"-77.29","60.05","PUVIRNITUQ A","7106223","2022-12-28 05:00","2022","12","28","05:00","-9.3","","-10.5","","91","","0.0","","24","","8","","9.7","","100.32","","","","-14","","Snow"
"-77.29","60.05","PUVIRNITUQ A","7106223","2022-12-28 06:00","2022","12","28","06:00","-8.8","","-10.0","","91","","0.0","","26","","15","","4.8","","100.38","","","","-15","","Snow"
"-77.29","60.05","PUVIRNITUQ A","7106223","2022-12-28 07:00","2022","12","28","07:00","-6.1","","-6.8","","95","","0.0","","29","","17","","1.6","","100.43","","","","-12","","Snow"
"-77.29","60.05","PUVIRNITUQ A","7106223","2022-12-28 08:00","2022","12","28","08:00","-6.2","","-7.0","","94","","0.0","","30","","22","","6.4","","100.45","","","","-13","","Freezing Rain,Fog"
"-77.29","60.05","PUVIRNITUQ A","7106223","2022-12-28 09:00","2022","12","28","09:00","-7.2","","-8.2","","93","","0.0","","30","","15","","16.1","","100.52","","","","-13","","Snow"
"-77.29","60.05","PUVIRNITUQ A","7106223","2022-12-28 10:00","2022","12","28","10:00","-6.9","","-7.9","","93","","0.0","","30","","22","","12.9","","100.59","","","","-14","","Snow"
"-77.29","60.05","PUVIRNITUQ A","7106223","2022-12-28 11:00","2022","12","28","11:00","-7.1","","-8.1","","93","","0.0","","29","","21","","16.1","","100.64","","","","-14","","NA"
"-77.29","60.05","PUVIRNITUQ A","7106223","2022-12-28 12:00","2022","12","28","12:00","-6.6","","-7.5","","93","","0.0","","28","","26","","4.0","","100.66","","","","-15","","Freezing Rain,Fog"
"-77.29","60.05","PUVIRNITUQ A","7106223","2022-12-28 13:00","2022","12","28","13:00","-6.7","","-7.7","","93","","0.0","","30","","28","","9.7","","100.70","","","","-15","","Snow"
"-77.29","60.05","PUVIRNITUQ A","7106223","2022-12-28 14:00","2022","12","28","14:00","-7.2","","-8.2","","93","","0.0","","30","","28","","16.1","","100.77","","","","-16","","NA"
"-77.29","60.05","PUVIRNITUQ A","7106223","2022-12-28 15:00","2022","12","28","15:00","-8.9","","-10.1","","91","","0.0","","30","","24","","16.1","","100.84","","","","-17","","NA"
"-77.29","60.05","PUVIRNITUQ A","7106223","2022-12-28 16:00","2022","12","28","16:00","-8.4","","-9.5","","92","","0.0","","30","","24","","16.1","","100.94","","","","-17","","NA"
"-77.29","60.05","PUVIRNITUQ A","7106223","2022-12-28 17:00","2022","12","28","17:00","-9.0","","-10.2","","91","","0.0","","30","","24","","16.1","","101.00","","","","-17","","NA"
"-77.29","60.05","PUVIRNITUQ A","7106223","2022-12-28 18:00","2022","12","28","18:00","-9.0","","-10.2","","91","","0.0","","31","","17","","16.1","","101.04","","","","-16","","NA"
"-77.29","60.05","PUVIRNITUQ A","7106223","2022-12-28 19:00","2022","12","28","19:00","-9.0","","-10.6","","88","","0.0","","32","","21","","16.1","","101.08","","","","-17","","NA"
"-77.29","60.05","PUVIRNITUQ A","7106223","2022-12-28 20:00","2022","12","28","20:00","-9.6","","-11.4","","87","","0.0","","33","","13","","16.1","","101.13","","","","-16","","NA"
"-77.29","60.05","PUVIRNITUQ A","7106223","2022-12-28 21:00","2022","12","28","21:00","-9.2","","-10.6","","90","","0.0","","27","","8","","6.4","","101.19","","","","-14","","Snow"
"-77.29","60.05","PUVIRNITUQ A","7106223","2022-12-28 22:00","2022","12","28","22:00","-9.2","","-10.3","","92","","0.0","","","M","4","","3.2","","101.20","","","","-11","","Snow"
"-77.29","60.05","PUVIRNITUQ A","7106223","2022-12-28 23:00","2022","12","28","23:00","-10.4","","-11.8","","90","","0.0","","27","","17","","16.1","","101.23","","","","-18","","NA"
"-77.29","60.05","PUVIRNITUQ A","7106223","2022-12-29 00:00","2022","12","29","00:00","-11.4","","-12.7","","90","","0.0","","26","","21","","12.9","","101.28","","","","-20","","Snow"
"-77.29","60.05","PUVIRNITUQ A","7106223","2022-12-29 01:00","2022","12","29","01:00","-9.8","","-11.4","","88","","0.0","","27","","17","","16.1","","101.36","","","","-17","","NA"
"-77.29","60.05","PUVIRNITUQ A","7106223","2022-12-29 02:00","2022","12","29","02:00","-11.1","","-12.6","","89","","0.0","","28","","15","","16.1","","101.43","","","","-18","","Snow"
"-77.29","60.05","PUVIRNITUQ A","7106223","2022-12-29 03:00","2022","12","29","03:00","-12.1","","-13.6","","89","","0.0","","27","","15","","8.1","","101.47","","","","-19","","Snow"
"-77.29","60.05","PUVIRNITUQ A","7106223","2022-12-29 04:00","2022","12","29","04:00","-10.3","","-11.9","","88","","0.0","","28","","17","","16.1","","101.50","","","","-18","","Snow"
"-77.29","60.05","PUVIRNITUQ A","7106223","2022-12-29 05:00","2022","12","29","05:00","-10.8","","-12.6","","87","","0.0","","26","","15","","16.1","","101.51","","","","-18","","Snow"
"-77.29","60.05","PUVIRNITUQ A","7106223","2022-12-29 06:00","2022","12","29","06:00","-10.9","","-12.7","","87","","0.0","","25","","9","","16.1","","101.54","","","","-16","","Snow"
"-77.29","60.05","PUVIRNITUQ A","7106223","2022-12-29 07:00","2022","12","29","07:00","-10.7","","-12.5","","87","","0.0","","30","","8","","16.1","","101.59","","","","-15","","Snow"
"-77.29","60.05","PUVIRNITUQ A","7106223","2022-12-29 08:00","2022","12","29","08:00","-11.0","","-12.9","","86","","0.0","","30","","13","","16.1","","101.59","","","","-17","","Snow"
"-77.29","60.05","PUVIRNITUQ A","7106223","2022-12-29 09:00","2022","12","29","09:00","-11.1","","-13.4","","83","","0.0","","28","","5","","16.1","","101.63","","","","-14","","Snow"
"-77.29","60.05","PUVIRNITUQ A","7106223","2022-12-29 10:00","2022","12","29","10:00","-11.1","","-13.2","","85","","0.0","","21","","5","","16.1","","101.65","","","","-14","","Snow"
"-77.29","60.05","PUVIRNITUQ A","7106223","2022-12-29 11:00","2022","12","29","11:00","-11.1","","-13.2","","85","","0.0","","18","","5","","14.5","","101.67","","","","-14","","Snow"
"-77.29","60.05","PUVIRNITUQ A","7106223","2022-12-29 12:00","2022","12","29","12:00","-10.9","","-13.2","","83","","0.0","","17","","4","","16.1","","101.66","","","","-13","","Snow"
"-77.29","60.05","PUVIRNITUQ A","7106223","2022-12-29 13:00","2022","12","29","13:00","-11.1","","-13.2","","85","","0.0","","18","","9","","16.1","","101.68","","","","-16","","Snow"
"-77.29","60.05","PUVIRNITUQ A","7106223","2022-12-29 14:00","2022","12","29","14:00","-11.0","","-13.4","","83","","0.0","","","M","4","","16.1","","101.70","","","","-13","","Snow"
"-77.29","60.05","PUVIRNITUQ A","7106223","2022-12-29 15:00","2022","12","29","15:00","-10.9","","-13.6","","81","","0.0","","","M","4","","16.1","","101.75","","","","-13","","Snow"
"-77.29","60.05","PUVIRNITUQ A","7106223","2022-12-29 16:00","2022","12","29","16:00","-11.1","","-13.7","","81","","0.0","","8","","8","","16.1","","101.76","","","","-16","","Snow"
"-77.29","60.05","PUVIRNITUQ A","7106223","2022-12-29 17:00","2022","12","29","17:00","-11.3","","-13.8","","82","","0.0","","","M","5","","12.9","","101.78","","","","-14","","Snow"
"-77.29","60.05","PUVIRNITUQ A","7106223","2022-12-29 18:00","2022","12","29","18:00","-11.7","","-13.9","","84","","0.0","","9","","11","","16.1","","101.77","","","","-18","","NA"
"-77.29","60.05","PUVIRNITUQ A","7106223","2022-12-29 19:00","2022","12","29","19:00","-12.0","","-14.0","","85","","0.0","","8","","13","","16.1","","101.75","","","","-19","","Snow"
"-77.29","60.05","PUVIRNITUQ A","7106223","2022-12-29 20:00","2022","12","29","20:00","-12.3","","-14.3","","85","","0.0","","8","","11","","16.1","","101.73","","","","-18","","NA"
"-77.29","60.05","PUVIRNITUQ A","7106223","2022-12-29 21:00","2022","12","29","21:00","-12.3","","-14.3","","85","","0.0","","11","","9","","16.1","","101.72","","","","-18","","NA"
"-77.29","60.05","PUVIRNITUQ A","7106223","2022-12-29 22:00","2022","12","29","22:00","-12.4","","-14.3","","86","","0.0","","9","","9","","16.1","","101.68","","","","-18","","NA"
"-77.29","60.05","PUVIRNITUQ A","7106223","2022-12-29 23:00","2022","12","29","23:00","-12.3","","-14.3","","85","","0.0","","9","","17","","16.1","","101.67","","","","-20","","Snow"
"-77.29","60.05","PUVIRNITUQ A","7106223","2022-12-30 00:00","2022","12","30","00:00","-12.3","","-14.2","","86","","0.0","","10","","22","","16.1","","101.64","","","","-21","","Snow"
"-77.29","60.05","PUVIRNITUQ A","7106223","2022-12-30 01:00","2022","12","30","01:00","-12.9","","-14.6","","87","","0.0","","9","","21","","16.1","","101.63","","","","-22","","Snow"
"-77.29","60.05","PUVIRNITUQ A","7106223","2022-12-30 02:00","2022","12","30","02:00","-13.2","","-14.9","","87","","0.0","","7","","24","","16.1","","101.60","","","","-23","","Snow"
"-77.29","60.05","PUVIRNITUQ A","7106223","2022-12-30 03:00","2022","12","30","03:00","-13.7","","-15.3","","88","","0.0","","8","","21","","16.1","","101.58","","","","-23","","Snow"
"-77.29","60.05","PUVIRNITUQ A","7106223","2022-12-30 04:00","2022","12","30","04:00","-14.1","","-15.8","","87","","0.0","","8","","22","","16.1","","101.53","","","","-23","","Snow"
"-77.29","60.05","PUVIRNITUQ A","7106223","2022-12-30 05:00","2022","12","30","05:00","-16.2","","-18.0","","86","","0.0","","8","","13","","16.1","","101.46","","","","-24","","NA"
"-77.29","60.05","PUVIRNITUQ A","7106223","2022-12-30 06:00","2022","12","30","06:00","-16.3","","-18.1","","86","","0.0","","7","","18","","16.1","","101.38","","","","-25","","NA"
"-77.29","60.05","PUVIRNITUQ A","7106223","2022-12-30 07:00","2022","12","30","07:00","-17.8","","-19.9","","84","","0.0","","7","","24","","16.1","","101.33","","","","-29","","NA"
"-77.29","60.05","PUVIRNITUQ A","7106223","2022-12-30 08:00","2022","12","30","08:00","-19.0","","-21.1","","84","","0.0","","6","","22","","16.1","","101.26","","","","-30","","NA"
"-77.29","60.05","PUVIRNITUQ A","7106223","2022-12-30 09:00","2022","12","30","09:00","-18.8","","-20.9","","84","","0.0","","6","","26","","16.1","","101.19","","","","-30","","NA"
"-77.29","60.05","PUVIRNITUQ A","7106223","2022-12-30 10:00","2022","12","30","10:00","-18.2","","-20.3","","84","","0.0","","6","","26","","16.1","","101.10","","","","-29","","NA"
"-77.29","60.05","PUVIRNITUQ A","7106223","2022-12-30 11:00","2022","12","30","11:00","-17.9","","-20.0","","84","","0.0","","6","","24","","16.1","","101.03","","","","-29","","NA"
"-77.29","60.05","PUVIRNITUQ A","7106223","2022-12-30 12:00","2022","12","30","12:00","-17.5","","-19.6","","84","","0.0","","7","","28","","16.1","","100.93","","","","-29","","NA"
"-77.29","60.05","PUVIRNITUQ A","7106223","2022-12-30 13:00","2022","12","30","13:00","-16.1","","-18.2","","84","","0.0","","6","","28","","16.1","","100.82","","","","-27","","NA"
"-77.29","60.05","PUVIRNITUQ A","7106223","2022-12-30 14:00","2022","12","30","14:00","-15.3","","-17.3","","85","","0.0","","5","","34","","16.1","","100.65","","","","-27","","NA"
"-77.29","60.05","PUVIRNITUQ A","7106223","2022-12-30 15:00","2022","12","30","15:00","-15.1","","-17.2","","84","","0.0","","5","","39","","16.1","","100.56","","","","-27","","Snow"
"-77.29","60.05","PUVIRNITUQ A","7106223","2022-12-30 16:00","2022","12","30","16:00","-15.2","","-17.5","","83","","0.0","","6","","39","","16.1","","100.50","","","","-28","","Snow"
"-77.29","60.05","PUVIRNITUQ A","7106223","2022-12-30 17:00","2022","12","30","17:00","-15.7","","-18.0","","83","","0.0","","6","","39","","16.1","","100.49","","","","-28","","Snow"
"-77.29","60.05","PUVIRNITUQ A","7106223","2022-12-30 18:00","2022","12","30","18:00","-15.3","","-17.6","","83","","0.0","","5","","32","","16.1","","100.45","","","","-27","","Snow"
"-77.29","60.05","PUVIRNITUQ A","7106223","2022-12-30 19:00","2022","12","30","19:00","-15.0","","-17.3","","83","","0.0","","6","","34","","16.1","","100.40","","","","-27","","Snow"
"-77.29","60.05","PUVIRNITUQ A","7106223","2022-12-30 20:00","2022","12","30","20:00","-15.9","","-18.3","","82","","0.0","","6","","37","","16.1","","100.37","","","","-28","","Snow"
"-77.29","60.05","PUVIRNITUQ A","7106223","2022-12-30 21:00","2022","12","30","21:00","-16.5","","-18.9","","82","","0.0","","6","","34","","16.1","","100.35","","","","-29","","NA"
"-77.29","60.05","PUVIRNITUQ A","7106223","2022-12-30 22:00","2022","12","30","22:00","-16.8","","-19.2","","82","","0.0","","6","","35","","16.1","","100.28","","","","-29","","NA"
"-77.29","60.05","PUVIRNITUQ A","7106223","2022-12-30 23:00","2022","12","30","23:00","-17.0","","-19.4","","82","","0.0","","6","","34","","16.1","","100.27","","","","-29","","NA"
"-77.29","60.05","PUVIRNITUQ A","7106223","2022-12-31 00:00","2022","12","31","00:00","-17.2","","-19.4","","83","","0.0","","6","","32","","16.1","","100.27","","","","-29","","NA"
"-77.29","60.05","PUVIRNITUQ A","7106223","2022-12-31 01:00","2022","12","31","01:00","-17.6","","-20.1","","81","","0.0","","6","","30","","16.1","","100.27","","","","-29","","NA"
"-77.29","60.05","PUVIRNITUQ A","7106223","2022-12-31 02:00","2022","12","31","02:00","-17.3","","-19.8","","81","","0.0","","6","","24","","16.1","","100.28","","","","-28","","NA"
"-77.29","60.05","PUVIRNITUQ A","7106223","2022-12-31 03:00","2022","12","31","03:00","-17.6","","-20.1","","81","","0.0","","5","","24","","16.1","","100.30","","","","-28","","NA"
"-77.29","60.05","PUVIRNITUQ A","7106223","2022-12-31 04:00","2022","12","31","04:00","-18.0","","-20.5","","81","","0.0","","5","","22","","16.1","","100.31","","","","-28","","NA"
"-77.29","60.05","PUVIRNITUQ A","7106223","2022-12-31 05:00","2022","12","31","05:00","-18.0","","-20.4","","82","","0.0","","5","","22","","16.1","","100.33","","","","-28","","NA"
"-77.29","60.05","PUVIRNITUQ A","7106223","2022-12-31 06:00","2022","12","31","06:00","-17.8","","-20.0","","83","","0.0","","5","","18","","16.1","","100.38","","","","-27","","NA"
"-77.29","60.05","PUVIRNITUQ A","7106223","2022-12-31 07:00","2022","12","31","07:00","-18.1","","-20.3","","83","","0.0","","4","","15","","16.1","","100.38","","","","-27","","NA"
"-77.29","60.05","PUVIRNITUQ A","7106223","2022-12-31 08:00","2022","12","31","08:00","-18.2","","-20.3","","84","","0.0","","4","","18","","16.1","","100.36","","","","-28","","NA"
"-77.29","60.05","PUVIRNITUQ A","7106223","2022-12-31 09:00","2022","12","31","09:00","-16.2","","-18.2","","85","","0.0","","5","","22","","16.1","","100.37","","","","-26","","Snow"
"-77.29","60.05","PUVIRNITUQ A","7106223","2022-12-31 10:00","2022","12","31","10:00","-14.6","","-16.7","","84","","0.0","","6","","22","","16.1","","100.40","","","","-24","","Snow"
"-77.29","60.05","PUVIRNITUQ A","7106223","2022-12-31 11:00","2022","12","31","11:00","-14.4","","-16.7","","83","","0.0","","5","","21","","16.1","","100.39","","","","-24","","Snow"
"-77.29","60.05","PUVIRNITUQ A","7106223","2022-12-31 12:00","2022","12","31","12:00","-13.8","","-16.0","","84","","0.0","","4","","18","","16.1","","100.40","","","","-22","","Snow"
"-77.29","60.05","PUVIRNITUQ A","7106223","2022-12-31 13:00","2022","12","31","13:00","-14.5","","-16.8","","83","","0.0","","5","","21","","16.1","","100.42","","","","-24","","NA"
"-77.29","60.05","PUVIRNITUQ A","7106223","2022-12-31 14:00","2022","12","31","14:00","-14.9","","-17.2","","83","","0.0","","5","","17","","16.1","","100.44","","","","-23","","NA"
"-77.29","60.05","PUVIRNITUQ A","7106223","2022-12-31 15:00","2022","12","31","15:00","-14.4","","-16.8","","82","","0.0","","4","","17","","16.1","","100.49","","","","-23","","Snow"
"-77.29","60.05","PUVIRNITUQ A","7106223","2022-12-31 16:00","2022","12","31","16:00","-14.3","","-16.7","","82","","0.0","","4","","17","","16.1","","100.53","","","","-23","","Snow"
"-77.29","60.05","PUVIRNITUQ A","7106223","2022-12-31 17:00","2022","12","31","17:00","-13.6","","-16.1","","82","","0.0","","5","","18","","16.1","","100.58","","","","-22","","Snow"
"-77.29","60.05","PUVIRNITUQ A","7106223","2022-12-31 18:00","2022","12","31","18:00","-13.4","","-15.9","","82","","0.0","","4","","15","","16.1","","100.62","","","","-21","","NA"
"-77.29","60.05","PUVIRNITUQ A","7106223","2022-12-31 19:00","2022","12","31","19:00","-13.1","","-15.6","","82","","0.0","","7","","11","","16.1","","100.65","","","","-19","","Snow"
"-77.29","60.05","PUVIRNITUQ A","7106223","2022-12-31 20:00","2022","12","31","20:00","-13.3","","-15.3","","85","","0.0","","4","","11","","16.1","","100.67","","","","-20","","Snow"
"-77.29","60.05","PUVIRNITUQ A","7106223","2022-12-31 21:00","2022","12","31","21:00","-13.2","","-15.4","","84","","0.0","","5","","11","","16.1","","100.66","","","","-19","","NA"
"-77.29","60.05","PUVIRNITUQ A","7106223","2022-12-31 22:00","2022","12","31","22:00","-13.0","","-15.2","","84","","0.0","","3","","9","","16.1","","100.66","","","","-18","","Snow"
"-77.29","60.05","PUVIRNITUQ A","7106223","2022-12-31 23:00","2022","12","31","23:00","-12.9","","-15.1","","84","","0.0","","5","","8","","16.1","","100.67","","","","-18","","Snow"
