"Longitude (x)","Latitude (y)","Station Name","Climate ID","Date/Time (LST)","Year","Month","Day","Time (LST)","Temp (°C)","Temp Flag","Dew Point Temp (°C)","Dew Point Temp Flag","Rel Hum (%)","Rel Hum Flag","Precip. Amount (mm)","Precip. Amount Flag","Wind Dir (10s deg)","Wind Dir Flag","Wind Spd (km/h)","Wind Spd Flag","Visibility (km)","Visibility Flag","Stn Press (kPa)","Stn Press Flag","Hmdx","Hmdx Flag","Wind Chill","Wind Chill Flag","Weather"
"-133.48","68.30","INUVIK A","2202571","2023-03-01 00:00","2023","03","01","00:00","-26.3","","-29.5","","75","","","","8","","18","","24.1","","98.94","","","","-38","","NA"
"-133.48","68.30","INUVIK A","2202571","2023-03-01 01:00","2023","03","01","01:00","-26.6","","-29.9","","75","","","","9","","16","","24.1","","98.89","","","","-38","","NA"
"-133.48","68.30","INUVIK A","2202571","2023-03-01 02:00","2023","03","01","02:00","-26.9","","-30.2","","74","","","","8","","18","","24.1","","98.84","","","","-39","","Clear"
"-133.48","68.30","INUVIK A","2202571","2023-03-01 03:00","2023","03","01","03:00","-27.5","","-30.6","","76","","","","6","","12","","24.1","","98.80","","","","-37","","NA"
"-133.48","68.30","INUVIK A","2202571","2023-03-01 04:00","2023","03","01","04:00","-27.9","","-31.0","","75","","","","7","","11","","24.1","","98.73","","","","-37","","NA"
"-133.48","68.30","INUVIK A","2202571","2023-03-01 05:00","2023","03","01","05:00","-28.0","","-30.9","","77","","","","7","","12","","24.1","","98.67","","","","-38","","Clear"
"-133.48","68.30","INUVIK A","2202571","2023-03-01 06:00","2023","03","01","06:00","-28.4","","-31.4","","76","","","","7","","14","","24.1","","98.63","","","","-39","","NA"
"-133.48","68.30","INUVIK A","2202571","2023-03-01 07:00","2023","03","01","07:00","-29.5","","-32.6","","75","","","","8","","14","","24.1","","98.57","","","","-40","","NA"
"-133.48","68.30","INUVIK A","2202571","2023-03-01 08:00","2023","03","01","08:00","-29.2","","-32.3","","75","","","","7","","16","","24.1","","98.51","","","","-41","","Clear"
"-133.48","68.30","INUVIK A","2202571","2023-03-01 09:00","2023","03","01","09:00","-29.6","","-32.7","","75","","","","7","","11","","24.1","","98.45","","","","-39","","NA"
"-133.48","68.30","INUVIK A","2202571","2023-03-01 10:00","2023","03","01","10:00","-30.4","","-33.7","","74","","","","7","","9","","24.1","","98.40","","","","-39","","NA"
"-133.48","68.30","INUVIK A","2202571","2023-03-01 11:00","2023","03","01","11:00","-28.2","","-31.3","","75","","","","7","","12","","24.1","","98.32","","","","-38","","Clear"
"-133.48","68.30","INUVIK A","2202571","2023-03-01 12:00","2023","03","01","12:00","-26.9","","-29.9","","76","","","","7","","12","","24.1","","98.29","","","","-36","","NA"
"-133.48","68.30","INUVIK A","2202571","2023-03-01 13:00","2023","03","01","13:00","-26.8","","-30.5","","72","","","","10","","9","","24.1","","98.26","","","","-35","","NA"
"-133.48","68.30","INUVIK A","2202571","2023-03-01 14:00","2023","03","01","14:00","-25.3","","-29.2","","70","","","","8","","10","","24.1","","98.26","","","","-34","","Clear"
"-133.48","68.30","INUVIK A","2202571","2023-03-01 15:00","2023","03","01","15:00","-25.0","","-29.3","","68","","","","7","","9","","24.1","","98.22","","","","-33","","NA"
"-133.48","68.30","INUVIK A","2202571","2023-03-01 16:00","2023","03","01","16:00","-24.9","","-29.3","","68","","","","5","","10","","24.1","","98.16","","","","-33","","NA"
"-133.48","68.30","INUVIK A","2202571","2023-03-01 17:00","2023","03","01","17:00","-25.9","","-30.2","","68","","","","6","","17","","24.1","","98.15","","","","-37","","Clear"
"-133.48","68.30","INUVIK A","2202571","2023-03-01 18:00","2023","03","01","18:00","-27.2","","-31.3","","69","","","","7","","14","","24.1","","98.12","","","","-38","","NA"
"-133.48","68.30","INUVIK A","2202571","2023-03-01 19:00","2023","03","01","19:00","-28.3","","-32.0","","71","","","","8","","6","","24.1","","98.13","","","","-35","","NA"
"-133.48","68.30","INUVIK A","2202571","2023-03-01 20:00","2023","03","01","20:00","-28.7","","-32.1","","73","","","","5","","7","","24.1","","98.13","","","","-36","","Clear"
"-133.48","68.30","INUVIK A","2202571","2023-03-01 21:00","2023","03","01","21:00","-28.7","","-31.9","","74","","","","7","","7","","24.1","","98.12","","","","-36","","Snow"
"-133.48","68.30","INUVIK A","2202571","2023-03-01 22:00","2023","03","01","22:00","-28.2","","-31.4","","75","","","","9","","9","","24.1","","98.16","","","","-36","","Snow"
"-133.48","68.30","INUVIK A","2202571","2023-03-01 23:00","2023","03","01","23:00","-29.2","","-32.3","","76","","","","12","","4","","24.1","","98.22","","","","-34","","Mainly Clear"
"-133.48","68.30","INUVIK A","2202571","2023-03-02 00:00","2023","03","02","00:00","-29.9","","-33.0","","75","","","","28","","4","","24.1","","98.31","","","","-34","","Snow"
"-133.48","68.30","INUVIK A","2202571","2023-03-02 01:00","2023","03","02","01:00","-32.2","","-35.4","","74","","","","26","","5","","24.1","","98.38","","","","-38","","Snow"
"-133.48","68.30","INUVIK A","2202571","2023-03-02 02:00","2023","03","02","02:00","-31.7","","-35.1","","73","","","","36","","1","","24.1","","98.46","","","","-33","","Snow"
"-133.48","68.30","INUVIK A","2202571","2023-03-02 03:00","2023","03","02","03:00","-32.2","","-35.5","","73","","","","23","","7","","24.1","","98.56","","","","-40","","Snow"
"-133.48","68.30","INUVIK A","2202571","2023-03-02 04:00","2023","03","02","04:00","-32.0","","-35.4","","73","","","","26","","7","","24.1","","98.67","","","","-40","","Snow"
"-133.48","68.30","INUVIK A","2202571","2023-03-02 05:00","2023","03","02","05:00","-32.4","","-35.8","","73","","","","25","","8","","24.1","","98.77","","","","-41","","Snow"
"-133.48","68.30","INUVIK A","2202571","2023-03-02 06:00","2023","03","02","06:00","-32.5","","-35.9","","72","","","","26","","8","","24.1","","98.88","","","","-41","","Snow"
"-133.48","68.30","INUVIK A","2202571","2023-03-02 07:00","2023","03","02","07:00","-32.6","","-36.0","","72","","","","28","","6","","24.1","","98.99","","","","-40","","Snow"
"-133.48","68.30","INUVIK A","2202571","2023-03-02 08:00","2023","03","02","08:00","-32.8","","-36.3","","72","","","","27","","5","","24.1","","99.10","","","","-39","","Snow"
"-133.48","68.30","INUVIK A","2202571","2023-03-02 09:00","2023","03","02","09:00","-33.8","","-37.3","","72","","","","27","","6","","16.1","","99.22","","","","-41","","Snow"
"-133.48","68.30","INUVIK A","2202571","2023-03-02 10:00","2023","03","02","10:00","-34.1","","-37.6","","72","","","","23","","4","","24.1","","99.31","","","","-39","","Snow"
"-133.48","68.30","INUVIK A","2202571","2023-03-02 11:00","2023","03","02","11:00","-34.3","","-37.8","","71","","","","36","","3","","24.1","","99.40","","","","-38","","Mainly Clear"
"-133.48","68.30","INUVIK A","2202571","2023-03-02 12:00","2023","03","02","12:00","-33.6","","-37.1","","71","","","","24","","5","","24.1","","99.51","","","","-40","","NA"
"-133.48","68.30","INUVIK A","2202571","2023-03-02 13:00","2023","03","02","13:00","-32.0","","-35.5","","72","","","","22","","4","","24.1","","99.60","","","","-37","","NA"
"-133.48","68.30","INUVIK A","2202571","2023-03-02 14:00","2023","03","02","14:00","-30.9","","-34.5","","71","","","","24","","7","","24.1","","99.69","","","","-38","","Mostly Cloudy"
"-133.48","68.30","INUVIK A","2202571","2023-03-02 15:00","2023","03","02","15:00","-30.1","","-34.1","","69","","","","24","","9","","24.1","","99.78","","","","-39","","NA"
"-133.48","68.30","INUVIK A","2202571","2023-03-02 16:00","2023","03","02","16:00","-29.6","","-32.9","","74","","","","25","","8","","24.1","","99.85","","","","-38","","NA"
"-133.48","68.30","INUVIK A","2202571","2023-03-02 17:00","2023","03","02","17:00","-29.2","","-32.8","","72","","","","24","","5","","24.1","","99.94","","","","-35","","Mostly Cloudy"
"-133.48","68.30","INUVIK A","2202571","2023-03-02 18:00","2023","03","02","18:00","-29.2","","-32.4","","74","","","","23","","4","","24.1","","100.02","","","","-34","","NA"
"-133.48","68.30","INUVIK A","2202571","2023-03-02 19:00","2023","03","02","19:00","-29.6","","-32.7","","75","","","","21","","3","","24.1","","100.08","","","","-33","","NA"
"-133.48","68.30","INUVIK A","2202571","2023-03-02 20:00","2023","03","02","20:00","-31.7","","-35.0","","73","","","","9","","5","","24.1","","100.15","","","","-38","","Snow"
"-133.48","68.30","INUVIK A","2202571","2023-03-02 21:00","2023","03","02","21:00","-32.8","","-36.2","","72","","","","5","","8","","24.1","","100.20","","","","-41","","Snow"
"-133.48","68.30","INUVIK A","2202571","2023-03-02 22:00","2023","03","02","22:00","-34.0","","-37.4","","72","","","","7","","6","","24.1","","100.28","","","","-41","","NA"
"-133.48","68.30","INUVIK A","2202571","2023-03-02 23:00","2023","03","02","23:00","-35.8","","-39.5","","70","","","","7","","10","","24.1","","100.35","","","","-46","","Clear"
"-133.48","68.30","INUVIK A","2202571","2023-03-03 00:00","2023","03","03","00:00","-35.1","","-38.6","","71","","","","8","","9","","24.1","","100.40","","","","-45","","NA"
"-133.48","68.30","INUVIK A","2202571","2023-03-03 01:00","2023","03","03","01:00","-35.6","","-39.2","","71","","","","7","","12","","24.1","","100.47","","","","-47","","NA"
"-133.48","68.30","INUVIK A","2202571","2023-03-03 02:00","2023","03","03","02:00","-34.9","","-38.5","","71","","","","6","","13","","24.1","","100.50","","","","-47","","Clear"
"-133.48","68.30","INUVIK A","2202571","2023-03-03 03:00","2023","03","03","03:00","-34.2","","-37.7","","71","","","","9","","3","","24.1","","100.61","","","","-38","","NA"
"-133.48","68.30","INUVIK A","2202571","2023-03-03 04:00","2023","03","03","04:00","-33.6","","-37.1","","71","","","","7","","9","","24.1","","100.66","","","","-43","","NA"
"-133.48","68.30","INUVIK A","2202571","2023-03-03 05:00","2023","03","03","05:00","-34.1","","-37.6","","71","","","","6","","7","","24.1","","100.72","","","","-42","","Clear"
"-133.48","68.30","INUVIK A","2202571","2023-03-03 06:00","2023","03","03","06:00","-34.0","","-37.4","","72","","","","7","","7","","24.1","","100.78","","","","-42","","NA"
"-133.48","68.30","INUVIK A","2202571","2023-03-03 07:00","2023","03","03","07:00","-34.9","","-38.5","","71","","","","5","","7","","24.1","","100.86","","","","-43","","NA"
"-133.48","68.30","INUVIK A","2202571","2023-03-03 08:00","2023","03","03","08:00","-33.9","","-37.3","","72","","","","7","","7","","24.1","","100.92","","","","-42","","Clear"
"-133.48","68.30","INUVIK A","2202571","2023-03-03 09:00","2023","03","03","09:00","-35.5","","-39.1","","70","","","","33","","4","","24.1","","101.00","","","","-41","","NA"
"-133.48","68.30","INUVIK A","2202571","2023-03-03 10:00","2023","03","03","10:00","-35.4","","-39.1","","70","","","","36","","3","","24.1","","101.07","","","","-39","","NA"
"-133.48","68.30","INUVIK A","2202571","2023-03-03 11:00","2023","03","03","11:00","-32.6","","-36.0","","72","","","","6","","4","","24.1","","101.14","","","","-37","","Clear"
"-133.48","68.30","INUVIK A","2202571","2023-03-03 12:00","2023","03","03","12:00","-32.0","","-35.5","","72","","","","26","","5","","24.1","","101.20","","","","-38","","NA"
"-133.48","68.30","INUVIK A","2202571","2023-03-03 13:00","2023","03","03","13:00","-31.5","","-34.9","","72","","","","24","","3","","24.1","","101.29","","","","-35","","NA"
"-133.48","68.30","INUVIK A","2202571","2023-03-03 14:00","2023","03","03","14:00","-30.9","","-34.3","","72","","","","23","","5","","24.1","","101.38","","","","-37","","Mainly Clear"
"-133.48","68.30","INUVIK A","2202571","2023-03-03 15:00","2023","03","03","15:00","-30.4","","-33.9","","73","","","","23","","5","","24.1","","101.45","","","","-36","","NA"
"-133.48","68.30","INUVIK A","2202571","2023-03-03 16:00","2023","03","03","16:00","-29.0","","-32.4","","73","","","","18","","3","","24.1","","101.54","","","","-32","","NA"
"-133.48","68.30","INUVIK A","2202571","2023-03-03 17:00","2023","03","03","17:00","-28.5","","-31.8","","74","","","","36","","2","","24.1","","101.63","","","","-31","","Mainly Clear"
"-133.48","68.30","INUVIK A","2202571","2023-03-03 18:00","2023","03","03","18:00","-28.6","","-31.8","","74","","","","27","","4","","24.1","","101.71","","","","-33","","NA"
"-133.48","68.30","INUVIK A","2202571","2023-03-03 19:00","2023","03","03","19:00","-29.5","","-32.8","","74","","","","28","","4","","24.1","","101.79","","","","-34","","NA"
"-133.48","68.30","INUVIK A","2202571","2023-03-03 20:00","2023","03","03","20:00","-32.0","","-35.4","","72","","","","36","","4","","24.1","","101.89","","","","-37","","Mainly Clear"
"-133.48","68.30","INUVIK A","2202571","2023-03-03 21:00","2023","03","03","21:00","-32.6","","-36.1","","72","","","","36","","2","","24.1","","101.96","","","","-35","","NA"
"-133.48","68.30","INUVIK A","2202571","2023-03-03 22:00","2023","03","03","22:00","-33.1","","-36.5","","72","","","","36","","1","","24.1","","102.07","","","","-34","","NA"
"-133.48","68.30","INUVIK A","2202571","2023-03-03 23:00","2023","03","03","23:00","-32.2","","-35.6","","73","","","","30","","3","","24.1","","102.16","","","","-36","","Clear"
"-133.48","68.30","INUVIK A","2202571","2023-03-04 00:00","2023","03","04","00:00","-35.0","","-38.6","","71","","","","36","","2","","24.1","","102.25","","","","-38","","NA"
"-133.48","68.30","INUVIK A","2202571","2023-03-04 01:00","2023","03","04","01:00","-34.7","","-38.3","","71","","","","36","","1","","24.1","","102.32","","","","-36","","NA"
"-133.48","68.30","INUVIK A","2202571","2023-03-04 02:00","2023","03","04","02:00","-36.0","","-39.7","","70","","","","36","","2","","24.1","","102.42","","","","-39","","Clear"
"-133.48","68.30","INUVIK A","2202571","2023-03-04 03:00","2023","03","04","03:00","-35.6","","-39.2","","70","","","","36","","1","","24.1","","102.50","","","","-37","","NA"
"-133.48","68.30","INUVIK A","2202571","2023-03-04 04:00","2023","03","04","04:00","-35.9","","-39.6","","70","","","","7","","4","","24.1","","102.61","","","","-41","","NA"
"-133.48","68.30","INUVIK A","2202571","2023-03-04 05:00","2023","03","04","05:00","-36.0","","-39.7","","70","","","","0","","1","","24.1","","102.68","","","","-37","","Clear"
"-133.48","68.30","INUVIK A","2202571","2023-03-04 06:00","2023","03","04","06:00","-36.7","","-40.5","","69","","","","26","","4","","24.1","","102.75","","","","-42","","NA"
"-133.48","68.30","INUVIK A","2202571","2023-03-04 07:00","2023","03","04","07:00","-36.4","","-40.2","","69","","","","27","","5","","24.1","","102.81","","","","-43","","NA"
"-133.48","68.30","INUVIK A","2202571","2023-03-04 08:00","2023","03","04","08:00","-38.1","","-42.0","","68","","","","36","","1","","24.1","","102.85","","","","-39","","Mainly Clear"
"-133.48","68.30","INUVIK A","2202571","2023-03-04 09:00","2023","03","04","09:00","-37.1","","-40.9","","69","","","","4","","3","","24.1","","102.90","","","","-41","","NA"
"-133.48","68.30","INUVIK A","2202571","2023-03-04 10:00","2023","03","04","10:00","-35.1","","-38.8","","70","","","","36","","3","","24.1","","102.93","","","","-39","","NA"
"-133.48","68.30","INUVIK A","2202571","2023-03-04 11:00","2023","03","04","11:00","-34.6","","-38.3","","70","","","","36","","2","","24.1","","102.98","","","","-37","","Mostly Cloudy"
"-133.48","68.30","INUVIK A","2202571","2023-03-04 12:00","2023","03","04","12:00","-33.5","","-37.1","","71","","","","36","","1","","24.1","","103.00","","","","-35","","NA"
"-133.48","68.30","INUVIK A","2202571","2023-03-04 13:00","2023","03","04","13:00","-32.3","","-35.9","","71","","","","24","","5","","24.1","","103.01","","","","-38","","NA"
"-133.48","68.30","INUVIK A","2202571","2023-03-04 14:00","2023","03","04","14:00","-30.9","","-34.3","","72","","","","36","","2","","24.1","","103.02","","","","-33","","Mainly Clear"
"-133.48","68.30","INUVIK A","2202571","2023-03-04 15:00","2023","03","04","15:00","-29.3","","-32.7","","73","","","","24","","5","","24.1","","103.02","","","","-35","","NA"
"-133.48","68.30","INUVIK A","2202571","2023-03-04 16:00","2023","03","04","16:00","-28.7","","-32.1","","73","","","","36","","3","","24.1","","102.99","","","","-32","","NA"
"-133.48","68.30","INUVIK A","2202571","2023-03-04 17:00","2023","03","04","17:00","-27.7","","-31.0","","74","","","","36","","3","","24.1","","102.97","","","","-31","","Clear"
"-133.48","68.30","INUVIK A","2202571","2023-03-04 18:00","2023","03","04","18:00","-27.4","","-31.0","","72","","","","36","","3","","24.1","","102.96","","","","-31","","NA"
"-133.48","68.30","INUVIK A","2202571","2023-03-04 19:00","2023","03","04","19:00","-27.2","","-30.8","","73","","","","9","","3","","24.1","","102.97","","","","-30","","NA"
"-133.48","68.30","INUVIK A","2202571","2023-03-04 20:00","2023","03","04","20:00","-29.7","","-33.1","","73","","","","8","","7","","24.1","","102.94","","","","-37","","Mainly Clear"
"-133.48","68.30","INUVIK A","2202571","2023-03-04 21:00","2023","03","04","21:00","-30.3","","-33.6","","73","","","","7","","9","","24.1","","102.92","","","","-39","","NA"
"-133.48","68.30","INUVIK A","2202571","2023-03-04 22:00","2023","03","04","22:00","-30.3","","-33.6","","74","","","","8","","10","","24.1","","102.88","","","","-40","","NA"
"-133.48","68.30","INUVIK A","2202571","2023-03-04 23:00","2023","03","04","23:00","-30.4","","-33.7","","74","","","","9","","7","","24.1","","102.83","","","","-38","","Mainly Clear"
"-133.48","68.30","INUVIK A","2202571","2023-03-05 00:00","2023","03","05","00:00","-31.2","","-34.5","","73","","","","7","","9","","24.1","","102.81","","","","-40","","NA"
"-133.48","68.30","INUVIK A","2202571","2023-03-05 01:00","2023","03","05","01:00","-30.8","","-34.1","","74","","","","7","","13","","24.1","","102.79","","","","-42","","NA"
"-133.48","68.30","INUVIK A","2202571","2023-03-05 02:00","2023","03","05","02:00","-31.0","","-34.5","","73","","","","6","","15","","24.1","","102.79","","","","-43","","Clear"
"-133.48","68.30","INUVIK A","2202571","2023-03-05 03:00","2023","03","05","03:00","-29.8","","-33.1","","74","","","","6","","14","","24.1","","102.76","","","","-41","","NA"
"-133.48","68.30","INUVIK A","2202571","2023-03-05 04:00","2023","03","05","04:00","-30.3","","-33.7","","73","","","","7","","10","","24.1","","102.77","","","","-40","","NA"
"-133.48","68.30","INUVIK A","2202571","2023-03-05 05:00","2023","03","05","05:00","-29.8","","-33.1","","73","","","","7","","9","","24.1","","102.74","","","","-38","","Clear"
"-133.48","68.30","INUVIK A","2202571","2023-03-05 06:00","2023","03","05","06:00","-29.5","","-32.8","","74","","","","8","","12","","24.1","","102.71","","","","-40","","NA"
"-133.48","68.30","INUVIK A","2202571","2023-03-05 07:00","2023","03","05","07:00","-29.2","","-32.4","","74","","","","8","","11","","24.1","","102.71","","","","-39","","NA"
"-133.48","68.30","INUVIK A","2202571","2023-03-05 08:00","2023","03","05","08:00","-31.6","","-35.0","","72","","","","8","","12","","24.1","","102.68","","","","-42","","Clear"
"-133.48","68.30","INUVIK A","2202571","2023-03-05 09:00","2023","03","05","09:00","-30.8","","-34.2","","73","","","","7","","9","","24.1","","102.71","","","","-40","","NA"
"-133.48","68.30","INUVIK A","2202571","2023-03-05 10:00","2023","03","05","10:00","-30.0","","-33.3","","74","","","","6","","8","","24.1","","102.71","","","","-38","","NA"
"-133.48","68.30","INUVIK A","2202571","2023-03-05 11:00","2023","03","05","11:00","-29.1","","-32.4","","74","","","","8","","16","","24.1","","102.72","","","","-41","","Clear"
"-133.48","68.30","INUVIK A","2202571","2023-03-05 12:00","2023","03","05","12:00","-27.7","","-30.9","","75","","","","9","","12","","24.1","","102.71","","","","-37","","NA"
"-133.48","68.30","INUVIK A","2202571","2023-03-05 13:00","2023","03","05","13:00","-25.6","","-29.2","","73","","","","9","","9","","24.1","","102.68","","","","-33","","NA"
"-133.48","68.30","INUVIK A","2202571","2023-03-05 14:00","2023","03","05","14:00","-23.1","","-27.6","","67","","","","8","","9","","24.1","","102.68","","","","-30","","Clear"
"-133.48","68.30","INUVIK A","2202571","2023-03-05 15:00","2023","03","05","15:00","-22.4","","-27.3","","65","","","","9","","8","","24.1","","102.64","","","","-29","","NA"
"-133.48","68.30","INUVIK A","2202571","2023-03-05 16:00","2023","03","05","16:00","-23.0","","-27.9","","65","","","","9","","10","","24.1","","102.63","","","","-31","","NA"
"-133.48","68.30","INUVIK A","2202571","2023-03-05 17:00","2023","03","05","17:00","-23.4","","-28.4","","64","","","","10","","9","","24.1","","102.60","","","","-31","","Clear"
"-133.48","68.30","INUVIK A","2202571","2023-03-05 18:00","2023","03","05","18:00","-23.9","","-28.2","","68","","","","7","","9","","24.1","","102.60","","","","-31","","NA"
"-133.48","68.30","INUVIK A","2202571","2023-03-05 19:00","2023","03","05","19:00","-26.0","","-29.8","","71","","","","6","","8","","24.1","","102.57","","","","-33","","NA"
"-133.48","68.30","INUVIK A","2202571","2023-03-05 20:00","2023","03","05","20:00","-26.7","","-30.0","","74","","","","7","","9","","24.1","","102.56","","","","-35","","Clear"
"-133.48","68.30","INUVIK A","2202571","2023-03-05 21:00","2023","03","05","21:00","-26.8","","-29.8","","76","","","","7","","13","","24.1","","102.49","","","","-37","","NA"
"-133.48","68.30","INUVIK A","2202571","2023-03-05 22:00","2023","03","05","22:00","-28.1","","-31.2","","76","","","","8","","9","","24.1","","102.50","","","","-36","","NA"
"-133.48","68.30","INUVIK A","2202571","2023-03-05 23:00","2023","03","05","23:00","-27.6","","-30.2","","78","","","","6","","13","","24.1","","102.45","","","","-38","","Clear"
"-133.48","68.30","INUVIK A","2202571","2023-03-06 00:00","2023","03","06","00:00","-26.6","","-29.6","","76","","","","7","","12","","24.1","","102.43","","","","-36","","NA"
"-133.48","68.30","INUVIK A","2202571","2023-03-06 01:00","2023","03","06","01:00","-28.7","","-31.7","","76","","","","8","","8","","24.1","","102.43","","","","-36","","NA"
"-133.48","68.30","INUVIK A","2202571","2023-03-06 02:00","2023","03","06","02:00","-28.2","","-31.1","","77","","","","7","","10","","24.1","","102.40","","","","-37","","Clear"
"-133.48","68.30","INUVIK A","2202571","2023-03-06 03:00","2023","03","06","03:00","-26.6","","-29.6","","77","","","","7","","15","","24.1","","102.36","","","","-37","","NA"
"-133.48","68.30","INUVIK A","2202571","2023-03-06 04:00","2023","03","06","04:00","-27.4","","-29.9","","79","","","","6","","12","","24.1","","102.34","","","","-37","","NA"
"-133.48","68.30","INUVIK A","2202571","2023-03-06 05:00","2023","03","06","05:00","-28.8","","-31.7","","76","","","","8","","10","","24.1","","102.32","","","","-38","","Clear"
"-133.48","68.30","INUVIK A","2202571","2023-03-06 06:00","2023","03","06","06:00","-29.3","","-32.4","","75","","","","7","","13","","24.1","","102.28","","","","-40","","NA"
"-133.48","68.30","INUVIK A","2202571","2023-03-06 07:00","2023","03","06","07:00","-29.0","","-32.1","","75","","","","7","","11","","24.1","","102.26","","","","-38","","NA"
"-133.48","68.30","INUVIK A","2202571","2023-03-06 08:00","2023","03","06","08:00","-29.6","","-32.7","","75","","","","8","","8","","24.1","","102.25","","","","-38","","Clear"
"-133.48","68.30","INUVIK A","2202571","2023-03-06 09:00","2023","03","06","09:00","-28.6","","-31.7","","76","","","","7","","7","","24.1","","102.23","","","","-36","","NA"
"-133.48","68.30","INUVIK A","2202571","2023-03-06 10:00","2023","03","06","10:00","-27.7","","-30.8","","76","","","","7","","13","","24.1","","102.24","","","","-38","","NA"
"-133.48","68.30","INUVIK A","2202571","2023-03-06 11:00","2023","03","06","11:00","-27.4","","-30.6","","75","","","","8","","12","","24.1","","102.24","","","","-37","","Clear"
"-133.48","68.30","INUVIK A","2202571","2023-03-06 12:00","2023","03","06","12:00","-25.3","","-28.2","","77","","","","8","","14","","24.1","","102.24","","","","-35","","NA"
"-133.48","68.30","INUVIK A","2202571","2023-03-06 13:00","2023","03","06","13:00","-25.0","","-28.1","","76","","","","9","","16","","24.1","","102.24","","","","-36","","NA"
"-133.48","68.30","INUVIK A","2202571","2023-03-06 14:00","2023","03","06","14:00","-24.2","","-27.9","","72","","","","8","","12","","24.1","","102.23","","","","-33","","Clear"
"-133.48","68.30","INUVIK A","2202571","2023-03-06 15:00","2023","03","06","15:00","-23.4","","-27.6","","69","","","","9","","12","","24.1","","102.26","","","","-32","","NA"
"-133.48","68.30","INUVIK A","2202571","2023-03-06 16:00","2023","03","06","16:00","-22.4","","-26.8","","68","","","","11","","10","","24.1","","102.28","","","","-30","","NA"
"-133.48","68.30","INUVIK A","2202571","2023-03-06 17:00","2023","03","06","17:00","-23.3","","-27.7","","68","","","","12","","6","","24.1","","102.34","","","","-29","","Clear"
"-133.48","68.30","INUVIK A","2202571","2023-03-06 18:00","2023","03","06","18:00","-25.4","","-30.0","","66","","","","9","","13","","24.1","","102.36","","","","-35","","NA"
"-133.48","68.30","INUVIK A","2202571","2023-03-06 19:00","2023","03","06","19:00","-27.1","","-31.2","","69","","","","9","","7","","24.1","","102.38","","","","-34","","NA"
"-133.48","68.30","INUVIK A","2202571","2023-03-06 20:00","2023","03","06","20:00","-27.6","","-31.5","","70","","","","8","","16","","24.1","","102.45","","","","-39","","Clear"
"-133.48","68.30","INUVIK A","2202571","2023-03-06 21:00","2023","03","06","21:00","-28.8","","-32.5","","71","","","","36","","2","","24.1","","102.48","","","","-31","","NA"
"-133.48","68.30","INUVIK A","2202571","2023-03-06 22:00","2023","03","06","22:00","-29.6","","-33.2","","72","","","","9","","14","","24.1","","102.53","","","","-41","","NA"
"-133.48","68.30","INUVIK A","2202571","2023-03-06 23:00","2023","03","06","23:00","-29.9","","-33.5","","72","","","","9","","13","","24.1","","102.57","","","","-40","","Clear"
"-133.48","68.30","INUVIK A","2202571","2023-03-07 00:00","2023","03","07","00:00","-29.0","","-32.2","","75","","","","8","","14","","24.1","","102.62","","","","-40","","NA"
"-133.48","68.30","INUVIK A","2202571","2023-03-07 01:00","2023","03","07","01:00","-26.2","","-29.1","","77","","","","8","","14","","24.1","","102.65","","","","-36","","NA"
"-133.48","68.30","INUVIK A","2202571","2023-03-07 02:00","2023","03","07","02:00","-27.4","","-30.2","","78","","","","7","","14","","24.1","","102.69","","","","-38","","Clear"
"-133.48","68.30","INUVIK A","2202571","2023-03-07 03:00","2023","03","07","03:00","-27.8","","-30.9","","76","","","","6","","16","","24.1","","102.73","","","","-39","","NA"
"-133.48","68.30","INUVIK A","2202571","2023-03-07 04:00","2023","03","07","04:00","-29.9","","-33.0","","75","","","","8","","14","","24.1","","102.75","","","","-41","","NA"
"-133.48","68.30","INUVIK A","2202571","2023-03-07 05:00","2023","03","07","05:00","-26.8","","-29.9","","75","","","","8","","16","","24.1","","102.78","","","","-38","","Clear"
"-133.48","68.30","INUVIK A","2202571","2023-03-07 06:00","2023","03","07","06:00","-26.8","","-30.3","","73","","","","7","","11","","24.1","","102.81","","","","-36","","NA"
"-133.48","68.30","INUVIK A","2202571","2023-03-07 07:00","2023","03","07","07:00","-27.0","","-30.3","","75","","","","7","","15","","24.1","","102.82","","","","-38","","NA"
"-133.48","68.30","INUVIK A","2202571","2023-03-07 08:00","2023","03","07","08:00","-26.5","","-29.9","","74","","","","7","","16","","24.1","","102.82","","","","-37","","Clear"
"-133.48","68.30","INUVIK A","2202571","2023-03-07 09:00","2023","03","07","09:00","-26.4","","-29.7","","74","","","","6","","14","","24.1","","102.83","","","","-37","","NA"
"-133.48","68.30","INUVIK A","2202571","2023-03-07 10:00","2023","03","07","10:00","-24.5","","-28.2","","72","","","","9","","16","","24.1","","102.84","","","","-35","","NA"
"-133.48","68.30","INUVIK A","2202571","2023-03-07 11:00","2023","03","07","11:00","-24.0","","-28.2","","69","","","","10","","14","","24.1","","102.85","","","","-34","","Clear"
"-133.48","68.30","INUVIK A","2202571","2023-03-07 12:00","2023","03","07","12:00","-21.2","","-26.2","","65","","","","12","","13","","24.1","","102.88","","","","-30","","NA"
"-133.48","68.30","INUVIK A","2202571","2023-03-07 13:00","2023","03","07","13:00","-20.1","","-25.1","","64","","","","12","","12","","24.1","","102.89","","","","-28","","NA"
"-133.48","68.30","INUVIK A","2202571","2023-03-07 14:00","2023","03","07","14:00","-18.8","","-24.4","","62","","","","13","","16","","24.1","","102.89","","","","-28","","Clear"
"-133.48","68.30","INUVIK A","2202571","2023-03-07 15:00","2023","03","07","15:00","-17.7","","-23.3","","62","","","","14","","14","","24.1","","102.89","","","","-26","","NA"
"-133.48","68.30","INUVIK A","2202571","2023-03-07 16:00","2023","03","07","16:00","-16.9","","-22.9","","60","","","","15","","13","","24.1","","102.88","","","","-25","","NA"
"-133.48","68.30","INUVIK A","2202571","2023-03-07 17:00","2023","03","07","17:00","-16.9","","-22.7","","61","","","","14","","16","","24.1","","102.87","","","","-26","","Mainly Clear"
"-133.48","68.30","INUVIK A","2202571","2023-03-07 18:00","2023","03","07","18:00","-17.1","","-22.5","","63","","","","14","","16","","24.1","","102.83","","","","-26","","NA"
"-133.48","68.30","INUVIK A","2202571","2023-03-07 19:00","2023","03","07","19:00","-17.6","","-22.5","","66","","","","14","","14","","24.1","","102.87","","","","-26","","NA"
"-133.48","68.30","INUVIK A","2202571","2023-03-07 20:00","2023","03","07","20:00","-17.9","","-22.8","","66","","","","14","","14","","24.1","","102.85","","","","-26","","Mainly Clear"
"-133.48","68.30","INUVIK A","2202571","2023-03-07 21:00","2023","03","07","21:00","-18.4","","-23.2","","67","","","","15","","15","","24.1","","102.87","","","","-27","","NA"
"-133.48","68.30","INUVIK A","2202571","2023-03-07 22:00","2023","03","07","22:00","-17.8","","-22.8","","65","","","","15","","19","","24.1","","102.88","","","","-27","","Blowing Snow"
"-133.48","68.30","INUVIK A","2202571","2023-03-07 23:00","2023","03","07","23:00","-17.7","","-22.8","","65","","","","15","","17","","24.1","","102.90","","","","-27","","Blowing Snow"
"-133.48","68.30","INUVIK A","2202571","2023-03-08 00:00","2023","03","08","00:00","-18.1","","-23.4","","64","","","","15","","8","","24.1","","102.91","","","","-24","","NA"
"-133.48","68.30","INUVIK A","2202571","2023-03-08 01:00","2023","03","08","01:00","-18.1","","-23.3","","64","","","","15","","13","","24.1","","102.86","","","","-26","","NA"
"-133.48","68.30","INUVIK A","2202571","2023-03-08 02:00","2023","03","08","02:00","-18.3","","-23.2","","66","","","","15","","19","","24.1","","102.80","","","","-28","","Clear"
"-133.48","68.30","INUVIK A","2202571","2023-03-08 03:00","2023","03","08","03:00","-18.1","","-23.3","","64","","","","16","","11","","24.1","","102.75","","","","-25","","NA"
"-133.48","68.30","INUVIK A","2202571","2023-03-08 04:00","2023","03","08","04:00","-17.9","","-22.9","","66","","","","16","","20","","24.1","","102.78","","","","-28","","NA"
"-133.48","68.30","INUVIK A","2202571","2023-03-08 05:00","2023","03","08","05:00","-18.8","","-23.5","","67","","","","15","","15","","24.1","","102.75","","","","-28","","Clear"
"-133.48","68.30","INUVIK A","2202571","2023-03-08 06:00","2023","03","08","06:00","-19.3","","-24.0","","67","","","","15","","19","","24.1","","102.66","","","","-29","","Blowing Snow"
"-133.48","68.30","INUVIK A","2202571","2023-03-08 07:00","2023","03","08","07:00","-19.7","","-24.4","","67","","","","15","","22","","24.1","","102.64","","","","-31","","Blowing Snow"
"-133.48","68.30","INUVIK A","2202571","2023-03-08 08:00","2023","03","08","08:00","-20.1","","-24.9","","67","","","","16","","16","","24.1","","102.66","","","","-30","","Blowing Snow"
"-133.48","68.30","INUVIK A","2202571","2023-03-08 09:00","2023","03","08","09:00","-20.4","","-24.9","","68","","","","14","","24","","24.1","","102.62","","","","-32","","Blowing Snow"
"-133.48","68.30","INUVIK A","2202571","2023-03-08 10:00","2023","03","08","10:00","-18.8","","-24.2","","63","","","","14","","16","","24.1","","102.54","","","","-28","","Blowing Snow"
"-133.48","68.30","INUVIK A","2202571","2023-03-08 11:00","2023","03","08","11:00","-17.7","","-23.5","","61","","","","16","","18","","24.1","","102.47","","","","-27","","Blowing Snow"
"-133.48","68.30","INUVIK A","2202571","2023-03-08 12:00","2023","03","08","12:00","-16.6","","-22.9","","59","","","","15","","25","","24.1","","102.41","","","","-27","","Blowing Snow"
"-133.48","68.30","INUVIK A","2202571","2023-03-08 13:00","2023","03","08","13:00","-15.9","","-22.2","","59","","","","15","","21","","24.1","","102.32","","","","-26","","Blowing Snow"
"-133.48","68.30","INUVIK A","2202571","2023-03-08 14:00","2023","03","08","14:00","-15.3","","-21.8","","59","","","","15","","23","","24.1","","102.24","","","","-25","","Blowing Snow"
"-133.48","68.30","INUVIK A","2202571","2023-03-08 15:00","2023","03","08","15:00","-14.7","","-21.2","","58","","","","13","","23","","24.1","","102.10","","","","-24","","Blowing Snow"
"-133.48","68.30","INUVIK A","2202571","2023-03-08 16:00","2023","03","08","16:00","-14.1","","-20.9","","57","","","","16","","17","","24.1","","102.03","","","","-22","","NA"
"-133.48","68.30","INUVIK A","2202571","2023-03-08 17:00","2023","03","08","17:00","-14.1","","-20.5","","59","","","","14","","13","","24.1","","101.95","","","","-21","","Mainly Clear"
"-133.48","68.30","INUVIK A","2202571","2023-03-08 18:00","2023","03","08","18:00","-14.5","","-20.7","","60","","","","14","","21","","24.1","","101.85","","","","-24","","NA"
"-133.48","68.30","INUVIK A","2202571","2023-03-08 19:00","2023","03","08","19:00","-14.7","","-20.4","","63","","","","14","","18","","24.1","","101.79","","","","-23","","NA"
"-133.48","68.30","INUVIK A","2202571","2023-03-08 20:00","2023","03","08","20:00","-14.6","","-20.3","","62","","","","15","","18","","24.1","","101.73","","","","-23","","Mostly Cloudy"
"-133.48","68.30","INUVIK A","2202571","2023-03-08 21:00","2023","03","08","21:00","-14.6","","-20.2","","63","","","","15","","18","","24.1","","101.66","","","","-23","","NA"
"-133.48","68.30","INUVIK A","2202571","2023-03-08 22:00","2023","03","08","22:00","-14.8","","-20.2","","64","","","","14","","18","","24.1","","101.58","","","","-23","","NA"
"-133.48","68.30","INUVIK A","2202571","2023-03-08 23:00","2023","03","08","23:00","-15.2","","-20.6","","64","","","","15","","16","","24.1","","101.51","","","","-23","","Mainly Clear"
"-133.48","68.30","INUVIK A","2202571","2023-03-09 00:00","2023","03","09","00:00","-15.4","","-20.6","","65","","","","14","","16","","24.1","","101.46","","","","-24","","NA"
"-133.48","68.30","INUVIK A","2202571","2023-03-09 01:00","2023","03","09","01:00","-15.8","","-20.8","","66","","","","14","","14","","24.1","","101.43","","","","-24","","NA"
"-133.48","68.30","INUVIK A","2202571","2023-03-09 02:00","2023","03","09","02:00","-16.1","","-21.0","","66","","","","16","","10","","24.1","","101.42","","","","-23","","Mostly Cloudy"
"-133.48","68.30","INUVIK A","2202571","2023-03-09 03:00","2023","03","09","03:00","-16.3","","-21.2","","66","","","","15","","12","","24.1","","101.37","","","","-24","","NA"
"-133.48","68.30","INUVIK A","2202571","2023-03-09 04:00","2023","03","09","04:00","-16.5","","-21.4","","66","","","","13","","8","","24.1","","101.37","","","","-22","","NA"
"-133.48","68.30","INUVIK A","2202571","2023-03-09 05:00","2023","03","09","05:00","-16.9","","-21.5","","68","","","","18","","3","","24.1","","101.41","","","","-19","","Mostly Cloudy"
"-133.48","68.30","INUVIK A","2202571","2023-03-09 06:00","2023","03","09","06:00","-16.9","","-21.2","","70","","","","17","","8","","24.1","","101.42","","","","-23","","NA"
"-133.48","68.30","INUVIK A","2202571","2023-03-09 07:00","2023","03","09","07:00","-17.1","","-19.9","","79","","","","15","","8","","19.3","","101.45","","","","-23","","Snow"
"-133.48","68.30","INUVIK A","2202571","2023-03-09 08:00","2023","03","09","08:00","-17.1","","-18.7","","88","","","","17","","5","","6.4","","101.52","","","","-21","","Snow,Fog"
"-133.48","68.30","INUVIK A","2202571","2023-03-09 09:00","2023","03","09","09:00","-17.1","","-18.9","","87","","","","23","","5","","4.8","","101.63","","","","-21","","Snow,Fog"
"-133.48","68.30","INUVIK A","2202571","2023-03-09 10:00","2023","03","09","10:00","-16.7","","-18.6","","85","","","","26","","5","","4.8","","101.71","","","","-21","","Snow,Fog"
"-133.48","68.30","INUVIK A","2202571","2023-03-09 11:00","2023","03","09","11:00","-16.0","","-17.9","","85","","","","28","","10","","4.8","","101.79","","","","-22","","Snow"
"-133.48","68.30","INUVIK A","2202571","2023-03-09 12:00","2023","03","09","12:00","-13.8","","-15.5","","87","","","","31","","18","","16.1","","101.85","","","","-22","","Snow"
"-133.48","68.30","INUVIK A","2202571","2023-03-09 13:00","2023","03","09","13:00","-12.6","","-14.9","","83","","","","32","","34","","6.4","","101.94","","","","-23","","Snow,Blowing Snow"
"-133.48","68.30","INUVIK A","2202571","2023-03-09 14:00","2023","03","09","14:00","-12.9","","-16.2","","77","","","","32","","26","","6.4","","102.06","","","","-23","","Snow,Blowing Snow"
"-133.48","68.30","INUVIK A","2202571","2023-03-09 15:00","2023","03","09","15:00","-13.2","","-16.6","","75","","","","33","","21","","8.1","","102.14","","","","-22","","Snow,Blowing Snow"
"-133.48","68.30","INUVIK A","2202571","2023-03-09 16:00","2023","03","09","16:00","-13.7","","-17.9","","71","","","","32","","36","","12.9","","102.23","","","","-25","","Snow,Blowing Snow"
"-133.48","68.30","INUVIK A","2202571","2023-03-09 17:00","2023","03","09","17:00","-14.1","","-18.2","","72","","","","32","","31","","12.9","","102.31","","","","-25","","Snow,Blowing Snow"
"-133.48","68.30","INUVIK A","2202571","2023-03-09 18:00","2023","03","09","18:00","-14.6","","-18.2","","74","","","","32","","32","","4.8","","102.37","","","","-26","","Snow,Blowing Snow"
"-133.48","68.30","INUVIK A","2202571","2023-03-09 19:00","2023","03","09","19:00","-15.2","","-18.4","","76","","","","32","","30","","4.8","","102.45","","","","-26","","Snow,Blowing Snow"
"-133.48","68.30","INUVIK A","2202571","2023-03-09 20:00","2023","03","09","20:00","-15.7","","-18.8","","77","","","","32","","25","","4.8","","102.54","","","","-26","","Snow,Blowing Snow"
"-133.48","68.30","INUVIK A","2202571","2023-03-09 21:00","2023","03","09","21:00","-16.2","","-19.2","","78","","","","32","","25","","4.0","","102.59","","","","-27","","Snow,Blowing Snow"
"-133.48","68.30","INUVIK A","2202571","2023-03-09 22:00","2023","03","09","22:00","-16.6","","-19.9","","76","","","","31","","25","","16.1","","102.64","","","","-27","","Snow,Blowing Snow"
"-133.48","68.30","INUVIK A","2202571","2023-03-09 23:00","2023","03","09","23:00","-17.4","","-20.4","","77","","","","32","","23","","24.1","","102.68","","","","-28","","Snow,Blowing Snow"
"-133.48","68.30","INUVIK A","2202571","2023-03-10 00:00","2023","03","10","00:00","-17.7","","-20.8","","77","","","","31","","26","","24.1","","102.70","","","","-29","","Snow,Blowing Snow"
"-133.48","68.30","INUVIK A","2202571","2023-03-10 01:00","2023","03","10","01:00","-18.0","","-21.1","","77","","","","32","","16","","24.1","","102.72","","","","-27","","Snow,Blowing Snow"
"-133.48","68.30","INUVIK A","2202571","2023-03-10 02:00","2023","03","10","02:00","-17.7","","-20.8","","77","","","","32","","21","","24.1","","102.76","","","","-28","","Snow,Blowing Snow"
"-133.48","68.30","INUVIK A","2202571","2023-03-10 03:00","2023","03","10","03:00","-17.7","","-20.9","","77","","","","32","","34","","24.1","","102.77","","","","-30","","Snow,Blowing Snow"
"-133.48","68.30","INUVIK A","2202571","2023-03-10 04:00","2023","03","10","04:00","-17.8","","-20.8","","77","","","","31","","25","","24.1","","102.80","","","","-29","","Snow,Blowing Snow"
"-133.48","68.30","INUVIK A","2202571","2023-03-10 05:00","2023","03","10","05:00","-17.8","","-20.7","","79","","","","30","","18","","24.1","","102.80","","","","-27","","Snow,Blowing Snow"
"-133.48","68.30","INUVIK A","2202571","2023-03-10 06:00","2023","03","10","06:00","-17.8","","-20.4","","80","","","","29","","12","","24.1","","102.81","","","","-25","","Snow"
"-133.48","68.30","INUVIK A","2202571","2023-03-10 07:00","2023","03","10","07:00","-17.5","","-19.9","","82","","","","26","","9","","24.1","","102.80","","","","-24","","Snow"
"-133.48","68.30","INUVIK A","2202571","2023-03-10 08:00","2023","03","10","08:00","-17.3","","-19.6","","83","","","","29","","13","","24.1","","102.80","","","","-25","","Snow"
"-133.48","68.30","INUVIK A","2202571","2023-03-10 09:00","2023","03","10","09:00","-17.2","","-19.5","","83","","","","31","","16","","16.1","","102.81","","","","-26","","Snow,Blowing Snow"
"-133.48","68.30","INUVIK A","2202571","2023-03-10 10:00","2023","03","10","10:00","-17.5","","-19.7","","83","","","","30","","24","","16.1","","102.78","","","","-28","","Snow,Blowing Snow"
"-133.48","68.30","INUVIK A","2202571","2023-03-10 11:00","2023","03","10","11:00","-17.6","","-20.1","","81","","","","29","","17","","24.1","","102.79","","","","-27","","Snow,Blowing Snow"
"-133.48","68.30","INUVIK A","2202571","2023-03-10 12:00","2023","03","10","12:00","-17.4","","-20.2","","79","","","","28","","14","","24.1","","102.77","","","","-26","","Snow"
"-133.48","68.30","INUVIK A","2202571","2023-03-10 13:00","2023","03","10","13:00","-16.8","","-20.6","","73","","","","29","","18","","24.1","","102.75","","","","-26","","Blowing Snow"
"-133.48","68.30","INUVIK A","2202571","2023-03-10 14:00","2023","03","10","14:00","-15.7","","-20.8","","66","","","","29","","17","","24.1","","102.71","","","","-24","","Blowing Snow"
"-133.48","68.30","INUVIK A","2202571","2023-03-10 15:00","2023","03","10","15:00","-14.7","","-21.9","","55","","","","29","","13","","24.1","","102.65","","","","-22","","NA"
"-133.48","68.30","INUVIK A","2202571","2023-03-10 16:00","2023","03","10","16:00","-14.0","","-22.1","","51","","","","29","","16","","24.1","","102.62","","","","-22","","NA"
"-133.48","68.30","INUVIK A","2202571","2023-03-10 17:00","2023","03","10","17:00","-13.9","","-22.3","","50","","","","27","","8","","24.1","","102.61","","","","-19","","Clear"
"-133.48","68.30","INUVIK A","2202571","2023-03-10 18:00","2023","03","10","18:00","-14.5","","-21.1","","58","","","","29","","10","","24.1","","102.55","","","","-21","","NA"
"-133.48","68.30","INUVIK A","2202571","2023-03-10 19:00","2023","03","10","19:00","-15.9","","-21.8","","61","","","","36","","1","","24.1","","102.52","","","","-17","","NA"
"-133.48","68.30","INUVIK A","2202571","2023-03-10 20:00","2023","03","10","20:00","-18.8","","-22.9","","70","","","","6","","5","","24.1","","102.50","","","","-23","","Clear"
"-133.48","68.30","INUVIK A","2202571","2023-03-10 21:00","2023","03","10","21:00","-21.4","","-24.6","","76","","","","36","","2","","24.1","","102.49","","","","-23","","NA"
"-133.48","68.30","INUVIK A","2202571","2023-03-10 22:00","2023","03","10","22:00","-21.8","","-24.4","","80","","","","6","","7","","24.1","","102.45","","","","-28","","NA"
"-133.48","68.30","INUVIK A","2202571","2023-03-10 23:00","2023","03","10","23:00","-21.8","","-24.1","","82","","","","7","","7","","24.1","","102.42","","","","-28","","Mainly Clear"
"-133.48","68.30","INUVIK A","2202571","2023-03-11 00:00","2023","03","11","00:00","-21.0","","-23.1","","83","","","","6","","7","","24.1","","102.40","","","","-27","","NA"
"-133.48","68.30","INUVIK A","2202571","2023-03-11 01:00","2023","03","11","01:00","-21.0","","-23.7","","79","","","","10","","3","","24.1","","102.37","","","","-24","","NA"
"-133.48","68.30","INUVIK A","2202571","2023-03-11 02:00","2023","03","11","02:00","-22.7","","-25.4","","79","","","","4","","3","","24.1","","102.36","","","","-25","","Clear"
"-133.48","68.30","INUVIK A","2202571","2023-03-11 03:00","2023","03","11","03:00","-23.1","","-25.7","","80","","","","5","","4","","24.1","","102.34","","","","-27","","NA"
"-133.48","68.30","INUVIK A","2202571","2023-03-11 04:00","2023","03","11","04:00","-22.4","","-25.1","","79","","","","9","","6","","24.1","","102.32","","","","-28","","NA"
"-133.48","68.30","INUVIK A","2202571","2023-03-11 05:00","2023","03","11","05:00","-21.5","","-24.4","","78","","","","3","","3","","24.1","","102.30","","","","-24","","Clear"
"-133.48","68.30","INUVIK A","2202571","2023-03-11 06:00","2023","03","11","06:00","-19.5","","-22.2","","79","","","","13","","6","","24.1","","102.27","","","","-24","","NA"
"-133.48","68.30","INUVIK A","2202571","2023-03-11 07:00","2023","03","11","07:00","-19.5","","-22.6","","76","","","","12","","6","","24.1","","102.25","","","","-24","","NA"
"-133.48","68.30","INUVIK A","2202571","2023-03-11 08:00","2023","03","11","08:00","-18.8","","-22.1","","75","","","","3","","5","","24.1","","102.26","","","","-23","","Mostly Cloudy"
"-133.48","68.30","INUVIK A","2202571","2023-03-11 09:00","2023","03","11","09:00","-16.9","","-19.9","","78","","","","36","","1","","24.1","","102.27","","","","-18","","NA"
"-133.48","68.30","INUVIK A","2202571","2023-03-11 10:00","2023","03","11","10:00","-17.2","","-20.6","","75","","","","21","","9","","24.1","","102.27","","","","-23","","NA"
"-133.48","68.30","INUVIK A","2202571","2023-03-11 11:00","2023","03","11","11:00","-15.1","","-19.7","","68","","","","36","","1","","24.1","","102.26","","","","-16","","Clear"
"-133.48","68.30","INUVIK A","2202571","2023-03-11 12:00","2023","03","11","12:00","-16.4","","-20.9","","68","","","","26","","7","","24.1","","102.27","","","","-21","","NA"
"-133.48","68.30","INUVIK A","2202571","2023-03-11 13:00","2023","03","11","13:00","-14.4","","-20.1","","62","","","","26","","3","","24.1","","102.24","","","","-17","","NA"
"-133.48","68.30","INUVIK A","2202571","2023-03-11 14:00","2023","03","11","14:00","-12.7","","-19.2","","59","","","","16","","9","","24.1","","102.20","","","","-18","","Mainly Clear"
"-133.48","68.30","INUVIK A","2202571","2023-03-11 15:00","2023","03","11","15:00","-12.0","","-18.8","","57","","","","20","","7","","24.1","","102.19","","","","-16","","NA"
"-133.48","68.30","INUVIK A","2202571","2023-03-11 16:00","2023","03","11","16:00","-11.3","","-18.8","","54","","","","22","","4","","24.1","","102.16","","","","-14","","NA"
"-133.48","68.30","INUVIK A","2202571","2023-03-11 17:00","2023","03","11","17:00","-11.1","","-18.5","","55","","","","26","","5","","24.1","","102.12","","","","-14","","Mainly Clear"
"-133.48","68.30","INUVIK A","2202571","2023-03-11 18:00","2023","03","11","18:00","-12.2","","-18.9","","58","","","","24","","5","","24.1","","102.10","","","","-15","","NA"
"-133.48","68.30","INUVIK A","2202571","2023-03-11 19:00","2023","03","11","19:00","-12.3","","-18.9","","58","","","","36","","2","","24.1","","102.07","","","","-14","","NA"
"-133.48","68.30","INUVIK A","2202571","2023-03-11 20:00","2023","03","11","20:00","-17.0","","-21.4","","70","","","","9","","9","","24.1","","102.02","","","","-23","","Mainly Clear"
"-133.48","68.30","INUVIK A","2202571","2023-03-11 21:00","2023","03","11","21:00","-16.4","","-20.3","","72","","","","10","","6","","24.1","","101.99","","","","-21","","NA"
"-133.48","68.30","INUVIK A","2202571","2023-03-11 22:00","2023","03","11","22:00","-18.1","","-21.9","","72","","","","8","","6","","24.1","","101.93","","","","-23","","NA"
"-133.48","68.30","INUVIK A","2202571","2023-03-11 23:00","2023","03","11","23:00","-18.5","","-22.1","","73","","","","6","","4","","24.1","","101.88","","","","-22","","Clear"
"-133.48","68.30","INUVIK A","2202571","2023-03-12 00:00","2023","03","12","00:00","-18.6","","-22.2","","73","","","","8","","7","","24.1","","101.80","","","","-24","","NA"
"-133.48","68.30","INUVIK A","2202571","2023-03-12 01:00","2023","03","12","01:00","-19.1","","-22.1","","77","","","","9","","10","","24.1","","101.75","","","","-26","","NA"
"-133.48","68.30","INUVIK A","2202571","2023-03-12 02:00","2023","03","12","02:00","-18.7","","-21.9","","77","","","","7","","9","","24.1","","101.68","","","","-25","","Clear"
"-133.48","68.30","INUVIK A","2202571","2023-03-12 03:00","2023","03","12","03:00","-18.1","","-21.9","","72","","","","7","","12","","24.1","","101.60","","","","-26","","NA"
"-133.48","68.30","INUVIK A","2202571","2023-03-12 04:00","2023","03","12","04:00","-18.6","","-21.9","","75","","","","7","","14","","24.1","","101.51","","","","-27","","NA"
"-133.48","68.30","INUVIK A","2202571","2023-03-12 05:00","2023","03","12","05:00","-17.6","","-21.5","","72","","","","8","","16","","24.1","","101.46","","","","-26","","Clear"
"-133.48","68.30","INUVIK A","2202571","2023-03-12 06:00","2023","03","12","06:00","-17.6","","-22.3","","67","","","","9","","17","","24.1","","101.36","","","","-27","","NA"
"-133.48","68.30","INUVIK A","2202571","2023-03-12 07:00","2023","03","12","07:00","-17.4","","-22.4","","65","","","","9","","17","","24.1","","101.29","","","","-26","","NA"
"-133.48","68.30","INUVIK A","2202571","2023-03-12 08:00","2023","03","12","08:00","-16.8","","-22.4","","62","","","","8","","13","","24.1","","101.24","","","","-25","","Mostly Cloudy"
"-133.48","68.30","INUVIK A","2202571","2023-03-12 09:00","2023","03","12","09:00","-16.5","","-22.3","","61","","","","10","","12","","24.1","","101.19","","","","-24","","NA"
"-133.48","68.30","INUVIK A","2202571","2023-03-12 10:00","2023","03","12","10:00","-16.2","","-22.2","","60","","","","7","","4","","24.1","","101.15","","","","-19","","NA"
"-133.48","68.30","INUVIK A","2202571","2023-03-12 11:00","2023","03","12","11:00","-16.5","","-21.8","","64","","","","27","","13","","24.1","","101.17","","","","-24","","Mostly Cloudy"
"-133.48","68.30","INUVIK A","2202571","2023-03-12 12:00","2023","03","12","12:00","-17.0","","-22.2","","65","","","","27","","5","","24.1","","101.20","","","","-21","","NA"
"-133.48","68.30","INUVIK A","2202571","2023-03-12 13:00","2023","03","12","13:00","-16.7","","-22.1","","64","","","","29","","8","","24.1","","101.23","","","","-22","","NA"
"-133.48","68.30","INUVIK A","2202571","2023-03-12 14:00","2023","03","12","14:00","-16.2","","-20.8","","69","","","","29","","9","","24.1","","101.26","","","","-22","","Snow"
"-133.48","68.30","INUVIK A","2202571","2023-03-12 15:00","2023","03","12","15:00","-15.6","","-19.4","","73","","","","27","","12","","24.1","","101.26","","","","-23","","Snow"
"-133.48","68.30","INUVIK A","2202571","2023-03-12 16:00","2023","03","12","16:00","-14.5","","-17.8","","76","","","","30","","20","","24.1","","101.27","","","","-24","","Snow,Blowing Snow"
"-133.48","68.30","INUVIK A","2202571","2023-03-12 17:00","2023","03","12","17:00","-15.8","","-19.5","","74","","","","31","","19","","16.1","","101.33","","","","-25","","Snow,Blowing Snow"
"-133.48","68.30","INUVIK A","2202571","2023-03-12 18:00","2023","03","12","18:00","-16.8","","-20.5","","73","","","","31","","21","","16.1","","101.35","","","","-27","","Snow,Blowing Snow"
"-133.48","68.30","INUVIK A","2202571","2023-03-12 19:00","2023","03","12","19:00","-17.6","","-20.9","","76","","","","30","","18","","6.4","","101.40","","","","-27","","Snow,Blowing Snow"
"-133.48","68.30","INUVIK A","2202571","2023-03-12 20:00","2023","03","12","20:00","-18.4","","-21.6","","77","","","","32","","19","","6.4","","101.44","","","","-28","","Snow,Blowing Snow"
"-133.48","68.30","INUVIK A","2202571","2023-03-12 21:00","2023","03","12","21:00","-18.8","","-21.8","","77","","","","31","","14","","6.4","","101.47","","","","-27","","Snow"
"-133.48","68.30","INUVIK A","2202571","2023-03-12 22:00","2023","03","12","22:00","-19.1","","-22.4","","75","","","","32","","14","","16.1","","101.50","","","","-28","","Snow"
"-133.48","68.30","INUVIK A","2202571","2023-03-12 23:00","2023","03","12","23:00","-19.2","","-22.4","","77","","","","32","","18","","16.1","","101.52","","","","-29","","Snow,Blowing Snow"
"-133.48","68.30","INUVIK A","2202571","2023-03-13 00:00","2023","03","13","00:00","-19.8","","-23.0","","76","","","","32","","17","","16.1","","101.54","","","","-29","","Snow,Blowing Snow"
"-133.48","68.30","INUVIK A","2202571","2023-03-13 01:00","2023","03","13","01:00","-20.4","","-23.7","","76","","","","31","","14","","16.1","","101.60","","","","-29","","Snow,Blowing Snow"
"-133.48","68.30","INUVIK A","2202571","2023-03-13 02:00","2023","03","13","02:00","-21.1","","-24.5","","75","","","","32","","14","","16.1","","101.63","","","","-30","","Snow,Blowing Snow"
"-133.48","68.30","INUVIK A","2202571","2023-03-13 03:00","2023","03","13","03:00","-21.6","","-24.9","","75","","","","31","","14","","16.1","","101.64","","","","-31","","Snow,Blowing Snow"
"-133.48","68.30","INUVIK A","2202571","2023-03-13 04:00","2023","03","13","04:00","-22.2","","-25.4","","75","","","","32","","17","","24.1","","101.68","","","","-32","","Snow,Blowing Snow"
"-133.48","68.30","INUVIK A","2202571","2023-03-13 05:00","2023","03","13","05:00","-22.6","","-25.8","","76","","","","32","","18","","11.3","","101.69","","","","-33","","Snow,Blowing Snow"
"-133.48","68.30","INUVIK A","2202571","2023-03-13 06:00","2023","03","13","06:00","-23.0","","-26.1","","76","","","","30","","10","","12.9","","101.72","","","","-31","","Snow"
"-133.48","68.30","INUVIK A","2202571","2023-03-13 07:00","2023","03","13","07:00","-23.5","","-26.7","","75","","","","30","","15","","16.1","","101.72","","","","-33","","Snow"
"-133.48","68.30","INUVIK A","2202571","2023-03-13 08:00","2023","03","13","08:00","-23.8","","-26.9","","76","","","","31","","12","","11.3","","101.70","","","","-33","","Snow"
"-133.48","68.30","INUVIK A","2202571","2023-03-13 09:00","2023","03","13","09:00","-24.0","","-27.3","","75","","","","31","","4","","11.3","","101.72","","","","-28","","Snow"
"-133.48","68.30","INUVIK A","2202571","2023-03-13 10:00","2023","03","13","10:00","-23.5","","-27.2","","72","","","","31","","12","","16.1","","101.70","","","","-32","","Snow"
"-133.48","68.30","INUVIK A","2202571","2023-03-13 11:00","2023","03","13","11:00","-23.0","","-27.2","","69","","","","30","","11","","19.3","","101.69","","","","-31","","Snow"
"-133.48","68.30","INUVIK A","2202571","2023-03-13 12:00","2023","03","13","12:00","-22.5","","-27.0","","68","","","","29","","10","","19.3","","101.66","","","","-30","","Snow"
"-133.48","68.30","INUVIK A","2202571","2023-03-13 13:00","2023","03","13","13:00","-22.5","","-27.3","","66","","","","29","","8","","24.1","","101.64","","","","-29","","NA"
"-133.48","68.30","INUVIK A","2202571","2023-03-13 14:00","2023","03","13","14:00","-21.7","","-27.1","","62","","","","29","","10","","24.1","","101.61","","","","-29","","Mostly Cloudy"
"-133.48","68.30","INUVIK A","2202571","2023-03-13 15:00","2023","03","13","15:00","-22.1","","-27.5","","62","","","","27","","8","","24.1","","101.59","","","","-29","","NA"
"-133.48","68.30","INUVIK A","2202571","2023-03-13 16:00","2023","03","13","16:00","-22.2","","-27.6","","62","","","","25","","9","","24.1","","101.53","","","","-29","","NA"
"-133.48","68.30","INUVIK A","2202571","2023-03-13 17:00","2023","03","13","17:00","-22.2","","-27.7","","62","","","","24","","9","","24.1","","101.48","","","","-29","","Mainly Clear"
"-133.48","68.30","INUVIK A","2202571","2023-03-13 18:00","2023","03","13","18:00","-22.5","","-28.0","","62","","","","22","","8","","24.1","","101.45","","","","-29","","NA"
"-133.48","68.30","INUVIK A","2202571","2023-03-13 19:00","2023","03","13","19:00","-22.3","","-28.0","","60","","","","29","","4","","24.1","","101.42","","","","-26","","NA"
"-133.48","68.30","INUVIK A","2202571","2023-03-13 20:00","2023","03","13","20:00","-24.8","","-29.5","","66","","","","36","","3","","24.1","","101.39","","","","-28","","Mainly Clear"
"-133.48","68.30","INUVIK A","2202571","2023-03-13 21:00","2023","03","13","21:00","-28.0","","-31.2","","75","","","","6","","7","","24.1","","101.39","","","","-35","","NA"
"-133.48","68.30","INUVIK A","2202571","2023-03-13 22:00","2023","03","13","22:00","-29.1","","-32.1","","76","","","","6","","4","","24.1","","101.38","","","","-34","","NA"
"-133.48","68.30","INUVIK A","2202571","2023-03-13 23:00","2023","03","13","23:00","-30.4","","-33.5","","75","","","","6","","6","","24.1","","101.36","","","","-37","","Clear"
"-133.48","68.30","INUVIK A","2202571","2023-03-14 00:00","2023","03","14","00:00","-30.1","","-33.1","","75","","","","6","","5","","24.1","","101.36","","","","-36","","NA"
"-133.48","68.30","INUVIK A","2202571","2023-03-14 01:00","2023","03","14","01:00","-30.6","","-33.6","","76","","","","7","","5","","24.1","","101.35","","","","-36","","NA"
"-133.48","68.30","INUVIK A","2202571","2023-03-14 02:00","2023","03","14","02:00","-31.6","","-34.8","","74","","","","0","","1","","24.1","","101.36","","","","-33","","Clear"
"-133.48","68.30","INUVIK A","2202571","2023-03-14 03:00","2023","03","14","03:00","-30.4","","-33.8","","73","","","","36","","3","","24.1","","101.37","","","","-34","","NA"
"-133.48","68.30","INUVIK A","2202571","2023-03-14 04:00","2023","03","14","04:00","-31.5","","-34.7","","74","","","","36","","2","","24.1","","101.38","","","","-34","","NA"
"-133.48","68.30","INUVIK A","2202571","2023-03-14 05:00","2023","03","14","05:00","-33.2","","-36.3","","74","","","","21","","3","","24.1","","101.43","","","","-37","","Clear"
"-133.48","68.30","INUVIK A","2202571","2023-03-14 06:00","2023","03","14","06:00","-33.9","","-37.1","","74","","","","9","","5","","24.1","","101.45","","","","-40","","NA"
"-133.48","68.30","INUVIK A","2202571","2023-03-14 07:00","2023","03","14","07:00","-32.3","","-35.4","","75","","","","29","","8","","24.1","","101.45","","","","-41","","NA"
"-133.48","68.30","INUVIK A","2202571","2023-03-14 08:00","2023","03","14","08:00","-34.5","","-38.0","","71","","","","36","","1","","24.1","","101.51","","","","-36","","Mainly Clear"
"-133.48","68.30","INUVIK A","2202571","2023-03-14 09:00","2023","03","14","09:00","-33.0","","-36.1","","74","","","","24","","4","","24.1","","101.55","","","","-38","","NA"
"-133.48","68.30","INUVIK A","2202571","2023-03-14 10:00","2023","03","14","10:00","-32.2","","-35.6","","73","","","","29","","3","","19.3","","101.60","","","","-36","","Snow"
"-133.48","68.30","INUVIK A","2202571","2023-03-14 11:00","2023","03","14","11:00","-31.6","","-35.1","","72","","","","25","","7","","24.1","","101.63","","","","-39","","Mostly Cloudy"
"-133.48","68.30","INUVIK A","2202571","2023-03-14 12:00","2023","03","14","12:00","-31.2","","-34.5","","73","","","","23","","3","","24.1","","101.66","","","","-35","","NA"
"-133.48","68.30","INUVIK A","2202571","2023-03-14 13:00","2023","03","14","13:00","-28.8","","-32.1","","74","","","","26","","9","","24.1","","101.68","","","","-37","","NA"
"-133.48","68.30","INUVIK A","2202571","2023-03-14 14:00","2023","03","14","14:00","-25.6","","-29.6","","70","","","","33","","17","","24.1","","101.72","","","","-37","","Mostly Cloudy"
"-133.48","68.30","INUVIK A","2202571","2023-03-14 15:00","2023","03","14","15:00","-25.6","","-30.5","","64","","","","32","","16","","24.1","","101.75","","","","-36","","NA"
"-133.48","68.30","INUVIK A","2202571","2023-03-14 16:00","2023","03","14","16:00","-24.8","","-30.3","","61","","","","32","","12","","24.1","","101.76","","","","-34","","NA"
"-133.48","68.30","INUVIK A","2202571","2023-03-14 17:00","2023","03","14","17:00","-24.6","","-30.3","","60","","","","33","","9","","24.1","","101.76","","","","-32","","Mostly Cloudy"
"-133.48","68.30","INUVIK A","2202571","2023-03-14 18:00","2023","03","14","18:00","-24.7","","-29.9","","63","","","","30","","10","","16.1","","101.75","","","","-33","","Snow"
"-133.48","68.30","INUVIK A","2202571","2023-03-14 19:00","2023","03","14","19:00","-25.8","","-30.7","","64","","","","32","","8","","24.1","","101.76","","","","-33","","NA"
"-133.48","68.30","INUVIK A","2202571","2023-03-14 20:00","2023","03","14","20:00","-27.5","","-31.2","","72","","","","33","","7","","24.1","","101.80","","","","-34","","Mainly Clear"
"-133.48","68.30","INUVIK A","2202571","2023-03-14 21:00","2023","03","14","21:00","-29.1","","-32.4","","74","","","","33","","8","","24.1","","101.83","","","","-37","","NA"
"-133.48","68.30","INUVIK A","2202571","2023-03-14 22:00","2023","03","14","22:00","-29.9","","-33.2","","74","","","","33","","9","","24.1","","101.85","","","","-38","","NA"
"-133.48","68.30","INUVIK A","2202571","2023-03-14 23:00","2023","03","14","23:00","-30.6","","-33.8","","74","","","","33","","7","","24.1","","101.86","","","","-38","","Snow"
"-133.48","68.30","INUVIK A","2202571","2023-03-15 00:00","2023","03","15","00:00","-31.2","","-34.1","","76","","","","36","","2","","24.1","","101.88","","","","-34","","Snow"
"-133.48","68.30","INUVIK A","2202571","2023-03-15 01:00","2023","03","15","01:00","-32.5","","-35.6","","74","","","","36","","1","","24.1","","101.90","","","","-34","","Snow"
"-133.48","68.30","INUVIK A","2202571","2023-03-15 02:00","2023","03","15","02:00","-31.2","","-34.0","","77","","","","36","","3","","24.1","","101.90","","","","-35","","Snow"
"-133.48","68.30","INUVIK A","2202571","2023-03-15 03:00","2023","03","15","03:00","-32.1","","-35.2","","75","","","","29","","5","","24.1","","101.90","","","","-38","","Snow"
"-133.48","68.30","INUVIK A","2202571","2023-03-15 04:00","2023","03","15","04:00","-34.4","","-37.8","","72","","","","36","","3","","24.1","","101.89","","","","-38","","Snow"
"-133.48","68.30","INUVIK A","2202571","2023-03-15 05:00","2023","03","15","05:00","-34.9","","-38.2","","72","","","","36","","1","","24.1","","101.88","","","","-36","","Snow"
"-133.48","68.30","INUVIK A","2202571","2023-03-15 06:00","2023","03","15","06:00","-33.9","","-37.2","","73","","","","36","","3","","24.1","","101.86","","","","-38","","Snow"
"-133.48","68.30","INUVIK A","2202571","2023-03-15 07:00","2023","03","15","07:00","-34.2","","-37.6","","72","","","","29","","4","","24.1","","101.85","","","","-39","","Snow"
"-133.48","68.30","INUVIK A","2202571","2023-03-15 08:00","2023","03","15","08:00","-35.3","","-38.9","","70","","","","36","","2","","24.1","","101.85","","","","-38","","Snow"
"-133.48","68.30","INUVIK A","2202571","2023-03-15 09:00","2023","03","15","09:00","-35.2","","-38.7","","71","","","","36","","2","","24.1","","101.82","","","","-38","","NA"
"-133.48","68.30","INUVIK A","2202571","2023-03-15 10:00","2023","03","15","10:00","-33.9","","-37.4","","71","","","","36","","1","","24.1","","101.81","","","","-35","","NA"
"-133.48","68.30","INUVIK A","2202571","2023-03-15 11:00","2023","03","15","11:00","-32.2","","-35.7","","72","","","","0","","1","","16.1","","101.79","","","","-33","","Snow"
"-133.48","68.30","INUVIK A","2202571","2023-03-15 12:00","2023","03","15","12:00","-30.9","","-34.3","","73","","","","21","","3","","24.1","","101.76","","","","-34","","NA"
"-133.48","68.30","INUVIK A","2202571","2023-03-15 13:00","2023","03","15","13:00","-29.7","","-33.1","","73","","","","22","","3","","24.1","","101.73","","","","-33","","NA"
"-133.48","68.30","INUVIK A","2202571","2023-03-15 14:00","2023","03","15","14:00","-28.2","","-31.6","","73","","","","23","","5","","24.1","","101.70","","","","-34","","Mostly Cloudy"
"-133.48","68.30","INUVIK A","2202571","2023-03-15 15:00","2023","03","15","15:00","-27.4","","-31.1","","72","","","","23","","4","","24.1","","101.64","","","","-32","","NA"
"-133.48","68.30","INUVIK A","2202571","2023-03-15 16:00","2023","03","15","16:00","-26.9","","-31.2","","68","","","","10","","4","","24.1","","101.58","","","","-31","","NA"
"-133.48","68.30","INUVIK A","2202571","2023-03-15 17:00","2023","03","15","17:00","-26.6","","-31.6","","63","","","","9","","5","","24.1","","101.51","","","","-32","","Mainly Clear"
"-133.48","68.30","INUVIK A","2202571","2023-03-15 18:00","2023","03","15","18:00","-27.2","","-32.1","","64","","","","9","","9","","24.1","","101.46","","","","-35","","NA"
"-133.48","68.30","INUVIK A","2202571","2023-03-15 19:00","2023","03","15","19:00","-27.9","","-32.6","","65","","","","7","","10","","24.1","","101.45","","","","-37","","NA"
"-133.48","68.30","INUVIK A","2202571","2023-03-15 20:00","2023","03","15","20:00","-29.8","","-34.0","","67","","","","6","","10","","24.1","","101.42","","","","-39","","Mainly Clear"
"-133.48","68.30","INUVIK A","2202571","2023-03-15 21:00","2023","03","15","21:00","-31.2","","-34.9","","71","","","","5","","13","","24.1","","101.40","","","","-42","","NA"
"-133.48","68.30","INUVIK A","2202571","2023-03-15 22:00","2023","03","15","22:00","-31.2","","-35.1","","69","","","","7","","8","","24.1","","101.37","","","","-39","","NA"
"-133.48","68.30","INUVIK A","2202571","2023-03-15 23:00","2023","03","15","23:00","-31.4","","-35.3","","70","","","","7","","10","","24.1","","101.37","","","","-41","","Clear"
"-133.48","68.30","INUVIK A","2202571","2023-03-16 00:00","2023","03","16","00:00","-32.4","","-36.1","","70","","","","8","","11","","24.1","","101.34","","","","-43","","NA"
"-133.48","68.30","INUVIK A","2202571","2023-03-16 01:00","2023","03","16","01:00","-32.5","","-36.0","","71","","","","7","","12","","24.1","","101.32","","","","-43","","NA"
"-133.48","68.30","INUVIK A","2202571","2023-03-16 02:00","2023","03","16","02:00","-31.5","","-35.1","","71","","","","6","","12","","24.1","","101.28","","","","-42","","Clear"
"-133.48","68.30","INUVIK A","2202571","2023-03-16 03:00","2023","03","16","03:00","-31.0","","-34.6","","71","","","","7","","11","","24.1","","101.27","","","","-41","","NA"
"-133.48","68.30","INUVIK A","2202571","2023-03-16 04:00","2023","03","16","04:00","-32.4","","-35.8","","73","","","","7","","11","","24.1","","101.26","","","","-43","","NA"
"-133.48","68.30","INUVIK A","2202571","2023-03-16 05:00","2023","03","16","05:00","-33.4","","-36.9","","72","","","","7","","10","","24.1","","101.24","","","","-43","","Clear"
"-133.48","68.30","INUVIK A","2202571","2023-03-16 06:00","2023","03","16","06:00","-33.8","","-37.3","","72","","","","5","","13","","24.1","","101.25","","","","-45","","NA"
"-133.48","68.30","INUVIK A","2202571","2023-03-16 07:00","2023","03","16","07:00","-34.1","","-37.6","","72","","","","6","","10","","24.1","","101.26","","","","-44","","NA"
"-133.48","68.30","INUVIK A","2202571","2023-03-16 08:00","2023","03","16","08:00","-32.8","","-36.2","","72","","","","8","","9","","24.1","","101.28","","","","-42","","Clear"
"-133.48","68.30","INUVIK A","2202571","2023-03-16 09:00","2023","03","16","09:00","-32.3","","-35.8","","72","","","","6","","11","","24.1","","101.30","","","","-42","","NA"
"-133.48","68.30","INUVIK A","2202571","2023-03-16 10:00","2023","03","16","10:00","-32.4","","-36.1","","70","","","","6","","5","","24.1","","101.31","","","","-38","","NA"
"-133.48","68.30","INUVIK A","2202571","2023-03-16 11:00","2023","03","16","11:00","-30.3","","-34.3","","69","","","","8","","8","","24.1","","101.31","","","","-38","","Clear"
"-133.48","68.30","INUVIK A","2202571","2023-03-16 12:00","2023","03","16","12:00","-28.2","","-33.1","","64","","","","7","","8","","24.1","","101.29","","","","-36","","NA"
"-133.48","68.30","INUVIK A","2202571","2023-03-16 13:00","2023","03","16","13:00","-26.4","","-32.1","","59","","","","8","","7","","24.1","","101.30","","","","-33","","NA"
"-133.48","68.30","INUVIK A","2202571","2023-03-16 14:00","2023","03","16","14:00","-24.9","","-31.3","","57","","","","9","","6","","24.1","","101.30","","","","-31","","Clear"
"-133.48","68.30","INUVIK A","2202571","2023-03-16 15:00","2023","03","16","15:00","-24.5","","-31.2","","55","","","","9","","5","","24.1","","101.31","","","","-29","","NA"
"-133.48","68.30","INUVIK A","2202571","2023-03-16 16:00","2023","03","16","16:00","-24.3","","-30.8","","56","","","","9","","9","","24.1","","101.29","","","","-32","","NA"
"-133.48","68.30","INUVIK A","2202571","2023-03-16 17:00","2023","03","16","17:00","-24.4","","-31.1","","55","","","","8","","11","","24.1","","101.27","","","","-33","","Clear"
"-133.48","68.30","INUVIK A","2202571","2023-03-16 18:00","2023","03","16","18:00","-24.7","","-31.1","","56","","","","6","","11","","24.1","","101.26","","","","-33","","NA"
"-133.48","68.30","INUVIK A","2202571","2023-03-16 19:00","2023","03","16","19:00","-25.8","","-31.8","","58","","","","6","","10","","24.1","","101.27","","","","-34","","NA"
"-133.48","68.30","INUVIK A","2202571","2023-03-16 20:00","2023","03","16","20:00","-27.3","","-32.5","","62","","","","5","","12","","24.1","","101.25","","","","-37","","Mainly Clear"
"-133.48","68.30","INUVIK A","2202571","2023-03-16 21:00","2023","03","16","21:00","-28.1","","-32.9","","64","","","","8","","7","","24.1","","101.28","","","","-35","","NA"
"-133.48","68.30","INUVIK A","2202571","2023-03-16 22:00","2023","03","16","22:00","-28.9","","-33.6","","65","","","","10","","8","","24.1","","101.26","","","","-37","","NA"
"-133.48","68.30","INUVIK A","2202571","2023-03-16 23:00","2023","03","16","23:00","-29.4","","-33.8","","67","","","","9","","10","","24.1","","101.26","","","","-38","","Mainly Clear"
"-133.48","68.30","INUVIK A","2202571","2023-03-17 00:00","2023","03","17","00:00","-27.9","","-32.1","","68","","","","7","","13","","24.1","","101.27","","","","-38","","NA"
"-133.48","68.30","INUVIK A","2202571","2023-03-17 01:00","2023","03","17","01:00","-28.2","","-32.4","","68","","","","7","","15","","24.1","","101.28","","","","-39","","NA"
"-133.48","68.30","INUVIK A","2202571","2023-03-17 02:00","2023","03","17","02:00","-29.5","","-33.5","","69","","","","8","","11","","24.1","","101.27","","","","-39","","Mainly Clear"
"-133.48","68.30","INUVIK A","2202571","2023-03-17 03:00","2023","03","17","03:00","-29.6","","-33.5","","70","","","","8","","17","","24.1","","101.27","","","","-42","","NA"
"-133.48","68.30","INUVIK A","2202571","2023-03-17 04:00","2023","03","17","04:00","-29.5","","-33.3","","70","","","","8","","14","","24.1","","101.27","","","","-40","","NA"
"-133.48","68.30","INUVIK A","2202571","2023-03-17 05:00","2023","03","17","05:00","-29.5","","-33.3","","71","","","","8","","12","","24.1","","101.28","","","","-40","","Clear"
"-133.48","68.30","INUVIK A","2202571","2023-03-17 06:00","2023","03","17","06:00","-30.8","","-34.2","","73","","","","5","","13","","24.1","","101.28","","","","-42","","NA"
"-133.48","68.30","INUVIK A","2202571","2023-03-17 07:00","2023","03","17","07:00","-29.6","","-33.2","","72","","","","8","","15","","24.1","","101.28","","","","-41","","NA"
"-133.48","68.30","INUVIK A","2202571","2023-03-17 08:00","2023","03","17","08:00","-30.1","","-33.7","","72","","","","7","","9","","24.1","","101.27","","","","-39","","Mainly Clear"
"-133.48","68.30","INUVIK A","2202571","2023-03-17 09:00","2023","03","17","09:00","-28.9","","-32.7","","71","","","","7","","8","","24.1","","101.27","","","","-37","","NA"
"-133.48","68.30","INUVIK A","2202571","2023-03-17 10:00","2023","03","17","10:00","-28.6","","-32.5","","70","","","","7","","9","","24.1","","101.31","","","","-37","","NA"
"-133.48","68.30","INUVIK A","2202571","2023-03-17 11:00","2023","03","17","11:00","-26.7","","-31.4","","65","","","","9","","10","","24.1","","101.29","","","","-35","","Mainly Clear"
"-133.48","68.30","INUVIK A","2202571","2023-03-17 12:00","2023","03","17","12:00","-24.4","","-29.7","","62","","","","10","","10","","24.1","","101.29","","","","-32","","NA"
"-133.48","68.30","INUVIK A","2202571","2023-03-17 13:00","2023","03","17","13:00","-22.9","","-29.1","","57","","","","9","","8","","24.1","","101.29","","","","-30","","NA"
"-133.48","68.30","INUVIK A","2202571","2023-03-17 14:00","2023","03","17","14:00","-22.0","","-28.6","","56","","","","9","","9","","24.1","","101.29","","","","-29","","Mainly Clear"
"-133.48","68.30","INUVIK A","2202571","2023-03-17 15:00","2023","03","17","15:00","-22.4","","-29.1","","55","","","","9","","9","","24.1","","101.29","","","","-30","","NA"
"-133.48","68.30","INUVIK A","2202571","2023-03-17 16:00","2023","03","17","16:00","-21.6","","-28.0","","57","","","","9","","9","","24.1","","101.29","","","","-29","","NA"
"-133.48","68.30","INUVIK A","2202571","2023-03-17 17:00","2023","03","17","17:00","-21.6","","-27.8","","58","","","","9","","14","","24.1","","101.30","","","","-31","","Mainly Clear"
"-133.48","68.30","INUVIK A","2202571","2023-03-17 18:00","2023","03","17","18:00","-21.9","","-28.1","","58","","","","8","","11","","24.1","","101.30","","","","-30","","NA"
"-133.48","68.30","INUVIK A","2202571","2023-03-17 19:00","2023","03","17","19:00","-23.0","","-28.1","","63","","","","8","","8","","24.1","","101.29","","","","-30","","NA"
"-133.48","68.30","INUVIK A","2202571","2023-03-17 20:00","2023","03","17","20:00","-23.2","","-28.1","","65","","","","7","","9","","24.1","","101.29","","","","-31","","Mostly Cloudy"
"-133.48","68.30","INUVIK A","2202571","2023-03-17 21:00","2023","03","17","21:00","-22.6","","-27.8","","64","","","","8","","13","","24.1","","101.28","","","","-32","","NA"
"-133.48","68.30","INUVIK A","2202571","2023-03-17 22:00","2023","03","17","22:00","-22.6","","-27.7","","64","","","","10","","12","","24.1","","101.29","","","","-31","","NA"
"-133.48","68.30","INUVIK A","2202571","2023-03-17 23:00","2023","03","17","23:00","-22.4","","-27.5","","64","","","","9","","9","","24.1","","101.30","","","","-30","","Mostly Cloudy"
"-133.48","68.30","INUVIK A","2202571","2023-03-18 00:00","2023","03","18","00:00","-21.9","","-26.5","","66","","","","7","","9","","24.1","","101.29","","","","-29","","NA"
"-133.48","68.30","INUVIK A","2202571","2023-03-18 01:00","2023","03","18","01:00","-21.6","","-26.0","","68","","","","9","","10","","24.1","","101.25","","","","-29","","NA"
"-133.48","68.30","INUVIK A","2202571","2023-03-18 02:00","2023","03","18","02:00","-21.2","","-25.7","","68","","","","7","","12","","24.1","","101.23","","","","-29","","Snow"
"-133.48","68.30","INUVIK A","2202571","2023-03-18 03:00","2023","03","18","03:00","-20.4","","-24.4","","71","","","","7","","7","","24.1","","101.23","","","","-26","","Snow"
"-133.48","68.30","INUVIK A","2202571","2023-03-18 04:00","2023","03","18","04:00","-20.6","","-24.4","","72","","","","9","","12","","24.1","","101.23","","","","-29","","Snow"
"-133.48","68.30","INUVIK A","2202571","2023-03-18 05:00","2023","03","18","05:00","-20.4","","-24.2","","72","","","","6","","8","","24.1","","101.25","","","","-27","","Snow"
"-133.48","68.30","INUVIK A","2202571","2023-03-18 06:00","2023","03","18","06:00","-19.9","","-23.4","","74","","","","9","","11","","24.1","","101.23","","","","-28","","Snow"
"-133.48","68.30","INUVIK A","2202571","2023-03-18 07:00","2023","03","18","07:00","-19.2","","-23.0","","73","","","","6","","11","","24.1","","101.24","","","","-27","","NA"
"-133.48","68.30","INUVIK A","2202571","2023-03-18 08:00","2023","03","18","08:00","-18.0","","-21.5","","75","","","","8","","7","","24.1","","101.21","","","","-23","","Cloudy"
"-133.48","68.30","INUVIK A","2202571","2023-03-18 09:00","2023","03","18","09:00","-17.6","","-21.2","","74","","","","8","","12","","24.1","","101.24","","","","-25","","NA"
"-133.48","68.30","INUVIK A","2202571","2023-03-18 10:00","2023","03","18","10:00","-16.5","","-20.4","","73","","","","7","","10","","24.1","","101.22","","","","-23","","NA"
"-133.48","68.30","INUVIK A","2202571","2023-03-18 11:00","2023","03","18","11:00","-16.0","","-20.2","","71","","","","8","","12","","24.1","","101.19","","","","-23","","Mostly Cloudy"
"-133.48","68.30","INUVIK A","2202571","2023-03-18 12:00","2023","03","18","12:00","-13.8","","-18.2","","69","","","","13","","10","","24.1","","101.17","","","","-20","","NA"
"-133.48","68.30","INUVIK A","2202571","2023-03-18 13:00","2023","03","18","13:00","-12.9","","-18.8","","62","","","","15","","12","","24.1","","101.17","","","","-19","","NA"
"-133.48","68.30","INUVIK A","2202571","2023-03-18 14:00","2023","03","18","14:00","-12.1","","-18.5","","59","","","","16","","11","","24.1","","101.16","","","","-18","","Mainly Clear"
"-133.48","68.30","INUVIK A","2202571","2023-03-18 15:00","2023","03","18","15:00","-11.4","","-18.3","","57","","","","18","","14","","24.1","","101.14","","","","-18","","NA"
"-133.48","68.30","INUVIK A","2202571","2023-03-18 16:00","2023","03","18","16:00","-11.1","","-18.4","","55","","","","20","","14","","24.1","","101.13","","","","-18","","NA"
"-133.48","68.30","INUVIK A","2202571","2023-03-18 17:00","2023","03","18","17:00","-11.5","","-18.9","","55","","","","19","","12","","24.1","","101.10","","","","-18","","Mainly Clear"
"-133.48","68.30","INUVIK A","2202571","2023-03-18 18:00","2023","03","18","18:00","-11.9","","-19.4","","54","","","","17","","12","","24.1","","101.05","","","","-18","","NA"
"-133.48","68.30","INUVIK A","2202571","2023-03-18 19:00","2023","03","18","19:00","-11.9","","-19.2","","55","","","","18","","7","","24.1","","101.05","","","","-16","","NA"
"-133.48","68.30","INUVIK A","2202571","2023-03-18 20:00","2023","03","18","20:00","-12.2","","-19.3","","56","","","","19","","6","","24.1","","101.02","","","","-16","","Mainly Clear"
"-133.48","68.30","INUVIK A","2202571","2023-03-18 21:00","2023","03","18","21:00","-12.9","","-19.4","","59","","","","19","","6","","24.1","","101.01","","","","-17","","NA"
"-133.48","68.30","INUVIK A","2202571","2023-03-18 22:00","2023","03","18","22:00","-13.4","","-19.4","","61","","","","12","","10","","24.1","","100.98","","","","-19","","NA"
"-133.48","68.30","INUVIK A","2202571","2023-03-18 23:00","2023","03","18","23:00","-13.2","","-18.6","","64","","","","16","","15","","24.1","","100.95","","","","-21","","Mainly Clear"
"-133.48","68.30","INUVIK A","2202571","2023-03-19 00:00","2023","03","19","00:00","-13.9","","-18.8","","67","","","","13","","10","","24.1","","100.90","","","","-20","","NA"
"-133.48","68.30","INUVIK A","2202571","2023-03-19 01:00","2023","03","19","01:00","-13.7","","-18.2","","69","","","","11","","7","","24.1","","100.84","","","","-18","","NA"
"-133.48","68.30","INUVIK A","2202571","2023-03-19 02:00","2023","03","19","02:00","-13.6","","-18.1","","69","","","","13","","6","","24.1","","100.80","","","","-18","","Mainly Clear"
"-133.48","68.30","INUVIK A","2202571","2023-03-19 03:00","2023","03","19","03:00","-13.5","","-18.0","","69","","","","11","","5","","24.1","","100.78","","","","-17","","NA"
"-133.48","68.30","INUVIK A","2202571","2023-03-19 04:00","2023","03","19","04:00","-13.5","","-17.7","","71","","","","9","","12","","24.1","","100.70","","","","-20","","NA"
"-133.48","68.30","INUVIK A","2202571","2023-03-19 05:00","2023","03","19","05:00","-13.6","","-17.8","","71","","","","10","","13","","24.1","","100.65","","","","-21","","Mostly Cloudy"
"-133.48","68.30","INUVIK A","2202571","2023-03-19 06:00","2023","03","19","06:00","-12.9","","-17.2","","71","","","","8","","16","","24.1","","100.62","","","","-21","","NA"
"-133.48","68.30","INUVIK A","2202571","2023-03-19 07:00","2023","03","19","07:00","-12.8","","-17.0","","71","","","","8","","14","","24.1","","100.60","","","","-20","","NA"
"-133.48","68.30","INUVIK A","2202571","2023-03-19 08:00","2023","03","19","08:00","-13.7","","-17.8","","71","","","","8","","11","","24.1","","100.57","","","","-20","","Mostly Cloudy"
"-133.48","68.30","INUVIK A","2202571","2023-03-19 09:00","2023","03","19","09:00","-12.7","","-16.7","","72","","","","7","","9","","24.1","","100.52","","","","-18","","NA"
"-133.48","68.30","INUVIK A","2202571","2023-03-19 10:00","2023","03","19","10:00","-11.9","","-16.4","","69","","","","8","","16","","24.1","","100.47","","","","-19","","NA"
"-133.48","68.30","INUVIK A","2202571","2023-03-19 11:00","2023","03","19","11:00","-12.5","","-16.8","","70","","","","9","","14","","24.1","","100.47","","","","-20","","Clear"
"-133.48","68.30","INUVIK A","2202571","2023-03-19 12:00","2023","03","19","12:00","-10.3","","-14.8","","70","","","","10","","14","","24.1","","100.44","","","","-17","","NA"
"-133.48","68.30","INUVIK A","2202571","2023-03-19 13:00","2023","03","19","13:00","-8.5","","-14.2","","64","","","","12","","12","","24.1","","100.43","","","","-14","","NA"
"-133.48","68.30","INUVIK A","2202571","2023-03-19 14:00","2023","03","19","14:00","-8.6","","-14.0","","65","","","","8","","9","","24.1","","100.39","","","","-13","","Cloudy"
"-133.48","68.30","INUVIK A","2202571","2023-03-19 15:00","2023","03","19","15:00","-7.0","","-13.0","","63","","","","12","","17","","24.1","","100.35","","","","-13","","NA"
"-133.48","68.30","INUVIK A","2202571","2023-03-19 16:00","2023","03","19","16:00","-6.8","","-12.6","","64","","","","11","","16","","24.1","","100.32","","","","-13","","NA"
"-133.48","68.30","INUVIK A","2202571","2023-03-19 17:00","2023","03","19","17:00","-5.9","","-11.8","","64","","","","13","","11","","24.1","","100.28","","","","-11","","Cloudy"
"-133.48","68.30","INUVIK A","2202571","2023-03-19 18:00","2023","03","19","18:00","-6.2","","-11.9","","64","","","","21","","11","","24.1","","100.30","","","","-11","","NA"
"-133.48","68.30","INUVIK A","2202571","2023-03-19 19:00","2023","03","19","19:00","-7.0","","-12.2","","66","","","","20","","11","","24.1","","100.32","","","","-12","","NA"
"-133.48","68.30","INUVIK A","2202571","2023-03-19 20:00","2023","03","19","20:00","-7.2","","-12.3","","67","","","","17","","3","","24.1","","100.32","","","","-9","","Mainly Clear"
"-133.48","68.30","INUVIK A","2202571","2023-03-19 21:00","2023","03","19","21:00","-7.8","","-12.6","","69","","","","23","","7","","24.1","","100.36","","","","-11","","NA"
"-133.48","68.30","INUVIK A","2202571","2023-03-19 22:00","2023","03","19","22:00","-8.1","","-12.6","","70","","","","22","","10","","24.1","","100.39","","","","-13","","NA"
"-133.48","68.30","INUVIK A","2202571","2023-03-19 23:00","2023","03","19","23:00","-7.3","","-12.2","","69","","","","19","","7","","24.1","","100.40","","","","-11","","Mostly Cloudy"
"-133.48","68.30","INUVIK A","2202571","2023-03-20 00:00","2023","03","20","00:00","-6.8","","-11.9","","67","","","","20","","16","","24.1","","100.41","","","","-13","","NA"
"-133.48","68.30","INUVIK A","2202571","2023-03-20 01:00","2023","03","20","01:00","-6.6","","-11.9","","66","","","","17","","14","","24.1","","100.42","","","","-12","","NA"
"-133.48","68.30","INUVIK A","2202571","2023-03-20 02:00","2023","03","20","02:00","-7.0","","-11.7","","70","","","","14","","7","","24.1","","100.42","","","","-11","","Cloudy"
"-133.48","68.30","INUVIK A","2202571","2023-03-20 03:00","2023","03","20","03:00","-7.2","","-12.0","","69","","","","13","","7","","24.1","","100.42","","","","-11","","NA"
"-133.48","68.30","INUVIK A","2202571","2023-03-20 04:00","2023","03","20","04:00","-7.7","","-12.3","","70","","","","11","","5","","24.1","","100.44","","","","-10","","NA"
"-133.48","68.30","INUVIK A","2202571","2023-03-20 05:00","2023","03","20","05:00","-10.2","","-12.9","","81","","","","36","","2","","24.1","","100.48","","","","-11","","Mostly Cloudy"
"-133.48","68.30","INUVIK A","2202571","2023-03-20 06:00","2023","03","20","06:00","-12.0","","-14.7","","81","","","","6","","10","","24.1","","100.47","","","","-18","","NA"
"-133.48","68.30","INUVIK A","2202571","2023-03-20 07:00","2023","03","20","07:00","-9.9","","-13.2","","77","","","","8","","11","","24.1","","100.49","","","","-15","","NA"
"-133.48","68.30","INUVIK A","2202571","2023-03-20 08:00","2023","03","20","08:00","-9.5","","-12.4","","80","","","","8","","10","","24.1","","100.51","","","","-15","","Mostly Cloudy"
"-133.48","68.30","INUVIK A","2202571","2023-03-20 09:00","2023","03","20","09:00","-11.1","","-13.8","","81","","","","8","","10","","24.1","","100.53","","","","-17","","NA"
"-133.48","68.30","INUVIK A","2202571","2023-03-20 10:00","2023","03","20","10:00","-9.2","","-12.9","","75","","","","9","","13","","24.1","","100.52","","","","-15","","NA"
"-133.48","68.30","INUVIK A","2202571","2023-03-20 11:00","2023","03","20","11:00","-7.2","","-11.8","","70","","","","8","","9","","24.1","","100.50","","","","-12","","Mostly Cloudy"
"-133.48","68.30","INUVIK A","2202571","2023-03-20 12:00","2023","03","20","12:00","-6.8","","-11.8","","68","","","","7","","9","","24.1","","100.46","","","","-11","","NA"
"-133.48","68.30","INUVIK A","2202571","2023-03-20 13:00","2023","03","20","13:00","-5.6","","-11.4","","64","","","","10","","5","","24.1","","100.45","","","","-8","","NA"
"-133.48","68.30","INUVIK A","2202571","2023-03-20 14:00","2023","03","20","14:00","-4.1","","-10.3","","62","","","","8","","11","","24.1","","100.40","","","","-9","","Mostly Cloudy"
"-133.48","68.30","INUVIK A","2202571","2023-03-20 15:00","2023","03","20","15:00","-2.4","","-9.8","","57","","","","6","","7","","24.1","","100.36","","","","-5","","NA"
"-133.48","68.30","INUVIK A","2202571","2023-03-20 16:00","2023","03","20","16:00","-1.1","","-8.8","","56","","","","11","","13","","24.1","","100.28","","","","-5","","NA"
"-133.48","68.30","INUVIK A","2202571","2023-03-20 17:00","2023","03","20","17:00","-1.3","","-8.5","","58","","","","8","","11","","24.1","","100.22","","","","-5","","Mostly Cloudy"
"-133.48","68.30","INUVIK A","2202571","2023-03-20 18:00","2023","03","20","18:00","-2.0","","-8.4","","61","","","","10","","12","","24.1","","100.17","","","","-6","","NA"
"-133.48","68.30","INUVIK A","2202571","2023-03-20 19:00","2023","03","20","19:00","-1.9","","-8.5","","60","","","","12","","6","","24.1","","100.11","","","","-4","","NA"
"-133.48","68.30","INUVIK A","2202571","2023-03-20 20:00","2023","03","20","20:00","-4.1","","-9.2","","68","","","","14","","13","","24.1","","100.09","","","","-9","","Mostly Cloudy"
"-133.48","68.30","INUVIK A","2202571","2023-03-20 21:00","2023","03","20","21:00","-4.3","","-9.4","","68","","","","13","","12","","24.1","","100.05","","","","-9","","NA"
"-133.48","68.30","INUVIK A","2202571","2023-03-20 22:00","2023","03","20","22:00","-6.1","","-10.6","","71","","","","11","","13","","24.1","","100.02","","","","-11","","NA"
"-133.48","68.30","INUVIK A","2202571","2023-03-20 23:00","2023","03","20","23:00","-5.4","","-9.9","","71","","","","12","","12","","24.1","","99.97","","","","-10","","Mainly Clear"
"-133.48","68.30","INUVIK A","2202571","2023-03-21 00:00","2023","03","21","00:00","-5.2","","-9.7","","71","","","","12","","11","","24.1","","99.93","","","","-10","","NA"
"-133.48","68.30","INUVIK A","2202571","2023-03-21 01:00","2023","03","21","01:00","-6.3","","-9.8","","76","","","","11","","14","","24.1","","99.88","","","","-12","","NA"
"-133.48","68.30","INUVIK A","2202571","2023-03-21 02:00","2023","03","21","02:00","-6.6","","-10.7","","73","","","","11","","14","","24.1","","99.85","","","","-12","","Mostly Cloudy"
"-133.48","68.30","INUVIK A","2202571","2023-03-21 03:00","2023","03","21","03:00","-7.2","","-11.1","","74","","","","10","","13","","24.1","","99.81","","","","-13","","NA"
"-133.48","68.30","INUVIK A","2202571","2023-03-21 04:00","2023","03","21","04:00","-6.8","","-11.0","","72","","","","12","","14","","24.1","","99.75","","","","-13","","NA"
"-133.48","68.30","INUVIK A","2202571","2023-03-21 05:00","2023","03","21","05:00","-8.2","","-11.7","","76","","","","10","","9","","24.1","","99.73","","","","-13","","Mostly Cloudy"
"-133.48","68.30","INUVIK A","2202571","2023-03-21 06:00","2023","03","21","06:00","-8.8","","-12.2","","77","","","","9","","14","","24.1","","99.69","","","","-15","","NA"
"-133.48","68.30","INUVIK A","2202571","2023-03-21 07:00","2023","03","21","07:00","-8.7","","-12.4","","75","","","","11","","13","","24.1","","99.66","","","","-15","","NA"
"-133.48","68.30","INUVIK A","2202571","2023-03-21 08:00","2023","03","21","08:00","-8.7","","-12.4","","75","","","","11","","13","","24.1","","99.64","","","","-15","","Mostly Cloudy"
"-133.48","68.30","INUVIK A","2202571","2023-03-21 09:00","2023","03","21","09:00","-8.6","","-12.4","","74","","","","11","","9","","24.1","","99.62","","","","-13","","NA"
"-133.48","68.30","INUVIK A","2202571","2023-03-21 10:00","2023","03","21","10:00","-8.7","","-12.2","","76","","","","13","","3","","24.1","","99.61","","","","-10","","NA"
"-133.48","68.30","INUVIK A","2202571","2023-03-21 11:00","2023","03","21","11:00","-7.8","","-12.2","","71","","","","17","","11","","24.1","","99.59","","","","-13","","Mostly Cloudy"
"-133.48","68.30","INUVIK A","2202571","2023-03-21 12:00","2023","03","21","12:00","-7.2","","-12.0","","69","","","","14","","11","","24.1","","99.56","","","","-12","","NA"
"-133.48","68.30","INUVIK A","2202571","2023-03-21 13:00","2023","03","21","13:00","-6.2","","-12.0","","64","","","","16","","9","","24.1","","99.56","","","","-10","","NA"
"-133.48","68.30","INUVIK A","2202571","2023-03-21 14:00","2023","03","21","14:00","-5.2","","-11.6","","61","","","","17","","7","","24.1","","99.53","","","","-8","","Mostly Cloudy"
"-133.48","68.30","INUVIK A","2202571","2023-03-21 15:00","2023","03","21","15:00","-4.5","","-10.7","","62","","","","22","","7","","24.1","","99.53","","","","-8","","NA"
"-133.48","68.30","INUVIK A","2202571","2023-03-21 16:00","2023","03","21","16:00","-4.5","","-11.0","","61","","","","22","","8","","24.1","","99.52","","","","-8","","NA"
"-133.48","68.30","INUVIK A","2202571","2023-03-21 17:00","2023","03","21","17:00","-4.8","","-10.9","","63","","","","25","","4","","24.1","","99.52","","","","-7","","Mostly Cloudy"
"-133.48","68.30","INUVIK A","2202571","2023-03-21 18:00","2023","03","21","18:00","-5.1","","-10.7","","65","","","","19","","7","","24.1","","99.52","","","","-8","","NA"
"-133.48","68.30","INUVIK A","2202571","2023-03-21 19:00","2023","03","21","19:00","-4.7","","-10.2","","66","","","","16","","3","","24.1","","99.50","","","","-6","","NA"
"-133.48","68.30","INUVIK A","2202571","2023-03-21 20:00","2023","03","21","20:00","-4.7","","-10.2","","66","","","","16","","5","","24.1","","99.52","","","","-7","","Mostly Cloudy"
"-133.48","68.30","INUVIK A","2202571","2023-03-21 21:00","2023","03","21","21:00","-6.0","","-10.7","","70","","","","16","","6","","24.1","","99.51","","","","-9","","NA"
"-133.48","68.30","INUVIK A","2202571","2023-03-21 22:00","2023","03","21","22:00","-8.3","","-11.7","","77","","","","10","","5","","24.1","","99.51","","","","-11","","NA"
"-133.48","68.30","INUVIK A","2202571","2023-03-21 23:00","2023","03","21","23:00","-8.4","","-11.9","","76","","","","12","","3","","24.1","","99.49","","","","-10","","Mainly Clear"
"-133.48","68.30","INUVIK A","2202571","2023-03-22 00:00","2023","03","22","00:00","-10.1","","-13.4","","77","","","","10","","4","","24.1","","99.50","","","","-12","","NA"
"-133.48","68.30","INUVIK A","2202571","2023-03-22 01:00","2023","03","22","01:00","-11.0","","-14.1","","78","","","","11","","5","","24.1","","99.49","","","","-14","","NA"
"-133.48","68.30","INUVIK A","2202571","2023-03-22 02:00","2023","03","22","02:00","-9.4","","-12.5","","78","","","","16","","5","","24.1","","99.51","","","","-12","","Mainly Clear"
"-133.48","68.30","INUVIK A","2202571","2023-03-22 03:00","2023","03","22","03:00","-11.0","","-13.7","","81","","","","8","","4","","24.1","","99.53","","","","-13","","NA"
"-133.48","68.30","INUVIK A","2202571","2023-03-22 04:00","2023","03","22","04:00","-13.9","","-16.0","","85","","","","6","","8","","24.1","","99.55","","","","-19","","NA"
"-133.48","68.30","INUVIK A","2202571","2023-03-22 05:00","2023","03","22","05:00","-11.6","","-14.3","","81","","","","7","","10","","24.1","","99.54","","","","-17","","Mainly Clear"
"-133.48","68.30","INUVIK A","2202571","2023-03-22 06:00","2023","03","22","06:00","-11.9","","-14.0","","85","","","","7","","9","","24.1","","99.55","","","","-17","","NA"
"-133.48","68.30","INUVIK A","2202571","2023-03-22 07:00","2023","03","22","07:00","-12.2","","-14.2","","85","","","","7","","10","","24.1","","99.57","","","","-18","","NA"
"-133.48","68.30","INUVIK A","2202571","2023-03-22 08:00","2023","03","22","08:00","-10.9","","-13.4","","82","","","","10","","8","","24.1","","99.60","","","","-16","","Mainly Clear"
"-133.48","68.30","INUVIK A","2202571","2023-03-22 09:00","2023","03","22","09:00","-10.3","","-13.5","","78","","","","9","","9","","24.1","","99.63","","","","-15","","NA"
"-133.48","68.30","INUVIK A","2202571","2023-03-22 10:00","2023","03","22","10:00","-10.0","","-13.9","","73","","","","10","","7","","24.1","","99.64","","","","-14","","NA"
"-133.48","68.30","INUVIK A","2202571","2023-03-22 11:00","2023","03","22","11:00","-8.0","","-13.0","","67","","","","13","","6","","24.1","","99.67","","","","-11","","Clear"
"-133.48","68.30","INUVIK A","2202571","2023-03-22 12:00","2023","03","22","12:00","-6.7","","-12.5","","64","","","","13","","6","","24.1","","99.69","","","","-10","","NA"
"-133.48","68.30","INUVIK A","2202571","2023-03-22 13:00","2023","03","22","13:00","-5.2","","-12.1","","59","","","","15","","7","","24.1","","99.72","","","","-8","","NA"
"-133.48","68.30","INUVIK A","2202571","2023-03-22 14:00","2023","03","22","14:00","-4.7","","-11.7","","58","","","","8","","9","","24.1","","99.76","","","","-9","","Clear"
"-133.48","68.30","INUVIK A","2202571","2023-03-22 15:00","2023","03","22","15:00","-3.5","","-11.2","","55","","","","8","","10","","24.1","","99.79","","","","-7","","NA"
"-133.48","68.30","INUVIK A","2202571","2023-03-22 16:00","2023","03","22","16:00","-2.9","","-9.9","","59","","","","9","","6","","24.1","","99.80","","","","-5","","NA"
"-133.48","68.30","INUVIK A","2202571","2023-03-22 17:00","2023","03","22","17:00","-1.9","","-9.9","","55","","","","16","","9","","24.1","","99.82","","","","-5","","Clear"
"-133.48","68.30","INUVIK A","2202571","2023-03-22 18:00","2023","03","22","18:00","-1.9","","-9.6","","56","","","","15","","7","","24.1","","99.84","","","","-5","","NA"
"-133.48","68.30","INUVIK A","2202571","2023-03-22 19:00","2023","03","22","19:00","-3.5","","-10.2","","60","","","","9","","7","","24.1","","99.88","","","","-6","","NA"
"-133.48","68.30","INUVIK A","2202571","2023-03-22 20:00","2023","03","22","20:00","-5.6","","-11.0","","66","","","","11","","14","","24.1","","99.91","","","","-11","","Clear"
"-133.48","68.30","INUVIK A","2202571","2023-03-22 21:00","2023","03","22","21:00","-6.1","","-11.0","","69","","","","10","","14","","24.1","","99.97","","","","-12","","NA"
"-133.48","68.30","INUVIK A","2202571","2023-03-22 22:00","2023","03","22","22:00","-6.6","","-10.6","","74","","","","7","","6","","24.1","","100.00","","","","-10","","NA"
"-133.48","68.30","INUVIK A","2202571","2023-03-22 23:00","2023","03","22","23:00","-7.5","","-11.2","","75","","","","9","","7","","24.1","","100.03","","","","-11","","Clear"
"-133.48","68.30","INUVIK A","2202571","2023-03-23 00:00","2023","03","23","00:00","-8.5","","-12.5","","73","","","","11","","14","","24.1","","100.08","","","","-15","","NA"
"-133.48","68.30","INUVIK A","2202571","2023-03-23 01:00","2023","03","23","01:00","-8.6","","-12.0","","77","","","","11","","12","","24.1","","100.11","","","","-14","","NA"
"-133.48","68.30","INUVIK A","2202571","2023-03-23 02:00","2023","03","23","02:00","-9.2","","-12.5","","77","","","","8","","16","","24.1","","100.13","","","","-16","","Clear"
"-133.48","68.30","INUVIK A","2202571","2023-03-23 03:00","2023","03","23","03:00","-9.1","","-12.5","","76","","","","9","","12","","24.1","","100.16","","","","-15","","NA"
"-133.48","68.30","INUVIK A","2202571","2023-03-23 04:00","2023","03","23","04:00","-9.0","","-12.3","","77","","","","12","","15","","24.1","","100.18","","","","-16","","NA"
"-133.48","68.30","INUVIK A","2202571","2023-03-23 05:00","2023","03","23","05:00","-9.4","","-12.2","","80","","","","12","","15","","24.1","","100.16","","","","-16","","Mostly Cloudy"
"-133.48","68.30","INUVIK A","2202571","2023-03-23 06:00","2023","03","23","06:00","-8.5","","-11.5","","80","","","","8","","14","","24.1","","100.17","","","","-15","","NA"
"-133.48","68.30","INUVIK A","2202571","2023-03-23 07:00","2023","03","23","07:00","-8.0","","-10.8","","81","","","","9","","17","","24.1","","100.19","","","","-15","","Snow"
"-133.48","68.30","INUVIK A","2202571","2023-03-23 08:00","2023","03","23","08:00","-7.8","","-11.1","","77","","","","8","","11","","24.1","","100.18","","","","-13","","Mostly Cloudy"
"-133.48","68.30","INUVIK A","2202571","2023-03-23 09:00","2023","03","23","09:00","-7.4","","-11.0","","76","","","","9","","13","","24.1","","100.17","","","","-13","","NA"
"-133.48","68.30","INUVIK A","2202571","2023-03-23 10:00","2023","03","23","10:00","-7.0","","-10.8","","75","","","","12","","14","","24.1","","100.18","","","","-13","","NA"
"-133.48","68.30","INUVIK A","2202571","2023-03-23 11:00","2023","03","23","11:00","-6.6","","-10.6","","74","","","","12","","18","","24.1","","100.14","","","","-13","","Mostly Cloudy"
"-133.48","68.30","INUVIK A","2202571","2023-03-23 12:00","2023","03","23","12:00","-5.8","","-10.6","","69","","","","11","","21","","24.1","","100.11","","","","-13","","NA"
"-133.48","68.30","INUVIK A","2202571","2023-03-23 13:00","2023","03","23","13:00","-5.5","","-11.5","","63","","","","12","","20","","24.1","","100.09","","","","-12","","NA"
"-133.48","68.30","INUVIK A","2202571","2023-03-23 14:00","2023","03","23","14:00","-5.5","","-11.9","","61","","","","11","","18","","24.1","","100.07","","","","-12","","Mainly Clear"
"-133.48","68.30","INUVIK A","2202571","2023-03-23 15:00","2023","03","23","15:00","-5.1","","-11.9","","59","","","","12","","22","","24.1","","100.05","","","","-12","","NA"
"-133.48","68.30","INUVIK A","2202571","2023-03-23 16:00","2023","03","23","16:00","-4.8","","-11.4","","60","","","","13","","20","","24.1","","100.02","","","","-11","","NA"
"-133.48","68.30","INUVIK A","2202571","2023-03-23 17:00","2023","03","23","17:00","-4.2","","-10.8","","60","","","","13","","17","","24.1","","100.00","","","","-10","","Mainly Clear"
"-133.48","68.30","INUVIK A","2202571","2023-03-23 18:00","2023","03","23","18:00","-3.9","","-10.6","","60","","","","13","","20","","24.1","","99.98","","","","-10","","NA"
"-133.48","68.30","INUVIK A","2202571","2023-03-23 19:00","2023","03","23","19:00","-4.3","","-10.9","","60","","","","14","","12","","24.1","","99.97","","","","-9","","NA"
"-133.48","68.30","INUVIK A","2202571","2023-03-23 20:00","2023","03","23","20:00","-6.0","","-12.0","","63","","","","11","","8","","24.1","","99.97","","","","-10","","Mainly Clear"
"-133.48","68.30","INUVIK A","2202571","2023-03-23 21:00","2023","03","23","21:00","-8.0","","-12.4","","71","","","","14","","7","","24.1","","100.00","","","","-12","","NA"
"-133.48","68.30","INUVIK A","2202571","2023-03-23 22:00","2023","03","23","22:00","-8.3","","-12.4","","73","","","","21","","9","","24.1","","100.01","","","","-13","","NA"
"-133.48","68.30","INUVIK A","2202571","2023-03-23 23:00","2023","03","23","23:00","-10.7","","-13.7","","79","","","","13","","6","","24.1","","100.02","","","","-14","","Clear"
"-133.48","68.30","INUVIK A","2202571","2023-03-24 00:00","2023","03","24","00:00","-10.3","","-13.3","","79","","","","15","","9","","24.1","","100.02","","","","-15","","NA"
"-133.48","68.30","INUVIK A","2202571","2023-03-24 01:00","2023","03","24","01:00","-10.7","","-13.7","","79","","","","14","","10","","24.1","","99.99","","","","-16","","NA"
"-133.48","68.30","INUVIK A","2202571","2023-03-24 02:00","2023","03","24","02:00","-9.6","","-13.3","","75","","","","14","","9","","24.1","","100.03","","","","-14","","Mainly Clear"
"-133.48","68.30","INUVIK A","2202571","2023-03-24 03:00","2023","03","24","03:00","-9.8","","-13.8","","73","","","","13","","10","","24.1","","100.05","","","","-15","","NA"
"-133.48","68.30","INUVIK A","2202571","2023-03-24 04:00","2023","03","24","04:00","-9.8","","-13.8","","72","","","","13","","11","","24.1","","100.07","","","","-15","","NA"
"-133.48","68.30","INUVIK A","2202571","2023-03-24 05:00","2023","03","24","05:00","-9.5","","-14.0","","70","","","","15","","7","","24.1","","100.10","","","","-13","","Mainly Clear"
"-133.48","68.30","INUVIK A","2202571","2023-03-24 06:00","2023","03","24","06:00","-10.1","","-14.4","","71","","","","14","","5","","24.1","","100.13","","","","-13","","NA"
"-133.48","68.30","INUVIK A","2202571","2023-03-24 07:00","2023","03","24","07:00","-9.8","","-14.0","","72","","","","13","","14","","24.1","","100.15","","","","-16","","NA"
"-133.48","68.30","INUVIK A","2202571","2023-03-24 08:00","2023","03","24","08:00","-11.1","","-14.8","","74","","","","12","","6","","24.1","","100.21","","","","-15","","Mainly Clear"
"-133.48","68.30","INUVIK A","2202571","2023-03-24 09:00","2023","03","24","09:00","-10.3","","-14.4","","72","","","","13","","10","","24.1","","100.25","","","","-16","","NA"
"-133.48","68.30","INUVIK A","2202571","2023-03-24 10:00","2023","03","24","10:00","-8.5","","-13.7","","66","","","","15","","8","","24.1","","100.30","","","","-13","","NA"
"-133.48","68.30","INUVIK A","2202571","2023-03-24 11:00","2023","03","24","11:00","-7.1","","-13.0","","63","","","","14","","13","","24.1","","100.31","","","","-13","","Mostly Cloudy"
"-133.48","68.30","INUVIK A","2202571","2023-03-24 12:00","2023","03","24","12:00","-6.3","","-12.5","","62","","","","14","","8","","24.1","","100.37","","","","-10","","NA"
"-133.48","68.30","INUVIK A","2202571","2023-03-24 13:00","2023","03","24","13:00","-4.5","","-11.9","","56","","","","36","","2","","24.1","","100.44","","","","-5","","NA"
"-133.48","68.30","INUVIK A","2202571","2023-03-24 14:00","2023","03","24","14:00","-3.3","","-11.0","","55","","","","36","","2","","24.1","","100.50","","","","-4","","Mostly Cloudy"
"-133.48","68.30","INUVIK A","2202571","2023-03-24 15:00","2023","03","24","15:00","-2.4","","-10.2","","55","","","","18","","3","","24.1","","100.56","","","","-4","","NA"
"-133.48","68.30","INUVIK A","2202571","2023-03-24 16:00","2023","03","24","16:00","-1.6","","-10.4","","51","","","","16","","5","","24.1","","100.58","","","","-3","","NA"
"-133.48","68.30","INUVIK A","2202571","2023-03-24 17:00","2023","03","24","17:00","-1.1","","-9.6","","53","","","","9","","3","","24.1","","100.61","","","","-2","","Mostly Cloudy"
"-133.48","68.30","INUVIK A","2202571","2023-03-24 18:00","2023","03","24","18:00","-0.6","","-9.9","","50","","","","19","","3","","24.1","","100.62","","","","-2","","NA"
"-133.48","68.30","INUVIK A","2202571","2023-03-24 19:00","2023","03","24","19:00","-0.5","","-9.7","","50","","","","27","","4","","24.1","","100.68","","","","-2","","NA"
"-133.48","68.30","INUVIK A","2202571","2023-03-24 20:00","2023","03","24","20:00","-2.7","","-10.2","","57","","","","36","","3","","24.1","","100.72","","","","-4","","Mostly Cloudy"
"-133.48","68.30","INUVIK A","2202571","2023-03-24 21:00","2023","03","24","21:00","-5.2","","-11.2","","63","","","","6","","9","","24.1","","100.77","","","","-9","","NA"
"-133.48","68.30","INUVIK A","2202571","2023-03-24 22:00","2023","03","24","22:00","-7.4","","-11.9","","70","","","","5","","9","","24.1","","100.83","","","","-12","","NA"
"-133.48","68.30","INUVIK A","2202571","2023-03-24 23:00","2023","03","24","23:00","-8.4","","-12.2","","74","","","","5","","9","","24.1","","100.89","","","","-13","","Mainly Clear"
"-133.48","68.30","INUVIK A","2202571","2023-03-25 00:00","2023","03","25","00:00","-9.2","","-12.0","","80","","","","3","","5","","24.1","","100.96","","","","-12","","NA"
"-133.48","68.30","INUVIK A","2202571","2023-03-25 01:00","2023","03","25","01:00","-10.8","","-13.8","","79","","","","6","","5","","24.1","","101.02","","","","-14","","NA"
"-133.48","68.30","INUVIK A","2202571","2023-03-25 02:00","2023","03","25","02:00","-9.9","","-13.2","","77","","","","6","","10","","24.1","","101.08","","","","-15","","Mainly Clear"
"-133.48","68.30","INUVIK A","2202571","2023-03-25 03:00","2023","03","25","03:00","-11.1","","-14.4","","77","","","","36","","2","","24.1","","101.19","","","","-12","","NA"
"-133.48","68.30","INUVIK A","2202571","2023-03-25 04:00","2023","03","25","04:00","-10.7","","-12.9","","84","","","","28","","4","","24.1","","101.29","","","","-13","","NA"
"-133.48","68.30","INUVIK A","2202571","2023-03-25 05:00","2023","03","25","05:00","-12.0","","-13.8","","87","","","","26","","13","","24.1","","101.38","","","","-19","","Mainly Clear"
"-133.48","68.30","INUVIK A","2202571","2023-03-25 06:00","2023","03","25","06:00","-13.8","","-15.2","","89","","","","25","","12","","24.1","","101.51","","","","-21","","NA"
"-133.48","68.30","INUVIK A","2202571","2023-03-25 07:00","2023","03","25","07:00","-12.2","","-13.5","","90","","","","34","","3","","24.1","","101.67","","","","-14","","NA"
"-133.48","68.30","INUVIK A","2202571","2023-03-25 08:00","2023","03","25","08:00","-13.0","","-14.5","","89","","","","20","","7","","24.1","","101.79","","","","-18","","Mostly Cloudy"
"-133.48","68.30","INUVIK A","2202571","2023-03-25 09:00","2023","03","25","09:00","-12.9","","-14.4","","89","","","","24","","8","","24.1","","101.92","","","","-18","","Snow"
"-133.48","68.30","INUVIK A","2202571","2023-03-25 10:00","2023","03","25","10:00","-11.8","","-13.6","","87","","","","31","","18","","12.9","","102.05","","","","-20","","Snow"
"-133.48","68.30","INUVIK A","2202571","2023-03-25 11:00","2023","03","25","11:00","-11.3","","-13.9","","81","","","","31","","20","","6.4","","102.14","","","","-20","","Snow,Fog"
"-133.48","68.30","INUVIK A","2202571","2023-03-25 12:00","2023","03","25","12:00","-10.3","","-14.0","","75","","","","32","","21","","24.1","","102.26","","","","-18","","Snow"
"-133.48","68.30","INUVIK A","2202571","2023-03-25 13:00","2023","03","25","13:00","-11.0","","-14.2","","78","","","","33","","16","","24.1","","102.36","","","","-18","","Snow"
"-133.48","68.30","INUVIK A","2202571","2023-03-25 14:00","2023","03","25","14:00","-9.2","","-13.9","","69","","","","31","","17","","24.1","","102.45","","","","-16","","Blowing Snow"
"-133.48","68.30","INUVIK A","2202571","2023-03-25 15:00","2023","03","25","15:00","-9.2","","-13.9","","69","","","","32","","14","","24.1","","102.57","","","","-16","","Blowing Snow"
"-133.48","68.30","INUVIK A","2202571","2023-03-25 16:00","2023","03","25","16:00","-8.9","","-13.7","","69","","","","32","","15","","24.1","","102.65","","","","-15","","NA"
"-133.48","68.30","INUVIK A","2202571","2023-03-25 17:00","2023","03","25","17:00","-9.0","","-13.8","","68","","","","30","","16","","24.1","","102.72","","","","-16","","Mainly Clear"
"-133.48","68.30","INUVIK A","2202571","2023-03-25 18:00","2023","03","25","18:00","-9.4","","-14.2","","68","","","","31","","17","","24.1","","102.78","","","","-16","","NA"
"-133.48","68.30","INUVIK A","2202571","2023-03-25 19:00","2023","03","25","19:00","-10.1","","-14.7","","69","","","","30","","13","","24.1","","102.85","","","","-16","","NA"
"-133.48","68.30","INUVIK A","2202571","2023-03-25 20:00","2023","03","25","20:00","-11.6","","-15.4","","73","","","","32","","4","","24.1","","102.91","","","","-14","","Clear"
"-133.48","68.30","INUVIK A","2202571","2023-03-25 21:00","2023","03","25","21:00","-13.3","","-16.1","","80","","","","25","","7","","24.1","","102.92","","","","-18","","NA"
"-133.48","68.30","INUVIK A","2202571","2023-03-25 22:00","2023","03","25","22:00","-14.3","","-16.4","","84","","","","29","","3","","24.1","","102.96","","","","-16","","NA"
"-133.48","68.30","INUVIK A","2202571","2023-03-25 23:00","2023","03","25","23:00","-16.5","","-19.1","","81","","","","29","","3","","24.1","","102.96","","","","-19","","Clear"
"-133.48","68.30","INUVIK A","2202571","2023-03-26 00:00","2023","03","26","00:00","-17.8","","-19.5","","87","","","","9","","5","","24.1","","102.95","","","","-22","","NA"
"-133.48","68.30","INUVIK A","2202571","2023-03-26 01:00","2023","03","26","01:00","-19.3","","-21.3","","84","","","","8","","8","","24.1","","102.92","","","","-25","","NA"
"-133.48","68.30","INUVIK A","2202571","2023-03-26 02:00","2023","03","26","02:00","-17.5","","-19.6","","84","","","","10","","6","","24.1","","102.90","","","","-22","","Clear"
"-133.48","68.30","INUVIK A","2202571","2023-03-26 03:00","2023","03","26","03:00","-15.0","","-17.4","","82","","","","13","","8","","24.1","","102.85","","","","-20","","NA"
"-133.48","68.30","INUVIK A","2202571","2023-03-26 04:00","2023","03","26","04:00","-13.5","","-16.1","","80","","","","15","","13","","24.1","","102.77","","","","-20","","NA"
"-133.48","68.30","INUVIK A","2202571","2023-03-26 05:00","2023","03","26","05:00","-11.1","","-16.3","","66","","","","17","","11","","24.1","","102.70","","","","-17","","Mainly Clear"
"-133.48","68.30","INUVIK A","2202571","2023-03-26 06:00","2023","03","26","06:00","-12.2","","-16.6","","70","","","","13","","7","","24.1","","102.67","","","","-17","","NA"
"-133.48","68.30","INUVIK A","2202571","2023-03-26 07:00","2023","03","26","07:00","-11.4","","-15.8","","70","","","","13","","17","","24.1","","102.56","","","","-19","","NA"
"-133.48","68.30","INUVIK A","2202571","2023-03-26 08:00","2023","03","26","08:00","-11.4","","-17.8","","59","","","","7","","4","","24.1","","102.48","","","","-14","","Mainly Clear"
"-133.48","68.30","INUVIK A","2202571","2023-03-26 09:00","2023","03","26","09:00","-10.9","","-18.4","","55","","","","19","","12","","24.1","","102.44","","","","-17","","NA"
"-133.48","68.30","INUVIK A","2202571","2023-03-26 10:00","2023","03","26","10:00","-11.0","","-18.3","","55","","","","15","","9","","24.1","","102.36","","","","-16","","NA"
"-133.48","68.30","INUVIK A","2202571","2023-03-26 11:00","2023","03","26","11:00","-9.6","","-18.0","","51","","","","","","0","","24.1","","102.31","","","","","","Mainly Clear"
"-133.48","68.30","INUVIK A","2202571","2023-03-26 12:00","2023","03","26","12:00","-7.8","","-17.0","","48","","","","36","","3","","24.1","","102.21","","","","-9","","NA"
"-133.48","68.30","INUVIK A","2202571","2023-03-26 13:00","2023","03","26","13:00","-6.4","","-16.2","","46","","","","17","","20","","24.1","","102.10","","","","-13","","Blowing Snow"
"-133.48","68.30","INUVIK A","2202571","2023-03-26 14:00","2023","03","26","14:00","-5.7","","-15.4","","47","","","","17","","16","","24.1","","102.04","","","","-12","","Blowing Snow"
"-133.48","68.30","INUVIK A","2202571","2023-03-26 15:00","2023","03","26","15:00","-5.7","","-14.5","","50","","","","17","","23","","24.1","","101.96","","","","-13","","NA"
"-133.48","68.30","INUVIK A","2202571","2023-03-26 16:00","2023","03","26","16:00","-6.0","","-14.4","","52","","","","18","","11","","24.1","","101.92","","","","-11","","NA"
"-133.48","68.30","INUVIK A","2202571","2023-03-26 17:00","2023","03","26","17:00","-5.7","","-13.8","","53","","","","19","","14","","24.1","","101.81","","","","-11","","Mostly Cloudy"
"-133.48","68.30","INUVIK A","2202571","2023-03-26 18:00","2023","03","26","18:00","-5.3","","-13.0","","55","","","","18","","12","","24.1","","101.68","","","","-10","","NA"
"-133.48","68.30","INUVIK A","2202571","2023-03-26 19:00","2023","03","26","19:00","-5.1","","-12.5","","56","","","","18","","13","","24.1","","101.59","","","","-10","","NA"
"-133.48","68.30","INUVIK A","2202571","2023-03-26 20:00","2023","03","26","20:00","-4.7","","-12.6","","55","","","","17","","16","","24.1","","101.52","","","","-10","","Mostly Cloudy"
"-133.48","68.30","INUVIK A","2202571","2023-03-26 21:00","2023","03","26","21:00","-4.5","","-12.3","","55","","","","16","","18","","24.1","","101.42","","","","-11","","NA"
"-133.48","68.30","INUVIK A","2202571","2023-03-26 22:00","2023","03","26","22:00","-4.1","","-12.5","","52","","","","14","","10","","24.1","","101.33","","","","-8","","NA"
"-133.48","68.30","INUVIK A","2202571","2023-03-26 23:00","2023","03","26","23:00","-3.6","","-12.6","","50","","","","17","","21","","24.1","","101.24","","","","-10","","Mostly Cloudy"
"-133.48","68.30","INUVIK A","2202571","2023-03-27 00:00","2023","03","27","00:00","-3.3","","-12.3","","50","","","","17","","18","","24.1","","101.16","","","","-9","","NA"
"-133.48","68.30","INUVIK A","2202571","2023-03-27 01:00","2023","03","27","01:00","-3.1","","-12.4","","49","","","","19","","4","","24.1","","101.11","","","","-5","","NA"
"-133.48","68.30","INUVIK A","2202571","2023-03-27 02:00","2023","03","27","02:00","-2.5","","-12.6","","46","","","","23","","4","","24.1","","101.05","","","","-4","","Mostly Cloudy"
"-133.48","68.30","INUVIK A","2202571","2023-03-27 03:00","2023","03","27","03:00","-1.8","","-12.2","","45","","","","18","","6","","24.1","","100.97","","","","-4","","NA"
"-133.48","68.30","INUVIK A","2202571","2023-03-27 04:00","2023","03","27","04:00","-1.6","","-11.5","","47","","","","19","","17","","24.1","","100.94","","","","-7","","NA"
"-133.48","68.30","INUVIK A","2202571","2023-03-27 05:00","2023","03","27","05:00","-0.9","","-11.4","","45","","","","18","","16","","24.1","","100.93","","","","-6","","Mostly Cloudy"
"-133.48","68.30","INUVIK A","2202571","2023-03-27 06:00","2023","03","27","06:00","-0.5","","-11.2","","45","","","","17","","14","","24.1","","100.91","","","","-5","","NA"
"-133.48","68.30","INUVIK A","2202571","2023-03-27 07:00","2023","03","27","07:00","-0.8","","-10.7","","47","","","","17","","10","","24.1","","100.87","","","","-4","","NA"
"-133.48","68.30","INUVIK A","2202571","2023-03-27 08:00","2023","03","27","08:00","-0.3","","-9.7","","49","","","","17","","7","","24.1","","100.82","","","","-3","","Cloudy"
"-133.48","68.30","INUVIK A","2202571","2023-03-27 09:00","2023","03","27","09:00","0.1","","-8.5","","53","","","","23","","5","","24.1","","100.80","","","","","","NA"
"-133.48","68.30","INUVIK A","2202571","2023-03-27 10:00","2023","03","27","10:00","0.8","","-6.7","","57","","","","26","","5","","24.1","","100.80","","","","","","NA"
"-133.48","68.30","INUVIK A","2202571","2023-03-27 11:00","2023","03","27","11:00","1.7","","-5.5","","59","","","","13","","3","","24.1","","100.79","","","","","","Mostly Cloudy"
"-133.48","68.30","INUVIK A","2202571","2023-03-27 12:00","2023","03","27","12:00","1.9","","-4.8","","61","","","","17","","5","","24.1","","100.78","","","","","","NA"
"-133.48","68.30","INUVIK A","2202571","2023-03-27 13:00","2023","03","27","13:00","3.1","","-3.8","","61","","","","21","","14","","24.1","","100.80","","","","","","NA"
"-133.48","68.30","INUVIK A","2202571","2023-03-27 14:00","2023","03","27","14:00","3.5","","-3.3","","61","","","","23","","12","","24.1","","100.82","","","","","","Mostly Cloudy"
"-133.48","68.30","INUVIK A","2202571","2023-03-27 15:00","2023","03","27","15:00"
"-133.48","68.30","INUVIK A","2202571","2023-03-27 16:00","2023","03","27","16:00","5.0","","-2.4","","58","","","","24","","17","","24.1","","100.84","","","","","","NA"
"-133.48","68.30","INUVIK A","2202571","2023-03-27 17:00","2023","03","27","17:00","6.0","","-2.2","","55","","","","26","","22","","24.1","","100.85","","","","","","Mostly Cloudy"
"-133.48","68.30","INUVIK A","2202571","2023-03-27 18:00","2023","03","27","18:00"
"-133.48","68.30","INUVIK A","2202571","2023-03-27 19:00","2023","03","27","19:00","4.6","","-1.3","","65","","","","35","","4","","24.1","","100.84","","","","","","NA"
"-133.48","68.30","INUVIK A","2202571","2023-03-27 20:00","2023","03","27","20:00","1.6","","-3.0","","71","","","","29","","8","","24.1","","100.82","","","","","","Mostly Cloudy"
"-133.48","68.30","INUVIK A","2202571","2023-03-27 21:00","2023","03","27","21:00","-0.3","","-4.0","","76","","","","1","","4","","24.1","","100.81","","","","-2","","NA"
"-133.48","68.30","INUVIK A","2202571","2023-03-27 22:00","2023","03","27","22:00","0.8","","-4.4","","68","","","","6","","8","","24.1","","100.76","","","","","","NA"
"-133.48","68.30","INUVIK A","2202571","2023-03-27 23:00","2023","03","27","23:00","-0.8","","-4.8","","74","","","","4","","9","","24.1","","100.73","","","","-4","","Cloudy"
"-133.48","68.30","INUVIK A","2202571","2023-03-28 00:00","2023","03","28","00:00","-0.5","","-4.3","","75","","","","4","","9","","9.7","","100.72","","","","-4","","Snow"
"-133.48","68.30","INUVIK A","2202571","2023-03-28 01:00","2023","03","28","01:00","-0.8","","-1.8","","92","","","","10","","9","","4.0","","100.66","","","","-4","","Snow,Fog"
"-133.48","68.30","INUVIK A","2202571","2023-03-28 02:00","2023","03","28","02:00","-1.4","","-2.3","","93","","","","8","","9","","24.1","","100.66","","","","-5","","Snow"
"-133.48","68.30","INUVIK A","2202571","2023-03-28 03:00","2023","03","28","03:00","-0.9","","-2.3","","90","","","","35","","4","","24.1","","100.71","","","","-2","","Snow"
"-133.48","68.30","INUVIK A","2202571","2023-03-28 04:00","2023","03","28","04:00","-2.8","","-4.5","","88","","","","33","","26","","24.1","","100.83","","","","-10","","Snow,Blowing Snow"
"-133.48","68.30","INUVIK A","2202571","2023-03-28 05:00","2023","03","28","05:00","-3.9","","-5.6","","88","","","","35","","21","","24.1","","100.93","","","","-10","","Mostly Cloudy"
"-133.48","68.30","INUVIK A","2202571","2023-03-28 06:00","2023","03","28","06:00","-3.7","","-5.3","","88","","","","20","","8","","24.1","","101.08","","","","-7","","Snow"
"-133.48","68.30","INUVIK A","2202571","2023-03-28 07:00","2023","03","28","07:00","-3.4","","-4.4","","92","","","","24","","8","","9.7","","101.16","","","","-7","","Snow,Fog"
"-133.48","68.30","INUVIK A","2202571","2023-03-28 08:00","2023","03","28","08:00","-3.3","","-4.5","","91","","","","30","","5","","2.4","","101.21","","","","-5","","Snow,Fog"
"-133.48","68.30","INUVIK A","2202571","2023-03-28 09:00","2023","03","28","09:00","-2.6","","-3.8","","91","","","","30","","5","","1.6","","101.24","","","","-5","","Snow,Fog"
"-133.48","68.30","INUVIK A","2202571","2023-03-28 10:00","2023","03","28","10:00","-1.9","","-5.2","","78","","","","35","","8","","9.7","","101.25","","","","-5","","Snow"
"-133.48","68.30","INUVIK A","2202571","2023-03-28 11:00","2023","03","28","11:00","-2.8","","-6.0","","78","","","","34","","9","","4.8","","101.31","","","","-6","","Snow,Fog"
"-133.48","68.30","INUVIK A","2202571","2023-03-28 12:00","2023","03","28","12:00","-3.3","","-6.3","","80","","","","2","","13","","1.6","","101.31","","","","-8","","Snow,Fog"
"-133.48","68.30","INUVIK A","2202571","2023-03-28 13:00","2023","03","28","13:00","-1.6","","-6.2","","70","","","","4","","11","","24.1","","101.34","","","","-5","","Snow"
"-133.48","68.30","INUVIK A","2202571","2023-03-28 14:00","2023","03","28","14:00","-4.1","","-7.0","","80","","","","2","","3","","6.4","","101.39","","","","-5","","Snow"
"-133.48","68.30","INUVIK A","2202571","2023-03-28 15:00","2023","03","28","15:00","-4.1","","-6.4","","84","","","","1","","9","","3.2","","101.42","","","","-8","","Snow"
"-133.48","68.30","INUVIK A","2202571","2023-03-28 16:00","2023","03","28","16:00","-8.2","","-10.5","","84","","","","35","","36","","1.0","","101.54","","","","-18","","Snow,Blowing Snow"
"-133.48","68.30","INUVIK A","2202571","2023-03-28 17:00","2023","03","28","17:00","-8.6","","-10.8","","84","","","","34","","26","","1.6","","101.72","","","","-17","","Snow,Blowing Snow"
"-133.48","68.30","INUVIK A","2202571","2023-03-28 18:00","2023","03","28","18:00","-10.1","","-13.1","","79","","","","32","","21","","2.4","","101.85","","","","-18","","Snow,Blowing Snow"
"-133.48","68.30","INUVIK A","2202571","2023-03-28 19:00","2023","03","28","19:00","-11.0","","-15.2","","72","","","","33","","22","","16.1","","101.92","","","","-20","","Snow,Blowing Snow"
"-133.48","68.30","INUVIK A","2202571","2023-03-28 20:00","2023","03","28","20:00","-12.1","","-15.6","","75","","","","34","","13","","9.7","","102.01","","","","-19","","Snow,Blowing Snow"
"-133.48","68.30","INUVIK A","2202571","2023-03-28 21:00","2023","03","28","21:00","-12.8","","-14.9","","84","","","","30","","12","","3.2","","102.06","","","","-19","","Snow"
"-133.48","68.30","INUVIK A","2202571","2023-03-28 22:00","2023","03","28","22:00","-13.1","","-15.2","","84","","","","29","","10","","16.1","","102.10","","","","-19","","Snow"
"-133.48","68.30","INUVIK A","2202571","2023-03-28 23:00","2023","03","28","23:00","-13.4","","-16.7","","77","","","","31","","12","","24.1","","102.11","","","","-20","","Snow"
"-133.48","68.30","INUVIK A","2202571","2023-03-29 00:00","2023","03","29","00:00","-15.3","","-18.1","","80","","","","25","","8","","24.1","","102.14","","","","-21","","Snow"
"-133.48","68.30","INUVIK A","2202571","2023-03-29 01:00","2023","03","29","01:00","-15.8","","-17.6","","86","","","","25","","5","","24.1","","102.15","","","","-20","","Snow"
"-133.48","68.30","INUVIK A","2202571","2023-03-29 02:00","2023","03","29","02:00","-16.4","","-18.5","","84","","","","24","","4","","24.1","","102.17","","","","-19","","Snow"
"-133.48","68.30","INUVIK A","2202571","2023-03-29 03:00","2023","03","29","03:00","-18.0","","-19.9","","85","","","","36","","3","","24.1","","102.14","","","","-20","","Snow"
"-133.48","68.30","INUVIK A","2202571","2023-03-29 04:00","2023","03","29","04:00","-20.3","","-22.2","","85","","","","36","","3","","24.1","","102.14","","","","-23","","Snow"
"-133.48","68.30","INUVIK A","2202571","2023-03-29 05:00","2023","03","29","05:00","-21.4","","-23.5","","84","","","","27","","4","","24.1","","102.13","","","","-25","","Mainly Clear"
"-133.48","68.30","INUVIK A","2202571","2023-03-29 06:00","2023","03","29","06:00","-22.5","","-24.7","","83","","","","6","","9","","24.1","","102.10","","","","-30","","NA"
"-133.48","68.30","INUVIK A","2202571","2023-03-29 07:00","2023","03","29","07:00","-22.6","","-25.1","","81","","","","7","","8","","24.1","","102.09","","","","-29","","Ice Crystals"
"-133.48","68.30","INUVIK A","2202571","2023-03-29 08:00","2023","03","29","08:00","-21.2","","-23.6","","81","","","","7","","6","","24.1","","102.05","","","","-26","","Clear"
"-133.48","68.30","INUVIK A","2202571","2023-03-29 09:00","2023","03","29","09:00","-17.3","","-19.2","","85","","","","9","","4","","24.1","","102.04","","","","-20","","NA"
"-133.48","68.30","INUVIK A","2202571","2023-03-29 10:00","2023","03","29","10:00","-15.7","","-17.6","","86","","","","9","","6","","24.1","","101.99","","","","-20","","NA"
"-133.48","68.30","INUVIK A","2202571","2023-03-29 11:00","2023","03","29","11:00","-14.4","","-16.2","","86","","","","13","","6","","24.1","","101.94","","","","-19","","Mainly Clear"
"-133.48","68.30","INUVIK A","2202571","2023-03-29 12:00","2023","03","29","12:00","-13.3","","-15.2","","86","","","","16","","9","","24.1","","101.91","","","","-19","","NA"
"-133.48","68.30","INUVIK A","2202571","2023-03-29 13:00","2023","03","29","13:00","-12.4","","-15.7","","76","","","","15","","10","","24.1","","101.85","","","","-18","","NA"
"-133.48","68.30","INUVIK A","2202571","2023-03-29 14:00","2023","03","29","14:00","-11.2","","-16.5","","65","","","","15","","10","","24.1","","101.81","","","","-17","","Clear"
"-133.48","68.30","INUVIK A","2202571","2023-03-29 15:00","2023","03","29","15:00","-10.6","","-16.3","","63","","","","18","","7","","24.1","","101.77","","","","-15","","NA"
"-133.48","68.30","INUVIK A","2202571","2023-03-29 16:00","2023","03","29","16:00","-10.5","","-15.7","","66","","","","8","","13","","24.1","","101.72","","","","-17","","NA"
"-133.48","68.30","INUVIK A","2202571","2023-03-29 17:00","2023","03","29","17:00","-9.8","","-15.6","","63","","","","8","","11","","24.1","","101.65","","","","-15","","Clear"
"-133.48","68.30","INUVIK A","2202571","2023-03-29 18:00","2023","03","29","18:00","-10.4","","-16.5","","61","","","","5","","13","","24.1","","101.60","","","","-17","","NA"
"-133.48","68.30","INUVIK A","2202571","2023-03-29 19:00","2023","03","29","19:00","-11.3","","-16.8","","64","","","","7","","16","","24.1","","101.54","","","","-19","","NA"
"-133.48","68.30","INUVIK A","2202571","2023-03-29 20:00","2023","03","29","20:00","-13.4","","-18.1","","68","","","","6","","15","","24.1","","101.50","","","","-21","","Clear"
"-133.48","68.30","INUVIK A","2202571","2023-03-29 21:00","2023","03","29","21:00","-15.2","","-19.3","","71","","","","6","","10","","24.1","","101.49","","","","-21","","NA"
"-133.48","68.30","INUVIK A","2202571","2023-03-29 22:00","2023","03","29","22:00","-17.2","","-20.6","","75","","","","36","","3","","24.1","","101.45","","","","-20","","NA"
"-133.48","68.30","INUVIK A","2202571","2023-03-29 23:00","2023","03","29","23:00","-17.1","","-20.8","","74","","","","7","","9","","24.1","","101.43","","","","-23","","Clear"
"-133.48","68.30","INUVIK A","2202571","2023-03-30 00:00","2023","03","30","00:00","-17.3","","-20.7","","75","","","","7","","12","","24.1","","101.40","","","","-25","","NA"
"-133.48","68.30","INUVIK A","2202571","2023-03-30 01:00","2023","03","30","01:00","-17.9","","-21.4","","75","","","","7","","13","","24.1","","101.35","","","","-26","","NA"
"-133.48","68.30","INUVIK A","2202571","2023-03-30 02:00","2023","03","30","02:00","-16.3","","-20.7","","69","","","","8","","17","","24.1","","101.31","","","","-25","","Clear"
"-133.48","68.30","INUVIK A","2202571","2023-03-30 03:00","2023","03","30","03:00","-16.1","","-20.3","","71","","","","9","","20","","24.1","","101.26","","","","-26","","NA"
"-133.48","68.30","INUVIK A","2202571","2023-03-30 04:00","2023","03","30","04:00","-16.8","","-20.5","","73","","","","8","","18","","24.1","","101.22","","","","-26","","NA"
"-133.48","68.30","INUVIK A","2202571","2023-03-30 05:00","2023","03","30","05:00","-17.1","","-20.9","","73","","","","9","","18","","24.1","","101.18","","","","-26","","Clear"
"-133.48","68.30","INUVIK A","2202571","2023-03-30 06:00","2023","03","30","06:00","-16.9","","-20.5","","74","","","","8","","18","","24.1","","101.15","","","","-26","","NA"
"-133.48","68.30","INUVIK A","2202571","2023-03-30 07:00","2023","03","30","07:00","-17.1","","-20.6","","74","","","","8","","20","","24.1","","101.11","","","","-27","","NA"
"-133.48","68.30","INUVIK A","2202571","2023-03-30 08:00","2023","03","30","08:00","-18.2","","-21.6","","75","","","","6","","11","","24.1","","101.11","","","","-25","","Clear"
"-133.48","68.30","INUVIK A","2202571","2023-03-30 09:00","2023","03","30","09:00","-16.6","","-20.6","","72","","","","9","","15","","24.1","","101.07","","","","-25","","NA"
"-133.48","68.30","INUVIK A","2202571","2023-03-30 10:00","2023","03","30","10:00","-15.5","","-20.3","","67","","","","10","","13","","24.1","","101.02","","","","-23","","NA"
"-133.48","68.30","INUVIK A","2202571","2023-03-30 11:00","2023","03","30","11:00","-13.8","","-20.4","","58","","","","7","","17","","24.1","","100.97","","","","-22","","Clear"
"-133.48","68.30","INUVIK A","2202571","2023-03-30 12:00","2023","03","30","12:00","-12.7","","-20.2","","54","","","","9","","17","","24.1","","100.95","","","","-21","","NA"
"-133.48","68.30","INUVIK A","2202571","2023-03-30 13:00","2023","03","30","13:00","-11.5","","-19.4","","53","","","","9","","20","","24.1","","100.92","","","","-20","","NA"
"-133.48","68.30","INUVIK A","2202571","2023-03-30 14:00","2023","03","30","14:00","-10.6","","-18.8","","51","","","","10","","21","","24.1","","100.88","","","","-19","","Clear"
"-133.48","68.30","INUVIK A","2202571","2023-03-30 15:00","2023","03","30","15:00","-10.1","","-18.1","","52","","","","9","","22","","24.1","","100.84","","","","-18","","NA"
"-133.48","68.30","INUVIK A","2202571","2023-03-30 16:00","2023","03","30","16:00","-10.0","","-19.4","","47","","","","10","","24","","24.1","","100.78","","","","-19","","NA"
"-133.48","68.30","INUVIK A","2202571","2023-03-30 17:00","2023","03","30","17:00","-10.1","","-18.9","","49","","","","8","","21","","24.1","","100.75","","","","-18","","Clear"
"-133.48","68.30","INUVIK A","2202571","2023-03-30 18:00","2023","03","30","18:00","-10.3","","-18.6","","51","","","","9","","23","","24.1","","100.70","","","","-19","","NA"
"-133.48","68.30","INUVIK A","2202571","2023-03-30 19:00","2023","03","30","19:00","-10.6","","-19.8","","48","","","","8","","25","","24.1","","100.65","","","","-20","","NA"
"-133.48","68.30","INUVIK A","2202571","2023-03-30 20:00","2023","03","30","20:00","-12.3","","-19.9","","54","","","","7","","17","","24.1","","100.63","","","","-20","","Clear"
"-133.48","68.30","INUVIK A","2202571","2023-03-30 21:00","2023","03","30","21:00","-13.8","","-20.1","","59","","","","7","","19","","24.1","","100.63","","","","-22","","NA"
"-133.48","68.30","INUVIK A","2202571","2023-03-30 22:00","2023","03","30","22:00","-14.5","","-20.1","","63","","","","7","","18","","24.1","","100.63","","","","-23","","NA"
"-133.48","68.30","INUVIK A","2202571","2023-03-30 23:00","2023","03","30","23:00","-14.4","","-19.9","","63","","","","8","","21","","24.1","","100.62","","","","-24","","Clear"
"-133.48","68.30","INUVIK A","2202571","2023-03-31 00:00","2023","03","31","00:00","-15.0","","-20.2","","65","","","","8","","18","","24.1","","100.61","","","","-24","","NA"
"-133.48","68.30","INUVIK A","2202571","2023-03-31 01:00","2023","03","31","01:00","-16.0","","-20.7","","67","","","","8","","12","","24.1","","100.58","","","","-23","","NA"
"-133.48","68.30","INUVIK A","2202571","2023-03-31 02:00","2023","03","31","02:00","-16.8","","-21.1","","69","","","","8","","16","","24.1","","100.55","","","","-25","","Mainly Clear"
"-133.48","68.30","INUVIK A","2202571","2023-03-31 03:00","2023","03","31","03:00","-16.9","","-21.6","","68","","","","8","","14","","24.1","","100.53","","","","-25","","NA"
"-133.48","68.30","INUVIK A","2202571","2023-03-31 04:00","2023","03","31","04:00","-17.6","","-22.1","","68","","","","7","","10","","24.1","","100.50","","","","-24","","NA"
"-133.48","68.30","INUVIK A","2202571","2023-03-31 05:00","2023","03","31","05:00","-17.6","","-22.4","","67","","","","7","","18","","24.1","","100.46","","","","-27","","Clear"
"-133.48","68.30","INUVIK A","2202571","2023-03-31 06:00","2023","03","31","06:00","-18.2","","-22.9","","67","","","","6","","19","","24.1","","100.42","","","","-28","","NA"
"-133.48","68.30","INUVIK A","2202571","2023-03-31 07:00","2023","03","31","07:00","-18.7","","-23.2","","68","","","","7","","17","","24.1","","100.42","","","","-28","","NA"
"-133.48","68.30","INUVIK A","2202571","2023-03-31 08:00","2023","03","31","08:00","-18.9","","-23.6","","67","","","","7","","17","","24.1","","100.40","","","","-28","","Blowing Snow"
"-133.48","68.30","INUVIK A","2202571","2023-03-31 09:00","2023","03","31","09:00","-18.6","","-23.8","","64","","","","8","","16","","24.1","","100.38","","","","-28","","NA"
"-133.48","68.30","INUVIK A","2202571","2023-03-31 10:00","2023","03","31","10:00","-17.7","","-23.7","","60","","","","8","","19","","24.1","","100.36","","","","-27","","NA"
"-133.48","68.30","INUVIK A","2202571","2023-03-31 11:00","2023","03","31","11:00","-16.4","","-23.1","","57","","","","7","","17","","24.1","","100.35","","","","-25","","Mainly Clear"
"-133.48","68.30","INUVIK A","2202571","2023-03-31 12:00","2023","03","31","12:00","-15.0","","-22.4","","54","","","","7","","20","","24.1","","100.32","","","","-24","","NA"
"-133.48","68.30","INUVIK A","2202571","2023-03-31 13:00","2023","03","31","13:00","-14.1","","-21.9","","52","","","","7","","21","","24.1","","100.31","","","","-23","","NA"
"-133.48","68.30","INUVIK A","2202571","2023-03-31 14:00","2023","03","31","14:00","-13.4","","-21.2","","53","","","","8","","20","","24.1","","100.31","","","","-22","","Mainly Clear"
"-133.48","68.30","INUVIK A","2202571","2023-03-31 15:00","2023","03","31","15:00","-12.9","","-20.7","","53","","","","7","","17","","24.1","","100.30","","","","-21","","NA"
"-133.48","68.30","INUVIK A","2202571","2023-03-31 16:00","2023","03","31","16:00","-12.4","","-20.4","","52","","","","6","","21","","24.1","","100.28","","","","-21","","NA"
"-133.48","68.30","INUVIK A","2202571","2023-03-31 17:00","2023","03","31","17:00","-11.5","","-19.6","","52","","","","8","","19","","24.1","","100.26","","","","-20","","Mainly Clear"
"-133.48","68.30","INUVIK A","2202571","2023-03-31 18:00","2023","03","31","18:00","-11.8","","-19.6","","53","","","","7","","16","","24.1","","100.26","","","","-19","","NA"
"-133.48","68.30","INUVIK A","2202571","2023-03-31 19:00","2023","03","31","19:00","-13.3","","-19.9","","58","","","","5","","14","","24.1","","100.25","","","","-21","","NA"
"-133.48","68.30","INUVIK A","2202571","2023-03-31 20:00","2023","03","31","20:00","-13.8","","-20.2","","59","","","","5","","14","","24.1","","100.26","","","","-21","","Mainly Clear"
"-133.48","68.30","INUVIK A","2202571","2023-03-31 21:00","2023","03","31","21:00","-14.8","","-20.6","","62","","","","5","","14","","24.1","","100.28","","","","-22","","NA"
"-133.48","68.30","INUVIK A","2202571","2023-03-31 22:00","2023","03","31","22:00","-14.9","","-21.1","","60","","","","6","","19","","24.1","","100.29","","","","-24","","NA"
"-133.48","68.30","INUVIK A","2202571","2023-03-31 23:00","2023","03","31","23:00","-14.4","","-21.0","","57","","","","7","","20","","24.1","","100.28","","","","-23","","Mainly Clear"
