"Longitude (x)","Latitude (y)","Station Name","Climate ID","Date/Time (LST)","Year","Month","Day","Time (LST)","Temp (°C)","Temp Flag","Dew Point Temp (°C)","Dew Point Temp Flag","Rel Hum (%)","Rel Hum Flag","Precip. Amount (mm)","Precip. Amount Flag","Wind Dir (10s deg)","Wind Dir Flag","Wind Spd (km/h)","Wind Spd Flag","Visibility (km)","Visibility Flag","Stn Press (kPa)","Stn Press Flag","Hmdx","Hmdx Flag","Wind Chill","Wind Chill Flag","Weather"
"-81.11","44.74","WIARTON A","6119499","2022-12-01 00:00","2022","12","01","00:00","-1.5","","-6.3","","70","","","","26","","34","","3.2","","98.37","","","","-9","","Snow Showers,Blowing Snow"
"-81.11","44.74","WIARTON A","6119499","2022-12-01 01:00","2022","12","01","01:00","-1.0","","-6.8","","65","","","","27","","26","","12.9","","98.47","","","","-7","","Snow Showers,Blowing Snow"
"-81.11","44.74","WIARTON A","6119499","2022-12-01 02:00","2022","12","01","02:00","-2.2","","-4.0","","87","","","","27","","37","","1.6","","98.62","","","","-10","","Snow,Snow Showers,Blowing Snow"
"-81.11","44.74","WIARTON A","6119499","2022-12-01 03:00","2022","12","01","03:00","-1.7","","-4.8","","79","","","","27","","29","","1.6","","98.73","","","","-9","","Snow Showers,Blowing Snow"
"-81.11","44.74","WIARTON A","6119499","2022-12-01 04:00","2022","12","01","04:00","-1.2","","-5.9","","70","","","","27","","35","","9.7","","98.83","","","","-9","","Snow Showers,Blowing Snow"
"-81.11","44.74","WIARTON A","6119499","2022-12-01 05:00","2022","12","01","05:00","-1.2","","-4.5","","78","","","","28","","37","","4.8","","98.96","","","","-9","","Snow Showers,Blowing Snow"
"-81.11","44.74","WIARTON A","6119499","2022-12-01 06:00","2022","12","01","06:00","-1.2","","-3.1","","87","","","","27","","30","","2.4","","99.10","","","","-8","","Snow Showers,Blowing Snow"
"-81.11","44.74","WIARTON A","6119499","2022-12-01 07:00","2022","12","01","07:00","-0.2","","-3.2","","80","","","","28","","32","","16.1","","99.22","","","","-7","","Snow Showers,Blowing Snow"
"-81.11","44.74","WIARTON A","6119499","2022-12-01 08:00","2022","12","01","08:00","0.7","","-4.8","","67","","","","30","","27","","24.1","","99.39","","","","","","Blowing Snow"
"-81.11","44.74","WIARTON A","6119499","2022-12-01 09:00","2022","12","01","09:00","0.8","","-3.6","","72","","","","29","","25","","24.1","","99.54","","","","","","Blowing Snow"
"-81.11","44.74","WIARTON A","6119499","2022-12-01 10:00","2022","12","01","10:00","1.0","","-5.2","","63","","","","29","","26","","24.1","","99.66","","","","","","Mostly Cloudy"
"-81.11","44.74","WIARTON A","6119499","2022-12-01 11:00","2022","12","01","11:00","1.1","","-5.2","","63","","","","29","","24","","24.1","","99.76","","","","","","NA"
"-81.11","44.74","WIARTON A","6119499","2022-12-01 12:00","2022","12","01","12:00","1.5","","-5.3","","60","","","","29","","26","","24.1","","99.82","","","","","","NA"
"-81.11","44.74","WIARTON A","6119499","2022-12-01 13:00","2022","12","01","13:00","1.3","","-3.4","","71","","","","28","","19","","24.1","","99.87","","","","","","Mostly Cloudy"
"-81.11","44.74","WIARTON A","6119499","2022-12-01 14:00","2022","12","01","14:00","0.9","","-3.5","","73","","","","27","","18","","24.1","","99.92","","","","","","Snow Grains"
"-81.11","44.74","WIARTON A","6119499","2022-12-01 15:00","2022","12","01","15:00","0.9","","-4.7","","66","","","","27","","23","","24.1","","99.97","","","","","","NA"
"-81.11","44.74","WIARTON A","6119499","2022-12-01 16:00","2022","12","01","16:00","0.5","","-4.8","","68","","","","26","","14","","24.1","","100.07","","","","","","Cloudy"
"-81.11","44.74","WIARTON A","6119499","2022-12-01 17:00","2022","12","01","17:00","0.0","","-5.0","","69","","","","25","","18","","24.1","","100.07","","","","-5","","NA"
"-81.11","44.74","WIARTON A","6119499","2022-12-01 18:00","2022","12","01","18:00","-0.2","","-4.8","","71","","","","24","","16","","24.1","","100.09","","","","-5","","NA"
"-81.11","44.74","WIARTON A","6119499","2022-12-01 19:00","2022","12","01","19:00","-0.5","","-5.1","","71","","","","23","","16","","24.1","","100.04","","","","-5","","Cloudy"
"-81.11","44.74","WIARTON A","6119499","2022-12-01 20:00","2022","12","01","20:00","-0.7","","-5.2","","72","","","","23","","16","","24.1","","100.07","","","","-5","","NA"
"-81.11","44.74","WIARTON A","6119499","2022-12-01 21:00","2022","12","01","21:00","-1.6","","-5.7","","74","","","","19","","18","","24.1","","100.04","","","","-7","","NA"
"-81.11","44.74","WIARTON A","6119499","2022-12-01 22:00","2022","12","01","22:00","-2.2","","-6.0","","75","","","","18","","18","","24.1","","100.05","","","","-8","","Cloudy"
"-81.11","44.74","WIARTON A","6119499","2022-12-01 23:00","2022","12","01","23:00","-2.6","","-6.5","","75","","","","17","","17","","24.1","","100.01","","","","-8","","NA"
"-81.11","44.74","WIARTON A","6119499","2022-12-02 00:00","2022","12","02","00:00","-2.6","","-6.8","","73","","","","17","","20","","24.1","","99.99","","","","-9","","NA"
"-81.11","44.74","WIARTON A","6119499","2022-12-02 01:00","2022","12","02","01:00","-2.4","","-6.2","","75","","","","18","","18","","24.1","","99.92","","","","-8","","Mostly Cloudy"
"-81.11","44.74","WIARTON A","6119499","2022-12-02 02:00","2022","12","02","02:00","-1.7","","-5.0","","78","","","","18","","19","","24.1","","99.87","","","","-7","","NA"
"-81.11","44.74","WIARTON A","6119499","2022-12-02 03:00","2022","12","02","03:00","-1.5","","-5.8","","73","","","","18","","21","","24.1","","99.81","","","","-7","","NA"
"-81.11","44.74","WIARTON A","6119499","2022-12-02 04:00","2022","12","02","04:00","-1.4","","-5.1","","76","","","","18","","23","","24.1","","99.73","","","","-7","","Cloudy"
"-81.11","44.74","WIARTON A","6119499","2022-12-02 05:00","2022","12","02","05:00","-1.0","","-5.6","","71","","","","18","","22","","24.1","","99.71","","","","-7","","NA"
"-81.11","44.74","WIARTON A","6119499","2022-12-02 06:00","2022","12","02","06:00","-0.7","","-6.1","","67","","","","17","","20","","24.1","","99.61","","","","-6","","NA"
"-81.11","44.74","WIARTON A","6119499","2022-12-02 07:00","2022","12","02","07:00","-0.1","","-6.7","","61","","","","17","","25","","24.1","","99.52","","","","-6","","Cloudy"
"-81.11","44.74","WIARTON A","6119499","2022-12-02 08:00","2022","12","02","08:00","0.6","","-6.5","","59","","","","18","","25","","24.1","","99.43","","","","","","NA"
"-81.11","44.74","WIARTON A","6119499","2022-12-02 09:00","2022","12","02","09:00","1.4","","-5.9","","58","","","","17","","33","","24.1","","99.36","","","","","","NA"
"-81.11","44.74","WIARTON A","6119499","2022-12-02 10:00","2022","12","02","10:00","2.1","","-5.5","","57","","","","18","","31","","24.1","","99.30","","","","","","Mostly Cloudy"
"-81.11","44.74","WIARTON A","6119499","2022-12-02 11:00","2022","12","02","11:00","2.6","","-4.6","","59","","","","19","","31","","24.1","","99.23","","","","","","NA"
"-81.11","44.74","WIARTON A","6119499","2022-12-02 12:00","2022","12","02","12:00","2.6","","-3.9","","62","","","","19","","25","","24.1","","99.10","","","","","","NA"
"-81.11","44.74","WIARTON A","6119499","2022-12-02 13:00","2022","12","02","13:00","3.2","","-4.1","","59","","","","18","","32","","24.1","","98.98","","","","","","Mostly Cloudy"
"-81.11","44.74","WIARTON A","6119499","2022-12-02 14:00","2022","12","02","14:00","3.4","","-3.8","","60","","","","17","","24","","24.1","","98.85","","","","","","NA"
"-81.11","44.74","WIARTON A","6119499","2022-12-02 15:00","2022","12","02","15:00","3.6","","-3.7","","59","","","","16","","25","","24.1","","98.70","","","","","","NA"
"-81.11","44.74","WIARTON A","6119499","2022-12-02 16:00","2022","12","02","16:00","4.0","","-3.6","","58","","","","17","","26","","24.1","","98.58","","","","","","Cloudy"
"-81.11","44.74","WIARTON A","6119499","2022-12-02 17:00","2022","12","02","17:00","4.5","","-3.5","","56","","","","17","","32","","24.1","","98.50","","","","","","NA"
"-81.11","44.74","WIARTON A","6119499","2022-12-02 18:00","2022","12","02","18:00","4.7","","-2.9","","58","","","","18","","35","","24.1","","98.42","","","","","","NA"
"-81.11","44.74","WIARTON A","6119499","2022-12-02 19:00","2022","12","02","19:00","5.2","","-2.5","","57","","","","18","","36","","24.1","","98.36","","","","","","Cloudy"
"-81.11","44.74","WIARTON A","6119499","2022-12-02 20:00","2022","12","02","20:00","5.8","","-2.4","","55","","","","19","","33","","24.1","","98.34","","","","","","NA"
"-81.11","44.74","WIARTON A","6119499","2022-12-02 21:00","2022","12","02","21:00","6.3","","-2.0","","55","","","","20","","30","","24.1","","98.24","","","","","","NA"
"-81.11","44.74","WIARTON A","6119499","2022-12-02 22:00","2022","12","02","22:00","6.3","","-0.6","","61","","","","19","","24","","24.1","","98.18","","","","","","Cloudy"
"-81.11","44.74","WIARTON A","6119499","2022-12-02 23:00","2022","12","02","23:00","6.5","","0.0","","63","","","","19","","23","","24.1","","98.06","","","","","","NA"
"-81.11","44.74","WIARTON A","6119499","2022-12-03 00:00","2022","12","03","00:00","7.4","","0.3","","61","","","","19","","26","","24.1","","97.93","","","","","","NA"
"-81.11","44.74","WIARTON A","6119499","2022-12-03 01:00","2022","12","03","01:00","8.2","","1.1","","61","","","","20","","34","","24.1","","97.84","","","","","","Cloudy"
"-81.11","44.74","WIARTON A","6119499","2022-12-03 02:00","2022","12","03","02:00","8.9","","2.5","","64","","","","22","","31","","24.1","","97.76","","","","","","NA"
"-81.11","44.74","WIARTON A","6119499","2022-12-03 03:00","2022","12","03","03:00","8.2","","5.0","","80","","","","22","","35","","24.1","","97.74","","","","","","Rain Showers"
"-81.11","44.74","WIARTON A","6119499","2022-12-03 04:00","2022","12","03","04:00","8.6","","4.9","","78","","","","21","","29","","24.1","","97.64","","","","","","Cloudy"
"-81.11","44.74","WIARTON A","6119499","2022-12-03 05:00","2022","12","03","05:00","8.6","","6.4","","86","","","","21","","32","","16.1","","97.61","","","","","","Rain Showers"
"-81.11","44.74","WIARTON A","6119499","2022-12-03 06:00","2022","12","03","06:00","8.4","","7.3","","93","","","","21","","31","","19.3","","97.56","","","","","","NA"
"-81.11","44.74","WIARTON A","6119499","2022-12-03 07:00","2022","12","03","07:00","8.6","","7.4","","92","","","","23","","34","","24.1","","97.56","","","","","","Rain Showers"
"-81.11","44.74","WIARTON A","6119499","2022-12-03 08:00","2022","12","03","08:00","8.2","","7.3","","94","","","","23","","29","","16.1","","97.51","","","","","","Rain Showers"
"-81.11","44.74","WIARTON A","6119499","2022-12-03 09:00","2022","12","03","09:00","3.7","","2.5","","92","","","","29","","29","","6.4","","97.74","","","","","","Rain Showers,Fog"
"-81.11","44.74","WIARTON A","6119499","2022-12-03 10:00","2022","12","03","10:00","2.2","","1.3","","93","","","","29","","33","","4.8","","98.00","","","","","","Rain Showers,Fog"
"-81.11","44.74","WIARTON A","6119499","2022-12-03 11:00","2022","12","03","11:00","2.4","","-0.6","","80","","","","29","","30","","24.1","","98.20","","","","","","NA"
"-81.11","44.74","WIARTON A","6119499","2022-12-03 12:00","2022","12","03","12:00","1.6","","-2.7","","73","","","","29","","36","","24.1","","98.41","","","","","","NA"
"-81.11","44.74","WIARTON A","6119499","2022-12-03 13:00","2022","12","03","13:00","1.0","","-3.9","","70","","","","30","","40","","24.1","","98.61","","","","","","Cloudy"
"-81.11","44.74","WIARTON A","6119499","2022-12-03 14:00","2022","12","03","14:00","0.5","","-4.3","","70","","","","29","","28","","24.1","","98.82","","","","","","NA"
"-81.11","44.74","WIARTON A","6119499","2022-12-03 15:00","2022","12","03","15:00","0.2","","-6.2","","63","","","","30","","32","","24.1","","99.01","","","","","","NA"
"-81.11","44.74","WIARTON A","6119499","2022-12-03 16:00","2022","12","03","16:00","-0.4","","-6.3","","64","","","","30","","29","","24.1","","99.16","","","","-7","","Mostly Cloudy"
"-81.11","44.74","WIARTON A","6119499","2022-12-03 17:00","2022","12","03","17:00","-0.4","","-6.1","","65","","","","30","","27","","24.1","","99.28","","","","-7","","NA"
"-81.11","44.74","WIARTON A","6119499","2022-12-03 18:00","2022","12","03","18:00","-0.7","","-7.5","","60","","","","30","","26","","24.1","","99.37","","","","-7","","NA"
"-81.11","44.74","WIARTON A","6119499","2022-12-03 19:00","2022","12","03","19:00","-0.9","","-7.1","","63","","","","29","","17","","24.1","","99.46","","","","-6","","Cloudy"
"-81.11","44.74","WIARTON A","6119499","2022-12-03 20:00","2022","12","03","20:00","-1.0","","-7.6","","61","","","","29","","23","","24.1","","99.53","","","","-7","","Snow"
"-81.11","44.74","WIARTON A","6119499","2022-12-03 21:00","2022","12","03","21:00","-1.3","","-7.4","","63","","","","27","","21","","24.1","","99.55","","","","-7","","Snow"
"-81.11","44.74","WIARTON A","6119499","2022-12-03 22:00","2022","12","03","22:00","-1.3","","-7.4","","63","","","","28","","27","","16.1","","99.58","","","","-8","","Snow"
"-81.11","44.74","WIARTON A","6119499","2022-12-03 23:00","2022","12","03","23:00","-1.3","","-8.7","","58","","","","27","","24","","24.1","","99.56","","","","-7","","NA"
"-81.11","44.74","WIARTON A","6119499","2022-12-04 00:00","2022","12","04","00:00","-1.3","","-8.2","","60","","","","28","","22","","24.1","","99.59","","","","-7","","NA"
"-81.11","44.74","WIARTON A","6119499","2022-12-04 01:00","2022","12","04","01:00","-1.5","","-6.7","","68","","","","26","","21","","16.1","","99.54","","","","-7","","Snow Pellets"
"-81.11","44.74","WIARTON A","6119499","2022-12-04 02:00","2022","12","04","02:00","-1.6","","-8.1","","61","","","","25","","14","","24.1","","99.53","","","","-6","","Snow Showers"
"-81.11","44.74","WIARTON A","6119499","2022-12-04 03:00","2022","12","04","03:00","-1.8","","-8.6","","60","","","","25","","12","","24.1","","99.54","","","","-6","","NA"
"-81.11","44.74","WIARTON A","6119499","2022-12-04 04:00","2022","12","04","04:00","-1.8","","-8.0","","63","","","","25","","19","","24.1","","99.52","","","","-7","","Cloudy"
"-81.11","44.74","WIARTON A","6119499","2022-12-04 05:00","2022","12","04","05:00","-1.7","","-8.2","","61","","","","25","","20","","24.1","","99.45","","","","-7","","NA"
"-81.11","44.74","WIARTON A","6119499","2022-12-04 06:00","2022","12","04","06:00","-1.5","","-7.7","","63","","","","24","","18","","24.1","","99.38","","","","-7","","NA"
"-81.11","44.74","WIARTON A","6119499","2022-12-04 07:00","2022","12","04","07:00","-1.8","","-6.3","","71","","","","22","","28","","24.1","","99.35","","","","-9","","Cloudy"
"-81.11","44.74","WIARTON A","6119499","2022-12-04 08:00","2022","12","04","08:00","-1.8","","-5.7","","75","","","","22","","23","","24.1","","99.28","","","","-8","","NA"
"-81.11","44.74","WIARTON A","6119499","2022-12-04 09:00","2022","12","04","09:00","-1.9","","-6.3","","72","","","","21","","29","","24.1","","99.23","","","","-9","","NA"
"-81.11","44.74","WIARTON A","6119499","2022-12-04 10:00","2022","12","04","10:00","-1.4","","-5.8","","72","","","","21","","25","","24.1","","99.19","","","","-8","","Cloudy"
"-81.11","44.74","WIARTON A","6119499","2022-12-04 11:00","2022","12","04","11:00","-1.2","","-5.5","","72","","","","22","","25","","24.1","","99.10","","","","-7","","NA"
"-81.11","44.74","WIARTON A","6119499","2022-12-04 12:00","2022","12","04","12:00","-0.4","","-5.7","","68","","","","24","","32","","24.1","","99.00","","","","-7","","NA"
"-81.11","44.74","WIARTON A","6119499","2022-12-04 13:00","2022","12","04","13:00","-0.4","","-5.5","","68","","","","24","","30","","24.1","","98.93","","","","-7","","Cloudy"
"-81.11","44.74","WIARTON A","6119499","2022-12-04 14:00","2022","12","04","14:00","0.3","","-4.6","","70","","","","25","","22","","24.1","","98.81","","","","","","NA"
"-81.11","44.74","WIARTON A","6119499","2022-12-04 15:00","2022","12","04","15:00","0.6","","-4.7","","68","","","","24","","22","","24.1","","98.79","","","","","","NA"
"-81.11","44.74","WIARTON A","6119499","2022-12-04 16:00","2022","12","04","16:00","0.4","","-4.6","","69","","","","24","","25","","24.1","","98.73","","","","","","Mostly Cloudy"
"-81.11","44.74","WIARTON A","6119499","2022-12-04 17:00","2022","12","04","17:00","0.8","","-4.4","","68","","","","24","","31","","24.1","","98.73","","","","","","NA"
"-81.11","44.74","WIARTON A","6119499","2022-12-04 18:00","2022","12","04","18:00","1.2","","-4.1","","68","","","","23","","24","","24.1","","98.69","","","","","","NA"
"-81.11","44.74","WIARTON A","6119499","2022-12-04 19:00","2022","12","04","19:00","1.7","","-4.7","","62","","","","24","","31","","24.1","","98.62","","","","","","Mostly Cloudy"
"-81.11","44.74","WIARTON A","6119499","2022-12-04 20:00","2022","12","04","20:00","2.1","","-5.4","","58","","","","23","","37","","24.1","","98.56","","","","","","NA"
"-81.11","44.74","WIARTON A","6119499","2022-12-04 21:00","2022","12","04","21:00","2.1","","-4.6","","61","","","","23","","32","","24.1","","98.53","","","","","","NA"
"-81.11","44.74","WIARTON A","6119499","2022-12-04 22:00","2022","12","04","22:00","2.1","","-4.5","","62","","","","23","","31","","24.1","","98.49","","","","","","Mostly Cloudy"
"-81.11","44.74","WIARTON A","6119499","2022-12-04 23:00","2022","12","04","23:00","2.0","","-4.9","","61","","","","23","","40","","24.1","","98.44","","","","","","NA"
"-81.11","44.74","WIARTON A","6119499","2022-12-05 00:00","2022","12","05","00:00","1.8","","-4.6","","62","","","","24","","39","","24.1","","98.41","","","","","","NA"
"-81.11","44.74","WIARTON A","6119499","2022-12-05 01:00","2022","12","05","01:00","1.8","","-4.4","","64","","","","24","","32","","24.1","","98.36","","","","","","Clear"
"-81.11","44.74","WIARTON A","6119499","2022-12-05 02:00","2022","12","05","02:00","1.9","","-3.8","","66","","","","24","","31","","24.1","","98.35","","","","","","NA"
"-81.11","44.74","WIARTON A","6119499","2022-12-05 03:00","2022","12","05","03:00","2.0","","-3.3","","68","","","","24","","33","","24.1","","98.35","","","","","","NA"
"-81.11","44.74","WIARTON A","6119499","2022-12-05 04:00","2022","12","05","04:00","2.2","","-3.2","","68","","","","24","","32","","24.1","","98.33","","","","","","Clear"
"-81.11","44.74","WIARTON A","6119499","2022-12-05 05:00","2022","12","05","05:00","2.2","","-2.8","","70","","","","24","","31","","24.1","","98.33","","","","","","NA"
"-81.11","44.74","WIARTON A","6119499","2022-12-05 06:00","2022","12","05","06:00","2.2","","-2.8","","70","","","","24","","31","","24.1","","98.35","","","","","","NA"
"-81.11","44.74","WIARTON A","6119499","2022-12-05 07:00","2022","12","05","07:00","2.1","","-2.3","","72","","","","23","","30","","24.1","","98.35","","","","","","Clear"
"-81.11","44.74","WIARTON A","6119499","2022-12-05 08:00","2022","12","05","08:00","2.2","","-2.2","","73","","","","22","","27","","24.1","","98.35","","","","","","NA"
"-81.11","44.74","WIARTON A","6119499","2022-12-05 09:00","2022","12","05","09:00","1.2","","-2.7","","75","","","","19","","23","","24.1","","98.42","","","","","","NA"
"-81.11","44.74","WIARTON A","6119499","2022-12-05 10:00","2022","12","05","10:00","0.7","","-3.8","","72","","","","18","","29","","24.1","","98.46","","","","","","Mainly Clear"
"-81.11","44.74","WIARTON A","6119499","2022-12-05 11:00","2022","12","05","11:00","2.3","","-3.2","","67","","","","23","","29","","24.1","","98.52","","","","","","NA"
"-81.11","44.74","WIARTON A","6119499","2022-12-05 12:00","2022","12","05","12:00","2.9","","-3.0","","65","","","","20","","24","","24.1","","98.47","","","","","","NA"
"-81.11","44.74","WIARTON A","6119499","2022-12-05 13:00","2022","12","05","13:00","3.0","","-3.5","","62","","","","21","","28","","24.1","","98.47","","","","","","Cloudy"
"-81.11","44.74","WIARTON A","6119499","2022-12-05 14:00","2022","12","05","14:00","3.1","","-3.7","","61","","","","20","","24","","24.1","","98.47","","","","","","NA"
"-81.11","44.74","WIARTON A","6119499","2022-12-05 15:00","2022","12","05","15:00","3.2","","-3.7","","61","","","","20","","23","","24.1","","98.42","","","","","","NA"
"-81.11","44.74","WIARTON A","6119499","2022-12-05 16:00","2022","12","05","16:00","2.9","","-4.7","","57","","","","19","","24","","24.1","","98.53","","","","","","Cloudy"
"-81.11","44.74","WIARTON A","6119499","2022-12-05 17:00","2022","12","05","17:00","2.4","","-5.2","","57","","","","20","","15","","24.1","","98.58","","","","","","NA"
"-81.11","44.74","WIARTON A","6119499","2022-12-05 18:00","2022","12","05","18:00","2.2","","-5.2","","58","","","","19","","16","","24.1","","98.63","","","","","","NA"
"-81.11","44.74","WIARTON A","6119499","2022-12-05 19:00","2022","12","05","19:00","2.0","","-5.2","","59","","","","21","","13","","24.1","","98.66","","","","","","Cloudy"
"-81.11","44.74","WIARTON A","6119499","2022-12-05 20:00","2022","12","05","20:00","1.7","","-4.7","","63","","","","21","","6","","24.1","","98.72","","","","","","NA"
"-81.11","44.74","WIARTON A","6119499","2022-12-05 21:00","2022","12","05","21:00","1.6","","-5.0","","61","","","","18","","11","","24.1","","98.76","","","","","","NA"
"-81.11","44.74","WIARTON A","6119499","2022-12-05 22:00","2022","12","05","22:00","2.1","","-4.6","","61","","","","17","","13","","24.1","","98.73","","","","","","Cloudy"
"-81.11","44.74","WIARTON A","6119499","2022-12-05 23:00","2022","12","05","23:00","2.6","","-4.4","","60","","","","18","","15","","24.1","","98.73","","","","","","NA"
"-81.11","44.74","WIARTON A","6119499","2022-12-06 00:00","2022","12","06","00:00","2.8","","-4.2","","60","","","","20","","14","","24.1","","98.77","","","","","","NA"
"-81.11","44.74","WIARTON A","6119499","2022-12-06 01:00","2022","12","06","01:00","2.6","","-3.5","","64","","","","19","","7","","24.1","","98.78","","","","","","Cloudy"
"-81.11","44.74","WIARTON A","6119499","2022-12-06 02:00","2022","12","06","02:00","2.4","","-3.2","","67","","","","16","","5","","24.1","","98.86","","","","","","NA"
"-81.11","44.74","WIARTON A","6119499","2022-12-06 03:00","2022","12","06","03:00","2.2","","-3.1","","68","","","","14","","8","","24.1","","98.88","","","","","","NA"
"-81.11","44.74","WIARTON A","6119499","2022-12-06 04:00","2022","12","06","04:00","2.0","","-2.9","","70","","","","15","","8","","24.1","","98.94","","","","","","Rain"
"-81.11","44.74","WIARTON A","6119499","2022-12-06 05:00","2022","12","06","05:00","1.8","","-2.7","","72","","","","11","","6","","19.3","","98.91","","","","","","Snow"
"-81.11","44.74","WIARTON A","6119499","2022-12-06 06:00","2022","12","06","06:00","2.0","","-2.1","","74","","","","13","","10","","24.1","","98.99","","","","","","NA"
"-81.11","44.74","WIARTON A","6119499","2022-12-06 07:00","2022","12","06","07:00","1.9","","-0.2","","86","","","","15","","11","","24.1","","99.07","","","","","","Cloudy"
"-81.11","44.74","WIARTON A","6119499","2022-12-06 08:00","2022","12","06","08:00","1.6","","0.2","","90","","","","13","","11","","24.1","","99.14","","","","","","NA"
"-81.11","44.74","WIARTON A","6119499","2022-12-06 09:00","2022","12","06","09:00","1.8","","0.3","","89","","","","12","","9","","24.1","","99.18","","","","","","NA"
"-81.11","44.74","WIARTON A","6119499","2022-12-06 10:00","2022","12","06","10:00","2.4","","0.5","","87","","","","36","","3","","24.1","","99.28","","","","","","Cloudy"
"-81.11","44.74","WIARTON A","6119499","2022-12-06 11:00","2022","12","06","11:00","3.2","","0.3","","81","","","","11","","9","","24.1","","99.23","","","","","","NA"
"-81.11","44.74","WIARTON A","6119499","2022-12-06 12:00","2022","12","06","12:00","3.7","","0.7","","80","","","","13","","11","","24.1","","99.19","","","","","","NA"
"-81.11","44.74","WIARTON A","6119499","2022-12-06 13:00","2022","12","06","13:00","4.0","","0.9","","80","","","","20","","5","","24.1","","99.24","","","","","","Cloudy"
"-81.11","44.74","WIARTON A","6119499","2022-12-06 14:00","2022","12","06","14:00","4.5","","0.9","","77","","","","0","","1","","24.1","","99.23","","","","","","NA"
"-81.11","44.74","WIARTON A","6119499","2022-12-06 15:00","2022","12","06","15:00","4.8","","0.9","","75","","","","9","","9","","24.1","","99.16","","","","","","NA"
"-81.11","44.74","WIARTON A","6119499","2022-12-06 16:00","2022","12","06","16:00","4.4","","1.1","","79","","","","11","","8","","24.1","","99.23","","","","","","Cloudy"
"-81.11","44.74","WIARTON A","6119499","2022-12-06 17:00","2022","12","06","17:00","4.1","","1.0","","80","","","","8","","4","","24.1","","99.27","","","","","","NA"
"-81.11","44.74","WIARTON A","6119499","2022-12-06 18:00","2022","12","06","18:00","3.6","","1.0","","83","","","","8","","7","","24.1","","99.26","","","","","","NA"
"-81.11","44.74","WIARTON A","6119499","2022-12-06 19:00","2022","12","06","19:00","3.8","","0.7","","80","","","","10","","5","","24.1","","99.26","","","","","","Cloudy"
"-81.11","44.74","WIARTON A","6119499","2022-12-06 20:00","2022","12","06","20:00","4.1","","0.6","","78","","","","2","","7","","24.1","","99.26","","","","","","NA"
"-81.11","44.74","WIARTON A","6119499","2022-12-06 21:00","2022","12","06","21:00","3.8","","0.9","","81","","","","9","","9","","24.1","","99.19","","","","","","NA"
"-81.11","44.74","WIARTON A","6119499","2022-12-06 22:00","2022","12","06","22:00","3.4","","2.0","","90","","","","12","","10","","6.4","","99.19","","","","","","Rain,Fog"
"-81.11","44.74","WIARTON A","6119499","2022-12-06 23:00","2022","12","06","23:00","3.7","","3.1","","96","","","","13","","13","","4.8","","99.15","","","","","","Rain,Fog"
"-81.11","44.74","WIARTON A","6119499","2022-12-07 00:00","2022","12","07","00:00","3.7","","3.3","","97","","","","15","","18","","4.8","","99.12","","","","","","Rain,Fog"
"-81.11","44.74","WIARTON A","6119499","2022-12-07 01:00","2022","12","07","01:00","4.1","","3.4","","95","","","","36","","2","","3.2","","99.14","","","","","","Rain,Fog"
"-81.11","44.74","WIARTON A","6119499","2022-12-07 02:00","2022","12","07","02:00","4.1","","3.8","","98","","","","31","","5","","3.2","","99.19","","","","","","Rain,Fog"
"-81.11","44.74","WIARTON A","6119499","2022-12-07 03:00","2022","12","07","03:00","3.9","","3.7","","98","","","","35","","4","","2.4","","99.25","","","","","","Rain,Fog"
"-81.11","44.74","WIARTON A","6119499","2022-12-07 04:00","2022","12","07","04:00","4.1","","3.9","","99","","","","25","","4","","1.6","","99.26","","","","","","Fog"
"-81.11","44.74","WIARTON A","6119499","2022-12-07 05:00","2022","12","07","05:00","3.8","","3.7","","99","","","","20","","3","","1.6","","99.28","","","","","","Rain,Fog"
"-81.11","44.74","WIARTON A","6119499","2022-12-07 06:00","2022","12","07","06:00","4.2","","4.1","","99","","","","33","","5","","0.4","","99.33","","","","","","Rain,Fog"
"-81.11","44.74","WIARTON A","6119499","2022-12-07 07:00","2022","12","07","07:00","4.1","","4.0","","100","","","","32","","4","","1.2","","99.37","","","","","","Drizzle,Fog"
"-81.11","44.74","WIARTON A","6119499","2022-12-07 08:00","2022","12","07","08:00","4.0","","3.9","","100","","","","2","","6","","12.9","","99.38","","","","","","NA"
"-81.11","44.74","WIARTON A","6119499","2022-12-07 09:00","2022","12","07","09:00","4.1","","3.5","","96","","","","4","","7","","19.3","","99.43","","","","","","NA"
"-81.11","44.74","WIARTON A","6119499","2022-12-07 10:00","2022","12","07","10:00","4.5","","3.6","","94","","","","2","","4","","24.1","","99.48","","","","","","Mostly Cloudy"
"-81.11","44.74","WIARTON A","6119499","2022-12-07 11:00","2022","12","07","11:00","4.6","","3.4","","92","","","","4","","5","","24.1","","99.50","","","","","","NA"
"-81.11","44.74","WIARTON A","6119499","2022-12-07 12:00","2022","12","07","12:00","4.6","","3.1","","90","","","","34","","4","","24.1","","99.49","","","","","","NA"
"-81.11","44.74","WIARTON A","6119499","2022-12-07 13:00","2022","12","07","13:00","5.0","","3.3","","89","","","","36","","5","","24.1","","99.47","","","","","","Cloudy"
"-81.11","44.74","WIARTON A","6119499","2022-12-07 14:00","2022","12","07","14:00","4.9","","3.3","","89","","","","27","","7","","24.1","","99.51","","","","","","NA"
"-81.11","44.74","WIARTON A","6119499","2022-12-07 15:00","2022","12","07","15:00","4.4","","3.5","","93","","","","25","","7","","24.1","","99.52","","","","","","NA"
"-81.11","44.74","WIARTON A","6119499","2022-12-07 16:00","2022","12","07","16:00","4.0","","2.7","","91","","","","24","","5","","24.1","","99.56","","","","","","Cloudy"
"-81.11","44.74","WIARTON A","6119499","2022-12-07 17:00","2022","12","07","17:00","3.7","","2.6","","93","","","","23","","5","","24.1","","99.60","","","","","","NA"
"-81.11","44.74","WIARTON A","6119499","2022-12-07 18:00","2022","12","07","18:00","3.7","","2.9","","94","","","","24","","8","","24.1","","99.70","","","","","","NA"
"-81.11","44.74","WIARTON A","6119499","2022-12-07 19:00","2022","12","07","19:00","4.0","","2.7","","91","","","","26","","8","","24.1","","99.72","","","","","","Cloudy"
"-81.11","44.74","WIARTON A","6119499","2022-12-07 20:00","2022","12","07","20:00","4.0","","2.5","","90","","","","28","","11","","24.1","","99.77","","","","","","NA"
"-81.11","44.74","WIARTON A","6119499","2022-12-07 21:00","2022","12","07","21:00","4.0","","1.7","","85","","","","27","","9","","24.1","","99.81","","","","","","NA"
"-81.11","44.74","WIARTON A","6119499","2022-12-07 22:00","2022","12","07","22:00","3.9","","1.8","","86","","","","29","","9","","24.1","","99.83","","","","","","Cloudy"
"-81.11","44.74","WIARTON A","6119499","2022-12-07 23:00","2022","12","07","23:00","3.5","","2.0","","89","","","","30","","9","","24.1","","99.85","","","","","","NA"
"-81.11","44.74","WIARTON A","6119499","2022-12-08 00:00","2022","12","08","00:00","2.9","","1.4","","90","","","","32","","10","","24.1","","99.89","","","","","","NA"
"-81.11","44.74","WIARTON A","6119499","2022-12-08 01:00","2022","12","08","01:00","2.4","","0.6","","88","","","","32","","10","","24.1","","99.91","","","","","","Cloudy"
"-81.11","44.74","WIARTON A","6119499","2022-12-08 02:00","2022","12","08","02:00","2.1","","0.2","","87","","","","32","","9","","24.1","","99.95","","","","","","NA"
"-81.11","44.74","WIARTON A","6119499","2022-12-08 03:00","2022","12","08","03:00","1.4","","0.1","","91","","","","36","","10","","24.1","","100.03","","","","","","NA"
"-81.11","44.74","WIARTON A","6119499","2022-12-08 04:00","2022","12","08","04:00","1.1","","-0.8","","87","","","","35","","13","","24.1","","100.03","","","","","","Cloudy"
"-81.11","44.74","WIARTON A","6119499","2022-12-08 05:00","2022","12","08","05:00","0.2","","-1.8","","86","","","","35","","8","","24.1","","100.07","","","","","","NA"
"-81.11","44.74","WIARTON A","6119499","2022-12-08 06:00","2022","12","08","06:00","-0.2","","-2.5","","84","","","","31","","13","","24.1","","100.14","","","","-4","","NA"
"-81.11","44.74","WIARTON A","6119499","2022-12-08 07:00","2022","12","08","07:00","-0.4","","-2.9","","83","","","","32","","9","","24.1","","100.19","","","","-4","","Cloudy"
"-81.11","44.74","WIARTON A","6119499","2022-12-08 08:00","2022","12","08","08:00","-1.2","","-3.7","","83","","","","1","","13","","24.1","","100.21","","","","-5","","NA"
"-81.11","44.74","WIARTON A","6119499","2022-12-08 09:00","2022","12","08","09:00","-1.5","","-3.6","","86","","","","1","","8","","24.1","","100.23","","","","-5","","NA"
"-81.11","44.74","WIARTON A","6119499","2022-12-08 10:00","2022","12","08","10:00","-1.7","","-3.7","","86","","","","4","","9","","24.1","","100.27","","","","-5","","Mostly Cloudy"
"-81.11","44.74","WIARTON A","6119499","2022-12-08 11:00","2022","12","08","11:00","-1.9","","-4.0","","86","","","","3","","8","","24.1","","100.31","","","","-5","","NA"
"-81.11","44.74","WIARTON A","6119499","2022-12-08 12:00","2022","12","08","12:00","-2.0","","-4.4","","84","","","","34","","7","","19.3","","100.27","","","","-5","","Snow Grains"
"-81.11","44.74","WIARTON A","6119499","2022-12-08 13:00","2022","12","08","13:00","-2.0","","-4.9","","81","","","","35","","5","","24.1","","100.23","","","","-4","","Cloudy"
"-81.11","44.74","WIARTON A","6119499","2022-12-08 14:00","2022","12","08","14:00","-1.9","","-4.5","","83","","","","34","","4","","24.1","","100.20","","","","-3","","NA"
"-81.11","44.74","WIARTON A","6119499","2022-12-08 15:00","2022","12","08","15:00","-2.2","","-4.8","","82","","","","33","","4","","24.1","","100.23","","","","-4","","NA"
"-81.11","44.74","WIARTON A","6119499","2022-12-08 16:00","2022","12","08","16:00","-2.4","","-5.2","","82","","","","36","","6","","24.1","","100.26","","","","-5","","Cloudy"
"-81.11","44.74","WIARTON A","6119499","2022-12-08 17:00","2022","12","08","17:00","-2.4","","-5.5","","80","","","","34","","9","","24.1","","100.28","","","","-6","","NA"
"-81.11","44.74","WIARTON A","6119499","2022-12-08 18:00","2022","12","08","18:00","-2.6","","-5.5","","81","","","","36","","8","","24.1","","100.33","","","","-6","","NA"
"-81.11","44.74","WIARTON A","6119499","2022-12-08 19:00","2022","12","08","19:00","-2.8","","-5.5","","81","","","","36","","3","","24.1","","100.34","","","","-4","","Snow"
"-81.11","44.74","WIARTON A","6119499","2022-12-08 20:00","2022","12","08","20:00","-2.4","","-5.5","","79","","","","2","","5","","24.1","","100.37","","","","-4","","NA"
"-81.11","44.74","WIARTON A","6119499","2022-12-08 21:00","2022","12","08","21:00","-2.4","","-5.8","","77","","","","30","","7","","24.1","","100.38","","","","-5","","NA"
"-81.11","44.74","WIARTON A","6119499","2022-12-08 22:00","2022","12","08","22:00","-2.6","","-6.0","","77","","","","","","0","","24.1","","100.37","","","","","","Cloudy"
"-81.11","44.74","WIARTON A","6119499","2022-12-08 23:00","2022","12","08","23:00","-2.6","","-5.3","","82","","","","9","","9","","24.1","","100.33","","","","-6","","NA"
"-81.11","44.74","WIARTON A","6119499","2022-12-09 00:00","2022","12","09","00:00","-2.6","","-5.0","","83","","","","5","","4","","24.1","","100.33","","","","-4","","NA"
"-81.11","44.74","WIARTON A","6119499","2022-12-09 01:00","2022","12","09","01:00","-2.5","","-4.9","","83","","","","35","","4","","24.1","","100.32","","","","-4","","Cloudy"
"-81.11","44.74","WIARTON A","6119499","2022-12-09 02:00","2022","12","09","02:00","-2.9","","-4.8","","87","","","","31","","10","","24.1","","100.35","","","","-7","","NA"
"-81.11","44.74","WIARTON A","6119499","2022-12-09 03:00","2022","12","09","03:00","-2.5","","-4.5","","87","","","","34","","4","","24.1","","100.37","","","","-4","","NA"
"-81.11","44.74","WIARTON A","6119499","2022-12-09 04:00","2022","12","09","04:00","-1.9","","-4.5","","82","","","","3","","8","","24.1","","100.34","","","","-5","","Cloudy"
"-81.11","44.74","WIARTON A","6119499","2022-12-09 05:00","2022","12","09","05:00","-1.5","","-4.8","","79","","","","3","","5","","24.1","","100.30","","","","-3","","NA"
"-81.11","44.74","WIARTON A","6119499","2022-12-09 06:00","2022","12","09","06:00","-1.4","","-4.5","","80","","","","5","","13","","24.1","","100.31","","","","-6","","Snow"
"-81.11","44.74","WIARTON A","6119499","2022-12-09 07:00","2022","12","09","07:00","-2.0","","-4.8","","82","","","","6","","15","","24.1","","100.34","","","","-7","","Cloudy"
"-81.11","44.74","WIARTON A","6119499","2022-12-09 08:00","2022","12","09","08:00","-2.5","","-4.5","","86","","","","6","","17","","24.1","","100.36","","","","-8","","NA"
"-81.11","44.74","WIARTON A","6119499","2022-12-09 09:00","2022","12","09","09:00","-2.5","","-4.9","","83","","","","6","","16","","24.1","","100.39","","","","-8","","NA"
"-81.11","44.74","WIARTON A","6119499","2022-12-09 10:00","2022","12","09","10:00","-1.9","","-4.5","","83","","","","10","","17","","24.1","","100.40","","","","-7","","Snow"
"-81.11","44.74","WIARTON A","6119499","2022-12-09 11:00","2022","12","09","11:00","-1.7","","-4.5","","81","","","","11","","13","","24.1","","100.40","","","","-6","","NA"
"-81.11","44.74","WIARTON A","6119499","2022-12-09 12:00","2022","12","09","12:00","-1.4","","-4.6","","79","","","","7","","18","","24.1","","100.36","","","","-7","","NA"
"-81.11","44.74","WIARTON A","6119499","2022-12-09 13:00","2022","12","09","13:00","-1.1","","-4.5","","78","","","","7","","14","","24.1","","100.31","","","","-6","","Cloudy"
"-81.11","44.74","WIARTON A","6119499","2022-12-09 14:00","2022","12","09","14:00","-0.7","","-4.3","","77","","","","7","","17","","24.1","","100.28","","","","-6","","NA"
"-81.11","44.74","WIARTON A","6119499","2022-12-09 15:00","2022","12","09","15:00","-0.8","","-5.2","","72","","","","8","","20","","24.1","","100.27","","","","-6","","NA"
"-81.11","44.74","WIARTON A","6119499","2022-12-09 16:00","2022","12","09","16:00","-1.3","","-5.0","","76","","","","7","","18","","24.1","","100.27","","","","-7","","Mostly Cloudy"
"-81.11","44.74","WIARTON A","6119499","2022-12-09 17:00","2022","12","09","17:00","-1.2","","-5.1","","75","","","","8","","15","","24.1","","100.28","","","","-6","","NA"
"-81.11","44.74","WIARTON A","6119499","2022-12-09 18:00","2022","12","09","18:00","-1.0","","-4.7","","76","","","","8","","10","","24.1","","100.29","","","","-5","","NA"
"-81.11","44.74","WIARTON A","6119499","2022-12-09 19:00","2022","12","09","19:00","-1.1","","-5.1","","74","","","","9","","13","","24.1","","100.28","","","","-5","","Mostly Cloudy"
"-81.11","44.74","WIARTON A","6119499","2022-12-09 20:00","2022","12","09","20:00","-0.5","","-4.9","","72","","","","6","","20","","24.1","","100.29","","","","-6","","NA"
"-81.11","44.74","WIARTON A","6119499","2022-12-09 21:00","2022","12","09","21:00","-1.2","","-5.4","","74","","","","7","","18","","24.1","","100.30","","","","-6","","NA"
"-81.11","44.74","WIARTON A","6119499","2022-12-09 22:00","2022","12","09","22:00","-1.4","","-6.2","","70","","","","7","","18","","24.1","","100.27","","","","-7","","Mostly Cloudy"
"-81.11","44.74","WIARTON A","6119499","2022-12-09 23:00","2022","12","09","23:00","-1.7","","-6.4","","71","","","","7","","19","","24.1","","100.27","","","","-7","","NA"
"-81.11","44.74","WIARTON A","6119499","2022-12-10 00:00","2022","12","10","00:00","-2.2","","-6.6","","72","","","","8","","17","","24.1","","100.22","","","","-8","","NA"
"-81.11","44.74","WIARTON A","6119499","2022-12-10 01:00","2022","12","10","01:00","-2.6","","-7.5","","69","","","","8","","16","","24.1","","100.24","","","","-8","","Mainly Clear"
"-81.11","44.74","WIARTON A","6119499","2022-12-10 02:00","2022","12","10","02:00","-2.9","","-7.8","","69","","","","8","","19","","24.1","","100.25","","","","-9","","NA"
"-81.11","44.74","WIARTON A","6119499","2022-12-10 03:00","2022","12","10","03:00","-3.2","","-7.8","","70","","","","9","","16","","24.1","","100.28","","","","-9","","NA"
"-81.11","44.74","WIARTON A","6119499","2022-12-10 04:00","2022","12","10","04:00","-3.4","","-7.5","","73","","","","9","","16","","24.1","","100.25","","","","-9","","Clear"
"-81.11","44.74","WIARTON A","6119499","2022-12-10 05:00","2022","12","10","05:00","-3.7","","-7.3","","76","","","","8","","14","","24.1","","100.29","","","","-9","","NA"
"-81.11","44.74","WIARTON A","6119499","2022-12-10 06:00","2022","12","10","06:00","-4.0","","-7.1","","79","","","","9","","13","","24.1","","100.28","","","","-9","","NA"
"-81.11","44.74","WIARTON A","6119499","2022-12-10 07:00","2022","12","10","07:00","-5.0","","-7.3","","84","","","","12","","8","","24.1","","100.29","","","","-9","","Clear"
"-81.11","44.74","WIARTON A","6119499","2022-12-10 08:00","2022","12","10","08:00","-5.0","","-6.8","","87","","","","9","","12","","24.1","","100.23","","","","-10","","NA"
"-81.11","44.74","WIARTON A","6119499","2022-12-10 09:00","2022","12","10","09:00","-3.9","","-7.7","","75","","","","9","","22","","24.1","","100.15","","","","-10","","NA"
"-81.11","44.74","WIARTON A","6119499","2022-12-10 10:00","2022","12","10","10:00","-2.9","","-7.7","","69","","","","9","","27","","24.1","","100.12","","","","-10","","Clear"
"-81.11","44.74","WIARTON A","6119499","2022-12-10 11:00","2022","12","10","11:00","-1.8","","-6.8","","69","","","","9","","18","","24.1","","100.13","","","","-7","","NA"
"-81.11","44.74","WIARTON A","6119499","2022-12-10 12:00","2022","12","10","12:00","-1.2","","-6.6","","67","","","","10","","20","","24.1","","100.04","","","","-7","","NA"
"-81.11","44.74","WIARTON A","6119499","2022-12-10 13:00","2022","12","10","13:00","-0.9","","-6.8","","64","","","","8","","16","","24.1","","99.95","","","","-6","","Mostly Cloudy"
"-81.11","44.74","WIARTON A","6119499","2022-12-10 14:00","2022","12","10","14:00","-1.2","","-6.7","","66","","","","10","","16","","24.1","","99.90","","","","-6","","NA"
"-81.11","44.74","WIARTON A","6119499","2022-12-10 15:00","2022","12","10","15:00","-1.3","","-6.3","","69","","","","9","","16","","24.1","","99.88","","","","-6","","NA"
"-81.11","44.74","WIARTON A","6119499","2022-12-10 16:00","2022","12","10","16:00","-1.3","","-6.5","","68","","","","7","","20","","24.1","","99.79","","","","-7","","Cloudy"
"-81.11","44.74","WIARTON A","6119499","2022-12-10 17:00","2022","12","10","17:00","-1.5","","-7.0","","66","","","","12","","14","","24.1","","99.80","","","","-6","","NA"
"-81.11","44.74","WIARTON A","6119499","2022-12-10 18:00","2022","12","10","18:00","-1.8","","-7.2","","67","","","","11","","22","","24.1","","99.71","","","","-8","","NA"
"-81.11","44.74","WIARTON A","6119499","2022-12-10 19:00","2022","12","10","19:00","-1.6","","-8.1","","61","","","","13","","8","","24.1","","99.76","","","","-5","","Cloudy"
"-81.11","44.74","WIARTON A","6119499","2022-12-10 20:00","2022","12","10","20:00","-1.7","","-8.0","","62","","","","12","","7","","24.1","","99.74","","","","-4","","NA"
"-81.11","44.74","WIARTON A","6119499","2022-12-10 21:00","2022","12","10","21:00","-1.7","","-8.0","","62","","","","12","","14","","24.1","","99.66","","","","-6","","NA"
"-81.11","44.74","WIARTON A","6119499","2022-12-10 22:00","2022","12","10","22:00","-1.7","","-8.0","","62","","","","12","","14","","24.1","","99.62","","","","-6","","Cloudy"
"-81.11","44.74","WIARTON A","6119499","2022-12-10 23:00","2022","12","10","23:00","-2.0","","-6.3","","73","","","","9","","8","","19.3","","99.56","","","","-5","","Snow"
"-81.11","44.74","WIARTON A","6119499","2022-12-11 00:00","2022","12","11","00:00","-2.4","","-4.4","","86","","","","11","","10","","16.1","","99.53","","","","-6","","Snow"
"-81.11","44.74","WIARTON A","6119499","2022-12-11 01:00","2022","12","11","01:00","-2.5","","-4.6","","86","","","","9","","13","","19.3","","99.50","","","","-7","","Snow"
"-81.11","44.74","WIARTON A","6119499","2022-12-11 02:00","2022","12","11","02:00","-2.6","","-4.8","","85","","","","11","","13","","24.1","","99.46","","","","-7","","Snow"
"-81.11","44.74","WIARTON A","6119499","2022-12-11 03:00","2022","12","11","03:00","-2.5","","-4.7","","85","","","","10","","13","","19.3","","99.42","","","","-7","","Snow"
"-81.11","44.74","WIARTON A","6119499","2022-12-11 04:00","2022","12","11","04:00","-2.9","","-4.4","","89","","","","10","","10","","24.1","","99.40","","","","-7","","Snow"
"-81.11","44.74","WIARTON A","6119499","2022-12-11 05:00","2022","12","11","05:00","-2.9","","-4.3","","90","","","","9","","9","","19.3","","99.33","","","","-6","","Snow"
"-81.11","44.74","WIARTON A","6119499","2022-12-11 06:00","2022","12","11","06:00","-2.9","","-4.5","","89","","","","9","","5","","24.1","","99.32","","","","-5","","Snow"
"-81.11","44.74","WIARTON A","6119499","2022-12-11 07:00","2022","12","11","07:00","-3.0","","-4.0","","93","","","","4","","7","","3.2","","99.34","","","","-6","","Snow"
"-81.11","44.74","WIARTON A","6119499","2022-12-11 08:00","2022","12","11","08:00","-3.0","","-3.7","","94","","","","8","","6","","1.6","","99.33","","","","-5","","Snow"
"-81.11","44.74","WIARTON A","6119499","2022-12-11 09:00","2022","12","11","09:00","-2.9","","-3.7","","94","","","","12","","6","","3.2","","99.32","","","","-5","","Snow"
"-81.11","44.74","WIARTON A","6119499","2022-12-11 10:00","2022","12","11","10:00","-2.5","","-3.4","","94","","","","6","","5","","3.2","","99.33","","","","-4","","Snow"
"-81.11","44.74","WIARTON A","6119499","2022-12-11 11:00","2022","12","11","11:00","-1.8","","-2.9","","92","","","","5","","4","","3.2","","99.33","","","","-3","","Snow"
"-81.11","44.74","WIARTON A","6119499","2022-12-11 12:00","2022","12","11","12:00","-1.0","","-2.5","","89","","","","5","","8","","24.1","","99.29","","","","-4","","NA"
"-81.11","44.74","WIARTON A","6119499","2022-12-11 13:00","2022","12","11","13:00","-0.5","","-3.2","","82","","","","2","","8","","24.1","","99.28","","","","-3","","Cloudy"
"-81.11","44.74","WIARTON A","6119499","2022-12-11 14:00","2022","12","11","14:00","-0.7","","-3.5","","81","","","","34","","7","","24.1","","99.29","","","","-3","","NA"
"-81.11","44.74","WIARTON A","6119499","2022-12-11 15:00","2022","12","11","15:00","-0.7","","-4.0","","79","","","","34","","9","","24.1","","99.33","","","","-4","","NA"
"-81.11","44.74","WIARTON A","6119499","2022-12-11 16:00","2022","12","11","16:00","-1.2","","-4.0","","81","","","","35","","9","","24.1","","99.41","","","","-4","","Mostly Cloudy"
"-81.11","44.74","WIARTON A","6119499","2022-12-11 17:00","2022","12","11","17:00","-1.2","","-3.6","","84","","","","35","","6","","24.1","","99.44","","","","-3","","NA"
"-81.11","44.74","WIARTON A","6119499","2022-12-11 18:00","2022","12","11","18:00","-1.1","","-3.1","","86","","","","36","","8","","24.1","","99.47","","","","-4","","NA"
"-81.11","44.74","WIARTON A","6119499","2022-12-11 19:00","2022","12","11","19:00","-1.1","","-2.9","","87","","","","36","","9","","24.1","","99.51","","","","-4","","Cloudy"
"-81.11","44.74","WIARTON A","6119499","2022-12-11 20:00","2022","12","11","20:00","-1.1","","-3.0","","87","","","","2","","10","","24.1","","99.54","","","","-5","","NA"
"-81.11","44.74","WIARTON A","6119499","2022-12-11 21:00","2022","12","11","21:00","-1.2","","-3.0","","87","","","","1","","11","","24.1","","99.55","","","","-5","","NA"
"-81.11","44.74","WIARTON A","6119499","2022-12-11 22:00","2022","12","11","22:00","-1.5","","-3.4","","87","","","","2","","8","","24.1","","99.58","","","","-5","","Cloudy"
"-81.11","44.74","WIARTON A","6119499","2022-12-11 23:00","2022","12","11","23:00","-1.8","","-3.8","","86","","","","3","","10","","24.1","","99.61","","","","-5","","NA"
"-81.11","44.74","WIARTON A","6119499","2022-12-12 00:00","2022","12","12","00:00","-1.9","","-3.8","","87","","","","3","","12","","24.1","","99.65","","","","-6","","NA"
"-81.11","44.74","WIARTON A","6119499","2022-12-12 01:00","2022","12","12","01:00","-2.0","","-4.2","","85","","","","3","","9","","24.1","","99.70","","","","-5","","Cloudy"
"-81.11","44.74","WIARTON A","6119499","2022-12-12 02:00","2022","12","12","02:00","-2.1","","-4.3","","85","","","","2","","12","","24.1","","99.75","","","","-6","","NA"
"-81.11","44.74","WIARTON A","6119499","2022-12-12 03:00","2022","12","12","03:00","-2.5","","-4.5","","86","","","","1","","9","","24.1","","99.84","","","","-6","","NA"
"-81.11","44.74","WIARTON A","6119499","2022-12-12 04:00","2022","12","12","04:00","-2.5","","-4.4","","87","","","","2","","8","","24.1","","99.87","","","","-6","","Cloudy"
"-81.11","44.74","WIARTON A","6119499","2022-12-12 05:00","2022","12","12","05:00","-2.4","","-4.3","","87","","","","3","","8","","24.1","","99.90","","","","-6","","NA"
"-81.11","44.74","WIARTON A","6119499","2022-12-12 06:00","2022","12","12","06:00","-2.4","","-4.2","","87","","","","5","","14","","24.1","","99.93","","","","-7","","NA"
"-81.11","44.74","WIARTON A","6119499","2022-12-12 07:00","2022","12","12","07:00","-2.3","","-4.2","","86","","","","6","","13","","24.1","","99.96","","","","-7","","Cloudy"
"-81.11","44.74","WIARTON A","6119499","2022-12-12 08:00","2022","12","12","08:00","-2.0","","-3.9","","87","","","","6","","13","","24.1","","100.00","","","","-6","","NA"
"-81.11","44.74","WIARTON A","6119499","2022-12-12 09:00","2022","12","12","09:00","-1.8","","-3.7","","87","","","","6","","10","","24.1","","100.08","","","","-5","","NA"
"-81.11","44.74","WIARTON A","6119499","2022-12-12 10:00","2022","12","12","10:00","-1.8","","-3.6","","87","","","","4","","9","","24.1","","100.14","","","","-5","","Cloudy"
"-81.11","44.74","WIARTON A","6119499","2022-12-12 11:00","2022","12","12","11:00","-2.2","","-4.1","","87","","","","36","","7","","24.1","","100.17","","","","-5","","NA"
"-81.11","44.74","WIARTON A","6119499","2022-12-12 12:00","2022","12","12","12:00","-2.2","","-4.4","","85","","","","2","","11","","24.1","","100.13","","","","-6","","NA"
"-81.11","44.74","WIARTON A","6119499","2022-12-12 13:00","2022","12","12","13:00","-2.1","","-4.6","","83","","","","6","","9","","24.1","","100.11","","","","-6","","Cloudy"
"-81.11","44.74","WIARTON A","6119499","2022-12-12 14:00","2022","12","12","14:00","-2.1","","-4.5","","83","","","","6","","11","","24.1","","100.12","","","","-6","","NA"
"-81.11","44.74","WIARTON A","6119499","2022-12-12 15:00","2022","12","12","15:00","-2.2","","-5.1","","81","","","","7","","16","","24.1","","100.13","","","","-7","","NA"
"-81.11","44.74","WIARTON A","6119499","2022-12-12 16:00","2022","12","12","16:00","-2.5","","-5.3","","81","","","","7","","13","","24.1","","100.18","","","","-7","","Cloudy"
"-81.11","44.74","WIARTON A","6119499","2022-12-12 17:00","2022","12","12","17:00","-2.7","","-5.3","","82","","","","8","","11","","24.1","","100.22","","","","-7","","NA"
"-81.11","44.74","WIARTON A","6119499","2022-12-12 18:00","2022","12","12","18:00","-2.7","","-5.4","","82","","","","9","","11","","24.1","","100.26","","","","-7","","NA"
"-81.11","44.74","WIARTON A","6119499","2022-12-12 19:00","2022","12","12","19:00","-2.7","","-5.4","","82","","","","5","","8","","24.1","","100.28","","","","-6","","Cloudy"
"-81.11","44.74","WIARTON A","6119499","2022-12-12 20:00","2022","12","12","20:00","-2.6","","-5.7","","79","","","","7","","9","","24.1","","100.30","","","","-6","","NA"
"-81.11","44.74","WIARTON A","6119499","2022-12-12 21:00","2022","12","12","21:00","-2.5","","-5.9","","77","","","","8","","4","","24.1","","100.33","","","","-4","","NA"
"-81.11","44.74","WIARTON A","6119499","2022-12-12 22:00","2022","12","12","22:00","-3.5","","-6.7","","79","","","","11","","8","","24.1","","100.33","","","","-7","","Mostly Cloudy"
"-81.11","44.74","WIARTON A","6119499","2022-12-12 23:00","2022","12","12","23:00","-4.2","","-6.5","","84","","","","13","","7","","24.1","","100.33","","","","-7","","NA"
"-81.11","44.74","WIARTON A","6119499","2022-12-13 00:00","2022","12","13","00:00","-6.4","","-7.5","","91","","","","14","","10","","24.1","","100.31","","","","-11","","NA"
"-81.11","44.74","WIARTON A","6119499","2022-12-13 01:00","2022","12","13","01:00","-5.3","","-7.1","","87","","","","23","","4","","24.1","","100.31","","","","-7","","Mostly Cloudy"
"-81.11","44.74","WIARTON A","6119499","2022-12-13 02:00","2022","12","13","02:00","-6.3","","-7.7","","90","","","","17","","5","","24.1","","100.31","","","","-9","","NA"
"-81.11","44.74","WIARTON A","6119499","2022-12-13 03:00","2022","12","13","03:00","-7.0","","-8.3","","90","","","","15","","9","","24.1","","100.33","","","","-11","","NA"
"-81.11","44.74","WIARTON A","6119499","2022-12-13 04:00","2022","12","13","04:00","-6.9","","-8.4","","89","","","","18","","7","","24.1","","100.34","","","","-10","","Mostly Cloudy"
"-81.11","44.74","WIARTON A","6119499","2022-12-13 05:00","2022","12","13","05:00","-7.2","","-8.8","","89","","","","18","","5","","24.1","","100.30","","","","-10","","NA"
"-81.11","44.74","WIARTON A","6119499","2022-12-13 06:00","2022","12","13","06:00","-6.9","","-8.3","","89","","","","21","","4","","24.1","","100.33","","","","-9","","NA"
"-81.11","44.74","WIARTON A","6119499","2022-12-13 07:00","2022","12","13","07:00","-8.1","","-9.2","","92","","","","19","","8","","24.1","","100.35","","","","-12","","Mainly Clear"
"-81.11","44.74","WIARTON A","6119499","2022-12-13 08:00","2022","12","13","08:00","-8.6","","-9.5","","93","","","","17","","7","","24.1","","100.39","","","","-12","","NA"
"-81.11","44.74","WIARTON A","6119499","2022-12-13 09:00","2022","12","13","09:00","-7.8","","-9.2","","90","","","","15","","9","","24.1","","100.38","","","","-12","","NA"
"-81.11","44.74","WIARTON A","6119499","2022-12-13 10:00","2022","12","13","10:00","-5.5","","-7.5","","85","","","","17","","6","","24.1","","100.38","","","","-8","","Mostly Cloudy"
"-81.11","44.74","WIARTON A","6119499","2022-12-13 11:00","2022","12","13","11:00","-3.6","","-6.4","","81","","","","36","","2","","24.1","","100.37","","","","-4","","NA"
"-81.11","44.74","WIARTON A","6119499","2022-12-13 12:00","2022","12","13","12:00","-1.7","","-5.6","","75","","","","6","","6","","24.1","","100.26","","","","-4","","NA"
"-81.11","44.74","WIARTON A","6119499","2022-12-13 13:00","2022","12","13","13:00","-0.8","","-5.4","","71","","","","2","","12","","24.1","","100.16","","","","-5","","Mainly Clear"
"-81.11","44.74","WIARTON A","6119499","2022-12-13 14:00","2022","12","13","14:00","-0.8","","-5.3","","72","","","","4","","12","","24.1","","100.15","","","","-5","","NA"
"-81.11","44.74","WIARTON A","6119499","2022-12-13 15:00","2022","12","13","15:00","-0.6","","-5.4","","70","","","","5","","12","","24.1","","100.11","","","","-5","","NA"
"-81.11","44.74","WIARTON A","6119499","2022-12-13 16:00","2022","12","13","16:00","-2.1","","-6.2","","74","","","","6","","12","","24.1","","100.12","","","","-6","","Mostly Cloudy"
"-81.11","44.74","WIARTON A","6119499","2022-12-13 17:00","2022","12","13","17:00","-2.4","","-7.6","","68","","","","9","","4","","24.1","","100.16","","","","-4","","NA"
"-81.11","44.74","WIARTON A","6119499","2022-12-13 18:00","2022","12","13","18:00","-3.4","","-5.1","","88","","","","4","","5","","24.1","","100.17","","","","-5","","NA"
"-81.11","44.74","WIARTON A","6119499","2022-12-13 19:00","2022","12","13","19:00","-1.6","","-3.2","","89","","","","4","","12","","24.1","","100.09","","","","-6","","Mostly Cloudy"
"-81.11","44.74","WIARTON A","6119499","2022-12-13 20:00","2022","12","13","20:00","-0.9","","-2.9","","87","","","","5","","21","","24.1","","100.00","","","","-7","","NA"
"-81.11","44.74","WIARTON A","6119499","2022-12-13 21:00","2022","12","13","21:00","-0.9","","-2.9","","87","","","","5","","16","","24.1","","100.02","","","","-6","","NA"
"-81.11","44.74","WIARTON A","6119499","2022-12-13 22:00","2022","12","13","22:00","-1.2","","-3.2","","86","","","","5","","15","","24.1","","100.07","","","","-6","","Mostly Cloudy"
"-81.11","44.74","WIARTON A","6119499","2022-12-13 23:00","2022","12","13","23:00","-1.2","","-3.2","","86","","","","6","","20","","24.1","","100.02","","","","-7","","NA"
"-81.11","44.74","WIARTON A","6119499","2022-12-14 00:00","2022","12","14","00:00","-1.9","","-4.1","","85","","","","6","","15","","24.1","","99.95","","","","-7","","NA"
"-81.11","44.74","WIARTON A","6119499","2022-12-14 01:00","2022","12","14","01:00","-2.6","","-5.0","","84","","","","8","","9","","24.1","","99.94","","","","-6","","Mainly Clear"
"-81.11","44.74","WIARTON A","6119499","2022-12-14 02:00","2022","12","14","02:00","-2.6","","-5.4","","81","","","","8","","13","","24.1","","99.88","","","","-7","","NA"
"-81.11","44.74","WIARTON A","6119499","2022-12-14 03:00","2022","12","14","03:00","-2.6","","-6.4","","75","","","","8","","13","","24.1","","99.91","","","","-7","","NA"
"-81.11","44.74","WIARTON A","6119499","2022-12-14 04:00","2022","12","14","04:00","-3.1","","-5.6","","83","","","","6","","12","","24.1","","99.88","","","","-8","","Cloudy"
"-81.11","44.74","WIARTON A","6119499","2022-12-14 05:00","2022","12","14","05:00","-2.8","","-6.8","","74","","","","9","","13","","24.1","","99.93","","","","-7","","NA"
"-81.11","44.74","WIARTON A","6119499","2022-12-14 06:00","2022","12","14","06:00","-3.1","","-7.2","","73","","","","8","","16","","24.1","","99.97","","","","-8","","NA"
"-81.11","44.74","WIARTON A","6119499","2022-12-14 07:00","2022","12","14","07:00","-3.3","","-6.8","","77","","","","7","","28","","24.1","","99.91","","","","-11","","Mostly Cloudy"
"-81.11","44.74","WIARTON A","6119499","2022-12-14 08:00","2022","12","14","08:00","-3.6","","-8.9","","67","","","","9","","15","","24.1","","99.91","","","","-9","","NA"
"-81.11","44.74","WIARTON A","6119499","2022-12-14 09:00","2022","12","14","09:00","-3.3","","-8.0","","70","","","","10","","15","","24.1","","99.97","","","","-8","","NA"
"-81.11","44.74","WIARTON A","6119499","2022-12-14 10:00","2022","12","14","10:00","-2.7","","-8.1","","66","","","","9","","22","","24.1","","99.99","","","","-9","","Cloudy"
"-81.11","44.74","WIARTON A","6119499","2022-12-14 11:00","2022","12","14","11:00","-2.6","","-7.0","","72","","","","9","","25","","24.1","","99.92","","","","-9","","NA"
"-81.11","44.74","WIARTON A","6119499","2022-12-14 12:00","2022","12","14","12:00","-2.0","","-7.6","","66","","","","11","","21","","24.1","","99.85","","","","-8","","NA"
"-81.11","44.74","WIARTON A","6119499","2022-12-14 13:00","2022","12","14","13:00","-1.6","","-8.6","","59","","","","9","","21","","24.1","","99.73","","","","-7","","Cloudy"
"-81.11","44.74","WIARTON A","6119499","2022-12-14 14:00","2022","12","14","14:00","-1.5","","-8.2","","60","","","","8","","13","","24.1","","99.70","","","","-6","","NA"
"-81.11","44.74","WIARTON A","6119499","2022-12-14 15:00","2022","12","14","15:00","-1.6","","-6.7","","68","","","","8","","20","","24.1","","99.66","","","","-7","","NA"
"-81.11","44.74","WIARTON A","6119499","2022-12-14 16:00","2022","12","14","16:00","-1.9","","-5.7","","76","","","","7","","18","","24.1","","99.60","","","","-7","","Mostly Cloudy"
"-81.11","44.74","WIARTON A","6119499","2022-12-14 17:00","2022","12","14","17:00","-1.9","","-5.0","","79","","","","8","","21","","24.1","","99.55","","","","-8","","NA"
"-81.11","44.74","WIARTON A","6119499","2022-12-14 18:00","2022","12","14","18:00","-1.6","","-5.0","","78","","","","8","","23","","24.1","","99.44","","","","-8","","NA"
"-81.11","44.74","WIARTON A","6119499","2022-12-14 19:00","2022","12","14","19:00","-1.4","","-4.8","","77","","","","9","","25","","24.1","","99.49","","","","-8","","Mainly Clear"
"-81.11","44.74","WIARTON A","6119499","2022-12-14 20:00","2022","12","14","20:00","-1.5","","-5.3","","75","","","","10","","17","","24.1","","99.51","","","","-7","","NA"
"-81.11","44.74","WIARTON A","6119499","2022-12-14 21:00","2022","12","14","21:00","-1.7","","-6.2","","71","","","","9","","21","","24.1","","99.54","","","","-8","","NA"
"-81.11","44.74","WIARTON A","6119499","2022-12-14 22:00","2022","12","14","22:00","-1.1","","-5.6","","71","","","","9","","23","","24.1","","99.39","","","","-7","","Mainly Clear"
"-81.11","44.74","WIARTON A","6119499","2022-12-14 23:00","2022","12","14","23:00","-1.5","","-6.4","","70","","","","10","","30","","24.1","","99.34","","","","-8","","NA"
"-81.11","44.74","WIARTON A","6119499","2022-12-15 00:00","2022","12","15","00:00","-2.2","","-7.2","","69","","","","10","","30","","24.1","","99.26","","","","-9","","NA"
"-81.11","44.74","WIARTON A","6119499","2022-12-15 01:00","2022","12","15","01:00","-2.5","","-7.0","","71","","","","9","","28","","24.1","","99.08","","","","-10","","Cloudy"
"-81.11","44.74","WIARTON A","6119499","2022-12-15 02:00","2022","12","15","02:00","-2.1","","-6.2","","73","","","","11","","34","","24.1","","98.83","","","","-10","","NA"
"-81.11","44.74","WIARTON A","6119499","2022-12-15 03:00","2022","12","15","03:00","-1.8","","-5.9","","74","","","","10","","34","","24.1","","98.79","","","","-9","","NA"
"-81.11","44.74","WIARTON A","6119499","2022-12-15 04:00","2022","12","15","04:00","-2.1","","-5.3","","79","","","","10","","28","","24.1","","98.71","","","","-9","","Cloudy"
"-81.11","44.74","WIARTON A","6119499","2022-12-15 05:00","2022","12","15","05:00","-1.8","","-4.7","","81","","","","10","","39","","24.1","","98.47","","","","-10","","NA"
"-81.11","44.74","WIARTON A","6119499","2022-12-15 06:00","2022","12","15","06:00","-1.6","","-4.5","","81","","","","11","","45","","24.1","","98.38","","","","-10","","NA"
"-81.11","44.74","WIARTON A","6119499","2022-12-15 07:00","2022","12","15","07:00","-1.0","","-3.9","","81","","","","11","","49","","24.1","","98.29","","","","-9","","Mostly Cloudy"
"-81.11","44.74","WIARTON A","6119499","2022-12-15 08:00","2022","12","15","08:00","-0.4","","-3.5","","80","","","","11","","41","","24.1","","98.24","","","","-8","","NA"
"-81.11","44.74","WIARTON A","6119499","2022-12-15 09:00","2022","12","15","09:00","0.0","","-2.1","","86","","","","10","","53","","16.1","","98.12","","","","-8","","Freezing Rain"
"-81.11","44.74","WIARTON A","6119499","2022-12-15 10:00","2022","12","15","10:00","0.0","","-1.8","","88","","","","10","","32","","16.1","","98.20","","","","-7","","Freezing Rain"
"-81.11","44.74","WIARTON A","6119499","2022-12-15 11:00","2022","12","15","11:00","0.4","","-1.0","","90","","","","12","","28","","6.4","","98.18","","","","","","Rain"
"-81.11","44.74","WIARTON A","6119499","2022-12-15 12:00","2022","12","15","12:00","0.7","","-0.5","","91","","","","12","","23","","6.4","","98.12","","","","","","Rain,Ice Pellets"
"-81.11","44.74","WIARTON A","6119499","2022-12-15 13:00","2022","12","15","13:00","0.6","","-0.1","","95","","","","11","","17","","1.6","","98.07","","","","","","Snow"
"-81.11","44.74","WIARTON A","6119499","2022-12-15 14:00","2022","12","15","14:00","1.0","","0.2","","94","","","","10","","18","","9.7","","98.04","","","","","","Rain"
"-81.11","44.74","WIARTON A","6119499","2022-12-15 15:00","2022","12","15","15:00","1.4","","0.2","","92","","","","11","","12","","24.1","","98.05","","","","","","NA"
"-81.11","44.74","WIARTON A","6119499","2022-12-15 16:00","2022","12","15","16:00","1.5","","0.1","","90","","","","11","","14","","24.1","","98.10","","","","","","Drizzle"
"-81.11","44.74","WIARTON A","6119499","2022-12-15 17:00","2022","12","15","17:00","1.4","","0.2","","92","","","","10","","13","","24.1","","98.14","","","","","","NA"
"-81.11","44.74","WIARTON A","6119499","2022-12-15 18:00","2022","12","15","18:00","1.8","","0.3","","90","","","","12","","18","","16.1","","98.12","","","","","","Drizzle"
"-81.11","44.74","WIARTON A","6119499","2022-12-15 19:00","2022","12","15","19:00","1.8","","0.4","","90","","","","12","","20","","24.1","","98.12","","","","","","Drizzle"
"-81.11","44.74","WIARTON A","6119499","2022-12-15 20:00","2022","12","15","20:00","1.8","","0.1","","88","","","","14","","20","","24.1","","98.10","","","","","","NA"
"-81.11","44.74","WIARTON A","6119499","2022-12-15 21:00","2022","12","15","21:00","2.0","","-0.1","","86","","","","14","","21","","24.1","","98.08","","","","","","NA"
"-81.11","44.74","WIARTON A","6119499","2022-12-15 22:00","2022","12","15","22:00","1.9","","-0.2","","86","","","","12","","23","","24.1","","98.00","","","","","","Mostly Cloudy"
"-81.11","44.74","WIARTON A","6119499","2022-12-15 23:00","2022","12","15","23:00","1.8","","-0.3","","86","","","","13","","19","","24.1","","98.05","","","","","","NA"
"-81.11","44.74","WIARTON A","6119499","2022-12-16 00:00","2022","12","16","00:00","1.8","","-0.4","","85","","","","13","","22","","24.1","","98.02","","","","","","NA"
"-81.11","44.74","WIARTON A","6119499","2022-12-16 01:00","2022","12","16","01:00","1.8","","-0.4","","85","","","","13","","21","","24.1","","97.97","","","","","","Cloudy"
"-81.11","44.74","WIARTON A","6119499","2022-12-16 02:00","2022","12","16","02:00","1.7","","-0.2","","87","","","","13","","19","","24.1","","97.96","","","","","","Snow"
"-81.11","44.74","WIARTON A","6119499","2022-12-16 03:00","2022","12","16","03:00","1.2","","0.2","","93","","","","14","","16","","16.1","","97.98","","","","","","Snow"
"-81.11","44.74","WIARTON A","6119499","2022-12-16 04:00","2022","12","16","04:00","1.2","","0.5","","95","","","","16","","10","","24.1","","98.00","","","","","","Snow"
"-81.11","44.74","WIARTON A","6119499","2022-12-16 05:00","2022","12","16","05:00","1.1","","0.5","","96","","","","14","","14","","24.1","","97.96","","","","","","NA"
"-81.11","44.74","WIARTON A","6119499","2022-12-16 06:00","2022","12","16","06:00","1.1","","0.3","","95","","","","15","","13","","24.1","","97.96","","","","","","NA"
"-81.11","44.74","WIARTON A","6119499","2022-12-16 07:00","2022","12","16","07:00","0.9","","0.0","","94","","","","15","","12","","24.1","","97.98","","","","","","Cloudy"
"-81.11","44.74","WIARTON A","6119499","2022-12-16 08:00","2022","12","16","08:00","0.8","","-0.1","","94","","","","14","","12","","24.1","","97.96","","","","","","NA"
"-81.11","44.74","WIARTON A","6119499","2022-12-16 09:00","2022","12","16","09:00","0.9","","-0.3","","92","","","","15","","13","","24.1","","97.95","","","","","","NA"
"-81.11","44.74","WIARTON A","6119499","2022-12-16 10:00","2022","12","16","10:00","2.1","","0.0","","86","","","","16","","13","","24.1","","97.97","","","","","","Mostly Cloudy"
"-81.11","44.74","WIARTON A","6119499","2022-12-16 11:00","2022","12","16","11:00","1.9","","-0.4","","85","","","","18","","15","","24.1","","97.99","","","","","","NA"
"-81.11","44.74","WIARTON A","6119499","2022-12-16 12:00","2022","12","16","12:00","2.0","","-0.4","","84","","","","19","","15","","24.1","","97.90","","","","","","NA"
"-81.11","44.74","WIARTON A","6119499","2022-12-16 13:00","2022","12","16","13:00","2.1","","-0.1","","85","","","","20","","15","","24.1","","97.87","","","","","","Cloudy"
"-81.11","44.74","WIARTON A","6119499","2022-12-16 14:00","2022","12","16","14:00","0.8","","-0.1","","94","","","","25","","4","","19.3","","97.86","","","","","","Snow"
"-81.11","44.74","WIARTON A","6119499","2022-12-16 15:00","2022","12","16","15:00","0.2","","-0.2","","97","","","","18","","7","","2.4","","97.83","","","","","","Snow"
"-81.11","44.74","WIARTON A","6119499","2022-12-16 16:00","2022","12","16","16:00","0.3","","-0.3","","96","","","","20","","10","","4.8","","97.87","","","","","","Snow,Fog"
"-81.11","44.74","WIARTON A","6119499","2022-12-16 17:00","2022","12","16","17:00","0.0","","-0.6","","96","","","","17","","6","","4.8","","97.86","","","","-2","","Snow,Fog"
"-81.11","44.74","WIARTON A","6119499","2022-12-16 18:00","2022","12","16","18:00","0.0","","-0.8","","94","","","","17","","10","","12.9","","97.86","","","","-3","","Snow"
"-81.11","44.74","WIARTON A","6119499","2022-12-16 19:00","2022","12","16","19:00","-0.1","","-1.0","","94","","","","16","","11","","19.3","","97.84","","","","-4","","Snow"
"-81.11","44.74","WIARTON A","6119499","2022-12-16 20:00","2022","12","16","20:00","-0.1","","-1.0","","93","","","","18","","11","","12.9","","97.82","","","","-4","","Snow"
"-81.11","44.74","WIARTON A","6119499","2022-12-16 21:00","2022","12","16","21:00","-0.3","","-0.8","","96","","","","18","","13","","2.4","","97.79","","","","-4","","Snow"
"-81.11","44.74","WIARTON A","6119499","2022-12-16 22:00","2022","12","16","22:00","-0.5","","-1.2","","95","","","","19","","16","","9.7","","97.77","","","","-5","","Snow"
"-81.11","44.74","WIARTON A","6119499","2022-12-16 23:00","2022","12","16","23:00","-0.8","","-1.6","","95","","","","19","","15","","11.3","","97.74","","","","-5","","Snow"
"-81.11","44.74","WIARTON A","6119499","2022-12-17 00:00","2022","12","17","00:00","-1.6","","-2.3","","95","","","","17","","13","","24.1","","97.70","","","","-6","","NA"
"-81.11","44.74","WIARTON A","6119499","2022-12-17 01:00","2022","12","17","01:00","-1.0","","-1.7","","95","","","","18","","15","","9.7","","97.66","","","","-6","","Snow"
"-81.11","44.74","WIARTON A","6119499","2022-12-17 02:00","2022","12","17","02:00","-1.0","","-1.8","","94","","","","17","","15","","19.3","","97.65","","","","-6","","Snow"
"-81.11","44.74","WIARTON A","6119499","2022-12-17 03:00","2022","12","17","03:00","-0.8","","-1.6","","95","","","","20","","13","","16.1","","97.67","","","","-5","","Snow"
"-81.11","44.74","WIARTON A","6119499","2022-12-17 04:00","2022","12","17","04:00","-0.8","","-1.4","","96","","","","19","","12","","3.2","","97.66","","","","-5","","Snow"
"-81.11","44.74","WIARTON A","6119499","2022-12-17 05:00","2022","12","17","05:00","-0.8","","-1.4","","96","","","","19","","11","","12.9","","97.65","","","","-5","","Snow"
"-81.11","44.74","WIARTON A","6119499","2022-12-17 06:00","2022","12","17","06:00","-0.8","","-1.3","","96","","","","20","","13","","4.8","","97.70","","","","-5","","Snow"
"-81.11","44.74","WIARTON A","6119499","2022-12-17 07:00","2022","12","17","07:00","-1.0","","-1.5","","96","","","","21","","13","","1.2","","97.71","","","","-5","","Snow"
"-81.11","44.74","WIARTON A","6119499","2022-12-17 08:00","2022","12","17","08:00","-1.2","","-1.9","","95","","","","20","","21","","1.6","","97.72","","","","-7","","Snow"
"-81.11","44.74","WIARTON A","6119499","2022-12-17 09:00","2022","12","17","09:00","-1.4","","-2.5","","93","","","","20","","17","","3.2","","97.76","","","","-7","","Snow"
"-81.11","44.74","WIARTON A","6119499","2022-12-17 10:00","2022","12","17","10:00","-1.4","","-2.9","","90","","","","20","","21","","3.2","","97.80","","","","-7","","Snow"
"-81.11","44.74","WIARTON A","6119499","2022-12-17 11:00","2022","12","17","11:00","-0.7","","-3.2","","83","","","","21","","21","","24.1","","97.80","","","","-6","","NA"
"-81.11","44.74","WIARTON A","6119499","2022-12-17 12:00","2022","12","17","12:00","-1.4","","-2.7","","91","","","","21","","25","","3.2","","97.76","","","","-8","","Snow Pellets"
"-81.11","44.74","WIARTON A","6119499","2022-12-17 13:00","2022","12","17","13:00","-1.4","","-2.8","","90","","","","22","","15","","3.2","","97.71","","","","-6","","Snow Showers"
"-81.11","44.74","WIARTON A","6119499","2022-12-17 14:00","2022","12","17","14:00","-0.9","","-3.8","","81","","","","21","","13","","16.1","","97.70","","","","-5","","NA"
"-81.11","44.74","WIARTON A","6119499","2022-12-17 15:00","2022","12","17","15:00","-1.6","","-2.9","","91","","","","20","","15","","4.8","","97.75","","","","-6","","Snow Pellets"
"-81.11","44.74","WIARTON A","6119499","2022-12-17 16:00","2022","12","17","16:00","-1.5","","-2.8","","91","","","","21","","17","","24.1","","97.81","","","","-7","","Mostly Cloudy"
"-81.11","44.74","WIARTON A","6119499","2022-12-17 17:00","2022","12","17","17:00","-1.5","","-2.9","","90","","","","20","","12","","24.1","","97.85","","","","-6","","NA"
"-81.11","44.74","WIARTON A","6119499","2022-12-17 18:00","2022","12","17","18:00","-1.7","","-3.0","","91","","","","20","","18","","24.1","","97.88","","","","-7","","NA"
"-81.11","44.74","WIARTON A","6119499","2022-12-17 19:00","2022","12","17","19:00","-2.4","","-3.8","","90","","","","20","","17","","12.9","","97.87","","","","-8","","Snow Pellets"
"-81.11","44.74","WIARTON A","6119499","2022-12-17 20:00","2022","12","17","20:00","-2.3","","-3.6","","91","","","","19","","21","","16.1","","97.88","","","","-8","","Snow Pellets"
"-81.11","44.74","WIARTON A","6119499","2022-12-17 21:00","2022","12","17","21:00","-2.3","","-4.0","","88","","","","18","","18","","19.3","","97.90","","","","-8","","NA"
"-81.11","44.74","WIARTON A","6119499","2022-12-17 22:00","2022","12","17","22:00","-2.4","","-3.7","","90","","","","19","","18","","3.2","","97.88","","","","-8","","Snow Showers"
"-81.11","44.74","WIARTON A","6119499","2022-12-17 23:00","2022","12","17","23:00","-2.3","","-3.5","","91","","","","18","","15","","12.9","","97.87","","","","-7","","NA"
"-81.11","44.74","WIARTON A","6119499","2022-12-18 00:00","2022","12","18","00:00","-2.1","","-2.6","","96","","","","19","","13","","3.2","","97.87","","","","-7","","Snow Showers"
"-81.11","44.74","WIARTON A","6119499","2022-12-18 01:00","2022","12","18","01:00","-1.9","","-2.4","","97","","","","28","","18","","0.4","","97.88","","","","-7","","Heavy Snow Showers"
"-81.11","44.74","WIARTON A","6119499","2022-12-18 02:00","2022","12","18","02:00","-1.8","","-2.4","","96","","","","25","","16","","1.2","","97.91","","","","-7","","Snow Showers"
"-81.11","44.74","WIARTON A","6119499","2022-12-18 03:00","2022","12","18","03:00","-1.8","","-2.4","","96","","","","25","","21","","0.4","","97.96","","","","-8","","Heavy Snow Showers"
"-81.11","44.74","WIARTON A","6119499","2022-12-18 04:00","2022","12","18","04:00","-2.0","","-2.6","","96","","","","23","","13","","1.2","","97.97","","","","-6","","Snow Showers"
"-81.11","44.74","WIARTON A","6119499","2022-12-18 05:00","2022","12","18","05:00","-1.9","","-3.0","","92","","","","22","","13","","12.9","","97.98","","","","-6","","NA"
"-81.11","44.74","WIARTON A","6119499","2022-12-18 06:00","2022","12","18","06:00","-1.1","","-4.5","","78","","","","27","","13","","12.9","","98.00","","","","-5","","Snow Showers"
"-81.11","44.74","WIARTON A","6119499","2022-12-18 07:00","2022","12","18","07:00","-1.1","","-5.2","","73","","","","27","","12","","16.1","","98.04","","","","-5","","Cloudy"
"-81.11","44.74","WIARTON A","6119499","2022-12-18 08:00","2022","12","18","08:00","-1.3","","-5.3","","74","","","","25","","9","","24.1","","98.08","","","","-5","","NA"
"-81.11","44.74","WIARTON A","6119499","2022-12-18 09:00","2022","12","18","09:00","-1.1","","-6.4","","67","","","","25","","11","","24.1","","98.15","","","","-5","","NA"
"-81.11","44.74","WIARTON A","6119499","2022-12-18 10:00","2022","12","18","10:00","-0.8","","-5.7","","70","","","","23","","13","","24.1","","98.21","","","","-5","","Mostly Cloudy"
"-81.11","44.74","WIARTON A","6119499","2022-12-18 11:00","2022","12","18","11:00","0.0","","-5.3","","68","","","","25","","11","","24.1","","98.25","","","","-4","","NA"
"-81.11","44.74","WIARTON A","6119499","2022-12-18 12:00","2022","12","18","12:00","0.5","","-5.6","","64","","","","25","","14","","24.1","","98.25","","","","","","NA"
"-81.11","44.74","WIARTON A","6119499","2022-12-18 13:00","2022","12","18","13:00","0.1","","-3.8","","76","","","","25","","9","","24.1","","98.25","","","","","","Mostly Cloudy"
"-81.11","44.74","WIARTON A","6119499","2022-12-18 14:00","2022","12","18","14:00","0.8","","-3.8","","71","","","","25","","15","","24.1","","98.28","","","","","","NA"
"-81.11","44.74","WIARTON A","6119499","2022-12-18 15:00","2022","12","18","15:00","-0.3","","-0.9","","96","","","","28","","10","","1.0","","98.32","","","","-4","","Snow Showers"
"-81.11","44.74","WIARTON A","6119499","2022-12-18 16:00","2022","12","18","16:00","0.7","","-2.1","","81","","","","27","","28","","6.4","","98.39","","","","","","Snow Pellets"
"-81.11","44.74","WIARTON A","6119499","2022-12-18 17:00","2022","12","18","17:00","1.0","","-2.4","","78","","","","27","","26","","24.1","","98.46","","","","","","Snow Pellets,Blowing Snow"
"-81.11","44.74","WIARTON A","6119499","2022-12-18 18:00","2022","12","18","18:00","0.7","","-2.0","","82","","","","27","","28","","16.1","","98.54","","","","","","Snow Showers,Blowing Snow"
"-81.11","44.74","WIARTON A","6119499","2022-12-18 19:00","2022","12","18","19:00","0.1","","-1.0","","92","","","","28","","34","","4.8","","98.62","","","","","","Snow Showers,Blowing Snow"
"-81.11","44.74","WIARTON A","6119499","2022-12-18 20:00","2022","12","18","20:00","-0.2","","-0.7","","96","","","","28","","22","","1.2","","98.68","","","","-6","","Snow Showers,Blowing Snow"
"-81.11","44.74","WIARTON A","6119499","2022-12-18 21:00","2022","12","18","21:00","-0.5","","-1.1","","95","","","","30","","15","","1.6","","98.75","","","","-5","","Snow Showers,Blowing Snow"
"-81.11","44.74","WIARTON A","6119499","2022-12-18 22:00","2022","12","18","22:00","0.2","","-3.4","","77","","","","27","","24","","16.1","","98.80","","","","","","Snow Showers,Blowing Snow"
"-81.11","44.74","WIARTON A","6119499","2022-12-18 23:00","2022","12","18","23:00","0.2","","-4.2","","72","","","","27","","27","","19.3","","98.87","","","","","","NA"
"-81.11","44.74","WIARTON A","6119499","2022-12-19 00:00","2022","12","19","00:00","-0.2","","-2.9","","82","","","","27","","20","","16.1","","98.94","","","","-5","","NA"
"-81.11","44.74","WIARTON A","6119499","2022-12-19 01:00","2022","12","19","01:00","-0.5","","-3.1","","83","","","","28","","15","","9.7","","98.97","","","","-5","","Snow Showers"
"-81.11","44.74","WIARTON A","6119499","2022-12-19 02:00","2022","12","19","02:00","-0.7","","-2.9","","85","","","","28","","17","","9.7","","99.05","","","","-6","","Snow Showers"
"-81.11","44.74","WIARTON A","6119499","2022-12-19 03:00","2022","12","19","03:00","-0.8","","-5.3","","71","","","","29","","22","","12.9","","99.12","","","","-7","","Snow Showers"
"-81.11","44.74","WIARTON A","6119499","2022-12-19 04:00","2022","12","19","04:00","-0.8","","-5.5","","70","","","","28","","18","","16.1","","99.18","","","","-6","","Snow Showers"
"-81.11","44.74","WIARTON A","6119499","2022-12-19 05:00","2022","12","19","05:00","-1.1","","-5.9","","70","","","","27","","22","","16.1","","99.23","","","","-7","","Snow Showers"
"-81.11","44.74","WIARTON A","6119499","2022-12-19 06:00","2022","12","19","06:00","-1.2","","-6.1","","70","","","","27","","22","","16.1","","99.29","","","","-7","","Snow Showers"
"-81.11","44.74","WIARTON A","6119499","2022-12-19 07:00","2022","12","19","07:00","-1.0","","-5.0","","74","","","","27","","21","","16.1","","99.35","","","","-7","","Snow Showers"
"-81.11","44.74","WIARTON A","6119499","2022-12-19 08:00","2022","12","19","08:00","-1.7","","-2.6","","94","","","","28","","23","","1.2","","99.42","","","","-8","","Snow Showers,Blowing Snow"
"-81.11","44.74","WIARTON A","6119499","2022-12-19 09:00","2022","12","19","09:00","-2.3","","-4.1","","87","","","","32","","17","","16.1","","99.53","","","","-8","","Snow Showers"
"-81.11","44.74","WIARTON A","6119499","2022-12-19 10:00","2022","12","19","10:00","-2.5","","-4.2","","88","","","","32","","8","","19.3","","99.65","","","","-6","","Snow Showers"
"-81.11","44.74","WIARTON A","6119499","2022-12-19 11:00","2022","12","19","11:00","-2.6","","-5.2","","82","","","","32","","16","","24.1","","99.73","","","","-8","","NA"
"-81.11","44.74","WIARTON A","6119499","2022-12-19 12:00","2022","12","19","12:00","-2.9","","-5.7","","81","","","","33","","17","","24.1","","99.76","","","","-8","","NA"
"-81.11","44.74","WIARTON A","6119499","2022-12-19 13:00","2022","12","19","13:00","-2.9","","-5.6","","81","","","","33","","12","","24.1","","99.80","","","","-7","","Cloudy"
"-81.11","44.74","WIARTON A","6119499","2022-12-19 14:00","2022","12","19","14:00","-2.9","","-5.6","","82","","","","33","","13","","24.1","","99.84","","","","-8","","NA"
"-81.11","44.74","WIARTON A","6119499","2022-12-19 15:00","2022","12","19","15:00","-3.0","","-5.7","","82","","","","32","","12","","24.1","","99.92","","","","-7","","NA"
"-81.11","44.74","WIARTON A","6119499","2022-12-19 16:00","2022","12","19","16:00","-3.1","","-5.9","","81","","","","33","","10","","24.1","","99.99","","","","-7","","Cloudy"
"-81.11","44.74","WIARTON A","6119499","2022-12-19 17:00","2022","12","19","17:00","-3.3","","-6.1","","81","","","","34","","12","","24.1","","100.05","","","","-8","","NA"
"-81.11","44.74","WIARTON A","6119499","2022-12-19 18:00","2022","12","19","18:00","-3.4","","-6.2","","81","","","","34","","8","","24.1","","100.10","","","","-7","","NA"
"-81.11","44.74","WIARTON A","6119499","2022-12-19 19:00","2022","12","19","19:00","-3.6","","-6.4","","81","","","","36","","12","","24.1","","100.15","","","","-8","","Cloudy"
"-81.11","44.74","WIARTON A","6119499","2022-12-19 20:00","2022","12","19","20:00","-3.5","","-6.4","","81","","","","34","","8","","24.1","","100.19","","","","-7","","NA"
"-81.11","44.74","WIARTON A","6119499","2022-12-19 21:00","2022","12","19","21:00","-3.8","","-6.5","","82","","","","36","","4","","24.1","","100.23","","","","-5","","NA"
"-81.11","44.74","WIARTON A","6119499","2022-12-19 22:00","2022","12","19","22:00","-3.8","","-6.5","","82","","","","3","","5","","24.1","","100.27","","","","-6","","Cloudy"
"-81.11","44.74","WIARTON A","6119499","2022-12-19 23:00","2022","12","19","23:00","-3.7","","-6.3","","82","","","","3","","8","","24.1","","100.29","","","","-7","","NA"
"-81.11","44.74","WIARTON A","6119499","2022-12-20 00:00","2022","12","20","00:00","-4.0","","-6.3","","84","","","","7","","4","","24.1","","100.29","","","","-6","","NA"
"-81.11","44.74","WIARTON A","6119499","2022-12-20 01:00","2022","12","20","01:00","-4.2","","-6.0","","88","","","","19","","7","","24.1","","100.28","","","","-7","","Cloudy"
"-81.11","44.74","WIARTON A","6119499","2022-12-20 02:00","2022","12","20","02:00","-4.3","","-6.0","","88","","","","18","","9","","24.1","","100.29","","","","-8","","NA"
"-81.11","44.74","WIARTON A","6119499","2022-12-20 03:00","2022","12","20","03:00","-4.3","","-5.9","","89","","","","17","","7","","24.1","","100.33","","","","-7","","NA"
"-81.11","44.74","WIARTON A","6119499","2022-12-20 04:00","2022","12","20","04:00","-4.2","","-5.8","","89","","","","18","","7","","24.1","","100.33","","","","-7","","Cloudy"
"-81.11","44.74","WIARTON A","6119499","2022-12-20 05:00","2022","12","20","05:00","-4.1","","-5.6","","89","","","","17","","5","","24.1","","100.34","","","","-6","","NA"
"-81.11","44.74","WIARTON A","6119499","2022-12-20 06:00","2022","12","20","06:00","-3.9","","-5.3","","90","","","","15","","9","","24.1","","100.32","","","","-8","","NA"
"-81.11","44.74","WIARTON A","6119499","2022-12-20 07:00","2022","12","20","07:00","-3.7","","-5.0","","90","","","","13","","10","","24.1","","100.29","","","","-8","","Cloudy"
"-81.11","44.74","WIARTON A","6119499","2022-12-20 08:00","2022","12","20","08:00","-3.2","","-4.9","","88","","","","15","","11","","24.1","","100.27","","","","-7","","NA"
"-81.11","44.74","WIARTON A","6119499","2022-12-20 09:00","2022","12","20","09:00","-2.5","","-5.0","","83","","","","17","","14","","24.1","","100.26","","","","-7","","NA"
"-81.11","44.74","WIARTON A","6119499","2022-12-20 10:00","2022","12","20","10:00","-1.9","","-4.7","","81","","","","19","","20","","24.1","","100.29","","","","-8","","Cloudy"
"-81.11","44.74","WIARTON A","6119499","2022-12-20 11:00","2022","12","20","11:00","-1.9","","-4.7","","81","","","","19","","21","","16.1","","100.27","","","","-8","","Snow"
"-81.11","44.74","WIARTON A","6119499","2022-12-20 12:00","2022","12","20","12:00","-1.8","","-5.2","","77","","","","21","","26","","24.1","","100.19","","","","-8","","NA"
"-81.11","44.74","WIARTON A","6119499","2022-12-20 13:00","2022","12","20","13:00","-1.9","","-5.8","","75","","","","19","","30","","24.1","","100.09","","","","-9","","Mostly Cloudy"
"-81.11","44.74","WIARTON A","6119499","2022-12-20 14:00","2022","12","20","14:00","-2.3","","-6.4","","74","","","","19","","27","","24.1","","100.06","","","","-9","","NA"
"-81.11","44.74","WIARTON A","6119499","2022-12-20 15:00","2022","12","20","15:00","-2.3","","-5.4","","79","","","","19","","24","","16.1","","100.03","","","","-9","","NA"
"-81.11","44.74","WIARTON A","6119499","2022-12-20 16:00","2022","12","20","16:00","-2.2","","-5.0","","82","","","","19","","24","","16.1","","100.00","","","","-9","","Snow"
"-81.11","44.74","WIARTON A","6119499","2022-12-20 17:00","2022","12","20","17:00","-2.6","","-5.1","","83","","","","20","","23","","24.1","","100.01","","","","-9","","NA"
"-81.11","44.74","WIARTON A","6119499","2022-12-20 18:00","2022","12","20","18:00","-2.3","","-4.7","","83","","","","19","","25","","24.1","","100.01","","","","-9","","NA"
"-81.11","44.74","WIARTON A","6119499","2022-12-20 19:00","2022","12","20","19:00","-1.8","","-4.0","","85","","","","19","","20","","24.1","","100.01","","","","-8","","Mostly Cloudy"
"-81.11","44.74","WIARTON A","6119499","2022-12-20 20:00","2022","12","20","20:00","-2.5","","-4.4","","87","","","","19","","17","","24.1","","99.98","","","","-8","","NA"
"-81.11","44.74","WIARTON A","6119499","2022-12-20 21:00","2022","12","20","21:00","-2.4","","-4.2","","87","","","","19","","19","","24.1","","99.97","","","","-8","","NA"
"-81.11","44.74","WIARTON A","6119499","2022-12-20 22:00","2022","12","20","22:00","-2.9","","-4.7","","87","","","","18","","20","","24.1","","99.92","","","","-9","","Mostly Cloudy"
"-81.11","44.74","WIARTON A","6119499","2022-12-20 23:00","2022","12","20","23:00","-2.5","","-4.4","","87","","","","19","","19","","24.1","","99.89","","","","-8","","NA"
"-81.11","44.74","WIARTON A","6119499","2022-12-21 00:00","2022","12","21","00:00","0.2","","-3.3","","78","","","","24","","25","","24.1","","99.88","","","","","","NA"
"-81.11","44.74","WIARTON A","6119499","2022-12-21 01:00","2022","12","21","01:00","-0.5","","-5.2","","71","","","","26","","24","","24.1","","99.86","","","","-6","","Mainly Clear"
"-81.11","44.74","WIARTON A","6119499","2022-12-21 02:00","2022","12","21","02:00","-1.6","","-6.0","","72","","","","25","","19","","24.1","","99.87","","","","-7","","NA"
"-81.11","44.74","WIARTON A","6119499","2022-12-21 03:00","2022","12","21","03:00","-1.8","","-5.9","","73","","","","25","","23","","24.1","","99.91","","","","-8","","NA"
"-81.11","44.74","WIARTON A","6119499","2022-12-21 04:00","2022","12","21","04:00","-2.5","","-6.4","","75","","","","26","","15","","24.1","","99.92","","","","-7","","Mainly Clear"
"-81.11","44.74","WIARTON A","6119499","2022-12-21 05:00","2022","12","21","05:00","-2.9","","-7.6","","70","","","","26","","23","","24.1","","99.93","","","","-9","","NA"
"-81.11","44.74","WIARTON A","6119499","2022-12-21 06:00","2022","12","21","06:00","-3.4","","-7.8","","72","","","","27","","24","","24.1","","99.99","","","","-10","","NA"
"-81.11","44.74","WIARTON A","6119499","2022-12-21 07:00","2022","12","21","07:00","-3.6","","-8.5","","69","","","","28","","16","","24.1","","100.04","","","","-9","","Mostly Cloudy"
"-81.11","44.74","WIARTON A","6119499","2022-12-21 08:00","2022","12","21","08:00","-4.1","","-9.1","","69","","","","28","","15","","24.1","","100.11","","","","-9","","NA"
"-81.11","44.74","WIARTON A","6119499","2022-12-21 09:00","2022","12","21","09:00","-4.2","","-10.2","","63","","","","28","","17","","24.1","","100.17","","","","-10","","NA"
"-81.11","44.74","WIARTON A","6119499","2022-12-21 10:00","2022","12","21","10:00","-4.0","","-10.0","","63","","","","28","","12","","24.1","","100.23","","","","-9","","Mostly Cloudy"
"-81.11","44.74","WIARTON A","6119499","2022-12-21 11:00","2022","12","21","11:00","-3.3","","-10.1","","60","","","","27","","15","","24.1","","100.26","","","","-8","","NA"
"-81.11","44.74","WIARTON A","6119499","2022-12-21 12:00","2022","12","21","12:00","-3.7","","-9.2","","66","","","","27","","14","","24.1","","100.22","","","","-9","","NA"
"-81.11","44.74","WIARTON A","6119499","2022-12-21 13:00","2022","12","21","13:00","-3.9","","-9.1","","67","","","","29","","10","","24.1","","100.21","","","","-8","","Mostly Cloudy"
"-81.11","44.74","WIARTON A","6119499","2022-12-21 14:00","2022","12","21","14:00","-3.4","","-8.4","","68","","","","30","","8","","24.1","","100.21","","","","-7","","NA"
"-81.11","44.74","WIARTON A","6119499","2022-12-21 15:00","2022","12","21","15:00","-4.3","","-10.7","","61","","","","25","","13","","24.1","","100.20","","","","-9","","NA"
"-81.11","44.74","WIARTON A","6119499","2022-12-21 16:00","2022","12","21","16:00","-4.8","","-9.9","","68","","","","22","","5","","24.1","","100.21","","","","-7","","Mostly Cloudy"
"-81.11","44.74","WIARTON A","6119499","2022-12-21 17:00","2022","12","21","17:00","-5.1","","-9.8","","70","","","","21","","5","","24.1","","100.22","","","","-7","","NA"
"-81.11","44.74","WIARTON A","6119499","2022-12-21 18:00","2022","12","21","18:00","-6.0","","-10.0","","74","","","","14","","7","","24.1","","100.22","","","","-9","","NA"
"-81.11","44.74","WIARTON A","6119499","2022-12-21 19:00","2022","12","21","19:00","-6.7","","-10.0","","77","","","","13","","10","","24.1","","100.20","","","","-11","","Mostly Cloudy"
"-81.11","44.74","WIARTON A","6119499","2022-12-21 20:00","2022","12","21","20:00","-7.6","","-10.6","","79","","","","15","","10","","24.1","","100.15","","","","-12","","NA"
"-81.11","44.74","WIARTON A","6119499","2022-12-21 21:00","2022","12","21","21:00","-8.6","","-11.0","","83","","","","10","","10","","24.1","","100.13","","","","-14","","NA"
"-81.11","44.74","WIARTON A","6119499","2022-12-21 22:00","2022","12","21","22:00","-10.1","","-11.4","","90","","","","10","","10","","24.1","","100.09","","","","-15","","Mainly Clear"
"-81.11","44.74","WIARTON A","6119499","2022-12-21 23:00","2022","12","21","23:00","-10.4","","-11.8","","90","","","","15","","7","","24.1","","100.08","","","","-14","","NA"
"-81.11","44.74","WIARTON A","6119499","2022-12-22 00:00","2022","12","22","00:00","-8.9","","-10.6","","88","","","","9","","11","","24.1","","99.94","","","","-14","","NA"
"-81.11","44.74","WIARTON A","6119499","2022-12-22 01:00","2022","12","22","01:00","-6.0","","-9.6","","76","","","","9","","9","","24.1","","99.85","","","","-10","","Mostly Cloudy"
"-81.11","44.74","WIARTON A","6119499","2022-12-22 02:00","2022","12","22","02:00","-4.4","","-9.9","","66","","","","10","","7","","24.1","","99.78","","","","-8","","NA"
"-81.11","44.74","WIARTON A","6119499","2022-12-22 03:00","2022","12","22","03:00","-3.9","","-8.8","","69","","","","10","","9","","24.1","","99.76","","","","-8","","NA"
"-81.11","44.74","WIARTON A","6119499","2022-12-22 04:00","2022","12","22","04:00","-3.2","","-8.5","","67","","","","9","","10","","24.1","","99.65","","","","-7","","Cloudy"
"-81.11","44.74","WIARTON A","6119499","2022-12-22 05:00","2022","12","22","05:00","-3.4","","-7.3","","75","","","","8","","10","","24.1","","99.53","","","","-7","","NA"
"-81.11","44.74","WIARTON A","6119499","2022-12-22 06:00","2022","12","22","06:00","-3.3","","-5.9","","82","","","","7","","10","","24.1","","99.43","","","","-7","","NA"
"-81.11","44.74","WIARTON A","6119499","2022-12-22 07:00","2022","12","22","07:00","-2.7","","-5.0","","84","","","","9","","8","","24.1","","99.31","","","","-6","","Mostly Cloudy"
"-81.11","44.74","WIARTON A","6119499","2022-12-22 08:00","2022","12","22","08:00","-2.0","","-4.3","","84","","","","9","","9","","24.1","","99.18","","","","-5","","NA"
"-81.11","44.74","WIARTON A","6119499","2022-12-22 09:00","2022","12","22","09:00","-1.6","","-4.3","","82","","","","10","","11","","24.1","","99.16","","","","-5","","NA"
"-81.11","44.74","WIARTON A","6119499","2022-12-22 10:00","2022","12","22","10:00","-0.6","","-4.1","","77","","","","10","","15","","24.1","","99.06","","","","-5","","Cloudy"
"-81.11","44.74","WIARTON A","6119499","2022-12-22 11:00","2022","12","22","11:00","0.4","","-4.1","","72","","","","12","","11","","24.1","","98.96","","","","","","NA"
"-81.11","44.74","WIARTON A","6119499","2022-12-22 12:00","2022","12","22","12:00","1.3","","-3.9","","68","","","","12","","10","","24.1","","98.81","","","","","","NA"
"-81.11","44.74","WIARTON A","6119499","2022-12-22 13:00","2022","12","22","13:00","2.2","","-3.6","","65","","","","13","","15","","24.1","","98.64","","","","","","Mostly Cloudy"
"-81.11","44.74","WIARTON A","6119499","2022-12-22 14:00","2022","12","22","14:00","3.0","","-3.4","","63","","","","12","","19","","24.1","","98.51","","","","","","NA"
"-81.11","44.74","WIARTON A","6119499","2022-12-22 15:00","2022","12","22","15:00","3.4","","-3.0","","63","","","","13","","17","","24.1","","98.44","","","","","","NA"
"-81.11","44.74","WIARTON A","6119499","2022-12-22 16:00","2022","12","22","16:00","3.3","","-2.6","","65","","","","13","","16","","24.1","","98.38","","","","","","Cloudy"
"-81.11","44.74","WIARTON A","6119499","2022-12-22 17:00","2022","12","22","17:00","3.0","","-1.9","","70","","","","12","","17","","24.1","","98.30","","","","","","NA"
"-81.11","44.74","WIARTON A","6119499","2022-12-22 18:00","2022","12","22","18:00","2.9","","-0.8","","77","","","","13","","21","","24.1","","98.19","","","","","","NA"
"-81.11","44.74","WIARTON A","6119499","2022-12-22 19:00","2022","12","22","19:00","2.7","","-0.4","","80","","","","11","","20","","24.1","","98.05","","","","","","Cloudy"
"-81.11","44.74","WIARTON A","6119499","2022-12-22 20:00","2022","12","22","20:00","2.5","","0.1","","85","","","","11","","17","","24.1","","97.85","","","","","","Rain"
"-81.11","44.74","WIARTON A","6119499","2022-12-22 21:00","2022","12","22","21:00","2.2","","0.3","","87","","","","10","","16","","24.1","","97.61","","","","","","Rain"
"-81.11","44.74","WIARTON A","6119499","2022-12-22 22:00","2022","12","22","22:00","1.9","","0.2","","88","","","","10","","24","","24.1","","97.39","","","","","","Cloudy"
"-81.11","44.74","WIARTON A","6119499","2022-12-22 23:00","2022","12","22","23:00","1.9","","0.2","","88","","","","10","","23","","24.1","","97.20","","","","","","NA"
"-81.11","44.74","WIARTON A","6119499","2022-12-23 00:00","2022","12","23","00:00","2.1","","0.4","","89","","","","10","","18","","24.1","","97.04","","","","","","NA"
"-81.11","44.74","WIARTON A","6119499","2022-12-23 01:00","2022","12","23","01:00","2.5","","0.5","","87","","","","12","","16","","24.1","","96.82","","","","","","Cloudy"
"-81.11","44.74","WIARTON A","6119499","2022-12-23 02:00","2022","12","23","02:00","2.1","","0.9","","92","","","","11","","14","","16.1","","96.61","","","","","","Snow"
"-81.11","44.74","WIARTON A","6119499","2022-12-23 03:00","2022","12","23","03:00","1.5","","0.8","","95","","","","9","","10","","19.3","","96.41","","","","","","Snow"
"-81.11","44.74","WIARTON A","6119499","2022-12-23 04:00","2022","12","23","04:00","1.5","","0.7","","95","","","","8","","8","","19.3","","96.19","","","","","","Snow"
"-81.11","44.74","WIARTON A","6119499","2022-12-23 05:00","2022","12","23","05:00","1.3","","0.7","","96","","","","9","","6","","19.3","","96.00","","","","","","Rain"
"-81.11","44.74","WIARTON A","6119499","2022-12-23 06:00","2022","12","23","06:00","0.6","","0.2","","97","","","","36","","1","","19.3","","95.81","","","","","","Rain"
"-81.11","44.74","WIARTON A","6119499","2022-12-23 07:00","2022","12","23","07:00","0.2","","0.0","","99","","","","26","","3","","6.4","","95.67","","","","","","Snow,Fog"
"-81.11","44.74","WIARTON A","6119499","2022-12-23 08:00","2022","12","23","08:00","0.0","","-0.1","","99","","","","21","","4","","1.6","","95.51","","","","-1","","Snow,Fog"
"-81.11","44.74","WIARTON A","6119499","2022-12-23 09:00","2022","12","23","09:00","0.0","","-0.1","","99","","","","23","","8","","1.2","","95.39","","","","-3","","Snow,Fog"
"-81.11","44.74","WIARTON A","6119499","2022-12-23 10:00","2022","12","23","10:00","0.2","","0.1","","99","","","","27","","22","","1.2","","95.36","","","","","","Snow,Fog"
"-81.11","44.74","WIARTON A","6119499","2022-12-23 11:00","2022","12","23","11:00","-0.3","","-0.7","","97","","","","26","","29","","0.8","","95.35","","","","-7","","Snow,Freezing Fog"
"-81.11","44.74","WIARTON A","6119499","2022-12-23 12:00","2022","12","23","12:00","-1.2","","-1.8","","96","","","","25","","31","","0.2","","95.31","","","","-8","","Heavy Snow"
"-81.11","44.74","WIARTON A","6119499","2022-12-23 13:00","2022","12","23","13:00","-2.3","","-3.0","","95","","","","25","","41","","0.2","","95.35","","","","-11","","Heavy Snow,Blowing Snow"
"-81.11","44.74","WIARTON A","6119499","2022-12-23 14:00","2022","12","23","14:00","-2.9","","-3.9","","93","","","","25","","37","","0.2","","95.42","","","","-11","","Moderate Snow,Blowing Snow"
"-81.11","44.74","WIARTON A","6119499","2022-12-23 15:00","2022","12","23","15:00","-3.8","","-5.1","","91","","","","26","","39","","0.4","","95.47","","","","-12","","Moderate Snow,Blowing Snow"
"-81.11","44.74","WIARTON A","6119499","2022-12-23 16:00","2022","12","23","16:00","-4.9","","-6.2","","91","","","","25","","31","","0.4","","95.55","","","","-13","","Moderate Snow,Blowing Snow"
"-81.11","44.74","WIARTON A","6119499","2022-12-23 17:00","2022","12","23","17:00","-5.6","","-7.0","","90","","","","24","","39","","0.2","","95.58","","","","-15","","Moderate Snow,Blowing Snow"
"-81.11","44.74","WIARTON A","6119499","2022-12-23 18:00","2022","12","23","18:00","-5.8","","-7.5","","88","","","","26","","37","","0.4","","95.62","","","","-15","","Moderate Snow,Blowing Snow"
"-81.11","44.74","WIARTON A","6119499","2022-12-23 19:00","2022","12","23","19:00","-6.2","","-7.6","","90","","","","25","","46","","0.4","","95.66","","","","-16","","Snow,Blowing Snow"
"-81.11","44.74","WIARTON A","6119499","2022-12-23 20:00","2022","12","23","20:00","-6.4","","-7.7","","90","","","","25","","45","","0.4","","95.66","","","","-16","","Snow,Blowing Snow"
"-81.11","44.74","WIARTON A","6119499","2022-12-23 21:00","2022","12","23","21:00","-6.8","","-8.2","","89","","","","26","","43","","0.4","","95.69","","","","-17","","Snow,Blowing Snow"
"-81.11","44.74","WIARTON A","6119499","2022-12-23 22:00","2022","12","23","22:00","-7.0","","-9.0","","86","","","","25","","36","","1.2","","95.71","","","","-16","","Snow,Blowing Snow"
"-81.11","44.74","WIARTON A","6119499","2022-12-23 23:00","2022","12","23","23:00","-7.1","","-9.0","","86","","","","25","","48","","1.2","","95.75","","","","-18","","Snow,Blowing Snow"
"-81.11","44.74","WIARTON A","6119499","2022-12-24 00:00","2022","12","24","00:00","-7.0","","-8.7","","87","","","","26","","39","","1.2","","95.80","","","","-17","","Snow,Blowing Snow"
"-81.11","44.74","WIARTON A","6119499","2022-12-24 01:00","2022","12","24","01:00","-6.8","","-8.8","","85","","","","25","","45","","1.6","","95.82","","","","-17","","Snow,Blowing Snow"
"-81.11","44.74","WIARTON A","6119499","2022-12-24 02:00","2022","12","24","02:00","-6.7","","-9.0","","84","","","","25","","42","","2.4","","95.88","","","","-17","","Snow,Blowing Snow"
"-81.11","44.74","WIARTON A","6119499","2022-12-24 03:00","2022","12","24","03:00","-6.5","","-8.8","","83","","","","26","","43","","2.4","","95.91","","","","-16","","Snow,Blowing Snow"
"-81.11","44.74","WIARTON A","6119499","2022-12-24 04:00","2022","12","24","04:00","-6.3","","-8.8","","83","","","","26","","42","","1.6","","95.90","","","","-16","","Snow,Blowing Snow"
"-81.11","44.74","WIARTON A","6119499","2022-12-24 05:00","2022","12","24","05:00","-6.1","","-8.3","","84","","","","25","","39","","1.6","","95.91","","","","-15","","Snow,Blowing Snow"
"-81.11","44.74","WIARTON A","6119499","2022-12-24 06:00","2022","12","24","06:00","-5.7","","-8.3","","82","","","","25","","35","","1.6","","95.95","","","","-14","","Snow,Blowing Snow"
"-81.11","44.74","WIARTON A","6119499","2022-12-24 07:00","2022","12","24","07:00","-6.2","","-7.7","","90","","","","25","","45","","1.2","","96.00","","","","-16","","Snow,Blowing Snow"
"-81.11","44.74","WIARTON A","6119499","2022-12-24 08:00","2022","12","24","08:00","-6.1","","-7.3","","91","","","","25","","43","","0.2","","96.07","","","","-16","","Moderate Snow,Blowing Snow"
"-81.11","44.74","WIARTON A","6119499","2022-12-24 09:00","2022","12","24","09:00","-5.5","","-6.6","","92","","","","25","","37","","0.4","","96.16","","","","-14","","Moderate Snow,Blowing Snow"
"-81.11","44.74","WIARTON A","6119499","2022-12-24 10:00","2022","12","24","10:00","-5.5","","-7.4","","87","","","","26","","37","","0.4","","96.25","","","","-14","","Moderate Snow,Blowing Snow"
"-81.11","44.74","WIARTON A","6119499","2022-12-24 11:00","2022","12","24","11:00","-5.2","","-8.4","","78","","","","26","","44","","1.6","","96.28","","","","-15","","Snow,Blowing Snow"
"-81.11","44.74","WIARTON A","6119499","2022-12-24 12:00","2022","12","24","12:00","-5.4","","-7.6","","84","","","","25","","44","","3.2","","96.31","","","","-15","","Snow,Blowing Snow"
"-81.11","44.74","WIARTON A","6119499","2022-12-24 13:00","2022","12","24","13:00","-5.5","","-7.8","","84","","","","27","","37","","0.8","","96.34","","","","-14","","Moderate Snow,Blowing Snow"
"-81.11","44.74","WIARTON A","6119499","2022-12-24 14:00","2022","12","24","14:00","-5.9","","-7.7","","87","","","","26","","34","","1.2","","96.39","","","","-15","","Snow,Blowing Snow"
"-81.11","44.74","WIARTON A","6119499","2022-12-24 15:00","2022","12","24","15:00","-5.5","","-8.3","","81","","","","27","","33","","1.2","","96.45","","","","-14","","Snow,Blowing Snow"
"-81.11","44.74","WIARTON A","6119499","2022-12-24 16:00","2022","12","24","16:00","-5.4","","-7.6","","85","","","","27","","35","","1.0","","96.47","","","","-14","","Snow,Blowing Snow"
"-81.11","44.74","WIARTON A","6119499","2022-12-24 17:00","2022","12","24","17:00","-5.3","","-9.7","","71","","","","27","","43","","1.2","","96.55","","","","-15","","Snow,Blowing Snow"
"-81.11","44.74","WIARTON A","6119499","2022-12-24 18:00","2022","12","24","18:00","-5.5","","-9.2","","75","","","","27","","41","","9.7","","96.66","","","","-15","","Blowing Snow"
"-81.11","44.74","WIARTON A","6119499","2022-12-24 19:00","2022","12","24","19:00","-5.5","","-8.3","","81","","","","26","","28","","9.7","","96.70","","","","-13","","Blowing Snow"
"-81.11","44.74","WIARTON A","6119499","2022-12-24 20:00","2022","12","24","20:00","-5.4","","-8.5","","79","","","","27","","37","","1.6","","96.75","","","","-14","","Snow,Blowing Snow"
"-81.11","44.74","WIARTON A","6119499","2022-12-24 21:00","2022","12","24","21:00","-5.6","","-8.2","","82","","","","27","","34","","2.4","","96.75","","","","-14","","Snow,Blowing Snow"
"-81.11","44.74","WIARTON A","6119499","2022-12-24 22:00","2022","12","24","22:00","-5.3","","-9.3","","74","","","","27","","34","","3.2","","96.77","","","","-14","","Snow,Blowing Snow"
"-81.11","44.74","WIARTON A","6119499","2022-12-24 23:00","2022","12","24","23:00","-4.8","","-10.2","","67","","","","27","","33","","24.1","","96.81","","","","-13","","Snow,Blowing Snow"
"-81.11","44.74","WIARTON A","6119499","2022-12-25 00:00","2022","12","25","00:00","-5.0","","-10.5","","65","","","","27","","30","","24.1","","96.87","","","","-13","","Snow,Blowing Snow"
"-81.11","44.74","WIARTON A","6119499","2022-12-25 01:00","2022","12","25","01:00","-5.6","","-8.5","","80","","","","27","","32","","6.4","","96.89","","","","-14","","Snow,Blowing Snow"
"-81.11","44.74","WIARTON A","6119499","2022-12-25 02:00","2022","12","25","02:00","-5.0","","-10.2","","67","","","","27","","32","","9.7","","96.93","","","","-13","","Blowing Snow"
"-81.11","44.74","WIARTON A","6119499","2022-12-25 03:00","2022","12","25","03:00","-4.9","","-10.4","","65","","","","28","","33","","9.7","","97.00","","","","-13","","Snow,Blowing Snow"
"-81.11","44.74","WIARTON A","6119499","2022-12-25 04:00","2022","12","25","04:00","-4.9","","-10.5","","65","","","","28","","39","","6.4","","97.05","","","","-14","","Snow,Blowing Snow"
"-81.11","44.74","WIARTON A","6119499","2022-12-25 05:00","2022","12","25","05:00","-4.8","","-10.3","","66","","","","27","","27","","16.1","","97.12","","","","-12","","Snow,Blowing Snow"
"-81.11","44.74","WIARTON A","6119499","2022-12-25 06:00","2022","12","25","06:00","-5.3","","-8.8","","77","","","","28","","36","","6.4","","97.20","","","","-14","","Snow,Blowing Snow"
"-81.11","44.74","WIARTON A","6119499","2022-12-25 07:00","2022","12","25","07:00","-5.9","","-7.0","","92","","","","28","","33","","0.2","","97.30","","","","-15","","Moderate Snow,Blowing Snow"
"-81.11","44.74","WIARTON A","6119499","2022-12-25 08:00","2022","12","25","08:00","-5.6","","-6.8","","91","","","","28","","28","","0.2","","97.38","","","","-14","","Moderate Snow,Blowing Snow"
"-81.11","44.74","WIARTON A","6119499","2022-12-25 09:00","2022","12","25","09:00","-4.9","","-7.4","","83","","","","28","","26","","2.4","","97.46","","","","-12","","Snow,Blowing Snow"
"-81.11","44.74","WIARTON A","6119499","2022-12-25 10:00","2022","12","25","10:00","-4.9","","-7.8","","81","","","","27","","30","","1.2","","97.52","","","","-13","","Snow,Blowing Snow"
"-81.11","44.74","WIARTON A","6119499","2022-12-25 11:00","2022","12","25","11:00","-4.5","","-9.3","","69","","","","26","","31","","24.1","","97.59","","","","-12","","Snow,Blowing Snow"
"-81.11","44.74","WIARTON A","6119499","2022-12-25 12:00","2022","12","25","12:00","-4.6","","-9.1","","71","","","","26","","27","","24.1","","97.61","","","","-12","","Snow,Blowing Snow"
"-81.11","44.74","WIARTON A","6119499","2022-12-25 13:00","2022","12","25","13:00","-4.1","","-9.2","","67","","","","27","","29","","24.1","","97.61","","","","-12","","Snow,Blowing Snow"
"-81.11","44.74","WIARTON A","6119499","2022-12-25 14:00","2022","12","25","14:00","-3.8","","-8.7","","69","","","","27","","21","","24.1","","97.67","","","","-10","","Blowing Snow"
"-81.11","44.74","WIARTON A","6119499","2022-12-25 15:00","2022","12","25","15:00","-3.9","","-9.1","","67","","","","26","","25","","24.1","","97.75","","","","-11","","Blowing Snow"
"-81.11","44.74","WIARTON A","6119499","2022-12-25 16:00","2022","12","25","16:00","-4.2","","-8.5","","72","","","","27","","25","","24.1","","97.84","","","","-11","","Blowing Snow"
"-81.11","44.74","WIARTON A","6119499","2022-12-25 17:00","2022","12","25","17:00","-3.7","","-9.7","","63","","","","28","","33","","24.1","","97.92","","","","-12","","Blowing Snow"
"-81.11","44.74","WIARTON A","6119499","2022-12-25 18:00","2022","12","25","18:00","-4.1","","-8.1","","74","","","","28","","30","","16.1","","98.00","","","","-12","","Snow Showers,Blowing Snow"
"-81.11","44.74","WIARTON A","6119499","2022-12-25 19:00","2022","12","25","19:00","-4.0","","-7.9","","74","","","","29","","26","","6.4","","98.08","","","","-11","","Snow Pellets,Blowing Snow"
"-81.11","44.74","WIARTON A","6119499","2022-12-25 20:00","2022","12","25","20:00","-3.7","","-9.2","","66","","","","28","","22","","12.9","","98.13","","","","-10","","Snow Showers,Blowing Snow"
"-81.11","44.74","WIARTON A","6119499","2022-12-25 21:00","2022","12","25","21:00","-3.5","","-9.3","","64","","","","28","","21","","16.1","","98.19","","","","-10","","Snow Showers,Blowing Snow"
"-81.11","44.74","WIARTON A","6119499","2022-12-25 22:00","2022","12","25","22:00","-4.0","","-6.9","","80","","","","27","","28","","9.7","","98.24","","","","-11","","Snow Showers,Blowing Snow"
"-81.11","44.74","WIARTON A","6119499","2022-12-25 23:00","2022","12","25","23:00","-4.2","","-7.2","","80","","","","26","","32","","16.1","","98.30","","","","-12","","Snow Showers,Blowing Snow"
"-81.11","44.74","WIARTON A","6119499","2022-12-26 00:00","2022","12","26","00:00","-4.3","","-7.8","","77","","","","26","","19","","9.7","","98.37","","","","-10","","Snow Showers,Blowing Snow"
"-81.11","44.74","WIARTON A","6119499","2022-12-26 01:00","2022","12","26","01:00","-4.1","","-8.8","","70","","","","26","","23","","16.1","","98.43","","","","-11","","Snow Showers,Blowing Snow"
"-81.11","44.74","WIARTON A","6119499","2022-12-26 02:00","2022","12","26","02:00","-4.2","","-8.8","","71","","","","26","","19","","19.3","","98.50","","","","-10","","Snow Showers,Blowing Snow"
"-81.11","44.74","WIARTON A","6119499","2022-12-26 03:00","2022","12","26","03:00","-4.6","","-8.9","","72","","","","24","","19","","19.3","","98.60","","","","-11","","NA"
"-81.11","44.74","WIARTON A","6119499","2022-12-26 04:00","2022","12","26","04:00","-4.7","","-8.8","","73","","","","23","","18","","16.1","","98.62","","","","-11","","Snow Showers,Blowing Snow"
"-81.11","44.74","WIARTON A","6119499","2022-12-26 05:00","2022","12","26","05:00","-4.5","","-8.7","","72","","","","24","","21","","16.1","","98.67","","","","-11","","Snow Showers,Blowing Snow"
"-81.11","44.74","WIARTON A","6119499","2022-12-26 06:00","2022","12","26","06:00","-4.5","","-8.6","","73","","","","25","","20","","16.1","","98.75","","","","-11","","Snow Showers,Blowing Snow"
"-81.11","44.74","WIARTON A","6119499","2022-12-26 07:00","2022","12","26","07:00","-4.7","","-8.2","","77","","","","23","","16","","6.4","","98.81","","","","-10","","Snow Showers,Blowing Snow"
"-81.11","44.74","WIARTON A","6119499","2022-12-26 08:00","2022","12","26","08:00","-4.6","","-8.5","","74","","","","24","","18","","9.7","","98.86","","","","-11","","Snow Showers,Blowing Snow"
"-81.11","44.74","WIARTON A","6119499","2022-12-26 09:00","2022","12","26","09:00","-4.4","","-8.3","","75","","","","25","","12","","24.1","","98.91","","","","-9","","Snow Showers"
"-81.11","44.74","WIARTON A","6119499","2022-12-26 10:00","2022","12","26","10:00","-4.2","","-8.1","","74","","","","24","","23","","4.8","","98.93","","","","-11","","Snow Showers"
"-81.11","44.74","WIARTON A","6119499","2022-12-26 11:00","2022","12","26","11:00","-4.0","","-7.8","","75","","","","25","","16","","24.1","","98.94","","","","-10","","Snow Showers"
"-81.11","44.74","WIARTON A","6119499","2022-12-26 12:00","2022","12","26","12:00","-4.0","","-8.0","","74","","","","24","","22","","4.8","","98.93","","","","-11","","Snow Showers"
"-81.11","44.74","WIARTON A","6119499","2022-12-26 13:00","2022","12","26","13:00","-4.2","","-6.7","","83","","","","26","","16","","3.2","","98.91","","","","-10","","Snow Showers"
"-81.11","44.74","WIARTON A","6119499","2022-12-26 14:00","2022","12","26","14:00","-3.7","","-8.3","","71","","","","27","","18","","24.1","","98.89","","","","-10","","NA"
"-81.11","44.74","WIARTON A","6119499","2022-12-26 15:00","2022","12","26","15:00","-3.4","","-9.1","","65","","","","26","","15","","24.1","","98.92","","","","-9","","NA"
"-81.11","44.74","WIARTON A","6119499","2022-12-26 16:00","2022","12","26","16:00","-3.7","","-8.3","","70","","","","26","","15","","24.1","","98.97","","","","-9","","Cloudy"
"-81.11","44.74","WIARTON A","6119499","2022-12-26 17:00","2022","12","26","17:00","-3.6","","-8.4","","70","","","","26","","16","","24.1","","98.99","","","","-9","","NA"
"-81.11","44.74","WIARTON A","6119499","2022-12-26 18:00","2022","12","26","18:00","-3.4","","-8.2","","70","","","","26","","19","","24.1","","99.03","","","","-9","","Snow Showers"
"-81.11","44.74","WIARTON A","6119499","2022-12-26 19:00","2022","12","26","19:00","-3.4","","-8.1","","70","","","","26","","16","","24.1","","99.08","","","","-9","","Snow Showers"
"-81.11","44.74","WIARTON A","6119499","2022-12-26 20:00","2022","12","26","20:00","-3.8","","-6.0","","85","","","","27","","5","","16.1","","99.09","","","","-6","","Snow Showers"
"-81.11","44.74","WIARTON A","6119499","2022-12-26 21:00","2022","12","26","21:00","-4.6","","-5.8","","91","","","","33","","10","","4.8","","99.13","","","","-9","","Snow Showers"
"-81.11","44.74","WIARTON A","6119499","2022-12-26 22:00","2022","12","26","22:00","-5.3","","-6.4","","92","","","","31","","10","","0.8","","99.17","","","","-10","","Moderate Snow Showers"
"-81.11","44.74","WIARTON A","6119499","2022-12-26 23:00","2022","12","26","23:00","-5.0","","-6.0","","93","","","","31","","15","","0.8","","99.16","","","","-11","","Moderate Snow Showers"
"-81.11","44.74","WIARTON A","6119499","2022-12-27 00:00","2022","12","27","00:00","-6.0","","-8.0","","86","","","","33","","5","","1.2","","99.13","","","","-8","","Snow Showers"
"-81.11","44.74","WIARTON A","6119499","2022-12-27 01:00","2022","12","27","01:00","-6.8","","-9.3","","83","","","","33","","5","","1.6","","99.16","","","","-9","","Snow Showers"
"-81.11","44.74","WIARTON A","6119499","2022-12-27 02:00","2022","12","27","02:00","-7.2","","-9.4","","84","","","","19","","8","","3.2","","99.18","","","","-11","","Snow Showers"
"-81.11","44.74","WIARTON A","6119499","2022-12-27 03:00","2022","12","27","03:00","-7.6","","-9.0","","90","","","","16","","7","","9.7","","99.22","","","","-11","","Snow Showers"
"-81.11","44.74","WIARTON A","6119499","2022-12-27 04:00","2022","12","27","04:00","-7.7","","-9.0","","90","","","","16","","11","","3.2","","99.21","","","","-13","","Snow Showers"
"-81.11","44.74","WIARTON A","6119499","2022-12-27 05:00","2022","12","27","05:00","-7.1","","-8.7","","89","","","","17","","12","","16.1","","99.17","","","","-12","","Snow Showers"
"-81.11","44.74","WIARTON A","6119499","2022-12-27 06:00","2022","12","27","06:00","-7.5","","-9.2","","88","","","","8","","6","","12.9","","99.18","","","","-11","","Snow Showers"
"-81.11","44.74","WIARTON A","6119499","2022-12-27 07:00","2022","12","27","07:00","-4.5","","-8.5","","74","","","","25","","11","","12.9","","99.20","","","","-9","","Snow Showers"
"-81.11","44.74","WIARTON A","6119499","2022-12-27 08:00","2022","12","27","08:00","-4.4","","-9.5","","68","","","","24","","13","","24.1","","99.20","","","","-9","","NA"
"-81.11","44.74","WIARTON A","6119499","2022-12-27 09:00","2022","12","27","09:00","-4.1","","-8.9","","70","","","","24","","12","","24.1","","99.22","","","","-9","","NA"
"-81.11","44.74","WIARTON A","6119499","2022-12-27 10:00","2022","12","27","10:00","-3.6","","-8.7","","68","","","","25","","16","","24.1","","99.24","","","","-9","","Cloudy"
"-81.11","44.74","WIARTON A","6119499","2022-12-27 11:00","2022","12","27","11:00","-3.6","","-8.9","","67","","","","24","","11","","24.1","","99.29","","","","-8","","NA"
"-81.11","44.74","WIARTON A","6119499","2022-12-27 12:00","2022","12","27","12:00","-3.2","","-9.7","","61","","","","25","","20","","24.1","","99.21","","","","-9","","NA"
"-81.11","44.74","WIARTON A","6119499","2022-12-27 13:00","2022","12","27","13:00","-3.2","","-9.2","","63","","","","25","","16","","24.1","","99.18","","","","-9","","Cloudy"
"-81.11","44.74","WIARTON A","6119499","2022-12-27 14:00","2022","12","27","14:00","-3.5","","-8.3","","69","","","","23","","21","","24.1","","99.10","","","","-10","","NA"
"-81.11","44.74","WIARTON A","6119499","2022-12-27 15:00","2022","12","27","15:00","-3.4","","-8.5","","68","","","","22","","23","","24.1","","99.09","","","","-10","","NA"
"-81.11","44.74","WIARTON A","6119499","2022-12-27 16:00","2022","12","27","16:00","-3.4","","-7.7","","73","","","","21","","22","","24.1","","99.09","","","","-10","","Cloudy"
"-81.11","44.74","WIARTON A","6119499","2022-12-27 17:00","2022","12","27","17:00","-3.9","","-7.6","","75","","","","19","","19","","24.1","","99.07","","","","-10","","NA"
"-81.11","44.74","WIARTON A","6119499","2022-12-27 18:00","2022","12","27","18:00","-4.3","","-7.4","","79","","","","17","","19","","24.1","","99.08","","","","-10","","NA"
"-81.11","44.74","WIARTON A","6119499","2022-12-27 19:00","2022","12","27","19:00","-4.2","","-6.9","","82","","","","18","","23","","24.1","","99.07","","","","-11","","Cloudy"
"-81.11","44.74","WIARTON A","6119499","2022-12-27 20:00","2022","12","27","20:00","-4.5","","-7.5","","80","","","","18","","26","","24.1","","99.00","","","","-12","","NA"
"-81.11","44.74","WIARTON A","6119499","2022-12-27 21:00","2022","12","27","21:00","-4.6","","-7.4","","81","","","","19","","27","","24.1","","98.90","","","","-12","","Snow"
"-81.11","44.74","WIARTON A","6119499","2022-12-27 22:00","2022","12","27","22:00","-4.3","","-7.0","","82","","","","20","","29","","19.3","","98.91","","","","-12","","Snow"
"-81.11","44.74","WIARTON A","6119499","2022-12-27 23:00","2022","12","27","23:00","-4.5","","-7.0","","83","","","","18","","22","","19.3","","98.88","","","","-11","","Snow"
"-81.11","44.74","WIARTON A","6119499","2022-12-28 00:00","2022","12","28","00:00","-4.6","","-6.9","","84","","","","19","","30","","24.1","","98.81","","","","-12","","Snow"
"-81.11","44.74","WIARTON A","6119499","2022-12-28 01:00","2022","12","28","01:00","-4.6","","-6.7","","85","","","","19","","26","","24.1","","98.78","","","","-12","","Snow"
"-81.11","44.74","WIARTON A","6119499","2022-12-28 02:00","2022","12","28","02:00","-4.2","","-6.2","","86","","","","18","","28","","24.1","","98.69","","","","-12","","Snow"
"-81.11","44.74","WIARTON A","6119499","2022-12-28 03:00","2022","12","28","03:00","-3.3","","-5.6","","84","","","","19","","30","","24.1","","98.72","","","","-11","","Snow"
"-81.11","44.74","WIARTON A","6119499","2022-12-28 04:00","2022","12","28","04:00","-2.8","","-4.9","","86","","","","20","","27","","19.3","","98.68","","","","-10","","Snow"
"-81.11","44.74","WIARTON A","6119499","2022-12-28 05:00","2022","12","28","05:00","-1.9","","-3.9","","87","","","","21","","27","","24.1","","98.69","","","","-9","","NA"
"-81.11","44.74","WIARTON A","6119499","2022-12-28 06:00","2022","12","28","06:00","-1.0","","-3.0","","87","","","","21","","27","","24.1","","98.68","","","","-7","","NA"
"-81.11","44.74","WIARTON A","6119499","2022-12-28 07:00","2022","12","28","07:00","-0.7","","-2.7","","86","","","","21","","26","","24.1","","98.66","","","","-7","","Cloudy"
"-81.11","44.74","WIARTON A","6119499","2022-12-28 08:00","2022","12","28","08:00","-0.4","","-2.5","","86","","","","20","","25","","19.3","","98.64","","","","-6","","NA"
"-81.11","44.74","WIARTON A","6119499","2022-12-28 09:00","2022","12","28","09:00","-0.3","","-2.4","","86","","","","21","","25","","16.1","","98.66","","","","-6","","NA"
"-81.11","44.74","WIARTON A","6119499","2022-12-28 10:00","2022","12","28","10:00","0.1","","-2.3","","84","","","","21","","23","","16.1","","98.76","","","","","","Cloudy"
"-81.11","44.74","WIARTON A","6119499","2022-12-28 11:00","2022","12","28","11:00","0.4","","-2.1","","83","","","","20","","22","","19.3","","98.75","","","","","","NA"
"-81.11","44.74","WIARTON A","6119499","2022-12-28 12:00","2022","12","28","12:00","0.6","","-2.0","","82","","","","20","","26","","19.3","","98.71","","","","","","NA"
"-81.11","44.74","WIARTON A","6119499","2022-12-28 13:00","2022","12","28","13:00","1.0","","-2.2","","80","","","","21","","25","","24.1","","98.68","","","","","","Cloudy"
"-81.11","44.74","WIARTON A","6119499","2022-12-28 14:00","2022","12","28","14:00","1.1","","-2.5","","77","","","","20","","20","","24.1","","98.70","","","","","","NA"
"-81.11","44.74","WIARTON A","6119499","2022-12-28 15:00","2022","12","28","15:00","1.1","","-2.7","","75","","","","19","","20","","24.1","","98.66","","","","","","NA"
"-81.11","44.74","WIARTON A","6119499","2022-12-28 16:00","2022","12","28","16:00","1.4","","-2.7","","74","","","","19","","21","","24.1","","98.69","","","","","","Cloudy"
"-81.11","44.74","WIARTON A","6119499","2022-12-28 17:00","2022","12","28","17:00","1.2","","-2.8","","75","","","","19","","28","","24.1","","98.69","","","","","","NA"
"-81.11","44.74","WIARTON A","6119499","2022-12-28 18:00","2022","12","28","18:00","0.9","","-2.8","","76","","","","18","","25","","24.1","","98.68","","","","","","NA"
"-81.11","44.74","WIARTON A","6119499","2022-12-28 19:00","2022","12","28","19:00","1.5","","-2.6","","74","","","","20","","26","","24.1","","98.72","","","","","","Cloudy"
"-81.11","44.74","WIARTON A","6119499","2022-12-28 20:00","2022","12","28","20:00","1.7","","-2.4","","74","","","","19","","26","","24.1","","98.71","","","","","","NA"
"-81.11","44.74","WIARTON A","6119499","2022-12-28 21:00","2022","12","28","21:00","2.0","","-2.2","","74","","","","19","","24","","24.1","","98.66","","","","","","NA"
"-81.11","44.74","WIARTON A","6119499","2022-12-28 22:00","2022","12","28","22:00","2.7","","-1.9","","71","","","","19","","25","","24.1","","98.65","","","","","","Mostly Cloudy"
"-81.11","44.74","WIARTON A","6119499","2022-12-28 23:00","2022","12","28","23:00","2.8","","-2.2","","70","","","","21","","19","","24.1","","98.72","","","","","","NA"
"-81.11","44.74","WIARTON A","6119499","2022-12-29 00:00","2022","12","29","00:00","3.1","","-2.0","","69","","","","19","","17","","24.1","","98.72","","","","","","NA"
"-81.11","44.74","WIARTON A","6119499","2022-12-29 01:00","2022","12","29","01:00","3.6","","-1.7","","69","","","","18","","18","","24.1","","98.67","","","","","","Cloudy"
"-81.11","44.74","WIARTON A","6119499","2022-12-29 02:00","2022","12","29","02:00","3.9","","-1.7","","67","","","","18","","19","","24.1","","98.67","","","","","","NA"
"-81.11","44.74","WIARTON A","6119499","2022-12-29 03:00","2022","12","29","03:00","4.5","","-1.8","","64","","","","18","","23","","24.1","","98.62","","","","","","NA"
"-81.11","44.74","WIARTON A","6119499","2022-12-29 04:00","2022","12","29","04:00","4.8","","-1.8","","62","","","","19","","28","","24.1","","98.59","","","","","","Mainly Clear"
"-81.11","44.74","WIARTON A","6119499","2022-12-29 05:00","2022","12","29","05:00","3.8","","-1.8","","67","","","","18","","24","","24.1","","98.58","","","","","","NA"
"-81.11","44.74","WIARTON A","6119499","2022-12-29 06:00","2022","12","29","06:00","3.1","","-1.9","","70","","","","18","","21","","24.1","","98.60","","","","","","NA"
"-81.11","44.74","WIARTON A","6119499","2022-12-29 07:00","2022","12","29","07:00","3.0","","-1.8","","71","","","","18","","22","","24.1","","98.62","","","","","","Mainly Clear"
"-81.11","44.74","WIARTON A","6119499","2022-12-29 08:00","2022","12","29","08:00","3.1","","-1.4","","72","","","","18","","26","","24.1","","98.63","","","","","","NA"
"-81.11","44.74","WIARTON A","6119499","2022-12-29 09:00","2022","12","29","09:00","3.5","","-0.9","","73","","","","19","","24","","24.1","","98.67","","","","","","NA"
"-81.11","44.74","WIARTON A","6119499","2022-12-29 10:00","2022","12","29","10:00","4.6","","-0.4","","70","","","","19","","27","","24.1","","98.71","","","","","","Mainly Clear"
"-81.11","44.74","WIARTON A","6119499","2022-12-29 11:00","2022","12","29","11:00","5.4","","0.3","","70","","","","19","","28","","24.1","","98.71","","","","","","NA"
"-81.11","44.74","WIARTON A","6119499","2022-12-29 12:00","2022","12","29","12:00","5.9","","1.4","","73","","","","19","","27","","24.1","","98.65","","","","","","NA"
"-81.11","44.74","WIARTON A","6119499","2022-12-29 13:00","2022","12","29","13:00","5.9","","2.0","","76","","","","19","","31","","24.1","","98.63","","","","","","Cloudy"
"-81.11","44.74","WIARTON A","6119499","2022-12-29 14:00","2022","12","29","14:00","5.5","","3.0","","84","","","","19","","26","","24.1","","98.61","","","","","","NA"
"-81.11","44.74","WIARTON A","6119499","2022-12-29 15:00","2022","12","29","15:00","5.2","","3.6","","89","","","","19","","25","","19.3","","98.63","","","","","","NA"
"-81.11","44.74","WIARTON A","6119499","2022-12-29 16:00","2022","12","29","16:00","5.1","","4.0","","92","","","","18","","24","","9.7","","98.69","","","","","","Fog"
"-81.11","44.74","WIARTON A","6119499","2022-12-29 17:00","2022","12","29","17:00","4.6","","4.1","","97","","","","18","","25","","3.2","","98.73","","","","","","Rain,Fog"
"-81.11","44.74","WIARTON A","6119499","2022-12-29 18:00","2022","12","29","18:00","5.0","","4.6","","98","","","","19","","28","","4.8","","98.76","","","","","","Fog"
"-81.11","44.74","WIARTON A","6119499","2022-12-29 19:00","2022","12","29","19:00","5.1","","4.5","","96","","","","19","","25","","4.8","","98.79","","","","","","Fog"
"-81.11","44.74","WIARTON A","6119499","2022-12-29 20:00","2022","12","29","20:00","5.7","","5.0","","95","","","","19","","28","","4.8","","98.80","","","","","","Drizzle,Fog"
"-81.11","44.74","WIARTON A","6119499","2022-12-29 21:00","2022","12","29","21:00","6.5","","5.6","","94","","","","20","","28","","6.4","","98.82","","","","","","Drizzle,Fog"
"-81.11","44.74","WIARTON A","6119499","2022-12-29 22:00","2022","12","29","22:00","6.0","","4.9","","92","","","","18","","23","","12.9","","98.85","","","","","","Cloudy"
"-81.11","44.74","WIARTON A","6119499","2022-12-29 23:00","2022","12","29","23:00","6.2","","5.2","","93","","","","19","","23","","9.7","","98.86","","","","","","Fog"
"-81.11","44.74","WIARTON A","6119499","2022-12-30 00:00","2022","12","30","00:00","6.6","","5.9","","95","","","","18","","25","","9.7","","98.84","","","","","","Fog"
"-81.11","44.74","WIARTON A","6119499","2022-12-30 01:00","2022","12","30","01:00","6.9","","5.9","","93","","","","18","","23","","16.1","","98.85","","","","","","Cloudy"
"-81.11","44.74","WIARTON A","6119499","2022-12-30 02:00","2022","12","30","02:00","7.3","","5.9","","90","","","","18","","23","","16.1","","98.82","","","","","","NA"
"-81.11","44.74","WIARTON A","6119499","2022-12-30 03:00","2022","12","30","03:00","7.5","","5.9","","90","","","","18","","23","","24.1","","98.78","","","","","","NA"
"-81.11","44.74","WIARTON A","6119499","2022-12-30 04:00","2022","12","30","04:00","7.9","","6.3","","89","","","","18","","26","","24.1","","98.71","","","","","","Cloudy"
"-81.11","44.74","WIARTON A","6119499","2022-12-30 05:00","2022","12","30","05:00","7.3","","6.3","","93","","","","19","","25","","16.1","","98.68","","","","","","NA"
"-81.11","44.74","WIARTON A","6119499","2022-12-30 06:00","2022","12","30","06:00","7.9","","7.3","","96","","","","19","","28","","4.8","","98.69","","","","","","Drizzle,Fog"
"-81.11","44.74","WIARTON A","6119499","2022-12-30 07:00","2022","12","30","07:00","7.7","","7.4","","98","","","","19","","24","","3.2","","98.67","","","","","","Drizzle,Fog"
"-81.11","44.74","WIARTON A","6119499","2022-12-30 08:00","2022","12","30","08:00","7.7","","7.5","","98","","","","19","","25","","3.2","","98.67","","","","","","Drizzle,Fog"
"-81.11","44.74","WIARTON A","6119499","2022-12-30 09:00","2022","12","30","09:00","8.3","","8.1","","98","","","","19","","25","","4.8","","98.63","","","","","","Fog"
"-81.11","44.74","WIARTON A","6119499","2022-12-30 10:00","2022","12","30","10:00","8.6","","8.2","","98","","","","20","","27","","4.8","","98.66","","","","","","Fog"
"-81.11","44.74","WIARTON A","6119499","2022-12-30 11:00","2022","12","30","11:00","8.9","","8.4","","96","","","","20","","27","","6.4","","98.65","","","","","","Fog"
"-81.11","44.74","WIARTON A","6119499","2022-12-30 12:00","2022","12","30","12:00","8.9","","8.3","","96","","","","19","","26","","4.8","","98.60","","","","","","Rain,Fog"
"-81.11","44.74","WIARTON A","6119499","2022-12-30 13:00","2022","12","30","13:00","8.7","","8.3","","97","","","","19","","24","","4.8","","98.55","","","","","","Rain,Fog"
"-81.11","44.74","WIARTON A","6119499","2022-12-30 14:00","2022","12","30","14:00","8.4","","8.0","","98","","","","19","","22","","4.8","","98.51","","","","","","Rain,Fog"
"-81.11","44.74","WIARTON A","6119499","2022-12-30 15:00","2022","12","30","15:00","8.5","","8.3","","98","","","","19","","24","","6.4","","98.48","","","","","","Rain,Fog"
"-81.11","44.74","WIARTON A","6119499","2022-12-30 16:00","2022","12","30","16:00","9.0","","8.8","","99","","","","20","","23","","4.8","","98.55","","","","","","Rain,Fog"
"-81.11","44.74","WIARTON A","6119499","2022-12-30 17:00","2022","12","30","17:00","9.2","","8.8","","98","","","","24","","32","","4.8","","98.63","","","","","","Fog"
"-81.11","44.74","WIARTON A","6119499","2022-12-30 18:00","2022","12","30","18:00","7.4","","6.8","","96","","","","23","","19","","9.7","","98.71","","","","","","Fog"
"-81.11","44.74","WIARTON A","6119499","2022-12-30 19:00","2022","12","30","19:00","6.5","","5.8","","95","","","","27","","13","","16.1","","98.78","","","","","","Cloudy"
"-81.11","44.74","WIARTON A","6119499","2022-12-30 20:00","2022","12","30","20:00","5.0","","4.6","","98","","","","26","","5","","4.8","","98.78","","","","","","Fog"
"-81.11","44.74","WIARTON A","6119499","2022-12-30 21:00","2022","12","30","21:00","4.6","","4.4","","98","","","","36","","3","","4.8","","98.85","","","","","","Fog"
"-81.11","44.74","WIARTON A","6119499","2022-12-30 22:00","2022","12","30","22:00","4.2","","4.1","","99","","","","36","","1","","4.8","","98.86","","","","","","Fog"
"-81.11","44.74","WIARTON A","6119499","2022-12-30 23:00","2022","12","30","23:00","4.4","","3.7","","95","","","","36","","3","","9.7","","98.85","","","","","","Fog"
"-81.11","44.74","WIARTON A","6119499","2022-12-31 00:00","2022","12","31","00:00","3.5","","3.3","","99","","","","36","","1","","6.4","","98.82","","","","","","Fog"
"-81.11","44.74","WIARTON A","6119499","2022-12-31 01:00","2022","12","31","01:00","3.3","","3.2","","99","","","","36","","1","","6.4","","98.80","","","","","","Fog"
"-81.11","44.74","WIARTON A","6119499","2022-12-31 02:00","2022","12","31","02:00","3.0","","2.9","","100","","","","8","","5","","4.8","","98.72","","","","","","Rain,Fog"
"-81.11","44.74","WIARTON A","6119499","2022-12-31 03:00","2022","12","31","03:00","3.4","","3.3","","100","","","","8","","8","","1.6","","98.66","","","","","","Rain,Fog"
"-81.11","44.74","WIARTON A","6119499","2022-12-31 04:00","2022","12","31","04:00","3.3","","3.3","","100","","","","10","","7","","1.6","","98.62","","","","","","Rain,Fog"
"-81.11","44.74","WIARTON A","6119499","2022-12-31 05:00","2022","12","31","05:00","3.4","","3.4","","100","","","","36","","2","","1.6","","98.61","","","","","","Rain,Fog"
"-81.11","44.74","WIARTON A","6119499","2022-12-31 06:00","2022","12","31","06:00","3.8","","3.7","","100","","","","6","","9","","1.6","","98.55","","","","","","Fog"
"-81.11","44.74","WIARTON A","6119499","2022-12-31 07:00","2022","12","31","07:00","3.6","","3.6","","100","","","","8","","11","","1.6","","98.52","","","","","","Fog"
"-81.11","44.74","WIARTON A","6119499","2022-12-31 08:00","2022","12","31","08:00","3.4","","3.4","","99","","","","5","","12","","4.0","","98.51","","","","","","Rain,Fog"
"-81.11","44.74","WIARTON A","6119499","2022-12-31 09:00","2022","12","31","09:00","3.0","","2.8","","99","","","","7","","14","","4.0","","98.49","","","","","","Rain,Fog"
"-81.11","44.74","WIARTON A","6119499","2022-12-31 10:00","2022","12","31","10:00","2.9","","2.5","","98","","","","5","","14","","16.1","","98.43","","","","","","Rain"
"-81.11","44.74","WIARTON A","6119499","2022-12-31 11:00","2022","12","31","11:00","2.9","","2.3","","96","","","","3","","8","","9.7","","98.44","","","","","","Rain,Fog"
"-81.11","44.74","WIARTON A","6119499","2022-12-31 12:00","2022","12","31","12:00","3.1","","2.8","","98","","","","4","","12","","3.2","","98.33","","","","","","Rain,Fog"
"-81.11","44.74","WIARTON A","6119499","2022-12-31 13:00","2022","12","31","13:00","2.8","","2.5","","98","","","","4","","10","","4.0","","98.30","","","","","","Rain,Fog"
"-81.11","44.74","WIARTON A","6119499","2022-12-31 14:00","2022","12","31","14:00","2.8","","2.5","","98","","","","3","","13","","16.1","","98.24","","","","","","NA"
"-81.11","44.74","WIARTON A","6119499","2022-12-31 15:00","2022","12","31","15:00","2.9","","2.4","","96","","","","3","","8","","24.1","","98.25","","","","","","NA"
"-81.11","44.74","WIARTON A","6119499","2022-12-31 16:00","2022","12","31","16:00","3.0","","1.2","","88","","","","3","","9","","24.1","","98.28","","","","","","Cloudy"
"-81.11","44.74","WIARTON A","6119499","2022-12-31 17:00","2022","12","31","17:00","2.7","","0.9","","88","","","","2","","6","","24.1","","98.32","","","","","","NA"
"-81.11","44.74","WIARTON A","6119499","2022-12-31 18:00","2022","12","31","18:00","2.6","","0.6","","86","","","","1","","3","","24.1","","98.34","","","","","","NA"
"-81.11","44.74","WIARTON A","6119499","2022-12-31 19:00","2022","12","31","19:00","2.2","","1.1","","92","","","","26","","3","","24.1","","98.38","","","","","","Cloudy"
"-81.11","44.74","WIARTON A","6119499","2022-12-31 20:00","2022","12","31","20:00","2.0","","0.9","","92","","","","25","","4","","24.1","","98.44","","","","","","NA"
"-81.11","44.74","WIARTON A","6119499","2022-12-31 21:00","2022","12","31","21:00","1.7","","0.9","","95","","","","25","","4","","24.1","","98.43","","","","","","NA"
"-81.11","44.74","WIARTON A","6119499","2022-12-31 22:00","2022","12","31","22:00","1.7","","0.4","","91","","","","25","","5","","24.1","","98.47","","","","","","Cloudy"
"-81.11","44.74","WIARTON A","6119499","2022-12-31 23:00","2022","12","31","23:00","1.5","","0.4","","92","","","","30","","6","","24.1","","98.49","","","","","","NA"
