"Longitude (x)","Latitude (y)","Station Name","Climate ID","Date/Time (LST)","Year","Month","Day","Time (LST)","Temp (°C)","Temp Flag","Dew Point Temp (°C)","Dew Point Temp Flag","Rel Hum (%)","Rel Hum Flag","Precip. Amount (mm)","Precip. Amount Flag","Wind Dir (10s deg)","Wind Dir Flag","Wind Spd (km/h)","Wind Spd Flag","Visibility (km)","Visibility Flag","Stn Press (kPa)","Stn Press Flag","Hmdx","Hmdx Flag","Wind Chill","Wind Chill Flag","Weather"
"-121.58","50.22","LYTTON RCS","1114746","2021-07-01 00:00","2021","07","01","00:00","25.3","","14.9","","53","","0.0","","19","","45","","","","97.95","","29","","","","NA"
"-121.58","50.22","LYTTON RCS","1114746","2021-07-01 01:00","2021","07","01","01:00","24.1","","14.9","","56","","0.0","","19","","40","","","","98.01","","28","","","","NA"
"-121.58","50.22","LYTTON RCS","1114746","2021-07-01 02:00","2021","07","01","02:00","23.4","","14.8","","58","","0.0","","19","","39","","","","98.11","","27","","","","NA"
"-121.58","50.22","LYTTON RCS","1114746","2021-07-01 03:00","2021","07","01","03:00","22.8","","14.7","","60","","0.0","","19","","33","","","","98.19","","27","","","","NA"
"-121.58","50.22","LYTTON RCS","1114746","2021-07-01 04:00","2021","07","01","04:00","22.5","","14.6","","61","","0.0","","19","","34","","","","98.22","","26","","","","NA"
"-121.58","50.22","LYTTON RCS","1114746","2021-07-01 05:00","2021","07","01","05:00","22.3","","14.5","","61","","0.0","","19","","32","","","","98.25","","26","","","","NA"
"-121.58","50.22","LYTTON RCS","1114746","2021-07-01 06:00","2021","07","01","06:00","22.3","","14.4","","61","","0.0","","19","","32","","","","98.29","","26","","","","NA"
"-121.58","50.22","LYTTON RCS","1114746","2021-07-01 07:00","2021","07","01","07:00","22.9","","14.4","","59","","0.0","","18","","38","","","","98.33","","27","","","","NA"
"-121.58","50.22","LYTTON RCS","1114746","2021-07-01 08:00","2021","07","01","08:00","24.2","","14.2","","53","","0.0","","18","","36","","","","98.32","","28","","","","NA"
"-121.58","50.22","LYTTON RCS","1114746","2021-07-01 09:00","2021","07","01","09:00","25.4","","13.7","","48","","0.0","","18","","42","","","","98.29","","29","","","","NA"
"-121.58","50.22","LYTTON RCS","1114746","2021-07-01 10:00","2021","07","01","10:00","25.9","","14.0","","48","","0.0","","18","","44","","","","98.30","","29","","","","NA"
"-121.58","50.22","LYTTON RCS","1114746","2021-07-01 11:00","2021","07","01","11:00","27.4","","13.8","","43","","0.0","","18","","48","","","","98.24","","31","","","","NA"
"-121.58","50.22","LYTTON RCS","1114746","2021-07-01 12:00","2021","07","01","12:00","28.2","","13.6","","41","","0.0","","18","","41","","","","98.18","","31","","","","NA"
"-121.58","50.22","LYTTON RCS","1114746","2021-07-01 13:00","2021","07","01","13:00","28.8","","13.5","","39","","0.0","","18","","48","","","","98.13","","32","","","","NA"
"-121.58","50.22","LYTTON RCS","1114746","2021-07-01 14:00","2021","07","01","14:00","29.3","","13.6","","38","","0.0","","18","","45","","","","98.07","","32","","","","NA"
"-121.58","50.22","LYTTON RCS","1114746","2021-07-01 15:00","2021","07","01","15:00","29.6","","13.6","","37","","0.0","","19","","40","","","","98.03","","33","","","","NA"
"-121.58","50.22","LYTTON RCS","1114746","2021-07-01 16:00","2021","07","01","16:00","29.4","","13.5","","38","","0.0","","19","","36","","","","97.99","","32","","","","NA"
"-121.58","50.22","LYTTON RCS","1114746","2021-07-01 17:00","2021","07","01","17:00","28.4","","13.6","","40","","0.0","","19","","37","","","","97.96","","32","","","","NA"
"-121.58","50.22","LYTTON RCS","1114746","2021-07-01 18:00","2021","07","01","18:00","26.9","","13.4","","43","","0.0","","20","","41","","","","98.00","","30","","","","NA"
"-121.58","50.22","LYTTON RCS","1114746","2021-07-01 19:00","2021","07","01","19:00","25.2","","13.4","","48","","0.0","","19","","39","","","","98.07","","28","","","","NA"
"-121.58","50.22","LYTTON RCS","1114746","2021-07-01 20:00","2021","07","01","20:00"
"-121.58","50.22","LYTTON RCS","1114746","2021-07-01 21:00","2021","07","01","21:00"
"-121.58","50.22","LYTTON RCS","1114746","2021-07-01 22:00","2021","07","01","22:00"
"-121.58","50.22","LYTTON RCS","1114746","2021-07-01 23:00","2021","07","01","23:00"
"-121.58","50.22","LYTTON RCS","1114746","2021-07-02 00:00","2021","07","02","00:00"
"-121.58","50.22","LYTTON RCS","1114746","2021-07-02 01:00","2021","07","02","01:00"
"-121.58","50.22","LYTTON RCS","1114746","2021-07-02 02:00","2021","07","02","02:00"
"-121.58","50.22","LYTTON RCS","1114746","2021-07-02 03:00","2021","07","02","03:00"
"-121.58","50.22","LYTTON RCS","1114746","2021-07-02 04:00","2021","07","02","04:00"
"-121.58","50.22","LYTTON RCS","1114746","2021-07-02 05:00","2021","07","02","05:00"
"-121.58","50.22","LYTTON RCS","1114746","2021-07-02 06:00","2021","07","02","06:00"
"-121.58","50.22","LYTTON RCS","1114746","2021-07-02 07:00","2021","07","02","07:00"
"-121.58","50.22","LYTTON RCS","1114746","2021-07-02 08:00","2021","07","02","08:00"
"-121.58","50.22","LYTTON RCS","1114746","2021-07-02 09:00","2021","07","02","09:00"
"-121.58","50.22","LYTTON RCS","1114746","2021-07-02 10:00","2021","07","02","10:00"
"-121.58","50.22","LYTTON RCS","1114746","2021-07-02 11:00","2021","07","02","11:00"
"-121.58","50.22","LYTTON RCS","1114746","2021-07-02 12:00","2021","07","02","12:00"
"-121.58","50.22","LYTTON RCS","1114746","2021-07-02 13:00","2021","07","02","13:00"
"-121.58","50.22","LYTTON RCS","1114746","2021-07-02 14:00","2021","07","02","14:00"
"-121.58","50.22","LYTTON RCS","1114746","2021-07-02 15:00","2021","07","02","15:00"
"-121.58","50.22","LYTTON RCS","1114746","2021-07-02 16:00","2021","07","02","16:00"
"-121.58","50.22","LYTTON RCS","1114746","2021-07-02 17:00","2021","07","02","17:00"
"-121.58","50.22","LYTTON RCS","1114746","2021-07-02 18:00","2021","07","02","18:00"
"-121.58","50.22","LYTTON RCS","1114746","2021-07-02 19:00","2021","07","02","19:00"
"-121.58","50.22","LYTTON RCS","1114746","2021-07-02 20:00","2021","07","02","20:00"
"-121.58","50.22","LYTTON RCS","1114746","2021-07-02 21:00","2021","07","02","21:00"
"-121.58","50.22","LYTTON RCS","1114746","2021-07-02 22:00","2021","07","02","22:00"
"-121.58","50.22","LYTTON RCS","1114746","2021-07-02 23:00","2021","07","02","23:00"
"-121.58","50.22","LYTTON RCS","1114746","2021-07-03 00:00","2021","07","03","00:00"
"-121.58","50.22","LYTTON RCS","1114746","2021-07-03 01:00","2021","07","03","01:00"
"-121.58","50.22","LYTTON RCS","1114746","2021-07-03 02:00","2021","07","03","02:00"
"-121.58","50.22","LYTTON RCS","1114746","2021-07-03 03:00","2021","07","03","03:00"
"-121.58","50.22","LYTTON RCS","1114746","2021-07-03 04:00","2021","07","03","04:00"
"-121.58","50.22","LYTTON RCS","1114746","2021-07-03 05:00","2021","07","03","05:00"
"-121.58","50.22","LYTTON RCS","1114746","2021-07-03 06:00","2021","07","03","06:00"
"-121.58","50.22","LYTTON RCS","1114746","2021-07-03 07:00","2021","07","03","07:00"
"-121.58","50.22","LYTTON RCS","1114746","2021-07-03 08:00","2021","07","03","08:00"
"-121.58","50.22","LYTTON RCS","1114746","2021-07-03 09:00","2021","07","03","09:00"
"-121.58","50.22","LYTTON RCS","1114746","2021-07-03 10:00","2021","07","03","10:00"
"-121.58","50.22","LYTTON RCS","1114746","2021-07-03 11:00","2021","07","03","11:00"
"-121.58","50.22","LYTTON RCS","1114746","2021-07-03 12:00","2021","07","03","12:00"
"-121.58","50.22","LYTTON RCS","1114746","2021-07-03 13:00","2021","07","03","13:00"
"-121.58","50.22","LYTTON RCS","1114746","2021-07-03 14:00","2021","07","03","14:00"
"-121.58","50.22","LYTTON RCS","1114746","2021-07-03 15:00","2021","07","03","15:00"
"-121.58","50.22","LYTTON RCS","1114746","2021-07-03 16:00","2021","07","03","16:00"
"-121.58","50.22","LYTTON RCS","1114746","2021-07-03 17:00","2021","07","03","17:00"
"-121.58","50.22","LYTTON RCS","1114746","2021-07-03 18:00","2021","07","03","18:00"
"-121.58","50.22","LYTTON RCS","1114746","2021-07-03 19:00","2021","07","03","19:00"
"-121.58","50.22","LYTTON RCS","1114746","2021-07-03 20:00","2021","07","03","20:00"
"-121.58","50.22","LYTTON RCS","1114746","2021-07-03 21:00","2021","07","03","21:00"
"-121.58","50.22","LYTTON RCS","1114746","2021-07-03 22:00","2021","07","03","22:00"
"-121.58","50.22","LYTTON RCS","1114746","2021-07-03 23:00","2021","07","03","23:00"
"-121.58","50.22","LYTTON RCS","1114746","2021-07-04 00:00","2021","07","04","00:00"
"-121.58","50.22","LYTTON RCS","1114746","2021-07-04 01:00","2021","07","04","01:00"
"-121.58","50.22","LYTTON RCS","1114746","2021-07-04 02:00","2021","07","04","02:00"
"-121.58","50.22","LYTTON RCS","1114746","2021-07-04 03:00","2021","07","04","03:00"
"-121.58","50.22","LYTTON RCS","1114746","2021-07-04 04:00","2021","07","04","04:00"
"-121.58","50.22","LYTTON RCS","1114746","2021-07-04 05:00","2021","07","04","05:00"
"-121.58","50.22","LYTTON RCS","1114746","2021-07-04 06:00","2021","07","04","06:00"
"-121.58","50.22","LYTTON RCS","1114746","2021-07-04 07:00","2021","07","04","07:00"
"-121.58","50.22","LYTTON RCS","1114746","2021-07-04 08:00","2021","07","04","08:00"
"-121.58","50.22","LYTTON RCS","1114746","2021-07-04 09:00","2021","07","04","09:00"
"-121.58","50.22","LYTTON RCS","1114746","2021-07-04 10:00","2021","07","04","10:00"
"-121.58","50.22","LYTTON RCS","1114746","2021-07-04 11:00","2021","07","04","11:00"
"-121.58","50.22","LYTTON RCS","1114746","2021-07-04 12:00","2021","07","04","12:00"
"-121.58","50.22","LYTTON RCS","1114746","2021-07-04 13:00","2021","07","04","13:00"
"-121.58","50.22","LYTTON RCS","1114746","2021-07-04 14:00","2021","07","04","14:00"
"-121.58","50.22","LYTTON RCS","1114746","2021-07-04 15:00","2021","07","04","15:00"
"-121.58","50.22","LYTTON RCS","1114746","2021-07-04 16:00","2021","07","04","16:00"
"-121.58","50.22","LYTTON RCS","1114746","2021-07-04 17:00","2021","07","04","17:00"
"-121.58","50.22","LYTTON RCS","1114746","2021-07-04 18:00","2021","07","04","18:00"
"-121.58","50.22","LYTTON RCS","1114746","2021-07-04 19:00","2021","07","04","19:00"
"-121.58","50.22","LYTTON RCS","1114746","2021-07-04 20:00","2021","07","04","20:00"
"-121.58","50.22","LYTTON RCS","1114746","2021-07-04 21:00","2021","07","04","21:00"
"-121.58","50.22","LYTTON RCS","1114746","2021-07-04 22:00","2021","07","04","22:00"
"-121.58","50.22","LYTTON RCS","1114746","2021-07-04 23:00","2021","07","04","23:00"
"-121.58","50.22","LYTTON RCS","1114746","2021-07-05 00:00","2021","07","05","00:00"
"-121.58","50.22","LYTTON RCS","1114746","2021-07-05 01:00","2021","07","05","01:00"
"-121.58","50.22","LYTTON RCS","1114746","2021-07-05 02:00","2021","07","05","02:00"
"-121.58","50.22","LYTTON RCS","1114746","2021-07-05 03:00","2021","07","05","03:00"
"-121.58","50.22","LYTTON RCS","1114746","2021-07-05 04:00","2021","07","05","04:00"
"-121.58","50.22","LYTTON RCS","1114746","2021-07-05 05:00","2021","07","05","05:00"
"-121.58","50.22","LYTTON RCS","1114746","2021-07-05 06:00","2021","07","05","06:00"
"-121.58","50.22","LYTTON RCS","1114746","2021-07-05 07:00","2021","07","05","07:00"
"-121.58","50.22","LYTTON RCS","1114746","2021-07-05 08:00","2021","07","05","08:00"
"-121.58","50.22","LYTTON RCS","1114746","2021-07-05 09:00","2021","07","05","09:00"
"-121.58","50.22","LYTTON RCS","1114746","2021-07-05 10:00","2021","07","05","10:00"
"-121.58","50.22","LYTTON RCS","1114746","2021-07-05 11:00","2021","07","05","11:00"
"-121.58","50.22","LYTTON RCS","1114746","2021-07-05 12:00","2021","07","05","12:00"
"-121.58","50.22","LYTTON RCS","1114746","2021-07-05 13:00","2021","07","05","13:00"
"-121.58","50.22","LYTTON RCS","1114746","2021-07-05 14:00","2021","07","05","14:00"
"-121.58","50.22","LYTTON RCS","1114746","2021-07-05 15:00","2021","07","05","15:00"
"-121.58","50.22","LYTTON RCS","1114746","2021-07-05 16:00","2021","07","05","16:00","33.3","","11.2","","26","","0.0","","19","","8","","","","98.48","","35","","","","NA"
"-121.58","50.22","LYTTON RCS","1114746","2021-07-05 17:00","2021","07","05","17:00","32.4","","11.2","","27","","0.0","","18","","11","","","","98.44","","34","","","","NA"
"-121.58","50.22","LYTTON RCS","1114746","2021-07-05 18:00","2021","07","05","18:00","32.1","","8.9","","24","","0.0","","36","","6","","","","98.47","","33","","","","NA"
"-121.58","50.22","LYTTON RCS","1114746","2021-07-05 19:00","2021","07","05","19:00","21.9","","16.4","","71","","1.6","","1","","13","","","","98.65","","27","","","","NA"
"-121.58","50.22","LYTTON RCS","1114746","2021-07-05 20:00","2021","07","05","20:00","24.4","","13.9","","52","","0.0","","1","","20","","","","98.81","","28","","","","NA"
"-121.58","50.22","LYTTON RCS","1114746","2021-07-05 21:00","2021","07","05","21:00","21.6","","15.2","","67","","0.0","","36","","6","","","","98.90","","26","","","","NA"
"-121.58","50.22","LYTTON RCS","1114746","2021-07-05 22:00","2021","07","05","22:00","20.2","","15.3","","74","","0.0","","33","","3","","","","98.91","","","","","","NA"
"-121.58","50.22","LYTTON RCS","1114746","2021-07-05 23:00","2021","07","05","23:00","18.9","","15.2","","79","","0.0","","36","","5","","","","98.93","","","","","","NA"
"-121.58","50.22","LYTTON RCS","1114746","2021-07-06 00:00","2021","07","06","00:00","18.5","","15.4","","82","","0.0","","1","","7","","","","99.00","","","","","","NA"
"-121.58","50.22","LYTTON RCS","1114746","2021-07-06 01:00","2021","07","06","01:00","17.5","","15.0","","86","","0.0","","13","","2","","","","98.99","","","","","","NA"
"-121.58","50.22","LYTTON RCS","1114746","2021-07-06 02:00","2021","07","06","02:00","16.4","","15.0","","92","","0.0","","2","","2","","","","99.02","","","","","","NA"
"-121.58","50.22","LYTTON RCS","1114746","2021-07-06 03:00","2021","07","06","03:00","15.9","","14.5","","91","","0.0","","","","0","","","","99.04","","","","","","NA"
"-121.58","50.22","LYTTON RCS","1114746","2021-07-06 04:00","2021","07","06","04:00","15.2","","14.6","","96","","0.0","","36","","3","","","","99.08","","","","","","NA"
"-121.58","50.22","LYTTON RCS","1114746","2021-07-06 05:00","2021","07","06","05:00","15.1","","14.4","","96","","0.0","","30","","1","","","","99.13","","","","","","NA"
"-121.58","50.22","LYTTON RCS","1114746","2021-07-06 06:00","2021","07","06","06:00","15.7","","14.9","","95","","0.0","","0","","1","","","","99.14","","","","","","NA"
"-121.58","50.22","LYTTON RCS","1114746","2021-07-06 07:00","2021","07","06","07:00","17.6","","15.2","","86","","0.0","","1","","2","","","","99.13","","","","","","NA"
"-121.58","50.22","LYTTON RCS","1114746","2021-07-06 08:00","2021","07","06","08:00","20.5","","14.1","","67","","0.0","","1","","3","","","","99.07","","","","","","NA"
"-121.58","50.22","LYTTON RCS","1114746","2021-07-06 09:00","2021","07","06","09:00","22.5","","14.0","","59","","0.0","","1","","6","","","","98.98","","26","","","","NA"
"-121.58","50.22","LYTTON RCS","1114746","2021-07-06 10:00","2021","07","06","10:00","25.3","","13.2","","47","","0.0","","1","","7","","","","98.86","","28","","","","NA"
"-121.58","50.22","LYTTON RCS","1114746","2021-07-06 11:00","2021","07","06","11:00","28.2","","12.4","","38","","0.0","","1","","4","","","","98.74","","31","","","","NA"
"-121.58","50.22","LYTTON RCS","1114746","2021-07-06 12:00","2021","07","06","12:00","31.7","","11.5","","29","","0.0","","30","","2","","","","98.61","","34","","","","NA"
"-121.58","50.22","LYTTON RCS","1114746","2021-07-06 13:00","2021","07","06","13:00","34.0","","9.1","","22","","0.0","","28","","3","","","","98.51","","35","","","","NA"
"-121.58","50.22","LYTTON RCS","1114746","2021-07-06 14:00","2021","07","06","14:00","35.0","","8.0","","19","","0.0","","24","","3","","","","98.42","","35","","","","NA"
"-121.58","50.22","LYTTON RCS","1114746","2021-07-06 15:00","2021","07","06","15:00","36.9","","4.5","","14","","0.0","","18","","6","","","","98.34","","36","","","","NA"
"-121.58","50.22","LYTTON RCS","1114746","2021-07-06 16:00","2021","07","06","16:00","37.5","","6.3","","15","","0.0","","18","","15","","","","98.25","","37","","","","NA"
"-121.58","50.22","LYTTON RCS","1114746","2021-07-06 17:00","2021","07","06","17:00","36.6","","7.5","","17","","0.0","","18","","16","","","","98.18","","37","","","","NA"
"-121.58","50.22","LYTTON RCS","1114746","2021-07-06 18:00","2021","07","06","18:00","35.3","","8.7","","20","","0.0","","18","","13","","","","98.16","","36","","","","NA"
"-121.58","50.22","LYTTON RCS","1114746","2021-07-06 19:00","2021","07","06","19:00","31.4","","9.3","","26","","0.0","","16","","11","","","","98.14","","32","","","","NA"
"-121.58","50.22","LYTTON RCS","1114746","2021-07-06 20:00","2021","07","06","20:00","29.1","","8.6","","28","","0.0","","15","","11","","","","98.14","","30","","","","NA"
"-121.58","50.22","LYTTON RCS","1114746","2021-07-06 21:00","2021","07","06","21:00","30.4","","5.7","","21","","0.0","","19","","20","","","","98.20","","30","","","","NA"
"-121.58","50.22","LYTTON RCS","1114746","2021-07-06 22:00","2021","07","06","22:00","28.7","","9.1","","29","","0.0","","19","","24","","","","98.23","","30","","","","NA"
"-121.58","50.22","LYTTON RCS","1114746","2021-07-06 23:00","2021","07","06","23:00","27.5","","10.7","","35","","0.0","","18","","22","","","","98.28","","29","","","","NA"
"-121.58","50.22","LYTTON RCS","1114746","2021-07-07 00:00","2021","07","07","00:00","26.2","","11.9","","41","","0.0","","17","","18","","","","98.32","","28","","","","NA"
"-121.58","50.22","LYTTON RCS","1114746","2021-07-07 01:00","2021","07","07","01:00","24.8","","12.7","","47","","0.0","","18","","18","","","","98.34","","27","","","","NA"
"-121.58","50.22","LYTTON RCS","1114746","2021-07-07 02:00","2021","07","07","02:00","24.2","","12.9","","49","","0.0","","18","","17","","","","98.37","","27","","","","NA"
"-121.58","50.22","LYTTON RCS","1114746","2021-07-07 03:00","2021","07","07","03:00","23.0","","12.8","","53","","0.0","","15","","18","","","","98.41","","26","","","","NA"
"-121.58","50.22","LYTTON RCS","1114746","2021-07-07 04:00","2021","07","07","04:00","21.8","","13.0","","57","","0.0","","16","","9","","","","98.42","","25","","","","NA"
"-121.58","50.22","LYTTON RCS","1114746","2021-07-07 05:00","2021","07","07","05:00","21.4","","13.0","","59","","0.0","","15","","9","","","","98.42","","","","","","NA"
"-121.58","50.22","LYTTON RCS","1114746","2021-07-07 06:00","2021","07","07","06:00","21.6","","12.9","","58","","0.0","","18","","18","","","","98.43","","","","","","NA"
"-121.58","50.22","LYTTON RCS","1114746","2021-07-07 07:00","2021","07","07","07:00","22.9","","13.6","","56","","0.0","","17","","17","","","","98.41","","26","","","","NA"
"-121.58","50.22","LYTTON RCS","1114746","2021-07-07 08:00","2021","07","07","08:00","24.2","","13.4","","51","","0.0","","18","","13","","","","98.36","","27","","","","NA"
"-121.58","50.22","LYTTON RCS","1114746","2021-07-07 09:00","2021","07","07","09:00","24.3","","13.6","","51","","0.0","","18","","37","","","","98.29","","27","","","","NA"
"-121.58","50.22","LYTTON RCS","1114746","2021-07-07 10:00","2021","07","07","10:00","26.2","","13.4","","45","","0.0","","19","","38","","","","98.27","","29","","","","NA"
"-121.58","50.22","LYTTON RCS","1114746","2021-07-07 11:00","2021","07","07","11:00","26.3","","12.8","","43","","0.0","","19","","32","","","","98.25","","29","","","","NA"
"-121.58","50.22","LYTTON RCS","1114746","2021-07-07 12:00","2021","07","07","12:00","26.6","","12.5","","42","","0.0","","20","","30","","","","98.22","","29","","","","NA"
"-121.58","50.22","LYTTON RCS","1114746","2021-07-07 13:00","2021","07","07","13:00","26.0","","12.5","","43","","0.0","","19","","29","","","","98.21","","29","","","","NA"
"-121.58","50.22","LYTTON RCS","1114746","2021-07-07 14:00","2021","07","07","14:00","26.9","","12.3","","40","","0.0","","19","","35","","","","98.18","","29","","","","NA"
"-121.58","50.22","LYTTON RCS","1114746","2021-07-07 15:00","2021","07","07","15:00","27.0","","12.0","","39","","0.0","","19","","37","","","","98.18","","29","","","","NA"
"-121.58","50.22","LYTTON RCS","1114746","2021-07-07 16:00","2021","07","07","16:00","26.0","","12.2","","42","","0.0","","19","","35","","","","98.19","","28","","","","NA"
"-121.58","50.22","LYTTON RCS","1114746","2021-07-07 17:00","2021","07","07","17:00","26.6","","12.1","","40","","0.0","","19","","30","","","","98.17","","29","","","","NA"
"-121.58","50.22","LYTTON RCS","1114746","2021-07-07 18:00","2021","07","07","18:00","25.1","","12.2","","45","","0.0","","20","","24","","","","98.33","","27","","","","NA"
"-121.58","50.22","LYTTON RCS","1114746","2021-07-07 19:00","2021","07","07","19:00","23.4","","13.5","","54","","0.0","","18","","19","","","","98.47","","26","","","","NA"
"-121.58","50.22","LYTTON RCS","1114746","2021-07-07 20:00","2021","07","07","20:00","22.4","","13.3","","57","","0.0","","19","","22","","","","98.37","","25","","","","NA"
"-121.58","50.22","LYTTON RCS","1114746","2021-07-07 21:00","2021","07","07","21:00","21.0","","13.5","","62","","0.0","","18","","25","","","","98.45","","","","","","NA"
"-121.58","50.22","LYTTON RCS","1114746","2021-07-07 22:00","2021","07","07","22:00","20.5","","13.1","","62","","0.0","","19","","25","","","","98.47","","","","","","NA"
"-121.58","50.22","LYTTON RCS","1114746","2021-07-07 23:00","2021","07","07","23:00","20.3","","12.5","","61","","0.0","","18","","24","","","","98.52","","","","","","NA"
"-121.58","50.22","LYTTON RCS","1114746","2021-07-08 00:00","2021","07","08","00:00","20.2","","12.1","","60","","0.0","","19","","26","","","","98.57","","","","","","NA"
"-121.58","50.22","LYTTON RCS","1114746","2021-07-08 01:00","2021","07","08","01:00","20.0","","11.8","","59","","0.0","","19","","26","","","","98.61","","","","","","NA"
"-121.58","50.22","LYTTON RCS","1114746","2021-07-08 02:00","2021","07","08","02:00","19.6","","11.8","","61","","0.0","","19","","19","","","","98.65","","","","","","NA"
"-121.58","50.22","LYTTON RCS","1114746","2021-07-08 03:00","2021","07","08","03:00","19.0","","12.0","","64","","0.0","","18","","17","","","","98.68","","","","","","NA"
"-121.58","50.22","LYTTON RCS","1114746","2021-07-08 04:00","2021","07","08","04:00","19.0","","12.0","","64","","0.0","","19","","13","","","","98.71","","","","","","NA"
"-121.58","50.22","LYTTON RCS","1114746","2021-07-08 05:00","2021","07","08","05:00","18.8","","12.2","","65","","0.0","","21","","6","","","","98.74","","","","","","NA"
"-121.58","50.22","LYTTON RCS","1114746","2021-07-08 06:00","2021","07","08","06:00","19.0","","12.1","","64","","0.0","","18","","9","","","","98.74","","","","","","NA"
"-121.58","50.22","LYTTON RCS","1114746","2021-07-08 07:00","2021","07","08","07:00","20.0","","12.0","","60","","0.0","","18","","21","","","","98.74","","","","","","NA"
"-121.58","50.22","LYTTON RCS","1114746","2021-07-08 08:00","2021","07","08","08:00","21.8","","12.1","","54","","0.0","","18","","24","","","","98.74","","","","","","NA"
"-121.58","50.22","LYTTON RCS","1114746","2021-07-08 09:00","2021","07","08","09:00","24.1","","12.2","","47","","0.0","","17","","22","","","","98.71","","26","","","","NA"
"-121.58","50.22","LYTTON RCS","1114746","2021-07-08 10:00","2021","07","08","10:00","25.4","","12.1","","43","","0.0","","18","","20","","","","98.64","","28","","","","NA"
"-121.58","50.22","LYTTON RCS","1114746","2021-07-08 11:00","2021","07","08","11:00","27.6","","12.7","","40","","0.0","","18","","19","","","","98.59","","30","","","","NA"
"-121.58","50.22","LYTTON RCS","1114746","2021-07-08 12:00","2021","07","08","12:00","29.5","","12.8","","36","","0.0","","18","","17","","","","98.52","","32","","","","NA"
"-121.58","50.22","LYTTON RCS","1114746","2021-07-08 13:00","2021","07","08","13:00","29.5","","12.4","","35","","0.0","","18","","32","","","","98.46","","32","","","","NA"
"-121.58","50.22","LYTTON RCS","1114746","2021-07-08 14:00","2021","07","08","14:00","28.5","","12.6","","38","","0.0","","18","","32","","","","98.38","","31","","","","NA"
"-121.58","50.22","LYTTON RCS","1114746","2021-07-08 15:00","2021","07","08","15:00","29.0","","12.7","","37","","0.0","","18","","32","","","","98.29","","32","","","","NA"
"-121.58","50.22","LYTTON RCS","1114746","2021-07-08 16:00","2021","07","08","16:00","28.3","","12.7","","38","","0.0","","19","","33","","","","98.23","","31","","","","NA"
"-121.58","50.22","LYTTON RCS","1114746","2021-07-08 17:00","2021","07","08","17:00","27.6","","12.9","","40","","0.0","","18","","33","","","","98.28","","30","","","","NA"
"-121.58","50.22","LYTTON RCS","1114746","2021-07-08 18:00","2021","07","08","18:00","25.6","","13.4","","47","","0.0","","19","","34","","","","98.34","","29","","","","NA"
"-121.58","50.22","LYTTON RCS","1114746","2021-07-08 19:00","2021","07","08","19:00","22.9","","15.8","","64","","0.2","","12","","11","","","","98.66","","27","","","","NA"
"-121.58","50.22","LYTTON RCS","1114746","2021-07-08 20:00","2021","07","08","20:00","19.5","","17.2","","86","","1.6","","19","","3","","","","98.76","","","","","","NA"
"-121.58","50.22","LYTTON RCS","1114746","2021-07-08 21:00","2021","07","08","21:00","18.5","","17.5","","94","","0.3","","17","","14","","","","98.92","","","","","","NA"
"-121.58","50.22","LYTTON RCS","1114746","2021-07-08 22:00","2021","07","08","22:00","19.4","","16.0","","81","","0.0","","18","","16","","","","98.93","","","","","","NA"
"-121.58","50.22","LYTTON RCS","1114746","2021-07-08 23:00","2021","07","08","23:00","19.2","","15.3","","78","","0.0","","4","","5","","","","98.98","","","","","","NA"
"-121.58","50.22","LYTTON RCS","1114746","2021-07-09 00:00","2021","07","09","00:00","18.0","","15.3","","84","","0.0","","6","","2","","","","98.90","","","","","","NA"
"-121.58","50.22","LYTTON RCS","1114746","2021-07-09 01:00","2021","07","09","01:00","17.1","","15.6","","91","","0.0","","18","","20","","","","98.94","","","","","","NA"
"-121.58","50.22","LYTTON RCS","1114746","2021-07-09 02:00","2021","07","09","02:00","17.6","","15.1","","86","","0.0","","21","","4","","","","99.10","","","","","","NA"
"-121.58","50.22","LYTTON RCS","1114746","2021-07-09 03:00","2021","07","09","03:00","16.6","","14.8","","89","","0.0","","0","","1","","","","99.14","","","","","","NA"
"-121.58","50.22","LYTTON RCS","1114746","2021-07-09 04:00","2021","07","09","04:00","15.9","","14.8","","93","","0.0","","0","","1","","","","99.20","","","","","","NA"
"-121.58","50.22","LYTTON RCS","1114746","2021-07-09 05:00","2021","07","09","05:00","15.8","","14.9","","95","","0.0","","1","","2","","","","99.23","","","","","","NA"
"-121.58","50.22","LYTTON RCS","1114746","2021-07-09 06:00","2021","07","09","06:00","16.3","","15.1","","93","","0.0","","10","","2","","","","99.26","","","","","","NA"
"-121.58","50.22","LYTTON RCS","1114746","2021-07-09 07:00","2021","07","09","07:00","17.9","","15.4","","85","","0.0","","18","","2","","","","99.29","","","","","","NA"
"-121.58","50.22","LYTTON RCS","1114746","2021-07-09 08:00","2021","07","09","08:00","20.7","","15.0","","70","","0.0","","17","","5","","","","99.29","","25","","","","NA"
"-121.58","50.22","LYTTON RCS","1114746","2021-07-09 09:00","2021","07","09","09:00","23.1","","14.8","","60","","0.0","","17","","12","","","","99.21","","27","","","","NA"
"-121.58","50.22","LYTTON RCS","1114746","2021-07-09 10:00","2021","07","09","10:00","25.2","","14.1","","50","","0.0","","17","","16","","","","99.15","","29","","","","NA"
"-121.58","50.22","LYTTON RCS","1114746","2021-07-09 11:00","2021","07","09","11:00","26.4","","14.2","","47","","0.0","","18","","27","","","","99.12","","30","","","","NA"
"-121.58","50.22","LYTTON RCS","1114746","2021-07-09 12:00","2021","07","09","12:00","28.2","","14.3","","43","","0.0","","18","","27","","","","99.05","","32","","","","NA"
"-121.58","50.22","LYTTON RCS","1114746","2021-07-09 13:00","2021","07","09","13:00","30.4","","13.9","","36","","0.0","","18","","28","","","","98.94","","34","","","","NA"
"-121.58","50.22","LYTTON RCS","1114746","2021-07-09 14:00","2021","07","09","14:00","32.4","","11.6","","28","","0.0","","17","","29","","","","98.82","","34","","","","NA"
"-121.58","50.22","LYTTON RCS","1114746","2021-07-09 15:00","2021","07","09","15:00","33.1","","12.8","","29","","0.0","","19","","23","","","","98.74","","36","","","","NA"
"-121.58","50.22","LYTTON RCS","1114746","2021-07-09 16:00","2021","07","09","16:00","33.8","","11.6","","26","","0.0","","18","","22","","","","98.66","","36","","","","NA"
"-121.58","50.22","LYTTON RCS","1114746","2021-07-09 17:00","2021","07","09","17:00","34.0","","10.5","","24","","0.0","","18","","24","","","","98.60","","36","","","","NA"
"-121.58","50.22","LYTTON RCS","1114746","2021-07-09 18:00","2021","07","09","18:00","32.6","","11.2","","27","","0.0","","19","","21","","","","98.54","","34","","","","NA"
"-121.58","50.22","LYTTON RCS","1114746","2021-07-09 19:00","2021","07","09","19:00","30.4","","11.9","","32","","0.0","","18","","18","","","","98.53","","33","","","","NA"
"-121.58","50.22","LYTTON RCS","1114746","2021-07-09 20:00","2021","07","09","20:00","29.6","","12.9","","36","","0.0","","20","","22","","","","98.54","","32","","","","NA"
"-121.58","50.22","LYTTON RCS","1114746","2021-07-09 21:00","2021","07","09","21:00","27.8","","13.7","","42","","0.0","","20","","21","","","","98.60","","31","","","","NA"
"-121.58","50.22","LYTTON RCS","1114746","2021-07-09 22:00","2021","07","09","22:00","26.8","","14.0","","45","","0.0","","20","","24","","","","98.67","","30","","","","NA"
"-121.58","50.22","LYTTON RCS","1114746","2021-07-09 23:00","2021","07","09","23:00","25.3","","14.4","","51","","0.0","","19","","29","","","","98.69","","29","","","","NA"
"-121.58","50.22","LYTTON RCS","1114746","2021-07-10 00:00","2021","07","10","00:00","24.4","","14.5","","54","","0.0","","19","","34","","","","98.72","","28","","","","NA"
"-121.58","50.22","LYTTON RCS","1114746","2021-07-10 01:00","2021","07","10","01:00","23.4","","14.7","","58","","0.0","","19","","32","","","","98.74","","27","","","","NA"
"-121.58","50.22","LYTTON RCS","1114746","2021-07-10 02:00","2021","07","10","02:00","23.1","","14.4","","58","","0.0","","19","","34","","","","98.81","","27","","","","NA"
"-121.58","50.22","LYTTON RCS","1114746","2021-07-10 03:00","2021","07","10","03:00","22.0","","14.4","","62","","0.0","","20","","26","","","","98.86","","26","","","","NA"
"-121.58","50.22","LYTTON RCS","1114746","2021-07-10 04:00","2021","07","10","04:00","21.4","","14.3","","64","","0.0","","17","","41","","","","98.92","","25","","","","NA"
"-121.58","50.22","LYTTON RCS","1114746","2021-07-10 05:00","2021","07","10","05:00","20.7","","14.2","","66","","0.0","","18","","37","","","","98.98","","","","","","NA"
"-121.58","50.22","LYTTON RCS","1114746","2021-07-10 06:00","2021","07","10","06:00","20.4","","14.1","","67","","0.0","","17","","34","","","","99.06","","","","","","NA"
"-121.58","50.22","LYTTON RCS","1114746","2021-07-10 07:00","2021","07","10","07:00","21.7","","14.1","","62","","0.0","","17","","40","","","","99.03","","25","","","","NA"
"-121.58","50.22","LYTTON RCS","1114746","2021-07-10 08:00","2021","07","10","08:00","24.1","","13.9","","53","","0.0","","18","","36","","","","99.03","","27","","","","NA"
"-121.58","50.22","LYTTON RCS","1114746","2021-07-10 09:00","2021","07","10","09:00","26.1","","13.6","","46","","0.0","","18","","36","","","","99.00","","29","","","","NA"
"-121.58","50.22","LYTTON RCS","1114746","2021-07-10 10:00","2021","07","10","10:00","28.3","","13.6","","41","","0.0","","18","","34","","","","98.95","","31","","","","NA"
"-121.58","50.22","LYTTON RCS","1114746","2021-07-10 11:00","2021","07","10","11:00","30.8","","13.6","","35","","0.0","","19","","24","","","","98.91","","34","","","","NA"
"-121.58","50.22","LYTTON RCS","1114746","2021-07-10 12:00","2021","07","10","12:00","32.6","","12.9","","30","","0.0","","18","","28","","","","98.84","","35","","","","NA"
"-121.58","50.22","LYTTON RCS","1114746","2021-07-10 13:00","2021","07","10","13:00","33.5","","11.4","","26","","0.0","","18","","28","","","","98.75","","35","","","","NA"
"-121.58","50.22","LYTTON RCS","1114746","2021-07-10 14:00","2021","07","10","14:00","34.5","","11.2","","24","","0.0","","18","","26","","","","98.70","","36","","","","NA"
"-121.58","50.22","LYTTON RCS","1114746","2021-07-10 15:00","2021","07","10","15:00","34.7","","10.0","","22","","0.0","","19","","26","","","","98.65","","36","","","","NA"
"-121.58","50.22","LYTTON RCS","1114746","2021-07-10 16:00","2021","07","10","16:00","34.2","","10.3","","23","","0.0","","19","","24","","","","98.63","","36","","","","NA"
"-121.58","50.22","LYTTON RCS","1114746","2021-07-10 17:00","2021","07","10","17:00","33.9","","10.5","","24","","0.0","","19","","24","","","","98.59","","35","","","","NA"
"-121.58","50.22","LYTTON RCS","1114746","2021-07-10 18:00","2021","07","10","18:00","32.6","","10.7","","26","","0.0","","19","","22","","","","98.57","","34","","","","NA"
"-121.58","50.22","LYTTON RCS","1114746","2021-07-10 19:00","2021","07","10","19:00","30.0","","11.0","","31","","0.0","","20","","16","","","","98.61","","32","","","","NA"
"-121.58","50.22","LYTTON RCS","1114746","2021-07-10 20:00","2021","07","10","20:00","28.3","","11.0","","34","","0.0","","20","","22","","","","98.67","","30","","","","NA"
"-121.58","50.22","LYTTON RCS","1114746","2021-07-10 21:00","2021","07","10","21:00","27.2","","10.8","","36","","0.0","","20","","27","","","","98.75","","29","","","","NA"
"-121.58","50.22","LYTTON RCS","1114746","2021-07-10 22:00","2021","07","10","22:00","25.7","","10.2","","38","","0.0","","19","","26","","","","98.81","","27","","","","NA"
"-121.58","50.22","LYTTON RCS","1114746","2021-07-10 23:00","2021","07","10","23:00","24.7","","9.3","","38","","0.0","","19","","25","","","","98.87","","26","","","","NA"
"-121.58","50.22","LYTTON RCS","1114746","2021-07-11 00:00","2021","07","11","00:00","23.3","","9.2","","41","","0.0","","18","","33","","","","98.92","","","","","","NA"
"-121.58","50.22","LYTTON RCS","1114746","2021-07-11 01:00","2021","07","11","01:00","22.5","","9.3","","43","","0.0","","18","","29","","","","98.96","","","","","","NA"
"-121.58","50.22","LYTTON RCS","1114746","2021-07-11 02:00","2021","07","11","02:00","21.6","","9.7","","47","","0.0","","18","","23","","","","99.05","","","","","","NA"
"-121.58","50.22","LYTTON RCS","1114746","2021-07-11 03:00","2021","07","11","03:00","21.1","","10.1","","50","","0.0","","18","","22","","","","99.09","","","","","","NA"
"-121.58","50.22","LYTTON RCS","1114746","2021-07-11 04:00","2021","07","11","04:00","20.6","","10.3","","52","","0.0","","18","","20","","","","99.15","","","","","","NA"
"-121.58","50.22","LYTTON RCS","1114746","2021-07-11 05:00","2021","07","11","05:00","20.0","","10.5","","54","","0.0","","18","","18","","","","99.22","","","","","","NA"
"-121.58","50.22","LYTTON RCS","1114746","2021-07-11 06:00","2021","07","11","06:00","19.4","","10.6","","56","","0.0","","14","","13","","","","99.25","","","","","","NA"
"-121.58","50.22","LYTTON RCS","1114746","2021-07-11 07:00","2021","07","11","07:00","20.4","","10.7","","54","","0.0","","14","","17","","","","99.26","","","","","","NA"
"-121.58","50.22","LYTTON RCS","1114746","2021-07-11 08:00","2021","07","11","08:00","22.7","","10.7","","47","","0.0","","17","","26","","","","99.21","","","","","","NA"
"-121.58","50.22","LYTTON RCS","1114746","2021-07-11 09:00","2021","07","11","09:00","25.6","","11.2","","41","","0.0","","17","","26","","","","99.14","","27","","","","NA"
"-121.58","50.22","LYTTON RCS","1114746","2021-07-11 10:00","2021","07","11","10:00","27.9","","11.9","","37","","0.0","","18","","20","","","","99.08","","30","","","","NA"
"-121.58","50.22","LYTTON RCS","1114746","2021-07-11 11:00","2021","07","11","11:00","30.4","","11.0","","30","","0.0","","17","","12","","","","98.98","","32","","","","NA"
"-121.58","50.22","LYTTON RCS","1114746","2021-07-11 12:00","2021","07","11","12:00","32.6","","10.0","","25","","0.0","","18","","16","","","","98.85","","34","","","","NA"
"-121.58","50.22","LYTTON RCS","1114746","2021-07-11 13:00","2021","07","11","13:00","34.0","","10.1","","23","","0.0","","18","","25","","","","98.77","","35","","","","NA"
"-121.58","50.22","LYTTON RCS","1114746","2021-07-11 14:00","2021","07","11","14:00","35.1","","9.7","","21","","0.0","","18","","23","","","","98.70","","36","","","","NA"
"-121.58","50.22","LYTTON RCS","1114746","2021-07-11 15:00","2021","07","11","15:00","35.1","","9.7","","21","","0.0","","18","","24","","","","98.62","","36","","","","NA"
"-121.58","50.22","LYTTON RCS","1114746","2021-07-11 16:00","2021","07","11","16:00","34.8","","10.1","","22","","0.0","","18","","26","","","","98.56","","36","","","","NA"
"-121.58","50.22","LYTTON RCS","1114746","2021-07-11 17:00","2021","07","11","17:00","33.9","","9.5","","22","","0.0","","18","","26","","","","98.51","","35","","","","NA"
"-121.58","50.22","LYTTON RCS","1114746","2021-07-11 18:00","2021","07","11","18:00","32.6","","9.5","","24","","0.0","","19","","23","","","","98.50","","34","","","","NA"
"-121.58","50.22","LYTTON RCS","1114746","2021-07-11 19:00","2021","07","11","19:00","30.2","","10.9","","30","","0.0","","19","","20","","","","98.53","","32","","","","NA"
"-121.58","50.22","LYTTON RCS","1114746","2021-07-11 20:00","2021","07","11","20:00","29.0","","11.5","","34","","0.0","","19","","21","","","","98.57","","31","","","","NA"
"-121.58","50.22","LYTTON RCS","1114746","2021-07-11 21:00","2021","07","11","21:00","28.4","","11.6","","35","","0.0","","19","","21","","","","98.64","","30","","","","NA"
"-121.58","50.22","LYTTON RCS","1114746","2021-07-11 22:00","2021","07","11","22:00","26.9","","11.9","","39","","0.0","","19","","26","","","","98.70","","29","","","","NA"
"-121.58","50.22","LYTTON RCS","1114746","2021-07-11 23:00","2021","07","11","23:00","25.7","","11.9","","42","","0.0","","18","","23","","","","98.79","","28","","","","NA"
"-121.58","50.22","LYTTON RCS","1114746","2021-07-12 00:00","2021","07","12","00:00","24.2","","12.0","","46","","0.0","","18","","21","","","","98.85","","26","","","","NA"
"-121.58","50.22","LYTTON RCS","1114746","2021-07-12 01:00","2021","07","12","01:00","23.4","","12.2","","49","","0.0","","18","","17","","","","98.90","","26","","","","NA"
"-121.58","50.22","LYTTON RCS","1114746","2021-07-12 02:00","2021","07","12","02:00","22.4","","12.1","","52","","0.0","","16","","17","","","","98.94","","25","","","","NA"
"-121.58","50.22","LYTTON RCS","1114746","2021-07-12 03:00","2021","07","12","03:00","21.8","","12.1","","54","","0.0","","14","","14","","","","99.00","","","","","","NA"
"-121.58","50.22","LYTTON RCS","1114746","2021-07-12 04:00","2021","07","12","04:00","20.5","","12.1","","59","","0.0","","16","","12","","","","99.04","","","","","","NA"
"-121.58","50.22","LYTTON RCS","1114746","2021-07-12 05:00","2021","07","12","05:00","19.1","","12.3","","64","","0.0","","19","","6","","","","99.10","","","","","","NA"
"-121.58","50.22","LYTTON RCS","1114746","2021-07-12 06:00","2021","07","12","06:00","18.9","","12.4","","66","","0.0","","17","","8","","","","99.13","","","","","","NA"
"-121.58","50.22","LYTTON RCS","1114746","2021-07-12 07:00","2021","07","12","07:00","19.6","","12.3","","63","","0.0","","15","","6","","","","99.14","","","","","","NA"
"-121.58","50.22","LYTTON RCS","1114746","2021-07-12 08:00","2021","07","12","08:00","22.3","","12.2","","53","","0.0","","17","","3","","","","99.11","","25","","","","NA"
"-121.58","50.22","LYTTON RCS","1114746","2021-07-12 09:00","2021","07","12","09:00","25.2","","10.9","","41","","0.0","","2","","5","","","","99.04","","27","","","","NA"
"-121.58","50.22","LYTTON RCS","1114746","2021-07-12 10:00","2021","07","12","10:00","28.6","","10.6","","33","","0.0","","2","","11","","","","98.94","","30","","","","NA"
"-121.58","50.22","LYTTON RCS","1114746","2021-07-12 11:00","2021","07","12","11:00","31.8","","8.8","","24","","0.0","","1","","10","","","","98.83","","33","","","","NA"
"-121.58","50.22","LYTTON RCS","1114746","2021-07-12 12:00","2021","07","12","12:00","34.3","","7.4","","19","","0.0","","33","","7","","","","98.73","","34","","","","NA"
"-121.58","50.22","LYTTON RCS","1114746","2021-07-12 13:00","2021","07","12","13:00","36.0","","6.4","","16","","0.0","","31","","5","","","","98.65","","36","","","","NA"
"-121.58","50.22","LYTTON RCS","1114746","2021-07-12 14:00","2021","07","12","14:00","36.7","","5.3","","14","","0.0","","33","","4","","","","98.58","","36","","","","NA"
"-121.58","50.22","LYTTON RCS","1114746","2021-07-12 15:00","2021","07","12","15:00","36.8","","4.4","","13","","0.0","","33","","3","","","","98.53","","36","","","","NA"
"-121.58","50.22","LYTTON RCS","1114746","2021-07-12 16:00","2021","07","12","16:00","36.9","","4.3","","13","","0.0","","25","","2","","","","98.47","","36","","","","NA"
"-121.58","50.22","LYTTON RCS","1114746","2021-07-12 17:00","2021","07","12","17:00","36.7","","5.1","","14","","0.0","","24","","2","","","","98.40","","36","","","","NA"
"-121.58","50.22","LYTTON RCS","1114746","2021-07-12 18:00","2021","07","12","18:00","35.2","","8.5","","19","","0.0","","20","","4","","","","98.37","","36","","","","NA"
"-121.58","50.22","LYTTON RCS","1114746","2021-07-12 19:00","2021","07","12","19:00","31.7","","9.4","","25","","0.0","","15","","8","","","","98.38","","33","","","","NA"
"-121.58","50.22","LYTTON RCS","1114746","2021-07-12 20:00","2021","07","12","20:00","30.6","","12.6","","33","","0.0","","18","","22","","","","98.45","","33","","","","NA"
"-121.58","50.22","LYTTON RCS","1114746","2021-07-12 21:00","2021","07","12","21:00","28.9","","13.5","","39","","0.0","","18","","27","","","","98.55","","32","","","","NA"
"-121.58","50.22","LYTTON RCS","1114746","2021-07-12 22:00","2021","07","12","22:00","27.2","","13.9","","44","","0.0","","18","","21","","","","98.63","","31","","","","NA"
"-121.58","50.22","LYTTON RCS","1114746","2021-07-12 23:00","2021","07","12","23:00","26.3","","14.0","","47","","0.0","","19","","19","","","","98.71","","30","","","","NA"
"-121.58","50.22","LYTTON RCS","1114746","2021-07-13 00:00","2021","07","13","00:00","25.5","","13.9","","49","","0.0","","19","","17","","","","98.76","","29","","","","NA"
"-121.58","50.22","LYTTON RCS","1114746","2021-07-13 01:00","2021","07","13","01:00","24.5","","13.8","","51","","0.0","","19","","18","","","","98.80","","28","","","","NA"
"-121.58","50.22","LYTTON RCS","1114746","2021-07-13 02:00","2021","07","13","02:00","23.4","","13.6","","54","","0.0","","17","","22","","","","98.84","","27","","","","NA"
"-121.58","50.22","LYTTON RCS","1114746","2021-07-13 03:00","2021","07","13","03:00","22.7","","13.4","","56","","0.0","","15","","15","","","","98.87","","26","","","","NA"
"-121.58","50.22","LYTTON RCS","1114746","2021-07-13 04:00","2021","07","13","04:00","21.9","","13.3","","58","","0.0","","15","","14","","","","98.92","","25","","","","NA"
"-121.58","50.22","LYTTON RCS","1114746","2021-07-13 05:00","2021","07","13","05:00","21.2","","13.2","","60","","0.0","","16","","7","","","","98.95","","","","","","NA"
"-121.58","50.22","LYTTON RCS","1114746","2021-07-13 06:00","2021","07","13","06:00","21.0","","13.4","","62","","0.0","","16","","7","","","","98.96","","","","","","NA"
"-121.58","50.22","LYTTON RCS","1114746","2021-07-13 07:00","2021","07","13","07:00","21.8","","13.4","","59","","0.0","","14","","12","","","","98.97","","25","","","","NA"
"-121.58","50.22","LYTTON RCS","1114746","2021-07-13 08:00","2021","07","13","08:00","24.0","","14.0","","53","","0.0","","15","","13","","","","98.92","","27","","","","NA"
"-121.58","50.22","LYTTON RCS","1114746","2021-07-13 09:00","2021","07","13","09:00","26.5","","13.2","","44","","0.0","","17","","25","","","","98.85","","29","","","","NA"
"-121.58","50.22","LYTTON RCS","1114746","2021-07-13 10:00","2021","07","13","10:00","28.9","","13.1","","38","","0.0","","18","","22","","","","98.75","","32","","","","NA"
"-121.58","50.22","LYTTON RCS","1114746","2021-07-13 11:00","2021","07","13","11:00","31.6","","13.7","","34","","0.0","","18","","23","","","","98.65","","35","","","","NA"
"-121.58","50.22","LYTTON RCS","1114746","2021-07-13 12:00","2021","07","13","12:00","33.1","","13.4","","30","","0.0","","19","","19","","","","98.52","","36","","","","NA"
"-121.58","50.22","LYTTON RCS","1114746","2021-07-13 13:00","2021","07","13","13:00","35.8","","13.4","","26","","0.0","","20","","21","","","","98.38","","39","","","","NA"
"-121.58","50.22","LYTTON RCS","1114746","2021-07-13 14:00","2021","07","13","14:00","37.2","","12.7","","23","","0.0","","19","","24","","","","98.29","","40","","","","NA"
"-121.58","50.22","LYTTON RCS","1114746","2021-07-13 15:00","2021","07","13","15:00","38.0","","11.5","","20","","0.0","","19","","29","","","","98.22","","40","","","","NA"
"-121.58","50.22","LYTTON RCS","1114746","2021-07-13 16:00","2021","07","13","16:00","38.2","","9.4","","18","","0.0","","18","","26","","","","98.15","","39","","","","NA"
"-121.58","50.22","LYTTON RCS","1114746","2021-07-13 17:00","2021","07","13","17:00","37.3","","8.7","","18","","0.0","","18","","26","","","","98.12","","38","","","","NA"
"-121.58","50.22","LYTTON RCS","1114746","2021-07-13 18:00","2021","07","13","18:00","35.8","","9.3","","20","","0.0","","17","","30","","","","98.10","","37","","","","NA"
"-121.58","50.22","LYTTON RCS","1114746","2021-07-13 19:00","2021","07","13","19:00","33.5","","11.2","","26","","0.0","","19","","26","","","","98.11","","35","","","","NA"
"-121.58","50.22","LYTTON RCS","1114746","2021-07-13 20:00","2021","07","13","20:00","30.5","","13.0","","34","","0.0","","19","","27","","","","98.18","","33","","","","NA"
"-121.58","50.22","LYTTON RCS","1114746","2021-07-13 21:00","2021","07","13","21:00","29.2","","12.8","","37","","0.0","","20","","26","","","","98.26","","32","","","","NA"
"-121.58","50.22","LYTTON RCS","1114746","2021-07-13 22:00","2021","07","13","22:00","27.9","","12.6","","39","","0.0","","20","","29","","","","98.35","","30","","","","NA"
"-121.58","50.22","LYTTON RCS","1114746","2021-07-13 23:00","2021","07","13","23:00","26.5","","12.7","","42","","0.0","","20","","31","","","","98.39","","29","","","","NA"
"-121.58","50.22","LYTTON RCS","1114746","2021-07-14 00:00","2021","07","14","00:00","25.4","","12.6","","45","","0.0","","20","","32","","","","98.42","","28","","","","NA"
"-121.58","50.22","LYTTON RCS","1114746","2021-07-14 01:00","2021","07","14","01:00","24.5","","12.2","","46","","0.0","","19","","34","","","","98.44","","27","","","","NA"
"-121.58","50.22","LYTTON RCS","1114746","2021-07-14 02:00","2021","07","14","02:00","23.4","","12.1","","49","","0.0","","18","","32","","","","98.49","","26","","","","NA"
"-121.58","50.22","LYTTON RCS","1114746","2021-07-14 03:00","2021","07","14","03:00","22.7","","11.8","","50","","0.0","","18","","33","","","","98.52","","25","","","","NA"
"-121.58","50.22","LYTTON RCS","1114746","2021-07-14 04:00","2021","07","14","04:00","21.7","","11.8","","53","","0.0","","17","","27","","","","98.59","","","","","","NA"
"-121.58","50.22","LYTTON RCS","1114746","2021-07-14 05:00","2021","07","14","05:00","21.1","","11.8","","55","","0.0","","17","","26","","","","98.63","","","","","","NA"
"-121.58","50.22","LYTTON RCS","1114746","2021-07-14 06:00","2021","07","14","06:00","20.8","","11.8","","56","","0.0","","16","","20","","","","98.66","","","","","","NA"
"-121.58","50.22","LYTTON RCS","1114746","2021-07-14 07:00","2021","07","14","07:00","21.6","","12.1","","55","","0.0","","17","","22","","","","98.64","","","","","","NA"
"-121.58","50.22","LYTTON RCS","1114746","2021-07-14 08:00","2021","07","14","08:00","24.5","","11.7","","45","","0.0","","17","","33","","","","98.58","","27","","","","NA"
"-121.58","50.22","LYTTON RCS","1114746","2021-07-14 09:00","2021","07","14","09:00","26.6","","11.5","","39","","0.0","","17","","33","","","","98.51","","29","","","","NA"
"-121.58","50.22","LYTTON RCS","1114746","2021-07-14 10:00","2021","07","14","10:00","28.9","","11.3","","34","","0.0","","18","","38","","","","98.41","","31","","","","NA"
"-121.58","50.22","LYTTON RCS","1114746","2021-07-14 11:00","2021","07","14","11:00","30.4","","10.7","","30","","0.0","","18","","27","","","","98.31","","32","","","","NA"
"-121.58","50.22","LYTTON RCS","1114746","2021-07-14 12:00","2021","07","14","12:00","33.0","","10.4","","25","","0.0","","18","","29","","","","98.22","","34","","","","NA"
"-121.58","50.22","LYTTON RCS","1114746","2021-07-14 13:00","2021","07","14","13:00","34.0","","9.7","","23","","0.0","","18","","32","","","","98.14","","35","","","","NA"
"-121.58","50.22","LYTTON RCS","1114746","2021-07-14 14:00","2021","07","14","14:00","34.9","","8.3","","20","","0.0","","18","","33","","","","98.08","","35","","","","NA"
"-121.58","50.22","LYTTON RCS","1114746","2021-07-14 15:00","2021","07","14","15:00","34.8","","7.7","","19","","0.0","","18","","36","","","","98.02","","35","","","","NA"
"-121.58","50.22","LYTTON RCS","1114746","2021-07-14 16:00","2021","07","14","16:00","34.5","","8.1","","20","","0.0","","18","","38","","","","97.95","","35","","","","NA"
"-121.58","50.22","LYTTON RCS","1114746","2021-07-14 17:00","2021","07","14","17:00","33.6","","9.9","","23","","0.0","","18","","33","","","","97.94","","35","","","","NA"
"-121.58","50.22","LYTTON RCS","1114746","2021-07-14 18:00","2021","07","14","18:00","32.0","","10.2","","26","","0.0","","18","","28","","","","97.91","","33","","","","NA"
"-121.58","50.22","LYTTON RCS","1114746","2021-07-14 19:00","2021","07","14","19:00","30.0","","10.3","","30","","0.0","","19","","27","","","","97.94","","31","","","","NA"
"-121.58","50.22","LYTTON RCS","1114746","2021-07-14 20:00","2021","07","14","20:00","28.3","","9.6","","31","","0.0","","19","","29","","","","98.00","","29","","","","NA"
"-121.58","50.22","LYTTON RCS","1114746","2021-07-14 21:00","2021","07","14","21:00","26.7","","9.9","","35","","0.0","","20","","30","","","","98.09","","28","","","","NA"
"-121.58","50.22","LYTTON RCS","1114746","2021-07-14 22:00","2021","07","14","22:00","25.3","","10.7","","40","","0.0","","19","","33","","","","98.14","","27","","","","NA"
"-121.58","50.22","LYTTON RCS","1114746","2021-07-14 23:00","2021","07","14","23:00","24.1","","10.9","","44","","0.0","","19","","34","","","","98.20","","26","","","","NA"
"-121.58","50.22","LYTTON RCS","1114746","2021-07-15 00:00","2021","07","15","00:00","22.9","","10.7","","46","","0.0","","19","","32","","","","98.23","","25","","","","NA"
"-121.58","50.22","LYTTON RCS","1114746","2021-07-15 01:00","2021","07","15","01:00","22.2","","10.4","","47","","0.0","","19","","35","","","","98.26","","","","","","NA"
"-121.58","50.22","LYTTON RCS","1114746","2021-07-15 02:00","2021","07","15","02:00","21.5","","10.5","","49","","0.0","","19","","35","","","","98.31","","","","","","NA"
"-121.58","50.22","LYTTON RCS","1114746","2021-07-15 03:00","2021","07","15","03:00","20.8","","10.6","","52","","0.0","","18","","36","","","","98.35","","","","","","NA"
"-121.58","50.22","LYTTON RCS","1114746","2021-07-15 04:00","2021","07","15","04:00","20.4","","10.6","","53","","0.0","","19","","35","","","","98.40","","","","","","NA"
"-121.58","50.22","LYTTON RCS","1114746","2021-07-15 05:00","2021","07","15","05:00","19.7","","10.7","","56","","0.0","","19","","27","","","","98.43","","","","","","NA"
"-121.58","50.22","LYTTON RCS","1114746","2021-07-15 06:00","2021","07","15","06:00","19.6","","10.8","","57","","0.0","","19","","27","","","","98.47","","","","","","NA"
"-121.58","50.22","LYTTON RCS","1114746","2021-07-15 07:00","2021","07","15","07:00","20.1","","11.0","","56","","0.0","","18","","37","","","","98.49","","","","","","NA"
"-121.58","50.22","LYTTON RCS","1114746","2021-07-15 08:00","2021","07","15","08:00","21.6","","11.1","","51","","0.0","","17","","41","","","","98.48","","","","","","NA"
"-121.58","50.22","LYTTON RCS","1114746","2021-07-15 09:00","2021","07","15","09:00","22.9","","11.2","","47","","0.0","","18","","50","","","","98.42","","25","","","","NA"
"-121.58","50.22","LYTTON RCS","1114746","2021-07-15 10:00","2021","07","15","10:00","24.1","","11.4","","45","","0.0","","18","","48","","","","98.38","","26","","","","NA"
"-121.58","50.22","LYTTON RCS","1114746","2021-07-15 11:00","2021","07","15","11:00","25.8","","11.5","","41","","0.0","","18","","45","","","","98.33","","28","","","","NA"
"-121.58","50.22","LYTTON RCS","1114746","2021-07-15 12:00","2021","07","15","12:00","27.4","","11.5","","37","","0.0","","18","","42","","","","98.26","","29","","","","NA"
"-121.58","50.22","LYTTON RCS","1114746","2021-07-15 13:00","2021","07","15","13:00","28.6","","11.4","","35","","0.0","","18","","41","","","","98.18","","31","","","","NA"
"-121.58","50.22","LYTTON RCS","1114746","2021-07-15 14:00","2021","07","15","14:00","29.6","","11.4","","32","","0.0","","19","","35","","","","98.14","","32","","","","NA"
"-121.58","50.22","LYTTON RCS","1114746","2021-07-15 15:00","2021","07","15","15:00","29.9","","11.4","","32","","0.0","","18","","38","","","","98.08","","32","","","","NA"
"-121.58","50.22","LYTTON RCS","1114746","2021-07-15 16:00","2021","07","15","16:00","28.6","","11.2","","34","","0.0","","19","","35","","","","98.05","","30","","","","NA"
"-121.58","50.22","LYTTON RCS","1114746","2021-07-15 17:00","2021","07","15","17:00","27.7","","11.5","","37","","0.0","","19","","36","","","","98.04","","30","","","","NA"
"-121.58","50.22","LYTTON RCS","1114746","2021-07-15 18:00","2021","07","15","18:00","26.7","","11.5","","39","","0.0","","19","","34","","","","98.06","","29","","","","NA"
"-121.58","50.22","LYTTON RCS","1114746","2021-07-15 19:00","2021","07","15","19:00","25.5","","11.5","","42","","0.0","","19","","33","","","","98.11","","28","","","","NA"
"-121.58","50.22","LYTTON RCS","1114746","2021-07-15 20:00","2021","07","15","20:00","24.2","","11.5","","45","","0.0","","20","","33","","","","98.16","","26","","","","NA"
"-121.58","50.22","LYTTON RCS","1114746","2021-07-15 21:00","2021","07","15","21:00","23.2","","11.5","","48","","0.0","","19","","32","","","","98.24","","25","","","","NA"
"-121.58","50.22","LYTTON RCS","1114746","2021-07-15 22:00","2021","07","15","22:00","22.3","","11.2","","49","","0.0","","19","","30","","","","98.28","","","","","","NA"
"-121.58","50.22","LYTTON RCS","1114746","2021-07-15 23:00","2021","07","15","23:00","21.4","","11.0","","52","","0.0","","19","","35","","","","98.33","","","","","","NA"
"-121.58","50.22","LYTTON RCS","1114746","2021-07-16 00:00","2021","07","16","00:00","20.5","","10.9","","54","","0.0","","19","","30","","","","98.37","","","","","","NA"
"-121.58","50.22","LYTTON RCS","1114746","2021-07-16 01:00","2021","07","16","01:00","19.6","","10.5","","55","","0.0","","19","","35","","","","98.40","","","","","","NA"
"-121.58","50.22","LYTTON RCS","1114746","2021-07-16 02:00","2021","07","16","02:00","19.0","","10.0","","56","","0.0","","19","","34","","","","98.42","","","","","","NA"
"-121.58","50.22","LYTTON RCS","1114746","2021-07-16 03:00","2021","07","16","03:00","18.6","","9.5","","55","","0.0","","18","","34","","","","98.42","","","","","","NA"
"-121.58","50.22","LYTTON RCS","1114746","2021-07-16 04:00","2021","07","16","04:00","18.4","","9.3","","55","","0.0","","19","","31","","","","98.46","","","","","","NA"
"-121.58","50.22","LYTTON RCS","1114746","2021-07-16 05:00","2021","07","16","05:00","18.1","","8.9","","55","","0.0","","19","","33","","","","98.48","","","","","","NA"
"-121.58","50.22","LYTTON RCS","1114746","2021-07-16 06:00","2021","07","16","06:00","18.2","","9.1","","55","","0.0","","19","","32","","","","98.49","","","","","","NA"
"-121.58","50.22","LYTTON RCS","1114746","2021-07-16 07:00","2021","07","16","07:00","18.3","","9.1","","55","","0.0","","19","","29","","","","98.51","","","","","","NA"
"-121.58","50.22","LYTTON RCS","1114746","2021-07-16 08:00","2021","07","16","08:00","20.8","","9.3","","48","","0.0","","18","","35","","","","98.48","","","","","","NA"
"-121.58","50.22","LYTTON RCS","1114746","2021-07-16 09:00","2021","07","16","09:00","22.2","","9.3","","44","","0.0","","18","","40","","","","98.44","","","","","","NA"
"-121.58","50.22","LYTTON RCS","1114746","2021-07-16 10:00","2021","07","16","10:00","23.6","","9.4","","40","","0.0","","18","","41","","","","98.39","","25","","","","NA"
"-121.58","50.22","LYTTON RCS","1114746","2021-07-16 11:00","2021","07","16","11:00","25.0","","9.3","","37","","0.0","","18","","39","","","","98.38","","26","","","","NA"
"-121.58","50.22","LYTTON RCS","1114746","2021-07-16 12:00","2021","07","16","12:00","25.7","","9.4","","36","","0.0","","18","","39","","","","98.34","","27","","","","NA"
"-121.58","50.22","LYTTON RCS","1114746","2021-07-16 13:00","2021","07","16","13:00","26.4","","9.2","","34","","0.0","","19","","39","","","","98.27","","27","","","","NA"
"-121.58","50.22","LYTTON RCS","1114746","2021-07-16 14:00","2021","07","16","14:00","26.8","","9.2","","33","","0.0","","18","","44","","","","98.26","","28","","","","NA"
"-121.58","50.22","LYTTON RCS","1114746","2021-07-16 15:00","2021","07","16","15:00","26.6","","9.1","","33","","0.0","","18","","41","","","","98.26","","27","","","","NA"
"-121.58","50.22","LYTTON RCS","1114746","2021-07-16 16:00","2021","07","16","16:00","24.1","","8.8","","38","","0.0","","18","","42","","","","98.26","","25","","","","NA"
"-121.58","50.22","LYTTON RCS","1114746","2021-07-16 17:00","2021","07","16","17:00","23.9","","8.7","","38","","0.0","","19","","31","","","","98.30","","25","","","","NA"
"-121.58","50.22","LYTTON RCS","1114746","2021-07-16 18:00","2021","07","16","18:00","23.7","","8.4","","38","","0.0","","18","","38","","","","98.32","","","","","","NA"
"-121.58","50.22","LYTTON RCS","1114746","2021-07-16 19:00","2021","07","16","19:00","22.1","","8.2","","41","","0.0","","18","","39","","","","98.37","","","","","","NA"
"-121.58","50.22","LYTTON RCS","1114746","2021-07-16 20:00","2021","07","16","20:00","21.4","","7.9","","42","","0.0","","18","","27","","","","98.45","","","","","","NA"
"-121.58","50.22","LYTTON RCS","1114746","2021-07-16 21:00","2021","07","16","21:00","20.9","","7.6","","42","","0.0","","18","","32","","","","98.51","","","","","","NA"
"-121.58","50.22","LYTTON RCS","1114746","2021-07-16 22:00","2021","07","16","22:00","19.8","","8.1","","47","","0.0","","19","","24","","","","98.58","","","","","","NA"
"-121.58","50.22","LYTTON RCS","1114746","2021-07-16 23:00","2021","07","16","23:00","19.1","","8.4","","50","","0.0","","20","","20","","","","98.60","","","","","","NA"
"-121.58","50.22","LYTTON RCS","1114746","2021-07-17 00:00","2021","07","17","00:00","18.7","","8.8","","52","","0.0","","20","","24","","","","98.62","","","","","","NA"
"-121.58","50.22","LYTTON RCS","1114746","2021-07-17 01:00","2021","07","17","01:00","18.2","","9.0","","55","","0.0","","20","","26","","","","98.65","","","","","","NA"
"-121.58","50.22","LYTTON RCS","1114746","2021-07-17 02:00","2021","07","17","02:00","17.8","","9.2","","57","","0.0","","19","","21","","","","98.73","","","","","","NA"
"-121.58","50.22","LYTTON RCS","1114746","2021-07-17 03:00","2021","07","17","03:00","17.7","","9.2","","57","","0.0","","20","","21","","","","98.76","","","","","","NA"
"-121.58","50.22","LYTTON RCS","1114746","2021-07-17 04:00","2021","07","17","04:00","17.7","","9.3","","58","","0.0","","19","","21","","","","98.78","","","","","","NA"
"-121.58","50.22","LYTTON RCS","1114746","2021-07-17 05:00","2021","07","17","05:00","17.7","","9.7","","59","","0.0","","18","","24","","","","98.82","","","","","","NA"
"-121.58","50.22","LYTTON RCS","1114746","2021-07-17 06:00","2021","07","17","06:00","17.6","","9.9","","61","","0.0","","20","","20","","","","98.83","","","","","","NA"
"-121.58","50.22","LYTTON RCS","1114746","2021-07-17 07:00","2021","07","17","07:00","18.9","","10.1","","56","","0.0","","19","","22","","","","98.84","","","","","","NA"
"-121.58","50.22","LYTTON RCS","1114746","2021-07-17 08:00","2021","07","17","08:00","21.3","","9.2","","46","","0.0","","19","","23","","","","98.84","","","","","","NA"
"-121.58","50.22","LYTTON RCS","1114746","2021-07-17 09:00","2021","07","17","09:00","23.3","","9.7","","42","","0.0","","19","","25","","","","98.85","","","","","","NA"
"-121.58","50.22","LYTTON RCS","1114746","2021-07-17 10:00","2021","07","17","10:00","24.5","","9.3","","38","","0.0","","19","","30","","","","98.82","","25","","","","NA"
"-121.58","50.22","LYTTON RCS","1114746","2021-07-17 11:00","2021","07","17","11:00","23.9","","9.1","","39","","0.0","","19","","28","","","","98.78","","25","","","","NA"
"-121.58","50.22","LYTTON RCS","1114746","2021-07-17 12:00","2021","07","17","12:00","26.1","","9.0","","34","","0.0","","18","","36","","","","98.77","","27","","","","NA"
"-121.58","50.22","LYTTON RCS","1114746","2021-07-17 13:00","2021","07","17","13:00","27.3","","8.6","","31","","0.0","","18","","32","","","","98.78","","28","","","","NA"
"-121.58","50.22","LYTTON RCS","1114746","2021-07-17 14:00","2021","07","17","14:00","28.7","","7.9","","27","","0.0","","18","","29","","","","98.73","","29","","","","NA"
"-121.58","50.22","LYTTON RCS","1114746","2021-07-17 15:00","2021","07","17","15:00","26.4","","7.2","","30","","0.0","","19","","19","","","","98.72","","26","","","","NA"
"-121.58","50.22","LYTTON RCS","1114746","2021-07-17 16:00","2021","07","17","16:00","28.3","","6.8","","26","","0.0","","18","","25","","","","98.67","","28","","","","NA"
"-121.58","50.22","LYTTON RCS","1114746","2021-07-17 17:00","2021","07","17","17:00","27.9","","6.6","","26","","0.0","","19","","26","","","","98.64","","28","","","","NA"
"-121.58","50.22","LYTTON RCS","1114746","2021-07-17 18:00","2021","07","17","18:00","26.6","","6.4","","28","","0.0","","19","","24","","","","98.64","","26","","","","NA"
"-121.58","50.22","LYTTON RCS","1114746","2021-07-17 19:00","2021","07","17","19:00","24.7","","6.6","","31","","0.0","","19","","21","","","","98.68","","25","","","","NA"
"-121.58","50.22","LYTTON RCS","1114746","2021-07-17 20:00","2021","07","17","20:00","24.3","","6.7","","32","","0.0","","19","","22","","","","98.72","","","","","","NA"
"-121.58","50.22","LYTTON RCS","1114746","2021-07-17 21:00","2021","07","17","21:00","23.2","","6.8","","35","","0.0","","21","","17","","","","98.81","","","","","","NA"
"-121.58","50.22","LYTTON RCS","1114746","2021-07-17 22:00","2021","07","17","22:00","22.7","","7.4","","37","","0.0","","22","","16","","","","98.87","","","","","","NA"
"-121.58","50.22","LYTTON RCS","1114746","2021-07-17 23:00","2021","07","17","23:00","21.1","","9.2","","47","","0.0","","20","","24","","","","98.89","","","","","","NA"
"-121.58","50.22","LYTTON RCS","1114746","2021-07-18 00:00","2021","07","18","00:00","20.0","","9.6","","51","","0.0","","19","","26","","","","98.93","","","","","","NA"
"-121.58","50.22","LYTTON RCS","1114746","2021-07-18 01:00","2021","07","18","01:00","19.5","","9.9","","54","","0.0","","19","","25","","","","98.98","","","","","","NA"
"-121.58","50.22","LYTTON RCS","1114746","2021-07-18 02:00","2021","07","18","02:00","19.0","","9.9","","55","","0.0","","18","","30","","","","99.03","","","","","","NA"
"-121.58","50.22","LYTTON RCS","1114746","2021-07-18 03:00","2021","07","18","03:00","18.2","","10.0","","59","","0.0","","18","","23","","","","99.08","","","","","","NA"
"-121.58","50.22","LYTTON RCS","1114746","2021-07-18 04:00","2021","07","18","04:00","17.6","","10.0","","61","","0.0","","18","","24","","","","99.12","","","","","","NA"
"-121.58","50.22","LYTTON RCS","1114746","2021-07-18 05:00","2021","07","18","05:00","17.0","","10.1","","64","","0.0","","17","","31","","","","99.16","","","","","","NA"
"-121.58","50.22","LYTTON RCS","1114746","2021-07-18 06:00","2021","07","18","06:00","16.7","","9.9","","64","","0.0","","17","","31","","","","99.19","","","","","","NA"
"-121.58","50.22","LYTTON RCS","1114746","2021-07-18 07:00","2021","07","18","07:00","18.1","","10.5","","61","","0.0","","17","","26","","","","99.19","","","","","","NA"
"-121.58","50.22","LYTTON RCS","1114746","2021-07-18 08:00","2021","07","18","08:00","20.5","","10.5","","53","","0.0","","17","","31","","","","99.17","","","","","","NA"
"-121.58","50.22","LYTTON RCS","1114746","2021-07-18 09:00","2021","07","18","09:00","22.9","","10.1","","44","","0.0","","18","","30","","","","99.12","","","","","","NA"
"-121.58","50.22","LYTTON RCS","1114746","2021-07-18 10:00","2021","07","18","10:00","25.0","","9.5","","37","","0.0","","18","","27","","","","99.06","","26","","","","NA"
"-121.58","50.22","LYTTON RCS","1114746","2021-07-18 11:00","2021","07","18","11:00","27.2","","8.8","","31","","0.0","","18","","27","","","","99.00","","28","","","","NA"
"-121.58","50.22","LYTTON RCS","1114746","2021-07-18 12:00","2021","07","18","12:00","28.5","","8.5","","28","","0.0","","18","","26","","","","98.95","","29","","","","NA"
"-121.58","50.22","LYTTON RCS","1114746","2021-07-18 13:00","2021","07","18","13:00","29.8","","8.0","","26","","0.0","","18","","32","","","","98.88","","30","","","","NA"
"-121.58","50.22","LYTTON RCS","1114746","2021-07-18 14:00","2021","07","18","14:00","30.6","","7.2","","23","","0.0","","18","","28","","","","98.85","","31","","","","NA"
"-121.58","50.22","LYTTON RCS","1114746","2021-07-18 15:00","2021","07","18","15:00","30.8","","6.6","","22","","0.0","","19","","27","","","","98.82","","31","","","","NA"
"-121.58","50.22","LYTTON RCS","1114746","2021-07-18 16:00","2021","07","18","16:00","30.6","","5.4","","20","","0.0","","18","","31","","","","98.79","","30","","","","NA"
"-121.58","50.22","LYTTON RCS","1114746","2021-07-18 17:00","2021","07","18","17:00","30.5","","5.6","","21","","0.0","","18","","23","","","","98.81","","30","","","","NA"
"-121.58","50.22","LYTTON RCS","1114746","2021-07-18 18:00","2021","07","18","18:00","29.3","","5.4","","22","","0.0","","18","","25","","","","98.82","","29","","","","NA"
"-121.58","50.22","LYTTON RCS","1114746","2021-07-18 19:00","2021","07","18","19:00","26.8","","6.2","","27","","0.0","","19","","17","","","","98.86","","27","","","","NA"
"-121.58","50.22","LYTTON RCS","1114746","2021-07-18 20:00","2021","07","18","20:00","25.6","","5.8","","28","","0.0","","19","","16","","","","98.90","","25","","","","NA"
"-121.58","50.22","LYTTON RCS","1114746","2021-07-18 21:00","2021","07","18","21:00","24.2","","5.9","","31","","0.0","","19","","12","","","","98.96","","","","","","NA"
"-121.58","50.22","LYTTON RCS","1114746","2021-07-18 22:00","2021","07","18","22:00","23.1","","5.5","","32","","0.0","","18","","16","","","","99.01","","","","","","NA"
"-121.58","50.22","LYTTON RCS","1114746","2021-07-18 23:00","2021","07","18","23:00","22.9","","5.4","","32","","0.0","","14","","16","","","","99.03","","","","","","NA"
"-121.58","50.22","LYTTON RCS","1114746","2021-07-19 00:00","2021","07","19","00:00","22.1","","5.5","","34","","0.0","","17","","23","","","","99.05","","","","","","NA"
"-121.58","50.22","LYTTON RCS","1114746","2021-07-19 01:00","2021","07","19","01:00","21.2","","6.0","","37","","0.0","","16","","18","","","","99.11","","","","","","NA"
"-121.58","50.22","LYTTON RCS","1114746","2021-07-19 02:00","2021","07","19","02:00","19.1","","6.6","","44","","0.0","","18","","3","","","","99.17","","","","","","NA"
"-121.58","50.22","LYTTON RCS","1114746","2021-07-19 03:00","2021","07","19","03:00","17.5","","6.6","","49","","0.0","","21","","4","","","","99.21","","","","","","NA"
"-121.58","50.22","LYTTON RCS","1114746","2021-07-19 04:00","2021","07","19","04:00","15.8","","7.7","","59","","0.0","","16","","5","","","","99.22","","","","","","NA"
"-121.58","50.22","LYTTON RCS","1114746","2021-07-19 05:00","2021","07","19","05:00","14.8","","7.5","","62","","0.0","","16","","5","","","","99.26","","","","","","NA"
"-121.58","50.22","LYTTON RCS","1114746","2021-07-19 06:00","2021","07","19","06:00","14.7","","8.3","","65","","0.0","","19","","4","","","","99.30","","","","","","NA"
"-121.58","50.22","LYTTON RCS","1114746","2021-07-19 07:00","2021","07","19","07:00","15.6","","7.6","","59","","0.0","","16","","10","","","","99.27","","","","","","NA"
"-121.58","50.22","LYTTON RCS","1114746","2021-07-19 08:00","2021","07","19","08:00","19.7","","6.7","","43","","0.0","","15","","8","","","","99.22","","","","","","NA"
"-121.58","50.22","LYTTON RCS","1114746","2021-07-19 09:00","2021","07","19","09:00","22.8","","5.7","","33","","0.0","","17","","4","","","","99.14","","","","","","NA"
"-121.58","50.22","LYTTON RCS","1114746","2021-07-19 10:00","2021","07","19","10:00","25.3","","5.7","","28","","0.0","","23","","3","","","","99.02","","25","","","","NA"
"-121.58","50.22","LYTTON RCS","1114746","2021-07-19 11:00","2021","07","19","11:00","28.0","","6.0","","25","","0.0","","18","","7","","","","98.87","","28","","","","NA"
"-121.58","50.22","LYTTON RCS","1114746","2021-07-19 12:00","2021","07","19","12:00","31.7","","5.2","","19","","0.0","","32","","3","","","","98.71","","31","","","","NA"
"-121.58","50.22","LYTTON RCS","1114746","2021-07-19 13:00","2021","07","19","13:00","34.5","","4.4","","15","","0.0","","18","","22","","","","98.60","","34","","","","NA"
"-121.58","50.22","LYTTON RCS","1114746","2021-07-19 14:00","2021","07","19","14:00","35.3","","3.5","","14","","0.0","","18","","22","","","","98.53","","34","","","","NA"
"-121.58","50.22","LYTTON RCS","1114746","2021-07-19 15:00","2021","07","19","15:00","35.0","","1.7","","12","","0.0","","18","","30","","","","98.49","","33","","","","NA"
"-121.58","50.22","LYTTON RCS","1114746","2021-07-19 16:00","2021","07","19","16:00","34.3","","0.7","","12","","0.0","","18","","33","","","","98.44","","32","","","","NA"
"-121.58","50.22","LYTTON RCS","1114746","2021-07-19 17:00","2021","07","19","17:00","33.2","","3.6","","16","","0.0","","17","","31","","","","98.45","","32","","","","NA"
"-121.58","50.22","LYTTON RCS","1114746","2021-07-19 18:00","2021","07","19","18:00","31.6","","4.7","","18","","0.0","","18","","31","","","","98.44","","31","","","","NA"
"-121.58","50.22","LYTTON RCS","1114746","2021-07-19 19:00","2021","07","19","19:00","29.4","","3.6","","19","","0.0","","18","","20","","","","98.48","","28","","","","NA"
"-121.58","50.22","LYTTON RCS","1114746","2021-07-19 20:00","2021","07","19","20:00","28.4","","4.1","","21","","0.0","","18","","15","","","","98.54","","27","","","","NA"
"-121.58","50.22","LYTTON RCS","1114746","2021-07-19 21:00","2021","07","19","21:00","27.3","","6.1","","26","","0.0","","19","","21","","","","98.62","","27","","","","NA"
"-121.58","50.22","LYTTON RCS","1114746","2021-07-19 22:00","2021","07","19","22:00","25.6","","7.0","","30","","0.0","","21","","18","","","","98.68","","26","","","","NA"
"-121.58","50.22","LYTTON RCS","1114746","2021-07-19 23:00","2021","07","19","23:00","24.3","","7.7","","34","","0.0","","20","","19","","","","98.71","","25","","","","NA"
"-121.58","50.22","LYTTON RCS","1114746","2021-07-20 00:00","2021","07","20","00:00","23.2","","7.8","","37","","0.0","","19","","24","","","","98.72","","","","","","NA"
"-121.58","50.22","LYTTON RCS","1114746","2021-07-20 01:00","2021","07","20","01:00","22.4","","7.4","","38","","0.0","","20","","25","","","","98.76","","","","","","NA"
"-121.58","50.22","LYTTON RCS","1114746","2021-07-20 02:00","2021","07","20","02:00","21.6","","7.3","","39","","0.0","","20","","20","","","","98.80","","","","","","NA"
"-121.58","50.22","LYTTON RCS","1114746","2021-07-20 03:00","2021","07","20","03:00","21.2","","7.2","","40","","0.0","","20","","21","","","","98.87","","","","","","NA"
"-121.58","50.22","LYTTON RCS","1114746","2021-07-20 04:00","2021","07","20","04:00","20.6","","7.5","","43","","0.0","","20","","19","","","","98.92","","","","","","NA"
"-121.58","50.22","LYTTON RCS","1114746","2021-07-20 05:00","2021","07","20","05:00","19.7","","7.8","","46","","0.0","","20","","23","","","","98.95","","","","","","NA"
"-121.58","50.22","LYTTON RCS","1114746","2021-07-20 06:00","2021","07","20","06:00","19.4","","8.3","","49","","0.0","","19","","26","","","","98.97","","","","","","NA"
"-121.58","50.22","LYTTON RCS","1114746","2021-07-20 07:00","2021","07","20","07:00","20.6","","8.4","","46","","0.0","","19","","26","","","","98.97","","","","","","NA"
"-121.58","50.22","LYTTON RCS","1114746","2021-07-20 08:00","2021","07","20","08:00","22.7","","8.6","","40","","0.0","","19","","21","","","","98.96","","","","","","NA"
"-121.58","50.22","LYTTON RCS","1114746","2021-07-20 09:00","2021","07","20","09:00","24.9","","9.0","","36","","0.0","","19","","23","","","","98.90","","26","","","","NA"
"-121.58","50.22","LYTTON RCS","1114746","2021-07-20 10:00","2021","07","20","10:00","26.6","","7.7","","30","","0.0","","18","","28","","","","98.82","","27","","","","NA"
"-121.58","50.22","LYTTON RCS","1114746","2021-07-20 11:00","2021","07","20","11:00","28.3","","7.2","","26","","0.0","","18","","29","","","","98.76","","28","","","","NA"
"-121.58","50.22","LYTTON RCS","1114746","2021-07-20 12:00","2021","07","20","12:00","29.4","","6.7","","24","","0.0","","18","","24","","","","98.70","","29","","","","NA"
"-121.58","50.22","LYTTON RCS","1114746","2021-07-20 13:00","2021","07","20","13:00","30.6","","6.7","","22","","0.0","","18","","24","","","","98.65","","30","","","","NA"
"-121.58","50.22","LYTTON RCS","1114746","2021-07-20 14:00","2021","07","20","14:00","30.4","","6.0","","22","","0.0","","18","","32","","","","98.55","","30","","","","NA"
"-121.58","50.22","LYTTON RCS","1114746","2021-07-20 15:00","2021","07","20","15:00","30.3","","6.0","","22","","0.0","","18","","34","","","","98.51","","30","","","","NA"
"-121.58","50.22","LYTTON RCS","1114746","2021-07-20 16:00","2021","07","20","16:00","29.8","","5.7","","22","","0.0","","18","","38","","","","98.47","","29","","","","NA"
"-121.58","50.22","LYTTON RCS","1114746","2021-07-20 17:00","2021","07","20","17:00","29.5","","6.0","","23","","0.0","","18","","30","","","","98.43","","29","","","","NA"
"-121.58","50.22","LYTTON RCS","1114746","2021-07-20 18:00","2021","07","20","18:00","27.9","","6.3","","25","","0.0","","18","","37","","","","98.40","","28","","","","NA"
"-121.58","50.22","LYTTON RCS","1114746","2021-07-20 19:00","2021","07","20","19:00","26.0","","6.7","","29","","0.0","","18","","32","","","","98.41","","26","","","","NA"
"-121.58","50.22","LYTTON RCS","1114746","2021-07-20 20:00","2021","07","20","20:00","24.8","","7.2","","32","","0.0","","18","","33","","","","98.44","","25","","","","NA"
"-121.58","50.22","LYTTON RCS","1114746","2021-07-20 21:00","2021","07","20","21:00","23.7","","7.3","","35","","0.0","","19","","27","","","","98.50","","","","","","NA"
"-121.58","50.22","LYTTON RCS","1114746","2021-07-20 22:00","2021","07","20","22:00","22.5","","7.2","","37","","0.0","","19","","31","","","","98.54","","","","","","NA"
"-121.58","50.22","LYTTON RCS","1114746","2021-07-20 23:00","2021","07","20","23:00","21.0","","7.6","","42","","0.0","","19","","24","","","","98.61","","","","","","NA"
"-121.58","50.22","LYTTON RCS","1114746","2021-07-21 00:00","2021","07","21","00:00","19.9","","8.0","","46","","0.0","","20","","25","","","","98.65","","","","","","NA"
"-121.58","50.22","LYTTON RCS","1114746","2021-07-21 01:00","2021","07","21","01:00","19.0","","8.1","","49","","0.0","","20","","25","","","","98.68","","","","","","NA"
"-121.58","50.22","LYTTON RCS","1114746","2021-07-21 02:00","2021","07","21","02:00","18.2","","8.2","","52","","0.0","","20","","28","","","","98.72","","","","","","NA"
"-121.58","50.22","LYTTON RCS","1114746","2021-07-21 03:00","2021","07","21","03:00","17.5","","8.0","","54","","0.0","","19","","26","","","","98.77","","","","","","NA"
"-121.58","50.22","LYTTON RCS","1114746","2021-07-21 04:00","2021","07","21","04:00","17.0","","7.9","","55","","0.0","","19","","25","","","","98.80","","","","","","NA"
"-121.58","50.22","LYTTON RCS","1114746","2021-07-21 05:00","2021","07","21","05:00","16.7","","8.2","","57","","0.0","","19","","24","","","","98.85","","","","","","NA"
"-121.58","50.22","LYTTON RCS","1114746","2021-07-21 06:00","2021","07","21","06:00","16.5","","8.0","","57","","0.0","","19","","25","","","","98.87","","","","","","NA"
"-121.58","50.22","LYTTON RCS","1114746","2021-07-21 07:00","2021","07","21","07:00","17.7","","7.9","","53","","0.0","","19","","23","","","","98.85","","","","","","NA"
"-121.58","50.22","LYTTON RCS","1114746","2021-07-21 08:00","2021","07","21","08:00","19.6","","7.9","","47","","0.0","","18","","32","","","","98.82","","","","","","NA"
"-121.58","50.22","LYTTON RCS","1114746","2021-07-21 09:00","2021","07","21","09:00","21.8","","7.3","","39","","0.0","","18","","33","","","","98.77","","","","","","NA"
"-121.58","50.22","LYTTON RCS","1114746","2021-07-21 10:00","2021","07","21","10:00","24.2","","5.9","","31","","0.0","","18","","31","","","","98.67","","","","","","NA"
"-121.58","50.22","LYTTON RCS","1114746","2021-07-21 11:00","2021","07","21","11:00","25.3","","4.9","","27","","0.0","","18","","37","","","","98.62","","25","","","","NA"
"-121.58","50.22","LYTTON RCS","1114746","2021-07-21 12:00","2021","07","21","12:00","25.8","","4.5","","25","","0.0","","18","","39","","","","98.60","","25","","","","NA"
"-121.58","50.22","LYTTON RCS","1114746","2021-07-21 13:00","2021","07","21","13:00","26.3","","3.4","","23","","0.0","","18","","36","","","","98.58","","25","","","","NA"
"-121.58","50.22","LYTTON RCS","1114746","2021-07-21 14:00","2021","07","21","14:00","26.9","","3.4","","22","","0.0","","18","","37","","","","98.58","","26","","","","NA"
"-121.58","50.22","LYTTON RCS","1114746","2021-07-21 15:00","2021","07","21","15:00","25.7","","4.6","","26","","0.0","","18","","35","","","","98.59","","25","","","","NA"
"-121.58","50.22","LYTTON RCS","1114746","2021-07-21 16:00","2021","07","21","16:00","24.1","","4.2","","27","","0.0","","18","","45","","","","98.60","","","","","","NA"
"-121.58","50.22","LYTTON RCS","1114746","2021-07-21 17:00","2021","07","21","17:00","24.1","","4.3","","28","","0.0","","18","","38","","","","98.64","","","","","","NA"
"-121.58","50.22","LYTTON RCS","1114746","2021-07-21 18:00","2021","07","21","18:00","21.9","","4.4","","32","","0.0","","18","","41","","","","98.68","","","","","","NA"
"-121.58","50.22","LYTTON RCS","1114746","2021-07-21 19:00","2021","07","21","19:00","21.0","","4.3","","33","","0.0","","18","","34","","","","98.72","","","","","","NA"
"-121.58","50.22","LYTTON RCS","1114746","2021-07-21 20:00","2021","07","21","20:00","20.2","","4.1","","35","","0.0","","18","","27","","","","98.76","","","","","","NA"
"-121.58","50.22","LYTTON RCS","1114746","2021-07-21 21:00","2021","07","21","21:00","19.2","","3.9","","36","","0.0","","21","","14","","","","98.87","","","","","","NA"
"-121.58","50.22","LYTTON RCS","1114746","2021-07-21 22:00","2021","07","21","22:00","18.8","","4.1","","38","","0.0","","21","","16","","","","98.93","","","","","","NA"
"-121.58","50.22","LYTTON RCS","1114746","2021-07-21 23:00","2021","07","21","23:00","17.6","","4.5","","42","","0.0","","19","","19","","","","99.00","","","","","","NA"
"-121.58","50.22","LYTTON RCS","1114746","2021-07-22 00:00","2021","07","22","00:00","17.1","","4.6","","44","","0.0","","20","","23","","","","99.03","","","","","","NA"
"-121.58","50.22","LYTTON RCS","1114746","2021-07-22 01:00","2021","07","22","01:00","16.6","","4.8","","46","","0.0","","20","","20","","","","99.05","","","","","","NA"
"-121.58","50.22","LYTTON RCS","1114746","2021-07-22 02:00","2021","07","22","02:00","16.2","","5.0","","47","","0.0","","19","","22","","","","99.09","","","","","","NA"
"-121.58","50.22","LYTTON RCS","1114746","2021-07-22 03:00","2021","07","22","03:00","15.9","","4.9","","48","","0.0","","20","","22","","","","99.08","","","","","","NA"
"-121.58","50.22","LYTTON RCS","1114746","2021-07-22 04:00","2021","07","22","04:00","15.8","","5.0","","49","","0.0","","18","","23","","","","99.12","","","","","","NA"
"-121.58","50.22","LYTTON RCS","1114746","2021-07-22 05:00","2021","07","22","05:00","15.6","","5.0","","49","","0.0","","18","","27","","","","99.18","","","","","","NA"
"-121.58","50.22","LYTTON RCS","1114746","2021-07-22 06:00","2021","07","22","06:00","15.0","","5.2","","52","","0.0","","19","","24","","","","99.20","","","","","","NA"
"-121.58","50.22","LYTTON RCS","1114746","2021-07-22 07:00","2021","07","22","07:00","15.9","","5.6","","50","","0.0","","17","","30","","","","99.21","","","","","","NA"
"-121.58","50.22","LYTTON RCS","1114746","2021-07-22 08:00","2021","07","22","08:00","18.8","","6.0","","43","","0.0","","18","","29","","","","99.19","","","","","","NA"
"-121.58","50.22","LYTTON RCS","1114746","2021-07-22 09:00","2021","07","22","09:00","20.7","","5.4","","37","","0.0","","17","","30","","","","99.14","","","","","","NA"
"-121.58","50.22","LYTTON RCS","1114746","2021-07-22 10:00","2021","07","22","10:00","22.8","","5.0","","31","","0.0","","18","","23","","","","99.11","","","","","","NA"
"-121.58","50.22","LYTTON RCS","1114746","2021-07-22 11:00","2021","07","22","11:00","24.8","","4.5","","27","","0.0","","17","","24","","","","99.03","","","","","","NA"
"-121.58","50.22","LYTTON RCS","1114746","2021-07-22 12:00","2021","07","22","12:00","26.1","","4.3","","25","","0.0","","18","","24","","","","98.97","","25","","","","NA"
"-121.58","50.22","LYTTON RCS","1114746","2021-07-22 13:00","2021","07","22","13:00","28.0","","4.6","","23","","0.0","","18","","19","","","","98.95","","27","","","","NA"
"-121.58","50.22","LYTTON RCS","1114746","2021-07-22 14:00","2021","07","22","14:00","27.4","","3.7","","22","","0.0","","18","","24","","","","98.90","","26","","","","NA"
"-121.58","50.22","LYTTON RCS","1114746","2021-07-22 15:00","2021","07","22","15:00","28.1","","4.2","","22","","0.0","","18","","23","","","","98.87","","27","","","","NA"
"-121.58","50.22","LYTTON RCS","1114746","2021-07-22 16:00","2021","07","22","16:00","27.7","","4.1","","22","","0.0","","19","","25","","","","98.83","","27","","","","NA"
"-121.58","50.22","LYTTON RCS","1114746","2021-07-22 17:00","2021","07","22","17:00","27.2","","4.1","","23","","0.0","","19","","24","","","","98.80","","26","","","","NA"
"-121.58","50.22","LYTTON RCS","1114746","2021-07-22 18:00","2021","07","22","18:00","26.1","","4.3","","25","","0.0","","21","","13","","","","98.81","","25","","","","NA"
"-121.58","50.22","LYTTON RCS","1114746","2021-07-22 19:00","2021","07","22","19:00","24.7","","4.8","","28","","0.0","","17","","23","","","","98.83","","","","","","NA"
"-121.58","50.22","LYTTON RCS","1114746","2021-07-22 20:00","2021","07","22","20:00","23.5","","5.2","","31","","0.0","","17","","26","","","","98.89","","","","","","NA"
"-121.58","50.22","LYTTON RCS","1114746","2021-07-22 21:00","2021","07","22","21:00","22.4","","5.1","","33","","0.0","","20","","15","","","","98.96","","","","","","NA"
"-121.58","50.22","LYTTON RCS","1114746","2021-07-22 22:00","2021","07","22","22:00","21.7","","5.6","","35","","0.0","","21","","15","","","","99.02","","","","","","NA"
"-121.58","50.22","LYTTON RCS","1114746","2021-07-22 23:00","2021","07","22","23:00","20.9","","6.4","","39","","0.0","","21","","20","","","","99.06","","","","","","NA"
"-121.58","50.22","LYTTON RCS","1114746","2021-07-23 00:00","2021","07","23","00:00","20.2","","6.7","","41","","0.0","","20","","21","","","","99.09","","","","","","NA"
"-121.58","50.22","LYTTON RCS","1114746","2021-07-23 01:00","2021","07","23","01:00","19.6","","6.8","","43","","0.0","","19","","21","","","","99.13","","","","","","NA"
"-121.58","50.22","LYTTON RCS","1114746","2021-07-23 02:00","2021","07","23","02:00","18.9","","6.4","","44","","0.0","","19","","25","","","","99.15","","","","","","NA"
"-121.58","50.22","LYTTON RCS","1114746","2021-07-23 03:00","2021","07","23","03:00","18.5","","6.2","","44","","0.0","","18","","25","","","","99.20","","","","","","NA"
"-121.58","50.22","LYTTON RCS","1114746","2021-07-23 04:00","2021","07","23","04:00","18.0","","6.2","","46","","0.0","","19","","23","","","","99.23","","","","","","NA"
"-121.58","50.22","LYTTON RCS","1114746","2021-07-23 05:00","2021","07","23","05:00","18.0","","6.1","","46","","0.0","","19","","23","","","","99.29","","","","","","NA"
"-121.58","50.22","LYTTON RCS","1114746","2021-07-23 06:00","2021","07","23","06:00","17.6","","6.5","","48","","0.0","","19","","24","","","","99.33","","","","","","NA"
"-121.58","50.22","LYTTON RCS","1114746","2021-07-23 07:00","2021","07","23","07:00","18.5","","6.9","","47","","0.0","","17","","33","","","","99.35","","","","","","NA"
"-121.58","50.22","LYTTON RCS","1114746","2021-07-23 08:00","2021","07","23","08:00","20.6","","6.9","","41","","0.0","","18","","31","","","","99.36","","","","","","NA"
"-121.58","50.22","LYTTON RCS","1114746","2021-07-23 09:00","2021","07","23","09:00","23.5","","6.7","","34","","0.0","","18","","28","","","","99.36","","","","","","NA"
"-121.58","50.22","LYTTON RCS","1114746","2021-07-23 10:00","2021","07","23","10:00","24.7","","6.5","","31","","0.0","","18","","29","","","","99.31","","25","","","","NA"
"-121.58","50.22","LYTTON RCS","1114746","2021-07-23 11:00","2021","07","23","11:00","27.0","","7.0","","28","","0.0","","18","","24","","","","99.29","","27","","","","NA"
"-121.58","50.22","LYTTON RCS","1114746","2021-07-23 12:00","2021","07","23","12:00","28.7","","6.6","","25","","0.0","","18","","24","","","","99.27","","29","","","","NA"
"-121.58","50.22","LYTTON RCS","1114746","2021-07-23 13:00","2021","07","23","13:00","29.9","","6.4","","23","","0.0","","19","","16","","","","99.23","","30","","","","NA"
"-121.58","50.22","LYTTON RCS","1114746","2021-07-23 14:00","2021","07","23","14:00","31.4","","6.6","","21","","0.0","","19","","13","","","","99.20","","31","","","","NA"
"-121.58","50.22","LYTTON RCS","1114746","2021-07-23 15:00","2021","07","23","15:00","30.6","","5.1","","20","","0.0","","19","","19","","","","99.16","","30","","","","NA"
"-121.58","50.22","LYTTON RCS","1114746","2021-07-23 16:00","2021","07","23","16:00","30.4","","6.4","","22","","0.0","","18","","21","","","","99.12","","30","","","","NA"
"-121.58","50.22","LYTTON RCS","1114746","2021-07-23 17:00","2021","07","23","17:00","29.9","","6.8","","24","","0.0","","20","","17","","","","99.11","","30","","","","NA"
"-121.58","50.22","LYTTON RCS","1114746","2021-07-23 18:00","2021","07","23","18:00","28.4","","6.4","","25","","0.0","","18","","15","","","","99.13","","28","","","","NA"
"-121.58","50.22","LYTTON RCS","1114746","2021-07-23 19:00","2021","07","23","19:00","26.8","","6.3","","27","","0.0","","23","","4","","","","99.13","","27","","","","NA"
"-121.58","50.22","LYTTON RCS","1114746","2021-07-23 20:00","2021","07","23","20:00","25.5","","6.3","","29","","0.0","","22","","10","","","","99.19","","25","","","","NA"
"-121.58","50.22","LYTTON RCS","1114746","2021-07-23 21:00","2021","07","23","21:00","24.7","","6.9","","32","","0.0","","20","","15","","","","99.25","","25","","","","NA"
"-121.58","50.22","LYTTON RCS","1114746","2021-07-23 22:00","2021","07","23","22:00","23.8","","7.5","","35","","0.0","","20","","18","","","","99.27","","","","","","NA"
"-121.58","50.22","LYTTON RCS","1114746","2021-07-23 23:00","2021","07","23","23:00","22.8","","8.1","","39","","0.0","","19","","19","","","","99.29","","","","","","NA"
"-121.58","50.22","LYTTON RCS","1114746","2021-07-24 00:00","2021","07","24","00:00","21.9","","8.7","","43","","0.0","","19","","19","","","","99.34","","","","","","NA"
"-121.58","50.22","LYTTON RCS","1114746","2021-07-24 01:00","2021","07","24","01:00","21.1","","8.7","","45","","0.0","","18","","31","","","","99.35","","","","","","NA"
"-121.58","50.22","LYTTON RCS","1114746","2021-07-24 02:00","2021","07","24","02:00","20.4","","8.8","","47","","0.0","","17","","33","","","","99.37","","","","","","NA"
"-121.58","50.22","LYTTON RCS","1114746","2021-07-24 03:00","2021","07","24","03:00","19.6","","8.6","","49","","0.0","","17","","29","","","","99.37","","","","","","NA"
"-121.58","50.22","LYTTON RCS","1114746","2021-07-24 04:00","2021","07","24","04:00","18.8","","8.8","","52","","0.0","","17","","30","","","","99.39","","","","","","NA"
"-121.58","50.22","LYTTON RCS","1114746","2021-07-24 05:00","2021","07","24","05:00","18.3","","8.8","","54","","0.0","","15","","13","","","","99.44","","","","","","NA"
"-121.58","50.22","LYTTON RCS","1114746","2021-07-24 06:00","2021","07","24","06:00","17.7","","8.7","","55","","0.0","","14","","6","","","","99.49","","","","","","NA"
"-121.58","50.22","LYTTON RCS","1114746","2021-07-24 07:00","2021","07","24","07:00","18.1","","9.1","","56","","0.0","","14","","5","","","","99.50","","","","","","NA"
"-121.58","50.22","LYTTON RCS","1114746","2021-07-24 08:00","2021","07","24","08:00","21.3","","9.3","","46","","0.0","","16","","6","","","","99.41","","","","","","NA"
"-121.58","50.22","LYTTON RCS","1114746","2021-07-24 09:00","2021","07","24","09:00","24.1","","9.3","","39","","0.0","","17","","24","","","","99.31","","25","","","","NA"
"-121.58","50.22","LYTTON RCS","1114746","2021-07-24 10:00","2021","07","24","10:00","26.4","","9.5","","34","","0.0","","18","","31","","","","99.20","","27","","","","NA"
"-121.58","50.22","LYTTON RCS","1114746","2021-07-24 11:00","2021","07","24","11:00","28.3","","9.4","","31","","0.0","","18","","31","","","","99.06","","29","","","","NA"
"-121.58","50.22","LYTTON RCS","1114746","2021-07-24 12:00","2021","07","24","12:00","30.6","","9.9","","28","","0.0","","18","","23","","","","98.95","","32","","","","NA"
"-121.58","50.22","LYTTON RCS","1114746","2021-07-24 13:00","2021","07","24","13:00","33.0","","10.1","","24","","0.0","","18","","24","","","","98.81","","34","","","","NA"
"-121.58","50.22","LYTTON RCS","1114746","2021-07-24 14:00","2021","07","24","14:00","33.5","","9.3","","23","","0.0","","19","","23","","","","98.74","","34","","","","NA"
"-121.58","50.22","LYTTON RCS","1114746","2021-07-24 15:00","2021","07","24","15:00","34.2","","9.4","","22","","0.0","","18","","23","","","","98.67","","35","","","","NA"
"-121.58","50.22","LYTTON RCS","1114746","2021-07-24 16:00","2021","07","24","16:00","34.2","","9.2","","22","","0.0","","19","","18","","","","98.62","","35","","","","NA"
"-121.58","50.22","LYTTON RCS","1114746","2021-07-24 17:00","2021","07","24","17:00","33.5","","9.2","","22","","0.0","","19","","14","","","","98.59","","34","","","","NA"
"-121.58","50.22","LYTTON RCS","1114746","2021-07-24 18:00","2021","07","24","18:00","31.6","","9.0","","25","","0.0","","25","","4","","","","98.58","","32","","","","NA"
"-121.58","50.22","LYTTON RCS","1114746","2021-07-24 19:00","2021","07","24","19:00","29.6","","9.4","","28","","0.0","","22","","4","","","","98.58","","31","","","","NA"
"-121.58","50.22","LYTTON RCS","1114746","2021-07-24 20:00","2021","07","24","20:00","28.9","","9.6","","30","","0.0","","21","","13","","","","98.63","","30","","","","NA"
"-121.58","50.22","LYTTON RCS","1114746","2021-07-24 21:00","2021","07","24","21:00","27.9","","10.3","","33","","0.0","","20","","15","","","","98.70","","29","","","","NA"
"-121.58","50.22","LYTTON RCS","1114746","2021-07-24 22:00","2021","07","24","22:00","27.0","","10.8","","36","","0.0","","20","","16","","","","98.74","","29","","","","NA"
"-121.58","50.22","LYTTON RCS","1114746","2021-07-24 23:00","2021","07","24","23:00","25.6","","11.1","","40","","0.0","","19","","21","","","","98.77","","27","","","","NA"
"-121.58","50.22","LYTTON RCS","1114746","2021-07-25 00:00","2021","07","25","00:00","24.3","","11.1","","43","","0.0","","18","","29","","","","98.81","","26","","","","NA"
"-121.58","50.22","LYTTON RCS","1114746","2021-07-25 01:00","2021","07","25","01:00","23.4","","11.0","","46","","0.0","","18","","32","","","","98.84","","25","","","","NA"
"-121.58","50.22","LYTTON RCS","1114746","2021-07-25 02:00","2021","07","25","02:00","22.5","","11.0","","48","","0.0","","18","","31","","","","98.86","","","","","","NA"
"-121.58","50.22","LYTTON RCS","1114746","2021-07-25 03:00","2021","07","25","03:00","21.8","","11.1","","51","","0.0","","17","","34","","","","98.89","","","","","","NA"
"-121.58","50.22","LYTTON RCS","1114746","2021-07-25 04:00","2021","07","25","04:00","21.1","","11.1","","53","","0.0","","16","","20","","","","98.93","","","","","","NA"
"-121.58","50.22","LYTTON RCS","1114746","2021-07-25 05:00","2021","07","25","05:00","20.3","","11.1","","56","","0.0","","16","","17","","","","98.97","","","","","","NA"
"-121.58","50.22","LYTTON RCS","1114746","2021-07-25 06:00","2021","07","25","06:00","20.0","","11.3","","57","","0.0","","16","","13","","","","99.01","","","","","","NA"
"-121.58","50.22","LYTTON RCS","1114746","2021-07-25 07:00","2021","07","25","07:00","20.7","","11.6","","56","","0.0","","14","","10","","","","99.00","","","","","","NA"
"-121.58","50.22","LYTTON RCS","1114746","2021-07-25 08:00","2021","07","25","08:00","23.5","","11.6","","47","","0.0","","18","","26","","","","98.92","","26","","","","NA"
"-121.58","50.22","LYTTON RCS","1114746","2021-07-25 09:00","2021","07","25","09:00","25.9","","11.5","","41","","0.0","","17","","33","","","","98.82","","28","","","","NA"
"-121.58","50.22","LYTTON RCS","1114746","2021-07-25 10:00","2021","07","25","10:00","28.1","","11.8","","36","","0.0","","18","","28","","","","98.73","","30","","","","NA"
"-121.58","50.22","LYTTON RCS","1114746","2021-07-25 11:00","2021","07","25","11:00","30.8","","11.3","","30","","0.0","","18","","27","","","","98.63","","33","","","","NA"
"-121.58","50.22","LYTTON RCS","1114746","2021-07-25 12:00","2021","07","25","12:00","32.8","","10.4","","25","","0.0","","19","","18","","","","98.53","","34","","","","NA"
"-121.58","50.22","LYTTON RCS","1114746","2021-07-25 13:00","2021","07","25","13:00","34.2","","10.3","","23","","0.0","","18","","26","","","","98.42","","36","","","","NA"
"-121.58","50.22","LYTTON RCS","1114746","2021-07-25 14:00","2021","07","25","14:00","34.4","","9.3","","21","","0.0","","18","","30","","","","98.34","","35","","","","NA"
"-121.58","50.22","LYTTON RCS","1114746","2021-07-25 15:00","2021","07","25","15:00","34.3","","8.9","","21","","0.0","","18","","30","","","","98.33","","35","","","","NA"
"-121.58","50.22","LYTTON RCS","1114746","2021-07-25 16:00","2021","07","25","16:00","33.1","","8.9","","23","","0.0","","18","","30","","","","98.32","","34","","","","NA"
"-121.58","50.22","LYTTON RCS","1114746","2021-07-25 17:00","2021","07","25","17:00","31.6","","9.3","","25","","0.0","","18","","27","","","","98.31","","33","","","","NA"
"-121.58","50.22","LYTTON RCS","1114746","2021-07-25 18:00","2021","07","25","18:00","30.5","","9.4","","27","","0.0","","18","","21","","","","98.32","","32","","","","NA"
"-121.58","50.22","LYTTON RCS","1114746","2021-07-25 19:00","2021","07","25","19:00","29.0","","9.9","","30","","0.0","","18","","14","","","","98.38","","30","","","","NA"
"-121.58","50.22","LYTTON RCS","1114746","2021-07-25 20:00","2021","07","25","20:00","28.4","","10.2","","32","","0.0","","18","","19","","","","98.41","","30","","","","NA"
"-121.58","50.22","LYTTON RCS","1114746","2021-07-25 21:00","2021","07","25","21:00","27.3","","10.7","","35","","0.0","","21","","14","","","","98.51","","29","","","","NA"
"-121.58","50.22","LYTTON RCS","1114746","2021-07-25 22:00","2021","07","25","22:00","26.4","","10.8","","38","","0.0","","20","","10","","","","98.61","","28","","","","NA"
"-121.58","50.22","LYTTON RCS","1114746","2021-07-25 23:00","2021","07","25","23:00","25.0","","10.9","","41","","0.0","","19","","16","","","","98.65","","27","","","","NA"
"-121.58","50.22","LYTTON RCS","1114746","2021-07-26 00:00","2021","07","26","00:00","24.1","","10.4","","42","","0.0","","16","","14","","","","98.68","","26","","","","NA"
"-121.58","50.22","LYTTON RCS","1114746","2021-07-26 01:00","2021","07","26","01:00","23.1","","10.1","","44","","0.0","","16","","15","","","","98.71","","","","","","NA"
"-121.58","50.22","LYTTON RCS","1114746","2021-07-26 02:00","2021","07","26","02:00","22.3","","10.2","","46","","0.0","","15","","17","","","","98.74","","","","","","NA"
"-121.58","50.22","LYTTON RCS","1114746","2021-07-26 03:00","2021","07","26","03:00","21.3","","10.3","","49","","0.0","","16","","18","","","","98.76","","","","","","NA"
"-121.58","50.22","LYTTON RCS","1114746","2021-07-26 04:00","2021","07","26","04:00","20.6","","10.3","","52","","0.0","","15","","16","","","","98.76","","","","","","NA"
"-121.58","50.22","LYTTON RCS","1114746","2021-07-26 05:00","2021","07","26","05:00","19.0","","10.5","","58","","0.0","","18","","6","","","","98.80","","","","","","NA"
"-121.58","50.22","LYTTON RCS","1114746","2021-07-26 06:00","2021","07","26","06:00","19.4","","10.2","","55","","0.0","","14","","9","","","","98.81","","","","","","NA"
"-121.58","50.22","LYTTON RCS","1114746","2021-07-26 07:00","2021","07","26","07:00","20.0","","10.4","","54","","0.0","","14","","9","","","","98.80","","","","","","NA"
"-121.58","50.22","LYTTON RCS","1114746","2021-07-26 08:00","2021","07","26","08:00","22.4","","10.5","","47","","0.0","","13","","8","","","","98.72","","","","","","NA"
"-121.58","50.22","LYTTON RCS","1114746","2021-07-26 09:00","2021","07","26","09:00","25.8","","10.8","","39","","0.0","","18","","30","","","","98.63","","27","","","","NA"
"-121.58","50.22","LYTTON RCS","1114746","2021-07-26 10:00","2021","07","26","10:00","28.5","","11.2","","34","","0.0","","18","","22","","","","98.54","","30","","","","NA"
"-121.58","50.22","LYTTON RCS","1114746","2021-07-26 11:00","2021","07","26","11:00","30.6","","10.6","","29","","0.0","","18","","22","","","","98.44","","32","","","","NA"
"-121.58","50.22","LYTTON RCS","1114746","2021-07-26 12:00","2021","07","26","12:00","32.9","","10.2","","25","","0.0","","18","","22","","","","98.35","","34","","","","NA"
"-121.58","50.22","LYTTON RCS","1114746","2021-07-26 13:00","2021","07","26","13:00","33.4","","8.4","","21","","0.0","","18","","30","","","","98.28","","34","","","","NA"
"-121.58","50.22","LYTTON RCS","1114746","2021-07-26 14:00","2021","07","26","14:00","33.7","","8.3","","21","","0.0","","18","","36","","","","98.21","","34","","","","NA"
"-121.58","50.22","LYTTON RCS","1114746","2021-07-26 15:00","2021","07","26","15:00","33.7","","8.3","","21","","0.0","","18","","31","","","","98.17","","34","","","","NA"
"-121.58","50.22","LYTTON RCS","1114746","2021-07-26 16:00","2021","07","26","16:00","33.7","","8.2","","21","","0.0","","18","","27","","","","98.13","","34","","","","NA"
"-121.58","50.22","LYTTON RCS","1114746","2021-07-26 17:00","2021","07","26","17:00","32.7","","8.3","","22","","0.0","","18","","30","","","","98.12","","33","","","","NA"
"-121.58","50.22","LYTTON RCS","1114746","2021-07-26 18:00","2021","07","26","18:00","30.6","","8.2","","25","","0.0","","19","","28","","","","98.15","","31","","","","NA"
"-121.58","50.22","LYTTON RCS","1114746","2021-07-26 19:00","2021","07","26","19:00","29.0","","8.8","","28","","0.0","","18","","22","","","","98.22","","30","","","","NA"
"-121.58","50.22","LYTTON RCS","1114746","2021-07-26 20:00","2021","07","26","20:00","28.0","","9.1","","30","","0.0","","18","","23","","","","98.30","","29","","","","NA"
"-121.58","50.22","LYTTON RCS","1114746","2021-07-26 21:00","2021","07","26","21:00","26.8","","9.6","","34","","0.0","","19","","14","","","","98.40","","28","","","","NA"
"-121.58","50.22","LYTTON RCS","1114746","2021-07-26 22:00","2021","07","26","22:00","25.5","","9.9","","38","","0.0","","19","","15","","","","98.45","","27","","","","NA"
"-121.58","50.22","LYTTON RCS","1114746","2021-07-26 23:00","2021","07","26","23:00","25.0","","9.2","","37","","0.0","","21","","18","","","","98.53","","26","","","","NA"
"-121.58","50.22","LYTTON RCS","1114746","2021-07-27 00:00","2021","07","27","00:00","24.6","","9.1","","38","","0.0","","20","","20","","","","98.59","","25","","","","NA"
"-121.58","50.22","LYTTON RCS","1114746","2021-07-27 01:00","2021","07","27","01:00","23.5","","9.1","","40","","0.0","","18","","27","","","","98.65","","","","","","NA"
"-121.58","50.22","LYTTON RCS","1114746","2021-07-27 02:00","2021","07","27","02:00","22.4","","9.5","","44","","0.0","","17","","27","","","","98.69","","","","","","NA"
"-121.58","50.22","LYTTON RCS","1114746","2021-07-27 03:00","2021","07","27","03:00","21.5","","9.6","","47","","0.0","","17","","26","","","","98.74","","","","","","NA"
"-121.58","50.22","LYTTON RCS","1114746","2021-07-27 04:00","2021","07","27","04:00","20.3","","9.6","","50","","0.0","","15","","13","","","","98.81","","","","","","NA"
"-121.58","50.22","LYTTON RCS","1114746","2021-07-27 05:00","2021","07","27","05:00","18.6","","9.9","","57","","0.0","","18","","7","","","","98.88","","","","","","NA"
"-121.58","50.22","LYTTON RCS","1114746","2021-07-27 06:00","2021","07","27","06:00","17.9","","9.9","","60","","0.0","","20","","5","","","","98.92","","","","","","NA"
"-121.58","50.22","LYTTON RCS","1114746","2021-07-27 07:00","2021","07","27","07:00","18.4","","9.7","","57","","0.0","","17","","11","","","","98.97","","","","","","NA"
"-121.58","50.22","LYTTON RCS","1114746","2021-07-27 08:00","2021","07","27","08:00","20.8","","9.6","","49","","0.0","","15","","6","","","","98.97","","","","","","NA"
"-121.58","50.22","LYTTON RCS","1114746","2021-07-27 09:00","2021","07","27","09:00","24.2","","10.3","","41","","0.0","","16","","9","","","","98.92","","26","","","","NA"
"-121.58","50.22","LYTTON RCS","1114746","2021-07-27 10:00","2021","07","27","10:00","26.8","","9.8","","34","","0.0","","17","","8","","","","98.83","","28","","","","NA"
"-121.58","50.22","LYTTON RCS","1114746","2021-07-27 11:00","2021","07","27","11:00","29.1","","9.5","","30","","0.0","","16","","5","","","","98.75","","30","","","","NA"
"-121.58","50.22","LYTTON RCS","1114746","2021-07-27 12:00","2021","07","27","12:00","31.9","","8.2","","23","","0.0","","18","","4","","","","98.66","","32","","","","NA"
"-121.58","50.22","LYTTON RCS","1114746","2021-07-27 13:00","2021","07","27","13:00","34.6","","8.0","","19","","0.0","","18","","21","","","","98.57","","35","","","","NA"
"-121.58","50.22","LYTTON RCS","1114746","2021-07-27 14:00","2021","07","27","14:00","35.6","","7.1","","17","","0.0","","18","","22","","","","98.50","","36","","","","NA"
"-121.58","50.22","LYTTON RCS","1114746","2021-07-27 15:00","2021","07","27","15:00","35.9","","6.9","","17","","0.0","","19","","22","","","","98.44","","36","","","","NA"
"-121.58","50.22","LYTTON RCS","1114746","2021-07-27 16:00","2021","07","27","16:00","35.2","","7.2","","18","","0.0","","19","","22","","","","98.40","","35","","","","NA"
"-121.58","50.22","LYTTON RCS","1114746","2021-07-27 17:00","2021","07","27","17:00","33.6","","6.6","","19","","0.0","","19","","27","","","","98.40","","33","","","","NA"
"-121.58","50.22","LYTTON RCS","1114746","2021-07-27 18:00","2021","07","27","18:00","32.5","","8.0","","22","","0.0","","19","","17","","","","98.41","","33","","","","NA"
"-121.58","50.22","LYTTON RCS","1114746","2021-07-27 19:00","2021","07","27","19:00","31.2","","9.0","","25","","0.0","","20","","19","","","","98.46","","32","","","","NA"
"-121.58","50.22","LYTTON RCS","1114746","2021-07-27 20:00","2021","07","27","20:00","29.5","","10.2","","30","","0.0","","20","","19","","","","98.56","","31","","","","NA"
"-121.58","50.22","LYTTON RCS","1114746","2021-07-27 21:00","2021","07","27","21:00","28.8","","10.4","","32","","0.0","","20","","25","","","","98.65","","30","","","","NA"
"-121.58","50.22","LYTTON RCS","1114746","2021-07-27 22:00","2021","07","27","22:00","27.2","","10.6","","35","","0.0","","19","","26","","","","98.75","","29","","","","NA"
"-121.58","50.22","LYTTON RCS","1114746","2021-07-27 23:00","2021","07","27","23:00","25.8","","10.1","","37","","0.0","","19","","27","","","","98.86","","27","","","","NA"
"-121.58","50.22","LYTTON RCS","1114746","2021-07-28 00:00","2021","07","28","00:00","24.8","","9.7","","38","","0.0","","19","","28","","","","98.93","","26","","","","NA"
"-121.58","50.22","LYTTON RCS","1114746","2021-07-28 01:00","2021","07","28","01:00","23.9","","9.4","","40","","0.0","","18","","30","","","","99.00","","25","","","","NA"
"-121.58","50.22","LYTTON RCS","1114746","2021-07-28 02:00","2021","07","28","02:00","23.1","","9.3","","41","","0.0","","18","","24","","","","99.07","","","","","","NA"
"-121.58","50.22","LYTTON RCS","1114746","2021-07-28 03:00","2021","07","28","03:00","22.2","","9.3","","44","","0.0","","17","","26","","","","99.14","","","","","","NA"
"-121.58","50.22","LYTTON RCS","1114746","2021-07-28 04:00","2021","07","28","04:00","21.2","","9.5","","47","","0.0","","17","","20","","","","99.21","","","","","","NA"
"-121.58","50.22","LYTTON RCS","1114746","2021-07-28 05:00","2021","07","28","05:00","20.3","","9.5","","50","","0.0","","14","","13","","","","99.27","","","","","","NA"
"-121.58","50.22","LYTTON RCS","1114746","2021-07-28 06:00","2021","07","28","06:00","19.8","","9.6","","52","","0.0","","17","","7","","","","99.30","","","","","","NA"
"-121.58","50.22","LYTTON RCS","1114746","2021-07-28 07:00","2021","07","28","07:00","19.8","","9.5","","52","","0.0","","15","","11","","","","99.34","","","","","","NA"
"-121.58","50.22","LYTTON RCS","1114746","2021-07-28 08:00","2021","07","28","08:00","21.8","","9.7","","46","","0.0","","16","","15","","","","99.31","","","","","","NA"
"-121.58","50.22","LYTTON RCS","1114746","2021-07-28 09:00","2021","07","28","09:00","25.0","","9.9","","38","","0.0","","16","","16","","","","99.25","","26","","","","NA"
"-121.58","50.22","LYTTON RCS","1114746","2021-07-28 10:00","2021","07","28","10:00","27.7","","9.4","","32","","0.0","","17","","12","","","","99.15","","29","","","","NA"
"-121.58","50.22","LYTTON RCS","1114746","2021-07-28 11:00","2021","07","28","11:00","29.8","","10.2","","30","","0.0","","17","","10","","","","99.06","","31","","","","NA"
"-121.58","50.22","LYTTON RCS","1114746","2021-07-28 12:00","2021","07","28","12:00","31.8","","9.6","","25","","0.0","","17","","9","","","","98.94","","33","","","","NA"
"-121.58","50.22","LYTTON RCS","1114746","2021-07-28 13:00","2021","07","28","13:00","35.4","","8.4","","19","","0.0","","18","","25","","","","98.79","","36","","","","NA"
"-121.58","50.22","LYTTON RCS","1114746","2021-07-28 14:00","2021","07","28","14:00","37.0","","7.6","","17","","0.0","","19","","23","","","","98.68","","37","","","","NA"
"-121.58","50.22","LYTTON RCS","1114746","2021-07-28 15:00","2021","07","28","15:00","37.2","","7.1","","16","","0.0","","18","","23","","","","98.63","","37","","","","NA"
"-121.58","50.22","LYTTON RCS","1114746","2021-07-28 16:00","2021","07","28","16:00","37.1","","4.0","","13","","0.0","","19","","21","","","","98.55","","36","","","","NA"
"-121.58","50.22","LYTTON RCS","1114746","2021-07-28 17:00","2021","07","28","17:00","35.1","","3.8","","14","","0.0","","18","","27","","","","98.53","","34","","","","NA"
"-121.58","50.22","LYTTON RCS","1114746","2021-07-28 18:00","2021","07","28","18:00","33.9","","4.3","","16","","0.0","","18","","26","","","","98.52","","33","","","","NA"
"-121.58","50.22","LYTTON RCS","1114746","2021-07-28 19:00","2021","07","28","19:00","31.8","","6.9","","21","","0.0","","19","","17","","","","98.56","","32","","","","NA"
"-121.58","50.22","LYTTON RCS","1114746","2021-07-28 20:00","2021","07","28","20:00","30.4","","8.0","","25","","0.0","","18","","20","","","","98.62","","31","","","","NA"
"-121.58","50.22","LYTTON RCS","1114746","2021-07-28 21:00","2021","07","28","21:00","29.9","","8.0","","25","","0.0","","20","","22","","","","98.71","","30","","","","NA"
"-121.58","50.22","LYTTON RCS","1114746","2021-07-28 22:00","2021","07","28","22:00","28.3","","8.1","","28","","0.0","","19","","29","","","","98.78","","29","","","","NA"
"-121.58","50.22","LYTTON RCS","1114746","2021-07-28 23:00","2021","07","28","23:00","27.3","","8.2","","30","","0.0","","19","","29","","","","98.83","","28","","","","NA"
"-121.58","50.22","LYTTON RCS","1114746","2021-07-29 00:00","2021","07","29","00:00","26.2","","8.3","","32","","0.0","","18","","29","","","","98.88","","27","","","","NA"
"-121.58","50.22","LYTTON RCS","1114746","2021-07-29 01:00","2021","07","29","01:00","25.0","","8.7","","35","","0.0","","17","","33","","","","98.91","","26","","","","NA"
"-121.58","50.22","LYTTON RCS","1114746","2021-07-29 02:00","2021","07","29","02:00","23.9","","8.8","","38","","0.0","","16","","21","","","","98.98","","25","","","","NA"
"-121.58","50.22","LYTTON RCS","1114746","2021-07-29 03:00","2021","07","29","03:00","22.9","","8.9","","41","","0.0","","15","","12","","","","99.05","","","","","","NA"
"-121.58","50.22","LYTTON RCS","1114746","2021-07-29 04:00","2021","07","29","04:00","21.9","","8.9","","43","","0.0","","16","","16","","","","99.11","","","","","","NA"
"-121.58","50.22","LYTTON RCS","1114746","2021-07-29 05:00","2021","07","29","05:00","19.4","","9.0","","51","","0.0","","21","","2","","","","99.18","","","","","","NA"
"-121.58","50.22","LYTTON RCS","1114746","2021-07-29 06:00","2021","07","29","06:00","18.8","","9.4","","54","","0.0","","21","","3","","","","99.24","","","","","","NA"
"-121.58","50.22","LYTTON RCS","1114746","2021-07-29 07:00","2021","07","29","07:00","19.3","","9.3","","52","","0.0","","19","","8","","","","99.27","","","","","","NA"
"-121.58","50.22","LYTTON RCS","1114746","2021-07-29 08:00","2021","07","29","08:00","21.5","","9.3","","46","","0.0","","16","","11","","","","99.25","","","","","","NA"
"-121.58","50.22","LYTTON RCS","1114746","2021-07-29 09:00","2021","07","29","09:00","23.4","","8.9","","40","","0.0","","15","","7","","","","99.19","","","","","","NA"
"-121.58","50.22","LYTTON RCS","1114746","2021-07-29 10:00","2021","07","29","10:00","26.5","","9.5","","34","","0.0","","16","","4","","","","99.11","","28","","","","NA"
"-121.58","50.22","LYTTON RCS","1114746","2021-07-29 11:00","2021","07","29","11:00","29.0","","8.7","","28","","0.0","","3","","4","","","","99.01","","30","","","","NA"
"-121.58","50.22","LYTTON RCS","1114746","2021-07-29 12:00","2021","07","29","12:00","31.2","","8.8","","25","","0.0","","19","","4","","","","98.91","","32","","","","NA"
"-121.58","50.22","LYTTON RCS","1114746","2021-07-29 13:00","2021","07","29","13:00","33.1","","7.9","","21","","0.0","","19","","3","","","","98.81","","33","","","","NA"
"-121.58","50.22","LYTTON RCS","1114746","2021-07-29 14:00","2021","07","29","14:00","35.2","","3.0","","13","","0.0","","19","","3","","","","98.70","","34","","","","NA"
"-121.58","50.22","LYTTON RCS","1114746","2021-07-29 15:00","2021","07","29","15:00","37.4","","4.3","","13","","0.0","","18","","15","","","","98.61","","36","","","","NA"
"-121.58","50.22","LYTTON RCS","1114746","2021-07-29 16:00","2021","07","29","16:00","37.5","","6.5","","15","","0.0","","19","","12","","","","98.56","","37","","","","NA"
"-121.58","50.22","LYTTON RCS","1114746","2021-07-29 17:00","2021","07","29","17:00","36.6","","6.5","","16","","0.0","","19","","16","","","","98.51","","36","","","","NA"
"-121.58","50.22","LYTTON RCS","1114746","2021-07-29 18:00","2021","07","29","18:00","34.7","","4.5","","15","","0.0","","19","","11","","","","98.48","","34","","","","NA"
"-121.58","50.22","LYTTON RCS","1114746","2021-07-29 19:00","2021","07","29","19:00","31.4","","4.4","","18","","0.0","","17","","19","","","","98.49","","30","","","","NA"
"-121.58","50.22","LYTTON RCS","1114746","2021-07-29 20:00","2021","07","29","20:00","29.0","","3.5","","20","","0.0","","15","","17","","","","98.55","","28","","","","NA"
"-121.58","50.22","LYTTON RCS","1114746","2021-07-29 21:00","2021","07","29","21:00","27.7","","3.2","","21","","0.0","","16","","20","","","","98.66","","26","","","","NA"
"-121.58","50.22","LYTTON RCS","1114746","2021-07-29 22:00","2021","07","29","22:00","28.9","","4.0","","20","","0.0","","17","","22","","","","98.72","","28","","","","NA"
"-121.58","50.22","LYTTON RCS","1114746","2021-07-29 23:00","2021","07","29","23:00","27.7","","4.9","","23","","0.0","","14","","11","","","","98.79","","27","","","","NA"
"-121.58","50.22","LYTTON RCS","1114746","2021-07-30 00:00","2021","07","30","00:00","24.1","","6.1","","31","","0.0","","19","","7","","","","98.86","","","","","","NA"
"-121.58","50.22","LYTTON RCS","1114746","2021-07-30 01:00","2021","07","30","01:00","22.2","","6.0","","35","","0.0","","17","","8","","","","98.91","","","","","","NA"
"-121.58","50.22","LYTTON RCS","1114746","2021-07-30 02:00","2021","07","30","02:00","21.1","","6.4","","38","","0.0","","20","","3","","","","98.97","","","","","","NA"
"-121.58","50.22","LYTTON RCS","1114746","2021-07-30 03:00","2021","07","30","03:00","20.1","","6.8","","42","","0.0","","14","","3","","","","99.00","","","","","","NA"
"-121.58","50.22","LYTTON RCS","1114746","2021-07-30 04:00","2021","07","30","04:00","18.5","","7.3","","48","","0.0","","15","","5","","","","99.05","","","","","","NA"
"-121.58","50.22","LYTTON RCS","1114746","2021-07-30 05:00","2021","07","30","05:00","16.9","","8.2","","57","","0.0","","0","","1","","","","99.10","","","","","","NA"
"-121.58","50.22","LYTTON RCS","1114746","2021-07-30 06:00","2021","07","30","06:00","16.8","","8.7","","58","","0.0","","","","0","","","","99.15","","","","","","NA"
"-121.58","50.22","LYTTON RCS","1114746","2021-07-30 07:00","2021","07","30","07:00","17.6","","8.4","","55","","0.0","","14","","6","","","","99.19","","","","","","NA"
"-121.58","50.22","LYTTON RCS","1114746","2021-07-30 08:00","2021","07","30","08:00","20.8","","7.8","","43","","0.0","","15","","4","","","","99.16","","","","","","NA"
"-121.58","50.22","LYTTON RCS","1114746","2021-07-30 09:00","2021","07","30","09:00","24.4","","6.6","","32","","0.0","","2","","2","","","","99.08","","","","","","NA"
"-121.58","50.22","LYTTON RCS","1114746","2021-07-30 10:00","2021","07","30","10:00","27.2","","5.0","","24","","0.0","","35","","4","","","","99.00","","26","","","","NA"
"-121.58","50.22","LYTTON RCS","1114746","2021-07-30 11:00","2021","07","30","11:00","30.0","","5.2","","21","","0.0","","35","","4","","","","98.92","","29","","","","NA"
"-121.58","50.22","LYTTON RCS","1114746","2021-07-30 12:00","2021","07","30","12:00","32.5","","5.7","","19","","0.0","","34","","5","","","","98.80","","32","","","","NA"
"-121.58","50.22","LYTTON RCS","1114746","2021-07-30 13:00","2021","07","30","13:00","35.5","","5.4","","15","","0.0","","31","","4","","","","98.67","","35","","","","NA"
"-121.58","50.22","LYTTON RCS","1114746","2021-07-30 14:00","2021","07","30","14:00","37.2","","4.8","","14","","0.0","","35","","5","","","","98.55","","36","","","","NA"
"-121.58","50.22","LYTTON RCS","1114746","2021-07-30 15:00","2021","07","30","15:00","41.4","","3.1","","10","","0.0","","18","","28","","","","98.46","","40","","","","NA"
"-121.58","50.22","LYTTON RCS","1114746","2021-07-30 16:00","2021","07","30","16:00","41.1","","3.2","","10","","0.0","","18","","28","","","","98.44","","40","","","","NA"
"-121.58","50.22","LYTTON RCS","1114746","2021-07-30 17:00","2021","07","30","17:00","40.6","","3.9","","11","","0.0","","18","","21","","","","98.44","","40","","","","NA"
"-121.58","50.22","LYTTON RCS","1114746","2021-07-30 18:00","2021","07","30","18:00","37.5","","3.8","","12","","0.0","","23","","10","","","","98.46","","36","","","","NA"
"-121.58","50.22","LYTTON RCS","1114746","2021-07-30 19:00","2021","07","30","19:00","35.4","","4.6","","15","","0.0","","18","","9","","","","98.50","","35","","","","NA"
"-121.58","50.22","LYTTON RCS","1114746","2021-07-30 20:00","2021","07","30","20:00","33.1","","5.7","","18","","0.0","","16","","13","","","","98.56","","33","","","","NA"
"-121.58","50.22","LYTTON RCS","1114746","2021-07-30 21:00","2021","07","30","21:00","29.3","","7.4","","25","","0.0","","14","","5","","","","98.64","","29","","","","NA"
"-121.58","50.22","LYTTON RCS","1114746","2021-07-30 22:00","2021","07","30","22:00","28.4","","6.9","","26","","0.0","","2","","1","","","","98.71","","28","","","","NA"
"-121.58","50.22","LYTTON RCS","1114746","2021-07-30 23:00","2021","07","30","23:00","26.8","","6.6","","28","","0.0","","33","","1","","","","98.77","","27","","","","NA"
"-121.58","50.22","LYTTON RCS","1114746","2021-07-31 00:00","2021","07","31","00:00","25.1","","7.0","","31","","0.0","","13","","5","","","","98.83","","25","","","","NA"
"-121.58","50.22","LYTTON RCS","1114746","2021-07-31 01:00","2021","07","31","01:00","24.0","","7.9","","36","","0.0","","","","0","","","","98.89","","","","","","NA"
"-121.58","50.22","LYTTON RCS","1114746","2021-07-31 02:00","2021","07","31","02:00","22.2","","8.1","","40","","0.0","","15","","3","","","","98.94","","","","","","NA"
"-121.58","50.22","LYTTON RCS","1114746","2021-07-31 03:00","2021","07","31","03:00","20.8","","9.0","","47","","0.0","","15","","2","","","","98.98","","","","","","NA"
"-121.58","50.22","LYTTON RCS","1114746","2021-07-31 04:00","2021","07","31","04:00","19.8","","9.6","","52","","0.0","","15","","3","","","","99.04","","","","","","NA"
"-121.58","50.22","LYTTON RCS","1114746","2021-07-31 05:00","2021","07","31","05:00","18.8","","9.8","","56","","0.0","","5","","2","","","","99.09","","","","","","NA"
"-121.58","50.22","LYTTON RCS","1114746","2021-07-31 06:00","2021","07","31","06:00","19.2","","9.0","","51","","0.0","","34","","3","","","","99.13","","","","","","NA"
"-121.58","50.22","LYTTON RCS","1114746","2021-07-31 07:00","2021","07","31","07:00","19.8","","9.3","","51","","0.0","","16","","3","","","","99.20","","","","","","NA"
"-121.58","50.22","LYTTON RCS","1114746","2021-07-31 08:00","2021","07","31","08:00","21.0","","10.1","","50","","0.1","","9","","7","","","","99.21","","","","","","NA"
"-121.58","50.22","LYTTON RCS","1114746","2021-07-31 09:00","2021","07","31","09:00","21.6","","10.4","","49","","0.0","","1","","7","","","","99.18","","","","","","NA"
"-121.58","50.22","LYTTON RCS","1114746","2021-07-31 10:00","2021","07","31","10:00","21.3","","12.6","","57","","0.0","","20","","1","","","","99.17","","","","","","NA"
"-121.58","50.22","LYTTON RCS","1114746","2021-07-31 11:00","2021","07","31","11:00","21.3","","13.7","","62","","0.0","","15","","8","","","","99.23","","","","","","NA"
"-121.58","50.22","LYTTON RCS","1114746","2021-07-31 12:00","2021","07","31","12:00","23.0","","12.9","","53","","0.0","","17","","7","","","","99.16","","26","","","","NA"
"-121.58","50.22","LYTTON RCS","1114746","2021-07-31 13:00","2021","07","31","13:00","24.0","","12.4","","48","","0.0","","1","","5","","","","99.18","","26","","","","NA"
"-121.58","50.22","LYTTON RCS","1114746","2021-07-31 14:00","2021","07","31","14:00","24.9","","12.3","","45","","0.0","","26","","2","","","","99.19","","27","","","","NA"
"-121.58","50.22","LYTTON RCS","1114746","2021-07-31 15:00","2021","07","31","15:00","25.6","","12.4","","44","","0.0","","20","","7","","","","99.14","","28","","","","NA"
"-121.58","50.22","LYTTON RCS","1114746","2021-07-31 16:00","2021","07","31","16:00","26.2","","12.0","","41","","0.0","","18","","6","","","","99.07","","28","","","","NA"
"-121.58","50.22","LYTTON RCS","1114746","2021-07-31 17:00","2021","07","31","17:00","25.8","","12.9","","45","","0.0","","13","","4","","","","99.07","","29","","","","NA"
"-121.58","50.22","LYTTON RCS","1114746","2021-07-31 18:00","2021","07","31","18:00","25.2","","13.9","","50","","0.0","","19","","7","","","","99.06","","29","","","","NA"
"-121.58","50.22","LYTTON RCS","1114746","2021-07-31 19:00","2021","07","31","19:00","24.8","","13.3","","49","","0.0","","1","","3","","","","99.06","","28","","","","NA"
"-121.58","50.22","LYTTON RCS","1114746","2021-07-31 20:00","2021","07","31","20:00","24.1","","13.7","","52","","0.0","","14","","6","","","","99.04","","27","","","","NA"
"-121.58","50.22","LYTTON RCS","1114746","2021-07-31 21:00","2021","07","31","21:00","23.6","","14.0","","55","","0.0","","14","","6","","","","99.06","","27","","","","NA"
"-121.58","50.22","LYTTON RCS","1114746","2021-07-31 22:00","2021","07","31","22:00","22.2","","14.7","","62","","0.0","","14","","6","","","","99.05","","26","","","","NA"
"-121.58","50.22","LYTTON RCS","1114746","2021-07-31 23:00","2021","07","31","23:00","21.7","","14.7","","64","","0.0","","17","","6","","","","99.02","","25","","","","NA"
