"Longitude (x)","Latitude (y)","Station Name","Climate ID","Date/Time (LST)","Year","Month","Day","Time (LST)","Temp (°C)","Temp Flag","Dew Point Temp (°C)","Dew Point Temp Flag","Rel Hum (%)","Rel Hum Flag","Precip. Amount (mm)","Precip. Amount Flag","Wind Dir (10s deg)","Wind Dir Flag","Wind Spd (km/h)","Wind Spd Flag","Visibility (km)","Visibility Flag","Stn Press (kPa)","Stn Press Flag","Hmdx","Hmdx Flag","Wind Chill","Wind Chill Flag","Weather"
"-94.36","49.79","KENORA A","6034076","2018-12-01 00:00","2018","12","01","00:00","-6.1","","-7.6","","89","","","","10","","3","","24.1","","96.85","","","","-8","","Snow"
"-94.36","49.79","KENORA A","6034076","2018-12-01 01:00","2018","12","01","01:00","-6.3","","-7.8","","90","","","","11","","5","","24.1","","96.84","","","","-9","","Snow"
"-94.36","49.79","KENORA A","6034076","2018-12-01 02:00","2018","12","01","02:00","-6.7","","-7.9","","91","","","","10","","3","","24.1","","96.85","","","","-8","","Snow"
"-94.36","49.79","KENORA A","6034076","2018-12-01 03:00","2018","12","01","03:00","-6.8","","-7.7","","93","","","","4","","12","","24.1","","96.84","","","","-12","","Snow"
"-94.36","49.79","KENORA A","6034076","2018-12-01 04:00","2018","12","01","04:00","-6.5","","-7.5","","92","","","","4","","8","","20.9","","96.83","","","","-10","","Snow"
"-94.36","49.79","KENORA A","6034076","2018-12-01 05:00","2018","12","01","05:00","-6.7","","-7.7","","93","","","","6","","8","","19.3","","96.78","","","","-11","","Snow"
"-94.36","49.79","KENORA A","6034076","2018-12-01 06:00","2018","12","01","06:00","-7.0","","-8.0","","93","","","","13","","10","","24.1","","96.92","","","","-12","","Snow"
"-94.36","49.79","KENORA A","6034076","2018-12-01 07:00","2018","12","01","07:00","-7.1","","-8.0","","93","","","","14","","12","","24.1","","96.97","","","","-12","","Snow"
"-94.36","49.79","KENORA A","6034076","2018-12-01 08:00","2018","12","01","08:00","-7.1","","-8.1","","93","","","","11","","10","","16.1","","97.01","","","","-12","","Snow"
"-94.36","49.79","KENORA A","6034076","2018-12-01 09:00","2018","12","01","09:00","-7.0","","-8.0","","93","","","","8","","11","","16.1","","96.99","","","","-12","","Snow"
"-94.36","49.79","KENORA A","6034076","2018-12-01 10:00","2018","12","01","10:00","-6.9","","-8.0","","92","","","","7","","9","","16.1","","96.96","","","","-11","","Snow"
"-94.36","49.79","KENORA A","6034076","2018-12-01 11:00","2018","12","01","11:00","-6.9","","-8.0","","92","","","","7","","14","","16.1","","96.90","","","","-13","","Snow"
"-94.36","49.79","KENORA A","6034076","2018-12-01 12:00","2018","12","01","12:00","-6.8","","-8.0","","91","","","","5","","13","","16.1","","96.83","","","","-12","","Snow"
"-94.36","49.79","KENORA A","6034076","2018-12-01 13:00","2018","12","01","13:00","-6.6","","-8.0","","90","","","","7","","14","","16.1","","96.81","","","","-12","","Snow"
"-94.36","49.79","KENORA A","6034076","2018-12-01 14:00","2018","12","01","14:00","-6.6","","-7.9","","90","","","","8","","16","","12.9","","96.83","","","","-13","","Snow"
"-94.36","49.79","KENORA A","6034076","2018-12-01 15:00","2018","12","01","15:00","-6.8","","-8.0","","91","","","","5","","15","","12.9","","96.78","","","","-13","","Snow"
"-94.36","49.79","KENORA A","6034076","2018-12-01 16:00","2018","12","01","16:00","-7.2","","-8.3","","92","","","","7","","17","","16.1","","96.81","","","","-14","","Snow"
"-94.36","49.79","KENORA A","6034076","2018-12-01 17:00","2018","12","01","17:00","-7.6","","-8.7","","92","","","","6","","21","","16.1","","96.87","","","","-15","","Snow"
"-94.36","49.79","KENORA A","6034076","2018-12-01 18:00","2018","12","01","18:00","-7.5","","-8.5","","92","","","","7","","25","","16.1","","96.88","","","","-16","","Snow"
"-94.36","49.79","KENORA A","6034076","2018-12-01 19:00","2018","12","01","19:00","-7.3","","-8.3","","92","","","","6","","15","","16.1","","96.89","","","","-13","","Snow"
"-94.36","49.79","KENORA A","6034076","2018-12-01 20:00","2018","12","01","20:00","-7.3","","-8.5","","91","","","","6","","17","","24.1","","96.90","","","","-14","","Snow"
"-94.36","49.79","KENORA A","6034076","2018-12-01 21:00","2018","12","01","21:00","-7.2","","-8.3","","92","","","","6","","17","","24.1","","96.92","","","","-14","","Snow"
"-94.36","49.79","KENORA A","6034076","2018-12-01 22:00","2018","12","01","22:00","-7.0","","-8.1","","92","","","","5","","14","","24.1","","96.88","","","","-13","","Snow"
"-94.36","49.79","KENORA A","6034076","2018-12-01 23:00","2018","12","01","23:00","-6.8","","-7.8","","93","","","","4","","17","","24.1","","96.85","","","","-13","","Snow"
"-94.36","49.79","KENORA A","6034076","2018-12-02 00:00","2018","12","02","00:00","-6.9","","-7.8","","93","","","","4","","20","","24.1","","96.84","","","","-14","","Snow"
"-94.36","49.79","KENORA A","6034076","2018-12-02 01:00","2018","12","02","01:00","-7.0","","-7.9","","93","","","","4","","12","","20.9","","96.82","","","","-12","","Snow"
"-94.36","49.79","KENORA A","6034076","2018-12-02 02:00","2018","12","02","02:00","-7.1","","-8.0","","94","","","","4","","18","","19.3","","96.81","","","","-14","","Snow"
"-94.36","49.79","KENORA A","6034076","2018-12-02 03:00","2018","12","02","03:00","-7.2","","-8.1","","94","","","","4","","19","","12.9","","96.82","","","","-14","","Snow"
"-94.36","49.79","KENORA A","6034076","2018-12-02 04:00","2018","12","02","04:00","-7.1","","-7.9","","94","","","","5","","19","","12.9","","96.79","","","","-14","","Snow"
"-94.36","49.79","KENORA A","6034076","2018-12-02 05:00","2018","12","02","05:00","-6.8","","-7.8","","93","","","","5","","23","","19.3","","96.82","","","","-14","","Snow"
"-94.36","49.79","KENORA A","6034076","2018-12-02 06:00","2018","12","02","06:00","-6.3","","-7.5","","92","","","","7","","22","","24.1","","96.85","","","","-14","","Snow"
"-94.36","49.79","KENORA A","6034076","2018-12-02 07:00","2018","12","02","07:00","-6.0","","-7.5","","90","","","","3","","10","","32.2","","96.88","","","","-10","","Snow"
"-94.36","49.79","KENORA A","6034076","2018-12-02 08:00","2018","12","02","08:00","-5.9","","-7.6","","88","","","","3","","10","","32.2","","96.89","","","","-10","","NA"
"-94.36","49.79","KENORA A","6034076","2018-12-02 09:00","2018","12","02","09:00","-6.2","","-7.6","","90","","","","3","","10","","32.2","","96.89","","","","-11","","Mostly Cloudy"
"-94.36","49.79","KENORA A","6034076","2018-12-02 10:00","2018","12","02","10:00","-5.3","","-7.5","","85","","","","4","","14","","32.2","","96.91","","","","-11","","NA"
"-94.36","49.79","KENORA A","6034076","2018-12-02 11:00","2018","12","02","11:00","-5.0","","-7.5","","83","","","","4","","16","","32.2","","96.94","","","","-11","","NA"
"-94.36","49.79","KENORA A","6034076","2018-12-02 12:00","2018","12","02","12:00","-4.6","","-7.7","","79","","","","4","","17","","32.2","","96.92","","","","-10","","Mostly Cloudy"
"-94.36","49.79","KENORA A","6034076","2018-12-02 13:00","2018","12","02","13:00","-4.5","","-7.4","","80","","","","3","","14","","32.2","","96.93","","","","-10","","NA"
"-94.36","49.79","KENORA A","6034076","2018-12-02 14:00","2018","12","02","14:00","-4.6","","-7.8","","78","","","","2","","18","","32.2","","96.95","","","","-11","","NA"
"-94.36","49.79","KENORA A","6034076","2018-12-02 15:00","2018","12","02","15:00","-4.8","","-8.1","","78","","","","2","","16","","32.2","","96.96","","","","-11","","Mostly Cloudy"
"-94.36","49.79","KENORA A","6034076","2018-12-02 16:00","2018","12","02","16:00","-5.1","","-8.0","","80","","","","2","","11","","32.2","","97.03","","","","-10","","NA"
"-94.36","49.79","KENORA A","6034076","2018-12-02 17:00","2018","12","02","17:00","-5.5","","-8.2","","81","","","","1","","14","","32.2","","97.11","","","","-11","","NA"
"-94.36","49.79","KENORA A","6034076","2018-12-02 18:00","2018","12","02","18:00","-5.8","","-8.2","","83","","","","2","","14","","32.2","","97.14","","","","-11","","Snow"
"-94.36","49.79","KENORA A","6034076","2018-12-02 19:00","2018","12","02","19:00","-6.0","","-8.2","","84","","","","2","","16","","32.2","","97.19","","","","-12","","Snow"
"-94.36","49.79","KENORA A","6034076","2018-12-02 20:00","2018","12","02","20:00","-6.2","","-8.7","","83","","","","3","","15","","32.2","","97.22","","","","-12","","Snow"
"-94.36","49.79","KENORA A","6034076","2018-12-02 21:00","2018","12","02","21:00","-6.5","","-8.9","","83","","","","3","","13","","32.2","","97.27","","","","-12","","Snow"
"-94.36","49.79","KENORA A","6034076","2018-12-02 22:00","2018","12","02","22:00","-6.8","","-8.8","","86","","","","1","","13","","32.2","","97.29","","","","-12","","Snow"
"-94.36","49.79","KENORA A","6034076","2018-12-02 23:00","2018","12","02","23:00","-7.1","","-9.0","","86","","","","2","","13","","32.2","","97.34","","","","-13","","Snow"
"-94.36","49.79","KENORA A","6034076","2018-12-03 00:00","2018","12","03","00:00","-7.4","","-9.1","","88","","","","1","","11","","32.2","","97.37","","","","-12","","Snow"
"-94.36","49.79","KENORA A","6034076","2018-12-03 01:00","2018","12","03","01:00","-7.6","","-9.2","","88","","","","2","","9","","32.2","","97.36","","","","-12","","Snow"
"-94.36","49.79","KENORA A","6034076","2018-12-03 02:00","2018","12","03","02:00","-7.9","","-9.5","","88","","","","4","","12","","32.2","","97.39","","","","-13","","Snow"
"-94.36","49.79","KENORA A","6034076","2018-12-03 03:00","2018","12","03","03:00","-8.2","","-9.4","","91","","","","35","","9","","24.1","","97.41","","","","-13","","Snow"
"-94.36","49.79","KENORA A","6034076","2018-12-03 04:00","2018","12","03","04:00","-8.5","","-9.6","","91","","","","1","","6","","24.1","","97.41","","","","-12","","NA"
"-94.36","49.79","KENORA A","6034076","2018-12-03 05:00","2018","12","03","05:00","-8.6","","-9.7","","92","","","","34","","8","","24.1","","97.42","","","","-13","","Snow"
"-94.36","49.79","KENORA A","6034076","2018-12-03 06:00","2018","12","03","06:00","-8.9","","-9.8","","94","","","","32","","4","","24.1","","97.44","","","","-11","","Snow"
"-94.36","49.79","KENORA A","6034076","2018-12-03 07:00","2018","12","03","07:00","-9.2","","-10.1","","94","","","","30","","6","","11.3","","97.48","","","","-13","","NA"
"-94.36","49.79","KENORA A","6034076","2018-12-03 08:00","2018","12","03","08:00","-9.5","","-10.5","","92","","","","32","","8","","11.3","","97.52","","","","-14","","NA"
"-94.36","49.79","KENORA A","6034076","2018-12-03 09:00","2018","12","03","09:00","-9.4","","-10.4","","92","","","","28","","9","","4.8","","97.56","","","","-14","","Fog"
"-94.36","49.79","KENORA A","6034076","2018-12-03 10:00","2018","12","03","10:00","-9.3","","-10.3","","93","","","","36","","3","","0.8","","97.55","","","","-11","","Freezing Fog"
"-94.36","49.79","KENORA A","6034076","2018-12-03 11:00","2018","12","03","11:00","-9.4","","-10.5","","92","","","","25","","5","","4.8","","97.52","","","","-12","","Snow,Fog"
"-94.36","49.79","KENORA A","6034076","2018-12-03 12:00","2018","12","03","12:00","-9.1","","-10.2","","91","","","","23","","14","","6.4","","97.47","","","","-15","","Snow,Fog"
"-94.36","49.79","KENORA A","6034076","2018-12-03 13:00","2018","12","03","13:00","-9.0","","-10.1","","92","","","","24","","9","","9.7","","97.43","","","","-14","","Snow,Fog"
"-94.36","49.79","KENORA A","6034076","2018-12-03 14:00","2018","12","03","14:00","-9.1","","-10.3","","91","","","","26","","14","","24.1","","97.40","","","","-15","","Snow"
"-94.36","49.79","KENORA A","6034076","2018-12-03 15:00","2018","12","03","15:00","-9.2","","-10.5","","90","","","","24","","11","","32.2","","97.37","","","","-15","","Snow"
"-94.36","49.79","KENORA A","6034076","2018-12-03 16:00","2018","12","03","16:00","-9.4","","-10.8","","90","","","","22","","14","","24.1","","97.38","","","","-16","","Snow"
"-94.36","49.79","KENORA A","6034076","2018-12-03 17:00","2018","12","03","17:00","-9.9","","-11.2","","90","","","","23","","13","","24.1","","97.37","","","","-16","","Snow"
"-94.36","49.79","KENORA A","6034076","2018-12-03 18:00","2018","12","03","18:00","-9.9","","-11.1","","91","","","","25","","9","","24.1","","97.34","","","","-15","","Snow"
"-94.36","49.79","KENORA A","6034076","2018-12-03 19:00","2018","12","03","19:00","-9.7","","-10.9","","91","","","","23","","11","","19.3","","97.31","","","","-15","","Snow"
"-94.36","49.79","KENORA A","6034076","2018-12-03 20:00","2018","12","03","20:00","-9.7","","-10.8","","91","","","","23","","14","","16.1","","97.28","","","","-16","","Snow"
"-94.36","49.79","KENORA A","6034076","2018-12-03 21:00","2018","12","03","21:00","-9.5","","-10.7","","91","","","","23","","17","","12.9","","97.25","","","","-17","","Snow"
"-94.36","49.79","KENORA A","6034076","2018-12-03 22:00","2018","12","03","22:00","-9.4","","-10.6","","91","","","","23","","14","","16.1","","97.23","","","","-16","","Snow"
"-94.36","49.79","KENORA A","6034076","2018-12-03 23:00","2018","12","03","23:00","-9.8","","-11.0","","91","","","","25","","14","","16.1","","97.21","","","","-16","","Snow"
"-94.36","49.79","KENORA A","6034076","2018-12-04 00:00","2018","12","04","00:00","-9.6","","-10.8","","91","","","","24","","10","","16.1","","97.18","","","","-15","","Snow"
"-94.36","49.79","KENORA A","6034076","2018-12-04 01:00","2018","12","04","01:00","-9.2","","-10.3","","91","","","","20","","9","","24.1","","97.12","","","","-14","","Snow"
"-94.36","49.79","KENORA A","6034076","2018-12-04 02:00","2018","12","04","02:00","-8.6","","-9.7","","92","","","","21","","9","","9.7","","97.07","","","","-13","","Snow"
"-94.36","49.79","KENORA A","6034076","2018-12-04 03:00","2018","12","04","03:00","-7.9","","-9.0","","92","","","","22","","19","","6.4","","97.01","","","","-15","","Snow"
"-94.36","49.79","KENORA A","6034076","2018-12-04 04:00","2018","12","04","04:00","-7.7","","-8.7","","92","","","","24","","19","","3.2","","96.95","","","","-15","","Snow,Fog"
"-94.36","49.79","KENORA A","6034076","2018-12-04 05:00","2018","12","04","05:00","-7.5","","-8.5","","93","","","","23","","16","","4.8","","96.92","","","","-14","","Snow,Fog"
"-94.36","49.79","KENORA A","6034076","2018-12-04 06:00","2018","12","04","06:00","-7.2","","-8.2","","93","","","","25","","14","","4.8","","96.88","","","","-13","","Snow,Fog"
"-94.36","49.79","KENORA A","6034076","2018-12-04 07:00","2018","12","04","07:00","-7.4","","-8.4","","93","","","","23","","14","","6.4","","96.84","","","","-13","","Snow,Fog"
"-94.36","49.79","KENORA A","6034076","2018-12-04 08:00","2018","12","04","08:00","-7.4","","-8.4","","93","","","","24","","13","","4.8","","96.79","","","","-13","","Snow,Fog"
"-94.36","49.79","KENORA A","6034076","2018-12-04 09:00","2018","12","04","09:00","-7.1","","-8.1","","93","","","","21","","9","","1.6","","96.73","","","","-11","","Snow,Fog"
"-94.36","49.79","KENORA A","6034076","2018-12-04 10:00","2018","12","04","10:00","-6.7","","-7.6","","93","","","","19","","12","","2.4","","96.67","","","","-12","","Fog"
"-94.36","49.79","KENORA A","6034076","2018-12-04 11:00","2018","12","04","11:00","-5.8","","-6.6","","94","","","","18","","14","","3.2","","96.59","","","","-11","","Fog"
"-94.36","49.79","KENORA A","6034076","2018-12-04 12:00","2018","12","04","12:00","-5.0","","-5.7","","95","","","","21","","22","","4.8","","96.50","","","","-12","","Fog"
"-94.36","49.79","KENORA A","6034076","2018-12-04 13:00","2018","12","04","13:00","-4.8","","-5.5","","95","","","","21","","21","","4.8","","96.42","","","","-11","","Fog"
"-94.36","49.79","KENORA A","6034076","2018-12-04 14:00","2018","12","04","14:00","-4.5","","-5.2","","95","","","","23","","17","","8.1","","96.35","","","","-10","","Fog"
"-94.36","49.79","KENORA A","6034076","2018-12-04 15:00","2018","12","04","15:00","-4.4","","-5.1","","95","","","","26","","20","","6.4","","96.31","","","","-11","","Fog"
"-94.36","49.79","KENORA A","6034076","2018-12-04 16:00","2018","12","04","16:00","-4.4","","-5.1","","95","","","","22","","10","","6.4","","96.26","","","","-9","","Fog"
"-94.36","49.79","KENORA A","6034076","2018-12-04 17:00","2018","12","04","17:00","-4.4","","-5.1","","95","","","","26","","11","","3.2","","96.25","","","","-9","","Snow,Fog"
"-94.36","49.79","KENORA A","6034076","2018-12-04 18:00","2018","12","04","18:00","-4.9","","-5.6","","95","","","","27","","10","","4.8","","96.20","","","","-9","","Snow,Fog"
"-94.36","49.79","KENORA A","6034076","2018-12-04 19:00","2018","12","04","19:00","-5.3","","-6.1","","94","","","","28","","11","","8.1","","96.19","","","","-10","","Snow,Fog"
"-94.36","49.79","KENORA A","6034076","2018-12-04 20:00","2018","12","04","20:00","-6.1","","-7.1","","93","","","","27","","11","","16.1","","96.19","","","","-11","","Snow"
"-94.36","49.79","KENORA A","6034076","2018-12-04 21:00","2018","12","04","21:00","-6.3","","-7.2","","93","","","","32","","6","","4.8","","96.19","","","","-9","","Snow"
"-94.36","49.79","KENORA A","6034076","2018-12-04 22:00","2018","12","04","22:00","-6.8","","-7.8","","93","","","","33","","10","","4.8","","96.19","","","","-11","","Snow"
"-94.36","49.79","KENORA A","6034076","2018-12-04 23:00","2018","12","04","23:00","-6.8","","-7.8","","93","","","","29","","7","","4.8","","96.19","","","","-10","","Snow"
"-94.36","49.79","KENORA A","6034076","2018-12-05 00:00","2018","12","05","00:00","-7.0","","-8.1","","92","","","","28","","9","","8.1","","96.16","","","","-11","","Snow"
"-94.36","49.79","KENORA A","6034076","2018-12-05 01:00","2018","12","05","01:00","-7.1","","-8.2","","92","","","","25","","10","","4.8","","96.16","","","","-12","","Snow"
"-94.36","49.79","KENORA A","6034076","2018-12-05 02:00","2018","12","05","02:00","-7.2","","-8.3","","92","","","","25","","10","","4.8","","96.17","","","","-12","","Snow"
"-94.36","49.79","KENORA A","6034076","2018-12-05 03:00","2018","12","05","03:00","-7.3","","-8.5","","91","","","","26","","9","","4.8","","96.18","","","","-12","","Snow"
"-94.36","49.79","KENORA A","6034076","2018-12-05 04:00","2018","12","05","04:00","-7.5","","-8.8","","91","","","","27","","11","","4.8","","96.18","","","","-13","","Snow"
"-94.36","49.79","KENORA A","6034076","2018-12-05 05:00","2018","12","05","05:00","-7.7","","-9.0","","91","","","","29","","14","","12.9","","96.21","","","","-14","","Snow"
"-94.36","49.79","KENORA A","6034076","2018-12-05 06:00","2018","12","05","06:00","-8.1","","-9.8","","88","","","","30","","13","","19.3","","96.20","","","","-14","","Snow"
"-94.36","49.79","KENORA A","6034076","2018-12-05 07:00","2018","12","05","07:00","-8.5","","-10.2","","88","","","","29","","10","","16.1","","96.23","","","","-13","","Snow"
"-94.36","49.79","KENORA A","6034076","2018-12-05 08:00","2018","12","05","08:00","-8.8","","-10.7","","86","","","","28","","10","","14.5","","96.26","","","","-14","","Snow"
"-94.36","49.79","KENORA A","6034076","2018-12-05 09:00","2018","12","05","09:00","-8.9","","-10.8","","86","","","","27","","9","","12.9","","96.30","","","","-14","","Snow"
"-94.36","49.79","KENORA A","6034076","2018-12-05 10:00","2018","12","05","10:00","-8.9","","-10.6","","88","","","","29","","9","","4.8","","96.32","","","","-14","","Snow"
"-94.36","49.79","KENORA A","6034076","2018-12-05 11:00","2018","12","05","11:00","-8.7","","-10.4","","87","","","","28","","9","","1.6","","96.34","","","","-13","","Snow"
"-94.36","49.79","KENORA A","6034076","2018-12-05 12:00","2018","12","05","12:00","-9.2","","-11.4","","84","","","","32","","14","","2.4","","96.34","","","","-16","","Snow"
"-94.36","49.79","KENORA A","6034076","2018-12-05 13:00","2018","12","05","13:00","-9.5","","-12.2","","81","","","","33","","18","","3.2","","96.38","","","","-17","","Snow"
"-94.36","49.79","KENORA A","6034076","2018-12-05 14:00","2018","12","05","14:00","-9.8","","-12.3","","82","","","","32","","18","","3.2","","96.43","","","","-17","","Snow"
"-94.36","49.79","KENORA A","6034076","2018-12-05 15:00","2018","12","05","15:00","-9.9","","-12.2","","83","","","","32","","16","","3.2","","96.48","","","","-17","","Snow"
"-94.36","49.79","KENORA A","6034076","2018-12-05 16:00","2018","12","05","16:00","-10.0","","-12.2","","84","","","","32","","15","","6.4","","96.57","","","","-17","","Snow"
"-94.36","49.79","KENORA A","6034076","2018-12-05 17:00","2018","12","05","17:00","-9.9","","-12.0","","85","","","","33","","15","","3.2","","96.66","","","","-17","","Snow"
"-94.36","49.79","KENORA A","6034076","2018-12-05 18:00","2018","12","05","18:00","-10.2","","-12.3","","85","","","","33","","17","","3.2","","96.76","","","","-17","","Snow"
"-94.36","49.79","KENORA A","6034076","2018-12-05 19:00","2018","12","05","19:00","-10.4","","-12.4","","86","","","","33","","14","","3.2","","96.81","","","","-17","","Snow"
"-94.36","49.79","KENORA A","6034076","2018-12-05 20:00","2018","12","05","20:00","-11.0","","-13.0","","86","","","","34","","15","","19.3","","96.88","","","","-18","","Snow"
"-94.36","49.79","KENORA A","6034076","2018-12-05 21:00","2018","12","05","21:00","-12.1","","-14.0","","85","","","","36","","16","","2.4","","96.97","","","","-20","","Snow"
"-94.36","49.79","KENORA A","6034076","2018-12-05 22:00","2018","12","05","22:00","-13.5","","-15.9","","83","","","","1","","17","","19.3","","97.09","","","","-22","","Snow"
"-94.36","49.79","KENORA A","6034076","2018-12-05 23:00","2018","12","05","23:00","-14.3","","-16.5","","84","","","","36","","14","","3.2","","97.17","","","","-22","","Snow"
"-94.36","49.79","KENORA A","6034076","2018-12-06 00:00","2018","12","06","00:00","-16.2","","-18.4","","84","","","","34","","15","","12.9","","97.26","","","","-24","","Snow"
"-94.36","49.79","KENORA A","6034076","2018-12-06 01:00","2018","12","06","01:00","-17.8","","-19.8","","84","","","","33","","14","","19.3","","97.35","","","","-26","","Snow"
"-94.36","49.79","KENORA A","6034076","2018-12-06 02:00","2018","12","06","02:00","-19.2","","-21.3","","84","","","","34","","16","","19.3","","97.41","","","","-28","","Snow"
"-94.36","49.79","KENORA A","6034076","2018-12-06 03:00","2018","12","06","03:00","-20.6","","-22.9","","83","","","","35","","11","","24.1","","97.47","","","","-28","","Snow"
"-94.36","49.79","KENORA A","6034076","2018-12-06 04:00","2018","12","06","04:00","-21.2","","-23.3","","83","","","","35","","10","","24.1","","97.51","","","","-29","","Snow"
"-94.36","49.79","KENORA A","6034076","2018-12-06 05:00","2018","12","06","05:00","-21.8","","-24.0","","83","","","","33","","5","","24.1","","97.56","","","","-26","","Snow"
"-94.36","49.79","KENORA A","6034076","2018-12-06 06:00","2018","12","06","06:00","-21.0","","-23.2","","83","","","","29","","4","","19.3","","97.61","","","","-25","","Snow"
"-94.36","49.79","KENORA A","6034076","2018-12-06 07:00","2018","12","06","07:00","-21.4","","-23.6","","83","","","","29","","7","","19.3","","97.66","","","","-27","","Snow"
"-94.36","49.79","KENORA A","6034076","2018-12-06 08:00","2018","12","06","08:00","-22.1","","-24.4","","82","","","","28","","7","","32.2","","97.66","","","","-28","","NA"
"-94.36","49.79","KENORA A","6034076","2018-12-06 09:00","2018","12","06","09:00","-22.5","","-24.8","","82","","","","26","","8","","32.2","","97.67","","","","-29","","Mostly Cloudy"
"-94.36","49.79","KENORA A","6034076","2018-12-06 10:00","2018","12","06","10:00","-21.1","","-23.4","","82","","","","27","","12","","24.1","","97.74","","","","-29","","Ice Crystals"
"-94.36","49.79","KENORA A","6034076","2018-12-06 11:00","2018","12","06","11:00","-20.8","","-23.3","","80","","","","23","","9","","24.1","","97.74","","","","-28","","Ice Crystals"
"-94.36","49.79","KENORA A","6034076","2018-12-06 12:00","2018","12","06","12:00","-19.9","","-22.6","","80","","","","25","","9","","24.1","","97.69","","","","-27","","Ice Crystals"
"-94.36","49.79","KENORA A","6034076","2018-12-06 13:00","2018","12","06","13:00","-19.5","","-22.5","","78","","","","25","","14","","24.1","","97.66","","","","-28","","Ice Crystals"
"-94.36","49.79","KENORA A","6034076","2018-12-06 14:00","2018","12","06","14:00","-18.7","","-22.6","","72","","","","21","","12","","24.1","","97.63","","","","-26","","Ice Crystals"
"-94.36","49.79","KENORA A","6034076","2018-12-06 15:00","2018","12","06","15:00","-18.6","","-23.0","","69","","","","24","","13","","32.2","","97.61","","","","-27","","Ice Crystals"
"-94.36","49.79","KENORA A","6034076","2018-12-06 16:00","2018","12","06","16:00","-18.8","","-22.4","","73","","","","21","","9","","32.2","","97.59","","","","-25","","Ice Crystals"
"-94.36","49.79","KENORA A","6034076","2018-12-06 17:00","2018","12","06","17:00","-19.5","","-22.6","","77","","","","20","","13","","24.1","","97.57","","","","-28","","Ice Crystals"
"-94.36","49.79","KENORA A","6034076","2018-12-06 18:00","2018","12","06","18:00","-20.1","","-22.6","","80","","","","20","","12","","32.2","","97.58","","","","-28","","Mainly Clear"
"-94.36","49.79","KENORA A","6034076","2018-12-06 19:00","2018","12","06","19:00","-20.0","","-22.2","","83","","","","21","","9","","32.2","","97.55","","","","-27","","NA"
"-94.36","49.79","KENORA A","6034076","2018-12-06 20:00","2018","12","06","20:00","-18.9","","-21.2","","83","","","","20","","9","","32.2","","97.51","","","","-25","","Snow"
"-94.36","49.79","KENORA A","6034076","2018-12-06 21:00","2018","12","06","21:00","-18.2","","-20.4","","83","","","","21","","12","","32.2","","97.48","","","","-26","","Snow"
"-94.36","49.79","KENORA A","6034076","2018-12-06 22:00","2018","12","06","22:00","-17.4","","-19.6","","83","","","","20","","8","","32.2","","97.47","","","","-23","","Snow"
"-94.36","49.79","KENORA A","6034076","2018-12-06 23:00","2018","12","06","23:00","-16.9","","-19.1","","84","","","","21","","12","","9.7","","97.45","","","","-24","","Snow"
"-94.36","49.79","KENORA A","6034076","2018-12-07 00:00","2018","12","07","00:00","-16.6","","-18.7","","84","","","","19","","10","","9.7","","97.42","","","","-23","","Snow"
"-94.36","49.79","KENORA A","6034076","2018-12-07 01:00","2018","12","07","01:00","-16.4","","-18.4","","84","","","","20","","13","","6.4","","97.40","","","","-24","","Snow"
"-94.36","49.79","KENORA A","6034076","2018-12-07 02:00","2018","12","07","02:00","-15.9","","-17.8","","85","","","","19","","17","","4.8","","97.35","","","","-25","","Snow"
"-94.36","49.79","KENORA A","6034076","2018-12-07 03:00","2018","12","07","03:00","-15.9","","-17.9","","85","","","","20","","13","","4.0","","97.37","","","","-23","","Snow"
"-94.36","49.79","KENORA A","6034076","2018-12-07 04:00","2018","12","07","04:00","-15.6","","-17.6","","85","","","","20","","12","","4.0","","97.37","","","","-23","","Snow"
"-94.36","49.79","KENORA A","6034076","2018-12-07 05:00","2018","12","07","05:00","-16.0","","-17.9","","86","","","","20","","8","","4.8","","97.38","","","","-22","","Snow,Ice Crystals"
"-94.36","49.79","KENORA A","6034076","2018-12-07 06:00","2018","12","07","06:00","-16.7","","-18.5","","86","","","","22","","8","","24.1","","97.39","","","","-22","","Snow"
"-94.36","49.79","KENORA A","6034076","2018-12-07 07:00","2018","12","07","07:00","-16.6","","-18.3","","87","","","","31","","8","","24.1","","97.44","","","","-22","","Snow"
"-94.36","49.79","KENORA A","6034076","2018-12-07 08:00","2018","12","07","08:00","-16.4","","-18.2","","86","","","","22","","4","","24.1","","97.46","","","","-19","","Snow"
"-94.36","49.79","KENORA A","6034076","2018-12-07 09:00","2018","12","07","09:00","-16.2","","-18.1","","86","","","","24","","7","","24.1","","97.50","","","","-21","","Snow"
"-94.36","49.79","KENORA A","6034076","2018-12-07 10:00","2018","12","07","10:00","-15.3","","-17.1","","86","","","","23","","6","","32.2","","97.57","","","","-20","","NA"
"-94.36","49.79","KENORA A","6034076","2018-12-07 11:00","2018","12","07","11:00","-14.1","","-15.9","","86","","","","22","","9","","24.1","","97.58","","","","-20","","Snow"
"-94.36","49.79","KENORA A","6034076","2018-12-07 12:00","2018","12","07","12:00","-13.0","","-15.2","","84","","","","21","","9","","24.1","","97.56","","","","-18","","Snow"
"-94.36","49.79","KENORA A","6034076","2018-12-07 13:00","2018","12","07","13:00","-11.0","","-14.5","","76","","","","22","","13","","32.2","","97.56","","","","-17","","NA"
"-94.36","49.79","KENORA A","6034076","2018-12-07 14:00","2018","12","07","14:00","-10.1","","-14.2","","72","","","","22","","14","","32.2","","97.53","","","","-17","","NA"
"-94.36","49.79","KENORA A","6034076","2018-12-07 15:00","2018","12","07","15:00","-9.6","","-13.9","","71","","","","22","","15","","32.2","","97.54","","","","-16","","Mainly Clear"
"-94.36","49.79","KENORA A","6034076","2018-12-07 16:00","2018","12","07","16:00","-10.0","","-13.8","","74","","","","20","","9","","32.2","","97.52","","","","-15","","NA"
"-94.36","49.79","KENORA A","6034076","2018-12-07 17:00","2018","12","07","17:00","-10.9","","-13.8","","80","","","","20","","11","","32.2","","97.58","","","","-17","","NA"
"-94.36","49.79","KENORA A","6034076","2018-12-07 18:00","2018","12","07","18:00","-11.7","","-14.2","","81","","","","21","","16","","32.2","","97.57","","","","-19","","Clear"
"-94.36","49.79","KENORA A","6034076","2018-12-07 19:00","2018","12","07","19:00","-11.2","","-14.2","","79","","","","21","","20","","32.2","","97.56","","","","-19","","NA"
"-94.36","49.79","KENORA A","6034076","2018-12-07 20:00","2018","12","07","20:00","-12.2","","-14.8","","81","","","","21","","16","","32.2","","97.55","","","","-20","","NA"
"-94.36","49.79","KENORA A","6034076","2018-12-07 21:00","2018","12","07","21:00","-12.4","","-14.9","","82","","","","21","","16","","32.2","","97.58","","","","-20","","Clear"
"-94.36","49.79","KENORA A","6034076","2018-12-07 22:00","2018","12","07","22:00","-13.0","","-15.1","","84","","","","21","","17","","32.2","","97.56","","","","-21","","NA"
"-94.36","49.79","KENORA A","6034076","2018-12-07 23:00","2018","12","07","23:00","-13.2","","-15.0","","86","","","","21","","13","","32.2","","97.55","","","","-20","","NA"
"-94.36","49.79","KENORA A","6034076","2018-12-08 00:00","2018","12","08","00:00","-13.7","","-15.4","","87","","","","21","","15","","32.2","","97.58","","","","-21","","Clear"
"-94.36","49.79","KENORA A","6034076","2018-12-08 01:00","2018","12","08","01:00","-13.8","","-15.4","","88","","","","21","","14","","32.2","","97.61","","","","-21","","NA"
"-94.36","49.79","KENORA A","6034076","2018-12-08 02:00","2018","12","08","02:00","-14.0","","-15.6","","88","","","","20","","12","","32.2","","97.64","","","","-21","","NA"
"-94.36","49.79","KENORA A","6034076","2018-12-08 03:00","2018","12","08","03:00","-14.1","","-15.7","","87","","","","21","","12","","32.2","","97.68","","","","-21","","Clear"
"-94.36","49.79","KENORA A","6034076","2018-12-08 04:00","2018","12","08","04:00","-14.1","","-15.8","","87","","","","20","","12","","32.2","","97.69","","","","-21","","NA"
"-94.36","49.79","KENORA A","6034076","2018-12-08 05:00","2018","12","08","05:00","-13.8","","-15.4","","88","","","","19","","13","","32.2","","97.67","","","","-21","","NA"
"-94.36","49.79","KENORA A","6034076","2018-12-08 06:00","2018","12","08","06:00","-14.0","","-15.6","","88","","","","19","","13","","32.2","","97.64","","","","-21","","Clear"
"-94.36","49.79","KENORA A","6034076","2018-12-08 07:00","2018","12","08","07:00","-14.0","","-15.6","","88","","","","19","","17","","32.2","","97.64","","","","-22","","NA"
"-94.36","49.79","KENORA A","6034076","2018-12-08 08:00","2018","12","08","08:00","-13.9","","-15.5","","88","","","","19","","16","","32.2","","97.58","","","","-22","","NA"
"-94.36","49.79","KENORA A","6034076","2018-12-08 09:00","2018","12","08","09:00","-12.9","","-14.5","","88","","","","20","","17","","32.2","","97.59","","","","-21","","Mainly Clear"
"-94.36","49.79","KENORA A","6034076","2018-12-08 10:00","2018","12","08","10:00","-11.1","","-12.8","","88","","","","20","","21","","32.2","","97.59","","","","-19","","NA"
"-94.36","49.79","KENORA A","6034076","2018-12-08 11:00","2018","12","08","11:00","-9.5","","-11.8","","83","","","","20","","21","","32.2","","97.58","","","","-17","","NA"
"-94.36","49.79","KENORA A","6034076","2018-12-08 12:00","2018","12","08","12:00","-7.8","","-11.2","","77","","","","21","","22","","32.2","","97.49","","","","-15","","Mainly Clear"
"-94.36","49.79","KENORA A","6034076","2018-12-08 13:00","2018","12","08","13:00","-6.9","","-10.7","","75","","","","21","","20","","32.2","","97.40","","","","-14","","NA"
"-94.36","49.79","KENORA A","6034076","2018-12-08 14:00","2018","12","08","14:00","-6.8","","-10.6","","74","","","","20","","22","","32.2","","97.35","","","","-14","","Blowing Snow"
"-94.36","49.79","KENORA A","6034076","2018-12-08 15:00","2018","12","08","15:00","-6.6","","-10.6","","73","","","","20","","19","","32.2","","97.34","","","","-13","","Blowing Snow"
"-94.36","49.79","KENORA A","6034076","2018-12-08 16:00","2018","12","08","16:00","-6.9","","-11.0","","73","","","","20","","21","","32.2","","97.29","","","","-14","","Blowing Snow"
"-94.36","49.79","KENORA A","6034076","2018-12-08 17:00","2018","12","08","17:00","-7.2","","-11.4","","72","","","","20","","17","","32.2","","97.30","","","","-14","","Blowing Snow"
"-94.36","49.79","KENORA A","6034076","2018-12-08 18:00","2018","12","08","18:00","-8.0","","-11.9","","73","","","","21","","17","","32.2","","97.31","","","","-15","","Mainly Clear"
"-94.36","49.79","KENORA A","6034076","2018-12-08 19:00","2018","12","08","19:00","-8.9","","-12.3","","77","","","","21","","16","","32.2","","97.34","","","","-16","","NA"
"-94.36","49.79","KENORA A","6034076","2018-12-08 20:00","2018","12","08","20:00","-9.4","","-12.5","","78","","","","21","","19","","32.2","","97.28","","","","-17","","NA"
"-94.36","49.79","KENORA A","6034076","2018-12-08 21:00","2018","12","08","21:00","-10.2","","-12.9","","81","","","","21","","11","","32.2","","97.28","","","","-16","","Mainly Clear"
"-94.36","49.79","KENORA A","6034076","2018-12-08 22:00","2018","12","08","22:00","-10.5","","-12.8","","83","","","","22","","15","","32.2","","97.29","","","","-17","","NA"
"-94.36","49.79","KENORA A","6034076","2018-12-08 23:00","2018","12","08","23:00","-11.8","","-13.5","","87","","","","21","","7","","32.2","","97.33","","","","-16","","NA"
"-94.36","49.79","KENORA A","6034076","2018-12-09 00:00","2018","12","09","00:00","-11.2","","-13.1","","86","","","","20","","12","","32.2","","97.31","","","","-17","","Mainly Clear"
"-94.36","49.79","KENORA A","6034076","2018-12-09 01:00","2018","12","09","01:00","-11.5","","-13.2","","87","","","","20","","14","","32.2","","97.30","","","","-18","","NA"
"-94.36","49.79","KENORA A","6034076","2018-12-09 02:00","2018","12","09","02:00","-12.2","","-13.7","","88","","","","21","","14","","32.2","","97.24","","","","-19","","NA"
"-94.36","49.79","KENORA A","6034076","2018-12-09 03:00","2018","12","09","03:00","-11.9","","-13.0","","91","","","","22","","8","","32.2","","97.36","","","","-17","","Snow"
"-94.36","49.79","KENORA A","6034076","2018-12-09 04:00","2018","12","09","04:00","-12.9","","-14.2","","90","","","","24","","7","","16.1","","97.28","","","","-17","","Snow"
"-94.36","49.79","KENORA A","6034076","2018-12-09 05:00","2018","12","09","05:00","-12.4","","-13.7","","90","","","","20","","9","","12.9","","97.28","","","","-18","","Snow"
"-94.36","49.79","KENORA A","6034076","2018-12-09 06:00","2018","12","09","06:00","-12.2","","-13.6","","90","","","","22","","7","","6.4","","97.31","","","","-17","","Snow,Fog"
"-94.36","49.79","KENORA A","6034076","2018-12-09 07:00","2018","12","09","07:00","-11.5","","-12.8","","90","","","","23","","12","","1.6","","97.32","","","","-18","","Snow,Fog"
"-94.36","49.79","KENORA A","6034076","2018-12-09 08:00","2018","12","09","08:00","-11.5","","-12.8","","90","","","","21","","7","","0.4","","97.36","","","","-16","","Freezing Fog"
"-94.36","49.79","KENORA A","6034076","2018-12-09 09:00","2018","12","09","09:00","-11.6","","-13.1","","89","","","","21","","11","","0.6","","97.35","","","","-18","","Freezing Fog"
"-94.36","49.79","KENORA A","6034076","2018-12-09 10:00","2018","12","09","10:00","-11.7","","-13.2","","89","","","","22","","11","","0.6","","97.34","","","","-18","","Freezing Fog"
"-94.36","49.79","KENORA A","6034076","2018-12-09 11:00","2018","12","09","11:00","-11.2","","-12.7","","89","","","","23","","9","","1.2","","97.36","","","","-16","","Fog"
"-94.36","49.79","KENORA A","6034076","2018-12-09 12:00","2018","12","09","12:00","-10.9","","-12.3","","89","","","","19","","16","","3.2","","97.30","","","","-18","","Fog"
"-94.36","49.79","KENORA A","6034076","2018-12-09 13:00","2018","12","09","13:00","-10.8","","-12.2","","89","","","","20","","13","","6.4","","97.27","","","","-17","","Fog"
"-94.36","49.79","KENORA A","6034076","2018-12-09 14:00","2018","12","09","14:00","-10.3","","-11.6","","90","","","","18","","17","","9.7","","97.20","","","","-18","","Fog"
"-94.36","49.79","KENORA A","6034076","2018-12-09 15:00","2018","12","09","15:00","-9.8","","-11.1","","90","","","","20","","10","","12.9","","97.20","","","","-15","","Mostly Cloudy"
"-94.36","49.79","KENORA A","6034076","2018-12-09 16:00","2018","12","09","16:00","-9.9","","-11.3","","90","","","","19","","14","","12.9","","97.19","","","","-16","","NA"
"-94.36","49.79","KENORA A","6034076","2018-12-09 17:00","2018","12","09","17:00","-11.0","","-12.4","","89","","","","20","","15","","12.9","","97.17","","","","-18","","NA"
"-94.36","49.79","KENORA A","6034076","2018-12-09 18:00","2018","12","09","18:00","-11.2","","-12.6","","89","","","","19","","18","","16.1","","97.10","","","","-19","","Mainly Clear"
"-94.36","49.79","KENORA A","6034076","2018-12-09 19:00","2018","12","09","19:00","-11.1","","-12.6","","89","","","","19","","18","","16.1","","97.05","","","","-19","","NA"
"-94.36","49.79","KENORA A","6034076","2018-12-09 20:00","2018","12","09","20:00","-11.2","","-12.7","","89","","","","21","","17","","12.9","","97.01","","","","-19","","NA"
"-94.36","49.79","KENORA A","6034076","2018-12-09 21:00","2018","12","09","21:00","-11.7","","-13.2","","89","","","","20","","13","","16.1","","96.94","","","","-18","","Mainly Clear"
"-94.36","49.79","KENORA A","6034076","2018-12-09 22:00","2018","12","09","22:00","-11.8","","-13.3","","89","","","","19","","16","","16.1","","96.87","","","","-19","","NA"
"-94.36","49.79","KENORA A","6034076","2018-12-09 23:00","2018","12","09","23:00","-12.3","","-13.9","","88","","","","21","","13","","24.1","","96.81","","","","-19","","NA"
"-94.36","49.79","KENORA A","6034076","2018-12-10 00:00","2018","12","10","00:00","-12.8","","-14.4","","88","","","","20","","13","","16.1","","96.74","","","","-20","","Mainly Clear"
"-94.36","49.79","KENORA A","6034076","2018-12-10 01:00","2018","12","10","01:00","-12.8","","-14.4","","88","","","","20","","13","","24.1","","96.69","","","","-20","","NA"
"-94.36","49.79","KENORA A","6034076","2018-12-10 02:00","2018","12","10","02:00","-13.1","","-14.7","","88","","","","21","","14","","19.3","","96.59","","","","-20","","NA"
"-94.36","49.79","KENORA A","6034076","2018-12-10 03:00","2018","12","10","03:00","-12.8","","-14.5","","88","","","","19","","12","","24.1","","96.53","","","","-19","","Mostly Cloudy"
"-94.36","49.79","KENORA A","6034076","2018-12-10 04:00","2018","12","10","04:00","-12.8","","-14.4","","88","","","","22","","10","","32.2","","96.51","","","","-19","","NA"
"-94.36","49.79","KENORA A","6034076","2018-12-10 05:00","2018","12","10","05:00","-12.3","","-13.9","","88","","","","21","","13","","32.2","","96.44","","","","-19","","NA"
"-94.36","49.79","KENORA A","6034076","2018-12-10 06:00","2018","12","10","06:00","-12.5","","-14.1","","88","","","","21","","11","","32.2","","96.42","","","","-19","","Mostly Cloudy"
"-94.36","49.79","KENORA A","6034076","2018-12-10 07:00","2018","12","10","07:00","-13.0","","-14.6","","88","","","","23","","7","","32.2","","96.42","","","","-18","","NA"
"-94.36","49.79","KENORA A","6034076","2018-12-10 08:00","2018","12","10","08:00","-13.0","","-14.7","","88","","","","22","","8","","32.2","","96.37","","","","-18","","NA"
"-94.36","49.79","KENORA A","6034076","2018-12-10 09:00","2018","12","10","09:00","-12.6","","-14.2","","88","","","","23","","10","","32.2","","96.38","","","","-18","","Mainly Clear"
"-94.36","49.79","KENORA A","6034076","2018-12-10 10:00","2018","12","10","10:00","-9.8","","-11.1","","90","","","","27","","9","","32.2","","96.38","","","","-15","","NA"
"-94.36","49.79","KENORA A","6034076","2018-12-10 11:00","2018","12","10","11:00","-8.8","","-10.1","","91","","","","32","","9","","32.2","","96.37","","","","-13","","NA"
"-94.36","49.79","KENORA A","6034076","2018-12-10 12:00","2018","12","10","12:00","-6.3","","-9.7","","76","","","","32","","8","","32.2","","96.35","","","","-10","","Clear"
"-94.36","49.79","KENORA A","6034076","2018-12-10 13:00","2018","12","10","13:00","-6.6","","-8.0","","90","","","","31","","6","","32.2","","96.34","","","","-10","","NA"
"-94.36","49.79","KENORA A","6034076","2018-12-10 14:00","2018","12","10","14:00","-5.1","","-8.5","","77","","","","32","","10","","32.2","","96.33","","","","-9","","NA"
"-94.36","49.79","KENORA A","6034076","2018-12-10 15:00","2018","12","10","15:00","-4.8","","-8.6","","75","","","","33","","11","","32.2","","96.36","","","","-9","","Clear"
"-94.36","49.79","KENORA A","6034076","2018-12-10 16:00","2018","12","10","16:00","-5.5","","-8.9","","77","","","","33","","8","","32.2","","96.40","","","","-9","","NA"
"-94.36","49.79","KENORA A","6034076","2018-12-10 17:00","2018","12","10","17:00","-5.7","","-8.9","","78","","","","32","","8","","32.2","","96.46","","","","-9","","NA"
"-94.36","49.79","KENORA A","6034076","2018-12-10 18:00","2018","12","10","18:00","-6.4","","-9.2","","81","","","","31","","8","","32.2","","96.50","","","","-10","","Clear"
"-94.36","49.79","KENORA A","6034076","2018-12-10 19:00","2018","12","10","19:00","-6.7","","-9.3","","82","","","","32","","10","","32.2","","96.50","","","","-11","","NA"
"-94.36","49.79","KENORA A","6034076","2018-12-10 20:00","2018","12","10","20:00","-7.4","","-9.5","","85","","","","32","","10","","32.2","","96.55","","","","-12","","NA"
"-94.36","49.79","KENORA A","6034076","2018-12-10 21:00","2018","12","10","21:00","-8.5","","-10.2","","88","","","","33","","13","","32.2","","96.55","","","","-14","","Clear"
"-94.36","49.79","KENORA A","6034076","2018-12-10 22:00","2018","12","10","22:00","-8.9","","-10.6","","88","","","","32","","9","","32.2","","96.51","","","","-14","","NA"
"-94.36","49.79","KENORA A","6034076","2018-12-10 23:00","2018","12","10","23:00","-10.0","","-11.3","","90","","","","35","","10","","32.2","","96.52","","","","-15","","NA"
"-94.36","49.79","KENORA A","6034076","2018-12-11 00:00","2018","12","11","00:00","-10.2","","-11.3","","91","","","","32","","6","","32.2","","96.56","","","","-14","","Clear"
"-94.36","49.79","KENORA A","6034076","2018-12-11 01:00","2018","12","11","01:00","-10.8","","-12.0","","91","","","","35","","8","","32.2","","96.55","","","","-15","","NA"
"-94.36","49.79","KENORA A","6034076","2018-12-11 02:00","2018","12","11","02:00","-11.2","","-12.3","","92","","","","36","","7","","32.2","","96.57","","","","-15","","NA"
"-94.36","49.79","KENORA A","6034076","2018-12-11 03:00","2018","12","11","03:00","-12.6","","-13.8","","91","","","","6","","5","","24.1","","96.58","","","","-16","","Clear"
"-94.36","49.79","KENORA A","6034076","2018-12-11 04:00","2018","12","11","04:00","-12.4","","-14.0","","89","","","","19","","5","","16.1","","96.60","","","","-16","","NA"
"-94.36","49.79","KENORA A","6034076","2018-12-11 05:00","2018","12","11","05:00","-12.4","","-13.9","","89","","","","15","","6","","16.1","","96.57","","","","-16","","NA"
"-94.36","49.79","KENORA A","6034076","2018-12-11 06:00","2018","12","11","06:00","-13.1","","-14.7","","88","","","","14","","8","","12.9","","96.54","","","","-18","","Mainly Clear"
"-94.36","49.79","KENORA A","6034076","2018-12-11 07:00","2018","12","11","07:00","-12.0","","-13.5","","88","","","","14","","10","","24.1","","96.52","","","","-18","","NA"
"-94.36","49.79","KENORA A","6034076","2018-12-11 08:00","2018","12","11","08:00","-12.0","","-13.5","","89","","","","16","","14","","24.1","","96.52","","","","-19","","NA"
"-94.36","49.79","KENORA A","6034076","2018-12-11 09:00","2018","12","11","09:00","-11.8","","-13.4","","89","","","","15","","15","","32.2","","96.49","","","","-19","","Cloudy"
"-94.36","49.79","KENORA A","6034076","2018-12-11 10:00","2018","12","11","10:00","-10.7","","-12.1","","90","","","","17","","14","","24.1","","96.53","","","","-17","","NA"
"-94.36","49.79","KENORA A","6034076","2018-12-11 11:00","2018","12","11","11:00","-9.2","","-10.4","","91","","","","15","","15","","24.1","","96.45","","","","-16","","NA"
"-94.36","49.79","KENORA A","6034076","2018-12-11 12:00","2018","12","11","12:00","-7.8","","-8.9","","92","","","","19","","13","","24.1","","96.41","","","","-14","","Mostly Cloudy"
"-94.36","49.79","KENORA A","6034076","2018-12-11 13:00","2018","12","11","13:00","-7.1","","-8.1","","93","","","","17","","10","","24.1","","96.35","","","","-12","","NA"
"-94.36","49.79","KENORA A","6034076","2018-12-11 14:00","2018","12","11","14:00","-6.5","","-7.4","","93","","","","15","","12","","24.1","","96.29","","","","-12","","NA"
"-94.36","49.79","KENORA A","6034076","2018-12-11 15:00","2018","12","11","15:00","-6.0","","-7.4","","90","","","","16","","16","","24.1","","96.24","","","","-12","","Cloudy"
"-94.36","49.79","KENORA A","6034076","2018-12-11 16:00","2018","12","11","16:00","-6.1","","-8.4","","84","","","","16","","16","","24.1","","96.23","","","","-12","","NA"
"-94.36","49.79","KENORA A","6034076","2018-12-11 17:00","2018","12","11","17:00","-6.2","","-8.4","","84","","","","15","","14","","24.1","","96.20","","","","-12","","NA"
"-94.36","49.79","KENORA A","6034076","2018-12-11 18:00","2018","12","11","18:00","-6.2","","-8.3","","85","","","","17","","16","","32.2","","96.17","","","","-12","","Cloudy"
"-94.36","49.79","KENORA A","6034076","2018-12-11 19:00","2018","12","11","19:00","-5.8","","-8.0","","85","","","","17","","19","","24.1","","96.16","","","","-12","","Snow"
"-94.36","49.79","KENORA A","6034076","2018-12-11 20:00","2018","12","11","20:00","-6.0","","-7.2","","91","","","","17","","15","","1.6","","96.14","","","","-12","","Snow"
"-94.36","49.79","KENORA A","6034076","2018-12-11 21:00","2018","12","11","21:00","-6.0","","-7.1","","92","","","","17","","17","","1.6","","96.08","","","","-12","","Snow"
"-94.36","49.79","KENORA A","6034076","2018-12-11 22:00","2018","12","11","22:00","-5.9","","-7.1","","92","","","","16","","21","","3.2","","96.01","","","","-13","","Snow,Blowing Snow"
"-94.36","49.79","KENORA A","6034076","2018-12-11 23:00","2018","12","11","23:00","-5.8","","-6.9","","92","","","","16","","15","","3.2","","95.97","","","","-12","","Snow,Blowing Snow"
"-94.36","49.79","KENORA A","6034076","2018-12-12 00:00","2018","12","12","00:00","-5.7","","-6.6","","93","","","","16","","16","","3.2","","95.92","","","","-12","","Snow,Blowing Snow"
"-94.36","49.79","KENORA A","6034076","2018-12-12 01:00","2018","12","12","01:00","-5.8","","-6.8","","93","","","","16","","16","","4.8","","95.86","","","","-12","","Snow,Blowing Snow"
"-94.36","49.79","KENORA A","6034076","2018-12-12 02:00","2018","12","12","02:00","-5.4","","-6.5","","92","","","","16","","14","","9.7","","95.89","","","","-11","","Snow,Blowing Snow"
"-94.36","49.79","KENORA A","6034076","2018-12-12 03:00","2018","12","12","03:00","-5.0","","-6.4","","90","","","","17","","15","","12.9","","95.86","","","","-11","","Snow,Blowing Snow"
"-94.36","49.79","KENORA A","6034076","2018-12-12 04:00","2018","12","12","04:00","-5.0","","-6.2","","91","","","","17","","16","","12.9","","95.83","","","","-11","","Snow,Blowing Snow"
"-94.36","49.79","KENORA A","6034076","2018-12-12 05:00","2018","12","12","05:00","-5.1","","-6.3","","91","","","","16","","16","","9.7","","95.77","","","","-11","","Snow,Blowing Snow"
"-94.36","49.79","KENORA A","6034076","2018-12-12 06:00","2018","12","12","06:00","-5.3","","-6.7","","90","","","","16","","17","","12.9","","95.74","","","","-11","","Snow,Blowing Snow"
"-94.36","49.79","KENORA A","6034076","2018-12-12 07:00","2018","12","12","07:00","-5.5","","-6.8","","91","","","","17","","17","","32.2","","95.74","","","","-12","","Snow,Blowing Snow"
"-94.36","49.79","KENORA A","6034076","2018-12-12 08:00","2018","12","12","08:00","-5.7","","-6.9","","92","","","","17","","18","","24.1","","95.72","","","","-12","","Snow,Blowing Snow"
"-94.36","49.79","KENORA A","6034076","2018-12-12 09:00","2018","12","12","09:00","-6.0","","-7.1","","92","","","","18","","14","","19.3","","95.75","","","","-12","","Snow,Blowing Snow"
"-94.36","49.79","KENORA A","6034076","2018-12-12 10:00","2018","12","12","10:00","-6.3","","-7.1","","94","","","","19","","20","","12.9","","95.78","","","","-13","","Snow,Blowing Snow"
"-94.36","49.79","KENORA A","6034076","2018-12-12 11:00","2018","12","12","11:00","-6.3","","-7.1","","94","","","","17","","21","","6.4","","95.75","","","","-13","","Snow,Blowing Snow"
"-94.36","49.79","KENORA A","6034076","2018-12-12 12:00","2018","12","12","12:00","-5.8","","-6.7","","94","","","","17","","18","","12.9","","95.71","","","","-12","","Snow,Blowing Snow"
"-94.36","49.79","KENORA A","6034076","2018-12-12 13:00","2018","12","12","13:00","-5.6","","-6.6","","93","","","","17","","18","","19.3","","95.67","","","","-12","","Snow,Blowing Snow"
"-94.36","49.79","KENORA A","6034076","2018-12-12 14:00","2018","12","12","14:00","-5.2","","-6.2","","93","","","","17","","16","","16.1","","95.67","","","","-11","","Snow,Blowing Snow"
"-94.36","49.79","KENORA A","6034076","2018-12-12 15:00","2018","12","12","15:00","-5.1","","-6.0","","93","","","","17","","14","","16.1","","95.70","","","","-10","","Snow,Blowing Snow"
"-94.36","49.79","KENORA A","6034076","2018-12-12 16:00","2018","12","12","16:00","-5.0","","-6.0","","92","","","","17","","18","","24.1","","95.69","","","","-11","","Snow,Blowing Snow"
"-94.36","49.79","KENORA A","6034076","2018-12-12 17:00","2018","12","12","17:00","-4.8","","-6.0","","91","","","","17","","22","","19.3","","95.74","","","","-12","","Snow,Blowing Snow"
"-94.36","49.79","KENORA A","6034076","2018-12-12 18:00","2018","12","12","18:00","-4.6","","-5.9","","90","","","","19","","17","","16.1","","95.79","","","","-10","","Snow,Blowing Snow"
"-94.36","49.79","KENORA A","6034076","2018-12-12 19:00","2018","12","12","19:00","-4.9","","-6.2","","91","","","","17","","13","","24.1","","95.80","","","","-10","","Snow"
"-94.36","49.79","KENORA A","6034076","2018-12-12 20:00","2018","12","12","20:00","-4.5","","-6.1","","89","","","","17","","20","","19.3","","95.79","","","","-11","","Snow"
"-94.36","49.79","KENORA A","6034076","2018-12-12 21:00","2018","12","12","21:00","-4.6","","-6.1","","89","","","","19","","18","","16.1","","95.79","","","","-11","","Snow"
"-94.36","49.79","KENORA A","6034076","2018-12-12 22:00","2018","12","12","22:00","-4.7","","-6.1","","90","","","","18","","22","","12.9","","95.81","","","","-12","","Snow"
"-94.36","49.79","KENORA A","6034076","2018-12-12 23:00","2018","12","12","23:00","-4.8","","-6.3","","90","","","","19","","19","","12.9","","95.82","","","","-11","","Snow"
"-94.36","49.79","KENORA A","6034076","2018-12-13 00:00","2018","12","13","00:00","-4.8","","-6.2","","90","","","","18","","22","","9.7","","95.82","","","","-12","","Snow,Fog"
"-94.36","49.79","KENORA A","6034076","2018-12-13 01:00","2018","12","13","01:00","-4.6","","-6.0","","90","","","","18","","19","","8.1","","95.81","","","","-11","","Snow,Fog"
"-94.36","49.79","KENORA A","6034076","2018-12-13 02:00","2018","12","13","02:00","-4.7","","-5.9","","91","","","","17","","17","","3.2","","95.84","","","","-11","","Snow"
"-94.36","49.79","KENORA A","6034076","2018-12-13 03:00","2018","12","13","03:00","-4.5","","-5.4","","93","","","","19","","15","","3.2","","95.85","","","","-10","","Snow"
"-94.36","49.79","KENORA A","6034076","2018-12-13 04:00","2018","12","13","04:00","-4.4","","-5.3","","94","","","","19","","17","","2.8","","95.85","","","","-10","","Snow"
"-94.36","49.79","KENORA A","6034076","2018-12-13 05:00","2018","12","13","05:00","-4.4","","-5.2","","94","","","","19","","17","","4.0","","95.87","","","","-10","","Snow"
"-94.36","49.79","KENORA A","6034076","2018-12-13 06:00","2018","12","13","06:00","-4.3","","-5.1","","94","","","","20","","16","","3.6","","95.91","","","","-10","","Snow"
"-94.36","49.79","KENORA A","6034076","2018-12-13 07:00","2018","12","13","07:00","-4.2","","-5.0","","94","","","","20","","15","","3.2","","95.96","","","","-10","","Snow,Fog"
"-94.36","49.79","KENORA A","6034076","2018-12-13 08:00","2018","12","13","08:00","-4.1","","-4.8","","94","","","","19","","16","","2.4","","95.98","","","","-10","","Snow"
"-94.36","49.79","KENORA A","6034076","2018-12-13 09:00","2018","12","13","09:00","-3.9","","-4.7","","95","","","","20","","13","","3.2","","96.03","","","","-9","","Snow"
"-94.36","49.79","KENORA A","6034076","2018-12-13 10:00","2018","12","13","10:00","-3.6","","-4.2","","96","","","","23","","11","","3.2","","96.12","","","","-8","","Snow"
"-94.36","49.79","KENORA A","6034076","2018-12-13 11:00","2018","12","13","11:00","-3.2","","-3.7","","96","","","","24","","10","","1.6","","96.12","","","","-7","","Snow"
"-94.36","49.79","KENORA A","6034076","2018-12-13 12:00","2018","12","13","12:00","-2.6","","-3.4","","94","","","","25","","13","","3.2","","96.13","","","","-7","","Snow"
"-94.36","49.79","KENORA A","6034076","2018-12-13 13:00","2018","12","13","13:00","-2.2","","-3.2","","92","","","","22","","13","","8.1","","96.13","","","","-7","","Snow,Fog"
"-94.36","49.79","KENORA A","6034076","2018-12-13 14:00","2018","12","13","14:00","-1.5","","-3.1","","89","","","","23","","17","","16.1","","96.17","","","","-7","","Snow"
"-94.36","49.79","KENORA A","6034076","2018-12-13 15:00","2018","12","13","15:00","-1.2","","-3.5","","85","","","","21","","10","","32.2","","96.20","","","","-5","","Mainly Clear"
"-94.36","49.79","KENORA A","6034076","2018-12-13 16:00","2018","12","13","16:00","-2.3","","-3.7","","90","","","","20","","12","","32.2","","96.26","","","","-7","","NA"
"-94.36","49.79","KENORA A","6034076","2018-12-13 17:00","2018","12","13","17:00","-3.6","","-4.5","","94","","","","20","","10","","32.2","","96.32","","","","-8","","NA"
"-94.36","49.79","KENORA A","6034076","2018-12-13 18:00","2018","12","13","18:00","-4.2","","-5.2","","93","","","","21","","14","","32.2","","96.32","","","","-9","","Mainly Clear"
"-94.36","49.79","KENORA A","6034076","2018-12-13 19:00","2018","12","13","19:00","-5.2","","-6.2","","93","","","","20","","11","","32.2","","96.28","","","","-10","","NA"
"-94.36","49.79","KENORA A","6034076","2018-12-13 20:00","2018","12","13","20:00","-6.2","","-7.2","","92","","","","19","","15","","32.2","","96.23","","","","-12","","NA"
"-94.36","49.79","KENORA A","6034076","2018-12-13 21:00","2018","12","13","21:00","-6.4","","-8.1","","88","","","","20","","18","","32.2","","96.24","","","","-13","","Mainly Clear"
"-94.36","49.79","KENORA A","6034076","2018-12-13 22:00","2018","12","13","22:00","-6.7","","-8.2","","89","","","","19","","15","","32.2","","96.19","","","","-13","","NA"
"-94.36","49.79","KENORA A","6034076","2018-12-13 23:00","2018","12","13","23:00","-6.2","","-7.7","","90","","","","19","","14","","32.2","","96.14","","","","-12","","NA"
"-94.36","49.79","KENORA A","6034076","2018-12-14 00:00","2018","12","14","00:00","-5.2","","-6.6","","90","","","","20","","17","","32.2","","96.09","","","","-11","","Mostly Cloudy"
"-94.36","49.79","KENORA A","6034076","2018-12-14 01:00","2018","12","14","01:00","-4.5","","-6.1","","89","","","","20","","20","","32.2","","96.02","","","","-11","","NA"
"-94.36","49.79","KENORA A","6034076","2018-12-14 02:00","2018","12","14","02:00","-4.8","","-6.4","","89","","","","19","","19","","32.2","","95.97","","","","-11","","NA"
"-94.36","49.79","KENORA A","6034076","2018-12-14 03:00","2018","12","14","03:00","-5.3","","-6.9","","89","","","","21","","15","","32.2","","96.00","","","","-11","","Mostly Cloudy"
"-94.36","49.79","KENORA A","6034076","2018-12-14 04:00","2018","12","14","04:00","-6.1","","-7.4","","90","","","","21","","14","","32.2","","96.01","","","","-12","","NA"
"-94.36","49.79","KENORA A","6034076","2018-12-14 05:00","2018","12","14","05:00","-6.1","","-7.5","","90","","","","24","","13","","32.2","","96.08","","","","-11","","NA"
"-94.36","49.79","KENORA A","6034076","2018-12-14 06:00","2018","12","14","06:00","-6.0","","-7.1","","92","","","","21","","10","","32.2","","96.14","","","","-10","","Clear"
"-94.36","49.79","KENORA A","6034076","2018-12-14 07:00","2018","12","14","07:00","-6.0","","-7.1","","92","","","","23","","9","","32.2","","96.24","","","","-10","","NA"
"-94.36","49.79","KENORA A","6034076","2018-12-14 08:00","2018","12","14","08:00","-7.1","","-8.0","","93","","","","23","","9","","32.2","","96.32","","","","-11","","NA"
"-94.36","49.79","KENORA A","6034076","2018-12-14 09:00","2018","12","14","09:00","-6.8","","-7.7","","94","","","","24","","10","","32.2","","96.40","","","","-11","","Clear"
"-94.36","49.79","KENORA A","6034076","2018-12-14 10:00","2018","12","14","10:00","-4.5","","-6.2","","88","","","","26","","13","","24.1","","96.50","","","","-10","","NA"
"-94.36","49.79","KENORA A","6034076","2018-12-14 11:00","2018","12","14","11:00","-3.0","","-5.7","","81","","","","25","","17","","32.2","","96.59","","","","-9","","NA"
"-94.36","49.79","KENORA A","6034076","2018-12-14 12:00","2018","12","14","12:00","-2.1","","-5.3","","79","","","","25","","14","","32.2","","96.60","","","","-7","","Mainly Clear"
"-94.36","49.79","KENORA A","6034076","2018-12-14 13:00","2018","12","14","13:00","-0.8","","-4.5","","76","","","","24","","13","","32.2","","96.65","","","","-5","","NA"
"-94.36","49.79","KENORA A","6034076","2018-12-14 14:00","2018","12","14","14:00","-0.1","","-4.1","","74","","","","23","","15","","24.1","","96.73","","","","-5","","NA"
"-94.36","49.79","KENORA A","6034076","2018-12-14 15:00","2018","12","14","15:00","0.2","","-4.0","","74","","","","22","","13","","32.2","","96.80","","","","","","Mainly Clear"
"-94.36","49.79","KENORA A","6034076","2018-12-14 16:00","2018","12","14","16:00","-0.5","","-3.9","","77","","","","20","","12","","32.2","","96.82","","","","-4","","NA"
"-94.36","49.79","KENORA A","6034076","2018-12-14 17:00","2018","12","14","17:00","-1.6","","-4.6","","80","","","","20","","12","","24.1","","96.86","","","","-6","","NA"
"-94.36","49.79","KENORA A","6034076","2018-12-14 18:00","2018","12","14","18:00","-2.1","","-4.6","","83","","","","19","","12","","24.1","","96.82","","","","-6","","Clear"
"-94.36","49.79","KENORA A","6034076","2018-12-14 19:00","2018","12","14","19:00","-2.8","","-5.2","","83","","","","19","","15","","32.2","","96.82","","","","-8","","NA"
"-94.36","49.79","KENORA A","6034076","2018-12-14 20:00","2018","12","14","20:00","-3.2","","-5.7","","84","","","","19","","16","","32.2","","96.80","","","","-9","","NA"
"-94.36","49.79","KENORA A","6034076","2018-12-14 21:00","2018","12","14","21:00","-3.8","","-6.1","","84","","","","20","","17","","32.2","","96.79","","","","-10","","Clear"
"-94.36","49.79","KENORA A","6034076","2018-12-14 22:00","2018","12","14","22:00","-4.3","","-6.2","","87","","","","18","","16","","32.2","","96.74","","","","-10","","NA"
"-94.36","49.79","KENORA A","6034076","2018-12-14 23:00","2018","12","14","23:00","-3.9","","-5.9","","86","","","","18","","15","","32.2","","96.69","","","","-9","","NA"
"-94.36","49.79","KENORA A","6034076","2018-12-15 00:00","2018","12","15","00:00","-3.6","","-5.5","","87","","","","18","","19","","32.2","","96.67","","","","-10","","Mostly Cloudy"
"-94.36","49.79","KENORA A","6034076","2018-12-15 01:00","2018","12","15","01:00","-4.2","","-5.9","","88","","","","18","","20","","32.2","","96.64","","","","-11","","NA"
"-94.36","49.79","KENORA A","6034076","2018-12-15 02:00","2018","12","15","02:00","-5.3","","-6.4","","92","","","","17","","16","","32.2","","96.64","","","","-11","","NA"
"-94.36","49.79","KENORA A","6034076","2018-12-15 03:00","2018","12","15","03:00","-4.2","","-5.7","","90","","","","18","","17","","32.2","","96.60","","","","-10","","Mainly Clear"
"-94.36","49.79","KENORA A","6034076","2018-12-15 04:00","2018","12","15","04:00","-3.9","","-5.2","","90","","","","17","","21","","32.2","","96.54","","","","-10","","NA"
"-94.36","49.79","KENORA A","6034076","2018-12-15 05:00","2018","12","15","05:00","-3.5","","-5.2","","88","","","","17","","18","","32.2","","96.47","","","","-9","","NA"
"-94.36","49.79","KENORA A","6034076","2018-12-15 06:00","2018","12","15","06:00","-2.8","","-4.9","","85","","","","18","","18","","32.2","","96.45","","","","-8","","Mainly Clear"
"-94.36","49.79","KENORA A","6034076","2018-12-15 07:00","2018","12","15","07:00","-2.5","","-5.1","","83","","","","17","","20","","32.2","","96.41","","","","-8","","NA"
"-94.36","49.79","KENORA A","6034076","2018-12-15 08:00","2018","12","15","08:00","-2.4","","-4.9","","83","","","","17","","18","","32.2","","96.35","","","","-8","","NA"
"-94.36","49.79","KENORA A","6034076","2018-12-15 09:00","2018","12","15","09:00","-2.5","","-5.1","","82","","","","16","","20","","32.2","","96.31","","","","-8","","Mostly Cloudy"
"-94.36","49.79","KENORA A","6034076","2018-12-15 10:00","2018","12","15","10:00","-0.8","","-4.6","","76","","","","18","","21","","24.1","","96.28","","","","-6","","NA"
"-94.36","49.79","KENORA A","6034076","2018-12-15 11:00","2018","12","15","11:00","1.3","","-3.9","","68","","","","18","","22","","32.2","","96.22","","","","","","NA"
"-94.36","49.79","KENORA A","6034076","2018-12-15 12:00","2018","12","15","12:00","2.2","","-3.7","","65","","","","17","","21","","32.2","","96.07","","","","","","Mostly Cloudy"
"-94.36","49.79","KENORA A","6034076","2018-12-15 13:00","2018","12","15","13:00","4.5","","-3.1","","58","","","","17","","25","","24.1","","95.97","","","","","","NA"
"-94.36","49.79","KENORA A","6034076","2018-12-15 14:00","2018","12","15","14:00","5.4","","-2.6","","56","","","","19","","19","","32.2","","95.83","","","","","","NA"
"-94.36","49.79","KENORA A","6034076","2018-12-15 15:00","2018","12","15","15:00","5.7","","-3.1","","53","","","","17","","23","","24.1","","95.70","","","","","","Mostly Cloudy"
"-94.36","49.79","KENORA A","6034076","2018-12-15 16:00","2018","12","15","16:00","5.7","","-3.6","","51","","","","18","","26","","32.2","","95.64","","","","","","NA"
"-94.36","49.79","KENORA A","6034076","2018-12-15 17:00","2018","12","15","17:00","5.6","","-4.2","","49","","","","18","","26","","32.2","","95.62","","","","","","NA"
"-94.36","49.79","KENORA A","6034076","2018-12-15 18:00","2018","12","15","18:00","5.2","","-4.9","","48","","","","18","","25","","32.2","","95.54","","","","","","Mostly Cloudy"
"-94.36","49.79","KENORA A","6034076","2018-12-15 19:00","2018","12","15","19:00","5.1","","-5.2","","47","","","","19","","28","","32.2","","95.42","","","","","","NA"
"-94.36","49.79","KENORA A","6034076","2018-12-15 20:00","2018","12","15","20:00","4.6","","-4.5","","52","","","","20","","32","","32.2","","95.40","","","","","","NA"
"-94.36","49.79","KENORA A","6034076","2018-12-15 21:00","2018","12","15","21:00","2.8","","-2.5","","68","","","","21","","27","","32.2","","95.45","","","","","","Mainly Clear"
"-94.36","49.79","KENORA A","6034076","2018-12-15 22:00","2018","12","15","22:00","1.8","","-2.2","","75","","","","21","","20","","32.2","","95.52","","","","","","NA"
"-94.36","49.79","KENORA A","6034076","2018-12-15 23:00","2018","12","15","23:00","0.9","","-2.1","","80","","","","20","","17","","32.2","","95.48","","","","","","NA"
"-94.36","49.79","KENORA A","6034076","2018-12-16 00:00","2018","12","16","00:00","0.2","","-2.3","","84","","","","21","","18","","32.2","","95.58","","","","","","Mainly Clear"
"-94.36","49.79","KENORA A","6034076","2018-12-16 01:00","2018","12","16","01:00","1.7","","-1.6","","79","","","","24","","22","","32.2","","95.63","","","","","","NA"
"-94.36","49.79","KENORA A","6034076","2018-12-16 02:00","2018","12","16","02:00","1.6","","-1.5","","80","","","","24","","17","","32.2","","95.72","","","","","","NA"
"-94.36","49.79","KENORA A","6034076","2018-12-16 03:00","2018","12","16","03:00","0.0","","-2.2","","86","","","","25","","15","","32.2","","95.85","","","","-4","","Mainly Clear"
"-94.36","49.79","KENORA A","6034076","2018-12-16 04:00","2018","12","16","04:00","-0.2","","-2.0","","88","","","","26","","15","","32.2","","95.91","","","","-5","","NA"
"-94.36","49.79","KENORA A","6034076","2018-12-16 05:00","2018","12","16","05:00","-0.6","","-2.4","","87","","","","26","","18","","32.2","","95.97","","","","-6","","NA"
"-94.36","49.79","KENORA A","6034076","2018-12-16 06:00","2018","12","16","06:00","-0.4","","-3.7","","78","","","","27","","21","","32.2","","96.03","","","","-6","","Clear"
"-94.36","49.79","KENORA A","6034076","2018-12-16 07:00","2018","12","16","07:00","-1.1","","-5.7","","71","","","","28","","18","","32.2","","96.07","","","","-6","","NA"
"-94.36","49.79","KENORA A","6034076","2018-12-16 08:00","2018","12","16","08:00","-1.8","","-6.7","","69","","","","28","","21","","32.2","","96.10","","","","-8","","NA"
"-94.36","49.79","KENORA A","6034076","2018-12-16 09:00","2018","12","16","09:00","-1.9","","-7.3","","67","","","","28","","23","","32.2","","96.18","","","","-8","","Mostly Cloudy"
"-94.36","49.79","KENORA A","6034076","2018-12-16 10:00","2018","12","16","10:00","-1.8","","-7.7","","64","","","","28","","26","","32.2","","96.26","","","","-8","","NA"
"-94.36","49.79","KENORA A","6034076","2018-12-16 11:00","2018","12","16","11:00","-1.6","","-7.6","","64","","","","28","","25","","32.2","","96.33","","","","-8","","NA"
"-94.36","49.79","KENORA A","6034076","2018-12-16 12:00","2018","12","16","12:00","-1.8","","-7.8","","64","","","","28","","21","","32.2","","96.37","","","","-8","","Mostly Cloudy"
"-94.36","49.79","KENORA A","6034076","2018-12-16 13:00","2018","12","16","13:00","-2.3","","-8.8","","61","","","","29","","33","","32.2","","96.41","","","","-10","","Blowing Snow"
"-94.36","49.79","KENORA A","6034076","2018-12-16 14:00","2018","12","16","14:00","-3.9","","-11.3","","57","","","","31","","24","","32.2","","96.56","","","","-11","","Blowing Snow"
"-94.36","49.79","KENORA A","6034076","2018-12-16 15:00","2018","12","16","15:00","-6.8","","-14.0","","57","","","","30","","23","","32.2","","96.77","","","","-14","","Blowing Snow"
"-94.36","49.79","KENORA A","6034076","2018-12-16 16:00","2018","12","16","16:00","-8.4","","-14.8","","60","","","","30","","21","","32.2","","96.93","","","","-16","","Blowing Snow"
"-94.36","49.79","KENORA A","6034076","2018-12-16 17:00","2018","12","16","17:00","-9.2","","-14.8","","64","","","","31","","20","","32.2","","97.05","","","","-17","","Blowing Snow"
"-94.36","49.79","KENORA A","6034076","2018-12-16 18:00","2018","12","16","18:00","-9.8","","-14.9","","67","","","","31","","17","","32.2","","97.14","","","","-17","","Blowing Snow"
"-94.36","49.79","KENORA A","6034076","2018-12-16 19:00","2018","12","16","19:00","-10.5","","-14.9","","70","","","","32","","13","","32.2","","97.21","","","","-17","","NA"
"-94.36","49.79","KENORA A","6034076","2018-12-16 20:00","2018","12","16","20:00","-11.2","","-15.1","","73","","","","34","","12","","32.2","","97.25","","","","-17","","NA"
"-94.36","49.79","KENORA A","6034076","2018-12-16 21:00","2018","12","16","21:00","-11.7","","-15.3","","75","","","","33","","17","","32.2","","97.30","","","","-19","","Clear"
"-94.36","49.79","KENORA A","6034076","2018-12-16 22:00","2018","12","16","22:00","-12.3","","-15.4","","78","","","","34","","15","","32.2","","97.33","","","","-20","","NA"
"-94.36","49.79","KENORA A","6034076","2018-12-16 23:00","2018","12","16","23:00","-12.6","","-15.5","","79","","","","32","","11","","32.2","","97.35","","","","-19","","NA"
"-94.36","49.79","KENORA A","6034076","2018-12-17 00:00","2018","12","17","00:00","-13.1","","-15.6","","82","","","","30","","12","","32.2","","97.37","","","","-20","","Mainly Clear"
"-94.36","49.79","KENORA A","6034076","2018-12-17 01:00","2018","12","17","01:00","-13.4","","-15.7","","83","","","","33","","12","","32.2","","97.39","","","","-20","","NA"
"-94.36","49.79","KENORA A","6034076","2018-12-17 02:00","2018","12","17","02:00","-13.4","","-15.6","","83","","","","32","","13","","32.2","","97.43","","","","-20","","NA"
"-94.36","49.79","KENORA A","6034076","2018-12-17 03:00","2018","12","17","03:00","-13.6","","-15.7","","84","","","","33","","9","","32.2","","97.45","","","","-19","","Mostly Cloudy"
"-94.36","49.79","KENORA A","6034076","2018-12-17 04:00","2018","12","17","04:00","-13.8","","-15.8","","85","","","","31","","7","","32.2","","97.51","","","","-18","","NA"
"-94.36","49.79","KENORA A","6034076","2018-12-17 05:00","2018","12","17","05:00","-13.6","","-15.6","","85","","","","31","","8","","32.2","","97.54","","","","-19","","NA"
"-94.36","49.79","KENORA A","6034076","2018-12-17 06:00","2018","12","17","06:00","-13.6","","-15.6","","85","","","","33","","7","","32.2","","97.54","","","","-18","","Cloudy"
"-94.36","49.79","KENORA A","6034076","2018-12-17 07:00","2018","12","17","07:00","-14.3","","-16.0","","87","","","","36","","1","","32.2","","97.49","","","","-15","","NA"
"-94.36","49.79","KENORA A","6034076","2018-12-17 08:00","2018","12","17","08:00","-15.0","","-16.8","","86","","","","31","","4","","32.2","","97.53","","","","-18","","NA"
"-94.36","49.79","KENORA A","6034076","2018-12-17 09:00","2018","12","17","09:00","-14.7","","-16.4","","87","","","","26","","6","","32.2","","97.55","","","","-19","","Mostly Cloudy"
"-94.36","49.79","KENORA A","6034076","2018-12-17 10:00","2018","12","17","10:00","-13.5","","-15.4","","85","","","","36","","1","","32.2","","97.52","","","","-14","","NA"
"-94.36","49.79","KENORA A","6034076","2018-12-17 11:00","2018","12","17","11:00","-11.9","","-15.5","","75","","","","8","","4","","32.2","","97.50","","","","-14","","NA"
"-94.36","49.79","KENORA A","6034076","2018-12-17 12:00","2018","12","17","12:00","-9.6","","-14.4","","68","","","","19","","7","","32.2","","97.44","","","","-14","","Mainly Clear"
"-94.36","49.79","KENORA A","6034076","2018-12-17 13:00","2018","12","17","13:00","-8.3","","-13.9","","64","","","","19","","8","","32.2","","97.42","","","","-12","","NA"
"-94.36","49.79","KENORA A","6034076","2018-12-17 14:00","2018","12","17","14:00","-7.5","","-13.7","","62","","","","15","","9","","32.2","","97.35","","","","-12","","NA"
"-94.36","49.79","KENORA A","6034076","2018-12-17 15:00","2018","12","17","15:00","-7.0","","-13.6","","60","","","","17","","7","","32.2","","97.32","","","","-11","","Mainly Clear"
"-94.36","49.79","KENORA A","6034076","2018-12-17 16:00","2018","12","17","16:00","-7.2","","-13.6","","61","","","","17","","9","","32.2","","97.28","","","","-12","","NA"
"-94.36","49.79","KENORA A","6034076","2018-12-17 17:00","2018","12","17","17:00","-8.2","","-13.8","","64","","","","16","","12","","32.2","","97.23","","","","-14","","NA"
"-94.36","49.79","KENORA A","6034076","2018-12-17 18:00","2018","12","17","18:00","-8.8","","-13.9","","67","","","","14","","12","","32.2","","97.18","","","","-14","","Mainly Clear"
"-94.36","49.79","KENORA A","6034076","2018-12-17 19:00","2018","12","17","19:00","-8.3","","-13.5","","67","","","","14","","16","","32.2","","97.06","","","","-15","","NA"
"-94.36","49.79","KENORA A","6034076","2018-12-17 20:00","2018","12","17","20:00","-8.3","","-13.5","","66","","","","15","","16","","32.2","","96.95","","","","-15","","NA"
"-94.36","49.79","KENORA A","6034076","2018-12-17 21:00","2018","12","17","21:00","-8.5","","-13.7","","67","","","","14","","16","","32.2","","96.89","","","","-15","","Mainly Clear"
"-94.36","49.79","KENORA A","6034076","2018-12-17 22:00","2018","12","17","22:00","-8.0","","-13.4","","65","","","","16","","21","","32.2","","96.82","","","","-16","","NA"
"-94.36","49.79","KENORA A","6034076","2018-12-17 23:00","2018","12","17","23:00","-7.5","","-13.2","","64","","","","16","","17","","32.2","","96.80","","","","-14","","NA"
"-94.36","49.79","KENORA A","6034076","2018-12-18 00:00","2018","12","18","00:00","-7.7","","-13.3","","64","","","","16","","18","","24.1","","96.71","","","","-15","","Mostly Cloudy"
"-94.36","49.79","KENORA A","6034076","2018-12-18 01:00","2018","12","18","01:00","-8.3","","-13.4","","67","","","","16","","21","","32.2","","96.58","","","","-16","","NA"
"-94.36","49.79","KENORA A","6034076","2018-12-18 02:00","2018","12","18","02:00","-8.3","","-13.4","","67","","","","16","","21","","32.2","","96.46","","","","-16","","NA"
"-94.36","49.79","KENORA A","6034076","2018-12-18 03:00","2018","12","18","03:00","-8.4","","-13.4","","68","","","","16","","17","","32.2","","96.39","","","","-15","","Mainly Clear"
"-94.36","49.79","KENORA A","6034076","2018-12-18 04:00","2018","12","18","04:00","-8.5","","-13.2","","69","","","","16","","23","","32.2","","96.26","","","","-17","","NA"
"-94.36","49.79","KENORA A","6034076","2018-12-18 05:00","2018","12","18","05:00","-7.8","","-12.8","","68","","","","18","","19","","32.2","","96.15","","","","-15","","NA"
"-94.36","49.79","KENORA A","6034076","2018-12-18 06:00","2018","12","18","06:00","-7.4","","-12.6","","67","","","","19","","18","","32.2","","96.08","","","","-14","","Clear"
"-94.36","49.79","KENORA A","6034076","2018-12-18 07:00","2018","12","18","07:00","-7.2","","-12.2","","67","","","","17","","19","","32.2","","96.05","","","","-14","","NA"
"-94.36","49.79","KENORA A","6034076","2018-12-18 08:00","2018","12","18","08:00","-6.8","","-11.8","","68","","","","17","","16","","32.2","","95.97","","","","-13","","NA"
"-94.36","49.79","KENORA A","6034076","2018-12-18 09:00","2018","12","18","09:00","-7.0","","-11.5","","70","","","","19","","18","","32.2","","95.88","","","","-14","","Mostly Cloudy"
"-94.36","49.79","KENORA A","6034076","2018-12-18 10:00","2018","12","18","10:00","-6.2","","-10.8","","70","","","","18","","21","","32.2","","95.85","","","","-13","","NA"
"-94.36","49.79","KENORA A","6034076","2018-12-18 11:00","2018","12","18","11:00","-5.1","","-10.1","","68","","","","20","","19","","32.2","","95.85","","","","-12","","NA"
"-94.36","49.79","KENORA A","6034076","2018-12-18 12:00","2018","12","18","12:00","-4.3","","-9.0","","70","","","","20","","15","","32.2","","95.78","","","","-10","","Mainly Clear"
"-94.36","49.79","KENORA A","6034076","2018-12-18 13:00","2018","12","18","13:00","-3.7","","-8.3","","71","","","","20","","22","","32.2","","95.74","","","","-10","","NA"
"-94.36","49.79","KENORA A","6034076","2018-12-18 14:00","2018","12","18","14:00","-3.5","","-8.1","","71","","","","20","","19","","32.2","","95.70","","","","-9","","NA"
"-94.36","49.79","KENORA A","6034076","2018-12-18 15:00","2018","12","18","15:00","-3.9","","-7.9","","74","","","","20","","15","","32.2","","95.73","","","","-9","","Mostly Cloudy"
"-94.36","49.79","KENORA A","6034076","2018-12-18 16:00","2018","12","18","16:00","-4.2","","-7.7","","77","","","","21","","13","","32.2","","95.74","","","","-9","","NA"
"-94.36","49.79","KENORA A","6034076","2018-12-18 17:00","2018","12","18","17:00","-5.0","","-7.7","","81","","","","20","","11","","32.2","","95.73","","","","-10","","NA"
"-94.36","49.79","KENORA A","6034076","2018-12-18 18:00","2018","12","18","18:00","-4.8","","-7.5","","82","","","","20","","12","","32.2","","95.71","","","","-10","","Mainly Clear"
"-94.36","49.79","KENORA A","6034076","2018-12-18 19:00","2018","12","18","19:00","-5.0","","-7.2","","85","","","","19","","17","","32.2","","95.64","","","","-11","","NA"
"-94.36","49.79","KENORA A","6034076","2018-12-18 20:00","2018","12","18","20:00","-5.0","","-7.0","","86","","","","19","","16","","32.2","","95.57","","","","-11","","NA"
"-94.36","49.79","KENORA A","6034076","2018-12-18 21:00","2018","12","18","21:00","-5.1","","-6.8","","88","","","","19","","13","","32.2","","95.53","","","","-10","","Mainly Clear"
"-94.36","49.79","KENORA A","6034076","2018-12-18 22:00","2018","12","18","22:00","-4.8","","-6.5","","88","","","","18","","15","","32.2","","95.44","","","","-10","","NA"
"-94.36","49.79","KENORA A","6034076","2018-12-18 23:00","2018","12","18","23:00","-4.5","","-6.2","","88","","","","19","","16","","32.2","","95.44","","","","-10","","NA"
"-94.36","49.79","KENORA A","6034076","2018-12-19 00:00","2018","12","19","00:00","-4.6","","-6.2","","89","","","","18","","15","","32.2","","95.38","","","","-10","","Mainly Clear"
"-94.36","49.79","KENORA A","6034076","2018-12-19 01:00","2018","12","19","01:00","-5.2","","-6.3","","92","","","","16","","13","","32.2","","95.32","","","","-10","","NA"
"-94.36","49.79","KENORA A","6034076","2018-12-19 02:00","2018","12","19","02:00","-4.4","","-5.5","","92","","","","18","","13","","32.2","","95.28","","","","-9","","NA"
"-94.36","49.79","KENORA A","6034076","2018-12-19 03:00","2018","12","19","03:00","-5.0","","-6.0","","93","","","","16","","16","","24.1","","95.23","","","","-11","","Mostly Cloudy"
"-94.36","49.79","KENORA A","6034076","2018-12-19 04:00","2018","12","19","04:00","-4.1","","-5.2","","92","","","","16","","10","","24.1","","95.18","","","","-8","","NA"
"-94.36","49.79","KENORA A","6034076","2018-12-19 05:00","2018","12","19","05:00","-3.6","","-4.8","","92","","","","16","","17","","24.1","","95.09","","","","-9","","NA"
"-94.36","49.79","KENORA A","6034076","2018-12-19 06:00","2018","12","19","06:00","-3.0","","-4.2","","91","","","","16","","17","","19.3","","95.00","","","","-9","","Cloudy"
"-94.36","49.79","KENORA A","6034076","2018-12-19 07:00","2018","12","19","07:00","-2.7","","-4.0","","91","","","","16","","16","","32.2","","94.98","","","","-8","","Freezing Rain"
"-94.36","49.79","KENORA A","6034076","2018-12-19 08:00","2018","12","19","08:00","-2.6","","-4.0","","90","","","","16","","14","","32.2","","94.98","","","","-7","","NA"
"-94.36","49.79","KENORA A","6034076","2018-12-19 09:00","2018","12","19","09:00","-2.2","","-3.5","","90","","","","17","","13","","24.1","","94.96","","","","-7","","Freezing Rain"
"-94.36","49.79","KENORA A","6034076","2018-12-19 10:00","2018","12","19","10:00","-1.6","","-3.2","","89","","","","19","","12","","12.9","","94.98","","","","-6","","Freezing Rain"
"-94.36","49.79","KENORA A","6034076","2018-12-19 11:00","2018","12","19","11:00","-1.1","","-2.4","","91","","","","19","","16","","16.1","","94.97","","","","-6","","Freezing Rain"
"-94.36","49.79","KENORA A","6034076","2018-12-19 12:00","2018","12","19","12:00","-0.6","","-1.6","","93","","","","19","","7","","16.1","","94.93","","","","-3","","Freezing Rain"
"-94.36","49.79","KENORA A","6034076","2018-12-19 13:00","2018","12","19","13:00","0.0","","-1.3","","91","","","","21","","10","","16.1","","94.89","","","","-3","","Freezing Rain"
"-94.36","49.79","KENORA A","6034076","2018-12-19 14:00","2018","12","19","14:00","0.0","","-1.0","","93","","","","19","","9","","9.7","","94.90","","","","-3","","Rain,Fog"
"-94.36","49.79","KENORA A","6034076","2018-12-19 15:00","2018","12","19","15:00","0.1","","-0.6","","95","","","","21","","4","","9.7","","94.98","","","","","","Rain,Fog"
"-94.36","49.79","KENORA A","6034076","2018-12-19 16:00","2018","12","19","16:00","0.0","","-0.6","","96","","","","23","","7","","9.7","","95.05","","","","-2","","Rain,Fog"
"-94.36","49.79","KENORA A","6034076","2018-12-19 17:00","2018","12","19","17:00","0.0","","-0.5","","97","","","","26","","5","","4.8","","95.09","","","","-2","","Rain,Fog"
"-94.36","49.79","KENORA A","6034076","2018-12-19 18:00","2018","12","19","18:00","-0.1","","-0.5","","97","","","","36","","3","","4.8","","95.15","","","","-1","","Freezing Rain,Fog"
"-94.36","49.79","KENORA A","6034076","2018-12-19 19:00","2018","12","19","19:00","0.0","","-0.4","","98","","","","32","","11","","2.4","","95.23","","","","-4","","Snow"
"-94.36","49.79","KENORA A","6034076","2018-12-19 20:00","2018","12","19","20:00","-0.2","","-0.5","","98","","","","34","","15","","1.6","","95.30","","","","-5","","Snow"
"-94.36","49.79","KENORA A","6034076","2018-12-19 21:00","2018","12","19","21:00","-0.3","","-0.6","","98","","","","34","","16","","1.6","","95.41","","","","-5","","Snow"
"-94.36","49.79","KENORA A","6034076","2018-12-19 22:00","2018","12","19","22:00","-0.6","","-1.2","","96","","","","35","","16","","3.2","","95.48","","","","-5","","Snow"
"-94.36","49.79","KENORA A","6034076","2018-12-19 23:00","2018","12","19","23:00","-1.3","","-2.1","","94","","","","35","","23","","9.7","","95.61","","","","-7","","Snow"
"-94.36","49.79","KENORA A","6034076","2018-12-20 00:00","2018","12","20","00:00","-2.2","","-3.2","","93","","","","36","","20","","12.9","","95.71","","","","-8","","Snow"
"-94.36","49.79","KENORA A","6034076","2018-12-20 01:00","2018","12","20","01:00","-3.0","","-4.1","","92","","","","35","","20","","12.9","","95.80","","","","-9","","Snow"
"-94.36","49.79","KENORA A","6034076","2018-12-20 02:00","2018","12","20","02:00","-3.5","","-4.4","","93","","","","36","","20","","19.3","","95.91","","","","-10","","Snow"
"-94.36","49.79","KENORA A","6034076","2018-12-20 03:00","2018","12","20","03:00","-3.9","","-4.8","","93","","","","35","","22","","9.7","","96.02","","","","-10","","Snow"
"-94.36","49.79","KENORA A","6034076","2018-12-20 04:00","2018","12","20","04:00","-4.2","","-5.1","","93","","","","35","","12","","16.1","","96.09","","","","-9","","Snow"
"-94.36","49.79","KENORA A","6034076","2018-12-20 05:00","2018","12","20","05:00","-5.0","","-5.8","","94","","","","33","","19","","24.1","","96.15","","","","-11","","Snow"
"-94.36","49.79","KENORA A","6034076","2018-12-20 06:00","2018","12","20","06:00","-5.7","","-6.5","","94","","","","35","","18","","24.1","","96.23","","","","-12","","Snow"
"-94.36","49.79","KENORA A","6034076","2018-12-20 07:00","2018","12","20","07:00","-6.4","","-7.2","","94","","","","35","","18","","16.1","","96.27","","","","-13","","Snow"
"-94.36","49.79","KENORA A","6034076","2018-12-20 08:00","2018","12","20","08:00","-7.1","","-7.9","","94","","","","35","","16","","16.1","","96.37","","","","-13","","Snow"
"-94.36","49.79","KENORA A","6034076","2018-12-20 09:00","2018","12","20","09:00","-8.0","","-9.0","","93","","","","3","","15","","19.3","","96.46","","","","-14","","Snow"
"-94.36","49.79","KENORA A","6034076","2018-12-20 10:00","2018","12","20","10:00","-8.6","","-9.6","","92","","","","34","","16","","24.1","","96.56","","","","-15","","Snow"
"-94.36","49.79","KENORA A","6034076","2018-12-20 11:00","2018","12","20","11:00","-9.3","","-10.6","","91","","","","2","","15","","24.1","","96.62","","","","-16","","Snow"
"-94.36","49.79","KENORA A","6034076","2018-12-20 12:00","2018","12","20","12:00","-10.0","","-11.6","","88","","","","3","","12","","16.1","","96.63","","","","-16","","Snow"
"-94.36","49.79","KENORA A","6034076","2018-12-20 13:00","2018","12","20","13:00","-10.5","","-12.4","","86","","","","3","","14","","8.1","","96.66","","","","-17","","Snow"
"-94.36","49.79","KENORA A","6034076","2018-12-20 14:00","2018","12","20","14:00","-11.3","","-13.4","","85","","","","35","","9","","8.1","","96.68","","","","-16","","Snow"
"-94.36","49.79","KENORA A","6034076","2018-12-20 15:00","2018","12","20","15:00","-11.6","","-13.8","","83","","","","35","","9","","16.1","","96.72","","","","-17","","Snow"
"-94.36","49.79","KENORA A","6034076","2018-12-20 16:00","2018","12","20","16:00","-12.0","","-14.1","","84","","","","6","","7","","12.9","","96.77","","","","-16","","Snow"
"-94.36","49.79","KENORA A","6034076","2018-12-20 17:00","2018","12","20","17:00","-12.3","","-14.5","","84","","","","36","","8","","24.1","","96.88","","","","-17","","Snow"
"-94.36","49.79","KENORA A","6034076","2018-12-20 18:00","2018","12","20","18:00","-12.8","","-14.8","","85","","","","5","","9","","32.2","","96.84","","","","-18","","Snow"
"-94.36","49.79","KENORA A","6034076","2018-12-20 19:00","2018","12","20","19:00","-13.1","","-14.9","","86","","","","6","","8","","32.2","","96.83","","","","-18","","Snow"
"-94.36","49.79","KENORA A","6034076","2018-12-20 20:00","2018","12","20","20:00","-13.2","","-14.9","","87","","","","5","","7","","16.1","","96.82","","","","-18","","Snow"
"-94.36","49.79","KENORA A","6034076","2018-12-20 21:00","2018","12","20","21:00","-13.4","","-15.0","","88","","","","10","","11","","16.1","","96.76","","","","-20","","Snow"
"-94.36","49.79","KENORA A","6034076","2018-12-20 22:00","2018","12","20","22:00","-13.7","","-15.2","","89","","","","7","","10","","16.1","","96.76","","","","-20","","Snow"
"-94.36","49.79","KENORA A","6034076","2018-12-20 23:00","2018","12","20","23:00","-13.6","","-15.3","","87","","","","10","","12","","16.1","","96.75","","","","-20","","Snow"
"-94.36","49.79","KENORA A","6034076","2018-12-21 00:00","2018","12","21","00:00","-13.6","","-15.2","","87","","","","11","","9","","16.1","","96.77","","","","-19","","Snow"
"-94.36","49.79","KENORA A","6034076","2018-12-21 01:00","2018","12","21","01:00","-13.7","","-15.5","","87","","","","7","","9","","12.9","","96.74","","","","-19","","Snow"
"-94.36","49.79","KENORA A","6034076","2018-12-21 02:00","2018","12","21","02:00","-13.8","","-15.6","","87","","","","7","","10","","19.3","","96.71","","","","-20","","Snow"
"-94.36","49.79","KENORA A","6034076","2018-12-21 03:00","2018","12","21","03:00","-14.0","","-15.8","","87","","","","8","","8","","16.1","","96.67","","","","-19","","Snow"
"-94.36","49.79","KENORA A","6034076","2018-12-21 04:00","2018","12","21","04:00","-14.2","","-15.9","","88","","","","8","","13","","24.1","","96.59","","","","-21","","Snow"
"-94.36","49.79","KENORA A","6034076","2018-12-21 05:00","2018","12","21","05:00","-14.4","","-16.0","","88","","","","10","","13","","24.1","","96.57","","","","-22","","Snow"
"-94.36","49.79","KENORA A","6034076","2018-12-21 06:00","2018","12","21","06:00","-14.4","","-16.2","","87","","","","11","","13","","16.1","","96.56","","","","-22","","Snow"
"-94.36","49.79","KENORA A","6034076","2018-12-21 07:00","2018","12","21","07:00","-14.6","","-16.2","","87","","","","10","","14","","16.1","","96.49","","","","-22","","Snow"
"-94.36","49.79","KENORA A","6034076","2018-12-21 08:00","2018","12","21","08:00","-14.7","","-16.3","","87","","","","12","","11","","24.1","","96.46","","","","-21","","Snow"
"-94.36","49.79","KENORA A","6034076","2018-12-21 09:00","2018","12","21","09:00","-14.6","","-16.3","","87","","","","12","","12","","24.1","","96.43","","","","-21","","Snow"
"-94.36","49.79","KENORA A","6034076","2018-12-21 10:00","2018","12","21","10:00","-14.3","","-16.1","","87","","","","10","","16","","9.7","","96.40","","","","-22","","Snow"
"-94.36","49.79","KENORA A","6034076","2018-12-21 11:00","2018","12","21","11:00","-14.2","","-16.0","","87","","","","10","","13","","24.1","","96.37","","","","-21","","Snow"
"-94.36","49.79","KENORA A","6034076","2018-12-21 12:00","2018","12","21","12:00","-13.2","","-15.1","","86","","","","11","","11","","24.1","","96.30","","","","-19","","Snow"
"-94.36","49.79","KENORA A","6034076","2018-12-21 13:00","2018","12","21","13:00","-12.4","","-14.8","","83","","","","11","","15","","24.1","","96.18","","","","-20","","Ice Crystals"
"-94.36","49.79","KENORA A","6034076","2018-12-21 14:00","2018","12","21","14:00","-11.7","","-14.2","","81","","","","12","","14","","32.2","","96.15","","","","-19","","Ice Crystals"
"-94.36","49.79","KENORA A","6034076","2018-12-21 15:00","2018","12","21","15:00","-11.8","","-14.0","","83","","","","12","","8","","32.2","","96.18","","","","-17","","Ice Crystals"
"-94.36","49.79","KENORA A","6034076","2018-12-21 16:00","2018","12","21","16:00","-12.2","","-14.2","","85","","","","12","","14","","32.2","","96.15","","","","-19","","Ice Crystals"
"-94.36","49.79","KENORA A","6034076","2018-12-21 17:00","2018","12","21","17:00","-12.6","","-14.6","","85","","","","10","","20","","32.2","","96.10","","","","-21","","Ice Crystals"
"-94.36","49.79","KENORA A","6034076","2018-12-21 18:00","2018","12","21","18:00","-12.7","","-14.8","","85","","","","11","","20","","32.2","","96.07","","","","-21","","Ice Crystals"
"-94.36","49.79","KENORA A","6034076","2018-12-21 19:00","2018","12","21","19:00","-12.5","","-14.6","","85","","","","11","","16","","24.1","","96.09","","","","-20","","Ice Crystals"
"-94.36","49.79","KENORA A","6034076","2018-12-21 20:00","2018","12","21","20:00","-12.5","","-14.6","","85","","","","12","","15","","24.1","","96.05","","","","-20","","NA"
"-94.36","49.79","KENORA A","6034076","2018-12-21 21:00","2018","12","21","21:00","-12.2","","-14.4","","84","","","","11","","15","","24.1","","96.01","","","","-19","","Mostly Cloudy"
"-94.36","49.79","KENORA A","6034076","2018-12-21 22:00","2018","12","21","22:00","-12.0","","-14.3","","83","","","","14","","16","","24.1","","96.02","","","","-19","","NA"
"-94.36","49.79","KENORA A","6034076","2018-12-21 23:00","2018","12","21","23:00","-12.1","","-14.3","","83","","","","12","","17","","24.1","","95.95","","","","-20","","NA"
"-94.36","49.79","KENORA A","6034076","2018-12-22 00:00","2018","12","22","00:00","-12.4","","-14.6","","84","","","","13","","11","","24.1","","96.03","","","","-18","","Mostly Cloudy"
"-94.36","49.79","KENORA A","6034076","2018-12-22 01:00","2018","12","22","01:00","-12.6","","-14.7","","84","","","","12","","16","","24.1","","96.01","","","","-20","","NA"
"-94.36","49.79","KENORA A","6034076","2018-12-22 02:00","2018","12","22","02:00","-12.7","","-14.9","","84","","","","12","","14","","24.1","","96.01","","","","-20","","NA"
"-94.36","49.79","KENORA A","6034076","2018-12-22 03:00","2018","12","22","03:00","-12.5","","-14.6","","84","","","","12","","17","","24.1","","95.96","","","","-20","","Mostly Cloudy"
"-94.36","49.79","KENORA A","6034076","2018-12-22 04:00","2018","12","22","04:00","-12.2","","-14.4","","84","","","","13","","14","","24.1","","95.94","","","","-19","","NA"
"-94.36","49.79","KENORA A","6034076","2018-12-22 05:00","2018","12","22","05:00","-12.0","","-14.2","","84","","","","12","","18","","24.1","","95.92","","","","-20","","NA"
"-94.36","49.79","KENORA A","6034076","2018-12-22 06:00","2018","12","22","06:00","-11.8","","-13.9","","85","","","","12","","17","","19.3","","95.93","","","","-19","","Snow"
"-94.36","49.79","KENORA A","6034076","2018-12-22 07:00","2018","12","22","07:00","-11.6","","-13.3","","88","","","","12","","14","","19.3","","95.94","","","","-18","","Snow"
"-94.36","49.79","KENORA A","6034076","2018-12-22 08:00","2018","12","22","08:00","-11.1","","-12.6","","89","","","","13","","19","","19.3","","95.96","","","","-19","","Snow"
"-94.36","49.79","KENORA A","6034076","2018-12-22 09:00","2018","12","22","09:00","-10.7","","-12.2","","89","","","","13","","15","","4.0","","96.00","","","","-18","","Snow"
"-94.36","49.79","KENORA A","6034076","2018-12-22 10:00","2018","12","22","10:00","-9.8","","-11.3","","89","","","","13","","17","","19.3","","96.04","","","","-17","","Snow"
"-94.36","49.79","KENORA A","6034076","2018-12-22 11:00","2018","12","22","11:00","-8.2","","-10.2","","86","","","","14","","21","","3.2","","96.03","","","","-16","","Snow"
"-94.36","49.79","KENORA A","6034076","2018-12-22 12:00","2018","12","22","12:00","-7.9","","-9.8","","86","","","","13","","18","","12.9","","95.96","","","","-15","","Snow"
"-94.36","49.79","KENORA A","6034076","2018-12-22 13:00","2018","12","22","13:00","-7.7","","-9.6","","86","","","","12","","18","","24.1","","95.91","","","","-15","","Snow"
"-94.36","49.79","KENORA A","6034076","2018-12-22 14:00","2018","12","22","14:00","-7.3","","-9.1","","87","","","","12","","14","","24.1","","95.94","","","","-13","","Snow"
"-94.36","49.79","KENORA A","6034076","2018-12-22 15:00","2018","12","22","15:00","-7.2","","-8.9","","87","","","","12","","14","","4.8","","95.96","","","","-13","","Snow"
"-94.36","49.79","KENORA A","6034076","2018-12-22 16:00","2018","12","22","16:00","-7.1","","-8.6","","89","","","","11","","14","","3.2","","95.98","","","","-13","","Snow"
"-94.36","49.79","KENORA A","6034076","2018-12-22 17:00","2018","12","22","17:00","-7.1","","-8.5","","90","","","","10","","15","","1.6","","95.99","","","","-13","","Snow"
"-94.36","49.79","KENORA A","6034076","2018-12-22 18:00","2018","12","22","18:00","-7.0","","-8.3","","90","","","","10","","16","","2.4","","96.01","","","","-13","","Snow"
"-94.36","49.79","KENORA A","6034076","2018-12-22 19:00","2018","12","22","19:00","-7.3","","-8.4","","92","","","","7","","10","","3.2","","96.01","","","","-12","","Snow"
"-94.36","49.79","KENORA A","6034076","2018-12-22 20:00","2018","12","22","20:00","-6.9","","-7.6","","94","","","","8","","14","","3.2","","96.03","","","","-13","","Snow,Blowing Snow"
"-94.36","49.79","KENORA A","6034076","2018-12-22 21:00","2018","12","22","21:00","-6.8","","-7.5","","94","","","","8","","14","","3.2","","96.01","","","","-13","","Snow"
"-94.36","49.79","KENORA A","6034076","2018-12-22 22:00","2018","12","22","22:00","-6.8","","-7.5","","94","","","","7","","13","","3.2","","96.03","","","","-12","","Snow,Blowing Snow"
"-94.36","49.79","KENORA A","6034076","2018-12-22 23:00","2018","12","22","23:00","-6.8","","-7.5","","94","","","","8","","10","","3.2","","96.06","","","","-11","","Snow,Blowing Snow"
"-94.36","49.79","KENORA A","6034076","2018-12-23 00:00","2018","12","23","00:00","-6.9","","-7.7","","94","","","","7","","10","","3.2","","96.05","","","","-12","","Snow,Blowing Snow"
"-94.36","49.79","KENORA A","6034076","2018-12-23 01:00","2018","12","23","01:00","-7.2","","-8.2","","93","","","","6","","8","","3.2","","96.05","","","","-11","","Snow,Blowing Snow"
"-94.36","49.79","KENORA A","6034076","2018-12-23 02:00","2018","12","23","02:00","-7.3","","-8.1","","94","","","","2","","10","","3.2","","96.09","","","","-12","","Snow,Blowing Snow"
"-94.36","49.79","KENORA A","6034076","2018-12-23 03:00","2018","12","23","03:00","-7.3","","-8.2","","93","","","","2","","8","","4.8","","96.11","","","","-11","","Snow,Blowing Snow"
"-94.36","49.79","KENORA A","6034076","2018-12-23 04:00","2018","12","23","04:00","-7.6","","-8.6","","93","","","","1","","8","","4.0","","96.14","","","","-12","","Snow,Blowing Snow"
"-94.36","49.79","KENORA A","6034076","2018-12-23 05:00","2018","12","23","05:00","-7.9","","-8.9","","92","","","","36","","12","","6.4","","96.15","","","","-13","","Snow,Blowing Snow"
"-94.36","49.79","KENORA A","6034076","2018-12-23 06:00","2018","12","23","06:00","-8.6","","-9.7","","92","","","","35","","13","","8.1","","96.22","","","","-15","","Snow,Blowing Snow"
"-94.36","49.79","KENORA A","6034076","2018-12-23 07:00","2018","12","23","07:00","-9.1","","-10.2","","92","","","","34","","13","","4.8","","96.26","","","","-15","","Freezing Drizzle,Snow"
"-94.36","49.79","KENORA A","6034076","2018-12-23 08:00","2018","12","23","08:00","-9.4","","-10.7","","91","","","","36","","10","","12.9","","96.29","","","","-15","","Snow"
"-94.36","49.79","KENORA A","6034076","2018-12-23 09:00","2018","12","23","09:00","-9.5","","-10.7","","91","","","","35","","10","","19.3","","96.37","","","","-15","","Snow"
"-94.36","49.79","KENORA A","6034076","2018-12-23 10:00","2018","12","23","10:00","-9.2","","-10.5","","91","","","","35","","9","","24.1","","96.42","","","","-14","","Snow"
"-94.36","49.79","KENORA A","6034076","2018-12-23 11:00","2018","12","23","11:00","-9.1","","-10.4","","91","","","","32","","11","","9.7","","96.45","","","","-15","","Snow"
"-94.36","49.79","KENORA A","6034076","2018-12-23 12:00","2018","12","23","12:00","-8.6","","-10.0","","90","","","","34","","13","","24.1","","96.43","","","","-15","","Snow"
"-94.36","49.79","KENORA A","6034076","2018-12-23 13:00","2018","12","23","13:00","-8.5","","-9.8","","90","","","","32","","12","","19.3","","96.45","","","","-14","","Snow"
"-94.36","49.79","KENORA A","6034076","2018-12-23 14:00","2018","12","23","14:00","-8.8","","-10.1","","90","","","","34","","13","","24.1","","96.49","","","","-15","","Snow"
"-94.36","49.79","KENORA A","6034076","2018-12-23 15:00","2018","12","23","15:00","-8.5","","-9.8","","90","","","","33","","9","","24.1","","96.57","","","","-13","","Snow"
"-94.36","49.79","KENORA A","6034076","2018-12-23 16:00","2018","12","23","16:00","-8.7","","-9.9","","91","","","","31","","9","","9.7","","96.66","","","","-13","","Snow Showers"
"-94.36","49.79","KENORA A","6034076","2018-12-23 17:00","2018","12","23","17:00","-9.2","","-10.5","","90","","","","30","","9","","19.3","","96.74","","","","-14","","Snow Showers"
"-94.36","49.79","KENORA A","6034076","2018-12-23 18:00","2018","12","23","18:00","-9.6","","-10.9","","90","","","","31","","11","","24.1","","96.77","","","","-15","","Snow Showers"
"-94.36","49.79","KENORA A","6034076","2018-12-23 19:00","2018","12","23","19:00","-9.9","","-11.3","","90","","","","34","","10","","12.9","","96.80","","","","-15","","Snow Showers"
"-94.36","49.79","KENORA A","6034076","2018-12-23 20:00","2018","12","23","20:00","-10.3","","-11.7","","90","","","","31","","8","","8.1","","96.82","","","","-15","","Snow Showers"
"-94.36","49.79","KENORA A","6034076","2018-12-23 21:00","2018","12","23","21:00","-10.7","","-12.2","","89","","","","29","","9","","16.1","","96.85","","","","-16","","Snow Showers"
"-94.36","49.79","KENORA A","6034076","2018-12-23 22:00","2018","12","23","22:00","-11.0","","-12.5","","89","","","","29","","10","","16.1","","96.91","","","","-16","","Snow Showers"
"-94.36","49.79","KENORA A","6034076","2018-12-23 23:00","2018","12","23","23:00","-11.2","","-12.6","","89","","","","29","","6","","9.7","","96.93","","","","-15","","Snow Showers"
"-94.36","49.79","KENORA A","6034076","2018-12-24 00:00","2018","12","24","00:00","-11.3","","-12.8","","89","","","","29","","4","","9.7","","96.94","","","","-14","","Snow Showers"
"-94.36","49.79","KENORA A","6034076","2018-12-24 01:00","2018","12","24","01:00","-11.4","","-13.0","","89","","","","29","","5","","8.1","","96.96","","","","-15","","Snow Showers"
"-94.36","49.79","KENORA A","6034076","2018-12-24 02:00","2018","12","24","02:00","-11.5","","-13.1","","88","","","","27","","6","","19.3","","97.02","","","","-15","","Snow Showers"
"-94.36","49.79","KENORA A","6034076","2018-12-24 03:00","2018","12","24","03:00","-11.6","","-13.1","","88","","","","28","","7","","9.7","","97.05","","","","-16","","Snow Showers"
"-94.36","49.79","KENORA A","6034076","2018-12-24 04:00","2018","12","24","04:00","-11.6","","-13.1","","89","","","","26","","7","","6.4","","97.03","","","","-16","","Snow Showers"
"-94.36","49.79","KENORA A","6034076","2018-12-24 05:00","2018","12","24","05:00","-11.7","","-13.3","","88","","","","26","","8","","4.8","","97.04","","","","-16","","Snow Showers"
"-94.36","49.79","KENORA A","6034076","2018-12-24 06:00","2018","12","24","06:00","-11.8","","-13.4","","88","","","","26","","9","","3.2","","97.08","","","","-17","","Ice Crystals,Snow Showers"
"-94.36","49.79","KENORA A","6034076","2018-12-24 07:00","2018","12","24","07:00","-11.9","","-13.6","","88","","","","29","","5","","16.1","","97.07","","","","-15","","Snow,Ice Crystals"
"-94.36","49.79","KENORA A","6034076","2018-12-24 08:00","2018","12","24","08:00","-11.9","","-13.6","","88","","","","25","","7","","16.1","","97.09","","","","-16","","Snow"
"-94.36","49.79","KENORA A","6034076","2018-12-24 09:00","2018","12","24","09:00","-11.9","","-13.5","","88","","","","36","","2","","24.1","","97.13","","","","-13","","Snow"
"-94.36","49.79","KENORA A","6034076","2018-12-24 10:00","2018","12","24","10:00","-11.7","","-13.5","","87","","","","24","","5","","16.1","","97.16","","","","-15","","Snow"
"-94.36","49.79","KENORA A","6034076","2018-12-24 11:00","2018","12","24","11:00","-11.4","","-13.6","","84","","","","26","","5","","9.7","","97.17","","","","-15","","Snow"
"-94.36","49.79","KENORA A","6034076","2018-12-24 12:00","2018","12","24","12:00","-11.2","","-13.2","","85","","","","24","","5","","9.7","","97.14","","","","-14","","Snow"
"-94.36","49.79","KENORA A","6034076","2018-12-24 13:00","2018","12","24","13:00","-10.9","","-13.3","","83","","","","25","","9","","9.7","","97.14","","","","-16","","Snow"
"-94.36","49.79","KENORA A","6034076","2018-12-24 14:00","2018","12","24","14:00","-10.7","","-13.2","","82","","","","25","","7","","12.9","","97.15","","","","-15","","Snow"
"-94.36","49.79","KENORA A","6034076","2018-12-24 15:00","2018","12","24","15:00","-10.7","","-12.5","","86","","","","21","","6","","19.3","","97.18","","","","-14","","Snow"
"-94.36","49.79","KENORA A","6034076","2018-12-24 16:00","2018","12","24","16:00","-10.9","","-12.9","","85","","","","20","","8","","19.3","","97.21","","","","-16","","Snow"
"-94.36","49.79","KENORA A","6034076","2018-12-24 17:00","2018","12","24","17:00","-11.1","","-13.0","","85","","","","21","","6","","19.3","","97.22","","","","-15","","Snow"
"-94.36","49.79","KENORA A","6034076","2018-12-24 18:00","2018","12","24","18:00","-11.2","","-13.1","","86","","","","36","","1","","19.3","","97.22","","","","-12","","Snow"
"-94.36","49.79","KENORA A","6034076","2018-12-24 19:00","2018","12","24","19:00","-11.1","","-12.8","","88","","","","34","","7","","12.9","","97.25","","","","-15","","Snow"
"-94.36","49.79","KENORA A","6034076","2018-12-24 20:00","2018","12","24","20:00","-11.6","","-13.4","","86","","","","35","","7","","24.1","","97.26","","","","-16","","Snow"
"-94.36","49.79","KENORA A","6034076","2018-12-24 21:00","2018","12","24","21:00","-12.0","","-13.7","","87","","","","35","","10","","24.1","","97.26","","","","-18","","Snow"
"-94.36","49.79","KENORA A","6034076","2018-12-24 22:00","2018","12","24","22:00","-12.2","","-14.1","","86","","","","35","","9","","24.1","","97.28","","","","-17","","Snow"
"-94.36","49.79","KENORA A","6034076","2018-12-24 23:00","2018","12","24","23:00","-12.3","","-14.2","","86","","","","36","","7","","24.1","","97.31","","","","-17","","Snow"
"-94.36","49.79","KENORA A","6034076","2018-12-25 00:00","2018","12","25","00:00","-12.3","","-14.1","","87","","","","35","","7","","24.1","","97.32","","","","-17","","Snow"
"-94.36","49.79","KENORA A","6034076","2018-12-25 01:00","2018","12","25","01:00","-12.4","","-14.2","","87","","","","35","","7","","24.1","","97.34","","","","-17","","Snow"
"-94.36","49.79","KENORA A","6034076","2018-12-25 02:00","2018","12","25","02:00","-12.5","","-14.3","","86","","","","34","","8","","24.1","","97.39","","","","-17","","Snow"
"-94.36","49.79","KENORA A","6034076","2018-12-25 03:00","2018","12","25","03:00","-12.6","","-14.6","","85","","","","34","","9","","24.1","","97.44","","","","-18","","Snow"
"-94.36","49.79","KENORA A","6034076","2018-12-25 04:00","2018","12","25","04:00","-12.8","","-15.0","","84","","","","34","","9","","24.1","","97.44","","","","-18","","Snow"
"-94.36","49.79","KENORA A","6034076","2018-12-25 05:00","2018","12","25","05:00","-12.9","","-14.9","","86","","","","33","","9","","24.1","","97.44","","","","-18","","Snow"
"-94.36","49.79","KENORA A","6034076","2018-12-25 06:00","2018","12","25","06:00","-13.0","","-14.8","","87","","","","34","","9","","24.1","","97.49","","","","-18","","Snow"
"-94.36","49.79","KENORA A","6034076","2018-12-25 07:00","2018","12","25","07:00","-13.1","","-14.8","","87","","","","33","","9","","24.1","","97.52","","","","-19","","Snow"
"-94.36","49.79","KENORA A","6034076","2018-12-25 08:00","2018","12","25","08:00","-13.3","","-15.0","","87","","","","34","","11","","19.3","","97.55","","","","-20","","Snow"
"-94.36","49.79","KENORA A","6034076","2018-12-25 09:00","2018","12","25","09:00","-13.3","","-15.2","","86","","","","34","","14","","24.1","","97.62","","","","-21","","Snow"
"-94.36","49.79","KENORA A","6034076","2018-12-25 10:00","2018","12","25","10:00","-13.2","","-15.1","","86","","","","32","","14","","19.3","","97.70","","","","-20","","Snow"
"-94.36","49.79","KENORA A","6034076","2018-12-25 11:00","2018","12","25","11:00","-12.9","","-15.3","","83","","","","35","","15","","19.3","","97.72","","","","-20","","Snow"
"-94.36","49.79","KENORA A","6034076","2018-12-25 12:00","2018","12","25","12:00","-12.8","","-15.2","","82","","","","33","","13","","16.1","","97.71","","","","-20","","Snow"
"-94.36","49.79","KENORA A","6034076","2018-12-25 13:00","2018","12","25","13:00","-12.6","","-15.1","","82","","","","32","","13","","16.1","","97.71","","","","-19","","Snow"
"-94.36","49.79","KENORA A","6034076","2018-12-25 14:00","2018","12","25","14:00","-12.4","","-14.9","","82","","","","33","","14","","16.1","","97.74","","","","-19","","Snow"
"-94.36","49.79","KENORA A","6034076","2018-12-25 15:00","2018","12","25","15:00","-12.4","","-14.8","","82","","","","32","","12","","16.1","","97.80","","","","-19","","Snow"
"-94.36","49.79","KENORA A","6034076","2018-12-25 16:00","2018","12","25","16:00","-12.5","","-14.7","","84","","","","34","","9","","16.1","","97.83","","","","-18","","Snow"
"-94.36","49.79","KENORA A","6034076","2018-12-25 17:00","2018","12","25","17:00","-12.8","","-15.0","","84","","","","35","","12","","16.1","","97.84","","","","-19","","Snow"
"-94.36","49.79","KENORA A","6034076","2018-12-25 18:00","2018","12","25","18:00","-13.0","","-14.9","","86","","","","35","","10","","19.3","","97.89","","","","-19","","Snow"
"-94.36","49.79","KENORA A","6034076","2018-12-25 19:00","2018","12","25","19:00","-13.5","","-15.4","","86","","","","35","","14","","32.2","","97.93","","","","-21","","Snow"
"-94.36","49.79","KENORA A","6034076","2018-12-25 20:00","2018","12","25","20:00","-13.8","","-15.7","","85","","","","35","","12","","32.2","","97.94","","","","-21","","Snow"
"-94.36","49.79","KENORA A","6034076","2018-12-25 21:00","2018","12","25","21:00","-13.9","","-15.7","","86","","","","36","","9","","32.2","","97.95","","","","-20","","Snow"
"-94.36","49.79","KENORA A","6034076","2018-12-25 22:00","2018","12","25","22:00","-13.9","","-15.6","","87","","","","35","","9","","24.1","","97.98","","","","-20","","Snow"
"-94.36","49.79","KENORA A","6034076","2018-12-25 23:00","2018","12","25","23:00","-13.8","","-15.5","","88","","","","35","","10","","32.2","","98.03","","","","-20","","Snow"
"-94.36","49.79","KENORA A","6034076","2018-12-26 00:00","2018","12","26","00:00","-13.7","","-15.3","","88","","","","33","","5","","32.2","","98.06","","","","-17","","Snow"
"-94.36","49.79","KENORA A","6034076","2018-12-26 01:00","2018","12","26","01:00","-13.6","","-15.2","","88","","","","32","","7","","24.1","","98.09","","","","-18","","Snow"
"-94.36","49.79","KENORA A","6034076","2018-12-26 02:00","2018","12","26","02:00","-13.5","","-15.2","","87","","","","32","","5","","24.1","","98.11","","","","-17","","Snow"
"-94.36","49.79","KENORA A","6034076","2018-12-26 03:00","2018","12","26","03:00","-13.6","","-15.7","","84","","","","24","","7","","24.1","","98.14","","","","-18","","Snow"
"-94.36","49.79","KENORA A","6034076","2018-12-26 04:00","2018","12","26","04:00","-13.8","","-15.8","","84","","","","25","","12","","32.2","","98.14","","","","-21","","Snow"
"-94.36","49.79","KENORA A","6034076","2018-12-26 05:00","2018","12","26","05:00","-14.0","","-15.8","","86","","","","25","","7","","32.2","","98.11","","","","-19","","Snow"
"-94.36","49.79","KENORA A","6034076","2018-12-26 06:00","2018","12","26","06:00","-13.9","","-16.1","","84","","","","23","","10","","32.2","","98.15","","","","-20","","Snow"
"-94.36","49.79","KENORA A","6034076","2018-12-26 07:00","2018","12","26","07:00","-14.2","","-16.0","","86","","","","25","","12","","32.2","","98.15","","","","-21","","Snow"
"-94.36","49.79","KENORA A","6034076","2018-12-26 08:00","2018","12","26","08:00","-14.4","","-16.0","","88","","","","28","","4","","32.2","","98.14","","","","-17","","Snow"
"-94.36","49.79","KENORA A","6034076","2018-12-26 09:00","2018","12","26","09:00","-14.4","","-16.1","","88","","","","21","","4","","24.1","","98.19","","","","-17","","Snow"
"-94.36","49.79","KENORA A","6034076","2018-12-26 10:00","2018","12","26","10:00","-14.4","","-16.1","","87","","","","20","","9","","24.1","","98.19","","","","-20","","Snow"
"-94.36","49.79","KENORA A","6034076","2018-12-26 11:00","2018","12","26","11:00","-14.1","","-15.8","","87","","","","20","","10","","24.1","","98.16","","","","-20","","Snow"
"-94.36","49.79","KENORA A","6034076","2018-12-26 12:00","2018","12","26","12:00","-14.0","","-15.8","","86","","","","13","","7","","24.1","","98.02","","","","-19","","Snow"
"-94.36","49.79","KENORA A","6034076","2018-12-26 13:00","2018","12","26","13:00","-13.7","","-15.6","","85","","","","13","","8","","24.1","","97.90","","","","-19","","Snow"
"-94.36","49.79","KENORA A","6034076","2018-12-26 14:00","2018","12","26","14:00","-12.9","","-15.2","","84","","","","9","","11","","24.1","","97.84","","","","-19","","Snow"
"-94.36","49.79","KENORA A","6034076","2018-12-26 15:00","2018","12","26","15:00","-12.6","","-15.0","","83","","","","16","","8","","24.1","","97.91","","","","-18","","Snow"
"-94.36","49.79","KENORA A","6034076","2018-12-26 16:00","2018","12","26","16:00","-12.4","","-14.7","","83","","","","14","","8","","24.1","","97.89","","","","-17","","Snow"
"-94.36","49.79","KENORA A","6034076","2018-12-26 17:00","2018","12","26","17:00","-12.6","","-14.6","","85","","","","11","","8","","24.1","","97.83","","","","-18","","Snow"
"-94.36","49.79","KENORA A","6034076","2018-12-26 18:00","2018","12","26","18:00","-12.8","","-14.6","","86","","","","11","","10","","32.2","","97.77","","","","-19","","Snow"
"-94.36","49.79","KENORA A","6034076","2018-12-26 19:00","2018","12","26","19:00","-12.8","","-14.6","","86","","","","11","","13","","32.2","","97.65","","","","-20","","Snow"
"-94.36","49.79","KENORA A","6034076","2018-12-26 20:00","2018","12","26","20:00","-12.6","","-14.4","","86","","","","11","","13","","32.2","","97.59","","","","-19","","Snow"
"-94.36","49.79","KENORA A","6034076","2018-12-26 21:00","2018","12","26","21:00","-12.4","","-14.2","","86","","","","12","","12","","32.2","","97.52","","","","-19","","Snow"
"-94.36","49.79","KENORA A","6034076","2018-12-26 22:00","2018","12","26","22:00","-12.1","","-14.0","","86","","","","9","","12","","3.2","","97.44","","","","-18","","Snow"
"-94.36","49.79","KENORA A","6034076","2018-12-26 23:00","2018","12","26","23:00","-12.0","","-13.7","","87","","","","5","","9","","1.6","","97.36","","","","-17","","Snow"
"-94.36","49.79","KENORA A","6034076","2018-12-27 00:00","2018","12","27","00:00","-12.2","","-13.9","","87","","","","5","","12","","1.6","","97.27","","","","-19","","Snow"
"-94.36","49.79","KENORA A","6034076","2018-12-27 01:00","2018","12","27","01:00","-12.0","","-13.7","","87","","","","6","","14","","1.6","","97.19","","","","-19","","Snow"
"-94.36","49.79","KENORA A","6034076","2018-12-27 02:00","2018","12","27","02:00","-11.7","","-13.4","","87","","","","6","","16","","1.6","","97.13","","","","-19","","Snow"
"-94.36","49.79","KENORA A","6034076","2018-12-27 03:00","2018","12","27","03:00","-11.4","","-13.1","","88","","","","6","","15","","1.6","","97.04","","","","-18","","Snow"
"-94.36","49.79","KENORA A","6034076","2018-12-27 04:00","2018","12","27","04:00","-11.0","","-12.6","","88","","","","5","","15","","1.6","","96.91","","","","-18","","Snow"
"-94.36","49.79","KENORA A","6034076","2018-12-27 05:00","2018","12","27","05:00","-10.4","","-12.0","","88","","","","5","","15","","1.6","","96.79","","","","-17","","Snow,Blowing Snow"
"-94.36","49.79","KENORA A","6034076","2018-12-27 06:00","2018","12","27","06:00","-10.1","","-11.6","","89","","","","3","","17","","1.6","","96.72","","","","-17","","Snow,Blowing Snow"
"-94.36","49.79","KENORA A","6034076","2018-12-27 07:00","2018","12","27","07:00","-9.8","","-11.2","","90","","","","3","","15","","1.2","","96.62","","","","-16","","Snow,Blowing Snow"
"-94.36","49.79","KENORA A","6034076","2018-12-27 08:00","2018","12","27","08:00","-9.6","","-11.1","","89","","","","3","","14","","1.2","","96.64","","","","-16","","Snow,Blowing Snow"
"-94.36","49.79","KENORA A","6034076","2018-12-27 09:00","2018","12","27","09:00","-9.7","","-11.1","","90","","","","1","","17","","1.2","","96.63","","","","-17","","Snow,Blowing Snow"
"-94.36","49.79","KENORA A","6034076","2018-12-27 10:00","2018","12","27","10:00","-9.6","","-11.0","","90","","","","2","","16","","3.2","","96.59","","","","-16","","Snow,Blowing Snow"
"-94.36","49.79","KENORA A","6034076","2018-12-27 11:00","2018","12","27","11:00","-9.1","","-10.6","","89","","","","2","","17","","12.9","","96.52","","","","-16","","Snow,Blowing Snow"
"-94.36","49.79","KENORA A","6034076","2018-12-27 12:00","2018","12","27","12:00","-8.7","","-10.2","","89","","","","2","","17","","24.1","","96.38","","","","-16","","Snow,Blowing Snow"
"-94.36","49.79","KENORA A","6034076","2018-12-27 13:00","2018","12","27","13:00","-8.3","","-9.8","","89","","","","1","","16","","24.1","","96.31","","","","-15","","Snow,Blowing Snow"
"-94.36","49.79","KENORA A","6034076","2018-12-27 14:00","2018","12","27","14:00","-8.3","","-9.9","","88","","","","36","","26","","32.2","","96.25","","","","-17","","Snow,Blowing Snow"
"-94.36","49.79","KENORA A","6034076","2018-12-27 15:00","2018","12","27","15:00","-8.2","","-9.9","","88","","","","1","","18","","32.2","","96.31","","","","-15","","Blowing Snow"
"-94.36","49.79","KENORA A","6034076","2018-12-27 16:00","2018","12","27","16:00","-8.6","","-10.2","","88","","","","36","","16","","32.2","","96.33","","","","-15","","Blowing Snow"
"-94.36","49.79","KENORA A","6034076","2018-12-27 17:00","2018","12","27","17:00","-8.9","","-10.6","","88","","","","1","","22","","32.2","","96.33","","","","-17","","Blowing Snow"
"-94.36","49.79","KENORA A","6034076","2018-12-27 18:00","2018","12","27","18:00","-9.4","","-11.1","","88","","","","36","","25","","32.2","","96.36","","","","-18","","Blowing Snow"
"-94.36","49.79","KENORA A","6034076","2018-12-27 19:00","2018","12","27","19:00","-10.7","","-12.5","","87","","","","36","","23","","24.1","","96.40","","","","-19","","Blowing Snow"
"-94.36","49.79","KENORA A","6034076","2018-12-27 20:00","2018","12","27","20:00","-11.7","","-13.6","","86","","","","36","","30","","6.4","","96.41","","","","-22","","Snow,Blowing Snow"
"-94.36","49.79","KENORA A","6034076","2018-12-27 21:00","2018","12","27","21:00","-12.2","","-14.3","","85","","","","1","","27","","6.4","","96.42","","","","-22","","Snow,Blowing Snow"
"-94.36","49.79","KENORA A","6034076","2018-12-27 22:00","2018","12","27","22:00","-13.1","","-15.2","","84","","","","2","","27","","8.1","","96.46","","","","-23","","Snow,Blowing Snow"
"-94.36","49.79","KENORA A","6034076","2018-12-27 23:00","2018","12","27","23:00","-14.0","","-16.1","","84","","","","1","","26","","19.3","","96.53","","","","-24","","Snow,Blowing Snow"
"-94.36","49.79","KENORA A","6034076","2018-12-28 00:00","2018","12","28","00:00","-14.6","","-16.6","","85","","","","35","","30","","19.3","","96.60","","","","-26","","Snow,Blowing Snow"
"-94.36","49.79","KENORA A","6034076","2018-12-28 01:00","2018","12","28","01:00","-15.7","","-17.8","","84","","","","36","","24","","19.3","","96.70","","","","-26","","Snow,Blowing Snow"
"-94.36","49.79","KENORA A","6034076","2018-12-28 02:00","2018","12","28","02:00","-16.6","","-19.0","","82","","","","36","","28","","32.2","","96.78","","","","-28","","Snow,Blowing Snow"
"-94.36","49.79","KENORA A","6034076","2018-12-28 03:00","2018","12","28","03:00","-17.1","","-19.6","","81","","","","36","","30","","32.2","","96.84","","","","-29","","Snow,Blowing Snow"
"-94.36","49.79","KENORA A","6034076","2018-12-28 04:00","2018","12","28","04:00","-17.0","","-19.3","","83","","","","36","","28","","24.1","","96.86","","","","-28","","Snow,Blowing Snow"
"-94.36","49.79","KENORA A","6034076","2018-12-28 05:00","2018","12","28","05:00","-17.9","","-20.5","","80","","","","35","","28","","24.1","","96.97","","","","-29","","Snow,Blowing Snow"
"-94.36","49.79","KENORA A","6034076","2018-12-28 06:00","2018","12","28","06:00","-19.5","","-22.3","","79","","","","36","","22","","32.2","","97.07","","","","-30","","Snow,Blowing Snow"
"-94.36","49.79","KENORA A","6034076","2018-12-28 07:00","2018","12","28","07:00","-20.9","","-23.8","","78","","","","1","","22","","32.2","","97.14","","","","-32","","Blowing Snow"
"-94.36","49.79","KENORA A","6034076","2018-12-28 08:00","2018","12","28","08:00","-22.0","","-24.7","","79","","","","36","","18","","32.2","","97.23","","","","-32","","Blowing Snow"
"-94.36","49.79","KENORA A","6034076","2018-12-28 09:00","2018","12","28","09:00","-22.4","","-25.4","","77","","","","36","","18","","32.2","","97.41","","","","-33","","Mainly Clear"
"-94.36","49.79","KENORA A","6034076","2018-12-28 10:00","2018","12","28","10:00","-22.0","","-25.4","","74","","","","1","","15","","32.2","","97.46","","","","-32","","Blowing Snow"
"-94.36","49.79","KENORA A","6034076","2018-12-28 11:00","2018","12","28","11:00","-21.0","","-25.0","","71","","","","2","","14","","32.2","","97.46","","","","-30","","NA"
"-94.36","49.79","KENORA A","6034076","2018-12-28 12:00","2018","12","28","12:00","-20.0","","-24.6","","67","","","","5","","9","","32.2","","97.43","","","","-27","","Clear"
"-94.36","49.79","KENORA A","6034076","2018-12-28 13:00","2018","12","28","13:00","-19.0","","-24.1","","65","","","","2","","7","","32.2","","97.42","","","","-24","","NA"
"-94.36","49.79","KENORA A","6034076","2018-12-28 14:00","2018","12","28","14:00","-18.4","","-23.9","","63","","","","2","","6","","32.2","","97.43","","","","-23","","NA"
"-94.36","49.79","KENORA A","6034076","2018-12-28 15:00","2018","12","28","15:00","-18.3","","-23.1","","67","","","","32","","7","","32.2","","97.47","","","","-24","","Mainly Clear"
"-94.36","49.79","KENORA A","6034076","2018-12-28 16:00","2018","12","28","16:00","-18.6","","-23.3","","67","","","","32","","8","","32.2","","97.51","","","","-25","","NA"
"-94.36","49.79","KENORA A","6034076","2018-12-28 17:00","2018","12","28","17:00","-19.8","","-23.3","","74","","","","32","","9","","32.2","","97.49","","","","-27","","NA"
"-94.36","49.79","KENORA A","6034076","2018-12-28 18:00","2018","12","28","18:00","-20.0","","-23.8","","72","","","","30","","7","","32.2","","97.49","","","","-26","","Clear"
"-94.36","49.79","KENORA A","6034076","2018-12-28 19:00","2018","12","28","19:00","-21.9","","-24.4","","80","","","","22","","4","","32.2","","97.47","","","","-26","","NA"
"-94.36","49.79","KENORA A","6034076","2018-12-28 20:00","2018","12","28","20:00","-21.5","","-24.0","","81","","","","22","","6","","32.2","","97.44","","","","-27","","NA"
"-94.36","49.79","KENORA A","6034076","2018-12-28 21:00","2018","12","28","21:00","-21.8","","-24.3","","81","","","","18","","6","","32.2","","97.35","","","","-27","","Clear"
"-94.36","49.79","KENORA A","6034076","2018-12-28 22:00","2018","12","28","22:00","-21.7","","-24.3","","80","","","","19","","15","","32.2","","97.30","","","","-31","","NA"
"-94.36","49.79","KENORA A","6034076","2018-12-28 23:00","2018","12","28","23:00","-22.4","","-25.0","","79","","","","20","","14","","32.2","","97.31","","","","-32","","NA"
"-94.36","49.79","KENORA A","6034076","2018-12-29 00:00","2018","12","29","00:00","-22.2","","-25.0","","78","","","","20","","17","","32.2","","97.26","","","","-32","","Mainly Clear"
"-94.36","49.79","KENORA A","6034076","2018-12-29 01:00","2018","12","29","01:00","-21.9","","-24.7","","78","","","","19","","19","","32.2","","97.22","","","","-33","","NA"
"-94.36","49.79","KENORA A","6034076","2018-12-29 02:00","2018","12","29","02:00","-21.6","","-24.3","","79","","","","19","","22","","32.2","","97.17","","","","-33","","NA"
"-94.36","49.79","KENORA A","6034076","2018-12-29 03:00","2018","12","29","03:00","-21.3","","-24.1","","78","","","","19","","22","","32.2","","97.13","","","","-33","","Mainly Clear"
"-94.36","49.79","KENORA A","6034076","2018-12-29 04:00","2018","12","29","04:00","-21.4","","-24.2","","78","","","","20","","23","","32.2","","97.08","","","","-33","","NA"
"-94.36","49.79","KENORA A","6034076","2018-12-29 05:00","2018","12","29","05:00","-21.9","","-24.6","","78","","","","19","","19","","32.2","","97.01","","","","-33","","NA"
"-94.36","49.79","KENORA A","6034076","2018-12-29 06:00","2018","12","29","06:00","-21.9","","-24.8","","78","","","","19","","18","","32.2","","96.95","","","","-32","","Clear"
"-94.36","49.79","KENORA A","6034076","2018-12-29 07:00","2018","12","29","07:00","-22.0","","-25.0","","77","","","","19","","18","","32.2","","96.86","","","","-32","","NA"
"-94.36","49.79","KENORA A","6034076","2018-12-29 08:00","2018","12","29","08:00","-22.6","","-25.5","","77","","","","19","","20","","32.2","","96.81","","","","-34","","NA"
"-94.36","49.79","KENORA A","6034076","2018-12-29 09:00","2018","12","29","09:00","-22.3","","-25.5","","76","","","","19","","17","","32.2","","96.80","","","","-33","","Mainly Clear"
"-94.36","49.79","KENORA A","6034076","2018-12-29 10:00","2018","12","29","10:00","-21.0","","-24.6","","74","","","","19","","17","","32.2","","96.74","","","","-31","","NA"
"-94.36","49.79","KENORA A","6034076","2018-12-29 11:00","2018","12","29","11:00","-19.9","","-23.6","","73","","","","19","","21","","32.2","","96.63","","","","-31","","NA"
"-94.36","49.79","KENORA A","6034076","2018-12-29 12:00","2018","12","29","12:00","-18.4","","-21.9","","74","","","","19","","22","","32.2","","96.47","","","","-29","","Mostly Cloudy"
"-94.36","49.79","KENORA A","6034076","2018-12-29 13:00","2018","12","29","13:00","-16.2","","-19.5","","76","","","","18","","19","","32.2","","96.31","","","","-25","","NA"
"-94.36","49.79","KENORA A","6034076","2018-12-29 14:00","2018","12","29","14:00","-16.0","","-19.1","","77","","","","19","","23","","32.2","","96.27","","","","-26","","NA"
"-94.36","49.79","KENORA A","6034076","2018-12-29 15:00","2018","12","29","15:00","-15.3","","-18.4","","78","","","","17","","18","","32.2","","96.20","","","","-24","","Cloudy"
"-94.36","49.79","KENORA A","6034076","2018-12-29 16:00","2018","12","29","16:00","-14.5","","-17.4","","79","","","","16","","16","","32.2","","96.11","","","","-23","","NA"
"-94.36","49.79","KENORA A","6034076","2018-12-29 17:00","2018","12","29","17:00","-13.5","","-16.4","","79","","","","17","","20","","32.2","","96.01","","","","-22","","NA"
"-94.36","49.79","KENORA A","6034076","2018-12-29 18:00","2018","12","29","18:00","-13.0","","-15.6","","81","","","","17","","20","","16.1","","95.96","","","","-22","","Snow"
"-94.36","49.79","KENORA A","6034076","2018-12-29 19:00","2018","12","29","19:00","-12.6","","-15.2","","80","","","","17","","18","","6.4","","95.88","","","","-21","","Snow"
"-94.36","49.79","KENORA A","6034076","2018-12-29 20:00","2018","12","29","20:00","-12.7","","-14.9","","84","","","","17","","16","","6.4","","95.78","","","","-20","","Snow"
"-94.36","49.79","KENORA A","6034076","2018-12-29 21:00","2018","12","29","21:00","-12.7","","-14.7","","85","","","","17","","22","","4.8","","95.70","","","","-22","","Snow,Blowing Snow"
"-94.36","49.79","KENORA A","6034076","2018-12-29 22:00","2018","12","29","22:00","-12.9","","-14.9","","85","","","","17","","18","","6.4","","95.61","","","","-21","","Snow,Blowing Snow"
"-94.36","49.79","KENORA A","6034076","2018-12-29 23:00","2018","12","29","23:00","-12.9","","-15.0","","85","","","","17","","17","","6.4","","95.60","","","","-21","","Snow,Blowing Snow"
"-94.36","49.79","KENORA A","6034076","2018-12-30 00:00","2018","12","30","00:00","-12.8","","-15.1","","83","","","","17","","15","","6.4","","95.59","","","","-20","","Snow,Blowing Snow"
"-94.36","49.79","KENORA A","6034076","2018-12-30 01:00","2018","12","30","01:00","-12.9","","-15.2","","83","","","","17","","13","","4.8","","95.60","","","","-20","","Snow,Blowing Snow"
"-94.36","49.79","KENORA A","6034076","2018-12-30 02:00","2018","12","30","02:00","-13.9","","-15.8","","85","","","","16","","10","","6.4","","95.60","","","","-20","","Snow"
"-94.36","49.79","KENORA A","6034076","2018-12-30 03:00","2018","12","30","03:00","-14.5","","-16.3","","87","","","","15","","9","","12.9","","95.61","","","","-20","","Snow"
"-94.36","49.79","KENORA A","6034076","2018-12-30 04:00","2018","12","30","04:00","-14.6","","-16.3","","87","","","","16","","7","","16.1","","95.60","","","","-19","","Snow"
"-94.36","49.79","KENORA A","6034076","2018-12-30 05:00","2018","12","30","05:00","-14.6","","-16.2","","88","","","","14","","7","","24.1","","95.56","","","","-19","","Snow"
"-94.36","49.79","KENORA A","6034076","2018-12-30 06:00","2018","12","30","06:00","-14.1","","-15.9","","87","","","","18","","4","","24.1","","95.59","","","","-17","","Snow"
"-94.36","49.79","KENORA A","6034076","2018-12-30 07:00","2018","12","30","07:00","-14.3","","-16.1","","86","","","","10","","8","","24.1","","95.60","","","","-20","","Snow"
"-94.36","49.79","KENORA A","6034076","2018-12-30 08:00","2018","12","30","08:00","-14.4","","-16.2","","87","","","","9","","8","","19.3","","95.66","","","","-20","","Snow"
"-94.36","49.79","KENORA A","6034076","2018-12-30 09:00","2018","12","30","09:00","-15.9","","-17.8","","85","","","","36","","5","","19.3","","95.71","","","","-20","","Snow"
"-94.36","49.79","KENORA A","6034076","2018-12-30 10:00","2018","12","30","10:00","-14.5","","-16.6","","85","","","","1","","7","","19.3","","95.77","","","","-19","","Snow"
"-94.36","49.79","KENORA A","6034076","2018-12-30 11:00","2018","12","30","11:00","-13.4","","-15.3","","85","","","","4","","5","","24.1","","95.77","","","","-17","","Snow"
"-94.36","49.79","KENORA A","6034076","2018-12-30 12:00","2018","12","30","12:00","-12.1","","-14.4","","83","","","","4","","9","","24.1","","95.79","","","","-17","","Snow"
"-94.36","49.79","KENORA A","6034076","2018-12-30 13:00","2018","12","30","13:00","-11.6","","-14.2","","81","","","","8","","10","","24.1","","95.85","","","","-17","","Snow"
"-94.36","49.79","KENORA A","6034076","2018-12-30 14:00","2018","12","30","14:00","-10.9","","-13.9","","79","","","","6","","11","","24.1","","95.83","","","","-17","","Snow"
"-94.36","49.79","KENORA A","6034076","2018-12-30 15:00","2018","12","30","15:00","-10.8","","-13.9","","78","","","","8","","11","","24.1","","95.91","","","","-17","","Snow"
"-94.36","49.79","KENORA A","6034076","2018-12-30 16:00","2018","12","30","16:00","-10.6","","-13.3","","81","","","","9","","7","","19.3","","96.06","","","","-15","","Snow"
"-94.36","49.79","KENORA A","6034076","2018-12-30 17:00","2018","12","30","17:00","-10.7","","-12.9","","84","","","","3","","12","","19.3","","96.13","","","","-17","","Snow"
"-94.36","49.79","KENORA A","6034076","2018-12-30 18:00","2018","12","30","18:00","-11.2","","-13.3","","85","","","","4","","11","","12.9","","96.28","","","","-17","","Snow"
"-94.36","49.79","KENORA A","6034076","2018-12-30 19:00","2018","12","30","19:00","-11.5","","-13.5","","86","","","","2","","11","","12.9","","96.35","","","","-17","","Snow"
"-94.36","49.79","KENORA A","6034076","2018-12-30 20:00","2018","12","30","20:00","-11.9","","-14.0","","85","","","","4","","16","","9.7","","96.39","","","","-19","","Snow"
"-94.36","49.79","KENORA A","6034076","2018-12-30 21:00","2018","12","30","21:00","-12.0","","-14.1","","85","","","","4","","14","","19.3","","96.47","","","","-19","","Snow"
"-94.36","49.79","KENORA A","6034076","2018-12-30 22:00","2018","12","30","22:00","-12.1","","-13.9","","87","","","","4","","10","","12.9","","96.60","","","","-18","","Snow"
"-94.36","49.79","KENORA A","6034076","2018-12-30 23:00","2018","12","30","23:00","-12.3","","-14.1","","87","","","","2","","13","","19.3","","96.74","","","","-19","","Snow"
"-94.36","49.79","KENORA A","6034076","2018-12-31 00:00","2018","12","31","00:00","-12.6","","-14.2","","88","","","","1","","17","","19.3","","96.78","","","","-20","","Snow"
"-94.36","49.79","KENORA A","6034076","2018-12-31 01:00","2018","12","31","01:00","-13.5","","-15.3","","86","","","","1","","16","","19.3","","96.89","","","","-21","","Snow"
"-94.36","49.79","KENORA A","6034076","2018-12-31 02:00","2018","12","31","02:00","-14.8","","-16.8","","85","","","","1","","17","","19.3","","96.97","","","","-23","","Snow"
"-94.36","49.79","KENORA A","6034076","2018-12-31 03:00","2018","12","31","03:00"
"-94.36","49.79","KENORA A","6034076","2018-12-31 04:00","2018","12","31","04:00","-19.3","","-21.4","","84","","","","1","","15","","24.1","","97.11","","","","-28","","Snow"
"-94.36","49.79","KENORA A","6034076","2018-12-31 05:00","2018","12","31","05:00","-20.8","","-23.0","","83","","","","36","","17","","24.1","","97.17","","","","-31","","Snow"
"-94.36","49.79","KENORA A","6034076","2018-12-31 06:00","2018","12","31","06:00","-22.2","","-24.6","","81","","","","36","","19","","24.1","","97.32","","","","-33","","Snow"
"-94.36","49.79","KENORA A","6034076","2018-12-31 07:00","2018","12","31","07:00","-23.5","","-26.5","","76","","","","36","","15","","24.1","","97.47","","","","-33","","NA"
"-94.36","49.79","KENORA A","6034076","2018-12-31 08:00","2018","12","31","08:00","-24.7","","-27.5","","78","","","","1","","12","","32.2","","97.53","","","","-34","","NA"
"-94.36","49.79","KENORA A","6034076","2018-12-31 09:00","2018","12","31","09:00","-25.3","","-28.1","","78","","","","36","","13","","24.1","","97.61","","","","-35","","Mainly Clear"
"-94.36","49.79","KENORA A","6034076","2018-12-31 10:00","2018","12","31","10:00","-24.9","","-28.1","","76","","","","36","","17","","32.2","","97.61","","","","-36","","NA"
"-94.36","49.79","KENORA A","6034076","2018-12-31 11:00","2018","12","31","11:00","-23.8","","-27.4","","73","","","","36","","13","","32.2","","97.66","","","","-33","","NA"
"-94.36","49.79","KENORA A","6034076","2018-12-31 12:00","2018","12","31","12:00","-22.5","","-26.6","","70","","","","35","","10","","24.1","","97.71","","","","-30","","Mainly Clear"
"-94.36","49.79","KENORA A","6034076","2018-12-31 13:00","2018","12","31","13:00","-21.2","","-25.8","","68","","","","1","","10","","24.1","","97.74","","","","-29","","NA"
"-94.36","49.79","KENORA A","6034076","2018-12-31 14:00","2018","12","31","14:00","-20.6","","-25.0","","68","","","","33","","14","","32.2","","97.75","","","","-29","","NA"
"-94.36","49.79","KENORA A","6034076","2018-12-31 15:00","2018","12","31","15:00","-21.1","","-25.0","","71","","","","33","","17","","32.2","","97.72","","","","-31","","Mainly Clear"
"-94.36","49.79","KENORA A","6034076","2018-12-31 16:00","2018","12","31","16:00","-21.8","","-25.4","","73","","","","34","","17","","24.1","","97.73","","","","-32","","NA"
"-94.36","49.79","KENORA A","6034076","2018-12-31 17:00","2018","12","31","17:00","-22.7","","-26.0","","75","","","","34","","15","","32.2","","97.76","","","","-32","","NA"
"-94.36","49.79","KENORA A","6034076","2018-12-31 18:00","2018","12","31","18:00","-23.5","","-26.5","","77","","","","33","","16","","32.2","","97.79","","","","-34","","Clear"
"-94.36","49.79","KENORA A","6034076","2018-12-31 19:00","2018","12","31","19:00","-24.3","","-26.9","","79","","","","34","","13","","32.2","","97.83","","","","-34","","NA"
"-94.36","49.79","KENORA A","6034076","2018-12-31 20:00","2018","12","31","20:00","-25.4","","-28.0","","80","","","","34","","11","","32.2","","97.82","","","","-34","","NA"
"-94.36","49.79","KENORA A","6034076","2018-12-31 21:00","2018","12","31","21:00","-26.3","","-28.9","","79","","","","32","","10","","32.2","","97.82","","","","-35","","Clear"
"-94.36","49.79","KENORA A","6034076","2018-12-31 22:00","2018","12","31","22:00","-27.0","","-29.7","","79","","","","32","","12","","32.2","","97.83","","","","-37","","NA"
"-94.36","49.79","KENORA A","6034076","2018-12-31 23:00","2018","12","31","23:00","-27.7","","-30.6","","77","","","","34","","16","","32.2","","97.86","","","","-39","","NA"
