"Longitude (x)","Latitude (y)","Station Name","Climate ID","Date/Time (LST)","Year","Month","Day","Time (LST)","Temp (°C)","Temp Flag","Dew Point Temp (°C)","Dew Point Temp Flag","Rel Hum (%)","Rel Hum Flag","Precip. Amount (mm)","Precip. Amount Flag","Wind Dir (10s deg)","Wind Dir Flag","Wind Spd (km/h)","Wind Spd Flag","Visibility (km)","Visibility Flag","Stn Press (kPa)","Stn Press Flag","Hmdx","Hmdx Flag","Wind Chill","Wind Chill Flag","Weather"
"-94.36","49.79","KENORA A","6034076","2018-02-01 00:00","2018","02","01","00:00","-21.6","","-24.9","","75","","","","33","","21","","8.1","","96.44","","","","-33","","Snow,Blowing Snow"
"-94.36","49.79","KENORA A","6034076","2018-02-01 01:00","2018","02","01","01:00","-21.6","","-25.1","","74","","","","33","","25","","8.1","","96.53","","","","-34","","Snow,Blowing Snow"
"-94.36","49.79","KENORA A","6034076","2018-02-01 02:00","2018","02","01","02:00","-22.1","","-25.5","","75","","","","33","","20","","16.1","","96.63","","","","-33","","Snow,Blowing Snow"
"-94.36","49.79","KENORA A","6034076","2018-02-01 03:00","2018","02","01","03:00","-22.6","","-25.9","","75","","","","33","","15","","16.1","","96.75","","","","-32","","Snow,Blowing Snow"
"-94.36","49.79","KENORA A","6034076","2018-02-01 04:00","2018","02","01","04:00","-22.8","","-26.0","","76","","","","33","","25","","16.1","","96.86","","","","-35","","Snow,Blowing Snow"
"-94.36","49.79","KENORA A","6034076","2018-02-01 05:00","2018","02","01","05:00","-23.4","","-26.4","","77","","","","33","","22","","24.1","","96.94","","","","-35","","Blowing Snow"
"-94.36","49.79","KENORA A","6034076","2018-02-01 06:00","2018","02","01","06:00","-24.0","","-26.8","","78","","","","33","","18","","24.1","","97.02","","","","-35","","Blowing Snow"
"-94.36","49.79","KENORA A","6034076","2018-02-01 07:00","2018","02","01","07:00","-24.5","","-27.2","","79","","","","33","","18","","24.1","","97.13","","","","-36","","Blowing Snow"
"-94.36","49.79","KENORA A","6034076","2018-02-01 08:00","2018","02","01","08:00","-25.0","","-27.7","","79","","","","33","","17","","24.1","","97.22","","","","-36","","NA"
"-94.36","49.79","KENORA A","6034076","2018-02-01 09:00","2018","02","01","09:00","-24.8","","-27.6","","78","","","","32","","25","","24.1","","97.34","","","","-38","","Mostly Cloudy"
"-94.36","49.79","KENORA A","6034076","2018-02-01 10:00","2018","02","01","10:00","-24.3","","-27.5","","75","","","","33","","20","","24.1","","97.45","","","","-36","","Blowing Snow"
"-94.36","49.79","KENORA A","6034076","2018-02-01 11:00","2018","02","01","11:00","-23.3","","-27.1","","72","","","","32","","20","","24.1","","97.54","","","","-35","","Blowing Snow"
"-94.36","49.79","KENORA A","6034076","2018-02-01 12:00","2018","02","01","12:00","-21.9","","-26.2","","68","","","","32","","14","","24.1","","97.57","","","","-31","","Blowing Snow"
"-94.36","49.79","KENORA A","6034076","2018-02-01 13:00","2018","02","01","13:00","-20.4","","-25.7","","63","","","","32","","13","","24.1","","97.55","","","","-29","","NA"
"-94.36","49.79","KENORA A","6034076","2018-02-01 14:00","2018","02","01","14:00","-20.0","","-25.7","","61","","","","32","","17","","24.1","","97.55","","","","-30","","Blowing Snow"
"-94.36","49.79","KENORA A","6034076","2018-02-01 15:00","2018","02","01","15:00","-19.7","","-25.8","","59","","","","29","","18","","24.1","","97.60","","","","-30","","Mainly Clear"
"-94.36","49.79","KENORA A","6034076","2018-02-01 16:00","2018","02","01","16:00","-20.2","","-26.2","","60","","","","28","","14","","24.1","","97.66","","","","-29","","NA"
"-94.36","49.79","KENORA A","6034076","2018-02-01 17:00","2018","02","01","17:00","-21.5","","-26.8","","63","","","","30","","14","","24.1","","97.72","","","","-31","","NA"
"-94.36","49.79","KENORA A","6034076","2018-02-01 18:00","2018","02","01","18:00","-23.1","","-27.6","","67","","","","28","","16","","24.1","","97.76","","","","-33","","Clear"
"-94.36","49.79","KENORA A","6034076","2018-02-01 19:00","2018","02","01","19:00","-24.4","","-28.5","","70","","","","29","","14","","24.1","","97.79","","","","-34","","NA"
"-94.36","49.79","KENORA A","6034076","2018-02-01 20:00","2018","02","01","20:00","-25.4","","-28.9","","73","","","","31","","14","","24.1","","97.81","","","","-35","","NA"
"-94.36","49.79","KENORA A","6034076","2018-02-01 21:00","2018","02","01","21:00","-26.1","","-29.2","","75","","","","29","","10","","24.1","","97.79","","","","-34","","Clear"
"-94.36","49.79","KENORA A","6034076","2018-02-01 22:00","2018","02","01","22:00","-26.4","","-29.3","","78","","","","29","","10","","24.1","","97.82","","","","-35","","NA"
"-94.36","49.79","KENORA A","6034076","2018-02-01 23:00","2018","02","01","23:00","-27.0","","-29.6","","79","","","","28","","8","","24.1","","97.80","","","","-34","","NA"
"-94.36","49.79","KENORA A","6034076","2018-02-02 00:00","2018","02","02","00:00","-27.5","","-30.1","","79","","","","27","","6","","24.1","","97.79","","","","-34","","Clear"
"-94.36","49.79","KENORA A","6034076","2018-02-02 01:00","2018","02","02","01:00","-27.4","","-29.9","","80","","","","28","","9","","24.1","","97.81","","","","-36","","NA"
"-94.36","49.79","KENORA A","6034076","2018-02-02 02:00","2018","02","02","02:00","-28.4","","-30.9","","79","","","","26","","6","","24.1","","97.77","","","","-35","","NA"
"-94.36","49.79","KENORA A","6034076","2018-02-02 03:00","2018","02","02","03:00","-27.9","","-30.8","","77","","","","26","","9","","24.1","","97.76","","","","-36","","Mainly Clear"
"-94.36","49.79","KENORA A","6034076","2018-02-02 04:00","2018","02","02","04:00","-29.1","","-31.8","","78","","","","24","","8","","24.1","","97.72","","","","-37","","NA"
"-94.36","49.79","KENORA A","6034076","2018-02-02 05:00","2018","02","02","05:00","-28.9","","-31.6","","78","","","","25","","9","","24.1","","97.72","","","","-37","","NA"
"-94.36","49.79","KENORA A","6034076","2018-02-02 06:00","2018","02","02","06:00","-28.3","","-31.2","","77","","","","24","","7","","12.9","","97.68","","","","-35","","Snow"
"-94.36","49.79","KENORA A","6034076","2018-02-02 07:00","2018","02","02","07:00","-28.5","","-31.4","","77","","","","22","","8","","12.9","","97.67","","","","-36","","Snow"
"-94.36","49.79","KENORA A","6034076","2018-02-02 08:00","2018","02","02","08:00","-28.4","","-31.3","","77","","","","23","","7","","9.7","","97.65","","","","-35","","Ice Crystals"
"-94.36","49.79","KENORA A","6034076","2018-02-02 09:00","2018","02","02","09:00","-27.4","","-30.2","","77","","","","24","","7","","9.7","","97.63","","","","-34","","Ice Crystals"
"-94.36","49.79","KENORA A","6034076","2018-02-02 10:00","2018","02","02","10:00","-25.0","","-27.7","","78","","","","22","","7","","6.4","","97.64","","","","-31","","Ice Crystals"
"-94.36","49.79","KENORA A","6034076","2018-02-02 11:00","2018","02","02","11:00","-23.7","","-26.5","","78","","","","23","","6","","6.4","","97.60","","","","-29","","Ice Crystals"
"-94.36","49.79","KENORA A","6034076","2018-02-02 12:00","2018","02","02","12:00","-22.1","","-25.3","","76","","","","24","","10","","4.8","","97.55","","","","-30","","Ice Crystals"
"-94.36","49.79","KENORA A","6034076","2018-02-02 13:00","2018","02","02","13:00","-21.6","","-25.0","","74","","","","22","","7","","9.7","","97.45","","","","-28","","Ice Crystals"
"-94.36","49.79","KENORA A","6034076","2018-02-02 14:00","2018","02","02","14:00","-21.2","","-24.9","","73","","","","22","","8","","6.4","","97.38","","","","-28","","Snow,Ice Crystals"
"-94.36","49.79","KENORA A","6034076","2018-02-02 15:00","2018","02","02","15:00","-21.1","","-24.8","","73","","","","18","","5","","8.1","","97.33","","","","-26","","Snow,Ice Crystals"
"-94.36","49.79","KENORA A","6034076","2018-02-02 16:00","2018","02","02","16:00","-20.9","","-24.2","","75","","","","22","","3","","4.8","","97.32","","","","-24","","Snow,Ice Crystals"
"-94.36","49.79","KENORA A","6034076","2018-02-02 17:00","2018","02","02","17:00","-21.1","","-24.0","","78","","","","20","","5","","16.1","","97.27","","","","-26","","Ice Crystals"
"-94.36","49.79","KENORA A","6034076","2018-02-02 18:00","2018","02","02","18:00","-22.4","","-24.7","","82","","","","19","","4","","24.1","","97.25","","","","-26","","Mainly Clear"
"-94.36","49.79","KENORA A","6034076","2018-02-02 19:00","2018","02","02","19:00","-25.1","","-27.4","","81","","","","12","","3","","24.1","","97.21","","","","-28","","NA"
"-94.36","49.79","KENORA A","6034076","2018-02-02 20:00","2018","02","02","20:00","-24.7","","-26.7","","84","","","","10","","3","","24.1","","97.20","","","","-28","","NA"
"-94.36","49.79","KENORA A","6034076","2018-02-02 21:00","2018","02","02","21:00","-25.8","","-28.3","","80","","","","36","","2","","24.1","","97.16","","","","-28","","Mainly Clear"
"-94.36","49.79","KENORA A","6034076","2018-02-02 22:00","2018","02","02","22:00","-26.0","","-28.4","","80","","","","20","","3","","24.1","","97.13","","","","-29","","NA"
"-94.36","49.79","KENORA A","6034076","2018-02-02 23:00","2018","02","02","23:00","-27.3","","-30.0","","78","","","","36","","3","","24.1","","97.09","","","","-30","","NA"
"-94.36","49.79","KENORA A","6034076","2018-02-03 00:00","2018","02","03","00:00","-26.4","","-28.9","","80","","","","24","","4","","24.1","","97.06","","","","-31","","Mainly Clear"
"-94.36","49.79","KENORA A","6034076","2018-02-03 01:00","2018","02","03","01:00","-25.1","","-27.7","","79","","","","33","","4","","24.1","","97.03","","","","-29","","NA"
"-94.36","49.79","KENORA A","6034076","2018-02-03 02:00","2018","02","03","02:00","-25.6","","-28.3","","78","","","","1","","7","","24.1","","96.98","","","","-32","","NA"
"-94.36","49.79","KENORA A","6034076","2018-02-03 03:00","2018","02","03","03:00","-24.1","","-26.5","","81","","","","34","","7","","19.3","","96.96","","","","-30","","Ice Crystals"
"-94.36","49.79","KENORA A","6034076","2018-02-03 04:00","2018","02","03","04:00","-24.5","","-27.1","","80","","","","36","","9","","24.1","","96.92","","","","-32","","Ice Crystals"
"-94.36","49.79","KENORA A","6034076","2018-02-03 05:00","2018","02","03","05:00","-25.6","","-28.2","","79","","","","3","","8","","24.1","","96.91","","","","-33","","Ice Crystals"
"-94.36","49.79","KENORA A","6034076","2018-02-03 06:00","2018","02","03","06:00","-25.2","","-27.9","","78","","","","4","","7","","24.1","","96.87","","","","-32","","Mostly Cloudy"
"-94.36","49.79","KENORA A","6034076","2018-02-03 07:00","2018","02","03","07:00","-24.9","","-27.6","","78","","","","5","","6","","24.1","","96.84","","","","-31","","NA"
"-94.36","49.79","KENORA A","6034076","2018-02-03 08:00","2018","02","03","08:00","-25.0","","-27.8","","78","","","","3","","5","","24.1","","96.85","","","","-30","","NA"
"-94.36","49.79","KENORA A","6034076","2018-02-03 09:00","2018","02","03","09:00","-23.9","","-26.6","","79","","","","35","","3","","24.1","","96.87","","","","-27","","Mostly Cloudy"
"-94.36","49.79","KENORA A","6034076","2018-02-03 10:00","2018","02","03","10:00","-23.4","","-26.0","","79","","","","36","","4","","24.1","","96.86","","","","-27","","NA"
"-94.36","49.79","KENORA A","6034076","2018-02-03 11:00","2018","02","03","11:00","-23.6","","-26.2","","79","","","","34","","14","","24.1","","96.90","","","","-33","","NA"
"-94.36","49.79","KENORA A","6034076","2018-02-03 12:00","2018","02","03","12:00","-22.5","","-25.1","","80","","","","32","","11","","24.1","","96.88","","","","-31","","Mostly Cloudy"
"-94.36","49.79","KENORA A","6034076","2018-02-03 13:00","2018","02","03","13:00","-21.9","","-24.6","","79","","","","32","","11","","24.1","","96.85","","","","-30","","NA"
"-94.36","49.79","KENORA A","6034076","2018-02-03 14:00","2018","02","03","14:00","-21.3","","-24.4","","76","","","","32","","19","","24.1","","96.80","","","","-32","","NA"
"-94.36","49.79","KENORA A","6034076","2018-02-03 15:00","2018","02","03","15:00","-20.9","","-25.5","","67","","","","32","","12","","24.1","","96.78","","","","-29","","Mainly Clear"
"-94.36","49.79","KENORA A","6034076","2018-02-03 16:00","2018","02","03","16:00","-21.0","","-26.5","","62","","","","33","","13","","24.1","","96.78","","","","-30","","NA"
"-94.36","49.79","KENORA A","6034076","2018-02-03 17:00","2018","02","03","17:00","-21.9","","-26.9","","65","","","","34","","10","","24.1","","96.81","","","","-29","","NA"
"-94.36","49.79","KENORA A","6034076","2018-02-03 18:00","2018","02","03","18:00","-23.2","","-27.6","","68","","","","34","","12","","24.1","","96.85","","","","-32","","Mainly Clear"
"-94.36","49.79","KENORA A","6034076","2018-02-03 19:00","2018","02","03","19:00","-24.1","","-28.1","","70","","","","34","","15","","24.1","","96.90","","","","-34","","NA"
"-94.36","49.79","KENORA A","6034076","2018-02-03 20:00","2018","02","03","20:00","-25.0","","-28.4","","73","","","","30","","9","","24.1","","96.99","","","","-33","","NA"
"-94.36","49.79","KENORA A","6034076","2018-02-03 21:00","2018","02","03","21:00","-26.3","","-29.2","","77","","","","30","","12","","24.1","","97.03","","","","-36","","Clear"
"-94.36","49.79","KENORA A","6034076","2018-02-03 22:00","2018","02","03","22:00","-27.2","","-30.1","","77","","","","31","","10","","24.1","","97.10","","","","-36","","NA"
"-94.36","49.79","KENORA A","6034076","2018-02-03 23:00","2018","02","03","23:00","-27.9","","-30.7","","77","","","","29","","10","","24.1","","97.13","","","","-37","","Ice Crystals"
"-94.36","49.79","KENORA A","6034076","2018-02-04 00:00","2018","02","04","00:00","-28.0","","-30.9","","77","","","","29","","10","","24.1","","97.15","","","","-37","","Ice Crystals"
"-94.36","49.79","KENORA A","6034076","2018-02-04 01:00","2018","02","04","01:00","-28.2","","-31.1","","77","","","","29","","12","","24.1","","97.13","","","","-38","","Ice Crystals"
"-94.36","49.79","KENORA A","6034076","2018-02-04 02:00","2018","02","04","02:00","-28.6","","-31.5","","77","","","","29","","14","","24.1","","97.12","","","","-39","","Ice Crystals"
"-94.36","49.79","KENORA A","6034076","2018-02-04 03:00","2018","02","04","03:00","-28.8","","-31.8","","77","","","","26","","14","","24.1","","97.08","","","","-40","","Ice Crystals"
"-94.36","49.79","KENORA A","6034076","2018-02-04 04:00","2018","02","04","04:00","-29.9","","-32.8","","76","","","","26","","11","","24.1","","97.04","","","","-40","","NA"
"-94.36","49.79","KENORA A","6034076","2018-02-04 05:00","2018","02","04","05:00","-30.0","","-33.0","","76","","","","27","","11","","24.1","","97.00","","","","-40","","NA"
"-94.36","49.79","KENORA A","6034076","2018-02-04 06:00","2018","02","04","06:00","-30.1","","-33.1","","76","","","","27","","9","","24.1","","96.95","","","","-39","","Clear"
"-94.36","49.79","KENORA A","6034076","2018-02-04 07:00","2018","02","04","07:00","-30.8","","-51.7","","12","","","","27","","9","","24.1","","96.95","","","","-40","","NA"
"-94.36","49.79","KENORA A","6034076","2018-02-04 08:00","2018","02","04","08:00","-31.2","","-50.4","","14","","","","23","","9","","24.1","","96.91","","","","-40","","NA"
"-94.36","49.79","KENORA A","6034076","2018-02-04 09:00","2018","02","04","09:00","-29.7","","-48.1","","16","","","","23","","9","","24.1","","96.84","","","","-38","","Mainly Clear"
"-94.36","49.79","KENORA A","6034076","2018-02-04 10:00","2018","02","04","10:00","-27.0","","-46.2","","15","","","","23","","18","","24.1","","96.72","","","","-39","","NA"
"-94.36","49.79","KENORA A","6034076","2018-02-04 11:00","2018","02","04","11:00","-25.6","","-41.0","","23","","","","23","","28","","24.1","","96.63","","","","-39","","NA"
"-94.36","49.79","KENORA A","6034076","2018-02-04 12:00","2018","02","04","12:00","-25.0","","-28.0","","77","","","","21","","25","","24.1","","96.50","","","","-38","","Cloudy"
"-94.36","49.79","KENORA A","6034076","2018-02-04 13:00","2018","02","04","13:00","-21.7","","-25.2","","74","","","","23","","21","","24.1","","96.40","","","","-33","","NA"
"-94.36","49.79","KENORA A","6034076","2018-02-04 14:00","2018","02","04","14:00","-19.4","","-25.0","","62","","","","24","","34","","24.1","","96.33","","","","-32","","Blowing Snow"
"-94.36","49.79","KENORA A","6034076","2018-02-04 15:00","2018","02","04","15:00","-18.2","","-24.1","","61","","","","23","","26","","24.1","","96.26","","","","-29","","Blowing Snow"
"-94.36","49.79","KENORA A","6034076","2018-02-04 16:00","2018","02","04","16:00","-18.2","","-24.1","","61","","","","24","","20","","24.1","","96.24","","","","-28","","Blowing Snow"
"-94.36","49.79","KENORA A","6034076","2018-02-04 17:00","2018","02","04","17:00","-18.2","","-23.6","","63","","","","26","","25","","19.3","","96.23","","","","-29","","Snow,Blowing Snow"
"-94.36","49.79","KENORA A","6034076","2018-02-04 18:00","2018","02","04","18:00","-18.4","","-22.1","","73","","","","27","","16","","4.8","","96.25","","","","-27","","Snow,Blowing Snow"
"-94.36","49.79","KENORA A","6034076","2018-02-04 19:00","2018","02","04","19:00","-19.0","","-22.2","","76","","","","27","","13","","24.1","","96.26","","","","-27","","Snow,Blowing Snow"
"-94.36","49.79","KENORA A","6034076","2018-02-04 20:00","2018","02","04","20:00","-20.1","","-23.3","","76","","","","24","","15","","24.1","","96.24","","","","-29","","NA"
"-94.36","49.79","KENORA A","6034076","2018-02-04 21:00","2018","02","04","21:00","-20.8","","-23.7","","78","","","","24","","12","","24.1","","96.21","","","","-29","","Clear"
"-94.36","49.79","KENORA A","6034076","2018-02-04 22:00","2018","02","04","22:00","-21.2","","-23.8","","80","","","","23","","10","","24.1","","96.19","","","","-29","","NA"
"-94.36","49.79","KENORA A","6034076","2018-02-04 23:00","2018","02","04","23:00","-22.8","","-25.4","","80","","","","23","","9","","16.1","","96.19","","","","-30","","Snow"
"-94.36","49.79","KENORA A","6034076","2018-02-05 00:00","2018","02","05","00:00","-22.5","","-24.7","","82","","","","24","","7","","24.1","","96.19","","","","-29","","Ice Crystals"
"-94.36","49.79","KENORA A","6034076","2018-02-05 01:00","2018","02","05","01:00","-22.1","","-24.4","","82","","","","25","","6","","24.1","","96.15","","","","-27","","Ice Crystals"
"-94.36","49.79","KENORA A","6034076","2018-02-05 02:00","2018","02","05","02:00","-21.7","","-24.1","","81","","","","27","","8","","24.1","","96.17","","","","-28","","Ice Crystals"
"-94.36","49.79","KENORA A","6034076","2018-02-05 03:00","2018","02","05","03:00","-22.2","","-24.6","","81","","","","27","","11","","24.1","","96.22","","","","-30","","Snow"
"-94.36","49.79","KENORA A","6034076","2018-02-05 04:00","2018","02","05","04:00","-22.4","","-24.8","","81","","","","26","","11","","24.1","","96.22","","","","-31","","Snow"
"-94.36","49.79","KENORA A","6034076","2018-02-05 05:00","2018","02","05","05:00","-21.5","","-24.0","","81","","","","29","","12","","24.1","","96.24","","","","-30","","Snow"
"-94.36","49.79","KENORA A","6034076","2018-02-05 06:00","2018","02","05","06:00","-22.1","","-24.6","","80","","","","29","","12","","24.1","","96.27","","","","-31","","Snow"
"-94.36","49.79","KENORA A","6034076","2018-02-05 07:00","2018","02","05","07:00","-22.3","","-24.8","","80","","","","28","","12","","24.1","","96.34","","","","-31","","Snow"
"-94.36","49.79","KENORA A","6034076","2018-02-05 08:00","2018","02","05","08:00","-22.6","","-25.1","","80","","","","32","","9","","24.1","","96.45","","","","-30","","Snow"
"-94.36","49.79","KENORA A","6034076","2018-02-05 09:00","2018","02","05","09:00","-21.9","","-24.4","","81","","","","30","","14","","19.3","","96.52","","","","-31","","Snow"
"-94.36","49.79","KENORA A","6034076","2018-02-05 10:00","2018","02","05","10:00","-20.7","","-23.1","","81","","","","30","","12","","24.1","","96.55","","","","-29","","Ice Crystals"
"-94.36","49.79","KENORA A","6034076","2018-02-05 11:00","2018","02","05","11:00","-19.1","","-21.5","","82","","","","29","","18","","19.3","","96.61","","","","-29","","Ice Crystals"
"-94.36","49.79","KENORA A","6034076","2018-02-05 12:00","2018","02","05","12:00","-18.5","","-22.3","","73","","","","32","","18","","24.1","","96.64","","","","-28","","Blowing Snow"
"-94.36","49.79","KENORA A","6034076","2018-02-05 13:00","2018","02","05","13:00","-18.0","","-23.8","","61","","","","32","","20","","24.1","","96.67","","","","-28","","Blowing Snow"
"-94.36","49.79","KENORA A","6034076","2018-02-05 14:00","2018","02","05","14:00","-17.1","","-22.9","","61","","","","31","","17","","16.1","","96.69","","","","-26","","Snow Showers,Blowing Snow"
"-94.36","49.79","KENORA A","6034076","2018-02-05 15:00","2018","02","05","15:00","-18.1","","-23.2","","65","","","","32","","16","","16.1","","96.74","","","","-27","","Snow Showers,Blowing Snow"
"-94.36","49.79","KENORA A","6034076","2018-02-05 16:00","2018","02","05","16:00","-17.6","","-22.5","","66","","","","30","","14","","12.9","","96.80","","","","-26","","Snow Showers,Blowing Snow"
"-94.36","49.79","KENORA A","6034076","2018-02-05 17:00","2018","02","05","17:00","-19.3","","-24.8","","63","","","","30","","21","","24.1","","96.86","","","","-30","","Snow Showers,Blowing Snow"
"-94.36","49.79","KENORA A","6034076","2018-02-05 18:00","2018","02","05","18:00","-20.7","","-26.7","","59","","","","31","","15","","24.1","","96.95","","","","-30","","Blowing Snow"
"-94.36","49.79","KENORA A","6034076","2018-02-05 19:00","2018","02","05","19:00","-21.9","","-27.2","","62","","","","31","","17","","24.1","","97.03","","","","-32","","Blowing Snow"
"-94.36","49.79","KENORA A","6034076","2018-02-05 20:00","2018","02","05","20:00","-22.9","","-28.2","","63","","","","33","","18","","24.1","","97.11","","","","-34","","Blowing Snow"
"-94.36","49.79","KENORA A","6034076","2018-02-05 21:00","2018","02","05","21:00","-23.9","","-28.8","","65","","","","31","","8","","24.1","","97.14","","","","-31","","Clear"
"-94.36","49.79","KENORA A","6034076","2018-02-05 22:00","2018","02","05","22:00","-24.5","","-28.8","","68","","","","28","","8","","24.1","","97.18","","","","-32","","NA"
"-94.36","49.79","KENORA A","6034076","2018-02-05 23:00","2018","02","05","23:00","-24.7","","-29.0","","68","","","","29","","8","","24.1","","97.21","","","","-32","","NA"
"-94.36","49.79","KENORA A","6034076","2018-02-06 00:00","2018","02","06","00:00","-25.8","","-29.5","","72","","","","25","","9","","24.1","","97.25","","","","-34","","Clear"
"-94.36","49.79","KENORA A","6034076","2018-02-06 01:00","2018","02","06","01:00","-26.0","","-29.1","","76","","","","25","","10","","24.1","","97.27","","","","-34","","NA"
"-94.36","49.79","KENORA A","6034076","2018-02-06 02:00","2018","02","06","02:00","-26.1","","-28.9","","78","","","","26","","13","","24.1","","97.29","","","","-36","","NA"
"-94.36","49.79","KENORA A","6034076","2018-02-06 03:00","2018","02","06","03:00","-28.5","","-30.8","","81","","","","24","","10","","24.1","","97.29","","","","-37","","Clear"
"-94.36","49.79","KENORA A","6034076","2018-02-06 04:00","2018","02","06","04:00","-27.9","","-30.5","","78","","","","23","","9","","24.1","","97.25","","","","-36","","NA"
"-94.36","49.79","KENORA A","6034076","2018-02-06 05:00","2018","02","06","05:00","-28.5","","-31.0","","79","","","","24","","10","","24.1","","97.25","","","","-37","","NA"
"-94.36","49.79","KENORA A","6034076","2018-02-06 06:00","2018","02","06","06:00","-28.4","","-31.2","","78","","","","22","","10","","24.1","","97.25","","","","-37","","Mainly Clear"
"-94.36","49.79","KENORA A","6034076","2018-02-06 07:00","2018","02","06","07:00","-28.3","","-31.1","","77","","","","19","","12","","24.1","","97.24","","","","-38","","NA"
"-94.36","49.79","KENORA A","6034076","2018-02-06 08:00","2018","02","06","08:00","-27.8","","-30.7","","77","","","","19","","11","","24.1","","97.21","","","","-37","","Snow"
"-94.36","49.79","KENORA A","6034076","2018-02-06 09:00","2018","02","06","09:00","-26.4","","-29.0","","79","","","","20","","14","","24.1","","97.22","","","","-37","","Snow"
"-94.36","49.79","KENORA A","6034076","2018-02-06 10:00","2018","02","06","10:00","-24.7","","-27.4","","79","","","","22","","17","","24.1","","97.24","","","","-36","","NA"
"-94.36","49.79","KENORA A","6034076","2018-02-06 11:00","2018","02","06","11:00","-23.3","","-26.1","","78","","","","22","","18","","24.1","","97.22","","","","-34","","NA"
"-94.36","49.79","KENORA A","6034076","2018-02-06 12:00","2018","02","06","12:00","-21.4","","-25.1","","73","","","","24","","22","","24.1","","97.25","","","","-33","","Mostly Cloudy"
"-94.36","49.79","KENORA A","6034076","2018-02-06 13:00","2018","02","06","13:00","-19.7","","-24.4","","67","","","","24","","18","","24.1","","97.22","","","","-30","","NA"
"-94.36","49.79","KENORA A","6034076","2018-02-06 14:00","2018","02","06","14:00","-18.7","","-23.3","","68","","","","25","","10","","12.9","","97.19","","","","-26","","NA"
"-94.36","49.79","KENORA A","6034076","2018-02-06 15:00","2018","02","06","15:00","-18.1","","-22.8","","67","","","","23","","13","","16.1","","97.18","","","","-26","","Snow"
"-94.36","49.79","KENORA A","6034076","2018-02-06 16:00","2018","02","06","16:00","-17.9","","-23.1","","64","","","","25","","14","","24.1","","97.21","","","","-26","","NA"
"-94.36","49.79","KENORA A","6034076","2018-02-06 17:00","2018","02","06","17:00","-18.2","","-23.0","","67","","","","23","","10","","24.1","","97.21","","","","-25","","NA"
"-94.36","49.79","KENORA A","6034076","2018-02-06 18:00","2018","02","06","18:00","-18.4","","-22.5","","71","","","","21","","8","","16.1","","97.23","","","","-24","","Snow"
"-94.36","49.79","KENORA A","6034076","2018-02-06 19:00","2018","02","06","19:00","-20.4","","-23.1","","79","","","","23","","8","","24.1","","97.26","","","","-27","","Snow"
"-94.36","49.79","KENORA A","6034076","2018-02-06 20:00","2018","02","06","20:00","-22.1","","-24.4","","81","","","","23","","10","","24.1","","97.28","","","","-30","","Snow"
"-94.36","49.79","KENORA A","6034076","2018-02-06 21:00","2018","02","06","21:00","-21.8","","-24.4","","80","","","","21","","10","","24.1","","97.31","","","","-29","","Mainly Clear"
"-94.36","49.79","KENORA A","6034076","2018-02-06 22:00","2018","02","06","22:00","-21.6","","-24.0","","81","","","","23","","14","","24.1","","97.32","","","","-31","","NA"
"-94.36","49.79","KENORA A","6034076","2018-02-06 23:00","2018","02","06","23:00","-22.4","","-24.6","","83","","","","25","","14","","24.1","","97.33","","","","-32","","NA"
"-94.36","49.79","KENORA A","6034076","2018-02-07 00:00","2018","02","07","00:00","-21.4","","-23.6","","83","","","","27","","11","","24.1","","97.31","","","","-29","","Snow"
"-94.36","49.79","KENORA A","6034076","2018-02-07 01:00","2018","02","07","01:00","-21.8","","-24.0","","82","","","","26","","11","","24.1","","97.30","","","","-30","","Snow"
"-94.36","49.79","KENORA A","6034076","2018-02-07 02:00","2018","02","07","02:00","-21.9","","-24.0","","83","","","","26","","13","","24.1","","97.29","","","","-31","","NA"
"-94.36","49.79","KENORA A","6034076","2018-02-07 03:00","2018","02","07","03:00","-23.3","","-25.5","","82","","","","25","","11","","24.1","","97.28","","","","-32","","Mainly Clear"
"-94.36","49.79","KENORA A","6034076","2018-02-07 04:00","2018","02","07","04:00","-23.8","","-26.0","","82","","","","25","","9","","24.1","","97.26","","","","-31","","NA"
"-94.36","49.79","KENORA A","6034076","2018-02-07 05:00","2018","02","07","05:00","-24.7","","-27.1","","82","","","","24","","9","","24.1","","97.29","","","","-32","","NA"
"-94.36","49.79","KENORA A","6034076","2018-02-07 06:00","2018","02","07","06:00","-24.9","","-27.3","","81","","","","25","","10","","24.1","","97.27","","","","-33","","Mainly Clear"
"-94.36","49.79","KENORA A","6034076","2018-02-07 07:00","2018","02","07","07:00","-23.8","","-26.3","","80","","","","28","","13","","24.1","","97.31","","","","-33","","NA"
"-94.36","49.79","KENORA A","6034076","2018-02-07 08:00","2018","02","07","08:00","-23.9","","-26.5","","80","","","","28","","15","","24.1","","97.32","","","","-34","","NA"
"-94.36","49.79","KENORA A","6034076","2018-02-07 09:00","2018","02","07","09:00","-23.7","","-26.3","","80","","","","27","","12","","24.1","","97.37","","","","-33","","Mainly Clear"
"-94.36","49.79","KENORA A","6034076","2018-02-07 10:00","2018","02","07","10:00","-22.3","","-24.8","","81","","","","26","","8","","24.1","","97.37","","","","-29","","NA"
"-94.36","49.79","KENORA A","6034076","2018-02-07 11:00","2018","02","07","11:00","-20.5","","-23.0","","81","","","","20","","5","","24.1","","97.38","","","","-25","","NA"
"-94.36","49.79","KENORA A","6034076","2018-02-07 12:00","2018","02","07","12:00","-19.4","","-21.9","","80","","","","22","","10","","24.1","","97.37","","","","-26","","Mainly Clear"
"-94.36","49.79","KENORA A","6034076","2018-02-07 13:00","2018","02","07","13:00","-18.3","","-21.1","","79","","","","22","","13","","24.1","","97.33","","","","-26","","NA"
"-94.36","49.79","KENORA A","6034076","2018-02-07 14:00","2018","02","07","14:00","-17.0","","-21.3","","70","","","","26","","13","","16.1","","97.30","","","","-25","","NA"
"-94.36","49.79","KENORA A","6034076","2018-02-07 15:00","2018","02","07","15:00","-16.2","","-21.8","","63","","","","22","","17","","24.1","","97.23","","","","-25","","Mainly Clear"
"-94.36","49.79","KENORA A","6034076","2018-02-07 16:00","2018","02","07","16:00","-16.1","","-22.0","","61","","","","25","","12","","24.1","","97.20","","","","-23","","NA"
"-94.36","49.79","KENORA A","6034076","2018-02-07 17:00","2018","02","07","17:00","-17.3","","-22.3","","66","","","","21","","11","","24.1","","97.20","","","","-24","","NA"
"-94.36","49.79","KENORA A","6034076","2018-02-07 18:00","2018","02","07","18:00","-19.2","","-23.0","","72","","","","22","","9","","24.1","","97.20","","","","-26","","Mainly Clear"
"-94.36","49.79","KENORA A","6034076","2018-02-07 19:00","2018","02","07","19:00","-20.2","","-23.2","","77","","","","22","","5","","24.1","","97.21","","","","-25","","NA"
"-94.36","49.79","KENORA A","6034076","2018-02-07 20:00","2018","02","07","20:00","-20.6","","-23.5","","78","","","","20","","6","","24.1","","97.21","","","","-26","","NA"
"-94.36","49.79","KENORA A","6034076","2018-02-07 21:00","2018","02","07","21:00","-20.7","","-23.4","","79","","","","26","","5","","24.1","","97.24","","","","-25","","Mostly Cloudy"
"-94.36","49.79","KENORA A","6034076","2018-02-07 22:00","2018","02","07","22:00","-21.4","","-24.2","","79","","","","23","","9","","8.1","","97.25","","","","-28","","Snow"
"-94.36","49.79","KENORA A","6034076","2018-02-07 23:00","2018","02","07","23:00","-21.0","","-23.5","","81","","","","25","","10","","8.1","","97.25","","","","-28","","Snow"
"-94.36","49.79","KENORA A","6034076","2018-02-08 00:00","2018","02","08","00:00","-21.6","","-23.7","","84","","","","26","","7","","12.9","","97.27","","","","-28","","Snow"
"-94.36","49.79","KENORA A","6034076","2018-02-08 01:00","2018","02","08","01:00","-21.3","","-23.5","","83","","","","28","","10","","9.7","","97.25","","","","-29","","Snow"
"-94.36","49.79","KENORA A","6034076","2018-02-08 02:00","2018","02","08","02:00","-21.0","","-23.3","","82","","","","30","","9","","12.9","","97.26","","","","-28","","Snow"
"-94.36","49.79","KENORA A","6034076","2018-02-08 03:00","2018","02","08","03:00","-22.0","","-24.4","","81","","","","29","","8","","12.9","","97.29","","","","-29","","Snow"
"-94.36","49.79","KENORA A","6034076","2018-02-08 04:00","2018","02","08","04:00","-22.4","","-24.7","","82","","","","30","","11","","16.1","","97.32","","","","-31","","Snow"
"-94.36","49.79","KENORA A","6034076","2018-02-08 05:00","2018","02","08","05:00","-23.2","","-25.6","","81","","","","30","","12","","19.3","","97.36","","","","-32","","Snow"
"-94.36","49.79","KENORA A","6034076","2018-02-08 06:00","2018","02","08","06:00","-23.9","","-26.2","","81","","","","32","","14","","24.1","","97.41","","","","-34","","Snow"
"-94.36","49.79","KENORA A","6034076","2018-02-08 07:00","2018","02","08","07:00","-24.9","","-27.3","","81","","","","32","","15","","24.1","","97.47","","","","-35","","NA"
"-94.36","49.79","KENORA A","6034076","2018-02-08 08:00","2018","02","08","08:00","-25.4","","-27.9","","80","","","","31","","13","","24.1","","97.51","","","","-35","","NA"
"-94.36","49.79","KENORA A","6034076","2018-02-08 09:00","2018","02","08","09:00","-25.2","","-27.8","","79","","","","33","","6","","24.1","","97.60","","","","-31","","Mainly Clear"
"-94.36","49.79","KENORA A","6034076","2018-02-08 10:00","2018","02","08","10:00","-23.7","","-26.4","","79","","","","33","","8","","24.1","","97.64","","","","-31","","NA"
"-94.36","49.79","KENORA A","6034076","2018-02-08 11:00","2018","02","08","11:00","-21.9","","-25.2","","76","","","","30","","11","","24.1","","97.70","","","","-30","","NA"
"-94.36","49.79","KENORA A","6034076","2018-02-08 12:00","2018","02","08","12:00","-20.6","","-25.5","","66","","","","33","","12","","24.1","","97.70","","","","-29","","Mainly Clear"
"-94.36","49.79","KENORA A","6034076","2018-02-08 13:00","2018","02","08","13:00","-19.2","","-25.0","","61","","","","34","","10","","24.1","","97.64","","","","-26","","NA"
"-94.36","49.79","KENORA A","6034076","2018-02-08 14:00","2018","02","08","14:00","-18.2","","-25.2","","55","","","","33","","19","","24.1","","97.59","","","","-28","","NA"
"-94.36","49.79","KENORA A","6034076","2018-02-08 15:00","2018","02","08","15:00","-18.0","","-24.9","","55","","","","33","","18","","24.1","","97.57","","","","-27","","Mostly Cloudy"
"-94.36","49.79","KENORA A","6034076","2018-02-08 16:00","2018","02","08","16:00","-17.9","","-24.0","","60","","","","29","","14","","24.1","","97.59","","","","-26","","NA"
"-94.36","49.79","KENORA A","6034076","2018-02-08 17:00","2018","02","08","17:00","-18.0","","-23.9","","60","","","","29","","6","","24.1","","97.58","","","","-23","","NA"
"-94.36","49.79","KENORA A","6034076","2018-02-08 18:00","2018","02","08","18:00","-18.3","","-23.1","","67","","","","28","","9","","24.1","","97.60","","","","-25","","Snow"
"-94.36","49.79","KENORA A","6034076","2018-02-08 19:00","2018","02","08","19:00","-18.7","","-22.8","","70","","","","28","","10","","24.1","","97.64","","","","-26","","Snow"
"-94.36","49.79","KENORA A","6034076","2018-02-08 20:00","2018","02","08","20:00","-19.8","","-23.4","","73","","","","29","","9","","24.1","","97.69","","","","-27","","NA"
"-94.36","49.79","KENORA A","6034076","2018-02-08 21:00","2018","02","08","21:00","-20.1","","-23.4","","75","","","","30","","12","","24.1","","97.73","","","","-28","","Mostly Cloudy"
"-94.36","49.79","KENORA A","6034076","2018-02-08 22:00","2018","02","08","22:00","-20.6","","-23.3","","79","","","","30","","10","","16.1","","97.77","","","","-28","","Snow"
"-94.36","49.79","KENORA A","6034076","2018-02-08 23:00","2018","02","08","23:00","-21.6","","-24.0","","82","","","","29","","7","","24.1","","97.80","","","","-28","","Snow"
"-94.36","49.79","KENORA A","6034076","2018-02-09 00:00","2018","02","09","00:00","-22.3","","-24.5","","83","","","","28","","7","","16.1","","97.83","","","","-28","","Mostly Cloudy"
"-94.36","49.79","KENORA A","6034076","2018-02-09 01:00","2018","02","09","01:00","-23.2","","-25.5","","82","","","","27","","6","","16.1","","97.84","","","","-29","","Snow"
"-94.36","49.79","KENORA A","6034076","2018-02-09 02:00","2018","02","09","02:00","-23.8","","-26.0","","83","","","","26","","9","","24.1","","97.80","","","","-31","","Snow"
"-94.36","49.79","KENORA A","6034076","2018-02-09 03:00","2018","02","09","03:00","-23.6","","-26.0","","81","","","","27","","9","","24.1","","97.76","","","","-31","","Snow"
"-94.36","49.79","KENORA A","6034076","2018-02-09 04:00","2018","02","09","04:00","-25.3","","-27.9","","80","","","","25","","8","","24.1","","97.73","","","","-32","","Snow"
"-94.36","49.79","KENORA A","6034076","2018-02-09 05:00","2018","02","09","05:00","-25.7","","-28.3","","79","","","","26","","13","","24.1","","97.68","","","","-35","","Snow"
"-94.36","49.79","KENORA A","6034076","2018-02-09 06:00","2018","02","09","06:00","-25.2","","-28.0","","78","","","","26","","14","","24.1","","97.65","","","","-35","","Clear"
"-94.36","49.79","KENORA A","6034076","2018-02-09 07:00","2018","02","09","07:00","-25.5","","-28.3","","78","","","","26","","12","","24.1","","97.60","","","","-35","","NA"
"-94.36","49.79","KENORA A","6034076","2018-02-09 08:00","2018","02","09","08:00","-27.1","","-29.9","","78","","","","22","","10","","24.1","","97.56","","","","-36","","NA"
"-94.36","49.79","KENORA A","6034076","2018-02-09 09:00","2018","02","09","09:00","-25.4","","-28.1","","79","","","","22","","15","","24.1","","97.53","","","","-36","","Clear"
"-94.36","49.79","KENORA A","6034076","2018-02-09 10:00","2018","02","09","10:00","-22.4","","-25.0","","79","","","","24","","24","","24.1","","97.47","","","","-34","","NA"
"-94.36","49.79","KENORA A","6034076","2018-02-09 11:00","2018","02","09","11:00","-20.3","","-23.2","","78","","","","24","","26","","24.1","","97.42","","","","-32","","Blowing Snow"
"-94.36","49.79","KENORA A","6034076","2018-02-09 12:00","2018","02","09","12:00","-17.6","","-22.5","","66","","","","24","","23","","24.1","","97.30","","","","-28","","Blowing Snow"
"-94.36","49.79","KENORA A","6034076","2018-02-09 13:00","2018","02","09","13:00","-16.1","","-22.6","","58","","","","24","","31","","24.1","","97.17","","","","-28","","NA"
"-94.36","49.79","KENORA A","6034076","2018-02-09 14:00","2018","02","09","14:00","-14.7","","-22.3","","53","","","","23","","28","","24.1","","97.04","","","","-25","","Blowing Snow"
"-94.36","49.79","KENORA A","6034076","2018-02-09 15:00","2018","02","09","15:00","-14.1","","-22.2","","51","","","","25","","34","","24.1","","96.91","","","","-25","","Clear"
"-94.36","49.79","KENORA A","6034076","2018-02-09 16:00","2018","02","09","16:00","-14.3","","-21.9","","53","","","","24","","34","","24.1","","96.81","","","","-26","","Blowing Snow"
"-94.36","49.79","KENORA A","6034076","2018-02-09 17:00","2018","02","09","17:00","-15.1","","-22.1","","56","","","","23","","25","","24.1","","96.76","","","","-25","","Blowing Snow"
"-94.36","49.79","KENORA A","6034076","2018-02-09 18:00","2018","02","09","18:00","-16.5","","-22.5","","61","","","","24","","23","","24.1","","96.79","","","","-27","","Blowing Snow"
"-94.36","49.79","KENORA A","6034076","2018-02-09 19:00","2018","02","09","19:00","-16.9","","-21.8","","66","","","","24","","26","","24.1","","96.82","","","","-28","","NA"
"-94.36","49.79","KENORA A","6034076","2018-02-09 20:00","2018","02","09","20:00","-17.1","","-21.2","","71","","","","24","","22","","24.1","","96.84","","","","-27","","NA"
"-94.36","49.79","KENORA A","6034076","2018-02-09 21:00","2018","02","09","21:00"
"-94.36","49.79","KENORA A","6034076","2018-02-09 22:00","2018","02","09","22:00","-17.4","","-20.9","","75","","","","25","","15","","16.1","","96.88","","","","-26","","Snow"
"-94.36","49.79","KENORA A","6034076","2018-02-09 23:00","2018","02","09","23:00","-18.5","","-21.5","","77","","","","26","","10","","24.1","","96.89","","","","-25","","Snow"
"-94.36","49.79","KENORA A","6034076","2018-02-10 00:00","2018","02","10","00:00","-19.5","","-22.4","","78","","","","24","","6","","24.1","","96.91","","","","-24","","Mostly Cloudy"
"-94.36","49.79","KENORA A","6034076","2018-02-10 01:00","2018","02","10","01:00","-20.1","","-22.5","","82","","","","27","","10","","24.1","","96.91","","","","-27","","Snow"
"-94.36","49.79","KENORA A","6034076","2018-02-10 02:00","2018","02","10","02:00","-21.5","","-23.7","","83","","","","24","","12","","24.1","","96.91","","","","-30","","Snow"
"-94.36","49.79","KENORA A","6034076","2018-02-10 03:00","2018","02","10","03:00"
"-94.36","49.79","KENORA A","6034076","2018-02-10 04:00","2018","02","10","04:00","-23.1","","-25.6","","80","","","","20","","12","","24.1","","96.92","","","","-32","","NA"
"-94.36","49.79","KENORA A","6034076","2018-02-10 05:00","2018","02","10","05:00","-24.4","","-27.0","","80","","","","23","","11","","24.1","","96.89","","","","-33","","NA"
"-94.36","49.79","KENORA A","6034076","2018-02-10 06:00","2018","02","10","06:00","-22.0","","-24.4","","81","","","","27","","12","","24.1","","96.86","","","","-30","","Clear"
"-94.36","49.79","KENORA A","6034076","2018-02-10 07:00","2018","02","10","07:00","-24.8","","-27.4","","79","","","","18","","10","","19.3","","96.86","","","","-33","","NA"
"-94.36","49.79","KENORA A","6034076","2018-02-10 08:00","2018","02","10","08:00","-24.3","","-26.9","","80","","","","19","","10","","22.5","","96.85","","","","-32","","Ice Crystals"
"-94.36","49.79","KENORA A","6034076","2018-02-10 09:00","2018","02","10","09:00","-23.6","","-26.2","","80","","","","19","","11","","24.1","","96.85","","","","-32","","Mainly Clear"
"-94.36","49.79","KENORA A","6034076","2018-02-10 10:00","2018","02","10","10:00","-21.5","","-24.0","","81","","","","19","","10","","22.5","","96.83","","","","-29","","Ice Crystals"
"-94.36","49.79","KENORA A","6034076","2018-02-10 11:00","2018","02","10","11:00","-19.4","","-21.8","","81","","","","19","","14","","24.1","","96.76","","","","-28","","Ice Crystals"
"-94.36","49.79","KENORA A","6034076","2018-02-10 12:00","2018","02","10","12:00","-17.1","","-19.9","","79","","","","19","","16","","24.1","","96.68","","","","-26","","Mostly Cloudy"
"-94.36","49.79","KENORA A","6034076","2018-02-10 13:00","2018","02","10","13:00","-16.1","","-21.0","","66","","","","20","","29","","24.1","","96.61","","","","-27","","NA"
"-94.36","49.79","KENORA A","6034076","2018-02-10 14:00","2018","02","10","14:00","-16.4","","-21.1","","67","","","","21","","23","","24.1","","96.49","","","","-27","","NA"
"-94.36","49.79","KENORA A","6034076","2018-02-10 15:00","2018","02","10","15:00","-15.6","","-20.6","","66","","","","21","","19","","24.1","","96.40","","","","-25","","Cloudy"
"-94.36","49.79","KENORA A","6034076","2018-02-10 16:00","2018","02","10","16:00","-15.3","","-20.5","","65","","","","20","","26","","24.1","","96.35","","","","-26","","NA"
"-94.36","49.79","KENORA A","6034076","2018-02-10 17:00","2018","02","10","17:00","-15.5","","-20.9","","64","","","","20","","26","","24.1","","96.28","","","","-26","","NA"
"-94.36","49.79","KENORA A","6034076","2018-02-10 18:00","2018","02","10","18:00","-16.3","","-21.4","","65","","","","20","","26","","24.1","","96.24","","","","-27","","Cloudy"
"-94.36","49.79","KENORA A","6034076","2018-02-10 19:00","2018","02","10","19:00","-16.8","","-21.4","","68","","","","21","","22","","24.1","","96.20","","","","-27","","NA"
"-94.36","49.79","KENORA A","6034076","2018-02-10 20:00","2018","02","10","20:00","-16.8","","-21.2","","69","","","","20","","24","","24.1","","96.14","","","","-27","","NA"
"-94.36","49.79","KENORA A","6034076","2018-02-10 21:00","2018","02","10","21:00","-17.2","","-21.0","","72","","","","21","","21","","24.1","","96.12","","","","-27","","Cloudy"
"-94.36","49.79","KENORA A","6034076","2018-02-10 22:00","2018","02","10","22:00","-17.6","","-20.9","","75","","","","20","","21","","24.1","","96.07","","","","-28","","NA"
"-94.36","49.79","KENORA A","6034076","2018-02-10 23:00","2018","02","10","23:00","-17.7","","-20.8","","78","","","","20","","21","","24.1","","96.00","","","","-28","","NA"
"-94.36","49.79","KENORA A","6034076","2018-02-11 00:00","2018","02","11","00:00","-17.6","","-20.4","","79","","","","19","","17","","24.1","","95.97","","","","-27","","Cloudy"
"-94.36","49.79","KENORA A","6034076","2018-02-11 01:00","2018","02","11","01:00","-17.9","","-20.6","","80","","","","19","","14","","24.1","","95.93","","","","-26","","NA"
"-94.36","49.79","KENORA A","6034076","2018-02-11 02:00","2018","02","11","02:00","-18.0","","-20.6","","81","","","","20","","16","","24.1","","95.87","","","","-27","","NA"
"-94.36","49.79","KENORA A","6034076","2018-02-11 03:00","2018","02","11","03:00","-18.4","","-20.8","","82","","","","19","","12","","24.1","","95.85","","","","-26","","Cloudy"
"-94.36","49.79","KENORA A","6034076","2018-02-11 04:00","2018","02","11","04:00","-18.6","","-20.7","","83","","","","19","","10","","24.1","","95.80","","","","-26","","NA"
"-94.36","49.79","KENORA A","6034076","2018-02-11 05:00","2018","02","11","05:00","-18.4","","-20.5","","84","","","","21","","9","","24.1","","95.79","","","","-25","","NA"
"-94.36","49.79","KENORA A","6034076","2018-02-11 06:00","2018","02","11","06:00","-18.2","","-20.2","","84","","","","22","","9","","4.8","","95.83","","","","-25","","Snow"
"-94.36","49.79","KENORA A","6034076","2018-02-11 07:00","2018","02","11","07:00","-18.0","","-20.1","","84","","","","23","","5","","3.2","","95.84","","","","-22","","Snow"
"-94.36","49.79","KENORA A","6034076","2018-02-11 08:00","2018","02","11","08:00","-18.3","","-20.2","","85","","","","27","","7","","6.4","","95.87","","","","-24","","Snow"
"-94.36","49.79","KENORA A","6034076","2018-02-11 09:00","2018","02","11","09:00","-17.3","","-19.5","","83","","","","31","","14","","12.9","","95.93","","","","-25","","Snow"
"-94.36","49.79","KENORA A","6034076","2018-02-11 10:00","2018","02","11","10:00","-16.4","","-19.0","","81","","","","31","","18","","24.1","","96.01","","","","-25","","NA"
"-94.36","49.79","KENORA A","6034076","2018-02-11 11:00","2018","02","11","11:00","-15.2","","-18.3","","77","","","","31","","18","","9.7","","96.07","","","","-24","","Snow"
"-94.36","49.79","KENORA A","6034076","2018-02-11 12:00","2018","02","11","12:00","-14.3","","-18.5","","71","","","","32","","26","","6.4","","96.14","","","","-24","","Snow"
"-94.36","49.79","KENORA A","6034076","2018-02-11 13:00","2018","02","11","13:00","-14.4","","-18.9","","69","","","","32","","25","","8.1","","96.23","","","","-24","","Snow,Blowing Snow"
"-94.36","49.79","KENORA A","6034076","2018-02-11 14:00","2018","02","11","14:00","-14.3","","-19.0","","68","","","","32","","22","","6.4","","96.35","","","","-24","","Snow,Blowing Snow"
"-94.36","49.79","KENORA A","6034076","2018-02-11 15:00","2018","02","11","15:00","-14.3","","-19.3","","67","","","","30","","18","","8.1","","96.46","","","","-23","","Snow,Blowing Snow"
"-94.36","49.79","KENORA A","6034076","2018-02-11 16:00","2018","02","11","16:00","-15.2","","-18.9","","74","","","","31","","22","","6.4","","96.63","","","","-25","","Snow,Blowing Snow"
"-94.36","49.79","KENORA A","6034076","2018-02-11 17:00","2018","02","11","17:00","-16.7","","-20.9","","70","","","","31","","21","","12.9","","96.80","","","","-27","","Snow,Blowing Snow"
"-94.36","49.79","KENORA A","6034076","2018-02-11 18:00","2018","02","11","18:00","-18.6","","-22.2","","74","","","","30","","21","","19.3","","96.98","","","","-29","","Snow,Blowing Snow"
"-94.36","49.79","KENORA A","6034076","2018-02-11 19:00","2018","02","11","19:00","-20.4","","-23.9","","74","","","","31","","22","","24.1","","97.15","","","","-31","","Blowing Snow"
"-94.36","49.79","KENORA A","6034076","2018-02-11 20:00","2018","02","11","20:00","-21.6","","-24.8","","76","","","","31","","21","","24.1","","97.32","","","","-33","","Blowing Snow"
"-94.36","49.79","KENORA A","6034076","2018-02-11 21:00","2018","02","11","21:00","-23.4","","-27.0","","73","","","","30","","19","","24.1","","97.49","","","","-34","","Blowing Snow"
"-94.36","49.79","KENORA A","6034076","2018-02-11 22:00","2018","02","11","22:00","-25.5","","-29.9","","68","","","","31","","21","","24.1","","97.63","","","","-38","","Blowing Snow"
"-94.36","49.79","KENORA A","6034076","2018-02-11 23:00","2018","02","11","23:00","-26.9","","-31.0","","68","","","","32","","21","","24.1","","97.77","","","","-39","","Blowing Snow"
"-94.36","49.79","KENORA A","6034076","2018-02-12 00:00","2018","02","12","00:00","-27.8","","-31.5","","72","","","","32","","16","","24.1","","97.86","","","","-39","","Blowing Snow"
"-94.36","49.79","KENORA A","6034076","2018-02-12 01:00","2018","02","12","01:00","-28.6","","-32.0","","73","","","","32","","12","","24.1","","97.99","","","","-38","","NA"
"-94.36","49.79","KENORA A","6034076","2018-02-12 02:00","2018","02","12","02:00","-29.3","","-32.5","","75","","","","32","","8","","24.1","","98.09","","","","-37","","NA"
"-94.36","49.79","KENORA A","6034076","2018-02-12 03:00","2018","02","12","03:00","-30.1","","-51.1","","12","","","","32","","9","","24.1","","98.20","","","","-39","","Clear"
"-94.36","49.79","KENORA A","6034076","2018-02-12 04:00","2018","02","12","04:00","-26.7","","-34.9","","47","","","","32","","9","","24.1","","98.27","","","","-35","","NA"
"-94.36","49.79","KENORA A","6034076","2018-02-12 05:00","2018","02","12","05:00","-29.9","","-33.3","","73","","","","32","","9","","24.1","","98.36","","","","-38","","NA"
"-94.36","49.79","KENORA A","6034076","2018-02-12 06:00","2018","02","12","06:00","-30.5","","-33.8","","73","","","","27","","9","","24.1","","98.46","","","","-39","","Clear"
"-94.36","49.79","KENORA A","6034076","2018-02-12 07:00","2018","02","12","07:00","-29.8","","-45.3","","","M","","","27","","9","","24.1","","98.51","","","","-38","","NA"
"-94.36","49.79","KENORA A","6034076","2018-02-12 08:00","2018","02","12","08:00","-30.9","","-32.7","","","M","","","27","","9","","24.1","","98.56","","","","-40","","Ice Crystals"
"-94.36","49.79","KENORA A","6034076","2018-02-12 09:00","2018","02","12","09:00","-28.3","","-31.7","","","M","","","27","","9","","24.1","","98.64","","","","-37","","Ice Crystals"
"-94.36","49.79","KENORA A","6034076","2018-02-12 10:00","2018","02","12","10:00","-26.1","","-26.8","","","M","","","23","","9","","24.1","","98.71","","","","-34","","Ice Crystals"
"-94.36","49.79","KENORA A","6034076","2018-02-12 11:00","2018","02","12","11:00","-23.8","","-30.6","","","M","","","23","","9","","24.1","","98.77","","","","-31","","NA"
"-94.36","49.79","KENORA A","6034076","2018-02-12 12:00","2018","02","12","12:00","-21.6","","-28.7","","","M","","","23","","18","","24.1","","98.76","","","","-32","","Mainly Clear"
"-94.36","49.79","KENORA A","6034076","2018-02-12 13:00","2018","02","12","13:00","-20.9","","-27.8","","55","","","","20","","18","","24.1","","98.74","","","","-31","","NA"
"-94.36","49.79","KENORA A","6034076","2018-02-12 14:00","2018","02","12","14:00","-20.2","","-27.1","","55","","","","22","","18","","24.1","","98.68","","","","-30","","NA"
"-94.36","49.79","KENORA A","6034076","2018-02-12 15:00","2018","02","12","15:00","-19.7","","-26.8","","54","","","","22","","20","","24.1","","98.61","","","","-30","","Mainly Clear"
"-94.36","49.79","KENORA A","6034076","2018-02-12 16:00","2018","02","12","16:00","-19.4","","-26.5","","54","","","","21","","20","","24.1","","98.55","","","","-30","","NA"
"-94.36","49.79","KENORA A","6034076","2018-02-12 17:00","2018","02","12","17:00","-20.4","","-26.9","","57","","","","20","","19","","24.1","","98.54","","","","-31","","NA"
"-94.36","49.79","KENORA A","6034076","2018-02-12 18:00","2018","02","12","18:00","-21.7","","-27.3","","61","","","","19","","16","","24.1","","98.50","","","","-31","","Mainly Clear"
"-94.36","49.79","KENORA A","6034076","2018-02-12 19:00","2018","02","12","19:00","-22.1","","-27.5","","62","","","","20","","17","","24.1","","98.44","","","","-32","","NA"
"-94.36","49.79","KENORA A","6034076","2018-02-12 20:00","2018","02","12","20:00","-22.5","","-27.8","","63","","","","20","","17","","24.1","","98.39","","","","-33","","NA"
"-94.36","49.79","KENORA A","6034076","2018-02-12 21:00","2018","02","12","21:00","-23.5","","-28.2","","66","","","","19","","17","","24.1","","98.32","","","","-34","","Clear"
"-94.36","49.79","KENORA A","6034076","2018-02-12 22:00","2018","02","12","22:00","-23.8","","-27.7","","71","","","","20","","20","","24.1","","98.24","","","","-35","","NA"
"-94.36","49.79","KENORA A","6034076","2018-02-12 23:00","2018","02","12","23:00","-24.2","","-27.8","","73","","","","20","","21","","24.1","","98.18","","","","-36","","NA"
"-94.36","49.79","KENORA A","6034076","2018-02-13 00:00","2018","02","13","00:00","-24.4","","-27.5","","76","","","","20","","17","","24.1","","98.07","","","","-35","","Clear"
"-94.36","49.79","KENORA A","6034076","2018-02-13 01:00","2018","02","13","01:00","-24.1","","-27.0","","77","","","","20","","22","","24.1","","97.99","","","","-36","","NA"
"-94.36","49.79","KENORA A","6034076","2018-02-13 02:00","2018","02","13","02:00","-23.2","","-26.2","","77","","","","20","","23","","24.1","","97.86","","","","-35","","NA"
"-94.36","49.79","KENORA A","6034076","2018-02-13 03:00","2018","02","13","03:00","-21.8","","-24.7","","78","","","","19","","22","","24.1","","97.68","","","","-33","","Blowing Snow"
"-94.36","49.79","KENORA A","6034076","2018-02-13 04:00","2018","02","13","04:00","-20.9","","-23.3","","81","","","","17","","17","","24.1","","97.51","","","","-31","","Blowing Snow"
"-94.36","49.79","KENORA A","6034076","2018-02-13 05:00","2018","02","13","05:00","-20.0","","-22.6","","80","","","","18","","17","","24.1","","97.36","","","","-30","","Blowing Snow"
"-94.36","49.79","KENORA A","6034076","2018-02-13 06:00","2018","02","13","06:00","-18.2","","-21.3","","77","","","","19","","22","","16.1","","97.15","","","","-29","","Snow,Blowing Snow"
"-94.36","49.79","KENORA A","6034076","2018-02-13 07:00","2018","02","13","07:00","-16.7","","-19.0","","82","","","","19","","25","","9.7","","96.98","","","","-27","","Snow,Blowing Snow"
"-94.36","49.79","KENORA A","6034076","2018-02-13 08:00","2018","02","13","08:00","-15.4","","-17.7","","83","","","","20","","25","","9.7","","96.79","","","","-26","","Snow,Blowing Snow"
"-94.36","49.79","KENORA A","6034076","2018-02-13 09:00","2018","02","13","09:00","-14.2","","-16.6","","82","","","","20","","29","","16.1","","96.66","","","","-25","","Snow,Blowing Snow"
"-94.36","49.79","KENORA A","6034076","2018-02-13 10:00","2018","02","13","10:00","-12.9","","-15.2","","83","","","","21","","31","","4.8","","96.50","","","","-23","","Snow,Blowing Snow"
"-94.36","49.79","KENORA A","6034076","2018-02-13 11:00","2018","02","13","11:00","-11.5","","-14.8","","77","","","","22","","36","","4.8","","96.31","","","","-22","","Snow,Blowing Snow"
"-94.36","49.79","KENORA A","6034076","2018-02-13 12:00","2018","02","13","12:00","-10.5","","-13.8","","77","","","","21","","31","","19.3","","96.17","","","","-20","","Snow,Blowing Snow"
"-94.36","49.79","KENORA A","6034076","2018-02-13 13:00","2018","02","13","13:00","-9.5","","-13.5","","73","","","","20","","35","","24.1","","96.06","","","","-20","","Blowing Snow"
"-94.36","49.79","KENORA A","6034076","2018-02-13 14:00","2018","02","13","14:00","-9.2","","-13.3","","73","","","","20","","42","","24.1","","95.90","","","","-20","","Blowing Snow"
"-94.36","49.79","KENORA A","6034076","2018-02-13 15:00","2018","02","13","15:00","-8.6","","-12.4","","75","","","","20","","36","","24.1","","95.79","","","","-18","","Blowing Snow"
"-94.36","49.79","KENORA A","6034076","2018-02-13 16:00","2018","02","13","16:00","-8.3","","-11.8","","76","","","","21","","37","","24.1","","95.69","","","","-18","","Blowing Snow"
"-94.36","49.79","KENORA A","6034076","2018-02-13 17:00","2018","02","13","17:00","-8.0","","-11.5","","76","","","","21","","41","","24.1","","95.59","","","","-18","","Blowing Snow"
"-94.36","49.79","KENORA A","6034076","2018-02-13 18:00","2018","02","13","18:00","-8.0","","-11.4","","77","","","","21","","35","","24.1","","95.52","","","","-18","","Blowing Snow"
"-94.36","49.79","KENORA A","6034076","2018-02-13 19:00","2018","02","13","19:00","-7.8","","-11.1","","77","","","","21","","32","","24.1","","95.55","","","","-17","","Blowing Snow"
"-94.36","49.79","KENORA A","6034076","2018-02-13 20:00","2018","02","13","20:00","-7.9","","-11.3","","77","","","","22","","21","","24.1","","95.62","","","","-15","","Blowing Snow"
"-94.36","49.79","KENORA A","6034076","2018-02-13 21:00","2018","02","13","21:00","-8.0","","-11.2","","78","","","","21","","17","","24.1","","95.57","","","","-15","","Blowing Snow"
"-94.36","49.79","KENORA A","6034076","2018-02-13 22:00","2018","02","13","22:00","-7.4","","-10.7","","78","","","","22","","17","","24.1","","95.50","","","","-14","","Blowing Snow"
"-94.36","49.79","KENORA A","6034076","2018-02-13 23:00","2018","02","13","23:00","-6.8","","-10.7","","74","","","","23","","17","","24.1","","95.49","","","","-13","","Blowing Snow"
"-94.36","49.79","KENORA A","6034076","2018-02-14 00:00","2018","02","14","00:00","-6.9","","-10.6","","75","","","","23","","18","","24.1","","95.54","","","","-14","","Blowing Snow"
"-94.36","49.79","KENORA A","6034076","2018-02-14 01:00","2018","02","14","01:00","-7.5","","-11.2","","75","","","","22","","17","","24.1","","95.53","","","","-14","","Blowing Snow"
"-94.36","49.79","KENORA A","6034076","2018-02-14 02:00","2018","02","14","02:00","-8.6","","-11.4","","81","","","","21","","14","","24.1","","95.51","","","","-15","","Blowing Snow"
"-94.36","49.79","KENORA A","6034076","2018-02-14 03:00","2018","02","14","03:00","-9.4","","-11.7","","83","","","","21","","14","","24.1","","95.51","","","","-16","","Mainly Clear"
"-94.36","49.79","KENORA A","6034076","2018-02-14 04:00","2018","02","14","04:00","-9.6","","-11.7","","85","","","","20","","18","","24.1","","95.46","","","","-17","","NA"
"-94.36","49.79","KENORA A","6034076","2018-02-14 05:00","2018","02","14","05:00","-9.6","","-11.8","","84","","","","19","","13","","24.1","","95.42","","","","-16","","NA"
"-94.36","49.79","KENORA A","6034076","2018-02-14 06:00","2018","02","14","06:00","-8.9","","-11.3","","83","","","","20","","17","","24.1","","95.36","","","","-16","","Mostly Cloudy"
"-94.36","49.79","KENORA A","6034076","2018-02-14 07:00","2018","02","14","07:00","-8.6","","-11.0","","83","","","","19","","14","","24.1","","95.31","","","","-15","","NA"
"-94.36","49.79","KENORA A","6034076","2018-02-14 08:00","2018","02","14","08:00","-7.7","","-10.5","","81","","","","20","","14","","24.1","","95.29","","","","-14","","NA"
"-94.36","49.79","KENORA A","6034076","2018-02-14 09:00","2018","02","14","09:00","-7.1","","-10.1","","79","","","","19","","15","","24.1","","95.24","","","","-13","","Mostly Cloudy"
"-94.36","49.79","KENORA A","6034076","2018-02-14 10:00","2018","02","14","10:00","-6.5","","-10.1","","76","","","","18","","18","","24.1","","95.22","","","","-13","","NA"
"-94.36","49.79","KENORA A","6034076","2018-02-14 11:00","2018","02","14","11:00","-2.6","","-10.3","","55","","","","18","","18","","24.1","","95.15","","","","-8","","NA"
"-94.36","49.79","KENORA A","6034076","2018-02-14 12:00","2018","02","14","12:00","-3.0","","-27.9","","13","","","","18","","18","","24.1","","95.12","","","","-9","","Mostly Cloudy"
"-94.36","49.79","KENORA A","6034076","2018-02-14 13:00","2018","02","14","13:00","-2.8","","-16.4","","","M","","","23","","18","","24.1","","95.08","","","","-8","","NA"
"-94.36","49.79","KENORA A","6034076","2018-02-14 14:00","2018","02","14","14:00","-2.5","","-9.4","","59","","","","36","","3","","24.1","","95.07","","","","-4","","NA"
"-94.36","49.79","KENORA A","6034076","2018-02-14 15:00","2018","02","14","15:00","-2.4","","-9.0","","61","","","","36","","1","","24.1","","95.07","","","","-3","","Mostly Cloudy"
"-94.36","49.79","KENORA A","6034076","2018-02-14 16:00","2018","02","14","16:00","-2.6","","-8.8","","63","","","","35","","9","","24.1","","95.09","","","","-6","","NA"
"-94.36","49.79","KENORA A","6034076","2018-02-14 17:00","2018","02","14","17:00","-2.9","","-8.4","","66","","","","35","","8","","24.1","","95.11","","","","-6","","Snow"
"-94.36","49.79","KENORA A","6034076","2018-02-14 18:00","2018","02","14","18:00","-3.7","","-6.4","","82","","","","2","","14","","4.8","","95.14","","","","-9","","Snow"
"-94.36","49.79","KENORA A","6034076","2018-02-14 19:00","2018","02","14","19:00","-4.9","","-5.8","","93","","","","2","","14","","3.2","","95.16","","","","-10","","Snow"
"-94.36","49.79","KENORA A","6034076","2018-02-14 20:00","2018","02","14","20:00","-5.5","","-6.5","","93","","","","3","","13","","2.4","","95.23","","","","-11","","Snow"
"-94.36","49.79","KENORA A","6034076","2018-02-14 21:00","2018","02","14","21:00","-6.0","","-6.9","","93","","","","3","","14","","2.4","","95.25","","","","-12","","Snow"
"-94.36","49.79","KENORA A","6034076","2018-02-14 22:00","2018","02","14","22:00","-6.2","","-7.3","","92","","","","2","","11","","3.2","","95.30","","","","-11","","Snow"
"-94.36","49.79","KENORA A","6034076","2018-02-14 23:00","2018","02","14","23:00","-6.6","","-7.7","","92","","","","2","","16","","2.4","","95.39","","","","-13","","Snow"
"-94.36","49.79","KENORA A","6034076","2018-02-15 00:00","2018","02","15","00:00","-7.1","","-8.2","","92","","","","2","","15","","2.4","","95.48","","","","-13","","Snow"
"-94.36","49.79","KENORA A","6034076","2018-02-15 01:00","2018","02","15","01:00","-7.4","","-8.6","","91","","","","1","","17","","2.4","","95.54","","","","-14","","Snow"
"-94.36","49.79","KENORA A","6034076","2018-02-15 02:00","2018","02","15","02:00","-7.8","","-9.5","","88","","","","2","","16","","8.1","","95.61","","","","-14","","Snow"
"-94.36","49.79","KENORA A","6034076","2018-02-15 03:00","2018","02","15","03:00","-8.3","","-10.1","","87","","","","36","","22","","16.1","","95.75","","","","-16","","Snow"
"-94.36","49.79","KENORA A","6034076","2018-02-15 04:00","2018","02","15","04:00","-8.8","","-10.5","","88","","","","36","","17","","24.1","","95.84","","","","-16","","Snow"
"-94.36","49.79","KENORA A","6034076","2018-02-15 05:00","2018","02","15","05:00","-9.8","","-11.4","","88","","","","36","","14","","24.1","","95.97","","","","-16","","Snow"
"-94.36","49.79","KENORA A","6034076","2018-02-15 06:00","2018","02","15","06:00","-11.8","","-13.7","","86","","","","36","","17","","19.3","","96.11","","","","-19","","Snow,Blowing Snow"
"-94.36","49.79","KENORA A","6034076","2018-02-15 07:00","2018","02","15","07:00","-13.2","","-15.1","","86","","","","35","","19","","24.1","","96.19","","","","-22","","Snow,Blowing Snow"
"-94.36","49.79","KENORA A","6034076","2018-02-15 08:00","2018","02","15","08:00","-14.7","","-16.8","","84","","","","34","","17","","12.9","","96.34","","","","-23","","Snow,Blowing Snow"
"-94.36","49.79","KENORA A","6034076","2018-02-15 09:00","2018","02","15","09:00","-15.3","","-17.8","","82","","","","34","","22","","24.1","","96.42","","","","-25","","Snow,Blowing Snow"
"-94.36","49.79","KENORA A","6034076","2018-02-15 10:00","2018","02","15","10:00","-16.5","","-19.2","","80","","","","33","","23","","8.1","","96.53","","","","-27","","Snow,Blowing Snow"
"-94.36","49.79","KENORA A","6034076","2018-02-15 11:00","2018","02","15","11:00","-16.6","","-20.1","","75","","","","33","","21","","24.1","","96.64","","","","-26","","Blowing Snow"
"-94.36","49.79","KENORA A","6034076","2018-02-15 12:00","2018","02","15","12:00","-16.8","","-20.8","","71","","","","33","","22","","24.1","","96.72","","","","-27","","Blowing Snow"
"-94.36","49.79","KENORA A","6034076","2018-02-15 13:00","2018","02","15","13:00","-16.1","","-20.4","","70","","","","33","","19","","24.1","","96.74","","","","-25","","Blowing Snow"
"-94.36","49.79","KENORA A","6034076","2018-02-15 14:00","2018","02","15","14:00","-15.6","","-20.7","","65","","","","31","","17","","24.1","","96.73","","","","-24","","Blowing Snow"
"-94.36","49.79","KENORA A","6034076","2018-02-15 15:00","2018","02","15","15:00","-16.1","","-22.4","","59","","","","32","","19","","24.1","","96.73","","","","-25","","Blowing Snow"
"-94.36","49.79","KENORA A","6034076","2018-02-15 16:00","2018","02","15","16:00","-16.5","","-24.0","","53","","","","33","","19","","24.1","","96.79","","","","-26","","Blowing Snow"
"-94.36","49.79","KENORA A","6034076","2018-02-15 17:00","2018","02","15","17:00","-17.7","","-24.2","","57","","","","33","","17","","24.1","","96.90","","","","-27","","Blowing Snow"
"-94.36","49.79","KENORA A","6034076","2018-02-15 18:00","2018","02","15","18:00","-19.5","","-24.1","","67","","","","29","","10","","24.1","","96.97","","","","-27","","Mainly Clear"
"-94.36","49.79","KENORA A","6034076","2018-02-15 19:00","2018","02","15","19:00","-21.5","","-25.8","","69","","","","29","","13","","24.1","","97.04","","","","-30","","NA"
"-94.36","49.79","KENORA A","6034076","2018-02-15 20:00","2018","02","15","20:00","-22.9","","-27.7","","66","","","","28","","16","","24.1","","97.06","","","","-33","","NA"
"-94.36","49.79","KENORA A","6034076","2018-02-15 21:00","2018","02","15","21:00","-24.2","","-28.9","","65","","","","28","","14","","24.1","","97.07","","","","-34","","Mainly Clear"
"-94.36","49.79","KENORA A","6034076","2018-02-15 22:00","2018","02","15","22:00","-25.1","","-29.4","","68","","","","26","","12","","24.1","","97.09","","","","-34","","NA"
"-94.36","49.79","KENORA A","6034076","2018-02-15 23:00","2018","02","15","23:00","-26.5","","-29.8","","74","","","","22","","14","","24.1","","97.06","","","","-37","","NA"
"-94.36","49.79","KENORA A","6034076","2018-02-16 00:00","2018","02","16","00:00","-26.4","","-29.3","","77","","","","23","","13","","24.1","","96.97","","","","-36","","Clear"
"-94.36","49.79","KENORA A","6034076","2018-02-16 01:00","2018","02","16","01:00","-26.2","","-29.1","","77","","","","22","","15","","24.1","","96.92","","","","-37","","NA"
"-94.36","49.79","KENORA A","6034076","2018-02-16 02:00","2018","02","16","02:00","-27.1","","-29.8","","79","","","","23","","14","","24.1","","96.86","","","","-37","","NA"
"-94.36","49.79","KENORA A","6034076","2018-02-16 03:00","2018","02","16","03:00","-26.9","","-29.6","","79","","","","20","","14","","24.1","","96.76","","","","-37","","Clear"
"-94.36","49.79","KENORA A","6034076","2018-02-16 04:00","2018","02","16","04:00","-26.9","","-29.6","","79","","","","20","","15","","24.1","","96.70","","","","-38","","NA"
"-94.36","49.79","KENORA A","6034076","2018-02-16 05:00","2018","02","16","05:00","-26.3","","-28.9","","79","","","","21","","13","","24.1","","96.66","","","","-36","","NA"
"-94.36","49.79","KENORA A","6034076","2018-02-16 06:00","2018","02","16","06:00","-26.2","","-28.8","","79","","","","21","","13","","24.1","","96.65","","","","-36","","Clear"
"-94.36","49.79","KENORA A","6034076","2018-02-16 07:00","2018","02","16","07:00","-25.8","","-28.4","","79","","","","20","","13","","24.1","","96.60","","","","-35","","NA"
"-94.36","49.79","KENORA A","6034076","2018-02-16 08:00","2018","02","16","08:00","-25.4","","-28.1","","79","","","","21","","12","","24.1","","96.58","","","","-35","","NA"
"-94.36","49.79","KENORA A","6034076","2018-02-16 09:00","2018","02","16","09:00","-22.3","","-24.8","","81","","","","21","","16","","24.1","","96.58","","","","-32","","Clear"
"-94.36","49.79","KENORA A","6034076","2018-02-16 10:00","2018","02","16","10:00","-20.1","","-22.6","","81","","","","22","","19","","24.1","","96.58","","","","-30","","NA"
"-94.36","49.79","KENORA A","6034076","2018-02-16 11:00","2018","02","16","11:00","-17.6","","-21.2","","74","","","","21","","16","","24.1","","96.53","","","","-26","","NA"
"-94.36","49.79","KENORA A","6034076","2018-02-16 12:00","2018","02","16","12:00","-15.3","","-20.2","","66","","","","21","","17","","24.1","","96.47","","","","-24","","Mainly Clear"
"-94.36","49.79","KENORA A","6034076","2018-02-16 13:00","2018","02","16","13:00","-13.5","","-19.1","","63","","","","21","","21","","24.1","","96.41","","","","-22","","NA"
"-94.36","49.79","KENORA A","6034076","2018-02-16 14:00","2018","02","16","14:00","-12.6","","-18.2","","63","","","","19","","16","","24.1","","96.30","","","","-20","","NA"
"-94.36","49.79","KENORA A","6034076","2018-02-16 15:00","2018","02","16","15:00","-11.9","","-17.6","","63","","","","19","","18","","24.1","","96.20","","","","-20","","Mostly Cloudy"
"-94.36","49.79","KENORA A","6034076","2018-02-16 16:00","2018","02","16","16:00","-11.4","","-16.8","","65","","","","19","","21","","24.1","","96.12","","","","-20","","NA"
"-94.36","49.79","KENORA A","6034076","2018-02-16 17:00","2018","02","16","17:00","-10.8","","-15.9","","67","","","","20","","22","","24.1","","96.03","","","","-19","","NA"
"-94.36","49.79","KENORA A","6034076","2018-02-16 18:00","2018","02","16","18:00","-10.5","","-15.3","","68","","","","21","","21","","24.1","","95.96","","","","-19","","Cloudy"
"-94.36","49.79","KENORA A","6034076","2018-02-16 19:00","2018","02","16","19:00","-10.5","","-15.0","","70","","","","20","","16","","24.1","","95.92","","","","-18","","NA"
"-94.36","49.79","KENORA A","6034076","2018-02-16 20:00","2018","02","16","20:00","-10.4","","-14.6","","71","","","","19","","10","","24.1","","95.79","","","","-16","","NA"
"-94.36","49.79","KENORA A","6034076","2018-02-16 21:00","2018","02","16","21:00","-9.6","","-14.1","","70","","","","18","","18","","24.1","","95.64","","","","-17","","Cloudy"
"-94.36","49.79","KENORA A","6034076","2018-02-16 22:00","2018","02","16","22:00","-9.3","","-13.9","","70","","","","19","","15","","24.1","","95.57","","","","-16","","NA"
"-94.36","49.79","KENORA A","6034076","2018-02-16 23:00","2018","02","16","23:00","-9.1","","-13.1","","73","","","","21","","16","","24.1","","95.52","","","","-16","","NA"
"-94.36","49.79","KENORA A","6034076","2018-02-17 00:00","2018","02","17","00:00","-9.5","","-12.8","","77","","","","22","","14","","24.1","","95.46","","","","-16","","Cloudy"
"-94.36","49.79","KENORA A","6034076","2018-02-17 01:00","2018","02","17","01:00","-9.6","","-12.8","","78","","","","26","","15","","24.1","","95.45","","","","-16","","NA"
"-94.36","49.79","KENORA A","6034076","2018-02-17 02:00","2018","02","17","02:00","-10.8","","-13.6","","80","","","","26","","20","","24.1","","95.44","","","","-19","","NA"
"-94.36","49.79","KENORA A","6034076","2018-02-17 03:00","2018","02","17","03:00","-12.5","","-14.9","","82","","","","27","","16","","24.1","","95.46","","","","-20","","Mostly Cloudy"
"-94.36","49.79","KENORA A","6034076","2018-02-17 04:00","2018","02","17","04:00","-13.2","","-15.6","","83","","","","28","","16","","24.1","","95.47","","","","-21","","NA"
"-94.36","49.79","KENORA A","6034076","2018-02-17 05:00","2018","02","17","05:00","-13.6","","-15.8","","84","","","","27","","12","","24.1","","95.53","","","","-20","","NA"
"-94.36","49.79","KENORA A","6034076","2018-02-17 06:00","2018","02","17","06:00","-14.5","","-16.4","","86","","","","27","","9","","24.1","","95.60","","","","-20","","Cloudy"
"-94.36","49.79","KENORA A","6034076","2018-02-17 07:00","2018","02","17","07:00","-15.4","","-17.0","","87","","","","28","","13","","24.1","","95.66","","","","-23","","Snow"
"-94.36","49.79","KENORA A","6034076","2018-02-17 08:00","2018","02","17","08:00","-16.2","","-17.9","","87","","","","27","","12","","24.1","","95.74","","","","-23","","NA"
"-94.36","49.79","KENORA A","6034076","2018-02-17 09:00","2018","02","17","09:00","-15.4","","-17.5","","84","","","","27","","13","","24.1","","95.76","","","","-23","","Mainly Clear"
"-94.36","49.79","KENORA A","6034076","2018-02-17 10:00","2018","02","17","10:00","-14.3","","-17.7","","75","","","","26","","16","","24.1","","95.82","","","","-22","","NA"
"-94.36","49.79","KENORA A","6034076","2018-02-17 11:00","2018","02","17","11:00","-11.8","","-17.4","","64","","","","27","","19","","24.1","","95.83","","","","-20","","NA"
"-94.36","49.79","KENORA A","6034076","2018-02-17 12:00","2018","02","17","12:00","-11.1","","-18.4","","56","","","","28","","22","","24.1","","95.85","","","","-20","","Blowing Snow"
"-94.36","49.79","KENORA A","6034076","2018-02-17 13:00","2018","02","17","13:00","-10.3","","-18.6","","51","","","","28","","24","","24.1","","95.85","","","","-19","","Blowing Snow"
"-94.36","49.79","KENORA A","6034076","2018-02-17 14:00","2018","02","17","14:00","-9.8","","-19.2","","47","","","","28","","24","","24.1","","95.86","","","","-18","","Blowing Snow"
"-94.36","49.79","KENORA A","6034076","2018-02-17 15:00","2018","02","17","15:00","-9.5","","-18.9","","47","","","","27","","25","","24.1","","95.88","","","","-18","","Blowing Snow"
"-94.36","49.79","KENORA A","6034076","2018-02-17 16:00","2018","02","17","16:00","-9.7","","-19.4","","45","","","","27","","30","","24.1","","95.94","","","","-19","","Blowing Snow"
"-94.36","49.79","KENORA A","6034076","2018-02-17 17:00","2018","02","17","17:00","-11.1","","-19.1","","52","","","","30","","27","","24.1","","96.02","","","","-21","","Blowing Snow"
"-94.36","49.79","KENORA A","6034076","2018-02-17 18:00","2018","02","17","18:00","-12.6","","-19.4","","57","","","","29","","22","","24.1","","96.12","","","","-22","","Blowing Snow"
"-94.36","49.79","KENORA A","6034076","2018-02-17 19:00","2018","02","17","19:00","-14.8","","-18.6","","73","","","","30","","14","","12.9","","96.25","","","","-22","","Snow,Blowing Snow"
"-94.36","49.79","KENORA A","6034076","2018-02-17 20:00","2018","02","17","20:00","-16.1","","-21.2","","65","","","","30","","16","","24.1","","96.37","","","","-25","","NA"
"-94.36","49.79","KENORA A","6034076","2018-02-17 21:00","2018","02","17","21:00","-17.3","","-21.5","","70","","","","29","","8","","24.1","","96.41","","","","-23","","Mainly Clear"
"-94.36","49.79","KENORA A","6034076","2018-02-17 22:00","2018","02","17","22:00","-19.9","","-23.0","","77","","","","29","","3","","24.1","","96.39","","","","-22","","NA"
"-94.36","49.79","KENORA A","6034076","2018-02-17 23:00","2018","02","17","23:00","-19.1","","-21.7","","81","","","","24","","8","","24.1","","96.45","","","","-25","","NA"
"-94.36","49.79","KENORA A","6034076","2018-02-18 00:00","2018","02","18","00:00","-19.5","","-21.8","","82","","","","21","","10","","24.1","","96.52","","","","-27","","Clear"
"-94.36","49.79","KENORA A","6034076","2018-02-18 01:00","2018","02","18","01:00","-20.0","","-22.4","","81","","","","21","","13","","24.1","","96.50","","","","-28","","NA"
"-94.36","49.79","KENORA A","6034076","2018-02-18 02:00","2018","02","18","02:00","-20.0","","-23.0","","78","","","","19","","10","","24.1","","96.53","","","","-27","","NA"
"-94.36","49.79","KENORA A","6034076","2018-02-18 03:00","2018","02","18","03:00","-19.9","","-23.3","","74","","","","20","","12","","24.1","","96.58","","","","-28","","Clear"
"-94.36","49.79","KENORA A","6034076","2018-02-18 04:00","2018","02","18","04:00","-20.1","","-23.3","","76","","","","19","","12","","24.1","","96.50","","","","-28","","NA"
"-94.36","49.79","KENORA A","6034076","2018-02-18 05:00","2018","02","18","05:00","-19.9","","-22.8","","78","","","","18","","10","","24.1","","96.53","","","","-27","","NA"
"-94.36","49.79","KENORA A","6034076","2018-02-18 06:00","2018","02","18","06:00","-19.8","","-22.8","","77","","","","17","","9","","24.1","","96.50","","","","-27","","Mainly Clear"
"-94.36","49.79","KENORA A","6034076","2018-02-18 07:00","2018","02","18","07:00","-19.4","","-22.6","","76","","","","15","","10","","24.1","","96.51","","","","-26","","NA"
"-94.36","49.79","KENORA A","6034076","2018-02-18 08:00","2018","02","18","08:00","-19.0","","-22.4","","75","","","","17","","8","","24.1","","96.55","","","","-25","","NA"
"-94.36","49.79","KENORA A","6034076","2018-02-18 09:00","2018","02","18","09:00","-18.4","","-22.0","","74","","","","15","","8","","24.1","","96.52","","","","-24","","Cloudy"
"-94.36","49.79","KENORA A","6034076","2018-02-18 10:00","2018","02","18","10:00","-16.6","","-21.6","","66","","","","15","","6","","24.1","","96.52","","","","-21","","NA"
"-94.36","49.79","KENORA A","6034076","2018-02-18 11:00","2018","02","18","11:00","-15.3","","-21.8","","58","","","","14","","7","","24.1","","96.52","","","","-20","","NA"
"-94.36","49.79","KENORA A","6034076","2018-02-18 12:00","2018","02","18","12:00","-15.6","","-20.9","","64","","","","1","","9","","24.1","","96.50","","","","-22","","Cloudy"
"-94.36","49.79","KENORA A","6034076","2018-02-18 13:00","2018","02","18","13:00","-14.4","","-19.2","","68","","","","8","","8","","4.8","","96.47","","","","-20","","Snow"
"-94.36","49.79","KENORA A","6034076","2018-02-18 14:00","2018","02","18","14:00","-13.9","","-18.0","","71","","","","6","","10","","4.8","","96.44","","","","-20","","Snow"
"-94.36","49.79","KENORA A","6034076","2018-02-18 15:00","2018","02","18","15:00","-13.1","","-16.7","","75","","","","4","","13","","4.8","","96.41","","","","-20","","Snow"
"-94.36","49.79","KENORA A","6034076","2018-02-18 16:00","2018","02","18","16:00","-13.4","","-18.4","","67","","","","6","","16","","24.1","","96.40","","","","-21","","NA"
"-94.36","49.79","KENORA A","6034076","2018-02-18 17:00","2018","02","18","17:00","-13.9","","-19.2","","65","","","","5","","10","","24.1","","96.48","","","","-20","","NA"
"-94.36","49.79","KENORA A","6034076","2018-02-18 18:00","2018","02","18","18:00","-15.1","","-19.9","","67","","","","5","","9","","24.1","","96.56","","","","-21","","Mostly Cloudy"
"-94.36","49.79","KENORA A","6034076","2018-02-18 19:00","2018","02","18","19:00","-15.4","","-20.1","","68","","","","3","","7","","24.1","","96.70","","","","-20","","NA"
"-94.36","49.79","KENORA A","6034076","2018-02-18 20:00","2018","02","18","20:00","-15.7","","-19.9","","71","","","","6","","7","","24.1","","96.73","","","","-21","","NA"
"-94.36","49.79","KENORA A","6034076","2018-02-18 21:00","2018","02","18","21:00","-16.6","","-19.9","","76","","","","36","","7","","24.1","","96.78","","","","-22","","Mostly Cloudy"
"-94.36","49.79","KENORA A","6034076","2018-02-18 22:00","2018","02","18","22:00","-17.5","","-20.3","","79","","","","1","","8","","24.1","","96.84","","","","-23","","NA"
"-94.36","49.79","KENORA A","6034076","2018-02-18 23:00","2018","02","18","23:00","-19.0","","-21.9","","78","","","","2","","9","","24.1","","96.92","","","","-26","","NA"
"-94.36","49.79","KENORA A","6034076","2018-02-19 00:00","2018","02","19","00:00","-20.3","","-22.7","","82","","","","2","","10","","24.1","","96.90","","","","-28","","Clear"
"-94.36","49.79","KENORA A","6034076","2018-02-19 01:00","2018","02","19","01:00","-20.5","","-23.1","","80","","","","36","","11","","24.1","","96.96","","","","-28","","NA"
"-94.36","49.79","KENORA A","6034076","2018-02-19 02:00","2018","02","19","02:00","-20.7","","-23.4","","79","","","","36","","9","","24.1","","97.15","","","","-28","","NA"
"-94.36","49.79","KENORA A","6034076","2018-02-19 03:00","2018","02","19","03:00","-21.1","","-24.1","","77","","","","36","","11","","24.1","","97.20","","","","-29","","Clear"
"-94.36","49.79","KENORA A","6034076","2018-02-19 04:00","2018","02","19","04:00","-21.5","","-24.5","","77","","","","36","","12","","24.1","","97.25","","","","-30","","NA"
"-94.36","49.79","KENORA A","6034076","2018-02-19 05:00","2018","02","19","05:00","-22.5","","-25.3","","79","","","","2","","10","","24.1","","97.24","","","","-30","","NA"
"-94.36","49.79","KENORA A","6034076","2018-02-19 06:00","2018","02","19","06:00","-23.4","","-26.4","","77","","","","3","","10","","24.1","","97.30","","","","-31","","Mainly Clear"
"-94.36","49.79","KENORA A","6034076","2018-02-19 07:00","2018","02","19","07:00","-23.2","","-26.5","","75","","","","6","","10","","24.1","","97.35","","","","-31","","NA"
"-94.36","49.79","KENORA A","6034076","2018-02-19 08:00","2018","02","19","08:00","-23.5","","-26.9","","74","","","","7","","11","","24.1","","97.40","","","","-32","","NA"
"-94.36","49.79","KENORA A","6034076","2018-02-19 09:00","2018","02","19","09:00","-22.1","","-26.2","","70","","","","6","","11","","24.1","","97.47","","","","-30","","Mostly Cloudy"
"-94.36","49.79","KENORA A","6034076","2018-02-19 10:00","2018","02","19","10:00","-20.7","","-25.5","","66","","","","8","","11","","24.1","","97.50","","","","-28","","NA"
"-94.36","49.79","KENORA A","6034076","2018-02-19 11:00","2018","02","19","11:00","-17.6","","-24.2","","57","","","","7","","7","","24.1","","97.53","","","","-23","","NA"
"-94.36","49.79","KENORA A","6034076","2018-02-19 12:00","2018","02","19","12:00","-16.0","","-24.4","","49","","","","1","","9","","24.1","","97.52","","","","-22","","Mostly Cloudy"
"-94.36","49.79","KENORA A","6034076","2018-02-19 13:00","2018","02","19","13:00","-15.3","","-24.7","","45","","","","6","","10","","24.1","","97.48","","","","-22","","NA"
"-94.36","49.79","KENORA A","6034076","2018-02-19 14:00","2018","02","19","14:00","-14.9","","-24.3","","45","","","","3","","9","","24.1","","97.38","","","","-21","","NA"
"-94.36","49.79","KENORA A","6034076","2018-02-19 15:00","2018","02","19","15:00","-14.7","","-24.2","","45","","","","6","","10","","24.1","","97.35","","","","-21","","Mostly Cloudy"
"-94.36","49.79","KENORA A","6034076","2018-02-19 16:00","2018","02","19","16:00","-14.8","","-24.1","","45","","","","6","","9","","24.1","","97.35","","","","-21","","NA"
"-94.36","49.79","KENORA A","6034076","2018-02-19 17:00","2018","02","19","17:00","-15.1","","-24.1","","47","","","","5","","9","","24.1","","97.40","","","","-21","","NA"
"-94.36","49.79","KENORA A","6034076","2018-02-19 18:00","2018","02","19","18:00","-15.8","","-23.3","","53","","","","7","","8","","24.1","","97.40","","","","-21","","Mostly Cloudy"
"-94.36","49.79","KENORA A","6034076","2018-02-19 19:00","2018","02","19","19:00","-15.8","","-23.5","","52","","","","6","","5","","24.1","","97.42","","","","-20","","NA"
"-94.36","49.79","KENORA A","6034076","2018-02-19 20:00","2018","02","19","20:00","-16.0","","-23.7","","52","","","","6","","10","","24.1","","97.42","","","","-22","","NA"
"-94.36","49.79","KENORA A","6034076","2018-02-19 21:00","2018","02","19","21:00","-16.5","","-23.5","","56","","","","4","","12","","24.1","","97.38","","","","-24","","Cloudy"
"-94.36","49.79","KENORA A","6034076","2018-02-19 22:00","2018","02","19","22:00","-16.9","","-23.9","","55","","","","6","","14","","24.1","","97.33","","","","-25","","NA"
"-94.36","49.79","KENORA A","6034076","2018-02-19 23:00","2018","02","19","23:00","-16.9","","-23.9","","55","","","","6","","9","","24.1","","97.32","","","","-23","","NA"
"-94.36","49.79","KENORA A","6034076","2018-02-20 00:00","2018","02","20","00:00","-16.9","","-23.6","","57","","","","5","","8","","24.1","","97.31","","","","-23","","Cloudy"
"-94.36","49.79","KENORA A","6034076","2018-02-20 01:00","2018","02","20","01:00","-16.9","","-23.3","","58","","","","7","","10","","24.1","","97.21","","","","-24","","NA"
"-94.36","49.79","KENORA A","6034076","2018-02-20 02:00","2018","02","20","02:00","-16.9","","-23.1","","59","","","","4","","9","","24.1","","97.16","","","","-23","","NA"
"-94.36","49.79","KENORA A","6034076","2018-02-20 03:00","2018","02","20","03:00","-17.1","","-23.2","","60","","","","4","","13","","24.1","","97.05","","","","-25","","Cloudy"
"-94.36","49.79","KENORA A","6034076","2018-02-20 04:00","2018","02","20","04:00","-17.2","","-23.0","","62","","","","3","","13","","24.1","","96.98","","","","-25","","NA"
"-94.36","49.79","KENORA A","6034076","2018-02-20 05:00","2018","02","20","05:00","-17.3","","-23.2","","61","","","","4","","16","","24.1","","96.87","","","","-26","","NA"
"-94.36","49.79","KENORA A","6034076","2018-02-20 06:00","2018","02","20","06:00","-17.4","","-23.2","","61","","","","6","","13","","24.1","","96.92","","","","-25","","Cloudy"
"-94.36","49.79","KENORA A","6034076","2018-02-20 07:00","2018","02","20","07:00","-17.7","","-21.7","","72","","","","3","","13","","3.2","","96.76","","","","-26","","Snow"
"-94.36","49.79","KENORA A","6034076","2018-02-20 08:00","2018","02","20","08:00","-17.9","","-20.4","","81","","","","1","","10","","4.8","","96.82","","","","-25","","Snow"
"-94.36","49.79","KENORA A","6034076","2018-02-20 09:00","2018","02","20","09:00","-17.8","","-20.7","","78","","","","36","","17","","4.8","","96.77","","","","-27","","Snow"
"-94.36","49.79","KENORA A","6034076","2018-02-20 10:00","2018","02","20","10:00","-17.4","","-20.0","","80","","","","36","","12","","1.6","","96.68","","","","-25","","Snow"
"-94.36","49.79","KENORA A","6034076","2018-02-20 11:00","2018","02","20","11:00","-17.0","","-20.0","","78","","","","36","","14","","2.4","","96.62","","","","-25","","Snow"
"-94.36","49.79","KENORA A","6034076","2018-02-20 12:00","2018","02","20","12:00","-16.8","","-19.7","","79","","","","33","","15","","1.6","","96.60","","","","-25","","Snow"
"-94.36","49.79","KENORA A","6034076","2018-02-20 13:00","2018","02","20","13:00","-16.1","","-19.0","","79","","","","32","","17","","1.6","","96.56","","","","-25","","Snow"
"-94.36","49.79","KENORA A","6034076","2018-02-20 14:00","2018","02","20","14:00","-15.2","","-18.4","","77","","","","33","","14","","2.4","","96.56","","","","-23","","Snow"
"-94.36","49.79","KENORA A","6034076","2018-02-20 15:00","2018","02","20","15:00","-14.7","","-18.1","","76","","","","33","","14","","4.8","","96.59","","","","-22","","Snow"
"-94.36","49.79","KENORA A","6034076","2018-02-20 16:00","2018","02","20","16:00","-14.5","","-17.9","","76","","","","34","","13","","9.7","","96.65","","","","-22","","Snow"
"-94.36","49.79","KENORA A","6034076","2018-02-20 17:00","2018","02","20","17:00","-14.2","","-18.1","","73","","","","31","","11","","24.1","","96.71","","","","-21","","NA"
"-94.36","49.79","KENORA A","6034076","2018-02-20 18:00","2018","02","20","18:00","-14.7","","-17.6","","79","","","","29","","7","","24.1","","96.79","","","","-19","","Cloudy"
"-94.36","49.79","KENORA A","6034076","2018-02-20 19:00","2018","02","20","19:00","-14.7","","-17.7","","78","","","","27","","9","","24.1","","96.85","","","","-20","","NA"
"-94.36","49.79","KENORA A","6034076","2018-02-20 20:00","2018","02","20","20:00","-15.5","","-18.3","","79","","","","26","","8","","24.1","","96.89","","","","-21","","Snow"
"-94.36","49.79","KENORA A","6034076","2018-02-20 21:00","2018","02","20","21:00","-17.6","","-20.0","","82","","","","24","","9","","24.1","","96.93","","","","-24","","Snow"
"-94.36","49.79","KENORA A","6034076","2018-02-20 22:00","2018","02","20","22:00","-18.4","","-20.5","","84","","","","25","","13","","24.1","","97.01","","","","-26","","NA"
"-94.36","49.79","KENORA A","6034076","2018-02-20 23:00","2018","02","20","23:00","-18.8","","-20.6","","85","","","","23","","12","","24.1","","97.00","","","","-27","","NA"
"-94.36","49.79","KENORA A","6034076","2018-02-21 00:00","2018","02","21","00:00","-18.7","","-20.8","","84","","","","21","","12","","24.1","","97.05","","","","-26","","Clear"
"-94.36","49.79","KENORA A","6034076","2018-02-21 01:00","2018","02","21","01:00","-19.0","","-21.2","","83","","","","20","","9","","24.1","","97.12","","","","-26","","NA"
"-94.36","49.79","KENORA A","6034076","2018-02-21 02:00","2018","02","21","02:00","-18.8","","-21.0","","83","","","","20","","10","","24.1","","97.16","","","","-26","","NA"
"-94.36","49.79","KENORA A","6034076","2018-02-21 03:00","2018","02","21","03:00","-19.5","","-21.7","","83","","","","20","","13","","24.1","","97.19","","","","-28","","Mainly Clear"
"-94.36","49.79","KENORA A","6034076","2018-02-21 04:00","2018","02","21","04:00","-20.9","","-23.0","","83","","","","20","","12","","24.1","","97.22","","","","-29","","NA"
"-94.36","49.79","KENORA A","6034076","2018-02-21 05:00","2018","02","21","05:00","-21.3","","-23.4","","83","","","","19","","11","","24.1","","97.26","","","","-29","","NA"
"-94.36","49.79","KENORA A","6034076","2018-02-21 06:00","2018","02","21","06:00","-21.7","","-24.1","","82","","","","19","","10","","24.1","","97.35","","","","-29","","Clear"
"-94.36","49.79","KENORA A","6034076","2018-02-21 07:00","2018","02","21","07:00","-21.9","","-24.3","","81","","","","20","","12","","24.1","","97.44","","","","-30","","NA"
"-94.36","49.79","KENORA A","6034076","2018-02-21 08:00","2018","02","21","08:00","-21.9","","-24.4","","81","","","","22","","10","","24.1","","97.57","","","","-29","","NA"
"-94.36","49.79","KENORA A","6034076","2018-02-21 09:00","2018","02","21","09:00","-19.3","","-21.5","","83","","","","22","","15","","24.1","","97.62","","","","-28","","Clear"
"-94.36","49.79","KENORA A","6034076","2018-02-21 10:00","2018","02","21","10:00","-17.6","","-19.8","","84","","","","22","","13","","24.1","","97.68","","","","-25","","Ice Crystals"
"-94.36","49.79","KENORA A","6034076","2018-02-21 11:00","2018","02","21","11:00","-15.6","","-18.5","","79","","","","24","","16","","24.1","","97.74","","","","-24","","NA"
"-94.36","49.79","KENORA A","6034076","2018-02-21 12:00","2018","02","21","12:00","-13.8","","-18.8","","66","","","","23","","16","","24.1","","97.84","","","","-22","","Mainly Clear"
"-94.36","49.79","KENORA A","6034076","2018-02-21 13:00","2018","02","21","13:00","-12.9","","-18.4","","64","","","","22","","21","","24.1","","97.86","","","","-22","","NA"
"-94.36","49.79","KENORA A","6034076","2018-02-21 14:00","2018","02","21","14:00","-12.3","","-18.3","","61","","","","22","","23","","24.1","","97.98","","","","-21","","NA"
"-94.36","49.79","KENORA A","6034076","2018-02-21 15:00","2018","02","21","15:00","-12.0","","-18.0","","61","","","","19","","20","","24.1","","98.02","","","","-20","","Mainly Clear"
"-94.36","49.79","KENORA A","6034076","2018-02-21 16:00","2018","02","21","16:00","-11.8","","-18.2","","60","","","","21","","16","","24.1","","98.05","","","","-19","","NA"
"-94.36","49.79","KENORA A","6034076","2018-02-21 17:00","2018","02","21","17:00","-12.0","","-18.5","","59","","","","20","","14","","24.1","","98.06","","","","-19","","NA"
"-94.36","49.79","KENORA A","6034076","2018-02-21 18:00","2018","02","21","18:00","-13.4","","-19.3","","62","","","","21","","13","","24.1","","98.08","","","","-20","","Mostly Cloudy"
"-94.36","49.79","KENORA A","6034076","2018-02-21 19:00","2018","02","21","19:00","-15.3","","-20.0","","68","","","","20","","13","","24.1","","98.11","","","","-23","","NA"
"-94.36","49.79","KENORA A","6034076","2018-02-21 20:00","2018","02","21","20:00","-16.8","","-20.5","","73","","","","20","","13","","24.1","","98.12","","","","-25","","NA"
"-94.36","49.79","KENORA A","6034076","2018-02-21 21:00","2018","02","21","21:00","-17.1","","-20.6","","75","","","","22","","18","","24.1","","98.18","","","","-26","","Mainly Clear"
"-94.36","49.79","KENORA A","6034076","2018-02-21 22:00","2018","02","21","22:00","-18.3","","-21.1","","79","","","","21","","12","","24.1","","98.22","","","","-26","","NA"
"-94.36","49.79","KENORA A","6034076","2018-02-21 23:00","2018","02","21","23:00","-19.1","","-21.5","","81","","","","19","","10","","24.1","","98.25","","","","-26","","NA"
"-94.36","49.79","KENORA A","6034076","2018-02-22 00:00","2018","02","22","00:00","-20.0","","-22.2","","83","","","","21","","9","","24.1","","98.27","","","","-27","","Clear"
"-94.36","49.79","KENORA A","6034076","2018-02-22 01:00","2018","02","22","01:00","-20.4","","-22.4","","84","","","","22","","8","","24.1","","98.27","","","","-27","","NA"
"-94.36","49.79","KENORA A","6034076","2018-02-22 02:00","2018","02","22","02:00","-20.9","","-22.9","","84","","","","19","","11","","24.1","","98.29","","","","-29","","NA"
"-94.36","49.79","KENORA A","6034076","2018-02-22 03:00","2018","02","22","03:00","-20.5","","-22.6","","83","","","","19","","14","","24.1","","98.30","","","","-29","","Clear"
"-94.36","49.79","KENORA A","6034076","2018-02-22 04:00","2018","02","22","04:00","-20.4","","-22.6","","83","","","","19","","14","","24.1","","98.25","","","","-29","","NA"
"-94.36","49.79","KENORA A","6034076","2018-02-22 05:00","2018","02","22","05:00","-21.1","","-23.3","","83","","","","16","","16","","24.1","","98.20","","","","-31","","NA"
"-94.36","49.79","KENORA A","6034076","2018-02-22 06:00","2018","02","22","06:00","-21.0","","-23.2","","82","","","","16","","13","","24.1","","98.17","","","","-30","","Clear"
"-94.36","49.79","KENORA A","6034076","2018-02-22 07:00","2018","02","22","07:00","-21.2","","-23.5","","82","","","","16","","15","","24.1","","98.17","","","","-31","","NA"
"-94.36","49.79","KENORA A","6034076","2018-02-22 08:00","2018","02","22","08:00","-20.0","","-22.3","","82","","","","16","","16","","24.1","","98.17","","","","-29","","NA"
"-94.36","49.79","KENORA A","6034076","2018-02-22 09:00","2018","02","22","09:00","-17.3","","-19.7","","82","","","","18","","17","","24.1","","98.16","","","","-26","","Clear"
"-94.36","49.79","KENORA A","6034076","2018-02-22 10:00","2018","02","22","10:00","-14.5","","-18.5","","72","","","","20","","13","","24.1","","98.13","","","","-22","","NA"
"-94.36","49.79","KENORA A","6034076","2018-02-22 11:00","2018","02","22","11:00","-11.9","","-19.3","","55","","","","19","","19","","24.1","","98.07","","","","-20","","NA"
"-94.36","49.79","KENORA A","6034076","2018-02-22 12:00","2018","02","22","12:00","-10.0","","-18.6","","50","","","","18","","24","","24.1","","98.02","","","","-19","","Clear"
"-94.36","49.79","KENORA A","6034076","2018-02-22 13:00","2018","02","22","13:00","-8.2","","-17.7","","47","","","","20","","27","","24.1","","97.92","","","","-17","","Blowing Snow"
"-94.36","49.79","KENORA A","6034076","2018-02-22 14:00","2018","02","22","14:00","-7.7","","-16.3","","51","","","","22","","28","","24.1","","97.84","","","","-16","","Blowing Snow"
"-94.36","49.79","KENORA A","6034076","2018-02-22 15:00","2018","02","22","15:00","-6.9","","-15.1","","52","","","","20","","23","","24.1","","97.77","","","","-14","","Blowing Snow"
"-94.36","49.79","KENORA A","6034076","2018-02-22 16:00","2018","02","22","16:00","-6.6","","-13.9","","56","","","","20","","21","","24.1","","97.71","","","","-14","","Blowing Snow"
"-94.36","49.79","KENORA A","6034076","2018-02-22 17:00","2018","02","22","17:00","-6.8","","-13.5","","59","","","","20","","27","","24.1","","97.68","","","","-15","","Blowing Snow"
"-94.36","49.79","KENORA A","6034076","2018-02-22 18:00","2018","02","22","18:00","-8.3","","-13.9","","64","","","","19","","18","","24.1","","97.68","","","","-15","","Clear"
"-94.36","49.79","KENORA A","6034076","2018-02-22 19:00","2018","02","22","19:00","-9.5","","-14.3","","68","","","","19","","16","","24.1","","97.65","","","","-16","","NA"
"-94.36","49.79","KENORA A","6034076","2018-02-22 20:00","2018","02","22","20:00","-9.9","","-14.4","","70","","","","19","","18","","24.1","","97.60","","","","-17","","NA"
"-94.36","49.79","KENORA A","6034076","2018-02-22 21:00","2018","02","22","21:00","-10.4","","-14.5","","72","","","","20","","14","","24.1","","97.55","","","","-17","","Clear"
"-94.36","49.79","KENORA A","6034076","2018-02-22 22:00","2018","02","22","22:00","-11.0","","-14.8","","74","","","","20","","10","","24.1","","97.53","","","","-16","","NA"
"-94.36","49.79","KENORA A","6034076","2018-02-22 23:00","2018","02","22","23:00","-11.7","","-14.8","","78","","","","19","","10","","24.1","","97.50","","","","-17","","NA"
"-94.36","49.79","KENORA A","6034076","2018-02-23 00:00","2018","02","23","00:00","-11.0","","-14.9","","73","","","","20","","8","","24.1","","97.46","","","","-16","","Mostly Cloudy"
"-94.36","49.79","KENORA A","6034076","2018-02-23 01:00","2018","02","23","01:00","-12.2","","-15.8","","75","","","","18","","7","","24.1","","97.40","","","","-17","","NA"
"-94.36","49.79","KENORA A","6034076","2018-02-23 02:00","2018","02","23","02:00","-11.8","","-16.2","","71","","","","18","","3","","24.1","","97.34","","","","-14","","NA"
"-94.36","49.79","KENORA A","6034076","2018-02-23 03:00","2018","02","23","03:00","-10.3","","-14.8","","70","","","","27","","5","","24.1","","97.22","","","","-13","","Mostly Cloudy"
"-94.36","49.79","KENORA A","6034076","2018-02-23 04:00","2018","02","23","04:00","-11.0","","-14.7","","75","","","","32","","4","","24.1","","97.11","","","","-13","","NA"
"-94.36","49.79","KENORA A","6034076","2018-02-23 05:00","2018","02","23","05:00","-13.0","","-15.7","","80","","","","4","","5","","24.1","","97.02","","","","-16","","NA"
"-94.36","49.79","KENORA A","6034076","2018-02-23 06:00","2018","02","23","06:00","-11.6","","-14.6","","79","","","","4","","4","","24.1","","96.99","","","","-14","","Cloudy"
"-94.36","49.79","KENORA A","6034076","2018-02-23 07:00","2018","02","23","07:00","-11.7","","-14.7","","78","","","","36","","4","","24.1","","96.98","","","","-14","","NA"
"-94.36","49.79","KENORA A","6034076","2018-02-23 08:00","2018","02","23","08:00","-11.5","","-14.7","","77","","","","35","","7","","24.1","","96.97","","","","-16","","NA"
"-94.36","49.79","KENORA A","6034076","2018-02-23 09:00","2018","02","23","09:00","-11.1","","-14.2","","78","","","","35","","7","","24.1","","96.96","","","","-15","","Cloudy"
"-94.36","49.79","KENORA A","6034076","2018-02-23 10:00","2018","02","23","10:00","-10.2","","-13.9","","74","","","","34","","6","","24.1","","96.94","","","","-14","","NA"
"-94.36","49.79","KENORA A","6034076","2018-02-23 11:00","2018","02","23","11:00","-9.0","","-13.2","","72","","","","32","","5","","24.1","","96.94","","","","-12","","NA"
"-94.36","49.79","KENORA A","6034076","2018-02-23 12:00","2018","02","23","12:00","-7.1","","-12.5","","66","","","","36","","1","","24.1","","96.94","","","","-8","","Mostly Cloudy"
"-94.36","49.79","KENORA A","6034076","2018-02-23 13:00","2018","02","23","13:00","-5.8","","-12.9","","57","","","","26","","8","","24.1","","96.92","","","","-10","","NA"
"-94.36","49.79","KENORA A","6034076","2018-02-23 14:00","2018","02","23","14:00","-4.6","","-14.2","","47","","","","31","","9","","24.1","","96.93","","","","-8","","NA"
"-94.36","49.79","KENORA A","6034076","2018-02-23 15:00","2018","02","23","15:00","-4.5","","-14.1","","47","","","","26","","13","","24.1","","96.90","","","","-10","","Mainly Clear"
"-94.36","49.79","KENORA A","6034076","2018-02-23 16:00","2018","02","23","16:00","-4.6","","-14.5","","46","","","","28","","7","","24.1","","96.91","","","","-8","","NA"
"-94.36","49.79","KENORA A","6034076","2018-02-23 17:00","2018","02","23","17:00","-5.1","","-15.6","","44","","","","29","","12","","24.1","","96.95","","","","-10","","NA"
"-94.36","49.79","KENORA A","6034076","2018-02-23 18:00","2018","02","23","18:00","-6.9","","-16.4","","47","","","","29","","8","","24.1","","96.96","","","","-11","","Clear"
"-94.36","49.79","KENORA A","6034076","2018-02-23 19:00","2018","02","23","19:00","-7.9","","-16.6","","50","","","","28","","9","","24.1","","97.04","","","","-12","","NA"
"-94.36","49.79","KENORA A","6034076","2018-02-23 20:00","2018","02","23","20:00","-8.7","","-17.0","","52","","","","28","","8","","24.1","","97.07","","","","-13","","NA"
"-94.36","49.79","KENORA A","6034076","2018-02-23 21:00","2018","02","23","21:00","-10.8","","-17.0","","61","","","","26","","9","","24.1","","97.09","","","","-16","","Mainly Clear"
"-94.36","49.79","KENORA A","6034076","2018-02-23 22:00","2018","02","23","22:00","-12.2","","-17.3","","66","","","","27","","12","","24.1","","97.12","","","","-19","","NA"
"-94.36","49.79","KENORA A","6034076","2018-02-23 23:00","2018","02","23","23:00","-14.7","","-18.3","","74","","","","23","","7","","24.1","","97.12","","","","-19","","NA"
"-94.36","49.79","KENORA A","6034076","2018-02-24 00:00","2018","02","24","00:00","-15.1","","-17.6","","82","","","","19","","10","","24.1","","97.11","","","","-21","","Clear"
"-94.36","49.79","KENORA A","6034076","2018-02-24 01:00","2018","02","24","01:00","-15.7","","-17.8","","85","","","","19","","11","","24.1","","97.09","","","","-22","","NA"
"-94.36","49.79","KENORA A","6034076","2018-02-24 02:00","2018","02","24","02:00","-16.7","","-18.4","","87","","","","19","","14","","24.1","","97.09","","","","-25","","NA"
"-94.36","49.79","KENORA A","6034076","2018-02-24 03:00","2018","02","24","03:00","-17.2","","-18.8","","87","","","","20","","14","","24.1","","97.03","","","","-25","","Clear"
"-94.36","49.79","KENORA A","6034076","2018-02-24 04:00","2018","02","24","04:00","-17.4","","-19.1","","87","","","","19","","14","","24.1","","96.94","","","","-26","","NA"
"-94.36","49.79","KENORA A","6034076","2018-02-24 05:00","2018","02","24","05:00","-17.1","","-18.9","","86","","","","17","","15","","24.1","","96.87","","","","-26","","NA"
"-94.36","49.79","KENORA A","6034076","2018-02-24 06:00","2018","02","24","06:00","-18.0","","-20.0","","85","","","","17","","16","","24.1","","96.80","","","","-27","","Mainly Clear"
"-94.36","49.79","KENORA A","6034076","2018-02-24 07:00","2018","02","24","07:00","-17.4","","-19.4","","85","","","","18","","17","","24.1","","96.76","","","","-26","","NA"
"-94.36","49.79","KENORA A","6034076","2018-02-24 08:00","2018","02","24","08:00","-16.3","","-18.1","","86","","","","18","","19","","24.1","","96.74","","","","-26","","Ice Crystals"
"-94.36","49.79","KENORA A","6034076","2018-02-24 09:00","2018","02","24","09:00","-14.0","","-15.7","","87","","","","17","","20","","24.1","","96.66","","","","-23","","Ice Crystals"
"-94.36","49.79","KENORA A","6034076","2018-02-24 10:00","2018","02","24","10:00","-11.7","","-14.4","","81","","","","19","","18","","24.1","","96.63","","","","-20","","NA"
"-94.36","49.79","KENORA A","6034076","2018-02-24 11:00","2018","02","24","11:00","-9.3","","-14.6","","66","","","","20","","23","","24.1","","96.56","","","","-18","","NA"
"-94.36","49.79","KENORA A","6034076","2018-02-24 12:00","2018","02","24","12:00","-7.1","","-14.6","","56","","","","21","","22","","24.1","","96.52","","","","-15","","Blowing Snow"
"-94.36","49.79","KENORA A","6034076","2018-02-24 13:00","2018","02","24","13:00","-6.0","","-15.0","","49","","","","20","","22","","24.1","","96.43","","","","-13","","Blowing Snow"
"-94.36","49.79","KENORA A","6034076","2018-02-24 14:00","2018","02","24","14:00","-5.1","","-14.8","","47","","","","21","","27","","24.1","","96.37","","","","-13","","NA"
"-94.36","49.79","KENORA A","6034076","2018-02-24 15:00","2018","02","24","15:00","-4.5","","-13.6","","49","","","","21","","16","","24.1","","96.29","","","","-10","","Blowing Snow"
"-94.36","49.79","KENORA A","6034076","2018-02-24 16:00","2018","02","24","16:00","-4.1","","-13.9","","47","","","","19","","18","","24.1","","96.21","","","","-10","","Blowing Snow"
"-94.36","49.79","KENORA A","6034076","2018-02-24 17:00","2018","02","24","17:00","-4.4","","-13.4","","50","","","","18","","13","","24.1","","96.11","","","","-9","","NA"
"-94.36","49.79","KENORA A","6034076","2018-02-24 18:00","2018","02","24","18:00","-4.8","","-14.3","","48","","","","17","","15","","24.1","","96.01","","","","-10","","Cloudy"
"-94.36","49.79","KENORA A","6034076","2018-02-24 19:00","2018","02","24","19:00","-5.3","","-14.1","","50","","","","15","","8","","24.1","","95.88","","","","-9","","NA"
"-94.36","49.79","KENORA A","6034076","2018-02-24 20:00","2018","02","24","20:00","-5.2","","-13.3","","53","","","","13","","13","","24.1","","95.76","","","","-10","","NA"
"-94.36","49.79","KENORA A","6034076","2018-02-24 21:00","2018","02","24","21:00","-5.2","","-12.8","","55","","","","13","","13","","24.1","","95.63","","","","-10","","Cloudy"
"-94.36","49.79","KENORA A","6034076","2018-02-24 22:00","2018","02","24","22:00","-5.1","","-12.5","","56","","","","11","","4","","24.1","","95.55","","","","-7","","NA"
"-94.36","49.79","KENORA A","6034076","2018-02-24 23:00","2018","02","24","23:00","-5.8","","-12.4","","60","","","","11","","3","","24.1","","95.44","","","","-7","","NA"
"-94.36","49.79","KENORA A","6034076","2018-02-25 00:00","2018","02","25","00:00","-6.2","","-12.3","","62","","","","36","","9","","24.1","","95.30","","","","-10","","Cloudy"
"-94.36","49.79","KENORA A","6034076","2018-02-25 01:00","2018","02","25","01:00","-6.5","","-12.1","","65","","","","2","","7","","12.9","","95.15","","","","-10","","Snow"
"-94.36","49.79","KENORA A","6034076","2018-02-25 02:00","2018","02","25","02:00","-7.2","","-9.2","","86","","","","1","","11","","1.6","","95.00","","","","-12","","Snow,Fog"
"-94.36","49.79","KENORA A","6034076","2018-02-25 03:00","2018","02","25","03:00","-7.2","","-8.2","","92","","","","3","","10","","1.6","","94.86","","","","-12","","Snow,Fog"
"-94.36","49.79","KENORA A","6034076","2018-02-25 04:00","2018","02","25","04:00","-7.2","","-8.3","","92","","","","3","","14","","1.6","","94.76","","","","-13","","Snow,Fog"
"-94.36","49.79","KENORA A","6034076","2018-02-25 05:00","2018","02","25","05:00","-7.2","","-8.2","","92","","","","36","","12","","4.0","","94.68","","","","-13","","Snow,Fog"
"-94.36","49.79","KENORA A","6034076","2018-02-25 06:00","2018","02","25","06:00","-7.1","","-8.2","","92","","","","34","","11","","8.1","","94.66","","","","-12","","Snow"
"-94.36","49.79","KENORA A","6034076","2018-02-25 07:00","2018","02","25","07:00","-7.2","","-8.2","","93","","","","33","","12","","4.8","","94.66","","","","-13","","Snow"
"-94.36","49.79","KENORA A","6034076","2018-02-25 08:00","2018","02","25","08:00","-7.1","","-8.2","","92","","","","33","","13","","1.6","","94.69","","","","-13","","Snow"
"-94.36","49.79","KENORA A","6034076","2018-02-25 09:00","2018","02","25","09:00","-6.7","","-7.9","","91","","","","31","","12","","2.4","","94.73","","","","-12","","Snow"
"-94.36","49.79","KENORA A","6034076","2018-02-25 10:00","2018","02","25","10:00","-6.2","","-7.7","","89","","","","31","","17","","4.8","","94.79","","","","-12","","Snow"
"-94.36","49.79","KENORA A","6034076","2018-02-25 11:00","2018","02","25","11:00","-5.5","","-7.3","","87","","","","29","","13","","4.0","","94.83","","","","-11","","Snow"
"-94.36","49.79","KENORA A","6034076","2018-02-25 12:00","2018","02","25","12:00","-4.5","","-6.8","","85","","","","30","","12","","12.9","","94.87","","","","-9","","Snow"
"-94.36","49.79","KENORA A","6034076","2018-02-25 13:00","2018","02","25","13:00","-3.9","","-6.9","","80","","","","29","","12","","16.1","","94.91","","","","-9","","Snow"
"-94.36","49.79","KENORA A","6034076","2018-02-25 14:00","2018","02","25","14:00","-4.3","","-7.2","","80","","","","28","","13","","19.3","","94.99","","","","-9","","Snow"
"-94.36","49.79","KENORA A","6034076","2018-02-25 15:00","2018","02","25","15:00","-4.5","","-7.5","","80","","","","26","","19","","19.3","","95.07","","","","-11","","Snow"
"-94.36","49.79","KENORA A","6034076","2018-02-25 16:00","2018","02","25","16:00","-5.3","","-8.0","","82","","","","26","","19","","24.1","","95.21","","","","-12","","Snow"
"-94.36","49.79","KENORA A","6034076","2018-02-25 17:00","2018","02","25","17:00","-6.0","","-8.4","","83","","","","28","","18","","24.1","","95.33","","","","-12","","Snow"
"-94.36","49.79","KENORA A","6034076","2018-02-25 18:00","2018","02","25","18:00","-6.5","","-8.8","","84","","","","26","","10","","16.1","","95.41","","","","-11","","Snow"
"-94.36","49.79","KENORA A","6034076","2018-02-25 19:00","2018","02","25","19:00","-7.1","","-9.1","","85","","","","25","","12","","16.1","","95.54","","","","-12","","Snow"
"-94.36","49.79","KENORA A","6034076","2018-02-25 20:00","2018","02","25","20:00","-7.2","","-9.3","","85","","","","23","","18","","19.3","","95.56","","","","-14","","Snow"
"-94.36","49.79","KENORA A","6034076","2018-02-25 21:00","2018","02","25","21:00","-7.3","","-9.2","","87","","","","23","","12","","24.1","","95.64","","","","-13","","Snow"
"-94.36","49.79","KENORA A","6034076","2018-02-25 22:00","2018","02","25","22:00","-7.1","","-8.9","","87","","","","21","","12","","19.3","","95.72","","","","-12","","Snow"
"-94.36","49.79","KENORA A","6034076","2018-02-25 23:00","2018","02","25","23:00","-7.3","","-9.2","","87","","","","20","","11","","24.1","","95.72","","","","-12","","Snow"
"-94.36","49.79","KENORA A","6034076","2018-02-26 00:00","2018","02","26","00:00","-7.2","","-9.1","","86","","","","22","","12","","24.1","","95.77","","","","-13","","Snow"
"-94.36","49.79","KENORA A","6034076","2018-02-26 01:00","2018","02","26","01:00","-7.3","","-9.0","","88","","","","21","","12","","24.1","","95.81","","","","-13","","Snow"
"-94.36","49.79","KENORA A","6034076","2018-02-26 02:00","2018","02","26","02:00","-7.4","","-8.9","","89","","","","20","","11","","24.1","","95.83","","","","-12","","Snow"
"-94.36","49.79","KENORA A","6034076","2018-02-26 03:00","2018","02","26","03:00","-9.4","","-10.2","","93","","","","19","","14","","24.1","","95.85","","","","-16","","Mainly Clear"
"-94.36","49.79","KENORA A","6034076","2018-02-26 04:00","2018","02","26","04:00","-9.6","","-10.5","","93","","","","18","","16","","16.1","","95.83","","","","-16","","NA"
"-94.36","49.79","KENORA A","6034076","2018-02-26 05:00","2018","02","26","05:00","-10.5","","-11.6","","92","","","","16","","13","","24.1","","95.82","","","","-17","","NA"
"-94.36","49.79","KENORA A","6034076","2018-02-26 06:00","2018","02","26","06:00","-11.4","","-12.7","","91","","","","16","","15","","24.1","","95.84","","","","-18","","Mainly Clear"
"-94.36","49.79","KENORA A","6034076","2018-02-26 07:00","2018","02","26","07:00","-11.8","","-13.1","","90","","","","16","","16","","24.1","","95.86","","","","-19","","NA"
"-94.36","49.79","KENORA A","6034076","2018-02-26 08:00","2018","02","26","08:00","-11.5","","-12.8","","90","","","","17","","17","","24.1","","95.87","","","","-19","","NA"
"-94.36","49.79","KENORA A","6034076","2018-02-26 09:00","2018","02","26","09:00","-9.9","","-11.2","","90","","","","17","","20","","24.1","","95.88","","","","-18","","Mainly Clear"
"-94.36","49.79","KENORA A","6034076","2018-02-26 10:00","2018","02","26","10:00","-8.3","","-9.8","","89","","","","17","","15","","24.1","","95.89","","","","-15","","NA"
"-94.36","49.79","KENORA A","6034076","2018-02-26 11:00","2018","02","26","11:00","-6.3","","-9.9","","76","","","","17","","19","","24.1","","95.91","","","","-13","","NA"
"-94.36","49.79","KENORA A","6034076","2018-02-26 12:00","2018","02","26","12:00","-4.3","","-8.9","","70","","","","16","","19","","24.1","","95.90","","","","-10","","Mostly Cloudy"
"-94.36","49.79","KENORA A","6034076","2018-02-26 13:00","2018","02","26","13:00","-2.6","","-7.7","","68","","","","19","","13","","24.1","","95.84","","","","-7","","NA"
"-94.36","49.79","KENORA A","6034076","2018-02-26 14:00","2018","02","26","14:00","-3.0","","-8.1","","68","","","","18","","18","","24.1","","95.81","","","","-9","","NA"
"-94.36","49.79","KENORA A","6034076","2018-02-26 15:00","2018","02","26","15:00","-2.2","","-8.0","","64","","","","19","","21","","24.1","","95.83","","","","-8","","Mostly Cloudy"
"-94.36","49.79","KENORA A","6034076","2018-02-26 16:00","2018","02","26","16:00","-1.8","","-7.8","","64","","","","21","","15","","24.1","","95.84","","","","-7","","NA"
"-94.36","49.79","KENORA A","6034076","2018-02-26 17:00","2018","02","26","17:00","-2.4","","-7.9","","66","","","","22","","12","","24.1","","95.85","","","","-7","","NA"
"-94.36","49.79","KENORA A","6034076","2018-02-26 18:00","2018","02","26","18:00","-3.4","","-8.0","","71","","","","23","","10","","24.1","","95.90","","","","-7","","Mostly Cloudy"
"-94.36","49.79","KENORA A","6034076","2018-02-26 19:00","2018","02","26","19:00","-3.5","","-8.7","","67","","","","21","","11","","24.1","","95.96","","","","-8","","NA"
"-94.36","49.79","KENORA A","6034076","2018-02-26 20:00","2018","02","26","20:00","-4.4","","-9.0","","71","","","","22","","12","","24.1","","95.98","","","","-9","","NA"
"-94.36","49.79","KENORA A","6034076","2018-02-26 21:00","2018","02","26","21:00","-5.0","","-9.2","","73","","","","24","","14","","24.1","","96.06","","","","-10","","Mostly Cloudy"
"-94.36","49.79","KENORA A","6034076","2018-02-26 22:00","2018","02","26","22:00","-5.7","","-9.1","","77","","","","24","","12","","24.1","","96.08","","","","-11","","NA"
"-94.36","49.79","KENORA A","6034076","2018-02-26 23:00","2018","02","26","23:00","-6.9","","-9.6","","81","","","","23","","12","","24.1","","96.12","","","","-12","","NA"
"-94.36","49.79","KENORA A","6034076","2018-02-27 00:00","2018","02","27","00:00","-7.6","","-9.4","","86","","","","23","","10","","24.1","","96.17","","","","-12","","Mainly Clear"
"-94.36","49.79","KENORA A","6034076","2018-02-27 01:00","2018","02","27","01:00","-7.7","","-9.0","","91","","","","26","","10","","24.1","","96.25","","","","-13","","NA"
"-94.36","49.79","KENORA A","6034076","2018-02-27 02:00","2018","02","27","02:00","-8.6","","-9.8","","92","","","","24","","10","","24.1","","96.27","","","","-14","","NA"
"-94.36","49.79","KENORA A","6034076","2018-02-27 03:00","2018","02","27","03:00","-8.7","","-9.6","","94","","","","25","","9","","24.1","","96.30","","","","-13","","Mainly Clear"
"-94.36","49.79","KENORA A","6034076","2018-02-27 04:00","2018","02","27","04:00","-8.8","","-9.9","","92","","","","27","","10","","24.1","","96.31","","","","-14","","NA"
"-94.36","49.79","KENORA A","6034076","2018-02-27 05:00","2018","02","27","05:00","-9.5","","-10.6","","92","","","","25","","9","","24.1","","96.33","","","","-14","","NA"
"-94.36","49.79","KENORA A","6034076","2018-02-27 06:00","2018","02","27","06:00","-10.6","","-11.6","","92","","","","24","","7","","24.1","","96.40","","","","-15","","Clear"
"-94.36","49.79","KENORA A","6034076","2018-02-27 07:00","2018","02","27","07:00","-12.2","","-13.7","","89","","","","24","","8","","16.1","","96.48","","","","-17","","NA"
"-94.36","49.79","KENORA A","6034076","2018-02-27 08:00","2018","02","27","08:00","-11.7","","-13.1","","89","","","","25","","5","","24.1","","96.50","","","","-15","","NA"
"-94.36","49.79","KENORA A","6034076","2018-02-27 09:00","2018","02","27","09:00","-10.5","","-11.7","","90","","","","22","","11","","19.3","","96.54","","","","-16","","Mainly Clear"
"-94.36","49.79","KENORA A","6034076","2018-02-27 10:00","2018","02","27","10:00","-8.4","","-9.5","","92","","","","30","","13","","24.1","","96.56","","","","-14","","NA"
"-94.36","49.79","KENORA A","6034076","2018-02-27 11:00","2018","02","27","11:00","-6.2","","-8.8","","82","","","","29","","13","","24.1","","96.62","","","","-12","","NA"
"-94.36","49.79","KENORA A","6034076","2018-02-27 12:00","2018","02","27","12:00","-4.1","","-9.2","","68","","","","24","","16","","24.1","","96.62","","","","-10","","Mainly Clear"
"-94.36","49.79","KENORA A","6034076","2018-02-27 13:00","2018","02","27","13:00","-3.1","","-9.5","","61","","","","21","","15","","24.1","","96.58","","","","-8","","NA"
"-94.36","49.79","KENORA A","6034076","2018-02-27 14:00","2018","02","27","14:00","-2.6","","-9.8","","58","","","","23","","14","","24.1","","96.55","","","","-7","","NA"
"-94.36","49.79","KENORA A","6034076","2018-02-27 15:00","2018","02","27","15:00","-2.2","","-10.5","","53","","","","25","","14","","24.1","","96.53","","","","-7","","Mainly Clear"
"-94.36","49.79","KENORA A","6034076","2018-02-27 16:00","2018","02","27","16:00","-2.6","","-10.1","","56","","","","22","","16","","24.1","","96.54","","","","-8","","NA"
"-94.36","49.79","KENORA A","6034076","2018-02-27 17:00","2018","02","27","17:00","-3.1","","-10.5","","57","","","","21","","11","","24.1","","96.53","","","","-7","","NA"
"-94.36","49.79","KENORA A","6034076","2018-02-27 18:00","2018","02","27","18:00","-4.3","","-11.1","","59","","","","19","","10","","24.1","","96.50","","","","-8","","Mainly Clear"
"-94.36","49.79","KENORA A","6034076","2018-02-27 19:00","2018","02","27","19:00","-5.5","","-11.5","","63","","","","19","","8","","24.1","","96.49","","","","-9","","NA"
"-94.36","49.79","KENORA A","6034076","2018-02-27 20:00","2018","02","27","20:00","-6.8","","-11.7","","68","","","","21","","11","","24.1","","96.51","","","","-12","","NA"
"-94.36","49.79","KENORA A","6034076","2018-02-27 21:00","2018","02","27","21:00","-7.4","","-12.0","","70","","","","20","","12","","24.1","","96.52","","","","-13","","Clear"
"-94.36","49.79","KENORA A","6034076","2018-02-27 22:00","2018","02","27","22:00","-7.5","","-11.9","","71","","","","19","","11","","24.1","","96.51","","","","-13","","NA"
"-94.36","49.79","KENORA A","6034076","2018-02-27 23:00","2018","02","27","23:00","-8.2","","-12.0","","74","","","","20","","10","","24.1","","96.48","","","","-13","","NA"
"-94.36","49.79","KENORA A","6034076","2018-02-28 00:00","2018","02","28","00:00","-9.0","","-12.1","","78","","","","18","","9","","24.1","","96.49","","","","-14","","Clear"
"-94.36","49.79","KENORA A","6034076","2018-02-28 01:00","2018","02","28","01:00","-9.7","","-12.4","","81","","","","16","","11","","24.1","","96.46","","","","-15","","NA"
"-94.36","49.79","KENORA A","6034076","2018-02-28 02:00","2018","02","28","02:00","-10.6","","-13.1","","82","","","","17","","12","","24.1","","96.46","","","","-17","","NA"
"-94.36","49.79","KENORA A","6034076","2018-02-28 03:00","2018","02","28","03:00","-10.6","","-13.2","","81","","","","16","","10","","24.1","","96.44","","","","-16","","Clear"
"-94.36","49.79","KENORA A","6034076","2018-02-28 04:00","2018","02","28","04:00","-11.1","","-13.4","","83","","","","15","","10","","24.1","","96.41","","","","-17","","NA"
"-94.36","49.79","KENORA A","6034076","2018-02-28 05:00","2018","02","28","05:00","-10.7","","-13.6","","79","","","","16","","11","","24.1","","96.39","","","","-16","","NA"
"-94.36","49.79","KENORA A","6034076","2018-02-28 06:00","2018","02","28","06:00","-11.1","","-13.7","","81","","","","16","","10","","24.1","","96.36","","","","-17","","Clear"
"-94.36","49.79","KENORA A","6034076","2018-02-28 07:00","2018","02","28","07:00","-10.7","","-14.0","","77","","","","17","","10","","24.1","","96.33","","","","-16","","NA"
"-94.36","49.79","KENORA A","6034076","2018-02-28 08:00","2018","02","28","08:00","-10.1","","-13.4","","76","","","","17","","12","","24.1","","96.36","","","","-16","","NA"
"-94.36","49.79","KENORA A","6034076","2018-02-28 09:00","2018","02","28","09:00","-8.7","","-12.3","","75","","","","17","","18","","24.1","","96.40","","","","-16","","Mostly Cloudy"
"-94.36","49.79","KENORA A","6034076","2018-02-28 10:00","2018","02","28","10:00","-6.6","","-11.3","","69","","","","16","","19","","24.1","","96.39","","","","-13","","NA"
"-94.36","49.79","KENORA A","6034076","2018-02-28 11:00","2018","02","28","11:00","-4.0","","-10.8","","59","","","","16","","15","","24.1","","96.39","","","","-9","","NA"
"-94.36","49.79","KENORA A","6034076","2018-02-28 12:00","2018","02","28","12:00","-1.8","","-11.4","","48","","","","17","","17","","24.1","","96.36","","","","-7","","Mostly Cloudy"
"-94.36","49.79","KENORA A","6034076","2018-02-28 13:00","2018","02","28","13:00","-0.4","","-11.2","","44","","","","18","","19","","24.1","","96.35","","","","-6","","NA"
"-94.36","49.79","KENORA A","6034076","2018-02-28 14:00","2018","02","28","14:00","0.4","","-10.8","","43","","","","19","","18","","24.1","","96.30","","","","","","NA"
"-94.36","49.79","KENORA A","6034076","2018-02-28 15:00","2018","02","28","15:00","1.4","","-11.2","","39","","","","18","","21","","24.1","","96.28","","","","","","Mainly Clear"
"-94.36","49.79","KENORA A","6034076","2018-02-28 16:00","2018","02","28","16:00","1.3","","-11.0","","40","","","","18","","16","","24.1","","96.26","","","","","","NA"
"-94.36","49.79","KENORA A","6034076","2018-02-28 17:00","2018","02","28","17:00","0.4","","-10.3","","45","","","","21","","10","","24.1","","96.28","","","","","","NA"
"-94.36","49.79","KENORA A","6034076","2018-02-28 18:00","2018","02","28","18:00","0.1","","-9.3","","49","","","","20","","13","","24.1","","96.31","","","","","","Mostly Cloudy"
"-94.36","49.79","KENORA A","6034076","2018-02-28 19:00","2018","02","28","19:00","-1.2","","-9.2","","55","","","","19","","12","","24.1","","96.36","","","","-5","","NA"
"-94.36","49.79","KENORA A","6034076","2018-02-28 20:00","2018","02","28","20:00","-2.1","","-9.0","","59","","","","21","","13","","24.1","","96.36","","","","-7","","NA"
"-94.36","49.79","KENORA A","6034076","2018-02-28 21:00","2018","02","28","21:00","-3.7","","-9.1","","66","","","","24","","12","","24.1","","96.42","","","","-8","","Mainly Clear"
"-94.36","49.79","KENORA A","6034076","2018-02-28 22:00","2018","02","28","22:00","-4.6","","-9.6","","68","","","","25","","13","","24.1","","96.45","","","","-10","","NA"
"-94.36","49.79","KENORA A","6034076","2018-02-28 23:00","2018","02","28","23:00","-5.1","","-9.5","","71","","","","25","","9","","24.1","","96.49","","","","-9","","NA"
