"Longitude (x)","Latitude (y)","Station Name","Climate ID","Date/Time (LST)","Year","Month","Day","Time (LST)","Temp (°C)","Temp Flag","Dew Point Temp (°C)","Dew Point Temp Flag","Rel Hum (%)","Rel Hum Flag","Precip. Amount (mm)","Precip. Amount Flag","Wind Dir (10s deg)","Wind Dir Flag","Wind Spd (km/h)","Wind Spd Flag","Visibility (km)","Visibility Flag","Stn Press (kPa)","Stn Press Flag","Hmdx","Hmdx Flag","Wind Chill","Wind Chill Flag","Weather"
"-123.43","48.65","VICTORIA INTL A","1018621","2022-02-01 00:00","2022","02","01","00:00","0.3","","0.3","","100","","","","30","","7","","32.2","","102.50","","","","","","NA"
"-123.43","48.65","VICTORIA INTL A","1018621","2022-02-01 01:00","2022","02","01","01:00","-0.6","","-0.6","","100","","","","28","","7","","32.2","","102.46","","","","-3","","Mainly Clear"
"-123.43","48.65","VICTORIA INTL A","1018621","2022-02-01 02:00","2022","02","01","02:00","0.9","","0.9","","100","","","","25","","14","","32.2","","102.42","","","","","","NA"
"-123.43","48.65","VICTORIA INTL A","1018621","2022-02-01 03:00","2022","02","01","03:00","0.1","","0.1","","100","","","","23","","15","","32.2","","102.45","","","","","","NA"
"-123.43","48.65","VICTORIA INTL A","1018621","2022-02-01 04:00","2022","02","01","04:00","0.1","","0.1","","100","","","","26","","8","","32.2","","102.46","","","","","","Mainly Clear"
"-123.43","48.65","VICTORIA INTL A","1018621","2022-02-01 05:00","2022","02","01","05:00","-1.4","","-1.4","","100","","","","29","","10","","32.2","","102.48","","","","-5","","NA"
"-123.43","48.65","VICTORIA INTL A","1018621","2022-02-01 06:00","2022","02","01","06:00","-0.8","","-0.8","","100","","","","26","","7","","32.2","","102.48","","","","-3","","NA"
"-123.43","48.65","VICTORIA INTL A","1018621","2022-02-01 07:00","2022","02","01","07:00","-0.3","","-0.3","","100","","","","27","","15","","32.2","","102.48","","","","-5","","Mainly Clear"
"-123.43","48.65","VICTORIA INTL A","1018621","2022-02-01 08:00","2022","02","01","08:00","-1.2","","-1.2","","100","","","","25","","10","","48.3","","102.50","","","","-5","","NA"
"-123.43","48.65","VICTORIA INTL A","1018621","2022-02-01 09:00","2022","02","01","09:00","1.2","","-0.2","","91","","","","28","","18","","48.3","","102.48","","","","","","NA"
"-123.43","48.65","VICTORIA INTL A","1018621","2022-02-01 10:00","2022","02","01","10:00","2.1","","0.3","","88","","","","27","","13","","48.3","","102.51","","","","","","Mostly Cloudy"
"-123.43","48.65","VICTORIA INTL A","1018621","2022-02-01 11:00","2022","02","01","11:00","3.5","","0.9","","83","","","","29","","14","","48.3","","102.57","","","","","","NA"
"-123.43","48.65","VICTORIA INTL A","1018621","2022-02-01 12:00","2022","02","01","12:00","4.1","","-0.5","","72","","","","29","","8","","48.3","","102.53","","","","","","NA"
"-123.43","48.65","VICTORIA INTL A","1018621","2022-02-01 13:00","2022","02","01","13:00","5.1","","-0.4","","68","","","","24","","5","","48.3","","102.49","","","","","","Mostly Cloudy"
"-123.43","48.65","VICTORIA INTL A","1018621","2022-02-01 14:00","2022","02","01","14:00","5.2","","-1.0","","64","","","","28","","5","","48.3","","102.46","","","","","","NA"
"-123.43","48.65","VICTORIA INTL A","1018621","2022-02-01 15:00","2022","02","01","15:00","5.5","","-1.7","","60","","","","29","","4","","48.3","","102.44","","","","","","NA"
"-123.43","48.65","VICTORIA INTL A","1018621","2022-02-01 16:00","2022","02","01","16:00","5.8","","-1.7","","59","","","","36","","2","","48.3","","102.44","","","","","","Mostly Cloudy"
"-123.43","48.65","VICTORIA INTL A","1018621","2022-02-01 17:00","2022","02","01","17:00","2.5","","0.1","","84","","","","17","","4","","48.3","","102.44","","","","","","NA"
"-123.43","48.65","VICTORIA INTL A","1018621","2022-02-01 18:00","2022","02","01","18:00","1.7","","-0.2","","87","","","","28","","5","","48.3","","102.47","","","","","","NA"
"-123.43","48.65","VICTORIA INTL A","1018621","2022-02-01 19:00","2022","02","01","19:00","1.0","","0.0","","93","","","","18","","4","","32.2","","102.51","","","","","","Mainly Clear"
"-123.43","48.65","VICTORIA INTL A","1018621","2022-02-01 20:00","2022","02","01","20:00","1.3","","1.2","","99","","","","26","","10","","32.2","","102.55","","","","","","NA"
"-123.43","48.65","VICTORIA INTL A","1018621","2022-02-01 21:00","2022","02","01","21:00","0.2","","-0.3","","96","","","","24","","9","","32.2","","102.61","","","","","","NA"
"-123.43","48.65","VICTORIA INTL A","1018621","2022-02-01 22:00","2022","02","01","22:00","-0.7","","-0.7","","100","","","","24","","5","","32.2","","102.68","","","","-2","","Mainly Clear"
"-123.43","48.65","VICTORIA INTL A","1018621","2022-02-01 23:00","2022","02","01","23:00","-1.1","","-1.1","","100","","","","29","","8","","32.2","","102.67","","","","-4","","NA"
"-123.43","48.65","VICTORIA INTL A","1018621","2022-02-02 00:00","2022","02","02","00:00","-0.1","","-0.1","","100","","","","29","","4","","32.2","","102.66","","","","-1","","NA"
"-123.43","48.65","VICTORIA INTL A","1018621","2022-02-02 01:00","2022","02","02","01:00","-0.1","","-0.1","","100","","","","29","","7","","24.1","","102.72","","","","-3","","Mostly Cloudy"
"-123.43","48.65","VICTORIA INTL A","1018621","2022-02-02 02:00","2022","02","02","02:00","0.5","","0.5","","100","","","","25","","6","","32.2","","102.72","","","","","","NA"
"-123.43","48.65","VICTORIA INTL A","1018621","2022-02-02 03:00","2022","02","02","03:00","0.3","","0.3","","100","","","","24","","8","","32.2","","102.73","","","","","","NA"
"-123.43","48.65","VICTORIA INTL A","1018621","2022-02-02 04:00","2022","02","02","04:00","0.6","","0.6","","100","","","","27","","11","","32.2","","102.72","","","","","","Mostly Cloudy"
"-123.43","48.65","VICTORIA INTL A","1018621","2022-02-02 05:00","2022","02","02","05:00","1.1","","1.1","","100","","","","25","","8","","32.2","","102.68","","","","","","NA"
"-123.43","48.65","VICTORIA INTL A","1018621","2022-02-02 06:00","2022","02","02","06:00","1.2","","1.0","","98","","","","29","","8","","32.2","","102.66","","","","","","NA"
"-123.43","48.65","VICTORIA INTL A","1018621","2022-02-02 07:00","2022","02","02","07:00","1.7","","0.6","","93","","","","28","","9","","32.2","","102.70","","","","","","Cloudy"
"-123.43","48.65","VICTORIA INTL A","1018621","2022-02-02 08:00","2022","02","02","08:00","1.3","","1.3","","100","","","","25","","7","","48.3","","102.67","","","","","","NA"
"-123.43","48.65","VICTORIA INTL A","1018621","2022-02-02 09:00","2022","02","02","09:00","2.0","","-1.3","","79","","","","15","","5","","48.3","","102.58","","","","","","NA"
"-123.43","48.65","VICTORIA INTL A","1018621","2022-02-02 10:00","2022","02","02","10:00","3.0","","0.4","","83","","","","13","","6","","48.3","","102.57","","","","","","Cloudy"
"-123.43","48.65","VICTORIA INTL A","1018621","2022-02-02 11:00","2022","02","02","11:00","3.7","","3.1","","96","","","","11","","7","","48.3","","102.54","","","","","","NA"
"-123.43","48.65","VICTORIA INTL A","1018621","2022-02-02 12:00","2022","02","02","12:00","4.4","","2.7","","89","","","","13","","13","","48.3","","102.49","","","","","","NA"
"-123.43","48.65","VICTORIA INTL A","1018621","2022-02-02 13:00","2022","02","02","13:00","4.3","","3.5","","94","","","","14","","13","","19.3","","102.43","","","","","","Rain"
"-123.43","48.65","VICTORIA INTL A","1018621","2022-02-02 14:00","2022","02","02","14:00","3.5","","3.5","","100","","","","16","","16","","9.7","","102.37","","","","","","Rain,Fog"
"-123.43","48.65","VICTORIA INTL A","1018621","2022-02-02 15:00","2022","02","02","15:00","3.4","","3.4","","100","","","","12","","15","","6.4","","102.32","","","","","","Rain,Fog"
"-123.43","48.65","VICTORIA INTL A","1018621","2022-02-02 16:00","2022","02","02","16:00","3.2","","3.2","","100","","","","13","","15","","8.1","","102.29","","","","","","Rain,Fog"
"-123.43","48.65","VICTORIA INTL A","1018621","2022-02-02 17:00","2022","02","02","17:00","3.4","","3.4","","100","","","","14","","10","","12.9","","102.26","","","","","","Rain"
"-123.43","48.65","VICTORIA INTL A","1018621","2022-02-02 18:00","2022","02","02","18:00","3.2","","3.2","","100","","","","15","","8","","19.3","","102.28","","","","","","NA"
"-123.43","48.65","VICTORIA INTL A","1018621","2022-02-02 19:00","2022","02","02","19:00","3.7","","3.7","","100","","","","14","","11","","12.9","","102.28","","","","","","Rain"
"-123.43","48.65","VICTORIA INTL A","1018621","2022-02-02 20:00","2022","02","02","20:00","3.6","","3.6","","100","","","","17","","9","","24.1","","102.23","","","","","","NA"
"-123.43","48.65","VICTORIA INTL A","1018621","2022-02-02 21:00","2022","02","02","21:00","4.0","","4.0","","100","","","","16","","7","","24.1","","102.31","","","","","","NA"
"-123.43","48.65","VICTORIA INTL A","1018621","2022-02-02 22:00","2022","02","02","22:00","3.9","","3.9","","100","","","","30","","6","","24.1","","102.32","","","","","","Mostly Cloudy"
"-123.43","48.65","VICTORIA INTL A","1018621","2022-02-02 23:00","2022","02","02","23:00","3.3","","3.3","","100","","","","29","","8","","24.1","","102.33","","","","","","Rain"
"-123.43","48.65","VICTORIA INTL A","1018621","2022-02-03 00:00","2022","02","03","00:00","3.1","","3.1","","100","","","","36","","3","","24.1","","102.34","","","","","","Rain"
"-123.43","48.65","VICTORIA INTL A","1018621","2022-02-03 01:00","2022","02","03","01:00","3.6","","3.6","","100","","","","29","","5","","16.1","","102.35","","","","","","Rain"
"-123.43","48.65","VICTORIA INTL A","1018621","2022-02-03 02:00","2022","02","03","02:00","3.4","","3.4","","100","","","","28","","4","","24.1","","102.37","","","","","","Rain"
"-123.43","48.65","VICTORIA INTL A","1018621","2022-02-03 03:00","2022","02","03","03:00","3.4","","3.4","","100","","","","30","","9","","24.1","","102.37","","","","","","NA"
"-123.43","48.65","VICTORIA INTL A","1018621","2022-02-03 04:00","2022","02","03","04:00","3.4","","3.4","","100","","","","23","","4","","24.1","","102.39","","","","","","Cloudy"
"-123.43","48.65","VICTORIA INTL A","1018621","2022-02-03 05:00","2022","02","03","05:00","3.4","","3.4","","100","","","","23","","5","","24.1","","102.45","","","","","","NA"
"-123.43","48.65","VICTORIA INTL A","1018621","2022-02-03 06:00","2022","02","03","06:00","3.3","","3.3","","100","","","","24","","7","","12.9","","102.45","","","","","","Rain"
"-123.43","48.65","VICTORIA INTL A","1018621","2022-02-03 07:00","2022","02","03","07:00","3.4","","3.4","","100","","","","27","","4","","16.1","","102.48","","","","","","Rain"
"-123.43","48.65","VICTORIA INTL A","1018621","2022-02-03 08:00","2022","02","03","08:00","3.4","","3.4","","100","","","","25","","6","","2.4","","102.51","","","","","","Rain,Fog"
"-123.43","48.65","VICTORIA INTL A","1018621","2022-02-03 09:00","2022","02","03","09:00","3.7","","3.7","","100","","","","27","","7","","1.6","","102.57","","","","","","Rain,Fog"
"-123.43","48.65","VICTORIA INTL A","1018621","2022-02-03 10:00","2022","02","03","10:00","3.9","","3.9","","100","","","","23","","5","","16.1","","102.64","","","","","","Rain"
"-123.43","48.65","VICTORIA INTL A","1018621","2022-02-03 11:00","2022","02","03","11:00","4.4","","4.4","","100","","","","30","","6","","16.1","","102.71","","","","","","NA"
"-123.43","48.65","VICTORIA INTL A","1018621","2022-02-03 12:00","2022","02","03","12:00","4.8","","4.8","","100","","","","27","","6","","6.4","","102.75","","","","","","Fog"
"-123.43","48.65","VICTORIA INTL A","1018621","2022-02-03 13:00","2022","02","03","13:00","5.2","","5.2","","100","","","","29","","4","","8.1","","102.74","","","","","","Fog"
"-123.43","48.65","VICTORIA INTL A","1018621","2022-02-03 14:00","2022","02","03","14:00","5.9","","5.9","","100","","","","30","","3","","11.3","","102.72","","","","","","NA"
"-123.43","48.65","VICTORIA INTL A","1018621","2022-02-03 15:00","2022","02","03","15:00","6.9","","6.9","","100","","","","14","","16","","19.3","","102.68","","","","","","NA"
"-123.43","48.65","VICTORIA INTL A","1018621","2022-02-03 16:00","2022","02","03","16:00","7.3","","7.3","","100","","","","16","","13","","32.2","","102.71","","","","","","Mostly Cloudy"
"-123.43","48.65","VICTORIA INTL A","1018621","2022-02-03 17:00","2022","02","03","17:00","7.0","","7.0","","100","","","","15","","9","","24.1","","102.76","","","","","","NA"
"-123.43","48.65","VICTORIA INTL A","1018621","2022-02-03 18:00","2022","02","03","18:00","6.7","","6.7","","100","","","","16","","13","","12.9","","102.79","","","","","","Rain"
"-123.43","48.65","VICTORIA INTL A","1018621","2022-02-03 19:00","2022","02","03","19:00","6.8","","6.8","","100","","","","15","","7","","24.1","","102.80","","","","","","Cloudy"
"-123.43","48.65","VICTORIA INTL A","1018621","2022-02-03 20:00","2022","02","03","20:00","6.9","","6.9","","100","","","","15","","8","","11.3","","102.82","","","","","","Rain"
"-123.43","48.65","VICTORIA INTL A","1018621","2022-02-03 21:00","2022","02","03","21:00","6.8","","6.8","","100","","","","17","","10","","24.1","","102.85","","","","","","NA"
"-123.43","48.65","VICTORIA INTL A","1018621","2022-02-03 22:00","2022","02","03","22:00","6.8","","6.8","","100","","","","15","","8","","16.1","","102.87","","","","","","Rain"
"-123.43","48.65","VICTORIA INTL A","1018621","2022-02-03 23:00","2022","02","03","23:00","6.6","","6.6","","100","","","","14","","11","","24.1","","102.82","","","","","","NA"
"-123.43","48.65","VICTORIA INTL A","1018621","2022-02-04 00:00","2022","02","04","00:00","6.8","","6.8","","100","","","","14","","14","","24.1","","102.78","","","","","","NA"
"-123.43","48.65","VICTORIA INTL A","1018621","2022-02-04 01:00","2022","02","04","01:00","6.9","","6.9","","100","","","","14","","10","","24.1","","102.71","","","","","","Cloudy"
"-123.43","48.65","VICTORIA INTL A","1018621","2022-02-04 02:00","2022","02","04","02:00","6.7","","6.7","","100","","","","17","","9","","24.1","","102.68","","","","","","NA"
"-123.43","48.65","VICTORIA INTL A","1018621","2022-02-04 03:00","2022","02","04","03:00","6.7","","6.7","","100","","","","14","","5","","19.3","","102.63","","","","","","NA"
"-123.43","48.65","VICTORIA INTL A","1018621","2022-02-04 04:00","2022","02","04","04:00","5.7","","5.7","","100","","","","29","","3","","19.3","","102.58","","","","","","Cloudy"
"-123.43","48.65","VICTORIA INTL A","1018621","2022-02-04 05:00","2022","02","04","05:00","6.0","","6.0","","100","","","","11","","8","","4.8","","102.46","","","","","","Fog"
"-123.43","48.65","VICTORIA INTL A","1018621","2022-02-04 06:00","2022","02","04","06:00","6.4","","6.4","","100","","","","20","","10","","8.1","","102.48","","","","","","Fog"
"-123.43","48.65","VICTORIA INTL A","1018621","2022-02-04 07:00","2022","02","04","07:00","6.4","","6.4","","100","","","","16","","14","","32.2","","102.44","","","","","","Mostly Cloudy"
"-123.43","48.65","VICTORIA INTL A","1018621","2022-02-04 08:00","2022","02","04","08:00","6.4","","6.4","","100","","","","14","","10","","24.1","","102.39","","","","","","NA"
"-123.43","48.65","VICTORIA INTL A","1018621","2022-02-04 09:00","2022","02","04","09:00","6.5","","6.5","","100","","","","12","","14","","12.9","","102.31","","","","","","NA"
"-123.43","48.65","VICTORIA INTL A","1018621","2022-02-04 10:00","2022","02","04","10:00","6.9","","6.9","","100","","","","16","","25","","19.3","","102.26","","","","","","Rain"
"-123.43","48.65","VICTORIA INTL A","1018621","2022-02-04 11:00","2022","02","04","11:00","7.4","","7.4","","100","","","","16","","15","","24.1","","102.29","","","","","","Rain"
"-123.43","48.65","VICTORIA INTL A","1018621","2022-02-04 12:00","2022","02","04","12:00","7.3","","7.3","","100","","","","13","","18","","24.1","","102.19","","","","","","Rain Showers"
"-123.43","48.65","VICTORIA INTL A","1018621","2022-02-04 13:00","2022","02","04","13:00","8.2","","8.2","","100","","","","10","","21","","24.1","","102.08","","","","","","Rain Showers"
"-123.43","48.65","VICTORIA INTL A","1018621","2022-02-04 14:00","2022","02","04","14:00","8.0","","7.8","","98","","","","17","","24","","32.2","","102.08","","","","","","NA"
"-123.43","48.65","VICTORIA INTL A","1018621","2022-02-04 15:00","2022","02","04","15:00","10.0","","7.9","","86","","","","14","","19","","32.2","","102.06","","","","","","NA"
"-123.43","48.65","VICTORIA INTL A","1018621","2022-02-04 16:00","2022","02","04","16:00","10.1","","6.4","","78","","","","21","","22","","32.2","","102.06","","","","","","Mainly Clear"
"-123.43","48.65","VICTORIA INTL A","1018621","2022-02-04 17:00","2022","02","04","17:00","9.9","","4.3","","68","","","","24","","26","","32.2","","102.07","","","","","","NA"
"-123.43","48.65","VICTORIA INTL A","1018621","2022-02-04 18:00","2022","02","04","18:00","8.8","","3.8","","71","","","","22","","26","","32.2","","102.20","","","","","","NA"
"-123.43","48.65","VICTORIA INTL A","1018621","2022-02-04 19:00","2022","02","04","19:00","8.0","","3.4","","72","","","","27","","11","","32.2","","102.31","","","","","","Mainly Clear"
"-123.43","48.65","VICTORIA INTL A","1018621","2022-02-04 20:00","2022","02","04","20:00","7.6","","4.2","","79","","","","26","","24","","32.2","","102.41","","","","","","NA"
"-123.43","48.65","VICTORIA INTL A","1018621","2022-02-04 21:00","2022","02","04","21:00","8.1","","3.1","","70","","","","24","","20","","32.2","","102.49","","","","","","NA"
"-123.43","48.65","VICTORIA INTL A","1018621","2022-02-04 22:00","2022","02","04","22:00","7.3","","3.0","","74","","","","25","","10","","32.2","","102.63","","","","","","Clear"
"-123.43","48.65","VICTORIA INTL A","1018621","2022-02-04 23:00","2022","02","04","23:00","5.6","","3.1","","84","","","","23","","5","","32.2","","102.75","","","","","","NA"
"-123.43","48.65","VICTORIA INTL A","1018621","2022-02-05 00:00","2022","02","05","00:00","7.2","","3.0","","75","","","","28","","20","","32.2","","102.85","","","","","","NA"
"-123.43","48.65","VICTORIA INTL A","1018621","2022-02-05 01:00","2022","02","05","01:00","7.1","","3.3","","77","","","","27","","16","","32.2","","102.91","","","","","","Mainly Clear"
"-123.43","48.65","VICTORIA INTL A","1018621","2022-02-05 02:00","2022","02","05","02:00","5.6","","3.6","","87","","","","23","","5","","32.2","","102.92","","","","","","NA"
"-123.43","48.65","VICTORIA INTL A","1018621","2022-02-05 03:00","2022","02","05","03:00","4.8","","2.9","","87","","","","17","","3","","32.2","","103.02","","","","","","NA"
"-123.43","48.65","VICTORIA INTL A","1018621","2022-02-05 04:00","2022","02","05","04:00","2.4","","2.4","","100","","","","24","","10","","32.2","","103.08","","","","","","Clear"
"-123.43","48.65","VICTORIA INTL A","1018621","2022-02-05 05:00","2022","02","05","05:00","3.4","","3.4","","100","","","","36","","1","","32.2","","103.11","","","","","","NA"
"-123.43","48.65","VICTORIA INTL A","1018621","2022-02-05 06:00","2022","02","05","06:00","1.7","","1.7","","100","","","","24","","7","","32.2","","103.18","","","","","","NA"
"-123.43","48.65","VICTORIA INTL A","1018621","2022-02-05 07:00","2022","02","05","07:00","3.2","","3.2","","100","","","","29","","12","","32.2","","103.23","","","","","","Mainly Clear"
"-123.43","48.65","VICTORIA INTL A","1018621","2022-02-05 08:00","2022","02","05","08:00","3.8","","3.8","","100","","","","36","","2","","48.3","","103.26","","","","","","NA"
"-123.43","48.65","VICTORIA INTL A","1018621","2022-02-05 09:00","2022","02","05","09:00","4.5","","4.5","","100","","","","24","","7","","48.3","","103.33","","","","","","NA"
"-123.43","48.65","VICTORIA INTL A","1018621","2022-02-05 10:00","2022","02","05","10:00","5.7","","5.7","","100","","","","29","","13","","48.3","","103.43","","","","","","Mostly Cloudy"
"-123.43","48.65","VICTORIA INTL A","1018621","2022-02-05 11:00","2022","02","05","11:00","6.2","","5.9","","98","","","","27","","9","","48.3","","103.41","","","","","","NA"
"-123.43","48.65","VICTORIA INTL A","1018621","2022-02-05 12:00","2022","02","05","12:00","7.1","","4.3","","82","","","","28","","8","","48.3","","103.40","","","","","","NA"
"-123.43","48.65","VICTORIA INTL A","1018621","2022-02-05 13:00","2022","02","05","13:00","7.5","","4.8","","83","","","","30","","6","","48.3","","103.38","","","","","","Mostly Cloudy"
"-123.43","48.65","VICTORIA INTL A","1018621","2022-02-05 14:00","2022","02","05","14:00","8.0","","4.8","","80","","","","22","","3","","48.3","","103.38","","","","","","NA"
"-123.43","48.65","VICTORIA INTL A","1018621","2022-02-05 15:00","2022","02","05","15:00","7.6","","6.3","","92","","","","8","","8","","48.3","","103.39","","","","","","NA"
"-123.43","48.65","VICTORIA INTL A","1018621","2022-02-05 16:00","2022","02","05","16:00","7.4","","5.8","","90","","","","13","","5","","48.3","","103.43","","","","","","Mostly Cloudy"
"-123.43","48.65","VICTORIA INTL A","1018621","2022-02-05 17:00","2022","02","05","17:00","7.0","","5.5","","90","","","","13","","3","","48.3","","103.40","","","","","","NA"
"-123.43","48.65","VICTORIA INTL A","1018621","2022-02-05 18:00","2022","02","05","18:00","4.7","","4.7","","100","","","","36","","2","","48.3","","103.40","","","","","","NA"
"-123.43","48.65","VICTORIA INTL A","1018621","2022-02-05 19:00","2022","02","05","19:00","3.4","","3.4","","100","","","","27","","3","","48.3","","103.36","","","","","","Mostly Cloudy"
"-123.43","48.65","VICTORIA INTL A","1018621","2022-02-05 20:00","2022","02","05","20:00","3.0","","3.0","","100","","","","26","","3","","24.1","","103.31","","","","","","NA"
"-123.43","48.65","VICTORIA INTL A","1018621","2022-02-05 21:00","2022","02","05","21:00","3.0","","3.0","","100","","","","24","","7","","24.1","","103.32","","","","","","NA"
"-123.43","48.65","VICTORIA INTL A","1018621","2022-02-05 22:00","2022","02","05","22:00","2.5","","2.5","","100","","","","36","","1","","16.1","","103.29","","","","","","Mostly Cloudy"
"-123.43","48.65","VICTORIA INTL A","1018621","2022-02-05 23:00","2022","02","05","23:00","2.7","","2.7","","100","","","","29","","6","","9.7","","103.25","","","","","","Fog"
"-123.43","48.65","VICTORIA INTL A","1018621","2022-02-06 00:00","2022","02","06","00:00","1.8","","1.8","","100","","","","22","","6","","9.7","","103.19","","","","","","Fog"
"-123.43","48.65","VICTORIA INTL A","1018621","2022-02-06 01:00","2022","02","06","01:00","2.0","","2.0","","100","","","","25","","7","","6.4","","103.14","","","","","","Fog"
"-123.43","48.65","VICTORIA INTL A","1018621","2022-02-06 02:00","2022","02","06","02:00","2.6","","2.6","","100","","","","25","","9","","32.2","","103.12","","","","","","NA"
"-123.43","48.65","VICTORIA INTL A","1018621","2022-02-06 03:00","2022","02","06","03:00","2.3","","2.3","","100","","","","29","","13","","32.2","","103.10","","","","","","NA"
"-123.43","48.65","VICTORIA INTL A","1018621","2022-02-06 04:00","2022","02","06","04:00","2.4","","2.4","","100","","","","25","","8","","32.2","","103.01","","","","","","Mainly Clear"
"-123.43","48.65","VICTORIA INTL A","1018621","2022-02-06 05:00","2022","02","06","05:00","2.2","","2.2","","100","","","","30","","11","","32.2","","103.03","","","","","","NA"
"-123.43","48.65","VICTORIA INTL A","1018621","2022-02-06 06:00","2022","02","06","06:00","2.5","","2.5","","100","","","","30","","9","","19.3","","103.06","","","","","","NA"
"-123.43","48.65","VICTORIA INTL A","1018621","2022-02-06 07:00","2022","02","06","07:00","3.4","","3.4","","100","","","","24","","8","","8.1","","103.01","","","","","","Fog"
"-123.43","48.65","VICTORIA INTL A","1018621","2022-02-06 08:00","2022","02","06","08:00","3.6","","3.6","","100","","","","28","","8","","1.2","","103.01","","","","","","Fog"
"-123.43","48.65","VICTORIA INTL A","1018621","2022-02-06 09:00","2022","02","06","09:00","3.9","","3.9","","100","","","","29","","12","","1.2","","103.01","","","","","","Fog"
"-123.43","48.65","VICTORIA INTL A","1018621","2022-02-06 10:00","2022","02","06","10:00","4.2","","4.2","","100","","","","29","","13","","8.1","","102.99","","","","","","Fog"
"-123.43","48.65","VICTORIA INTL A","1018621","2022-02-06 11:00","2022","02","06","11:00","5.1","","5.1","","100","","","","30","","13","","11.3","","102.94","","","","","","NA"
"-123.43","48.65","VICTORIA INTL A","1018621","2022-02-06 12:00","2022","02","06","12:00","5.7","","5.7","","100","","","","28","","15","","24.1","","102.85","","","","","","NA"
"-123.43","48.65","VICTORIA INTL A","1018621","2022-02-06 13:00","2022","02","06","13:00","7.0","","5.3","","89","","","","27","","9","","48.3","","102.68","","","","","","Mostly Cloudy"
"-123.43","48.65","VICTORIA INTL A","1018621","2022-02-06 14:00","2022","02","06","14:00","7.8","","4.5","","79","","","","28","","7","","48.3","","102.56","","","","","","NA"
"-123.43","48.65","VICTORIA INTL A","1018621","2022-02-06 15:00","2022","02","06","15:00","8.9","","4.7","","75","","","","30","","5","","48.3","","102.46","","","","","","NA"
"-123.43","48.65","VICTORIA INTL A","1018621","2022-02-06 16:00","2022","02","06","16:00","8.5","","4.0","","73","","","","31","","7","","48.3","","102.38","","","","","","Mainly Clear"
"-123.43","48.65","VICTORIA INTL A","1018621","2022-02-06 17:00","2022","02","06","17:00","6.3","","4.7","","90","","","","25","","4","","48.3","","102.27","","","","","","NA"
"-123.43","48.65","VICTORIA INTL A","1018621","2022-02-06 18:00","2022","02","06","18:00","4.0","","4.0","","100","","","","30","","11","","48.3","","102.21","","","","","","NA"
"-123.43","48.65","VICTORIA INTL A","1018621","2022-02-06 19:00","2022","02","06","19:00","2.3","","2.3","","100","","","","26","","7","","48.3","","102.21","","","","","","Mainly Clear"
"-123.43","48.65","VICTORIA INTL A","1018621","2022-02-06 20:00","2022","02","06","20:00","3.0","","3.0","","100","","","","24","","6","","32.2","","102.17","","","","","","NA"
"-123.43","48.65","VICTORIA INTL A","1018621","2022-02-06 21:00","2022","02","06","21:00","2.6","","2.6","","100","","","","28","","3","","32.2","","102.13","","","","","","NA"
"-123.43","48.65","VICTORIA INTL A","1018621","2022-02-06 22:00","2022","02","06","22:00","1.2","","1.2","","100","","","","26","","4","","32.2","","102.16","","","","","","Mainly Clear"
"-123.43","48.65","VICTORIA INTL A","1018621","2022-02-06 23:00","2022","02","06","23:00","1.9","","1.9","","100","","","","10","","4","","32.2","","102.10","","","","","","NA"
"-123.43","48.65","VICTORIA INTL A","1018621","2022-02-07 00:00","2022","02","07","00:00","1.3","","1.3","","100","","","","17","","3","","32.2","","102.08","","","","","","NA"
"-123.43","48.65","VICTORIA INTL A","1018621","2022-02-07 01:00","2022","02","07","01:00","5.6","","4.2","","90","","","","16","","27","","32.2","","102.04","","","","","","Mostly Cloudy"
"-123.43","48.65","VICTORIA INTL A","1018621","2022-02-07 02:00","2022","02","07","02:00","5.6","","4.8","","95","","","","17","","35","","32.2","","101.98","","","","","","NA"
"-123.43","48.65","VICTORIA INTL A","1018621","2022-02-07 03:00","2022","02","07","03:00","5.7","","5.7","","100","","","","16","","24","","32.2","","102.00","","","","","","NA"
"-123.43","48.65","VICTORIA INTL A","1018621","2022-02-07 04:00","2022","02","07","04:00","5.6","","5.6","","100","","","","15","","23","","32.2","","101.99","","","","","","Mostly Cloudy"
"-123.43","48.65","VICTORIA INTL A","1018621","2022-02-07 05:00","2022","02","07","05:00","7.3","","7.2","","99","","","","12","","12","","32.2","","102.01","","","","","","NA"
"-123.43","48.65","VICTORIA INTL A","1018621","2022-02-07 06:00","2022","02","07","06:00","8.6","","6.7","","88","","","","17","","10","","32.2","","102.07","","","","","","NA"
"-123.43","48.65","VICTORIA INTL A","1018621","2022-02-07 07:00","2022","02","07","07:00","8.1","","5.7","","85","","","","18","","17","","32.2","","102.16","","","","","","Mostly Cloudy"
"-123.43","48.65","VICTORIA INTL A","1018621","2022-02-07 08:00","2022","02","07","08:00","9.1","","5.2","","76","","","","16","","11","","48.3","","102.31","","","","","","NA"
"-123.43","48.65","VICTORIA INTL A","1018621","2022-02-07 09:00","2022","02","07","09:00","9.6","","4.6","","71","","","","19","","22","","48.3","","102.37","","","","","","NA"
"-123.43","48.65","VICTORIA INTL A","1018621","2022-02-07 10:00","2022","02","07","10:00","10.2","","5.0","","70","","","","21","","21","","48.3","","102.46","","","","","","Mainly Clear"
"-123.43","48.65","VICTORIA INTL A","1018621","2022-02-07 11:00","2022","02","07","11:00","10.9","","3.4","","60","","","","26","","13","","48.3","","102.60","","","","","","NA"
"-123.43","48.65","VICTORIA INTL A","1018621","2022-02-07 12:00","2022","02","07","12:00","10.9","","3.8","","61","","","","28","","16","","48.3","","102.61","","","","","","NA"
"-123.43","48.65","VICTORIA INTL A","1018621","2022-02-07 13:00","2022","02","07","13:00","10.6","","2.7","","58","","","","27","","25","","48.3","","102.62","","","","","","Mainly Clear"
"-123.43","48.65","VICTORIA INTL A","1018621","2022-02-07 14:00","2022","02","07","14:00","10.7","","3.5","","61","","","","28","","28","","48.3","","102.71","","","","","","NA"
"-123.43","48.65","VICTORIA INTL A","1018621","2022-02-07 15:00","2022","02","07","15:00","10.2","","3.1","","61","","","","26","","25","","48.3","","102.73","","","","","","NA"
"-123.43","48.65","VICTORIA INTL A","1018621","2022-02-07 16:00","2022","02","07","16:00","9.8","","2.8","","61","","","","26","","22","","48.3","","102.82","","","","","","Mostly Cloudy"
"-123.43","48.65","VICTORIA INTL A","1018621","2022-02-07 17:00","2022","02","07","17:00","9.1","","2.8","","65","","","","26","","23","","48.3","","102.89","","","","","","NA"
"-123.43","48.65","VICTORIA INTL A","1018621","2022-02-07 18:00","2022","02","07","18:00","8.3","","2.7","","68","","","","26","","23","","48.3","","102.93","","","","","","NA"
"-123.43","48.65","VICTORIA INTL A","1018621","2022-02-07 19:00","2022","02","07","19:00","6.7","","2.4","","74","","","","26","","12","","24.1","","102.98","","","","","","Clear"
"-123.43","48.65","VICTORIA INTL A","1018621","2022-02-07 20:00","2022","02","07","20:00","5.0","","2.5","","84","","","","25","","8","","32.2","","103.01","","","","","","NA"
"-123.43","48.65","VICTORIA INTL A","1018621","2022-02-07 21:00","2022","02","07","21:00","3.3","","1.1","","86","","","","20","","3","","32.2","","103.08","","","","","","NA"
"-123.43","48.65","VICTORIA INTL A","1018621","2022-02-07 22:00","2022","02","07","22:00","5.2","","3.6","","89","","","","20","","5","","32.2","","103.12","","","","","","Mainly Clear"
"-123.43","48.65","VICTORIA INTL A","1018621","2022-02-07 23:00","2022","02","07","23:00","2.5","","2.5","","100","","","","28","","7","","32.2","","103.17","","","","","","NA"
"-123.43","48.65","VICTORIA INTL A","1018621","2022-02-08 00:00","2022","02","08","00:00","4.9","","3.4","","90","","","","30","","12","","32.2","","103.27","","","","","","NA"
"-123.43","48.65","VICTORIA INTL A","1018621","2022-02-08 01:00","2022","02","08","01:00","3.4","","3.4","","100","","","","19","","8","","32.2","","103.29","","","","","","Mostly Cloudy"
"-123.43","48.65","VICTORIA INTL A","1018621","2022-02-08 02:00","2022","02","08","02:00","5.1","","3.0","","87","","","","18","","7","","32.2","","103.27","","","","","","NA"
"-123.43","48.65","VICTORIA INTL A","1018621","2022-02-08 03:00","2022","02","08","03:00","2.8","","1.3","","90","","","","19","","4","","32.2","","103.27","","","","","","NA"
"-123.43","48.65","VICTORIA INTL A","1018621","2022-02-08 04:00","2022","02","08","04:00","2.7","","2.7","","100","","","","20","","6","","32.2","","103.28","","","","","","Mostly Cloudy"
"-123.43","48.65","VICTORIA INTL A","1018621","2022-02-08 05:00","2022","02","08","05:00","1.4","","1.4","","100","","","","27","","4","","32.2","","103.33","","","","","","NA"
"-123.43","48.65","VICTORIA INTL A","1018621","2022-02-08 06:00","2022","02","08","06:00","1.2","","1.2","","100","","","","19","","3","","32.2","","103.30","","","","","","NA"
"-123.43","48.65","VICTORIA INTL A","1018621","2022-02-08 07:00","2022","02","08","07:00","1.0","","1.0","","100","","","","21","","4","","32.2","","103.33","","","","","","Mostly Cloudy"
"-123.43","48.65","VICTORIA INTL A","1018621","2022-02-08 08:00","2022","02","08","08:00","2.5","","2.5","","100","","","","19","","4","","48.3","","103.35","","","","","","NA"
"-123.43","48.65","VICTORIA INTL A","1018621","2022-02-08 09:00","2022","02","08","09:00","6.0","","6.0","","100","","","","1","","6","","48.3","","103.34","","","","","","NA"
"-123.43","48.65","VICTORIA INTL A","1018621","2022-02-08 10:00","2022","02","08","10:00","7.7","","4.4","","80","","","","19","","5","","48.3","","103.37","","","","","","Mostly Cloudy"
"-123.43","48.65","VICTORIA INTL A","1018621","2022-02-08 11:00","2022","02","08","11:00","8.8","","4.5","","74","","","","18","","14","","48.3","","103.37","","","","","","NA"
"-123.43","48.65","VICTORIA INTL A","1018621","2022-02-08 12:00","2022","02","08","12:00","8.5","","4.6","","76","","","","16","","14","","48.3","","103.35","","","","","","NA"
"-123.43","48.65","VICTORIA INTL A","1018621","2022-02-08 13:00","2022","02","08","13:00","7.8","","6.3","","90","","","","15","","12","","32.2","","103.39","","","","","","Rain"
"-123.43","48.65","VICTORIA INTL A","1018621","2022-02-08 14:00","2022","02","08","14:00","7.2","","7.2","","100","","","","14","","14","","24.1","","103.35","","","","","","Rain"
"-123.43","48.65","VICTORIA INTL A","1018621","2022-02-08 15:00","2022","02","08","15:00","7.7","","6.8","","94","","","","14","","18","","32.2","","103.33","","","","","","NA"
"-123.43","48.65","VICTORIA INTL A","1018621","2022-02-08 16:00","2022","02","08","16:00","7.3","","7.3","","100","","","","14","","16","","48.3","","103.32","","","","","","Cloudy"
"-123.43","48.65","VICTORIA INTL A","1018621","2022-02-08 17:00","2022","02","08","17:00","7.4","","7.0","","97","","","","15","","9","","48.3","","103.33","","","","","","NA"
"-123.43","48.65","VICTORIA INTL A","1018621","2022-02-08 18:00","2022","02","08","18:00","7.1","","6.8","","98","","","","17","","22","","48.3","","103.29","","","","","","NA"
"-123.43","48.65","VICTORIA INTL A","1018621","2022-02-08 19:00","2022","02","08","19:00","7.2","","6.0","","92","","","","18","","26","","24.1","","103.27","","","","","","Cloudy"
"-123.43","48.65","VICTORIA INTL A","1018621","2022-02-08 20:00","2022","02","08","20:00","6.9","","6.3","","96","","","","22","","10","","24.1","","103.29","","","","","","Rain"
"-123.43","48.65","VICTORIA INTL A","1018621","2022-02-08 21:00","2022","02","08","21:00","6.4","","6.4","","100","","","","23","","8","","24.1","","103.31","","","","","","Rain"
"-123.43","48.65","VICTORIA INTL A","1018621","2022-02-08 22:00","2022","02","08","22:00","6.1","","6.1","","100","","","","32","","4","","32.2","","103.31","","","","","","Cloudy"
"-123.43","48.65","VICTORIA INTL A","1018621","2022-02-08 23:00","2022","02","08","23:00","6.5","","6.5","","100","","","","1","","8","","32.2","","103.37","","","","","","NA"
"-123.43","48.65","VICTORIA INTL A","1018621","2022-02-09 00:00","2022","02","09","00:00","6.8","","6.8","","100","","","","14","","9","","24.1","","103.35","","","","","","NA"
"-123.43","48.65","VICTORIA INTL A","1018621","2022-02-09 01:00","2022","02","09","01:00","6.7","","6.7","","100","","","","16","","6","","32.2","","103.34","","","","","","Cloudy"
"-123.43","48.65","VICTORIA INTL A","1018621","2022-02-09 02:00","2022","02","09","02:00","6.3","","6.3","","100","","","","13","","7","","32.2","","103.37","","","","","","NA"
"-123.43","48.65","VICTORIA INTL A","1018621","2022-02-09 03:00","2022","02","09","03:00","6.4","","6.4","","100","","","","10","","9","","24.1","","103.36","","","","","","NA"
"-123.43","48.65","VICTORIA INTL A","1018621","2022-02-09 04:00","2022","02","09","04:00","6.5","","6.5","","100","","","","23","","3","","24.1","","103.40","","","","","","Cloudy"
"-123.43","48.65","VICTORIA INTL A","1018621","2022-02-09 05:00","2022","02","09","05:00","6.3","","6.3","","100","","","","36","","1","","24.1","","103.38","","","","","","NA"
"-123.43","48.65","VICTORIA INTL A","1018621","2022-02-09 06:00","2022","02","09","06:00","6.0","","6.0","","100","","","","36","","1","","24.1","","103.40","","","","","","NA"
"-123.43","48.65","VICTORIA INTL A","1018621","2022-02-09 07:00","2022","02","09","07:00","6.6","","6.6","","100","","","","36","","3","","32.2","","103.43","","","","","","Mostly Cloudy"
"-123.43","48.65","VICTORIA INTL A","1018621","2022-02-09 08:00","2022","02","09","08:00","6.4","","6.4","","100","","","","2","","6","","24.1","","103.42","","","","","","NA"
"-123.43","48.65","VICTORIA INTL A","1018621","2022-02-09 09:00","2022","02","09","09:00","6.9","","6.9","","100","","","","7","","5","","19.3","","103.44","","","","","","NA"
"-123.43","48.65","VICTORIA INTL A","1018621","2022-02-09 10:00","2022","02","09","10:00","7.6","","7.6","","100","","","","1","","7","","32.2","","103.51","","","","","","Cloudy"
"-123.43","48.65","VICTORIA INTL A","1018621","2022-02-09 11:00","2022","02","09","11:00","7.7","","7.7","","100","","","","7","","6","","32.2","","103.51","","","","","","NA"
"-123.43","48.65","VICTORIA INTL A","1018621","2022-02-09 12:00","2022","02","09","12:00","8.0","","7.2","","95","","","","9","","8","","32.2","","103.47","","","","","","NA"
"-123.43","48.65","VICTORIA INTL A","1018621","2022-02-09 13:00","2022","02","09","13:00","7.8","","7.8","","100","","","","36","","2","","32.2","","103.45","","","","","","Cloudy"
"-123.43","48.65","VICTORIA INTL A","1018621","2022-02-09 14:00","2022","02","09","14:00","8.3","","7.2","","93","","","","9","","6","","32.2","","103.42","","","","","","NA"
"-123.43","48.65","VICTORIA INTL A","1018621","2022-02-09 15:00","2022","02","09","15:00","8.2","","7.9","","98","","","","8","","8","","32.2","","103.37","","","","","","NA"
"-123.43","48.65","VICTORIA INTL A","1018621","2022-02-09 16:00","2022","02","09","16:00","7.9","","7.5","","97","","","","7","","10","","32.2","","103.36","","","","","","Cloudy"
"-123.43","48.65","VICTORIA INTL A","1018621","2022-02-09 17:00","2022","02","09","17:00","7.8","","7.5","","98","","","","6","","6","","24.1","","103.35","","","","","","NA"
"-123.43","48.65","VICTORIA INTL A","1018621","2022-02-09 18:00","2022","02","09","18:00","7.3","","7.3","","100","","","","6","","6","","16.1","","103.34","","","","","","NA"
"-123.43","48.65","VICTORIA INTL A","1018621","2022-02-09 19:00","2022","02","09","19:00","7.0","","7.0","","100","","","","35","","4","","8.1","","103.32","","","","","","Drizzle,Fog"
"-123.43","48.65","VICTORIA INTL A","1018621","2022-02-09 20:00","2022","02","09","20:00","6.9","","6.9","","100","","","","25","","3","","4.0","","103.25","","","","","","Drizzle,Fog"
"-123.43","48.65","VICTORIA INTL A","1018621","2022-02-09 21:00","2022","02","09","21:00","6.8","","6.8","","100","","","","30","","5","","3.2","","103.24","","","","","","Drizzle,Fog"
"-123.43","48.65","VICTORIA INTL A","1018621","2022-02-09 22:00","2022","02","09","22:00","6.8","","6.8","","100","","","","29","","4","","6.4","","103.25","","","","","","Fog"
"-123.43","48.65","VICTORIA INTL A","1018621","2022-02-09 23:00","2022","02","09","23:00","6.7","","6.7","","100","","","","28","","4","","8.1","","103.24","","","","","","Fog"
"-123.43","48.65","VICTORIA INTL A","1018621","2022-02-10 00:00","2022","02","10","00:00","6.8","","6.8","","100","","","","36","","3","","4.0","","103.24","","","","","","Drizzle,Fog"
"-123.43","48.65","VICTORIA INTL A","1018621","2022-02-10 01:00","2022","02","10","01:00","6.7","","6.7","","100","","","","29","","7","","4.0","","103.22","","","","","","Drizzle,Fog"
"-123.43","48.65","VICTORIA INTL A","1018621","2022-02-10 02:00","2022","02","10","02:00","6.5","","6.5","","100","","","","29","","9","","4.8","","103.17","","","","","","Fog"
"-123.43","48.65","VICTORIA INTL A","1018621","2022-02-10 03:00","2022","02","10","03:00","6.6","","6.6","","100","","","","31","","10","","9.7","","103.18","","","","","","Fog"
"-123.43","48.65","VICTORIA INTL A","1018621","2022-02-10 04:00","2022","02","10","04:00","6.7","","6.7","","100","","","","27","","5","","8.1","","103.14","","","","","","Fog"
"-123.43","48.65","VICTORIA INTL A","1018621","2022-02-10 05:00","2022","02","10","05:00","6.7","","6.7","","100","","","","25","","4","","11.3","","103.13","","","","","","NA"
"-123.43","48.65","VICTORIA INTL A","1018621","2022-02-10 06:00","2022","02","10","06:00","6.2","","6.2","","100","","","","16","","7","","12.9","","103.05","","","","","","NA"
"-123.43","48.65","VICTORIA INTL A","1018621","2022-02-10 07:00","2022","02","10","07:00","4.6","","4.6","","100","","","","13","","7","","48.3","","103.01","","","","","","Mainly Clear"
"-123.43","48.65","VICTORIA INTL A","1018621","2022-02-10 08:00","2022","02","10","08:00","5.9","","5.9","","100","","","","15","","6","","4.8","","103.06","","","","","","Fog"
"-123.43","48.65","VICTORIA INTL A","1018621","2022-02-10 09:00","2022","02","10","09:00","6.1","","6.1","","100","","","","27","","8","","8.1","","103.09","","","","","","Fog"
"-123.43","48.65","VICTORIA INTL A","1018621","2022-02-10 10:00","2022","02","10","10:00","6.7","","6.7","","100","","","","30","","8","","9.7","","103.06","","","","","","Fog"
"-123.43","48.65","VICTORIA INTL A","1018621","2022-02-10 11:00","2022","02","10","11:00","8.3","","6.7","","90","","","","28","","14","","24.1","","103.03","","","","","","NA"
"-123.43","48.65","VICTORIA INTL A","1018621","2022-02-10 12:00","2022","02","10","12:00","8.5","","5.8","","83","","","","29","","10","","32.2","","103.06","","","","","","NA"
"-123.43","48.65","VICTORIA INTL A","1018621","2022-02-10 13:00","2022","02","10","13:00","8.2","","6.5","","89","","","","3","","5","","48.3","","103.01","","","","","","Mostly Cloudy"
"-123.43","48.65","VICTORIA INTL A","1018621","2022-02-10 14:00","2022","02","10","14:00","7.8","","7.2","","96","","","","3","","11","","48.3","","103.00","","","","","","NA"
"-123.43","48.65","VICTORIA INTL A","1018621","2022-02-10 15:00","2022","02","10","15:00","7.6","","7.4","","98","","","","9","","8","","48.3","","102.98","","","","","","NA"
"-123.43","48.65","VICTORIA INTL A","1018621","2022-02-10 16:00","2022","02","10","16:00","7.5","","7.3","","99","","","","36","","2","","32.2","","102.96","","","","","","Cloudy"
"-123.43","48.65","VICTORIA INTL A","1018621","2022-02-10 17:00","2022","02","10","17:00","7.6","","7.5","","100","","","","18","","4","","32.2","","102.93","","","","","","NA"
"-123.43","48.65","VICTORIA INTL A","1018621","2022-02-10 18:00","2022","02","10","18:00","7.0","","7.0","","100","","","","14","","7","","32.2","","102.96","","","","","","NA"
"-123.43","48.65","VICTORIA INTL A","1018621","2022-02-10 19:00","2022","02","10","19:00","6.1","","6.1","","100","","","","17","","3","","32.2","","102.95","","","","","","Mainly Clear"
"-123.43","48.65","VICTORIA INTL A","1018621","2022-02-10 20:00","2022","02","10","20:00","2.8","","2.8","","100","","","","27","","4","","24.1","","102.97","","","","","","NA"
"-123.43","48.65","VICTORIA INTL A","1018621","2022-02-10 21:00","2022","02","10","21:00","5.2","","5.2","","100","","","","28","","6","","24.1","","103.02","","","","","","NA"
"-123.43","48.65","VICTORIA INTL A","1018621","2022-02-10 22:00","2022","02","10","22:00","5.3","","5.3","","100","","","","24","","3","","24.1","","103.04","","","","","","Cloudy"
"-123.43","48.65","VICTORIA INTL A","1018621","2022-02-10 23:00","2022","02","10","23:00","5.9","","5.9","","100","","","","34","","7","","24.1","","103.05","","","","","","NA"
"-123.43","48.65","VICTORIA INTL A","1018621","2022-02-11 00:00","2022","02","11","00:00","6.0","","6.0","","100","","","","31","","7","","16.1","","103.05","","","","","","NA"
"-123.43","48.65","VICTORIA INTL A","1018621","2022-02-11 01:00","2022","02","11","01:00","6.3","","6.3","","100","","","","30","","9","","19.3","","103.08","","","","","","Cloudy"
"-123.43","48.65","VICTORIA INTL A","1018621","2022-02-11 02:00","2022","02","11","02:00","7.0","","7.0","","100","","","","32","","7","","19.3","","103.09","","","","","","NA"
"-123.43","48.65","VICTORIA INTL A","1018621","2022-02-11 03:00","2022","02","11","03:00","6.4","","6.4","","100","","","","32","","8","","24.1","","103.11","","","","","","NA"
"-123.43","48.65","VICTORIA INTL A","1018621","2022-02-11 04:00","2022","02","11","04:00","6.6","","6.6","","100","","","","35","","5","","24.1","","103.09","","","","","","Cloudy"
"-123.43","48.65","VICTORIA INTL A","1018621","2022-02-11 05:00","2022","02","11","05:00","7.3","","5.4","","88","","","","34","","13","","24.1","","103.08","","","","","","NA"
"-123.43","48.65","VICTORIA INTL A","1018621","2022-02-11 06:00","2022","02","11","06:00","6.1","","4.9","","92","","","","32","","16","","24.1","","103.06","","","","","","NA"
"-123.43","48.65","VICTORIA INTL A","1018621","2022-02-11 07:00","2022","02","11","07:00","4.2","","4.2","","100","","","","31","","10","","48.3","","103.07","","","","","","Mainly Clear"
"-123.43","48.65","VICTORIA INTL A","1018621","2022-02-11 08:00","2022","02","11","08:00","4.5","","3.8","","95","","","","31","","8","","32.2","","103.08","","","","","","NA"
"-123.43","48.65","VICTORIA INTL A","1018621","2022-02-11 09:00","2022","02","11","09:00","7.2","","4.1","","81","","","","31","","9","","32.2","","103.13","","","","","","NA"
"-123.43","48.65","VICTORIA INTL A","1018621","2022-02-11 10:00","2022","02","11","10:00","8.2","","3.8","","74","","","","31","","8","","48.3","","103.11","","","","","","Mostly Cloudy"
"-123.43","48.65","VICTORIA INTL A","1018621","2022-02-11 11:00","2022","02","11","11:00","8.5","","4.2","","74","","","","29","","14","","48.3","","103.12","","","","","","NA"
"-123.43","48.65","VICTORIA INTL A","1018621","2022-02-11 12:00","2022","02","11","12:00","9.0","","3.8","","70","","","","28","","14","","48.3","","103.10","","","","","","NA"
"-123.43","48.65","VICTORIA INTL A","1018621","2022-02-11 13:00","2022","02","11","13:00","10.2","","3.5","","63","","","","32","","10","","48.3","","103.07","","","","","","Mostly Cloudy"
"-123.43","48.65","VICTORIA INTL A","1018621","2022-02-11 14:00","2022","02","11","14:00","10.7","","3.0","","59","","","","32","","9","","48.3","","103.04","","","","","","NA"
"-123.43","48.65","VICTORIA INTL A","1018621","2022-02-11 15:00","2022","02","11","15:00","10.9","","3.0","","58","","","","28","","10","","48.3","","103.00","","","","","","NA"
"-123.43","48.65","VICTORIA INTL A","1018621","2022-02-11 16:00","2022","02","11","16:00","11.5","","3.2","","57","","","","30","","5","","48.3","","102.93","","","","","","Mostly Cloudy"
"-123.43","48.65","VICTORIA INTL A","1018621","2022-02-11 17:00","2022","02","11","17:00","9.1","","3.7","","69","","","","1","","5","","48.3","","102.90","","","","","","NA"
"-123.43","48.65","VICTORIA INTL A","1018621","2022-02-11 18:00","2022","02","11","18:00","5.4","","2.9","","84","","","","36","","2","","48.3","","102.87","","","","","","NA"
"-123.43","48.65","VICTORIA INTL A","1018621","2022-02-11 19:00","2022","02","11","19:00","5.2","","4.7","","96","","","","26","","5","","48.3","","102.85","","","","","","Mainly Clear"
"-123.43","48.65","VICTORIA INTL A","1018621","2022-02-11 20:00","2022","02","11","20:00","5.5","","5.3","","98","","","","29","","9","","48.3","","102.84","","","","","","NA"
"-123.43","48.65","VICTORIA INTL A","1018621","2022-02-11 21:00","2022","02","11","21:00","4.8","","4.8","","100","","","","27","","10","","48.3","","102.85","","","","","","NA"
"-123.43","48.65","VICTORIA INTL A","1018621","2022-02-11 22:00","2022","02","11","22:00","4.3","","3.3","","93","","","","27","","12","","48.3","","102.85","","","","","","Mainly Clear"
"-123.43","48.65","VICTORIA INTL A","1018621","2022-02-11 23:00","2022","02","11","23:00","3.9","","2.6","","91","","","","26","","11","","48.3","","102.85","","","","","","NA"
"-123.43","48.65","VICTORIA INTL A","1018621","2022-02-12 00:00","2022","02","12","00:00","3.9","","2.8","","93","","","","27","","10","","48.3","","102.82","","","","","","NA"
"-123.43","48.65","VICTORIA INTL A","1018621","2022-02-12 01:00","2022","02","12","01:00","2.4","","2.0","","97","","","","28","","9","","48.3","","102.81","","","","","","Clear"
"-123.43","48.65","VICTORIA INTL A","1018621","2022-02-12 02:00","2022","02","12","02:00","3.3","","1.5","","88","","","","27","","5","","48.3","","102.79","","","","","","NA"
"-123.43","48.65","VICTORIA INTL A","1018621","2022-02-12 03:00","2022","02","12","03:00","1.6","","1.6","","100","","","","34","","6","","48.3","","102.77","","","","","","NA"
"-123.43","48.65","VICTORIA INTL A","1018621","2022-02-12 04:00","2022","02","12","04:00","-0.1","","-0.1","","100","","","","27","","3","","48.3","","102.76","","","","-1","","Clear"
"-123.43","48.65","VICTORIA INTL A","1018621","2022-02-12 05:00","2022","02","12","05:00","-0.2","","-0.2","","100","","","","29","","5","","48.3","","102.75","","","","-2","","NA"
"-123.43","48.65","VICTORIA INTL A","1018621","2022-02-12 06:00","2022","02","12","06:00","0.6","","0.6","","100","","","","27","","7","","48.3","","102.72","","","","","","NA"
"-123.43","48.65","VICTORIA INTL A","1018621","2022-02-12 07:00","2022","02","12","07:00","0.2","","0.2","","100","","","","30","","3","","48.3","","102.72","","","","","","Clear"
"-123.43","48.65","VICTORIA INTL A","1018621","2022-02-12 08:00","2022","02","12","08:00","0.3","","0.3","","100","","","","30","","4","","48.3","","102.70","","","","","","NA"
"-123.43","48.65","VICTORIA INTL A","1018621","2022-02-12 09:00","2022","02","12","09:00","3.4","","2.5","","94","","","","29","","12","","48.3","","102.70","","","","","","NA"
"-123.43","48.65","VICTORIA INTL A","1018621","2022-02-12 10:00","2022","02","12","10:00","5.5","","2.6","","82","","","","30","","13","","48.3","","102.67","","","","","","Clear"
"-123.43","48.65","VICTORIA INTL A","1018621","2022-02-12 11:00","2022","02","12","11:00","7.3","","1.8","","68","","","","30","","8","","48.3","","102.65","","","","","","NA"
"-123.43","48.65","VICTORIA INTL A","1018621","2022-02-12 12:00","2022","02","12","12:00","8.7","","1.7","","61","","","","29","","7","","48.3","","102.60","","","","","","NA"
"-123.43","48.65","VICTORIA INTL A","1018621","2022-02-12 13:00","2022","02","12","13:00","10.0","","1.6","","56","","","","29","","5","","48.3","","102.52","","","","","","Clear"
"-123.43","48.65","VICTORIA INTL A","1018621","2022-02-12 14:00","2022","02","12","14:00","10.5","","1.8","","55","","","","5","","9","","48.3","","102.45","","","","","","NA"
"-123.43","48.65","VICTORIA INTL A","1018621","2022-02-12 15:00","2022","02","12","15:00","11.2","","1.8","","52","","","","1","","8","","48.3","","102.38","","","","","","NA"
"-123.43","48.65","VICTORIA INTL A","1018621","2022-02-12 16:00","2022","02","12","16:00","11.3","","2.3","","54","","","","36","","5","","48.3","","102.31","","","","","","Mainly Clear"
"-123.43","48.65","VICTORIA INTL A","1018621","2022-02-12 17:00","2022","02","12","17:00","9.0","","2.6","","64","","","","2","","8","","48.3","","102.29","","","","","","NA"
"-123.43","48.65","VICTORIA INTL A","1018621","2022-02-12 18:00","2022","02","12","18:00","4.7","","1.1","","77","","","","36","","1","","48.3","","102.27","","","","","","NA"
"-123.43","48.65","VICTORIA INTL A","1018621","2022-02-12 19:00","2022","02","12","19:00","4.1","","1.7","","84","","","","25","","6","","48.3","","102.23","","","","","","Clear"
"-123.43","48.65","VICTORIA INTL A","1018621","2022-02-12 20:00","2022","02","12","20:00","2.6","","1.9","","95","","","","27","","3","","32.2","","102.23","","","","","","NA"
"-123.43","48.65","VICTORIA INTL A","1018621","2022-02-12 21:00","2022","02","12","21:00","1.4","","1.4","","100","","","","26","","3","","32.2","","102.23","","","","","","NA"
"-123.43","48.65","VICTORIA INTL A","1018621","2022-02-12 22:00","2022","02","12","22:00","1.1","","1.1","","100","","","","27","","8","","32.2","","102.23","","","","","","Mainly Clear"
"-123.43","48.65","VICTORIA INTL A","1018621","2022-02-12 23:00","2022","02","12","23:00","2.4","","2.4","","100","","","","27","","10","","32.2","","102.22","","","","","","NA"
"-123.43","48.65","VICTORIA INTL A","1018621","2022-02-13 00:00","2022","02","13","00:00","2.0","","1.1","","93","","","","28","","8","","32.2","","102.20","","","","","","NA"
"-123.43","48.65","VICTORIA INTL A","1018621","2022-02-13 01:00","2022","02","13","01:00","0.2","","0.2","","100","","","","25","","5","","32.2","","102.18","","","","","","Mainly Clear"
"-123.43","48.65","VICTORIA INTL A","1018621","2022-02-13 02:00","2022","02","13","02:00","1.3","","1.3","","100","","","","26","","7","","48.3","","102.17","","","","","","NA"
"-123.43","48.65","VICTORIA INTL A","1018621","2022-02-13 03:00","2022","02","13","03:00","1.6","","0.5","","92","","","","24","","8","","48.3","","102.14","","","","","","NA"
"-123.43","48.65","VICTORIA INTL A","1018621","2022-02-13 04:00","2022","02","13","04:00","0.4","","0.4","","100","","","","26","","8","","48.3","","102.13","","","","","","Mainly Clear"
"-123.43","48.65","VICTORIA INTL A","1018621","2022-02-13 05:00","2022","02","13","05:00","0.1","","0.0","","99","","","","25","","5","","48.3","","102.14","","","","","","NA"
"-123.43","48.65","VICTORIA INTL A","1018621","2022-02-13 06:00","2022","02","13","06:00","-0.9","","-0.9","","100","","","","25","","9","","48.3","","102.08","","","","-4","","NA"
"-123.43","48.65","VICTORIA INTL A","1018621","2022-02-13 07:00","2022","02","13","07:00","-0.4","","-1.3","","93","","","","24","","7","","48.3","","102.07","","","","-3","","Mainly Clear"
"-123.43","48.65","VICTORIA INTL A","1018621","2022-02-13 08:00","2022","02","13","08:00","-0.1","","-0.2","","99","","","","25","","8","","48.3","","102.10","","","","-3","","NA"
"-123.43","48.65","VICTORIA INTL A","1018621","2022-02-13 09:00","2022","02","13","09:00","3.0","","1.7","","91","","","","25","","6","","48.3","","102.10","","","","","","NA"
"-123.43","48.65","VICTORIA INTL A","1018621","2022-02-13 10:00","2022","02","13","10:00","5.5","","0.2","","68","","","","22","","6","","48.3","","102.10","","","","","","Clear"
"-123.43","48.65","VICTORIA INTL A","1018621","2022-02-13 11:00","2022","02","13","11:00","8.3","","1.4","","61","","","","9","","4","","48.3","","102.04","","","","","","NA"
"-123.43","48.65","VICTORIA INTL A","1018621","2022-02-13 12:00","2022","02","13","12:00","8.8","","0.9","","57","","","","8","","8","","48.3","","101.99","","","","","","NA"
"-123.43","48.65","VICTORIA INTL A","1018621","2022-02-13 13:00","2022","02","13","13:00","9.8","","0.8","","53","","","","7","","9","","48.3","","101.87","","","","","","Mainly Clear"
"-123.43","48.65","VICTORIA INTL A","1018621","2022-02-13 14:00","2022","02","13","14:00","9.6","","2.0","","59","","","","9","","9","","48.3","","101.76","","","","","","NA"
"-123.43","48.65","VICTORIA INTL A","1018621","2022-02-13 15:00","2022","02","13","15:00","8.9","","0.8","","57","","","","10","","9","","48.3","","101.69","","","","","","NA"
"-123.43","48.65","VICTORIA INTL A","1018621","2022-02-13 16:00","2022","02","13","16:00","8.1","","1.9","","65","","","","36","","3","","48.3","","101.67","","","","","","Mostly Cloudy"
"-123.43","48.65","VICTORIA INTL A","1018621","2022-02-13 17:00","2022","02","13","17:00","7.6","","2.6","","70","","","","13","","7","","48.3","","101.59","","","","","","NA"
"-123.43","48.65","VICTORIA INTL A","1018621","2022-02-13 18:00","2022","02","13","18:00","6.9","","3.3","","78","","","","36","","1","","48.3","","101.49","","","","","","NA"
"-123.43","48.65","VICTORIA INTL A","1018621","2022-02-13 19:00","2022","02","13","19:00","4.8","","3.2","","89","","","","23","","4","","48.3","","101.41","","","","","","Mostly Cloudy"
"-123.43","48.65","VICTORIA INTL A","1018621","2022-02-13 20:00","2022","02","13","20:00","4.0","","3.8","","99","","","","19","","4","","32.2","","101.37","","","","","","NA"
"-123.43","48.65","VICTORIA INTL A","1018621","2022-02-13 21:00","2022","02","13","21:00","4.4","","3.3","","93","","","","30","","5","","32.2","","101.33","","","","","","NA"
"-123.43","48.65","VICTORIA INTL A","1018621","2022-02-13 22:00","2022","02","13","22:00","3.7","","2.9","","94","","","","14","","4","","32.2","","101.19","","","","","","Cloudy"
"-123.43","48.65","VICTORIA INTL A","1018621","2022-02-13 23:00","2022","02","13","23:00","4.8","","3.9","","93","","","","14","","3","","32.2","","101.09","","","","","","NA"
"-123.43","48.65","VICTORIA INTL A","1018621","2022-02-14 00:00","2022","02","14","00:00","4.8","","4.5","","98","","","","25","","5","","32.2","","101.08","","","","","","NA"
"-123.43","48.65","VICTORIA INTL A","1018621","2022-02-14 01:00","2022","02","14","01:00","3.7","","3.1","","95","","","","36","","1","","32.2","","100.92","","","","","","Cloudy"
"-123.43","48.65","VICTORIA INTL A","1018621","2022-02-14 02:00","2022","02","14","02:00","4.4","","4.3","","99","","","","0","","1","","32.2","","100.89","","","","","","NA"
"-123.43","48.65","VICTORIA INTL A","1018621","2022-02-14 03:00","2022","02","14","03:00","4.7","","4.1","","96","","","","0","","1","","32.2","","100.85","","","","","","NA"
"-123.43","48.65","VICTORIA INTL A","1018621","2022-02-14 04:00","2022","02","14","04:00","4.8","","4.6","","99","","","","13","","7","","32.2","","100.76","","","","","","Mostly Cloudy"
"-123.43","48.65","VICTORIA INTL A","1018621","2022-02-14 05:00","2022","02","14","05:00","6.0","","6.0","","100","","","","15","","12","","32.2","","100.75","","","","","","NA"
"-123.43","48.65","VICTORIA INTL A","1018621","2022-02-14 06:00","2022","02","14","06:00","6.7","","5.6","","93","","","","13","","11","","32.2","","100.75","","","","","","NA"
"-123.43","48.65","VICTORIA INTL A","1018621","2022-02-14 07:00","2022","02","14","07:00","6.3","","6.3","","100","","","","13","","10","","32.2","","100.71","","","","","","Rain"
"-123.43","48.65","VICTORIA INTL A","1018621","2022-02-14 08:00","2022","02","14","08:00","4.9","","4.9","","100","","","","15","","4","","48.3","","100.69","","","","","","NA"
"-123.43","48.65","VICTORIA INTL A","1018621","2022-02-14 09:00","2022","02","14","09:00","5.0","","5.0","","100","","","","0","","1","","48.3","","100.77","","","","","","NA"
"-123.43","48.65","VICTORIA INTL A","1018621","2022-02-14 10:00","2022","02","14","10:00","7.3","","5.4","","88","","","","26","","6","","48.3","","100.88","","","","","","Mostly Cloudy"
"-123.43","48.65","VICTORIA INTL A","1018621","2022-02-14 11:00","2022","02","14","11:00","9.2","","4.1","","70","","","","29","","10","","48.3","","100.91","","","","","","NA"
"-123.43","48.65","VICTORIA INTL A","1018621","2022-02-14 12:00","2022","02","14","12:00","9.9","","3.1","","63","","","","29","","17","","48.3","","100.97","","","","","","NA"
"-123.43","48.65","VICTORIA INTL A","1018621","2022-02-14 13:00","2022","02","14","13:00","9.6","","4.1","","68","","","","4","","17","","48.3","","100.95","","","","","","Mostly Cloudy"
"-123.43","48.65","VICTORIA INTL A","1018621","2022-02-14 14:00","2022","02","14","14:00","9.7","","5.0","","72","","","","1","","20","","48.3","","101.02","","","","","","NA"
"-123.43","48.65","VICTORIA INTL A","1018621","2022-02-14 15:00","2022","02","14","15:00","8.6","","5.3","","80","","","","3","","17","","48.3","","101.10","","","","","","NA"
"-123.43","48.65","VICTORIA INTL A","1018621","2022-02-14 16:00","2022","02","14","16:00","8.7","","5.7","","81","","","","3","","8","","48.3","","101.20","","","","","","Mostly Cloudy"
"-123.43","48.65","VICTORIA INTL A","1018621","2022-02-14 17:00","2022","02","14","17:00","7.7","","4.9","","83","","","","19","","6","","48.3","","101.26","","","","","","NA"
"-123.43","48.65","VICTORIA INTL A","1018621","2022-02-14 18:00","2022","02","14","18:00","6.9","","4.2","","83","","","","17","","5","","48.3","","101.30","","","","","","NA"
"-123.43","48.65","VICTORIA INTL A","1018621","2022-02-14 19:00","2022","02","14","19:00","5.2","","4.2","","93","","","","3","","5","","48.3","","101.38","","","","","","Mainly Clear"
"-123.43","48.65","VICTORIA INTL A","1018621","2022-02-14 20:00","2022","02","14","20:00","4.1","","4.1","","100","","","","29","","4","","48.3","","101.42","","","","","","NA"
"-123.43","48.65","VICTORIA INTL A","1018621","2022-02-14 21:00","2022","02","14","21:00","1.9","","1.9","","100","","","","24","","7","","48.3","","101.53","","","","","","NA"
"-123.43","48.65","VICTORIA INTL A","1018621","2022-02-14 22:00","2022","02","14","22:00","1.9","","1.9","","100","","","","23","","9","","48.3","","101.59","","","","","","Mainly Clear"
"-123.43","48.65","VICTORIA INTL A","1018621","2022-02-14 23:00","2022","02","14","23:00","2.9","","2.9","","100","","","","26","","8","","48.3","","101.63","","","","","","NA"
"-123.43","48.65","VICTORIA INTL A","1018621","2022-02-15 00:00","2022","02","15","00:00","2.2","","2.2","","100","","","","24","","8","","48.3","","101.70","","","","","","NA"
"-123.43","48.65","VICTORIA INTL A","1018621","2022-02-15 01:00","2022","02","15","01:00","1.8","","1.8","","100","","","","24","","12","","48.3","","101.75","","","","","","Mostly Cloudy"
"-123.43","48.65","VICTORIA INTL A","1018621","2022-02-15 02:00","2022","02","15","02:00","1.2","","1.2","","100","","","","24","","8","","48.3","","101.77","","","","","","NA"
"-123.43","48.65","VICTORIA INTL A","1018621","2022-02-15 03:00","2022","02","15","03:00","1.6","","1.6","","100","","","","24","","10","","48.3","","101.80","","","","","","NA"
"-123.43","48.65","VICTORIA INTL A","1018621","2022-02-15 04:00","2022","02","15","04:00","1.3","","1.3","","100","","","","27","","9","","48.3","","101.87","","","","","","Clear"
"-123.43","48.65","VICTORIA INTL A","1018621","2022-02-15 05:00","2022","02","15","05:00","1.8","","1.8","","100","","","","27","","5","","48.3","","101.93","","","","","","NA"
"-123.43","48.65","VICTORIA INTL A","1018621","2022-02-15 06:00","2022","02","15","06:00","1.6","","1.6","","100","","","","27","","11","","48.3","","101.95","","","","","","NA"
"-123.43","48.65","VICTORIA INTL A","1018621","2022-02-15 07:00","2022","02","15","07:00","1.9","","1.9","","100","","","","28","","13","","32.2","","102.03","","","","","","Mostly Cloudy"
"-123.43","48.65","VICTORIA INTL A","1018621","2022-02-15 08:00","2022","02","15","08:00","3.8","","3.8","","100","","","","28","","12","","48.3","","102.09","","","","","","NA"
"-123.43","48.65","VICTORIA INTL A","1018621","2022-02-15 09:00","2022","02","15","09:00","4.3","","4.3","","100","","","","28","","13","","48.3","","102.16","","","","","","NA"
"-123.43","48.65","VICTORIA INTL A","1018621","2022-02-15 10:00","2022","02","15","10:00","5.2","","4.5","","95","","","","25","","10","","48.3","","102.14","","","","","","Mostly Cloudy"
"-123.43","48.65","VICTORIA INTL A","1018621","2022-02-15 11:00","2022","02","15","11:00","6.7","","4.5","","86","","","","25","","7","","48.3","","102.19","","","","","","NA"
"-123.43","48.65","VICTORIA INTL A","1018621","2022-02-15 12:00","2022","02","15","12:00","8.5","","3.1","","69","","","","24","","4","","48.3","","102.15","","","","","","NA"
"-123.43","48.65","VICTORIA INTL A","1018621","2022-02-15 13:00","2022","02","15","13:00","9.0","","2.2","","62","","","","15","","4","","48.3","","102.10","","","","","","Mostly Cloudy"
"-123.43","48.65","VICTORIA INTL A","1018621","2022-02-15 14:00","2022","02","15","14:00","9.3","","3.0","","64","","","","12","","13","","48.3","","101.96","","","","","","NA"
"-123.43","48.65","VICTORIA INTL A","1018621","2022-02-15 15:00","2022","02","15","15:00","8.4","","3.9","","73","","","","12","","10","","48.3","","101.96","","","","","","NA"
"-123.43","48.65","VICTORIA INTL A","1018621","2022-02-15 16:00","2022","02","15","16:00","9.3","","3.4","","66","","","","20","","11","","48.3","","101.92","","","","","","Mostly Cloudy"
"-123.43","48.65","VICTORIA INTL A","1018621","2022-02-15 17:00","2022","02","15","17:00","8.9","","2.7","","65","","","","21","","21","","48.3","","101.89","","","","","","NA"
"-123.43","48.65","VICTORIA INTL A","1018621","2022-02-15 18:00","2022","02","15","18:00","7.7","","2.9","","72","","","","22","","13","","48.3","","101.90","","","","","","NA"
"-123.43","48.65","VICTORIA INTL A","1018621","2022-02-15 19:00","2022","02","15","19:00","6.3","","3.1","","80","","","","23","","13","","48.3","","101.88","","","","","","Mostly Cloudy"
"-123.43","48.65","VICTORIA INTL A","1018621","2022-02-15 20:00","2022","02","15","20:00","7.1","","2.9","","74","","","","28","","14","","32.2","","101.89","","","","","","NA"
"-123.43","48.65","VICTORIA INTL A","1018621","2022-02-15 21:00","2022","02","15","21:00","7.1","","2.9","","74","","","","27","","15","","32.2","","101.85","","","","","","NA"
"-123.43","48.65","VICTORIA INTL A","1018621","2022-02-15 22:00","2022","02","15","22:00","6.7","","3.1","","77","","","","27","","16","","32.2","","101.82","","","","","","Mainly Clear"
"-123.43","48.65","VICTORIA INTL A","1018621","2022-02-15 23:00","2022","02","15","23:00","3.3","","1.7","","89","","","","28","","7","","32.2","","101.82","","","","","","NA"
"-123.43","48.65","VICTORIA INTL A","1018621","2022-02-16 00:00","2022","02","16","00:00","4.8","","3.3","","90","","","","27","","8","","32.2","","101.85","","","","","","NA"
"-123.43","48.65","VICTORIA INTL A","1018621","2022-02-16 01:00","2022","02","16","01:00","4.4","","4.0","","97","","","","26","","7","","32.2","","101.90","","","","","","Mostly Cloudy"
"-123.43","48.65","VICTORIA INTL A","1018621","2022-02-16 02:00","2022","02","16","02:00","4.1","","4.1","","100","","","","24","","11","","32.2","","101.94","","","","","","NA"
"-123.43","48.65","VICTORIA INTL A","1018621","2022-02-16 03:00","2022","02","16","03:00","3.4","","3.4","","100","","","","9","","7","","32.2","","101.99","","","","","","NA"
"-123.43","48.65","VICTORIA INTL A","1018621","2022-02-16 04:00","2022","02","16","04:00","0.7","","0.7","","100","","","","25","","4","","32.2","","102.05","","","","","","Mainly Clear"
"-123.43","48.65","VICTORIA INTL A","1018621","2022-02-16 05:00","2022","02","16","05:00","0.2","","0.2","","100","","","","25","","3","","32.2","","102.16","","","","","","NA"
"-123.43","48.65","VICTORIA INTL A","1018621","2022-02-16 06:00","2022","02","16","06:00","1.2","","1.2","","100","","","","29","","4","","32.2","","102.21","","","","","","NA"
"-123.43","48.65","VICTORIA INTL A","1018621","2022-02-16 07:00","2022","02","16","07:00","-0.2","","-0.2","","100","","","","27","","6","","48.3","","102.29","","","","-2","","Mainly Clear"
"-123.43","48.65","VICTORIA INTL A","1018621","2022-02-16 08:00","2022","02","16","08:00","2.2","","2.2","","100","","","","26","","12","","48.3","","102.38","","","","","","NA"
"-123.43","48.65","VICTORIA INTL A","1018621","2022-02-16 09:00","2022","02","16","09:00","4.8","","3.5","","92","","","","28","","8","","48.3","","102.46","","","","","","NA"
"-123.43","48.65","VICTORIA INTL A","1018621","2022-02-16 10:00","2022","02","16","10:00","6.8","","2.3","","73","","","","27","","9","","48.3","","102.51","","","","","","Mainly Clear"
"-123.43","48.65","VICTORIA INTL A","1018621","2022-02-16 11:00","2022","02","16","11:00","8.2","","2.4","","67","","","","27","","7","","48.3","","102.58","","","","","","NA"
"-123.43","48.65","VICTORIA INTL A","1018621","2022-02-16 12:00","2022","02","16","12:00","9.9","","2.1","","58","","","","1","","7","","48.3","","102.59","","","","","","NA"
"-123.43","48.65","VICTORIA INTL A","1018621","2022-02-16 13:00","2022","02","16","13:00","9.2","","1.9","","60","","","","6","","15","","48.3","","102.60","","","","","","Clear"
"-123.43","48.65","VICTORIA INTL A","1018621","2022-02-16 14:00","2022","02","16","14:00","9.1","","2.3","","62","","","","11","","10","","48.3","","102.60","","","","","","NA"
"-123.43","48.65","VICTORIA INTL A","1018621","2022-02-16 15:00","2022","02","16","15:00","8.9","","3.0","","67","","","","10","","10","","48.3","","102.62","","","","","","NA"
"-123.43","48.65","VICTORIA INTL A","1018621","2022-02-16 16:00","2022","02","16","16:00","8.6","","2.8","","67","","","","13","","11","","48.3","","102.65","","","","","","Mainly Clear"
"-123.43","48.65","VICTORIA INTL A","1018621","2022-02-16 17:00","2022","02","16","17:00","7.9","","2.8","","70","","","","15","","7","","48.3","","102.68","","","","","","NA"
"-123.43","48.65","VICTORIA INTL A","1018621","2022-02-16 18:00","2022","02","16","18:00","7.7","","3.5","","74","","","","12","","9","","48.3","","102.74","","","","","","NA"
"-123.43","48.65","VICTORIA INTL A","1018621","2022-02-16 19:00","2022","02","16","19:00","6.9","","3.9","","81","","","","19","","5","","48.3","","102.80","","","","","","Mostly Cloudy"
"-123.43","48.65","VICTORIA INTL A","1018621","2022-02-16 20:00","2022","02","16","20:00","6.0","","3.2","","82","","","","36","","1","","32.2","","102.81","","","","","","NA"
"-123.43","48.65","VICTORIA INTL A","1018621","2022-02-16 21:00","2022","02","16","21:00","4.2","","2.4","","89","","","","29","","6","","32.2","","102.83","","","","","","NA"
"-123.43","48.65","VICTORIA INTL A","1018621","2022-02-16 22:00","2022","02","16","22:00","2.5","","2.5","","100","","","","24","","6","","32.2","","102.87","","","","","","Mainly Clear"
"-123.43","48.65","VICTORIA INTL A","1018621","2022-02-16 23:00","2022","02","16","23:00","2.2","","2.2","","100","","","","25","","5","","32.2","","102.88","","","","","","NA"
"-123.43","48.65","VICTORIA INTL A","1018621","2022-02-17 00:00","2022","02","17","00:00","1.7","","1.7","","100","","","","24","","5","","32.2","","102.85","","","","","","NA"
"-123.43","48.65","VICTORIA INTL A","1018621","2022-02-17 01:00","2022","02","17","01:00","0.6","","0.6","","100","","","","27","","4","","32.2","","102.86","","","","","","Mainly Clear"
"-123.43","48.65","VICTORIA INTL A","1018621","2022-02-17 02:00","2022","02","17","02:00","1.9","","1.9","","100","","","","27","","7","","32.2","","102.86","","","","","","NA"
"-123.43","48.65","VICTORIA INTL A","1018621","2022-02-17 03:00","2022","02","17","03:00","3.5","","3.5","","100","","","","25","","5","","32.2","","102.85","","","","","","NA"
"-123.43","48.65","VICTORIA INTL A","1018621","2022-02-17 04:00","2022","02","17","04:00","4.0","","4.0","","100","","","","36","","1","","32.2","","102.77","","","","","","Cloudy"
"-123.43","48.65","VICTORIA INTL A","1018621","2022-02-17 05:00","2022","02","17","05:00","3.7","","3.7","","100","","","","31","","3","","32.2","","102.80","","","","","","NA"
"-123.43","48.65","VICTORIA INTL A","1018621","2022-02-17 06:00","2022","02","17","06:00","3.8","","3.8","","100","","","","24","","4","","32.2","","102.77","","","","","","NA"
"-123.43","48.65","VICTORIA INTL A","1018621","2022-02-17 07:00","2022","02","17","07:00","4.1","","4.1","","100","","","","26","","3","","32.2","","102.79","","","","","","Mostly Cloudy"
"-123.43","48.65","VICTORIA INTL A","1018621","2022-02-17 08:00","2022","02","17","08:00","4.7","","4.7","","100","","","","36","","2","","48.3","","102.75","","","","","","NA"
"-123.43","48.65","VICTORIA INTL A","1018621","2022-02-17 09:00","2022","02","17","09:00","6.4","","6.4","","100","","","","26","","5","","32.2","","102.77","","","","","","NA"
"-123.43","48.65","VICTORIA INTL A","1018621","2022-02-17 10:00","2022","02","17","10:00","7.9","","5.4","","84","","","","16","","4","","48.3","","102.77","","","","","","Mostly Cloudy"
"-123.43","48.65","VICTORIA INTL A","1018621","2022-02-17 11:00","2022","02","17","11:00","8.7","","4.1","","73","","","","3","","5","","48.3","","102.80","","","","","","NA"
"-123.43","48.65","VICTORIA INTL A","1018621","2022-02-17 12:00","2022","02","17","12:00","8.9","","4.5","","74","","","","6","","9","","48.3","","102.87","","","","","","NA"
"-123.43","48.65","VICTORIA INTL A","1018621","2022-02-17 13:00","2022","02","17","13:00","10.2","","5.8","","74","","","","36","","3","","48.3","","102.77","","","","","","Mostly Cloudy"
"-123.43","48.65","VICTORIA INTL A","1018621","2022-02-17 14:00","2022","02","17","14:00","10.9","","6.0","","72","","","","9","","9","","48.3","","102.72","","","","","","NA"
"-123.43","48.65","VICTORIA INTL A","1018621","2022-02-17 15:00","2022","02","17","15:00","11.0","","5.3","","68","","","","8","","9","","48.3","","102.71","","","","","","NA"
"-123.43","48.65","VICTORIA INTL A","1018621","2022-02-17 16:00","2022","02","17","16:00","9.4","","6.8","","83","","","","7","","14","","48.3","","102.72","","","","","","Mainly Clear"
"-123.43","48.65","VICTORIA INTL A","1018621","2022-02-17 17:00","2022","02","17","17:00","8.5","","7.6","","94","","","","11","","15","","48.3","","102.73","","","","","","NA"
"-123.43","48.65","VICTORIA INTL A","1018621","2022-02-17 18:00","2022","02","17","18:00","8.0","","8.0","","100","","","","13","","9","","48.3","","102.76","","","","","","NA"
"-123.43","48.65","VICTORIA INTL A","1018621","2022-02-17 19:00","2022","02","17","19:00","7.6","","7.6","","100","","","","10","","8","","48.3","","102.70","","","","","","Mostly Cloudy"
"-123.43","48.65","VICTORIA INTL A","1018621","2022-02-17 20:00","2022","02","17","20:00","7.7","","7.7","","100","","","","5","","12","","32.2","","102.79","","","","","","NA"
"-123.43","48.65","VICTORIA INTL A","1018621","2022-02-17 21:00","2022","02","17","21:00","7.3","","7.3","","100","","","","4","","7","","32.2","","102.83","","","","","","NA"
"-123.43","48.65","VICTORIA INTL A","1018621","2022-02-17 22:00","2022","02","17","22:00","6.0","","6.0","","100","","","","26","","7","","32.2","","102.86","","","","","","Mostly Cloudy"
"-123.43","48.65","VICTORIA INTL A","1018621","2022-02-17 23:00","2022","02","17","23:00","4.7","","4.7","","100","","","","30","","5","","32.2","","102.91","","","","","","NA"
"-123.43","48.65","VICTORIA INTL A","1018621","2022-02-18 00:00","2022","02","18","00:00","4.0","","4.0","","100","","","","24","","8","","32.2","","102.91","","","","","","NA"
"-123.43","48.65","VICTORIA INTL A","1018621","2022-02-18 01:00","2022","02","18","01:00","5.8","","5.8","","100","","","","25","","10","","32.2","","102.95","","","","","","Mostly Cloudy"
"-123.43","48.65","VICTORIA INTL A","1018621","2022-02-18 02:00","2022","02","18","02:00","3.6","","3.6","","100","","","","29","","10","","32.2","","102.91","","","","","","NA"
"-123.43","48.65","VICTORIA INTL A","1018621","2022-02-18 03:00","2022","02","18","03:00","1.9","","1.9","","100","","","","25","","6","","32.2","","102.90","","","","","","NA"
"-123.43","48.65","VICTORIA INTL A","1018621","2022-02-18 04:00","2022","02","18","04:00","1.8","","1.8","","100","","","","22","","8","","32.2","","102.88","","","","","","Mainly Clear"
"-123.43","48.65","VICTORIA INTL A","1018621","2022-02-18 05:00","2022","02","18","05:00","1.3","","1.3","","100","","","","29","","9","","32.2","","102.91","","","","","","NA"
"-123.43","48.65","VICTORIA INTL A","1018621","2022-02-18 06:00","2022","02","18","06:00","2.4","","2.4","","100","","","","23","","5","","32.2","","102.90","","","","","","NA"
"-123.43","48.65","VICTORIA INTL A","1018621","2022-02-18 07:00","2022","02","18","07:00","3.0","","3.0","","100","","","","28","","10","","48.3","","102.94","","","","","","Mainly Clear"
"-123.43","48.65","VICTORIA INTL A","1018621","2022-02-18 08:00","2022","02","18","08:00","2.2","","2.2","","100","","","","23","","8","","48.3","","102.97","","","","","","NA"
"-123.43","48.65","VICTORIA INTL A","1018621","2022-02-18 09:00","2022","02","18","09:00","5.0","","4.3","","95","","","","25","","7","","48.3","","102.99","","","","","","NA"
"-123.43","48.65","VICTORIA INTL A","1018621","2022-02-18 10:00","2022","02","18","10:00","6.6","","3.4","","80","","","","36","","2","","48.3","","102.96","","","","","","Mostly Cloudy"
"-123.43","48.65","VICTORIA INTL A","1018621","2022-02-18 11:00","2022","02","18","11:00","7.3","","3.7","","78","","","","6","","3","","48.3","","102.97","","","","","","NA"
"-123.43","48.65","VICTORIA INTL A","1018621","2022-02-18 12:00","2022","02","18","12:00","8.0","","4.9","","81","","","","18","","4","","48.3","","102.94","","","","","","NA"
"-123.43","48.65","VICTORIA INTL A","1018621","2022-02-18 13:00","2022","02","18","13:00","8.4","","4.5","","76","","","","29","","10","","48.3","","102.86","","","","","","Mostly Cloudy"
"-123.43","48.65","VICTORIA INTL A","1018621","2022-02-18 14:00","2022","02","18","14:00","8.6","","4.4","","75","","","","14","","9","","48.3","","102.79","","","","","","NA"
"-123.43","48.65","VICTORIA INTL A","1018621","2022-02-18 15:00","2022","02","18","15:00","8.5","","4.2","","74","","","","12","","10","","48.3","","102.74","","","","","","NA"
"-123.43","48.65","VICTORIA INTL A","1018621","2022-02-18 16:00","2022","02","18","16:00","8.1","","5.7","","85","","","","13","","10","","48.3","","102.70","","","","","","Mostly Cloudy"
"-123.43","48.65","VICTORIA INTL A","1018621","2022-02-18 17:00","2022","02","18","17:00","7.7","","7.0","","95","","","","10","","10","","48.3","","102.62","","","","","","NA"
"-123.43","48.65","VICTORIA INTL A","1018621","2022-02-18 18:00","2022","02","18","18:00","7.9","","3.8","","75","","","","13","","6","","48.3","","102.57","","","","","","NA"
"-123.43","48.65","VICTORIA INTL A","1018621","2022-02-18 19:00","2022","02","18","19:00","7.0","","4.8","","86","","","","21","","5","","48.3","","102.52","","","","","","Mostly Cloudy"
"-123.43","48.65","VICTORIA INTL A","1018621","2022-02-18 20:00","2022","02","18","20:00","6.2","","4.4","","88","","","","4","","4","","32.2","","102.46","","","","","","NA"
"-123.43","48.65","VICTORIA INTL A","1018621","2022-02-18 21:00","2022","02","18","21:00","3.2","","3.2","","100","","","","25","","4","","32.2","","102.43","","","","","","NA"
"-123.43","48.65","VICTORIA INTL A","1018621","2022-02-18 22:00","2022","02","18","22:00","2.4","","2.4","","100","","","","36","","2","","32.2","","102.36","","","","","","Mainly Clear"
"-123.43","48.65","VICTORIA INTL A","1018621","2022-02-18 23:00","2022","02","18","23:00","1.7","","1.7","","100","","","","36","","2","","32.2","","102.33","","","","","","NA"
"-123.43","48.65","VICTORIA INTL A","1018621","2022-02-19 00:00","2022","02","19","00:00","1.8","","1.8","","100","","","","23","","6","","24.1","","102.24","","","","","","NA"
"-123.43","48.65","VICTORIA INTL A","1018621","2022-02-19 01:00","2022","02","19","01:00","1.5","","1.5","","100","","","","31","","10","","48.3","","102.16","","","","","","Mostly Cloudy"
"-123.43","48.65","VICTORIA INTL A","1018621","2022-02-19 02:00","2022","02","19","02:00","1.9","","1.9","","100","","","","26","","3","","24.1","","102.05","","","","","","NA"
"-123.43","48.65","VICTORIA INTL A","1018621","2022-02-19 03:00","2022","02","19","03:00","3.0","","3.0","","100","","","","24","","7","","32.2","","101.98","","","","","","NA"
"-123.43","48.65","VICTORIA INTL A","1018621","2022-02-19 04:00","2022","02","19","04:00","2.9","","2.9","","100","","","","30","","3","","32.2","","101.94","","","","","","Mostly Cloudy"
"-123.43","48.65","VICTORIA INTL A","1018621","2022-02-19 05:00","2022","02","19","05:00","2.3","","2.3","","100","","","","36","","3","","32.2","","101.83","","","","","","NA"
"-123.43","48.65","VICTORIA INTL A","1018621","2022-02-19 06:00","2022","02","19","06:00","3.9","","2.7","","92","","","","7","","7","","32.2","","101.74","","","","","","NA"
"-123.43","48.65","VICTORIA INTL A","1018621","2022-02-19 07:00","2022","02","19","07:00","5.7","","1.3","","74","","","","24","","11","","32.2","","101.72","","","","","","Mostly Cloudy"
"-123.43","48.65","VICTORIA INTL A","1018621","2022-02-19 08:00","2022","02","19","08:00","4.9","","2.9","","87","","","","15","","10","","48.3","","101.68","","","","","","NA"
"-123.43","48.65","VICTORIA INTL A","1018621","2022-02-19 09:00","2022","02","19","09:00","6.0","","3.2","","83","","","","17","","12","","48.3","","101.57","","","","","","NA"
"-123.43","48.65","VICTORIA INTL A","1018621","2022-02-19 10:00","2022","02","19","10:00","7.0","","3.2","","77","","","","22","","4","","48.3","","101.53","","","","","","Mostly Cloudy"
"-123.43","48.65","VICTORIA INTL A","1018621","2022-02-19 11:00","2022","02","19","11:00","8.4","","4.5","","77","","","","18","","19","","48.3","","101.45","","","","","","NA"
"-123.43","48.65","VICTORIA INTL A","1018621","2022-02-19 12:00","2022","02","19","12:00","9.1","","4.4","","72","","","","19","","15","","48.3","","101.42","","","","","","NA"
"-123.43","48.65","VICTORIA INTL A","1018621","2022-02-19 13:00","2022","02","19","13:00","11.5","","3.0","","56","","","","22","","30","","48.3","","101.30","","","","","","Mostly Cloudy"
"-123.43","48.65","VICTORIA INTL A","1018621","2022-02-19 14:00","2022","02","19","14:00","11.1","","3.0","","57","","","","23","","30","","48.3","","101.15","","","","","","NA"
"-123.43","48.65","VICTORIA INTL A","1018621","2022-02-19 15:00","2022","02","19","15:00","10.6","","4.7","","66","","","","23","","21","","48.3","","101.13","","","","","","NA"
"-123.43","48.65","VICTORIA INTL A","1018621","2022-02-19 16:00","2022","02","19","16:00","10.4","","4.0","","64","","","","26","","18","","48.3","","101.11","","","","","","Cloudy"
"-123.43","48.65","VICTORIA INTL A","1018621","2022-02-19 17:00","2022","02","19","17:00","9.3","","1.4","","58","","","","27","","28","","48.3","","101.11","","","","","","NA"
"-123.43","48.65","VICTORIA INTL A","1018621","2022-02-19 18:00","2022","02","19","18:00","8.3","","0.4","","57","","","","26","","30","","48.3","","101.09","","","","","","NA"
"-123.43","48.65","VICTORIA INTL A","1018621","2022-02-19 19:00","2022","02","19","19:00","6.9","","0.8","","65","","","","28","","21","","48.3","","101.10","","","","","","Mainly Clear"
"-123.43","48.65","VICTORIA INTL A","1018621","2022-02-19 20:00","2022","02","19","20:00","6.7","","0.7","","66","","","","26","","22","","48.3","","101.12","","","","","","NA"
"-123.43","48.65","VICTORIA INTL A","1018621","2022-02-19 21:00","2022","02","19","21:00","6.4","","1.8","","72","","","","29","","18","","48.3","","101.11","","","","","","NA"
"-123.43","48.65","VICTORIA INTL A","1018621","2022-02-19 22:00","2022","02","19","22:00","6.0","","1.6","","73","","","","26","","11","","32.2","","101.11","","","","","","Mostly Cloudy"
"-123.43","48.65","VICTORIA INTL A","1018621","2022-02-19 23:00","2022","02","19","23:00","4.9","","1.8","","80","","","","26","","9","","32.2","","101.07","","","","","","NA"
"-123.43","48.65","VICTORIA INTL A","1018621","2022-02-20 00:00","2022","02","20","00:00","4.7","","2.1","","83","","","","36","","3","","32.2","","101.06","","","","","","NA"
"-123.43","48.65","VICTORIA INTL A","1018621","2022-02-20 01:00","2022","02","20","01:00","2.6","","1.6","","93","","","","21","","4","","32.2","","101.05","","","","","","Mainly Clear"
"-123.43","48.65","VICTORIA INTL A","1018621","2022-02-20 02:00","2022","02","20","02:00","2.7","","0.2","","84","","","","","","0","","32.2","","101.05","","","","","","NA"
"-123.43","48.65","VICTORIA INTL A","1018621","2022-02-20 03:00","2022","02","20","03:00","0.9","","0.9","","100","","","","36","","2","","32.2","","101.04","","","","","","NA"
"-123.43","48.65","VICTORIA INTL A","1018621","2022-02-20 04:00","2022","02","20","04:00","1.4","","1.4","","100","","","","29","","8","","32.2","","101.01","","","","","","Mostly Cloudy"
"-123.43","48.65","VICTORIA INTL A","1018621","2022-02-20 05:00","2022","02","20","05:00","1.8","","1.8","","100","","","","26","","8","","32.2","","101.02","","","","","","NA"
"-123.43","48.65","VICTORIA INTL A","1018621","2022-02-20 06:00","2022","02","20","06:00","2.8","","2.8","","100","","","","28","","6","","32.2","","101.05","","","","","","NA"
"-123.43","48.65","VICTORIA INTL A","1018621","2022-02-20 07:00","2022","02","20","07:00","3.4","","3.4","","100","","","","26","","12","","48.3","","101.06","","","","","","Mostly Cloudy"
"-123.43","48.65","VICTORIA INTL A","1018621","2022-02-20 08:00","2022","02","20","08:00","3.1","","2.8","","98","","","","27","","5","","48.3","","101.10","","","","","","NA"
"-123.43","48.65","VICTORIA INTL A","1018621","2022-02-20 09:00","2022","02","20","09:00","5.1","","1.8","","79","","","","27","","7","","48.3","","101.11","","","","","","NA"
"-123.43","48.65","VICTORIA INTL A","1018621","2022-02-20 10:00","2022","02","20","10:00","6.1","","1.4","","72","","","","29","","8","","48.3","","101.13","","","","","","Clear"
"-123.43","48.65","VICTORIA INTL A","1018621","2022-02-20 11:00","2022","02","20","11:00","7.9","","-0.8","","54","","","","11","","4","","48.3","","101.15","","","","","","NA"
"-123.43","48.65","VICTORIA INTL A","1018621","2022-02-20 12:00","2022","02","20","12:00","7.5","","1.0","","63","","","","12","","11","","48.3","","101.14","","","","","","NA"
"-123.43","48.65","VICTORIA INTL A","1018621","2022-02-20 13:00","2022","02","20","13:00","7.1","","1.2","","66","","","","12","","12","","48.3","","101.10","","","","","","Mostly Cloudy"
"-123.43","48.65","VICTORIA INTL A","1018621","2022-02-20 14:00","2022","02","20","14:00","7.4","","1.6","","66","","","","12","","10","","48.3","","101.06","","","","","","NA"
"-123.43","48.65","VICTORIA INTL A","1018621","2022-02-20 15:00","2022","02","20","15:00","7.0","","1.6","","68","","","","14","","18","","48.3","","101.05","","","","","","NA"
"-123.43","48.65","VICTORIA INTL A","1018621","2022-02-20 16:00","2022","02","20","16:00","7.2","","1.7","","68","","","","16","","10","","48.3","","101.05","","","","","","Mainly Clear"
"-123.43","48.65","VICTORIA INTL A","1018621","2022-02-20 17:00","2022","02","20","17:00","5.6","","0.4","","69","","","","19","","11","","48.3","","101.02","","","","","","NA"
"-123.43","48.65","VICTORIA INTL A","1018621","2022-02-20 18:00","2022","02","20","18:00","5.6","","-0.8","","63","","","","36","","3","","48.3","","101.00","","","","","","NA"
"-123.43","48.65","VICTORIA INTL A","1018621","2022-02-20 19:00","2022","02","20","19:00","3.2","","0.1","","80","","","","17","","3","","48.3","","101.00","","","","","","Mainly Clear"
"-123.43","48.65","VICTORIA INTL A","1018621","2022-02-20 20:00","2022","02","20","20:00","3.9","","0.2","","77","","","","21","","3","","32.2","","100.98","","","","","","NA"
"-123.43","48.65","VICTORIA INTL A","1018621","2022-02-20 21:00","2022","02","20","21:00","2.7","","2.7","","100","","","","26","","5","","32.2","","100.97","","","","","","Rain"
"-123.43","48.65","VICTORIA INTL A","1018621","2022-02-20 22:00","2022","02","20","22:00","3.6","","2.4","","91","","","","36","","3","","32.2","","101.00","","","","","","Mostly Cloudy"
"-123.43","48.65","VICTORIA INTL A","1018621","2022-02-20 23:00","2022","02","20","23:00","3.4","","2.2","","92","","","","18","","10","","32.2","","100.98","","","","","","NA"
"-123.43","48.65","VICTORIA INTL A","1018621","2022-02-21 00:00","2022","02","21","00:00","3.7","","2.1","","89","","","","29","","16","","32.2","","100.98","","","","","","NA"
"-123.43","48.65","VICTORIA INTL A","1018621","2022-02-21 01:00","2022","02","21","01:00","3.4","","1.5","","87","","","","32","","10","","32.2","","100.90","","","","","","Mostly Cloudy"
"-123.43","48.65","VICTORIA INTL A","1018621","2022-02-21 02:00","2022","02","21","02:00","1.4","","1.4","","100","","","","23","","5","","48.3","","100.92","","","","","","NA"
"-123.43","48.65","VICTORIA INTL A","1018621","2022-02-21 03:00","2022","02","21","03:00","1.5","","1.5","","100","","","","22","","6","","32.2","","100.91","","","","","","NA"
"-123.43","48.65","VICTORIA INTL A","1018621","2022-02-21 04:00","2022","02","21","04:00","2.1","","2.1","","99","","","","23","","6","","32.2","","100.87","","","","","","Mostly Cloudy"
"-123.43","48.65","VICTORIA INTL A","1018621","2022-02-21 05:00","2022","02","21","05:00","3.0","","3.0","","100","","","","35","","10","","9.7","","100.91","","","","","","Rain Showers,Fog"
"-123.43","48.65","VICTORIA INTL A","1018621","2022-02-21 06:00","2022","02","21","06:00","1.5","","1.5","","100","","","","32","","9","","9.7","","100.95","","","","","","Moderate Rain Showers,Moderate Ice Pellet Showers,Fog"
"-123.43","48.65","VICTORIA INTL A","1018621","2022-02-21 07:00","2022","02","21","07:00","1.8","","1.8","","100","","","","8","","30","","11.3","","100.99","","","","","","Rain Showers"
"-123.43","48.65","VICTORIA INTL A","1018621","2022-02-21 08:00","2022","02","21","08:00","2.2","","1.8","","97","","","","32","","11","","48.3","","101.09","","","","","","NA"
"-123.43","48.65","VICTORIA INTL A","1018621","2022-02-21 09:00","2022","02","21","09:00","2.7","","2.7","","100","","","","30","","10","","48.3","","101.15","","","","","","NA"
"-123.43","48.65","VICTORIA INTL A","1018621","2022-02-21 10:00","2022","02","21","10:00","5.3","","-1.2","","63","","","","4","","19","","48.3","","101.17","","","","","","Mostly Cloudy"
"-123.43","48.65","VICTORIA INTL A","1018621","2022-02-21 11:00","2022","02","21","11:00","4.4","","-4.5","","53","","","","2","","21","","48.3","","101.22","","","","","","NA"
"-123.43","48.65","VICTORIA INTL A","1018621","2022-02-21 12:00","2022","02","21","12:00","5.7","","-5.0","","46","","","","2","","22","","48.3","","101.25","","","","","","NA"
"-123.43","48.65","VICTORIA INTL A","1018621","2022-02-21 13:00","2022","02","21","13:00","5.9","","-5.4","","44","","","","2","","22","","48.3","","101.24","","","","","","Mainly Clear"
"-123.43","48.65","VICTORIA INTL A","1018621","2022-02-21 14:00","2022","02","21","14:00","5.7","","-8.0","","37","","","","4","","19","","48.3","","101.26","","","","","","NA"
"-123.43","48.65","VICTORIA INTL A","1018621","2022-02-21 15:00","2022","02","21","15:00","5.0","","-7.5","","40","","","","6","","23","","48.3","","101.28","","","","","","NA"
"-123.43","48.65","VICTORIA INTL A","1018621","2022-02-21 16:00","2022","02","21","16:00","4.5","","-8.1","","40","","","","7","","18","","48.3","","101.35","","","","","","Mainly Clear"
"-123.43","48.65","VICTORIA INTL A","1018621","2022-02-21 17:00","2022","02","21","17:00","3.0","","-8.1","","44","","","","7","","19","","48.3","","101.38","","","","","","NA"
"-123.43","48.65","VICTORIA INTL A","1018621","2022-02-21 18:00","2022","02","21","18:00","2.0","","-9.7","","42","","","","6","","29","","48.3","","101.47","","","","","","NA"
"-123.43","48.65","VICTORIA INTL A","1018621","2022-02-21 19:00","2022","02","21","19:00","1.2","","-9.6","","45","","","","6","","40","","48.3","","101.53","","","","","","Mainly Clear"
"-123.43","48.65","VICTORIA INTL A","1018621","2022-02-21 20:00","2022","02","21","20:00","0.4","","-10.7","","43","","","","4","","31","","48.3","","101.61","","","","","","NA"
"-123.43","48.65","VICTORIA INTL A","1018621","2022-02-21 21:00","2022","02","21","21:00","0.0","","-11.5","","42","","","","2","","13","","48.3","","101.68","","","","-4","","NA"
"-123.43","48.65","VICTORIA INTL A","1018621","2022-02-21 22:00","2022","02","21","22:00","0.2","","-13.9","","34","","","","5","","32","","48.3","","101.77","","","","","","Mainly Clear"
"-123.43","48.65","VICTORIA INTL A","1018621","2022-02-21 23:00","2022","02","21","23:00","-0.2","","-12.8","","38","","","","5","","27","","48.3","","101.87","","","","-6","","NA"
"-123.43","48.65","VICTORIA INTL A","1018621","2022-02-22 00:00","2022","02","22","00:00","-0.6","","-13.1","","39","","","","4","","30","","48.3","","101.93","","","","-7","","NA"
"-123.43","48.65","VICTORIA INTL A","1018621","2022-02-22 01:00","2022","02","22","01:00","-0.9","","-13.2","","39","","","","4","","30","","48.3","","102.01","","","","-8","","Mainly Clear"
"-123.43","48.65","VICTORIA INTL A","1018621","2022-02-22 02:00","2022","02","22","02:00","-1.2","","-13.6","","39","","","","4","","28","","48.3","","102.07","","","","-8","","NA"
"-123.43","48.65","VICTORIA INTL A","1018621","2022-02-22 03:00","2022","02","22","03:00","-1.4","","-14.2","","37","","","","5","","30","","48.3","","102.12","","","","-8","","NA"
"-123.43","48.65","VICTORIA INTL A","1018621","2022-02-22 04:00","2022","02","22","04:00","-1.6","","-14.1","","38","","","","5","","26","","48.3","","102.17","","","","-8","","Mainly Clear"
"-123.43","48.65","VICTORIA INTL A","1018621","2022-02-22 05:00","2022","02","22","05:00","-1.6","","-13.8","","39","","","","4","","31","","48.3","","102.23","","","","-9","","NA"
"-123.43","48.65","VICTORIA INTL A","1018621","2022-02-22 06:00","2022","02","22","06:00","-1.8","","-13.2","","42","","","","5","","21","","48.3","","102.28","","","","-8","","NA"
"-123.43","48.65","VICTORIA INTL A","1018621","2022-02-22 07:00","2022","02","22","07:00","-2.0","","-14.4","","38","","","","3","","32","","32.2","","102.36","","","","-9","","Mainly Clear"
"-123.43","48.65","VICTORIA INTL A","1018621","2022-02-22 08:00","2022","02","22","08:00","-1.9","","-14.5","","38","","","","3","","28","","48.3","","102.44","","","","-9","","NA"
"-123.43","48.65","VICTORIA INTL A","1018621","2022-02-22 09:00","2022","02","22","09:00","-1.7","","-14.5","","37","","","","4","","27","","48.3","","102.53","","","","-8","","NA"
"-123.43","48.65","VICTORIA INTL A","1018621","2022-02-22 10:00","2022","02","22","10:00","-0.7","","-16.5","","30","","","","4","","41","","48.3","","102.59","","","","-8","","Mainly Clear"
"-123.43","48.65","VICTORIA INTL A","1018621","2022-02-22 11:00","2022","02","22","11:00","-0.6","","-15.7","","31","","","","3","","30","","48.3","","102.68","","","","-7","","NA"
"-123.43","48.65","VICTORIA INTL A","1018621","2022-02-22 12:00","2022","02","22","12:00","0.6","","-17.1","","26","","","","4","","34","","48.3","","102.71","","","","","","NA"
"-123.43","48.65","VICTORIA INTL A","1018621","2022-02-22 13:00","2022","02","22","13:00","0.8","","-16.4","","27","","","","4","","29","","48.3","","102.65","","","","","","Mainly Clear"
"-123.43","48.65","VICTORIA INTL A","1018621","2022-02-22 14:00","2022","02","22","14:00","1.3","","-15.9","","27","","","","4","","17","","48.3","","102.65","","","","","","NA"
"-123.43","48.65","VICTORIA INTL A","1018621","2022-02-22 15:00","2022","02","22","15:00","1.7","","-14.1","","30","","","","5","","16","","48.3","","102.67","","","","","","NA"
"-123.43","48.65","VICTORIA INTL A","1018621","2022-02-22 16:00","2022","02","22","16:00","1.2","","-15.4","","28","","","","3","","23","","48.3","","102.73","","","","","","Clear"
"-123.43","48.65","VICTORIA INTL A","1018621","2022-02-22 17:00","2022","02","22","17:00","0.4","","-14.1","","33","","","","8","","26","","48.3","","102.76","","","","","","NA"
"-123.43","48.65","VICTORIA INTL A","1018621","2022-02-22 18:00","2022","02","22","18:00","-0.2","","-14.6","","33","","","","6","","27","","48.3","","102.78","","","","-6","","NA"
"-123.43","48.65","VICTORIA INTL A","1018621","2022-02-22 19:00","2022","02","22","19:00","-0.4","","-14.1","","35","","","","5","","24","","48.3","","102.82","","","","-6","","Clear"
"-123.43","48.65","VICTORIA INTL A","1018621","2022-02-22 20:00","2022","02","22","20:00","-0.3","","-13.6","","36","","","","6","","40","","32.2","","102.84","","","","-8","","NA"
"-123.43","48.65","VICTORIA INTL A","1018621","2022-02-22 21:00","2022","02","22","21:00","-0.7","","-14.0","","36","","","","6","","32","","32.2","","102.84","","","","-8","","NA"
"-123.43","48.65","VICTORIA INTL A","1018621","2022-02-22 22:00","2022","02","22","22:00","-1.0","","-13.8","","37","","","","7","","35","","32.2","","102.91","","","","-8","","Clear"
"-123.43","48.65","VICTORIA INTL A","1018621","2022-02-22 23:00","2022","02","22","23:00","-1.1","","-13.4","","39","","","","6","","34","","32.2","","102.93","","","","-8","","NA"
"-123.43","48.65","VICTORIA INTL A","1018621","2022-02-23 00:00","2022","02","23","00:00","-1.6","","-14.7","","36","","","","6","","32","","32.2","","102.94","","","","-9","","NA"
"-123.43","48.65","VICTORIA INTL A","1018621","2022-02-23 01:00","2022","02","23","01:00","-1.7","","-14.4","","37","","","","5","","22","","32.2","","102.97","","","","-8","","Clear"
"-123.43","48.65","VICTORIA INTL A","1018621","2022-02-23 02:00","2022","02","23","02:00","-1.9","","-14.2","","39","","","","7","","26","","32.2","","102.96","","","","-8","","NA"
"-123.43","48.65","VICTORIA INTL A","1018621","2022-02-23 03:00","2022","02","23","03:00","-1.9","","-14.3","","38","","","","9","","24","","32.2","","102.96","","","","-8","","NA"
"-123.43","48.65","VICTORIA INTL A","1018621","2022-02-23 04:00","2022","02","23","04:00","-1.8","","-14.5","","38","","","","7","","17","","32.2","","102.94","","","","-7","","Mostly Cloudy"
"-123.43","48.65","VICTORIA INTL A","1018621","2022-02-23 05:00","2022","02","23","05:00","-1.7","","-13.0","","42","","","","8","","15","","32.2","","102.92","","","","-7","","NA"
"-123.43","48.65","VICTORIA INTL A","1018621","2022-02-23 06:00","2022","02","23","06:00","-2.4","","-12.4","","46","","","","7","","8","","48.3","","102.92","","","","-6","","NA"
"-123.43","48.65","VICTORIA INTL A","1018621","2022-02-23 07:00","2022","02","23","07:00","-4.8","","-11.8","","58","","","","21","","3","","48.3","","102.89","","","","-6","","Clear"
"-123.43","48.65","VICTORIA INTL A","1018621","2022-02-23 08:00","2022","02","23","08:00","-3.3","","-10.3","","58","","","","30","","8","","48.3","","102.90","","","","-7","","NA"
"-123.43","48.65","VICTORIA INTL A","1018621","2022-02-23 09:00","2022","02","23","09:00","-1.1","","-11.0","","47","","","","31","","11","","48.3","","102.92","","","","-5","","NA"
"-123.43","48.65","VICTORIA INTL A","1018621","2022-02-23 10:00","2022","02","23","10:00","0.0","","-11.1","","43","","","","30","","8","","48.3","","102.90","","","","-3","","Clear"
"-123.43","48.65","VICTORIA INTL A","1018621","2022-02-23 11:00","2022","02","23","11:00","1.0","","-14.9","","30","","","","9","","10","","48.3","","102.84","","","","","","NA"
"-123.43","48.65","VICTORIA INTL A","1018621","2022-02-23 12:00","2022","02","23","12:00","1.4","","-12.6","","35","","","","11","","8","","48.3","","102.81","","","","","","NA"
"-123.43","48.65","VICTORIA INTL A","1018621","2022-02-23 13:00","2022","02","23","13:00","1.9","","-12.7","","33","","","","10","","11","","48.3","","102.73","","","","","","Mainly Clear"
"-123.43","48.65","VICTORIA INTL A","1018621","2022-02-23 14:00","2022","02","23","14:00","2.1","","-9.3","","43","","","","12","","10","","48.3","","102.67","","","","","","NA"
"-123.43","48.65","VICTORIA INTL A","1018621","2022-02-23 15:00","2022","02","23","15:00","1.9","","-10.0","","41","","","","11","","13","","48.3","","102.62","","","","","","NA"
"-123.43","48.65","VICTORIA INTL A","1018621","2022-02-23 16:00","2022","02","23","16:00","1.8","","-7.7","","49","","","","12","","16","","48.3","","102.60","","","","","","Mostly Cloudy"
"-123.43","48.65","VICTORIA INTL A","1018621","2022-02-23 17:00","2022","02","23","17:00","1.8","","-7.9","","49","","","","13","","13","","48.3","","102.54","","","","","","NA"
"-123.43","48.65","VICTORIA INTL A","1018621","2022-02-23 18:00","2022","02","23","18:00","1.8","","-7.3","","51","","","","13","","12","","48.3","","102.50","","","","","","NA"
"-123.43","48.65","VICTORIA INTL A","1018621","2022-02-23 19:00","2022","02","23","19:00","1.7","","-6.5","","55","","","","15","","8","","32.2","","102.43","","","","","","Cloudy"
"-123.43","48.65","VICTORIA INTL A","1018621","2022-02-23 20:00","2022","02","23","20:00","1.4","","-5.7","","60","","","","16","","3","","32.2","","102.39","","","","","","NA"
"-123.43","48.65","VICTORIA INTL A","1018621","2022-02-23 21:00","2022","02","23","21:00","0.4","","-5.1","","67","","","","23","","7","","24.1","","102.38","","","","","","NA"
"-123.43","48.65","VICTORIA INTL A","1018621","2022-02-23 22:00","2022","02","23","22:00","0.7","","-4.3","","69","","","","23","","6","","24.1","","102.43","","","","","","Cloudy"
"-123.43","48.65","VICTORIA INTL A","1018621","2022-02-23 23:00","2022","02","23","23:00","1.5","","0.0","","89","","","","4","","9","","16.1","","102.47","","","","","","Snow"
"-123.43","48.65","VICTORIA INTL A","1018621","2022-02-24 00:00","2022","02","24","00:00","0.8","","0.8","","100","","","","6","","12","","16.1","","102.47","","","","","","Snow"
"-123.43","48.65","VICTORIA INTL A","1018621","2022-02-24 01:00","2022","02","24","01:00","0.3","","0.3","","100","","","","34","","10","","4.8","","102.53","","","","","","Snow"
"-123.43","48.65","VICTORIA INTL A","1018621","2022-02-24 02:00","2022","02","24","02:00","0.0","","0.0","","100","","","","36","","1","","4.8","","102.56","","","","0","","Snow"
"-123.43","48.65","VICTORIA INTL A","1018621","2022-02-24 03:00","2022","02","24","03:00","0.1","","0.1","","100","","","","10","","11","","4.8","","102.59","","","","","","Snow"
"-123.43","48.65","VICTORIA INTL A","1018621","2022-02-24 04:00","2022","02","24","04:00","-0.2","","-0.2","","100","","","","31","","3","","6.4","","102.65","","","","-1","","Snow"
"-123.43","48.65","VICTORIA INTL A","1018621","2022-02-24 05:00","2022","02","24","05:00","0.2","","-0.9","","92","","","","7","","9","","24.1","","102.70","","","","","","NA"
"-123.43","48.65","VICTORIA INTL A","1018621","2022-02-24 06:00","2022","02","24","06:00","0.1","","-1.2","","91","","","","2","","8","","24.1","","102.74","","","","","","NA"
"-123.43","48.65","VICTORIA INTL A","1018621","2022-02-24 07:00","2022","02","24","07:00","-0.4","","-1.3","","93","","","","4","","10","","32.2","","102.78","","","","-4","","Mostly Cloudy"
"-123.43","48.65","VICTORIA INTL A","1018621","2022-02-24 08:00","2022","02","24","08:00","0.0","","-1.8","","87","","","","6","","7","","32.2","","102.84","","","","-2","","NA"
"-123.43","48.65","VICTORIA INTL A","1018621","2022-02-24 09:00","2022","02","24","09:00","0.7","","-2.3","","81","","","","36","","3","","32.2","","102.92","","","","","","NA"
"-123.43","48.65","VICTORIA INTL A","1018621","2022-02-24 10:00","2022","02","24","10:00","1.5","","-4.2","","66","","","","35","","3","","48.3","","102.96","","","","","","Mainly Clear"
"-123.43","48.65","VICTORIA INTL A","1018621","2022-02-24 11:00","2022","02","24","11:00","2.4","","-3.5","","65","","","","1","","9","","48.3","","102.99","","","","","","NA"
"-123.43","48.65","VICTORIA INTL A","1018621","2022-02-24 12:00","2022","02","24","12:00","3.1","","-3.0","","64","","","","1","","6","","48.3","","102.96","","","","","","NA"
"-123.43","48.65","VICTORIA INTL A","1018621","2022-02-24 13:00","2022","02","24","13:00","3.8","","-3.5","","59","","","","8","","13","","48.3","","102.93","","","","","","Clear"
"-123.43","48.65","VICTORIA INTL A","1018621","2022-02-24 14:00","2022","02","24","14:00","3.6","","-2.9","","62","","","","10","","10","","48.3","","102.91","","","","","","NA"
"-123.43","48.65","VICTORIA INTL A","1018621","2022-02-24 15:00","2022","02","24","15:00","3.7","","-4.9","","53","","","","13","","9","","48.3","","102.91","","","","","","NA"
"-123.43","48.65","VICTORIA INTL A","1018621","2022-02-24 16:00","2022","02","24","16:00","3.7","","-7.3","","45","","","","8","","9","","48.3","","102.91","","","","","","Clear"
"-123.43","48.65","VICTORIA INTL A","1018621","2022-02-24 17:00","2022","02","24","17:00","3.1","","-6.0","","51","","","","13","","7","","48.3","","102.88","","","","","","NA"
"-123.43","48.65","VICTORIA INTL A","1018621","2022-02-24 18:00","2022","02","24","18:00","0.8","","-5.1","","65","","","","15","","7","","48.3","","102.88","","","","","","NA"
"-123.43","48.65","VICTORIA INTL A","1018621","2022-02-24 19:00","2022","02","24","19:00","1.1","","-5.2","","63","","","","17","","8","","48.3","","102.90","","","","","","Clear"
"-123.43","48.65","VICTORIA INTL A","1018621","2022-02-24 20:00","2022","02","24","20:00","0.7","","-4.5","","68","","","","36","","1","","48.3","","102.91","","","","","","NA"
"-123.43","48.65","VICTORIA INTL A","1018621","2022-02-24 21:00","2022","02","24","21:00","-1.6","","-4.6","","80","","","","36","","3","","48.3","","102.91","","","","-3","","NA"
"-123.43","48.65","VICTORIA INTL A","1018621","2022-02-24 22:00","2022","02","24","22:00","-2.1","","-3.7","","89","","","","25","","3","","48.3","","102.93","","","","-3","","Clear"
"-123.43","48.65","VICTORIA INTL A","1018621","2022-02-24 23:00","2022","02","24","23:00","-2.9","","-3.4","","96","","","","24","","8","","48.3","","102.96","","","","-6","","NA"
"-123.43","48.65","VICTORIA INTL A","1018621","2022-02-25 00:00","2022","02","25","00:00","-3.4","","-3.4","","100","","","","24","","9","","48.3","","102.97","","","","-7","","NA"
"-123.43","48.65","VICTORIA INTL A","1018621","2022-02-25 01:00","2022","02","25","01:00","-2.7","","-3.8","","92","","","","27","","9","","48.3","","102.99","","","","-6","","Clear"
"-123.43","48.65","VICTORIA INTL A","1018621","2022-02-25 02:00","2022","02","25","02:00","-3.8","","-3.8","","100","","","","25","","5","","48.3","","103.01","","","","-6","","NA"
"-123.43","48.65","VICTORIA INTL A","1018621","2022-02-25 03:00","2022","02","25","03:00","-3.2","","-3.2","","100","","","","25","","7","","48.3","","103.00","","","","-6","","NA"
"-123.43","48.65","VICTORIA INTL A","1018621","2022-02-25 04:00","2022","02","25","04:00","-2.5","","-2.5","","100","","","","24","","7","","48.3","","102.98","","","","-5","","Mostly Cloudy"
"-123.43","48.65","VICTORIA INTL A","1018621","2022-02-25 05:00","2022","02","25","05:00","-1.4","","-1.4","","100","","","","27","","3","","24.1","","102.98","","","","-2","","NA"
"-123.43","48.65","VICTORIA INTL A","1018621","2022-02-25 06:00","2022","02","25","06:00","-0.9","","-1.0","","99","","","","28","","9","","48.3","","102.98","","","","-4","","NA"
"-123.43","48.65","VICTORIA INTL A","1018621","2022-02-25 07:00","2022","02","25","07:00","-0.9","","-1.3","","97","","","","25","","7","","48.3","","102.97","","","","-3","","Mostly Cloudy"
"-123.43","48.65","VICTORIA INTL A","1018621","2022-02-25 08:00","2022","02","25","08:00","0.0","","-0.8","","94","","","","29","","7","","48.3","","102.98","","","","-2","","NA"
"-123.43","48.65","VICTORIA INTL A","1018621","2022-02-25 09:00","2022","02","25","09:00","0.9","","-0.7","","89","","","","28","","6","","48.3","","102.98","","","","","","NA"
"-123.43","48.65","VICTORIA INTL A","1018621","2022-02-25 10:00","2022","02","25","10:00","1.9","","-0.6","","83","","","","28","","5","","48.3","","102.93","","","","","","Mostly Cloudy"
"-123.43","48.65","VICTORIA INTL A","1018621","2022-02-25 11:00","2022","02","25","11:00","4.2","","-0.4","","72","","","","30","","12","","48.3","","102.89","","","","","","NA"
"-123.43","48.65","VICTORIA INTL A","1018621","2022-02-25 12:00","2022","02","25","12:00","3.5","","-1.2","","71","","","","29","","5","","48.3","","102.86","","","","","","NA"
"-123.43","48.65","VICTORIA INTL A","1018621","2022-02-25 13:00","2022","02","25","13:00","4.2","","-2.0","","64","","","","29","","8","","48.3","","102.80","","","","","","Mainly Clear"
"-123.43","48.65","VICTORIA INTL A","1018621","2022-02-25 14:00","2022","02","25","14:00","5.2","","-2.8","","57","","","","9","","5","","48.3","","102.75","","","","","","NA"
"-123.43","48.65","VICTORIA INTL A","1018621","2022-02-25 15:00","2022","02","25","15:00","5.7","","-3.2","","53","","","","8","","14","","48.3","","102.68","","","","","","NA"
"-123.43","48.65","VICTORIA INTL A","1018621","2022-02-25 16:00","2022","02","25","16:00","5.1","","-4.0","","52","","","","5","","8","","48.3","","102.66","","","","","","Mainly Clear"
"-123.43","48.65","VICTORIA INTL A","1018621","2022-02-25 17:00","2022","02","25","17:00","4.1","","-3.0","","60","","","","6","","10","","48.3","","102.59","","","","","","NA"
"-123.43","48.65","VICTORIA INTL A","1018621","2022-02-25 18:00","2022","02","25","18:00","3.5","","-2.2","","66","","","","9","","5","","48.3","","102.52","","","","","","NA"
"-123.43","48.65","VICTORIA INTL A","1018621","2022-02-25 19:00","2022","02","25","19:00","-1.0","","-2.2","","91","","","","23","","6","","48.3","","102.44","","","","-3","","Mainly Clear"
"-123.43","48.65","VICTORIA INTL A","1018621","2022-02-25 20:00","2022","02","25","20:00","-1.4","","-2.0","","95","","","","25","","9","","48.3","","102.43","","","","-5","","NA"
"-123.43","48.65","VICTORIA INTL A","1018621","2022-02-25 21:00","2022","02","25","21:00","-1.3","","-1.8","","96","","","","26","","11","","48.3","","102.42","","","","-5","","NA"
"-123.43","48.65","VICTORIA INTL A","1018621","2022-02-25 22:00","2022","02","25","22:00","-1.0","","-2.0","","93","","","","26","","9","","48.3","","102.39","","","","-4","","Mainly Clear"
"-123.43","48.65","VICTORIA INTL A","1018621","2022-02-25 23:00","2022","02","25","23:00","-0.9","","-2.0","","93","","","","27","","10","","48.3","","102.33","","","","-4","","NA"
"-123.43","48.65","VICTORIA INTL A","1018621","2022-02-26 00:00","2022","02","26","00:00","-1.3","","-2.0","","95","","","","25","","8","","48.3","","102.32","","","","-4","","NA"
"-123.43","48.65","VICTORIA INTL A","1018621","2022-02-26 01:00","2022","02","26","01:00","-1.1","","-2.0","","93","","","","28","","8","","48.3","","102.24","","","","-4","","Mostly Cloudy"
"-123.43","48.65","VICTORIA INTL A","1018621","2022-02-26 02:00","2022","02","26","02:00","-0.8","","-1.6","","95","","","","25","","8","","48.3","","102.18","","","","-4","","NA"
"-123.43","48.65","VICTORIA INTL A","1018621","2022-02-26 03:00","2022","02","26","03:00","-1.1","","-1.9","","94","","","","25","","8","","48.3","","102.12","","","","-4","","NA"
"-123.43","48.65","VICTORIA INTL A","1018621","2022-02-26 04:00","2022","02","26","04:00","-0.8","","-1.3","","96","","","","26","","5","","48.3","","102.07","","","","-2","","Mostly Cloudy"
"-123.43","48.65","VICTORIA INTL A","1018621","2022-02-26 05:00","2022","02","26","05:00","-0.8","","-1.5","","95","","","","26","","8","","48.3","","102.02","","","","-4","","NA"
"-123.43","48.65","VICTORIA INTL A","1018621","2022-02-26 06:00","2022","02","26","06:00","0.2","","-0.5","","95","","","","26","","10","","48.3","","101.98","","","","","","NA"
"-123.43","48.65","VICTORIA INTL A","1018621","2022-02-26 07:00","2022","02","26","07:00","0.7","","-1.2","","87","","","","26","","5","","48.3","","101.92","","","","","","Mostly Cloudy"
"-123.43","48.65","VICTORIA INTL A","1018621","2022-02-26 08:00","2022","02","26","08:00","1.1","","-0.5","","89","","","","26","","7","","48.3","","101.91","","","","","","NA"
"-123.43","48.65","VICTORIA INTL A","1018621","2022-02-26 09:00","2022","02","26","09:00","2.0","","0.2","","88","","","","25","","9","","48.3","","101.94","","","","","","NA"
"-123.43","48.65","VICTORIA INTL A","1018621","2022-02-26 10:00","2022","02","26","10:00","2.9","","-0.6","","78","","","","0","","1","","48.3","","101.86","","","","","","Mostly Cloudy"
"-123.43","48.65","VICTORIA INTL A","1018621","2022-02-26 11:00","2022","02","26","11:00","4.2","","-0.1","","73","","","","26","","7","","48.3","","101.83","","","","","","NA"
"-123.43","48.65","VICTORIA INTL A","1018621","2022-02-26 12:00","2022","02","26","12:00","5.6","","-1.4","","61","","","","5","","15","","48.3","","101.76","","","","","","NA"
"-123.43","48.65","VICTORIA INTL A","1018621","2022-02-26 13:00","2022","02","26","13:00","5.9","","-1.6","","58","","","","5","","15","","48.3","","101.66","","","","","","Mostly Cloudy"
"-123.43","48.65","VICTORIA INTL A","1018621","2022-02-26 14:00","2022","02","26","14:00","5.8","","-0.7","","63","","","","30","","13","","48.3","","101.66","","","","","","NA"
"-123.43","48.65","VICTORIA INTL A","1018621","2022-02-26 15:00","2022","02","26","15:00","3.9","","2.0","","87","","","","30","","18","","24.1","","101.60","","","","","","Rain"
"-123.43","48.65","VICTORIA INTL A","1018621","2022-02-26 16:00","2022","02","26","16:00","3.0","","3.0","","100","","","","29","","23","","19.3","","101.54","","","","","","Rain"
"-123.43","48.65","VICTORIA INTL A","1018621","2022-02-26 17:00","2022","02","26","17:00","2.8","","2.8","","100","","","","25","","12","","16.1","","101.50","","","","","","Rain"
"-123.43","48.65","VICTORIA INTL A","1018621","2022-02-26 18:00","2022","02","26","18:00","2.9","","2.9","","100","","","","25","","6","","16.1","","101.46","","","","","","Rain"
"-123.43","48.65","VICTORIA INTL A","1018621","2022-02-26 19:00","2022","02","26","19:00","6.0","","4.8","","92","","","","12","","23","","19.3","","101.37","","","","","","Rain"
"-123.43","48.65","VICTORIA INTL A","1018621","2022-02-26 20:00","2022","02","26","20:00","6.2","","5.3","","94","","","","11","","25","","12.9","","101.35","","","","","","Moderate Rain Showers"
"-123.43","48.65","VICTORIA INTL A","1018621","2022-02-26 21:00","2022","02","26","21:00","6.1","","5.7","","97","","","","13","","22","","9.7","","101.33","","","","","","Rain Showers,Fog"
"-123.43","48.65","VICTORIA INTL A","1018621","2022-02-26 22:00","2022","02","26","22:00","6.5","","6.5","","100","","","","13","","32","","9.7","","101.27","","","","","","Rain Showers,Fog"
"-123.43","48.65","VICTORIA INTL A","1018621","2022-02-26 23:00","2022","02","26","23:00","6.8","","6.8","","100","","","","14","","28","","16.1","","101.25","","","","","","NA"
"-123.43","48.65","VICTORIA INTL A","1018621","2022-02-27 00:00","2022","02","27","00:00","6.7","","6.7","","100","","","","15","","28","","16.1","","101.27","","","","","","NA"
"-123.43","48.65","VICTORIA INTL A","1018621","2022-02-27 01:00","2022","02","27","01:00","6.7","","6.7","","100","","","","14","","29","","16.1","","101.24","","","","","","Rain"
"-123.43","48.65","VICTORIA INTL A","1018621","2022-02-27 02:00","2022","02","27","02:00","7.0","","7.0","","100","","","","14","","27","","19.3","","101.21","","","","","","NA"
"-123.43","48.65","VICTORIA INTL A","1018621","2022-02-27 03:00","2022","02","27","03:00","7.3","","7.3","","100","","","","14","","22","","19.3","","101.18","","","","","","NA"
"-123.43","48.65","VICTORIA INTL A","1018621","2022-02-27 04:00","2022","02","27","04:00","6.7","","6.7","","100","","","","24","","5","","12.9","","101.15","","","","","","Rain"
"-123.43","48.65","VICTORIA INTL A","1018621","2022-02-27 05:00","2022","02","27","05:00","5.8","","5.8","","100","","","","32","","4","","12.9","","101.09","","","","","","Rain"
"-123.43","48.65","VICTORIA INTL A","1018621","2022-02-27 06:00","2022","02","27","06:00","6.8","","6.8","","100","","","","16","","8","","24.1","","101.14","","","","","","NA"
"-123.43","48.65","VICTORIA INTL A","1018621","2022-02-27 07:00","2022","02","27","07:00","6.5","","6.5","","100","","","","16","","10","","12.9","","101.22","","","","","","Moderate Rain"
"-123.43","48.65","VICTORIA INTL A","1018621","2022-02-27 08:00","2022","02","27","08:00","7.6","","5.0","","83","","","","22","","16","","48.3","","101.35","","","","","","NA"
"-123.43","48.65","VICTORIA INTL A","1018621","2022-02-27 09:00","2022","02","27","09:00","9.2","","6.1","","81","","","","23","","20","","48.3","","101.53","","","","","","NA"
"-123.43","48.65","VICTORIA INTL A","1018621","2022-02-27 10:00","2022","02","27","10:00","10.4","","4.8","","68","","","","25","","17","","48.3","","101.63","","","","","","Mainly Clear"
"-123.43","48.65","VICTORIA INTL A","1018621","2022-02-27 11:00","2022","02","27","11:00","10.6","","4.9","","68","","","","26","","6","","48.3","","101.71","","","","","","NA"
"-123.43","48.65","VICTORIA INTL A","1018621","2022-02-27 12:00","2022","02","27","12:00","11.8","","4.4","","61","","","","22","","18","","48.3","","101.73","","","","","","NA"
"-123.43","48.65","VICTORIA INTL A","1018621","2022-02-27 13:00","2022","02","27","13:00","8.8","","7.6","","92","","","","15","","16","","48.3","","101.73","","","","","","Mostly Cloudy"
"-123.43","48.65","VICTORIA INTL A","1018621","2022-02-27 14:00","2022","02","27","14:00","8.9","","6.8","","87","","","","13","","14","","48.3","","101.73","","","","","","NA"
"-123.43","48.65","VICTORIA INTL A","1018621","2022-02-27 15:00","2022","02","27","15:00","9.7","","5.7","","76","","","","11","","9","","48.3","","101.63","","","","","","NA"
"-123.43","48.65","VICTORIA INTL A","1018621","2022-02-27 16:00","2022","02","27","16:00","9.2","","6.7","","84","","","","10","","6","","32.2","","101.54","","","","","","Cloudy"
"-123.43","48.65","VICTORIA INTL A","1018621","2022-02-27 17:00","2022","02","27","17:00","8.6","","8.6","","100","","","","8","","5","","24.1","","101.43","","","","","","Rain"
"-123.43","48.65","VICTORIA INTL A","1018621","2022-02-27 18:00","2022","02","27","18:00","8.6","","8.6","","100","","","","11","","11","","19.3","","101.34","","","","","","Rain"
"-123.43","48.65","VICTORIA INTL A","1018621","2022-02-27 19:00","2022","02","27","19:00","8.4","","8.4","","100","","","","13","","21","","19.3","","101.24","","","","","","Rain"
"-123.43","48.65","VICTORIA INTL A","1018621","2022-02-27 20:00","2022","02","27","20:00","8.0","","8.0","","100","","","","13","","15","","12.9","","101.19","","","","","","Rain"
"-123.43","48.65","VICTORIA INTL A","1018621","2022-02-27 21:00","2022","02","27","21:00","7.9","","7.9","","100","","","","14","","19","","9.7","","101.10","","","","","","Moderate Rain,Fog"
"-123.43","48.65","VICTORIA INTL A","1018621","2022-02-27 22:00","2022","02","27","22:00","7.7","","7.7","","100","","","","14","","16","","9.7","","101.06","","","","","","Moderate Rain,Fog"
"-123.43","48.65","VICTORIA INTL A","1018621","2022-02-27 23:00","2022","02","27","23:00","8.0","","8.0","","100","","","","15","","14","","8.1","","101.04","","","","","","Moderate Rain,Fog"
"-123.43","48.65","VICTORIA INTL A","1018621","2022-02-28 00:00","2022","02","28","00:00","7.9","","7.9","","100","","","","14","","16","","8.1","","100.91","","","","","","Moderate Rain,Fog"
"-123.43","48.65","VICTORIA INTL A","1018621","2022-02-28 01:00","2022","02","28","01:00","8.1","","8.1","","100","","","","16","","24","","9.7","","100.95","","","","","","Rain,Fog"
"-123.43","48.65","VICTORIA INTL A","1018621","2022-02-28 02:00","2022","02","28","02:00","8.4","","8.4","","100","","","","15","","18","","16.1","","100.88","","","","","","Rain,Fog"
"-123.43","48.65","VICTORIA INTL A","1018621","2022-02-28 03:00","2022","02","28","03:00","8.4","","8.4","","100","","","","17","","17","","24.1","","100.80","","","","","","NA"
"-123.43","48.65","VICTORIA INTL A","1018621","2022-02-28 04:00","2022","02","28","04:00","8.3","","8.3","","100","","","","16","","11","","24.1","","100.81","","","","","","Cloudy"
"-123.43","48.65","VICTORIA INTL A","1018621","2022-02-28 05:00","2022","02","28","05:00","7.7","","7.7","","100","","","","13","","7","","32.2","","100.78","","","","","","NA"
"-123.43","48.65","VICTORIA INTL A","1018621","2022-02-28 06:00","2022","02","28","06:00","7.1","","7.1","","100","","","","8","","11","","32.2","","100.78","","","","","","NA"
"-123.43","48.65","VICTORIA INTL A","1018621","2022-02-28 07:00","2022","02","28","07:00","7.7","","7.7","","100","","","","9","","12","","32.2","","100.79","","","","","","Cloudy"
"-123.43","48.65","VICTORIA INTL A","1018621","2022-02-28 08:00","2022","02","28","08:00","8.3","","8.2","","99","","","","14","","13","","32.2","","100.83","","","","","","NA"
"-123.43","48.65","VICTORIA INTL A","1018621","2022-02-28 09:00","2022","02","28","09:00","8.8","","7.6","","92","","","","14","","9","","32.2","","100.88","","","","","","NA"
"-123.43","48.65","VICTORIA INTL A","1018621","2022-02-28 10:00","2022","02","28","10:00","9.0","","9.0","","100","","","","15","","17","","24.1","","100.89","","","","","","Rain"
"-123.43","48.65","VICTORIA INTL A","1018621","2022-02-28 11:00","2022","02","28","11:00","9.2","","9.2","","100","","","","14","","8","","19.3","","100.94","","","","","","Rain"
"-123.43","48.65","VICTORIA INTL A","1018621","2022-02-28 12:00","2022","02","28","12:00","8.6","","8.6","","100","","","","12","","7","","11.3","","100.96","","","","","","Rain"
"-123.43","48.65","VICTORIA INTL A","1018621","2022-02-28 13:00","2022","02","28","13:00","8.0","","8.0","","100","","","","9","","6","","11.3","","100.92","","","","","","Rain"
"-123.43","48.65","VICTORIA INTL A","1018621","2022-02-28 14:00","2022","02","28","14:00","8.3","","8.3","","100","","","","36","","2","","9.7","","100.91","","","","","","Moderate Rain,Fog"
"-123.43","48.65","VICTORIA INTL A","1018621","2022-02-28 15:00","2022","02","28","15:00","8.1","","8.1","","100","","","","7","","5","","11.3","","100.88","","","","","","Rain"
"-123.43","48.65","VICTORIA INTL A","1018621","2022-02-28 16:00","2022","02","28","16:00","8.1","","8.1","","100","","","","4","","8","","11.3","","100.85","","","","","","Rain"
"-123.43","48.65","VICTORIA INTL A","1018621","2022-02-28 17:00","2022","02","28","17:00","8.1","","8.1","","100","","","","36","","2","","16.1","","100.84","","","","","","Rain"
"-123.43","48.65","VICTORIA INTL A","1018621","2022-02-28 18:00","2022","02","28","18:00","7.6","","7.6","","100","","","","36","","1","","6.4","","100.83","","","","","","Rain,Fog"
"-123.43","48.65","VICTORIA INTL A","1018621","2022-02-28 19:00","2022","02","28","19:00","7.3","","7.3","","100","","","","27","","5","","8.1","","100.89","","","","","","Rain,Fog"
"-123.43","48.65","VICTORIA INTL A","1018621","2022-02-28 20:00","2022","02","28","20:00","7.3","","7.3","","100","","","","7","","5","","12.9","","100.86","","","","","","NA"
"-123.43","48.65","VICTORIA INTL A","1018621","2022-02-28 21:00","2022","02","28","21:00","7.2","","7.2","","100","","","","9","","11","","6.4","","100.92","","","","","","Fog"
"-123.43","48.65","VICTORIA INTL A","1018621","2022-02-28 22:00","2022","02","28","22:00","7.3","","7.3","","100","","","","15","","10","","8.1","","101.00","","","","","","Fog"
"-123.43","48.65","VICTORIA INTL A","1018621","2022-02-28 23:00","2022","02","28","23:00","7.4","","7.4","","100","","","","14","","18","","9.7","","101.03","","","","","","Fog"
