"Longitude (x)","Latitude (y)","Station Name","Climate ID","Date/Time (LST)","Year","Month","Day","Time (LST)","Temp (°C)","Temp Flag","Dew Point Temp (°C)","Dew Point Temp Flag","Rel Hum (%)","Rel Hum Flag","Precip. Amount (mm)","Precip. Amount Flag","Wind Dir (10s deg)","Wind Dir Flag","Wind Spd (km/h)","Wind Spd Flag","Visibility (km)","Visibility Flag","Stn Press (kPa)","Stn Press Flag","Hmdx","Hmdx Flag","Wind Chill","Wind Chill Flag","Weather"
"-85.83","47.33","CARIBOU ISLAND (AUT)","6041222","2023-03-01 00:00","2023","03","01","00:00","1.4","","-3.6","","69","","0.0","","29","","37","","","","98.91","","","","","","NA"
"-85.83","47.33","CARIBOU ISLAND (AUT)","6041222","2023-03-01 01:00","2023","03","01","01:00","1.2","","-3.5","","71","","0.0","","30","","32","","","","98.94","","","","","","NA"
"-85.83","47.33","CARIBOU ISLAND (AUT)","6041222","2023-03-01 02:00","2023","03","01","02:00","0.9","","-4.1","","69","","0.0","","31","","23","","","","98.98","","","","","","NA"
"-85.83","47.33","CARIBOU ISLAND (AUT)","6041222","2023-03-01 03:00","2023","03","01","03:00","0.8","","-5.8","","61","","0.0","","31","","22","","","","99.00","","","","","","NA"
"-85.83","47.33","CARIBOU ISLAND (AUT)","6041222","2023-03-01 04:00","2023","03","01","04:00","0.3","","-4.8","","69","","","","31","","14","","","","98.98","","","","","","NA"
"-85.83","47.33","CARIBOU ISLAND (AUT)","6041222","2023-03-01 05:00","2023","03","01","05:00","-0.5","","-5.7","","68","","","","33","","18","","","","98.97","","","","-6","","NA"
"-85.83","47.33","CARIBOU ISLAND (AUT)","6041222","2023-03-01 06:00","2023","03","01","06:00","-0.8","","-5.8","","69","","","","1","","15","","","","98.97","","","","-5","","NA"
"-85.83","47.33","CARIBOU ISLAND (AUT)","6041222","2023-03-01 07:00","2023","03","01","07:00","-1.1","","-6.5","","67","","","","2","","13","","","","99.01","","","","-5","","NA"
"-85.83","47.33","CARIBOU ISLAND (AUT)","6041222","2023-03-01 08:00","2023","03","01","08:00","-1.3","","-7.0","","65","","","","3","","10","","","","99.04","","","","-5","","NA"
"-85.83","47.33","CARIBOU ISLAND (AUT)","6041222","2023-03-01 09:00","2023","03","01","09:00","-1.1","","-6.1","","69","","","","4","","15","","","","99.08","","","","-6","","NA"
"-85.83","47.33","CARIBOU ISLAND (AUT)","6041222","2023-03-01 10:00","2023","03","01","10:00","-1.0","","-6.8","","65","","","","4","","17","","","","99.08","","","","-6","","NA"
"-85.83","47.33","CARIBOU ISLAND (AUT)","6041222","2023-03-01 11:00","2023","03","01","11:00","-0.7","","-5.5","","70","","","","5","","20","","","","99.06","","","","-6","","NA"
"-85.83","47.33","CARIBOU ISLAND (AUT)","6041222","2023-03-01 12:00","2023","03","01","12:00","-0.9","","-6.6","","65","","","","4","","21","","","","99.09","","","","-7","","NA"
"-85.83","47.33","CARIBOU ISLAND (AUT)","6041222","2023-03-01 13:00","2023","03","01","13:00","-0.9","","-7.3","","62","","","","4","","21","","","","99.07","","","","-7","","NA"
"-85.83","47.33","CARIBOU ISLAND (AUT)","6041222","2023-03-01 14:00","2023","03","01","14:00","-1.2","","-7.3","","63","","","","3","","19","","","","99.05","","","","-7","","NA"
"-85.83","47.33","CARIBOU ISLAND (AUT)","6041222","2023-03-01 15:00","2023","03","01","15:00","-1.5","","-7.1","","66","","","","1","","21","","","","99.02","","","","-7","","NA"
"-85.83","47.33","CARIBOU ISLAND (AUT)","6041222","2023-03-01 16:00","2023","03","01","16:00","-1.5","","-7.3","","65","","","","1","","21","","","","99.00","","","","-7","","NA"
"-85.83","47.33","CARIBOU ISLAND (AUT)","6041222","2023-03-01 17:00","2023","03","01","17:00","-1.5","","-6.0","","72","","","","1","","20","","","","98.96","","","","-7","","NA"
"-85.83","47.33","CARIBOU ISLAND (AUT)","6041222","2023-03-01 18:00","2023","03","01","18:00","-2.0","","-6.8","","69","","","","1","","20","","","","98.95","","","","-8","","NA"
"-85.83","47.33","CARIBOU ISLAND (AUT)","6041222","2023-03-01 19:00","2023","03","01","19:00","-2.2","","-6.2","","74","","","","2","","18","","","","98.96","","","","-8","","NA"
"-85.83","47.33","CARIBOU ISLAND (AUT)","6041222","2023-03-01 20:00","2023","03","01","20:00","-1.8","","-5.6","","75","","","","3","","25","","","","98.95","","","","-8","","NA"
"-85.83","47.33","CARIBOU ISLAND (AUT)","6041222","2023-03-01 21:00","2023","03","01","21:00","-1.6","","-5.8","","73","","","","3","","25","","","","98.96","","","","-8","","NA"
"-85.83","47.33","CARIBOU ISLAND (AUT)","6041222","2023-03-01 22:00","2023","03","01","22:00","-1.6","","-5.9","","72","","","","4","","28","","","","99.02","","","","-8","","NA"
"-85.83","47.33","CARIBOU ISLAND (AUT)","6041222","2023-03-01 23:00","2023","03","01","23:00","-2.5","","-5.7","","79","","","","4","","32","","","","99.05","","","","-10","","NA"
"-85.83","47.33","CARIBOU ISLAND (AUT)","6041222","2023-03-02 00:00","2023","03","02","00:00","-3.8","","-5.4","","89","","","","3","","37","","","","99.08","","","","-12","","NA"
"-85.83","47.33","CARIBOU ISLAND (AUT)","6041222","2023-03-02 01:00","2023","03","02","01:00","-4.5","","-6.2","","88","","","","4","","38","","","","99.11","","","","-13","","NA"
"-85.83","47.33","CARIBOU ISLAND (AUT)","6041222","2023-03-02 02:00","2023","03","02","02:00","-5.3","","-8.4","","79","","","","4","","39","","","","99.12","","","","-14","","NA"
"-85.83","47.33","CARIBOU ISLAND (AUT)","6041222","2023-03-02 03:00","2023","03","02","03:00","-5.6","","-9.2","","76","","","","4","","43","","","","99.14","","","","-15","","NA"
"-85.83","47.33","CARIBOU ISLAND (AUT)","6041222","2023-03-02 04:00","2023","03","02","04:00"
"-85.83","47.33","CARIBOU ISLAND (AUT)","6041222","2023-03-02 05:00","2023","03","02","05:00","-6.6","","-10.6","","73","","","","4","","41","","","","99.27","","","","-16","","NA"
"-85.83","47.33","CARIBOU ISLAND (AUT)","6041222","2023-03-02 06:00","2023","03","02","06:00","-7.1","","-10.4","","77","","","","4","","39","","","","99.34","","","","-17","","NA"
"-85.83","47.33","CARIBOU ISLAND (AUT)","6041222","2023-03-02 07:00","2023","03","02","07:00","-7.6","","-11.4","","74","","","","4","","35","","","","99.44","","","","-17","","NA"
"-85.83","47.33","CARIBOU ISLAND (AUT)","6041222","2023-03-02 08:00","2023","03","02","08:00"
"-85.83","47.33","CARIBOU ISLAND (AUT)","6041222","2023-03-02 09:00","2023","03","02","09:00"
"-85.83","47.33","CARIBOU ISLAND (AUT)","6041222","2023-03-02 10:00","2023","03","02","10:00"
"-85.83","47.33","CARIBOU ISLAND (AUT)","6041222","2023-03-02 11:00","2023","03","02","11:00","-6.6","","-11.2","","70","","","","4","","33","","","","99.46","","","","-15","","NA"
"-85.83","47.33","CARIBOU ISLAND (AUT)","6041222","2023-03-02 12:00","2023","03","02","12:00","-6.3","","-11.8","","65","","","","4","","25","","","","99.51","","","","-14","","NA"
"-85.83","47.33","CARIBOU ISLAND (AUT)","6041222","2023-03-02 13:00","2023","03","02","13:00","-5.8","","-10.7","","68","","","","3","","23","","","","99.49","","","","-13","","NA"
"-85.83","47.33","CARIBOU ISLAND (AUT)","6041222","2023-03-02 14:00","2023","03","02","14:00","-5.3","","-10.6","","66","","","","3","","24","","","","99.45","","","","-13","","NA"
"-85.83","47.33","CARIBOU ISLAND (AUT)","6041222","2023-03-02 15:00","2023","03","02","15:00","-5.3","","-12.8","","55","","","","3","","25","","","","99.42","","","","-13","","NA"
"-85.83","47.33","CARIBOU ISLAND (AUT)","6041222","2023-03-02 16:00","2023","03","02","16:00","-4.5","","-11.8","","57","","","","1","","13","","","","99.42","","","","-10","","NA"
"-85.83","47.33","CARIBOU ISLAND (AUT)","6041222","2023-03-02 17:00","2023","03","02","17:00","-4.1","","-10.3","","62","","","","35","","11","","","","99.43","","","","-9","","NA"
"-85.83","47.33","CARIBOU ISLAND (AUT)","6041222","2023-03-02 18:00","2023","03","02","18:00","-5.2","","-11.1","","63","","","","1","","5","","","","99.40","","","","-7","","NA"
"-85.83","47.33","CARIBOU ISLAND (AUT)","6041222","2023-03-02 19:00","2023","03","02","19:00","-6.3","","-11.9","","65","","","","1","","3","","","","99.37","","","","-8","","NA"
"-85.83","47.33","CARIBOU ISLAND (AUT)","6041222","2023-03-02 20:00","2023","03","02","20:00","-6.1","","-12.0","","63","","","","6","","1","","","","99.34","","","","-7","","NA"
"-85.83","47.33","CARIBOU ISLAND (AUT)","6041222","2023-03-02 21:00","2023","03","02","21:00","-6.2","","-11.5","","66","","","","0","","1","","","","99.32","","","","-7","","NA"
"-85.83","47.33","CARIBOU ISLAND (AUT)","6041222","2023-03-02 22:00","2023","03","02","22:00","-4.7","","-9.8","","68","","","","18","","8","","","","99.30","","","","-8","","NA"
"-85.83","47.33","CARIBOU ISLAND (AUT)","6041222","2023-03-02 23:00","2023","03","02","23:00","-4.1","","-9.2","","67","","","","17","","12","","","","99.24","","","","-9","","NA"
"-85.83","47.33","CARIBOU ISLAND (AUT)","6041222","2023-03-03 00:00","2023","03","03","00:00","-3.4","","-8.4","","68","","","","17","","18","","","","99.22","","","","-9","","NA"
"-85.83","47.33","CARIBOU ISLAND (AUT)","6041222","2023-03-03 01:00","2023","03","03","01:00","-2.5","","-6.7","","73","","","","19","","22","","","","99.16","","","","-9","","NA"
"-85.83","47.33","CARIBOU ISLAND (AUT)","6041222","2023-03-03 02:00","2023","03","03","02:00","-2.2","","-5.9","","76","","","","18","","25","","","","99.13","","","","-9","","NA"
"-85.83","47.33","CARIBOU ISLAND (AUT)","6041222","2023-03-03 03:00","2023","03","03","03:00","-2.0","","-5.1","","79","","","","19","","28","","","","99.08","","","","-9","","NA"
"-85.83","47.33","CARIBOU ISLAND (AUT)","6041222","2023-03-03 04:00","2023","03","03","04:00","-1.8","","-4.2","","83","","","","20","","27","","","","99.05","","","","-8","","NA"
"-85.83","47.33","CARIBOU ISLAND (AUT)","6041222","2023-03-03 05:00","2023","03","03","05:00","-1.4","","-4.1","","82","","","","19","","28","","","","98.99","","","","-8","","NA"
"-85.83","47.33","CARIBOU ISLAND (AUT)","6041222","2023-03-03 06:00","2023","03","03","06:00","-1.7","","-4.2","","83","","","","18","","28","","","","98.97","","","","-8","","NA"
"-85.83","47.33","CARIBOU ISLAND (AUT)","6041222","2023-03-03 07:00","2023","03","03","07:00","-1.6","","-3.4","","87","","","","18","","27","","","","98.93","","","","-8","","NA"
"-85.83","47.33","CARIBOU ISLAND (AUT)","6041222","2023-03-03 08:00","2023","03","03","08:00","-1.3","","-2.9","","89","","","","18","","30","","","","98.98","","","","-8","","NA"
"-85.83","47.33","CARIBOU ISLAND (AUT)","6041222","2023-03-03 09:00","2023","03","03","09:00","-0.9","","-2.6","","88","","","","19","","29","","","","98.91","","","","-8","","NA"
"-85.83","47.33","CARIBOU ISLAND (AUT)","6041222","2023-03-03 10:00","2023","03","03","10:00","-0.5","","-2.7","","85","","","","18","","25","","","","98.83","","","","-7","","NA"
"-85.83","47.33","CARIBOU ISLAND (AUT)","6041222","2023-03-03 11:00","2023","03","03","11:00","-1.0","","-2.3","","91","","","","16","","31","","","","98.80","","","","-8","","NA"
"-85.83","47.33","CARIBOU ISLAND (AUT)","6041222","2023-03-03 12:00","2023","03","03","12:00","-0.6","","-1.9","","91","","","","19","","29","","","","98.79","","","","-7","","NA"
"-85.83","47.33","CARIBOU ISLAND (AUT)","6041222","2023-03-03 13:00","2023","03","03","13:00","0.5","","-1.9","","83","","0.0","","17","","22","","","","98.65","","","","","","NA"
"-85.83","47.33","CARIBOU ISLAND (AUT)","6041222","2023-03-03 14:00","2023","03","03","14:00","0.6","","-1.8","","84","","0.0","","13","","19","","","","98.52","","","","","","NA"
"-85.83","47.33","CARIBOU ISLAND (AUT)","6041222","2023-03-03 15:00","2023","03","03","15:00","1.2","","-1.4","","83","","0.0","","13","","26","","","","98.41","","","","","","NA"
"-85.83","47.33","CARIBOU ISLAND (AUT)","6041222","2023-03-03 16:00","2023","03","03","16:00","1.6","","-1.7","","78","","0.0","","12","","32","","","","98.26","","","","","","NA"
"-85.83","47.33","CARIBOU ISLAND (AUT)","6041222","2023-03-03 17:00","2023","03","03","17:00","1.3","","-2.0","","79","","0.0","","13","","35","","","","98.20","","","","","","NA"
"-85.83","47.33","CARIBOU ISLAND (AUT)","6041222","2023-03-03 18:00","2023","03","03","18:00","0.8","","-2.0","","81","","0.0","","13","","36","","","","98.13","","","","","","NA"
"-85.83","47.33","CARIBOU ISLAND (AUT)","6041222","2023-03-03 19:00","2023","03","03","19:00","0.6","","-1.8","","84","","0.0","","14","","35","","","","98.07","","","","","","NA"
"-85.83","47.33","CARIBOU ISLAND (AUT)","6041222","2023-03-03 20:00","2023","03","03","20:00","0.6","","-1.7","","85","","0.0","","14","","32","","","","98.16","","","","","","NA"
"-85.83","47.33","CARIBOU ISLAND (AUT)","6041222","2023-03-03 21:00","2023","03","03","21:00","0.4","","-1.9","","85","","","","15","","31","","","","98.16","","","","","","NA"
"-85.83","47.33","CARIBOU ISLAND (AUT)","6041222","2023-03-03 22:00","2023","03","03","22:00","0.5","","-1.8","","85","","","","16","","26","","","","98.18","","","","","","NA"
"-85.83","47.33","CARIBOU ISLAND (AUT)","6041222","2023-03-03 23:00","2023","03","03","23:00","0.5","","-2.4","","81","","","","16","","25","","","","98.16","","","","","","NA"
"-85.83","47.33","CARIBOU ISLAND (AUT)","6041222","2023-03-04 00:00","2023","03","04","00:00","0.6","","-2.5","","80","","0.0","","19","","20","","","","98.18","","","","","","NA"
"-85.83","47.33","CARIBOU ISLAND (AUT)","6041222","2023-03-04 01:00","2023","03","04","01:00","0.4","","-2.2","","83","","","","21","","18","","","","98.22","","","","","","NA"
"-85.83","47.33","CARIBOU ISLAND (AUT)","6041222","2023-03-04 02:00","2023","03","04","02:00","0.5","","-1.9","","84","","0.0","","21","","18","","","","98.25","","","","","","NA"
"-85.83","47.33","CARIBOU ISLAND (AUT)","6041222","2023-03-04 03:00","2023","03","04","03:00","0.5","","-1.7","","85","","0.0","","22","","20","","","","98.27","","","","","","NA"
"-85.83","47.33","CARIBOU ISLAND (AUT)","6041222","2023-03-04 04:00","2023","03","04","04:00","0.4","","-1.4","","88","","","","22","","19","","","","98.26","","","","","","NA"
"-85.83","47.33","CARIBOU ISLAND (AUT)","6041222","2023-03-04 05:00","2023","03","04","05:00","0.6","","-0.9","","90","","0.0","","23","","19","","","","98.31","","","","","","NA"
"-85.83","47.33","CARIBOU ISLAND (AUT)","6041222","2023-03-04 06:00","2023","03","04","06:00","0.7","","-0.5","","91","","0.0","","24","","15","","","","98.37","","","","","","NA"
"-85.83","47.33","CARIBOU ISLAND (AUT)","6041222","2023-03-04 07:00","2023","03","04","07:00","1.1","","-0.2","","91","","0.0","","29","","15","","","","98.41","","","","","","NA"
"-85.83","47.33","CARIBOU ISLAND (AUT)","6041222","2023-03-04 08:00","2023","03","04","08:00","1.2","","-0.7","","87","","0.0","","31","","17","","","","98.53","","","","","","NA"
"-85.83","47.33","CARIBOU ISLAND (AUT)","6041222","2023-03-04 09:00","2023","03","04","09:00","1.0","","-0.9","","87","","0.0","","32","","13","","","","98.61","","","","","","NA"
"-85.83","47.33","CARIBOU ISLAND (AUT)","6041222","2023-03-04 10:00","2023","03","04","10:00","1.1","","-1.2","","85","","0.0","","31","","10","","","","98.69","","","","","","NA"
"-85.83","47.33","CARIBOU ISLAND (AUT)","6041222","2023-03-04 11:00","2023","03","04","11:00","1.2","","-0.9","","86","","0.0","","31","","10","","","","98.73","","","","","","NA"
"-85.83","47.33","CARIBOU ISLAND (AUT)","6041222","2023-03-04 12:00","2023","03","04","12:00","1.2","","-1.1","","84","","0.0","","30","","9","","","","98.76","","","","","","NA"
"-85.83","47.33","CARIBOU ISLAND (AUT)","6041222","2023-03-04 13:00","2023","03","04","13:00","1.5","","-0.9","","84","","0.0","","26","","13","","","","98.83","","","","","","NA"
"-85.83","47.33","CARIBOU ISLAND (AUT)","6041222","2023-03-04 14:00","2023","03","04","14:00","1.5","","-0.9","","84","","0.0","","24","","13","","","","98.85","","","","","","NA"
"-85.83","47.33","CARIBOU ISLAND (AUT)","6041222","2023-03-04 15:00","2023","03","04","15:00","1.7","","-0.3","","87","","0.0","","26","","11","","","","98.89","","","","","","NA"
"-85.83","47.33","CARIBOU ISLAND (AUT)","6041222","2023-03-04 16:00","2023","03","04","16:00","1.5","","-0.6","","86","","0.0","","23","","18","","","","98.95","","","","","","NA"
"-85.83","47.33","CARIBOU ISLAND (AUT)","6041222","2023-03-04 17:00","2023","03","04","17:00","1.6","","-0.5","","86","","0.0","","26","","15","","","","98.95","","","","","","NA"
"-85.83","47.33","CARIBOU ISLAND (AUT)","6041222","2023-03-04 18:00","2023","03","04","18:00","1.3","","-0.3","","89","","0.0","","31","","13","","","","98.95","","","","","","NA"
"-85.83","47.33","CARIBOU ISLAND (AUT)","6041222","2023-03-04 19:00","2023","03","04","19:00","0.6","","-0.6","","92","","0.0","","32","","6","","","","98.99","","","","","","NA"
"-85.83","47.33","CARIBOU ISLAND (AUT)","6041222","2023-03-04 20:00","2023","03","04","20:00","-0.1","","-0.9","","94","","","","7","","1","","","","99.06","","","","0","","NA"
"-85.83","47.33","CARIBOU ISLAND (AUT)","6041222","2023-03-04 21:00","2023","03","04","21:00","0.2","","-0.8","","93","","","","2","","4","","","","99.07","","","","","","NA"
"-85.83","47.33","CARIBOU ISLAND (AUT)","6041222","2023-03-04 22:00","2023","03","04","22:00","-0.4","","-0.9","","97","","","","11","","2","","","","99.11","","","","-1","","NA"
"-85.83","47.33","CARIBOU ISLAND (AUT)","6041222","2023-03-04 23:00","2023","03","04","23:00","0.1","","-0.3","","97","","","","20","","7","","","","99.16","","","","","","NA"
"-85.83","47.33","CARIBOU ISLAND (AUT)","6041222","2023-03-05 00:00","2023","03","05","00:00","0.6","","-0.2","","95","","0.0","","24","","8","","","","99.22","","","","","","NA"
"-85.83","47.33","CARIBOU ISLAND (AUT)","6041222","2023-03-05 01:00","2023","03","05","01:00","0.9","","0.0","","94","","0.0","","27","","12","","","","99.29","","","","","","NA"
"-85.83","47.33","CARIBOU ISLAND (AUT)","6041222","2023-03-05 02:00","2023","03","05","02:00","1.1","","0.0","","93","","0.0","","28","","13","","","","99.35","","","","","","NA"
"-85.83","47.33","CARIBOU ISLAND (AUT)","6041222","2023-03-05 03:00","2023","03","05","03:00","1.2","","0.1","","92","","0.0","","30","","17","","","","99.41","","","","","","NA"
"-85.83","47.33","CARIBOU ISLAND (AUT)","6041222","2023-03-05 04:00","2023","03","05","04:00","1.4","","0.1","","91","","0.0","","31","","23","","","","99.52","","","","","","NA"
"-85.83","47.33","CARIBOU ISLAND (AUT)","6041222","2023-03-05 05:00","2023","03","05","05:00","1.4","","0.2","","92","","0.0","","31","","17","","","","99.59","","","","","","NA"
"-85.83","47.33","CARIBOU ISLAND (AUT)","6041222","2023-03-05 06:00","2023","03","05","06:00","1.0","","0.4","","96","","0.0","","31","","10","","","","99.68","","","","","","NA"
"-85.83","47.33","CARIBOU ISLAND (AUT)","6041222","2023-03-05 07:00","2023","03","05","07:00","0.8","","0.0","","95","","0.0","","32","","7","","","","99.80","","","","","","NA"
"-85.83","47.33","CARIBOU ISLAND (AUT)","6041222","2023-03-05 08:00","2023","03","05","08:00","0.6","","-0.3","","93","","0.0","","35","","10","","","","99.91","","","","","","NA"
"-85.83","47.33","CARIBOU ISLAND (AUT)","6041222","2023-03-05 09:00","2023","03","05","09:00","0.7","","-1.7","","84","","0.0","","4","","11","","","","99.99","","","","","","NA"
"-85.83","47.33","CARIBOU ISLAND (AUT)","6041222","2023-03-05 10:00","2023","03","05","10:00","0.8","","-2.2","","80","","0.0","","6","","14","","","","100.04","","","","","","NA"
"-85.83","47.33","CARIBOU ISLAND (AUT)","6041222","2023-03-05 11:00","2023","03","05","11:00","2.6","","-2.5","","69","","0.0","","7","","7","","","","100.14","","","","","","NA"
"-85.83","47.33","CARIBOU ISLAND (AUT)","6041222","2023-03-05 12:00","2023","03","05","12:00","3.6","","-2.1","","66","","0.0","","10","","6","","","","100.23","","","","","","NA"
"-85.83","47.33","CARIBOU ISLAND (AUT)","6041222","2023-03-05 13:00","2023","03","05","13:00","4.3","","-2.2","","63","","0.0","","15","","6","","","","100.27","","","","","","NA"
"-85.83","47.33","CARIBOU ISLAND (AUT)","6041222","2023-03-05 14:00","2023","03","05","14:00","3.0","","-1.5","","72","","0.0","","17","","5","","","","100.30","","","","","","NA"
"-85.83","47.33","CARIBOU ISLAND (AUT)","6041222","2023-03-05 15:00","2023","03","05","15:00","3.0","","-0.8","","76","","0.0","","18","","5","","","","100.29","","","","","","NA"
"-85.83","47.33","CARIBOU ISLAND (AUT)","6041222","2023-03-05 16:00","2023","03","05","16:00","3.9","","-0.2","","74","","0.0","","14","","4","","","","100.29","","","","","","NA"
"-85.83","47.33","CARIBOU ISLAND (AUT)","6041222","2023-03-05 17:00","2023","03","05","17:00","2.7","","0.0","","82","","0.0","","17","","7","","","","100.31","","","","","","NA"
"-85.83","47.33","CARIBOU ISLAND (AUT)","6041222","2023-03-05 18:00","2023","03","05","18:00","1.4","","0.0","","90","","0.0","","18","","10","","","","100.31","","","","","","NA"
"-85.83","47.33","CARIBOU ISLAND (AUT)","6041222","2023-03-05 19:00","2023","03","05","19:00","0.8","","0.0","","94","","0.0","","18","","6","","","","100.32","","","","","","NA"
"-85.83","47.33","CARIBOU ISLAND (AUT)","6041222","2023-03-05 20:00","2023","03","05","20:00","0.3","","-0.3","","96","","","","15","","4","","","","100.35","","","","","","NA"
"-85.83","47.33","CARIBOU ISLAND (AUT)","6041222","2023-03-05 21:00","2023","03","05","21:00","-0.7","","-1.3","","96","","","","9","","2","","","","100.33","","","","-1","","NA"
"-85.83","47.33","CARIBOU ISLAND (AUT)","6041222","2023-03-05 22:00","2023","03","05","22:00","-0.4","","-0.7","","98","","","","7","","4","","","","100.35","","","","-2","","NA"
"-85.83","47.33","CARIBOU ISLAND (AUT)","6041222","2023-03-05 23:00","2023","03","05","23:00","-0.2","","-0.6","","97","","","","5","","6","","","","100.38","","","","-2","","NA"
"-85.83","47.33","CARIBOU ISLAND (AUT)","6041222","2023-03-06 00:00","2023","03","06","00:00","0.4","","0.0","","97","","","","7","","10","","","","100.39","","","","","","NA"
"-85.83","47.33","CARIBOU ISLAND (AUT)","6041222","2023-03-06 01:00","2023","03","06","01:00","0.7","","0.1","","96","","0.0","","9","","16","","","","100.40","","","","","","NA"
"-85.83","47.33","CARIBOU ISLAND (AUT)","6041222","2023-03-06 02:00","2023","03","06","02:00","0.7","","-0.3","","93","","0.0","","7","","18","","","","100.36","","","","","","NA"
"-85.83","47.33","CARIBOU ISLAND (AUT)","6041222","2023-03-06 03:00","2023","03","06","03:00","0.8","","-1.0","","87","","0.0","","6","","18","","","","100.23","","","","","","NA"
"-85.83","47.33","CARIBOU ISLAND (AUT)","6041222","2023-03-06 04:00","2023","03","06","04:00","1.3","","-2.4","","76","","0.0","","7","","24","","","","100.18","","","","","","NA"
"-85.83","47.33","CARIBOU ISLAND (AUT)","6041222","2023-03-06 05:00","2023","03","06","05:00","1.5","","-2.0","","78","","0.0","","8","","27","","","","100.23","","","","","","NA"
"-85.83","47.33","CARIBOU ISLAND (AUT)","6041222","2023-03-06 06:00","2023","03","06","06:00","1.6","","-1.7","","79","","0.0","","9","","27","","","","100.24","","","","","","NA"
"-85.83","47.33","CARIBOU ISLAND (AUT)","6041222","2023-03-06 07:00","2023","03","06","07:00","1.5","","-1.8","","79","","0.0","","10","","27","","","","100.25","","","","","","NA"
"-85.83","47.33","CARIBOU ISLAND (AUT)","6041222","2023-03-06 08:00","2023","03","06","08:00","1.4","","-1.7","","80","","0.0","","10","","29","","","","100.25","","","","","","NA"
"-85.83","47.33","CARIBOU ISLAND (AUT)","6041222","2023-03-06 09:00","2023","03","06","09:00","1.7","","-2.0","","77","","0.0","","10","","29","","","","100.26","","","","","","NA"
"-85.83","47.33","CARIBOU ISLAND (AUT)","6041222","2023-03-06 10:00","2023","03","06","10:00","1.8","","-1.7","","78","","0.0","","11","","28","","","","100.25","","","","","","NA"
"-85.83","47.33","CARIBOU ISLAND (AUT)","6041222","2023-03-06 11:00","2023","03","06","11:00","2.3","","-1.6","","75","","0.0","","10","","21","","","","100.23","","","","","","NA"
"-85.83","47.33","CARIBOU ISLAND (AUT)","6041222","2023-03-06 12:00","2023","03","06","12:00","2.7","","-2.4","","69","","0.0","","13","","20","","","","100.24","","","","","","NA"
"-85.83","47.33","CARIBOU ISLAND (AUT)","6041222","2023-03-06 13:00","2023","03","06","13:00","3.0","","-2.9","","65","","0.0","","9","","19","","","","100.18","","","","","","NA"
"-85.83","47.33","CARIBOU ISLAND (AUT)","6041222","2023-03-06 14:00","2023","03","06","14:00","3.1","","-2.9","","65","","0.0","","8","","14","","","","100.14","","","","","","NA"
"-85.83","47.33","CARIBOU ISLAND (AUT)","6041222","2023-03-06 15:00","2023","03","06","15:00","3.1","","-4.6","","57","","0.0","","6","","13","","","","100.11","","","","","","NA"
"-85.83","47.33","CARIBOU ISLAND (AUT)","6041222","2023-03-06 16:00","2023","03","06","16:00","2.9","","-4.9","","56","","0.0","","4","","15","","","","100.08","","","","","","NA"
"-85.83","47.33","CARIBOU ISLAND (AUT)","6041222","2023-03-06 17:00","2023","03","06","17:00","2.6","","-5.1","","57","","0.0","","3","","17","","","","100.07","","","","","","NA"
"-85.83","47.33","CARIBOU ISLAND (AUT)","6041222","2023-03-06 18:00","2023","03","06","18:00","2.7","","-4.5","","59","","0.0","","3","","18","","","","100.11","","","","","","NA"
"-85.83","47.33","CARIBOU ISLAND (AUT)","6041222","2023-03-06 19:00","2023","03","06","19:00","2.3","","-2.8","","69","","0.0","","4","","17","","","","100.17","","","","","","NA"
"-85.83","47.33","CARIBOU ISLAND (AUT)","6041222","2023-03-06 20:00","2023","03","06","20:00","2.0","","-2.2","","74","","0.0","","4","","23","","","","100.23","","","","","","NA"
"-85.83","47.33","CARIBOU ISLAND (AUT)","6041222","2023-03-06 21:00","2023","03","06","21:00","2.0","","-2.9","","70","","0.0","","5","","22","","","","100.29","","","","","","NA"
"-85.83","47.33","CARIBOU ISLAND (AUT)","6041222","2023-03-06 22:00","2023","03","06","22:00","1.9","","-3.6","","67","","0.0","","5","","23","","","","100.35","","","","","","NA"
"-85.83","47.33","CARIBOU ISLAND (AUT)","6041222","2023-03-06 23:00","2023","03","06","23:00","1.3","","-3.6","","70","","0.0","","4","","24","","","","100.41","","","","","","NA"
"-85.83","47.33","CARIBOU ISLAND (AUT)","6041222","2023-03-07 00:00","2023","03","07","00:00","1.0","","-4.3","","68","","0.0","","5","","27","","","","100.46","","","","","","NA"
"-85.83","47.33","CARIBOU ISLAND (AUT)","6041222","2023-03-07 01:00","2023","03","07","01:00","0.7","","-5.0","","66","","0.0","","5","","23","","","","100.50","","","","","","NA"
"-85.83","47.33","CARIBOU ISLAND (AUT)","6041222","2023-03-07 02:00","2023","03","07","02:00","0.3","","-5.7","","64","","","","5","","21","","","","100.55","","","","","","NA"
"-85.83","47.33","CARIBOU ISLAND (AUT)","6041222","2023-03-07 03:00","2023","03","07","03:00","-0.2","","-6.3","","63","","","","4","","23","","","","100.62","","","","-6","","NA"
"-85.83","47.33","CARIBOU ISLAND (AUT)","6041222","2023-03-07 04:00","2023","03","07","04:00","-0.7","","-6.6","","64","","","","5","","22","","","","100.66","","","","-6","","NA"
"-85.83","47.33","CARIBOU ISLAND (AUT)","6041222","2023-03-07 05:00","2023","03","07","05:00","-0.9","","-7.1","","63","","","","5","","24","","","","100.74","","","","-7","","NA"
"-85.83","47.33","CARIBOU ISLAND (AUT)","6041222","2023-03-07 06:00","2023","03","07","06:00","-1.1","","-7.5","","62","","","","5","","26","","","","100.82","","","","-7","","NA"
"-85.83","47.33","CARIBOU ISLAND (AUT)","6041222","2023-03-07 07:00","2023","03","07","07:00","-1.4","","-7.2","","65","","","","5","","28","","","","100.88","","","","-8","","NA"
"-85.83","47.33","CARIBOU ISLAND (AUT)","6041222","2023-03-07 08:00","2023","03","07","08:00","-1.2","","-7.0","","65","","","","5","","23","","","","100.98","","","","-7","","NA"
"-85.83","47.33","CARIBOU ISLAND (AUT)","6041222","2023-03-07 09:00","2023","03","07","09:00","-1.1","","-8.0","","60","","","","5","","26","","","","101.07","","","","-7","","NA"
"-85.83","47.33","CARIBOU ISLAND (AUT)","6041222","2023-03-07 10:00","2023","03","07","10:00","-0.9","","-7.3","","62","","","","4","","27","","","","101.13","","","","-7","","NA"
"-85.83","47.33","CARIBOU ISLAND (AUT)","6041222","2023-03-07 11:00","2023","03","07","11:00","0.0","","-8.7","","52","","","","4","","24","","","","101.18","","","","-6","","NA"
"-85.83","47.33","CARIBOU ISLAND (AUT)","6041222","2023-03-07 12:00","2023","03","07","12:00","0.7","","-9.7","","46","","0.0","","2","","13","","","","101.23","","","","","","NA"
"-85.83","47.33","CARIBOU ISLAND (AUT)","6041222","2023-03-07 13:00","2023","03","07","13:00","2.0","","-7.1","","51","","0.0","","1","","12","","","","101.27","","","","","","NA"
"-85.83","47.33","CARIBOU ISLAND (AUT)","6041222","2023-03-07 14:00","2023","03","07","14:00","2.1","","-6.6","","53","","0.0","","32","","8","","","","101.26","","","","","","NA"
"-85.83","47.33","CARIBOU ISLAND (AUT)","6041222","2023-03-07 15:00","2023","03","07","15:00","1.5","","-5.2","","61","","0.0","","30","","18","","","","101.28","","","","","","NA"
"-85.83","47.33","CARIBOU ISLAND (AUT)","6041222","2023-03-07 16:00","2023","03","07","16:00","1.7","","-4.1","","65","","0.0","","30","","21","","","","101.30","","","","","","NA"
"-85.83","47.33","CARIBOU ISLAND (AUT)","6041222","2023-03-07 17:00","2023","03","07","17:00","1.6","","-3.6","","69","","0.0","","31","","20","","","","101.30","","","","","","NA"
"-85.83","47.33","CARIBOU ISLAND (AUT)","6041222","2023-03-07 18:00","2023","03","07","18:00","1.5","","-2.3","","76","","0.0","","31","","17","","","","101.32","","","","","","NA"
"-85.83","47.33","CARIBOU ISLAND (AUT)","6041222","2023-03-07 19:00","2023","03","07","19:00","1.0","","-1.7","","82","","0.0","","31","","14","","","","101.34","","","","","","NA"
"-85.83","47.33","CARIBOU ISLAND (AUT)","6041222","2023-03-07 20:00","2023","03","07","20:00","0.8","","-2.1","","81","","0.0","","32","","15","","","","101.33","","","","","","NA"
"-85.83","47.33","CARIBOU ISLAND (AUT)","6041222","2023-03-07 21:00","2023","03","07","21:00","0.9","","-2.4","","79","","0.0","","32","","14","","","","101.37","","","","","","NA"
"-85.83","47.33","CARIBOU ISLAND (AUT)","6041222","2023-03-07 22:00","2023","03","07","22:00","0.6","","-2.6","","79","","0.0","","33","","16","","","","101.38","","","","","","NA"
"-85.83","47.33","CARIBOU ISLAND (AUT)","6041222","2023-03-07 23:00","2023","03","07","23:00","0.2","","-2.3","","83","","","","34","","20","","","","101.42","","","","","","NA"
"-85.83","47.33","CARIBOU ISLAND (AUT)","6041222","2023-03-08 00:00","2023","03","08","00:00","-0.1","","-2.9","","81","","","","1","","13","","","","101.40","","","","-4","","NA"
"-85.83","47.33","CARIBOU ISLAND (AUT)","6041222","2023-03-08 01:00","2023","03","08","01:00","-0.3","","-1.7","","90","","","","6","","9","","","","101.42","","","","-3","","NA"
"-85.83","47.33","CARIBOU ISLAND (AUT)","6041222","2023-03-08 02:00","2023","03","08","02:00","0.1","","-2.8","","80","","","","7","","19","","","","101.45","","","","","","NA"
"-85.83","47.33","CARIBOU ISLAND (AUT)","6041222","2023-03-08 03:00","2023","03","08","03:00","-0.3","","-5.2","","69","","","","6","","27","","","","101.47","","","","-7","","NA"
"-85.83","47.33","CARIBOU ISLAND (AUT)","6041222","2023-03-08 04:00","2023","03","08","04:00","-0.6","","-6.5","","65","","","","6","","28","","","","101.50","","","","-7","","NA"
"-85.83","47.33","CARIBOU ISLAND (AUT)","6041222","2023-03-08 05:00","2023","03","08","05:00","-1.3","","-6.2","","69","","","","6","","24","","","","101.55","","","","-7","","NA"
"-85.83","47.33","CARIBOU ISLAND (AUT)","6041222","2023-03-08 06:00","2023","03","08","06:00","-1.6","","-7.3","","65","","","","7","","29","","","","101.52","","","","-8","","NA"
"-85.83","47.33","CARIBOU ISLAND (AUT)","6041222","2023-03-08 07:00","2023","03","08","07:00","-2.1","","-8.3","","62","","","","7","","21","","","","101.61","","","","-8","","NA"
"-85.83","47.33","CARIBOU ISLAND (AUT)","6041222","2023-03-08 08:00","2023","03","08","08:00","-2.1","","-8.0","","64","","","","7","","24","","","","101.63","","","","-8","","NA"
"-85.83","47.33","CARIBOU ISLAND (AUT)","6041222","2023-03-08 09:00","2023","03","08","09:00","-2.1","","-8.3","","62","","","","6","","22","","","","101.67","","","","-8","","NA"
"-85.83","47.33","CARIBOU ISLAND (AUT)","6041222","2023-03-08 10:00","2023","03","08","10:00","-2.8","","-8.6","","64","","","","6","","22","","","","101.68","","","","-9","","NA"
"-85.83","47.33","CARIBOU ISLAND (AUT)","6041222","2023-03-08 11:00","2023","03","08","11:00","-2.0","","-7.5","","66","","","","6","","22","","","","101.69","","","","-8","","NA"
"-85.83","47.33","CARIBOU ISLAND (AUT)","6041222","2023-03-08 12:00","2023","03","08","12:00","-1.5","","-6.9","","67","","","","6","","18","","","","101.70","","","","-7","","NA"
"-85.83","47.33","CARIBOU ISLAND (AUT)","6041222","2023-03-08 13:00","2023","03","08","13:00","-0.9","","-6.7","","65","","","","6","","15","","","","101.66","","","","-6","","NA"
"-85.83","47.33","CARIBOU ISLAND (AUT)","6041222","2023-03-08 14:00","2023","03","08","14:00","-0.7","","-6.0","","68","","","","7","","17","","","","101.59","","","","-6","","NA"
"-85.83","47.33","CARIBOU ISLAND (AUT)","6041222","2023-03-08 15:00","2023","03","08","15:00","-0.1","","-6.2","","64","","","","6","","14","","","","101.51","","","","-4","","NA"
"-85.83","47.33","CARIBOU ISLAND (AUT)","6041222","2023-03-08 16:00","2023","03","08","16:00","0.4","","-6.6","","59","","","","6","","14","","","","101.46","","","","","","NA"
"-85.83","47.33","CARIBOU ISLAND (AUT)","6041222","2023-03-08 17:00","2023","03","08","17:00","0.2","","-5.7","","65","","","","6","","12","","","","101.42","","","","","","NA"
"-85.83","47.33","CARIBOU ISLAND (AUT)","6041222","2023-03-08 18:00","2023","03","08","18:00","-0.2","","-6.3","","64","","","","2","","9","","","","101.40","","","","-3","","NA"
"-85.83","47.33","CARIBOU ISLAND (AUT)","6041222","2023-03-08 19:00","2023","03","08","19:00","-0.7","","-5.4","","71","","","","1","","13","","","","101.38","","","","-5","","NA"
"-85.83","47.33","CARIBOU ISLAND (AUT)","6041222","2023-03-08 20:00","2023","03","08","20:00","-0.9","","-4.2","","78","","","","34","","21","","","","101.37","","","","-7","","NA"
"-85.83","47.33","CARIBOU ISLAND (AUT)","6041222","2023-03-08 21:00","2023","03","08","21:00","-0.6","","-4.2","","77","","","","1","","14","","","","101.35","","","","-5","","NA"
"-85.83","47.33","CARIBOU ISLAND (AUT)","6041222","2023-03-08 22:00","2023","03","08","22:00","-0.5","","-6.4","","64","","","","5","","22","","","","101.33","","","","-6","","NA"
"-85.83","47.33","CARIBOU ISLAND (AUT)","6041222","2023-03-08 23:00","2023","03","08","23:00","-0.7","","-7.1","","62","","","","5","","26","","","","101.28","","","","-7","","NA"
"-85.83","47.33","CARIBOU ISLAND (AUT)","6041222","2023-03-09 00:00","2023","03","09","00:00","-1.2","","-7.0","","65","","","","5","","31","","","","101.29","","","","-8","","NA"
"-85.83","47.33","CARIBOU ISLAND (AUT)","6041222","2023-03-09 01:00","2023","03","09","01:00","-1.4","","-6.8","","67","","","","6","","31","","","","101.29","","","","-8","","NA"
"-85.83","47.33","CARIBOU ISLAND (AUT)","6041222","2023-03-09 02:00","2023","03","09","02:00","-1.9","","-7.2","","67","","","","6","","28","","","","101.30","","","","-9","","NA"
"-85.83","47.33","CARIBOU ISLAND (AUT)","6041222","2023-03-09 03:00","2023","03","09","03:00","-2.6","","-7.2","","70","","","","5","","28","","","","101.30","","","","-10","","NA"
"-85.83","47.33","CARIBOU ISLAND (AUT)","6041222","2023-03-09 04:00","2023","03","09","04:00","-3.2","","-7.1","","74","","","","5","","30","","","","101.29","","","","-11","","NA"
"-85.83","47.33","CARIBOU ISLAND (AUT)","6041222","2023-03-09 05:00","2023","03","09","05:00","-3.6","","-7.4","","75","","","","5","","27","","","","101.30","","","","-11","","NA"
"-85.83","47.33","CARIBOU ISLAND (AUT)","6041222","2023-03-09 06:00","2023","03","09","06:00","-3.9","","-6.9","","79","","","","5","","26","","","","101.28","","","","-11","","NA"
"-85.83","47.33","CARIBOU ISLAND (AUT)","6041222","2023-03-09 07:00","2023","03","09","07:00","-4.3","","-7.3","","80","","","","4","","23","","","","101.29","","","","-11","","NA"
"-85.83","47.33","CARIBOU ISLAND (AUT)","6041222","2023-03-09 08:00","2023","03","09","08:00","-4.1","","-7.7","","76","","","","5","","25","","","","101.31","","","","-11","","NA"
"-85.83","47.33","CARIBOU ISLAND (AUT)","6041222","2023-03-09 09:00","2023","03","09","09:00","-4.3","","-8.3","","74","","","","6","","28","","","","101.29","","","","-12","","NA"
"-85.83","47.33","CARIBOU ISLAND (AUT)","6041222","2023-03-09 10:00","2023","03","09","10:00","-3.4","","-8.0","","71","","","","6","","24","","","","101.27","","","","-10","","NA"
"-85.83","47.33","CARIBOU ISLAND (AUT)","6041222","2023-03-09 11:00","2023","03","09","11:00","-2.6","","-7.4","","70","","","","5","","22","","","","101.23","","","","-9","","NA"
"-85.83","47.33","CARIBOU ISLAND (AUT)","6041222","2023-03-09 12:00","2023","03","09","12:00","-2.8","","-8.7","","64","","","","5","","27","","","","101.19","","","","-10","","NA"
"-85.83","47.33","CARIBOU ISLAND (AUT)","6041222","2023-03-09 13:00","2023","03","09","13:00","-2.5","","-7.9","","66","","","","5","","23","","","","101.19","","","","-9","","NA"
"-85.83","47.33","CARIBOU ISLAND (AUT)","6041222","2023-03-09 14:00","2023","03","09","14:00","-1.5","","-7.6","","63","","","","5","","20","","","","101.12","","","","-7","","NA"
"-85.83","47.33","CARIBOU ISLAND (AUT)","6041222","2023-03-09 15:00","2023","03","09","15:00","-1.0","","-7.9","","59","","","","4","","26","","","","101.00","","","","-7","","NA"
"-85.83","47.33","CARIBOU ISLAND (AUT)","6041222","2023-03-09 16:00","2023","03","09","16:00","-0.2","","-7.7","","57","","","","4","","28","","","","100.94","","","","-7","","NA"
"-85.83","47.33","CARIBOU ISLAND (AUT)","6041222","2023-03-09 17:00","2023","03","09","17:00","-0.2","","-8.4","","54","","","","4","","29","","","","100.87","","","","-7","","NA"
"-85.83","47.33","CARIBOU ISLAND (AUT)","6041222","2023-03-09 18:00","2023","03","09","18:00","-0.2","","-8.3","","54","","","","4","","25","","","","100.84","","","","-6","","NA"
"-85.83","47.33","CARIBOU ISLAND (AUT)","6041222","2023-03-09 19:00","2023","03","09","19:00","-0.1","","-7.2","","59","","","","4","","32","","","","100.75","","","","-7","","NA"
"-85.83","47.33","CARIBOU ISLAND (AUT)","6041222","2023-03-09 20:00","2023","03","09","20:00","0.0","","-7.4","","58","","","","4","","35","","","","100.70","","","","-7","","NA"
"-85.83","47.33","CARIBOU ISLAND (AUT)","6041222","2023-03-09 21:00","2023","03","09","21:00","-0.3","","-7.6","","58","","","","5","","37","","","","100.69","","","","-8","","NA"
"-85.83","47.33","CARIBOU ISLAND (AUT)","6041222","2023-03-09 22:00","2023","03","09","22:00","-0.6","","-8.2","","56","","","","5","","36","","","","100.65","","","","-8","","NA"
"-85.83","47.33","CARIBOU ISLAND (AUT)","6041222","2023-03-09 23:00","2023","03","09","23:00","-1.0","","-9.2","","54","","","","6","","37","","","","100.63","","","","-8","","NA"
"-85.83","47.33","CARIBOU ISLAND (AUT)","6041222","2023-03-10 00:00","2023","03","10","00:00","-1.4","","-8.7","","58","","","","6","","36","","","","100.60","","","","-9","","NA"
"-85.83","47.33","CARIBOU ISLAND (AUT)","6041222","2023-03-10 01:00","2023","03","10","01:00","-2.0","","-9.0","","59","","","","6","","37","","","","100.57","","","","-10","","NA"
"-85.83","47.33","CARIBOU ISLAND (AUT)","6041222","2023-03-10 02:00","2023","03","10","02:00","-2.4","","-8.3","","64","","","","6","","37","","","","100.54","","","","-10","","NA"
"-85.83","47.33","CARIBOU ISLAND (AUT)","6041222","2023-03-10 03:00","2023","03","10","03:00","-3.0","","-7.7","","70","","","","5","","38","","","","100.48","","","","-11","","NA"
"-85.83","47.33","CARIBOU ISLAND (AUT)","6041222","2023-03-10 04:00","2023","03","10","04:00","-3.6","","-7.2","","76","","","","5","","39","","","","100.39","","","","-12","","NA"
"-85.83","47.33","CARIBOU ISLAND (AUT)","6041222","2023-03-10 05:00","2023","03","10","05:00","-4.1","","-6.8","","81","","","","4","","40","","","","100.36","","","","-13","","NA"
"-85.83","47.33","CARIBOU ISLAND (AUT)","6041222","2023-03-10 06:00","2023","03","10","06:00","-4.4","","-7.6","","78","","","","5","","41","","","","100.31","","","","-13","","NA"
"-85.83","47.33","CARIBOU ISLAND (AUT)","6041222","2023-03-10 07:00","2023","03","10","07:00","-4.6","","-7.3","","81","","","","5","","43","","","","100.25","","","","-14","","NA"
"-85.83","47.33","CARIBOU ISLAND (AUT)","6041222","2023-03-10 08:00","2023","03","10","08:00","-5.0","","-7.5","","82","","","","5","","43","","","","100.21","","","","-14","","NA"
"-85.83","47.33","CARIBOU ISLAND (AUT)","6041222","2023-03-10 09:00","2023","03","10","09:00","-5.0","","-7.8","","81","","","","5","","43","","","","100.19","","","","-14","","NA"
"-85.83","47.33","CARIBOU ISLAND (AUT)","6041222","2023-03-10 10:00","2023","03","10","10:00","-4.6","","-7.7","","79","","","","5","","40","","","","100.17","","","","-14","","NA"
"-85.83","47.33","CARIBOU ISLAND (AUT)","6041222","2023-03-10 11:00","2023","03","10","11:00","-4.4","","-8.9","","71","","","","5","","45","","","","100.17","","","","-14","","NA"
"-85.83","47.33","CARIBOU ISLAND (AUT)","6041222","2023-03-10 12:00","2023","03","10","12:00","-3.7","","-8.6","","69","","","","5","","40","","","","100.15","","","","-12","","NA"
"-85.83","47.33","CARIBOU ISLAND (AUT)","6041222","2023-03-10 13:00","2023","03","10","13:00","-3.5","","-8.3","","69","","","","4","","40","","","","100.13","","","","-12","","NA"
"-85.83","47.33","CARIBOU ISLAND (AUT)","6041222","2023-03-10 14:00","2023","03","10","14:00","-3.1","","-8.6","","66","","","","4","","36","","","","100.10","","","","-11","","NA"
"-85.83","47.33","CARIBOU ISLAND (AUT)","6041222","2023-03-10 15:00","2023","03","10","15:00","-2.6","","-8.2","","65","","","","4","","36","","","","100.07","","","","-10","","NA"
"-85.83","47.33","CARIBOU ISLAND (AUT)","6041222","2023-03-10 16:00","2023","03","10","16:00","-2.3","","-8.5","","62","","","","4","","38","","","","100.04","","","","-10","","NA"
"-85.83","47.33","CARIBOU ISLAND (AUT)","6041222","2023-03-10 17:00","2023","03","10","17:00","-1.8","","-8.8","","58","","","","4","","34","","","","100.04","","","","-9","","NA"
"-85.83","47.33","CARIBOU ISLAND (AUT)","6041222","2023-03-10 18:00","2023","03","10","18:00","-1.5","","-8.6","","58","","","","4","","34","","","","100.04","","","","-9","","NA"
"-85.83","47.33","CARIBOU ISLAND (AUT)","6041222","2023-03-10 19:00","2023","03","10","19:00","-1.7","","-8.6","","59","","","","4","","37","","","","100.07","","","","-9","","NA"
"-85.83","47.33","CARIBOU ISLAND (AUT)","6041222","2023-03-10 20:00","2023","03","10","20:00","-2.5","","-9.5","","59","","","","4","","37","","","","100.12","","","","-10","","NA"
"-85.83","47.33","CARIBOU ISLAND (AUT)","6041222","2023-03-10 21:00","2023","03","10","21:00","-3.1","","-10.2","","58","","","","5","","39","","","","100.15","","","","-11","","NA"
"-85.83","47.33","CARIBOU ISLAND (AUT)","6041222","2023-03-10 22:00","2023","03","10","22:00","-4.1","","-9.7","","65","","","","4","","40","","","","100.15","","","","-13","","NA"
"-85.83","47.33","CARIBOU ISLAND (AUT)","6041222","2023-03-10 23:00","2023","03","10","23:00","-4.7","","-9.6","","68","","","","5","","43","","","","100.09","","","","-14","","NA"
"-85.83","47.33","CARIBOU ISLAND (AUT)","6041222","2023-03-11 00:00","2023","03","11","00:00","-5.3","","-10.2","","68","","","","5","","42","","","","100.07","","","","-15","","NA"
"-85.83","47.33","CARIBOU ISLAND (AUT)","6041222","2023-03-11 01:00","2023","03","11","01:00","-5.6","","-10.5","","68","","","","6","","36","","","","100.09","","","","-14","","NA"
"-85.83","47.33","CARIBOU ISLAND (AUT)","6041222","2023-03-11 02:00","2023","03","11","02:00","-6.1","","-10.6","","70","","","","6","","35","","","","100.14","","","","-15","","NA"
"-85.83","47.33","CARIBOU ISLAND (AUT)","6041222","2023-03-11 03:00","2023","03","11","03:00","-6.7","","-10.7","","73","","","","5","","34","","","","100.16","","","","-16","","NA"
"-85.83","47.33","CARIBOU ISLAND (AUT)","6041222","2023-03-11 04:00","2023","03","11","04:00","-7.1","","-10.5","","77","","","","4","","29","","","","100.18","","","","-16","","NA"
"-85.83","47.33","CARIBOU ISLAND (AUT)","6041222","2023-03-11 05:00","2023","03","11","05:00","-7.7","","-11.2","","76","","","","5","","34","","","","100.22","","","","-17","","NA"
"-85.83","47.33","CARIBOU ISLAND (AUT)","6041222","2023-03-11 06:00","2023","03","11","06:00","-8.4","","-11.0","","82","","","","5","","40","","","","100.21","","","","-19","","NA"
"-85.83","47.33","CARIBOU ISLAND (AUT)","6041222","2023-03-11 07:00","2023","03","11","07:00","-8.9","","-10.9","","86","","","","5","","40","","","","100.21","","","","-19","","NA"
"-85.83","47.33","CARIBOU ISLAND (AUT)","6041222","2023-03-11 08:00","2023","03","11","08:00","-8.9","","-10.8","","86","","","","5","","44","","","","100.23","","","","-20","","NA"
"-85.83","47.33","CARIBOU ISLAND (AUT)","6041222","2023-03-11 09:00","2023","03","11","09:00","-8.6","","-9.9","","90","","","","6","","44","","","","100.20","","","","-19","","NA"
"-85.83","47.33","CARIBOU ISLAND (AUT)","6041222","2023-03-11 10:00","2023","03","11","10:00","-7.9","","-9.9","","86","","","","6","","38","","","","100.18","","","","-18","","NA"
"-85.83","47.33","CARIBOU ISLAND (AUT)","6041222","2023-03-11 11:00","2023","03","11","11:00","-7.0","","-10.3","","77","","","","6","","28","","","","100.18","","","","-15","","NA"
"-85.83","47.33","CARIBOU ISLAND (AUT)","6041222","2023-03-11 12:00","2023","03","11","12:00","-5.7","","-10.0","","72","","","","6","","26","","","","100.15","","","","-13","","NA"
"-85.83","47.33","CARIBOU ISLAND (AUT)","6041222","2023-03-11 13:00","2023","03","11","13:00","-4.7","","-9.9","","67","","","","6","","22","","","","100.11","","","","-12","","NA"
"-85.83","47.33","CARIBOU ISLAND (AUT)","6041222","2023-03-11 14:00","2023","03","11","14:00","-3.7","","-9.7","","63","","","","5","","26","","","","100.00","","","","-11","","NA"
"-85.83","47.33","CARIBOU ISLAND (AUT)","6041222","2023-03-11 15:00","2023","03","11","15:00","-2.9","","-9.3","","61","","","","5","","25","","","","99.95","","","","-10","","NA"
"-85.83","47.33","CARIBOU ISLAND (AUT)","6041222","2023-03-11 16:00","2023","03","11","16:00","-2.3","","-9.0","","60","","","","4","","25","","","","99.91","","","","-9","","NA"
"-85.83","47.33","CARIBOU ISLAND (AUT)","6041222","2023-03-11 17:00","2023","03","11","17:00","-2.0","","-9.2","","58","","","","4","","25","","","","99.85","","","","-8","","NA"
"-85.83","47.33","CARIBOU ISLAND (AUT)","6041222","2023-03-11 18:00","2023","03","11","18:00","-1.9","","-8.4","","61","","","","5","","28","","","","99.80","","","","-9","","NA"
"-85.83","47.33","CARIBOU ISLAND (AUT)","6041222","2023-03-11 19:00","2023","03","11","19:00","-1.4","","-8.0","","61","","","","5","","28","","","","99.80","","","","-8","","NA"
"-85.83","47.33","CARIBOU ISLAND (AUT)","6041222","2023-03-11 20:00","2023","03","11","20:00","-1.1","","-8.5","","57","","","","5","","31","","","","99.81","","","","-8","","NA"
"-85.83","47.33","CARIBOU ISLAND (AUT)","6041222","2023-03-11 21:00","2023","03","11","21:00","-1.4","","-8.6","","58","","","","6","","32","","","","99.86","","","","-9","","NA"
"-85.83","47.33","CARIBOU ISLAND (AUT)","6041222","2023-03-11 22:00","2023","03","11","22:00","-1.7","","-8.9","","58","","","","7","","35","","","","99.84","","","","-9","","NA"
"-85.83","47.33","CARIBOU ISLAND (AUT)","6041222","2023-03-11 23:00","2023","03","11","23:00","-2.0","","-8.1","","63","","","","8","","37","","","","99.83","","","","-10","","NA"
"-85.83","47.33","CARIBOU ISLAND (AUT)","6041222","2023-03-12 00:00","2023","03","12","00:00","-2.6","","-8.2","","65","","","","8","","34","","","","99.82","","","","-10","","NA"
"-85.83","47.33","CARIBOU ISLAND (AUT)","6041222","2023-03-12 01:00","2023","03","12","01:00","-2.9","","-7.3","","71","","","","9","","40","","","","99.76","","","","-11","","NA"
"-85.83","47.33","CARIBOU ISLAND (AUT)","6041222","2023-03-12 02:00","2023","03","12","02:00","-3.0","","-6.6","","76","","","","9","","38","","","","99.77","","","","-11","","NA"
"-85.83","47.33","CARIBOU ISLAND (AUT)","6041222","2023-03-12 03:00","2023","03","12","03:00","-3.3","","-6.8","","76","","","","9","","32","","","","99.76","","","","-11","","NA"
"-85.83","47.33","CARIBOU ISLAND (AUT)","6041222","2023-03-12 04:00","2023","03","12","04:00","-3.6","","-7.1","","76","","","","9","","33","","","","99.69","","","","-12","","NA"
"-85.83","47.33","CARIBOU ISLAND (AUT)","6041222","2023-03-12 05:00","2023","03","12","05:00","-3.7","","-6.9","","79","","","","8","","31","","","","99.68","","","","-11","","NA"
"-85.83","47.33","CARIBOU ISLAND (AUT)","6041222","2023-03-12 06:00","2023","03","12","06:00","-3.8","","-6.7","","81","","","","9","","28","","","","99.67","","","","-11","","NA"
"-85.83","47.33","CARIBOU ISLAND (AUT)","6041222","2023-03-12 07:00","2023","03","12","07:00","-4.2","","-7.1","","80","","","","7","","27","","","","99.67","","","","-12","","NA"
"-85.83","47.33","CARIBOU ISLAND (AUT)","6041222","2023-03-12 08:00","2023","03","12","08:00","-4.5","","-7.3","","81","","","","7","","30","","","","99.69","","","","-12","","NA"
"-85.83","47.33","CARIBOU ISLAND (AUT)","6041222","2023-03-12 09:00","2023","03","12","09:00","-4.7","","-8.0","","78","","","","7","","28","","","","99.68","","","","-12","","NA"
"-85.83","47.33","CARIBOU ISLAND (AUT)","6041222","2023-03-12 10:00","2023","03","12","10:00","-4.5","","-7.6","","79","","","","7","","32","","","","99.68","","","","-13","","NA"
"-85.83","47.33","CARIBOU ISLAND (AUT)","6041222","2023-03-12 11:00","2023","03","12","11:00","-4.9","","-8.9","","73","","","","7","","34","","","","99.65","","","","-13","","NA"
"-85.83","47.33","CARIBOU ISLAND (AUT)","6041222","2023-03-12 12:00","2023","03","12","12:00","-4.7","","-8.6","","74","","","","7","","30","","","","99.61","","","","-13","","NA"
"-85.83","47.33","CARIBOU ISLAND (AUT)","6041222","2023-03-12 13:00","2023","03","12","13:00","-4.4","","-8.9","","71","","","","7","","30","","","","99.58","","","","-12","","NA"
"-85.83","47.33","CARIBOU ISLAND (AUT)","6041222","2023-03-12 14:00","2023","03","12","14:00","-3.0","","-8.3","","67","","","","7","","27","","","","99.52","","","","-10","","NA"
"-85.83","47.33","CARIBOU ISLAND (AUT)","6041222","2023-03-12 15:00","2023","03","12","15:00","-2.7","","-8.4","","64","","","","5","","25","","","","99.50","","","","-9","","NA"
"-85.83","47.33","CARIBOU ISLAND (AUT)","6041222","2023-03-12 16:00","2023","03","12","16:00","-2.6","","-8.2","","66","","","","4","","27","","","","99.48","","","","-10","","NA"
"-85.83","47.33","CARIBOU ISLAND (AUT)","6041222","2023-03-12 17:00","2023","03","12","17:00","-2.9","","-9.3","","62","","","","4","","29","","","","99.47","","","","-10","","NA"
"-85.83","47.33","CARIBOU ISLAND (AUT)","6041222","2023-03-12 18:00","2023","03","12","18:00","-2.8","","-8.6","","64","","","","4","","32","","","","99.48","","","","-10","","NA"
"-85.83","47.33","CARIBOU ISLAND (AUT)","6041222","2023-03-12 19:00","2023","03","12","19:00","-2.8","","-9.1","","62","","","","5","","35","","","","99.50","","","","-11","","NA"
"-85.83","47.33","CARIBOU ISLAND (AUT)","6041222","2023-03-12 20:00","2023","03","12","20:00","-2.8","","-9.2","","62","","","","5","","34","","","","99.55","","","","-11","","NA"
"-85.83","47.33","CARIBOU ISLAND (AUT)","6041222","2023-03-12 21:00","2023","03","12","21:00","-3.4","","-9.6","","62","","","","5","","36","","","","99.59","","","","-12","","NA"
"-85.83","47.33","CARIBOU ISLAND (AUT)","6041222","2023-03-12 22:00","2023","03","12","22:00","-4.2","","-9.7","","66","","","","5","","38","","","","99.65","","","","-13","","NA"
"-85.83","47.33","CARIBOU ISLAND (AUT)","6041222","2023-03-12 23:00","2023","03","12","23:00","-5.1","","-11.1","","63","","","","5","","39","","","","99.66","","","","-14","","NA"
"-85.83","47.33","CARIBOU ISLAND (AUT)","6041222","2023-03-13 00:00","2023","03","13","00:00","-5.8","","-10.7","","68","","","","6","","41","","","","99.70","","","","-15","","NA"
"-85.83","47.33","CARIBOU ISLAND (AUT)","6041222","2023-03-13 01:00","2023","03","13","01:00","-6.4","","-10.8","","71","","","","5","","39","","","","99.70","","","","-16","","NA"
"-85.83","47.33","CARIBOU ISLAND (AUT)","6041222","2023-03-13 02:00","2023","03","13","02:00","-6.8","","-10.9","","72","","","","5","","37","","","","99.74","","","","-16","","NA"
"-85.83","47.33","CARIBOU ISLAND (AUT)","6041222","2023-03-13 03:00","2023","03","13","03:00","-7.2","","-10.3","","79","","","","4","","38","","","","99.73","","","","-17","","NA"
"-85.83","47.33","CARIBOU ISLAND (AUT)","6041222","2023-03-13 04:00","2023","03","13","04:00","-8.0","","-10.8","","80","","","","4","","36","","","","99.73","","","","-18","","NA"
"-85.83","47.33","CARIBOU ISLAND (AUT)","6041222","2023-03-13 05:00","2023","03","13","05:00","-8.4","","-10.8","","83","","","","4","","41","","","","99.75","","","","-19","","NA"
"-85.83","47.33","CARIBOU ISLAND (AUT)","6041222","2023-03-13 06:00","2023","03","13","06:00","-8.9","","-11.2","","83","","","","4","","41","","","","99.80","","","","-19","","NA"
"-85.83","47.33","CARIBOU ISLAND (AUT)","6041222","2023-03-13 07:00","2023","03","13","07:00","-8.9","","-11.3","","83","","","","3","","38","","","","99.85","","","","-19","","NA"
"-85.83","47.33","CARIBOU ISLAND (AUT)","6041222","2023-03-13 08:00","2023","03","13","08:00"
"-85.83","47.33","CARIBOU ISLAND (AUT)","6041222","2023-03-13 09:00","2023","03","13","09:00","-9.2","","-11.9","","81","","","","3","","38","","","","99.98","","","","-19","","NA"
"-85.83","47.33","CARIBOU ISLAND (AUT)","6041222","2023-03-13 10:00","2023","03","13","10:00","-9.3","","-12.0","","81","","","","3","","35","","","","100.00","","","","-19","","NA"
"-85.83","47.33","CARIBOU ISLAND (AUT)","6041222","2023-03-13 11:00","2023","03","13","11:00","-8.2","","-11.4","","78","","","","3","","35","","","","100.01","","","","-18","","NA"
"-85.83","47.33","CARIBOU ISLAND (AUT)","6041222","2023-03-13 12:00","2023","03","13","12:00","-7.9","","-12.6","","69","","","","3","","33","","","","99.99","","","","-17","","NA"
"-85.83","47.33","CARIBOU ISLAND (AUT)","6041222","2023-03-13 13:00","2023","03","13","13:00","-6.8","","-12.7","","63","","","","2","","34","","","","99.98","","","","-16","","NA"
"-85.83","47.33","CARIBOU ISLAND (AUT)","6041222","2023-03-13 14:00","2023","03","13","14:00","-5.5","","-12.6","","57","","","","2","","31","","","","99.95","","","","-14","","NA"
"-85.83","47.33","CARIBOU ISLAND (AUT)","6041222","2023-03-13 15:00","2023","03","13","15:00","-4.1","","-12.1","","54","","","","1","","24","","","","99.93","","","","-11","","NA"
"-85.83","47.33","CARIBOU ISLAND (AUT)","6041222","2023-03-13 16:00","2023","03","13","16:00","-3.7","","-12.9","","49","","","","1","","24","","","","99.92","","","","-11","","NA"
"-85.83","47.33","CARIBOU ISLAND (AUT)","6041222","2023-03-13 17:00","2023","03","13","17:00","-3.6","","-14.0","","45","","","","2","","24","","","","99.93","","","","-10","","NA"
"-85.83","47.33","CARIBOU ISLAND (AUT)","6041222","2023-03-13 18:00","2023","03","13","18:00","-3.4","","-12.7","","49","","","","2","","25","","","","99.96","","","","-10","","NA"
"-85.83","47.33","CARIBOU ISLAND (AUT)","6041222","2023-03-13 19:00","2023","03","13","19:00","-3.7","","-12.2","","52","","","","2","","25","","","","100.02","","","","-11","","NA"
"-85.83","47.33","CARIBOU ISLAND (AUT)","6041222","2023-03-13 20:00","2023","03","13","20:00","-4.1","","-13.2","","49","","","","3","","29","","","","100.07","","","","-12","","NA"
"-85.83","47.33","CARIBOU ISLAND (AUT)","6041222","2023-03-13 21:00","2023","03","13","21:00","-4.8","","-12.7","","54","","","","3","","32","","","","100.14","","","","-13","","NA"
"-85.83","47.33","CARIBOU ISLAND (AUT)","6041222","2023-03-13 22:00","2023","03","13","22:00","-5.6","","-12.4","","59","","","","3","","27","","","","100.17","","","","-13","","NA"
"-85.83","47.33","CARIBOU ISLAND (AUT)","6041222","2023-03-13 23:00","2023","03","13","23:00","-6.2","","-12.7","","60","","","","3","","28","","","","100.19","","","","-14","","NA"
"-85.83","47.33","CARIBOU ISLAND (AUT)","6041222","2023-03-14 00:00","2023","03","14","00:00","-6.7","","-12.4","","63","","","","3","","29","","","","100.24","","","","-15","","NA"
"-85.83","47.33","CARIBOU ISLAND (AUT)","6041222","2023-03-14 01:00","2023","03","14","01:00","-7.1","","-12.5","","65","","","","3","","31","","","","100.23","","","","-16","","NA"
"-85.83","47.33","CARIBOU ISLAND (AUT)","6041222","2023-03-14 02:00","2023","03","14","02:00","-7.5","","-11.9","","70","","","","3","","24","","","","100.27","","","","-15","","NA"
"-85.83","47.33","CARIBOU ISLAND (AUT)","6041222","2023-03-14 03:00","2023","03","14","03:00","-7.9","","-12.0","","72","","","","3","","26","","","","100.29","","","","-16","","NA"
"-85.83","47.33","CARIBOU ISLAND (AUT)","6041222","2023-03-14 04:00","2023","03","14","04:00","-8.3","","-12.4","","72","","","","3","","21","","","","100.32","","","","-16","","NA"
"-85.83","47.33","CARIBOU ISLAND (AUT)","6041222","2023-03-14 05:00","2023","03","14","05:00","-8.4","","-11.9","","76","","","","3","","21","","","","100.36","","","","-16","","NA"
"-85.83","47.33","CARIBOU ISLAND (AUT)","6041222","2023-03-14 06:00","2023","03","14","06:00","-8.6","","-12.2","","75","","","","3","","24","","","","100.43","","","","-17","","NA"
"-85.83","47.33","CARIBOU ISLAND (AUT)","6041222","2023-03-14 07:00","2023","03","14","07:00","-8.8","","-12.2","","77","","","","2","","18","","","","100.49","","","","-16","","NA"
"-85.83","47.33","CARIBOU ISLAND (AUT)","6041222","2023-03-14 08:00","2023","03","14","08:00","-8.3","","-11.2","","80","","","","4","","17","","","","100.51","","","","-15","","NA"
"-85.83","47.33","CARIBOU ISLAND (AUT)","6041222","2023-03-14 09:00","2023","03","14","09:00","-7.8","","-10.8","","79","","","","4","","20","","","","100.56","","","","-15","","NA"
"-85.83","47.33","CARIBOU ISLAND (AUT)","6041222","2023-03-14 10:00","2023","03","14","10:00","-7.2","","-11.2","","74","","","","2","","17","","","","100.60","","","","-14","","NA"
"-85.83","47.33","CARIBOU ISLAND (AUT)","6041222","2023-03-14 11:00","2023","03","14","11:00","-5.9","","-10.8","","68","","","","3","","15","","","","100.58","","","","-12","","NA"
"-85.83","47.33","CARIBOU ISLAND (AUT)","6041222","2023-03-14 12:00","2023","03","14","12:00","-4.7","","-11.3","","60","","","","1","","8","","","","100.60","","","","-8","","NA"
"-85.83","47.33","CARIBOU ISLAND (AUT)","6041222","2023-03-14 13:00","2023","03","14","13:00","-5.1","","-12.4","","57","","","","32","","8","","","","100.56","","","","-9","","NA"
"-85.83","47.33","CARIBOU ISLAND (AUT)","6041222","2023-03-14 14:00","2023","03","14","14:00","-3.8","","-10.0","","62","","","","27","","10","","","","100.51","","","","-8","","NA"
"-85.83","47.33","CARIBOU ISLAND (AUT)","6041222","2023-03-14 15:00","2023","03","14","15:00","-3.5","","-9.9","","61","","","","30","","18","","","","100.47","","","","-9","","NA"
"-85.83","47.33","CARIBOU ISLAND (AUT)","6041222","2023-03-14 16:00","2023","03","14","16:00","-3.5","","-10.8","","57","","","","30","","15","","","","100.43","","","","-9","","NA"
"-85.83","47.33","CARIBOU ISLAND (AUT)","6041222","2023-03-14 17:00","2023","03","14","17:00","-3.2","","-10.1","","59","","","","30","","20","","","","100.41","","","","-9","","NA"
"-85.83","47.33","CARIBOU ISLAND (AUT)","6041222","2023-03-14 18:00","2023","03","14","18:00","-3.3","","-9.9","","60","","","","31","","17","","","","100.39","","","","-9","","NA"
"-85.83","47.33","CARIBOU ISLAND (AUT)","6041222","2023-03-14 19:00","2023","03","14","19:00","-3.5","","-8.7","","67","","","","28","","12","","","","100.33","","","","-8","","NA"
"-85.83","47.33","CARIBOU ISLAND (AUT)","6041222","2023-03-14 20:00","2023","03","14","20:00","-3.6","","-10.0","","61","","","","26","","8","","","","100.25","","","","-7","","NA"
"-85.83","47.33","CARIBOU ISLAND (AUT)","6041222","2023-03-14 21:00","2023","03","14","21:00","-3.2","","-9.5","","62","","","","21","","7","","","","100.22","","","","-6","","NA"
"-85.83","47.33","CARIBOU ISLAND (AUT)","6041222","2023-03-14 22:00","2023","03","14","22:00","-2.8","","-8.6","","64","","","","19","","9","","","","100.20","","","","-6","","NA"
"-85.83","47.33","CARIBOU ISLAND (AUT)","6041222","2023-03-14 23:00","2023","03","14","23:00","-2.5","","-8.5","","64","","","","19","","11","","","","100.17","","","","-7","","NA"
"-85.83","47.33","CARIBOU ISLAND (AUT)","6041222","2023-03-15 00:00","2023","03","15","00:00","-2.0","","-7.1","","68","","","","18","","16","","","","100.16","","","","-7","","NA"
"-85.83","47.33","CARIBOU ISLAND (AUT)","6041222","2023-03-15 01:00","2023","03","15","01:00","-1.4","","-6.7","","67","","","","19","","22","","","","100.09","","","","-7","","NA"
"-85.83","47.33","CARIBOU ISLAND (AUT)","6041222","2023-03-15 02:00","2023","03","15","02:00","-0.9","","-5.3","","72","","","","20","","26","","","","100.04","","","","-7","","NA"
"-85.83","47.33","CARIBOU ISLAND (AUT)","6041222","2023-03-15 03:00","2023","03","15","03:00","-0.3","","-4.4","","74","","","","19","","27","","","","99.96","","","","-7","","NA"
"-85.83","47.33","CARIBOU ISLAND (AUT)","6041222","2023-03-15 04:00","2023","03","15","04:00","-0.1","","-4.1","","74","","","","21","","27","","","","99.88","","","","-6","","NA"
"-85.83","47.33","CARIBOU ISLAND (AUT)","6041222","2023-03-15 05:00","2023","03","15","05:00","-0.1","","-4.8","","71","","","","22","","32","","","","99.82","","","","-7","","NA"
"-85.83","47.33","CARIBOU ISLAND (AUT)","6041222","2023-03-15 06:00","2023","03","15","06:00","-0.2","","-5.2","","69","","","","20","","34","","","","99.69","","","","-7","","NA"
"-85.83","47.33","CARIBOU ISLAND (AUT)","6041222","2023-03-15 07:00","2023","03","15","07:00","-0.1","","-6.2","","63","","","","20","","37","","","","99.63","","","","-7","","NA"
"-85.83","47.33","CARIBOU ISLAND (AUT)","6041222","2023-03-15 08:00","2023","03","15","08:00","-0.6","","-5.8","","68","","","","20","","42","","","","99.57","","","","-8","","NA"
"-85.83","47.33","CARIBOU ISLAND (AUT)","6041222","2023-03-15 09:00","2023","03","15","09:00","-0.6","","-4.5","","75","","","","20","","40","","","","99.54","","","","-8","","NA"
"-85.83","47.33","CARIBOU ISLAND (AUT)","6041222","2023-03-15 10:00","2023","03","15","10:00","-0.2","","-4.0","","76","","","","21","","40","","","","99.47","","","","-8","","NA"
"-85.83","47.33","CARIBOU ISLAND (AUT)","6041222","2023-03-15 11:00","2023","03","15","11:00","0.6","","-3.8","","72","","0.0","","21","","44","","","","99.39","","","","","","NA"
"-85.83","47.33","CARIBOU ISLAND (AUT)","6041222","2023-03-15 12:00","2023","03","15","12:00","1.5","","-3.3","","71","","0.0","","21","","38","","","","99.34","","","","","","NA"
"-85.83","47.33","CARIBOU ISLAND (AUT)","6041222","2023-03-15 13:00","2023","03","15","13:00","2.2","","-2.3","","72","","0.0","","21","","29","","","","99.29","","","","","","NA"
"-85.83","47.33","CARIBOU ISLAND (AUT)","6041222","2023-03-15 14:00","2023","03","15","14:00","2.8","","-1.3","","74","","0.0","","20","","18","","","","99.19","","","","","","NA"
"-85.83","47.33","CARIBOU ISLAND (AUT)","6041222","2023-03-15 15:00","2023","03","15","15:00","3.2","","-0.4","","77","","0.0","","21","","12","","","","99.13","","","","","","NA"
"-85.83","47.33","CARIBOU ISLAND (AUT)","6041222","2023-03-15 16:00","2023","03","15","16:00","4.0","","-0.3","","74","","0.0","","17","","8","","","","99.10","","","","","","NA"
"-85.83","47.33","CARIBOU ISLAND (AUT)","6041222","2023-03-15 17:00","2023","03","15","17:00","2.9","","0.0","","81","","0.0","","12","","8","","","","99.09","","","","","","NA"
"-85.83","47.33","CARIBOU ISLAND (AUT)","6041222","2023-03-15 18:00","2023","03","15","18:00","2.1","","0.0","","86","","0.0","","15","","10","","","","99.06","","","","","","NA"
"-85.83","47.33","CARIBOU ISLAND (AUT)","6041222","2023-03-15 19:00","2023","03","15","19:00","1.9","","0.2","","88","","0.0","","17","","17","","","","99.03","","","","","","NA"
"-85.83","47.33","CARIBOU ISLAND (AUT)","6041222","2023-03-15 20:00","2023","03","15","20:00","1.9","","0.2","","88","","0.0","","18","","20","","","","99.03","","","","","","NA"
"-85.83","47.33","CARIBOU ISLAND (AUT)","6041222","2023-03-15 21:00","2023","03","15","21:00","1.9","","-0.2","","87","","0.0","","18","","21","","","","98.98","","","","","","NA"
"-85.83","47.33","CARIBOU ISLAND (AUT)","6041222","2023-03-15 22:00","2023","03","15","22:00","1.9","","-0.2","","86","","0.0","","20","","21","","","","98.97","","","","","","NA"
"-85.83","47.33","CARIBOU ISLAND (AUT)","6041222","2023-03-15 23:00","2023","03","15","23:00","1.8","","-0.1","","87","","0.2","","20","","17","","","","98.99","","","","","","NA"
"-85.83","47.33","CARIBOU ISLAND (AUT)","6041222","2023-03-16 00:00","2023","03","16","00:00","1.7","","0.6","","92","","0.2","","21","","22","","","","98.96","","","","","","NA"
"-85.83","47.33","CARIBOU ISLAND (AUT)","6041222","2023-03-16 01:00","2023","03","16","01:00","1.9","","0.6","","91","","0.2","","22","","29","","","","98.90","","","","","","NA"
"-85.83","47.33","CARIBOU ISLAND (AUT)","6041222","2023-03-16 02:00","2023","03","16","02:00","1.9","","0.6","","91","","0.4","","22","","25","","","","98.90","","","","","","NA"
"-85.83","47.33","CARIBOU ISLAND (AUT)","6041222","2023-03-16 03:00","2023","03","16","03:00","1.7","","0.7","","93","","0.2","","21","","16","","","","98.83","","","","","","NA"
"-85.83","47.33","CARIBOU ISLAND (AUT)","6041222","2023-03-16 04:00","2023","03","16","04:00","1.7","","0.8","","94","","0.2","","20","","12","","","","98.78","","","","","","NA"
"-85.83","47.33","CARIBOU ISLAND (AUT)","6041222","2023-03-16 05:00","2023","03","16","05:00","1.6","","0.8","","95","","0.0","","14","","8","","","","98.75","","","","","","NA"
"-85.83","47.33","CARIBOU ISLAND (AUT)","6041222","2023-03-16 06:00","2023","03","16","06:00","1.5","","0.9","","96","","0.0","","14","","16","","","","98.72","","","","","","NA"
"-85.83","47.33","CARIBOU ISLAND (AUT)","6041222","2023-03-16 07:00","2023","03","16","07:00","1.6","","0.9","","95","","0.0","","13","","18","","","","98.66","","","","","","NA"
"-85.83","47.33","CARIBOU ISLAND (AUT)","6041222","2023-03-16 08:00","2023","03","16","08:00","1.6","","0.9","","96","","0.0","","12","","18","","","","98.66","","","","","","NA"
"-85.83","47.33","CARIBOU ISLAND (AUT)","6041222","2023-03-16 09:00","2023","03","16","09:00","1.6","","1.0","","96","","0.0","","11","","21","","","","98.57","","","","","","NA"
"-85.83","47.33","CARIBOU ISLAND (AUT)","6041222","2023-03-16 10:00","2023","03","16","10:00","1.8","","1.0","","95","","0.0","","11","","24","","","","98.52","","","","","","NA"
"-85.83","47.33","CARIBOU ISLAND (AUT)","6041222","2023-03-16 11:00","2023","03","16","11:00","1.9","","0.9","","93","","0.0","","13","","23","","","","98.46","","","","","","NA"
"-85.83","47.33","CARIBOU ISLAND (AUT)","6041222","2023-03-16 12:00","2023","03","16","12:00","1.9","","0.9","","93","","0.0","","13","","21","","","","98.40","","","","","","NA"
"-85.83","47.33","CARIBOU ISLAND (AUT)","6041222","2023-03-16 13:00","2023","03","16","13:00","1.6","","0.9","","95","","0.0","","12","","20","","","","98.32","","","","","","NA"
"-85.83","47.33","CARIBOU ISLAND (AUT)","6041222","2023-03-16 14:00","2023","03","16","14:00","1.5","","0.8","","95","","0.0","","11","","18","","","","98.26","","","","","","NA"
"-85.83","47.33","CARIBOU ISLAND (AUT)","6041222","2023-03-16 15:00","2023","03","16","15:00","1.6","","0.6","","94","","0.2","","10","","22","","","","98.16","","","","","","NA"
"-85.83","47.33","CARIBOU ISLAND (AUT)","6041222","2023-03-16 16:00","2023","03","16","16:00","1.7","","0.6","","93","","0.4","","11","","27","","","","98.09","","","","","","NA"
"-85.83","47.33","CARIBOU ISLAND (AUT)","6041222","2023-03-16 17:00","2023","03","16","17:00","1.9","","0.6","","91","","0.4","","11","","26","","","","98.07","","","","","","NA"
"-85.83","47.33","CARIBOU ISLAND (AUT)","6041222","2023-03-16 18:00","2023","03","16","18:00","2.1","","0.6","","90","","0.2","","11","","24","","","","98.03","","","","","","NA"
"-85.83","47.33","CARIBOU ISLAND (AUT)","6041222","2023-03-16 19:00","2023","03","16","19:00","2.1","","1.0","","92","","0.4","","12","","25","","","","97.96","","","","","","NA"
"-85.83","47.33","CARIBOU ISLAND (AUT)","6041222","2023-03-16 20:00","2023","03","16","20:00","2.2","","1.1","","92","","0.8","","14","","30","","","","97.90","","","","","","NA"
"-85.83","47.33","CARIBOU ISLAND (AUT)","6041222","2023-03-16 21:00","2023","03","16","21:00","1.7","","0.9","","95","","0.4","","13","","30","","","","97.88","","","","","","NA"
"-85.83","47.33","CARIBOU ISLAND (AUT)","6041222","2023-03-16 22:00","2023","03","16","22:00","1.3","","0.8","","97","","0.6","","13","","24","","","","97.82","","","","","","NA"
"-85.83","47.33","CARIBOU ISLAND (AUT)","6041222","2023-03-16 23:00","2023","03","16","23:00","0.9","","0.7","","98","","0.4","","11","","24","","","","97.67","","","","","","NA"
"-85.83","47.33","CARIBOU ISLAND (AUT)","6041222","2023-03-17 00:00","2023","03","17","00:00","1.0","","0.7","","98","","0.2","","10","","30","","","","97.51","","","","","","NA"
"-85.83","47.33","CARIBOU ISLAND (AUT)","6041222","2023-03-17 01:00","2023","03","17","01:00","0.8","","0.5","","98","","0.4","","10","","24","","","","97.43","","","","","","NA"
"-85.83","47.33","CARIBOU ISLAND (AUT)","6041222","2023-03-17 02:00","2023","03","17","02:00","0.4","","0.2","","98","","","","7","","18","","","","97.34","","","","","","NA"
"-85.83","47.33","CARIBOU ISLAND (AUT)","6041222","2023-03-17 03:00","2023","03","17","03:00","0.3","","0.1","","99","","","","6","","22","","","","97.22","","","","","","NA"
"-85.83","47.33","CARIBOU ISLAND (AUT)","6041222","2023-03-17 04:00","2023","03","17","04:00","0.3","","0.1","","99","","","","5","","26","","","","97.12","","","","","","NA"
"-85.83","47.33","CARIBOU ISLAND (AUT)","6041222","2023-03-17 05:00","2023","03","17","05:00","-0.6","","-0.9","","98","","","","5","","38","","","","97.03","","","","-8","","NA"
"-85.83","47.33","CARIBOU ISLAND (AUT)","6041222","2023-03-17 06:00","2023","03","17","06:00","-1.3","","-1.7","","97","","","","4","","44","","","","96.95","","","","-9","","NA"
"-85.83","47.33","CARIBOU ISLAND (AUT)","6041222","2023-03-17 07:00","2023","03","17","07:00","-2.0","","-2.6","","95","","","","4","","46","","","","96.89","","","","-11","","NA"
"-85.83","47.33","CARIBOU ISLAND (AUT)","6041222","2023-03-17 08:00","2023","03","17","08:00","-2.4","","-3.2","","94","","","","4","","45","","","","96.86","","","","-11","","NA"
"-85.83","47.33","CARIBOU ISLAND (AUT)","6041222","2023-03-17 09:00","2023","03","17","09:00","-3.0","","-4.2","","91","","","","4","","46","","","","96.82","","","","-12","","NA"
"-85.83","47.33","CARIBOU ISLAND (AUT)","6041222","2023-03-17 10:00","2023","03","17","10:00","-3.5","","-4.6","","92","","","","4","","44","","","","96.81","","","","-12","","NA"
"-85.83","47.33","CARIBOU ISLAND (AUT)","6041222","2023-03-17 11:00","2023","03","17","11:00","-3.6","","-4.6","","93","","","","36","","31","","","","96.98","","","","-11","","NA"
"-85.83","47.33","CARIBOU ISLAND (AUT)","6041222","2023-03-17 12:00","2023","03","17","12:00","-3.2","","-4.0","","94","","","","31","","22","","","","97.08","","","","-10","","NA"
"-85.83","47.33","CARIBOU ISLAND (AUT)","6041222","2023-03-17 13:00","2023","03","17","13:00","-3.4","","-4.8","","90","","","","31","","30","","","","97.13","","","","-11","","NA"
"-85.83","47.33","CARIBOU ISLAND (AUT)","6041222","2023-03-17 14:00","2023","03","17","14:00","-4.0","","-5.4","","90","","","","31","","30","","","","97.20","","","","-12","","NA"
"-85.83","47.33","CARIBOU ISLAND (AUT)","6041222","2023-03-17 15:00","2023","03","17","15:00","-4.1","","-5.4","","90","","","","30","","41","","","","97.27","","","","-13","","NA"
"-85.83","47.33","CARIBOU ISLAND (AUT)","6041222","2023-03-17 16:00","2023","03","17","16:00","-4.3","","-7.4","","79","","","","29","","54","","","","97.38","","","","-14","","NA"
"-85.83","47.33","CARIBOU ISLAND (AUT)","6041222","2023-03-17 17:00","2023","03","17","17:00","-4.4","","-6.9","","83","","","","29","","43","","","","97.52","","","","-14","","NA"
"-85.83","47.33","CARIBOU ISLAND (AUT)","6041222","2023-03-17 18:00","2023","03","17","18:00","-4.4","","-6.6","","85","","","","30","","41","","","","97.59","","","","-13","","NA"
"-85.83","47.33","CARIBOU ISLAND (AUT)","6041222","2023-03-17 19:00","2023","03","17","19:00","-4.2","","-7.8","","76","","","","30","","43","","","","97.65","","","","-13","","NA"
"-85.83","47.33","CARIBOU ISLAND (AUT)","6041222","2023-03-17 20:00","2023","03","17","20:00","-4.8","","-5.7","","94","","","","26","","43","","","","97.69","","","","-14","","NA"
"-85.83","47.33","CARIBOU ISLAND (AUT)","6041222","2023-03-17 21:00","2023","03","17","21:00","-5.7","","-6.8","","92","","","","2","","18","","","","97.75","","","","-12","","NA"
"-85.83","47.33","CARIBOU ISLAND (AUT)","6041222","2023-03-17 22:00","2023","03","17","22:00","-6.5","","-8.0","","89","","","","2","","26","","","","97.81","","","","-14","","NA"
"-85.83","47.33","CARIBOU ISLAND (AUT)","6041222","2023-03-17 23:00","2023","03","17","23:00","-6.7","","-8.6","","87","","","","3","","26","","","","97.86","","","","-15","","NA"
"-85.83","47.33","CARIBOU ISLAND (AUT)","6041222","2023-03-18 00:00","2023","03","18","00:00","-7.3","","-9.3","","86","","","","4","","30","","","","97.88","","","","-16","","NA"
"-85.83","47.33","CARIBOU ISLAND (AUT)","6041222","2023-03-18 01:00","2023","03","18","01:00","-7.7","","-10.2","","82","","","","3","","33","","","","97.90","","","","-17","","NA"
"-85.83","47.33","CARIBOU ISLAND (AUT)","6041222","2023-03-18 02:00","2023","03","18","02:00","-8.3","","-11.2","","80","","","","3","","30","","","","97.96","","","","-17","","NA"
"-85.83","47.33","CARIBOU ISLAND (AUT)","6041222","2023-03-18 03:00","2023","03","18","03:00","-8.8","","-11.2","","83","","","","3","","32","","","","98.00","","","","-18","","NA"
"-85.83","47.33","CARIBOU ISLAND (AUT)","6041222","2023-03-18 04:00","2023","03","18","04:00","-9.2","","-12.2","","78","","","","3","","29","","","","98.03","","","","-18","","NA"
"-85.83","47.33","CARIBOU ISLAND (AUT)","6041222","2023-03-18 05:00","2023","03","18","05:00","-9.3","","-11.8","","82","","","","3","","29","","","","98.09","","","","-18","","NA"
"-85.83","47.33","CARIBOU ISLAND (AUT)","6041222","2023-03-18 06:00","2023","03","18","06:00","-9.5","","-10.8","","90","","","","1","","28","","","","98.15","","","","-19","","NA"
"-85.83","47.33","CARIBOU ISLAND (AUT)","6041222","2023-03-18 07:00","2023","03","18","07:00","-9.6","","-11.4","","87","","","","1","","31","","","","98.20","","","","-19","","NA"
"-85.83","47.33","CARIBOU ISLAND (AUT)","6041222","2023-03-18 08:00","2023","03","18","08:00","-9.9","","-12.8","","79","","","","1","","28","","","","98.25","","","","-19","","NA"
"-85.83","47.33","CARIBOU ISLAND (AUT)","6041222","2023-03-18 09:00","2023","03","18","09:00","-9.9","","-12.9","","79","","","","1","","27","","","","98.30","","","","-19","","NA"
"-85.83","47.33","CARIBOU ISLAND (AUT)","6041222","2023-03-18 10:00","2023","03","18","10:00","-9.5","","-11.9","","82","","","","1","","28","","","","98.34","","","","-19","","NA"
"-85.83","47.33","CARIBOU ISLAND (AUT)","6041222","2023-03-18 11:00","2023","03","18","11:00","-9.8","","-12.5","","80","","","","36","","30","","","","98.40","","","","-19","","NA"
"-85.83","47.33","CARIBOU ISLAND (AUT)","6041222","2023-03-18 12:00","2023","03","18","12:00","-9.7","","-12.8","","78","","","","36","","29","","","","98.48","","","","-19","","NA"
"-85.83","47.33","CARIBOU ISLAND (AUT)","6041222","2023-03-18 13:00","2023","03","18","13:00","-9.8","","-13.2","","76","","","","36","","33","","","","98.53","","","","-20","","NA"
"-85.83","47.33","CARIBOU ISLAND (AUT)","6041222","2023-03-18 14:00","2023","03","18","14:00","-9.2","","-12.7","","76","","","","35","","42","","","","98.55","","","","-20","","NA"
"-85.83","47.33","CARIBOU ISLAND (AUT)","6041222","2023-03-18 15:00","2023","03","18","15:00","-8.2","","-11.1","","80","","","","33","","39","","","","98.59","","","","-18","","NA"
"-85.83","47.33","CARIBOU ISLAND (AUT)","6041222","2023-03-18 16:00","2023","03","18","16:00","-7.3","","-10.4","","79","","","","34","","45","","","","98.65","","","","-18","","NA"
"-85.83","47.33","CARIBOU ISLAND (AUT)","6041222","2023-03-18 17:00","2023","03","18","17:00","-6.1","","-9.0","","80","","","","34","","43","","","","98.72","","","","-16","","NA"
"-85.83","47.33","CARIBOU ISLAND (AUT)","6041222","2023-03-18 18:00","2023","03","18","18:00","-5.1","","-8.7","","76","","","","33","","44","","","","98.78","","","","-15","","NA"
"-85.83","47.33","CARIBOU ISLAND (AUT)","6041222","2023-03-18 19:00","2023","03","18","19:00","-4.7","","-9.4","","70","","","","33","","50","","","","98.84","","","","-15","","NA"
"-85.83","47.33","CARIBOU ISLAND (AUT)","6041222","2023-03-18 20:00","2023","03","18","20:00","-4.2","","-8.2","","73","","","","32","","42","","","","98.93","","","","-13","","NA"
"-85.83","47.33","CARIBOU ISLAND (AUT)","6041222","2023-03-18 21:00","2023","03","18","21:00","-4.7","","-9.2","","70","","","","32","","41","","","","99.01","","","","-14","","NA"
"-85.83","47.33","CARIBOU ISLAND (AUT)","6041222","2023-03-18 22:00","2023","03","18","22:00","-4.8","","-9.4","","70","","","","33","","45","","","","99.07","","","","-14","","NA"
"-85.83","47.33","CARIBOU ISLAND (AUT)","6041222","2023-03-18 23:00","2023","03","18","23:00","-4.4","","-8.4","","73","","","","33","","39","","","","99.08","","","","-13","","NA"
"-85.83","47.33","CARIBOU ISLAND (AUT)","6041222","2023-03-19 00:00","2023","03","19","00:00","-4.7","","-10.0","","67","","","","33","","43","","","","99.10","","","","-14","","NA"
"-85.83","47.33","CARIBOU ISLAND (AUT)","6041222","2023-03-19 01:00","2023","03","19","01:00","-4.5","","-9.7","","67","","","","33","","38","","","","99.10","","","","-13","","NA"
"-85.83","47.33","CARIBOU ISLAND (AUT)","6041222","2023-03-19 02:00","2023","03","19","02:00","-4.5","","-9.4","","69","","","","33","","37","","","","99.12","","","","-13","","NA"
"-85.83","47.33","CARIBOU ISLAND (AUT)","6041222","2023-03-19 03:00","2023","03","19","03:00","-4.1","","-9.3","","67","","","","32","","29","","","","99.14","","","","-12","","NA"
"-85.83","47.33","CARIBOU ISLAND (AUT)","6041222","2023-03-19 04:00","2023","03","19","04:00","-3.5","","-8.9","","66","","","","32","","27","","","","99.10","","","","-11","","NA"
"-85.83","47.33","CARIBOU ISLAND (AUT)","6041222","2023-03-19 05:00","2023","03","19","05:00","-2.8","","-7.4","","70","","","","32","","28","","","","99.05","","","","-10","","NA"
"-85.83","47.33","CARIBOU ISLAND (AUT)","6041222","2023-03-19 06:00","2023","03","19","06:00","-2.5","","-7.1","","71","","","","32","","27","","","","99.03","","","","-9","","NA"
"-85.83","47.33","CARIBOU ISLAND (AUT)","6041222","2023-03-19 07:00","2023","03","19","07:00","-2.0","","-6.3","","72","","","","30","","33","","","","99.01","","","","-9","","NA"
"-85.83","47.33","CARIBOU ISLAND (AUT)","6041222","2023-03-19 08:00","2023","03","19","08:00","-1.4","","-6.8","","67","","","","28","","38","","","","98.98","","","","-9","","NA"
"-85.83","47.33","CARIBOU ISLAND (AUT)","6041222","2023-03-19 09:00","2023","03","19","09:00","-1.1","","-5.9","","70","","","","28","","46","","","","98.96","","","","-9","","NA"
"-85.83","47.33","CARIBOU ISLAND (AUT)","6041222","2023-03-19 10:00","2023","03","19","10:00","-0.8","","-6.1","","68","","","","29","","46","","","","98.96","","","","-9","","NA"
"-85.83","47.33","CARIBOU ISLAND (AUT)","6041222","2023-03-19 11:00","2023","03","19","11:00","0.1","","-5.3","","67","","","","28","","48","","","","98.94","","","","","","NA"
"-85.83","47.33","CARIBOU ISLAND (AUT)","6041222","2023-03-19 12:00","2023","03","19","12:00","-0.7","","-4.3","","77","","","","26","","47","","","","98.91","","","","-9","","NA"
"-85.83","47.33","CARIBOU ISLAND (AUT)","6041222","2023-03-19 13:00","2023","03","19","13:00","-0.7","","-3.9","","79","","","","26","","47","","","","98.91","","","","-9","","NA"
"-85.83","47.33","CARIBOU ISLAND (AUT)","6041222","2023-03-19 14:00","2023","03","19","14:00","-0.7","","-5.1","","72","","","","26","","47","","","","98.85","","","","-9","","NA"
"-85.83","47.33","CARIBOU ISLAND (AUT)","6041222","2023-03-19 15:00","2023","03","19","15:00","0.3","","-5.8","","64","","","","27","","47","","","","98.79","","","","","","NA"
"-85.83","47.33","CARIBOU ISLAND (AUT)","6041222","2023-03-19 16:00","2023","03","19","16:00","0.9","","-5.9","","60","","0.0","","26","","40","","","","98.73","","","","","","NA"
"-85.83","47.33","CARIBOU ISLAND (AUT)","6041222","2023-03-19 17:00","2023","03","19","17:00","1.3","","-5.3","","61","","0.0","","26","","35","","","","98.70","","","","","","NA"
"-85.83","47.33","CARIBOU ISLAND (AUT)","6041222","2023-03-19 18:00","2023","03","19","18:00","1.6","","-4.5","","64","","0.0","","27","","29","","","","98.69","","","","","","NA"
"-85.83","47.33","CARIBOU ISLAND (AUT)","6041222","2023-03-19 19:00","2023","03","19","19:00","1.1","","-3.0","","74","","0.0","","28","","21","","","","98.68","","","","","","NA"
"-85.83","47.33","CARIBOU ISLAND (AUT)","6041222","2023-03-19 20:00","2023","03","19","20:00","1.1","","-2.9","","75","","0.0","","30","","13","","","","98.68","","","","","","NA"
"-85.83","47.33","CARIBOU ISLAND (AUT)","6041222","2023-03-19 21:00","2023","03","19","21:00","-0.5","","-2.9","","84","","","","13","","1","","","","98.71","","","","-1","","NA"
"-85.83","47.33","CARIBOU ISLAND (AUT)","6041222","2023-03-19 22:00","2023","03","19","22:00","0.9","","-2.6","","77","","0.0","","30","","9","","","","98.69","","","","","","NA"
"-85.83","47.33","CARIBOU ISLAND (AUT)","6041222","2023-03-19 23:00","2023","03","19","23:00","1.4","","-2.8","","74","","0.0","","28","","28","","","","98.70","","","","","","NA"
"-85.83","47.33","CARIBOU ISLAND (AUT)","6041222","2023-03-20 00:00","2023","03","20","00:00","-0.7","","-4.1","","78","","","","2","","15","","","","98.77","","","","-5","","NA"
"-85.83","47.33","CARIBOU ISLAND (AUT)","6041222","2023-03-20 01:00","2023","03","20","01:00","-1.4","","-5.5","","73","","","","1","","16","","","","98.83","","","","-6","","NA"
"-85.83","47.33","CARIBOU ISLAND (AUT)","6041222","2023-03-20 02:00","2023","03","20","02:00","-1.7","","-5.7","","74","","","","1","","15","","","","98.87","","","","-7","","NA"
"-85.83","47.33","CARIBOU ISLAND (AUT)","6041222","2023-03-20 03:00","2023","03","20","03:00","-2.4","","-5.7","","78","","","","36","","15","","","","98.90","","","","-7","","NA"
"-85.83","47.33","CARIBOU ISLAND (AUT)","6041222","2023-03-20 04:00","2023","03","20","04:00","-2.7","","-5.4","","82","","","","2","","10","","","","98.92","","","","-7","","NA"
"-85.83","47.33","CARIBOU ISLAND (AUT)","6041222","2023-03-20 05:00","2023","03","20","05:00","-2.8","","-5.3","","83","","","","3","","12","","","","98.98","","","","-7","","NA"
"-85.83","47.33","CARIBOU ISLAND (AUT)","6041222","2023-03-20 06:00","2023","03","20","06:00","-3.1","","-6.0","","80","","","","4","","19","","","","99.07","","","","-9","","NA"
"-85.83","47.33","CARIBOU ISLAND (AUT)","6041222","2023-03-20 07:00","2023","03","20","07:00","-3.7","","-6.3","","82","","","","4","","25","","","","99.16","","","","-11","","NA"
"-85.83","47.33","CARIBOU ISLAND (AUT)","6041222","2023-03-20 08:00","2023","03","20","08:00","-4.1","","-6.7","","82","","","","4","","30","","","","99.25","","","","-12","","NA"
"-85.83","47.33","CARIBOU ISLAND (AUT)","6041222","2023-03-20 09:00","2023","03","20","09:00","-4.5","","-7.3","","81","","","","5","","31","","","","99.36","","","","-12","","NA"
"-85.83","47.33","CARIBOU ISLAND (AUT)","6041222","2023-03-20 10:00","2023","03","20","10:00","-4.5","","-7.8","","78","","","","4","","29","","","","99.44","","","","-12","","NA"
"-85.83","47.33","CARIBOU ISLAND (AUT)","6041222","2023-03-20 11:00","2023","03","20","11:00","-4.5","","-9.2","","70","","","","4","","28","","","","99.48","","","","-12","","NA"
"-85.83","47.33","CARIBOU ISLAND (AUT)","6041222","2023-03-20 12:00","2023","03","20","12:00","-3.8","","-8.8","","68","","","","4","","26","","","","99.53","","","","-11","","NA"
"-85.83","47.33","CARIBOU ISLAND (AUT)","6041222","2023-03-20 13:00","2023","03","20","13:00","-3.1","","-9.1","","63","","","","4","","17","","","","99.59","","","","-9","","NA"
"-85.83","47.33","CARIBOU ISLAND (AUT)","6041222","2023-03-20 14:00","2023","03","20","14:00","-2.1","","-8.6","","61","","","","36","","11","","","","99.62","","","","-6","","NA"
"-85.83","47.33","CARIBOU ISLAND (AUT)","6041222","2023-03-20 15:00","2023","03","20","15:00","-1.3","","-7.6","","62","","","","33","","11","","","","99.65","","","","-5","","NA"
"-85.83","47.33","CARIBOU ISLAND (AUT)","6041222","2023-03-20 16:00","2023","03","20","16:00","-1.4","","-7.9","","61","","","","33","","14","","","","99.68","","","","-6","","NA"
"-85.83","47.33","CARIBOU ISLAND (AUT)","6041222","2023-03-20 17:00","2023","03","20","17:00","-2.0","","-7.7","","65","","","","32","","19","","","","99.69","","","","-8","","NA"
"-85.83","47.33","CARIBOU ISLAND (AUT)","6041222","2023-03-20 18:00","2023","03","20","18:00","-2.8","","-8.8","","63","","","","32","","19","","","","99.76","","","","-9","","NA"
"-85.83","47.33","CARIBOU ISLAND (AUT)","6041222","2023-03-20 19:00","2023","03","20","19:00","-3.9","","-9.0","","68","","","","32","","20","","","","99.84","","","","-10","","NA"
"-85.83","47.33","CARIBOU ISLAND (AUT)","6041222","2023-03-20 20:00","2023","03","20","20:00","-4.0","","-9.1","","68","","","","31","","23","","","","99.89","","","","-11","","NA"
"-85.83","47.33","CARIBOU ISLAND (AUT)","6041222","2023-03-20 21:00","2023","03","20","21:00","-3.7","","-8.1","","72","","","","32","","14","","","","99.91","","","","-9","","NA"
"-85.83","47.33","CARIBOU ISLAND (AUT)","6041222","2023-03-20 22:00","2023","03","20","22:00","-3.7","","-7.4","","75","","","","1","","27","","","","99.95","","","","-11","","NA"
"-85.83","47.33","CARIBOU ISLAND (AUT)","6041222","2023-03-20 23:00","2023","03","20","23:00","-4.0","","-8.1","","73","","","","3","","25","","","","100.02","","","","-11","","NA"
"-85.83","47.33","CARIBOU ISLAND (AUT)","6041222","2023-03-21 00:00","2023","03","21","00:00","-4.6","","-8.2","","76","","","","4","","31","","","","100.08","","","","-13","","NA"
"-85.83","47.33","CARIBOU ISLAND (AUT)","6041222","2023-03-21 01:00","2023","03","21","01:00","-5.2","","-9.3","","73","","","","4","","28","","","","100.15","","","","-13","","NA"
"-85.83","47.33","CARIBOU ISLAND (AUT)","6041222","2023-03-21 02:00","2023","03","21","02:00","-5.7","","-9.9","","72","","","","5","","28","","","","100.24","","","","-14","","NA"
"-85.83","47.33","CARIBOU ISLAND (AUT)","6041222","2023-03-21 03:00","2023","03","21","03:00","-6.2","","-10.2","","73","","","","5","","30","","","","100.28","","","","-15","","NA"
"-85.83","47.33","CARIBOU ISLAND (AUT)","6041222","2023-03-21 04:00","2023","03","21","04:00","-6.5","","-10.4","","74","","","","4","","30","","","","100.28","","","","-15","","NA"
"-85.83","47.33","CARIBOU ISLAND (AUT)","6041222","2023-03-21 05:00","2023","03","21","05:00","-6.8","","-9.8","","80","","","","5","","27","","","","100.31","","","","-15","","NA"
"-85.83","47.33","CARIBOU ISLAND (AUT)","6041222","2023-03-21 06:00","2023","03","21","06:00","-6.9","","-9.7","","80","","","","5","","25","","","","100.38","","","","-15","","NA"
"-85.83","47.33","CARIBOU ISLAND (AUT)","6041222","2023-03-21 07:00","2023","03","21","07:00","-6.7","","-9.8","","79","","","","6","","22","","","","100.44","","","","-14","","NA"
"-85.83","47.33","CARIBOU ISLAND (AUT)","6041222","2023-03-21 08:00","2023","03","21","08:00","-5.3","","-8.8","","76","","","","9","","22","","","","100.52","","","","-12","","NA"
"-85.83","47.33","CARIBOU ISLAND (AUT)","6041222","2023-03-21 09:00","2023","03","21","09:00","-5.8","","-9.3","","76","","","","7","","24","","","","100.56","","","","-13","","NA"
"-85.83","47.33","CARIBOU ISLAND (AUT)","6041222","2023-03-21 10:00","2023","03","21","10:00","-5.3","","-8.7","","77","","","","7","","24","","","","100.61","","","","-13","","NA"
"-85.83","47.33","CARIBOU ISLAND (AUT)","6041222","2023-03-21 11:00","2023","03","21","11:00","-5.0","","-9.6","","71","","","","6","","28","","","","100.60","","","","-13","","NA"
"-85.83","47.33","CARIBOU ISLAND (AUT)","6041222","2023-03-21 12:00","2023","03","21","12:00","-4.3","","-9.1","","69","","","","7","","26","","","","100.63","","","","-12","","NA"
"-85.83","47.33","CARIBOU ISLAND (AUT)","6041222","2023-03-21 13:00","2023","03","21","13:00","-3.4","","-8.9","","66","","","","9","","24","","","","100.61","","","","-10","","NA"
"-85.83","47.33","CARIBOU ISLAND (AUT)","6041222","2023-03-21 14:00","2023","03","21","14:00","-2.6","","-8.8","","62","","","","7","","24","","","","100.52","","","","-9","","NA"
"-85.83","47.33","CARIBOU ISLAND (AUT)","6041222","2023-03-21 15:00","2023","03","21","15:00","-2.3","","-10.2","","55","","","","7","","26","","","","100.45","","","","-9","","NA"
"-85.83","47.33","CARIBOU ISLAND (AUT)","6041222","2023-03-21 16:00","2023","03","21","16:00","-1.4","","-8.4","","59","","","","9","","28","","","","100.41","","","","-8","","NA"
"-85.83","47.33","CARIBOU ISLAND (AUT)","6041222","2023-03-21 17:00","2023","03","21","17:00","-1.2","","-8.4","","58","","","","9","","26","","","","100.37","","","","-8","","NA"
"-85.83","47.33","CARIBOU ISLAND (AUT)","6041222","2023-03-21 18:00","2023","03","21","18:00","-1.4","","-7.5","","63","","","","7","","24","","","","100.33","","","","-8","","NA"
"-85.83","47.33","CARIBOU ISLAND (AUT)","6041222","2023-03-21 19:00","2023","03","21","19:00"
"-85.83","47.33","CARIBOU ISLAND (AUT)","6041222","2023-03-21 20:00","2023","03","21","20:00","-0.8","","-5.2","","72","","","","8","","28","","","","100.28","","","","-7","","NA"
"-85.83","47.33","CARIBOU ISLAND (AUT)","6041222","2023-03-21 21:00","2023","03","21","21:00","-0.1","","-5.7","","66","","","","12","","26","","","","100.27","","","","-6","","NA"
"-85.83","47.33","CARIBOU ISLAND (AUT)","6041222","2023-03-21 22:00","2023","03","21","22:00","0.1","","-4.9","","69","","","","13","","36","","","","100.19","","","","","","NA"
"-85.83","47.33","CARIBOU ISLAND (AUT)","6041222","2023-03-21 23:00","2023","03","21","23:00","-0.1","","-4.3","","73","","","","12","","35","","","","100.15","","","","-7","","NA"
"-85.83","47.33","CARIBOU ISLAND (AUT)","6041222","2023-03-22 00:00","2023","03","22","00:00","-0.2","","-3.0","","81","","","","13","","40","","","","100.09","","","","-8","","NA"
"-85.83","47.33","CARIBOU ISLAND (AUT)","6041222","2023-03-22 01:00","2023","03","22","01:00","-0.4","","-2.5","","86","","","","13","","42","","","","100.01","","","","-8","","NA"
"-85.83","47.33","CARIBOU ISLAND (AUT)","6041222","2023-03-22 02:00","2023","03","22","02:00","-0.1","","-4.0","","75","","","","13","","43","","","","99.90","","","","-8","","NA"
"-85.83","47.33","CARIBOU ISLAND (AUT)","6041222","2023-03-22 03:00","2023","03","22","03:00","0.2","","-3.9","","74","","","","13","","44","","","","99.83","","","","","","NA"
"-85.83","47.33","CARIBOU ISLAND (AUT)","6041222","2023-03-22 04:00","2023","03","22","04:00","0.1","","-4.4","","72","","","","13","","48","","","","99.67","","","","","","NA"
"-85.83","47.33","CARIBOU ISLAND (AUT)","6041222","2023-03-22 05:00","2023","03","22","05:00","0.0","","-4.8","","70","","","","14","","53","","","","99.57","","","","-8","","NA"
"-85.83","47.33","CARIBOU ISLAND (AUT)","6041222","2023-03-22 06:00","2023","03","22","06:00","-0.1","","-4.1","","74","","","","14","","48","","","","99.50","","","","-8","","NA"
"-85.83","47.33","CARIBOU ISLAND (AUT)","6041222","2023-03-22 07:00","2023","03","22","07:00","-0.3","","-4.2","","75","","","","14","","48","","","","99.38","","","","-8","","NA"
"-85.83","47.33","CARIBOU ISLAND (AUT)","6041222","2023-03-22 08:00","2023","03","22","08:00","-0.1","","-3.3","","79","","","","14","","44","","","","99.35","","","","-8","","NA"
"-85.83","47.33","CARIBOU ISLAND (AUT)","6041222","2023-03-22 09:00","2023","03","22","09:00","-0.9","","-2.0","","92","","","","14","","46","","","","99.26","","","","-9","","NA"
"-85.83","47.33","CARIBOU ISLAND (AUT)","6041222","2023-03-22 10:00","2023","03","22","10:00","-1.1","","-1.6","","96","","","","13","","48","","","","99.16","","","","-9","","NA"
"-85.83","47.33","CARIBOU ISLAND (AUT)","6041222","2023-03-22 11:00","2023","03","22","11:00","-1.1","","-1.5","","97","","","","13","","50","","","","99.09","","","","-10","","NA"
"-85.83","47.33","CARIBOU ISLAND (AUT)","6041222","2023-03-22 12:00","2023","03","22","12:00","-0.8","","-1.2","","97","","","","13","","49","","","","98.97","","","","-9","","NA"
"-85.83","47.33","CARIBOU ISLAND (AUT)","6041222","2023-03-22 13:00","2023","03","22","13:00","-0.3","","-0.8","","97","","","","14","","45","","","","98.87","","","","-8","","NA"
"-85.83","47.33","CARIBOU ISLAND (AUT)","6041222","2023-03-22 14:00","2023","03","22","14:00","0.4","","0.1","","98","","","","14","","40","","","","98.76","","","","","","NA"
"-85.83","47.33","CARIBOU ISLAND (AUT)","6041222","2023-03-22 15:00","2023","03","22","15:00","1.4","","1.2","","98","","1.8","","15","","29","","","","98.70","","","","","","NA"
"-85.83","47.33","CARIBOU ISLAND (AUT)","6041222","2023-03-22 16:00","2023","03","22","16:00","1.8","","1.6","","98","","0.0","","17","","26","","","","98.63","","","","","","NA"
"-85.83","47.33","CARIBOU ISLAND (AUT)","6041222","2023-03-22 17:00","2023","03","22","17:00","1.9","","1.7","","99","","0.0","","17","","25","","","","98.58","","","","","","NA"
"-85.83","47.33","CARIBOU ISLAND (AUT)","6041222","2023-03-22 18:00","2023","03","22","18:00","2.0","","1.8","","99","","0.0","","19","","26","","","","98.56","","","","","","NA"
"-85.83","47.33","CARIBOU ISLAND (AUT)","6041222","2023-03-22 19:00","2023","03","22","19:00","2.1","","1.9","","98","","0.0","","20","","27","","","","98.54","","","","","","NA"
"-85.83","47.33","CARIBOU ISLAND (AUT)","6041222","2023-03-22 20:00","2023","03","22","20:00","2.2","","1.9","","98","","0.0","","20","","26","","","","98.54","","","","","","NA"
"-85.83","47.33","CARIBOU ISLAND (AUT)","6041222","2023-03-22 21:00","2023","03","22","21:00","1.7","","1.1","","96","","0.4","","26","","32","","","","98.56","","","","","","NA"
"-85.83","47.33","CARIBOU ISLAND (AUT)","6041222","2023-03-22 22:00","2023","03","22","22:00","1.8","","0.5","","91","","0.0","","27","","41","","","","98.62","","","","","","NA"
"-85.83","47.33","CARIBOU ISLAND (AUT)","6041222","2023-03-22 23:00","2023","03","22","23:00","1.7","","-0.2","","87","","0.0","","27","","49","","","","98.63","","","","","","NA"
"-85.83","47.33","CARIBOU ISLAND (AUT)","6041222","2023-03-23 00:00","2023","03","23","00:00","1.4","","-1.6","","80","","0.0","","27","","54","","","","98.71","","","","","","NA"
"-85.83","47.33","CARIBOU ISLAND (AUT)","6041222","2023-03-23 01:00","2023","03","23","01:00","0.8","","-2.8","","77","","0.0","","29","","55","","","","98.72","","","","","","NA"
"-85.83","47.33","CARIBOU ISLAND (AUT)","6041222","2023-03-23 02:00","2023","03","23","02:00","0.5","","-3.2","","76","","","","30","","54","","","","98.73","","","","","","NA"
"-85.83","47.33","CARIBOU ISLAND (AUT)","6041222","2023-03-23 03:00","2023","03","23","03:00","0.0","","-3.2","","79","","","","30","","53","","","","98.73","","","","-8","","NA"
"-85.83","47.33","CARIBOU ISLAND (AUT)","6041222","2023-03-23 04:00","2023","03","23","04:00","-0.3","","-3.8","","77","","","","30","","49","","","","98.70","","","","-8","","NA"
"-85.83","47.33","CARIBOU ISLAND (AUT)","6041222","2023-03-23 05:00","2023","03","23","05:00","-0.9","","-4.0","","79","","","","31","","48","","","","98.81","","","","-9","","NA"
"-85.83","47.33","CARIBOU ISLAND (AUT)","6041222","2023-03-23 06:00","2023","03","23","06:00","-1.5","","-5.5","","74","","","","31","","47","","","","98.93","","","","-10","","NA"
"-85.83","47.33","CARIBOU ISLAND (AUT)","6041222","2023-03-23 07:00","2023","03","23","07:00","-1.5","","-5.2","","76","","","","31","","44","","","","99.01","","","","-10","","NA"
"-85.83","47.33","CARIBOU ISLAND (AUT)","6041222","2023-03-23 08:00","2023","03","23","08:00","-1.9","","-5.6","","76","","","","31","","43","","","","99.06","","","","-10","","NA"
"-85.83","47.33","CARIBOU ISLAND (AUT)","6041222","2023-03-23 09:00","2023","03","23","09:00","-2.1","","-5.4","","78","","","","31","","44","","","","99.08","","","","-11","","NA"
"-85.83","47.33","CARIBOU ISLAND (AUT)","6041222","2023-03-23 10:00","2023","03","23","10:00","-2.0","","-4.5","","83","","","","31","","41","","","","99.11","","","","-10","","NA"
"-85.83","47.33","CARIBOU ISLAND (AUT)","6041222","2023-03-23 11:00","2023","03","23","11:00","-2.2","","-5.4","","79","","","","31","","39","","","","99.17","","","","-10","","NA"
"-85.83","47.33","CARIBOU ISLAND (AUT)","6041222","2023-03-23 12:00","2023","03","23","12:00","-2.1","","-5.2","","79","","","","31","","40","","","","99.23","","","","-10","","NA"
"-85.83","47.33","CARIBOU ISLAND (AUT)","6041222","2023-03-23 13:00","2023","03","23","13:00","-2.2","","-5.7","","77","","","","31","","40","","","","99.30","","","","-10","","NA"
"-85.83","47.33","CARIBOU ISLAND (AUT)","6041222","2023-03-23 14:00","2023","03","23","14:00","-2.2","","-5.6","","78","","","","31","","44","","","","99.34","","","","-11","","NA"
"-85.83","47.33","CARIBOU ISLAND (AUT)","6041222","2023-03-23 15:00","2023","03","23","15:00","-2.1","","-5.3","","79","","","","31","","38","","","","99.40","","","","-10","","NA"
"-85.83","47.33","CARIBOU ISLAND (AUT)","6041222","2023-03-23 16:00","2023","03","23","16:00","-2.0","","-5.5","","77","","","","31","","29","","","","99.46","","","","-9","","NA"
"-85.83","47.33","CARIBOU ISLAND (AUT)","6041222","2023-03-23 17:00","2023","03","23","17:00","-1.4","","-5.3","","75","","","","31","","34","","","","99.47","","","","-9","","NA"
"-85.83","47.33","CARIBOU ISLAND (AUT)","6041222","2023-03-23 18:00","2023","03","23","18:00","-1.3","","-5.3","","74","","","","31","","28","","","","99.51","","","","-8","","NA"
"-85.83","47.33","CARIBOU ISLAND (AUT)","6041222","2023-03-23 19:00","2023","03","23","19:00","-1.0","","-4.8","","75","","","","32","","28","","","","99.55","","","","-8","","NA"
"-85.83","47.33","CARIBOU ISLAND (AUT)","6041222","2023-03-23 20:00","2023","03","23","20:00","-0.5","","-4.1","","77","","","","31","","28","","","","99.58","","","","-7","","NA"
"-85.83","47.33","CARIBOU ISLAND (AUT)","6041222","2023-03-23 21:00","2023","03","23","21:00","-0.4","","-4.3","","75","","","","31","","22","","","","99.60","","","","-6","","NA"
"-85.83","47.33","CARIBOU ISLAND (AUT)","6041222","2023-03-23 22:00","2023","03","23","22:00","-0.2","","-4.3","","74","","","","32","","18","","","","99.62","","","","-5","","NA"
"-85.83","47.33","CARIBOU ISLAND (AUT)","6041222","2023-03-23 23:00","2023","03","23","23:00","-0.9","","-3.8","","81","","","","33","","19","","","","99.64","","","","-6","","NA"
"-85.83","47.33","CARIBOU ISLAND (AUT)","6041222","2023-03-24 00:00","2023","03","24","00:00","-1.2","","-4.4","","78","","","","34","","20","","","","99.65","","","","-7","","NA"
"-85.83","47.33","CARIBOU ISLAND (AUT)","6041222","2023-03-24 01:00","2023","03","24","01:00","-1.2","","-5.2","","74","","","","1","","14","","","","99.66","","","","-6","","NA"
"-85.83","47.33","CARIBOU ISLAND (AUT)","6041222","2023-03-24 02:00","2023","03","24","02:00","-2.2","","-5.6","","78","","","","4","","10","","","","99.71","","","","-6","","NA"
"-85.83","47.33","CARIBOU ISLAND (AUT)","6041222","2023-03-24 03:00","2023","03","24","03:00","-2.6","","-6.2","","76","","","","4","","8","","","","99.71","","","","-6","","NA"
"-85.83","47.33","CARIBOU ISLAND (AUT)","6041222","2023-03-24 04:00","2023","03","24","04:00","-3.0","","-7.0","","74","","","","5","","8","","","","99.69","","","","-6","","NA"
"-85.83","47.33","CARIBOU ISLAND (AUT)","6041222","2023-03-24 05:00","2023","03","24","05:00","-2.6","","-6.6","","74","","","","6","","10","","","","99.66","","","","-6","","NA"
"-85.83","47.33","CARIBOU ISLAND (AUT)","6041222","2023-03-24 06:00","2023","03","24","06:00","-2.3","","-6.0","","76","","","","8","","13","","","","99.70","","","","-7","","NA"
"-85.83","47.33","CARIBOU ISLAND (AUT)","6041222","2023-03-24 07:00","2023","03","24","07:00","-1.9","","-6.3","","72","","","","14","","11","","","","99.79","","","","-6","","NA"
"-85.83","47.33","CARIBOU ISLAND (AUT)","6041222","2023-03-24 08:00","2023","03","24","08:00","-0.3","","-5.2","","70","","","","16","","14","","","","99.79","","","","-5","","NA"
"-85.83","47.33","CARIBOU ISLAND (AUT)","6041222","2023-03-24 09:00","2023","03","24","09:00","-0.3","","-4.5","","73","","","","17","","16","","","","99.80","","","","-5","","NA"
"-85.83","47.33","CARIBOU ISLAND (AUT)","6041222","2023-03-24 10:00","2023","03","24","10:00","1.1","","-3.1","","73","","0.0","","18","","18","","","","99.83","","","","","","NA"
"-85.83","47.33","CARIBOU ISLAND (AUT)","6041222","2023-03-24 11:00","2023","03","24","11:00","1.7","","-2.5","","74","","0.0","","23","","15","","","","99.82","","","","","","NA"
"-85.83","47.33","CARIBOU ISLAND (AUT)","6041222","2023-03-24 12:00","2023","03","24","12:00","2.0","","-2.7","","71","","0.0","","23","","10","","","","99.77","","","","","","NA"
"-85.83","47.33","CARIBOU ISLAND (AUT)","6041222","2023-03-24 13:00","2023","03","24","13:00","2.3","","-2.8","","69","","0.0","","23","","8","","","","99.70","","","","","","NA"
"-85.83","47.33","CARIBOU ISLAND (AUT)","6041222","2023-03-24 14:00","2023","03","24","14:00","2.3","","-2.3","","72","","0.0","","20","","11","","","","99.68","","","","","","NA"
"-85.83","47.33","CARIBOU ISLAND (AUT)","6041222","2023-03-24 15:00","2023","03","24","15:00","2.4","","-2.8","","68","","0.0","","19","","10","","","","99.66","","","","","","NA"
"-85.83","47.33","CARIBOU ISLAND (AUT)","6041222","2023-03-24 16:00","2023","03","24","16:00","3.2","","-2.6","","65","","0.0","","16","","9","","","","99.66","","","","","","NA"
"-85.83","47.33","CARIBOU ISLAND (AUT)","6041222","2023-03-24 17:00","2023","03","24","17:00","1.9","","-2.4","","73","","0.0","","9","","13","","","","99.58","","","","","","NA"
"-85.83","47.33","CARIBOU ISLAND (AUT)","6041222","2023-03-24 18:00","2023","03","24","18:00","1.0","","-2.0","","80","","0.0","","10","","16","","","","99.55","","","","","","NA"
"-85.83","47.33","CARIBOU ISLAND (AUT)","6041222","2023-03-24 19:00","2023","03","24","19:00","0.3","","-2.6","","81","","","","9","","20","","","","99.41","","","","","","NA"
"-85.83","47.33","CARIBOU ISLAND (AUT)","6041222","2023-03-24 20:00","2023","03","24","20:00","0.2","","-2.4","","83","","","","10","","24","","","","99.42","","","","","","NA"
"-85.83","47.33","CARIBOU ISLAND (AUT)","6041222","2023-03-24 21:00","2023","03","24","21:00","0.3","","-2.4","","82","","","","12","","25","","","","99.40","","","","","","NA"
"-85.83","47.33","CARIBOU ISLAND (AUT)","6041222","2023-03-24 22:00","2023","03","24","22:00","0.5","","-2.3","","82","","","","12","","20","","","","99.38","","","","","","NA"
"-85.83","47.33","CARIBOU ISLAND (AUT)","6041222","2023-03-24 23:00","2023","03","24","23:00","0.7","","-2.4","","79","","0.0","","14","","21","","","","99.29","","","","","","NA"
"-85.83","47.33","CARIBOU ISLAND (AUT)","6041222","2023-03-25 00:00","2023","03","25","00:00","0.8","","-2.3","","79","","0.0","","16","","23","","","","99.26","","","","","","NA"
"-85.83","47.33","CARIBOU ISLAND (AUT)","6041222","2023-03-25 01:00","2023","03","25","01:00","0.7","","-3.0","","76","","0.0","","15","","21","","","","99.16","","","","","","NA"
"-85.83","47.33","CARIBOU ISLAND (AUT)","6041222","2023-03-25 02:00","2023","03","25","02:00","0.6","","-4.3","","70","","0.0","","14","","25","","","","99.12","","","","","","NA"
"-85.83","47.33","CARIBOU ISLAND (AUT)","6041222","2023-03-25 03:00","2023","03","25","03:00","-0.1","","-3.9","","75","","","","13","","27","","","","98.98","","","","-6","","NA"
"-85.83","47.33","CARIBOU ISLAND (AUT)","6041222","2023-03-25 04:00","2023","03","25","04:00","-0.3","","-4.1","","76","","","","12","","25","","","","98.88","","","","-6","","NA"
"-85.83","47.33","CARIBOU ISLAND (AUT)","6041222","2023-03-25 05:00","2023","03","25","05:00","-0.3","","-4.2","","75","","","","10","","26","","","","98.78","","","","-6","","NA"
"-85.83","47.33","CARIBOU ISLAND (AUT)","6041222","2023-03-25 06:00","2023","03","25","06:00","0.1","","-4.7","","70","","","","8","","24","","","","98.66","","","","","","NA"
"-85.83","47.33","CARIBOU ISLAND (AUT)","6041222","2023-03-25 07:00","2023","03","25","07:00","-0.1","","-4.8","","71","","","","6","","24","","","","98.60","","","","-6","","NA"
"-85.83","47.33","CARIBOU ISLAND (AUT)","6041222","2023-03-25 08:00","2023","03","25","08:00","0.1","","-4.6","","71","","","","6","","25","","","","98.49","","","","","","NA"
"-85.83","47.33","CARIBOU ISLAND (AUT)","6041222","2023-03-25 09:00","2023","03","25","09:00","0.0","","-4.9","","70","","","","6","","27","","","","98.37","","","","-6","","NA"
"-85.83","47.33","CARIBOU ISLAND (AUT)","6041222","2023-03-25 10:00","2023","03","25","10:00","-0.1","","-5.0","","69","","","","5","","30","","","","98.24","","","","-7","","NA"
"-85.83","47.33","CARIBOU ISLAND (AUT)","6041222","2023-03-25 11:00","2023","03","25","11:00","0.1","","-3.7","","76","","","","4","","30","","","","98.15","","","","","","NA"
"-85.83","47.33","CARIBOU ISLAND (AUT)","6041222","2023-03-25 12:00","2023","03","25","12:00","0.4","","-3.2","","77","","","","5","","29","","","","98.07","","","","","","NA"
"-85.83","47.33","CARIBOU ISLAND (AUT)","6041222","2023-03-25 13:00","2023","03","25","13:00","0.9","","-3.7","","71","","0.0","","5","","30","","","","97.92","","","","","","NA"
"-85.83","47.33","CARIBOU ISLAND (AUT)","6041222","2023-03-25 14:00","2023","03","25","14:00","1.2","","-3.7","","70","","0.0","","5","","28","","","","97.86","","","","","","NA"
"-85.83","47.33","CARIBOU ISLAND (AUT)","6041222","2023-03-25 15:00","2023","03","25","15:00","1.5","","-3.5","","70","","0.0","","4","","25","","","","97.81","","","","","","NA"
"-85.83","47.33","CARIBOU ISLAND (AUT)","6041222","2023-03-25 16:00","2023","03","25","16:00","1.6","","-3.3","","70","","0.0","","3","","26","","","","97.78","","","","","","NA"
"-85.83","47.33","CARIBOU ISLAND (AUT)","6041222","2023-03-25 17:00","2023","03","25","17:00","1.9","","-3.6","","67","","0.0","","3","","23","","","","97.81","","","","","","NA"
"-85.83","47.33","CARIBOU ISLAND (AUT)","6041222","2023-03-25 18:00","2023","03","25","18:00","1.5","","-1.2","","82","","0.0","","35","","13","","","","97.87","","","","","","NA"
"-85.83","47.33","CARIBOU ISLAND (AUT)","6041222","2023-03-25 19:00","2023","03","25","19:00","1.5","","-0.8","","84","","0.0","","32","","14","","","","97.93","","","","","","NA"
"-85.83","47.33","CARIBOU ISLAND (AUT)","6041222","2023-03-25 20:00","2023","03","25","20:00","1.4","","-0.6","","87","","0.0","","32","","14","","","","97.98","","","","","","NA"
"-85.83","47.33","CARIBOU ISLAND (AUT)","6041222","2023-03-25 21:00","2023","03","25","21:00","1.2","","-1.2","","84","","0.0","","33","","14","","","","98.04","","","","","","NA"
"-85.83","47.33","CARIBOU ISLAND (AUT)","6041222","2023-03-25 22:00","2023","03","25","22:00","1.4","","-0.3","","88","","0.0","","32","","19","","","","98.10","","","","","","NA"
"-85.83","47.33","CARIBOU ISLAND (AUT)","6041222","2023-03-25 23:00","2023","03","25","23:00","1.5","","-0.3","","88","","0.0","","31","","24","","","","98.13","","","","","","NA"
"-85.83","47.33","CARIBOU ISLAND (AUT)","6041222","2023-03-26 00:00","2023","03","26","00:00","1.4","","0.0","","91","","0.0","","31","","35","","","","98.16","","","","","","NA"
"-85.83","47.33","CARIBOU ISLAND (AUT)","6041222","2023-03-26 01:00","2023","03","26","01:00","1.5","","0.0","","90","","0.0","","31","","33","","","","98.23","","","","","","NA"
"-85.83","47.33","CARIBOU ISLAND (AUT)","6041222","2023-03-26 02:00","2023","03","26","02:00","1.4","","0.1","","91","","0.0","","30","","28","","","","98.30","","","","","","NA"
"-85.83","47.33","CARIBOU ISLAND (AUT)","6041222","2023-03-26 03:00","2023","03","26","03:00","1.3","","0.0","","91","","0.0","","31","","23","","","","98.36","","","","","","NA"
"-85.83","47.33","CARIBOU ISLAND (AUT)","6041222","2023-03-26 04:00","2023","03","26","04:00","1.3","","0.2","","93","","0.0","","30","","25","","","","98.43","","","","","","NA"
"-85.83","47.33","CARIBOU ISLAND (AUT)","6041222","2023-03-26 05:00","2023","03","26","05:00","1.3","","-0.2","","89","","0.0","","31","","18","","","","98.53","","","","","","NA"
"-85.83","47.33","CARIBOU ISLAND (AUT)","6041222","2023-03-26 06:00","2023","03","26","06:00","0.7","","-1.8","","84","","0.0","","34","","22","","","","98.58","","","","","","NA"
"-85.83","47.33","CARIBOU ISLAND (AUT)","6041222","2023-03-26 07:00","2023","03","26","07:00","0.4","","-1.7","","86","","","","33","","15","","","","98.68","","","","","","NA"
"-85.83","47.33","CARIBOU ISLAND (AUT)","6041222","2023-03-26 08:00","2023","03","26","08:00","1.1","","-1.9","","80","","0.0","","32","","13","","","","98.79","","","","","","NA"
"-85.83","47.33","CARIBOU ISLAND (AUT)","6041222","2023-03-26 09:00","2023","03","26","09:00","0.9","","-1.9","","81","","0.0","","33","","18","","","","98.88","","","","","","NA"
"-85.83","47.33","CARIBOU ISLAND (AUT)","6041222","2023-03-26 10:00","2023","03","26","10:00","0.8","","-2.1","","81","","0.0","","32","","15","","","","98.95","","","","","","NA"
"-85.83","47.33","CARIBOU ISLAND (AUT)","6041222","2023-03-26 11:00","2023","03","26","11:00","0.8","","-2.0","","82","","0.0","","32","","20","","","","99.04","","","","","","NA"
"-85.83","47.33","CARIBOU ISLAND (AUT)","6041222","2023-03-26 12:00","2023","03","26","12:00","0.6","","-2.2","","81","","0.0","","31","","24","","","","99.09","","","","","","NA"
"-85.83","47.33","CARIBOU ISLAND (AUT)","6041222","2023-03-26 13:00","2023","03","26","13:00","0.1","","-2.5","","83","","","","31","","27","","","","99.16","","","","","","NA"
"-85.83","47.33","CARIBOU ISLAND (AUT)","6041222","2023-03-26 14:00","2023","03","26","14:00","0.1","","-2.9","","81","","","","30","","33","","","","99.19","","","","","","NA"
"-85.83","47.33","CARIBOU ISLAND (AUT)","6041222","2023-03-26 15:00","2023","03","26","15:00","-0.2","","-2.8","","83","","","","31","","33","","","","99.23","","","","-7","","NA"
"-85.83","47.33","CARIBOU ISLAND (AUT)","6041222","2023-03-26 16:00","2023","03","26","16:00","-0.2","","-2.6","","84","","","","31","","30","","","","99.27","","","","-7","","NA"
"-85.83","47.33","CARIBOU ISLAND (AUT)","6041222","2023-03-26 17:00","2023","03","26","17:00","0.1","","-2.6","","82","","","","31","","31","","","","99.29","","","","","","NA"
"-85.83","47.33","CARIBOU ISLAND (AUT)","6041222","2023-03-26 18:00","2023","03","26","18:00","0.2","","-2.8","","81","","","","31","","22","","","","99.35","","","","","","NA"
"-85.83","47.33","CARIBOU ISLAND (AUT)","6041222","2023-03-26 19:00","2023","03","26","19:00","-0.2","","-3.1","","81","","","","31","","28","","","","99.37","","","","-7","","NA"
"-85.83","47.33","CARIBOU ISLAND (AUT)","6041222","2023-03-26 20:00","2023","03","26","20:00","0.3","","-2.8","","80","","","","31","","22","","","","99.41","","","","","","NA"
"-85.83","47.33","CARIBOU ISLAND (AUT)","6041222","2023-03-26 21:00","2023","03","26","21:00","0.6","","-2.3","","81","","0.0","","32","","23","","","","99.43","","","","","","NA"
"-85.83","47.33","CARIBOU ISLAND (AUT)","6041222","2023-03-26 22:00","2023","03","26","22:00","0.8","","-2.1","","81","","0.0","","32","","22","","","","99.44","","","","","","NA"
"-85.83","47.33","CARIBOU ISLAND (AUT)","6041222","2023-03-26 23:00","2023","03","26","23:00","0.7","","-1.8","","83","","0.0","","33","","24","","","","99.49","","","","","","NA"
"-85.83","47.33","CARIBOU ISLAND (AUT)","6041222","2023-03-27 00:00","2023","03","27","00:00","0.7","","-1.5","","85","","0.0","","35","","24","","","","99.57","","","","","","NA"
"-85.83","47.33","CARIBOU ISLAND (AUT)","6041222","2023-03-27 01:00","2023","03","27","01:00","0.6","","-2.3","","81","","0.0","","1","","17","","","","99.61","","","","","","NA"
"-85.83","47.33","CARIBOU ISLAND (AUT)","6041222","2023-03-27 02:00","2023","03","27","02:00","0.2","","-3.0","","79","","","","2","","13","","","","99.64","","","","","","NA"
"-85.83","47.33","CARIBOU ISLAND (AUT)","6041222","2023-03-27 03:00","2023","03","27","03:00","-0.1","","-3.0","","81","","","","3","","11","","","","99.66","","","","-4","","NA"
"-85.83","47.33","CARIBOU ISLAND (AUT)","6041222","2023-03-27 04:00","2023","03","27","04:00","-0.4","","-3.5","","80","","","","5","","23","","","","99.68","","","","-6","","NA"
"-85.83","47.33","CARIBOU ISLAND (AUT)","6041222","2023-03-27 05:00","2023","03","27","05:00","-0.8","","-5.0","","73","","","","5","","24","","","","99.75","","","","-7","","NA"
"-85.83","47.33","CARIBOU ISLAND (AUT)","6041222","2023-03-27 06:00","2023","03","27","06:00","-1.3","","-5.3","","74","","","","5","","23","","","","99.80","","","","-7","","NA"
"-85.83","47.33","CARIBOU ISLAND (AUT)","6041222","2023-03-27 07:00","2023","03","27","07:00","-1.3","","-5.1","","75","","","","5","","24","","","","99.85","","","","-7","","NA"
"-85.83","47.33","CARIBOU ISLAND (AUT)","6041222","2023-03-27 08:00","2023","03","27","08:00","-1.1","","-5.1","","74","","","","5","","25","","","","99.96","","","","-7","","NA"
"-85.83","47.33","CARIBOU ISLAND (AUT)","6041222","2023-03-27 09:00","2023","03","27","09:00","-1.2","","-5.4","","74","","","","6","","28","","","","100.00","","","","-8","","NA"
"-85.83","47.33","CARIBOU ISLAND (AUT)","6041222","2023-03-27 10:00","2023","03","27","10:00","-0.8","","-5.5","","71","","","","4","","22","","","","100.06","","","","-7","","NA"
"-85.83","47.33","CARIBOU ISLAND (AUT)","6041222","2023-03-27 11:00","2023","03","27","11:00","-0.5","","-5.3","","69","","","","3","","20","","","","100.08","","","","-6","","NA"
"-85.83","47.33","CARIBOU ISLAND (AUT)","6041222","2023-03-27 12:00","2023","03","27","12:00","0.5","","-7.0","","57","","","","4","","18","","","","100.10","","","","","","NA"
"-85.83","47.33","CARIBOU ISLAND (AUT)","6041222","2023-03-27 13:00","2023","03","27","13:00","1.9","","-6.9","","52","","0.0","","2","","6","","","","100.12","","","","","","NA"
"-85.83","47.33","CARIBOU ISLAND (AUT)","6041222","2023-03-27 14:00","2023","03","27","14:00","1.6","","-5.0","","62","","0.0","","32","","8","","","","100.10","","","","","","NA"
"-85.83","47.33","CARIBOU ISLAND (AUT)","6041222","2023-03-27 15:00","2023","03","27","15:00","0.7","","-4.4","","69","","0.0","","30","","15","","","","100.12","","","","","","NA"
"-85.83","47.33","CARIBOU ISLAND (AUT)","6041222","2023-03-27 16:00","2023","03","27","16:00","0.9","","-4.6","","67","","0.0","","30","","19","","","","100.12","","","","","","NA"
"-85.83","47.33","CARIBOU ISLAND (AUT)","6041222","2023-03-27 17:00","2023","03","27","17:00","0.6","","-5.0","","66","","0.0","","30","","18","","","","100.12","","","","","","NA"
"-85.83","47.33","CARIBOU ISLAND (AUT)","6041222","2023-03-27 18:00","2023","03","27","18:00","0.4","","-4.6","","69","","","","31","","17","","","","100.13","","","","","","NA"
"-85.83","47.33","CARIBOU ISLAND (AUT)","6041222","2023-03-27 19:00","2023","03","27","19:00","0.3","","-4.8","","69","","","","32","","9","","","","100.13","","","","","","NA"
"-85.83","47.33","CARIBOU ISLAND (AUT)","6041222","2023-03-27 20:00","2023","03","27","20:00","0.0","","-4.4","","72","","","","31","","7","","","","100.13","","","","-2","","NA"
"-85.83","47.33","CARIBOU ISLAND (AUT)","6041222","2023-03-27 21:00","2023","03","27","21:00","-0.8","","-5.4","","70","","","","4","","3","","","","100.13","","","","-2","","NA"
"-85.83","47.33","CARIBOU ISLAND (AUT)","6041222","2023-03-27 22:00","2023","03","27","22:00","-0.7","","-5.0","","72","","","","29","","3","","","","100.11","","","","-2","","NA"
"-85.83","47.33","CARIBOU ISLAND (AUT)","6041222","2023-03-27 23:00","2023","03","27","23:00","0.1","","-4.6","","71","","","","29","","9","","","","100.08","","","","","","NA"
"-85.83","47.33","CARIBOU ISLAND (AUT)","6041222","2023-03-28 00:00","2023","03","28","00:00","0.1","","-4.4","","72","","","","26","","13","","","","100.10","","","","","","NA"
"-85.83","47.33","CARIBOU ISLAND (AUT)","6041222","2023-03-28 01:00","2023","03","28","01:00","0.2","","-3.6","","76","","","","26","","15","","","","100.08","","","","","","NA"
"-85.83","47.33","CARIBOU ISLAND (AUT)","6041222","2023-03-28 02:00","2023","03","28","02:00","0.5","","-4.7","","68","","0.0","","24","","17","","","","100.06","","","","","","NA"
"-85.83","47.33","CARIBOU ISLAND (AUT)","6041222","2023-03-28 03:00","2023","03","28","03:00","0.5","","-4.0","","72","","","","26","","13","","","","100.01","","","","","","NA"
"-85.83","47.33","CARIBOU ISLAND (AUT)","6041222","2023-03-28 04:00","2023","03","28","04:00","0.6","","-4.7","","68","","0.0","","20","","5","","","","99.99","","","","","","NA"
"-85.83","47.33","CARIBOU ISLAND (AUT)","6041222","2023-03-28 05:00","2023","03","28","05:00","0.8","","-3.9","","71","","0.0","","24","","7","","","","99.97","","","","","","NA"
"-85.83","47.33","CARIBOU ISLAND (AUT)","6041222","2023-03-28 06:00","2023","03","28","06:00","0.9","","-3.2","","74","","0.0","","24","","11","","","","99.94","","","","","","NA"
"-85.83","47.33","CARIBOU ISLAND (AUT)","6041222","2023-03-28 07:00","2023","03","28","07:00","0.7","","-3.5","","73","","0.0","","22","","15","","","","99.93","","","","","","NA"
"-85.83","47.33","CARIBOU ISLAND (AUT)","6041222","2023-03-28 08:00","2023","03","28","08:00","1.0","","-4.4","","67","","0.0","","19","","24","","","","99.90","","","","","","NA"
"-85.83","47.33","CARIBOU ISLAND (AUT)","6041222","2023-03-28 09:00","2023","03","28","09:00","0.3","","-1.8","","86","","","","30","","42","","","","99.89","","","","","","NA"
"-85.83","47.33","CARIBOU ISLAND (AUT)","6041222","2023-03-28 10:00","2023","03","28","10:00","-0.2","","-2.7","","83","","","","31","","26","","","","99.96","","","","-6","","NA"
"-85.83","47.33","CARIBOU ISLAND (AUT)","6041222","2023-03-28 11:00","2023","03","28","11:00","-0.3","","-3.8","","78","","","","31","","23","","","","100.00","","","","-6","","NA"
"-85.83","47.33","CARIBOU ISLAND (AUT)","6041222","2023-03-28 12:00","2023","03","28","12:00","-0.5","","-4.4","","75","","","","32","","19","","","","100.02","","","","-6","","NA"
"-85.83","47.33","CARIBOU ISLAND (AUT)","6041222","2023-03-28 13:00","2023","03","28","13:00","-0.3","","-4.7","","72","","","","32","","14","","","","100.01","","","","-5","","NA"
"-85.83","47.33","CARIBOU ISLAND (AUT)","6041222","2023-03-28 14:00","2023","03","28","14:00","-0.7","","-5.2","","71","","","","31","","16","","","","99.99","","","","-5","","NA"
"-85.83","47.33","CARIBOU ISLAND (AUT)","6041222","2023-03-28 15:00","2023","03","28","15:00","-0.5","","-5.7","","68","","","","29","","13","","","","99.93","","","","-5","","NA"
"-85.83","47.33","CARIBOU ISLAND (AUT)","6041222","2023-03-28 16:00","2023","03","28","16:00","0.1","","-5.6","","65","","","","27","","20","","","","99.88","","","","","","NA"
"-85.83","47.33","CARIBOU ISLAND (AUT)","6041222","2023-03-28 17:00","2023","03","28","17:00","-1.1","","-6.8","","65","","","","29","","19","","","","99.83","","","","-6","","NA"
"-85.83","47.33","CARIBOU ISLAND (AUT)","6041222","2023-03-28 18:00","2023","03","28","18:00","-1.3","","-6.7","","67","","","","32","","7","","","","99.76","","","","-4","","NA"
"-85.83","47.33","CARIBOU ISLAND (AUT)","6041222","2023-03-28 19:00","2023","03","28","19:00","-1.8","","-7.7","","64","","","","25","","5","","","","99.72","","","","-4","","NA"
"-85.83","47.33","CARIBOU ISLAND (AUT)","6041222","2023-03-28 20:00","2023","03","28","20:00","-1.9","","-7.9","","63","","","","6","","4","","","","99.62","","","","-3","","NA"
"-85.83","47.33","CARIBOU ISLAND (AUT)","6041222","2023-03-28 21:00","2023","03","28","21:00","-2.2","","-6.9","","70","","","","34","","2","","","","99.58","","","","-3","","NA"
"-85.83","47.33","CARIBOU ISLAND (AUT)","6041222","2023-03-28 22:00","2023","03","28","22:00","-3.0","","-4.6","","89","","","","20","","5","","","","99.52","","","","-5","","NA"
"-85.83","47.33","CARIBOU ISLAND (AUT)","6041222","2023-03-28 23:00","2023","03","28","23:00","-3.2","","-4.5","","91","","","","20","","3","","","","99.43","","","","-4","","NA"
"-85.83","47.33","CARIBOU ISLAND (AUT)","6041222","2023-03-29 00:00","2023","03","29","00:00","-2.9","","-4.2","","91","","","","32","","9","","","","99.34","","","","-6","","NA"
"-85.83","47.33","CARIBOU ISLAND (AUT)","6041222","2023-03-29 01:00","2023","03","29","01:00","-2.9","","-4.2","","91","","","","32","","9","","","","99.25","","","","-6","","NA"
"-85.83","47.33","CARIBOU ISLAND (AUT)","6041222","2023-03-29 02:00","2023","03","29","02:00","-2.7","","-4.0","","91","","","","29","","21","","","","99.19","","","","-9","","NA"
"-85.83","47.33","CARIBOU ISLAND (AUT)","6041222","2023-03-29 03:00","2023","03","29","03:00","-2.3","","-5.3","","79","","","","30","","46","","","","99.11","","","","-11","","NA"
"-85.83","47.33","CARIBOU ISLAND (AUT)","6041222","2023-03-29 04:00","2023","03","29","04:00","-2.3","","-7.3","","68","","","","28","","49","","","","99.09","","","","-11","","NA"
"-85.83","47.33","CARIBOU ISLAND (AUT)","6041222","2023-03-29 05:00","2023","03","29","05:00","-2.6","","-6.3","","76","","","","30","","43","","","","99.07","","","","-11","","NA"
"-85.83","47.33","CARIBOU ISLAND (AUT)","6041222","2023-03-29 06:00","2023","03","29","06:00","-3.4","","-5.4","","86","","","","31","","43","","","","99.10","","","","-12","","NA"
"-85.83","47.33","CARIBOU ISLAND (AUT)","6041222","2023-03-29 07:00","2023","03","29","07:00","-4.1","","-6.4","","84","","","","33","","45","","","","99.25","","","","-13","","NA"
"-85.83","47.33","CARIBOU ISLAND (AUT)","6041222","2023-03-29 08:00","2023","03","29","08:00","-3.9","","-7.8","","74","","","","32","","35","","","","99.34","","","","-12","","NA"
"-85.83","47.33","CARIBOU ISLAND (AUT)","6041222","2023-03-29 09:00","2023","03","29","09:00","-4.0","","-7.8","","75","","","","32","","39","","","","99.42","","","","-13","","NA"
"-85.83","47.33","CARIBOU ISLAND (AUT)","6041222","2023-03-29 10:00","2023","03","29","10:00","-4.4","","-9.4","","68","","","","32","","36","","","","99.53","","","","-13","","NA"
"-85.83","47.33","CARIBOU ISLAND (AUT)","6041222","2023-03-29 11:00","2023","03","29","11:00","-4.4","","-9.9","","66","","","","31","","38","","","","99.64","","","","-13","","NA"
"-85.83","47.33","CARIBOU ISLAND (AUT)","6041222","2023-03-29 12:00","2023","03","29","12:00","-4.1","","-10.6","","61","","","","32","","36","","","","99.72","","","","-12","","NA"
"-85.83","47.33","CARIBOU ISLAND (AUT)","6041222","2023-03-29 13:00","2023","03","29","13:00","-4.2","","-10.5","","61","","","","31","","39","","","","99.78","","","","-13","","NA"
"-85.83","47.33","CARIBOU ISLAND (AUT)","6041222","2023-03-29 14:00","2023","03","29","14:00","-4.7","","-10.7","","63","","","","31","","45","","","","99.86","","","","-14","","NA"
"-85.83","47.33","CARIBOU ISLAND (AUT)","6041222","2023-03-29 15:00","2023","03","29","15:00","-4.0","","-9.0","","68","","","","31","","41","","","","99.89","","","","-13","","NA"
"-85.83","47.33","CARIBOU ISLAND (AUT)","6041222","2023-03-29 16:00","2023","03","29","16:00","-4.2","","-8.9","","70","","","","30","","51","","","","99.89","","","","-14","","NA"
"-85.83","47.33","CARIBOU ISLAND (AUT)","6041222","2023-03-29 17:00","2023","03","29","17:00","-4.4","","-8.4","","73","","","","31","","39","","","","99.88","","","","-13","","NA"
"-85.83","47.33","CARIBOU ISLAND (AUT)","6041222","2023-03-29 18:00","2023","03","29","18:00","-4.2","","-8.3","","73","","","","30","","42","","","","99.90","","","","-13","","NA"
"-85.83","47.33","CARIBOU ISLAND (AUT)","6041222","2023-03-29 19:00","2023","03","29","19:00","-3.6","","-9.1","","66","","","","30","","42","","","","99.95","","","","-12","","NA"
"-85.83","47.33","CARIBOU ISLAND (AUT)","6041222","2023-03-29 20:00","2023","03","29","20:00","-3.6","","-8.2","","70","","","","28","","39","","","","99.98","","","","-12","","NA"
"-85.83","47.33","CARIBOU ISLAND (AUT)","6041222","2023-03-29 21:00","2023","03","29","21:00","-3.2","","-7.2","","74","","","","28","","45","","","","100.02","","","","-12","","NA"
"-85.83","47.33","CARIBOU ISLAND (AUT)","6041222","2023-03-29 22:00","2023","03","29","22:00","-2.8","","-7.4","","70","","","","28","","44","","","","100.01","","","","-11","","NA"
"-85.83","47.33","CARIBOU ISLAND (AUT)","6041222","2023-03-29 23:00","2023","03","29","23:00","-2.3","","-6.8","","71","","","","27","","43","","","","99.99","","","","-11","","NA"
"-85.83","47.33","CARIBOU ISLAND (AUT)","6041222","2023-03-30 00:00","2023","03","30","00:00","-2.2","","-7.4","","67","","","","27","","42","","","","99.97","","","","-11","","NA"
"-85.83","47.33","CARIBOU ISLAND (AUT)","6041222","2023-03-30 01:00","2023","03","30","01:00","-1.6","","-7.0","","67","","","","27","","40","","","","99.93","","","","-10","","NA"
"-85.83","47.33","CARIBOU ISLAND (AUT)","6041222","2023-03-30 02:00","2023","03","30","02:00","-1.3","","-6.1","","70","","","","27","","41","","","","99.93","","","","-9","","NA"
"-85.83","47.33","CARIBOU ISLAND (AUT)","6041222","2023-03-30 03:00","2023","03","30","03:00","-1.2","","-6.8","","66","","","","27","","40","","","","99.93","","","","-9","","NA"
"-85.83","47.33","CARIBOU ISLAND (AUT)","6041222","2023-03-30 04:00","2023","03","30","04:00","-1.1","","-6.3","","68","","","","27","","40","","","","99.92","","","","-9","","NA"
"-85.83","47.33","CARIBOU ISLAND (AUT)","6041222","2023-03-30 05:00","2023","03","30","05:00","-1.1","","-6.8","","65","","","","27","","39","","","","99.91","","","","-9","","NA"
"-85.83","47.33","CARIBOU ISLAND (AUT)","6041222","2023-03-30 06:00","2023","03","30","06:00","-1.2","","-6.0","","69","","","","26","","38","","","","99.90","","","","-9","","NA"
"-85.83","47.33","CARIBOU ISLAND (AUT)","6041222","2023-03-30 07:00","2023","03","30","07:00","-1.1","","-5.2","","74","","","","26","","37","","","","99.91","","","","-9","","NA"
"-85.83","47.33","CARIBOU ISLAND (AUT)","6041222","2023-03-30 08:00","2023","03","30","08:00","-1.1","","-5.6","","72","","","","26","","33","","","","99.92","","","","-8","","NA"
"-85.83","47.33","CARIBOU ISLAND (AUT)","6041222","2023-03-30 09:00","2023","03","30","09:00","-1.0","","-6.2","","68","","","","26","","36","","","","99.91","","","","-8","","NA"
"-85.83","47.33","CARIBOU ISLAND (AUT)","6041222","2023-03-30 10:00","2023","03","30","10:00","-0.9","","-5.7","","70","","","","26","","33","","","","99.94","","","","-8","","NA"
"-85.83","47.33","CARIBOU ISLAND (AUT)","6041222","2023-03-30 11:00","2023","03","30","11:00","-0.7","","-5.8","","68","","","","26","","35","","","","99.96","","","","-8","","NA"
"-85.83","47.33","CARIBOU ISLAND (AUT)","6041222","2023-03-30 12:00","2023","03","30","12:00","-0.9","","-5.9","","69","","","","26","","32","","","","99.93","","","","-8","","NA"
"-85.83","47.33","CARIBOU ISLAND (AUT)","6041222","2023-03-30 13:00","2023","03","30","13:00","-0.5","","-6.4","","64","","","","23","","25","","","","99.90","","","","-7","","NA"
"-85.83","47.33","CARIBOU ISLAND (AUT)","6041222","2023-03-30 14:00","2023","03","30","14:00","-0.3","","-6.1","","65","","","","23","","27","","","","99.82","","","","-7","","NA"
"-85.83","47.33","CARIBOU ISLAND (AUT)","6041222","2023-03-30 15:00","2023","03","30","15:00","-0.4","","-8.0","","56","","","","23","","26","","","","99.75","","","","-7","","NA"
"-85.83","47.33","CARIBOU ISLAND (AUT)","6041222","2023-03-30 16:00","2023","03","30","16:00","0.6","","-9.0","","48","","0.0","","24","","20","","","","99.69","","","","","","NA"
"-85.83","47.33","CARIBOU ISLAND (AUT)","6041222","2023-03-30 17:00","2023","03","30","17:00","1.0","","-9.0","","47","","0.0","","24","","16","","","","99.65","","","","","","NA"
"-85.83","47.33","CARIBOU ISLAND (AUT)","6041222","2023-03-30 18:00","2023","03","30","18:00","1.5","","-6.4","","56","","0.0","","21","","10","","","","99.61","","","","","","NA"
"-85.83","47.33","CARIBOU ISLAND (AUT)","6041222","2023-03-30 19:00","2023","03","30","19:00","0.1","","-6.4","","61","","","","16","","18","","","","99.55","","","","","","NA"
"-85.83","47.33","CARIBOU ISLAND (AUT)","6041222","2023-03-30 20:00","2023","03","30","20:00","0.0","","-5.7","","65","","","","15","","23","","","","99.52","","","","-6","","NA"
"-85.83","47.33","CARIBOU ISLAND (AUT)","6041222","2023-03-30 21:00","2023","03","30","21:00","0.5","","-3.8","","72","","0.0","","15","","19","","","","99.48","","","","","","NA"
"-85.83","47.33","CARIBOU ISLAND (AUT)","6041222","2023-03-30 22:00","2023","03","30","22:00","1.0","","-3.3","","73","","0.0","","19","","24","","","","99.51","","","","","","NA"
"-85.83","47.33","CARIBOU ISLAND (AUT)","6041222","2023-03-30 23:00","2023","03","30","23:00","1.0","","-2.0","","81","","0.0","","20","","24","","","","99.51","","","","","","NA"
"-85.83","47.33","CARIBOU ISLAND (AUT)","6041222","2023-03-31 00:00","2023","03","31","00:00","1.1","","-1.9","","80","","0.0","","21","","24","","","","99.49","","","","","","NA"
"-85.83","47.33","CARIBOU ISLAND (AUT)","6041222","2023-03-31 01:00","2023","03","31","01:00","1.2","","-2.0","","79","","0.0","","22","","30","","","","99.44","","","","","","NA"
"-85.83","47.33","CARIBOU ISLAND (AUT)","6041222","2023-03-31 02:00","2023","03","31","02:00","0.9","","-1.3","","86","","0.0","","22","","25","","","","99.36","","","","","","NA"
"-85.83","47.33","CARIBOU ISLAND (AUT)","6041222","2023-03-31 03:00","2023","03","31","03:00","0.5","","-0.8","","91","","0.0","","19","","15","","","","99.23","","","","","","NA"
"-85.83","47.33","CARIBOU ISLAND (AUT)","6041222","2023-03-31 04:00","2023","03","31","04:00","0.2","","-0.6","","95","","","","16","","17","","","","99.13","","","","","","NA"
"-85.83","47.33","CARIBOU ISLAND (AUT)","6041222","2023-03-31 05:00","2023","03","31","05:00","0.0","","-0.9","","94","","","","13","","15","","","","99.12","","","","-4","","NA"
"-85.83","47.33","CARIBOU ISLAND (AUT)","6041222","2023-03-31 06:00","2023","03","31","06:00","0.1","","-0.6","","95","","","","11","","24","","","","99.06","","","","","","NA"
"-85.83","47.33","CARIBOU ISLAND (AUT)","6041222","2023-03-31 07:00","2023","03","31","07:00","-0.2","","-1.0","","94","","","","11","","29","","","","99.00","","","","-7","","NA"
"-85.83","47.33","CARIBOU ISLAND (AUT)","6041222","2023-03-31 08:00","2023","03","31","08:00","-0.2","","-0.9","","95","","","","10","","34","","","","98.96","","","","-7","","NA"
"-85.83","47.33","CARIBOU ISLAND (AUT)","6041222","2023-03-31 09:00","2023","03","31","09:00","-0.1","","-0.6","","96","","","","8","","16","","","","98.91","","","","-5","","NA"
"-85.83","47.33","CARIBOU ISLAND (AUT)","6041222","2023-03-31 10:00","2023","03","31","10:00","0.0","","-0.5","","96","","","","6","","14","","","","98.84","","","","-4","","NA"
"-85.83","47.33","CARIBOU ISLAND (AUT)","6041222","2023-03-31 11:00","2023","03","31","11:00","0.0","","-0.7","","95","","","","6","","15","","","","98.81","","","","-4","","NA"
"-85.83","47.33","CARIBOU ISLAND (AUT)","6041222","2023-03-31 12:00","2023","03","31","12:00","0.0","","-1.0","","93","","","","5","","14","","","","98.76","","","","-4","","NA"
"-85.83","47.33","CARIBOU ISLAND (AUT)","6041222","2023-03-31 13:00","2023","03","31","13:00","0.6","","-1.1","","89","","0.2","","5","","15","","","","98.70","","","","","","NA"
"-85.83","47.33","CARIBOU ISLAND (AUT)","6041222","2023-03-31 14:00","2023","03","31","14:00","0.9","","-1.0","","87","","0.0","","5","","34","","","","98.66","","","","","","NA"
"-85.83","47.33","CARIBOU ISLAND (AUT)","6041222","2023-03-31 15:00","2023","03","31","15:00","1.4","","-1.0","","84","","0.0","","5","","33","","","","98.55","","","","","","NA"
"-85.83","47.33","CARIBOU ISLAND (AUT)","6041222","2023-03-31 16:00","2023","03","31","16:00","1.4","","-1.2","","83","","0.0","","5","","32","","","","98.54","","","","","","NA"
"-85.83","47.33","CARIBOU ISLAND (AUT)","6041222","2023-03-31 17:00","2023","03","31","17:00","1.4","","-1.4","","82","","0.0","","4","","33","","","","98.50","","","","","","NA"
"-85.83","47.33","CARIBOU ISLAND (AUT)","6041222","2023-03-31 18:00","2023","03","31","18:00","1.4","","-1.3","","82","","0.0","","5","","35","","","","98.46","","","","","","NA"
"-85.83","47.33","CARIBOU ISLAND (AUT)","6041222","2023-03-31 19:00","2023","03","31","19:00","1.4","","-1.6","","80","","0.0","","5","","39","","","","98.44","","","","","","NA"
"-85.83","47.33","CARIBOU ISLAND (AUT)","6041222","2023-03-31 20:00","2023","03","31","20:00","1.5","","-1.8","","79","","0.0","","5","","35","","","","98.42","","","","","","NA"
"-85.83","47.33","CARIBOU ISLAND (AUT)","6041222","2023-03-31 21:00","2023","03","31","21:00","1.3","","-2.2","","77","","0.0","","6","","35","","","","98.33","","","","","","NA"
"-85.83","47.33","CARIBOU ISLAND (AUT)","6041222","2023-03-31 22:00","2023","03","31","22:00","1.3","","-1.8","","80","","0.0","","6","","31","","","","98.26","","","","","","NA"
"-85.83","47.33","CARIBOU ISLAND (AUT)","6041222","2023-03-31 23:00","2023","03","31","23:00","1.2","","-2.0","","79","","0.0","","5","","36","","","","98.10","","","","","","NA"
