"Longitude (x)","Latitude (y)","Station Name","Climate ID","Date/Time (LST)","Year","Month","Day","Time (LST)","Temp (°C)","Temp Flag","Dew Point Temp (°C)","Dew Point Temp Flag","Rel Hum (%)","Rel Hum Flag","Precip. Amount (mm)","Precip. Amount Flag","Wind Dir (10s deg)","Wind Dir Flag","Wind Spd (km/h)","Wind Spd Flag","Visibility (km)","Visibility Flag","Stn Press (kPa)","Stn Press Flag","Hmdx","Hmdx Flag","Wind Chill","Wind Chill Flag","Weather"
"-126.80","65.28","NORMAN WELLS A","2202801","2023-03-01 00:00","2023","03","01","00:00","-27.9","","-30.5","","79","","","","8","","7","","48.3","","98.97","","","","-35","","NA"
"-126.80","65.28","NORMAN WELLS A","2202801","2023-03-01 01:00","2023","03","01","01:00","-30.6","","-33.7","","74","","","","2","","7","","48.3","","98.96","","","","-38","","NA"
"-126.80","65.28","NORMAN WELLS A","2202801","2023-03-01 02:00","2023","03","01","02:00","-31.0","","-34.2","","74","","","","19","","7","","48.3","","98.84","","","","-38","","Mainly Clear"
"-126.80","65.28","NORMAN WELLS A","2202801","2023-03-01 03:00","2023","03","01","03:00","-35.1","","-38.7","","71","","","","36","","1","","48.3","","98.82","","","","-36","","NA"
"-126.80","65.28","NORMAN WELLS A","2202801","2023-03-01 04:00","2023","03","01","04:00","-31.3","","-34.6","","74","","","","7","","3","","48.3","","98.77","","","","-35","","NA"
"-126.80","65.28","NORMAN WELLS A","2202801","2023-03-01 05:00","2023","03","01","05:00","-33.0","","-36.4","","72","","","","24","","5","","48.3","","98.78","","","","-39","","Clear"
"-126.80","65.28","NORMAN WELLS A","2202801","2023-03-01 06:00","2023","03","01","06:00","-34.4","","-37.9","","71","","","","36","","3","","48.3","","98.72","","","","-38","","NA"
"-126.80","65.28","NORMAN WELLS A","2202801","2023-03-01 07:00","2023","03","01","07:00","-34.9","","-38.5","","71","","","","12","","6","","48.3","","98.69","","","","-42","","NA"
"-126.80","65.28","NORMAN WELLS A","2202801","2023-03-01 08:00","2023","03","01","08:00","-33.4","","-36.9","","72","","","","11","","9","","48.3","","98.65","","","","-43","","Clear"
"-126.80","65.28","NORMAN WELLS A","2202801","2023-03-01 09:00","2023","03","01","09:00","-35.2","","-38.8","","71","","","","6","","5","","48.3","","98.59","","","","-42","","NA"
"-126.80","65.28","NORMAN WELLS A","2202801","2023-03-01 10:00","2023","03","01","10:00","-31.0","","-34.3","","73","","","","11","","5","","48.3","","98.54","","","","-37","","NA"
"-126.80","65.28","NORMAN WELLS A","2202801","2023-03-01 11:00","2023","03","01","11:00","-25.1","","-28.1","","77","","","","11","","11","","32.2","","98.48","","","","-34","","Mainly Clear"
"-126.80","65.28","NORMAN WELLS A","2202801","2023-03-01 12:00","2023","03","01","12:00","-24.1","","-27.0","","78","","","","12","","16","","48.3","","98.38","","","","-34","","NA"
"-126.80","65.28","NORMAN WELLS A","2202801","2023-03-01 13:00","2023","03","01","13:00","-21.6","","-24.3","","79","","","","12","","17","","48.3","","98.29","","","","-32","","NA"
"-126.80","65.28","NORMAN WELLS A","2202801","2023-03-01 14:00","2023","03","01","14:00","-21.3","","-24.1","","78","","","","13","","16","","48.3","","98.19","","","","-31","","Clear"
"-126.80","65.28","NORMAN WELLS A","2202801","2023-03-01 15:00","2023","03","01","15:00","-18.8","","-22.8","","71","","","","11","","21","","48.3","","98.11","","","","-29","","NA"
"-126.80","65.28","NORMAN WELLS A","2202801","2023-03-01 16:00","2023","03","01","16:00","-17.2","","-21.7","","68","","","","11","","17","","48.3","","97.99","","","","-26","","NA"
"-126.80","65.28","NORMAN WELLS A","2202801","2023-03-01 17:00","2023","03","01","17:00","-16.6","","-21.5","","66","","","","11","","13","","48.3","","97.96","","","","-24","","Clear"
"-126.80","65.28","NORMAN WELLS A","2202801","2023-03-01 18:00","2023","03","01","18:00","-19.1","","-23.2","","70","","","","13","","11","","48.3","","97.86","","","","-27","","NA"
"-126.80","65.28","NORMAN WELLS A","2202801","2023-03-01 19:00","2023","03","01","19:00","-19.4","","-22.1","","79","","","","5","","4","","48.3","","97.82","","","","-23","","NA"
"-126.80","65.28","NORMAN WELLS A","2202801","2023-03-01 20:00","2023","03","01","20:00","-24.7","","-27.3","","79","","","","36","","2","","48.3","","97.81","","","","-27","","Mainly Clear"
"-126.80","65.28","NORMAN WELLS A","2202801","2023-03-01 21:00","2023","03","01","21:00","-25.1","","-27.6","","80","","","","36","","2","","48.3","","97.78","","","","-27","","NA"
"-126.80","65.28","NORMAN WELLS A","2202801","2023-03-01 22:00","2023","03","01","22:00","-25.6","","-28.5","","77","","","","36","","2","","48.3","","97.75","","","","-28","","NA"
"-126.80","65.28","NORMAN WELLS A","2202801","2023-03-01 23:00","2023","03","01","23:00","-21.9","","-24.2","","82","","","","33","","8","","48.3","","97.74","","","","-28","","Mostly Cloudy"
"-126.80","65.28","NORMAN WELLS A","2202801","2023-03-02 00:00","2023","03","02","00:00","-24.5","","-27.4","","77","","","","29","","6","","48.3","","97.75","","","","-30","","NA"
"-126.80","65.28","NORMAN WELLS A","2202801","2023-03-02 01:00","2023","03","02","01:00","-24.5","","-27.7","","75","","","","28","","7","","48.3","","97.80","","","","-31","","NA"
"-126.80","65.28","NORMAN WELLS A","2202801","2023-03-02 02:00","2023","03","02","02:00","-24.7","","-27.2","","80","","","","30","","8","","48.3","","97.89","","","","-32","","Mainly Clear"
"-126.80","65.28","NORMAN WELLS A","2202801","2023-03-02 03:00","2023","03","02","03:00","-24.9","","-27.6","","79","","","","28","","8","","48.3","","98.02","","","","-32","","NA"
"-126.80","65.28","NORMAN WELLS A","2202801","2023-03-02 04:00","2023","03","02","04:00","-24.7","","-27.4","","79","","","","29","","15","","48.3","","98.11","","","","-35","","NA"
"-126.80","65.28","NORMAN WELLS A","2202801","2023-03-02 05:00","2023","03","02","05:00","-24.5","","-27.3","","78","","","","30","","11","","48.3","","98.26","","","","-33","","Mostly Cloudy"
"-126.80","65.28","NORMAN WELLS A","2202801","2023-03-02 06:00","2023","03","02","06:00","-25.5","","-28.4","","77","","","","27","","7","","48.3","","98.40","","","","-32","","NA"
"-126.80","65.28","NORMAN WELLS A","2202801","2023-03-02 07:00","2023","03","02","07:00","-25.5","","-28.3","","78","","","","27","","11","","48.3","","98.53","","","","-34","","Ice Crystals"
"-126.80","65.28","NORMAN WELLS A","2202801","2023-03-02 08:00","2023","03","02","08:00","-25.1","","-28.3","","76","","","","29","","19","","48.3","","98.65","","","","-37","","Ice Crystals"
"-126.80","65.28","NORMAN WELLS A","2202801","2023-03-02 09:00","2023","03","02","09:00","-24.5","","-27.5","","76","","","","29","","17","","48.3","","98.78","","","","-35","","NA"
"-126.80","65.28","NORMAN WELLS A","2202801","2023-03-02 10:00","2023","03","02","10:00","-24.1","","-27.2","","76","","","","29","","12","","32.2","","98.88","","","","-33","","NA"
"-126.80","65.28","NORMAN WELLS A","2202801","2023-03-02 11:00","2023","03","02","11:00","-23.0","","-26.1","","76","","","","29","","23","","24.1","","98.98","","","","-35","","Mostly Cloudy"
"-126.80","65.28","NORMAN WELLS A","2202801","2023-03-02 12:00","2023","03","02","12:00","-22.4","","-25.7","","75","","","","28","","28","","24.1","","99.07","","","","-35","","NA"
"-126.80","65.28","NORMAN WELLS A","2202801","2023-03-02 13:00","2023","03","02","13:00","-21.7","","-25.6","","72","","","","27","","29","","48.3","","99.13","","","","-35","","NA"
"-126.80","65.28","NORMAN WELLS A","2202801","2023-03-02 14:00","2023","03","02","14:00","-20.6","","-24.5","","72","","","","27","","30","","48.3","","99.24","","","","-33","","Mostly Cloudy"
"-126.80","65.28","NORMAN WELLS A","2202801","2023-03-02 15:00","2023","03","02","15:00","-20.6","","-24.6","","71","","","","28","","28","","48.3","","99.35","","","","-33","","NA"
"-126.80","65.28","NORMAN WELLS A","2202801","2023-03-02 16:00","2023","03","02","16:00","-20.6","","-24.3","","72","","","","27","","27","","48.3","","99.44","","","","-33","","NA"
"-126.80","65.28","NORMAN WELLS A","2202801","2023-03-02 17:00","2023","03","02","17:00","-21.0","","-24.9","","72","","","","28","","26","","40.2","","99.54","","","","-33","","Mostly Cloudy"
"-126.80","65.28","NORMAN WELLS A","2202801","2023-03-02 18:00","2023","03","02","18:00","-21.6","","-25.6","","70","","","","28","","21","","48.3","","99.63","","","","-33","","NA"
"-126.80","65.28","NORMAN WELLS A","2202801","2023-03-02 19:00","2023","03","02","19:00","-22.7","","-26.4","","72","","","","28","","15","","48.3","","99.70","","","","-32","","NA"
"-126.80","65.28","NORMAN WELLS A","2202801","2023-03-02 20:00","2023","03","02","20:00","-24.2","","-27.2","","77","","","","30","","8","","48.3","","99.80","","","","-31","","Mainly Clear"
"-126.80","65.28","NORMAN WELLS A","2202801","2023-03-02 21:00","2023","03","02","21:00","-25.3","","-28.2","","77","","","","33","","6","","48.3","","99.88","","","","-31","","NA"
"-126.80","65.28","NORMAN WELLS A","2202801","2023-03-02 22:00","2023","03","02","22:00","-26.0","","-29.1","","76","","","","33","","5","","48.3","","99.97","","","","-31","","NA"
"-126.80","65.28","NORMAN WELLS A","2202801","2023-03-02 23:00","2023","03","02","23:00","-26.2","","-29.0","","78","","","","30","","7","","48.3","","100.03","","","","-33","","Mainly Clear"
"-126.80","65.28","NORMAN WELLS A","2202801","2023-03-03 00:00","2023","03","03","00:00","-27.1","","-30.0","","77","","","","33","","5","","48.3","","100.09","","","","-32","","NA"
"-126.80","65.28","NORMAN WELLS A","2202801","2023-03-03 01:00","2023","03","03","01:00","-31.1","","-34.5","","73","","","","36","","1","","48.3","","100.18","","","","-32","","NA"
"-126.80","65.28","NORMAN WELLS A","2202801","2023-03-03 02:00","2023","03","03","02:00","-27.7","","-30.6","","77","","","","30","","9","","48.3","","100.24","","","","-36","","Mainly Clear"
"-126.80","65.28","NORMAN WELLS A","2202801","2023-03-03 03:00","2023","03","03","03:00","-31.7","","-34.9","","74","","","","32","","4","","48.3","","100.35","","","","-36","","NA"
"-126.80","65.28","NORMAN WELLS A","2202801","2023-03-03 04:00","2023","03","03","04:00","-31.8","","-35.0","","74","","","","9","","4","","48.3","","100.43","","","","-36","","NA"
"-126.80","65.28","NORMAN WELLS A","2202801","2023-03-03 05:00","2023","03","03","05:00","-32.4","","-35.8","","73","","","","6","","4","","48.3","","100.51","","","","-37","","Mainly Clear"
"-126.80","65.28","NORMAN WELLS A","2202801","2023-03-03 06:00","2023","03","03","06:00","-36.1","","-39.7","","70","","","","3","","6","","48.3","","100.61","","","","-44","","Ice Crystals"
"-126.80","65.28","NORMAN WELLS A","2202801","2023-03-03 07:00","2023","03","03","07:00","-35.6","","-39.2","","70","","","","10","","5","","48.3","","100.68","","","","-42","","Ice Crystals"
"-126.80","65.28","NORMAN WELLS A","2202801","2023-03-03 08:00","2023","03","03","08:00","-34.7","","-38.1","","72","","","","36","","3","","48.3","","100.73","","","","-38","","Ice Crystals"
"-126.80","65.28","NORMAN WELLS A","2202801","2023-03-03 09:00","2023","03","03","09:00","-37.9","","-41.7","","69","","","","35","","5","","48.3","","100.79","","","","-45","","Ice Crystals"
"-126.80","65.28","NORMAN WELLS A","2202801","2023-03-03 10:00","2023","03","03","10:00","-29.8","","-33.0","","75","","","","19","","4","","48.3","","100.85","","","","-34","","Ice Crystals"
"-126.80","65.28","NORMAN WELLS A","2202801","2023-03-03 11:00","2023","03","03","11:00","-28.8","","-32.0","","75","","","","13","","4","","48.3","","100.93","","","","-33","","Ice Crystals"
"-126.80","65.28","NORMAN WELLS A","2202801","2023-03-03 12:00","2023","03","03","12:00","-26.8","","-29.9","","75","","","","16","","7","","48.3","","100.98","","","","-34","","NA"
"-126.80","65.28","NORMAN WELLS A","2202801","2023-03-03 13:00","2023","03","03","13:00","-24.7","","-28.6","","71","","","","28","","13","","48.3","","101.05","","","","-34","","NA"
"-126.80","65.28","NORMAN WELLS A","2202801","2023-03-03 14:00","2023","03","03","14:00","-23.8","","-28.4","","67","","","","27","","15","","48.3","","101.12","","","","-34","","Mainly Clear"
"-126.80","65.28","NORMAN WELLS A","2202801","2023-03-03 15:00","2023","03","03","15:00","-23.2","","-28.0","","65","","","","28","","20","","48.3","","101.17","","","","-35","","NA"
"-126.80","65.28","NORMAN WELLS A","2202801","2023-03-03 16:00","2023","03","03","16:00","-22.6","","-27.7","","64","","","","29","","22","","48.3","","101.25","","","","-34","","NA"
"-126.80","65.28","NORMAN WELLS A","2202801","2023-03-03 17:00","2023","03","03","17:00","-23.2","","-28.2","","64","","","","28","","17","","48.3","","101.35","","","","-34","","Mainly Clear"
"-126.80","65.28","NORMAN WELLS A","2202801","2023-03-03 18:00","2023","03","03","18:00","-23.8","","-28.5","","66","","","","28","","16","","48.3","","101.41","","","","-34","","NA"
"-126.80","65.28","NORMAN WELLS A","2202801","2023-03-03 19:00","2023","03","03","19:00","-24.6","","-28.7","","69","","","","29","","11","","48.3","","101.48","","","","-33","","NA"
"-126.80","65.28","NORMAN WELLS A","2202801","2023-03-03 20:00","2023","03","03","20:00","-26.0","","-29.4","","74","","","","31","","5","","48.3","","101.56","","","","-31","","Mainly Clear"
"-126.80","65.28","NORMAN WELLS A","2202801","2023-03-03 21:00","2023","03","03","21:00","-26.0","","-29.4","","73","","","","29","","12","","48.3","","101.63","","","","-35","","NA"
"-126.80","65.28","NORMAN WELLS A","2202801","2023-03-03 22:00","2023","03","03","22:00","-26.6","","-30.1","","73","","","","28","","16","","48.3","","101.72","","","","-38","","NA"
"-126.80","65.28","NORMAN WELLS A","2202801","2023-03-03 23:00","2023","03","03","23:00","-27.2","","-30.4","","75","","","","30","","8","","48.3","","101.84","","","","-35","","Clear"
"-126.80","65.28","NORMAN WELLS A","2202801","2023-03-04 00:00","2023","03","04","00:00","-28.7","","-31.9","","75","","","","36","","3","","48.3","","101.94","","","","-32","","NA"
"-126.80","65.28","NORMAN WELLS A","2202801","2023-03-04 01:00","2023","03","04","01:00","-28.6","","-31.6","","75","","","","30","","7","","32.2","","102.03","","","","-36","","NA"
"-126.80","65.28","NORMAN WELLS A","2202801","2023-03-04 02:00","2023","03","04","02:00","-30.1","","-33.1","","75","","","","27","","14","","32.2","","102.14","","","","-41","","Clear"
"-126.80","65.28","NORMAN WELLS A","2202801","2023-03-04 03:00","2023","03","04","03:00","-28.0","","-31.1","","75","","","","29","","16","","48.3","","102.21","","","","-39","","NA"
"-126.80","65.28","NORMAN WELLS A","2202801","2023-03-04 04:00","2023","03","04","04:00","-30.1","","-33.3","","74","","","","28","","19","","48.3","","102.29","","","","-43","","NA"
"-126.80","65.28","NORMAN WELLS A","2202801","2023-03-04 05:00","2023","03","04","05:00","-28.4","","-31.7","","74","","","","28","","24","","48.3","","102.34","","","","-42","","Mainly Clear"
"-126.80","65.28","NORMAN WELLS A","2202801","2023-03-04 06:00","2023","03","04","06:00","-28.0","","-31.3","","74","","","","29","","27","","48.3","","102.41","","","","-42","","NA"
"-126.80","65.28","NORMAN WELLS A","2202801","2023-03-04 07:00","2023","03","04","07:00","-30.1","","-33.4","","74","","","","27","","13","","8.1","","102.49","","","","-41","","Fog"
"-126.80","65.28","NORMAN WELLS A","2202801","2023-03-04 08:00","2023","03","04","08:00","-30.7","","-34.1","","73","","","","25","","6","","8.1","","102.57","","","","-37","","Ice Crystals,Fog"
"-126.80","65.28","NORMAN WELLS A","2202801","2023-03-04 09:00","2023","03","04","09:00","-29.9","","-33.2","","74","","","","27","","10","","6.4","","102.62","","","","-39","","Ice Crystals,Fog"
"-126.80","65.28","NORMAN WELLS A","2202801","2023-03-04 10:00","2023","03","04","10:00","-29.6","","-33.0","","73","","","","29","","15","","6.4","","102.69","","","","-41","","Ice Crystals,Fog"
"-126.80","65.28","NORMAN WELLS A","2202801","2023-03-04 11:00","2023","03","04","11:00","-27.7","","-31.2","","73","","","","29","","23","","8.1","","102.76","","","","-41","","Ice Crystals,Fog"
"-126.80","65.28","NORMAN WELLS A","2202801","2023-03-04 12:00","2023","03","04","12:00","-26.9","","-30.7","","71","","","","28","","22","","16.1","","102.77","","","","-40","","Ice Crystals"
"-126.80","65.28","NORMAN WELLS A","2202801","2023-03-04 13:00","2023","03","04","13:00","-25.1","","-29.4","","68","","","","28","","26","","48.3","","102.82","","","","-38","","Ice Crystals"
"-126.80","65.28","NORMAN WELLS A","2202801","2023-03-04 14:00","2023","03","04","14:00","-24.3","","-28.8","","67","","","","29","","27","","40.2","","102.81","","","","-38","","Blowing Snow"
"-126.80","65.28","NORMAN WELLS A","2202801","2023-03-04 15:00","2023","03","04","15:00","-23.7","","-28.3","","66","","","","27","","28","","40.2","","102.82","","","","-37","","Blowing Snow"
"-126.80","65.28","NORMAN WELLS A","2202801","2023-03-04 16:00","2023","03","04","16:00","-23.2","","-28.1","","65","","","","28","","28","","48.3","","102.82","","","","-36","","Blowing Snow"
"-126.80","65.28","NORMAN WELLS A","2202801","2023-03-04 17:00","2023","03","04","17:00","-23.0","","-28.1","","64","","","","27","","25","","48.3","","102.84","","","","-35","","Blowing Snow"
"-126.80","65.28","NORMAN WELLS A","2202801","2023-03-04 18:00","2023","03","04","18:00","-23.4","","-28.3","","65","","","","27","","21","","48.3","","102.84","","","","-35","","Blowing Snow"
"-126.80","65.28","NORMAN WELLS A","2202801","2023-03-04 19:00","2023","03","04","19:00","-25.1","","-29.5","","67","","","","25","","13","","48.3","","102.84","","","","-35","","NA"
"-126.80","65.28","NORMAN WELLS A","2202801","2023-03-04 20:00","2023","03","04","20:00","-26.6","","-30.5","","70","","","","27","","17","","48.3","","102.85","","","","-38","","Clear"
"-126.80","65.28","NORMAN WELLS A","2202801","2023-03-04 21:00","2023","03","04","21:00","-26.3","","-30.0","","71","","","","29","","11","","48.3","","102.84","","","","-35","","NA"
"-126.80","65.28","NORMAN WELLS A","2202801","2023-03-04 22:00","2023","03","04","22:00","-27.0","","-30.5","","73","","","","29","","10","","48.3","","102.84","","","","-36","","NA"
"-126.80","65.28","NORMAN WELLS A","2202801","2023-03-04 23:00","2023","03","04","23:00","-27.6","","-30.9","","74","","","","29","","12","","48.3","","102.85","","","","-37","","Clear"
"-126.80","65.28","NORMAN WELLS A","2202801","2023-03-05 00:00","2023","03","05","00:00","-31.8","","-35.1","","73","","","","0","","1","","48.3","","102.87","","","","-33","","NA"
"-126.80","65.28","NORMAN WELLS A","2202801","2023-03-05 01:00","2023","03","05","01:00","-32.0","","-35.1","","74","","","","31","","4","","48.3","","102.88","","","","-37","","NA"
"-126.80","65.28","NORMAN WELLS A","2202801","2023-03-05 02:00","2023","03","05","02:00","-35.8","","-39.4","","70","","","","36","","1","","48.3","","102.86","","","","-37","","Clear"
"-126.80","65.28","NORMAN WELLS A","2202801","2023-03-05 03:00","2023","03","05","03:00","-33.2","","-36.6","","72","","","","14","","3","","48.3","","102.87","","","","-37","","NA"
"-126.80","65.28","NORMAN WELLS A","2202801","2023-03-05 04:00","2023","03","05","04:00","-35.5","","-39.1","","71","","","","9","","7","","48.3","","102.86","","","","-44","","NA"
"-126.80","65.28","NORMAN WELLS A","2202801","2023-03-05 05:00","2023","03","05","05:00","-37.5","","-41.0","","70","","","","10","","8","","48.3","","102.89","","","","-47","","Clear"
"-126.80","65.28","NORMAN WELLS A","2202801","2023-03-05 06:00","2023","03","05","06:00","-38.3","","-42.1","","69","","","","11","","3","","48.3","","102.88","","","","-42","","NA"
"-126.80","65.28","NORMAN WELLS A","2202801","2023-03-05 07:00","2023","03","05","07:00","-38.2","","-42.0","","68","","","","21","","3","","48.3","","102.85","","","","-42","","NA"
"-126.80","65.28","NORMAN WELLS A","2202801","2023-03-05 08:00","2023","03","05","08:00","-38.0","","-41.8","","68","","","","36","","3","","48.3","","102.82","","","","-42","","Mainly Clear"
"-126.80","65.28","NORMAN WELLS A","2202801","2023-03-05 09:00","2023","03","05","09:00","-36.2","","-39.7","","70","","","","13","","5","","48.3","","102.85","","","","-43","","NA"
"-126.80","65.28","NORMAN WELLS A","2202801","2023-03-05 10:00","2023","03","05","10:00","-33.6","","-37.2","","71","","","","17","","4","","48.3","","102.84","","","","-38","","NA"
"-126.80","65.28","NORMAN WELLS A","2202801","2023-03-05 11:00","2023","03","05","11:00","-32.1","","-35.9","","70","","","","36","","2","","48.3","","102.83","","","","-34","","Mainly Clear"
"-126.80","65.28","NORMAN WELLS A","2202801","2023-03-05 12:00","2023","03","05","12:00","-28.0","","-31.5","","73","","","","16","","4","","48.3","","102.80","","","","-32","","NA"
"-126.80","65.28","NORMAN WELLS A","2202801","2023-03-05 13:00","2023","03","05","13:00","-25.6","","-29.9","","68","","","","16","","7","","48.3","","102.78","","","","-32","","NA"
"-126.80","65.28","NORMAN WELLS A","2202801","2023-03-05 14:00","2023","03","05","14:00","-23.9","","-29.0","","64","","","","36","","2","","48.3","","102.76","","","","-26","","Clear"
"-126.80","65.28","NORMAN WELLS A","2202801","2023-03-05 15:00","2023","03","05","15:00","-23.3","","-28.4","","64","","","","20","","4","","48.3","","102.73","","","","-27","","NA"
"-126.80","65.28","NORMAN WELLS A","2202801","2023-03-05 16:00","2023","03","05","16:00","-23.2","","-28.1","","65","","","","20","","4","","48.3","","102.71","","","","-27","","NA"
"-126.80","65.28","NORMAN WELLS A","2202801","2023-03-05 17:00","2023","03","05","17:00","-21.9","","-27.8","","59","","","","19","","4","","48.3","","102.69","","","","-26","","Clear"
"-126.80","65.28","NORMAN WELLS A","2202801","2023-03-05 18:00","2023","03","05","18:00","-21.7","","-27.2","","61","","","","14","","4","","48.3","","102.66","","","","-25","","NA"
"-126.80","65.28","NORMAN WELLS A","2202801","2023-03-05 19:00","2023","03","05","19:00","-22.7","","-27.7","","64","","","","11","","3","","48.3","","102.64","","","","-25","","NA"
"-126.80","65.28","NORMAN WELLS A","2202801","2023-03-05 20:00","2023","03","05","20:00","-27.3","","-31.0","","71","","","","36","","2","","48.3","","102.62","","","","-29","","Clear"
"-126.80","65.28","NORMAN WELLS A","2202801","2023-03-05 21:00","2023","03","05","21:00","-31.8","","-35.1","","73","","","","5","","6","","48.3","","102.61","","","","-39","","NA"
"-126.80","65.28","NORMAN WELLS A","2202801","2023-03-05 22:00","2023","03","05","22:00","-29.2","","-32.0","","77","","","","8","","3","","48.3","","102.58","","","","-33","","NA"
"-126.80","65.28","NORMAN WELLS A","2202801","2023-03-05 23:00","2023","03","05","23:00","-33.2","","-36.6","","73","","","","4","","4","","48.3","","102.57","","","","-38","","Clear"
"-126.80","65.28","NORMAN WELLS A","2202801","2023-03-06 00:00","2023","03","06","00:00","-33.8","","-37.3","","72","","","","36","","3","","48.3","","102.57","","","","-37","","NA"
"-126.80","65.28","NORMAN WELLS A","2202801","2023-03-06 01:00","2023","03","06","01:00","-32.9","","-36.2","","73","","","","14","","5","","48.3","","102.55","","","","-39","","NA"
"-126.80","65.28","NORMAN WELLS A","2202801","2023-03-06 02:00","2023","03","06","02:00","-33.6","","-37.0","","72","","","","14","","4","","48.3","","102.53","","","","-38","","Clear"
"-126.80","65.28","NORMAN WELLS A","2202801","2023-03-06 03:00","2023","03","06","03:00","-35.6","","-39.3","","70","","","","36","","1","","48.3","","102.50","","","","-37","","NA"
"-126.80","65.28","NORMAN WELLS A","2202801","2023-03-06 04:00","2023","03","06","04:00","-34.0","","-37.4","","72","","","","35","","3","","48.3","","102.48","","","","-38","","NA"
"-126.80","65.28","NORMAN WELLS A","2202801","2023-03-06 05:00","2023","03","06","05:00","-34.0","","-37.4","","72","","","","11","","6","","48.3","","102.42","","","","-41","","Mainly Clear"
"-126.80","65.28","NORMAN WELLS A","2202801","2023-03-06 06:00","2023","03","06","06:00","-35.6","","-39.1","","71","","","","9","","5","","48.3","","102.40","","","","-42","","NA"
"-126.80","65.28","NORMAN WELLS A","2202801","2023-03-06 07:00","2023","03","06","07:00","-33.9","","-37.4","","72","","","","10","","4","","48.3","","102.37","","","","-39","","NA"
"-126.80","65.28","NORMAN WELLS A","2202801","2023-03-06 08:00","2023","03","06","08:00","-33.4","","-36.7","","73","","","","15","","5","","48.3","","102.34","","","","-39","","Mostly Cloudy"
"-126.80","65.28","NORMAN WELLS A","2202801","2023-03-06 09:00","2023","03","06","09:00","-34.6","","-38.1","","71","","","","8","","7","","48.3","","102.32","","","","-43","","NA"
"-126.80","65.28","NORMAN WELLS A","2202801","2023-03-06 10:00","2023","03","06","10:00","-30.2","","-33.5","","74","","","","11","","5","","48.3","","102.30","","","","-36","","NA"
"-126.80","65.28","NORMAN WELLS A","2202801","2023-03-06 11:00","2023","03","06","11:00","-29.7","","-33.0","","73","","","","14","","7","","48.3","","102.25","","","","-37","","Mostly Cloudy"
"-126.80","65.28","NORMAN WELLS A","2202801","2023-03-06 12:00","2023","03","06","12:00","-27.2","","-30.6","","74","","","","14","","7","","48.3","","102.21","","","","-34","","NA"
"-126.80","65.28","NORMAN WELLS A","2202801","2023-03-06 13:00","2023","03","06","13:00","-24.3","","-28.3","","70","","","","16","","5","","48.3","","102.17","","","","-29","","NA"
"-126.80","65.28","NORMAN WELLS A","2202801","2023-03-06 14:00","2023","03","06","14:00","-22.9","","-27.7","","66","","","","16","","6","","48.3","","102.15","","","","-28","","Mostly Cloudy"
"-126.80","65.28","NORMAN WELLS A","2202801","2023-03-06 15:00","2023","03","06","15:00","-21.1","","-26.3","","64","","","","13","","5","","48.3","","102.10","","","","-26","","NA"
"-126.80","65.28","NORMAN WELLS A","2202801","2023-03-06 16:00","2023","03","06","16:00","-20.4","","-25.1","","67","","","","36","","2","","48.3","","102.08","","","","-22","","NA"
"-126.80","65.28","NORMAN WELLS A","2202801","2023-03-06 17:00","2023","03","06","17:00","-20.1","","-25.4","","64","","","","14","","3","","48.3","","102.07","","","","-23","","Cloudy"
"-126.80","65.28","NORMAN WELLS A","2202801","2023-03-06 18:00","2023","03","06","18:00","-19.3","","-24.3","","65","","","","13","","4","","48.3","","102.08","","","","-23","","NA"
"-126.80","65.28","NORMAN WELLS A","2202801","2023-03-06 19:00","2023","03","06","19:00","-19.8","","-24.5","","67","","","","36","","1","","48.3","","102.11","","","","-21","","NA"
"-126.80","65.28","NORMAN WELLS A","2202801","2023-03-06 20:00","2023","03","06","20:00","-21.0","","-24.9","","72","","","","6","","4","","48.3","","102.18","","","","-25","","Cloudy"
"-126.80","65.28","NORMAN WELLS A","2202801","2023-03-06 21:00","2023","03","06","21:00","-21.3","","-25.1","","72","","","","2","","4","","48.3","","102.23","","","","-25","","NA"
"-126.80","65.28","NORMAN WELLS A","2202801","2023-03-06 22:00","2023","03","06","22:00","-22.1","","-25.3","","76","","","","36","","3","","48.3","","102.28","","","","-25","","NA"
"-126.80","65.28","NORMAN WELLS A","2202801","2023-03-06 23:00","2023","03","06","23:00","-23.2","","-26.4","","76","","","","28","","7","","48.3","","102.36","","","","-29","","Mostly Cloudy"
"-126.80","65.28","NORMAN WELLS A","2202801","2023-03-07 00:00","2023","03","07","00:00","-26.7","","-29.6","","77","","","","34","","5","","48.3","","102.45","","","","-32","","NA"
"-126.80","65.28","NORMAN WELLS A","2202801","2023-03-07 01:00","2023","03","07","01:00","-27.8","","-30.6","","78","","","","36","","3","","48.3","","102.54","","","","-31","","NA"
"-126.80","65.28","NORMAN WELLS A","2202801","2023-03-07 02:00","2023","03","07","02:00","-27.8","","-30.9","","76","","","","29","","4","","48.3","","102.62","","","","-32","","Mostly Cloudy"
"-126.80","65.28","NORMAN WELLS A","2202801","2023-03-07 03:00","2023","03","07","03:00","-27.6","","-30.7","","75","","","","29","","4","","32.2","","102.72","","","","-32","","Snow"
"-126.80","65.28","NORMAN WELLS A","2202801","2023-03-07 04:00","2023","03","07","04:00","-28.1","","-31.4","","74","","","","36","","1","","32.2","","102.82","","","","-29","","Snow"
"-126.80","65.28","NORMAN WELLS A","2202801","2023-03-07 05:00","2023","03","07","05:00","-29.4","","-32.5","","75","","","","8","","3","","48.3","","102.89","","","","-33","","Snow"
"-126.80","65.28","NORMAN WELLS A","2202801","2023-03-07 06:00","2023","03","07","06:00","-30.2","","-33.3","","75","","","","10","","5","","48.3","","102.95","","","","-36","","Snow"
"-126.80","65.28","NORMAN WELLS A","2202801","2023-03-07 07:00","2023","03","07","07:00","-30.7","","-33.8","","75","","","","6","","7","","48.3","","103.02","","","","-38","","NA"
"-126.80","65.28","NORMAN WELLS A","2202801","2023-03-07 08:00","2023","03","07","08:00","-33.0","","-36.5","","72","","","","10","","5","","48.3","","103.07","","","","-39","","Mainly Clear"
"-126.80","65.28","NORMAN WELLS A","2202801","2023-03-07 09:00","2023","03","07","09:00","-32.4","","-35.8","","73","","","","10","","7","","48.3","","103.15","","","","-40","","NA"
"-126.80","65.28","NORMAN WELLS A","2202801","2023-03-07 10:00","2023","03","07","10:00","-26.3","","-29.2","","77","","","","12","","12","","48.3","","103.18","","","","-36","","NA"
"-126.80","65.28","NORMAN WELLS A","2202801","2023-03-07 11:00","2023","03","07","11:00","-24.4","","-27.4","","76","","","","13","","10","","48.3","","103.26","","","","-32","","Mainly Clear"
"-126.80","65.28","NORMAN WELLS A","2202801","2023-03-07 12:00","2023","03","07","12:00","-22.5","","-26.2","","72","","","","12","","13","","48.3","","103.25","","","","-31","","NA"
"-126.80","65.28","NORMAN WELLS A","2202801","2023-03-07 13:00","2023","03","07","13:00","-20.8","","-25.2","","69","","","","12","","20","","48.3","","103.26","","","","-31","","NA"
"-126.80","65.28","NORMAN WELLS A","2202801","2023-03-07 14:00","2023","03","07","14:00","-19.1","","-23.8","","67","","","","12","","18","","48.3","","103.26","","","","-29","","Clear"
"-126.80","65.28","NORMAN WELLS A","2202801","2023-03-07 15:00","2023","03","07","15:00","-17.9","","-23.1","","64","","","","11","","23","","48.3","","103.25","","","","-29","","NA"
"-126.80","65.28","NORMAN WELLS A","2202801","2023-03-07 16:00","2023","03","07","16:00","-17.2","","-22.9","","62","","","","11","","24","","48.3","","103.26","","","","-28","","NA"
"-126.80","65.28","NORMAN WELLS A","2202801","2023-03-07 17:00","2023","03","07","17:00","-16.3","","-22.7","","59","","","","11","","16","","48.3","","103.24","","","","-25","","Clear"
"-126.80","65.28","NORMAN WELLS A","2202801","2023-03-07 18:00","2023","03","07","18:00","-17.3","","-22.8","","63","","","","11","","21","","48.3","","103.25","","","","-27","","NA"
"-126.80","65.28","NORMAN WELLS A","2202801","2023-03-07 19:00","2023","03","07","19:00","-18.8","","-23.9","","65","","","","11","","16","","48.3","","103.29","","","","-28","","NA"
"-126.80","65.28","NORMAN WELLS A","2202801","2023-03-07 20:00","2023","03","07","20:00","-20.0","","-24.3","","69","","","","10","","13","","48.3","","103.31","","","","-28","","Clear"
"-126.80","65.28","NORMAN WELLS A","2202801","2023-03-07 21:00","2023","03","07","21:00","-21.7","","-25.0","","75","","","","9","","9","","48.3","","103.35","","","","-29","","NA"
"-126.80","65.28","NORMAN WELLS A","2202801","2023-03-07 22:00","2023","03","07","22:00","-22.4","","-25.9","","74","","","","8","","9","","48.3","","103.35","","","","-30","","NA"
"-126.80","65.28","NORMAN WELLS A","2202801","2023-03-07 23:00","2023","03","07","23:00","-22.6","","-26.1","","74","","","","8","","8","","48.3","","103.36","","","","-29","","Clear"
"-126.80","65.28","NORMAN WELLS A","2202801","2023-03-08 00:00","2023","03","08","00:00","-22.4","","-26.1","","72","","","","10","","10","","48.3","","103.37","","","","-30","","NA"
"-126.80","65.28","NORMAN WELLS A","2202801","2023-03-08 01:00","2023","03","08","01:00","-22.9","","-26.4","","73","","","","10","","12","","48.3","","103.36","","","","-32","","NA"
"-126.80","65.28","NORMAN WELLS A","2202801","2023-03-08 02:00","2023","03","08","02:00","-23.5","","-27.0","","74","","","","9","","13","","48.3","","103.35","","","","-33","","Clear"
"-126.80","65.28","NORMAN WELLS A","2202801","2023-03-08 03:00","2023","03","08","03:00","-24.1","","-27.3","","75","","","","10","","14","","48.3","","103.30","","","","-34","","NA"
"-126.80","65.28","NORMAN WELLS A","2202801","2023-03-08 04:00","2023","03","08","04:00","-24.1","","-27.3","","76","","","","10","","12","","48.3","","103.31","","","","-33","","NA"
"-126.80","65.28","NORMAN WELLS A","2202801","2023-03-08 05:00","2023","03","08","05:00","-24.2","","-27.3","","76","","","","10","","12","","48.3","","103.30","","","","-33","","Clear"
"-126.80","65.28","NORMAN WELLS A","2202801","2023-03-08 06:00","2023","03","08","06:00","-24.4","","-27.5","","76","","","","10","","12","","48.3","","103.27","","","","-33","","NA"
"-126.80","65.28","NORMAN WELLS A","2202801","2023-03-08 07:00","2023","03","08","07:00","-24.4","","-27.6","","76","","","","10","","13","","48.3","","103.22","","","","-34","","NA"
"-126.80","65.28","NORMAN WELLS A","2202801","2023-03-08 08:00","2023","03","08","08:00","-25.1","","-28.1","","76","","","","10","","16","","48.3","","103.18","","","","-36","","Clear"
"-126.80","65.28","NORMAN WELLS A","2202801","2023-03-08 09:00","2023","03","08","09:00","-24.2","","-27.4","","75","","","","11","","19","","48.3","","103.17","","","","-36","","NA"
"-126.80","65.28","NORMAN WELLS A","2202801","2023-03-08 10:00","2023","03","08","10:00","-22.8","","-26.7","","71","","","","11","","20","","48.3","","103.13","","","","-34","","NA"
"-126.80","65.28","NORMAN WELLS A","2202801","2023-03-08 11:00","2023","03","08","11:00","-20.9","","-25.4","","68","","","","11","","22","","48.3","","103.05","","","","-32","","Clear"
"-126.80","65.28","NORMAN WELLS A","2202801","2023-03-08 12:00","2023","03","08","12:00","-19.1","","-24.1","","65","","","","11","","32","","48.3","","102.97","","","","-32","","NA"
"-126.80","65.28","NORMAN WELLS A","2202801","2023-03-08 13:00","2023","03","08","13:00","-17.4","","-22.6","","64","","","","12","","31","","48.3","","102.90","","","","-29","","NA"
"-126.80","65.28","NORMAN WELLS A","2202801","2023-03-08 14:00","2023","03","08","14:00","-16.3","","-21.4","","66","","","","11","","36","","48.3","","102.79","","","","-29","","Clear"
"-126.80","65.28","NORMAN WELLS A","2202801","2023-03-08 15:00","2023","03","08","15:00","-15.7","","-21.5","","61","","","","12","","30","","48.3","","102.72","","","","-27","","NA"
"-126.80","65.28","NORMAN WELLS A","2202801","2023-03-08 16:00","2023","03","08","16:00","-14.9","","-20.8","","61","","","","11","","34","","48.3","","102.58","","","","-27","","NA"
"-126.80","65.28","NORMAN WELLS A","2202801","2023-03-08 17:00","2023","03","08","17:00","-14.8","","-20.6","","62","","","","12","","29","","48.3","","102.51","","","","-26","","Clear"
"-126.80","65.28","NORMAN WELLS A","2202801","2023-03-08 18:00","2023","03","08","18:00","-13.8","","-21.5","","53","","","","11","","25","","48.3","","102.40","","","","-24","","NA"
"-126.80","65.28","NORMAN WELLS A","2202801","2023-03-08 19:00","2023","03","08","19:00","-14.8","","-21.5","","57","","","","11","","30","","48.3","","102.29","","","","-26","","NA"
"-126.80","65.28","NORMAN WELLS A","2202801","2023-03-08 20:00","2023","03","08","20:00","-14.4","","-21.4","","56","","","","11","","28","","48.3","","102.21","","","","-25","","Clear"
"-126.80","65.28","NORMAN WELLS A","2202801","2023-03-08 21:00","2023","03","08","21:00","-16.5","","-21.6","","65","","","","12","","28","","48.3","","102.13","","","","-28","","NA"
"-126.80","65.28","NORMAN WELLS A","2202801","2023-03-08 22:00","2023","03","08","22:00","-16.1","","-21.6","","63","","","","12","","26","","48.3","","102.03","","","","-27","","NA"
"-126.80","65.28","NORMAN WELLS A","2202801","2023-03-08 23:00","2023","03","08","23:00","-17.3","","-22.4","","65","","","","13","","25","","48.3","","101.94","","","","-28","","Mainly Clear"
"-126.80","65.28","NORMAN WELLS A","2202801","2023-03-09 00:00","2023","03","09","00:00","-17.9","","-22.9","","66","","","","12","","23","","48.3","","101.83","","","","-29","","NA"
"-126.80","65.28","NORMAN WELLS A","2202801","2023-03-09 01:00","2023","03","09","01:00","-19.2","","-24.0","","66","","","","9","","10","","48.3","","101.76","","","","-26","","NA"
"-126.80","65.28","NORMAN WELLS A","2202801","2023-03-09 02:00","2023","03","09","02:00","-20.0","","-23.9","","72","","","","8","","7","","48.3","","101.70","","","","-26","","Mainly Clear"
"-126.80","65.28","NORMAN WELLS A","2202801","2023-03-09 03:00","2023","03","09","03:00","-20.4","","-24.4","","71","","","","13","","6","","48.3","","101.65","","","","-25","","NA"
"-126.80","65.28","NORMAN WELLS A","2202801","2023-03-09 04:00","2023","03","09","04:00","-25.0","","-27.7","","79","","","","5","","3","","48.3","","101.60","","","","-28","","NA"
"-126.80","65.28","NORMAN WELLS A","2202801","2023-03-09 05:00","2023","03","09","05:00","-29.6","","-32.8","","74","","","","36","","2","","48.3","","101.53","","","","-32","","Mainly Clear"
"-126.80","65.28","NORMAN WELLS A","2202801","2023-03-09 06:00","2023","03","09","06:00","-28.0","","-30.8","","78","","","","31","","7","","48.3","","101.52","","","","-35","","NA"
"-126.80","65.28","NORMAN WELLS A","2202801","2023-03-09 07:00","2023","03","09","07:00","-31.4","","-34.7","","73","","","","33","","7","","48.3","","101.53","","","","-39","","NA"
"-126.80","65.28","NORMAN WELLS A","2202801","2023-03-09 08:00","2023","03","09","08:00","-30.9","","-34.2","","73","","","","36","","1","","48.3","","101.52","","","","-32","","Mainly Clear"
"-126.80","65.28","NORMAN WELLS A","2202801","2023-03-09 09:00","2023","03","09","09:00","-29.6","","-32.8","","75","","","","36","","2","","48.3","","101.52","","","","-32","","NA"
"-126.80","65.28","NORMAN WELLS A","2202801","2023-03-09 10:00","2023","03","09","10:00","-23.6","","-26.4","","78","","","","7","","3","","48.3","","101.54","","","","-26","","NA"
"-126.80","65.28","NORMAN WELLS A","2202801","2023-03-09 11:00","2023","03","09","11:00","-22.8","","-26.9","","70","","","","14","","4","","48.3","","101.56","","","","-27","","Mainly Clear"
"-126.80","65.28","NORMAN WELLS A","2202801","2023-03-09 12:00","2023","03","09","12:00","-20.1","","-24.2","","70","","","","36","","2","","48.3","","101.56","","","","-22","","NA"
"-126.80","65.28","NORMAN WELLS A","2202801","2023-03-09 13:00","2023","03","09","13:00","-18.5","","-23.8","","64","","","","36","","2","","48.3","","101.58","","","","-20","","NA"
"-126.80","65.28","NORMAN WELLS A","2202801","2023-03-09 14:00","2023","03","09","14:00","-17.3","","-23.1","","61","","","","36","","2","","48.3","","101.61","","","","-19","","Mostly Cloudy"
"-126.80","65.28","NORMAN WELLS A","2202801","2023-03-09 15:00","2023","03","09","15:00","-16.5","","-22.6","","60","","","","28","","4","","48.3","","101.66","","","","-20","","NA"
"-126.80","65.28","NORMAN WELLS A","2202801","2023-03-09 16:00","2023","03","09","16:00","-16.9","","-22.5","","63","","","","27","","14","","48.3","","101.76","","","","-25","","NA"
"-126.80","65.28","NORMAN WELLS A","2202801","2023-03-09 17:00","2023","03","09","17:00","-16.6","","-21.2","","68","","","","28","","28","","32.2","","101.83","","","","-28","","Mostly Cloudy"
"-126.80","65.28","NORMAN WELLS A","2202801","2023-03-09 18:00","2023","03","09","18:00","-17.1","","-20.9","","72","","","","27","","31","","32.2","","101.87","","","","-29","","Snow"
"-126.80","65.28","NORMAN WELLS A","2202801","2023-03-09 19:00","2023","03","09","19:00","-17.4","","-21.1","","73","","","","28","","32","","32.2","","101.96","","","","-30","","Snow"
"-126.80","65.28","NORMAN WELLS A","2202801","2023-03-09 20:00","2023","03","09","20:00","-17.8","","-21.8","","72","","","","28","","27","","48.3","","102.12","","","","-29","","Mostly Cloudy"
"-126.80","65.28","NORMAN WELLS A","2202801","2023-03-09 21:00","2023","03","09","21:00","-16.9","","-21.2","","69","","","","30","","21","","24.1","","102.16","","","","-27","","Snow"
"-126.80","65.28","NORMAN WELLS A","2202801","2023-03-09 22:00","2023","03","09","22:00","-16.4","","-20.3","","72","","","","28","","30","","32.2","","102.19","","","","-28","","Snow"
"-126.80","65.28","NORMAN WELLS A","2202801","2023-03-09 23:00","2023","03","09","23:00","-15.5","","-20.4","","66","","","","29","","23","","40.2","","102.25","","","","-25","","Snow"
"-126.80","65.28","NORMAN WELLS A","2202801","2023-03-10 00:00","2023","03","10","00:00","-15.9","","-20.6","","68","","","","28","","23","","48.3","","102.29","","","","-26","","Snow"
"-126.80","65.28","NORMAN WELLS A","2202801","2023-03-10 01:00","2023","03","10","01:00","-15.7","","-20.6","","66","","","","29","","28","","32.2","","102.34","","","","-27","","Snow"
"-126.80","65.28","NORMAN WELLS A","2202801","2023-03-10 02:00","2023","03","10","02:00","-15.5","","-20.1","","68","","","","31","","16","","24.1","","102.38","","","","-24","","Snow"
"-126.80","65.28","NORMAN WELLS A","2202801","2023-03-10 03:00","2023","03","10","03:00","-14.6","","-17.3","","80","","","","29","","23","","8.1","","102.39","","","","-24","","Snow"
"-126.80","65.28","NORMAN WELLS A","2202801","2023-03-10 04:00","2023","03","10","04:00","-14.5","","-17.7","","77","","","","29","","31","","8.1","","102.41","","","","-26","","Snow,Blowing Snow"
"-126.80","65.28","NORMAN WELLS A","2202801","2023-03-10 05:00","2023","03","10","05:00","-14.9","","-18.0","","77","","","","29","","32","","6.4","","102.44","","","","-26","","Snow,Blowing Snow"
"-126.80","65.28","NORMAN WELLS A","2202801","2023-03-10 06:00","2023","03","10","06:00","-15.4","","-19.8","","69","","","","30","","30","","9.7","","102.49","","","","-27","","Snow,Blowing Snow"
"-126.80","65.28","NORMAN WELLS A","2202801","2023-03-10 07:00","2023","03","10","07:00","-15.7","","-19.1","","75","","","","30","","20","","9.7","","102.51","","","","-25","","Snow,Blowing Snow"
"-126.80","65.28","NORMAN WELLS A","2202801","2023-03-10 08:00","2023","03","10","08:00","-16.5","","-19.9","","76","","","","30","","27","","6.4","","102.56","","","","-27","","Snow,Blowing Snow"
"-126.80","65.28","NORMAN WELLS A","2202801","2023-03-10 09:00","2023","03","10","09:00","-16.9","","-20.7","","73","","","","29","","27","","9.7","","102.58","","","","-28","","Snow,Blowing Snow"
"-126.80","65.28","NORMAN WELLS A","2202801","2023-03-10 10:00","2023","03","10","10:00","-16.2","","-20.3","","71","","","","29","","22","","9.7","","102.60","","","","-26","","Snow,Blowing Snow"
"-126.80","65.28","NORMAN WELLS A","2202801","2023-03-10 11:00","2023","03","10","11:00","-15.6","","-21.0","","64","","","","30","","23","","9.7","","102.58","","","","-26","","Snow,Blowing Snow"
"-126.80","65.28","NORMAN WELLS A","2202801","2023-03-10 12:00","2023","03","10","12:00","-15.3","","-19.2","","72","","","","29","","29","","6.4","","102.59","","","","-26","","Snow,Blowing Snow"
"-126.80","65.28","NORMAN WELLS A","2202801","2023-03-10 13:00","2023","03","10","13:00","-15.2","","-20.4","","65","","","","30","","26","","9.7","","102.60","","","","-26","","Snow,Blowing Snow"
"-126.80","65.28","NORMAN WELLS A","2202801","2023-03-10 14:00","2023","03","10","14:00","-15.2","","-20.0","","67","","","","30","","23","","4.8","","102.60","","","","-25","","Snow,Blowing Snow"
"-126.80","65.28","NORMAN WELLS A","2202801","2023-03-10 15:00","2023","03","10","15:00","-14.8","","-20.3","","63","","","","30","","23","","16.1","","102.61","","","","-25","","Snow,Blowing Snow"
"-126.80","65.28","NORMAN WELLS A","2202801","2023-03-10 16:00","2023","03","10","16:00","-15.2","","-19.2","","71","","","","30","","21","","4.8","","102.59","","","","-25","","Snow,Blowing Snow"
"-126.80","65.28","NORMAN WELLS A","2202801","2023-03-10 17:00","2023","03","10","17:00","-15.2","","-19.1","","72","","","","29","","26","","4.8","","102.61","","","","-26","","Snow,Blowing Snow"
"-126.80","65.28","NORMAN WELLS A","2202801","2023-03-10 18:00","2023","03","10","18:00","-14.8","","-20.1","","65","","","","29","","21","","48.3","","102.58","","","","-24","","Blowing Snow"
"-126.80","65.28","NORMAN WELLS A","2202801","2023-03-10 19:00","2023","03","10","19:00","-16.1","","-21.3","","65","","","","29","","17","","48.3","","102.59","","","","-25","","Blowing Snow"
"-126.80","65.28","NORMAN WELLS A","2202801","2023-03-10 20:00","2023","03","10","20:00","-18.1","","-22.4","","69","","","","28","","18","","48.3","","102.62","","","","-28","","Blowing Snow"
"-126.80","65.28","NORMAN WELLS A","2202801","2023-03-10 21:00","2023","03","10","21:00","-18.9","","-22.8","","72","","","","25","","19","","48.3","","102.62","","","","-29","","NA"
"-126.80","65.28","NORMAN WELLS A","2202801","2023-03-10 22:00","2023","03","10","22:00","-19.7","","-23.2","","74","","","","26","","18","","48.3","","102.63","","","","-30","","NA"
"-126.80","65.28","NORMAN WELLS A","2202801","2023-03-10 23:00","2023","03","10","23:00","-21.2","","-24.0","","78","","","","24","","5","","48.3","","102.64","","","","-26","","Clear"
"-126.80","65.28","NORMAN WELLS A","2202801","2023-03-11 00:00","2023","03","11","00:00","-23.0","","-25.4","","81","","","","28","","8","","48.3","","102.65","","","","-30","","NA"
"-126.80","65.28","NORMAN WELLS A","2202801","2023-03-11 01:00","2023","03","11","01:00","-24.6","","-27.5","","77","","","","28","","8","","48.3","","102.66","","","","-32","","NA"
"-126.80","65.28","NORMAN WELLS A","2202801","2023-03-11 02:00","2023","03","11","02:00","-31.0","","-34.4","","73","","","","10","","7","","48.3","","102.66","","","","-38","","Clear"
"-126.80","65.28","NORMAN WELLS A","2202801","2023-03-11 03:00","2023","03","11","03:00","-27.2","","-29.6","","80","","","","10","","9","","48.3","","102.65","","","","-35","","NA"
"-126.80","65.28","NORMAN WELLS A","2202801","2023-03-11 04:00","2023","03","11","04:00","-31.8","","-35.4","","71","","","","9","","7","","48.3","","102.64","","","","-39","","NA"
"-126.80","65.28","NORMAN WELLS A","2202801","2023-03-11 05:00","2023","03","11","05:00","-31.0","","-34.3","","74","","","","10","","10","","48.3","","102.62","","","","-40","","Clear"
"-126.80","65.28","NORMAN WELLS A","2202801","2023-03-11 06:00","2023","03","11","06:00","-30.9","","-34.2","","74","","","","14","","4","","48.3","","102.62","","","","-35","","NA"
"-126.80","65.28","NORMAN WELLS A","2202801","2023-03-11 07:00","2023","03","11","07:00","-33.9","","-37.4","","71","","","","36","","3","","48.3","","102.59","","","","-38","","NA"
"-126.80","65.28","NORMAN WELLS A","2202801","2023-03-11 08:00","2023","03","11","08:00","-33.6","","-37.1","","72","","","","7","","4","","48.3","","102.59","","","","-38","","Clear"
"-126.80","65.28","NORMAN WELLS A","2202801","2023-03-11 09:00","2023","03","11","09:00","-29.7","","-32.8","","75","","","","36","","1","","48.3","","102.59","","","","-31","","NA"
"-126.80","65.28","NORMAN WELLS A","2202801","2023-03-11 10:00","2023","03","11","10:00","-26.9","","-29.8","","77","","","","36","","1","","48.3","","102.57","","","","-28","","NA"
"-126.80","65.28","NORMAN WELLS A","2202801","2023-03-11 11:00","2023","03","11","11:00","-24.1","","-27.0","","77","","","","12","","4","","48.3","","102.55","","","","-28","","Mainly Clear"
"-126.80","65.28","NORMAN WELLS A","2202801","2023-03-11 12:00","2023","03","11","12:00","-22.9","","-25.8","","77","","","","15","","3","","48.3","","102.53","","","","-26","","NA"
"-126.80","65.28","NORMAN WELLS A","2202801","2023-03-11 13:00","2023","03","11","13:00","-19.5","","-23.9","","69","","","","15","","4","","48.3","","102.50","","","","-23","","NA"
"-126.80","65.28","NORMAN WELLS A","2202801","2023-03-11 14:00","2023","03","11","14:00","-17.6","","-23.0","","63","","","","36","","2","","48.3","","102.46","","","","-19","","Mostly Cloudy"
"-126.80","65.28","NORMAN WELLS A","2202801","2023-03-11 15:00","2023","03","11","15:00","-15.0","","-23.1","","51","","","","19","","3","","48.3","","102.41","","","","-17","","NA"
"-126.80","65.28","NORMAN WELLS A","2202801","2023-03-11 16:00","2023","03","11","16:00","-14.7","","-23.4","","48","","","","36","","2","","48.3","","102.37","","","","-16","","NA"
"-126.80","65.28","NORMAN WELLS A","2202801","2023-03-11 17:00","2023","03","11","17:00","-12.6","","-24.5","","37","","","","36","","2","","48.3","","102.31","","","","-14","","Mostly Cloudy"
"-126.80","65.28","NORMAN WELLS A","2202801","2023-03-11 18:00","2023","03","11","18:00","-11.5","","-25.4","","31","","","","0","","1","","48.3","","102.28","","","","-12","","NA"
"-126.80","65.28","NORMAN WELLS A","2202801","2023-03-11 19:00","2023","03","11","19:00","-15.6","","-24.4","","48","","","","13","","5","","48.3","","102.26","","","","-19","","NA"
"-126.80","65.28","NORMAN WELLS A","2202801","2023-03-11 20:00","2023","03","11","20:00","-20.2","","-26.3","","59","","","","14","","5","","48.3","","102.25","","","","-25","","Mainly Clear"
"-126.80","65.28","NORMAN WELLS A","2202801","2023-03-11 21:00","2023","03","11","21:00","-22.8","","-27.1","","68","","","","6","","5","","48.3","","102.23","","","","-27","","NA"
"-126.80","65.28","NORMAN WELLS A","2202801","2023-03-11 22:00","2023","03","11","22:00","-25.2","","-29.8","","66","","","","8","","7","","48.3","","102.19","","","","-32","","NA"
"-126.80","65.28","NORMAN WELLS A","2202801","2023-03-11 23:00","2023","03","11","23:00","-26.8","","-30.6","","71","","","","36","","1","","48.3","","102.14","","","","-28","","Mainly Clear"
"-126.80","65.28","NORMAN WELLS A","2202801","2023-03-12 00:00","2023","03","12","00:00","-27.4","","-30.5","","75","","","","7","","7","","48.3","","102.09","","","","-34","","NA"
"-126.80","65.28","NORMAN WELLS A","2202801","2023-03-12 01:00","2023","03","12","01:00","-28.0","","-31.1","","75","","","","9","","6","","48.3","","102.05","","","","-34","","NA"
"-126.80","65.28","NORMAN WELLS A","2202801","2023-03-12 02:00","2023","03","12","02:00","-22.6","","-26.6","","70","","","","10","","8","","48.3","","102.00","","","","-29","","Mainly Clear"
"-126.80","65.28","NORMAN WELLS A","2202801","2023-03-12 03:00","2023","03","12","03:00","-21.9","","-25.4","","73","","","","10","","9","","48.3","","101.95","","","","-29","","NA"
"-126.80","65.28","NORMAN WELLS A","2202801","2023-03-12 04:00","2023","03","12","04:00","-23.5","","-26.1","","80","","","","9","","6","","48.3","","101.87","","","","-29","","NA"
"-126.80","65.28","NORMAN WELLS A","2202801","2023-03-12 05:00","2023","03","12","05:00","-27.9","","-30.9","","76","","","","17","","4","","48.3","","101.83","","","","-32","","Mainly Clear"
"-126.80","65.28","NORMAN WELLS A","2202801","2023-03-12 06:00","2023","03","12","06:00","-29.1","","-32.1","","75","","","","9","","4","","48.3","","101.76","","","","-34","","NA"
"-126.80","65.28","NORMAN WELLS A","2202801","2023-03-12 07:00","2023","03","12","07:00","-27.5","","-29.9","","80","","","","10","","5","","48.3","","101.70","","","","-33","","NA"
"-126.80","65.28","NORMAN WELLS A","2202801","2023-03-12 08:00","2023","03","12","08:00","-29.4","","-32.3","","77","","","","11","","4","","48.3","","101.66","","","","-34","","Mainly Clear"
"-126.80","65.28","NORMAN WELLS A","2202801","2023-03-12 09:00","2023","03","12","09:00","-29.9","","-33.1","","74","","","","12","","3","","48.3","","101.62","","","","-33","","NA"
"-126.80","65.28","NORMAN WELLS A","2202801","2023-03-12 10:00","2023","03","12","10:00","-25.7","","-28.7","","77","","","","14","","9","","48.3","","101.54","","","","-33","","NA"
"-126.80","65.28","NORMAN WELLS A","2202801","2023-03-12 11:00","2023","03","12","11:00","-21.8","","-25.5","","72","","","","13","","11","","48.3","","101.46","","","","-30","","Clear"
"-126.80","65.28","NORMAN WELLS A","2202801","2023-03-12 12:00","2023","03","12","12:00","-19.4","","-24.8","","63","","","","13","","9","","48.3","","101.38","","","","-26","","NA"
"-126.80","65.28","NORMAN WELLS A","2202801","2023-03-12 13:00","2023","03","12","13:00","-17.6","","-24.0","","58","","","","13","","13","","48.3","","101.31","","","","-25","","NA"
"-126.80","65.28","NORMAN WELLS A","2202801","2023-03-12 14:00","2023","03","12","14:00","-14.1","","-22.5","","49","","","","11","","19","","48.3","","101.24","","","","-23","","Clear"
"-126.80","65.28","NORMAN WELLS A","2202801","2023-03-12 15:00","2023","03","12","15:00","-13.1","","-22.2","","47","","","","12","","20","","48.3","","101.16","","","","-22","","NA"
"-126.80","65.28","NORMAN WELLS A","2202801","2023-03-12 16:00","2023","03","12","16:00","-11.9","","-21.3","","46","","","","13","","13","","48.3","","101.10","","","","-19","","NA"
"-126.80","65.28","NORMAN WELLS A","2202801","2023-03-12 17:00","2023","03","12","17:00","-11.2","","-21.0","","45","","","","11","","15","","48.3","","101.05","","","","-18","","Clear"
"-126.80","65.28","NORMAN WELLS A","2202801","2023-03-12 18:00","2023","03","12","18:00","-11.1","","-21.4","","43","","","","11","","12","","48.3","","101.01","","","","-17","","NA"
"-126.80","65.28","NORMAN WELLS A","2202801","2023-03-12 19:00","2023","03","12","19:00","-11.8","","-22.0","","43","","","","10","","5","","48.3","","100.97","","","","-15","","NA"
"-126.80","65.28","NORMAN WELLS A","2202801","2023-03-12 20:00","2023","03","12","20:00","-17.8","","-24.5","","56","","","","6","","4","","48.3","","100.96","","","","-21","","Mainly Clear"
"-126.80","65.28","NORMAN WELLS A","2202801","2023-03-12 21:00","2023","03","12","21:00","-22.2","","-26.9","","67","","","","5","","5","","48.3","","100.94","","","","-27","","NA"
"-126.80","65.28","NORMAN WELLS A","2202801","2023-03-12 22:00","2023","03","12","22:00","-24.4","","-28.0","","73","","","","36","","2","","48.3","","100.92","","","","-26","","NA"
"-126.80","65.28","NORMAN WELLS A","2202801","2023-03-12 23:00","2023","03","12","23:00","-26.2","","-29.5","","74","","","","36","","2","","48.3","","100.93","","","","-28","","Mainly Clear"
"-126.80","65.28","NORMAN WELLS A","2202801","2023-03-13 00:00","2023","03","13","00:00","-27.5","","-30.6","","76","","","","28","","7","","48.3","","100.97","","","","-34","","NA"
"-126.80","65.28","NORMAN WELLS A","2202801","2023-03-13 01:00","2023","03","13","01:00","-25.5","","-28.5","","76","","","","27","","10","","48.3","","101.04","","","","-34","","NA"
"-126.80","65.28","NORMAN WELLS A","2202801","2023-03-13 02:00","2023","03","13","02:00","-19.7","","-24.0","","69","","","","29","","16","","48.3","","101.09","","","","-29","","Mainly Clear"
"-126.80","65.28","NORMAN WELLS A","2202801","2023-03-13 03:00","2023","03","13","03:00","-19.6","","-23.9","","69","","","","29","","19","","48.3","","101.10","","","","-30","","NA"
"-126.80","65.28","NORMAN WELLS A","2202801","2023-03-13 04:00","2023","03","13","04:00","-21.2","","-24.6","","75","","","","29","","12","","48.3","","101.14","","","","-29","","NA"
"-126.80","65.28","NORMAN WELLS A","2202801","2023-03-13 05:00","2023","03","13","05:00","-21.3","","-23.8","","81","","","","29","","11","","48.3","","101.16","","","","-29","","Mainly Clear"
"-126.80","65.28","NORMAN WELLS A","2202801","2023-03-13 06:00","2023","03","13","06:00","-20.2","","-23.0","","78","","","","29","","17","","48.3","","101.18","","","","-30","","NA"
"-126.80","65.28","NORMAN WELLS A","2202801","2023-03-13 07:00","2023","03","13","07:00","-20.0","","-23.1","","77","","","","29","","26","","48.3","","101.19","","","","-32","","NA"
"-126.80","65.28","NORMAN WELLS A","2202801","2023-03-13 08:00","2023","03","13","08:00","-19.9","","-23.2","","76","","","","29","","26","","40.2","","101.19","","","","-32","","Mainly Clear"
"-126.80","65.28","NORMAN WELLS A","2202801","2023-03-13 09:00","2023","03","13","09:00","-19.9","","-23.3","","75","","","","28","","29","","40.2","","101.21","","","","-32","","NA"
"-126.80","65.28","NORMAN WELLS A","2202801","2023-03-13 10:00","2023","03","13","10:00","-19.3","","-22.8","","74","","","","28","","34","","40.2","","101.23","","","","-32","","Blowing Snow"
"-126.80","65.28","NORMAN WELLS A","2202801","2023-03-13 11:00","2023","03","13","11:00","-18.9","","-22.8","","72","","","","28","","33","","32.2","","101.22","","","","-32","","Blowing Snow"
"-126.80","65.28","NORMAN WELLS A","2202801","2023-03-13 12:00","2023","03","13","12:00","-18.4","","-22.5","","70","","","","27","","30","","32.2","","101.22","","","","-30","","Blowing Snow"
"-126.80","65.28","NORMAN WELLS A","2202801","2023-03-13 13:00","2023","03","13","13:00","-18.3","","-22.7","","69","","","","27","","30","","32.2","","101.19","","","","-30","","Blowing Snow"
"-126.80","65.28","NORMAN WELLS A","2202801","2023-03-13 14:00","2023","03","13","14:00","-18.0","","-22.5","","68","","","","28","","29","","32.2","","101.17","","","","-30","","Blowing Snow"
"-126.80","65.28","NORMAN WELLS A","2202801","2023-03-13 15:00","2023","03","13","15:00","-18.0","","-22.6","","68","","","","28","","30","","32.2","","101.15","","","","-30","","Blowing Snow"
"-126.80","65.28","NORMAN WELLS A","2202801","2023-03-13 16:00","2023","03","13","16:00","-17.9","","-22.4","","68","","","","28","","28","","32.2","","101.13","","","","-29","","Blowing Snow"
"-126.80","65.28","NORMAN WELLS A","2202801","2023-03-13 17:00","2023","03","13","17:00","-18.1","","-23.0","","66","","","","29","","23","","32.2","","101.10","","","","-29","","Blowing Snow"
"-126.80","65.28","NORMAN WELLS A","2202801","2023-03-13 18:00","2023","03","13","18:00","-18.4","","-22.8","","69","","","","28","","22","","32.2","","101.08","","","","-29","","Blowing Snow"
"-126.80","65.28","NORMAN WELLS A","2202801","2023-03-13 19:00","2023","03","13","19:00","-18.8","","-22.4","","73","","","","28","","19","","4.8","","101.08","","","","-29","","Snow,Blowing Snow"
"-126.80","65.28","NORMAN WELLS A","2202801","2023-03-13 20:00","2023","03","13","20:00","-19.3","","-22.7","","75","","","","29","","21","","8.1","","101.09","","","","-30","","Snow,Blowing Snow"
"-126.80","65.28","NORMAN WELLS A","2202801","2023-03-13 21:00","2023","03","13","21:00","-19.5","","-22.8","","76","","","","28","","16","","9.7","","101.09","","","","-29","","Snow,Blowing Snow"
"-126.80","65.28","NORMAN WELLS A","2202801","2023-03-13 22:00","2023","03","13","22:00","-20.3","","-23.2","","78","","","","27","","18","","16.1","","101.08","","","","-30","","Snow,Blowing Snow"
"-126.80","65.28","NORMAN WELLS A","2202801","2023-03-13 23:00","2023","03","13","23:00","-22.0","","-24.9","","78","","","","29","","10","","32.2","","101.08","","","","-30","","Mainly Clear"
"-126.80","65.28","NORMAN WELLS A","2202801","2023-03-14 00:00","2023","03","14","00:00","-23.7","","-26.2","","80","","","","29","","8","","48.3","","101.08","","","","-31","","NA"
"-126.80","65.28","NORMAN WELLS A","2202801","2023-03-14 01:00","2023","03","14","01:00","-24.7","","-27.4","","79","","","","28","","5","","48.3","","101.08","","","","-30","","NA"
"-126.80","65.28","NORMAN WELLS A","2202801","2023-03-14 02:00","2023","03","14","02:00","-24.4","","-27.1","","78","","","","32","","7","","48.3","","101.08","","","","-31","","Mainly Clear"
"-126.80","65.28","NORMAN WELLS A","2202801","2023-03-14 03:00","2023","03","14","03:00","-22.6","","-25.5","","78","","","","30","","4","","9.7","","101.10","","","","-26","","Snow"
"-126.80","65.28","NORMAN WELLS A","2202801","2023-03-14 04:00","2023","03","14","04:00","-22.1","","-25.1","","77","","","","29","","10","","9.7","","101.10","","","","-30","","Snow"
"-126.80","65.28","NORMAN WELLS A","2202801","2023-03-14 05:00","2023","03","14","05:00","-22.3","","-25.4","","76","","","","29","","10","","9.7","","101.10","","","","-30","","Snow"
"-126.80","65.28","NORMAN WELLS A","2202801","2023-03-14 06:00","2023","03","14","06:00","-22.7","","-25.8","","76","","","","30","","8","","9.7","","101.11","","","","-29","","Snow"
"-126.80","65.28","NORMAN WELLS A","2202801","2023-03-14 07:00","2023","03","14","07:00","-23.1","","-26.2","","76","","","","29","","9","","24.1","","101.14","","","","-30","","Snow"
"-126.80","65.28","NORMAN WELLS A","2202801","2023-03-14 08:00","2023","03","14","08:00","-23.4","","-26.5","","76","","","","29","","7","","32.2","","101.17","","","","-30","","Snow"
"-126.80","65.28","NORMAN WELLS A","2202801","2023-03-14 09:00","2023","03","14","09:00","-22.9","","-26.3","","74","","","","29","","7","","48.3","","101.19","","","","-29","","NA"
"-126.80","65.28","NORMAN WELLS A","2202801","2023-03-14 10:00","2023","03","14","10:00","-22.0","","-26.7","","67","","","","29","","13","","48.3","","101.21","","","","-31","","NA"
"-126.80","65.28","NORMAN WELLS A","2202801","2023-03-14 11:00","2023","03","14","11:00","-21.6","","-26.5","","65","","","","29","","16","","48.3","","101.24","","","","-31","","Mainly Clear"
"-126.80","65.28","NORMAN WELLS A","2202801","2023-03-14 12:00","2023","03","14","12:00","-21.3","","-26.4","","64","","","","28","","18","","48.3","","101.24","","","","-32","","NA"
"-126.80","65.28","NORMAN WELLS A","2202801","2023-03-14 13:00","2023","03","14","13:00","-20.2","","-25.9","","61","","","","27","","19","","48.3","","101.24","","","","-30","","NA"
"-126.80","65.28","NORMAN WELLS A","2202801","2023-03-14 14:00","2023","03","14","14:00","-20.0","","-26.2","","59","","","","27","","25","","48.3","","101.25","","","","-32","","Mainly Clear"
"-126.80","65.28","NORMAN WELLS A","2202801","2023-03-14 15:00","2023","03","14","15:00","-20.2","","-26.2","","60","","","","28","","27","","48.3","","101.26","","","","-32","","NA"
"-126.80","65.28","NORMAN WELLS A","2202801","2023-03-14 16:00","2023","03","14","16:00","-20.1","","-26.0","","60","","","","29","","18","","48.3","","101.26","","","","-30","","NA"
"-126.80","65.28","NORMAN WELLS A","2202801","2023-03-14 17:00","2023","03","14","17:00","-20.6","","-26.2","","61","","","","28","","26","","48.3","","101.29","","","","-33","","Mainly Clear"
"-126.80","65.28","NORMAN WELLS A","2202801","2023-03-14 18:00","2023","03","14","18:00","-21.1","","-26.7","","62","","","","28","","19","","48.3","","101.31","","","","-32","","NA"
"-126.80","65.28","NORMAN WELLS A","2202801","2023-03-14 19:00","2023","03","14","19:00","-22.3","","-27.1","","66","","","","28","","17","","48.3","","101.35","","","","-33","","NA"
"-126.80","65.28","NORMAN WELLS A","2202801","2023-03-14 20:00","2023","03","14","20:00","-23.7","","-27.6","","70","","","","30","","11","","48.3","","101.38","","","","-32","","Mostly Cloudy"
"-126.80","65.28","NORMAN WELLS A","2202801","2023-03-14 21:00","2023","03","14","21:00","-24.1","","-27.7","","72","","","","29","","13","","48.3","","101.41","","","","-33","","NA"
"-126.80","65.28","NORMAN WELLS A","2202801","2023-03-14 22:00","2023","03","14","22:00","-24.4","","-27.8","","74","","","","31","","8","","48.3","","101.44","","","","-31","","NA"
"-126.80","65.28","NORMAN WELLS A","2202801","2023-03-14 23:00","2023","03","14","23:00","-24.5","","-27.7","","75","","","","30","","4","","32.2","","101.47","","","","-28","","Snow"
"-126.80","65.28","NORMAN WELLS A","2202801","2023-03-15 00:00","2023","03","15","00:00","-25.8","","-28.6","","78","","","","36","","3","","48.3","","101.49","","","","-29","","Snow"
"-126.80","65.28","NORMAN WELLS A","2202801","2023-03-15 01:00","2023","03","15","01:00","-26.8","","-29.5","","78","","","","28","","5","","48.3","","101.52","","","","-32","","NA"
"-126.80","65.28","NORMAN WELLS A","2202801","2023-03-15 02:00","2023","03","15","02:00","-30.8","","-34.0","","74","","","","36","","2","","48.3","","101.54","","","","-33","","Mainly Clear"
"-126.80","65.28","NORMAN WELLS A","2202801","2023-03-15 03:00","2023","03","15","03:00","-31.4","","-34.8","","73","","","","34","","4","","32.2","","101.54","","","","-36","","Snow"
"-126.80","65.28","NORMAN WELLS A","2202801","2023-03-15 04:00","2023","03","15","04:00","-29.9","","-33.1","","74","","","","36","","1","","24.1","","101.55","","","","-31","","Snow"
"-126.80","65.28","NORMAN WELLS A","2202801","2023-03-15 05:00","2023","03","15","05:00","-31.0","","-34.3","","73","","","","9","","5","","48.3","","101.56","","","","-37","","Snow"
"-126.80","65.28","NORMAN WELLS A","2202801","2023-03-15 06:00","2023","03","15","06:00","-30.5","","-33.7","","74","","","","7","","4","","48.3","","101.56","","","","-35","","Snow"
"-126.80","65.28","NORMAN WELLS A","2202801","2023-03-15 07:00","2023","03","15","07:00","-29.1","","-32.3","","75","","","","6","","7","","24.1","","101.54","","","","-36","","NA"
"-126.80","65.28","NORMAN WELLS A","2202801","2023-03-15 08:00","2023","03","15","08:00","-28.4","","-31.7","","74","","","","7","","3","","32.2","","101.56","","","","-32","","Snow"
"-126.80","65.28","NORMAN WELLS A","2202801","2023-03-15 09:00","2023","03","15","09:00","-28.0","","-31.2","","75","","","","13","","3","","48.3","","101.56","","","","-31","","NA"
"-126.80","65.28","NORMAN WELLS A","2202801","2023-03-15 10:00","2023","03","15","10:00","-27.5","","-30.9","","74","","","","17","","4","","32.2","","101.55","","","","-32","","NA"
"-126.80","65.28","NORMAN WELLS A","2202801","2023-03-15 11:00","2023","03","15","11:00","-26.0","","-29.6","","72","","","","20","","4","","48.3","","101.54","","","","-30","","Mainly Clear"
"-126.80","65.28","NORMAN WELLS A","2202801","2023-03-15 12:00","2023","03","15","12:00","-25.1","","-29.6","","67","","","","22","","3","","48.3","","101.53","","","","-28","","NA"
"-126.80","65.28","NORMAN WELLS A","2202801","2023-03-15 13:00","2023","03","15","13:00","-24.4","","-29.1","","66","","","","18","","5","","48.3","","101.49","","","","-29","","NA"
"-126.80","65.28","NORMAN WELLS A","2202801","2023-03-15 14:00","2023","03","15","14:00","-22.7","","-28.2","","62","","","","22","","5","","48.3","","101.46","","","","-27","","Mainly Clear"
"-126.80","65.28","NORMAN WELLS A","2202801","2023-03-15 15:00","2023","03","15","15:00","-22.0","","-27.9","","60","","","","21","","4","","48.3","","101.41","","","","-26","","NA"
"-126.80","65.28","NORMAN WELLS A","2202801","2023-03-15 16:00","2023","03","15","16:00","-21.5","","-27.9","","57","","","","22","","4","","48.3","","101.36","","","","-25","","NA"
"-126.80","65.28","NORMAN WELLS A","2202801","2023-03-15 17:00","2023","03","15","17:00","-21.5","","-27.6","","58","","","","23","","5","","48.3","","101.30","","","","-26","","Mainly Clear"
"-126.80","65.28","NORMAN WELLS A","2202801","2023-03-15 18:00","2023","03","15","18:00","-21.3","","-27.9","","56","","","","23","","4","","48.3","","101.26","","","","-25","","NA"
"-126.80","65.28","NORMAN WELLS A","2202801","2023-03-15 19:00","2023","03","15","19:00","-22.0","","-28.2","","58","","","","30","","5","","48.3","","101.25","","","","-27","","NA"
"-126.80","65.28","NORMAN WELLS A","2202801","2023-03-15 20:00","2023","03","15","20:00","-25.8","","-30.7","","64","","","","30","","7","","48.3","","101.25","","","","-32","","Mainly Clear"
"-126.80","65.28","NORMAN WELLS A","2202801","2023-03-15 21:00","2023","03","15","21:00","-29.7","","-33.5","","70","","","","36","","2","","48.3","","101.24","","","","-32","","NA"
"-126.80","65.28","NORMAN WELLS A","2202801","2023-03-15 22:00","2023","03","15","22:00","-31.1","","-34.6","","72","","","","35","","4","","48.3","","101.22","","","","-36","","NA"
"-126.80","65.28","NORMAN WELLS A","2202801","2023-03-15 23:00","2023","03","15","23:00","-31.1","","-34.6","","72","","","","35","","5","","48.3","","101.20","","","","-37","","Mostly Cloudy"
"-126.80","65.28","NORMAN WELLS A","2202801","2023-03-16 00:00","2023","03","16","00:00","-29.6","","-33.3","","71","","","","30","","6","","48.3","","101.22","","","","-36","","NA"
"-126.80","65.28","NORMAN WELLS A","2202801","2023-03-16 01:00","2023","03","16","01:00","-28.7","","-32.1","","73","","","","29","","5","","48.3","","101.19","","","","-34","","NA"
"-126.80","65.28","NORMAN WELLS A","2202801","2023-03-16 02:00","2023","03","16","02:00","-28.7","","-31.8","","76","","","","30","","5","","48.3","","101.17","","","","-34","","Mainly Clear"
"-126.80","65.28","NORMAN WELLS A","2202801","2023-03-16 03:00","2023","03","16","03:00","-30.0","","-33.4","","73","","","","36","","2","","48.3","","101.16","","","","-32","","NA"
"-126.80","65.28","NORMAN WELLS A","2202801","2023-03-16 04:00","2023","03","16","04:00","-30.1","","-33.0","","77","","","","18","","4","","48.3","","101.15","","","","-35","","NA"
"-126.80","65.28","NORMAN WELLS A","2202801","2023-03-16 05:00","2023","03","16","05:00","-32.7","","-36.0","","73","","","","8","","3","","48.3","","101.13","","","","-36","","Mainly Clear"
"-126.80","65.28","NORMAN WELLS A","2202801","2023-03-16 06:00","2023","03","16","06:00","-33.3","","-36.7","","72","","","","12","","5","","48.3","","101.13","","","","-39","","NA"
"-126.80","65.28","NORMAN WELLS A","2202801","2023-03-16 07:00","2023","03","16","07:00","-32.0","","-35.0","","75","","","","18","","7","","48.3","","101.16","","","","-40","","NA"
"-126.80","65.28","NORMAN WELLS A","2202801","2023-03-16 08:00","2023","03","16","08:00","-33.7","","-36.8","","74","","","","34","","5","","48.3","","101.14","","","","-40","","Mainly Clear"
"-126.80","65.28","NORMAN WELLS A","2202801","2023-03-16 09:00","2023","03","16","09:00","-30.8","","-34.2","","73","","","","18","","5","","48.3","","101.13","","","","-37","","NA"
"-126.80","65.28","NORMAN WELLS A","2202801","2023-03-16 10:00","2023","03","16","10:00","-29.7","","-33.5","","70","","","","21","","7","","48.3","","101.09","","","","-37","","NA"
"-126.80","65.28","NORMAN WELLS A","2202801","2023-03-16 11:00","2023","03","16","11:00","-28.0","","-31.9","","70","","","","22","","8","","48.3","","101.08","","","","-36","","Mainly Clear"
"-126.80","65.28","NORMAN WELLS A","2202801","2023-03-16 12:00","2023","03","16","12:00","-26.2","","-30.9","","65","","","","23","","5","","48.3","","101.11","","","","-31","","NA"
"-126.80","65.28","NORMAN WELLS A","2202801","2023-03-16 13:00","2023","03","16","13:00","-25.6","","-30.6","","64","","","","22","","7","","48.3","","101.09","","","","-32","","NA"
"-126.80","65.28","NORMAN WELLS A","2202801","2023-03-16 14:00","2023","03","16","14:00","-24.7","","-29.7","","64","","","","24","","3","","48.3","","101.08","","","","-28","","Mostly Cloudy"
"-126.80","65.28","NORMAN WELLS A","2202801","2023-03-16 15:00","2023","03","16","15:00","-23.6","","-28.7","","64","","","","20","","4","","48.3","","101.04","","","","-27","","NA"
"-126.80","65.28","NORMAN WELLS A","2202801","2023-03-16 16:00","2023","03","16","16:00","-22.1","","-27.5","","62","","","","26","","6","","48.3","","101.04","","","","-27","","NA"
"-126.80","65.28","NORMAN WELLS A","2202801","2023-03-16 17:00","2023","03","16","17:00","-21.9","","-27.1","","64","","","","23","","5","","48.3","","101.02","","","","-26","","Cloudy"
"-126.80","65.28","NORMAN WELLS A","2202801","2023-03-16 18:00","2023","03","16","18:00","-22.2","","-27.1","","65","","","","23","","5","","48.3","","101.03","","","","-27","","NA"
"-126.80","65.28","NORMAN WELLS A","2202801","2023-03-16 19:00","2023","03","16","19:00","-22.0","","-26.8","","66","","","","36","","3","","48.3","","101.03","","","","-25","","NA"
"-126.80","65.28","NORMAN WELLS A","2202801","2023-03-16 20:00","2023","03","16","20:00","-22.4","","-26.8","","68","","","","26","","3","","48.3","","101.08","","","","-25","","Mostly Cloudy"
"-126.80","65.28","NORMAN WELLS A","2202801","2023-03-16 21:00","2023","03","16","21:00","-23.2","","-26.7","","73","","","","28","","5","","48.3","","101.07","","","","-28","","NA"
"-126.80","65.28","NORMAN WELLS A","2202801","2023-03-16 22:00","2023","03","16","22:00","-23.0","","-26.9","","71","","","","27","","5","","48.3","","101.05","","","","-28","","NA"
"-126.80","65.28","NORMAN WELLS A","2202801","2023-03-16 23:00","2023","03","16","23:00","-22.8","","-27.1","","69","","","","28","","8","","48.3","","101.06","","","","-30","","Mostly Cloudy"
"-126.80","65.28","NORMAN WELLS A","2202801","2023-03-17 00:00","2023","03","17","00:00","-22.8","","-27.4","","67","","","","29","","9","","48.3","","101.10","","","","-30","","NA"
"-126.80","65.28","NORMAN WELLS A","2202801","2023-03-17 01:00","2023","03","17","01:00","-22.8","","-27.6","","66","","","","29","","8","","48.3","","101.11","","","","-30","","NA"
"-126.80","65.28","NORMAN WELLS A","2202801","2023-03-17 02:00","2023","03","17","02:00","-22.9","","-27.5","","67","","","","29","","13","","48.3","","101.14","","","","-32","","Mostly Cloudy"
"-126.80","65.28","NORMAN WELLS A","2202801","2023-03-17 03:00","2023","03","17","03:00","-22.8","","-27.7","","65","","","","29","","8","","48.3","","101.18","","","","-30","","NA"
"-126.80","65.28","NORMAN WELLS A","2202801","2023-03-17 04:00","2023","03","17","04:00","-22.9","","-27.5","","67","","","","29","","6","","48.3","","101.20","","","","-28","","NA"
"-126.80","65.28","NORMAN WELLS A","2202801","2023-03-17 05:00","2023","03","17","05:00","-23.0","","-27.3","","68","","","","28","","7","","48.3","","101.21","","","","-29","","Mostly Cloudy"
"-126.80","65.28","NORMAN WELLS A","2202801","2023-03-17 06:00","2023","03","17","06:00","-22.8","","-27.4","","67","","","","31","","4","","48.3","","101.25","","","","-27","","NA"
"-126.80","65.28","NORMAN WELLS A","2202801","2023-03-17 07:00","2023","03","17","07:00","-22.6","","-27.3","","66","","","","36","","2","","48.3","","101.20","","","","-24","","NA"
"-126.80","65.28","NORMAN WELLS A","2202801","2023-03-17 08:00","2023","03","17","08:00","-22.5","","-27.3","","66","","","","29","","4","","48.3","","101.25","","","","-26","","Mostly Cloudy"
"-126.80","65.28","NORMAN WELLS A","2202801","2023-03-17 09:00","2023","03","17","09:00","-22.1","","-27.1","","64","","","","28","","4","","48.3","","101.22","","","","-26","","NA"
"-126.80","65.28","NORMAN WELLS A","2202801","2023-03-17 10:00","2023","03","17","10:00","-21.5","","-26.6","","64","","","","13","","4","","48.3","","101.22","","","","-25","","NA"
"-126.80","65.28","NORMAN WELLS A","2202801","2023-03-17 11:00","2023","03","17","11:00","-20.7","","-26.1","","63","","","","21","","4","","48.3","","101.20","","","","-24","","Mostly Cloudy"
"-126.80","65.28","NORMAN WELLS A","2202801","2023-03-17 12:00","2023","03","17","12:00","-19.2","","-25.3","","59","","","","20","","3","","48.3","","101.14","","","","-22","","NA"
"-126.80","65.28","NORMAN WELLS A","2202801","2023-03-17 13:00","2023","03","17","13:00","-18.5","","-25.1","","57","","","","23","","3","","48.3","","101.12","","","","-21","","NA"
"-126.80","65.28","NORMAN WELLS A","2202801","2023-03-17 14:00","2023","03","17","14:00","-16.8","","-24.1","","54","","","","36","","2","","48.3","","101.09","","","","-18","","Mostly Cloudy"
"-126.80","65.28","NORMAN WELLS A","2202801","2023-03-17 15:00","2023","03","17","15:00","-15.6","","-22.6","","56","","","","36","","1","","48.3","","101.09","","","","-16","","NA"
"-126.80","65.28","NORMAN WELLS A","2202801","2023-03-17 16:00","2023","03","17","16:00","-15.1","","-21.9","","56","","","","21","","4","","48.3","","101.08","","","","-18","","NA"
"-126.80","65.28","NORMAN WELLS A","2202801","2023-03-17 17:00","2023","03","17","17:00","-14.1","","-21.4","","54","","","","22","","4","","48.3","","101.13","","","","-17","","Mainly Clear"
"-126.80","65.28","NORMAN WELLS A","2202801","2023-03-17 18:00","2023","03","17","18:00","-16.4","","-22.4","","61","","","","25","","5","","48.3","","101.12","","","","-20","","NA"
"-126.80","65.28","NORMAN WELLS A","2202801","2023-03-17 19:00","2023","03","17","19:00","-15.3","","-22.1","","56","","","","35","","3","","48.3","","101.11","","","","-17","","NA"
"-126.80","65.28","NORMAN WELLS A","2202801","2023-03-17 20:00","2023","03","17","20:00","-16.9","","-22.1","","65","","","","36","","1","","48.3","","101.12","","","","-18","","Mostly Cloudy"
"-126.80","65.28","NORMAN WELLS A","2202801","2023-03-17 21:00","2023","03","17","21:00","-18.1","","-22.3","","70","","","","36","","1","","48.3","","101.09","","","","-19","","NA"
"-126.80","65.28","NORMAN WELLS A","2202801","2023-03-17 22:00","2023","03","17","22:00","-20.0","","-24.8","","66","","","","36","","2","","48.3","","101.09","","","","-22","","NA"
"-126.80","65.28","NORMAN WELLS A","2202801","2023-03-17 23:00","2023","03","17","23:00","-19.9","","-24.4","","68","","","","36","","2","","48.3","","101.08","","","","-22","","Mostly Cloudy"
"-126.80","65.28","NORMAN WELLS A","2202801","2023-03-18 00:00","2023","03","18","00:00","-20.9","","-25.1","","69","","","","4","","4","","48.3","","101.05","","","","-24","","NA"
"-126.80","65.28","NORMAN WELLS A","2202801","2023-03-18 01:00","2023","03","18","01:00","-21.1","","-24.8","","73","","","","34","","3","","48.3","","101.07","","","","-24","","NA"
"-126.80","65.28","NORMAN WELLS A","2202801","2023-03-18 02:00","2023","03","18","02:00","-20.9","","-24.4","","74","","","","36","","1","","48.3","","101.08","","","","-22","","Cloudy"
"-126.80","65.28","NORMAN WELLS A","2202801","2023-03-18 03:00","2023","03","18","03:00","-21.4","","-24.6","","76","","","","36","","3","","48.3","","101.12","","","","-24","","NA"
"-126.80","65.28","NORMAN WELLS A","2202801","2023-03-18 04:00","2023","03","18","04:00","-22.8","","-25.4","","79","","","","36","","3","","48.3","","101.17","","","","-26","","NA"
"-126.80","65.28","NORMAN WELLS A","2202801","2023-03-18 05:00","2023","03","18","05:00","-23.8","","-26.4","","80","","","","4","","5","","48.3","","101.24","","","","-29","","Mainly Clear"
"-126.80","65.28","NORMAN WELLS A","2202801","2023-03-18 06:00","2023","03","18","06:00","-25.7","","-28.5","","77","","","","35","","5","","48.3","","101.28","","","","-31","","NA"
"-126.80","65.28","NORMAN WELLS A","2202801","2023-03-18 07:00","2023","03","18","07:00","-25.1","","-27.9","","78","","","","17","","5","","48.3","","101.25","","","","-30","","NA"
"-126.80","65.28","NORMAN WELLS A","2202801","2023-03-18 08:00","2023","03","18","08:00","-26.1","","-29.1","","76","","","","11","","5","","48.3","","101.28","","","","-31","","Mainly Clear"
"-126.80","65.28","NORMAN WELLS A","2202801","2023-03-18 09:00","2023","03","18","09:00","-22.4","","-25.9","","74","","","","13","","3","","48.3","","101.28","","","","-25","","NA"
"-126.80","65.28","NORMAN WELLS A","2202801","2023-03-18 10:00","2023","03","18","10:00","-20.8","","-24.4","","73","","","","36","","3","","48.3","","101.25","","","","-23","","NA"
"-126.80","65.28","NORMAN WELLS A","2202801","2023-03-18 11:00","2023","03","18","11:00","-18.6","","-23.7","","65","","","","36","","2","","48.3","","101.27","","","","-20","","Mainly Clear"
"-126.80","65.28","NORMAN WELLS A","2202801","2023-03-18 12:00","2023","03","18","12:00","-15.9","","-21.8","","61","","","","36","","3","","48.3","","101.28","","","","-18","","NA"
"-126.80","65.28","NORMAN WELLS A","2202801","2023-03-18 13:00","2023","03","18","13:00","-13.9","","-19.7","","62","","","","21","","4","","48.3","","101.31","","","","-17","","NA"
"-126.80","65.28","NORMAN WELLS A","2202801","2023-03-18 14:00","2023","03","18","14:00","-13.1","","-18.5","","64","","","","36","","3","","48.3","","101.32","","","","-15","","Mainly Clear"
"-126.80","65.28","NORMAN WELLS A","2202801","2023-03-18 15:00","2023","03","18","15:00","-11.3","","-17.8","","59","","","","36","","2","","48.3","","101.32","","","","-13","","NA"
"-126.80","65.28","NORMAN WELLS A","2202801","2023-03-18 16:00","2023","03","18","16:00","-10.1","","-17.0","","57","","","","14","","7","","48.3","","101.33","","","","-14","","NA"
"-126.80","65.28","NORMAN WELLS A","2202801","2023-03-18 17:00","2023","03","18","17:00","-10.3","","-17.1","","58","","","","14","","7","","48.3","","101.31","","","","-14","","Mainly Clear"
"-126.80","65.28","NORMAN WELLS A","2202801","2023-03-18 18:00","2023","03","18","18:00","-9.4","","-16.9","","55","","","","12","","7","","48.3","","101.27","","","","-13","","NA"
"-126.80","65.28","NORMAN WELLS A","2202801","2023-03-18 19:00","2023","03","18","19:00","-9.4","","-16.5","","57","","","","10","","5","","48.3","","101.28","","","","-12","","NA"
"-126.80","65.28","NORMAN WELLS A","2202801","2023-03-18 20:00","2023","03","18","20:00","-10.2","","-16.8","","59","","","","9","","7","","48.3","","101.28","","","","-14","","Mainly Clear"
"-126.80","65.28","NORMAN WELLS A","2202801","2023-03-18 21:00","2023","03","18","21:00","-12.4","","-17.8","","64","","","","7","","10","","48.3","","101.27","","","","-18","","NA"
"-126.80","65.28","NORMAN WELLS A","2202801","2023-03-18 22:00","2023","03","18","22:00","-11.5","","-16.9","","64","","","","9","","8","","48.3","","101.22","","","","-16","","NA"
"-126.80","65.28","NORMAN WELLS A","2202801","2023-03-18 23:00","2023","03","18","23:00","-11.4","","-16.2","","68","","","","10","","12","","48.3","","101.16","","","","-18","","Mainly Clear"
"-126.80","65.28","NORMAN WELLS A","2202801","2023-03-19 00:00","2023","03","19","00:00","-12.5","","-16.2","","74","","","","9","","10","","48.3","","101.13","","","","-18","","NA"
"-126.80","65.28","NORMAN WELLS A","2202801","2023-03-19 01:00","2023","03","19","01:00","-13.1","","-16.3","","77","","","","10","","14","","48.3","","101.08","","","","-20","","NA"
"-126.80","65.28","NORMAN WELLS A","2202801","2023-03-19 02:00","2023","03","19","02:00","-13.7","","-16.5","","80","","","","10","","9","","48.3","","101.03","","","","-19","","Mainly Clear"
"-126.80","65.28","NORMAN WELLS A","2202801","2023-03-19 03:00","2023","03","19","03:00","-13.6","","-16.2","","81","","","","10","","12","","48.3","","100.94","","","","-20","","NA"
"-126.80","65.28","NORMAN WELLS A","2202801","2023-03-19 04:00","2023","03","19","04:00","-14.0","","-16.5","","82","","","","9","","10","","48.3","","100.87","","","","-20","","NA"
"-126.80","65.28","NORMAN WELLS A","2202801","2023-03-19 05:00","2023","03","19","05:00","-13.2","","-16.0","","80","","","","9","","12","","48.3","","100.79","","","","-20","","Mainly Clear"
"-126.80","65.28","NORMAN WELLS A","2202801","2023-03-19 06:00","2023","03","19","06:00","-12.5","","-15.7","","77","","","","10","","17","","48.3","","100.70","","","","-20","","NA"
"-126.80","65.28","NORMAN WELLS A","2202801","2023-03-19 07:00","2023","03","19","07:00","-12.7","","-15.7","","78","","","","8","","12","","48.3","","100.64","","","","-19","","NA"
"-126.80","65.28","NORMAN WELLS A","2202801","2023-03-19 08:00","2023","03","19","08:00","-12.1","","-15.4","","77","","","","10","","14","","48.3","","100.60","","","","-19","","Mainly Clear"
"-126.80","65.28","NORMAN WELLS A","2202801","2023-03-19 09:00","2023","03","19","09:00","-10.7","","-14.8","","72","","","","11","","20","","48.3","","100.53","","","","-19","","NA"
"-126.80","65.28","NORMAN WELLS A","2202801","2023-03-19 10:00","2023","03","19","10:00","-8.7","","-14.2","","65","","","","9","","11","","48.3","","100.55","","","","-14","","NA"
"-126.80","65.28","NORMAN WELLS A","2202801","2023-03-19 11:00","2023","03","19","11:00","-7.3","","-13.3","","63","","","","11","","15","","48.3","","100.56","","","","-13","","Mostly Cloudy"
"-126.80","65.28","NORMAN WELLS A","2202801","2023-03-19 12:00","2023","03","19","12:00","-5.7","","-11.9","","62","","","","13","","19","","48.3","","100.51","","","","-12","","NA"
"-126.80","65.28","NORMAN WELLS A","2202801","2023-03-19 13:00","2023","03","19","13:00","-4.2","","-10.7","","61","","","","11","","22","","48.3","","100.53","","","","-11","","NA"
"-126.80","65.28","NORMAN WELLS A","2202801","2023-03-19 14:00","2023","03","19","14:00","-3.3","","-10.1","","60","","","","13","","21","","48.3","","100.54","","","","-10","","Mostly Cloudy"
"-126.80","65.28","NORMAN WELLS A","2202801","2023-03-19 15:00","2023","03","19","15:00","-2.2","","-9.4","","58","","","","12","","21","","48.3","","100.53","","","","-8","","NA"
"-126.80","65.28","NORMAN WELLS A","2202801","2023-03-19 16:00","2023","03","19","16:00","-2.2","","-9.1","","60","","","","13","","16","","48.3","","100.52","","","","-7","","NA"
"-126.80","65.28","NORMAN WELLS A","2202801","2023-03-19 17:00","2023","03","19","17:00","-1.8","","-8.9","","58","","","","12","","18","","48.3","","100.51","","","","-7","","Mostly Cloudy"
"-126.80","65.28","NORMAN WELLS A","2202801","2023-03-19 18:00","2023","03","19","18:00","-2.6","","-9.1","","61","","","","12","","12","","48.3","","100.51","","","","-7","","NA"
"-126.80","65.28","NORMAN WELLS A","2202801","2023-03-19 19:00","2023","03","19","19:00","-3.3","","-10.4","","58","","","","11","","10","","48.3","","100.52","","","","-7","","NA"
"-126.80","65.28","NORMAN WELLS A","2202801","2023-03-19 20:00","2023","03","19","20:00","-3.6","","-10.2","","60","","","","11","","9","","48.3","","100.54","","","","-7","","Mostly Cloudy"
"-126.80","65.28","NORMAN WELLS A","2202801","2023-03-19 21:00","2023","03","19","21:00","-7.7","","-11.7","","73","","","","17","","3","","48.3","","100.58","","","","-9","","NA"
"-126.80","65.28","NORMAN WELLS A","2202801","2023-03-19 22:00","2023","03","19","22:00","-11.1","","-13.8","","81","","","","36","","3","","48.3","","100.61","","","","-13","","NA"
"-126.80","65.28","NORMAN WELLS A","2202801","2023-03-19 23:00","2023","03","19","23:00","-14.8","","-16.5","","87","","","","1","","4","","48.3","","100.64","","","","-18","","Mostly Cloudy"
"-126.80","65.28","NORMAN WELLS A","2202801","2023-03-20 00:00","2023","03","20","00:00","-16.5","","-18.2","","87","","","","36","","4","","48.3","","100.68","","","","-20","","NA"
"-126.80","65.28","NORMAN WELLS A","2202801","2023-03-20 01:00","2023","03","20","01:00","-17.2","","-19.3","","84","","","","8","","7","","48.3","","100.70","","","","-22","","NA"
"-126.80","65.28","NORMAN WELLS A","2202801","2023-03-20 02:00","2023","03","20","02:00","-16.5","","-18.3","","86","","","","10","","4","","48.3","","100.72","","","","-20","","Mainly Clear"
"-126.80","65.28","NORMAN WELLS A","2202801","2023-03-20 03:00","2023","03","20","03:00","-12.2","","-13.2","","92","","","","9","","9","","48.3","","100.77","","","","-17","","NA"
"-126.80","65.28","NORMAN WELLS A","2202801","2023-03-20 04:00","2023","03","20","04:00","-15.9","","-17.7","","86","","","","7","","7","","48.3","","100.80","","","","-21","","NA"
"-126.80","65.28","NORMAN WELLS A","2202801","2023-03-20 05:00","2023","03","20","05:00","-12.4","","-13.8","","89","","","","8","","8","","48.3","","100.83","","","","-17","","Mostly Cloudy"
"-126.80","65.28","NORMAN WELLS A","2202801","2023-03-20 06:00","2023","03","20","06:00","-12.6","","-13.9","","90","","","","7","","7","","48.3","","100.86","","","","-17","","NA"
"-126.80","65.28","NORMAN WELLS A","2202801","2023-03-20 07:00","2023","03","20","07:00","-12.7","","-14.5","","86","","","","8","","8","","48.3","","100.85","","","","-18","","NA"
"-126.80","65.28","NORMAN WELLS A","2202801","2023-03-20 08:00","2023","03","20","08:00","-12.5","","-14.5","","85","","","","11","","9","","48.3","","100.87","","","","-18","","Mostly Cloudy"
"-126.80","65.28","NORMAN WELLS A","2202801","2023-03-20 09:00","2023","03","20","09:00","-12.2","","-14.5","","83","","","","11","","9","","48.3","","100.86","","","","-17","","NA"
"-126.80","65.28","NORMAN WELLS A","2202801","2023-03-20 10:00","2023","03","20","10:00","-11.6","","-14.4","","80","","","","11","","10","","48.3","","100.83","","","","-17","","NA"
"-126.80","65.28","NORMAN WELLS A","2202801","2023-03-20 11:00","2023","03","20","11:00","-9.8","","-13.6","","74","","","","12","","16","","48.3","","100.80","","","","-17","","Mainly Clear"
"-126.80","65.28","NORMAN WELLS A","2202801","2023-03-20 12:00","2023","03","20","12:00","-8.0","","-13.1","","67","","","","12","","21","","48.3","","100.76","","","","-16","","NA"
"-126.80","65.28","NORMAN WELLS A","2202801","2023-03-20 13:00","2023","03","20","13:00","-6.7","","-12.4","","64","","","","13","","19","","48.3","","100.70","","","","-14","","NA"
"-126.80","65.28","NORMAN WELLS A","2202801","2023-03-20 14:00","2023","03","20","14:00","-5.6","","-11.6","","63","","","","12","","23","","48.3","","100.67","","","","-13","","Mainly Clear"
"-126.80","65.28","NORMAN WELLS A","2202801","2023-03-20 15:00","2023","03","20","15:00","-5.1","","-11.2","","62","","","","12","","26","","48.3","","100.62","","","","-13","","NA"
"-126.80","65.28","NORMAN WELLS A","2202801","2023-03-20 16:00","2023","03","20","16:00","-4.5","","-10.8","","61","","","","12","","23","","48.3","","100.52","","","","-11","","NA"
"-126.80","65.28","NORMAN WELLS A","2202801","2023-03-20 17:00","2023","03","20","17:00","-4.2","","-10.6","","61","","","","12","","18","","48.3","","100.50","","","","-10","","Mainly Clear"
"-126.80","65.28","NORMAN WELLS A","2202801","2023-03-20 18:00","2023","03","20","18:00","-4.3","","-10.9","","60","","","","12","","22","","48.3","","100.41","","","","-11","","NA"
"-126.80","65.28","NORMAN WELLS A","2202801","2023-03-20 19:00","2023","03","20","19:00","-6.2","","-11.6","","66","","","","12","","15","","48.3","","100.36","","","","-12","","NA"
"-126.80","65.28","NORMAN WELLS A","2202801","2023-03-20 20:00","2023","03","20","20:00","-6.1","","-11.9","","64","","","","10","","8","","48.3","","100.30","","","","-10","","Clear"
"-126.80","65.28","NORMAN WELLS A","2202801","2023-03-20 21:00","2023","03","20","21:00","-7.6","","-12.8","","66","","","","11","","11","","48.3","","100.25","","","","-13","","NA"
"-126.80","65.28","NORMAN WELLS A","2202801","2023-03-20 22:00","2023","03","20","22:00","-2.6","","-10.1","","56","","","","11","","24","","48.3","","100.13","","","","-9","","NA"
"-126.80","65.28","NORMAN WELLS A","2202801","2023-03-20 23:00","2023","03","20","23:00","-3.8","","-10.2","","61","","","","12","","24","","48.3","","100.06","","","","-11","","Mainly Clear"
"-126.80","65.28","NORMAN WELLS A","2202801","2023-03-21 00:00","2023","03","21","00:00","-5.2","","-10.8","","65","","","","13","","30","","48.3","","100.00","","","","-13","","NA"
"-126.80","65.28","NORMAN WELLS A","2202801","2023-03-21 01:00","2023","03","21","01:00","-5.0","","-10.9","","63","","","","12","","31","","48.3","","99.95","","","","-13","","NA"
"-126.80","65.28","NORMAN WELLS A","2202801","2023-03-21 02:00","2023","03","21","02:00","-5.1","","-11.0","","63","","","","12","","34","","48.3","","99.93","","","","-14","","Mainly Clear"
"-126.80","65.28","NORMAN WELLS A","2202801","2023-03-21 03:00","2023","03","21","03:00","-6.3","","-11.9","","65","","","","12","","26","","48.3","","99.93","","","","-14","","NA"
"-126.80","65.28","NORMAN WELLS A","2202801","2023-03-21 04:00","2023","03","21","04:00","-6.2","","-12.1","","63","","","","11","","25","","48.3","","99.90","","","","-14","","NA"
"-126.80","65.28","NORMAN WELLS A","2202801","2023-03-21 05:00","2023","03","21","05:00","-7.3","","-12.7","","66","","","","12","","20","","48.3","","99.89","","","","-14","","Mainly Clear"
"-126.80","65.28","NORMAN WELLS A","2202801","2023-03-21 06:00","2023","03","21","06:00","-8.8","","-13.6","","69","","","","12","","19","","48.3","","99.86","","","","-16","","NA"
"-126.80","65.28","NORMAN WELLS A","2202801","2023-03-21 07:00","2023","03","21","07:00","-9.6","","-14.1","","70","","","","12","","17","","48.3","","99.82","","","","-17","","NA"
"-126.80","65.28","NORMAN WELLS A","2202801","2023-03-21 08:00","2023","03","21","08:00","-9.3","","-14.3","","67","","","","9","","7","","48.3","","99.82","","","","-13","","Mainly Clear"
"-126.80","65.28","NORMAN WELLS A","2202801","2023-03-21 09:00","2023","03","21","09:00","-9.8","","-14.9","","67","","","","12","","13","","48.3","","99.80","","","","-16","","NA"
"-126.80","65.28","NORMAN WELLS A","2202801","2023-03-21 10:00","2023","03","21","10:00","-8.4","","-14.7","","61","","","","11","","14","","48.3","","99.78","","","","-15","","NA"
"-126.80","65.28","NORMAN WELLS A","2202801","2023-03-21 11:00","2023","03","21","11:00","-8.1","","-14.3","","61","","","","12","","19","","48.3","","99.77","","","","-15","","Mainly Clear"
"-126.80","65.28","NORMAN WELLS A","2202801","2023-03-21 12:00","2023","03","21","12:00","-7.3","","-13.8","","60","","","","13","","17","","48.3","","99.73","","","","-14","","NA"
"-126.80","65.28","NORMAN WELLS A","2202801","2023-03-21 13:00","2023","03","21","13:00","-6.5","","-13.2","","59","","","","13","","17","","48.3","","99.69","","","","-13","","NA"
"-126.80","65.28","NORMAN WELLS A","2202801","2023-03-21 14:00","2023","03","21","14:00","-5.9","","-13.2","","56","","","","12","","20","","48.3","","99.68","","","","-13","","Mainly Clear"
"-126.80","65.28","NORMAN WELLS A","2202801","2023-03-21 15:00","2023","03","21","15:00","-5.1","","-13.1","","54","","","","12","","18","","48.3","","99.68","","","","-11","","NA"
"-126.80","65.28","NORMAN WELLS A","2202801","2023-03-21 16:00","2023","03","21","16:00","-4.7","","-12.7","","54","","","","12","","16","","48.3","","99.64","","","","-10","","NA"
"-126.80","65.28","NORMAN WELLS A","2202801","2023-03-21 17:00","2023","03","21","17:00","-4.2","","-12.6","","52","","","","12","","14","","48.3","","99.64","","","","-9","","Mainly Clear"
"-126.80","65.28","NORMAN WELLS A","2202801","2023-03-21 18:00","2023","03","21","18:00","-5.2","","-12.4","","58","","","","12","","11","","48.3","","99.64","","","","-10","","NA"
"-126.80","65.28","NORMAN WELLS A","2202801","2023-03-21 19:00","2023","03","21","19:00","-4.4","","-11.9","","56","","","","12","","10","","48.3","","99.61","","","","-9","","NA"
"-126.80","65.28","NORMAN WELLS A","2202801","2023-03-21 20:00","2023","03","21","20:00","-5.4","","-13.0","","55","","","","9","","5","","48.3","","99.64","","","","-8","","Mostly Cloudy"
"-126.80","65.28","NORMAN WELLS A","2202801","2023-03-21 21:00","2023","03","21","21:00","-7.2","","-13.6","","61","","","","7","","4","","48.3","","99.66","","","","-9","","NA"
"-126.80","65.28","NORMAN WELLS A","2202801","2023-03-21 22:00","2023","03","21","22:00","-7.8","","-13.9","","62","","","","36","","3","","48.3","","99.65","","","","-9","","NA"
"-126.80","65.28","NORMAN WELLS A","2202801","2023-03-21 23:00","2023","03","21","23:00","-8.3","","-13.5","","66","","","","14","","5","","48.3","","99.63","","","","-11","","Mostly Cloudy"
"-126.80","65.28","NORMAN WELLS A","2202801","2023-03-22 00:00","2023","03","22","00:00","-11.5","","-14.5","","79","","","","36","","1","","48.3","","99.63","","","","-12","","NA"
"-126.80","65.28","NORMAN WELLS A","2202801","2023-03-22 01:00","2023","03","22","01:00","-11.8","","-14.4","","81","","","","13","","4","","48.3","","99.62","","","","-14","","NA"
"-126.80","65.28","NORMAN WELLS A","2202801","2023-03-22 02:00","2023","03","22","02:00","-15.2","","-17.2","","85","","","","5","","6","","48.3","","99.62","","","","-19","","Mainly Clear"
"-126.80","65.28","NORMAN WELLS A","2202801","2023-03-22 03:00","2023","03","22","03:00","-17.4","","-19.4","","85","","","","12","","8","","48.3","","99.64","","","","-23","","NA"
"-126.80","65.28","NORMAN WELLS A","2202801","2023-03-22 04:00","2023","03","22","04:00","-17.7","","-19.8","","84","","","","10","","6","","48.3","","99.65","","","","-22","","NA"
"-126.80","65.28","NORMAN WELLS A","2202801","2023-03-22 05:00","2023","03","22","05:00","-13.8","","-15.8","","85","","","","9","","10","","48.3","","99.68","","","","-20","","Mainly Clear"
"-126.80","65.28","NORMAN WELLS A","2202801","2023-03-22 06:00","2023","03","22","06:00","-12.1","","-15.3","","77","","","","9","","10","","48.3","","99.68","","","","-18","","NA"
"-126.80","65.28","NORMAN WELLS A","2202801","2023-03-22 07:00","2023","03","22","07:00","-15.1","","-17.2","","84","","","","9","","4","","48.3","","99.71","","","","-18","","NA"
"-126.80","65.28","NORMAN WELLS A","2202801","2023-03-22 08:00","2023","03","22","08:00","-13.8","","-16.2","","82","","","","7","","10","","48.3","","99.76","","","","-20","","Mostly Cloudy"
"-126.80","65.28","NORMAN WELLS A","2202801","2023-03-22 09:00","2023","03","22","09:00","-12.6","","-15.8","","77","","","","9","","5","","48.3","","99.78","","","","-16","","NA"
"-126.80","65.28","NORMAN WELLS A","2202801","2023-03-22 10:00","2023","03","22","10:00","-10.4","","-14.6","","72","","","","10","","5","","48.3","","99.84","","","","-13","","NA"
"-126.80","65.28","NORMAN WELLS A","2202801","2023-03-22 11:00","2023","03","22","11:00","-9.4","","-14.2","","68","","","","13","","8","","48.3","","99.88","","","","-14","","Mostly Cloudy"
"-126.80","65.28","NORMAN WELLS A","2202801","2023-03-22 12:00","2023","03","22","12:00","-8.2","","-13.6","","66","","","","13","","10","","48.3","","99.89","","","","-13","","NA"
"-126.80","65.28","NORMAN WELLS A","2202801","2023-03-22 13:00","2023","03","22","13:00","-7.2","","-13.3","","62","","","","11","","16","","48.3","","99.93","","","","-14","","NA"
"-126.80","65.28","NORMAN WELLS A","2202801","2023-03-22 14:00","2023","03","22","14:00","-6.2","","-12.5","","61","","","","13","","14","","48.3","","99.95","","","","-12","","Mostly Cloudy"
"-126.80","65.28","NORMAN WELLS A","2202801","2023-03-22 15:00","2023","03","22","15:00","-4.7","","-12.3","","56","","","","11","","16","","48.3","","99.99","","","","-10","","NA"
"-126.80","65.28","NORMAN WELLS A","2202801","2023-03-22 16:00","2023","03","22","16:00","-4.7","","-11.7","","58","","","","12","","18","","48.3","","100.04","","","","-11","","NA"
"-126.80","65.28","NORMAN WELLS A","2202801","2023-03-22 17:00","2023","03","22","17:00","-4.6","","-11.8","","57","","","","11","","14","","48.3","","100.08","","","","-10","","Mostly Cloudy"
"-126.80","65.28","NORMAN WELLS A","2202801","2023-03-22 18:00","2023","03","22","18:00","-4.5","","-12.0","","56","","","","11","","13","","48.3","","100.10","","","","-10","","NA"
"-126.80","65.28","NORMAN WELLS A","2202801","2023-03-22 19:00","2023","03","22","19:00","-5.3","","-10.7","","66","","","","12","","13","","48.3","","100.16","","","","-10","","NA"
"-126.80","65.28","NORMAN WELLS A","2202801","2023-03-22 20:00","2023","03","22","20:00","-5.5","","-10.6","","68","","","","11","","12","","48.3","","100.21","","","","-10","","Mostly Cloudy"
"-126.80","65.28","NORMAN WELLS A","2202801","2023-03-22 21:00","2023","03","22","21:00","-6.1","","-10.7","","70","","","","10","","10","","48.3","","100.23","","","","-11","","NA"
"-126.80","65.28","NORMAN WELLS A","2202801","2023-03-22 22:00","2023","03","22","22:00","-6.8","","-10.9","","73","","","","11","","17","","48.3","","100.26","","","","-13","","NA"
"-126.80","65.28","NORMAN WELLS A","2202801","2023-03-22 23:00","2023","03","22","23:00","-8.3","","-11.7","","77","","","","10","","10","","48.3","","100.28","","","","-13","","Mainly Clear"
"-126.80","65.28","NORMAN WELLS A","2202801","2023-03-23 00:00","2023","03","23","00:00","-7.9","","-11.1","","78","","","","10","","10","","48.3","","100.29","","","","-13","","NA"
"-126.80","65.28","NORMAN WELLS A","2202801","2023-03-23 01:00","2023","03","23","01:00","-7.9","","-11.2","","78","","","","10","","18","","48.3","","100.30","","","","-15","","NA"
"-126.80","65.28","NORMAN WELLS A","2202801","2023-03-23 02:00","2023","03","23","02:00","-9.2","","-12.2","","79","","","","11","","23","","48.3","","100.30","","","","-17","","Clear"
"-126.80","65.28","NORMAN WELLS A","2202801","2023-03-23 03:00","2023","03","23","03:00","-11.1","","-13.5","","83","","","","10","","8","","48.3","","100.33","","","","-16","","NA"
"-126.80","65.28","NORMAN WELLS A","2202801","2023-03-23 04:00","2023","03","23","04:00","-11.6","","-13.8","","84","","","","10","","10","","48.3","","100.34","","","","-17","","NA"
"-126.80","65.28","NORMAN WELLS A","2202801","2023-03-23 05:00","2023","03","23","05:00","-11.6","","-14.0","","83","","","","11","","15","","48.3","","100.33","","","","-19","","Clear"
"-126.80","65.28","NORMAN WELLS A","2202801","2023-03-23 06:00","2023","03","23","06:00","-12.2","","-14.6","","83","","","","10","","11","","48.3","","100.34","","","","-18","","NA"
"-126.80","65.28","NORMAN WELLS A","2202801","2023-03-23 07:00","2023","03","23","07:00","-12.4","","-14.7","","83","","","","10","","10","","48.3","","100.33","","","","-18","","NA"
"-126.80","65.28","NORMAN WELLS A","2202801","2023-03-23 08:00","2023","03","23","08:00","-12.3","","-14.9","","81","","","","10","","14","","48.3","","100.31","","","","-19","","Clear"
"-126.80","65.28","NORMAN WELLS A","2202801","2023-03-23 09:00","2023","03","23","09:00","-11.3","","-14.5","","77","","","","11","","23","","48.3","","100.31","","","","-20","","NA"
"-126.80","65.28","NORMAN WELLS A","2202801","2023-03-23 10:00","2023","03","23","10:00","-8.9","","-12.8","","73","","","","11","","27","","48.3","","100.30","","","","-18","","NA"
"-126.80","65.28","NORMAN WELLS A","2202801","2023-03-23 11:00","2023","03","23","11:00","-7.4","","-11.4","","73","","","","12","","35","","48.3","","100.27","","","","-17","","Clear"
"-126.80","65.28","NORMAN WELLS A","2202801","2023-03-23 12:00","2023","03","23","12:00","-6.2","","-10.5","","72","","","","12","","35","","48.3","","100.26","","","","-15","","NA"
"-126.80","65.28","NORMAN WELLS A","2202801","2023-03-23 13:00","2023","03","23","13:00","-5.2","","-10.3","","68","","","","11","","37","","48.3","","100.24","","","","-14","","NA"
"-126.80","65.28","NORMAN WELLS A","2202801","2023-03-23 14:00","2023","03","23","14:00","-4.2","","-9.6","","67","","","","12","","41","","48.3","","100.19","","","","-13","","Clear"
"-126.80","65.28","NORMAN WELLS A","2202801","2023-03-23 15:00","2023","03","23","15:00","-3.3","","-8.9","","65","","","","12","","41","","48.3","","100.17","","","","-12","","NA"
"-126.80","65.28","NORMAN WELLS A","2202801","2023-03-23 16:00","2023","03","23","16:00","-2.8","","-8.5","","65","","","","12","","42","","48.3","","100.13","","","","-11","","NA"
"-126.80","65.28","NORMAN WELLS A","2202801","2023-03-23 17:00","2023","03","23","17:00","-2.2","","-8.6","","62","","","","11","","38","","48.3","","100.12","","","","-10","","Clear"
"-126.80","65.28","NORMAN WELLS A","2202801","2023-03-23 18:00","2023","03","23","18:00","-1.6","","-9.5","","55","","","","11","","41","","48.3","","100.10","","","","-10","","NA"
"-126.80","65.28","NORMAN WELLS A","2202801","2023-03-23 19:00","2023","03","23","19:00","-1.9","","-10.0","","54","","","","11","","32","","48.3","","100.05","","","","-9","","NA"
"-126.80","65.28","NORMAN WELLS A","2202801","2023-03-23 20:00","2023","03","23","20:00","-2.8","","-10.3","","57","","","","11","","32","","48.3","","100.04","","","","-10","","Clear"
"-126.80","65.28","NORMAN WELLS A","2202801","2023-03-23 21:00","2023","03","23","21:00","-3.2","","-11.0","","55","","","","11","","34","","48.3","","100.07","","","","-11","","NA"
"-126.80","65.28","NORMAN WELLS A","2202801","2023-03-23 22:00","2023","03","23","22:00","-3.7","","-11.8","","54","","","","11","","32","","48.3","","100.09","","","","-12","","NA"
"-126.80","65.28","NORMAN WELLS A","2202801","2023-03-23 23:00","2023","03","23","23:00","-4.4","","-12.0","","55","","","","11","","27","","48.3","","100.12","","","","-12","","Clear"
"-126.80","65.28","NORMAN WELLS A","2202801","2023-03-24 00:00","2023","03","24","00:00","-6.4","","-12.3","","63","","","","14","","21","","48.3","","100.17","","","","-13","","NA"
"-126.80","65.28","NORMAN WELLS A","2202801","2023-03-24 01:00","2023","03","24","01:00","-8.7","","-13.9","","66","","","","14","","18","","48.3","","100.22","","","","-16","","NA"
"-126.80","65.28","NORMAN WELLS A","2202801","2023-03-24 02:00","2023","03","24","02:00","-9.1","","-14.2","","67","","","","11","","12","","48.3","","100.27","","","","-15","","Clear"
"-126.80","65.28","NORMAN WELLS A","2202801","2023-03-24 03:00","2023","03","24","03:00","-11.6","","-16.0","","70","","","","36","","1","","48.3","","100.34","","","","-12","","NA"
"-126.80","65.28","NORMAN WELLS A","2202801","2023-03-24 04:00","2023","03","24","04:00","-15.9","","-17.7","","86","","","","35","","4","","48.3","","100.42","","","","-19","","NA"
"-126.80","65.28","NORMAN WELLS A","2202801","2023-03-24 05:00","2023","03","24","05:00","-18.0","","-20.0","","85","","","","36","","3","","48.3","","100.48","","","","-20","","Clear"
"-126.80","65.28","NORMAN WELLS A","2202801","2023-03-24 06:00","2023","03","24","06:00","-19.8","","-21.9","","84","","","","36","","3","","48.3","","100.53","","","","-22","","NA"
"-126.80","65.28","NORMAN WELLS A","2202801","2023-03-24 07:00","2023","03","24","07:00","-20.1","","-22.2","","83","","","","9","","3","","48.3","","100.58","","","","-23","","NA"
"-126.80","65.28","NORMAN WELLS A","2202801","2023-03-24 08:00","2023","03","24","08:00","-17.5","","-19.2","","87","","","","10","","8","","48.3","","100.61","","","","-23","","Clear"
"-126.80","65.28","NORMAN WELLS A","2202801","2023-03-24 09:00","2023","03","24","09:00","-13.4","","-17.4","","72","","","","11","","13","","48.3","","100.64","","","","-20","","NA"
"-126.80","65.28","NORMAN WELLS A","2202801","2023-03-24 10:00","2023","03","24","10:00","-12.2","","-16.5","","71","","","","13","","14","","48.3","","100.65","","","","-19","","NA"
"-126.80","65.28","NORMAN WELLS A","2202801","2023-03-24 11:00","2023","03","24","11:00","-10.5","","-15.4","","67","","","","12","","18","","48.3","","100.67","","","","-18","","Mainly Clear"
"-126.80","65.28","NORMAN WELLS A","2202801","2023-03-24 12:00","2023","03","24","12:00","-8.9","","-14.9","","62","","","","11","","16","","48.3","","100.70","","","","-16","","NA"
"-126.80","65.28","NORMAN WELLS A","2202801","2023-03-24 13:00","2023","03","24","13:00","-7.9","","-14.0","","62","","","","13","","17","","48.3","","100.70","","","","-15","","NA"
"-126.80","65.28","NORMAN WELLS A","2202801","2023-03-24 14:00","2023","03","24","14:00","-6.8","","-13.4","","60","","","","13","","17","","48.3","","100.72","","","","-13","","Mostly Cloudy"
"-126.80","65.28","NORMAN WELLS A","2202801","2023-03-24 15:00","2023","03","24","15:00","-5.9","","-12.7","","59","","","","13","","17","","48.3","","100.75","","","","-12","","NA"
"-126.80","65.28","NORMAN WELLS A","2202801","2023-03-24 16:00","2023","03","24","16:00","-5.1","","-12.3","","57","","","","13","","16","","48.3","","100.78","","","","-11","","NA"
"-126.80","65.28","NORMAN WELLS A","2202801","2023-03-24 17:00","2023","03","24","17:00","-4.5","","-12.0","","56","","","","13","","12","","48.3","","100.78","","","","-9","","Mainly Clear"
"-126.80","65.28","NORMAN WELLS A","2202801","2023-03-24 18:00","2023","03","24","18:00","-4.9","","-11.7","","59","","","","12","","13","","48.3","","100.77","","","","-10","","NA"
"-126.80","65.28","NORMAN WELLS A","2202801","2023-03-24 19:00","2023","03","24","19:00","-4.2","","-12.4","","53","","","","9","","5","","48.3","","100.80","","","","-6","","NA"
"-126.80","65.28","NORMAN WELLS A","2202801","2023-03-24 20:00","2023","03","24","20:00","-5.8","","-12.9","","57","","","","8","","8","","48.3","","100.85","","","","-10","","Mainly Clear"
"-126.80","65.28","NORMAN WELLS A","2202801","2023-03-24 21:00","2023","03","24","21:00","-6.4","","-13.0","","60","","","","8","","8","","48.3","","100.87","","","","-10","","NA"
"-126.80","65.28","NORMAN WELLS A","2202801","2023-03-24 22:00","2023","03","24","22:00","-5.9","","-13.0","","57","","","","10","","8","","48.3","","100.90","","","","-10","","NA"
"-126.80","65.28","NORMAN WELLS A","2202801","2023-03-24 23:00","2023","03","24","23:00","-6.3","","-13.1","","59","","","","10","","7","","48.3","","100.93","","","","-10","","Mostly Cloudy"
"-126.80","65.28","NORMAN WELLS A","2202801","2023-03-25 00:00","2023","03","25","00:00","-7.2","","-12.9","","64","","","","12","","9","","48.3","","100.94","","","","-12","","NA"
"-126.80","65.28","NORMAN WELLS A","2202801","2023-03-25 01:00","2023","03","25","01:00","-8.0","","-13.1","","67","","","","12","","6","","48.3","","100.93","","","","-11","","NA"
"-126.80","65.28","NORMAN WELLS A","2202801","2023-03-25 02:00","2023","03","25","02:00","-7.9","","-13.6","","64","","","","9","","5","","48.3","","100.96","","","","-11","","Cloudy"
"-126.80","65.28","NORMAN WELLS A","2202801","2023-03-25 03:00","2023","03","25","03:00","-7.5","","-13.8","","61","","","","8","","4","","48.3","","100.99","","","","-10","","NA"
"-126.80","65.28","NORMAN WELLS A","2202801","2023-03-25 04:00","2023","03","25","04:00","-8.5","","-12.2","","74","","","","14","","3","","48.3","","101.02","","","","-10","","NA"
"-126.80","65.28","NORMAN WELLS A","2202801","2023-03-25 05:00","2023","03","25","05:00","-8.8","","-13.0","","72","","","","36","","2","","48.3","","101.06","","","","-10","","Mostly Cloudy"
"-126.80","65.28","NORMAN WELLS A","2202801","2023-03-25 06:00","2023","03","25","06:00","-8.7","","-12.8","","72","","","","12","","4","","48.3","","101.11","","","","-11","","NA"
"-126.80","65.28","NORMAN WELLS A","2202801","2023-03-25 07:00","2023","03","25","07:00","-9.2","","-13.6","","71","","","","13","","10","","48.3","","101.16","","","","-14","","NA"
"-126.80","65.28","NORMAN WELLS A","2202801","2023-03-25 08:00","2023","03","25","08:00","-9.3","","-13.9","","70","","","","12","","4","","48.3","","101.21","","","","-12","","Mostly Cloudy"
"-126.80","65.28","NORMAN WELLS A","2202801","2023-03-25 09:00","2023","03","25","09:00","-8.7","","-13.9","","66","","","","16","","4","","48.3","","101.30","","","","-11","","NA"
"-126.80","65.28","NORMAN WELLS A","2202801","2023-03-25 10:00","2023","03","25","10:00","-8.5","","-13.5","","67","","","","19","","4","","48.3","","101.37","","","","-11","","NA"
"-126.80","65.28","NORMAN WELLS A","2202801","2023-03-25 11:00","2023","03","25","11:00","-8.2","","-13.5","","66","","","","19","","7","","48.3","","101.44","","","","-12","","Cloudy"
"-126.80","65.28","NORMAN WELLS A","2202801","2023-03-25 12:00","2023","03","25","12:00","-7.0","","-12.7","","64","","","","20","","5","","48.3","","101.50","","","","-10","","NA"
"-126.80","65.28","NORMAN WELLS A","2202801","2023-03-25 13:00","2023","03","25","13:00","-4.9","","-11.3","","61","","","","26","","13","","48.3","","101.56","","","","-10","","NA"
"-126.80","65.28","NORMAN WELLS A","2202801","2023-03-25 14:00","2023","03","25","14:00","-4.4","","-9.5","","68","","","","28","","34","","48.3","","101.63","","","","-13","","Cloudy"
"-126.80","65.28","NORMAN WELLS A","2202801","2023-03-25 15:00","2023","03","25","15:00","-5.6","","-10.0","","71","","","","28","","39","","16.1","","101.74","","","","-15","","Snow"
"-126.80","65.28","NORMAN WELLS A","2202801","2023-03-25 16:00","2023","03","25","16:00","-5.8","","-11.4","","65","","","","28","","40","","48.3","","101.85","","","","-15","","NA"
"-126.80","65.28","NORMAN WELLS A","2202801","2023-03-25 17:00","2023","03","25","17:00","-6.0","","-11.4","","66","","","","28","","39","","48.3","","101.98","","","","-15","","Mostly Cloudy"
"-126.80","65.28","NORMAN WELLS A","2202801","2023-03-25 18:00","2023","03","25","18:00","-5.5","","-11.8","","62","","","","28","","32","","32.2","","102.13","","","","-14","","Snow"
"-126.80","65.28","NORMAN WELLS A","2202801","2023-03-25 19:00","2023","03","25","19:00","-5.3","","-9.9","","70","","","","29","","29","","48.3","","102.22","","","","-13","","NA"
"-126.80","65.28","NORMAN WELLS A","2202801","2023-03-25 20:00","2023","03","25","20:00","-6.2","","-9.9","","75","","","","28","","29","","48.3","","102.36","","","","-14","","Mostly Cloudy"
"-126.80","65.28","NORMAN WELLS A","2202801","2023-03-25 21:00","2023","03","25","21:00","-7.0","","-10.2","","78","","","","28","","32","","48.3","","102.46","","","","-16","","NA"
"-126.80","65.28","NORMAN WELLS A","2202801","2023-03-25 22:00","2023","03","25","22:00","-7.0","","-10.0","","80","","","","29","","31","","48.3","","102.54","","","","-16","","NA"
"-126.80","65.28","NORMAN WELLS A","2202801","2023-03-25 23:00","2023","03","25","23:00","-7.2","","-10.5","","77","","","","29","","30","","48.3","","102.60","","","","-16","","Mostly Cloudy"
"-126.80","65.28","NORMAN WELLS A","2202801","2023-03-26 00:00","2023","03","26","00:00","-7.6","","-11.1","","76","","","","29","","25","","48.3","","102.66","","","","-16","","NA"
"-126.80","65.28","NORMAN WELLS A","2202801","2023-03-26 01:00","2023","03","26","01:00","-7.7","","-11.6","","74","","","","29","","29","","48.3","","102.67","","","","-16","","NA"
"-126.80","65.28","NORMAN WELLS A","2202801","2023-03-26 02:00","2023","03","26","02:00","-8.0","","-11.8","","74","","","","29","","27","","48.3","","102.72","","","","-16","","Cloudy"
"-126.80","65.28","NORMAN WELLS A","2202801","2023-03-26 03:00","2023","03","26","03:00","-8.9","","-13.2","","72","","","","29","","30","","48.3","","102.76","","","","-18","","NA"
"-126.80","65.28","NORMAN WELLS A","2202801","2023-03-26 04:00","2023","03","26","04:00","-10.1","","-14.4","","71","","","","29","","22","","48.3","","102.80","","","","-18","","NA"
"-126.80","65.28","NORMAN WELLS A","2202801","2023-03-26 05:00","2023","03","26","05:00","-10.8","","-15.0","","72","","","","29","","25","","48.3","","102.86","","","","-20","","Mainly Clear"
"-126.80","65.28","NORMAN WELLS A","2202801","2023-03-26 06:00","2023","03","26","06:00","-11.3","","-15.5","","71","","","","28","","25","","48.3","","102.87","","","","-20","","NA"
"-126.80","65.28","NORMAN WELLS A","2202801","2023-03-26 07:00","2023","03","26","07:00","-12.5","","-15.8","","77","","","","27","","20","","48.3","","102.88","","","","-21","","NA"
"-126.80","65.28","NORMAN WELLS A","2202801","2023-03-26 08:00","2023","03","26","08:00","-12.5","","-16.0","","75","","","","27","","23","","48.3","","102.87","","","","-22","","Mainly Clear"
"-126.80","65.28","NORMAN WELLS A","2202801","2023-03-26 09:00","2023","03","26","09:00","-13.1","","-16.5","","76","","","","27","","17","","48.3","","102.86","","","","-21","","NA"
"-126.80","65.28","NORMAN WELLS A","2202801","2023-03-26 10:00","2023","03","26","10:00","-11.0","","-15.4","","70","","","","28","","18","","48.3","","102.87","","","","-19","","NA"
"-126.80","65.28","NORMAN WELLS A","2202801","2023-03-26 11:00","2023","03","26","11:00","-10.4","","-14.9","","70","","","","25","","13","","48.3","","102.85","","","","-17","","Mainly Clear"
"-126.80","65.28","NORMAN WELLS A","2202801","2023-03-26 12:00","2023","03","26","12:00","-8.2","","-14.1","","63","","","","23","","8","","48.3","","102.82","","","","-12","","NA"
"-126.80","65.28","NORMAN WELLS A","2202801","2023-03-26 13:00","2023","03","26","13:00","-7.3","","-13.9","","59","","","","23","","7","","48.3","","102.74","","","","-11","","NA"
"-126.80","65.28","NORMAN WELLS A","2202801","2023-03-26 14:00","2023","03","26","14:00","-6.9","","-14.6","","55","","","","16","","5","","48.3","","102.69","","","","-9","","Clear"
"-126.80","65.28","NORMAN WELLS A","2202801","2023-03-26 15:00","2023","03","26","15:00","-5.6","","-14.3","","51","","","","14","","12","","48.3","","102.63","","","","-11","","NA"
"-126.80","65.28","NORMAN WELLS A","2202801","2023-03-26 16:00","2023","03","26","16:00","-4.5","","-14.9","","44","","","","14","","9","","48.3","","102.59","","","","-8","","NA"
"-126.80","65.28","NORMAN WELLS A","2202801","2023-03-26 17:00","2023","03","26","17:00","-4.1","","-15.2","","42","","","","12","","11","","48.3","","102.51","","","","-9","","Clear"
"-126.80","65.28","NORMAN WELLS A","2202801","2023-03-26 18:00","2023","03","26","18:00","-4.4","","-14.1","","47","","","","12","","16","","48.3","","102.40","","","","-10","","NA"
"-126.80","65.28","NORMAN WELLS A","2202801","2023-03-26 19:00","2023","03","26","19:00","-4.5","","-15.1","","44","","","","11","","8","","48.3","","102.38","","","","-8","","NA"
"-126.80","65.28","NORMAN WELLS A","2202801","2023-03-26 20:00","2023","03","26","20:00","-5.9","","-14.3","","52","","","","9","","9","","48.3","","102.34","","","","-10","","Mainly Clear"
"-126.80","65.28","NORMAN WELLS A","2202801","2023-03-26 21:00","2023","03","26","21:00","-7.4","","-14.5","","57","","","","8","","8","","48.3","","102.33","","","","-11","","NA"
"-126.80","65.28","NORMAN WELLS A","2202801","2023-03-26 22:00","2023","03","26","22:00","-9.4","","-15.2","","63","","","","11","","9","","48.3","","102.29","","","","-14","","NA"
"-126.80","65.28","NORMAN WELLS A","2202801","2023-03-26 23:00","2023","03","26","23:00","-10.6","","-15.0","","70","","","","11","","9","","48.3","","102.22","","","","-16","","Mainly Clear"
"-126.80","65.28","NORMAN WELLS A","2202801","2023-03-27 00:00","2023","03","27","00:00","-14.6","","-17.6","","78","","","","11","","7","","48.3","","102.17","","","","-19","","NA"
"-126.80","65.28","NORMAN WELLS A","2202801","2023-03-27 01:00","2023","03","27","01:00","-18.1","","-20.4","","82","","","","35","","4","","48.3","","102.16","","","","-21","","NA"
"-126.80","65.28","NORMAN WELLS A","2202801","2023-03-27 02:00","2023","03","27","02:00","-15.4","","-17.1","","87","","","","8","","8","","48.3","","102.10","","","","-21","","Mainly Clear"
"-126.80","65.28","NORMAN WELLS A","2202801","2023-03-27 03:00","2023","03","27","03:00","-15.1","","-16.9","","86","","","","9","","9","","48.3","","102.06","","","","-21","","NA"
"-126.80","65.28","NORMAN WELLS A","2202801","2023-03-27 04:00","2023","03","27","04:00","-12.7","","-15.3","","81","","","","10","","6","","48.3","","102.05","","","","-17","","NA"
"-126.80","65.28","NORMAN WELLS A","2202801","2023-03-27 05:00","2023","03","27","05:00","-13.5","","-15.8","","83","","","","12","","7","","48.3","","102.03","","","","-18","","Mostly Cloudy"
"-126.80","65.28","NORMAN WELLS A","2202801","2023-03-27 06:00","2023","03","27","06:00","-12.8","","-15.5","","80","","","","10","","7","","48.3","","102.00","","","","-17","","NA"
"-126.80","65.28","NORMAN WELLS A","2202801","2023-03-27 07:00","2023","03","27","07:00","-11.5","","-15.0","","76","","","","11","","8","","48.3","","101.93","","","","-16","","NA"
"-126.80","65.28","NORMAN WELLS A","2202801","2023-03-27 08:00","2023","03","27","08:00","-12.1","","-15.2","","78","","","","12","","12","","48.3","","101.89","","","","-18","","Cloudy"
"-126.80","65.28","NORMAN WELLS A","2202801","2023-03-27 09:00","2023","03","27","09:00","-11.7","","-15.6","","74","","","","15","","7","","48.3","","101.91","","","","-16","","NA"
"-126.80","65.28","NORMAN WELLS A","2202801","2023-03-27 10:00","2023","03","27","10:00","-11.0","","-14.9","","73","","","","14","","18","","48.3","","101.77","","","","-19","","NA"
"-126.80","65.28","NORMAN WELLS A","2202801","2023-03-27 11:00","2023","03","27","11:00","-9.5","","-14.6","","67","","","","9","","9","","48.3","","101.72","","","","-14","","Cloudy"
"-126.80","65.28","NORMAN WELLS A","2202801","2023-03-27 12:00","2023","03","27","12:00","-8.3","","-13.7","","66","","","","14","","8","","48.3","","101.74","","","","-12","","NA"
"-126.80","65.28","NORMAN WELLS A","2202801","2023-03-27 13:00","2023","03","27","13:00","-7.7","","-13.0","","66","","","","11","","16","","48.3","","101.64","","","","-14","","NA"
"-126.80","65.28","NORMAN WELLS A","2202801","2023-03-27 14:00","2023","03","27","14:00","-6.4","","-12.8","","61","","","","10","","12","","48.3","","101.63","","","","-12","","Cloudy"
"-126.80","65.28","NORMAN WELLS A","2202801","2023-03-27 15:00","2023","03","27","15:00","-4.8","","-11.8","","58","","","","11","","14","","48.3","","101.53","","","","-10","","NA"
"-126.80","65.28","NORMAN WELLS A","2202801","2023-03-27 16:00","2023","03","27","16:00","-4.4","","-10.8","","61","","","","11","","7","","48.3","","101.47","","","","-8","","NA"
"-126.80","65.28","NORMAN WELLS A","2202801","2023-03-27 17:00","2023","03","27","17:00","-3.2","","-10.0","","59","","","","14","","12","","48.3","","101.42","","","","-8","","Mostly Cloudy"
"-126.80","65.28","NORMAN WELLS A","2202801","2023-03-27 18:00","2023","03","27","18:00","-2.8","","-8.5","","65","","","","12","","10","","48.3","","101.37","","","","-7","","NA"
"-126.80","65.28","NORMAN WELLS A","2202801","2023-03-27 19:00","2023","03","27","19:00","-2.1","","-8.9","","60","","","","10","","3","","48.3","","101.32","","","","-3","","NA"
"-126.80","65.28","NORMAN WELLS A","2202801","2023-03-27 20:00","2023","03","27","20:00","-3.4","","-9.3","","64","","","","9","","4","","48.3","","101.29","","","","-5","","Mostly Cloudy"
"-126.80","65.28","NORMAN WELLS A","2202801","2023-03-27 21:00","2023","03","27","21:00","-4.2","","-9.5","","66","","","","10","","4","","48.3","","101.24","","","","-6","","NA"
"-126.80","65.28","NORMAN WELLS A","2202801","2023-03-27 22:00","2023","03","27","22:00","-3.7","","-9.5","","64","","","","9","","4","","48.3","","101.18","","","","-5","","NA"
"-126.80","65.28","NORMAN WELLS A","2202801","2023-03-27 23:00","2023","03","27","23:00","-4.3","","-9.2","","69","","","","11","","8","","48.3","","101.13","","","","-8","","Mostly Cloudy"
"-126.80","65.28","NORMAN WELLS A","2202801","2023-03-28 00:00","2023","03","28","00:00","-4.0","","-8.9","","69","","","","9","","4","","48.3","","101.11","","","","-6","","NA"
"-126.80","65.28","NORMAN WELLS A","2202801","2023-03-28 01:00","2023","03","28","01:00","-3.9","","-8.7","","69","","","","32","","3","","48.3","","101.11","","","","-5","","NA"
"-126.80","65.28","NORMAN WELLS A","2202801","2023-03-28 02:00","2023","03","28","02:00","-3.9","","-8.2","","72","","","","0","","1","","48.3","","101.08","","","","-4","","Cloudy"
"-126.80","65.28","NORMAN WELLS A","2202801","2023-03-28 03:00","2023","03","28","03:00","-3.7","","-8.0","","72","","","","36","","2","","32.2","","101.05","","","","-5","","Snow"
"-126.80","65.28","NORMAN WELLS A","2202801","2023-03-28 04:00","2023","03","28","04:00","-4.2","","-6.6","","84","","","","17","","4","","48.3","","101.05","","","","-6","","Snow"
"-126.80","65.28","NORMAN WELLS A","2202801","2023-03-28 05:00","2023","03","28","05:00","-3.7","","-6.1","","83","","","","11","","3","","48.3","","101.04","","","","-5","","Snow"
"-126.80","65.28","NORMAN WELLS A","2202801","2023-03-28 06:00","2023","03","28","06:00","-4.2","","-5.4","","91","","","","36","","1","","24.1","","101.03","","","","-5","","Freezing Rain"
"-126.80","65.28","NORMAN WELLS A","2202801","2023-03-28 07:00","2023","03","28","07:00","-3.7","","-5.0","","91","","","","36","","3","","9.7","","101.04","","","","-5","","Freezing Rain"
"-126.80","65.28","NORMAN WELLS A","2202801","2023-03-28 08:00","2023","03","28","08:00","-3.5","","-4.3","","94","","","","28","","4","","2.8","","101.06","","","","-5","","Freezing Rain,Snow"
"-126.80","65.28","NORMAN WELLS A","2202801","2023-03-28 09:00","2023","03","28","09:00","-1.6","","-2.3","","95","","","","28","","9","","8.1","","101.05","","","","-5","","Snow"
"-126.80","65.28","NORMAN WELLS A","2202801","2023-03-28 10:00","2023","03","28","10:00","1.2","","0.0","","92","","","","30","","27","","8.1","","101.10","","","","","","Snow"
"-126.80","65.28","NORMAN WELLS A","2202801","2023-03-28 11:00","2023","03","28","11:00","1.1","","-1.5","","83","","","","27","","18","","16.1","","101.13","","","","","","Snow"
"-126.80","65.28","NORMAN WELLS A","2202801","2023-03-28 12:00","2023","03","28","12:00","1.9","","-2.7","","71","","","","28","","31","","48.3","","101.17","","","","","","NA"
"-126.80","65.28","NORMAN WELLS A","2202801","2023-03-28 13:00","2023","03","28","13:00","3.0","","-8.5","","43","","","","29","","30","","48.3","","101.21","","","","","","NA"
"-126.80","65.28","NORMAN WELLS A","2202801","2023-03-28 14:00","2023","03","28","14:00","2.2","","-9.1","","43","","","","29","","33","","48.3","","101.28","","","","","","Mostly Cloudy"
"-126.80","65.28","NORMAN WELLS A","2202801","2023-03-28 15:00","2023","03","28","15:00","2.1","","-9.4","","42","","","","29","","28","","48.3","","101.32","","","","","","NA"
"-126.80","65.28","NORMAN WELLS A","2202801","2023-03-28 16:00","2023","03","28","16:00","2.3","","-11.7","","35","","","","30","","30","","48.3","","101.34","","","","","","NA"
"-126.80","65.28","NORMAN WELLS A","2202801","2023-03-28 17:00","2023","03","28","17:00","1.3","","-11.4","","38","","","","30","","22","","48.3","","101.36","","","","","","Mostly Cloudy"
"-126.80","65.28","NORMAN WELLS A","2202801","2023-03-28 18:00","2023","03","28","18:00","1.0","","-10.7","","42","","","","30","","15","","48.3","","101.37","","","","","","NA"
"-126.80","65.28","NORMAN WELLS A","2202801","2023-03-28 19:00","2023","03","28","19:00","0.2","","-10.7","","44","","","","31","","19","","48.3","","101.42","","","","","","NA"
"-126.80","65.28","NORMAN WELLS A","2202801","2023-03-28 20:00","2023","03","28","20:00","-1.0","","-9.8","","52","","","","30","","13","","48.3","","101.48","","","","-5","","Cloudy"
"-126.80","65.28","NORMAN WELLS A","2202801","2023-03-28 21:00","2023","03","28","21:00","-2.2","","-8.8","","60","","","","28","","18","","48.3","","101.54","","","","-8","","NA"
"-126.80","65.28","NORMAN WELLS A","2202801","2023-03-28 22:00","2023","03","28","22:00","-3.5","","-6.8","","78","","","","27","","13","","48.3","","101.56","","","","-8","","NA"
"-126.80","65.28","NORMAN WELLS A","2202801","2023-03-28 23:00","2023","03","28","23:00","-3.5","","-6.1","","82","","","","27","","13","","48.3","","101.58","","","","-8","","Mostly Cloudy"
"-126.80","65.28","NORMAN WELLS A","2202801","2023-03-29 00:00","2023","03","29","00:00","-4.7","","-7.9","","78","","","","29","","15","","48.3","","101.61","","","","-10","","NA"
"-126.80","65.28","NORMAN WELLS A","2202801","2023-03-29 01:00","2023","03","29","01:00","-3.5","","-8.8","","67","","","","29","","19","","48.3","","101.63","","","","-9","","NA"
"-126.80","65.28","NORMAN WELLS A","2202801","2023-03-29 02:00","2023","03","29","02:00","-4.5","","-9.7","","67","","","","30","","11","","48.3","","101.68","","","","-9","","Mostly Cloudy"
"-126.80","65.28","NORMAN WELLS A","2202801","2023-03-29 03:00","2023","03","29","03:00","-5.4","","-9.6","","73","","","","29","","24","","48.3","","101.74","","","","-13","","NA"
"-126.80","65.28","NORMAN WELLS A","2202801","2023-03-29 04:00","2023","03","29","04:00","-6.7","","-9.8","","79","","","","29","","21","","32.2","","101.79","","","","-14","","Snow"
"-126.80","65.28","NORMAN WELLS A","2202801","2023-03-29 05:00","2023","03","29","05:00","-7.5","","-11.3","","74","","","","29","","23","","32.2","","101.83","","","","-15","","Snow"
"-126.80","65.28","NORMAN WELLS A","2202801","2023-03-29 06:00","2023","03","29","06:00","-9.0","","-12.4","","77","","","","29","","21","","32.2","","101.94","","","","-17","","Snow"
"-126.80","65.28","NORMAN WELLS A","2202801","2023-03-29 07:00","2023","03","29","07:00","-10.7","","-13.9","","77","","","","27","","22","","48.3","","101.96","","","","-19","","NA"
"-126.80","65.28","NORMAN WELLS A","2202801","2023-03-29 08:00","2023","03","29","08:00","-11.1","","-14.4","","77","","","","27","","24","","48.3","","101.94","","","","-20","","Mostly Cloudy"
"-126.80","65.28","NORMAN WELLS A","2202801","2023-03-29 09:00","2023","03","29","09:00","-11.0","","-15.0","","72","","","","29","","16","","48.3","","101.96","","","","-18","","NA"
"-126.80","65.28","NORMAN WELLS A","2202801","2023-03-29 10:00","2023","03","29","10:00","-9.8","","-14.9","","67","","","","29","","13","","48.3","","101.95","","","","-16","","NA"
"-126.80","65.28","NORMAN WELLS A","2202801","2023-03-29 11:00","2023","03","29","11:00","-10.2","","-14.0","","74","","","","26","","20","","48.3","","101.91","","","","-18","","Mostly Cloudy"
"-126.80","65.28","NORMAN WELLS A","2202801","2023-03-29 12:00","2023","03","29","12:00","-8.9","","-14.2","","66","","","","29","","18","","48.3","","101.85","","","","-16","","NA"
"-126.80","65.28","NORMAN WELLS A","2202801","2023-03-29 13:00","2023","03","29","13:00","-8.6","","-14.1","","64","","","","28","","18","","48.3","","101.79","","","","-16","","NA"
"-126.80","65.28","NORMAN WELLS A","2202801","2023-03-29 14:00","2023","03","29","14:00","-8.0","","-13.3","","66","","","","26","","16","","48.3","","101.75","","","","-15","","Mostly Cloudy"
"-126.80","65.28","NORMAN WELLS A","2202801","2023-03-29 15:00","2023","03","29","15:00","-7.9","","-13.7","","63","","","","26","","14","","48.3","","101.67","","","","-14","","NA"
"-126.80","65.28","NORMAN WELLS A","2202801","2023-03-29 16:00","2023","03","29","16:00","-7.4","","-13.9","","60","","","","27","","8","","48.3","","101.61","","","","-11","","NA"
"-126.80","65.28","NORMAN WELLS A","2202801","2023-03-29 17:00","2023","03","29","17:00","-6.6","","-14.4","","55","","","","22","","5","","48.3","","101.55","","","","-9","","Clear"
"-126.80","65.28","NORMAN WELLS A","2202801","2023-03-29 18:00","2023","03","29","18:00","-6.5","","-14.6","","53","","","","22","","4","","48.3","","101.49","","","","-8","","NA"
"-126.80","65.28","NORMAN WELLS A","2202801","2023-03-29 19:00","2023","03","29","19:00","-7.0","","-14.9","","54","","","","36","","1","","48.3","","101.42","","","","-8","","NA"
"-126.80","65.28","NORMAN WELLS A","2202801","2023-03-29 20:00","2023","03","29","20:00","-8.8","","-15.3","","60","","","","35","","3","","48.3","","101.39","","","","-10","","Mainly Clear"
"-126.80","65.28","NORMAN WELLS A","2202801","2023-03-29 21:00","2023","03","29","21:00","-12.1","","-16.4","","71","","","","5","","3","","48.3","","101.34","","","","-14","","NA"
"-126.80","65.28","NORMAN WELLS A","2202801","2023-03-29 22:00","2023","03","29","22:00","-14.7","","-17.4","","80","","","","11","","7","","48.3","","101.32","","","","-19","","NA"
"-126.80","65.28","NORMAN WELLS A","2202801","2023-03-29 23:00","2023","03","29","23:00","-17.7","","-19.7","","85","","","","10","","7","","48.3","","101.29","","","","-23","","Mainly Clear"
"-126.80","65.28","NORMAN WELLS A","2202801","2023-03-30 00:00","2023","03","30","00:00","-17.2","","-20.0","","79","","","","11","","8","","48.3","","101.24","","","","-23","","NA"
"-126.80","65.28","NORMAN WELLS A","2202801","2023-03-30 01:00","2023","03","30","01:00","-16.5","","-18.2","","87","","","","7","","7","","48.3","","101.20","","","","-22","","NA"
"-126.80","65.28","NORMAN WELLS A","2202801","2023-03-30 02:00","2023","03","30","02:00","-13.3","","-17.3","","73","","","","8","","9","","48.3","","101.17","","","","-19","","Mostly Cloudy"
"-126.80","65.28","NORMAN WELLS A","2202801","2023-03-30 03:00","2023","03","30","03:00","-12.0","","-16.8","","68","","","","11","","17","","48.3","","101.11","","","","-20","","NA"
"-126.80","65.28","NORMAN WELLS A","2202801","2023-03-30 04:00","2023","03","30","04:00","-13.3","","-17.3","","72","","","","9","","7","","48.3","","101.07","","","","-18","","NA"
"-126.80","65.28","NORMAN WELLS A","2202801","2023-03-30 05:00","2023","03","30","05:00","-13.9","","-17.1","","77","","","","9","","7","","48.3","","101.05","","","","-19","","Snow"
"-126.80","65.28","NORMAN WELLS A","2202801","2023-03-30 06:00","2023","03","30","06:00","-14.2","","-17.1","","79","","","","9","","7","","48.3","","101.01","","","","-19","","Snow"
"-126.80","65.28","NORMAN WELLS A","2202801","2023-03-30 07:00","2023","03","30","07:00","-13.5","","-17.0","","75","","","","11","","9","","48.3","","100.96","","","","-19","","Snow"
"-126.80","65.28","NORMAN WELLS A","2202801","2023-03-30 08:00","2023","03","30","08:00","-13.5","","-17.5","","72","","","","10","","8","","48.3","","100.93","","","","-19","","Mainly Clear"
"-126.80","65.28","NORMAN WELLS A","2202801","2023-03-30 09:00","2023","03","30","09:00","-12.9","","-17.9","","67","","","","10","","14","","48.3","","100.88","","","","-20","","NA"
"-126.80","65.28","NORMAN WELLS A","2202801","2023-03-30 10:00","2023","03","30","10:00","-11.8","","-17.5","","63","","","","12","","17","","48.3","","100.83","","","","-19","","NA"
"-126.80","65.28","NORMAN WELLS A","2202801","2023-03-30 11:00","2023","03","30","11:00","-11.0","","-16.7","","63","","","","12","","25","","48.3","","100.78","","","","-20","","Mainly Clear"
"-126.80","65.28","NORMAN WELLS A","2202801","2023-03-30 12:00","2023","03","30","12:00","-10.8","","-16.1","","66","","","","12","","27","","48.3","","100.75","","","","-20","","NA"
"-126.80","65.28","NORMAN WELLS A","2202801","2023-03-30 13:00","2023","03","30","13:00","-9.7","","-15.3","","64","","","","12","","22","","48.3","","100.72","","","","-18","","NA"
"-126.80","65.28","NORMAN WELLS A","2202801","2023-03-30 14:00","2023","03","30","14:00","-8.7","","-15.0","","61","","","","13","","27","","48.3","","100.65","","","","-17","","Mainly Clear"
"-126.80","65.28","NORMAN WELLS A","2202801","2023-03-30 15:00","2023","03","30","15:00","-8.0","","-14.4","","61","","","","13","","26","","48.3","","100.60","","","","-16","","NA"
"-126.80","65.28","NORMAN WELLS A","2202801","2023-03-30 16:00","2023","03","30","16:00","-7.5","","-14.2","","59","","","","13","","27","","48.3","","100.56","","","","-16","","NA"
"-126.80","65.28","NORMAN WELLS A","2202801","2023-03-30 17:00","2023","03","30","17:00","-7.2","","-14.5","","56","","","","12","","25","","48.3","","100.51","","","","-15","","Mainly Clear"
"-126.80","65.28","NORMAN WELLS A","2202801","2023-03-30 18:00","2023","03","30","18:00","-8.5","","-15.0","","60","","","","13","","26","","48.3","","100.47","","","","-17","","NA"
"-126.80","65.28","NORMAN WELLS A","2202801","2023-03-30 19:00","2023","03","30","19:00","-9.3","","-15.0","","63","","","","13","","22","","48.3","","100.42","","","","-17","","NA"
"-126.80","65.28","NORMAN WELLS A","2202801","2023-03-30 20:00","2023","03","30","20:00","-9.7","","-15.6","","63","","","","12","","25","","48.3","","100.41","","","","-18","","Mostly Cloudy"
"-126.80","65.28","NORMAN WELLS A","2202801","2023-03-30 21:00","2023","03","30","21:00","-10.1","","-16.7","","59","","","","11","","25","","48.3","","100.40","","","","-19","","NA"
"-126.80","65.28","NORMAN WELLS A","2202801","2023-03-30 22:00","2023","03","30","22:00","-10.2","","-16.2","","62","","","","12","","25","","48.3","","100.37","","","","-19","","NA"
"-126.80","65.28","NORMAN WELLS A","2202801","2023-03-30 23:00","2023","03","30","23:00","-11.8","","-17.1","","65","","","","13","","25","","48.3","","100.34","","","","-21","","Mostly Cloudy"
"-126.80","65.28","NORMAN WELLS A","2202801","2023-03-31 00:00","2023","03","31","00:00","-13.3","","-18.8","","64","","","","10","","10","","48.3","","100.31","","","","-19","","NA"
"-126.80","65.28","NORMAN WELLS A","2202801","2023-03-31 01:00","2023","03","31","01:00","-13.9","","-19.4","","64","","","","10","","13","","48.3","","100.29","","","","-21","","NA"
"-126.80","65.28","NORMAN WELLS A","2202801","2023-03-31 02:00","2023","03","31","02:00","-14.7","","-19.6","","67","","","","10","","11","","48.3","","100.21","","","","-21","","Mainly Clear"
"-126.80","65.28","NORMAN WELLS A","2202801","2023-03-31 03:00","2023","03","31","03:00","-14.7","","-19.5","","67","","","","10","","13","","48.3","","100.15","","","","-22","","NA"
"-126.80","65.28","NORMAN WELLS A","2202801","2023-03-31 04:00","2023","03","31","04:00","-15.3","","-19.9","","68","","","","11","","16","","48.3","","100.12","","","","-24","","NA"
"-126.80","65.28","NORMAN WELLS A","2202801","2023-03-31 05:00","2023","03","31","05:00","-17.1","","-20.8","","73","","","","12","","13","","48.3","","100.09","","","","-25","","Clear"
"-126.80","65.28","NORMAN WELLS A","2202801","2023-03-31 06:00","2023","03","31","06:00","-17.1","","-20.7","","74","","","","10","","5","","48.3","","100.07","","","","-21","","NA"
"-126.80","65.28","NORMAN WELLS A","2202801","2023-03-31 07:00","2023","03","31","07:00","-14.5","","-18.6","","71","","","","12","","26","","48.3","","100.01","","","","-25","","NA"
"-126.80","65.28","NORMAN WELLS A","2202801","2023-03-31 08:00","2023","03","31","08:00","-12.8","","-17.3","","69","","","","12","","31","","48.3","","99.98","","","","-23","","Mainly Clear"
"-126.80","65.28","NORMAN WELLS A","2202801","2023-03-31 09:00","2023","03","31","09:00","-11.4","","-16.5","","66","","","","12","","37","","48.3","","99.96","","","","-22","","NA"
"-126.80","65.28","NORMAN WELLS A","2202801","2023-03-31 10:00","2023","03","31","10:00","-10.4","","-16.1","","64","","","","11","","42","","48.3","","99.93","","","","-22","","NA"
"-126.80","65.28","NORMAN WELLS A","2202801","2023-03-31 11:00","2023","03","31","11:00","-10.3","","-15.5","","66","","","","12","","40","","40.2","","99.90","","","","-21","","Mostly Cloudy"
"-126.80","65.28","NORMAN WELLS A","2202801","2023-03-31 12:00","2023","03","31","12:00","-9.5","","-15.1","","64","","","","11","","35","","32.2","","99.91","","","","-20","","NA"
"-126.80","65.28","NORMAN WELLS A","2202801","2023-03-31 13:00","2023","03","31","13:00","-9.1","","-14.9","","63","","","","12","","36","","32.2","","99.91","","","","-19","","NA"
"-126.80","65.28","NORMAN WELLS A","2202801","2023-03-31 14:00","2023","03","31","14:00","-8.7","","-14.4","","63","","","","11","","33","","24.1","","99.90","","","","-18","","Snow,Blowing Snow"
"-126.80","65.28","NORMAN WELLS A","2202801","2023-03-31 15:00","2023","03","31","15:00","-8.6","","-14.1","","65","","","","12","","35","","24.1","","99.89","","","","-18","","Snow,Blowing Snow"
"-126.80","65.28","NORMAN WELLS A","2202801","2023-03-31 16:00","2023","03","31","16:00","-8.2","","-14.1","","63","","","","11","","33","","24.1","","99.87","","","","-18","","Snow,Blowing Snow"
"-126.80","65.28","NORMAN WELLS A","2202801","2023-03-31 17:00","2023","03","31","17:00","-8.5","","-13.9","","65","","","","12","","31","","24.1","","99.86","","","","-18","","Snow,Blowing Snow"
"-126.80","65.28","NORMAN WELLS A","2202801","2023-03-31 18:00","2023","03","31","18:00","-9.2","","-13.4","","72","","","","12","","31","","8.1","","99.88","","","","-19","","Snow,Blowing Snow"
"-126.80","65.28","NORMAN WELLS A","2202801","2023-03-31 19:00","2023","03","31","19:00","-10.0","","-13.7","","75","","","","13","","26","","8.1","","99.85","","","","-19","","Snow,Blowing Snow"
"-126.80","65.28","NORMAN WELLS A","2202801","2023-03-31 20:00","2023","03","31","20:00","-10.4","","-13.8","","77","","","","13","","26","","24.1","","99.88","","","","-19","","Snow,Blowing Snow"
"-126.80","65.28","NORMAN WELLS A","2202801","2023-03-31 21:00","2023","03","31","21:00","-10.8","","-14.4","","75","","","","13","","21","","24.1","","99.91","","","","-19","","Snow,Blowing Snow"
"-126.80","65.28","NORMAN WELLS A","2202801","2023-03-31 22:00","2023","03","31","22:00","-11.1","","-14.8","","75","","","","9","","6","","24.1","","99.92","","","","-15","","Snow"
"-126.80","65.28","NORMAN WELLS A","2202801","2023-03-31 23:00","2023","03","31","23:00","-11.4","","-14.3","","80","","","","10","","7","","24.1","","99.92","","","","-16","","Snow"
