"Longitude (x)","Latitude (y)","Station Name","Climate ID","Date/Time (LST)","Year","Month","Day","Time (LST)","Temp (°C)","Temp Flag","Dew Point Temp (°C)","Dew Point Temp Flag","Rel Hum (%)","Rel Hum Flag","Precip. Amount (mm)","Precip. Amount Flag","Wind Dir (10s deg)","Wind Dir Flag","Wind Spd (km/h)","Wind Spd Flag","Visibility (km)","Visibility Flag","Stn Press (kPa)","Stn Press Flag","Hmdx","Hmdx Flag","Wind Chill","Wind Chill Flag","Weather"
"-121.24","61.76","FORT SIMPSON A","2202103","2022-03-01 00:00","2022","03","01","00:00","-22.9","","-25.8","","78","","","","36","","2","","24.1","","100.27","","","","-25","","Snow"
"-121.24","61.76","FORT SIMPSON A","2202103","2022-03-01 01:00","2022","03","01","01:00","-22.4","","-25.3","","78","","","","33","","3","","24.1","","100.33","","","","-25","","Snow"
"-121.24","61.76","FORT SIMPSON A","2202103","2022-03-01 02:00","2022","03","01","02:00","-22.0","","-25.0","","77","","","","3","","3","","24.1","","100.38","","","","-25","","Cloudy"
"-121.24","61.76","FORT SIMPSON A","2202103","2022-03-01 03:00","2022","03","01","03:00","-22.4","","-25.3","","78","","","","36","","5","","24.1","","100.44","","","","-27","","NA"
"-121.24","61.76","FORT SIMPSON A","2202103","2022-03-01 04:00","2022","03","01","04:00","-23.2","","-26.3","","77","","","","33","","7","","24.1","","100.49","","","","-29","","NA"
"-121.24","61.76","FORT SIMPSON A","2202103","2022-03-01 05:00","2022","03","01","05:00","-23.2","","-26.5","","75","","","","34","","7","","24.1","","100.52","","","","-29","","Cloudy"
"-121.24","61.76","FORT SIMPSON A","2202103","2022-03-01 06:00","2022","03","01","06:00","-22.7","","-26.0","","75","","","","35","","5","","24.1","","100.56","","","","-27","","NA"
"-121.24","61.76","FORT SIMPSON A","2202103","2022-03-01 07:00","2022","03","01","07:00","-22.9","","-26.3","","74","","","","34","","5","","24.1","","100.62","","","","-28","","NA"
"-121.24","61.76","FORT SIMPSON A","2202103","2022-03-01 08:00","2022","03","01","08:00","-22.6","","-26.0","","75","","","","36","","5","","24.1","","100.67","","","","-27","","Mostly Cloudy"
"-121.24","61.76","FORT SIMPSON A","2202103","2022-03-01 09:00","2022","03","01","09:00","-22.2","","-25.5","","75","","","","35","","5","","24.1","","100.74","","","","-27","","NA"
"-121.24","61.76","FORT SIMPSON A","2202103","2022-03-01 10:00","2022","03","01","10:00","-21.4","","-24.9","","73","","","","34","","5","","24.1","","100.79","","","","-26","","NA"
"-121.24","61.76","FORT SIMPSON A","2202103","2022-03-01 11:00","2022","03","01","11:00","-19.9","","-24.4","","68","","","","3","","5","","24.1","","100.84","","","","-24","","Mostly Cloudy"
"-121.24","61.76","FORT SIMPSON A","2202103","2022-03-01 12:00","2022","03","01","12:00","-18.8","","-24.1","","64","","","","15","","7","","24.1","","100.87","","","","-24","","NA"
"-121.24","61.76","FORT SIMPSON A","2202103","2022-03-01 13:00","2022","03","01","13:00","-17.8","","-23.4","","62","","","","16","","7","","24.1","","100.91","","","","-23","","NA"
"-121.24","61.76","FORT SIMPSON A","2202103","2022-03-01 14:00","2022","03","01","14:00","-17.0","","-23.0","","60","","","","17","","6","","24.1","","100.93","","","","-22","","Mostly Cloudy"
"-121.24","61.76","FORT SIMPSON A","2202103","2022-03-01 15:00","2022","03","01","15:00","-16.4","","-22.4","","60","","","","24","","3","","24.1","","100.96","","","","-19","","NA"
"-121.24","61.76","FORT SIMPSON A","2202103","2022-03-01 16:00","2022","03","01","16:00","-15.0","","-22.9","","52","","","","14","","6","","24.1","","100.98","","","","-19","","NA"
"-121.24","61.76","FORT SIMPSON A","2202103","2022-03-01 17:00","2022","03","01","17:00","-15.4","","-22.4","","56","","","","13","","5","","24.1","","100.99","","","","-19","","Mostly Cloudy"
"-121.24","61.76","FORT SIMPSON A","2202103","2022-03-01 18:00","2022","03","01","18:00","-17.5","","-23.5","","60","","","","36","","2","","24.1","","101.03","","","","-19","","NA"
"-121.24","61.76","FORT SIMPSON A","2202103","2022-03-01 19:00","2022","03","01","19:00","-17.1","","-22.1","","66","","","","12","","4","","24.1","","101.06","","","","-20","","NA"
"-121.24","61.76","FORT SIMPSON A","2202103","2022-03-01 20:00","2022","03","01","20:00","-18.6","","-23.0","","69","","","","11","","4","","24.1","","101.11","","","","-22","","Mainly Clear"
"-121.24","61.76","FORT SIMPSON A","2202103","2022-03-01 21:00","2022","03","01","21:00","-19.2","","-23.2","","71","","","","10","","5","","24.1","","101.13","","","","-23","","NA"
"-121.24","61.76","FORT SIMPSON A","2202103","2022-03-01 22:00","2022","03","01","22:00","-19.8","","-24.1","","69","","","","11","","10","","24.1","","101.16","","","","-27","","NA"
"-121.24","61.76","FORT SIMPSON A","2202103","2022-03-01 23:00","2022","03","01","23:00","-20.7","","-24.6","","71","","","","14","","9","","24.1","","101.20","","","","-28","","Mainly Clear"
"-121.24","61.76","FORT SIMPSON A","2202103","2022-03-02 00:00","2022","03","02","00:00","-21.3","","-25.4","","70","","","","12","","11","","24.1","","101.23","","","","-29","","NA"
"-121.24","61.76","FORT SIMPSON A","2202103","2022-03-02 01:00","2022","03","02","01:00","-22.2","","-26.1","","71","","","","11","","12","","24.1","","101.26","","","","-31","","NA"
"-121.24","61.76","FORT SIMPSON A","2202103","2022-03-02 02:00","2022","03","02","02:00","-23.1","","-27.0","","71","","","","11","","14","","24.1","","101.29","","","","-33","","Mainly Clear"
"-121.24","61.76","FORT SIMPSON A","2202103","2022-03-02 03:00","2022","03","02","03:00","-23.3","","-27.6","","69","","","","12","","10","","24.1","","101.28","","","","-31","","NA"
"-121.24","61.76","FORT SIMPSON A","2202103","2022-03-02 04:00","2022","03","02","04:00","-24.0","","-28.2","","69","","","","13","","14","","24.1","","101.28","","","","-34","","NA"
"-121.24","61.76","FORT SIMPSON A","2202103","2022-03-02 05:00","2022","03","02","05:00","-24.7","","-28.6","","70","","","","13","","10","","24.1","","101.26","","","","-33","","Mostly Cloudy"
"-121.24","61.76","FORT SIMPSON A","2202103","2022-03-02 06:00","2022","03","02","06:00","-24.6","","-28.5","","71","","","","14","","10","","24.1","","101.24","","","","-33","","NA"
"-121.24","61.76","FORT SIMPSON A","2202103","2022-03-02 07:00","2022","03","02","07:00","-24.2","","-28.0","","72","","","","14","","11","","24.1","","101.22","","","","-33","","NA"
"-121.24","61.76","FORT SIMPSON A","2202103","2022-03-02 08:00","2022","03","02","08:00","-24.0","","-27.6","","72","","","","14","","13","","24.1","","101.22","","","","-33","","Mostly Cloudy"
"-121.24","61.76","FORT SIMPSON A","2202103","2022-03-02 09:00","2022","03","02","09:00","-24.2","","-27.9","","72","","","","14","","13","","24.1","","101.20","","","","-34","","NA"
"-121.24","61.76","FORT SIMPSON A","2202103","2022-03-02 10:00","2022","03","02","10:00","-23.4","","-27.5","","70","","","","13","","13","","24.1","","101.17","","","","-33","","NA"
"-121.24","61.76","FORT SIMPSON A","2202103","2022-03-02 11:00","2022","03","02","11:00"
"-121.24","61.76","FORT SIMPSON A","2202103","2022-03-02 12:00","2022","03","02","12:00","-20.9","","-25.8","","65","","","","14","","11","","24.1","","101.14","","","","-29","","NA"
"-121.24","61.76","FORT SIMPSON A","2202103","2022-03-02 13:00","2022","03","02","13:00","-19.4","","-24.6","","64","","","","14","","16","","24.1","","101.11","","","","-29","","NA"
"-121.24","61.76","FORT SIMPSON A","2202103","2022-03-02 14:00","2022","03","02","14:00","-18.1","","-23.2","","65","","","","14","","10","","16.1","","101.05","","","","-25","","Snow"
"-121.24","61.76","FORT SIMPSON A","2202103","2022-03-02 15:00","2022","03","02","15:00","-16.3","","-22.2","","61","","","","13","","11","","16.1","","100.98","","","","-23","","Snow"
"-121.24","61.76","FORT SIMPSON A","2202103","2022-03-02 16:00","2022","03","02","16:00","-15.8","","-21.4","","62","","","","14","","12","","19.3","","100.92","","","","-23","","Snow"
"-121.24","61.76","FORT SIMPSON A","2202103","2022-03-02 17:00","2022","03","02","17:00","-16.2","","-21.1","","66","","","","15","","14","","24.1","","100.89","","","","-24","","Mostly Cloudy"
"-121.24","61.76","FORT SIMPSON A","2202103","2022-03-02 18:00","2022","03","02","18:00","-16.5","","-21.5","","66","","","","14","","10","","24.1","","100.85","","","","-23","","NA"
"-121.24","61.76","FORT SIMPSON A","2202103","2022-03-02 19:00","2022","03","02","19:00","-17.0","","-21.4","","69","","","","14","","12","","24.1","","100.82","","","","-24","","NA"
"-121.24","61.76","FORT SIMPSON A","2202103","2022-03-02 20:00","2022","03","02","20:00","-16.9","","-21.8","","66","","","","13","","12","","24.1","","100.79","","","","-24","","Snow"
"-121.24","61.76","FORT SIMPSON A","2202103","2022-03-02 21:00","2022","03","02","21:00","-17.2","","-21.9","","67","","","","14","","11","","24.1","","100.77","","","","-24","","Snow"
"-121.24","61.76","FORT SIMPSON A","2202103","2022-03-02 22:00","2022","03","02","22:00","-17.1","","-21.5","","69","","","","13","","10","","24.1","","100.72","","","","-24","","Snow"
"-121.24","61.76","FORT SIMPSON A","2202103","2022-03-02 23:00","2022","03","02","23:00","-17.6","","-21.8","","70","","","","12","","8","","24.1","","100.68","","","","-23","","Mostly Cloudy"
"-121.24","61.76","FORT SIMPSON A","2202103","2022-03-03 00:00","2022","03","03","00:00","-17.9","","-21.9","","71","","","","12","","9","","24.1","","100.63","","","","-24","","NA"
"-121.24","61.76","FORT SIMPSON A","2202103","2022-03-03 01:00","2022","03","03","01:00","-17.1","","-21.1","","71","","","","13","","13","","24.1","","100.60","","","","-25","","NA"
"-121.24","61.76","FORT SIMPSON A","2202103","2022-03-03 02:00","2022","03","03","02:00","-16.8","","-20.9","","71","","","","13","","12","","24.1","","100.56","","","","-24","","Cloudy"
"-121.24","61.76","FORT SIMPSON A","2202103","2022-03-03 03:00","2022","03","03","03:00","-16.9","","-20.9","","72","","","","12","","9","","24.1","","100.53","","","","-23","","NA"
"-121.24","61.76","FORT SIMPSON A","2202103","2022-03-03 04:00","2022","03","03","04:00","-16.9","","-20.7","","72","","","","13","","9","","24.1","","100.51","","","","-23","","NA"
"-121.24","61.76","FORT SIMPSON A","2202103","2022-03-03 05:00","2022","03","03","05:00","-16.9","","-20.6","","73","","","","12","","11","","24.1","","100.45","","","","-24","","Cloudy"
"-121.24","61.76","FORT SIMPSON A","2202103","2022-03-03 06:00","2022","03","03","06:00","-17.0","","-20.6","","74","","","","12","","8","","24.1","","100.38","","","","-23","","NA"
"-121.24","61.76","FORT SIMPSON A","2202103","2022-03-03 07:00","2022","03","03","07:00","-17.0","","-20.4","","75","","","","11","","11","","19.3","","100.32","","","","-24","","Snow"
"-121.24","61.76","FORT SIMPSON A","2202103","2022-03-03 08:00","2022","03","03","08:00","-17.0","","-20.4","","75","","","","12","","12","","24.1","","100.30","","","","-24","","Snow"
"-121.24","61.76","FORT SIMPSON A","2202103","2022-03-03 09:00","2022","03","03","09:00","-16.9","","-20.3","","75","","","","13","","14","","24.1","","100.26","","","","-25","","Snow"
"-121.24","61.76","FORT SIMPSON A","2202103","2022-03-03 10:00","2022","03","03","10:00","-16.4","","-20.1","","73","","","","13","","11","","24.1","","100.25","","","","-23","","NA"
"-121.24","61.76","FORT SIMPSON A","2202103","2022-03-03 11:00","2022","03","03","11:00","-15.1","","-19.4","","70","","","","11","","10","","24.1","","100.23","","","","-21","","Clear"
"-121.24","61.76","FORT SIMPSON A","2202103","2022-03-03 12:00","2022","03","03","12:00","-13.5","","-18.2","","68","","","","11","","11","","24.1","","100.19","","","","-20","","NA"
"-121.24","61.76","FORT SIMPSON A","2202103","2022-03-03 13:00","2022","03","03","13:00","-12.2","","-17.4","","66","","","","9","","8","","24.1","","100.15","","","","-17","","NA"
"-121.24","61.76","FORT SIMPSON A","2202103","2022-03-03 14:00","2022","03","03","14:00","-11.3","","-16.5","","66","","","","12","","8","","24.1","","100.11","","","","-16","","Mainly Clear"
"-121.24","61.76","FORT SIMPSON A","2202103","2022-03-03 15:00","2022","03","03","15:00","-10.1","","-15.7","","64","","","","8","","9","","24.1","","100.08","","","","-15","","NA"
"-121.24","61.76","FORT SIMPSON A","2202103","2022-03-03 16:00","2022","03","03","16:00","-9.3","","-15.2","","63","","","","11","","9","","24.1","","100.07","","","","-14","","NA"
"-121.24","61.76","FORT SIMPSON A","2202103","2022-03-03 17:00","2022","03","03","17:00","-9.3","","-15.0","","64","","","","9","","10","","24.1","","100.06","","","","-14","","Mainly Clear"
"-121.24","61.76","FORT SIMPSON A","2202103","2022-03-03 18:00","2022","03","03","18:00","-9.8","","-15.1","","66","","","","10","","6","","24.1","","100.06","","","","-13","","NA"
"-121.24","61.76","FORT SIMPSON A","2202103","2022-03-03 19:00","2022","03","03","19:00","-11.3","","-15.6","","71","","","","12","","6","","24.1","","100.05","","","","-15","","NA"
"-121.24","61.76","FORT SIMPSON A","2202103","2022-03-03 20:00","2022","03","03","20:00","-12.3","","-16.0","","75","","","","13","","7","","24.1","","100.04","","","","-17","","Clear"
"-121.24","61.76","FORT SIMPSON A","2202103","2022-03-03 21:00","2022","03","03","21:00","-13.4","","-16.2","","80","","","","13","","5","","24.1","","100.08","","","","-17","","NA"
"-121.24","61.76","FORT SIMPSON A","2202103","2022-03-03 22:00","2022","03","03","22:00","-14.5","","-17.0","","81","","","","12","","4","","24.1","","100.10","","","","-17","","NA"
"-121.24","61.76","FORT SIMPSON A","2202103","2022-03-03 23:00","2022","03","03","23:00","-14.9","","-17.2","","83","","","","13","","5","","24.1","","100.07","","","","-18","","Mainly Clear"
"-121.24","61.76","FORT SIMPSON A","2202103","2022-03-04 00:00","2022","03","04","00:00","-20.8","","-22.9","","84","","","","36","","2","","24.1","","100.09","","","","-23","","NA"
"-121.24","61.76","FORT SIMPSON A","2202103","2022-03-04 01:00","2022","03","04","01:00","-21.4","","-23.7","","82","","","","36","","2","","24.1","","100.12","","","","-23","","NA"
"-121.24","61.76","FORT SIMPSON A","2202103","2022-03-04 02:00","2022","03","04","02:00","-20.9","","-23.6","","79","","","","36","","2","","24.1","","100.09","","","","-23","","Clear"
"-121.24","61.76","FORT SIMPSON A","2202103","2022-03-04 03:00","2022","03","04","03:00","-22.0","","-24.8","","78","","","","36","","1","","24.1","","100.10","","","","-23","","NA"
"-121.24","61.76","FORT SIMPSON A","2202103","2022-03-04 04:00","2022","03","04","04:00","-23.6","","-26.4","","78","","","","36","","1","","24.1","","100.11","","","","-25","","NA"
"-121.24","61.76","FORT SIMPSON A","2202103","2022-03-04 05:00","2022","03","04","05:00","-23.0","","-25.7","","79","","","","36","","2","","24.1","","100.10","","","","-25","","Clear"
"-121.24","61.76","FORT SIMPSON A","2202103","2022-03-04 06:00","2022","03","04","06:00","-24.2","","-27.4","","76","","","","36","","2","","24.1","","100.10","","","","-26","","NA"
"-121.24","61.76","FORT SIMPSON A","2202103","2022-03-04 07:00","2022","03","04","07:00","-24.0","","-26.9","","77","","","","","","0","","24.1","","100.10","","","","","","NA"
"-121.24","61.76","FORT SIMPSON A","2202103","2022-03-04 08:00","2022","03","04","08:00","-24.0","","-27.3","","75","","","","14","","3","","24.1","","100.11","","","","-27","","Mainly Clear"
"-121.24","61.76","FORT SIMPSON A","2202103","2022-03-04 09:00","2022","03","04","09:00","-23.7","","-26.4","","78","","","","36","","2","","24.1","","100.11","","","","-26","","NA"
"-121.24","61.76","FORT SIMPSON A","2202103","2022-03-04 10:00","2022","03","04","10:00","-21.6","","-24.4","","79","","","","16","","4","","24.1","","100.11","","","","-25","","NA"
"-121.24","61.76","FORT SIMPSON A","2202103","2022-03-04 11:00","2022","03","04","11:00","-17.3","","-19.6","","83","","","","36","","1","","16.1","","100.10","","","","-18","","Fog"
"-121.24","61.76","FORT SIMPSON A","2202103","2022-03-04 12:00","2022","03","04","12:00","-15.2","","-17.3","","84","","","","36","","1","","24.1","","100.09","","","","-16","","NA"
"-121.24","61.76","FORT SIMPSON A","2202103","2022-03-04 13:00","2022","03","04","13:00","-12.9","","-16.0","","78","","","","36","","2","","24.1","","100.07","","","","-14","","NA"
"-121.24","61.76","FORT SIMPSON A","2202103","2022-03-04 14:00","2022","03","04","14:00","-11.6","","-15.6","","73","","","","36","","1","","24.1","","100.06","","","","-12","","Mostly Cloudy"
"-121.24","61.76","FORT SIMPSON A","2202103","2022-03-04 15:00","2022","03","04","15:00","-9.0","","-14.0","","67","","","","0","","1","","24.1","","100.01","","","","-10","","NA"
"-121.24","61.76","FORT SIMPSON A","2202103","2022-03-04 16:00","2022","03","04","16:00","-8.6","","-13.8","","67","","","","17","","4","","24.1","","100.02","","","","-11","","NA"
"-121.24","61.76","FORT SIMPSON A","2202103","2022-03-04 17:00","2022","03","04","17:00","-8.2","","-13.0","","68","","","","16","","3","","24.1","","100.00","","","","-10","","Cloudy"
"-121.24","61.76","FORT SIMPSON A","2202103","2022-03-04 18:00","2022","03","04","18:00","-9.9","","-13.6","","75","","","","30","","5","","24.1","","100.01","","","","-13","","NA"
"-121.24","61.76","FORT SIMPSON A","2202103","2022-03-04 19:00","2022","03","04","19:00","-10.6","","-13.4","","80","","","","35","","3","","24.1","","100.01","","","","-12","","NA"
"-121.24","61.76","FORT SIMPSON A","2202103","2022-03-04 20:00","2022","03","04","20:00","-12.2","","-14.1","","85","","","","35","","3","","24.1","","100.03","","","","-14","","Mostly Cloudy"
"-121.24","61.76","FORT SIMPSON A","2202103","2022-03-04 21:00","2022","03","04","21:00","-13.4","","-15.1","","88","","","","36","","4","","24.1","","100.05","","","","-16","","NA"
"-121.24","61.76","FORT SIMPSON A","2202103","2022-03-04 22:00","2022","03","04","22:00","-13.9","","-15.2","","90","","","","36","","1","","24.1","","100.05","","","","-15","","NA"
"-121.24","61.76","FORT SIMPSON A","2202103","2022-03-04 23:00","2022","03","04","23:00","-16.8","","-18.8","","85","","","","31","","4","","24.1","","100.07","","","","-20","","Mainly Clear"
"-121.24","61.76","FORT SIMPSON A","2202103","2022-03-05 00:00","2022","03","05","00:00","-18.2","","-20.1","","85","","","","36","","2","","24.1","","100.09","","","","-20","","NA"
"-121.24","61.76","FORT SIMPSON A","2202103","2022-03-05 01:00","2022","03","05","01:00","-19.2","","-21.5","","83","","","","36","","1","","24.1","","100.11","","","","-20","","NA"
"-121.24","61.76","FORT SIMPSON A","2202103","2022-03-05 02:00","2022","03","05","02:00","-20.1","","-22.5","","81","","","","36","","2","","24.1","","100.13","","","","-22","","Mainly Clear"
"-121.24","61.76","FORT SIMPSON A","2202103","2022-03-05 03:00","2022","03","05","03:00","-20.2","","-22.6","","81","","","","23","","3","","24.1","","100.17","","","","-23","","NA"
"-121.24","61.76","FORT SIMPSON A","2202103","2022-03-05 04:00","2022","03","05","04:00","-21.4","","-23.9","","81","","","","","","0","","24.1","","100.20","","","","","","NA"
"-121.24","61.76","FORT SIMPSON A","2202103","2022-03-05 05:00","2022","03","05","05:00","-22.1","","-24.9","","79","","","","0","","1","","24.1","","100.20","","","","-23","","Mainly Clear"
"-121.24","61.76","FORT SIMPSON A","2202103","2022-03-05 06:00","2022","03","05","06:00","-22.8","","-25.6","","79","","","","0","","1","","24.1","","100.23","","","","-24","","NA"
"-121.24","61.76","FORT SIMPSON A","2202103","2022-03-05 07:00","2022","03","05","07:00","-22.9","","-25.5","","79","","","","36","","2","","24.1","","100.26","","","","-25","","NA"
"-121.24","61.76","FORT SIMPSON A","2202103","2022-03-05 08:00","2022","03","05","08:00","-22.9","","-25.8","","78","","","","15","","4","","24.1","","100.28","","","","-27","","Clear"
"-121.24","61.76","FORT SIMPSON A","2202103","2022-03-05 09:00","2022","03","05","09:00","-21.9","","-24.4","","81","","","","17","","4","","24.1","","100.32","","","","-26","","NA"
"-121.24","61.76","FORT SIMPSON A","2202103","2022-03-05 10:00","2022","03","05","10:00","-19.6","","-21.9","","82","","","","36","","2","","24.1","","100.35","","","","-21","","NA"
"-121.24","61.76","FORT SIMPSON A","2202103","2022-03-05 11:00","2022","03","05","11:00","-14.8","","-17.0","","84","","","","9","","3","","24.1","","100.38","","","","-17","","Clear"
"-121.24","61.76","FORT SIMPSON A","2202103","2022-03-05 12:00","2022","03","05","12:00","-11.3","","-14.8","","76","","","","36","","2","","24.1","","100.39","","","","-13","","NA"
"-121.24","61.76","FORT SIMPSON A","2202103","2022-03-05 13:00","2022","03","05","13:00"
"-121.24","61.76","FORT SIMPSON A","2202103","2022-03-05 14:00","2022","03","05","14:00","-6.0","","-11.9","","64","","","","15","","8","","24.1","","100.37","","","","-10","","Clear"
"-121.24","61.76","FORT SIMPSON A","2202103","2022-03-05 15:00","2022","03","05","15:00","-4.6","","-11.1","","61","","","","13","","8","","24.1","","100.34","","","","-8","","NA"
"-121.24","61.76","FORT SIMPSON A","2202103","2022-03-05 16:00","2022","03","05","16:00","-4.1","","-10.7","","60","","","","14","","7","","24.1","","100.33","","","","-7","","NA"
"-121.24","61.76","FORT SIMPSON A","2202103","2022-03-05 17:00","2022","03","05","17:00","-3.7","","-10.7","","59","","","","11","","8","","24.1","","100.32","","","","-7","","Clear"
"-121.24","61.76","FORT SIMPSON A","2202103","2022-03-05 18:00","2022","03","05","18:00","-4.7","","-10.6","","64","","","","12","","7","","24.1","","100.26","","","","-8","","NA"
"-121.24","61.76","FORT SIMPSON A","2202103","2022-03-05 19:00","2022","03","05","19:00","-6.7","","-11.5","","69","","","","12","","5","","24.1","","100.28","","","","-9","","NA"
"-121.24","61.76","FORT SIMPSON A","2202103","2022-03-05 20:00","2022","03","05","20:00","-7.4","","-11.3","","74","","","","12","","7","","24.1","","100.25","","","","-11","","Clear"
"-121.24","61.76","FORT SIMPSON A","2202103","2022-03-05 21:00","2022","03","05","21:00","-8.3","","-12.1","","74","","","","13","","10","","24.1","","100.21","","","","-13","","NA"
"-121.24","61.76","FORT SIMPSON A","2202103","2022-03-05 22:00","2022","03","05","22:00","-9.6","","-12.6","","79","","","","12","","4","","24.1","","100.16","","","","-12","","NA"
"-121.24","61.76","FORT SIMPSON A","2202103","2022-03-05 23:00","2022","03","05","23:00","-10.1","","-12.7","","82","","","","12","","5","","24.1","","100.12","","","","-13","","Clear"
"-121.24","61.76","FORT SIMPSON A","2202103","2022-03-06 00:00","2022","03","06","00:00","-11.0","","-13.3","","83","","","","9","","6","","24.1","","100.08","","","","-15","","NA"
"-121.24","61.76","FORT SIMPSON A","2202103","2022-03-06 01:00","2022","03","06","01:00","-11.8","","-13.6","","87","","","","12","","5","","24.1","","100.01","","","","-15","","NA"
"-121.24","61.76","FORT SIMPSON A","2202103","2022-03-06 02:00","2022","03","06","02:00","-12.2","","-14.1","","86","","","","12","","8","","24.1","","99.92","","","","-17","","Clear"
"-121.24","61.76","FORT SIMPSON A","2202103","2022-03-06 03:00","2022","03","06","03:00","-12.3","","-14.0","","87","","","","12","","7","","24.1","","99.82","","","","-17","","NA"
"-121.24","61.76","FORT SIMPSON A","2202103","2022-03-06 04:00","2022","03","06","04:00"
"-121.24","61.76","FORT SIMPSON A","2202103","2022-03-06 05:00","2022","03","06","05:00"
"-121.24","61.76","FORT SIMPSON A","2202103","2022-03-06 06:00","2022","03","06","06:00","-13.7","","-15.3","","88","","","","11","","5","","24.1","","99.54","","","","-17","","NA"
"-121.24","61.76","FORT SIMPSON A","2202103","2022-03-06 07:00","2022","03","06","07:00","-13.7","","-15.3","","88","","","","13","","13","","24.1","","99.41","","","","-21","","NA"
"-121.24","61.76","FORT SIMPSON A","2202103","2022-03-06 08:00","2022","03","06","08:00","-13.4","","-15.3","","86","","","","12","","10","","24.1","","99.25","","","","-19","","Mainly Clear"
"-121.24","61.76","FORT SIMPSON A","2202103","2022-03-06 09:00","2022","03","06","09:00","-13.4","","-15.3","","85","","","","12","","8","","24.1","","99.17","","","","-18","","NA"
"-121.24","61.76","FORT SIMPSON A","2202103","2022-03-06 10:00","2022","03","06","10:00","-12.0","","-14.0","","85","","","","11","","8","","24.1","","99.09","","","","-17","","NA"
"-121.24","61.76","FORT SIMPSON A","2202103","2022-03-06 11:00","2022","03","06","11:00","-10.4","","-12.5","","84","","","","12","","8","","24.1","","98.96","","","","-15","","Mostly Cloudy"
"-121.24","61.76","FORT SIMPSON A","2202103","2022-03-06 12:00","2022","03","06","12:00","-9.2","","-11.6","","82","","","","14","","9","","24.1","","98.83","","","","-14","","NA"
"-121.24","61.76","FORT SIMPSON A","2202103","2022-03-06 13:00","2022","03","06","13:00","-6.3","","-10.2","","75","","","","36","","2","","24.1","","98.75","","","","-7","","NA"
"-121.24","61.76","FORT SIMPSON A","2202103","2022-03-06 14:00","2022","03","06","14:00","-4.6","","-8.8","","73","","","","14","","4","","24.1","","98.71","","","","-6","","Mainly Clear"
"-121.24","61.76","FORT SIMPSON A","2202103","2022-03-06 15:00","2022","03","06","15:00","-3.9","","-7.9","","74","","","","36","","3","","24.1","","98.66","","","","-5","","NA"
"-121.24","61.76","FORT SIMPSON A","2202103","2022-03-06 16:00","2022","03","06","16:00","-4.0","","-7.6","","76","","","","33","","17","","24.1","","98.78","","","","-10","","NA"
"-121.24","61.76","FORT SIMPSON A","2202103","2022-03-06 17:00","2022","03","06","17:00","-4.2","","-7.2","","80","","","","33","","22","","4.8","","98.87","","","","-11","","Snow"
"-121.24","61.76","FORT SIMPSON A","2202103","2022-03-06 18:00","2022","03","06","18:00","-5.2","","-6.5","","90","","","","33","","27","","1.2","","99.03","","","","-13","","Snow,Blowing Snow"
"-121.24","61.76","FORT SIMPSON A","2202103","2022-03-06 19:00","2022","03","06","19:00","-4.8","","-6.5","","88","","","","33","","34","","24.1","","99.19","","","","-13","","Snow,Blowing Snow"
"-121.24","61.76","FORT SIMPSON A","2202103","2022-03-06 20:00","2022","03","06","20:00","-4.4","","-6.4","","86","","","","32","","30","","24.1","","99.39","","","","-12","","Snow,Blowing Snow"
"-121.24","61.76","FORT SIMPSON A","2202103","2022-03-06 21:00","2022","03","06","21:00","-5.5","","-8.6","","79","","","","33","","32","","19.3","","99.63","","","","-14","","Snow,Blowing Snow"
"-121.24","61.76","FORT SIMPSON A","2202103","2022-03-06 22:00","2022","03","06","22:00","-5.3","","-7.4","","85","","","","33","","31","","16.1","","99.81","","","","-14","","Snow,Blowing Snow"
"-121.24","61.76","FORT SIMPSON A","2202103","2022-03-06 23:00","2022","03","06","23:00","-4.5","","-6.2","","88","","","","33","","27","","16.1","","100.03","","","","-12","","Snow,Blowing Snow"
"-121.24","61.76","FORT SIMPSON A","2202103","2022-03-07 00:00","2022","03","07","00:00","-3.6","","-5.4","","87","","","","33","","32","","4.8","","100.25","","","","-11","","Snow,Blowing Snow"
"-121.24","61.76","FORT SIMPSON A","2202103","2022-03-07 01:00","2022","03","07","01:00","-3.7","","-7.2","","77","","","","33","","31","","24.1","","100.44","","","","-11","","Snow,Blowing Snow"
"-121.24","61.76","FORT SIMPSON A","2202103","2022-03-07 02:00","2022","03","07","02:00","-3.9","","-8.8","","69","","","","33","","25","","24.1","","100.59","","","","-11","","Snow,Blowing Snow"
"-121.24","61.76","FORT SIMPSON A","2202103","2022-03-07 03:00","2022","03","07","03:00","-4.3","","-7.5","","78","","","","34","","28","","24.1","","100.77","","","","-12","","Snow,Blowing Snow"
"-121.24","61.76","FORT SIMPSON A","2202103","2022-03-07 04:00","2022","03","07","04:00","-4.8","","-9.4","","70","","","","34","","33","","24.1","","100.88","","","","-13","","Snow,Blowing Snow"
"-121.24","61.76","FORT SIMPSON A","2202103","2022-03-07 05:00","2022","03","07","05:00","-5.3","","-9.6","","72","","","","34","","48","","4.8","","101.01","","","","-15","","Snow,Blowing Snow"
"-121.24","61.76","FORT SIMPSON A","2202103","2022-03-07 06:00","2022","03","07","06:00","-6.2","","-10.8","","70","","","","34","","41","","24.1","","101.21","","","","-16","","Snow,Blowing Snow"
"-121.24","61.76","FORT SIMPSON A","2202103","2022-03-07 07:00","2022","03","07","07:00","-6.9","","-11.6","","70","","","","34","","32","","24.1","","101.35","","","","-16","","Snow,Blowing Snow"
"-121.24","61.76","FORT SIMPSON A","2202103","2022-03-07 08:00","2022","03","07","08:00","-6.9","","-11.9","","68","","","","34","","25","","24.1","","101.49","","","","-15","","Snow,Blowing Snow"
"-121.24","61.76","FORT SIMPSON A","2202103","2022-03-07 09:00","2022","03","07","09:00","-9.2","","-12.6","","77","","","","32","","14","","24.1","","101.59","","","","-16","","NA"
"-121.24","61.76","FORT SIMPSON A","2202103","2022-03-07 10:00","2022","03","07","10:00","-7.1","","-11.5","","71","","","","26","","10","","24.1","","101.63","","","","-12","","NA"
"-121.24","61.76","FORT SIMPSON A","2202103","2022-03-07 11:00","2022","03","07","11:00","-5.2","","-11.0","","64","","","","28","","18","","24.1","","101.64","","","","-11","","Mainly Clear"
"-121.24","61.76","FORT SIMPSON A","2202103","2022-03-07 12:00","2022","03","07","12:00","-3.8","","-10.6","","59","","","","31","","28","","24.1","","101.67","","","","-11","","Blowing Snow"
"-121.24","61.76","FORT SIMPSON A","2202103","2022-03-07 13:00","2022","03","07","13:00","-3.7","","-10.7","","59","","","","33","","34","","24.1","","101.73","","","","-12","","Blowing Snow"
"-121.24","61.76","FORT SIMPSON A","2202103","2022-03-07 14:00","2022","03","07","14:00","-3.7","","-11.1","","57","","","","33","","28","","24.1","","101.78","","","","-11","","Blowing Snow"
"-121.24","61.76","FORT SIMPSON A","2202103","2022-03-07 15:00","2022","03","07","15:00","-3.8","","-11.6","","55","","","","34","","32","","24.1","","101.81","","","","-12","","Blowing Snow"
"-121.24","61.76","FORT SIMPSON A","2202103","2022-03-07 16:00","2022","03","07","16:00","-4.1","","-12.2","","54","","","","33","","31","","24.1","","101.81","","","","-12","","Blowing Snow"
"-121.24","61.76","FORT SIMPSON A","2202103","2022-03-07 17:00","2022","03","07","17:00","-5.0","","-13.3","","52","","","","34","","30","","24.1","","101.86","","","","-13","","Blowing Snow"
"-121.24","61.76","FORT SIMPSON A","2202103","2022-03-07 18:00","2022","03","07","18:00","-6.6","","-13.5","","59","","","","31","","17","","24.1","","101.86","","","","-13","","Blowing Snow"
"-121.24","61.76","FORT SIMPSON A","2202103","2022-03-07 19:00","2022","03","07","19:00","-7.0","","-14.5","","56","","","","34","","41","","24.1","","101.86","","","","-17","","Blowing Snow"
"-121.24","61.76","FORT SIMPSON A","2202103","2022-03-07 20:00","2022","03","07","20:00","-8.9","","-16.0","","57","","","","34","","16","","24.1","","101.90","","","","-16","","Blowing Snow"
"-121.24","61.76","FORT SIMPSON A","2202103","2022-03-07 21:00","2022","03","07","21:00","-11.2","","-17.0","","63","","","","33","","13","","24.1","","101.92","","","","-18","","NA"
"-121.24","61.76","FORT SIMPSON A","2202103","2022-03-07 22:00","2022","03","07","22:00","-11.6","","-16.7","","66","","","","36","","3","","24.1","","101.92","","","","-13","","NA"
"-121.24","61.76","FORT SIMPSON A","2202103","2022-03-07 23:00","2022","03","07","23:00","-14.6","","-17.8","","77","","","","26","","7","","24.1","","101.92","","","","-19","","Mainly Clear"
"-121.24","61.76","FORT SIMPSON A","2202103","2022-03-08 00:00","2022","03","08","00:00","-15.3","","-17.8","","81","","","","31","","7","","24.1","","101.94","","","","-20","","NA"
"-121.24","61.76","FORT SIMPSON A","2202103","2022-03-08 01:00","2022","03","08","01:00","-12.7","","-16.4","","74","","","","36","","8","","24.1","","101.97","","","","-18","","NA"
"-121.24","61.76","FORT SIMPSON A","2202103","2022-03-08 02:00","2022","03","08","02:00","-12.7","","-16.6","","73","","","","35","","9","","24.1","","102.01","","","","-18","","Cloudy"
"-121.24","61.76","FORT SIMPSON A","2202103","2022-03-08 03:00","2022","03","08","03:00","-13.5","","-16.6","","78","","","","36","","10","","9.7","","102.09","","","","-19","","Snow"
"-121.24","61.76","FORT SIMPSON A","2202103","2022-03-08 04:00","2022","03","08","04:00","-14.4","","-17.4","","78","","","","36","","11","","24.1","","102.14","","","","-21","","Snow"
"-121.24","61.76","FORT SIMPSON A","2202103","2022-03-08 05:00","2022","03","08","05:00","-14.7","","-17.6","","79","","","","36","","7","","16.1","","102.17","","","","-19","","Snow"
"-121.24","61.76","FORT SIMPSON A","2202103","2022-03-08 06:00","2022","03","08","06:00","-16.1","","-18.6","","81","","","","35","","4","","24.1","","102.20","","","","-19","","Snow"
"-121.24","61.76","FORT SIMPSON A","2202103","2022-03-08 07:00","2022","03","08","07:00","-16.2","","-18.5","","83","","","","26","","9","","24.1","","102.19","","","","-22","","Snow"
"-121.24","61.76","FORT SIMPSON A","2202103","2022-03-08 08:00","2022","03","08","08:00","-16.9","","-18.9","","84","","","","32","","5","","4.8","","102.22","","","","-21","","Snow"
"-121.24","61.76","FORT SIMPSON A","2202103","2022-03-08 09:00","2022","03","08","09:00","-16.4","","-18.8","","82","","","","32","","8","","24.1","","102.21","","","","-22","","NA"
"-121.24","61.76","FORT SIMPSON A","2202103","2022-03-08 10:00","2022","03","08","10:00","-14.8","","-18.3","","75","","","","32","","15","","9.7","","102.21","","","","-23","","Snow"
"-121.24","61.76","FORT SIMPSON A","2202103","2022-03-08 11:00","2022","03","08","11:00","-14.1","","-18.0","","73","","","","33","","16","","24.1","","102.21","","","","-22","","Snow"
"-121.24","61.76","FORT SIMPSON A","2202103","2022-03-08 12:00","2022","03","08","12:00","-13.5","","-18.2","","68","","","","34","","14","","24.1","","102.22","","","","-21","","Snow"
"-121.24","61.76","FORT SIMPSON A","2202103","2022-03-08 13:00","2022","03","08","13:00","-13.6","","-19.0","","64","","","","33","","17","","24.1","","102.22","","","","-22","","Snow"
"-121.24","61.76","FORT SIMPSON A","2202103","2022-03-08 14:00","2022","03","08","14:00","-13.1","","-19.4","","60","","","","35","","11","","24.1","","102.16","","","","-19","","Snow"
"-121.24","61.76","FORT SIMPSON A","2202103","2022-03-08 15:00","2022","03","08","15:00","-12.6","","-19.3","","58","","","","33","","12","","24.1","","102.10","","","","-19","","NA"
"-121.24","61.76","FORT SIMPSON A","2202103","2022-03-08 16:00","2022","03","08","16:00","-12.2","","-18.9","","58","","","","33","","8","","24.1","","102.03","","","","-17","","NA"
"-121.24","61.76","FORT SIMPSON A","2202103","2022-03-08 17:00","2022","03","08","17:00","-12.5","","-18.8","","60","","","","33","","9","","24.1","","101.94","","","","-18","","Mainly Clear"
"-121.24","61.76","FORT SIMPSON A","2202103","2022-03-08 18:00","2022","03","08","18:00","-13.8","","-19.4","","63","","","","33","","4","","24.1","","101.83","","","","-17","","NA"
"-121.24","61.76","FORT SIMPSON A","2202103","2022-03-08 19:00","2022","03","08","19:00","-15.3","","-19.7","","69","","","","36","","1","","24.1","","101.73","","","","-16","","NA"
"-121.24","61.76","FORT SIMPSON A","2202103","2022-03-08 20:00","2022","03","08","20:00","-18.8","","-21.9","","77","","","","5","","3","","24.1","","101.61","","","","-21","","Clear"
"-121.24","61.76","FORT SIMPSON A","2202103","2022-03-08 21:00","2022","03","08","21:00","-19.9","","-22.7","","79","","","","36","","2","","24.1","","101.52","","","","-22","","NA"
"-121.24","61.76","FORT SIMPSON A","2202103","2022-03-08 22:00","2022","03","08","22:00","-20.9","","-23.7","","79","","","","13","","5","","24.1","","101.42","","","","-25","","NA"
"-121.24","61.76","FORT SIMPSON A","2202103","2022-03-08 23:00","2022","03","08","23:00","-22.3","","-25.1","","78","","","","12","","4","","24.1","","101.27","","","","-26","","Clear"
"-121.24","61.76","FORT SIMPSON A","2202103","2022-03-09 00:00","2022","03","09","00:00","-22.8","","-25.5","","80","","","","11","","4","","24.1","","101.16","","","","-27","","NA"
"-121.24","61.76","FORT SIMPSON A","2202103","2022-03-09 01:00","2022","03","09","01:00","-23.6","","-26.4","","78","","","","14","","5","","24.1","","101.02","","","","-28","","NA"
"-121.24","61.76","FORT SIMPSON A","2202103","2022-03-09 02:00","2022","03","09","02:00","-23.0","","-25.7","","79","","","","12","","5","","24.1","","100.87","","","","-28","","Clear"
"-121.24","61.76","FORT SIMPSON A","2202103","2022-03-09 03:00","2022","03","09","03:00","-23.2","","-25.7","","81","","","","14","","5","","24.1","","100.73","","","","-28","","NA"
"-121.24","61.76","FORT SIMPSON A","2202103","2022-03-09 04:00","2022","03","09","04:00","-23.2","","-25.7","","81","","","","36","","3","","24.1","","100.60","","","","-26","","NA"
"-121.24","61.76","FORT SIMPSON A","2202103","2022-03-09 05:00","2022","03","09","05:00","-22.3","","-24.5","","83","","","","11","","5","","24.1","","100.45","","","","-27","","Clear"
"-121.24","61.76","FORT SIMPSON A","2202103","2022-03-09 06:00","2022","03","09","06:00","-22.7","","-25.1","","81","","","","12","","4","","24.1","","100.31","","","","-26","","NA"
"-121.24","61.76","FORT SIMPSON A","2202103","2022-03-09 07:00","2022","03","09","07:00","-22.8","","-25.3","","80","","","","13","","5","","24.1","","100.18","","","","-27","","NA"
"-121.24","61.76","FORT SIMPSON A","2202103","2022-03-09 08:00","2022","03","09","08:00","-23.1","","-25.6","","80","","","","14","","3","","24.1","","100.06","","","","-26","","Cloudy"
"-121.24","61.76","FORT SIMPSON A","2202103","2022-03-09 09:00","2022","03","09","09:00","-22.3","","-24.6","","82","","","","10","","4","","24.1","","99.96","","","","-26","","NA"
"-121.24","61.76","FORT SIMPSON A","2202103","2022-03-09 10:00","2022","03","09","10:00","-21.4","","-23.8","","81","","","","36","","1","","24.1","","99.86","","","","-22","","NA"
"-121.24","61.76","FORT SIMPSON A","2202103","2022-03-09 11:00","2022","03","09","11:00","-20.1","","-22.6","","81","","","","5","","3","","24.1","","99.84","","","","-23","","Mostly Cloudy"
"-121.24","61.76","FORT SIMPSON A","2202103","2022-03-09 12:00","2022","03","09","12:00","-17.8","","-20.2","","82","","","","33","","12","","24.1","","99.89","","","","-25","","NA"
"-121.24","61.76","FORT SIMPSON A","2202103","2022-03-09 13:00","2022","03","09","13:00","-12.1","","-18.2","","61","","","","34","","20","","24.1","","99.86","","","","-21","","NA"
"-121.24","61.76","FORT SIMPSON A","2202103","2022-03-09 14:00","2022","03","09","14:00","-10.0","","-17.0","","57","","","","32","","25","","24.1","","99.87","","","","-19","","Mostly Cloudy"
"-121.24","61.76","FORT SIMPSON A","2202103","2022-03-09 15:00","2022","03","09","15:00","-9.0","","-16.4","","56","","","","34","","25","","24.1","","99.89","","","","-17","","NA"
"-121.24","61.76","FORT SIMPSON A","2202103","2022-03-09 16:00","2022","03","09","16:00","-8.9","","-15.8","","58","","","","33","","22","","24.1","","99.98","","","","-17","","Blowing Snow"
"-121.24","61.76","FORT SIMPSON A","2202103","2022-03-09 17:00","2022","03","09","17:00","-8.8","","-16.1","","56","","","","33","","30","","24.1","","100.05","","","","-18","","Blowing Snow"
"-121.24","61.76","FORT SIMPSON A","2202103","2022-03-09 18:00","2022","03","09","18:00","-10.1","","-18.0","","53","","","","34","","21","","24.1","","100.18","","","","-18","","Blowing Snow"
"-121.24","61.76","FORT SIMPSON A","2202103","2022-03-09 19:00","2022","03","09","19:00","-12.2","","-19.0","","57","","","","36","","19","","24.1","","100.31","","","","-20","","NA"
"-121.24","61.76","FORT SIMPSON A","2202103","2022-03-09 20:00","2022","03","09","20:00","-14.8","","-21.7","","56","","","","36","","21","","24.1","","100.50","","","","-24","","Mainly Clear"
"-121.24","61.76","FORT SIMPSON A","2202103","2022-03-09 21:00","2022","03","09","21:00","-17.0","","-23.5","","58","","","","1","","16","","24.1","","100.68","","","","-26","","NA"
"-121.24","61.76","FORT SIMPSON A","2202103","2022-03-09 22:00","2022","03","09","22:00","-18.6","","-24.2","","62","","","","35","","18","","24.1","","100.80","","","","-28","","NA"
"-121.24","61.76","FORT SIMPSON A","2202103","2022-03-09 23:00","2022","03","09","23:00","-20.1","","-25.6","","62","","","","33","","16","","24.1","","100.90","","","","-30","","Clear"
"-121.24","61.76","FORT SIMPSON A","2202103","2022-03-10 00:00","2022","03","10","00:00","-21.0","","-25.9","","65","","","","35","","14","","24.1","","100.96","","","","-30","","NA"
"-121.24","61.76","FORT SIMPSON A","2202103","2022-03-10 01:00","2022","03","10","01:00","-23.0","","-27.4","","68","","","","32","","8","","24.1","","101.03","","","","-30","","NA"
"-121.24","61.76","FORT SIMPSON A","2202103","2022-03-10 02:00","2022","03","10","02:00","-24.7","","-28.9","","69","","","","33","","7","","24.1","","101.06","","","","-31","","Clear"
"-121.24","61.76","FORT SIMPSON A","2202103","2022-03-10 03:00","2022","03","10","03:00","-26.0","","-29.2","","75","","","","32","","4","","24.1","","101.06","","","","-30","","NA"
"-121.24","61.76","FORT SIMPSON A","2202103","2022-03-10 04:00","2022","03","10","04:00","-27.3","","-30.2","","77","","","","29","","3","","24.1","","101.06","","","","-30","","NA"
"-121.24","61.76","FORT SIMPSON A","2202103","2022-03-10 05:00","2022","03","10","05:00"
"-121.24","61.76","FORT SIMPSON A","2202103","2022-03-10 06:00","2022","03","10","06:00","-29.0","","-32.2","","74","","","","36","","2","","24.1","","101.07","","","","-31","","NA"
"-121.24","61.76","FORT SIMPSON A","2202103","2022-03-10 07:00","2022","03","10","07:00","-29.9","","-33.2","","74","","","","23","","3","","24.1","","101.06","","","","-33","","NA"
"-121.24","61.76","FORT SIMPSON A","2202103","2022-03-10 08:00","2022","03","10","08:00","-30.9","","-34.3","","73","","","","36","","1","","24.1","","101.05","","","","-32","","Mainly Clear"
"-121.24","61.76","FORT SIMPSON A","2202103","2022-03-10 09:00","2022","03","10","09:00","-29.4","","-32.4","","76","","","","7","","3","","24.1","","101.01","","","","-33","","NA"
"-121.24","61.76","FORT SIMPSON A","2202103","2022-03-10 10:00","2022","03","10","10:00","-24.8","","-28.6","","71","","","","15","","4","","24.1","","100.98","","","","-29","","NA"
"-121.24","61.76","FORT SIMPSON A","2202103","2022-03-10 11:00","2022","03","10","11:00"
"-121.24","61.76","FORT SIMPSON A","2202103","2022-03-10 12:00","2022","03","10","12:00","-18.8","","-24.8","","60","","","","15","","8","","24.1","","100.95","","","","-25","","NA"
"-121.24","61.76","FORT SIMPSON A","2202103","2022-03-10 13:00","2022","03","10","13:00","-17.0","","-23.0","","60","","","","16","","6","","24.1","","100.86","","","","-22","","NA"
"-121.24","61.76","FORT SIMPSON A","2202103","2022-03-10 14:00","2022","03","10","14:00","-15.9","","-21.7","","62","","","","16","","8","","24.1","","100.80","","","","-21","","Mostly Cloudy"
"-121.24","61.76","FORT SIMPSON A","2202103","2022-03-10 15:00","2022","03","10","15:00","-15.2","","-22.2","","56","","","","17","","4","","24.1","","100.74","","","","-18","","NA"
"-121.24","61.76","FORT SIMPSON A","2202103","2022-03-10 16:00","2022","03","10","16:00","-14.9","","-21.8","","56","","","","17","","6","","24.1","","100.70","","","","-19","","NA"
"-121.24","61.76","FORT SIMPSON A","2202103","2022-03-10 17:00","2022","03","10","17:00","-14.6","","-22.1","","53","","","","13","","5","","24.1","","100.61","","","","-18","","Mostly Cloudy"
"-121.24","61.76","FORT SIMPSON A","2202103","2022-03-10 18:00","2022","03","10","18:00","-15.0","","-22.6","","53","","","","13","","5","","24.1","","100.49","","","","-19","","NA"
"-121.24","61.76","FORT SIMPSON A","2202103","2022-03-10 19:00","2022","03","10","19:00","-15.8","","-22.5","","57","","","","13","","5","","24.1","","100.42","","","","-20","","NA"
"-121.24","61.76","FORT SIMPSON A","2202103","2022-03-10 20:00","2022","03","10","20:00","-16.2","","-23.2","","56","","","","13","","9","","24.1","","100.35","","","","-22","","Mostly Cloudy"
"-121.24","61.76","FORT SIMPSON A","2202103","2022-03-10 21:00","2022","03","10","21:00","-16.3","","-23.4","","55","","","","12","","7","","24.1","","100.31","","","","-21","","NA"
"-121.24","61.76","FORT SIMPSON A","2202103","2022-03-10 22:00","2022","03","10","22:00","-16.4","","-23.4","","55","","","","11","","5","","24.1","","100.23","","","","-20","","NA"
"-121.24","61.76","FORT SIMPSON A","2202103","2022-03-10 23:00","2022","03","10","23:00","-16.5","","-23.7","","55","","","","9","","8","","24.1","","100.15","","","","-22","","Cloudy"
"-121.24","61.76","FORT SIMPSON A","2202103","2022-03-11 00:00","2022","03","11","00:00","-16.4","","-23.6","","54","","","","10","","5","","24.1","","100.08","","","","-20","","NA"
"-121.24","61.76","FORT SIMPSON A","2202103","2022-03-11 01:00","2022","03","11","01:00","-16.3","","-23.6","","54","","","","10","","3","","24.1","","100.01","","","","-19","","Snow"
"-121.24","61.76","FORT SIMPSON A","2202103","2022-03-11 02:00","2022","03","11","02:00","-16.4","","-23.3","","56","","","","9","","5","","19.3","","99.89","","","","-20","","Snow"
"-121.24","61.76","FORT SIMPSON A","2202103","2022-03-11 03:00","2022","03","11","03:00","-17.1","","-20.3","","76","","","","10","","7","","19.3","","99.82","","","","-22","","Snow"
"-121.24","61.76","FORT SIMPSON A","2202103","2022-03-11 04:00","2022","03","11","04:00","-17.4","","-20.4","","77","","","","8","","10","","16.1","","99.73","","","","-24","","Snow"
"-121.24","61.76","FORT SIMPSON A","2202103","2022-03-11 05:00","2022","03","11","05:00","-17.4","","-20.2","","79","","","","10","","5","","9.7","","99.65","","","","-21","","Snow"
"-121.24","61.76","FORT SIMPSON A","2202103","2022-03-11 06:00","2022","03","11","06:00","-17.4","","-20.2","","79","","","","7","","8","","4.8","","99.56","","","","-23","","Snow"
"-121.24","61.76","FORT SIMPSON A","2202103","2022-03-11 07:00","2022","03","11","07:00","-17.5","","-20.2","","79","","","","36","","3","","4.8","","99.51","","","","-20","","Snow"
"-121.24","61.76","FORT SIMPSON A","2202103","2022-03-11 08:00","2022","03","11","08:00"
"-121.24","61.76","FORT SIMPSON A","2202103","2022-03-11 09:00","2022","03","11","09:00"
"-121.24","61.76","FORT SIMPSON A","2202103","2022-03-11 10:00","2022","03","11","10:00"
"-121.24","61.76","FORT SIMPSON A","2202103","2022-03-11 11:00","2022","03","11","11:00"
"-121.24","61.76","FORT SIMPSON A","2202103","2022-03-11 12:00","2022","03","11","12:00"
"-121.24","61.76","FORT SIMPSON A","2202103","2022-03-11 13:00","2022","03","11","13:00"
"-121.24","61.76","FORT SIMPSON A","2202103","2022-03-11 14:00","2022","03","11","14:00"
"-121.24","61.76","FORT SIMPSON A","2202103","2022-03-11 15:00","2022","03","11","15:00"
"-121.24","61.76","FORT SIMPSON A","2202103","2022-03-11 16:00","2022","03","11","16:00"
"-121.24","61.76","FORT SIMPSON A","2202103","2022-03-11 17:00","2022","03","11","17:00"
"-121.24","61.76","FORT SIMPSON A","2202103","2022-03-11 18:00","2022","03","11","18:00","-16.4","","-19.7","","76","","","","33","","22","","4.8","","98.90","","","","-26","","Snow"
"-121.24","61.76","FORT SIMPSON A","2202103","2022-03-11 19:00","2022","03","11","19:00","-16.9","","-20.3","","76","","","","34","","18","","4.8","","98.88","","","","-26","","Snow"
"-121.24","61.76","FORT SIMPSON A","2202103","2022-03-11 20:00","2022","03","11","20:00","-17.3","","-20.3","","77","","","","34","","16","","6.4","","98.87","","","","-26","","Snow"
"-121.24","61.76","FORT SIMPSON A","2202103","2022-03-11 21:00","2022","03","11","21:00","-17.5","","-20.6","","77","","","","34","","21","","6.4","","98.86","","","","-28","","Snow"
"-121.24","61.76","FORT SIMPSON A","2202103","2022-03-11 22:00","2022","03","11","22:00","-17.6","","-20.8","","77","","","","34","","20","","9.7","","98.89","","","","-27","","Snow"
"-121.24","61.76","FORT SIMPSON A","2202103","2022-03-11 23:00","2022","03","11","23:00","-17.6","","-20.4","","79","","","","34","","21","","9.7","","98.95","","","","-28","","Snow"
"-121.24","61.76","FORT SIMPSON A","2202103","2022-03-12 00:00","2022","03","12","00:00","-18.1","","-21.2","","76","","","","34","","23","","16.1","","99.01","","","","-29","","Snow,Blowing Snow"
"-121.24","61.76","FORT SIMPSON A","2202103","2022-03-12 01:00","2022","03","12","01:00","-19.1","","-22.2","","77","","","","33","","23","","16.1","","99.09","","","","-30","","NA"
"-121.24","61.76","FORT SIMPSON A","2202103","2022-03-12 02:00","2022","03","12","02:00","-20.1","","-23.4","","75","","","","33","","24","","19.3","","99.18","","","","-32","","Mostly Cloudy"
"-121.24","61.76","FORT SIMPSON A","2202103","2022-03-12 03:00","2022","03","12","03:00","-20.1","","-23.5","","75","","","","33","","26","","24.1","","99.26","","","","-32","","Snow"
"-121.24","61.76","FORT SIMPSON A","2202103","2022-03-12 04:00","2022","03","12","04:00","-20.2","","-23.4","","76","","","","34","","24","","19.3","","99.33","","","","-32","","Snow"
"-121.24","61.76","FORT SIMPSON A","2202103","2022-03-12 05:00","2022","03","12","05:00","-20.9","","-24.3","","74","","","","34","","25","","9.7","","99.41","","","","-33","","Snow,Blowing Snow"
"-121.24","61.76","FORT SIMPSON A","2202103","2022-03-12 06:00","2022","03","12","06:00","-21.7","","-25.3","","73","","","","34","","19","","24.1","","99.50","","","","-32","","Snow"
"-121.24","61.76","FORT SIMPSON A","2202103","2022-03-12 07:00","2022","03","12","07:00","-22.3","","-26.1","","71","","","","33","","19","","24.1","","99.57","","","","-33","","Snow,Blowing Snow"
"-121.24","61.76","FORT SIMPSON A","2202103","2022-03-12 08:00","2022","03","12","08:00","-21.9","","-25.7","","72","","","","32","","21","","24.1","","99.65","","","","-33","","Snow,Blowing Snow"
"-121.24","61.76","FORT SIMPSON A","2202103","2022-03-12 09:00","2022","03","12","09:00","-21.5","","-25.4","","71","","","","33","","20","","24.1","","99.73","","","","-32","","Snow,Blowing Snow"
"-121.24","61.76","FORT SIMPSON A","2202103","2022-03-12 10:00","2022","03","12","10:00","-21.2","","-25.2","","70","","","","33","","20","","19.3","","99.80","","","","-32","","Snow,Blowing Snow"
"-121.24","61.76","FORT SIMPSON A","2202103","2022-03-12 11:00","2022","03","12","11:00","-20.5","","-24.9","","69","","","","32","","22","","9.7","","99.86","","","","-32","","Snow,Blowing Snow"
"-121.24","61.76","FORT SIMPSON A","2202103","2022-03-12 12:00","2022","03","12","12:00","-20.2","","-25.2","","65","","","","33","","17","","24.1","","99.90","","","","-30","","NA"
"-121.24","61.76","FORT SIMPSON A","2202103","2022-03-12 13:00","2022","03","12","13:00","-19.7","","-25.9","","59","","","","34","","21","","24.1","","99.92","","","","-30","","NA"
"-121.24","61.76","FORT SIMPSON A","2202103","2022-03-12 14:00","2022","03","12","14:00","-19.5","","-26.0","","57","","","","34","","22","","24.1","","99.94","","","","-30","","Mostly Cloudy"
"-121.24","61.76","FORT SIMPSON A","2202103","2022-03-12 15:00","2022","03","12","15:00","-18.8","","-25.4","","57","","","","33","","17","","24.1","","99.94","","","","-28","","NA"
"-121.24","61.76","FORT SIMPSON A","2202103","2022-03-12 16:00","2022","03","12","16:00","-18.9","","-25.4","","58","","","","34","","14","","24.1","","99.95","","","","-27","","NA"
"-121.24","61.76","FORT SIMPSON A","2202103","2022-03-12 17:00","2022","03","12","17:00","-18.9","","-24.9","","60","","","","33","","13","","24.1","","99.96","","","","-27","","Mostly Cloudy"
"-121.24","61.76","FORT SIMPSON A","2202103","2022-03-12 18:00","2022","03","12","18:00","-19.2","","-25.1","","60","","","","34","","15","","24.1","","99.98","","","","-28","","NA"
"-121.24","61.76","FORT SIMPSON A","2202103","2022-03-12 19:00","2022","03","12","19:00","-20.2","","-25.6","","63","","","","32","","10","","24.1","","100.02","","","","-27","","NA"
"-121.24","61.76","FORT SIMPSON A","2202103","2022-03-12 20:00","2022","03","12","20:00","-19.9","","-24.6","","67","","","","31","","12","","24.1","","100.03","","","","-28","","Mostly Cloudy"
"-121.24","61.76","FORT SIMPSON A","2202103","2022-03-12 21:00","2022","03","12","21:00","-21.8","","-26.4","","67","","","","31","","10","","24.1","","100.07","","","","-29","","NA"
"-121.24","61.76","FORT SIMPSON A","2202103","2022-03-12 22:00","2022","03","12","22:00","-21.1","","-26.0","","65","","","","30","","11","","24.1","","100.10","","","","-29","","NA"
"-121.24","61.76","FORT SIMPSON A","2202103","2022-03-12 23:00","2022","03","12","23:00","-21.0","","-26.2","","64","","","","31","","14","","24.1","","100.16","","","","-30","","Mostly Cloudy"
"-121.24","61.76","FORT SIMPSON A","2202103","2022-03-13 00:00","2022","03","13","00:00","-22.4","","-27.1","","67","","","","32","","15","","24.1","","100.21","","","","-32","","NA"
"-121.24","61.76","FORT SIMPSON A","2202103","2022-03-13 01:00","2022","03","13","01:00","-24.0","","-28.2","","69","","","","31","","9","","24.1","","100.26","","","","-31","","NA"
"-121.24","61.76","FORT SIMPSON A","2202103","2022-03-13 02:00","2022","03","13","02:00","-24.0","","-28.3","","68","","","","29","","10","","24.1","","100.32","","","","-32","","Mainly Clear"
"-121.24","61.76","FORT SIMPSON A","2202103","2022-03-13 03:00","2022","03","13","03:00","-26.1","","-29.6","","73","","","","33","","8","","24.1","","100.38","","","","-33","","NA"
"-121.24","61.76","FORT SIMPSON A","2202103","2022-03-13 04:00","2022","03","13","04:00","-26.4","","-29.4","","77","","","","33","","7","","24.1","","100.43","","","","-33","","NA"
"-121.24","61.76","FORT SIMPSON A","2202103","2022-03-13 05:00","2022","03","13","05:00","-25.9","","-28.9","","76","","","","32","","7","","24.1","","100.47","","","","-33","","Mainly Clear"
"-121.24","61.76","FORT SIMPSON A","2202103","2022-03-13 06:00","2022","03","13","06:00","-26.1","","-29.0","","77","","","","29","","12","","24.1","","100.47","","","","-35","","NA"
"-121.24","61.76","FORT SIMPSON A","2202103","2022-03-13 07:00","2022","03","13","07:00","-25.4","","-28.9","","73","","","","29","","13","","24.1","","100.47","","","","-35","","NA"
"-121.24","61.76","FORT SIMPSON A","2202103","2022-03-13 08:00","2022","03","13","08:00","-25.8","","-29.1","","74","","","","32","","7","","24.1","","100.48","","","","-32","","Clear"
"-121.24","61.76","FORT SIMPSON A","2202103","2022-03-13 09:00","2022","03","13","09:00","-23.5","","-27.7","","69","","","","30","","10","","24.1","","100.48","","","","-31","","NA"
"-121.24","61.76","FORT SIMPSON A","2202103","2022-03-13 10:00","2022","03","13","10:00","-21.4","","-26.9","","61","","","","32","","20","","24.1","","100.47","","","","-32","","NA"
"-121.24","61.76","FORT SIMPSON A","2202103","2022-03-13 11:00","2022","03","13","11:00","-19.9","","-26.6","","56","","","","29","","17","","24.1","","100.48","","","","-30","","Clear"
"-121.24","61.76","FORT SIMPSON A","2202103","2022-03-13 12:00","2022","03","13","12:00","-18.5","","-26.1","","52","","","","29","","17","","24.1","","100.48","","","","-28","","NA"
"-121.24","61.76","FORT SIMPSON A","2202103","2022-03-13 13:00","2022","03","13","13:00","-17.9","","-25.9","","50","","","","28","","16","","24.1","","100.47","","","","-27","","NA"
"-121.24","61.76","FORT SIMPSON A","2202103","2022-03-13 14:00","2022","03","13","14:00","-17.6","","-25.7","","50","","","","32","","12","","24.1","","100.45","","","","-25","","Clear"
"-121.24","61.76","FORT SIMPSON A","2202103","2022-03-13 15:00","2022","03","13","15:00","-17.0","","-25.5","","48","","","","34","","10","","24.1","","100.39","","","","-24","","NA"
"-121.24","61.76","FORT SIMPSON A","2202103","2022-03-13 16:00","2022","03","13","16:00","-16.6","","-24.6","","51","","","","33","","9","","24.1","","100.30","","","","-23","","NA"
"-121.24","61.76","FORT SIMPSON A","2202103","2022-03-13 17:00","2022","03","13","17:00","-16.7","","-25.2","","48","","","","31","","5","","24.1","","100.26","","","","-21","","Clear"
"-121.24","61.76","FORT SIMPSON A","2202103","2022-03-13 18:00","2022","03","13","18:00","-16.8","","-25.2","","49","","","","33","","3","","24.1","","100.18","","","","-19","","NA"
"-121.24","61.76","FORT SIMPSON A","2202103","2022-03-13 19:00","2022","03","13","19:00","-19.0","","-25.7","","56","","","","36","","1","","24.1","","100.11","","","","-20","","NA"
"-121.24","61.76","FORT SIMPSON A","2202103","2022-03-13 20:00","2022","03","13","20:00","-23.9","","-27.5","","73","","","","36","","3","","24.1","","100.04","","","","-27","","Clear"
"-121.24","61.76","FORT SIMPSON A","2202103","2022-03-13 21:00","2022","03","13","21:00","-24.6","","-28.2","","73","","","","36","","2","","24.1","","99.97","","","","-27","","NA"
"-121.24","61.76","FORT SIMPSON A","2202103","2022-03-13 22:00","2022","03","13","22:00","-26.7","","-29.8","","75","","","","36","","3","","24.1","","99.90","","","","-30","","NA"
"-121.24","61.76","FORT SIMPSON A","2202103","2022-03-13 23:00","2022","03","13","23:00"
"-121.24","61.76","FORT SIMPSON A","2202103","2022-03-14 00:00","2022","03","14","00:00","-25.2","","-28.2","","77","","","","13","","5","","24.1","","99.74","","","","-30","","NA"
"-121.24","61.76","FORT SIMPSON A","2202103","2022-03-14 01:00","2022","03","14","01:00","-24.3","","-27.4","","76","","","","15","","8","","24.1","","99.68","","","","-31","","NA"
"-121.24","61.76","FORT SIMPSON A","2202103","2022-03-14 02:00","2022","03","14","02:00","-25.2","","-28.1","","77","","","","13","","7","","24.1","","99.58","","","","-32","","Clear"
"-121.24","61.76","FORT SIMPSON A","2202103","2022-03-14 03:00","2022","03","14","03:00","-25.8","","-28.8","","76","","","","10","","5","","24.1","","99.48","","","","-31","","NA"
"-121.24","61.76","FORT SIMPSON A","2202103","2022-03-14 04:00","2022","03","14","04:00","-26.3","","-29.3","","76","","","","12","","6","","24.1","","99.37","","","","-32","","NA"
"-121.24","61.76","FORT SIMPSON A","2202103","2022-03-14 05:00","2022","03","14","05:00","-26.9","","-29.9","","76","","","","13","","10","","24.1","","99.30","","","","-35","","Clear"
"-121.24","61.76","FORT SIMPSON A","2202103","2022-03-14 06:00","2022","03","14","06:00","-27.0","","-30.1","","75","","","","12","","8","","24.1","","99.24","","","","-34","","NA"
"-121.24","61.76","FORT SIMPSON A","2202103","2022-03-14 07:00","2022","03","14","07:00","-27.1","","-30.2","","76","","","","12","","7","","24.1","","99.15","","","","-34","","NA"
"-121.24","61.76","FORT SIMPSON A","2202103","2022-03-14 08:00","2022","03","14","08:00","-27.1","","-30.3","","75","","","","12","","6","","24.1","","99.08","","","","-33","","Mostly Cloudy"
"-121.24","61.76","FORT SIMPSON A","2202103","2022-03-14 09:00","2022","03","14","09:00","-26.1","","-29.5","","74","","","","12","","7","","24.1","","99.00","","","","-33","","NA"
"-121.24","61.76","FORT SIMPSON A","2202103","2022-03-14 10:00","2022","03","14","10:00","-24.1","","-27.8","","72","","","","12","","6","","24.1","","98.98","","","","-30","","NA"
"-121.24","61.76","FORT SIMPSON A","2202103","2022-03-14 11:00","2022","03","14","11:00","-21.1","","-25.8","","66","","","","12","","4","","24.1","","98.93","","","","-25","","Mostly Cloudy"
"-121.24","61.76","FORT SIMPSON A","2202103","2022-03-14 12:00","2022","03","14","12:00","-18.4","","-24.5","","59","","","","10","","3","","24.1","","98.88","","","","-21","","NA"
"-121.24","61.76","FORT SIMPSON A","2202103","2022-03-14 13:00","2022","03","14","13:00","-16.5","","-23.4","","56","","","","13","","9","","24.1","","98.81","","","","-23","","NA"
"-121.24","61.76","FORT SIMPSON A","2202103","2022-03-14 14:00","2022","03","14","14:00","-15.1","","-22.8","","52","","","","6","","7","","24.1","","98.78","","","","-20","","Mostly Cloudy"
"-121.24","61.76","FORT SIMPSON A","2202103","2022-03-14 15:00","2022","03","14","15:00","-14.1","","-22.5","","50","","","","10","","8","","24.1","","98.74","","","","-19","","NA"
"-121.24","61.76","FORT SIMPSON A","2202103","2022-03-14 16:00","2022","03","14","16:00","-13.7","","-22.5","","48","","","","8","","12","","24.1","","98.73","","","","-20","","NA"
"-121.24","61.76","FORT SIMPSON A","2202103","2022-03-14 17:00","2022","03","14","17:00","-13.4","","-22.2","","48","","","","10","","6","","24.1","","98.73","","","","-17","","Mostly Cloudy"
"-121.24","61.76","FORT SIMPSON A","2202103","2022-03-14 18:00","2022","03","14","18:00","-13.6","","-22.1","","50","","","","10","","7","","24.1","","98.71","","","","-18","","NA"
"-121.24","61.76","FORT SIMPSON A","2202103","2022-03-14 19:00","2022","03","14","19:00","-14.6","","-21.9","","54","","","","11","","6","","24.1","","98.68","","","","-19","","NA"
"-121.24","61.76","FORT SIMPSON A","2202103","2022-03-14 20:00","2022","03","14","20:00","-15.7","","-22.5","","56","","","","9","","6","","24.1","","98.65","","","","-20","","Mostly Cloudy"
"-121.24","61.76","FORT SIMPSON A","2202103","2022-03-14 21:00","2022","03","14","21:00","-16.2","","-22.8","","58","","","","11","","7","","24.1","","98.61","","","","-21","","NA"
"-121.24","61.76","FORT SIMPSON A","2202103","2022-03-14 22:00","2022","03","14","22:00","-16.5","","-22.8","","59","","","","12","","6","","24.1","","98.59","","","","-21","","NA"
"-121.24","61.76","FORT SIMPSON A","2202103","2022-03-14 23:00","2022","03","14","23:00","-16.5","","-22.6","","60","","","","13","","7","","24.1","","98.59","","","","-22","","Mostly Cloudy"
"-121.24","61.76","FORT SIMPSON A","2202103","2022-03-15 00:00","2022","03","15","00:00","-16.5","","-22.6","","60","","","","13","","7","","24.1","","98.57","","","","-22","","NA"
"-121.24","61.76","FORT SIMPSON A","2202103","2022-03-15 01:00","2022","03","15","01:00","-16.9","","-22.8","","61","","","","12","","8","","24.1","","98.53","","","","-23","","NA"
"-121.24","61.76","FORT SIMPSON A","2202103","2022-03-15 02:00","2022","03","15","02:00","-17.3","","-22.9","","62","","","","12","","8","","24.1","","98.52","","","","-23","","Cloudy"
"-121.24","61.76","FORT SIMPSON A","2202103","2022-03-15 03:00","2022","03","15","03:00","-17.3","","-22.6","","64","","","","8","","8","","24.1","","98.43","","","","-23","","NA"
"-121.24","61.76","FORT SIMPSON A","2202103","2022-03-15 04:00","2022","03","15","04:00","-17.6","","-22.6","","65","","","","13","","8","","24.1","","98.42","","","","-23","","NA"
"-121.24","61.76","FORT SIMPSON A","2202103","2022-03-15 05:00","2022","03","15","05:00","-17.7","","-22.8","","65","","","","13","","9","","24.1","","98.41","","","","-24","","Cloudy"
"-121.24","61.76","FORT SIMPSON A","2202103","2022-03-15 06:00","2022","03","15","06:00","-17.6","","-22.6","","66","","","","12","","8","","24.1","","98.43","","","","-23","","NA"
"-121.24","61.76","FORT SIMPSON A","2202103","2022-03-15 07:00","2022","03","15","07:00","-18.1","","-22.6","","69","","","","12","","8","","24.1","","98.41","","","","-24","","NA"
"-121.24","61.76","FORT SIMPSON A","2202103","2022-03-15 08:00","2022","03","15","08:00","-18.7","","-22.8","","71","","","","12","","5","","24.1","","98.42","","","","-23","","Mostly Cloudy"
"-121.24","61.76","FORT SIMPSON A","2202103","2022-03-15 09:00","2022","03","15","09:00","-17.3","","-22.1","","66","","","","14","","12","","24.1","","98.42","","","","-25","","NA"
"-121.24","61.76","FORT SIMPSON A","2202103","2022-03-15 10:00","2022","03","15","10:00","-16.1","","-21.3","","65","","","","13","","9","","24.1","","98.42","","","","-22","","NA"
"-121.24","61.76","FORT SIMPSON A","2202103","2022-03-15 11:00","2022","03","15","11:00","-13.8","","-19.8","","61","","","","17","","5","","24.1","","98.42","","","","-17","","Mostly Cloudy"
"-121.24","61.76","FORT SIMPSON A","2202103","2022-03-15 12:00","2022","03","15","12:00","-11.8","","-18.7","","57","","","","9","","4","","24.1","","98.42","","","","-14","","NA"
"-121.24","61.76","FORT SIMPSON A","2202103","2022-03-15 13:00","2022","03","15","13:00","-10.6","","-17.9","","56","","","","12","","5","","24.1","","98.44","","","","-14","","NA"
"-121.24","61.76","FORT SIMPSON A","2202103","2022-03-15 14:00","2022","03","15","14:00","-9.4","","-16.7","","55","","","","15","","5","","24.1","","98.44","","","","-12","","Mainly Clear"
"-121.24","61.76","FORT SIMPSON A","2202103","2022-03-15 15:00","2022","03","15","15:00","-8.8","","-16.7","","53","","","","24","","3","","24.1","","98.43","","","","-10","","NA"
"-121.24","61.76","FORT SIMPSON A","2202103","2022-03-15 16:00","2022","03","15","16:00","-7.8","","-16.4","","51","","","","25","","3","","24.1","","98.45","","","","-9","","NA"
"-121.24","61.76","FORT SIMPSON A","2202103","2022-03-15 17:00","2022","03","15","17:00","-7.5","","-15.5","","53","","","","22","","3","","24.1","","98.48","","","","-9","","Mostly Cloudy"
"-121.24","61.76","FORT SIMPSON A","2202103","2022-03-15 18:00","2022","03","15","18:00","-8.3","","-16.0","","55","","","","13","","3","","24.1","","98.50","","","","-10","","NA"
"-121.24","61.76","FORT SIMPSON A","2202103","2022-03-15 19:00","2022","03","15","19:00","-10.6","","-16.4","","63","","","","33","","4","","24.1","","98.54","","","","-13","","NA"
"-121.24","61.76","FORT SIMPSON A","2202103","2022-03-15 20:00","2022","03","15","20:00","-13.2","","-18.4","","65","","","","34","","8","","24.1","","98.58","","","","-18","","Mostly Cloudy"
"-121.24","61.76","FORT SIMPSON A","2202103","2022-03-15 21:00","2022","03","15","21:00","-15.5","","-19.7","","71","","","","31","","3","","24.1","","98.60","","","","-18","","NA"
"-121.24","61.76","FORT SIMPSON A","2202103","2022-03-15 22:00","2022","03","15","22:00","-12.4","","-16.9","","70","","","","0","","1","","24.1","","98.66","","","","-13","","NA"
"-121.24","61.76","FORT SIMPSON A","2202103","2022-03-15 23:00","2022","03","15","23:00","-11.4","","-16.8","","65","","","","36","","3","","24.1","","98.71","","","","-13","","Cloudy"
"-121.24","61.76","FORT SIMPSON A","2202103","2022-03-16 00:00","2022","03","16","00:00","-11.6","","-16.6","","67","","","","36","","2","","24.1","","98.72","","","","-13","","NA"
"-121.24","61.76","FORT SIMPSON A","2202103","2022-03-16 01:00","2022","03","16","01:00","-11.8","","-16.3","","70","","","","36","","1","","24.1","","98.74","","","","-12","","NA"
"-121.24","61.76","FORT SIMPSON A","2202103","2022-03-16 02:00","2022","03","16","02:00","-15.1","","-17.8","","80","","","","36","","2","","24.1","","98.76","","","","-17","","Mostly Cloudy"
"-121.24","61.76","FORT SIMPSON A","2202103","2022-03-16 03:00","2022","03","16","03:00","-17.7","","-20.2","","81","","","","34","","5","","24.1","","98.78","","","","-22","","NA"
"-121.24","61.76","FORT SIMPSON A","2202103","2022-03-16 04:00","2022","03","16","04:00","-19.0","","-21.4","","82","","","","34","","4","","24.1","","98.79","","","","-22","","NA"
"-121.24","61.76","FORT SIMPSON A","2202103","2022-03-16 05:00","2022","03","16","05:00","-20.3","","-22.6","","82","","","","34","","4","","24.1","","98.81","","","","-24","","Mainly Clear"
"-121.24","61.76","FORT SIMPSON A","2202103","2022-03-16 06:00","2022","03","16","06:00","-21.2","","-23.7","","80","","","","33","","4","","24.1","","98.83","","","","-25","","NA"
"-121.24","61.76","FORT SIMPSON A","2202103","2022-03-16 07:00","2022","03","16","07:00","-21.8","","-24.6","","79","","","","36","","3","","24.1","","98.82","","","","-25","","NA"
"-121.24","61.76","FORT SIMPSON A","2202103","2022-03-16 08:00","2022","03","16","08:00","-21.1","","-24.1","","77","","","","0","","1","","24.1","","98.86","","","","-22","","Mostly Cloudy"
"-121.24","61.76","FORT SIMPSON A","2202103","2022-03-16 09:00","2022","03","16","09:00","-19.9","","-22.8","","78","","","","36","","2","","24.1","","98.86","","","","-22","","NA"
"-121.24","61.76","FORT SIMPSON A","2202103","2022-03-16 10:00","2022","03","16","10:00","-16.4","","-19.7","","76","","","","32","","8","","24.1","","98.91","","","","-22","","NA"
"-121.24","61.76","FORT SIMPSON A","2202103","2022-03-16 11:00","2022","03","16","11:00","-12.2","","-17.3","","66","","","","","","0","","24.1","","98.88","","","","","","Clear"
"-121.24","61.76","FORT SIMPSON A","2202103","2022-03-16 12:00","2022","03","16","12:00","-8.4","","-15.9","","55","","","","8","","5","","24.1","","98.91","","","","-11","","NA"
"-121.24","61.76","FORT SIMPSON A","2202103","2022-03-16 13:00","2022","03","16","13:00","-7.5","","-14.9","","56","","","","16","","7","","24.1","","98.90","","","","-11","","NA"
"-121.24","61.76","FORT SIMPSON A","2202103","2022-03-16 14:00","2022","03","16","14:00","-6.4","","-15.1","","51","","","","7","","5","","24.1","","98.89","","","","-9","","Mainly Clear"
"-121.24","61.76","FORT SIMPSON A","2202103","2022-03-16 15:00","2022","03","16","15:00","-5.5","","-14.3","","50","","","","9","","5","","24.1","","98.86","","","","-8","","NA"
"-121.24","61.76","FORT SIMPSON A","2202103","2022-03-16 16:00","2022","03","16","16:00","-5.5","","-13.7","","53","","","","15","","11","","24.1","","98.83","","","","-10","","NA"
"-121.24","61.76","FORT SIMPSON A","2202103","2022-03-16 17:00","2022","03","16","17:00","-5.7","","-13.8","","53","","","","14","","9","","24.1","","98.80","","","","-10","","Mostly Cloudy"
"-121.24","61.76","FORT SIMPSON A","2202103","2022-03-16 18:00","2022","03","16","18:00","-5.2","","-13.9","","51","","","","12","","3","","24.1","","98.78","","","","-7","","NA"
"-121.24","61.76","FORT SIMPSON A","2202103","2022-03-16 19:00","2022","03","16","19:00","-6.2","","-14.0","","54","","","","11","","7","","24.1","","98.71","","","","-10","","NA"
"-121.24","61.76","FORT SIMPSON A","2202103","2022-03-16 20:00","2022","03","16","20:00","-6.8","","-14.0","","57","","","","36","","3","","24.1","","98.65","","","","-8","","Mostly Cloudy"
"-121.24","61.76","FORT SIMPSON A","2202103","2022-03-16 21:00","2022","03","16","21:00","-7.1","","-13.9","","59","","","","11","","7","","24.1","","98.59","","","","-11","","NA"
"-121.24","61.76","FORT SIMPSON A","2202103","2022-03-16 22:00","2022","03","16","22:00","-7.7","","-13.9","","61","","","","11","","6","","24.1","","98.52","","","","-11","","NA"
"-121.24","61.76","FORT SIMPSON A","2202103","2022-03-16 23:00","2022","03","16","23:00","-8.3","","-14.0","","64","","","","10","","6","","24.1","","98.47","","","","-12","","Mainly Clear"
"-121.24","61.76","FORT SIMPSON A","2202103","2022-03-17 00:00","2022","03","17","00:00","-9.0","","-14.3","","66","","","","8","","5","","24.1","","98.43","","","","-12","","NA"
"-121.24","61.76","FORT SIMPSON A","2202103","2022-03-17 01:00","2022","03","17","01:00","-11.4","","-15.3","","73","","","","36","","1","","24.1","","98.41","","","","-12","","NA"
"-121.24","61.76","FORT SIMPSON A","2202103","2022-03-17 02:00","2022","03","17","02:00","-13.0","","-16.1","","78","","","","36","","3","","24.1","","98.36","","","","-15","","Mostly Cloudy"
"-121.24","61.76","FORT SIMPSON A","2202103","2022-03-17 03:00","2022","03","17","03:00","-14.1","","-16.8","","80","","","","33","","5","","24.1","","98.34","","","","-18","","NA"
"-121.24","61.76","FORT SIMPSON A","2202103","2022-03-17 04:00","2022","03","17","04:00","-16.0","","-18.4","","82","","","","35","","3","","24.1","","98.31","","","","-18","","NA"
"-121.24","61.76","FORT SIMPSON A","2202103","2022-03-17 05:00","2022","03","17","05:00","-15.1","","-17.3","","84","","","","36","","1","","24.1","","98.31","","","","-16","","Mostly Cloudy"
"-121.24","61.76","FORT SIMPSON A","2202103","2022-03-17 06:00","2022","03","17","06:00","-14.8","","-17.0","","83","","","","33","","5","","24.1","","98.29","","","","-18","","NA"
"-121.24","61.76","FORT SIMPSON A","2202103","2022-03-17 07:00","2022","03","17","07:00","-15.6","","-18.2","","81","","","","33","","5","","24.1","","98.28","","","","-19","","NA"
"-121.24","61.76","FORT SIMPSON A","2202103","2022-03-17 08:00","2022","03","17","08:00","-15.3","","-18.2","","79","","","","32","","10","","24.1","","98.29","","","","-22","","Mostly Cloudy"
"-121.24","61.76","FORT SIMPSON A","2202103","2022-03-17 09:00","2022","03","17","09:00","-15.1","","-18.2","","77","","","","34","","9","","24.1","","98.31","","","","-21","","NA"
"-121.24","61.76","FORT SIMPSON A","2202103","2022-03-17 10:00","2022","03","17","10:00","-13.7","","-17.7","","72","","","","34","","10","","24.1","","98.32","","","","-20","","NA"
"-121.24","61.76","FORT SIMPSON A","2202103","2022-03-17 11:00","2022","03","17","11:00","-11.5","","-16.9","","64","","","","36","","9","","24.1","","98.31","","","","-17","","Mainly Clear"
"-121.24","61.76","FORT SIMPSON A","2202103","2022-03-17 12:00","2022","03","17","12:00","-10.2","","-15.4","","66","","","","34","","14","","24.1","","98.32","","","","-17","","NA"
"-121.24","61.76","FORT SIMPSON A","2202103","2022-03-17 13:00","2022","03","17","13:00","-7.9","","-14.2","","61","","","","32","","16","","24.1","","98.31","","","","-14","","NA"
"-121.24","61.76","FORT SIMPSON A","2202103","2022-03-17 14:00","2022","03","17","14:00","-6.8","","-13.0","","62","","","","33","","15","","24.1","","98.32","","","","-13","","Mostly Cloudy"
"-121.24","61.76","FORT SIMPSON A","2202103","2022-03-17 15:00","2022","03","17","15:00","-6.6","","-13.2","","60","","","","34","","19","","24.1","","98.34","","","","-13","","NA"
"-121.24","61.76","FORT SIMPSON A","2202103","2022-03-17 16:00","2022","03","17","16:00","-6.5","","-13.0","","60","","","","34","","21","","24.1","","98.38","","","","-14","","NA"
"-121.24","61.76","FORT SIMPSON A","2202103","2022-03-17 17:00","2022","03","17","17:00","-7.1","","-12.7","","65","","","","34","","20","","24.1","","98.42","","","","-14","","Mainly Clear"
"-121.24","61.76","FORT SIMPSON A","2202103","2022-03-17 18:00","2022","03","17","18:00","-7.1","","-13.4","","61","","","","33","","19","","24.1","","98.42","","","","-14","","NA"
"-121.24","61.76","FORT SIMPSON A","2202103","2022-03-17 19:00","2022","03","17","19:00","-8.5","","-14.0","","65","","","","32","","17","","24.1","","98.46","","","","-15","","NA"
"-121.24","61.76","FORT SIMPSON A","2202103","2022-03-17 20:00","2022","03","17","20:00","-9.4","","-13.4","","73","","","","34","","16","","24.1","","98.47","","","","-16","","Mostly Cloudy"
"-121.24","61.76","FORT SIMPSON A","2202103","2022-03-17 21:00","2022","03","17","21:00","-9.0","","-13.1","","73","","","","33","","13","","24.1","","98.51","","","","-15","","NA"
"-121.24","61.76","FORT SIMPSON A","2202103","2022-03-17 22:00","2022","03","17","22:00","-9.3","","-13.0","","75","","","","33","","11","","24.1","","98.53","","","","-15","","NA"
"-121.24","61.76","FORT SIMPSON A","2202103","2022-03-17 23:00","2022","03","17","23:00","-10.1","","-13.6","","76","","","","30","","12","","24.1","","98.56","","","","-16","","Mainly Clear"
"-121.24","61.76","FORT SIMPSON A","2202103","2022-03-18 00:00","2022","03","18","00:00","-12.9","","-15.5","","81","","","","30","","6","","24.1","","98.58","","","","-17","","NA"
"-121.24","61.76","FORT SIMPSON A","2202103","2022-03-18 01:00","2022","03","18","01:00","-12.9","","-14.9","","85","","","","28","","4","","24.1","","98.60","","","","-16","","NA"
"-121.24","61.76","FORT SIMPSON A","2202103","2022-03-18 02:00","2022","03","18","02:00","-14.4","","-16.1","","87","","","","34","","4","","24.1","","98.63","","","","-17","","Mainly Clear"
"-121.24","61.76","FORT SIMPSON A","2202103","2022-03-18 03:00","2022","03","18","03:00","-15.9","","-17.6","","87","","","","0","","1","","24.1","","98.64","","","","-17","","NA"
"-121.24","61.76","FORT SIMPSON A","2202103","2022-03-18 04:00","2022","03","18","04:00","-17.4","","-19.7","","83","","","","32","","4","","24.1","","98.68","","","","-21","","NA"
"-121.24","61.76","FORT SIMPSON A","2202103","2022-03-18 05:00","2022","03","18","05:00","-18.6","","-20.9","","82","","","","36","","1","","24.1","","98.69","","","","-19","","Mainly Clear"
"-121.24","61.76","FORT SIMPSON A","2202103","2022-03-18 06:00","2022","03","18","06:00","-18.4","","-20.4","","84","","","","36","","1","","24.1","","98.72","","","","-19","","NA"
"-121.24","61.76","FORT SIMPSON A","2202103","2022-03-18 07:00","2022","03","18","07:00","-19.6","","-21.9","","82","","","","","","0","","24.1","","98.73","","","","","","NA"
"-121.24","61.76","FORT SIMPSON A","2202103","2022-03-18 08:00","2022","03","18","08:00","-20.0","","-22.5","","81","","","","36","","1","","24.1","","98.77","","","","-21","","Mainly Clear"
"-121.24","61.76","FORT SIMPSON A","2202103","2022-03-18 09:00","2022","03","18","09:00","-17.1","","-19.4","","83","","","","36","","3","","24.1","","98.78","","","","-19","","NA"
"-121.24","61.76","FORT SIMPSON A","2202103","2022-03-18 10:00","2022","03","18","10:00","-14.0","","-16.2","","84","","","","1","","4","","24.1","","98.81","","","","-17","","NA"
"-121.24","61.76","FORT SIMPSON A","2202103","2022-03-18 11:00","2022","03","18","11:00","-12.2","","-15.6","","76","","","","36","","1","","24.1","","98.80","","","","-13","","Mainly Clear"
"-121.24","61.76","FORT SIMPSON A","2202103","2022-03-18 12:00","2022","03","18","12:00","-9.4","","-14.1","","69","","","","22","","4","","24.1","","98.79","","","","-12","","NA"
"-121.24","61.76","FORT SIMPSON A","2202103","2022-03-18 13:00","2022","03","18","13:00","-7.4","","-13.1","","64","","","","36","","2","","24.1","","98.82","","","","-8","","NA"
"-121.24","61.76","FORT SIMPSON A","2202103","2022-03-18 14:00","2022","03","18","14:00","-6.1","","-12.0","","63","","","","29","","4","","24.1","","98.80","","","","-8","","Clear"
"-121.24","61.76","FORT SIMPSON A","2202103","2022-03-18 15:00","2022","03","18","15:00","-4.7","","-11.7","","58","","","","26","","5","","24.1","","98.80","","","","-7","","NA"
"-121.24","61.76","FORT SIMPSON A","2202103","2022-03-18 16:00","2022","03","18","16:00","-3.5","","-11.3","","55","","","","36","","3","","24.1","","98.79","","","","-5","","NA"
"-121.24","61.76","FORT SIMPSON A","2202103","2022-03-18 17:00","2022","03","18","17:00","-3.1","","-11.4","","53","","","","30","","4","","24.1","","98.79","","","","-5","","Clear"
"-121.24","61.76","FORT SIMPSON A","2202103","2022-03-18 18:00","2022","03","18","18:00","-3.0","","-11.6","","52","","","","12","","5","","24.1","","98.77","","","","-5","","NA"
"-121.24","61.76","FORT SIMPSON A","2202103","2022-03-18 19:00","2022","03","18","19:00","-3.6","","-11.2","","56","","","","10","","4","","24.1","","98.77","","","","-5","","NA"
"-121.24","61.76","FORT SIMPSON A","2202103","2022-03-18 20:00","2022","03","18","20:00","-8.5","","-12.9","","71","","","","11","","3","","24.1","","98.78","","","","-10","","Clear"
"-121.24","61.76","FORT SIMPSON A","2202103","2022-03-18 21:00","2022","03","18","21:00","-11.2","","-14.1","","79","","","","10","","4","","24.1","","98.80","","","","-14","","NA"
"-121.24","61.76","FORT SIMPSON A","2202103","2022-03-18 22:00","2022","03","18","22:00","-12.8","","-15.8","","79","","","","36","","2","","24.1","","98.80","","","","-14","","NA"
"-121.24","61.76","FORT SIMPSON A","2202103","2022-03-18 23:00","2022","03","18","23:00","-13.6","","-16.1","","81","","","","5","","4","","24.1","","98.81","","","","-16","","Clear"
"-121.24","61.76","FORT SIMPSON A","2202103","2022-03-19 00:00","2022","03","19","00:00","-15.8","","-18.4","","81","","","","6","","4","","24.1","","98.81","","","","-19","","NA"
"-121.24","61.76","FORT SIMPSON A","2202103","2022-03-19 01:00","2022","03","19","01:00","-10.3","","-12.9","","82","","","","8","","4","","24.1","","98.81","","","","-13","","NA"
"-121.24","61.76","FORT SIMPSON A","2202103","2022-03-19 02:00","2022","03","19","02:00","-10.2","","-12.1","","87","","","","11","","5","","24.1","","98.79","","","","-13","","Clear"
"-121.24","61.76","FORT SIMPSON A","2202103","2022-03-19 03:00","2022","03","19","03:00","-15.3","","-16.9","","88","","","","36","","3","","24.1","","98.82","","","","-17","","NA"
"-121.24","61.76","FORT SIMPSON A","2202103","2022-03-19 04:00","2022","03","19","04:00","-17.3","","-19.3","","85","","","","36","","1","","24.1","","98.84","","","","-18","","NA"
"-121.24","61.76","FORT SIMPSON A","2202103","2022-03-19 05:00","2022","03","19","05:00","-15.3","","-16.7","","90","","","","13","","6","","24.1","","98.86","","","","-20","","Mainly Clear"
"-121.24","61.76","FORT SIMPSON A","2202103","2022-03-19 06:00","2022","03","19","06:00","-12.1","","-13.8","","88","","","","10","","4","","24.1","","98.82","","","","-15","","NA"
"-121.24","61.76","FORT SIMPSON A","2202103","2022-03-19 07:00","2022","03","19","07:00","-12.9","","-14.5","","88","","","","36","","2","","24.1","","98.81","","","","-14","","NA"
"-121.24","61.76","FORT SIMPSON A","2202103","2022-03-19 08:00","2022","03","19","08:00","-14.9","","-16.7","","86","","","","18","","4","","24.1","","98.83","","","","-18","","Clear"
"-121.24","61.76","FORT SIMPSON A","2202103","2022-03-19 09:00","2022","03","19","09:00","-16.1","","-18.3","","83","","","","36","","1","","24.1","","98.87","","","","-17","","NA"
"-121.24","61.76","FORT SIMPSON A","2202103","2022-03-19 10:00","2022","03","19","10:00","-10.8","","-13.5","","81","","","","36","","1","","24.1","","98.83","","","","-11","","NA"
"-121.24","61.76","FORT SIMPSON A","2202103","2022-03-19 11:00","2022","03","19","11:00","-6.6","","-11.4","","69","","","","36","","2","","24.1","","98.83","","","","-8","","Mainly Clear"
"-121.24","61.76","FORT SIMPSON A","2202103","2022-03-19 12:00","2022","03","19","12:00","-4.9","","-10.3","","66","","","","8","","9","","24.1","","98.79","","","","-9","","NA"
"-121.24","61.76","FORT SIMPSON A","2202103","2022-03-19 13:00","2022","03","19","13:00","-3.2","","-9.2","","64","","","","13","","11","","24.1","","98.78","","","","-7","","NA"
"-121.24","61.76","FORT SIMPSON A","2202103","2022-03-19 14:00","2022","03","19","14:00","-2.6","","-8.8","","63","","","","14","","10","","24.1","","98.75","","","","-6","","Mostly Cloudy"
"-121.24","61.76","FORT SIMPSON A","2202103","2022-03-19 15:00","2022","03","19","15:00","-1.3","","-8.6","","58","","","","7","","9","","24.1","","98.73","","","","-5","","NA"
"-121.24","61.76","FORT SIMPSON A","2202103","2022-03-19 16:00","2022","03","19","16:00","-0.7","","-8.2","","57","","","","11","","5","","24.1","","98.70","","","","-2","","NA"
"-121.24","61.76","FORT SIMPSON A","2202103","2022-03-19 17:00","2022","03","19","17:00","-1.8","","-8.3","","61","","","","12","","5","","24.1","","98.71","","","","-4","","Mostly Cloudy"
"-121.24","61.76","FORT SIMPSON A","2202103","2022-03-19 18:00","2022","03","19","18:00","-1.6","","-8.3","","60","","","","11","","5","","24.1","","98.73","","","","-3","","NA"
"-121.24","61.76","FORT SIMPSON A","2202103","2022-03-19 19:00","2022","03","19","19:00","-2.6","","-8.8","","63","","","","12","","7","","24.1","","98.72","","","","-5","","NA"
"-121.24","61.76","FORT SIMPSON A","2202103","2022-03-19 20:00","2022","03","19","20:00","-3.5","","-9.3","","65","","","","9","","8","","24.1","","98.77","","","","-7","","Mostly Cloudy"
"-121.24","61.76","FORT SIMPSON A","2202103","2022-03-19 21:00","2022","03","19","21:00","-5.1","","-9.7","","70","","","","13","","5","","24.1","","98.85","","","","-7","","NA"
"-121.24","61.76","FORT SIMPSON A","2202103","2022-03-19 22:00","2022","03","19","22:00","-6.0","","-9.3","","78","","","","10","","4","","24.1","","98.90","","","","-8","","NA"
"-121.24","61.76","FORT SIMPSON A","2202103","2022-03-19 23:00","2022","03","19","23:00","-6.4","","-9.1","","81","","","","36","","2","","24.1","","98.94","","","","-7","","Cloudy"
"-121.24","61.76","FORT SIMPSON A","2202103","2022-03-20 00:00","2022","03","20","00:00","-6.4","","-8.5","","85","","","","7","","5","","24.1","","98.96","","","","-9","","NA"
"-121.24","61.76","FORT SIMPSON A","2202103","2022-03-20 01:00","2022","03","20","01:00","-6.5","","-8.2","","88","","","","8","","5","","24.1","","99.00","","","","-9","","NA"
"-121.24","61.76","FORT SIMPSON A","2202103","2022-03-20 02:00","2022","03","20","02:00"
"-121.24","61.76","FORT SIMPSON A","2202103","2022-03-20 03:00","2022","03","20","03:00","-9.2","","-11.8","","82","","","","34","","12","","24.1","","99.07","","","","-15","","NA"
"-121.24","61.76","FORT SIMPSON A","2202103","2022-03-20 04:00","2022","03","20","04:00","-9.7","","-11.6","","86","","","","33","","25","","24.1","","99.12","","","","-18","","NA"
"-121.24","61.76","FORT SIMPSON A","2202103","2022-03-20 05:00","2022","03","20","05:00","-10.2","","-11.4","","91","","","","33","","19","","24.1","","99.15","","","","-18","","Cloudy"
"-121.24","61.76","FORT SIMPSON A","2202103","2022-03-20 06:00","2022","03","20","06:00","-10.5","","-11.7","","91","","","","31","","15","","24.1","","99.18","","","","-17","","NA"
"-121.24","61.76","FORT SIMPSON A","2202103","2022-03-20 07:00","2022","03","20","07:00","-10.5","","-12.0","","89","","","","33","","26","","24.1","","99.15","","","","-20","","NA"
"-121.24","61.76","FORT SIMPSON A","2202103","2022-03-20 08:00","2022","03","20","08:00","-10.6","","-12.2","","89","","","","32","","22","","24.1","","99.18","","","","-19","","Cloudy"
"-121.24","61.76","FORT SIMPSON A","2202103","2022-03-20 09:00","2022","03","20","09:00","-10.2","","-12.2","","85","","","","32","","22","","4.8","","99.20","","","","-18","","Snow,Blowing Snow"
"-121.24","61.76","FORT SIMPSON A","2202103","2022-03-20 10:00","2022","03","20","10:00","-10.0","","-12.1","","85","","","","33","","25","","4.8","","99.20","","","","-19","","Snow,Blowing Snow"
"-121.24","61.76","FORT SIMPSON A","2202103","2022-03-20 11:00","2022","03","20","11:00","-9.5","","-12.2","","81","","","","33","","27","","9.7","","99.22","","","","-18","","Snow,Blowing Snow"
"-121.24","61.76","FORT SIMPSON A","2202103","2022-03-20 12:00","2022","03","20","12:00","-9.0","","-12.4","","77","","","","33","","28","","16.1","","99.23","","","","-18","","Snow,Blowing Snow"
"-121.24","61.76","FORT SIMPSON A","2202103","2022-03-20 13:00","2022","03","20","13:00","-9.0","","-12.6","","75","","","","34","","22","","24.1","","99.24","","","","-17","","Snow,Blowing Snow"
"-121.24","61.76","FORT SIMPSON A","2202103","2022-03-20 14:00","2022","03","20","14:00","-8.9","","-12.7","","74","","","","33","","27","","24.1","","99.22","","","","-18","","Snow,Blowing Snow"
"-121.24","61.76","FORT SIMPSON A","2202103","2022-03-20 15:00","2022","03","20","15:00","-8.6","","-12.6","","73","","","","33","","28","","24.1","","99.19","","","","-17","","Snow,Blowing Snow"
"-121.24","61.76","FORT SIMPSON A","2202103","2022-03-20 16:00","2022","03","20","16:00","-8.6","","-12.7","","72","","","","33","","28","","24.1","","99.16","","","","-17","","Snow,Blowing Snow"
"-121.24","61.76","FORT SIMPSON A","2202103","2022-03-20 17:00","2022","03","20","17:00","-8.6","","-12.0","","77","","","","33","","22","","3.2","","99.17","","","","-16","","Snow,Blowing Snow"
"-121.24","61.76","FORT SIMPSON A","2202103","2022-03-20 18:00","2022","03","20","18:00","-8.8","","-11.4","","81","","","","33","","19","","2.4","","99.17","","","","-16","","Snow,Blowing Snow"
"-121.24","61.76","FORT SIMPSON A","2202103","2022-03-20 19:00","2022","03","20","19:00","-8.9","","-10.9","","86","","","","32","","15","","2.4","","99.19","","","","-15","","Snow,Blowing Snow"
"-121.24","61.76","FORT SIMPSON A","2202103","2022-03-20 20:00","2022","03","20","20:00","-9.3","","-11.1","","87","","","","32","","19","","1.6","","99.18","","","","-17","","Snow,Blowing Snow"
"-121.24","61.76","FORT SIMPSON A","2202103","2022-03-20 21:00","2022","03","20","21:00","-9.6","","-11.4","","87","","","","33","","21","","3.2","","99.18","","","","-18","","Snow,Blowing Snow"
"-121.24","61.76","FORT SIMPSON A","2202103","2022-03-20 22:00","2022","03","20","22:00","-9.5","","-11.4","","86","","","","33","","20","","4.8","","99.20","","","","-17","","Snow,Blowing Snow"
"-121.24","61.76","FORT SIMPSON A","2202103","2022-03-20 23:00","2022","03","20","23:00","-9.9","","-11.8","","86","","","","32","","25","","4.0","","99.22","","","","-19","","Snow,Blowing Snow"
"-121.24","61.76","FORT SIMPSON A","2202103","2022-03-21 00:00","2022","03","21","00:00","-9.9","","-11.8","","86","","","","32","","22","","4.0","","99.25","","","","-18","","Snow,Blowing Snow"
"-121.24","61.76","FORT SIMPSON A","2202103","2022-03-21 01:00","2022","03","21","01:00","-10.0","","-11.8","","87","","","","33","","23","","4.0","","99.30","","","","-18","","Snow,Blowing Snow"
"-121.24","61.76","FORT SIMPSON A","2202103","2022-03-21 02:00","2022","03","21","02:00","-10.7","","-12.8","","84","","","","33","","30","","4.8","","99.36","","","","-20","","Snow,Blowing Snow"
"-121.24","61.76","FORT SIMPSON A","2202103","2022-03-21 03:00","2022","03","21","03:00","-11.5","","-13.9","","82","","","","34","","23","","9.7","","99.41","","","","-20","","Snow,Blowing Snow"
"-121.24","61.76","FORT SIMPSON A","2202103","2022-03-21 04:00","2022","03","21","04:00","-12.2","","-14.8","","81","","","","33","","26","","19.3","","99.49","","","","-22","","Snow,Blowing Snow"
"-121.24","61.76","FORT SIMPSON A","2202103","2022-03-21 05:00","2022","03","21","05:00","-12.9","","-15.8","","79","","","","33","","24","","24.1","","99.53","","","","-22","","Snow,Blowing Snow"
"-121.24","61.76","FORT SIMPSON A","2202103","2022-03-21 06:00","2022","03","21","06:00","-13.6","","-16.1","","81","","","","33","","23","","24.1","","99.60","","","","-23","","Snow,Blowing Snow"
"-121.24","61.76","FORT SIMPSON A","2202103","2022-03-21 07:00","2022","03","21","07:00","-14.4","","-16.7","","83","","","","33","","20","","24.1","","99.64","","","","-23","","Blowing Snow"
"-121.24","61.76","FORT SIMPSON A","2202103","2022-03-21 08:00","2022","03","21","08:00","-15.5","","-18.1","","81","","","","33","","14","","24.1","","99.71","","","","-23","","Mainly Clear"
"-121.24","61.76","FORT SIMPSON A","2202103","2022-03-21 09:00","2022","03","21","09:00","-14.0","","-17.0","","79","","","","32","","18","","24.1","","99.76","","","","-22","","NA"
"-121.24","61.76","FORT SIMPSON A","2202103","2022-03-21 10:00","2022","03","21","10:00","-12.6","","-17.2","","69","","","","34","","30","","24.1","","99.80","","","","-23","","Blowing Snow"
"-121.24","61.76","FORT SIMPSON A","2202103","2022-03-21 11:00","2022","03","21","11:00","-12.1","","-16.6","","69","","","","32","","28","","24.1","","99.85","","","","-22","","Blowing Snow"
"-121.24","61.76","FORT SIMPSON A","2202103","2022-03-21 12:00","2022","03","21","12:00","-11.0","","-16.1","","66","","","","32","","22","","24.1","","99.87","","","","-20","","Blowing Snow"
"-121.24","61.76","FORT SIMPSON A","2202103","2022-03-21 13:00","2022","03","21","13:00","-10.0","","-15.2","","66","","","","31","","17","","24.1","","99.92","","","","-17","","Blowing Snow"
"-121.24","61.76","FORT SIMPSON A","2202103","2022-03-21 14:00","2022","03","21","14:00","-9.8","","-15.7","","63","","","","35","","18","","24.1","","99.92","","","","-17","","Mainly Clear"
"-121.24","61.76","FORT SIMPSON A","2202103","2022-03-21 15:00","2022","03","21","15:00","-9.6","","-15.3","","63","","","","35","","14","","24.1","","99.92","","","","-16","","NA"
"-121.24","61.76","FORT SIMPSON A","2202103","2022-03-21 16:00","2022","03","21","16:00","-9.3","","-15.6","","61","","","","34","","18","","24.1","","99.91","","","","-17","","NA"
"-121.24","61.76","FORT SIMPSON A","2202103","2022-03-21 17:00","2022","03","21","17:00","-9.1","","-15.5","","60","","","","34","","13","","24.1","","99.92","","","","-15","","Mainly Clear"
"-121.24","61.76","FORT SIMPSON A","2202103","2022-03-21 18:00","2022","03","21","18:00","-9.1","","-15.5","","60","","","","33","","8","","24.1","","99.90","","","","-13","","NA"
"-121.24","61.76","FORT SIMPSON A","2202103","2022-03-21 19:00","2022","03","21","19:00","-10.3","","-15.9","","64","","","","34","","9","","24.1","","99.93","","","","-15","","NA"
"-121.24","61.76","FORT SIMPSON A","2202103","2022-03-21 20:00","2022","03","21","20:00","-10.1","","-15.5","","65","","","","34","","13","","24.1","","99.95","","","","-16","","NA"
"-121.24","61.76","FORT SIMPSON A","2202103","2022-03-21 21:00","2022","03","21","21:00","-11.1","","-13.0","","86","","","","34","","13","","3.2","","100.01","","","","-18","","Snow"
"-121.24","61.76","FORT SIMPSON A","2202103","2022-03-21 22:00","2022","03","21","22:00","-11.2","","-13.1","","86","","","","34","","11","","4.0","","100.06","","","","-17","","Snow"
"-121.24","61.76","FORT SIMPSON A","2202103","2022-03-21 23:00","2022","03","21","23:00","-11.7","","-13.6","","86","","","","33","","13","","4.8","","100.10","","","","-18","","Snow"
"-121.24","61.76","FORT SIMPSON A","2202103","2022-03-22 00:00","2022","03","22","00:00","-11.5","","-13.9","","83","","","","33","","20","","24.1","","100.16","","","","-20","","Snow"
"-121.24","61.76","FORT SIMPSON A","2202103","2022-03-22 01:00","2022","03","22","01:00","-12.2","","-15.0","","80","","","","34","","22","","24.1","","100.24","","","","-21","","Blowing Snow"
"-121.24","61.76","FORT SIMPSON A","2202103","2022-03-22 02:00","2022","03","22","02:00","-13.1","","-15.8","","80","","","","34","","19","","24.1","","100.30","","","","-22","","Blowing Snow"
"-121.24","61.76","FORT SIMPSON A","2202103","2022-03-22 03:00","2022","03","22","03:00","-13.6","","-16.5","","79","","","","35","","14","","24.1","","100.36","","","","-21","","NA"
"-121.24","61.76","FORT SIMPSON A","2202103","2022-03-22 04:00","2022","03","22","04:00","-16.1","","-18.8","","80","","","","34","","17","","24.1","","100.40","","","","-25","","NA"
"-121.24","61.76","FORT SIMPSON A","2202103","2022-03-22 05:00","2022","03","22","05:00","-17.1","","-20.1","","78","","","","34","","16","","24.1","","100.39","","","","-26","","Mainly Clear"
"-121.24","61.76","FORT SIMPSON A","2202103","2022-03-22 06:00","2022","03","22","06:00","-18.9","","-21.5","","80","","","","34","","14","","24.1","","100.41","","","","-27","","NA"
"-121.24","61.76","FORT SIMPSON A","2202103","2022-03-22 07:00","2022","03","22","07:00","-19.3","","-21.9","","81","","","","34","","12","","24.1","","100.39","","","","-27","","NA"
"-121.24","61.76","FORT SIMPSON A","2202103","2022-03-22 08:00","2022","03","22","08:00","-18.6","","-21.7","","77","","","","34","","18","","24.1","","100.37","","","","-28","","Mostly Cloudy"
"-121.24","61.76","FORT SIMPSON A","2202103","2022-03-22 09:00","2022","03","22","09:00","-18.0","","-21.4","","75","","","","34","","17","","24.1","","100.29","","","","-27","","NA"
"-121.24","61.76","FORT SIMPSON A","2202103","2022-03-22 10:00","2022","03","22","10:00","-16.8","","-20.6","","73","","","","34","","15","","24.1","","100.32","","","","-25","","NA"
"-121.24","61.76","FORT SIMPSON A","2202103","2022-03-22 11:00","2022","03","22","11:00","-15.6","","-19.6","","72","","","","33","","14","","24.1","","100.27","","","","-23","","Cloudy"
"-121.24","61.76","FORT SIMPSON A","2202103","2022-03-22 12:00","2022","03","22","12:00","-14.8","","-19.2","","70","","","","33","","14","","24.1","","100.14","","","","-22","","NA"
"-121.24","61.76","FORT SIMPSON A","2202103","2022-03-22 13:00","2022","03","22","13:00","-13.4","","-17.8","","70","","","","29","","8","","24.1","","100.03","","","","-18","","NA"
"-121.24","61.76","FORT SIMPSON A","2202103","2022-03-22 14:00","2022","03","22","14:00","-12.7","","-17.0","","71","","","","30","","4","","16.1","","99.90","","","","-15","","Snow"
"-121.24","61.76","FORT SIMPSON A","2202103","2022-03-22 15:00","2022","03","22","15:00","-12.3","","-15.3","","79","","","","32","","12","","3.2","","99.76","","","","-19","","Snow"
"-121.24","61.76","FORT SIMPSON A","2202103","2022-03-22 16:00","2022","03","22","16:00","-12.3","","-14.5","","84","","","","33","","7","","1.6","","99.64","","","","-17","","Snow"
"-121.24","61.76","FORT SIMPSON A","2202103","2022-03-22 17:00","2022","03","22","17:00","-11.8","","-14.1","","83","","","","2","","7","","2.0","","99.42","","","","-16","","Snow"
"-121.24","61.76","FORT SIMPSON A","2202103","2022-03-22 18:00","2022","03","22","18:00","-12.3","","-14.2","","86","","","","30","","5","","2.0","","99.39","","","","-16","","Freezing Drizzle,Snow"
"-121.24","61.76","FORT SIMPSON A","2202103","2022-03-22 19:00","2022","03","22","19:00","-10.7","","-12.9","","84","","","","13","","8","","2.0","","99.30","","","","-15","","Snow"
"-121.24","61.76","FORT SIMPSON A","2202103","2022-03-22 20:00","2022","03","22","20:00","-11.2","","-13.4","","84","","","","12","","8","","4.8","","99.19","","","","-16","","Snow"
"-121.24","61.76","FORT SIMPSON A","2202103","2022-03-22 21:00","2022","03","22","21:00","-12.1","","-13.9","","86","","","","8","","3","","4.0","","99.14","","","","-14","","Snow"
"-121.24","61.76","FORT SIMPSON A","2202103","2022-03-22 22:00","2022","03","22","22:00","-12.5","","-14.7","","84","","","","36","","2","","4.8","","99.08","","","","-14","","Snow"
"-121.24","61.76","FORT SIMPSON A","2202103","2022-03-22 23:00","2022","03","22","23:00","-12.8","","-15.2","","83","","","","9","","8","","4.8","","99.07","","","","-18","","Snow"
"-121.24","61.76","FORT SIMPSON A","2202103","2022-03-23 00:00","2022","03","23","00:00","-13.1","","-15.6","","82","","","","10","","7","","6.4","","99.03","","","","-18","","Snow"
"-121.24","61.76","FORT SIMPSON A","2202103","2022-03-23 01:00","2022","03","23","01:00","-13.3","","-15.8","","82","","","","10","","4","","16.1","","98.99","","","","-16","","Snow"
"-121.24","61.76","FORT SIMPSON A","2202103","2022-03-23 02:00","2022","03","23","02:00","-13.4","","-15.8","","82","","","","5","","5","","19.3","","98.99","","","","-17","","Snow"
"-121.24","61.76","FORT SIMPSON A","2202103","2022-03-23 03:00","2022","03","23","03:00"
"-121.24","61.76","FORT SIMPSON A","2202103","2022-03-23 04:00","2022","03","23","04:00","-13.4","","-15.7","","83","","","","32","","3","","19.3","","98.99","","","","-15","","Snow"
"-121.24","61.76","FORT SIMPSON A","2202103","2022-03-23 05:00","2022","03","23","05:00","-13.8","","-15.9","","84","","","","33","","6","","24.1","","99.02","","","","-18","","Snow"
"-121.24","61.76","FORT SIMPSON A","2202103","2022-03-23 06:00","2022","03","23","06:00","-14.1","","-16.1","","85","","","","32","","7","","24.1","","99.09","","","","-19","","Snow"
"-121.24","61.76","FORT SIMPSON A","2202103","2022-03-23 07:00","2022","03","23","07:00","-15.0","","-17.3","","83","","","","31","","13","","24.1","","99.18","","","","-22","","Snow"
"-121.24","61.76","FORT SIMPSON A","2202103","2022-03-23 08:00","2022","03","23","08:00","-15.2","","-17.5","","83","","","","33","","14","","24.1","","99.21","","","","-23","","Snow"
"-121.24","61.76","FORT SIMPSON A","2202103","2022-03-23 09:00","2022","03","23","09:00","-15.3","","-18.0","","81","","","","34","","14","","12.9","","99.28","","","","-23","","Snow"
"-121.24","61.76","FORT SIMPSON A","2202103","2022-03-23 10:00","2022","03","23","10:00","-15.1","","-18.3","","77","","","","34","","13","","24.1","","99.30","","","","-22","","Snow"
"-121.24","61.76","FORT SIMPSON A","2202103","2022-03-23 11:00","2022","03","23","11:00","-13.7","","-17.9","","71","","","","34","","21","","24.1","","99.27","","","","-23","","Mostly Cloudy"
"-121.24","61.76","FORT SIMPSON A","2202103","2022-03-23 12:00","2022","03","23","12:00","-12.9","","-17.3","","70","","","","33","","17","","24.1","","99.36","","","","-21","","NA"
"-121.24","61.76","FORT SIMPSON A","2202103","2022-03-23 13:00","2022","03","23","13:00","-12.1","","-17.3","","66","","","","34","","18","","24.1","","99.39","","","","-20","","NA"
"-121.24","61.76","FORT SIMPSON A","2202103","2022-03-23 14:00","2022","03","23","14:00","-11.5","","-17.7","","60","","","","34","","16","","24.1","","99.42","","","","-19","","Mainly Clear"
"-121.24","61.76","FORT SIMPSON A","2202103","2022-03-23 15:00","2022","03","23","15:00","-10.9","","-17.5","","59","","","","34","","17","","24.1","","99.46","","","","-18","","NA"
"-121.24","61.76","FORT SIMPSON A","2202103","2022-03-23 16:00","2022","03","23","16:00","-10.2","","-17.2","","57","","","","35","","17","","24.1","","99.51","","","","-17","","NA"
"-121.24","61.76","FORT SIMPSON A","2202103","2022-03-23 17:00","2022","03","23","17:00","-10.1","","-17.3","","56","","","","34","","18","","24.1","","99.58","","","","-18","","Mainly Clear"
"-121.24","61.76","FORT SIMPSON A","2202103","2022-03-23 18:00","2022","03","23","18:00","-10.8","","-17.7","","58","","","","33","","17","","24.1","","99.63","","","","-18","","NA"
"-121.24","61.76","FORT SIMPSON A","2202103","2022-03-23 19:00","2022","03","23","19:00","-11.6","","-18.2","","58","","","","35","","13","","24.1","","99.70","","","","-18","","NA"
"-121.24","61.76","FORT SIMPSON A","2202103","2022-03-23 20:00","2022","03","23","20:00","-13.6","","-18.8","","65","","","","34","","14","","24.1","","99.79","","","","-21","","Mainly Clear"
"-121.24","61.76","FORT SIMPSON A","2202103","2022-03-23 21:00","2022","03","23","21:00","-12.1","","-17.5","","64","","","","33","","17","","24.1","","99.88","","","","-20","","NA"
"-121.24","61.76","FORT SIMPSON A","2202103","2022-03-23 22:00","2022","03","23","22:00","-12.4","","-17.7","","65","","","","34","","16","","24.1","","99.96","","","","-20","","NA"
"-121.24","61.76","FORT SIMPSON A","2202103","2022-03-23 23:00","2022","03","23","23:00","-12.6","","-17.9","","65","","","","34","","17","","24.1","","100.07","","","","-20","","Cloudy"
"-121.24","61.76","FORT SIMPSON A","2202103","2022-03-24 00:00","2022","03","24","00:00","-13.0","","-18.9","","62","","","","33","","22","","24.1","","100.18","","","","-22","","NA"
"-121.24","61.76","FORT SIMPSON A","2202103","2022-03-24 01:00","2022","03","24","01:00","-13.4","","-18.7","","65","","","","34","","21","","24.1","","100.27","","","","-22","","Snow"
"-121.24","61.76","FORT SIMPSON A","2202103","2022-03-24 02:00","2022","03","24","02:00","-13.8","","-18.8","","66","","","","33","","19","","24.1","","100.36","","","","-22","","Snow"
"-121.24","61.76","FORT SIMPSON A","2202103","2022-03-24 03:00","2022","03","24","03:00","-15.3","","-20.2","","67","","","","32","","17","","24.1","","100.48","","","","-24","","NA"
"-121.24","61.76","FORT SIMPSON A","2202103","2022-03-24 04:00","2022","03","24","04:00","-14.7","","-20.2","","64","","","","33","","24","","24.1","","100.57","","","","-25","","Snow"
"-121.24","61.76","FORT SIMPSON A","2202103","2022-03-24 05:00","2022","03","24","05:00","-15.0","","-20.5","","63","","","","34","","18","","24.1","","100.66","","","","-24","","Cloudy"
"-121.24","61.76","FORT SIMPSON A","2202103","2022-03-24 06:00","2022","03","24","06:00","-16.1","","-21.3","","65","","","","34","","21","","24.1","","100.74","","","","-26","","NA"
"-121.24","61.76","FORT SIMPSON A","2202103","2022-03-24 07:00","2022","03","24","07:00","-17.6","","-22.4","","67","","","","34","","14","","24.1","","100.85","","","","-26","","NA"
"-121.24","61.76","FORT SIMPSON A","2202103","2022-03-24 08:00","2022","03","24","08:00","-17.5","","-22.5","","65","","","","34","","14","","24.1","","100.93","","","","-26","","Clear"
"-121.24","61.76","FORT SIMPSON A","2202103","2022-03-24 09:00","2022","03","24","09:00","-17.6","","-22.6","","66","","","","34","","19","","24.1","","101.02","","","","-27","","NA"
"-121.24","61.76","FORT SIMPSON A","2202103","2022-03-24 10:00","2022","03","24","10:00","-16.8","","-22.1","","64","","","","33","","19","","24.1","","101.07","","","","-26","","Blowing Snow"
"-121.24","61.76","FORT SIMPSON A","2202103","2022-03-24 11:00","2022","03","24","11:00","-16.4","","-21.7","","64","","","","34","","22","","24.1","","101.11","","","","-26","","Blowing Snow"
"-121.24","61.76","FORT SIMPSON A","2202103","2022-03-24 12:00","2022","03","24","12:00","-15.0","","-20.8","","62","","","","32","","20","","24.1","","101.14","","","","-24","","Blowing Snow"
"-121.24","61.76","FORT SIMPSON A","2202103","2022-03-24 13:00","2022","03","24","13:00","-13.9","","-20.5","","58","","","","33","","16","","24.1","","101.17","","","","-22","","Blowing Snow"
"-121.24","61.76","FORT SIMPSON A","2202103","2022-03-24 14:00","2022","03","24","14:00","-13.4","","-20.6","","55","","","","34","","17","","24.1","","101.17","","","","-21","","Mostly Cloudy"
"-121.24","61.76","FORT SIMPSON A","2202103","2022-03-24 15:00","2022","03","24","15:00","-12.8","","-20.1","","55","","","","32","","16","","24.1","","101.18","","","","-20","","NA"
"-121.24","61.76","FORT SIMPSON A","2202103","2022-03-24 16:00","2022","03","24","16:00","-12.5","","-19.9","","55","","","","34","","16","","24.1","","101.19","","","","-20","","NA"
"-121.24","61.76","FORT SIMPSON A","2202103","2022-03-24 17:00","2022","03","24","17:00","-12.6","","-20.0","","54","","","","34","","14","","24.1","","101.19","","","","-20","","Mostly Cloudy"
"-121.24","61.76","FORT SIMPSON A","2202103","2022-03-24 18:00","2022","03","24","18:00","-12.1","","-20.0","","52","","","","33","","12","","24.1","","101.19","","","","-18","","NA"
"-121.24","61.76","FORT SIMPSON A","2202103","2022-03-24 19:00","2022","03","24","19:00","-12.8","","-20.5","","53","","","","35","","9","","24.1","","101.20","","","","-18","","NA"
"-121.24","61.76","FORT SIMPSON A","2202103","2022-03-24 20:00","2022","03","24","20:00","-13.5","","-20.4","","56","","","","34","","11","","24.1","","101.21","","","","-20","","Mostly Cloudy"
"-121.24","61.76","FORT SIMPSON A","2202103","2022-03-24 21:00","2022","03","24","21:00","-14.8","","-20.6","","62","","","","33","","9","","24.1","","101.25","","","","-21","","NA"
"-121.24","61.76","FORT SIMPSON A","2202103","2022-03-24 22:00","2022","03","24","22:00","-14.4","","-20.5","","60","","","","32","","5","","24.1","","101.26","","","","-18","","NA"
"-121.24","61.76","FORT SIMPSON A","2202103","2022-03-24 23:00","2022","03","24","23:00","-14.6","","-20.3","","62","","","","36","","2","","24.1","","101.28","","","","-16","","Cloudy"
"-121.24","61.76","FORT SIMPSON A","2202103","2022-03-25 00:00","2022","03","25","00:00","-15.0","","-21.0","","61","","","","1","","5","","24.1","","101.32","","","","-19","","NA"
"-121.24","61.76","FORT SIMPSON A","2202103","2022-03-25 01:00","2022","03","25","01:00","-15.5","","-20.3","","67","","","","36","","3","","24.1","","101.33","","","","-18","","NA"
"-121.24","61.76","FORT SIMPSON A","2202103","2022-03-25 02:00","2022","03","25","02:00","-15.6","","-20.3","","68","","","","36","","2","","24.1","","101.36","","","","-17","","Cloudy"
"-121.24","61.76","FORT SIMPSON A","2202103","2022-03-25 03:00","2022","03","25","03:00","-14.6","","-20.5","","61","","","","12","","7","","24.1","","101.35","","","","-19","","NA"
"-121.24","61.76","FORT SIMPSON A","2202103","2022-03-25 04:00","2022","03","25","04:00","-15.2","","-21.4","","59","","","","12","","5","","24.1","","101.37","","","","-19","","NA"
"-121.24","61.76","FORT SIMPSON A","2202103","2022-03-25 05:00","2022","03","25","05:00","-15.7","","-21.7","","60","","","","13","","8","","24.1","","101.39","","","","-21","","Cloudy"
"-121.24","61.76","FORT SIMPSON A","2202103","2022-03-25 06:00","2022","03","25","06:00","-16.5","","-22.1","","62","","","","11","","8","","24.1","","101.38","","","","-22","","Snow"
"-121.24","61.76","FORT SIMPSON A","2202103","2022-03-25 07:00","2022","03","25","07:00","-17.5","","-22.8","","64","","","","11","","11","","24.1","","101.40","","","","-25","","Snow"
"-121.24","61.76","FORT SIMPSON A","2202103","2022-03-25 08:00","2022","03","25","08:00","-18.3","","-23.6","","64","","","","13","","12","","24.1","","101.42","","","","-26","","Mostly Cloudy"
"-121.24","61.76","FORT SIMPSON A","2202103","2022-03-25 09:00","2022","03","25","09:00","-18.0","","-23.8","","62","","","","12","","13","","24.1","","101.42","","","","-26","","NA"
"-121.24","61.76","FORT SIMPSON A","2202103","2022-03-25 10:00","2022","03","25","10:00","-17.0","","-23.6","","57","","","","12","","10","","24.1","","101.42","","","","-24","","NA"
"-121.24","61.76","FORT SIMPSON A","2202103","2022-03-25 11:00","2022","03","25","11:00","-16.1","","-23.2","","55","","","","10","","10","","24.1","","101.41","","","","-23","","Mostly Cloudy"
"-121.24","61.76","FORT SIMPSON A","2202103","2022-03-25 12:00","2022","03","25","12:00","-15.3","","-22.7","","54","","","","9","","7","","24.1","","101.39","","","","-20","","NA"
"-121.24","61.76","FORT SIMPSON A","2202103","2022-03-25 13:00","2022","03","25","13:00","-14.1","","-22.4","","50","","","","13","","13","","24.1","","101.33","","","","-21","","NA"
"-121.24","61.76","FORT SIMPSON A","2202103","2022-03-25 14:00","2022","03","25","14:00","-13.0","","-21.8","","48","","","","8","","14","","24.1","","101.28","","","","-20","","Mostly Cloudy"
"-121.24","61.76","FORT SIMPSON A","2202103","2022-03-25 15:00","2022","03","25","15:00","-12.3","","-21.7","","46","","","","11","","14","","24.1","","101.19","","","","-19","","NA"
"-121.24","61.76","FORT SIMPSON A","2202103","2022-03-25 16:00","2022","03","25","16:00","-12.4","","-21.8","","46","","","","13","","16","","24.1","","101.13","","","","-20","","Blowing Snow"
"-121.24","61.76","FORT SIMPSON A","2202103","2022-03-25 17:00","2022","03","25","17:00","-12.7","","-22.0","","46","","","","13","","20","","24.1","","101.09","","","","-21","","Mainly Clear"
"-121.24","61.76","FORT SIMPSON A","2202103","2022-03-25 18:00","2022","03","25","18:00","-13.8","","-22.4","","49","","","","10","","11","","24.1","","101.05","","","","-20","","NA"
"-121.24","61.76","FORT SIMPSON A","2202103","2022-03-25 19:00","2022","03","25","19:00","-14.4","","-23.0","","49","","","","11","","16","","24.1","","101.00","","","","-22","","Blowing Snow"
"-121.24","61.76","FORT SIMPSON A","2202103","2022-03-25 20:00","2022","03","25","20:00"
"-121.24","61.76","FORT SIMPSON A","2202103","2022-03-25 21:00","2022","03","25","21:00","-15.8","","-23.8","","51","","","","12","","14","","24.1","","100.92","","","","-24","","NA"
"-121.24","61.76","FORT SIMPSON A","2202103","2022-03-25 22:00","2022","03","25","22:00","-16.4","","-23.1","","56","","","","13","","12","","24.1","","100.87","","","","-24","","Snow,Blowing Snow"
"-121.24","61.76","FORT SIMPSON A","2202103","2022-03-25 23:00","2022","03","25","23:00","-16.8","","-22.8","","60","","","","13","","10","","19.3","","100.84","","","","-23","","Snow,Blowing Snow"
"-121.24","61.76","FORT SIMPSON A","2202103","2022-03-26 00:00","2022","03","26","00:00","-17.7","","-22.9","","64","","","","12","","15","","19.3","","100.79","","","","-26","","Snow,Blowing Snow"
"-121.24","61.76","FORT SIMPSON A","2202103","2022-03-26 01:00","2022","03","26","01:00","-18.3","","-23.1","","67","","","","12","","14","","24.1","","100.71","","","","-27","","Snow,Blowing Snow"
"-121.24","61.76","FORT SIMPSON A","2202103","2022-03-26 02:00","2022","03","26","02:00","-18.8","","-23.5","","67","","","","12","","17","","19.3","","100.66","","","","-28","","Snow"
"-121.24","61.76","FORT SIMPSON A","2202103","2022-03-26 03:00","2022","03","26","03:00","-18.9","","-23.7","","67","","","","12","","12","","24.1","","100.60","","","","-27","","NA"
"-121.24","61.76","FORT SIMPSON A","2202103","2022-03-26 04:00","2022","03","26","04:00","-19.5","","-24.3","","66","","","","11","","13","","24.1","","100.54","","","","-28","","Snow"
"-121.24","61.76","FORT SIMPSON A","2202103","2022-03-26 05:00","2022","03","26","05:00","-19.7","","-24.6","","66","","","","12","","10","","24.1","","100.48","","","","-27","","Snow"
"-121.24","61.76","FORT SIMPSON A","2202103","2022-03-26 06:00","2022","03","26","06:00","-19.8","","-24.6","","66","","","","11","","12","","24.1","","100.44","","","","-28","","NA"
"-121.24","61.76","FORT SIMPSON A","2202103","2022-03-26 07:00","2022","03","26","07:00","-19.7","","-24.4","","67","","","","12","","13","","24.1","","100.37","","","","-28","","NA"
"-121.24","61.76","FORT SIMPSON A","2202103","2022-03-26 08:00","2022","03","26","08:00","-19.2","","-23.8","","68","","","","13","","13","","24.1","","100.30","","","","-27","","Mostly Cloudy"
"-121.24","61.76","FORT SIMPSON A","2202103","2022-03-26 09:00","2022","03","26","09:00","-18.4","","-23.3","","66","","","","12","","8","","24.1","","100.26","","","","-24","","NA"
"-121.24","61.76","FORT SIMPSON A","2202103","2022-03-26 10:00","2022","03","26","10:00","-17.1","","-22.5","","63","","","","11","","12","","24.1","","100.21","","","","-25","","NA"
"-121.24","61.76","FORT SIMPSON A","2202103","2022-03-26 11:00","2022","03","26","11:00","-15.6","","-21.6","","61","","","","7","","8","","24.1","","100.18","","","","-21","","Mostly Cloudy"
"-121.24","61.76","FORT SIMPSON A","2202103","2022-03-26 12:00","2022","03","26","12:00","-13.9","","-20.5","","58","","","","11","","8","","24.1","","100.13","","","","-19","","NA"
"-121.24","61.76","FORT SIMPSON A","2202103","2022-03-26 13:00","2022","03","26","13:00","-12.7","","-20.1","","54","","","","6","","9","","24.1","","100.09","","","","-18","","NA"
"-121.24","61.76","FORT SIMPSON A","2202103","2022-03-26 14:00","2022","03","26","14:00","-11.4","","-19.0","","54","","","","9","","8","","24.1","","100.05","","","","-16","","Mostly Cloudy"
"-121.24","61.76","FORT SIMPSON A","2202103","2022-03-26 15:00","2022","03","26","15:00","-10.3","","-18.2","","53","","","","13","","10","","24.1","","100.03","","","","-16","","NA"
"-121.24","61.76","FORT SIMPSON A","2202103","2022-03-26 16:00","2022","03","26","16:00","-9.7","","-17.9","","52","","","","8","","8","","24.1","","99.98","","","","-14","","NA"
"-121.24","61.76","FORT SIMPSON A","2202103","2022-03-26 17:00","2022","03","26","17:00","-9.5","","-18.0","","50","","","","12","","6","","24.1","","99.94","","","","-13","","Mostly Cloudy"
"-121.24","61.76","FORT SIMPSON A","2202103","2022-03-26 18:00","2022","03","26","18:00","-9.6","","-17.9","","52","","","","12","","4","","24.1","","99.93","","","","-12","","NA"
"-121.24","61.76","FORT SIMPSON A","2202103","2022-03-26 19:00","2022","03","26","19:00","-10.7","","-18.3","","54","","","","11","","5","","24.1","","99.92","","","","-14","","NA"
"-121.24","61.76","FORT SIMPSON A","2202103","2022-03-26 20:00","2022","03","26","20:00","-12.3","","-18.6","","60","","","","9","","4","","24.1","","99.93","","","","-15","","Clear"
"-121.24","61.76","FORT SIMPSON A","2202103","2022-03-26 21:00","2022","03","26","21:00","-13.6","","-19.1","","64","","","","11","","5","","24.1","","99.95","","","","-17","","NA"
"-121.24","61.76","FORT SIMPSON A","2202103","2022-03-26 22:00","2022","03","26","22:00","-14.7","","-19.3","","68","","","","10","","6","","24.1","","99.95","","","","-19","","NA"
"-121.24","61.76","FORT SIMPSON A","2202103","2022-03-26 23:00","2022","03","26","23:00","-15.9","","-19.9","","72","","","","9","","4","","24.1","","99.99","","","","-19","","Clear"
"-121.24","61.76","FORT SIMPSON A","2202103","2022-03-27 00:00","2022","03","27","00:00","-16.8","","-20.4","","74","","","","9","","10","","24.1","","99.94","","","","-23","","NA"
"-121.24","61.76","FORT SIMPSON A","2202103","2022-03-27 01:00","2022","03","27","01:00","-17.4","","-20.6","","76","","","","13","","6","","24.1","","99.92","","","","-22","","NA"
"-121.24","61.76","FORT SIMPSON A","2202103","2022-03-27 02:00","2022","03","27","02:00","-18.4","","-21.3","","78","","","","13","","5","","24.1","","99.94","","","","-22","","Mainly Clear"
"-121.24","61.76","FORT SIMPSON A","2202103","2022-03-27 03:00","2022","03","27","03:00","-19.2","","-21.8","","81","","","","12","","3","","24.1","","99.93","","","","-22","","NA"
"-121.24","61.76","FORT SIMPSON A","2202103","2022-03-27 04:00","2022","03","27","04:00","-21.3","","-23.6","","82","","","","36","","3","","24.1","","99.91","","","","-24","","NA"
"-121.24","61.76","FORT SIMPSON A","2202103","2022-03-27 05:00","2022","03","27","05:00","-22.8","","-25.4","","80","","","","34","","3","","24.1","","99.89","","","","-26","","Mainly Clear"
"-121.24","61.76","FORT SIMPSON A","2202103","2022-03-27 06:00","2022","03","27","06:00","-23.4","","-26.0","","79","","","","6","","3","","24.1","","99.88","","","","-26","","NA"
"-121.24","61.76","FORT SIMPSON A","2202103","2022-03-27 07:00","2022","03","27","07:00","-21.1","","-23.5","","82","","","","36","","3","","24.1","","99.85","","","","-24","","NA"
"-121.24","61.76","FORT SIMPSON A","2202103","2022-03-27 08:00","2022","03","27","08:00","-19.7","","-22.3","","80","","","","13","","4","","24.1","","99.84","","","","-23","","Mostly Cloudy"
"-121.24","61.76","FORT SIMPSON A","2202103","2022-03-27 09:00","2022","03","27","09:00"
"-121.24","61.76","FORT SIMPSON A","2202103","2022-03-27 10:00","2022","03","27","10:00"
"-121.24","61.76","FORT SIMPSON A","2202103","2022-03-27 11:00","2022","03","27","11:00","-13.9","","-18.7","","68","","","","11","","7","","24.1","","99.73","","","","-19","","Mostly Cloudy"
"-121.24","61.76","FORT SIMPSON A","2202103","2022-03-27 12:00","2022","03","27","12:00","-12.8","","-18.1","","65","","","","13","","10","","24.1","","99.69","","","","-19","","NA"
"-121.24","61.76","FORT SIMPSON A","2202103","2022-03-27 13:00","2022","03","27","13:00"
"-121.24","61.76","FORT SIMPSON A","2202103","2022-03-27 14:00","2022","03","27","14:00","-11.0","","-15.5","","70","","","","15","","9","","2.4","","99.58","","","","-16","","Snow"
"-121.24","61.76","FORT SIMPSON A","2202103","2022-03-27 15:00","2022","03","27","15:00","-10.3","","-14.6","","71","","","","12","","6","","2.4","","99.55","","","","-14","","Snow"
"-121.24","61.76","FORT SIMPSON A","2202103","2022-03-27 16:00","2022","03","27","16:00","-9.8","","-14.0","","71","","","","12","","8","","2.0","","99.53","","","","-14","","Snow"
"-121.24","61.76","FORT SIMPSON A","2202103","2022-03-27 17:00","2022","03","27","17:00","-9.6","","-14.1","","70","","","","12","","8","","4.0","","99.48","","","","-14","","Snow"
"-121.24","61.76","FORT SIMPSON A","2202103","2022-03-27 18:00","2022","03","27","18:00","-9.8","","-13.6","","74","","","","11","","3","","6.4","","99.49","","","","-12","","Snow"
"-121.24","61.76","FORT SIMPSON A","2202103","2022-03-27 19:00","2022","03","27","19:00","-9.8","","-13.7","","74","","","","8","","6","","9.7","","99.47","","","","-13","","Snow"
"-121.24","61.76","FORT SIMPSON A","2202103","2022-03-27 20:00","2022","03","27","20:00","-10.3","","-13.5","","78","","","","6","","6","","19.3","","99.48","","","","-14","","Snow"
"-121.24","61.76","FORT SIMPSON A","2202103","2022-03-27 21:00","2022","03","27","21:00","-10.5","","-13.3","","80","","","","9","","5","","24.1","","99.48","","","","-14","","Snow"
"-121.24","61.76","FORT SIMPSON A","2202103","2022-03-27 22:00","2022","03","27","22:00","-10.8","","-13.3","","82","","","","36","","3","","16.1","","99.48","","","","-13","","Snow"
"-121.24","61.76","FORT SIMPSON A","2202103","2022-03-27 23:00","2022","03","27","23:00","-11.4","","-13.3","","86","","","","36","","2","","16.1","","99.46","","","","-13","","Cloudy"
"-121.24","61.76","FORT SIMPSON A","2202103","2022-03-28 00:00","2022","03","28","00:00","-13.2","","-14.7","","89","","","","6","","3","","24.1","","99.45","","","","-15","","Snow"
"-121.24","61.76","FORT SIMPSON A","2202103","2022-03-28 01:00","2022","03","28","01:00","-18.1","","-20.0","","85","","","","36","","3","","24.1","","99.44","","","","-21","","Snow"
"-121.24","61.76","FORT SIMPSON A","2202103","2022-03-28 02:00","2022","03","28","02:00","-19.8","","-22.0","","83","","","","34","","4","","24.1","","99.44","","","","-23","","Snow"
"-121.24","61.76","FORT SIMPSON A","2202103","2022-03-28 03:00","2022","03","28","03:00","-18.8","","-21.0","","83","","","","36","","2","","24.1","","99.43","","","","-20","","NA"
"-121.24","61.76","FORT SIMPSON A","2202103","2022-03-28 04:00","2022","03","28","04:00","-18.0","","-20.2","","83","","","","4","","3","","24.1","","99.43","","","","-20","","NA"
"-121.24","61.76","FORT SIMPSON A","2202103","2022-03-28 05:00","2022","03","28","05:00","-14.5","","-16.4","","86","","","","7","","5","","24.1","","99.43","","","","-18","","Cloudy"
"-121.24","61.76","FORT SIMPSON A","2202103","2022-03-28 06:00","2022","03","28","06:00","-13.9","","-15.7","","86","","","","8","","5","","19.3","","99.40","","","","-17","","Snow"
"-121.24","61.76","FORT SIMPSON A","2202103","2022-03-28 07:00","2022","03","28","07:00","-14.0","","-15.8","","86","","","","4","","3","","24.1","","99.42","","","","-16","","Snow"
"-121.24","61.76","FORT SIMPSON A","2202103","2022-03-28 08:00","2022","03","28","08:00","-15.2","","-17.2","","84","","","","32","","8","","24.1","","99.45","","","","-21","","Cloudy"
"-121.24","61.76","FORT SIMPSON A","2202103","2022-03-28 09:00","2022","03","28","09:00","-14.2","","-16.1","","86","","","","32","","4","","16.1","","99.46","","","","-17","","Snow"
"-121.24","61.76","FORT SIMPSON A","2202103","2022-03-28 10:00","2022","03","28","10:00","-12.4","","-14.3","","86","","","","31","","6","","16.1","","99.46","","","","-16","","Snow"
"-121.24","61.76","FORT SIMPSON A","2202103","2022-03-28 11:00","2022","03","28","11:00","-10.6","","-14.3","","75","","","","35","","4","","16.1","","99.46","","","","-13","","Snow"
"-121.24","61.76","FORT SIMPSON A","2202103","2022-03-28 12:00","2022","03","28","12:00","-9.4","","-13.7","","71","","","","7","","3","","19.3","","99.42","","","","-11","","Snow"
"-121.24","61.76","FORT SIMPSON A","2202103","2022-03-28 13:00","2022","03","28","13:00","-8.3","","-13.7","","65","","","","6","","8","","24.1","","99.40","","","","-12","","Snow"
"-121.24","61.76","FORT SIMPSON A","2202103","2022-03-28 14:00","2022","03","28","14:00","-7.2","","-13.7","","60","","","","2","","4","","24.1","","99.39","","","","-9","","Cloudy"
"-121.24","61.76","FORT SIMPSON A","2202103","2022-03-28 15:00","2022","03","28","15:00","-6.9","","-12.8","","63","","","","36","","2","","24.1","","99.38","","","","-8","","NA"
"-121.24","61.76","FORT SIMPSON A","2202103","2022-03-28 16:00","2022","03","28","16:00","-6.2","","-12.3","","62","","","","24","","4","","24.1","","99.32","","","","-8","","NA"
"-121.24","61.76","FORT SIMPSON A","2202103","2022-03-28 17:00","2022","03","28","17:00","-6.0","","-12.3","","61","","","","30","","5","","24.1","","99.31","","","","-8","","Mainly Clear"
"-121.24","61.76","FORT SIMPSON A","2202103","2022-03-28 18:00","2022","03","28","18:00","-5.8","","-12.4","","60","","","","31","","4","","24.1","","99.30","","","","-8","","NA"
"-121.24","61.76","FORT SIMPSON A","2202103","2022-03-28 19:00","2022","03","28","19:00","-7.2","","-12.7","","65","","","","34","","9","","24.1","","99.30","","","","-12","","NA"
"-121.24","61.76","FORT SIMPSON A","2202103","2022-03-28 20:00","2022","03","28","20:00","-7.3","","-12.2","","68","","","","35","","5","","24.1","","99.32","","","","-10","","Mostly Cloudy"
"-121.24","61.76","FORT SIMPSON A","2202103","2022-03-28 21:00","2022","03","28","21:00","-7.2","","-12.6","","66","","","","35","","9","","24.1","","99.34","","","","-12","","NA"
"-121.24","61.76","FORT SIMPSON A","2202103","2022-03-28 22:00","2022","03","28","22:00","-7.8","","-12.8","","67","","","","1","","7","","24.1","","99.32","","","","-11","","NA"
"-121.24","61.76","FORT SIMPSON A","2202103","2022-03-28 23:00","2022","03","28","23:00","-8.9","","-12.7","","74","","","","33","","4","","24.1","","99.31","","","","-11","","Cloudy"
"-121.24","61.76","FORT SIMPSON A","2202103","2022-03-29 00:00","2022","03","29","00:00","-12.0","","-14.7","","80","","","","36","","1","","24.1","","99.31","","","","-13","","NA"
"-121.24","61.76","FORT SIMPSON A","2202103","2022-03-29 01:00","2022","03","29","01:00","-15.0","","-17.5","","81","","","","1","","3","","24.1","","99.32","","","","-17","","NA"
"-121.24","61.76","FORT SIMPSON A","2202103","2022-03-29 02:00","2022","03","29","02:00","-12.9","","-15.2","","83","","","","32","","4","","24.1","","99.29","","","","-16","","Cloudy"
"-121.24","61.76","FORT SIMPSON A","2202103","2022-03-29 03:00","2022","03","29","03:00","-12.9","","-15.8","","79","","","","33","","4","","24.1","","99.22","","","","-16","","NA"
"-121.24","61.76","FORT SIMPSON A","2202103","2022-03-29 04:00","2022","03","29","04:00","-12.3","","-14.9","","81","","","","1","","4","","24.1","","99.16","","","","-15","","NA"
"-121.24","61.76","FORT SIMPSON A","2202103","2022-03-29 05:00","2022","03","29","05:00","-12.3","","-14.6","","83","","","","36","","2","","24.1","","99.11","","","","-14","","Cloudy"
"-121.24","61.76","FORT SIMPSON A","2202103","2022-03-29 06:00","2022","03","29","06:00","-11.0","","-13.6","","82","","","","36","","2","","24.1","","99.03","","","","-12","","NA"
"-121.24","61.76","FORT SIMPSON A","2202103","2022-03-29 07:00","2022","03","29","07:00","-9.7","","-12.7","","79","","","","11","","4","","24.1","","99.02","","","","-12","","NA"
"-121.24","61.76","FORT SIMPSON A","2202103","2022-03-29 08:00","2022","03","29","08:00","-9.2","","-12.6","","77","","","","12","","3","","24.1","","98.94","","","","-11","","Cloudy"
"-121.24","61.76","FORT SIMPSON A","2202103","2022-03-29 09:00","2022","03","29","09:00","-8.7","","-12.4","","75","","","","9","","5","","24.1","","98.91","","","","-11","","NA"
"-121.24","61.76","FORT SIMPSON A","2202103","2022-03-29 10:00","2022","03","29","10:00","-7.6","","-11.8","","72","","","","12","","8","","24.1","","98.87","","","","-12","","NA"
"-121.24","61.76","FORT SIMPSON A","2202103","2022-03-29 11:00","2022","03","29","11:00","-7.4","","-11.7","","71","","","","15","","16","","24.1","","98.85","","","","-14","","Cloudy"
"-121.24","61.76","FORT SIMPSON A","2202103","2022-03-29 12:00","2022","03","29","12:00","-6.4","","-11.3","","68","","","","15","","9","","24.1","","98.83","","","","-11","","NA"
"-121.24","61.76","FORT SIMPSON A","2202103","2022-03-29 13:00","2022","03","29","13:00","-5.2","","-10.8","","65","","","","20","","5","","24.1","","98.82","","","","-7","","NA"
"-121.24","61.76","FORT SIMPSON A","2202103","2022-03-29 14:00","2022","03","29","14:00","-4.4","","-10.8","","61","","","","36","","2","","24.1","","98.82","","","","-5","","Mainly Clear"
"-121.24","61.76","FORT SIMPSON A","2202103","2022-03-29 15:00","2022","03","29","15:00","-3.3","","-10.2","","59","","","","36","","3","","24.1","","98.81","","","","-5","","NA"
"-121.24","61.76","FORT SIMPSON A","2202103","2022-03-29 16:00","2022","03","29","16:00","-2.9","","-9.8","","59","","","","18","","4","","24.1","","98.80","","","","-4","","NA"
"-121.24","61.76","FORT SIMPSON A","2202103","2022-03-29 17:00","2022","03","29","17:00","-2.2","","-10.0","","55","","","","14","","5","","24.1","","98.80","","","","-4","","Clear"
"-121.24","61.76","FORT SIMPSON A","2202103","2022-03-29 18:00","2022","03","29","18:00","-2.1","","-10.2","","54","","","","8","","8","","24.1","","98.85","","","","-5","","NA"
"-121.24","61.76","FORT SIMPSON A","2202103","2022-03-29 19:00","2022","03","29","19:00","-2.6","","-10.2","","56","","","","10","","6","","24.1","","98.87","","","","-5","","NA"
"-121.24","61.76","FORT SIMPSON A","2202103","2022-03-29 20:00","2022","03","29","20:00","-3.9","","-10.5","","60","","","","9","","6","","24.1","","98.91","","","","-7","","Clear"
"-121.24","61.76","FORT SIMPSON A","2202103","2022-03-29 21:00","2022","03","29","21:00","-5.1","","-10.8","","64","","","","10","","6","","24.1","","98.96","","","","-8","","NA"
"-121.24","61.76","FORT SIMPSON A","2202103","2022-03-29 22:00","2022","03","29","22:00","-6.5","","-11.2","","69","","","","8","","4","","24.1","","99.00","","","","-8","","NA"
"-121.24","61.76","FORT SIMPSON A","2202103","2022-03-29 23:00","2022","03","29","23:00","-7.5","","-11.5","","73","","","","8","","6","","24.1","","99.03","","","","-11","","Mainly Clear"
"-121.24","61.76","FORT SIMPSON A","2202103","2022-03-30 00:00","2022","03","30","00:00","-8.6","","-11.8","","78","","","","10","","4","","24.1","","99.07","","","","-11","","NA"
"-121.24","61.76","FORT SIMPSON A","2202103","2022-03-30 01:00","2022","03","30","01:00","-9.3","","-11.9","","82","","","","12","","5","","24.1","","99.06","","","","-12","","NA"
"-121.24","61.76","FORT SIMPSON A","2202103","2022-03-30 02:00","2022","03","30","02:00","-10.0","","-12.0","","86","","","","12","","8","","24.1","","99.09","","","","-14","","Mainly Clear"
"-121.24","61.76","FORT SIMPSON A","2202103","2022-03-30 03:00","2022","03","30","03:00","-10.1","","-11.8","","88","","","","10","","6","","24.1","","99.08","","","","-14","","NA"
"-121.24","61.76","FORT SIMPSON A","2202103","2022-03-30 04:00","2022","03","30","04:00","-9.9","","-11.4","","89","","","","11","","4","","24.1","","99.13","","","","-12","","NA"
"-121.24","61.76","FORT SIMPSON A","2202103","2022-03-30 05:00","2022","03","30","05:00","-9.2","","-10.8","","88","","","","10","","7","","24.1","","99.15","","","","-13","","Cloudy"
"-121.24","61.76","FORT SIMPSON A","2202103","2022-03-30 06:00","2022","03","30","06:00","-8.9","","-10.6","","88","","","","13","","3","","24.1","","99.13","","","","-11","","NA"
"-121.24","61.76","FORT SIMPSON A","2202103","2022-03-30 07:00","2022","03","30","07:00","-8.6","","-10.3","","87","","","","12","","4","","16.1","","99.13","","","","-11","","NA"
"-121.24","61.76","FORT SIMPSON A","2202103","2022-03-30 08:00","2022","03","30","08:00","-8.2","","-10.1","","86","","","","12","","3","","2.4","","99.08","","","","-10","","Snow"
"-121.24","61.76","FORT SIMPSON A","2202103","2022-03-30 09:00","2022","03","30","09:00","-7.6","","-9.7","","85","","","","9","","5","","2.4","","99.03","","","","-10","","Snow"
"-121.24","61.76","FORT SIMPSON A","2202103","2022-03-30 10:00","2022","03","30","10:00","-7.1","","-9.3","","84","","","","11","","7","","1.6","","99.01","","","","-11","","Snow"
"-121.24","61.76","FORT SIMPSON A","2202103","2022-03-30 11:00","2022","03","30","11:00","-6.7","","-8.9","","84","","","","12","","6","","1.6","","98.96","","","","-10","","Snow"
"-121.24","61.76","FORT SIMPSON A","2202103","2022-03-30 12:00","2022","03","30","12:00","-6.1","","-8.6","","82","","","","9","","4","","1.6","","98.93","","","","-8","","Snow"
"-121.24","61.76","FORT SIMPSON A","2202103","2022-03-30 13:00","2022","03","30","13:00","-5.7","","-8.2","","82","","","","3","","5","","2.0","","98.91","","","","-8","","Snow"
"-121.24","61.76","FORT SIMPSON A","2202103","2022-03-30 14:00","2022","03","30","14:00","-5.4","","-8.5","","79","","","","36","","6","","9.7","","98.90","","","","-8","","Snow"
"-121.24","61.76","FORT SIMPSON A","2202103","2022-03-30 15:00","2022","03","30","15:00","-4.8","","-8.6","","75","","","","5","","5","","24.1","","98.86","","","","-7","","NA"
"-121.24","61.76","FORT SIMPSON A","2202103","2022-03-30 16:00","2022","03","30","16:00","-4.7","","-8.2","","77","","","","5","","7","","24.1","","98.82","","","","-8","","NA"
"-121.24","61.76","FORT SIMPSON A","2202103","2022-03-30 17:00","2022","03","30","17:00","-5.2","","-7.8","","82","","","","35","","15","","6.4","","98.86","","","","-11","","Snow"
"-121.24","61.76","FORT SIMPSON A","2202103","2022-03-30 18:00","2022","03","30","18:00","-6.0","","-9.0","","80","","","","33","","19","","24.1","","98.92","","","","-13","","NA"
"-121.24","61.76","FORT SIMPSON A","2202103","2022-03-30 19:00","2022","03","30","19:00","-6.6","","-9.8","","78","","","","34","","20","","24.1","","98.95","","","","-14","","NA"
"-121.24","61.76","FORT SIMPSON A","2202103","2022-03-30 20:00","2022","03","30","20:00","-7.5","","-10.9","","77","","","","34","","22","","24.1","","99.00","","","","-15","","Cloudy"
"-121.24","61.76","FORT SIMPSON A","2202103","2022-03-30 21:00","2022","03","30","21:00","-8.0","","-11.1","","78","","","","34","","19","","24.1","","99.04","","","","-15","","Snow"
"-121.24","61.76","FORT SIMPSON A","2202103","2022-03-30 22:00","2022","03","30","22:00","-8.1","","-11.2","","79","","","","34","","17","","24.1","","99.07","","","","-15","","Snow"
"-121.24","61.76","FORT SIMPSON A","2202103","2022-03-30 23:00","2022","03","30","23:00","-8.3","","-11.2","","80","","","","34","","20","","16.1","","99.10","","","","-16","","Snow"
"-121.24","61.76","FORT SIMPSON A","2202103","2022-03-31 00:00","2022","03","31","00:00","-9.5","","-11.8","","84","","","","33","","27","","4.8","","99.14","","","","-18","","Snow,Blowing Snow"
"-121.24","61.76","FORT SIMPSON A","2202103","2022-03-31 01:00","2022","03","31","01:00","-10.3","","-13.2","","79","","","","34","","25","","19.3","","99.23","","","","-19","","Snow,Blowing Snow"
"-121.24","61.76","FORT SIMPSON A","2202103","2022-03-31 02:00","2022","03","31","02:00","-10.8","","-14.3","","76","","","","34","","23","","19.3","","99.28","","","","-19","","Snow,Blowing Snow"
"-121.24","61.76","FORT SIMPSON A","2202103","2022-03-31 03:00","2022","03","31","03:00","-11.8","","-15.5","","74","","","","34","","29","","19.3","","99.35","","","","-22","","Snow,Blowing Snow"
"-121.24","61.76","FORT SIMPSON A","2202103","2022-03-31 04:00","2022","03","31","04:00","-12.1","","-15.9","","74","","","","34","","23","","16.1","","99.42","","","","-21","","Snow,Blowing Snow"
"-121.24","61.76","FORT SIMPSON A","2202103","2022-03-31 05:00","2022","03","31","05:00","-12.4","","-15.7","","77","","","","34","","30","","19.3","","99.48","","","","-23","","Snow,Blowing Snow"
"-121.24","61.76","FORT SIMPSON A","2202103","2022-03-31 06:00","2022","03","31","06:00","-12.9","","-15.9","","79","","","","33","","26","","4.8","","99.55","","","","-23","","Snow,Blowing Snow"
"-121.24","61.76","FORT SIMPSON A","2202103","2022-03-31 07:00","2022","03","31","07:00","-13.3","","-16.6","","76","","","","34","","28","","2.0","","99.60","","","","-24","","Snow,Blowing Snow"
"-121.24","61.76","FORT SIMPSON A","2202103","2022-03-31 08:00","2022","03","31","08:00","-13.7","","-17.2","","76","","","","33","","27","","3.2","","99.66","","","","-24","","Snow,Blowing Snow"
"-121.24","61.76","FORT SIMPSON A","2202103","2022-03-31 09:00","2022","03","31","09:00","-14.0","","-16.7","","81","","","","33","","27","","2.0","","99.71","","","","-24","","Snow,Blowing Snow"
"-121.24","61.76","FORT SIMPSON A","2202103","2022-03-31 10:00","2022","03","31","10:00","-13.9","","-16.9","","79","","","","33","","23","","1.6","","99.76","","","","-23","","Snow,Blowing Snow"
"-121.24","61.76","FORT SIMPSON A","2202103","2022-03-31 11:00","2022","03","31","11:00","-14.1","","-18.5","","70","","","","34","","29","","2.0","","99.78","","","","-25","","Snow,Blowing Snow"
"-121.24","61.76","FORT SIMPSON A","2202103","2022-03-31 12:00","2022","03","31","12:00","-13.9","","-18.8","","67","","","","34","","32","","2.0","","99.82","","","","-25","","Snow,Blowing Snow"
"-121.24","61.76","FORT SIMPSON A","2202103","2022-03-31 13:00","2022","03","31","13:00","-14.0","","-20.1","","60","","","","34","","31","","24.1","","99.89","","","","-25","","Blowing Snow"
"-121.24","61.76","FORT SIMPSON A","2202103","2022-03-31 14:00","2022","03","31","14:00","-12.9","","-19.9","","56","","","","33","","29","","24.1","","99.92","","","","-23","","Blowing Snow"
"-121.24","61.76","FORT SIMPSON A","2202103","2022-03-31 15:00","2022","03","31","15:00","-12.8","","-20.8","","52","","","","33","","36","","24.1","","99.95","","","","-24","","Blowing Snow"
"-121.24","61.76","FORT SIMPSON A","2202103","2022-03-31 16:00","2022","03","31","16:00","-12.9","","-21.8","","48","","","","36","","22","","24.1","","99.98","","","","-22","","Blowing Snow"
"-121.24","61.76","FORT SIMPSON A","2202103","2022-03-31 17:00","2022","03","31","17:00","-12.8","","-21.4","","49","","","","34","","21","","24.1","","100.00","","","","-22","","Blowing Snow"
"-121.24","61.76","FORT SIMPSON A","2202103","2022-03-31 18:00","2022","03","31","18:00","-13.2","","-20.1","","56","","","","32","","24","","24.1","","100.04","","","","-23","","Blowing Snow"
"-121.24","61.76","FORT SIMPSON A","2202103","2022-03-31 19:00","2022","03","31","19:00","-14.4","","-21.5","","55","","","","34","","24","","24.1","","100.09","","","","-24","","NA"
"-121.24","61.76","FORT SIMPSON A","2202103","2022-03-31 20:00","2022","03","31","20:00","-15.5","","-20.9","","64","","","","34","","22","","24.1","","100.14","","","","-25","","Mostly Cloudy"
"-121.24","61.76","FORT SIMPSON A","2202103","2022-03-31 21:00","2022","03","31","21:00","-16.5","","-19.7","","77","","","","34","","21","","4.0","","100.21","","","","-26","","Snow"
"-121.24","61.76","FORT SIMPSON A","2202103","2022-03-31 22:00","2022","03","31","22:00","-17.1","","-20.7","","74","","","","34","","16","","9.7","","100.28","","","","-26","","Snow"
"-121.24","61.76","FORT SIMPSON A","2202103","2022-03-31 23:00","2022","03","31","23:00","-17.6","","-21.1","","75","","","","33","","20","","16.1","","100.31","","","","-27","","Snow"
