"Longitude (x)","Latitude (y)","Station Name","Climate ID","Date/Time (LST)","Year","Month","Day","Time (LST)","Temp (°C)","Temp Flag","Dew Point Temp (°C)","Dew Point Temp Flag","Rel Hum (%)","Rel Hum Flag","Precip. Amount (mm)","Precip. Amount Flag","Wind Dir (10s deg)","Wind Dir Flag","Wind Spd (km/h)","Wind Spd Flag","Visibility (km)","Visibility Flag","Stn Press (kPa)","Stn Press Flag","Hmdx","Hmdx Flag","Wind Chill","Wind Chill Flag","Weather"
"-57.39","49.21","DEER LAKE A","8401502","2021-02-01 00:30","2021","02","01","00:30","-2.8","","-8.3","","66","","","M","31","","9","","24.1","","101.60","","","","-6","","NA"
"-57.39","49.21","DEER LAKE A","8401502","2021-02-01 01:30","2021","02","01","01:30","-2.7","","-9.1","","62","","","M","30","","10","","24.1","","101.64","","","","-7","","NA"
"-57.39","49.21","DEER LAKE A","8401502","2021-02-01 02:30","2021","02","01","02:30","-3.1","","-8.6","","66","","","M","31","","7","","24.1","","101.68","","","","-6","","Snow"
"-57.39","49.21","DEER LAKE A","8401502","2021-02-01 03:30","2021","02","01","03:30","-3.5","","-8.1","","71","","","M","29","","3","","19.3","","101.74","","","","-5","","Snow"
"-57.39","49.21","DEER LAKE A","8401502","2021-02-01 04:30","2021","02","01","04:30","-3.7","","-7.1","","77","","","M","27","","5","","24.1","","101.81","","","","-6","","Snow"
"-57.39","49.21","DEER LAKE A","8401502","2021-02-01 05:30","2021","02","01","05:30","-4.1","","-7.0","","80","","","M","27","","3","","24.1","","101.83","","","","-5","","Snow"
"-57.39","49.21","DEER LAKE A","8401502","2021-02-01 06:30","2021","02","01","06:30","-7.1","","-8.8","","88","","","M","29","","5","","24.1","","101.86","","","","-10","","NA"
"-57.39","49.21","DEER LAKE A","8401502","2021-02-01 07:30","2021","02","01","07:30","-9.4","","-10.7","","90","","","M","36","","3","","24.1","","101.92","","","","-11","","NA"
"-57.39","49.21","DEER LAKE A","8401502","2021-02-01 08:30","2021","02","01","08:30","-6.5","","-9.1","","82","","","M","25","","7","","24.1","","102.01","","","","-10","","Cloudy"
"-57.39","49.21","DEER LAKE A","8401502","2021-02-01 09:30","2021","02","01","09:30","-4.0","","-9.6","","65","","","M","29","","12","","24.1","","102.06","","","","-9","","NA"
"-57.39","49.21","DEER LAKE A","8401502","2021-02-01 10:30","2021","02","01","10:30","-3.3","","-9.4","","63","","","M","29","","15","","24.1","","102.10","","","","-8","","NA"
"-57.39","49.21","DEER LAKE A","8401502","2021-02-01 11:30","2021","02","01","11:30","-2.6","","-8.9","","62","","","M","30","","12","","24.1","","102.11","","","","-7","","Mostly Cloudy"
"-57.39","49.21","DEER LAKE A","8401502","2021-02-01 12:30","2021","02","01","12:30","-2.9","","-8.3","","66","","","M","28","","10","","24.1","","102.12","","","","-7","","NA"
"-57.39","49.21","DEER LAKE A","8401502","2021-02-01 13:30","2021","02","01","13:30","-2.6","","-8.7","","63","","","M","28","","15","","24.1","","102.13","","","","-8","","NA"
"-57.39","49.21","DEER LAKE A","8401502","2021-02-01 14:30","2021","02","01","14:30","-2.0","","-8.1","","63","","","M","26","","9","","24.1","","102.17","","","","-5","","Mostly Cloudy"
"-57.39","49.21","DEER LAKE A","8401502","2021-02-01 15:30","2021","02","01","15:30","-2.9","","-8.2","","67","","","M","27","","14","","24.1","","102.26","","","","-8","","NA"
"-57.39","49.21","DEER LAKE A","8401502","2021-02-01 16:30","2021","02","01","16:30","-3.5","","-8.8","","67","","","M","29","","16","","24.1","","102.34","","","","-9","","NA"
"-57.39","49.21","DEER LAKE A","8401502","2021-02-01 17:30","2021","02","01","17:30","-4.5","","-9.1","","71","","","M","25","","10","","24.1","","102.42","","","","-9","","Mainly Clear"
"-57.39","49.21","DEER LAKE A","8401502","2021-02-01 18:30","2021","02","01","18:30","-5.4","","-9.3","","74","","","M","24","","10","","24.1","","102.48","","","","-10","","NA"
"-57.39","49.21","DEER LAKE A","8401502","2021-02-01 19:30","2021","02","01","19:30","-6.3","","-9.5","","79","","","M","23","","10","","24.1","","102.56","","","","-11","","NA"
"-57.39","49.21","DEER LAKE A","8401502","2021-02-01 20:30","2021","02","01","20:30","-6.8","","-9.7","","80","","","M","24","","9","","24.1","","102.57","","","","-11","","Mainly Clear"
"-57.39","49.21","DEER LAKE A","8401502","2021-02-01 21:30","2021","02","01","21:30","-8.3","","-10.6","","84","","","M","22","","13","","24.1","","102.63","","","","-14","","NA"
"-57.39","49.21","DEER LAKE A","8401502","2021-02-01 22:30","2021","02","01","22:30","-9.8","","-11.8","","86","","","M","23","","8","","24.1","","102.69","","","","-14","","NA"
"-57.39","49.21","DEER LAKE A","8401502","2021-02-01 23:30","2021","02","01","23:30","-9.8","","-11.3","","89","","","M","21","","5","","24.1","","102.75","","","","-13","","Mainly Clear"
"-57.39","49.21","DEER LAKE A","8401502","2021-02-02 00:30","2021","02","02","00:30","-11.1","","-12.5","","89","","","M","36","","1","","24.1","","102.76","","","","-12","","NA"
"-57.39","49.21","DEER LAKE A","8401502","2021-02-02 01:30","2021","02","02","01:30","-13.6","","-14.9","","90","","","M","3","","6","","24.1","","102.80","","","","-18","","NA"
"-57.39","49.21","DEER LAKE A","8401502","2021-02-02 02:30","2021","02","02","02:30","-14.5","","-16.1","","87","","","M","5","","7","","24.1","","102.85","","","","-19","","Mainly Clear"
"-57.39","49.21","DEER LAKE A","8401502","2021-02-02 03:30","2021","02","02","03:30","-14.0","","-15.9","","86","","","M","4","","7","","24.1","","102.90","","","","-19","","NA"
"-57.39","49.21","DEER LAKE A","8401502","2021-02-02 04:30","2021","02","02","04:30","-14.2","","-16.0","","86","","","M","5","","12","","24.1","","102.92","","","","-21","","NA"
"-57.39","49.21","DEER LAKE A","8401502","2021-02-02 05:30","2021","02","02","05:30","-13.8","","-15.6","","87","","","M","4","","4","","19.3","","102.92","","","","-17","","Cloudy"
"-57.39","49.21","DEER LAKE A","8401502","2021-02-02 06:30","2021","02","02","06:30","-13.4","","-15.4","","85","","","M","7","","5","","19.3","","102.97","","","","-17","","NA"
"-57.39","49.21","DEER LAKE A","8401502","2021-02-02 07:30","2021","02","02","07:30","-12.7","","-14.5","","87","","","M","5","","7","","19.3","","103.06","","","","-17","","NA"
"-57.39","49.21","DEER LAKE A","8401502","2021-02-02 08:30","2021","02","02","08:30","-12.3","","-13.6","","90","","","M","5","","12","","1.6","","103.08","","","","-19","","Fog"
"-57.39","49.21","DEER LAKE A","8401502","2021-02-02 09:30","2021","02","02","09:30","-11.5","","-12.9","","90","","","M","4","","10","","3.2","","103.09","","","","-17","","Fog"
"-57.39","49.21","DEER LAKE A","8401502","2021-02-02 10:30","2021","02","02","10:30","-10.6","","-12.2","","89","","","M","5","","9","","12.9","","103.08","","","","-16","","NA"
"-57.39","49.21","DEER LAKE A","8401502","2021-02-02 11:30","2021","02","02","11:30","-9.4","","-11.1","","88","","","M","7","","7","","24.1","","103.06","","","","-13","","Mostly Cloudy"
"-57.39","49.21","DEER LAKE A","8401502","2021-02-02 12:30","2021","02","02","12:30","-7.0","","-10.5","","76","","","M","8","","7","","24.1","","102.97","","","","-11","","NA"
"-57.39","49.21","DEER LAKE A","8401502","2021-02-02 13:30","2021","02","02","13:30","-4.4","","-10.1","","65","","","M","5","","13","","24.1","","102.83","","","","-9","","NA"
"-57.39","49.21","DEER LAKE A","8401502","2021-02-02 14:30","2021","02","02","14:30","-3.4","","-10.6","","58","","","M","4","","10","","24.1","","102.82","","","","-7","","Mostly Cloudy"
"-57.39","49.21","DEER LAKE A","8401502","2021-02-02 15:30","2021","02","02","15:30","-2.5","","-9.7","","58","","","M","4","","10","","","M","102.83","","","","-6","","NA"
"-57.39","49.21","DEER LAKE A","8401502","2021-02-02 16:30","2021","02","02","16:30","-2.6","","-8.4","","65","","","M","6","","13","","24.1","","102.79","","","","-7","","NA"
"-57.39","49.21","DEER LAKE A","8401502","2021-02-02 17:30","2021","02","02","17:30","-2.9","","-8.6","","65","","","M","6","","12","","","M","102.78","","","","-7","","Cloudy"
"-57.39","49.21","DEER LAKE A","8401502","2021-02-02 18:30","2021","02","02","18:30","-2.6","","-8.7","","63","","","M","4","","17","","24.1","","102.76","","","","-8","","NA"
"-57.39","49.21","DEER LAKE A","8401502","2021-02-02 19:30","2021","02","02","19:30","-3.1","","-8.1","","69","","","M","5","","23","","24.1","","102.75","","","","-10","","NA"
"-57.39","49.21","DEER LAKE A","8401502","2021-02-02 20:30","2021","02","02","20:30","-3.4","","-7.7","","72","","","M","4","","19","","24.1","","102.69","","","","-9","","Cloudy"
"-57.39","49.21","DEER LAKE A","8401502","2021-02-02 21:30","2021","02","02","21:30","-3.4","","-7.1","","76","","","M","5","","25","","24.1","","102.62","","","","-10","","NA"
"-57.39","49.21","DEER LAKE A","8401502","2021-02-02 22:30","2021","02","02","22:30","-3.5","","-7.0","","77","","","M","6","","19","","24.1","","102.47","","","","-9","","NA"
"-57.39","49.21","DEER LAKE A","8401502","2021-02-02 23:30","2021","02","02","23:30","-3.2","","-7.0","","76","","","M","4","","22","","16.1","","102.34","","","","-10","","Snow"
"-57.39","49.21","DEER LAKE A","8401502","2021-02-03 00:30","2021","02","03","00:30","-4.2","","-5.4","","92","","","M","5","","34","","1.6","","102.18","","","","-12","","Snow,Ice Pellets,Blowing Snow"
"-57.39","49.21","DEER LAKE A","8401502","2021-02-03 01:30","2021","02","03","01:30","-4.1","","-5.4","","91","","","M","5","","26","","","M","102.08","","","","-11","","NA"
"-57.39","49.21","DEER LAKE A","8401502","2021-02-03 02:30","2021","02","03","02:30","-3.9","","-5.3","","90","","","M","6","","24","","6.4","","101.97","","","","-11","","Snow,Blowing Snow"
"-57.39","49.21","DEER LAKE A","8401502","2021-02-03 03:30","2021","02","03","03:30","-3.9","","-5.4","","89","","","M","6","","25","","9.7","","101.81","","","","-11","","Snow,Blowing Snow"
"-57.39","49.21","DEER LAKE A","8401502","2021-02-03 04:30","2021","02","03","04:30","-3.1","","-5.5","","84","","","M","6","","31","","16.1","","101.53","","","","-11","","Snow,Blowing Snow"
"-57.39","49.21","DEER LAKE A","8401502","2021-02-03 05:30","2021","02","03","05:30","-3.3","","-5.0","","88","","","M","6","","34","","9.7","","101.35","","","","-11","","Snow,Ice Pellets,Blowing Snow"
"-57.39","49.21","DEER LAKE A","8401502","2021-02-03 06:30","2021","02","03","06:30","-3.0","","-5.0","","86","","","M","5","","34","","16.1","","101.20","","","","-11","","Snow,Ice Pellets,Blowing Snow"
"-57.39","49.21","DEER LAKE A","8401502","2021-02-03 07:30","2021","02","03","07:30","-2.9","","-4.5","","88","","","M","5","","35","","9.7","","101.00","","","","-11","","Moderate Ice Pellets"
"-57.39","49.21","DEER LAKE A","8401502","2021-02-03 08:30","2021","02","03","08:30","-2.6","","-4.1","","90","","","M","4","","26","","4.0","","100.84","","","","-9","","Snow,Ice Pellets"
"-57.39","49.21","DEER LAKE A","8401502","2021-02-03 09:30","2021","02","03","09:30","-2.5","","-3.7","","92","","","M","4","","26","","4.0","","100.67","","","","-9","","Snow,Ice Pellets"
"-57.39","49.21","DEER LAKE A","8401502","2021-02-03 10:30","2021","02","03","10:30","-2.0","","-3.2","","91","","","M","5","","28","","4.8","","100.49","","","","-9","","Snow"
"-57.39","49.21","DEER LAKE A","8401502","2021-02-03 11:30","2021","02","03","11:30","-1.5","","-2.8","","91","","","M","4","","30","","4.8","","100.33","","","","-8","","Snow,Ice Pellets"
"-57.39","49.21","DEER LAKE A","8401502","2021-02-03 12:30","2021","02","03","12:30","-1.2","","-2.4","","91","","","M","4","","28","","4.8","","100.05","","","","-8","","Freezing Drizzle,Snow"
"-57.39","49.21","DEER LAKE A","8401502","2021-02-03 13:30","2021","02","03","13:30","0.2","","-1.1","","91","","","M","4","","23","","11.3","","99.82","","","","","","Drizzle"
"-57.39","49.21","DEER LAKE A","8401502","2021-02-03 14:30","2021","02","03","14:30","0.5","","-0.5","","93","","","M","6","","23","","11.3","","99.65","","","","","","Drizzle"
"-57.39","49.21","DEER LAKE A","8401502","2021-02-03 15:30","2021","02","03","15:30","0.8","","-0.2","","94","","","M","3","","14","","9.7","","99.58","","","","","","Drizzle,Fog"
"-57.39","49.21","DEER LAKE A","8401502","2021-02-03 16:30","2021","02","03","16:30","0.8","","0.1","","95","","","M","5","","18","","8.1","","99.56","","","","","","Fog"
"-57.39","49.21","DEER LAKE A","8401502","2021-02-03 17:30","2021","02","03","17:30","0.9","","0.3","","96","","","M","5","","18","","11.3","","99.52","","","","","","Cloudy"
"-57.39","49.21","DEER LAKE A","8401502","2021-02-03 18:30","2021","02","03","18:30","1.2","","0.6","","95","","","M","5","","16","","11.3","","99.52","","","","","","NA"
"-57.39","49.21","DEER LAKE A","8401502","2021-02-03 19:30","2021","02","03","19:30","1.4","","0.8","","95","","","M","2","","8","","8.1","","99.55","","","","","","Fog"
"-57.39","49.21","DEER LAKE A","8401502","2021-02-03 20:30","2021","02","03","20:30","1.4","","0.9","","96","","","M","7","","7","","24.1","","99.54","","","","","","Drizzle"
"-57.39","49.21","DEER LAKE A","8401502","2021-02-03 21:30","2021","02","03","21:30","1.1","","0.7","","97","","","M","7","","4","","24.1","","99.55","","","","","","Drizzle"
"-57.39","49.21","DEER LAKE A","8401502","2021-02-03 22:30","2021","02","03","22:30","1.4","","1.1","","98","","","M","6","","5","","24.1","","99.59","","","","","","Drizzle"
"-57.39","49.21","DEER LAKE A","8401502","2021-02-03 23:30","2021","02","03","23:30","1.1","","0.7","","98","","","M","9","","7","","24.1","","99.55","","","","","","Drizzle"
"-57.39","49.21","DEER LAKE A","8401502","2021-02-04 00:30","2021","02","04","00:30","0.7","","0.4","","98","","","M","6","","7","","24.1","","99.58","","","","","","NA"
"-57.39","49.21","DEER LAKE A","8401502","2021-02-04 01:30","2021","02","04","01:30","0.9","","0.6","","98","","","M","7","","6","","24.1","","99.57","","","","","","NA"
"-57.39","49.21","DEER LAKE A","8401502","2021-02-04 02:30","2021","02","04","02:30","1.1","","0.8","","98","","","M","4","","7","","24.1","","99.54","","","","","","Cloudy"
"-57.39","49.21","DEER LAKE A","8401502","2021-02-04 03:30","2021","02","04","03:30","1.2","","0.9","","98","","","M","6","","4","","24.1","","99.57","","","","","","NA"
"-57.39","49.21","DEER LAKE A","8401502","2021-02-04 04:30","2021","02","04","04:30","0.9","","0.6","","98","","","M","21","","5","","9.7","","99.62","","","","","","Drizzle"
"-57.39","49.21","DEER LAKE A","8401502","2021-02-04 05:30","2021","02","04","05:30","1.4","","1.1","","98","","","M","22","","9","","9.7","","99.73","","","","","","Drizzle"
"-57.39","49.21","DEER LAKE A","8401502","2021-02-04 06:30","2021","02","04","06:30","1.0","","0.7","","98","","","M","23","","6","","0.4","","99.86","","","","","","Drizzle,Fog"
"-57.39","49.21","DEER LAKE A","8401502","2021-02-04 07:30","2021","02","04","07:30","0.5","","0.3","","98","","","M","19","","7","","0.2","","99.93","","","","","","Drizzle,Fog"
"-57.39","49.21","DEER LAKE A","8401502","2021-02-04 08:30","2021","02","04","08:30","-0.4","","-0.7","","98","","","M","5","","5","","0.0","","100.06","","","","-2","","Freezing Fog"
"-57.39","49.21","DEER LAKE A","8401502","2021-02-04 09:30","2021","02","04","09:30","-0.4","","-0.6","","98","","","M","5","","4","","0.4","","100.03","","","","-2","","Freezing Fog"
"-57.39","49.21","DEER LAKE A","8401502","2021-02-04 10:30","2021","02","04","10:30","1.6","","1.3","","98","","","M","4","","4","","4.8","","100.07","","","","","","Fog"
"-57.39","49.21","DEER LAKE A","8401502","2021-02-04 11:30","2021","02","04","11:30","2.4","","2.1","","98","","","M","1","","4","","4.8","","100.08","","","","","","Fog"
"-57.39","49.21","DEER LAKE A","8401502","2021-02-04 12:30","2021","02","04","12:30","5.1","","4.7","","97","","","M","7","","9","","24.1","","100.01","","","","","","NA"
"-57.39","49.21","DEER LAKE A","8401502","2021-02-04 13:30","2021","02","04","13:30","6.2","","4.5","","88","","","M","5","","6","","24.1","","100.05","","","","","","NA"
"-57.39","49.21","DEER LAKE A","8401502","2021-02-04 14:30","2021","02","04","14:30","5.9","","3.8","","86","","","M","5","","10","","24.1","","100.06","","","","","","Mostly Cloudy"
"-57.39","49.21","DEER LAKE A","8401502","2021-02-04 15:30","2021","02","04","15:30","7.4","","5.0","","85","","","M","36","","8","","24.1","","100.09","","","","","","NA"
"-57.39","49.21","DEER LAKE A","8401502","2021-02-04 16:30","2021","02","04","16:30","6.5","","4.9","","89","","","M","2","","8","","24.1","","100.17","","","","","","NA"
"-57.39","49.21","DEER LAKE A","8401502","2021-02-04 17:30","2021","02","04","17:30","4.4","","3.7","","95","","","M","3","","4","","24.1","","100.20","","","","","","Mostly Cloudy"
"-57.39","49.21","DEER LAKE A","8401502","2021-02-04 18:30","2021","02","04","18:30","3.8","","3.5","","98","","","M","5","","10","","24.1","","100.21","","","","","","NA"
"-57.39","49.21","DEER LAKE A","8401502","2021-02-04 19:30","2021","02","04","19:30","4.1","","3.7","","97","","","M","3","","15","","24.1","","100.28","","","","","","NA"
"-57.39","49.21","DEER LAKE A","8401502","2021-02-04 20:30","2021","02","04","20:30","2.1","","1.5","","96","","","M","6","","16","","24.1","","100.28","","","","","","Cloudy"
"-57.39","49.21","DEER LAKE A","8401502","2021-02-04 21:30","2021","02","04","21:30","2.0","","1.3","","95","","","M","3","","15","","19.3","","100.27","","","","","","NA"
"-57.39","49.21","DEER LAKE A","8401502","2021-02-04 22:30","2021","02","04","22:30","1.6","","0.7","","94","","","M","5","","19","","","M","100.23","","","","","","NA"
"-57.39","49.21","DEER LAKE A","8401502","2021-02-04 23:30","2021","02","04","23:30","1.4","","0.8","","96","","","M","3","","14","","19.3","","100.19","","","","","","Cloudy"
"-57.39","49.21","DEER LAKE A","8401502","2021-02-05 00:30","2021","02","05","00:30","1.2","","0.5","","95","","","M","4","","19","","19.3","","100.20","","","","","","NA"
"-57.39","49.21","DEER LAKE A","8401502","2021-02-05 01:30","2021","02","05","01:30","1.0","","0.5","","97","","","M","4","","22","","9.7","","100.13","","","","","","Rain"
"-57.39","49.21","DEER LAKE A","8401502","2021-02-05 02:30","2021","02","05","02:30","0.9","","0.4","","96","","","M","5","","21","","9.7","","100.07","","","","","","Rain"
"-57.39","49.21","DEER LAKE A","8401502","2021-02-05 03:30","2021","02","05","03:30","0.8","","0.2","","96","","","M","4","","21","","9.7","","100.05","","","","","","Rain"
"-57.39","49.21","DEER LAKE A","8401502","2021-02-05 04:30","2021","02","05","04:30","0.7","","0.1","","95","","","M","4","","17","","16.1","","100.07","","","","","","Rain"
"-57.39","49.21","DEER LAKE A","8401502","2021-02-05 05:30","2021","02","05","05:30","0.4","","-0.4","","94","","","M","3","","18","","9.7","","100.14","","","","","","Rain,Snow,Ice Pellets"
"-57.39","49.21","DEER LAKE A","8401502","2021-02-05 06:30","2021","02","05","06:30","0.2","","-0.3","","96","","","M","4","","23","","","M","100.05","","","","","","Snow"
"-57.39","49.21","DEER LAKE A","8401502","2021-02-05 07:30","2021","02","05","07:30","0.2","","-0.7","","93","","","M","5","","24","","","M","100.09","","","","","","NA"
"-57.39","49.21","DEER LAKE A","8401502","2021-02-05 08:30","2021","02","05","08:30","0.1","","-0.8","","93","","","M","4","","20","","4.8","","100.13","","","","","","Drizzle,Fog"
"-57.39","49.21","DEER LAKE A","8401502","2021-02-05 09:30","2021","02","05","09:30","0.1","","-0.6","","94","","","M","4","","22","","6.4","","100.12","","","","","","Snow"
"-57.39","49.21","DEER LAKE A","8401502","2021-02-05 10:30","2021","02","05","10:30","0.2","","-0.4","","95","","","M","4","","17","","4.8","","100.14","","","","","","Drizzle,Fog"
"-57.39","49.21","DEER LAKE A","8401502","2021-02-05 11:30","2021","02","05","11:30","0.4","","-0.1","","96","","","M","3","","17","","3.2","","100.14","","","","","","Drizzle,Fog"
"-57.39","49.21","DEER LAKE A","8401502","2021-02-05 12:30","2021","02","05","12:30","0.7","","0.0","","95","","","M","3","","17","","4.8","","100.14","","","","","","Drizzle,Fog"
"-57.39","49.21","DEER LAKE A","8401502","2021-02-05 13:30","2021","02","05","13:30","1.1","","0.0","","93","","","M","3","","16","","6.4","","100.16","","","","","","Drizzle,Fog"
"-57.39","49.21","DEER LAKE A","8401502","2021-02-05 14:30","2021","02","05","14:30","1.1","","0.0","","93","","","M","4","","14","","","M","100.20","","","","","","Drizzle,Fog"
"-57.39","49.21","DEER LAKE A","8401502","2021-02-05 15:30","2021","02","05","15:30","0.9","","0.2","","95","","","M","2","","12","","8.1","","100.24","","","","","","Drizzle,Fog"
"-57.39","49.21","DEER LAKE A","8401502","2021-02-05 16:30","2021","02","05","16:30","0.9","","0.1","","94","","","M","3","","7","","12.9","","100.33","","","","","","NA"
"-57.39","49.21","DEER LAKE A","8401502","2021-02-05 17:30","2021","02","05","17:30","0.6","","-0.2","","94","","","M","3","","7","","8.1","","100.43","","","","","","Drizzle,Fog"
"-57.39","49.21","DEER LAKE A","8401502","2021-02-05 18:30","2021","02","05","18:30","0.4","","-0.2","","95","","","M","36","","1","","9.7","","100.52","","","","","","Drizzle,Fog"
"-57.39","49.21","DEER LAKE A","8401502","2021-02-05 19:30","2021","02","05","19:30","-0.1","","-0.4","","97","","","M","22","","4","","12.9","","100.57","","","","-1","","NA"
"-57.39","49.21","DEER LAKE A","8401502","2021-02-05 20:30","2021","02","05","20:30","-0.1","","-0.4","","98","","","M","36","","3","","16.1","","100.65","","","","-1","","Cloudy"
"-57.39","49.21","DEER LAKE A","8401502","2021-02-05 21:30","2021","02","05","21:30","0.0","","-0.2","","98","","","M","21","","7","","16.1","","100.73","","","","-2","","NA"
"-57.39","49.21","DEER LAKE A","8401502","2021-02-05 22:30","2021","02","05","22:30","0.1","","-0.2","","98","","","M","18","","4","","4.8","","100.79","","","","","","Drizzle"
"-57.39","49.21","DEER LAKE A","8401502","2021-02-05 23:30","2021","02","05","23:30","0.2","","0.0","","98","","","M","21","","10","","9.7","","100.89","","","","","","Drizzle"
"-57.39","49.21","DEER LAKE A","8401502","2021-02-06 00:30","2021","02","06","00:30","0.3","","0.1","","98","","","M","36","","2","","9.7","","100.91","","","","","","Drizzle"
"-57.39","49.21","DEER LAKE A","8401502","2021-02-06 01:30","2021","02","06","01:30","0.3","","0.1","","98","","","M","27","","5","","16.1","","100.92","","","","","","Drizzle"
"-57.39","49.21","DEER LAKE A","8401502","2021-02-06 02:30","2021","02","06","02:30","0.2","","-0.2","","97","","","M","24","","9","","16.1","","100.99","","","","","","Drizzle"
"-57.39","49.21","DEER LAKE A","8401502","2021-02-06 03:30","2021","02","06","03:30","0.2","","-1.2","","91","","","M","22","","16","","24.1","","101.05","","","","","","Drizzle"
"-57.39","49.21","DEER LAKE A","8401502","2021-02-06 04:30","2021","02","06","04:30","-0.9","","-1.8","","94","","","M","18","","4","","24.1","","101.05","","","","-2","","NA"
"-57.39","49.21","DEER LAKE A","8401502","2021-02-06 05:30","2021","02","06","05:30","-1.8","","-2.2","","97","","","M","36","","1","","24.1","","101.06","","","","-2","","Mostly Cloudy"
"-57.39","49.21","DEER LAKE A","8401502","2021-02-06 06:30","2021","02","06","06:30","-1.9","","-2.3","","97","","","M","22","","7","","24.1","","101.12","","","","-5","","NA"
"-57.39","49.21","DEER LAKE A","8401502","2021-02-06 07:30","2021","02","06","07:30","-1.3","","-1.8","","96","","","M","5","","8","","24.1","","101.05","","","","-4","","NA"
"-57.39","49.21","DEER LAKE A","8401502","2021-02-06 08:30","2021","02","06","08:30","-1.8","","-2.3","","96","","","M","6","","4","","24.1","","101.02","","","","-3","","Cloudy"
"-57.39","49.21","DEER LAKE A","8401502","2021-02-06 09:30","2021","02","06","09:30","-1.1","","-1.8","","95","","","M","4","","7","","24.1","","100.95","","","","-4","","NA"
"-57.39","49.21","DEER LAKE A","8401502","2021-02-06 10:30","2021","02","06","10:30","-0.7","","-1.6","","93","","","M","4","","16","","24.1","","100.79","","","","-5","","NA"
"-57.39","49.21","DEER LAKE A","8401502","2021-02-06 11:30","2021","02","06","11:30","-0.2","","-1.5","","91","","","M","3","","14","","4.8","","100.68","","","","-4","","Snow"
"-57.39","49.21","DEER LAKE A","8401502","2021-02-06 12:30","2021","02","06","12:30","-0.2","","-0.7","","97","","","M","5","","21","","0.8","","100.48","","","","-6","","Moderate Snow"
"-57.39","49.21","DEER LAKE A","8401502","2021-02-06 13:30","2021","02","06","13:30","0.0","","-0.5","","96","","","M","4","","22","","6.4","","100.25","","","","-6","","Snow"
"-57.39","49.21","DEER LAKE A","8401502","2021-02-06 14:30","2021","02","06","14:30","0.5","","-0.3","","94","","","M","4","","17","","24.1","","100.10","","","","","","Snow"
"-57.39","49.21","DEER LAKE A","8401502","2021-02-06 15:30","2021","02","06","15:30","1.7","","-0.6","","85","","","M","8","","21","","24.1","","100.00","","","","","","NA"
"-57.39","49.21","DEER LAKE A","8401502","2021-02-06 16:30","2021","02","06","16:30","0.9","","-0.2","","92","","","M","5","","13","","24.1","","99.91","","","","","","NA"
"-57.39","49.21","DEER LAKE A","8401502","2021-02-06 17:30","2021","02","06","17:30","0.7","","0.0","","95","","","M","36","","10","","24.1","","99.82","","","","","","Cloudy"
"-57.39","49.21","DEER LAKE A","8401502","2021-02-06 18:30","2021","02","06","18:30","0.5","","-0.1","","96","","","M","4","","8","","24.1","","99.76","","","","","","NA"
"-57.39","49.21","DEER LAKE A","8401502","2021-02-06 19:30","2021","02","06","19:30","0.2","","-0.1","","98","","","M","14","","5","","24.1","","99.78","","","","","","Drizzle"
"-57.39","49.21","DEER LAKE A","8401502","2021-02-06 20:30","2021","02","06","20:30","1.9","","0.9","","93","","","M","23","","28","","24.1","","99.79","","","","","","Rain"
"-57.39","49.21","DEER LAKE A","8401502","2021-02-06 21:30","2021","02","06","21:30","1.4","","-1.6","","81","","","M","23","","39","","24.1","","99.86","","","","","","Rain"
"-57.39","49.21","DEER LAKE A","8401502","2021-02-06 22:30","2021","02","06","22:30","0.9","","-2.6","","78","","","M","23","","36","","16.1","","99.90","","","","","","Snow"
"-57.39","49.21","DEER LAKE A","8401502","2021-02-06 23:30","2021","02","06","23:30","0.4","","-2.3","","82","","","M","23","","23","","24.1","","99.90","","","","","","Snow"
"-57.39","49.21","DEER LAKE A","8401502","2021-02-07 00:30","2021","02","07","00:30","-0.3","","-3.7","","78","","","M","24","","27","","19.3","","99.94","","","","-7","","Snow"
"-57.39","49.21","DEER LAKE A","8401502","2021-02-07 01:30","2021","02","07","01:30","-1.9","","-4.2","","85","","","M","24","","24","","19.3","","99.99","","","","-8","","Snow"
"-57.39","49.21","DEER LAKE A","8401502","2021-02-07 02:30","2021","02","07","02:30","-2.5","","-5.1","","82","","","M","24","","14","","19.3","","100.00","","","","-7","","Snow"
"-57.39","49.21","DEER LAKE A","8401502","2021-02-07 03:30","2021","02","07","03:30","-2.8","","-6.1","","78","","","M","23","","30","","19.3","","99.99","","","","-10","","Snow"
"-57.39","49.21","DEER LAKE A","8401502","2021-02-07 04:30","2021","02","07","04:30","-2.7","","-7.2","","71","","","M","23","","43","","24.1","","99.95","","","","-11","","Snow"
"-57.39","49.21","DEER LAKE A","8401502","2021-02-07 05:30","2021","02","07","05:30","-3.4","","-6.3","","80","","","M","23","","32","","4.8","","100.02","","","","-11","","Snow"
"-57.39","49.21","DEER LAKE A","8401502","2021-02-07 06:30","2021","02","07","06:30","-3.2","","-5.0","","87","","","M","24","","25","","4.8","","100.09","","","","-10","","Snow"
"-57.39","49.21","DEER LAKE A","8401502","2021-02-07 07:30","2021","02","07","07:30","-3.0","","-5.4","","84","","","M","23","","32","","3.2","","100.16","","","","-11","","Snow"
"-57.39","49.21","DEER LAKE A","8401502","2021-02-07 08:30","2021","02","07","08:30","-2.8","","-6.0","","79","","","M","23","","43","","3.2","","100.25","","","","-11","","Snow"
"-57.39","49.21","DEER LAKE A","8401502","2021-02-07 09:30","2021","02","07","09:30","-2.7","","-5.7","","80","","","M","23","","49","","3.2","","100.40","","","","-12","","Snow,Blowing Snow"
"-57.39","49.21","DEER LAKE A","8401502","2021-02-07 10:30","2021","02","07","10:30","-2.8","","-5.7","","81","","","M","24","","49","","2.4","","100.56","","","","-12","","Snow,Blowing Snow"
"-57.39","49.21","DEER LAKE A","8401502","2021-02-07 11:30","2021","02","07","11:30","-2.3","","-7.1","","70","","","M","25","","49","","6.4","","100.67","","","","-11","","Snow,Blowing Snow"
"-57.39","49.21","DEER LAKE A","8401502","2021-02-07 12:30","2021","02","07","12:30","-2.3","","-6.8","","71","","","M","24","","40","","8.1","","100.71","","","","-10","","Snow,Blowing Snow"
"-57.39","49.21","DEER LAKE A","8401502","2021-02-07 13:30","2021","02","07","13:30","-2.2","","-6.7","","71","","","M","25","","34","","16.1","","100.82","","","","-10","","Snow,Blowing Snow"
"-57.39","49.21","DEER LAKE A","8401502","2021-02-07 14:30","2021","02","07","14:30","-2.2","","-6.8","","71","","","M","25","","42","","19.3","","100.88","","","","-11","","Snow,Blowing Snow"
"-57.39","49.21","DEER LAKE A","8401502","2021-02-07 15:30","2021","02","07","15:30","-2.2","","-6.0","","75","","","M","26","","20","","16.1","","101.05","","","","-8","","Snow,Blowing Snow"
"-57.39","49.21","DEER LAKE A","8401502","2021-02-07 16:30","2021","02","07","16:30","-2.1","","-6.4","","72","","","M","25","","28","","19.3","","101.06","","","","-9","","Snow,Blowing Snow"
"-57.39","49.21","DEER LAKE A","8401502","2021-02-07 17:30","2021","02","07","17:30","-2.4","","-6.4","","74","","","M","24","","29","","19.3","","101.12","","","","-9","","Snow,Blowing Snow"
"-57.39","49.21","DEER LAKE A","8401502","2021-02-07 18:30","2021","02","07","18:30","-2.1","","-6.5","","72","","","M","24","","22","","24.1","","101.26","","","","-8","","Snow,Blowing Snow"
"-57.39","49.21","DEER LAKE A","8401502","2021-02-07 19:30","2021","02","07","19:30","-2.0","","-6.6","","71","","","M","23","","30","","24.1","","101.35","","","","-9","","NA"
"-57.39","49.21","DEER LAKE A","8401502","2021-02-07 20:30","2021","02","07","20:30","-2.2","","-6.5","","72","","","M","24","","11","","24.1","","101.39","","","","-6","","Snow"
"-57.39","49.21","DEER LAKE A","8401502","2021-02-07 21:30","2021","02","07","21:30","-2.2","","-6.4","","73","","","M","24","","18","","24.1","","101.31","","","","-8","","Snow"
"-57.39","49.21","DEER LAKE A","8401502","2021-02-07 22:30","2021","02","07","22:30","-2.3","","-6.2","","74","","","M","23","","19","","24.1","","101.19","","","","-8","","Snow"
"-57.39","49.21","DEER LAKE A","8401502","2021-02-07 23:30","2021","02","07","23:30","-2.3","","-6.2","","75","","","M","28","","12","","24.1","","101.17","","","","-7","","Snow"
"-57.39","49.21","DEER LAKE A","8401502","2021-02-08 00:30","2021","02","08","00:30","-2.9","","-6.3","","77","","","M","34","","3","","24.1","","101.08","","","","-4","","Snow"
"-57.39","49.21","DEER LAKE A","8401502","2021-02-08 01:30","2021","02","08","01:30","-3.0","","-6.3","","78","","","M","22","","8","","24.1","","100.84","","","","-6","","Snow"
"-57.39","49.21","DEER LAKE A","8401502","2021-02-08 02:30","2021","02","08","02:30","-3.2","","-6.1","","80","","","M","22","","7","","24.1","","100.72","","","","-6","","Snow"
"-57.39","49.21","DEER LAKE A","8401502","2021-02-08 03:30","2021","02","08","03:30","-4.0","","-6.1","","86","","","M","16","","4","","24.1","","100.63","","","","-6","","Snow"
"-57.39","49.21","DEER LAKE A","8401502","2021-02-08 04:30","2021","02","08","04:30","-4.1","","-6.0","","87","","","M","2","","5","","24.1","","100.59","","","","-6","","NA"
"-57.39","49.21","DEER LAKE A","8401502","2021-02-08 05:30","2021","02","08","05:30","-4.3","","-6.2","","87","","","M","1","","6","","24.1","","100.40","","","","-7","","Cloudy"
"-57.39","49.21","DEER LAKE A","8401502","2021-02-08 06:30","2021","02","08","06:30","-4.5","","-6.1","","89","","","M","4","","9","","24.1","","100.08","","","","-8","","NA"
"-57.39","49.21","DEER LAKE A","8401502","2021-02-08 07:30","2021","02","08","07:30","-4.4","","-6.1","","88","","","M","5","","10","","24.1","","100.02","","","","-9","","NA"
"-57.39","49.21","DEER LAKE A","8401502","2021-02-08 08:30","2021","02","08","08:30","-4.2","","-6.0","","87","","","M","4","","25","","24.1","","99.65","","","","-11","","Cloudy"
"-57.39","49.21","DEER LAKE A","8401502","2021-02-08 09:30","2021","02","08","09:30","-3.8","","-5.9","","86","","","M","4","","19","","24.1","","99.51","","","","-10","","NA"
"-57.39","49.21","DEER LAKE A","8401502","2021-02-08 10:30","2021","02","08","10:30","-3.1","","-5.0","","86","","","M","3","","23","","24.1","","99.32","","","","-10","","Snow"
"-57.39","49.21","DEER LAKE A","8401502","2021-02-08 11:30","2021","02","08","11:30","-2.3","","-4.4","","86","","","M","2","","9","","4.0","","99.30","","","","-6","","Snow"
"-57.39","49.21","DEER LAKE A","8401502","2021-02-08 12:30","2021","02","08","12:30","-2.2","","-3.1","","93","","","M","36","","8","","1.2","","99.18","","","","-5","","Snow"
"-57.39","49.21","DEER LAKE A","8401502","2021-02-08 13:30","2021","02","08","13:30","-1.5","","-2.4","","94","","","M","1","","8","","1.2","","99.07","","","","-5","","Snow"
"-57.39","49.21","DEER LAKE A","8401502","2021-02-08 14:30","2021","02","08","14:30","-1.6","","-2.2","","96","","","M","30","","4","","0.8","","98.99","","","","-3","","Moderate Snow"
"-57.39","49.21","DEER LAKE A","8401502","2021-02-08 15:30","2021","02","08","15:30","-1.4","","-2.0","","96","","","M","26","","4","","0.8","","98.99","","","","-3","","Moderate Snow"
"-57.39","49.21","DEER LAKE A","8401502","2021-02-08 16:30","2021","02","08","16:30","-1.1","","-1.9","","94","","","M","31","","9","","1.2","","99.01","","","","-4","","Snow"
"-57.39","49.21","DEER LAKE A","8401502","2021-02-08 17:30","2021","02","08","17:30","-0.8","","-2.3","","89","","","M","31","","16","","2.4","","99.05","","","","-6","","Snow"
"-57.39","49.21","DEER LAKE A","8401502","2021-02-08 18:30","2021","02","08","18:30","-0.5","","-1.8","","91","","","M","30","","12","","4.8","","99.08","","","","-4","","Snow"
"-57.39","49.21","DEER LAKE A","8401502","2021-02-08 19:30","2021","02","08","19:30","0.1","","-1.3","","90","","","M","28","","16","","4.8","","99.08","","","","","","Snow"
"-57.39","49.21","DEER LAKE A","8401502","2021-02-08 20:30","2021","02","08","20:30","0.3","","-1.0","","91","","","M","25","","17","","19.3","","99.10","","","","","","Snow"
"-57.39","49.21","DEER LAKE A","8401502","2021-02-08 21:30","2021","02","08","21:30","0.6","","-0.8","","91","","","M","26","","16","","8.1","","99.15","","","","","","Snow"
"-57.39","49.21","DEER LAKE A","8401502","2021-02-08 22:30","2021","02","08","22:30","0.1","","-0.4","","96","","","M","23","","16","","4.8","","99.21","","","","","","Snow"
"-57.39","49.21","DEER LAKE A","8401502","2021-02-08 23:30","2021","02","08","23:30","0.1","","-0.3","","97","","","M","23","","21","","1.6","","99.26","","","","","","Snow"
"-57.39","49.21","DEER LAKE A","8401502","2021-02-09 00:30","2021","02","09","00:30","-0.1","","-0.8","","95","","","M","23","","23","","4.8","","99.31","","","","-6","","Snow"
"-57.39","49.21","DEER LAKE A","8401502","2021-02-09 01:30","2021","02","09","01:30","-0.2","","-1.6","","90","","","M","23","","22","","19.3","","99.34","","","","-6","","Snow"
"-57.39","49.21","DEER LAKE A","8401502","2021-02-09 02:30","2021","02","09","02:30","-0.4","","-1.9","","90","","","M","22","","18","","19.3","","99.43","","","","-5","","Snow"
"-57.39","49.21","DEER LAKE A","8401502","2021-02-09 03:30","2021","02","09","03:30","-0.3","","-2.1","","88","","","M","23","","21","","24.1","","99.47","","","","-6","","Snow"
"-57.39","49.21","DEER LAKE A","8401502","2021-02-09 04:30","2021","02","09","04:30","-0.5","","-2.4","","87","","","M","24","","19","","24.1","","99.52","","","","-6","","Snow"
"-57.39","49.21","DEER LAKE A","8401502","2021-02-09 05:30","2021","02","09","05:30","-1.0","","-3.0","","86","","","M","25","","21","","24.1","","99.55","","","","-7","","Snow"
"-57.39","49.21","DEER LAKE A","8401502","2021-02-09 06:30","2021","02","09","06:30","-1.3","","-3.7","","83","","","M","25","","28","","24.1","","99.62","","","","-8","","Snow"
"-57.39","49.21","DEER LAKE A","8401502","2021-02-09 07:30","2021","02","09","07:30","-1.8","","-4.3","","83","","","M","24","","25","","24.1","","99.70","","","","-8","","Snow"
"-57.39","49.21","DEER LAKE A","8401502","2021-02-09 08:30","2021","02","09","08:30","-2.1","","-4.8","","82","","","M","25","","22","","24.1","","99.78","","","","-8","","Cloudy"
"-57.39","49.21","DEER LAKE A","8401502","2021-02-09 09:30","2021","02","09","09:30","-2.3","","-5.1","","81","","","M","24","","28","","24.1","","99.85","","","","-9","","Blowing Snow"
"-57.39","49.21","DEER LAKE A","8401502","2021-02-09 10:30","2021","02","09","10:30","-2.0","","-5.3","","78","","","M","26","","26","","24.1","","99.94","","","","-9","","Blowing Snow"
"-57.39","49.21","DEER LAKE A","8401502","2021-02-09 11:30","2021","02","09","11:30","-2.0","","-5.8","","75","","","M","25","","25","","24.1","","100.02","","","","-8","","Blowing Snow"
"-57.39","49.21","DEER LAKE A","8401502","2021-02-09 12:30","2021","02","09","12:30","-1.6","","-5.5","","75","","","M","25","","23","","24.1","","100.01","","","","-8","","Blowing Snow"
"-57.39","49.21","DEER LAKE A","8401502","2021-02-09 13:30","2021","02","09","13:30","-2.0","","-5.3","","78","","","M","27","","18","","24.1","","100.08","","","","-7","","Blowing Snow"
"-57.39","49.21","DEER LAKE A","8401502","2021-02-09 14:30","2021","02","09","14:30","-2.1","","-5.5","","78","","","M","24","","21","","19.3","","100.12","","","","-8","","Blowing Snow"
"-57.39","49.21","DEER LAKE A","8401502","2021-02-09 15:30","2021","02","09","15:30","-2.6","","-5.9","","78","","","M","23","","19","","24.1","","100.25","","","","-8","","Blowing Snow"
"-57.39","49.21","DEER LAKE A","8401502","2021-02-09 16:30","2021","02","09","16:30","-3.2","","-6.2","","80","","","M","24","","21","","19.3","","100.33","","","","-9","","Blowing Snow"
"-57.39","49.21","DEER LAKE A","8401502","2021-02-09 17:30","2021","02","09","17:30","-3.7","","-6.8","","79","","","M","25","","19","","19.3","","100.42","","","","-10","","Blowing Snow"
"-57.39","49.21","DEER LAKE A","8401502","2021-02-09 18:30","2021","02","09","18:30","-3.9","","-7.1","","79","","","M","23","","21","","24.1","","100.48","","","","-10","","Blowing Snow"
"-57.39","49.21","DEER LAKE A","8401502","2021-02-09 19:30","2021","02","09","19:30","-4.3","","-7.0","","82","","","M","24","","20","","16.1","","100.53","","","","-11","","Snow"
"-57.39","49.21","DEER LAKE A","8401502","2021-02-09 20:30","2021","02","09","20:30","-4.4","","-7.1","","82","","","M","25","","25","","19.3","","100.56","","","","-12","","Snow"
"-57.39","49.21","DEER LAKE A","8401502","2021-02-09 21:30","2021","02","09","21:30","-4.6","","-7.0","","84","","","M","24","","23","","19.3","","100.60","","","","-12","","Snow"
"-57.39","49.21","DEER LAKE A","8401502","2021-02-09 22:30","2021","02","09","22:30","-4.9","","-7.4","","83","","","M","24","","24","","24.1","","100.60","","","","-12","","Snow"
"-57.39","49.21","DEER LAKE A","8401502","2021-02-09 23:30","2021","02","09","23:30","-5.3","","-7.8","","83","","","M","25","","29","","16.1","","100.61","","","","-13","","Snow"
"-57.39","49.21","DEER LAKE A","8401502","2021-02-10 00:30","2021","02","10","00:30","-5.5","","-8.4","","80","","","M","25","","29","","19.3","","100.64","","","","-14","","Snow"
"-57.39","49.21","DEER LAKE A","8401502","2021-02-10 01:30","2021","02","10","01:30","-5.9","","-9.0","","79","","","M","26","","24","","24.1","","100.66","","","","-13","","Snow"
"-57.39","49.21","DEER LAKE A","8401502","2021-02-10 02:30","2021","02","10","02:30","-6.0","","-8.9","","80","","","M","24","","24","","24.1","","100.67","","","","-13","","Snow"
"-57.39","49.21","DEER LAKE A","8401502","2021-02-10 03:30","2021","02","10","03:30","-6.2","","-9.2","","79","","","M","24","","27","","19.3","","100.62","","","","-14","","Snow"
"-57.39","49.21","DEER LAKE A","8401502","2021-02-10 04:30","2021","02","10","04:30","-6.5","","-9.7","","78","","","M","25","","23","","16.1","","100.65","","","","-14","","Snow"
"-57.39","49.21","DEER LAKE A","8401502","2021-02-10 05:30","2021","02","10","05:30","-6.8","","-10.0","","78","","","M","24","","20","","19.3","","100.63","","","","-14","","Snow"
"-57.39","49.21","DEER LAKE A","8401502","2021-02-10 06:30","2021","02","10","06:30","-6.9","","-9.7","","80","","","M","26","","13","","16.1","","100.56","","","","-12","","Snow"
"-57.39","49.21","DEER LAKE A","8401502","2021-02-10 07:30","2021","02","10","07:30","-7.3","","-10.4","","79","","","M","24","","12","","16.1","","100.51","","","","-13","","Snow"
"-57.39","49.21","DEER LAKE A","8401502","2021-02-10 08:30","2021","02","10","08:30","-7.2","","-10.8","","76","","","M","24","","18","","19.3","","100.46","","","","-14","","Mostly Cloudy"
"-57.39","49.21","DEER LAKE A","8401502","2021-02-10 09:30","2021","02","10","09:30","-6.8","","-10.8","","73","","","M","25","","21","","19.3","","100.40","","","","-14","","NA"
"-57.39","49.21","DEER LAKE A","8401502","2021-02-10 10:30","2021","02","10","10:30","-6.9","","-11.6","","69","","","M","26","","20","","16.1","","100.35","","","","-14","","NA"
"-57.39","49.21","DEER LAKE A","8401502","2021-02-10 11:30","2021","02","10","11:30","-6.8","","-11.8","","68","","","M","27","","22","","12.9","","100.31","","","","-14","","Snow"
"-57.39","49.21","DEER LAKE A","8401502","2021-02-10 12:30","2021","02","10","12:30","-6.7","","-11.8","","67","","","M","25","","24","","12.9","","100.25","","","","-14","","Snow"
"-57.39","49.21","DEER LAKE A","8401502","2021-02-10 13:30","2021","02","10","13:30","-6.9","","-12.0","","67","","","M","26","","22","","16.1","","100.16","","","","-14","","Snow"
"-57.39","49.21","DEER LAKE A","8401502","2021-02-10 14:30","2021","02","10","14:30","-6.9","","-12.2","","66","","","M","26","","27","","16.1","","100.11","","","","-15","","Snow"
"-57.39","49.21","DEER LAKE A","8401502","2021-02-10 15:30","2021","02","10","15:30","-6.9","","-12.2","","66","","","M","25","","27","","16.1","","100.13","","","","-15","","Snow"
"-57.39","49.21","DEER LAKE A","8401502","2021-02-10 16:30","2021","02","10","16:30","-7.4","","-12.5","","67","","","M","25","","27","","16.1","","100.14","","","","-16","","Snow"
"-57.39","49.21","DEER LAKE A","8401502","2021-02-10 17:30","2021","02","10","17:30","-8.1","","-12.2","","73","","","M","24","","13","","16.1","","100.12","","","","-14","","Mostly Cloudy"
"-57.39","49.21","DEER LAKE A","8401502","2021-02-10 18:30","2021","02","10","18:30","-8.2","","-11.8","","76","","","M","23","","23","","16.1","","100.11","","","","-16","","Snow"
"-57.39","49.21","DEER LAKE A","8401502","2021-02-10 19:30","2021","02","10","19:30","-8.2","","-11.4","","78","","","M","24","","18","","16.1","","100.09","","","","-15","","Snow"
"-57.39","49.21","DEER LAKE A","8401502","2021-02-10 20:30","2021","02","10","20:30","-8.3","","-11.7","","77","","","M","22","","17","","12.9","","100.06","","","","-15","","Snow"
"-57.39","49.21","DEER LAKE A","8401502","2021-02-10 21:30","2021","02","10","21:30","-8.5","","-12.2","","75","","","M","25","","18","","12.9","","100.03","","","","-16","","Snow"
"-57.39","49.21","DEER LAKE A","8401502","2021-02-10 22:30","2021","02","10","22:30","-8.9","","-12.3","","76","","","M","24","","25","","4.8","","99.99","","","","-17","","Snow,Blowing Snow"
"-57.39","49.21","DEER LAKE A","8401502","2021-02-10 23:30","2021","02","10","23:30","-9.1","","-12.4","","77","","","M","24","","25","","8.1","","99.95","","","","-18","","Snow,Blowing Snow"
"-57.39","49.21","DEER LAKE A","8401502","2021-02-11 00:30","2021","02","11","00:30","-9.1","","-12.6","","76","","","M","24","","22","","6.4","","99.91","","","","-17","","Snow,Blowing Snow"
"-57.39","49.21","DEER LAKE A","8401502","2021-02-11 01:30","2021","02","11","01:30","-9.1","","-12.9","","74","","","M","24","","26","","4.8","","99.87","","","","-18","","Snow,Blowing Snow"
"-57.39","49.21","DEER LAKE A","8401502","2021-02-11 02:30","2021","02","11","02:30","-9.2","","-12.4","","78","","","M","25","","22","","8.1","","99.88","","","","-17","","Snow,Blowing Snow"
"-57.39","49.21","DEER LAKE A","8401502","2021-02-11 03:30","2021","02","11","03:30","-8.9","","-12.1","","78","","","M","23","","23","","4.8","","99.84","","","","-17","","Snow,Blowing Snow"
"-57.39","49.21","DEER LAKE A","8401502","2021-02-11 04:30","2021","02","11","04:30","-8.6","","-11.7","","78","","","M","24","","22","","6.4","","99.82","","","","-16","","Snow,Blowing Snow"
"-57.39","49.21","DEER LAKE A","8401502","2021-02-11 05:30","2021","02","11","05:30","-8.2","","-11.6","","77","","","M","24","","24","","6.4","","99.80","","","","-16","","Snow,Blowing Snow"
"-57.39","49.21","DEER LAKE A","8401502","2021-02-11 06:30","2021","02","11","06:30","-7.9","","-11.1","","78","","","M","24","","29","","8.1","","99.81","","","","-17","","Snow,Blowing Snow"
"-57.39","49.21","DEER LAKE A","8401502","2021-02-11 07:30","2021","02","11","07:30","-7.6","","-10.9","","77","","","M","25","","26","","4.8","","99.87","","","","-16","","Snow,Blowing Snow"
"-57.39","49.21","DEER LAKE A","8401502","2021-02-11 08:30","2021","02","11","08:30","-7.3","","-10.2","","80","","","M","25","","21","","4.8","","99.91","","","","-15","","Snow,Blowing Snow"
"-57.39","49.21","DEER LAKE A","8401502","2021-02-11 09:30","2021","02","11","09:30","-7.0","","-9.5","","83","","","M","25","","19","","2.4","","99.91","","","","-14","","Snow"
"-57.39","49.21","DEER LAKE A","8401502","2021-02-11 10:30","2021","02","11","10:30","-6.3","","-9.2","","80","","","M","24","","21","","2.4","","99.91","","","","-13","","Snow"
"-57.39","49.21","DEER LAKE A","8401502","2021-02-11 11:30","2021","02","11","11:30","-6.0","","-9.0","","80","","","M","24","","26","","4.8","","99.92","","","","-14","","Snow,Blowing Snow"
"-57.39","49.21","DEER LAKE A","8401502","2021-02-11 12:30","2021","02","11","12:30","-6.0","","-9.1","","79","","","M","25","","29","","4.8","","99.92","","","","-14","","Snow,Blowing Snow"
"-57.39","49.21","DEER LAKE A","8401502","2021-02-11 13:30","2021","02","11","13:30","-6.2","","-9.1","","80","","","M","24","","22","","4.8","","99.91","","","","-13","","Snow,Blowing Snow"
"-57.39","49.21","DEER LAKE A","8401502","2021-02-11 14:30","2021","02","11","14:30","-6.3","","-9.7","","77","","","M","24","","25","","8.1","","99.93","","","","-14","","Snow"
"-57.39","49.21","DEER LAKE A","8401502","2021-02-11 15:30","2021","02","11","15:30","-6.3","","-9.5","","78","","","M","25","","30","","16.1","","99.95","","","","-15","","Snow"
"-57.39","49.21","DEER LAKE A","8401502","2021-02-11 16:30","2021","02","11","16:30","-6.6","","-8.9","","84","","","M","24","","24","","4.8","","99.96","","","","-14","","Snow,Blowing Snow"
"-57.39","49.21","DEER LAKE A","8401502","2021-02-11 17:30","2021","02","11","17:30","-6.7","","-9.2","","83","","","M","24","","22","","4.8","","99.98","","","","-14","","Snow,Blowing Snow"
"-57.39","49.21","DEER LAKE A","8401502","2021-02-11 18:30","2021","02","11","18:30","-6.6","","-8.9","","84","","","M","23","","20","","4.8","","99.99","","","","-14","","Snow,Blowing Snow"
"-57.39","49.21","DEER LAKE A","8401502","2021-02-11 19:30","2021","02","11","19:30","-6.4","","-8.7","","84","","","M","23","","22","","16.1","","99.98","","","","-14","","Snow"
"-57.39","49.21","DEER LAKE A","8401502","2021-02-11 20:30","2021","02","11","20:30","-6.2","","-8.8","","82","","","M","24","","22","","16.1","","99.97","","","","-13","","Snow"
"-57.39","49.21","DEER LAKE A","8401502","2021-02-11 21:30","2021","02","11","21:30","-5.9","","-8.6","","81","","","M","24","","19","","8.1","","99.97","","","","-13","","Snow"
"-57.39","49.21","DEER LAKE A","8401502","2021-02-11 22:30","2021","02","11","22:30","-5.5","","-8.0","","83","","","M","24","","24","","12.9","","99.94","","","","-13","","Snow"
"-57.39","49.21","DEER LAKE A","8401502","2021-02-11 23:30","2021","02","11","23:30","-5.1","","-7.7","","82","","","M","24","","21","","8.1","","99.92","","","","-12","","Snow"
"-57.39","49.21","DEER LAKE A","8401502","2021-02-12 00:30","2021","02","12","00:30","-4.5","","-7.1","","82","","","M","24","","17","","16.1","","99.89","","","","-10","","Snow"
"-57.39","49.21","DEER LAKE A","8401502","2021-02-12 01:30","2021","02","12","01:30","-4.1","","-6.6","","83","","","M","25","","6","","9.7","","99.89","","","","-7","","Snow"
"-57.39","49.21","DEER LAKE A","8401502","2021-02-12 02:30","2021","02","12","02:30","-3.8","","-6.2","","83","","","M","24","","17","","12.9","","99.88","","","","-10","","Snow"
"-57.39","49.21","DEER LAKE A","8401502","2021-02-12 03:30","2021","02","12","03:30","-3.5","","-5.8","","84","","","M","24","","14","","16.1","","99.89","","","","-9","","Snow"
"-57.39","49.21","DEER LAKE A","8401502","2021-02-12 04:30","2021","02","12","04:30","-3.5","","-5.4","","87","","","M","23","","10","","16.1","","99.91","","","","-7","","Snow"
"-57.39","49.21","DEER LAKE A","8401502","2021-02-12 05:30","2021","02","12","05:30","-3.2","","-4.9","","88","","","M","23","","10","","24.1","","99.95","","","","-7","","Snow"
"-57.39","49.21","DEER LAKE A","8401502","2021-02-12 06:30","2021","02","12","06:30","-3.0","","-4.7","","88","","","M","22","","12","","24.1","","99.99","","","","-7","","Snow"
"-57.39","49.21","DEER LAKE A","8401502","2021-02-12 07:30","2021","02","12","07:30","-3.0","","-4.5","","90","","","M","22","","8","","24.1","","100.05","","","","-6","","Snow"
"-57.39","49.21","DEER LAKE A","8401502","2021-02-12 08:30","2021","02","12","08:30","-3.0","","-4.2","","91","","","M","22","","10","","24.1","","100.13","","","","-7","","Cloudy"
"-57.39","49.21","DEER LAKE A","8401502","2021-02-12 09:30","2021","02","12","09:30","-1.9","","-3.4","","90","","","M","23","","7","","19.3","","100.20","","","","-5","","Snow"
"-57.39","49.21","DEER LAKE A","8401502","2021-02-12 10:30","2021","02","12","10:30","0.1","","-4.1","","73","","","M","34","","7","","24.1","","100.24","","","","","","NA"
"-57.39","49.21","DEER LAKE A","8401502","2021-02-12 11:30","2021","02","12","11:30","0.7","","-5.2","","65","","","M","36","","16","","24.1","","100.28","","","","","","Cloudy"
"-57.39","49.21","DEER LAKE A","8401502","2021-02-12 12:30","2021","02","12","12:30","1.3","","-5.3","","62","","","M","33","","14","","24.1","","100.28","","","","","","NA"
"-57.39","49.21","DEER LAKE A","8401502","2021-02-12 13:30","2021","02","12","13:30","0.9","","-6.1","","60","","","M","32","","21","","24.1","","100.33","","","","","","NA"
"-57.39","49.21","DEER LAKE A","8401502","2021-02-12 14:30","2021","02","12","14:30","0.6","","-5.2","","65","","","M","30","","12","","24.1","","100.39","","","","","","Mostly Cloudy"
"-57.39","49.21","DEER LAKE A","8401502","2021-02-12 15:30","2021","02","12","15:30","0.0","","-5.2","","68","","","M","31","","18","","24.1","","100.47","","","","-5","","NA"
"-57.39","49.21","DEER LAKE A","8401502","2021-02-12 16:30","2021","02","12","16:30","-1.3","","-5.5","","73","","","M","28","","14","","24.1","","100.60","","","","-6","","NA"
"-57.39","49.21","DEER LAKE A","8401502","2021-02-12 17:30","2021","02","12","17:30","-1.7","","-6.0","","72","","","M","29","","13","","24.1","","100.70","","","","-6","","Mostly Cloudy"
"-57.39","49.21","DEER LAKE A","8401502","2021-02-12 18:30","2021","02","12","18:30","-2.1","","-6.4","","73","","","M","27","","9","","24.1","","100.80","","","","-6","","NA"
"-57.39","49.21","DEER LAKE A","8401502","2021-02-12 19:30","2021","02","12","19:30","-2.1","","-6.4","","73","","","M","25","","6","","24.1","","100.87","","","","-4","","NA"
"-57.39","49.21","DEER LAKE A","8401502","2021-02-12 20:30","2021","02","12","20:30","-2.2","","-6.0","","76","","","M","23","","9","","24.1","","100.93","","","","-6","","Mostly Cloudy"
"-57.39","49.21","DEER LAKE A","8401502","2021-02-12 21:30","2021","02","12","21:30","-2.3","","-5.7","","77","","","M","23","","10","","24.1","","100.98","","","","-6","","NA"
"-57.39","49.21","DEER LAKE A","8401502","2021-02-12 22:30","2021","02","12","22:30","-2.2","","-6.2","","75","","","M","25","","7","","24.1","","100.99","","","","-5","","Snow"
"-57.39","49.21","DEER LAKE A","8401502","2021-02-12 23:30","2021","02","12","23:30","-2.4","","-6.6","","73","","","M","27","","9","","24.1","","100.99","","","","-6","","Cloudy"
"-57.39","49.21","DEER LAKE A","8401502","2021-02-13 00:30","2021","02","13","00:30","-2.4","","-7.4","","69","","","M","27","","11","","24.1","","100.99","","","","-6","","NA"
"-57.39","49.21","DEER LAKE A","8401502","2021-02-13 01:30","2021","02","13","01:30","-2.6","","-8.3","","65","","","M","28","","9","","24.1","","101.01","","","","-6","","NA"
"-57.39","49.21","DEER LAKE A","8401502","2021-02-13 02:30","2021","02","13","02:30","-2.8","","-8.0","","68","","","M","25","","9","","24.1","","101.02","","","","-6","","Cloudy"
"-57.39","49.21","DEER LAKE A","8401502","2021-02-13 03:30","2021","02","13","03:30","-3.0","","-7.8","","70","","","M","26","","8","","24.1","","101.03","","","","-6","","NA"
"-57.39","49.21","DEER LAKE A","8401502","2021-02-13 04:30","2021","02","13","04:30","-3.3","","-7.5","","72","","","M","27","","13","","24.1","","101.03","","","","-8","","NA"
"-57.39","49.21","DEER LAKE A","8401502","2021-02-13 05:30","2021","02","13","05:30","-3.6","","-10.0","","61","","","M","29","","9","","24.1","","101.05","","","","-7","","Cloudy"
"-57.39","49.21","DEER LAKE A","8401502","2021-02-13 06:30","2021","02","13","06:30","-4.5","","-8.6","","73","","","M","22","","6","","24.1","","101.07","","","","-7","","NA"
"-57.39","49.21","DEER LAKE A","8401502","2021-02-13 07:30","2021","02","13","07:30","-4.1","","-9.4","","67","","","M","26","","13","","24.1","","101.08","","","","-9","","NA"
"-57.39","49.21","DEER LAKE A","8401502","2021-02-13 08:30","2021","02","13","08:30","-4.5","","-9.1","","71","","","M","23","","8","","24.1","","101.09","","","","-8","","Mostly Cloudy"
"-57.39","49.21","DEER LAKE A","8401502","2021-02-13 09:30","2021","02","13","09:30","-4.1","","-8.1","","74","","","M","22","","10","","24.1","","101.10","","","","-8","","Snow"
"-57.39","49.21","DEER LAKE A","8401502","2021-02-13 10:30","2021","02","13","10:30","-3.0","","-8.3","","67","","","M","23","","7","","24.1","","101.05","","","","-6","","NA"
"-57.39","49.21","DEER LAKE A","8401502","2021-02-13 11:30","2021","02","13","11:30","-2.6","","-8.3","","65","","","M","28","","18","","19.3","","101.07","","","","-8","","Cloudy"
"-57.39","49.21","DEER LAKE A","8401502","2021-02-13 12:30","2021","02","13","12:30","-3.8","","-9.7","","64","","","M","29","","18","","19.3","","101.11","","","","-10","","NA"
"-57.39","49.21","DEER LAKE A","8401502","2021-02-13 13:30","2021","02","13","13:30","-4.1","","-8.9","","70","","","M","29","","21","","12.9","","101.08","","","","-11","","Snow"
"-57.39","49.21","DEER LAKE A","8401502","2021-02-13 14:30","2021","02","13","14:30","-4.4","","-10.2","","64","","","M","29","","23","","19.3","","101.09","","","","-11","","Snow"
"-57.39","49.21","DEER LAKE A","8401502","2021-02-13 15:30","2021","02","13","15:30","-5.1","","-10.8","","65","","","M","28","","12","","19.3","","101.17","","","","-10","","Snow"
"-57.39","49.21","DEER LAKE A","8401502","2021-02-13 16:30","2021","02","13","16:30","-6.2","","-11.3","","67","","","M","30","","13","","19.3","","101.27","","","","-12","","Snow"
"-57.39","49.21","DEER LAKE A","8401502","2021-02-13 17:30","2021","02","13","17:30","-6.8","","-12.2","","65","","","M","29","","11","","24.1","","101.35","","","","-12","","Cloudy"
"-57.39","49.21","DEER LAKE A","8401502","2021-02-13 18:30","2021","02","13","18:30","-7.4","","-11.8","","71","","","M","32","","5","","19.3","","101.43","","","","-10","","Snow"
"-57.39","49.21","DEER LAKE A","8401502","2021-02-13 19:30","2021","02","13","19:30","-7.6","","-12.2","","70","","","M","28","","6","","19.3","","101.47","","","","-11","","Snow"
"-57.39","49.21","DEER LAKE A","8401502","2021-02-13 20:30","2021","02","13","20:30","-8.0","","-11.6","","76","","","M","36","","2","","24.1","","101.54","","","","-9","","Snow"
"-57.39","49.21","DEER LAKE A","8401502","2021-02-13 21:30","2021","02","13","21:30","-8.2","","-11.6","","77","","","M","19","","5","","19.3","","101.59","","","","-11","","Snow"
"-57.39","49.21","DEER LAKE A","8401502","2021-02-13 22:30","2021","02","13","22:30","-8.1","","-11.0","","80","","","M","22","","9","","24.1","","101.62","","","","-13","","Snow"
"-57.39","49.21","DEER LAKE A","8401502","2021-02-13 23:30","2021","02","13","23:30","-8.3","","-12.0","","75","","","M","27","","5","","24.1","","101.65","","","","-11","","Snow"
"-57.39","49.21","DEER LAKE A","8401502","2021-02-14 00:30","2021","02","14","00:30","-8.9","","-12.4","","76","","","M","24","","11","","24.1","","101.71","","","","-14","","Snow"
"-57.39","49.21","DEER LAKE A","8401502","2021-02-14 01:30","2021","02","14","01:30","-8.7","","-12.0","","77","","","M","21","","14","","24.1","","101.78","","","","-15","","Snow"
"-57.39","49.21","DEER LAKE A","8401502","2021-02-14 02:30","2021","02","14","02:30","-7.9","","-12.4","","70","","","M","24","","9","","24.1","","101.78","","","","-12","","Snow"
"-57.39","49.21","DEER LAKE A","8401502","2021-02-14 03:30","2021","02","14","03:30","-7.7","","-12.3","","70","","","M","22","","16","","24.1","","101.82","","","","-14","","Snow"
"-57.39","49.21","DEER LAKE A","8401502","2021-02-14 04:30","2021","02","14","04:30","-7.9","","-12.4","","70","","","M","20","","13","","24.1","","101.83","","","","-14","","NA"
"-57.39","49.21","DEER LAKE A","8401502","2021-02-14 05:30","2021","02","14","05:30","-7.8","","-12.3","","70","","","M","23","","14","","24.1","","101.91","","","","-14","","Mostly Cloudy"
"-57.39","49.21","DEER LAKE A","8401502","2021-02-14 06:30","2021","02","14","06:30","-8.2","","-12.6","","71","","","M","22","","12","","24.1","","101.93","","","","-14","","NA"
"-57.39","49.21","DEER LAKE A","8401502","2021-02-14 07:30","2021","02","14","07:30","-8.6","","-12.9","","72","","","M","26","","5","","24.1","","101.94","","","","-11","","NA"
"-57.39","49.21","DEER LAKE A","8401502","2021-02-14 08:30","2021","02","14","08:30","-8.3","","-13.1","","69","","","M","23","","9","","24.1","","101.97","","","","-13","","Mainly Clear"
"-57.39","49.21","DEER LAKE A","8401502","2021-02-14 09:30","2021","02","14","09:30","-6.9","","-11.9","","68","","","M","24","","14","","24.1","","101.99","","","","-13","","NA"
"-57.39","49.21","DEER LAKE A","8401502","2021-02-14 10:30","2021","02","14","10:30","-5.2","","-10.3","","67","","","M","23","","24","","24.1","","102.01","","","","-12","","NA"
"-57.39","49.21","DEER LAKE A","8401502","2021-02-14 11:30","2021","02","14","11:30","-4.0","","-10.8","","59","","","M","21","","26","","24.1","","101.97","","","","-11","","Mostly Cloudy"
"-57.39","49.21","DEER LAKE A","8401502","2021-02-14 12:30","2021","02","14","12:30","-4.3","","-11.0","","60","","","M","21","","22","","24.1","","101.91","","","","-11","","NA"
"-57.39","49.21","DEER LAKE A","8401502","2021-02-14 13:30","2021","02","14","13:30","-4.1","","-10.7","","60","","","M","23","","12","","19.3","","101.83","","","","-9","","Snow"
"-57.39","49.21","DEER LAKE A","8401502","2021-02-14 14:30","2021","02","14","14:30","-4.4","","-9.6","","67","","","M","23","","17","","19.3","","101.82","","","","-10","","Snow"
"-57.39","49.21","DEER LAKE A","8401502","2021-02-14 15:30","2021","02","14","15:30","-4.2","","-9.8","","66","","","M","25","","17","","19.3","","101.79","","","","-10","","Snow"
"-57.39","49.21","DEER LAKE A","8401502","2021-02-14 16:30","2021","02","14","16:30","-4.7","","-10.1","","66","","","M","25","","18","","19.3","","101.78","","","","-11","","Snow"
"-57.39","49.21","DEER LAKE A","8401502","2021-02-14 17:30","2021","02","14","17:30","-4.8","","-9.7","","69","","","M","23","","18","","19.3","","101.73","","","","-11","","Snow"
"-57.39","49.21","DEER LAKE A","8401502","2021-02-14 18:30","2021","02","14","18:30","-4.8","","-9.2","","71","","","M","23","","21","","19.3","","101.70","","","","-11","","Snow"
"-57.39","49.21","DEER LAKE A","8401502","2021-02-14 19:30","2021","02","14","19:30","-4.8","","-8.6","","75","","","M","22","","21","","19.3","","101.69","","","","-11","","Snow"
"-57.39","49.21","DEER LAKE A","8401502","2021-02-14 20:30","2021","02","14","20:30","-4.8","","-8.7","","74","","","M","23","","23","","24.1","","101.64","","","","-12","","Snow"
"-57.39","49.21","DEER LAKE A","8401502","2021-02-14 21:30","2021","02","14","21:30","-4.8","","-8.5","","76","","","M","23","","22","","24.1","","101.61","","","","-12","","NA"
"-57.39","49.21","DEER LAKE A","8401502","2021-02-14 22:30","2021","02","14","22:30","-4.9","","-8.3","","77","","","M","23","","26","","19.3","","101.58","","","","-12","","Snow"
"-57.39","49.21","DEER LAKE A","8401502","2021-02-14 23:30","2021","02","14","23:30","-5.3","","-7.9","","82","","","M","23","","19","","6.4","","101.55","","","","-12","","Snow"
"-57.39","49.21","DEER LAKE A","8401502","2021-02-15 00:30","2021","02","15","00:30","-5.6","","-8.8","","78","","","M","25","","17","","11.3","","101.55","","","","-12","","Snow"
"-57.39","49.21","DEER LAKE A","8401502","2021-02-15 01:30","2021","02","15","01:30","-6.2","","-9.8","","76","","","M","24","","15","","24.1","","101.51","","","","-12","","NA"
"-57.39","49.21","DEER LAKE A","8401502","2021-02-15 02:30","2021","02","15","02:30","-6.9","","-9.5","","82","","","M","23","","17","","24.1","","101.52","","","","-13","","Cloudy"
"-57.39","49.21","DEER LAKE A","8401502","2021-02-15 03:30","2021","02","15","03:30","-7.1","","-9.2","","85","","","M","24","","11","","24.1","","101.44","","","","-12","","NA"
"-57.39","49.21","DEER LAKE A","8401502","2021-02-15 04:30","2021","02","15","04:30","-7.8","","-9.6","","87","","","M","24","","5","","24.1","","101.42","","","","-10","","NA"
"-57.39","49.21","DEER LAKE A","8401502","2021-02-15 05:30","2021","02","15","05:30","-8.2","","-9.6","","90","","","M","36","","1","","11.3","","101.45","","","","-9","","Snow"
"-57.39","49.21","DEER LAKE A","8401502","2021-02-15 06:30","2021","02","15","06:30","-6.5","","-9.4","","80","","","M","30","","8","","4.8","","101.48","","","","-10","","Snow"
"-57.39","49.21","DEER LAKE A","8401502","2021-02-15 07:30","2021","02","15","07:30","-6.5","","-9.3","","80","","","M","24","","10","","9.7","","101.47","","","","-11","","Snow"
"-57.39","49.21","DEER LAKE A","8401502","2021-02-15 08:30","2021","02","15","08:30","-6.1","","-8.8","","81","","","M","24","","13","","4.8","","101.49","","","","-11","","Snow"
"-57.39","49.21","DEER LAKE A","8401502","2021-02-15 09:30","2021","02","15","09:30","-5.4","","-8.4","","79","","","M","26","","10","","12.9","","101.49","","","","-10","","Snow"
"-57.39","49.21","DEER LAKE A","8401502","2021-02-15 10:30","2021","02","15","10:30","-4.8","","-9.2","","72","","","M","29","","14","","16.1","","101.49","","","","-10","","Snow"
"-57.39","49.21","DEER LAKE A","8401502","2021-02-15 11:30","2021","02","15","11:30","-4.8","","-9.4","","71","","","M","27","","12","","16.1","","101.48","","","","-10","","Snow"
"-57.39","49.21","DEER LAKE A","8401502","2021-02-15 12:30","2021","02","15","12:30","-4.8","","-9.6","","69","","","M","27","","10","","16.1","","101.48","","","","-9","","Snow"
"-57.39","49.21","DEER LAKE A","8401502","2021-02-15 13:30","2021","02","15","13:30","-4.7","","-10.2","","65","","","M","26","","19","","16.1","","101.44","","","","-11","","Snow"
"-57.39","49.21","DEER LAKE A","8401502","2021-02-15 14:30","2021","02","15","14:30","-4.9","","-10.3","","66","","","M","25","","17","","19.3","","101.46","","","","-11","","Snow"
"-57.39","49.21","DEER LAKE A","8401502","2021-02-15 15:30","2021","02","15","15:30","-4.8","","-9.7","","69","","","M","27","","9","","19.3","","101.48","","","","-9","","NA"
"-57.39","49.21","DEER LAKE A","8401502","2021-02-15 16:30","2021","02","15","16:30","-5.2","","-10.1","","69","","","M","25","","17","","24.1","","101.50","","","","-11","","NA"
"-57.39","49.21","DEER LAKE A","8401502","2021-02-15 17:30","2021","02","15","17:30","-5.9","","-10.6","","69","","","M","27","","16","","24.1","","101.52","","","","-12","","Mostly Cloudy"
"-57.39","49.21","DEER LAKE A","8401502","2021-02-15 18:30","2021","02","15","18:30","-6.7","","-11.3","","70","","","M","26","","18","","24.1","","101.59","","","","-13","","NA"
"-57.39","49.21","DEER LAKE A","8401502","2021-02-15 19:30","2021","02","15","19:30","-7.6","","-11.9","","71","","","M","20","","13","","24.1","","101.64","","","","-13","","NA"
"-57.39","49.21","DEER LAKE A","8401502","2021-02-15 20:30","2021","02","15","20:30","-7.8","","-12.1","","72","","","M","21","","23","","24.1","","101.62","","","","-16","","Mostly Cloudy"
"-57.39","49.21","DEER LAKE A","8401502","2021-02-15 21:30","2021","02","15","21:30","-7.1","","-11.6","","71","","","M","24","","25","","24.1","","101.62","","","","-15","","NA"
"-57.39","49.21","DEER LAKE A","8401502","2021-02-15 22:30","2021","02","15","22:30","-6.7","","-11.4","","69","","","M","25","","26","","24.1","","101.69","","","","-15","","NA"
"-57.39","49.21","DEER LAKE A","8401502","2021-02-15 23:30","2021","02","15","23:30","-6.7","","-11.4","","70","","","M","24","","18","","24.1","","101.61","","","","-13","","Cloudy"
"-57.39","49.21","DEER LAKE A","8401502","2021-02-16 00:30","2021","02","16","00:30","-7.0","","-11.0","","73","","","M","21","","16","","24.1","","101.72","","","","-13","","NA"
"-57.39","49.21","DEER LAKE A","8401502","2021-02-16 01:30","2021","02","16","01:30","-7.1","","-11.6","","71","","","M","23","","12","","24.1","","101.70","","","","-12","","NA"
"-57.39","49.21","DEER LAKE A","8401502","2021-02-16 02:30","2021","02","16","02:30","-8.3","","-12.5","","72","","","M","22","","16","","24.1","","101.72","","","","-15","","Mainly Clear"
"-57.39","49.21","DEER LAKE A","8401502","2021-02-16 03:30","2021","02","16","03:30","-9.2","","-12.3","","79","","","M","19","","14","","24.1","","101.66","","","","-16","","NA"
"-57.39","49.21","DEER LAKE A","8401502","2021-02-16 04:30","2021","02","16","04:30","-9.3","","-12.3","","79","","","M","25","","5","","24.1","","101.65","","","","-12","","NA"
"-57.39","49.21","DEER LAKE A","8401502","2021-02-16 05:30","2021","02","16","05:30","-8.6","","-12.1","","76","","","M","23","","17","","24.1","","101.68","","","","-15","","Mainly Clear"
"-57.39","49.21","DEER LAKE A","8401502","2021-02-16 06:30","2021","02","16","06:30","-10.8","","-14.1","","77","","","M","16","","4","","24.1","","101.77","","","","-13","","NA"
"-57.39","49.21","DEER LAKE A","8401502","2021-02-16 07:30","2021","02","16","07:30","-10.7","","-12.9","","84","","","M","12","","5","","24.1","","101.77","","","","-14","","Snow Showers"
"-57.39","49.21","DEER LAKE A","8401502","2021-02-16 08:30","2021","02","16","08:30","-10.0","","-12.1","","85","","","M","36","","2","","19.3","","101.83","","","","-11","","Snow Showers"
"-57.39","49.21","DEER LAKE A","8401502","2021-02-16 09:30","2021","02","16","09:30","-6.1","","-10.8","","70","","","M","24","","3","","19.3","","101.81","","","","-8","","Snow Showers"
"-57.39","49.21","DEER LAKE A","8401502","2021-02-16 10:30","2021","02","16","10:30","-4.5","","-10.9","","61","","","M","29","","10","","19.3","","101.86","","","","-9","","Snow Showers"
"-57.39","49.21","DEER LAKE A","8401502","2021-02-16 11:30","2021","02","16","11:30","-4.2","","-11.1","","59","","","M","24","","16","","19.3","","101.82","","","","-10","","Snow Showers"
"-57.39","49.21","DEER LAKE A","8401502","2021-02-16 12:30","2021","02","16","12:30","-4.1","","-11.2","","58","","","M","27","","12","","19.3","","101.75","","","","-9","","Snow"
"-57.39","49.21","DEER LAKE A","8401502","2021-02-16 13:30","2021","02","16","13:30","-4.0","","-10.8","","59","","","M","27","","15","","24.1","","101.72","","","","-9","","NA"
"-57.39","49.21","DEER LAKE A","8401502","2021-02-16 14:30","2021","02","16","14:30","-4.0","","-10.7","","60","","","M","30","","9","","24.1","","101.61","","","","-8","","Snow"
"-57.39","49.21","DEER LAKE A","8401502","2021-02-16 15:30","2021","02","16","15:30","-3.9","","-11.2","","57","","","M","25","","13","","24.1","","101.62","","","","-9","","NA"
"-57.39","49.21","DEER LAKE A","8401502","2021-02-16 16:30","2021","02","16","16:30","-4.2","","-10.6","","62","","","M","29","","5","","24.1","","101.53","","","","-6","","Snow"
"-57.39","49.21","DEER LAKE A","8401502","2021-02-16 17:30","2021","02","16","17:30","-4.7","","-10.1","","66","","","M","5","","4","","","M","101.48","","","","-6","","Snow"
"-57.39","49.21","DEER LAKE A","8401502","2021-02-16 18:30","2021","02","16","18:30","-6.1","","-7.9","","88","","","M","4","","10","","3.2","","101.35","","","","-11","","Snow"
"-57.39","49.21","DEER LAKE A","8401502","2021-02-16 19:30","2021","02","16","19:30","-6.3","","-7.7","","90","","","M","4","","12","","4.0","","101.28","","","","-11","","Snow"
"-57.39","49.21","DEER LAKE A","8401502","2021-02-16 20:30","2021","02","16","20:30","-6.4","","-7.6","","91","","","M","5","","14","","1.6","","101.09","","","","-12","","Snow"
"-57.39","49.21","DEER LAKE A","8401502","2021-02-16 21:30","2021","02","16","21:30","-6.4","","-7.6","","91","","","M","4","","16","","1.6","","100.88","","","","-13","","Snow"
"-57.39","49.21","DEER LAKE A","8401502","2021-02-16 22:30","2021","02","16","22:30","-6.2","","-7.4","","91","","","M","4","","17","","1.2","","100.79","","","","-12","","Snow"
"-57.39","49.21","DEER LAKE A","8401502","2021-02-16 23:30","2021","02","16","23:30","-6.3","","-7.5","","91","","","M","4","","17","","","M","100.59","","","","-13","","Snow"
"-57.39","49.21","DEER LAKE A","8401502","2021-02-17 00:30","2021","02","17","00:30","-6.3","","-7.5","","91","","","M","5","","19","","1.6","","100.33","","","","-13","","Snow"
"-57.39","49.21","DEER LAKE A","8401502","2021-02-17 01:30","2021","02","17","01:30","-6.2","","-7.5","","91","","","M","4","","21","","6.4","","100.02","","","","-13","","Snow"
"-57.39","49.21","DEER LAKE A","8401502","2021-02-17 02:30","2021","02","17","02:30","-6.1","","-7.4","","91","","","M","3","","22","","4.8","","99.75","","","","-13","","Snow"
"-57.39","49.21","DEER LAKE A","8401502","2021-02-17 03:30","2021","02","17","03:30","-6.0","","-7.4","","89","","","M","4","","19","","8.1","","99.55","","","","-13","","Snow"
"-57.39","49.21","DEER LAKE A","8401502","2021-02-17 04:30","2021","02","17","04:30","-5.9","","-7.2","","91","","","M","4","","28","","6.4","","99.11","","","","-14","","Snow"
"-57.39","49.21","DEER LAKE A","8401502","2021-02-17 05:30","2021","02","17","05:30","-5.8","","-7.1","","91","","","M","4","","24","","2.4","","99.02","","","","-13","","Freezing Drizzle,Snow,Ice Pellets"
"-57.39","49.21","DEER LAKE A","8401502","2021-02-17 06:30","2021","02","17","06:30","-5.8","","-7.1","","91","","","M","4","","25","","2.0","","98.89","","","","-13","","Snow,Blowing Snow"
"-57.39","49.21","DEER LAKE A","8401502","2021-02-17 07:30","2021","02","17","07:30","-5.5","","-6.8","","91","","","M","4","","20","","1.2","","98.82","","","","-12","","Snow"
"-57.39","49.21","DEER LAKE A","8401502","2021-02-17 08:30","2021","02","17","08:30","-5.2","","-6.5","","91","","","M","4","","19","","1.6","","98.80","","","","-12","","Snow"
"-57.39","49.21","DEER LAKE A","8401502","2021-02-17 09:30","2021","02","17","09:30","-4.3","","-5.8","","89","","","M","3","","15","","4.8","","98.77","","","","-10","","Snow"
"-57.39","49.21","DEER LAKE A","8401502","2021-02-17 10:30","2021","02","17","10:30","-3.0","","-4.8","","87","","","M","3","","14","","9.7","","98.91","","","","-8","","Snow"
"-57.39","49.21","DEER LAKE A","8401502","2021-02-17 11:30","2021","02","17","11:30","-2.4","","-4.5","","85","","","M","36","","12","","4.8","","99.09","","","","-7","","Snow"
"-57.39","49.21","DEER LAKE A","8401502","2021-02-17 12:30","2021","02","17","12:30","-1.2","","-4.6","","78","","","M","36","","14","","12.9","","99.27","","","","-6","","Snow"
"-57.39","49.21","DEER LAKE A","8401502","2021-02-17 13:30","2021","02","17","13:30","-0.8","","-5.9","","69","","","M","36","","12","","9.7","","99.45","","","","-5","","Snow"
"-57.39","49.21","DEER LAKE A","8401502","2021-02-17 14:30","2021","02","17","14:30","-0.5","","-6.0","","66","","","M","36","","9","","12.9","","99.61","","","","-4","","Snow"
"-57.39","49.21","DEER LAKE A","8401502","2021-02-17 15:30","2021","02","17","15:30","-1.9","","-4.7","","81","","","M","6","","14","","16.1","","99.84","","","","-7","","NA"
"-57.39","49.21","DEER LAKE A","8401502","2021-02-17 16:30","2021","02","17","16:30","-2.4","","-4.5","","85","","","M","8","","13","","12.9","","99.99","","","","-7","","Snow"
"-57.39","49.21","DEER LAKE A","8401502","2021-02-17 17:30","2021","02","17","17:30","-3.0","","-5.3","","84","","","M","10","","5","","16.1","","100.19","","","","-5","","Mostly Cloudy"
"-57.39","49.21","DEER LAKE A","8401502","2021-02-17 18:30","2021","02","17","18:30","-3.4","","-5.3","","87","","","M","5","","10","","12.9","","100.34","","","","-7","","Snow"
"-57.39","49.21","DEER LAKE A","8401502","2021-02-17 19:30","2021","02","17","19:30","-3.9","","-5.7","","87","","","M","7","","6","","16.1","","100.49","","","","-7","","Snow"
"-57.39","49.21","DEER LAKE A","8401502","2021-02-17 20:30","2021","02","17","20:30","-3.9","","-6.3","","83","","","M","25","","7","","4.8","","100.63","","","","-7","","Snow"
"-57.39","49.21","DEER LAKE A","8401502","2021-02-17 21:30","2021","02","17","21:30","-4.7","","-7.7","","79","","","M","28","","8","","11.3","","100.74","","","","-8","","Snow"
"-57.39","49.21","DEER LAKE A","8401502","2021-02-17 22:30","2021","02","17","22:30","-5.2","","-8.9","","75","","","M","27","","5","","","M","100.85","","","","-7","","NA"
"-57.39","49.21","DEER LAKE A","8401502","2021-02-17 23:30","2021","02","17","23:30","-5.4","","-8.7","","78","","","M","36","","3","","24.1","","100.87","","","","-7","","Cloudy"
"-57.39","49.21","DEER LAKE A","8401502","2021-02-18 00:30","2021","02","18","00:30","-5.8","","-8.3","","83","","","M","19","","5","","19.3","","100.93","","","","-8","","Snow"
"-57.39","49.21","DEER LAKE A","8401502","2021-02-18 01:30","2021","02","18","01:30","-5.9","","-8.2","","84","","","M","19","","9","","24.1","","100.96","","","","-10","","Snow"
"-57.39","49.21","DEER LAKE A","8401502","2021-02-18 02:30","2021","02","18","02:30","-5.7","","-8.1","","83","","","M","23","","11","","24.1","","101.01","","","","-10","","Cloudy"
"-57.39","49.21","DEER LAKE A","8401502","2021-02-18 03:30","2021","02","18","03:30","-8.5","","-10.0","","89","","","M","17","","5","","24.1","","101.00","","","","-11","","Snow"
"-57.39","49.21","DEER LAKE A","8401502","2021-02-18 04:30","2021","02","18","04:30","-8.7","","-10.2","","89","","","M","19","","9","","24.1","","101.01","","","","-13","","NA"
"-57.39","49.21","DEER LAKE A","8401502","2021-02-18 05:30","2021","02","18","05:30","-5.8","","-8.8","","80","","","M","22","","14","","24.1","","101.03","","","","-11","","Cloudy"
"-57.39","49.21","DEER LAKE A","8401502","2021-02-18 06:30","2021","02","18","06:30","-6.5","","-8.7","","84","","","M","24","","11","","24.1","","101.04","","","","-11","","NA"
"-57.39","49.21","DEER LAKE A","8401502","2021-02-18 07:30","2021","02","18","07:30","-5.9","","-9.3","","77","","","M","24","","12","","24.1","","101.10","","","","-11","","NA"
"-57.39","49.21","DEER LAKE A","8401502","2021-02-18 08:30","2021","02","18","08:30","-5.5","","-9.7","","73","","","M","25","","13","","16.1","","101.17","","","","-11","","Snow"
"-57.39","49.21","DEER LAKE A","8401502","2021-02-18 09:30","2021","02","18","09:30","-5.1","","-10.5","","66","","","M","27","","13","","16.1","","101.19","","","","-10","","Snow"
"-57.39","49.21","DEER LAKE A","8401502","2021-02-18 10:30","2021","02","18","10:30","-5.4","","-8.9","","76","","","M","24","","18","","16.1","","101.23","","","","-12","","Snow,Blowing Snow"
"-57.39","49.21","DEER LAKE A","8401502","2021-02-18 11:30","2021","02","18","11:30","-5.6","","-11.6","","63","","","M","26","","27","","16.1","","101.30","","","","-13","","Snow,Blowing Snow"
"-57.39","49.21","DEER LAKE A","8401502","2021-02-18 12:30","2021","02","18","12:30","-5.9","","-12.1","","62","","","M","26","","19","","19.3","","101.31","","","","-13","","Snow"
"-57.39","49.21","DEER LAKE A","8401502","2021-02-18 13:30","2021","02","18","13:30","-4.9","","-11.7","","59","","","M","28","","16","","24.1","","101.30","","","","-11","","Snow,Blowing Snow"
"-57.39","49.21","DEER LAKE A","8401502","2021-02-18 14:30","2021","02","18","14:30","-5.9","","-13.0","","58","","","M","29","","22","","24.1","","101.38","","","","-13","","Snow,Blowing Snow"
"-57.39","49.21","DEER LAKE A","8401502","2021-02-18 15:30","2021","02","18","15:30","-5.9","","-11.7","","64","","","M","25","","20","","24.1","","101.47","","","","-13","","Snow,Blowing Snow"
"-57.39","49.21","DEER LAKE A","8401502","2021-02-18 16:30","2021","02","18","16:30","-6.6","","-12.7","","62","","","M","26","","16","","24.1","","101.54","","","","-13","","Snow"
"-57.39","49.21","DEER LAKE A","8401502","2021-02-18 17:30","2021","02","18","17:30","-7.6","","-12.3","","69","","","M","23","","11","","24.1","","101.61","","","","-13","","Snow"
"-57.39","49.21","DEER LAKE A","8401502","2021-02-18 18:30","2021","02","18","18:30","-8.6","","-12.7","","72","","","M","24","","8","","24.1","","101.70","","","","-13","","NA"
"-57.39","49.21","DEER LAKE A","8401502","2021-02-18 19:30","2021","02","18","19:30","-10.5","","-13.6","","78","","","M","25","","5","","","M","101.77","","","","-14","","NA"
"-57.39","49.21","DEER LAKE A","8401502","2021-02-18 20:30","2021","02","18","20:30","-11.9","","-13.8","","86","","","M","36","","1","","24.1","","101.89","","","","-13","","Mostly Cloudy"
"-57.39","49.21","DEER LAKE A","8401502","2021-02-18 21:30","2021","02","18","21:30","-11.7","","-13.5","","86","","","M","23","","4","","24.1","","101.91","","","","-14","","Snow Showers"
"-57.39","49.21","DEER LAKE A","8401502","2021-02-18 22:30","2021","02","18","22:30","-8.7","","-11.0","","83","","","M","24","","8","","24.1","","101.94","","","","-13","","Snow Showers"
"-57.39","49.21","DEER LAKE A","8401502","2021-02-18 23:30","2021","02","18","23:30","-8.0","","-10.4","","83","","","M","24","","9","","19.3","","101.95","","","","-13","","Snow Showers"
"-57.39","49.21","DEER LAKE A","8401502","2021-02-19 00:30","2021","02","19","00:30","-7.3","","-10.2","","80","","","M","24","","7","","24.1","","101.94","","","","-11","","Snow Showers"
"-57.39","49.21","DEER LAKE A","8401502","2021-02-19 01:30","2021","02","19","01:30","-7.3","","-10.3","","79","","","M","27","","5","","24.1","","101.92","","","","-10","","Snow Showers"
"-57.39","49.21","DEER LAKE A","8401502","2021-02-19 02:30","2021","02","19","02:30","-7.0","","-9.9","","80","","","M","24","","8","","24.1","","101.90","","","","-11","","Snow Showers"
"-57.39","49.21","DEER LAKE A","8401502","2021-02-19 03:30","2021","02","19","03:30","-6.2","","-10.1","","74","","","M","24","","9","","24.1","","101.83","","","","-10","","NA"
"-57.39","49.21","DEER LAKE A","8401502","2021-02-19 04:30","2021","02","19","04:30","-6.3","","-9.9","","76","","","M","25","","9","","24.1","","101.84","","","","-11","","NA"
"-57.39","49.21","DEER LAKE A","8401502","2021-02-19 05:30","2021","02","19","05:30","-6.6","","-9.7","","79","","","M","28","","9","","24.1","","101.84","","","","-11","","Snow Showers"
"-57.39","49.21","DEER LAKE A","8401502","2021-02-19 06:30","2021","02","19","06:30","-6.2","","-9.8","","76","","","M","25","","8","","19.3","","101.80","","","","-10","","Snow Showers"
"-57.39","49.21","DEER LAKE A","8401502","2021-02-19 07:30","2021","02","19","07:30","-6.6","","-9.5","","80","","","M","25","","6","","19.3","","101.79","","","","-10","","Snow"
"-57.39","49.21","DEER LAKE A","8401502","2021-02-19 08:30","2021","02","19","08:30","-5.8","","-8.9","","79","","","M","24","","5","","19.3","","101.75","","","","-8","","Snow"
"-57.39","49.21","DEER LAKE A","8401502","2021-02-19 09:30","2021","02","19","09:30","-5.0","","-8.4","","77","","","M","22","","14","","24.1","","101.73","","","","-10","","Snow"
"-57.39","49.21","DEER LAKE A","8401502","2021-02-19 10:30","2021","02","19","10:30","-4.5","","-8.3","","75","","","M","23","","13","","24.1","","101.67","","","","-10","","Snow"
"-57.39","49.21","DEER LAKE A","8401502","2021-02-19 11:30","2021","02","19","11:30","-3.7","","-10.2","","61","","","M","27","","10","","24.1","","101.64","","","","-8","","Snow"
"-57.39","49.21","DEER LAKE A","8401502","2021-02-19 12:30","2021","02","19","12:30","-3.6","","-10.8","","58","","","M","25","","17","","","M","101.61","","","","-9","","NA"
"-57.39","49.21","DEER LAKE A","8401502","2021-02-19 13:30","2021","02","19","13:30","-4.1","","-10.1","","64","","","M","29","","17","","24.1","","101.60","","","","-10","","Snow"
"-57.39","49.21","DEER LAKE A","8401502","2021-02-19 14:30","2021","02","19","14:30","-4.5","","-10.8","","62","","","M","26","","18","","24.1","","101.64","","","","-11","","Snow"
"-57.39","49.21","DEER LAKE A","8401502","2021-02-19 15:30","2021","02","19","15:30","-4.6","","-11.8","","58","","","M","27","","20","","24.1","","101.63","","","","-11","","Snow"
"-57.39","49.21","DEER LAKE A","8401502","2021-02-19 16:30","2021","02","19","16:30","-5.5","","-11.7","","62","","","M","28","","13","","24.1","","101.64","","","","-11","","NA"
"-57.39","49.21","DEER LAKE A","8401502","2021-02-19 17:30","2021","02","19","17:30","-6.5","","-12.1","","65","","","M","27","","14","","24.1","","101.63","","","","-12","","Mainly Clear"
"-57.39","49.21","DEER LAKE A","8401502","2021-02-19 18:30","2021","02","19","18:30","-8.2","","-12.1","","74","","","M","27","","7","","24.1","","101.68","","","","-12","","NA"
"-57.39","49.21","DEER LAKE A","8401502","2021-02-19 19:30","2021","02","19","19:30","-9.3","","-12.8","","76","","","M","28","","8","","24.1","","101.67","","","","-14","","NA"
"-57.39","49.21","DEER LAKE A","8401502","2021-02-19 20:30","2021","02","19","20:30","-12.2","","-14.8","","81","","","M","23","","6","","24.1","","101.68","","","","-16","","Clear"
"-57.39","49.21","DEER LAKE A","8401502","2021-02-19 21:30","2021","02","19","21:30","-12.8","","-14.9","","85","","","M","23","","6","","24.1","","101.69","","","","-17","","NA"
"-57.39","49.21","DEER LAKE A","8401502","2021-02-19 22:30","2021","02","19","22:30","-15.6","","-17.4","","86","","","M","0","","1","","24.1","","101.65","","","","-16","","NA"
"-57.39","49.21","DEER LAKE A","8401502","2021-02-19 23:30","2021","02","19","23:30","-17.2","","-18.9","","86","","","M","23","","3","","24.1","","101.63","","","","-20","","Clear"
"-57.39","49.21","DEER LAKE A","8401502","2021-02-20 00:30","2021","02","20","00:30","-17.1","","-19.1","","85","","","M","30","","4","","24.1","","101.58","","","","-20","","NA"
"-57.39","49.21","DEER LAKE A","8401502","2021-02-20 01:30","2021","02","20","01:30","-19.2","","-21.4","","84","","","M","1","","4","","24.1","","101.56","","","","-23","","NA"
"-57.39","49.21","DEER LAKE A","8401502","2021-02-20 02:30","2021","02","20","02:30","-19.7","","-21.8","","83","","","M","31","","3","","24.1","","101.57","","","","-22","","Clear"
"-57.39","49.21","DEER LAKE A","8401502","2021-02-20 03:30","2021","02","20","03:30","-21.5","","-23.6","","83","","","M","1","","5","","24.1","","101.54","","","","-26","","NA"
"-57.39","49.21","DEER LAKE A","8401502","2021-02-20 04:30","2021","02","20","04:30","-21.9","","-24.2","","82","","","M","4","","7","","","M","101.49","","","","-28","","NA"
"-57.39","49.21","DEER LAKE A","8401502","2021-02-20 05:30","2021","02","20","05:30","-24.1","","-26.7","","80","","","M","7","","7","","24.1","","101.44","","","","-30","","Clear"
"-57.39","49.21","DEER LAKE A","8401502","2021-02-20 06:30","2021","02","20","06:30","-22.6","","-25.1","","81","","","M","3","","5","","","M","101.41","","","","-27","","NA"
"-57.39","49.21","DEER LAKE A","8401502","2021-02-20 07:30","2021","02","20","07:30","-22.6","","-25.2","","80","","","M","0","","1","","8.1","","101.42","","","","-24","","Fog"
"-57.39","49.21","DEER LAKE A","8401502","2021-02-20 08:30","2021","02","20","08:30","-21.5","","-24.0","","80","","","M","36","","2","","4.8","","101.41","","","","-23","","Fog"
"-57.39","49.21","DEER LAKE A","8401502","2021-02-20 09:30","2021","02","20","09:30","-19.5","","-21.4","","85","","","M","6","","3","","4.8","","101.35","","","","-22","","Fog"
"-57.39","49.21","DEER LAKE A","8401502","2021-02-20 10:30","2021","02","20","10:30","-15.8","","-17.9","","84","","","M","6","","5","","24.1","","101.24","","","","-20","","NA"
"-57.39","49.21","DEER LAKE A","8401502","2021-02-20 11:30","2021","02","20","11:30","-12.6","","-14.6","","85","","","M","9","","5","","24.1","","101.11","","","","-16","","Mostly Cloudy"
"-57.39","49.21","DEER LAKE A","8401502","2021-02-20 12:30","2021","02","20","12:30","-9.2","","-13.7","","70","","","M","36","","1","","24.1","","101.03","","","","-10","","NA"
"-57.39","49.21","DEER LAKE A","8401502","2021-02-20 13:30","2021","02","20","13:30","-7.2","","-13.8","","60","","","M","6","","7","","24.1","","100.82","","","","-11","","NA"
"-57.39","49.21","DEER LAKE A","8401502","2021-02-20 14:30","2021","02","20","14:30","-5.6","","-14.0","","52","","","M","8","","8","","24.1","","100.74","","","","-9","","Mostly Cloudy"
"-57.39","49.21","DEER LAKE A","8401502","2021-02-20 15:30","2021","02","20","15:30","-4.6","","-14.3","","47","","","M","10","","4","","24.1","","100.69","","","","-6","","NA"
"-57.39","49.21","DEER LAKE A","8401502","2021-02-20 16:30","2021","02","20","16:30","-4.6","","-14.4","","47","","","M","6","","4","","","M","100.62","","","","-6","","NA"
"-57.39","49.21","DEER LAKE A","8401502","2021-02-20 17:30","2021","02","20","17:30","-5.9","","-13.5","","56","","","M","13","","8","","24.1","","100.63","","","","-10","","Mostly Cloudy"
"-57.39","49.21","DEER LAKE A","8401502","2021-02-20 18:30","2021","02","20","18:30","-7.8","","-12.8","","68","","","M","36","","3","","24.1","","100.62","","","","-9","","NA"
"-57.39","49.21","DEER LAKE A","8401502","2021-02-20 19:30","2021","02","20","19:30","-10.9","","-13.9","","79","","","M","36","","2","","24.1","","100.66","","","","-12","","NA"
"-57.39","49.21","DEER LAKE A","8401502","2021-02-20 20:30","2021","02","20","20:30","-13.0","","-15.9","","79","","","M","7","","3","","24.1","","100.65","","","","-15","","Mostly Cloudy"
"-57.39","49.21","DEER LAKE A","8401502","2021-02-20 21:30","2021","02","20","21:30","-14.2","","-16.8","","81","","","M","","","0","","24.1","","100.67","","","","","","NA"
"-57.39","49.21","DEER LAKE A","8401502","2021-02-20 22:30","2021","02","20","22:30","-15.3","","-17.3","","84","","","M","4","","3","","24.1","","100.67","","","","-17","","NA"
"-57.39","49.21","DEER LAKE A","8401502","2021-02-20 23:30","2021","02","20","23:30","-16.2","","-18.2","","85","","","M","3","","4","","24.1","","100.68","","","","-19","","Mostly Cloudy"
"-57.39","49.21","DEER LAKE A","8401502","2021-02-21 00:30","2021","02","21","00:30","-18.5","","-20.5","","85","","","M","14","","2","","","M","100.68","","","","-20","","NA"
"-57.39","49.21","DEER LAKE A","8401502","2021-02-21 01:30","2021","02","21","01:30","-19.4","","-21.4","","84","","","M","36","","1","","24.1","","100.64","","","","-20","","NA"
"-57.39","49.21","DEER LAKE A","8401502","2021-02-21 02:30","2021","02","21","02:30","-22.7","","-25.2","","80","","","M","5","","6","","24.1","","100.61","","","","-28","","Mainly Clear"
"-57.39","49.21","DEER LAKE A","8401502","2021-02-21 03:30","2021","02","21","03:30","-24.1","","-26.8","","79","","","M","3","","8","","24.1","","100.56","","","","-31","","NA"
"-57.39","49.21","DEER LAKE A","8401502","2021-02-21 04:30","2021","02","21","04:30","-21.3","","-23.9","","80","","","M","36","","3","","24.1","","100.58","","","","-24","","NA"
"-57.39","49.21","DEER LAKE A","8401502","2021-02-21 05:30","2021","02","21","05:30","-19.8","","-22.4","","80","","","M","7","","7","","24.1","","100.57","","","","-25","","Cloudy"
"-57.39","49.21","DEER LAKE A","8401502","2021-02-21 06:30","2021","02","21","06:30","-18.7","","-21.2","","81","","","M","5","","3","","24.1","","100.54","","","","-21","","NA"
"-57.39","49.21","DEER LAKE A","8401502","2021-02-21 07:30","2021","02","21","07:30","-17.9","","-20.4","","81","","","M","33","","3","","16.1","","100.56","","","","-20","","Snow"
"-57.39","49.21","DEER LAKE A","8401502","2021-02-21 08:30","2021","02","21","08:30","-12.4","","-14.8","","83","","","M","30","","5","","","M","100.60","","","","-16","","Snow"
"-57.39","49.21","DEER LAKE A","8401502","2021-02-21 09:30","2021","02","21","09:30","-10.4","","-15.7","","66","","","M","29","","17","","24.1","","100.60","","","","-18","","Snow"
"-57.39","49.21","DEER LAKE A","8401502","2021-02-21 10:30","2021","02","21","10:30","-10.4","","-18.7","","51","","","M","33","","16","","24.1","","100.63","","","","-17","","Snow"
"-57.39","49.21","DEER LAKE A","8401502","2021-02-21 11:30","2021","02","21","11:30","-11.1","","-18.8","","54","","","M","31","","19","","24.1","","100.67","","","","-19","","Mostly Cloudy"
"-57.39","49.21","DEER LAKE A","8401502","2021-02-21 12:30","2021","02","21","12:30","-10.6","","-18.5","","53","","","M","29","","24","","24.1","","100.66","","","","-19","","Blowing Snow"
"-57.39","49.21","DEER LAKE A","8401502","2021-02-21 13:30","2021","02","21","13:30","-11.1","","-18.7","","54","","","M","28","","25","","24.1","","100.66","","","","-20","","Blowing Snow"
"-57.39","49.21","DEER LAKE A","8401502","2021-02-21 14:30","2021","02","21","14:30","-10.5","","-17.6","","56","","","M","30","","17","","24.1","","100.66","","","","-18","","Blowing Snow"
"-57.39","49.21","DEER LAKE A","8401502","2021-02-21 15:30","2021","02","21","15:30","-11.1","","-16.5","","65","","","M","29","","14","","","M","100.69","","","","-18","","Snow Showers,Blowing Snow"
"-57.39","49.21","DEER LAKE A","8401502","2021-02-21 16:30","2021","02","21","16:30","-10.8","","-17.4","","59","","","M","27","","17","","19.3","","100.77","","","","-18","","Snow Showers,Blowing Snow"
"-57.39","49.21","DEER LAKE A","8401502","2021-02-21 17:30","2021","02","21","17:30","-10.8","","-15.5","","69","","","M","28","","10","","19.3","","100.81","","","","-16","","Snow"
"-57.39","49.21","DEER LAKE A","8401502","2021-02-21 18:30","2021","02","21","18:30","-11.1","","-14.3","","78","","","M","22","","8","","9.7","","100.83","","","","-16","","Snow"
"-57.39","49.21","DEER LAKE A","8401502","2021-02-21 19:30","2021","02","21","19:30","-11.1","","-14.3","","77","","","M","28","","6","","9.7","","100.83","","","","-15","","Snow"
"-57.39","49.21","DEER LAKE A","8401502","2021-02-21 20:30","2021","02","21","20:30","-9.3","","-13.7","","71","","","M","26","","10","","19.3","","100.86","","","","-14","","Snow"
"-57.39","49.21","DEER LAKE A","8401502","2021-02-21 21:30","2021","02","21","21:30","-9.1","","-13.0","","73","","","M","25","","8","","24.1","","100.88","","","","-13","","Snow"
"-57.39","49.21","DEER LAKE A","8401502","2021-02-21 22:30","2021","02","21","22:30","-10.2","","-12.7","","83","","","M","21","","8","","16.1","","100.86","","","","-15","","Snow"
"-57.39","49.21","DEER LAKE A","8401502","2021-02-21 23:30","2021","02","21","23:30","-8.6","","-10.8","","84","","","M","25","","14","","16.1","","100.82","","","","-15","","Snow"
"-57.39","49.21","DEER LAKE A","8401502","2021-02-22 00:30","2021","02","22","00:30","-7.7","","-11.8","","72","","","M","26","","17","","24.1","","100.80","","","","-14","","NA"
"-57.39","49.21","DEER LAKE A","8401502","2021-02-22 01:30","2021","02","22","01:30","-7.8","","-11.7","","74","","","M","24","","11","","","M","100.82","","","","-13","","Snow"
"-57.39","49.21","DEER LAKE A","8401502","2021-02-22 02:30","2021","02","22","02:30","-8.1","","-11.8","","75","","","M","25","","15","","16.1","","100.83","","","","-14","","Snow"
"-57.39","49.21","DEER LAKE A","8401502","2021-02-22 03:30","2021","02","22","03:30","-8.0","","-11.2","","78","","","M","24","","14","","16.1","","100.84","","","","-14","","Snow"
"-57.39","49.21","DEER LAKE A","8401502","2021-02-22 04:30","2021","02","22","04:30","-8.1","","-11.9","","74","","","M","23","","17","","24.1","","100.87","","","","-15","","NA"
"-57.39","49.21","DEER LAKE A","8401502","2021-02-22 05:30","2021","02","22","05:30","-7.8","","-13.0","","66","","","M","24","","14","","24.1","","100.90","","","","-14","","Cloudy"
"-57.39","49.21","DEER LAKE A","8401502","2021-02-22 06:30","2021","02","22","06:30","-8.3","","-13.7","","65","","","M","25","","15","","24.1","","100.93","","","","-15","","NA"
"-57.39","49.21","DEER LAKE A","8401502","2021-02-22 07:30","2021","02","22","07:30","-9.1","","-13.8","","69","","","M","24","","14","","24.1","","100.98","","","","-15","","NA"
"-57.39","49.21","DEER LAKE A","8401502","2021-02-22 08:30","2021","02","22","08:30","-7.2","","-13.2","","63","","","M","24","","16","","24.1","","101.03","","","","-14","","Mainly Clear"
"-57.39","49.21","DEER LAKE A","8401502","2021-02-22 09:30","2021","02","22","09:30","-6.0","","-13.1","","58","","","M","26","","22","","24.1","","101.06","","","","-13","","NA"
"-57.39","49.21","DEER LAKE A","8401502","2021-02-22 10:30","2021","02","22","10:30","-5.2","","-12.6","","56","","","M","28","","21","","24.1","","101.08","","","","-12","","NA"
"-57.39","49.21","DEER LAKE A","8401502","2021-02-22 11:30","2021","02","22","11:30","-4.2","","-11.7","","56","","","M","25","","16","","24.1","","101.06","","","","-10","","Mainly Clear"
"-57.39","49.21","DEER LAKE A","8401502","2021-02-22 12:30","2021","02","22","12:30","-3.3","","-11.8","","52","","","M","25","","26","","24.1","","101.06","","","","-10","","NA"
"-57.39","49.21","DEER LAKE A","8401502","2021-02-22 13:30","2021","02","22","13:30","-4.0","","-12.1","","53","","","M","24","","25","","24.1","","101.00","","","","-11","","NA"
"-57.39","49.21","DEER LAKE A","8401502","2021-02-22 14:30","2021","02","22","14:30","-3.4","","-10.7","","57","","","M","26","","21","","24.1","","100.98","","","","-10","","Mainly Clear"
"-57.39","49.21","DEER LAKE A","8401502","2021-02-22 15:30","2021","02","22","15:30","-2.8","","-10.0","","58","","","M","24","","25","","24.1","","101.04","","","","-10","","NA"
"-57.39","49.21","DEER LAKE A","8401502","2021-02-22 16:30","2021","02","22","16:30","-3.4","","-9.8","","62","","","M","24","","22","","24.1","","101.04","","","","-10","","NA"
"-57.39","49.21","DEER LAKE A","8401502","2021-02-22 17:30","2021","02","22","17:30","-3.5","","-9.2","","65","","","M","25","","14","","24.1","","101.01","","","","-9","","Mostly Cloudy"
"-57.39","49.21","DEER LAKE A","8401502","2021-02-22 18:30","2021","02","22","18:30","-3.7","","-8.8","","68","","","M","24","","15","","24.1","","101.01","","","","-9","","NA"
"-57.39","49.21","DEER LAKE A","8401502","2021-02-22 19:30","2021","02","22","19:30","-3.8","","-8.4","","70","","","M","23","","25","","24.1","","101.04","","","","-11","","Snow"
"-57.39","49.21","DEER LAKE A","8401502","2021-02-22 20:30","2021","02","22","20:30","-4.1","","-9.0","","69","","","M","23","","16","","24.1","","101.10","","","","-10","","Snow"
"-57.39","49.21","DEER LAKE A","8401502","2021-02-22 21:30","2021","02","22","21:30","-4.0","","-7.8","","75","","","M","23","","20","","24.1","","101.08","","","","-10","","Snow"
"-57.39","49.21","DEER LAKE A","8401502","2021-02-22 22:30","2021","02","22","22:30","-4.0","","-7.5","","77","","","M","23","","22","","24.1","","101.01","","","","-11","","Snow"
"-57.39","49.21","DEER LAKE A","8401502","2021-02-22 23:30","2021","02","22","23:30","-4.0","","-7.2","","78","","","M","23","","16","","24.1","","100.97","","","","-10","","Snow"
"-57.39","49.21","DEER LAKE A","8401502","2021-02-23 00:30","2021","02","23","00:30","-4.2","","-7.4","","78","","","M","22","","21","","24.1","","100.95","","","","-11","","Snow"
"-57.39","49.21","DEER LAKE A","8401502","2021-02-23 01:30","2021","02","23","01:30","-4.1","","-7.8","","75","","","M","22","","20","","24.1","","100.97","","","","-10","","Snow"
"-57.39","49.21","DEER LAKE A","8401502","2021-02-23 02:30","2021","02","23","02:30","-4.2","","-7.8","","76","","","M","22","","14","","24.1","","100.94","","","","-9","","Cloudy"
"-57.39","49.21","DEER LAKE A","8401502","2021-02-23 03:30","2021","02","23","03:30","-4.3","","-7.9","","76","","","M","25","","8","","24.1","","100.87","","","","-8","","Snow"
"-57.39","49.21","DEER LAKE A","8401502","2021-02-23 04:30","2021","02","23","04:30","-6.2","","-8.8","","82","","","M","25","","4","","24.1","","100.83","","","","-8","","Snow"
"-57.39","49.21","DEER LAKE A","8401502","2021-02-23 05:30","2021","02","23","05:30","-6.5","","-8.6","","85","","","M","31","","5","","","M","100.77","","","","-9","","Mostly Cloudy"
"-57.39","49.21","DEER LAKE A","8401502","2021-02-23 06:30","2021","02","23","06:30","-7.3","","-9.2","","87","","","M","30","","4","","24.1","","100.80","","","","-9","","NA"
"-57.39","49.21","DEER LAKE A","8401502","2021-02-23 07:30","2021","02","23","07:30","-7.8","","-9.4","","89","","","M","5","","4","","24.1","","100.74","","","","-10","","NA"
"-57.39","49.21","DEER LAKE A","8401502","2021-02-23 08:30","2021","02","23","08:30","-6.3","","-8.6","","84","","","M","36","","2","","24.1","","100.69","","","","-7","","Mostly Cloudy"
"-57.39","49.21","DEER LAKE A","8401502","2021-02-23 09:30","2021","02","23","09:30","-3.7","","-7.5","","75","","","M","32","","3","","24.1","","100.56","","","","-5","","NA"
"-57.39","49.21","DEER LAKE A","8401502","2021-02-23 10:30","2021","02","23","10:30","-3.3","","-7.5","","73","","","M","4","","10","","24.1","","100.48","","","","-7","","NA"
"-57.39","49.21","DEER LAKE A","8401502","2021-02-23 11:30","2021","02","23","11:30","-2.0","","-7.0","","69","","","M","1","","4","","24.1","","100.38","","","","-3","","Cloudy"
"-57.39","49.21","DEER LAKE A","8401502","2021-02-23 12:30","2021","02","23","12:30","-1.1","","-6.4","","67","","","M","6","","11","","24.1","","100.25","","","","-5","","NA"
"-57.39","49.21","DEER LAKE A","8401502","2021-02-23 13:30","2021","02","23","13:30","-1.0","","-5.8","","70","","","M","6","","4","","4.8","","100.09","","","","-2","","Snow"
"-57.39","49.21","DEER LAKE A","8401502","2021-02-23 14:30","2021","02","23","14:30","-2.0","","-3.6","","89","","","M","5","","19","","1.6","","99.89","","","","-8","","Snow"
"-57.39","49.21","DEER LAKE A","8401502","2021-02-23 15:30","2021","02","23","15:30","-2.0","","-2.9","","93","","","M","3","","24","","1.2","","99.66","","","","-8","","Snow"
"-57.39","49.21","DEER LAKE A","8401502","2021-02-23 16:30","2021","02","23","16:30","-1.9","","-3.1","","92","","","M","5","","29","","4.8","","99.45","","","","-9","","Snow"
"-57.39","49.21","DEER LAKE A","8401502","2021-02-23 17:30","2021","02","23","17:30","-1.9","","-3.3","","91","","","M","4","","30","","8.1","","99.27","","","","-9","","Snow"
"-57.39","49.21","DEER LAKE A","8401502","2021-02-23 18:30","2021","02","23","18:30","-2.2","","-3.4","","91","","","M","4","","28","","3.2","","99.16","","","","-9","","Snow"
"-57.39","49.21","DEER LAKE A","8401502","2021-02-23 19:30","2021","02","23","19:30","-2.3","","-3.4","","92","","","M","4","","25","","12.9","","99.07","","","","-9","","Snow"
"-57.39","49.21","DEER LAKE A","8401502","2021-02-23 20:30","2021","02","23","20:30","-2.4","","-3.6","","91","","","M","3","","20","","6.4","","98.93","","","","-8","","Snow"
"-57.39","49.21","DEER LAKE A","8401502","2021-02-23 21:30","2021","02","23","21:30","-2.3","","-3.7","","90","","","M","3","","20","","12.9","","98.89","","","","-8","","Snow"
"-57.39","49.21","DEER LAKE A","8401502","2021-02-23 22:30","2021","02","23","22:30","-2.1","","-3.7","","89","","","M","3","","15","","12.9","","98.85","","","","-7","","Snow"
"-57.39","49.21","DEER LAKE A","8401502","2021-02-23 23:30","2021","02","23","23:30","-1.8","","-3.6","","87","","","M","3","","16","","19.3","","98.76","","","","-7","","Snow"
"-57.39","49.21","DEER LAKE A","8401502","2021-02-24 00:30","2021","02","24","00:30","-1.6","","-3.5","","87","","","M","3","","11","","24.1","","98.71","","","","-5","","Snow"
"-57.39","49.21","DEER LAKE A","8401502","2021-02-24 01:30","2021","02","24","01:30","-1.2","","-3.5","","85","","","M","2","","12","","24.1","","98.70","","","","-5","","Snow"
"-57.39","49.21","DEER LAKE A","8401502","2021-02-24 02:30","2021","02","24","02:30","-1.3","","-3.4","","86","","","M","1","","9","","24.1","","98.73","","","","-5","","Snow"
"-57.39","49.21","DEER LAKE A","8401502","2021-02-24 03:30","2021","02","24","03:30","-1.5","","-3.0","","90","","","M","33","","4","","19.3","","98.75","","","","-3","","Snow"
"-57.39","49.21","DEER LAKE A","8401502","2021-02-24 04:30","2021","02","24","04:30","-1.5","","-3.0","","90","","","M","36","","4","","19.3","","98.79","","","","-3","","Snow"
"-57.39","49.21","DEER LAKE A","8401502","2021-02-24 05:30","2021","02","24","05:30","-1.4","","-2.7","","91","","","M","33","","6","","19.3","","98.83","","","","-4","","Snow"
"-57.39","49.21","DEER LAKE A","8401502","2021-02-24 06:30","2021","02","24","06:30","-1.5","","-3.5","","86","","","M","36","","2","","24.1","","98.88","","","","-2","","NA"
"-57.39","49.21","DEER LAKE A","8401502","2021-02-24 07:30","2021","02","24","07:30","-1.2","","-4.4","","79","","","M","34","","6","","24.1","","98.94","","","","-3","","NA"
"-57.39","49.21","DEER LAKE A","8401502","2021-02-24 08:30","2021","02","24","08:30","-1.0","","-4.6","","77","","","M","30","","7","","24.1","","99.05","","","","-4","","Mostly Cloudy"
"-57.39","49.21","DEER LAKE A","8401502","2021-02-24 09:30","2021","02","24","09:30","-0.5","","-4.6","","74","","","M","29","","10","","24.1","","99.14","","","","-4","","NA"
"-57.39","49.21","DEER LAKE A","8401502","2021-02-24 10:30","2021","02","24","10:30","-0.1","","-4.7","","71","","","M","27","","10","","24.1","","99.21","","","","-3","","NA"
"-57.39","49.21","DEER LAKE A","8401502","2021-02-24 11:30","2021","02","24","11:30","0.2","","-4.1","","73","","","M","28","","18","","24.1","","99.25","","","","","","Cloudy"
"-57.39","49.21","DEER LAKE A","8401502","2021-02-24 12:30","2021","02","24","12:30","0.2","","-3.9","","74","","","M","29","","14","","24.1","","99.23","","","","","","NA"
"-57.39","49.21","DEER LAKE A","8401502","2021-02-24 13:30","2021","02","24","13:30","-0.1","","-3.9","","75","","","M","28","","15","","24.1","","99.28","","","","-5","","NA"
"-57.39","49.21","DEER LAKE A","8401502","2021-02-24 14:30","2021","02","24","14:30","-0.5","","-4.2","","76","","","M","28","","16","","24.1","","99.36","","","","-5","","Mostly Cloudy"
"-57.39","49.21","DEER LAKE A","8401502","2021-02-24 15:30","2021","02","24","15:30","-1.1","","-4.4","","79","","","M","29","","9","","24.1","","99.46","","","","-4","","NA"
"-57.39","49.21","DEER LAKE A","8401502","2021-02-24 16:30","2021","02","24","16:30","-1.3","","-4.9","","77","","","M","28","","19","","24.1","","99.55","","","","-7","","NA"
"-57.39","49.21","DEER LAKE A","8401502","2021-02-24 17:30","2021","02","24","17:30","-1.6","","-4.5","","81","","","M","26","","5","","24.1","","99.64","","","","-3","","Cloudy"
"-57.39","49.21","DEER LAKE A","8401502","2021-02-24 18:30","2021","02","24","18:30","-1.7","","-5.0","","78","","","M","25","","10","","24.1","","99.72","","","","-5","","NA"
"-57.39","49.21","DEER LAKE A","8401502","2021-02-24 19:30","2021","02","24","19:30","-2.0","","-5.3","","78","","","M","25","","13","","24.1","","99.76","","","","-6","","NA"
"-57.39","49.21","DEER LAKE A","8401502","2021-02-24 20:30","2021","02","24","20:30","-2.3","","-5.8","","77","","","M","23","","13","","24.1","","99.78","","","","-7","","Cloudy"
"-57.39","49.21","DEER LAKE A","8401502","2021-02-24 21:30","2021","02","24","21:30","-2.6","","-6.4","","75","","","M","22","","13","","24.1","","99.84","","","","-7","","NA"
"-57.39","49.21","DEER LAKE A","8401502","2021-02-24 22:30","2021","02","24","22:30","-2.6","","-6.4","","75","","","M","21","","5","","24.1","","99.85","","","","-5","","NA"
"-57.39","49.21","DEER LAKE A","8401502","2021-02-24 23:30","2021","02","24","23:30","-2.5","","-4.3","","87","","","M","22","","9","","24.1","","99.81","","","","-6","","Snow"
"-57.39","49.21","DEER LAKE A","8401502","2021-02-25 00:30","2021","02","25","00:30","-2.5","","-3.8","","91","","","M","25","","4","","16.1","","99.81","","","","-4","","Snow"
"-57.39","49.21","DEER LAKE A","8401502","2021-02-25 01:30","2021","02","25","01:30","-1.3","","-3.8","","83","","","M","25","","13","","19.3","","99.83","","","","-6","","Snow"
"-57.39","49.21","DEER LAKE A","8401502","2021-02-25 02:30","2021","02","25","02:30","-1.1","","-3.5","","84","","","M","23","","17","","16.1","","99.85","","","","-6","","Snow"
"-57.39","49.21","DEER LAKE A","8401502","2021-02-25 03:30","2021","02","25","03:30","-1.0","","-3.0","","87","","","M","23","","17","","8.1","","99.85","","","","-6","","Snow"
"-57.39","49.21","DEER LAKE A","8401502","2021-02-25 04:30","2021","02","25","04:30","-1.1","","-2.2","","92","","","M","20","","16","","16.1","","99.86","","","","-6","","Snow"
"-57.39","49.21","DEER LAKE A","8401502","2021-02-25 05:30","2021","02","25","05:30","-0.6","","-2.1","","89","","","M","23","","14","","12.9","","99.87","","","","-5","","Snow"
"-57.39","49.21","DEER LAKE A","8401502","2021-02-25 06:30","2021","02","25","06:30","-0.5","","-2.8","","84","","","M","22","","16","","19.3","","99.83","","","","-5","","Snow"
"-57.39","49.21","DEER LAKE A","8401502","2021-02-25 07:30","2021","02","25","07:30","-0.9","","-3.2","","85","","","M","19","","9","","24.1","","99.80","","","","-4","","Snow"
"-57.39","49.21","DEER LAKE A","8401502","2021-02-25 08:30","2021","02","25","08:30","-0.7","","-3.1","","84","","","M","13","","5","","24.1","","99.77","","","","-2","","Snow"
"-57.39","49.21","DEER LAKE A","8401502","2021-02-25 09:30","2021","02","25","09:30","-0.2","","-3.0","","82","","","M","36","","2","","19.3","","99.71","","","","-1","","Snow"
"-57.39","49.21","DEER LAKE A","8401502","2021-02-25 10:30","2021","02","25","10:30","0.6","","-2.2","","81","","","M","36","","2","","24.1","","99.60","","","","","","Snow"
"-57.39","49.21","DEER LAKE A","8401502","2021-02-25 11:30","2021","02","25","11:30","1.6","","-2.1","","76","","","M","30","","4","","8.1","","99.52","","","","","","Snow"
"-57.39","49.21","DEER LAKE A","8401502","2021-02-25 12:30","2021","02","25","12:30","1.5","","-1.1","","83","","","M","6","","4","","12.9","","99.32","","","","","","Snow"
"-57.39","49.21","DEER LAKE A","8401502","2021-02-25 13:30","2021","02","25","13:30","1.4","","-0.6","","86","","","M","3","","12","","8.1","","99.11","","","","","","Snow"
"-57.39","49.21","DEER LAKE A","8401502","2021-02-25 14:30","2021","02","25","14:30","0.7","","-0.1","","95","","","M","4","","14","","4.8","","98.93","","","","","","Snow"
"-57.39","49.21","DEER LAKE A","8401502","2021-02-25 15:30","2021","02","25","15:30","0.9","","0.2","","95","","","M","5","","15","","8.1","","98.76","","","","","","Snow"
"-57.39","49.21","DEER LAKE A","8401502","2021-02-25 16:30","2021","02","25","16:30","0.3","","-0.2","","96","","","M","3","","10","","4.8","","98.67","","","","","","Snow"
"-57.39","49.21","DEER LAKE A","8401502","2021-02-25 17:30","2021","02","25","17:30","0.2","","-0.1","","97","","","M","2","","13","","2.4","","98.58","","","","","","Snow"
"-57.39","49.21","DEER LAKE A","8401502","2021-02-25 18:30","2021","02","25","18:30","0.0","","-0.4","","97","","","M","2","","14","","3.2","","98.54","","","","-4","","Snow"
"-57.39","49.21","DEER LAKE A","8401502","2021-02-25 19:30","2021","02","25","19:30","-0.3","","-1.1","","94","","","M","3","","23","","4.8","","98.55","","","","-6","","Snow"
"-57.39","49.21","DEER LAKE A","8401502","2021-02-25 20:30","2021","02","25","20:30","-0.8","","-1.9","","93","","","M","3","","15","","9.7","","98.58","","","","-5","","Snow"
"-57.39","49.21","DEER LAKE A","8401502","2021-02-25 21:30","2021","02","25","21:30","-1.1","","-2.4","","91","","","M","2","","12","","8.1","","98.63","","","","-5","","Snow"
"-57.39","49.21","DEER LAKE A","8401502","2021-02-25 22:30","2021","02","25","22:30","-1.0","","-2.4","","90","","","M","33","","4","","6.4","","98.69","","","","-2","","Snow"
"-57.39","49.21","DEER LAKE A","8401502","2021-02-25 23:30","2021","02","25","23:30","-1.3","","-2.2","","93","","","M","30","","5","","1.2","","98.76","","","","-3","","Snow"
"-57.39","49.21","DEER LAKE A","8401502","2021-02-26 00:30","2021","02","26","00:30","-1.1","","-2.0","","94","","","M","26","","9","","4.8","","98.86","","","","-4","","Snow"
"-57.39","49.21","DEER LAKE A","8401502","2021-02-26 01:30","2021","02","26","01:30","-1.6","","-3.6","","86","","","M","28","","17","","19.3","","98.98","","","","-7","","Snow"
"-57.39","49.21","DEER LAKE A","8401502","2021-02-26 02:30","2021","02","26","02:30","-2.2","","-4.8","","83","","","M","27","","9","","24.1","","99.10","","","","-6","","Snow"
"-57.39","49.21","DEER LAKE A","8401502","2021-02-26 03:30","2021","02","26","03:30","-2.6","","-4.8","","85","","","M","24","","11","","24.1","","99.17","","","","-7","","Snow"
"-57.39","49.21","DEER LAKE A","8401502","2021-02-26 04:30","2021","02","26","04:30","-2.6","","-4.2","","89","","","M","22","","13","","19.3","","99.24","","","","-7","","Snow"
"-57.39","49.21","DEER LAKE A","8401502","2021-02-26 05:30","2021","02","26","05:30","-3.2","","-5.4","","85","","","M","27","","12","","","M","99.33","","","","-8","","Snow"
"-57.39","49.21","DEER LAKE A","8401502","2021-02-26 06:30","2021","02","26","06:30","-3.8","","-6.2","","84","","","M","27","","11","","4.8","","99.49","","","","-8","","Snow"
"-57.39","49.21","DEER LAKE A","8401502","2021-02-26 07:30","2021","02","26","07:30","-4.8","","-7.3","","82","","","M","27","","17","","4.8","","99.62","","","","-11","","Snow,Blowing Snow"
"-57.39","49.21","DEER LAKE A","8401502","2021-02-26 08:30","2021","02","26","08:30","-5.3","","-8.3","","80","","","M","25","","21","","2.4","","99.78","","","","-12","","Snow,Blowing Snow"
"-57.39","49.21","DEER LAKE A","8401502","2021-02-26 09:30","2021","02","26","09:30","-6.3","","-9.2","","80","","","M","24","","23","","3.2","","99.89","","","","-14","","Snow,Blowing Snow"
"-57.39","49.21","DEER LAKE A","8401502","2021-02-26 10:30","2021","02","26","10:30","-6.4","","-10.4","","73","","","M","24","","23","","16.1","","100.00","","","","-14","","Snow"
"-57.39","49.21","DEER LAKE A","8401502","2021-02-26 11:30","2021","02","26","11:30","-6.6","","-11.5","","68","","","M","25","","23","","16.1","","100.12","","","","-14","","Snow"
"-57.39","49.21","DEER LAKE A","8401502","2021-02-26 12:30","2021","02","26","12:30","-7.0","","-11.6","","70","","","M","26","","26","","8.1","","100.19","","","","-15","","Snow"
"-57.39","49.21","DEER LAKE A","8401502","2021-02-26 13:30","2021","02","26","13:30","-7.4","","-12.6","","67","","","M","26","","22","","12.9","","100.27","","","","-15","","Snow"
"-57.39","49.21","DEER LAKE A","8401502","2021-02-26 14:30","2021","02","26","14:30","-7.9","","-13.2","","66","","","M","27","","22","","4.8","","100.41","","","","-16","","Snow"
"-57.39","49.21","DEER LAKE A","8401502","2021-02-26 15:30","2021","02","26","15:30","-8.5","","-14.3","","64","","","M","26","","27","","4.8","","100.56","","","","-17","","Snow"
"-57.39","49.21","DEER LAKE A","8401502","2021-02-26 16:30","2021","02","26","16:30","-9.1","","-14.1","","67","","","M","25","","19","","9.7","","100.71","","","","-17","","Snow"
"-57.39","49.21","DEER LAKE A","8401502","2021-02-26 17:30","2021","02","26","17:30","-9.5","","-12.6","","78","","","M","26","","10","","4.8","","100.91","","","","-15","","Snow"
"-57.39","49.21","DEER LAKE A","8401502","2021-02-26 18:30","2021","02","26","18:30","-9.5","","-12.8","","77","","","M","23","","22","","4.8","","101.04","","","","-18","","Snow"
"-57.39","49.21","DEER LAKE A","8401502","2021-02-26 19:30","2021","02","26","19:30","-9.7","","-13.5","","74","","","M","24","","14","","16.1","","101.20","","","","-16","","Snow"
"-57.39","49.21","DEER LAKE A","8401502","2021-02-26 20:30","2021","02","26","20:30","-9.4","","-12.6","","78","","","M","23","","16","","16.1","","101.36","","","","-16","","Snow"
"-57.39","49.21","DEER LAKE A","8401502","2021-02-26 21:30","2021","02","26","21:30","-9.7","","-12.6","","80","","","M","22","","9","","16.1","","101.54","","","","-15","","Snow"
"-57.39","49.21","DEER LAKE A","8401502","2021-02-26 22:30","2021","02","26","22:30","-9.3","","-13.1","","74","","","M","28","","13","","19.3","","101.70","","","","-15","","Snow"
"-57.39","49.21","DEER LAKE A","8401502","2021-02-26 23:30","2021","02","26","23:30","-10.0","","-13.1","","78","","","M","25","","8","","16.1","","101.79","","","","-14","","Snow"
"-57.39","49.21","DEER LAKE A","8401502","2021-02-27 00:30","2021","02","27","00:30","-10.2","","-13.7","","76","","","M","24","","13","","16.1","","101.92","","","","-16","","Snow"
"-57.39","49.21","DEER LAKE A","8401502","2021-02-27 01:30","2021","02","27","01:30","-10.0","","-14.8","","69","","","M","25","","16","","16.1","","102.04","","","","-17","","Snow"
"-57.39","49.21","DEER LAKE A","8401502","2021-02-27 02:30","2021","02","27","02:30","-10.5","","-15.4","","68","","","M","26","","13","","19.3","","102.15","","","","-17","","Snow"
"-57.39","49.21","DEER LAKE A","8401502","2021-02-27 03:30","2021","02","27","03:30","-11.4","","-15.5","","72","","","M","24","","12","","16.1","","102.21","","","","-18","","Snow"
"-57.39","49.21","DEER LAKE A","8401502","2021-02-27 04:30","2021","02","27","04:30","-11.8","","-16.0","","71","","","M","23","","9","","16.1","","102.25","","","","-17","","Snow"
"-57.39","49.21","DEER LAKE A","8401502","2021-02-27 05:30","2021","02","27","05:30","-14.5","","-18.6","","71","","","M","23","","10","","19.3","","102.36","","","","-21","","Snow"
"-57.39","49.21","DEER LAKE A","8401502","2021-02-27 06:30","2021","02","27","06:30","-13.6","","-17.1","","76","","","M","36","","1","","24.1","","102.48","","","","-14","","NA"
"-57.39","49.21","DEER LAKE A","8401502","2021-02-27 07:30","2021","02","27","07:30","-14.7","","-17.2","","82","","","M","20","","7","","24.1","","102.60","","","","-19","","NA"
"-57.39","49.21","DEER LAKE A","8401502","2021-02-27 08:30","2021","02","27","08:30","-13.1","","-15.9","","80","","","M","23","","4","","24.1","","102.67","","","","-16","","Mainly Clear"
"-57.39","49.21","DEER LAKE A","8401502","2021-02-27 09:30","2021","02","27","09:30","-7.5","","-12.3","","69","","","M","23","","14","","24.1","","102.66","","","","-13","","NA"
"-57.39","49.21","DEER LAKE A","8401502","2021-02-27 10:30","2021","02","27","10:30","-5.6","","-10.6","","68","","","M","23","","25","","24.1","","102.61","","","","-13","","NA"
"-57.39","49.21","DEER LAKE A","8401502","2021-02-27 11:30","2021","02","27","11:30","-3.6","","-10.0","","61","","","M","25","","22","","24.1","","102.48","","","","-10","","Mostly Cloudy"
"-57.39","49.21","DEER LAKE A","8401502","2021-02-27 12:30","2021","02","27","12:30","-3.2","","-9.2","","63","","","M","22","","26","","24.1","","102.39","","","","-10","","NA"
"-57.39","49.21","DEER LAKE A","8401502","2021-02-27 13:30","2021","02","27","13:30","-2.9","","-8.9","","63","","","M","21","","28","","24.1","","102.35","","","","-10","","NA"
"-57.39","49.21","DEER LAKE A","8401502","2021-02-27 14:30","2021","02","27","14:30","-2.0","","-10.0","","55","","","M","23","","26","","24.1","","102.31","","","","-9","","Mostly Cloudy"
"-57.39","49.21","DEER LAKE A","8401502","2021-02-27 15:30","2021","02","27","15:30","-2.0","","-9.2","","58","","","M","23","","32","","24.1","","102.21","","","","-9","","NA"
"-57.39","49.21","DEER LAKE A","8401502","2021-02-27 16:30","2021","02","27","16:30","-2.6","","-8.6","","64","","","M","23","","31","","24.1","","102.26","","","","-10","","NA"
"-57.39","49.21","DEER LAKE A","8401502","2021-02-27 17:30","2021","02","27","17:30","-2.8","","-8.3","","66","","","M","23","","29","","24.1","","102.26","","","","-10","","Mostly Cloudy"
"-57.39","49.21","DEER LAKE A","8401502","2021-02-27 18:30","2021","02","27","18:30","-3.6","","-8.8","","68","","","M","23","","21","","24.1","","102.23","","","","-10","","NA"
"-57.39","49.21","DEER LAKE A","8401502","2021-02-27 19:30","2021","02","27","19:30","-5.2","","-9.7","","71","","","M","19","","12","","24.1","","102.19","","","","-10","","NA"
"-57.39","49.21","DEER LAKE A","8401502","2021-02-27 20:30","2021","02","27","20:30","-5.9","","-10.6","","70","","","M","20","","19","","24.1","","102.17","","","","-13","","Mainly Clear"
"-57.39","49.21","DEER LAKE A","8401502","2021-02-27 21:30","2021","02","27","21:30","-7.2","","-11.0","","74","","","M","23","","8","","24.1","","102.06","","","","-11","","NA"
"-57.39","49.21","DEER LAKE A","8401502","2021-02-27 22:30","2021","02","27","22:30","-5.9","","-10.3","","72","","","M","26","","10","","24.1","","102.08","","","","-10","","NA"
"-57.39","49.21","DEER LAKE A","8401502","2021-02-27 23:30","2021","02","27","23:30","-8.3","","-11.0","","81","","","M","36","","1","","24.1","","102.01","","","","-9","","Mostly Cloudy"
"-57.39","49.21","DEER LAKE A","8401502","2021-02-28 00:30","2021","02","28","00:30","-7.3","","-10.4","","78","","","M","5","","4","","24.1","","101.85","","","","-9","","NA"
"-57.39","49.21","DEER LAKE A","8401502","2021-02-28 01:30","2021","02","28","01:30","-7.8","","-10.6","","80","","","M","32","","3","","","M","101.75","","","","-9","","NA"
"-57.39","49.21","DEER LAKE A","8401502","2021-02-28 02:30","2021","02","28","02:30","-5.1","","-9.5","","71","","","M","21","","17","","24.1","","101.63","","","","-11","","Mostly Cloudy"
"-57.39","49.21","DEER LAKE A","8401502","2021-02-28 03:30","2021","02","28","03:30","-6.8","","-9.2","","84","","","M","8","","4","","1.2","","101.50","","","","-9","","Snow"
"-57.39","49.21","DEER LAKE A","8401502","2021-02-28 04:30","2021","02","28","04:30","-6.9","","-8.1","","91","","","M","4","","9","","6.4","","101.32","","","","-11","","Snow"
"-57.39","49.21","DEER LAKE A","8401502","2021-02-28 05:30","2021","02","28","05:30","-5.9","","-7.0","","92","","","M","1","","4","","3.2","","101.21","","","","-8","","Snow"
"-57.39","49.21","DEER LAKE A","8401502","2021-02-28 06:30","2021","02","28","06:30","-5.1","","-6.1","","93","","","M","2","","15","","1.6","","101.04","","","","-11","","Snow"
"-57.39","49.21","DEER LAKE A","8401502","2021-02-28 07:30","2021","02","28","07:30","-4.6","","-5.6","","92","","","M","3","","14","","1.2","","100.91","","","","-10","","Snow"
"-57.39","49.21","DEER LAKE A","8401502","2021-02-28 08:30","2021","02","28","08:30","-5.1","","-6.1","","93","","","M","5","","17","","0.8","","100.80","","","","-11","","Moderate Snow"
"-57.39","49.21","DEER LAKE A","8401502","2021-02-28 09:30","2021","02","28","09:30","-4.3","","-5.3","","93","","","M","2","","22","","0.8","","100.66","","","","-11","","Moderate Snow"
"-57.39","49.21","DEER LAKE A","8401502","2021-02-28 10:30","2021","02","28","10:30","-4.0","","-5.2","","92","","","M","3","","23","","1.0","","100.54","","","","-11","","Snow"
"-57.39","49.21","DEER LAKE A","8401502","2021-02-28 11:30","2021","02","28","11:30","-4.0","","-5.2","","91","","","M","4","","28","","0.8","","100.50","","","","-11","","Moderate Snow"
"-57.39","49.21","DEER LAKE A","8401502","2021-02-28 12:30","2021","02","28","12:30","-3.3","","-4.5","","92","","","M","3","","23","","0.8","","100.47","","","","-10","","Snow,Blowing Snow"
"-57.39","49.21","DEER LAKE A","8401502","2021-02-28 13:30","2021","02","28","13:30","-3.0","","-4.5","","89","","","M","4","","32","","","M","100.45","","","","-11","","Snow,Blowing Snow"
"-57.39","49.21","DEER LAKE A","8401502","2021-02-28 14:30","2021","02","28","14:30","-2.3","","-4.2","","87","","","M","3","","31","","1.6","","100.46","","","","-10","","Snow,Blowing Snow"
"-57.39","49.21","DEER LAKE A","8401502","2021-02-28 15:30","2021","02","28","15:30","-0.9","","-3.5","","83","","","M","3","","29","","3.2","","100.54","","","","-8","","Snow,Blowing Snow"
"-57.39","49.21","DEER LAKE A","8401502","2021-02-28 16:30","2021","02","28","16:30","-1.8","","-4.1","","84","","","M","3","","30","","8.1","","100.69","","","","-9","","Snow"
"-57.39","49.21","DEER LAKE A","8401502","2021-02-28 17:30","2021","02","28","17:30","-2.1","","-4.8","","82","","","M","3","","23","","12.9","","100.86","","","","-8","","Snow"
"-57.39","49.21","DEER LAKE A","8401502","2021-02-28 18:30","2021","02","28","18:30","-2.2","","-4.8","","83","","","M","2","","18","","8.1","","101.06","","","","-8","","Snow"
"-57.39","49.21","DEER LAKE A","8401502","2021-02-28 19:30","2021","02","28","19:30","-2.3","","-5.1","","81","","","M","2","","19","","12.9","","101.24","","","","-8","","Snow"
"-57.39","49.21","DEER LAKE A","8401502","2021-02-28 20:30","2021","02","28","20:30","-2.2","","-5.2","","79","","","M","1","","15","","16.1","","101.37","","","","-7","","Snow"
"-57.39","49.21","DEER LAKE A","8401502","2021-02-28 21:30","2021","02","28","21:30","-2.5","","-5.2","","82","","","M","36","","10","","9.7","","101.47","","","","-6","","Snow"
"-57.39","49.21","DEER LAKE A","8401502","2021-02-28 22:30","2021","02","28","22:30","-2.9","","-5.2","","84","","","M","1","","6","","12.9","","101.58","","","","-5","","Snow"
"-57.39","49.21","DEER LAKE A","8401502","2021-02-28 23:30","2021","02","28","23:30","-2.9","","-6.3","","78","","","M","1","","7","","16.1","","101.60","","","","-6","","Snow"
