"Longitude (x)","Latitude (y)","Station Name","Climate ID","Date/Time (LST)","Year","Month","Day","Time (LST)","Temp (°C)","Temp Flag","Dew Point Temp (°C)","Dew Point Temp Flag","Rel Hum (%)","Rel Hum Flag","Precip. Amount (mm)","Precip. Amount Flag","Wind Dir (10s deg)","Wind Dir Flag","Wind Spd (km/h)","Wind Spd Flag","Visibility (km)","Visibility Flag","Stn Press (kPa)","Stn Press Flag","Hmdx","Hmdx Flag","Wind Chill","Wind Chill Flag","Weather"
"-94.20","72.02","FORT ROSS","2402051","2023-01-01 00:00","2023","01","01","00:00","-31.5","","-35.0","","71","","0.0","","17","","3","","","","101.20","","","","-35","","NA"
"-94.20","72.02","FORT ROSS","2402051","2023-01-01 01:00","2023","01","01","01:00","-31.5","","-35.0","","71","","0.0","","19","","3","","","","101.19","","","","-35","","NA"
"-94.20","72.02","FORT ROSS","2402051","2023-01-01 02:00","2023","01","01","02:00","-31.2","","-34.7","","71","","0.0","","18","","5","","","","101.17","","","","-37","","NA"
"-94.20","72.02","FORT ROSS","2402051","2023-01-01 03:00","2023","01","01","03:00","-30.7","","-34.2","","71","","0.0","","18","","6","","","","101.14","","","","-37","","NA"
"-94.20","72.02","FORT ROSS","2402051","2023-01-01 04:00","2023","01","01","04:00","-29.7","","-33.0","","73","","0.0","","0","","1","","","","101.13","","","","-31","","NA"
"-94.20","72.02","FORT ROSS","2402051","2023-01-01 05:00","2023","01","01","05:00","-31.1","","-34.6","","71","","0.0","","32","","2","","","","101.10","","","","-33","","NA"
"-94.20","72.02","FORT ROSS","2402051","2023-01-01 06:00","2023","01","01","06:00","-30.6","","-34.1","","71","","0.0","","18","","3","","","","101.05","","","","-34","","NA"
"-94.20","72.02","FORT ROSS","2402051","2023-01-01 07:00","2023","01","01","07:00","-29.5","","-32.7","","74","","0.0","","33","","2","","","","101.03","","","","-32","","NA"
"-94.20","72.02","FORT ROSS","2402051","2023-01-01 08:00","2023","01","01","08:00","-29.0","","-32.2","","74","","0.0","","36","","10","","","","101.04","","","","-38","","NA"
"-94.20","72.02","FORT ROSS","2402051","2023-01-01 09:00","2023","01","01","09:00","-28.8","","-32.2","","73","","0.0","","1","","11","","","","101.06","","","","-38","","NA"
"-94.20","72.02","FORT ROSS","2402051","2023-01-01 10:00","2023","01","01","10:00","-29.4","","-32.8","","72","","0.0","","36","","11","","","","101.03","","","","-39","","NA"
"-94.20","72.02","FORT ROSS","2402051","2023-01-01 11:00","2023","01","01","11:00","-29.0","","-32.4","","72","","0.0","","35","","13","","","","101.03","","","","-39","","NA"
"-94.20","72.02","FORT ROSS","2402051","2023-01-01 12:00","2023","01","01","12:00","-29.2","","-32.9","","70","","0.0","","35","","21","","","","101.03","","","","-42","","NA"
"-94.20","72.02","FORT ROSS","2402051","2023-01-01 13:00","2023","01","01","13:00","-30.8","","-34.5","","70","","0.0","","35","","16","","","","101.05","","","","-43","","NA"
"-94.20","72.02","FORT ROSS","2402051","2023-01-01 14:00","2023","01","01","14:00","-30.2","","-33.8","","71","","0.0","","36","","11","","","","101.03","","","","-40","","NA"
"-94.20","72.02","FORT ROSS","2402051","2023-01-01 15:00","2023","01","01","15:00","-30.5","","-34.0","","72","","0.0","","36","","13","","","","101.06","","","","-41","","NA"
"-94.20","72.02","FORT ROSS","2402051","2023-01-01 16:00","2023","01","01","16:00","-30.9","","-34.4","","71","","0.0","","36","","9","","","","101.05","","","","-40","","NA"
"-94.20","72.02","FORT ROSS","2402051","2023-01-01 17:00","2023","01","01","17:00","-31.0","","-34.3","","73","","0.0","","36","","11","","","","100.99","","","","-41","","NA"
"-94.20","72.02","FORT ROSS","2402051","2023-01-01 18:00","2023","01","01","18:00","-32.0","","-35.5","","71","","0.0","","36","","10","","","","101.01","","","","-42","","NA"
"-94.20","72.02","FORT ROSS","2402051","2023-01-01 19:00","2023","01","01","19:00","-30.9","","-34.3","","72","","0.0","","35","","13","","","","100.94","","","","-42","","NA"
"-94.20","72.02","FORT ROSS","2402051","2023-01-01 20:00","2023","01","01","20:00","-31.4","","-34.9","","71","","0.0","","31","","2","","","","100.90","","","","-34","","NA"
"-94.20","72.02","FORT ROSS","2402051","2023-01-01 21:00","2023","01","01","21:00","-31.4","","-34.9","","71","","0.0","","33","","5","","","","100.90","","","","-37","","NA"
"-94.20","72.02","FORT ROSS","2402051","2023-01-01 22:00","2023","01","01","22:00","-32.1","","-35.8","","70","","0.0","","36","","7","","","","100.88","","","","-40","","NA"
"-94.20","72.02","FORT ROSS","2402051","2023-01-01 23:00","2023","01","01","23:00","-31.5","","-35.1","","70","","0.0","","30","","1","","","","100.85","","","","-33","","NA"
"-94.20","72.02","FORT ROSS","2402051","2023-01-02 00:00","2023","01","02","00:00","-31.8","","-35.3","","71","","0.0","","19","","1","","","","100.82","","","","-33","","NA"
"-94.20","72.02","FORT ROSS","2402051","2023-01-02 01:00","2023","01","02","01:00","-32.4","","-36.2","","68","","0.0","","29","","2","","","","100.83","","","","-35","","NA"
"-94.20","72.02","FORT ROSS","2402051","2023-01-02 02:00","2023","01","02","02:00","-31.4","","-34.9","","71","","0.0","","23","","5","","","","100.81","","","","-37","","NA"
"-94.20","72.02","FORT ROSS","2402051","2023-01-02 03:00","2023","01","02","03:00","-31.5","","-35.0","","71","","0.0","","30","","2","","","","100.81","","","","-34","","NA"
"-94.20","72.02","FORT ROSS","2402051","2023-01-02 04:00","2023","01","02","04:00","-31.0","","-34.5","","71","","0.0","","","","0","","","","100.74","","","","","","NA"
"-94.20","72.02","FORT ROSS","2402051","2023-01-02 05:00","2023","01","02","05:00","-31.7","","-35.4","","70","","0.0","","34","","3","","","","100.75","","","","-35","","NA"
"-94.20","72.02","FORT ROSS","2402051","2023-01-02 06:00","2023","01","02","06:00","-32.4","","-36.1","","70","","0.0","","1","","7","","","","100.76","","","","-40","","NA"
"-94.20","72.02","FORT ROSS","2402051","2023-01-02 07:00","2023","01","02","07:00","-31.3","","-34.8","","71","","0.0","","35","","2","","","","100.70","","","","-34","","NA"
"-94.20","72.02","FORT ROSS","2402051","2023-01-02 08:00","2023","01","02","08:00","-32.5","","-36.3","","69","","0.0","","21","","4","","","","100.65","","","","-37","","NA"
"-94.20","72.02","FORT ROSS","2402051","2023-01-02 09:00","2023","01","02","09:00","-31.3","","-34.8","","71","","0.0","","4","","4","","","","100.69","","","","-36","","NA"
"-94.20","72.02","FORT ROSS","2402051","2023-01-02 10:00","2023","01","02","10:00","-32.9","","-36.7","","69","","0.0","","35","","6","","","","100.67","","","","-40","","NA"
"-94.20","72.02","FORT ROSS","2402051","2023-01-02 11:00","2023","01","02","11:00","-30.5","","-34.0","","71","","0.0","","3","","8","","","","100.70","","","","-39","","NA"
"-94.20","72.02","FORT ROSS","2402051","2023-01-02 12:00","2023","01","02","12:00","-31.5","","-35.0","","71","","0.0","","34","","2","","","","100.67","","","","-34","","NA"
"-94.20","72.02","FORT ROSS","2402051","2023-01-02 13:00","2023","01","02","13:00","-32.0","","-35.6","","70","","0.0","","20","","4","","","","100.66","","","","-37","","NA"
"-94.20","72.02","FORT ROSS","2402051","2023-01-02 14:00","2023","01","02","14:00","-31.3","","-34.8","","71","","0.0","","15","","5","","","","100.71","","","","-37","","NA"
"-94.20","72.02","FORT ROSS","2402051","2023-01-02 15:00","2023","01","02","15:00","-31.3","","-34.8","","71","","0.0","","36","","8","","","","100.73","","","","-40","","NA"
"-94.20","72.02","FORT ROSS","2402051","2023-01-02 16:00","2023","01","02","16:00","-31.8","","-35.5","","70","","0.0","","21","","3","","","","100.70","","","","-35","","NA"
"-94.20","72.02","FORT ROSS","2402051","2023-01-02 17:00","2023","01","02","17:00","-31.4","","-35.0","","71","","0.0","","17","","5","","","","100.72","","","","-37","","NA"
"-94.20","72.02","FORT ROSS","2402051","2023-01-02 18:00","2023","01","02","18:00","-32.0","","-35.8","","70","","0.0","","35","","4","","","","100.74","","","","-37","","NA"
"-94.20","72.02","FORT ROSS","2402051","2023-01-02 19:00","2023","01","02","19:00","-30.4","","-33.8","","72","","0.0","","20","","5","","","","100.71","","","","-36","","NA"
"-94.20","72.02","FORT ROSS","2402051","2023-01-02 20:00","2023","01","02","20:00","-29.6","","-32.9","","73","","0.0","","36","","2","","","","100.75","","","","-32","","NA"
"-94.20","72.02","FORT ROSS","2402051","2023-01-02 21:00","2023","01","02","21:00","-27.4","","-30.5","","75","","0.0","","27","","10","","","","100.76","","","","-36","","NA"
"-94.20","72.02","FORT ROSS","2402051","2023-01-02 22:00","2023","01","02","22:00","-27.8","","-31.0","","74","","0.0","","25","","12","","","","100.74","","","","-37","","NA"
"-94.20","72.02","FORT ROSS","2402051","2023-01-02 23:00","2023","01","02","23:00","-27.1","","-30.1","","76","","0.0","","25","","8","","","","100.72","","","","-35","","NA"
"-94.20","72.02","FORT ROSS","2402051","2023-01-03 00:00","2023","01","03","00:00","-28.5","","-31.8","","73","","0.0","","3","","4","","","","100.75","","","","-33","","NA"
"-94.20","72.02","FORT ROSS","2402051","2023-01-03 01:00","2023","01","03","01:00","-27.4","","-30.5","","75","","0.0","","26","","14","","","","100.78","","","","-38","","NA"
"-94.20","72.02","FORT ROSS","2402051","2023-01-03 02:00","2023","01","03","02:00","-27.8","","-31.0","","74","","0.0","","18","","4","","","","100.83","","","","-32","","NA"
"-94.20","72.02","FORT ROSS","2402051","2023-01-03 03:00","2023","01","03","03:00","-28.7","","-32.0","","74","","0.0","","33","","6","","","","100.89","","","","-35","","NA"
"-94.20","72.02","FORT ROSS","2402051","2023-01-03 04:00","2023","01","03","04:00","-27.9","","-31.4","","72","","0.0","","31","","8","","","","100.92","","","","-36","","NA"
"-94.20","72.02","FORT ROSS","2402051","2023-01-03 05:00","2023","01","03","05:00","-27.0","","-30.2","","74","","0.0","","25","","24","","","","100.89","","","","-40","","NA"
"-94.20","72.02","FORT ROSS","2402051","2023-01-03 06:00","2023","01","03","06:00","-25.9","","-29.3","","73","","0.0","","26","","16","","","","100.90","","","","-37","","NA"
"-94.20","72.02","FORT ROSS","2402051","2023-01-03 07:00","2023","01","03","07:00","-26.3","","-29.7","","73","","0.0","","27","","18","","","","100.91","","","","-38","","NA"
"-94.20","72.02","FORT ROSS","2402051","2023-01-03 08:00","2023","01","03","08:00","-26.4","","-29.5","","75","","0.0","","27","","10","","","","100.95","","","","-35","","NA"
"-94.20","72.02","FORT ROSS","2402051","2023-01-03 09:00","2023","01","03","09:00","-26.5","","-29.5","","75","","0.0","","27","","16","","","","100.96","","","","-37","","NA"
"-94.20","72.02","FORT ROSS","2402051","2023-01-03 10:00","2023","01","03","10:00","-27.3","","-30.5","","74","","0.0","","25","","26","","","","100.96","","","","-41","","NA"
"-94.20","72.02","FORT ROSS","2402051","2023-01-03 11:00","2023","01","03","11:00","-27.1","","-30.3","","74","","0.0","","25","","23","","","","100.99","","","","-40","","NA"
"-94.20","72.02","FORT ROSS","2402051","2023-01-03 12:00","2023","01","03","12:00","-26.6","","-29.4","","77","","0.0","","24","","23","","","","100.99","","","","-40","","NA"
"-94.20","72.02","FORT ROSS","2402051","2023-01-03 13:00","2023","01","03","13:00","-26.7","","-29.8","","75","","0.0","","25","","29","","","","100.98","","","","-41","","NA"
"-94.20","72.02","FORT ROSS","2402051","2023-01-03 14:00","2023","01","03","14:00","-26.7","","-29.8","","75","","0.0","","25","","26","","","","100.99","","","","-40","","NA"
"-94.20","72.02","FORT ROSS","2402051","2023-01-03 15:00","2023","01","03","15:00","-25.8","","-28.7","","76","","0.0","","25","","27","","","","100.99","","","","-40","","NA"
"-94.20","72.02","FORT ROSS","2402051","2023-01-03 16:00","2023","01","03","16:00","-25.3","","-28.4","","76","","0.0","","25","","27","","","","101.00","","","","-39","","NA"
"-94.20","72.02","FORT ROSS","2402051","2023-01-03 17:00","2023","01","03","17:00","-26.5","","-29.7","","75","","0.0","","24","","27","","","","101.01","","","","-40","","NA"
"-94.20","72.02","FORT ROSS","2402051","2023-01-03 18:00","2023","01","03","18:00","-26.8","","-29.9","","75","","0.0","","25","","32","","","","101.01","","","","-42","","NA"
"-94.20","72.02","FORT ROSS","2402051","2023-01-03 19:00","2023","01","03","19:00","-26.9","","-30.0","","75","","0.0","","25","","27","","","","101.01","","","","-41","","NA"
"-94.20","72.02","FORT ROSS","2402051","2023-01-03 20:00","2023","01","03","20:00","-27.1","","-30.3","","74","","0.0","","25","","33","","","","100.99","","","","-42","","NA"
"-94.20","72.02","FORT ROSS","2402051","2023-01-03 21:00","2023","01","03","21:00","-27.3","","-30.5","","74","","0.0","","26","","33","","","","100.99","","","","-43","","NA"
"-94.20","72.02","FORT ROSS","2402051","2023-01-03 22:00","2023","01","03","22:00","-27.0","","-30.1","","75","","0.0","","25","","34","","","","100.98","","","","-42","","NA"
"-94.20","72.02","FORT ROSS","2402051","2023-01-03 23:00","2023","01","03","23:00","-26.6","","-29.6","","76","","0.0","","25","","28","","","","101.01","","","","-41","","NA"
"-94.20","72.02","FORT ROSS","2402051","2023-01-04 00:00","2023","01","04","00:00","-27.8","","-31.0","","74","","0.0","","24","","30","","","","101.04","","","","-43","","NA"
"-94.20","72.02","FORT ROSS","2402051","2023-01-04 01:00","2023","01","04","01:00","-28.2","","-31.6","","73","","0.0","","25","","31","","","","101.05","","","","-43","","NA"
"-94.20","72.02","FORT ROSS","2402051","2023-01-04 02:00","2023","01","04","02:00","-28.6","","-32.0","","73","","0.0","","26","","31","","","","101.06","","","","-44","","NA"
"-94.20","72.02","FORT ROSS","2402051","2023-01-04 03:00","2023","01","04","03:00","-29.2","","-32.6","","72","","0.0","","26","","31","","","","101.11","","","","-45","","NA"
"-94.20","72.02","FORT ROSS","2402051","2023-01-04 04:00","2023","01","04","04:00","-29.3","","-32.8","","71","","0.0","","26","","30","","","","101.11","","","","-45","","NA"
"-94.20","72.02","FORT ROSS","2402051","2023-01-04 05:00","2023","01","04","05:00","-29.7","","-33.3","","71","","0.0","","25","","30","","","","101.10","","","","-45","","NA"
"-94.20","72.02","FORT ROSS","2402051","2023-01-04 06:00","2023","01","04","06:00","-29.6","","-33.4","","70","","0.0","","26","","27","","","","101.14","","","","-44","","NA"
"-94.20","72.02","FORT ROSS","2402051","2023-01-04 07:00","2023","01","04","07:00","-29.6","","-33.2","","71","","0.0","","26","","22","","","","101.17","","","","-43","","NA"
"-94.20","72.02","FORT ROSS","2402051","2023-01-04 08:00","2023","01","04","08:00","-29.6","","-33.3","","70","","0.0","","25","","22","","","","101.16","","","","-43","","NA"
"-94.20","72.02","FORT ROSS","2402051","2023-01-04 09:00","2023","01","04","09:00","-29.7","","-33.3","","71","","0.0","","25","","22","","","","101.16","","","","-43","","NA"
"-94.20","72.02","FORT ROSS","2402051","2023-01-04 10:00","2023","01","04","10:00","-29.1","","-32.5","","72","","0.0","","25","","21","","","","101.17","","","","-42","","NA"
"-94.20","72.02","FORT ROSS","2402051","2023-01-04 11:00","2023","01","04","11:00","-28.4","","-31.7","","73","","0.0","","25","","23","","","","101.17","","","","-42","","NA"
"-94.20","72.02","FORT ROSS","2402051","2023-01-04 12:00","2023","01","04","12:00","-28.0","","-31.6","","71","","0.0","","29","","10","","","","101.21","","","","-37","","NA"
"-94.20","72.02","FORT ROSS","2402051","2023-01-04 13:00","2023","01","04","13:00","-27.7","","-31.4","","71","","0.0","","30","","10","","","","101.25","","","","-36","","NA"
"-94.20","72.02","FORT ROSS","2402051","2023-01-04 14:00","2023","01","04","14:00","-27.3","","-30.9","","71","","0.0","","26","","8","","","","101.29","","","","-35","","NA"
"-94.20","72.02","FORT ROSS","2402051","2023-01-04 15:00","2023","01","04","15:00","-27.9","","-31.6","","71","","0.0","","23","","7","","","","101.30","","","","-35","","NA"
"-94.20","72.02","FORT ROSS","2402051","2023-01-04 16:00","2023","01","04","16:00","-28.3","","-31.9","","71","","0.0","","22","","12","","","","101.34","","","","-38","","NA"
"-94.20","72.02","FORT ROSS","2402051","2023-01-04 17:00","2023","01","04","17:00","-28.4","","-31.9","","72","","0.0","","24","","4","","","","101.37","","","","-33","","NA"
"-94.20","72.02","FORT ROSS","2402051","2023-01-04 18:00","2023","01","04","18:00","-27.7","","-31.3","","72","","0.0","","","","0","","","","101.36","","","","","","NA"
"-94.20","72.02","FORT ROSS","2402051","2023-01-04 19:00","2023","01","04","19:00","-28.5","","-31.9","","73","","0.0","","35","","2","","","","101.36","","","","-31","","NA"
"-94.20","72.02","FORT ROSS","2402051","2023-01-04 20:00","2023","01","04","20:00","-28.7","","-32.1","","73","","0.0","","17","","5","","","","101.37","","","","-34","","NA"
"-94.20","72.02","FORT ROSS","2402051","2023-01-04 21:00","2023","01","04","21:00","-29.2","","-32.6","","72","","0.0","","1","","6","","","","101.37","","","","-36","","NA"
"-94.20","72.02","FORT ROSS","2402051","2023-01-04 22:00","2023","01","04","22:00","-29.8","","-33.1","","73","","0.0","","3","","2","","","","101.41","","","","-32","","NA"
"-94.20","72.02","FORT ROSS","2402051","2023-01-04 23:00","2023","01","04","23:00","-30.0","","-33.4","","72","","0.0","","36","","6","","","","101.43","","","","-37","","NA"
"-94.20","72.02","FORT ROSS","2402051","2023-01-05 00:00","2023","01","05","00:00","-29.8","","-33.1","","73","","0.0","","34","","4","","","","101.45","","","","-34","","NA"
"-94.20","72.02","FORT ROSS","2402051","2023-01-05 01:00","2023","01","05","01:00","-29.8","","-33.2","","72","","0.0","","1","","7","","","","101.46","","","","-37","","NA"
"-94.20","72.02","FORT ROSS","2402051","2023-01-05 02:00","2023","01","05","02:00","-29.8","","-33.0","","73","","0.0","","36","","9","","","","101.50","","","","-38","","NA"
"-94.20","72.02","FORT ROSS","2402051","2023-01-05 03:00","2023","01","05","03:00","-30.3","","-33.7","","72","","0.0","","35","","3","","","","101.54","","","","-34","","NA"
"-94.20","72.02","FORT ROSS","2402051","2023-01-05 04:00","2023","01","05","04:00","-30.8","","-34.3","","71","","0.0","","36","","10","","","","101.57","","","","-40","","NA"
"-94.20","72.02","FORT ROSS","2402051","2023-01-05 05:00","2023","01","05","05:00","-31.0","","-34.6","","71","","0.0","","36","","13","","","","101.59","","","","-42","","NA"
"-94.20","72.02","FORT ROSS","2402051","2023-01-05 06:00","2023","01","05","06:00","-30.9","","-34.4","","72","","0.0","","35","","14","","","","101.58","","","","-42","","NA"
"-94.20","72.02","FORT ROSS","2402051","2023-01-05 07:00","2023","01","05","07:00","-30.8","","-34.1","","72","","0.0","","36","","13","","","","101.60","","","","-42","","NA"
"-94.20","72.02","FORT ROSS","2402051","2023-01-05 08:00","2023","01","05","08:00","-30.6","","-34.0","","72","","0.0","","36","","11","","","","101.61","","","","-40","","NA"
"-94.20","72.02","FORT ROSS","2402051","2023-01-05 09:00","2023","01","05","09:00","-31.0","","-34.5","","71","","0.0","","35","","14","","","","101.63","","","","-42","","NA"
"-94.20","72.02","FORT ROSS","2402051","2023-01-05 10:00","2023","01","05","10:00","-30.5","","-33.9","","72","","0.0","","35","","10","","","","101.63","","","","-40","","NA"
"-94.20","72.02","FORT ROSS","2402051","2023-01-05 11:00","2023","01","05","11:00","-30.1","","-33.5","","72","","0.0","","36","","13","","","","101.67","","","","-41","","NA"
"-94.20","72.02","FORT ROSS","2402051","2023-01-05 12:00","2023","01","05","12:00","-29.6","","-33.0","","72","","0.0","","35","","11","","","","101.68","","","","-39","","NA"
"-94.20","72.02","FORT ROSS","2402051","2023-01-05 13:00","2023","01","05","13:00","-29.5","","-32.9","","72","","0.0","","36","","11","","","","101.71","","","","-39","","NA"
"-94.20","72.02","FORT ROSS","2402051","2023-01-05 14:00","2023","01","05","14:00","-29.2","","-32.5","","73","","0.0","","35","","11","","","","101.73","","","","-39","","NA"
"-94.20","72.02","FORT ROSS","2402051","2023-01-05 15:00","2023","01","05","15:00","-28.9","","-32.2","","73","","0.0","","35","","12","","","","101.75","","","","-39","","NA"
"-94.20","72.02","FORT ROSS","2402051","2023-01-05 16:00","2023","01","05","16:00","-28.1","","-31.2","","75","","0.0","","10","","12","","","","101.78","","","","-38","","NA"
"-94.20","72.02","FORT ROSS","2402051","2023-01-05 17:00","2023","01","05","17:00","-28.3","","-31.5","","74","","0.0","","13","","4","","","","101.79","","","","-33","","NA"
"-94.20","72.02","FORT ROSS","2402051","2023-01-05 18:00","2023","01","05","18:00","-29.0","","-32.2","","73","","0.0","","2","","4","","","","101.80","","","","-33","","NA"
"-94.20","72.02","FORT ROSS","2402051","2023-01-05 19:00","2023","01","05","19:00","-29.6","","-33.0","","73","","0.0","","35","","7","","","","101.79","","","","-37","","NA"
"-94.20","72.02","FORT ROSS","2402051","2023-01-05 20:00","2023","01","05","20:00","-29.3","","-32.6","","73","","0.0","","31","","2","","","","101.80","","","","-32","","NA"
"-94.20","72.02","FORT ROSS","2402051","2023-01-05 21:00","2023","01","05","21:00","-29.2","","-32.5","","73","","0.0","","35","","6","","","","101.81","","","","-36","","NA"
"-94.20","72.02","FORT ROSS","2402051","2023-01-05 22:00","2023","01","05","22:00","-28.9","","-32.2","","73","","0.0","","35","","3","","","","101.82","","","","-32","","NA"
"-94.20","72.02","FORT ROSS","2402051","2023-01-05 23:00","2023","01","05","23:00","-29.0","","-32.2","","73","","0.0","","0","","1","","","","101.83","","","","-30","","NA"
"-94.20","72.02","FORT ROSS","2402051","2023-01-06 00:00","2023","01","06","00:00","-29.1","","-32.4","","73","","0.0","","25","","2","","","","101.84","","","","-31","","NA"
"-94.20","72.02","FORT ROSS","2402051","2023-01-06 01:00","2023","01","06","01:00","-29.3","","-32.6","","73","","0.0","","33","","3","","","","101.86","","","","-33","","NA"
"-94.20","72.02","FORT ROSS","2402051","2023-01-06 02:00","2023","01","06","02:00","-29.7","","-33.1","","72","","0.0","","36","","7","","","","101.87","","","","-37","","NA"
"-94.20","72.02","FORT ROSS","2402051","2023-01-06 03:00","2023","01","06","03:00","-29.9","","-33.3","","72","","0.0","","1","","7","","","","101.90","","","","-37","","NA"
"-94.20","72.02","FORT ROSS","2402051","2023-01-06 04:00","2023","01","06","04:00","-29.6","","-33.0","","73","","0.0","","36","","7","","","","101.92","","","","-37","","NA"
"-94.20","72.02","FORT ROSS","2402051","2023-01-06 05:00","2023","01","06","05:00","-29.9","","-33.2","","72","","0.0","","36","","8","","","","101.93","","","","-38","","NA"
"-94.20","72.02","FORT ROSS","2402051","2023-01-06 06:00","2023","01","06","06:00","-30.0","","-33.3","","73","","0.0","","36","","9","","","","101.94","","","","-39","","NA"
"-94.20","72.02","FORT ROSS","2402051","2023-01-06 07:00","2023","01","06","07:00","-30.4","","-33.9","","71","","0.0","","35","","13","","","","101.91","","","","-41","","NA"
"-94.20","72.02","FORT ROSS","2402051","2023-01-06 08:00","2023","01","06","08:00","-30.4","","-33.9","","71","","0.0","","36","","11","","","","101.91","","","","-40","","NA"
"-94.20","72.02","FORT ROSS","2402051","2023-01-06 09:00","2023","01","06","09:00","-30.4","","-33.9","","71","","0.0","","36","","11","","","","101.90","","","","-40","","NA"
"-94.20","72.02","FORT ROSS","2402051","2023-01-06 10:00","2023","01","06","10:00","-30.5","","-34.1","","70","","0.0","","35","","12","","","","101.91","","","","-41","","NA"
"-94.20","72.02","FORT ROSS","2402051","2023-01-06 11:00","2023","01","06","11:00","-30.5","","-34.0","","71","","0.0","","35","","13","","","","101.93","","","","-41","","NA"
"-94.20","72.02","FORT ROSS","2402051","2023-01-06 12:00","2023","01","06","12:00","-30.0","","-33.5","","71","","0.0","","35","","10","","","","101.96","","","","-39","","NA"
"-94.20","72.02","FORT ROSS","2402051","2023-01-06 13:00","2023","01","06","13:00","-30.2","","-33.8","","71","","0.0","","34","","4","","","","101.96","","","","-35","","NA"
"-94.20","72.02","FORT ROSS","2402051","2023-01-06 14:00","2023","01","06","14:00","-30.6","","-34.1","","71","","0.0","","32","","6","","","","101.97","","","","-37","","NA"
"-94.20","72.02","FORT ROSS","2402051","2023-01-06 15:00","2023","01","06","15:00","-30.4","","-33.8","","72","","0.0","","35","","4","","","","101.99","","","","-35","","NA"
"-94.20","72.02","FORT ROSS","2402051","2023-01-06 16:00","2023","01","06","16:00","-30.0","","-33.4","","72","","0.0","","36","","4","","","","101.99","","","","-35","","NA"
"-94.20","72.02","FORT ROSS","2402051","2023-01-06 17:00","2023","01","06","17:00","-29.3","","-32.7","","72","","0.0","","36","","6","","","","102.02","","","","-36","","NA"
"-94.20","72.02","FORT ROSS","2402051","2023-01-06 18:00","2023","01","06","18:00","-29.1","","-32.7","","71","","0.0","","36","","10","","","","102.01","","","","-38","","NA"
"-94.20","72.02","FORT ROSS","2402051","2023-01-06 19:00","2023","01","06","19:00","-28.5","","-32.2","","71","","0.0","","35","","15","","","","102.00","","","","-40","","NA"
"-94.20","72.02","FORT ROSS","2402051","2023-01-06 20:00","2023","01","06","20:00","-28.8","","-32.4","","71","","0.0","","1","","14","","","","102.00","","","","-40","","NA"
"-94.20","72.02","FORT ROSS","2402051","2023-01-06 21:00","2023","01","06","21:00","-28.5","","-32.2","","70","","0.0","","1","","17","","","","102.00","","","","-40","","NA"
"-94.20","72.02","FORT ROSS","2402051","2023-01-06 22:00","2023","01","06","22:00","-28.4","","-32.1","","71","","0.0","","1","","17","","","","102.00","","","","-40","","NA"
"-94.20","72.02","FORT ROSS","2402051","2023-01-06 23:00","2023","01","06","23:00","-28.5","","-32.1","","71","","0.0","","36","","17","","","","101.99","","","","-40","","NA"
"-94.20","72.02","FORT ROSS","2402051","2023-01-07 00:00","2023","01","07","00:00","-28.6","","-32.3","","71","","0.0","","36","","16","","","","102.00","","","","-40","","NA"
"-94.20","72.02","FORT ROSS","2402051","2023-01-07 01:00","2023","01","07","01:00","-29.1","","-32.8","","71","","0.0","","36","","16","","","","102.02","","","","-41","","NA"
"-94.20","72.02","FORT ROSS","2402051","2023-01-07 02:00","2023","01","07","02:00","-28.9","","-32.6","","70","","0.0","","1","","21","","","","102.05","","","","-42","","NA"
"-94.20","72.02","FORT ROSS","2402051","2023-01-07 03:00","2023","01","07","03:00","-29.0","","-32.7","","70","","0.0","","35","","11","","","","102.08","","","","-38","","NA"
"-94.20","72.02","FORT ROSS","2402051","2023-01-07 04:00","2023","01","07","04:00","-29.2","","-33.0","","70","","0.0","","36","","18","","","","102.07","","","","-41","","NA"
"-94.20","72.02","FORT ROSS","2402051","2023-01-07 05:00","2023","01","07","05:00","-29.5","","-33.3","","70","","0.0","","1","","15","","","","102.08","","","","-41","","NA"
"-94.20","72.02","FORT ROSS","2402051","2023-01-07 06:00","2023","01","07","06:00","-29.6","","-33.3","","70","","0.0","","36","","12","","","","102.08","","","","-40","","NA"
"-94.20","72.02","FORT ROSS","2402051","2023-01-07 07:00","2023","01","07","07:00","-29.6","","-33.4","","70","","0.0","","1","","15","","","","102.05","","","","-41","","NA"
"-94.20","72.02","FORT ROSS","2402051","2023-01-07 08:00","2023","01","07","08:00","-29.4","","-33.3","","69","","0.0","","2","","13","","","","102.08","","","","-40","","NA"
"-94.20","72.02","FORT ROSS","2402051","2023-01-07 09:00","2023","01","07","09:00","-29.5","","-33.4","","69","","0.0","","36","","14","","","","102.09","","","","-40","","NA"
"-94.20","72.02","FORT ROSS","2402051","2023-01-07 10:00","2023","01","07","10:00","-29.7","","-33.7","","69","","0.0","","36","","12","","","","102.09","","","","-40","","NA"
"-94.20","72.02","FORT ROSS","2402051","2023-01-07 11:00","2023","01","07","11:00","-29.3","","-33.1","","69","","0.0","","1","","12","","","","102.09","","","","-39","","NA"
"-94.20","72.02","FORT ROSS","2402051","2023-01-07 12:00","2023","01","07","12:00","-30.3","","-34.2","","69","","0.0","","1","","9","","","","102.14","","","","-39","","NA"
"-94.20","72.02","FORT ROSS","2402051","2023-01-07 13:00","2023","01","07","13:00","-29.7","","-33.7","","68","","0.0","","36","","11","","","","102.16","","","","-39","","NA"
"-94.20","72.02","FORT ROSS","2402051","2023-01-07 14:00","2023","01","07","14:00","-29.5","","-33.4","","68","","0.0","","35","","9","","","","102.18","","","","-38","","NA"
"-94.20","72.02","FORT ROSS","2402051","2023-01-07 15:00","2023","01","07","15:00","-30.4","","-34.3","","69","","0.0","","35","","11","","","","102.18","","","","-40","","NA"
"-94.20","72.02","FORT ROSS","2402051","2023-01-07 16:00","2023","01","07","16:00","-31.7","","-35.6","","69","","0.0","","35","","8","","","","102.19","","","","-40","","NA"
"-94.20","72.02","FORT ROSS","2402051","2023-01-07 17:00","2023","01","07","17:00","-30.7","","-34.3","","71","","0.0","","19","","4","","","","102.19","","","","-35","","NA"
"-94.20","72.02","FORT ROSS","2402051","2023-01-07 18:00","2023","01","07","18:00","-30.5","","-34.0","","71","","0.0","","0","","1","","","","102.17","","","","-32","","NA"
"-94.20","72.02","FORT ROSS","2402051","2023-01-07 19:00","2023","01","07","19:00","-31.9","","-35.6","","70","","0.0","","36","","1","","","","102.16","","","","-33","","NA"
"-94.20","72.02","FORT ROSS","2402051","2023-01-07 20:00","2023","01","07","20:00","-31.8","","-35.5","","70","","0.0","","0","","1","","","","102.18","","","","-33","","NA"
"-94.20","72.02","FORT ROSS","2402051","2023-01-07 21:00","2023","01","07","21:00","-32.1","","-35.8","","70","","0.0","","32","","2","","","","102.15","","","","-34","","NA"
"-94.20","72.02","FORT ROSS","2402051","2023-01-07 22:00","2023","01","07","22:00","-30.5","","-33.8","","73","","0.0","","18","","5","","","","102.11","","","","-36","","NA"
"-94.20","72.02","FORT ROSS","2402051","2023-01-07 23:00","2023","01","07","23:00","-28.5","","-32.0","","72","","0.0","","24","","7","","","","102.08","","","","-36","","NA"
"-94.20","72.02","FORT ROSS","2402051","2023-01-08 00:00","2023","01","08","00:00","-27.9","","-31.3","","73","","0.0","","21","","3","","","","102.08","","","","-31","","NA"
"-94.20","72.02","FORT ROSS","2402051","2023-01-08 01:00","2023","01","08","01:00","-26.9","","-30.4","","72","","0.0","","31","","4","","","","102.07","","","","-31","","NA"
"-94.20","72.02","FORT ROSS","2402051","2023-01-08 02:00","2023","01","08","02:00","-26.6","","-30.1","","73","","0.0","","25","","21","","","","102.06","","","","-39","","NA"
"-94.20","72.02","FORT ROSS","2402051","2023-01-08 03:00","2023","01","08","03:00","-25.9","","-29.2","","74","","0.0","","26","","12","","","","102.03","","","","-35","","NA"
"-94.20","72.02","FORT ROSS","2402051","2023-01-08 04:00","2023","01","08","04:00","-25.7","","-29.0","","74","","0.0","","27","","12","","","","102.03","","","","-35","","NA"
"-94.20","72.02","FORT ROSS","2402051","2023-01-08 05:00","2023","01","08","05:00","-26.0","","-28.8","","77","","0.0","","27","","12","","","","102.03","","","","-35","","NA"
"-94.20","72.02","FORT ROSS","2402051","2023-01-08 06:00","2023","01","08","06:00","-25.8","","-28.7","","77","","0.0","","26","","12","","","","102.02","","","","-35","","NA"
"-94.20","72.02","FORT ROSS","2402051","2023-01-08 07:00","2023","01","08","07:00","-26.1","","-28.8","","78","","0.0","","26","","19","","","","102.03","","","","-38","","NA"
"-94.20","72.02","FORT ROSS","2402051","2023-01-08 08:00","2023","01","08","08:00","-26.4","","-29.4","","76","","0.0","","25","","14","","","","102.04","","","","-37","","NA"
"-94.20","72.02","FORT ROSS","2402051","2023-01-08 09:00","2023","01","08","09:00","-27.9","","-30.9","","75","","0.0","","18","","5","","","","102.05","","","","-33","","NA"
"-94.20","72.02","FORT ROSS","2402051","2023-01-08 10:00","2023","01","08","10:00","-26.0","","-28.9","","77","","0.0","","26","","19","","","","102.04","","","","-38","","NA"
"-94.20","72.02","FORT ROSS","2402051","2023-01-08 11:00","2023","01","08","11:00","-26.4","","-29.4","","76","","0.0","","25","","18","","","","102.02","","","","-38","","NA"
"-94.20","72.02","FORT ROSS","2402051","2023-01-08 12:00","2023","01","08","12:00","-26.8","","-29.8","","76","","0.0","","33","","6","","","","102.02","","","","-33","","NA"
"-94.20","72.02","FORT ROSS","2402051","2023-01-08 13:00","2023","01","08","13:00","-24.2","","-26.9","","78","","0.0","","28","","12","","","","102.01","","","","-33","","NA"
"-94.20","72.02","FORT ROSS","2402051","2023-01-08 14:00","2023","01","08","14:00","-23.0","","-25.3","","81","","0.0","","25","","12","","","","102.01","","","","-32","","NA"
"-94.20","72.02","FORT ROSS","2402051","2023-01-08 15:00","2023","01","08","15:00","-24.1","","-26.7","","80","","0.0","","31","","2","","","","102.02","","","","-26","","NA"
"-94.20","72.02","FORT ROSS","2402051","2023-01-08 16:00","2023","01","08","16:00","-23.7","","-26.3","","79","","0.0","","26","","27","","","","102.02","","","","-37","","NA"
"-94.20","72.02","FORT ROSS","2402051","2023-01-08 17:00","2023","01","08","17:00","-23.1","","-25.7","","79","","0.0","","25","","24","","","","102.03","","","","-35","","NA"
"-94.20","72.02","FORT ROSS","2402051","2023-01-08 18:00","2023","01","08","18:00","-23.1","","-25.4","","81","","0.0","","24","","32","","","","102.00","","","","-37","","NA"
"-94.20","72.02","FORT ROSS","2402051","2023-01-08 19:00","2023","01","08","19:00","-24.3","","-26.9","","79","","0.0","","23","","27","","","","102.02","","","","-38","","NA"
"-94.20","72.02","FORT ROSS","2402051","2023-01-08 20:00","2023","01","08","20:00","-24.4","","-27.3","","77","","0.0","","25","","32","","","","101.97","","","","-39","","NA"
"-94.20","72.02","FORT ROSS","2402051","2023-01-08 21:00","2023","01","08","21:00","-24.5","","-27.3","","78","","0.0","","25","","35","","","","101.99","","","","-39","","NA"
"-94.20","72.02","FORT ROSS","2402051","2023-01-08 22:00","2023","01","08","22:00","-25.2","","-28.1","","77","","0.0","","25","","34","","","","102.02","","","","-40","","NA"
"-94.20","72.02","FORT ROSS","2402051","2023-01-08 23:00","2023","01","08","23:00","-23.4","","-26.0","","79","","0.0","","26","","25","","","","102.04","","","","-36","","NA"
"-94.20","72.02","FORT ROSS","2402051","2023-01-09 00:00","2023","01","09","00:00","-25.1","","-28.0","","77","","0.0","","26","","34","","","","102.05","","","","-40","","NA"
"-94.20","72.02","FORT ROSS","2402051","2023-01-09 01:00","2023","01","09","01:00","-25.5","","-28.5","","76","","0.0","","25","","35","","","","102.09","","","","-41","","NA"
"-94.20","72.02","FORT ROSS","2402051","2023-01-09 02:00","2023","01","09","02:00","-22.6","","-25.2","","79","","0.0","","24","","4","","","","102.13","","","","-26","","NA"
"-94.20","72.02","FORT ROSS","2402051","2023-01-09 03:00","2023","01","09","03:00","-26.0","","-29.0","","76","","0.0","","26","","27","","","","102.17","","","","-40","","NA"
"-94.20","72.02","FORT ROSS","2402051","2023-01-09 04:00","2023","01","09","04:00","-26.2","","-29.2","","76","","0.0","","26","","32","","","","102.17","","","","-41","","NA"
"-94.20","72.02","FORT ROSS","2402051","2023-01-09 05:00","2023","01","09","05:00","-26.2","","-29.2","","76","","0.0","","26","","28","","","","102.18","","","","-40","","NA"
"-94.20","72.02","FORT ROSS","2402051","2023-01-09 06:00","2023","01","09","06:00","-25.3","","-28.1","","77","","0.0","","26","","35","","","","102.15","","","","-40","","NA"
"-94.20","72.02","FORT ROSS","2402051","2023-01-09 07:00","2023","01","09","07:00","-24.8","","-27.7","","77","","0.0","","26","","30","","","","102.13","","","","-39","","NA"
"-94.20","72.02","FORT ROSS","2402051","2023-01-09 08:00","2023","01","09","08:00","-24.9","","-27.7","","78","","0.0","","26","","30","","","","102.14","","","","-39","","NA"
"-94.20","72.02","FORT ROSS","2402051","2023-01-09 09:00","2023","01","09","09:00","-25.0","","-27.7","","78","","0.0","","26","","28","","","","102.15","","","","-39","","NA"
"-94.20","72.02","FORT ROSS","2402051","2023-01-09 10:00","2023","01","09","10:00","-25.9","","-28.8","","77","","0.0","","25","","27","","","","102.17","","","","-40","","NA"
"-94.20","72.02","FORT ROSS","2402051","2023-01-09 11:00","2023","01","09","11:00","-25.9","","-28.8","","76","","0.0","","25","","26","","","","102.16","","","","-39","","NA"
"-94.20","72.02","FORT ROSS","2402051","2023-01-09 12:00","2023","01","09","12:00","-25.7","","-28.6","","77","","0.0","","25","","27","","","","102.17","","","","-39","","NA"
"-94.20","72.02","FORT ROSS","2402051","2023-01-09 13:00","2023","01","09","13:00","-25.6","","-28.5","","77","","0.0","","25","","26","","","","102.15","","","","-39","","NA"
"-94.20","72.02","FORT ROSS","2402051","2023-01-09 14:00","2023","01","09","14:00","-26.0","","-29.0","","76","","0.0","","25","","26","","","","102.16","","","","-40","","NA"
"-94.20","72.02","FORT ROSS","2402051","2023-01-09 15:00","2023","01","09","15:00","-25.2","","-28.0","","77","","0.0","","25","","26","","","","102.15","","","","-39","","NA"
"-94.20","72.02","FORT ROSS","2402051","2023-01-09 16:00","2023","01","09","16:00","-26.3","","-29.3","","76","","0.0","","25","","23","","","","102.13","","","","-39","","NA"
"-94.20","72.02","FORT ROSS","2402051","2023-01-09 17:00","2023","01","09","17:00","-26.1","","-29.0","","76","","0.0","","25","","39","","","","102.06","","","","-42","","NA"
"-94.20","72.02","FORT ROSS","2402051","2023-01-09 18:00","2023","01","09","18:00","-25.2","","-28.0","","77","","0.0","","25","","31","","","","102.06","","","","-40","","NA"
"-94.20","72.02","FORT ROSS","2402051","2023-01-09 19:00","2023","01","09","19:00","-24.5","","-27.2","","78","","0.0","","24","","26","","","","101.99","","","","-38","","NA"
"-94.20","72.02","FORT ROSS","2402051","2023-01-09 20:00","2023","01","09","20:00","-24.5","","-27.3","","78","","0.0","","23","","31","","","","101.96","","","","-39","","NA"
"-94.20","72.02","FORT ROSS","2402051","2023-01-09 21:00","2023","01","09","21:00","-25.4","","-28.3","","77","","0.0","","24","","34","","","","101.88","","","","-40","","NA"
"-94.20","72.02","FORT ROSS","2402051","2023-01-09 22:00","2023","01","09","22:00","-25.6","","-28.5","","77","","0.0","","25","","28","","","","101.90","","","","-39","","NA"
"-94.20","72.02","FORT ROSS","2402051","2023-01-09 23:00","2023","01","09","23:00","-26.5","","-29.5","","76","","0.0","","25","","44","","","","101.83","","","","-43","","NA"
"-94.20","72.02","FORT ROSS","2402051","2023-01-10 00:00","2023","01","10","00:00","-25.7","","-28.5","","77","","0.0","","25","","43","","","","101.79","","","","-42","","NA"
"-94.20","72.02","FORT ROSS","2402051","2023-01-10 01:00","2023","01","10","01:00","-25.8","","-28.7","","77","","0.0","","26","","39","","","","101.78","","","","-42","","NA"
"-94.20","72.02","FORT ROSS","2402051","2023-01-10 02:00","2023","01","10","02:00","-25.8","","-28.7","","76","","0.0","","25","","24","","","","101.83","","","","-39","","NA"
"-94.20","72.02","FORT ROSS","2402051","2023-01-10 03:00","2023","01","10","03:00","-24.7","","-27.5","","78","","0.0","","25","","25","","","","101.72","","","","-38","","NA"
"-94.20","72.02","FORT ROSS","2402051","2023-01-10 04:00","2023","01","10","04:00","-24.3","","-27.0","","78","","0.0","","25","","25","","","","101.68","","","","-37","","NA"
"-94.20","72.02","FORT ROSS","2402051","2023-01-10 05:00","2023","01","10","05:00","-24.7","","-27.5","","78","","0.2","","26","","28","","","","101.61","","","","-38","","NA"
"-94.20","72.02","FORT ROSS","2402051","2023-01-10 06:00","2023","01","10","06:00","-24.2","","-26.9","","78","","0.0","","25","","26","","","","101.53","","","","-37","","NA"
"-94.20","72.02","FORT ROSS","2402051","2023-01-10 07:00","2023","01","10","07:00","-23.5","","-26.1","","79","","0.0","","26","","17","","","","101.45","","","","-34","","NA"
"-94.20","72.02","FORT ROSS","2402051","2023-01-10 08:00","2023","01","10","08:00","-23.9","","-26.6","","78","","0.0","","18","","10","","","","101.41","","","","-32","","NA"
"-94.20","72.02","FORT ROSS","2402051","2023-01-10 09:00","2023","01","10","09:00","-24.0","","-26.6","","79","","0.0","","16","","10","","","","101.33","","","","-32","","NA"
"-94.20","72.02","FORT ROSS","2402051","2023-01-10 10:00","2023","01","10","10:00","-23.8","","-26.4","","79","","0.0","","","","0","","","","101.24","","","","","","NA"
"-94.20","72.02","FORT ROSS","2402051","2023-01-10 11:00","2023","01","10","11:00","-23.3","","-26.0","","79","","0.2","","36","","7","","","","101.15","","","","-29","","NA"
"-94.20","72.02","FORT ROSS","2402051","2023-01-10 12:00","2023","01","10","12:00","-22.8","","-25.4","","80","","0.2","","36","","7","","","","101.02","","","","-29","","NA"
"-94.20","72.02","FORT ROSS","2402051","2023-01-10 13:00","2023","01","10","13:00","-22.1","","-24.6","","80","","0.2","","36","","10","","","","100.90","","","","-30","","NA"
"-94.20","72.02","FORT ROSS","2402051","2023-01-10 14:00","2023","01","10","14:00","-21.8","","-24.3","","80","","0.5","","36","","12","","","","100.80","","","","-30","","NA"
"-94.20","72.02","FORT ROSS","2402051","2023-01-10 15:00","2023","01","10","15:00","-21.1","","-23.5","","81","","0.3","","1","","9","","","","100.70","","","","-28","","NA"
"-94.20","72.02","FORT ROSS","2402051","2023-01-10 16:00","2023","01","10","16:00","-20.7","","-23.1","","82","","0.5","","36","","10","","","","100.64","","","","-28","","NA"
"-94.20","72.02","FORT ROSS","2402051","2023-01-10 17:00","2023","01","10","17:00","-20.8","","-23.1","","81","","0.2","","34","","7","","","","100.57","","","","-27","","NA"
"-94.20","72.02","FORT ROSS","2402051","2023-01-10 18:00","2023","01","10","18:00","-19.5","","-21.8","","82","","0.0","","24","","6","","","","100.50","","","","-24","","NA"
"-94.20","72.02","FORT ROSS","2402051","2023-01-10 19:00","2023","01","10","19:00","-19.3","","-21.5","","83","","0.2","","24","","16","","","","100.42","","","","-29","","NA"
"-94.20","72.02","FORT ROSS","2402051","2023-01-10 20:00","2023","01","10","20:00","-19.8","","-22.0","","82","","0.0","","0","","1","","","","100.38","","","","-21","","NA"
"-94.20","72.02","FORT ROSS","2402051","2023-01-10 21:00","2023","01","10","21:00","-20.0","","-22.2","","82","","0.2","","22","","3","","","","100.32","","","","-23","","NA"
"-94.20","72.02","FORT ROSS","2402051","2023-01-10 22:00","2023","01","10","22:00","-20.2","","-22.5","","82","","0.0","","8","","3","","","","100.28","","","","-23","","NA"
"-94.20","72.02","FORT ROSS","2402051","2023-01-10 23:00","2023","01","10","23:00","-20.8","","-23.2","","81","","0.0","","3","","6","","","","100.25","","","","-26","","NA"
"-94.20","72.02","FORT ROSS","2402051","2023-01-11 00:00","2023","01","11","00:00","-21.5","","-23.9","","81","","0.0","","36","","15","","","","100.20","","","","-31","","NA"
"-94.20","72.02","FORT ROSS","2402051","2023-01-11 01:00","2023","01","11","01:00","-21.5","","-24.0","","81","","0.0","","36","","18","","","","100.17","","","","-32","","NA"
"-94.20","72.02","FORT ROSS","2402051","2023-01-11 02:00","2023","01","11","02:00","-22.3","","-24.8","","80","","0.0","","35","","15","","","","100.17","","","","-32","","NA"
"-94.20","72.02","FORT ROSS","2402051","2023-01-11 03:00","2023","01","11","03:00","-22.2","","-24.8","","79","","0.0","","36","","15","","","","100.17","","","","-32","","NA"
"-94.20","72.02","FORT ROSS","2402051","2023-01-11 04:00","2023","01","11","04:00","-21.6","","-24.2","","79","","0.0","","35","","18","","","","100.13","","","","-32","","NA"
"-94.20","72.02","FORT ROSS","2402051","2023-01-11 05:00","2023","01","11","05:00","-21.4","","-24.1","","79","","0.0","","35","","31","","","","100.12","","","","-35","","NA"
"-94.20","72.02","FORT ROSS","2402051","2023-01-11 06:00","2023","01","11","06:00","-22.6","","-25.2","","79","","0.0","","35","","42","","","","100.12","","","","-38","","NA"
"-94.20","72.02","FORT ROSS","2402051","2023-01-11 07:00","2023","01","11","07:00","-23.4","","-26.1","","79","","0.0","","35","","49","","","","100.14","","","","-40","","NA"
"-94.20","72.02","FORT ROSS","2402051","2023-01-11 08:00","2023","01","11","08:00","-24.1","","-26.8","","78","","0.0","","35","","48","","","","100.22","","","","-41","","NA"
"-94.20","72.02","FORT ROSS","2402051","2023-01-11 09:00","2023","01","11","09:00","-24.7","","-27.6","","77","","0.0","","35","","50","","","","100.26","","","","-42","","NA"
"-94.20","72.02","FORT ROSS","2402051","2023-01-11 10:00","2023","01","11","10:00","-25.7","","-28.9","","75","","0.0","","36","","48","","","","100.35","","","","-43","","NA"
"-94.20","72.02","FORT ROSS","2402051","2023-01-11 11:00","2023","01","11","11:00","-26.1","","-29.4","","73","","0.0","","35","","43","","","","100.43","","","","-43","","NA"
"-94.20","72.02","FORT ROSS","2402051","2023-01-11 12:00","2023","01","11","12:00","-25.9","","-29.7","","70","","0.0","","34","","34","","","","100.48","","","","-41","","NA"
"-94.20","72.02","FORT ROSS","2402051","2023-01-11 13:00","2023","01","11","13:00","-26.1","","-30.9","","64","","0.0","","33","","21","","","","100.55","","","","-38","","NA"
"-94.20","72.02","FORT ROSS","2402051","2023-01-11 14:00","2023","01","11","14:00","-25.5","","-31.0","","60","","0.0","","31","","27","","","","100.60","","","","-39","","NA"
"-94.20","72.02","FORT ROSS","2402051","2023-01-11 15:00","2023","01","11","15:00","-26.6","","-30.9","","67","","0.0","","23","","15","","","","100.68","","","","-37","","NA"
"-94.20","72.02","FORT ROSS","2402051","2023-01-11 16:00","2023","01","11","16:00","-26.8","","-30.7","","69","","0.0","","33","","31","","","","100.68","","","","-42","","NA"
"-94.20","72.02","FORT ROSS","2402051","2023-01-11 17:00","2023","01","11","17:00","-29.1","","-33.4","","66","","0.0","","30","","34","","","","100.73","","","","-45","","NA"
"-94.20","72.02","FORT ROSS","2402051","2023-01-11 18:00","2023","01","11","18:00","-29.7","","-33.5","","69","","0.0","","30","","43","","","","100.73","","","","-48","","NA"
"-94.20","72.02","FORT ROSS","2402051","2023-01-11 19:00","2023","01","11","19:00","-28.5","","-32.5","","69","","0.0","","30","","32","","","","100.78","","","","-44","","NA"
"-94.20","72.02","FORT ROSS","2402051","2023-01-11 20:00","2023","01","11","20:00","-30.5","","-34.3","","70","","0.0","","26","","46","","","","100.80","","","","-49","","NA"
"-94.20","72.02","FORT ROSS","2402051","2023-01-11 21:00","2023","01","11","21:00","-30.3","","-34.3","","69","","0.0","","27","","43","","","","100.84","","","","-48","","NA"
"-94.20","72.02","FORT ROSS","2402051","2023-01-11 22:00","2023","01","11","22:00","-29.9","","-33.6","","70","","0.0","","26","","33","","","","100.84","","","","-46","","NA"
"-94.20","72.02","FORT ROSS","2402051","2023-01-11 23:00","2023","01","11","23:00","-30.1","","-34.4","","66","","0.0","","27","","29","","","","100.86","","","","-46","","NA"
"-94.20","72.02","FORT ROSS","2402051","2023-01-12 00:00","2023","01","12","00:00","-30.0","","-34.1","","67","","0.0","","28","","40","","","","100.86","","","","-48","","NA"
"-94.20","72.02","FORT ROSS","2402051","2023-01-12 01:00","2023","01","12","01:00","-29.8","","-34.0","","67","","0.0","","27","","32","","","","100.92","","","","-46","","NA"
"-94.20","72.02","FORT ROSS","2402051","2023-01-12 02:00","2023","01","12","02:00","-28.9","","-32.7","","69","","0.0","","28","","36","","","","100.87","","","","-45","","NA"
"-94.20","72.02","FORT ROSS","2402051","2023-01-12 03:00","2023","01","12","03:00","-28.7","","-32.8","","68","","0.0","","29","","48","","","","100.82","","","","-47","","NA"
"-94.20","72.02","FORT ROSS","2402051","2023-01-12 04:00","2023","01","12","04:00","-29.4","","-33.2","","70","","0.0","","26","","42","","","","100.85","","","","-47","","NA"
"-94.20","72.02","FORT ROSS","2402051","2023-01-12 05:00","2023","01","12","05:00","-29.3","","-33.3","","69","","0.0","","27","","49","","","","100.85","","","","-48","","NA"
"-94.20","72.02","FORT ROSS","2402051","2023-01-12 06:00","2023","01","12","06:00","-29.8","","-33.7","","69","","0.2","","28","","46","","","","100.86","","","","-48","","NA"
"-94.20","72.02","FORT ROSS","2402051","2023-01-12 07:00","2023","01","12","07:00","-30.2","","-34.2","","68","","0.0","","26","","36","","","","100.83","","","","-47","","NA"
"-94.20","72.02","FORT ROSS","2402051","2023-01-12 08:00","2023","01","12","08:00","-29.3","","-33.0","","70","","0.0","","16","","9","","","","100.89","","","","-38","","NA"
"-94.20","72.02","FORT ROSS","2402051","2023-01-12 09:00","2023","01","12","09:00","-29.4","","-33.2","","70","","0.0","","28","","23","","","","100.77","","","","-43","","NA"
"-94.20","72.02","FORT ROSS","2402051","2023-01-12 10:00","2023","01","12","10:00","-29.5","","-33.2","","70","","0.0","","26","","39","","","","100.70","","","","-47","","NA"
"-94.20","72.02","FORT ROSS","2402051","2023-01-12 11:00","2023","01","12","11:00","-27.8","","-31.4","","72","","0.0","","27","","36","","","","100.66","","","","-44","","NA"
"-94.20","72.02","FORT ROSS","2402051","2023-01-12 12:00","2023","01","12","12:00","-26.9","","-30.5","","72","","0.0","","26","","26","","","","100.65","","","","-41","","NA"
"-94.20","72.02","FORT ROSS","2402051","2023-01-12 13:00","2023","01","12","13:00","-25.4","","-28.9","","72","","0.0","","27","","21","","","","100.62","","","","-38","","NA"
"-94.20","72.02","FORT ROSS","2402051","2023-01-12 14:00","2023","01","12","14:00","-25.4","","-29.1","","72","","0.0","","28","","21","","","","100.56","","","","-38","","NA"
"-94.20","72.02","FORT ROSS","2402051","2023-01-12 15:00","2023","01","12","15:00","-25.1","","-28.4","","74","","0.0","","27","","17","","","","100.49","","","","-36","","NA"
"-94.20","72.02","FORT ROSS","2402051","2023-01-12 16:00","2023","01","12","16:00","-25.3","","-29.0","","71","","0.0","","30","","24","","","","100.44","","","","-38","","NA"
"-94.20","72.02","FORT ROSS","2402051","2023-01-12 17:00","2023","01","12","17:00","-25.9","","-29.5","","72","","0.0","","28","","41","","","","100.34","","","","-42","","NA"
"-94.20","72.02","FORT ROSS","2402051","2023-01-12 18:00","2023","01","12","18:00","-26.6","","-30.3","","71","","0.0","","28","","35","","","","100.30","","","","-42","","NA"
"-94.20","72.02","FORT ROSS","2402051","2023-01-12 19:00","2023","01","12","19:00","-27.0","","-30.4","","73","","0.0","","27","","36","","","","100.28","","","","-43","","NA"
"-94.20","72.02","FORT ROSS","2402051","2023-01-12 20:00","2023","01","12","20:00","-27.5","","-31.4","","70","","0.0","","30","","25","","","","100.32","","","","-41","","NA"
"-94.20","72.02","FORT ROSS","2402051","2023-01-12 21:00","2023","01","12","21:00","-28.2","","-33.4","","61","","0.0","","29","","23","","","","100.30","","","","-42","","NA"
"-94.20","72.02","FORT ROSS","2402051","2023-01-12 22:00","2023","01","12","22:00","-28.9","","-33.9","","62","","0.0","","27","","15","","","","100.35","","","","-40","","NA"
"-94.20","72.02","FORT ROSS","2402051","2023-01-12 23:00","2023","01","12","23:00","-29.9","","-35.1","","61","","0.0","","30","","24","","","","100.34","","","","-44","","NA"
"-94.20","72.02","FORT ROSS","2402051","2023-01-13 00:00","2023","01","13","00:00","-30.7","","-36.2","","58","","0.0","","30","","22","","","","100.38","","","","-45","","NA"
"-94.20","72.02","FORT ROSS","2402051","2023-01-13 01:00","2023","01","13","01:00","-31.9","","-37.1","","60","","0.0","","28","","12","","","","100.42","","","","-42","","NA"
"-94.20","72.02","FORT ROSS","2402051","2023-01-13 02:00","2023","01","13","02:00","-31.6","","-36.1","","64","","0.0","","29","","41","","","","100.36","","","","-50","","NA"
"-94.20","72.02","FORT ROSS","2402051","2023-01-13 03:00","2023","01","13","03:00","-33.1","","-37.6","","64","","0.0","","26","","38","","","","100.39","","","","-51","","NA"
"-94.20","72.02","FORT ROSS","2402051","2023-01-13 04:00","2023","01","13","04:00","-32.9","","-37.6","","63","","0.0","","25","","24","","","","100.44","","","","-48","","NA"
"-94.20","72.02","FORT ROSS","2402051","2023-01-13 05:00","2023","01","13","05:00","-32.7","","-37.6","","61","","0.0","","29","","20","","","","100.46","","","","-47","","NA"
"-94.20","72.02","FORT ROSS","2402051","2023-01-13 06:00","2023","01","13","06:00","-33.4","","-38.3","","61","","0.0","","27","","18","","","","100.50","","","","-47","","NA"
"-94.20","72.02","FORT ROSS","2402051","2023-01-13 07:00","2023","01","13","07:00","-33.3","","-38.3","","60","","0.0","","28","","4","","","","100.52","","","","-38","","NA"
"-94.20","72.02","FORT ROSS","2402051","2023-01-13 08:00","2023","01","13","08:00","-32.7","","-38.0","","59","","0.0","","30","","16","","","","100.55","","","","-45","","NA"
"-94.20","72.02","FORT ROSS","2402051","2023-01-13 09:00","2023","01","13","09:00","-34.3","","-39.4","","60","","0.0","","26","","21","","","","100.57","","","","-49","","NA"
"-94.20","72.02","FORT ROSS","2402051","2023-01-13 10:00","2023","01","13","10:00","-33.4","","-38.3","","61","","0.0","","25","","17","","","","100.56","","","","-46","","NA"
"-94.20","72.02","FORT ROSS","2402051","2023-01-13 11:00","2023","01","13","11:00","-33.7","","-38.4","","62","","0.0","","26","","28","","","","100.59","","","","-50","","NA"
"-94.20","72.02","FORT ROSS","2402051","2023-01-13 12:00","2023","01","13","12:00","-33.6","","-38.4","","62","","0.0","","26","","25","","","","100.58","","","","-49","","NA"
"-94.20","72.02","FORT ROSS","2402051","2023-01-13 13:00","2023","01","13","13:00","-32.8","","-37.4","","64","","0.0","","26","","28","","","","100.62","","","","-49","","NA"
"-94.20","72.02","FORT ROSS","2402051","2023-01-13 14:00","2023","01","13","14:00","-32.4","","-37.0","","64","","0.0","","25","","36","","","","100.64","","","","-50","","NA"
"-94.20","72.02","FORT ROSS","2402051","2023-01-13 15:00","2023","01","13","15:00","-32.7","","-37.0","","65","","0.0","","26","","40","","","","100.65","","","","-51","","NA"
"-94.20","72.02","FORT ROSS","2402051","2023-01-13 16:00","2023","01","13","16:00","-32.6","","-36.6","","67","","0.0","","25","","40","","","","100.68","","","","-51","","NA"
"-94.20","72.02","FORT ROSS","2402051","2023-01-13 17:00","2023","01","13","17:00","-31.9","","-35.9","","68","","0.0","","27","","43","","","","100.69","","","","-51","","NA"
"-94.20","72.02","FORT ROSS","2402051","2023-01-13 18:00","2023","01","13","18:00","-32.3","","-36.3","","67","","0.0","","26","","48","","","","100.66","","","","-52","","NA"
"-94.20","72.02","FORT ROSS","2402051","2023-01-13 19:00","2023","01","13","19:00","-30.4","","-34.6","","67","","0.0","","27","","26","","","","100.67","","","","-45","","NA"
"-94.20","72.02","FORT ROSS","2402051","2023-01-13 20:00","2023","01","13","20:00","-30.4","","-34.2","","69","","0.0","","27","","42","","","","100.63","","","","-48","","NA"
"-94.20","72.02","FORT ROSS","2402051","2023-01-13 21:00","2023","01","13","21:00","-31.9","","-35.8","","68","","0.0","","26","","53","","","","100.60","","","","-52","","NA"
"-94.20","72.02","FORT ROSS","2402051","2023-01-13 22:00","2023","01","13","22:00","-30.8","","-34.5","","70","","0.0","","26","","60","","","","100.57","","","","-51","","NA"
"-94.20","72.02","FORT ROSS","2402051","2023-01-13 23:00","2023","01","13","23:00","-31.5","","-35.2","","70","","0.0","","24","","50","","","","100.65","","","","-51","","NA"
"-94.20","72.02","FORT ROSS","2402051","2023-01-14 00:00","2023","01","14","00:00","-31.6","","-35.2","","70","","0.0","","23","","34","","","","100.71","","","","-49","","NA"
"-94.20","72.02","FORT ROSS","2402051","2023-01-14 01:00","2023","01","14","01:00","-32.0","","-35.7","","70","","0.0","","24","","45","","","","100.71","","","","-51","","NA"
"-94.20","72.02","FORT ROSS","2402051","2023-01-14 02:00","2023","01","14","02:00","-32.0","","-35.6","","70","","0.0","","24","","44","","","","100.72","","","","-51","","NA"
"-94.20","72.02","FORT ROSS","2402051","2023-01-14 03:00","2023","01","14","03:00","-32.5","","-36.2","","70","","0.0","","25","","49","","","","100.72","","","","-52","","NA"
"-94.20","72.02","FORT ROSS","2402051","2023-01-14 04:00","2023","01","14","04:00","-29.8","","-33.2","","72","","0.0","","27","","49","","","","100.67","","","","-49","","NA"
"-94.20","72.02","FORT ROSS","2402051","2023-01-14 05:00","2023","01","14","05:00","-32.3","","-36.0","","70","","0.0","","25","","57","","","","100.69","","","","-53","","NA"
"-94.20","72.02","FORT ROSS","2402051","2023-01-14 06:00","2023","01","14","06:00","-32.5","","-36.2","","69","","0.0","","26","","51","","","","100.72","","","","-53","","NA"
"-94.20","72.02","FORT ROSS","2402051","2023-01-14 07:00","2023","01","14","07:00","-31.7","","-35.4","","70","","0.0","","26","","45","","","","100.73","","","","-51","","NA"
"-94.20","72.02","FORT ROSS","2402051","2023-01-14 08:00","2023","01","14","08:00","-32.9","","-36.7","","68","","0.0","","25","","42","","","","100.75","","","","-52","","NA"
"-94.20","72.02","FORT ROSS","2402051","2023-01-14 09:00","2023","01","14","09:00","-31.2","","-34.8","","70","","0.0","","27","","30","","","","100.77","","","","-47","","NA"
"-94.20","72.02","FORT ROSS","2402051","2023-01-14 10:00","2023","01","14","10:00","-32.5","","-36.2","","69","","0.0","","26","","42","","","","100.79","","","","-51","","NA"
"-94.20","72.02","FORT ROSS","2402051","2023-01-14 11:00","2023","01","14","11:00","-33.7","","-37.6","","68","","0.0","","26","","46","","","","100.76","","","","-53","","NA"
"-94.20","72.02","FORT ROSS","2402051","2023-01-14 12:00","2023","01","14","12:00","-34.1","","-37.9","","68","","0.0","","25","","45","","","","100.81","","","","-54","","NA"
"-94.20","72.02","FORT ROSS","2402051","2023-01-14 13:00","2023","01","14","13:00","-34.2","","-38.1","","67","","0.0","","26","","45","","","","100.81","","","","-54","","NA"
"-94.20","72.02","FORT ROSS","2402051","2023-01-14 14:00","2023","01","14","14:00","-33.7","","-37.6","","68","","0.0","","25","","44","","","","100.86","","","","-53","","NA"
"-94.20","72.02","FORT ROSS","2402051","2023-01-14 15:00","2023","01","14","15:00","-33.4","","-37.3","","68","","0.0","","25","","43","","","","100.90","","","","-53","","NA"
"-94.20","72.02","FORT ROSS","2402051","2023-01-14 16:00","2023","01","14","16:00","-32.9","","-36.8","","68","","0.0","","25","","41","","","","100.92","","","","-52","","NA"
"-94.20","72.02","FORT ROSS","2402051","2023-01-14 17:00","2023","01","14","17:00","-33.0","","-36.9","","68","","0.0","","25","","35","","","","100.95","","","","-51","","NA"
"-94.20","72.02","FORT ROSS","2402051","2023-01-14 18:00","2023","01","14","18:00","-32.9","","-36.8","","68","","0.0","","26","","36","","","","100.96","","","","-51","","NA"
"-94.20","72.02","FORT ROSS","2402051","2023-01-14 19:00","2023","01","14","19:00","-32.2","","-35.9","","70","","0.0","","25","","35","","","","100.98","","","","-50","","NA"
"-94.20","72.02","FORT ROSS","2402051","2023-01-14 20:00","2023","01","14","20:00","-33.1","","-37.0","","68","","0.0","","25","","32","","","","101.00","","","","-50","","NA"
"-94.20","72.02","FORT ROSS","2402051","2023-01-14 21:00","2023","01","14","21:00","-32.8","","-36.7","","68","","0.0","","25","","26","","","","101.06","","","","-48","","NA"
"-94.20","72.02","FORT ROSS","2402051","2023-01-14 22:00","2023","01","14","22:00","-32.5","","-36.5","","67","","0.0","","26","","32","","","","101.09","","","","-49","","NA"
"-94.20","72.02","FORT ROSS","2402051","2023-01-14 23:00","2023","01","14","23:00","-32.0","","-35.8","","69","","0.0","","25","","29","","","","101.14","","","","-48","","NA"
"-94.20","72.02","FORT ROSS","2402051","2023-01-15 00:00","2023","01","15","00:00","-32.8","","-36.9","","67","","0.0","","26","","30","","","","101.19","","","","-49","","NA"
"-94.20","72.02","FORT ROSS","2402051","2023-01-15 01:00","2023","01","15","01:00","-32.2","","-36.1","","68","","0.0","","26","","23","","","","101.26","","","","-47","","NA"
"-94.20","72.02","FORT ROSS","2402051","2023-01-15 02:00","2023","01","15","02:00","-32.1","","-35.9","","69","","0.0","","26","","20","","","","101.34","","","","-46","","NA"
"-94.20","72.02","FORT ROSS","2402051","2023-01-15 03:00","2023","01","15","03:00","-32.1","","-35.8","","70","","0.0","","26","","19","","","","101.40","","","","-45","","NA"
"-94.20","72.02","FORT ROSS","2402051","2023-01-15 04:00","2023","01","15","04:00","-31.8","","-35.4","","71","","0.0","","27","","12","","","","101.44","","","","-42","","NA"
"-94.20","72.02","FORT ROSS","2402051","2023-01-15 05:00","2023","01","15","05:00","-31.6","","-35.1","","71","","0.0","","26","","19","","","","101.47","","","","-45","","NA"
"-94.20","72.02","FORT ROSS","2402051","2023-01-15 06:00","2023","01","15","06:00","-31.5","","-35.1","","71","","0.0","","26","","15","","","","101.49","","","","-43","","NA"
"-94.20","72.02","FORT ROSS","2402051","2023-01-15 07:00","2023","01","15","07:00","-31.6","","-35.2","","70","","0.0","","28","","4","","","","101.52","","","","-36","","NA"
"-94.20","72.02","FORT ROSS","2402051","2023-01-15 08:00","2023","01","15","08:00","-31.4","","-35.0","","71","","0.0","","28","","3","","","","101.55","","","","-35","","NA"
"-94.20","72.02","FORT ROSS","2402051","2023-01-15 09:00","2023","01","15","09:00","-31.0","","-34.5","","71","","0.0","","26","","9","","","","101.61","","","","-40","","NA"
"-94.20","72.02","FORT ROSS","2402051","2023-01-15 10:00","2023","01","15","10:00","-30.7","","-34.2","","71","","0.0","","28","","3","","","","101.64","","","","-34","","NA"
"-94.20","72.02","FORT ROSS","2402051","2023-01-15 11:00","2023","01","15","11:00","-30.0","","-33.5","","72","","0.0","","26","","5","","","","101.67","","","","-36","","NA"
"-94.20","72.02","FORT ROSS","2402051","2023-01-15 12:00","2023","01","15","12:00","-31.1","","-34.8","","70","","0.0","","35","","7","","","","101.73","","","","-39","","NA"
"-94.20","72.02","FORT ROSS","2402051","2023-01-15 13:00","2023","01","15","13:00","-32.9","","-36.7","","68","","0.0","","36","","10","","","","101.78","","","","-43","","NA"
"-94.20","72.02","FORT ROSS","2402051","2023-01-15 14:00","2023","01","15","14:00","-33.1","","-37.0","","68","","0.0","","1","","10","","","","101.81","","","","-43","","NA"
"-94.20","72.02","FORT ROSS","2402051","2023-01-15 15:00","2023","01","15","15:00","-33.0","","-36.8","","69","","0.0","","1","","6","","","","101.86","","","","-40","","NA"
"-94.20","72.02","FORT ROSS","2402051","2023-01-15 16:00","2023","01","15","16:00","-33.6","","-37.4","","69","","0.0","","35","","11","","","","101.90","","","","-44","","NA"
"-94.20","72.02","FORT ROSS","2402051","2023-01-15 17:00","2023","01","15","17:00","-34.0","","-37.8","","69","","0.0","","35","","4","","","","101.93","","","","-39","","NA"
"-94.20","72.02","FORT ROSS","2402051","2023-01-15 18:00","2023","01","15","18:00","-33.4","","-37.2","","69","","0.0","","2","","2","","","","101.95","","","","-36","","NA"
"-94.20","72.02","FORT ROSS","2402051","2023-01-15 19:00","2023","01","15","19:00","-34.9","","-38.8","","68","","0.0","","0","","1","","","","101.96","","","","-36","","NA"
"-94.20","72.02","FORT ROSS","2402051","2023-01-15 20:00","2023","01","15","20:00","-34.3","","-38.1","","68","","0.0","","16","","3","","","","101.97","","","","-38","","NA"
"-94.20","72.02","FORT ROSS","2402051","2023-01-15 21:00","2023","01","15","21:00","-33.7","","-37.5","","68","","0.0","","24","","4","","","","101.98","","","","-39","","NA"
"-94.20","72.02","FORT ROSS","2402051","2023-01-15 22:00","2023","01","15","22:00","-34.2","","-38.0","","68","","0.0","","0","","1","","","","102.02","","","","-35","","NA"
"-94.20","72.02","FORT ROSS","2402051","2023-01-15 23:00","2023","01","15","23:00","-33.3","","-37.0","","69","","0.0","","20","","2","","","","102.08","","","","-36","","NA"
"-94.20","72.02","FORT ROSS","2402051","2023-01-16 00:00","2023","01","16","00:00","-33.1","","-36.7","","70","","0.0","","20","","5","","","","102.10","","","","-39","","NA"
"-94.20","72.02","FORT ROSS","2402051","2023-01-16 01:00","2023","01","16","01:00","-31.0","","-34.4","","72","","0.0","","23","","10","","","","102.14","","","","-40","","NA"
"-94.20","72.02","FORT ROSS","2402051","2023-01-16 02:00","2023","01","16","02:00","-31.7","","-35.2","","71","","0.0","","36","","2","","","","102.19","","","","-34","","NA"
"-94.20","72.02","FORT ROSS","2402051","2023-01-16 03:00","2023","01","16","03:00","-30.3","","-33.7","","72","","0.0","","24","","12","","","","102.20","","","","-41","","NA"
"-94.20","72.02","FORT ROSS","2402051","2023-01-16 04:00","2023","01","16","04:00","-30.9","","-34.4","","72","","0.0","","2","","2","","","","102.25","","","","-33","","NA"
"-94.20","72.02","FORT ROSS","2402051","2023-01-16 05:00","2023","01","16","05:00","-30.5","","-33.9","","72","","0.0","","29","","8","","","","102.27","","","","-39","","NA"
"-94.20","72.02","FORT ROSS","2402051","2023-01-16 06:00","2023","01","16","06:00","-32.4","","-36.0","","70","","0.0","","34","","3","","","","102.30","","","","-36","","NA"
"-94.20","72.02","FORT ROSS","2402051","2023-01-16 07:00","2023","01","16","07:00","-30.8","","-34.2","","72","","0.0","","23","","9","","","","102.31","","","","-40","","NA"
"-94.20","72.02","FORT ROSS","2402051","2023-01-16 08:00","2023","01","16","08:00","-31.3","","-34.9","","71","","0.0","","22","","13","","","","102.34","","","","-42","","NA"
"-94.20","72.02","FORT ROSS","2402051","2023-01-16 09:00","2023","01","16","09:00","-30.6","","-34.1","","72","","0.0","","21","","16","","","","102.34","","","","-43","","NA"
"-94.20","72.02","FORT ROSS","2402051","2023-01-16 10:00","2023","01","16","10:00","-30.0","","-33.3","","72","","0.0","","23","","10","","","","102.41","","","","-39","","NA"
"-94.20","72.02","FORT ROSS","2402051","2023-01-16 11:00","2023","01","16","11:00","-30.2","","-33.5","","72","","0.0","","15","","11","","","","102.46","","","","-40","","NA"
"-94.20","72.02","FORT ROSS","2402051","2023-01-16 12:00","2023","01","16","12:00","-29.0","","-32.3","","73","","0.0","","21","","8","","","","102.50","","","","-37","","NA"
"-94.20","72.02","FORT ROSS","2402051","2023-01-16 13:00","2023","01","16","13:00","-30.9","","-34.4","","71","","0.0","","17","","9","","","","102.55","","","","-40","","NA"
"-94.20","72.02","FORT ROSS","2402051","2023-01-16 14:00","2023","01","16","14:00","-30.7","","-34.1","","72","","0.0","","18","","10","","","","102.57","","","","-40","","NA"
"-94.20","72.02","FORT ROSS","2402051","2023-01-16 15:00","2023","01","16","15:00","-30.6","","-34.1","","72","","0.0","","16","","7","","","","102.62","","","","-38","","NA"
"-94.20","72.02","FORT ROSS","2402051","2023-01-16 16:00","2023","01","16","16:00","-30.4","","-33.9","","72","","0.0","","16","","6","","","","102.65","","","","-37","","NA"
"-94.20","72.02","FORT ROSS","2402051","2023-01-16 17:00","2023","01","16","17:00","-31.5","","-35.1","","70","","0.0","","16","","6","","","","102.69","","","","-38","","NA"
"-94.20","72.02","FORT ROSS","2402051","2023-01-16 18:00","2023","01","16","18:00","-32.7","","-36.4","","69","","0.0","","16","","5","","","","102.70","","","","-39","","NA"
"-94.20","72.02","FORT ROSS","2402051","2023-01-16 19:00","2023","01","16","19:00","-32.8","","-36.5","","69","","0.0","","17","","6","","","","102.70","","","","-40","","NA"
"-94.20","72.02","FORT ROSS","2402051","2023-01-16 20:00","2023","01","16","20:00","-32.1","","-35.7","","70","","0.0","","0","","1","","","","102.70","","","","-33","","NA"
"-94.20","72.02","FORT ROSS","2402051","2023-01-16 21:00","2023","01","16","21:00","-32.5","","-36.1","","70","","0.0","","36","","6","","","","102.72","","","","-39","","NA"
"-94.20","72.02","FORT ROSS","2402051","2023-01-16 22:00","2023","01","16","22:00","-33.6","","-37.3","","69","","0.0","","11","","8","","","","102.78","","","","-42","","NA"
"-94.20","72.02","FORT ROSS","2402051","2023-01-16 23:00","2023","01","16","23:00","-33.0","","-36.7","","69","","0.0","","21","","3","","","","102.78","","","","-37","","NA"
"-94.20","72.02","FORT ROSS","2402051","2023-01-17 00:00","2023","01","17","00:00","-32.8","","-36.5","","69","","0.0","","19","","5","","","","102.76","","","","-39","","NA"
"-94.20","72.02","FORT ROSS","2402051","2023-01-17 01:00","2023","01","17","01:00","-33.3","","-37.1","","69","","0.0","","16","","5","","","","102.79","","","","-39","","NA"
"-94.20","72.02","FORT ROSS","2402051","2023-01-17 02:00","2023","01","17","02:00","-33.4","","-37.1","","69","","0.0","","","","0","","","","102.80","","","","","","NA"
"-94.20","72.02","FORT ROSS","2402051","2023-01-17 03:00","2023","01","17","03:00","-33.9","","-37.8","","68","","0.0","","4","","2","","","","102.82","","","","-36","","NA"
"-94.20","72.02","FORT ROSS","2402051","2023-01-17 04:00","2023","01","17","04:00","-33.7","","-37.5","","68","","0.0","","27","","3","","","","102.82","","","","-37","","NA"
"-94.20","72.02","FORT ROSS","2402051","2023-01-17 05:00","2023","01","17","05:00"
"-94.20","72.02","FORT ROSS","2402051","2023-01-17 06:00","2023","01","17","06:00","-34.3","","-38.2","","68","","0.0","","1","","5","","","","102.79","","","","-41","","NA"
"-94.20","72.02","FORT ROSS","2402051","2023-01-17 07:00","2023","01","17","07:00","-34.7","","-38.6","","67","","0.0","","1","","7","","","","102.78","","","","-43","","NA"
"-94.20","72.02","FORT ROSS","2402051","2023-01-17 08:00","2023","01","17","08:00","-34.0","","-37.9","","68","","0.0","","36","","7","","","","102.79","","","","-42","","NA"
"-94.20","72.02","FORT ROSS","2402051","2023-01-17 09:00","2023","01","17","09:00","-33.7","","-37.6","","68","","0.0","","1","","7","","","","102.77","","","","-42","","NA"
"-94.20","72.02","FORT ROSS","2402051","2023-01-17 10:00","2023","01","17","10:00","-33.4","","-37.2","","69","","0.0","","2","","7","","","","102.74","","","","-41","","NA"
"-94.20","72.02","FORT ROSS","2402051","2023-01-17 11:00","2023","01","17","11:00","-33.5","","-37.3","","69","","0.0","","36","","6","","","","102.72","","","","-41","","NA"
"-94.20","72.02","FORT ROSS","2402051","2023-01-17 12:00","2023","01","17","12:00","-32.7","","-36.4","","69","","0.0","","1","","5","","","","102.73","","","","-39","","NA"
"-94.20","72.02","FORT ROSS","2402051","2023-01-17 13:00","2023","01","17","13:00","-32.2","","-35.8","","70","","0.0","","7","","4","","","","102.73","","","","-37","","NA"
"-94.20","72.02","FORT ROSS","2402051","2023-01-17 14:00","2023","01","17","14:00","-32.1","","-35.8","","70","","0.0","","8","","6","","","","102.74","","","","-39","","NA"
"-94.20","72.02","FORT ROSS","2402051","2023-01-17 15:00","2023","01","17","15:00","-32.3","","-36.0","","70","","0.0","","9","","7","","","","102.74","","","","-40","","NA"
"-94.20","72.02","FORT ROSS","2402051","2023-01-17 16:00","2023","01","17","16:00","-32.2","","-35.8","","70","","0.0","","8","","6","","","","102.72","","","","-39","","NA"
"-94.20","72.02","FORT ROSS","2402051","2023-01-17 17:00","2023","01","17","17:00","-32.3","","-36.0","","70","","0.0","","6","","8","","","","102.68","","","","-41","","NA"
"-94.20","72.02","FORT ROSS","2402051","2023-01-17 18:00","2023","01","17","18:00","-32.7","","-36.4","","70","","0.0","","9","","10","","","","102.67","","","","-42","","NA"
"-94.20","72.02","FORT ROSS","2402051","2023-01-17 19:00","2023","01","17","19:00","-32.9","","-36.6","","69","","0.0","","7","","6","","","","102.65","","","","-40","","NA"
"-94.20","72.02","FORT ROSS","2402051","2023-01-17 20:00","2023","01","17","20:00","-33.4","","-37.1","","69","","0.0","","6","","7","","","","102.61","","","","-41","","NA"
"-94.20","72.02","FORT ROSS","2402051","2023-01-17 21:00","2023","01","17","21:00","-33.5","","-37.3","","69","","0.0","","7","","7","","","","102.58","","","","-41","","NA"
"-94.20","72.02","FORT ROSS","2402051","2023-01-17 22:00","2023","01","17","22:00","-33.9","","-37.7","","68","","0.0","","6","","10","","","","102.57","","","","-44","","NA"
"-94.20","72.02","FORT ROSS","2402051","2023-01-17 23:00","2023","01","17","23:00","-33.6","","-37.4","","68","","0.0","","4","","8","","","","102.56","","","","-42","","NA"
"-94.20","72.02","FORT ROSS","2402051","2023-01-18 00:00","2023","01","18","00:00","-34.6","","-38.6","","67","","0.0","","3","","7","","","","102.54","","","","-43","","NA"
"-94.20","72.02","FORT ROSS","2402051","2023-01-18 01:00","2023","01","18","01:00","-34.5","","-38.4","","67","","0.0","","2","","8","","","","102.52","","","","-43","","NA"
"-94.20","72.02","FORT ROSS","2402051","2023-01-18 02:00","2023","01","18","02:00","-32.6","","-36.3","","70","","0.0","","4","","11","","","","102.50","","","","-43","","NA"
"-94.20","72.02","FORT ROSS","2402051","2023-01-18 03:00","2023","01","18","03:00","-32.4","","-36.1","","70","","0.0","","5","","15","","","","102.48","","","","-44","","NA"
"-94.20","72.02","FORT ROSS","2402051","2023-01-18 04:00","2023","01","18","04:00","-32.5","","-36.2","","70","","0.0","","5","","15","","","","102.43","","","","-44","","NA"
"-94.20","72.02","FORT ROSS","2402051","2023-01-18 05:00","2023","01","18","05:00","-32.4","","-36.1","","70","","0.0","","5","","15","","","","102.41","","","","-44","","NA"
"-94.20","72.02","FORT ROSS","2402051","2023-01-18 06:00","2023","01","18","06:00","-32.4","","-36.1","","70","","0.0","","5","","17","","","","102.41","","","","-45","","NA"
"-94.20","72.02","FORT ROSS","2402051","2023-01-18 07:00","2023","01","18","07:00","-32.4","","-36.1","","70","","0.0","","5","","17","","","","102.38","","","","-45","","NA"
"-94.20","72.02","FORT ROSS","2402051","2023-01-18 08:00","2023","01","18","08:00","-32.4","","-36.0","","70","","0.0","","3","","21","","","","102.35","","","","-46","","NA"
"-94.20","72.02","FORT ROSS","2402051","2023-01-18 09:00","2023","01","18","09:00","-32.8","","-36.5","","69","","0.0","","2","","20","","","","102.31","","","","-47","","NA"
"-94.20","72.02","FORT ROSS","2402051","2023-01-18 10:00","2023","01","18","10:00","-32.9","","-36.7","","69","","0.0","","2","","20","","","","102.30","","","","-47","","NA"
"-94.20","72.02","FORT ROSS","2402051","2023-01-18 11:00","2023","01","18","11:00","-33.1","","-36.9","","69","","0.0","","1","","23","","","","102.28","","","","-48","","NA"
"-94.20","72.02","FORT ROSS","2402051","2023-01-18 12:00","2023","01","18","12:00","-33.5","","-37.3","","69","","0.0","","36","","27","","","","102.26","","","","-49","","NA"
"-94.20","72.02","FORT ROSS","2402051","2023-01-18 13:00","2023","01","18","13:00","-33.8","","-37.6","","68","","0.0","","36","","27","","","","102.27","","","","-50","","NA"
"-94.20","72.02","FORT ROSS","2402051","2023-01-18 14:00","2023","01","18","14:00","-33.5","","-37.3","","69","","0.0","","36","","26","","","","102.28","","","","-49","","NA"
"-94.20","72.02","FORT ROSS","2402051","2023-01-18 15:00","2023","01","18","15:00","-33.1","","-36.9","","69","","0.0","","36","","23","","","","102.30","","","","-48","","NA"
"-94.20","72.02","FORT ROSS","2402051","2023-01-18 16:00","2023","01","18","16:00","-33.6","","-37.4","","68","","0.0","","1","","28","","","","102.29","","","","-50","","NA"
"-94.20","72.02","FORT ROSS","2402051","2023-01-18 17:00","2023","01","18","17:00","-33.5","","-37.3","","68","","0.0","","1","","25","","","","102.28","","","","-49","","NA"
"-94.20","72.02","FORT ROSS","2402051","2023-01-18 18:00","2023","01","18","18:00","-33.8","","-37.7","","68","","0.0","","1","","24","","","","102.27","","","","-49","","NA"
"-94.20","72.02","FORT ROSS","2402051","2023-01-18 19:00","2023","01","18","19:00","-33.8","","-37.7","","68","","0.0","","1","","25","","","","102.23","","","","-49","","NA"
"-94.20","72.02","FORT ROSS","2402051","2023-01-18 20:00","2023","01","18","20:00","-34.0","","-37.8","","68","","0.0","","1","","26","","","","102.20","","","","-50","","NA"
"-94.20","72.02","FORT ROSS","2402051","2023-01-18 21:00","2023","01","18","21:00","-33.5","","-37.3","","68","","0.0","","1","","24","","","","102.20","","","","-49","","NA"
"-94.20","72.02","FORT ROSS","2402051","2023-01-18 22:00","2023","01","18","22:00","-33.1","","-36.8","","69","","0.0","","1","","24","","","","102.18","","","","-48","","NA"
"-94.20","72.02","FORT ROSS","2402051","2023-01-18 23:00","2023","01","18","23:00","-33.0","","-36.8","","69","","0.0","","1","","24","","","","102.17","","","","-48","","NA"
"-94.20","72.02","FORT ROSS","2402051","2023-01-19 00:00","2023","01","19","00:00","-32.7","","-36.4","","69","","0.0","","1","","23","","","","102.15","","","","-47","","NA"
"-94.20","72.02","FORT ROSS","2402051","2023-01-19 01:00","2023","01","19","01:00","-33.1","","-36.9","","69","","0.0","","36","","21","","","","102.17","","","","-47","","NA"
"-94.20","72.02","FORT ROSS","2402051","2023-01-19 02:00","2023","01","19","02:00","-33.2","","-37.0","","69","","0.0","","1","","23","","","","102.15","","","","-48","","NA"
"-94.20","72.02","FORT ROSS","2402051","2023-01-19 03:00","2023","01","19","03:00","-33.0","","-36.8","","69","","0.0","","1","","25","","","","102.12","","","","-48","","NA"
"-94.20","72.02","FORT ROSS","2402051","2023-01-19 04:00","2023","01","19","04:00","-32.4","","-36.1","","69","","0.0","","1","","23","","","","102.12","","","","-47","","NA"
"-94.20","72.02","FORT ROSS","2402051","2023-01-19 05:00","2023","01","19","05:00","-32.8","","-36.5","","69","","0.0","","1","","21","","","","102.11","","","","-47","","NA"
"-94.20","72.02","FORT ROSS","2402051","2023-01-19 06:00","2023","01","19","06:00","-33.1","","-36.8","","69","","0.0","","1","","15","","","","102.09","","","","-45","","NA"
"-94.20","72.02","FORT ROSS","2402051","2023-01-19 07:00","2023","01","19","07:00","-33.4","","-37.2","","69","","0.0","","2","","18","","","","102.05","","","","-47","","NA"
"-94.20","72.02","FORT ROSS","2402051","2023-01-19 08:00","2023","01","19","08:00","-34.4","","-38.4","","67","","0.0","","1","","16","","","","102.00","","","","-47","","NA"
"-94.20","72.02","FORT ROSS","2402051","2023-01-19 09:00","2023","01","19","09:00","-34.0","","-37.9","","68","","0.0","","1","","16","","","","101.97","","","","-47","","NA"
"-94.20","72.02","FORT ROSS","2402051","2023-01-19 10:00","2023","01","19","10:00","-34.3","","-38.2","","68","","0.0","","1","","8","","","","101.94","","","","-43","","NA"
"-94.20","72.02","FORT ROSS","2402051","2023-01-19 11:00","2023","01","19","11:00","-34.9","","-38.9","","67","","0.0","","1","","10","","","","101.96","","","","-45","","NA"
"-94.20","72.02","FORT ROSS","2402051","2023-01-19 12:00","2023","01","19","12:00","-35.1","","-39.1","","67","","0.0","","36","","9","","","","101.93","","","","-45","","NA"
"-94.20","72.02","FORT ROSS","2402051","2023-01-19 13:00","2023","01","19","13:00","-34.7","","-38.6","","67","","0.0","","36","","7","","","","101.90","","","","-43","","NA"
"-94.20","72.02","FORT ROSS","2402051","2023-01-19 14:00","2023","01","19","14:00","-34.6","","-38.6","","67","","0.0","","1","","11","","","","101.85","","","","-45","","NA"
"-94.20","72.02","FORT ROSS","2402051","2023-01-19 15:00","2023","01","19","15:00","-33.7","","-37.6","","68","","0.0","","1","","6","","","","101.88","","","","-41","","NA"
"-94.20","72.02","FORT ROSS","2402051","2023-01-19 16:00","2023","01","19","16:00","-34.8","","-38.8","","67","","0.0","","1","","7","","","","101.86","","","","-43","","NA"
"-94.20","72.02","FORT ROSS","2402051","2023-01-19 17:00","2023","01","19","17:00","-35.7","","-39.8","","66","","0.0","","1","","9","","","","101.78","","","","-45","","NA"
"-94.20","72.02","FORT ROSS","2402051","2023-01-19 18:00","2023","01","19","18:00","-35.0","","-39.0","","67","","0.0","","36","","9","","","","101.74","","","","-45","","NA"
"-94.20","72.02","FORT ROSS","2402051","2023-01-19 19:00","2023","01","19","19:00","-34.0","","-37.9","","68","","0.0","","1","","6","","","","101.72","","","","-41","","NA"
"-94.20","72.02","FORT ROSS","2402051","2023-01-19 20:00","2023","01","19","20:00","-34.7","","-38.6","","67","","0.0","","36","","8","","","","101.66","","","","-43","","NA"
"-94.20","72.02","FORT ROSS","2402051","2023-01-19 21:00","2023","01","19","21:00","-34.5","","-38.5","","67","","0.0","","36","","15","","","","101.59","","","","-47","","NA"
"-94.20","72.02","FORT ROSS","2402051","2023-01-19 22:00","2023","01","19","22:00","-33.6","","-37.5","","68","","0.0","","1","","11","","","","101.53","","","","-44","","NA"
"-94.20","72.02","FORT ROSS","2402051","2023-01-19 23:00","2023","01","19","23:00","-33.2","","-37.0","","69","","0.0","","1","","8","","","","101.50","","","","-42","","NA"
"-94.20","72.02","FORT ROSS","2402051","2023-01-20 00:00","2023","01","20","00:00","-34.4","","-38.4","","67","","0.0","","1","","11","","","","101.44","","","","-45","","NA"
"-94.20","72.02","FORT ROSS","2402051","2023-01-20 01:00","2023","01","20","01:00","-33.3","","-37.1","","69","","0.0","","1","","10","","","","101.44","","","","-43","","NA"
"-94.20","72.02","FORT ROSS","2402051","2023-01-20 02:00","2023","01","20","02:00","-33.9","","-37.8","","68","","0.0","","3","","10","","","","101.40","","","","-44","","NA"
"-94.20","72.02","FORT ROSS","2402051","2023-01-20 03:00","2023","01","20","03:00","-33.3","","-37.1","","69","","0.0","","3","","13","","","","101.36","","","","-45","","NA"
"-94.20","72.02","FORT ROSS","2402051","2023-01-20 04:00","2023","01","20","04:00","-33.2","","-37.0","","69","","0.0","","4","","10","","","","101.31","","","","-43","","NA"
"-94.20","72.02","FORT ROSS","2402051","2023-01-20 05:00","2023","01","20","05:00","-32.5","","-36.3","","69","","0.0","","4","","15","","","","101.22","","","","-44","","NA"
"-94.20","72.02","FORT ROSS","2402051","2023-01-20 06:00","2023","01","20","06:00","-32.4","","-36.1","","70","","0.0","","3","","14","","","","101.15","","","","-44","","NA"
"-94.20","72.02","FORT ROSS","2402051","2023-01-20 07:00","2023","01","20","07:00","-32.0","","-35.6","","70","","0.0","","3","","15","","","","101.09","","","","-44","","NA"
"-94.20","72.02","FORT ROSS","2402051","2023-01-20 08:00","2023","01","20","08:00","-31.8","","-35.5","","70","","0.0","","4","","16","","","","101.02","","","","-44","","NA"
"-94.20","72.02","FORT ROSS","2402051","2023-01-20 09:00","2023","01","20","09:00","-32.0","","-35.6","","70","","0.0","","4","","16","","","","100.98","","","","-44","","NA"
"-94.20","72.02","FORT ROSS","2402051","2023-01-20 10:00","2023","01","20","10:00","-31.7","","-35.4","","70","","0.0","","2","","14","","","","100.94","","","","-43","","NA"
"-94.20","72.02","FORT ROSS","2402051","2023-01-20 11:00","2023","01","20","11:00","-31.1","","-34.7","","71","","0.0","","2","","17","","","","100.89","","","","-44","","NA"
"-94.20","72.02","FORT ROSS","2402051","2023-01-20 12:00","2023","01","20","12:00","-30.7","","-34.2","","71","","0.0","","1","","16","","","","100.85","","","","-43","","NA"
"-94.20","72.02","FORT ROSS","2402051","2023-01-20 13:00","2023","01","20","13:00","-30.5","","-33.9","","72","","0.0","","1","","18","","","","100.82","","","","-43","","NA"
"-94.20","72.02","FORT ROSS","2402051","2023-01-20 14:00","2023","01","20","14:00","-30.4","","-33.9","","72","","0.0","","2","","19","","","","100.79","","","","-43","","NA"
"-94.20","72.02","FORT ROSS","2402051","2023-01-20 15:00","2023","01","20","15:00","-30.4","","-33.8","","72","","0.0","","2","","17","","","","100.76","","","","-43","","NA"
"-94.20","72.02","FORT ROSS","2402051","2023-01-20 16:00","2023","01","20","16:00","-30.6","","-34.1","","72","","0.0","","1","","16","","","","100.73","","","","-43","","NA"
"-94.20","72.02","FORT ROSS","2402051","2023-01-20 17:00","2023","01","20","17:00","-30.8","","-34.3","","71","","0.0","","1","","14","","","","100.67","","","","-42","","NA"
"-94.20","72.02","FORT ROSS","2402051","2023-01-20 18:00","2023","01","20","18:00","-29.9","","-33.2","","72","","0.0","","1","","14","","","","100.64","","","","-41","","NA"
"-94.20","72.02","FORT ROSS","2402051","2023-01-20 19:00","2023","01","20","19:00","-31.8","","-35.4","","70","","0.0","","36","","10","","","","100.62","","","","-41","","NA"
"-94.20","72.02","FORT ROSS","2402051","2023-01-20 20:00","2023","01","20","20:00","-32.0","","-35.6","","70","","0.0","","1","","13","","","","100.57","","","","-43","","NA"
"-94.20","72.02","FORT ROSS","2402051","2023-01-20 21:00","2023","01","20","21:00","-31.1","","-34.7","","71","","0.0","","36","","11","","","","100.57","","","","-41","","NA"
"-94.20","72.02","FORT ROSS","2402051","2023-01-20 22:00","2023","01","20","22:00","-31.0","","-34.5","","71","","0.0","","3","","9","","","","100.53","","","","-40","","NA"
"-94.20","72.02","FORT ROSS","2402051","2023-01-20 23:00","2023","01","20","23:00","-31.7","","-35.3","","71","","0.0","","24","","2","","","","100.52","","","","-34","","NA"
"-94.20","72.02","FORT ROSS","2402051","2023-01-21 00:00","2023","01","21","00:00","-31.7","","-35.3","","70","","0.0","","18","","3","","","","100.49","","","","-35","","NA"
"-94.20","72.02","FORT ROSS","2402051","2023-01-21 01:00","2023","01","21","01:00","-31.8","","-35.4","","71","","0.0","","36","","5","","","","100.48","","","","-38","","NA"
"-94.20","72.02","FORT ROSS","2402051","2023-01-21 02:00","2023","01","21","02:00","-32.3","","-36.0","","69","","0.0","","","","0","","","","100.46","","","","","","NA"
"-94.20","72.02","FORT ROSS","2402051","2023-01-21 03:00","2023","01","21","03:00","-32.4","","-36.1","","70","","0.0","","21","","2","","","","100.44","","","","-35","","NA"
"-94.20","72.02","FORT ROSS","2402051","2023-01-21 04:00","2023","01","21","04:00","-31.7","","-35.3","","70","","0.0","","19","","3","","","","100.43","","","","-35","","NA"
"-94.20","72.02","FORT ROSS","2402051","2023-01-21 05:00","2023","01","21","05:00","-31.3","","-34.8","","71","","0.0","","30","","1","","","","100.37","","","","-32","","NA"
"-94.20","72.02","FORT ROSS","2402051","2023-01-21 06:00","2023","01","21","06:00","-29.3","","-32.6","","73","","0.0","","30","","5","","","","100.30","","","","-35","","NA"
"-94.20","72.02","FORT ROSS","2402051","2023-01-21 07:00","2023","01","21","07:00","-30.5","","-34.0","","72","","0.0","","36","","6","","","","100.27","","","","-37","","NA"
"-94.20","72.02","FORT ROSS","2402051","2023-01-21 08:00","2023","01","21","08:00","-28.1","","-31.3","","74","","0.0","","26","","19","","","","100.21","","","","-40","","NA"
"-94.20","72.02","FORT ROSS","2402051","2023-01-21 09:00","2023","01","21","09:00","-30.8","","-34.3","","72","","0.0","","32","","2","","","","100.23","","","","-33","","NA"
"-94.20","72.02","FORT ROSS","2402051","2023-01-21 10:00","2023","01","21","10:00","-31.4","","-35.0","","70","","0.0","","31","","1","","","","100.24","","","","-33","","NA"
"-94.20","72.02","FORT ROSS","2402051","2023-01-21 11:00","2023","01","21","11:00","-31.3","","-34.9","","71","","0.0","","33","","1","","","","100.23","","","","-32","","NA"
"-94.20","72.02","FORT ROSS","2402051","2023-01-21 12:00","2023","01","21","12:00","-33.5","","-37.3","","68","","0.0","","36","","4","","","","100.33","","","","-38","","NA"
"-94.20","72.02","FORT ROSS","2402051","2023-01-21 13:00","2023","01","21","13:00","-33.4","","-37.2","","68","","0.0","","20","","4","","","","100.40","","","","-38","","NA"
"-94.20","72.02","FORT ROSS","2402051","2023-01-21 14:00","2023","01","21","14:00","-34.0","","-38.0","","67","","0.0","","6","","4","","","","100.49","","","","-39","","NA"
"-94.20","72.02","FORT ROSS","2402051","2023-01-21 15:00","2023","01","21","15:00","-34.4","","-38.3","","68","","0.0","","25","","1","","","","100.50","","","","-36","","NA"
"-94.20","72.02","FORT ROSS","2402051","2023-01-21 16:00","2023","01","21","16:00","-33.7","","-37.6","","68","","0.0","","13","","2","","","","100.51","","","","-36","","NA"
"-94.20","72.02","FORT ROSS","2402051","2023-01-21 17:00","2023","01","21","17:00","-34.8","","-38.7","","67","","0.0","","","","0","","","","100.53","","","","","","NA"
"-94.20","72.02","FORT ROSS","2402051","2023-01-21 18:00","2023","01","21","18:00","-35.5","","-39.5","","66","","0.0","","35","","4","","","","100.54","","","","-41","","NA"
"-94.20","72.02","FORT ROSS","2402051","2023-01-21 19:00","2023","01","21","19:00","-35.1","","-39.1","","67","","0.0","","32","","3","","","","100.53","","","","-39","","NA"
"-94.20","72.02","FORT ROSS","2402051","2023-01-21 20:00","2023","01","21","20:00","-34.7","","-38.7","","67","","0.0","","33","","2","","","","100.53","","","","-37","","NA"
"-94.20","72.02","FORT ROSS","2402051","2023-01-21 21:00","2023","01","21","21:00","-34.7","","-38.7","","67","","0.0","","31","","5","","","","100.55","","","","-41","","NA"
"-94.20","72.02","FORT ROSS","2402051","2023-01-21 22:00","2023","01","21","22:00","-33.4","","-37.2","","69","","0.0","","26","","12","","","","100.52","","","","-44","","NA"
"-94.20","72.02","FORT ROSS","2402051","2023-01-21 23:00","2023","01","21","23:00","-34.6","","-38.5","","67","","0.0","","33","","2","","","","100.55","","","","-37","","NA"
"-94.20","72.02","FORT ROSS","2402051","2023-01-22 00:00","2023","01","22","00:00","-33.7","","-37.5","","69","","0.0","","27","","14","","","","100.53","","","","-46","","NA"
"-94.20","72.02","FORT ROSS","2402051","2023-01-22 01:00","2023","01","22","01:00","-34.2","","-38.1","","68","","0.0","","26","","22","","","","100.51","","","","-49","","NA"
"-94.20","72.02","FORT ROSS","2402051","2023-01-22 02:00","2023","01","22","02:00","-33.6","","-37.5","","68","","0.0","","28","","22","","","","100.54","","","","-48","","NA"
"-94.20","72.02","FORT ROSS","2402051","2023-01-22 03:00","2023","01","22","03:00","-34.5","","-38.4","","68","","0.0","","27","","19","","","","100.59","","","","-48","","NA"
"-94.20","72.02","FORT ROSS","2402051","2023-01-22 04:00","2023","01","22","04:00","-34.2","","-38.1","","68","","0.0","","28","","7","","","","100.64","","","","-42","","NA"
"-94.20","72.02","FORT ROSS","2402051","2023-01-22 05:00","2023","01","22","05:00","-35.0","","-39.1","","67","","0.0","","31","","21","","","","100.59","","","","-50","","NA"
"-94.20","72.02","FORT ROSS","2402051","2023-01-22 06:00","2023","01","22","06:00","-34.8","","-38.8","","67","","0.0","","28","","15","","","","100.62","","","","-47","","NA"
"-94.20","72.02","FORT ROSS","2402051","2023-01-22 07:00","2023","01","22","07:00","-33.8","","-37.6","","68","","0.0","","34","","26","","","","100.63","","","","-50","","NA"
"-94.20","72.02","FORT ROSS","2402051","2023-01-22 08:00","2023","01","22","08:00","-33.7","","-37.5","","68","","0.0","","35","","19","","","","100.62","","","","-47","","NA"
"-94.20","72.02","FORT ROSS","2402051","2023-01-22 09:00","2023","01","22","09:00","-33.7","","-37.6","","68","","0.0","","36","","15","","","","100.63","","","","-46","","NA"
"-94.20","72.02","FORT ROSS","2402051","2023-01-22 10:00","2023","01","22","10:00","-33.9","","-37.7","","68","","0.0","","0","","1","","","","100.64","","","","-35","","NA"
"-94.20","72.02","FORT ROSS","2402051","2023-01-22 11:00","2023","01","22","11:00","-34.6","","-38.5","","67","","0.0","","21","","3","","","","100.65","","","","-38","","NA"
"-94.20","72.02","FORT ROSS","2402051","2023-01-22 12:00","2023","01","22","12:00","-35.0","","-39.0","","67","","0.0","","30","","2","","","","100.66","","","","-38","","NA"
"-94.20","72.02","FORT ROSS","2402051","2023-01-22 13:00","2023","01","22","13:00","-34.3","","-38.2","","68","","0.0","","30","","4","","","","100.67","","","","-39","","NA"
"-94.20","72.02","FORT ROSS","2402051","2023-01-22 14:00","2023","01","22","14:00","-34.5","","-38.5","","67","","0.0","","36","","7","","","","100.72","","","","-43","","NA"
"-94.20","72.02","FORT ROSS","2402051","2023-01-22 15:00","2023","01","22","15:00","-34.3","","-38.1","","68","","0.0","","33","","5","","","","100.74","","","","-41","","NA"
"-94.20","72.02","FORT ROSS","2402051","2023-01-22 16:00","2023","01","22","16:00","-35.0","","-39.0","","67","","0.0","","3","","10","","","","100.77","","","","-45","","NA"
"-94.20","72.02","FORT ROSS","2402051","2023-01-22 17:00","2023","01","22","17:00","-35.3","","-39.4","","66","","0.0","","36","","11","","","","100.75","","","","-46","","NA"
"-94.20","72.02","FORT ROSS","2402051","2023-01-22 18:00","2023","01","22","18:00","-35.0","","-39.0","","67","","0.0","","31","","6","","","","100.77","","","","-42","","NA"
"-94.20","72.02","FORT ROSS","2402051","2023-01-22 19:00","2023","01","22","19:00","-34.4","","-38.3","","67","","0.0","","36","","17","","","","100.73","","","","-48","","NA"
"-94.20","72.02","FORT ROSS","2402051","2023-01-22 20:00","2023","01","22","20:00","-33.4","","-37.3","","68","","0.0","","36","","16","","","","100.76","","","","-46","","NA"
"-94.20","72.02","FORT ROSS","2402051","2023-01-22 21:00","2023","01","22","21:00","-32.0","","-35.6","","70","","0.0","","36","","17","","","","100.77","","","","-45","","NA"
"-94.20","72.02","FORT ROSS","2402051","2023-01-22 22:00","2023","01","22","22:00","-31.5","","-35.0","","71","","0.0","","31","","2","","","","100.76","","","","-34","","NA"
"-94.20","72.02","FORT ROSS","2402051","2023-01-22 23:00","2023","01","22","23:00","-32.7","","-36.4","","70","","0.0","","25","","3","","","","100.78","","","","-36","","NA"
"-94.20","72.02","FORT ROSS","2402051","2023-01-23 00:00","2023","01","23","00:00","-32.8","","-36.6","","69","","0.0","","19","","2","","","","100.79","","","","-35","","NA"
"-94.20","72.02","FORT ROSS","2402051","2023-01-23 01:00","2023","01","23","01:00","-30.5","","-34.0","","71","","0.0","","28","","12","","","","100.80","","","","-41","","NA"
"-94.20","72.02","FORT ROSS","2402051","2023-01-23 02:00","2023","01","23","02:00","-31.5","","-35.1","","70","","0.0","","25","","19","","","","100.77","","","","-45","","NA"
"-94.20","72.02","FORT ROSS","2402051","2023-01-23 03:00","2023","01","23","03:00","-30.8","","-34.3","","71","","0.0","","26","","21","","","","100.73","","","","-44","","NA"
"-94.20","72.02","FORT ROSS","2402051","2023-01-23 04:00","2023","01","23","04:00","-31.4","","-35.0","","70","","0.0","","25","","25","","","","100.69","","","","-46","","NA"
"-94.20","72.02","FORT ROSS","2402051","2023-01-23 05:00","2023","01","23","05:00","-31.9","","-35.5","","70","","0.0","","24","","26","","","","100.66","","","","-47","","NA"
"-94.20","72.02","FORT ROSS","2402051","2023-01-23 06:00","2023","01","23","06:00","-29.8","","-33.2","","72","","0.0","","27","","31","","","","100.62","","","","-46","","NA"
"-94.20","72.02","FORT ROSS","2402051","2023-01-23 07:00","2023","01","23","07:00","-32.1","","-35.7","","70","","0.0","","25","","42","","","","100.58","","","","-51","","NA"
"-94.20","72.02","FORT ROSS","2402051","2023-01-23 08:00","2023","01","23","08:00","-32.9","","-36.7","","68","","0.0","","22","","35","","","","100.60","","","","-50","","NA"
"-94.20","72.02","FORT ROSS","2402051","2023-01-23 09:00","2023","01","23","09:00","-32.4","","-36.2","","69","","0.0","","25","","41","","","","100.52","","","","-51","","NA"
"-94.20","72.02","FORT ROSS","2402051","2023-01-23 10:00","2023","01","23","10:00","-32.0","","-35.6","","70","","0.0","","26","","33","","","","100.54","","","","-49","","NA"
"-94.20","72.02","FORT ROSS","2402051","2023-01-23 11:00","2023","01","23","11:00","-32.9","","-36.6","","69","","0.0","","25","","37","","","","100.50","","","","-51","","NA"
"-94.20","72.02","FORT ROSS","2402051","2023-01-23 12:00","2023","01","23","12:00","-33.2","","-37.0","","69","","0.0","","26","","44","","","","100.47","","","","-52","","NA"
"-94.20","72.02","FORT ROSS","2402051","2023-01-23 13:00","2023","01","23","13:00","-33.2","","-37.0","","69","","0.0","","25","","39","","","","100.48","","","","-52","","NA"
"-94.20","72.02","FORT ROSS","2402051","2023-01-23 14:00","2023","01","23","14:00","-32.7","","-36.4","","69","","0.0","","26","","37","","","","100.48","","","","-51","","NA"
"-94.20","72.02","FORT ROSS","2402051","2023-01-23 15:00","2023","01","23","15:00","-32.2","","-35.9","","70","","0.0","","26","","31","","","","100.48","","","","-49","","NA"
"-94.20","72.02","FORT ROSS","2402051","2023-01-23 16:00","2023","01","23","16:00","-31.6","","-35.2","","70","","0.0","","27","","32","","","","100.47","","","","-48","","NA"
"-94.20","72.02","FORT ROSS","2402051","2023-01-23 17:00","2023","01","23","17:00","-30.8","","-34.3","","71","","0.0","","26","","31","","","","100.43","","","","-47","","NA"
"-94.20","72.02","FORT ROSS","2402051","2023-01-23 18:00","2023","01","23","18:00","-30.1","","-33.5","","72","","0.0","","26","","31","","","","100.35","","","","-46","","NA"
"-94.20","72.02","FORT ROSS","2402051","2023-01-23 19:00","2023","01","23","19:00","-29.4","","-32.8","","73","","0.0","","27","","18","","","","100.30","","","","-42","","NA"
"-94.20","72.02","FORT ROSS","2402051","2023-01-23 20:00","2023","01","23","20:00","-28.7","","-32.0","","73","","0.0","","27","","18","","","","100.28","","","","-41","","NA"
"-94.20","72.02","FORT ROSS","2402051","2023-01-23 21:00","2023","01","23","21:00","-28.7","","-32.0","","73","","0.0","","26","","11","","","","100.26","","","","-38","","NA"
"-94.20","72.02","FORT ROSS","2402051","2023-01-23 22:00","2023","01","23","22:00","-28.5","","-31.8","","74","","0.0","","3","","9","","","","100.25","","","","-37","","NA"
"-94.20","72.02","FORT ROSS","2402051","2023-01-23 23:00","2023","01","23","23:00","-29.8","","-33.2","","72","","0.0","","35","","16","","","","100.24","","","","-42","","NA"
"-94.20","72.02","FORT ROSS","2402051","2023-01-24 00:00","2023","01","24","00:00","-31.1","","-34.8","","70","","0.0","","35","","25","","","","100.29","","","","-46","","NA"
"-94.20","72.02","FORT ROSS","2402051","2023-01-24 01:00","2023","01","24","01:00","-32.2","","-35.9","","70","","0.0","","1","","31","","","","100.32","","","","-49","","NA"
"-94.20","72.02","FORT ROSS","2402051","2023-01-24 02:00","2023","01","24","02:00","-31.9","","-35.6","","70","","0.0","","36","","31","","","","100.38","","","","-48","","NA"
"-94.20","72.02","FORT ROSS","2402051","2023-01-24 03:00","2023","01","24","03:00","-33.3","","-37.1","","69","","0.0","","1","","36","","","","100.40","","","","-51","","NA"
"-94.20","72.02","FORT ROSS","2402051","2023-01-24 04:00","2023","01","24","04:00","-33.8","","-37.7","","68","","0.0","","1","","31","","","","100.47","","","","-51","","NA"
"-94.20","72.02","FORT ROSS","2402051","2023-01-24 05:00","2023","01","24","05:00","-33.2","","-37.1","","68","","0.0","","36","","33","","","","100.52","","","","-50","","NA"
"-94.20","72.02","FORT ROSS","2402051","2023-01-24 06:00","2023","01","24","06:00","-33.9","","-37.8","","68","","0.0","","36","","40","","","","100.51","","","","-53","","NA"
"-94.20","72.02","FORT ROSS","2402051","2023-01-24 07:00","2023","01","24","07:00","-34.7","","-38.6","","67","","0.0","","35","","24","","","","100.63","","","","-50","","NA"
"-94.20","72.02","FORT ROSS","2402051","2023-01-24 08:00","2023","01","24","08:00","-34.2","","-38.1","","67","","0.0","","36","","30","","","","100.70","","","","-51","","NA"
"-94.20","72.02","FORT ROSS","2402051","2023-01-24 09:00","2023","01","24","09:00","-34.5","","-38.5","","67","","0.0","","34","","16","","","","100.76","","","","-47","","NA"
"-94.20","72.02","FORT ROSS","2402051","2023-01-24 10:00","2023","01","24","10:00","-34.1","","-38.1","","67","","0.0","","36","","20","","","","100.81","","","","-48","","NA"
"-94.20","72.02","FORT ROSS","2402051","2023-01-24 11:00","2023","01","24","11:00","-34.6","","-38.8","","66","","0.0","","36","","15","","","","100.83","","","","-47","","NA"
"-94.20","72.02","FORT ROSS","2402051","2023-01-24 12:00","2023","01","24","12:00","-33.1","","-37.3","","66","","0.0","","35","","25","","","","100.84","","","","-48","","NA"
"-94.20","72.02","FORT ROSS","2402051","2023-01-24 13:00","2023","01","24","13:00","-32.1","","-36.0","","68","","0.0","","35","","23","","","","100.90","","","","-47","","NA"
"-94.20","72.02","FORT ROSS","2402051","2023-01-24 14:00","2023","01","24","14:00","-32.9","","-37.0","","66","","0.0","","1","","16","","","","100.94","","","","-45","","NA"
"-94.20","72.02","FORT ROSS","2402051","2023-01-24 15:00","2023","01","24","15:00","-32.1","","-36.1","","67","","0.0","","36","","22","","","","101.00","","","","-46","","NA"
"-94.20","72.02","FORT ROSS","2402051","2023-01-24 16:00","2023","01","24","16:00","-32.9","","-37.1","","66","","0.0","","36","","21","","","","101.04","","","","-47","","NA"
"-94.20","72.02","FORT ROSS","2402051","2023-01-24 17:00","2023","01","24","17:00","-30.9","","-35.1","","66","","0.0","","1","","20","","","","101.03","","","","-44","","NA"
"-94.20","72.02","FORT ROSS","2402051","2023-01-24 18:00","2023","01","24","18:00","-28.9","","-33.4","","65","","0.0","","34","","18","","","","101.05","","","","-41","","NA"
"-94.20","72.02","FORT ROSS","2402051","2023-01-24 19:00","2023","01","24","19:00","-29.5","","-33.7","","67","","0.0","","36","","23","","","","101.06","","","","-43","","NA"
"-94.20","72.02","FORT ROSS","2402051","2023-01-24 20:00","2023","01","24","20:00","-29.3","","-33.3","","68","","0.0","","36","","27","","","","101.07","","","","-44","","NA"
"-94.20","72.02","FORT ROSS","2402051","2023-01-24 21:00","2023","01","24","21:00","-30.0","","-33.9","","68","","0.0","","35","","27","","","","101.11","","","","-45","","NA"
"-94.20","72.02","FORT ROSS","2402051","2023-01-24 22:00","2023","01","24","22:00","-31.3","","-35.4","","67","","0.0","","36","","29","","","","101.11","","","","-47","","NA"
"-94.20","72.02","FORT ROSS","2402051","2023-01-24 23:00","2023","01","24","23:00","-31.0","","-35.3","","66","","0.0","","36","","24","","","","101.15","","","","-45","","NA"
"-94.20","72.02","FORT ROSS","2402051","2023-01-25 00:00","2023","01","25","00:00","-30.9","","-35.2","","66","","0.0","","36","","25","","","","101.17","","","","-46","","NA"
"-94.20","72.02","FORT ROSS","2402051","2023-01-25 01:00","2023","01","25","01:00","-30.5","","-34.7","","67","","0.0","","36","","18","","","","101.20","","","","-43","","NA"
"-94.20","72.02","FORT ROSS","2402051","2023-01-25 02:00","2023","01","25","02:00","-30.5","","-34.8","","66","","0.0","","36","","22","","","","101.23","","","","-44","","NA"
"-94.20","72.02","FORT ROSS","2402051","2023-01-25 03:00","2023","01","25","03:00","-30.4","","-34.7","","66","","0.0","","35","","21","","","","101.22","","","","-44","","NA"
"-94.20","72.02","FORT ROSS","2402051","2023-01-25 04:00","2023","01","25","04:00","-29.8","","-34.1","","66","","0.0","","35","","22","","","","101.22","","","","-43","","NA"
"-94.20","72.02","FORT ROSS","2402051","2023-01-25 05:00","2023","01","25","05:00","-28.2","","-32.6","","66","","0.0","","30","","9","","","","101.19","","","","-36","","NA"
"-94.20","72.02","FORT ROSS","2402051","2023-01-25 06:00","2023","01","25","06:00","-30.1","","-34.3","","66","","0.0","","18","","3","","","","101.14","","","","-33","","NA"
"-94.20","72.02","FORT ROSS","2402051","2023-01-25 07:00","2023","01","25","07:00","-27.0","","-31.4","","66","","0.0","","36","","17","","","","101.08","","","","-38","","NA"
"-94.20","72.02","FORT ROSS","2402051","2023-01-25 08:00","2023","01","25","08:00","-26.7","","-30.9","","68","","0.0","","36","","22","","","","101.02","","","","-39","","NA"
"-94.20","72.02","FORT ROSS","2402051","2023-01-25 09:00","2023","01","25","09:00","-25.9","","-30.5","","65","","0.0","","34","","12","","","","100.95","","","","-35","","NA"
"-94.20","72.02","FORT ROSS","2402051","2023-01-25 10:00","2023","01","25","10:00","-26.0","","-30.1","","68","","0.0","","25","","15","","","","100.86","","","","-36","","NA"
"-94.20","72.02","FORT ROSS","2402051","2023-01-25 11:00","2023","01","25","11:00","-27.0","","-31.1","","68","","0.0","","27","","33","","","","100.75","","","","-42","","NA"
"-94.20","72.02","FORT ROSS","2402051","2023-01-25 12:00","2023","01","25","12:00","-25.1","","-29.7","","65","","0.0","","30","","35","","","","100.67","","","","-40","","NA"
"-94.20","72.02","FORT ROSS","2402051","2023-01-25 13:00","2023","01","25","13:00","-27.1","","-31.5","","66","","0.0","","29","","25","","","","100.68","","","","-41","","NA"
"-94.20","72.02","FORT ROSS","2402051","2023-01-25 14:00","2023","01","25","14:00","-30.2","","-34.0","","69","","0.0","","25","","40","","","","100.68","","","","-48","","NA"
"-94.20","72.02","FORT ROSS","2402051","2023-01-25 15:00","2023","01","25","15:00","-28.7","","-32.3","","71","","0.0","","29","","32","","","","100.63","","","","-44","","NA"
"-94.20","72.02","FORT ROSS","2402051","2023-01-25 16:00","2023","01","25","16:00","-28.8","","-32.8","","68","","0.0","","26","","41","","","","100.57","","","","-46","","NA"
"-94.20","72.02","FORT ROSS","2402051","2023-01-25 17:00","2023","01","25","17:00","-29.1","","-33.2","","68","","0.0","","27","","26","","","","100.56","","","","-44","","NA"
"-94.20","72.02","FORT ROSS","2402051","2023-01-25 18:00","2023","01","25","18:00","-26.5","","-29.9","","73","","0.0","","27","","37","","","","100.46","","","","-42","","NA"
"-94.20","72.02","FORT ROSS","2402051","2023-01-25 19:00","2023","01","25","19:00","-26.1","","-30.2","","69","","0.0","","31","","24","","","","100.45","","","","-39","","NA"
"-94.20","72.02","FORT ROSS","2402051","2023-01-25 20:00","2023","01","25","20:00","-26.0","","-30.2","","68","","0.0","","34","","17","","","","100.41","","","","-37","","NA"
"-94.20","72.02","FORT ROSS","2402051","2023-01-25 21:00","2023","01","25","21:00","-28.5","","-32.9","","66","","0.0","","24","","9","","","","100.41","","","","-37","","NA"
"-94.20","72.02","FORT ROSS","2402051","2023-01-25 22:00","2023","01","25","22:00","-28.4","","-32.6","","67","","0.0","","23","","2","","","","100.37","","","","-31","","NA"
"-94.20","72.02","FORT ROSS","2402051","2023-01-25 23:00","2023","01","25","23:00","-28.3","","-32.3","","68","","0.0","","25","","4","","","","100.39","","","","-33","","NA"
"-94.20","72.02","FORT ROSS","2402051","2023-01-26 00:00","2023","01","26","00:00","-27.6","","-31.5","","69","","0.0","","24","","6","","","","100.37","","","","-34","","NA"
"-94.20","72.02","FORT ROSS","2402051","2023-01-26 01:00","2023","01","26","01:00","-26.1","","-30.0","","70","","0.0","","25","","9","","","","100.35","","","","-34","","NA"
"-94.20","72.02","FORT ROSS","2402051","2023-01-26 02:00","2023","01","26","02:00","-26.1","","-29.9","","70","","0.0","","25","","10","","","","100.37","","","","-34","","NA"
"-94.20","72.02","FORT ROSS","2402051","2023-01-26 03:00","2023","01","26","03:00","-26.3","","-30.2","","70","","0.0","","24","","14","","","","100.35","","","","-36","","NA"
"-94.20","72.02","FORT ROSS","2402051","2023-01-26 04:00","2023","01","26","04:00","-26.9","","-30.7","","70","","0.0","","25","","25","","","","100.30","","","","-40","","NA"
"-94.20","72.02","FORT ROSS","2402051","2023-01-26 05:00","2023","01","26","05:00","-27.1","","-31.1","","69","","0.0","","26","","22","","","","100.32","","","","-40","","NA"
"-94.20","72.02","FORT ROSS","2402051","2023-01-26 06:00","2023","01","26","06:00","-26.8","","-31.1","","67","","0.0","","25","","22","","","","100.28","","","","-40","","NA"
"-94.20","72.02","FORT ROSS","2402051","2023-01-26 07:00","2023","01","26","07:00","-26.9","","-30.2","","73","","0.0","","26","","26","","","","100.28","","","","-41","","NA"
"-94.20","72.02","FORT ROSS","2402051","2023-01-26 08:00","2023","01","26","08:00","-26.7","","-31.4","","64","","0.0","","26","","23","","","","100.34","","","","-40","","NA"
"-94.20","72.02","FORT ROSS","2402051","2023-01-26 09:00","2023","01","26","09:00","-28.0","","-32.5","","66","","0.0","","25","","25","","","","100.33","","","","-42","","NA"
"-94.20","72.02","FORT ROSS","2402051","2023-01-26 10:00","2023","01","26","10:00","-29.0","","-33.0","","68","","0.0","","25","","22","","","","100.34","","","","-42","","NA"
"-94.20","72.02","FORT ROSS","2402051","2023-01-26 11:00","2023","01","26","11:00","-26.9","","-30.8","","69","","0.0","","26","","19","","","","100.35","","","","-39","","NA"
"-94.20","72.02","FORT ROSS","2402051","2023-01-26 12:00","2023","01","26","12:00","-26.8","","-30.6","","70","","0.0","","26","","20","","","","100.38","","","","-39","","NA"
"-94.20","72.02","FORT ROSS","2402051","2023-01-26 13:00","2023","01","26","13:00","-27.7","","-31.9","","68","","0.0","","28","","14","","","","100.41","","","","-38","","NA"
"-94.20","72.02","FORT ROSS","2402051","2023-01-26 14:00","2023","01","26","14:00","-28.3","","-32.5","","67","","0.0","","26","","20","","","","100.49","","","","-41","","NA"
"-94.20","72.02","FORT ROSS","2402051","2023-01-26 15:00","2023","01","26","15:00","-29.7","","-34.0","","66","","0.0","","0","","1","","","","100.55","","","","-31","","NA"
"-94.20","72.02","FORT ROSS","2402051","2023-01-26 16:00","2023","01","26","16:00","-29.2","","-33.1","","69","","0.0","","36","","5","","","","100.61","","","","-35","","NA"
"-94.20","72.02","FORT ROSS","2402051","2023-01-26 17:00","2023","01","26","17:00","-31.5","","-35.2","","70","","0.0","","1","","9","","","","100.65","","","","-40","","NA"
"-94.20","72.02","FORT ROSS","2402051","2023-01-26 18:00","2023","01","26","18:00","-31.4","","-34.8","","72","","0.0","","36","","8","","","","100.71","","","","-40","","NA"
"-94.20","72.02","FORT ROSS","2402051","2023-01-26 19:00","2023","01","26","19:00","-32.2","","-35.8","","71","","0.0","","1","","7","","","","100.75","","","","-40","","NA"
"-94.20","72.02","FORT ROSS","2402051","2023-01-26 20:00","2023","01","26","20:00","-32.3","","-35.8","","71","","0.0","","2","","9","","","","100.81","","","","-41","","NA"
"-94.20","72.02","FORT ROSS","2402051","2023-01-26 21:00","2023","01","26","21:00","-32.3","","-35.9","","71","","0.0","","28","","3","","","","100.86","","","","-36","","NA"
"-94.20","72.02","FORT ROSS","2402051","2023-01-26 22:00","2023","01","26","22:00","-32.5","","-36.1","","70","","0.0","","34","","7","","","","100.90","","","","-40","","NA"
"-94.20","72.02","FORT ROSS","2402051","2023-01-26 23:00","2023","01","26","23:00","-33.7","","-37.4","","69","","0.0","","36","","11","","","","100.98","","","","-44","","NA"
"-94.20","72.02","FORT ROSS","2402051","2023-01-27 00:00","2023","01","27","00:00","-33.0","","-36.6","","70","","0.0","","36","","11","","","","101.06","","","","-43","","NA"
"-94.20","72.02","FORT ROSS","2402051","2023-01-27 01:00","2023","01","27","01:00","-33.2","","-36.9","","70","","0.0","","35","","15","","","","101.10","","","","-45","","NA"
"-94.20","72.02","FORT ROSS","2402051","2023-01-27 02:00","2023","01","27","02:00","-33.8","","-37.5","","69","","0.0","","35","","13","","","","101.21","","","","-45","","NA"
"-94.20","72.02","FORT ROSS","2402051","2023-01-27 03:00","2023","01","27","03:00","-33.9","","-37.8","","68","","0.0","","1","","21","","","","101.26","","","","-48","","NA"
"-94.20","72.02","FORT ROSS","2402051","2023-01-27 04:00","2023","01","27","04:00","-33.0","","-36.8","","69","","0.0","","1","","20","","","","101.34","","","","-47","","NA"
"-94.20","72.02","FORT ROSS","2402051","2023-01-27 05:00","2023","01","27","05:00","-33.4","","-37.2","","69","","0.0","","36","","28","","","","101.38","","","","-50","","NA"
"-94.20","72.02","FORT ROSS","2402051","2023-01-27 06:00","2023","01","27","06:00","-34.1","","-38.0","","68","","0.0","","36","","28","","","","101.42","","","","-50","","NA"
"-94.20","72.02","FORT ROSS","2402051","2023-01-27 07:00","2023","01","27","07:00","-34.0","","-37.9","","68","","0.0","","1","","21","","","","101.44","","","","-48","","NA"
"-94.20","72.02","FORT ROSS","2402051","2023-01-27 08:00","2023","01","27","08:00","-32.8","","-36.6","","69","","0.0","","3","","22","","","","101.49","","","","-47","","NA"
"-94.20","72.02","FORT ROSS","2402051","2023-01-27 09:00","2023","01","27","09:00","-32.6","","-36.2","","70","","0.0","","2","","15","","","","101.51","","","","-45","","NA"
"-94.20","72.02","FORT ROSS","2402051","2023-01-27 10:00","2023","01","27","10:00","-33.4","","-37.2","","69","","0.0","","36","","10","","","","101.47","","","","-43","","NA"
"-94.20","72.02","FORT ROSS","2402051","2023-01-27 11:00","2023","01","27","11:00","-33.2","","-37.0","","69","","0.0","","21","","6","","","","101.42","","","","-40","","NA"
"-94.20","72.02","FORT ROSS","2402051","2023-01-27 12:00","2023","01","27","12:00","-33.9","","-37.8","","68","","0.0","","24","","4","","","","101.41","","","","-39","","NA"
"-94.20","72.02","FORT ROSS","2402051","2023-01-27 13:00","2023","01","27","13:00","-33.4","","-37.2","","69","","0.0","","13","","4","","","","101.41","","","","-38","","NA"
"-94.20","72.02","FORT ROSS","2402051","2023-01-27 14:00","2023","01","27","14:00","-32.1","","-35.8","","70","","0.0","","","","0","","","","101.35","","","","","","NA"
"-94.20","72.02","FORT ROSS","2402051","2023-01-27 15:00","2023","01","27","15:00","-29.9","","-33.3","","72","","0.0","","30","","7","","","","101.27","","","","-37","","NA"
"-94.20","72.02","FORT ROSS","2402051","2023-01-27 16:00","2023","01","27","16:00","-28.3","","-31.5","","74","","0.0","","26","","12","","","","101.20","","","","-38","","NA"
"-94.20","72.02","FORT ROSS","2402051","2023-01-27 17:00","2023","01","27","17:00","-28.7","","-32.1","","73","","0.0","","28","","6","","","","101.12","","","","-35","","NA"
"-94.20","72.02","FORT ROSS","2402051","2023-01-27 18:00","2023","01","27","18:00","-25.6","","-28.5","","76","","0.0","","27","","15","","","","101.04","","","","-36","","NA"
"-94.20","72.02","FORT ROSS","2402051","2023-01-27 19:00","2023","01","27","19:00","-27.4","","-30.8","","73","","0.0","","24","","22","","","","100.94","","","","-40","","NA"
"-94.20","72.02","FORT ROSS","2402051","2023-01-27 20:00","2023","01","27","20:00","-24.3","","-27.8","","73","","0.0","","27","","15","","","","100.84","","","","-34","","NA"
"-94.20","72.02","FORT ROSS","2402051","2023-01-27 21:00","2023","01","27","21:00","-25.5","","-28.8","","74","","0.0","","26","","26","","","","100.77","","","","-39","","NA"
"-94.20","72.02","FORT ROSS","2402051","2023-01-27 22:00","2023","01","27","22:00","-23.2","","-27.0","","71","","0.0","","28","","6","","","","100.70","","","","-29","","NA"
"-94.20","72.02","FORT ROSS","2402051","2023-01-27 23:00","2023","01","27","23:00","-26.6","","-30.0","","73","","0.0","","26","","25","","","","100.65","","","","-40","","NA"
"-94.20","72.02","FORT ROSS","2402051","2023-01-28 00:00","2023","01","28","00:00","-25.4","","-29.7","","68","","0.0","","29","","8","","","","100.60","","","","-33","","NA"
"-94.20","72.02","FORT ROSS","2402051","2023-01-28 01:00","2023","01","28","01:00","-26.9","","-31.4","","66","","0.0","","27","","12","","","","100.57","","","","-36","","NA"
"-94.20","72.02","FORT ROSS","2402051","2023-01-28 02:00","2023","01","28","02:00","-27.1","","-31.1","","69","","0.0","","22","","8","","","","100.57","","","","-35","","NA"
"-94.20","72.02","FORT ROSS","2402051","2023-01-28 03:00","2023","01","28","03:00","-27.9","","-31.9","","69","","0.0","","16","","3","","","","100.55","","","","-31","","NA"
"-94.20","72.02","FORT ROSS","2402051","2023-01-28 04:00","2023","01","28","04:00","-28.4","","-32.3","","69","","0.0","","16","","3","","","","100.55","","","","-32","","NA"
"-94.20","72.02","FORT ROSS","2402051","2023-01-28 05:00","2023","01","28","05:00","-28.6","","-32.4","","70","","0.0","","14","","4","","","","100.53","","","","-33","","NA"
"-94.20","72.02","FORT ROSS","2402051","2023-01-28 06:00","2023","01","28","06:00","-28.5","","-32.3","","70","","0.0","","23","","4","","","","100.52","","","","-33","","NA"
"-94.20","72.02","FORT ROSS","2402051","2023-01-28 07:00","2023","01","28","07:00","-27.8","","-31.5","","71","","0.0","","21","","5","","","","100.53","","","","-33","","NA"
"-94.20","72.02","FORT ROSS","2402051","2023-01-28 08:00","2023","01","28","08:00","-27.2","","-30.8","","71","","0.0","","25","","23","","","","100.49","","","","-40","","NA"
"-94.20","72.02","FORT ROSS","2402051","2023-01-28 09:00","2023","01","28","09:00","-27.6","","-31.9","","67","","0.0","","27","","18","","","","100.50","","","","-39","","NA"
"-94.20","72.02","FORT ROSS","2402051","2023-01-28 10:00","2023","01","28","10:00","-28.1","","-31.9","","70","","0.0","","23","","4","","","","100.49","","","","-32","","NA"
"-94.20","72.02","FORT ROSS","2402051","2023-01-28 11:00","2023","01","28","11:00","-28.9","","-33.0","","68","","0.0","","25","","17","","","","100.45","","","","-41","","NA"
"-94.20","72.02","FORT ROSS","2402051","2023-01-28 12:00","2023","01","28","12:00","-28.9","","-33.1","","67","","0.0","","25","","27","","","","100.43","","","","-44","","NA"
"-94.20","72.02","FORT ROSS","2402051","2023-01-28 13:00","2023","01","28","13:00","-29.0","","-33.0","","68","","0.0","","26","","30","","","","100.40","","","","-44","","NA"
"-94.20","72.02","FORT ROSS","2402051","2023-01-28 14:00","2023","01","28","14:00","-28.6","","-32.7","","68","","0.0","","26","","20","","","","100.41","","","","-41","","NA"
"-94.20","72.02","FORT ROSS","2402051","2023-01-28 15:00","2023","01","28","15:00","-29.4","","-34.2","","63","","0.0","","26","","21","","","","100.44","","","","-43","","NA"
"-94.20","72.02","FORT ROSS","2402051","2023-01-28 16:00","2023","01","28","16:00","-27.6","","-31.7","","69","","0.0","","26","","24","","","","100.44","","","","-41","","NA"
"-94.20","72.02","FORT ROSS","2402051","2023-01-28 17:00","2023","01","28","17:00","-30.0","","-33.7","","70","","0.0","","25","","35","","","","100.46","","","","-47","","NA"
"-94.20","72.02","FORT ROSS","2402051","2023-01-28 18:00","2023","01","28","18:00","-31.4","","-35.4","","68","","0.0","","25","","37","","","","100.41","","","","-49","","NA"
"-94.20","72.02","FORT ROSS","2402051","2023-01-28 19:00","2023","01","28","19:00","-30.8","","-34.7","","68","","0.0","","25","","40","","","","100.34","","","","-49","","NA"
"-94.20","72.02","FORT ROSS","2402051","2023-01-28 20:00","2023","01","28","20:00","-30.2","","-34.0","","70","","0.0","","25","","36","","","","100.36","","","","-47","","NA"
"-94.20","72.02","FORT ROSS","2402051","2023-01-28 21:00","2023","01","28","21:00","-31.3","","-35.1","","69","","0.0","","26","","51","","","","100.34","","","","-51","","NA"
"-94.20","72.02","FORT ROSS","2402051","2023-01-28 22:00","2023","01","28","22:00","-29.3","","-32.7","","72","","0.0","","25","","28","","","","100.38","","","","-44","","NA"
"-94.20","72.02","FORT ROSS","2402051","2023-01-28 23:00","2023","01","28","23:00","-29.7","","-33.5","","69","","0.0","","28","","31","","","","100.35","","","","-45","","NA"
"-94.20","72.02","FORT ROSS","2402051","2023-01-29 00:00","2023","01","29","00:00","-31.2","","-35.2","","68","","0.0","","26","","35","","","","100.33","","","","-48","","NA"
"-94.20","72.02","FORT ROSS","2402051","2023-01-29 01:00","2023","01","29","01:00","-29.8","","-34.3","","65","","0.0","","28","","17","","","","100.36","","","","-42","","NA"
"-94.20","72.02","FORT ROSS","2402051","2023-01-29 02:00","2023","01","29","02:00","-31.2","","-35.4","","66","","0.0","","26","","32","","","","100.37","","","","-48","","NA"
"-94.20","72.02","FORT ROSS","2402051","2023-01-29 03:00","2023","01","29","03:00","-29.9","","-34.1","","67","","0.0","","27","","28","","","","100.37","","","","-45","","NA"
"-94.20","72.02","FORT ROSS","2402051","2023-01-29 04:00","2023","01","29","04:00","-31.4","","-36.0","","64","","0.0","","25","","32","","","","100.36","","","","-48","","NA"
"-94.20","72.02","FORT ROSS","2402051","2023-01-29 05:00","2023","01","29","05:00","-29.8","","-34.5","","64","","0.0","","28","","17","","","","100.39","","","","-42","","NA"
"-94.20","72.02","FORT ROSS","2402051","2023-01-29 06:00","2023","01","29","06:00","-31.3","","-36.2","","62","","0.0","","25","","4","","","","100.34","","","","-36","","NA"
"-94.20","72.02","FORT ROSS","2402051","2023-01-29 07:00","2023","01","29","07:00","-30.8","","-35.8","","61","","0.0","","32","","12","","","","100.35","","","","-41","","NA"
"-94.20","72.02","FORT ROSS","2402051","2023-01-29 08:00","2023","01","29","08:00","-30.8","","-35.4","","64","","0.0","","36","","16","","","","100.40","","","","-43","","NA"
"-94.20","72.02","FORT ROSS","2402051","2023-01-29 09:00","2023","01","29","09:00","-31.4","","-35.9","","64","","0.0","","36","","23","","","","100.41","","","","-46","","NA"
"-94.20","72.02","FORT ROSS","2402051","2023-01-29 10:00","2023","01","29","10:00","-31.9","","-36.4","","64","","0.0","","36","","23","","","","100.43","","","","-46","","NA"
"-94.20","72.02","FORT ROSS","2402051","2023-01-29 11:00","2023","01","29","11:00","-31.6","","-35.9","","66","","0.0","","1","","26","","","","100.46","","","","-47","","NA"
"-94.20","72.02","FORT ROSS","2402051","2023-01-29 12:00","2023","01","29","12:00","-31.2","","-35.2","","68","","0.0","","1","","42","","","","100.45","","","","-49","","NA"
"-94.20","72.02","FORT ROSS","2402051","2023-01-29 13:00","2023","01","29","13:00","-31.2","","-35.0","","70","","0.0","","4","","41","","","","100.59","","","","-49","","NA"
"-94.20","72.02","FORT ROSS","2402051","2023-01-29 14:00","2023","01","29","14:00","-31.3","","-35.1","","70","","0.0","","4","","28","","","","100.72","","","","-47","","NA"
"-94.20","72.02","FORT ROSS","2402051","2023-01-29 15:00","2023","01","29","15:00","-32.0","","-35.8","","69","","0.0","","3","","30","","","","100.82","","","","-48","","NA"
"-94.20","72.02","FORT ROSS","2402051","2023-01-29 16:00","2023","01","29","16:00","-31.5","","-35.3","","69","","0.0","","3","","34","","","","100.88","","","","-48","","NA"
"-94.20","72.02","FORT ROSS","2402051","2023-01-29 17:00","2023","01","29","17:00","-30.9","","-34.7","","69","","0.0","","4","","35","","","","100.94","","","","-48","","NA"
"-94.20","72.02","FORT ROSS","2402051","2023-01-29 18:00","2023","01","29","18:00","-30.7","","-34.6","","68","","0.0","","3","","30","","","","100.97","","","","-47","","NA"
"-94.20","72.02","FORT ROSS","2402051","2023-01-29 19:00","2023","01","29","19:00","-30.1","","-34.0","","69","","0.0","","4","","41","","","","100.98","","","","-48","","NA"
"-94.20","72.02","FORT ROSS","2402051","2023-01-29 20:00","2023","01","29","20:00","-30.2","","-34.2","","68","","0.0","","4","","35","","","","101.08","","","","-47","","NA"
"-94.20","72.02","FORT ROSS","2402051","2023-01-29 21:00","2023","01","29","21:00","-30.5","","-34.4","","69","","0.0","","4","","37","","","","101.09","","","","-48","","NA"
"-94.20","72.02","FORT ROSS","2402051","2023-01-29 22:00","2023","01","29","22:00","-30.8","","-34.8","","68","","0.0","","4","","39","","","","101.19","","","","-48","","NA"
"-94.20","72.02","FORT ROSS","2402051","2023-01-29 23:00","2023","01","29","23:00","-31.2","","-35.3","","67","","0.0","","4","","32","","","","101.24","","","","-48","","NA"
"-94.20","72.02","FORT ROSS","2402051","2023-01-30 00:00","2023","01","30","00:00","-31.4","","-35.4","","67","","0.0","","3","","27","","","","101.31","","","","-47","","NA"
"-94.20","72.02","FORT ROSS","2402051","2023-01-30 01:00","2023","01","30","01:00","-31.5","","-35.6","","68","","0.0","","3","","28","","","","101.36","","","","-47","","NA"
"-94.20","72.02","FORT ROSS","2402051","2023-01-30 02:00","2023","01","30","02:00","-32.1","","-36.1","","68","","0.0","","4","","22","","","","101.42","","","","-46","","NA"
"-94.20","72.02","FORT ROSS","2402051","2023-01-30 03:00","2023","01","30","03:00","-32.0","","-35.9","","68","","0.0","","36","","24","","","","101.46","","","","-47","","NA"
"-94.20","72.02","FORT ROSS","2402051","2023-01-30 04:00","2023","01","30","04:00","-33.6","","-37.8","","66","","0.0","","1","","24","","","","101.49","","","","-49","","NA"
"-94.20","72.02","FORT ROSS","2402051","2023-01-30 05:00","2023","01","30","05:00","-33.2","","-37.4","","66","","0.0","","36","","20","","","","101.47","","","","-47","","NA"
"-94.20","72.02","FORT ROSS","2402051","2023-01-30 06:00","2023","01","30","06:00","-32.9","","-37.2","","65","","0.0","","1","","21","","","","101.41","","","","-47","","NA"
"-94.20","72.02","FORT ROSS","2402051","2023-01-30 07:00","2023","01","30","07:00","-32.1","","-36.4","","66","","0.0","","36","","18","","","","101.39","","","","-45","","NA"
"-94.20","72.02","FORT ROSS","2402051","2023-01-30 08:00","2023","01","30","08:00","-31.6","","-35.9","","66","","0.0","","1","","2","","","","101.40","","","","-34","","NA"
"-94.20","72.02","FORT ROSS","2402051","2023-01-30 09:00","2023","01","30","09:00","-32.0","","-36.6","","64","","0.0","","30","","3","","","","101.34","","","","-36","","NA"
"-94.20","72.02","FORT ROSS","2402051","2023-01-30 10:00","2023","01","30","10:00","-32.0","","-36.7","","63","","0.0","","18","","2","","","","101.27","","","","-34","","NA"
"-94.20","72.02","FORT ROSS","2402051","2023-01-30 11:00","2023","01","30","11:00","-30.1","","-34.9","","63","","0.0","","34","","5","","","","101.23","","","","-36","","NA"
"-94.20","72.02","FORT ROSS","2402051","2023-01-30 12:00","2023","01","30","12:00","-29.3","","-34.1","","64","","0.0","","","","0","","","","101.18","","","","","","NA"
"-94.20","72.02","FORT ROSS","2402051","2023-01-30 13:00","2023","01","30","13:00","-31.7","","-35.9","","67","","0.0","","22","","7","","","","101.15","","","","-39","","NA"
"-94.20","72.02","FORT ROSS","2402051","2023-01-30 14:00","2023","01","30","14:00","-29.4","","-33.4","","68","","0.0","","25","","13","","","","101.13","","","","-40","","NA"
"-94.20","72.02","FORT ROSS","2402051","2023-01-30 15:00","2023","01","30","15:00","-29.4","","-33.1","","70","","0.0","","25","","32","","","","101.06","","","","-45","","NA"
"-94.20","72.02","FORT ROSS","2402051","2023-01-30 16:00","2023","01","30","16:00","-22.7","","-27.9","","62","","0.0","","32","","24","","","","100.92","","","","-35","","NA"
"-94.20","72.02","FORT ROSS","2402051","2023-01-30 17:00","2023","01","30","17:00","-22.0","","-27.5","","61","","0.0","","29","","20","","","","100.88","","","","-33","","NA"
"-94.20","72.02","FORT ROSS","2402051","2023-01-30 18:00","2023","01","30","18:00","-23.9","","-29.3","","61","","0.0","","20","","6","","","","100.87","","","","-30","","NA"
"-94.20","72.02","FORT ROSS","2402051","2023-01-30 19:00","2023","01","30","19:00","-26.2","","-31.2","","63","","0.0","","23","","7","","","","100.90","","","","-33","","NA"
"-94.20","72.02","FORT ROSS","2402051","2023-01-30 20:00","2023","01","30","20:00","-28.0","","-31.4","","73","","0.0","","25","","24","","","","100.89","","","","-42","","NA"
"-94.20","72.02","FORT ROSS","2402051","2023-01-30 21:00","2023","01","30","21:00","-26.5","","-30.5","","69","","0.0","","27","","7","","","","100.89","","","","-33","","NA"
"-94.20","72.02","FORT ROSS","2402051","2023-01-30 22:00","2023","01","30","22:00","-25.1","","-29.4","","67","","0.0","","35","","18","","","","100.82","","","","-36","","NA"
"-94.20","72.02","FORT ROSS","2402051","2023-01-30 23:00","2023","01","30","23:00","-24.5","","-28.8","","67","","0.0","","35","","19","","","","100.80","","","","-36","","NA"
"-94.20","72.02","FORT ROSS","2402051","2023-01-31 00:00","2023","01","31","00:00","-25.1","","-28.9","","71","","0.0","","28","","5","","","","100.82","","","","-30","","NA"
"-94.20","72.02","FORT ROSS","2402051","2023-01-31 01:00","2023","01","31","01:00","-26.6","","-30.4","","71","","0.0","","31","","8","","","","100.86","","","","-34","","NA"
"-94.20","72.02","FORT ROSS","2402051","2023-01-31 02:00","2023","01","31","02:00","-26.7","","-30.8","","69","","0.0","","36","","26","","","","100.89","","","","-40","","NA"
"-94.20","72.02","FORT ROSS","2402051","2023-01-31 03:00","2023","01","31","03:00","-27.4","","-31.5","","68","","0.0","","36","","25","","","","100.89","","","","-41","","NA"
"-94.20","72.02","FORT ROSS","2402051","2023-01-31 04:00","2023","01","31","04:00","-27.8","","-32.0","","67","","0.0","","36","","29","","","","100.91","","","","-43","","NA"
"-94.20","72.02","FORT ROSS","2402051","2023-01-31 05:00","2023","01","31","05:00","-28.6","","-32.7","","68","","0.0","","36","","26","","","","100.95","","","","-43","","NA"
"-94.20","72.02","FORT ROSS","2402051","2023-01-31 06:00","2023","01","31","06:00","-28.2","","-32.0","","70","","0.0","","36","","29","","","","100.99","","","","-43","","NA"
"-94.20","72.02","FORT ROSS","2402051","2023-01-31 07:00","2023","01","31","07:00","-29.9","","-33.2","","73","","0.0","","7","","13","","","","101.05","","","","-40","","NA"
"-94.20","72.02","FORT ROSS","2402051","2023-01-31 08:00","2023","01","31","08:00","-31.1","","-34.5","","72","","0.0","","5","","12","","","","101.07","","","","-41","","NA"
"-94.20","72.02","FORT ROSS","2402051","2023-01-31 09:00","2023","01","31","09:00","-31.4","","-34.8","","71","","0.0","","6","","14","","","","101.10","","","","-43","","NA"
"-94.20","72.02","FORT ROSS","2402051","2023-01-31 10:00","2023","01","31","10:00","-32.3","","-36.0","","70","","0.0","","32","","2","","","","101.12","","","","-35","","NA"
"-94.20","72.02","FORT ROSS","2402051","2023-01-31 11:00","2023","01","31","11:00","-33.1","","-36.7","","70","","0.0","","18","","3","","","","101.13","","","","-37","","NA"
"-94.20","72.02","FORT ROSS","2402051","2023-01-31 12:00","2023","01","31","12:00","-33.2","","-36.9","","69","","0.0","","18","","4","","","","101.15","","","","-38","","NA"
"-94.20","72.02","FORT ROSS","2402051","2023-01-31 13:00","2023","01","31","13:00","-32.6","","-36.3","","70","","0.0","","15","","5","","","","101.17","","","","-39","","NA"
"-94.20","72.02","FORT ROSS","2402051","2023-01-31 14:00","2023","01","31","14:00","-32.5","","-35.9","","72","","0.0","","19","","8","","","","101.16","","","","-41","","NA"
"-94.20","72.02","FORT ROSS","2402051","2023-01-31 15:00","2023","01","31","15:00","-31.6","","-35.1","","71","","0.0","","15","","3","","","","101.13","","","","-35","","NA"
"-94.20","72.02","FORT ROSS","2402051","2023-01-31 16:00","2023","01","31","16:00","-30.4","","-33.8","","72","","0.0","","21","","2","","","","101.13","","","","-33","","NA"
"-94.20","72.02","FORT ROSS","2402051","2023-01-31 17:00","2023","01","31","17:00","-25.8","","-28.8","","76","","0.0","","1","","22","","","","101.14","","","","-38","","NA"
"-94.20","72.02","FORT ROSS","2402051","2023-01-31 18:00","2023","01","31","18:00","-25.3","","-28.7","","73","","0.0","","2","","22","","","","101.15","","","","-38","","NA"
"-94.20","72.02","FORT ROSS","2402051","2023-01-31 19:00","2023","01","31","19:00","-26.0","","-29.8","","71","","0.0","","1","","29","","","","101.19","","","","-40","","NA"
"-94.20","72.02","FORT ROSS","2402051","2023-01-31 20:00","2023","01","31","20:00","-27.0","","-30.6","","71","","0.0","","1","","31","","","","101.19","","","","-42","","NA"
"-94.20","72.02","FORT ROSS","2402051","2023-01-31 21:00","2023","01","31","21:00","-26.4","","-30.2","","70","","0.0","","2","","33","","","","101.19","","","","-41","","NA"
"-94.20","72.02","FORT ROSS","2402051","2023-01-31 22:00","2023","01","31","22:00","-26.3","","-30.0","","72","","0.0","","2","","29","","","","101.23","","","","-41","","NA"
"-94.20","72.02","FORT ROSS","2402051","2023-01-31 23:00","2023","01","31","23:00","-27.3","","-30.6","","73","","0.0","","3","","16","","","","101.25","","","","-38","","NA"
