"Longitude (x)","Latitude (y)","Station Name","Climate ID","Date/Time (LST)","Year","Month","Day","Time (LST)","Temp (°C)","Temp Flag","Dew Point Temp (°C)","Dew Point Temp Flag","Rel Hum (%)","Rel Hum Flag","Precip. Amount (mm)","Precip. Amount Flag","Wind Dir (10s deg)","Wind Dir Flag","Wind Spd (km/h)","Wind Spd Flag","Visibility (km)","Visibility Flag","Stn Press (kPa)","Stn Press Flag","Hmdx","Hmdx Flag","Wind Chill","Wind Chill Flag","Weather"
"-120.45","50.70","KAMLOOPS A","1163781","2023-03-01 00:00","2023","03","01","00:00","-1.2","","-6.2","","69","","","","28","","23","","64.4","","96.80","","","","-7","","NA"
"-120.45","50.70","KAMLOOPS A","1163781","2023-03-01 01:00","2023","03","01","01:00","-0.9","","-6.5","","66","","","","26","","14","","64.4","","96.88","","","","-5","","Mostly Cloudy"
"-120.45","50.70","KAMLOOPS A","1163781","2023-03-01 02:00","2023","03","01","02:00","-1.4","","-7.0","","66","","","","26","","17","","64.4","","97.01","","","","-7","","NA"
"-120.45","50.70","KAMLOOPS A","1163781","2023-03-01 03:00","2023","03","01","03:00","-1.7","","-7.2","","66","","","","26","","15","","56.3","","97.01","","","","-7","","NA"
"-120.45","50.70","KAMLOOPS A","1163781","2023-03-01 04:00","2023","03","01","04:00","-2.9","","-7.7","","70","","","","20","","10","","64.4","","97.09","","","","-7","","Mostly Cloudy"
"-120.45","50.70","KAMLOOPS A","1163781","2023-03-01 05:00","2023","03","01","05:00","-4.0","","-8.4","","72","","","","29","","7","","64.4","","97.12","","","","-7","","NA"
"-120.45","50.70","KAMLOOPS A","1163781","2023-03-01 06:00","2023","03","01","06:00","-4.0","","-7.8","","75","","","","36","","1","","64.4","","97.19","","","","-4","","NA"
"-120.45","50.70","KAMLOOPS A","1163781","2023-03-01 07:00","2023","03","01","07:00","-4.2","","-8.2","","73","","","","0","","1","","64.4","","97.13","","","","-5","","Mostly Cloudy"
"-120.45","50.70","KAMLOOPS A","1163781","2023-03-01 08:00","2023","03","01","08:00","-4.5","","-7.5","","79","","","","36","","1","","64.4","","97.10","","","","-5","","NA"
"-120.45","50.70","KAMLOOPS A","1163781","2023-03-01 09:00","2023","03","01","09:00","-3.3","","-7.9","","71","","","","36","","2","","64.4","","97.13","","","","-4","","NA"
"-120.45","50.70","KAMLOOPS A","1163781","2023-03-01 10:00","2023","03","01","10:00","-2.2","","-7.5","","67","","","","36","","2","","64.4","","97.16","","","","-3","","Mostly Cloudy"
"-120.45","50.70","KAMLOOPS A","1163781","2023-03-01 11:00","2023","03","01","11:00","-1.6","","-7.1","","66","","","","30","","5","","64.4","","97.12","","","","-3","","NA"
"-120.45","50.70","KAMLOOPS A","1163781","2023-03-01 12:00","2023","03","01","12:00","-1.1","","-6.9","","65","","","","31","","7","","64.4","","97.12","","","","-4","","NA"
"-120.45","50.70","KAMLOOPS A","1163781","2023-03-01 13:00","2023","03","01","13:00","-0.4","","-7.1","","61","","","","27","","3","","64.4","","97.07","","","","-1","","Mostly Cloudy"
"-120.45","50.70","KAMLOOPS A","1163781","2023-03-01 14:00","2023","03","01","14:00","0.1","","-6.4","","62","","","","36","","1","","48.3","","97.01","","","","","","NA"
"-120.45","50.70","KAMLOOPS A","1163781","2023-03-01 15:00","2023","03","01","15:00","0.5","","-5.6","","64","","","","30","","9","","64.4","","97.03","","","","","","NA"
"-120.45","50.70","KAMLOOPS A","1163781","2023-03-01 16:00","2023","03","01","16:00","0.5","","-5.0","","66","","","","9","","3","","48.3","","96.97","","","","","","Cloudy"
"-120.45","50.70","KAMLOOPS A","1163781","2023-03-01 17:00","2023","03","01","17:00","0.0","","-4.9","","70","","","","18","","4","","64.4","","96.89","","","","-1","","NA"
"-120.45","50.70","KAMLOOPS A","1163781","2023-03-01 18:00","2023","03","01","18:00","0.9","","-4.3","","68","","","","36","","1","","48.3","","96.87","","","","","","NA"
"-120.45","50.70","KAMLOOPS A","1163781","2023-03-01 19:00","2023","03","01","19:00","2.0","","-3.9","","65","","","","9","","20","","48.3","","96.88","","","","","","Cloudy"
"-120.45","50.70","KAMLOOPS A","1163781","2023-03-01 20:00","2023","03","01","20:00","1.7","","-4.0","","66","","","","8","","26","","48.3","","96.78","","","","","","NA"
"-120.45","50.70","KAMLOOPS A","1163781","2023-03-01 21:00","2023","03","01","21:00","2.0","","-4.8","","61","","","","7","","21","","48.3","","96.72","","","","","","NA"
"-120.45","50.70","KAMLOOPS A","1163781","2023-03-01 22:00","2023","03","01","22:00","2.3","","-4.8","","60","","","","9","","16","","64.4","","96.64","","","","","","Cloudy"
"-120.45","50.70","KAMLOOPS A","1163781","2023-03-01 23:00","2023","03","01","23:00","2.4","","-4.7","","60","","","","9","","21","","64.4","","96.56","","","","","","NA"
"-120.45","50.70","KAMLOOPS A","1163781","2023-03-02 00:00","2023","03","02","00:00","1.5","","-5.6","","59","","","","24","","8","","64.4","","96.57","","","","","","NA"
"-120.45","50.70","KAMLOOPS A","1163781","2023-03-02 01:00","2023","03","02","01:00","2.4","","-4.6","","60","","","","10","","21","","64.4","","96.52","","","","","","Mostly Cloudy"
"-120.45","50.70","KAMLOOPS A","1163781","2023-03-02 02:00","2023","03","02","02:00","2.0","","-4.5","","62","","","","9","","20","","64.4","","96.51","","","","","","NA"
"-120.45","50.70","KAMLOOPS A","1163781","2023-03-02 03:00","2023","03","02","03:00","2.6","","-5.2","","57","","","","6","","10","","64.4","","96.49","","","","","","NA"
"-120.45","50.70","KAMLOOPS A","1163781","2023-03-02 04:00","2023","03","02","04:00","2.8","","-5.1","","56","","","","8","","21","","56.3","","96.38","","","","","","Mostly Cloudy"
"-120.45","50.70","KAMLOOPS A","1163781","2023-03-02 05:00","2023","03","02","05:00","2.5","","-5.3","","56","","","","7","","18","","64.4","","96.32","","","","","","NA"
"-120.45","50.70","KAMLOOPS A","1163781","2023-03-02 06:00","2023","03","02","06:00","2.7","","-4.7","","58","","","","13","","4","","64.4","","96.27","","","","","","NA"
"-120.45","50.70","KAMLOOPS A","1163781","2023-03-02 07:00","2023","03","02","07:00","1.7","","-5.0","","61","","","","8","","14","","64.4","","96.21","","","","","","Mostly Cloudy"
"-120.45","50.70","KAMLOOPS A","1163781","2023-03-02 08:00","2023","03","02","08:00","3.1","","-4.5","","58","","","","9","","18","","64.4","","96.14","","","","","","NA"
"-120.45","50.70","KAMLOOPS A","1163781","2023-03-02 09:00","2023","03","02","09:00","4.1","","-3.6","","57","","","","10","","21","","64.4","","96.05","","","","","","NA"
"-120.45","50.70","KAMLOOPS A","1163781","2023-03-02 10:00","2023","03","02","10:00","5.1","","-3.2","","55","","","","10","","17","","64.4","","96.00","","","","","","Mainly Clear"
"-120.45","50.70","KAMLOOPS A","1163781","2023-03-02 11:00","2023","03","02","11:00","6.6","","-4.0","","47","","","","10","","8","","64.4","","95.99","","","","","","NA"
"-120.45","50.70","KAMLOOPS A","1163781","2023-03-02 12:00","2023","03","02","12:00","4.2","","-3.2","","59","","","","29","","13","","64.4","","96.01","","","","","","NA"
"-120.45","50.70","KAMLOOPS A","1163781","2023-03-02 13:00","2023","03","02","13:00","3.6","","-2.5","","65","","","","31","","9","","48.3","","96.14","","","","","","Rain Showers"
"-120.45","50.70","KAMLOOPS A","1163781","2023-03-02 14:00","2023","03","02","14:00","4.0","","-1.7","","66","","","","14","","13","","64.4","","96.21","","","","","","NA"
"-120.45","50.70","KAMLOOPS A","1163781","2023-03-02 15:00","2023","03","02","15:00","4.8","","-1.8","","62","","","","10","","21","","64.4","","96.22","","","","","","NA"
"-120.45","50.70","KAMLOOPS A","1163781","2023-03-02 16:00","2023","03","02","16:00","5.3","","-1.7","","61","","","","9","","18","","64.4","","96.26","","","","","","Mainly Clear"
"-120.45","50.70","KAMLOOPS A","1163781","2023-03-02 17:00","2023","03","02","17:00","6.6","","-7.9","","35","","","","26","","3","","64.4","","96.33","","","","","","NA"
"-120.45","50.70","KAMLOOPS A","1163781","2023-03-02 18:00","2023","03","02","18:00","4.1","","-8.8","","39","","","","23","","21","","64.4","","96.40","","","","","","NA"
"-120.45","50.70","KAMLOOPS A","1163781","2023-03-02 19:00","2023","03","02","19:00","3.6","","-7.5","","44","","","","22","","23","","64.4","","96.46","","","","","","Mostly Cloudy"
"-120.45","50.70","KAMLOOPS A","1163781","2023-03-02 20:00","2023","03","02","20:00","4.0","","-8.4","","40","","","","31","","16","","64.4","","96.51","","","","","","NA"
"-120.45","50.70","KAMLOOPS A","1163781","2023-03-02 21:00","2023","03","02","21:00","3.8","","-7.8","","43","","","","23","","20","","64.4","","96.52","","","","","","NA"
"-120.45","50.70","KAMLOOPS A","1163781","2023-03-02 22:00","2023","03","02","22:00","0.8","","-6.9","","57","","","","29","","8","","64.4","","96.54","","","","","","Cloudy"
"-120.45","50.70","KAMLOOPS A","1163781","2023-03-02 23:00","2023","03","02","23:00","1.0","","-6.7","","56","","","","8","","7","","64.4","","96.60","","","","","","NA"
"-120.45","50.70","KAMLOOPS A","1163781","2023-03-03 00:00","2023","03","03","00:00","0.9","","-6.5","","58","","","","8","","9","","64.4","","96.63","","","","","","NA"
"-120.45","50.70","KAMLOOPS A","1163781","2023-03-03 01:00","2023","03","03","01:00","0.2","","-5.2","","67","","","","17","","5","","64.4","","96.66","","","","","","Mostly Cloudy"
"-120.45","50.70","KAMLOOPS A","1163781","2023-03-03 02:00","2023","03","03","02:00","-1.3","","-5.7","","72","","","","31","","5","","64.4","","96.67","","","","-3","","NA"
"-120.45","50.70","KAMLOOPS A","1163781","2023-03-03 03:00","2023","03","03","03:00","-1.5","","-5.5","","74","","","","25","","7","","64.4","","96.67","","","","-4","","NA"
"-120.45","50.70","KAMLOOPS A","1163781","2023-03-03 04:00","2023","03","03","04:00","0.0","","-6.5","","62","","","","36","","9","","64.4","","96.68","","","","-3","","Cloudy"
"-120.45","50.70","KAMLOOPS A","1163781","2023-03-03 05:00","2023","03","03","05:00","-1.2","","-6.4","","68","","","","31","","6","","64.4","","96.71","","","","-3","","NA"
"-120.45","50.70","KAMLOOPS A","1163781","2023-03-03 06:00","2023","03","03","06:00","-1.6","","-5.6","","74","","","","22","","4","","64.4","","96.72","","","","-3","","NA"
"-120.45","50.70","KAMLOOPS A","1163781","2023-03-03 07:00","2023","03","03","07:00","-2.2","","-6.1","","75","","","","36","","7","","64.4","","96.72","","","","-5","","Mostly Cloudy"
"-120.45","50.70","KAMLOOPS A","1163781","2023-03-03 08:00","2023","03","03","08:00","-1.2","","-5.0","","75","","","","36","","2","","64.4","","96.74","","","","-2","","NA"
"-120.45","50.70","KAMLOOPS A","1163781","2023-03-03 09:00","2023","03","03","09:00","0.8","","-5.4","","63","","","","36","","3","","64.4","","96.73","","","","","","NA"
"-120.45","50.70","KAMLOOPS A","1163781","2023-03-03 10:00","2023","03","03","10:00","2.6","","-5.5","","55","","","","19","","5","","64.4","","96.73","","","","","","Mainly Clear"
"-120.45","50.70","KAMLOOPS A","1163781","2023-03-03 11:00","2023","03","03","11:00","4.6","","-7.8","","40","","","","10","","10","","64.4","","96.66","","","","","","NA"
"-120.45","50.70","KAMLOOPS A","1163781","2023-03-03 12:00","2023","03","03","12:00","5.3","","-7.8","","38","","","","10","","4","","64.4","","96.61","","","","","","NA"
"-120.45","50.70","KAMLOOPS A","1163781","2023-03-03 13:00","2023","03","03","13:00","5.4","","-9.0","","35","","","","30","","7","","64.4","","96.55","","","","","","Mostly Cloudy"
"-120.45","50.70","KAMLOOPS A","1163781","2023-03-03 14:00","2023","03","03","14:00","6.3","","-10.1","","30","","","","35","","8","","64.4","","96.51","","","","","","NA"
"-120.45","50.70","KAMLOOPS A","1163781","2023-03-03 15:00","2023","03","03","15:00","6.5","","-11.2","","27","","","","30","","4","","64.4","","96.49","","","","","","NA"
"-120.45","50.70","KAMLOOPS A","1163781","2023-03-03 16:00","2023","03","03","16:00","5.4","","-11.0","","30","","","","29","","4","","64.4","","96.48","","","","","","Mostly Cloudy"
"-120.45","50.70","KAMLOOPS A","1163781","2023-03-03 17:00","2023","03","03","17:00","3.9","","-7.1","","45","","","","18","","4","","64.4","","96.47","","","","","","NA"
"-120.45","50.70","KAMLOOPS A","1163781","2023-03-03 18:00","2023","03","03","18:00","2.6","","-8.6","","44","","","","","","0","","64.4","","96.48","","","","","","NA"
"-120.45","50.70","KAMLOOPS A","1163781","2023-03-03 19:00","2023","03","03","19:00","1.8","","-8.0","","48","","","","8","","14","","64.4","","96.50","","","","","","Cloudy"
"-120.45","50.70","KAMLOOPS A","1163781","2023-03-03 20:00","2023","03","03","20:00","1.2","","-8.1","","50","","","","29","","5","","64.4","","96.52","","","","","","NA"
"-120.45","50.70","KAMLOOPS A","1163781","2023-03-03 21:00","2023","03","03","21:00","-0.2","","-6.6","","62","","","","36","","2","","64.4","","96.55","","","","-1","","NA"
"-120.45","50.70","KAMLOOPS A","1163781","2023-03-03 22:00","2023","03","03","22:00","-0.1","","-6.8","","61","","","","11","","16","","64.4","","96.57","","","","-5","","Mostly Cloudy"
"-120.45","50.70","KAMLOOPS A","1163781","2023-03-03 23:00","2023","03","03","23:00","-0.2","","-6.8","","61","","","","11","","16","","64.4","","96.58","","","","-5","","NA"
"-120.45","50.70","KAMLOOPS A","1163781","2023-03-04 00:00","2023","03","04","00:00","-0.4","","-7.3","","60","","","","11","","21","","64.4","","96.59","","","","-6","","NA"
"-120.45","50.70","KAMLOOPS A","1163781","2023-03-04 01:00","2023","03","04","01:00","-0.7","","-6.6","","65","","","","11","","21","","64.4","","96.59","","","","-6","","Mostly Cloudy"
"-120.45","50.70","KAMLOOPS A","1163781","2023-03-04 02:00","2023","03","04","02:00","-1.2","","-7.2","","64","","","","11","","23","","64.4","","96.59","","","","-7","","NA"
"-120.45","50.70","KAMLOOPS A","1163781","2023-03-04 03:00","2023","03","04","03:00","-1.8","","-7.5","","65","","","","11","","17","","64.4","","96.59","","","","-7","","NA"
"-120.45","50.70","KAMLOOPS A","1163781","2023-03-04 04:00","2023","03","04","04:00","-2.6","","-7.2","","70","","","","13","","10","","64.4","","96.59","","","","-6","","Mostly Cloudy"
"-120.45","50.70","KAMLOOPS A","1163781","2023-03-04 05:00","2023","03","04","05:00","-2.8","","-7.9","","68","","","","14","","17","","64.4","","96.59","","","","-8","","NA"
"-120.45","50.70","KAMLOOPS A","1163781","2023-03-04 06:00","2023","03","04","06:00","-3.3","","-7.9","","71","","","","13","","15","","64.4","","96.62","","","","-8","","NA"
"-120.45","50.70","KAMLOOPS A","1163781","2023-03-04 07:00","2023","03","04","07:00","-3.5","","-8.2","","71","","","","13","","16","","64.4","","96.61","","","","-9","","Mostly Cloudy"
"-120.45","50.70","KAMLOOPS A","1163781","2023-03-04 08:00","2023","03","04","08:00","-3.3","","-8.3","","68","","","","11","","16","","64.4","","96.59","","","","-9","","NA"
"-120.45","50.70","KAMLOOPS A","1163781","2023-03-04 09:00","2023","03","04","09:00","-2.8","","-7.9","","68","","","","11","","12","","64.4","","96.60","","","","-7","","NA"
"-120.45","50.70","KAMLOOPS A","1163781","2023-03-04 10:00","2023","03","04","10:00","-2.0","","-7.6","","65","","","","11","","11","","64.4","","96.56","","","","-6","","Cloudy"
"-120.45","50.70","KAMLOOPS A","1163781","2023-03-04 11:00","2023","03","04","11:00","-0.7","","-6.9","","63","","","","12","","11","","64.4","","96.54","","","","-4","","NA"
"-120.45","50.70","KAMLOOPS A","1163781","2023-03-04 12:00","2023","03","04","12:00","0.4","","-7.1","","57","","","","13","","14","","48.3","","96.48","","","","","","NA"
"-120.45","50.70","KAMLOOPS A","1163781","2023-03-04 13:00","2023","03","04","13:00","1.6","","-6.6","","55","","","","11","","17","","48.3","","96.39","","","","","","Cloudy"
"-120.45","50.70","KAMLOOPS A","1163781","2023-03-04 14:00","2023","03","04","14:00","2.8","","-5.4","","55","","","","8","","20","","64.4","","96.32","","","","","","NA"
"-120.45","50.70","KAMLOOPS A","1163781","2023-03-04 15:00","2023","03","04","15:00","2.8","","-5.1","","56","","","","14","","11","","64.4","","96.30","","","","","","NA"
"-120.45","50.70","KAMLOOPS A","1163781","2023-03-04 16:00","2023","03","04","16:00","3.1","","-5.2","","55","","","","13","","9","","64.4","","96.27","","","","","","Cloudy"
"-120.45","50.70","KAMLOOPS A","1163781","2023-03-04 17:00","2023","03","04","17:00","2.9","","-5.1","","56","","","","14","","13","","64.4","","96.28","","","","","","NA"
"-120.45","50.70","KAMLOOPS A","1163781","2023-03-04 18:00","2023","03","04","18:00","2.7","","-5.2","","56","","","","13","","9","","64.4","","96.29","","","","","","NA"
"-120.45","50.70","KAMLOOPS A","1163781","2023-03-04 19:00","2023","03","04","19:00","1.8","","-4.2","","64","","","","9","","9","","64.4","","96.33","","","","","","Cloudy"
"-120.45","50.70","KAMLOOPS A","1163781","2023-03-04 20:00","2023","03","04","20:00","1.9","","-4.1","","65","","","","11","","7","","64.4","","96.36","","","","","","NA"
"-120.45","50.70","KAMLOOPS A","1163781","2023-03-04 21:00","2023","03","04","21:00","1.4","","-4.0","","68","","","","10","","11","","64.4","","96.40","","","","","","NA"
"-120.45","50.70","KAMLOOPS A","1163781","2023-03-04 22:00","2023","03","04","22:00","1.7","","-4.3","","64","","","","11","","13","","64.4","","96.43","","","","","","Cloudy"
"-120.45","50.70","KAMLOOPS A","1163781","2023-03-04 23:00","2023","03","04","23:00","1.9","","-4.5","","62","","","","12","","8","","64.4","","96.47","","","","","","NA"
"-120.45","50.70","KAMLOOPS A","1163781","2023-03-05 00:00","2023","03","05","00:00","1.3","","-4.0","","68","","","","11","","13","","64.4","","96.52","","","","","","NA"
"-120.45","50.70","KAMLOOPS A","1163781","2023-03-05 01:00","2023","03","05","01:00","1.5","","-4.8","","63","","","","12","","9","","64.4","","96.56","","","","","","Cloudy"
"-120.45","50.70","KAMLOOPS A","1163781","2023-03-05 02:00","2023","03","05","02:00","0.5","","-4.4","","69","","","","11","","13","","64.4","","96.59","","","","","","NA"
"-120.45","50.70","KAMLOOPS A","1163781","2023-03-05 03:00","2023","03","05","03:00","0.0","","-3.8","","76","","","","11","","14","","64.4","","96.62","","","","-4","","NA"
"-120.45","50.70","KAMLOOPS A","1163781","2023-03-05 04:00","2023","03","05","04:00","-0.4","","-4.5","","74","","","","12","","9","","64.4","","96.67","","","","-4","","Mostly Cloudy"
"-120.45","50.70","KAMLOOPS A","1163781","2023-03-05 05:00","2023","03","05","05:00","0.0","","-5.3","","68","","","","12","","7","","64.4","","96.71","","","","-2","","NA"
"-120.45","50.70","KAMLOOPS A","1163781","2023-03-05 06:00","2023","03","05","06:00","-1.1","","-4.8","","76","","","","24","","3","","64.4","","96.75","","","","-2","","NA"
"-120.45","50.70","KAMLOOPS A","1163781","2023-03-05 07:00","2023","03","05","07:00","0.1","","-6.5","","61","","","","36","","1","","64.4","","96.77","","","","","","Cloudy"
"-120.45","50.70","KAMLOOPS A","1163781","2023-03-05 08:00","2023","03","05","08:00","-0.5","","-6.1","","66","","","","26","","3","","64.4","","96.84","","","","-1","","NA"
"-120.45","50.70","KAMLOOPS A","1163781","2023-03-05 09:00","2023","03","05","09:00","0.5","","-5.2","","66","","","","24","","8","","64.4","","96.89","","","","","","NA"
"-120.45","50.70","KAMLOOPS A","1163781","2023-03-05 10:00","2023","03","05","10:00","1.4","","-6.2","","57","","","","27","","5","","64.4","","96.91","","","","","","Mostly Cloudy"
"-120.45","50.70","KAMLOOPS A","1163781","2023-03-05 11:00","2023","03","05","11:00","2.0","","-6.8","","52","","","","30","","8","","64.4","","96.92","","","","","","NA"
"-120.45","50.70","KAMLOOPS A","1163781","2023-03-05 12:00","2023","03","05","12:00","2.8","","-6.9","","49","","","","32","","9","","64.4","","96.93","","","","","","NA"
"-120.45","50.70","KAMLOOPS A","1163781","2023-03-05 13:00","2023","03","05","13:00","3.5","","-7.9","","43","","","","21","","5","","64.4","","96.90","","","","","","Mostly Cloudy"
"-120.45","50.70","KAMLOOPS A","1163781","2023-03-05 14:00","2023","03","05","14:00","4.1","","-6.4","","46","","","","30","","8","","64.4","","96.90","","","","","","NA"
"-120.45","50.70","KAMLOOPS A","1163781","2023-03-05 15:00","2023","03","05","15:00","3.9","","-6.1","","48","","","","29","","9","","64.4","","96.93","","","","","","NA"
"-120.45","50.70","KAMLOOPS A","1163781","2023-03-05 16:00","2023","03","05","16:00","3.1","","-6.2","","51","","","","29","","9","","64.4","","96.97","","","","","","Cloudy"
"-120.45","50.70","KAMLOOPS A","1163781","2023-03-05 17:00","2023","03","05","17:00","2.8","","-3.6","","63","","","","29","","14","","64.4","","97.01","","","","","","NA"
"-120.45","50.70","KAMLOOPS A","1163781","2023-03-05 18:00","2023","03","05","18:00","2.4","","-3.2","","67","","","","29","","22","","64.4","","97.07","","","","","","NA"
"-120.45","50.70","KAMLOOPS A","1163781","2023-03-05 19:00","2023","03","05","19:00","1.4","","-3.5","","70","","","","27","","21","","64.4","","97.15","","","","","","Mostly Cloudy"
"-120.45","50.70","KAMLOOPS A","1163781","2023-03-05 20:00","2023","03","05","20:00","0.8","","-4.1","","70","","","","27","","22","","64.4","","97.21","","","","","","NA"
"-120.45","50.70","KAMLOOPS A","1163781","2023-03-05 21:00","2023","03","05","21:00","-0.1","","-5.3","","68","","","","27","","25","","64.4","","97.26","","","","-6","","NA"
"-120.45","50.70","KAMLOOPS A","1163781","2023-03-05 22:00","2023","03","05","22:00","-0.4","","-5.8","","67","","","","28","","27","","64.4","","97.34","","","","-7","","Mostly Cloudy"
"-120.45","50.70","KAMLOOPS A","1163781","2023-03-05 23:00","2023","03","05","23:00","-1.0","","-7.2","","63","","","","28","","32","","64.4","","97.38","","","","-8","","NA"
"-120.45","50.70","KAMLOOPS A","1163781","2023-03-06 00:00","2023","03","06","00:00","-1.3","","-7.6","","63","","","","27","","33","","64.4","","97.45","","","","-8","","NA"
"-120.45","50.70","KAMLOOPS A","1163781","2023-03-06 01:00","2023","03","06","01:00","-1.8","","-8.4","","61","","","","27","","36","","64.4","","97.50","","","","-9","","Mostly Cloudy"
"-120.45","50.70","KAMLOOPS A","1163781","2023-03-06 02:00","2023","03","06","02:00","-1.9","","-8.2","","62","","","","27","","22","","64.4","","97.57","","","","-8","","NA"
"-120.45","50.70","KAMLOOPS A","1163781","2023-03-06 03:00","2023","03","06","03:00","-2.3","","-8.6","","62","","","","27","","29","","24.1","","97.58","","","","-9","","Snow"
"-120.45","50.70","KAMLOOPS A","1163781","2023-03-06 04:00","2023","03","06","04:00","-2.6","","-8.4","","64","","","","28","","29","","32.2","","97.62","","","","-10","","Cloudy"
"-120.45","50.70","KAMLOOPS A","1163781","2023-03-06 05:00","2023","03","06","05:00","-2.9","","-8.7","","64","","","","28","","28","","32.2","","97.66","","","","-10","","Snow"
"-120.45","50.70","KAMLOOPS A","1163781","2023-03-06 06:00","2023","03","06","06:00","-2.9","","-8.9","","64","","","","27","","23","","48.3","","97.70","","","","-9","","NA"
"-120.45","50.70","KAMLOOPS A","1163781","2023-03-06 07:00","2023","03","06","07:00","-3.2","","-8.7","","66","","","","25","","22","","48.3","","97.74","","","","-10","","Snow"
"-120.45","50.70","KAMLOOPS A","1163781","2023-03-06 08:00","2023","03","06","08:00","-3.1","","-8.4","","67","","","","27","","22","","64.4","","97.81","","","","-9","","Snow"
"-120.45","50.70","KAMLOOPS A","1163781","2023-03-06 09:00","2023","03","06","09:00","-2.5","","-8.7","","63","","","","26","","17","","64.4","","97.83","","","","-8","","NA"
"-120.45","50.70","KAMLOOPS A","1163781","2023-03-06 10:00","2023","03","06","10:00","-1.9","","-8.6","","61","","","","29","","16","","64.4","","97.82","","","","-7","","Mostly Cloudy"
"-120.45","50.70","KAMLOOPS A","1163781","2023-03-06 11:00","2023","03","06","11:00","-0.8","","-8.0","","58","","","","30","","7","","64.4","","97.82","","","","-3","","NA"
"-120.45","50.70","KAMLOOPS A","1163781","2023-03-06 12:00","2023","03","06","12:00","0.0","","-7.2","","58","","","","24","","6","","64.4","","97.79","","","","-2","","NA"
"-120.45","50.70","KAMLOOPS A","1163781","2023-03-06 13:00","2023","03","06","13:00","0.5","","-7.1","","57","","","","30","","7","","64.4","","97.75","","","","","","Cloudy"
"-120.45","50.70","KAMLOOPS A","1163781","2023-03-06 14:00","2023","03","06","14:00","1.2","","-6.5","","56","","","","36","","2","","64.4","","97.70","","","","","","NA"
"-120.45","50.70","KAMLOOPS A","1163781","2023-03-06 15:00","2023","03","06","15:00","3.0","","-5.2","","55","","","","31","","4","","64.4","","97.67","","","","","","NA"
"-120.45","50.70","KAMLOOPS A","1163781","2023-03-06 16:00","2023","03","06","16:00","3.3","","-5.0","","55","","","","29","","5","","64.4","","97.64","","","","","","Mainly Clear"
"-120.45","50.70","KAMLOOPS A","1163781","2023-03-06 17:00","2023","03","06","17:00","3.1","","-5.3","","54","","","","32","","6","","64.4","","97.64","","","","","","NA"
"-120.45","50.70","KAMLOOPS A","1163781","2023-03-06 18:00","2023","03","06","18:00","1.1","","-4.9","","64","","","","21","","3","","64.4","","97.65","","","","","","NA"
"-120.45","50.70","KAMLOOPS A","1163781","2023-03-06 19:00","2023","03","06","19:00","0.0","","-5.1","","69","","","","33","","4","","64.4","","97.69","","","","-1","","Mainly Clear"
"-120.45","50.70","KAMLOOPS A","1163781","2023-03-06 20:00","2023","03","06","20:00","-0.1","","-5.1","","69","","","","20","","4","","64.4","","97.70","","","","-1","","NA"
"-120.45","50.70","KAMLOOPS A","1163781","2023-03-06 21:00","2023","03","06","21:00","-1.5","","-5.3","","75","","","","31","","3","","64.4","","97.75","","","","-3","","NA"
"-120.45","50.70","KAMLOOPS A","1163781","2023-03-06 22:00","2023","03","06","22:00","-1.8","","-5.1","","78","","","","36","","1","","64.4","","97.77","","","","-2","","Mainly Clear"
"-120.45","50.70","KAMLOOPS A","1163781","2023-03-06 23:00","2023","03","06","23:00","-2.1","","-6.1","","74","","","","24","","7","","64.4","","97.83","","","","-5","","NA"
"-120.45","50.70","KAMLOOPS A","1163781","2023-03-07 00:00","2023","03","07","00:00","-2.0","","-6.2","","73","","","","27","","3","","64.4","","97.84","","","","-3","","NA"
"-120.45","50.70","KAMLOOPS A","1163781","2023-03-07 01:00","2023","03","07","01:00","-2.6","","-5.5","","80","","","","6","","5","","64.4","","97.87","","","","-5","","Mostly Cloudy"
"-120.45","50.70","KAMLOOPS A","1163781","2023-03-07 02:00","2023","03","07","02:00","-2.4","","-5.4","","80","","","","36","","1","","64.4","","97.91","","","","-3","","NA"
"-120.45","50.70","KAMLOOPS A","1163781","2023-03-07 03:00","2023","03","07","03:00","-2.5","","-6.3","","75","","","","28","","5","","64.4","","97.92","","","","-4","","NA"
"-120.45","50.70","KAMLOOPS A","1163781","2023-03-07 04:00","2023","03","07","04:00","-4.2","","-6.7","","83","","","","26","","5","","64.4","","97.92","","","","-6","","Mainly Clear"
"-120.45","50.70","KAMLOOPS A","1163781","2023-03-07 05:00","2023","03","07","05:00","-4.2","","-6.8","","82","","","","24","","7","","64.4","","97.95","","","","-7","","NA"
"-120.45","50.70","KAMLOOPS A","1163781","2023-03-07 06:00","2023","03","07","06:00","-5.1","","-7.8","","81","","","","26","","7","","64.4","","97.97","","","","-8","","NA"
"-120.45","50.70","KAMLOOPS A","1163781","2023-03-07 07:00","2023","03","07","07:00","-4.6","","-7.7","","79","","","","24","","6","","64.4","","97.99","","","","-7","","Mainly Clear"
"-120.45","50.70","KAMLOOPS A","1163781","2023-03-07 08:00","2023","03","07","08:00","-3.3","","-6.8","","76","","","","25","","5","","64.4","","98.02","","","","-5","","NA"
"-120.45","50.70","KAMLOOPS A","1163781","2023-03-07 09:00","2023","03","07","09:00","-2.5","","-6.8","","72","","","","27","","6","","64.4","","98.01","","","","-5","","NA"
"-120.45","50.70","KAMLOOPS A","1163781","2023-03-07 10:00","2023","03","07","10:00","-0.9","","-6.2","","67","","","","36","","3","","64.4","","97.96","","","","-2","","Mainly Clear"
"-120.45","50.70","KAMLOOPS A","1163781","2023-03-07 11:00","2023","03","07","11:00","1.3","","-5.8","","59","","","","12","","5","","64.4","","97.89","","","","","","NA"
"-120.45","50.70","KAMLOOPS A","1163781","2023-03-07 12:00","2023","03","07","12:00","2.9","","-5.3","","55","","","","18","","3","","64.4","","97.81","","","","","","NA"
"-120.45","50.70","KAMLOOPS A","1163781","2023-03-07 13:00","2023","03","07","13:00","4.4","","-5.0","","50","","","","14","","5","","80.5","","97.72","","","","","","Mostly Cloudy"
"-120.45","50.70","KAMLOOPS A","1163781","2023-03-07 14:00","2023","03","07","14:00","5.7","","-4.4","","48","","","","22","","4","","64.4","","97.65","","","","","","NA"
"-120.45","50.70","KAMLOOPS A","1163781","2023-03-07 15:00","2023","03","07","15:00","6.9","","-3.4","","48","","","","26","","3","","64.4","","97.58","","","","","","NA"
"-120.45","50.70","KAMLOOPS A","1163781","2023-03-07 16:00","2023","03","07","16:00","6.9","","-5.2","","42","","","","9","","14","","64.4","","97.53","","","","","","Mainly Clear"
"-120.45","50.70","KAMLOOPS A","1163781","2023-03-07 17:00","2023","03","07","17:00","5.6","","-5.8","","44","","","","8","","12","","64.4","","97.49","","","","","","NA"
"-120.45","50.70","KAMLOOPS A","1163781","2023-03-07 18:00","2023","03","07","18:00","3.9","","-5.7","","50","","","","36","","3","","64.4","","97.51","","","","","","NA"
"-120.45","50.70","KAMLOOPS A","1163781","2023-03-07 19:00","2023","03","07","19:00","2.2","","-6.1","","54","","","","36","","1","","64.4","","97.55","","","","","","Mainly Clear"
"-120.45","50.70","KAMLOOPS A","1163781","2023-03-07 20:00","2023","03","07","20:00","2.0","","-5.8","","57","","","","6","","14","","64.4","","97.57","","","","","","NA"
"-120.45","50.70","KAMLOOPS A","1163781","2023-03-07 21:00","2023","03","07","21:00","2.1","","-6.8","","52","","","","9","","4","","64.4","","97.61","","","","","","NA"
"-120.45","50.70","KAMLOOPS A","1163781","2023-03-07 22:00","2023","03","07","22:00","1.1","","-5.4","","62","","","","11","","7","","64.4","","97.62","","","","","","Mostly Cloudy"
"-120.45","50.70","KAMLOOPS A","1163781","2023-03-07 23:00","2023","03","07","23:00","0.6","","-5.4","","64","","","","10","","17","","64.4","","97.62","","","","","","NA"
"-120.45","50.70","KAMLOOPS A","1163781","2023-03-08 00:00","2023","03","08","00:00","-0.2","","-5.9","","66","","","","8","","12","","64.4","","97.64","","","","-4","","NA"
"-120.45","50.70","KAMLOOPS A","1163781","2023-03-08 01:00","2023","03","08","01:00","-0.4","","-6.0","","66","","","","9","","17","","64.4","","97.64","","","","-5","","Mainly Clear"
"-120.45","50.70","KAMLOOPS A","1163781","2023-03-08 02:00","2023","03","08","02:00","-0.4","","-5.9","","67","","","","9","","16","","64.4","","97.66","","","","-5","","NA"
"-120.45","50.70","KAMLOOPS A","1163781","2023-03-08 03:00","2023","03","08","03:00","-1.5","","-5.9","","72","","","","10","","17","","64.4","","97.66","","","","-7","","NA"
"-120.45","50.70","KAMLOOPS A","1163781","2023-03-08 04:00","2023","03","08","04:00","-0.9","","-5.3","","72","","","","12","","16","","64.4","","97.68","","","","-6","","Clear"
"-120.45","50.70","KAMLOOPS A","1163781","2023-03-08 05:00","2023","03","08","05:00","-1.2","","-6.8","","66","","","","11","","18","","64.4","","97.71","","","","-6","","NA"
"-120.45","50.70","KAMLOOPS A","1163781","2023-03-08 06:00","2023","03","08","06:00","-1.2","","-6.6","","67","","","","12","","10","","64.4","","97.73","","","","-5","","NA"
"-120.45","50.70","KAMLOOPS A","1163781","2023-03-08 07:00","2023","03","08","07:00","-1.4","","-7.0","","66","","","","13","","12","","64.4","","97.76","","","","-5","","Mainly Clear"
"-120.45","50.70","KAMLOOPS A","1163781","2023-03-08 08:00","2023","03","08","08:00","-0.5","","-6.5","","64","","","","10","","13","","64.4","","97.78","","","","-5","","NA"
"-120.45","50.70","KAMLOOPS A","1163781","2023-03-08 09:00","2023","03","08","09:00","0.1","","-6.8","","60","","","","13","","12","","64.4","","97.77","","","","","","NA"
"-120.45","50.70","KAMLOOPS A","1163781","2023-03-08 10:00","2023","03","08","10:00","1.8","","-7.0","","52","","","","11","","13","","64.4","","97.73","","","","","","Mainly Clear"
"-120.45","50.70","KAMLOOPS A","1163781","2023-03-08 11:00","2023","03","08","11:00","3.1","","-6.9","","48","","","","11","","12","","64.4","","97.68","","","","","","NA"
"-120.45","50.70","KAMLOOPS A","1163781","2023-03-08 12:00","2023","03","08","12:00","5.0","","-6.6","","43","","","","12","","10","","64.4","","97.62","","","","","","NA"
"-120.45","50.70","KAMLOOPS A","1163781","2023-03-08 13:00","2023","03","08","13:00","5.9","","-7.0","","39","","","","16","","7","","64.4","","97.54","","","","","","Clear"
"-120.45","50.70","KAMLOOPS A","1163781","2023-03-08 14:00","2023","03","08","14:00","7.2","","-7.3","","35","","","","13","","3","","64.4","","97.47","","","","","","NA"
"-120.45","50.70","KAMLOOPS A","1163781","2023-03-08 15:00","2023","03","08","15:00","7.9","","-6.4","","36","","","","22","","8","","64.4","","97.44","","","","","","NA"
"-120.45","50.70","KAMLOOPS A","1163781","2023-03-08 16:00","2023","03","08","16:00","8.1","","-7.6","","32","","","","21","","5","","64.4","","97.41","","","","","","Clear"
"-120.45","50.70","KAMLOOPS A","1163781","2023-03-08 17:00","2023","03","08","17:00","7.8","","-6.6","","35","","","","19","","5","","64.4","","97.39","","","","","","NA"
"-120.45","50.70","KAMLOOPS A","1163781","2023-03-08 18:00","2023","03","08","18:00","4.8","","-5.9","","46","","","","33","","9","","64.4","","97.42","","","","","","NA"
"-120.45","50.70","KAMLOOPS A","1163781","2023-03-08 19:00","2023","03","08","19:00","3.3","","-6.2","","50","","","","1","","5","","64.4","","97.48","","","","","","Mostly Cloudy"
"-120.45","50.70","KAMLOOPS A","1163781","2023-03-08 20:00","2023","03","08","20:00","2.7","","-6.2","","52","","","","36","","1","","64.4","","97.54","","","","","","NA"
"-120.45","50.70","KAMLOOPS A","1163781","2023-03-08 21:00","2023","03","08","21:00","1.4","","-5.1","","62","","","","36","","1","","64.4","","97.59","","","","","","NA"
"-120.45","50.70","KAMLOOPS A","1163781","2023-03-08 22:00","2023","03","08","22:00","0.7","","-4.9","","66","","","","12","","4","","64.4","","97.62","","","","","","Mostly Cloudy"
"-120.45","50.70","KAMLOOPS A","1163781","2023-03-08 23:00","2023","03","08","23:00","0.6","","-4.8","","67","","","","24","","5","","64.4","","97.63","","","","","","NA"
"-120.45","50.70","KAMLOOPS A","1163781","2023-03-09 00:00","2023","03","09","00:00","-0.1","","-5.0","","70","","","","18","","5","","64.4","","97.67","","","","-2","","NA"
"-120.45","50.70","KAMLOOPS A","1163781","2023-03-09 01:00","2023","03","09","01:00","-1.4","","-5.4","","74","","","","9","","4","","64.4","","97.70","","","","-3","","Mostly Cloudy"
"-120.45","50.70","KAMLOOPS A","1163781","2023-03-09 02:00","2023","03","09","02:00","-1.4","","-6.1","","71","","","","36","","1","","64.4","","97.74","","","","-2","","NA"
"-120.45","50.70","KAMLOOPS A","1163781","2023-03-09 03:00","2023","03","09","03:00","-2.4","","-5.3","","81","","","","10","","3","","64.4","","97.74","","","","-4","","NA"
"-120.45","50.70","KAMLOOPS A","1163781","2023-03-09 04:00","2023","03","09","04:00","-2.9","","-6.4","","77","","","","24","","4","","64.4","","97.75","","","","-4","","Mainly Clear"
"-120.45","50.70","KAMLOOPS A","1163781","2023-03-09 05:00","2023","03","09","05:00","-3.2","","-6.7","","77","","","","31","","7","","64.4","","97.75","","","","-6","","NA"
"-120.45","50.70","KAMLOOPS A","1163781","2023-03-09 06:00","2023","03","09","06:00","-3.4","","-7.1","","76","","","","31","","4","","64.4","","97.76","","","","-5","","NA"
"-120.45","50.70","KAMLOOPS A","1163781","2023-03-09 07:00","2023","03","09","07:00","-3.3","","-6.5","","78","","","","36","","3","","64.4","","97.75","","","","-5","","Mostly Cloudy"
"-120.45","50.70","KAMLOOPS A","1163781","2023-03-09 08:00","2023","03","09","08:00","-1.9","","-7.0","","69","","","","36","","1","","64.4","","97.76","","","","-2","","NA"
"-120.45","50.70","KAMLOOPS A","1163781","2023-03-09 09:00","2023","03","09","09:00","-0.3","","-7.8","","57","","","","8","","8","","64.4","","97.74","","","","-3","","NA"
"-120.45","50.70","KAMLOOPS A","1163781","2023-03-09 10:00","2023","03","09","10:00","0.4","","-8.3","","52","","","","13","","4","","64.4","","97.70","","","","","","Mostly Cloudy"
"-120.45","50.70","KAMLOOPS A","1163781","2023-03-09 11:00","2023","03","09","11:00","1.4","","-8.4","","48","","","","12","","5","","64.4","","97.63","","","","","","NA"
"-120.45","50.70","KAMLOOPS A","1163781","2023-03-09 12:00","2023","03","09","12:00","2.9","","-7.9","","45","","","","11","","9","","64.4","","97.51","","","","","","NA"
"-120.45","50.70","KAMLOOPS A","1163781","2023-03-09 13:00","2023","03","09","13:00","5.1","","-7.2","","41","","","","11","","8","","64.4","","97.38","","","","","","Mostly Cloudy"
"-120.45","50.70","KAMLOOPS A","1163781","2023-03-09 14:00","2023","03","09","14:00","5.8","","-6.7","","40","","","","12","","13","","64.4","","97.26","","","","","","NA"
"-120.45","50.70","KAMLOOPS A","1163781","2023-03-09 15:00","2023","03","09","15:00","6.2","","-6.7","","39","","","","10","","13","","64.4","","97.18","","","","","","NA"
"-120.45","50.70","KAMLOOPS A","1163781","2023-03-09 16:00","2023","03","09","16:00","6.8","","-6.2","","39","","","","11","","5","","64.4","","97.05","","","","","","Mostly Cloudy"
"-120.45","50.70","KAMLOOPS A","1163781","2023-03-09 17:00","2023","03","09","17:00","6.6","","-6.3","","39","","","","14","","15","","64.4","","96.99","","","","","","NA"
"-120.45","50.70","KAMLOOPS A","1163781","2023-03-09 18:00","2023","03","09","18:00","6.1","","-6.7","","39","","","","13","","14","","64.4","","96.92","","","","","","NA"
"-120.45","50.70","KAMLOOPS A","1163781","2023-03-09 19:00","2023","03","09","19:00","4.7","","-6.4","","45","","","","9","","11","","56.3","","96.87","","","","","","Cloudy"
"-120.45","50.70","KAMLOOPS A","1163781","2023-03-09 20:00","2023","03","09","20:00","4.2","","-6.6","","45","","","","9","","15","","64.4","","96.82","","","","","","NA"
"-120.45","50.70","KAMLOOPS A","1163781","2023-03-09 21:00","2023","03","09","21:00","3.9","","-6.5","","47","","","","9","","10","","64.4","","96.76","","","","","","NA"
"-120.45","50.70","KAMLOOPS A","1163781","2023-03-09 22:00","2023","03","09","22:00","3.0","","-5.9","","52","","","","10","","14","","64.4","","96.69","","","","","","Mostly Cloudy"
"-120.45","50.70","KAMLOOPS A","1163781","2023-03-09 23:00","2023","03","09","23:00","1.8","","-6.7","","54","","","","6","","9","","64.4","","96.58","","","","","","NA"
"-120.45","50.70","KAMLOOPS A","1163781","2023-03-10 00:00","2023","03","10","00:00","0.7","","-6.3","","60","","","","18","","3","","64.4","","96.49","","","","","","NA"
"-120.45","50.70","KAMLOOPS A","1163781","2023-03-10 01:00","2023","03","10","01:00","1.3","","-7.0","","54","","","","1","","3","","64.4","","96.38","","","","","","Mostly Cloudy"
"-120.45","50.70","KAMLOOPS A","1163781","2023-03-10 02:00","2023","03","10","02:00","0.5","","-6.1","","61","","","","36","","2","","64.4","","96.25","","","","","","NA"
"-120.45","50.70","KAMLOOPS A","1163781","2023-03-10 03:00","2023","03","10","03:00","0.2","","-5.3","","66","","","","36","","1","","64.4","","96.11","","","","","","NA"
"-120.45","50.70","KAMLOOPS A","1163781","2023-03-10 04:00","2023","03","10","04:00","1.0","","-6.8","","56","","","","8","","3","","64.4","","96.02","","","","","","Cloudy"
"-120.45","50.70","KAMLOOPS A","1163781","2023-03-10 05:00","2023","03","10","05:00","0.7","","-6.2","","60","","","","10","","13","","64.4","","95.94","","","","","","NA"
"-120.45","50.70","KAMLOOPS A","1163781","2023-03-10 06:00","2023","03","10","06:00","1.0","","-6.9","","56","","","","13","","4","","64.4","","95.88","","","","","","NA"
"-120.45","50.70","KAMLOOPS A","1163781","2023-03-10 07:00","2023","03","10","07:00","0.8","","-6.5","","58","","","","7","","4","","64.4","","95.84","","","","","","Mostly Cloudy"
"-120.45","50.70","KAMLOOPS A","1163781","2023-03-10 08:00","2023","03","10","08:00","1.3","","-7.4","","52","","","","12","","10","","64.4","","95.83","","","","","","NA"
"-120.45","50.70","KAMLOOPS A","1163781","2023-03-10 09:00","2023","03","10","09:00","2.0","","-7.9","","48","","","","14","","7","","64.4","","95.79","","","","","","NA"
"-120.45","50.70","KAMLOOPS A","1163781","2023-03-10 10:00","2023","03","10","10:00","2.8","","-7.8","","46","","","","28","","13","","64.4","","95.76","","","","","","Mostly Cloudy"
"-120.45","50.70","KAMLOOPS A","1163781","2023-03-10 11:00","2023","03","10","11:00","3.2","","-7.4","","46","","","","30","","11","","64.4","","95.77","","","","","","NA"
"-120.45","50.70","KAMLOOPS A","1163781","2023-03-10 12:00","2023","03","10","12:00","4.5","","-7.3","","42","","","","25","","8","","64.4","","95.74","","","","","","NA"
"-120.45","50.70","KAMLOOPS A","1163781","2023-03-10 13:00","2023","03","10","13:00","5.5","","-9.0","","35","","","","24","","6","","64.4","","95.72","","","","","","Mostly Cloudy"
"-120.45","50.70","KAMLOOPS A","1163781","2023-03-10 14:00","2023","03","10","14:00","5.8","","-8.2","","36","","","","27","","8","","64.4","","95.72","","","","","","NA"
"-120.45","50.70","KAMLOOPS A","1163781","2023-03-10 15:00","2023","03","10","15:00","6.1","","-7.6","","37","","","","28","","15","","64.4","","95.78","","","","","","NA"
"-120.45","50.70","KAMLOOPS A","1163781","2023-03-10 16:00","2023","03","10","16:00","5.6","","-7.4","","39","","","","27","","12","","64.4","","95.85","","","","","","Cloudy"
"-120.45","50.70","KAMLOOPS A","1163781","2023-03-10 17:00","2023","03","10","17:00","5.0","","-6.7","","43","","","","25","","6","","64.4","","95.93","","","","","","NA"
"-120.45","50.70","KAMLOOPS A","1163781","2023-03-10 18:00","2023","03","10","18:00","3.9","","-5.4","","51","","","","23","","9","","64.4","","96.03","","","","","","NA"
"-120.45","50.70","KAMLOOPS A","1163781","2023-03-10 19:00","2023","03","10","19:00","2.5","","-4.6","","60","","","","29","","8","","64.4","","96.13","","","","","","Cloudy"
"-120.45","50.70","KAMLOOPS A","1163781","2023-03-10 20:00","2023","03","10","20:00","3.1","","-4.3","","59","","","","26","","7","","64.4","","96.22","","","","","","NA"
"-120.45","50.70","KAMLOOPS A","1163781","2023-03-10 21:00","2023","03","10","21:00","2.1","","-4.4","","62","","","","36","","3","","64.4","","96.32","","","","","","NA"
"-120.45","50.70","KAMLOOPS A","1163781","2023-03-10 22:00","2023","03","10","22:00","1.4","","-4.9","","63","","","","7","","3","","64.4","","96.42","","","","","","Mainly Clear"
"-120.45","50.70","KAMLOOPS A","1163781","2023-03-10 23:00","2023","03","10","23:00","0.2","","-4.9","","69","","","","12","","3","","64.4","","96.52","","","","","","NA"
"-120.45","50.70","KAMLOOPS A","1163781","2023-03-11 00:00","2023","03","11","00:00","0.1","","-4.3","","72","","","","15","","3","","64.4","","96.61","","","","","","NA"
"-120.45","50.70","KAMLOOPS A","1163781","2023-03-11 01:00","2023","03","11","01:00","-0.5","","-4.8","","73","","","","31","","4","","64.4","","96.71","","","","-2","","Mainly Clear"
"-120.45","50.70","KAMLOOPS A","1163781","2023-03-11 02:00","2023","03","11","02:00","-1.5","","-5.1","","76","","","","36","","2","","64.4","","96.80","","","","-2","","NA"
"-120.45","50.70","KAMLOOPS A","1163781","2023-03-11 03:00","2023","03","11","03:00","-1.6","","-5.4","","76","","","","","","0","","64.4","","96.85","","","","","","NA"
"-120.45","50.70","KAMLOOPS A","1163781","2023-03-11 04:00","2023","03","11","04:00","-1.2","","-4.5","","78","","","","36","","2","","64.4","","96.90","","","","-2","","Mostly Cloudy"
"-120.45","50.70","KAMLOOPS A","1163781","2023-03-11 05:00","2023","03","11","05:00","-1.3","","-5.1","","76","","","","36","","1","","64.4","","96.95","","","","-2","","NA"
"-120.45","50.70","KAMLOOPS A","1163781","2023-03-11 06:00","2023","03","11","06:00","-1.6","","-4.6","","80","","","","6","","3","","48.3","","97.01","","","","-3","","NA"
"-120.45","50.70","KAMLOOPS A","1163781","2023-03-11 07:00","2023","03","11","07:00","-1.1","","-4.8","","76","","","","36","","2","","64.4","","97.07","","","","-2","","Mostly Cloudy"
"-120.45","50.70","KAMLOOPS A","1163781","2023-03-11 08:00","2023","03","11","08:00","0.6","","-3.2","","75","","","","10","","12","","64.4","","97.10","","","","","","NA"
"-120.45","50.70","KAMLOOPS A","1163781","2023-03-11 09:00","2023","03","11","09:00","2.2","","-3.6","","66","","","","11","","14","","64.4","","97.15","","","","","","NA"
"-120.45","50.70","KAMLOOPS A","1163781","2023-03-11 10:00","2023","03","11","10:00","3.6","","-3.2","","61","","","","14","","11","","64.4","","97.15","","","","","","Mostly Cloudy"
"-120.45","50.70","KAMLOOPS A","1163781","2023-03-11 11:00","2023","03","11","11:00","4.5","","-2.6","","60","","","","12","","10","","64.4","","97.14","","","","","","NA"
"-120.45","50.70","KAMLOOPS A","1163781","2023-03-11 12:00","2023","03","11","12:00","5.3","","-2.5","","57","","","","11","","6","","64.4","","97.14","","","","","","NA"
"-120.45","50.70","KAMLOOPS A","1163781","2023-03-11 13:00","2023","03","11","13:00","6.9","","-2.2","","52","","","","11","","7","","64.4","","97.09","","","","","","Mostly Cloudy"
"-120.45","50.70","KAMLOOPS A","1163781","2023-03-11 14:00","2023","03","11","14:00","8.0","","-1.2","","52","","","","10","","30","","64.4","","97.05","","","","","","NA"
"-120.45","50.70","KAMLOOPS A","1163781","2023-03-11 15:00","2023","03","11","15:00","6.7","","0.2","","63","","","","11","","14","","40.2","","97.10","","","","","","Rain Showers"
"-120.45","50.70","KAMLOOPS A","1163781","2023-03-11 16:00","2023","03","11","16:00","6.0","","-0.6","","62","","","","10","","13","","64.4","","97.11","","","","","","Mostly Cloudy"
"-120.45","50.70","KAMLOOPS A","1163781","2023-03-11 17:00","2023","03","11","17:00","6.2","","-1.3","","59","","","","9","","18","","64.4","","97.09","","","","","","NA"
"-120.45","50.70","KAMLOOPS A","1163781","2023-03-11 18:00","2023","03","11","18:00","5.5","","-1.6","","61","","","","9","","20","","64.4","","97.16","","","","","","NA"
"-120.45","50.70","KAMLOOPS A","1163781","2023-03-11 19:00","2023","03","11","19:00","4.3","","-1.4","","67","","","","10","","16","","64.4","","97.22","","","","","","Mainly Clear"
"-120.45","50.70","KAMLOOPS A","1163781","2023-03-11 20:00","2023","03","11","20:00","3.5","","-1.5","","70","","","","9","","17","","64.4","","97.26","","","","","","NA"
"-120.45","50.70","KAMLOOPS A","1163781","2023-03-11 21:00","2023","03","11","21:00","2.6","","-1.1","","76","","","","10","","12","","64.4","","97.31","","","","","","NA"
"-120.45","50.70","KAMLOOPS A","1163781","2023-03-11 22:00","2023","03","11","22:00","2.9","","-1.2","","74","","","","10","","26","","64.4","","97.33","","","","","","Mainly Clear"
"-120.45","50.70","KAMLOOPS A","1163781","2023-03-11 23:00","2023","03","11","23:00","2.3","","-1.7","","75","","","","8","","19","","64.4","","97.38","","","","","","NA"
"-120.45","50.70","KAMLOOPS A","1163781","2023-03-12 00:00","2023","03","12","00:00","1.4","","-1.6","","81","","","","8","","13","","64.4","","97.41","","","","","","NA"
"-120.45","50.70","KAMLOOPS A","1163781","2023-03-12 01:00","2023","03","12","01:00","0.3","","-2.4","","82","","","","5","","14","","64.4","","97.44","","","","","","Mainly Clear"
"-120.45","50.70","KAMLOOPS A","1163781","2023-03-12 02:00","2023","03","12","02:00","0.5","","-2.4","","81","","","","7","","18","","64.4","","97.44","","","","","","NA"
"-120.45","50.70","KAMLOOPS A","1163781","2023-03-12 03:00","2023","03","12","03:00","0.0","","-2.4","","84","","","","9","","17","","64.4","","97.44","","","","-5","","NA"
"-120.45","50.70","KAMLOOPS A","1163781","2023-03-12 04:00","2023","03","12","04:00","-1.3","","-3.3","","86","","","","9","","17","","64.4","","97.44","","","","-6","","Clear"
"-120.45","50.70","KAMLOOPS A","1163781","2023-03-12 05:00","2023","03","12","05:00","-1.4","","-3.4","","87","","","","9","","20","","64.4","","97.44","","","","-7","","NA"
"-120.45","50.70","KAMLOOPS A","1163781","2023-03-12 06:00","2023","03","12","06:00","-1.9","","-3.7","","88","","","","10","","17","","64.4","","97.44","","","","-7","","NA"
"-120.45","50.70","KAMLOOPS A","1163781","2023-03-12 07:00","2023","03","12","07:00","-1.1","","-3.2","","86","","","","10","","18","","64.4","","97.44","","","","-6","","Mostly Cloudy"
"-120.45","50.70","KAMLOOPS A","1163781","2023-03-12 08:00","2023","03","12","08:00","-0.2","","-3.7","","77","","","","11","","18","","64.4","","97.42","","","","-5","","NA"
"-120.45","50.70","KAMLOOPS A","1163781","2023-03-12 09:00","2023","03","12","09:00","1.8","","-3.1","","70","","","","10","","20","","64.4","","97.36","","","","","","NA"
"-120.45","50.70","KAMLOOPS A","1163781","2023-03-12 10:00","2023","03","12","10:00","2.9","","-2.7","","66","","","","11","","16","","64.4","","97.27","","","","","","Mostly Cloudy"
"-120.45","50.70","KAMLOOPS A","1163781","2023-03-12 11:00","2023","03","12","11:00","4.5","","-2.2","","62","","","","8","","13","","64.4","","97.18","","","","","","NA"
"-120.45","50.70","KAMLOOPS A","1163781","2023-03-12 12:00","2023","03","12","12:00","6.7","","-1.6","","56","","","","9","","17","","64.4","","97.05","","","","","","NA"
"-120.45","50.70","KAMLOOPS A","1163781","2023-03-12 13:00","2023","03","12","13:00","8.8","","-2.5","","45","","","","10","","21","","64.4","","96.95","","","","","","Cloudy"
"-120.45","50.70","KAMLOOPS A","1163781","2023-03-12 14:00","2023","03","12","14:00","9.1","","-3.4","","41","","","","10","","22","","64.4","","96.84","","","","","","NA"
"-120.45","50.70","KAMLOOPS A","1163781","2023-03-12 15:00","2023","03","12","15:00","8.6","","-3.6","","42","","","","11","","22","","64.4","","96.75","","","","","","NA"
"-120.45","50.70","KAMLOOPS A","1163781","2023-03-12 16:00","2023","03","12","16:00","7.8","","-2.4","","48","","","","13","","26","","64.4","","96.77","","","","","","Cloudy"
"-120.45","50.70","KAMLOOPS A","1163781","2023-03-12 17:00","2023","03","12","17:00","5.9","","0.2","","67","","","","12","","22","","64.4","","96.75","","","","","","Rain"
"-120.45","50.70","KAMLOOPS A","1163781","2023-03-12 18:00","2023","03","12","18:00","5.5","","-0.5","","65","","","","8","","25","","64.4","","96.69","","","","","","NA"
"-120.45","50.70","KAMLOOPS A","1163781","2023-03-12 19:00","2023","03","12","19:00","4.9","","-0.2","","69","","","","8","","23","","64.4","","96.62","","","","","","Rain"
"-120.45","50.70","KAMLOOPS A","1163781","2023-03-12 20:00","2023","03","12","20:00","4.2","","0.3","","76","","","","8","","28","","64.4","","96.58","","","","","","Rain"
"-120.45","50.70","KAMLOOPS A","1163781","2023-03-12 21:00","2023","03","12","21:00","3.7","","0.8","","81","","","","11","","28","","48.3","","96.51","","","","","","Rain"
"-120.45","50.70","KAMLOOPS A","1163781","2023-03-12 22:00","2023","03","12","22:00","3.4","","0.8","","84","","","","10","","18","","48.3","","96.47","","","","","","Rain"
"-120.45","50.70","KAMLOOPS A","1163781","2023-03-12 23:00","2023","03","12","23:00","2.7","","1.0","","89","","","","11","","23","","32.2","","96.40","","","","","","Rain"
"-120.45","50.70","KAMLOOPS A","1163781","2023-03-13 00:00","2023","03","13","00:00","2.3","","0.8","","90","","","","11","","18","","48.3","","96.32","","","","","","NA"
"-120.45","50.70","KAMLOOPS A","1163781","2023-03-13 01:00","2023","03","13","01:00","2.2","","1.0","","91","","","","11","","19","","64.4","","96.23","","","","","","Mostly Cloudy"
"-120.45","50.70","KAMLOOPS A","1163781","2023-03-13 02:00","2023","03","13","02:00","2.6","","0.9","","89","","","","11","","21","","64.4","","96.16","","","","","","NA"
"-120.45","50.70","KAMLOOPS A","1163781","2023-03-13 03:00","2023","03","13","03:00","2.4","","0.7","","89","","","","10","","19","","64.4","","96.05","","","","","","NA"
"-120.45","50.70","KAMLOOPS A","1163781","2023-03-13 04:00","2023","03","13","04:00","1.9","","0.4","","89","","","","10","","18","","64.4","","96.00","","","","","","Cloudy"
"-120.45","50.70","KAMLOOPS A","1163781","2023-03-13 05:00","2023","03","13","05:00","3.0","","0.8","","86","","","","11","","23","","64.4","","95.95","","","","","","NA"
"-120.45","50.70","KAMLOOPS A","1163781","2023-03-13 06:00","2023","03","13","06:00","2.5","","0.4","","86","","","","11","","26","","48.3","","95.91","","","","","","NA"
"-120.45","50.70","KAMLOOPS A","1163781","2023-03-13 07:00","2023","03","13","07:00","3.1","","0.7","","84","","","","10","","24","","48.3","","95.91","","","","","","Cloudy"
"-120.45","50.70","KAMLOOPS A","1163781","2023-03-13 08:00","2023","03","13","08:00","2.9","","1.0","","87","","","","10","","27","","48.3","","95.91","","","","","","NA"
"-120.45","50.70","KAMLOOPS A","1163781","2023-03-13 09:00","2023","03","13","09:00","4.3","","1.6","","82","","","","7","","27","","48.3","","95.90","","","","","","NA"
"-120.45","50.70","KAMLOOPS A","1163781","2023-03-13 10:00","2023","03","13","10:00","6.4","","2.0","","73","","","","9","","34","","64.4","","95.85","","","","","","Mostly Cloudy"
"-120.45","50.70","KAMLOOPS A","1163781","2023-03-13 11:00","2023","03","13","11:00","10.9","","2.6","","56","","","","8","","26","","64.4","","95.79","","","","","","NA"
"-120.45","50.70","KAMLOOPS A","1163781","2023-03-13 12:00","2023","03","13","12:00","11.4","","-1.5","","41","","","","11","","11","","64.4","","95.83","","","","","","NA"
"-120.45","50.70","KAMLOOPS A","1163781","2023-03-13 13:00","2023","03","13","13:00","12.2","","-4.0","","32","","","","23","","16","","64.4","","95.79","","","","","","Mostly Cloudy"
"-120.45","50.70","KAMLOOPS A","1163781","2023-03-13 14:00","2023","03","13","14:00","12.3","","-3.6","","33","","","","23","","16","","64.4","","95.77","","","","","","NA"
"-120.45","50.70","KAMLOOPS A","1163781","2023-03-13 15:00","2023","03","13","15:00","10.1","","-1.2","","45","","","","30","","17","","64.4","","95.80","","","","","","NA"
"-120.45","50.70","KAMLOOPS A","1163781","2023-03-13 16:00","2023","03","13","16:00","9.8","","-0.4","","49","","","","28","","25","","64.4","","95.81","","","","","","Mostly Cloudy"
"-120.45","50.70","KAMLOOPS A","1163781","2023-03-13 17:00","2023","03","13","17:00","9.6","","-4.2","","38","","","","25","","22","","64.4","","95.80","","","","","","NA"
"-120.45","50.70","KAMLOOPS A","1163781","2023-03-13 18:00","2023","03","13","18:00","7.2","","-6.6","","37","","","","25","","25","","64.4","","95.82","","","","","","NA"
"-120.45","50.70","KAMLOOPS A","1163781","2023-03-13 19:00","2023","03","13","19:00","5.6","","-6.0","","43","","","","27","","6","","64.4","","95.94","","","","","","Mainly Clear"
"-120.45","50.70","KAMLOOPS A","1163781","2023-03-13 20:00","2023","03","13","20:00","5.4","","-5.1","","47","","","","19","","11","","64.4","","96.03","","","","","","NA"
"-120.45","50.70","KAMLOOPS A","1163781","2023-03-13 21:00","2023","03","13","21:00","4.9","","-6.5","","43","","","","22","","16","","64.4","","96.10","","","","","","NA"
"-120.45","50.70","KAMLOOPS A","1163781","2023-03-13 22:00","2023","03","13","22:00","3.4","","-6.8","","47","","","","27","","4","","64.4","","96.20","","","","","","Mainly Clear"
"-120.45","50.70","KAMLOOPS A","1163781","2023-03-13 23:00","2023","03","13","23:00","2.1","","-6.0","","55","","","","21","","4","","64.4","","96.27","","","","","","NA"
"-120.45","50.70","KAMLOOPS A","1163781","2023-03-14 00:00","2023","03","14","00:00","1.7","","-5.5","","59","","","","20","","7","","64.4","","96.35","","","","","","NA"
"-120.45","50.70","KAMLOOPS A","1163781","2023-03-14 01:00","2023","03","14","01:00","1.5","","-5.9","","58","","","","32","","3","","64.4","","96.45","","","","","","Mostly Cloudy"
"-120.45","50.70","KAMLOOPS A","1163781","2023-03-14 02:00","2023","03","14","02:00","1.5","","-6.2","","56","","","","7","","4","","64.4","","96.52","","","","","","NA"
"-120.45","50.70","KAMLOOPS A","1163781","2023-03-14 03:00","2023","03","14","03:00","0.0","","-5.9","","64","","","","36","","2","","64.4","","96.59","","","","-1","","NA"
"-120.45","50.70","KAMLOOPS A","1163781","2023-03-14 04:00","2023","03","14","04:00","-0.4","","-6.3","","64","","","","6","","3","","64.4","","96.66","","","","-1","","Mostly Cloudy"
"-120.45","50.70","KAMLOOPS A","1163781","2023-03-14 05:00","2023","03","14","05:00","-0.5","","-6.1","","66","","","","7","","4","","64.4","","96.72","","","","-2","","NA"
"-120.45","50.70","KAMLOOPS A","1163781","2023-03-14 06:00","2023","03","14","06:00","-0.1","","-5.9","","65","","","","27","","5","","64.4","","96.73","","","","-2","","NA"
"-120.45","50.70","KAMLOOPS A","1163781","2023-03-14 07:00","2023","03","14","07:00","0.3","","-4.4","","71","","","","36","","3","","64.4","","96.77","","","","","","Mostly Cloudy"
"-120.45","50.70","KAMLOOPS A","1163781","2023-03-14 08:00","2023","03","14","08:00","0.7","","-3.8","","72","","","","25","","6","","64.4","","96.81","","","","","","NA"
"-120.45","50.70","KAMLOOPS A","1163781","2023-03-14 09:00","2023","03","14","09:00","2.5","","-5.3","","57","","","","23","","5","","64.4","","96.83","","","","","","NA"
"-120.45","50.70","KAMLOOPS A","1163781","2023-03-14 10:00","2023","03","14","10:00","3.4","","-5.4","","52","","","","21","","6","","64.4","","96.82","","","","","","Mostly Cloudy"
"-120.45","50.70","KAMLOOPS A","1163781","2023-03-14 11:00","2023","03","14","11:00","5.2","","-6.6","","42","","","","6","","13","","64.4","","96.78","","","","","","NA"
"-120.45","50.70","KAMLOOPS A","1163781","2023-03-14 12:00","2023","03","14","12:00","6.2","","-6.7","","39","","","","5","","17","","64.4","","96.73","","","","","","NA"
"-120.45","50.70","KAMLOOPS A","1163781","2023-03-14 13:00","2023","03","14","13:00","7.4","","-6.6","","36","","","","10","","21","","64.4","","96.62","","","","","","Mostly Cloudy"
"-120.45","50.70","KAMLOOPS A","1163781","2023-03-14 14:00","2023","03","14","14:00","8.3","","-6.5","","34","","","","12","","22","","64.4","","96.54","","","","","","NA"
"-120.45","50.70","KAMLOOPS A","1163781","2023-03-14 15:00","2023","03","14","15:00","7.4","","-8.4","","32","","","","13","","25","","64.4","","96.48","","","","","","NA"
"-120.45","50.70","KAMLOOPS A","1163781","2023-03-14 16:00","2023","03","14","16:00","8.1","","-8.1","","31","","","","12","","18","","64.4","","96.40","","","","","","Mostly Cloudy"
"-120.45","50.70","KAMLOOPS A","1163781","2023-03-14 17:00","2023","03","14","17:00","8.0","","-8.5","","30","","","","22","","8","","64.4","","96.36","","","","","","NA"
"-120.45","50.70","KAMLOOPS A","1163781","2023-03-14 18:00","2023","03","14","18:00","5.7","","-7.4","","38","","","","16","","12","","64.4","","96.31","","","","","","NA"
"-120.45","50.70","KAMLOOPS A","1163781","2023-03-14 19:00","2023","03","14","19:00","3.6","","-7.0","","46","","","","36","","1","","64.4","","96.34","","","","","","Mainly Clear"
"-120.45","50.70","KAMLOOPS A","1163781","2023-03-14 20:00","2023","03","14","20:00","3.5","","-7.4","","45","","","","28","","7","","64.4","","96.38","","","","","","NA"
"-120.45","50.70","KAMLOOPS A","1163781","2023-03-14 21:00","2023","03","14","21:00","1.6","","-5.8","","58","","","","6","","4","","64.4","","96.42","","","","","","NA"
"-120.45","50.70","KAMLOOPS A","1163781","2023-03-14 22:00","2023","03","14","22:00","2.3","","-6.2","","53","","","","8","","3","","64.4","","96.45","","","","","","Mostly Cloudy"
"-120.45","50.70","KAMLOOPS A","1163781","2023-03-14 23:00","2023","03","14","23:00","0.9","","-6.5","","58","","","","7","","18","","64.4","","96.47","","","","","","NA"
"-120.45","50.70","KAMLOOPS A","1163781","2023-03-15 00:00","2023","03","15","00:00","0.1","","-5.9","","64","","","","10","","14","","64.4","","96.54","","","","","","NA"
"-120.45","50.70","KAMLOOPS A","1163781","2023-03-15 01:00","2023","03","15","01:00","-0.2","","-6.0","","65","","","","9","","16","","64.4","","96.61","","","","-5","","Mostly Cloudy"
"-120.45","50.70","KAMLOOPS A","1163781","2023-03-15 02:00","2023","03","15","02:00","-0.7","","-6.0","","67","","","","9","","15","","64.4","","96.67","","","","-5","","NA"
"-120.45","50.70","KAMLOOPS A","1163781","2023-03-15 03:00","2023","03","15","03:00","-0.5","","-5.5","","69","","","","9","","14","","64.4","","96.74","","","","-5","","NA"
"-120.45","50.70","KAMLOOPS A","1163781","2023-03-15 04:00","2023","03","15","04:00","0.0","","-6.4","","62","","","","10","","17","","64.4","","96.84","","","","-5","","Mostly Cloudy"
"-120.45","50.70","KAMLOOPS A","1163781","2023-03-15 05:00","2023","03","15","05:00","-0.5","","-6.2","","65","","","","11","","13","","64.4","","96.92","","","","-5","","NA"
"-120.45","50.70","KAMLOOPS A","1163781","2023-03-15 06:00","2023","03","15","06:00","0.0","","-6.1","","64","","","","13","","9","","64.4","","97.03","","","","-3","","NA"
"-120.45","50.70","KAMLOOPS A","1163781","2023-03-15 07:00","2023","03","15","07:00","-2.8","","-6.5","","75","","","","26","","7","","64.4","","97.17","","","","-6","","Mainly Clear"
"-120.45","50.70","KAMLOOPS A","1163781","2023-03-15 08:00","2023","03","15","08:00","0.5","","-6.0","","62","","","","18","","3","","64.4","","97.31","","","","","","NA"
"-120.45","50.70","KAMLOOPS A","1163781","2023-03-15 09:00","2023","03","15","09:00","2.5","","-5.1","","57","","","","17","","5","","64.4","","97.43","","","","","","NA"
"-120.45","50.70","KAMLOOPS A","1163781","2023-03-15 10:00","2023","03","15","10:00","4.0","","-6.2","","47","","","","22","","5","","64.4","","97.50","","","","","","Clear"
"-120.45","50.70","KAMLOOPS A","1163781","2023-03-15 11:00","2023","03","15","11:00","5.3","","-5.8","","45","","","","36","","3","","64.4","","97.52","","","","","","NA"
"-120.45","50.70","KAMLOOPS A","1163781","2023-03-15 12:00","2023","03","15","12:00","7.6","","-4.7","","41","","","","26","","6","","64.4","","97.55","","","","","","NA"
"-120.45","50.70","KAMLOOPS A","1163781","2023-03-15 13:00","2023","03","15","13:00","9.0","","-7.6","","30","","","","29","","15","","64.4","","97.56","","","","","","Mainly Clear"
"-120.45","50.70","KAMLOOPS A","1163781","2023-03-15 14:00","2023","03","15","14:00","10.2","","-10.0","","23","","","","27","","15","","64.4","","97.57","","","","","","NA"
"-120.45","50.70","KAMLOOPS A","1163781","2023-03-15 15:00","2023","03","15","15:00","10.1","","-11.2","","21","","","","28","","18","","64.4","","97.62","","","","","","NA"
"-120.45","50.70","KAMLOOPS A","1163781","2023-03-15 16:00","2023","03","15","16:00","9.7","","-8.1","","28","","","","30","","13","","64.4","","97.69","","","","","","Mainly Clear"
"-120.45","50.70","KAMLOOPS A","1163781","2023-03-15 17:00","2023","03","15","17:00","8.9","","-8.2","","29","","","","35","","17","","64.4","","97.76","","","","","","NA"
"-120.45","50.70","KAMLOOPS A","1163781","2023-03-15 18:00","2023","03","15","18:00","7.9","","-7.7","","32","","","","36","","5","","64.4","","97.86","","","","","","NA"
"-120.45","50.70","KAMLOOPS A","1163781","2023-03-15 19:00","2023","03","15","19:00","6.2","","-5.8","","42","","","","23","","9","","64.4","","97.96","","","","","","Mostly Cloudy"
"-120.45","50.70","KAMLOOPS A","1163781","2023-03-15 20:00","2023","03","15","20:00","4.8","","-5.9","","46","","","","23","","6","","64.4","","98.06","","","","","","NA"
"-120.45","50.70","KAMLOOPS A","1163781","2023-03-15 21:00","2023","03","15","21:00","2.9","","-5.0","","56","","","","9","","9","","64.4","","98.17","","","","","","NA"
"-120.45","50.70","KAMLOOPS A","1163781","2023-03-15 22:00","2023","03","15","22:00","2.7","","-5.3","","56","","","","31","","5","","64.4","","98.25","","","","","","Mostly Cloudy"
"-120.45","50.70","KAMLOOPS A","1163781","2023-03-15 23:00","2023","03","15","23:00","1.5","","-5.1","","61","","","","13","","3","","64.4","","98.33","","","","","","NA"
"-120.45","50.70","KAMLOOPS A","1163781","2023-03-16 00:00","2023","03","16","00:00","-0.6","","-5.6","","69","","","","9","","7","","64.4","","98.41","","","","-3","","NA"
"-120.45","50.70","KAMLOOPS A","1163781","2023-03-16 01:00","2023","03","16","01:00","-0.1","","-5.2","","69","","","","36","","1","","64.4","","98.50","","","","0","","Clear"
"-120.45","50.70","KAMLOOPS A","1163781","2023-03-16 02:00","2023","03","16","02:00","-1.0","","-5.6","","71","","","","36","","1","","64.4","","98.56","","","","-1","","NA"
"-120.45","50.70","KAMLOOPS A","1163781","2023-03-16 03:00","2023","03","16","03:00","-1.2","","-6.3","","69","","","","2","","4","","64.4","","98.62","","","","-3","","NA"
"-120.45","50.70","KAMLOOPS A","1163781","2023-03-16 04:00","2023","03","16","04:00","-2.9","","-5.6","","82","","","","36","","2","","64.4","","98.69","","","","-4","","Mainly Clear"
"-120.45","50.70","KAMLOOPS A","1163781","2023-03-16 05:00","2023","03","16","05:00","-3.0","","-6.4","","78","","","","9","","4","","64.4","","98.76","","","","-5","","NA"
"-120.45","50.70","KAMLOOPS A","1163781","2023-03-16 06:00","2023","03","16","06:00","-3.6","","-6.9","","78","","","","36","","3","","64.4","","98.82","","","","-5","","NA"
"-120.45","50.70","KAMLOOPS A","1163781","2023-03-16 07:00","2023","03","16","07:00","-2.6","","-5.9","","78","","","","36","","2","","64.4","","98.88","","","","-3","","Mainly Clear"
"-120.45","50.70","KAMLOOPS A","1163781","2023-03-16 08:00","2023","03","16","08:00","-1.0","","-4.8","","75","","","","36","","1","","64.4","","98.91","","","","-1","","NA"
"-120.45","50.70","KAMLOOPS A","1163781","2023-03-16 09:00","2023","03","16","09:00","0.7","","-5.9","","62","","","","13","","4","","64.4","","98.91","","","","","","NA"
"-120.45","50.70","KAMLOOPS A","1163781","2023-03-16 10:00","2023","03","16","10:00","2.3","","-6.3","","53","","","","11","","3","","64.4","","98.89","","","","","","Mainly Clear"
"-120.45","50.70","KAMLOOPS A","1163781","2023-03-16 11:00","2023","03","16","11:00","3.9","","-6.1","","48","","","","15","","8","","64.4","","98.81","","","","","","NA"
"-120.45","50.70","KAMLOOPS A","1163781","2023-03-16 12:00","2023","03","16","12:00","5.6","","-5.3","","45","","","","16","","5","","64.4","","98.73","","","","","","NA"
"-120.45","50.70","KAMLOOPS A","1163781","2023-03-16 13:00","2023","03","16","13:00","6.5","","-5.0","","44","","","","36","","1","","64.4","","98.63","","","","","","Mostly Cloudy"
"-120.45","50.70","KAMLOOPS A","1163781","2023-03-16 14:00","2023","03","16","14:00","8.4","","-4.2","","41","","","","10","","7","","64.4","","98.53","","","","","","NA"
"-120.45","50.70","KAMLOOPS A","1163781","2023-03-16 15:00","2023","03","16","15:00","9.2","","-5.7","","34","","","","14","","9","","64.4","","98.45","","","","","","NA"
"-120.45","50.70","KAMLOOPS A","1163781","2023-03-16 16:00","2023","03","16","16:00","9.6","","-5.3","","34","","","","11","","6","","64.4","","98.38","","","","","","Mostly Cloudy"
"-120.45","50.70","KAMLOOPS A","1163781","2023-03-16 17:00","2023","03","16","17:00","9.8","","-5.2","","34","","","","11","","8","","64.4","","98.32","","","","","","NA"
"-120.45","50.70","KAMLOOPS A","1163781","2023-03-16 18:00","2023","03","16","18:00","7.1","","-4.2","","45","","","","5","","7","","64.4","","98.30","","","","","","NA"
"-120.45","50.70","KAMLOOPS A","1163781","2023-03-16 19:00","2023","03","16","19:00","4.8","","-5.1","","49","","","","27","","6","","64.4","","98.31","","","","","","Mainly Clear"
"-120.45","50.70","KAMLOOPS A","1163781","2023-03-16 20:00","2023","03","16","20:00","4.6","","-5.6","","48","","","","7","","4","","64.4","","98.34","","","","","","NA"
"-120.45","50.70","KAMLOOPS A","1163781","2023-03-16 21:00","2023","03","16","21:00","2.0","","-4.9","","60","","","","20","","6","","64.4","","98.36","","","","","","NA"
"-120.45","50.70","KAMLOOPS A","1163781","2023-03-16 22:00","2023","03","16","22:00","2.1","","-4.5","","61","","","","10","","9","","64.4","","98.36","","","","","","Mainly Clear"
"-120.45","50.70","KAMLOOPS A","1163781","2023-03-16 23:00","2023","03","16","23:00","1.0","","-5.4","","63","","","","8","","16","","64.4","","98.37","","","","","","NA"
"-120.45","50.70","KAMLOOPS A","1163781","2023-03-17 00:00","2023","03","17","00:00","0.4","","-5.9","","63","","","","9","","19","","64.4","","98.37","","","","","","NA"
"-120.45","50.70","KAMLOOPS A","1163781","2023-03-17 01:00","2023","03","17","01:00","0.5","","-5.6","","64","","","","9","","23","","64.4","","98.38","","","","","","Mainly Clear"
"-120.45","50.70","KAMLOOPS A","1163781","2023-03-17 02:00","2023","03","17","02:00","0.2","","-5.8","","64","","","","10","","21","","64.4","","98.38","","","","","","NA"
"-120.45","50.70","KAMLOOPS A","1163781","2023-03-17 03:00","2023","03","17","03:00","-1.1","","-5.3","","73","","","","10","","17","","64.4","","98.37","","","","-6","","NA"
"-120.45","50.70","KAMLOOPS A","1163781","2023-03-17 04:00","2023","03","17","04:00","0.1","","-5.4","","66","","","","12","","13","","64.4","","98.38","","","","","","Mainly Clear"
"-120.45","50.70","KAMLOOPS A","1163781","2023-03-17 05:00","2023","03","17","05:00","-1.4","","-5.7","","73","","","","10","","19","","64.4","","98.37","","","","-7","","NA"
"-120.45","50.70","KAMLOOPS A","1163781","2023-03-17 06:00","2023","03","17","06:00","-1.6","","-5.7","","74","","","","12","","17","","64.4","","98.38","","","","-7","","NA"
"-120.45","50.70","KAMLOOPS A","1163781","2023-03-17 07:00","2023","03","17","07:00","-1.5","","-5.2","","76","","","","10","","19","","64.4","","98.40","","","","-7","","Mainly Clear"
"-120.45","50.70","KAMLOOPS A","1163781","2023-03-17 08:00","2023","03","17","08:00","0.4","","-5.2","","66","","","","11","","19","","64.4","","98.42","","","","","","NA"
"-120.45","50.70","KAMLOOPS A","1163781","2023-03-17 09:00","2023","03","17","09:00","2.1","","-5.4","","58","","","","10","","22","","64.4","","98.40","","","","","","NA"
"-120.45","50.70","KAMLOOPS A","1163781","2023-03-17 10:00","2023","03","17","10:00","4.0","","-4.9","","52","","","","11","","18","","64.4","","98.33","","","","","","Mainly Clear"
"-120.45","50.70","KAMLOOPS A","1163781","2023-03-17 11:00","2023","03","17","11:00","6.0","","-5.1","","45","","","","11","","18","","64.4","","98.24","","","","","","NA"
"-120.45","50.70","KAMLOOPS A","1163781","2023-03-17 12:00","2023","03","17","12:00","8.9","","-4.3","","39","","","","10","","21","","64.4","","98.14","","","","","","NA"
"-120.45","50.70","KAMLOOPS A","1163781","2023-03-17 13:00","2023","03","17","13:00","11.2","","-5.5","","31","","","","8","","22","","64.4","","98.03","","","","","","Mainly Clear"
"-120.45","50.70","KAMLOOPS A","1163781","2023-03-17 14:00","2023","03","17","14:00","12.0","","-6.3","","27","","","","8","","21","","64.4","","97.96","","","","","","NA"
"-120.45","50.70","KAMLOOPS A","1163781","2023-03-17 15:00","2023","03","17","15:00","12.9","","-6.0","","26","","","","9","","20","","64.4","","97.89","","","","","","NA"
"-120.45","50.70","KAMLOOPS A","1163781","2023-03-17 16:00","2023","03","17","16:00","12.3","","-5.5","","28","","","","10","","24","","64.4","","97.85","","","","","","Mostly Cloudy"
"-120.45","50.70","KAMLOOPS A","1163781","2023-03-17 17:00","2023","03","17","17:00","11.5","","-5.4","","30","","","","12","","12","","64.4","","97.83","","","","","","NA"
"-120.45","50.70","KAMLOOPS A","1163781","2023-03-17 18:00","2023","03","17","18:00","9.4","","-5.1","","36","","","","8","","17","","64.4","","97.84","","","","","","NA"
"-120.45","50.70","KAMLOOPS A","1163781","2023-03-17 19:00","2023","03","17","19:00","8.1","","-5.5","","38","","","","7","","12","","64.4","","97.89","","","","","","Mostly Cloudy"
"-120.45","50.70","KAMLOOPS A","1163781","2023-03-17 20:00","2023","03","17","20:00","7.2","","-5.2","","41","","","","8","","13","","64.4","","97.94","","","","","","NA"
"-120.45","50.70","KAMLOOPS A","1163781","2023-03-17 21:00","2023","03","17","21:00","5.4","","-4.7","","48","","","","9","","16","","64.4","","97.98","","","","","","NA"
"-120.45","50.70","KAMLOOPS A","1163781","2023-03-17 22:00","2023","03","17","22:00","4.8","","-4.4","","51","","","","10","","20","","64.4","","97.99","","","","","","Mostly Cloudy"
"-120.45","50.70","KAMLOOPS A","1163781","2023-03-17 23:00","2023","03","17","23:00","5.0","","-4.2","","52","","","","10","","24","","64.4","","97.99","","","","","","NA"
"-120.45","50.70","KAMLOOPS A","1163781","2023-03-18 00:00","2023","03","18","00:00","4.5","","-4.2","","53","","","","11","","26","","64.4","","97.99","","","","","","NA"
"-120.45","50.70","KAMLOOPS A","1163781","2023-03-18 01:00","2023","03","18","01:00","4.5","","-4.2","","53","","","","11","","27","","64.4","","98.00","","","","","","Mostly Cloudy"
"-120.45","50.70","KAMLOOPS A","1163781","2023-03-18 02:00","2023","03","18","02:00","4.0","","-4.2","","55","","","","11","","24","","64.4","","98.01","","","","","","NA"
"-120.45","50.70","KAMLOOPS A","1163781","2023-03-18 03:00","2023","03","18","03:00","2.7","","-4.2","","60","","","","9","","22","","64.4","","98.01","","","","","","NA"
"-120.45","50.70","KAMLOOPS A","1163781","2023-03-18 04:00","2023","03","18","04:00","2.0","","-4.0","","65","","","","8","","13","","64.4","","98.04","","","","","","Mostly Cloudy"
"-120.45","50.70","KAMLOOPS A","1163781","2023-03-18 05:00","2023","03","18","05:00","1.6","","-4.6","","63","","","","6","","9","","64.4","","98.08","","","","","","NA"
"-120.45","50.70","KAMLOOPS A","1163781","2023-03-18 06:00","2023","03","18","06:00","1.0","","-4.7","","66","","","","11","","7","","64.4","","98.09","","","","","","NA"
"-120.45","50.70","KAMLOOPS A","1163781","2023-03-18 07:00","2023","03","18","07:00","0.9","","-4.6","","67","","","","36","","3","","64.4","","98.10","","","","","","Mostly Cloudy"
"-120.45","50.70","KAMLOOPS A","1163781","2023-03-18 08:00","2023","03","18","08:00","2.6","","-3.7","","63","","","","8","","13","","64.4","","98.08","","","","","","NA"
"-120.45","50.70","KAMLOOPS A","1163781","2023-03-18 09:00","2023","03","18","09:00","4.6","","-3.8","","54","","","","10","","15","","64.4","","98.05","","","","","","NA"
"-120.45","50.70","KAMLOOPS A","1163781","2023-03-18 10:00","2023","03","18","10:00","6.2","","-3.7","","49","","","","7","","9","","64.4","","97.96","","","","","","Mostly Cloudy"
"-120.45","50.70","KAMLOOPS A","1163781","2023-03-18 11:00","2023","03","18","11:00","7.8","","-3.9","","43","","","","12","","13","","64.4","","97.87","","","","","","NA"
"-120.45","50.70","KAMLOOPS A","1163781","2023-03-18 12:00","2023","03","18","12:00","10.4","","-3.4","","38","","","","10","","8","","64.4","","97.78","","","","","","NA"
"-120.45","50.70","KAMLOOPS A","1163781","2023-03-18 13:00","2023","03","18","13:00","11.8","","-4.3","","32","","","","7","","8","","64.4","","97.70","","","","","","Mostly Cloudy"
"-120.45","50.70","KAMLOOPS A","1163781","2023-03-18 14:00","2023","03","18","14:00","13.3","","-3.3","","31","","","","5","","7","","64.4","","97.59","","","","","","NA"
"-120.45","50.70","KAMLOOPS A","1163781","2023-03-18 15:00","2023","03","18","15:00","14.3","","-3.6","","29","","","","9","","19","","64.4","","97.50","","","","","","NA"
"-120.45","50.70","KAMLOOPS A","1163781","2023-03-18 16:00","2023","03","18","16:00","14.0","","-3.6","","29","","","","11","","16","","64.4","","97.48","","","","","","Mainly Clear"
"-120.45","50.70","KAMLOOPS A","1163781","2023-03-18 17:00","2023","03","18","17:00","13.4","","-3.1","","32","","","","11","","16","","64.4","","97.45","","","","","","NA"
"-120.45","50.70","KAMLOOPS A","1163781","2023-03-18 18:00","2023","03","18","18:00","10.6","","-3.3","","37","","","","9","","13","","64.4","","97.46","","","","","","NA"
"-120.45","50.70","KAMLOOPS A","1163781","2023-03-18 19:00","2023","03","18","19:00","8.0","","-2.8","","46","","","","19","","4","","64.4","","97.50","","","","","","Mainly Clear"
"-120.45","50.70","KAMLOOPS A","1163781","2023-03-18 20:00","2023","03","18","20:00","4.8","","-2.8","","58","","","","25","","4","","64.4","","97.53","","","","","","NA"
"-120.45","50.70","KAMLOOPS A","1163781","2023-03-18 21:00","2023","03","18","21:00","5.8","","-2.8","","54","","","","36","","2","","72.4","","97.53","","","","","","NA"
"-120.45","50.70","KAMLOOPS A","1163781","2023-03-18 22:00","2023","03","18","22:00","4.5","","-3.3","","57","","","","8","","5","","64.4","","97.56","","","","","","Mainly Clear"
"-120.45","50.70","KAMLOOPS A","1163781","2023-03-18 23:00","2023","03","18","23:00","2.2","","-2.7","","70","","","","21","","4","","64.4","","97.58","","","","","","NA"
"-120.45","50.70","KAMLOOPS A","1163781","2023-03-19 00:00","2023","03","19","00:00","2.5","","-2.6","","69","","","","11","","4","","64.4","","97.60","","","","","","NA"
"-120.45","50.70","KAMLOOPS A","1163781","2023-03-19 01:00","2023","03","19","01:00","0.8","","-3.0","","75","","","","11","","8","","64.4","","97.60","","","","","","Clear"
"-120.45","50.70","KAMLOOPS A","1163781","2023-03-19 02:00","2023","03","19","02:00","0.7","","-4.1","","70","","","","13","","5","","64.4","","97.58","","","","","","NA"
"-120.45","50.70","KAMLOOPS A","1163781","2023-03-19 03:00","2023","03","19","03:00","0.7","","-3.7","","73","","","","9","","7","","64.4","","97.55","","","","","","NA"
"-120.45","50.70","KAMLOOPS A","1163781","2023-03-19 04:00","2023","03","19","04:00","-0.3","","-3.6","","78","","","","11","","9","","64.4","","97.55","","","","-3","","Clear"
"-120.45","50.70","KAMLOOPS A","1163781","2023-03-19 05:00","2023","03","19","05:00","-0.2","","-3.4","","79","","","","13","","4","","56.3","","97.55","","","","-1","","NA"
"-120.45","50.70","KAMLOOPS A","1163781","2023-03-19 06:00","2023","03","19","06:00","-1.6","","-3.8","","85","","","","36","","2","","64.4","","97.55","","","","-2","","NA"
"-120.45","50.70","KAMLOOPS A","1163781","2023-03-19 07:00","2023","03","19","07:00","-0.6","","-3.1","","83","","","","10","","7","","64.4","","97.53","","","","-3","","Mainly Clear"
"-120.45","50.70","KAMLOOPS A","1163781","2023-03-19 08:00","2023","03","19","08:00","1.3","","-2.6","","75","","","","10","","15","","64.4","","97.50","","","","","","NA"
"-120.45","50.70","KAMLOOPS A","1163781","2023-03-19 09:00","2023","03","19","09:00","3.6","","-3.0","","62","","","","11","","18","","64.4","","97.44","","","","","","NA"
"-120.45","50.70","KAMLOOPS A","1163781","2023-03-19 10:00","2023","03","19","10:00","5.8","","-2.9","","54","","","","11","","16","","64.4","","97.34","","","","","","Mostly Cloudy"
"-120.45","50.70","KAMLOOPS A","1163781","2023-03-19 11:00","2023","03","19","11:00","7.6","","-3.0","","47","","","","11","","15","","64.4","","97.22","","","","","","NA"
"-120.45","50.70","KAMLOOPS A","1163781","2023-03-19 12:00","2023","03","19","12:00","9.7","","-2.8","","41","","","","11","","15","","64.4","","97.07","","","","","","NA"
"-120.45","50.70","KAMLOOPS A","1163781","2023-03-19 13:00","2023","03","19","13:00","11.6","","-2.8","","36","","","","13","","15","","64.4","","96.94","","","","","","Mostly Cloudy"
"-120.45","50.70","KAMLOOPS A","1163781","2023-03-19 14:00","2023","03","19","14:00","12.7","","-2.8","","34","","","","14","","13","","64.4","","96.81","","","","","","NA"
"-120.45","50.70","KAMLOOPS A","1163781","2023-03-19 15:00","2023","03","19","15:00","13.7","","-2.7","","32","","","","14","","6","","64.4","","96.72","","","","","","NA"
"-120.45","50.70","KAMLOOPS A","1163781","2023-03-19 16:00","2023","03","19","16:00","14.5","","-2.8","","30","","","","14","","5","","64.4","","96.61","","","","","","Mostly Cloudy"
"-120.45","50.70","KAMLOOPS A","1163781","2023-03-19 17:00","2023","03","19","17:00","14.2","","-3.1","","30","","","","4","","7","","64.4","","96.52","","","","","","NA"
"-120.45","50.70","KAMLOOPS A","1163781","2023-03-19 18:00","2023","03","19","18:00","11.3","","-2.0","","39","","","","18","","4","","64.4","","96.49","","","","","","NA"
"-120.45","50.70","KAMLOOPS A","1163781","2023-03-19 19:00","2023","03","19","19:00","8.2","","-2.7","","46","","","","24","","7","","64.4","","96.50","","","","","","Mostly Cloudy"
"-120.45","50.70","KAMLOOPS A","1163781","2023-03-19 20:00","2023","03","19","20:00","6.6","","-2.6","","52","","","","31","","7","","64.4","","96.51","","","","","","NA"
"-120.45","50.70","KAMLOOPS A","1163781","2023-03-19 21:00","2023","03","19","21:00","7.3","","-2.6","","49","","","","16","","3","","64.4","","96.52","","","","","","NA"
"-120.45","50.70","KAMLOOPS A","1163781","2023-03-19 22:00","2023","03","19","22:00","5.3","","-2.5","","57","","","","11","","3","","64.4","","96.52","","","","","","Mostly Cloudy"
"-120.45","50.70","KAMLOOPS A","1163781","2023-03-19 23:00","2023","03","19","23:00","5.9","","-2.4","","55","","","","12","","13","","64.4","","96.52","","","","","","NA"
"-120.45","50.70","KAMLOOPS A","1163781","2023-03-20 00:00","2023","03","20","00:00","6.0","","-2.9","","53","","","","12","","14","","64.4","","96.52","","","","","","NA"
"-120.45","50.70","KAMLOOPS A","1163781","2023-03-20 01:00","2023","03","20","01:00","5.5","","-2.8","","55","","","","11","","15","","64.4","","96.53","","","","","","Mostly Cloudy"
"-120.45","50.70","KAMLOOPS A","1163781","2023-03-20 02:00","2023","03","20","02:00","3.8","","-2.5","","63","","","","11","","16","","64.4","","96.52","","","","","","NA"
"-120.45","50.70","KAMLOOPS A","1163781","2023-03-20 03:00","2023","03","20","03:00","3.9","","-2.7","","62","","","","11","","14","","64.4","","96.50","","","","","","NA"
"-120.45","50.70","KAMLOOPS A","1163781","2023-03-20 04:00","2023","03","20","04:00","4.7","","-3.4","","56","","","","11","","15","","64.4","","96.52","","","","","","Mostly Cloudy"
"-120.45","50.70","KAMLOOPS A","1163781","2023-03-20 05:00","2023","03","20","05:00","4.2","","-3.3","","58","","","","13","","9","","64.4","","96.54","","","","","","NA"
"-120.45","50.70","KAMLOOPS A","1163781","2023-03-20 06:00","2023","03","20","06:00","2.9","","-3.4","","63","","","","10","","16","","64.4","","96.56","","","","","","NA"
"-120.45","50.70","KAMLOOPS A","1163781","2023-03-20 07:00","2023","03","20","07:00","2.6","","-3.0","","66","","","","1","","3","","64.4","","96.60","","","","","","Mostly Cloudy"
"-120.45","50.70","KAMLOOPS A","1163781","2023-03-20 08:00","2023","03","20","08:00","3.9","","-3.6","","58","","","","9","","10","","64.4","","96.64","","","","","","NA"
"-120.45","50.70","KAMLOOPS A","1163781","2023-03-20 09:00","2023","03","20","09:00","4.9","","-3.7","","54","","","","4","","7","","64.4","","96.66","","","","","","NA"
"-120.45","50.70","KAMLOOPS A","1163781","2023-03-20 10:00","2023","03","20","10:00","6.2","","-3.2","","51","","","","36","","1","","64.4","","96.66","","","","","","Mostly Cloudy"
"-120.45","50.70","KAMLOOPS A","1163781","2023-03-20 11:00","2023","03","20","11:00","7.9","","-3.6","","44","","","","36","","1","","64.4","","96.63","","","","","","NA"
"-120.45","50.70","KAMLOOPS A","1163781","2023-03-20 12:00","2023","03","20","12:00","9.6","","-4.7","","36","","","","24","","7","","64.4","","96.58","","","","","","NA"
"-120.45","50.70","KAMLOOPS A","1163781","2023-03-20 13:00","2023","03","20","13:00","11.1","","-3.6","","35","","","","36","","3","","64.4","","96.51","","","","","","Mostly Cloudy"
"-120.45","50.70","KAMLOOPS A","1163781","2023-03-20 14:00","2023","03","20","14:00","12.1","","-4.9","","30","","","","25","","8","","64.4","","96.47","","","","","","NA"
"-120.45","50.70","KAMLOOPS A","1163781","2023-03-20 15:00","2023","03","20","15:00","13.2","","-3.9","","30","","","","24","","5","","64.4","","96.43","","","","","","NA"
"-120.45","50.70","KAMLOOPS A","1163781","2023-03-20 16:00","2023","03","20","16:00","11.8","","-3.2","","35","","","","29","","8","","64.4","","96.41","","","","","","Mostly Cloudy"
"-120.45","50.70","KAMLOOPS A","1163781","2023-03-20 17:00","2023","03","20","17:00","10.1","","-3.1","","40","","","","26","","8","","64.4","","96.40","","","","","","NA"
"-120.45","50.70","KAMLOOPS A","1163781","2023-03-20 18:00","2023","03","20","18:00","8.3","","-3.5","","43","","","","30","","9","","64.4","","96.42","","","","","","NA"
"-120.45","50.70","KAMLOOPS A","1163781","2023-03-20 19:00","2023","03","20","19:00","7.4","","-2.9","","48","","","","28","","9","","64.4","","96.49","","","","","","Mainly Clear"
"-120.45","50.70","KAMLOOPS A","1163781","2023-03-20 20:00","2023","03","20","20:00","6.1","","-3.8","","49","","","","31","","4","","64.4","","96.55","","","","","","NA"
"-120.45","50.70","KAMLOOPS A","1163781","2023-03-20 21:00","2023","03","20","21:00","4.5","","-3.8","","55","","","","25","","8","","64.4","","96.63","","","","","","NA"
"-120.45","50.70","KAMLOOPS A","1163781","2023-03-20 22:00","2023","03","20","22:00","2.4","","-4.6","","60","","","","4","","4","","64.4","","96.72","","","","","","Clear"
"-120.45","50.70","KAMLOOPS A","1163781","2023-03-20 23:00","2023","03","20","23:00","1.7","","-3.8","","67","","","","36","","3","","64.4","","96.79","","","","","","NA"
"-120.45","50.70","KAMLOOPS A","1163781","2023-03-21 00:00","2023","03","21","00:00","1.1","","-4.3","","68","","","","36","","2","","64.4","","96.83","","","","","","NA"
"-120.45","50.70","KAMLOOPS A","1163781","2023-03-21 01:00","2023","03","21","01:00","0.4","","-3.7","","74","","","","15","","3","","64.4","","96.90","","","","","","Clear"
"-120.45","50.70","KAMLOOPS A","1163781","2023-03-21 02:00","2023","03","21","02:00","-0.7","","-4.4","","76","","","","12","","3","","64.4","","96.94","","","","-2","","NA"
"-120.45","50.70","KAMLOOPS A","1163781","2023-03-21 03:00","2023","03","21","03:00","-0.9","","-4.9","","75","","","","36","","2","","64.4","","96.99","","","","-2","","NA"
"-120.45","50.70","KAMLOOPS A","1163781","2023-03-21 04:00","2023","03","21","04:00","-1.5","","-4.6","","80","","","","7","","3","","64.4","","97.04","","","","-3","","Clear"
"-120.45","50.70","KAMLOOPS A","1163781","2023-03-21 05:00","2023","03","21","05:00","-1.3","","-4.5","","79","","","","36","","1","","64.4","","97.10","","","","-2","","NA"
"-120.45","50.70","KAMLOOPS A","1163781","2023-03-21 06:00","2023","03","21","06:00","-1.8","","-5.3","","77","","","","36","","1","","64.4","","97.14","","","","-2","","NA"
"-120.45","50.70","KAMLOOPS A","1163781","2023-03-21 07:00","2023","03","21","07:00","-1.9","","-4.2","","85","","","","0","","1","","64.4","","97.17","","","","-2","","Clear"
"-120.45","50.70","KAMLOOPS A","1163781","2023-03-21 08:00","2023","03","21","08:00","1.3","","-2.9","","74","","","","9","","3","","64.4","","97.20","","","","","","NA"
"-120.45","50.70","KAMLOOPS A","1163781","2023-03-21 09:00","2023","03","21","09:00","2.9","","-3.3","","64","","","","16","","5","","64.4","","97.20","","","","","","NA"
"-120.45","50.70","KAMLOOPS A","1163781","2023-03-21 10:00","2023","03","21","10:00","4.8","","-3.9","","54","","","","25","","4","","64.4","","97.15","","","","","","Clear"
"-120.45","50.70","KAMLOOPS A","1163781","2023-03-21 11:00","2023","03","21","11:00","6.7","","-4.2","","46","","","","22","","6","","64.4","","97.06","","","","","","NA"
"-120.45","50.70","KAMLOOPS A","1163781","2023-03-21 12:00","2023","03","21","12:00","8.9","","-1.9","","47","","","","25","","6","","64.4","","96.97","","","","","","NA"
"-120.45","50.70","KAMLOOPS A","1163781","2023-03-21 13:00","2023","03","21","13:00","10.8","","-1.5","","42","","","","25","","9","","64.4","","96.86","","","","","","Mainly Clear"
"-120.45","50.70","KAMLOOPS A","1163781","2023-03-21 14:00","2023","03","21","14:00","12.5","","-0.4","","41","","","","20","","8","","64.4","","96.79","","","","","","NA"
"-120.45","50.70","KAMLOOPS A","1163781","2023-03-21 15:00","2023","03","21","15:00","13.8","","-1.4","","35","","","","29","","5","","64.4","","96.71","","","","","","NA"
"-120.45","50.70","KAMLOOPS A","1163781","2023-03-21 16:00","2023","03","21","16:00","14.9","","-3.9","","27","","","","11","","3","","64.4","","96.66","","","","","","Mainly Clear"
"-120.45","50.70","KAMLOOPS A","1163781","2023-03-21 17:00","2023","03","21","17:00","13.9","","-2.9","","31","","","","25","","5","","64.4","","96.63","","","","","","NA"
"-120.45","50.70","KAMLOOPS A","1163781","2023-03-21 18:00","2023","03","21","18:00","10.8","","-0.7","","45","","","","36","","2","","64.4","","96.63","","","","","","NA"
"-120.45","50.70","KAMLOOPS A","1163781","2023-03-21 19:00","2023","03","21","19:00","7.3","","-4.0","","44","","","","36","","4","","64.4","","96.68","","","","","","Clear"
"-120.45","50.70","KAMLOOPS A","1163781","2023-03-21 20:00","2023","03","21","20:00","7.2","","-3.7","","46","","","","15","","5","","64.4","","96.73","","","","","","NA"
"-120.45","50.70","KAMLOOPS A","1163781","2023-03-21 21:00","2023","03","21","21:00","4.2","","-4.5","","53","","","","36","","1","","64.4","","96.80","","","","","","NA"
"-120.45","50.70","KAMLOOPS A","1163781","2023-03-21 22:00","2023","03","21","22:00","3.9","","-4.2","","56","","","","11","","7","","64.4","","96.83","","","","","","Clear"
"-120.45","50.70","KAMLOOPS A","1163781","2023-03-21 23:00","2023","03","21","23:00","2.2","","-3.3","","67","","","","12","","5","","64.4","","96.87","","","","","","NA"
"-120.45","50.70","KAMLOOPS A","1163781","2023-03-22 00:00","2023","03","22","00:00","0.1","","-4.9","","69","","","","7","","4","","64.4","","96.92","","","","","","NA"
"-120.45","50.70","KAMLOOPS A","1163781","2023-03-22 01:00","2023","03","22","01:00","0.8","","-3.8","","71","","","","16","","4","","64.4","","96.96","","","","","","Clear"
"-120.45","50.70","KAMLOOPS A","1163781","2023-03-22 02:00","2023","03","22","02:00","-0.9","","-4.4","","77","","","","9","","5","","64.4","","97.00","","","","-3","","NA"
"-120.45","50.70","KAMLOOPS A","1163781","2023-03-22 03:00","2023","03","22","03:00","-1.5","","-5.3","","75","","","","36","","2","","64.4","","97.04","","","","-2","","NA"
"-120.45","50.70","KAMLOOPS A","1163781","2023-03-22 04:00","2023","03","22","04:00","-2.2","","-5.9","","76","","","","36","","3","","64.4","","97.07","","","","-3","","Clear"
"-120.45","50.70","KAMLOOPS A","1163781","2023-03-22 05:00","2023","03","22","05:00","-2.5","","-5.8","","78","","","","11","","4","","64.4","","97.07","","","","-4","","NA"
"-120.45","50.70","KAMLOOPS A","1163781","2023-03-22 06:00","2023","03","22","06:00","-2.9","","-5.2","","84","","","","3","","6","","64.4","","97.13","","","","-5","","NA"
"-120.45","50.70","KAMLOOPS A","1163781","2023-03-22 07:00","2023","03","22","07:00","-1.6","","-4.0","","83","","","","36","","2","","64.4","","97.16","","","","-2","","Clear"
"-120.45","50.70","KAMLOOPS A","1163781","2023-03-22 08:00","2023","03","22","08:00","0.5","","-3.4","","75","","","","10","","4","","64.4","","97.18","","","","","","NA"
"-120.45","50.70","KAMLOOPS A","1163781","2023-03-22 09:00","2023","03","22","09:00","2.7","","-4.7","","58","","","","12","","4","","64.4","","97.16","","","","","","NA"
"-120.45","50.70","KAMLOOPS A","1163781","2023-03-22 10:00","2023","03","22","10:00","4.2","","-5.0","","51","","","","36","","1","","64.4","","97.11","","","","","","Clear"
"-120.45","50.70","KAMLOOPS A","1163781","2023-03-22 11:00","2023","03","22","11:00","6.4","","-5.7","","42","","","","14","","6","","64.4","","97.03","","","","","","NA"
"-120.45","50.70","KAMLOOPS A","1163781","2023-03-22 12:00","2023","03","22","12:00","9.0","","-5.6","","35","","","","12","","10","","64.4","","96.91","","","","","","NA"
"-120.45","50.70","KAMLOOPS A","1163781","2023-03-22 13:00","2023","03","22","13:00","11.1","","-5.0","","32","","","","9","","7","","64.4","","96.79","","","","","","Clear"
"-120.45","50.70","KAMLOOPS A","1163781","2023-03-22 14:00","2023","03","22","14:00","13.1","","-5.7","","27","","","","11","","5","","64.4","","96.68","","","","","","NA"
"-120.45","50.70","KAMLOOPS A","1163781","2023-03-22 15:00","2023","03","22","15:00","14.4","","-4.8","","26","","","","23","","8","","64.4","","96.58","","","","","","NA"
"-120.45","50.70","KAMLOOPS A","1163781","2023-03-22 16:00","2023","03","22","16:00","15.5","","-5.6","","23","","","","23","","4","","64.4","","96.53","","","","","","Mainly Clear"
"-120.45","50.70","KAMLOOPS A","1163781","2023-03-22 17:00","2023","03","22","17:00","12.2","","-2.6","","35","","","","28","","10","","64.4","","96.47","","","","","","NA"
"-120.45","50.70","KAMLOOPS A","1163781","2023-03-22 18:00","2023","03","22","18:00","9.6","","-3.4","","40","","","","31","","3","","64.4","","96.48","","","","","","NA"
"-120.45","50.70","KAMLOOPS A","1163781","2023-03-22 19:00","2023","03","22","19:00","8.1","","-4.2","","42","","","","24","","12","","64.4","","96.51","","","","","","Clear"
"-120.45","50.70","KAMLOOPS A","1163781","2023-03-22 20:00","2023","03","22","20:00","5.5","","-5.1","","46","","","","29","","12","","64.4","","96.57","","","","","","NA"
"-120.45","50.70","KAMLOOPS A","1163781","2023-03-22 21:00","2023","03","22","21:00","4.2","","-4.7","","52","","","","6","","7","","64.4","","96.62","","","","","","NA"
"-120.45","50.70","KAMLOOPS A","1163781","2023-03-22 22:00","2023","03","22","22:00","3.9","","-4.2","","55","","","","36","","1","","64.4","","96.66","","","","","","Clear"
"-120.45","50.70","KAMLOOPS A","1163781","2023-03-22 23:00","2023","03","22","23:00","3.4","","-5.3","","53","","","","36","","3","","64.4","","96.66","","","","","","NA"
"-120.45","50.70","KAMLOOPS A","1163781","2023-03-23 00:00","2023","03","23","00:00","2.4","","-5.2","","58","","","","11","","7","","64.4","","96.68","","","","","","NA"
"-120.45","50.70","KAMLOOPS A","1163781","2023-03-23 01:00","2023","03","23","01:00","1.1","","-5.5","","61","","","","9","","3","","64.4","","96.70","","","","","","Clear"
"-120.45","50.70","KAMLOOPS A","1163781","2023-03-23 02:00","2023","03","23","02:00","-1.0","","-5.0","","74","","","","8","","14","","64.4","","96.71","","","","-5","","NA"
"-120.45","50.70","KAMLOOPS A","1163781","2023-03-23 03:00","2023","03","23","03:00","0.6","","-5.9","","62","","","","9","","5","","64.4","","96.73","","","","","","NA"
"-120.45","50.70","KAMLOOPS A","1163781","2023-03-23 04:00","2023","03","23","04:00","0.6","","-5.8","","62","","","","36","","3","","64.4","","96.76","","","","","","Mainly Clear"
"-120.45","50.70","KAMLOOPS A","1163781","2023-03-23 05:00","2023","03","23","05:00","0.3","","-5.5","","65","","","","7","","12","","64.4","","96.78","","","","","","NA"
"-120.45","50.70","KAMLOOPS A","1163781","2023-03-23 06:00","2023","03","23","06:00","-0.4","","-5.8","","67","","","","8","","7","","64.4","","96.80","","","","-3","","NA"
"-120.45","50.70","KAMLOOPS A","1163781","2023-03-23 07:00","2023","03","23","07:00","-0.6","","-5.0","","72","","","","3","","9","","64.4","","96.84","","","","-4","","Mostly Cloudy"
"-120.45","50.70","KAMLOOPS A","1163781","2023-03-23 08:00","2023","03","23","08:00","2.0","","-5.2","","59","","","","7","","11","","64.4","","96.84","","","","","","NA"
"-120.45","50.70","KAMLOOPS A","1163781","2023-03-23 09:00","2023","03","23","09:00","4.1","","-5.1","","51","","","","9","","9","","64.4","","96.80","","","","","","NA"
"-120.45","50.70","KAMLOOPS A","1163781","2023-03-23 10:00","2023","03","23","10:00","6.6","","-4.7","","44","","","","8","","15","","64.4","","96.78","","","","","","Mostly Cloudy"
"-120.45","50.70","KAMLOOPS A","1163781","2023-03-23 11:00","2023","03","23","11:00","7.8","","-4.5","","41","","","","36","","1","","64.4","","96.73","","","","","","NA"
"-120.45","50.70","KAMLOOPS A","1163781","2023-03-23 12:00","2023","03","23","12:00","9.1","","-3.2","","42","","","","22","","6","","64.4","","96.66","","","","","","NA"
"-120.45","50.70","KAMLOOPS A","1163781","2023-03-23 13:00","2023","03","23","13:00","9.6","","-1.9","","44","","","","26","","10","","64.4","","96.60","","","","","","Mostly Cloudy"
"-120.45","50.70","KAMLOOPS A","1163781","2023-03-23 14:00","2023","03","23","14:00","12.3","","-2.2","","36","","","","2","","4","","64.4","","96.53","","","","","","NA"
"-120.45","50.70","KAMLOOPS A","1163781","2023-03-23 15:00","2023","03","23","15:00","13.1","","-4.1","","30","","","","8","","5","","64.4","","96.51","","","","","","NA"
"-120.45","50.70","KAMLOOPS A","1163781","2023-03-23 16:00","2023","03","23","16:00","12.6","","-7.1","","25","","","","17","","22","","64.4","","96.52","","","","","","Mostly Cloudy"
"-120.45","50.70","KAMLOOPS A","1163781","2023-03-23 17:00","2023","03","23","17:00","10.5","","-0.9","","45","","","","15","","22","","64.4","","96.53","","","","","","NA"
"-120.45","50.70","KAMLOOPS A","1163781","2023-03-23 18:00","2023","03","23","18:00","8.8","","-0.1","","54","","","","10","","37","","64.4","","96.55","","","","","","NA"
"-120.45","50.70","KAMLOOPS A","1163781","2023-03-23 19:00","2023","03","23","19:00","7.9","","0.4","","59","","","","11","","27","","64.4","","96.62","","","","","","Mostly Cloudy"
"-120.45","50.70","KAMLOOPS A","1163781","2023-03-23 20:00","2023","03","23","20:00","6.9","","0.5","","63","","","","10","","27","","64.4","","96.66","","","","","","NA"
"-120.45","50.70","KAMLOOPS A","1163781","2023-03-23 21:00","2023","03","23","21:00","5.7","","0.7","","70","","","","8","","24","","64.4","","96.74","","","","","","NA"
"-120.45","50.70","KAMLOOPS A","1163781","2023-03-23 22:00","2023","03","23","22:00","5.5","","0.2","","69","","","","7","","19","","64.4","","96.80","","","","","","Mostly Cloudy"
"-120.45","50.70","KAMLOOPS A","1163781","2023-03-23 23:00","2023","03","23","23:00","3.9","","-0.3","","74","","","","36","","2","","64.4","","96.85","","","","","","NA"
"-120.45","50.70","KAMLOOPS A","1163781","2023-03-24 00:00","2023","03","24","00:00","3.5","","-1.4","","71","","","","20","","7","","64.4","","96.87","","","","","","NA"
"-120.45","50.70","KAMLOOPS A","1163781","2023-03-24 01:00","2023","03","24","01:00","2.0","","-2.6","","72","","","","22","","5","","64.4","","96.93","","","","","","Mainly Clear"
"-120.45","50.70","KAMLOOPS A","1163781","2023-03-24 02:00","2023","03","24","02:00","-0.3","","-3.7","","78","","","","23","","7","","64.4","","96.97","","","","-3","","NA"
"-120.45","50.70","KAMLOOPS A","1163781","2023-03-24 03:00","2023","03","24","03:00","2.7","","-3.1","","66","","","","30","","4","","64.4","","97.01","","","","","","NA"
"-120.45","50.70","KAMLOOPS A","1163781","2023-03-24 04:00","2023","03","24","04:00","1.7","","-3.5","","68","","","","36","","3","","64.4","","97.04","","","","","","Mostly Cloudy"
"-120.45","50.70","KAMLOOPS A","1163781","2023-03-24 05:00","2023","03","24","05:00","1.4","","-3.2","","72","","","","3","","3","","64.4","","97.09","","","","","","NA"
"-120.45","50.70","KAMLOOPS A","1163781","2023-03-24 06:00","2023","03","24","06:00","1.1","","-3.1","","73","","","","33","","5","","64.4","","97.12","","","","","","NA"
"-120.45","50.70","KAMLOOPS A","1163781","2023-03-24 07:00","2023","03","24","07:00","1.9","","-1.6","","78","","","","4","","4","","64.4","","97.20","","","","","","Cloudy"
"-120.45","50.70","KAMLOOPS A","1163781","2023-03-24 08:00","2023","03","24","08:00","2.8","","-1.8","","72","","","","8","","5","","48.3","","97.27","","","","","","NA"
"-120.45","50.70","KAMLOOPS A","1163781","2023-03-24 09:00","2023","03","24","09:00","2.8","","-0.2","","81","","","","10","","9","","19.3","","97.36","","","","","","Rain Showers"
"-120.45","50.70","KAMLOOPS A","1163781","2023-03-24 10:00","2023","03","24","10:00","3.2","","1.4","","88","","","","9","","15","","48.3","","97.40","","","","","","Rain Showers"
"-120.45","50.70","KAMLOOPS A","1163781","2023-03-24 11:00","2023","03","24","11:00","5.0","","2.1","","81","","","","9","","14","","48.3","","97.40","","","","","","NA"
"-120.45","50.70","KAMLOOPS A","1163781","2023-03-24 12:00","2023","03","24","12:00","7.2","","0.2","","61","","","","8","","6","","64.4","","97.38","","","","","","NA"
"-120.45","50.70","KAMLOOPS A","1163781","2023-03-24 13:00","2023","03","24","13:00","8.6","","-0.7","","52","","","","9","","12","","64.4","","97.34","","","","","","Mostly Cloudy"
"-120.45","50.70","KAMLOOPS A","1163781","2023-03-24 14:00","2023","03","24","14:00","7.9","","-2.1","","49","","","","9","","6","","64.4","","97.34","","","","","","NA"
"-120.45","50.70","KAMLOOPS A","1163781","2023-03-24 15:00","2023","03","24","15:00","9.2","","-1.2","","48","","","","6","","8","","64.4","","97.33","","","","","","NA"
"-120.45","50.70","KAMLOOPS A","1163781","2023-03-24 16:00","2023","03","24","16:00","9.1","","-3.6","","41","","","","14","","10","","64.4","","97.33","","","","","","Mostly Cloudy"
"-120.45","50.70","KAMLOOPS A","1163781","2023-03-24 17:00","2023","03","24","17:00","6.5","","-1.6","","56","","","","27","","16","","64.4","","97.34","","","","","","NA"
"-120.45","50.70","KAMLOOPS A","1163781","2023-03-24 18:00","2023","03","24","18:00","5.7","","-0.8","","63","","","","29","","9","","64.4","","97.38","","","","","","NA"
"-120.45","50.70","KAMLOOPS A","1163781","2023-03-24 19:00","2023","03","24","19:00","5.5","","-2.1","","58","","","","32","","4","","64.4","","97.40","","","","","","Mostly Cloudy"
"-120.45","50.70","KAMLOOPS A","1163781","2023-03-24 20:00","2023","03","24","20:00","4.7","","-2.4","","60","","","","36","","3","","64.4","","97.46","","","","","","NA"
"-120.45","50.70","KAMLOOPS A","1163781","2023-03-24 21:00","2023","03","24","21:00","4.0","","-1.9","","65","","","","8","","13","","64.4","","97.52","","","","","","NA"
"-120.45","50.70","KAMLOOPS A","1163781","2023-03-24 22:00","2023","03","24","22:00","3.6","","-2.5","","64","","","","21","","5","","64.4","","97.56","","","","","","Cloudy"
"-120.45","50.70","KAMLOOPS A","1163781","2023-03-24 23:00","2023","03","24","23:00","2.3","","-2.0","","73","","","","26","","4","","64.4","","97.60","","","","","","NA"
"-120.45","50.70","KAMLOOPS A","1163781","2023-03-25 00:00","2023","03","25","00:00","2.7","","-3.1","","66","","","","36","","2","","64.4","","97.65","","","","","","NA"
"-120.45","50.70","KAMLOOPS A","1163781","2023-03-25 01:00","2023","03","25","01:00","1.6","","-3.6","","68","","","","23","","8","","64.4","","97.69","","","","","","Cloudy"
"-120.45","50.70","KAMLOOPS A","1163781","2023-03-25 02:00","2023","03","25","02:00","1.0","","-3.6","","72","","","","23","","5","","64.4","","97.72","","","","","","NA"
"-120.45","50.70","KAMLOOPS A","1163781","2023-03-25 03:00","2023","03","25","03:00","-0.2","","-3.5","","79","","","","29","","5","","64.4","","97.77","","","","-2","","NA"
"-120.45","50.70","KAMLOOPS A","1163781","2023-03-25 04:00","2023","03","25","04:00","-0.6","","-3.8","","79","","","","28","","8","","64.4","","97.84","","","","-3","","Mostly Cloudy"
"-120.45","50.70","KAMLOOPS A","1163781","2023-03-25 05:00","2023","03","25","05:00","-0.5","","-4.3","","75","","","","31","","4","","64.4","","97.89","","","","-2","","NA"
"-120.45","50.70","KAMLOOPS A","1163781","2023-03-25 06:00","2023","03","25","06:00","-1.4","","-4.6","","78","","","","27","","3","","64.4","","97.93","","","","-2","","NA"
"-120.45","50.70","KAMLOOPS A","1163781","2023-03-25 07:00","2023","03","25","07:00","-0.6","","-3.8","","79","","","","27","","8","","64.4","","97.96","","","","-3","","Mainly Clear"
"-120.45","50.70","KAMLOOPS A","1163781","2023-03-25 08:00","2023","03","25","08:00","1.6","","-3.4","","69","","","","27","","7","","64.4","","97.98","","","","","","NA"
"-120.45","50.70","KAMLOOPS A","1163781","2023-03-25 09:00","2023","03","25","09:00","3.5","","-3.4","","61","","","","27","","3","","64.4","","97.99","","","","","","NA"
"-120.45","50.70","KAMLOOPS A","1163781","2023-03-25 10:00","2023","03","25","10:00","5.2","","-5.0","","48","","","","21","","7","","64.4","","97.97","","","","","","Mainly Clear"
"-120.45","50.70","KAMLOOPS A","1163781","2023-03-25 11:00","2023","03","25","11:00","6.9","","-5.1","","42","","","","26","","7","","64.4","","97.92","","","","","","NA"
"-120.45","50.70","KAMLOOPS A","1163781","2023-03-25 12:00","2023","03","25","12:00","8.5","","-4.3","","40","","","","7","","5","","64.4","","97.87","","","","","","NA"
"-120.45","50.70","KAMLOOPS A","1163781","2023-03-25 13:00","2023","03","25","13:00","9.9","","-5.5","","33","","","","20","","10","","64.4","","97.81","","","","","","Mostly Cloudy"
"-120.45","50.70","KAMLOOPS A","1163781","2023-03-25 14:00","2023","03","25","14:00","9.4","","-6.9","","31","","","","22","","5","","64.4","","97.79","","","","","","NA"
"-120.45","50.70","KAMLOOPS A","1163781","2023-03-25 15:00","2023","03","25","15:00","10.5","","-6.8","","29","","","","28","","7","","64.4","","97.76","","","","","","NA"
"-120.45","50.70","KAMLOOPS A","1163781","2023-03-25 16:00","2023","03","25","16:00","8.6","","-3.2","","43","","","","35","","22","","64.4","","97.76","","","","","","Mostly Cloudy"
"-120.45","50.70","KAMLOOPS A","1163781","2023-03-25 17:00","2023","03","25","17:00","8.5","","-2.6","","46","","","","19","","12","","64.4","","97.75","","","","","","NA"
"-120.45","50.70","KAMLOOPS A","1163781","2023-03-25 18:00","2023","03","25","18:00","6.9","","-1.0","","57","","","","14","","7","","64.4","","97.77","","","","","","NA"
"-120.45","50.70","KAMLOOPS A","1163781","2023-03-25 19:00","2023","03","25","19:00","4.6","","-2.1","","62","","","","8","","8","","64.4","","97.78","","","","","","Mainly Clear"
"-120.45","50.70","KAMLOOPS A","1163781","2023-03-25 20:00","2023","03","25","20:00","4.7","","-1.2","","66","","","","9","","8","","64.4","","97.82","","","","","","NA"
"-120.45","50.70","KAMLOOPS A","1163781","2023-03-25 21:00","2023","03","25","21:00","3.3","","-1.0","","73","","","","26","","5","","64.4","","97.85","","","","","","NA"
"-120.45","50.70","KAMLOOPS A","1163781","2023-03-25 22:00","2023","03","25","22:00","4.1","","-1.0","","69","","","","13","","7","","64.4","","97.88","","","","","","Mostly Cloudy"
"-120.45","50.70","KAMLOOPS A","1163781","2023-03-25 23:00","2023","03","25","23:00","1.8","","-2.3","","75","","","","23","","8","","64.4","","97.92","","","","","","NA"
"-120.45","50.70","KAMLOOPS A","1163781","2023-03-26 00:00","2023","03","26","00:00","2.2","","-2.7","","70","","","","27","","5","","64.4","","97.94","","","","","","NA"
"-120.45","50.70","KAMLOOPS A","1163781","2023-03-26 01:00","2023","03","26","01:00","1.1","","-3.1","","73","","","","32","","5","","64.4","","97.96","","","","","","Mostly Cloudy"
"-120.45","50.70","KAMLOOPS A","1163781","2023-03-26 02:00","2023","03","26","02:00","0.1","","-3.2","","78","","","","28","","10","","64.4","","97.97","","","","","","NA"
"-120.45","50.70","KAMLOOPS A","1163781","2023-03-26 03:00","2023","03","26","03:00","1.1","","-3.3","","73","","","","29","","5","","64.4","","97.99","","","","","","NA"
"-120.45","50.70","KAMLOOPS A","1163781","2023-03-26 04:00","2023","03","26","04:00","0.7","","-3.2","","75","","","","10","","6","","64.4","","98.05","","","","","","Cloudy"
"-120.45","50.70","KAMLOOPS A","1163781","2023-03-26 05:00","2023","03","26","05:00","0.4","","-2.5","","81","","","","8","","7","","64.4","","98.09","","","","","","NA"
"-120.45","50.70","KAMLOOPS A","1163781","2023-03-26 06:00","2023","03","26","06:00","0.6","","-2.9","","77","","","","36","","1","","64.4","","98.12","","","","","","NA"
"-120.45","50.70","KAMLOOPS A","1163781","2023-03-26 07:00","2023","03","26","07:00","0.7","","-2.3","","80","","","","36","","1","","64.4","","98.15","","","","","","Mostly Cloudy"
"-120.45","50.70","KAMLOOPS A","1163781","2023-03-26 08:00","2023","03","26","08:00","1.8","","-2.0","","76","","","","36","","1","","64.4","","98.17","","","","","","NA"
"-120.45","50.70","KAMLOOPS A","1163781","2023-03-26 09:00","2023","03","26","09:00","3.7","","-2.6","","63","","","","11","","8","","64.4","","98.18","","","","","","NA"
"-120.45","50.70","KAMLOOPS A","1163781","2023-03-26 10:00","2023","03","26","10:00","6.0","","-3.4","","51","","","","2","","4","","64.4","","98.16","","","","","","Mostly Cloudy"
"-120.45","50.70","KAMLOOPS A","1163781","2023-03-26 11:00","2023","03","26","11:00","7.7","","-3.3","","46","","","","15","","7","","64.4","","98.12","","","","","","NA"
"-120.45","50.70","KAMLOOPS A","1163781","2023-03-26 12:00","2023","03","26","12:00","9.5","","-4.0","","38","","","","24","","10","","64.4","","98.05","","","","","","NA"
"-120.45","50.70","KAMLOOPS A","1163781","2023-03-26 13:00","2023","03","26","13:00","10.7","","-3.7","","36","","","","1","","5","","64.4","","98.00","","","","","","Mostly Cloudy"
"-120.45","50.70","KAMLOOPS A","1163781","2023-03-26 14:00","2023","03","26","14:00","11.8","","-4.3","","32","","","","14","","5","","64.4","","97.94","","","","","","NA"
"-120.45","50.70","KAMLOOPS A","1163781","2023-03-26 15:00","2023","03","26","15:00","11.2","","-4.9","","32","","","","24","","6","","64.4","","97.92","","","","","","NA"
"-120.45","50.70","KAMLOOPS A","1163781","2023-03-26 16:00","2023","03","26","16:00","11.2","","-5.3","","31","","","","30","","17","","64.4","","97.92","","","","","","Mostly Cloudy"
"-120.45","50.70","KAMLOOPS A","1163781","2023-03-26 17:00","2023","03","26","17:00","10.3","","-2.4","","41","","","","29","","19","","64.4","","97.95","","","","","","NA"
"-120.45","50.70","KAMLOOPS A","1163781","2023-03-26 18:00","2023","03","26","18:00","8.8","","-2.6","","44","","","","22","","8","","64.4","","97.98","","","","","","NA"
"-120.45","50.70","KAMLOOPS A","1163781","2023-03-26 19:00","2023","03","26","19:00","7.6","","-2.6","","48","","","","20","","5","","64.4","","98.03","","","","","","Mostly Cloudy"
"-120.45","50.70","KAMLOOPS A","1163781","2023-03-26 20:00","2023","03","26","20:00","4.4","","-2.8","","59","","","","26","","7","","64.4","","98.10","","","","","","NA"
"-120.45","50.70","KAMLOOPS A","1163781","2023-03-26 21:00","2023","03","26","21:00","3.8","","-3.1","","61","","","","28","","9","","48.3","","98.15","","","","","","NA"
"-120.45","50.70","KAMLOOPS A","1163781","2023-03-26 22:00","2023","03","26","22:00","3.1","","-3.3","","63","","","","36","","2","","48.3","","98.18","","","","","","Mainly Clear"
"-120.45","50.70","KAMLOOPS A","1163781","2023-03-26 23:00","2023","03","26","23:00","1.9","","-2.2","","74","","","","0","","1","","64.4","","98.24","","","","","","NA"
"-120.45","50.70","KAMLOOPS A","1163781","2023-03-27 00:00","2023","03","27","00:00","2.1","","-3.4","","67","","","","30","","4","","48.3","","98.29","","","","","","NA"
"-120.45","50.70","KAMLOOPS A","1163781","2023-03-27 01:00","2023","03","27","01:00","1.0","","-3.4","","73","","","","36","","1","","48.3","","98.34","","","","","","Mainly Clear"
"-120.45","50.70","KAMLOOPS A","1163781","2023-03-27 02:00","2023","03","27","02:00","0.0","","-3.4","","78","","","","36","","3","","48.3","","98.38","","","","-1","","NA"
"-120.45","50.70","KAMLOOPS A","1163781","2023-03-27 03:00","2023","03","27","03:00","0.0","","-3.2","","79","","","","36","","1","","48.3","","98.41","","","","0","","NA"
"-120.45","50.70","KAMLOOPS A","1163781","2023-03-27 04:00","2023","03","27","04:00","-0.4","","-4.3","","75","","","","36","","2","","48.3","","98.43","","","","-1","","Mainly Clear"
"-120.45","50.70","KAMLOOPS A","1163781","2023-03-27 05:00","2023","03","27","05:00","-0.6","","-3.6","","80","","","","36","","2","","48.3","","98.47","","","","-1","","NA"
"-120.45","50.70","KAMLOOPS A","1163781","2023-03-27 06:00","2023","03","27","06:00","-1.2","","-4.0","","81","","","","36","","3","","64.4","","98.51","","","","-2","","NA"
"-120.45","50.70","KAMLOOPS A","1163781","2023-03-27 07:00","2023","03","27","07:00","-0.2","","-2.5","","85","","","","9","","4","","64.4","","98.54","","","","-1","","Mainly Clear"
"-120.45","50.70","KAMLOOPS A","1163781","2023-03-27 08:00","2023","03","27","08:00","2.3","","-3.1","","67","","","","0","","1","","64.4","","98.54","","","","","","NA"
"-120.45","50.70","KAMLOOPS A","1163781","2023-03-27 09:00","2023","03","27","09:00","4.4","","-3.4","","57","","","","27","","5","","64.4","","98.53","","","","","","NA"
"-120.45","50.70","KAMLOOPS A","1163781","2023-03-27 10:00","2023","03","27","10:00","4.8","","-4.1","","53","","","","30","","4","","64.4","","98.49","","","","","","Mainly Clear"
"-120.45","50.70","KAMLOOPS A","1163781","2023-03-27 11:00","2023","03","27","11:00","7.4","","-3.4","","46","","","","28","","8","","64.4","","98.44","","","","","","NA"
"-120.45","50.70","KAMLOOPS A","1163781","2023-03-27 12:00","2023","03","27","12:00","8.9","","-2.2","","46","","","","28","","8","","64.4","","98.35","","","","","","NA"
"-120.45","50.70","KAMLOOPS A","1163781","2023-03-27 13:00","2023","03","27","13:00","10.7","","-1.3","","43","","","","30","","22","","64.4","","98.26","","","","","","Mainly Clear"
"-120.45","50.70","KAMLOOPS A","1163781","2023-03-27 14:00","2023","03","27","14:00","10.5","","-2.4","","40","","","","24","","12","","48.3","","98.19","","","","","","NA"
"-120.45","50.70","KAMLOOPS A","1163781","2023-03-27 15:00","2023","03","27","15:00","11.0","","-2.0","","40","","","","2","","27","","64.4","","98.12","","","","","","NA"
"-120.45","50.70","KAMLOOPS A","1163781","2023-03-27 16:00","2023","03","27","16:00","11.6","","-3.5","","35","","","","1","","11","","64.4","","98.07","","","","","","Mainly Clear"
"-120.45","50.70","KAMLOOPS A","1163781","2023-03-27 17:00","2023","03","27","17:00","10.0","","-2.5","","42","","","","28","","21","","64.4","","98.03","","","","","","NA"
"-120.45","50.70","KAMLOOPS A","1163781","2023-03-27 18:00","2023","03","27","18:00","8.8","","-2.8","","44","","","","28","","6","","64.4","","98.00","","","","","","NA"
"-120.45","50.70","KAMLOOPS A","1163781","2023-03-27 19:00","2023","03","27","19:00","6.1","","-3.4","","50","","","","25","","5","","64.4","","98.00","","","","","","Mainly Clear"
"-120.45","50.70","KAMLOOPS A","1163781","2023-03-27 20:00","2023","03","27","20:00","5.5","","-3.8","","51","","","","23","","3","","64.4","","98.03","","","","","","NA"
"-120.45","50.70","KAMLOOPS A","1163781","2023-03-27 21:00","2023","03","27","21:00","5.1","","-3.7","","53","","","","20","","6","","48.3","","98.06","","","","","","NA"
"-120.45","50.70","KAMLOOPS A","1163781","2023-03-27 22:00","2023","03","27","22:00","3.3","","-3.5","","61","","","","36","","1","","48.3","","98.09","","","","","","Mainly Clear"
"-120.45","50.70","KAMLOOPS A","1163781","2023-03-27 23:00","2023","03","27","23:00","2.9","","-2.7","","67","","","","1","","5","","64.4","","98.09","","","","","","NA"
"-120.45","50.70","KAMLOOPS A","1163781","2023-03-28 00:00","2023","03","28","00:00","1.9","","-3.7","","67","","","","36","","1","","48.3","","98.07","","","","","","NA"
"-120.45","50.70","KAMLOOPS A","1163781","2023-03-28 01:00","2023","03","28","01:00","1.3","","-4.2","","67","","","","36","","4","","48.3","","98.07","","","","","","Mainly Clear"
"-120.45","50.70","KAMLOOPS A","1163781","2023-03-28 02:00","2023","03","28","02:00","-0.9","","-5.7","","70","","","","36","","2","","48.3","","98.05","","","","-2","","NA"
"-120.45","50.70","KAMLOOPS A","1163781","2023-03-28 03:00","2023","03","28","03:00","-0.2","","-4.2","","74","","","","10","","7","","48.3","","98.07","","","","-3","","NA"
"-120.45","50.70","KAMLOOPS A","1163781","2023-03-28 04:00","2023","03","28","04:00","-1.5","","-5.1","","77","","","","8","","7","","48.3","","98.09","","","","-4","","Mainly Clear"
"-120.45","50.70","KAMLOOPS A","1163781","2023-03-28 05:00","2023","03","28","05:00","-1.6","","-5.5","","75","","","","8","","4","","48.3","","98.11","","","","-3","","NA"
"-120.45","50.70","KAMLOOPS A","1163781","2023-03-28 06:00","2023","03","28","06:00","-1.0","","-5.0","","75","","","","36","","2","","64.4","","98.10","","","","-2","","NA"
"-120.45","50.70","KAMLOOPS A","1163781","2023-03-28 07:00","2023","03","28","07:00","-0.2","","-3.8","","77","","","","0","","1","","64.4","","98.12","","","","-1","","Clear"
"-120.45","50.70","KAMLOOPS A","1163781","2023-03-28 08:00","2023","03","28","08:00","2.0","","-4.3","","63","","","","36","","2","","64.4","","98.09","","","","","","NA"
"-120.45","50.70","KAMLOOPS A","1163781","2023-03-28 09:00","2023","03","28","09:00","4.1","","-10.2","","34","","","","27","","8","","64.4","","98.07","","","","","","NA"
"-120.45","50.70","KAMLOOPS A","1163781","2023-03-28 10:00","2023","03","28","10:00","5.5","","-11.3","","29","","","","29","","7","","64.4","","98.00","","","","","","Clear"
"-120.45","50.70","KAMLOOPS A","1163781","2023-03-28 11:00","2023","03","28","11:00","7.1","","-9.9","","29","","","","17","","4","","64.4","","97.91","","","","","","NA"
"-120.45","50.70","KAMLOOPS A","1163781","2023-03-28 12:00","2023","03","28","12:00","8.7","","-7.5","","31","","","","24","","8","","64.4","","97.79","","","","","","NA"
"-120.45","50.70","KAMLOOPS A","1163781","2023-03-28 13:00","2023","03","28","13:00","10.0","","-5.9","","32","","","","24","","10","","64.4","","97.69","","","","","","Clear"
"-120.45","50.70","KAMLOOPS A","1163781","2023-03-28 14:00","2023","03","28","14:00","11.4","","-6.3","","28","","","","29","","7","","64.4","","97.58","","","","","","NA"
"-120.45","50.70","KAMLOOPS A","1163781","2023-03-28 15:00","2023","03","28","15:00","12.5","","-6.2","","27","","","","23","","5","","64.4","","97.48","","","","","","NA"
"-120.45","50.70","KAMLOOPS A","1163781","2023-03-28 16:00","2023","03","28","16:00","12.7","","-7.4","","24","","","","22","","7","","64.4","","97.39","","","","","","Clear"
"-120.45","50.70","KAMLOOPS A","1163781","2023-03-28 17:00","2023","03","28","17:00","11.9","","-6.3","","27","","","","29","","16","","64.4","","97.35","","","","","","NA"
"-120.45","50.70","KAMLOOPS A","1163781","2023-03-28 18:00","2023","03","28","18:00","9.3","","-6.0","","34","","","","28","","10","","64.4","","97.36","","","","","","NA"
"-120.45","50.70","KAMLOOPS A","1163781","2023-03-28 19:00","2023","03","28","19:00","6.8","","-5.1","","42","","","","25","","8","","64.4","","97.40","","","","","","Clear"
"-120.45","50.70","KAMLOOPS A","1163781","2023-03-28 20:00","2023","03","28","20:00","7.2","","-6.7","","37","","","","27","","7","","64.4","","97.46","","","","","","NA"
"-120.45","50.70","KAMLOOPS A","1163781","2023-03-28 21:00","2023","03","28","21:00","4.0","","-6.9","","45","","","","30","","8","","64.4","","97.49","","","","","","NA"
"-120.45","50.70","KAMLOOPS A","1163781","2023-03-28 22:00","2023","03","28","22:00","3.8","","-7.4","","44","","","","25","","3","","64.4","","97.51","","","","","","Clear"
"-120.45","50.70","KAMLOOPS A","1163781","2023-03-28 23:00","2023","03","28","23:00","2.4","","-4.2","","62","","","","18","","3","","64.4","","97.51","","","","","","NA"
"-120.45","50.70","KAMLOOPS A","1163781","2023-03-29 00:00","2023","03","29","00:00","0.9","","-7.2","","55","","","","8","","5","","64.4","","97.52","","","","","","NA"
"-120.45","50.70","KAMLOOPS A","1163781","2023-03-29 01:00","2023","03","29","01:00","0.6","","-7.6","","54","","","","5","","4","","64.4","","97.51","","","","","","Clear"
"-120.45","50.70","KAMLOOPS A","1163781","2023-03-29 02:00","2023","03","29","02:00","-0.9","","-7.7","","60","","","","11","","3","","64.4","","97.50","","","","-2","","NA"
"-120.45","50.70","KAMLOOPS A","1163781","2023-03-29 03:00","2023","03","29","03:00","-1.2","","-7.5","","62","","","","36","","1","","64.4","","97.49","","","","-2","","NA"
"-120.45","50.70","KAMLOOPS A","1163781","2023-03-29 04:00","2023","03","29","04:00","-2.2","","-8.2","","64","","","","2","","4","","64.4","","97.46","","","","-4","","Clear"
"-120.45","50.70","KAMLOOPS A","1163781","2023-03-29 05:00","2023","03","29","05:00","-3.1","","-8.0","","69","","","","7","","4","","64.4","","97.45","","","","-5","","NA"
"-120.45","50.70","KAMLOOPS A","1163781","2023-03-29 06:00","2023","03","29","06:00","-3.8","","-7.8","","73","","","","36","","2","","64.4","","97.47","","","","-5","","NA"
"-120.45","50.70","KAMLOOPS A","1163781","2023-03-29 07:00","2023","03","29","07:00","-0.9","","-5.4","","72","","","","10","","7","","64.4","","97.48","","","","-3","","Mainly Clear"
"-120.45","50.70","KAMLOOPS A","1163781","2023-03-29 08:00","2023","03","29","08:00","1.4","","-6.3","","57","","","","36","","2","","64.4","","97.43","","","","","","NA"
"-120.45","50.70","KAMLOOPS A","1163781","2023-03-29 09:00","2023","03","29","09:00","3.2","","-7.7","","45","","","","36","","2","","64.4","","97.35","","","","","","NA"
"-120.45","50.70","KAMLOOPS A","1163781","2023-03-29 10:00","2023","03","29","10:00","4.6","","-8.9","","37","","","","35","","3","","64.4","","97.26","","","","","","Mostly Cloudy"
"-120.45","50.70","KAMLOOPS A","1163781","2023-03-29 11:00","2023","03","29","11:00","7.1","","-8.4","","32","","","","36","","2","","64.4","","97.15","","","","","","NA"
"-120.45","50.70","KAMLOOPS A","1163781","2023-03-29 12:00","2023","03","29","12:00","9.0","","-8.0","","29","","","","18","","9","","64.4","","97.01","","","","","","NA"
"-120.45","50.70","KAMLOOPS A","1163781","2023-03-29 13:00","2023","03","29","13:00","10.7","","-12.3","","19","","","","15","","5","","64.4","","96.88","","","","","","Mostly Cloudy"
"-120.45","50.70","KAMLOOPS A","1163781","2023-03-29 14:00","2023","03","29","14:00","11.6","","-10.6","","20","","","","26","","10","","64.4","","96.79","","","","","","NA"
"-120.45","50.70","KAMLOOPS A","1163781","2023-03-29 15:00","2023","03","29","15:00","12.6","","-11.7","","17","","","","24","","7","","64.4","","96.70","","","","","","NA"
"-120.45","50.70","KAMLOOPS A","1163781","2023-03-29 16:00","2023","03","29","16:00","12.5","","-14.3","","14","","","","36","","2","","64.4","","96.62","","","","","","Mostly Cloudy"
"-120.45","50.70","KAMLOOPS A","1163781","2023-03-29 17:00","2023","03","29","17:00","13.2","","-12.3","","16","","","","7","","3","","64.4","","96.56","","","","","","NA"
"-120.45","50.70","KAMLOOPS A","1163781","2023-03-29 18:00","2023","03","29","18:00","11.0","","-9.1","","23","","","","16","","5","","64.4","","96.52","","","","","","NA"
"-120.45","50.70","KAMLOOPS A","1163781","2023-03-29 19:00","2023","03","29","19:00","7.4","","-8.8","","31","","","","29","","5","","64.4","","96.51","","","","","","Mostly Cloudy"
"-120.45","50.70","KAMLOOPS A","1163781","2023-03-29 20:00","2023","03","29","20:00","7.1","","-9.2","","30","","","","24","","12","","64.4","","96.54","","","","","","NA"
"-120.45","50.70","KAMLOOPS A","1163781","2023-03-29 21:00","2023","03","29","21:00","4.5","","-7.8","","41","","","","24","","7","","64.4","","96.56","","","","","","NA"
"-120.45","50.70","KAMLOOPS A","1163781","2023-03-29 22:00","2023","03","29","22:00","4.5","","-7.7","","41","","","","36","","3","","64.4","","96.59","","","","","","Mostly Cloudy"
"-120.45","50.70","KAMLOOPS A","1163781","2023-03-29 23:00","2023","03","29","23:00","3.0","","-7.5","","46","","","","29","","4","","64.4","","96.59","","","","","","NA"
"-120.45","50.70","KAMLOOPS A","1163781","2023-03-30 00:00","2023","03","30","00:00","2.5","","-6.8","","51","","","","36","","2","","64.4","","96.59","","","","","","NA"
"-120.45","50.70","KAMLOOPS A","1163781","2023-03-30 01:00","2023","03","30","01:00","1.9","","-6.0","","56","","","","36","","2","","64.4","","96.59","","","","","","Mainly Clear"
"-120.45","50.70","KAMLOOPS A","1163781","2023-03-30 02:00","2023","03","30","02:00","-0.3","","-7.9","","57","","","","36","","2","","64.4","","96.61","","","","-1","","NA"
"-120.45","50.70","KAMLOOPS A","1163781","2023-03-30 03:00","2023","03","30","03:00","-0.7","","-7.7","","59","","","","36","","1","","64.4","","96.62","","","","-1","","NA"
"-120.45","50.70","KAMLOOPS A","1163781","2023-03-30 04:00","2023","03","30","04:00","-1.1","","-7.2","","63","","","","8","","3","","64.4","","96.62","","","","-2","","Clear"
"-120.45","50.70","KAMLOOPS A","1163781","2023-03-30 05:00","2023","03","30","05:00","-3.6","","-8.2","","71","","","","36","","3","","64.4","","96.64","","","","-5","","NA"
"-120.45","50.70","KAMLOOPS A","1163781","2023-03-30 06:00","2023","03","30","06:00","-2.6","","-8.2","","66","","","","5","","3","","64.4","","96.67","","","","-4","","NA"
"-120.45","50.70","KAMLOOPS A","1163781","2023-03-30 07:00","2023","03","30","07:00","-0.8","","-5.2","","72","","","","7","","3","","64.4","","96.72","","","","-2","","Clear"
"-120.45","50.70","KAMLOOPS A","1163781","2023-03-30 08:00","2023","03","30","08:00","1.4","","-5.5","","60","","","","36","","3","","64.4","","96.66","","","","","","NA"
"-120.45","50.70","KAMLOOPS A","1163781","2023-03-30 09:00","2023","03","30","09:00","3.7","","-7.2","","45","","","","20","","6","","64.4","","96.64","","","","","","NA"
"-120.45","50.70","KAMLOOPS A","1163781","2023-03-30 10:00","2023","03","30","10:00","6.3","","-7.8","","36","","","","34","","5","","64.4","","96.57","","","","","","Clear"
"-120.45","50.70","KAMLOOPS A","1163781","2023-03-30 11:00","2023","03","30","11:00","8.2","","-7.9","","31","","","","26","","3","","64.4","","96.49","","","","","","NA"
"-120.45","50.70","KAMLOOPS A","1163781","2023-03-30 12:00","2023","03","30","12:00","10.6","","-8.0","","26","","","","32","","8","","64.4","","96.41","","","","","","NA"
"-120.45","50.70","KAMLOOPS A","1163781","2023-03-30 13:00","2023","03","30","13:00","12.8","","-5.2","","28","","","","19","","5","","64.4","","96.33","","","","","","Clear"
"-120.45","50.70","KAMLOOPS A","1163781","2023-03-30 14:00","2023","03","30","14:00","14.0","","-9.2","","19","","","","13","","4","","64.4","","96.25","","","","","","NA"
"-120.45","50.70","KAMLOOPS A","1163781","2023-03-30 15:00","2023","03","30","15:00","15.1","","-9.2","","18","","","","22","","5","","64.4","","96.17","","","","","","NA"
"-120.45","50.70","KAMLOOPS A","1163781","2023-03-30 16:00","2023","03","30","16:00","15.8","","-7.8","","19","","","","14","","5","","64.4","","96.11","","","","","","Clear"
"-120.45","50.70","KAMLOOPS A","1163781","2023-03-30 17:00","2023","03","30","17:00","15.7","","-8.9","","17","","","","13","","3","","64.4","","96.07","","","","","","NA"
"-120.45","50.70","KAMLOOPS A","1163781","2023-03-30 18:00","2023","03","30","18:00","14.7","","-8.6","","19","","","","15","","3","","64.4","","96.05","","","","","","NA"
"-120.45","50.70","KAMLOOPS A","1163781","2023-03-30 19:00","2023","03","30","19:00","9.6","","-6.9","","31","","","","10","","5","","64.4","","96.12","","","","","","Clear"
"-120.45","50.70","KAMLOOPS A","1163781","2023-03-30 20:00","2023","03","30","20:00","11.6","","-5.9","","29","","","","24","","4","","64.4","","96.21","","","","","","NA"
"-120.45","50.70","KAMLOOPS A","1163781","2023-03-30 21:00","2023","03","30","21:00","9.6","","-5.1","","35","","","","20","","3","","64.4","","96.29","","","","","","NA"
"-120.45","50.70","KAMLOOPS A","1163781","2023-03-30 22:00","2023","03","30","22:00","6.6","","-4.2","","46","","","","36","","3","","64.4","","96.36","","","","","","Clear"
"-120.45","50.70","KAMLOOPS A","1163781","2023-03-30 23:00","2023","03","30","23:00","6.8","","-3.9","","47","","","","16","","5","","64.4","","96.44","","","","","","NA"
"-120.45","50.70","KAMLOOPS A","1163781","2023-03-31 00:00","2023","03","31","00:00","5.2","","-4.0","","52","","","","26","","5","","64.4","","96.49","","","","","","NA"
"-120.45","50.70","KAMLOOPS A","1163781","2023-03-31 01:00","2023","03","31","01:00","4.1","","-4.0","","56","","","","36","","2","","64.4","","96.53","","","","","","Clear"
"-120.45","50.70","KAMLOOPS A","1163781","2023-03-31 02:00","2023","03","31","02:00","3.1","","-4.2","","59","","","","36","","1","","64.4","","96.55","","","","","","NA"
"-120.45","50.70","KAMLOOPS A","1163781","2023-03-31 03:00","2023","03","31","03:00","2.0","","-4.0","","64","","","","36","","1","","64.4","","96.58","","","","","","NA"
"-120.45","50.70","KAMLOOPS A","1163781","2023-03-31 04:00","2023","03","31","04:00","2.5","","-3.9","","63","","","","23","","7","","64.4","","96.59","","","","","","Mainly Clear"
"-120.45","50.70","KAMLOOPS A","1163781","2023-03-31 05:00","2023","03","31","05:00","2.2","","-3.8","","65","","","","21","","7","","64.4","","96.62","","","","","","NA"
"-120.45","50.70","KAMLOOPS A","1163781","2023-03-31 06:00","2023","03","31","06:00","2.7","","-4.5","","59","","","","21","","6","","64.4","","96.64","","","","","","NA"
"-120.45","50.70","KAMLOOPS A","1163781","2023-03-31 07:00","2023","03","31","07:00","1.8","","-2.0","","76","","","","11","","4","","64.4","","96.67","","","","","","Mainly Clear"
"-120.45","50.70","KAMLOOPS A","1163781","2023-03-31 08:00","2023","03","31","08:00","5.4","","-3.6","","52","","","","13","","5","","64.4","","96.67","","","","","","NA"
"-120.45","50.70","KAMLOOPS A","1163781","2023-03-31 09:00","2023","03","31","09:00","7.1","","-3.1","","48","","","","21","","5","","64.4","","96.65","","","","","","NA"
"-120.45","50.70","KAMLOOPS A","1163781","2023-03-31 10:00","2023","03","31","10:00","8.4","","-3.5","","43","","","","36","","3","","64.4","","96.66","","","","","","Cloudy"
"-120.45","50.70","KAMLOOPS A","1163781","2023-03-31 11:00","2023","03","31","11:00","9.1","","-4.2","","39","","","","20","","33","","64.4","","96.72","","","","","","NA"
"-120.45","50.70","KAMLOOPS A","1163781","2023-03-31 12:00","2023","03","31","12:00","8.9","","-3.5","","41","","","","18","","28","","64.4","","96.75","","","","","","NA"
"-120.45","50.70","KAMLOOPS A","1163781","2023-03-31 13:00","2023","03","31","13:00","8.5","","-2.3","","46","","","","15","","16","","64.4","","96.75","","","","","","Cloudy"
"-120.45","50.70","KAMLOOPS A","1163781","2023-03-31 14:00","2023","03","31","14:00","9.0","","-3.5","","41","","","","12","","23","","64.4","","96.71","","","","","","NA"
"-120.45","50.70","KAMLOOPS A","1163781","2023-03-31 15:00","2023","03","31","15:00","8.4","","-2.8","","45","","","","15","","29","","64.4","","96.68","","","","","","NA"
"-120.45","50.70","KAMLOOPS A","1163781","2023-03-31 16:00","2023","03","31","16:00","8.4","","-2.1","","48","","","","15","","28","","64.4","","96.64","","","","","","Cloudy"
"-120.45","50.70","KAMLOOPS A","1163781","2023-03-31 17:00","2023","03","31","17:00","8.3","","-1.4","","50","","","","14","","14","","64.4","","96.60","","","","","","NA"
"-120.45","50.70","KAMLOOPS A","1163781","2023-03-31 18:00","2023","03","31","18:00","7.4","","-0.7","","56","","","","9","","19","","64.4","","96.60","","","","","","NA"
"-120.45","50.70","KAMLOOPS A","1163781","2023-03-31 19:00","2023","03","31","19:00","6.4","","0.4","","65","","","","9","","28","","64.4","","96.55","","","","","","Mostly Cloudy"
"-120.45","50.70","KAMLOOPS A","1163781","2023-03-31 20:00","2023","03","31","20:00","5.7","","0.8","","70","","","","10","","29","","64.4","","96.55","","","","","","NA"
"-120.45","50.70","KAMLOOPS A","1163781","2023-03-31 21:00","2023","03","31","21:00","5.0","","1.0","","75","","","","10","","27","","64.4","","96.51","","","","","","NA"
"-120.45","50.70","KAMLOOPS A","1163781","2023-03-31 22:00","2023","03","31","22:00","4.0","","0.8","","80","","","","10","","21","","64.4","","96.46","","","","","","Mostly Cloudy"
"-120.45","50.70","KAMLOOPS A","1163781","2023-03-31 23:00","2023","03","31","23:00","4.4","","0.9","","78","","","","10","","26","","64.4","","96.40","","","","","","NA"
