"Longitude (x)","Latitude (y)","Station Name","Climate ID","Date/Time (LST)","Year","Month","Day","Time (LST)","Temp (°C)","Temp Flag","Dew Point Temp (°C)","Dew Point Temp Flag","Rel Hum (%)","Rel Hum Flag","Precip. Amount (mm)","Precip. Amount Flag","Wind Dir (10s deg)","Wind Dir Flag","Wind Spd (km/h)","Wind Spd Flag","Visibility (km)","Visibility Flag","Stn Press (kPa)","Stn Press Flag","Hmdx","Hmdx Flag","Wind Chill","Wind Chill Flag","Weather"
"-63.55","44.59","HALIFAX KOOTENAY","8202252","2019-11-01 00:00","2019","11","01","00:00","15.8","","14.3","","91","","","","21","","37","","","","100.50","","","","","","NA"
"-63.55","44.59","HALIFAX KOOTENAY","8202252","2019-11-01 01:00","2019","11","01","01:00","16.0","","14.3","","90","","","","21","","39","","","","100.45","","","","","","NA"
"-63.55","44.59","HALIFAX KOOTENAY","8202252","2019-11-01 02:00","2019","11","01","02:00","16.4","","14.6","","89","","","","21","","37","","","","100.39","","","","","","NA"
"-63.55","44.59","HALIFAX KOOTENAY","8202252","2019-11-01 03:00","2019","11","01","03:00","16.3","","14.5","","89","","","","21","","40","","","","100.33","","","","","","NA"
"-63.55","44.59","HALIFAX KOOTENAY","8202252","2019-11-01 04:00","2019","11","01","04:00","16.9","","15.0","","88","","","","21","","40","","","","100.28","","","","","","NA"
"-63.55","44.59","HALIFAX KOOTENAY","8202252","2019-11-01 05:00","2019","11","01","05:00","16.5","","14.7","","89","","","","20","","39","","","","100.18","","","","","","NA"
"-63.55","44.59","HALIFAX KOOTENAY","8202252","2019-11-01 06:00","2019","11","01","06:00","16.8","","14.9","","88","","","","21","","38","","","","100.10","","","","","","NA"
"-63.55","44.59","HALIFAX KOOTENAY","8202252","2019-11-01 07:00","2019","11","01","07:00","16.6","","14.4","","86","","","","20","","42","","","","100.02","","","","","","NA"
"-63.55","44.59","HALIFAX KOOTENAY","8202252","2019-11-01 08:00","2019","11","01","08:00","16.7","","14.6","","88","","","","20","","41","","","","100.01","","","","","","NA"
"-63.55","44.59","HALIFAX KOOTENAY","8202252","2019-11-01 09:00","2019","11","01","09:00","16.6","","14.4","","87","","","","20","","39","","","","99.88","","","","","","NA"
"-63.55","44.59","HALIFAX KOOTENAY","8202252","2019-11-01 10:00","2019","11","01","10:00","17.0","","14.8","","87","","","","20","","43","","","","99.76","","","","","","NA"
"-63.55","44.59","HALIFAX KOOTENAY","8202252","2019-11-01 11:00","2019","11","01","11:00","17.4","","15.1","","86","","","","20","","47","","","","99.63","","","","","","NA"
"-63.55","44.59","HALIFAX KOOTENAY","8202252","2019-11-01 12:00","2019","11","01","12:00","16.5","","15.3","","92","","","","21","","43","","","","99.58","","","","","","NA"
"-63.55","44.59","HALIFAX KOOTENAY","8202252","2019-11-01 13:00","2019","11","01","13:00","14.6","","13.3","","92","","","","23","","47","","","","99.54","","","","","","NA"
"-63.55","44.59","HALIFAX KOOTENAY","8202252","2019-11-01 14:00","2019","11","01","14:00","13.2","","11.7","","91","","","","23","","47","","","","99.62","","","","","","NA"
"-63.55","44.59","HALIFAX KOOTENAY","8202252","2019-11-01 15:00","2019","11","01","15:00","13.4","","10.5","","83","","","","23","","45","","","","99.69","","","","","","NA"
"-63.55","44.59","HALIFAX KOOTENAY","8202252","2019-11-01 16:00","2019","11","01","16:00","12.8","","8.6","","75","","","","23","","40","","","","99.77","","","","","","NA"
"-63.55","44.59","HALIFAX KOOTENAY","8202252","2019-11-01 17:00","2019","11","01","17:00","12.2","","5.4","","63","","","","25","","43","","","","99.97","","","","","","NA"
"-63.55","44.59","HALIFAX KOOTENAY","8202252","2019-11-01 18:00","2019","11","01","18:00","10.9","","3.4","","60","","","","26","","35","","","","100.22","","","","","","NA"
"-63.55","44.59","HALIFAX KOOTENAY","8202252","2019-11-01 19:00","2019","11","01","19:00","10.3","","3.5","","63","","","","25","","36","","","","100.28","","","","","","NA"
"-63.55","44.59","HALIFAX KOOTENAY","8202252","2019-11-01 20:00","2019","11","01","20:00","9.9","","3.8","","66","","","","25","","28","","","","100.42","","","","","","NA"
"-63.55","44.59","HALIFAX KOOTENAY","8202252","2019-11-01 21:00","2019","11","01","21:00","9.4","","3.9","","69","","","","25","","22","","","","100.48","","","","","","NA"
"-63.55","44.59","HALIFAX KOOTENAY","8202252","2019-11-01 22:00","2019","11","01","22:00","9.5","","3.9","","68","","","","25","","19","","","","100.56","","","","","","NA"
"-63.55","44.59","HALIFAX KOOTENAY","8202252","2019-11-01 23:00","2019","11","01","23:00","9.0","","3.4","","68","","","","26","","22","","","","100.61","","","","","","NA"
"-63.55","44.59","HALIFAX KOOTENAY","8202252","2019-11-02 00:00","2019","11","02","00:00","7.9","","1.9","","66","","","","27","","15","","","","100.69","","","","","","NA"
"-63.55","44.59","HALIFAX KOOTENAY","8202252","2019-11-02 01:00","2019","11","02","01:00","6.9","","0.4","","63","","","","27","","16","","","","100.80","","","","","","NA"
"-63.55","44.59","HALIFAX KOOTENAY","8202252","2019-11-02 02:00","2019","11","02","02:00","6.0","","-0.5","","63","","","","28","","14","","","","100.87","","","","","","NA"
"-63.55","44.59","HALIFAX KOOTENAY","8202252","2019-11-02 03:00","2019","11","02","03:00","4.5","","-0.6","","70","","","","28","","12","","","","101.00","","","","","","NA"
"-63.55","44.59","HALIFAX KOOTENAY","8202252","2019-11-02 04:00","2019","11","02","04:00","4.6","","-1.2","","66","","","","28","","16","","","","101.08","","","","","","NA"
"-63.55","44.59","HALIFAX KOOTENAY","8202252","2019-11-02 05:00","2019","11","02","05:00","3.9","","-1.6","","68","","","","30","","13","","","","101.16","","","","","","NA"
"-63.55","44.59","HALIFAX KOOTENAY","8202252","2019-11-02 06:00","2019","11","02","06:00","2.6","","-1.6","","74","","","","27","","10","","","","101.21","","","","","","NA"
"-63.55","44.59","HALIFAX KOOTENAY","8202252","2019-11-02 07:00","2019","11","02","07:00","2.0","","-1.8","","76","","","","28","","12","","","","101.27","","","","","","NA"
"-63.55","44.59","HALIFAX KOOTENAY","8202252","2019-11-02 08:00","2019","11","02","08:00","3.5","","-1.8","","68","","","","29","","11","","","","101.37","","","","","","NA"
"-63.55","44.59","HALIFAX KOOTENAY","8202252","2019-11-02 09:00","2019","11","02","09:00","5.7","","-1.5","","60","","","","30","","10","","","","101.43","","","","","","NA"
"-63.55","44.59","HALIFAX KOOTENAY","8202252","2019-11-02 10:00","2019","11","02","10:00","6.4","","-1.8","","56","","","","34","","8","","","","101.43","","","","","","NA"
"-63.55","44.59","HALIFAX KOOTENAY","8202252","2019-11-02 11:00","2019","11","02","11:00","6.9","","-1.6","","55","","","","35","","8","","","","101.43","","","","","","NA"
"-63.55","44.59","HALIFAX KOOTENAY","8202252","2019-11-02 12:00","2019","11","02","12:00","8.1","","-1.3","","52","","","","4","","4","","","","101.40","","","","","","NA"
"-63.55","44.59","HALIFAX KOOTENAY","8202252","2019-11-02 13:00","2019","11","02","13:00","9.0","","-0.8","","50","","","","4","","7","","","","101.37","","","","","","NA"
"-63.55","44.59","HALIFAX KOOTENAY","8202252","2019-11-02 14:00","2019","11","02","14:00","9.3","","0.2","","53","","","","7","","7","","","","101.40","","","","","","NA"
"-63.55","44.59","HALIFAX KOOTENAY","8202252","2019-11-02 15:00","2019","11","02","15:00","7.9","","0.7","","61","","","","16","","20","","","","101.38","","","","","","NA"
"-63.55","44.59","HALIFAX KOOTENAY","8202252","2019-11-02 16:00","2019","11","02","16:00","7.8","","0.4","","59","","","","18","","13","","","","101.42","","","","","","NA"
"-63.55","44.59","HALIFAX KOOTENAY","8202252","2019-11-02 17:00","2019","11","02","17:00","6.5","","0.6","","66","","","","20","","8","","","","101.42","","","","","","NA"
"-63.55","44.59","HALIFAX KOOTENAY","8202252","2019-11-02 18:00","2019","11","02","18:00","5.4","","0.4","","70","","","","20","","9","","","","101.43","","","","","","NA"
"-63.55","44.59","HALIFAX KOOTENAY","8202252","2019-11-02 19:00","2019","11","02","19:00","4.8","","0.5","","74","","","","21","","8","","","","101.41","","","","","","NA"
"-63.55","44.59","HALIFAX KOOTENAY","8202252","2019-11-02 20:00","2019","11","02","20:00","4.4","","0.4","","75","","","","22","","7","","","","101.37","","","","","","NA"
"-63.55","44.59","HALIFAX KOOTENAY","8202252","2019-11-02 21:00","2019","11","02","21:00","5.2","","1.0","","74","","","","19","","5","","","","101.33","","","","","","NA"
"-63.55","44.59","HALIFAX KOOTENAY","8202252","2019-11-02 22:00","2019","11","02","22:00","5.6","","1.5","","75","","","","15","","8","","","","101.27","","","","","","NA"
"-63.55","44.59","HALIFAX KOOTENAY","8202252","2019-11-02 23:00","2019","11","02","23:00","6.3","","1.9","","74","","","","15","","13","","","","101.21","","","","","","NA"
"-63.55","44.59","HALIFAX KOOTENAY","8202252","2019-11-03 00:00","2019","11","03","00:00","5.9","","2.3","","78","","","","18","","10","","","","101.13","","","","","","NA"
"-63.55","44.59","HALIFAX KOOTENAY","8202252","2019-11-03 01:00","2019","11","03","01:00","7.2","","3.2","","76","","","","15","","13","","","","101.03","","","","","","NA"
"-63.55","44.59","HALIFAX KOOTENAY","8202252","2019-11-03 02:00","2019","11","03","02:00","6.8","","3.2","","78","","","","19","","7","","","","100.93","","","","","","NA"
"-63.55","44.59","HALIFAX KOOTENAY","8202252","2019-11-03 03:00","2019","11","03","03:00","6.7","","3.1","","78","","","","19","","5","","","","100.85","","","","","","NA"
"-63.55","44.59","HALIFAX KOOTENAY","8202252","2019-11-03 04:00","2019","11","03","04:00","5.8","","2.9","","82","","","","35","","3","","","","100.73","","","","","","NA"
"-63.55","44.59","HALIFAX KOOTENAY","8202252","2019-11-03 05:00","2019","11","03","05:00","5.4","","3.7","","89","","","","1","","9","","","","100.58","","","","","","NA"
"-63.55","44.59","HALIFAX KOOTENAY","8202252","2019-11-03 06:00","2019","11","03","06:00","5.8","","3.9","","88","","","","2","","6","","","","100.49","","","","","","NA"
"-63.55","44.59","HALIFAX KOOTENAY","8202252","2019-11-03 07:00","2019","11","03","07:00","6.3","","4.7","","89","","","","36","","7","","","","100.39","","","","","","NA"
"-63.55","44.59","HALIFAX KOOTENAY","8202252","2019-11-03 08:00","2019","11","03","08:00","5.0","","4.1","","94","","","","31","","6","","","","100.38","","","","","","NA"
"-63.55","44.59","HALIFAX KOOTENAY","8202252","2019-11-03 09:00","2019","11","03","09:00","5.1","","4.3","","95","","","","29","","7","","","","100.33","","","","","","NA"
"-63.55","44.59","HALIFAX KOOTENAY","8202252","2019-11-03 10:00","2019","11","03","10:00","6.3","","5.5","","95","","","","29","","2","","","","100.39","","","","","","NA"
"-63.55","44.59","HALIFAX KOOTENAY","8202252","2019-11-03 11:00","2019","11","03","11:00","8.1","","7.2","","94","","","","28","","5","","","","100.34","","","","","","NA"
"-63.55","44.59","HALIFAX KOOTENAY","8202252","2019-11-03 12:00","2019","11","03","12:00","10.4","","6.6","","77","","","","24","","13","","","","100.30","","","","","","NA"
"-63.55","44.59","HALIFAX KOOTENAY","8202252","2019-11-03 13:00","2019","11","03","13:00","10.3","","5.6","","73","","","","26","","21","","","","100.26","","","","","","NA"
"-63.55","44.59","HALIFAX KOOTENAY","8202252","2019-11-03 14:00","2019","11","03","14:00","10.0","","5.2","","72","","","","25","","20","","","","100.27","","","","","","NA"
"-63.55","44.59","HALIFAX KOOTENAY","8202252","2019-11-03 15:00","2019","11","03","15:00","10.9","","3.0","","58","","","","26","","19","","","","100.33","","","","","","NA"
"-63.55","44.59","HALIFAX KOOTENAY","8202252","2019-11-03 16:00","2019","11","03","16:00","10.4","","2.6","","58","","","","28","","26","","","","100.42","","","","","","NA"
"-63.55","44.59","HALIFAX KOOTENAY","8202252","2019-11-03 17:00","2019","11","03","17:00","8.3","","3.8","","73","","","","27","","17","","","","100.54","","","","","","NA"
"-63.55","44.59","HALIFAX KOOTENAY","8202252","2019-11-03 18:00","2019","11","03","18:00","6.7","","3.5","","80","","","","27","","15","","","","100.70","","","","","","NA"
"-63.55","44.59","HALIFAX KOOTENAY","8202252","2019-11-03 19:00","2019","11","03","19:00","5.8","","2.1","","77","","","","28","","12","","","","100.79","","","","","","NA"
"-63.55","44.59","HALIFAX KOOTENAY","8202252","2019-11-03 20:00","2019","11","03","20:00","4.4","","1.5","","82","","","","27","","15","","","","100.88","","","","","","NA"
"-63.55","44.59","HALIFAX KOOTENAY","8202252","2019-11-03 21:00","2019","11","03","21:00","3.8","","1.2","","83","","","","26","","10","","","","100.97","","","","","","NA"
"-63.55","44.59","HALIFAX KOOTENAY","8202252","2019-11-03 22:00","2019","11","03","22:00","3.6","","1.3","","85","","","","27","","13","","","","101.01","","","","","","NA"
"-63.55","44.59","HALIFAX KOOTENAY","8202252","2019-11-03 23:00","2019","11","03","23:00","3.2","","1.3","","87","","","","28","","13","","","","101.07","","","","","","NA"
"-63.55","44.59","HALIFAX KOOTENAY","8202252","2019-11-04 00:00","2019","11","04","00:00","3.4","","1.5","","88","","","","27","","12","","","","101.12","","","","","","NA"
"-63.55","44.59","HALIFAX KOOTENAY","8202252","2019-11-04 01:00","2019","11","04","01:00","3.3","","1.6","","89","","","","27","","11","","","","101.15","","","","","","NA"
"-63.55","44.59","HALIFAX KOOTENAY","8202252","2019-11-04 02:00","2019","11","04","02:00","3.2","","1.7","","90","","","","27","","12","","","","101.20","","","","","","NA"
"-63.55","44.59","HALIFAX KOOTENAY","8202252","2019-11-04 03:00","2019","11","04","03:00","3.4","","2.0","","91","","","","28","","12","","","","101.24","","","","","","NA"
"-63.55","44.59","HALIFAX KOOTENAY","8202252","2019-11-04 04:00","2019","11","04","04:00","3.2","","1.4","","88","","","","28","","11","","","","101.30","","","","","","NA"
"-63.55","44.59","HALIFAX KOOTENAY","8202252","2019-11-04 05:00","2019","11","04","05:00","3.6","","1.0","","83","","","","27","","11","","","","101.34","","","","","","NA"
"-63.55","44.59","HALIFAX KOOTENAY","8202252","2019-11-04 06:00","2019","11","04","06:00","3.6","","0.9","","82","","","","26","","12","","","","101.42","","","","","","NA"
"-63.55","44.59","HALIFAX KOOTENAY","8202252","2019-11-04 07:00","2019","11","04","07:00","3.5","","1.3","","85","","","","26","","12","","","","101.48","","","","","","NA"
"-63.55","44.59","HALIFAX KOOTENAY","8202252","2019-11-04 08:00","2019","11","04","08:00","4.7","","1.5","","79","","","","28","","13","","","","101.57","","","","","","NA"
"-63.55","44.59","HALIFAX KOOTENAY","8202252","2019-11-04 09:00","2019","11","04","09:00","7.3","","1.8","","68","","","","28","","7","","","","101.66","","","","","","NA"
"-63.55","44.59","HALIFAX KOOTENAY","8202252","2019-11-04 10:00","2019","11","04","10:00","8.2","","1.1","","61","","","","32","","13","","","","101.71","","","","","","NA"
"-63.55","44.59","HALIFAX KOOTENAY","8202252","2019-11-04 11:00","2019","11","04","11:00","9.4","","1.9","","60","","","","31","","11","","","","101.71","","","","","","NA"
"-63.55","44.59","HALIFAX KOOTENAY","8202252","2019-11-04 12:00","2019","11","04","12:00","9.5","","0.4","","53","","","","27","","16","","","","101.71","","","","","","NA"
"-63.55","44.59","HALIFAX KOOTENAY","8202252","2019-11-04 13:00","2019","11","04","13:00","10.6","","-1.6","","42","","","","28","","18","","","","101.70","","","","","","NA"
"-63.55","44.59","HALIFAX KOOTENAY","8202252","2019-11-04 14:00","2019","11","04","14:00","11.2","","-1.7","","41","","","","27","","11","","","","101.75","","","","","","NA"
"-63.55","44.59","HALIFAX KOOTENAY","8202252","2019-11-04 15:00","2019","11","04","15:00","10.9","","-2.4","","39","","","","27","","13","","","","101.79","","","","","","NA"
"-63.55","44.59","HALIFAX KOOTENAY","8202252","2019-11-04 16:00","2019","11","04","16:00","10.1","","-3.1","","39","","","","29","","14","","","","101.87","","","","","","NA"
"-63.55","44.59","HALIFAX KOOTENAY","8202252","2019-11-04 17:00","2019","11","04","17:00","8.0","","-3.0","","46","","","","28","","10","","","","101.95","","","","","","NA"
"-63.55","44.59","HALIFAX KOOTENAY","8202252","2019-11-04 18:00","2019","11","04","18:00","6.0","","-2.8","","53","","","","27","","8","","","","102.03","","","","","","NA"
"-63.55","44.59","HALIFAX KOOTENAY","8202252","2019-11-04 19:00","2019","11","04","19:00","5.7","","-2.6","","55","","","","28","","9","","","","102.10","","","","","","NA"
"-63.55","44.59","HALIFAX KOOTENAY","8202252","2019-11-04 20:00","2019","11","04","20:00","5.7","","-2.3","","56","","","","29","","8","","","","102.17","","","","","","NA"
"-63.55","44.59","HALIFAX KOOTENAY","8202252","2019-11-04 21:00","2019","11","04","21:00","6.4","","1.4","","70","","","","36","","7","","","","102.16","","","","","","NA"
"-63.55","44.59","HALIFAX KOOTENAY","8202252","2019-11-04 22:00","2019","11","04","22:00","6.1","","1.6","","73","","","","7","","7","","","","102.19","","","","","","NA"
"-63.55","44.59","HALIFAX KOOTENAY","8202252","2019-11-04 23:00","2019","11","04","23:00","5.5","","0.5","","70","","","","7","","6","","","","102.24","","","","","","NA"
"-63.55","44.59","HALIFAX KOOTENAY","8202252","2019-11-05 00:00","2019","11","05","00:00","5.4","","0.8","","72","","","","5","","3","","","","102.28","","","","","","NA"
"-63.55","44.59","HALIFAX KOOTENAY","8202252","2019-11-05 01:00","2019","11","05","01:00","5.5","","1.4","","75","","","","6","","6","","","","102.27","","","","","","NA"
"-63.55","44.59","HALIFAX KOOTENAY","8202252","2019-11-05 02:00","2019","11","05","02:00","4.2","","1.3","","81","","","","","","0","","","","102.27","","","","","","NA"
"-63.55","44.59","HALIFAX KOOTENAY","8202252","2019-11-05 03:00","2019","11","05","03:00","5.7","","2.5","","80","","","","","","0","","","","102.26","","","","","","NA"
"-63.55","44.59","HALIFAX KOOTENAY","8202252","2019-11-05 04:00","2019","11","05","04:00","5.7","","2.6","","81","","","","","","0","","","","102.30","","","","","","NA"
"-63.55","44.59","HALIFAX KOOTENAY","8202252","2019-11-05 05:00","2019","11","05","05:00","5.5","","3.0","","84","","","","15","","2","","","","102.31","","","","","","NA"
"-63.55","44.59","HALIFAX KOOTENAY","8202252","2019-11-05 06:00","2019","11","05","06:00","5.8","","3.3","","84","","","","17","","6","","","","102.34","","","","","","NA"
"-63.55","44.59","HALIFAX KOOTENAY","8202252","2019-11-05 07:00","2019","11","05","07:00","5.8","","2.4","","78","","","","21","","13","","","","102.36","","","","","","NA"
"-63.55","44.59","HALIFAX KOOTENAY","8202252","2019-11-05 08:00","2019","11","05","08:00","7.0","","3.1","","76","","","","21","","12","","","","102.40","","","","","","NA"
"-63.55","44.59","HALIFAX KOOTENAY","8202252","2019-11-05 09:00","2019","11","05","09:00","10.1","","4.8","","70","","","","20","","13","","","","102.42","","","","","","NA"
"-63.55","44.59","HALIFAX KOOTENAY","8202252","2019-11-05 10:00","2019","11","05","10:00","10.8","","5.6","","70","","","","19","","16","","","","102.38","","","","","","NA"
"-63.55","44.59","HALIFAX KOOTENAY","8202252","2019-11-05 11:00","2019","11","05","11:00","11.0","","5.4","","68","","","","20","","21","","","","102.35","","","","","","NA"
"-63.55","44.59","HALIFAX KOOTENAY","8202252","2019-11-05 12:00","2019","11","05","12:00","11.5","","5.4","","66","","","","19","","26","","","","102.26","","","","","","NA"
"-63.55","44.59","HALIFAX KOOTENAY","8202252","2019-11-05 13:00","2019","11","05","13:00","11.7","","6.0","","68","","","","19","","21","","","","102.20","","","","","","NA"
"-63.55","44.59","HALIFAX KOOTENAY","8202252","2019-11-05 14:00","2019","11","05","14:00","12.6","","6.4","","66","","","","18","","20","","","","102.11","","","","","","NA"
"-63.55","44.59","HALIFAX KOOTENAY","8202252","2019-11-05 15:00","2019","11","05","15:00","11.9","","7.2","","73","","","","17","","19","","","","102.08","","","","","","NA"
"-63.55","44.59","HALIFAX KOOTENAY","8202252","2019-11-05 16:00","2019","11","05","16:00","11.2","","7.7","","79","","","","17","","17","","","","102.05","","","","","","NA"
"-63.55","44.59","HALIFAX KOOTENAY","8202252","2019-11-05 17:00","2019","11","05","17:00","11.0","","9.4","","90","","","","16","","22","","","","101.97","","","","","","NA"
"-63.55","44.59","HALIFAX KOOTENAY","8202252","2019-11-05 18:00","2019","11","05","18:00","11.0","","9.5","","91","","","","16","","24","","","","101.87","","","","","","NA"
"-63.55","44.59","HALIFAX KOOTENAY","8202252","2019-11-05 19:00","2019","11","05","19:00","11.2","","9.8","","91","","","","16","","20","","","","101.81","","","","","","NA"
"-63.55","44.59","HALIFAX KOOTENAY","8202252","2019-11-05 20:00","2019","11","05","20:00","11.3","","10.2","","93","","","","16","","20","","","","101.65","","","","","","NA"
"-63.55","44.59","HALIFAX KOOTENAY","8202252","2019-11-05 21:00","2019","11","05","21:00","11.9","","10.8","","93","","","","16","","22","","","","101.59","","","","","","NA"
"-63.55","44.59","HALIFAX KOOTENAY","8202252","2019-11-05 22:00","2019","11","05","22:00","12.0","","10.8","","93","","","","17","","19","","","","101.49","","","","","","NA"
"-63.55","44.59","HALIFAX KOOTENAY","8202252","2019-11-05 23:00","2019","11","05","23:00","12.0","","11.0","","94","","","","17","","23","","","","101.30","","","","","","NA"
"-63.55","44.59","HALIFAX KOOTENAY","8202252","2019-11-06 00:00","2019","11","06","00:00","12.2","","11.3","","94","","","","17","","23","","","","101.12","","","","","","NA"
"-63.55","44.59","HALIFAX KOOTENAY","8202252","2019-11-06 01:00","2019","11","06","01:00","12.5","","11.7","","95","","","","17","","25","","","","100.96","","","","","","NA"
"-63.55","44.59","HALIFAX KOOTENAY","8202252","2019-11-06 02:00","2019","11","06","02:00","13.3","","12.8","","96","","","","19","","33","","","","100.83","","","","","","NA"
"-63.55","44.59","HALIFAX KOOTENAY","8202252","2019-11-06 03:00","2019","11","06","03:00","13.9","","13.4","","97","","","","21","","36","","","","100.77","","","","","","NA"
"-63.55","44.59","HALIFAX KOOTENAY","8202252","2019-11-06 04:00","2019","11","06","04:00","13.8","","13.3","","96","","","","22","","28","","","","100.62","","","","","","NA"
"-63.55","44.59","HALIFAX KOOTENAY","8202252","2019-11-06 05:00","2019","11","06","05:00","13.3","","12.6","","95","","","","22","","33","","","","100.54","","","","","","NA"
"-63.55","44.59","HALIFAX KOOTENAY","8202252","2019-11-06 06:00","2019","11","06","06:00","13.6","","12.9","","96","","","","23","","31","","","","100.51","","","","","","NA"
"-63.55","44.59","HALIFAX KOOTENAY","8202252","2019-11-06 07:00","2019","11","06","07:00","12.6","","11.9","","96","","","","26","","25","","","","100.49","","","","","","NA"
"-63.55","44.59","HALIFAX KOOTENAY","8202252","2019-11-06 08:00","2019","11","06","08:00","12.2","","11.2","","94","","","","27","","21","","","","100.62","","","","","","NA"
"-63.55","44.59","HALIFAX KOOTENAY","8202252","2019-11-06 09:00","2019","11","06","09:00","11.2","","8.8","","85","","","","27","","28","","","","100.72","","","","","","NA"
"-63.55","44.59","HALIFAX KOOTENAY","8202252","2019-11-06 10:00","2019","11","06","10:00","11.7","","7.9","","77","","","","27","","24","","","","100.79","","","","","","NA"
"-63.55","44.59","HALIFAX KOOTENAY","8202252","2019-11-06 11:00","2019","11","06","11:00","11.6","","5.8","","68","","","","27","","24","","","","100.83","","","","","","NA"
"-63.55","44.59","HALIFAX KOOTENAY","8202252","2019-11-06 12:00","2019","11","06","12:00","11.0","","3.7","","61","","","","27","","29","","","","100.90","","","","","","NA"
"-63.55","44.59","HALIFAX KOOTENAY","8202252","2019-11-06 13:00","2019","11","06","13:00","10.4","","0.5","","50","","","","27","","33","","","","100.96","","","","","","NA"
"-63.55","44.59","HALIFAX KOOTENAY","8202252","2019-11-06 14:00","2019","11","06","14:00","10.2","","-2.6","","41","","","","27","","35","","","","100.92","","","","","","NA"
"-63.55","44.59","HALIFAX KOOTENAY","8202252","2019-11-06 15:00","2019","11","06","15:00","9.5","","-3.0","","41","","","","27","","30","","","","101.02","","","","","","NA"
"-63.55","44.59","HALIFAX KOOTENAY","8202252","2019-11-06 16:00","2019","11","06","16:00","8.5","","-3.7","","42","","","","29","","29","","","","101.15","","","","","","NA"
"-63.55","44.59","HALIFAX KOOTENAY","8202252","2019-11-06 17:00","2019","11","06","17:00","6.9","","-3.1","","49","","","","27","","19","","","","101.27","","","","","","NA"
"-63.55","44.59","HALIFAX KOOTENAY","8202252","2019-11-06 18:00","2019","11","06","18:00","5.4","","-2.0","","59","","","","27","","14","","","","101.36","","","","","","NA"
"-63.55","44.59","HALIFAX KOOTENAY","8202252","2019-11-06 19:00","2019","11","06","19:00","5.5","","-1.8","","59","","","","27","","16","","","","101.46","","","","","","NA"
"-63.55","44.59","HALIFAX KOOTENAY","8202252","2019-11-06 20:00","2019","11","06","20:00","4.5","","-1.5","","65","","","","26","","14","","","","101.51","","","","","","NA"
"-63.55","44.59","HALIFAX KOOTENAY","8202252","2019-11-06 21:00","2019","11","06","21:00","5.0","","-2.0","","60","","","","29","","19","","","","101.63","","","","","","NA"
"-63.55","44.59","HALIFAX KOOTENAY","8202252","2019-11-06 22:00","2019","11","06","22:00","3.7","","-2.6","","63","","","","28","","14","","","","101.71","","","","","","NA"
"-63.55","44.59","HALIFAX KOOTENAY","8202252","2019-11-06 23:00","2019","11","06","23:00","2.6","","-3.0","","66","","","","28","","8","","","","101.77","","","","","","NA"
"-63.55","44.59","HALIFAX KOOTENAY","8202252","2019-11-07 00:00","2019","11","07","00:00","1.6","","-3.0","","72","","","","27","","13","","","","101.82","","","","","","NA"
"-63.55","44.59","HALIFAX KOOTENAY","8202252","2019-11-07 01:00","2019","11","07","01:00","1.4","","-3.2","","71","","","","28","","12","","","","101.85","","","","","","NA"
"-63.55","44.59","HALIFAX KOOTENAY","8202252","2019-11-07 02:00","2019","11","07","02:00","1.8","","-3.6","","67","","","","30","","18","","","","101.83","","","","","","NA"
"-63.55","44.59","HALIFAX KOOTENAY","8202252","2019-11-07 03:00","2019","11","07","03:00","1.3","","-3.5","","70","","","","30","","16","","","","101.84","","","","","","NA"
"-63.55","44.59","HALIFAX KOOTENAY","8202252","2019-11-07 04:00","2019","11","07","04:00","0.2","","-3.8","","75","","","","29","","10","","","","101.82","","","","","","NA"
"-63.55","44.59","HALIFAX KOOTENAY","8202252","2019-11-07 05:00","2019","11","07","05:00","-0.6","","-4.6","","74","","","","28","","7","","","","101.83","","","","-3","","NA"
"-63.55","44.59","HALIFAX KOOTENAY","8202252","2019-11-07 06:00","2019","11","07","06:00","-0.4","","-4.5","","74","","","","25","","6","","","","101.80","","","","-2","","NA"
"-63.55","44.59","HALIFAX KOOTENAY","8202252","2019-11-07 07:00","2019","11","07","07:00","-0.3","","-4.4","","74","","","","23","","8","","","","101.80","","","","-3","","NA"
"-63.55","44.59","HALIFAX KOOTENAY","8202252","2019-11-07 08:00","2019","11","07","08:00","2.0","","-4.9","","60","","","","21","","9","","","","101.82","","","","","","NA"
"-63.55","44.59","HALIFAX KOOTENAY","8202252","2019-11-07 09:00","2019","11","07","09:00","5.1","","-3.2","","55","","","","17","","14","","","","101.70","","","","","","NA"
"-63.55","44.59","HALIFAX KOOTENAY","8202252","2019-11-07 10:00","2019","11","07","10:00","6.3","","-0.2","","63","","","","19","","16","","","","101.74","","","","","","NA"
"-63.55","44.59","HALIFAX KOOTENAY","8202252","2019-11-07 11:00","2019","11","07","11:00","8.0","","1.4","","63","","","","19","","22","","","","101.60","","","","","","NA"
"-63.55","44.59","HALIFAX KOOTENAY","8202252","2019-11-07 12:00","2019","11","07","12:00","9.3","","3.6","","67","","","","20","","24","","","","101.43","","","","","","NA"
"-63.55","44.59","HALIFAX KOOTENAY","8202252","2019-11-07 13:00","2019","11","07","13:00","10.1","","4.1","","66","","","","22","","31","","","","101.31","","","","","","NA"
"-63.55","44.59","HALIFAX KOOTENAY","8202252","2019-11-07 14:00","2019","11","07","14:00","9.8","","4.3","","69","","","","22","","31","","","","101.23","","","","","","NA"
"-63.55","44.59","HALIFAX KOOTENAY","8202252","2019-11-07 15:00","2019","11","07","15:00","10.2","","4.8","","69","","","","22","","34","","","","101.16","","","","","","NA"
"-63.55","44.59","HALIFAX KOOTENAY","8202252","2019-11-07 16:00","2019","11","07","16:00","9.7","","5.2","","74","","","","22","","30","","","","101.15","","","","","","NA"
"-63.55","44.59","HALIFAX KOOTENAY","8202252","2019-11-07 17:00","2019","11","07","17:00","9.2","","5.8","","79","","","","22","","27","","","","101.05","","","","","","NA"
"-63.55","44.59","HALIFAX KOOTENAY","8202252","2019-11-07 18:00","2019","11","07","18:00","9.1","","5.9","","81","","","","22","","24","","","","100.98","","","","","","NA"
"-63.55","44.59","HALIFAX KOOTENAY","8202252","2019-11-07 19:00","2019","11","07","19:00","9.2","","6.8","","85","","","","23","","23","","","","100.97","","","","","","NA"
"-63.55","44.59","HALIFAX KOOTENAY","8202252","2019-11-07 20:00","2019","11","07","20:00","9.0","","7.3","","89","","","","22","","22","","","","100.88","","","","","","NA"
"-63.55","44.59","HALIFAX KOOTENAY","8202252","2019-11-07 21:00","2019","11","07","21:00","9.5","","7.4","","87","","","","22","","19","","","","100.81","","","","","","NA"
"-63.55","44.59","HALIFAX KOOTENAY","8202252","2019-11-07 22:00","2019","11","07","22:00","9.7","","7.8","","88","","","","21","","20","","","","100.70","","","","","","NA"
"-63.55","44.59","HALIFAX KOOTENAY","8202252","2019-11-07 23:00","2019","11","07","23:00","10.1","","7.8","","85","","","","21","","18","","","","100.55","","","","","","NA"
"-63.55","44.59","HALIFAX KOOTENAY","8202252","2019-11-08 00:00","2019","11","08","00:00","10.1","","8.1","","87","","","","20","","22","","","","100.41","","","","","","NA"
"-63.55","44.59","HALIFAX KOOTENAY","8202252","2019-11-08 01:00","2019","11","08","01:00","10.3","","7.3","","82","","","","20","","19","","","","100.15","","","","","","NA"
"-63.55","44.59","HALIFAX KOOTENAY","8202252","2019-11-08 02:00","2019","11","08","02:00","10.5","","8.8","","89","","","","19","","20","","","","100.06","","","","","","NA"
"-63.55","44.59","HALIFAX KOOTENAY","8202252","2019-11-08 03:00","2019","11","08","03:00","10.5","","9.5","","93","","","","19","","11","","","","99.90","","","","","","NA"
"-63.55","44.59","HALIFAX KOOTENAY","8202252","2019-11-08 04:00","2019","11","08","04:00","5.8","","5.0","","95","","","","33","","32","","","","99.78","","","","","","NA"
"-63.55","44.59","HALIFAX KOOTENAY","8202252","2019-11-08 05:00","2019","11","08","05:00","5.4","","4.7","","95","","","","1","","13","","","","99.71","","","","","","NA"
"-63.55","44.59","HALIFAX KOOTENAY","8202252","2019-11-08 06:00","2019","11","08","06:00","5.2","","4.6","","96","","","","32","","6","","","","99.74","","","","","","NA"
"-63.55","44.59","HALIFAX KOOTENAY","8202252","2019-11-08 07:00","2019","11","08","07:00","4.8","","4.2","","96","","","","32","","11","","","","99.76","","","","","","NA"
"-63.55","44.59","HALIFAX KOOTENAY","8202252","2019-11-08 08:00","2019","11","08","08:00","4.5","","3.8","","95","","","","33","","6","","","","99.77","","","","","","NA"
"-63.55","44.59","HALIFAX KOOTENAY","8202252","2019-11-08 09:00","2019","11","08","09:00","4.1","","3.3","","95","","","","33","","8","","","","99.73","","","","","","NA"
"-63.55","44.59","HALIFAX KOOTENAY","8202252","2019-11-08 10:00","2019","11","08","10:00","3.9","","3.0","","93","","","","32","","12","","","","99.67","","","","","","NA"
"-63.55","44.59","HALIFAX KOOTENAY","8202252","2019-11-08 11:00","2019","11","08","11:00","3.7","","2.4","","92","","","","34","","12","","","","99.60","","","","","","NA"
"-63.55","44.59","HALIFAX KOOTENAY","8202252","2019-11-08 12:00","2019","11","08","12:00","3.5","","2.1","","91","","","","34","","12","","","","99.53","","","","","","NA"
"-63.55","44.59","HALIFAX KOOTENAY","8202252","2019-11-08 13:00","2019","11","08","13:00","3.6","","2.1","","90","","","","33","","11","","","","99.53","","","","","","NA"
"-63.55","44.59","HALIFAX KOOTENAY","8202252","2019-11-08 14:00","2019","11","08","14:00","4.0","","2.2","","88","","","","32","","14","","","","99.51","","","","","","NA"
"-63.55","44.59","HALIFAX KOOTENAY","8202252","2019-11-08 15:00","2019","11","08","15:00","4.1","","2.2","","87","","","","30","","12","","","","99.52","","","","","","NA"
"-63.55","44.59","HALIFAX KOOTENAY","8202252","2019-11-08 16:00","2019","11","08","16:00","4.0","","2.4","","89","","","","2","","8","","","","99.43","","","","","","NA"
"-63.55","44.59","HALIFAX KOOTENAY","8202252","2019-11-08 17:00","2019","11","08","17:00","3.8","","2.2","","89","","","","31","","9","","","","99.46","","","","","","NA"
"-63.55","44.59","HALIFAX KOOTENAY","8202252","2019-11-08 18:00","2019","11","08","18:00","1.9","","0.9","","94","","","","35","","22","","","","99.54","","","","","","NA"
"-63.55","44.59","HALIFAX KOOTENAY","8202252","2019-11-08 19:00","2019","11","08","19:00","1.3","","0.0","","91","","","","35","","18","","","","99.70","","","","","","NA"
"-63.55","44.59","HALIFAX KOOTENAY","8202252","2019-11-08 20:00","2019","11","08","20:00","1.1","","-0.2","","91","","","","33","","15","","","","99.73","","","","","","NA"
"-63.55","44.59","HALIFAX KOOTENAY","8202252","2019-11-08 21:00","2019","11","08","21:00","0.8","","-0.4","","92","","","","33","","16","","","","99.83","","","","","","NA"
"-63.55","44.59","HALIFAX KOOTENAY","8202252","2019-11-08 22:00","2019","11","08","22:00","0.3","","-0.8","","92","","","","32","","17","","","","99.90","","","","","","NA"
"-63.55","44.59","HALIFAX KOOTENAY","8202252","2019-11-08 23:00","2019","11","08","23:00","-1.0","","-1.7","","95","","","","32","","23","","","","99.95","","","","-7","","NA"
"-63.55","44.59","HALIFAX KOOTENAY","8202252","2019-11-09 00:00","2019","11","09","00:00","-1.2","","-2.6","","90","","","","32","","20","","","","100.08","","","","-7","","NA"
"-63.55","44.59","HALIFAX KOOTENAY","8202252","2019-11-09 01:00","2019","11","09","01:00","-2.1","","-3.0","","94","","","","31","","24","","","","100.19","","","","-8","","NA"
"-63.55","44.59","HALIFAX KOOTENAY","8202252","2019-11-09 02:00","2019","11","09","02:00","-2.5","","-3.6","","92","","","","31","","24","","","","100.32","","","","-9","","NA"
"-63.55","44.59","HALIFAX KOOTENAY","8202252","2019-11-09 03:00","2019","11","09","03:00","-2.2","","-4.4","","85","","","","31","","26","","","","100.46","","","","-9","","NA"
"-63.55","44.59","HALIFAX KOOTENAY","8202252","2019-11-09 04:00","2019","11","09","04:00","-2.7","","-4.9","","85","","","","30","","21","","","","100.59","","","","-9","","NA"
"-63.55","44.59","HALIFAX KOOTENAY","8202252","2019-11-09 05:00","2019","11","09","05:00","-3.1","","-5.3","","85","","","","30","","23","","","","100.71","","","","-10","","NA"
"-63.55","44.59","HALIFAX KOOTENAY","8202252","2019-11-09 06:00","2019","11","09","06:00","-3.3","","-5.9","","82","","","","31","","17","","","","100.85","","","","-9","","NA"
"-63.55","44.59","HALIFAX KOOTENAY","8202252","2019-11-09 07:00","2019","11","09","07:00","-3.5","","-6.8","","78","","","","31","","17","","","","100.99","","","","-9","","NA"
"-63.55","44.59","HALIFAX KOOTENAY","8202252","2019-11-09 08:00","2019","11","09","08:00","-3.4","","-6.5","","79","","","","29","","12","","","","101.18","","","","-8","","NA"
"-63.55","44.59","HALIFAX KOOTENAY","8202252","2019-11-09 09:00","2019","11","09","09:00","-2.2","","-6.0","","75","","","","30","","15","","","","101.29","","","","-7","","NA"
"-63.55","44.59","HALIFAX KOOTENAY","8202252","2019-11-09 10:00","2019","11","09","10:00","-1.2","","-6.3","","68","","","","31","","19","","","","101.35","","","","-7","","NA"
"-63.55","44.59","HALIFAX KOOTENAY","8202252","2019-11-09 11:00","2019","11","09","11:00","-0.4","","-5.5","","68","","","","30","","19","","","","101.44","","","","-6","","NA"
"-63.55","44.59","HALIFAX KOOTENAY","8202252","2019-11-09 12:00","2019","11","09","12:00","0.6","","-5.4","","64","","","","28","","19","","","","101.43","","","","","","NA"
"-63.55","44.59","HALIFAX KOOTENAY","8202252","2019-11-09 13:00","2019","11","09","13:00","1.2","","-5.9","","59","","","","29","","18","","","","101.42","","","","","","NA"
"-63.55","44.59","HALIFAX KOOTENAY","8202252","2019-11-09 14:00","2019","11","09","14:00","2.2","","-5.4","","57","","","","27","","13","","","","101.45","","","","","","NA"
"-63.55","44.59","HALIFAX KOOTENAY","8202252","2019-11-09 15:00","2019","11","09","15:00","2.5","","-6.4","","52","","","","28","","13","","","","101.53","","","","","","NA"
"-63.55","44.59","HALIFAX KOOTENAY","8202252","2019-11-09 16:00","2019","11","09","16:00","2.1","","-6.5","","53","","","","27","","9","","","","101.56","","","","","","NA"
"-63.55","44.59","HALIFAX KOOTENAY","8202252","2019-11-09 17:00","2019","11","09","17:00","0.6","","-6.4","","59","","","","28","","5","","","","101.63","","","","","","NA"
"-63.55","44.59","HALIFAX KOOTENAY","8202252","2019-11-09 18:00","2019","11","09","18:00","0.3","","-6.2","","62","","","","22","","4","","","","101.71","","","","","","NA"
"-63.55","44.59","HALIFAX KOOTENAY","8202252","2019-11-09 19:00","2019","11","09","19:00","0.3","","-6.3","","61","","","","23","","5","","","","101.75","","","","","","NA"
"-63.55","44.59","HALIFAX KOOTENAY","8202252","2019-11-09 20:00","2019","11","09","20:00","-0.3","","-6.6","","62","","","","23","","5","","","","101.74","","","","-2","","NA"
"-63.55","44.59","HALIFAX KOOTENAY","8202252","2019-11-09 21:00","2019","11","09","21:00","-0.7","","-6.2","","67","","","","27","","10","","","","101.74","","","","-4","","NA"
"-63.55","44.59","HALIFAX KOOTENAY","8202252","2019-11-09 22:00","2019","11","09","22:00","-2.0","","-5.2","","79","","","","28","","14","","","","101.74","","","","-7","","NA"
"-63.55","44.59","HALIFAX KOOTENAY","8202252","2019-11-09 23:00","2019","11","09","23:00","-2.4","","-4.6","","85","","","","26","","13","","","","101.72","","","","-7","","NA"
"-63.55","44.59","HALIFAX KOOTENAY","8202252","2019-11-10 00:00","2019","11","10","00:00","-1.2","","-4.5","","78","","","","25","","17","","","","101.67","","","","-6","","NA"
"-63.55","44.59","HALIFAX KOOTENAY","8202252","2019-11-10 01:00","2019","11","10","01:00","-1.2","","-4.7","","77","","","","25","","14","","","","101.65","","","","-6","","NA"
"-63.55","44.59","HALIFAX KOOTENAY","8202252","2019-11-10 02:00","2019","11","10","02:00","-1.0","","-4.4","","77","","","","25","","12","","","","101.62","","","","-5","","NA"
"-63.55","44.59","HALIFAX KOOTENAY","8202252","2019-11-10 03:00","2019","11","10","03:00","0.8","","-3.9","","71","","","","24","","10","","","","101.55","","","","","","NA"
"-63.55","44.59","HALIFAX KOOTENAY","8202252","2019-11-10 04:00","2019","11","10","04:00","1.8","","-2.7","","72","","","","19","","10","","","","101.52","","","","","","NA"
"-63.55","44.59","HALIFAX KOOTENAY","8202252","2019-11-10 05:00","2019","11","10","05:00","1.6","","-2.4","","75","","","","23","","9","","","","101.49","","","","","","NA"
"-63.55","44.59","HALIFAX KOOTENAY","8202252","2019-11-10 06:00","2019","11","10","06:00","2.0","","-2.4","","73","","","","27","","7","","","","101.49","","","","","","NA"
"-63.55","44.59","HALIFAX KOOTENAY","8202252","2019-11-10 07:00","2019","11","10","07:00","3.0","","-2.3","","68","","","","22","","8","","","","101.47","","","","","","NA"
"-63.55","44.59","HALIFAX KOOTENAY","8202252","2019-11-10 08:00","2019","11","10","08:00","3.2","","-2.7","","65","","","","23","","15","","","","101.46","","","","","","NA"
"-63.55","44.59","HALIFAX KOOTENAY","8202252","2019-11-10 09:00","2019","11","10","09:00","4.2","","-2.1","","63","","","","21","","11","","","","101.49","","","","","","NA"
"-63.55","44.59","HALIFAX KOOTENAY","8202252","2019-11-10 10:00","2019","11","10","10:00","5.3","","-0.4","","67","","","","20","","16","","","","101.43","","","","","","NA"
"-63.55","44.59","HALIFAX KOOTENAY","8202252","2019-11-10 11:00","2019","11","10","11:00","6.2","","0.2","","66","","","","18","","17","","","","101.36","","","","","","NA"
"-63.55","44.59","HALIFAX KOOTENAY","8202252","2019-11-10 12:00","2019","11","10","12:00","7.4","","-0.7","","57","","","","20","","19","","","","101.25","","","","","","NA"
"-63.55","44.59","HALIFAX KOOTENAY","8202252","2019-11-10 13:00","2019","11","10","13:00","7.2","","-0.2","","59","","","","20","","23","","","","101.14","","","","","","NA"
"-63.55","44.59","HALIFAX KOOTENAY","8202252","2019-11-10 14:00","2019","11","10","14:00","7.5","","0.2","","60","","","","20","","22","","","","101.08","","","","","","NA"
"-63.55","44.59","HALIFAX KOOTENAY","8202252","2019-11-10 15:00","2019","11","10","15:00","7.9","","0.6","","60","","","","21","","23","","","","101.04","","","","","","NA"
"-63.55","44.59","HALIFAX KOOTENAY","8202252","2019-11-10 16:00","2019","11","10","16:00","7.2","","0.8","","64","","","","21","","20","","","","100.98","","","","","","NA"
"-63.55","44.59","HALIFAX KOOTENAY","8202252","2019-11-10 17:00","2019","11","10","17:00","6.9","","1.9","","70","","","","22","","19","","","","100.95","","","","","","NA"
"-63.55","44.59","HALIFAX KOOTENAY","8202252","2019-11-10 18:00","2019","11","10","18:00","7.4","","2.5","","71","","","","22","","18","","","","100.92","","","","","","NA"
"-63.55","44.59","HALIFAX KOOTENAY","8202252","2019-11-10 19:00","2019","11","10","19:00","7.2","","3.5","","77","","","","21","","23","","","","100.94","","","","","","NA"
"-63.55","44.59","HALIFAX KOOTENAY","8202252","2019-11-10 20:00","2019","11","10","20:00","7.4","","3.2","","75","","","","21","","19","","","","100.93","","","","","","NA"
"-63.55","44.59","HALIFAX KOOTENAY","8202252","2019-11-10 21:00","2019","11","10","21:00","8.2","","4.1","","75","","","","20","","19","","","","100.90","","","","","","NA"
"-63.55","44.59","HALIFAX KOOTENAY","8202252","2019-11-10 22:00","2019","11","10","22:00","8.3","","4.7","","78","","","","20","","18","","","","100.84","","","","","","NA"
"-63.55","44.59","HALIFAX KOOTENAY","8202252","2019-11-10 23:00","2019","11","10","23:00","8.4","","5.1","","80","","","","21","","17","","","","100.82","","","","","","NA"
"-63.55","44.59","HALIFAX KOOTENAY","8202252","2019-11-11 00:00","2019","11","11","00:00","8.5","","5.5","","81","","","","22","","16","","","","100.78","","","","","","NA"
"-63.55","44.59","HALIFAX KOOTENAY","8202252","2019-11-11 01:00","2019","11","11","01:00","9.2","","5.7","","79","","","","23","","19","","","","100.74","","","","","","NA"
"-63.55","44.59","HALIFAX KOOTENAY","8202252","2019-11-11 02:00","2019","11","11","02:00","9.4","","6.5","","82","","","","23","","24","","","","100.75","","","","","","NA"
"-63.55","44.59","HALIFAX KOOTENAY","8202252","2019-11-11 03:00","2019","11","11","03:00","8.7","","5.2","","79","","","","24","","16","","","","100.78","","","","","","NA"
"-63.55","44.59","HALIFAX KOOTENAY","8202252","2019-11-11 04:00","2019","11","11","04:00","8.6","","5.0","","78","","","","25","","16","","","","100.76","","","","","","NA"
"-63.55","44.59","HALIFAX KOOTENAY","8202252","2019-11-11 05:00","2019","11","11","05:00","8.4","","5.2","","81","","","","26","","11","","","","100.83","","","","","","NA"
"-63.55","44.59","HALIFAX KOOTENAY","8202252","2019-11-11 06:00","2019","11","11","06:00","7.7","","4.9","","82","","","","22","","10","","","","100.85","","","","","","NA"
"-63.55","44.59","HALIFAX KOOTENAY","8202252","2019-11-11 07:00","2019","11","11","07:00","7.2","","4.6","","84","","","","24","","11","","","","100.92","","","","","","NA"
"-63.55","44.59","HALIFAX KOOTENAY","8202252","2019-11-11 08:00","2019","11","11","08:00","7.0","","4.5","","84","","","","25","","11","","","","101.01","","","","","","NA"
"-63.55","44.59","HALIFAX KOOTENAY","8202252","2019-11-11 09:00","2019","11","11","09:00","8.0","","5.1","","82","","","","25","","8","","","","101.08","","","","","","NA"
"-63.55","44.59","HALIFAX KOOTENAY","8202252","2019-11-11 10:00","2019","11","11","10:00","9.1","","5.3","","77","","","","26","","14","","","","101.14","","","","","","NA"
"-63.55","44.59","HALIFAX KOOTENAY","8202252","2019-11-11 11:00","2019","11","11","11:00","10.3","","5.4","","72","","","","27","","12","","","","101.16","","","","","","NA"
"-63.55","44.59","HALIFAX KOOTENAY","8202252","2019-11-11 12:00","2019","11","11","12:00","10.9","","4.2","","63","","","","29","","11","","","","101.11","","","","","","NA"
"-63.55","44.59","HALIFAX KOOTENAY","8202252","2019-11-11 13:00","2019","11","11","13:00","11.2","","1.9","","53","","","","28","","18","","","","101.12","","","","","","NA"
"-63.55","44.59","HALIFAX KOOTENAY","8202252","2019-11-11 14:00","2019","11","11","14:00","10.4","","2.9","","60","","","","29","","13","","","","101.19","","","","","","NA"
"-63.55","44.59","HALIFAX KOOTENAY","8202252","2019-11-11 15:00","2019","11","11","15:00","9.7","","2.5","","61","","","","32","","8","","","","101.32","","","","","","NA"
"-63.55","44.59","HALIFAX KOOTENAY","8202252","2019-11-11 16:00","2019","11","11","16:00","8.7","","2.4","","65","","","","35","","7","","","","101.37","","","","","","NA"
"-63.55","44.59","HALIFAX KOOTENAY","8202252","2019-11-11 17:00","2019","11","11","17:00","7.4","","2.2","","70","","","","36","","11","","","","101.43","","","","","","NA"
"-63.55","44.59","HALIFAX KOOTENAY","8202252","2019-11-11 18:00","2019","11","11","18:00","5.7","","1.3","","73","","","","2","","8","","","","101.50","","","","","","NA"
"-63.55","44.59","HALIFAX KOOTENAY","8202252","2019-11-11 19:00","2019","11","11","19:00","5.0","","1.2","","76","","","","3","","9","","","","101.59","","","","","","NA"
"-63.55","44.59","HALIFAX KOOTENAY","8202252","2019-11-11 20:00","2019","11","11","20:00","4.0","","1.5","","84","","","","4","","10","","","","101.61","","","","","","NA"
"-63.55","44.59","HALIFAX KOOTENAY","8202252","2019-11-11 21:00","2019","11","11","21:00","3.6","","1.5","","86","","","","5","","14","","","","101.64","","","","","","NA"
"-63.55","44.59","HALIFAX KOOTENAY","8202252","2019-11-11 22:00","2019","11","11","22:00","3.2","","0.7","","84","","","","7","","15","","","","101.63","","","","","","NA"
"-63.55","44.59","HALIFAX KOOTENAY","8202252","2019-11-11 23:00","2019","11","11","23:00","3.3","","0.9","","85","","","","7","","13","","","","101.63","","","","","","NA"
"-63.55","44.59","HALIFAX KOOTENAY","8202252","2019-11-12 00:00","2019","11","12","00:00","3.8","","1.8","","87","","","","6","","12","","","","101.55","","","","","","NA"
"-63.55","44.59","HALIFAX KOOTENAY","8202252","2019-11-12 01:00","2019","11","12","01:00","4.8","","3.2","","90","","","","6","","9","","","","101.43","","","","","","NA"
"-63.55","44.59","HALIFAX KOOTENAY","8202252","2019-11-12 02:00","2019","11","12","02:00","8.3","","7.1","","92","","","","10","","31","","","","101.25","","","","","","NA"
"-63.55","44.59","HALIFAX KOOTENAY","8202252","2019-11-12 03:00","2019","11","12","03:00","9.1","","7.2","","88","","","","14","","20","","","","101.19","","","","","","NA"
"-63.55","44.59","HALIFAX KOOTENAY","8202252","2019-11-12 04:00","2019","11","12","04:00","9.4","","7.6","","88","","","","14","","22","","","","101.04","","","","","","NA"
"-63.55","44.59","HALIFAX KOOTENAY","8202252","2019-11-12 05:00","2019","11","12","05:00","9.6","","7.9","","89","","","","14","","21","","","","100.91","","","","","","NA"
"-63.55","44.59","HALIFAX KOOTENAY","8202252","2019-11-12 06:00","2019","11","12","06:00","10.0","","8.4","","90","","","","15","","28","","","","100.67","","","","","","NA"
"-63.55","44.59","HALIFAX KOOTENAY","8202252","2019-11-12 07:00","2019","11","12","07:00","10.6","","9.4","","93","","","","16","","30","","","","100.57","","","","","","NA"
"-63.55","44.59","HALIFAX KOOTENAY","8202252","2019-11-12 08:00","2019","11","12","08:00","11.2","","10.5","","96","","","","16","","38","","","","100.42","","","","","","NA"
"-63.55","44.59","HALIFAX KOOTENAY","8202252","2019-11-12 09:00","2019","11","12","09:00","13.4","","12.8","","96","","","","19","","39","","","","100.38","","","","","","NA"
"-63.55","44.59","HALIFAX KOOTENAY","8202252","2019-11-12 10:00","2019","11","12","10:00","13.8","","13.0","","95","","","","20","","36","","","","100.28","","","","","","NA"
"-63.55","44.59","HALIFAX KOOTENAY","8202252","2019-11-12 11:00","2019","11","12","11:00","13.9","","13.0","","94","","","","20","","41","","","","100.24","","","","","","NA"
"-63.55","44.59","HALIFAX KOOTENAY","8202252","2019-11-12 12:00","2019","11","12","12:00","14.5","","13.6","","95","","","","20","","35","","","","100.05","","","","","","NA"
"-63.55","44.59","HALIFAX KOOTENAY","8202252","2019-11-12 13:00","2019","11","12","13:00","14.3","","13.3","","94","","","","21","","40","","","","99.98","","","","","","NA"
"-63.55","44.59","HALIFAX KOOTENAY","8202252","2019-11-12 14:00","2019","11","12","14:00","14.7","","13.8","","94","","","","21","","41","","","","99.91","","","","","","NA"
"-63.55","44.59","HALIFAX KOOTENAY","8202252","2019-11-12 15:00","2019","11","12","15:00","14.4","","13.3","","93","","","","20","","35","","","","99.81","","","","","","NA"
"-63.55","44.59","HALIFAX KOOTENAY","8202252","2019-11-12 16:00","2019","11","12","16:00","14.1","","12.9","","93","","","","22","","40","","","","99.80","","","","","","NA"
"-63.55","44.59","HALIFAX KOOTENAY","8202252","2019-11-12 17:00","2019","11","12","17:00","13.7","","12.9","","95","","","","22","","32","","","","99.78","","","","","","NA"
"-63.55","44.59","HALIFAX KOOTENAY","8202252","2019-11-12 18:00","2019","11","12","18:00","13.3","","12.3","","94","","","","23","","36","","","","99.68","","","","","","NA"
"-63.55","44.59","HALIFAX KOOTENAY","8202252","2019-11-12 19:00","2019","11","12","19:00","12.8","","11.9","","95","","","","22","","25","","","","99.61","","","","","","NA"
"-63.55","44.59","HALIFAX KOOTENAY","8202252","2019-11-12 20:00","2019","11","12","20:00","12.2","","11.3","","95","","","","22","","33","","","","99.60","","","","","","NA"
"-63.55","44.59","HALIFAX KOOTENAY","8202252","2019-11-12 21:00","2019","11","12","21:00","12.1","","11.5","","96","","","","20","","26","","","","99.51","","","","","","NA"
"-63.55","44.59","HALIFAX KOOTENAY","8202252","2019-11-12 22:00","2019","11","12","22:00","12.2","","11.6","","96","","","","22","","25","","","","99.39","","","","","","NA"
"-63.55","44.59","HALIFAX KOOTENAY","8202252","2019-11-12 23:00","2019","11","12","23:00","11.7","","11.1","","96","","","","22","","28","","","","99.35","","","","","","NA"
"-63.55","44.59","HALIFAX KOOTENAY","8202252","2019-11-13 00:00","2019","11","13","00:00","11.3","","10.8","","96","","","","22","","19","","","","99.26","","","","","","NA"
"-63.55","44.59","HALIFAX KOOTENAY","8202252","2019-11-13 01:00","2019","11","13","01:00","7.8","","7.0","","95","","","","27","","22","","","","99.24","","","","","","NA"
"-63.55","44.59","HALIFAX KOOTENAY","8202252","2019-11-13 02:00","2019","11","13","02:00","5.9","","4.8","","93","","","","28","","22","","","","99.33","","","","","","NA"
"-63.55","44.59","HALIFAX KOOTENAY","8202252","2019-11-13 03:00","2019","11","13","03:00","2.7","","1.6","","93","","","","28","","17","","","","99.42","","","","","","NA"
"-63.55","44.59","HALIFAX KOOTENAY","8202252","2019-11-13 04:00","2019","11","13","04:00","1.3","","0.2","","93","","","","28","","21","","","","99.43","","","","","","NA"
"-63.55","44.59","HALIFAX KOOTENAY","8202252","2019-11-13 05:00","2019","11","13","05:00","-0.2","","-1.1","","93","","","","30","","12","","","","99.48","","","","-4","","NA"
"-63.55","44.59","HALIFAX KOOTENAY","8202252","2019-11-13 06:00","2019","11","13","06:00","-1.1","","-1.8","","95","","","","28","","19","","","","99.56","","","","-6","","NA"
"-63.55","44.59","HALIFAX KOOTENAY","8202252","2019-11-13 07:00","2019","11","13","07:00","-1.6","","-3.8","","85","","","","28","","21","","","","99.62","","","","-7","","NA"
"-63.55","44.59","HALIFAX KOOTENAY","8202252","2019-11-13 08:00","2019","11","13","08:00","-2.2","","-4.2","","86","","","","29","","20","","","","99.73","","","","-8","","NA"
"-63.55","44.59","HALIFAX KOOTENAY","8202252","2019-11-13 09:00","2019","11","13","09:00","-2.7","","-6.9","","73","","","","28","","29","","","","99.78","","","","-10","","NA"
"-63.55","44.59","HALIFAX KOOTENAY","8202252","2019-11-13 10:00","2019","11","13","10:00","-3.1","","-8.3","","68","","","","28","","28","","","","99.83","","","","-10","","NA"
"-63.55","44.59","HALIFAX KOOTENAY","8202252","2019-11-13 11:00","2019","11","13","11:00","-3.4","","-7.9","","71","","","","28","","26","","","","99.96","","","","-10","","NA"
"-63.55","44.59","HALIFAX KOOTENAY","8202252","2019-11-13 12:00","2019","11","13","12:00","-3.2","","-8.6","","66","","","","27","","32","","","","99.98","","","","-11","","NA"
"-63.55","44.59","HALIFAX KOOTENAY","8202252","2019-11-13 13:00","2019","11","13","13:00","-3.0","","-8.8","","64","","","","27","","36","","","","100.05","","","","-11","","NA"
"-63.55","44.59","HALIFAX KOOTENAY","8202252","2019-11-13 14:00","2019","11","13","14:00","-2.6","","-9.0","","61","","","","28","","28","","","","100.08","","","","-10","","NA"
"-63.55","44.59","HALIFAX KOOTENAY","8202252","2019-11-13 15:00","2019","11","13","15:00","-2.6","","-8.4","","65","","","","28","","30","","","","100.27","","","","-10","","NA"
"-63.55","44.59","HALIFAX KOOTENAY","8202252","2019-11-13 16:00","2019","11","13","16:00","-3.1","","-8.7","","65","","","","29","","31","","","","100.44","","","","-11","","NA"
"-63.55","44.59","HALIFAX KOOTENAY","8202252","2019-11-13 17:00","2019","11","13","17:00","-3.7","","-8.8","","68","","","","29","","31","","","","100.62","","","","-11","","NA"
"-63.55","44.59","HALIFAX KOOTENAY","8202252","2019-11-13 18:00","2019","11","13","18:00","-4.2","","-8.0","","74","","","","29","","24","","","","100.82","","","","-11","","NA"
"-63.55","44.59","HALIFAX KOOTENAY","8202252","2019-11-13 19:00","2019","11","13","19:00","-4.3","","-7.7","","77","","","","28","","24","","","","100.95","","","","-11","","NA"
"-63.55","44.59","HALIFAX KOOTENAY","8202252","2019-11-13 20:00","2019","11","13","20:00","-4.2","","-7.7","","77","","","","29","","21","","","","101.08","","","","-11","","NA"
"-63.55","44.59","HALIFAX KOOTENAY","8202252","2019-11-13 21:00","2019","11","13","21:00","-4.0","","-8.8","","69","","","","30","","24","","","","101.22","","","","-11","","NA"
"-63.55","44.59","HALIFAX KOOTENAY","8202252","2019-11-13 22:00","2019","11","13","22:00","-4.2","","-9.4","","67","","","","30","","24","","","","101.35","","","","-11","","NA"
"-63.55","44.59","HALIFAX KOOTENAY","8202252","2019-11-13 23:00","2019","11","13","23:00","-4.8","","-10.7","","63","","","","30","","23","","","","101.44","","","","-12","","NA"
"-63.55","44.59","HALIFAX KOOTENAY","8202252","2019-11-14 00:00","2019","11","14","00:00","-5.0","","-10.5","","65","","","","30","","19","","","","101.59","","","","-11","","NA"
"-63.55","44.59","HALIFAX KOOTENAY","8202252","2019-11-14 01:00","2019","11","14","01:00","-5.7","","-10.3","","70","","","","29","","15","","","","101.74","","","","-11","","NA"
"-63.55","44.59","HALIFAX KOOTENAY","8202252","2019-11-14 02:00","2019","11","14","02:00","-6.3","","-9.7","","77","","","","28","","15","","","","101.84","","","","-12","","NA"
"-63.55","44.59","HALIFAX KOOTENAY","8202252","2019-11-14 03:00","2019","11","14","03:00","-6.3","","-9.4","","78","","","","29","","15","","","","101.94","","","","-12","","NA"
"-63.55","44.59","HALIFAX KOOTENAY","8202252","2019-11-14 04:00","2019","11","14","04:00","-6.1","","-9.3","","78","","","","30","","12","","","","101.97","","","","-11","","NA"
"-63.55","44.59","HALIFAX KOOTENAY","8202252","2019-11-14 05:00","2019","11","14","05:00","-7.1","","-9.2","","85","","","","28","","9","","","","102.07","","","","-11","","NA"
"-63.55","44.59","HALIFAX KOOTENAY","8202252","2019-11-14 06:00","2019","11","14","06:00","-6.9","","-9.0","","85","","","","29","","10","","","","102.17","","","","-12","","NA"
"-63.55","44.59","HALIFAX KOOTENAY","8202252","2019-11-14 07:00","2019","11","14","07:00","-6.5","","-8.9","","83","","","","30","","11","","","","102.26","","","","-11","","NA"
"-63.55","44.59","HALIFAX KOOTENAY","8202252","2019-11-14 08:00","2019","11","14","08:00","-5.8","","-8.5","","82","","","","30","","10","","","","102.40","","","","-10","","NA"
"-63.55","44.59","HALIFAX KOOTENAY","8202252","2019-11-14 09:00","2019","11","14","09:00","-3.9","","-7.7","","75","","","","28","","7","","","","102.49","","","","-7","","NA"
"-63.55","44.59","HALIFAX KOOTENAY","8202252","2019-11-14 10:00","2019","11","14","10:00","-2.0","","-8.3","","62","","","","29","","4","","","","102.53","","","","-3","","NA"
"-63.55","44.59","HALIFAX KOOTENAY","8202252","2019-11-14 11:00","2019","11","14","11:00","-0.8","","-9.2","","53","","","","4","","3","","","","102.57","","","","-2","","NA"
"-63.55","44.59","HALIFAX KOOTENAY","8202252","2019-11-14 12:00","2019","11","14","12:00","-0.3","","-11.1","","44","","","","17","","4","","","","102.51","","","","-2","","NA"
"-63.55","44.59","HALIFAX KOOTENAY","8202252","2019-11-14 13:00","2019","11","14","13:00","0.1","","-17.2","","26","","","","17","","5","","","","102.48","","","","","","NA"
"-63.55","44.59","HALIFAX KOOTENAY","8202252","2019-11-14 14:00","2019","11","14","14:00","0.1","","-10.3","","45","","","","17","","10","","","","102.49","","","","","","NA"
"-63.55","44.59","HALIFAX KOOTENAY","8202252","2019-11-14 15:00","2019","11","14","15:00","-0.4","","-8.9","","53","","","","25","","12","","","","102.50","","","","-4","","NA"
"-63.55","44.59","HALIFAX KOOTENAY","8202252","2019-11-14 16:00","2019","11","14","16:00","-0.2","","-6.8","","61","","","","24","","6","","","","102.51","","","","-2","","NA"
"-63.55","44.59","HALIFAX KOOTENAY","8202252","2019-11-14 17:00","2019","11","14","17:00","-1.3","","-6.4","","68","","","","22","","6","","","","102.48","","","","-4","","NA"
"-63.55","44.59","HALIFAX KOOTENAY","8202252","2019-11-14 18:00","2019","11","14","18:00","-1.4","","-6.4","","69","","","","24","","8","","","","102.48","","","","-4","","NA"
"-63.55","44.59","HALIFAX KOOTENAY","8202252","2019-11-14 19:00","2019","11","14","19:00","-0.9","","-6.3","","67","","","","23","","7","","","","102.48","","","","-3","","NA"
"-63.55","44.59","HALIFAX KOOTENAY","8202252","2019-11-14 20:00","2019","11","14","20:00","-1.0","","-5.9","","69","","","","23","","7","","","","102.45","","","","-4","","NA"
"-63.55","44.59","HALIFAX KOOTENAY","8202252","2019-11-14 21:00","2019","11","14","21:00","-0.5","","-5.8","","67","","","","22","","9","","","","102.41","","","","-4","","NA"
"-63.55","44.59","HALIFAX KOOTENAY","8202252","2019-11-14 22:00","2019","11","14","22:00","0.0","","-4.8","","70","","","","20","","10","","","","102.37","","","","-3","","NA"
"-63.55","44.59","HALIFAX KOOTENAY","8202252","2019-11-14 23:00","2019","11","14","23:00","0.8","","-3.4","","73","","","","20","","11","","","","102.31","","","","","","NA"
"-63.55","44.59","HALIFAX KOOTENAY","8202252","2019-11-15 00:00","2019","11","15","00:00","2.2","","-2.1","","73","","","","19","","15","","","","102.27","","","","","","NA"
"-63.55","44.59","HALIFAX KOOTENAY","8202252","2019-11-15 01:00","2019","11","15","01:00","2.9","","-1.8","","72","","","","19","","18","","","","102.20","","","","","","NA"
"-63.55","44.59","HALIFAX KOOTENAY","8202252","2019-11-15 02:00","2019","11","15","02:00","3.3","","-1.0","","74","","","","19","","17","","","","102.17","","","","","","NA"
"-63.55","44.59","HALIFAX KOOTENAY","8202252","2019-11-15 03:00","2019","11","15","03:00","3.8","","0.0","","77","","","","19","","18","","","","102.09","","","","","","NA"
"-63.55","44.59","HALIFAX KOOTENAY","8202252","2019-11-15 04:00","2019","11","15","04:00","4.5","","-0.1","","72","","","","20","","18","","","","101.98","","","","","","NA"
"-63.55","44.59","HALIFAX KOOTENAY","8202252","2019-11-15 05:00","2019","11","15","05:00","4.7","","1.8","","81","","","","19","","17","","","","101.91","","","","","","NA"
"-63.55","44.59","HALIFAX KOOTENAY","8202252","2019-11-15 06:00","2019","11","15","06:00","4.9","","2.4","","84","","","","19","","18","","","","101.80","","","","","","NA"
"-63.55","44.59","HALIFAX KOOTENAY","8202252","2019-11-15 07:00","2019","11","15","07:00","5.9","","3.5","","84","","","","18","","20","","","","101.71","","","","","","NA"
"-63.55","44.59","HALIFAX KOOTENAY","8202252","2019-11-15 08:00","2019","11","15","08:00","7.5","","4.9","","84","","","","18","","22","","","","101.64","","","","","","NA"
"-63.55","44.59","HALIFAX KOOTENAY","8202252","2019-11-15 09:00","2019","11","15","09:00","8.1","","6.3","","88","","","","18","","24","","","","101.54","","","","","","NA"
"-63.55","44.59","HALIFAX KOOTENAY","8202252","2019-11-15 10:00","2019","11","15","10:00","9.0","","4.7","","74","","","","19","","30","","","","101.42","","","","","","NA"
"-63.55","44.59","HALIFAX KOOTENAY","8202252","2019-11-15 11:00","2019","11","15","11:00","8.4","","6.2","","86","","","","19","","32","","","","101.27","","","","","","NA"
"-63.55","44.59","HALIFAX KOOTENAY","8202252","2019-11-15 12:00","2019","11","15","12:00","9.1","","7.0","","87","","","","21","","29","","","","101.08","","","","","","NA"
"-63.55","44.59","HALIFAX KOOTENAY","8202252","2019-11-15 13:00","2019","11","15","13:00","9.6","","7.6","","88","","","","21","","33","","","","100.90","","","","","","NA"
"-63.55","44.59","HALIFAX KOOTENAY","8202252","2019-11-15 14:00","2019","11","15","14:00","10.0","","8.7","","92","","","","22","","37","","","","100.77","","","","","","NA"
"-63.55","44.59","HALIFAX KOOTENAY","8202252","2019-11-15 15:00","2019","11","15","15:00","9.6","","8.3","","92","","","","24","","33","","","","100.75","","","","","","NA"
"-63.55","44.59","HALIFAX KOOTENAY","8202252","2019-11-15 16:00","2019","11","15","16:00","9.0","","7.8","","93","","","","24","","31","","","","100.72","","","","","","NA"
"-63.55","44.59","HALIFAX KOOTENAY","8202252","2019-11-15 17:00","2019","11","15","17:00","8.0","","6.8","","93","","","","24","","32","","","","100.69","","","","","","NA"
"-63.55","44.59","HALIFAX KOOTENAY","8202252","2019-11-15 18:00","2019","11","15","18:00","7.6","","5.8","","89","","","","24","","35","","","","100.64","","","","","","NA"
"-63.55","44.59","HALIFAX KOOTENAY","8202252","2019-11-15 19:00","2019","11","15","19:00","6.7","","5.1","","90","","","","25","","25","","","","100.61","","","","","","NA"
"-63.55","44.59","HALIFAX KOOTENAY","8202252","2019-11-15 20:00","2019","11","15","20:00","6.7","","5.1","","89","","","","24","","25","","","","100.63","","","","","","NA"
"-63.55","44.59","HALIFAX KOOTENAY","8202252","2019-11-15 21:00","2019","11","15","21:00","6.6","","4.4","","86","","","","24","","23","","","","100.57","","","","","","NA"
"-63.55","44.59","HALIFAX KOOTENAY","8202252","2019-11-15 22:00","2019","11","15","22:00","6.3","","3.8","","84","","","","25","","22","","","","100.55","","","","","","NA"
"-63.55","44.59","HALIFAX KOOTENAY","8202252","2019-11-15 23:00","2019","11","15","23:00","5.2","","3.3","","88","","","","27","","13","","","","100.54","","","","","","NA"
"-63.55","44.59","HALIFAX KOOTENAY","8202252","2019-11-16 00:00","2019","11","16","00:00","4.7","","2.9","","88","","","","26","","16","","","","100.50","","","","","","NA"
"-63.55","44.59","HALIFAX KOOTENAY","8202252","2019-11-16 01:00","2019","11","16","01:00","4.2","","2.6","","90","","","","26","","15","","","","100.48","","","","","","NA"
"-63.55","44.59","HALIFAX KOOTENAY","8202252","2019-11-16 02:00","2019","11","16","02:00","5.1","","1.9","","80","","","","26","","23","","","","100.46","","","","","","NA"
"-63.55","44.59","HALIFAX KOOTENAY","8202252","2019-11-16 03:00","2019","11","16","03:00","2.8","","-1.4","","74","","","","31","","30","","","","100.57","","","","","","NA"
"-63.55","44.59","HALIFAX KOOTENAY","8202252","2019-11-16 04:00","2019","11","16","04:00","0.4","","-5.5","","65","","","","30","","32","","","","100.68","","","","","","NA"
"-63.55","44.59","HALIFAX KOOTENAY","8202252","2019-11-16 05:00","2019","11","16","05:00","-1.1","","-9.9","","51","","","","29","","25","","","","100.78","","","","-7","","NA"
"-63.55","44.59","HALIFAX KOOTENAY","8202252","2019-11-16 06:00","2019","11","16","06:00","-2.5","","-10.3","","55","","","","31","","33","","","","100.92","","","","-10","","NA"
"-63.55","44.59","HALIFAX KOOTENAY","8202252","2019-11-16 07:00","2019","11","16","07:00","-3.6","","-9.4","","64","","","","32","","25","","","","101.11","","","","-11","","NA"
"-63.55","44.59","HALIFAX KOOTENAY","8202252","2019-11-16 08:00","2019","11","16","08:00","-4.7","","-11.5","","59","","","","30","","31","","","","101.23","","","","-13","","NA"
"-63.55","44.59","HALIFAX KOOTENAY","8202252","2019-11-16 09:00","2019","11","16","09:00","-4.2","","-12.6","","52","","","","30","","28","","","","101.25","","","","-12","","NA"
"-63.55","44.59","HALIFAX KOOTENAY","8202252","2019-11-16 10:00","2019","11","16","10:00","-2.8","","-11.5","","51","","","","30","","28","","","","101.28","","","","-10","","NA"
"-63.55","44.59","HALIFAX KOOTENAY","8202252","2019-11-16 11:00","2019","11","16","11:00","-2.1","","-11.0","","50","","","","29","","30","","","","101.32","","","","-9","","NA"
"-63.55","44.59","HALIFAX KOOTENAY","8202252","2019-11-16 12:00","2019","11","16","12:00","-1.6","","-11.0","","49","","","","30","","34","","","","101.31","","","","-9","","NA"
"-63.55","44.59","HALIFAX KOOTENAY","8202252","2019-11-16 13:00","2019","11","16","13:00","-1.2","","-12.1","","43","","","","31","","27","","","","101.27","","","","-8","","NA"
"-63.55","44.59","HALIFAX KOOTENAY","8202252","2019-11-16 14:00","2019","11","16","14:00","-1.5","","-13.0","","41","","","","30","","39","","","","101.28","","","","-9","","NA"
"-63.55","44.59","HALIFAX KOOTENAY","8202252","2019-11-16 15:00","2019","11","16","15:00","-1.6","","-11.7","","46","","","","32","","28","","","","101.38","","","","-8","","NA"
"-63.55","44.59","HALIFAX KOOTENAY","8202252","2019-11-16 16:00","2019","11","16","16:00","-2.7","","-12.0","","49","","","","30","","31","","","","101.47","","","","-10","","NA"
"-63.55","44.59","HALIFAX KOOTENAY","8202252","2019-11-16 17:00","2019","11","16","17:00","-3.2","","-11.7","","52","","","","30","","23","","","","101.63","","","","-10","","NA"
"-63.55","44.59","HALIFAX KOOTENAY","8202252","2019-11-16 18:00","2019","11","16","18:00","-3.3","","-11.4","","53","","","","30","","21","","","","101.75","","","","-10","","NA"
"-63.55","44.59","HALIFAX KOOTENAY","8202252","2019-11-16 19:00","2019","11","16","19:00","-3.7","","-11.3","","56","","","","29","","20","","","","101.89","","","","-10","","NA"
"-63.55","44.59","HALIFAX KOOTENAY","8202252","2019-11-16 20:00","2019","11","16","20:00","-3.9","","-11.1","","58","","","","29","","16","","","","101.99","","","","-9","","NA"
"-63.55","44.59","HALIFAX KOOTENAY","8202252","2019-11-16 21:00","2019","11","16","21:00","-4.3","","-10.9","","60","","","","29","","13","","","","102.08","","","","-9","","NA"
"-63.55","44.59","HALIFAX KOOTENAY","8202252","2019-11-16 22:00","2019","11","16","22:00","-4.3","","-10.9","","60","","","","30","","16","","","","102.09","","","","-10","","NA"
"-63.55","44.59","HALIFAX KOOTENAY","8202252","2019-11-16 23:00","2019","11","16","23:00","-5.0","","-10.6","","65","","","","30","","16","","","","102.12","","","","-11","","NA"
"-63.55","44.59","HALIFAX KOOTENAY","8202252","2019-11-17 00:00","2019","11","17","00:00","-4.0","","-10.0","","63","","","","32","","19","","","","102.12","","","","-10","","NA"
"-63.55","44.59","HALIFAX KOOTENAY","8202252","2019-11-17 01:00","2019","11","17","01:00","-4.0","","-9.5","","66","","","","33","","17","","","","102.13","","","","-10","","NA"
"-63.55","44.59","HALIFAX KOOTENAY","8202252","2019-11-17 02:00","2019","11","17","02:00","-4.3","","-9.3","","68","","","","34","","14","","","","102.13","","","","-9","","NA"
"-63.55","44.59","HALIFAX KOOTENAY","8202252","2019-11-17 03:00","2019","11","17","03:00","-4.5","","-9.3","","70","","","","34","","15","","","","102.17","","","","-10","","NA"
"-63.55","44.59","HALIFAX KOOTENAY","8202252","2019-11-17 04:00","2019","11","17","04:00","-4.6","","-9.1","","71","","","","35","","18","","","","102.18","","","","-11","","NA"
"-63.55","44.59","HALIFAX KOOTENAY","8202252","2019-11-17 05:00","2019","11","17","05:00","-5.3","","-9.4","","73","","","","33","","8","","","","102.23","","","","-9","","NA"
"-63.55","44.59","HALIFAX KOOTENAY","8202252","2019-11-17 06:00","2019","11","17","06:00","-5.4","","-9.7","","72","","","","33","","11","","","","102.29","","","","-10","","NA"
"-63.55","44.59","HALIFAX KOOTENAY","8202252","2019-11-17 07:00","2019","11","17","07:00","-5.7","","-9.7","","74","","","","32","","8","","","","102.39","","","","-9","","NA"
"-63.55","44.59","HALIFAX KOOTENAY","8202252","2019-11-17 08:00","2019","11","17","08:00","-4.6","","-8.5","","74","","","","1","","10","","","","102.40","","","","-9","","NA"
"-63.55","44.59","HALIFAX KOOTENAY","8202252","2019-11-17 09:00","2019","11","17","09:00","-3.8","","-8.5","","70","","","","33","","6","","","","102.46","","","","-6","","NA"
"-63.55","44.59","HALIFAX KOOTENAY","8202252","2019-11-17 10:00","2019","11","17","10:00","-3.0","","-7.5","","71","","","","36","","11","","","","102.44","","","","-7","","NA"
"-63.55","44.59","HALIFAX KOOTENAY","8202252","2019-11-17 11:00","2019","11","17","11:00","-1.3","","-6.8","","66","","","","36","","7","","","","102.44","","","","-4","","NA"
"-63.55","44.59","HALIFAX KOOTENAY","8202252","2019-11-17 12:00","2019","11","17","12:00","0.2","","-7.4","","56","","","","1","","7","","","","102.36","","","","","","NA"
"-63.55","44.59","HALIFAX KOOTENAY","8202252","2019-11-17 13:00","2019","11","17","13:00","0.6","","-8.2","","52","","","","1","","9","","","","102.30","","","","","","NA"
"-63.55","44.59","HALIFAX KOOTENAY","8202252","2019-11-17 14:00","2019","11","17","14:00","1.4","","-7.8","","50","","","","2","","3","","","","102.25","","","","","","NA"
"-63.55","44.59","HALIFAX KOOTENAY","8202252","2019-11-17 15:00","2019","11","17","15:00","1.5","","-7.5","","51","","","","7","","9","","","","102.22","","","","","","NA"
"-63.55","44.59","HALIFAX KOOTENAY","8202252","2019-11-17 16:00","2019","11","17","16:00","1.0","","-7.2","","54","","","","8","","9","","","","102.22","","","","","","NA"
"-63.55","44.59","HALIFAX KOOTENAY","8202252","2019-11-17 17:00","2019","11","17","17:00","0.4","","-6.5","","60","","","","6","","10","","","","102.19","","","","","","NA"
"-63.55","44.59","HALIFAX KOOTENAY","8202252","2019-11-17 18:00","2019","11","17","18:00","0.3","","-5.9","","63","","","","5","","8","","","","102.18","","","","","","NA"
"-63.55","44.59","HALIFAX KOOTENAY","8202252","2019-11-17 19:00","2019","11","17","19:00","0.4","","-5.2","","66","","","","6","","10","","","","102.15","","","","","","NA"
"-63.55","44.59","HALIFAX KOOTENAY","8202252","2019-11-17 20:00","2019","11","17","20:00","0.3","","-4.7","","69","","","","6","","15","","","","102.11","","","","","","NA"
"-63.55","44.59","HALIFAX KOOTENAY","8202252","2019-11-17 21:00","2019","11","17","21:00","-0.1","","-4.3","","73","","","","6","","13","","","","102.06","","","","-4","","NA"
"-63.55","44.59","HALIFAX KOOTENAY","8202252","2019-11-17 22:00","2019","11","17","22:00","-0.3","","-3.8","","77","","","","6","","15","","","","102.03","","","","-5","","NA"
"-63.55","44.59","HALIFAX KOOTENAY","8202252","2019-11-17 23:00","2019","11","17","23:00","-0.3","","-3.5","","79","","","","6","","15","","","","101.94","","","","-5","","NA"
"-63.55","44.59","HALIFAX KOOTENAY","8202252","2019-11-18 00:00","2019","11","18","00:00","0.0","","-2.8","","81","","","","6","","17","","","","101.84","","","","-5","","NA"
"-63.55","44.59","HALIFAX KOOTENAY","8202252","2019-11-18 01:00","2019","11","18","01:00","0.0","","-2.4","","84","","","","5","","15","","","","101.73","","","","-4","","NA"
"-63.55","44.59","HALIFAX KOOTENAY","8202252","2019-11-18 02:00","2019","11","18","02:00","0.2","","-2.0","","86","","","","5","","14","","","","101.65","","","","","","NA"
"-63.55","44.59","HALIFAX KOOTENAY","8202252","2019-11-18 03:00","2019","11","18","03:00","-0.1","","-2.1","","86","","","","5","","14","","","","101.61","","","","-4","","NA"
"-63.55","44.59","HALIFAX KOOTENAY","8202252","2019-11-18 04:00","2019","11","18","04:00","0.4","","-1.6","","86","","","","5","","16","","","","101.49","","","","","","NA"
"-63.55","44.59","HALIFAX KOOTENAY","8202252","2019-11-18 05:00","2019","11","18","05:00","1.1","","-0.9","","87","","","","6","","18","","","","101.43","","","","","","NA"
"-63.55","44.59","HALIFAX KOOTENAY","8202252","2019-11-18 06:00","2019","11","18","06:00","1.4","","-0.4","","88","","","","5","","16","","","","101.36","","","","","","NA"
"-63.55","44.59","HALIFAX KOOTENAY","8202252","2019-11-18 07:00","2019","11","18","07:00","2.2","","0.3","","87","","","","6","","19","","","","101.30","","","","","","NA"
"-63.55","44.59","HALIFAX KOOTENAY","8202252","2019-11-18 08:00","2019","11","18","08:00","2.4","","0.5","","88","","","","6","","19","","","","101.26","","","","","","NA"
"-63.55","44.59","HALIFAX KOOTENAY","8202252","2019-11-18 09:00","2019","11","18","09:00","3.5","","1.3","","86","","","","7","","23","","","","101.15","","","","","","NA"
"-63.55","44.59","HALIFAX KOOTENAY","8202252","2019-11-18 10:00","2019","11","18","10:00","4.6","","2.0","","83","","","","7","","30","","","","101.09","","","","","","NA"
"-63.55","44.59","HALIFAX KOOTENAY","8202252","2019-11-18 11:00","2019","11","18","11:00","5.1","","2.7","","84","","","","7","","26","","","","100.98","","","","","","NA"
"-63.55","44.59","HALIFAX KOOTENAY","8202252","2019-11-18 12:00","2019","11","18","12:00","5.5","","3.3","","86","","","","7","","28","","","","100.82","","","","","","NA"
"-63.55","44.59","HALIFAX KOOTENAY","8202252","2019-11-18 13:00","2019","11","18","13:00","5.8","","4.6","","92","","","","7","","35","","","","100.68","","","","","","NA"
"-63.55","44.59","HALIFAX KOOTENAY","8202252","2019-11-18 14:00","2019","11","18","14:00","5.6","","4.7","","94","","","","7","","31","","","","100.57","","","","","","NA"
"-63.55","44.59","HALIFAX KOOTENAY","8202252","2019-11-18 15:00","2019","11","18","15:00","5.6","","4.7","","94","","","","7","","38","","","","100.38","","","","","","NA"
"-63.55","44.59","HALIFAX KOOTENAY","8202252","2019-11-18 16:00","2019","11","18","16:00","5.7","","4.5","","92","","","","7","","39","","","","100.32","","","","","","NA"
"-63.55","44.59","HALIFAX KOOTENAY","8202252","2019-11-18 17:00","2019","11","18","17:00","5.1","","4.3","","94","","","","7","","37","","","","100.13","","","","","","NA"
"-63.55","44.59","HALIFAX KOOTENAY","8202252","2019-11-18 18:00","2019","11","18","18:00","4.5","","3.8","","95","","","","6","","32","","","","99.89","","","","","","NA"
"-63.55","44.59","HALIFAX KOOTENAY","8202252","2019-11-18 19:00","2019","11","18","19:00","4.3","","3.6","","95","","","","6","","30","","","","99.70","","","","","","NA"
"-63.55","44.59","HALIFAX KOOTENAY","8202252","2019-11-18 20:00","2019","11","18","20:00","4.5","","3.8","","95","","","","6","","26","","","","99.53","","","","","","NA"
"-63.55","44.59","HALIFAX KOOTENAY","8202252","2019-11-18 21:00","2019","11","18","21:00","4.9","","4.2","","95","","","","6","","26","","","","99.36","","","","","","NA"
"-63.55","44.59","HALIFAX KOOTENAY","8202252","2019-11-18 22:00","2019","11","18","22:00","5.5","","4.6","","94","","","","6","","28","","","","99.19","","","","","","NA"
"-63.55","44.59","HALIFAX KOOTENAY","8202252","2019-11-18 23:00","2019","11","18","23:00","5.8","","5.0","","95","","","","3","","16","","","","99.00","","","","","","NA"
"-63.55","44.59","HALIFAX KOOTENAY","8202252","2019-11-19 00:00","2019","11","19","00:00","5.6","","4.8","","95","","","","2","","17","","","","98.89","","","","","","NA"
"-63.55","44.59","HALIFAX KOOTENAY","8202252","2019-11-19 01:00","2019","11","19","01:00","5.3","","4.5","","95","","","","2","","17","","","","98.72","","","","","","NA"
"-63.55","44.59","HALIFAX KOOTENAY","8202252","2019-11-19 02:00","2019","11","19","02:00","5.7","","4.7","","94","","","","2","","16","","","","98.62","","","","","","NA"
"-63.55","44.59","HALIFAX KOOTENAY","8202252","2019-11-19 03:00","2019","11","19","03:00","5.5","","4.3","","92","","","","35","","20","","","","98.76","","","","","","NA"
"-63.55","44.59","HALIFAX KOOTENAY","8202252","2019-11-19 04:00","2019","11","19","04:00","5.0","","4.1","","94","","","","34","","17","","","","98.76","","","","","","NA"
"-63.55","44.59","HALIFAX KOOTENAY","8202252","2019-11-19 05:00","2019","11","19","05:00","4.9","","4.1","","95","","","","34","","23","","","","98.80","","","","","","NA"
"-63.55","44.59","HALIFAX KOOTENAY","8202252","2019-11-19 06:00","2019","11","19","06:00","4.6","","3.8","","95","","","","35","","24","","","","98.75","","","","","","NA"
"-63.55","44.59","HALIFAX KOOTENAY","8202252","2019-11-19 07:00","2019","11","19","07:00","4.7","","3.7","","94","","","","33","","9","","","","99.02","","","","","","NA"
"-63.55","44.59","HALIFAX KOOTENAY","8202252","2019-11-19 08:00","2019","11","19","08:00","5.0","","3.7","","91","","","","34","","13","","","","99.11","","","","","","NA"
"-63.55","44.59","HALIFAX KOOTENAY","8202252","2019-11-19 09:00","2019","11","19","09:00","5.7","","3.9","","88","","","","32","","11","","","","99.19","","","","","","NA"
"-63.55","44.59","HALIFAX KOOTENAY","8202252","2019-11-19 10:00","2019","11","19","10:00","6.1","","3.9","","86","","","","31","","15","","","","99.34","","","","","","NA"
"-63.55","44.59","HALIFAX KOOTENAY","8202252","2019-11-19 11:00","2019","11","19","11:00","6.6","","4.3","","86","","","","29","","11","","","","99.48","","","","","","NA"
"-63.55","44.59","HALIFAX KOOTENAY","8202252","2019-11-19 12:00","2019","11","19","12:00","6.2","","4.6","","90","","","","30","","14","","","","99.51","","","","","","NA"
"-63.55","44.59","HALIFAX KOOTENAY","8202252","2019-11-19 13:00","2019","11","19","13:00","6.7","","4.5","","86","","","","28","","14","","","","99.56","","","","","","NA"
"-63.55","44.59","HALIFAX KOOTENAY","8202252","2019-11-19 14:00","2019","11","19","14:00","6.4","","4.0","","84","","","","29","","14","","","","99.62","","","","","","NA"
"-63.55","44.59","HALIFAX KOOTENAY","8202252","2019-11-19 15:00","2019","11","19","15:00","6.3","","3.7","","84","","","","26","","12","","","","99.77","","","","","","NA"
"-63.55","44.59","HALIFAX KOOTENAY","8202252","2019-11-19 16:00","2019","11","19","16:00","6.2","","3.6","","84","","","","28","","11","","","","99.84","","","","","","NA"
"-63.55","44.59","HALIFAX KOOTENAY","8202252","2019-11-19 17:00","2019","11","19","17:00","5.5","","3.7","","88","","","","28","","7","","","","99.91","","","","","","NA"
"-63.55","44.59","HALIFAX KOOTENAY","8202252","2019-11-19 18:00","2019","11","19","18:00","4.8","","3.5","","92","","","","32","","9","","","","100.00","","","","","","NA"
"-63.55","44.59","HALIFAX KOOTENAY","8202252","2019-11-19 19:00","2019","11","19","19:00","4.3","","3.3","","93","","","","30","","3","","","","100.11","","","","","","NA"
"-63.55","44.59","HALIFAX KOOTENAY","8202252","2019-11-19 20:00","2019","11","19","20:00","4.5","","3.5","","93","","","","29","","7","","","","100.13","","","","","","NA"
"-63.55","44.59","HALIFAX KOOTENAY","8202252","2019-11-19 21:00","2019","11","19","21:00","4.3","","3.4","","94","","","","29","","3","","","","100.22","","","","","","NA"
"-63.55","44.59","HALIFAX KOOTENAY","8202252","2019-11-19 22:00","2019","11","19","22:00","4.3","","3.5","","94","","","","29","","4","","","","100.23","","","","","","NA"
"-63.55","44.59","HALIFAX KOOTENAY","8202252","2019-11-19 23:00","2019","11","19","23:00","4.3","","3.4","","94","","","","31","","4","","","","100.22","","","","","","NA"
"-63.55","44.59","HALIFAX KOOTENAY","8202252","2019-11-20 00:00","2019","11","20","00:00","4.3","","3.5","","95","","","","1","","7","","","","100.21","","","","","","NA"
"-63.55","44.59","HALIFAX KOOTENAY","8202252","2019-11-20 01:00","2019","11","20","01:00","3.6","","2.9","","95","","","","1","","7","","","","100.23","","","","","","NA"
"-63.55","44.59","HALIFAX KOOTENAY","8202252","2019-11-20 02:00","2019","11","20","02:00","2.6","","1.9","","95","","","","1","","12","","","","100.28","","","","","","NA"
"-63.55","44.59","HALIFAX KOOTENAY","8202252","2019-11-20 03:00","2019","11","20","03:00","2.3","","1.3","","93","","","","1","","13","","","","100.28","","","","","","NA"
"-63.55","44.59","HALIFAX KOOTENAY","8202252","2019-11-20 04:00","2019","11","20","04:00","1.9","","0.8","","92","","","","1","","13","","","","100.25","","","","","","NA"
"-63.55","44.59","HALIFAX KOOTENAY","8202252","2019-11-20 05:00","2019","11","20","05:00","1.7","","0.8","","94","","","","3","","11","","","","100.25","","","","","","NA"
"-63.55","44.59","HALIFAX KOOTENAY","8202252","2019-11-20 06:00","2019","11","20","06:00","1.9","","0.3","","90","","","","2","","12","","","","100.22","","","","","","NA"
"-63.55","44.59","HALIFAX KOOTENAY","8202252","2019-11-20 07:00","2019","11","20","07:00","1.9","","0.4","","90","","","","3","","13","","","","100.29","","","","","","NA"
"-63.55","44.59","HALIFAX KOOTENAY","8202252","2019-11-20 08:00","2019","11","20","08:00","2.1","","0.3","","88","","","","3","","11","","","","100.23","","","","","","NA"
"-63.55","44.59","HALIFAX KOOTENAY","8202252","2019-11-20 09:00","2019","11","20","09:00","2.2","","0.4","","88","","","","4","","12","","","","100.21","","","","","","NA"
"-63.55","44.59","HALIFAX KOOTENAY","8202252","2019-11-20 10:00","2019","11","20","10:00","2.6","","0.8","","88","","","","4","","12","","","","100.09","","","","","","NA"
"-63.55","44.59","HALIFAX KOOTENAY","8202252","2019-11-20 11:00","2019","11","20","11:00","3.1","","1.2","","87","","","","5","","19","","","","100.04","","","","","","NA"
"-63.55","44.59","HALIFAX KOOTENAY","8202252","2019-11-20 12:00","2019","11","20","12:00","3.5","","1.6","","87","","","","5","","15","","","","99.97","","","","","","NA"
"-63.55","44.59","HALIFAX KOOTENAY","8202252","2019-11-20 13:00","2019","11","20","13:00","4.0","","1.6","","84","","","","5","","14","","","","100.06","","","","","","NA"
"-63.55","44.59","HALIFAX KOOTENAY","8202252","2019-11-20 14:00","2019","11","20","14:00","3.9","","1.5","","84","","","","4","","11","","","","100.01","","","","","","NA"
"-63.55","44.59","HALIFAX KOOTENAY","8202252","2019-11-20 15:00","2019","11","20","15:00","3.9","","1.7","","86","","","","3","","12","","","","100.04","","","","","","NA"
"-63.55","44.59","HALIFAX KOOTENAY","8202252","2019-11-20 16:00","2019","11","20","16:00","3.7","","2.2","","90","","","","3","","15","","","","99.98","","","","","","NA"
"-63.55","44.59","HALIFAX KOOTENAY","8202252","2019-11-20 17:00","2019","11","20","17:00","3.6","","2.2","","91","","","","1","","17","","","","99.95","","","","","","NA"
"-63.55","44.59","HALIFAX KOOTENAY","8202252","2019-11-20 18:00","2019","11","20","18:00","3.8","","2.1","","89","","","","2","","20","","","","99.92","","","","","","NA"
"-63.55","44.59","HALIFAX KOOTENAY","8202252","2019-11-20 19:00","2019","11","20","19:00","3.6","","2.0","","89","","","","2","","16","","","","99.97","","","","","","NA"
"-63.55","44.59","HALIFAX KOOTENAY","8202252","2019-11-20 20:00","2019","11","20","20:00","3.3","","1.8","","90","","","","2","","21","","","","99.95","","","","","","NA"
"-63.55","44.59","HALIFAX KOOTENAY","8202252","2019-11-20 21:00","2019","11","20","21:00","3.2","","2.1","","92","","","","1","","15","","","","99.97","","","","","","NA"
"-63.55","44.59","HALIFAX KOOTENAY","8202252","2019-11-20 22:00","2019","11","20","22:00","3.6","","2.3","","91","","","","1","","18","","","","99.93","","","","","","NA"
"-63.55","44.59","HALIFAX KOOTENAY","8202252","2019-11-20 23:00","2019","11","20","23:00","3.7","","2.1","","90","","","","1","","17","","","","99.94","","","","","","NA"
"-63.55","44.59","HALIFAX KOOTENAY","8202252","2019-11-21 00:00","2019","11","21","00:00","3.8","","2.3","","90","","","","35","","17","","","","99.95","","","","","","NA"
"-63.55","44.59","HALIFAX KOOTENAY","8202252","2019-11-21 01:00","2019","11","21","01:00","3.9","","2.5","","90","","","","1","","19","","","","99.93","","","","","","NA"
"-63.55","44.59","HALIFAX KOOTENAY","8202252","2019-11-21 02:00","2019","11","21","02:00","3.9","","2.3","","89","","","","1","","19","","","","99.93","","","","","","NA"
"-63.55","44.59","HALIFAX KOOTENAY","8202252","2019-11-21 03:00","2019","11","21","03:00","4.0","","2.4","","89","","","","1","","19","","","","99.91","","","","","","NA"
"-63.55","44.59","HALIFAX KOOTENAY","8202252","2019-11-21 04:00","2019","11","21","04:00","4.1","","2.3","","88","","","","36","","20","","","","99.92","","","","","","NA"
"-63.55","44.59","HALIFAX KOOTENAY","8202252","2019-11-21 05:00","2019","11","21","05:00","4.0","","2.0","","87","","","","1","","21","","","","100.01","","","","","","NA"
"-63.55","44.59","HALIFAX KOOTENAY","8202252","2019-11-21 06:00","2019","11","21","06:00","4.0","","2.3","","89","","","","1","","19","","","","100.07","","","","","","NA"
"-63.55","44.59","HALIFAX KOOTENAY","8202252","2019-11-21 07:00","2019","11","21","07:00","3.6","","2.5","","92","","","","36","","22","","","","100.09","","","","","","NA"
"-63.55","44.59","HALIFAX KOOTENAY","8202252","2019-11-21 08:00","2019","11","21","08:00","3.7","","2.2","","90","","","","36","","25","","","","100.06","","","","","","NA"
"-63.55","44.59","HALIFAX KOOTENAY","8202252","2019-11-21 09:00","2019","11","21","09:00","4.0","","1.8","","85","","","","36","","25","","","","100.06","","","","","","NA"
"-63.55","44.59","HALIFAX KOOTENAY","8202252","2019-11-21 10:00","2019","11","21","10:00","4.5","","1.5","","81","","","","36","","28","","","","100.12","","","","","","NA"
"-63.55","44.59","HALIFAX KOOTENAY","8202252","2019-11-21 11:00","2019","11","21","11:00","4.6","","1.6","","81","","","","1","","22","","","","100.19","","","","","","NA"
"-63.55","44.59","HALIFAX KOOTENAY","8202252","2019-11-21 12:00","2019","11","21","12:00","5.0","","1.5","","78","","","","1","","25","","","","100.16","","","","","","NA"
"-63.55","44.59","HALIFAX KOOTENAY","8202252","2019-11-21 13:00","2019","11","21","13:00","5.3","","1.4","","76","","","","36","","23","","","","100.14","","","","","","NA"
"-63.55","44.59","HALIFAX KOOTENAY","8202252","2019-11-21 14:00","2019","11","21","14:00","4.9","","2.0","","81","","","","36","","20","","","","100.17","","","","","","NA"
"-63.55","44.59","HALIFAX KOOTENAY","8202252","2019-11-21 15:00","2019","11","21","15:00","5.3","","1.0","","74","","","","35","","21","","","","100.21","","","","","","NA"
"-63.55","44.59","HALIFAX KOOTENAY","8202252","2019-11-21 16:00","2019","11","21","16:00","4.3","","1.2","","80","","","","34","","19","","","","100.30","","","","","","NA"
"-63.55","44.59","HALIFAX KOOTENAY","8202252","2019-11-21 17:00","2019","11","21","17:00","4.0","","0.5","","78","","","","35","","21","","","","100.34","","","","","","NA"
"-63.55","44.59","HALIFAX KOOTENAY","8202252","2019-11-21 18:00","2019","11","21","18:00","3.5","","0.0","","78","","","","34","","22","","","","100.42","","","","","","NA"
"-63.55","44.59","HALIFAX KOOTENAY","8202252","2019-11-21 19:00","2019","11","21","19:00","3.0","","0.0","","80","","","","33","","20","","","","100.48","","","","","","NA"
"-63.55","44.59","HALIFAX KOOTENAY","8202252","2019-11-21 20:00","2019","11","21","20:00","2.0","","-0.1","","86","","","","34","","15","","","","100.50","","","","","","NA"
"-63.55","44.59","HALIFAX KOOTENAY","8202252","2019-11-21 21:00","2019","11","21","21:00","2.4","","-0.1","","83","","","","33","","17","","","","100.52","","","","","","NA"
"-63.55","44.59","HALIFAX KOOTENAY","8202252","2019-11-21 22:00","2019","11","21","22:00","2.3","","-0.1","","84","","","","34","","18","","","","100.50","","","","","","NA"
"-63.55","44.59","HALIFAX KOOTENAY","8202252","2019-11-21 23:00","2019","11","21","23:00","1.9","","-0.3","","86","","","","33","","17","","","","100.49","","","","","","NA"
"-63.55","44.59","HALIFAX KOOTENAY","8202252","2019-11-22 00:00","2019","11","22","00:00","1.6","","-0.4","","87","","","","33","","14","","","","100.47","","","","","","NA"
"-63.55","44.59","HALIFAX KOOTENAY","8202252","2019-11-22 01:00","2019","11","22","01:00","1.3","","-0.8","","86","","","","34","","11","","","","100.44","","","","","","NA"
"-63.55","44.59","HALIFAX KOOTENAY","8202252","2019-11-22 02:00","2019","11","22","02:00","0.7","","-1.0","","89","","","","30","","12","","","","100.49","","","","","","NA"
"-63.55","44.59","HALIFAX KOOTENAY","8202252","2019-11-22 03:00","2019","11","22","03:00","1.5","","-1.0","","83","","","","33","","10","","","","100.48","","","","","","NA"
"-63.55","44.59","HALIFAX KOOTENAY","8202252","2019-11-22 04:00","2019","11","22","04:00","1.3","","-1.1","","84","","","","30","","10","","","","100.48","","","","","","NA"
"-63.55","44.59","HALIFAX KOOTENAY","8202252","2019-11-22 05:00","2019","11","22","05:00","1.2","","-1.1","","85","","","","30","","8","","","","100.49","","","","","","NA"
"-63.55","44.59","HALIFAX KOOTENAY","8202252","2019-11-22 06:00","2019","11","22","06:00","0.8","","-1.0","","88","","","","29","","10","","","","100.48","","","","","","NA"
"-63.55","44.59","HALIFAX KOOTENAY","8202252","2019-11-22 07:00","2019","11","22","07:00","0.7","","-1.3","","87","","","","28","","7","","","","100.46","","","","","","NA"
"-63.55","44.59","HALIFAX KOOTENAY","8202252","2019-11-22 08:00","2019","11","22","08:00","0.7","","-1.2","","88","","","","26","","3","","","","100.42","","","","","","NA"
"-63.55","44.59","HALIFAX KOOTENAY","8202252","2019-11-22 09:00","2019","11","22","09:00","1.3","","-1.8","","80","","","","28","","7","","","","100.42","","","","","","NA"
"-63.55","44.59","HALIFAX KOOTENAY","8202252","2019-11-22 10:00","2019","11","22","10:00","2.2","","-1.6","","76","","","","24","","6","","","","100.36","","","","","","NA"
"-63.55","44.59","HALIFAX KOOTENAY","8202252","2019-11-22 11:00","2019","11","22","11:00","3.4","","-1.1","","72","","","","25","","12","","","","100.31","","","","","","NA"
"-63.55","44.59","HALIFAX KOOTENAY","8202252","2019-11-22 12:00","2019","11","22","12:00","3.9","","-0.3","","74","","","","21","","12","","","","100.14","","","","","","NA"
"-63.55","44.59","HALIFAX KOOTENAY","8202252","2019-11-22 13:00","2019","11","22","13:00","4.3","","0.4","","76","","","","19","","13","","","","99.96","","","","","","NA"
"-63.55","44.59","HALIFAX KOOTENAY","8202252","2019-11-22 14:00","2019","11","22","14:00","4.3","","1.0","","79","","","","21","","16","","","","99.88","","","","","","NA"
"-63.55","44.59","HALIFAX KOOTENAY","8202252","2019-11-22 15:00","2019","11","22","15:00","4.9","","2.0","","81","","","","20","","14","","","","99.79","","","","","","NA"
"-63.55","44.59","HALIFAX KOOTENAY","8202252","2019-11-22 16:00","2019","11","22","16:00","5.8","","3.3","","84","","","","20","","18","","","","99.70","","","","","","NA"
"-63.55","44.59","HALIFAX KOOTENAY","8202252","2019-11-22 17:00","2019","11","22","17:00","6.8","","4.5","","86","","","","19","","21","","","","99.59","","","","","","NA"
"-63.55","44.59","HALIFAX KOOTENAY","8202252","2019-11-22 18:00","2019","11","22","18:00","7.6","","5.2","","85","","","","18","","21","","","","99.40","","","","","","NA"
"-63.55","44.59","HALIFAX KOOTENAY","8202252","2019-11-22 19:00","2019","11","22","19:00","8.4","","6.3","","87","","","","18","","24","","","","99.17","","","","","","NA"
"-63.55","44.59","HALIFAX KOOTENAY","8202252","2019-11-22 20:00","2019","11","22","20:00","9.1","","7.0","","87","","","","19","","31","","","","98.95","","","","","","NA"
"-63.55","44.59","HALIFAX KOOTENAY","8202252","2019-11-22 21:00","2019","11","22","21:00","9.5","","8.3","","92","","","","19","","37","","","","98.71","","","","","","NA"
"-63.55","44.59","HALIFAX KOOTENAY","8202252","2019-11-22 22:00","2019","11","22","22:00","10.0","","9.3","","96","","","","19","","37","","","","98.48","","","","","","NA"
"-63.55","44.59","HALIFAX KOOTENAY","8202252","2019-11-22 23:00","2019","11","22","23:00","10.3","","9.6","","96","","","","21","","23","","","","98.26","","","","","","NA"
"-63.55","44.59","HALIFAX KOOTENAY","8202252","2019-11-23 00:00","2019","11","23","00:00","7.8","","6.9","","95","","","","27","","22","","","","98.20","","","","","","NA"
"-63.55","44.59","HALIFAX KOOTENAY","8202252","2019-11-23 01:00","2019","11","23","01:00","3.9","","2.6","","91","","","","29","","30","","","","98.26","","","","","","NA"
"-63.55","44.59","HALIFAX KOOTENAY","8202252","2019-11-23 02:00","2019","11","23","02:00","3.1","","1.8","","91","","","","28","","24","","","","98.38","","","","","","NA"
"-63.55","44.59","HALIFAX KOOTENAY","8202252","2019-11-23 03:00","2019","11","23","03:00","2.7","","1.1","","89","","","","28","","25","","","","98.48","","","","","","NA"
"-63.55","44.59","HALIFAX KOOTENAY","8202252","2019-11-23 04:00","2019","11","23","04:00","2.6","","1.2","","90","","","","27","","21","","","","98.58","","","","","","NA"
"-63.55","44.59","HALIFAX KOOTENAY","8202252","2019-11-23 05:00","2019","11","23","05:00","1.8","","0.0","","88","","","","27","","29","","","","98.73","","","","","","NA"
"-63.55","44.59","HALIFAX KOOTENAY","8202252","2019-11-23 06:00","2019","11","23","06:00","0.7","","-0.4","","92","","","","27","","28","","","","98.83","","","","","","NA"
"-63.55","44.59","HALIFAX KOOTENAY","8202252","2019-11-23 07:00","2019","11","23","07:00","-0.1","","-0.8","","95","","","","27","","31","","","","98.94","","","","-7","","NA"
"-63.55","44.59","HALIFAX KOOTENAY","8202252","2019-11-23 08:00","2019","11","23","08:00","0.2","","-2.3","","83","","","","28","","23","","","","99.03","","","","","","NA"
"-63.55","44.59","HALIFAX KOOTENAY","8202252","2019-11-23 09:00","2019","11","23","09:00","-0.1","","-2.8","","82","","","","27","","29","","","","99.11","","","","-6","","NA"
"-63.55","44.59","HALIFAX KOOTENAY","8202252","2019-11-23 10:00","2019","11","23","10:00","-0.2","","-3.2","","80","","","","27","","29","","","","99.17","","","","-7","","NA"
"-63.55","44.59","HALIFAX KOOTENAY","8202252","2019-11-23 11:00","2019","11","23","11:00","0.1","","-3.5","","77","","","","28","","33","","","","99.20","","","","","","NA"
"-63.55","44.59","HALIFAX KOOTENAY","8202252","2019-11-23 12:00","2019","11","23","12:00","0.6","","-3.9","","72","","","","28","","38","","","","99.16","","","","","","NA"
"-63.55","44.59","HALIFAX KOOTENAY","8202252","2019-11-23 13:00","2019","11","23","13:00","1.5","","-3.6","","69","","","","28","","35","","","","99.20","","","","","","NA"
"-63.55","44.59","HALIFAX KOOTENAY","8202252","2019-11-23 14:00","2019","11","23","14:00","2.0","","-4.5","","62","","","","28","","34","","","","99.25","","","","","","NA"
"-63.55","44.59","HALIFAX KOOTENAY","8202252","2019-11-23 15:00","2019","11","23","15:00","2.4","","-5.0","","58","","","","28","","32","","","","99.30","","","","","","NA"
"-63.55","44.59","HALIFAX KOOTENAY","8202252","2019-11-23 16:00","2019","11","23","16:00","2.0","","-5.0","","60","","","","28","","25","","","","99.42","","","","","","NA"
"-63.55","44.59","HALIFAX KOOTENAY","8202252","2019-11-23 17:00","2019","11","23","17:00","0.5","","-4.7","","68","","","","26","","20","","","","99.59","","","","","","NA"
"-63.55","44.59","HALIFAX KOOTENAY","8202252","2019-11-23 18:00","2019","11","23","18:00","0.5","","-5.8","","63","","","","27","","27","","","","99.65","","","","","","NA"
"-63.55","44.59","HALIFAX KOOTENAY","8202252","2019-11-23 19:00","2019","11","23","19:00","0.1","","-5.4","","66","","","","27","","21","","","","99.77","","","","","","NA"
"-63.55","44.59","HALIFAX KOOTENAY","8202252","2019-11-23 20:00","2019","11","23","20:00","0.0","","-5.6","","66","","","","27","","22","","","","99.80","","","","-6","","NA"
"-63.55","44.59","HALIFAX KOOTENAY","8202252","2019-11-23 21:00","2019","11","23","21:00","0.1","","-5.3","","67","","","","27","","18","","","","99.88","","","","","","NA"
"-63.55","44.59","HALIFAX KOOTENAY","8202252","2019-11-23 22:00","2019","11","23","22:00","0.1","","-4.7","","70","","","","28","","17","","","","99.87","","","","","","NA"
"-63.55","44.59","HALIFAX KOOTENAY","8202252","2019-11-23 23:00","2019","11","23","23:00","-0.2","","-4.3","","74","","","","28","","15","","","","99.89","","","","-5","","NA"
"-63.55","44.59","HALIFAX KOOTENAY","8202252","2019-11-24 00:00","2019","11","24","00:00","-0.1","","-4.1","","75","","","","28","","16","","","","99.93","","","","-5","","NA"
"-63.55","44.59","HALIFAX KOOTENAY","8202252","2019-11-24 01:00","2019","11","24","01:00","-0.2","","-3.5","","78","","","","26","","21","","","","99.97","","","","-6","","NA"
"-63.55","44.59","HALIFAX KOOTENAY","8202252","2019-11-24 02:00","2019","11","24","02:00","0.1","","-3.4","","77","","","","27","","19","","","","99.97","","","","","","NA"
"-63.55","44.59","HALIFAX KOOTENAY","8202252","2019-11-24 03:00","2019","11","24","03:00","0.2","","-3.2","","78","","","","27","","16","","","","99.99","","","","","","NA"
"-63.55","44.59","HALIFAX KOOTENAY","8202252","2019-11-24 04:00","2019","11","24","04:00","0.1","","-3.3","","78","","","","27","","11","","","","100.00","","","","","","NA"
"-63.55","44.59","HALIFAX KOOTENAY","8202252","2019-11-24 05:00","2019","11","24","05:00","0.0","","-3.3","","78","","","","28","","6","","","","100.03","","","","-2","","NA"
"-63.55","44.59","HALIFAX KOOTENAY","8202252","2019-11-24 06:00","2019","11","24","06:00","-0.1","","-3.3","","79","","","","26","","6","","","","100.06","","","","-2","","NA"
"-63.55","44.59","HALIFAX KOOTENAY","8202252","2019-11-24 07:00","2019","11","24","07:00","-0.1","","-3.3","","79","","","","27","","5","","","","100.07","","","","-2","","NA"
"-63.55","44.59","HALIFAX KOOTENAY","8202252","2019-11-24 08:00","2019","11","24","08:00","-0.1","","-3.3","","80","","","","25","","7","","","","100.15","","","","-3","","NA"
"-63.55","44.59","HALIFAX KOOTENAY","8202252","2019-11-24 09:00","2019","11","24","09:00","1.8","","-2.3","","74","","","","29","","5","","","","100.08","","","","","","NA"
"-63.55","44.59","HALIFAX KOOTENAY","8202252","2019-11-24 10:00","2019","11","24","10:00","2.8","","-2.0","","71","","","","1","","2","","","","100.13","","","","","","NA"
"-63.55","44.59","HALIFAX KOOTENAY","8202252","2019-11-24 11:00","2019","11","24","11:00","3.6","","-1.3","","70","","","","10","","6","","","","100.00","","","","","","NA"
"-63.55","44.59","HALIFAX KOOTENAY","8202252","2019-11-24 12:00","2019","11","24","12:00","3.7","","-0.6","","74","","","","9","","11","","","","99.93","","","","","","NA"
"-63.55","44.59","HALIFAX KOOTENAY","8202252","2019-11-24 13:00","2019","11","24","13:00","3.7","","-0.2","","76","","","","8","","9","","","","99.96","","","","","","NA"
"-63.55","44.59","HALIFAX KOOTENAY","8202252","2019-11-24 14:00","2019","11","24","14:00","4.2","","0.8","","79","","","","7","","10","","","","99.94","","","","","","NA"
"-63.55","44.59","HALIFAX KOOTENAY","8202252","2019-11-24 15:00","2019","11","24","15:00","4.5","","1.5","","81","","","","8","","12","","","","99.80","","","","","","NA"
"-63.55","44.59","HALIFAX KOOTENAY","8202252","2019-11-24 16:00","2019","11","24","16:00","4.6","","2.1","","84","","","","7","","23","","","","99.60","","","","","","NA"
"-63.55","44.59","HALIFAX KOOTENAY","8202252","2019-11-24 17:00","2019","11","24","17:00","5.6","","4.1","","90","","","","8","","28","","","","99.55","","","","","","NA"
"-63.55","44.59","HALIFAX KOOTENAY","8202252","2019-11-24 18:00","2019","11","24","18:00","6.4","","5.2","","93","","","","8","","36","","","","99.40","","","","","","NA"
"-63.55","44.59","HALIFAX KOOTENAY","8202252","2019-11-24 19:00","2019","11","24","19:00","6.7","","5.7","","94","","","","9","","38","","","","99.21","","","","","","NA"
"-63.55","44.59","HALIFAX KOOTENAY","8202252","2019-11-24 20:00","2019","11","24","20:00","7.4","","6.7","","95","","","","9","","42","","","","98.99","","","","","","NA"
"-63.55","44.59","HALIFAX KOOTENAY","8202252","2019-11-24 21:00","2019","11","24","21:00","7.9","","7.3","","96","","","","9","","46","","","","98.72","","","","","","NA"
"-63.55","44.59","HALIFAX KOOTENAY","8202252","2019-11-24 22:00","2019","11","24","22:00","7.8","","7.2","","96","","","","8","","54","","","","98.37","","","","","","NA"
"-63.55","44.59","HALIFAX KOOTENAY","8202252","2019-11-24 23:00","2019","11","24","23:00","8.1","","7.6","","97","","","","9","","57","","","","98.05","","","","","","NA"
"-63.55","44.59","HALIFAX KOOTENAY","8202252","2019-11-25 00:00","2019","11","25","00:00","8.4","","7.9","","97","","","","9","","57","","","","97.80","","","","","","NA"
"-63.55","44.59","HALIFAX KOOTENAY","8202252","2019-11-25 01:00","2019","11","25","01:00","9.4","","9.0","","97","","","","10","","43","","","","97.71","","","","","","NA"
"-63.55","44.59","HALIFAX KOOTENAY","8202252","2019-11-25 02:00","2019","11","25","02:00","9.6","","8.5","","93","","","","23","","29","","","","97.76","","","","","","NA"
"-63.55","44.59","HALIFAX KOOTENAY","8202252","2019-11-25 03:00","2019","11","25","03:00","8.8","","7.8","","94","","","","22","","17","","","","97.82","","","","","","NA"
"-63.55","44.59","HALIFAX KOOTENAY","8202252","2019-11-25 04:00","2019","11","25","04:00","9.3","","8.6","","95","","","","19","","20","","","","97.79","","","","","","NA"
"-63.55","44.59","HALIFAX KOOTENAY","8202252","2019-11-25 05:00","2019","11","25","05:00","9.2","","8.4","","94","","","","21","","19","","","","97.72","","","","","","NA"
"-63.55","44.59","HALIFAX KOOTENAY","8202252","2019-11-25 06:00","2019","11","25","06:00","8.7","","7.8","","94","","","","23","","28","","","","97.72","","","","","","NA"
"-63.55","44.59","HALIFAX KOOTENAY","8202252","2019-11-25 07:00","2019","11","25","07:00","8.4","","7.6","","95","","","","22","","20","","","","97.76","","","","","","NA"
"-63.55","44.59","HALIFAX KOOTENAY","8202252","2019-11-25 08:00","2019","11","25","08:00","8.1","","7.3","","95","","","","23","","24","","","","97.82","","","","","","NA"
"-63.55","44.59","HALIFAX KOOTENAY","8202252","2019-11-25 09:00","2019","11","25","09:00","8.4","","7.6","","95","","","","24","","24","","","","97.91","","","","","","NA"
"-63.55","44.59","HALIFAX KOOTENAY","8202252","2019-11-25 10:00","2019","11","25","10:00","8.4","","7.7","","95","","","","24","","29","","","","97.99","","","","","","NA"
"-63.55","44.59","HALIFAX KOOTENAY","8202252","2019-11-25 11:00","2019","11","25","11:00","5.7","","2.9","","82","","","","27","","37","","","","98.22","","","","","","NA"
"-63.55","44.59","HALIFAX KOOTENAY","8202252","2019-11-25 12:00","2019","11","25","12:00","5.7","","2.4","","79","","","","27","","27","","","","98.39","","","","","","NA"
"-63.55","44.59","HALIFAX KOOTENAY","8202252","2019-11-25 13:00","2019","11","25","13:00","5.0","","1.3","","77","","","","28","","33","","","","98.54","","","","","","NA"
"-63.55","44.59","HALIFAX KOOTENAY","8202252","2019-11-25 14:00","2019","11","25","14:00","4.5","","1.2","","79","","","","27","","36","","","","98.70","","","","","","NA"
"-63.55","44.59","HALIFAX KOOTENAY","8202252","2019-11-25 15:00","2019","11","25","15:00","4.4","","0.5","","76","","","","28","","36","","","","98.85","","","","","","NA"
"-63.55","44.59","HALIFAX KOOTENAY","8202252","2019-11-25 16:00","2019","11","25","16:00","4.1","","-0.1","","74","","","","28","","33","","","","99.04","","","","","","NA"
"-63.55","44.59","HALIFAX KOOTENAY","8202252","2019-11-25 17:00","2019","11","25","17:00","3.8","","-0.2","","75","","","","28","","34","","","","99.22","","","","","","NA"
"-63.55","44.59","HALIFAX KOOTENAY","8202252","2019-11-25 18:00","2019","11","25","18:00","3.5","","-0.4","","76","","","","29","","35","","","","99.41","","","","","","NA"
"-63.55","44.59","HALIFAX KOOTENAY","8202252","2019-11-25 19:00","2019","11","25","19:00","2.8","","-0.6","","78","","","","28","","22","","","","99.60","","","","","","NA"
"-63.55","44.59","HALIFAX KOOTENAY","8202252","2019-11-25 20:00","2019","11","25","20:00","2.4","","-0.7","","80","","","","27","","20","","","","99.75","","","","","","NA"
"-63.55","44.59","HALIFAX KOOTENAY","8202252","2019-11-25 21:00","2019","11","25","21:00","2.5","","0.0","","83","","","","27","","22","","","","99.87","","","","","","NA"
"-63.55","44.59","HALIFAX KOOTENAY","8202252","2019-11-25 22:00","2019","11","25","22:00","3.9","","0.4","","78","","","","28","","25","","","","99.93","","","","","","NA"
"-63.55","44.59","HALIFAX KOOTENAY","8202252","2019-11-25 23:00","2019","11","25","23:00","4.3","","0.5","","76","","","","28","","19","","","","100.03","","","","","","NA"
"-63.55","44.59","HALIFAX KOOTENAY","8202252","2019-11-26 00:00","2019","11","26","00:00","4.0","","-0.3","","74","","","","29","","24","","","","100.09","","","","","","NA"
"-63.55","44.59","HALIFAX KOOTENAY","8202252","2019-11-26 01:00","2019","11","26","01:00","3.2","","-0.4","","77","","","","27","","20","","","","100.19","","","","","","NA"
"-63.55","44.59","HALIFAX KOOTENAY","8202252","2019-11-26 02:00","2019","11","26","02:00","2.5","","-0.4","","81","","","","26","","16","","","","100.27","","","","","","NA"
"-63.55","44.59","HALIFAX KOOTENAY","8202252","2019-11-26 03:00","2019","11","26","03:00","2.0","","-0.4","","84","","","","26","","17","","","","100.35","","","","","","NA"
"-63.55","44.59","HALIFAX KOOTENAY","8202252","2019-11-26 04:00","2019","11","26","04:00","2.2","","0.0","","85","","","","26","","14","","","","100.39","","","","","","NA"
"-63.55","44.59","HALIFAX KOOTENAY","8202252","2019-11-26 05:00","2019","11","26","05:00","1.7","","-0.1","","88","","","","26","","13","","","","100.44","","","","","","NA"
"-63.55","44.59","HALIFAX KOOTENAY","8202252","2019-11-26 06:00","2019","11","26","06:00","1.9","","0.0","","87","","","","26","","13","","","","100.49","","","","","","NA"
"-63.55","44.59","HALIFAX KOOTENAY","8202252","2019-11-26 07:00","2019","11","26","07:00","1.7","","0.1","","89","","","","26","","15","","","","100.55","","","","","","NA"
"-63.55","44.59","HALIFAX KOOTENAY","8202252","2019-11-26 08:00","2019","11","26","08:00","2.0","","0.2","","88","","","","26","","13","","","","100.62","","","","","","NA"
"-63.55","44.59","HALIFAX KOOTENAY","8202252","2019-11-26 09:00","2019","11","26","09:00","4.2","","0.9","","79","","","","27","","18","","","","100.69","","","","","","NA"
"-63.55","44.59","HALIFAX KOOTENAY","8202252","2019-11-26 10:00","2019","11","26","10:00","6.4","","0.7","","67","","","","27","","19","","","","100.70","","","","","","NA"
"-63.55","44.59","HALIFAX KOOTENAY","8202252","2019-11-26 11:00","2019","11","26","11:00","7.7","","1.1","","63","","","","27","","22","","","","100.68","","","","","","NA"
"-63.55","44.59","HALIFAX KOOTENAY","8202252","2019-11-26 12:00","2019","11","26","12:00","8.5","","-0.2","","54","","","","27","","30","","","","100.61","","","","","","NA"
"-63.55","44.59","HALIFAX KOOTENAY","8202252","2019-11-26 13:00","2019","11","26","13:00","9.3","","0.9","","56","","","","27","","21","","","","100.62","","","","","","NA"
"-63.55","44.59","HALIFAX KOOTENAY","8202252","2019-11-26 14:00","2019","11","26","14:00","9.4","","1.2","","56","","","","25","","23","","","","100.64","","","","","","NA"
"-63.55","44.59","HALIFAX KOOTENAY","8202252","2019-11-26 15:00","2019","11","26","15:00","9.2","","2.3","","62","","","","24","","23","","","","100.63","","","","","","NA"
"-63.55","44.59","HALIFAX KOOTENAY","8202252","2019-11-26 16:00","2019","11","26","16:00","8.7","","3.0","","67","","","","24","","19","","","","100.62","","","","","","NA"
"-63.55","44.59","HALIFAX KOOTENAY","8202252","2019-11-26 17:00","2019","11","26","17:00","7.2","","4.0","","80","","","","24","","15","","","","100.60","","","","","","NA"
"-63.55","44.59","HALIFAX KOOTENAY","8202252","2019-11-26 18:00","2019","11","26","18:00","7.0","","5.4","","90","","","","24","","15","","","","100.57","","","","","","NA"
"-63.55","44.59","HALIFAX KOOTENAY","8202252","2019-11-26 19:00","2019","11","26","19:00","7.1","","5.7","","91","","","","24","","13","","","","100.57","","","","","","NA"
"-63.55","44.59","HALIFAX KOOTENAY","8202252","2019-11-26 20:00","2019","11","26","20:00","7.4","","6.3","","93","","","","24","","19","","","","100.52","","","","","","NA"
"-63.55","44.59","HALIFAX KOOTENAY","8202252","2019-11-26 21:00","2019","11","26","21:00","7.6","","6.3","","91","","","","24","","23","","","","100.48","","","","","","NA"
"-63.55","44.59","HALIFAX KOOTENAY","8202252","2019-11-26 22:00","2019","11","26","22:00","7.8","","6.6","","92","","","","24","","27","","","","100.43","","","","","","NA"
"-63.55","44.59","HALIFAX KOOTENAY","8202252","2019-11-26 23:00","2019","11","26","23:00","7.9","","6.2","","89","","","","26","","29","","","","100.46","","","","","","NA"
"-63.55","44.59","HALIFAX KOOTENAY","8202252","2019-11-27 00:00","2019","11","27","00:00","7.3","","6.0","","91","","","","26","","24","","","","100.44","","","","","","NA"
"-63.55","44.59","HALIFAX KOOTENAY","8202252","2019-11-27 01:00","2019","11","27","01:00","6.9","","5.7","","92","","","","27","","22","","","","100.43","","","","","","NA"
"-63.55","44.59","HALIFAX KOOTENAY","8202252","2019-11-27 02:00","2019","11","27","02:00","6.6","","5.5","","92","","","","27","","19","","","","100.50","","","","","","NA"
"-63.55","44.59","HALIFAX KOOTENAY","8202252","2019-11-27 03:00","2019","11","27","03:00","6.3","","5.0","","91","","","","27","","15","","","","100.59","","","","","","NA"
"-63.55","44.59","HALIFAX KOOTENAY","8202252","2019-11-27 04:00","2019","11","27","04:00","5.8","","4.2","","90","","","","28","","13","","","","100.61","","","","","","NA"
"-63.55","44.59","HALIFAX KOOTENAY","8202252","2019-11-27 05:00","2019","11","27","05:00","5.1","","3.6","","90","","","","28","","15","","","","100.68","","","","","","NA"
"-63.55","44.59","HALIFAX KOOTENAY","8202252","2019-11-27 06:00","2019","11","27","06:00","4.3","","2.5","","88","","","","28","","14","","","","100.71","","","","","","NA"
"-63.55","44.59","HALIFAX KOOTENAY","8202252","2019-11-27 07:00","2019","11","27","07:00","3.8","","1.9","","87","","","","27","","12","","","","100.77","","","","","","NA"
"-63.55","44.59","HALIFAX KOOTENAY","8202252","2019-11-27 08:00","2019","11","27","08:00","3.7","","1.7","","87","","","","28","","15","","","","100.84","","","","","","NA"
"-63.55","44.59","HALIFAX KOOTENAY","8202252","2019-11-27 09:00","2019","11","27","09:00","5.5","","1.9","","77","","","","29","","18","","","","100.89","","","","","","NA"
"-63.55","44.59","HALIFAX KOOTENAY","8202252","2019-11-27 10:00","2019","11","27","10:00","6.3","","1.9","","74","","","","31","","21","","","","100.90","","","","","","NA"
"-63.55","44.59","HALIFAX KOOTENAY","8202252","2019-11-27 11:00","2019","11","27","11:00","7.3","","1.3","","66","","","","33","","14","","","","100.84","","","","","","NA"
"-63.55","44.59","HALIFAX KOOTENAY","8202252","2019-11-27 12:00","2019","11","27","12:00","8.4","","1.2","","61","","","","29","","18","","","","100.75","","","","","","NA"
"-63.55","44.59","HALIFAX KOOTENAY","8202252","2019-11-27 13:00","2019","11","27","13:00","9.8","","1.2","","55","","","","28","","12","","","","100.70","","","","","","NA"
"-63.55","44.59","HALIFAX KOOTENAY","8202252","2019-11-27 14:00","2019","11","27","14:00","9.1","","1.1","","57","","","","27","","14","","","","100.65","","","","","","NA"
"-63.55","44.59","HALIFAX KOOTENAY","8202252","2019-11-27 15:00","2019","11","27","15:00","8.3","","1.0","","60","","","","27","","14","","","","100.67","","","","","","NA"
"-63.55","44.59","HALIFAX KOOTENAY","8202252","2019-11-27 16:00","2019","11","27","16:00","7.5","","1.1","","64","","","","27","","12","","","","100.70","","","","","","NA"
"-63.55","44.59","HALIFAX KOOTENAY","8202252","2019-11-27 17:00","2019","11","27","17:00","6.6","","1.0","","67","","","","29","","8","","","","100.64","","","","","","NA"
"-63.55","44.59","HALIFAX KOOTENAY","8202252","2019-11-27 18:00","2019","11","27","18:00","6.2","","0.8","","68","","","","30","","8","","","","100.59","","","","","","NA"
"-63.55","44.59","HALIFAX KOOTENAY","8202252","2019-11-27 19:00","2019","11","27","19:00","5.7","","1.3","","73","","","","35","","5","","","","100.57","","","","","","NA"
"-63.55","44.59","HALIFAX KOOTENAY","8202252","2019-11-27 20:00","2019","11","27","20:00","5.1","","1.4","","77","","","","4","","5","","","","100.45","","","","","","NA"
"-63.55","44.59","HALIFAX KOOTENAY","8202252","2019-11-27 21:00","2019","11","27","21:00","4.6","","1.4","","79","","","","5","","8","","","","100.39","","","","","","NA"
"-63.55","44.59","HALIFAX KOOTENAY","8202252","2019-11-27 22:00","2019","11","27","22:00","4.3","","1.4","","81","","","","7","","9","","","","100.27","","","","","","NA"
"-63.55","44.59","HALIFAX KOOTENAY","8202252","2019-11-27 23:00","2019","11","27","23:00","4.4","","2.1","","85","","","","8","","12","","","","100.14","","","","","","NA"
"-63.55","44.59","HALIFAX KOOTENAY","8202252","2019-11-28 00:00","2019","11","28","00:00","5.6","","2.7","","82","","","","9","","24","","","","99.98","","","","","","NA"
"-63.55","44.59","HALIFAX KOOTENAY","8202252","2019-11-28 01:00","2019","11","28","01:00","6.0","","3.8","","86","","","","10","","31","","","","99.76","","","","","","NA"
"-63.55","44.59","HALIFAX KOOTENAY","8202252","2019-11-28 02:00","2019","11","28","02:00","5.5","","4.2","","91","","","","9","","33","","","","99.71","","","","","","NA"
"-63.55","44.59","HALIFAX KOOTENAY","8202252","2019-11-28 03:00","2019","11","28","03:00","5.3","","4.3","","93","","","","8","","41","","","","99.41","","","","","","NA"
"-63.55","44.59","HALIFAX KOOTENAY","8202252","2019-11-28 04:00","2019","11","28","04:00","5.5","","4.6","","94","","","","9","","40","","","","99.28","","","","","","NA"
"-63.55","44.59","HALIFAX KOOTENAY","8202252","2019-11-28 05:00","2019","11","28","05:00","5.2","","4.5","","95","","","","8","","43","","","","99.06","","","","","","NA"
"-63.55","44.59","HALIFAX KOOTENAY","8202252","2019-11-28 06:00","2019","11","28","06:00","5.0","","4.3","","96","","","","7","","43","","","","98.78","","","","","","NA"
"-63.55","44.59","HALIFAX KOOTENAY","8202252","2019-11-28 07:00","2019","11","28","07:00","4.9","","4.2","","95","","","","8","","54","","","","98.48","","","","","","NA"
"-63.55","44.59","HALIFAX KOOTENAY","8202252","2019-11-28 08:00","2019","11","28","08:00","5.4","","4.8","","96","","","","8","","56","","","","98.36","","","","","","NA"
"-63.55","44.59","HALIFAX KOOTENAY","8202252","2019-11-28 09:00","2019","11","28","09:00","4.6","","3.9","","96","","","","5","","12","","","","98.59","","","","","","NA"
"-63.55","44.59","HALIFAX KOOTENAY","8202252","2019-11-28 10:00","2019","11","28","10:00","4.1","","3.6","","96","","","","4","","14","","","","98.54","","","","","","NA"
"-63.55","44.59","HALIFAX KOOTENAY","8202252","2019-11-28 11:00","2019","11","28","11:00","3.5","","2.9","","96","","","","2","","18","","","","98.49","","","","","","NA"
"-63.55","44.59","HALIFAX KOOTENAY","8202252","2019-11-28 12:00","2019","11","28","12:00","3.2","","2.7","","96","","","","2","","19","","","","98.45","","","","","","NA"
"-63.55","44.59","HALIFAX KOOTENAY","8202252","2019-11-28 13:00","2019","11","28","13:00","1.5","","1.0","","96","","","","2","","24","","","","98.41","","","","","","NA"
"-63.55","44.59","HALIFAX KOOTENAY","8202252","2019-11-28 14:00","2019","11","28","14:00","1.4","","0.8","","96","","","","2","","24","","","","98.41","","","","","","NA"
"-63.55","44.59","HALIFAX KOOTENAY","8202252","2019-11-28 15:00","2019","11","28","15:00","1.0","","0.5","","97","","","","1","","30","","","","98.40","","","","","","NA"
"-63.55","44.59","HALIFAX KOOTENAY","8202252","2019-11-28 16:00","2019","11","28","16:00","1.9","","1.2","","95","","","","1","","31","","","","98.51","","","","","","NA"
"-63.55","44.59","HALIFAX KOOTENAY","8202252","2019-11-28 17:00","2019","11","28","17:00","1.4","","0.7","","95","","","","1","","32","","","","98.61","","","","","","NA"
"-63.55","44.59","HALIFAX KOOTENAY","8202252","2019-11-28 18:00","2019","11","28","18:00","1.7","","1.0","","95","","","","1","","30","","","","98.71","","","","","","NA"
"-63.55","44.59","HALIFAX KOOTENAY","8202252","2019-11-28 19:00","2019","11","28","19:00","1.8","","1.0","","94","","","","1","","30","","","","98.80","","","","","","NA"
"-63.55","44.59","HALIFAX KOOTENAY","8202252","2019-11-28 20:00","2019","11","28","20:00","2.4","","1.5","","94","","","","36","","31","","","","98.88","","","","","","NA"
"-63.55","44.59","HALIFAX KOOTENAY","8202252","2019-11-28 21:00","2019","11","28","21:00","2.9","","1.7","","92","","","","36","","30","","","","98.96","","","","","","NA"
"-63.55","44.59","HALIFAX KOOTENAY","8202252","2019-11-28 22:00","2019","11","28","22:00","2.9","","1.6","","91","","","","36","","31","","","","98.99","","","","","","NA"
"-63.55","44.59","HALIFAX KOOTENAY","8202252","2019-11-28 23:00","2019","11","28","23:00","3.3","","1.9","","90","","","","36","","33","","","","99.06","","","","","","NA"
"-63.55","44.59","HALIFAX KOOTENAY","8202252","2019-11-29 00:00","2019","11","29","00:00","3.1","","1.8","","91","","","","36","","32","","","","99.12","","","","","","NA"
"-63.55","44.59","HALIFAX KOOTENAY","8202252","2019-11-29 01:00","2019","11","29","01:00","3.1","","1.8","","91","","","","36","","31","","","","99.19","","","","","","NA"
"-63.55","44.59","HALIFAX KOOTENAY","8202252","2019-11-29 02:00","2019","11","29","02:00","3.2","","1.9","","91","","","","36","","33","","","","99.25","","","","","","NA"
"-63.55","44.59","HALIFAX KOOTENAY","8202252","2019-11-29 03:00","2019","11","29","03:00","3.0","","1.7","","91","","","","35","","34","","","","99.31","","","","","","NA"
"-63.55","44.59","HALIFAX KOOTENAY","8202252","2019-11-29 04:00","2019","11","29","04:00","2.9","","0.7","","86","","","","34","","39","","","","99.35","","","","","","NA"
"-63.55","44.59","HALIFAX KOOTENAY","8202252","2019-11-29 05:00","2019","11","29","05:00","2.2","","0.0","","85","","","","34","","41","","","","99.37","","","","","","NA"
"-63.55","44.59","HALIFAX KOOTENAY","8202252","2019-11-29 06:00","2019","11","29","06:00","2.0","","-0.5","","84","","","","34","","36","","","","99.44","","","","","","NA"
"-63.55","44.59","HALIFAX KOOTENAY","8202252","2019-11-29 07:00","2019","11","29","07:00","1.7","","-1.1","","82","","","","34","","36","","","","99.50","","","","","","NA"
"-63.55","44.59","HALIFAX KOOTENAY","8202252","2019-11-29 08:00","2019","11","29","08:00","1.1","","-0.6","","88","","","","34","","29","","","","99.58","","","","","","NA"
"-63.55","44.59","HALIFAX KOOTENAY","8202252","2019-11-29 09:00","2019","11","29","09:00","1.3","","-1.4","","83","","","","35","","38","","","","99.60","","","","","","NA"
"-63.55","44.59","HALIFAX KOOTENAY","8202252","2019-11-29 10:00","2019","11","29","10:00","1.3","","-2.0","","79","","","","34","","30","","","","99.61","","","","","","NA"
"-63.55","44.59","HALIFAX KOOTENAY","8202252","2019-11-29 11:00","2019","11","29","11:00","0.4","","-2.1","","83","","","","33","","29","","","","99.59","","","","","","NA"
"-63.55","44.59","HALIFAX KOOTENAY","8202252","2019-11-29 12:00","2019","11","29","12:00","0.4","","-2.9","","79","","","","34","","35","","","","99.53","","","","","","NA"
"-63.55","44.59","HALIFAX KOOTENAY","8202252","2019-11-29 13:00","2019","11","29","13:00","0.6","","-3.7","","73","","","","35","","33","","","","99.46","","","","","","NA"
"-63.55","44.59","HALIFAX KOOTENAY","8202252","2019-11-29 14:00","2019","11","29","14:00","0.6","","-3.9","","72","","","","34","","32","","","","99.43","","","","","","NA"
"-63.55","44.59","HALIFAX KOOTENAY","8202252","2019-11-29 15:00","2019","11","29","15:00","-0.3","","-3.3","","80","","","","33","","26","","","","99.40","","","","-6","","NA"
"-63.55","44.59","HALIFAX KOOTENAY","8202252","2019-11-29 16:00","2019","11","29","16:00","-1.0","","-4.4","","78","","","","34","","40","","","","99.37","","","","-9","","NA"
"-63.55","44.59","HALIFAX KOOTENAY","8202252","2019-11-29 17:00","2019","11","29","17:00","-1.5","","-4.7","","79","","","","34","","38","","","","99.37","","","","-9","","NA"
"-63.55","44.59","HALIFAX KOOTENAY","8202252","2019-11-29 18:00","2019","11","29","18:00","-1.8","","-5.1","","79","","","","33","","39","","","","99.38","","","","-10","","NA"
"-63.55","44.59","HALIFAX KOOTENAY","8202252","2019-11-29 19:00","2019","11","29","19:00","-2.0","","-5.8","","75","","","","33","","37","","","","99.34","","","","-10","","NA"
"-63.55","44.59","HALIFAX KOOTENAY","8202252","2019-11-29 20:00","2019","11","29","20:00","-2.5","","-6.5","","74","","","","33","","32","","","","99.38","","","","-10","","NA"
"-63.55","44.59","HALIFAX KOOTENAY","8202252","2019-11-29 21:00","2019","11","29","21:00","-2.9","","-7.0","","73","","","","32","","36","","","","99.27","","","","-11","","NA"
"-63.55","44.59","HALIFAX KOOTENAY","8202252","2019-11-29 22:00","2019","11","29","22:00","-3.2","","-7.2","","74","","","","33","","31","","","","99.20","","","","-11","","NA"
"-63.55","44.59","HALIFAX KOOTENAY","8202252","2019-11-29 23:00","2019","11","29","23:00","-3.7","","-7.6","","74","","","","32","","34","","","","99.10","","","","-12","","NA"
"-63.55","44.59","HALIFAX KOOTENAY","8202252","2019-11-30 00:00","2019","11","30","00:00","-3.7","","-7.6","","74","","","","32","","28","","","","99.08","","","","-11","","NA"
"-63.55","44.59","HALIFAX KOOTENAY","8202252","2019-11-30 01:00","2019","11","30","01:00","-3.6","","-7.3","","76","","","","32","","34","","","","98.98","","","","-12","","NA"
"-63.55","44.59","HALIFAX KOOTENAY","8202252","2019-11-30 02:00","2019","11","30","02:00","-3.6","","-7.7","","73","","","","31","","36","","","","98.94","","","","-12","","NA"
"-63.55","44.59","HALIFAX KOOTENAY","8202252","2019-11-30 03:00","2019","11","30","03:00","-3.7","","-7.6","","74","","","","31","","30","","","","98.96","","","","-11","","NA"
"-63.55","44.59","HALIFAX KOOTENAY","8202252","2019-11-30 04:00","2019","11","30","04:00","-3.6","","-7.4","","75","","","","31","","32","","","","98.93","","","","-11","","NA"
"-63.55","44.59","HALIFAX KOOTENAY","8202252","2019-11-30 05:00","2019","11","30","05:00","-3.7","","-7.2","","77","","","","31","","28","","","","98.92","","","","-11","","NA"
"-63.55","44.59","HALIFAX KOOTENAY","8202252","2019-11-30 06:00","2019","11","30","06:00","-3.9","","-7.2","","77","","","","31","","26","","","","98.91","","","","-11","","NA"
"-63.55","44.59","HALIFAX KOOTENAY","8202252","2019-11-30 07:00","2019","11","30","07:00","-3.7","","-7.1","","77","","","","31","","30","","","","98.93","","","","-11","","NA"
"-63.55","44.59","HALIFAX KOOTENAY","8202252","2019-11-30 08:00","2019","11","30","08:00","-3.2","","-6.7","","77","","","","31","","28","","","","98.92","","","","-10","","NA"
"-63.55","44.59","HALIFAX KOOTENAY","8202252","2019-11-30 09:00","2019","11","30","09:00","-2.8","","-6.6","","75","","","","31","","34","","","","98.93","","","","-11","","NA"
"-63.55","44.59","HALIFAX KOOTENAY","8202252","2019-11-30 10:00","2019","11","30","10:00","-2.3","","-6.4","","73","","","","31","","30","","","","98.95","","","","-9","","NA"
"-63.55","44.59","HALIFAX KOOTENAY","8202252","2019-11-30 11:00","2019","11","30","11:00","-1.9","","-6.5","","71","","","","31","","31","","","","98.91","","","","-9","","NA"
"-63.55","44.59","HALIFAX KOOTENAY","8202252","2019-11-30 12:00","2019","11","30","12:00","-1.6","","-6.2","","71","","","","31","","35","","","","98.86","","","","-9","","NA"
"-63.55","44.59","HALIFAX KOOTENAY","8202252","2019-11-30 13:00","2019","11","30","13:00","-1.1","","-6.0","","69","","","","31","","29","","","","98.85","","","","-8","","NA"
"-63.55","44.59","HALIFAX KOOTENAY","8202252","2019-11-30 14:00","2019","11","30","14:00","-0.8","","-6.3","","67","","","","32","","27","","","","98.88","","","","-7","","NA"
"-63.55","44.59","HALIFAX KOOTENAY","8202252","2019-11-30 15:00","2019","11","30","15:00","-0.9","","-6.6","","65","","","","31","","28","","","","98.92","","","","-7","","NA"
"-63.55","44.59","HALIFAX KOOTENAY","8202252","2019-11-30 16:00","2019","11","30","16:00","-1.0","","-6.5","","67","","","","31","","27","","","","98.98","","","","-7","","NA"
"-63.55","44.59","HALIFAX KOOTENAY","8202252","2019-11-30 17:00","2019","11","30","17:00","-1.1","","-6.3","","68","","","","30","","25","","","","99.02","","","","-7","","NA"
"-63.55","44.59","HALIFAX KOOTENAY","8202252","2019-11-30 18:00","2019","11","30","18:00","-0.8","","-6.2","","67","","","","30","","20","","","","99.08","","","","-6","","NA"
"-63.55","44.59","HALIFAX KOOTENAY","8202252","2019-11-30 19:00","2019","11","30","19:00","-0.4","","-6.2","","65","","","","30","","22","","","","99.11","","","","-6","","NA"
"-63.55","44.59","HALIFAX KOOTENAY","8202252","2019-11-30 20:00","2019","11","30","20:00","-0.2","","-6.1","","64","","","","32","","17","","","","99.19","","","","-5","","NA"
"-63.55","44.59","HALIFAX KOOTENAY","8202252","2019-11-30 21:00","2019","11","30","21:00","-0.2","","-6.8","","61","","","","32","","25","","","","99.25","","","","-6","","NA"
"-63.55","44.59","HALIFAX KOOTENAY","8202252","2019-11-30 22:00","2019","11","30","22:00","-0.5","","-7.1","","61","","","","31","","23","","","","99.34","","","","-6","","NA"
"-63.55","44.59","HALIFAX KOOTENAY","8202252","2019-11-30 23:00","2019","11","30","23:00","-1.1","","-7.4","","62","","","","32","","26","","","","99.39","","","","-7","","NA"
