"Longitude (x)","Latitude (y)","Station Name","Climate ID","Date/Time (LST)","Year","Month","Day","Time (LST)","Temp (°C)","Temp Flag","Dew Point Temp (°C)","Dew Point Temp Flag","Rel Hum (%)","Rel Hum Flag","Precip. Amount (mm)","Precip. Amount Flag","Wind Dir (10s deg)","Wind Dir Flag","Wind Spd (km/h)","Wind Spd Flag","Visibility (km)","Visibility Flag","Stn Press (kPa)","Stn Press Flag","Hmdx","Hmdx Flag","Wind Chill","Wind Chill Flag","Weather"
"-111.96","60.02","FORT SMITH A","2202201","2023-01-01 00:00","2023","01","01","00:00","-14.7","","-16.8","","84","","","","13","","4","","24.1","","98.09","","","","-18","","NA"
"-111.96","60.02","FORT SMITH A","2202201","2023-01-01 01:00","2023","01","01","01:00","-14.1","","-16.2","","84","","","","15","","8","","24.1","","98.11","","","","-19","","NA"
"-111.96","60.02","FORT SMITH A","2202201","2023-01-01 02:00","2023","01","01","02:00","-13.7","","-15.7","","85","","","","14","","7","","24.1","","98.14","","","","-18","","Cloudy"
"-111.96","60.02","FORT SMITH A","2202201","2023-01-01 03:00","2023","01","01","03:00","-13.4","","-15.4","","85","","","","15","","8","","24.1","","98.15","","","","-18","","NA"
"-111.96","60.02","FORT SMITH A","2202201","2023-01-01 04:00","2023","01","01","04:00","-13.0","","-15.0","","86","","","","14","","7","","24.1","","98.15","","","","-18","","Snow"
"-111.96","60.02","FORT SMITH A","2202201","2023-01-01 05:00","2023","01","01","05:00","-12.6","","-14.4","","86","","","","13","","6","","24.1","","98.14","","","","-17","","Snow"
"-111.96","60.02","FORT SMITH A","2202201","2023-01-01 06:00","2023","01","01","06:00","-12.4","","-14.1","","88","","","","16","","9","","24.1","","98.13","","","","-18","","Snow"
"-111.96","60.02","FORT SMITH A","2202201","2023-01-01 07:00","2023","01","01","07:00","-12.3","","-14.1","","87","","","","17","","8","","24.1","","98.11","","","","-17","","Snow"
"-111.96","60.02","FORT SMITH A","2202201","2023-01-01 08:00","2023","01","01","08:00","-12.4","","-13.9","","89","","","","17","","7","","24.1","","98.11","","","","-17","","Snow"
"-111.96","60.02","FORT SMITH A","2202201","2023-01-01 09:00","2023","01","01","09:00","-12.3","","-13.5","","91","","","","17","","6","","4.0","","98.14","","","","-16","","Snow,Fog"
"-111.96","60.02","FORT SMITH A","2202201","2023-01-01 10:00","2023","01","01","10:00","-12.1","","-13.4","","90","","","","15","","7","","1.6","","98.15","","","","-16","","Fog"
"-111.96","60.02","FORT SMITH A","2202201","2023-01-01 11:00","2023","01","01","11:00","-11.8","","-13.2","","89","","","","19","","5","","24.1","","98.17","","","","-15","","Cloudy"
"-111.96","60.02","FORT SMITH A","2202201","2023-01-01 12:00","2023","01","01","12:00","-11.4","","-12.9","","89","","","","23","","9","","24.1","","98.18","","","","-17","","NA"
"-111.96","60.02","FORT SMITH A","2202201","2023-01-01 13:00","2023","01","01","13:00","-11.5","","-13.1","","88","","","","23","","5","","24.1","","98.15","","","","-15","","NA"
"-111.96","60.02","FORT SMITH A","2202201","2023-01-01 14:00","2023","01","01","14:00","-12.4","","-14.0","","88","","","","25","","9","","24.1","","98.17","","","","-18","","Mostly Cloudy"
"-111.96","60.02","FORT SMITH A","2202201","2023-01-01 15:00","2023","01","01","15:00","-14.2","","-16.1","","86","","","","28","","11","","24.1","","98.25","","","","-21","","NA"
"-111.96","60.02","FORT SMITH A","2202201","2023-01-01 16:00","2023","01","01","16:00","-16.2","","-18.2","","84","","","","29","","8","","24.1","","98.27","","","","-22","","NA"
"-111.96","60.02","FORT SMITH A","2202201","2023-01-01 17:00","2023","01","01","17:00","-16.9","","-19.1","","83","","","","31","","10","","24.1","","98.33","","","","-24","","Mainly Clear"
"-111.96","60.02","FORT SMITH A","2202201","2023-01-01 18:00","2023","01","01","18:00","-17.3","","-19.5","","84","","","","34","","7","","24.1","","98.33","","","","-23","","NA"
"-111.96","60.02","FORT SMITH A","2202201","2023-01-01 19:00","2023","01","01","19:00","-17.1","","-19.2","","84","","","","29","","7","","19.3","","98.34","","","","-22","","NA"
"-111.96","60.02","FORT SMITH A","2202201","2023-01-01 20:00","2023","01","01","20:00","-16.8","","-18.9","","84","","","","36","","1","","24.1","","98.30","","","","-18","","Cloudy"
"-111.96","60.02","FORT SMITH A","2202201","2023-01-01 21:00","2023","01","01","21:00","-16.5","","-18.7","","84","","","","26","","7","","24.1","","98.37","","","","-22","","NA"
"-111.96","60.02","FORT SMITH A","2202201","2023-01-01 22:00","2023","01","01","22:00","-16.4","","-18.5","","84","","","","14","","3","","24.1","","98.35","","","","-19","","Snow"
"-111.96","60.02","FORT SMITH A","2202201","2023-01-01 23:00","2023","01","01","23:00","-16.4","","-18.5","","84","","","","36","","1","","24.1","","98.37","","","","-17","","Snow"
"-111.96","60.02","FORT SMITH A","2202201","2023-01-02 00:00","2023","01","02","00:00","-16.2","","-18.4","","84","","","","36","","2","","19.3","","98.36","","","","-18","","Snow"
"-111.96","60.02","FORT SMITH A","2202201","2023-01-02 01:00","2023","01","02","01:00","-16.1","","-18.3","","84","","","","16","","5","","19.3","","98.33","","","","-20","","Snow"
"-111.96","60.02","FORT SMITH A","2202201","2023-01-02 02:00","2023","01","02","02:00","-16.0","","-18.1","","84","","","","36","","3","","24.1","","98.28","","","","-18","","Snow"
"-111.96","60.02","FORT SMITH A","2202201","2023-01-02 03:00","2023","01","02","03:00","-15.5","","-17.5","","85","","","","13","","7","","19.3","","98.25","","","","-20","","Snow"
"-111.96","60.02","FORT SMITH A","2202201","2023-01-02 04:00","2023","01","02","04:00","-15.8","","-18.0","","84","","","","12","","10","","16.1","","98.21","","","","-22","","Snow"
"-111.96","60.02","FORT SMITH A","2202201","2023-01-02 05:00","2023","01","02","05:00","-16.4","","-18.6","","83","","","","14","","9","","19.3","","98.17","","","","-22","","Snow"
"-111.96","60.02","FORT SMITH A","2202201","2023-01-02 06:00","2023","01","02","06:00","-16.8","","-19.0","","83","","","","13","","9","","24.1","","98.11","","","","-23","","Snow"
"-111.96","60.02","FORT SMITH A","2202201","2023-01-02 07:00","2023","01","02","07:00","-16.3","","-18.4","","84","","","","12","","7","","24.1","","98.04","","","","-21","","Snow"
"-111.96","60.02","FORT SMITH A","2202201","2023-01-02 08:00","2023","01","02","08:00","-15.4","","-17.5","","84","","","","10","","6","","24.1","","98.03","","","","-20","","Snow"
"-111.96","60.02","FORT SMITH A","2202201","2023-01-02 09:00","2023","01","02","09:00","-14.8","","-16.8","","85","","","","12","","7","","19.3","","97.95","","","","-20","","Snow"
"-111.96","60.02","FORT SMITH A","2202201","2023-01-02 10:00","2023","01","02","10:00","-14.0","","-15.8","","86","","","","12","","5","","24.1","","97.87","","","","-17","","Snow"
"-111.96","60.02","FORT SMITH A","2202201","2023-01-02 11:00","2023","01","02","11:00","-13.7","","-15.5","","86","","","","14","","7","","24.1","","97.86","","","","-18","","Cloudy"
"-111.96","60.02","FORT SMITH A","2202201","2023-01-02 12:00","2023","01","02","12:00","-12.6","","-14.4","","87","","","","12","","6","","24.1","","97.84","","","","-17","","NA"
"-111.96","60.02","FORT SMITH A","2202201","2023-01-02 13:00","2023","01","02","13:00","-12.1","","-13.7","","88","","","","10","","7","","24.1","","97.81","","","","-16","","NA"
"-111.96","60.02","FORT SMITH A","2202201","2023-01-02 14:00","2023","01","02","14:00","-11.7","","-13.2","","89","","","","10","","5","","24.1","","97.79","","","","-15","","Mostly Cloudy"
"-111.96","60.02","FORT SMITH A","2202201","2023-01-02 15:00","2023","01","02","15:00","-11.5","","-12.9","","89","","","","12","","5","","24.1","","97.81","","","","-15","","NA"
"-111.96","60.02","FORT SMITH A","2202201","2023-01-02 16:00","2023","01","02","16:00","-11.4","","-12.9","","89","","","","10","","7","","24.1","","97.86","","","","-16","","NA"
"-111.96","60.02","FORT SMITH A","2202201","2023-01-02 17:00","2023","01","02","17:00","-11.7","","-13.1","","89","","","","11","","8","","24.1","","97.84","","","","-16","","Cloudy"
"-111.96","60.02","FORT SMITH A","2202201","2023-01-02 18:00","2023","01","02","18:00","-11.5","","-12.9","","89","","","","13","","7","","24.1","","97.83","","","","-16","","NA"
"-111.96","60.02","FORT SMITH A","2202201","2023-01-02 19:00","2023","01","02","19:00","-11.1","","-12.5","","90","","","","14","","11","","24.1","","97.80","","","","-17","","NA"
"-111.96","60.02","FORT SMITH A","2202201","2023-01-02 20:00","2023","01","02","20:00","-11.6","","-13.1","","89","","","","13","","9","","24.1","","97.76","","","","-17","","Mainly Clear"
"-111.96","60.02","FORT SMITH A","2202201","2023-01-02 21:00","2023","01","02","21:00","-12.3","","-13.8","","88","","","","10","","5","","24.1","","97.77","","","","-16","","NA"
"-111.96","60.02","FORT SMITH A","2202201","2023-01-02 22:00","2023","01","02","22:00","-12.6","","-14.2","","88","","","","9","","5","","24.1","","97.82","","","","-16","","NA"
"-111.96","60.02","FORT SMITH A","2202201","2023-01-02 23:00","2023","01","02","23:00","-12.3","","-13.9","","88","","","","13","","9","","24.1","","97.78","","","","-18","","Mostly Cloudy"
"-111.96","60.02","FORT SMITH A","2202201","2023-01-03 00:00","2023","01","03","00:00","-11.7","","-13.2","","89","","","","12","","7","","24.1","","97.80","","","","-16","","NA"
"-111.96","60.02","FORT SMITH A","2202201","2023-01-03 01:00","2023","01","03","01:00","-11.7","","-13.2","","89","","","","36","","2","","24.1","","97.76","","","","-13","","NA"
"-111.96","60.02","FORT SMITH A","2202201","2023-01-03 02:00","2023","01","03","02:00","-12.0","","-13.6","","88","","","","7","","4","","24.1","","97.76","","","","-15","","Mostly Cloudy"
"-111.96","60.02","FORT SMITH A","2202201","2023-01-03 03:00","2023","01","03","03:00","-13.2","","-14.8","","88","","","","14","","5","","24.1","","97.81","","","","-17","","NA"
"-111.96","60.02","FORT SMITH A","2202201","2023-01-03 04:00","2023","01","03","04:00","-10.8","","-12.1","","90","","","","13","","8","","24.1","","97.76","","","","-15","","NA"
"-111.96","60.02","FORT SMITH A","2202201","2023-01-03 05:00","2023","01","03","05:00","-10.7","","-11.9","","90","","","","13","","13","","24.1","","97.74","","","","-17","","Cloudy"
"-111.96","60.02","FORT SMITH A","2202201","2023-01-03 06:00","2023","01","03","06:00","-10.8","","-12.2","","90","","","","13","","5","","24.1","","97.79","","","","-14","","NA"
"-111.96","60.02","FORT SMITH A","2202201","2023-01-03 07:00","2023","01","03","07:00","-11.0","","-12.3","","90","","","","12","","8","","24.1","","97.79","","","","-16","","NA"
"-111.96","60.02","FORT SMITH A","2202201","2023-01-03 08:00","2023","01","03","08:00","-11.0","","-12.4","","90","","","","11","","6","","24.1","","97.78","","","","-15","","Cloudy"
"-111.96","60.02","FORT SMITH A","2202201","2023-01-03 09:00","2023","01","03","09:00","-11.0","","-12.3","","90","","","","13","","6","","24.1","","97.77","","","","-15","","NA"
"-111.96","60.02","FORT SMITH A","2202201","2023-01-03 10:00","2023","01","03","10:00","-10.7","","-12.0","","91","","","","13","","4","","1.0","","97.81","","","","-13","","Snow Grains,Fog"
"-111.96","60.02","FORT SMITH A","2202201","2023-01-03 11:00","2023","01","03","11:00","-10.5","","-11.8","","91","","","","10","","7","","2.0","","97.84","","","","-15","","Snow Grains,Fog"
"-111.96","60.02","FORT SMITH A","2202201","2023-01-03 12:00","2023","01","03","12:00","-10.3","","-11.5","","91","","","","12","","7","","1.2","","97.86","","","","-14","","Snow Grains,Fog"
"-111.96","60.02","FORT SMITH A","2202201","2023-01-03 13:00","2023","01","03","13:00","-10.2","","-11.3","","91","","","","12","","9","","2.0","","97.84","","","","-15","","Snow Grains,Fog"
"-111.96","60.02","FORT SMITH A","2202201","2023-01-03 14:00","2023","01","03","14:00","-9.9","","-11.1","","91","","","","12","","8","","19.3","","97.82","","","","-14","","Snow Grains"
"-111.96","60.02","FORT SMITH A","2202201","2023-01-03 15:00","2023","01","03","15:00","-9.7","","-10.8","","92","","","","14","","9","","19.3","","97.86","","","","-15","","Snow Grains"
"-111.96","60.02","FORT SMITH A","2202201","2023-01-03 16:00","2023","01","03","16:00","-9.7","","-10.8","","92","","","","13","","7","","12.9","","97.92","","","","-14","","Snow Grains"
"-111.96","60.02","FORT SMITH A","2202201","2023-01-03 17:00","2023","01","03","17:00","-9.7","","-10.8","","92","","","","13","","5","","9.7","","97.94","","","","-13","","Snow,Fog"
"-111.96","60.02","FORT SMITH A","2202201","2023-01-03 18:00","2023","01","03","18:00","-9.8","","-10.9","","91","","","","15","","7","","24.1","","97.97","","","","-14","","Snow"
"-111.96","60.02","FORT SMITH A","2202201","2023-01-03 19:00","2023","01","03","19:00","-10.0","","-11.1","","91","","","","14","","7","","24.1","","97.95","","","","-14","","NA"
"-111.96","60.02","FORT SMITH A","2202201","2023-01-03 20:00","2023","01","03","20:00","-10.1","","-11.3","","91","","","","15","","10","","24.1","","97.97","","","","-15","","Cloudy"
"-111.96","60.02","FORT SMITH A","2202201","2023-01-03 21:00","2023","01","03","21:00","-10.2","","-11.4","","91","","","","18","","8","","24.1","","98.03","","","","-15","","NA"
"-111.96","60.02","FORT SMITH A","2202201","2023-01-03 22:00","2023","01","03","22:00","-10.4","","-11.7","","91","","","","20","","4","","24.1","","98.07","","","","-13","","Snow"
"-111.96","60.02","FORT SMITH A","2202201","2023-01-03 23:00","2023","01","03","23:00","-10.5","","-11.8","","91","","","","19","","6","","24.1","","98.11","","","","-14","","Snow"
"-111.96","60.02","FORT SMITH A","2202201","2023-01-04 00:00","2023","01","04","00:00","-10.6","","-11.9","","90","","","","21","","7","","24.1","","98.14","","","","-15","","NA"
"-111.96","60.02","FORT SMITH A","2202201","2023-01-04 01:00","2023","01","04","01:00","-10.8","","-12.1","","90","","","","23","","7","","24.1","","98.17","","","","-15","","NA"
"-111.96","60.02","FORT SMITH A","2202201","2023-01-04 02:00","2023","01","04","02:00","-10.9","","-12.2","","90","","","","22","","7","","19.3","","98.22","","","","-15","","Cloudy"
"-111.96","60.02","FORT SMITH A","2202201","2023-01-04 03:00","2023","01","04","03:00","-10.9","","-12.2","","90","","","","22","","7","","0.8","","98.30","","","","-15","","Freezing Fog"
"-111.96","60.02","FORT SMITH A","2202201","2023-01-04 04:00","2023","01","04","04:00","-10.9","","-12.2","","90","","","","27","","7","","0.8","","98.31","","","","-15","","Freezing Fog"
"-111.96","60.02","FORT SMITH A","2202201","2023-01-04 05:00","2023","01","04","05:00","-10.9","","-12.3","","90","","","","28","","10","","19.3","","98.35","","","","-16","","Snow"
"-111.96","60.02","FORT SMITH A","2202201","2023-01-04 06:00","2023","01","04","06:00","-11.3","","-12.7","","89","","","","25","","8","","19.3","","98.38","","","","-16","","NA"
"-111.96","60.02","FORT SMITH A","2202201","2023-01-04 07:00","2023","01","04","07:00","-11.8","","-13.3","","89","","","","30","","10","","19.3","","98.45","","","","-17","","Snow"
"-111.96","60.02","FORT SMITH A","2202201","2023-01-04 08:00","2023","01","04","08:00","-12.4","","-14.0","","88","","","","27","","9","","24.1","","98.46","","","","-18","","Snow"
"-111.96","60.02","FORT SMITH A","2202201","2023-01-04 09:00","2023","01","04","09:00","-12.7","","-14.4","","88","","","","26","","9","","4.8","","98.53","","","","-18","","Snow"
"-111.96","60.02","FORT SMITH A","2202201","2023-01-04 10:00","2023","01","04","10:00","-13.0","","-14.7","","87","","","","29","","7","","2.0","","98.59","","","","-18","","Snow"
"-111.96","60.02","FORT SMITH A","2202201","2023-01-04 11:00","2023","01","04","11:00","-13.0","","-14.7","","87","","","","24","","7","","2.0","","98.65","","","","-18","","Snow"
"-111.96","60.02","FORT SMITH A","2202201","2023-01-04 12:00","2023","01","04","12:00","-13.0","","-14.7","","87","","","","28","","4","","4.0","","98.68","","","","-16","","Snow"
"-111.96","60.02","FORT SMITH A","2202201","2023-01-04 13:00","2023","01","04","13:00","-13.0","","-14.7","","87","","","","0","","1","","3.6","","98.72","","","","-14","","Snow"
"-111.96","60.02","FORT SMITH A","2202201","2023-01-04 14:00","2023","01","04","14:00","-13.1","","-14.8","","87","","","","22","","3","","4.0","","98.75","","","","-15","","Snow"
"-111.96","60.02","FORT SMITH A","2202201","2023-01-04 15:00","2023","01","04","15:00","-13.0","","-14.7","","87","","","","33","","4","","4.8","","98.80","","","","-16","","Snow"
"-111.96","60.02","FORT SMITH A","2202201","2023-01-04 16:00","2023","01","04","16:00","-13.2","","-14.9","","87","","","","36","","1","","6.4","","98.84","","","","-14","","Snow"
"-111.96","60.02","FORT SMITH A","2202201","2023-01-04 17:00","2023","01","04","17:00","-13.1","","-14.8","","87","","","","33","","4","","6.4","","98.87","","","","-16","","Snow"
"-111.96","60.02","FORT SMITH A","2202201","2023-01-04 18:00","2023","01","04","18:00","-13.2","","-15.0","","87","","","","24","","4","","6.4","","98.90","","","","-16","","Snow"
"-111.96","60.02","FORT SMITH A","2202201","2023-01-04 19:00","2023","01","04","19:00","-13.4","","-15.1","","87","","","","36","","1","","9.7","","98.93","","","","-14","","Snow"
"-111.96","60.02","FORT SMITH A","2202201","2023-01-04 20:00","2023","01","04","20:00","-13.6","","-15.3","","87","","","","36","","2","","9.7","","98.93","","","","-15","","Snow"
"-111.96","60.02","FORT SMITH A","2202201","2023-01-04 21:00","2023","01","04","21:00","-13.8","","-15.6","","86","","","","14","","6","","9.7","","98.94","","","","-18","","Snow"
"-111.96","60.02","FORT SMITH A","2202201","2023-01-04 22:00","2023","01","04","22:00","-13.8","","-15.6","","86","","","","17","","10","","24.1","","98.97","","","","-20","","Snow"
"-111.96","60.02","FORT SMITH A","2202201","2023-01-04 23:00","2023","01","04","23:00","-14.0","","-15.9","","86","","","","20","","9","","24.1","","99.03","","","","-20","","Snow"
"-111.96","60.02","FORT SMITH A","2202201","2023-01-05 00:00","2023","01","05","00:00","-14.4","","-16.2","","86","","","","20","","8","","24.1","","99.00","","","","-20","","Snow"
"-111.96","60.02","FORT SMITH A","2202201","2023-01-05 01:00","2023","01","05","01:00","-14.8","","-16.7","","85","","","","16","","10","","24.1","","98.97","","","","-21","","Snow"
"-111.96","60.02","FORT SMITH A","2202201","2023-01-05 02:00","2023","01","05","02:00","-14.7","","-16.6","","86","","","","17","","12","","24.1","","99.01","","","","-22","","Snow"
"-111.96","60.02","FORT SMITH A","2202201","2023-01-05 03:00","2023","01","05","03:00","-14.9","","-16.8","","85","","","","15","","12","","24.1","","99.01","","","","-22","","Snow"
"-111.96","60.02","FORT SMITH A","2202201","2023-01-05 04:00","2023","01","05","04:00","-15.0","","-16.9","","85","","","","16","","10","","24.1","","98.99","","","","-21","","Snow"
"-111.96","60.02","FORT SMITH A","2202201","2023-01-05 05:00","2023","01","05","05:00","-15.7","","-17.7","","84","","","","16","","12","","24.1","","98.99","","","","-23","","Snow"
"-111.96","60.02","FORT SMITH A","2202201","2023-01-05 06:00","2023","01","05","06:00","-15.9","","-18.0","","84","","","","16","","11","","24.1","","98.98","","","","-23","","Snow"
"-111.96","60.02","FORT SMITH A","2202201","2023-01-05 07:00","2023","01","05","07:00","-15.9","","-17.9","","84","","","","15","","13","","24.1","","98.94","","","","-23","","Snow"
"-111.96","60.02","FORT SMITH A","2202201","2023-01-05 08:00","2023","01","05","08:00","-15.7","","-17.8","","84","","","","14","","11","","24.1","","98.86","","","","-22","","Snow"
"-111.96","60.02","FORT SMITH A","2202201","2023-01-05 09:00","2023","01","05","09:00","-15.4","","-17.4","","85","","","","15","","15","","24.1","","98.88","","","","-23","","Snow"
"-111.96","60.02","FORT SMITH A","2202201","2023-01-05 10:00","2023","01","05","10:00","-15.0","","-16.9","","85","","","","14","","10","","24.1","","98.85","","","","-21","","NA"
"-111.96","60.02","FORT SMITH A","2202201","2023-01-05 11:00","2023","01","05","11:00","-14.1","","-16.0","","86","","","","15","","13","","12.9","","98.84","","","","-21","","Snow"
"-111.96","60.02","FORT SMITH A","2202201","2023-01-05 12:00","2023","01","05","12:00","-13.2","","-15.0","","87","","","","15","","15","","24.1","","98.79","","","","-21","","Snow"
"-111.96","60.02","FORT SMITH A","2202201","2023-01-05 13:00","2023","01","05","13:00","-13.0","","-14.7","","87","","","","15","","17","","24.1","","98.78","","","","-21","","Snow"
"-111.96","60.02","FORT SMITH A","2202201","2023-01-05 14:00","2023","01","05","14:00","-12.7","","-14.4","","87","","","","15","","14","","24.1","","98.75","","","","-20","","Snow"
"-111.96","60.02","FORT SMITH A","2202201","2023-01-05 15:00","2023","01","05","15:00","-12.4","","-14.1","","88","","","","15","","11","","24.1","","98.76","","","","-18","","NA"
"-111.96","60.02","FORT SMITH A","2202201","2023-01-05 16:00","2023","01","05","16:00","-12.9","","-14.6","","87","","","","13","","10","","24.1","","98.69","","","","-19","","NA"
"-111.96","60.02","FORT SMITH A","2202201","2023-01-05 17:00","2023","01","05","17:00","-13.4","","-15.2","","87","","","","12","","9","","24.1","","98.65","","","","-19","","Mainly Clear"
"-111.96","60.02","FORT SMITH A","2202201","2023-01-05 18:00","2023","01","05","18:00","-13.5","","-15.3","","87","","","","14","","10","","24.1","","98.58","","","","-19","","NA"
"-111.96","60.02","FORT SMITH A","2202201","2023-01-05 19:00","2023","01","05","19:00","-13.7","","-15.5","","86","","","","15","","10","","24.1","","98.57","","","","-20","","NA"
"-111.96","60.02","FORT SMITH A","2202201","2023-01-05 20:00","2023","01","05","20:00","-13.7","","-15.5","","86","","","","15","","12","","24.1","","98.57","","","","-20","","Mostly Cloudy"
"-111.96","60.02","FORT SMITH A","2202201","2023-01-05 21:00","2023","01","05","21:00","-12.6","","-14.2","","88","","","","14","","13","","24.1","","98.49","","","","-19","","NA"
"-111.96","60.02","FORT SMITH A","2202201","2023-01-05 22:00","2023","01","05","22:00","-12.0","","-13.5","","88","","","","14","","12","","24.1","","98.47","","","","-18","","NA"
"-111.96","60.02","FORT SMITH A","2202201","2023-01-05 23:00","2023","01","05","23:00","-11.8","","-13.3","","89","","","","14","","9","","24.1","","98.43","","","","-17","","Cloudy"
"-111.96","60.02","FORT SMITH A","2202201","2023-01-06 00:00","2023","01","06","00:00","-11.7","","-13.1","","89","","","","12","","8","","24.1","","98.39","","","","-16","","NA"
"-111.96","60.02","FORT SMITH A","2202201","2023-01-06 01:00","2023","01","06","01:00","-11.7","","-13.2","","89","","","","14","","8","","24.1","","98.36","","","","-16","","NA"
"-111.96","60.02","FORT SMITH A","2202201","2023-01-06 02:00","2023","01","06","02:00","-10.7","","-12.0","","90","","","","14","","10","","24.1","","98.30","","","","-16","","Mostly Cloudy"
"-111.96","60.02","FORT SMITH A","2202201","2023-01-06 03:00","2023","01","06","03:00","-9.6","","-10.8","","91","","","","13","","13","","24.1","","98.23","","","","-16","","NA"
"-111.96","60.02","FORT SMITH A","2202201","2023-01-06 04:00","2023","01","06","04:00","-9.1","","-10.2","","92","","","","14","","12","","24.1","","98.16","","","","-15","","NA"
"-111.96","60.02","FORT SMITH A","2202201","2023-01-06 05:00","2023","01","06","05:00","-9.3","","-10.4","","92","","","","14","","12","","24.1","","98.09","","","","-15","","Mostly Cloudy"
"-111.96","60.02","FORT SMITH A","2202201","2023-01-06 06:00","2023","01","06","06:00","-9.5","","-10.6","","92","","","","14","","13","","24.1","","98.06","","","","-16","","NA"
"-111.96","60.02","FORT SMITH A","2202201","2023-01-06 07:00","2023","01","06","07:00","-9.8","","-10.9","","91","","","","15","","13","","24.1","","98.02","","","","-16","","NA"
"-111.96","60.02","FORT SMITH A","2202201","2023-01-06 08:00","2023","01","06","08:00","-9.4","","-10.5","","92","","","","14","","14","","24.1","","97.96","","","","-16","","Mostly Cloudy"
"-111.96","60.02","FORT SMITH A","2202201","2023-01-06 09:00","2023","01","06","09:00","-9.2","","-10.2","","92","","","","14","","13","","24.1","","97.95","","","","-15","","NA"
"-111.96","60.02","FORT SMITH A","2202201","2023-01-06 10:00","2023","01","06","10:00","-9.8","","-11.0","","91","","","","15","","15","","24.1","","97.97","","","","-16","","NA"
"-111.96","60.02","FORT SMITH A","2202201","2023-01-06 11:00","2023","01","06","11:00","-10.1","","-11.3","","91","","","","14","","16","","24.1","","97.96","","","","-17","","Mostly Cloudy"
"-111.96","60.02","FORT SMITH A","2202201","2023-01-06 12:00","2023","01","06","12:00","-9.7","","-10.9","","91","","","","14","","12","","24.1","","97.95","","","","-16","","NA"
"-111.96","60.02","FORT SMITH A","2202201","2023-01-06 13:00","2023","01","06","13:00","-9.7","","-10.9","","91","","","","16","","8","","24.1","","97.95","","","","-14","","NA"
"-111.96","60.02","FORT SMITH A","2202201","2023-01-06 14:00","2023","01","06","14:00","-9.8","","-10.9","","91","","","","16","","6","","24.1","","97.97","","","","-13","","Mainly Clear"
"-111.96","60.02","FORT SMITH A","2202201","2023-01-06 15:00","2023","01","06","15:00","-9.7","","-10.8","","91","","","","16","","9","","24.1","","97.99","","","","-15","","NA"
"-111.96","60.02","FORT SMITH A","2202201","2023-01-06 16:00","2023","01","06","16:00","-10.2","","-11.5","","91","","","","16","","9","","24.1","","98.02","","","","-15","","NA"
"-111.96","60.02","FORT SMITH A","2202201","2023-01-06 17:00","2023","01","06","17:00","-10.6","","-11.9","","90","","","","18","","7","","24.1","","98.06","","","","-15","","Clear"
"-111.96","60.02","FORT SMITH A","2202201","2023-01-06 18:00","2023","01","06","18:00","-12.4","","-13.9","","89","","","","17","","4","","24.1","","98.08","","","","-15","","Ice Crystals"
"-111.96","60.02","FORT SMITH A","2202201","2023-01-06 19:00","2023","01","06","19:00","-13.2","","-14.8","","87","","","","16","","5","","24.1","","98.09","","","","-17","","NA"
"-111.96","60.02","FORT SMITH A","2202201","2023-01-06 20:00","2023","01","06","20:00","-12.7","","-14.3","","88","","","","17","","3","","24.1","","98.08","","","","-15","","Mostly Cloudy"
"-111.96","60.02","FORT SMITH A","2202201","2023-01-06 21:00","2023","01","06","21:00","-14.2","","-16.1","","86","","","","36","","2","","24.1","","98.06","","","","-16","","NA"
"-111.96","60.02","FORT SMITH A","2202201","2023-01-06 22:00","2023","01","06","22:00","-15.2","","-17.1","","85","","","","29","","6","","24.1","","98.08","","","","-19","","NA"
"-111.96","60.02","FORT SMITH A","2202201","2023-01-06 23:00","2023","01","06","23:00","-14.6","","-16.5","","86","","","","30","","9","","24.1","","98.15","","","","-20","","Snow"
"-111.96","60.02","FORT SMITH A","2202201","2023-01-07 00:00","2023","01","07","00:00","-13.9","","-15.7","","86","","","","29","","5","","24.1","","98.20","","","","-17","","Snow"
"-111.96","60.02","FORT SMITH A","2202201","2023-01-07 01:00","2023","01","07","01:00","-13.7","","-15.5","","87","","","","30","","9","","24.1","","98.24","","","","-19","","Snow"
"-111.96","60.02","FORT SMITH A","2202201","2023-01-07 02:00","2023","01","07","02:00","-14.0","","-15.8","","86","","","","30","","12","","24.1","","98.27","","","","-21","","Snow"
"-111.96","60.02","FORT SMITH A","2202201","2023-01-07 03:00","2023","01","07","03:00","-14.1","","-15.9","","86","","","","29","","9","","24.1","","98.33","","","","-20","","Snow"
"-111.96","60.02","FORT SMITH A","2202201","2023-01-07 04:00","2023","01","07","04:00"
"-111.96","60.02","FORT SMITH A","2202201","2023-01-07 05:00","2023","01","07","05:00","-14.2","","-16.1","","86","","","","28","","10","","24.1","","98.41","","","","-20","","Snow"
"-111.96","60.02","FORT SMITH A","2202201","2023-01-07 06:00","2023","01","07","06:00","-14.2","","-16.1","","86","","","","28","","11","","24.1","","98.46","","","","-21","","Snow"
"-111.96","60.02","FORT SMITH A","2202201","2023-01-07 07:00","2023","01","07","07:00","-14.2","","-16.0","","86","","","","29","","9","","24.1","","98.49","","","","-20","","Snow"
"-111.96","60.02","FORT SMITH A","2202201","2023-01-07 08:00","2023","01","07","08:00","-14.1","","-16.0","","86","","","","28","","5","","24.1","","98.49","","","","-18","","Snow"
"-111.96","60.02","FORT SMITH A","2202201","2023-01-07 09:00","2023","01","07","09:00","-14.0","","-15.9","","86","","","","26","","5","","19.3","","98.53","","","","-17","","Snow"
"-111.96","60.02","FORT SMITH A","2202201","2023-01-07 10:00","2023","01","07","10:00","-13.9","","-15.7","","86","","","","28","","9","","24.1","","98.59","","","","-20","","Snow"
"-111.96","60.02","FORT SMITH A","2202201","2023-01-07 11:00","2023","01","07","11:00","-13.7","","-15.5","","87","","","","29","","7","","24.1","","98.63","","","","-18","","Snow"
"-111.96","60.02","FORT SMITH A","2202201","2023-01-07 12:00","2023","01","07","12:00","-13.4","","-15.2","","87","","","","31","","5","","24.1","","98.64","","","","-17","","Snow"
"-111.96","60.02","FORT SMITH A","2202201","2023-01-07 13:00","2023","01","07","13:00","-13.0","","-14.7","","87","","","","28","","4","","24.1","","98.71","","","","-16","","Snow"
"-111.96","60.02","FORT SMITH A","2202201","2023-01-07 14:00","2023","01","07","14:00","-12.6","","-14.3","","88","","","","26","","5","","24.1","","98.81","","","","-16","","Snow"
"-111.96","60.02","FORT SMITH A","2202201","2023-01-07 15:00","2023","01","07","15:00","-12.6","","-14.2","","88","","","","36","","1","","24.1","","98.86","","","","-13","","Snow"
"-111.96","60.02","FORT SMITH A","2202201","2023-01-07 16:00","2023","01","07","16:00","-13.0","","-14.7","","87","","","","36","","3","","24.1","","98.85","","","","-15","","Snow"
"-111.96","60.02","FORT SMITH A","2202201","2023-01-07 17:00","2023","01","07","17:00","-13.5","","-15.3","","86","","","","5","","4","","24.1","","98.83","","","","-16","","Snow"
"-111.96","60.02","FORT SMITH A","2202201","2023-01-07 18:00","2023","01","07","18:00","-14.5","","-16.4","","86","","","","36","","2","","24.1","","98.79","","","","-16","","Snow"
"-111.96","60.02","FORT SMITH A","2202201","2023-01-07 19:00","2023","01","07","19:00","-15.5","","-17.4","","85","","","","36","","3","","24.1","","98.81","","","","-18","","Snow"
"-111.96","60.02","FORT SMITH A","2202201","2023-01-07 20:00","2023","01","07","20:00","-13.6","","-15.3","","87","","","","17","","10","","19.3","","98.87","","","","-20","","Snow"
"-111.96","60.02","FORT SMITH A","2202201","2023-01-07 21:00","2023","01","07","21:00","-12.7","","-14.3","","88","","","","17","","7","","19.3","","98.86","","","","-17","","Snow"
"-111.96","60.02","FORT SMITH A","2202201","2023-01-07 22:00","2023","01","07","22:00","-12.6","","-14.3","","88","","","","15","","10","","19.3","","98.84","","","","-18","","Snow"
"-111.96","60.02","FORT SMITH A","2202201","2023-01-07 23:00","2023","01","07","23:00","-12.7","","-14.4","","88","","","","13","","10","","19.3","","98.84","","","","-18","","Snow"
"-111.96","60.02","FORT SMITH A","2202201","2023-01-08 00:00","2023","01","08","00:00","-13.1","","-14.8","","87","","","","14","","11","","19.3","","98.84","","","","-19","","Snow"
"-111.96","60.02","FORT SMITH A","2202201","2023-01-08 01:00","2023","01","08","01:00","-13.2","","-15.0","","87","","","","15","","13","","24.1","","98.86","","","","-20","","Snow"
"-111.96","60.02","FORT SMITH A","2202201","2023-01-08 02:00","2023","01","08","02:00","-13.5","","-15.3","","87","","","","14","","11","","24.1","","98.81","","","","-20","","Snow"
"-111.96","60.02","FORT SMITH A","2202201","2023-01-08 03:00","2023","01","08","03:00","-13.8","","-15.6","","86","","","","12","","4","","24.1","","98.80","","","","-17","","Snow"
"-111.96","60.02","FORT SMITH A","2202201","2023-01-08 04:00","2023","01","08","04:00","-13.8","","-15.7","","86","","","","13","","3","","24.1","","98.82","","","","-16","","Snow"
"-111.96","60.02","FORT SMITH A","2202201","2023-01-08 05:00","2023","01","08","05:00","-13.9","","-15.7","","86","","","","13","","5","","24.1","","98.81","","","","-17","","Snow"
"-111.96","60.02","FORT SMITH A","2202201","2023-01-08 06:00","2023","01","08","06:00","-13.7","","-15.5","","86","","","","13","","6","","24.1","","98.78","","","","-18","","Snow"
"-111.96","60.02","FORT SMITH A","2202201","2023-01-08 07:00","2023","01","08","07:00","-14.1","","-15.9","","86","","","","16","","11","","24.1","","98.78","","","","-21","","Snow"
"-111.96","60.02","FORT SMITH A","2202201","2023-01-08 08:00","2023","01","08","08:00","-14.1","","-16.0","","86","","","","14","","7","","24.1","","98.74","","","","-19","","Snow"
"-111.96","60.02","FORT SMITH A","2202201","2023-01-08 09:00","2023","01","08","09:00","-15.5","","-17.6","","85","","","","6","","5","","24.1","","98.71","","","","-19","","NA"
"-111.96","60.02","FORT SMITH A","2202201","2023-01-08 10:00","2023","01","08","10:00","-14.4","","-16.3","","86","","","","11","","4","","24.1","","98.71","","","","-17","","NA"
"-111.96","60.02","FORT SMITH A","2202201","2023-01-08 11:00","2023","01","08","11:00","-13.7","","-15.4","","86","","","","7","","4","","24.1","","98.67","","","","-16","","Mainly Clear"
"-111.96","60.02","FORT SMITH A","2202201","2023-01-08 12:00","2023","01","08","12:00","-13.0","","-14.7","","87","","","","7","","6","","24.1","","98.61","","","","-17","","NA"
"-111.96","60.02","FORT SMITH A","2202201","2023-01-08 13:00","2023","01","08","13:00","-13.4","","-15.2","","87","","","","9","","3","","24.1","","98.61","","","","-15","","NA"
"-111.96","60.02","FORT SMITH A","2202201","2023-01-08 14:00","2023","01","08","14:00","-13.7","","-15.5","","86","","","","36","","3","","24.1","","98.62","","","","-16","","Mostly Cloudy"
"-111.96","60.02","FORT SMITH A","2202201","2023-01-08 15:00","2023","01","08","15:00","-15.0","","-17.1","","84","","","","3","","7","","24.1","","98.59","","","","-20","","NA"
"-111.96","60.02","FORT SMITH A","2202201","2023-01-08 16:00","2023","01","08","16:00","-16.4","","-18.4","","84","","","","0","","1","","24.1","","98.60","","","","-17","","NA"
"-111.96","60.02","FORT SMITH A","2202201","2023-01-08 17:00","2023","01","08","17:00","-16.7","","-18.8","","84","","","","36","","3","","24.1","","98.61","","","","-19","","Mainly Clear"
"-111.96","60.02","FORT SMITH A","2202201","2023-01-08 18:00","2023","01","08","18:00","-18.0","","-20.3","","83","","","","","","0","","24.1","","98.56","","","","","","NA"
"-111.96","60.02","FORT SMITH A","2202201","2023-01-08 19:00","2023","01","08","19:00","-19.0","","-21.5","","81","","","","6","","3","","24.1","","98.52","","","","-21","","NA"
"-111.96","60.02","FORT SMITH A","2202201","2023-01-08 20:00","2023","01","08","20:00","-18.5","","-20.8","","82","","","","36","","3","","24.1","","98.53","","","","-21","","Mainly Clear"
"-111.96","60.02","FORT SMITH A","2202201","2023-01-08 21:00","2023","01","08","21:00","-17.2","","-19.4","","84","","","","6","","3","","24.1","","98.51","","","","-20","","NA"
"-111.96","60.02","FORT SMITH A","2202201","2023-01-08 22:00","2023","01","08","22:00","-16.3","","-18.4","","84","","","","5","","4","","24.1","","98.50","","","","-19","","NA"
"-111.96","60.02","FORT SMITH A","2202201","2023-01-08 23:00","2023","01","08","23:00","-15.5","","-17.6","","85","","","","4","","5","","24.1","","98.49","","","","-19","","Cloudy"
"-111.96","60.02","FORT SMITH A","2202201","2023-01-09 00:00","2023","01","09","00:00","-15.4","","-17.4","","85","","","","5","","5","","24.1","","98.48","","","","-19","","Snow"
"-111.96","60.02","FORT SMITH A","2202201","2023-01-09 01:00","2023","01","09","01:00","-15.4","","-17.4","","85","","","","5","","4","","24.1","","98.49","","","","-18","","Snow"
"-111.96","60.02","FORT SMITH A","2202201","2023-01-09 02:00","2023","01","09","02:00","-15.3","","-17.3","","85","","","","8","","4","","24.1","","98.47","","","","-18","","Snow"
"-111.96","60.02","FORT SMITH A","2202201","2023-01-09 03:00","2023","01","09","03:00","-15.2","","-17.2","","85","","","","4","","3","","24.1","","98.50","","","","-17","","Snow"
"-111.96","60.02","FORT SMITH A","2202201","2023-01-09 04:00","2023","01","09","04:00","-15.0","","-17.0","","85","","","","4","","4","","24.1","","98.51","","","","-18","","Snow"
"-111.96","60.02","FORT SMITH A","2202201","2023-01-09 05:00","2023","01","09","05:00","-14.8","","-16.8","","85","","","","5","","3","","24.1","","98.50","","","","-17","","Snow"
"-111.96","60.02","FORT SMITH A","2202201","2023-01-09 06:00","2023","01","09","06:00","-14.7","","-16.6","","85","","","","36","","2","","24.1","","98.49","","","","-16","","Snow"
"-111.96","60.02","FORT SMITH A","2202201","2023-01-09 07:00","2023","01","09","07:00","-14.6","","-16.5","","86","","","","2","","4","","24.1","","98.48","","","","-17","","Snow"
"-111.96","60.02","FORT SMITH A","2202201","2023-01-09 08:00","2023","01","09","08:00","-14.4","","-16.3","","86","","","","36","","2","","4.0","","98.46","","","","-16","","Snow,Fog"
"-111.96","60.02","FORT SMITH A","2202201","2023-01-09 09:00","2023","01","09","09:00","-14.2","","-16.1","","86","","","","8","","3","","2.0","","98.49","","","","-16","","Snow,Fog"
"-111.96","60.02","FORT SMITH A","2202201","2023-01-09 10:00","2023","01","09","10:00","-13.9","","-15.8","","86","","","","6","","3","","1.6","","98.48","","","","-16","","Snow,Fog"
"-111.96","60.02","FORT SMITH A","2202201","2023-01-09 11:00","2023","01","09","11:00","-13.5","","-15.3","","87","","","","36","","2","","1.2","","98.48","","","","-15","","Snow,Fog"
"-111.96","60.02","FORT SMITH A","2202201","2023-01-09 12:00","2023","01","09","12:00","-13.1","","-14.8","","87","","","","9","","4","","2.0","","98.44","","","","-16","","Fog"
"-111.96","60.02","FORT SMITH A","2202201","2023-01-09 13:00","2023","01","09","13:00","-12.8","","-14.4","","87","","","","36","","3","","1.6","","98.46","","","","-15","","Snow,Fog"
"-111.96","60.02","FORT SMITH A","2202201","2023-01-09 14:00","2023","01","09","14:00","-12.4","","-14.1","","88","","","","3","","4","","2.0","","98.45","","","","-15","","Snow,Fog"
"-111.96","60.02","FORT SMITH A","2202201","2023-01-09 15:00","2023","01","09","15:00","-12.3","","-13.9","","88","","","","2","","4","","1.2","","98.47","","","","-15","","Snow,Fog"
"-111.96","60.02","FORT SMITH A","2202201","2023-01-09 16:00","2023","01","09","16:00","-12.2","","-13.8","","88","","","","5","","3","","1.6","","98.46","","","","-14","","Snow,Fog"
"-111.96","60.02","FORT SMITH A","2202201","2023-01-09 17:00","2023","01","09","17:00","-12.1","","-13.6","","88","","","","36","","3","","1.6","","98.48","","","","-14","","Snow,Fog"
"-111.96","60.02","FORT SMITH A","2202201","2023-01-09 18:00","2023","01","09","18:00","-12.0","","-13.6","","88","","","","36","","2","","1.6","","98.52","","","","-13","","Snow,Fog"
"-111.96","60.02","FORT SMITH A","2202201","2023-01-09 19:00","2023","01","09","19:00","-12.1","","-13.6","","88","","","","34","","3","","1.2","","98.52","","","","-14","","Snow,Fog"
"-111.96","60.02","FORT SMITH A","2202201","2023-01-09 20:00","2023","01","09","20:00","-12.1","","-13.7","","88","","","","1","","3","","2.0","","98.52","","","","-14","","Snow,Fog"
"-111.96","60.02","FORT SMITH A","2202201","2023-01-09 21:00","2023","01","09","21:00","-12.1","","-13.6","","88","","","","36","","1","","2.0","","98.52","","","","-13","","Snow,Fog"
"-111.96","60.02","FORT SMITH A","2202201","2023-01-09 22:00","2023","01","09","22:00","-12.0","","-13.6","","88","","","","0","","1","","2.0","","98.53","","","","-13","","Snow,Fog"
"-111.96","60.02","FORT SMITH A","2202201","2023-01-09 23:00","2023","01","09","23:00","-12.1","","-13.6","","88","","","","35","","4","","2.0","","98.53","","","","-15","","Snow,Fog"
"-111.96","60.02","FORT SMITH A","2202201","2023-01-10 00:00","2023","01","10","00:00","-12.0","","-13.5","","88","","","","34","","4","","2.0","","98.58","","","","-15","","Snow,Fog"
"-111.96","60.02","FORT SMITH A","2202201","2023-01-10 01:00","2023","01","10","01:00","-12.0","","-13.5","","88","","","","36","","1","","3.2","","98.58","","","","-13","","Fog"
"-111.96","60.02","FORT SMITH A","2202201","2023-01-10 02:00","2023","01","10","02:00","-12.0","","-13.5","","88","","","","29","","5","","3.2","","98.58","","","","-15","","Snow,Fog"
"-111.96","60.02","FORT SMITH A","2202201","2023-01-10 03:00","2023","01","10","03:00","-12.0","","-13.5","","88","","","","30","","5","","9.7","","98.64","","","","-15","","Snow,Fog"
"-111.96","60.02","FORT SMITH A","2202201","2023-01-10 04:00","2023","01","10","04:00","-12.0","","-13.6","","88","","","","29","","4","","12.9","","98.67","","","","-15","","Snow"
"-111.96","60.02","FORT SMITH A","2202201","2023-01-10 05:00","2023","01","10","05:00","-12.0","","-13.6","","88","","","","29","","6","","19.3","","98.66","","","","-16","","Snow"
"-111.96","60.02","FORT SMITH A","2202201","2023-01-10 06:00","2023","01","10","06:00","-12.1","","-13.6","","88","","","","30","","6","","24.1","","98.69","","","","-16","","Snow"
"-111.96","60.02","FORT SMITH A","2202201","2023-01-10 07:00","2023","01","10","07:00","-12.3","","-13.8","","88","","","","30","","9","","4.8","","98.73","","","","-18","","Snow"
"-111.96","60.02","FORT SMITH A","2202201","2023-01-10 08:00","2023","01","10","08:00","-12.2","","-13.8","","88","","","","36","","3","","9.7","","98.74","","","","-14","","Snow"
"-111.96","60.02","FORT SMITH A","2202201","2023-01-10 09:00","2023","01","10","09:00","-12.1","","-13.7","","88","","","","27","","5","","6.4","","98.77","","","","-15","","Snow"
"-111.96","60.02","FORT SMITH A","2202201","2023-01-10 10:00","2023","01","10","10:00","-12.0","","-13.6","","88","","","","28","","8","","6.4","","98.80","","","","-17","","Snow,Fog"
"-111.96","60.02","FORT SMITH A","2202201","2023-01-10 11:00","2023","01","10","11:00","-11.9","","-13.4","","89","","","","29","","8","","9.7","","98.82","","","","-17","","Snow,Fog"
"-111.96","60.02","FORT SMITH A","2202201","2023-01-10 12:00","2023","01","10","12:00","-11.8","","-13.3","","89","","","","31","","9","","6.4","","98.85","","","","-17","","Snow,Fog"
"-111.96","60.02","FORT SMITH A","2202201","2023-01-10 13:00","2023","01","10","13:00","-11.5","","-13.0","","89","","","","32","","8","","12.9","","98.87","","","","-16","","Snow"
"-111.96","60.02","FORT SMITH A","2202201","2023-01-10 14:00","2023","01","10","14:00","-11.3","","-12.8","","89","","","","30","","7","","9.7","","98.86","","","","-16","","Snow,Fog"
"-111.96","60.02","FORT SMITH A","2202201","2023-01-10 15:00","2023","01","10","15:00","-11.2","","-12.6","","89","","","","31","","5","","9.7","","98.93","","","","-14","","Snow,Fog"
"-111.96","60.02","FORT SMITH A","2202201","2023-01-10 16:00","2023","01","10","16:00","-11.2","","-12.7","","89","","","","33","","5","","16.1","","98.97","","","","-14","","Snow"
"-111.96","60.02","FORT SMITH A","2202201","2023-01-10 17:00","2023","01","10","17:00","-11.2","","-12.6","","89","","","","30","","6","","19.3","","99.04","","","","-15","","Snow"
"-111.96","60.02","FORT SMITH A","2202201","2023-01-10 18:00","2023","01","10","18:00","-11.1","","-12.5","","89","","","","31","","5","","24.1","","99.08","","","","-14","","Snow"
"-111.96","60.02","FORT SMITH A","2202201","2023-01-10 19:00","2023","01","10","19:00","-10.9","","-12.3","","90","","","","32","","4","","24.1","","99.07","","","","-13","","Snow"
"-111.96","60.02","FORT SMITH A","2202201","2023-01-10 20:00","2023","01","10","20:00","-10.9","","-12.3","","90","","","","34","","5","","24.1","","99.09","","","","-14","","Cloudy"
"-111.96","60.02","FORT SMITH A","2202201","2023-01-10 21:00","2023","01","10","21:00","-10.9","","-12.3","","90","","","","30","","5","","24.1","","99.13","","","","-14","","Snow"
"-111.96","60.02","FORT SMITH A","2202201","2023-01-10 22:00","2023","01","10","22:00","-10.8","","-12.2","","90","","","","30","","6","","24.1","","99.15","","","","-14","","Snow"
"-111.96","60.02","FORT SMITH A","2202201","2023-01-10 23:00","2023","01","10","23:00","-10.7","","-12.1","","90","","","","31","","5","","24.1","","99.16","","","","-14","","Snow"
"-111.96","60.02","FORT SMITH A","2202201","2023-01-11 00:00","2023","01","11","00:00","-10.7","","-12.0","","90","","","","30","","7","","24.1","","99.21","","","","-15","","NA"
"-111.96","60.02","FORT SMITH A","2202201","2023-01-11 01:00","2023","01","11","01:00","-10.7","","-12.0","","90","","","","30","","7","","24.1","","99.26","","","","-15","","NA"
"-111.96","60.02","FORT SMITH A","2202201","2023-01-11 02:00","2023","01","11","02:00","-10.8","","-12.1","","90","","","","31","","4","","24.1","","99.31","","","","-13","","Snow"
"-111.96","60.02","FORT SMITH A","2202201","2023-01-11 03:00","2023","01","11","03:00","-10.7","","-12.1","","90","","","","30","","5","","24.1","","99.36","","","","-14","","Freezing Drizzle,Snow"
"-111.96","60.02","FORT SMITH A","2202201","2023-01-11 04:00","2023","01","11","04:00","-10.7","","-12.1","","90","","","","30","","4","","24.1","","99.38","","","","-13","","Freezing Drizzle,Snow"
"-111.96","60.02","FORT SMITH A","2202201","2023-01-11 05:00","2023","01","11","05:00","-10.7","","-12.1","","90","","","","34","","4","","24.1","","99.39","","","","-13","","Freezing Drizzle,Snow"
"-111.96","60.02","FORT SMITH A","2202201","2023-01-11 06:00","2023","01","11","06:00","-10.8","","-12.1","","90","","","","29","","5","","24.1","","99.44","","","","-14","","Freezing Drizzle"
"-111.96","60.02","FORT SMITH A","2202201","2023-01-11 07:00","2023","01","11","07:00","-10.8","","-12.2","","90","","","","27","","3","","24.1","","99.47","","","","-13","","NA"
"-111.96","60.02","FORT SMITH A","2202201","2023-01-11 08:00","2023","01","11","08:00","-10.8","","-12.2","","90","","","","36","","4","","24.1","","99.48","","","","-13","","Cloudy"
"-111.96","60.02","FORT SMITH A","2202201","2023-01-11 09:00","2023","01","11","09:00","-10.8","","-12.2","","90","","","","35","","3","","16.1","","99.54","","","","-13","","NA"
"-111.96","60.02","FORT SMITH A","2202201","2023-01-11 10:00","2023","01","11","10:00","-10.7","","-12.1","","90","","","","0","","1","","9.7","","99.58","","","","-11","","Fog"
"-111.96","60.02","FORT SMITH A","2202201","2023-01-11 11:00","2023","01","11","11:00","-10.6","","-11.9","","90","","","","0","","1","","19.3","","99.64","","","","-11","","Snow"
"-111.96","60.02","FORT SMITH A","2202201","2023-01-11 12:00","2023","01","11","12:00","-10.4","","-11.7","","90","","","","36","","3","","19.3","","99.65","","","","-12","","Snow"
"-111.96","60.02","FORT SMITH A","2202201","2023-01-11 13:00","2023","01","11","13:00","-10.0","","-11.2","","91","","","","8","","4","","19.3","","99.62","","","","-12","","NA"
"-111.96","60.02","FORT SMITH A","2202201","2023-01-11 14:00","2023","01","11","14:00","-9.8","","-10.9","","91","","","","9","","4","","24.1","","99.61","","","","-12","","Cloudy"
"-111.96","60.02","FORT SMITH A","2202201","2023-01-11 15:00","2023","01","11","15:00","-9.7","","-10.8","","91","","","","9","","5","","24.1","","99.63","","","","-13","","NA"
"-111.96","60.02","FORT SMITH A","2202201","2023-01-11 16:00","2023","01","11","16:00","-9.5","","-10.6","","92","","","","36","","2","","16.1","","99.64","","","","-11","","Snow"
"-111.96","60.02","FORT SMITH A","2202201","2023-01-11 17:00","2023","01","11","17:00","-9.4","","-10.5","","92","","","","8","","6","","2.4","","99.60","","","","-13","","Snow"
"-111.96","60.02","FORT SMITH A","2202201","2023-01-11 18:00","2023","01","11","18:00","-9.3","","-10.3","","92","","","","13","","5","","3.2","","99.60","","","","-12","","Snow"
"-111.96","60.02","FORT SMITH A","2202201","2023-01-11 19:00","2023","01","11","19:00","-9.2","","-10.2","","92","","","","12","","8","","9.7","","99.56","","","","-14","","Snow"
"-111.96","60.02","FORT SMITH A","2202201","2023-01-11 20:00","2023","01","11","20:00","-9.0","","-10.0","","92","","","","13","","8","","3.2","","99.51","","","","-13","","Snow"
"-111.96","60.02","FORT SMITH A","2202201","2023-01-11 21:00","2023","01","11","21:00","-8.8","","-9.8","","93","","","","13","","10","","4.8","","99.47","","","","-14","","Snow"
"-111.96","60.02","FORT SMITH A","2202201","2023-01-11 22:00","2023","01","11","22:00","-8.8","","-9.8","","93","","","","12","","8","","4.8","","99.44","","","","-13","","Snow"
"-111.96","60.02","FORT SMITH A","2202201","2023-01-11 23:00","2023","01","11","23:00","-8.6","","-9.6","","93","","","","13","","12","","2.4","","99.39","","","","-14","","Snow"
"-111.96","60.02","FORT SMITH A","2202201","2023-01-12 00:00","2023","01","12","00:00","-8.4","","-9.3","","93","","","","13","","12","","3.2","","99.33","","","","-14","","Snow"
"-111.96","60.02","FORT SMITH A","2202201","2023-01-12 01:00","2023","01","12","01:00","-8.1","","-9.0","","94","","","","14","","11","","3.2","","99.29","","","","-13","","Snow"
"-111.96","60.02","FORT SMITH A","2202201","2023-01-12 02:00","2023","01","12","02:00","-7.8","","-8.6","","94","","","","13","","9","","3.2","","99.25","","","","-12","","Snow"
"-111.96","60.02","FORT SMITH A","2202201","2023-01-12 03:00","2023","01","12","03:00","-7.5","","-8.2","","95","","","","14","","8","","3.2","","99.22","","","","-12","","Snow"
"-111.96","60.02","FORT SMITH A","2202201","2023-01-12 04:00","2023","01","12","04:00","-7.3","","-8.0","","95","","","","14","","10","","6.4","","99.16","","","","-12","","Snow"
"-111.96","60.02","FORT SMITH A","2202201","2023-01-12 05:00","2023","01","12","05:00","-7.1","","-7.8","","95","","","","14","","12","","24.1","","99.10","","","","-12","","Snow"
"-111.96","60.02","FORT SMITH A","2202201","2023-01-12 06:00","2023","01","12","06:00","-7.1","","-7.7","","95","","","","15","","13","","24.1","","99.08","","","","-13","","NA"
"-111.96","60.02","FORT SMITH A","2202201","2023-01-12 07:00","2023","01","12","07:00","-7.1","","-7.7","","95","","","","14","","11","","24.1","","99.01","","","","-12","","Snow"
"-111.96","60.02","FORT SMITH A","2202201","2023-01-12 08:00","2023","01","12","08:00","-7.1","","-7.8","","95","","","","15","","8","","24.1","","99.01","","","","-11","","Snow"
"-111.96","60.02","FORT SMITH A","2202201","2023-01-12 09:00","2023","01","12","09:00","-7.2","","-7.8","","95","","","","16","","9","","24.1","","99.01","","","","-12","","Snow"
"-111.96","60.02","FORT SMITH A","2202201","2023-01-12 10:00","2023","01","12","10:00","-7.3","","-8.0","","95","","","","16","","15","","6.4","","98.99","","","","-13","","Fog"
"-111.96","60.02","FORT SMITH A","2202201","2023-01-12 11:00","2023","01","12","11:00","-7.2","","-7.8","","95","","","","17","","12","","4.8","","98.98","","","","-13","","Snow"
"-111.96","60.02","FORT SMITH A","2202201","2023-01-12 12:00","2023","01","12","12:00","-7.3","","-8.1","","95","","","","20","","9","","24.1","","98.96","","","","-12","","Snow"
"-111.96","60.02","FORT SMITH A","2202201","2023-01-12 13:00","2023","01","12","13:00","-7.7","","-8.5","","94","","","","22","","14","","19.3","","98.90","","","","-14","","NA"
"-111.96","60.02","FORT SMITH A","2202201","2023-01-12 14:00","2023","01","12","14:00","-7.8","","-8.6","","94","","","","20","","7","","6.4","","98.87","","","","-11","","Fog"
"-111.96","60.02","FORT SMITH A","2202201","2023-01-12 15:00","2023","01","12","15:00","-7.7","","-8.5","","94","","","","22","","10","","2.4","","98.86","","","","-13","","Fog"
"-111.96","60.02","FORT SMITH A","2202201","2023-01-12 16:00","2023","01","12","16:00","-7.5","","-8.3","","95","","","","22","","16","","1.2","","98.96","","","","-14","","Freezing Drizzle,Fog"
"-111.96","60.02","FORT SMITH A","2202201","2023-01-12 17:00","2023","01","12","17:00","-7.4","","-8.1","","95","","","","23","","10","","2.0","","98.92","","","","-12","","Freezing Drizzle,Fog"
"-111.96","60.02","FORT SMITH A","2202201","2023-01-12 18:00","2023","01","12","18:00","-7.1","","-7.8","","95","","","","27","","12","","3.2","","98.86","","","","-12","","Freezing Drizzle"
"-111.96","60.02","FORT SMITH A","2202201","2023-01-12 19:00","2023","01","12","19:00","-7.1","","-7.8","","95","","","","27","","14","","24.1","","98.89","","","","-13","","Snow"
"-111.96","60.02","FORT SMITH A","2202201","2023-01-12 20:00","2023","01","12","20:00","-7.2","","-7.9","","95","","","","29","","10","","24.1","","98.87","","","","-12","","Snow"
"-111.96","60.02","FORT SMITH A","2202201","2023-01-12 21:00","2023","01","12","21:00","-7.5","","-8.3","","95","","","","30","","14","","24.1","","98.90","","","","-13","","Snow"
"-111.96","60.02","FORT SMITH A","2202201","2023-01-12 22:00","2023","01","12","22:00","-8.0","","-8.8","","94","","","","30","","18","","9.7","","98.92","","","","-15","","Freezing Drizzle,Snow"
"-111.96","60.02","FORT SMITH A","2202201","2023-01-12 23:00","2023","01","12","23:00","-8.9","","-9.9","","93","","","","31","","14","","16.1","","99.02","","","","-15","","Freezing Drizzle,Snow"
"-111.96","60.02","FORT SMITH A","2202201","2023-01-13 00:00","2023","01","13","00:00","-9.7","","-10.8","","91","","","","32","","12","","24.1","","99.08","","","","-16","","Freezing Drizzle,Snow"
"-111.96","60.02","FORT SMITH A","2202201","2023-01-13 01:00","2023","01","13","01:00","-10.8","","-12.1","","90","","","","30","","14","","24.1","","99.14","","","","-17","","Freezing Drizzle,Snow"
"-111.96","60.02","FORT SMITH A","2202201","2023-01-13 02:00","2023","01","13","02:00","-12.4","","-13.9","","88","","","","33","","10","","19.3","","99.20","","","","-18","","Snow"
"-111.96","60.02","FORT SMITH A","2202201","2023-01-13 03:00","2023","01","13","03:00","-14.6","","-16.5","","86","","","","33","","14","","24.1","","99.21","","","","-22","","Snow"
"-111.96","60.02","FORT SMITH A","2202201","2023-01-13 04:00","2023","01","13","04:00","-16.1","","-18.1","","84","","","","31","","7","","24.1","","99.30","","","","-21","","NA"
"-111.96","60.02","FORT SMITH A","2202201","2023-01-13 05:00","2023","01","13","05:00","-16.9","","-19.1","","83","","","","35","","9","","24.1","","99.29","","","","-23","","Snow"
"-111.96","60.02","FORT SMITH A","2202201","2023-01-13 06:00","2023","01","13","06:00","-18.8","","-21.1","","82","","","","35","","8","","24.1","","99.29","","","","-25","","NA"
"-111.96","60.02","FORT SMITH A","2202201","2023-01-13 07:00","2023","01","13","07:00","-20.0","","-22.5","","81","","","","31","","6","","24.1","","99.35","","","","-25","","NA"
"-111.96","60.02","FORT SMITH A","2202201","2023-01-13 08:00","2023","01","13","08:00","-20.8","","-23.4","","80","","","","31","","5","","24.1","","99.35","","","","-25","","Mainly Clear"
"-111.96","60.02","FORT SMITH A","2202201","2023-01-13 09:00","2023","01","13","09:00","-21.6","","-24.3","","79","","","","33","","8","","24.1","","99.35","","","","-28","","NA"
"-111.96","60.02","FORT SMITH A","2202201","2023-01-13 10:00","2023","01","13","10:00","-23.0","","-25.8","","78","","","","36","","7","","24.1","","99.38","","","","-29","","NA"
"-111.96","60.02","FORT SMITH A","2202201","2023-01-13 11:00","2023","01","13","11:00","-22.2","","-25.0","","79","","","","1","","11","","24.1","","99.36","","","","-30","","Mostly Cloudy"
"-111.96","60.02","FORT SMITH A","2202201","2023-01-13 12:00","2023","01","13","12:00","-22.0","","-24.8","","79","","","","3","","4","","24.1","","99.35","","","","-26","","NA"
"-111.96","60.02","FORT SMITH A","2202201","2023-01-13 13:00","2023","01","13","13:00","-21.8","","-24.5","","79","","","","3","","4","","24.1","","99.34","","","","-25","","NA"
"-111.96","60.02","FORT SMITH A","2202201","2023-01-13 14:00","2023","01","13","14:00","-21.9","","-24.6","","79","","","","36","","2","","24.1","","99.23","","","","-24","","Mostly Cloudy"
"-111.96","60.02","FORT SMITH A","2202201","2023-01-13 15:00","2023","01","13","15:00","-21.9","","-24.7","","79","","","","6","","3","","24.1","","99.24","","","","-25","","NA"
"-111.96","60.02","FORT SMITH A","2202201","2023-01-13 16:00","2023","01","13","16:00","-22.9","","-25.7","","78","","","","36","","3","","24.1","","99.21","","","","-26","","NA"
"-111.96","60.02","FORT SMITH A","2202201","2023-01-13 17:00","2023","01","13","17:00","-22.1","","-24.9","","79","","","","36","","2","","24.1","","99.15","","","","-24","","Mostly Cloudy"
"-111.96","60.02","FORT SMITH A","2202201","2023-01-13 18:00","2023","01","13","18:00","-21.2","","-23.8","","80","","","","10","","5","","24.1","","99.07","","","","-26","","NA"
"-111.96","60.02","FORT SMITH A","2202201","2023-01-13 19:00","2023","01","13","19:00","-20.1","","-22.6","","80","","","","8","","4","","24.1","","98.98","","","","-24","","Ice Crystals"
"-111.96","60.02","FORT SMITH A","2202201","2023-01-13 20:00","2023","01","13","20:00","-19.4","","-21.9","","81","","","","36","","3","","24.1","","98.95","","","","-22","","Ice Crystals"
"-111.96","60.02","FORT SMITH A","2202201","2023-01-13 21:00","2023","01","13","21:00","-19.0","","-21.4","","81","","","","5","","3","","24.1","","98.90","","","","-21","","Snow"
"-111.96","60.02","FORT SMITH A","2202201","2023-01-13 22:00","2023","01","13","22:00","-18.2","","-20.5","","82","","","","13","","4","","24.1","","98.82","","","","-21","","Snow"
"-111.96","60.02","FORT SMITH A","2202201","2023-01-13 23:00","2023","01","13","23:00","-17.4","","-19.6","","83","","","","8","","7","","24.1","","98.73","","","","-23","","Snow"
"-111.96","60.02","FORT SMITH A","2202201","2023-01-14 00:00","2023","01","14","00:00","-16.3","","-18.4","","84","","","","11","","5","","24.1","","98.64","","","","-20","","NA"
"-111.96","60.02","FORT SMITH A","2202201","2023-01-14 01:00","2023","01","14","01:00","-15.3","","-17.3","","85","","","","10","","9","","24.1","","98.51","","","","-21","","NA"
"-111.96","60.02","FORT SMITH A","2202201","2023-01-14 02:00","2023","01","14","02:00","-14.8","","-16.8","","85","","","","9","","9","","16.1","","98.45","","","","-21","","Snow"
"-111.96","60.02","FORT SMITH A","2202201","2023-01-14 03:00","2023","01","14","03:00","-14.9","","-16.9","","85","","","","10","","7","","6.4","","98.38","","","","-20","","Snow"
"-111.96","60.02","FORT SMITH A","2202201","2023-01-14 04:00","2023","01","14","04:00","-15.3","","-17.3","","85","","","","10","","5","","6.4","","98.31","","","","-19","","Snow"
"-111.96","60.02","FORT SMITH A","2202201","2023-01-14 05:00","2023","01","14","05:00","-15.4","","-17.4","","85","","","","12","","7","","2.4","","98.26","","","","-20","","Snow"
"-111.96","60.02","FORT SMITH A","2202201","2023-01-14 06:00","2023","01","14","06:00","-15.3","","-17.3","","85","","","","11","","5","","4.0","","98.20","","","","-19","","Snow"
"-111.96","60.02","FORT SMITH A","2202201","2023-01-14 07:00","2023","01","14","07:00","-15.2","","-17.1","","85","","","","12","","5","","6.4","","98.16","","","","-19","","Snow"
"-111.96","60.02","FORT SMITH A","2202201","2023-01-14 08:00","2023","01","14","08:00","-15.1","","-17.1","","85","","","","11","","9","","4.8","","98.10","","","","-21","","Snow"
"-111.96","60.02","FORT SMITH A","2202201","2023-01-14 09:00","2023","01","14","09:00","-15.0","","-17.0","","85","","","","13","","9","","8.1","","98.04","","","","-21","","Snow"
"-111.96","60.02","FORT SMITH A","2202201","2023-01-14 10:00","2023","01","14","10:00","-14.8","","-16.7","","85","","","","12","","6","","3.6","","98.02","","","","-19","","Snow"
"-111.96","60.02","FORT SMITH A","2202201","2023-01-14 11:00","2023","01","14","11:00","-14.5","","-16.4","","86","","","","13","","7","","4.8","","98.00","","","","-19","","Snow"
"-111.96","60.02","FORT SMITH A","2202201","2023-01-14 12:00","2023","01","14","12:00","-14.3","","-16.2","","86","","","","11","","4","","1.2","","97.95","","","","-17","","Snow"
"-111.96","60.02","FORT SMITH A","2202201","2023-01-14 13:00","2023","01","14","13:00","-14.1","","-16.0","","86","","","","6","","4","","2.0","","97.96","","","","-17","","Snow"
"-111.96","60.02","FORT SMITH A","2202201","2023-01-14 14:00","2023","01","14","14:00","-13.8","","-15.6","","86","","","","9","","5","","24.1","","97.91","","","","-17","","Snow"
"-111.96","60.02","FORT SMITH A","2202201","2023-01-14 15:00","2023","01","14","15:00","-13.9","","-15.7","","86","","","","0","","1","","19.3","","97.92","","","","-15","","Snow"
"-111.96","60.02","FORT SMITH A","2202201","2023-01-14 16:00","2023","01","14","16:00","-14.0","","-15.9","","86","","","","36","","2","","16.1","","97.95","","","","-15","","Snow"
"-111.96","60.02","FORT SMITH A","2202201","2023-01-14 17:00","2023","01","14","17:00","-15.2","","-17.2","","85","","","","36","","1","","16.1","","97.94","","","","-16","","Snow"
"-111.96","60.02","FORT SMITH A","2202201","2023-01-14 18:00","2023","01","14","18:00","-15.1","","-17.1","","85","","","","36","","1","","19.3","","97.96","","","","-16","","Snow"
"-111.96","60.02","FORT SMITH A","2202201","2023-01-14 19:00","2023","01","14","19:00","-14.7","","-16.6","","86","","","","25","","3","","24.1","","97.96","","","","-17","","Snow"
"-111.96","60.02","FORT SMITH A","2202201","2023-01-14 20:00","2023","01","14","20:00","-14.1","","-15.9","","86","","","","31","","4","","19.3","","97.99","","","","-17","","Snow"
"-111.96","60.02","FORT SMITH A","2202201","2023-01-14 21:00","2023","01","14","21:00","-13.9","","-15.8","","86","","","","29","","5","","24.1","","97.98","","","","-17","","Snow"
"-111.96","60.02","FORT SMITH A","2202201","2023-01-14 22:00","2023","01","14","22:00","-13.9","","-15.7","","86","","","","29","","4","","24.1","","97.96","","","","-17","","Snow"
"-111.96","60.02","FORT SMITH A","2202201","2023-01-14 23:00","2023","01","14","23:00","-13.8","","-15.6","","86","","","","0","","1","","24.1","","97.99","","","","-14","","Snow"
"-111.96","60.02","FORT SMITH A","2202201","2023-01-15 00:00","2023","01","15","00:00","-13.7","","-15.5","","86","","","","24","","6","","24.1","","97.99","","","","-18","","NA"
"-111.96","60.02","FORT SMITH A","2202201","2023-01-15 01:00","2023","01","15","01:00","-13.5","","-15.3","","87","","","","24","","3","","24.1","","97.99","","","","-16","","NA"
"-111.96","60.02","FORT SMITH A","2202201","2023-01-15 02:00","2023","01","15","02:00","-13.6","","-15.3","","87","","","","25","","4","","24.1","","98.03","","","","-16","","Snow"
"-111.96","60.02","FORT SMITH A","2202201","2023-01-15 03:00","2023","01","15","03:00","-13.5","","-15.2","","87","","","","36","","2","","19.3","","98.05","","","","-15","","Snow"
"-111.96","60.02","FORT SMITH A","2202201","2023-01-15 04:00","2023","01","15","04:00","-13.4","","-15.1","","87","","","","30","","3","","9.7","","98.06","","","","-15","","Freezing Drizzle,Snow"
"-111.96","60.02","FORT SMITH A","2202201","2023-01-15 05:00","2023","01","15","05:00","-13.3","","-15.1","","87","","","","26","","3","","4.8","","98.04","","","","-15","","Freezing Drizzle,Snow"
"-111.96","60.02","FORT SMITH A","2202201","2023-01-15 06:00","2023","01","15","06:00","-13.4","","-15.1","","87","","","","28","","5","","6.4","","98.05","","","","-17","","Freezing Drizzle,Snow"
"-111.96","60.02","FORT SMITH A","2202201","2023-01-15 07:00","2023","01","15","07:00","-13.4","","-15.1","","87","","","","28","","4","","16.1","","98.06","","","","-16","","Freezing Drizzle,Snow"
"-111.96","60.02","FORT SMITH A","2202201","2023-01-15 08:00","2023","01","15","08:00","-13.4","","-15.1","","87","","","","29","","7","","16.1","","98.06","","","","-18","","Freezing Drizzle,Snow"
"-111.96","60.02","FORT SMITH A","2202201","2023-01-15 09:00","2023","01","15","09:00","-13.3","","-15.1","","87","","","","28","","4","","4.8","","98.08","","","","-16","","Freezing Drizzle,Snow"
"-111.96","60.02","FORT SMITH A","2202201","2023-01-15 10:00","2023","01","15","10:00","-13.3","","-15.1","","87","","","","29","","6","","4.8","","98.10","","","","-17","","Snow"
"-111.96","60.02","FORT SMITH A","2202201","2023-01-15 11:00","2023","01","15","11:00","-13.2","","-14.9","","87","","","","27","","5","","4.0","","98.11","","","","-17","","Snow"
"-111.96","60.02","FORT SMITH A","2202201","2023-01-15 12:00","2023","01","15","12:00","-13.1","","-14.7","","87","","","","28","","5","","3.6","","98.12","","","","-16","","Snow"
"-111.96","60.02","FORT SMITH A","2202201","2023-01-15 13:00","2023","01","15","13:00","-13.0","","-14.7","","87","","","","29","","5","","3.2","","98.14","","","","-16","","Snow"
"-111.96","60.02","FORT SMITH A","2202201","2023-01-15 14:00","2023","01","15","14:00","-12.9","","-14.5","","87","","","","29","","5","","4.8","","98.14","","","","-16","","Snow"
"-111.96","60.02","FORT SMITH A","2202201","2023-01-15 15:00","2023","01","15","15:00","-13.0","","-14.7","","87","","","","30","","7","","1.2","","98.19","","","","-18","","Snow"
"-111.96","60.02","FORT SMITH A","2202201","2023-01-15 16:00","2023","01","15","16:00","-13.9","","-15.8","","86","","","","31","","4","","19.3","","98.21","","","","-17","","Snow"
"-111.96","60.02","FORT SMITH A","2202201","2023-01-15 17:00","2023","01","15","17:00","-15.6","","-17.6","","85","","","","36","","1","","9.7","","98.27","","","","-16","","Snow"
"-111.96","60.02","FORT SMITH A","2202201","2023-01-15 18:00","2023","01","15","18:00","-13.9","","-15.7","","86","","","","30","","5","","24.1","","98.30","","","","-17","","Snow"
"-111.96","60.02","FORT SMITH A","2202201","2023-01-15 19:00","2023","01","15","19:00","-13.8","","-15.6","","86","","","","30","","4","","24.1","","98.34","","","","-17","","Snow"
"-111.96","60.02","FORT SMITH A","2202201","2023-01-15 20:00","2023","01","15","20:00","-13.6","","-15.4","","87","","","","36","","2","","19.3","","98.35","","","","-15","","Snow"
"-111.96","60.02","FORT SMITH A","2202201","2023-01-15 21:00","2023","01","15","21:00","-13.6","","-15.4","","87","","","","35","","4","","9.7","","98.39","","","","-16","","Snow"
"-111.96","60.02","FORT SMITH A","2202201","2023-01-15 22:00","2023","01","15","22:00","-13.7","","-15.5","","87","","","","1","","3","","19.3","","98.40","","","","-16","","Snow"
"-111.96","60.02","FORT SMITH A","2202201","2023-01-15 23:00","2023","01","15","23:00","-13.9","","-15.8","","86","","","","36","","2","","24.1","","98.45","","","","-15","","Snow"
"-111.96","60.02","FORT SMITH A","2202201","2023-01-16 00:00","2023","01","16","00:00","-16.6","","-18.7","","84","","","","36","","1","","24.1","","98.48","","","","-17","","Snow"
"-111.96","60.02","FORT SMITH A","2202201","2023-01-16 01:00","2023","01","16","01:00","-18.1","","-20.4","","82","","","","26","","3","","24.1","","98.52","","","","-21","","NA"
"-111.96","60.02","FORT SMITH A","2202201","2023-01-16 02:00","2023","01","16","02:00","-20.6","","-23.2","","80","","","","0","","1","","24.1","","98.56","","","","-21","","Mainly Clear"
"-111.96","60.02","FORT SMITH A","2202201","2023-01-16 03:00","2023","01","16","03:00","-21.1","","-23.7","","80","","","","0","","1","","24.1","","98.63","","","","-22","","NA"
"-111.96","60.02","FORT SMITH A","2202201","2023-01-16 04:00","2023","01","16","04:00","-19.1","","-21.5","","82","","","","36","","2","","24.1","","98.62","","","","-21","","NA"
"-111.96","60.02","FORT SMITH A","2202201","2023-01-16 05:00","2023","01","16","05:00","-17.7","","-20.0","","83","","","","16","","4","","24.1","","98.65","","","","-21","","Clear"
"-111.96","60.02","FORT SMITH A","2202201","2023-01-16 06:00","2023","01","16","06:00","-16.4","","-18.6","","84","","","","36","","1","","24.1","","98.66","","","","-17","","NA"
"-111.96","60.02","FORT SMITH A","2202201","2023-01-16 07:00","2023","01","16","07:00","-15.5","","-17.5","","85","","","","36","","2","","24.1","","98.67","","","","-17","","NA"
"-111.96","60.02","FORT SMITH A","2202201","2023-01-16 08:00","2023","01","16","08:00","-16.3","","-18.5","","84","","","","14","","4","","24.1","","98.65","","","","-19","","Cloudy"
"-111.96","60.02","FORT SMITH A","2202201","2023-01-16 09:00","2023","01","16","09:00","-15.9","","-17.9","","84","","","","36","","3","","24.1","","98.67","","","","-18","","NA"
"-111.96","60.02","FORT SMITH A","2202201","2023-01-16 10:00","2023","01","16","10:00","-14.4","","-16.2","","86","","","","36","","2","","24.1","","98.70","","","","-16","","NA"
"-111.96","60.02","FORT SMITH A","2202201","2023-01-16 11:00","2023","01","16","11:00","-13.6","","-15.4","","87","","","","6","","3","","24.1","","98.69","","","","-16","","Mostly Cloudy"
"-111.96","60.02","FORT SMITH A","2202201","2023-01-16 12:00","2023","01","16","12:00","-13.1","","-14.8","","87","","","","9","","4","","24.1","","98.68","","","","-16","","NA"
"-111.96","60.02","FORT SMITH A","2202201","2023-01-16 13:00","2023","01","16","13:00","-12.5","","-14.2","","88","","","","6","","5","","24.1","","98.64","","","","-16","","NA"
"-111.96","60.02","FORT SMITH A","2202201","2023-01-16 14:00","2023","01","16","14:00","-12.2","","-13.8","","88","","","","6","","6","","24.1","","98.61","","","","-16","","Mostly Cloudy"
"-111.96","60.02","FORT SMITH A","2202201","2023-01-16 15:00","2023","01","16","15:00","-11.8","","-13.4","","89","","","","8","","3","","24.1","","98.63","","","","-14","","NA"
"-111.96","60.02","FORT SMITH A","2202201","2023-01-16 16:00","2023","01","16","16:00","-11.7","","-13.2","","89","","","","36","","3","","24.1","","98.66","","","","-14","","NA"
"-111.96","60.02","FORT SMITH A","2202201","2023-01-16 17:00","2023","01","16","17:00","-11.7","","-13.2","","89","","","","6","","5","","24.1","","98.65","","","","-15","","Cloudy"
"-111.96","60.02","FORT SMITH A","2202201","2023-01-16 18:00","2023","01","16","18:00","-11.8","","-13.3","","89","","","","6","","7","","24.1","","98.57","","","","-16","","NA"
"-111.96","60.02","FORT SMITH A","2202201","2023-01-16 19:00","2023","01","16","19:00","-11.9","","-13.5","","89","","","","6","","4","","24.1","","98.55","","","","-14","","NA"
"-111.96","60.02","FORT SMITH A","2202201","2023-01-16 20:00","2023","01","16","20:00","-11.9","","-13.4","","89","","","","7","","9","","24.1","","98.50","","","","-17","","Mostly Cloudy"
"-111.96","60.02","FORT SMITH A","2202201","2023-01-16 21:00","2023","01","16","21:00","-12.0","","-13.5","","88","","","","7","","9","","24.1","","98.45","","","","-17","","NA"
"-111.96","60.02","FORT SMITH A","2202201","2023-01-16 22:00","2023","01","16","22:00","-11.3","","-12.8","","89","","","","6","","5","","9.7","","98.43","","","","-14","","Snow"
"-111.96","60.02","FORT SMITH A","2202201","2023-01-16 23:00","2023","01","16","23:00","-10.8","","-12.1","","90","","","","4","","7","","9.7","","98.37","","","","-15","","Snow"
"-111.96","60.02","FORT SMITH A","2202201","2023-01-17 00:00","2023","01","17","00:00","-10.2","","-11.5","","91","","","","5","","5","","4.0","","98.33","","","","-13","","Snow"
"-111.96","60.02","FORT SMITH A","2202201","2023-01-17 01:00","2023","01","17","01:00","-9.6","","-10.8","","91","","","","5","","8","","4.8","","98.25","","","","-14","","Snow"
"-111.96","60.02","FORT SMITH A","2202201","2023-01-17 02:00","2023","01","17","02:00","-9.1","","-10.2","","92","","","","6","","4","","3.2","","98.24","","","","-11","","Snow"
"-111.96","60.02","FORT SMITH A","2202201","2023-01-17 03:00","2023","01","17","03:00","-9.0","","-10.1","","92","","","","8","","5","","6.4","","98.18","","","","-12","","Snow"
"-111.96","60.02","FORT SMITH A","2202201","2023-01-17 04:00","2023","01","17","04:00","-8.5","","-9.4","","93","","","","8","","5","","19.3","","98.15","","","","-11","","Snow"
"-111.96","60.02","FORT SMITH A","2202201","2023-01-17 05:00","2023","01","17","05:00","-8.1","","-9.0","","93","","","","10","","3","","19.3","","98.13","","","","-10","","Snow"
"-111.96","60.02","FORT SMITH A","2202201","2023-01-17 06:00","2023","01","17","06:00","-8.0","","-8.8","","94","","","","36","","1","","24.1","","98.11","","","","-9","","Freezing Drizzle"
"-111.96","60.02","FORT SMITH A","2202201","2023-01-17 07:00","2023","01","17","07:00","-7.6","","-8.3","","94","","","","12","","5","","16.1","","98.09","","","","-10","","Freezing Drizzle,Snow"
"-111.96","60.02","FORT SMITH A","2202201","2023-01-17 08:00","2023","01","17","08:00","-7.3","","-8.1","","95","","","","13","","5","","24.1","","98.09","","","","-10","","Snow"
"-111.96","60.02","FORT SMITH A","2202201","2023-01-17 09:00","2023","01","17","09:00","-7.2","","-7.9","","95","","","","16","","7","","16.1","","98.07","","","","-11","","Freezing Drizzle,Snow"
"-111.96","60.02","FORT SMITH A","2202201","2023-01-17 10:00","2023","01","17","10:00","-7.0","","-7.7","","95","","","","16","","7","","24.1","","98.09","","","","-11","","Snow"
"-111.96","60.02","FORT SMITH A","2202201","2023-01-17 11:00","2023","01","17","11:00","-7.0","","-7.6","","95","","","","18","","8","","24.1","","98.10","","","","-11","","Snow"
"-111.96","60.02","FORT SMITH A","2202201","2023-01-17 12:00","2023","01","17","12:00","-7.1","","-7.7","","95","","","","20","","10","","24.1","","98.09","","","","-12","","Snow"
"-111.96","60.02","FORT SMITH A","2202201","2023-01-17 13:00","2023","01","17","13:00","-7.0","","-7.7","","95","","","","19","","10","","24.1","","98.06","","","","-12","","Snow"
"-111.96","60.02","FORT SMITH A","2202201","2023-01-17 14:00","2023","01","17","14:00","-6.8","","-7.4","","95","","","","17","","7","","24.1","","98.07","","","","-10","","Cloudy"
"-111.96","60.02","FORT SMITH A","2202201","2023-01-17 15:00","2023","01","17","15:00","-6.6","","-7.3","","95","","","","18","","3","","16.1","","98.09","","","","-8","","Snow"
"-111.96","60.02","FORT SMITH A","2202201","2023-01-17 16:00","2023","01","17","16:00","-6.6","","-7.2","","95","","","","18","","4","","19.3","","98.13","","","","-9","","Snow"
"-111.96","60.02","FORT SMITH A","2202201","2023-01-17 17:00","2023","01","17","17:00","-6.5","","-7.2","","95","","","","16","","7","","19.3","","98.14","","","","-10","","Snow"
"-111.96","60.02","FORT SMITH A","2202201","2023-01-17 18:00","2023","01","17","18:00","-6.4","","-7.0","","95","","","","15","","5","","24.1","","98.12","","","","-9","","Snow"
"-111.96","60.02","FORT SMITH A","2202201","2023-01-17 19:00","2023","01","17","19:00","-6.2","","-6.8","","96","","","","14","","4","","24.1","","98.12","","","","-8","","NA"
"-111.96","60.02","FORT SMITH A","2202201","2023-01-17 20:00","2023","01","17","20:00","-6.2","","-6.7","","96","","","","15","","5","","24.1","","98.07","","","","-9","","Cloudy"
"-111.96","60.02","FORT SMITH A","2202201","2023-01-17 21:00","2023","01","17","21:00","-5.5","","-5.9","","97","","","","15","","7","","24.1","","98.05","","","","-9","","NA"
"-111.96","60.02","FORT SMITH A","2202201","2023-01-17 22:00","2023","01","17","22:00","-5.3","","-5.6","","98","","","","15","","7","","24.1","","98.04","","","","-9","","NA"
"-111.96","60.02","FORT SMITH A","2202201","2023-01-17 23:00","2023","01","17","23:00","-5.0","","-5.2","","98","","","","17","","10","","24.1","","98.06","","","","-9","","Snow"
"-111.96","60.02","FORT SMITH A","2202201","2023-01-18 00:00","2023","01","18","00:00","-5.3","","-5.6","","98","","","","17","","8","","24.1","","98.05","","","","-9","","Snow"
"-111.96","60.02","FORT SMITH A","2202201","2023-01-18 01:00","2023","01","18","01:00","-5.0","","-5.2","","99","","","","16","","9","","24.1","","98.03","","","","-9","","NA"
"-111.96","60.02","FORT SMITH A","2202201","2023-01-18 02:00","2023","01","18","02:00","-4.7","","-4.9","","98","","","","14","","8","","24.1","","98.04","","","","-8","","Cloudy"
"-111.96","60.02","FORT SMITH A","2202201","2023-01-18 03:00","2023","01","18","03:00","-4.8","","-5.1","","98","","","","14","","9","","24.1","","98.03","","","","-9","","NA"
"-111.96","60.02","FORT SMITH A","2202201","2023-01-18 04:00","2023","01","18","04:00","-5.1","","-5.2","","99","","","","14","","13","","24.1","","97.99","","","","-10","","NA"
"-111.96","60.02","FORT SMITH A","2202201","2023-01-18 05:00","2023","01","18","05:00","-5.0","","-5.0","","99","","","","13","","12","","24.1","","97.98","","","","-10","","Cloudy"
"-111.96","60.02","FORT SMITH A","2202201","2023-01-18 06:00","2023","01","18","06:00","-5.0","","-5.1","","99","","","","13","","7","","24.1","","97.94","","","","-8","","NA"
"-111.96","60.02","FORT SMITH A","2202201","2023-01-18 07:00","2023","01","18","07:00","-5.2","","-5.6","","97","","","","13","","10","","24.1","","97.90","","","","-10","","NA"
"-111.96","60.02","FORT SMITH A","2202201","2023-01-18 08:00","2023","01","18","08:00","-5.7","","-6.2","","96","","","","13","","10","","24.1","","97.87","","","","-10","","Snow"
"-111.96","60.02","FORT SMITH A","2202201","2023-01-18 09:00","2023","01","18","09:00","-5.7","","-6.2","","96","","","","14","","13","","24.1","","97.85","","","","-11","","NA"
"-111.96","60.02","FORT SMITH A","2202201","2023-01-18 10:00","2023","01","18","10:00","-5.4","","-5.8","","97","","","","14","","17","","24.1","","97.84","","","","-11","","NA"
"-111.96","60.02","FORT SMITH A","2202201","2023-01-18 11:00","2023","01","18","11:00","-5.1","","-5.4","","98","","","","16","","19","","9.7","","97.83","","","","-12","","Snow"
"-111.96","60.02","FORT SMITH A","2202201","2023-01-18 12:00","2023","01","18","12:00","-4.8","","-5.2","","97","","","","15","","23","","9.7","","97.78","","","","-12","","Snow"
"-111.96","60.02","FORT SMITH A","2202201","2023-01-18 13:00","2023","01","18","13:00","-4.8","","-5.2","","97","","","","16","","17","","9.7","","97.76","","","","-11","","Snow"
"-111.96","60.02","FORT SMITH A","2202201","2023-01-18 14:00","2023","01","18","14:00","-4.8","","-5.4","","96","","","","15","","21","","9.7","","97.75","","","","-11","","Snow"
"-111.96","60.02","FORT SMITH A","2202201","2023-01-18 15:00","2023","01","18","15:00","-4.8","","-5.5","","95","","","","16","","23","","19.3","","97.76","","","","-12","","Snow"
"-111.96","60.02","FORT SMITH A","2202201","2023-01-18 16:00","2023","01","18","16:00","-5.2","","-6.1","","93","","","","15","","18","","19.3","","97.76","","","","-11","","Snow"
"-111.96","60.02","FORT SMITH A","2202201","2023-01-18 17:00","2023","01","18","17:00","-5.5","","-6.4","","93","","","","15","","17","","24.1","","97.75","","","","-12","","Mainly Clear"
"-111.96","60.02","FORT SMITH A","2202201","2023-01-18 18:00","2023","01","18","18:00","-6.1","","-7.2","","92","","","","15","","16","","24.1","","97.71","","","","-12","","NA"
"-111.96","60.02","FORT SMITH A","2202201","2023-01-18 19:00","2023","01","18","19:00","-5.7","","-6.9","","91","","","","16","","16","","24.1","","97.69","","","","-12","","NA"
"-111.96","60.02","FORT SMITH A","2202201","2023-01-18 20:00","2023","01","18","20:00","-5.9","","-7.1","","91","","","","16","","18","","24.1","","97.68","","","","-12","","Mostly Cloudy"
"-111.96","60.02","FORT SMITH A","2202201","2023-01-18 21:00","2023","01","18","21:00","-5.7","","-7.0","","90","","","","16","","19","","24.1","","97.68","","","","-12","","NA"
"-111.96","60.02","FORT SMITH A","2202201","2023-01-18 22:00","2023","01","18","22:00","-6.1","","-7.4","","90","","","","15","","14","","24.1","","97.66","","","","-12","","NA"
"-111.96","60.02","FORT SMITH A","2202201","2023-01-18 23:00","2023","01","18","23:00","-6.7","","-8.0","","90","","","","15","","15","","24.1","","97.70","","","","-13","","Mainly Clear"
"-111.96","60.02","FORT SMITH A","2202201","2023-01-19 00:00","2023","01","19","00:00","-6.7","","-8.1","","90","","","","15","","17","","24.1","","97.67","","","","-13","","NA"
"-111.96","60.02","FORT SMITH A","2202201","2023-01-19 01:00","2023","01","19","01:00","-6.8","","-8.2","","90","","","","16","","25","","24.1","","97.67","","","","-15","","NA"
"-111.96","60.02","FORT SMITH A","2202201","2023-01-19 02:00","2023","01","19","02:00","-7.0","","-8.6","","88","","","","16","","20","","24.1","","97.68","","","","-14","","Clear"
"-111.96","60.02","FORT SMITH A","2202201","2023-01-19 03:00","2023","01","19","03:00","-7.2","","-8.8","","88","","","","15","","21","","24.1","","97.68","","","","-15","","NA"
"-111.96","60.02","FORT SMITH A","2202201","2023-01-19 04:00","2023","01","19","04:00","-6.5","","-8.2","","88","","","","15","","22","","24.1","","97.67","","","","-14","","NA"
"-111.96","60.02","FORT SMITH A","2202201","2023-01-19 05:00","2023","01","19","05:00","-6.3","","-7.9","","88","","","","16","","22","","24.1","","97.66","","","","-14","","Cloudy"
"-111.96","60.02","FORT SMITH A","2202201","2023-01-19 06:00","2023","01","19","06:00","-6.3","","-7.9","","89","","","","16","","14","","24.1","","97.69","","","","-12","","NA"
"-111.96","60.02","FORT SMITH A","2202201","2023-01-19 07:00","2023","01","19","07:00","-7.2","","-8.5","","90","","","","16","","14","","24.1","","97.72","","","","-13","","NA"
"-111.96","60.02","FORT SMITH A","2202201","2023-01-19 08:00","2023","01","19","08:00","-7.7","","-9.0","","91","","","","15","","11","","24.1","","97.76","","","","-13","","Mostly Cloudy"
"-111.96","60.02","FORT SMITH A","2202201","2023-01-19 09:00","2023","01","19","09:00","-7.5","","-8.7","","91","","","","14","","9","","24.1","","97.79","","","","-12","","NA"
"-111.96","60.02","FORT SMITH A","2202201","2023-01-19 10:00","2023","01","19","10:00","-8.1","","-9.2","","92","","","","16","","11","","24.1","","97.83","","","","-13","","NA"
"-111.96","60.02","FORT SMITH A","2202201","2023-01-19 11:00","2023","01","19","11:00","-7.6","","-8.8","","91","","","","15","","10","","24.1","","97.86","","","","-12","","Mostly Cloudy"
"-111.96","60.02","FORT SMITH A","2202201","2023-01-19 12:00","2023","01","19","12:00","-5.0","","-7.5","","83","","","","19","","15","","24.1","","97.90","","","","-11","","NA"
"-111.96","60.02","FORT SMITH A","2202201","2023-01-19 13:00","2023","01","19","13:00","-3.2","","-6.2","","80","","","","19","","14","","24.1","","97.87","","","","-8","","NA"
"-111.96","60.02","FORT SMITH A","2202201","2023-01-19 14:00","2023","01","19","14:00","-2.4","","-5.6","","79","","","","19","","16","","24.1","","97.86","","","","-8","","Mainly Clear"
"-111.96","60.02","FORT SMITH A","2202201","2023-01-19 15:00","2023","01","19","15:00","-2.2","","-5.4","","79","","","","19","","17","","24.1","","97.86","","","","-8","","NA"
"-111.96","60.02","FORT SMITH A","2202201","2023-01-19 16:00","2023","01","19","16:00","-3.7","","-5.8","","86","","","","19","","14","","24.1","","97.89","","","","-9","","NA"
"-111.96","60.02","FORT SMITH A","2202201","2023-01-19 17:00","2023","01","19","17:00","-4.2","","-5.7","","89","","","","19","","16","","24.1","","97.92","","","","-10","","Clear"
"-111.96","60.02","FORT SMITH A","2202201","2023-01-19 18:00","2023","01","19","18:00","-4.6","","-6.2","","89","","","","20","","14","","24.1","","97.92","","","","-10","","NA"
"-111.96","60.02","FORT SMITH A","2202201","2023-01-19 19:00","2023","01","19","19:00","-5.6","","-7.1","","89","","","","20","","13","","24.1","","97.93","","","","-11","","NA"
"-111.96","60.02","FORT SMITH A","2202201","2023-01-19 20:00","2023","01","19","20:00","-6.8","","-8.3","","89","","","","19","","11","","24.1","","97.96","","","","-12","","Clear"
"-111.96","60.02","FORT SMITH A","2202201","2023-01-19 21:00","2023","01","19","21:00","-7.4","","-8.9","","89","","","","19","","12","","24.1","","97.96","","","","-13","","NA"
"-111.96","60.02","FORT SMITH A","2202201","2023-01-19 22:00","2023","01","19","22:00"
"-111.96","60.02","FORT SMITH A","2202201","2023-01-19 23:00","2023","01","19","23:00","-10.6","","-11.4","","94","","","","17","","5","","24.1","","98.00","","","","-14","","Clear"
"-111.96","60.02","FORT SMITH A","2202201","2023-01-20 00:00","2023","01","20","00:00","-11.0","","-11.7","","95","","","","20","","6","","24.1","","98.04","","","","-15","","NA"
"-111.96","60.02","FORT SMITH A","2202201","2023-01-20 01:00","2023","01","20","01:00","-12.4","","-13.6","","91","","","","19","","5","","24.1","","98.07","","","","-16","","NA"
"-111.96","60.02","FORT SMITH A","2202201","2023-01-20 02:00","2023","01","20","02:00","-11.7","","-12.8","","92","","","","15","","8","","24.1","","98.10","","","","-16","","Clear"
"-111.96","60.02","FORT SMITH A","2202201","2023-01-20 03:00","2023","01","20","03:00","-11.8","","-12.9","","92","","","","20","","4","","24.1","","98.15","","","","-14","","NA"
"-111.96","60.02","FORT SMITH A","2202201","2023-01-20 04:00","2023","01","20","04:00","-14.7","","-16.3","","87","","","","20","","4","","24.1","","98.20","","","","-18","","NA"
"-111.96","60.02","FORT SMITH A","2202201","2023-01-20 05:00","2023","01","20","05:00","-14.8","","-16.6","","87","","","","15","","4","","24.1","","98.22","","","","-18","","Clear"
"-111.96","60.02","FORT SMITH A","2202201","2023-01-20 06:00","2023","01","20","06:00","-14.7","","-16.5","","86","","","","16","","6","","24.1","","98.21","","","","-19","","NA"
"-111.96","60.02","FORT SMITH A","2202201","2023-01-20 07:00","2023","01","20","07:00","-16.9","","-19.0","","84","","","","15","","6","","24.1","","98.21","","","","-21","","NA"
"-111.96","60.02","FORT SMITH A","2202201","2023-01-20 08:00","2023","01","20","08:00","-16.3","","-18.4","","84","","","","16","","7","","24.1","","98.23","","","","-21","","Clear"
"-111.96","60.02","FORT SMITH A","2202201","2023-01-20 09:00","2023","01","20","09:00","-15.5","","-17.5","","85","","","","17","","4","","24.1","","98.26","","","","-18","","NA"
"-111.96","60.02","FORT SMITH A","2202201","2023-01-20 10:00","2023","01","20","10:00","-14.8","","-16.6","","86","","","","36","","2","","24.1","","98.30","","","","-16","","NA"
"-111.96","60.02","FORT SMITH A","2202201","2023-01-20 11:00","2023","01","20","11:00","-14.0","","-15.8","","86","","","","17","","5","","24.1","","98.30","","","","-17","","Clear"
"-111.96","60.02","FORT SMITH A","2202201","2023-01-20 12:00","2023","01","20","12:00","-12.1","","-13.7","","88","","","","21","","3","","24.1","","98.33","","","","-14","","NA"
"-111.96","60.02","FORT SMITH A","2202201","2023-01-20 13:00","2023","01","20","13:00","-10.9","","-12.2","","90","","","","22","","5","","24.1","","98.33","","","","-14","","NA"
"-111.96","60.02","FORT SMITH A","2202201","2023-01-20 14:00","2023","01","20","14:00","-10.7","","-12.0","","90","","","","23","","7","","24.1","","98.38","","","","-15","","Clear"
"-111.96","60.02","FORT SMITH A","2202201","2023-01-20 15:00","2023","01","20","15:00","-9.2","","-10.3","","92","","","","28","","3","","24.1","","98.40","","","","-11","","NA"
"-111.96","60.02","FORT SMITH A","2202201","2023-01-20 16:00","2023","01","20","16:00","-11.3","","-12.6","","90","","","","24","","3","","24.1","","98.45","","","","-13","","NA"
"-111.96","60.02","FORT SMITH A","2202201","2023-01-20 17:00","2023","01","20","17:00","-13.4","","-15.1","","87","","","","0","","1","","24.1","","98.49","","","","-14","","Clear"
"-111.96","60.02","FORT SMITH A","2202201","2023-01-20 18:00","2023","01","20","18:00","-14.3","","-16.2","","86","","","","16","","3","","24.1","","98.50","","","","-16","","NA"
"-111.96","60.02","FORT SMITH A","2202201","2023-01-20 19:00","2023","01","20","19:00","-16.2","","-18.3","","84","","","","36","","3","","24.1","","98.54","","","","-18","","NA"
"-111.96","60.02","FORT SMITH A","2202201","2023-01-20 20:00","2023","01","20","20:00","-16.3","","-18.4","","84","","","","15","","5","","24.1","","98.55","","","","-20","","Clear"
"-111.96","60.02","FORT SMITH A","2202201","2023-01-20 21:00","2023","01","20","21:00","-16.9","","-19.1","","83","","","","14","","4","","24.1","","98.55","","","","-20","","NA"
"-111.96","60.02","FORT SMITH A","2202201","2023-01-20 22:00","2023","01","20","22:00","-17.1","","-19.3","","83","","","","12","","3","","24.1","","98.53","","","","-19","","NA"
"-111.96","60.02","FORT SMITH A","2202201","2023-01-20 23:00","2023","01","20","23:00","-17.0","","-19.2","","83","","","","16","","4","","24.1","","98.54","","","","-20","","Clear"
"-111.96","60.02","FORT SMITH A","2202201","2023-01-21 00:00","2023","01","21","00:00","-17.7","","-19.9","","83","","","","14","","3","","24.1","","98.53","","","","-20","","NA"
"-111.96","60.02","FORT SMITH A","2202201","2023-01-21 01:00","2023","01","21","01:00","-18.1","","-20.4","","82","","","","36","","2","","24.1","","98.52","","","","-20","","NA"
"-111.96","60.02","FORT SMITH A","2202201","2023-01-21 02:00","2023","01","21","02:00","-18.4","","-20.7","","82","","","","12","","3","","24.1","","98.51","","","","-21","","Clear"
"-111.96","60.02","FORT SMITH A","2202201","2023-01-21 03:00","2023","01","21","03:00","-18.6","","-20.9","","82","","","","4","","3","","24.1","","98.53","","","","-21","","NA"
"-111.96","60.02","FORT SMITH A","2202201","2023-01-21 04:00","2023","01","21","04:00","-19.1","","-21.5","","81","","","","36","","3","","24.1","","98.49","","","","-22","","NA"
"-111.96","60.02","FORT SMITH A","2202201","2023-01-21 05:00","2023","01","21","05:00","-17.2","","-19.4","","83","","","","14","","4","","24.1","","98.42","","","","-20","","Mainly Clear"
"-111.96","60.02","FORT SMITH A","2202201","2023-01-21 06:00","2023","01","21","06:00","-13.5","","-15.2","","87","","","","14","","7","","24.1","","98.40","","","","-18","","NA"
"-111.96","60.02","FORT SMITH A","2202201","2023-01-21 07:00","2023","01","21","07:00","-12.7","","-14.4","","88","","","","13","","8","","24.1","","98.31","","","","-18","","NA"
"-111.96","60.02","FORT SMITH A","2202201","2023-01-21 08:00","2023","01","21","08:00","-12.1","","-13.7","","88","","","","13","","7","","24.1","","98.30","","","","-16","","Clear"
"-111.96","60.02","FORT SMITH A","2202201","2023-01-21 09:00","2023","01","21","09:00","-11.4","","-12.9","","89","","","","14","","9","","24.1","","98.23","","","","-17","","NA"
"-111.96","60.02","FORT SMITH A","2202201","2023-01-21 10:00","2023","01","21","10:00","-10.9","","-12.3","","90","","","","13","","8","","24.1","","98.16","","","","-16","","NA"
"-111.96","60.02","FORT SMITH A","2202201","2023-01-21 11:00","2023","01","21","11:00","-10.0","","-11.2","","91","","","","13","","9","","24.1","","98.09","","","","-15","","Clear"
"-111.96","60.02","FORT SMITH A","2202201","2023-01-21 12:00","2023","01","21","12:00","-8.5","","-9.4","","93","","","","13","","9","","24.1","","97.96","","","","-13","","NA"
"-111.96","60.02","FORT SMITH A","2202201","2023-01-21 13:00","2023","01","21","13:00","-7.4","","-8.2","","94","","","","13","","10","","24.1","","97.87","","","","-12","","NA"
"-111.96","60.02","FORT SMITH A","2202201","2023-01-21 14:00","2023","01","21","14:00","-6.9","","-7.6","","95","","","","13","","8","","24.1","","97.84","","","","-11","","Cloudy"
"-111.96","60.02","FORT SMITH A","2202201","2023-01-21 15:00","2023","01","21","15:00","-6.5","","-7.1","","96","","","","14","","12","","24.1","","97.76","","","","-12","","NA"
"-111.96","60.02","FORT SMITH A","2202201","2023-01-21 16:00","2023","01","21","16:00","-6.3","","-6.8","","96","","","","15","","11","","24.1","","97.69","","","","-11","","NA"
"-111.96","60.02","FORT SMITH A","2202201","2023-01-21 17:00","2023","01","21","17:00","-6.5","","-7.1","","96","","","","14","","11","","24.1","","97.66","","","","-11","","Cloudy"
"-111.96","60.02","FORT SMITH A","2202201","2023-01-21 18:00","2023","01","21","18:00","-6.6","","-7.1","","96","","","","15","","13","","24.1","","97.62","","","","-12","","NA"
"-111.96","60.02","FORT SMITH A","2202201","2023-01-21 19:00","2023","01","21","19:00","-6.6","","-7.1","","96","","","","16","","13","","24.1","","97.59","","","","-12","","NA"
"-111.96","60.02","FORT SMITH A","2202201","2023-01-21 20:00","2023","01","21","20:00","-6.5","","-7.1","","96","","","","15","","12","","24.1","","97.48","","","","-12","","Cloudy"
"-111.96","60.02","FORT SMITH A","2202201","2023-01-21 21:00","2023","01","21","21:00","-6.6","","-7.2","","95","","","","15","","10","","24.1","","97.43","","","","-11","","NA"
"-111.96","60.02","FORT SMITH A","2202201","2023-01-21 22:00","2023","01","21","22:00","-6.6","","-7.2","","95","","","","16","","9","","24.1","","97.41","","","","-11","","NA"
"-111.96","60.02","FORT SMITH A","2202201","2023-01-21 23:00","2023","01","21","23:00","-6.6","","-7.2","","95","","","","16","","9","","24.1","","97.39","","","","-11","","Cloudy"
"-111.96","60.02","FORT SMITH A","2202201","2023-01-22 00:00","2023","01","22","00:00","-6.1","","-6.7","","96","","","","17","","7","","24.1","","97.40","","","","-9","","NA"
"-111.96","60.02","FORT SMITH A","2202201","2023-01-22 01:00","2023","01","22","01:00","-7.4","","-8.2","","94","","","","14","","5","","24.1","","97.40","","","","-10","","NA"
"-111.96","60.02","FORT SMITH A","2202201","2023-01-22 02:00","2023","01","22","02:00","-7.6","","-8.2","","95","","","","24","","8","","24.1","","97.45","","","","-12","","Mostly Cloudy"
"-111.96","60.02","FORT SMITH A","2202201","2023-01-22 03:00","2023","01","22","03:00","-3.6","","-4.6","","93","","","","29","","26","","24.1","","97.54","","","","-11","","NA"
"-111.96","60.02","FORT SMITH A","2202201","2023-01-22 04:00","2023","01","22","04:00","-7.7","","-9.5","","87","","","","30","","22","","24.1","","97.72","","","","-15","","Blowing Snow"
"-111.96","60.02","FORT SMITH A","2202201","2023-01-22 05:00","2023","01","22","05:00","-9.3","","-12.0","","81","","","","31","","32","","24.1","","97.84","","","","-19","","Blowing Snow"
"-111.96","60.02","FORT SMITH A","2202201","2023-01-22 06:00","2023","01","22","06:00","-10.5","","-12.8","","83","","","","29","","33","","16.1","","97.95","","","","-21","","Snow,Blowing Snow"
"-111.96","60.02","FORT SMITH A","2202201","2023-01-22 07:00","2023","01","22","07:00","-10.6","","-12.8","","84","","","","30","","23","","1.6","","98.07","","","","-19","","Snow,Blowing Snow"
"-111.96","60.02","FORT SMITH A","2202201","2023-01-22 08:00","2023","01","22","08:00","-10.8","","-12.9","","85","","","","29","","28","","1.6","","98.19","","","","-20","","Snow,Blowing Snow"
"-111.96","60.02","FORT SMITH A","2202201","2023-01-22 09:00","2023","01","22","09:00","-10.5","","-12.3","","87","","","","31","","23","","4.8","","98.32","","","","-19","","Snow,Blowing Snow"
"-111.96","60.02","FORT SMITH A","2202201","2023-01-22 10:00","2023","01","22","10:00","-10.2","","-12.1","","86","","","","33","","21","","1.2","","98.49","","","","-18","","Snow,Blowing Snow"
"-111.96","60.02","FORT SMITH A","2202201","2023-01-22 11:00","2023","01","22","11:00","-10.9","","-13.3","","83","","","","33","","17","","6.4","","98.71","","","","-18","","Snow,Blowing Snow"
"-111.96","60.02","FORT SMITH A","2202201","2023-01-22 12:00","2023","01","22","12:00","-11.8","","-14.4","","81","","","","31","","21","","8.1","","98.87","","","","-20","","Snow,Blowing Snow"
"-111.96","60.02","FORT SMITH A","2202201","2023-01-22 13:00","2023","01","22","13:00","-12.7","","-15.4","","80","","","","32","","24","","24.1","","99.05","","","","-22","","Snow,Blowing Snow"
"-111.96","60.02","FORT SMITH A","2202201","2023-01-22 14:00","2023","01","22","14:00","-13.4","","-16.2","","79","","","","34","","16","","24.1","","99.18","","","","-21","","Mainly Clear"
"-111.96","60.02","FORT SMITH A","2202201","2023-01-22 15:00","2023","01","22","15:00","-13.6","","-16.8","","77","","","","35","","15","","24.1","","99.29","","","","-21","","NA"
"-111.96","60.02","FORT SMITH A","2202201","2023-01-22 16:00","2023","01","22","16:00","-14.6","","-17.5","","78","","","","34","","8","","24.1","","99.39","","","","-20","","NA"
"-111.96","60.02","FORT SMITH A","2202201","2023-01-22 17:00","2023","01","22","17:00","-16.8","","-19.3","","81","","","","30","","7","","24.1","","99.52","","","","-22","","Mainly Clear"
"-111.96","60.02","FORT SMITH A","2202201","2023-01-22 18:00","2023","01","22","18:00","-16.2","","-17.9","","87","","","","30","","8","","24.1","","99.54","","","","-22","","Snow"
"-111.96","60.02","FORT SMITH A","2202201","2023-01-22 19:00","2023","01","22","19:00","-20.0","","-21.7","","86","","","","27","","6","","24.1","","99.57","","","","-25","","Snow"
"-111.96","60.02","FORT SMITH A","2202201","2023-01-22 20:00","2023","01","22","20:00","-20.7","","-22.8","","84","","","","23","","4","","24.1","","99.60","","","","-24","","Mainly Clear"
"-111.96","60.02","FORT SMITH A","2202201","2023-01-22 21:00","2023","01","22","21:00","-21.5","","-23.9","","82","","","","14","","3","","24.1","","99.57","","","","-24","","NA"
"-111.96","60.02","FORT SMITH A","2202201","2023-01-22 22:00","2023","01","22","22:00","-21.4","","-24.1","","80","","","","36","","3","","24.1","","99.52","","","","-24","","NA"
"-111.96","60.02","FORT SMITH A","2202201","2023-01-22 23:00","2023","01","22","23:00","-22.7","","-25.3","","80","","","","36","","1","","24.1","","99.46","","","","-24","","Mainly Clear"
"-111.96","60.02","FORT SMITH A","2202201","2023-01-23 00:00","2023","01","23","00:00","-23.1","","-25.9","","78","","","","6","","3","","24.1","","99.45","","","","-26","","NA"
"-111.96","60.02","FORT SMITH A","2202201","2023-01-23 01:00","2023","01","23","01:00","-21.8","","-24.3","","80","","","","13","","4","","24.1","","99.36","","","","-25","","NA"
"-111.96","60.02","FORT SMITH A","2202201","2023-01-23 02:00","2023","01","23","02:00","-20.2","","-22.4","","83","","","","13","","9","","24.1","","99.33","","","","-27","","Clear"
"-111.96","60.02","FORT SMITH A","2202201","2023-01-23 03:00","2023","01","23","03:00","-19.6","","-21.9","","82","","","","15","","14","","24.1","","99.25","","","","-28","","NA"
"-111.96","60.02","FORT SMITH A","2202201","2023-01-23 04:00","2023","01","23","04:00","-18.6","","-21.0","","82","","","","14","","12","","24.1","","99.13","","","","-26","","NA"
"-111.96","60.02","FORT SMITH A","2202201","2023-01-23 05:00","2023","01","23","05:00","-18.3","","-20.8","","81","","","","14","","12","","24.1","","99.09","","","","-26","","Mostly Cloudy"
"-111.96","60.02","FORT SMITH A","2202201","2023-01-23 06:00","2023","01","23","06:00","-18.3","","-20.8","","81","","","","14","","9","","24.1","","99.04","","","","-25","","Snow"
"-111.96","60.02","FORT SMITH A","2202201","2023-01-23 07:00","2023","01","23","07:00","-16.9","","-19.4","","81","","","","14","","9","","24.1","","98.95","","","","-23","","Snow"
"-111.96","60.02","FORT SMITH A","2202201","2023-01-23 08:00","2023","01","23","08:00","-16.3","","-19.5","","76","","","","14","","9","","24.1","","98.88","","","","-22","","Snow"
"-111.96","60.02","FORT SMITH A","2202201","2023-01-23 09:00","2023","01","23","09:00","-16.2","","-18.8","","80","","","","14","","9","","24.1","","98.83","","","","-22","","Snow"
"-111.96","60.02","FORT SMITH A","2202201","2023-01-23 10:00","2023","01","23","10:00","-16.7","","-19.1","","81","","","","9","","7","","24.1","","98.83","","","","-22","","Snow"
"-111.96","60.02","FORT SMITH A","2202201","2023-01-23 11:00","2023","01","23","11:00","-15.8","","-18.4","","81","","","","11","","9","","24.1","","98.84","","","","-22","","Cloudy"
"-111.96","60.02","FORT SMITH A","2202201","2023-01-23 12:00","2023","01","23","12:00","-15.1","","-18.1","","78","","","","12","","9","","24.1","","98.83","","","","-21","","NA"
"-111.96","60.02","FORT SMITH A","2202201","2023-01-23 13:00","2023","01","23","13:00","-14.9","","-18.3","","75","","","","12","","11","","24.1","","98.80","","","","-21","","NA"
"-111.96","60.02","FORT SMITH A","2202201","2023-01-23 14:00","2023","01","23","14:00","-14.6","","-17.9","","76","","","","12","","8","","24.1","","98.78","","","","-20","","Mostly Cloudy"
"-111.96","60.02","FORT SMITH A","2202201","2023-01-23 15:00","2023","01","23","15:00","-14.8","","-18.4","","74","","","","9","","8","","24.1","","98.81","","","","-20","","NA"
"-111.96","60.02","FORT SMITH A","2202201","2023-01-23 16:00","2023","01","23","16:00","-14.8","","-18.7","","72","","","","12","","9","","24.1","","98.80","","","","-21","","NA"
"-111.96","60.02","FORT SMITH A","2202201","2023-01-23 17:00","2023","01","23","17:00","-14.9","","-18.8","","72","","","","13","","8","","24.1","","98.84","","","","-20","","Mostly Cloudy"
"-111.96","60.02","FORT SMITH A","2202201","2023-01-23 18:00","2023","01","23","18:00","-15.0","","-19.0","","72","","","","12","","5","","24.1","","98.91","","","","-19","","NA"
"-111.96","60.02","FORT SMITH A","2202201","2023-01-23 19:00","2023","01","23","19:00","-15.5","","-19.0","","75","","","","12","","11","","24.1","","98.94","","","","-22","","Snow"
"-111.96","60.02","FORT SMITH A","2202201","2023-01-23 20:00","2023","01","23","20:00","-16.0","","-19.3","","76","","","","13","","10","","19.3","","98.92","","","","-22","","Snow"
"-111.96","60.02","FORT SMITH A","2202201","2023-01-23 21:00","2023","01","23","21:00","-16.4","","-19.9","","75","","","","13","","9","","19.3","","98.88","","","","-22","","Snow"
"-111.96","60.02","FORT SMITH A","2202201","2023-01-23 22:00","2023","01","23","22:00","-16.6","","-19.8","","77","","","","14","","14","","16.1","","98.86","","","","-25","","Snow"
"-111.96","60.02","FORT SMITH A","2202201","2023-01-23 23:00","2023","01","23","23:00","-16.9","","-20.2","","76","","","","13","","11","","6.4","","98.89","","","","-24","","Snow"
"-111.96","60.02","FORT SMITH A","2202201","2023-01-24 00:00","2023","01","24","00:00","-17.0","","-20.0","","78","","","","13","","13","","19.3","","98.87","","","","-25","","Snow"
"-111.96","60.02","FORT SMITH A","2202201","2023-01-24 01:00","2023","01","24","01:00","-17.0","","-20.1","","77","","","","14","","12","","9.7","","98.85","","","","-24","","Snow"
"-111.96","60.02","FORT SMITH A","2202201","2023-01-24 02:00","2023","01","24","02:00","-17.0","","-19.9","","79","","","","14","","8","","24.1","","98.82","","","","-23","","Snow"
"-111.96","60.02","FORT SMITH A","2202201","2023-01-24 03:00","2023","01","24","03:00","-17.0","","-19.8","","79","","","","14","","7","","1.6","","98.86","","","","-22","","Snow"
"-111.96","60.02","FORT SMITH A","2202201","2023-01-24 04:00","2023","01","24","04:00","-17.1","","-19.9","","79","","","","12","","9","","1.6","","98.89","","","","-23","","Snow"
"-111.96","60.02","FORT SMITH A","2202201","2023-01-24 05:00","2023","01","24","05:00","-17.1","","-19.8","","80","","","","14","","7","","3.2","","98.89","","","","-22","","Snow"
"-111.96","60.02","FORT SMITH A","2202201","2023-01-24 06:00","2023","01","24","06:00","-17.1","","-20.0","","79","","","","13","","7","","3.2","","98.88","","","","-22","","Snow"
"-111.96","60.02","FORT SMITH A","2202201","2023-01-24 07:00","2023","01","24","07:00","-17.0","","-19.8","","79","","","","13","","8","","4.8","","98.91","","","","-23","","Snow"
"-111.96","60.02","FORT SMITH A","2202201","2023-01-24 08:00","2023","01","24","08:00","-16.7","","-19.7","","78","","","","12","","5","","4.8","","98.97","","","","-21","","Snow"
"-111.96","60.02","FORT SMITH A","2202201","2023-01-24 09:00","2023","01","24","09:00","-16.7","","-19.8","","78","","","","12","","5","","19.3","","99.02","","","","-21","","Snow"
"-111.96","60.02","FORT SMITH A","2202201","2023-01-24 10:00","2023","01","24","10:00","-16.6","","-19.6","","78","","","","16","","5","","19.3","","99.08","","","","-20","","Snow"
"-111.96","60.02","FORT SMITH A","2202201","2023-01-24 11:00","2023","01","24","11:00","-16.4","","-19.4","","78","","","","16","","3","","24.1","","99.13","","","","-19","","Snow"
"-111.96","60.02","FORT SMITH A","2202201","2023-01-24 12:00","2023","01","24","12:00","-16.1","","-19.2","","78","","","","25","","4","","24.1","","99.19","","","","-19","","Snow"
"-111.96","60.02","FORT SMITH A","2202201","2023-01-24 13:00","2023","01","24","13:00","-15.9","","-19.1","","76","","","","27","","8","","24.1","","99.26","","","","-21","","Snow"
"-111.96","60.02","FORT SMITH A","2202201","2023-01-24 14:00","2023","01","24","14:00","-15.5","","-18.6","","77","","","","27","","5","","24.1","","99.30","","","","-19","","Snow"
"-111.96","60.02","FORT SMITH A","2202201","2023-01-24 15:00","2023","01","24","15:00","-15.2","","-18.2","","78","","","","33","","6","","24.1","","99.39","","","","-19","","Snow"
"-111.96","60.02","FORT SMITH A","2202201","2023-01-24 16:00","2023","01","24","16:00","-15.0","","-17.8","","79","","","","29","","7","","24.1","","99.43","","","","-20","","Snow"
"-111.96","60.02","FORT SMITH A","2202201","2023-01-24 17:00","2023","01","24","17:00","-15.0","","-17.6","","81","","","","30","","5","","24.1","","99.49","","","","-19","","Snow"
"-111.96","60.02","FORT SMITH A","2202201","2023-01-24 18:00","2023","01","24","18:00","-15.0","","-17.1","","84","","","","28","","6","","24.1","","99.51","","","","-19","","Snow"
"-111.96","60.02","FORT SMITH A","2202201","2023-01-24 19:00","2023","01","24","19:00","-15.0","","-16.8","","86","","","","25","","4","","24.1","","99.54","","","","-18","","Snow"
"-111.96","60.02","FORT SMITH A","2202201","2023-01-24 20:00","2023","01","24","20:00","-14.9","","-16.6","","87","","","","36","","3","","24.1","","99.55","","","","-17","","Snow"
"-111.96","60.02","FORT SMITH A","2202201","2023-01-24 21:00","2023","01","24","21:00","-14.8","","-16.4","","88","","","","27","","3","","24.1","","99.59","","","","-17","","Snow"
"-111.96","60.02","FORT SMITH A","2202201","2023-01-24 22:00","2023","01","24","22:00","-14.8","","-16.2","","89","","","","36","","3","","24.1","","99.66","","","","-17","","Snow"
"-111.96","60.02","FORT SMITH A","2202201","2023-01-24 23:00","2023","01","24","23:00","-14.6","","-16.3","","87","","","","36","","3","","19.3","","99.70","","","","-17","","Snow"
"-111.96","60.02","FORT SMITH A","2202201","2023-01-25 00:00","2023","01","25","00:00","-14.5","","-16.3","","86","","","","31","","3","","19.3","","99.76","","","","-17","","Snow"
"-111.96","60.02","FORT SMITH A","2202201","2023-01-25 01:00","2023","01","25","01:00","-14.4","","-16.3","","86","","","","26","","3","","24.1","","99.78","","","","-17","","Snow"
"-111.96","60.02","FORT SMITH A","2202201","2023-01-25 02:00","2023","01","25","02:00","-14.4","","-16.3","","86","","","","36","","3","","24.1","","99.83","","","","-17","","Cloudy"
"-111.96","60.02","FORT SMITH A","2202201","2023-01-25 03:00","2023","01","25","03:00","-14.3","","-16.2","","86","","","","36","","1","","24.1","","99.88","","","","-15","","NA"
"-111.96","60.02","FORT SMITH A","2202201","2023-01-25 04:00","2023","01","25","04:00","-14.5","","-16.5","","85","","","","36","","1","","24.1","","99.87","","","","-15","","NA"
"-111.96","60.02","FORT SMITH A","2202201","2023-01-25 05:00","2023","01","25","05:00","-14.7","","-16.7","","85","","","","26","","4","","24.1","","99.93","","","","-18","","Cloudy"
"-111.96","60.02","FORT SMITH A","2202201","2023-01-25 06:00","2023","01","25","06:00","-14.8","","-16.7","","85","","","","23","","4","","24.1","","99.96","","","","-18","","NA"
"-111.96","60.02","FORT SMITH A","2202201","2023-01-25 07:00","2023","01","25","07:00","-14.5","","-16.5","","85","","","","36","","1","","24.1","","99.96","","","","-15","","NA"
"-111.96","60.02","FORT SMITH A","2202201","2023-01-25 08:00","2023","01","25","08:00","-14.5","","-16.5","","85","","","","36","","2","","24.1","","99.98","","","","-16","","Cloudy"
"-111.96","60.02","FORT SMITH A","2202201","2023-01-25 09:00","2023","01","25","09:00","-14.6","","-16.7","","85","","","","36","","2","","24.1","","100.01","","","","-16","","NA"
"-111.96","60.02","FORT SMITH A","2202201","2023-01-25 10:00","2023","01","25","10:00","-14.5","","-16.5","","85","","","","14","","5","","24.1","","99.99","","","","-18","","NA"
"-111.96","60.02","FORT SMITH A","2202201","2023-01-25 11:00","2023","01","25","11:00","-14.4","","-16.3","","85","","","","36","","1","","24.1","","100.00","","","","-15","","Cloudy"
"-111.96","60.02","FORT SMITH A","2202201","2023-01-25 12:00","2023","01","25","12:00","-14.0","","-16.6","","81","","","","15","","8","","24.1","","99.86","","","","-19","","NA"
"-111.96","60.02","FORT SMITH A","2202201","2023-01-25 13:00","2023","01","25","13:00","-13.3","","-15.7","","83","","","","17","","9","","24.1","","99.84","","","","-19","","NA"
"-111.96","60.02","FORT SMITH A","2202201","2023-01-25 14:00","2023","01","25","14:00","-12.9","","-14.6","","87","","","","13","","9","","24.1","","99.74","","","","-18","","Cloudy"
"-111.96","60.02","FORT SMITH A","2202201","2023-01-25 15:00","2023","01","25","15:00","-12.8","","-14.1","","90","","","","15","","11","","9.7","","99.71","","","","-19","","Snow"
"-111.96","60.02","FORT SMITH A","2202201","2023-01-25 16:00","2023","01","25","16:00","-12.8","","-14.2","","89","","","","15","","13","","16.1","","99.59","","","","-20","","Snow"
"-111.96","60.02","FORT SMITH A","2202201","2023-01-25 17:00","2023","01","25","17:00","-13.0","","-14.7","","88","","","","14","","10","","19.3","","99.43","","","","-19","","Snow"
"-111.96","60.02","FORT SMITH A","2202201","2023-01-25 18:00","2023","01","25","18:00","-13.1","","-14.7","","88","","","","15","","18","","19.3","","99.21","","","","-21","","Snow"
"-111.96","60.02","FORT SMITH A","2202201","2023-01-25 19:00","2023","01","25","19:00","-13.0","","-14.6","","88","","","","15","","21","","19.3","","98.97","","","","-22","","Snow"
"-111.96","60.02","FORT SMITH A","2202201","2023-01-25 20:00","2023","01","25","20:00","-12.8","","-14.4","","88","","","","15","","22","","12.9","","98.77","","","","-22","","Snow,Blowing Snow"
"-111.96","60.02","FORT SMITH A","2202201","2023-01-25 21:00","2023","01","25","21:00","-12.7","","-14.3","","88","","","","15","","21","","19.3","","98.50","","","","-21","","Snow,Blowing Snow"
"-111.96","60.02","FORT SMITH A","2202201","2023-01-25 22:00","2023","01","25","22:00","-12.6","","-14.2","","88","","","","14","","16","","19.3","","98.33","","","","-20","","Snow,Blowing Snow"
"-111.96","60.02","FORT SMITH A","2202201","2023-01-25 23:00","2023","01","25","23:00","-12.5","","-14.5","","86","","","","13","","13","","1.6","","98.13","","","","-19","","Snow,Blowing Snow"
"-111.96","60.02","FORT SMITH A","2202201","2023-01-26 00:00","2023","01","26","00:00","-12.3","","-14.2","","85","","","","12","","10","","2.4","","97.92","","","","-18","","Snow"
"-111.96","60.02","FORT SMITH A","2202201","2023-01-26 01:00","2023","01","26","01:00","-12.2","","-14.2","","85","","","","12","","8","","1.2","","97.81","","","","-17","","Snow"
"-111.96","60.02","FORT SMITH A","2202201","2023-01-26 02:00","2023","01","26","02:00","-12.3","","-14.4","","85","","","","6","","5","","1.6","","97.87","","","","-16","","Snow"
"-111.96","60.02","FORT SMITH A","2202201","2023-01-26 03:00","2023","01","26","03:00","-12.4","","-14.2","","86","","","","4","","8","","1.6","","97.96","","","","-17","","Snow"
"-111.96","60.02","FORT SMITH A","2202201","2023-01-26 04:00","2023","01","26","04:00","-12.4","","-14.5","","84","","","","2","","12","","19.3","","98.10","","","","-19","","Snow"
"-111.96","60.02","FORT SMITH A","2202201","2023-01-26 05:00","2023","01","26","05:00","-12.2","","-14.4","","84","","","","35","","9","","19.3","","98.28","","","","-17","","Snow"
"-111.96","60.02","FORT SMITH A","2202201","2023-01-26 06:00","2023","01","26","06:00","-12.3","","-14.5","","84","","","","33","","13","","16.1","","98.40","","","","-19","","Snow"
"-111.96","60.02","FORT SMITH A","2202201","2023-01-26 07:00","2023","01","26","07:00","-12.3","","-14.4","","84","","","","32","","12","","6.4","","98.55","","","","-19","","Snow"
"-111.96","60.02","FORT SMITH A","2202201","2023-01-26 08:00","2023","01","26","08:00","-12.4","","-14.6","","84","","","","32","","14","","6.4","","98.63","","","","-19","","Snow,Blowing Snow"
"-111.96","60.02","FORT SMITH A","2202201","2023-01-26 09:00","2023","01","26","09:00","-12.3","","-14.7","","83","","","","32","","17","","4.0","","98.74","","","","-20","","Snow,Blowing Snow"
"-111.96","60.02","FORT SMITH A","2202201","2023-01-26 10:00","2023","01","26","10:00","-13.2","","-15.8","","81","","","","30","","23","","6.4","","98.87","","","","-23","","Snow,Blowing Snow"
"-111.96","60.02","FORT SMITH A","2202201","2023-01-26 11:00","2023","01","26","11:00","-13.9","","-17.1","","77","","","","32","","20","","4.8","","98.99","","","","-23","","Snow,Blowing Snow"
"-111.96","60.02","FORT SMITH A","2202201","2023-01-26 12:00","2023","01","26","12:00","-14.2","","-17.3","","77","","","","32","","20","","4.0","","99.07","","","","-23","","Snow,Blowing Snow"
"-111.96","60.02","FORT SMITH A","2202201","2023-01-26 13:00","2023","01","26","13:00","-13.9","","-17.1","","77","","","","34","","20","","12.9","","99.12","","","","-23","","Snow,Blowing Snow"
"-111.96","60.02","FORT SMITH A","2202201","2023-01-26 14:00","2023","01","26","14:00","-14.7","","-17.9","","77","","","","36","","21","","24.1","","99.22","","","","-24","","Snow,Blowing Snow"
"-111.96","60.02","FORT SMITH A","2202201","2023-01-26 15:00","2023","01","26","15:00","-15.3","","-18.4","","78","","","","33","","17","","19.3","","99.36","","","","-24","","Snow,Blowing Snow"
"-111.96","60.02","FORT SMITH A","2202201","2023-01-26 16:00","2023","01","26","16:00","-15.5","","-18.6","","77","","","","33","","17","","24.1","","99.45","","","","-24","","Snow,Blowing Snow"
"-111.96","60.02","FORT SMITH A","2202201","2023-01-26 17:00","2023","01","26","17:00","-16.8","","-19.7","","78","","","","35","","12","","24.1","","99.54","","","","-24","","Mostly Cloudy"
"-111.96","60.02","FORT SMITH A","2202201","2023-01-26 18:00","2023","01","26","18:00","-18.0","","-20.9","","79","","","","34","","14","","24.1","","99.61","","","","-26","","NA"
"-111.96","60.02","FORT SMITH A","2202201","2023-01-26 19:00","2023","01","26","19:00","-19.3","","-21.8","","81","","","","36","","12","","24.1","","99.66","","","","-27","","NA"
"-111.96","60.02","FORT SMITH A","2202201","2023-01-26 20:00","2023","01","26","20:00","-20.4","","-22.8","","82","","","","34","","8","","24.1","","99.73","","","","-27","","Mostly Cloudy"
"-111.96","60.02","FORT SMITH A","2202201","2023-01-26 21:00","2023","01","26","21:00","-21.5","","-24.0","","80","","","","33","","5","","24.1","","99.80","","","","-26","","NA"
"-111.96","60.02","FORT SMITH A","2202201","2023-01-26 22:00","2023","01","26","22:00","-22.9","","-25.4","","80","","","","33","","5","","24.1","","99.86","","","","-28","","NA"
"-111.96","60.02","FORT SMITH A","2202201","2023-01-26 23:00","2023","01","26","23:00","-24.1","","-26.7","","79","","","","36","","7","","24.1","","99.93","","","","-30","","Mainly Clear"
"-111.96","60.02","FORT SMITH A","2202201","2023-01-27 00:00","2023","01","27","00:00","-25.6","","-28.1","","80","","","","33","","3","","24.1","","99.98","","","","-29","","NA"
"-111.96","60.02","FORT SMITH A","2202201","2023-01-27 01:00","2023","01","27","01:00","-26.1","","-28.9","","78","","","","35","","4","","24.1","","100.01","","","","-30","","NA"
"-111.96","60.02","FORT SMITH A","2202201","2023-01-27 02:00","2023","01","27","02:00","-26.4","","-29.1","","79","","","","26","","4","","24.1","","100.09","","","","-31","","Mainly Clear"
"-111.96","60.02","FORT SMITH A","2202201","2023-01-27 03:00","2023","01","27","03:00","-27.2","","-30.0","","78","","","","30","","8","","24.1","","100.18","","","","-35","","NA"
"-111.96","60.02","FORT SMITH A","2202201","2023-01-27 04:00","2023","01","27","04:00","-28.6","","-31.4","","77","","","","33","","6","","24.1","","100.20","","","","-35","","NA"
"-111.96","60.02","FORT SMITH A","2202201","2023-01-27 05:00","2023","01","27","05:00","-28.0","","-30.7","","78","","","","30","","8","","24.1","","100.22","","","","-36","","Clear"
"-111.96","60.02","FORT SMITH A","2202201","2023-01-27 06:00","2023","01","27","06:00","-29.0","","-32.0","","76","","","","27","","6","","24.1","","100.26","","","","-35","","NA"
"-111.96","60.02","FORT SMITH A","2202201","2023-01-27 07:00","2023","01","27","07:00","-28.7","","-31.6","","77","","","","30","","11","","24.1","","100.30","","","","-38","","NA"
"-111.96","60.02","FORT SMITH A","2202201","2023-01-27 08:00","2023","01","27","08:00","-29.6","","-32.7","","75","","","","29","","13","","24.1","","100.31","","","","-40","","Mainly Clear"
"-111.96","60.02","FORT SMITH A","2202201","2023-01-27 09:00","2023","01","27","09:00","-28.4","","-31.5","","76","","","","27","","11","","24.1","","100.31","","","","-38","","NA"
"-111.96","60.02","FORT SMITH A","2202201","2023-01-27 10:00","2023","01","27","10:00","-26.8","","-30.1","","74","","","","29","","12","","4.8","","100.37","","","","-36","","Snow"
"-111.96","60.02","FORT SMITH A","2202201","2023-01-27 11:00","2023","01","27","11:00","-25.6","","-28.9","","75","","","","30","","9","","6.4","","100.41","","","","-33","","Snow"
"-111.96","60.02","FORT SMITH A","2202201","2023-01-27 12:00","2023","01","27","12:00","-24.2","","-27.4","","75","","","","30","","18","","24.1","","100.41","","","","-35","","Snow,Blowing Snow"
"-111.96","60.02","FORT SMITH A","2202201","2023-01-27 13:00","2023","01","27","13:00","-23.2","","-26.6","","74","","","","29","","23","","19.3","","100.43","","","","-35","","Snow,Blowing Snow"
"-111.96","60.02","FORT SMITH A","2202201","2023-01-27 14:00","2023","01","27","14:00","-22.6","","-25.8","","75","","","","28","","22","","4.8","","100.46","","","","-34","","Snow,Blowing Snow"
"-111.96","60.02","FORT SMITH A","2202201","2023-01-27 15:00","2023","01","27","15:00","-22.1","","-25.4","","75","","","","30","","20","","8.1","","100.49","","","","-33","","Snow,Blowing Snow"
"-111.96","60.02","FORT SMITH A","2202201","2023-01-27 16:00","2023","01","27","16:00","-21.7","","-25.2","","74","","","","30","","19","","4.8","","100.56","","","","-32","","Snow,Blowing Snow"
"-111.96","60.02","FORT SMITH A","2202201","2023-01-27 17:00","2023","01","27","17:00","-22.9","","-26.6","","72","","","","31","","19","","19.3","","100.60","","","","-34","","Snow,Blowing Snow"
"-111.96","60.02","FORT SMITH A","2202201","2023-01-27 18:00","2023","01","27","18:00","-24.4","","-27.9","","73","","","","30","","26","","24.1","","100.66","","","","-37","","Snow,Blowing Snow"
"-111.96","60.02","FORT SMITH A","2202201","2023-01-27 19:00","2023","01","27","19:00","-25.2","","-28.6","","74","","","","30","","25","","24.1","","100.67","","","","-38","","Snow,Blowing Snow"
"-111.96","60.02","FORT SMITH A","2202201","2023-01-27 20:00","2023","01","27","20:00","-25.4","","-28.7","","74","","","","30","","22","","24.1","","100.67","","","","-38","","Snow,Blowing Snow"
"-111.96","60.02","FORT SMITH A","2202201","2023-01-27 21:00","2023","01","27","21:00","-25.7","","-29.0","","75","","","","30","","15","","24.1","","100.67","","","","-36","","Snow,Blowing Snow"
"-111.96","60.02","FORT SMITH A","2202201","2023-01-27 22:00","2023","01","27","22:00","-24.9","","-28.2","","74","","","","29","","16","","24.1","","100.70","","","","-35","","Snow,Blowing Snow"
"-111.96","60.02","FORT SMITH A","2202201","2023-01-27 23:00","2023","01","27","23:00","-23.7","","-27.2","","73","","","","30","","21","","24.1","","100.71","","","","-35","","Snow,Blowing Snow"
"-111.96","60.02","FORT SMITH A","2202201","2023-01-28 00:00","2023","01","28","00:00","-22.8","","-26.4","","73","","","","30","","18","","19.3","","100.70","","","","-33","","Snow,Blowing Snow"
"-111.96","60.02","FORT SMITH A","2202201","2023-01-28 01:00","2023","01","28","01:00","-22.0","","-25.6","","73","","","","30","","21","","9.7","","100.68","","","","-33","","Snow,Blowing Snow"
"-111.96","60.02","FORT SMITH A","2202201","2023-01-28 02:00","2023","01","28","02:00","-21.8","","-25.5","","72","","","","30","","26","","9.7","","100.67","","","","-34","","Snow,Blowing Snow"
"-111.96","60.02","FORT SMITH A","2202201","2023-01-28 03:00","2023","01","28","03:00","-21.9","","-25.6","","73","","","","30","","21","","9.7","","100.69","","","","-33","","Snow,Blowing Snow"
"-111.96","60.02","FORT SMITH A","2202201","2023-01-28 04:00","2023","01","28","04:00","-22.2","","-26.1","","71","","","","30","","29","","4.8","","100.72","","","","-35","","Snow,Blowing Snow"
"-111.96","60.02","FORT SMITH A","2202201","2023-01-28 05:00","2023","01","28","05:00","-23.1","","-27.1","","70","","","","31","","23","","4.8","","100.70","","","","-35","","Snow,Blowing Snow"
"-111.96","60.02","FORT SMITH A","2202201","2023-01-28 06:00","2023","01","28","06:00","-23.5","","-27.3","","72","","","","31","","16","","4.8","","100.70","","","","-34","","Snow,Blowing Snow"
"-111.96","60.02","FORT SMITH A","2202201","2023-01-28 07:00","2023","01","28","07:00","-23.6","","-27.4","","72","","","","31","","22","","4.8","","100.71","","","","-36","","Snow,Blowing Snow"
"-111.96","60.02","FORT SMITH A","2202201","2023-01-28 08:00","2023","01","28","08:00","-24.0","","-27.8","","72","","","","31","","23","","6.4","","100.68","","","","-36","","Snow,Blowing Snow"
"-111.96","60.02","FORT SMITH A","2202201","2023-01-28 09:00","2023","01","28","09:00"
"-111.96","60.02","FORT SMITH A","2202201","2023-01-28 10:00","2023","01","28","10:00","-24.1","","-28.0","","71","","","","30","","22","","24.1","","100.72","","","","-36","","Snow,Blowing Snow"
"-111.96","60.02","FORT SMITH A","2202201","2023-01-28 11:00","2023","01","28","11:00","-23.5","","-27.5","","70","","","","31","","16","","24.1","","100.76","","","","-34","","Snow,Blowing Snow"
"-111.96","60.02","FORT SMITH A","2202201","2023-01-28 12:00","2023","01","28","12:00","-23.2","","-27.6","","68","","","","31","","24","","4.8","","100.83","","","","-36","","Snow,Blowing Snow"
"-111.96","60.02","FORT SMITH A","2202201","2023-01-28 13:00","2023","01","28","13:00","-23.0","","-27.5","","67","","","","32","","22","","3.2","","100.81","","","","-35","","Snow,Blowing Snow"
"-111.96","60.02","FORT SMITH A","2202201","2023-01-28 14:00","2023","01","28","14:00","-23.3","","-28.1","","65","","","","32","","30","","6.4","","100.83","","","","-37","","Snow,Blowing Snow"
"-111.96","60.02","FORT SMITH A","2202201","2023-01-28 15:00","2023","01","28","15:00","-23.6","","-28.3","","66","","","","32","","19","","4.0","","100.91","","","","-35","","Snow,Blowing Snow"
"-111.96","60.02","FORT SMITH A","2202201","2023-01-28 16:00","2023","01","28","16:00","-24.6","","-29.0","","68","","","","33","","13","","24.1","","100.99","","","","-34","","Snow,Blowing Snow"
"-111.96","60.02","FORT SMITH A","2202201","2023-01-28 17:00","2023","01","28","17:00","-25.1","","-29.2","","69","","","","32","","15","","24.1","","101.06","","","","-35","","Blowing Snow"
"-111.96","60.02","FORT SMITH A","2202201","2023-01-28 18:00","2023","01","28","18:00","-25.8","","-29.6","","71","","","","30","","17","","24.1","","101.08","","","","-37","","Blowing Snow"
"-111.96","60.02","FORT SMITH A","2202201","2023-01-28 19:00","2023","01","28","19:00","-26.0","","-29.5","","73","","","","30","","20","","24.1","","101.10","","","","-38","","Blowing Snow"
"-111.96","60.02","FORT SMITH A","2202201","2023-01-28 20:00","2023","01","28","20:00","-26.2","","-29.5","","74","","","","30","","21","","24.1","","101.08","","","","-39","","Blowing Snow"
"-111.96","60.02","FORT SMITH A","2202201","2023-01-28 21:00","2023","01","28","21:00","-27.2","","-30.3","","75","","","","30","","14","","24.1","","101.07","","","","-38","","Blowing Snow"
"-111.96","60.02","FORT SMITH A","2202201","2023-01-28 22:00","2023","01","28","22:00","-27.6","","-30.7","","76","","","","29","","11","","24.1","","101.02","","","","-37","","NA"
"-111.96","60.02","FORT SMITH A","2202201","2023-01-28 23:00","2023","01","28","23:00","-27.0","","-30.0","","76","","","","28","","13","","24.1","","100.99","","","","-37","","Clear"
"-111.96","60.02","FORT SMITH A","2202201","2023-01-29 00:00","2023","01","29","00:00","-27.4","","-30.5","","75","","","","27","","13","","24.1","","100.93","","","","-37","","Ice Crystals"
"-111.96","60.02","FORT SMITH A","2202201","2023-01-29 01:00","2023","01","29","01:00","-27.1","","-30.3","","75","","","","28","","17","","24.1","","100.88","","","","-39","","NA"
"-111.96","60.02","FORT SMITH A","2202201","2023-01-29 02:00","2023","01","29","02:00","-26.8","","-30.1","","75","","","","26","","13","","24.1","","100.85","","","","-37","","Clear"
"-111.96","60.02","FORT SMITH A","2202201","2023-01-29 03:00","2023","01","29","03:00","-28.7","","-32.0","","74","","","","22","","12","","24.1","","100.77","","","","-39","","NA"
"-111.96","60.02","FORT SMITH A","2202201","2023-01-29 04:00","2023","01","29","04:00","-28.2","","-31.3","","76","","","","22","","6","","24.1","","100.69","","","","-34","","NA"
"-111.96","60.02","FORT SMITH A","2202201","2023-01-29 05:00","2023","01","29","05:00","-30.7","","-33.9","","74","","","","20","","7","","24.1","","100.59","","","","-38","","Clear"
"-111.96","60.02","FORT SMITH A","2202201","2023-01-29 06:00","2023","01","29","06:00","-29.0","","-32.0","","76","","","","21","","7","","24.1","","100.40","","","","-36","","NA"
"-111.96","60.02","FORT SMITH A","2202201","2023-01-29 07:00","2023","01","29","07:00","-31.8","","-35.0","","73","","","","16","","7","","24.1","","100.26","","","","-39","","NA"
"-111.96","60.02","FORT SMITH A","2202201","2023-01-29 08:00","2023","01","29","08:00","-31.7","","-35.0","","74","","","","16","","8","","24.1","","100.12","","","","-40","","Mainly Clear"
"-111.96","60.02","FORT SMITH A","2202201","2023-01-29 09:00","2023","01","29","09:00","-28.1","","-31.3","","75","","","","16","","10","","24.1","","99.96","","","","-37","","NA"
"-111.96","60.02","FORT SMITH A","2202201","2023-01-29 10:00","2023","01","29","10:00","-27.5","","-31.1","","73","","","","13","","8","","24.1","","99.80","","","","-35","","NA"
"-111.96","60.02","FORT SMITH A","2202201","2023-01-29 11:00","2023","01","29","11:00","-26.5","","-30.1","","72","","","","15","","10","","24.1","","99.70","","","","-35","","Mainly Clear"
"-111.96","60.02","FORT SMITH A","2202201","2023-01-29 12:00","2023","01","29","12:00","-25.8","","-29.5","","71","","","","15","","10","","24.1","","99.58","","","","-34","","NA"
"-111.96","60.02","FORT SMITH A","2202201","2023-01-29 13:00","2023","01","29","13:00","-23.1","","-27.5","","68","","","","15","","7","","24.1","","99.50","","","","-29","","NA"
"-111.96","60.02","FORT SMITH A","2202201","2023-01-29 14:00","2023","01","29","14:00","-22.0","","-26.8","","66","","","","18","","4","","24.1","","99.47","","","","-26","","Clear"
"-111.96","60.02","FORT SMITH A","2202201","2023-01-29 15:00","2023","01","29","15:00","-21.0","","-25.5","","67","","","","36","","1","","24.1","","99.47","","","","-22","","NA"
"-111.96","60.02","FORT SMITH A","2202201","2023-01-29 16:00","2023","01","29","16:00","-22.9","","-26.9","","70","","","","31","","7","","24.1","","99.49","","","","-29","","NA"
"-111.96","60.02","FORT SMITH A","2202201","2023-01-29 17:00","2023","01","29","17:00","-20.1","","-23.7","","74","","","","34","","12","","24.1","","99.55","","","","-28","","Mainly Clear"
"-111.96","60.02","FORT SMITH A","2202201","2023-01-29 18:00","2023","01","29","18:00","-20.5","","-23.9","","75","","","","32","","16","","24.1","","99.64","","","","-30","","NA"
"-111.96","60.02","FORT SMITH A","2202201","2023-01-29 19:00","2023","01","29","19:00","-21.6","","-24.7","","76","","","","31","","10","","24.1","","99.66","","","","-29","","NA"
"-111.96","60.02","FORT SMITH A","2202201","2023-01-29 20:00","2023","01","29","20:00","-23.2","","-26.3","","76","","","","30","","20","","19.3","","99.75","","","","-35","","Snow"
"-111.96","60.02","FORT SMITH A","2202201","2023-01-29 21:00","2023","01","29","21:00","-25.6","","-28.8","","76","","","","30","","21","","24.1","","99.83","","","","-38","","Snow"
"-111.96","60.02","FORT SMITH A","2202201","2023-01-29 22:00","2023","01","29","22:00","-27.0","","-30.2","","75","","","","31","","12","","24.1","","99.85","","","","-37","","NA"
"-111.96","60.02","FORT SMITH A","2202201","2023-01-29 23:00","2023","01","29","23:00","-28.0","","-31.3","","74","","","","30","","13","","24.1","","99.89","","","","-38","","Clear"
"-111.96","60.02","FORT SMITH A","2202201","2023-01-30 00:00","2023","01","30","00:00","-28.0","","-31.2","","75","","","","30","","11","","24.1","","99.88","","","","-37","","NA"
"-111.96","60.02","FORT SMITH A","2202201","2023-01-30 01:00","2023","01","30","01:00","-28.3","","-31.5","","74","","","","30","","13","","24.1","","99.84","","","","-39","","NA"
"-111.96","60.02","FORT SMITH A","2202201","2023-01-30 02:00","2023","01","30","02:00","-28.4","","-31.6","","74","","","","30","","11","","24.1","","99.86","","","","-38","","Clear"
"-111.96","60.02","FORT SMITH A","2202201","2023-01-30 03:00","2023","01","30","03:00","-28.1","","-31.4","","74","","","","30","","13","","24.1","","99.85","","","","-38","","NA"
"-111.96","60.02","FORT SMITH A","2202201","2023-01-30 04:00","2023","01","30","04:00","-29.7","","-32.9","","74","","","","28","","10","","24.1","","99.82","","","","-39","","NA"
"-111.96","60.02","FORT SMITH A","2202201","2023-01-30 05:00","2023","01","30","05:00","-30.4","","-33.8","","73","","","","25","","9","","24.1","","99.79","","","","-39","","Clear"
"-111.96","60.02","FORT SMITH A","2202201","2023-01-30 06:00","2023","01","30","06:00","-32.5","","-36.0","","72","","","","25","","6","","24.1","","99.74","","","","-39","","NA"
"-111.96","60.02","FORT SMITH A","2202201","2023-01-30 07:00","2023","01","30","07:00","-30.4","","-33.8","","73","","","","29","","4","","24.1","","99.73","","","","-35","","NA"
"-111.96","60.02","FORT SMITH A","2202201","2023-01-30 08:00","2023","01","30","08:00","-30.9","","-34.3","","73","","","","28","","6","","24.1","","99.66","","","","-38","","Clear"
"-111.96","60.02","FORT SMITH A","2202201","2023-01-30 09:00","2023","01","30","09:00","-31.7","","-35.2","","72","","","","30","","4","","24.1","","99.60","","","","-36","","NA"
"-111.96","60.02","FORT SMITH A","2202201","2023-01-30 10:00","2023","01","30","10:00","-31.4","","-34.9","","72","","","","22","","8","","24.1","","99.58","","","","-40","","NA"
"-111.96","60.02","FORT SMITH A","2202201","2023-01-30 11:00","2023","01","30","11:00","-28.1","","-31.4","","74","","","","27","","9","","24.1","","99.53","","","","-36","","Mainly Clear"
"-111.96","60.02","FORT SMITH A","2202201","2023-01-30 12:00","2023","01","30","12:00","-26.6","","-29.8","","74","","","","28","","10","","24.1","","99.49","","","","-35","","NA"
"-111.96","60.02","FORT SMITH A","2202201","2023-01-30 13:00","2023","01","30","13:00","-26.4","","-29.7","","75","","","","29","","9","","24.1","","99.48","","","","-34","","NA"
"-111.96","60.02","FORT SMITH A","2202201","2023-01-30 14:00","2023","01","30","14:00","-25.9","","-29.1","","75","","","","30","","5","","24.1","","99.46","","","","-31","","Mainly Clear"
"-111.96","60.02","FORT SMITH A","2202201","2023-01-30 15:00","2023","01","30","15:00","-24.7","","-27.9","","75","","","","36","","1","","24.1","","99.41","","","","-26","","NA"
"-111.96","60.02","FORT SMITH A","2202201","2023-01-30 16:00","2023","01","30","16:00","-25.0","","-28.1","","76","","","","31","","7","","24.1","","99.42","","","","-31","","NA"
"-111.96","60.02","FORT SMITH A","2202201","2023-01-30 17:00","2023","01","30","17:00","-23.9","","-26.8","","78","","","","31","","11","","24.1","","99.39","","","","-32","","Mainly Clear"
"-111.96","60.02","FORT SMITH A","2202201","2023-01-30 18:00","2023","01","30","18:00","-24.1","","-27.1","","77","","","","33","","11","","24.1","","99.37","","","","-33","","NA"
"-111.96","60.02","FORT SMITH A","2202201","2023-01-30 19:00","2023","01","30","19:00","-24.9","","-28.0","","76","","","","33","","12","","24.1","","99.37","","","","-34","","NA"
"-111.96","60.02","FORT SMITH A","2202201","2023-01-30 20:00","2023","01","30","20:00","-26.0","","-29.2","","75","","","","32","","7","","24.1","","99.39","","","","-33","","Clear"
"-111.96","60.02","FORT SMITH A","2202201","2023-01-30 21:00","2023","01","30","21:00","-27.3","","-30.5","","75","","","","33","","10","","24.1","","99.42","","","","-36","","NA"
"-111.96","60.02","FORT SMITH A","2202201","2023-01-30 22:00","2023","01","30","22:00","-28.5","","-31.8","","74","","","","30","","10","","24.1","","99.42","","","","-37","","NA"
"-111.96","60.02","FORT SMITH A","2202201","2023-01-30 23:00","2023","01","30","23:00","-28.6","","-31.9","","74","","","","31","","7","","24.1","","99.44","","","","-36","","Mainly Clear"
"-111.96","60.02","FORT SMITH A","2202201","2023-01-31 00:00","2023","01","31","00:00","-29.1","","-32.4","","74","","","","30","","5","","24.1","","99.48","","","","-35","","NA"
"-111.96","60.02","FORT SMITH A","2202201","2023-01-31 01:00","2023","01","31","01:00","-31.2","","-34.6","","72","","","","30","","5","","24.1","","99.47","","","","-37","","NA"
"-111.96","60.02","FORT SMITH A","2202201","2023-01-31 02:00","2023","01","31","02:00","-30.9","","-34.3","","72","","","","30","","9","","24.1","","99.47","","","","-40","","Ice Crystals"
"-111.96","60.02","FORT SMITH A","2202201","2023-01-31 03:00","2023","01","31","03:00","-30.6","","-34.1","","72","","","","30","","7","","24.1","","99.48","","","","-38","","NA"
"-111.96","60.02","FORT SMITH A","2202201","2023-01-31 04:00","2023","01","31","04:00","-29.7","","-33.1","","73","","","","29","","9","","24.1","","99.50","","","","-38","","Snow"
"-111.96","60.02","FORT SMITH A","2202201","2023-01-31 05:00","2023","01","31","05:00","-29.8","","-33.3","","73","","","","30","","5","","24.1","","99.45","","","","-35","","Snow"
"-111.96","60.02","FORT SMITH A","2202201","2023-01-31 06:00","2023","01","31","06:00","-29.3","","-32.8","","73","","","","27","","5","","24.1","","99.42","","","","-35","","Snow"
"-111.96","60.02","FORT SMITH A","2202201","2023-01-31 07:00","2023","01","31","07:00","-28.5","","-31.9","","73","","","","28","","8","","16.1","","99.40","","","","-36","","Snow"
"-111.96","60.02","FORT SMITH A","2202201","2023-01-31 08:00","2023","01","31","08:00","-28.1","","-31.4","","74","","","","31","","4","","16.1","","99.34","","","","-32","","Snow"
"-111.96","60.02","FORT SMITH A","2202201","2023-01-31 09:00","2023","01","31","09:00","-28.2","","-31.6","","73","","","","22","","5","","19.3","","99.32","","","","-34","","Snow"
"-111.96","60.02","FORT SMITH A","2202201","2023-01-31 10:00","2023","01","31","10:00","-27.6","","-31.0","","74","","","","24","","7","","24.1","","99.31","","","","-34","","NA"
"-111.96","60.02","FORT SMITH A","2202201","2023-01-31 11:00","2023","01","31","11:00","-27.0","","-30.3","","74","","","","28","","10","","16.1","","99.32","","","","-36","","Blowing Snow"
"-111.96","60.02","FORT SMITH A","2202201","2023-01-31 12:00","2023","01","31","12:00","-26.6","","-29.9","","74","","","","29","","14","","24.1","","99.31","","","","-37","","Blowing Snow"
"-111.96","60.02","FORT SMITH A","2202201","2023-01-31 13:00","2023","01","31","13:00","-26.2","","-29.5","","74","","","","29","","13","","24.1","","99.27","","","","-36","","Blowing Snow"
"-111.96","60.02","FORT SMITH A","2202201","2023-01-31 14:00","2023","01","31","14:00","-25.5","","-28.7","","75","","","","26","","12","","24.1","","99.25","","","","-35","","Clear"
"-111.96","60.02","FORT SMITH A","2202201","2023-01-31 15:00","2023","01","31","15:00","-25.3","","-28.5","","75","","","","28","","13","","16.1","","99.27","","","","-35","","Snow"
"-111.96","60.02","FORT SMITH A","2202201","2023-01-31 16:00","2023","01","31","16:00","-25.5","","-28.8","","75","","","","27","","8","","9.7","","99.26","","","","-33","","Snow"
"-111.96","60.02","FORT SMITH A","2202201","2023-01-31 17:00","2023","01","31","17:00","-27.0","","-30.3","","74","","","","26","","6","","19.3","","99.23","","","","-33","","Snow"
"-111.96","60.02","FORT SMITH A","2202201","2023-01-31 18:00","2023","01","31","18:00","-26.1","","-29.3","","75","","","","21","","8","","19.3","","99.19","","","","-33","","Snow"
"-111.96","60.02","FORT SMITH A","2202201","2023-01-31 19:00","2023","01","31","19:00","-24.3","","-27.4","","76","","","","27","","15","","19.3","","99.16","","","","-34","","Snow"
"-111.96","60.02","FORT SMITH A","2202201","2023-01-31 20:00","2023","01","31","20:00","-24.1","","-27.2","","76","","","","29","","16","","19.3","","99.15","","","","-34","","Snow,Blowing Snow"
"-111.96","60.02","FORT SMITH A","2202201","2023-01-31 21:00","2023","01","31","21:00","-25.1","","-28.4","","75","","","","31","","18","","24.1","","99.20","","","","-36","","Snow,Blowing Snow"
"-111.96","60.02","FORT SMITH A","2202201","2023-01-31 22:00","2023","01","31","22:00","-26.8","","-30.1","","74","","","","32","","14","","24.1","","99.25","","","","-37","","Snow"
"-111.96","60.02","FORT SMITH A","2202201","2023-01-31 23:00","2023","01","31","23:00","-28.1","","-31.6","","73","","","","30","","17","","24.1","","99.30","","","","-40","","Snow"
