"Longitude (x)","Latitude (y)","Station Name","Climate ID","Date/Time (LST)","Year","Month","Day","Time (LST)","Temp (°C)","Temp Flag","Dew Point Temp (°C)","Dew Point Temp Flag","Rel Hum (%)","Rel Hum Flag","Precip. Amount (mm)","Precip. Amount Flag","Wind Dir (10s deg)","Wind Dir Flag","Wind Spd (km/h)","Wind Spd Flag","Visibility (km)","Visibility Flag","Stn Press (kPa)","Stn Press Flag","Hmdx","Hmdx Flag","Wind Chill","Wind Chill Flag","Weather"
"-94.71","56.36","GILLAM A","5061022","2018-06-01 00:00","2018","06","01","00:00"
"-94.71","56.36","GILLAM A","5061022","2018-06-01 01:00","2018","06","01","01:00"
"-94.71","56.36","GILLAM A","5061022","2018-06-01 02:00","2018","06","01","02:00"
"-94.71","56.36","GILLAM A","5061022","2018-06-01 03:00","2018","06","01","03:00"
"-94.71","56.36","GILLAM A","5061022","2018-06-01 04:00","2018","06","01","04:00"
"-94.71","56.36","GILLAM A","5061022","2018-06-01 05:00","2018","06","01","05:00"
"-94.71","56.36","GILLAM A","5061022","2018-06-01 06:00","2018","06","01","06:00"
"-94.71","56.36","GILLAM A","5061022","2018-06-01 07:00","2018","06","01","07:00","0.7","","-5.6","","63","","","","16","","14","","24.1","","101.25","","","","","","NA"
"-94.71","56.36","GILLAM A","5061022","2018-06-01 08:00","2018","06","01","08:00","2.8","","-5.3","","55","","","","11","","10","","24.1","","101.24","","","","","","NA"
"-94.71","56.36","GILLAM A","5061022","2018-06-01 09:00","2018","06","01","09:00","5.3","","-4.9","","48","","","","10","","8","","24.1","","101.23","","","","","","Clear"
"-94.71","56.36","GILLAM A","5061022","2018-06-01 10:00","2018","06","01","10:00","6.3","","-5.3","","43","","","","11","","13","","24.1","","101.21","","","","","","NA"
"-94.71","56.36","GILLAM A","5061022","2018-06-01 11:00","2018","06","01","11:00","7.8","","-5.2","","39","","","","17","","9","","24.1","","101.23","","","","","","NA"
"-94.71","56.36","GILLAM A","5061022","2018-06-01 12:00","2018","06","01","12:00","9.3","","-3.7","","40","","","","7","","12","","24.1","","101.11","","","","","","Mainly Clear"
"-94.71","56.36","GILLAM A","5061022","2018-06-01 13:00","2018","06","01","13:00","10.0","","-5.9","","32","","","","5","","18","","24.1","","101.07","","","","","","NA"
"-94.71","56.36","GILLAM A","5061022","2018-06-01 14:00","2018","06","01","14:00","11.1","","-4.8","","33","","","","4","","14","","24.1","","101.04","","","","","","NA"
"-94.71","56.36","GILLAM A","5061022","2018-06-01 15:00","2018","06","01","15:00","11.9","","-4.3","","32","","","","5","","17","","24.1","","101.01","","","","","","Mainly Clear"
"-94.71","56.36","GILLAM A","5061022","2018-06-01 16:00","2018","06","01","16:00","12.1","","-4.4","","31","","","","5","","16","","24.1","","100.99","","","","","","NA"
"-94.71","56.36","GILLAM A","5061022","2018-06-01 17:00","2018","06","01","17:00","12.1","","-6.2","","27","","","","11","","13","","24.1","","100.97","","","","","","NA"
"-94.71","56.36","GILLAM A","5061022","2018-06-01 18:00","2018","06","01","18:00","11.6","","-5.2","","30","","","","12","","16","","24.1","","100.95","","","","","","Cloudy"
"-94.71","56.36","GILLAM A","5061022","2018-06-01 19:00","2018","06","01","19:00"
"-94.71","56.36","GILLAM A","5061022","2018-06-01 20:00","2018","06","01","20:00"
"-94.71","56.36","GILLAM A","5061022","2018-06-01 21:00","2018","06","01","21:00"
"-94.71","56.36","GILLAM A","5061022","2018-06-01 22:00","2018","06","01","22:00"
"-94.71","56.36","GILLAM A","5061022","2018-06-01 23:00","2018","06","01","23:00"
"-94.71","56.36","GILLAM A","5061022","2018-06-02 00:00","2018","06","02","00:00"
"-94.71","56.36","GILLAM A","5061022","2018-06-02 01:00","2018","06","02","01:00"
"-94.71","56.36","GILLAM A","5061022","2018-06-02 02:00","2018","06","02","02:00"
"-94.71","56.36","GILLAM A","5061022","2018-06-02 03:00","2018","06","02","03:00"
"-94.71","56.36","GILLAM A","5061022","2018-06-02 04:00","2018","06","02","04:00"
"-94.71","56.36","GILLAM A","5061022","2018-06-02 05:00","2018","06","02","05:00"
"-94.71","56.36","GILLAM A","5061022","2018-06-02 06:00","2018","06","02","06:00"
"-94.71","56.36","GILLAM A","5061022","2018-06-02 07:00","2018","06","02","07:00","5.6","","-1.7","","59","","","","10","","18","","24.1","","100.55","","","","","","NA"
"-94.71","56.36","GILLAM A","5061022","2018-06-02 08:00","2018","06","02","08:00","6.0","","-1.5","","58","","","","10","","14","","24.1","","100.50","","","","","","NA"
"-94.71","56.36","GILLAM A","5061022","2018-06-02 09:00","2018","06","02","09:00","7.2","","-1.2","","55","","","","9","","16","","24.1","","100.46","","","","","","Cloudy"
"-94.71","56.36","GILLAM A","5061022","2018-06-02 10:00","2018","06","02","10:00","8.0","","-1.2","","52","","","","8","","17","","24.1","","100.39","","","","","","NA"
"-94.71","56.36","GILLAM A","5061022","2018-06-02 11:00","2018","06","02","11:00","8.0","","-1.7","","50","","","","10","","18","","24.1","","100.30","","","","","","NA"
"-94.71","56.36","GILLAM A","5061022","2018-06-02 12:00","2018","06","02","12:00","7.9","","-1.6","","51","","","","10","","15","","24.1","","100.24","","","","","","Cloudy"
"-94.71","56.36","GILLAM A","5061022","2018-06-02 13:00","2018","06","02","13:00","7.7","","-1.4","","52","","","","9","","18","","24.1","","100.15","","","","","","Rain"
"-94.71","56.36","GILLAM A","5061022","2018-06-02 14:00","2018","06","02","14:00","8.4","","-1.7","","49","","","","8","","22","","24.1","","100.04","","","","","","Rain"
"-94.71","56.36","GILLAM A","5061022","2018-06-02 15:00","2018","06","02","15:00","9.0","","-1.9","","46","","","","9","","23","","24.1","","99.93","","","","","","Cloudy"
"-94.71","56.36","GILLAM A","5061022","2018-06-02 16:00","2018","06","02","16:00","8.6","","-1.1","","50","","","","8","","14","","24.1","","99.85","","","","","","NA"
"-94.71","56.36","GILLAM A","5061022","2018-06-02 17:00","2018","06","02","17:00","6.7","","1.9","","71","","","","9","","11","","24.1","","99.92","","","","","","Rain"
"-94.71","56.36","GILLAM A","5061022","2018-06-02 18:00","2018","06","02","18:00","6.5","","2.6","","76","","","","7","","9","","24.1","","99.91","","","","","","Cloudy"
"-94.71","56.36","GILLAM A","5061022","2018-06-02 19:00","2018","06","02","19:00"
"-94.71","56.36","GILLAM A","5061022","2018-06-02 20:00","2018","06","02","20:00"
"-94.71","56.36","GILLAM A","5061022","2018-06-02 21:00","2018","06","02","21:00"
"-94.71","56.36","GILLAM A","5061022","2018-06-02 22:00","2018","06","02","22:00"
"-94.71","56.36","GILLAM A","5061022","2018-06-02 23:00","2018","06","02","23:00"
"-94.71","56.36","GILLAM A","5061022","2018-06-03 00:00","2018","06","03","00:00"
"-94.71","56.36","GILLAM A","5061022","2018-06-03 01:00","2018","06","03","01:00"
"-94.71","56.36","GILLAM A","5061022","2018-06-03 02:00","2018","06","03","02:00"
"-94.71","56.36","GILLAM A","5061022","2018-06-03 03:00","2018","06","03","03:00"
"-94.71","56.36","GILLAM A","5061022","2018-06-03 04:00","2018","06","03","04:00"
"-94.71","56.36","GILLAM A","5061022","2018-06-03 05:00","2018","06","03","05:00"
"-94.71","56.36","GILLAM A","5061022","2018-06-03 06:00","2018","06","03","06:00"
"-94.71","56.36","GILLAM A","5061022","2018-06-03 07:00","2018","06","03","07:00","2.8","","2.2","","96","","","","8","","17","","24.1","","99.51","","","","","","Rain"
"-94.71","56.36","GILLAM A","5061022","2018-06-03 08:00","2018","06","03","08:00","3.0","","2.3","","96","","","","7","","14","","24.1","","99.49","","","","","","NA"
"-94.71","56.36","GILLAM A","5061022","2018-06-03 09:00","2018","06","03","09:00","3.2","","2.5","","95","","","","7","","15","","24.1","","99.48","","","","","","Rain"
"-94.71","56.36","GILLAM A","5061022","2018-06-03 10:00","2018","06","03","10:00","3.5","","2.8","","95","","","","8","","11","","24.1","","99.48","","","","","","Rain"
"-94.71","56.36","GILLAM A","5061022","2018-06-03 11:00","2018","06","03","11:00","3.4","","2.6","","94","","","","8","","15","","24.1","","99.49","","","","","","Rain"
"-94.71","56.36","GILLAM A","5061022","2018-06-03 12:00","2018","06","03","12:00","3.5","","2.6","","94","","","","7","","20","","24.1","","99.49","","","","","","Rain,Fog"
"-94.71","56.36","GILLAM A","5061022","2018-06-03 13:00","2018","06","03","13:00","3.2","","2.4","","94","","","","7","","18","","6.4","","99.51","","","","","","Rain,Fog"
"-94.71","56.36","GILLAM A","5061022","2018-06-03 14:00","2018","06","03","14:00","3.0","","2.2","","94","","","","7","","15","","6.4","","99.55","","","","","","Rain,Fog"
"-94.71","56.36","GILLAM A","5061022","2018-06-03 15:00","2018","06","03","15:00","3.1","","2.2","","94","","","","8","","14","","6.4","","99.58","","","","","","Rain,Fog"
"-94.71","56.36","GILLAM A","5061022","2018-06-03 16:00","2018","06","03","16:00","3.7","","2.9","","94","","","","7","","9","","6.4","","99.60","","","","","","Rain,Fog"
"-94.71","56.36","GILLAM A","5061022","2018-06-03 17:00","2018","06","03","17:00","3.9","","2.9","","93","","","","8","","7","","6.4","","99.62","","","","","","Rain,Fog"
"-94.71","56.36","GILLAM A","5061022","2018-06-03 18:00","2018","06","03","18:00","3.9","","3.0","","94","","","","7","","15","","6.4","","99.64","","","","","","Rain,Fog"
"-94.71","56.36","GILLAM A","5061022","2018-06-03 19:00","2018","06","03","19:00"
"-94.71","56.36","GILLAM A","5061022","2018-06-03 20:00","2018","06","03","20:00"
"-94.71","56.36","GILLAM A","5061022","2018-06-03 21:00","2018","06","03","21:00"
"-94.71","56.36","GILLAM A","5061022","2018-06-03 22:00","2018","06","03","22:00"
"-94.71","56.36","GILLAM A","5061022","2018-06-03 23:00","2018","06","03","23:00"
"-94.71","56.36","GILLAM A","5061022","2018-06-04 00:00","2018","06","04","00:00"
"-94.71","56.36","GILLAM A","5061022","2018-06-04 01:00","2018","06","04","01:00"
"-94.71","56.36","GILLAM A","5061022","2018-06-04 02:00","2018","06","04","02:00"
"-94.71","56.36","GILLAM A","5061022","2018-06-04 03:00","2018","06","04","03:00"
"-94.71","56.36","GILLAM A","5061022","2018-06-04 04:00","2018","06","04","04:00"
"-94.71","56.36","GILLAM A","5061022","2018-06-04 05:00","2018","06","04","05:00"
"-94.71","56.36","GILLAM A","5061022","2018-06-04 06:00","2018","06","04","06:00"
"-94.71","56.36","GILLAM A","5061022","2018-06-04 07:00","2018","06","04","07:00","-0.1","","-1.0","","94","","","","6","","14","","9.7","","100.15","","","","-4","","Freezing Rain"
"-94.71","56.36","GILLAM A","5061022","2018-06-04 08:00","2018","06","04","08:00","0.2","","-1.0","","92","","","","5","","17","","9.7","","100.17","","","","","","Rain"
"-94.71","56.36","GILLAM A","5061022","2018-06-04 09:00","2018","06","04","09:00","0.8","","-0.9","","89","","","","5","","13","","12.9","","100.19","","","","","","Rain"
"-94.71","56.36","GILLAM A","5061022","2018-06-04 10:00","2018","06","04","10:00","1.9","","-0.1","","86","","","","4","","13","","12.9","","100.19","","","","","","Rain"
"-94.71","56.36","GILLAM A","5061022","2018-06-04 11:00","2018","06","04","11:00","4.0","","0.5","","78","","","","6","","12","","12.9","","100.22","","","","","","Rain"
"-94.71","56.36","GILLAM A","5061022","2018-06-04 12:00","2018","06","04","12:00","6.3","","1.1","","69","","","","6","","18","","24.1","","100.22","","","","","","Mostly Cloudy"
"-94.71","56.36","GILLAM A","5061022","2018-06-04 13:00","2018","06","04","13:00","8.2","","1.5","","63","","","","5","","20","","24.1","","100.17","","","","","","NA"
"-94.71","56.36","GILLAM A","5061022","2018-06-04 14:00","2018","06","04","14:00","9.1","","2.3","","62","","","","2","","13","","24.1","","100.16","","","","","","NA"
"-94.71","56.36","GILLAM A","5061022","2018-06-04 15:00","2018","06","04","15:00","10.0","","1.5","","55","","","","8","","12","","24.1","","100.13","","","","","","Mainly Clear"
"-94.71","56.36","GILLAM A","5061022","2018-06-04 16:00","2018","06","04","16:00","10.5","","0.3","","49","","","","5","","19","","24.1","","100.10","","","","","","NA"
"-94.71","56.36","GILLAM A","5061022","2018-06-04 17:00","2018","06","04","17:00","10.8","","1.5","","53","","","","8","","12","","24.1","","100.11","","","","","","NA"
"-94.71","56.36","GILLAM A","5061022","2018-06-04 18:00","2018","06","04","18:00","10.0","","1.6","","56","","","","8","","12","","24.1","","100.12","","","","","","Clear"
"-94.71","56.36","GILLAM A","5061022","2018-06-04 19:00","2018","06","04","19:00","8.6","","1.1","","59","","","","7","","16","","24.1","","100.16","","","","","","NA"
"-94.71","56.36","GILLAM A","5061022","2018-06-04 20:00","2018","06","04","20:00","6.3","","1.2","","69","","","","5","","19","","24.1","","100.15","","","","","","NA"
"-94.71","56.36","GILLAM A","5061022","2018-06-04 21:00","2018","06","04","21:00","4.1","","0.2","","76","","","","7","","14","","24.1","","100.16","","","","","","Mainly Clear"
"-94.71","56.36","GILLAM A","5061022","2018-06-04 22:00","2018","06","04","22:00","2.1","","-0.4","","83","","","","6","","16","","24.1","","100.15","","","","","","NA"
"-94.71","56.36","GILLAM A","5061022","2018-06-04 23:00","2018","06","04","23:00","0.1","","-1.5","","89","","","","6","","18","","24.1","","100.14","","","","","","NA"
"-94.71","56.36","GILLAM A","5061022","2018-06-05 00:00","2018","06","05","00:00","-0.6","","-1.5","","94","","","","7","","16","","24.1","","100.15","","","","-5","","Cloudy"
"-94.71","56.36","GILLAM A","5061022","2018-06-05 01:00","2018","06","05","01:00","-0.4","","-1.3","","94","","","","7","","16","","24.1","","100.10","","","","-5","","NA"
"-94.71","56.36","GILLAM A","5061022","2018-06-05 02:00","2018","06","05","02:00","-0.3","","-1.3","","93","","","","8","","13","","24.1","","100.10","","","","-4","","NA"
"-94.71","56.36","GILLAM A","5061022","2018-06-05 03:00","2018","06","05","03:00","-0.5","","-1.4","","94","","","","8","","10","","24.1","","100.12","","","","-4","","Cloudy"
"-94.71","56.36","GILLAM A","5061022","2018-06-05 04:00","2018","06","05","04:00","-0.6","","-1.4","","94","","","","8","","8","","24.1","","100.09","","","","-3","","NA"
"-94.71","56.36","GILLAM A","5061022","2018-06-05 05:00","2018","06","05","05:00","-0.5","","-1.5","","93","","","","9","","11","","24.1","","100.05","","","","-4","","NA"
"-94.71","56.36","GILLAM A","5061022","2018-06-05 06:00","2018","06","05","06:00","-0.3","","-1.3","","93","","","","8","","9","","24.1","","100.09","","","","-3","","Cloudy"
"-94.71","56.36","GILLAM A","5061022","2018-06-05 07:00","2018","06","05","07:00","0.0","","-1.2","","91","","","","9","","9","","24.1","","100.07","","","","-3","","NA"
"-94.71","56.36","GILLAM A","5061022","2018-06-05 08:00","2018","06","05","08:00","0.8","","-0.8","","89","","","","10","","7","","24.1","","100.04","","","","","","NA"
"-94.71","56.36","GILLAM A","5061022","2018-06-05 09:00","2018","06","05","09:00","1.6","","-0.9","","84","","","","8","","15","","24.1","","100.01","","","","","","Cloudy"
"-94.71","56.36","GILLAM A","5061022","2018-06-05 10:00","2018","06","05","10:00","2.8","","-0.2","","80","","","","9","","12","","24.1","","99.95","","","","","","NA"
"-94.71","56.36","GILLAM A","5061022","2018-06-05 11:00","2018","06","05","11:00","3.6","","0.1","","78","","","","8","","12","","24.1","","99.88","","","","","","NA"
"-94.71","56.36","GILLAM A","5061022","2018-06-05 12:00","2018","06","05","12:00","5.0","","0.1","","71","","","","9","","13","","24.1","","99.84","","","","","","Cloudy"
"-94.71","56.36","GILLAM A","5061022","2018-06-05 13:00","2018","06","05","13:00","6.1","","-0.4","","63","","","","9","","11","","24.1","","99.81","","","","","","NA"
"-94.71","56.36","GILLAM A","5061022","2018-06-05 14:00","2018","06","05","14:00","6.8","","-1.4","","56","","","","8","","9","","24.1","","99.76","","","","","","NA"
"-94.71","56.36","GILLAM A","5061022","2018-06-05 15:00","2018","06","05","15:00","7.0","","-1.1","","56","","","","6","","10","","24.1","","99.76","","","","","","Cloudy"
"-94.71","56.36","GILLAM A","5061022","2018-06-05 16:00","2018","06","05","16:00","7.2","","-1.3","","55","","","","10","","7","","24.1","","99.73","","","","","","NA"
"-94.71","56.36","GILLAM A","5061022","2018-06-05 17:00","2018","06","05","17:00","6.9","","-1.2","","56","","","","8","","10","","24.1","","99.69","","","","","","NA"
"-94.71","56.36","GILLAM A","5061022","2018-06-05 18:00","2018","06","05","18:00","7.3","","-1.0","","55","","","","9","","8","","24.1","","99.68","","","","","","Cloudy"
"-94.71","56.36","GILLAM A","5061022","2018-06-05 19:00","2018","06","05","19:00"
"-94.71","56.36","GILLAM A","5061022","2018-06-05 20:00","2018","06","05","20:00"
"-94.71","56.36","GILLAM A","5061022","2018-06-05 21:00","2018","06","05","21:00"
"-94.71","56.36","GILLAM A","5061022","2018-06-05 22:00","2018","06","05","22:00"
"-94.71","56.36","GILLAM A","5061022","2018-06-05 23:00","2018","06","05","23:00"
"-94.71","56.36","GILLAM A","5061022","2018-06-06 00:00","2018","06","06","00:00"
"-94.71","56.36","GILLAM A","5061022","2018-06-06 01:00","2018","06","06","01:00"
"-94.71","56.36","GILLAM A","5061022","2018-06-06 02:00","2018","06","06","02:00"
"-94.71","56.36","GILLAM A","5061022","2018-06-06 03:00","2018","06","06","03:00"
"-94.71","56.36","GILLAM A","5061022","2018-06-06 04:00","2018","06","06","04:00"
"-94.71","56.36","GILLAM A","5061022","2018-06-06 05:00","2018","06","06","05:00"
"-94.71","56.36","GILLAM A","5061022","2018-06-06 06:00","2018","06","06","06:00"
"-94.71","56.36","GILLAM A","5061022","2018-06-06 07:00","2018","06","06","07:00","3.3","","0.4","","81","","","","5","","10","","24.1","","99.48","","","","","","NA"
"-94.71","56.36","GILLAM A","5061022","2018-06-06 08:00","2018","06","06","08:00","4.5","","0.7","","76","","","","2","","8","","24.1","","99.49","","","","","","NA"
"-94.71","56.36","GILLAM A","5061022","2018-06-06 09:00","2018","06","06","09:00","6.6","","1.4","","69","","","","3","","8","","24.1","","99.50","","","","","","Mostly Cloudy"
"-94.71","56.36","GILLAM A","5061022","2018-06-06 10:00","2018","06","06","10:00","8.7","","2.6","","65","","","","1","","6","","24.1","","99.48","","","","","","NA"
"-94.71","56.36","GILLAM A","5061022","2018-06-06 11:00","2018","06","06","11:00","10.4","","1.4","","54","","","","36","","7","","24.1","","99.47","","","","","","NA"
"-94.71","56.36","GILLAM A","5061022","2018-06-06 12:00","2018","06","06","12:00","11.2","","2.6","","55","","","","30","","9","","24.1","","99.48","","","","","","Mostly Cloudy"
"-94.71","56.36","GILLAM A","5061022","2018-06-06 13:00","2018","06","06","13:00","12.4","","3.5","","54","","","","30","","13","","24.1","","99.46","","","","","","NA"
"-94.71","56.36","GILLAM A","5061022","2018-06-06 14:00","2018","06","06","14:00","13.3","","2.5","","48","","","","30","","10","","24.1","","99.44","","","","","","NA"
"-94.71","56.36","GILLAM A","5061022","2018-06-06 15:00","2018","06","06","15:00","14.2","","2.6","","45","","","","30","","11","","24.1","","99.46","","","","","","Mostly Cloudy"
"-94.71","56.36","GILLAM A","5061022","2018-06-06 16:00","2018","06","06","16:00","14.2","","2.0","","43","","","","31","","8","","24.1","","99.43","","","","","","NA"
"-94.71","56.36","GILLAM A","5061022","2018-06-06 17:00","2018","06","06","17:00","14.1","","2.5","","45","","","","30","","6","","24.1","","99.41","","","","","","NA"
"-94.71","56.36","GILLAM A","5061022","2018-06-06 18:00","2018","06","06","18:00","14.8","","2.3","","42","","","","31","","9","","24.1","","99.41","","","","","","Mostly Cloudy"
"-94.71","56.36","GILLAM A","5061022","2018-06-06 19:00","2018","06","06","19:00"
"-94.71","56.36","GILLAM A","5061022","2018-06-06 20:00","2018","06","06","20:00"
"-94.71","56.36","GILLAM A","5061022","2018-06-06 21:00","2018","06","06","21:00"
"-94.71","56.36","GILLAM A","5061022","2018-06-06 22:00","2018","06","06","22:00"
"-94.71","56.36","GILLAM A","5061022","2018-06-06 23:00","2018","06","06","23:00"
"-94.71","56.36","GILLAM A","5061022","2018-06-07 00:00","2018","06","07","00:00"
"-94.71","56.36","GILLAM A","5061022","2018-06-07 01:00","2018","06","07","01:00"
"-94.71","56.36","GILLAM A","5061022","2018-06-07 02:00","2018","06","07","02:00"
"-94.71","56.36","GILLAM A","5061022","2018-06-07 03:00","2018","06","07","03:00"
"-94.71","56.36","GILLAM A","5061022","2018-06-07 04:00","2018","06","07","04:00"
"-94.71","56.36","GILLAM A","5061022","2018-06-07 05:00","2018","06","07","05:00"
"-94.71","56.36","GILLAM A","5061022","2018-06-07 06:00","2018","06","07","06:00"
"-94.71","56.36","GILLAM A","5061022","2018-06-07 07:00","2018","06","07","07:00","7.6","","3.6","","75","","","","33","","5","","24.1","","99.74","","","","","","NA"
"-94.71","56.36","GILLAM A","5061022","2018-06-07 08:00","2018","06","07","08:00","9.9","","4.7","","70","","","","30","","6","","24.1","","99.79","","","","","","NA"
"-94.71","56.36","GILLAM A","5061022","2018-06-07 09:00","2018","06","07","09:00","12.2","","6.2","","67","","","","31","","6","","24.1","","99.83","","","","","","Mainly Clear"
"-94.71","56.36","GILLAM A","5061022","2018-06-07 10:00","2018","06","07","10:00","14.4","","5.7","","56","","","","28","","9","","24.1","","99.87","","","","","","NA"
"-94.71","56.36","GILLAM A","5061022","2018-06-07 11:00","2018","06","07","11:00","15.4","","6.7","","56","","","","30","","11","","24.1","","99.91","","","","","","NA"
"-94.71","56.36","GILLAM A","5061022","2018-06-07 12:00","2018","06","07","12:00","16.5","","6.1","","50","","","","28","","17","","24.1","","99.93","","","","","","Mostly Cloudy"
"-94.71","56.36","GILLAM A","5061022","2018-06-07 13:00","2018","06","07","13:00","16.5","","4.1","","43","","","","28","","21","","24.1","","99.94","","","","","","NA"
"-94.71","56.36","GILLAM A","5061022","2018-06-07 14:00","2018","06","07","14:00","17.1","","4.4","","43","","","","28","","21","","24.1","","99.97","","","","","","NA"
"-94.71","56.36","GILLAM A","5061022","2018-06-07 15:00","2018","06","07","15:00","16.9","","3.9","","42","","","","28","","22","","24.1","","100.03","","","","","","Mainly Clear"
"-94.71","56.36","GILLAM A","5061022","2018-06-07 16:00","2018","06","07","16:00","17.0","","4.8","","44","","","","29","","14","","24.1","","100.04","","","","","","NA"
"-94.71","56.36","GILLAM A","5061022","2018-06-07 17:00","2018","06","07","17:00","16.8","","5.5","","47","","","","31","","13","","24.1","","100.07","","","","","","NA"
"-94.71","56.36","GILLAM A","5061022","2018-06-07 18:00","2018","06","07","18:00","16.0","","4.5","","46","","","","34","","13","","24.1","","100.08","","","","","","Mainly Clear"
"-94.71","56.36","GILLAM A","5061022","2018-06-07 19:00","2018","06","07","19:00"
"-94.71","56.36","GILLAM A","5061022","2018-06-07 20:00","2018","06","07","20:00"
"-94.71","56.36","GILLAM A","5061022","2018-06-07 21:00","2018","06","07","21:00"
"-94.71","56.36","GILLAM A","5061022","2018-06-07 22:00","2018","06","07","22:00"
"-94.71","56.36","GILLAM A","5061022","2018-06-07 23:00","2018","06","07","23:00"
"-94.71","56.36","GILLAM A","5061022","2018-06-08 00:00","2018","06","08","00:00"
"-94.71","56.36","GILLAM A","5061022","2018-06-08 01:00","2018","06","08","01:00"
"-94.71","56.36","GILLAM A","5061022","2018-06-08 02:00","2018","06","08","02:00"
"-94.71","56.36","GILLAM A","5061022","2018-06-08 03:00","2018","06","08","03:00"
"-94.71","56.36","GILLAM A","5061022","2018-06-08 04:00","2018","06","08","04:00"
"-94.71","56.36","GILLAM A","5061022","2018-06-08 05:00","2018","06","08","05:00"
"-94.71","56.36","GILLAM A","5061022","2018-06-08 06:00","2018","06","08","06:00"
"-94.71","56.36","GILLAM A","5061022","2018-06-08 07:00","2018","06","08","07:00","10.3","","4.3","","66","","","","17","","8","","24.1","","100.42","","","","","","NA"
"-94.71","56.36","GILLAM A","5061022","2018-06-08 08:00","2018","06","08","08:00","15.4","","5.5","","51","","","","18","","8","","24.1","","100.39","","","","","","NA"
"-94.71","56.36","GILLAM A","5061022","2018-06-08 09:00","2018","06","08","09:00","18.1","","4.7","","41","","","","17","","14","","24.1","","100.34","","","","","","Mostly Cloudy"
"-94.71","56.36","GILLAM A","5061022","2018-06-08 10:00","2018","06","08","10:00","20.7","","5.6","","37","","","","19","","13","","24.1","","100.33","","","","","","NA"
"-94.71","56.36","GILLAM A","5061022","2018-06-08 11:00","2018","06","08","11:00","22.6","","6.2","","34","","","","22","","10","","24.1","","100.29","","","","","","NA"
"-94.71","56.36","GILLAM A","5061022","2018-06-08 12:00","2018","06","08","12:00","23.5","","6.5","","33","","","","28","","13","","24.1","","100.24","","","","","","Mainly Clear"
"-94.71","56.36","GILLAM A","5061022","2018-06-08 13:00","2018","06","08","13:00","22.6","","7.8","","38","","","","30","","12","","24.1","","100.21","","","","","","NA"
"-94.71","56.36","GILLAM A","5061022","2018-06-08 14:00","2018","06","08","14:00","24.1","","6.4","","32","","","","31","","10","","24.1","","100.19","","","","","","NA"
"-94.71","56.36","GILLAM A","5061022","2018-06-08 15:00","2018","06","08","15:00","23.3","","5.4","","31","","","","34","","6","","24.1","","100.18","","","","","","Mostly Cloudy"
"-94.71","56.36","GILLAM A","5061022","2018-06-08 16:00","2018","06","08","16:00","23.8","","6.3","","32","","","","34","","4","","24.1","","100.19","","","","","","NA"
"-94.71","56.36","GILLAM A","5061022","2018-06-08 17:00","2018","06","08","17:00","24.2","","8.0","","35","","","","29","","8","","24.1","","100.19","","25","","","","NA"
"-94.71","56.36","GILLAM A","5061022","2018-06-08 18:00","2018","06","08","18:00","21.6","","8.7","","43","","","","34","","7","","24.1","","100.19","","","","","","Mostly Cloudy"
"-94.71","56.36","GILLAM A","5061022","2018-06-08 19:00","2018","06","08","19:00"
"-94.71","56.36","GILLAM A","5061022","2018-06-08 20:00","2018","06","08","20:00"
"-94.71","56.36","GILLAM A","5061022","2018-06-08 21:00","2018","06","08","21:00"
"-94.71","56.36","GILLAM A","5061022","2018-06-08 22:00","2018","06","08","22:00"
"-94.71","56.36","GILLAM A","5061022","2018-06-08 23:00","2018","06","08","23:00"
"-94.71","56.36","GILLAM A","5061022","2018-06-09 00:00","2018","06","09","00:00"
"-94.71","56.36","GILLAM A","5061022","2018-06-09 01:00","2018","06","09","01:00"
"-94.71","56.36","GILLAM A","5061022","2018-06-09 02:00","2018","06","09","02:00"
"-94.71","56.36","GILLAM A","5061022","2018-06-09 03:00","2018","06","09","03:00"
"-94.71","56.36","GILLAM A","5061022","2018-06-09 04:00","2018","06","09","04:00"
"-94.71","56.36","GILLAM A","5061022","2018-06-09 05:00","2018","06","09","05:00"
"-94.71","56.36","GILLAM A","5061022","2018-06-09 06:00","2018","06","09","06:00"
"-94.71","56.36","GILLAM A","5061022","2018-06-09 07:00","2018","06","09","07:00","13.3","","6.0","","61","","","","13","","5","","24.1","","100.27","","","","","","NA"
"-94.71","56.36","GILLAM A","5061022","2018-06-09 08:00","2018","06","09","08:00","18.5","","7.0","","47","","","","16","","9","","24.1","","100.24","","","","","","NA"
"-94.71","56.36","GILLAM A","5061022","2018-06-09 09:00","2018","06","09","09:00","19.2","","8.4","","49","","","","5","","10","","24.1","","100.21","","","","","","Mainly Clear"
"-94.71","56.36","GILLAM A","5061022","2018-06-09 10:00","2018","06","09","10:00","24.1","","5.3","","29","","","","11","","16","","24.1","","100.15","","","","","","NA"
"-94.71","56.36","GILLAM A","5061022","2018-06-09 11:00","2018","06","09","11:00","25.5","","4.9","","26","","","","13","","13","","24.1","","100.08","","25","","","","NA"
"-94.71","56.36","GILLAM A","5061022","2018-06-09 12:00","2018","06","09","12:00","26.0","","4.5","","25","","","","16","","26","","24.1","","100.05","","25","","","","Mainly Clear"
"-94.71","56.36","GILLAM A","5061022","2018-06-09 13:00","2018","06","09","13:00","26.6","","4.3","","23","","","","17","","19","","24.1","","100.00","","26","","","","NA"
"-94.71","56.36","GILLAM A","5061022","2018-06-09 14:00","2018","06","09","14:00","26.8","","4.3","","23","","","","14","","17","","24.1","","99.93","","26","","","","NA"
"-94.71","56.36","GILLAM A","5061022","2018-06-09 15:00","2018","06","09","15:00","27.2","","6.6","","27","","","","18","","19","","24.1","","99.90","","27","","","","Mainly Clear"
"-94.71","56.36","GILLAM A","5061022","2018-06-09 16:00","2018","06","09","16:00","25.1","","9.8","","37","","","","18","","18","","24.1","","99.83","","26","","","","NA"
"-94.71","56.36","GILLAM A","5061022","2018-06-09 17:00","2018","06","09","17:00","24.5","","12.2","","46","","","","19","","18","","24.1","","99.80","","27","","","","NA"
"-94.71","56.36","GILLAM A","5061022","2018-06-09 18:00","2018","06","09","18:00","25.3","","11.2","","41","","","","17","","15","","24.1","","99.75","","27","","","","Mainly Clear"
"-94.71","56.36","GILLAM A","5061022","2018-06-09 19:00","2018","06","09","19:00"
"-94.71","56.36","GILLAM A","5061022","2018-06-09 20:00","2018","06","09","20:00"
"-94.71","56.36","GILLAM A","5061022","2018-06-09 21:00","2018","06","09","21:00"
"-94.71","56.36","GILLAM A","5061022","2018-06-09 22:00","2018","06","09","22:00"
"-94.71","56.36","GILLAM A","5061022","2018-06-09 23:00","2018","06","09","23:00"
"-94.71","56.36","GILLAM A","5061022","2018-06-10 00:00","2018","06","10","00:00"
"-94.71","56.36","GILLAM A","5061022","2018-06-10 01:00","2018","06","10","01:00"
"-94.71","56.36","GILLAM A","5061022","2018-06-10 02:00","2018","06","10","02:00"
"-94.71","56.36","GILLAM A","5061022","2018-06-10 03:00","2018","06","10","03:00"
"-94.71","56.36","GILLAM A","5061022","2018-06-10 04:00","2018","06","10","04:00"
"-94.71","56.36","GILLAM A","5061022","2018-06-10 05:00","2018","06","10","05:00"
"-94.71","56.36","GILLAM A","5061022","2018-06-10 06:00","2018","06","10","06:00"
"-94.71","56.36","GILLAM A","5061022","2018-06-10 07:00","2018","06","10","07:00","19.7","","12.2","","62","","","","17","","10","","24.1","","99.58","","","","","","NA"
"-94.71","56.36","GILLAM A","5061022","2018-06-10 08:00","2018","06","10","08:00","22.1","","13.2","","57","","","","18","","12","","24.1","","99.51","","25","","","","NA"
"-94.71","56.36","GILLAM A","5061022","2018-06-10 09:00","2018","06","10","09:00","25.1","","14.2","","50","","","","18","","10","","24.1","","99.45","","29","","","","Mainly Clear"
"-94.71","56.36","GILLAM A","5061022","2018-06-10 10:00","2018","06","10","10:00","26.8","","12.7","","41","","","","16","","17","","24.1","","99.40","","29","","","","NA"
"-94.71","56.36","GILLAM A","5061022","2018-06-10 11:00","2018","06","10","11:00","27.7","","11.6","","36","","","","17","","23","","24.1","","99.33","","30","","","","NA"
"-94.71","56.36","GILLAM A","5061022","2018-06-10 12:00","2018","06","10","12:00","28.9","","9.4","","29","","","","16","","28","","24.1","","99.25","","30","","","","Mainly Clear"
"-94.71","56.36","GILLAM A","5061022","2018-06-10 13:00","2018","06","10","13:00","29.0","","10.0","","30","","","","16","","26","","24.1","","99.21","","30","","","","NA"
"-94.71","56.36","GILLAM A","5061022","2018-06-10 14:00","2018","06","10","14:00","29.3","","12.8","","36","","","","18","","26","","24.1","","99.18","","32","","","","NA"
"-94.71","56.36","GILLAM A","5061022","2018-06-10 15:00","2018","06","10","15:00","29.2","","12.9","","36","","","","18","","20","","24.1","","99.14","","32","","","","Mainly Clear"
"-94.71","56.36","GILLAM A","5061022","2018-06-10 16:00","2018","06","10","16:00","29.0","","13.2","","37","","","","19","","28","","24.1","","99.11","","32","","","","NA"
"-94.71","56.36","GILLAM A","5061022","2018-06-10 17:00","2018","06","10","17:00","28.4","","13.5","","39","","","","19","","22","","24.1","","99.08","","31","","","","NA"
"-94.71","56.36","GILLAM A","5061022","2018-06-10 18:00","2018","06","10","18:00","28.2","","13.7","","40","","","","19","","22","","24.1","","99.03","","31","","","","Mostly Cloudy"
"-94.71","56.36","GILLAM A","5061022","2018-06-10 19:00","2018","06","10","19:00"
"-94.71","56.36","GILLAM A","5061022","2018-06-10 20:00","2018","06","10","20:00"
"-94.71","56.36","GILLAM A","5061022","2018-06-10 21:00","2018","06","10","21:00"
"-94.71","56.36","GILLAM A","5061022","2018-06-10 22:00","2018","06","10","22:00"
"-94.71","56.36","GILLAM A","5061022","2018-06-10 23:00","2018","06","10","23:00"
"-94.71","56.36","GILLAM A","5061022","2018-06-11 00:00","2018","06","11","00:00"
"-94.71","56.36","GILLAM A","5061022","2018-06-11 01:00","2018","06","11","01:00"
"-94.71","56.36","GILLAM A","5061022","2018-06-11 02:00","2018","06","11","02:00"
"-94.71","56.36","GILLAM A","5061022","2018-06-11 03:00","2018","06","11","03:00"
"-94.71","56.36","GILLAM A","5061022","2018-06-11 04:00","2018","06","11","04:00"
"-94.71","56.36","GILLAM A","5061022","2018-06-11 05:00","2018","06","11","05:00"
"-94.71","56.36","GILLAM A","5061022","2018-06-11 06:00","2018","06","11","06:00"
"-94.71","56.36","GILLAM A","5061022","2018-06-11 07:00","2018","06","11","07:00","21.2","","15.7","","71","","","","18","","21","","24.1","","98.85","","26","","","","NA"
"-94.71","56.36","GILLAM A","5061022","2018-06-11 08:00","2018","06","11","08:00","23.5","","14.2","","56","","","","18","","18","","24.1","","98.79","","27","","","","NA"
"-94.71","56.36","GILLAM A","5061022","2018-06-11 09:00","2018","06","11","09:00","25.3","","14.3","","50","","","","19","","21","","24.1","","98.72","","29","","","","Mostly Cloudy"
"-94.71","56.36","GILLAM A","5061022","2018-06-11 10:00","2018","06","11","10:00","27.4","","14.1","","43","","","","16","","21","","24.1","","98.65","","31","","","","NA"
"-94.71","56.36","GILLAM A","5061022","2018-06-11 11:00","2018","06","11","11:00","28.9","","14.1","","40","","","","17","","16","","24.1","","98.59","","32","","","","NA"
"-94.71","56.36","GILLAM A","5061022","2018-06-11 12:00","2018","06","11","12:00","29.4","","12.8","","35","","","","16","","17","","24.1","","98.56","","32","","","","Clear"
"-94.71","56.36","GILLAM A","5061022","2018-06-11 13:00","2018","06","11","13:00","30.4","","10.0","","28","","","","17","","25","","24.1","","98.50","","32","","","","NA"
"-94.71","56.36","GILLAM A","5061022","2018-06-11 14:00","2018","06","11","14:00","29.7","","12.6","","34","","","","20","","31","","24.1","","98.47","","32","","","","NA"
"-94.71","56.36","GILLAM A","5061022","2018-06-11 15:00","2018","06","11","15:00","29.4","","13.5","","37","","","","18","","23","","24.1","","98.46","","32","","","","Mainly Clear"
"-94.71","56.36","GILLAM A","5061022","2018-06-11 16:00","2018","06","11","16:00","29.6","","13.6","","37","","","","20","","24","","24.1","","98.42","","33","","","","NA"
"-94.71","56.36","GILLAM A","5061022","2018-06-11 17:00","2018","06","11","17:00","29.2","","13.2","","37","","","","20","","21","","24.1","","98.40","","32","","","","NA"
"-94.71","56.36","GILLAM A","5061022","2018-06-11 18:00","2018","06","11","18:00","28.3","","13.8","","40","","","","20","","16","","24.1","","98.39","","32","","","","Mainly Clear"
"-94.71","56.36","GILLAM A","5061022","2018-06-11 19:00","2018","06","11","19:00"
"-94.71","56.36","GILLAM A","5061022","2018-06-11 20:00","2018","06","11","20:00"
"-94.71","56.36","GILLAM A","5061022","2018-06-11 21:00","2018","06","11","21:00"
"-94.71","56.36","GILLAM A","5061022","2018-06-11 22:00","2018","06","11","22:00"
"-94.71","56.36","GILLAM A","5061022","2018-06-11 23:00","2018","06","11","23:00"
"-94.71","56.36","GILLAM A","5061022","2018-06-12 00:00","2018","06","12","00:00"
"-94.71","56.36","GILLAM A","5061022","2018-06-12 01:00","2018","06","12","01:00"
"-94.71","56.36","GILLAM A","5061022","2018-06-12 02:00","2018","06","12","02:00"
"-94.71","56.36","GILLAM A","5061022","2018-06-12 03:00","2018","06","12","03:00"
"-94.71","56.36","GILLAM A","5061022","2018-06-12 04:00","2018","06","12","04:00"
"-94.71","56.36","GILLAM A","5061022","2018-06-12 05:00","2018","06","12","05:00"
"-94.71","56.36","GILLAM A","5061022","2018-06-12 06:00","2018","06","12","06:00"
"-94.71","56.36","GILLAM A","5061022","2018-06-12 07:00","2018","06","12","07:00","14.6","","11.8","","83","","","","20","","14","","24.1","","98.78","","","","","","NA"
"-94.71","56.36","GILLAM A","5061022","2018-06-12 08:00","2018","06","12","08:00","15.6","","12.1","","80","","","","20","","10","","24.1","","98.78","","","","","","NA"
"-94.71","56.36","GILLAM A","5061022","2018-06-12 09:00","2018","06","12","09:00","17.5","","11.8","","69","","","","20","","17","","24.1","","98.82","","","","","","Mainly Clear"
"-94.71","56.36","GILLAM A","5061022","2018-06-12 10:00","2018","06","12","10:00","19.0","","11.3","","61","","","","18","","12","","24.1","","98.84","","","","","","NA"
"-94.71","56.36","GILLAM A","5061022","2018-06-12 11:00","2018","06","12","11:00","20.9","","9.5","","48","","","","22","","11","","24.1","","98.82","","","","","","NA"
"-94.71","56.36","GILLAM A","5061022","2018-06-12 12:00","2018","06","12","12:00","21.4","","7.2","","40","","","","20","","14","","24.1","","98.86","","","","","","Mostly Cloudy"
"-94.71","56.36","GILLAM A","5061022","2018-06-12 13:00","2018","06","12","13:00","22.0","","8.2","","41","","","","19","","14","","24.1","","98.89","","","","","","NA"
"-94.71","56.36","GILLAM A","5061022","2018-06-12 14:00","2018","06","12","14:00","21.8","","7.7","","40","","","","18","","6","","24.1","","98.93","","","","","","NA"
"-94.71","56.36","GILLAM A","5061022","2018-06-12 15:00","2018","06","12","15:00","23.2","","6.3","","33","","","","18","","10","","24.1","","98.92","","","","","","Mostly Cloudy"
"-94.71","56.36","GILLAM A","5061022","2018-06-12 16:00","2018","06","12","16:00","22.6","","6.5","","35","","","","18","","14","","24.1","","98.94","","","","","","NA"
"-94.71","56.36","GILLAM A","5061022","2018-06-12 17:00","2018","06","12","17:00","22.4","","5.6","","33","","","","19","","13","","24.1","","98.97","","","","","","NA"
"-94.71","56.36","GILLAM A","5061022","2018-06-12 18:00","2018","06","12","18:00","22.6","","5.6","","33","","","","15","","7","","24.1","","98.98","","","","","","Mostly Cloudy"
"-94.71","56.36","GILLAM A","5061022","2018-06-12 19:00","2018","06","12","19:00"
"-94.71","56.36","GILLAM A","5061022","2018-06-12 20:00","2018","06","12","20:00"
"-94.71","56.36","GILLAM A","5061022","2018-06-12 21:00","2018","06","12","21:00"
"-94.71","56.36","GILLAM A","5061022","2018-06-12 22:00","2018","06","12","22:00"
"-94.71","56.36","GILLAM A","5061022","2018-06-12 23:00","2018","06","12","23:00"
"-94.71","56.36","GILLAM A","5061022","2018-06-13 00:00","2018","06","13","00:00"
"-94.71","56.36","GILLAM A","5061022","2018-06-13 01:00","2018","06","13","01:00"
"-94.71","56.36","GILLAM A","5061022","2018-06-13 02:00","2018","06","13","02:00"
"-94.71","56.36","GILLAM A","5061022","2018-06-13 03:00","2018","06","13","03:00"
"-94.71","56.36","GILLAM A","5061022","2018-06-13 04:00","2018","06","13","04:00"
"-94.71","56.36","GILLAM A","5061022","2018-06-13 05:00","2018","06","13","05:00"
"-94.71","56.36","GILLAM A","5061022","2018-06-13 06:00","2018","06","13","06:00"
"-94.71","56.36","GILLAM A","5061022","2018-06-13 07:00","2018","06","13","07:00","11.8","","9.9","","88","","","","8","","12","","24.1","","99.10","","","","","","NA"
"-94.71","56.36","GILLAM A","5061022","2018-06-13 08:00","2018","06","13","08:00","12.2","","10.0","","86","","","","7","","13","","24.1","","99.13","","","","","","NA"
"-94.71","56.36","GILLAM A","5061022","2018-06-13 09:00","2018","06","13","09:00","12.1","","9.6","","84","","","","7","","11","","24.1","","99.16","","","","","","Cloudy"
"-94.71","56.36","GILLAM A","5061022","2018-06-13 10:00","2018","06","13","10:00","12.1","","9.0","","82","","","","9","","22","","24.1","","99.17","","","","","","NA"
"-94.71","56.36","GILLAM A","5061022","2018-06-13 11:00","2018","06","13","11:00","11.5","","8.7","","83","","","","9","","20","","24.1","","99.22","","","","","","NA"
"-94.71","56.36","GILLAM A","5061022","2018-06-13 12:00","2018","06","13","12:00","11.6","","8.7","","82","","","","10","","17","","24.1","","99.25","","","","","","Cloudy"
"-94.71","56.36","GILLAM A","5061022","2018-06-13 13:00","2018","06","13","13:00","13.7","","8.3","","70","","","","8","","21","","24.1","","99.20","","","","","","NA"
"-94.71","56.36","GILLAM A","5061022","2018-06-13 14:00","2018","06","13","14:00","15.5","","8.0","","61","","","","10","","25","","24.1","","99.20","","","","","","NA"
"-94.71","56.36","GILLAM A","5061022","2018-06-13 15:00","2018","06","13","15:00","16.7","","8.0","","56","","","","9","","23","","24.1","","99.20","","","","","","Mainly Clear"
"-94.71","56.36","GILLAM A","5061022","2018-06-13 16:00","2018","06","13","16:00","15.6","","7.4","","58","","","","11","","13","","24.1","","99.22","","","","","","NA"
"-94.71","56.36","GILLAM A","5061022","2018-06-13 17:00","2018","06","13","17:00","15.3","","7.3","","59","","","","11","","9","","24.1","","99.26","","","","","","NA"
"-94.71","56.36","GILLAM A","5061022","2018-06-13 18:00","2018","06","13","18:00","14.8","","7.1","","59","","","","11","","9","","24.1","","99.29","","","","","","Mostly Cloudy"
"-94.71","56.36","GILLAM A","5061022","2018-06-13 19:00","2018","06","13","19:00"
"-94.71","56.36","GILLAM A","5061022","2018-06-13 20:00","2018","06","13","20:00"
"-94.71","56.36","GILLAM A","5061022","2018-06-13 21:00","2018","06","13","21:00"
"-94.71","56.36","GILLAM A","5061022","2018-06-13 22:00","2018","06","13","22:00"
"-94.71","56.36","GILLAM A","5061022","2018-06-13 23:00","2018","06","13","23:00"
"-94.71","56.36","GILLAM A","5061022","2018-06-14 00:00","2018","06","14","00:00"
"-94.71","56.36","GILLAM A","5061022","2018-06-14 01:00","2018","06","14","01:00"
"-94.71","56.36","GILLAM A","5061022","2018-06-14 02:00","2018","06","14","02:00"
"-94.71","56.36","GILLAM A","5061022","2018-06-14 03:00","2018","06","14","03:00"
"-94.71","56.36","GILLAM A","5061022","2018-06-14 04:00","2018","06","14","04:00"
"-94.71","56.36","GILLAM A","5061022","2018-06-14 05:00","2018","06","14","05:00"
"-94.71","56.36","GILLAM A","5061022","2018-06-14 06:00","2018","06","14","06:00"
"-94.71","56.36","GILLAM A","5061022","2018-06-14 07:00","2018","06","14","07:00","11.2","","7.0","","75","","","","9","","7","","24.1","","99.51","","","","","","NA"
"-94.71","56.36","GILLAM A","5061022","2018-06-14 08:00","2018","06","14","08:00","12.7","","8.0","","73","","","","3","","12","","24.1","","99.52","","","","","","NA"
"-94.71","56.36","GILLAM A","5061022","2018-06-14 09:00","2018","06","14","09:00","14.9","","9.0","","68","","","","6","","7","","24.1","","99.52","","","","","","Clear"
"-94.71","56.36","GILLAM A","5061022","2018-06-14 10:00","2018","06","14","10:00","16.7","","9.3","","61","","","","8","","8","","24.1","","99.50","","","","","","NA"
"-94.71","56.36","GILLAM A","5061022","2018-06-14 11:00","2018","06","14","11:00","18.2","","10.1","","59","","","","9","","6","","24.1","","99.49","","","","","","NA"
"-94.71","56.36","GILLAM A","5061022","2018-06-14 12:00","2018","06","14","12:00","19.3","","10.7","","57","","","","3","","13","","24.1","","99.47","","","","","","Mainly Clear"
"-94.71","56.36","GILLAM A","5061022","2018-06-14 13:00","2018","06","14","13:00","20.7","","11.3","","54","","","","4","","14","","24.1","","99.43","","","","","","NA"
"-94.71","56.36","GILLAM A","5061022","2018-06-14 14:00","2018","06","14","14:00","21.9","","10.6","","48","","","","4","","16","","24.1","","99.39","","","","","","NA"
"-94.71","56.36","GILLAM A","5061022","2018-06-14 15:00","2018","06","14","15:00","22.9","","10.2","","44","","","","3","","15","","24.1","","99.34","","","","","","Mainly Clear"
"-94.71","56.36","GILLAM A","5061022","2018-06-14 16:00","2018","06","14","16:00","23.1","","10.7","","45","","","","4","","9","","24.1","","99.30","","25","","","","NA"
"-94.71","56.36","GILLAM A","5061022","2018-06-14 17:00","2018","06","14","17:00","23.6","","10.3","","43","","","","5","","12","","24.1","","99.26","","25","","","","NA"
"-94.71","56.36","GILLAM A","5061022","2018-06-14 18:00","2018","06","14","18:00","23.3","","10.7","","44","","","","4","","13","","24.1","","99.23","","25","","","","Mostly Cloudy"
"-94.71","56.36","GILLAM A","5061022","2018-06-14 19:00","2018","06","14","19:00"
"-94.71","56.36","GILLAM A","5061022","2018-06-14 20:00","2018","06","14","20:00"
"-94.71","56.36","GILLAM A","5061022","2018-06-14 21:00","2018","06","14","21:00"
"-94.71","56.36","GILLAM A","5061022","2018-06-14 22:00","2018","06","14","22:00"
"-94.71","56.36","GILLAM A","5061022","2018-06-14 23:00","2018","06","14","23:00"
"-94.71","56.36","GILLAM A","5061022","2018-06-15 00:00","2018","06","15","00:00"
"-94.71","56.36","GILLAM A","5061022","2018-06-15 01:00","2018","06","15","01:00"
"-94.71","56.36","GILLAM A","5061022","2018-06-15 02:00","2018","06","15","02:00"
"-94.71","56.36","GILLAM A","5061022","2018-06-15 03:00","2018","06","15","03:00"
"-94.71","56.36","GILLAM A","5061022","2018-06-15 04:00","2018","06","15","04:00"
"-94.71","56.36","GILLAM A","5061022","2018-06-15 05:00","2018","06","15","05:00"
"-94.71","56.36","GILLAM A","5061022","2018-06-15 06:00","2018","06","15","06:00"
"-94.71","56.36","GILLAM A","5061022","2018-06-15 07:00","2018","06","15","07:00","9.8","","6.9","","82","","","","9","","8","","24.1","","98.64","","","","","","NA"
"-94.71","56.36","GILLAM A","5061022","2018-06-15 08:00","2018","06","15","08:00","10.6","","7.7","","82","","","","8","","9","","24.1","","98.57","","","","","","NA"
"-94.71","56.36","GILLAM A","5061022","2018-06-15 09:00","2018","06","15","09:00","11.6","","8.6","","82","","","","6","","9","","24.1","","98.50","","","","","","Cloudy"
"-94.71","56.36","GILLAM A","5061022","2018-06-15 10:00","2018","06","15","10:00","13.0","","10.2","","83","","","","5","","16","","24.1","","98.36","","","","","","NA"
"-94.71","56.36","GILLAM A","5061022","2018-06-15 11:00","2018","06","15","11:00","14.9","","11.2","","79","","","","12","","9","","24.1","","98.34","","","","","","NA"
"-94.71","56.36","GILLAM A","5061022","2018-06-15 12:00","2018","06","15","12:00","16.0","","12.2","","78","","","","9","","10","","24.1","","98.29","","","","","","Cloudy"
"-94.71","56.36","GILLAM A","5061022","2018-06-15 13:00","2018","06","15","13:00","15.6","","13.7","","89","","","","17","","8","","24.1","","98.30","","","","","","Moderate Rain"
"-94.71","56.36","GILLAM A","5061022","2018-06-15 14:00","2018","06","15","14:00","15.2","","14.5","","95","","","","5","","5","","11.3","","98.26","","","","","","Rain"
"-94.71","56.36","GILLAM A","5061022","2018-06-15 15:00","2018","06","15","15:00","16.6","","16.0","","96","","","","14","","6","","24.1","","98.22","","","","","","Rain"
"-94.71","56.36","GILLAM A","5061022","2018-06-15 16:00","2018","06","15","16:00","17.1","","15.9","","93","","","","14","","11","","24.1","","98.16","","","","","","Rain"
"-94.71","56.36","GILLAM A","5061022","2018-06-15 17:00","2018","06","15","17:00","18.5","","16.1","","86","","","","18","","7","","24.1","","98.14","","","","","","NA"
"-94.71","56.36","GILLAM A","5061022","2018-06-15 18:00","2018","06","15","18:00","19.2","","16.4","","84","","","","16","","11","","24.1","","98.08","","","","","","Mostly Cloudy"
"-94.71","56.36","GILLAM A","5061022","2018-06-15 19:00","2018","06","15","19:00"
"-94.71","56.36","GILLAM A","5061022","2018-06-15 20:00","2018","06","15","20:00"
"-94.71","56.36","GILLAM A","5061022","2018-06-15 21:00","2018","06","15","21:00"
"-94.71","56.36","GILLAM A","5061022","2018-06-15 22:00","2018","06","15","22:00"
"-94.71","56.36","GILLAM A","5061022","2018-06-15 23:00","2018","06","15","23:00"
"-94.71","56.36","GILLAM A","5061022","2018-06-16 00:00","2018","06","16","00:00"
"-94.71","56.36","GILLAM A","5061022","2018-06-16 01:00","2018","06","16","01:00"
"-94.71","56.36","GILLAM A","5061022","2018-06-16 02:00","2018","06","16","02:00"
"-94.71","56.36","GILLAM A","5061022","2018-06-16 03:00","2018","06","16","03:00"
"-94.71","56.36","GILLAM A","5061022","2018-06-16 04:00","2018","06","16","04:00"
"-94.71","56.36","GILLAM A","5061022","2018-06-16 05:00","2018","06","16","05:00"
"-94.71","56.36","GILLAM A","5061022","2018-06-16 06:00","2018","06","16","06:00"
"-94.71","56.36","GILLAM A","5061022","2018-06-16 07:00","2018","06","16","07:00","11.1","","9.5","","89","","","","27","","21","","24.1","","98.46","","","","","","NA"
"-94.71","56.36","GILLAM A","5061022","2018-06-16 08:00","2018","06","16","08:00","11.1","","8.9","","86","","","","27","","21","","24.1","","98.52","","","","","","NA"
"-94.71","56.36","GILLAM A","5061022","2018-06-16 09:00","2018","06","16","09:00","10.6","","8.3","","85","","","","27","","26","","24.1","","98.55","","","","","","Cloudy"
"-94.71","56.36","GILLAM A","5061022","2018-06-16 10:00","2018","06","16","10:00","10.0","","8.8","","92","","","","28","","22","","9.7","","98.62","","","","","","Drizzle"
"-94.71","56.36","GILLAM A","5061022","2018-06-16 11:00","2018","06","16","11:00","10.8","","7.8","","81","","","","27","","25","","24.1","","98.70","","","","","","Drizzle"
"-94.71","56.36","GILLAM A","5061022","2018-06-16 12:00","2018","06","16","12:00","11.2","","8.6","","84","","","","27","","23","","24.1","","98.75","","","","","","Cloudy"
"-94.71","56.36","GILLAM A","5061022","2018-06-16 13:00","2018","06","16","13:00","12.4","","9.3","","81","","","","27","","23","","24.1","","98.75","","","","","","NA"
"-94.71","56.36","GILLAM A","5061022","2018-06-16 14:00","2018","06","16","14:00","13.7","","9.8","","77","","","","29","","22","","24.1","","98.78","","","","","","NA"
"-94.71","56.36","GILLAM A","5061022","2018-06-16 15:00","2018","06","16","15:00","14.9","","10.2","","73","","","","29","","23","","24.1","","98.79","","","","","","Cloudy"
"-94.71","56.36","GILLAM A","5061022","2018-06-16 16:00","2018","06","16","16:00","15.8","","10.9","","72","","","","29","","16","","24.1","","98.82","","","","","","NA"
"-94.71","56.36","GILLAM A","5061022","2018-06-16 17:00","2018","06","16","17:00","16.8","","10.1","","64","","","","29","","21","","24.1","","98.89","","","","","","NA"
"-94.71","56.36","GILLAM A","5061022","2018-06-16 18:00","2018","06","16","18:00","17.6","","9.6","","59","","","","31","","23","","24.1","","98.90","","","","","","Cloudy"
"-94.71","56.36","GILLAM A","5061022","2018-06-16 19:00","2018","06","16","19:00"
"-94.71","56.36","GILLAM A","5061022","2018-06-16 20:00","2018","06","16","20:00"
"-94.71","56.36","GILLAM A","5061022","2018-06-16 21:00","2018","06","16","21:00"
"-94.71","56.36","GILLAM A","5061022","2018-06-16 22:00","2018","06","16","22:00"
"-94.71","56.36","GILLAM A","5061022","2018-06-16 23:00","2018","06","16","23:00"
"-94.71","56.36","GILLAM A","5061022","2018-06-17 00:00","2018","06","17","00:00"
"-94.71","56.36","GILLAM A","5061022","2018-06-17 01:00","2018","06","17","01:00"
"-94.71","56.36","GILLAM A","5061022","2018-06-17 02:00","2018","06","17","02:00"
"-94.71","56.36","GILLAM A","5061022","2018-06-17 03:00","2018","06","17","03:00"
"-94.71","56.36","GILLAM A","5061022","2018-06-17 04:00","2018","06","17","04:00"
"-94.71","56.36","GILLAM A","5061022","2018-06-17 05:00","2018","06","17","05:00"
"-94.71","56.36","GILLAM A","5061022","2018-06-17 06:00","2018","06","17","06:00"
"-94.71","56.36","GILLAM A","5061022","2018-06-17 07:00","2018","06","17","07:00","14.0","","9.1","","72","","","","30","","23","","24.1","","99.03","","","","","","NA"
"-94.71","56.36","GILLAM A","5061022","2018-06-17 08:00","2018","06","17","08:00","12.5","","8.9","","79","","","","36","","30","","24.1","","99.07","","","","","","NA"
"-94.71","56.36","GILLAM A","5061022","2018-06-17 09:00","2018","06","17","09:00","10.9","","7.7","","80","","","","32","","24","","24.1","","99.12","","","","","","Cloudy"
"-94.71","56.36","GILLAM A","5061022","2018-06-17 10:00","2018","06","17","10:00","10.5","","6.4","","76","","","","32","","33","","24.1","","99.20","","","","","","NA"
"-94.71","56.36","GILLAM A","5061022","2018-06-17 11:00","2018","06","17","11:00","10.8","","6.2","","73","","","","32","","25","","24.1","","99.29","","","","","","NA"
"-94.71","56.36","GILLAM A","5061022","2018-06-17 12:00","2018","06","17","12:00","11.3","","6.6","","73","","","","32","","23","","24.1","","99.34","","","","","","Cloudy"
"-94.71","56.36","GILLAM A","5061022","2018-06-17 13:00","2018","06","17","13:00","11.3","","6.8","","74","","","","33","","27","","24.1","","99.39","","","","","","NA"
"-94.71","56.36","GILLAM A","5061022","2018-06-17 14:00","2018","06","17","14:00","11.4","","6.3","","71","","","","32","","23","","24.1","","99.46","","","","","","NA"
"-94.71","56.36","GILLAM A","5061022","2018-06-17 15:00","2018","06","17","15:00","12.4","","6.7","","68","","","","32","","21","","24.1","","99.48","","","","","","Mostly Cloudy"
"-94.71","56.36","GILLAM A","5061022","2018-06-17 16:00","2018","06","17","16:00","13.2","","7.8","","69","","","","34","","28","","24.1","","99.55","","","","","","NA"
"-94.71","56.36","GILLAM A","5061022","2018-06-17 17:00","2018","06","17","17:00","12.6","","7.7","","72","","","","34","","22","","24.1","","99.60","","","","","","NA"
"-94.71","56.36","GILLAM A","5061022","2018-06-17 18:00","2018","06","17","18:00","11.8","","7.4","","74","","","","35","","19","","24.1","","99.68","","","","","","Cloudy"
"-94.71","56.36","GILLAM A","5061022","2018-06-17 19:00","2018","06","17","19:00"
"-94.71","56.36","GILLAM A","5061022","2018-06-17 20:00","2018","06","17","20:00"
"-94.71","56.36","GILLAM A","5061022","2018-06-17 21:00","2018","06","17","21:00"
"-94.71","56.36","GILLAM A","5061022","2018-06-17 22:00","2018","06","17","22:00"
"-94.71","56.36","GILLAM A","5061022","2018-06-17 23:00","2018","06","17","23:00"
"-94.71","56.36","GILLAM A","5061022","2018-06-18 00:00","2018","06","18","00:00"
"-94.71","56.36","GILLAM A","5061022","2018-06-18 01:00","2018","06","18","01:00"
"-94.71","56.36","GILLAM A","5061022","2018-06-18 02:00","2018","06","18","02:00"
"-94.71","56.36","GILLAM A","5061022","2018-06-18 03:00","2018","06","18","03:00"
"-94.71","56.36","GILLAM A","5061022","2018-06-18 04:00","2018","06","18","04:00"
"-94.71","56.36","GILLAM A","5061022","2018-06-18 05:00","2018","06","18","05:00"
"-94.71","56.36","GILLAM A","5061022","2018-06-18 06:00","2018","06","18","06:00"
"-94.71","56.36","GILLAM A","5061022","2018-06-18 07:00","2018","06","18","07:00","12.4","","8.4","","76","","","","24","","14","","24.1","","100.00","","","","","","NA"
"-94.71","56.36","GILLAM A","5061022","2018-06-18 08:00","2018","06","18","08:00","14.7","","9.2","","70","","","","24","","13","","24.1","","99.97","","","","","","NA"
"-94.71","56.36","GILLAM A","5061022","2018-06-18 09:00","2018","06","18","09:00","16.8","","10.0","","64","","","","25","","12","","24.1","","99.93","","","","","","Clear"
"-94.71","56.36","GILLAM A","5061022","2018-06-18 10:00","2018","06","18","10:00","17.3","","11.6","","69","","","","34","","8","","24.1","","99.89","","","","","","NA"
"-94.71","56.36","GILLAM A","5061022","2018-06-18 11:00","2018","06","18","11:00","21.3","","9.8","","47","","","","20","","13","","24.1","","99.85","","","","","","NA"
"-94.71","56.36","GILLAM A","5061022","2018-06-18 12:00","2018","06","18","12:00","23.2","","9.3","","41","","","","22","","14","","24.1","","99.78","","","","","","Mainly Clear"
"-94.71","56.36","GILLAM A","5061022","2018-06-18 13:00","2018","06","18","13:00","24.9","","9.9","","38","","","","24","","15","","24.1","","99.72","","26","","","","NA"
"-94.71","56.36","GILLAM A","5061022","2018-06-18 14:00","2018","06","18","14:00","23.6","","10.3","","43","","","","30","","10","","24.1","","99.69","","25","","","","NA"
"-94.71","56.36","GILLAM A","5061022","2018-06-18 15:00","2018","06","18","15:00","24.8","","10.0","","39","","","","26","","8","","24.1","","99.63","","26","","","","Mostly Cloudy"
"-94.71","56.36","GILLAM A","5061022","2018-06-18 16:00","2018","06","18","16:00","25.7","","8.7","","34","","","","23","","16","","24.1","","99.56","","26","","","","NA"
"-94.71","56.36","GILLAM A","5061022","2018-06-18 17:00","2018","06","18","17:00","24.9","","9.3","","37","","","","18","","7","","24.1","","99.52","","26","","","","NA"
"-94.71","56.36","GILLAM A","5061022","2018-06-18 18:00","2018","06","18","18:00","25.0","","9.6","","37","","","","14","","4","","24.1","","99.47","","26","","","","Cloudy"
"-94.71","56.36","GILLAM A","5061022","2018-06-18 19:00","2018","06","18","19:00"
"-94.71","56.36","GILLAM A","5061022","2018-06-18 20:00","2018","06","18","20:00"
"-94.71","56.36","GILLAM A","5061022","2018-06-18 21:00","2018","06","18","21:00"
"-94.71","56.36","GILLAM A","5061022","2018-06-18 22:00","2018","06","18","22:00"
"-94.71","56.36","GILLAM A","5061022","2018-06-18 23:00","2018","06","18","23:00"
"-94.71","56.36","GILLAM A","5061022","2018-06-19 00:00","2018","06","19","00:00"
"-94.71","56.36","GILLAM A","5061022","2018-06-19 01:00","2018","06","19","01:00"
"-94.71","56.36","GILLAM A","5061022","2018-06-19 02:00","2018","06","19","02:00"
"-94.71","56.36","GILLAM A","5061022","2018-06-19 03:00","2018","06","19","03:00"
"-94.71","56.36","GILLAM A","5061022","2018-06-19 04:00","2018","06","19","04:00"
"-94.71","56.36","GILLAM A","5061022","2018-06-19 05:00","2018","06","19","05:00"
"-94.71","56.36","GILLAM A","5061022","2018-06-19 06:00","2018","06","19","06:00"
"-94.71","56.36","GILLAM A","5061022","2018-06-19 07:00","2018","06","19","07:00","8.4","","4.2","","75","","","","4","","19","","24.1","","100.13","","","","","","NA"
"-94.71","56.36","GILLAM A","5061022","2018-06-19 08:00","2018","06","19","08:00","9.5","","3.6","","66","","","","5","","13","","24.1","","100.16","","","","","","NA"
"-94.71","56.36","GILLAM A","5061022","2018-06-19 09:00","2018","06","19","09:00","11.8","","3.8","","58","","","","6","","12","","24.1","","100.16","","","","","","Mostly Cloudy"
"-94.71","56.36","GILLAM A","5061022","2018-06-19 10:00","2018","06","19","10:00","12.3","","3.7","","55","","","","3","","16","","24.1","","100.19","","","","","","NA"
"-94.71","56.36","GILLAM A","5061022","2018-06-19 11:00","2018","06","19","11:00","13.6","","3.5","","50","","","","5","","12","","24.1","","100.18","","","","","","NA"
"-94.71","56.36","GILLAM A","5061022","2018-06-19 12:00","2018","06","19","12:00","14.8","","4.0","","48","","","","3","","15","","24.1","","100.16","","","","","","Mostly Cloudy"
"-94.71","56.36","GILLAM A","5061022","2018-06-19 13:00","2018","06","19","13:00","16.2","","4.5","","45","","","","3","","13","","24.1","","100.16","","","","","","NA"
"-94.71","56.36","GILLAM A","5061022","2018-06-19 14:00","2018","06","19","14:00","16.4","","3.8","","43","","","","2","","16","","24.1","","100.19","","","","","","NA"
"-94.71","56.36","GILLAM A","5061022","2018-06-19 15:00","2018","06","19","15:00","16.6","","3.8","","42","","","","7","","8","","24.1","","100.16","","","","","","Mostly Cloudy"
"-94.71","56.36","GILLAM A","5061022","2018-06-19 16:00","2018","06","19","16:00","16.6","","3.8","","42","","","","5","","11","","24.1","","100.15","","","","","","NA"
"-94.71","56.36","GILLAM A","5061022","2018-06-19 17:00","2018","06","19","17:00","15.9","","3.1","","42","","","","9","","8","","24.1","","100.13","","","","","","NA"
"-94.71","56.36","GILLAM A","5061022","2018-06-19 18:00","2018","06","19","18:00","16.8","","3.0","","39","","","","13","","8","","24.1","","100.11","","","","","","Mostly Cloudy"
"-94.71","56.36","GILLAM A","5061022","2018-06-19 19:00","2018","06","19","19:00"
"-94.71","56.36","GILLAM A","5061022","2018-06-19 20:00","2018","06","19","20:00"
"-94.71","56.36","GILLAM A","5061022","2018-06-19 21:00","2018","06","19","21:00"
"-94.71","56.36","GILLAM A","5061022","2018-06-19 22:00","2018","06","19","22:00"
"-94.71","56.36","GILLAM A","5061022","2018-06-19 23:00","2018","06","19","23:00"
"-94.71","56.36","GILLAM A","5061022","2018-06-20 00:00","2018","06","20","00:00"
"-94.71","56.36","GILLAM A","5061022","2018-06-20 01:00","2018","06","20","01:00"
"-94.71","56.36","GILLAM A","5061022","2018-06-20 02:00","2018","06","20","02:00"
"-94.71","56.36","GILLAM A","5061022","2018-06-20 03:00","2018","06","20","03:00"
"-94.71","56.36","GILLAM A","5061022","2018-06-20 04:00","2018","06","20","04:00"
"-94.71","56.36","GILLAM A","5061022","2018-06-20 05:00","2018","06","20","05:00"
"-94.71","56.36","GILLAM A","5061022","2018-06-20 06:00","2018","06","20","06:00"
"-94.71","56.36","GILLAM A","5061022","2018-06-20 07:00","2018","06","20","07:00","13.2","","3.3","","51","","","","19","","16","","24.1","","100.02","","","","","","NA"
"-94.71","56.36","GILLAM A","5061022","2018-06-20 08:00","2018","06","20","08:00","13.8","","3.3","","49","","","","19","","15","","24.1","","100.01","","","","","","NA"
"-94.71","56.36","GILLAM A","5061022","2018-06-20 09:00","2018","06","20","09:00","14.2","","3.4","","48","","","","18","","13","","24.1","","99.98","","","","","","Cloudy"
"-94.71","56.36","GILLAM A","5061022","2018-06-20 10:00","2018","06","20","10:00","15.0","","4.2","","48","","","","18","","14","","24.1","","99.95","","","","","","NA"
"-94.71","56.36","GILLAM A","5061022","2018-06-20 11:00","2018","06","20","11:00","15.3","","3.8","","46","","","","17","","14","","24.1","","99.88","","","","","","NA"
"-94.71","56.36","GILLAM A","5061022","2018-06-20 12:00","2018","06","20","12:00","13.2","","7.1","","66","","","","21","","10","","24.1","","99.84","","","","","","Rain"
"-94.71","56.36","GILLAM A","5061022","2018-06-20 13:00","2018","06","20","13:00","12.3","","9.0","","80","","","","20","","10","","24.1","","99.79","","","","","","Rain"
"-94.71","56.36","GILLAM A","5061022","2018-06-20 14:00","2018","06","20","14:00","10.5","","8.9","","90","","","","16","","8","","8.1","","99.75","","","","","","Moderate Rain"
"-94.71","56.36","GILLAM A","5061022","2018-06-20 15:00","2018","06","20","15:00","10.9","","9.8","","93","","","","13","","9","","24.1","","99.69","","","","","","Cloudy"
"-94.71","56.36","GILLAM A","5061022","2018-06-20 16:00","2018","06","20","16:00","14.3","","11.5","","83","","","","13","","9","","24.1","","99.60","","","","","","NA"
"-94.71","56.36","GILLAM A","5061022","2018-06-20 17:00","2018","06","20","17:00","16.1","","11.7","","75","","","","15","","12","","24.1","","99.49","","","","","","NA"
"-94.71","56.36","GILLAM A","5061022","2018-06-20 18:00","2018","06","20","18:00","18.0","","11.9","","67","","","","14","","8","","24.1","","99.43","","","","","","Mostly Cloudy"
"-94.71","56.36","GILLAM A","5061022","2018-06-20 19:00","2018","06","20","19:00"
"-94.71","56.36","GILLAM A","5061022","2018-06-20 20:00","2018","06","20","20:00"
"-94.71","56.36","GILLAM A","5061022","2018-06-20 21:00","2018","06","20","21:00"
"-94.71","56.36","GILLAM A","5061022","2018-06-20 22:00","2018","06","20","22:00"
"-94.71","56.36","GILLAM A","5061022","2018-06-20 23:00","2018","06","20","23:00"
"-94.71","56.36","GILLAM A","5061022","2018-06-21 00:00","2018","06","21","00:00"
"-94.71","56.36","GILLAM A","5061022","2018-06-21 01:00","2018","06","21","01:00"
"-94.71","56.36","GILLAM A","5061022","2018-06-21 02:00","2018","06","21","02:00"
"-94.71","56.36","GILLAM A","5061022","2018-06-21 03:00","2018","06","21","03:00"
"-94.71","56.36","GILLAM A","5061022","2018-06-21 04:00","2018","06","21","04:00"
"-94.71","56.36","GILLAM A","5061022","2018-06-21 05:00","2018","06","21","05:00"
"-94.71","56.36","GILLAM A","5061022","2018-06-21 06:00","2018","06","21","06:00"
"-94.71","56.36","GILLAM A","5061022","2018-06-21 07:00","2018","06","21","07:00","16.1","","10.8","","70","","","","1","","10","","24.1","","99.26","","","","","","NA"
"-94.71","56.36","GILLAM A","5061022","2018-06-21 08:00","2018","06","21","08:00","19.6","","11.9","","61","","","","3","","16","","24.1","","99.27","","","","","","NA"
"-94.71","56.36","GILLAM A","5061022","2018-06-21 09:00","2018","06","21","09:00","21.5","","12.2","","55","","","","5","","16","","24.1","","99.30","","","","","","Mainly Clear"
"-94.71","56.36","GILLAM A","5061022","2018-06-21 10:00","2018","06","21","10:00","23.2","","13.9","","56","","","","3","","22","","24.1","","99.34","","27","","","","NA"
"-94.71","56.36","GILLAM A","5061022","2018-06-21 11:00","2018","06","21","11:00","21.9","","14.4","","62","","","","4","","18","","24.1","","99.42","","26","","","","NA"
"-94.71","56.36","GILLAM A","5061022","2018-06-21 12:00","2018","06","21","12:00","21.5","","15.1","","67","","","","3","","23","","24.1","","99.47","","26","","","","Mainly Clear"
"-94.71","56.36","GILLAM A","5061022","2018-06-21 13:00","2018","06","21","13:00","21.7","","13.6","","60","","","","4","","25","","24.1","","99.52","","25","","","","NA"
"-94.71","56.36","GILLAM A","5061022","2018-06-21 14:00","2018","06","21","14:00","20.6","","11.8","","57","","","","4","","18","","24.1","","99.58","","","","","","NA"
"-94.71","56.36","GILLAM A","5061022","2018-06-21 15:00","2018","06","21","15:00","19.8","","10.4","","54","","","","3","","19","","24.1","","99.63","","","","","","Mainly Clear"
"-94.71","56.36","GILLAM A","5061022","2018-06-21 16:00","2018","06","21","16:00","19.5","","6.8","","43","","","","5","","17","","24.1","","99.66","","","","","","NA"
"-94.71","56.36","GILLAM A","5061022","2018-06-21 17:00","2018","06","21","17:00","19.3","","6.1","","42","","","","7","","16","","24.1","","99.64","","","","","","NA"
"-94.71","56.36","GILLAM A","5061022","2018-06-21 18:00","2018","06","21","18:00","18.7","","4.0","","38","","","","6","","15","","24.1","","99.66","","","","","","Mainly Clear"
"-94.71","56.36","GILLAM A","5061022","2018-06-21 19:00","2018","06","21","19:00"
"-94.71","56.36","GILLAM A","5061022","2018-06-21 20:00","2018","06","21","20:00"
"-94.71","56.36","GILLAM A","5061022","2018-06-21 21:00","2018","06","21","21:00"
"-94.71","56.36","GILLAM A","5061022","2018-06-21 22:00","2018","06","21","22:00"
"-94.71","56.36","GILLAM A","5061022","2018-06-21 23:00","2018","06","21","23:00"
"-94.71","56.36","GILLAM A","5061022","2018-06-22 00:00","2018","06","22","00:00"
"-94.71","56.36","GILLAM A","5061022","2018-06-22 01:00","2018","06","22","01:00"
"-94.71","56.36","GILLAM A","5061022","2018-06-22 02:00","2018","06","22","02:00"
"-94.71","56.36","GILLAM A","5061022","2018-06-22 03:00","2018","06","22","03:00"
"-94.71","56.36","GILLAM A","5061022","2018-06-22 04:00","2018","06","22","04:00"
"-94.71","56.36","GILLAM A","5061022","2018-06-22 05:00","2018","06","22","05:00"
"-94.71","56.36","GILLAM A","5061022","2018-06-22 06:00","2018","06","22","06:00"
"-94.71","56.36","GILLAM A","5061022","2018-06-22 07:00","2018","06","22","07:00","7.3","","2.0","","69","","","","14","","6","","24.1","","99.86","","","","","","NA"
"-94.71","56.36","GILLAM A","5061022","2018-06-22 08:00","2018","06","22","08:00","8.8","","2.4","","64","","","","9","","5","","24.1","","99.83","","","","","","NA"
"-94.71","56.36","GILLAM A","5061022","2018-06-22 09:00","2018","06","22","09:00","10.7","","0.9","","51","","","","10","","9","","24.1","","99.81","","","","","","Mostly Cloudy"
"-94.71","56.36","GILLAM A","5061022","2018-06-22 10:00","2018","06","22","10:00","12.0","","-0.6","","42","","","","9","","8","","24.1","","99.82","","","","","","NA"
"-94.71","56.36","GILLAM A","5061022","2018-06-22 11:00","2018","06","22","11:00","13.2","","-1.6","","36","","","","9","","7","","24.1","","99.83","","","","","","NA"
"-94.71","56.36","GILLAM A","5061022","2018-06-22 12:00","2018","06","22","12:00","13.9","","-0.8","","36","","","","10","","7","","24.1","","99.79","","","","","","Rain"
"-94.71","56.36","GILLAM A","5061022","2018-06-22 13:00","2018","06","22","13:00","13.6","","1.9","","45","","","","8","","4","","24.1","","99.78","","","","","","NA"
"-94.71","56.36","GILLAM A","5061022","2018-06-22 14:00","2018","06","22","14:00","14.0","","2.3","","45","","","","7","","7","","24.1","","99.76","","","","","","Rain"
"-94.71","56.36","GILLAM A","5061022","2018-06-22 15:00","2018","06","22","15:00","14.2","","1.5","","42","","","","9","","9","","24.1","","99.72","","","","","","Mostly Cloudy"
"-94.71","56.36","GILLAM A","5061022","2018-06-22 16:00","2018","06","22","16:00","14.3","","2.3","","44","","","","8","","5","","24.1","","99.70","","","","","","NA"
"-94.71","56.36","GILLAM A","5061022","2018-06-22 17:00","2018","06","22","17:00","14.8","","3.7","","47","","","","13","","5","","24.1","","99.70","","","","","","Rain"
"-94.71","56.36","GILLAM A","5061022","2018-06-22 18:00","2018","06","22","18:00","15.1","","2.9","","43","","","","14","","6","","24.1","","99.68","","","","","","Mostly Cloudy"
"-94.71","56.36","GILLAM A","5061022","2018-06-22 19:00","2018","06","22","19:00"
"-94.71","56.36","GILLAM A","5061022","2018-06-22 20:00","2018","06","22","20:00"
"-94.71","56.36","GILLAM A","5061022","2018-06-22 21:00","2018","06","22","21:00"
"-94.71","56.36","GILLAM A","5061022","2018-06-22 22:00","2018","06","22","22:00"
"-94.71","56.36","GILLAM A","5061022","2018-06-22 23:00","2018","06","22","23:00"
"-94.71","56.36","GILLAM A","5061022","2018-06-23 00:00","2018","06","23","00:00"
"-94.71","56.36","GILLAM A","5061022","2018-06-23 01:00","2018","06","23","01:00"
"-94.71","56.36","GILLAM A","5061022","2018-06-23 02:00","2018","06","23","02:00"
"-94.71","56.36","GILLAM A","5061022","2018-06-23 03:00","2018","06","23","03:00"
"-94.71","56.36","GILLAM A","5061022","2018-06-23 04:00","2018","06","23","04:00"
"-94.71","56.36","GILLAM A","5061022","2018-06-23 05:00","2018","06","23","05:00"
"-94.71","56.36","GILLAM A","5061022","2018-06-23 06:00","2018","06","23","06:00"
"-94.71","56.36","GILLAM A","5061022","2018-06-23 07:00","2018","06","23","07:00","10.6","","3.6","","62","","","","11","","7","","24.1","","100.00","","","","","","NA"
"-94.71","56.36","GILLAM A","5061022","2018-06-23 08:00","2018","06","23","08:00","14.0","","1.7","","43","","","","14","","12","","24.1","","100.00","","","","","","NA"
"-94.71","56.36","GILLAM A","5061022","2018-06-23 09:00","2018","06","23","09:00","16.3","","-0.1","","33","","","","12","","14","","24.1","","100.00","","","","","","Clear"
"-94.71","56.36","GILLAM A","5061022","2018-06-23 10:00","2018","06","23","10:00","17.9","","0.4","","31","","","","10","","10","","24.1","","100.00","","","","","","NA"
"-94.71","56.36","GILLAM A","5061022","2018-06-23 11:00","2018","06","23","11:00","19.3","","1.0","","29","","","","11","","8","","24.1","","100.01","","","","","","NA"
"-94.71","56.36","GILLAM A","5061022","2018-06-23 12:00","2018","06","23","12:00","19.7","","1.1","","29","","","","18","","10","","24.1","","100.00","","","","","","Clear"
"-94.71","56.36","GILLAM A","5061022","2018-06-23 13:00","2018","06","23","13:00","20.8","","-0.3","","24","","","","11","","8","","24.1","","100.01","","","","","","NA"
"-94.71","56.36","GILLAM A","5061022","2018-06-23 14:00","2018","06","23","14:00","21.4","","2.5","","28","","","","4","","7","","24.1","","100.02","","","","","","NA"
"-94.71","56.36","GILLAM A","5061022","2018-06-23 15:00","2018","06","23","15:00","21.6","","2.9","","29","","","","4","","17","","24.1","","99.99","","","","","","Clear"
"-94.71","56.36","GILLAM A","5061022","2018-06-23 16:00","2018","06","23","16:00","22.4","","1.6","","25","","","","11","","11","","24.1","","100.00","","","","","","NA"
"-94.71","56.36","GILLAM A","5061022","2018-06-23 17:00","2018","06","23","17:00","22.0","","3.3","","29","","","","6","","12","","24.1","","99.99","","","","","","NA"
"-94.71","56.36","GILLAM A","5061022","2018-06-23 18:00","2018","06","23","18:00","22.2","","2.5","","27","","","","8","","10","","24.1","","99.99","","","","","","Mainly Clear"
"-94.71","56.36","GILLAM A","5061022","2018-06-23 19:00","2018","06","23","19:00"
"-94.71","56.36","GILLAM A","5061022","2018-06-23 20:00","2018","06","23","20:00"
"-94.71","56.36","GILLAM A","5061022","2018-06-23 21:00","2018","06","23","21:00"
"-94.71","56.36","GILLAM A","5061022","2018-06-23 22:00","2018","06","23","22:00"
"-94.71","56.36","GILLAM A","5061022","2018-06-23 23:00","2018","06","23","23:00"
"-94.71","56.36","GILLAM A","5061022","2018-06-24 00:00","2018","06","24","00:00"
"-94.71","56.36","GILLAM A","5061022","2018-06-24 01:00","2018","06","24","01:00"
"-94.71","56.36","GILLAM A","5061022","2018-06-24 02:00","2018","06","24","02:00"
"-94.71","56.36","GILLAM A","5061022","2018-06-24 03:00","2018","06","24","03:00"
"-94.71","56.36","GILLAM A","5061022","2018-06-24 04:00","2018","06","24","04:00"
"-94.71","56.36","GILLAM A","5061022","2018-06-24 05:00","2018","06","24","05:00"
"-94.71","56.36","GILLAM A","5061022","2018-06-24 06:00","2018","06","24","06:00"
"-94.71","56.36","GILLAM A","5061022","2018-06-24 07:00","2018","06","24","07:00","16.6","","4.2","","43","","","","22","","17","","24.1","","100.33","","","","","","NA"
"-94.71","56.36","GILLAM A","5061022","2018-06-24 08:00","2018","06","24","08:00","19.1","","4.7","","38","","","","19","","14","","24.1","","100.32","","","","","","NA"
"-94.71","56.36","GILLAM A","5061022","2018-06-24 09:00","2018","06","24","09:00","20.3","","4.0","","34","","","","24","","15","","24.1","","100.31","","","","","","Mostly Cloudy"
"-94.71","56.36","GILLAM A","5061022","2018-06-24 10:00","2018","06","24","10:00","21.7","","3.4","","30","","","","23","","16","","24.1","","100.28","","","","","","NA"
"-94.71","56.36","GILLAM A","5061022","2018-06-24 11:00","2018","06","24","11:00","22.3","","4.0","","30","","","","19","","15","","24.1","","100.25","","","","","","NA"
"-94.71","56.36","GILLAM A","5061022","2018-06-24 12:00","2018","06","24","12:00","23.2","","4.3","","29","","","","17","","19","","24.1","","100.22","","","","","","Mainly Clear"
"-94.71","56.36","GILLAM A","5061022","2018-06-24 13:00","2018","06","24","13:00","24.3","","3.1","","25","","","","19","","26","","24.1","","100.16","","","","","","NA"
"-94.71","56.36","GILLAM A","5061022","2018-06-24 14:00","2018","06","24","14:00","24.9","","1.8","","22","","","","19","","25","","24.1","","100.10","","","","","","NA"
"-94.71","56.36","GILLAM A","5061022","2018-06-24 15:00","2018","06","24","15:00","25.0","","1.2","","21","","","","20","","30","","24.1","","100.03","","","","","","Mostly Cloudy"
"-94.71","56.36","GILLAM A","5061022","2018-06-24 16:00","2018","06","24","16:00","24.8","","3.2","","24","","","","20","","24","","22.5","","99.98","","","","","","NA"
"-94.71","56.36","GILLAM A","5061022","2018-06-24 17:00","2018","06","24","17:00","25.1","","2.6","","23","","","","21","","21","","24.1","","99.92","","","","","","NA"
"-94.71","56.36","GILLAM A","5061022","2018-06-24 18:00","2018","06","24","18:00","24.8","","3.9","","25","","","","18","","16","","24.1","","99.82","","","","","","Mainly Clear"
"-94.71","56.36","GILLAM A","5061022","2018-06-24 19:00","2018","06","24","19:00"
"-94.71","56.36","GILLAM A","5061022","2018-06-24 20:00","2018","06","24","20:00"
"-94.71","56.36","GILLAM A","5061022","2018-06-24 21:00","2018","06","24","21:00"
"-94.71","56.36","GILLAM A","5061022","2018-06-24 22:00","2018","06","24","22:00"
"-94.71","56.36","GILLAM A","5061022","2018-06-24 23:00","2018","06","24","23:00"
"-94.71","56.36","GILLAM A","5061022","2018-06-25 00:00","2018","06","25","00:00"
"-94.71","56.36","GILLAM A","5061022","2018-06-25 01:00","2018","06","25","01:00"
"-94.71","56.36","GILLAM A","5061022","2018-06-25 02:00","2018","06","25","02:00"
"-94.71","56.36","GILLAM A","5061022","2018-06-25 03:00","2018","06","25","03:00"
"-94.71","56.36","GILLAM A","5061022","2018-06-25 04:00","2018","06","25","04:00"
"-94.71","56.36","GILLAM A","5061022","2018-06-25 05:00","2018","06","25","05:00"
"-94.71","56.36","GILLAM A","5061022","2018-06-25 06:00","2018","06","25","06:00"
"-94.71","56.36","GILLAM A","5061022","2018-06-25 07:00","2018","06","25","07:00","18.5","","13.9","","74","","","","22","","17","","24.1","","99.46","","","","","","Rain"
"-94.71","56.36","GILLAM A","5061022","2018-06-25 08:00","2018","06","25","08:00","19.3","","14.8","","75","","","","22","","15","","24.1","","99.45","","","","","","Rain"
"-94.71","56.36","GILLAM A","5061022","2018-06-25 09:00","2018","06","25","09:00","20.6","","16.0","","74","","","","22","","22","","24.1","","99.40","","25","","","","Rain"
"-94.71","56.36","GILLAM A","5061022","2018-06-25 10:00","2018","06","25","10:00","23.4","","16.4","","64","","","","23","","26","","24.1","","99.35","","28","","","","NA"
"-94.71","56.36","GILLAM A","5061022","2018-06-25 11:00","2018","06","25","11:00","26.9","","15.9","","50","","","","23","","25","","24.1","","99.29","","31","","","","NA"
"-94.71","56.36","GILLAM A","5061022","2018-06-25 12:00","2018","06","25","12:00","27.8","","16.0","","48","","","","21","","25","","24.1","","99.24","","32","","","","Mostly Cloudy"
"-94.71","56.36","GILLAM A","5061022","2018-06-25 13:00","2018","06","25","13:00","28.2","","16.1","","47","","","","23","","27","","24.1","","99.18","","33","","","","NA"
"-94.71","56.36","GILLAM A","5061022","2018-06-25 14:00","2018","06","25","14:00","28.9","","16.6","","47","","","","25","","28","","24.1","","99.10","","34","","","","NA"
"-94.71","56.36","GILLAM A","5061022","2018-06-25 15:00","2018","06","25","15:00","28.0","","17.1","","51","","","","23","","34","","24.1","","99.11","","33","","","","Mostly Cloudy"
"-94.71","56.36","GILLAM A","5061022","2018-06-25 16:00","2018","06","25","16:00","26.1","","16.5","","55","","","","23","","28","","24.1","","99.11","","31","","","","NA"
"-94.71","56.36","GILLAM A","5061022","2018-06-25 17:00","2018","06","25","17:00","26.4","","17.4","","57","","","","23","","22","","24.1","","99.15","","32","","","","NA"
"-94.71","56.36","GILLAM A","5061022","2018-06-25 18:00","2018","06","25","18:00","25.8","","18.2","","62","","","","24","","19","","24.1","","99.10","","32","","","","Mostly Cloudy"
"-94.71","56.36","GILLAM A","5061022","2018-06-25 19:00","2018","06","25","19:00"
"-94.71","56.36","GILLAM A","5061022","2018-06-25 20:00","2018","06","25","20:00"
"-94.71","56.36","GILLAM A","5061022","2018-06-25 21:00","2018","06","25","21:00"
"-94.71","56.36","GILLAM A","5061022","2018-06-25 22:00","2018","06","25","22:00"
"-94.71","56.36","GILLAM A","5061022","2018-06-25 23:00","2018","06","25","23:00"
"-94.71","56.36","GILLAM A","5061022","2018-06-26 00:00","2018","06","26","00:00"
"-94.71","56.36","GILLAM A","5061022","2018-06-26 01:00","2018","06","26","01:00"
"-94.71","56.36","GILLAM A","5061022","2018-06-26 02:00","2018","06","26","02:00"
"-94.71","56.36","GILLAM A","5061022","2018-06-26 03:00","2018","06","26","03:00"
"-94.71","56.36","GILLAM A","5061022","2018-06-26 04:00","2018","06","26","04:00"
"-94.71","56.36","GILLAM A","5061022","2018-06-26 05:00","2018","06","26","05:00"
"-94.71","56.36","GILLAM A","5061022","2018-06-26 06:00","2018","06","26","06:00"
"-94.71","56.36","GILLAM A","5061022","2018-06-26 07:00","2018","06","26","07:00","9.2","","7.6","","90","","","","6","","18","","24.1","","99.67","","","","","","NA"
"-94.71","56.36","GILLAM A","5061022","2018-06-26 08:00","2018","06","26","08:00","8.4","","6.2","","86","","","","7","","17","","24.1","","99.71","","","","","","NA"
"-94.71","56.36","GILLAM A","5061022","2018-06-26 09:00","2018","06","26","09:00","9.6","","7.0","","84","","","","7","","11","","24.1","","99.68","","","","","","Cloudy"
"-94.71","56.36","GILLAM A","5061022","2018-06-26 10:00","2018","06","26","10:00","9.1","","7.6","","90","","","","8","","16","","24.1","","99.67","","","","","","Rain"
"-94.71","56.36","GILLAM A","5061022","2018-06-26 11:00","2018","06","26","11:00","10.5","","9.0","","91","","","","7","","9","","24.1","","99.64","","","","","","Rain"
"-94.71","56.36","GILLAM A","5061022","2018-06-26 12:00","2018","06","26","12:00","11.8","","9.2","","84","","","","7","","17","","24.1","","99.60","","","","","","Rain"
"-94.71","56.36","GILLAM A","5061022","2018-06-26 13:00","2018","06","26","13:00","12.4","","10.7","","89","","","","9","","11","","24.1","","99.54","","","","","","NA"
"-94.71","56.36","GILLAM A","5061022","2018-06-26 14:00","2018","06","26","14:00","12.9","","9.2","","78","","","","9","","15","","24.1","","99.48","","","","","","NA"
"-94.71","56.36","GILLAM A","5061022","2018-06-26 15:00","2018","06","26","15:00","13.0","","8.9","","76","","","","9","","18","","24.1","","99.39","","","","","","Mostly Cloudy"
"-94.71","56.36","GILLAM A","5061022","2018-06-26 16:00","2018","06","26","16:00","13.0","","8.7","","75","","","","9","","15","","24.1","","99.37","","","","","","NA"
"-94.71","56.36","GILLAM A","5061022","2018-06-26 17:00","2018","06","26","17:00","17.2","","9.3","","59","","","","9","","17","","24.1","","99.32","","","","","","NA"
"-94.71","56.36","GILLAM A","5061022","2018-06-26 18:00","2018","06","26","18:00","17.6","","9.5","","58","","","","9","","17","","24.1","","99.22","","","","","","Mostly Cloudy"
"-94.71","56.36","GILLAM A","5061022","2018-06-26 19:00","2018","06","26","19:00"
"-94.71","56.36","GILLAM A","5061022","2018-06-26 20:00","2018","06","26","20:00"
"-94.71","56.36","GILLAM A","5061022","2018-06-26 21:00","2018","06","26","21:00"
"-94.71","56.36","GILLAM A","5061022","2018-06-26 22:00","2018","06","26","22:00"
"-94.71","56.36","GILLAM A","5061022","2018-06-26 23:00","2018","06","26","23:00"
"-94.71","56.36","GILLAM A","5061022","2018-06-27 00:00","2018","06","27","00:00"
"-94.71","56.36","GILLAM A","5061022","2018-06-27 01:00","2018","06","27","01:00"
"-94.71","56.36","GILLAM A","5061022","2018-06-27 02:00","2018","06","27","02:00"
"-94.71","56.36","GILLAM A","5061022","2018-06-27 03:00","2018","06","27","03:00"
"-94.71","56.36","GILLAM A","5061022","2018-06-27 04:00","2018","06","27","04:00"
"-94.71","56.36","GILLAM A","5061022","2018-06-27 05:00","2018","06","27","05:00"
"-94.71","56.36","GILLAM A","5061022","2018-06-27 06:00","2018","06","27","06:00"
"-94.71","56.36","GILLAM A","5061022","2018-06-27 07:00","2018","06","27","07:00","8.0","","8.0","","100","","","","36","","11","","3.2","","98.48","","","","","","Heavy Rain"
"-94.71","56.36","GILLAM A","5061022","2018-06-27 08:00","2018","06","27","08:00","10.1","","9.6","","97","","","","8","","10","","6.4","","98.47","","","","","","Fog"
"-94.71","56.36","GILLAM A","5061022","2018-06-27 09:00","2018","06","27","09:00","10.7","","10.1","","96","","","","11","","15","","9.7","","98.40","","","","","","Fog"
"-94.71","56.36","GILLAM A","5061022","2018-06-27 10:00","2018","06","27","10:00","11.6","","11.1","","97","","","","10","","8","","24.1","","98.42","","","","","","NA"
"-94.71","56.36","GILLAM A","5061022","2018-06-27 11:00","2018","06","27","11:00","13.2","","12.5","","96","","","","8","","7","","3.2","","98.39","","","","","","Fog"
"-94.71","56.36","GILLAM A","5061022","2018-06-27 12:00","2018","06","27","12:00","13.3","","12.7","","96","","","","3","","11","","3.2","","98.41","","","","","","Fog"
"-94.71","56.36","GILLAM A","5061022","2018-06-27 13:00","2018","06","27","13:00","14.8","","13.6","","92","","","","4","","9","","3.2","","98.40","","","","","","Fog"
"-94.71","56.36","GILLAM A","5061022","2018-06-27 14:00","2018","06","27","14:00","17.2","","15.1","","87","","","","1","","6","","24.1","","98.43","","","","","","NA"
"-94.71","56.36","GILLAM A","5061022","2018-06-27 15:00","2018","06","27","15:00","19.7","","15.8","","78","","","","1","","12","","24.1","","98.40","","","","","","Mostly Cloudy"
"-94.71","56.36","GILLAM A","5061022","2018-06-27 16:00","2018","06","27","16:00","20.7","","15.9","","74","","","","3","","10","","24.1","","98.40","","25","","","","NA"
"-94.71","56.36","GILLAM A","5061022","2018-06-27 17:00","2018","06","27","17:00","20.7","","15.1","","70","","","","3","","11","","24.1","","98.40","","25","","","","NA"
"-94.71","56.36","GILLAM A","5061022","2018-06-27 18:00","2018","06","27","18:00","19.2","","14.0","","72","","","","4","","13","","24.1","","98.42","","","","","","Mostly Cloudy"
"-94.71","56.36","GILLAM A","5061022","2018-06-27 19:00","2018","06","27","19:00","17.8","","13.4","","76","","","","6","","12","","24.1","","98.47","","","","","","NA"
"-94.71","56.36","GILLAM A","5061022","2018-06-27 20:00","2018","06","27","20:00","16.3","","12.4","","77","","","","7","","8","","24.1","","98.52","","","","","","NA"
"-94.71","56.36","GILLAM A","5061022","2018-06-27 21:00","2018","06","27","21:00","13.9","","11.6","","86","","","","9","","9","","24.1","","98.58","","","","","","Mostly Cloudy"
"-94.71","56.36","GILLAM A","5061022","2018-06-27 22:00","2018","06","27","22:00","13.0","","11.4","","90","","","","8","","5","","24.1","","98.61","","","","","","NA"
"-94.71","56.36","GILLAM A","5061022","2018-06-27 23:00","2018","06","27","23:00","12.2","","10.9","","92","","","","10","","5","","24.1","","98.62","","","","","","NA"
"-94.71","56.36","GILLAM A","5061022","2018-06-28 00:00","2018","06","28","00:00","11.1","","10.3","","95","","","","6","","10","","24.1","","98.65","","","","","","Cloudy"
"-94.71","56.36","GILLAM A","5061022","2018-06-28 01:00","2018","06","28","01:00","9.6","","9.2","","98","","","","6","","9","","1.0","","98.64","","","","","","Fog"
"-94.71","56.36","GILLAM A","5061022","2018-06-28 02:00","2018","06","28","02:00","8.4","","7.8","","96","","","","5","","14","","6.4","","98.67","","","","","","Fog"
"-94.71","56.36","GILLAM A","5061022","2018-06-28 03:00","2018","06","28","03:00","7.0","","6.5","","97","","","","8","","9","","2.4","","98.65","","","","","","Fog"
"-94.71","56.36","GILLAM A","5061022","2018-06-28 04:00","2018","06","28","04:00","6.3","","5.9","","97","","","","8","","7","","0.4","","98.68","","","","","","Fog"
"-94.71","56.36","GILLAM A","5061022","2018-06-28 05:00","2018","06","28","05:00","5.9","","5.0","","94","","","","8","","7","","3.6","","98.72","","","","","","Fog"
"-94.71","56.36","GILLAM A","5061022","2018-06-28 06:00","2018","06","28","06:00","5.3","","4.5","","94","","","","8","","8","","4.0","","98.76","","","","","","Fog"
"-94.71","56.36","GILLAM A","5061022","2018-06-28 07:00","2018","06","28","07:00","5.8","","4.7","","92","","","","7","","10","","4.0","","98.75","","","","","","Fog"
"-94.71","56.36","GILLAM A","5061022","2018-06-28 08:00","2018","06","28","08:00","6.5","","4.9","","89","","","","8","","10","","4.0","","98.79","","","","","","Fog"
"-94.71","56.36","GILLAM A","5061022","2018-06-28 09:00","2018","06","28","09:00","8.2","","5.7","","84","","","","6","","15","","24.1","","98.75","","","","","","Cloudy"
"-94.71","56.36","GILLAM A","5061022","2018-06-28 10:00","2018","06","28","10:00","10.9","","6.5","","74","","","","8","","11","","24.1","","98.74","","","","","","NA"
"-94.71","56.36","GILLAM A","5061022","2018-06-28 11:00","2018","06","28","11:00"
"-94.71","56.36","GILLAM A","5061022","2018-06-28 12:00","2018","06","28","12:00","13.2","","8.4","","72","","","","6","","16","","24.1","","98.71","","","","","","Mostly Cloudy"
"-94.71","56.36","GILLAM A","5061022","2018-06-28 13:00","2018","06","28","13:00","14.2","","8.3","","67","","","","8","","16","","24.1","","98.69","","","","","","NA"
"-94.71","56.36","GILLAM A","5061022","2018-06-28 14:00","2018","06","28","14:00","16.0","","9.2","","63","","","","7","","14","","24.1","","98.61","","","","","","NA"
"-94.71","56.36","GILLAM A","5061022","2018-06-28 15:00","2018","06","28","15:00","14.1","","8.2","","67","","","","8","","17","","24.1","","98.63","","","","","","Mostly Cloudy"
"-94.71","56.36","GILLAM A","5061022","2018-06-28 16:00","2018","06","28","16:00","14.5","","7.7","","63","","","","8","","20","","24.1","","98.68","","","","","","NA"
"-94.71","56.36","GILLAM A","5061022","2018-06-28 17:00","2018","06","28","17:00","13.5","","7.5","","67","","","","7","","16","","24.1","","98.71","","","","","","NA"
"-94.71","56.36","GILLAM A","5061022","2018-06-28 18:00","2018","06","28","18:00","12.8","","8.2","","73","","","","6","","16","","24.1","","98.77","","","","","","Mostly Cloudy"
"-94.71","56.36","GILLAM A","5061022","2018-06-28 19:00","2018","06","28","19:00","11.0","","8.1","","82","","","","3","","17","","19.3","","98.90","","","","","","Rain Showers"
"-94.71","56.36","GILLAM A","5061022","2018-06-28 20:00","2018","06","28","20:00","9.1","","7.2","","88","","","","7","","16","","24.1","","98.84","","","","","","NA"
"-94.71","56.36","GILLAM A","5061022","2018-06-28 21:00","2018","06","28","21:00","8.5","","6.9","","90","","","","6","","11","","24.1","","98.91","","","","","","Mostly Cloudy"
"-94.71","56.36","GILLAM A","5061022","2018-06-28 22:00","2018","06","28","22:00","7.8","","6.3","","90","","","","7","","13","","24.1","","98.91","","","","","","Rain"
"-94.71","56.36","GILLAM A","5061022","2018-06-28 23:00","2018","06","28","23:00","7.3","","5.8","","90","","","","7","","14","","24.1","","98.96","","","","","","NA"
"-94.71","56.36","GILLAM A","5061022","2018-06-29 00:00","2018","06","29","00:00","7.5","","6.3","","92","","","","5","","13","","24.1","","99.01","","","","","","Cloudy"
"-94.71","56.36","GILLAM A","5061022","2018-06-29 01:00","2018","06","29","01:00","6.9","","5.7","","92","","","","7","","11","","24.1","","99.03","","","","","","NA"
"-94.71","56.36","GILLAM A","5061022","2018-06-29 02:00","2018","06","29","02:00","6.1","","5.1","","93","","","","7","","15","","24.1","","99.05","","","","","","NA"
"-94.71","56.36","GILLAM A","5061022","2018-06-29 03:00","2018","06","29","03:00","5.5","","4.5","","94","","","","7","","10","","6.4","","99.11","","","","","","Drizzle"
"-94.71","56.36","GILLAM A","5061022","2018-06-29 04:00","2018","06","29","04:00","5.3","","4.3","","94","","","","6","","9","","11.3","","99.15","","","","","","Drizzle"
"-94.71","56.36","GILLAM A","5061022","2018-06-29 05:00","2018","06","29","05:00","5.2","","4.3","","94","","","","8","","9","","24.1","","99.25","","","","","","NA"
"-94.71","56.36","GILLAM A","5061022","2018-06-29 06:00","2018","06","29","06:00","5.4","","4.7","","95","","","","7","","10","","24.1","","99.23","","","","","","Cloudy"
"-94.71","56.36","GILLAM A","5061022","2018-06-29 07:00","2018","06","29","07:00","5.5","","4.9","","96","","","","5","","15","","3.2","","99.24","","","","","","Fog"
"-94.71","56.36","GILLAM A","5061022","2018-06-29 08:00","2018","06","29","08:00","6.0","","4.8","","92","","","","7","","13","","3.2","","99.27","","","","","","Fog"
"-94.71","56.36","GILLAM A","5061022","2018-06-29 09:00","2018","06","29","09:00","6.2","","5.1","","92","","","","7","","9","","24.1","","99.33","","","","","","Cloudy"
"-94.71","56.36","GILLAM A","5061022","2018-06-29 10:00","2018","06","29","10:00","7.2","","5.4","","88","","","","6","","9","","24.1","","99.41","","","","","","NA"
"-94.71","56.36","GILLAM A","5061022","2018-06-29 11:00","2018","06","29","11:00","6.8","","5.5","","91","","","","7","","11","","24.1","","99.48","","","","","","NA"
"-94.71","56.36","GILLAM A","5061022","2018-06-29 12:00","2018","06","29","12:00","7.5","","5.6","","88","","","","7","","13","","24.1","","99.51","","","","","","Cloudy"
"-94.71","56.36","GILLAM A","5061022","2018-06-29 13:00","2018","06","29","13:00","7.8","","6.7","","93","","","","7","","15","","24.1","","99.51","","","","","","Rain"
"-94.71","56.36","GILLAM A","5061022","2018-06-29 14:00","2018","06","29","14:00","9.5","","7.7","","88","","","","6","","12","","24.1","","99.56","","","","","","Rain"
"-94.71","56.36","GILLAM A","5061022","2018-06-29 15:00","2018","06","29","15:00","10.7","","7.5","","81","","","","8","","15","","24.1","","99.57","","","","","","Cloudy"
"-94.71","56.36","GILLAM A","5061022","2018-06-29 16:00","2018","06","29","16:00","11.8","","7.4","","74","","","","7","","13","","24.1","","99.58","","","","","","NA"
"-94.71","56.36","GILLAM A","5061022","2018-06-29 17:00","2018","06","29","17:00","11.8","","6.5","","70","","","","9","","13","","24.1","","99.62","","","","","","NA"
"-94.71","56.36","GILLAM A","5061022","2018-06-29 18:00","2018","06","29","18:00","11.9","","6.2","","68","","","","7","","16","","24.1","","99.65","","","","","","Cloudy"
"-94.71","56.36","GILLAM A","5061022","2018-06-29 19:00","2018","06","29","19:00","11.6","","6.5","","70","","","","10","","8","","24.1","","99.66","","","","","","NA"
"-94.71","56.36","GILLAM A","5061022","2018-06-29 20:00","2018","06","29","20:00","11.1","","6.1","","71","","","","9","","10","","24.1","","99.71","","","","","","NA"
"-94.71","56.36","GILLAM A","5061022","2018-06-29 21:00","2018","06","29","21:00","10.3","","5.9","","74","","","","7","","10","","24.1","","99.75","","","","","","Mostly Cloudy"
"-94.71","56.36","GILLAM A","5061022","2018-06-29 22:00","2018","06","29","22:00","8.4","","4.5","","76","","","","7","","9","","24.1","","99.82","","","","","","NA"
"-94.71","56.36","GILLAM A","5061022","2018-06-29 23:00","2018","06","29","23:00","7.4","","4.0","","79","","","","7","","10","","24.1","","99.85","","","","","","NA"
"-94.71","56.36","GILLAM A","5061022","2018-06-30 00:00","2018","06","30","00:00","6.3","","3.1","","80","","","","7","","14","","24.1","","99.88","","","","","","Mainly Clear"
"-94.71","56.36","GILLAM A","5061022","2018-06-30 01:00","2018","06","30","01:00","5.3","","2.6","","82","","","","8","","11","","24.1","","99.89","","","","","","NA"
"-94.71","56.36","GILLAM A","5061022","2018-06-30 02:00","2018","06","30","02:00","4.8","","2.5","","85","","","","7","","9","","24.1","","99.87","","","","","","NA"
"-94.71","56.36","GILLAM A","5061022","2018-06-30 03:00","2018","06","30","03:00","4.7","","2.7","","87","","","","8","","8","","24.1","","99.86","","","","","","Mostly Cloudy"
"-94.71","56.36","GILLAM A","5061022","2018-06-30 04:00","2018","06","30","04:00","4.6","","2.9","","88","","","","8","","8","","24.1","","99.85","","","","","","NA"
"-94.71","56.36","GILLAM A","5061022","2018-06-30 05:00","2018","06","30","05:00","5.4","","3.3","","86","","","","7","","10","","24.1","","99.83","","","","","","NA"
"-94.71","56.36","GILLAM A","5061022","2018-06-30 06:00","2018","06","30","06:00","6.8","","2.9","","76","","","","9","","11","","24.1","","99.76","","","","","","Mostly Cloudy"
"-94.71","56.36","GILLAM A","5061022","2018-06-30 07:00","2018","06","30","07:00","8.5","","3.7","","72","","","","9","","10","","24.1","","99.79","","","","","","NA"
"-94.71","56.36","GILLAM A","5061022","2018-06-30 08:00","2018","06","30","08:00","9.6","","4.0","","68","","","","7","","12","","24.1","","99.83","","","","","","NA"
"-94.71","56.36","GILLAM A","5061022","2018-06-30 09:00","2018","06","30","09:00","10.7","","3.9","","63","","","","10","","18","","24.1","","99.86","","","","","","Mostly Cloudy"
"-94.71","56.36","GILLAM A","5061022","2018-06-30 10:00","2018","06","30","10:00"
"-94.71","56.36","GILLAM A","5061022","2018-06-30 11:00","2018","06","30","11:00","12.8","","3.8","","54","","","","7","","18","","24.1","","99.75","","","","","","NA"
"-94.71","56.36","GILLAM A","5061022","2018-06-30 12:00","2018","06","30","12:00","14.0","","3.2","","48","","","","10","","18","","24.1","","99.72","","","","","","Cloudy"
"-94.71","56.36","GILLAM A","5061022","2018-06-30 13:00","2018","06","30","13:00","15.9","","5.4","","49","","","","9","","11","","24.1","","99.62","","","","","","NA"
"-94.71","56.36","GILLAM A","5061022","2018-06-30 14:00","2018","06","30","14:00","16.6","","6.1","","50","","","","6","","13","","24.1","","99.50","","","","","","NA"
"-94.71","56.36","GILLAM A","5061022","2018-06-30 15:00","2018","06","30","15:00","16.5","","5.4","","48","","","","8","","14","","24.1","","99.42","","","","","","Cloudy"
"-94.71","56.36","GILLAM A","5061022","2018-06-30 16:00","2018","06","30","16:00","16.3","","4.8","","46","","","","9","","16","","24.1","","99.34","","","","","","NA"
"-94.71","56.36","GILLAM A","5061022","2018-06-30 17:00","2018","06","30","17:00","16.1","","4.8","","47","","","","9","","12","","24.1","","99.33","","","","","","NA"
"-94.71","56.36","GILLAM A","5061022","2018-06-30 18:00","2018","06","30","18:00","14.7","","7.0","","60","","","","8","","11","","24.1","","99.33","","","","","","Rain"
"-94.71","56.36","GILLAM A","5061022","2018-06-30 19:00","2018","06","30","19:00","11.7","","9.1","","84","","","","7","","8","","24.1","","99.35","","","","","","Rain"
"-94.71","56.36","GILLAM A","5061022","2018-06-30 20:00","2018","06","30","20:00","10.9","","8.7","","86","","","","6","","15","","19.3","","99.31","","","","","","Rain"
"-94.71","56.36","GILLAM A","5061022","2018-06-30 21:00","2018","06","30","21:00","9.9","","8.6","","92","","","","6","","15","","24.1","","99.27","","","","","","Rain"
"-94.71","56.36","GILLAM A","5061022","2018-06-30 22:00","2018","06","30","22:00","10.0","","8.9","","93","","","","6","","10","","24.1","","99.21","","","","","","Rain"
"-94.71","56.36","GILLAM A","5061022","2018-06-30 23:00","2018","06","30","23:00","9.9","","8.7","","92","","","","7","","15","","24.1","","99.10","","","","","","NA"
