"Longitude (x)","Latitude (y)","Station Name","Climate ID","Date/Time (LST)","Year","Month","Day","Time (LST)","Temp (°C)","Temp Flag","Dew Point Temp (°C)","Dew Point Temp Flag","Rel Hum (%)","Rel Hum Flag","Precip. Amount (mm)","Precip. Amount Flag","Wind Dir (10s deg)","Wind Dir Flag","Wind Spd (km/h)","Wind Spd Flag","Visibility (km)","Visibility Flag","Stn Press (kPa)","Stn Press Flag","Hmdx","Hmdx Flag","Wind Chill","Wind Chill Flag","Weather"
"-63.42","44.61","OSBORNE HEAD DND","8204190","2022-01-01 00:00","2022","01","01","00:00","3.8","","3.8","","100","","0.6","","12","","9","","","","101.25","","","","","","NA"
"-63.42","44.61","OSBORNE HEAD DND","8204190","2022-01-01 01:00","2022","01","01","01:00","3.8","","3.8","","100","","0.0","","9","","10","","","","101.25","","","","","","NA"
"-63.42","44.61","OSBORNE HEAD DND","8204190","2022-01-01 02:00","2022","01","01","02:00","3.9","","3.9","","100","","0.0","","11","","10","","","","101.28","","","","","","NA"
"-63.42","44.61","OSBORNE HEAD DND","8204190","2022-01-01 03:00","2022","01","01","03:00","4.0","","4.0","","100","","0.0","","14","","16","","","","101.29","","","","","","NA"
"-63.42","44.61","OSBORNE HEAD DND","8204190","2022-01-01 04:00","2022","01","01","04:00","4.1","","4.1","","100","","0.2","","16","","11","","","","101.29","","","","","","NA"
"-63.42","44.61","OSBORNE HEAD DND","8204190","2022-01-01 05:00","2022","01","01","05:00","4.1","","4.1","","100","","0.0","","17","","10","","","","101.22","","","","","","NA"
"-63.42","44.61","OSBORNE HEAD DND","8204190","2022-01-01 06:00","2022","01","01","06:00","4.2","","4.2","","100","","0.0","","18","","12","","","","101.24","","","","","","NA"
"-63.42","44.61","OSBORNE HEAD DND","8204190","2022-01-01 07:00","2022","01","01","07:00","4.1","","4.1","","100","","0.0","","21","","12","","","","101.30","","","","","","NA"
"-63.42","44.61","OSBORNE HEAD DND","8204190","2022-01-01 08:00","2022","01","01","08:00","4.5","","4.5","","100","","0.0","","17","","18","","","","101.27","","","","","","NA"
"-63.42","44.61","OSBORNE HEAD DND","8204190","2022-01-01 09:00","2022","01","01","09:00","4.5","","4.5","","100","","0.0","","17","","20","","","","101.27","","","","","","NA"
"-63.42","44.61","OSBORNE HEAD DND","8204190","2022-01-01 10:00","2022","01","01","10:00","4.5","","4.5","","100","","0.0","","18","","17","","","","101.33","","","","","","NA"
"-63.42","44.61","OSBORNE HEAD DND","8204190","2022-01-01 11:00","2022","01","01","11:00","4.5","","4.5","","100","","0.0","","18","","17","","","","101.27","","","","","","NA"
"-63.42","44.61","OSBORNE HEAD DND","8204190","2022-01-01 12:00","2022","01","01","12:00","4.6","","4.6","","100","","0.0","","21","","12","","","","101.23","","","","","","NA"
"-63.42","44.61","OSBORNE HEAD DND","8204190","2022-01-01 13:00","2022","01","01","13:00","4.5","","4.5","","100","","0.0","","18","","9","","","","101.13","","","","","","NA"
"-63.42","44.61","OSBORNE HEAD DND","8204190","2022-01-01 14:00","2022","01","01","14:00","4.6","","4.5","","100","","0.0","","18","","8","","","","101.09","","","","","","NA"
"-63.42","44.61","OSBORNE HEAD DND","8204190","2022-01-01 15:00","2022","01","01","15:00","4.2","","4.2","","100","","0.0","","17","","10","","","","101.05","","","","","","NA"
"-63.42","44.61","OSBORNE HEAD DND","8204190","2022-01-01 16:00","2022","01","01","16:00","4.4","","4.4","","100","","0.0","","17","","13","","","","101.00","","","","","","NA"
"-63.42","44.61","OSBORNE HEAD DND","8204190","2022-01-01 17:00","2022","01","01","17:00","4.5","","4.5","","100","","0.0","","19","","7","","","","101.00","","","","","","NA"
"-63.42","44.61","OSBORNE HEAD DND","8204190","2022-01-01 18:00","2022","01","01","18:00","4.6","","4.6","","100","","0.2","","11","","9","","","","100.93","","","","","","NA"
"-63.42","44.61","OSBORNE HEAD DND","8204190","2022-01-01 19:00","2022","01","01","19:00","4.5","","4.5","","100","","0.2","","11","","17","","","","100.86","","","","","","NA"
"-63.42","44.61","OSBORNE HEAD DND","8204190","2022-01-01 20:00","2022","01","01","20:00","4.4","","4.4","","100","","1.6","","8","","13","","","","100.77","","","","","","NA"
"-63.42","44.61","OSBORNE HEAD DND","8204190","2022-01-01 21:00","2022","01","01","21:00","5.1","","5.1","","100","","3.8","","9","","17","","","","100.66","","","","","","NA"
"-63.42","44.61","OSBORNE HEAD DND","8204190","2022-01-01 22:00","2022","01","01","22:00","6.0","","6.0","","100","","4.8","","15","","44","","","","100.43","","","","","","NA"
"-63.42","44.61","OSBORNE HEAD DND","8204190","2022-01-01 23:00","2022","01","01","23:00","6.0","","6.0","","100","","0.8","","17","","31","","","","100.40","","","","","","NA"
"-63.42","44.61","OSBORNE HEAD DND","8204190","2022-01-02 00:00","2022","01","02","00:00","5.4","","5.4","","100","","0.0","","21","","22","","","","100.36","","","","","","NA"
"-63.42","44.61","OSBORNE HEAD DND","8204190","2022-01-02 01:00","2022","01","02","01:00","5.7","","5.7","","100","","1.8","","22","","24","","","","100.31","","","","","","NA"
"-63.42","44.61","OSBORNE HEAD DND","8204190","2022-01-02 02:00","2022","01","02","02:00","5.6","","5.6","","100","","2.6","","21","","14","","","","100.24","","","","","","NA"
"-63.42","44.61","OSBORNE HEAD DND","8204190","2022-01-02 03:00","2022","01","02","03:00","6.5","","6.5","","100","","2.0","","15","","10","","","","100.15","","","","","","NA"
"-63.42","44.61","OSBORNE HEAD DND","8204190","2022-01-02 04:00","2022","01","02","04:00","6.9","","6.9","","100","","1.4","","19","","3","","","","100.05","","","","","","NA"
"-63.42","44.61","OSBORNE HEAD DND","8204190","2022-01-02 05:00","2022","01","02","05:00","5.9","","5.9","","100","","1.6","","7","","17","","","","99.80","","","","","","NA"
"-63.42","44.61","OSBORNE HEAD DND","8204190","2022-01-02 06:00","2022","01","02","06:00","7.0","","7.0","","100","","0.2","","5","","8","","","","99.78","","","","","","NA"
"-63.42","44.61","OSBORNE HEAD DND","8204190","2022-01-02 07:00","2022","01","02","07:00","6.7","","6.7","","100","","0.2","","7","","11","","","","99.68","","","","","","NA"
"-63.42","44.61","OSBORNE HEAD DND","8204190","2022-01-02 08:00","2022","01","02","08:00","7.0","","7.0","","100","","0.0","","4","","5","","","","99.60","","","","","","NA"
"-63.42","44.61","OSBORNE HEAD DND","8204190","2022-01-02 09:00","2022","01","02","09:00","6.8","","6.8","","100","","0.0","","2","","7","","","","99.54","","","","","","NA"
"-63.42","44.61","OSBORNE HEAD DND","8204190","2022-01-02 10:00","2022","01","02","10:00","6.4","","6.4","","100","","0.0","","23","","2","","","","99.56","","","","","","NA"
"-63.42","44.61","OSBORNE HEAD DND","8204190","2022-01-02 11:00","2022","01","02","11:00","7.5","","7.5","","100","","0.0","","32","","2","","","","99.46","","","","","","NA"
"-63.42","44.61","OSBORNE HEAD DND","8204190","2022-01-02 12:00","2022","01","02","12:00","8.2","","8.2","","100","","0.0","","31","","5","","","","99.33","","","","","","NA"
"-63.42","44.61","OSBORNE HEAD DND","8204190","2022-01-02 13:00","2022","01","02","13:00","7.0","","7.0","","100","","0.0","","17","","3","","","","99.23","","","","","","NA"
"-63.42","44.61","OSBORNE HEAD DND","8204190","2022-01-02 14:00","2022","01","02","14:00","8.7","","8.7","","100","","0.0","","35","","5","","","","99.14","","","","","","NA"
"-63.42","44.61","OSBORNE HEAD DND","8204190","2022-01-02 15:00","2022","01","02","15:00","8.7","","8.7","","100","","0.0","","36","","7","","","","99.10","","","","","","NA"
"-63.42","44.61","OSBORNE HEAD DND","8204190","2022-01-02 16:00","2022","01","02","16:00","8.3","","8.3","","100","","1.6","","34","","14","","","","99.22","","","","","","NA"
"-63.42","44.61","OSBORNE HEAD DND","8204190","2022-01-02 17:00","2022","01","02","17:00","4.2","","4.2","","100","","0.6","","35","","26","","","","99.30","","","","","","NA"
"-63.42","44.61","OSBORNE HEAD DND","8204190","2022-01-02 18:00","2022","01","02","18:00","2.4","","2.4","","100","","0.2","","36","","23","","","","99.27","","","","","","NA"
"-63.42","44.61","OSBORNE HEAD DND","8204190","2022-01-02 19:00","2022","01","02","19:00","1.8","","1.8","","100","","0.2","","35","","23","","","","99.35","","","","","","NA"
"-63.42","44.61","OSBORNE HEAD DND","8204190","2022-01-02 20:00","2022","01","02","20:00","1.3","","1.3","","100","","0.0","","36","","20","","","","99.47","","","","","","NA"
"-63.42","44.61","OSBORNE HEAD DND","8204190","2022-01-02 21:00","2022","01","02","21:00","1.0","","1.0","","100","","0.4","","34","","19","","","","99.56","","","","","","NA"
"-63.42","44.61","OSBORNE HEAD DND","8204190","2022-01-02 22:00","2022","01","02","22:00","0.9","","0.9","","100","","0.0","","34","","18","","","","99.69","","","","","","NA"
"-63.42","44.61","OSBORNE HEAD DND","8204190","2022-01-02 23:00","2022","01","02","23:00","0.6","","0.1","","97","","0.0","","33","","16","","","","99.76","","","","","","NA"
"-63.42","44.61","OSBORNE HEAD DND","8204190","2022-01-03 00:00","2022","01","03","00:00","0.1","","-0.8","","94","","","","32","","25","","","","99.98","","","","","","NA"
"-63.42","44.61","OSBORNE HEAD DND","8204190","2022-01-03 01:00","2022","01","03","01:00","-0.4","","-2.5","","86","","","","34","","29","","","","100.01","","","","-7","","NA"
"-63.42","44.61","OSBORNE HEAD DND","8204190","2022-01-03 02:00","2022","01","03","02:00","-1.0","","-2.6","","89","","","","33","","20","","","","100.23","","","","-7","","NA"
"-63.42","44.61","OSBORNE HEAD DND","8204190","2022-01-03 03:00","2022","01","03","03:00","-1.3","","-3.1","","88","","","","33","","23","","","","100.44","","","","-7","","NA"
"-63.42","44.61","OSBORNE HEAD DND","8204190","2022-01-03 04:00","2022","01","03","04:00","-1.8","","-3.6","","88","","","","33","","17","","","","100.52","","","","-7","","NA"
"-63.42","44.61","OSBORNE HEAD DND","8204190","2022-01-03 05:00","2022","01","03","05:00","-1.7","","-3.8","","86","","","","32","","18","","","","100.75","","","","-7","","NA"
"-63.42","44.61","OSBORNE HEAD DND","8204190","2022-01-03 06:00","2022","01","03","06:00","-2.5","","-5.8","","79","","","","32","","32","","","","100.91","","","","-10","","NA"
"-63.42","44.61","OSBORNE HEAD DND","8204190","2022-01-03 07:00","2022","01","03","07:00","-3.4","","-6.5","","79","","","","33","","21","","","","100.99","","","","-10","","NA"
"-63.42","44.61","OSBORNE HEAD DND","8204190","2022-01-03 08:00","2022","01","03","08:00","-4.8","","-8.0","","79","","","","33","","20","","","","101.23","","","","-11","","NA"
"-63.42","44.61","OSBORNE HEAD DND","8204190","2022-01-03 09:00","2022","01","03","09:00","-6.4","","-9.6","","77","","","","34","","26","","","","101.36","","","","-14","","NA"
"-63.42","44.61","OSBORNE HEAD DND","8204190","2022-01-03 10:00","2022","01","03","10:00","-6.1","","-9.7","","76","","","","35","","17","","","","101.47","","","","-12","","NA"
"-63.42","44.61","OSBORNE HEAD DND","8204190","2022-01-03 11:00","2022","01","03","11:00","-5.9","","-10.3","","71","","","","35","","16","","","","101.56","","","","-12","","NA"
"-63.42","44.61","OSBORNE HEAD DND","8204190","2022-01-03 12:00","2022","01","03","12:00","-5.0","","-9.4","","71","","","","34","","14","","","","101.53","","","","-10","","NA"
"-63.42","44.61","OSBORNE HEAD DND","8204190","2022-01-03 13:00","2022","01","03","13:00","-5.3","","-10.2","","69","","","","34","","18","","","","101.46","","","","-12","","NA"
"-63.42","44.61","OSBORNE HEAD DND","8204190","2022-01-03 14:00","2022","01","03","14:00","-5.0","","-10.0","","68","","","","36","","14","","","","101.51","","","","-10","","NA"
"-63.42","44.61","OSBORNE HEAD DND","8204190","2022-01-03 15:00","2022","01","03","15:00","-5.2","","-10.0","","69","","","","36","","16","","","","101.50","","","","-11","","NA"
"-63.42","44.61","OSBORNE HEAD DND","8204190","2022-01-03 16:00","2022","01","03","16:00","-5.5","","-9.7","","72","","","","36","","17","","","","101.46","","","","-12","","NA"
"-63.42","44.61","OSBORNE HEAD DND","8204190","2022-01-03 17:00","2022","01","03","17:00","-5.8","","-9.7","","74","","","","1","","17","","","","101.47","","","","-12","","NA"
"-63.42","44.61","OSBORNE HEAD DND","8204190","2022-01-03 18:00","2022","01","03","18:00","-5.7","","-9.1","","77","","","","4","","12","","","","101.50","","","","-11","","NA"
"-63.42","44.61","OSBORNE HEAD DND","8204190","2022-01-03 19:00","2022","01","03","19:00","-6.0","","-9.4","","77","","","","4","","14","","","","101.52","","","","-12","","NA"
"-63.42","44.61","OSBORNE HEAD DND","8204190","2022-01-03 20:00","2022","01","03","20:00","-6.3","","-9.4","","78","","","","3","","22","","","","101.40","","","","-14","","NA"
"-63.42","44.61","OSBORNE HEAD DND","8204190","2022-01-03 21:00","2022","01","03","21:00","-6.4","","-9.1","","81","","","","3","","18","","","","101.43","","","","-13","","NA"
"-63.42","44.61","OSBORNE HEAD DND","8204190","2022-01-03 22:00","2022","01","03","22:00","-6.6","","-9.4","","81","","","","2","","17","","","","101.41","","","","-13","","NA"
"-63.42","44.61","OSBORNE HEAD DND","8204190","2022-01-03 23:00","2022","01","03","23:00","-6.9","","-9.6","","81","","","","1","","24","","","","101.34","","","","-15","","NA"
"-63.42","44.61","OSBORNE HEAD DND","8204190","2022-01-04 00:00","2022","01","04","00:00","-6.8","","-9.4","","82","","","","1","","20","","","","101.27","","","","-14","","NA"
"-63.42","44.61","OSBORNE HEAD DND","8204190","2022-01-04 01:00","2022","01","04","01:00","-6.9","","-9.4","","83","","","","1","","25","","","","101.22","","","","-15","","NA"
"-63.42","44.61","OSBORNE HEAD DND","8204190","2022-01-04 02:00","2022","01","04","02:00","-7.0","","-9.6","","82","","","","1","","26","","","","101.10","","","","-15","","NA"
"-63.42","44.61","OSBORNE HEAD DND","8204190","2022-01-04 03:00","2022","01","04","03:00","-7.5","","-10.2","","81","","","","36","","28","","","","101.09","","","","-16","","NA"
"-63.42","44.61","OSBORNE HEAD DND","8204190","2022-01-04 04:00","2022","01","04","04:00","-7.5","","-10.3","","81","","","","36","","32","","","","100.97","","","","-17","","NA"
"-63.42","44.61","OSBORNE HEAD DND","8204190","2022-01-04 05:00","2022","01","04","05:00","-7.5","","-10.2","","81","","","","35","","33","","","","100.99","","","","-17","","NA"
"-63.42","44.61","OSBORNE HEAD DND","8204190","2022-01-04 06:00","2022","01","04","06:00","-7.4","","-10.5","","78","","","","35","","33","","","","101.03","","","","-17","","NA"
"-63.42","44.61","OSBORNE HEAD DND","8204190","2022-01-04 07:00","2022","01","04","07:00","-7.7","","-10.7","","79","","","","34","","29","","","","101.09","","","","-16","","NA"
"-63.42","44.61","OSBORNE HEAD DND","8204190","2022-01-04 08:00","2022","01","04","08:00","-8.4","","-11.0","","81","","","","34","","25","","","","101.18","","","","-17","","NA"
"-63.42","44.61","OSBORNE HEAD DND","8204190","2022-01-04 09:00","2022","01","04","09:00","-8.0","","-10.6","","82","","","","33","","21","","","","101.29","","","","-16","","NA"
"-63.42","44.61","OSBORNE HEAD DND","8204190","2022-01-04 10:00","2022","01","04","10:00","-7.0","","-10.4","","77","","","","33","","32","","","","101.39","","","","-16","","NA"
"-63.42","44.61","OSBORNE HEAD DND","8204190","2022-01-04 11:00","2022","01","04","11:00","-6.7","","-10.5","","74","","","","33","","33","","","","101.52","","","","-16","","NA"
"-63.42","44.61","OSBORNE HEAD DND","8204190","2022-01-04 12:00","2022","01","04","12:00","-6.3","","-10.9","","70","","","","33","","28","","","","101.53","","","","-14","","NA"
"-63.42","44.61","OSBORNE HEAD DND","8204190","2022-01-04 13:00","2022","01","04","13:00","-6.0","","-12.0","","63","","","","33","","26","","","","101.57","","","","-14","","NA"
"-63.42","44.61","OSBORNE HEAD DND","8204190","2022-01-04 14:00","2022","01","04","14:00","-6.1","","-12.6","","60","","","","33","","22","","","","101.64","","","","-13","","NA"
"-63.42","44.61","OSBORNE HEAD DND","8204190","2022-01-04 15:00","2022","01","04","15:00","-6.5","","-12.9","","61","","","","30","","25","","","","101.78","","","","-14","","NA"
"-63.42","44.61","OSBORNE HEAD DND","8204190","2022-01-04 16:00","2022","01","04","16:00","-6.3","","-12.4","","62","","","","31","","18","","","","101.86","","","","-13","","NA"
"-63.42","44.61","OSBORNE HEAD DND","8204190","2022-01-04 17:00","2022","01","04","17:00","-7.1","","-12.4","","66","","","","31","","15","","","","101.94","","","","-13","","NA"
"-63.42","44.61","OSBORNE HEAD DND","8204190","2022-01-04 18:00","2022","01","04","18:00","-7.2","","-11.9","","69","","","","28","","10","","","","102.05","","","","-12","","NA"
"-63.42","44.61","OSBORNE HEAD DND","8204190","2022-01-04 19:00","2022","01","04","19:00","-7.1","","-13.0","","63","","","","28","","16","","","","102.14","","","","-13","","NA"
"-63.42","44.61","OSBORNE HEAD DND","8204190","2022-01-04 20:00","2022","01","04","20:00","-6.9","","-12.5","","65","","","","26","","21","","","","102.20","","","","-14","","NA"
"-63.42","44.61","OSBORNE HEAD DND","8204190","2022-01-04 21:00","2022","01","04","21:00","-6.3","","-11.2","","68","","","","25","","26","","","","102.22","","","","-14","","NA"
"-63.42","44.61","OSBORNE HEAD DND","8204190","2022-01-04 22:00","2022","01","04","22:00","-6.0","","-9.4","","76","","","","25","","24","","","","102.23","","","","-13","","NA"
"-63.42","44.61","OSBORNE HEAD DND","8204190","2022-01-04 23:00","2022","01","04","23:00","-5.5","","-9.2","","76","","","","25","","31","","","","102.26","","","","-14","","NA"
"-63.42","44.61","OSBORNE HEAD DND","8204190","2022-01-05 00:00","2022","01","05","00:00","-4.9","","-8.6","","75","","","","25","","32","","","","102.27","","","","-13","","NA"
"-63.42","44.61","OSBORNE HEAD DND","8204190","2022-01-05 01:00","2022","01","05","01:00","-3.8","","-6.7","","80","","","","25","","31","","","","102.30","","","","-12","","NA"
"-63.42","44.61","OSBORNE HEAD DND","8204190","2022-01-05 02:00","2022","01","05","02:00","-3.4","","-6.3","","80","","","","24","","29","","","","102.30","","","","-11","","NA"
"-63.42","44.61","OSBORNE HEAD DND","8204190","2022-01-05 03:00","2022","01","05","03:00","-2.0","","-5.9","","75","","","","24","","39","","","","102.33","","","","-10","","NA"
"-63.42","44.61","OSBORNE HEAD DND","8204190","2022-01-05 04:00","2022","01","05","04:00","-1.6","","-6.0","","72","","","","23","","39","","","","102.36","","","","-9","","NA"
"-63.42","44.61","OSBORNE HEAD DND","8204190","2022-01-05 05:00","2022","01","05","05:00","-1.2","","-6.2","","69","","","","25","","25","","","","102.35","","","","-7","","NA"
"-63.42","44.61","OSBORNE HEAD DND","8204190","2022-01-05 06:00","2022","01","05","06:00","-0.4","","-5.0","","71","","","","24","","24","","","","102.33","","","","-6","","NA"
"-63.42","44.61","OSBORNE HEAD DND","8204190","2022-01-05 07:00","2022","01","05","07:00","0.6","","-3.4","","75","","0.0","","23","","22","","","","102.30","","","","","","NA"
"-63.42","44.61","OSBORNE HEAD DND","8204190","2022-01-05 08:00","2022","01","05","08:00","1.4","","-2.3","","76","","0.0","","21","","32","","","","102.23","","","","","","NA"
"-63.42","44.61","OSBORNE HEAD DND","8204190","2022-01-05 09:00","2022","01","05","09:00","2.0","","-1.4","","79","","0.2","","20","","44","","","","102.15","","","","","","NA"
"-63.42","44.61","OSBORNE HEAD DND","8204190","2022-01-05 10:00","2022","01","05","10:00","2.4","","-0.5","","81","","0.0","","20","","51","","","","102.14","","","","","","NA"
"-63.42","44.61","OSBORNE HEAD DND","8204190","2022-01-05 11:00","2022","01","05","11:00","3.1","","-0.1","","79","","0.0","","20","","49","","","","102.06","","","","","","NA"
"-63.42","44.61","OSBORNE HEAD DND","8204190","2022-01-05 12:00","2022","01","05","12:00","2.8","","0.5","","85","","0.0","","19","","46","","","","101.92","","","","","","NA"
"-63.42","44.61","OSBORNE HEAD DND","8204190","2022-01-05 13:00","2022","01","05","13:00","3.4","","1.2","","86","","0.0","","20","","44","","","","101.81","","","","","","NA"
"-63.42","44.61","OSBORNE HEAD DND","8204190","2022-01-05 14:00","2022","01","05","14:00","3.9","","2.5","","91","","0.0","","19","","29","","","","101.73","","","","","","NA"
"-63.42","44.61","OSBORNE HEAD DND","8204190","2022-01-05 15:00","2022","01","05","15:00","4.9","","3.1","","88","","0.0","","18","","38","","","","101.60","","","","","","NA"
"-63.42","44.61","OSBORNE HEAD DND","8204190","2022-01-05 16:00","2022","01","05","16:00","5.1","","3.1","","87","","0.0","","18","","39","","","","101.51","","","","","","NA"
"-63.42","44.61","OSBORNE HEAD DND","8204190","2022-01-05 17:00","2022","01","05","17:00","5.1","","2.9","","86","","0.0","","19","","39","","","","101.43","","","","","","NA"
"-63.42","44.61","OSBORNE HEAD DND","8204190","2022-01-05 18:00","2022","01","05","18:00","5.4","","3.0","","84","","0.0","","19","","36","","","","101.41","","","","","","NA"
"-63.42","44.61","OSBORNE HEAD DND","8204190","2022-01-05 19:00","2022","01","05","19:00","5.2","","3.2","","87","","0.0","","19","","29","","","","101.34","","","","","","NA"
"-63.42","44.61","OSBORNE HEAD DND","8204190","2022-01-05 20:00","2022","01","05","20:00","6.1","","4.3","","88","","0.0","","18","","35","","","","101.17","","","","","","NA"
"-63.42","44.61","OSBORNE HEAD DND","8204190","2022-01-05 21:00","2022","01","05","21:00","6.2","","4.7","","91","","0.0","","17","","41","","","","101.01","","","","","","NA"
"-63.42","44.61","OSBORNE HEAD DND","8204190","2022-01-05 22:00","2022","01","05","22:00","6.9","","5.4","","90","","0.0","","18","","42","","","","100.85","","","","","","NA"
"-63.42","44.61","OSBORNE HEAD DND","8204190","2022-01-05 23:00","2022","01","05","23:00","6.8","","5.3","","91","","0.0","","18","","39","","","","100.73","","","","","","NA"
"-63.42","44.61","OSBORNE HEAD DND","8204190","2022-01-06 00:00","2022","01","06","00:00","6.8","","6.8","","100","","0.0","","19","","37","","","","100.62","","","","","","NA"
"-63.42","44.61","OSBORNE HEAD DND","8204190","2022-01-06 01:00","2022","01","06","01:00","6.8","","6.8","","100","","1.2","","19","","42","","","","100.44","","","","","","NA"
"-63.42","44.61","OSBORNE HEAD DND","8204190","2022-01-06 02:00","2022","01","06","02:00","8.0","","8.0","","100","","4.4","","19","","45","","","","100.28","","","","","","NA"
"-63.42","44.61","OSBORNE HEAD DND","8204190","2022-01-06 03:00","2022","01","06","03:00","7.0","","7.0","","100","","5.8","","19","","39","","","","100.14","","","","","","NA"
"-63.42","44.61","OSBORNE HEAD DND","8204190","2022-01-06 04:00","2022","01","06","04:00","7.1","","7.1","","100","","6.8","","18","","53","","","","99.91","","","","","","NA"
"-63.42","44.61","OSBORNE HEAD DND","8204190","2022-01-06 05:00","2022","01","06","05:00","7.8","","7.8","","100","","3.0","","18","","50","","","","99.72","","","","","","NA"
"-63.42","44.61","OSBORNE HEAD DND","8204190","2022-01-06 06:00","2022","01","06","06:00","8.5","","8.5","","100","","1.0","","19","","58","","","","99.46","","","","","","NA"
"-63.42","44.61","OSBORNE HEAD DND","8204190","2022-01-06 07:00","2022","01","06","07:00","7.3","","7.3","","100","","5.0","","21","","52","","","","99.59","","","","","","NA"
"-63.42","44.61","OSBORNE HEAD DND","8204190","2022-01-06 08:00","2022","01","06","08:00","6.2","","6.2","","100","","2.4","","20","","39","","","","99.43","","","","","","NA"
"-63.42","44.61","OSBORNE HEAD DND","8204190","2022-01-06 09:00","2022","01","06","09:00","6.3","","6.3","","100","","0.4","","21","","44","","","","99.40","","","","","","NA"
"-63.42","44.61","OSBORNE HEAD DND","8204190","2022-01-06 10:00","2022","01","06","10:00","7.3","","7.3","","100","","0.4","","25","","29","","","","99.52","","","","","","NA"
"-63.42","44.61","OSBORNE HEAD DND","8204190","2022-01-06 11:00","2022","01","06","11:00","7.8","","4.4","","79","","0.0","","27","","33","","","","99.58","","","","","","NA"
"-63.42","44.61","OSBORNE HEAD DND","8204190","2022-01-06 12:00","2022","01","06","12:00","7.4","","4.1","","79","","0.0","","27","","29","","","","99.67","","","","","","NA"
"-63.42","44.61","OSBORNE HEAD DND","8204190","2022-01-06 13:00","2022","01","06","13:00","8.1","","2.7","","69","","0.0","","27","","27","","","","99.71","","","","","","NA"
"-63.42","44.61","OSBORNE HEAD DND","8204190","2022-01-06 14:00","2022","01","06","14:00","7.9","","2.3","","68","","0.0","","27","","29","","","","99.78","","","","","","NA"
"-63.42","44.61","OSBORNE HEAD DND","8204190","2022-01-06 15:00","2022","01","06","15:00","7.1","","0.9","","65","","0.0","","29","","29","","","","99.91","","","","","","NA"
"-63.42","44.61","OSBORNE HEAD DND","8204190","2022-01-06 16:00","2022","01","06","16:00","5.8","","-0.3","","65","","0.0","","29","","24","","","","100.09","","","","","","NA"
"-63.42","44.61","OSBORNE HEAD DND","8204190","2022-01-06 17:00","2022","01","06","17:00","4.1","","-0.3","","73","","0.0","","29","","14","","","","100.27","","","","","","NA"
"-63.42","44.61","OSBORNE HEAD DND","8204190","2022-01-06 18:00","2022","01","06","18:00","3.2","","-0.8","","75","","0.0","","29","","11","","","","100.40","","","","","","NA"
"-63.42","44.61","OSBORNE HEAD DND","8204190","2022-01-06 19:00","2022","01","06","19:00","2.5","","-0.9","","78","","0.0","","29","","10","","","","100.55","","","","","","NA"
"-63.42","44.61","OSBORNE HEAD DND","8204190","2022-01-06 20:00","2022","01","06","20:00","2.0","","-1.1","","80","","0.0","","30","","6","","","","100.62","","","","","","NA"
"-63.42","44.61","OSBORNE HEAD DND","8204190","2022-01-06 21:00","2022","01","06","21:00","1.5","","-0.5","","86","","0.0","","26","","5","","","","100.69","","","","","","NA"
"-63.42","44.61","OSBORNE HEAD DND","8204190","2022-01-06 22:00","2022","01","06","22:00","1.2","","-0.6","","88","","0.0","","25","","5","","","","100.82","","","","","","NA"
"-63.42","44.61","OSBORNE HEAD DND","8204190","2022-01-06 23:00","2022","01","06","23:00","0.8","","-1.0","","88","","0.0","","0","","1","","","","100.91","","","","","","NA"
"-63.42","44.61","OSBORNE HEAD DND","8204190","2022-01-07 00:00","2022","01","07","00:00","0.9","","-1.5","","84","","0.0","","1","","11","","","","100.94","","","","","","NA"
"-63.42","44.61","OSBORNE HEAD DND","8204190","2022-01-07 01:00","2022","01","07","01:00","0.5","","-1.0","","90","","0.0","","4","","9","","","","100.97","","","","","","NA"
"-63.42","44.61","OSBORNE HEAD DND","8204190","2022-01-07 02:00","2022","01","07","02:00","0.7","","-1.1","","88","","0.0","","4","","8","","","","101.00","","","","","","NA"
"-63.42","44.61","OSBORNE HEAD DND","8204190","2022-01-07 03:00","2022","01","07","03:00","0.7","","-1.5","","85","","0.0","","5","","11","","","","101.01","","","","","","NA"
"-63.42","44.61","OSBORNE HEAD DND","8204190","2022-01-07 04:00","2022","01","07","04:00","0.8","","-1.7","","83","","0.0","","5","","16","","","","101.04","","","","","","NA"
"-63.42","44.61","OSBORNE HEAD DND","8204190","2022-01-07 05:00","2022","01","07","05:00","0.6","","-1.5","","86","","0.0","","5","","13","","","","101.13","","","","","","NA"
"-63.42","44.61","OSBORNE HEAD DND","8204190","2022-01-07 06:00","2022","01","07","06:00","0.6","","-0.9","","90","","0.0","","4","","14","","","","101.16","","","","","","NA"
"-63.42","44.61","OSBORNE HEAD DND","8204190","2022-01-07 07:00","2022","01","07","07:00","0.6","","-2.2","","82","","0.0","","5","","23","","","","101.03","","","","","","NA"
"-63.42","44.61","OSBORNE HEAD DND","8204190","2022-01-07 08:00","2022","01","07","08:00","0.9","","-1.4","","85","","0.0","","7","","28","","","","100.89","","","","","","NA"
"-63.42","44.61","OSBORNE HEAD DND","8204190","2022-01-07 09:00","2022","01","07","09:00","1.4","","-0.4","","88","","0.0","","7","","33","","","","100.75","","","","","","NA"
"-63.42","44.61","OSBORNE HEAD DND","8204190","2022-01-07 10:00","2022","01","07","10:00","2.2","","0.5","","89","","0.0","","7","","35","","","","100.51","","","","","","NA"
"-63.42","44.61","OSBORNE HEAD DND","8204190","2022-01-07 11:00","2022","01","07","11:00","2.8","","1.5","","91","","0.0","","7","","40","","","","100.48","","","","","","NA"
"-63.42","44.61","OSBORNE HEAD DND","8204190","2022-01-07 12:00","2022","01","07","12:00","3.1","","3.0","","99","","0.2","","7","","48","","","","99.87","","","","","","NA"
"-63.42","44.61","OSBORNE HEAD DND","8204190","2022-01-07 13:00","2022","01","07","13:00","2.9","","2.9","","100","","2.6","","7","","48","","","","99.49","","","","","","NA"
"-63.42","44.61","OSBORNE HEAD DND","8204190","2022-01-07 14:00","2022","01","07","14:00","-0.1","","-0.1","","100","","","","7","","50","","","","99.25","","","","-8","","NA"
"-63.42","44.61","OSBORNE HEAD DND","8204190","2022-01-07 15:00","2022","01","07","15:00","0.1","","0.1","","100","","","","8","","64","","","","98.79","","","","","","NA"
"-63.42","44.61","OSBORNE HEAD DND","8204190","2022-01-07 16:00","2022","01","07","16:00","0.8","","0.8","","100","","1.6","","8","","63","","","","98.45","","","","","","NA"
"-63.42","44.61","OSBORNE HEAD DND","8204190","2022-01-07 17:00","2022","01","07","17:00","2.0","","1.6","","98","","5.4","","8","","72","","","","98.06","","","","","","NA"
"-63.42","44.61","OSBORNE HEAD DND","8204190","2022-01-07 18:00","2022","01","07","18:00","3.1","","3.1","","100","","6.6","","8","","54","","","","97.75","","","","","","NA"
"-63.42","44.61","OSBORNE HEAD DND","8204190","2022-01-07 19:00","2022","01","07","19:00","5.9","","4.6","","91","","1.4","","14","","31","","","","97.47","","","","","","NA"
"-63.42","44.61","OSBORNE HEAD DND","8204190","2022-01-07 20:00","2022","01","07","20:00","3.8","","2.0","","88","","0.0","","20","","52","","","","97.23","","","","","","NA"
"-63.42","44.61","OSBORNE HEAD DND","8204190","2022-01-07 21:00","2022","01","07","21:00","2.5","","2.5","","100","","0.0","","28","","16","","","","97.11","","","","","","NA"
"-63.42","44.61","OSBORNE HEAD DND","8204190","2022-01-07 22:00","2022","01","07","22:00","0.1","","-0.7","","94","","","","32","","37","","","","97.37","","","","","","NA"
"-63.42","44.61","OSBORNE HEAD DND","8204190","2022-01-07 23:00","2022","01","07","23:00","-1.4","","-2.5","","92","","","","31","","53","","","","97.98","","","","-10","","NA"
"-63.42","44.61","OSBORNE HEAD DND","8204190","2022-01-08 00:00","2022","01","08","00:00","-1.6","","-3.4","","88","","","","29","","50","","","","98.52","","","","-10","","NA"
"-63.42","44.61","OSBORNE HEAD DND","8204190","2022-01-08 01:00","2022","01","08","01:00","-2.5","","-4.4","","87","","","","29","","54","","","","98.93","","","","-12","","NA"
"-63.42","44.61","OSBORNE HEAD DND","8204190","2022-01-08 02:00","2022","01","08","02:00","-4.1","","-6.8","","82","","","","30","","53","","","","99.29","","","","-14","","NA"
"-63.42","44.61","OSBORNE HEAD DND","8204190","2022-01-08 03:00","2022","01","08","03:00","-4.6","","-7.6","","80","","","","30","","48","","","","99.63","","","","-14","","NA"
"-63.42","44.61","OSBORNE HEAD DND","8204190","2022-01-08 04:00","2022","01","08","04:00","-5.3","","-8.3","","80","","","","30","","43","","","","99.87","","","","-15","","NA"
"-63.42","44.61","OSBORNE HEAD DND","8204190","2022-01-08 05:00","2022","01","08","05:00","-5.6","","-8.4","","81","","","","30","","39","","","","100.09","","","","-15","","NA"
"-63.42","44.61","OSBORNE HEAD DND","8204190","2022-01-08 06:00","2022","01","08","06:00","-5.6","","-7.9","","84","","","","30","","31","","","","100.33","","","","-14","","NA"
"-63.42","44.61","OSBORNE HEAD DND","8204190","2022-01-08 07:00","2022","01","08","07:00","-5.5","","-7.7","","84","","","","30","","28","","","","100.53","","","","-13","","NA"
"-63.42","44.61","OSBORNE HEAD DND","8204190","2022-01-08 08:00","2022","01","08","08:00","-5.6","","-8.6","","79","","","","30","","30","","","","100.74","","","","-14","","NA"
"-63.42","44.61","OSBORNE HEAD DND","8204190","2022-01-08 09:00","2022","01","08","09:00","-5.3","","-8.9","","76","","","","30","","34","","","","100.91","","","","-14","","NA"
"-63.42","44.61","OSBORNE HEAD DND","8204190","2022-01-08 10:00","2022","01","08","10:00","-5.1","","-9.6","","71","","","","31","","36","","","","101.12","","","","-14","","NA"
"-63.42","44.61","OSBORNE HEAD DND","8204190","2022-01-08 11:00","2022","01","08","11:00","-5.0","","-10.6","","65","","","","31","","40","","","","101.29","","","","-14","","NA"
"-63.42","44.61","OSBORNE HEAD DND","8204190","2022-01-08 12:00","2022","01","08","12:00","-5.0","","-10.9","","63","","","","31","","39","","","","101.42","","","","-14","","NA"
"-63.42","44.61","OSBORNE HEAD DND","8204190","2022-01-08 13:00","2022","01","08","13:00","-5.4","","-11.1","","64","","","","31","","39","","","","101.55","","","","-15","","NA"
"-63.42","44.61","OSBORNE HEAD DND","8204190","2022-01-08 14:00","2022","01","08","14:00","-5.2","","-11.0","","64","","","","33","","28","","","","101.70","","","","-13","","NA"
"-63.42","44.61","OSBORNE HEAD DND","8204190","2022-01-08 15:00","2022","01","08","15:00","-5.6","","-11.3","","64","","","","32","","28","","","","101.92","","","","-14","","NA"
"-63.42","44.61","OSBORNE HEAD DND","8204190","2022-01-08 16:00","2022","01","08","16:00","-5.7","","-11.4","","64","","","","31","","25","","","","102.16","","","","-13","","NA"
"-63.42","44.61","OSBORNE HEAD DND","8204190","2022-01-08 17:00","2022","01","08","17:00","-6.5","","-11.5","","68","","","","33","","20","","","","102.33","","","","-13","","NA"
"-63.42","44.61","OSBORNE HEAD DND","8204190","2022-01-08 18:00","2022","01","08","18:00","-7.1","","-11.3","","72","","","","31","","13","","","","102.55","","","","-13","","NA"
"-63.42","44.61","OSBORNE HEAD DND","8204190","2022-01-08 19:00","2022","01","08","19:00","-7.6","","-11.6","","73","","","","35","","10","","","","102.65","","","","-12","","NA"
"-63.42","44.61","OSBORNE HEAD DND","8204190","2022-01-08 20:00","2022","01","08","20:00","-8.3","","-11.5","","77","","","","32","","12","","","","102.74","","","","-14","","NA"
"-63.42","44.61","OSBORNE HEAD DND","8204190","2022-01-08 21:00","2022","01","08","21:00","-7.8","","-11.0","","78","","","","28","","11","","","","102.83","","","","-13","","NA"
"-63.42","44.61","OSBORNE HEAD DND","8204190","2022-01-08 22:00","2022","01","08","22:00","-8.5","","-11.5","","79","","","","29","","9","","","","102.87","","","","-13","","NA"
"-63.42","44.61","OSBORNE HEAD DND","8204190","2022-01-08 23:00","2022","01","08","23:00","-8.1","","-11.3","","78","","","","27","","10","","","","102.83","","","","-13","","NA"
"-63.42","44.61","OSBORNE HEAD DND","8204190","2022-01-09 00:00","2022","01","09","00:00","-8.6","","-11.3","","81","","","","28","","13","","","","102.87","","","","-15","","NA"
"-63.42","44.61","OSBORNE HEAD DND","8204190","2022-01-09 01:00","2022","01","09","01:00","-8.2","","-9.7","","89","","","","23","","6","","","","102.86","","","","-11","","NA"
"-63.42","44.61","OSBORNE HEAD DND","8204190","2022-01-09 02:00","2022","01","09","02:00","-8.7","","-10.2","","89","","","","27","","7","","","","102.92","","","","-13","","NA"
"-63.42","44.61","OSBORNE HEAD DND","8204190","2022-01-09 03:00","2022","01","09","03:00","-8.4","","-10.4","","86","","","","27","","6","","","","102.88","","","","-12","","NA"
"-63.42","44.61","OSBORNE HEAD DND","8204190","2022-01-09 04:00","2022","01","09","04:00","-7.3","","-10.3","","79","","","","27","","7","","","","102.85","","","","-11","","NA"
"-63.42","44.61","OSBORNE HEAD DND","8204190","2022-01-09 05:00","2022","01","09","05:00","-7.2","","-9.7","","82","","","","30","","7","","","","102.85","","","","-11","","NA"
"-63.42","44.61","OSBORNE HEAD DND","8204190","2022-01-09 06:00","2022","01","09","06:00","-5.3","","-8.5","","79","","","","27","","7","","","","102.83","","","","-9","","NA"
"-63.42","44.61","OSBORNE HEAD DND","8204190","2022-01-09 07:00","2022","01","09","07:00","-4.0","","-6.8","","81","","","","24","","8","","","","102.76","","","","-7","","NA"
"-63.42","44.61","OSBORNE HEAD DND","8204190","2022-01-09 08:00","2022","01","09","08:00","-2.0","","-6.2","","73","","","","22","","21","","","","102.68","","","","-8","","NA"
"-63.42","44.61","OSBORNE HEAD DND","8204190","2022-01-09 09:00","2022","01","09","09:00","-1.1","","-5.5","","72","","","","23","","23","","","","102.58","","","","-7","","NA"
"-63.42","44.61","OSBORNE HEAD DND","8204190","2022-01-09 10:00","2022","01","09","10:00","0.0","","-5.1","","68","","","","21","","33","","","","102.48","","","","-7","","NA"
"-63.42","44.61","OSBORNE HEAD DND","8204190","2022-01-09 11:00","2022","01","09","11:00","1.0","","-2.5","","78","","0.0","","19","","38","","","","102.27","","","","","","NA"
"-63.42","44.61","OSBORNE HEAD DND","8204190","2022-01-09 12:00","2022","01","09","12:00","1.8","","-1.6","","78","","0.0","","20","","48","","","","102.01","","","","","","NA"
"-63.42","44.61","OSBORNE HEAD DND","8204190","2022-01-09 13:00","2022","01","09","13:00","2.4","","-1.3","","76","","0.0","","20","","52","","","","101.79","","","","","","NA"
"-63.42","44.61","OSBORNE HEAD DND","8204190","2022-01-09 14:00","2022","01","09","14:00","2.8","","-0.7","","78","","0.0","","20","","54","","","","101.63","","","","","","NA"
"-63.42","44.61","OSBORNE HEAD DND","8204190","2022-01-09 15:00","2022","01","09","15:00","3.0","","-0.2","","79","","0.0","","20","","54","","","","101.46","","","","","","NA"
"-63.42","44.61","OSBORNE HEAD DND","8204190","2022-01-09 16:00","2022","01","09","16:00","3.4","","1.5","","87","","0.0","","20","","53","","","","101.28","","","","","","NA"
"-63.42","44.61","OSBORNE HEAD DND","8204190","2022-01-09 17:00","2022","01","09","17:00","3.9","","2.1","","88","","0.0","","19","","49","","","","101.09","","","","","","NA"
"-63.42","44.61","OSBORNE HEAD DND","8204190","2022-01-09 18:00","2022","01","09","18:00","4.6","","2.7","","88","","0.0","","20","","47","","","","100.90","","","","","","NA"
"-63.42","44.61","OSBORNE HEAD DND","8204190","2022-01-09 19:00","2022","01","09","19:00","5.1","","3.3","","88","","0.6","","20","","54","","","","100.69","","","","","","NA"
"-63.42","44.61","OSBORNE HEAD DND","8204190","2022-01-09 20:00","2022","01","09","20:00","5.3","","4.1","","92","","2.6","","21","","62","","","","100.53","","","","","","NA"
"-63.42","44.61","OSBORNE HEAD DND","8204190","2022-01-09 21:00","2022","01","09","21:00","6.2","","4.6","","90","","0.0","","22","","61","","","","100.36","","","","","","NA"
"-63.42","44.61","OSBORNE HEAD DND","8204190","2022-01-09 22:00","2022","01","09","22:00","6.0","","5.2","","95","","0.0","","22","","57","","","","100.20","","","","","","NA"
"-63.42","44.61","OSBORNE HEAD DND","8204190","2022-01-09 23:00","2022","01","09","23:00","6.4","","5.5","","94","","0.0","","22","","62","","","","100.05","","","","","","NA"
"-63.42","44.61","OSBORNE HEAD DND","8204190","2022-01-10 00:00","2022","01","10","00:00","6.2","","6.1","","99","","0.0","","23","","57","","","","99.92","","","","","","NA"
"-63.42","44.61","OSBORNE HEAD DND","8204190","2022-01-10 01:00","2022","01","10","01:00","6.4","","6.4","","100","","0.2","","24","","45","","","","99.90","","","","","","NA"
"-63.42","44.61","OSBORNE HEAD DND","8204190","2022-01-10 02:00","2022","01","10","02:00","6.2","","6.2","","100","","0.2","","26","","26","","","","99.88","","","","","","NA"
"-63.42","44.61","OSBORNE HEAD DND","8204190","2022-01-10 03:00","2022","01","10","03:00","5.5","","4.3","","92","","0.2","","26","","28","","","","99.86","","","","","","NA"
"-63.42","44.61","OSBORNE HEAD DND","8204190","2022-01-10 04:00","2022","01","10","04:00","4.9","","4.0","","93","","0.0","","25","","28","","","","99.86","","","","","","NA"
"-63.42","44.61","OSBORNE HEAD DND","8204190","2022-01-10 05:00","2022","01","10","05:00","4.6","","3.9","","95","","0.0","","24","","26","","","","99.79","","","","","","NA"
"-63.42","44.61","OSBORNE HEAD DND","8204190","2022-01-10 06:00","2022","01","10","06:00","4.5","","3.8","","95","","0.0","","25","","33","","","","99.78","","","","","","NA"
"-63.42","44.61","OSBORNE HEAD DND","8204190","2022-01-10 07:00","2022","01","10","07:00","2.5","","-0.2","","83","","0.4","","30","","24","","","","99.91","","","","","","NA"
"-63.42","44.61","OSBORNE HEAD DND","8204190","2022-01-10 08:00","2022","01","10","08:00","2.1","","-0.2","","85","","0.0","","30","","19","","","","99.98","","","","","","NA"
"-63.42","44.61","OSBORNE HEAD DND","8204190","2022-01-10 09:00","2022","01","10","09:00","0.9","","-3.2","","74","","0.0","","30","","32","","","","100.09","","","","","","NA"
"-63.42","44.61","OSBORNE HEAD DND","8204190","2022-01-10 10:00","2022","01","10","10:00","0.4","","-6.1","","62","","","","30","","27","","","","100.21","","","","","","NA"
"-63.42","44.61","OSBORNE HEAD DND","8204190","2022-01-10 11:00","2022","01","10","11:00","-0.5","","-8.2","","56","","","","31","","30","","","","100.32","","","","-7","","NA"
"-63.42","44.61","OSBORNE HEAD DND","8204190","2022-01-10 12:00","2022","01","10","12:00","-1.6","","-9.0","","57","","","","31","","33","","","","100.30","","","","-9","","NA"
"-63.42","44.61","OSBORNE HEAD DND","8204190","2022-01-10 13:00","2022","01","10","13:00","-2.0","","-11.1","","50","","","","30","","32","","","","100.24","","","","-9","","NA"
"-63.42","44.61","OSBORNE HEAD DND","8204190","2022-01-10 14:00","2022","01","10","14:00","-2.3","","-11.7","","49","","","","29","","29","","","","100.27","","","","-9","","NA"
"-63.42","44.61","OSBORNE HEAD DND","8204190","2022-01-10 15:00","2022","01","10","15:00","-3.3","","-10.8","","56","","","","31","","26","","","","100.39","","","","-10","","NA"
"-63.42","44.61","OSBORNE HEAD DND","8204190","2022-01-10 16:00","2022","01","10","16:00","-4.3","","-12.1","","55","","","","30","","24","","","","100.48","","","","-11","","NA"
"-63.42","44.61","OSBORNE HEAD DND","8204190","2022-01-10 17:00","2022","01","10","17:00","-5.1","","-13.9","","50","","","","30","","26","","","","100.55","","","","-13","","NA"
"-63.42","44.61","OSBORNE HEAD DND","8204190","2022-01-10 18:00","2022","01","10","18:00","-5.5","","-14.4","","50","","","","32","","22","","","","100.65","","","","-13","","NA"
"-63.42","44.61","OSBORNE HEAD DND","8204190","2022-01-10 19:00","2022","01","10","19:00","-6.0","","-14.5","","51","","","","31","","20","","","","100.72","","","","-13","","NA"
"-63.42","44.61","OSBORNE HEAD DND","8204190","2022-01-10 20:00","2022","01","10","20:00","-6.4","","-14.1","","54","","","","31","","15","","","","100.77","","","","-12","","NA"
"-63.42","44.61","OSBORNE HEAD DND","8204190","2022-01-10 21:00","2022","01","10","21:00","-6.7","","-13.5","","58","","","","31","","25","","","","100.83","","","","-15","","NA"
"-63.42","44.61","OSBORNE HEAD DND","8204190","2022-01-10 22:00","2022","01","10","22:00","-8.1","","-16.5","","51","","","","31","","28","","","","100.87","","","","-17","","NA"
"-63.42","44.61","OSBORNE HEAD DND","8204190","2022-01-10 23:00","2022","01","10","23:00","-9.3","","-16.3","","57","","","","34","","18","","","","100.97","","","","-17","","NA"
"-63.42","44.61","OSBORNE HEAD DND","8204190","2022-01-11 00:00","2022","01","11","00:00","-10.2","","-15.7","","64","","","","35","","16","","","","101.01","","","","-17","","NA"
"-63.42","44.61","OSBORNE HEAD DND","8204190","2022-01-11 01:00","2022","01","11","01:00","-10.6","","-15.2","","69","","","","33","","10","","","","101.05","","","","-16","","NA"
"-63.42","44.61","OSBORNE HEAD DND","8204190","2022-01-11 02:00","2022","01","11","02:00","-10.6","","-15.7","","66","","","","32","","18","","","","101.11","","","","-18","","NA"
"-63.42","44.61","OSBORNE HEAD DND","8204190","2022-01-11 03:00","2022","01","11","03:00","-11.0","","-17.1","","61","","","","30","","20","","","","101.23","","","","-19","","NA"
"-63.42","44.61","OSBORNE HEAD DND","8204190","2022-01-11 04:00","2022","01","11","04:00","-11.9","","-17.2","","64","","","","31","","20","","","","101.24","","","","-20","","NA"
"-63.42","44.61","OSBORNE HEAD DND","8204190","2022-01-11 05:00","2022","01","11","05:00","-12.5","","-18.0","","63","","","","33","","20","","","","101.26","","","","-21","","NA"
"-63.42","44.61","OSBORNE HEAD DND","8204190","2022-01-11 06:00","2022","01","11","06:00","-13.4","","-18.1","","68","","","","35","","14","","","","101.29","","","","-21","","NA"
"-63.42","44.61","OSBORNE HEAD DND","8204190","2022-01-11 07:00","2022","01","11","07:00","-14.6","","-18.2","","74","","","","2","","19","","","","101.35","","","","-23","","NA"
"-63.42","44.61","OSBORNE HEAD DND","8204190","2022-01-11 08:00","2022","01","11","08:00","-14.9","","-18.4","","74","","","","34","","11","","","","101.54","","","","-21","","NA"
"-63.42","44.61","OSBORNE HEAD DND","8204190","2022-01-11 09:00","2022","01","11","09:00","-14.3","","-19.6","","64","","","","31","","18","","","","101.65","","","","-23","","NA"
"-63.42","44.61","OSBORNE HEAD DND","8204190","2022-01-11 10:00","2022","01","11","10:00","-14.4","","-21.7","","54","","","","31","","27","","","","101.71","","","","-25","","NA"
"-63.42","44.61","OSBORNE HEAD DND","8204190","2022-01-11 11:00","2022","01","11","11:00","-14.5","","-18.6","","71","","","","33","","21","","","","101.78","","","","-24","","NA"
"-63.42","44.61","OSBORNE HEAD DND","8204190","2022-01-11 12:00","2022","01","11","12:00","-14.4","","-21.4","","55","","","","30","","30","","","","101.74","","","","-25","","NA"
"-63.42","44.61","OSBORNE HEAD DND","8204190","2022-01-11 13:00","2022","01","11","13:00","-14.0","","-21.7","","52","","","","31","","21","","","","101.71","","","","-23","","NA"
"-63.42","44.61","OSBORNE HEAD DND","8204190","2022-01-11 14:00","2022","01","11","14:00","-14.1","","-21.7","","52","","","","30","","29","","","","101.74","","","","-25","","NA"
"-63.42","44.61","OSBORNE HEAD DND","8204190","2022-01-11 15:00","2022","01","11","15:00","-14.1","","-22.5","","49","","","","31","","29","","","","101.79","","","","-25","","NA"
"-63.42","44.61","OSBORNE HEAD DND","8204190","2022-01-11 16:00","2022","01","11","16:00","-14.1","","-23.2","","46","","","","31","","28","","","","101.94","","","","-25","","NA"
"-63.42","44.61","OSBORNE HEAD DND","8204190","2022-01-11 17:00","2022","01","11","17:00","-14.9","","-21.4","","57","","","","30","","21","","","","102.10","","","","-24","","NA"
"-63.42","44.61","OSBORNE HEAD DND","8204190","2022-01-11 18:00","2022","01","11","18:00","-15.3","","-20.7","","63","","","","31","","21","","","","102.19","","","","-25","","NA"
"-63.42","44.61","OSBORNE HEAD DND","8204190","2022-01-11 19:00","2022","01","11","19:00","-15.3","","-20.1","","67","","","","30","","20","","","","102.26","","","","-25","","NA"
"-63.42","44.61","OSBORNE HEAD DND","8204190","2022-01-11 20:00","2022","01","11","20:00","-15.5","","-20.4","","67","","","","31","","17","","","","102.38","","","","-24","","NA"
"-63.42","44.61","OSBORNE HEAD DND","8204190","2022-01-11 21:00","2022","01","11","21:00","-15.7","","-20.6","","66","","","","32","","19","","","","102.46","","","","-25","","NA"
"-63.42","44.61","OSBORNE HEAD DND","8204190","2022-01-11 22:00","2022","01","11","22:00","-15.9","","-20.5","","67","","","","31","","15","","","","102.52","","","","-24","","NA"
"-63.42","44.61","OSBORNE HEAD DND","8204190","2022-01-11 23:00","2022","01","11","23:00","-16.6","","-20.3","","73","","","","33","","10","","","","102.58","","","","-23","","NA"
"-63.42","44.61","OSBORNE HEAD DND","8204190","2022-01-12 00:00","2022","01","12","00:00","-16.5","","-20.5","","71","","","","33","","14","","","","102.63","","","","-24","","NA"
"-63.42","44.61","OSBORNE HEAD DND","8204190","2022-01-12 01:00","2022","01","12","01:00","-17.0","","-20.5","","74","","","","34","","9","","","","102.63","","","","-23","","NA"
"-63.42","44.61","OSBORNE HEAD DND","8204190","2022-01-12 02:00","2022","01","12","02:00","-17.1","","-20.5","","75","","","","1","","14","","","","102.61","","","","-25","","NA"
"-63.42","44.61","OSBORNE HEAD DND","8204190","2022-01-12 03:00","2022","01","12","03:00","-17.1","","-20.1","","77","","","","36","","11","","","","102.68","","","","-24","","NA"
"-63.42","44.61","OSBORNE HEAD DND","8204190","2022-01-12 04:00","2022","01","12","04:00","-17.5","","-20.2","","79","","","","34","","9","","","","102.69","","","","-24","","NA"
"-63.42","44.61","OSBORNE HEAD DND","8204190","2022-01-12 05:00","2022","01","12","05:00","-17.2","","-19.9","","79","","","","32","","10","","","","102.67","","","","-24","","NA"
"-63.42","44.61","OSBORNE HEAD DND","8204190","2022-01-12 06:00","2022","01","12","06:00","-16.3","","-19.9","","73","","","","28","","5","","","","102.69","","","","-20","","NA"
"-63.42","44.61","OSBORNE HEAD DND","8204190","2022-01-12 07:00","2022","01","12","07:00"
"-63.42","44.61","OSBORNE HEAD DND","8204190","2022-01-12 08:00","2022","01","12","08:00"
"-63.42","44.61","OSBORNE HEAD DND","8204190","2022-01-12 09:00","2022","01","12","09:00","-11.7","","-14.3","","82","","","","26","","6","","","","","M","","","-15","","NA"
"-63.42","44.61","OSBORNE HEAD DND","8204190","2022-01-12 10:00","2022","01","12","10:00","-9.5","","-13.0","","76","","","","20","","14","","","","","M","","","-16","","NA"
"-63.42","44.61","OSBORNE HEAD DND","8204190","2022-01-12 11:00","2022","01","12","11:00","-7.4","","-11.1","","75","","","","19","","28","","","","","M","","","-16","","NA"
"-63.42","44.61","OSBORNE HEAD DND","8204190","2022-01-12 12:00","2022","01","12","12:00","-6.2","","-10.1","","74","","","","20","","36","","","","","M","","","-15","","NA"
"-63.42","44.61","OSBORNE HEAD DND","8204190","2022-01-12 13:00","2022","01","12","13:00","-4.6","","-8.0","","77","","","","20","","41","","","","","M","","","-14","","NA"
"-63.42","44.61","OSBORNE HEAD DND","8204190","2022-01-12 14:00","2022","01","12","14:00"
"-63.42","44.61","OSBORNE HEAD DND","8204190","2022-01-12 15:00","2022","01","12","15:00"
"-63.42","44.61","OSBORNE HEAD DND","8204190","2022-01-12 16:00","2022","01","12","16:00"
"-63.42","44.61","OSBORNE HEAD DND","8204190","2022-01-12 17:00","2022","01","12","17:00"
"-63.42","44.61","OSBORNE HEAD DND","8204190","2022-01-12 18:00","2022","01","12","18:00"
"-63.42","44.61","OSBORNE HEAD DND","8204190","2022-01-12 19:00","2022","01","12","19:00"
"-63.42","44.61","OSBORNE HEAD DND","8204190","2022-01-12 20:00","2022","01","12","20:00"
"-63.42","44.61","OSBORNE HEAD DND","8204190","2022-01-12 21:00","2022","01","12","21:00"
"-63.42","44.61","OSBORNE HEAD DND","8204190","2022-01-12 22:00","2022","01","12","22:00"
"-63.42","44.61","OSBORNE HEAD DND","8204190","2022-01-12 23:00","2022","01","12","23:00"
"-63.42","44.61","OSBORNE HEAD DND","8204190","2022-01-13 00:00","2022","01","13","00:00"
"-63.42","44.61","OSBORNE HEAD DND","8204190","2022-01-13 01:00","2022","01","13","01:00"
"-63.42","44.61","OSBORNE HEAD DND","8204190","2022-01-13 02:00","2022","01","13","02:00"
"-63.42","44.61","OSBORNE HEAD DND","8204190","2022-01-13 03:00","2022","01","13","03:00"
"-63.42","44.61","OSBORNE HEAD DND","8204190","2022-01-13 04:00","2022","01","13","04:00"
"-63.42","44.61","OSBORNE HEAD DND","8204190","2022-01-13 05:00","2022","01","13","05:00"
"-63.42","44.61","OSBORNE HEAD DND","8204190","2022-01-13 06:00","2022","01","13","06:00"
"-63.42","44.61","OSBORNE HEAD DND","8204190","2022-01-13 07:00","2022","01","13","07:00","1.5","","1.5","","100","","0.4","","25","","4","","","","","M","","","","","NA"
"-63.42","44.61","OSBORNE HEAD DND","8204190","2022-01-13 08:00","2022","01","13","08:00","1.7","","1.7","","100","","0.0","","18","","5","","","","","M","","","","","NA"
"-63.42","44.61","OSBORNE HEAD DND","8204190","2022-01-13 09:00","2022","01","13","09:00","1.5","","1.4","","100","","0.0","","27","","4","","","","","M","","","","","NA"
"-63.42","44.61","OSBORNE HEAD DND","8204190","2022-01-13 10:00","2022","01","13","10:00","1.4","","1.1","","98","","0.0","","28","","7","","","","","M","","","","","NA"
"-63.42","44.61","OSBORNE HEAD DND","8204190","2022-01-13 11:00","2022","01","13","11:00","1.3","","-0.2","","90","","0.0","","33","","5","","","","","M","","","","","NA"
"-63.42","44.61","OSBORNE HEAD DND","8204190","2022-01-13 12:00","2022","01","13","12:00","1.6","","-1.4","","81","","0.0","","33","","6","","","","","M","","","","","NA"
"-63.42","44.61","OSBORNE HEAD DND","8204190","2022-01-13 13:00","2022","01","13","13:00","2.0","","-1.6","","77","","0.0","","28","","4","","","","","M","","","","","NA"
"-63.42","44.61","OSBORNE HEAD DND","8204190","2022-01-13 14:00","2022","01","13","14:00","2.1","","0.0","","86","","0.0","","3","","10","","","","","M","","","","","NA"
"-63.42","44.61","OSBORNE HEAD DND","8204190","2022-01-13 15:00","2022","01","13","15:00","2.1","","-0.6","","83","","0.0","","1","","10","","","","","M","","","","","NA"
"-63.42","44.61","OSBORNE HEAD DND","8204190","2022-01-13 16:00","2022","01","13","16:00","1.2","","-1.2","","84","","0.0","","3","","10","","","","","M","","","","","NA"
"-63.42","44.61","OSBORNE HEAD DND","8204190","2022-01-13 17:00","2022","01","13","17:00","0.5","","-1.6","","86","","","","3","","12","","","","","M","","","","","NA"
"-63.42","44.61","OSBORNE HEAD DND","8204190","2022-01-13 18:00","2022","01","13","18:00","-0.1","","-1.6","","89","","","","5","","13","","","","","M","","","-4","","NA"
"-63.42","44.61","OSBORNE HEAD DND","8204190","2022-01-13 19:00","2022","01","13","19:00","-0.9","","-1.9","","93","","","","3","","11","","","","","M","","","-5","","NA"
"-63.42","44.61","OSBORNE HEAD DND","8204190","2022-01-13 20:00","2022","01","13","20:00"
"-63.42","44.61","OSBORNE HEAD DND","8204190","2022-01-13 21:00","2022","01","13","21:00"
"-63.42","44.61","OSBORNE HEAD DND","8204190","2022-01-13 22:00","2022","01","13","22:00"
"-63.42","44.61","OSBORNE HEAD DND","8204190","2022-01-13 23:00","2022","01","13","23:00"
"-63.42","44.61","OSBORNE HEAD DND","8204190","2022-01-14 00:00","2022","01","14","00:00"
"-63.42","44.61","OSBORNE HEAD DND","8204190","2022-01-14 01:00","2022","01","14","01:00"
"-63.42","44.61","OSBORNE HEAD DND","8204190","2022-01-14 02:00","2022","01","14","02:00"
"-63.42","44.61","OSBORNE HEAD DND","8204190","2022-01-14 03:00","2022","01","14","03:00"
"-63.42","44.61","OSBORNE HEAD DND","8204190","2022-01-14 04:00","2022","01","14","04:00"
"-63.42","44.61","OSBORNE HEAD DND","8204190","2022-01-14 05:00","2022","01","14","05:00"
"-63.42","44.61","OSBORNE HEAD DND","8204190","2022-01-14 06:00","2022","01","14","06:00"
"-63.42","44.61","OSBORNE HEAD DND","8204190","2022-01-14 07:00","2022","01","14","07:00"
"-63.42","44.61","OSBORNE HEAD DND","8204190","2022-01-14 08:00","2022","01","14","08:00"
"-63.42","44.61","OSBORNE HEAD DND","8204190","2022-01-14 09:00","2022","01","14","09:00"
"-63.42","44.61","OSBORNE HEAD DND","8204190","2022-01-14 10:00","2022","01","14","10:00"
"-63.42","44.61","OSBORNE HEAD DND","8204190","2022-01-14 11:00","2022","01","14","11:00"
"-63.42","44.61","OSBORNE HEAD DND","8204190","2022-01-14 12:00","2022","01","14","12:00"
"-63.42","44.61","OSBORNE HEAD DND","8204190","2022-01-14 13:00","2022","01","14","13:00"
"-63.42","44.61","OSBORNE HEAD DND","8204190","2022-01-14 14:00","2022","01","14","14:00"
"-63.42","44.61","OSBORNE HEAD DND","8204190","2022-01-14 15:00","2022","01","14","15:00"
"-63.42","44.61","OSBORNE HEAD DND","8204190","2022-01-14 16:00","2022","01","14","16:00"
"-63.42","44.61","OSBORNE HEAD DND","8204190","2022-01-14 17:00","2022","01","14","17:00"
"-63.42","44.61","OSBORNE HEAD DND","8204190","2022-01-14 18:00","2022","01","14","18:00"
"-63.42","44.61","OSBORNE HEAD DND","8204190","2022-01-14 19:00","2022","01","14","19:00"
"-63.42","44.61","OSBORNE HEAD DND","8204190","2022-01-14 20:00","2022","01","14","20:00"
"-63.42","44.61","OSBORNE HEAD DND","8204190","2022-01-14 21:00","2022","01","14","21:00"
"-63.42","44.61","OSBORNE HEAD DND","8204190","2022-01-14 22:00","2022","01","14","22:00"
"-63.42","44.61","OSBORNE HEAD DND","8204190","2022-01-14 23:00","2022","01","14","23:00"
"-63.42","44.61","OSBORNE HEAD DND","8204190","2022-01-15 00:00","2022","01","15","00:00"
"-63.42","44.61","OSBORNE HEAD DND","8204190","2022-01-15 01:00","2022","01","15","01:00"
"-63.42","44.61","OSBORNE HEAD DND","8204190","2022-01-15 02:00","2022","01","15","02:00"
"-63.42","44.61","OSBORNE HEAD DND","8204190","2022-01-15 03:00","2022","01","15","03:00"
"-63.42","44.61","OSBORNE HEAD DND","8204190","2022-01-15 04:00","2022","01","15","04:00"
"-63.42","44.61","OSBORNE HEAD DND","8204190","2022-01-15 05:00","2022","01","15","05:00"
"-63.42","44.61","OSBORNE HEAD DND","8204190","2022-01-15 06:00","2022","01","15","06:00"
"-63.42","44.61","OSBORNE HEAD DND","8204190","2022-01-15 07:00","2022","01","15","07:00"
"-63.42","44.61","OSBORNE HEAD DND","8204190","2022-01-15 08:00","2022","01","15","08:00"
"-63.42","44.61","OSBORNE HEAD DND","8204190","2022-01-15 09:00","2022","01","15","09:00"
"-63.42","44.61","OSBORNE HEAD DND","8204190","2022-01-15 10:00","2022","01","15","10:00"
"-63.42","44.61","OSBORNE HEAD DND","8204190","2022-01-15 11:00","2022","01","15","11:00"
"-63.42","44.61","OSBORNE HEAD DND","8204190","2022-01-15 12:00","2022","01","15","12:00"
"-63.42","44.61","OSBORNE HEAD DND","8204190","2022-01-15 13:00","2022","01","15","13:00"
"-63.42","44.61","OSBORNE HEAD DND","8204190","2022-01-15 14:00","2022","01","15","14:00"
"-63.42","44.61","OSBORNE HEAD DND","8204190","2022-01-15 15:00","2022","01","15","15:00"
"-63.42","44.61","OSBORNE HEAD DND","8204190","2022-01-15 16:00","2022","01","15","16:00"
"-63.42","44.61","OSBORNE HEAD DND","8204190","2022-01-15 17:00","2022","01","15","17:00"
"-63.42","44.61","OSBORNE HEAD DND","8204190","2022-01-15 18:00","2022","01","15","18:00"
"-63.42","44.61","OSBORNE HEAD DND","8204190","2022-01-15 19:00","2022","01","15","19:00"
"-63.42","44.61","OSBORNE HEAD DND","8204190","2022-01-15 20:00","2022","01","15","20:00"
"-63.42","44.61","OSBORNE HEAD DND","8204190","2022-01-15 21:00","2022","01","15","21:00"
"-63.42","44.61","OSBORNE HEAD DND","8204190","2022-01-15 22:00","2022","01","15","22:00"
"-63.42","44.61","OSBORNE HEAD DND","8204190","2022-01-15 23:00","2022","01","15","23:00"
"-63.42","44.61","OSBORNE HEAD DND","8204190","2022-01-16 00:00","2022","01","16","00:00"
"-63.42","44.61","OSBORNE HEAD DND","8204190","2022-01-16 01:00","2022","01","16","01:00"
"-63.42","44.61","OSBORNE HEAD DND","8204190","2022-01-16 02:00","2022","01","16","02:00"
"-63.42","44.61","OSBORNE HEAD DND","8204190","2022-01-16 03:00","2022","01","16","03:00"
"-63.42","44.61","OSBORNE HEAD DND","8204190","2022-01-16 04:00","2022","01","16","04:00"
"-63.42","44.61","OSBORNE HEAD DND","8204190","2022-01-16 05:00","2022","01","16","05:00"
"-63.42","44.61","OSBORNE HEAD DND","8204190","2022-01-16 06:00","2022","01","16","06:00"
"-63.42","44.61","OSBORNE HEAD DND","8204190","2022-01-16 07:00","2022","01","16","07:00"
"-63.42","44.61","OSBORNE HEAD DND","8204190","2022-01-16 08:00","2022","01","16","08:00"
"-63.42","44.61","OSBORNE HEAD DND","8204190","2022-01-16 09:00","2022","01","16","09:00"
"-63.42","44.61","OSBORNE HEAD DND","8204190","2022-01-16 10:00","2022","01","16","10:00"
"-63.42","44.61","OSBORNE HEAD DND","8204190","2022-01-16 11:00","2022","01","16","11:00"
"-63.42","44.61","OSBORNE HEAD DND","8204190","2022-01-16 12:00","2022","01","16","12:00"
"-63.42","44.61","OSBORNE HEAD DND","8204190","2022-01-16 13:00","2022","01","16","13:00"
"-63.42","44.61","OSBORNE HEAD DND","8204190","2022-01-16 14:00","2022","01","16","14:00"
"-63.42","44.61","OSBORNE HEAD DND","8204190","2022-01-16 15:00","2022","01","16","15:00"
"-63.42","44.61","OSBORNE HEAD DND","8204190","2022-01-16 16:00","2022","01","16","16:00"
"-63.42","44.61","OSBORNE HEAD DND","8204190","2022-01-16 17:00","2022","01","16","17:00"
"-63.42","44.61","OSBORNE HEAD DND","8204190","2022-01-16 18:00","2022","01","16","18:00"
"-63.42","44.61","OSBORNE HEAD DND","8204190","2022-01-16 19:00","2022","01","16","19:00"
"-63.42","44.61","OSBORNE HEAD DND","8204190","2022-01-16 20:00","2022","01","16","20:00"
"-63.42","44.61","OSBORNE HEAD DND","8204190","2022-01-16 21:00","2022","01","16","21:00"
"-63.42","44.61","OSBORNE HEAD DND","8204190","2022-01-16 22:00","2022","01","16","22:00"
"-63.42","44.61","OSBORNE HEAD DND","8204190","2022-01-16 23:00","2022","01","16","23:00"
"-63.42","44.61","OSBORNE HEAD DND","8204190","2022-01-17 00:00","2022","01","17","00:00"
"-63.42","44.61","OSBORNE HEAD DND","8204190","2022-01-17 01:00","2022","01","17","01:00"
"-63.42","44.61","OSBORNE HEAD DND","8204190","2022-01-17 02:00","2022","01","17","02:00"
"-63.42","44.61","OSBORNE HEAD DND","8204190","2022-01-17 03:00","2022","01","17","03:00"
"-63.42","44.61","OSBORNE HEAD DND","8204190","2022-01-17 04:00","2022","01","17","04:00"
"-63.42","44.61","OSBORNE HEAD DND","8204190","2022-01-17 05:00","2022","01","17","05:00"
"-63.42","44.61","OSBORNE HEAD DND","8204190","2022-01-17 06:00","2022","01","17","06:00"
"-63.42","44.61","OSBORNE HEAD DND","8204190","2022-01-17 07:00","2022","01","17","07:00"
"-63.42","44.61","OSBORNE HEAD DND","8204190","2022-01-17 08:00","2022","01","17","08:00"
"-63.42","44.61","OSBORNE HEAD DND","8204190","2022-01-17 09:00","2022","01","17","09:00"
"-63.42","44.61","OSBORNE HEAD DND","8204190","2022-01-17 10:00","2022","01","17","10:00"
"-63.42","44.61","OSBORNE HEAD DND","8204190","2022-01-17 11:00","2022","01","17","11:00"
"-63.42","44.61","OSBORNE HEAD DND","8204190","2022-01-17 12:00","2022","01","17","12:00"
"-63.42","44.61","OSBORNE HEAD DND","8204190","2022-01-17 13:00","2022","01","17","13:00"
"-63.42","44.61","OSBORNE HEAD DND","8204190","2022-01-17 14:00","2022","01","17","14:00"
"-63.42","44.61","OSBORNE HEAD DND","8204190","2022-01-17 15:00","2022","01","17","15:00"
"-63.42","44.61","OSBORNE HEAD DND","8204190","2022-01-17 16:00","2022","01","17","16:00"
"-63.42","44.61","OSBORNE HEAD DND","8204190","2022-01-17 17:00","2022","01","17","17:00"
"-63.42","44.61","OSBORNE HEAD DND","8204190","2022-01-17 18:00","2022","01","17","18:00"
"-63.42","44.61","OSBORNE HEAD DND","8204190","2022-01-17 19:00","2022","01","17","19:00"
"-63.42","44.61","OSBORNE HEAD DND","8204190","2022-01-17 20:00","2022","01","17","20:00"
"-63.42","44.61","OSBORNE HEAD DND","8204190","2022-01-17 21:00","2022","01","17","21:00"
"-63.42","44.61","OSBORNE HEAD DND","8204190","2022-01-17 22:00","2022","01","17","22:00"
"-63.42","44.61","OSBORNE HEAD DND","8204190","2022-01-17 23:00","2022","01","17","23:00"
"-63.42","44.61","OSBORNE HEAD DND","8204190","2022-01-18 00:00","2022","01","18","00:00"
"-63.42","44.61","OSBORNE HEAD DND","8204190","2022-01-18 01:00","2022","01","18","01:00"
"-63.42","44.61","OSBORNE HEAD DND","8204190","2022-01-18 02:00","2022","01","18","02:00"
"-63.42","44.61","OSBORNE HEAD DND","8204190","2022-01-18 03:00","2022","01","18","03:00"
"-63.42","44.61","OSBORNE HEAD DND","8204190","2022-01-18 04:00","2022","01","18","04:00"
"-63.42","44.61","OSBORNE HEAD DND","8204190","2022-01-18 05:00","2022","01","18","05:00"
"-63.42","44.61","OSBORNE HEAD DND","8204190","2022-01-18 06:00","2022","01","18","06:00"
"-63.42","44.61","OSBORNE HEAD DND","8204190","2022-01-18 07:00","2022","01","18","07:00"
"-63.42","44.61","OSBORNE HEAD DND","8204190","2022-01-18 08:00","2022","01","18","08:00"
"-63.42","44.61","OSBORNE HEAD DND","8204190","2022-01-18 09:00","2022","01","18","09:00"
"-63.42","44.61","OSBORNE HEAD DND","8204190","2022-01-18 10:00","2022","01","18","10:00"
"-63.42","44.61","OSBORNE HEAD DND","8204190","2022-01-18 11:00","2022","01","18","11:00"
"-63.42","44.61","OSBORNE HEAD DND","8204190","2022-01-18 12:00","2022","01","18","12:00"
"-63.42","44.61","OSBORNE HEAD DND","8204190","2022-01-18 13:00","2022","01","18","13:00"
"-63.42","44.61","OSBORNE HEAD DND","8204190","2022-01-18 14:00","2022","01","18","14:00"
"-63.42","44.61","OSBORNE HEAD DND","8204190","2022-01-18 15:00","2022","01","18","15:00"
"-63.42","44.61","OSBORNE HEAD DND","8204190","2022-01-18 16:00","2022","01","18","16:00"
"-63.42","44.61","OSBORNE HEAD DND","8204190","2022-01-18 17:00","2022","01","18","17:00"
"-63.42","44.61","OSBORNE HEAD DND","8204190","2022-01-18 18:00","2022","01","18","18:00"
"-63.42","44.61","OSBORNE HEAD DND","8204190","2022-01-18 19:00","2022","01","18","19:00"
"-63.42","44.61","OSBORNE HEAD DND","8204190","2022-01-18 20:00","2022","01","18","20:00"
"-63.42","44.61","OSBORNE HEAD DND","8204190","2022-01-18 21:00","2022","01","18","21:00"
"-63.42","44.61","OSBORNE HEAD DND","8204190","2022-01-18 22:00","2022","01","18","22:00"
"-63.42","44.61","OSBORNE HEAD DND","8204190","2022-01-18 23:00","2022","01","18","23:00"
"-63.42","44.61","OSBORNE HEAD DND","8204190","2022-01-19 00:00","2022","01","19","00:00"
"-63.42","44.61","OSBORNE HEAD DND","8204190","2022-01-19 01:00","2022","01","19","01:00"
"-63.42","44.61","OSBORNE HEAD DND","8204190","2022-01-19 02:00","2022","01","19","02:00"
"-63.42","44.61","OSBORNE HEAD DND","8204190","2022-01-19 03:00","2022","01","19","03:00"
"-63.42","44.61","OSBORNE HEAD DND","8204190","2022-01-19 04:00","2022","01","19","04:00"
"-63.42","44.61","OSBORNE HEAD DND","8204190","2022-01-19 05:00","2022","01","19","05:00"
"-63.42","44.61","OSBORNE HEAD DND","8204190","2022-01-19 06:00","2022","01","19","06:00"
"-63.42","44.61","OSBORNE HEAD DND","8204190","2022-01-19 07:00","2022","01","19","07:00"
"-63.42","44.61","OSBORNE HEAD DND","8204190","2022-01-19 08:00","2022","01","19","08:00"
"-63.42","44.61","OSBORNE HEAD DND","8204190","2022-01-19 09:00","2022","01","19","09:00"
"-63.42","44.61","OSBORNE HEAD DND","8204190","2022-01-19 10:00","2022","01","19","10:00"
"-63.42","44.61","OSBORNE HEAD DND","8204190","2022-01-19 11:00","2022","01","19","11:00"
"-63.42","44.61","OSBORNE HEAD DND","8204190","2022-01-19 12:00","2022","01","19","12:00"
"-63.42","44.61","OSBORNE HEAD DND","8204190","2022-01-19 13:00","2022","01","19","13:00"
"-63.42","44.61","OSBORNE HEAD DND","8204190","2022-01-19 14:00","2022","01","19","14:00"
"-63.42","44.61","OSBORNE HEAD DND","8204190","2022-01-19 15:00","2022","01","19","15:00"
"-63.42","44.61","OSBORNE HEAD DND","8204190","2022-01-19 16:00","2022","01","19","16:00"
"-63.42","44.61","OSBORNE HEAD DND","8204190","2022-01-19 17:00","2022","01","19","17:00"
"-63.42","44.61","OSBORNE HEAD DND","8204190","2022-01-19 18:00","2022","01","19","18:00"
"-63.42","44.61","OSBORNE HEAD DND","8204190","2022-01-19 19:00","2022","01","19","19:00"
"-63.42","44.61","OSBORNE HEAD DND","8204190","2022-01-19 20:00","2022","01","19","20:00"
"-63.42","44.61","OSBORNE HEAD DND","8204190","2022-01-19 21:00","2022","01","19","21:00"
"-63.42","44.61","OSBORNE HEAD DND","8204190","2022-01-19 22:00","2022","01","19","22:00"
"-63.42","44.61","OSBORNE HEAD DND","8204190","2022-01-19 23:00","2022","01","19","23:00"
"-63.42","44.61","OSBORNE HEAD DND","8204190","2022-01-20 00:00","2022","01","20","00:00"
"-63.42","44.61","OSBORNE HEAD DND","8204190","2022-01-20 01:00","2022","01","20","01:00"
"-63.42","44.61","OSBORNE HEAD DND","8204190","2022-01-20 02:00","2022","01","20","02:00"
"-63.42","44.61","OSBORNE HEAD DND","8204190","2022-01-20 03:00","2022","01","20","03:00"
"-63.42","44.61","OSBORNE HEAD DND","8204190","2022-01-20 04:00","2022","01","20","04:00"
"-63.42","44.61","OSBORNE HEAD DND","8204190","2022-01-20 05:00","2022","01","20","05:00"
"-63.42","44.61","OSBORNE HEAD DND","8204190","2022-01-20 06:00","2022","01","20","06:00"
"-63.42","44.61","OSBORNE HEAD DND","8204190","2022-01-20 07:00","2022","01","20","07:00"
"-63.42","44.61","OSBORNE HEAD DND","8204190","2022-01-20 08:00","2022","01","20","08:00"
"-63.42","44.61","OSBORNE HEAD DND","8204190","2022-01-20 09:00","2022","01","20","09:00"
"-63.42","44.61","OSBORNE HEAD DND","8204190","2022-01-20 10:00","2022","01","20","10:00"
"-63.42","44.61","OSBORNE HEAD DND","8204190","2022-01-20 11:00","2022","01","20","11:00"
"-63.42","44.61","OSBORNE HEAD DND","8204190","2022-01-20 12:00","2022","01","20","12:00"
"-63.42","44.61","OSBORNE HEAD DND","8204190","2022-01-20 13:00","2022","01","20","13:00","3.7","","3.7","","100","","0.0","","25","","16","","","","100.97","","","","","","NA"
"-63.42","44.61","OSBORNE HEAD DND","8204190","2022-01-20 14:00","2022","01","20","14:00","3.6","","3.6","","100","","0.6","","25","","19","","","","100.93","","","","","","NA"
"-63.42","44.61","OSBORNE HEAD DND","8204190","2022-01-20 15:00","2022","01","20","15:00","0.9","","0.9","","100","","1.2","","32","","19","","","","101.00","","","","","","NA"
"-63.42","44.61","OSBORNE HEAD DND","8204190","2022-01-20 16:00","2022","01","20","16:00","0.5","","0.5","","100","","0.6","","33","","13","","","","101.14","","","","","","NA"
"-63.42","44.61","OSBORNE HEAD DND","8204190","2022-01-20 17:00","2022","01","20","17:00","0.1","","0.1","","100","","","","36","","7","","","","101.23","","","","","","NA"
"-63.42","44.61","OSBORNE HEAD DND","8204190","2022-01-20 18:00","2022","01","20","18:00","-0.2","","-0.2","","100","","","","35","","14","","","","101.34","","","","-4","","NA"
"-63.42","44.61","OSBORNE HEAD DND","8204190","2022-01-20 19:00","2022","01","20","19:00","-1.0","","-1.0","","100","","","","34","","11","","","","101.46","","","","-5","","NA"
"-63.42","44.61","OSBORNE HEAD DND","8204190","2022-01-20 20:00","2022","01","20","20:00","-1.5","","-2.6","","92","","","","34","","11","","","","101.50","","","","-5","","NA"
"-63.42","44.61","OSBORNE HEAD DND","8204190","2022-01-20 21:00","2022","01","20","21:00","-2.1","","-4.2","","85","","","","32","","20","","","","101.56","","","","-8","","NA"
"-63.42","44.61","OSBORNE HEAD DND","8204190","2022-01-20 22:00","2022","01","20","22:00","-2.9","","-5.7","","81","","","","33","","19","","","","101.67","","","","-9","","NA"
"-63.42","44.61","OSBORNE HEAD DND","8204190","2022-01-20 23:00","2022","01","20","23:00","-3.3","","-5.5","","85","","","","35","","19","","","","101.71","","","","-9","","NA"
"-63.42","44.61","OSBORNE HEAD DND","8204190","2022-01-21 00:00","2022","01","21","00:00","-4.5","","-6.4","","86","","","","1","","20","","","","101.77","","","","-11","","NA"
"-63.42","44.61","OSBORNE HEAD DND","8204190","2022-01-21 01:00","2022","01","21","01:00","-5.4","","-7.6","","85","","","","1","","22","","","","101.80","","","","-12","","NA"
"-63.42","44.61","OSBORNE HEAD DND","8204190","2022-01-21 02:00","2022","01","21","02:00","-7.2","","-9.5","","84","","","","34","","23","","","","101.93","","","","-15","","NA"
"-63.42","44.61","OSBORNE HEAD DND","8204190","2022-01-21 03:00","2022","01","21","03:00","-9.0","","-12.0","","79","","","","35","","28","","","","102.04","","","","-18","","NA"
"-63.42","44.61","OSBORNE HEAD DND","8204190","2022-01-21 04:00","2022","01","21","04:00","-10.8","","-13.7","","79","","","","35","","26","","","","102.13","","","","-20","","NA"
"-63.42","44.61","OSBORNE HEAD DND","8204190","2022-01-21 05:00","2022","01","21","05:00","-11.7","","-14.4","","80","","","","35","","20","","","","102.18","","","","-20","","NA"
"-63.42","44.61","OSBORNE HEAD DND","8204190","2022-01-21 06:00","2022","01","21","06:00","-12.4","","-15.1","","80","","","","35","","23","","","","102.26","","","","-21","","NA"
"-63.42","44.61","OSBORNE HEAD DND","8204190","2022-01-21 07:00","2022","01","21","07:00","-12.7","","-15.4","","80","","","","35","","21","","","","102.34","","","","-21","","NA"
"-63.42","44.61","OSBORNE HEAD DND","8204190","2022-01-21 08:00","2022","01","21","08:00","-13.4","","-16.0","","80","","","","35","","27","","","","102.40","","","","-23","","NA"
"-63.42","44.61","OSBORNE HEAD DND","8204190","2022-01-21 09:00","2022","01","21","09:00","-13.5","","-16.4","","79","","","","35","","24","","","","102.52","","","","-23","","NA"
"-63.42","44.61","OSBORNE HEAD DND","8204190","2022-01-21 10:00","2022","01","21","10:00","-13.4","","-16.7","","76","","","","35","","21","","","","102.59","","","","-22","","NA"
"-63.42","44.61","OSBORNE HEAD DND","8204190","2022-01-21 11:00","2022","01","21","11:00","-12.3","","-15.7","","76","","","","34","","20","","","","102.61","","","","-21","","NA"
"-63.42","44.61","OSBORNE HEAD DND","8204190","2022-01-21 12:00","2022","01","21","12:00","-10.5","","-14.0","","75","","","","35","","18","","","","102.54","","","","-18","","NA"
"-63.42","44.61","OSBORNE HEAD DND","8204190","2022-01-21 13:00","2022","01","21","13:00","-10.1","","-14.3","","71","","","","34","","21","","","","102.52","","","","-18","","NA"
"-63.42","44.61","OSBORNE HEAD DND","8204190","2022-01-21 14:00","2022","01","21","14:00","-10.2","","-14.2","","72","","","","35","","22","","","","102.52","","","","-18","","NA"
"-63.42","44.61","OSBORNE HEAD DND","8204190","2022-01-21 15:00","2022","01","21","15:00","-9.6","","-14.2","","69","","","","35","","19","","","","102.57","","","","-17","","NA"
"-63.42","44.61","OSBORNE HEAD DND","8204190","2022-01-21 16:00","2022","01","21","16:00","-10.8","","-14.8","","72","","","","35","","22","","","","102.60","","","","-19","","NA"
"-63.42","44.61","OSBORNE HEAD DND","8204190","2022-01-21 17:00","2022","01","21","17:00","-11.8","","-15.5","","73","","","","35","","18","","","","102.74","","","","-20","","NA"
"-63.42","44.61","OSBORNE HEAD DND","8204190","2022-01-21 18:00","2022","01","21","18:00","-12.5","","-15.9","","76","","","","35","","23","","","","102.76","","","","-22","","NA"
"-63.42","44.61","OSBORNE HEAD DND","8204190","2022-01-21 19:00","2022","01","21","19:00","-13.2","","-16.1","","78","","","","35","","20","","","","102.86","","","","-22","","NA"
"-63.42","44.61","OSBORNE HEAD DND","8204190","2022-01-21 20:00","2022","01","21","20:00","-13.8","","-16.6","","79","","","","35","","18","","","","102.90","","","","-22","","NA"
"-63.42","44.61","OSBORNE HEAD DND","8204190","2022-01-21 21:00","2022","01","21","21:00","-14.2","","-17.0","","80","","","","35","","24","","","","102.95","","","","-24","","NA"
"-63.42","44.61","OSBORNE HEAD DND","8204190","2022-01-21 22:00","2022","01","21","22:00","-14.8","","-17.4","","80","","","","35","","22","","","","102.95","","","","-24","","NA"
"-63.42","44.61","OSBORNE HEAD DND","8204190","2022-01-21 23:00","2022","01","21","23:00","-15.0","","-17.2","","83","","","","35","","21","","","","102.98","","","","-24","","NA"
"-63.42","44.61","OSBORNE HEAD DND","8204190","2022-01-22 00:00","2022","01","22","00:00","-14.9","","-17.1","","84","","","","35","","16","","","","103.02","","","","-23","","NA"
"-63.42","44.61","OSBORNE HEAD DND","8204190","2022-01-22 01:00","2022","01","22","01:00","-15.1","","-17.3","","83","","","","36","","18","","","","103.00","","","","-24","","NA"
"-63.42","44.61","OSBORNE HEAD DND","8204190","2022-01-22 02:00","2022","01","22","02:00","-14.7","","-16.8","","83","","","","1","","16","","","","103.03","","","","-23","","NA"
"-63.42","44.61","OSBORNE HEAD DND","8204190","2022-01-22 03:00","2022","01","22","03:00","-14.1","","-16.3","","83","","","","1","","19","","","","102.99","","","","-23","","NA"
"-63.42","44.61","OSBORNE HEAD DND","8204190","2022-01-22 04:00","2022","01","22","04:00","-13.9","","-16.2","","83","","","","1","","16","","","","102.95","","","","-22","","NA"
"-63.42","44.61","OSBORNE HEAD DND","8204190","2022-01-22 05:00","2022","01","22","05:00","-13.6","","-16.2","","81","","","","36","","19","","","","102.90","","","","-22","","NA"
"-63.42","44.61","OSBORNE HEAD DND","8204190","2022-01-22 06:00","2022","01","22","06:00","-13.5","","-16.0","","82","","","","36","","18","","","","102.87","","","","-22","","NA"
"-63.42","44.61","OSBORNE HEAD DND","8204190","2022-01-22 07:00","2022","01","22","07:00","-13.5","","-15.8","","83","","","","1","","17","","","","102.81","","","","-22","","NA"
"-63.42","44.61","OSBORNE HEAD DND","8204190","2022-01-22 08:00","2022","01","22","08:00","-13.1","","-15.5","","82","","","","1","","22","","","","102.78","","","","-22","","NA"
"-63.42","44.61","OSBORNE HEAD DND","8204190","2022-01-22 09:00","2022","01","22","09:00","-11.7","","-14.1","","82","","","","3","","16","","","","102.83","","","","-19","","NA"
"-63.42","44.61","OSBORNE HEAD DND","8204190","2022-01-22 10:00","2022","01","22","10:00","-10.6","","-13.2","","81","","","","3","","19","","","","102.77","","","","-18","","NA"
"-63.42","44.61","OSBORNE HEAD DND","8204190","2022-01-22 11:00","2022","01","22","11:00","-9.3","","-12.4","","78","","","","3","","20","","","","102.58","","","","-17","","NA"
"-63.42","44.61","OSBORNE HEAD DND","8204190","2022-01-22 12:00","2022","01","22","12:00","-7.8","","-11.1","","77","","","","4","","16","","","","102.48","","","","-14","","NA"
"-63.42","44.61","OSBORNE HEAD DND","8204190","2022-01-22 13:00","2022","01","22","13:00","-7.1","","-10.5","","76","","","","5","","15","","","","102.38","","","","-13","","NA"
"-63.42","44.61","OSBORNE HEAD DND","8204190","2022-01-22 14:00","2022","01","22","14:00","-7.1","","-10.2","","78","","","","3","","16","","","","102.21","","","","-13","","NA"
"-63.42","44.61","OSBORNE HEAD DND","8204190","2022-01-22 15:00","2022","01","22","15:00","-7.1","","-10.1","","79","","","","1","","16","","","","102.16","","","","-13","","NA"
"-63.42","44.61","OSBORNE HEAD DND","8204190","2022-01-22 16:00","2022","01","22","16:00","-7.2","","-10.1","","80","","","","1","","19","","","","102.06","","","","-14","","NA"
"-63.42","44.61","OSBORNE HEAD DND","8204190","2022-01-22 17:00","2022","01","22","17:00","-7.2","","-9.9","","81","","","","1","","19","","","","102.03","","","","-14","","NA"
"-63.42","44.61","OSBORNE HEAD DND","8204190","2022-01-22 18:00","2022","01","22","18:00","-7.5","","-9.9","","83","","","","1","","19","","","","101.99","","","","-15","","NA"
"-63.42","44.61","OSBORNE HEAD DND","8204190","2022-01-22 19:00","2022","01","22","19:00","-7.7","","-10.0","","84","","","","1","","23","","","","101.88","","","","-15","","NA"
"-63.42","44.61","OSBORNE HEAD DND","8204190","2022-01-22 20:00","2022","01","22","20:00","-7.5","","-9.5","","85","","","","3","","21","","","","101.67","","","","-15","","NA"
"-63.42","44.61","OSBORNE HEAD DND","8204190","2022-01-22 21:00","2022","01","22","21:00","-7.2","","-9.2","","86","","","","2","","20","","","","101.56","","","","-14","","NA"
"-63.42","44.61","OSBORNE HEAD DND","8204190","2022-01-22 22:00","2022","01","22","22:00","-8.0","","-9.6","","88","","","","2","","16","","","","101.41","","","","-15","","NA"
"-63.42","44.61","OSBORNE HEAD DND","8204190","2022-01-22 23:00","2022","01","22","23:00","-7.9","","-9.3","","90","","","","2","","18","","","","101.30","","","","-15","","NA"
"-63.42","44.61","OSBORNE HEAD DND","8204190","2022-01-23 00:00","2022","01","23","00:00","-7.8","","-9.1","","90","","","","2","","17","","","","101.24","","","","-14","","NA"
"-63.42","44.61","OSBORNE HEAD DND","8204190","2022-01-23 01:00","2022","01","23","01:00","-7.7","","-9.0","","91","","","","35","","11","","","","101.18","","","","-13","","NA"
"-63.42","44.61","OSBORNE HEAD DND","8204190","2022-01-23 02:00","2022","01","23","02:00","-7.5","","-8.7","","91","","","","1","","13","","","","101.11","","","","-13","","NA"
"-63.42","44.61","OSBORNE HEAD DND","8204190","2022-01-23 03:00","2022","01","23","03:00","-7.0","","-8.3","","90","","","","36","","9","","","","101.08","","","","-11","","NA"
"-63.42","44.61","OSBORNE HEAD DND","8204190","2022-01-23 04:00","2022","01","23","04:00","-7.1","","-8.4","","91","","","","33","","6","","","","101.05","","","","-10","","NA"
"-63.42","44.61","OSBORNE HEAD DND","8204190","2022-01-23 05:00","2022","01","23","05:00","-6.8","","-7.7","","93","","","","29","","6","","","","100.99","","","","-10","","NA"
"-63.42","44.61","OSBORNE HEAD DND","8204190","2022-01-23 06:00","2022","01","23","06:00","-6.8","","-7.5","","95","","","","32","","6","","","","100.95","","","","-10","","NA"
"-63.42","44.61","OSBORNE HEAD DND","8204190","2022-01-23 07:00","2022","01","23","07:00","-6.6","","-7.3","","94","","","","31","","10","","","","100.96","","","","-11","","NA"
"-63.42","44.61","OSBORNE HEAD DND","8204190","2022-01-23 08:00","2022","01","23","08:00","-6.7","","-7.5","","94","","","","35","","6","","","","100.91","","","","-10","","NA"
"-63.42","44.61","OSBORNE HEAD DND","8204190","2022-01-23 09:00","2022","01","23","09:00","-6.0","","-6.8","","95","","","","28","","4","","","","100.91","","","","-8","","NA"
"-63.42","44.61","OSBORNE HEAD DND","8204190","2022-01-23 10:00","2022","01","23","10:00","-3.3","","-6.4","","79","","","","21","","12","","","","100.86","","","","-8","","NA"
"-63.42","44.61","OSBORNE HEAD DND","8204190","2022-01-23 11:00","2022","01","23","11:00","-1.3","","-7.3","","64","","","","23","","23","","","","100.82","","","","-7","","NA"
"-63.42","44.61","OSBORNE HEAD DND","8204190","2022-01-23 12:00","2022","01","23","12:00","-0.5","","-7.2","","61","","","","23","","35","","","","100.72","","","","-8","","NA"
"-63.42","44.61","OSBORNE HEAD DND","8204190","2022-01-23 13:00","2022","01","23","13:00","0.0","","-6.8","","60","","","","23","","32","","","","100.61","","","","-7","","NA"
"-63.42","44.61","OSBORNE HEAD DND","8204190","2022-01-23 14:00","2022","01","23","14:00","-0.2","","-5.2","","69","","","","20","","34","","","","100.54","","","","-7","","NA"
"-63.42","44.61","OSBORNE HEAD DND","8204190","2022-01-23 15:00","2022","01","23","15:00","0.0","","-4.7","","71","","","","21","","39","","","","100.50","","","","-7","","NA"
"-63.42","44.61","OSBORNE HEAD DND","8204190","2022-01-23 16:00","2022","01","23","16:00","0.5","","-4.6","","69","","","","21","","42","","","","100.45","","","","","","NA"
"-63.42","44.61","OSBORNE HEAD DND","8204190","2022-01-23 17:00","2022","01","23","17:00","0.7","","-4.4","","69","","0.0","","21","","41","","","","100.43","","","","","","NA"
"-63.42","44.61","OSBORNE HEAD DND","8204190","2022-01-23 18:00","2022","01","23","18:00","1.1","","-3.5","","72","","0.2","","21","","43","","","","100.44","","","","","","NA"
"-63.42","44.61","OSBORNE HEAD DND","8204190","2022-01-23 19:00","2022","01","23","19:00","1.3","","-3.1","","72","","0.0","","20","","46","","","","100.43","","","","","","NA"
"-63.42","44.61","OSBORNE HEAD DND","8204190","2022-01-23 20:00","2022","01","23","20:00","1.4","","-2.4","","76","","0.0","","20","","40","","","","100.43","","","","","","NA"
"-63.42","44.61","OSBORNE HEAD DND","8204190","2022-01-23 21:00","2022","01","23","21:00","1.1","","-1.4","","83","","0.0","","22","","40","","","","100.45","","","","","","NA"
"-63.42","44.61","OSBORNE HEAD DND","8204190","2022-01-23 22:00","2022","01","23","22:00","0.4","","0.4","","100","","","","22","","33","","","","100.43","","","","","","NA"
"-63.42","44.61","OSBORNE HEAD DND","8204190","2022-01-23 23:00","2022","01","23","23:00","0.2","","0.2","","100","","","","22","","22","","","","100.44","","","","","","NA"
"-63.42","44.61","OSBORNE HEAD DND","8204190","2022-01-24 00:00","2022","01","24","00:00","0.7","","0.7","","100","","0.0","","22","","18","","","","100.44","","","","","","NA"
"-63.42","44.61","OSBORNE HEAD DND","8204190","2022-01-24 01:00","2022","01","24","01:00","0.2","","0.2","","100","","","","21","","19","","","","100.41","","","","","","NA"
"-63.42","44.61","OSBORNE HEAD DND","8204190","2022-01-24 02:00","2022","01","24","02:00","0.4","","0.1","","98","","","","20","","15","","","","100.37","","","","","","NA"
"-63.42","44.61","OSBORNE HEAD DND","8204190","2022-01-24 03:00","2022","01","24","03:00","0.7","","-1.1","","88","","0.0","","22","","17","","","","100.34","","","","","","NA"
"-63.42","44.61","OSBORNE HEAD DND","8204190","2022-01-24 04:00","2022","01","24","04:00","0.1","","-1.6","","88","","","","27","","13","","","","100.31","","","","","","NA"
"-63.42","44.61","OSBORNE HEAD DND","8204190","2022-01-24 05:00","2022","01","24","05:00","-2.5","","-3.4","","93","","","","1","","22","","","","100.30","","","","-9","","NA"
"-63.42","44.61","OSBORNE HEAD DND","8204190","2022-01-24 06:00","2022","01","24","06:00","-3.3","","-4.8","","89","","","","36","","19","","","","100.41","","","","-9","","NA"
"-63.42","44.61","OSBORNE HEAD DND","8204190","2022-01-24 07:00","2022","01","24","07:00","-3.5","","-4.9","","91","","","","36","","22","","","","100.44","","","","-10","","NA"
"-63.42","44.61","OSBORNE HEAD DND","8204190","2022-01-24 08:00","2022","01","24","08:00","-3.5","","-5.0","","90","","","","1","","21","","","","100.48","","","","-10","","NA"
"-63.42","44.61","OSBORNE HEAD DND","8204190","2022-01-24 09:00","2022","01","24","09:00","-3.8","","-5.9","","85","","","","1","","22","","","","100.50","","","","-10","","NA"
"-63.42","44.61","OSBORNE HEAD DND","8204190","2022-01-24 10:00","2022","01","24","10:00","-3.7","","-5.9","","85","","","","1","","20","","","","100.53","","","","-10","","NA"
"-63.42","44.61","OSBORNE HEAD DND","8204190","2022-01-24 11:00","2022","01","24","11:00","-3.9","","-5.7","","87","","","","1","","21","","","","100.53","","","","-10","","NA"
"-63.42","44.61","OSBORNE HEAD DND","8204190","2022-01-24 12:00","2022","01","24","12:00","-3.9","","-6.0","","85","","","","36","","19","","","","100.53","","","","-10","","NA"
"-63.42","44.61","OSBORNE HEAD DND","8204190","2022-01-24 13:00","2022","01","24","13:00","-3.6","","-5.6","","86","","","","35","","19","","","","100.48","","","","-10","","NA"
"-63.42","44.61","OSBORNE HEAD DND","8204190","2022-01-24 14:00","2022","01","24","14:00","-3.0","","-5.7","","81","","","","1","","20","","","","100.49","","","","-9","","NA"
"-63.42","44.61","OSBORNE HEAD DND","8204190","2022-01-24 15:00","2022","01","24","15:00","-2.4","","-6.1","","75","","","","36","","15","","","","100.54","","","","-7","","NA"
"-63.42","44.61","OSBORNE HEAD DND","8204190","2022-01-24 16:00","2022","01","24","16:00","-2.9","","-6.6","","76","","","","35","","16","","","","100.65","","","","-8","","NA"
"-63.42","44.61","OSBORNE HEAD DND","8204190","2022-01-24 17:00","2022","01","24","17:00","-3.4","","-6.9","","76","","","","35","","14","","","","100.75","","","","-8","","NA"
"-63.42","44.61","OSBORNE HEAD DND","8204190","2022-01-24 18:00","2022","01","24","18:00","-4.0","","-7.3","","78","","","","33","","14","","","","100.87","","","","-9","","NA"
"-63.42","44.61","OSBORNE HEAD DND","8204190","2022-01-24 19:00","2022","01","24","19:00","-4.4","","-7.5","","79","","","","34","","11","","","","100.95","","","","-9","","NA"
"-63.42","44.61","OSBORNE HEAD DND","8204190","2022-01-24 20:00","2022","01","24","20:00","-5.4","","-8.2","","81","","","","34","","8","","","","101.03","","","","-9","","NA"
"-63.42","44.61","OSBORNE HEAD DND","8204190","2022-01-24 21:00","2022","01","24","21:00","-6.1","","-8.6","","82","","","","2","","7","","","","101.09","","","","-9","","NA"
"-63.42","44.61","OSBORNE HEAD DND","8204190","2022-01-24 22:00","2022","01","24","22:00","-6.5","","-8.8","","83","","","","36","","4","","","","101.15","","","","-8","","NA"
"-63.42","44.61","OSBORNE HEAD DND","8204190","2022-01-24 23:00","2022","01","24","23:00","-6.8","","-8.8","","86","","","","2","","7","","","","101.17","","","","-10","","NA"
"-63.42","44.61","OSBORNE HEAD DND","8204190","2022-01-25 00:00","2022","01","25","00:00","-7.0","","-8.5","","89","","","","2","","6","","","","101.26","","","","-10","","NA"
"-63.42","44.61","OSBORNE HEAD DND","8204190","2022-01-25 01:00","2022","01","25","01:00","-7.3","","-8.5","","91","","","","3","","9","","","","101.28","","","","-12","","NA"
"-63.42","44.61","OSBORNE HEAD DND","8204190","2022-01-25 02:00","2022","01","25","02:00","-7.2","","-7.7","","96","","","","4","","8","","","","101.28","","","","-11","","NA"
"-63.42","44.61","OSBORNE HEAD DND","8204190","2022-01-25 03:00","2022","01","25","03:00","-6.7","","-7.4","","95","","","","4","","12","","","","101.26","","","","-12","","NA"
"-63.42","44.61","OSBORNE HEAD DND","8204190","2022-01-25 04:00","2022","01","25","04:00","-6.3","","-7.2","","93","","","","3","","9","","","","101.31","","","","-11","","NA"
"-63.42","44.61","OSBORNE HEAD DND","8204190","2022-01-25 05:00","2022","01","25","05:00","-4.2","","-5.8","","89","","","","9","","16","","","","101.31","","","","-10","","NA"
"-63.42","44.61","OSBORNE HEAD DND","8204190","2022-01-25 06:00","2022","01","25","06:00","-3.0","","-6.4","","77","","","","12","","16","","","","101.37","","","","-8","","NA"
"-63.42","44.61","OSBORNE HEAD DND","8204190","2022-01-25 07:00","2022","01","25","07:00","-2.3","","-5.1","","81","","","","12","","20","","","","101.41","","","","-8","","NA"
"-63.42","44.61","OSBORNE HEAD DND","8204190","2022-01-25 08:00","2022","01","25","08:00","-1.2","","-3.5","","84","","","","12","","25","","","","101.40","","","","-7","","NA"
"-63.42","44.61","OSBORNE HEAD DND","8204190","2022-01-25 09:00","2022","01","25","09:00","-0.2","","-3.1","","81","","","","14","","34","","","","101.39","","","","-7","","NA"
"-63.42","44.61","OSBORNE HEAD DND","8204190","2022-01-25 10:00","2022","01","25","10:00","0.6","","-2.5","","79","","0.0","","15","","29","","","","101.34","","","","","","NA"
"-63.42","44.61","OSBORNE HEAD DND","8204190","2022-01-25 11:00","2022","01","25","11:00","1.2","","-1.2","","84","","0.0","","15","","36","","","","101.29","","","","","","NA"
"-63.42","44.61","OSBORNE HEAD DND","8204190","2022-01-25 12:00","2022","01","25","12:00","1.4","","1.1","","98","","0.2","","16","","44","","","","101.20","","","","","","NA"
"-63.42","44.61","OSBORNE HEAD DND","8204190","2022-01-25 13:00","2022","01","25","13:00","1.9","","1.8","","99","","0.6","","15","","40","","","","101.10","","","","","","NA"
"-63.42","44.61","OSBORNE HEAD DND","8204190","2022-01-25 14:00","2022","01","25","14:00","1.8","","1.8","","100","","1.0","","15","","30","","","","101.03","","","","","","NA"
"-63.42","44.61","OSBORNE HEAD DND","8204190","2022-01-25 15:00","2022","01","25","15:00","2.4","","2.4","","100","","1.4","","14","","34","","","","100.93","","","","","","NA"
"-63.42","44.61","OSBORNE HEAD DND","8204190","2022-01-25 16:00","2022","01","25","16:00","3.1","","3.0","","99","","0.4","","16","","32","","","","100.85","","","","","","NA"
"-63.42","44.61","OSBORNE HEAD DND","8204190","2022-01-25 17:00","2022","01","25","17:00","3.3","","1.8","","90","","0.0","","19","","32","","","","100.86","","","","","","NA"
"-63.42","44.61","OSBORNE HEAD DND","8204190","2022-01-25 18:00","2022","01","25","18:00","2.6","","2.6","","100","","0.0","","21","","30","","","","100.86","","","","","","NA"
"-63.42","44.61","OSBORNE HEAD DND","8204190","2022-01-25 19:00","2022","01","25","19:00","2.4","","2.4","","100","","0.0","","22","","20","","","","100.90","","","","","","NA"
"-63.42","44.61","OSBORNE HEAD DND","8204190","2022-01-25 20:00","2022","01","25","20:00","2.0","","2.0","","100","","0.0","","21","","17","","","","100.90","","","","","","NA"
"-63.42","44.61","OSBORNE HEAD DND","8204190","2022-01-25 21:00","2022","01","25","21:00","2.1","","2.1","","100","","0.0","","22","","8","","","","100.90","","","","","","NA"
"-63.42","44.61","OSBORNE HEAD DND","8204190","2022-01-25 22:00","2022","01","25","22:00","2.0","","2.0","","100","","0.0","","23","","13","","","","100.94","","","","","","NA"
"-63.42","44.61","OSBORNE HEAD DND","8204190","2022-01-25 23:00","2022","01","25","23:00","2.4","","2.4","","100","","0.0","","27","","16","","","","100.97","","","","","","NA"
"-63.42","44.61","OSBORNE HEAD DND","8204190","2022-01-26 00:00","2022","01","26","00:00","1.7","","0.8","","93","","0.0","","27","","16","","","","101.00","","","","","","NA"
"-63.42","44.61","OSBORNE HEAD DND","8204190","2022-01-26 01:00","2022","01","26","01:00","0.8","","-1.3","","86","","0.0","","30","","17","","","","101.07","","","","","","NA"
"-63.42","44.61","OSBORNE HEAD DND","8204190","2022-01-26 02:00","2022","01","26","02:00","-0.8","","-2.7","","87","","","","31","","14","","","","101.10","","","","-5","","NA"
"-63.42","44.61","OSBORNE HEAD DND","8204190","2022-01-26 03:00","2022","01","26","03:00","-1.4","","-3.5","","86","","","","30","","17","","","","101.19","","","","-7","","NA"
"-63.42","44.61","OSBORNE HEAD DND","8204190","2022-01-26 04:00","2022","01","26","04:00","-2.5","","-4.2","","88","","","","31","","12","","","","101.24","","","","-7","","NA"
"-63.42","44.61","OSBORNE HEAD DND","8204190","2022-01-26 05:00","2022","01","26","05:00","-3.2","","-5.3","","86","","","","32","","15","","","","101.29","","","","-8","","NA"
"-63.42","44.61","OSBORNE HEAD DND","8204190","2022-01-26 06:00","2022","01","26","06:00","-4.5","","-6.8","","84","","","","36","","13","","","","101.34","","","","-10","","NA"
"-63.42","44.61","OSBORNE HEAD DND","8204190","2022-01-26 07:00","2022","01","26","07:00","-5.9","","-10.6","","70","","","","35","","11","","","","101.38","","","","-11","","NA"
"-63.42","44.61","OSBORNE HEAD DND","8204190","2022-01-26 08:00","2022","01","26","08:00","-6.4","","-10.8","","71","","","","34","","13","","","","101.48","","","","-12","","NA"
"-63.42","44.61","OSBORNE HEAD DND","8204190","2022-01-26 09:00","2022","01","26","09:00","-5.9","","-10.6","","69","","","","36","","13","","","","101.53","","","","-11","","NA"
"-63.42","44.61","OSBORNE HEAD DND","8204190","2022-01-26 10:00","2022","01","26","10:00","-3.9","","-10.7","","59","","","","1","","21","","","","101.50","","","","-10","","NA"
"-63.42","44.61","OSBORNE HEAD DND","8204190","2022-01-26 11:00","2022","01","26","11:00","-3.0","","-10.9","","55","","","","2","","12","","","","101.50","","","","-7","","NA"
"-63.42","44.61","OSBORNE HEAD DND","8204190","2022-01-26 12:00","2022","01","26","12:00","-2.1","","-10.6","","52","","","","1","","7","","","","101.43","","","","-5","","NA"
"-63.42","44.61","OSBORNE HEAD DND","8204190","2022-01-26 13:00","2022","01","26","13:00","-1.7","","-9.2","","57","","","","17","","7","","","","101.41","","","","-4","","NA"
"-63.42","44.61","OSBORNE HEAD DND","8204190","2022-01-26 14:00","2022","01","26","14:00","-1.4","","-9.3","","55","","","","31","","13","","","","101.42","","","","-6","","NA"
"-63.42","44.61","OSBORNE HEAD DND","8204190","2022-01-26 15:00","2022","01","26","15:00","-2.6","","-9.5","","59","","","","32","","17","","","","101.45","","","","-8","","NA"
"-63.42","44.61","OSBORNE HEAD DND","8204190","2022-01-26 16:00","2022","01","26","16:00","-3.1","","-10.0","","59","","","","32","","18","","","","101.49","","","","-9","","NA"
"-63.42","44.61","OSBORNE HEAD DND","8204190","2022-01-26 17:00","2022","01","26","17:00","-4.1","","-9.8","","64","","","","35","","13","","","","101.53","","","","-9","","NA"
"-63.42","44.61","OSBORNE HEAD DND","8204190","2022-01-26 18:00","2022","01","26","18:00","-4.9","","-9.2","","72","","","","36","","23","","","","101.62","","","","-12","","NA"
"-63.42","44.61","OSBORNE HEAD DND","8204190","2022-01-26 19:00","2022","01","26","19:00","-7.3","","-10.2","","79","","","","36","","22","","","","101.73","","","","-15","","NA"
"-63.42","44.61","OSBORNE HEAD DND","8204190","2022-01-26 20:00","2022","01","26","20:00","-9.4","","-13.7","","71","","","","36","","24","","","","101.85","","","","-18","","NA"
"-63.42","44.61","OSBORNE HEAD DND","8204190","2022-01-26 21:00","2022","01","26","21:00","-10.6","","-15.1","","70","","","","36","","25","","","","101.92","","","","-20","","NA"
"-63.42","44.61","OSBORNE HEAD DND","8204190","2022-01-26 22:00","2022","01","26","22:00","-11.5","","-15.2","","74","","","","36","","20","","","","101.98","","","","-20","","NA"
"-63.42","44.61","OSBORNE HEAD DND","8204190","2022-01-26 23:00","2022","01","26","23:00","-12.3","","-16.7","","69","","","","35","","25","","","","102.00","","","","-22","","NA"
"-63.42","44.61","OSBORNE HEAD DND","8204190","2022-01-27 00:00","2022","01","27","00:00","-13.1","","-18.1","","66","","","","35","","22","","","","102.05","","","","-22","","NA"
"-63.42","44.61","OSBORNE HEAD DND","8204190","2022-01-27 01:00","2022","01","27","01:00","-13.9","","-18.1","","71","","","","34","","19","","","","102.12","","","","-23","","NA"
"-63.42","44.61","OSBORNE HEAD DND","8204190","2022-01-27 02:00","2022","01","27","02:00","-14.9","","-18.4","","74","","","","33","","18","","","","102.17","","","","-24","","NA"
"-63.42","44.61","OSBORNE HEAD DND","8204190","2022-01-27 03:00","2022","01","27","03:00","-16.1","","-20.1","","71","","","","33","","19","","","","102.25","","","","-25","","NA"
"-63.42","44.61","OSBORNE HEAD DND","8204190","2022-01-27 04:00","2022","01","27","04:00","-16.7","","-20.2","","75","","","","31","","17","","","","102.29","","","","-26","","NA"
"-63.42","44.61","OSBORNE HEAD DND","8204190","2022-01-27 05:00","2022","01","27","05:00","-17.1","","-20.3","","76","","","","31","","16","","","","102.36","","","","-26","","NA"
"-63.42","44.61","OSBORNE HEAD DND","8204190","2022-01-27 06:00","2022","01","27","06:00","-17.3","","-20.0","","80","","","","33","","15","","","","102.41","","","","-26","","NA"
"-63.42","44.61","OSBORNE HEAD DND","8204190","2022-01-27 07:00","2022","01","27","07:00","-17.3","","-19.5","","83","","","","33","","18","","","","102.49","","","","-27","","NA"
"-63.42","44.61","OSBORNE HEAD DND","8204190","2022-01-27 08:00","2022","01","27","08:00","-17.2","","-19.6","","82","","","","32","","24","","","","102.61","","","","-28","","NA"
"-63.42","44.61","OSBORNE HEAD DND","8204190","2022-01-27 09:00","2022","01","27","09:00","-16.0","","-18.9","","78","","","","33","","22","","","","102.64","","","","-26","","NA"
"-63.42","44.61","OSBORNE HEAD DND","8204190","2022-01-27 10:00","2022","01","27","10:00","-14.0","","-17.9","","73","","","","34","","19","","","","102.65","","","","-23","","NA"
"-63.42","44.61","OSBORNE HEAD DND","8204190","2022-01-27 11:00","2022","01","27","11:00","-12.1","","-17.3","","65","","","","33","","21","","","","102.65","","","","-21","","NA"
"-63.42","44.61","OSBORNE HEAD DND","8204190","2022-01-27 12:00","2022","01","27","12:00","-10.3","","-17.1","","58","","","","36","","16","","","","102.57","","","","-17","","NA"
"-63.42","44.61","OSBORNE HEAD DND","8204190","2022-01-27 13:00","2022","01","27","13:00","-8.8","","-17.0","","52","","","","32","","9","","","","102.53","","","","-13","","NA"
"-63.42","44.61","OSBORNE HEAD DND","8204190","2022-01-27 14:00","2022","01","27","14:00","-8.1","","-18.5","","43","","","","28","","7","","","","102.46","","","","-12","","NA"
"-63.42","44.61","OSBORNE HEAD DND","8204190","2022-01-27 15:00","2022","01","27","15:00","-6.9","","-17.4","","43","","","","21","","5","","","","102.43","","","","-9","","NA"
"-63.42","44.61","OSBORNE HEAD DND","8204190","2022-01-27 16:00","2022","01","27","16:00","-7.2","","-20.3","","34","","","","26","","8","","","","102.46","","","","-11","","NA"
"-63.42","44.61","OSBORNE HEAD DND","8204190","2022-01-27 17:00","2022","01","27","17:00","-8.0","","-14.7","","58","","","","19","","9","","","","102.44","","","","-13","","NA"
"-63.42","44.61","OSBORNE HEAD DND","8204190","2022-01-27 18:00","2022","01","27","18:00","-8.4","","-13.2","","68","","","","23","","18","","","","102.49","","","","-15","","NA"
"-63.42","44.61","OSBORNE HEAD DND","8204190","2022-01-27 19:00","2022","01","27","19:00","-8.5","","-12.3","","74","","","","23","","20","","","","102.48","","","","-16","","NA"
"-63.42","44.61","OSBORNE HEAD DND","8204190","2022-01-27 20:00","2022","01","27","20:00","-8.5","","-13.9","","65","","","","22","","18","","","","102.44","","","","-16","","NA"
"-63.42","44.61","OSBORNE HEAD DND","8204190","2022-01-27 21:00","2022","01","27","21:00","-7.4","","-11.6","","72","","","","20","","21","","","","102.43","","","","-15","","NA"
"-63.42","44.61","OSBORNE HEAD DND","8204190","2022-01-27 22:00","2022","01","27","22:00","-6.7","","-10.2","","76","","","","23","","21","","","","102.40","","","","-14","","NA"
"-63.42","44.61","OSBORNE HEAD DND","8204190","2022-01-27 23:00","2022","01","27","23:00","-6.1","","-9.8","","75","","","","22","","26","","","","102.35","","","","-14","","NA"
"-63.42","44.61","OSBORNE HEAD DND","8204190","2022-01-28 00:00","2022","01","28","00:00","-5.7","","-10.0","","71","","","","21","","30","","","","102.30","","","","-14","","NA"
"-63.42","44.61","OSBORNE HEAD DND","8204190","2022-01-28 01:00","2022","01","28","01:00","-5.5","","-10.4","","68","","","","21","","32","","","","102.24","","","","-14","","NA"
"-63.42","44.61","OSBORNE HEAD DND","8204190","2022-01-28 02:00","2022","01","28","02:00","-5.1","","-10.2","","67","","","","22","","34","","","","102.19","","","","-14","","NA"
"-63.42","44.61","OSBORNE HEAD DND","8204190","2022-01-28 03:00","2022","01","28","03:00","-7.6","","-10.8","","78","","","","30","","13","","","","102.19","","","","-13","","NA"
"-63.42","44.61","OSBORNE HEAD DND","8204190","2022-01-28 04:00","2022","01","28","04:00","-7.8","","-10.6","","80","","","","33","","6","","","","102.10","","","","-11","","NA"
"-63.42","44.61","OSBORNE HEAD DND","8204190","2022-01-28 05:00","2022","01","28","05:00","-7.8","","-10.3","","83","","","","2","","6","","","","102.10","","","","-11","","NA"
"-63.42","44.61","OSBORNE HEAD DND","8204190","2022-01-28 06:00","2022","01","28","06:00","-7.3","","-9.4","","85","","","","3","","6","","","","102.07","","","","-10","","NA"
"-63.42","44.61","OSBORNE HEAD DND","8204190","2022-01-28 07:00","2022","01","28","07:00","-4.9","","-7.6","","81","","","","13","","18","","","","101.99","","","","-11","","NA"
"-63.42","44.61","OSBORNE HEAD DND","8204190","2022-01-28 08:00","2022","01","28","08:00","-2.7","","-7.8","","68","","","","17","","29","","","","101.91","","","","-10","","NA"
"-63.42","44.61","OSBORNE HEAD DND","8204190","2022-01-28 09:00","2022","01","28","09:00","-1.9","","-5.9","","74","","","","16","","30","","","","101.89","","","","-9","","NA"
"-63.42","44.61","OSBORNE HEAD DND","8204190","2022-01-28 10:00","2022","01","28","10:00","-1.2","","-4.6","","78","","","","17","","31","","","","101.87","","","","-8","","NA"
"-63.42","44.61","OSBORNE HEAD DND","8204190","2022-01-28 11:00","2022","01","28","11:00","-0.6","","-4.4","","75","","","","19","","33","","","","101.85","","","","-8","","NA"
"-63.42","44.61","OSBORNE HEAD DND","8204190","2022-01-28 12:00","2022","01","28","12:00","-0.3","","-4.8","","71","","","","19","","35","","","","101.78","","","","-7","","NA"
"-63.42","44.61","OSBORNE HEAD DND","8204190","2022-01-28 13:00","2022","01","28","13:00","0.4","","-3.6","","75","","","","19","","26","","","","101.72","","","","","","NA"
"-63.42","44.61","OSBORNE HEAD DND","8204190","2022-01-28 14:00","2022","01","28","14:00","0.9","","-2.5","","78","","0.0","","19","","29","","","","101.66","","","","","","NA"
"-63.42","44.61","OSBORNE HEAD DND","8204190","2022-01-28 15:00","2022","01","28","15:00","1.1","","-2.1","","79","","0.0","","18","","21","","","","101.63","","","","","","NA"
"-63.42","44.61","OSBORNE HEAD DND","8204190","2022-01-28 16:00","2022","01","28","16:00","1.3","","-1.7","","80","","0.0","","18","","26","","","","101.64","","","","","","NA"
"-63.42","44.61","OSBORNE HEAD DND","8204190","2022-01-28 17:00","2022","01","28","17:00","1.6","","-0.8","","84","","0.0","","17","","24","","","","101.59","","","","","","NA"
"-63.42","44.61","OSBORNE HEAD DND","8204190","2022-01-28 18:00","2022","01","28","18:00","1.8","","-0.1","","87","","0.0","","17","","27","","","","101.58","","","","","","NA"
"-63.42","44.61","OSBORNE HEAD DND","8204190","2022-01-28 19:00","2022","01","28","19:00","2.0","","0.4","","89","","0.0","","17","","26","","","","101.59","","","","","","NA"
"-63.42","44.61","OSBORNE HEAD DND","8204190","2022-01-28 20:00","2022","01","28","20:00","2.0","","1.2","","94","","0.2","","18","","26","","","","101.60","","","","","","NA"
"-63.42","44.61","OSBORNE HEAD DND","8204190","2022-01-28 21:00","2022","01","28","21:00","2.1","","1.9","","99","","0.0","","20","","27","","","","101.63","","","","","","NA"
"-63.42","44.61","OSBORNE HEAD DND","8204190","2022-01-28 22:00","2022","01","28","22:00","1.5","","1.5","","100","","0.0","","24","","15","","","","101.67","","","","","","NA"
"-63.42","44.61","OSBORNE HEAD DND","8204190","2022-01-28 23:00","2022","01","28","23:00","0.9","","0.1","","94","","0.0","","30","","7","","","","101.67","","","","","","NA"
"-63.42","44.61","OSBORNE HEAD DND","8204190","2022-01-29 00:00","2022","01","29","00:00","0.2","","0.2","","100","","","","33","","14","","","","101.64","","","","","","NA"
"-63.42","44.61","OSBORNE HEAD DND","8204190","2022-01-29 01:00","2022","01","29","01:00","-1.3","","-1.5","","98","","","","36","","12","","","","101.64","","","","-5","","NA"
"-63.42","44.61","OSBORNE HEAD DND","8204190","2022-01-29 02:00","2022","01","29","02:00","-1.6","","-1.9","","97","","","","36","","18","","","","101.64","","","","-7","","NA"
"-63.42","44.61","OSBORNE HEAD DND","8204190","2022-01-29 03:00","2022","01","29","03:00","-2.5","","-3.3","","94","","","","1","","26","","","","101.54","","","","-9","","NA"
"-63.42","44.61","OSBORNE HEAD DND","8204190","2022-01-29 04:00","2022","01","29","04:00","-2.6","","-3.8","","92","","","","1","","24","","","","101.57","","","","-9","","NA"
"-63.42","44.61","OSBORNE HEAD DND","8204190","2022-01-29 05:00","2022","01","29","05:00","-2.8","","-4.9","","85","","","","3","","29","","","","101.50","","","","-10","","NA"
"-63.42","44.61","OSBORNE HEAD DND","8204190","2022-01-29 06:00","2022","01","29","06:00","-3.1","","-4.8","","88","","","","3","","28","","","","101.44","","","","-10","","NA"
"-63.42","44.61","OSBORNE HEAD DND","8204190","2022-01-29 07:00","2022","01","29","07:00","-3.7","","-3.7","","100","","","","3","","26","","","","101.31","","","","-11","","NA"
"-63.42","44.61","OSBORNE HEAD DND","8204190","2022-01-29 08:00","2022","01","29","08:00","-3.7","","-3.8","","100","","","","3","","31","","","","101.19","","","","-11","","NA"
"-63.42","44.61","OSBORNE HEAD DND","8204190","2022-01-29 09:00","2022","01","29","09:00","-3.3","","-3.3","","100","","","","4","","30","","","","100.98","","","","-11","","NA"
"-63.42","44.61","OSBORNE HEAD DND","8204190","2022-01-29 10:00","2022","01","29","10:00","-2.7","","-2.7","","100","","","","4","","38","","","","100.60","","","","-11","","NA"
"-63.42","44.61","OSBORNE HEAD DND","8204190","2022-01-29 11:00","2022","01","29","11:00","-2.3","","-2.3","","100","","","","3","","36","","","","100.30","","","","-10","","NA"
"-63.42","44.61","OSBORNE HEAD DND","8204190","2022-01-29 12:00","2022","01","29","12:00","-1.9","","-1.9","","100","","","","4","","46","","","","99.81","","","","-10","","NA"
"-63.42","44.61","OSBORNE HEAD DND","8204190","2022-01-29 13:00","2022","01","29","13:00","-1.2","","-1.2","","100","","","","4","","48","","","","99.24","","","","-10","","NA"
"-63.42","44.61","OSBORNE HEAD DND","8204190","2022-01-29 14:00","2022","01","29","14:00","0.3","","0.3","","100","","","","4","","46","","","","98.77","","","","","","NA"
"-63.42","44.61","OSBORNE HEAD DND","8204190","2022-01-29 15:00","2022","01","29","15:00","1.1","","1.1","","100","","5.8","","4","","38","","","","98.46","","","","","","NA"
"-63.42","44.61","OSBORNE HEAD DND","8204190","2022-01-29 16:00","2022","01","29","16:00","2.2","","2.1","","100","","2.0","","4","","34","","","","98.28","","","","","","NA"
"-63.42","44.61","OSBORNE HEAD DND","8204190","2022-01-29 17:00","2022","01","29","17:00","1.4","","1.4","","100","","0.2","","2","","29","","","","98.06","","","","","","NA"
"-63.42","44.61","OSBORNE HEAD DND","8204190","2022-01-29 18:00","2022","01","29","18:00","1.2","","1.2","","100","","0.2","","36","","24","","","","98.01","","","","","","NA"
"-63.42","44.61","OSBORNE HEAD DND","8204190","2022-01-29 19:00","2022","01","29","19:00","0.4","","0.4","","100","","","","34","","16","","","","98.16","","","","","","NA"
"-63.42","44.61","OSBORNE HEAD DND","8204190","2022-01-29 20:00","2022","01","29","20:00","0.1","","0.1","","100","","","","35","","26","","","","98.03","","","","","","NA"
"-63.42","44.61","OSBORNE HEAD DND","8204190","2022-01-29 21:00","2022","01","29","21:00","0.1","","0.1","","100","","","","1","","20","","","","97.97","","","","","","NA"
"-63.42","44.61","OSBORNE HEAD DND","8204190","2022-01-29 22:00","2022","01","29","22:00","0.2","","0.2","","100","","","","1","","17","","","","97.94","","","","","","NA"
"-63.42","44.61","OSBORNE HEAD DND","8204190","2022-01-29 23:00","2022","01","29","23:00","0.4","","0.4","","100","","","","4","","16","","","","97.84","","","","","","NA"
"-63.42","44.61","OSBORNE HEAD DND","8204190","2022-01-30 00:00","2022","01","30","00:00","0.7","","0.7","","100","","0.0","","5","","13","","","","97.74","","","","","","NA"
"-63.42","44.61","OSBORNE HEAD DND","8204190","2022-01-30 01:00","2022","01","30","01:00","1.9","","1.9","","100","","0.0","","13","","6","","","","97.66","","","","","","NA"
"-63.42","44.61","OSBORNE HEAD DND","8204190","2022-01-30 02:00","2022","01","30","02:00","3.7","","1.1","","83","","0.0","","21","","52","","","","97.61","","","","","","NA"
"-63.42","44.61","OSBORNE HEAD DND","8204190","2022-01-30 03:00","2022","01","30","03:00","2.3","","-0.9","","80","","0.0","","20","","61","","","","97.62","","","","","","NA"
"-63.42","44.61","OSBORNE HEAD DND","8204190","2022-01-30 04:00","2022","01","30","04:00","0.4","","-2.9","","78","","","","20","","73","","","","97.58","","","","","","NA"
"-63.42","44.61","OSBORNE HEAD DND","8204190","2022-01-30 05:00","2022","01","30","05:00","-1.2","","-4.6","","77","","","","20","","87","","","","97.53","","","","-12","","NA"
"-63.42","44.61","OSBORNE HEAD DND","8204190","2022-01-30 06:00","2022","01","30","06:00","-1.7","","-4.5","","81","","","","21","","100","","","","97.43","","","","-13","","NA"
"-63.42","44.61","OSBORNE HEAD DND","8204190","2022-01-30 07:00","2022","01","30","07:00","-2.0","","-4.6","","83","","","","22","","84","","","","97.73","","","","-13","","NA"
"-63.42","44.61","OSBORNE HEAD DND","8204190","2022-01-30 08:00","2022","01","30","08:00","-2.0","","-5.2","","79","","","","24","","72","","","","98.11","","","","-12","","NA"
"-63.42","44.61","OSBORNE HEAD DND","8204190","2022-01-30 09:00","2022","01","30","09:00","-3.8","","-7.8","","74","","","","24","","73","","","","98.51","","","","-15","","NA"
"-63.42","44.61","OSBORNE HEAD DND","8204190","2022-01-30 10:00","2022","01","30","10:00","-4.6","","-9.5","","69","","","","25","","69","","","","98.92","","","","-16","","NA"
"-63.42","44.61","OSBORNE HEAD DND","8204190","2022-01-30 11:00","2022","01","30","11:00","-4.6","","-9.4","","69","","","","25","","61","","","","99.15","","","","-15","","NA"
"-63.42","44.61","OSBORNE HEAD DND","8204190","2022-01-30 12:00","2022","01","30","12:00","-4.2","","-9.3","","67","","","","24","","55","","","","99.33","","","","-14","","NA"
"-63.42","44.61","OSBORNE HEAD DND","8204190","2022-01-30 13:00","2022","01","30","13:00","-4.1","","-10.0","","63","","","","24","","59","","","","99.44","","","","-14","","NA"
"-63.42","44.61","OSBORNE HEAD DND","8204190","2022-01-30 14:00","2022","01","30","14:00","-4.0","","-10.0","","63","","","","25","","45","","","","99.68","","","","-13","","NA"
"-63.42","44.61","OSBORNE HEAD DND","8204190","2022-01-30 15:00","2022","01","30","15:00","-4.4","","-10.0","","65","","","","25","","43","","","","99.85","","","","-14","","NA"
"-63.42","44.61","OSBORNE HEAD DND","8204190","2022-01-30 16:00","2022","01","30","16:00","-4.5","","-10.2","","64","","","","27","","31","","","","99.97","","","","-12","","NA"
"-63.42","44.61","OSBORNE HEAD DND","8204190","2022-01-30 17:00","2022","01","30","17:00","-5.0","","-9.9","","68","","","","26","","27","","","","100.11","","","","-13","","NA"
"-63.42","44.61","OSBORNE HEAD DND","8204190","2022-01-30 18:00","2022","01","30","18:00","-4.9","","-8.9","","73","","","","24","","20","","","","100.26","","","","-11","","NA"
"-63.42","44.61","OSBORNE HEAD DND","8204190","2022-01-30 19:00","2022","01","30","19:00","-4.6","","-8.7","","73","","","","25","","27","","","","100.42","","","","-12","","NA"
"-63.42","44.61","OSBORNE HEAD DND","8204190","2022-01-30 20:00","2022","01","30","20:00","-4.2","","-8.3","","73","","","","26","","27","","","","100.57","","","","-12","","NA"
"-63.42","44.61","OSBORNE HEAD DND","8204190","2022-01-30 21:00","2022","01","30","21:00","-4.2","","-8.7","","71","","","","26","","30","","","","100.69","","","","-12","","NA"
"-63.42","44.61","OSBORNE HEAD DND","8204190","2022-01-30 22:00","2022","01","30","22:00","-4.3","","-9.8","","65","","","","26","","34","","","","100.77","","","","-13","","NA"
"-63.42","44.61","OSBORNE HEAD DND","8204190","2022-01-30 23:00","2022","01","30","23:00","-4.4","","-10.0","","65","","","","26","","29","","","","100.87","","","","-12","","NA"
"-63.42","44.61","OSBORNE HEAD DND","8204190","2022-01-31 00:00","2022","01","31","00:00","-5.0","","-11.4","","60","","","","25","","29","","","","100.97","","","","-13","","NA"
"-63.42","44.61","OSBORNE HEAD DND","8204190","2022-01-31 01:00","2022","01","31","01:00","-5.9","","-10.8","","68","","","","26","","22","","","","101.06","","","","-13","","NA"
"-63.42","44.61","OSBORNE HEAD DND","8204190","2022-01-31 02:00","2022","01","31","02:00","-6.9","","-11.1","","72","","","","27","","17","","","","101.16","","","","-13","","NA"
"-63.42","44.61","OSBORNE HEAD DND","8204190","2022-01-31 03:00","2022","01","31","03:00","-7.5","","-10.9","","76","","","","27","","17","","","","101.24","","","","-14","","NA"
"-63.42","44.61","OSBORNE HEAD DND","8204190","2022-01-31 04:00","2022","01","31","04:00","-8.2","","-11.9","","74","","","","28","","18","","","","101.34","","","","-15","","NA"
"-63.42","44.61","OSBORNE HEAD DND","8204190","2022-01-31 05:00","2022","01","31","05:00","-8.7","","-12.5","","74","","","","27","","17","","","","101.50","","","","-16","","NA"
"-63.42","44.61","OSBORNE HEAD DND","8204190","2022-01-31 06:00","2022","01","31","06:00","-9.2","","-13.1","","74","","","","27","","21","","","","101.61","","","","-17","","NA"
"-63.42","44.61","OSBORNE HEAD DND","8204190","2022-01-31 07:00","2022","01","31","07:00","-10.0","","-14.6","","69","","","","30","","12","","","","101.75","","","","-16","","NA"
"-63.42","44.61","OSBORNE HEAD DND","8204190","2022-01-31 08:00","2022","01","31","08:00","-10.7","","-15.4","","69","","","","31","","11","","","","101.86","","","","-16","","NA"
"-63.42","44.61","OSBORNE HEAD DND","8204190","2022-01-31 09:00","2022","01","31","09:00","-9.4","","-14.8","","65","","","","28","","10","","","","101.99","","","","-15","","NA"
"-63.42","44.61","OSBORNE HEAD DND","8204190","2022-01-31 10:00","2022","01","31","10:00","-8.4","","-15.4","","57","","","","28","","19","","","","102.07","","","","-16","","NA"
"-63.42","44.61","OSBORNE HEAD DND","8204190","2022-01-31 11:00","2022","01","31","11:00","-7.3","","-12.9","","64","","","","28","","19","","","","102.13","","","","-14","","NA"
"-63.42","44.61","OSBORNE HEAD DND","8204190","2022-01-31 12:00","2022","01","31","12:00","-6.1","","-12.9","","59","","","","27","","24","","","","102.09","","","","-14","","NA"
"-63.42","44.61","OSBORNE HEAD DND","8204190","2022-01-31 13:00","2022","01","31","13:00","-5.7","","-13.7","","53","","","","28","","26","","","","102.09","","","","-13","","NA"
"-63.42","44.61","OSBORNE HEAD DND","8204190","2022-01-31 14:00","2022","01","31","14:00","-4.9","","-13.1","","52","","","","27","","20","","","","102.11","","","","-11","","NA"
"-63.42","44.61","OSBORNE HEAD DND","8204190","2022-01-31 15:00","2022","01","31","15:00","-4.6","","-13.4","","50","","","","28","","19","","","","102.17","","","","-11","","NA"
"-63.42","44.61","OSBORNE HEAD DND","8204190","2022-01-31 16:00","2022","01","31","16:00","-4.3","","-13.9","","47","","","","27","","22","","","","102.23","","","","-11","","NA"
"-63.42","44.61","OSBORNE HEAD DND","8204190","2022-01-31 17:00","2022","01","31","17:00","-4.7","","-13.9","","48","","","","28","","21","","","","102.34","","","","-11","","NA"
"-63.42","44.61","OSBORNE HEAD DND","8204190","2022-01-31 18:00","2022","01","31","18:00","-5.3","","-13.0","","55","","","","28","","15","","","","102.44","","","","-11","","NA"
"-63.42","44.61","OSBORNE HEAD DND","8204190","2022-01-31 19:00","2022","01","31","19:00","-6.2","","-13.5","","56","","","","28","","9","","","","102.54","","","","-10","","NA"
"-63.42","44.61","OSBORNE HEAD DND","8204190","2022-01-31 20:00","2022","01","31","20:00","-6.6","","-13.2","","60","","","","28","","12","","","","102.65","","","","-12","","NA"
"-63.42","44.61","OSBORNE HEAD DND","8204190","2022-01-31 21:00","2022","01","31","21:00","-6.8","","-11.8","","68","","","","27","","12","","","","102.73","","","","-12","","NA"
"-63.42","44.61","OSBORNE HEAD DND","8204190","2022-01-31 22:00","2022","01","31","22:00","-7.2","","-11.3","","73","","","","26","","17","","","","102.80","","","","-14","","NA"
"-63.42","44.61","OSBORNE HEAD DND","8204190","2022-01-31 23:00","2022","01","31","23:00","-7.2","","-12.2","","67","","","","29","","12","","","","102.86","","","","-13","","NA"
