"Longitude (x)","Latitude (y)","Station Name","Climate ID","Date/Time (LST)","Year","Month","Day","Time (LST)","Temp (°C)","Temp Flag","Dew Point Temp (°C)","Dew Point Temp Flag","Rel Hum (%)","Rel Hum Flag","Precip. Amount (mm)","Precip. Amount Flag","Wind Dir (10s deg)","Wind Dir Flag","Wind Spd (km/h)","Wind Spd Flag","Visibility (km)","Visibility Flag","Stn Press (kPa)","Stn Press Flag","Hmdx","Hmdx Flag","Wind Chill","Wind Chill Flag","Weather"
"-79.80","43.30","BURLINGTON PIERS (AUT)","6151061","2023-02-01 00:00","2023","02","01","00:00","-8.9","","-14.0","","66","","","","26","","12","","","","101.65","","","","-15","","NA"
"-79.80","43.30","BURLINGTON PIERS (AUT)","6151061","2023-02-01 01:00","2023","02","01","01:00","-9.4","","-15.3","","62","","","","26","","12","","","","101.62","","","","-15","","NA"
"-79.80","43.30","BURLINGTON PIERS (AUT)","6151061","2023-02-01 02:00","2023","02","01","02:00","-10.0","","-15.3","","65","","","","25","","14","","","","101.65","","","","-16","","NA"
"-79.80","43.30","BURLINGTON PIERS (AUT)","6151061","2023-02-01 03:00","2023","02","01","03:00","-9.6","","-14.3","","69","","","","24","","9","","","","101.63","","","","-14","","NA"
"-79.80","43.30","BURLINGTON PIERS (AUT)","6151061","2023-02-01 04:00","2023","02","01","04:00","-9.3","","-14.3","","67","","","","24","","11","","","","101.60","","","","-15","","NA"
"-79.80","43.30","BURLINGTON PIERS (AUT)","6151061","2023-02-01 05:00","2023","02","01","05:00","-8.9","","-13.1","","71","","","","25","","10","","","","101.62","","","","-14","","NA"
"-79.80","43.30","BURLINGTON PIERS (AUT)","6151061","2023-02-01 06:00","2023","02","01","06:00","-8.5","","-13.5","","67","","","","22","","13","","","","101.63","","","","-14","","NA"
"-79.80","43.30","BURLINGTON PIERS (AUT)","6151061","2023-02-01 07:00","2023","02","01","07:00","-8.6","","-13.3","","69","","","","22","","14","","","","101.65","","","","-15","","NA"
"-79.80","43.30","BURLINGTON PIERS (AUT)","6151061","2023-02-01 08:00","2023","02","01","08:00","-9.1","","-13.4","","71","","","","20","","18","","","","101.66","","","","-16","","NA"
"-79.80","43.30","BURLINGTON PIERS (AUT)","6151061","2023-02-01 09:00","2023","02","01","09:00","-8.9","","-13.5","","69","","","","21","","14","","","","101.73","","","","-15","","NA"
"-79.80","43.30","BURLINGTON PIERS (AUT)","6151061","2023-02-01 10:00","2023","02","01","10:00","-8.2","","-13.0","","68","","","","21","","13","","","","101.77","","","","-14","","NA"
"-79.80","43.30","BURLINGTON PIERS (AUT)","6151061","2023-02-01 11:00","2023","02","01","11:00","-7.2","","-12.8","","64","","","","20","","15","","","","101.75","","","","-13","","NA"
"-79.80","43.30","BURLINGTON PIERS (AUT)","6151061","2023-02-01 12:00","2023","02","01","12:00","-6.2","","-11.7","","65","","","","23","","16","","","","101.73","","","","-12","","NA"
"-79.80","43.30","BURLINGTON PIERS (AUT)","6151061","2023-02-01 13:00","2023","02","01","13:00","-5.7","","-12.4","","59","","","","24","","18","","","","101.67","","","","-12","","NA"
"-79.80","43.30","BURLINGTON PIERS (AUT)","6151061","2023-02-01 14:00","2023","02","01","14:00","-4.9","","-11.0","","62","","","","24","","16","","","","101.62","","","","-11","","NA"
"-79.80","43.30","BURLINGTON PIERS (AUT)","6151061","2023-02-01 15:00","2023","02","01","15:00","-4.4","","-11.1","","60","","","","23","","14","","","","101.60","","","","-10","","NA"
"-79.80","43.30","BURLINGTON PIERS (AUT)","6151061","2023-02-01 16:00","2023","02","01","16:00","-4.1","","-10.9","","59","","","","20","","18","","","","101.56","","","","-10","","NA"
"-79.80","43.30","BURLINGTON PIERS (AUT)","6151061","2023-02-01 17:00","2023","02","01","17:00","-4.0","","-11.4","","57","","","","20","","20","","","","101.52","","","","-10","","NA"
"-79.80","43.30","BURLINGTON PIERS (AUT)","6151061","2023-02-01 18:00","2023","02","01","18:00","-4.0","","-11.0","","58","","","","20","","16","","","","101.52","","","","-10","","NA"
"-79.80","43.30","BURLINGTON PIERS (AUT)","6151061","2023-02-01 19:00","2023","02","01","19:00","-4.2","","-10.0","","64","","","","20","","16","","","","101.50","","","","-10","","NA"
"-79.80","43.30","BURLINGTON PIERS (AUT)","6151061","2023-02-01 20:00","2023","02","01","20:00","-4.4","","-9.3","","68","","","","21","","15","","","","101.48","","","","-10","","NA"
"-79.80","43.30","BURLINGTON PIERS (AUT)","6151061","2023-02-01 21:00","2023","02","01","21:00","-4.2","","-8.5","","72","","","","23","","10","","","","101.45","","","","-8","","NA"
"-79.80","43.30","BURLINGTON PIERS (AUT)","6151061","2023-02-01 22:00","2023","02","01","22:00","-4.3","","-8.5","","72","","","","22","","15","","","","101.48","","","","-10","","NA"
"-79.80","43.30","BURLINGTON PIERS (AUT)","6151061","2023-02-01 23:00","2023","02","01","23:00","-4.3","","-10.7","","61","","","","21","","17","","","","101.40","","","","-10","","NA"
"-79.80","43.30","BURLINGTON PIERS (AUT)","6151061","2023-02-02 00:00","2023","02","02","00:00","-4.4","","-11.1","","59","","","","22","","13","","","","101.39","","","","-9","","NA"
"-79.80","43.30","BURLINGTON PIERS (AUT)","6151061","2023-02-02 01:00","2023","02","02","01:00","-4.5","","-10.8","","61","","","","22","","11","","","","101.32","","","","-9","","NA"
"-79.80","43.30","BURLINGTON PIERS (AUT)","6151061","2023-02-02 02:00","2023","02","02","02:00","-4.9","","-11.5","","60","","","","22","","14","","","","101.28","","","","-10","","NA"
"-79.80","43.30","BURLINGTON PIERS (AUT)","6151061","2023-02-02 03:00","2023","02","02","03:00","-5.1","","-10.8","","64","","","","23","","13","","","","101.25","","","","-10","","NA"
"-79.80","43.30","BURLINGTON PIERS (AUT)","6151061","2023-02-02 04:00","2023","02","02","04:00","-5.5","","-11.6","","62","","","","22","","15","","","","101.18","","","","-11","","NA"
"-79.80","43.30","BURLINGTON PIERS (AUT)","6151061","2023-02-02 05:00","2023","02","02","05:00","-5.1","","-11.2","","63","","","","22","","12","","","","101.10","","","","-10","","NA"
"-79.80","43.30","BURLINGTON PIERS (AUT)","6151061","2023-02-02 06:00","2023","02","02","06:00","-4.5","","-11.5","","58","","","","21","","15","","","","101.03","","","","-10","","NA"
"-79.80","43.30","BURLINGTON PIERS (AUT)","6151061","2023-02-02 07:00","2023","02","02","07:00","-3.5","","-10.3","","59","","","","20","","15","","","","100.96","","","","-9","","NA"
"-79.80","43.30","BURLINGTON PIERS (AUT)","6151061","2023-02-02 08:00","2023","02","02","08:00","-2.7","","-9.4","","60","","","","20","","16","","","","100.89","","","","-8","","NA"
"-79.80","43.30","BURLINGTON PIERS (AUT)","6151061","2023-02-02 09:00","2023","02","02","09:00","-2.0","","-8.9","","59","","","","20","","19","","","","100.79","","","","-8","","NA"
"-79.80","43.30","BURLINGTON PIERS (AUT)","6151061","2023-02-02 10:00","2023","02","02","10:00","-1.0","","-7.5","","61","","","","19","","23","","","","100.67","","","","-7","","NA"
"-79.80","43.30","BURLINGTON PIERS (AUT)","6151061","2023-02-02 11:00","2023","02","02","11:00","-0.2","","-7.0","","60","","","","20","","26","","","","100.55","","","","-6","","NA"
"-79.80","43.30","BURLINGTON PIERS (AUT)","6151061","2023-02-02 12:00","2023","02","02","12:00","0.8","","-7.9","","52","","","","21","","30","","","","100.37","","","","","","NA"
"-79.80","43.30","BURLINGTON PIERS (AUT)","6151061","2023-02-02 13:00","2023","02","02","13:00","1.4","","-8.0","","49","","","","20","","35","","","","100.15","","","","","","NA"
"-79.80","43.30","BURLINGTON PIERS (AUT)","6151061","2023-02-02 14:00","2023","02","02","14:00","1.7","","-6.3","","55","","","","22","","26","","","","100.04","","","","","","NA"
"-79.80","43.30","BURLINGTON PIERS (AUT)","6151061","2023-02-02 15:00","2023","02","02","15:00","1.6","","-6.6","","54","","","","21","","29","","","","99.98","","","","","","NA"
"-79.80","43.30","BURLINGTON PIERS (AUT)","6151061","2023-02-02 16:00","2023","02","02","16:00","1.4","","-5.4","","60","","","","21","","28","","","","99.98","","","","","","NA"
"-79.80","43.30","BURLINGTON PIERS (AUT)","6151061","2023-02-02 17:00","2023","02","02","17:00","1.3","","-5.7","","60","","","","24","","20","","","","100.00","","","","","","NA"
"-79.80","43.30","BURLINGTON PIERS (AUT)","6151061","2023-02-02 18:00","2023","02","02","18:00","1.2","","-5.8","","60","","","","24","","19","","","","100.01","","","","","","NA"
"-79.80","43.30","BURLINGTON PIERS (AUT)","6151061","2023-02-02 19:00","2023","02","02","19:00","0.2","","-4.3","","72","","","","26","","20","","","","100.11","","","","","","NA"
"-79.80","43.30","BURLINGTON PIERS (AUT)","6151061","2023-02-02 20:00","2023","02","02","20:00","-3.2","","-9.2","","63","","","","31","","37","","","","100.33","","","","-11","","NA"
"-79.80","43.30","BURLINGTON PIERS (AUT)","6151061","2023-02-02 21:00","2023","02","02","21:00","-4.1","","-11.0","","59","","","","29","","33","","","","100.45","","","","-12","","NA"
"-79.80","43.30","BURLINGTON PIERS (AUT)","6151061","2023-02-02 22:00","2023","02","02","22:00","-5.7","","-12.4","","59","","","","29","","29","","","","100.61","","","","-14","","NA"
"-79.80","43.30","BURLINGTON PIERS (AUT)","6151061","2023-02-02 23:00","2023","02","02","23:00","-6.7","","-11.7","","68","","","","31","","24","","","","100.70","","","","-14","","NA"
"-79.80","43.30","BURLINGTON PIERS (AUT)","6151061","2023-02-03 00:00","2023","02","03","00:00","-7.7","","-11.9","","72","","","","31","","19","","","","100.78","","","","-15","","NA"
"-79.80","43.30","BURLINGTON PIERS (AUT)","6151061","2023-02-03 01:00","2023","02","03","01:00","-7.7","","-11.4","","75","","","","31","","16","","","","100.84","","","","-14","","NA"
"-79.80","43.30","BURLINGTON PIERS (AUT)","6151061","2023-02-03 02:00","2023","02","03","02:00","-9.2","","-15.1","","62","","","","31","","22","","","","100.94","","","","-17","","NA"
"-79.80","43.30","BURLINGTON PIERS (AUT)","6151061","2023-02-03 03:00","2023","02","03","03:00","-10.1","","-16.9","","58","","","","30","","18","","","","101.05","","","","-18","","NA"
"-79.80","43.30","BURLINGTON PIERS (AUT)","6151061","2023-02-03 04:00","2023","02","03","04:00","-11.2","","-16.5","","65","","","","30","","24","","","","101.14","","","","-20","","NA"
"-79.80","43.30","BURLINGTON PIERS (AUT)","6151061","2023-02-03 05:00","2023","02","03","05:00","-12.5","","-22.2","","44","","","","30","","29","","","","101.26","","","","-23","","NA"
"-79.80","43.30","BURLINGTON PIERS (AUT)","6151061","2023-02-03 06:00","2023","02","03","06:00","-13.4","","-22.1","","48","","","","29","","17","","","","101.34","","","","-21","","NA"
"-79.80","43.30","BURLINGTON PIERS (AUT)","6151061","2023-02-03 07:00","2023","02","03","07:00","-14.5","","-23.1","","48","","","","29","","18","","","","101.46","","","","-23","","NA"
"-79.80","43.30","BURLINGTON PIERS (AUT)","6151061","2023-02-03 08:00","2023","02","03","08:00","-14.9","","-24.1","","45","","","","30","","20","","","","101.58","","","","-24","","NA"
"-79.80","43.30","BURLINGTON PIERS (AUT)","6151061","2023-02-03 09:00","2023","02","03","09:00","-14.4","","-23.0","","48","","","","31","","22","","","","101.68","","","","-24","","NA"
"-79.80","43.30","BURLINGTON PIERS (AUT)","6151061","2023-02-03 10:00","2023","02","03","10:00","-14.6","","-24.6","","43","","","","31","","33","","","","101.77","","","","-26","","NA"
"-79.80","43.30","BURLINGTON PIERS (AUT)","6151061","2023-02-03 11:00","2023","02","03","11:00","-14.7","","-25.9","","38","","","","29","","20","","","","101.84","","","","-24","","NA"
"-79.80","43.30","BURLINGTON PIERS (AUT)","6151061","2023-02-03 12:00","2023","02","03","12:00","-14.6","","-24.2","","44","","","","29","","24","","","","101.89","","","","-24","","NA"
"-79.80","43.30","BURLINGTON PIERS (AUT)","6151061","2023-02-03 13:00","2023","02","03","13:00","-14.2","","-24.0","","43","","","","29","","33","","","","101.91","","","","-25","","NA"
"-79.80","43.30","BURLINGTON PIERS (AUT)","6151061","2023-02-03 14:00","2023","02","03","14:00","-13.4","","-22.2","","47","","","","28","","32","","","","101.92","","","","-24","","NA"
"-79.80","43.30","BURLINGTON PIERS (AUT)","6151061","2023-02-03 15:00","2023","02","03","15:00","-13.6","","-21.8","","50","","","","28","","29","","","","101.97","","","","-24","","NA"
"-79.80","43.30","BURLINGTON PIERS (AUT)","6151061","2023-02-03 16:00","2023","02","03","16:00","-13.3","","-21.3","","51","","","","28","","24","","","","102.05","","","","-23","","NA"
"-79.80","43.30","BURLINGTON PIERS (AUT)","6151061","2023-02-03 17:00","2023","02","03","17:00","-12.7","","-20.1","","54","","","","28","","19","","","","102.13","","","","-21","","NA"
"-79.80","43.30","BURLINGTON PIERS (AUT)","6151061","2023-02-03 18:00","2023","02","03","18:00","-12.7","","-19.1","","59","","","","27","","16","","","","102.22","","","","-20","","NA"
"-79.80","43.30","BURLINGTON PIERS (AUT)","6151061","2023-02-03 19:00","2023","02","03","19:00","-12.6","","-17.1","","69","","","","27","","14","","","","102.28","","","","-20","","NA"
"-79.80","43.30","BURLINGTON PIERS (AUT)","6151061","2023-02-03 20:00","2023","02","03","20:00","-14.8","","-19.7","","66","","","","34","","23","","","","102.39","","","","-25","","NA"
"-79.80","43.30","BURLINGTON PIERS (AUT)","6151061","2023-02-03 21:00","2023","02","03","21:00","-14.7","","-20.1","","64","","","","30","","18","","","","102.46","","","","-23","","NA"
"-79.80","43.30","BURLINGTON PIERS (AUT)","6151061","2023-02-03 22:00","2023","02","03","22:00","-14.9","","-21.3","","58","","","","28","","13","","","","102.52","","","","-22","","NA"
"-79.80","43.30","BURLINGTON PIERS (AUT)","6151061","2023-02-03 23:00","2023","02","03","23:00","-15.2","","-23.3","","50","","","","30","","14","","","","102.57","","","","-23","","NA"
"-79.80","43.30","BURLINGTON PIERS (AUT)","6151061","2023-02-04 00:00","2023","02","04","00:00","-17.0","","-20.3","","76","","","","35","","18","","","","102.63","","","","-26","","NA"
"-79.80","43.30","BURLINGTON PIERS (AUT)","6151061","2023-02-04 01:00","2023","02","04","01:00","-18.0","","-20.9","","77","","","","35","","14","","","","102.65","","","","-26","","NA"
"-79.80","43.30","BURLINGTON PIERS (AUT)","6151061","2023-02-04 02:00","2023","02","04","02:00","-18.0","","-19.9","","85","","","","34","","16","","","","102.65","","","","-27","","NA"
"-79.80","43.30","BURLINGTON PIERS (AUT)","6151061","2023-02-04 03:00","2023","02","04","03:00","-18.3","","-21.3","","77","","","","27","","7","","","","102.66","","","","-24","","NA"
"-79.80","43.30","BURLINGTON PIERS (AUT)","6151061","2023-02-04 04:00","2023","02","04","04:00","-17.5","","-19.6","","83","","","","31","","6","","","","102.59","","","","-22","","NA"
"-79.80","43.30","BURLINGTON PIERS (AUT)","6151061","2023-02-04 05:00","2023","02","04","05:00","-15.6","","-17.0","","89","","","","2","","9","","","","102.47","","","","-22","","NA"
"-79.80","43.30","BURLINGTON PIERS (AUT)","6151061","2023-02-04 06:00","2023","02","04","06:00","-15.1","","-16.8","","87","","","","32","","6","","","","102.43","","","","-19","","NA"
"-79.80","43.30","BURLINGTON PIERS (AUT)","6151061","2023-02-04 07:00","2023","02","04","07:00","-14.2","","-15.5","","90","","","","18","","5","","","","102.43","","","","-18","","NA"
"-79.80","43.30","BURLINGTON PIERS (AUT)","6151061","2023-02-04 08:00","2023","02","04","08:00","-13.1","","-14.4","","89","","","","15","","12","","","","102.38","","","","-20","","NA"
"-79.80","43.30","BURLINGTON PIERS (AUT)","6151061","2023-02-04 09:00","2023","02","04","09:00","-12.7","","-15.2","","82","","","","14","","14","","","","102.33","","","","-20","","NA"
"-79.80","43.30","BURLINGTON PIERS (AUT)","6151061","2023-02-04 10:00","2023","02","04","10:00","-11.2","","-13.6","","83","","","","15","","15","","","","102.20","","","","-18","","NA"
"-79.80","43.30","BURLINGTON PIERS (AUT)","6151061","2023-02-04 11:00","2023","02","04","11:00","-10.1","","-12.9","","80","","","","15","","11","","","","102.04","","","","-16","","NA"
"-79.80","43.30","BURLINGTON PIERS (AUT)","6151061","2023-02-04 12:00","2023","02","04","12:00","-7.2","","-12.1","","68","","","","17","","17","","","","101.82","","","","-14","","NA"
"-79.80","43.30","BURLINGTON PIERS (AUT)","6151061","2023-02-04 13:00","2023","02","04","13:00","-6.5","","-13.1","","59","","","","19","","26","","","","101.62","","","","-14","","NA"
"-79.80","43.30","BURLINGTON PIERS (AUT)","6151061","2023-02-04 14:00","2023","02","04","14:00","-5.2","","-10.3","","67","","","","19","","29","","","","101.44","","","","-13","","NA"
"-79.80","43.30","BURLINGTON PIERS (AUT)","6151061","2023-02-04 15:00","2023","02","04","15:00","-4.3","","-11.5","","57","","","","18","","27","","","","101.31","","","","-12","","NA"
"-79.80","43.30","BURLINGTON PIERS (AUT)","6151061","2023-02-04 16:00","2023","02","04","16:00","-3.7","","-9.2","","66","","","","19","","25","","","","101.20","","","","-11","","NA"
"-79.80","43.30","BURLINGTON PIERS (AUT)","6151061","2023-02-04 17:00","2023","02","04","17:00","-2.9","","-9.1","","62","","","","20","","23","","","","101.11","","","","-9","","NA"
"-79.80","43.30","BURLINGTON PIERS (AUT)","6151061","2023-02-04 18:00","2023","02","04","18:00","-2.6","","-8.8","","62","","","","20","","18","","","","101.07","","","","-8","","NA"
"-79.80","43.30","BURLINGTON PIERS (AUT)","6151061","2023-02-04 19:00","2023","02","04","19:00","-2.1","","-7.9","","64","","","","20","","17","","","","101.00","","","","-7","","NA"
"-79.80","43.30","BURLINGTON PIERS (AUT)","6151061","2023-02-04 20:00","2023","02","04","20:00","-1.1","","-7.1","","64","","","","20","","20","","","","100.93","","","","-7","","NA"
"-79.80","43.30","BURLINGTON PIERS (AUT)","6151061","2023-02-04 21:00","2023","02","04","21:00","-0.5","","-6.7","","63","","","","20","","21","","","","100.83","","","","-6","","NA"
"-79.80","43.30","BURLINGTON PIERS (AUT)","6151061","2023-02-04 22:00","2023","02","04","22:00","0.2","","-6.9","","59","","","","20","","19","","","","100.78","","","","","","NA"
"-79.80","43.30","BURLINGTON PIERS (AUT)","6151061","2023-02-04 23:00","2023","02","04","23:00","0.4","","-6.1","","62","","","","20","","19","","","","100.72","","","","","","NA"
"-79.80","43.30","BURLINGTON PIERS (AUT)","6151061","2023-02-05 00:00","2023","02","05","00:00","0.5","","-5.7","","63","","","","21","","15","","","","100.67","","","","","","NA"
"-79.80","43.30","BURLINGTON PIERS (AUT)","6151061","2023-02-05 01:00","2023","02","05","01:00","0.8","","-5.3","","63","","","","21","","11","","","","100.57","","","","","","NA"
"-79.80","43.30","BURLINGTON PIERS (AUT)","6151061","2023-02-05 02:00","2023","02","05","02:00","1.7","","-4.4","","64","","","","21","","13","","","","100.53","","","","","","NA"
"-79.80","43.30","BURLINGTON PIERS (AUT)","6151061","2023-02-05 03:00","2023","02","05","03:00","2.2","","-3.7","","65","","","","20","","15","","","","100.48","","","","","","NA"
"-79.80","43.30","BURLINGTON PIERS (AUT)","6151061","2023-02-05 04:00","2023","02","05","04:00","2.3","","-4.2","","62","","","","20","","17","","","","100.43","","","","","","NA"
"-79.80","43.30","BURLINGTON PIERS (AUT)","6151061","2023-02-05 05:00","2023","02","05","05:00","2.3","","-4.0","","63","","","","20","","16","","","","100.41","","","","","","NA"
"-79.80","43.30","BURLINGTON PIERS (AUT)","6151061","2023-02-05 06:00","2023","02","05","06:00","2.4","","-3.5","","65","","","","20","","13","","","","100.34","","","","","","NA"
"-79.80","43.30","BURLINGTON PIERS (AUT)","6151061","2023-02-05 07:00","2023","02","05","07:00","2.5","","-2.9","","67","","","","20","","14","","","","100.31","","","","","","NA"
"-79.80","43.30","BURLINGTON PIERS (AUT)","6151061","2023-02-05 08:00","2023","02","05","08:00","3.4","","-3.5","","60","","","","20","","14","","","","100.28","","","","","","NA"
"-79.80","43.30","BURLINGTON PIERS (AUT)","6151061","2023-02-05 09:00","2023","02","05","09:00","5.0","","-3.2","","56","","","","21","","19","","","","100.25","","","","","","NA"
"-79.80","43.30","BURLINGTON PIERS (AUT)","6151061","2023-02-05 10:00","2023","02","05","10:00","5.0","","-1.9","","61","","","","21","","20","","","","100.23","","","","","","NA"
"-79.80","43.30","BURLINGTON PIERS (AUT)","6151061","2023-02-05 11:00","2023","02","05","11:00","5.4","","-3.1","","54","","","","21","","22","","","","100.18","","","","","","NA"
"-79.80","43.30","BURLINGTON PIERS (AUT)","6151061","2023-02-05 12:00","2023","02","05","12:00","5.0","","-2.0","","60","","","","22","","14","","","","100.17","","","","","","NA"
"-79.80","43.30","BURLINGTON PIERS (AUT)","6151061","2023-02-05 13:00","2023","02","05","13:00","5.1","","-2.0","","60","","","","21","","21","","","","100.10","","","","","","NA"
"-79.80","43.30","BURLINGTON PIERS (AUT)","6151061","2023-02-05 14:00","2023","02","05","14:00","5.0","","-2.6","","58","","","","21","","17","","","","100.05","","","","","","NA"
"-79.80","43.30","BURLINGTON PIERS (AUT)","6151061","2023-02-05 15:00","2023","02","05","15:00","5.3","","-2.0","","59","","","","22","","18","","","","100.03","","","","","","NA"
"-79.80","43.30","BURLINGTON PIERS (AUT)","6151061","2023-02-05 16:00","2023","02","05","16:00","5.5","","-0.9","","64","","","","21","","20","","","","100.05","","","","","","NA"
"-79.80","43.30","BURLINGTON PIERS (AUT)","6151061","2023-02-05 17:00","2023","02","05","17:00","5.2","","-0.5","","66","","","","22","","18","","","","100.11","","","","","","NA"
"-79.80","43.30","BURLINGTON PIERS (AUT)","6151061","2023-02-05 18:00","2023","02","05","18:00","4.7","","-0.7","","68","","","","23","","10","","","","100.18","","","","","","NA"
"-79.80","43.30","BURLINGTON PIERS (AUT)","6151061","2023-02-05 19:00","2023","02","05","19:00","4.6","","-0.4","","70","","","","22","","9","","","","100.24","","","","","","NA"
"-79.80","43.30","BURLINGTON PIERS (AUT)","6151061","2023-02-05 20:00","2023","02","05","20:00","4.0","","0.1","","76","","","","22","","7","","","","100.28","","","","","","NA"
"-79.80","43.30","BURLINGTON PIERS (AUT)","6151061","2023-02-05 21:00","2023","02","05","21:00","3.7","","-0.4","","74","","","","23","","4","","","","100.28","","","","","","NA"
"-79.80","43.30","BURLINGTON PIERS (AUT)","6151061","2023-02-05 22:00","2023","02","05","22:00","3.8","","-0.2","","75","","","","23","","7","","","","100.35","","","","","","NA"
"-79.80","43.30","BURLINGTON PIERS (AUT)","6151061","2023-02-05 23:00","2023","02","05","23:00","3.7","","0.0","","77","","","","23","","5","","","","100.40","","","","","","NA"
"-79.80","43.30","BURLINGTON PIERS (AUT)","6151061","2023-02-06 00:00","2023","02","06","00:00","3.2","","-0.3","","78","","","","23","","4","","","","100.48","","","","","","NA"
"-79.80","43.30","BURLINGTON PIERS (AUT)","6151061","2023-02-06 01:00","2023","02","06","01:00","3.1","","0.3","","82","","","","24","","5","","","","100.56","","","","","","NA"
"-79.80","43.30","BURLINGTON PIERS (AUT)","6151061","2023-02-06 02:00","2023","02","06","02:00","2.6","","-1.6","","73","","","","31","","20","","","","100.68","","","","","","NA"
"-79.80","43.30","BURLINGTON PIERS (AUT)","6151061","2023-02-06 03:00","2023","02","06","03:00","2.0","","-2.2","","73","","","","29","","11","","","","100.76","","","","","","NA"
"-79.80","43.30","BURLINGTON PIERS (AUT)","6151061","2023-02-06 04:00","2023","02","06","04:00","1.7","","-3.0","","71","","","","30","","18","","","","100.81","","","","","","NA"
"-79.80","43.30","BURLINGTON PIERS (AUT)","6151061","2023-02-06 05:00","2023","02","06","05:00","1.7","","-2.8","","72","","","","30","","16","","","","100.98","","","","","","NA"
"-79.80","43.30","BURLINGTON PIERS (AUT)","6151061","2023-02-06 06:00","2023","02","06","06:00","1.4","","-2.3","","76","","","","30","","15","","","","101.08","","","","","","NA"
"-79.80","43.30","BURLINGTON PIERS (AUT)","6151061","2023-02-06 07:00","2023","02","06","07:00","1.0","","-3.2","","73","","","","31","","19","","","","101.24","","","","","","NA"
"-79.80","43.30","BURLINGTON PIERS (AUT)","6151061","2023-02-06 08:00","2023","02","06","08:00","0.2","","-4.1","","73","","","","31","","20","","","","101.39","","","","","","NA"
"-79.80","43.30","BURLINGTON PIERS (AUT)","6151061","2023-02-06 09:00","2023","02","06","09:00","-0.5","","-4.9","","72","","","","31","","18","","","","101.49","","","","-6","","NA"
"-79.80","43.30","BURLINGTON PIERS (AUT)","6151061","2023-02-06 10:00","2023","02","06","10:00","-1.1","","-5.2","","74","","","","33","","21","","","","101.61","","","","-7","","NA"
"-79.80","43.30","BURLINGTON PIERS (AUT)","6151061","2023-02-06 11:00","2023","02","06","11:00","-1.5","","-6.8","","67","","","","30","","14","","","","101.67","","","","-6","","NA"
"-79.80","43.30","BURLINGTON PIERS (AUT)","6151061","2023-02-06 12:00","2023","02","06","12:00","-1.3","","-6.4","","68","","","","34","","10","","","","101.66","","","","-5","","NA"
"-79.80","43.30","BURLINGTON PIERS (AUT)","6151061","2023-02-06 13:00","2023","02","06","13:00","-0.9","","-6.2","","68","","","","1","","9","","","","101.61","","","","-4","","NA"
"-79.80","43.30","BURLINGTON PIERS (AUT)","6151061","2023-02-06 14:00","2023","02","06","14:00","-0.8","","-5.9","","69","","","","6","","10","","","","101.58","","","","-4","","NA"
"-79.80","43.30","BURLINGTON PIERS (AUT)","6151061","2023-02-06 15:00","2023","02","06","15:00","-0.5","","-5.1","","71","","","","7","","8","","","","101.60","","","","-3","","NA"
"-79.80","43.30","BURLINGTON PIERS (AUT)","6151061","2023-02-06 16:00","2023","02","06","16:00","-0.8","","-4.9","","73","","","","9","","11","","","","101.63","","","","-5","","NA"
"-79.80","43.30","BURLINGTON PIERS (AUT)","6151061","2023-02-06 17:00","2023","02","06","17:00","-0.7","","-5.3","","71","","","","9","","10","","","","101.67","","","","-4","","NA"
"-79.80","43.30","BURLINGTON PIERS (AUT)","6151061","2023-02-06 18:00","2023","02","06","18:00","-0.5","","-4.6","","74","","","","11","","12","","","","101.67","","","","-4","","NA"
"-79.80","43.30","BURLINGTON PIERS (AUT)","6151061","2023-02-06 19:00","2023","02","06","19:00","-0.5","","-4.8","","73","","","","12","","16","","","","101.67","","","","-5","","NA"
"-79.80","43.30","BURLINGTON PIERS (AUT)","6151061","2023-02-06 20:00","2023","02","06","20:00","-0.5","","-4.5","","74","","","","14","","17","","","","101.61","","","","-5","","NA"
"-79.80","43.30","BURLINGTON PIERS (AUT)","6151061","2023-02-06 21:00","2023","02","06","21:00","-0.2","","-3.6","","78","","","","14","","18","","","","101.57","","","","-5","","NA"
"-79.80","43.30","BURLINGTON PIERS (AUT)","6151061","2023-02-06 22:00","2023","02","06","22:00","-0.2","","-3.2","","80","","","","15","","13","","","","101.57","","","","-4","","NA"
"-79.80","43.30","BURLINGTON PIERS (AUT)","6151061","2023-02-06 23:00","2023","02","06","23:00","0.0","","-3.4","","78","","","","16","","16","","","","101.53","","","","-5","","NA"
"-79.80","43.30","BURLINGTON PIERS (AUT)","6151061","2023-02-07 00:00","2023","02","07","00:00","-0.1","","-3.3","","79","","","","16","","22","","","","101.53","","","","-6","","NA"
"-79.80","43.30","BURLINGTON PIERS (AUT)","6151061","2023-02-07 01:00","2023","02","07","01:00","0.0","","-3.2","","79","","","","15","","18","","","","101.50","","","","-5","","NA"
"-79.80","43.30","BURLINGTON PIERS (AUT)","6151061","2023-02-07 02:00","2023","02","07","02:00","0.2","","-2.7","","80","","","","15","","17","","","","101.40","","","","","","NA"
"-79.80","43.30","BURLINGTON PIERS (AUT)","6151061","2023-02-07 03:00","2023","02","07","03:00","0.4","","-2.7","","79","","","","14","","18","","","","101.31","","","","","","NA"
"-79.80","43.30","BURLINGTON PIERS (AUT)","6151061","2023-02-07 04:00","2023","02","07","04:00","0.2","","-2.2","","84","","","","17","","13","","","","101.29","","","","","","NA"
"-79.80","43.30","BURLINGTON PIERS (AUT)","6151061","2023-02-07 05:00","2023","02","07","05:00","0.2","","-1.9","","86","","","","18","","10","","","","101.18","","","","","","NA"
"-79.80","43.30","BURLINGTON PIERS (AUT)","6151061","2023-02-07 06:00","2023","02","07","06:00","0.1","","-3.1","","79","","","","14","","14","","","","101.02","","","","","","NA"
"-79.80","43.30","BURLINGTON PIERS (AUT)","6151061","2023-02-07 07:00","2023","02","07","07:00","-0.1","","-2.6","","83","","","","12","","15","","","","100.89","","","","-5","","NA"
"-79.80","43.30","BURLINGTON PIERS (AUT)","6151061","2023-02-07 08:00","2023","02","07","08:00","-0.5","","-3.2","","82","","","","14","","10","","","","100.75","","","","-4","","NA"
"-79.80","43.30","BURLINGTON PIERS (AUT)","6151061","2023-02-07 09:00","2023","02","07","09:00","0.1","","-2.4","","84","","","","11","","5","","","","100.51","","","","","","NA"
"-79.80","43.30","BURLINGTON PIERS (AUT)","6151061","2023-02-07 10:00","2023","02","07","10:00","0.9","","-2.2","","80","","","","31","","4","","","","100.43","","","","","","NA"
"-79.80","43.30","BURLINGTON PIERS (AUT)","6151061","2023-02-07 11:00","2023","02","07","11:00","4.2","","-1.7","","65","","","","19","","10","","","","100.34","","","","","","NA"
"-79.80","43.30","BURLINGTON PIERS (AUT)","6151061","2023-02-07 12:00","2023","02","07","12:00","6.3","","0.2","","65","","","","20","","24","","","","100.20","","","","","","NA"
"-79.80","43.30","BURLINGTON PIERS (AUT)","6151061","2023-02-07 13:00","2023","02","07","13:00","7.2","","-0.5","","58","","","","21","","20","","","","100.11","","","","","","NA"
"-79.80","43.30","BURLINGTON PIERS (AUT)","6151061","2023-02-07 14:00","2023","02","07","14:00","7.7","","1.1","","63","","","","21","","19","","","","100.09","","","","","","NA"
"-79.80","43.30","BURLINGTON PIERS (AUT)","6151061","2023-02-07 15:00","2023","02","07","15:00","8.4","","1.6","","62","","","","21","","17","","","","100.10","","","","","","NA"
"-79.80","43.30","BURLINGTON PIERS (AUT)","6151061","2023-02-07 16:00","2023","02","07","16:00","7.6","","2.3","","69","","","","22","","15","","","","100.17","","","","","","NA"
"-79.80","43.30","BURLINGTON PIERS (AUT)","6151061","2023-02-07 17:00","2023","02","07","17:00","7.0","","1.9","","70","","","","23","","12","","","","100.26","","","","","","NA"
"-79.80","43.30","BURLINGTON PIERS (AUT)","6151061","2023-02-07 18:00","2023","02","07","18:00","6.7","","1.5","","69","","","","23","","13","","","","100.43","","","","","","NA"
"-79.80","43.30","BURLINGTON PIERS (AUT)","6151061","2023-02-07 19:00","2023","02","07","19:00","5.9","","1.4","","73","","","","24","","13","","","","100.61","","","","","","NA"
"-79.80","43.30","BURLINGTON PIERS (AUT)","6151061","2023-02-07 20:00","2023","02","07","20:00","5.3","","1.1","","75","","","","27","","17","","","","100.74","","","","","","NA"
"-79.80","43.30","BURLINGTON PIERS (AUT)","6151061","2023-02-07 21:00","2023","02","07","21:00","4.5","","1.0","","78","","","","24","","12","","","","100.80","","","","","","NA"
"-79.80","43.30","BURLINGTON PIERS (AUT)","6151061","2023-02-07 22:00","2023","02","07","22:00","4.0","","0.9","","80","","","","24","","9","","","","100.85","","","","","","NA"
"-79.80","43.30","BURLINGTON PIERS (AUT)","6151061","2023-02-07 23:00","2023","02","07","23:00","3.7","","0.7","","81","","","","23","","9","","","","100.88","","","","","","NA"
"-79.80","43.30","BURLINGTON PIERS (AUT)","6151061","2023-02-08 00:00","2023","02","08","00:00","3.6","","0.4","","79","","","","24","","7","","","","100.94","","","","","","NA"
"-79.80","43.30","BURLINGTON PIERS (AUT)","6151061","2023-02-08 01:00","2023","02","08","01:00","3.6","","0.0","","77","","","","24","","8","","","","100.99","","","","","","NA"
"-79.80","43.30","BURLINGTON PIERS (AUT)","6151061","2023-02-08 02:00","2023","02","08","02:00","3.3","","-0.4","","76","","","","24","","8","","","","101.06","","","","","","NA"
"-79.80","43.30","BURLINGTON PIERS (AUT)","6151061","2023-02-08 03:00","2023","02","08","03:00","3.2","","-0.5","","77","","","","23","","8","","","","101.12","","","","","","NA"
"-79.80","43.30","BURLINGTON PIERS (AUT)","6151061","2023-02-08 04:00","2023","02","08","04:00","3.5","","-0.9","","73","","","","22","","9","","","","101.17","","","","","","NA"
"-79.80","43.30","BURLINGTON PIERS (AUT)","6151061","2023-02-08 05:00","2023","02","08","05:00","3.3","","-1.4","","71","","","","22","","10","","","","101.24","","","","","","NA"
"-79.80","43.30","BURLINGTON PIERS (AUT)","6151061","2023-02-08 06:00","2023","02","08","06:00","3.1","","-1.0","","74","","","","23","","9","","","","101.32","","","","","","NA"
"-79.80","43.30","BURLINGTON PIERS (AUT)","6151061","2023-02-08 07:00","2023","02","08","07:00","2.9","","-1.8","","71","","","","22","","6","","","","101.40","","","","","","NA"
"-79.80","43.30","BURLINGTON PIERS (AUT)","6151061","2023-02-08 08:00","2023","02","08","08:00","2.8","","-1.7","","73","","","","24","","6","","","","101.45","","","","","","NA"
"-79.80","43.30","BURLINGTON PIERS (AUT)","6151061","2023-02-08 09:00","2023","02","08","09:00","3.0","","-2.1","","69","","","","23","","9","","","","101.51","","","","","","NA"
"-79.80","43.30","BURLINGTON PIERS (AUT)","6151061","2023-02-08 10:00","2023","02","08","10:00","3.7","","-1.8","","67","","","","25","","11","","","","101.58","","","","","","NA"
"-79.80","43.30","BURLINGTON PIERS (AUT)","6151061","2023-02-08 11:00","2023","02","08","11:00","3.7","","-1.3","","70","","","","22","","12","","","","101.63","","","","","","NA"
"-79.80","43.30","BURLINGTON PIERS (AUT)","6151061","2023-02-08 12:00","2023","02","08","12:00","4.4","","-1.4","","66","","","","23","","12","","","","101.61","","","","","","NA"
"-79.80","43.30","BURLINGTON PIERS (AUT)","6151061","2023-02-08 13:00","2023","02","08","13:00","5.4","","-2.0","","59","","","","22","","11","","","","101.54","","","","","","NA"
"-79.80","43.30","BURLINGTON PIERS (AUT)","6151061","2023-02-08 14:00","2023","02","08","14:00","6.6","","-2.5","","52","","","","26","","9","","","","101.48","","","","","","NA"
"-79.80","43.30","BURLINGTON PIERS (AUT)","6151061","2023-02-08 15:00","2023","02","08","15:00","6.6","","-1.6","","56","","","","24","","12","","","","101.49","","","","","","NA"
"-79.80","43.30","BURLINGTON PIERS (AUT)","6151061","2023-02-08 16:00","2023","02","08","16:00","5.8","","-0.4","","64","","","","23","","10","","","","101.51","","","","","","NA"
"-79.80","43.30","BURLINGTON PIERS (AUT)","6151061","2023-02-08 17:00","2023","02","08","17:00","5.3","","-0.7","","65","","","","23","","8","","","","101.56","","","","","","NA"
"-79.80","43.30","BURLINGTON PIERS (AUT)","6151061","2023-02-08 18:00","2023","02","08","18:00","4.8","","-0.7","","68","","","","22","","9","","","","101.60","","","","","","NA"
"-79.80","43.30","BURLINGTON PIERS (AUT)","6151061","2023-02-08 19:00","2023","02","08","19:00","4.0","","-0.4","","73","","","","22","","9","","","","101.59","","","","","","NA"
"-79.80","43.30","BURLINGTON PIERS (AUT)","6151061","2023-02-08 20:00","2023","02","08","20:00","3.4","","-0.6","","75","","","","22","","10","","","","101.56","","","","","","NA"
"-79.80","43.30","BURLINGTON PIERS (AUT)","6151061","2023-02-08 21:00","2023","02","08","21:00","3.0","","-0.6","","78","","","","23","","8","","","","101.50","","","","","","NA"
"-79.80","43.30","BURLINGTON PIERS (AUT)","6151061","2023-02-08 22:00","2023","02","08","22:00","2.7","","-0.8","","77","","","","23","","6","","","","101.52","","","","","","NA"
"-79.80","43.30","BURLINGTON PIERS (AUT)","6151061","2023-02-08 23:00","2023","02","08","23:00","2.6","","-1.4","","75","","","","27","","4","","","","101.45","","","","","","NA"
"-79.80","43.30","BURLINGTON PIERS (AUT)","6151061","2023-02-09 00:00","2023","02","09","00:00","2.6","","-1.6","","74","","","","25","","2","","","","101.40","","","","","","NA"
"-79.80","43.30","BURLINGTON PIERS (AUT)","6151061","2023-02-09 01:00","2023","02","09","01:00","2.1","","-0.8","","81","","","","13","","7","","","","101.27","","","","","","NA"
"-79.80","43.30","BURLINGTON PIERS (AUT)","6151061","2023-02-09 02:00","2023","02","09","02:00","1.8","","-1.3","","80","","","","13","","4","","","","101.23","","","","","","NA"
"-79.80","43.30","BURLINGTON PIERS (AUT)","6151061","2023-02-09 03:00","2023","02","09","03:00","1.5","","0.3","","91","","","","3","","4","","","","101.10","","","","","","NA"
"-79.80","43.30","BURLINGTON PIERS (AUT)","6151061","2023-02-09 04:00","2023","02","09","04:00","1.4","","0.3","","92","","","","36","","10","","","","101.04","","","","","","NA"
"-79.80","43.30","BURLINGTON PIERS (AUT)","6151061","2023-02-09 05:00","2023","02","09","05:00","2.0","","0.8","","92","","","","6","","3","","","","101.00","","","","","","NA"
"-79.80","43.30","BURLINGTON PIERS (AUT)","6151061","2023-02-09 06:00","2023","02","09","06:00","1.9","","1.0","","93","","","","36","","7","","","","100.87","","","","","","NA"
"-79.80","43.30","BURLINGTON PIERS (AUT)","6151061","2023-02-09 07:00","2023","02","09","07:00","2.6","","1.0","","89","","","","2","","14","","","","100.75","","","","","","NA"
"-79.80","43.30","BURLINGTON PIERS (AUT)","6151061","2023-02-09 08:00","2023","02","09","08:00","2.1","","1.2","","94","","","","1","","13","","","","100.63","","","","","","NA"
"-79.80","43.30","BURLINGTON PIERS (AUT)","6151061","2023-02-09 09:00","2023","02","09","09:00","2.2","","1.3","","94","","","","4","","22","","","","100.50","","","","","","NA"
"-79.80","43.30","BURLINGTON PIERS (AUT)","6151061","2023-02-09 10:00","2023","02","09","10:00","2.3","","1.7","","96","","","","5","","20","","","","100.32","","","","","","NA"
"-79.80","43.30","BURLINGTON PIERS (AUT)","6151061","2023-02-09 11:00","2023","02","09","11:00","2.6","","2.4","","98","","","","5","","17","","","","100.16","","","","","","NA"
"-79.80","43.30","BURLINGTON PIERS (AUT)","6151061","2023-02-09 12:00","2023","02","09","12:00","3.1","","3.1","","102","","","","5","","16","","","","99.94","","","","","","NA"
"-79.80","43.30","BURLINGTON PIERS (AUT)","6151061","2023-02-09 13:00","2023","02","09","13:00","3.1","","3.1","","101","","","","2","","16","","","","99.75","","","","","","NA"
"-79.80","43.30","BURLINGTON PIERS (AUT)","6151061","2023-02-09 14:00","2023","02","09","14:00","3.4","","3.3","","99","","","","1","","18","","","","99.53","","","","","","NA"
"-79.80","43.30","BURLINGTON PIERS (AUT)","6151061","2023-02-09 15:00","2023","02","09","15:00","3.7","","3.7","","101","","","","3","","15","","","","99.43","","","","","","NA"
"-79.80","43.30","BURLINGTON PIERS (AUT)","6151061","2023-02-09 16:00","2023","02","09","16:00","3.5","","3.5","","100","","","","1","","11","","","","99.32","","","","","","NA"
"-79.80","43.30","BURLINGTON PIERS (AUT)","6151061","2023-02-09 17:00","2023","02","09","17:00","3.6","","3.6","","103","","","","1","","12","","","","99.32","","","","","","NA"
"-79.80","43.30","BURLINGTON PIERS (AUT)","6151061","2023-02-09 18:00","2023","02","09","18:00","3.7","","3.7","","101","","","","3","","12","","","","99.32","","","","","","NA"
"-79.80","43.30","BURLINGTON PIERS (AUT)","6151061","2023-02-09 19:00","2023","02","09","19:00","3.5","","","M","104","","","","9","","13","","","","99.37","","","","","","NA"
"-79.80","43.30","BURLINGTON PIERS (AUT)","6151061","2023-02-09 20:00","2023","02","09","20:00","3.3","","","M","104","","","","12","","13","","","","99.33","","","","","","NA"
"-79.80","43.30","BURLINGTON PIERS (AUT)","6151061","2023-02-09 21:00","2023","02","09","21:00","3.2","","","M","103","","","","21","","2","","","","99.27","","","","","","NA"
"-79.80","43.30","BURLINGTON PIERS (AUT)","6151061","2023-02-09 22:00","2023","02","09","22:00","5.5","","5.5","","102","","","","22","","8","","","","99.32","","","","","","NA"
"-79.80","43.30","BURLINGTON PIERS (AUT)","6151061","2023-02-09 23:00","2023","02","09","23:00","7.1","","3.6","","79","","","","22","","21","","","","99.39","","","","","","NA"
"-79.80","43.30","BURLINGTON PIERS (AUT)","6151061","2023-02-10 00:00","2023","02","10","00:00","6.0","","2.6","","79","","","","21","","28","","","","99.47","","","","","","NA"
"-79.80","43.30","BURLINGTON PIERS (AUT)","6151061","2023-02-10 01:00","2023","02","10","01:00","5.7","","1.9","","77","","","","21","","27","","","","99.51","","","","","","NA"
"-79.80","43.30","BURLINGTON PIERS (AUT)","6151061","2023-02-10 02:00","2023","02","10","02:00","5.2","","1.9","","80","","","","22","","21","","","","99.61","","","","","","NA"
"-79.80","43.30","BURLINGTON PIERS (AUT)","6151061","2023-02-10 03:00","2023","02","10","03:00","4.7","","1.7","","81","","","","21","","23","","","","99.69","","","","","","NA"
"-79.80","43.30","BURLINGTON PIERS (AUT)","6151061","2023-02-10 04:00","2023","02","10","04:00","4.1","","2.2","","87","","","","24","","16","","","","99.80","","","","","","NA"
"-79.80","43.30","BURLINGTON PIERS (AUT)","6151061","2023-02-10 05:00","2023","02","10","05:00","3.4","","0.1","","79","","","","25","","25","","","","99.97","","","","","","NA"
"-79.80","43.30","BURLINGTON PIERS (AUT)","6151061","2023-02-10 06:00","2023","02","10","06:00","3.4","","-0.2","","77","","","","24","","18","","","","100.06","","","","","","NA"
"-79.80","43.30","BURLINGTON PIERS (AUT)","6151061","2023-02-10 07:00","2023","02","10","07:00","3.7","","-0.3","","75","","","","25","","22","","","","100.19","","","","","","NA"
"-79.80","43.30","BURLINGTON PIERS (AUT)","6151061","2023-02-10 08:00","2023","02","10","08:00","3.6","","-0.9","","72","","","","24","","17","","","","100.35","","","","","","NA"
"-79.80","43.30","BURLINGTON PIERS (AUT)","6151061","2023-02-10 09:00","2023","02","10","09:00","3.4","","-0.5","","76","","","","24","","14","","","","100.50","","","","","","NA"
"-79.80","43.30","BURLINGTON PIERS (AUT)","6151061","2023-02-10 10:00","2023","02","10","10:00","3.4","","-0.1","","78","","","","25","","18","","","","100.59","","","","","","NA"
"-79.80","43.30","BURLINGTON PIERS (AUT)","6151061","2023-02-10 11:00","2023","02","10","11:00","3.1","","-0.9","","75","","","","24","","19","","","","100.66","","","","","","NA"
"-79.80","43.30","BURLINGTON PIERS (AUT)","6151061","2023-02-10 12:00","2023","02","10","12:00","3.0","","-0.4","","78","","","","24","","19","","","","100.71","","","","","","NA"
"-79.80","43.30","BURLINGTON PIERS (AUT)","6151061","2023-02-10 13:00","2023","02","10","13:00","3.2","","-0.9","","75","","","","25","","16","","","","100.70","","","","","","NA"
"-79.80","43.30","BURLINGTON PIERS (AUT)","6151061","2023-02-10 14:00","2023","02","10","14:00","2.7","","-1.2","","76","","","","25","","15","","","","100.71","","","","","","NA"
"-79.80","43.30","BURLINGTON PIERS (AUT)","6151061","2023-02-10 15:00","2023","02","10","15:00","3.0","","-4.0","","60","","","","25","","20","","","","100.73","","","","","","NA"
"-79.80","43.30","BURLINGTON PIERS (AUT)","6151061","2023-02-10 16:00","2023","02","10","16:00","2.8","","-6.4","","51","","","","27","","20","","","","100.77","","","","","","NA"
"-79.80","43.30","BURLINGTON PIERS (AUT)","6151061","2023-02-10 17:00","2023","02","10","17:00","2.2","","-5.7","","56","","","","27","","12","","","","100.87","","","","","","NA"
"-79.80","43.30","BURLINGTON PIERS (AUT)","6151061","2023-02-10 18:00","2023","02","10","18:00","0.8","","-4.8","","67","","","","25","","15","","","","100.95","","","","","","NA"
"-79.80","43.30","BURLINGTON PIERS (AUT)","6151061","2023-02-10 19:00","2023","02","10","19:00","1.2","","-4.5","","66","","","","25","","14","","","","101.03","","","","","","NA"
"-79.80","43.30","BURLINGTON PIERS (AUT)","6151061","2023-02-10 20:00","2023","02","10","20:00","0.9","","-5.0","","64","","","","27","","18","","","","101.09","","","","","","NA"
"-79.80","43.30","BURLINGTON PIERS (AUT)","6151061","2023-02-10 21:00","2023","02","10","21:00","0.6","","-3.6","","73","","","","27","","14","","","","101.19","","","","","","NA"
"-79.80","43.30","BURLINGTON PIERS (AUT)","6151061","2023-02-10 22:00","2023","02","10","22:00","0.1","","-4.2","","72","","","","25","","18","","","","101.24","","","","","","NA"
"-79.80","43.30","BURLINGTON PIERS (AUT)","6151061","2023-02-10 23:00","2023","02","10","23:00","0.0","","-5.2","","68","","","","25","","18","","","","101.30","","","","-5","","NA"
"-79.80","43.30","BURLINGTON PIERS (AUT)","6151061","2023-02-11 00:00","2023","02","11","00:00","0.0","","-4.9","","70","","","","26","","13","","","","101.39","","","","-4","","NA"
"-79.80","43.30","BURLINGTON PIERS (AUT)","6151061","2023-02-11 01:00","2023","02","11","01:00","-0.1","","-4.0","","75","","","","29","","17","","","","101.43","","","","-5","","NA"
"-79.80","43.30","BURLINGTON PIERS (AUT)","6151061","2023-02-11 02:00","2023","02","11","02:00","-0.5","","-4.2","","76","","","","29","","22","","","","101.54","","","","-6","","NA"
"-79.80","43.30","BURLINGTON PIERS (AUT)","6151061","2023-02-11 03:00","2023","02","11","03:00","-0.8","","-5.5","","70","","","","30","","20","","","","101.61","","","","-6","","NA"
"-79.80","43.30","BURLINGTON PIERS (AUT)","6151061","2023-02-11 04:00","2023","02","11","04:00","-1.0","","-6.6","","66","","","","29","","19","","","","101.66","","","","-6","","NA"
"-79.80","43.30","BURLINGTON PIERS (AUT)","6151061","2023-02-11 05:00","2023","02","11","05:00","-1.2","","-6.2","","69","","","","29","","18","","","","101.73","","","","-6","","NA"
"-79.80","43.30","BURLINGTON PIERS (AUT)","6151061","2023-02-11 06:00","2023","02","11","06:00","-1.3","","-6.4","","68","","","","29","","16","","","","101.78","","","","-6","","NA"
"-79.80","43.30","BURLINGTON PIERS (AUT)","6151061","2023-02-11 07:00","2023","02","11","07:00","-1.1","","-6.7","","65","","","","28","","11","","","","101.86","","","","-5","","NA"
"-79.80","43.30","BURLINGTON PIERS (AUT)","6151061","2023-02-11 08:00","2023","02","11","08:00","-0.8","","-6.4","","66","","","","27","","7","","","","101.92","","","","-3","","NA"
"-79.80","43.30","BURLINGTON PIERS (AUT)","6151061","2023-02-11 09:00","2023","02","11","09:00","-0.4","","-5.9","","67","","","","25","","4","","","","101.96","","","","-2","","NA"
"-79.80","43.30","BURLINGTON PIERS (AUT)","6151061","2023-02-11 10:00","2023","02","11","10:00","-0.2","","-5.3","","68","","","","24","","10","","","","101.93","","","","-4","","NA"
"-79.80","43.30","BURLINGTON PIERS (AUT)","6151061","2023-02-11 11:00","2023","02","11","11:00","-0.4","","-6.1","","65","","","","24","","11","","","","101.94","","","","-4","","NA"
"-79.80","43.30","BURLINGTON PIERS (AUT)","6151061","2023-02-11 12:00","2023","02","11","12:00","-0.3","","-6.4","","63","","","","23","","10","","","","101.88","","","","-4","","NA"
"-79.80","43.30","BURLINGTON PIERS (AUT)","6151061","2023-02-11 13:00","2023","02","11","13:00","0.6","","-5.3","","65","","","","21","","13","","","","101.74","","","","","","NA"
"-79.80","43.30","BURLINGTON PIERS (AUT)","6151061","2023-02-11 14:00","2023","02","11","14:00","1.4","","-5.5","","60","","","","21","","15","","","","101.62","","","","","","NA"
"-79.80","43.30","BURLINGTON PIERS (AUT)","6151061","2023-02-11 15:00","2023","02","11","15:00","2.1","","-5.6","","57","","","","22","","13","","","","101.56","","","","","","NA"
"-79.80","43.30","BURLINGTON PIERS (AUT)","6151061","2023-02-11 16:00","2023","02","11","16:00","2.6","","-5.9","","54","","","","20","","21","","","","101.50","","","","","","NA"
"-79.80","43.30","BURLINGTON PIERS (AUT)","6151061","2023-02-11 17:00","2023","02","11","17:00","2.3","","-5.8","","55","","","","20","","23","","","","101.43","","","","","","NA"
"-79.80","43.30","BURLINGTON PIERS (AUT)","6151061","2023-02-11 18:00","2023","02","11","18:00","1.2","","-5.0","","63","","","","21","","22","","","","101.40","","","","","","NA"
"-79.80","43.30","BURLINGTON PIERS (AUT)","6151061","2023-02-11 19:00","2023","02","11","19:00","0.8","","-4.7","","67","","","","22","","16","","","","101.37","","","","","","NA"
"-79.80","43.30","BURLINGTON PIERS (AUT)","6151061","2023-02-11 20:00","2023","02","11","20:00","1.0","","-4.6","","66","","","","23","","17","","","","101.28","","","","","","NA"
"-79.80","43.30","BURLINGTON PIERS (AUT)","6151061","2023-02-11 21:00","2023","02","11","21:00","1.1","","-4.7","","65","","","","23","","17","","","","101.19","","","","","","NA"
"-79.80","43.30","BURLINGTON PIERS (AUT)","6151061","2023-02-11 22:00","2023","02","11","22:00","1.2","","-4.8","","64","","","","23","","16","","","","101.16","","","","","","NA"
"-79.80","43.30","BURLINGTON PIERS (AUT)","6151061","2023-02-11 23:00","2023","02","11","23:00","1.2","","-3.7","","70","","","","23","","15","","","","101.12","","","","","","NA"
"-79.80","43.30","BURLINGTON PIERS (AUT)","6151061","2023-02-12 00:00","2023","02","12","00:00","1.5","","-3.1","","71","","","","23","","13","","","","101.12","","","","","","NA"
"-79.80","43.30","BURLINGTON PIERS (AUT)","6151061","2023-02-12 01:00","2023","02","12","01:00","1.3","","-3.0","","73","","","","24","","10","","","","101.09","","","","","","NA"
"-79.80","43.30","BURLINGTON PIERS (AUT)","6151061","2023-02-12 02:00","2023","02","12","02:00","1.9","","-2.6","","72","","","","21","","18","","","","101.12","","","","","","NA"
"-79.80","43.30","BURLINGTON PIERS (AUT)","6151061","2023-02-12 03:00","2023","02","12","03:00","1.6","","-1.9","","77","","","","24","","9","","","","101.00","","","","","","NA"
"-79.80","43.30","BURLINGTON PIERS (AUT)","6151061","2023-02-12 04:00","2023","02","12","04:00","1.4","","-2.4","","76","","","","24","","7","","","","101.02","","","","","","NA"
"-79.80","43.30","BURLINGTON PIERS (AUT)","6151061","2023-02-12 05:00","2023","02","12","05:00","0.9","","-2.4","","78","","","","23","","8","","","","100.99","","","","","","NA"
"-79.80","43.30","BURLINGTON PIERS (AUT)","6151061","2023-02-12 06:00","2023","02","12","06:00","0.5","","-3.0","","77","","","","23","","7","","","","100.98","","","","","","NA"
"-79.80","43.30","BURLINGTON PIERS (AUT)","6151061","2023-02-12 07:00","2023","02","12","07:00","0.1","","-2.8","","81","","","","22","","6","","","","101.01","","","","","","NA"
"-79.80","43.30","BURLINGTON PIERS (AUT)","6151061","2023-02-12 08:00","2023","02","12","08:00","0.3","","-2.9","","79","","","","24","","5","","","","101.02","","","","","","NA"
"-79.80","43.30","BURLINGTON PIERS (AUT)","6151061","2023-02-12 09:00","2023","02","12","09:00","0.8","","-3.3","","74","","","","24","","8","","","","101.00","","","","","","NA"
"-79.80","43.30","BURLINGTON PIERS (AUT)","6151061","2023-02-12 10:00","2023","02","12","10:00","1.8","","-2.8","","71","","","","22","","11","","","","100.90","","","","","","NA"
"-79.80","43.30","BURLINGTON PIERS (AUT)","6151061","2023-02-12 11:00","2023","02","12","11:00","3.0","","-3.5","","62","","","","21","","9","","","","100.84","","","","","","NA"
"-79.80","43.30","BURLINGTON PIERS (AUT)","6151061","2023-02-12 12:00","2023","02","12","12:00","4.8","","-4.1","","52","","","","23","","4","","","","100.71","","","","","","NA"
"-79.80","43.30","BURLINGTON PIERS (AUT)","6151061","2023-02-12 13:00","2023","02","12","13:00","3.8","","-4.1","","57","","","","8","","10","","","","100.60","","","","","","NA"
"-79.80","43.30","BURLINGTON PIERS (AUT)","6151061","2023-02-12 14:00","2023","02","12","14:00","3.4","","-0.2","","77","","","","7","","10","","","","100.43","","","","","","NA"
"-79.80","43.30","BURLINGTON PIERS (AUT)","6151061","2023-02-12 15:00","2023","02","12","15:00","3.3","","0.9","","84","","","","8","","13","","","","100.39","","","","","","NA"
"-79.80","43.30","BURLINGTON PIERS (AUT)","6151061","2023-02-12 16:00","2023","02","12","16:00","3.5","","1.6","","87","","","","8","","15","","","","100.31","","","","","","NA"
"-79.80","43.30","BURLINGTON PIERS (AUT)","6151061","2023-02-12 17:00","2023","02","12","17:00","4.1","","2.4","","89","","","","2","","4","","","","100.28","","","","","","NA"
"-79.80","43.30","BURLINGTON PIERS (AUT)","6151061","2023-02-12 18:00","2023","02","12","18:00","3.8","","1.7","","86","","","","1","","13","","","","100.24","","","","","","NA"
"-79.80","43.30","BURLINGTON PIERS (AUT)","6151061","2023-02-12 19:00","2023","02","12","19:00","3.3","","1.5","","88","","","","36","","8","","","","100.22","","","","","","NA"
"-79.80","43.30","BURLINGTON PIERS (AUT)","6151061","2023-02-12 20:00","2023","02","12","20:00","2.9","","1.4","","90","","","","29","","6","","","","100.20","","","","","","NA"
"-79.80","43.30","BURLINGTON PIERS (AUT)","6151061","2023-02-12 21:00","2023","02","12","21:00","2.6","","1.4","","92","","","","29","","3","","","","100.16","","","","","","NA"
"-79.80","43.30","BURLINGTON PIERS (AUT)","6151061","2023-02-12 22:00","2023","02","12","22:00","1.8","","0.7","","92","","","","31","","3","","","","100.13","","","","","","NA"
"-79.80","43.30","BURLINGTON PIERS (AUT)","6151061","2023-02-12 23:00","2023","02","12","23:00","0.9","","-1.2","","86","","","","23","","3","","","","100.07","","","","","","NA"
"-79.80","43.30","BURLINGTON PIERS (AUT)","6151061","2023-02-13 00:00","2023","02","13","00:00","0.2","","-2.6","","81","","","","24","","2","","","","100.00","","","","","","NA"
"-79.80","43.30","BURLINGTON PIERS (AUT)","6151061","2023-02-13 01:00","2023","02","13","01:00","-0.2","","-2.3","","86","","","","35","","3","","","","99.96","","","","-1","","NA"
"-79.80","43.30","BURLINGTON PIERS (AUT)","6151061","2023-02-13 02:00","2023","02","13","02:00","-0.4","","-2.6","","85","","","","","","0","","","","99.90","","","","","","NA"
"-79.80","43.30","BURLINGTON PIERS (AUT)","6151061","2023-02-13 03:00","2023","02","13","03:00","-0.9","","-3.1","","85","","","","26","","3","","","","99.83","","","","-2","","NA"
"-79.80","43.30","BURLINGTON PIERS (AUT)","6151061","2023-02-13 04:00","2023","02","13","04:00","-0.4","","-4.1","","76","","","","23","","8","","","","99.74","","","","-3","","NA"
"-79.80","43.30","BURLINGTON PIERS (AUT)","6151061","2023-02-13 05:00","2023","02","13","05:00","-0.5","","-4.5","","75","","","","24","","4","","","","99.68","","","","-2","","NA"
"-79.80","43.30","BURLINGTON PIERS (AUT)","6151061","2023-02-13 06:00","2023","02","13","06:00","-0.4","","-3.9","","77","","","","23","","5","","","","99.64","","","","-2","","NA"
"-79.80","43.30","BURLINGTON PIERS (AUT)","6151061","2023-02-13 07:00","2023","02","13","07:00","-0.5","","-4.1","","77","","","","24","","5","","","","99.55","","","","-2","","NA"
"-79.80","43.30","BURLINGTON PIERS (AUT)","6151061","2023-02-13 08:00","2023","02","13","08:00","-0.3","","-3.5","","79","","","","23","","7","","","","99.52","","","","-3","","NA"
"-79.80","43.30","BURLINGTON PIERS (AUT)","6151061","2023-02-13 09:00","2023","02","13","09:00","0.7","","-2.6","","79","","","","23","","3","","","","99.39","","","","","","NA"
"-79.80","43.30","BURLINGTON PIERS (AUT)","6151061","2023-02-13 10:00","2023","02","13","10:00","2.5","","-2.0","","72","","","","24","","7","","","","99.37","","","","","","NA"
"-79.80","43.30","BURLINGTON PIERS (AUT)","6151061","2023-02-13 11:00","2023","02","13","11:00","4.5","","-1.3","","66","","","","22","","8","","","","99.29","","","","","","NA"
"-79.80","43.30","BURLINGTON PIERS (AUT)","6151061","2023-02-13 12:00","2023","02","13","12:00","6.4","","-0.5","","62","","","","24","","11","","","","99.19","","","","","","NA"
"-79.80","43.30","BURLINGTON PIERS (AUT)","6151061","2023-02-13 13:00","2023","02","13","13:00","7.2","","-2.2","","51","","","","23","","14","","","","99.11","","","","","","NA"
"-79.80","43.30","BURLINGTON PIERS (AUT)","6151061","2023-02-13 14:00","2023","02","13","14:00","8.3","","-2.5","","46","","","","24","","16","","","","99.08","","","","","","NA"
"-79.80","43.30","BURLINGTON PIERS (AUT)","6151061","2023-02-13 15:00","2023","02","13","15:00","8.0","","-1.2","","52","","","","27","","22","","","","99.16","","","","","","NA"
"-79.80","43.30","BURLINGTON PIERS (AUT)","6151061","2023-02-13 16:00","2023","02","13","16:00","6.9","","-0.9","","58","","","","26","","19","","","","99.31","","","","","","NA"
"-79.80","43.30","BURLINGTON PIERS (AUT)","6151061","2023-02-13 17:00","2023","02","13","17:00","5.2","","-1.1","","64","","","","28","","16","","","","99.48","","","","","","NA"
"-79.80","43.30","BURLINGTON PIERS (AUT)","6151061","2023-02-13 18:00","2023","02","13","18:00","4.2","","0.9","","79","","","","27","","16","","","","99.64","","","","","","NA"
"-79.80","43.30","BURLINGTON PIERS (AUT)","6151061","2023-02-13 19:00","2023","02","13","19:00","3.7","","0.9","","82","","","","26","","15","","","","99.79","","","","","","NA"
"-79.80","43.30","BURLINGTON PIERS (AUT)","6151061","2023-02-13 20:00","2023","02","13","20:00","3.2","","1.5","","89","","","","23","","9","","","","99.90","","","","","","NA"
"-79.80","43.30","BURLINGTON PIERS (AUT)","6151061","2023-02-13 21:00","2023","02","13","21:00","2.9","","1.3","","90","","","","23","","12","","","","99.99","","","","","","NA"
"-79.80","43.30","BURLINGTON PIERS (AUT)","6151061","2023-02-13 22:00","2023","02","13","22:00","2.4","","0.7","","89","","","","24","","10","","","","100.07","","","","","","NA"
"-79.80","43.30","BURLINGTON PIERS (AUT)","6151061","2023-02-13 23:00","2023","02","13","23:00","2.2","","-0.1","","84","","","","23","","10","","","","100.17","","","","","","NA"
"-79.80","43.30","BURLINGTON PIERS (AUT)","6151061","2023-02-14 00:00","2023","02","14","00:00","1.8","","-0.9","","82","","","","24","","19","","","","100.26","","","","","","NA"
"-79.80","43.30","BURLINGTON PIERS (AUT)","6151061","2023-02-14 01:00","2023","02","14","01:00","1.2","","-0.3","","90","","","","25","","11","","","","100.32","","","","","","NA"
"-79.80","43.30","BURLINGTON PIERS (AUT)","6151061","2023-02-14 02:00","2023","02","14","02:00","1.3","","0.0","","91","","","","24","","13","","","","100.39","","","","","","NA"
"-79.80","43.30","BURLINGTON PIERS (AUT)","6151061","2023-02-14 03:00","2023","02","14","03:00","1.2","","-0.2","","90","","","","23","","8","","","","100.47","","","","","","NA"
"-79.80","43.30","BURLINGTON PIERS (AUT)","6151061","2023-02-14 04:00","2023","02","14","04:00","1.3","","0.0","","91","","","","24","","10","","","","100.51","","","","","","NA"
"-79.80","43.30","BURLINGTON PIERS (AUT)","6151061","2023-02-14 05:00","2023","02","14","05:00","1.3","","0.0","","92","","","","23","","10","","","","100.53","","","","","","NA"
"-79.80","43.30","BURLINGTON PIERS (AUT)","6151061","2023-02-14 06:00","2023","02","14","06:00","0.9","","0.3","","96","","","","23","","8","","","","100.54","","","","","","NA"
"-79.80","43.30","BURLINGTON PIERS (AUT)","6151061","2023-02-14 07:00","2023","02","14","07:00","0.4","","-0.5","","94","","","","24","","9","","","","100.61","","","","","","NA"
"-79.80","43.30","BURLINGTON PIERS (AUT)","6151061","2023-02-14 08:00","2023","02","14","08:00","0.7","","-0.4","","93","","","","24","","11","","","","100.71","","","","","","NA"
"-79.80","43.30","BURLINGTON PIERS (AUT)","6151061","2023-02-14 09:00","2023","02","14","09:00","1.7","","-0.6","","85","","","","24","","8","","","","100.79","","","","","","NA"
"-79.80","43.30","BURLINGTON PIERS (AUT)","6151061","2023-02-14 10:00","2023","02","14","10:00","3.2","","-0.7","","76","","","","22","","5","","","","100.80","","","","","","NA"
"-79.80","43.30","BURLINGTON PIERS (AUT)","6151061","2023-02-14 11:00","2023","02","14","11:00","4.9","","0.6","","73","","","","16","","5","","","","100.80","","","","","","NA"
"-79.80","43.30","BURLINGTON PIERS (AUT)","6151061","2023-02-14 12:00","2023","02","14","12:00","7.0","","-0.4","","59","","","","19","","14","","","","100.78","","","","","","NA"
"-79.80","43.30","BURLINGTON PIERS (AUT)","6151061","2023-02-14 13:00","2023","02","14","13:00","7.7","","-0.7","","55","","","","19","","16","","","","100.75","","","","","","NA"
"-79.80","43.30","BURLINGTON PIERS (AUT)","6151061","2023-02-14 14:00","2023","02","14","14:00","8.0","","-1.3","","52","","","","20","","14","","","","100.69","","","","","","NA"
"-79.80","43.30","BURLINGTON PIERS (AUT)","6151061","2023-02-14 15:00","2023","02","14","15:00","9.0","","-2.4","","45","","","","18","","14","","","","100.68","","","","","","NA"
"-79.80","43.30","BURLINGTON PIERS (AUT)","6151061","2023-02-14 16:00","2023","02","14","16:00","9.3","","-3.2","","41","","","","18","","11","","","","100.69","","","","","","NA"
"-79.80","43.30","BURLINGTON PIERS (AUT)","6151061","2023-02-14 17:00","2023","02","14","17:00","8.5","","-3.8","","42","","","","17","","8","","","","100.73","","","","","","NA"
"-79.80","43.30","BURLINGTON PIERS (AUT)","6151061","2023-02-14 18:00","2023","02","14","18:00","8.6","","-6.0","","35","","","","15","","5","","","","100.67","","","","","","NA"
"-79.80","43.30","BURLINGTON PIERS (AUT)","6151061","2023-02-14 19:00","2023","02","14","19:00","5.1","","1.0","","74","","","","11","","7","","","","100.61","","","","","","NA"
"-79.80","43.30","BURLINGTON PIERS (AUT)","6151061","2023-02-14 20:00","2023","02","14","20:00","4.9","","1.7","","80","","","","6","","1","","","","100.57","","","","","","NA"
"-79.80","43.30","BURLINGTON PIERS (AUT)","6151061","2023-02-14 21:00","2023","02","14","21:00","5.4","","1.9","","78","","","","3","","11","","","","100.47","","","","","","NA"
"-79.80","43.30","BURLINGTON PIERS (AUT)","6151061","2023-02-14 22:00","2023","02","14","22:00","4.8","","2.0","","82","","","","2","","11","","","","100.40","","","","","","NA"
"-79.80","43.30","BURLINGTON PIERS (AUT)","6151061","2023-02-14 23:00","2023","02","14","23:00","4.5","","3.1","","90","","","","35","","9","","","","100.31","","","","","","NA"
"-79.80","43.30","BURLINGTON PIERS (AUT)","6151061","2023-02-15 00:00","2023","02","15","00:00","4.2","","2.3","","87","","","","31","","3","","","","100.24","","","","","","NA"
"-79.80","43.30","BURLINGTON PIERS (AUT)","6151061","2023-02-15 01:00","2023","02","15","01:00","4.2","","2.6","","89","","","","33","","7","","","","100.12","","","","","","NA"
"-79.80","43.30","BURLINGTON PIERS (AUT)","6151061","2023-02-15 02:00","2023","02","15","02:00","4.4","","2.7","","89","","","","36","","10","","","","99.93","","","","","","NA"
"-79.80","43.30","BURLINGTON PIERS (AUT)","6151061","2023-02-15 03:00","2023","02","15","03:00","4.5","","2.3","","86","","","","35","","3","","","","99.92","","","","","","NA"
"-79.80","43.30","BURLINGTON PIERS (AUT)","6151061","2023-02-15 04:00","2023","02","15","04:00","3.7","","2.6","","92","","","","35","","3","","","","99.82","","","","","","NA"
"-79.80","43.30","BURLINGTON PIERS (AUT)","6151061","2023-02-15 05:00","2023","02","15","05:00","4.2","","3.8","","98","","","","1","","15","","","","99.63","","","","","","NA"
"-79.80","43.30","BURLINGTON PIERS (AUT)","6151061","2023-02-15 06:00","2023","02","15","06:00","5.0","","3.4","","90","","","","34","","10","","","","99.53","","","","","","NA"
"-79.80","43.30","BURLINGTON PIERS (AUT)","6151061","2023-02-15 07:00","2023","02","15","07:00","6.8","","3.9","","82","","","","32","","6","","","","99.46","","","","","","NA"
"-79.80","43.30","BURLINGTON PIERS (AUT)","6151061","2023-02-15 08:00","2023","02","15","08:00","12.6","","2.3","","49","","","","18","","30","","","","99.39","","","","","","NA"
"-79.80","43.30","BURLINGTON PIERS (AUT)","6151061","2023-02-15 09:00","2023","02","15","09:00","13.1","","3.2","","51","","","","18","","32","","","","99.33","","","","","","NA"
"-79.80","43.30","BURLINGTON PIERS (AUT)","6151061","2023-02-15 10:00","2023","02","15","10:00","12.3","","4.4","","58","","","","19","","27","","","","99.27","","","","","","NA"
"-79.80","43.30","BURLINGTON PIERS (AUT)","6151061","2023-02-15 11:00","2023","02","15","11:00","12.2","","4.8","","61","","","","18","","32","","","","99.24","","","","","","NA"
"-79.80","43.30","BURLINGTON PIERS (AUT)","6151061","2023-02-15 12:00","2023","02","15","12:00","14.2","","6.6","","60","","","","21","","35","","","","99.25","","","","","","NA"
"-79.80","43.30","BURLINGTON PIERS (AUT)","6151061","2023-02-15 13:00","2023","02","15","13:00","14.0","","6.1","","59","","","","21","","37","","","","99.25","","","","","","NA"
"-79.80","43.30","BURLINGTON PIERS (AUT)","6151061","2023-02-15 14:00","2023","02","15","14:00","13.7","","4.9","","55","","","","21","","34","","","","99.27","","","","","","NA"
"-79.80","43.30","BURLINGTON PIERS (AUT)","6151061","2023-02-15 15:00","2023","02","15","15:00","14.1","","5.2","","55","","","","22","","25","","","","99.33","","","","","","NA"
"-79.80","43.30","BURLINGTON PIERS (AUT)","6151061","2023-02-15 16:00","2023","02","15","16:00","14.2","","4.6","","52","","","","22","","28","","","","99.42","","","","","","NA"
"-79.80","43.30","BURLINGTON PIERS (AUT)","6151061","2023-02-15 17:00","2023","02","15","17:00","13.7","","5.4","","57","","","","22","","24","","","","99.49","","","","","","NA"
"-79.80","43.30","BURLINGTON PIERS (AUT)","6151061","2023-02-15 18:00","2023","02","15","18:00","13.2","","3.7","","53","","","","24","","19","","","","99.63","","","","","","NA"
"-79.80","43.30","BURLINGTON PIERS (AUT)","6151061","2023-02-15 19:00","2023","02","15","19:00","11.6","","3.2","","56","","","","28","","24","","","","99.84","","","","","","NA"
"-79.80","43.30","BURLINGTON PIERS (AUT)","6151061","2023-02-15 20:00","2023","02","15","20:00","9.5","","2.4","","61","","","","25","","14","","","","100.00","","","","","","NA"
"-79.80","43.30","BURLINGTON PIERS (AUT)","6151061","2023-02-15 21:00","2023","02","15","21:00","8.4","","1.7","","63","","","","24","","21","","","","100.13","","","","","","NA"
"-79.80","43.30","BURLINGTON PIERS (AUT)","6151061","2023-02-15 22:00","2023","02","15","22:00","7.6","","2.0","","68","","","","25","","15","","","","100.21","","","","","","NA"
"-79.80","43.30","BURLINGTON PIERS (AUT)","6151061","2023-02-15 23:00","2023","02","15","23:00","7.0","","1.7","","69","","","","25","","15","","","","100.30","","","","","","NA"
"-79.80","43.30","BURLINGTON PIERS (AUT)","6151061","2023-02-16 00:00","2023","02","16","00:00","6.6","","2.7","","76","","","","28","","13","","","","100.47","","","","","","NA"
"-79.80","43.30","BURLINGTON PIERS (AUT)","6151061","2023-02-16 01:00","2023","02","16","01:00","5.9","","2.4","","78","","","","25","","19","","","","100.56","","","","","","NA"
"-79.80","43.30","BURLINGTON PIERS (AUT)","6151061","2023-02-16 02:00","2023","02","16","02:00","5.7","","1.6","","75","","","","26","","15","","","","100.68","","","","","","NA"
"-79.80","43.30","BURLINGTON PIERS (AUT)","6151061","2023-02-16 03:00","2023","02","16","03:00","5.0","","2.4","","83","","","","23","","8","","","","100.71","","","","","","NA"
"-79.80","43.30","BURLINGTON PIERS (AUT)","6151061","2023-02-16 04:00","2023","02","16","04:00","5.3","","1.9","","79","","","","23","","6","","","","100.73","","","","","","NA"
"-79.80","43.30","BURLINGTON PIERS (AUT)","6151061","2023-02-16 05:00","2023","02","16","05:00","5.4","","1.8","","78","","","","26","","8","","","","100.79","","","","","","NA"
"-79.80","43.30","BURLINGTON PIERS (AUT)","6151061","2023-02-16 06:00","2023","02","16","06:00","5.2","","1.3","","76","","","","29","","9","","","","100.75","","","","","","NA"
"-79.80","43.30","BURLINGTON PIERS (AUT)","6151061","2023-02-16 07:00","2023","02","16","07:00","4.9","","2.0","","82","","","","27","","6","","","","100.82","","","","","","NA"
"-79.80","43.30","BURLINGTON PIERS (AUT)","6151061","2023-02-16 08:00","2023","02","16","08:00","3.7","","0.4","","79","","","","33","","15","","","","100.79","","","","","","NA"
"-79.80","43.30","BURLINGTON PIERS (AUT)","6151061","2023-02-16 09:00","2023","02","16","09:00","3.2","","0.4","","81","","","","32","","14","","","","100.86","","","","","","NA"
"-79.80","43.30","BURLINGTON PIERS (AUT)","6151061","2023-02-16 10:00","2023","02","16","10:00","3.4","","0.2","","79","","","","22","","3","","","","100.89","","","","","","NA"
"-79.80","43.30","BURLINGTON PIERS (AUT)","6151061","2023-02-16 11:00","2023","02","16","11:00","3.4","","0.0","","78","","","","31","","4","","","","100.91","","","","","","NA"
"-79.80","43.30","BURLINGTON PIERS (AUT)","6151061","2023-02-16 12:00","2023","02","16","12:00","2.8","","0.4","","84","","","","3","","17","","","","100.78","","","","","","NA"
"-79.80","43.30","BURLINGTON PIERS (AUT)","6151061","2023-02-16 13:00","2023","02","16","13:00","2.6","","0.3","","84","","","","5","","18","","","","100.65","","","","","","NA"
"-79.80","43.30","BURLINGTON PIERS (AUT)","6151061","2023-02-16 14:00","2023","02","16","14:00","2.2","","0.8","","90","","","","5","","19","","","","100.55","","","","","","NA"
"-79.80","43.30","BURLINGTON PIERS (AUT)","6151061","2023-02-16 15:00","2023","02","16","15:00","2.0","","0.2","","88","","","","5","","20","","","","100.47","","","","","","NA"
"-79.80","43.30","BURLINGTON PIERS (AUT)","6151061","2023-02-16 16:00","2023","02","16","16:00","2.0","","0.6","","90","","","","6","","26","","","","100.38","","","","","","NA"
"-79.80","43.30","BURLINGTON PIERS (AUT)","6151061","2023-02-16 17:00","2023","02","16","17:00","1.8","","0.7","","92","","","","6","","30","","","","100.27","","","","","","NA"
"-79.80","43.30","BURLINGTON PIERS (AUT)","6151061","2023-02-16 18:00","2023","02","16","18:00","1.2","","1.2","","100","","","","4","","32","","","","100.25","","","","","","NA"
"-79.80","43.30","BURLINGTON PIERS (AUT)","6151061","2023-02-16 19:00","2023","02","16","19:00","0.7","","0.7","","102","","","","3","","30","","","","100.21","","","","","","NA"
"-79.80","43.30","BURLINGTON PIERS (AUT)","6151061","2023-02-16 20:00","2023","02","16","20:00","0.1","","","M","104","","","","2","","28","","","","100.07","","","","","","NA"
"-79.80","43.30","BURLINGTON PIERS (AUT)","6151061","2023-02-16 21:00","2023","02","16","21:00","0.6","","","M","105","","","","4","","30","","","","99.92","","","","","","NA"
"-79.80","43.30","BURLINGTON PIERS (AUT)","6151061","2023-02-16 22:00","2023","02","16","22:00","0.8","","","M","107","","","","2","","32","","","","99.81","","","","","","NA"
"-79.80","43.30","BURLINGTON PIERS (AUT)","6151061","2023-02-16 23:00","2023","02","16","23:00","0.7","","","M","106","","","","2","","25","","","","99.66","","","","","","NA"
"-79.80","43.30","BURLINGTON PIERS (AUT)","6151061","2023-02-17 00:00","2023","02","17","00:00","0.8","","","M","104","","","","2","","27","","","","99.51","","","","","","NA"
"-79.80","43.30","BURLINGTON PIERS (AUT)","6151061","2023-02-17 01:00","2023","02","17","01:00","0.8","","","M","107","","","","2","","24","","","","99.38","","","","","","NA"
"-79.80","43.30","BURLINGTON PIERS (AUT)","6151061","2023-02-17 02:00","2023","02","17","02:00","1.2","","","M","104","","","","3","","31","","","","99.34","","","","","","NA"
"-79.80","43.30","BURLINGTON PIERS (AUT)","6151061","2023-02-17 03:00","2023","02","17","03:00","0.8","","0.8","","102","","","","1","","25","","","","99.38","","","","","","NA"
"-79.80","43.30","BURLINGTON PIERS (AUT)","6151061","2023-02-17 04:00","2023","02","17","04:00","0.0","","0.0","","103","","","","34","","23","","","","99.45","","","","-6","","NA"
"-79.80","43.30","BURLINGTON PIERS (AUT)","6151061","2023-02-17 05:00","2023","02","17","05:00","-1.2","","-2.4","","92","","","","34","","30","","","","99.63","","","","-8","","NA"
"-79.80","43.30","BURLINGTON PIERS (AUT)","6151061","2023-02-17 06:00","2023","02","17","06:00","-2.0","","-2.8","","94","","","","32","","22","","","","99.84","","","","-8","","NA"
"-79.80","43.30","BURLINGTON PIERS (AUT)","6151061","2023-02-17 07:00","2023","02","17","07:00","-2.2","","-5.6","","78","","","","32","","27","","","","99.98","","","","-9","","NA"
"-79.80","43.30","BURLINGTON PIERS (AUT)","6151061","2023-02-17 08:00","2023","02","17","08:00","-3.3","","-5.9","","82","","","","32","","19","","","","100.16","","","","-9","","NA"
"-79.80","43.30","BURLINGTON PIERS (AUT)","6151061","2023-02-17 09:00","2023","02","17","09:00","-3.8","","-8.3","","71","","","","34","","23","","","","100.28","","","","-11","","NA"
"-79.80","43.30","BURLINGTON PIERS (AUT)","6151061","2023-02-17 10:00","2023","02","17","10:00","-3.8","","-7.9","","73","","","","31","","23","","","","100.40","","","","-11","","NA"
"-79.80","43.30","BURLINGTON PIERS (AUT)","6151061","2023-02-17 11:00","2023","02","17","11:00","-3.3","","-7.3","","74","","","","32","","20","","","","100.48","","","","-9","","NA"
"-79.80","43.30","BURLINGTON PIERS (AUT)","6151061","2023-02-17 12:00","2023","02","17","12:00","-2.8","","-6.9","","73","","","","29","","13","","","","100.56","","","","-7","","NA"
"-79.80","43.30","BURLINGTON PIERS (AUT)","6151061","2023-02-17 13:00","2023","02","17","13:00","-3.1","","-8.0","","69","","","","30","","20","","","","100.61","","","","-9","","NA"
"-79.80","43.30","BURLINGTON PIERS (AUT)","6151061","2023-02-17 14:00","2023","02","17","14:00","-3.5","","-8.3","","69","","","","29","","22","","","","100.69","","","","-10","","NA"
"-79.80","43.30","BURLINGTON PIERS (AUT)","6151061","2023-02-17 15:00","2023","02","17","15:00","-3.7","","-9.1","","66","","","","29","","24","","","","100.82","","","","-11","","NA"
"-79.80","43.30","BURLINGTON PIERS (AUT)","6151061","2023-02-17 16:00","2023","02","17","16:00","-4.2","","-9.5","","66","","","","29","","22","","","","100.92","","","","-11","","NA"
"-79.80","43.30","BURLINGTON PIERS (AUT)","6151061","2023-02-17 17:00","2023","02","17","17:00","-4.7","","-10.1","","66","","","","28","","19","","","","101.06","","","","-11","","NA"
"-79.80","43.30","BURLINGTON PIERS (AUT)","6151061","2023-02-17 18:00","2023","02","17","18:00","-5.9","","-11.6","","64","","","","29","","23","","","","101.20","","","","-13","","NA"
"-79.80","43.30","BURLINGTON PIERS (AUT)","6151061","2023-02-17 19:00","2023","02","17","19:00","-6.5","","-11.7","","67","","","","27","","19","","","","101.31","","","","-13","","NA"
"-79.80","43.30","BURLINGTON PIERS (AUT)","6151061","2023-02-17 20:00","2023","02","17","20:00","-6.8","","-12.1","","66","","","","31","","15","","","","101.39","","","","-13","","NA"
"-79.80","43.30","BURLINGTON PIERS (AUT)","6151061","2023-02-17 21:00","2023","02","17","21:00","-6.8","","-11.2","","71","","","","29","","11","","","","101.44","","","","-12","","NA"
"-79.80","43.30","BURLINGTON PIERS (AUT)","6151061","2023-02-17 22:00","2023","02","17","22:00","-7.0","","-9.9","","80","","","","28","","12","","","","101.52","","","","-12","","NA"
"-79.80","43.30","BURLINGTON PIERS (AUT)","6151061","2023-02-17 23:00","2023","02","17","23:00","-6.1","","-8.6","","83","","","","25","","9","","","","101.51","","","","-10","","NA"
"-79.80","43.30","BURLINGTON PIERS (AUT)","6151061","2023-02-18 00:00","2023","02","18","00:00","-5.8","","-8.5","","81","","","","24","","11","","","","101.52","","","","-11","","NA"
"-79.80","43.30","BURLINGTON PIERS (AUT)","6151061","2023-02-18 01:00","2023","02","18","01:00","-5.2","","-7.3","","85","","","","22","","13","","","","101.53","","","","-10","","NA"
"-79.80","43.30","BURLINGTON PIERS (AUT)","6151061","2023-02-18 02:00","2023","02","18","02:00","-6.0","","-8.3","","84","","","","21","","17","","","","101.55","","","","-12","","NA"
"-79.80","43.30","BURLINGTON PIERS (AUT)","6151061","2023-02-18 03:00","2023","02","18","03:00","-6.0","","-8.6","","82","","","","20","","14","","","","101.53","","","","-12","","NA"
"-79.80","43.30","BURLINGTON PIERS (AUT)","6151061","2023-02-18 04:00","2023","02","18","04:00","-5.8","","-7.9","","85","","","","20","","17","","","","101.46","","","","-12","","NA"
"-79.80","43.30","BURLINGTON PIERS (AUT)","6151061","2023-02-18 05:00","2023","02","18","05:00","-4.7","","-6.8","","85","","","","22","","16","","","","101.42","","","","-10","","NA"
"-79.80","43.30","BURLINGTON PIERS (AUT)","6151061","2023-02-18 06:00","2023","02","18","06:00","-3.9","","-6.0","","85","","","","21","","20","","","","101.42","","","","-10","","NA"
"-79.80","43.30","BURLINGTON PIERS (AUT)","6151061","2023-02-18 07:00","2023","02","18","07:00","-3.5","","-6.2","","82","","","","20","","18","","","","101.39","","","","-9","","NA"
"-79.80","43.30","BURLINGTON PIERS (AUT)","6151061","2023-02-18 08:00","2023","02","18","08:00","-2.7","","-5.4","","82","","","","20","","18","","","","101.38","","","","-8","","NA"
"-79.80","43.30","BURLINGTON PIERS (AUT)","6151061","2023-02-18 09:00","2023","02","18","09:00","-0.9","","-6.3","","67","","","","20","","24","","","","101.33","","","","-7","","NA"
"-79.80","43.30","BURLINGTON PIERS (AUT)","6151061","2023-02-18 10:00","2023","02","18","10:00","0.2","","-6.3","","61","","","","21","","24","","","","101.32","","","","","","NA"
"-79.80","43.30","BURLINGTON PIERS (AUT)","6151061","2023-02-18 11:00","2023","02","18","11:00","1.4","","-5.3","","61","","","","21","","24","","","","101.33","","","","","","NA"
"-79.80","43.30","BURLINGTON PIERS (AUT)","6151061","2023-02-18 12:00","2023","02","18","12:00","1.9","","-2.8","","71","","","","23","","19","","","","101.31","","","","","","NA"
"-79.80","43.30","BURLINGTON PIERS (AUT)","6151061","2023-02-18 13:00","2023","02","18","13:00","2.3","","-3.6","","65","","","","21","","20","","","","101.25","","","","","","NA"
"-79.80","43.30","BURLINGTON PIERS (AUT)","6151061","2023-02-18 14:00","2023","02","18","14:00","2.7","","-3.9","","62","","","","22","","16","","","","101.23","","","","","","NA"
"-79.80","43.30","BURLINGTON PIERS (AUT)","6151061","2023-02-18 15:00","2023","02","18","15:00","2.9","","-3.0","","66","","","","21","","20","","","","101.21","","","","","","NA"
"-79.80","43.30","BURLINGTON PIERS (AUT)","6151061","2023-02-18 16:00","2023","02","18","16:00","3.3","","-2.3","","67","","","","21","","16","","","","101.24","","","","","","NA"
"-79.80","43.30","BURLINGTON PIERS (AUT)","6151061","2023-02-18 17:00","2023","02","18","17:00","3.6","","-2.9","","62","","","","20","","20","","","","101.31","","","","","","NA"
"-79.80","43.30","BURLINGTON PIERS (AUT)","6151061","2023-02-18 18:00","2023","02","18","18:00","3.4","","-2.7","","64","","","","21","","14","","","","101.36","","","","","","NA"
"-79.80","43.30","BURLINGTON PIERS (AUT)","6151061","2023-02-18 19:00","2023","02","18","19:00","3.0","","-2.4","","67","","","","22","","6","","","","101.47","","","","","","NA"
"-79.80","43.30","BURLINGTON PIERS (AUT)","6151061","2023-02-18 20:00","2023","02","18","20:00","2.5","","-3.0","","67","","","","19","","2","","","","101.47","","","","","","NA"
"-79.80","43.30","BURLINGTON PIERS (AUT)","6151061","2023-02-18 21:00","2023","02","18","21:00","2.6","","-2.7","","68","","","","19","","7","","","","101.47","","","","","","NA"
"-79.80","43.30","BURLINGTON PIERS (AUT)","6151061","2023-02-18 22:00","2023","02","18","22:00","2.2","","-2.2","","73","","","","23","","4","","","","101.45","","","","","","NA"
"-79.80","43.30","BURLINGTON PIERS (AUT)","6151061","2023-02-18 23:00","2023","02","18","23:00","2.7","","-2.2","","70","","","","24","","4","","","","101.40","","","","","","NA"
"-79.80","43.30","BURLINGTON PIERS (AUT)","6151061","2023-02-19 00:00","2023","02","19","00:00","2.6","","-2.0","","72","","","","22","","5","","","","101.37","","","","","","NA"
"-79.80","43.30","BURLINGTON PIERS (AUT)","6151061","2023-02-19 01:00","2023","02","19","01:00","3.0","","-2.7","","66","","","","22","","9","","","","101.37","","","","","","NA"
"-79.80","43.30","BURLINGTON PIERS (AUT)","6151061","2023-02-19 02:00","2023","02","19","02:00","2.9","","-1.9","","71","","","","22","","7","","","","101.35","","","","","","NA"
"-79.80","43.30","BURLINGTON PIERS (AUT)","6151061","2023-02-19 03:00","2023","02","19","03:00","2.9","","-3.0","","65","","","","21","","11","","","","101.27","","","","","","NA"
"-79.80","43.30","BURLINGTON PIERS (AUT)","6151061","2023-02-19 04:00","2023","02","19","04:00","2.9","","-2.3","","69","","","","20","","13","","","","101.21","","","","","","NA"
"-79.80","43.30","BURLINGTON PIERS (AUT)","6151061","2023-02-19 05:00","2023","02","19","05:00","2.8","","-2.8","","66","","","","18","","13","","","","101.09","","","","","","NA"
"-79.80","43.30","BURLINGTON PIERS (AUT)","6151061","2023-02-19 06:00","2023","02","19","06:00","2.9","","-3.0","","65","","","","23","","8","","","","101.06","","","","","","NA"
"-79.80","43.30","BURLINGTON PIERS (AUT)","6151061","2023-02-19 07:00","2023","02","19","07:00","3.1","","-3.3","","63","","","","16","","24","","","","100.91","","","","","","NA"
"-79.80","43.30","BURLINGTON PIERS (AUT)","6151061","2023-02-19 08:00","2023","02","19","08:00","3.5","","-4.1","","58","","","","16","","26","","","","100.87","","","","","","NA"
"-79.80","43.30","BURLINGTON PIERS (AUT)","6151061","2023-02-19 09:00","2023","02","19","09:00","3.9","","-4.6","","54","","","","16","","20","","","","100.70","","","","","","NA"
"-79.80","43.30","BURLINGTON PIERS (AUT)","6151061","2023-02-19 10:00","2023","02","19","10:00","4.6","","-3.8","","54","","","","17","","18","","","","100.59","","","","","","NA"
"-79.80","43.30","BURLINGTON PIERS (AUT)","6151061","2023-02-19 11:00","2023","02","19","11:00","6.5","","-2.4","","53","","","","20","","16","","","","100.45","","","","","","NA"
"-79.80","43.30","BURLINGTON PIERS (AUT)","6151061","2023-02-19 12:00","2023","02","19","12:00","7.0","","-1.2","","56","","","","20","","25","","","","100.32","","","","","","NA"
"-79.80","43.30","BURLINGTON PIERS (AUT)","6151061","2023-02-19 13:00","2023","02","19","13:00","8.3","","-3.9","","42","","","","19","","22","","","","100.09","","","","","","NA"
"-79.80","43.30","BURLINGTON PIERS (AUT)","6151061","2023-02-19 14:00","2023","02","19","14:00","9.3","","-3.7","","40","","","","20","","23","","","","99.97","","","","","","NA"
"-79.80","43.30","BURLINGTON PIERS (AUT)","6151061","2023-02-19 15:00","2023","02","19","15:00","8.9","","-3.6","","41","","","","21","","31","","","","99.90","","","","","","NA"
"-79.80","43.30","BURLINGTON PIERS (AUT)","6151061","2023-02-19 16:00","2023","02","19","16:00","8.9","","-4.3","","39","","","","21","","31","","","","99.89","","","","","","NA"
"-79.80","43.30","BURLINGTON PIERS (AUT)","6151061","2023-02-19 17:00","2023","02","19","17:00","8.9","","-2.7","","44","","","","21","","22","","","","99.86","","","","","","NA"
"-79.80","43.30","BURLINGTON PIERS (AUT)","6151061","2023-02-19 18:00","2023","02","19","18:00","9.0","","-1.9","","47","","","","21","","22","","","","99.85","","","","","","NA"
"-79.80","43.30","BURLINGTON PIERS (AUT)","6151061","2023-02-19 19:00","2023","02","19","19:00","8.7","","-2.4","","46","","","","21","","19","","","","99.88","","","","","","NA"
"-79.80","43.30","BURLINGTON PIERS (AUT)","6151061","2023-02-19 20:00","2023","02","19","20:00","7.5","","-2.2","","50","","","","22","","13","","","","99.85","","","","","","NA"
"-79.80","43.30","BURLINGTON PIERS (AUT)","6151061","2023-02-19 21:00","2023","02","19","21:00","7.2","","-2.0","","52","","","","23","","11","","","","99.85","","","","","","NA"
"-79.80","43.30","BURLINGTON PIERS (AUT)","6151061","2023-02-19 22:00","2023","02","19","22:00","7.5","","-1.8","","52","","","","23","","13","","","","99.82","","","","","","NA"
"-79.80","43.30","BURLINGTON PIERS (AUT)","6151061","2023-02-19 23:00","2023","02","19","23:00","7.2","","-1.4","","55","","","","23","","8","","","","99.76","","","","","","NA"
"-79.80","43.30","BURLINGTON PIERS (AUT)","6151061","2023-02-20 00:00","2023","02","20","00:00","6.6","","-0.8","","59","","","","23","","5","","","","99.73","","","","","","NA"
"-79.80","43.30","BURLINGTON PIERS (AUT)","6151061","2023-02-20 01:00","2023","02","20","01:00","6.4","","-1.1","","59","","","","24","","3","","","","99.64","","","","","","NA"
"-79.80","43.30","BURLINGTON PIERS (AUT)","6151061","2023-02-20 02:00","2023","02","20","02:00","5.8","","-0.3","","65","","","","23","","6","","","","99.64","","","","","","NA"
"-79.80","43.30","BURLINGTON PIERS (AUT)","6151061","2023-02-20 03:00","2023","02","20","03:00","5.4","","-0.8","","64","","","","22","","6","","","","99.56","","","","","","NA"
"-79.80","43.30","BURLINGTON PIERS (AUT)","6151061","2023-02-20 04:00","2023","02","20","04:00","5.1","","-0.5","","67","","","","23","","6","","","","99.55","","","","","","NA"
"-79.80","43.30","BURLINGTON PIERS (AUT)","6151061","2023-02-20 05:00","2023","02","20","05:00","4.7","","-0.7","","68","","","","23","","8","","","","99.56","","","","","","NA"
"-79.80","43.30","BURLINGTON PIERS (AUT)","6151061","2023-02-20 06:00","2023","02","20","06:00","4.7","","-0.4","","70","","","","24","","10","","","","99.63","","","","","","NA"
"-79.80","43.30","BURLINGTON PIERS (AUT)","6151061","2023-02-20 07:00","2023","02","20","07:00","4.6","","-0.5","","69","","","","25","","8","","","","99.69","","","","","","NA"
"-79.80","43.30","BURLINGTON PIERS (AUT)","6151061","2023-02-20 08:00","2023","02","20","08:00","4.0","","1.2","","82","","","","28","","8","","","","99.79","","","","","","NA"
"-79.80","43.30","BURLINGTON PIERS (AUT)","6151061","2023-02-20 09:00","2023","02","20","09:00","4.5","","1.1","","79","","","","29","","14","","","","99.83","","","","","","NA"
"-79.80","43.30","BURLINGTON PIERS (AUT)","6151061","2023-02-20 10:00","2023","02","20","10:00","4.8","","-1.2","","65","","","","30","","17","","","","99.86","","","","","","NA"
"-79.80","43.30","BURLINGTON PIERS (AUT)","6151061","2023-02-20 11:00","2023","02","20","11:00","4.8","","-5.9","","46","","","","30","","14","","","","99.92","","","","","","NA"
"-79.80","43.30","BURLINGTON PIERS (AUT)","6151061","2023-02-20 12:00","2023","02","20","12:00","5.2","","-6.0","","44","","","","28","","14","","","","99.92","","","","","","NA"
"-79.80","43.30","BURLINGTON PIERS (AUT)","6151061","2023-02-20 13:00","2023","02","20","13:00","4.8","","-6.5","","44","","","","29","","16","","","","99.91","","","","","","NA"
"-79.80","43.30","BURLINGTON PIERS (AUT)","6151061","2023-02-20 14:00","2023","02","20","14:00","5.1","","-5.8","","45","","","","28","","12","","","","99.84","","","","","","NA"
"-79.80","43.30","BURLINGTON PIERS (AUT)","6151061","2023-02-20 15:00","2023","02","20","15:00","5.5","","-5.0","","47","","","","27","","8","","","","99.79","","","","","","NA"
"-79.80","43.30","BURLINGTON PIERS (AUT)","6151061","2023-02-20 16:00","2023","02","20","16:00","5.3","","-4.5","","49","","","","29","","12","","","","99.80","","","","","","NA"
"-79.80","43.30","BURLINGTON PIERS (AUT)","6151061","2023-02-20 17:00","2023","02","20","17:00","4.7","","-5.7","","47","","","","31","","16","","","","99.79","","","","","","NA"
"-79.80","43.30","BURLINGTON PIERS (AUT)","6151061","2023-02-20 18:00","2023","02","20","18:00","4.1","","-5.5","","50","","","","31","","13","","","","99.80","","","","","","NA"
"-79.80","43.30","BURLINGTON PIERS (AUT)","6151061","2023-02-20 19:00","2023","02","20","19:00","3.4","","-3.5","","60","","","","33","","16","","","","99.82","","","","","","NA"
"-79.80","43.30","BURLINGTON PIERS (AUT)","6151061","2023-02-20 20:00","2023","02","20","20:00","2.6","","-3.6","","64","","","","36","","15","","","","99.79","","","","","","NA"
"-79.80","43.30","BURLINGTON PIERS (AUT)","6151061","2023-02-20 21:00","2023","02","20","21:00","1.9","","-3.9","","65","","","","36","","7","","","","99.74","","","","","","NA"
"-79.80","43.30","BURLINGTON PIERS (AUT)","6151061","2023-02-20 22:00","2023","02","20","22:00","1.1","","-3.6","","71","","","","35","","14","","","","99.71","","","","","","NA"
"-79.80","43.30","BURLINGTON PIERS (AUT)","6151061","2023-02-20 23:00","2023","02","20","23:00","0.5","","-4.1","","71","","","","35","","13","","","","99.67","","","","","","NA"
"-79.80","43.30","BURLINGTON PIERS (AUT)","6151061","2023-02-21 00:00","2023","02","21","00:00","0.0","","-4.2","","73","","","","36","","12","","","","99.63","","","","-4","","NA"
"-79.80","43.30","BURLINGTON PIERS (AUT)","6151061","2023-02-21 01:00","2023","02","21","01:00","-0.1","","-3.5","","78","","","","2","","11","","","","99.57","","","","-4","","NA"
"-79.80","43.30","BURLINGTON PIERS (AUT)","6151061","2023-02-21 02:00","2023","02","21","02:00","1.5","","-2.6","","74","","","","8","","18","","","","99.51","","","","","","NA"
"-79.80","43.30","BURLINGTON PIERS (AUT)","6151061","2023-02-21 03:00","2023","02","21","03:00","1.3","","-2.6","","75","","","","8","","23","","","","99.31","","","","","","NA"
"-79.80","43.30","BURLINGTON PIERS (AUT)","6151061","2023-02-21 04:00","2023","02","21","04:00","1.3","","-2.2","","78","","","","9","","23","","","","99.21","","","","","","NA"
"-79.80","43.30","BURLINGTON PIERS (AUT)","6151061","2023-02-21 05:00","2023","02","21","05:00","0.5","","-2.3","","81","","","","10","","18","","","","99.11","","","","","","NA"
"-79.80","43.30","BURLINGTON PIERS (AUT)","6151061","2023-02-21 06:00","2023","02","21","06:00","0.6","","-2.2","","81","","","","10","","13","","","","98.98","","","","","","NA"
"-79.80","43.30","BURLINGTON PIERS (AUT)","6151061","2023-02-21 07:00","2023","02","21","07:00","0.5","","-1.8","","85","","","","11","","7","","","","98.92","","","","","","NA"
"-79.80","43.30","BURLINGTON PIERS (AUT)","6151061","2023-02-21 08:00","2023","02","21","08:00","0.7","","-1.6","","85","","","","12","","9","","","","98.83","","","","","","NA"
"-79.80","43.30","BURLINGTON PIERS (AUT)","6151061","2023-02-21 09:00","2023","02","21","09:00","1.8","","-1.7","","77","","","","15","","13","","","","98.71","","","","","","NA"
"-79.80","43.30","BURLINGTON PIERS (AUT)","6151061","2023-02-21 10:00","2023","02","21","10:00","4.1","","-0.9","","70","","","","23","","11","","","","98.70","","","","","","NA"
"-79.80","43.30","BURLINGTON PIERS (AUT)","6151061","2023-02-21 11:00","2023","02","21","11:00","5.5","","-1.4","","61","","","","25","","21","","","","98.76","","","","","","NA"
"-79.80","43.30","BURLINGTON PIERS (AUT)","6151061","2023-02-21 12:00","2023","02","21","12:00","5.5","","-2.1","","58","","","","25","","18","","","","98.85","","","","","","NA"
"-79.80","43.30","BURLINGTON PIERS (AUT)","6151061","2023-02-21 13:00","2023","02","21","13:00","4.3","","-4.5","","53","","","","28","","29","","","","98.99","","","","","","NA"
"-79.80","43.30","BURLINGTON PIERS (AUT)","6151061","2023-02-21 14:00","2023","02","21","14:00","3.7","","-6.3","","48","","","","26","","22","","","","99.21","","","","","","NA"
"-79.80","43.30","BURLINGTON PIERS (AUT)","6151061","2023-02-21 15:00","2023","02","21","15:00","3.2","","-4.1","","59","","","","27","","25","","","","99.36","","","","","","NA"
"-79.80","43.30","BURLINGTON PIERS (AUT)","6151061","2023-02-21 16:00","2023","02","21","16:00","2.7","","-2.2","","70","","","","26","","14","","","","99.56","","","","","","NA"
"-79.80","43.30","BURLINGTON PIERS (AUT)","6151061","2023-02-21 17:00","2023","02","21","17:00","1.9","","-4.6","","62","","","","25","","22","","","","99.74","","","","","","NA"
"-79.80","43.30","BURLINGTON PIERS (AUT)","6151061","2023-02-21 18:00","2023","02","21","18:00","1.8","","-5.2","","60","","","","25","","11","","","","99.88","","","","","","NA"
"-79.80","43.30","BURLINGTON PIERS (AUT)","6151061","2023-02-21 19:00","2023","02","21","19:00","1.7","","-5.2","","60","","","","24","","13","","","","100.04","","","","","","NA"
"-79.80","43.30","BURLINGTON PIERS (AUT)","6151061","2023-02-21 20:00","2023","02","21","20:00","1.6","","-5.4","","60","","","","24","","11","","","","100.18","","","","","","NA"
"-79.80","43.30","BURLINGTON PIERS (AUT)","6151061","2023-02-21 21:00","2023","02","21","21:00","1.5","","-5.1","","61","","","","28","","12","","","","100.30","","","","","","NA"
"-79.80","43.30","BURLINGTON PIERS (AUT)","6151061","2023-02-21 22:00","2023","02","21","22:00","1.5","","-5.3","","61","","","","25","","16","","","","100.43","","","","","","NA"
"-79.80","43.30","BURLINGTON PIERS (AUT)","6151061","2023-02-21 23:00","2023","02","21","23:00","1.2","","-5.1","","62","","","","26","","13","","","","100.46","","","","","","NA"
"-79.80","43.30","BURLINGTON PIERS (AUT)","6151061","2023-02-22 00:00","2023","02","22","00:00","0.9","","-4.3","","68","","","","27","","7","","","","100.54","","","","","","NA"
"-79.80","43.30","BURLINGTON PIERS (AUT)","6151061","2023-02-22 01:00","2023","02","22","01:00","0.6","","-4.8","","67","","","","30","","9","","","","100.60","","","","","","NA"
"-79.80","43.30","BURLINGTON PIERS (AUT)","6151061","2023-02-22 02:00","2023","02","22","02:00","0.6","","-5.2","","65","","","","29","","8","","","","100.72","","","","","","NA"
"-79.80","43.30","BURLINGTON PIERS (AUT)","6151061","2023-02-22 03:00","2023","02","22","03:00","0.4","","-6.0","","62","","","","33","","10","","","","100.71","","","","","","NA"
"-79.80","43.30","BURLINGTON PIERS (AUT)","6151061","2023-02-22 04:00","2023","02","22","04:00","0.1","","-6.6","","61","","","","34","","11","","","","100.70","","","","","","NA"
"-79.80","43.30","BURLINGTON PIERS (AUT)","6151061","2023-02-22 05:00","2023","02","22","05:00","0.0","","-6.3","","63","","","","1","","15","","","","100.77","","","","-4","","NA"
"-79.80","43.30","BURLINGTON PIERS (AUT)","6151061","2023-02-22 06:00","2023","02","22","06:00","-0.2","","-6.8","","61","","","","2","","16","","","","100.84","","","","-5","","NA"
"-79.80","43.30","BURLINGTON PIERS (AUT)","6151061","2023-02-22 07:00","2023","02","22","07:00","-0.1","","-7.7","","57","","","","3","","28","","","","100.73","","","","-6","","NA"
"-79.80","43.30","BURLINGTON PIERS (AUT)","6151061","2023-02-22 08:00","2023","02","22","08:00","-0.2","","-4.8","","71","","","","5","","33","","","","100.85","","","","-7","","NA"
"-79.80","43.30","BURLINGTON PIERS (AUT)","6151061","2023-02-22 09:00","2023","02","22","09:00","-0.2","","-4.0","","75","","","","5","","32","","","","100.94","","","","-7","","NA"
"-79.80","43.30","BURLINGTON PIERS (AUT)","6151061","2023-02-22 10:00","2023","02","22","10:00","-0.4","","-3.8","","78","","","","6","","37","","","","100.97","","","","-8","","NA"
"-79.80","43.30","BURLINGTON PIERS (AUT)","6151061","2023-02-22 11:00","2023","02","22","11:00","-0.2","","-2.2","","86","","","","6","","38","","","","100.93","","","","-7","","NA"
"-79.80","43.30","BURLINGTON PIERS (AUT)","6151061","2023-02-22 12:00","2023","02","22","12:00","0.1","","-2.8","","81","","","","6","","39","","","","100.91","","","","","","NA"
"-79.80","43.30","BURLINGTON PIERS (AUT)","6151061","2023-02-22 13:00","2023","02","22","13:00","-0.2","","-2.1","","87","","","","6","","39","","","","100.84","","","","-8","","NA"
"-79.80","43.30","BURLINGTON PIERS (AUT)","6151061","2023-02-22 14:00","2023","02","22","14:00","-0.7","","-2.1","","90","","","","5","","48","","","","100.70","","","","-9","","NA"
"-79.80","43.30","BURLINGTON PIERS (AUT)","6151061","2023-02-22 15:00","2023","02","22","15:00","-1.4","","-2.8","","90","","","","6","","49","","","","100.65","","","","-10","","NA"
"-79.80","43.30","BURLINGTON PIERS (AUT)","6151061","2023-02-22 16:00","2023","02","22","16:00","-1.7","","-3.0","","91","","","","5","","51","","","","100.63","","","","-11","","NA"
"-79.80","43.30","BURLINGTON PIERS (AUT)","6151061","2023-02-22 17:00","2023","02","22","17:00","-1.9","","-2.5","","95","","","","5","","51","","","","100.61","","","","-11","","NA"
"-79.80","43.30","BURLINGTON PIERS (AUT)","6151061","2023-02-22 18:00","2023","02","22","18:00","-2.1","","-2.1","","102","","","","5","","56","","","","100.41","","","","-11","","NA"
"-79.80","43.30","BURLINGTON PIERS (AUT)","6151061","2023-02-22 19:00","2023","02","22","19:00","-1.7","","-1.7","","102","","","","5","","52","","","","100.43","","","","-11","","NA"
"-79.80","43.30","BURLINGTON PIERS (AUT)","6151061","2023-02-22 20:00","2023","02","22","20:00","-1.8","","","M","105","","","","5","","53","","","","100.32","","","","-11","","NA"
"-79.80","43.30","BURLINGTON PIERS (AUT)","6151061","2023-02-22 21:00","2023","02","22","21:00","-2.0","","-2.0","","100","","","","5","","51","","","","100.18","","","","-11","","NA"
"-79.80","43.30","BURLINGTON PIERS (AUT)","6151061","2023-02-22 22:00","2023","02","22","22:00","-2.5","","","M","106","","","","4","","49","","","","100.17","","","","-11","","NA"
"-79.80","43.30","BURLINGTON PIERS (AUT)","6151061","2023-02-22 23:00","2023","02","22","23:00","-2.9","","-2.9","","102","","","","3","","56","","","","100.14","","","","-13","","NA"
"-79.80","43.30","BURLINGTON PIERS (AUT)","6151061","2023-02-23 00:00","2023","02","23","00:00","-3.0","","-4.0","","93","","","","4","","54","","","","100.01","","","","-13","","NA"
"-79.80","43.30","BURLINGTON PIERS (AUT)","6151061","2023-02-23 01:00","2023","02","23","01:00","-2.9","","-3.4","","96","","","","3","","50","","","","100.05","","","","-12","","NA"
"-79.80","43.30","BURLINGTON PIERS (AUT)","6151061","2023-02-23 02:00","2023","02","23","02:00","-3.9","","-3.9","","100","","","","2","","36","","","","100.02","","","","-12","","NA"
"-79.80","43.30","BURLINGTON PIERS (AUT)","6151061","2023-02-23 03:00","2023","02","23","03:00","-5.4","","-5.6","","99","","","","1","","29","","","","100.08","","","","-13","","NA"
"-79.80","43.30","BURLINGTON PIERS (AUT)","6151061","2023-02-23 04:00","2023","02","23","04:00","-5.5","","-5.9","","98","","","","36","","26","","","","100.12","","","","-13","","NA"
"-79.80","43.30","BURLINGTON PIERS (AUT)","6151061","2023-02-23 05:00","2023","02","23","05:00","-5.8","","-6.8","","92","","","","36","","25","","","","100.22","","","","-13","","NA"
"-79.80","43.30","BURLINGTON PIERS (AUT)","6151061","2023-02-23 06:00","2023","02","23","06:00","-6.4","","-7.5","","92","","","","35","","24","","","","100.37","","","","-14","","NA"
"-79.80","43.30","BURLINGTON PIERS (AUT)","6151061","2023-02-23 07:00","2023","02","23","07:00","-6.1","","-8.3","","85","","","","1","","21","","","","100.44","","","","-13","","NA"
"-79.80","43.30","BURLINGTON PIERS (AUT)","6151061","2023-02-23 08:00","2023","02","23","08:00","-5.6","","-7.3","","88","","","","1","","19","","","","100.47","","","","-12","","NA"
"-79.80","43.30","BURLINGTON PIERS (AUT)","6151061","2023-02-23 09:00","2023","02","23","09:00","-3.4","","-4.5","","92","","","","6","","22","","","","100.48","","","","-10","","NA"
"-79.80","43.30","BURLINGTON PIERS (AUT)","6151061","2023-02-23 10:00","2023","02","23","10:00","-3.0","","-4.2","","91","","","","6","","25","","","","100.47","","","","-10","","NA"
"-79.80","43.30","BURLINGTON PIERS (AUT)","6151061","2023-02-23 11:00","2023","02","23","11:00","-2.6","","-4.0","","90","","","","8","","24","","","","100.45","","","","-9","","NA"
"-79.80","43.30","BURLINGTON PIERS (AUT)","6151061","2023-02-23 12:00","2023","02","23","12:00","-2.8","","-4.4","","89","","","","8","","20","","","","100.45","","","","-9","","NA"
"-79.80","43.30","BURLINGTON PIERS (AUT)","6151061","2023-02-23 13:00","2023","02","23","13:00","-2.7","","-4.1","","90","","","","8","","18","","","","100.37","","","","-8","","NA"
"-79.80","43.30","BURLINGTON PIERS (AUT)","6151061","2023-02-23 14:00","2023","02","23","14:00","-2.7","","-3.1","","97","","","","7","","17","","","","100.24","","","","-8","","NA"
"-79.80","43.30","BURLINGTON PIERS (AUT)","6151061","2023-02-23 15:00","2023","02","23","15:00","-2.5","","-3.1","","96","","","","9","","15","","","","100.17","","","","-7","","NA"
"-79.80","43.30","BURLINGTON PIERS (AUT)","6151061","2023-02-23 16:00","2023","02","23","16:00","-2.4","","-2.9","","96","","","","7","","9","","","","100.19","","","","-6","","NA"
"-79.80","43.30","BURLINGTON PIERS (AUT)","6151061","2023-02-23 17:00","2023","02","23","17:00","-2.3","","-2.4","","99","","","","8","","6","","","","100.20","","","","-5","","NA"
"-79.80","43.30","BURLINGTON PIERS (AUT)","6151061","2023-02-23 18:00","2023","02","23","18:00","-2.0","","-2.0","","100","","","","3","","5","","","","100.23","","","","-4","","NA"
"-79.80","43.30","BURLINGTON PIERS (AUT)","6151061","2023-02-23 19:00","2023","02","23","19:00","-1.5","","-2.0","","97","","","","25","","2","","","","100.33","","","","-2","","NA"
"-79.80","43.30","BURLINGTON PIERS (AUT)","6151061","2023-02-23 20:00","2023","02","23","20:00","-1.2","","-1.5","","98","","","","20","","4","","","","100.34","","","","-3","","NA"
"-79.80","43.30","BURLINGTON PIERS (AUT)","6151061","2023-02-23 21:00","2023","02","23","21:00","-0.8","","-1.2","","97","","","","25","","3","","","","100.37","","","","-2","","NA"
"-79.80","43.30","BURLINGTON PIERS (AUT)","6151061","2023-02-23 22:00","2023","02","23","22:00","2.5","","0.1","","84","","","","28","","8","","","","100.48","","","","","","NA"
"-79.80","43.30","BURLINGTON PIERS (AUT)","6151061","2023-02-23 23:00","2023","02","23","23:00","3.1","","-1.5","","72","","","","27","","13","","","","100.60","","","","","","NA"
"-79.80","43.30","BURLINGTON PIERS (AUT)","6151061","2023-02-24 00:00","2023","02","24","00:00","2.5","","-1.6","","75","","","","28","","14","","","","100.75","","","","","","NA"
"-79.80","43.30","BURLINGTON PIERS (AUT)","6151061","2023-02-24 01:00","2023","02","24","01:00","1.8","","-2.9","","71","","","","29","","18","","","","100.88","","","","","","NA"
"-79.80","43.30","BURLINGTON PIERS (AUT)","6151061","2023-02-24 02:00","2023","02","24","02:00","1.3","","-3.3","","72","","","","28","","15","","","","101.05","","","","","","NA"
"-79.80","43.30","BURLINGTON PIERS (AUT)","6151061","2023-02-24 03:00","2023","02","24","03:00","0.2","","-5.7","","65","","","","29","","27","","","","101.18","","","","","","NA"
"-79.80","43.30","BURLINGTON PIERS (AUT)","6151061","2023-02-24 04:00","2023","02","24","04:00","-1.7","","-7.2","","66","","","","30","","21","","","","101.39","","","","-8","","NA"
"-79.80","43.30","BURLINGTON PIERS (AUT)","6151061","2023-02-24 05:00","2023","02","24","05:00","-2.9","","-8.4","","66","","","","30","","23","","","","101.58","","","","-9","","NA"
"-79.80","43.30","BURLINGTON PIERS (AUT)","6151061","2023-02-24 06:00","2023","02","24","06:00","-5.0","","-10.9","","63","","","","30","","18","","","","101.81","","","","-11","","NA"
"-79.80","43.30","BURLINGTON PIERS (AUT)","6151061","2023-02-24 07:00","2023","02","24","07:00","-6.5","","-10.0","","76","","","","29","","22","","","","102.00","","","","-14","","NA"
"-79.80","43.30","BURLINGTON PIERS (AUT)","6151061","2023-02-24 08:00","2023","02","24","08:00","-7.8","","-13.3","","65","","","","28","","16","","","","102.20","","","","-14","","NA"
"-79.80","43.30","BURLINGTON PIERS (AUT)","6151061","2023-02-24 09:00","2023","02","24","09:00","-8.1","","-13.5","","65","","","","30","","24","","","","102.31","","","","-16","","NA"
"-79.80","43.30","BURLINGTON PIERS (AUT)","6151061","2023-02-24 10:00","2023","02","24","10:00","-7.6","","-13.4","","63","","","","29","","15","","","","102.37","","","","-14","","NA"
"-79.80","43.30","BURLINGTON PIERS (AUT)","6151061","2023-02-24 11:00","2023","02","24","11:00","-6.7","","-13.8","","57","","","","28","","16","","","","102.48","","","","-13","","NA"
"-79.80","43.30","BURLINGTON PIERS (AUT)","6151061","2023-02-24 12:00","2023","02","24","12:00","-6.3","","-12.8","","60","","","","28","","24","","","","102.51","","","","-14","","NA"
"-79.80","43.30","BURLINGTON PIERS (AUT)","6151061","2023-02-24 13:00","2023","02","24","13:00","-6.1","","-14.6","","51","","","","28","","27","","","","102.55","","","","-14","","NA"
"-79.80","43.30","BURLINGTON PIERS (AUT)","6151061","2023-02-24 14:00","2023","02","24","14:00","-5.4","","-13.3","","54","","","","29","","30","","","","102.57","","","","-14","","NA"
"-79.80","43.30","BURLINGTON PIERS (AUT)","6151061","2023-02-24 15:00","2023","02","24","15:00","-5.6","","-12.1","","60","","","","29","","30","","","","102.61","","","","-14","","NA"
"-79.80","43.30","BURLINGTON PIERS (AUT)","6151061","2023-02-24 16:00","2023","02","24","16:00","-5.3","","-11.1","","64","","","","29","","23","","","","102.64","","","","-12","","NA"
"-79.80","43.30","BURLINGTON PIERS (AUT)","6151061","2023-02-24 17:00","2023","02","24","17:00","-5.5","","-12.6","","57","","","","29","","22","","","","102.68","","","","-13","","NA"
"-79.80","43.30","BURLINGTON PIERS (AUT)","6151061","2023-02-24 18:00","2023","02","24","18:00","-6.1","","-12.4","","61","","","","30","","23","","","","102.76","","","","-13","","NA"
"-79.80","43.30","BURLINGTON PIERS (AUT)","6151061","2023-02-24 19:00","2023","02","24","19:00","-6.3","","-13.0","","59","","","","29","","13","","","","102.82","","","","-12","","NA"
"-79.80","43.30","BURLINGTON PIERS (AUT)","6151061","2023-02-24 20:00","2023","02","24","20:00","-6.7","","-11.6","","68","","","","32","","16","","","","102.84","","","","-13","","NA"
"-79.80","43.30","BURLINGTON PIERS (AUT)","6151061","2023-02-24 21:00","2023","02","24","21:00","-6.7","","-10.9","","72","","","","30","","13","","","","102.86","","","","-12","","NA"
"-79.80","43.30","BURLINGTON PIERS (AUT)","6151061","2023-02-24 22:00","2023","02","24","22:00","-6.9","","-11.1","","72","","","","29","","11","","","","102.83","","","","-12","","NA"
"-79.80","43.30","BURLINGTON PIERS (AUT)","6151061","2023-02-24 23:00","2023","02","24","23:00","-7.0","","-11.1","","72","","","","30","","12","","","","102.79","","","","-12","","NA"
"-79.80","43.30","BURLINGTON PIERS (AUT)","6151061","2023-02-25 00:00","2023","02","25","00:00","-7.2","","-11.2","","73","","","","32","","13","","","","102.75","","","","-13","","NA"
"-79.80","43.30","BURLINGTON PIERS (AUT)","6151061","2023-02-25 01:00","2023","02","25","01:00","-7.3","","-11.5","","72","","","","31","","11","","","","102.63","","","","-12","","NA"
"-79.80","43.30","BURLINGTON PIERS (AUT)","6151061","2023-02-25 02:00","2023","02","25","02:00","-7.3","","-12.3","","67","","","","35","","9","","","","102.55","","","","-12","","NA"
"-79.80","43.30","BURLINGTON PIERS (AUT)","6151061","2023-02-25 03:00","2023","02","25","03:00","-7.4","","-12.9","","64","","","","36","","13","","","","102.43","","","","-13","","NA"
"-79.80","43.30","BURLINGTON PIERS (AUT)","6151061","2023-02-25 04:00","2023","02","25","04:00","-7.2","","-12.1","","68","","","","35","","11","","","","102.30","","","","-12","","NA"
"-79.80","43.30","BURLINGTON PIERS (AUT)","6151061","2023-02-25 05:00","2023","02","25","05:00","-7.2","","-12.6","","65","","","","32","","15","","","","102.28","","","","-13","","NA"
"-79.80","43.30","BURLINGTON PIERS (AUT)","6151061","2023-02-25 06:00","2023","02","25","06:00","-7.2","","-12.1","","68","","","","32","","7","","","","102.19","","","","-11","","NA"
"-79.80","43.30","BURLINGTON PIERS (AUT)","6151061","2023-02-25 07:00","2023","02","25","07:00","-7.8","","-8.9","","92","","","","32","","5","","","","102.12","","","","-10","","NA"
"-79.80","43.30","BURLINGTON PIERS (AUT)","6151061","2023-02-25 08:00","2023","02","25","08:00","-7.1","","-8.7","","88","","","","13","","17","","","","101.98","","","","-14","","NA"
"-79.80","43.30","BURLINGTON PIERS (AUT)","6151061","2023-02-25 09:00","2023","02","25","09:00","-6.4","","-8.3","","87","","","","11","","20","","","","101.76","","","","-13","","NA"
"-79.80","43.30","BURLINGTON PIERS (AUT)","6151061","2023-02-25 10:00","2023","02","25","10:00","-6.1","","-7.3","","91","","","","11","","14","","","","101.68","","","","-12","","NA"
"-79.80","43.30","BURLINGTON PIERS (AUT)","6151061","2023-02-25 11:00","2023","02","25","11:00","-5.5","","-7.8","","83","","","","11","","8","","","","101.57","","","","-9","","NA"
"-79.80","43.30","BURLINGTON PIERS (AUT)","6151061","2023-02-25 12:00","2023","02","25","12:00","-5.3","","-6.6","","91","","","","36","","10","","","","101.53","","","","-10","","NA"
"-79.80","43.30","BURLINGTON PIERS (AUT)","6151061","2023-02-25 13:00","2023","02","25","13:00","-4.5","","-6.1","","89","","","","36","","5","","","","101.43","","","","-7","","NA"
"-79.80","43.30","BURLINGTON PIERS (AUT)","6151061","2023-02-25 14:00","2023","02","25","14:00","-3.8","","-7.0","","78","","","","5","","2","","","","101.34","","","","-5","","NA"
"-79.80","43.30","BURLINGTON PIERS (AUT)","6151061","2023-02-25 15:00","2023","02","25","15:00","-3.4","","-6.7","","78","","","","11","","7","","","","101.26","","","","-6","","NA"
"-79.80","43.30","BURLINGTON PIERS (AUT)","6151061","2023-02-25 16:00","2023","02","25","16:00","-3.3","","-6.3","","80","","","","11","","12","","","","101.23","","","","-8","","NA"
"-79.80","43.30","BURLINGTON PIERS (AUT)","6151061","2023-02-25 17:00","2023","02","25","17:00","-2.7","","-6.0","","78","","","","11","","16","","","","101.19","","","","-8","","NA"
"-79.80","43.30","BURLINGTON PIERS (AUT)","6151061","2023-02-25 18:00","2023","02","25","18:00","-1.9","","-5.9","","74","","","","24","","4","","","","101.16","","","","-3","","NA"
"-79.80","43.30","BURLINGTON PIERS (AUT)","6151061","2023-02-25 19:00","2023","02","25","19:00","-1.7","","-6.0","","73","","","","24","","7","","","","101.17","","","","-4","","NA"
"-79.80","43.30","BURLINGTON PIERS (AUT)","6151061","2023-02-25 20:00","2023","02","25","20:00","-2.0","","-5.5","","77","","","","24","","9","","","","101.11","","","","-5","","NA"
"-79.80","43.30","BURLINGTON PIERS (AUT)","6151061","2023-02-25 21:00","2023","02","25","21:00","-1.8","","-4.9","","80","","","","20","","3","","","","101.05","","","","-3","","NA"
"-79.80","43.30","BURLINGTON PIERS (AUT)","6151061","2023-02-25 22:00","2023","02","25","22:00","-1.8","","-3.3","","90","","","","18","","10","","","","100.94","","","","-5","","NA"
"-79.80","43.30","BURLINGTON PIERS (AUT)","6151061","2023-02-25 23:00","2023","02","25","23:00","-1.6","","-2.9","","91","","","","16","","13","","","","100.80","","","","-6","","NA"
"-79.80","43.30","BURLINGTON PIERS (AUT)","6151061","2023-02-26 00:00","2023","02","26","00:00","-1.4","","-2.6","","91","","","","17","","12","","","","100.64","","","","-5","","NA"
"-79.80","43.30","BURLINGTON PIERS (AUT)","6151061","2023-02-26 01:00","2023","02","26","01:00","-0.7","","-2.1","","90","","","","18","","16","","","","100.55","","","","-5","","NA"
"-79.80","43.30","BURLINGTON PIERS (AUT)","6151061","2023-02-26 02:00","2023","02","26","02:00","-0.3","","-1.9","","89","","","","19","","12","","","","100.42","","","","-4","","NA"
"-79.80","43.30","BURLINGTON PIERS (AUT)","6151061","2023-02-26 03:00","2023","02","26","03:00","0.3","","-2.3","","82","","","","23","","10","","","","100.29","","","","","","NA"
"-79.80","43.30","BURLINGTON PIERS (AUT)","6151061","2023-02-26 04:00","2023","02","26","04:00","0.8","","-2.1","","81","","","","21","","16","","","","100.16","","","","","","NA"
"-79.80","43.30","BURLINGTON PIERS (AUT)","6151061","2023-02-26 05:00","2023","02","26","05:00","1.4","","-1.8","","79","","","","23","","18","","","","100.14","","","","","","NA"
"-79.80","43.30","BURLINGTON PIERS (AUT)","6151061","2023-02-26 06:00","2023","02","26","06:00","1.3","","-3.3","","71","","","","25","","18","","","","100.16","","","","","","NA"
"-79.80","43.30","BURLINGTON PIERS (AUT)","6151061","2023-02-26 07:00","2023","02","26","07:00","1.3","","-3.7","","70","","","","24","","17","","","","100.14","","","","","","NA"
"-79.80","43.30","BURLINGTON PIERS (AUT)","6151061","2023-02-26 08:00","2023","02","26","08:00","1.1","","-3.3","","72","","","","24","","12","","","","100.14","","","","","","NA"
"-79.80","43.30","BURLINGTON PIERS (AUT)","6151061","2023-02-26 09:00","2023","02","26","09:00","1.6","","-3.9","","67","","","","24","","15","","","","100.19","","","","","","NA"
"-79.80","43.30","BURLINGTON PIERS (AUT)","6151061","2023-02-26 10:00","2023","02","26","10:00","2.2","","-4.4","","62","","","","25","","17","","","","100.20","","","","","","NA"
"-79.80","43.30","BURLINGTON PIERS (AUT)","6151061","2023-02-26 11:00","2023","02","26","11:00","2.7","","-4.5","","59","","","","25","","17","","","","100.20","","","","","","NA"
"-79.80","43.30","BURLINGTON PIERS (AUT)","6151061","2023-02-26 12:00","2023","02","26","12:00","2.8","","-4.7","","58","","","","25","","19","","","","100.21","","","","","","NA"
"-79.80","43.30","BURLINGTON PIERS (AUT)","6151061","2023-02-26 13:00","2023","02","26","13:00","3.0","","-6.6","","49","","","","25","","20","","","","100.20","","","","","","NA"
"-79.80","43.30","BURLINGTON PIERS (AUT)","6151061","2023-02-26 14:00","2023","02","26","14:00","2.6","","-5.0","","57","","","","26","","16","","","","100.17","","","","","","NA"
"-79.80","43.30","BURLINGTON PIERS (AUT)","6151061","2023-02-26 15:00","2023","02","26","15:00","2.7","","-5.8","","53","","","","25","","20","","","","100.21","","","","","","NA"
"-79.80","43.30","BURLINGTON PIERS (AUT)","6151061","2023-02-26 16:00","2023","02","26","16:00","2.5","","-5.4","","56","","","","25","","21","","","","100.23","","","","","","NA"
"-79.80","43.30","BURLINGTON PIERS (AUT)","6151061","2023-02-26 17:00","2023","02","26","17:00","2.4","","-6.4","","52","","","","26","","12","","","","100.29","","","","","","NA"
"-79.80","43.30","BURLINGTON PIERS (AUT)","6151061","2023-02-26 18:00","2023","02","26","18:00","1.2","","-5.5","","61","","","","29","","18","","","","100.40","","","","","","NA"
"-79.80","43.30","BURLINGTON PIERS (AUT)","6151061","2023-02-26 19:00","2023","02","26","19:00","0.7","","-5.3","","64","","","","29","","16","","","","100.48","","","","","","NA"
"-79.80","43.30","BURLINGTON PIERS (AUT)","6151061","2023-02-26 20:00","2023","02","26","20:00","0.3","","-6.6","","60","","","","29","","7","","","","100.50","","","","","","NA"
"-79.80","43.30","BURLINGTON PIERS (AUT)","6151061","2023-02-26 21:00","2023","02","26","21:00","0.1","","-6.1","","63","","","","32","","10","","","","100.56","","","","","","NA"
"-79.80","43.30","BURLINGTON PIERS (AUT)","6151061","2023-02-26 22:00","2023","02","26","22:00","-0.5","","-6.4","","64","","","","32","","6","","","","100.62","","","","-3","","NA"
"-79.80","43.30","BURLINGTON PIERS (AUT)","6151061","2023-02-26 23:00","2023","02","26","23:00","-0.9","","-4.9","","74","","","","30","","4","","","","100.62","","","","-2","","NA"
"-79.80","43.30","BURLINGTON PIERS (AUT)","6151061","2023-02-27 00:00","2023","02","27","00:00","-1.3","","-5.7","","72","","","","29","","4","","","","100.66","","","","-3","","NA"
"-79.80","43.30","BURLINGTON PIERS (AUT)","6151061","2023-02-27 01:00","2023","02","27","01:00","-2.0","","-6.4","","72","","","","28","","4","","","","100.71","","","","-3","","NA"
"-79.80","43.30","BURLINGTON PIERS (AUT)","6151061","2023-02-27 02:00","2023","02","27","02:00","-2.2","","-6.9","","70","","","","30","","4","","","","100.70","","","","-4","","NA"
"-79.80","43.30","BURLINGTON PIERS (AUT)","6151061","2023-02-27 03:00","2023","02","27","03:00","-2.5","","-6.7","","73","","","","32","","7","","","","100.71","","","","-5","","NA"
"-79.80","43.30","BURLINGTON PIERS (AUT)","6151061","2023-02-27 04:00","2023","02","27","04:00","-2.6","","-6.9","","72","","","","33","","8","","","","100.69","","","","-6","","NA"
"-79.80","43.30","BURLINGTON PIERS (AUT)","6151061","2023-02-27 05:00","2023","02","27","05:00","-3.3","","-6.3","","79","","","","1","","17","","","","100.59","","","","-9","","NA"
"-79.80","43.30","BURLINGTON PIERS (AUT)","6151061","2023-02-27 06:00","2023","02","27","06:00","-3.7","","-6.6","","80","","","","36","","17","","","","100.55","","","","-9","","NA"
"-79.80","43.30","BURLINGTON PIERS (AUT)","6151061","2023-02-27 07:00","2023","02","27","07:00","-1.1","","-5.1","","74","","","","10","","23","","","","100.57","","","","-7","","NA"
"-79.80","43.30","BURLINGTON PIERS (AUT)","6151061","2023-02-27 08:00","2023","02","27","08:00","-1.1","","-4.1","","80","","","","10","","31","","","","100.46","","","","-8","","NA"
"-79.80","43.30","BURLINGTON PIERS (AUT)","6151061","2023-02-27 09:00","2023","02","27","09:00","-1.3","","-5.9","","71","","","","9","","32","","","","100.50","","","","-8","","NA"
"-79.80","43.30","BURLINGTON PIERS (AUT)","6151061","2023-02-27 10:00","2023","02","27","10:00","-1.4","","-6.2","","70","","","","9","","30","","","","100.36","","","","-8","","NA"
"-79.80","43.30","BURLINGTON PIERS (AUT)","6151061","2023-02-27 11:00","2023","02","27","11:00","-1.2","","-6.7","","66","","","","8","","28","","","","100.30","","","","-8","","NA"
"-79.80","43.30","BURLINGTON PIERS (AUT)","6151061","2023-02-27 12:00","2023","02","27","12:00","-0.8","","-5.7","","69","","","","7","","31","","","","100.16","","","","-8","","NA"
"-79.80","43.30","BURLINGTON PIERS (AUT)","6151061","2023-02-27 13:00","2023","02","27","13:00","-0.6","","-6.0","","67","","","","7","","30","","","","99.96","","","","-7","","NA"
"-79.80","43.30","BURLINGTON PIERS (AUT)","6151061","2023-02-27 14:00","2023","02","27","14:00","-0.1","","-4.7","","71","","","","6","","37","","","","99.71","","","","-7","","NA"
"-79.80","43.30","BURLINGTON PIERS (AUT)","6151061","2023-02-27 15:00","2023","02","27","15:00","0.2","","-3.8","","75","","","","5","","42","","","","99.50","","","","","","NA"
"-79.80","43.30","BURLINGTON PIERS (AUT)","6151061","2023-02-27 16:00","2023","02","27","16:00","-1.2","","-1.6","","97","","","","5","","38","","","","99.50","","","","-9","","NA"
"-79.80","43.30","BURLINGTON PIERS (AUT)","6151061","2023-02-27 17:00","2023","02","27","17:00","-0.8","","-1.3","","96","","","","6","","46","","","","99.25","","","","-9","","NA"
"-79.80","43.30","BURLINGTON PIERS (AUT)","6151061","2023-02-27 18:00","2023","02","27","18:00","-0.3","","-0.8","","96","","","","6","","50","","","","99.07","","","","-9","","NA"
"-79.80","43.30","BURLINGTON PIERS (AUT)","6151061","2023-02-27 19:00","2023","02","27","19:00","0.2","","-0.2","","97","","","","6","","51","","","","98.89","","","","","","NA"
"-79.80","43.30","BURLINGTON PIERS (AUT)","6151061","2023-02-27 20:00","2023","02","27","20:00","0.5","","-0.6","","92","","","","6","","49","","","","98.74","","","","","","NA"
"-79.80","43.30","BURLINGTON PIERS (AUT)","6151061","2023-02-27 21:00","2023","02","27","21:00","1.2","","0.3","","93","","","","6","","48","","","","98.69","","","","","","NA"
"-79.80","43.30","BURLINGTON PIERS (AUT)","6151061","2023-02-27 22:00","2023","02","27","22:00","1.4","","0.7","","95","","","","6","","46","","","","98.61","","","","","","NA"
"-79.80","43.30","BURLINGTON PIERS (AUT)","6151061","2023-02-27 23:00","2023","02","27","23:00","1.7","","0.9","","94","","","","6","","42","","","","98.54","","","","","","NA"
"-79.80","43.30","BURLINGTON PIERS (AUT)","6151061","2023-02-28 00:00","2023","02","28","00:00","1.9","","1.2","","96","","","","6","","37","","","","98.51","","","","","","NA"
"-79.80","43.30","BURLINGTON PIERS (AUT)","6151061","2023-02-28 01:00","2023","02","28","01:00","1.9","","1.1","","95","","","","7","","36","","","","98.46","","","","","","NA"
"-79.80","43.30","BURLINGTON PIERS (AUT)","6151061","2023-02-28 02:00","2023","02","28","02:00","1.9","","1.7","","98","","","","8","","32","","","","98.47","","","","","","NA"
"-79.80","43.30","BURLINGTON PIERS (AUT)","6151061","2023-02-28 03:00","2023","02","28","03:00","1.8","","1.3","","96","","","","8","","23","","","","98.51","","","","","","NA"
"-79.80","43.30","BURLINGTON PIERS (AUT)","6151061","2023-02-28 04:00","2023","02","28","04:00","1.7","","1.5","","99","","","","8","","10","","","","98.52","","","","","","NA"
"-79.80","43.30","BURLINGTON PIERS (AUT)","6151061","2023-02-28 05:00","2023","02","28","05:00","1.6","","1.4","","99","","","","26","","2","","","","98.61","","","","","","NA"
"-79.80","43.30","BURLINGTON PIERS (AUT)","6151061","2023-02-28 06:00","2023","02","28","06:00","1.6","","1.2","","97","","","","24","","8","","","","98.74","","","","","","NA"
"-79.80","43.30","BURLINGTON PIERS (AUT)","6151061","2023-02-28 07:00","2023","02","28","07:00","1.6","","1.2","","97","","","","24","","8","","","","98.87","","","","","","NA"
"-79.80","43.30","BURLINGTON PIERS (AUT)","6151061","2023-02-28 08:00","2023","02","28","08:00","2.4","","0.5","","87","","","","24","","12","","","","99.06","","","","","","NA"
"-79.80","43.30","BURLINGTON PIERS (AUT)","6151061","2023-02-28 09:00","2023","02","28","09:00","2.2","","-1.8","","75","","","","28","","23","","","","99.29","","","","","","NA"
"-79.80","43.30","BURLINGTON PIERS (AUT)","6151061","2023-02-28 10:00","2023","02","28","10:00","2.0","","-2.8","","71","","","","26","","14","","","","99.44","","","","","","NA"
"-79.80","43.30","BURLINGTON PIERS (AUT)","6151061","2023-02-28 11:00","2023","02","28","11:00","2.2","","-3.2","","68","","","","27","","19","","","","99.64","","","","","","NA"
"-79.80","43.30","BURLINGTON PIERS (AUT)","6151061","2023-02-28 12:00","2023","02","28","12:00","2.1","","-2.5","","71","","","","25","","15","","","","99.78","","","","","","NA"
"-79.80","43.30","BURLINGTON PIERS (AUT)","6151061","2023-02-28 13:00","2023","02","28","13:00","2.1","","-2.3","","73","","","","26","","15","","","","99.88","","","","","","NA"
"-79.80","43.30","BURLINGTON PIERS (AUT)","6151061","2023-02-28 14:00","2023","02","28","14:00","1.9","","-1.9","","76","","","","25","","17","","","","99.96","","","","","","NA"
"-79.80","43.30","BURLINGTON PIERS (AUT)","6151061","2023-02-28 15:00","2023","02","28","15:00","1.9","","-2.2","","74","","","","24","","13","","","","100.10","","","","","","NA"
"-79.80","43.30","BURLINGTON PIERS (AUT)","6151061","2023-02-28 16:00","2023","02","28","16:00","2.1","","-2.8","","70","","","","25","","15","","","","100.29","","","","","","NA"
"-79.80","43.30","BURLINGTON PIERS (AUT)","6151061","2023-02-28 17:00","2023","02","28","17:00","2.4","","-3.9","","63","","","","26","","13","","","","100.39","","","","","","NA"
"-79.80","43.30","BURLINGTON PIERS (AUT)","6151061","2023-02-28 18:00","2023","02","28","18:00","2.5","","-4.1","","62","","","","27","","17","","","","100.49","","","","","","NA"
"-79.80","43.30","BURLINGTON PIERS (AUT)","6151061","2023-02-28 19:00","2023","02","28","19:00","2.3","","-4.0","","63","","","","27","","8","","","","100.63","","","","","","NA"
"-79.80","43.30","BURLINGTON PIERS (AUT)","6151061","2023-02-28 20:00","2023","02","28","20:00","2.1","","-3.0","","69","","","","24","","8","","","","100.67","","","","","","NA"
"-79.80","43.30","BURLINGTON PIERS (AUT)","6151061","2023-02-28 21:00","2023","02","28","21:00","1.9","","-3.3","","68","","","","20","","7","","","","100.70","","","","","","NA"
"-79.80","43.30","BURLINGTON PIERS (AUT)","6151061","2023-02-28 22:00","2023","02","28","22:00","1.4","","-3.5","","70","","","","19","","11","","","","100.71","","","","","","NA"
"-79.80","43.30","BURLINGTON PIERS (AUT)","6151061","2023-02-28 23:00","2023","02","28","23:00","1.2","","-2.9","","74","","","","21","","12","","","","100.76","","","","","","NA"
