"Longitude (x)","Latitude (y)","Station Name","Climate ID","Date/Time (LST)","Year","Month","Day","Time (LST)","Temp (°C)","Temp Flag","Dew Point Temp (°C)","Dew Point Temp Flag","Rel Hum (%)","Rel Hum Flag","Precip. Amount (mm)","Precip. Amount Flag","Wind Dir (10s deg)","Wind Dir Flag","Wind Spd (km/h)","Wind Spd Flag","Visibility (km)","Visibility Flag","Stn Press (kPa)","Stn Press Flag","Hmdx","Hmdx Flag","Wind Chill","Wind Chill Flag","Weather"
"-139.84","67.57","OLD CROW A","2100801","2019-06-01 00:00","2019","06","01","00:00"
"-139.84","67.57","OLD CROW A","2100801","2019-06-01 01:00","2019","06","01","01:00"
"-139.84","67.57","OLD CROW A","2100801","2019-06-01 02:00","2019","06","01","02:00"
"-139.84","67.57","OLD CROW A","2100801","2019-06-01 03:00","2019","06","01","03:00"
"-139.84","67.57","OLD CROW A","2100801","2019-06-01 04:00","2019","06","01","04:00"
"-139.84","67.57","OLD CROW A","2100801","2019-06-01 05:00","2019","06","01","05:00","8.4","","-0.9","","52","","","","4","","12","","56.3","","98.04","","","","","","NA"
"-139.84","67.57","OLD CROW A","2100801","2019-06-01 06:00","2019","06","01","06:00","9.1","","-0.9","","50","","","","2","","14","","56.3","","98.04","","","","","","NA"
"-139.84","67.57","OLD CROW A","2100801","2019-06-01 07:00","2019","06","01","07:00","9.4","","-0.7","","49","","","","2","","19","","56.3","","98.03","","","","","","Clear"
"-139.84","67.57","OLD CROW A","2100801","2019-06-01 08:00","2019","06","01","08:00","10.3","","0.7","","51","","","","3","","14","","56.3","","98.03","","","","","","NA"
"-139.84","67.57","OLD CROW A","2100801","2019-06-01 09:00","2019","06","01","09:00","11.4","","0.2","","46","","","","4","","13","","56.3","","98.02","","","","","","NA"
"-139.84","67.57","OLD CROW A","2100801","2019-06-01 10:00","2019","06","01","10:00","11.8","","-0.1","","44","","","","1","","16","","56.3","","98.02","","","","","","Clear"
"-139.84","67.57","OLD CROW A","2100801","2019-06-01 11:00","2019","06","01","11:00","13.0","","-1.2","","37","","","","4","","19","","56.3","","98.00","","","","","","NA"
"-139.84","67.57","OLD CROW A","2100801","2019-06-01 12:00","2019","06","01","12:00","14.8","","-0.8","","34","","","","10","","7","","56.3","","97.98","","","","","","NA"
"-139.84","67.57","OLD CROW A","2100801","2019-06-01 13:00","2019","06","01","13:00","15.3","","-1.6","","31","","","","7","","15","","56.3","","97.99","","","","","","Mainly Clear"
"-139.84","67.57","OLD CROW A","2100801","2019-06-01 14:00","2019","06","01","14:00","15.4","","-1.7","","31","","","","9","","7","","56.3","","97.97","","","","","","NA"
"-139.84","67.57","OLD CROW A","2100801","2019-06-01 15:00","2019","06","01","15:00","15.9","","0.1","","34","","","","3","","18","","","M","97.98","","","","","","NA"
"-139.84","67.57","OLD CROW A","2100801","2019-06-01 16:00","2019","06","01","16:00","15.3","","0.5","","36","","","","4","","24","","56.3","","98.01","","","","","","Clear"
"-139.84","67.57","OLD CROW A","2100801","2019-06-01 17:00","2019","06","01","17:00","14.9","","0.0","","36","","","","5","","24","","56.3","","98.02","","","","","","NA"
"-139.84","67.57","OLD CROW A","2100801","2019-06-01 18:00","2019","06","01","18:00"
"-139.84","67.57","OLD CROW A","2100801","2019-06-01 19:00","2019","06","01","19:00"
"-139.84","67.57","OLD CROW A","2100801","2019-06-01 20:00","2019","06","01","20:00"
"-139.84","67.57","OLD CROW A","2100801","2019-06-01 21:00","2019","06","01","21:00"
"-139.84","67.57","OLD CROW A","2100801","2019-06-01 22:00","2019","06","01","22:00"
"-139.84","67.57","OLD CROW A","2100801","2019-06-01 23:00","2019","06","01","23:00"
"-139.84","67.57","OLD CROW A","2100801","2019-06-02 00:00","2019","06","02","00:00"
"-139.84","67.57","OLD CROW A","2100801","2019-06-02 01:00","2019","06","02","01:00"
"-139.84","67.57","OLD CROW A","2100801","2019-06-02 02:00","2019","06","02","02:00"
"-139.84","67.57","OLD CROW A","2100801","2019-06-02 03:00","2019","06","02","03:00"
"-139.84","67.57","OLD CROW A","2100801","2019-06-02 04:00","2019","06","02","04:00"
"-139.84","67.57","OLD CROW A","2100801","2019-06-02 05:00","2019","06","02","05:00","3.0","","-3.4","","63","","","","6","","14","","56.3","","98.48","","","","","","NA"
"-139.84","67.57","OLD CROW A","2100801","2019-06-02 06:00","2019","06","02","06:00","3.7","","-4.9","","53","","","","4","","21","","56.3","","98.48","","","","","","NA"
"-139.84","67.57","OLD CROW A","2100801","2019-06-02 07:00","2019","06","02","07:00","4.4","","-6.1","","46","","","","4","","23","","56.3","","98.49","","","","","","Mainly Clear"
"-139.84","67.57","OLD CROW A","2100801","2019-06-02 08:00","2019","06","02","08:00","5.6","","-6.1","","43","","","","6","","22","","56.3","","98.48","","","","","","NA"
"-139.84","67.57","OLD CROW A","2100801","2019-06-02 09:00","2019","06","02","09:00","6.8","","-6.0","","40","","","","4","","25","","56.3","","98.45","","","","","","NA"
"-139.84","67.57","OLD CROW A","2100801","2019-06-02 10:00","2019","06","02","10:00","7.9","","-5.4","","38","","","","5","","26","","56.3","","98.45","","","","","","Mainly Clear"
"-139.84","67.57","OLD CROW A","2100801","2019-06-02 11:00","2019","06","02","11:00","9.2","","-2.9","","42","","","","2","","20","","56.3","","98.43","","","","","","NA"
"-139.84","67.57","OLD CROW A","2100801","2019-06-02 12:00","2019","06","02","12:00","10.3","","-2.3","","41","","","","6","","22","","56.3","","98.42","","","","","","NA"
"-139.84","67.57","OLD CROW A","2100801","2019-06-02 13:00","2019","06","02","13:00","11.7","","-0.3","","43","","","","6","","16","","56.3","","98.41","","","","","","Clear"
"-139.84","67.57","OLD CROW A","2100801","2019-06-02 14:00","2019","06","02","14:00","12.5","","0.2","","43","","","","5","","22","","56.3","","98.39","","","","","","NA"
"-139.84","67.57","OLD CROW A","2100801","2019-06-02 15:00","2019","06","02","15:00","13.5","","0.4","","41","","","","6","","21","","56.3","","98.37","","","","","","NA"
"-139.84","67.57","OLD CROW A","2100801","2019-06-02 16:00","2019","06","02","16:00","13.8","","1.2","","42","","","","4","","21","","56.3","","98.35","","","","","","Mainly Clear"
"-139.84","67.57","OLD CROW A","2100801","2019-06-02 17:00","2019","06","02","17:00","13.9","","0.1","","39","","","","4","","21","","56.3","","98.35","","","","","","NA"
"-139.84","67.57","OLD CROW A","2100801","2019-06-02 18:00","2019","06","02","18:00"
"-139.84","67.57","OLD CROW A","2100801","2019-06-02 19:00","2019","06","02","19:00"
"-139.84","67.57","OLD CROW A","2100801","2019-06-02 20:00","2019","06","02","20:00"
"-139.84","67.57","OLD CROW A","2100801","2019-06-02 21:00","2019","06","02","21:00"
"-139.84","67.57","OLD CROW A","2100801","2019-06-02 22:00","2019","06","02","22:00"
"-139.84","67.57","OLD CROW A","2100801","2019-06-02 23:00","2019","06","02","23:00"
"-139.84","67.57","OLD CROW A","2100801","2019-06-03 00:00","2019","06","03","00:00"
"-139.84","67.57","OLD CROW A","2100801","2019-06-03 01:00","2019","06","03","01:00"
"-139.84","67.57","OLD CROW A","2100801","2019-06-03 02:00","2019","06","03","02:00"
"-139.84","67.57","OLD CROW A","2100801","2019-06-03 03:00","2019","06","03","03:00"
"-139.84","67.57","OLD CROW A","2100801","2019-06-03 04:00","2019","06","03","04:00"
"-139.84","67.57","OLD CROW A","2100801","2019-06-03 05:00","2019","06","03","05:00","5.0","","1.6","","79","","","","10","","9","","56.3","","98.59","","","","","","NA"
"-139.84","67.57","OLD CROW A","2100801","2019-06-03 06:00","2019","06","03","06:00","5.2","","1.2","","75","","","","11","","12","","56.3","","98.58","","","","","","NA"
"-139.84","67.57","OLD CROW A","2100801","2019-06-03 07:00","2019","06","03","07:00","5.4","","1.8","","78","","","","24","","7","","56.3","","98.62","","","","","","Mostly Cloudy"
"-139.84","67.57","OLD CROW A","2100801","2019-06-03 08:00","2019","06","03","08:00","6.7","","-1.4","","56","","","","1","","6","","56.3","","98.65","","","","","","NA"
"-139.84","67.57","OLD CROW A","2100801","2019-06-03 09:00","2019","06","03","09:00","7.7","","-1.1","","54","","","","3","","22","","56.3","","98.61","","","","","","NA"
"-139.84","67.57","OLD CROW A","2100801","2019-06-03 10:00","2019","06","03","10:00","9.3","","-0.7","","49","","","","3","","16","","56.3","","98.60","","","","","","Mostly Cloudy"
"-139.84","67.57","OLD CROW A","2100801","2019-06-03 11:00","2019","06","03","11:00","11.3","","-3.6","","35","","","","6","","20","","56.3","","98.58","","","","","","NA"
"-139.84","67.57","OLD CROW A","2100801","2019-06-03 12:00","2019","06","03","12:00","12.2","","-3.2","","34","","","","8","","17","","56.3","","98.56","","","","","","NA"
"-139.84","67.57","OLD CROW A","2100801","2019-06-03 13:00","2019","06","03","13:00","12.6","","-3.1","","33","","","","5","","18","","56.3","","98.55","","","","","","Mainly Clear"
"-139.84","67.57","OLD CROW A","2100801","2019-06-03 14:00","2019","06","03","14:00","13.0","","-3.6","","31","","","","8","","18","","56.3","","98.53","","","","","","NA"
"-139.84","67.57","OLD CROW A","2100801","2019-06-03 15:00","2019","06","03","15:00","12.7","","-5.1","","28","","","","6","","12","","56.3","","98.52","","","","","","NA"
"-139.84","67.57","OLD CROW A","2100801","2019-06-03 16:00","2019","06","03","16:00","13.2","","-5.4","","27","","","","6","","8","","56.3","","98.51","","","","","","Mainly Clear"
"-139.84","67.57","OLD CROW A","2100801","2019-06-03 17:00","2019","06","03","17:00","13.6","","-4.1","","29","","","","6","","8","","56.3","","98.52","","","","","","NA"
"-139.84","67.57","OLD CROW A","2100801","2019-06-03 18:00","2019","06","03","18:00"
"-139.84","67.57","OLD CROW A","2100801","2019-06-03 19:00","2019","06","03","19:00"
"-139.84","67.57","OLD CROW A","2100801","2019-06-03 20:00","2019","06","03","20:00"
"-139.84","67.57","OLD CROW A","2100801","2019-06-03 21:00","2019","06","03","21:00"
"-139.84","67.57","OLD CROW A","2100801","2019-06-03 22:00","2019","06","03","22:00"
"-139.84","67.57","OLD CROW A","2100801","2019-06-03 23:00","2019","06","03","23:00"
"-139.84","67.57","OLD CROW A","2100801","2019-06-04 00:00","2019","06","04","00:00"
"-139.84","67.57","OLD CROW A","2100801","2019-06-04 01:00","2019","06","04","01:00"
"-139.84","67.57","OLD CROW A","2100801","2019-06-04 02:00","2019","06","04","02:00"
"-139.84","67.57","OLD CROW A","2100801","2019-06-04 03:00","2019","06","04","03:00"
"-139.84","67.57","OLD CROW A","2100801","2019-06-04 04:00","2019","06","04","04:00"
"-139.84","67.57","OLD CROW A","2100801","2019-06-04 05:00","2019","06","04","05:00","4.9","","1.2","","77","","","","4","","11","","56.3","","98.75","","","","","","NA"
"-139.84","67.57","OLD CROW A","2100801","2019-06-04 06:00","2019","06","04","06:00","5.8","","1.5","","74","","","","7","","7","","56.3","","98.78","","","","","","NA"
"-139.84","67.57","OLD CROW A","2100801","2019-06-04 07:00","2019","06","04","07:00","6.7","","1.5","","69","","","","8","","5","","56.3","","98.80","","","","","","Mostly Cloudy"
"-139.84","67.57","OLD CROW A","2100801","2019-06-04 08:00","2019","06","04","08:00","7.5","","1.8","","67","","","","8","","12","","56.3","","98.82","","","","","","NA"
"-139.84","67.57","OLD CROW A","2100801","2019-06-04 09:00","2019","06","04","09:00","8.7","","2.4","","65","","","","4","","10","","56.3","","98.84","","","","","","NA"
"-139.84","67.57","OLD CROW A","2100801","2019-06-04 10:00","2019","06","04","10:00","11.1","","1.1","","50","","","","12","","5","","56.3","","98.82","","","","","","Mainly Clear"
"-139.84","67.57","OLD CROW A","2100801","2019-06-04 11:00","2019","06","04","11:00","11.5","","1.5","","50","","","","10","","5","","56.3","","98.82","","","","","","NA"
"-139.84","67.57","OLD CROW A","2100801","2019-06-04 12:00","2019","06","04","12:00","13.4","","1.6","","44","","","","10","","9","","56.3","","98.81","","","","","","NA"
"-139.84","67.57","OLD CROW A","2100801","2019-06-04 13:00","2019","06","04","13:00","14.8","","1.3","","40","","","","11","","9","","56.3","","98.80","","","","","","Mainly Clear"
"-139.84","67.57","OLD CROW A","2100801","2019-06-04 14:00","2019","06","04","14:00","13.7","","1.2","","42","","","","10","","7","","56.3","","98.79","","","","","","NA"
"-139.84","67.57","OLD CROW A","2100801","2019-06-04 15:00","2019","06","04","15:00","15.3","","1.2","","38","","","","11","","10","","56.3","","98.79","","","","","","NA"
"-139.84","67.57","OLD CROW A","2100801","2019-06-04 16:00","2019","06","04","16:00","15.5","","0.8","","37","","","","11","","8","","56.3","","98.80","","","","","","Mostly Cloudy"
"-139.84","67.57","OLD CROW A","2100801","2019-06-04 17:00","2019","06","04","17:00","15.2","","-0.9","","33","","","","15","","9","","56.3","","98.78","","","","","","NA"
"-139.84","67.57","OLD CROW A","2100801","2019-06-04 18:00","2019","06","04","18:00"
"-139.84","67.57","OLD CROW A","2100801","2019-06-04 19:00","2019","06","04","19:00"
"-139.84","67.57","OLD CROW A","2100801","2019-06-04 20:00","2019","06","04","20:00"
"-139.84","67.57","OLD CROW A","2100801","2019-06-04 21:00","2019","06","04","21:00"
"-139.84","67.57","OLD CROW A","2100801","2019-06-04 22:00","2019","06","04","22:00"
"-139.84","67.57","OLD CROW A","2100801","2019-06-04 23:00","2019","06","04","23:00"
"-139.84","67.57","OLD CROW A","2100801","2019-06-05 00:00","2019","06","05","00:00"
"-139.84","67.57","OLD CROW A","2100801","2019-06-05 01:00","2019","06","05","01:00"
"-139.84","67.57","OLD CROW A","2100801","2019-06-05 02:00","2019","06","05","02:00"
"-139.84","67.57","OLD CROW A","2100801","2019-06-05 03:00","2019","06","05","03:00"
"-139.84","67.57","OLD CROW A","2100801","2019-06-05 04:00","2019","06","05","04:00"
"-139.84","67.57","OLD CROW A","2100801","2019-06-05 05:00","2019","06","05","05:00","8.8","","1.7","","61","","","","9","","4","","56.3","","98.98","","","","","","NA"
"-139.84","67.57","OLD CROW A","2100801","2019-06-05 06:00","2019","06","05","06:00","9.0","","3.1","","66","","","","9","","4","","56.3","","98.99","","","","","","NA"
"-139.84","67.57","OLD CROW A","2100801","2019-06-05 07:00","2019","06","05","07:00","11.0","","1.5","","52","","","","7","","7","","56.3","","98.97","","","","","","Mostly Cloudy"
"-139.84","67.57","OLD CROW A","2100801","2019-06-05 08:00","2019","06","05","08:00","10.8","","1.5","","52","","","","5","","8","","56.3","","98.96","","","","","","NA"
"-139.84","67.57","OLD CROW A","2100801","2019-06-05 09:00","2019","06","05","09:00","12.8","","1.9","","47","","","","10","","4","","56.3","","98.95","","","","","","NA"
"-139.84","67.57","OLD CROW A","2100801","2019-06-05 10:00","2019","06","05","10:00","14.2","","0.4","","39","","","","12","","4","","56.3","","98.94","","","","","","Mostly Cloudy"
"-139.84","67.57","OLD CROW A","2100801","2019-06-05 11:00","2019","06","05","11:00","13.8","","0.8","","41","","","","13","","3","","56.3","","98.91","","","","","","NA"
"-139.84","67.57","OLD CROW A","2100801","2019-06-05 12:00","2019","06","05","12:00","14.4","","1.3","","41","","","","8","","7","","56.3","","98.90","","","","","","NA"
"-139.84","67.57","OLD CROW A","2100801","2019-06-05 13:00","2019","06","05","13:00","14.8","","0.9","","38","","","","8","","9","","56.3","","98.87","","","","","","Mostly Cloudy"
"-139.84","67.57","OLD CROW A","2100801","2019-06-05 14:00","2019","06","05","14:00","15.3","","1.1","","38","","","","10","","10","","56.3","","98.86","","","","","","NA"
"-139.84","67.57","OLD CROW A","2100801","2019-06-05 15:00","2019","06","05","15:00"
"-139.84","67.57","OLD CROW A","2100801","2019-06-05 16:00","2019","06","05","16:00"
"-139.84","67.57","OLD CROW A","2100801","2019-06-05 17:00","2019","06","05","17:00"
"-139.84","67.57","OLD CROW A","2100801","2019-06-05 18:00","2019","06","05","18:00"
"-139.84","67.57","OLD CROW A","2100801","2019-06-05 19:00","2019","06","05","19:00"
"-139.84","67.57","OLD CROW A","2100801","2019-06-05 20:00","2019","06","05","20:00"
"-139.84","67.57","OLD CROW A","2100801","2019-06-05 21:00","2019","06","05","21:00"
"-139.84","67.57","OLD CROW A","2100801","2019-06-05 22:00","2019","06","05","22:00"
"-139.84","67.57","OLD CROW A","2100801","2019-06-05 23:00","2019","06","05","23:00"
"-139.84","67.57","OLD CROW A","2100801","2019-06-06 00:00","2019","06","06","00:00"
"-139.84","67.57","OLD CROW A","2100801","2019-06-06 01:00","2019","06","06","01:00"
"-139.84","67.57","OLD CROW A","2100801","2019-06-06 02:00","2019","06","06","02:00"
"-139.84","67.57","OLD CROW A","2100801","2019-06-06 03:00","2019","06","06","03:00"
"-139.84","67.57","OLD CROW A","2100801","2019-06-06 04:00","2019","06","06","04:00"
"-139.84","67.57","OLD CROW A","2100801","2019-06-06 05:00","2019","06","06","05:00","10.0","","1.5","","55","","","","7","","4","","","M","98.90","","","","","","NA"
"-139.84","67.57","OLD CROW A","2100801","2019-06-06 06:00","2019","06","06","06:00","10.3","","1.4","","54","","","","6","","12","","56.3","","98.91","","","","","","NA"
"-139.84","67.57","OLD CROW A","2100801","2019-06-06 07:00","2019","06","06","07:00","11.4","","1.6","","51","","","","8","","7","","56.3","","98.91","","","","","","Mainly Clear"
"-139.84","67.57","OLD CROW A","2100801","2019-06-06 08:00","2019","06","06","08:00","12.7","","0.9","","44","","","","12","","7","","56.3","","98.91","","","","","","NA"
"-139.84","67.57","OLD CROW A","2100801","2019-06-06 09:00","2019","06","06","09:00","13.4","","0.1","","40","","","","11","","11","","56.3","","98.89","","","","","","NA"
"-139.84","67.57","OLD CROW A","2100801","2019-06-06 10:00","2019","06","06","10:00","14.0","","-0.3","","37","","","","12","","5","","56.3","","98.88","","","","","","Mainly Clear"
"-139.84","67.57","OLD CROW A","2100801","2019-06-06 11:00","2019","06","06","11:00","14.9","","0.6","","37","","","","10","","9","","56.3","","98.86","","","","","","NA"
"-139.84","67.57","OLD CROW A","2100801","2019-06-06 12:00","2019","06","06","12:00","14.8","","-0.3","","35","","","","11","","5","","56.3","","98.85","","","","","","NA"
"-139.84","67.57","OLD CROW A","2100801","2019-06-06 13:00","2019","06","06","13:00","16.1","","-0.4","","32","","","","10","","10","","56.3","","98.82","","","","","","Clear"
"-139.84","67.57","OLD CROW A","2100801","2019-06-06 14:00","2019","06","06","14:00"
"-139.84","67.57","OLD CROW A","2100801","2019-06-06 15:00","2019","06","06","15:00"
"-139.84","67.57","OLD CROW A","2100801","2019-06-06 16:00","2019","06","06","16:00"
"-139.84","67.57","OLD CROW A","2100801","2019-06-06 17:00","2019","06","06","17:00"
"-139.84","67.57","OLD CROW A","2100801","2019-06-06 18:00","2019","06","06","18:00"
"-139.84","67.57","OLD CROW A","2100801","2019-06-06 19:00","2019","06","06","19:00"
"-139.84","67.57","OLD CROW A","2100801","2019-06-06 20:00","2019","06","06","20:00"
"-139.84","67.57","OLD CROW A","2100801","2019-06-06 21:00","2019","06","06","21:00"
"-139.84","67.57","OLD CROW A","2100801","2019-06-06 22:00","2019","06","06","22:00"
"-139.84","67.57","OLD CROW A","2100801","2019-06-06 23:00","2019","06","06","23:00"
"-139.84","67.57","OLD CROW A","2100801","2019-06-07 00:00","2019","06","07","00:00"
"-139.84","67.57","OLD CROW A","2100801","2019-06-07 01:00","2019","06","07","01:00"
"-139.84","67.57","OLD CROW A","2100801","2019-06-07 02:00","2019","06","07","02:00"
"-139.84","67.57","OLD CROW A","2100801","2019-06-07 03:00","2019","06","07","03:00"
"-139.84","67.57","OLD CROW A","2100801","2019-06-07 04:00","2019","06","07","04:00"
"-139.84","67.57","OLD CROW A","2100801","2019-06-07 05:00","2019","06","07","05:00","7.8","","-0.3","","56","","","","5","","7","","56.3","","98.95","","","","","","NA"
"-139.84","67.57","OLD CROW A","2100801","2019-06-07 06:00","2019","06","07","06:00","9.3","","-0.6","","50","","","","6","","8","","56.3","","98.96","","","","","","NA"
"-139.84","67.57","OLD CROW A","2100801","2019-06-07 07:00","2019","06","07","07:00","10.6","","-0.4","","46","","","","5","","9","","56.3","","98.96","","","","","","Mainly Clear"
"-139.84","67.57","OLD CROW A","2100801","2019-06-07 08:00","2019","06","07","08:00","12.4","","-1.1","","39","","","","16","","8","","56.3","","98.96","","","","","","NA"
"-139.84","67.57","OLD CROW A","2100801","2019-06-07 09:00","2019","06","07","09:00","14.0","","-1.8","","33","","","","11","","7","","56.3","","98.94","","","","","","NA"
"-139.84","67.57","OLD CROW A","2100801","2019-06-07 10:00","2019","06","07","10:00","14.5","","-1.6","","33","","","","13","","8","","56.3","","98.92","","","","","","Clear"
"-139.84","67.57","OLD CROW A","2100801","2019-06-07 11:00","2019","06","07","11:00","15.5","","-0.4","","34","","","","10","","12","","56.3","","98.90","","","","","","NA"
"-139.84","67.57","OLD CROW A","2100801","2019-06-07 12:00","2019","06","07","12:00","16.1","","-1.5","","30","","","","12","","12","","56.3","","98.89","","","","","","NA"
"-139.84","67.57","OLD CROW A","2100801","2019-06-07 13:00","2019","06","07","13:00","16.1","","-4.3","","24","","","","13","","5","","56.3","","98.87","","","","","","Clear"
"-139.84","67.57","OLD CROW A","2100801","2019-06-07 14:00","2019","06","07","14:00"
"-139.84","67.57","OLD CROW A","2100801","2019-06-07 15:00","2019","06","07","15:00"
"-139.84","67.57","OLD CROW A","2100801","2019-06-07 16:00","2019","06","07","16:00"
"-139.84","67.57","OLD CROW A","2100801","2019-06-07 17:00","2019","06","07","17:00"
"-139.84","67.57","OLD CROW A","2100801","2019-06-07 18:00","2019","06","07","18:00"
"-139.84","67.57","OLD CROW A","2100801","2019-06-07 19:00","2019","06","07","19:00"
"-139.84","67.57","OLD CROW A","2100801","2019-06-07 20:00","2019","06","07","20:00"
"-139.84","67.57","OLD CROW A","2100801","2019-06-07 21:00","2019","06","07","21:00"
"-139.84","67.57","OLD CROW A","2100801","2019-06-07 22:00","2019","06","07","22:00"
"-139.84","67.57","OLD CROW A","2100801","2019-06-07 23:00","2019","06","07","23:00"
"-139.84","67.57","OLD CROW A","2100801","2019-06-08 00:00","2019","06","08","00:00"
"-139.84","67.57","OLD CROW A","2100801","2019-06-08 01:00","2019","06","08","01:00"
"-139.84","67.57","OLD CROW A","2100801","2019-06-08 02:00","2019","06","08","02:00"
"-139.84","67.57","OLD CROW A","2100801","2019-06-08 03:00","2019","06","08","03:00"
"-139.84","67.57","OLD CROW A","2100801","2019-06-08 04:00","2019","06","08","04:00"
"-139.84","67.57","OLD CROW A","2100801","2019-06-08 05:00","2019","06","08","05:00","7.1","","-0.2","","60","","","","6","","7","","56.3","","98.92","","","","","","NA"
"-139.84","67.57","OLD CROW A","2100801","2019-06-08 06:00","2019","06","08","06:00","10.3","","-0.2","","48","","","","5","","4","","56.3","","98.90","","","","","","NA"
"-139.84","67.57","OLD CROW A","2100801","2019-06-08 07:00","2019","06","08","07:00","11.8","","-1.7","","39","","","","6","","8","","56.3","","98.87","","","","","","Clear"
"-139.84","67.57","OLD CROW A","2100801","2019-06-08 08:00","2019","06","08","08:00","13.4","","-1.3","","36","","","","4","","3","","56.3","","98.87","","","","","","NA"
"-139.84","67.57","OLD CROW A","2100801","2019-06-08 09:00","2019","06","08","09:00","15.1","","-2.7","","29","","","","13","","7","","56.3","","98.85","","","","","","NA"
"-139.84","67.57","OLD CROW A","2100801","2019-06-08 10:00","2019","06","08","10:00","15.9","","-3.8","","25","","","","13","","7","","56.3","","98.83","","","","","","Clear"
"-139.84","67.57","OLD CROW A","2100801","2019-06-08 11:00","2019","06","08","11:00","17.0","","-4.3","","23","","","","11","","4","","56.3","","98.81","","","","","","NA"
"-139.84","67.57","OLD CROW A","2100801","2019-06-08 12:00","2019","06","08","12:00","17.3","","-3.3","","24","","","","11","","7","","56.3","","98.78","","","","","","NA"
"-139.84","67.57","OLD CROW A","2100801","2019-06-08 13:00","2019","06","08","13:00","18.5","","-4.1","","21","","","","10","","8","","56.3","","98.75","","","","","","Clear"
"-139.84","67.57","OLD CROW A","2100801","2019-06-08 14:00","2019","06","08","14:00","19.2","","-3.3","","21","","","","10","","8","","56.3","","98.70","","","","","","NA"
"-139.84","67.57","OLD CROW A","2100801","2019-06-08 15:00","2019","06","08","15:00","19.0","","-7.0","","16","","","","9","","7","","56.3","","98.68","","","","","","NA"
"-139.84","67.57","OLD CROW A","2100801","2019-06-08 16:00","2019","06","08","16:00","19.5","","-7.1","","16","","","","6","","9","","56.3","","98.63","","","","","","Clear"
"-139.84","67.57","OLD CROW A","2100801","2019-06-08 17:00","2019","06","08","17:00","20.2","","-6.4","","16","","","","16","","6","","56.3","","98.61","","","","","","NA"
"-139.84","67.57","OLD CROW A","2100801","2019-06-08 18:00","2019","06","08","18:00"
"-139.84","67.57","OLD CROW A","2100801","2019-06-08 19:00","2019","06","08","19:00"
"-139.84","67.57","OLD CROW A","2100801","2019-06-08 20:00","2019","06","08","20:00"
"-139.84","67.57","OLD CROW A","2100801","2019-06-08 21:00","2019","06","08","21:00"
"-139.84","67.57","OLD CROW A","2100801","2019-06-08 22:00","2019","06","08","22:00"
"-139.84","67.57","OLD CROW A","2100801","2019-06-08 23:00","2019","06","08","23:00"
"-139.84","67.57","OLD CROW A","2100801","2019-06-09 00:00","2019","06","09","00:00"
"-139.84","67.57","OLD CROW A","2100801","2019-06-09 01:00","2019","06","09","01:00"
"-139.84","67.57","OLD CROW A","2100801","2019-06-09 02:00","2019","06","09","02:00"
"-139.84","67.57","OLD CROW A","2100801","2019-06-09 03:00","2019","06","09","03:00"
"-139.84","67.57","OLD CROW A","2100801","2019-06-09 04:00","2019","06","09","04:00"
"-139.84","67.57","OLD CROW A","2100801","2019-06-09 05:00","2019","06","09","05:00","6.4","","2.5","","76","","","","36","","2","","56.3","","98.80","","","","","","NA"
"-139.84","67.57","OLD CROW A","2100801","2019-06-09 06:00","2019","06","09","06:00","8.7","","2.2","","64","","","","28","","5","","56.3","","98.81","","","","","","NA"
"-139.84","67.57","OLD CROW A","2100801","2019-06-09 07:00","2019","06","09","07:00","11.4","","3.0","","56","","","","25","","4","","56.3","","98.83","","","","","","Mostly Cloudy"
"-139.84","67.57","OLD CROW A","2100801","2019-06-09 08:00","2019","06","09","08:00","14.2","","3.1","","47","","","","24","","4","","56.3","","98.82","","","","","","NA"
"-139.84","67.57","OLD CROW A","2100801","2019-06-09 09:00","2019","06","09","09:00","15.7","","2.7","","42","","","","7","","11","","56.3","","98.83","","","","","","NA"
"-139.84","67.57","OLD CROW A","2100801","2019-06-09 10:00","2019","06","09","10:00","14.9","","3.4","","46","","","","6","","12","","56.3","","98.84","","","","","","Mostly Cloudy"
"-139.84","67.57","OLD CROW A","2100801","2019-06-09 11:00","2019","06","09","11:00","18.8","","2.8","","34","","","","5","","10","","56.3","","98.84","","","","","","NA"
"-139.84","67.57","OLD CROW A","2100801","2019-06-09 12:00","2019","06","09","12:00","20.1","","3.0","","32","","","","8","","7","","56.3","","98.83","","","","","","NA"
"-139.84","67.57","OLD CROW A","2100801","2019-06-09 13:00","2019","06","09","13:00","20.6","","0.2","","25","","","","6","","9","","56.3","","98.80","","","","","","Mostly Cloudy"
"-139.84","67.57","OLD CROW A","2100801","2019-06-09 14:00","2019","06","09","14:00","20.9","","0.3","","25","","","","7","","9","","56.3","","98.78","","","","","","NA"
"-139.84","67.57","OLD CROW A","2100801","2019-06-09 15:00","2019","06","09","15:00","20.5","","-1.9","","22","","","","8","","4","","56.3","","98.73","","","","","","NA"
"-139.84","67.57","OLD CROW A","2100801","2019-06-09 16:00","2019","06","09","16:00","21.6","","-1.9","","20","","","","31","","7","","56.3","","98.71","","","","","","Mostly Cloudy"
"-139.84","67.57","OLD CROW A","2100801","2019-06-09 17:00","2019","06","09","17:00","22.0","","0.1","","23","","","","10","","8","","56.3","","98.67","","","","","","NA"
"-139.84","67.57","OLD CROW A","2100801","2019-06-09 18:00","2019","06","09","18:00"
"-139.84","67.57","OLD CROW A","2100801","2019-06-09 19:00","2019","06","09","19:00"
"-139.84","67.57","OLD CROW A","2100801","2019-06-09 20:00","2019","06","09","20:00"
"-139.84","67.57","OLD CROW A","2100801","2019-06-09 21:00","2019","06","09","21:00"
"-139.84","67.57","OLD CROW A","2100801","2019-06-09 22:00","2019","06","09","22:00"
"-139.84","67.57","OLD CROW A","2100801","2019-06-09 23:00","2019","06","09","23:00"
"-139.84","67.57","OLD CROW A","2100801","2019-06-10 00:00","2019","06","10","00:00"
"-139.84","67.57","OLD CROW A","2100801","2019-06-10 01:00","2019","06","10","01:00"
"-139.84","67.57","OLD CROW A","2100801","2019-06-10 02:00","2019","06","10","02:00"
"-139.84","67.57","OLD CROW A","2100801","2019-06-10 03:00","2019","06","10","03:00"
"-139.84","67.57","OLD CROW A","2100801","2019-06-10 04:00","2019","06","10","04:00"
"-139.84","67.57","OLD CROW A","2100801","2019-06-10 05:00","2019","06","10","05:00","9.5","","4.5","","71","","","","26","","7","","56.3","","98.81","","","","","","NA"
"-139.84","67.57","OLD CROW A","2100801","2019-06-10 06:00","2019","06","10","06:00","10.3","","4.6","","68","","","","26","","9","","56.3","","98.78","","","","","","NA"
"-139.84","67.57","OLD CROW A","2100801","2019-06-10 07:00","2019","06","10","07:00","11.0","","3.6","","60","","","","26","","5","","56.3","","98.77","","","","","","Mainly Clear"
"-139.84","67.57","OLD CROW A","2100801","2019-06-10 08:00","2019","06","10","08:00","12.8","","3.5","","53","","","","25","","5","","56.3","","98.75","","","","","","NA"
"-139.84","67.57","OLD CROW A","2100801","2019-06-10 09:00","2019","06","10","09:00","13.7","","3.3","","49","","","","13","","5","","56.3","","98.72","","","","","","NA"
"-139.84","67.57","OLD CROW A","2100801","2019-06-10 10:00","2019","06","10","10:00","15.6","","3.0","","42","","","","15","","4","","56.3","","98.68","","","","","","Mostly Cloudy"
"-139.84","67.57","OLD CROW A","2100801","2019-06-10 11:00","2019","06","10","11:00","16.9","","4.4","","43","","","","14","","3","","56.3","","98.62","","","","","","NA"
"-139.84","67.57","OLD CROW A","2100801","2019-06-10 12:00","2019","06","10","12:00","18.8","","4.8","","39","","","","19","","3","","56.3","","98.54","","","","","","NA"
"-139.84","67.57","OLD CROW A","2100801","2019-06-10 13:00","2019","06","10","13:00","19.9","","3.2","","33","","","","12","","4","","56.3","","98.44","","","","","","Mostly Cloudy"
"-139.84","67.57","OLD CROW A","2100801","2019-06-10 14:00","2019","06","10","14:00"
"-139.84","67.57","OLD CROW A","2100801","2019-06-10 15:00","2019","06","10","15:00"
"-139.84","67.57","OLD CROW A","2100801","2019-06-10 16:00","2019","06","10","16:00"
"-139.84","67.57","OLD CROW A","2100801","2019-06-10 17:00","2019","06","10","17:00"
"-139.84","67.57","OLD CROW A","2100801","2019-06-10 18:00","2019","06","10","18:00"
"-139.84","67.57","OLD CROW A","2100801","2019-06-10 19:00","2019","06","10","19:00"
"-139.84","67.57","OLD CROW A","2100801","2019-06-10 20:00","2019","06","10","20:00"
"-139.84","67.57","OLD CROW A","2100801","2019-06-10 21:00","2019","06","10","21:00"
"-139.84","67.57","OLD CROW A","2100801","2019-06-10 22:00","2019","06","10","22:00"
"-139.84","67.57","OLD CROW A","2100801","2019-06-10 23:00","2019","06","10","23:00"
"-139.84","67.57","OLD CROW A","2100801","2019-06-11 00:00","2019","06","11","00:00"
"-139.84","67.57","OLD CROW A","2100801","2019-06-11 01:00","2019","06","11","01:00"
"-139.84","67.57","OLD CROW A","2100801","2019-06-11 02:00","2019","06","11","02:00"
"-139.84","67.57","OLD CROW A","2100801","2019-06-11 03:00","2019","06","11","03:00"
"-139.84","67.57","OLD CROW A","2100801","2019-06-11 04:00","2019","06","11","04:00"
"-139.84","67.57","OLD CROW A","2100801","2019-06-11 05:00","2019","06","11","05:00","8.1","","7.3","","95","","","","6","","12","","56.3","","98.04","","","","","","NA"
"-139.84","67.57","OLD CROW A","2100801","2019-06-11 06:00","2019","06","11","06:00","10.7","","7.7","","81","","","","3","","10","","24.1","","98.01","","","","","","NA"
"-139.84","67.57","OLD CROW A","2100801","2019-06-11 07:00","2019","06","11","07:00","9.3","","6.6","","83","","","","8","","14","","24.1","","98.01","","","","","","Mostly Cloudy"
"-139.84","67.57","OLD CROW A","2100801","2019-06-11 08:00","2019","06","11","08:00","9.6","","6.6","","82","","","","8","","15","","56.3","","98.01","","","","","","NA"
"-139.84","67.57","OLD CROW A","2100801","2019-06-11 09:00","2019","06","11","09:00","11.4","","6.8","","73","","","","6","","21","","56.3","","97.99","","","","","","NA"
"-139.84","67.57","OLD CROW A","2100801","2019-06-11 10:00","2019","06","11","10:00","12.3","","6.9","","69","","","","5","","18","","56.3","","97.99","","","","","","Mostly Cloudy"
"-139.84","67.57","OLD CROW A","2100801","2019-06-11 11:00","2019","06","11","11:00","12.3","","6.4","","67","","","","3","","21","","56.3","","97.97","","","","","","NA"
"-139.84","67.57","OLD CROW A","2100801","2019-06-11 12:00","2019","06","11","12:00","12.7","","6.6","","66","","","","5","","20","","56.3","","97.97","","","","","","NA"
"-139.84","67.57","OLD CROW A","2100801","2019-06-11 13:00","2019","06","11","13:00","12.4","","6.6","","67","","","","6","","14","","56.3","","97.90","","","","","","Mostly Cloudy"
"-139.84","67.57","OLD CROW A","2100801","2019-06-11 14:00","2019","06","11","14:00"
"-139.84","67.57","OLD CROW A","2100801","2019-06-11 15:00","2019","06","11","15:00"
"-139.84","67.57","OLD CROW A","2100801","2019-06-11 16:00","2019","06","11","16:00"
"-139.84","67.57","OLD CROW A","2100801","2019-06-11 17:00","2019","06","11","17:00"
"-139.84","67.57","OLD CROW A","2100801","2019-06-11 18:00","2019","06","11","18:00"
"-139.84","67.57","OLD CROW A","2100801","2019-06-11 19:00","2019","06","11","19:00"
"-139.84","67.57","OLD CROW A","2100801","2019-06-11 20:00","2019","06","11","20:00"
"-139.84","67.57","OLD CROW A","2100801","2019-06-11 21:00","2019","06","11","21:00"
"-139.84","67.57","OLD CROW A","2100801","2019-06-11 22:00","2019","06","11","22:00"
"-139.84","67.57","OLD CROW A","2100801","2019-06-11 23:00","2019","06","11","23:00"
"-139.84","67.57","OLD CROW A","2100801","2019-06-12 00:00","2019","06","12","00:00"
"-139.84","67.57","OLD CROW A","2100801","2019-06-12 01:00","2019","06","12","01:00"
"-139.84","67.57","OLD CROW A","2100801","2019-06-12 02:00","2019","06","12","02:00"
"-139.84","67.57","OLD CROW A","2100801","2019-06-12 03:00","2019","06","12","03:00"
"-139.84","67.57","OLD CROW A","2100801","2019-06-12 04:00","2019","06","12","04:00"
"-139.84","67.57","OLD CROW A","2100801","2019-06-12 05:00","2019","06","12","05:00","10.0","","7.4","","84","","","","27","","8","","56.3","","97.36","","","","","","NA"
"-139.84","67.57","OLD CROW A","2100801","2019-06-12 06:00","2019","06","12","06:00","10.7","","7.6","","81","","","","24","","10","","56.3","","97.35","","","","","","NA"
"-139.84","67.57","OLD CROW A","2100801","2019-06-12 07:00","2019","06","12","07:00","12.8","","6.8","","67","","","","25","","12","","56.3","","97.36","","","","","","Mostly Cloudy"
"-139.84","67.57","OLD CROW A","2100801","2019-06-12 08:00","2019","06","12","08:00","14.7","","6.5","","58","","","","24","","18","","56.3","","97.33","","","","","","NA"
"-139.84","67.57","OLD CROW A","2100801","2019-06-12 09:00","2019","06","12","09:00","15.2","","4.4","","48","","","","25","","21","","56.3","","97.34","","","","","","NA"
"-139.84","67.57","OLD CROW A","2100801","2019-06-12 10:00","2019","06","12","10:00","16.5","","3.9","","43","","","","25","","24","","56.3","","97.33","","","","","","Cloudy"
"-139.84","67.57","OLD CROW A","2100801","2019-06-12 11:00","2019","06","12","11:00","17.1","","4.1","","42","","","","27","","16","","56.3","","97.33","","","","","","NA"
"-139.84","67.57","OLD CROW A","2100801","2019-06-12 12:00","2019","06","12","12:00","18.4","","2.4","","34","","","","26","","27","","56.3","","97.33","","","","","","NA"
"-139.84","67.57","OLD CROW A","2100801","2019-06-12 13:00","2019","06","12","13:00","18.3","","2.2","","34","","","","27","","19","","56.3","","97.34","","","","","","Mostly Cloudy"
"-139.84","67.57","OLD CROW A","2100801","2019-06-12 14:00","2019","06","12","14:00"
"-139.84","67.57","OLD CROW A","2100801","2019-06-12 15:00","2019","06","12","15:00"
"-139.84","67.57","OLD CROW A","2100801","2019-06-12 16:00","2019","06","12","16:00"
"-139.84","67.57","OLD CROW A","2100801","2019-06-12 17:00","2019","06","12","17:00"
"-139.84","67.57","OLD CROW A","2100801","2019-06-12 18:00","2019","06","12","18:00"
"-139.84","67.57","OLD CROW A","2100801","2019-06-12 19:00","2019","06","12","19:00"
"-139.84","67.57","OLD CROW A","2100801","2019-06-12 20:00","2019","06","12","20:00"
"-139.84","67.57","OLD CROW A","2100801","2019-06-12 21:00","2019","06","12","21:00"
"-139.84","67.57","OLD CROW A","2100801","2019-06-12 22:00","2019","06","12","22:00"
"-139.84","67.57","OLD CROW A","2100801","2019-06-12 23:00","2019","06","12","23:00"
"-139.84","67.57","OLD CROW A","2100801","2019-06-13 00:00","2019","06","13","00:00"
"-139.84","67.57","OLD CROW A","2100801","2019-06-13 01:00","2019","06","13","01:00"
"-139.84","67.57","OLD CROW A","2100801","2019-06-13 02:00","2019","06","13","02:00"
"-139.84","67.57","OLD CROW A","2100801","2019-06-13 03:00","2019","06","13","03:00"
"-139.84","67.57","OLD CROW A","2100801","2019-06-13 04:00","2019","06","13","04:00"
"-139.84","67.57","OLD CROW A","2100801","2019-06-13 05:00","2019","06","13","05:00","3.8","","1.3","","83","","","","3","","18","","16.1","","98.15","","","","","","NA"
"-139.84","67.57","OLD CROW A","2100801","2019-06-13 06:00","2019","06","13","06:00","4.1","","2.8","","91","","","","4","","18","","16.1","","98.18","","","","","","NA"
"-139.84","67.57","OLD CROW A","2100801","2019-06-13 07:00","2019","06","13","07:00","4.6","","3.7","","94","","","","4","","9","","4.8","","98.21","","","","","","Drizzle"
"-139.84","67.57","OLD CROW A","2100801","2019-06-13 08:00","2019","06","13","08:00","5.5","","4.2","","91","","","","11","","8","","24.1","","98.20","","","","","","Drizzle"
"-139.84","67.57","OLD CROW A","2100801","2019-06-13 09:00","2019","06","13","09:00","5.8","","3.7","","86","","","","11","","5","","24.1","","98.19","","","","","","NA"
"-139.84","67.57","OLD CROW A","2100801","2019-06-13 10:00","2019","06","13","10:00","6.7","","3.6","","80","","","","14","","7","","24.1","","98.16","","","","","","Mostly Cloudy"
"-139.84","67.57","OLD CROW A","2100801","2019-06-13 11:00","2019","06","13","11:00","8.0","","3.8","","75","","","","27","","4","","56.3","","98.13","","","","","","NA"
"-139.84","67.57","OLD CROW A","2100801","2019-06-13 12:00","2019","06","13","12:00","9.8","","3.9","","66","","","","27","","9","","56.3","","98.06","","","","","","NA"
"-139.84","67.57","OLD CROW A","2100801","2019-06-13 13:00","2019","06","13","13:00","10.2","","3.8","","64","","","","27","","11","","56.3","","97.98","","","","","","Mostly Cloudy"
"-139.84","67.57","OLD CROW A","2100801","2019-06-13 14:00","2019","06","13","14:00"
"-139.84","67.57","OLD CROW A","2100801","2019-06-13 15:00","2019","06","13","15:00"
"-139.84","67.57","OLD CROW A","2100801","2019-06-13 16:00","2019","06","13","16:00"
"-139.84","67.57","OLD CROW A","2100801","2019-06-13 17:00","2019","06","13","17:00"
"-139.84","67.57","OLD CROW A","2100801","2019-06-13 18:00","2019","06","13","18:00"
"-139.84","67.57","OLD CROW A","2100801","2019-06-13 19:00","2019","06","13","19:00"
"-139.84","67.57","OLD CROW A","2100801","2019-06-13 20:00","2019","06","13","20:00"
"-139.84","67.57","OLD CROW A","2100801","2019-06-13 21:00","2019","06","13","21:00"
"-139.84","67.57","OLD CROW A","2100801","2019-06-13 22:00","2019","06","13","22:00"
"-139.84","67.57","OLD CROW A","2100801","2019-06-13 23:00","2019","06","13","23:00"
"-139.84","67.57","OLD CROW A","2100801","2019-06-14 00:00","2019","06","14","00:00"
"-139.84","67.57","OLD CROW A","2100801","2019-06-14 01:00","2019","06","14","01:00"
"-139.84","67.57","OLD CROW A","2100801","2019-06-14 02:00","2019","06","14","02:00"
"-139.84","67.57","OLD CROW A","2100801","2019-06-14 03:00","2019","06","14","03:00"
"-139.84","67.57","OLD CROW A","2100801","2019-06-14 04:00","2019","06","14","04:00"
"-139.84","67.57","OLD CROW A","2100801","2019-06-14 05:00","2019","06","14","05:00","8.3","","3.4","","71","","","","11","","8","","56.3","","97.95","","","","","","NA"
"-139.84","67.57","OLD CROW A","2100801","2019-06-14 06:00","2019","06","14","06:00","7.9","","4.0","","76","","","","9","","3","","56.3","","97.95","","","","","","NA"
"-139.84","67.57","OLD CROW A","2100801","2019-06-14 07:00","2019","06","14","07:00","9.3","","3.6","","68","","","","6","","4","","56.3","","97.93","","","","","","Mostly Cloudy"
"-139.84","67.57","OLD CROW A","2100801","2019-06-14 08:00","2019","06","14","08:00","9.3","","3.9","","69","","","","8","","9","","56.3","","97.91","","","","","","NA"
"-139.84","67.57","OLD CROW A","2100801","2019-06-14 09:00","2019","06","14","09:00","10.6","","4.3","","65","","","","8","","8","","56.3","","97.87","","","","","","NA"
"-139.84","67.57","OLD CROW A","2100801","2019-06-14 10:00","2019","06","14","10:00","11.7","","3.9","","59","","","","10","","10","","56.3","","97.83","","","","","","Mostly Cloudy"
"-139.84","67.57","OLD CROW A","2100801","2019-06-14 11:00","2019","06","14","11:00","12.6","","4.2","","56","","","","9","","14","","56.3","","97.76","","","","","","NA"
"-139.84","67.57","OLD CROW A","2100801","2019-06-14 12:00","2019","06","14","12:00","14.5","","5.1","","53","","","","8","","14","","56.3","","97.71","","","","","","NA"
"-139.84","67.57","OLD CROW A","2100801","2019-06-14 13:00","2019","06","14","13:00","15.6","","6.3","","54","","","","8","","15","","56.3","","97.67","","","","","","Mostly Cloudy"
"-139.84","67.57","OLD CROW A","2100801","2019-06-14 14:00","2019","06","14","14:00"
"-139.84","67.57","OLD CROW A","2100801","2019-06-14 15:00","2019","06","14","15:00"
"-139.84","67.57","OLD CROW A","2100801","2019-06-14 16:00","2019","06","14","16:00"
"-139.84","67.57","OLD CROW A","2100801","2019-06-14 17:00","2019","06","14","17:00"
"-139.84","67.57","OLD CROW A","2100801","2019-06-14 18:00","2019","06","14","18:00"
"-139.84","67.57","OLD CROW A","2100801","2019-06-14 19:00","2019","06","14","19:00"
"-139.84","67.57","OLD CROW A","2100801","2019-06-14 20:00","2019","06","14","20:00"
"-139.84","67.57","OLD CROW A","2100801","2019-06-14 21:00","2019","06","14","21:00"
"-139.84","67.57","OLD CROW A","2100801","2019-06-14 22:00","2019","06","14","22:00"
"-139.84","67.57","OLD CROW A","2100801","2019-06-14 23:00","2019","06","14","23:00"
"-139.84","67.57","OLD CROW A","2100801","2019-06-15 00:00","2019","06","15","00:00"
"-139.84","67.57","OLD CROW A","2100801","2019-06-15 01:00","2019","06","15","01:00"
"-139.84","67.57","OLD CROW A","2100801","2019-06-15 02:00","2019","06","15","02:00"
"-139.84","67.57","OLD CROW A","2100801","2019-06-15 03:00","2019","06","15","03:00"
"-139.84","67.57","OLD CROW A","2100801","2019-06-15 04:00","2019","06","15","04:00"
"-139.84","67.57","OLD CROW A","2100801","2019-06-15 05:00","2019","06","15","05:00","2.4","","-2.2","","72","","","","5","","20","","56.3","","98.59","","","","","","NA"
"-139.84","67.57","OLD CROW A","2100801","2019-06-15 06:00","2019","06","15","06:00","2.8","","-2.0","","71","","","","5","","25","","56.3","","98.60","","","","","","NA"
"-139.84","67.57","OLD CROW A","2100801","2019-06-15 07:00","2019","06","15","07:00","3.5","","-2.2","","66","","","","5","","23","","56.3","","98.64","","","","","","Mostly Cloudy"
"-139.84","67.57","OLD CROW A","2100801","2019-06-15 08:00","2019","06","15","08:00","4.0","","-3.1","","60","","","","4","","28","","56.3","","98.67","","","","","","NA"
"-139.84","67.57","OLD CROW A","2100801","2019-06-15 09:00","2019","06","15","09:00","4.8","","-2.7","","58","","","","4","","21","","56.3","","98.69","","","","","","NA"
"-139.84","67.57","OLD CROW A","2100801","2019-06-15 10:00","2019","06","15","10:00","5.8","","-2.2","","57","","","","4","","18","","56.3","","98.71","","","","","","Mostly Cloudy"
"-139.84","67.57","OLD CROW A","2100801","2019-06-15 11:00","2019","06","15","11:00","7.2","","-1.8","","52","","","","6","","18","","56.3","","98.72","","","","","","NA"
"-139.84","67.57","OLD CROW A","2100801","2019-06-15 12:00","2019","06","15","12:00","9.5","","-0.9","","48","","","","5","","16","","56.3","","98.70","","","","","","NA"
"-139.84","67.57","OLD CROW A","2100801","2019-06-15 13:00","2019","06","15","13:00","10.9","","-0.4","","45","","","","5","","16","","56.3","","98.67","","","","","","Mostly Cloudy"
"-139.84","67.57","OLD CROW A","2100801","2019-06-15 14:00","2019","06","15","14:00"
"-139.84","67.57","OLD CROW A","2100801","2019-06-15 15:00","2019","06","15","15:00"
"-139.84","67.57","OLD CROW A","2100801","2019-06-15 16:00","2019","06","15","16:00"
"-139.84","67.57","OLD CROW A","2100801","2019-06-15 17:00","2019","06","15","17:00"
"-139.84","67.57","OLD CROW A","2100801","2019-06-15 18:00","2019","06","15","18:00"
"-139.84","67.57","OLD CROW A","2100801","2019-06-15 19:00","2019","06","15","19:00"
"-139.84","67.57","OLD CROW A","2100801","2019-06-15 20:00","2019","06","15","20:00"
"-139.84","67.57","OLD CROW A","2100801","2019-06-15 21:00","2019","06","15","21:00"
"-139.84","67.57","OLD CROW A","2100801","2019-06-15 22:00","2019","06","15","22:00"
"-139.84","67.57","OLD CROW A","2100801","2019-06-15 23:00","2019","06","15","23:00"
"-139.84","67.57","OLD CROW A","2100801","2019-06-16 00:00","2019","06","16","00:00"
"-139.84","67.57","OLD CROW A","2100801","2019-06-16 01:00","2019","06","16","01:00"
"-139.84","67.57","OLD CROW A","2100801","2019-06-16 02:00","2019","06","16","02:00"
"-139.84","67.57","OLD CROW A","2100801","2019-06-16 03:00","2019","06","16","03:00"
"-139.84","67.57","OLD CROW A","2100801","2019-06-16 04:00","2019","06","16","04:00"
"-139.84","67.57","OLD CROW A","2100801","2019-06-16 05:00","2019","06","16","05:00","6.0","","2.4","","78","","","","5","","10","","56.3","","98.50","","","","","","NA"
"-139.84","67.57","OLD CROW A","2100801","2019-06-16 06:00","2019","06","16","06:00","7.1","","2.6","","73","","","","6","","13","","56.3","","98.47","","","","","","NA"
"-139.84","67.57","OLD CROW A","2100801","2019-06-16 07:00","2019","06","16","07:00","8.6","","2.7","","66","","","","8","","14","","56.3","","98.45","","","","","","Clear"
"-139.84","67.57","OLD CROW A","2100801","2019-06-16 08:00","2019","06","16","08:00","9.8","","3.0","","63","","","","9","","8","","56.3","","98.43","","","","","","NA"
"-139.84","67.57","OLD CROW A","2100801","2019-06-16 09:00","2019","06","16","09:00","10.9","","3.1","","58","","","","9","","10","","56.3","","98.39","","","","","","NA"
"-139.84","67.57","OLD CROW A","2100801","2019-06-16 10:00","2019","06","16","10:00","12.4","","3.3","","54","","","","9","","11","","56.3","","98.34","","","","","","Clear"
"-139.84","67.57","OLD CROW A","2100801","2019-06-16 11:00","2019","06","16","11:00","13.4","","3.4","","51","","","","8","","12","","56.3","","98.27","","","","","","NA"
"-139.84","67.57","OLD CROW A","2100801","2019-06-16 12:00","2019","06","16","12:00","15.2","","3.3","","45","","","","11","","12","","56.3","","98.23","","","","","","NA"
"-139.84","67.57","OLD CROW A","2100801","2019-06-16 13:00","2019","06","16","13:00","16.2","","1.9","","38","","","","8","","12","","56.3","","98.16","","","","","","Clear"
"-139.84","67.57","OLD CROW A","2100801","2019-06-16 14:00","2019","06","16","14:00","17.3","","3.0","","38","","","","10","","9","","56.3","","98.11","","","","","","NA"
"-139.84","67.57","OLD CROW A","2100801","2019-06-16 15:00","2019","06","16","15:00","18.1","","1.8","","33","","","","10","","12","","56.3","","98.06","","","","","","NA"
"-139.84","67.57","OLD CROW A","2100801","2019-06-16 16:00","2019","06","16","16:00","19.0","","0.2","","28","","","","11","","9","","56.3","","97.99","","","","","","Clear"
"-139.84","67.57","OLD CROW A","2100801","2019-06-16 17:00","2019","06","16","17:00","19.3","","-0.9","","25","","","","9","","11","","56.3","","97.92","","","","","","NA"
"-139.84","67.57","OLD CROW A","2100801","2019-06-16 18:00","2019","06","16","18:00"
"-139.84","67.57","OLD CROW A","2100801","2019-06-16 19:00","2019","06","16","19:00"
"-139.84","67.57","OLD CROW A","2100801","2019-06-16 20:00","2019","06","16","20:00"
"-139.84","67.57","OLD CROW A","2100801","2019-06-16 21:00","2019","06","16","21:00"
"-139.84","67.57","OLD CROW A","2100801","2019-06-16 22:00","2019","06","16","22:00"
"-139.84","67.57","OLD CROW A","2100801","2019-06-16 23:00","2019","06","16","23:00"
"-139.84","67.57","OLD CROW A","2100801","2019-06-17 00:00","2019","06","17","00:00"
"-139.84","67.57","OLD CROW A","2100801","2019-06-17 01:00","2019","06","17","01:00"
"-139.84","67.57","OLD CROW A","2100801","2019-06-17 02:00","2019","06","17","02:00"
"-139.84","67.57","OLD CROW A","2100801","2019-06-17 03:00","2019","06","17","03:00"
"-139.84","67.57","OLD CROW A","2100801","2019-06-17 04:00","2019","06","17","04:00"
"-139.84","67.57","OLD CROW A","2100801","2019-06-17 05:00","2019","06","17","05:00","6.9","","-1.2","","56","","","","3","","35","","56.3","","97.90","","","","","","NA"
"-139.84","67.57","OLD CROW A","2100801","2019-06-17 06:00","2019","06","17","06:00","6.4","","-0.4","","62","","","","3","","34","","56.3","","97.94","","","","","","NA"
"-139.84","67.57","OLD CROW A","2100801","2019-06-17 07:00","2019","06","17","07:00","6.6","","1.1","","68","","","","3","","30","","56.3","","98.00","","","","","","Mostly Cloudy"
"-139.84","67.57","OLD CROW A","2100801","2019-06-17 08:00","2019","06","17","08:00","7.6","","1.6","","66","","","","4","","32","","56.3","","98.04","","","","","","NA"
"-139.84","67.57","OLD CROW A","2100801","2019-06-17 09:00","2019","06","17","09:00","8.2","","2.0","","65","","","","4","","32","","56.3","","98.07","","","","","","NA"
"-139.84","67.57","OLD CROW A","2100801","2019-06-17 10:00","2019","06","17","10:00","8.1","","2.1","","66","","","","5","","31","","56.3","","98.12","","","","","","Mostly Cloudy"
"-139.84","67.57","OLD CROW A","2100801","2019-06-17 11:00","2019","06","17","11:00","9.7","","2.6","","61","","","","4","","36","","56.3","","98.14","","","","","","NA"
"-139.84","67.57","OLD CROW A","2100801","2019-06-17 12:00","2019","06","17","12:00","10.4","","2.7","","58","","","","5","","35","","56.3","","98.18","","","","","","NA"
"-139.84","67.57","OLD CROW A","2100801","2019-06-17 13:00","2019","06","17","13:00","11.3","","3.2","","57","","","","5","","28","","56.3","","98.20","","","","","","Mostly Cloudy"
"-139.84","67.57","OLD CROW A","2100801","2019-06-17 14:00","2019","06","17","14:00","11.1","","2.7","","56","","","","5","","28","","56.3","","98.22","","","","","","NA"
"-139.84","67.57","OLD CROW A","2100801","2019-06-17 15:00","2019","06","17","15:00","12.1","","3.1","","54","","","","4","","30","","56.3","","98.24","","","","","","NA"
"-139.84","67.57","OLD CROW A","2100801","2019-06-17 16:00","2019","06","17","16:00","12.8","","4.0","","55","","","","7","","17","","56.3","","98.26","","","","","","Mainly Clear"
"-139.84","67.57","OLD CROW A","2100801","2019-06-17 17:00","2019","06","17","17:00","13.5","","3.8","","51","","","","4","","24","","56.3","","98.25","","","","","","NA"
"-139.84","67.57","OLD CROW A","2100801","2019-06-17 18:00","2019","06","17","18:00"
"-139.84","67.57","OLD CROW A","2100801","2019-06-17 19:00","2019","06","17","19:00"
"-139.84","67.57","OLD CROW A","2100801","2019-06-17 20:00","2019","06","17","20:00"
"-139.84","67.57","OLD CROW A","2100801","2019-06-17 21:00","2019","06","17","21:00"
"-139.84","67.57","OLD CROW A","2100801","2019-06-17 22:00","2019","06","17","22:00"
"-139.84","67.57","OLD CROW A","2100801","2019-06-17 23:00","2019","06","17","23:00"
"-139.84","67.57","OLD CROW A","2100801","2019-06-18 00:00","2019","06","18","00:00"
"-139.84","67.57","OLD CROW A","2100801","2019-06-18 01:00","2019","06","18","01:00"
"-139.84","67.57","OLD CROW A","2100801","2019-06-18 02:00","2019","06","18","02:00"
"-139.84","67.57","OLD CROW A","2100801","2019-06-18 03:00","2019","06","18","03:00"
"-139.84","67.57","OLD CROW A","2100801","2019-06-18 04:00","2019","06","18","04:00"
"-139.84","67.57","OLD CROW A","2100801","2019-06-18 05:00","2019","06","18","05:00","7.4","","2.4","","71","","","","3","","22","","56.3","","98.52","","","","","","NA"
"-139.84","67.57","OLD CROW A","2100801","2019-06-18 06:00","2019","06","18","06:00","7.2","","2.6","","72","","","","4","","17","","56.3","","98.52","","","","","","NA"
"-139.84","67.57","OLD CROW A","2100801","2019-06-18 07:00","2019","06","18","07:00","7.6","","2.8","","71","","","","4","","17","","56.3","","98.54","","","","","","Mostly Cloudy"
"-139.84","67.57","OLD CROW A","2100801","2019-06-18 08:00","2019","06","18","08:00","8.5","","3.2","","69","","","","5","","13","","56.3","","98.55","","","","","","NA"
"-139.84","67.57","OLD CROW A","2100801","2019-06-18 09:00","2019","06","18","09:00","9.0","","3.5","","68","","","","5","","15","","56.3","","98.57","","","","","","NA"
"-139.84","67.57","OLD CROW A","2100801","2019-06-18 10:00","2019","06","18","10:00","9.8","","4.1","","68","","","","5","","13","","56.3","","98.58","","","","","","Mostly Cloudy"
"-139.84","67.57","OLD CROW A","2100801","2019-06-18 11:00","2019","06","18","11:00","11.4","","4.2","","61","","","","5","","10","","56.3","","98.58","","","","","","NA"
"-139.84","67.57","OLD CROW A","2100801","2019-06-18 12:00","2019","06","18","12:00","13.1","","4.2","","54","","","","8","","10","","56.3","","98.56","","","","","","NA"
"-139.84","67.57","OLD CROW A","2100801","2019-06-18 13:00","2019","06","18","13:00","14.4","","4.2","","50","","","","5","","8","","56.3","","98.54","","","","","","Mostly Cloudy"
"-139.84","67.57","OLD CROW A","2100801","2019-06-18 14:00","2019","06","18","14:00"
"-139.84","67.57","OLD CROW A","2100801","2019-06-18 15:00","2019","06","18","15:00"
"-139.84","67.57","OLD CROW A","2100801","2019-06-18 16:00","2019","06","18","16:00"
"-139.84","67.57","OLD CROW A","2100801","2019-06-18 17:00","2019","06","18","17:00"
"-139.84","67.57","OLD CROW A","2100801","2019-06-18 18:00","2019","06","18","18:00"
"-139.84","67.57","OLD CROW A","2100801","2019-06-18 19:00","2019","06","18","19:00"
"-139.84","67.57","OLD CROW A","2100801","2019-06-18 20:00","2019","06","18","20:00"
"-139.84","67.57","OLD CROW A","2100801","2019-06-18 21:00","2019","06","18","21:00"
"-139.84","67.57","OLD CROW A","2100801","2019-06-18 22:00","2019","06","18","22:00"
"-139.84","67.57","OLD CROW A","2100801","2019-06-18 23:00","2019","06","18","23:00"
"-139.84","67.57","OLD CROW A","2100801","2019-06-19 00:00","2019","06","19","00:00"
"-139.84","67.57","OLD CROW A","2100801","2019-06-19 01:00","2019","06","19","01:00"
"-139.84","67.57","OLD CROW A","2100801","2019-06-19 02:00","2019","06","19","02:00"
"-139.84","67.57","OLD CROW A","2100801","2019-06-19 03:00","2019","06","19","03:00"
"-139.84","67.57","OLD CROW A","2100801","2019-06-19 04:00","2019","06","19","04:00"
"-139.84","67.57","OLD CROW A","2100801","2019-06-19 05:00","2019","06","19","05:00","9.3","","6.0","","79","","","","36","","2","","56.3","","98.94","","","","","","NA"
"-139.84","67.57","OLD CROW A","2100801","2019-06-19 06:00","2019","06","19","06:00","9.8","","6.1","","77","","","","36","","2","","56.3","","98.98","","","","","","NA"
"-139.84","67.57","OLD CROW A","2100801","2019-06-19 07:00","2019","06","19","07:00","11.9","","6.5","","69","","","","36","","2","","56.3","","98.99","","","","","","Mainly Clear"
"-139.84","67.57","OLD CROW A","2100801","2019-06-19 08:00","2019","06","19","08:00","13.8","","6.3","","60","","","","23","","4","","56.3","","99.01","","","","","","NA"
"-139.84","67.57","OLD CROW A","2100801","2019-06-19 09:00","2019","06","19","09:00","16.0","","6.9","","54","","","","23","","4","","56.3","","99.02","","","","","","NA"
"-139.84","67.57","OLD CROW A","2100801","2019-06-19 10:00","2019","06","19","10:00","18.0","","4.8","","42","","","","22","","4","","56.3","","99.00","","","","","","Mainly Clear"
"-139.84","67.57","OLD CROW A","2100801","2019-06-19 11:00","2019","06","19","11:00","19.6","","4.6","","37","","","","21","","4","","56.3","","98.98","","","","","","NA"
"-139.84","67.57","OLD CROW A","2100801","2019-06-19 12:00","2019","06","19","12:00","20.0","","4.7","","36","","","","23","","5","","56.3","","98.98","","","","","","NA"
"-139.84","67.57","OLD CROW A","2100801","2019-06-19 13:00","2019","06","19","13:00","21.2","","4.0","","32","","","","22","","4","","56.3","","98.98","","","","","","Mainly Clear"
"-139.84","67.57","OLD CROW A","2100801","2019-06-19 14:00","2019","06","19","14:00"
"-139.84","67.57","OLD CROW A","2100801","2019-06-19 15:00","2019","06","19","15:00"
"-139.84","67.57","OLD CROW A","2100801","2019-06-19 16:00","2019","06","19","16:00"
"-139.84","67.57","OLD CROW A","2100801","2019-06-19 17:00","2019","06","19","17:00"
"-139.84","67.57","OLD CROW A","2100801","2019-06-19 18:00","2019","06","19","18:00"
"-139.84","67.57","OLD CROW A","2100801","2019-06-19 19:00","2019","06","19","19:00"
"-139.84","67.57","OLD CROW A","2100801","2019-06-19 20:00","2019","06","19","20:00"
"-139.84","67.57","OLD CROW A","2100801","2019-06-19 21:00","2019","06","19","21:00"
"-139.84","67.57","OLD CROW A","2100801","2019-06-19 22:00","2019","06","19","22:00"
"-139.84","67.57","OLD CROW A","2100801","2019-06-19 23:00","2019","06","19","23:00"
"-139.84","67.57","OLD CROW A","2100801","2019-06-20 00:00","2019","06","20","00:00"
"-139.84","67.57","OLD CROW A","2100801","2019-06-20 01:00","2019","06","20","01:00"
"-139.84","67.57","OLD CROW A","2100801","2019-06-20 02:00","2019","06","20","02:00"
"-139.84","67.57","OLD CROW A","2100801","2019-06-20 03:00","2019","06","20","03:00"
"-139.84","67.57","OLD CROW A","2100801","2019-06-20 04:00","2019","06","20","04:00"
"-139.84","67.57","OLD CROW A","2100801","2019-06-20 05:00","2019","06","20","05:00","12.2","","8.3","","77","","","","11","","8","","56.3","","99.17","","","","","","NA"
"-139.84","67.57","OLD CROW A","2100801","2019-06-20 06:00","2019","06","20","06:00","13.4","","8.8","","74","","","","7","","10","","56.3","","99.18","","","","","","NA"
"-139.84","67.57","OLD CROW A","2100801","2019-06-20 07:00","2019","06","20","07:00","14.2","","9.5","","73","","","","9","","9","","56.3","","99.20","","","","","","Mainly Clear"
"-139.84","67.57","OLD CROW A","2100801","2019-06-20 08:00","2019","06","20","08:00","15.3","","8.2","","62","","","","3","","18","","56.3","","99.22","","","","","","NA"
"-139.84","67.57","OLD CROW A","2100801","2019-06-20 09:00","2019","06","20","09:00","16.5","","8.4","","58","","","","5","","14","","56.3","","99.25","","","","","","NA"
"-139.84","67.57","OLD CROW A","2100801","2019-06-20 10:00","2019","06","20","10:00","17.2","","8.2","","55","","","","6","","16","","56.3","","99.25","","","","","","Mainly Clear"
"-139.84","67.57","OLD CROW A","2100801","2019-06-20 11:00","2019","06","20","11:00","18.8","","8.6","","51","","","","6","","14","","56.3","","99.25","","","","","","NA"
"-139.84","67.57","OLD CROW A","2100801","2019-06-20 12:00","2019","06","20","12:00","20.1","","8.6","","47","","","","7","","10","","56.3","","99.24","","","","","","NA"
"-139.84","67.57","OLD CROW A","2100801","2019-06-20 13:00","2019","06","20","13:00","20.5","","8.3","","45","","","","6","","14","","56.3","","99.26","","","","","","Mostly Cloudy"
"-139.84","67.57","OLD CROW A","2100801","2019-06-20 14:00","2019","06","20","14:00"
"-139.84","67.57","OLD CROW A","2100801","2019-06-20 15:00","2019","06","20","15:00"
"-139.84","67.57","OLD CROW A","2100801","2019-06-20 16:00","2019","06","20","16:00"
"-139.84","67.57","OLD CROW A","2100801","2019-06-20 17:00","2019","06","20","17:00"
"-139.84","67.57","OLD CROW A","2100801","2019-06-20 18:00","2019","06","20","18:00"
"-139.84","67.57","OLD CROW A","2100801","2019-06-20 19:00","2019","06","20","19:00"
"-139.84","67.57","OLD CROW A","2100801","2019-06-20 20:00","2019","06","20","20:00"
"-139.84","67.57","OLD CROW A","2100801","2019-06-20 21:00","2019","06","20","21:00"
"-139.84","67.57","OLD CROW A","2100801","2019-06-20 22:00","2019","06","20","22:00"
"-139.84","67.57","OLD CROW A","2100801","2019-06-20 23:00","2019","06","20","23:00"
"-139.84","67.57","OLD CROW A","2100801","2019-06-21 00:00","2019","06","21","00:00"
"-139.84","67.57","OLD CROW A","2100801","2019-06-21 01:00","2019","06","21","01:00"
"-139.84","67.57","OLD CROW A","2100801","2019-06-21 02:00","2019","06","21","02:00"
"-139.84","67.57","OLD CROW A","2100801","2019-06-21 03:00","2019","06","21","03:00"
"-139.84","67.57","OLD CROW A","2100801","2019-06-21 04:00","2019","06","21","04:00"
"-139.84","67.57","OLD CROW A","2100801","2019-06-21 05:00","2019","06","21","05:00","12.5","","7.4","","71","","","","36","","3","","56.3","","99.03","","","","","","NA"
"-139.84","67.57","OLD CROW A","2100801","2019-06-21 06:00","2019","06","21","06:00","14.6","","8.8","","68","","","","36","","1","","48.3","","98.99","","","","","","NA"
"-139.84","67.57","OLD CROW A","2100801","2019-06-21 07:00","2019","06","21","07:00","16.3","","8.8","","61","","","","36","","1","","56.3","","98.94","","","","","","Clear"
"-139.84","67.57","OLD CROW A","2100801","2019-06-21 08:00","2019","06","21","08:00","18.2","","8.7","","53","","","","36","","1","","56.3","","98.89","","","","","","NA"
"-139.84","67.57","OLD CROW A","2100801","2019-06-21 09:00","2019","06","21","09:00","20.8","","9.1","","47","","","","36","","2","","56.3","","98.84","","","","","","NA"
"-139.84","67.57","OLD CROW A","2100801","2019-06-21 10:00","2019","06","21","10:00","22.9","","6.5","","34","","","","26","","8","","56.3","","98.77","","","","","","Clear"
"-139.84","67.57","OLD CROW A","2100801","2019-06-21 11:00","2019","06","21","11:00","24.3","","5.6","","30","","","","25","","5","","56.3","","98.70","","","","","","NA"
"-139.84","67.57","OLD CROW A","2100801","2019-06-21 12:00","2019","06","21","12:00","25.7","","6.0","","28","","","","23","","8","","56.3","","98.62","","25","","","","NA"
"-139.84","67.57","OLD CROW A","2100801","2019-06-21 13:00","2019","06","21","13:00","26.7","","6.3","","27","","","","28","","7","","56.3","","98.55","","26","","","","Mainly Clear"
"-139.84","67.57","OLD CROW A","2100801","2019-06-21 14:00","2019","06","21","14:00"
"-139.84","67.57","OLD CROW A","2100801","2019-06-21 15:00","2019","06","21","15:00"
"-139.84","67.57","OLD CROW A","2100801","2019-06-21 16:00","2019","06","21","16:00"
"-139.84","67.57","OLD CROW A","2100801","2019-06-21 17:00","2019","06","21","17:00"
"-139.84","67.57","OLD CROW A","2100801","2019-06-21 18:00","2019","06","21","18:00"
"-139.84","67.57","OLD CROW A","2100801","2019-06-21 19:00","2019","06","21","19:00"
"-139.84","67.57","OLD CROW A","2100801","2019-06-21 20:00","2019","06","21","20:00"
"-139.84","67.57","OLD CROW A","2100801","2019-06-21 21:00","2019","06","21","21:00"
"-139.84","67.57","OLD CROW A","2100801","2019-06-21 22:00","2019","06","21","22:00"
"-139.84","67.57","OLD CROW A","2100801","2019-06-21 23:00","2019","06","21","23:00"
"-139.84","67.57","OLD CROW A","2100801","2019-06-22 00:00","2019","06","22","00:00"
"-139.84","67.57","OLD CROW A","2100801","2019-06-22 01:00","2019","06","22","01:00"
"-139.84","67.57","OLD CROW A","2100801","2019-06-22 02:00","2019","06","22","02:00"
"-139.84","67.57","OLD CROW A","2100801","2019-06-22 03:00","2019","06","22","03:00"
"-139.84","67.57","OLD CROW A","2100801","2019-06-22 04:00","2019","06","22","04:00"
"-139.84","67.57","OLD CROW A","2100801","2019-06-22 05:00","2019","06","22","05:00","18.6","","8.2","","50","","","","5","","21","","48.3","","98.28","","","","","","NA"
"-139.84","67.57","OLD CROW A","2100801","2019-06-22 06:00","2019","06","22","06:00","18.1","","9.1","","55","","","","4","","21","","48.3","","98.28","","","","","","NA"
"-139.84","67.57","OLD CROW A","2100801","2019-06-22 07:00","2019","06","22","07:00","18.8","","8.6","","51","","","","4","","18","","48.3","","98.29","","","","","","Mainly Clear"
"-139.84","67.57","OLD CROW A","2100801","2019-06-22 08:00","2019","06","22","08:00","19.3","","8.8","","50","","","","5","","32","","48.3","","98.31","","","","","","NA"
"-139.84","67.57","OLD CROW A","2100801","2019-06-22 09:00","2019","06","22","09:00","19.6","","9.4","","51","","","","5","","28","","48.3","","98.33","","","","","","NA"
"-139.84","67.57","OLD CROW A","2100801","2019-06-22 10:00","2019","06","22","10:00","20.6","","9.6","","49","","","","6","","23","","48.3","","98.34","","","","","","Mainly Clear"
"-139.84","67.57","OLD CROW A","2100801","2019-06-22 11:00","2019","06","22","11:00","21.2","","9.7","","47","","","","6","","23","","56.3","","98.35","","","","","","NA"
"-139.84","67.57","OLD CROW A","2100801","2019-06-22 12:00","2019","06","22","12:00","22.3","","8.4","","40","","","","5","","18","","56.3","","98.36","","","","","","NA"
"-139.84","67.57","OLD CROW A","2100801","2019-06-22 13:00","2019","06","22","13:00","23.0","","6.2","","33","","","","6","","22","","56.3","","98.36","","","","","","Mostly Cloudy"
"-139.84","67.57","OLD CROW A","2100801","2019-06-22 14:00","2019","06","22","14:00","21.9","","6.4","","36","","","","6","","22","","56.3","","98.38","","","","","","NA"
"-139.84","67.57","OLD CROW A","2100801","2019-06-22 15:00","2019","06","22","15:00","22.8","","6.5","","35","","","","5","","25","","56.3","","98.38","","","","","","NA"
"-139.84","67.57","OLD CROW A","2100801","2019-06-22 16:00","2019","06","22","16:00","23.7","","3.7","","27","","","","4","","30","","56.3","","98.36","","","","","","Mostly Cloudy"
"-139.84","67.57","OLD CROW A","2100801","2019-06-22 17:00","2019","06","22","17:00","23.6","","5.1","","30","","","","6","","24","","56.3","","98.37","","","","","","NA"
"-139.84","67.57","OLD CROW A","2100801","2019-06-22 18:00","2019","06","22","18:00"
"-139.84","67.57","OLD CROW A","2100801","2019-06-22 19:00","2019","06","22","19:00"
"-139.84","67.57","OLD CROW A","2100801","2019-06-22 20:00","2019","06","22","20:00"
"-139.84","67.57","OLD CROW A","2100801","2019-06-22 21:00","2019","06","22","21:00"
"-139.84","67.57","OLD CROW A","2100801","2019-06-22 22:00","2019","06","22","22:00"
"-139.84","67.57","OLD CROW A","2100801","2019-06-22 23:00","2019","06","22","23:00"
"-139.84","67.57","OLD CROW A","2100801","2019-06-23 00:00","2019","06","23","00:00"
"-139.84","67.57","OLD CROW A","2100801","2019-06-23 01:00","2019","06","23","01:00"
"-139.84","67.57","OLD CROW A","2100801","2019-06-23 02:00","2019","06","23","02:00"
"-139.84","67.57","OLD CROW A","2100801","2019-06-23 03:00","2019","06","23","03:00"
"-139.84","67.57","OLD CROW A","2100801","2019-06-23 04:00","2019","06","23","04:00"
"-139.84","67.57","OLD CROW A","2100801","2019-06-23 05:00","2019","06","23","05:00","14.2","","6.1","","58","","","","3","","23","","56.3","","98.82","","","","","","NA"
"-139.84","67.57","OLD CROW A","2100801","2019-06-23 06:00","2019","06","23","06:00","15.0","","6.8","","58","","","","4","","18","","56.3","","98.82","","","","","","NA"
"-139.84","67.57","OLD CROW A","2100801","2019-06-23 07:00","2019","06","23","07:00","15.2","","6.7","","56","","","","5","","23","","56.3","","98.81","","","","","","Clear"
"-139.84","67.57","OLD CROW A","2100801","2019-06-23 08:00","2019","06","23","08:00","15.9","","7.3","","56","","","","4","","19","","56.3","","98.84","","","","","","NA"
"-139.84","67.57","OLD CROW A","2100801","2019-06-23 09:00","2019","06","23","09:00","17.0","","7.2","","52","","","","5","","26","","56.3","","98.82","","","","","","NA"
"-139.84","67.57","OLD CROW A","2100801","2019-06-23 10:00","2019","06","23","10:00","17.9","","7.7","","51","","","","7","","18","","56.3","","98.80","","","","","","Mainly Clear"
"-139.84","67.57","OLD CROW A","2100801","2019-06-23 11:00","2019","06","23","11:00","20.0","","8.2","","46","","","","8","","13","","56.3","","98.77","","","","","","NA"
"-139.84","67.57","OLD CROW A","2100801","2019-06-23 12:00","2019","06","23","12:00","20.2","","6.6","","41","","","","7","","17","","56.3","","98.76","","","","","","NA"
"-139.84","67.57","OLD CROW A","2100801","2019-06-23 13:00","2019","06","23","13:00","21.5","","5.5","","35","","","","4","","11","","56.3","","98.74","","","","","","Mostly Cloudy"
"-139.84","67.57","OLD CROW A","2100801","2019-06-23 14:00","2019","06","23","14:00","21.9","","6.1","","35","","","","7","","18","","56.3","","98.72","","","","","","NA"
"-139.84","67.57","OLD CROW A","2100801","2019-06-23 15:00","2019","06","23","15:00","22.1","","5.2","","33","","","","3","","17","","56.3","","98.70","","","","","","NA"
"-139.84","67.57","OLD CROW A","2100801","2019-06-23 16:00","2019","06","23","16:00","20.6","","5.5","","37","","","","6","","18","","56.3","","98.70","","","","","","Mostly Cloudy"
"-139.84","67.57","OLD CROW A","2100801","2019-06-23 17:00","2019","06","23","17:00","20.7","","6.2","","38","","","","5","","9","","56.3","","98.68","","","","","","NA"
"-139.84","67.57","OLD CROW A","2100801","2019-06-23 18:00","2019","06","23","18:00"
"-139.84","67.57","OLD CROW A","2100801","2019-06-23 19:00","2019","06","23","19:00"
"-139.84","67.57","OLD CROW A","2100801","2019-06-23 20:00","2019","06","23","20:00"
"-139.84","67.57","OLD CROW A","2100801","2019-06-23 21:00","2019","06","23","21:00"
"-139.84","67.57","OLD CROW A","2100801","2019-06-23 22:00","2019","06","23","22:00"
"-139.84","67.57","OLD CROW A","2100801","2019-06-23 23:00","2019","06","23","23:00"
"-139.84","67.57","OLD CROW A","2100801","2019-06-24 00:00","2019","06","24","00:00"
"-139.84","67.57","OLD CROW A","2100801","2019-06-24 01:00","2019","06","24","01:00"
"-139.84","67.57","OLD CROW A","2100801","2019-06-24 02:00","2019","06","24","02:00"
"-139.84","67.57","OLD CROW A","2100801","2019-06-24 03:00","2019","06","24","03:00"
"-139.84","67.57","OLD CROW A","2100801","2019-06-24 04:00","2019","06","24","04:00"
"-139.84","67.57","OLD CROW A","2100801","2019-06-24 05:00","2019","06","24","05:00","11.9","","10.8","","93","","","","8","","5","","32.2","","98.43","","","","","","Rain"
"-139.84","67.57","OLD CROW A","2100801","2019-06-24 06:00","2019","06","24","06:00","12.5","","10.7","","89","","","","7","","12","","32.2","","98.42","","","","","","Rain"
"-139.84","67.57","OLD CROW A","2100801","2019-06-24 07:00","2019","06","24","07:00","12.7","","10.6","","86","","","","6","","12","","32.2","","98.44","","","","","","Cloudy"
"-139.84","67.57","OLD CROW A","2100801","2019-06-24 08:00","2019","06","24","08:00","13.2","","10.6","","84","","","","5","","11","","32.2","","98.46","","","","","","NA"
"-139.84","67.57","OLD CROW A","2100801","2019-06-24 09:00","2019","06","24","09:00","13.4","","10.2","","81","","","","7","","7","","48.3","","98.45","","","","","","NA"
"-139.84","67.57","OLD CROW A","2100801","2019-06-24 10:00","2019","06","24","10:00","14.6","","10.7","","77","","","","8","","12","","48.3","","98.42","","","","","","Cloudy"
"-139.84","67.57","OLD CROW A","2100801","2019-06-24 11:00","2019","06","24","11:00","15.6","","11.1","","74","","","","4","","13","","56.3","","98.40","","","","","","NA"
"-139.84","67.57","OLD CROW A","2100801","2019-06-24 12:00","2019","06","24","12:00","14.6","","10.3","","75","","","","5","","19","","48.3","","98.39","","","","","","NA"
"-139.84","67.57","OLD CROW A","2100801","2019-06-24 13:00","2019","06","24","13:00","13.3","","9.9","","80","","","","4","","23","","32.2","","98.38","","","","","","Rain"
"-139.84","67.57","OLD CROW A","2100801","2019-06-24 14:00","2019","06","24","14:00"
"-139.84","67.57","OLD CROW A","2100801","2019-06-24 15:00","2019","06","24","15:00"
"-139.84","67.57","OLD CROW A","2100801","2019-06-24 16:00","2019","06","24","16:00"
"-139.84","67.57","OLD CROW A","2100801","2019-06-24 17:00","2019","06","24","17:00"
"-139.84","67.57","OLD CROW A","2100801","2019-06-24 18:00","2019","06","24","18:00"
"-139.84","67.57","OLD CROW A","2100801","2019-06-24 19:00","2019","06","24","19:00"
"-139.84","67.57","OLD CROW A","2100801","2019-06-24 20:00","2019","06","24","20:00"
"-139.84","67.57","OLD CROW A","2100801","2019-06-24 21:00","2019","06","24","21:00"
"-139.84","67.57","OLD CROW A","2100801","2019-06-24 22:00","2019","06","24","22:00"
"-139.84","67.57","OLD CROW A","2100801","2019-06-24 23:00","2019","06","24","23:00"
"-139.84","67.57","OLD CROW A","2100801","2019-06-25 00:00","2019","06","25","00:00"
"-139.84","67.57","OLD CROW A","2100801","2019-06-25 01:00","2019","06","25","01:00"
"-139.84","67.57","OLD CROW A","2100801","2019-06-25 02:00","2019","06","25","02:00"
"-139.84","67.57","OLD CROW A","2100801","2019-06-25 03:00","2019","06","25","03:00"
"-139.84","67.57","OLD CROW A","2100801","2019-06-25 04:00","2019","06","25","04:00"
"-139.84","67.57","OLD CROW A","2100801","2019-06-25 05:00","2019","06","25","05:00","3.4","","1.3","","86","","","","4","","13","","40.2","","98.93","","","","","","Rain"
"-139.84","67.57","OLD CROW A","2100801","2019-06-25 06:00","2019","06","25","06:00","3.3","","0.9","","84","","","","4","","16","","40.2","","98.95","","","","","","Rain"
"-139.84","67.57","OLD CROW A","2100801","2019-06-25 07:00","2019","06","25","07:00","3.2","","0.4","","81","","","","6","","19","","48.3","","98.96","","","","","","Cloudy"
"-139.84","67.57","OLD CROW A","2100801","2019-06-25 08:00","2019","06","25","08:00","3.5","","0.3","","79","","","","5","","16","","48.3","","99.01","","","","","","NA"
"-139.84","67.57","OLD CROW A","2100801","2019-06-25 09:00","2019","06","25","09:00","3.4","","0.6","","82","","","","6","","13","","40.2","","99.05","","","","","","Rain"
"-139.84","67.57","OLD CROW A","2100801","2019-06-25 10:00","2019","06","25","10:00","4.4","","0.0","","73","","","","6","","18","","40.2","","99.08","","","","","","Cloudy"
"-139.84","67.57","OLD CROW A","2100801","2019-06-25 11:00","2019","06","25","11:00","5.1","","0.9","","74","","","","8","","17","","48.3","","99.09","","","","","","NA"
"-139.84","67.57","OLD CROW A","2100801","2019-06-25 12:00","2019","06","25","12:00","6.6","","1.3","","69","","","","7","","12","","56.3","","99.11","","","","","","NA"
"-139.84","67.57","OLD CROW A","2100801","2019-06-25 13:00","2019","06","25","13:00","8.6","","1.2","","60","","","","5","","11","","56.3","","99.09","","","","","","Mostly Cloudy"
"-139.84","67.57","OLD CROW A","2100801","2019-06-25 14:00","2019","06","25","14:00","9.7","","1.5","","57","","","","5","","17","","56.3","","99.13","","","","","","NA"
"-139.84","67.57","OLD CROW A","2100801","2019-06-25 15:00","2019","06","25","15:00"
"-139.84","67.57","OLD CROW A","2100801","2019-06-25 16:00","2019","06","25","16:00"
"-139.84","67.57","OLD CROW A","2100801","2019-06-25 17:00","2019","06","25","17:00"
"-139.84","67.57","OLD CROW A","2100801","2019-06-25 18:00","2019","06","25","18:00"
"-139.84","67.57","OLD CROW A","2100801","2019-06-25 19:00","2019","06","25","19:00"
"-139.84","67.57","OLD CROW A","2100801","2019-06-25 20:00","2019","06","25","20:00"
"-139.84","67.57","OLD CROW A","2100801","2019-06-25 21:00","2019","06","25","21:00"
"-139.84","67.57","OLD CROW A","2100801","2019-06-25 22:00","2019","06","25","22:00"
"-139.84","67.57","OLD CROW A","2100801","2019-06-25 23:00","2019","06","25","23:00"
"-139.84","67.57","OLD CROW A","2100801","2019-06-26 00:00","2019","06","26","00:00"
"-139.84","67.57","OLD CROW A","2100801","2019-06-26 01:00","2019","06","26","01:00"
"-139.84","67.57","OLD CROW A","2100801","2019-06-26 02:00","2019","06","26","02:00"
"-139.84","67.57","OLD CROW A","2100801","2019-06-26 03:00","2019","06","26","03:00"
"-139.84","67.57","OLD CROW A","2100801","2019-06-26 04:00","2019","06","26","04:00"
"-139.84","67.57","OLD CROW A","2100801","2019-06-26 05:00","2019","06","26","05:00","6.0","","2.3","","77","","","","36","","2","","56.3","","99.40","","","","","","NA"
"-139.84","67.57","OLD CROW A","2100801","2019-06-26 06:00","2019","06","26","06:00","6.9","","2.7","","75","","","","13","","7","","56.3","","99.40","","","","","","NA"
"-139.84","67.57","OLD CROW A","2100801","2019-06-26 07:00","2019","06","26","07:00","8.2","","2.8","","69","","","","15","","4","","56.3","","99.38","","","","","","Mostly Cloudy"
"-139.84","67.57","OLD CROW A","2100801","2019-06-26 08:00","2019","06","26","08:00","10.1","","2.6","","59","","","","17","","5","","56.3","","99.38","","","","","","NA"
"-139.84","67.57","OLD CROW A","2100801","2019-06-26 09:00","2019","06","26","09:00","11.2","","2.8","","56","","","","13","","4","","56.3","","99.35","","","","","","NA"
"-139.84","67.57","OLD CROW A","2100801","2019-06-26 10:00","2019","06","26","10:00","12.5","","2.4","","50","","","","23","","4","","56.3","","99.34","","","","","","Mostly Cloudy"
"-139.84","67.57","OLD CROW A","2100801","2019-06-26 11:00","2019","06","26","11:00","14.5","","2.5","","44","","","","13","","7","","56.3","","99.29","","","","","","NA"
"-139.84","67.57","OLD CROW A","2100801","2019-06-26 12:00","2019","06","26","12:00","16.2","","2.1","","38","","","","22","","5","","56.3","","99.28","","","","","","NA"
"-139.84","67.57","OLD CROW A","2100801","2019-06-26 13:00","2019","06","26","13:00","17.6","","3.1","","38","","","","23","","9","","56.3","","99.25","","","","","","Mostly Cloudy"
"-139.84","67.57","OLD CROW A","2100801","2019-06-26 14:00","2019","06","26","14:00"
"-139.84","67.57","OLD CROW A","2100801","2019-06-26 15:00","2019","06","26","15:00"
"-139.84","67.57","OLD CROW A","2100801","2019-06-26 16:00","2019","06","26","16:00"
"-139.84","67.57","OLD CROW A","2100801","2019-06-26 17:00","2019","06","26","17:00"
"-139.84","67.57","OLD CROW A","2100801","2019-06-26 18:00","2019","06","26","18:00"
"-139.84","67.57","OLD CROW A","2100801","2019-06-26 19:00","2019","06","26","19:00"
"-139.84","67.57","OLD CROW A","2100801","2019-06-26 20:00","2019","06","26","20:00"
"-139.84","67.57","OLD CROW A","2100801","2019-06-26 21:00","2019","06","26","21:00"
"-139.84","67.57","OLD CROW A","2100801","2019-06-26 22:00","2019","06","26","22:00"
"-139.84","67.57","OLD CROW A","2100801","2019-06-26 23:00","2019","06","26","23:00"
"-139.84","67.57","OLD CROW A","2100801","2019-06-27 00:00","2019","06","27","00:00"
"-139.84","67.57","OLD CROW A","2100801","2019-06-27 01:00","2019","06","27","01:00"
"-139.84","67.57","OLD CROW A","2100801","2019-06-27 02:00","2019","06","27","02:00"
"-139.84","67.57","OLD CROW A","2100801","2019-06-27 03:00","2019","06","27","03:00"
"-139.84","67.57","OLD CROW A","2100801","2019-06-27 04:00","2019","06","27","04:00"
"-139.84","67.57","OLD CROW A","2100801","2019-06-27 05:00","2019","06","27","05:00","6.2","","4.1","","87","","","","36","","2","","56.3","","99.02","","","","","","NA"
"-139.84","67.57","OLD CROW A","2100801","2019-06-27 06:00","2019","06","27","06:00","8.6","","4.7","","76","","","","29","","4","","56.3","","99.01","","","","","","NA"
"-139.84","67.57","OLD CROW A","2100801","2019-06-27 07:00","2019","06","27","07:00","10.4","","4.3","","66","","","","36","","1","","56.3","","98.99","","","","","","Mainly Clear"
"-139.84","67.57","OLD CROW A","2100801","2019-06-27 08:00","2019","06","27","08:00","12.2","","2.7","","52","","","","10","","5","","56.3","","98.94","","","","","","NA"
"-139.84","67.57","OLD CROW A","2100801","2019-06-27 09:00","2019","06","27","09:00","14.5","","3.5","","47","","","","11","","8","","56.3","","98.88","","","","","","NA"
"-139.84","67.57","OLD CROW A","2100801","2019-06-27 10:00","2019","06","27","10:00","15.8","","4.0","","45","","","","13","","4","","56.3","","98.86","","","","","","Mostly Cloudy"
"-139.84","67.57","OLD CROW A","2100801","2019-06-27 11:00","2019","06","27","11:00","17.5","","5.0","","44","","","","36","","1","","56.3","","98.82","","","","","","NA"
"-139.84","67.57","OLD CROW A","2100801","2019-06-27 12:00","2019","06","27","12:00","21.0","","5.8","","37","","","","26","","5","","56.3","","98.78","","","","","","NA"
"-139.84","67.57","OLD CROW A","2100801","2019-06-27 13:00","2019","06","27","13:00","22.5","","4.8","","31","","","","27","","9","","56.3","","98.72","","","","","","Cloudy"
"-139.84","67.57","OLD CROW A","2100801","2019-06-27 14:00","2019","06","27","14:00"
"-139.84","67.57","OLD CROW A","2100801","2019-06-27 15:00","2019","06","27","15:00"
"-139.84","67.57","OLD CROW A","2100801","2019-06-27 16:00","2019","06","27","16:00"
"-139.84","67.57","OLD CROW A","2100801","2019-06-27 17:00","2019","06","27","17:00"
"-139.84","67.57","OLD CROW A","2100801","2019-06-27 18:00","2019","06","27","18:00"
"-139.84","67.57","OLD CROW A","2100801","2019-06-27 19:00","2019","06","27","19:00"
"-139.84","67.57","OLD CROW A","2100801","2019-06-27 20:00","2019","06","27","20:00"
"-139.84","67.57","OLD CROW A","2100801","2019-06-27 21:00","2019","06","27","21:00"
"-139.84","67.57","OLD CROW A","2100801","2019-06-27 22:00","2019","06","27","22:00"
"-139.84","67.57","OLD CROW A","2100801","2019-06-27 23:00","2019","06","27","23:00"
"-139.84","67.57","OLD CROW A","2100801","2019-06-28 00:00","2019","06","28","00:00"
"-139.84","67.57","OLD CROW A","2100801","2019-06-28 01:00","2019","06","28","01:00"
"-139.84","67.57","OLD CROW A","2100801","2019-06-28 02:00","2019","06","28","02:00"
"-139.84","67.57","OLD CROW A","2100801","2019-06-28 03:00","2019","06","28","03:00"
"-139.84","67.57","OLD CROW A","2100801","2019-06-28 04:00","2019","06","28","04:00"
"-139.84","67.57","OLD CROW A","2100801","2019-06-28 05:00","2019","06","28","05:00","9.3","","5.4","","77","","","","8","","5","","24.1","","98.80","","","","","","NA"
"-139.84","67.57","OLD CROW A","2100801","2019-06-28 06:00","2019","06","28","06:00","9.7","","5.6","","75","","","","9","","7","","24.1","","98.80","","","","","","NA"
"-139.84","67.57","OLD CROW A","2100801","2019-06-28 07:00","2019","06","28","07:00","10.2","","5.4","","72","","","","8","","8","","24.1","","98.81","","","","","","Rain"
"-139.84","67.57","OLD CROW A","2100801","2019-06-28 08:00","2019","06","28","08:00","10.7","","7.2","","79","","","","30","","5","","24.1","","98.82","","","","","","NA"
"-139.84","67.57","OLD CROW A","2100801","2019-06-28 09:00","2019","06","28","09:00","11.1","","7.0","","76","","","","9","","3","","24.1","","98.85","","","","","","NA"
"-139.84","67.57","OLD CROW A","2100801","2019-06-28 10:00","2019","06","28","10:00","12.0","","7.6","","74","","","","36","","2","","24.1","","98.84","","","","","","Cloudy"
"-139.84","67.57","OLD CROW A","2100801","2019-06-28 11:00","2019","06","28","11:00","12.1","","9.8","","86","","","","24","","5","","24.1","","98.87","","","","","","NA"
"-139.84","67.57","OLD CROW A","2100801","2019-06-28 12:00","2019","06","28","12:00","13.1","","10.2","","83","","","","25","","6","","32.2","","98.87","","","","","","NA"
"-139.84","67.57","OLD CROW A","2100801","2019-06-28 13:00","2019","06","28","13:00","16.0","","11.3","","73","","","","26","","8","","32.2","","98.85","","","","","","Mostly Cloudy"
"-139.84","67.57","OLD CROW A","2100801","2019-06-28 14:00","2019","06","28","14:00","16.9","","12.1","","73","","","","23","","9","","32.2","","98.83","","","","","","NA"
"-139.84","67.57","OLD CROW A","2100801","2019-06-28 15:00","2019","06","28","15:00","17.9","","12.2","","69","","","","26","","6","","32.2","","98.80","","","","","","NA"
"-139.84","67.57","OLD CROW A","2100801","2019-06-28 16:00","2019","06","28","16:00","19.4","","12.8","","65","","","","25","","7","","32.2","","98.77","","","","","","Mostly Cloudy"
"-139.84","67.57","OLD CROW A","2100801","2019-06-28 17:00","2019","06","28","17:00","19.0","","13.4","","70","","","","26","","10","","32.2","","98.76","","","","","","NA"
"-139.84","67.57","OLD CROW A","2100801","2019-06-28 18:00","2019","06","28","18:00"
"-139.84","67.57","OLD CROW A","2100801","2019-06-28 19:00","2019","06","28","19:00"
"-139.84","67.57","OLD CROW A","2100801","2019-06-28 20:00","2019","06","28","20:00"
"-139.84","67.57","OLD CROW A","2100801","2019-06-28 21:00","2019","06","28","21:00"
"-139.84","67.57","OLD CROW A","2100801","2019-06-28 22:00","2019","06","28","22:00"
"-139.84","67.57","OLD CROW A","2100801","2019-06-28 23:00","2019","06","28","23:00"
"-139.84","67.57","OLD CROW A","2100801","2019-06-29 00:00","2019","06","29","00:00"
"-139.84","67.57","OLD CROW A","2100801","2019-06-29 01:00","2019","06","29","01:00"
"-139.84","67.57","OLD CROW A","2100801","2019-06-29 02:00","2019","06","29","02:00"
"-139.84","67.57","OLD CROW A","2100801","2019-06-29 03:00","2019","06","29","03:00"
"-139.84","67.57","OLD CROW A","2100801","2019-06-29 04:00","2019","06","29","04:00"
"-139.84","67.57","OLD CROW A","2100801","2019-06-29 05:00","2019","06","29","05:00","11.2","","8.9","","85","","","","24","","4","","24.1","","98.90","","","","","","NA"
"-139.84","67.57","OLD CROW A","2100801","2019-06-29 06:00","2019","06","29","06:00","11.9","","2.0","","50","","","","5","","13","","24.1","","98.89","","","","","","NA"
"-139.84","67.57","OLD CROW A","2100801","2019-06-29 07:00","2019","06","29","07:00","12.5","","2.3","","49","","","","4","","15","","56.3","","98.93","","","","","","Mostly Cloudy"
"-139.84","67.57","OLD CROW A","2100801","2019-06-29 08:00","2019","06","29","08:00","13.2","","2.3","","47","","","","4","","17","","56.3","","98.93","","","","","","NA"
"-139.84","67.57","OLD CROW A","2100801","2019-06-29 09:00","2019","06","29","09:00","13.8","","3.1","","48","","","","8","","14","","56.3","","98.92","","","","","","NA"
"-139.84","67.57","OLD CROW A","2100801","2019-06-29 10:00","2019","06","29","10:00","13.8","","3.4","","49","","","","6","","16","","56.3","","98.93","","","","","","Mostly Cloudy"
"-139.84","67.57","OLD CROW A","2100801","2019-06-29 11:00","2019","06","29","11:00","15.5","","5.2","","50","","","","8","","9","","56.3","","98.92","","","","","","NA"
"-139.84","67.57","OLD CROW A","2100801","2019-06-29 12:00","2019","06","29","12:00","16.6","","5.3","","47","","","","8","","10","","56.3","","98.93","","","","","","NA"
"-139.84","67.57","OLD CROW A","2100801","2019-06-29 13:00","2019","06","29","13:00","15.1","","5.7","","53","","","","6","","4","","56.3","","98.90","","","","","","Cloudy"
"-139.84","67.57","OLD CROW A","2100801","2019-06-29 14:00","2019","06","29","14:00","15.6","","6.3","","54","","","","7","","10","","56.3","","98.89","","","","","","NA"
"-139.84","67.57","OLD CROW A","2100801","2019-06-29 15:00","2019","06","29","15:00","15.9","","6.4","","53","","","","7","","14","","56.3","","98.88","","","","","","NA"
"-139.84","67.57","OLD CROW A","2100801","2019-06-29 16:00","2019","06","29","16:00","15.5","","6.5","","55","","","","7","","10","","56.3","","98.83","","","","","","Cloudy"
"-139.84","67.57","OLD CROW A","2100801","2019-06-29 17:00","2019","06","29","17:00","16.0","","6.6","","53","","","","5","","15","","56.3","","98.81","","","","","","NA"
"-139.84","67.57","OLD CROW A","2100801","2019-06-29 18:00","2019","06","29","18:00"
"-139.84","67.57","OLD CROW A","2100801","2019-06-29 19:00","2019","06","29","19:00"
"-139.84","67.57","OLD CROW A","2100801","2019-06-29 20:00","2019","06","29","20:00"
"-139.84","67.57","OLD CROW A","2100801","2019-06-29 21:00","2019","06","29","21:00"
"-139.84","67.57","OLD CROW A","2100801","2019-06-29 22:00","2019","06","29","22:00"
"-139.84","67.57","OLD CROW A","2100801","2019-06-29 23:00","2019","06","29","23:00"
"-139.84","67.57","OLD CROW A","2100801","2019-06-30 00:00","2019","06","30","00:00"
"-139.84","67.57","OLD CROW A","2100801","2019-06-30 01:00","2019","06","30","01:00"
"-139.84","67.57","OLD CROW A","2100801","2019-06-30 02:00","2019","06","30","02:00"
"-139.84","67.57","OLD CROW A","2100801","2019-06-30 03:00","2019","06","30","03:00"
"-139.84","67.57","OLD CROW A","2100801","2019-06-30 04:00","2019","06","30","04:00"
"-139.84","67.57","OLD CROW A","2100801","2019-06-30 05:00","2019","06","30","05:00","10.8","","7.3","","79","","","","1","","10","","48.3","","98.94","","","","","","NA"
"-139.84","67.57","OLD CROW A","2100801","2019-06-30 06:00","2019","06","30","06:00","11.0","","7.5","","79","","","","4","","16","","48.3","","98.99","","","","","","NA"
"-139.84","67.57","OLD CROW A","2100801","2019-06-30 07:00","2019","06","30","07:00","10.3","","6.3","","76","","","","7","","15","","48.3","","99.04","","","","","","Mostly Cloudy"
"-139.84","67.57","OLD CROW A","2100801","2019-06-30 08:00","2019","06","30","08:00","10.5","","5.6","","71","","","","7","","9","","48.3","","99.07","","","","","","NA"
"-139.84","67.57","OLD CROW A","2100801","2019-06-30 09:00","2019","06","30","09:00","11.1","","4.2","","63","","","","5","","17","","48.3","","99.06","","","","","","NA"
"-139.84","67.57","OLD CROW A","2100801","2019-06-30 10:00","2019","06","30","10:00","10.9","","4.0","","62","","","","6","","22","","48.3","","99.08","","","","","","Rain"
"-139.84","67.57","OLD CROW A","2100801","2019-06-30 11:00","2019","06","30","11:00","11.2","","4.0","","61","","","","5","","20","","48.3","","99.11","","","","","","NA"
"-139.84","67.57","OLD CROW A","2100801","2019-06-30 12:00","2019","06","30","12:00","11.6","","4.7","","62","","","","5","","21","","48.3","","99.13","","","","","","NA"
"-139.84","67.57","OLD CROW A","2100801","2019-06-30 13:00","2019","06","30","13:00","12.2","","5.1","","61","","","","4","","19","","48.3","","99.10","","","","","","Cloudy"
"-139.84","67.57","OLD CROW A","2100801","2019-06-30 14:00","2019","06","30","14:00"
"-139.84","67.57","OLD CROW A","2100801","2019-06-30 15:00","2019","06","30","15:00"
"-139.84","67.57","OLD CROW A","2100801","2019-06-30 16:00","2019","06","30","16:00"
"-139.84","67.57","OLD CROW A","2100801","2019-06-30 17:00","2019","06","30","17:00"
"-139.84","67.57","OLD CROW A","2100801","2019-06-30 18:00","2019","06","30","18:00"
"-139.84","67.57","OLD CROW A","2100801","2019-06-30 19:00","2019","06","30","19:00"
"-139.84","67.57","OLD CROW A","2100801","2019-06-30 20:00","2019","06","30","20:00"
"-139.84","67.57","OLD CROW A","2100801","2019-06-30 21:00","2019","06","30","21:00"
"-139.84","67.57","OLD CROW A","2100801","2019-06-30 22:00","2019","06","30","22:00"
"-139.84","67.57","OLD CROW A","2100801","2019-06-30 23:00","2019","06","30","23:00"
