"Longitude (x)","Latitude (y)","Station Name","Climate ID","Date/Time (LST)","Year","Month","Day","Time (LST)","Temp (°C)","Temp Flag","Dew Point Temp (°C)","Dew Point Temp Flag","Rel Hum (%)","Rel Hum Flag","Precip. Amount (mm)","Precip. Amount Flag","Wind Dir (10s deg)","Wind Dir Flag","Wind Spd (km/h)","Wind Spd Flag","Visibility (km)","Visibility Flag","Stn Press (kPa)","Stn Press Flag","Hmdx","Hmdx Flag","Wind Chill","Wind Chill Flag","Weather"
"-122.36","49.03","ABBOTSFORD A","1100031","2018-08-01 00:00","2018","08","01","00:00","17.2","","13.8","","80","","","","28","","5","","24.1","","100.81","","","","","","NA"
"-122.36","49.03","ABBOTSFORD A","1100031","2018-08-01 01:00","2018","08","01","01:00","16.4","","13.8","","84","","","","26","","5","","24.1","","100.82","","","","","","Clear"
"-122.36","49.03","ABBOTSFORD A","1100031","2018-08-01 02:00","2018","08","01","02:00","16.2","","13.7","","85","","","","25","","10","","24.1","","100.82","","","","","","NA"
"-122.36","49.03","ABBOTSFORD A","1100031","2018-08-01 03:00","2018","08","01","03:00","15.4","","13.4","","88","","","","23","","13","","24.1","","100.86","","","","","","NA"
"-122.36","49.03","ABBOTSFORD A","1100031","2018-08-01 04:00","2018","08","01","04:00","15.0","","13.1","","88","","","","24","","12","","48.3","","100.90","","","","","","Clear"
"-122.36","49.03","ABBOTSFORD A","1100031","2018-08-01 05:00","2018","08","01","05:00","14.0","","12.6","","91","","","","23","","10","","48.3","","100.92","","","","","","NA"
"-122.36","49.03","ABBOTSFORD A","1100031","2018-08-01 06:00","2018","08","01","06:00","15.3","","13.3","","88","","","","24","","10","","48.3","","100.95","","","","","","NA"
"-122.36","49.03","ABBOTSFORD A","1100031","2018-08-01 07:00","2018","08","01","07:00","16.1","","13.8","","86","","","","23","","16","","16.1","","100.99","","","","","","Cloudy"
"-122.36","49.03","ABBOTSFORD A","1100031","2018-08-01 08:00","2018","08","01","08:00","16.3","","13.8","","85","","","","22","","14","","20.9","","101.02","","","","","","NA"
"-122.36","49.03","ABBOTSFORD A","1100031","2018-08-01 09:00","2018","08","01","09:00","16.8","","13.7","","82","","","","25","","10","","20.9","","101.03","","","","","","NA"
"-122.36","49.03","ABBOTSFORD A","1100031","2018-08-01 10:00","2018","08","01","10:00","16.9","","13.9","","82","","","","26","","13","","20.9","","101.02","","","","","","Cloudy"
"-122.36","49.03","ABBOTSFORD A","1100031","2018-08-01 11:00","2018","08","01","11:00","18.3","","13.9","","75","","","","23","","13","","24.1","","101.01","","","","","","NA"
"-122.36","49.03","ABBOTSFORD A","1100031","2018-08-01 12:00","2018","08","01","12:00","18.7","","13.9","","73","","","","23","","8","","24.1","","100.97","","","","","","NA"
"-122.36","49.03","ABBOTSFORD A","1100031","2018-08-01 13:00","2018","08","01","13:00","20.2","","14.6","","70","","","","23","","13","","32.2","","100.94","","","","","","Mostly Cloudy"
"-122.36","49.03","ABBOTSFORD A","1100031","2018-08-01 14:00","2018","08","01","14:00","20.8","","14.4","","66","","","","24","","12","","32.2","","100.91","","","","","","NA"
"-122.36","49.03","ABBOTSFORD A","1100031","2018-08-01 15:00","2018","08","01","15:00","21.9","","14.5","","62","","","","22","","15","","48.3","","100.85","","26","","","","NA"
"-122.36","49.03","ABBOTSFORD A","1100031","2018-08-01 16:00","2018","08","01","16:00","22.6","","14.0","","58","","","","23","","20","","48.3","","100.81","","26","","","","Clear"
"-122.36","49.03","ABBOTSFORD A","1100031","2018-08-01 17:00","2018","08","01","17:00","22.0","","13.7","","59","","","","23","","17","","48.3","","100.75","","25","","","","NA"
"-122.36","49.03","ABBOTSFORD A","1100031","2018-08-01 18:00","2018","08","01","18:00","21.3","","13.5","","61","","","","24","","17","","48.3","","100.72","","","","","","NA"
"-122.36","49.03","ABBOTSFORD A","1100031","2018-08-01 19:00","2018","08","01","19:00","19.3","","13.3","","68","","","","24","","16","","48.3","","100.71","","","","","","Clear"
"-122.36","49.03","ABBOTSFORD A","1100031","2018-08-01 20:00","2018","08","01","20:00","16.4","","13.2","","81","","","","23","","8","","48.3","","100.73","","","","","","NA"
"-122.36","49.03","ABBOTSFORD A","1100031","2018-08-01 21:00","2018","08","01","21:00"
"-122.36","49.03","ABBOTSFORD A","1100031","2018-08-01 22:00","2018","08","01","22:00","15.8","","13.1","","84","","","","28","","5","","24.1","","100.76","","","","","","Clear"
"-122.36","49.03","ABBOTSFORD A","1100031","2018-08-01 23:00","2018","08","01","23:00","15.4","","12.2","","81","","","","34","","4","","24.1","","100.79","","","","","","NA"
"-122.36","49.03","ABBOTSFORD A","1100031","2018-08-02 00:00","2018","08","02","00:00","14.4","","12.6","","89","","","","31","","5","","24.1","","100.79","","","","","","NA"
"-122.36","49.03","ABBOTSFORD A","1100031","2018-08-02 01:00","2018","08","02","01:00","13.0","","12.1","","94","","","","36","","1","","24.1","","100.78","","","","","","Clear"
"-122.36","49.03","ABBOTSFORD A","1100031","2018-08-02 02:00","2018","08","02","02:00","12.9","","11.7","","92","","","","31","","3","","24.1","","100.79","","","","","","NA"
"-122.36","49.03","ABBOTSFORD A","1100031","2018-08-02 03:00","2018","08","02","03:00","12.7","","11.7","","94","","","","24","","8","","24.1","","100.81","","","","","","NA"
"-122.36","49.03","ABBOTSFORD A","1100031","2018-08-02 04:00","2018","08","02","04:00","13.5","","12.1","","91","","","","25","","5","","24.1","","100.82","","","","","","Mainly Clear"
"-122.36","49.03","ABBOTSFORD A","1100031","2018-08-02 05:00","2018","08","02","05:00","13.8","","12.3","","90","","","","29","","4","","32.2","","100.86","","","","","","NA"
"-122.36","49.03","ABBOTSFORD A","1100031","2018-08-02 06:00","2018","08","02","06:00","15.0","","12.6","","85","","","","36","","1","","32.2","","100.91","","","","","","NA"
"-122.36","49.03","ABBOTSFORD A","1100031","2018-08-02 07:00","2018","08","02","07:00","15.4","","13.0","","86","","","","16","","7","","24.1","","100.95","","","","","","Mostly Cloudy"
"-122.36","49.03","ABBOTSFORD A","1100031","2018-08-02 08:00","2018","08","02","08:00","15.7","","13.4","","86","","","","17","","7","","16.1","","101.00","","","","","","Rain Showers"
"-122.36","49.03","ABBOTSFORD A","1100031","2018-08-02 09:00","2018","08","02","09:00","16.7","","12.5","","76","","","","22","","19","","24.1","","101.04","","","","","","Rain Showers"
"-122.36","49.03","ABBOTSFORD A","1100031","2018-08-02 10:00","2018","08","02","10:00","17.7","","12.9","","73","","","","20","","13","","24.1","","101.05","","","","","","Mostly Cloudy"
"-122.36","49.03","ABBOTSFORD A","1100031","2018-08-02 11:00","2018","08","02","11:00","18.1","","12.3","","69","","","","20","","5","","32.2","","101.07","","","","","","NA"
"-122.36","49.03","ABBOTSFORD A","1100031","2018-08-02 12:00","2018","08","02","12:00","18.0","","12.5","","70","","","","22","","19","","32.2","","101.08","","","","","","NA"
"-122.36","49.03","ABBOTSFORD A","1100031","2018-08-02 13:00","2018","08","02","13:00","17.8","","12.7","","72","","","","21","","25","","32.2","","101.11","","","","","","Cloudy"
"-122.36","49.03","ABBOTSFORD A","1100031","2018-08-02 14:00","2018","08","02","14:00","18.5","","13.0","","70","","","","21","","18","","32.2","","101.10","","","","","","NA"
"-122.36","49.03","ABBOTSFORD A","1100031","2018-08-02 15:00","2018","08","02","15:00","20.1","","11.8","","58","","","","19","","23","","32.2","","101.03","","","","","","NA"
"-122.36","49.03","ABBOTSFORD A","1100031","2018-08-02 16:00","2018","08","02","16:00","19.8","","11.3","","58","","","","21","","19","","32.2","","101.01","","","","","","Mostly Cloudy"
"-122.36","49.03","ABBOTSFORD A","1100031","2018-08-02 17:00","2018","08","02","17:00","19.6","","12.1","","62","","","","22","","19","","40.2","","101.00","","","","","","NA"
"-122.36","49.03","ABBOTSFORD A","1100031","2018-08-02 18:00","2018","08","02","18:00","19.7","","12.3","","62","","","","20","","19","","40.2","","100.98","","","","","","NA"
"-122.36","49.03","ABBOTSFORD A","1100031","2018-08-02 19:00","2018","08","02","19:00","18.0","","13.0","","72","","","","24","","14","","40.2","","100.98","","","","","","Mostly Cloudy"
"-122.36","49.03","ABBOTSFORD A","1100031","2018-08-02 20:00","2018","08","02","20:00","17.2","","12.8","","75","","","","21","","11","","40.2","","101.00","","","","","","NA"
"-122.36","49.03","ABBOTSFORD A","1100031","2018-08-02 21:00","2018","08","02","21:00","17.0","","12.8","","76","","","","24","","13","","24.1","","101.01","","","","","","NA"
"-122.36","49.03","ABBOTSFORD A","1100031","2018-08-02 22:00","2018","08","02","22:00","16.4","","12.9","","80","","","","22","","10","","24.1","","101.00","","","","","","Mostly Cloudy"
"-122.36","49.03","ABBOTSFORD A","1100031","2018-08-02 23:00","2018","08","02","23:00","16.1","","12.8","","80","","","","22","","4","","24.1","","101.01","","","","","","NA"
"-122.36","49.03","ABBOTSFORD A","1100031","2018-08-03 00:00","2018","08","03","00:00","16.2","","12.8","","80","","","","17","","5","","24.1","","101.01","","","","","","NA"
"-122.36","49.03","ABBOTSFORD A","1100031","2018-08-03 01:00","2018","08","03","01:00","15.6","","12.8","","83","","","","21","","5","","24.1","","100.99","","","","","","Cloudy"
"-122.36","49.03","ABBOTSFORD A","1100031","2018-08-03 02:00","2018","08","03","02:00","15.9","","12.8","","82","","","","30","","5","","24.1","","101.00","","","","","","NA"
"-122.36","49.03","ABBOTSFORD A","1100031","2018-08-03 03:00","2018","08","03","03:00","15.4","","12.7","","84","","","","22","","9","","24.1","","101.01","","","","","","NA"
"-122.36","49.03","ABBOTSFORD A","1100031","2018-08-03 04:00","2018","08","03","04:00","15.3","","12.6","","84","","","","26","","6","","24.1","","101.02","","","","","","Mostly Cloudy"
"-122.36","49.03","ABBOTSFORD A","1100031","2018-08-03 05:00","2018","08","03","05:00","15.0","","12.3","","84","","","","24","","5","","40.2","","101.04","","","","","","NA"
"-122.36","49.03","ABBOTSFORD A","1100031","2018-08-03 06:00","2018","08","03","06:00","14.6","","12.1","","84","","","","24","","13","","40.2","","101.08","","","","","","NA"
"-122.36","49.03","ABBOTSFORD A","1100031","2018-08-03 07:00","2018","08","03","07:00","14.9","","12.1","","83","","","","21","","8","","32.2","","101.11","","","","","","Mostly Cloudy"
"-122.36","49.03","ABBOTSFORD A","1100031","2018-08-03 08:00","2018","08","03","08:00","15.6","","12.1","","79","","","","20","","7","","32.2","","101.15","","","","","","NA"
"-122.36","49.03","ABBOTSFORD A","1100031","2018-08-03 09:00","2018","08","03","09:00","16.1","","12.1","","77","","","","24","","9","","40.2","","101.20","","","","","","NA"
"-122.36","49.03","ABBOTSFORD A","1100031","2018-08-03 10:00","2018","08","03","10:00","16.7","","12.2","","74","","","","24","","9","","40.2","","101.23","","","","","","Mostly Cloudy"
"-122.36","49.03","ABBOTSFORD A","1100031","2018-08-03 11:00","2018","08","03","11:00","17.6","","12.2","","70","","","","23","","11","","32.2","","101.28","","","","","","NA"
"-122.36","49.03","ABBOTSFORD A","1100031","2018-08-03 12:00","2018","08","03","12:00","18.4","","11.7","","65","","","","23","","16","","32.2","","101.32","","","","","","NA"
"-122.36","49.03","ABBOTSFORD A","1100031","2018-08-03 13:00","2018","08","03","13:00","18.6","","11.8","","64","","","","20","","15","","32.2","","101.33","","","","","","Mostly Cloudy"
"-122.36","49.03","ABBOTSFORD A","1100031","2018-08-03 14:00","2018","08","03","14:00","20.4","","12.0","","58","","","","15","","11","","40.2","","101.29","","","","","","NA"
"-122.36","49.03","ABBOTSFORD A","1100031","2018-08-03 15:00","2018","08","03","15:00","21.1","","11.6","","54","","","","24","","13","","40.2","","101.25","","","","","","NA"
"-122.36","49.03","ABBOTSFORD A","1100031","2018-08-03 16:00","2018","08","03","16:00","22.5","","12.2","","52","","","","23","","16","","40.2","","101.22","","25","","","","Mostly Cloudy"
"-122.36","49.03","ABBOTSFORD A","1100031","2018-08-03 17:00","2018","08","03","17:00","21.7","","11.8","","53","","","","22","","10","","40.2","","101.18","","","","","","NA"
"-122.36","49.03","ABBOTSFORD A","1100031","2018-08-03 18:00","2018","08","03","18:00","21.7","","12.3","","55","","","","20","","14","","48.3","","101.16","","","","","","NA"
"-122.36","49.03","ABBOTSFORD A","1100031","2018-08-03 19:00","2018","08","03","19:00","19.6","","12.5","","63","","","","21","","13","","40.2","","101.18","","","","","","Mostly Cloudy"
"-122.36","49.03","ABBOTSFORD A","1100031","2018-08-03 20:00","2018","08","03","20:00","17.6","","12.3","","71","","","","20","","10","","48.3","","101.20","","","","","","NA"
"-122.36","49.03","ABBOTSFORD A","1100031","2018-08-03 21:00","2018","08","03","21:00","16.7","","11.6","","72","","","","22","","9","","16.1","","101.22","","","","","","NA"
"-122.36","49.03","ABBOTSFORD A","1100031","2018-08-03 22:00","2018","08","03","22:00","15.9","","11.7","","76","","","","25","","8","","16.1","","101.19","","","","","","Mostly Cloudy"
"-122.36","49.03","ABBOTSFORD A","1100031","2018-08-03 23:00","2018","08","03","23:00","16.5","","11.8","","73","","","","","","0","","16.1","","101.16","","","","","","NA"
"-122.36","49.03","ABBOTSFORD A","1100031","2018-08-04 00:00","2018","08","04","00:00","16.2","","12.0","","76","","","","29","","3","","16.1","","101.14","","","","","","NA"
"-122.36","49.03","ABBOTSFORD A","1100031","2018-08-04 01:00","2018","08","04","01:00","15.0","","12.1","","82","","","","21","","4","","16.1","","101.12","","","","","","Mostly Cloudy"
"-122.36","49.03","ABBOTSFORD A","1100031","2018-08-04 02:00","2018","08","04","02:00","15.6","","12.0","","79","","","","36","","1","","16.1","","101.12","","","","","","NA"
"-122.36","49.03","ABBOTSFORD A","1100031","2018-08-04 03:00","2018","08","04","03:00","15.5","","12.1","","80","","","","32","","3","","16.1","","101.10","","","","","","NA"
"-122.36","49.03","ABBOTSFORD A","1100031","2018-08-04 04:00","2018","08","04","04:00","15.1","","12.0","","82","","","","36","","2","","24.1","","101.07","","","","","","Mainly Clear"
"-122.36","49.03","ABBOTSFORD A","1100031","2018-08-04 05:00","2018","08","04","05:00","12.0","","11.2","","95","","","","22","","10","","48.3","","101.08","","","","","","NA"
"-122.36","49.03","ABBOTSFORD A","1100031","2018-08-04 06:00","2018","08","04","06:00","13.2","","12.0","","92","","","","24","","5","","48.3","","101.09","","","","","","NA"
"-122.36","49.03","ABBOTSFORD A","1100031","2018-08-04 07:00","2018","08","04","07:00","15.3","","13.2","","87","","","","21","","9","","48.3","","101.09","","","","","","Mainly Clear"
"-122.36","49.03","ABBOTSFORD A","1100031","2018-08-04 08:00","2018","08","04","08:00","15.9","","13.1","","83","","","","22","","12","","48.3","","101.07","","","","","","NA"
"-122.36","49.03","ABBOTSFORD A","1100031","2018-08-04 09:00","2018","08","04","09:00","18.2","","13.5","","74","","","","21","","10","","48.3","","101.03","","","","","","NA"
"-122.36","49.03","ABBOTSFORD A","1100031","2018-08-04 10:00","2018","08","04","10:00","20.9","","14.0","","64","","","","20","","10","","48.3","","100.98","","","","","","Clear"
"-122.36","49.03","ABBOTSFORD A","1100031","2018-08-04 11:00","2018","08","04","11:00","22.7","","13.7","","56","","","","20","","15","","48.3","","100.94","","26","","","","NA"
"-122.36","49.03","ABBOTSFORD A","1100031","2018-08-04 12:00","2018","08","04","12:00","23.9","","14.6","","55","","","","21","","17","","48.3","","100.88","","28","","","","NA"
"-122.36","49.03","ABBOTSFORD A","1100031","2018-08-04 13:00","2018","08","04","13:00","24.9","","14.0","","50","","","","21","","18","","48.3","","100.85","","28","","","","Mainly Clear"
"-122.36","49.03","ABBOTSFORD A","1100031","2018-08-04 14:00","2018","08","04","14:00","25.2","","13.9","","49","","","","21","","20","","48.3","","100.82","","29","","","","NA"
"-122.36","49.03","ABBOTSFORD A","1100031","2018-08-04 15:00","2018","08","04","15:00","25.7","","13.3","","46","","","","20","","19","","48.3","","100.76","","29","","","","NA"
"-122.36","49.03","ABBOTSFORD A","1100031","2018-08-04 16:00","2018","08","04","16:00","26.3","","13.2","","44","","","","22","","17","","48.3","","100.69","","29","","","","Mainly Clear"
"-122.36","49.03","ABBOTSFORD A","1100031","2018-08-04 17:00","2018","08","04","17:00","25.4","","12.7","","45","","","","20","","17","","48.3","","100.65","","28","","","","NA"
"-122.36","49.03","ABBOTSFORD A","1100031","2018-08-04 18:00","2018","08","04","18:00","24.8","","12.4","","45","","","","20","","14","","48.3","","100.64","","27","","","","NA"
"-122.36","49.03","ABBOTSFORD A","1100031","2018-08-04 19:00","2018","08","04","19:00","23.6","","12.9","","51","","","","21","","10","","48.3","","100.68","","26","","","","Mainly Clear"
"-122.36","49.03","ABBOTSFORD A","1100031","2018-08-04 20:00","2018","08","04","20:00","20.7","","13.1","","61","","","","18","","6","","48.3","","100.73","","","","","","NA"
"-122.36","49.03","ABBOTSFORD A","1100031","2018-08-04 21:00","2018","08","04","21:00","18.6","","13.0","","69","","","","22","","9","","24.1","","100.78","","","","","","NA"
"-122.36","49.03","ABBOTSFORD A","1100031","2018-08-04 22:00","2018","08","04","22:00","17.9","","12.8","","72","","","","34","","3","","24.1","","100.79","","","","","","Mainly Clear"
"-122.36","49.03","ABBOTSFORD A","1100031","2018-08-04 23:00","2018","08","04","23:00","17.5","","12.7","","73","","","","36","","1","","24.1","","100.81","","","","","","NA"
"-122.36","49.03","ABBOTSFORD A","1100031","2018-08-05 00:00","2018","08","05","00:00","16.2","","12.2","","77","","","","31","","3","","24.1","","100.84","","","","","","NA"
"-122.36","49.03","ABBOTSFORD A","1100031","2018-08-05 01:00","2018","08","05","01:00","15.8","","12.3","","79","","","","10","","4","","24.1","","100.85","","","","","","Mainly Clear"
"-122.36","49.03","ABBOTSFORD A","1100031","2018-08-05 02:00","2018","08","05","02:00","15.1","","12.4","","83","","","","35","","4","","24.1","","100.84","","","","","","NA"
"-122.36","49.03","ABBOTSFORD A","1100031","2018-08-05 03:00","2018","08","05","03:00","15.1","","12.1","","82","","","","36","","1","","24.1","","100.86","","","","","","NA"
"-122.36","49.03","ABBOTSFORD A","1100031","2018-08-05 04:00","2018","08","05","04:00","14.6","","11.9","","84","","","","36","","4","","32.2","","100.87","","","","","","Mainly Clear"
"-122.36","49.03","ABBOTSFORD A","1100031","2018-08-05 05:00","2018","08","05","05:00","13.3","","12.1","","92","","","","22","","9","","48.3","","100.92","","","","","","NA"
"-122.36","49.03","ABBOTSFORD A","1100031","2018-08-05 06:00","2018","08","05","06:00","15.0","","13.0","","87","","","","36","","2","","48.3","","100.96","","","","","","NA"
"-122.36","49.03","ABBOTSFORD A","1100031","2018-08-05 07:00","2018","08","05","07:00","17.8","","13.6","","76","","","","2","","3","","48.3","","100.97","","","","","","Mostly Cloudy"
"-122.36","49.03","ABBOTSFORD A","1100031","2018-08-05 08:00","2018","08","05","08:00","20.6","","14.1","","66","","","","5","","7","","48.3","","100.98","","","","","","NA"
"-122.36","49.03","ABBOTSFORD A","1100031","2018-08-05 09:00","2018","08","05","09:00","22.0","","13.9","","60","","","","13","","5","","48.3","","100.98","","25","","","","NA"
"-122.36","49.03","ABBOTSFORD A","1100031","2018-08-05 10:00","2018","08","05","10:00","23.0","","13.4","","54","","","","17","","7","","48.3","","100.98","","26","","","","Mainly Clear"
"-122.36","49.03","ABBOTSFORD A","1100031","2018-08-05 11:00","2018","08","05","11:00","25.2","","14.6","","51","","","","22","","16","","48.3","","100.98","","29","","","","NA"
"-122.36","49.03","ABBOTSFORD A","1100031","2018-08-05 12:00","2018","08","05","12:00","25.8","","15.1","","51","","","","24","","10","","48.3","","100.95","","30","","","","NA"
"-122.36","49.03","ABBOTSFORD A","1100031","2018-08-05 13:00","2018","08","05","13:00","27.2","","15.1","","47","","","","21","","14","","48.3","","100.91","","31","","","","Mainly Clear"
"-122.36","49.03","ABBOTSFORD A","1100031","2018-08-05 14:00","2018","08","05","14:00","28.9","","15.5","","44","","","","23","","10","","48.3","","100.85","","33","","","","NA"
"-122.36","49.03","ABBOTSFORD A","1100031","2018-08-05 15:00","2018","08","05","15:00","29.2","","14.7","","41","","","","21","","18","","48.3","","100.82","","33","","","","NA"
"-122.36","49.03","ABBOTSFORD A","1100031","2018-08-05 16:00","2018","08","05","16:00","29.5","","14.9","","41","","","","21","","19","","48.3","","100.78","","33","","","","Mainly Clear"
"-122.36","49.03","ABBOTSFORD A","1100031","2018-08-05 17:00","2018","08","05","17:00","29.3","","14.5","","40","","","","21","","21","","48.3","","100.75","","33","","","","NA"
"-122.36","49.03","ABBOTSFORD A","1100031","2018-08-05 18:00","2018","08","05","18:00","27.5","","13.8","","42","","","","21","","14","","48.3","","100.78","","31","","","","NA"
"-122.36","49.03","ABBOTSFORD A","1100031","2018-08-05 19:00","2018","08","05","19:00","25.1","","14.7","","52","","","","21","","13","","48.3","","100.79","","29","","","","Mainly Clear"
"-122.36","49.03","ABBOTSFORD A","1100031","2018-08-05 20:00","2018","08","05","20:00","21.9","","14.5","","62","","","","20","","8","","32.2","","100.82","","26","","","","NA"
"-122.36","49.03","ABBOTSFORD A","1100031","2018-08-05 21:00","2018","08","05","21:00","19.7","","13.7","","68","","","","22","","8","","16.1","","100.88","","","","","","NA"
"-122.36","49.03","ABBOTSFORD A","1100031","2018-08-05 22:00","2018","08","05","22:00","17.7","","13.2","","75","","","","21","","8","","16.1","","100.93","","","","","","Mainly Clear"
"-122.36","49.03","ABBOTSFORD A","1100031","2018-08-05 23:00","2018","08","05","23:00","17.2","","13.4","","78","","","","25","","6","","16.1","","100.97","","","","","","NA"
"-122.36","49.03","ABBOTSFORD A","1100031","2018-08-06 00:00","2018","08","06","00:00","17.7","","13.4","","76","","","","21","","4","","16.1","","100.98","","","","","","NA"
"-122.36","49.03","ABBOTSFORD A","1100031","2018-08-06 01:00","2018","08","06","01:00","17.1","","13.2","","78","","","","36","","2","","16.1","","100.98","","","","","","Mostly Cloudy"
"-122.36","49.03","ABBOTSFORD A","1100031","2018-08-06 02:00","2018","08","06","02:00","16.4","","12.9","","80","","","","36","","1","","16.1","","100.99","","","","","","NA"
"-122.36","49.03","ABBOTSFORD A","1100031","2018-08-06 03:00","2018","08","06","03:00","15.7","","13.0","","83","","","","36","","3","","16.1","","101.02","","","","","","NA"
"-122.36","49.03","ABBOTSFORD A","1100031","2018-08-06 04:00","2018","08","06","04:00","15.2","","12.9","","86","","","","36","","1","","16.1","","101.07","","","","","","Mainly Clear"
"-122.36","49.03","ABBOTSFORD A","1100031","2018-08-06 05:00","2018","08","06","05:00","14.1","","12.6","","91","","","","36","","3","","48.3","","101.09","","","","","","NA"
"-122.36","49.03","ABBOTSFORD A","1100031","2018-08-06 06:00","2018","08","06","06:00","14.3","","13.1","","92","","","","23","","7","","48.3","","101.16","","","","","","NA"
"-122.36","49.03","ABBOTSFORD A","1100031","2018-08-06 07:00","2018","08","06","07:00","17.9","","14.5","","80","","","","19","","5","","48.3","","101.19","","","","","","Mainly Clear"
"-122.36","49.03","ABBOTSFORD A","1100031","2018-08-06 08:00","2018","08","06","08:00","19.8","","14.7","","72","","","","22","","9","","48.3","","101.24","","","","","","NA"
"-122.36","49.03","ABBOTSFORD A","1100031","2018-08-06 09:00","2018","08","06","09:00","22.0","","14.7","","63","","","","7","","4","","48.3","","101.25","","26","","","","NA"
"-122.36","49.03","ABBOTSFORD A","1100031","2018-08-06 10:00","2018","08","06","10:00","25.1","","15.2","","53","","","","23","","9","","48.3","","101.26","","29","","","","Mainly Clear"
"-122.36","49.03","ABBOTSFORD A","1100031","2018-08-06 11:00","2018","08","06","11:00","27.0","","14.2","","45","","","","23","","12","","48.3","","101.25","","30","","","","NA"
"-122.36","49.03","ABBOTSFORD A","1100031","2018-08-06 12:00","2018","08","06","12:00","27.4","","14.0","","43","","","","24","","6","","48.3","","101.22","","31","","","","NA"
"-122.36","49.03","ABBOTSFORD A","1100031","2018-08-06 13:00","2018","08","06","13:00","29.0","","14.6","","41","","","","20","","13","","48.3","","101.19","","33","","","","Clear"
"-122.36","49.03","ABBOTSFORD A","1100031","2018-08-06 14:00","2018","08","06","14:00","29.9","","15.0","","40","","","","19","","16","","48.3","","101.14","","34","","","","NA"
"-122.36","49.03","ABBOTSFORD A","1100031","2018-08-06 15:00","2018","08","06","15:00","30.4","","14.2","","37","","","","23","","21","","48.3","","101.10","","34","","","","NA"
"-122.36","49.03","ABBOTSFORD A","1100031","2018-08-06 16:00","2018","08","06","16:00","30.5","","12.1","","32","","","","22","","20","","48.3","","101.06","","33","","","","Clear"
"-122.36","49.03","ABBOTSFORD A","1100031","2018-08-06 17:00","2018","08","06","17:00","30.0","","11.8","","32","","","","21","","18","","48.3","","101.04","","32","","","","NA"
"-122.36","49.03","ABBOTSFORD A","1100031","2018-08-06 18:00","2018","08","06","18:00","28.4","","12.5","","37","","","","21","","17","","48.3","","101.01","","31","","","","NA"
"-122.36","49.03","ABBOTSFORD A","1100031","2018-08-06 19:00","2018","08","06","19:00","25.8","","14.2","","48","","","","22","","14","","48.3","","100.99","","29","","","","Clear"
"-122.36","49.03","ABBOTSFORD A","1100031","2018-08-06 20:00","2018","08","06","20:00","22.3","","15.0","","63","","","","20","","5","","48.3","","101.02","","26","","","","NA"
"-122.36","49.03","ABBOTSFORD A","1100031","2018-08-06 21:00","2018","08","06","21:00","21.5","","14.9","","65","","","","20","","3","","24.1","","101.04","","25","","","","NA"
"-122.36","49.03","ABBOTSFORD A","1100031","2018-08-06 22:00","2018","08","06","22:00","19.8","","15.1","","74","","","","21","","7","","24.1","","101.04","","","","","","Clear"
"-122.36","49.03","ABBOTSFORD A","1100031","2018-08-06 23:00","2018","08","06","23:00","18.7","","14.8","","78","","","","13","","3","","24.1","","101.03","","","","","","NA"
"-122.36","49.03","ABBOTSFORD A","1100031","2018-08-07 00:00","2018","08","07","00:00","16.8","","14.1","","84","","","","21","","6","","24.1","","101.04","","","","","","NA"
"-122.36","49.03","ABBOTSFORD A","1100031","2018-08-07 01:00","2018","08","07","01:00","15.8","","13.6","","87","","","","20","","4","","24.1","","101.04","","","","","","Clear"
"-122.36","49.03","ABBOTSFORD A","1100031","2018-08-07 02:00","2018","08","07","02:00","15.8","","13.4","","86","","","","24","","8","","24.1","","101.07","","","","","","NA"
"-122.36","49.03","ABBOTSFORD A","1100031","2018-08-07 03:00","2018","08","07","03:00","14.8","","12.8","","88","","","","24","","5","","24.1","","101.07","","","","","","NA"
"-122.36","49.03","ABBOTSFORD A","1100031","2018-08-07 04:00","2018","08","07","04:00","14.1","","12.5","","90","","","","25","","7","","48.3","","101.07","","","","","","Clear"
"-122.36","49.03","ABBOTSFORD A","1100031","2018-08-07 05:00","2018","08","07","05:00","13.8","","12.2","","90","","","","21","","3","","48.3","","101.11","","","","","","NA"
"-122.36","49.03","ABBOTSFORD A","1100031","2018-08-07 06:00","2018","08","07","06:00","14.5","","12.6","","88","","","","36","","1","","48.3","","101.14","","","","","","NA"
"-122.36","49.03","ABBOTSFORD A","1100031","2018-08-07 07:00","2018","08","07","07:00","16.6","","13.4","","81","","","","23","","7","","48.3","","101.14","","","","","","Clear"
"-122.36","49.03","ABBOTSFORD A","1100031","2018-08-07 08:00","2018","08","07","08:00","19.7","","13.5","","67","","","","36","","3","","48.3","","101.13","","","","","","NA"
"-122.36","49.03","ABBOTSFORD A","1100031","2018-08-07 09:00","2018","08","07","09:00","22.6","","13.3","","55","","","","0","","1","","48.3","","101.08","","26","","","","NA"
"-122.36","49.03","ABBOTSFORD A","1100031","2018-08-07 10:00","2018","08","07","10:00","25.1","","13.5","","48","","","","23","","5","","48.3","","101.03","","28","","","","Clear"
"-122.36","49.03","ABBOTSFORD A","1100031","2018-08-07 11:00","2018","08","07","11:00","26.3","","13.8","","45","","","","28","","3","","48.3","","100.96","","30","","","","NA"
"-122.36","49.03","ABBOTSFORD A","1100031","2018-08-07 12:00","2018","08","07","12:00","28.3","","14.7","","43","","","","20","","13","","48.3","","100.89","","32","","","","NA"
"-122.36","49.03","ABBOTSFORD A","1100031","2018-08-07 13:00","2018","08","07","13:00","29.9","","14.7","","39","","","","18","","11","","48.3","","100.84","","34","","","","Clear"
"-122.36","49.03","ABBOTSFORD A","1100031","2018-08-07 14:00","2018","08","07","14:00","30.8","","15.3","","38","","","","19","","16","","48.3","","100.79","","35","","","","NA"
"-122.36","49.03","ABBOTSFORD A","1100031","2018-08-07 15:00","2018","08","07","15:00","30.6","","14.8","","38","","","","20","","13","","48.3","","100.70","","34","","","","NA"
"-122.36","49.03","ABBOTSFORD A","1100031","2018-08-07 16:00","2018","08","07","16:00","31.2","","14.2","","35","","","","20","","14","","48.3","","100.64","","35","","","","Clear"
"-122.36","49.03","ABBOTSFORD A","1100031","2018-08-07 17:00","2018","08","07","17:00","31.2","","13.1","","33","","","","20","","14","","48.3","","100.58","","34","","","","NA"
"-122.36","49.03","ABBOTSFORD A","1100031","2018-08-07 18:00","2018","08","07","18:00","30.2","","13.3","","35","","","","20","","14","","48.3","","100.52","","33","","","","NA"
"-122.36","49.03","ABBOTSFORD A","1100031","2018-08-07 19:00","2018","08","07","19:00","27.1","","14.3","","45","","","","21","","13","","48.3","","100.50","","31","","","","Clear"
"-122.36","49.03","ABBOTSFORD A","1100031","2018-08-07 20:00","2018","08","07","20:00","22.7","","14.3","","58","","","","21","","10","","48.3","","100.53","","26","","","","NA"
"-122.36","49.03","ABBOTSFORD A","1100031","2018-08-07 21:00","2018","08","07","21:00","21.3","","13.1","","59","","","","22","","4","","24.1","","100.55","","","","","","NA"
"-122.36","49.03","ABBOTSFORD A","1100031","2018-08-07 22:00","2018","08","07","22:00","19.1","","13.3","","69","","","","14","","7","","24.1","","100.58","","","","","","Clear"
"-122.36","49.03","ABBOTSFORD A","1100031","2018-08-07 23:00","2018","08","07","23:00","19.2","","13.6","","70","","","","30","","4","","24.1","","100.57","","","","","","NA"
"-122.36","49.03","ABBOTSFORD A","1100031","2018-08-08 00:00","2018","08","08","00:00","19.1","","13.3","","69","","","","36","","2","","24.1","","100.56","","","","","","NA"
"-122.36","49.03","ABBOTSFORD A","1100031","2018-08-08 01:00","2018","08","08","01:00","16.1","","13.2","","83","","","","23","","5","","24.1","","100.56","","","","","","Clear"
"-122.36","49.03","ABBOTSFORD A","1100031","2018-08-08 02:00","2018","08","08","02:00","16.9","","13.0","","77","","","","36","","3","","24.1","","100.56","","","","","","NA"
"-122.36","49.03","ABBOTSFORD A","1100031","2018-08-08 03:00","2018","08","08","03:00","16.3","","12.8","","80","","","","2","","7","","24.1","","100.58","","","","","","NA"
"-122.36","49.03","ABBOTSFORD A","1100031","2018-08-08 04:00","2018","08","08","04:00","16.0","","12.7","","80","","","","2","","5","","48.3","","100.54","","","","","","Clear"
"-122.36","49.03","ABBOTSFORD A","1100031","2018-08-08 05:00","2018","08","08","05:00","16.7","","13.1","","79","","","","29","","4","","48.3","","100.56","","","","","","NA"
"-122.36","49.03","ABBOTSFORD A","1100031","2018-08-08 06:00","2018","08","08","06:00","16.2","","13.3","","83","","","","0","","1","","48.3","","100.59","","","","","","NA"
"-122.36","49.03","ABBOTSFORD A","1100031","2018-08-08 07:00","2018","08","08","07:00","20.5","","13.9","","66","","","","18","","5","","48.3","","100.63","","","","","","Mainly Clear"
"-122.36","49.03","ABBOTSFORD A","1100031","2018-08-08 08:00","2018","08","08","08:00","22.6","","14.9","","62","","","","21","","7","","48.3","","100.66","","27","","","","NA"
"-122.36","49.03","ABBOTSFORD A","1100031","2018-08-08 09:00","2018","08","08","09:00","25.2","","14.7","","52","","","","30","","3","","48.3","","100.63","","29","","","","NA"
"-122.36","49.03","ABBOTSFORD A","1100031","2018-08-08 10:00","2018","08","08","10:00","28.3","","14.9","","43","","","","36","","8","","48.3","","100.61","","32","","","","Clear"
"-122.36","49.03","ABBOTSFORD A","1100031","2018-08-08 11:00","2018","08","08","11:00","29.8","","14.8","","39","","","","4","","5","","48.3","","100.56","","34","","","","NA"
"-122.36","49.03","ABBOTSFORD A","1100031","2018-08-08 12:00","2018","08","08","12:00","31.3","","15.3","","37","","","","23","","6","","48.3","","100.53","","35","","","","NA"
"-122.36","49.03","ABBOTSFORD A","1100031","2018-08-08 13:00","2018","08","08","13:00","33.0","","16.7","","37","","","","19","","15","","48.3","","100.50","","38","","","","Clear"
"-122.36","49.03","ABBOTSFORD A","1100031","2018-08-08 14:00","2018","08","08","14:00","33.9","","17.4","","37","","","","20","","17","","48.3","","100.44","","39","","","","NA"
"-122.36","49.03","ABBOTSFORD A","1100031","2018-08-08 15:00","2018","08","08","15:00","35.2","","15.9","","31","","","","27","","14","","48.3","","100.39","","40","","","","NA"
"-122.36","49.03","ABBOTSFORD A","1100031","2018-08-08 16:00","2018","08","08","16:00","34.5","","15.7","","32","","","","25","","11","","48.3","","100.35","","39","","","","Mainly Clear"
"-122.36","49.03","ABBOTSFORD A","1100031","2018-08-08 17:00","2018","08","08","17:00","33.9","","15.6","","33","","","","21","","16","","48.3","","100.31","","38","","","","NA"
"-122.36","49.03","ABBOTSFORD A","1100031","2018-08-08 18:00","2018","08","08","18:00","31.7","","15.6","","37","","","","21","","16","","48.3","","100.30","","36","","","","NA"
"-122.36","49.03","ABBOTSFORD A","1100031","2018-08-08 19:00","2018","08","08","19:00","28.3","","15.4","","45","","","","22","","13","","48.3","","100.31","","33","","","","Clear"
"-122.36","49.03","ABBOTSFORD A","1100031","2018-08-08 20:00","2018","08","08","20:00","23.4","","15.8","","62","","","","20","","8","","32.2","","100.39","","28","","","","NA"
"-122.36","49.03","ABBOTSFORD A","1100031","2018-08-08 21:00","2018","08","08","21:00","21.3","","14.0","","63","","","","21","","8","","20.9","","100.46","","25","","","","NA"
"-122.36","49.03","ABBOTSFORD A","1100031","2018-08-08 22:00","2018","08","08","22:00","20.9","","14.4","","66","","","","20","","5","","20.9","","100.50","","25","","","","Clear"
"-122.36","49.03","ABBOTSFORD A","1100031","2018-08-08 23:00","2018","08","08","23:00","21.0","","14.4","","66","","","","36","","5","","20.9","","100.55","","25","","","","NA"
"-122.36","49.03","ABBOTSFORD A","1100031","2018-08-09 00:00","2018","08","09","00:00","20.6","","14.4","","67","","","","34","","4","","20.9","","100.57","","","","","","NA"
"-122.36","49.03","ABBOTSFORD A","1100031","2018-08-09 01:00","2018","08","09","01:00","19.6","","14.6","","72","","","","36","","2","","20.9","","100.61","","","","","","Clear"
"-122.36","49.03","ABBOTSFORD A","1100031","2018-08-09 02:00","2018","08","09","02:00","17.9","","14.4","","80","","","","36","","2","","20.9","","100.64","","","","","","NA"
"-122.36","49.03","ABBOTSFORD A","1100031","2018-08-09 03:00","2018","08","09","03:00","17.3","","14.4","","83","","","","36","","1","","20.9","","100.66","","","","","","NA"
"-122.36","49.03","ABBOTSFORD A","1100031","2018-08-09 04:00","2018","08","09","04:00","16.5","","13.5","","82","","","","36","","3","","32.2","","100.71","","","","","","Clear"
"-122.36","49.03","ABBOTSFORD A","1100031","2018-08-09 05:00","2018","08","09","05:00","15.8","","13.2","","85","","","","27","","5","","48.3","","100.78","","","","","","NA"
"-122.36","49.03","ABBOTSFORD A","1100031","2018-08-09 06:00","2018","08","09","06:00","17.7","","13.7","","77","","","","36","","2","","48.3","","100.81","","","","","","NA"
"-122.36","49.03","ABBOTSFORD A","1100031","2018-08-09 07:00","2018","08","09","07:00","22.1","","14.1","","60","","","","36","","3","","48.3","","100.85","","26","","","","Clear"
"-122.36","49.03","ABBOTSFORD A","1100031","2018-08-09 08:00","2018","08","09","08:00","24.4","","14.8","","55","","","","27","","3","","48.3","","100.90","","28","","","","NA"
"-122.36","49.03","ABBOTSFORD A","1100031","2018-08-09 09:00","2018","08","09","09:00","26.4","","14.3","","47","","","","24","","4","","48.3","","100.88","","30","","","","NA"
"-122.36","49.03","ABBOTSFORD A","1100031","2018-08-09 10:00","2018","08","09","10:00","28.6","","12.5","","36","","","","26","","4","","56.3","","100.84","","31","","","","Clear"
"-122.36","49.03","ABBOTSFORD A","1100031","2018-08-09 11:00","2018","08","09","11:00","30.1","","13.8","","36","","","","24","","8","","48.3","","100.83","","33","","","","NA"
"-122.36","49.03","ABBOTSFORD A","1100031","2018-08-09 12:00","2018","08","09","12:00","31.6","","13.7","","33","","","","18","","13","","48.3","","100.79","","35","","","","NA"
"-122.36","49.03","ABBOTSFORD A","1100031","2018-08-09 13:00","2018","08","09","13:00","32.5","","14.6","","33","","","","22","","9","","48.3","","100.74","","36","","","","Clear"
"-122.36","49.03","ABBOTSFORD A","1100031","2018-08-09 14:00","2018","08","09","14:00","33.8","","14.4","","31","","","","22","","14","","48.3","","100.70","","37","","","","NA"
"-122.36","49.03","ABBOTSFORD A","1100031","2018-08-09 15:00","2018","08","09","15:00","33.4","","14.3","","31","","","","21","","16","","48.3","","100.68","","37","","","","Smoke"
"-122.36","49.03","ABBOTSFORD A","1100031","2018-08-09 16:00","2018","08","09","16:00","33.2","","13.7","","30","","","","20","","18","","48.3","","100.61","","36","","","","Smoke"
"-122.36","49.03","ABBOTSFORD A","1100031","2018-08-09 17:00","2018","08","09","17:00","32.4","","13.8","","32","","","","20","","15","","48.3","","100.57","","36","","","","Smoke"
"-122.36","49.03","ABBOTSFORD A","1100031","2018-08-09 18:00","2018","08","09","18:00","30.8","","12.9","","33","","","","22","","16","","48.3","","100.54","","34","","","","Smoke"
"-122.36","49.03","ABBOTSFORD A","1100031","2018-08-09 19:00","2018","08","09","19:00","27.9","","13.5","","40","","","","23","","8","","48.3","","100.51","","31","","","","Clear"
"-122.36","49.03","ABBOTSFORD A","1100031","2018-08-09 20:00","2018","08","09","20:00","23.4","","13.9","","55","","","","23","","9","","48.3","","100.54","","27","","","","NA"
"-122.36","49.03","ABBOTSFORD A","1100031","2018-08-09 21:00","2018","08","09","21:00","21.7","","13.3","","59","","","","17","","7","","20.9","","100.55","","25","","","","NA"
"-122.36","49.03","ABBOTSFORD A","1100031","2018-08-09 22:00","2018","08","09","22:00","19.7","","14.2","","70","","","","36","","2","","20.9","","100.55","","","","","","Clear"
"-122.36","49.03","ABBOTSFORD A","1100031","2018-08-09 23:00","2018","08","09","23:00","19.9","","13.3","","66","","","","36","","5","","20.9","","100.54","","","","","","NA"
"-122.36","49.03","ABBOTSFORD A","1100031","2018-08-10 00:00","2018","08","10","00:00","18.4","","13.3","","72","","","","1","","3","","20.9","","100.53","","","","","","NA"
"-122.36","49.03","ABBOTSFORD A","1100031","2018-08-10 01:00","2018","08","10","01:00","18.3","","13.0","","71","","","","34","","4","","20.9","","100.50","","","","","","Clear"
"-122.36","49.03","ABBOTSFORD A","1100031","2018-08-10 02:00","2018","08","10","02:00","16.2","","13.1","","81","","","","21","","4","","20.9","","100.52","","","","","","NA"
"-122.36","49.03","ABBOTSFORD A","1100031","2018-08-10 03:00","2018","08","10","03:00","15.9","","12.8","","82","","","","17","","3","","20.9","","100.52","","","","","","NA"
"-122.36","49.03","ABBOTSFORD A","1100031","2018-08-10 04:00","2018","08","10","04:00","14.1","","12.3","","89","","","","15","","9","","32.2","","100.57","","","","","","Clear"
"-122.36","49.03","ABBOTSFORD A","1100031","2018-08-10 05:00","2018","08","10","05:00","14.5","","13.0","","91","","","","13","","4","","32.2","","100.57","","","","","","NA"
"-122.36","49.03","ABBOTSFORD A","1100031","2018-08-10 06:00","2018","08","10","06:00","15.4","","14.1","","91","","","","36","","3","","32.2","","100.57","","","","","","NA"
"-122.36","49.03","ABBOTSFORD A","1100031","2018-08-10 07:00","2018","08","10","07:00","18.4","","14.1","","75","","","","36","","1","","48.3","","100.52","","","","","","Mainly Clear"
"-122.36","49.03","ABBOTSFORD A","1100031","2018-08-10 08:00","2018","08","10","08:00","20.4","","15.4","","73","","","","19","","11","","48.3","","100.54","","25","","","","NA"
"-122.36","49.03","ABBOTSFORD A","1100031","2018-08-10 09:00","2018","08","10","09:00","22.1","","15.4","","65","","","","21","","9","","48.3","","100.55","","26","","","","NA"
"-122.36","49.03","ABBOTSFORD A","1100031","2018-08-10 10:00","2018","08","10","10:00","24.8","","15.6","","56","","","","22","","16","","40.2","","100.57","","29","","","","Clear"
"-122.36","49.03","ABBOTSFORD A","1100031","2018-08-10 11:00","2018","08","10","11:00","25.9","","17.2","","58","","","","24","","18","","32.2","","100.58","","31","","","","NA"
"-122.36","49.03","ABBOTSFORD A","1100031","2018-08-10 12:00","2018","08","10","12:00","27.1","","15.4","","48","","","","21","","20","","40.2","","100.59","","31","","","","NA"
"-122.36","49.03","ABBOTSFORD A","1100031","2018-08-10 13:00","2018","08","10","13:00","27.6","","14.6","","44","","","","23","","23","","40.2","","100.58","","31","","","","Mainly Clear"
"-122.36","49.03","ABBOTSFORD A","1100031","2018-08-10 14:00","2018","08","10","14:00","28.9","","14.4","","40","","","","22","","20","","40.2","","100.56","","33","","","","NA"
"-122.36","49.03","ABBOTSFORD A","1100031","2018-08-10 15:00","2018","08","10","15:00","29.4","","12.4","","34","","","","24","","23","","48.3","","100.53","","32","","","","NA"
"-122.36","49.03","ABBOTSFORD A","1100031","2018-08-10 16:00","2018","08","10","16:00","29.8","","14.1","","38","","","","22","","21","","48.3","","100.47","","33","","","","Clear"
"-122.36","49.03","ABBOTSFORD A","1100031","2018-08-10 17:00","2018","08","10","17:00","28.3","","14.2","","41","","","","23","","21","","48.3","","100.49","","32","","","","NA"
"-122.36","49.03","ABBOTSFORD A","1100031","2018-08-10 18:00","2018","08","10","18:00","26.4","","14.0","","46","","","","23","","15","","48.3","","100.48","","30","","","","NA"
"-122.36","49.03","ABBOTSFORD A","1100031","2018-08-10 19:00","2018","08","10","19:00","24.4","","10.6","","41","","","","22","","14","","48.3","","100.48","","26","","","","Mainly Clear"
"-122.36","49.03","ABBOTSFORD A","1100031","2018-08-10 20:00","2018","08","10","20:00","23.2","","11.9","","48","","","","28","","4","","40.2","","100.56","","25","","","","NA"
"-122.36","49.03","ABBOTSFORD A","1100031","2018-08-10 21:00","2018","08","10","21:00","21.6","","12.3","","55","","","","16","","4","","20.9","","100.60","","","","","","NA"
"-122.36","49.03","ABBOTSFORD A","1100031","2018-08-10 22:00","2018","08","10","22:00","20.8","","12.8","","60","","","","20","","9","","20.9","","100.64","","","","","","Clear"
"-122.36","49.03","ABBOTSFORD A","1100031","2018-08-10 23:00","2018","08","10","23:00","19.4","","13.1","","66","","","","31","","7","","20.9","","100.66","","","","","","NA"
"-122.36","49.03","ABBOTSFORD A","1100031","2018-08-11 00:00","2018","08","11","00:00","18.7","","13.1","","69","","","","27","","7","","20.9","","100.70","","","","","","NA"
"-122.36","49.03","ABBOTSFORD A","1100031","2018-08-11 01:00","2018","08","11","01:00","17.0","","12.9","","77","","","","23","","4","","20.9","","100.73","","","","","","Clear"
"-122.36","49.03","ABBOTSFORD A","1100031","2018-08-11 02:00","2018","08","11","02:00","16.0","","13.0","","82","","","","23","","8","","20.9","","100.76","","","","","","NA"
"-122.36","49.03","ABBOTSFORD A","1100031","2018-08-11 03:00","2018","08","11","03:00","16.7","","13.8","","83","","","","26","","3","","20.9","","100.82","","","","","","NA"
"-122.36","49.03","ABBOTSFORD A","1100031","2018-08-11 04:00","2018","08","11","04:00","16.1","","13.7","","85","","","","15","","13","","24.1","","100.82","","","","","","Mainly Clear"
"-122.36","49.03","ABBOTSFORD A","1100031","2018-08-11 05:00","2018","08","11","05:00","16.9","","13.8","","82","","","","24","","3","","32.2","","100.89","","","","","","NA"
"-122.36","49.03","ABBOTSFORD A","1100031","2018-08-11 06:00","2018","08","11","06:00","17.5","","13.8","","79","","","","17","","9","","32.2","","100.93","","","","","","NA"
"-122.36","49.03","ABBOTSFORD A","1100031","2018-08-11 07:00","2018","08","11","07:00","17.5","","13.8","","79","","","","19","","12","","16.1","","100.96","","","","","","Cloudy"
"-122.36","49.03","ABBOTSFORD A","1100031","2018-08-11 08:00","2018","08","11","08:00","17.8","","13.9","","78","","","","19","","10","","24.1","","100.97","","","","","","Rain Showers"
"-122.36","49.03","ABBOTSFORD A","1100031","2018-08-11 09:00","2018","08","11","09:00","18.1","","13.4","","74","","","","18","","13","","24.1","","100.98","","","","","","NA"
"-122.36","49.03","ABBOTSFORD A","1100031","2018-08-11 10:00","2018","08","11","10:00","18.9","","13.6","","71","","","","20","","13","","24.1","","100.99","","","","","","Mostly Cloudy"
"-122.36","49.03","ABBOTSFORD A","1100031","2018-08-11 11:00","2018","08","11","11:00","20.0","","13.5","","66","","","","19","","13","","24.1","","100.95","","","","","","NA"
"-122.36","49.03","ABBOTSFORD A","1100031","2018-08-11 12:00","2018","08","11","12:00","20.6","","13.6","","64","","","","19","","15","","24.1","","100.95","","","","","","NA"
"-122.36","49.03","ABBOTSFORD A","1100031","2018-08-11 13:00","2018","08","11","13:00","21.2","","13.7","","62","","","","18","","15","","24.1","","100.96","","","","","","Cloudy"
"-122.36","49.03","ABBOTSFORD A","1100031","2018-08-11 14:00","2018","08","11","14:00","21.7","","14.2","","62","","","","22","","23","","24.1","","100.95","","25","","","","NA"
"-122.36","49.03","ABBOTSFORD A","1100031","2018-08-11 15:00","2018","08","11","15:00","18.4","","14.8","","79","","","","22","","17","","16.1","","100.95","","","","","","Rain Showers"
"-122.36","49.03","ABBOTSFORD A","1100031","2018-08-11 16:00","2018","08","11","16:00","20.6","","15.5","","73","","","","20","","26","","16.1","","100.93","","25","","","","Mostly Cloudy"
"-122.36","49.03","ABBOTSFORD A","1100031","2018-08-11 17:00","2018","08","11","17:00","21.6","","13.7","","60","","","","21","","25","","24.1","","100.96","","25","","","","NA"
"-122.36","49.03","ABBOTSFORD A","1100031","2018-08-11 18:00","2018","08","11","18:00","19.5","","12.6","","64","","","","20","","18","","24.1","","100.98","","","","","","NA"
"-122.36","49.03","ABBOTSFORD A","1100031","2018-08-11 19:00","2018","08","11","19:00","18.4","","13.0","","70","","","","21","","18","","32.2","","101.03","","","","","","Mostly Cloudy"
"-122.36","49.03","ABBOTSFORD A","1100031","2018-08-11 20:00","2018","08","11","20:00","16.7","","13.1","","79","","","","19","","5","","32.2","","101.07","","","","","","NA"
"-122.36","49.03","ABBOTSFORD A","1100031","2018-08-11 21:00","2018","08","11","21:00","15.8","","12.9","","83","","","","21","","9","","24.1","","101.10","","","","","","NA"
"-122.36","49.03","ABBOTSFORD A","1100031","2018-08-11 22:00","2018","08","11","22:00","16.4","","13.4","","83","","","","21","","8","","24.1","","101.11","","","","","","Cloudy"
"-122.36","49.03","ABBOTSFORD A","1100031","2018-08-11 23:00","2018","08","11","23:00","16.7","","14.0","","84","","","","24","","9","","24.1","","101.13","","","","","","Rain Showers"
"-122.36","49.03","ABBOTSFORD A","1100031","2018-08-12 00:00","2018","08","12","00:00","16.5","","14.2","","86","","","","24","","5","","24.1","","101.13","","","","","","Rain Showers"
"-122.36","49.03","ABBOTSFORD A","1100031","2018-08-12 01:00","2018","08","12","01:00","15.9","","14.3","","90","","","","23","","6","","24.1","","101.14","","","","","","Mostly Cloudy"
"-122.36","49.03","ABBOTSFORD A","1100031","2018-08-12 02:00","2018","08","12","02:00","15.8","","14.0","","89","","","","20","","10","","24.1","","101.19","","","","","","NA"
"-122.36","49.03","ABBOTSFORD A","1100031","2018-08-12 03:00","2018","08","12","03:00","15.9","","13.7","","87","","","","19","","9","","24.1","","101.18","","","","","","NA"
"-122.36","49.03","ABBOTSFORD A","1100031","2018-08-12 04:00","2018","08","12","04:00","16.2","","13.5","","84","","","","25","","4","","24.1","","101.26","","","","","","Mostly Cloudy"
"-122.36","49.03","ABBOTSFORD A","1100031","2018-08-12 05:00","2018","08","12","05:00","15.8","","13.3","","85","","","","20","","9","","32.2","","101.33","","","","","","NA"
"-122.36","49.03","ABBOTSFORD A","1100031","2018-08-12 06:00","2018","08","12","06:00","16.0","","13.4","","84","","","","23","","5","","32.2","","101.36","","","","","","Rain Showers"
"-122.36","49.03","ABBOTSFORD A","1100031","2018-08-12 07:00","2018","08","12","07:00","16.4","","13.3","","82","","","","26","","5","","24.1","","101.39","","","","","","Rain Showers"
"-122.36","49.03","ABBOTSFORD A","1100031","2018-08-12 08:00","2018","08","12","08:00","16.9","","13.7","","81","","","","20","","12","","24.1","","101.43","","","","","","NA"
"-122.36","49.03","ABBOTSFORD A","1100031","2018-08-12 09:00","2018","08","12","09:00","17.9","","13.7","","76","","","","18","","10","","24.1","","101.51","","","","","","NA"
"-122.36","49.03","ABBOTSFORD A","1100031","2018-08-12 10:00","2018","08","12","10:00","18.4","","13.1","","71","","","","19","","14","","24.1","","101.54","","","","","","Cloudy"
"-122.36","49.03","ABBOTSFORD A","1100031","2018-08-12 11:00","2018","08","12","11:00","20.0","","13.5","","66","","","","23","","7","","24.1","","101.52","","","","","","NA"
"-122.36","49.03","ABBOTSFORD A","1100031","2018-08-12 12:00","2018","08","12","12:00","22.3","","12.6","","54","","","","19","","10","","32.2","","101.52","","25","","","","NA"
"-122.36","49.03","ABBOTSFORD A","1100031","2018-08-12 13:00","2018","08","12","13:00","22.6","","12.6","","53","","","","","","0","","24.1","","101.48","","25","","","","Mostly Cloudy"
"-122.36","49.03","ABBOTSFORD A","1100031","2018-08-12 14:00","2018","08","12","14:00","21.5","","13.2","","59","","","","33","","8","","24.1","","101.44","","","","","","NA"
"-122.36","49.03","ABBOTSFORD A","1100031","2018-08-12 15:00","2018","08","12","15:00","22.8","","13.3","","54","","","","30","","7","","32.2","","101.38","","26","","","","NA"
"-122.36","49.03","ABBOTSFORD A","1100031","2018-08-12 16:00","2018","08","12","16:00","22.0","","13.7","","59","","","","35","","11","","32.2","","101.34","","25","","","","Cloudy"
"-122.36","49.03","ABBOTSFORD A","1100031","2018-08-12 17:00","2018","08","12","17:00","22.1","","13.9","","60","","","","33","","9","","32.2","","101.29","","25","","","","NA"
"-122.36","49.03","ABBOTSFORD A","1100031","2018-08-12 18:00","2018","08","12","18:00","21.4","","14.1","","62","","","","31","","5","","32.2","","101.27","","25","","","","NA"
"-122.36","49.03","ABBOTSFORD A","1100031","2018-08-12 19:00","2018","08","12","19:00","20.2","","14.0","","67","","","","32","","7","","32.2","","101.26","","","","","","Mostly Cloudy"
"-122.36","49.03","ABBOTSFORD A","1100031","2018-08-12 20:00","2018","08","12","20:00","19.1","","13.9","","71","","","","28","","5","","24.1","","101.28","","","","","","NA"
"-122.36","49.03","ABBOTSFORD A","1100031","2018-08-12 21:00","2018","08","12","21:00","17.6","","14.1","","80","","","","33","","3","","24.1","","101.30","","","","","","NA"
"-122.36","49.03","ABBOTSFORD A","1100031","2018-08-12 22:00","2018","08","12","22:00","15.9","","13.2","","84","","","","27","","3","","24.1","","101.32","","","","","","Mainly Clear"
"-122.36","49.03","ABBOTSFORD A","1100031","2018-08-12 23:00","2018","08","12","23:00","14.9","","13.2","","90","","","","13","","4","","24.1","","101.32","","","","","","NA"
"-122.36","49.03","ABBOTSFORD A","1100031","2018-08-13 00:00","2018","08","13","00:00","14.7","","12.9","","89","","","","34","","4","","24.1","","101.31","","","","","","NA"
"-122.36","49.03","ABBOTSFORD A","1100031","2018-08-13 01:00","2018","08","13","01:00","14.2","","12.7","","91","","","","36","","1","","24.1","","101.32","","","","","","Mainly Clear"
"-122.36","49.03","ABBOTSFORD A","1100031","2018-08-13 02:00","2018","08","13","02:00","13.8","","13.1","","96","","","","36","","1","","24.1","","101.32","","","","","","NA"
"-122.36","49.03","ABBOTSFORD A","1100031","2018-08-13 03:00","2018","08","13","03:00","13.7","","12.8","","94","","","","34","","4","","24.1","","101.32","","","","","","NA"
"-122.36","49.03","ABBOTSFORD A","1100031","2018-08-13 04:00","2018","08","13","04:00","12.9","","12.2","","96","","","","36","","3","","24.1","","101.30","","","","","","Mainly Clear"
"-122.36","49.03","ABBOTSFORD A","1100031","2018-08-13 05:00","2018","08","13","05:00","12.8","","12.1","","95","","","","36","","3","","8.1","","101.31","","","","","","Fog"
"-122.36","49.03","ABBOTSFORD A","1100031","2018-08-13 06:00","2018","08","13","06:00","14.1","","13.5","","96","","","","2","","6","","8.1","","101.32","","","","","","Fog"
"-122.36","49.03","ABBOTSFORD A","1100031","2018-08-13 07:00","2018","08","13","07:00","15.9","","14.2","","89","","","","2","","8","","6.4","","101.30","","","","","","Fog"
"-122.36","49.03","ABBOTSFORD A","1100031","2018-08-13 08:00","2018","08","13","08:00","17.0","","14.1","","83","","","","1","","10","","9.7","","101.30","","","","","","Fog"
"-122.36","49.03","ABBOTSFORD A","1100031","2018-08-13 09:00","2018","08","13","09:00","19.1","","14.2","","73","","","","2","","7","","8.1","","101.27","","","","","","Haze"
"-122.36","49.03","ABBOTSFORD A","1100031","2018-08-13 10:00","2018","08","13","10:00","20.0","","14.2","","69","","","","29","","7","","6.4","","101.22","","","","","","Smoke"
"-122.36","49.03","ABBOTSFORD A","1100031","2018-08-13 11:00","2018","08","13","11:00","21.4","","14.3","","63","","","","33","","7","","6.4","","101.20","","25","","","","Smoke"
"-122.36","49.03","ABBOTSFORD A","1100031","2018-08-13 12:00","2018","08","13","12:00","22.5","","14.0","","58","","","","27","","3","","6.4","","101.15","","26","","","","Smoke"
"-122.36","49.03","ABBOTSFORD A","1100031","2018-08-13 13:00","2018","08","13","13:00","23.6","","14.1","","55","","","","30","","5","","6.4","","101.10","","27","","","","Smoke"
"-122.36","49.03","ABBOTSFORD A","1100031","2018-08-13 14:00","2018","08","13","14:00","24.7","","14.5","","52","","","","25","","5","","6.4","","101.04","","28","","","","Smoke"
"-122.36","49.03","ABBOTSFORD A","1100031","2018-08-13 15:00","2018","08","13","15:00","25.6","","15.2","","52","","","","28","","7","","6.4","","100.97","","30","","","","Smoke"
"-122.36","49.03","ABBOTSFORD A","1100031","2018-08-13 16:00","2018","08","13","16:00","25.8","","15.6","","53","","","","27","","9","","6.4","","100.90","","30","","","","Smoke"
"-122.36","49.03","ABBOTSFORD A","1100031","2018-08-13 17:00","2018","08","13","17:00","25.0","","16.8","","60","","","","20","","10","","6.4","","100.88","","30","","","","Smoke"
"-122.36","49.03","ABBOTSFORD A","1100031","2018-08-13 18:00","2018","08","13","18:00","24.7","","15.5","","56","","","","29","","10","","6.4","","100.84","","29","","","","Smoke"
"-122.36","49.03","ABBOTSFORD A","1100031","2018-08-13 19:00","2018","08","13","19:00","21.0","","16.0","","73","","","","22","","7","","6.4","","100.81","","26","","","","Smoke"
"-122.36","49.03","ABBOTSFORD A","1100031","2018-08-13 20:00","2018","08","13","20:00","19.0","","15.5","","80","","","","19","","8","","6.4","","100.82","","","","","","Smoke"
"-122.36","49.03","ABBOTSFORD A","1100031","2018-08-13 21:00","2018","08","13","21:00","18.3","","15.7","","84","","","","32","","3","","6.4","","100.83","","","","","","Smoke"
"-122.36","49.03","ABBOTSFORD A","1100031","2018-08-13 22:00","2018","08","13","22:00","17.6","","15.4","","87","","","","36","","2","","8.1","","100.81","","","","","","Smoke"
"-122.36","49.03","ABBOTSFORD A","1100031","2018-08-13 23:00","2018","08","13","23:00","16.2","","14.7","","91","","","","36","","3","","8.1","","100.80","","","","","","Smoke"
"-122.36","49.03","ABBOTSFORD A","1100031","2018-08-14 00:00","2018","08","14","00:00","14.9","","14.4","","96","","","","23","","3","","8.1","","100.81","","","","","","Smoke"
"-122.36","49.03","ABBOTSFORD A","1100031","2018-08-14 01:00","2018","08","14","01:00","14.6","","14.2","","97","","","","15","","5","","6.4","","100.81","","","","","","Smoke"
"-122.36","49.03","ABBOTSFORD A","1100031","2018-08-14 02:00","2018","08","14","02:00","14.3","","13.9","","98","","","","36","","3","","6.4","","100.80","","","","","","Smoke"
"-122.36","49.03","ABBOTSFORD A","1100031","2018-08-14 03:00","2018","08","14","03:00","14.3","","13.9","","98","","","","36","","1","","6.4","","100.77","","","","","","Smoke"
"-122.36","49.03","ABBOTSFORD A","1100031","2018-08-14 04:00","2018","08","14","04:00","13.7","","13.2","","97","","","","26","","5","","6.4","","100.77","","","","","","Smoke"
"-122.36","49.03","ABBOTSFORD A","1100031","2018-08-14 05:00","2018","08","14","05:00","12.7","","11.9","","95","","","","13","","5","","1.6","","100.77","","","","","","Fog,Smoke"
"-122.36","49.03","ABBOTSFORD A","1100031","2018-08-14 06:00","2018","08","14","06:00","14.3","","13.4","","95","","","","34","","4","","1.6","","100.76","","","","","","Smoke"
"-122.36","49.03","ABBOTSFORD A","1100031","2018-08-14 07:00","2018","08","14","07:00","15.2","","14.0","","93","","","","17","","5","","4.8","","100.79","","","","","","Smoke"
"-122.36","49.03","ABBOTSFORD A","1100031","2018-08-14 08:00","2018","08","14","08:00","18.1","","15.2","","83","","","","36","","1","","6.4","","100.79","","","","","","Smoke"
"-122.36","49.03","ABBOTSFORD A","1100031","2018-08-14 09:00","2018","08","14","09:00","20.9","","14.8","","68","","","","36","","1","","8.1","","100.77","","25","","","","Smoke"
"-122.36","49.03","ABBOTSFORD A","1100031","2018-08-14 10:00","2018","08","14","10:00","22.4","","14.2","","59","","","","32","","5","","8.1","","100.75","","26","","","","Smoke"
"-122.36","49.03","ABBOTSFORD A","1100031","2018-08-14 11:00","2018","08","14","11:00","24.8","","16.0","","58","","","","23","","4","","8.1","","100.69","","29","","","","Smoke"
"-122.36","49.03","ABBOTSFORD A","1100031","2018-08-14 12:00","2018","08","14","12:00","26.1","","16.4","","54","","","","24","","12","","8.1","","100.64","","31","","","","Smoke"
"-122.36","49.03","ABBOTSFORD A","1100031","2018-08-14 13:00","2018","08","14","13:00","27.2","","16.9","","53","","","","20","","11","","8.1","","100.58","","32","","","","Smoke"
"-122.36","49.03","ABBOTSFORD A","1100031","2018-08-14 14:00","2018","08","14","14:00","27.9","","16.5","","49","","","","19","","11","","8.1","","100.50","","33","","","","Smoke"
"-122.36","49.03","ABBOTSFORD A","1100031","2018-08-14 15:00","2018","08","14","15:00","28.6","","16.2","","46","","","","21","","17","","8.1","","100.44","","33","","","","Smoke"
"-122.36","49.03","ABBOTSFORD A","1100031","2018-08-14 16:00","2018","08","14","16:00","27.6","","17.2","","53","","","","20","","17","","8.1","","100.39","","33","","","","Smoke"
"-122.36","49.03","ABBOTSFORD A","1100031","2018-08-14 17:00","2018","08","14","17:00","27.1","","15.7","","49","","","","21","","15","","9.7","","100.35","","32","","","","Smoke"
"-122.36","49.03","ABBOTSFORD A","1100031","2018-08-14 18:00","2018","08","14","18:00","25.3","","15.4","","54","","","","21","","12","","8.1","","100.31","","30","","","","Smoke"
"-122.36","49.03","ABBOTSFORD A","1100031","2018-08-14 19:00","2018","08","14","19:00","22.0","","16.7","","71","","","","20","","12","","6.4","","100.30","","27","","","","Smoke"
"-122.36","49.03","ABBOTSFORD A","1100031","2018-08-14 20:00","2018","08","14","20:00","19.2","","16.1","","82","","","","19","","10","","6.4","","100.32","","","","","","Smoke"
"-122.36","49.03","ABBOTSFORD A","1100031","2018-08-14 21:00","2018","08","14","21:00","17.8","","15.2","","84","","","","15","","3","","6.4","","100.36","","","","","","Smoke"
"-122.36","49.03","ABBOTSFORD A","1100031","2018-08-14 22:00","2018","08","14","22:00","17.8","","15.8","","88","","","","22","","4","","6.4","","100.35","","","","","","Smoke"
"-122.36","49.03","ABBOTSFORD A","1100031","2018-08-14 23:00","2018","08","14","23:00","16.8","","15.0","","89","","","","34","","3","","6.4","","100.38","","","","","","Smoke"
"-122.36","49.03","ABBOTSFORD A","1100031","2018-08-15 00:00","2018","08","15","00:00","15.9","","14.7","","92","","","","36","","3","","6.4","","100.40","","","","","","Smoke"
"-122.36","49.03","ABBOTSFORD A","1100031","2018-08-15 01:00","2018","08","15","01:00","15.7","","14.8","","94","","","","36","","2","","6.4","","100.42","","","","","","Smoke"
"-122.36","49.03","ABBOTSFORD A","1100031","2018-08-15 02:00","2018","08","15","02:00","14.9","","13.7","","92","","","","1","","3","","6.4","","100.46","","","","","","Smoke"
"-122.36","49.03","ABBOTSFORD A","1100031","2018-08-15 03:00","2018","08","15","03:00","14.5","","13.6","","94","","","","36","","2","","6.4","","100.48","","","","","","Smoke"
"-122.36","49.03","ABBOTSFORD A","1100031","2018-08-15 04:00","2018","08","15","04:00","14.2","","13.0","","93","","","","36","","7","","6.4","","100.49","","","","","","Smoke"
"-122.36","49.03","ABBOTSFORD A","1100031","2018-08-15 05:00","2018","08","15","05:00","13.3","","12.3","","94","","","","0","","1","","8.1","","100.53","","","","","","Smoke"
"-122.36","49.03","ABBOTSFORD A","1100031","2018-08-15 06:00","2018","08","15","06:00","13.5","","12.4","","93","","","","19","","6","","6.4","","100.58","","","","","","Smoke"
"-122.36","49.03","ABBOTSFORD A","1100031","2018-08-15 07:00","2018","08","15","07:00","15.9","","14.9","","94","","","","","","0","","4.0","","100.64","","","","","","Smoke"
"-122.36","49.03","ABBOTSFORD A","1100031","2018-08-15 08:00","2018","08","15","08:00","19.5","","14.5","","72","","","","19","","4","","6.4","","100.65","","","","","","Smoke"
"-122.36","49.03","ABBOTSFORD A","1100031","2018-08-15 09:00","2018","08","15","09:00","21.8","","15.5","","67","","","","20","","4","","8.1","","100.64","","26","","","","Smoke"
"-122.36","49.03","ABBOTSFORD A","1100031","2018-08-15 10:00","2018","08","15","10:00","23.0","","15.7","","63","","","","16","","7","","8.1","","100.63","","27","","","","Smoke"
"-122.36","49.03","ABBOTSFORD A","1100031","2018-08-15 11:00","2018","08","15","11:00","24.8","","15.2","","54","","","","22","","9","","16.1","","100.63","","29","","","","NA"
"-122.36","49.03","ABBOTSFORD A","1100031","2018-08-15 12:00","2018","08","15","12:00","26.4","","14.5","","47","","","","22","","15","","20.9","","100.61","","30","","","","NA"
"-122.36","49.03","ABBOTSFORD A","1100031","2018-08-15 13:00","2018","08","15","13:00","27.6","","15.1","","46","","","","17","","9","","20.9","","100.56","","32","","","","Clear"
"-122.36","49.03","ABBOTSFORD A","1100031","2018-08-15 14:00","2018","08","15","14:00","29.1","","12.8","","36","","","","22","","13","","16.1","","100.52","","32","","","","NA"
"-122.36","49.03","ABBOTSFORD A","1100031","2018-08-15 15:00","2018","08","15","15:00","28.7","","11.8","","35","","","","20","","17","","16.1","","100.49","","31","","","","NA"
"-122.36","49.03","ABBOTSFORD A","1100031","2018-08-15 16:00","2018","08","15","16:00","27.7","","12.3","","38","","","","21","","17","","20.9","","100.47","","30","","","","Clear"
"-122.36","49.03","ABBOTSFORD A","1100031","2018-08-15 17:00","2018","08","15","17:00","27.2","","13.3","","42","","","","21","","14","","16.1","","100.44","","30","","","","NA"
"-122.36","49.03","ABBOTSFORD A","1100031","2018-08-15 18:00","2018","08","15","18:00","25.7","","13.2","","45","","","","22","","10","","20.9","","100.42","","29","","","","NA"
"-122.36","49.03","ABBOTSFORD A","1100031","2018-08-15 19:00","2018","08","15","19:00","22.8","","13.6","","56","","","","21","","8","","20.9","","100.43","","26","","","","Clear"
"-122.36","49.03","ABBOTSFORD A","1100031","2018-08-15 20:00","2018","08","15","20:00","20.6","","13.5","","63","","","","22","","5","","20.9","","100.47","","","","","","NA"
"-122.36","49.03","ABBOTSFORD A","1100031","2018-08-15 21:00","2018","08","15","21:00","18.9","","13.7","","71","","","","21","","8","","20.9","","100.52","","","","","","NA"
"-122.36","49.03","ABBOTSFORD A","1100031","2018-08-15 22:00","2018","08","15","22:00","18.5","","13.0","","70","","","","3","","4","","20.9","","100.55","","","","","","Clear"
"-122.36","49.03","ABBOTSFORD A","1100031","2018-08-15 23:00","2018","08","15","23:00","16.7","","13.6","","81","","","","27","","3","","24.1","","100.59","","","","","","NA"
"-122.36","49.03","ABBOTSFORD A","1100031","2018-08-16 00:00","2018","08","16","00:00","14.6","","12.4","","86","","","","20","","6","","24.1","","100.62","","","","","","NA"
"-122.36","49.03","ABBOTSFORD A","1100031","2018-08-16 01:00","2018","08","16","01:00","15.0","","12.6","","85","","","","24","","6","","24.1","","100.68","","","","","","Clear"
"-122.36","49.03","ABBOTSFORD A","1100031","2018-08-16 02:00","2018","08","16","02:00","14.2","","12.4","","89","","","","24","","8","","24.1","","100.74","","","","","","NA"
"-122.36","49.03","ABBOTSFORD A","1100031","2018-08-16 03:00","2018","08","16","03:00","13.1","","11.9","","92","","","","25","","7","","24.1","","100.79","","","","","","NA"
"-122.36","49.03","ABBOTSFORD A","1100031","2018-08-16 04:00","2018","08","16","04:00","12.9","","11.7","","92","","","","22","","6","","24.1","","100.84","","","","","","Clear"
"-122.36","49.03","ABBOTSFORD A","1100031","2018-08-16 05:00","2018","08","16","05:00","11.7","","10.7","","94","","","","25","","7","","16.1","","100.87","","","","","","NA"
"-122.36","49.03","ABBOTSFORD A","1100031","2018-08-16 06:00","2018","08","16","06:00","12.3","","11.5","","95","","","","22","","6","","16.1","","100.97","","","","","","NA"
"-122.36","49.03","ABBOTSFORD A","1100031","2018-08-16 07:00","2018","08","16","07:00","13.8","","12.3","","91","","","","25","","8","","20.9","","101.02","","","","","","Clear"
"-122.36","49.03","ABBOTSFORD A","1100031","2018-08-16 08:00","2018","08","16","08:00","16.1","","12.7","","80","","","","23","","13","","20.9","","101.07","","","","","","NA"
"-122.36","49.03","ABBOTSFORD A","1100031","2018-08-16 09:00","2018","08","16","09:00","18.8","","13.2","","70","","","","22","","12","","24.1","","101.08","","","","","","NA"
"-122.36","49.03","ABBOTSFORD A","1100031","2018-08-16 10:00","2018","08","16","10:00","20.3","","13.2","","63","","","","25","","8","","24.1","","101.08","","","","","","Clear"
"-122.36","49.03","ABBOTSFORD A","1100031","2018-08-16 11:00","2018","08","16","11:00","21.6","","13.6","","60","","","","22","","12","","24.1","","101.08","","25","","","","NA"
"-122.36","49.03","ABBOTSFORD A","1100031","2018-08-16 12:00","2018","08","16","12:00","23.1","","14.9","","60","","","","22","","18","","24.1","","101.07","","27","","","","NA"
"-122.36","49.03","ABBOTSFORD A","1100031","2018-08-16 13:00","2018","08","16","13:00","24.2","","14.5","","54","","","","20","","17","","32.2","","101.05","","28","","","","Clear"
"-122.36","49.03","ABBOTSFORD A","1100031","2018-08-16 14:00","2018","08","16","14:00","24.2","","14.6","","55","","","","19","","17","","32.2","","101.05","","28","","","","NA"
"-122.36","49.03","ABBOTSFORD A","1100031","2018-08-16 15:00","2018","08","16","15:00","24.6","","14.3","","52","","","","20","","18","","32.2","","101.04","","28","","","","NA"
"-122.36","49.03","ABBOTSFORD A","1100031","2018-08-16 16:00","2018","08","16","16:00","24.5","","13.1","","48","","","","21","","19","","32.2","","101.00","","27","","","","Mainly Clear"
"-122.36","49.03","ABBOTSFORD A","1100031","2018-08-16 17:00","2018","08","16","17:00","24.1","","13.8","","52","","","","20","","18","","24.1","","100.99","","27","","","","NA"
"-122.36","49.03","ABBOTSFORD A","1100031","2018-08-16 18:00","2018","08","16","18:00","21.8","","14.1","","61","","","","19","","14","","24.1","","101.00","","25","","","","NA"
"-122.36","49.03","ABBOTSFORD A","1100031","2018-08-16 19:00","2018","08","16","19:00","19.4","","13.5","","69","","","","21","","13","","24.1","","101.05","","","","","","Mainly Clear"
"-122.36","49.03","ABBOTSFORD A","1100031","2018-08-16 20:00","2018","08","16","20:00","18.3","","12.8","","70","","","","23","","13","","24.1","","101.11","","","","","","NA"
"-122.36","49.03","ABBOTSFORD A","1100031","2018-08-16 21:00","2018","08","16","21:00","17.3","","12.1","","71","","","","25","","8","","24.1","","101.14","","","","","","NA"
"-122.36","49.03","ABBOTSFORD A","1100031","2018-08-16 22:00","2018","08","16","22:00","17.1","","12.0","","72","","","","32","","5","","24.1","","101.18","","","","","","Clear"
"-122.36","49.03","ABBOTSFORD A","1100031","2018-08-16 23:00","2018","08","16","23:00","15.7","","12.1","","79","","","","25","","5","","24.1","","101.22","","","","","","NA"
"-122.36","49.03","ABBOTSFORD A","1100031","2018-08-17 00:00","2018","08","17","00:00","15.0","","11.6","","80","","","","30","","6","","24.1","","101.26","","","","","","NA"
"-122.36","49.03","ABBOTSFORD A","1100031","2018-08-17 01:00","2018","08","17","01:00","14.2","","10.9","","81","","","","26","","5","","24.1","","101.28","","","","","","Clear"
"-122.36","49.03","ABBOTSFORD A","1100031","2018-08-17 02:00","2018","08","17","02:00","13.4","","10.6","","83","","","","28","","7","","24.1","","101.33","","","","","","NA"
"-122.36","49.03","ABBOTSFORD A","1100031","2018-08-17 03:00","2018","08","17","03:00","12.5","","10.1","","85","","","","29","","4","","24.1","","101.37","","","","","","NA"
"-122.36","49.03","ABBOTSFORD A","1100031","2018-08-17 04:00","2018","08","17","04:00","11.8","","9.9","","88","","","","33","","8","","24.1","","101.39","","","","","","Clear"
"-122.36","49.03","ABBOTSFORD A","1100031","2018-08-17 05:00","2018","08","17","05:00","12.0","","10.0","","87","","","","36","","3","","24.1","","101.43","","","","","","NA"
"-122.36","49.03","ABBOTSFORD A","1100031","2018-08-17 06:00","2018","08","17","06:00","11.8","","9.9","","88","","","","31","","5","","24.1","","101.48","","","","","","NA"
"-122.36","49.03","ABBOTSFORD A","1100031","2018-08-17 07:00","2018","08","17","07:00","13.9","","11.0","","82","","","","31","","5","","24.1","","101.57","","","","","","Clear"
"-122.36","49.03","ABBOTSFORD A","1100031","2018-08-17 08:00","2018","08","17","08:00","16.2","","10.7","","69","","","","24","","10","","24.1","","101.59","","","","","","NA"
"-122.36","49.03","ABBOTSFORD A","1100031","2018-08-17 09:00","2018","08","17","09:00","18.0","","12.1","","68","","","","22","","13","","24.1","","101.62","","","","","","NA"
"-122.36","49.03","ABBOTSFORD A","1100031","2018-08-17 10:00","2018","08","17","10:00","18.9","","12.4","","65","","","","22","","18","","24.1","","101.63","","","","","","Clear"
"-122.36","49.03","ABBOTSFORD A","1100031","2018-08-17 11:00","2018","08","17","11:00","19.5","","12.9","","65","","","","21","","20","","24.1","","101.63","","","","","","NA"
"-122.36","49.03","ABBOTSFORD A","1100031","2018-08-17 12:00","2018","08","17","12:00","20.5","","12.7","","60","","","","23","","21","","24.1","","101.60","","","","","","NA"
"-122.36","49.03","ABBOTSFORD A","1100031","2018-08-17 13:00","2018","08","17","13:00","21.2","","12.7","","58","","","","24","","18","","24.1","","101.59","","","","","","Clear"
"-122.36","49.03","ABBOTSFORD A","1100031","2018-08-17 14:00","2018","08","17","14:00","22.1","","12.7","","55","","","","22","","14","","48.3","","101.55","","25","","","","NA"
"-122.36","49.03","ABBOTSFORD A","1100031","2018-08-17 15:00","2018","08","17","15:00","22.8","","11.7","","49","","","","23","","18","","48.3","","101.53","","25","","","","NA"
"-122.36","49.03","ABBOTSFORD A","1100031","2018-08-17 16:00","2018","08","17","16:00","22.8","","11.4","","48","","","","23","","16","","48.3","","101.49","","25","","","","Clear"
"-122.36","49.03","ABBOTSFORD A","1100031","2018-08-17 17:00","2018","08","17","17:00","22.3","","12.0","","51","","","","22","","16","","48.3","","101.50","","25","","","","NA"
"-122.36","49.03","ABBOTSFORD A","1100031","2018-08-17 18:00","2018","08","17","18:00","21.2","","10.5","","50","","","","23","","16","","48.3","","101.47","","","","","","NA"
"-122.36","49.03","ABBOTSFORD A","1100031","2018-08-17 19:00","2018","08","17","19:00","19.6","","10.5","","55","","","","23","","10","","48.3","","101.49","","","","","","Clear"
"-122.36","49.03","ABBOTSFORD A","1100031","2018-08-17 20:00","2018","08","17","20:00","17.9","","11.3","","65","","","","23","","6","","24.1","","101.55","","","","","","NA"
"-122.36","49.03","ABBOTSFORD A","1100031","2018-08-17 21:00","2018","08","17","21:00","15.5","","10.3","","71","","","","36","","2","","24.1","","101.59","","","","","","NA"
"-122.36","49.03","ABBOTSFORD A","1100031","2018-08-17 22:00","2018","08","17","22:00","15.5","","10.8","","73","","","","36","","2","","24.1","","101.59","","","","","","Clear"
"-122.36","49.03","ABBOTSFORD A","1100031","2018-08-17 23:00","2018","08","17","23:00","15.1","","10.9","","76","","","","36","","2","","24.1","","101.61","","","","","","NA"
"-122.36","49.03","ABBOTSFORD A","1100031","2018-08-18 00:00","2018","08","18","00:00","14.7","","10.6","","76","","","","31","","3","","24.1","","101.62","","","","","","NA"
"-122.36","49.03","ABBOTSFORD A","1100031","2018-08-18 01:00","2018","08","18","01:00","12.8","","10.4","","85","","","","35","","3","","24.1","","101.62","","","","","","Clear"
"-122.36","49.03","ABBOTSFORD A","1100031","2018-08-18 02:00","2018","08","18","02:00","13.0","","10.5","","84","","","","36","","2","","24.1","","101.61","","","","","","NA"
"-122.36","49.03","ABBOTSFORD A","1100031","2018-08-18 03:00","2018","08","18","03:00","11.2","","9.9","","91","","","","21","","5","","24.1","","101.61","","","","","","NA"
"-122.36","49.03","ABBOTSFORD A","1100031","2018-08-18 04:00","2018","08","18","04:00","11.0","","9.6","","90","","","","22","","3","","24.1","","101.63","","","","","","Clear"
"-122.36","49.03","ABBOTSFORD A","1100031","2018-08-18 05:00","2018","08","18","05:00","11.6","","10.4","","92","","","","36","","3","","24.1","","101.65","","","","","","NA"
"-122.36","49.03","ABBOTSFORD A","1100031","2018-08-18 06:00","2018","08","18","06:00","11.4","","9.7","","89","","","","","","0","","32.2","","101.67","","","","","","NA"
"-122.36","49.03","ABBOTSFORD A","1100031","2018-08-18 07:00","2018","08","18","07:00","13.4","","10.9","","85","","","","36","","2","","24.1","","101.69","","","","","","Mainly Clear"
"-122.36","49.03","ABBOTSFORD A","1100031","2018-08-18 08:00","2018","08","18","08:00","14.9","","11.9","","82","","","","21","","4","","24.1","","101.70","","","","","","NA"
"-122.36","49.03","ABBOTSFORD A","1100031","2018-08-18 09:00","2018","08","18","09:00","17.1","","11.4","","69","","","","22","","4","","24.1","","101.66","","","","","","NA"
"-122.36","49.03","ABBOTSFORD A","1100031","2018-08-18 10:00","2018","08","18","10:00","18.9","","11.9","","64","","","","36","","2","","24.1","","101.64","","","","","","Mainly Clear"
"-122.36","49.03","ABBOTSFORD A","1100031","2018-08-18 11:00","2018","08","18","11:00","19.6","","12.5","","63","","","","18","","4","","24.1","","101.60","","","","","","NA"
"-122.36","49.03","ABBOTSFORD A","1100031","2018-08-18 12:00","2018","08","18","12:00","21.4","","12.1","","55","","","","24","","7","","24.1","","101.54","","","","","","NA"
"-122.36","49.03","ABBOTSFORD A","1100031","2018-08-18 13:00","2018","08","18","13:00","22.2","","11.8","","51","","","","26","","3","","24.1","","101.49","","","","","","Mainly Clear"
"-122.36","49.03","ABBOTSFORD A","1100031","2018-08-18 14:00","2018","08","18","14:00","22.9","","11.8","","49","","","","36","","1","","24.1","","101.43","","25","","","","NA"
"-122.36","49.03","ABBOTSFORD A","1100031","2018-08-18 15:00","2018","08","18","15:00","23.7","","12.3","","48","","","","28","","8","","24.1","","101.38","","26","","","","NA"
"-122.36","49.03","ABBOTSFORD A","1100031","2018-08-18 16:00","2018","08","18","16:00","23.6","","12.2","","48","","","","30","","3","","24.1","","101.32","","26","","","","Mainly Clear"
"-122.36","49.03","ABBOTSFORD A","1100031","2018-08-18 17:00","2018","08","18","17:00","23.1","","13.1","","53","","","","5","","9","","24.1","","101.27","","26","","","","NA"
"-122.36","49.03","ABBOTSFORD A","1100031","2018-08-18 18:00","2018","08","18","18:00","22.4","","13.4","","56","","","","7","","7","","24.1","","101.25","","25","","","","NA"
"-122.36","49.03","ABBOTSFORD A","1100031","2018-08-18 19:00","2018","08","18","19:00","19.7","","13.7","","68","","","","24","","8","","24.1","","101.25","","","","","","Mainly Clear"
"-122.36","49.03","ABBOTSFORD A","1100031","2018-08-18 20:00","2018","08","18","20:00","18.1","","13.7","","75","","","","36","","1","","24.1","","101.26","","","","","","NA"
"-122.36","49.03","ABBOTSFORD A","1100031","2018-08-18 21:00","2018","08","18","21:00","17.4","","13.7","","79","","","","36","","2","","24.1","","101.27","","","","","","NA"
"-122.36","49.03","ABBOTSFORD A","1100031","2018-08-18 22:00","2018","08","18","22:00","16.4","","13.4","","82","","","","36","","3","","24.1","","101.26","","","","","","Mainly Clear"
"-122.36","49.03","ABBOTSFORD A","1100031","2018-08-18 23:00","2018","08","18","23:00","16.2","","13.6","","84","","","","36","","3","","24.1","","101.24","","","","","","NA"
"-122.36","49.03","ABBOTSFORD A","1100031","2018-08-19 00:00","2018","08","19","00:00","15.2","","13.0","","87","","","","36","","2","","24.1","","101.25","","","","","","NA"
"-122.36","49.03","ABBOTSFORD A","1100031","2018-08-19 01:00","2018","08","19","01:00","15.3","","13.2","","87","","","","33","","4","","24.1","","101.23","","","","","","Mainly Clear"
"-122.36","49.03","ABBOTSFORD A","1100031","2018-08-19 02:00","2018","08","19","02:00","14.9","","13.5","","91","","","","2","","3","","24.1","","101.20","","","","","","NA"
"-122.36","49.03","ABBOTSFORD A","1100031","2018-08-19 03:00","2018","08","19","03:00","15.1","","13.7","","91","","","","33","","4","","24.1","","101.20","","","","","","NA"
"-122.36","49.03","ABBOTSFORD A","1100031","2018-08-19 04:00","2018","08","19","04:00","13.1","","12.3","","95","","","","21","","5","","24.1","","101.20","","","","","","Mainly Clear"
"-122.36","49.03","ABBOTSFORD A","1100031","2018-08-19 05:00","2018","08","19","05:00","12.5","","12.1","","97","","","","20","","4","","24.1","","101.21","","","","","","Smoke"
"-122.36","49.03","ABBOTSFORD A","1100031","2018-08-19 06:00","2018","08","19","06:00","11.9","","11.5","","98","","","","15","","3","","1.6","","101.24","","","","","","Smoke"
"-122.36","49.03","ABBOTSFORD A","1100031","2018-08-19 07:00","2018","08","19","07:00","13.3","","12.6","","95","","","","36","","2","","2.0","","101.24","","","","","","Smoke"
"-122.36","49.03","ABBOTSFORD A","1100031","2018-08-19 08:00","2018","08","19","08:00","15.0","","13.6","","91","","","","36","","1","","2.0","","101.23","","","","","","Smoke"
"-122.36","49.03","ABBOTSFORD A","1100031","2018-08-19 09:00","2018","08","19","09:00","16.9","","14.5","","86","","","","36","","3","","2.0","","101.23","","","","","","Smoke"
"-122.36","49.03","ABBOTSFORD A","1100031","2018-08-19 10:00","2018","08","19","10:00","18.9","","15.2","","79","","","","24","","3","","3.2","","101.22","","","","","","Smoke"
"-122.36","49.03","ABBOTSFORD A","1100031","2018-08-19 11:00","2018","08","19","11:00","19.7","","15.4","","76","","","","24","","7","","3.2","","101.19","","","","","","Smoke"
"-122.36","49.03","ABBOTSFORD A","1100031","2018-08-19 12:00","2018","08","19","12:00","21.9","","15.7","","68","","","","18","","9","","3.2","","101.10","","26","","","","Smoke"
"-122.36","49.03","ABBOTSFORD A","1100031","2018-08-19 13:00","2018","08","19","13:00","23.9","","15.2","","58","","","","25","","5","","3.2","","101.05","","28","","","","Smoke"
"-122.36","49.03","ABBOTSFORD A","1100031","2018-08-19 14:00","2018","08","19","14:00","24.8","","15.2","","55","","","","27","","4","","3.2","","100.99","","29","","","","Smoke"
"-122.36","49.03","ABBOTSFORD A","1100031","2018-08-19 15:00","2018","08","19","15:00","24.7","","16.0","","58","","","","20","","16","","3.6","","100.92","","29","","","","Smoke"
"-122.36","49.03","ABBOTSFORD A","1100031","2018-08-19 16:00","2018","08","19","16:00","24.0","","15.0","","56","","","","22","","17","","3.2","","100.88","","28","","","","Smoke"
"-122.36","49.03","ABBOTSFORD A","1100031","2018-08-19 17:00","2018","08","19","17:00","22.6","","15.6","","64","","","","21","","16","","3.6","","100.87","","27","","","","Smoke"
"-122.36","49.03","ABBOTSFORD A","1100031","2018-08-19 18:00","2018","08","19","18:00","21.1","","15.0","","68","","","","23","","14","","8.1","","100.88","","25","","","","Smoke"
"-122.36","49.03","ABBOTSFORD A","1100031","2018-08-19 19:00","2018","08","19","19:00","18.5","","15.4","","82","","","","21","","10","","12.9","","100.90","","","","","","Mainly Clear"
"-122.36","49.03","ABBOTSFORD A","1100031","2018-08-19 20:00","2018","08","19","20:00","16.8","","14.8","","88","","","","19","","5","","12.9","","100.96","","","","","","NA"
"-122.36","49.03","ABBOTSFORD A","1100031","2018-08-19 21:00","2018","08","19","21:00","16.1","","14.3","","89","","","","13","","3","","12.9","","100.98","","","","","","NA"
"-122.36","49.03","ABBOTSFORD A","1100031","2018-08-19 22:00","2018","08","19","22:00","15.3","","14.2","","93","","","","24","","4","","12.9","","100.97","","","","","","Clear"
"-122.36","49.03","ABBOTSFORD A","1100031","2018-08-19 23:00","2018","08","19","23:00","14.7","","13.7","","94","","","","35","","4","","12.9","","101.00","","","","","","NA"
"-122.36","49.03","ABBOTSFORD A","1100031","2018-08-20 00:00","2018","08","20","00:00","14.1","","13.0","","93","","","","36","","1","","12.9","","101.02","","","","","","Smoke"
"-122.36","49.03","ABBOTSFORD A","1100031","2018-08-20 01:00","2018","08","20","01:00","14.1","","13.2","","94","","","","35","","3","","4.8","","101.01","","","","","","Smoke"
"-122.36","49.03","ABBOTSFORD A","1100031","2018-08-20 02:00","2018","08","20","02:00","13.9","","13.0","","94","","","","34","","6","","6.4","","101.00","","","","","","Smoke"
"-122.36","49.03","ABBOTSFORD A","1100031","2018-08-20 03:00","2018","08","20","03:00","13.3","","12.3","","94","","","","33","","7","","6.4","","101.02","","","","","","Smoke"
"-122.36","49.03","ABBOTSFORD A","1100031","2018-08-20 04:00","2018","08","20","04:00","13.4","","12.5","","94","","","","29","","3","","4.8","","101.04","","","","","","Smoke"
"-122.36","49.03","ABBOTSFORD A","1100031","2018-08-20 05:00","2018","08","20","05:00","11.8","","10.8","","94","","","","10","","5","","3.2","","101.06","","","","","","Fog,Smoke"
"-122.36","49.03","ABBOTSFORD A","1100031","2018-08-20 06:00","2018","08","20","06:00","12.1","","11.3","","95","","","","36","","3","","4.0","","101.07","","","","","","Fog,Smoke"
"-122.36","49.03","ABBOTSFORD A","1100031","2018-08-20 07:00","2018","08","20","07:00","15.0","","13.9","","93","","","","6","","5","","3.2","","101.10","","","","","","Fog,Smoke"
"-122.36","49.03","ABBOTSFORD A","1100031","2018-08-20 08:00","2018","08","20","08:00","18.3","","15.1","","81","","","","1","","4","","3.2","","101.08","","","","","","Smoke"
"-122.36","49.03","ABBOTSFORD A","1100031","2018-08-20 09:00","2018","08","20","09:00","21.2","","14.4","","65","","","","28","","4","","2.4","","101.08","","25","","","","Smoke"
"-122.36","49.03","ABBOTSFORD A","1100031","2018-08-20 10:00","2018","08","20","10:00","24.7","","13.1","","48","","","","31","","7","","2.0","","101.05","","28","","","","Smoke"
"-122.36","49.03","ABBOTSFORD A","1100031","2018-08-20 11:00","2018","08","20","11:00","28.0","","9.1","","30","","","","35","","6","","2.8","","100.99","","29","","","","Smoke"
"-122.36","49.03","ABBOTSFORD A","1100031","2018-08-20 12:00","2018","08","20","12:00","30.7","","8.7","","25","","","","1","","18","","2.8","","100.92","","31","","","","Smoke"
"-122.36","49.03","ABBOTSFORD A","1100031","2018-08-20 13:00","2018","08","20","13:00","32.9","","6.7","","19","","","","1","","19","","3.2","","100.86","","33","","","","Smoke"
"-122.36","49.03","ABBOTSFORD A","1100031","2018-08-20 14:00","2018","08","20","14:00","32.9","","9.2","","23","","","","35","","14","","3.2","","100.81","","34","","","","Smoke"
"-122.36","49.03","ABBOTSFORD A","1100031","2018-08-20 15:00","2018","08","20","15:00","32.0","","9.1","","24","","","","32","","18","","3.2","","100.77","","33","","","","Smoke"
"-122.36","49.03","ABBOTSFORD A","1100031","2018-08-20 16:00","2018","08","20","16:00","32.0","","10.1","","25","","","","32","","17","","3.2","","100.76","","33","","","","Smoke"
"-122.36","49.03","ABBOTSFORD A","1100031","2018-08-20 17:00","2018","08","20","17:00","31.4","","10.1","","26","","","","29","","15","","3.2","","100.76","","33","","","","Smoke"
"-122.36","49.03","ABBOTSFORD A","1100031","2018-08-20 18:00","2018","08","20","18:00","30.2","","9.6","","27","","","","31","","10","","3.2","","100.76","","31","","","","Smoke"
"-122.36","49.03","ABBOTSFORD A","1100031","2018-08-20 19:00","2018","08","20","19:00","26.2","","10.3","","36","","","","20","","6","","8.1","","100.78","","28","","","","Smoke"
"-122.36","49.03","ABBOTSFORD A","1100031","2018-08-20 20:00","2018","08","20","20:00","21.5","","12.0","","54","","","","19","","12","","4.8","","100.84","","","","","","Smoke"
"-122.36","49.03","ABBOTSFORD A","1100031","2018-08-20 21:00","2018","08","20","21:00","19.3","","12.6","","65","","","","18","","5","","4.8","","100.88","","","","","","Smoke"
"-122.36","49.03","ABBOTSFORD A","1100031","2018-08-20 22:00","2018","08","20","22:00","18.1","","12.9","","71","","","","23","","4","","4.0","","100.92","","","","","","Smoke"
"-122.36","49.03","ABBOTSFORD A","1100031","2018-08-20 23:00","2018","08","20","23:00","17.6","","12.7","","73","","","","26","","3","","3.2","","100.98","","","","","","Smoke"
"-122.36","49.03","ABBOTSFORD A","1100031","2018-08-21 00:00","2018","08","21","00:00","16.7","","11.8","","73","","","","36","","2","","3.2","","101.00","","","","","","Smoke"
"-122.36","49.03","ABBOTSFORD A","1100031","2018-08-21 01:00","2018","08","21","01:00","16.2","","11.7","","74","","","","36","","3","","2.4","","101.02","","","","","","Smoke"
"-122.36","49.03","ABBOTSFORD A","1100031","2018-08-21 02:00","2018","08","21","02:00","15.7","","11.6","","77","","","","36","","3","","2.4","","101.05","","","","","","Smoke"
"-122.36","49.03","ABBOTSFORD A","1100031","2018-08-21 03:00","2018","08","21","03:00","14.6","","10.8","","78","","","","35","","5","","2.4","","101.09","","","","","","Smoke"
"-122.36","49.03","ABBOTSFORD A","1100031","2018-08-21 04:00","2018","08","21","04:00","13.8","","11.2","","84","","","","36","","2","","2.4","","101.12","","","","","","Smoke"
"-122.36","49.03","ABBOTSFORD A","1100031","2018-08-21 05:00","2018","08","21","05:00","13.3","","10.6","","84","","","","36","","4","","2.8","","101.13","","","","","","Smoke"
"-122.36","49.03","ABBOTSFORD A","1100031","2018-08-21 06:00","2018","08","21","06:00","13.6","","11.4","","87","","","","36","","3","","2.4","","101.14","","","","","","Smoke"
"-122.36","49.03","ABBOTSFORD A","1100031","2018-08-21 07:00","2018","08","21","07:00","16.6","","11.9","","74","","","","6","","3","","2.4","","101.16","","","","","","Smoke"
"-122.36","49.03","ABBOTSFORD A","1100031","2018-08-21 08:00","2018","08","21","08:00","19.8","","10.6","","55","","","","3","","7","","4.0","","101.18","","","","","","Smoke"
"-122.36","49.03","ABBOTSFORD A","1100031","2018-08-21 09:00","2018","08","21","09:00","22.8","","9.9","","44","","","","1","","3","","4.8","","101.17","","","","","","Smoke"
"-122.36","49.03","ABBOTSFORD A","1100031","2018-08-21 10:00","2018","08","21","10:00","25.7","","9.4","","35","","","","5","","3","","4.8","","101.14","","27","","","","Smoke"
"-122.36","49.03","ABBOTSFORD A","1100031","2018-08-21 11:00","2018","08","21","11:00","27.6","","8.4","","29","","","","31","","5","","4.8","","101.10","","28","","","","Smoke"
"-122.36","49.03","ABBOTSFORD A","1100031","2018-08-21 12:00","2018","08","21","12:00","29.5","","9.6","","28","","","","23","","6","","4.0","","101.02","","31","","","","Smoke"
"-122.36","49.03","ABBOTSFORD A","1100031","2018-08-21 13:00","2018","08","21","13:00","30.3","","9.4","","27","","","","22","","9","","4.8","","100.98","","31","","","","Smoke"
"-122.36","49.03","ABBOTSFORD A","1100031","2018-08-21 14:00","2018","08","21","14:00","31.4","","7.5","","22","","","","17","","8","","4.8","","100.92","","32","","","","Smoke"
"-122.36","49.03","ABBOTSFORD A","1100031","2018-08-21 15:00","2018","08","21","15:00","30.7","","11.3","","30","","","","22","","21","","3.2","","100.86","","33","","","","Smoke"
"-122.36","49.03","ABBOTSFORD A","1100031","2018-08-21 16:00","2018","08","21","16:00","29.9","","10.4","","29","","","","21","","19","","3.2","","100.82","","31","","","","Smoke"
"-122.36","49.03","ABBOTSFORD A","1100031","2018-08-21 17:00","2018","08","21","17:00","29.2","","9.8","","29","","","","20","","14","","3.2","","100.79","","30","","","","Smoke"
"-122.36","49.03","ABBOTSFORD A","1100031","2018-08-21 18:00","2018","08","21","18:00","27.6","","9.7","","32","","","","22","","11","","3.2","","100.77","","29","","","","Smoke"
"-122.36","49.03","ABBOTSFORD A","1100031","2018-08-21 19:00","2018","08","21","19:00","24.8","","10.6","","40","","","","19","","7","","4.0","","100.74","","26","","","","Smoke"
"-122.36","49.03","ABBOTSFORD A","1100031","2018-08-21 20:00","2018","08","21","20:00","22.4","","11.8","","51","","","","31","","4","","3.2","","100.74","","25","","","","Smoke"
"-122.36","49.03","ABBOTSFORD A","1100031","2018-08-21 21:00","2018","08","21","21:00","20.0","","10.6","","54","","","","1","","3","","3.2","","100.75","","","","","","Smoke"
"-122.36","49.03","ABBOTSFORD A","1100031","2018-08-21 22:00","2018","08","21","22:00","19.0","","10.8","","59","","","","36","","2","","4.0","","100.73","","","","","","Smoke"
"-122.36","49.03","ABBOTSFORD A","1100031","2018-08-21 23:00","2018","08","21","23:00","17.3","","11.6","","69","","","","14","","3","","4.0","","100.74","","","","","","Smoke"
"-122.36","49.03","ABBOTSFORD A","1100031","2018-08-22 00:00","2018","08","22","00:00","16.4","","11.1","","70","","","","36","","2","","3.2","","100.75","","","","","","Smoke"
"-122.36","49.03","ABBOTSFORD A","1100031","2018-08-22 01:00","2018","08","22","01:00","15.7","","12.0","","78","","","","36","","1","","3.2","","100.73","","","","","","Smoke"
"-122.36","49.03","ABBOTSFORD A","1100031","2018-08-22 02:00","2018","08","22","02:00","15.9","","11.2","","73","","","","33","","3","","4.0","","100.71","","","","","","Smoke"
"-122.36","49.03","ABBOTSFORD A","1100031","2018-08-22 03:00","2018","08","22","03:00","15.2","","10.6","","74","","","","36","","4","","4.0","","100.71","","","","","","Smoke"
"-122.36","49.03","ABBOTSFORD A","1100031","2018-08-22 04:00","2018","08","22","04:00","14.2","","11.2","","82","","","","27","","3","","4.0","","100.67","","","","","","Smoke"
"-122.36","49.03","ABBOTSFORD A","1100031","2018-08-22 05:00","2018","08","22","05:00","13.9","","10.5","","80","","","","36","","1","","3.2","","100.66","","","","","","Smoke"
"-122.36","49.03","ABBOTSFORD A","1100031","2018-08-22 06:00","2018","08","22","06:00","13.8","","10.8","","82","","","","36","","2","","4.0","","100.68","","","","","","Smoke"
"-122.36","49.03","ABBOTSFORD A","1100031","2018-08-22 07:00","2018","08","22","07:00","15.7","","11.7","","77","","","","36","","1","","4.0","","100.71","","","","","","Smoke"
"-122.36","49.03","ABBOTSFORD A","1100031","2018-08-22 08:00","2018","08","22","08:00","18.5","","11.1","","62","","","","21","","4","","4.0","","100.71","","","","","","Smoke"
"-122.36","49.03","ABBOTSFORD A","1100031","2018-08-22 09:00","2018","08","22","09:00","20.2","","12.9","","62","","","","20","","9","","3.2","","100.70","","","","","","Smoke"
"-122.36","49.03","ABBOTSFORD A","1100031","2018-08-22 10:00","2018","08","22","10:00","21.6","","12.9","","57","","","","24","","10","","2.4","","100.68","","","","","","Smoke"
"-122.36","49.03","ABBOTSFORD A","1100031","2018-08-22 11:00","2018","08","22","11:00","23.4","","12.4","","50","","","","21","","12","","2.4","","100.64","","26","","","","Smoke"
"-122.36","49.03","ABBOTSFORD A","1100031","2018-08-22 12:00","2018","08","22","12:00","25.3","","11.7","","42","","","","22","","18","","1.6","","100.59","","27","","","","Smoke"
"-122.36","49.03","ABBOTSFORD A","1100031","2018-08-22 13:00","2018","08","22","13:00","26.6","","11.3","","38","","","","20","","17","","1.6","","100.56","","29","","","","Smoke"
"-122.36","49.03","ABBOTSFORD A","1100031","2018-08-22 14:00","2018","08","22","14:00","27.0","","12.6","","40","","","","21","","13","","1.6","","100.53","","30","","","","Smoke"
"-122.36","49.03","ABBOTSFORD A","1100031","2018-08-22 15:00","2018","08","22","15:00","27.2","","12.5","","40","","","","21","","14","","1.6","","100.50","","30","","","","Smoke"
"-122.36","49.03","ABBOTSFORD A","1100031","2018-08-22 16:00","2018","08","22","16:00","26.9","","12.3","","40","","","","22","","9","","1.6","","100.46","","29","","","","Smoke"
"-122.36","49.03","ABBOTSFORD A","1100031","2018-08-22 17:00","2018","08","22","17:00","26.2","","12.7","","42","","","","19","","10","","1.6","","100.41","","29","","","","Smoke"
"-122.36","49.03","ABBOTSFORD A","1100031","2018-08-22 18:00","2018","08","22","18:00","24.3","","11.3","","44","","","","24","","9","","1.2","","100.38","","26","","","","Smoke"
"-122.36","49.03","ABBOTSFORD A","1100031","2018-08-22 19:00","2018","08","22","19:00","21.1","","12.4","","57","","","","20","","9","","2.4","","100.37","","","","","","Smoke"
"-122.36","49.03","ABBOTSFORD A","1100031","2018-08-22 20:00","2018","08","22","20:00","18.0","","12.5","","70","","","","17","","7","","2.4","","100.42","","","","","","Smoke"
"-122.36","49.03","ABBOTSFORD A","1100031","2018-08-22 21:00","2018","08","22","21:00","18.1","","12.4","","69","","","","29","","4","","2.4","","100.44","","","","","","Smoke"
"-122.36","49.03","ABBOTSFORD A","1100031","2018-08-22 22:00","2018","08","22","22:00","16.1","","11.4","","73","","","","22","","15","","2.4","","100.45","","","","","","Smoke"
"-122.36","49.03","ABBOTSFORD A","1100031","2018-08-22 23:00","2018","08","22","23:00","16.0","","11.5","","74","","","","24","","9","","3.6","","100.46","","","","","","Smoke"
"-122.36","49.03","ABBOTSFORD A","1100031","2018-08-23 00:00","2018","08","23","00:00","16.7","","10.9","","68","","","","25","","11","","2.4","","100.51","","","","","","Smoke"
"-122.36","49.03","ABBOTSFORD A","1100031","2018-08-23 01:00","2018","08","23","01:00","15.4","","10.5","","72","","","","24","","23","","2.8","","100.59","","","","","","Smoke"
"-122.36","49.03","ABBOTSFORD A","1100031","2018-08-23 02:00","2018","08","23","02:00","15.4","","11.1","","75","","","","25","","14","","4.0","","100.62","","","","","","Smoke"
"-122.36","49.03","ABBOTSFORD A","1100031","2018-08-23 03:00","2018","08","23","03:00","14.0","","11.8","","86","","","","24","","14","","8.1","","100.65","","","","","","Smoke"
"-122.36","49.03","ABBOTSFORD A","1100031","2018-08-23 04:00","2018","08","23","04:00","14.1","","11.8","","86","","","","25","","8","","9.7","","100.68","","","","","","Smoke"
"-122.36","49.03","ABBOTSFORD A","1100031","2018-08-23 05:00","2018","08","23","05:00","13.3","","11.8","","91","","","","22","","12","","6.4","","100.75","","","","","","Smoke"
"-122.36","49.03","ABBOTSFORD A","1100031","2018-08-23 06:00","2018","08","23","06:00","13.6","","12.3","","92","","","","21","","17","","3.2","","100.82","","","","","","Smoke"
"-122.36","49.03","ABBOTSFORD A","1100031","2018-08-23 07:00","2018","08","23","07:00","14.7","","12.3","","85","","","","21","","22","","3.2","","100.87","","","","","","Smoke"
"-122.36","49.03","ABBOTSFORD A","1100031","2018-08-23 08:00","2018","08","23","08:00","15.7","","12.1","","79","","","","20","","14","","3.2","","100.91","","","","","","Smoke"
"-122.36","49.03","ABBOTSFORD A","1100031","2018-08-23 09:00","2018","08","23","09:00","16.2","","11.7","","75","","","","20","","21","","3.2","","100.92","","","","","","Smoke"
"-122.36","49.03","ABBOTSFORD A","1100031","2018-08-23 10:00","2018","08","23","10:00","17.2","","12.1","","71","","","","22","","14","","4.0","","100.95","","","","","","Smoke"
"-122.36","49.03","ABBOTSFORD A","1100031","2018-08-23 11:00","2018","08","23","11:00","17.9","","11.6","","66","","","","22","","21","","4.8","","100.95","","","","","","Smoke"
"-122.36","49.03","ABBOTSFORD A","1100031","2018-08-23 12:00","2018","08","23","12:00","19.4","","11.3","","59","","","","22","","21","","4.8","","100.93","","","","","","Smoke"
"-122.36","49.03","ABBOTSFORD A","1100031","2018-08-23 13:00","2018","08","23","13:00","20.3","","11.8","","58","","","","22","","25","","6.4","","100.93","","","","","","Smoke"
"-122.36","49.03","ABBOTSFORD A","1100031","2018-08-23 14:00","2018","08","23","14:00","19.5","","12.2","","62","","","","22","","18","","16.1","","100.93","","","","","","NA"
"-122.36","49.03","ABBOTSFORD A","1100031","2018-08-23 15:00","2018","08","23","15:00","18.8","","11.9","","64","","","","27","","17","","24.1","","100.90","","","","","","NA"
"-122.36","49.03","ABBOTSFORD A","1100031","2018-08-23 16:00","2018","08","23","16:00","18.8","","11.5","","62","","","","25","","14","","32.2","","100.88","","","","","","Cloudy"
"-122.36","49.03","ABBOTSFORD A","1100031","2018-08-23 17:00","2018","08","23","17:00","19.1","","11.6","","61","","","","22","","9","","32.2","","100.85","","","","","","NA"
"-122.36","49.03","ABBOTSFORD A","1100031","2018-08-23 18:00","2018","08","23","18:00","18.5","","11.3","","62","","","","22","","15","","32.2","","100.81","","","","","","NA"
"-122.36","49.03","ABBOTSFORD A","1100031","2018-08-23 19:00","2018","08","23","19:00","17.0","","11.5","","70","","","","23","","14","","32.2","","100.82","","","","","","Mostly Cloudy"
"-122.36","49.03","ABBOTSFORD A","1100031","2018-08-23 20:00","2018","08","23","20:00","16.8","","11.5","","71","","","","25","","10","","24.1","","100.86","","","","","","NA"
"-122.36","49.03","ABBOTSFORD A","1100031","2018-08-23 21:00","2018","08","23","21:00","14.3","","11.3","","82","","","","19","","9","","24.1","","100.88","","","","","","NA"
"-122.36","49.03","ABBOTSFORD A","1100031","2018-08-23 22:00","2018","08","23","22:00","13.5","","11.3","","86","","","","18","","6","","24.1","","100.87","","","","","","Mostly Cloudy"
"-122.36","49.03","ABBOTSFORD A","1100031","2018-08-23 23:00","2018","08","23","23:00","13.4","","11.4","","88","","","","36","","1","","24.1","","100.87","","","","","","NA"
"-122.36","49.03","ABBOTSFORD A","1100031","2018-08-24 00:00","2018","08","24","00:00","12.8","","11.1","","89","","","","29","","4","","24.1","","100.88","","","","","","NA"
"-122.36","49.03","ABBOTSFORD A","1100031","2018-08-24 01:00","2018","08","24","01:00","11.9","","10.5","","91","","","","36","","2","","24.1","","100.88","","","","","","Mainly Clear"
"-122.36","49.03","ABBOTSFORD A","1100031","2018-08-24 02:00","2018","08","24","02:00","10.8","","9.9","","94","","","","23","","4","","24.1","","100.88","","","","","","NA"
"-122.36","49.03","ABBOTSFORD A","1100031","2018-08-24 03:00","2018","08","24","03:00","11.2","","10.4","","95","","","","18","","3","","24.1","","100.91","","","","","","NA"
"-122.36","49.03","ABBOTSFORD A","1100031","2018-08-24 04:00","2018","08","24","04:00","11.6","","10.9","","95","","","","27","","3","","12.9","","100.92","","","","","","Mostly Cloudy"
"-122.36","49.03","ABBOTSFORD A","1100031","2018-08-24 05:00","2018","08","24","05:00","11.4","","10.9","","97","","","","23","","7","","4.8","","100.94","","","","","","Fog"
"-122.36","49.03","ABBOTSFORD A","1100031","2018-08-24 06:00","2018","08","24","06:00","11.5","","10.9","","96","","","","23","","7","","4.8","","100.98","","","","","","Fog"
"-122.36","49.03","ABBOTSFORD A","1100031","2018-08-24 07:00","2018","08","24","07:00","13.5","","11.3","","87","","","","24","","4","","8.1","","101.06","","","","","","Fog"
"-122.36","49.03","ABBOTSFORD A","1100031","2018-08-24 08:00","2018","08","24","08:00","14.4","","11.6","","83","","","","22","","9","","8.1","","101.09","","","","","","Drizzle,Fog,Haze"
"-122.36","49.03","ABBOTSFORD A","1100031","2018-08-24 09:00","2018","08","24","09:00","16.2","","11.0","","71","","","","19","","23","","8.1","","101.11","","","","","","Haze"
"-122.36","49.03","ABBOTSFORD A","1100031","2018-08-24 10:00","2018","08","24","10:00","16.9","","11.3","","69","","","","21","","16","","11.3","","101.14","","","","","","Haze"
"-122.36","49.03","ABBOTSFORD A","1100031","2018-08-24 11:00","2018","08","24","11:00","17.8","","11.3","","65","","","","22","","16","","24.1","","101.14","","","","","","NA"
"-122.36","49.03","ABBOTSFORD A","1100031","2018-08-24 12:00","2018","08","24","12:00","19.0","","11.0","","59","","","","23","","11","","24.1","","101.13","","","","","","NA"
"-122.36","49.03","ABBOTSFORD A","1100031","2018-08-24 13:00","2018","08","24","13:00","20.6","","10.8","","53","","","","20","","17","","24.1","","101.13","","","","","","Mostly Cloudy"
"-122.36","49.03","ABBOTSFORD A","1100031","2018-08-24 14:00","2018","08","24","14:00","20.1","","10.9","","55","","","","31","","9","","32.2","","101.10","","","","","","NA"
"-122.36","49.03","ABBOTSFORD A","1100031","2018-08-24 15:00","2018","08","24","15:00","20.3","","11.0","","55","","","","31","","3","","32.2","","101.05","","","","","","NA"
"-122.36","49.03","ABBOTSFORD A","1100031","2018-08-24 16:00","2018","08","24","16:00","21.2","","10.8","","51","","","","20","","14","","32.2","","101.02","","","","","","Mostly Cloudy"
"-122.36","49.03","ABBOTSFORD A","1100031","2018-08-24 17:00","2018","08","24","17:00","20.7","","10.2","","50","","","","21","","19","","40.2","","101.02","","","","","","NA"
"-122.36","49.03","ABBOTSFORD A","1100031","2018-08-24 18:00","2018","08","24","18:00","19.5","","9.3","","52","","","","24","","18","","40.2","","101.04","","","","","","NA"
"-122.36","49.03","ABBOTSFORD A","1100031","2018-08-24 19:00","2018","08","24","19:00","18.1","","9.6","","57","","","","23","","12","","32.2","","101.07","","","","","","Mostly Cloudy"
"-122.36","49.03","ABBOTSFORD A","1100031","2018-08-24 20:00","2018","08","24","20:00","14.9","","9.6","","71","","","","17","","6","","24.1","","101.12","","","","","","NA"
"-122.36","49.03","ABBOTSFORD A","1100031","2018-08-24 21:00","2018","08","24","21:00","15.2","","9.2","","67","","","","36","","2","","24.1","","101.13","","","","","","NA"
"-122.36","49.03","ABBOTSFORD A","1100031","2018-08-24 22:00","2018","08","24","22:00","13.4","","8.9","","74","","","","36","","2","","24.1","","101.11","","","","","","Mainly Clear"
"-122.36","49.03","ABBOTSFORD A","1100031","2018-08-24 23:00","2018","08","24","23:00","12.7","","9.1","","78","","","","31","","5","","24.1","","101.08","","","","","","NA"
"-122.36","49.03","ABBOTSFORD A","1100031","2018-08-25 00:00","2018","08","25","00:00","12.1","","8.7","","80","","","","36","","3","","24.1","","101.08","","","","","","NA"
"-122.36","49.03","ABBOTSFORD A","1100031","2018-08-25 01:00","2018","08","25","01:00","11.2","","8.2","","82","","","","30","","4","","24.1","","101.07","","","","","","Mainly Clear"
"-122.36","49.03","ABBOTSFORD A","1100031","2018-08-25 02:00","2018","08","25","02:00","10.8","","8.3","","85","","","","0","","1","","24.1","","101.06","","","","","","NA"
"-122.36","49.03","ABBOTSFORD A","1100031","2018-08-25 03:00","2018","08","25","03:00","11.5","","8.5","","82","","","","36","","1","","24.1","","101.05","","","","","","NA"
"-122.36","49.03","ABBOTSFORD A","1100031","2018-08-25 04:00","2018","08","25","04:00","11.5","","8.4","","81","","","","36","","1","","24.1","","101.00","","","","","","Mostly Cloudy"
"-122.36","49.03","ABBOTSFORD A","1100031","2018-08-25 05:00","2018","08","25","05:00","11.6","","8.8","","83","","","","34","","3","","16.1","","100.96","","","","","","NA"
"-122.36","49.03","ABBOTSFORD A","1100031","2018-08-25 06:00","2018","08","25","06:00","12.5","","10.9","","90","","","","30","","5","","12.9","","101.00","","","","","","NA"
"-122.36","49.03","ABBOTSFORD A","1100031","2018-08-25 07:00","2018","08","25","07:00","13.2","","11.4","","89","","","","24","","7","","12.9","","101.01","","","","","","Cloudy"
"-122.36","49.03","ABBOTSFORD A","1100031","2018-08-25 08:00","2018","08","25","08:00","13.4","","11.7","","89","","","","23","","10","","12.9","","101.03","","","","","","Rain"
"-122.36","49.03","ABBOTSFORD A","1100031","2018-08-25 09:00","2018","08","25","09:00","13.6","","12.0","","90","","","","21","","20","","8.1","","101.03","","","","","","Rain,Fog"
"-122.36","49.03","ABBOTSFORD A","1100031","2018-08-25 10:00","2018","08","25","10:00","13.5","","12.4","","93","","","","23","","14","","6.4","","101.04","","","","","","Rain,Fog"
"-122.36","49.03","ABBOTSFORD A","1100031","2018-08-25 11:00","2018","08","25","11:00","13.8","","13.0","","95","","","","21","","14","","3.2","","101.03","","","","","","Rain,Fog"
"-122.36","49.03","ABBOTSFORD A","1100031","2018-08-25 12:00","2018","08","25","12:00","14.1","","13.2","","95","","","","20","","13","","3.2","","101.04","","","","","","Rain,Fog"
"-122.36","49.03","ABBOTSFORD A","1100031","2018-08-25 13:00","2018","08","25","13:00","14.3","","13.1","","92","","","","18","","13","","4.8","","101.04","","","","","","Rain,Fog"
"-122.36","49.03","ABBOTSFORD A","1100031","2018-08-25 14:00","2018","08","25","14:00","14.6","","13.2","","91","","","","22","","9","","6.4","","101.06","","","","","","Rain,Fog"
"-122.36","49.03","ABBOTSFORD A","1100031","2018-08-25 15:00","2018","08","25","15:00","14.4","","12.7","","89","","","","23","","8","","6.4","","101.04","","","","","","Rain,Fog"
"-122.36","49.03","ABBOTSFORD A","1100031","2018-08-25 16:00","2018","08","25","16:00","15.4","","12.8","","85","","","","20","","9","","9.7","","101.03","","","","","","Fog"
"-122.36","49.03","ABBOTSFORD A","1100031","2018-08-25 17:00","2018","08","25","17:00","15.5","","11.5","","77","","","","20","","12","","9.7","","101.05","","","","","","Fog"
"-122.36","49.03","ABBOTSFORD A","1100031","2018-08-25 18:00","2018","08","25","18:00","14.9","","11.7","","81","","","","22","","16","","9.7","","101.05","","","","","","Fog"
"-122.36","49.03","ABBOTSFORD A","1100031","2018-08-25 19:00","2018","08","25","19:00","14.5","","11.7","","83","","","","25","","7","","6.4","","101.07","","","","","","Fog"
"-122.36","49.03","ABBOTSFORD A","1100031","2018-08-25 20:00","2018","08","25","20:00","14.3","","12.0","","86","","","","25","","8","","6.4","","101.12","","","","","","Fog"
"-122.36","49.03","ABBOTSFORD A","1100031","2018-08-25 21:00","2018","08","25","21:00","14.2","","12.0","","87","","","","27","","8","","8.1","","101.11","","","","","","Fog"
"-122.36","49.03","ABBOTSFORD A","1100031","2018-08-25 22:00","2018","08","25","22:00","13.8","","12.0","","89","","","","35","","4","","9.7","","101.09","","","","","","Fog"
"-122.36","49.03","ABBOTSFORD A","1100031","2018-08-25 23:00","2018","08","25","23:00","13.9","","12.0","","88","","","","33","","4","","6.4","","101.07","","","","","","Fog"
"-122.36","49.03","ABBOTSFORD A","1100031","2018-08-26 00:00","2018","08","26","00:00","13.7","","12.2","","91","","","","36","","2","","6.4","","101.04","","","","","","Fog"
"-122.36","49.03","ABBOTSFORD A","1100031","2018-08-26 01:00","2018","08","26","01:00","13.6","","12.3","","92","","","","26","","4","","6.4","","101.03","","","","","","Fog"
"-122.36","49.03","ABBOTSFORD A","1100031","2018-08-26 02:00","2018","08","26","02:00","13.7","","12.1","","90","","","","36","","1","","6.4","","101.00","","","","","","Fog"
"-122.36","49.03","ABBOTSFORD A","1100031","2018-08-26 03:00","2018","08","26","03:00","13.5","","12.3","","92","","","","36","","3","","6.4","","100.98","","","","","","Fog"
"-122.36","49.03","ABBOTSFORD A","1100031","2018-08-26 04:00","2018","08","26","04:00","13.1","","12.3","","95","","","","22","","4","","6.4","","100.94","","","","","","Fog"
"-122.36","49.03","ABBOTSFORD A","1100031","2018-08-26 05:00","2018","08","26","05:00","13.4","","12.1","","92","","","","36","","1","","6.4","","100.88","","","","","","Fog"
"-122.36","49.03","ABBOTSFORD A","1100031","2018-08-26 06:00","2018","08","26","06:00","13.4","","12.4","","93","","","","24","","10","","6.4","","100.88","","","","","","Rain Showers,Fog"
"-122.36","49.03","ABBOTSFORD A","1100031","2018-08-26 07:00","2018","08","26","07:00","13.2","","12.7","","97","","","","22","","9","","3.6","","100.87","","","","","","Rain,Fog"
"-122.36","49.03","ABBOTSFORD A","1100031","2018-08-26 08:00","2018","08","26","08:00","13.5","","12.9","","96","","","","20","","12","","3.6","","100.86","","","","","","Rain,Fog"
"-122.36","49.03","ABBOTSFORD A","1100031","2018-08-26 09:00","2018","08","26","09:00","13.5","","13.0","","97","","","","19","","17","","4.0","","100.86","","","","","","Rain,Fog"
"-122.36","49.03","ABBOTSFORD A","1100031","2018-08-26 10:00","2018","08","26","10:00","13.9","","13.4","","97","","","","20","","11","","9.7","","100.84","","","","","","Rain,Fog"
"-122.36","49.03","ABBOTSFORD A","1100031","2018-08-26 11:00","2018","08","26","11:00","14.2","","13.1","","94","","","","18","","13","","16.1","","100.81","","","","","","NA"
"-122.36","49.03","ABBOTSFORD A","1100031","2018-08-26 12:00","2018","08","26","12:00","14.4","","13.1","","92","","","","18","","16","","12.9","","100.77","","","","","","NA"
"-122.36","49.03","ABBOTSFORD A","1100031","2018-08-26 13:00","2018","08","26","13:00","14.5","","13.0","","91","","","","18","","14","","8.1","","100.77","","","","","","Rain Showers"
"-122.36","49.03","ABBOTSFORD A","1100031","2018-08-26 14:00","2018","08","26","14:00","14.5","","13.7","","95","","","","15","","11","","4.8","","100.75","","","","","","Rain Showers,Fog"
"-122.36","49.03","ABBOTSFORD A","1100031","2018-08-26 15:00","2018","08","26","15:00","15.1","","13.5","","90","","","","19","","10","","8.1","","100.71","","","","","","Fog"
"-122.36","49.03","ABBOTSFORD A","1100031","2018-08-26 16:00","2018","08","26","16:00","15.4","","12.8","","85","","","","19","","11","","20.9","","100.69","","","","","","Cloudy"
"-122.36","49.03","ABBOTSFORD A","1100031","2018-08-26 17:00","2018","08","26","17:00","15.1","","12.6","","85","","","","17","","5","","24.1","","100.67","","","","","","NA"
"-122.36","49.03","ABBOTSFORD A","1100031","2018-08-26 18:00","2018","08","26","18:00","15.2","","12.6","","84","","","","20","","7","","24.1","","100.64","","","","","","NA"
"-122.36","49.03","ABBOTSFORD A","1100031","2018-08-26 19:00","2018","08","26","19:00","15.0","","12.6","","86","","","","19","","6","","24.1","","100.66","","","","","","Cloudy"
"-122.36","49.03","ABBOTSFORD A","1100031","2018-08-26 20:00","2018","08","26","20:00","15.0","","12.5","","85","","","","36","","4","","24.1","","100.74","","","","","","NA"
"-122.36","49.03","ABBOTSFORD A","1100031","2018-08-26 21:00","2018","08","26","21:00","13.9","","13.0","","94","","","","2","","5","","16.1","","100.73","","","","","","Rain Showers"
"-122.36","49.03","ABBOTSFORD A","1100031","2018-08-26 22:00","2018","08","26","22:00","12.9","","12.4","","97","","","","2","","11","","16.1","","100.80","","","","","","Mainly Clear"
"-122.36","49.03","ABBOTSFORD A","1100031","2018-08-26 23:00","2018","08","26","23:00","11.6","","11.3","","98","","","","1","","9","","16.1","","100.85","","","","","","NA"
"-122.36","49.03","ABBOTSFORD A","1100031","2018-08-27 00:00","2018","08","27","00:00","11.5","","11.4","","99","","","","1","","9","","16.1","","100.89","","","","","","NA"
"-122.36","49.03","ABBOTSFORD A","1100031","2018-08-27 01:00","2018","08","27","01:00","12.0","","12.0","","100","","","","36","","9","","0.6","","100.90","","","","","","Fog"
"-122.36","49.03","ABBOTSFORD A","1100031","2018-08-27 02:00","2018","08","27","02:00","12.1","","12.0","","100","","","","4","","9","","1.6","","100.95","","","","","","Fog"
"-122.36","49.03","ABBOTSFORD A","1100031","2018-08-27 03:00","2018","08","27","03:00","12.1","","12.0","","100","","","","2","","4","","1.6","","101.01","","","","","","Fog"
"-122.36","49.03","ABBOTSFORD A","1100031","2018-08-27 04:00","2018","08","27","04:00","11.6","","11.6","","100","","","","1","","8","","0.8","","101.04","","","","","","Fog"
"-122.36","49.03","ABBOTSFORD A","1100031","2018-08-27 05:00","2018","08","27","05:00","11.3","","11.3","","100","","","","3","","7","","0.8","","101.10","","","","","","Fog"
"-122.36","49.03","ABBOTSFORD A","1100031","2018-08-27 06:00","2018","08","27","06:00","11.2","","11.1","","100","","","","4","","5","","0.8","","101.15","","","","","","Fog"
"-122.36","49.03","ABBOTSFORD A","1100031","2018-08-27 07:00","2018","08","27","07:00","11.8","","11.8","","100","","","","34","","7","","32.2","","101.21","","","","","","Clear"
"-122.36","49.03","ABBOTSFORD A","1100031","2018-08-27 08:00","2018","08","27","08:00","14.3","","12.6","","89","","","","1","","8","","48.3","","101.27","","","","","","NA"
"-122.36","49.03","ABBOTSFORD A","1100031","2018-08-27 09:00","2018","08","27","09:00","16.4","","12.6","","78","","","","2","","8","","48.3","","101.30","","","","","","NA"
"-122.36","49.03","ABBOTSFORD A","1100031","2018-08-27 10:00","2018","08","27","10:00","18.3","","12.0","","67","","","","1","","3","","48.3","","101.32","","","","","","Clear"
"-122.36","49.03","ABBOTSFORD A","1100031","2018-08-27 11:00","2018","08","27","11:00","20.0","","11.2","","56","","","","36","","6","","48.3","","101.27","","","","","","NA"
"-122.36","49.03","ABBOTSFORD A","1100031","2018-08-27 12:00","2018","08","27","12:00","21.9","","9.8","","46","","","","30","","8","","48.3","","101.26","","","","","","NA"
"-122.36","49.03","ABBOTSFORD A","1100031","2018-08-27 13:00","2018","08","27","13:00","23.5","","8.8","","39","","","","24","","10","","48.3","","101.22","","","","","","Clear"
"-122.36","49.03","ABBOTSFORD A","1100031","2018-08-27 14:00","2018","08","27","14:00","24.5","","9.6","","38","","","","28","","7","","48.3","","101.20","","26","","","","NA"
"-122.36","49.03","ABBOTSFORD A","1100031","2018-08-27 15:00","2018","08","27","15:00","25.2","","9.2","","36","","","","29","","7","","48.3","","101.12","","26","","","","NA"
"-122.36","49.03","ABBOTSFORD A","1100031","2018-08-27 16:00","2018","08","27","16:00","25.8","","8.9","","34","","","","30","","13","","48.3","","101.09","","27","","","","Mainly Clear"
"-122.36","49.03","ABBOTSFORD A","1100031","2018-08-27 17:00","2018","08","27","17:00","24.9","","8.7","","35","","","","23","","18","","48.3","","101.08","","26","","","","NA"
"-122.36","49.03","ABBOTSFORD A","1100031","2018-08-27 18:00","2018","08","27","18:00","22.6","","8.4","","40","","","","20","","15","","48.3","","101.07","","","","","","NA"
"-122.36","49.03","ABBOTSFORD A","1100031","2018-08-27 19:00","2018","08","27","19:00","18.7","","9.8","","56","","","","19","","11","","48.3","","101.10","","","","","","Mainly Clear"
"-122.36","49.03","ABBOTSFORD A","1100031","2018-08-27 20:00","2018","08","27","20:00","16.7","","9.0","","60","","","","25","","5","","24.1","","101.13","","","","","","NA"
"-122.36","49.03","ABBOTSFORD A","1100031","2018-08-27 21:00","2018","08","27","21:00","16.7","","9.2","","61","","","","22","","3","","24.1","","101.13","","","","","","NA"
"-122.36","49.03","ABBOTSFORD A","1100031","2018-08-27 22:00","2018","08","27","22:00","13.4","","8.6","","73","","","","36","","1","","24.1","","101.13","","","","","","Mainly Clear"
"-122.36","49.03","ABBOTSFORD A","1100031","2018-08-27 23:00","2018","08","27","23:00","13.5","","9.4","","76","","","","31","","5","","24.1","","101.13","","","","","","NA"
"-122.36","49.03","ABBOTSFORD A","1100031","2018-08-28 00:00","2018","08","28","00:00","13.4","","9.4","","77","","","","1","","9","","24.1","","101.16","","","","","","NA"
"-122.36","49.03","ABBOTSFORD A","1100031","2018-08-28 01:00","2018","08","28","01:00","14.0","","9.7","","75","","","","36","","6","","24.1","","101.16","","","","","","Clear"
"-122.36","49.03","ABBOTSFORD A","1100031","2018-08-28 02:00","2018","08","28","02:00","12.2","","8.5","","78","","","","2","","9","","24.1","","101.13","","","","","","NA"
"-122.36","49.03","ABBOTSFORD A","1100031","2018-08-28 03:00","2018","08","28","03:00","10.7","","8.2","","85","","","","36","","1","","24.1","","101.15","","","","","","NA"
"-122.36","49.03","ABBOTSFORD A","1100031","2018-08-28 04:00","2018","08","28","04:00","10.5","","8.6","","88","","","","36","","1","","24.1","","101.15","","","","","","Clear"
"-122.36","49.03","ABBOTSFORD A","1100031","2018-08-28 05:00","2018","08","28","05:00","9.9","","8.3","","90","","","","32","","4","","48.3","","101.16","","","","","","NA"
"-122.36","49.03","ABBOTSFORD A","1100031","2018-08-28 06:00","2018","08","28","06:00","11.0","","9.0","","87","","","","1","","6","","48.3","","101.22","","","","","","NA"
"-122.36","49.03","ABBOTSFORD A","1100031","2018-08-28 07:00","2018","08","28","07:00","13.4","","10.6","","83","","","","36","","4","","48.3","","101.20","","","","","","Clear"
"-122.36","49.03","ABBOTSFORD A","1100031","2018-08-28 08:00","2018","08","28","08:00","16.1","","10.4","","69","","","","1","","5","","48.3","","101.20","","","","","","NA"
"-122.36","49.03","ABBOTSFORD A","1100031","2018-08-28 09:00","2018","08","28","09:00","18.1","","10.2","","60","","","","2","","4","","40.2","","101.19","","","","","","NA"
"-122.36","49.03","ABBOTSFORD A","1100031","2018-08-28 10:00","2018","08","28","10:00","20.2","","9.8","","51","","","","28","","4","","40.2","","101.16","","","","","","Clear"
"-122.36","49.03","ABBOTSFORD A","1100031","2018-08-28 11:00","2018","08","28","11:00","21.2","","9.6","","47","","","","24","","5","","40.2","","101.13","","","","","","NA"
"-122.36","49.03","ABBOTSFORD A","1100031","2018-08-28 12:00","2018","08","28","12:00","22.5","","9.5","","43","","","","26","","4","","40.2","","101.09","","","","","","NA"
"-122.36","49.03","ABBOTSFORD A","1100031","2018-08-28 13:00","2018","08","28","13:00","23.9","","9.6","","40","","","","22","","15","","40.2","","101.03","","25","","","","Mainly Clear"
"-122.36","49.03","ABBOTSFORD A","1100031","2018-08-28 14:00","2018","08","28","14:00","24.8","","11.8","","44","","","","22","","9","","40.2","","100.96","","27","","","","NA"
"-122.36","49.03","ABBOTSFORD A","1100031","2018-08-28 15:00","2018","08","28","15:00","25.7","","10.6","","38","","","","20","","14","","40.2","","100.89","","27","","","","NA"
"-122.36","49.03","ABBOTSFORD A","1100031","2018-08-28 16:00","2018","08","28","16:00","25.8","","10.2","","37","","","","24","","16","","40.2","","100.82","","27","","","","Mostly Cloudy"
"-122.36","49.03","ABBOTSFORD A","1100031","2018-08-28 17:00","2018","08","28","17:00","25.4","","9.8","","37","","","","24","","13","","40.2","","100.79","","27","","","","NA"
"-122.36","49.03","ABBOTSFORD A","1100031","2018-08-28 18:00","2018","08","28","18:00","23.6","","10.6","","43","","","","25","","11","","40.2","","100.75","","25","","","","NA"
"-122.36","49.03","ABBOTSFORD A","1100031","2018-08-28 19:00","2018","08","28","19:00","19.6","","12.0","","61","","","","19","","8","","40.2","","100.74","","","","","","Mostly Cloudy"
"-122.36","49.03","ABBOTSFORD A","1100031","2018-08-28 20:00","2018","08","28","20:00","17.1","","11.3","","69","","","","23","","5","","24.1","","100.74","","","","","","NA"
"-122.36","49.03","ABBOTSFORD A","1100031","2018-08-28 21:00","2018","08","28","21:00","17.3","","11.2","","67","","","","15","","5","","24.1","","100.72","","","","","","NA"
"-122.36","49.03","ABBOTSFORD A","1100031","2018-08-28 22:00","2018","08","28","22:00","15.3","","11.2","","76","","","","31","","3","","24.1","","100.68","","","","","","Mainly Clear"
"-122.36","49.03","ABBOTSFORD A","1100031","2018-08-28 23:00","2018","08","28","23:00","15.2","","11.3","","77","","","","14","","3","","24.1","","100.64","","","","","","NA"
"-122.36","49.03","ABBOTSFORD A","1100031","2018-08-29 00:00","2018","08","29","00:00","14.2","","11.4","","83","","","","0","","1","","24.1","","100.61","","","","","","NA"
"-122.36","49.03","ABBOTSFORD A","1100031","2018-08-29 01:00","2018","08","29","01:00","13.7","","11.0","","84","","","","3","","4","","24.1","","100.57","","","","","","Mostly Cloudy"
"-122.36","49.03","ABBOTSFORD A","1100031","2018-08-29 02:00","2018","08","29","02:00","12.6","","10.1","","84","","","","20","","5","","24.1","","100.55","","","","","","NA"
"-122.36","49.03","ABBOTSFORD A","1100031","2018-08-29 03:00","2018","08","29","03:00","12.5","","10.9","","90","","","","36","","2","","24.1","","100.52","","","","","","NA"
"-122.36","49.03","ABBOTSFORD A","1100031","2018-08-29 04:00","2018","08","29","04:00","12.8","","10.5","","86","","","","10","","3","","24.1","","100.52","","","","","","Mostly Cloudy"
"-122.36","49.03","ABBOTSFORD A","1100031","2018-08-29 05:00","2018","08","29","05:00","12.2","","10.4","","89","","","","29","","4","","32.2","","100.47","","","","","","NA"
"-122.36","49.03","ABBOTSFORD A","1100031","2018-08-29 06:00","2018","08","29","06:00","13.0","","11.3","","89","","","","1","","6","","40.2","","100.44","","","","","","NA"
"-122.36","49.03","ABBOTSFORD A","1100031","2018-08-29 07:00","2018","08","29","07:00","14.2","","12.4","","89","","","","24","","5","","32.2","","100.45","","","","","","Rain"
"-122.36","49.03","ABBOTSFORD A","1100031","2018-08-29 08:00","2018","08","29","08:00","13.9","","12.6","","91","","","","12","","3","","48.3","","100.44","","","","","","Rain"
"-122.36","49.03","ABBOTSFORD A","1100031","2018-08-29 09:00","2018","08","29","09:00","14.0","","12.7","","92","","","","34","","5","","9.7","","100.44","","","","","","Rain,Fog"
"-122.36","49.03","ABBOTSFORD A","1100031","2018-08-29 10:00","2018","08","29","10:00","15.0","","13.7","","92","","","","36","","1","","9.7","","100.49","","","","","","Rain,Fog"
"-122.36","49.03","ABBOTSFORD A","1100031","2018-08-29 11:00","2018","08","29","11:00","15.8","","13.4","","86","","","","6","","6","","12.9","","100.44","","","","","","Rain Showers"
"-122.36","49.03","ABBOTSFORD A","1100031","2018-08-29 12:00","2018","08","29","12:00","17.0","","13.3","","79","","","","9","","5","","24.1","","100.42","","","","","","NA"
"-122.36","49.03","ABBOTSFORD A","1100031","2018-08-29 13:00","2018","08","29","13:00","18.7","","14.7","","77","","","","19","","4","","24.1","","100.45","","","","","","Mostly Cloudy"
"-122.36","49.03","ABBOTSFORD A","1100031","2018-08-29 14:00","2018","08","29","14:00","20.4","","11.7","","57","","","","23","","18","","40.2","","100.46","","","","","","NA"
"-122.36","49.03","ABBOTSFORD A","1100031","2018-08-29 15:00","2018","08","29","15:00","21.0","","12.1","","56","","","","21","","15","","32.2","","100.45","","","","","","NA"
"-122.36","49.03","ABBOTSFORD A","1100031","2018-08-29 16:00","2018","08","29","16:00","21.0","","11.8","","55","","","","21","","14","","40.2","","100.44","","","","","","Mostly Cloudy"
"-122.36","49.03","ABBOTSFORD A","1100031","2018-08-29 17:00","2018","08","29","17:00","20.5","","12.2","","58","","","","22","","14","","48.3","","100.45","","","","","","NA"
"-122.36","49.03","ABBOTSFORD A","1100031","2018-08-29 18:00","2018","08","29","18:00","18.9","","12.2","","65","","","","24","","16","","48.3","","100.45","","","","","","NA"
"-122.36","49.03","ABBOTSFORD A","1100031","2018-08-29 19:00","2018","08","29","19:00","17.2","","12.2","","72","","","","24","","13","","48.3","","100.47","","","","","","Mostly Cloudy"
"-122.36","49.03","ABBOTSFORD A","1100031","2018-08-29 20:00","2018","08","29","20:00","15.2","","12.1","","81","","","","23","","12","","24.1","","100.51","","","","","","NA"
"-122.36","49.03","ABBOTSFORD A","1100031","2018-08-29 21:00","2018","08","29","21:00","15.4","","12.1","","81","","","","26","","5","","24.1","","100.55","","","","","","NA"
"-122.36","49.03","ABBOTSFORD A","1100031","2018-08-29 22:00","2018","08","29","22:00","14.5","","11.9","","84","","","","32","","6","","24.1","","100.59","","","","","","Mainly Clear"
"-122.36","49.03","ABBOTSFORD A","1100031","2018-08-29 23:00","2018","08","29","23:00","14.4","","12.2","","86","","","","28","","4","","24.1","","100.61","","","","","","NA"
"-122.36","49.03","ABBOTSFORD A","1100031","2018-08-30 00:00","2018","08","30","00:00","13.7","","11.9","","89","","","","17","","4","","24.1","","100.65","","","","","","NA"
"-122.36","49.03","ABBOTSFORD A","1100031","2018-08-30 01:00","2018","08","30","01:00","12.9","","11.5","","91","","","","20","","3","","24.1","","100.68","","","","","","Mostly Cloudy"
"-122.36","49.03","ABBOTSFORD A","1100031","2018-08-30 02:00","2018","08","30","02:00","13.5","","12.1","","91","","","","31","","7","","24.1","","100.70","","","","","","NA"
"-122.36","49.03","ABBOTSFORD A","1100031","2018-08-30 03:00","2018","08","30","03:00","13.2","","11.8","","91","","","","23","","9","","24.1","","100.72","","","","","","NA"
"-122.36","49.03","ABBOTSFORD A","1100031","2018-08-30 04:00","2018","08","30","04:00","13.3","","11.8","","90","","","","35","","4","","24.1","","100.73","","","","","","Mostly Cloudy"
"-122.36","49.03","ABBOTSFORD A","1100031","2018-08-30 05:00","2018","08","30","05:00","13.1","","11.8","","92","","","","29","","5","","32.2","","100.76","","","","","","NA"
"-122.36","49.03","ABBOTSFORD A","1100031","2018-08-30 06:00","2018","08","30","06:00","13.6","","12.6","","94","","","","30","","6","","48.3","","100.80","","","","","","NA"
"-122.36","49.03","ABBOTSFORD A","1100031","2018-08-30 07:00","2018","08","30","07:00","14.6","","13.1","","91","","","","36","","3","","48.3","","100.83","","","","","","Mostly Cloudy"
"-122.36","49.03","ABBOTSFORD A","1100031","2018-08-30 08:00","2018","08","30","08:00","14.9","","12.9","","88","","","","26","","5","","40.2","","100.85","","","","","","NA"
"-122.36","49.03","ABBOTSFORD A","1100031","2018-08-30 09:00","2018","08","30","09:00","16.0","","13.4","","84","","","","21","","9","","32.2","","100.90","","","","","","NA"
"-122.36","49.03","ABBOTSFORD A","1100031","2018-08-30 10:00","2018","08","30","10:00","17.5","","13.4","","77","","","","19","","14","","40.2","","100.90","","","","","","Cloudy"
"-122.36","49.03","ABBOTSFORD A","1100031","2018-08-30 11:00","2018","08","30","11:00","18.1","","13.2","","73","","","","20","","14","","40.2","","100.93","","","","","","NA"
"-122.36","49.03","ABBOTSFORD A","1100031","2018-08-30 12:00","2018","08","30","12:00","20.8","","13.2","","62","","","","21","","20","","40.2","","100.93","","","","","","NA"
"-122.36","49.03","ABBOTSFORD A","1100031","2018-08-30 13:00","2018","08","30","13:00","21.3","","13.2","","60","","","","21","","17","","40.2","","100.93","","","","","","Mostly Cloudy"
"-122.36","49.03","ABBOTSFORD A","1100031","2018-08-30 14:00","2018","08","30","14:00","22.1","","12.7","","55","","","","19","","16","","48.3","","100.90","","25","","","","NA"
"-122.36","49.03","ABBOTSFORD A","1100031","2018-08-30 15:00","2018","08","30","15:00","22.3","","11.6","","50","","","","21","","21","","48.3","","100.92","","","","","","NA"
"-122.36","49.03","ABBOTSFORD A","1100031","2018-08-30 16:00","2018","08","30","16:00","21.9","","12.2","","53","","","","22","","20","","48.3","","100.91","","","","","","Mostly Cloudy"
"-122.36","49.03","ABBOTSFORD A","1100031","2018-08-30 17:00","2018","08","30","17:00","20.3","","12.1","","59","","","","21","","16","","48.3","","100.92","","","","","","NA"
"-122.36","49.03","ABBOTSFORD A","1100031","2018-08-30 18:00","2018","08","30","18:00","20.4","","11.5","","56","","","","20","","16","","48.3","","100.90","","","","","","NA"
"-122.36","49.03","ABBOTSFORD A","1100031","2018-08-30 19:00","2018","08","30","19:00","17.8","","11.5","","66","","","","21","","12","","32.2","","100.91","","","","","","Mainly Clear"
"-122.36","49.03","ABBOTSFORD A","1100031","2018-08-30 20:00","2018","08","30","20:00","17.7","","11.6","","67","","","","27","","8","","24.1","","100.95","","","","","","NA"
"-122.36","49.03","ABBOTSFORD A","1100031","2018-08-30 21:00","2018","08","30","21:00","16.1","","11.6","","74","","","","32","","4","","16.1","","100.98","","","","","","NA"
"-122.36","49.03","ABBOTSFORD A","1100031","2018-08-30 22:00","2018","08","30","22:00","15.2","","11.6","","79","","","","33","","4","","16.1","","101.00","","","","","","Mainly Clear"
"-122.36","49.03","ABBOTSFORD A","1100031","2018-08-30 23:00","2018","08","30","23:00","14.4","","11.1","","81","","","","22","","9","","16.1","","101.01","","","","","","NA"
"-122.36","49.03","ABBOTSFORD A","1100031","2018-08-31 00:00","2018","08","31","00:00","13.2","","11.2","","87","","","","29","","3","","24.1","","101.04","","","","","","NA"
"-122.36","49.03","ABBOTSFORD A","1100031","2018-08-31 01:00","2018","08","31","01:00","12.9","","10.7","","86","","","","35","","4","","24.1","","101.06","","","","","","Mainly Clear"
"-122.36","49.03","ABBOTSFORD A","1100031","2018-08-31 02:00","2018","08","31","02:00","13.1","","11.1","","88","","","","27","","3","","24.1","","101.06","","","","","","NA"
"-122.36","49.03","ABBOTSFORD A","1100031","2018-08-31 03:00","2018","08","31","03:00","12.7","","11.2","","91","","","","31","","4","","24.1","","101.08","","","","","","NA"
"-122.36","49.03","ABBOTSFORD A","1100031","2018-08-31 04:00","2018","08","31","04:00","11.5","","10.6","","94","","","","36","","2","","16.1","","101.08","","","","","","Mainly Clear"
"-122.36","49.03","ABBOTSFORD A","1100031","2018-08-31 05:00","2018","08","31","05:00","10.9","","10.0","","94","","","","33","","4","","24.1","","101.11","","","","","","NA"
"-122.36","49.03","ABBOTSFORD A","1100031","2018-08-31 06:00","2018","08","31","06:00","11.8","","11.1","","96","","","","36","","4","","24.1","","101.18","","","","","","NA"
"-122.36","49.03","ABBOTSFORD A","1100031","2018-08-31 07:00","2018","08","31","07:00","13.4","","12.1","","92","","","","24","","5","","32.2","","101.23","","","","","","Mostly Cloudy"
"-122.36","49.03","ABBOTSFORD A","1100031","2018-08-31 08:00","2018","08","31","08:00","15.7","","12.1","","79","","","","20","","9","","40.2","","101.25","","","","","","NA"
"-122.36","49.03","ABBOTSFORD A","1100031","2018-08-31 09:00","2018","08","31","09:00","17.4","","11.7","","69","","","","22","","15","","40.2","","101.30","","","","","","NA"
"-122.36","49.03","ABBOTSFORD A","1100031","2018-08-31 10:00","2018","08","31","10:00","18.5","","12.0","","65","","","","22","","14","","40.2","","101.30","","","","","","Mostly Cloudy"
"-122.36","49.03","ABBOTSFORD A","1100031","2018-08-31 11:00","2018","08","31","11:00","19.7","","12.1","","61","","","","21","","21","","40.2","","101.31","","","","","","NA"
"-122.36","49.03","ABBOTSFORD A","1100031","2018-08-31 12:00","2018","08","31","12:00","20.2","","11.5","","57","","","","22","","22","","48.3","","101.31","","","","","","NA"
"-122.36","49.03","ABBOTSFORD A","1100031","2018-08-31 13:00","2018","08","31","13:00","20.0","","11.2","","57","","","","21","","28","","48.3","","101.31","","","","","","Mostly Cloudy"
"-122.36","49.03","ABBOTSFORD A","1100031","2018-08-31 14:00","2018","08","31","14:00","19.8","","11.1","","57","","","","19","","29","","48.3","","101.30","","","","","","NA"
"-122.36","49.03","ABBOTSFORD A","1100031","2018-08-31 15:00","2018","08","31","15:00","19.7","","10.5","","55","","","","20","","32","","48.3","","101.24","","","","","","NA"
"-122.36","49.03","ABBOTSFORD A","1100031","2018-08-31 16:00","2018","08","31","16:00","19.5","","9.5","","52","","","","20","","34","","48.3","","101.21","","","","","","Mainly Clear"
"-122.36","49.03","ABBOTSFORD A","1100031","2018-08-31 17:00","2018","08","31","17:00","17.9","","9.6","","58","","","","20","","30","","48.3","","101.20","","","","","","NA"
"-122.36","49.03","ABBOTSFORD A","1100031","2018-08-31 18:00","2018","08","31","18:00","18.0","","10.0","","59","","","","19","","23","","48.3","","101.15","","","","","","NA"
"-122.36","49.03","ABBOTSFORD A","1100031","2018-08-31 19:00","2018","08","31","19:00","16.4","","9.8","","65","","","","18","","13","","48.3","","101.13","","","","","","Mostly Cloudy"
"-122.36","49.03","ABBOTSFORD A","1100031","2018-08-31 20:00","2018","08","31","20:00","15.8","","9.7","","67","","","","21","","9","","24.1","","101.19","","","","","","NA"
"-122.36","49.03","ABBOTSFORD A","1100031","2018-08-31 21:00","2018","08","31","21:00","15.3","","9.2","","67","","","","19","","9","","24.1","","101.21","","","","","","NA"
"-122.36","49.03","ABBOTSFORD A","1100031","2018-08-31 22:00","2018","08","31","22:00","14.7","","9.1","","69","","","","17","","14","","16.1","","101.18","","","","","","Mostly Cloudy"
"-122.36","49.03","ABBOTSFORD A","1100031","2018-08-31 23:00","2018","08","31","23:00","14.0","","9.0","","71","","","","20","","12","","16.1","","101.17","","","","","","NA"
