"Longitude (x)","Latitude (y)","Station Name","Climate ID","Date/Time (LST)","Year","Month","Day","Time (LST)","Temp (°C)","Temp Flag","Dew Point Temp (°C)","Dew Point Temp Flag","Rel Hum (%)","Rel Hum Flag","Precip. Amount (mm)","Precip. Amount Flag","Wind Dir (10s deg)","Wind Dir Flag","Wind Spd (km/h)","Wind Spd Flag","Visibility (km)","Visibility Flag","Stn Press (kPa)","Stn Press Flag","Hmdx","Hmdx Flag","Wind Chill","Wind Chill Flag","Weather"
"-77.70","53.63","LA GRANDE RIVIERE A","7093716","2021-01-01 00:00","2021","01","01","00:00","-16.0","","-18.1","","84","","","","17","","18","","4.0","","99.63","","","","-25","","Snow"
"-77.70","53.63","LA GRANDE RIVIERE A","7093716","2021-01-01 01:00","2021","01","01","01:00","-15.6","","-17.8","","84","","","","17","","16","","9.7","","99.61","","","","-24","","Snow"
"-77.70","53.63","LA GRANDE RIVIERE A","7093716","2021-01-01 02:00","2021","01","01","02:00","-15.0","","-17.1","","84","","","","17","","19","","4.8","","99.61","","","","-24","","Snow"
"-77.70","53.63","LA GRANDE RIVIERE A","7093716","2021-01-01 03:00","2021","01","01","03:00","-14.4","","-16.5","","84","","","","17","","15","","4.8","","99.60","","","","-22","","Snow"
"-77.70","53.63","LA GRANDE RIVIERE A","7093716","2021-01-01 04:00","2021","01","01","04:00","-14.1","","-16.1","","85","","","","18","","13","","6.4","","99.57","","","","-21","","Snow"
"-77.70","53.63","LA GRANDE RIVIERE A","7093716","2021-01-01 05:00","2021","01","01","05:00","-13.8","","-15.9","","84","","","","18","","17","","6.4","","99.52","","","","-22","","Snow"
"-77.70","53.63","LA GRANDE RIVIERE A","7093716","2021-01-01 06:00","2021","01","01","06:00","-13.6","","-15.6","","85","","","","18","","16","","3.2","","99.50","","","","-21","","Snow"
"-77.70","53.63","LA GRANDE RIVIERE A","7093716","2021-01-01 07:00","2021","01","01","07:00","-13.3","","-15.2","","85","","","","18","","16","","4.0","","99.45","","","","-21","","Snow"
"-77.70","53.63","LA GRANDE RIVIERE A","7093716","2021-01-01 08:00","2021","01","01","08:00","-13.0","","-14.9","","86","","","","18","","14","","3.2","","99.44","","","","-20","","Snow"
"-77.70","53.63","LA GRANDE RIVIERE A","7093716","2021-01-01 09:00","2021","01","01","09:00","-12.6","","-14.2","","88","","","","18","","14","","9.7","","99.45","","","","-20","","Snow"
"-77.70","53.63","LA GRANDE RIVIERE A","7093716","2021-01-01 10:00","2021","01","01","10:00","-11.7","","-13.1","","89","","","","21","","14","","6.4","","99.46","","","","-19","","Snow"
"-77.70","53.63","LA GRANDE RIVIERE A","7093716","2021-01-01 11:00","2021","01","01","11:00","-11.0","","-12.4","","90","","","","20","","19","","3.2","","99.46","","","","-19","","Snow"
"-77.70","53.63","LA GRANDE RIVIERE A","7093716","2021-01-01 12:00","2021","01","01","12:00","-10.4","","-11.9","","89","","","","22","","16","","4.0","","99.47","","","","-17","","Snow"
"-77.70","53.63","LA GRANDE RIVIERE A","7093716","2021-01-01 13:00","2021","01","01","13:00","-9.5","","-11.2","","88","","","","23","","15","","4.0","","99.42","","","","-16","","Snow"
"-77.70","53.63","LA GRANDE RIVIERE A","7093716","2021-01-01 14:00","2021","01","01","14:00","-9.0","","-10.8","","87","","","","23","","15","","4.0","","99.44","","","","-16","","Snow"
"-77.70","53.63","LA GRANDE RIVIERE A","7093716","2021-01-01 15:00","2021","01","01","15:00","-9.1","","-10.8","","87","","","","24","","14","","4.0","","99.44","","","","-15","","Snow"
"-77.70","53.63","LA GRANDE RIVIERE A","7093716","2021-01-01 16:00","2021","01","01","16:00","-9.3","","-10.9","","88","","","","24","","12","","4.8","","99.44","","","","-15","","Snow"
"-77.70","53.63","LA GRANDE RIVIERE A","7093716","2021-01-01 17:00","2021","01","01","17:00","-9.6","","-11.1","","89","","","","26","","13","","11.3","","99.42","","","","-16","","Snow"
"-77.70","53.63","LA GRANDE RIVIERE A","7093716","2021-01-01 18:00","2021","01","01","18:00","-10.1","","-12.1","","85","","","","29","","12","","12.9","","99.47","","","","-16","","Snow"
"-77.70","53.63","LA GRANDE RIVIERE A","7093716","2021-01-01 19:00","2021","01","01","19:00","-11.4","","-13.5","","85","","","","30","","7","","24.1","","99.47","","","","-16","","Snow"
"-77.70","53.63","LA GRANDE RIVIERE A","7093716","2021-01-01 20:00","2021","01","01","20:00","-11.8","","-13.8","","85","","","","22","","4","","24.1","","99.44","","","","-14","","Snow"
"-77.70","53.63","LA GRANDE RIVIERE A","7093716","2021-01-01 21:00","2021","01","01","21:00","-11.9","","-13.9","","85","","","","31","","8","","24.1","","99.43","","","","-17","","Snow"
"-77.70","53.63","LA GRANDE RIVIERE A","7093716","2021-01-01 22:00","2021","01","01","22:00","-12.1","","-14.0","","86","","","","33","","5","","24.1","","99.38","","","","-15","","Cloudy"
"-77.70","53.63","LA GRANDE RIVIERE A","7093716","2021-01-01 23:00","2021","01","01","23:00","-12.4","","-14.2","","87","","","","7","","4","","24.1","","99.27","","","","-15","","Snow"
"-77.70","53.63","LA GRANDE RIVIERE A","7093716","2021-01-02 00:00","2021","01","02","00:00","-12.5","","-14.3","","87","","","","36","","2","","24.1","","99.23","","","","-14","","Snow"
"-77.70","53.63","LA GRANDE RIVIERE A","7093716","2021-01-02 01:00","2021","01","02","01:00","-12.8","","-14.4","","88","","","","5","","7","","24.1","","99.18","","","","-17","","Snow"
"-77.70","53.63","LA GRANDE RIVIERE A","7093716","2021-01-02 02:00","2021","01","02","02:00","-12.7","","-14.5","","87","","","","8","","7","","24.1","","99.15","","","","-17","","Snow"
"-77.70","53.63","LA GRANDE RIVIERE A","7093716","2021-01-02 03:00","2021","01","02","03:00","-12.9","","-14.6","","87","","","","6","","9","","24.1","","99.04","","","","-18","","Snow"
"-77.70","53.63","LA GRANDE RIVIERE A","7093716","2021-01-02 04:00","2021","01","02","04:00","-12.8","","-14.6","","87","","","","7","","12","","24.1","","98.95","","","","-19","","Snow"
"-77.70","53.63","LA GRANDE RIVIERE A","7093716","2021-01-02 05:00","2021","01","02","05:00","-12.8","","-14.6","","87","","","","9","","10","","2.4","","98.86","","","","-19","","Snow"
"-77.70","53.63","LA GRANDE RIVIERE A","7093716","2021-01-02 06:00","2021","01","02","06:00","-12.8","","-14.6","","87","","","","8","","11","","4.0","","98.82","","","","-19","","Snow"
"-77.70","53.63","LA GRANDE RIVIERE A","7093716","2021-01-02 07:00","2021","01","02","07:00","-13.0","","-14.8","","87","","","","4","","8","","2.4","","98.80","","","","-18","","Snow"
"-77.70","53.63","LA GRANDE RIVIERE A","7093716","2021-01-02 08:00","2021","01","02","08:00","-13.7","","-15.4","","87","","","","3","","7","","4.8","","98.77","","","","-18","","Snow"
"-77.70","53.63","LA GRANDE RIVIERE A","7093716","2021-01-02 09:00","2021","01","02","09:00","-14.9","","-16.5","","87","","","","6","","9","","24.1","","98.74","","","","-21","","Snow"
"-77.70","53.63","LA GRANDE RIVIERE A","7093716","2021-01-02 10:00","2021","01","02","10:00","-14.9","","-16.5","","88","","","","6","","7","","24.1","","98.70","","","","-20","","Mainly Clear"
"-77.70","53.63","LA GRANDE RIVIERE A","7093716","2021-01-02 11:00","2021","01","02","11:00","-14.4","","-16.6","","83","","","","7","","5","","24.1","","98.64","","","","-18","","NA"
"-77.70","53.63","LA GRANDE RIVIERE A","7093716","2021-01-02 12:00","2021","01","02","12:00","-11.7","","-14.4","","81","","","","36","","1","","24.1","","98.63","","","","-12","","NA"
"-77.70","53.63","LA GRANDE RIVIERE A","7093716","2021-01-02 13:00","2021","01","02","13:00","-12.1","","-13.9","","87","","","","19","","3","","24.1","","98.56","","","","-14","","Mainly Clear"
"-77.70","53.63","LA GRANDE RIVIERE A","7093716","2021-01-02 14:00","2021","01","02","14:00","-12.2","","-14.2","","86","","","","25","","5","","24.1","","98.54","","","","-15","","NA"
"-77.70","53.63","LA GRANDE RIVIERE A","7093716","2021-01-02 15:00","2021","01","02","15:00","-11.7","","-13.7","","85","","","","20","","9","","24.1","","98.58","","","","-17","","NA"
"-77.70","53.63","LA GRANDE RIVIERE A","7093716","2021-01-02 16:00","2021","01","02","16:00","-12.8","","-14.3","","89","","","","22","","10","","24.1","","98.66","","","","-19","","Mostly Cloudy"
"-77.70","53.63","LA GRANDE RIVIERE A","7093716","2021-01-02 17:00","2021","01","02","17:00","-13.6","","-14.9","","90","","","","19","","10","","24.1","","98.69","","","","-20","","NA"
"-77.70","53.63","LA GRANDE RIVIERE A","7093716","2021-01-02 18:00","2021","01","02","18:00","-13.7","","-15.0","","90","","","","19","","12","","24.1","","98.68","","","","-20","","NA"
"-77.70","53.63","LA GRANDE RIVIERE A","7093716","2021-01-02 19:00","2021","01","02","19:00","-13.6","","-15.0","","90","","","","20","","12","","24.1","","98.69","","","","-20","","Snow"
"-77.70","53.63","LA GRANDE RIVIERE A","7093716","2021-01-02 20:00","2021","01","02","20:00","-13.1","","-14.5","","90","","","","19","","12","","24.1","","98.68","","","","-20","","Snow"
"-77.70","53.63","LA GRANDE RIVIERE A","7093716","2021-01-02 21:00","2021","01","02","21:00","-12.2","","-13.3","","92","","","","20","","16","","6.4","","98.65","","","","-20","","Freezing Drizzle,Snow"
"-77.70","53.63","LA GRANDE RIVIERE A","7093716","2021-01-02 22:00","2021","01","02","22:00","-10.7","","-11.8","","92","","","","19","","17","","3.2","","98.59","","","","-18","","Freezing Drizzle,Snow,Fog"
"-77.70","53.63","LA GRANDE RIVIERE A","7093716","2021-01-02 23:00","2021","01","02","23:00","-9.5","","-10.6","","92","","","","20","","19","","3.2","","98.58","","","","-17","","Freezing Drizzle,Snow,Fog"
"-77.70","53.63","LA GRANDE RIVIERE A","7093716","2021-01-03 00:00","2021","01","03","00:00","-8.8","","-9.9","","92","","","","21","","18","","4.0","","98.55","","","","-16","","Fog"
"-77.70","53.63","LA GRANDE RIVIERE A","7093716","2021-01-03 01:00","2021","01","03","01:00","-8.1","","-9.1","","92","","","","21","","22","","3.2","","98.52","","","","-16","","Snow,Fog"
"-77.70","53.63","LA GRANDE RIVIERE A","7093716","2021-01-03 02:00","2021","01","03","02:00","-7.8","","-8.8","","93","","","","20","","15","","3.2","","98.47","","","","-14","","Snow,Fog"
"-77.70","53.63","LA GRANDE RIVIERE A","7093716","2021-01-03 03:00","2021","01","03","03:00","-7.5","","-8.4","","93","","","","19","","10","","3.6","","98.43","","","","-12","","Freezing Drizzle,Fog"
"-77.70","53.63","LA GRANDE RIVIERE A","7093716","2021-01-03 04:00","2021","01","03","04:00","-6.7","","-7.5","","94","","","","17","","11","","4.0","","98.36","","","","-12","","Freezing Drizzle,Fog"
"-77.70","53.63","LA GRANDE RIVIERE A","7093716","2021-01-03 05:00","2021","01","03","05:00","-5.8","","-6.6","","94","","","","18","","9","","4.0","","98.26","","","","-10","","Freezing Drizzle,Fog"
"-77.70","53.63","LA GRANDE RIVIERE A","7093716","2021-01-03 06:00","2021","01","03","06:00","-4.7","","-5.4","","95","","","","17","","17","","6.4","","98.18","","","","-11","","Freezing Drizzle,Fog"
"-77.70","53.63","LA GRANDE RIVIERE A","7093716","2021-01-03 07:00","2021","01","03","07:00","-4.2","","-4.8","","95","","","","18","","17","","1.6","","98.08","","","","-10","","Snow"
"-77.70","53.63","LA GRANDE RIVIERE A","7093716","2021-01-03 08:00","2021","01","03","08:00","-3.4","","-3.9","","96","","","","18","","23","","4.8","","97.98","","","","-10","","Freezing Drizzle,Snow,Fog"
"-77.70","53.63","LA GRANDE RIVIERE A","7093716","2021-01-03 09:00","2021","01","03","09:00","-2.9","","-3.4","","97","","","","18","","22","","1.6","","97.93","","","","-9","","Freezing Drizzle,Snow"
"-77.70","53.63","LA GRANDE RIVIERE A","7093716","2021-01-03 10:00","2021","01","03","10:00","-2.6","","-3.1","","97","","","","18","","22","","2.4","","97.86","","","","-9","","Snow"
"-77.70","53.63","LA GRANDE RIVIERE A","7093716","2021-01-03 11:00","2021","01","03","11:00","-2.2","","-2.7","","97","","","","18","","26","","2.4","","97.76","","","","-9","","Snow"
"-77.70","53.63","LA GRANDE RIVIERE A","7093716","2021-01-03 12:00","2021","01","03","12:00","-2.2","","-2.6","","97","","","","18","","28","","3.2","","97.69","","","","-9","","Snow"
"-77.70","53.63","LA GRANDE RIVIERE A","7093716","2021-01-03 13:00","2021","01","03","13:00","-2.5","","-3.0","","96","","","","19","","28","","2.4","","97.62","","","","-10","","Snow"
"-77.70","53.63","LA GRANDE RIVIERE A","7093716","2021-01-03 14:00","2021","01","03","14:00","-2.6","","-3.3","","95","","","","20","","28","","2.4","","97.64","","","","-10","","Snow"
"-77.70","53.63","LA GRANDE RIVIERE A","7093716","2021-01-03 15:00","2021","01","03","15:00","-2.4","","-3.2","","94","","","","20","","25","","2.4","","97.66","","","","-9","","Snow"
"-77.70","53.63","LA GRANDE RIVIERE A","7093716","2021-01-03 16:00","2021","01","03","16:00","-2.1","","-2.7","","96","","","","20","","31","","2.4","","97.71","","","","-9","","Freezing Drizzle,Snow"
"-77.70","53.63","LA GRANDE RIVIERE A","7093716","2021-01-03 17:00","2021","01","03","17:00","-1.7","","-2.3","","96","","","","22","","27","","2.4","","97.81","","","","-8","","Freezing Drizzle,Snow"
"-77.70","53.63","LA GRANDE RIVIERE A","7093716","2021-01-03 18:00","2021","01","03","18:00","-1.4","","-2.0","","96","","","","21","","17","","2.4","","97.90","","","","-7","","Freezing Drizzle,Snow"
"-77.70","53.63","LA GRANDE RIVIERE A","7093716","2021-01-03 19:00","2021","01","03","19:00","-2.0","","-2.8","","95","","","","25","","22","","6.4","","97.97","","","","-8","","Freezing Drizzle,Snow"
"-77.70","53.63","LA GRANDE RIVIERE A","7093716","2021-01-03 20:00","2021","01","03","20:00","-2.4","","-3.1","","95","","","","25","","24","","4.8","","98.07","","","","-9","","Freezing Drizzle,Snow"
"-77.70","53.63","LA GRANDE RIVIERE A","7093716","2021-01-03 21:00","2021","01","03","21:00","-3.0","","-3.6","","96","","","","26","","15","","6.4","","98.13","","","","-8","","Freezing Drizzle,Snow"
"-77.70","53.63","LA GRANDE RIVIERE A","7093716","2021-01-03 22:00","2021","01","03","22:00","-3.6","","-4.3","","94","","","","25","","15","","9.7","","98.15","","","","-9","","Freezing Drizzle,Snow"
"-77.70","53.63","LA GRANDE RIVIERE A","7093716","2021-01-03 23:00","2021","01","03","23:00","-4.1","","-5.3","","91","","","","26","","14","","24.1","","98.25","","","","-9","","NA"
"-77.70","53.63","LA GRANDE RIVIERE A","7093716","2021-01-04 00:00","2021","01","04","00:00","-4.5","","-5.4","","93","","","","25","","8","","24.1","","98.27","","","","-8","","NA"
"-77.70","53.63","LA GRANDE RIVIERE A","7093716","2021-01-04 01:00","2021","01","04","01:00","-4.5","","-5.2","","95","","","","20","","5","","24.1","","98.32","","","","-7","","Cloudy"
"-77.70","53.63","LA GRANDE RIVIERE A","7093716","2021-01-04 02:00","2021","01","04","02:00","-4.4","","-5.1","","95","","","","36","","3","","24.1","","98.37","","","","-6","","NA"
"-77.70","53.63","LA GRANDE RIVIERE A","7093716","2021-01-04 03:00","2021","01","04","03:00","-4.6","","-5.2","","95","","","","36","","2","","9.7","","98.42","","","","-5","","Fog"
"-77.70","53.63","LA GRANDE RIVIERE A","7093716","2021-01-04 04:00","2021","01","04","04:00","-4.5","","-5.0","","96","","","","12","","8","","6.4","","98.43","","","","-8","","Fog"
"-77.70","53.63","LA GRANDE RIVIERE A","7093716","2021-01-04 05:00","2021","01","04","05:00","-3.9","","-4.4","","96","","","","13","","10","","6.4","","98.42","","","","-8","","Freezing Drizzle,Snow,Fog"
"-77.70","53.63","LA GRANDE RIVIERE A","7093716","2021-01-04 06:00","2021","01","04","06:00","-3.5","","-3.9","","96","","","","11","","9","","6.4","","98.41","","","","-7","","Freezing Drizzle,Snow,Fog"
"-77.70","53.63","LA GRANDE RIVIERE A","7093716","2021-01-04 07:00","2021","01","04","07:00","-2.7","","-3.1","","97","","","","13","","9","","6.4","","98.41","","","","-6","","Freezing Drizzle,Snow,Fog"
"-77.70","53.63","LA GRANDE RIVIERE A","7093716","2021-01-04 08:00","2021","01","04","08:00","-1.8","","-2.1","","98","","","","13","","16","","1.6","","98.35","","","","-7","","Fog"
"-77.70","53.63","LA GRANDE RIVIERE A","7093716","2021-01-04 09:00","2021","01","04","09:00","-1.2","","-1.4","","98","","","","15","","18","","2.4","","98.35","","","","-6","","Snow,Fog"
"-77.70","53.63","LA GRANDE RIVIERE A","7093716","2021-01-04 10:00","2021","01","04","10:00","-0.9","","-1.5","","96","","","","16","","19","","4.0","","98.33","","","","-6","","Snow,Fog"
"-77.70","53.63","LA GRANDE RIVIERE A","7093716","2021-01-04 11:00","2021","01","04","11:00","-0.8","","-1.7","","94","","","","16","","23","","6.4","","98.25","","","","-7","","Snow,Fog"
"-77.70","53.63","LA GRANDE RIVIERE A","7093716","2021-01-04 12:00","2021","01","04","12:00","-0.9","","-1.9","","93","","","","17","","26","","4.8","","98.18","","","","-7","","Snow,Fog"
"-77.70","53.63","LA GRANDE RIVIERE A","7093716","2021-01-04 13:00","2021","01","04","13:00","-1.1","","-2.0","","94","","","","18","","18","","2.4","","98.13","","","","-6","","Snow"
"-77.70","53.63","LA GRANDE RIVIERE A","7093716","2021-01-04 14:00","2021","01","04","14:00","-1.4","","-2.5","","92","","","","18","","22","","6.4","","98.15","","","","-7","","Snow"
"-77.70","53.63","LA GRANDE RIVIERE A","7093716","2021-01-04 15:00","2021","01","04","15:00","-1.4","","-2.2","","94","","","","16","","17","","4.8","","98.16","","","","-7","","Snow"
"-77.70","53.63","LA GRANDE RIVIERE A","7093716","2021-01-04 16:00","2021","01","04","16:00","-1.8","","-2.5","","95","","","","16","","24","","4.8","","98.18","","","","-8","","Snow"
"-77.70","53.63","LA GRANDE RIVIERE A","7093716","2021-01-04 17:00","2021","01","04","17:00","-2.4","","-3.2","","94","","","","16","","19","","3.2","","98.26","","","","-8","","Freezing Drizzle,Snow,Fog"
"-77.70","53.63","LA GRANDE RIVIERE A","7093716","2021-01-04 18:00","2021","01","04","18:00","-3.2","","-4.0","","94","","","","16","","27","","6.4","","98.30","","","","-10","","Freezing Drizzle,Fog"
"-77.70","53.63","LA GRANDE RIVIERE A","7093716","2021-01-04 19:00","2021","01","04","19:00","-3.5","","-4.2","","94","","","","16","","22","","11.3","","98.36","","","","-10","","Freezing Drizzle"
"-77.70","53.63","LA GRANDE RIVIERE A","7093716","2021-01-04 20:00","2021","01","04","20:00","-3.5","","-4.1","","95","","","","17","","16","","9.7","","98.37","","","","-9","","Freezing Drizzle"
"-77.70","53.63","LA GRANDE RIVIERE A","7093716","2021-01-04 21:00","2021","01","04","21:00","-3.2","","-3.8","","95","","","","16","","18","","6.4","","98.39","","","","-9","","Freezing Drizzle,Fog"
"-77.70","53.63","LA GRANDE RIVIERE A","7093716","2021-01-04 22:00","2021","01","04","22:00","-3.0","","-3.7","","95","","","","17","","19","","4.8","","98.38","","","","-9","","Freezing Drizzle,Fog"
"-77.70","53.63","LA GRANDE RIVIERE A","7093716","2021-01-04 23:00","2021","01","04","23:00","-2.5","","-3.4","","93","","","","17","","20","","9.7","","98.41","","","","-8","","Freezing Drizzle,Fog"
"-77.70","53.63","LA GRANDE RIVIERE A","7093716","2021-01-05 00:00","2021","01","05","00:00","-2.4","","-3.3","","93","","","","16","","16","","24.1","","98.41","","","","-8","","NA"
"-77.70","53.63","LA GRANDE RIVIERE A","7093716","2021-01-05 01:00","2021","01","05","01:00","-2.2","","-2.8","","95","","","","17","","10","","16.1","","98.46","","","","-6","","Freezing Drizzle"
"-77.70","53.63","LA GRANDE RIVIERE A","7093716","2021-01-05 02:00","2021","01","05","02:00","-1.7","","-2.2","","96","","","","18","","13","","12.9","","98.53","","","","-6","","Freezing Drizzle"
"-77.70","53.63","LA GRANDE RIVIERE A","7093716","2021-01-05 03:00","2021","01","05","03:00","-1.5","","-2.0","","97","","","","18","","16","","6.4","","98.58","","","","-6","","Freezing Drizzle,Fog"
"-77.70","53.63","LA GRANDE RIVIERE A","7093716","2021-01-05 04:00","2021","01","05","04:00","-1.3","","-1.8","","96","","","","17","","17","","6.4","","98.62","","","","-6","","Freezing Drizzle,Fog"
"-77.70","53.63","LA GRANDE RIVIERE A","7093716","2021-01-05 05:00","2021","01","05","05:00","-1.2","","-1.7","","96","","","","18","","15","","9.7","","98.68","","","","-6","","Freezing Rain,Fog"
"-77.70","53.63","LA GRANDE RIVIERE A","7093716","2021-01-05 06:00","2021","01","05","06:00","-0.9","","-1.5","","96","","","","18","","18","","6.4","","98.76","","","","-6","","Freezing Rain,Fog"
"-77.70","53.63","LA GRANDE RIVIERE A","7093716","2021-01-05 07:00","2021","01","05","07:00","-1.0","","-1.5","","96","","","","18","","18","","9.7","","98.82","","","","-6","","Freezing Rain,Fog"
"-77.70","53.63","LA GRANDE RIVIERE A","7093716","2021-01-05 08:00","2021","01","05","08:00","-1.0","","-1.6","","96","","","","17","","17","","11.3","","98.89","","","","-6","","Freezing Drizzle"
"-77.70","53.63","LA GRANDE RIVIERE A","7093716","2021-01-05 09:00","2021","01","05","09:00","-1.1","","-1.6","","96","","","","18","","16","","6.4","","98.97","","","","-6","","Freezing Drizzle,Fog"
"-77.70","53.63","LA GRANDE RIVIERE A","7093716","2021-01-05 10:00","2021","01","05","10:00","-1.0","","-1.5","","96","","","","17","","15","","6.4","","99.03","","","","-6","","Fog"
"-77.70","53.63","LA GRANDE RIVIERE A","7093716","2021-01-05 11:00","2021","01","05","11:00","-1.0","","-1.4","","97","","","","17","","14","","6.4","","99.06","","","","-5","","Fog"
"-77.70","53.63","LA GRANDE RIVIERE A","7093716","2021-01-05 12:00","2021","01","05","12:00","-0.9","","-1.5","","96","","","","17","","17","","4.8","","99.11","","","","-6","","Fog"
"-77.70","53.63","LA GRANDE RIVIERE A","7093716","2021-01-05 13:00","2021","01","05","13:00","-0.9","","-1.3","","97","","","","18","","18","","3.2","","99.13","","","","-6","","Snow,Fog"
"-77.70","53.63","LA GRANDE RIVIERE A","7093716","2021-01-05 14:00","2021","01","05","14:00","-0.8","","-1.3","","96","","","","19","","13","","3.2","","99.22","","","","-5","","Snow,Fog"
"-77.70","53.63","LA GRANDE RIVIERE A","7093716","2021-01-05 15:00","2021","01","05","15:00","-3.9","","-4.6","","95","","","","27","","19","","2.4","","99.34","","","","-10","","Snow"
"-77.70","53.63","LA GRANDE RIVIERE A","7093716","2021-01-05 16:00","2021","01","05","16:00","-5.7","","-6.7","","93","","","","29","","14","","3.2","","99.44","","","","-11","","Snow"
"-77.70","53.63","LA GRANDE RIVIERE A","7093716","2021-01-05 17:00","2021","01","05","17:00","-6.4","","-7.4","","93","","","","31","","9","","6.4","","99.55","","","","-11","","Freezing Drizzle,Snow"
"-77.70","53.63","LA GRANDE RIVIERE A","7093716","2021-01-05 18:00","2021","01","05","18:00","-7.0","","-7.9","","93","","","","29","","14","","6.4","","99.65","","","","-13","","Snow"
"-77.70","53.63","LA GRANDE RIVIERE A","7093716","2021-01-05 19:00","2021","01","05","19:00","-7.6","","-8.7","","92","","","","31","","13","","11.3","","99.74","","","","-13","","Freezing Drizzle,Snow"
"-77.70","53.63","LA GRANDE RIVIERE A","7093716","2021-01-05 20:00","2021","01","05","20:00","-8.3","","-9.4","","92","","","","30","","14","","11.3","","99.80","","","","-14","","Freezing Drizzle,Snow"
"-77.70","53.63","LA GRANDE RIVIERE A","7093716","2021-01-05 21:00","2021","01","05","21:00","-8.6","","-9.6","","93","","","","31","","10","","24.1","","99.85","","","","-14","","NA"
"-77.70","53.63","LA GRANDE RIVIERE A","7093716","2021-01-05 22:00","2021","01","05","22:00","-9.4","","-10.5","","91","","","","30","","13","","24.1","","99.90","","","","-15","","Cloudy"
"-77.70","53.63","LA GRANDE RIVIERE A","7093716","2021-01-05 23:00","2021","01","05","23:00","-10.3","","-11.6","","90","","","","31","","13","","24.1","","99.99","","","","-17","","NA"
"-77.70","53.63","LA GRANDE RIVIERE A","7093716","2021-01-06 00:00","2021","01","06","00:00","-11.2","","-12.8","","88","","","","32","","10","","24.1","","100.03","","","","-17","","NA"
"-77.70","53.63","LA GRANDE RIVIERE A","7093716","2021-01-06 01:00","2021","01","06","01:00","-11.5","","-13.0","","89","","","","31","","7","","24.1","","100.10","","","","-16","","Cloudy"
"-77.70","53.63","LA GRANDE RIVIERE A","7093716","2021-01-06 02:00","2021","01","06","02:00","-12.8","","-14.1","","90","","","","27","","7","","24.1","","100.17","","","","-17","","NA"
"-77.70","53.63","LA GRANDE RIVIERE A","7093716","2021-01-06 03:00","2021","01","06","03:00","-12.6","","-14.0","","90","","","","29","","10","","24.1","","100.24","","","","-18","","NA"
"-77.70","53.63","LA GRANDE RIVIERE A","7093716","2021-01-06 04:00","2021","01","06","04:00","-12.1","","-13.5","","90","","","","30","","9","","19.3","","100.30","","","","-17","","Snow"
"-77.70","53.63","LA GRANDE RIVIERE A","7093716","2021-01-06 05:00","2021","01","06","05:00","-12.4","","-14.0","","88","","","","31","","13","","24.1","","100.38","","","","-19","","Snow"
"-77.70","53.63","LA GRANDE RIVIERE A","7093716","2021-01-06 06:00","2021","01","06","06:00","-12.9","","-14.5","","88","","","","31","","10","","24.1","","100.46","","","","-19","","Snow"
"-77.70","53.63","LA GRANDE RIVIERE A","7093716","2021-01-06 07:00","2021","01","06","07:00","-15.1","","-16.9","","87","","","","31","","9","","24.1","","100.51","","","","-21","","Snow"
"-77.70","53.63","LA GRANDE RIVIERE A","7093716","2021-01-06 08:00","2021","01","06","08:00","-16.7","","-18.5","","86","","","","33","","10","","24.1","","100.57","","","","-23","","NA"
"-77.70","53.63","LA GRANDE RIVIERE A","7093716","2021-01-06 09:00","2021","01","06","09:00","-17.9","","-19.8","","85","","","","35","","5","","24.1","","100.64","","","","-22","","NA"
"-77.70","53.63","LA GRANDE RIVIERE A","7093716","2021-01-06 10:00","2021","01","06","10:00","-17.4","","-19.0","","88","","","","1","","8","","24.1","","100.68","","","","-23","","Mostly Cloudy"
"-77.70","53.63","LA GRANDE RIVIERE A","7093716","2021-01-06 11:00","2021","01","06","11:00","-16.1","","-17.9","","87","","","","36","","8","","24.1","","100.70","","","","-22","","NA"
"-77.70","53.63","LA GRANDE RIVIERE A","7093716","2021-01-06 12:00","2021","01","06","12:00","-15.1","","-17.0","","86","","","","35","","9","","24.1","","100.72","","","","-21","","NA"
"-77.70","53.63","LA GRANDE RIVIERE A","7093716","2021-01-06 13:00","2021","01","06","13:00","-14.5","","-16.5","","85","","","","36","","7","","24.1","","100.74","","","","-19","","Mainly Clear"
"-77.70","53.63","LA GRANDE RIVIERE A","7093716","2021-01-06 14:00","2021","01","06","14:00","-14.6","","-16.5","","85","","","","34","","7","","24.1","","100.77","","","","-19","","NA"
"-77.70","53.63","LA GRANDE RIVIERE A","7093716","2021-01-06 15:00","2021","01","06","15:00","-15.1","","-16.9","","87","","","","34","","10","","24.1","","100.80","","","","-21","","NA"
"-77.70","53.63","LA GRANDE RIVIERE A","7093716","2021-01-06 16:00","2021","01","06","16:00","-15.5","","-17.2","","87","","","","34","","8","","24.1","","100.87","","","","-21","","Mostly Cloudy"
"-77.70","53.63","LA GRANDE RIVIERE A","7093716","2021-01-06 17:00","2021","01","06","17:00","-16.4","","-18.1","","87","","","","35","","5","","24.1","","100.92","","","","-20","","NA"
"-77.70","53.63","LA GRANDE RIVIERE A","7093716","2021-01-06 18:00","2021","01","06","18:00","-16.9","","-18.6","","87","","","","36","","8","","24.1","","100.98","","","","-23","","NA"
"-77.70","53.63","LA GRANDE RIVIERE A","7093716","2021-01-06 19:00","2021","01","06","19:00","-17.3","","-19.1","","86","","","","1","","9","","24.1","","101.00","","","","-24","","Clear"
"-77.70","53.63","LA GRANDE RIVIERE A","7093716","2021-01-06 20:00","2021","01","06","20:00","-18.3","","-20.1","","86","","","","3","","9","","24.1","","100.97","","","","-25","","NA"
"-77.70","53.63","LA GRANDE RIVIERE A","7093716","2021-01-06 21:00","2021","01","06","21:00","-18.9","","-20.8","","85","","","","3","","8","","24.1","","100.97","","","","-25","","NA"
"-77.70","53.63","LA GRANDE RIVIERE A","7093716","2021-01-06 22:00","2021","01","06","22:00","-19.5","","-21.5","","85","","","","3","","10","","24.1","","100.92","","","","-27","","Clear"
"-77.70","53.63","LA GRANDE RIVIERE A","7093716","2021-01-06 23:00","2021","01","06","23:00","-19.9","","-22.0","","84","","","","5","","10","","24.1","","100.93","","","","-27","","NA"
"-77.70","53.63","LA GRANDE RIVIERE A","7093716","2021-01-07 00:00","2021","01","07","00:00","-20.5","","-22.6","","83","","","","4","","8","","24.1","","100.94","","","","-27","","NA"
"-77.70","53.63","LA GRANDE RIVIERE A","7093716","2021-01-07 01:00","2021","01","07","01:00","-20.9","","-23.1","","83","","","","5","","10","","24.1","","100.92","","","","-28","","Clear"
"-77.70","53.63","LA GRANDE RIVIERE A","7093716","2021-01-07 02:00","2021","01","07","02:00","-21.5","","-23.7","","83","","","","3","","6","","24.1","","100.95","","","","-27","","NA"
"-77.70","53.63","LA GRANDE RIVIERE A","7093716","2021-01-07 03:00","2021","01","07","03:00","-22.0","","-24.3","","82","","","","6","","10","","24.1","","100.97","","","","-30","","NA"
"-77.70","53.63","LA GRANDE RIVIERE A","7093716","2021-01-07 04:00","2021","01","07","04:00","-21.9","","-24.2","","82","","","","6","","12","","24.1","","100.97","","","","-30","","Clear"
"-77.70","53.63","LA GRANDE RIVIERE A","7093716","2021-01-07 05:00","2021","01","07","05:00","-22.4","","-24.6","","82","","","","6","","9","","24.1","","100.98","","","","-30","","NA"
"-77.70","53.63","LA GRANDE RIVIERE A","7093716","2021-01-07 06:00","2021","01","07","06:00","-22.2","","-24.6","","81","","","","7","","12","","24.1","","100.99","","","","-31","","NA"
"-77.70","53.63","LA GRANDE RIVIERE A","7093716","2021-01-07 07:00","2021","01","07","07:00","-22.6","","-25.1","","81","","","","7","","10","","24.1","","101.05","","","","-30","","Clear"
"-77.70","53.63","LA GRANDE RIVIERE A","7093716","2021-01-07 08:00","2021","01","07","08:00","-23.8","","-26.2","","81","","","","9","","13","","24.1","","101.02","","","","-33","","NA"
"-77.70","53.63","LA GRANDE RIVIERE A","7093716","2021-01-07 09:00","2021","01","07","09:00","-22.3","","-24.7","","81","","","","9","","12","","24.1","","101.04","","","","-31","","NA"
"-77.70","53.63","LA GRANDE RIVIERE A","7093716","2021-01-07 10:00","2021","01","07","10:00","-22.0","","-24.4","","81","","","","8","","14","","24.1","","101.04","","","","-31","","Clear"
"-77.70","53.63","LA GRANDE RIVIERE A","7093716","2021-01-07 11:00","2021","01","07","11:00","-20.8","","-23.2","","81","","","","8","","12","","24.1","","100.95","","","","-29","","NA"
"-77.70","53.63","LA GRANDE RIVIERE A","7093716","2021-01-07 12:00","2021","01","07","12:00","-19.3","","-21.6","","82","","","","7","","7","","24.1","","100.91","","","","-25","","NA"
"-77.70","53.63","LA GRANDE RIVIERE A","7093716","2021-01-07 13:00","2021","01","07","13:00","-18.4","","-20.7","","83","","","","8","","7","","24.1","","100.83","","","","-24","","Mainly Clear"
"-77.70","53.63","LA GRANDE RIVIERE A","7093716","2021-01-07 14:00","2021","01","07","14:00","-17.9","","-20.1","","83","","","","14","","5","","24.1","","100.85","","","","-22","","NA"
"-77.70","53.63","LA GRANDE RIVIERE A","7093716","2021-01-07 15:00","2021","01","07","15:00","-17.9","","-20.1","","83","","","","5","","6","","24.1","","100.84","","","","-23","","NA"
"-77.70","53.63","LA GRANDE RIVIERE A","7093716","2021-01-07 16:00","2021","01","07","16:00","-19.3","","-21.6","","83","","","","9","","7","","24.1","","100.82","","","","-25","","Mainly Clear"
"-77.70","53.63","LA GRANDE RIVIERE A","7093716","2021-01-07 17:00","2021","01","07","17:00","-20.1","","-22.3","","83","","","","8","","10","","24.1","","100.85","","","","-27","","NA"
"-77.70","53.63","LA GRANDE RIVIERE A","7093716","2021-01-07 18:00","2021","01","07","18:00","-22.0","","-24.4","","82","","","","9","","9","","24.1","","100.83","","","","-29","","NA"
"-77.70","53.63","LA GRANDE RIVIERE A","7093716","2021-01-07 19:00","2021","01","07","19:00","-21.7","","-24.1","","82","","","","11","","12","","24.1","","100.82","","","","-30","","Clear"
"-77.70","53.63","LA GRANDE RIVIERE A","7093716","2021-01-07 20:00","2021","01","07","20:00","-21.7","","-24.0","","82","","","","11","","13","","24.1","","100.75","","","","-30","","NA"
"-77.70","53.63","LA GRANDE RIVIERE A","7093716","2021-01-07 21:00","2021","01","07","21:00","-22.1","","-24.3","","82","","","","11","","9","","24.1","","100.69","","","","-29","","NA"
"-77.70","53.63","LA GRANDE RIVIERE A","7093716","2021-01-07 22:00","2021","01","07","22:00","-20.6","","-22.6","","84","","","","11","","11","","24.1","","100.66","","","","-28","","Clear"
"-77.70","53.63","LA GRANDE RIVIERE A","7093716","2021-01-07 23:00","2021","01","07","23:00","-19.4","","-21.6","","84","","","","11","","13","","24.1","","100.62","","","","-28","","NA"
"-77.70","53.63","LA GRANDE RIVIERE A","7093716","2021-01-08 00:00","2021","01","08","00:00","-18.3","","-20.4","","84","","","","12","","10","","24.1","","100.55","","","","-25","","NA"
"-77.70","53.63","LA GRANDE RIVIERE A","7093716","2021-01-08 01:00","2021","01","08","01:00","-17.3","","-19.2","","85","","","","13","","9","","24.1","","100.51","","","","-24","","Cloudy"
"-77.70","53.63","LA GRANDE RIVIERE A","7093716","2021-01-08 02:00","2021","01","08","02:00","-15.9","","-17.7","","86","","","","15","","9","","24.1","","100.50","","","","-22","","NA"
"-77.70","53.63","LA GRANDE RIVIERE A","7093716","2021-01-08 03:00","2021","01","08","03:00","-15.2","","-17.0","","86","","","","14","","14","","24.1","","100.45","","","","-23","","NA"
"-77.70","53.63","LA GRANDE RIVIERE A","7093716","2021-01-08 04:00","2021","01","08","04:00","-15.2","","-17.1","","86","","","","15","","10","","24.1","","100.40","","","","-21","","Cloudy"
"-77.70","53.63","LA GRANDE RIVIERE A","7093716","2021-01-08 05:00","2021","01","08","05:00","-14.9","","-16.8","","86","","","","16","","10","","24.1","","100.29","","","","-21","","NA"
"-77.70","53.63","LA GRANDE RIVIERE A","7093716","2021-01-08 06:00","2021","01","08","06:00","-14.6","","-16.5","","86","","","","14","","14","","24.1","","100.23","","","","-22","","NA"
"-77.70","53.63","LA GRANDE RIVIERE A","7093716","2021-01-08 07:00","2021","01","08","07:00","-14.4","","-16.3","","86","","","","16","","13","","24.1","","100.18","","","","-22","","Cloudy"
"-77.70","53.63","LA GRANDE RIVIERE A","7093716","2021-01-08 08:00","2021","01","08","08:00","-13.9","","-15.8","","86","","","","16","","14","","24.1","","100.12","","","","-21","","NA"
"-77.70","53.63","LA GRANDE RIVIERE A","7093716","2021-01-08 09:00","2021","01","08","09:00","-13.6","","-15.6","","85","","","","16","","13","","24.1","","100.04","","","","-21","","NA"
"-77.70","53.63","LA GRANDE RIVIERE A","7093716","2021-01-08 10:00","2021","01","08","10:00","-13.0","","-15.1","","85","","","","18","","15","","24.1","","99.99","","","","-20","","Cloudy"
"-77.70","53.63","LA GRANDE RIVIERE A","7093716","2021-01-08 11:00","2021","01","08","11:00","-12.2","","-14.7","","82","","","","18","","16","","24.1","","99.96","","","","-20","","NA"
"-77.70","53.63","LA GRANDE RIVIERE A","7093716","2021-01-08 12:00","2021","01","08","12:00","-11.5","","-14.3","","80","","","","19","","16","","24.1","","99.86","","","","-19","","NA"
"-77.70","53.63","LA GRANDE RIVIERE A","7093716","2021-01-08 13:00","2021","01","08","13:00","-10.8","","-13.6","","80","","","","18","","17","","24.1","","99.80","","","","-18","","Cloudy"
"-77.70","53.63","LA GRANDE RIVIERE A","7093716","2021-01-08 14:00","2021","01","08","14:00","-10.5","","-12.8","","84","","","","19","","15","","24.1","","99.73","","","","-17","","NA"
"-77.70","53.63","LA GRANDE RIVIERE A","7093716","2021-01-08 15:00","2021","01","08","15:00","-10.4","","-12.0","","88","","","","22","","15","","24.1","","99.72","","","","-17","","NA"
"-77.70","53.63","LA GRANDE RIVIERE A","7093716","2021-01-08 16:00","2021","01","08","16:00","-10.8","","-12.0","","91","","","","23","","13","","9.7","","99.70","","","","-17","","Freezing Drizzle,Fog"
"-77.70","53.63","LA GRANDE RIVIERE A","7093716","2021-01-08 17:00","2021","01","08","17:00","-11.0","","-12.0","","92","","","","23","","12","","4.0","","99.72","","","","-17","","Freezing Drizzle,Fog"
"-77.70","53.63","LA GRANDE RIVIERE A","7093716","2021-01-08 18:00","2021","01","08","18:00","-11.1","","-12.1","","92","","","","21","","9","","4.0","","99.68","","","","-16","","Freezing Drizzle,Fog"
"-77.70","53.63","LA GRANDE RIVIERE A","7093716","2021-01-08 19:00","2021","01","08","19:00","-10.9","","-11.9","","92","","","","23","","9","","4.0","","99.71","","","","-16","","Freezing Drizzle,Fog"
"-77.70","53.63","LA GRANDE RIVIERE A","7093716","2021-01-08 20:00","2021","01","08","20:00","-10.7","","-11.7","","93","","","","22","","9","","4.0","","99.69","","","","-16","","Freezing Drizzle,Fog"
"-77.70","53.63","LA GRANDE RIVIERE A","7093716","2021-01-08 21:00","2021","01","08","21:00","-10.5","","-11.4","","93","","","","22","","10","","4.0","","99.69","","","","-16","","Freezing Drizzle,Fog"
"-77.70","53.63","LA GRANDE RIVIERE A","7093716","2021-01-08 22:00","2021","01","08","22:00","-10.2","","-11.2","","92","","","","23","","12","","4.0","","99.65","","","","-16","","Freezing Drizzle,Fog"
"-77.70","53.63","LA GRANDE RIVIERE A","7093716","2021-01-08 23:00","2021","01","08","23:00","-9.8","","-10.8","","92","","","","23","","11","","4.0","","99.64","","","","-15","","Freezing Drizzle,Fog"
"-77.70","53.63","LA GRANDE RIVIERE A","7093716","2021-01-09 00:00","2021","01","09","00:00","-9.6","","-10.6","","92","","","","22","","10","","4.0","","99.59","","","","-15","","Freezing Drizzle,Fog"
"-77.70","53.63","LA GRANDE RIVIERE A","7093716","2021-01-09 01:00","2021","01","09","01:00","-9.2","","-10.1","","93","","","","22","","8","","4.0","","99.56","","","","-14","","Freezing Drizzle,Fog"
"-77.70","53.63","LA GRANDE RIVIERE A","7093716","2021-01-09 02:00","2021","01","09","02:00","-8.8","","-9.7","","93","","","","20","","6","","4.0","","99.57","","","","-12","","Freezing Drizzle,Fog"
"-77.70","53.63","LA GRANDE RIVIERE A","7093716","2021-01-09 03:00","2021","01","09","03:00","-8.1","","-8.9","","93","","","","21","","7","","4.0","","99.57","","","","-12","","Freezing Drizzle,Fog"
"-77.70","53.63","LA GRANDE RIVIERE A","7093716","2021-01-09 04:00","2021","01","09","04:00","-7.9","","-8.8","","94","","","","20","","9","","4.0","","99.57","","","","-12","","Freezing Drizzle,Fog"
"-77.70","53.63","LA GRANDE RIVIERE A","7093716","2021-01-09 05:00","2021","01","09","05:00","-6.2","","-6.9","","94","","","","24","","11","","4.0","","99.55","","","","-11","","Freezing Drizzle,Fog"
"-77.70","53.63","LA GRANDE RIVIERE A","7093716","2021-01-09 06:00","2021","01","09","06:00","-5.7","","-6.5","","94","","","","24","","10","","4.0","","99.54","","","","-10","","Freezing Drizzle,Fog"
"-77.70","53.63","LA GRANDE RIVIERE A","7093716","2021-01-09 07:00","2021","01","09","07:00","-5.5","","-6.2","","95","","","","24","","13","","8.1","","99.56","","","","-11","","Freezing Drizzle,Fog"
"-77.70","53.63","LA GRANDE RIVIERE A","7093716","2021-01-09 08:00","2021","01","09","08:00","-5.2","","-5.9","","95","","","","24","","10","","6.4","","99.57","","","","-10","","Freezing Drizzle,Fog"
"-77.70","53.63","LA GRANDE RIVIERE A","7093716","2021-01-09 09:00","2021","01","09","09:00","-5.0","","-5.7","","95","","","","26","","18","","6.4","","99.59","","","","-11","","Freezing Drizzle,Fog"
"-77.70","53.63","LA GRANDE RIVIERE A","7093716","2021-01-09 10:00","2021","01","09","10:00","-5.2","","-6.0","","95","","","","26","","23","","9.7","","99.62","","","","-12","","Freezing Drizzle,Fog"
"-77.70","53.63","LA GRANDE RIVIERE A","7093716","2021-01-09 11:00","2021","01","09","11:00","-5.2","","-5.9","","95","","","","26","","16","","9.7","","99.60","","","","-11","","Freezing Drizzle,Fog"
"-77.70","53.63","LA GRANDE RIVIERE A","7093716","2021-01-09 12:00","2021","01","09","12:00","-5.2","","-5.9","","95","","","","28","","23","","9.7","","99.56","","","","-12","","Freezing Drizzle,Fog"
"-77.70","53.63","LA GRANDE RIVIERE A","7093716","2021-01-09 13:00","2021","01","09","13:00","-5.2","","-5.9","","95","","","","25","","14","","9.7","","99.53","","","","-11","","Freezing Drizzle,Fog"
"-77.70","53.63","LA GRANDE RIVIERE A","7093716","2021-01-09 14:00","2021","01","09","14:00","-5.8","","-6.5","","94","","","","25","","18","","9.7","","99.55","","","","-12","","Freezing Drizzle,Fog"
"-77.70","53.63","LA GRANDE RIVIERE A","7093716","2021-01-09 15:00","2021","01","09","15:00","-6.2","","-7.0","","94","","","","28","","20","","8.1","","99.57","","","","-13","","Freezing Drizzle,Fog"
"-77.70","53.63","LA GRANDE RIVIERE A","7093716","2021-01-09 16:00","2021","01","09","16:00","-6.7","","-7.6","","93","","","","29","","18","","9.7","","99.63","","","","-13","","Freezing Drizzle,Fog"
"-77.70","53.63","LA GRANDE RIVIERE A","7093716","2021-01-09 17:00","2021","01","09","17:00","-6.9","","-7.9","","93","","","","28","","19","","9.7","","99.63","","","","-14","","Freezing Drizzle,Fog"
"-77.70","53.63","LA GRANDE RIVIERE A","7093716","2021-01-09 18:00","2021","01","09","18:00","-7.0","","-8.0","","93","","","","28","","20","","19.3","","99.63","","","","-14","","Freezing Drizzle"
"-77.70","53.63","LA GRANDE RIVIERE A","7093716","2021-01-09 19:00","2021","01","09","19:00","-7.0","","-7.9","","93","","","","26","","13","","19.3","","99.63","","","","-13","","Freezing Drizzle"
"-77.70","53.63","LA GRANDE RIVIERE A","7093716","2021-01-09 20:00","2021","01","09","20:00","-7.1","","-8.1","","93","","","","29","","20","","12.9","","99.64","","","","-14","","Freezing Drizzle"
"-77.70","53.63","LA GRANDE RIVIERE A","7093716","2021-01-09 21:00","2021","01","09","21:00","-8.5","","-9.7","","91","","","","28","","20","","12.9","","99.67","","","","-16","","Freezing Drizzle"
"-77.70","53.63","LA GRANDE RIVIERE A","7093716","2021-01-09 22:00","2021","01","09","22:00","-9.7","","-11.0","","90","","","","27","","21","","12.9","","99.67","","","","-18","","Freezing Drizzle,Snow"
"-77.70","53.63","LA GRANDE RIVIERE A","7093716","2021-01-09 23:00","2021","01","09","23:00","-10.8","","-12.0","","91","","","","27","","26","","11.3","","99.66","","","","-20","","Freezing Drizzle,Snow"
"-77.70","53.63","LA GRANDE RIVIERE A","7093716","2021-01-10 00:00","2021","01","10","00:00","-10.7","","-11.8","","91","","","","27","","16","","11.3","","99.63","","","","-18","","Snow"
"-77.70","53.63","LA GRANDE RIVIERE A","7093716","2021-01-10 01:00","2021","01","10","01:00","-10.6","","-11.8","","91","","","","25","","14","","11.3","","99.61","","","","-17","","Snow"
"-77.70","53.63","LA GRANDE RIVIERE A","7093716","2021-01-10 02:00","2021","01","10","02:00","-10.8","","-12.0","","91","","","","27","","14","","8.1","","99.60","","","","-17","","Snow,Fog"
"-77.70","53.63","LA GRANDE RIVIERE A","7093716","2021-01-10 03:00","2021","01","10","03:00","-10.9","","-12.2","","91","","","","24","","14","","8.1","","99.62","","","","-18","","Snow,Fog"
"-77.70","53.63","LA GRANDE RIVIERE A","7093716","2021-01-10 04:00","2021","01","10","04:00","-10.7","","-11.9","","91","","","","26","","13","","8.1","","99.57","","","","-17","","Snow,Fog"
"-77.70","53.63","LA GRANDE RIVIERE A","7093716","2021-01-10 05:00","2021","01","10","05:00","-10.7","","-11.9","","90","","","","26","","11","","8.1","","99.56","","","","-16","","Snow,Fog"
"-77.70","53.63","LA GRANDE RIVIERE A","7093716","2021-01-10 06:00","2021","01","10","06:00","-10.7","","-12.0","","90","","","","24","","10","","6.4","","99.55","","","","-16","","Snow"
"-77.70","53.63","LA GRANDE RIVIERE A","7093716","2021-01-10 07:00","2021","01","10","07:00","-11.1","","-12.5","","90","","","","17","","11","","8.1","","99.49","","","","-17","","Snow"
"-77.70","53.63","LA GRANDE RIVIERE A","7093716","2021-01-10 08:00","2021","01","10","08:00","-11.7","","-13.1","","89","","","","15","","10","","24.1","","99.45","","","","-17","","Snow"
"-77.70","53.63","LA GRANDE RIVIERE A","7093716","2021-01-10 09:00","2021","01","10","09:00","-11.5","","-13.0","","89","","","","16","","13","","19.3","","99.44","","","","-18","","Snow"
"-77.70","53.63","LA GRANDE RIVIERE A","7093716","2021-01-10 10:00","2021","01","10","10:00","-11.2","","-12.6","","89","","","","17","","12","","6.4","","99.43","","","","-17","","Snow"
"-77.70","53.63","LA GRANDE RIVIERE A","7093716","2021-01-10 11:00","2021","01","10","11:00","-10.6","","-12.0","","90","","","","17","","12","","6.4","","99.37","","","","-17","","Snow"
"-77.70","53.63","LA GRANDE RIVIERE A","7093716","2021-01-10 12:00","2021","01","10","12:00","-10.0","","-11.3","","90","","","","22","","19","","4.0","","99.29","","","","-18","","Snow"
"-77.70","53.63","LA GRANDE RIVIERE A","7093716","2021-01-10 13:00","2021","01","10","13:00","-10.4","","-11.8","","90","","","","25","","24","","3.2","","99.25","","","","-19","","Snow"
"-77.70","53.63","LA GRANDE RIVIERE A","7093716","2021-01-10 14:00","2021","01","10","14:00","-10.0","","-11.3","","90","","","","19","","9","","3.2","","99.18","","","","-15","","Snow"
"-77.70","53.63","LA GRANDE RIVIERE A","7093716","2021-01-10 15:00","2021","01","10","15:00","-9.8","","-11.1","","90","","","","20","","9","","2.4","","99.15","","","","-15","","Snow"
"-77.70","53.63","LA GRANDE RIVIERE A","7093716","2021-01-10 16:00","2021","01","10","16:00","-9.7","","-10.9","","91","","","","18","","9","","1.6","","99.13","","","","-15","","Snow Showers"
"-77.70","53.63","LA GRANDE RIVIERE A","7093716","2021-01-10 17:00","2021","01","10","17:00","-9.4","","-10.5","","91","","","","19","","7","","3.2","","99.10","","","","-13","","Freezing Drizzle,Snow"
"-77.70","53.63","LA GRANDE RIVIERE A","7093716","2021-01-10 18:00","2021","01","10","18:00","-8.9","","-10.1","","91","","","","22","","13","","3.2","","99.04","","","","-15","","Freezing Drizzle,Snow"
"-77.70","53.63","LA GRANDE RIVIERE A","7093716","2021-01-10 19:00","2021","01","10","19:00","-8.8","","-9.9","","92","","","","21","","9","","6.4","","99.01","","","","-13","","Freezing Drizzle,Fog"
"-77.70","53.63","LA GRANDE RIVIERE A","7093716","2021-01-10 20:00","2021","01","10","20:00","-8.5","","-9.5","","92","","","","20","","9","","6.4","","98.99","","","","-13","","Freezing Drizzle,Snow"
"-77.70","53.63","LA GRANDE RIVIERE A","7093716","2021-01-10 21:00","2021","01","10","21:00","-7.7","","-8.7","","93","","","","22","","17","","6.4","","98.95","","","","-14","","Freezing Drizzle,Snow"
"-77.70","53.63","LA GRANDE RIVIERE A","7093716","2021-01-10 22:00","2021","01","10","22:00","-8.0","","-9.1","","92","","","","22","","23","","6.4","","98.95","","","","-16","","Freezing Drizzle,Snow"
"-77.70","53.63","LA GRANDE RIVIERE A","7093716","2021-01-10 23:00","2021","01","10","23:00","-8.6","","-9.7","","92","","","","22","","20","","6.4","","98.95","","","","-16","","Freezing Drizzle,Snow"
"-77.70","53.63","LA GRANDE RIVIERE A","7093716","2021-01-11 00:00","2021","01","11","00:00","-8.7","","-9.8","","92","","","","21","","13","","2.4","","98.92","","","","-15","","Freezing Drizzle,Snow"
"-77.70","53.63","LA GRANDE RIVIERE A","7093716","2021-01-11 01:00","2021","01","11","01:00","-8.6","","-9.7","","92","","","","21","","13","","4.8","","98.90","","","","-15","","Freezing Drizzle,Snow"
"-77.70","53.63","LA GRANDE RIVIERE A","7093716","2021-01-11 02:00","2021","01","11","02:00","-9.1","","-10.2","","91","","","","21","","20","","11.3","","98.91","","","","-17","","Freezing Drizzle,Snow"
"-77.70","53.63","LA GRANDE RIVIERE A","7093716","2021-01-11 03:00","2021","01","11","03:00","-9.1","","-10.2","","91","","","","21","","23","","4.8","","98.90","","","","-17","","Freezing Drizzle,Snow"
"-77.70","53.63","LA GRANDE RIVIERE A","7093716","2021-01-11 04:00","2021","01","11","04:00","-9.0","","-10.1","","92","","","","20","","26","","4.8","","98.85","","","","-18","","Freezing Drizzle,Snow"
"-77.70","53.63","LA GRANDE RIVIERE A","7093716","2021-01-11 05:00","2021","01","11","05:00","-8.9","","-10.0","","92","","","","20","","18","","4.8","","98.83","","","","-16","","Freezing Drizzle,Snow"
"-77.70","53.63","LA GRANDE RIVIERE A","7093716","2021-01-11 06:00","2021","01","11","06:00","-9.2","","-10.3","","91","","","","19","","21","","2.4","","98.82","","","","-17","","Freezing Drizzle,Snow,Fog"
"-77.70","53.63","LA GRANDE RIVIERE A","7093716","2021-01-11 07:00","2021","01","11","07:00","-9.3","","-10.4","","91","","","","20","","14","","2.4","","98.81","","","","-16","","Freezing Drizzle,Snow,Fog"
"-77.70","53.63","LA GRANDE RIVIERE A","7093716","2021-01-11 08:00","2021","01","11","08:00","-8.7","","-9.8","","92","","","","19","","18","","2.4","","98.78","","","","-16","","Freezing Drizzle,Snow,Fog"
"-77.70","53.63","LA GRANDE RIVIERE A","7093716","2021-01-11 09:00","2021","01","11","09:00","-8.1","","-9.1","","92","","","","19","","16","","1.6","","98.76","","","","-15","","Freezing Drizzle,Snow,Fog"
"-77.70","53.63","LA GRANDE RIVIERE A","7093716","2021-01-11 10:00","2021","01","11","10:00","-7.3","","-8.3","","93","","","","20","","18","","1.2","","98.74","","","","-14","","Freezing Drizzle,Snow,Fog"
"-77.70","53.63","LA GRANDE RIVIERE A","7093716","2021-01-11 11:00","2021","01","11","11:00","-6.4","","-7.3","","94","","","","21","","22","","1.2","","98.68","","","","-14","","Freezing Drizzle,Snow,Fog"
"-77.70","53.63","LA GRANDE RIVIERE A","7093716","2021-01-11 12:00","2021","01","11","12:00","-6.0","","-6.8","","94","","","","21","","14","","1.6","","98.60","","","","-12","","Freezing Drizzle,Fog"
"-77.70","53.63","LA GRANDE RIVIERE A","7093716","2021-01-11 13:00","2021","01","11","13:00","-5.6","","-6.3","","94","","","","20","","21","","4.0","","98.54","","","","-12","","Fog"
"-77.70","53.63","LA GRANDE RIVIERE A","7093716","2021-01-11 14:00","2021","01","11","14:00","-5.3","","-6.0","","95","","","","22","","23","","8.1","","98.51","","","","-12","","Fog"
"-77.70","53.63","LA GRANDE RIVIERE A","7093716","2021-01-11 15:00","2021","01","11","15:00","-4.8","","-5.5","","95","","","","22","","15","","9.7","","98.50","","","","-10","","Fog"
"-77.70","53.63","LA GRANDE RIVIERE A","7093716","2021-01-11 16:00","2021","01","11","16:00","-4.4","","-5.0","","96","","","","21","","16","","9.7","","98.46","","","","-10","","Fog"
"-77.70","53.63","LA GRANDE RIVIERE A","7093716","2021-01-11 17:00","2021","01","11","17:00","-4.0","","-4.6","","96","","","","22","","14","","9.7","","98.50","","","","-9","","Fog"
"-77.70","53.63","LA GRANDE RIVIERE A","7093716","2021-01-11 18:00","2021","01","11","18:00","-3.8","","-4.3","","96","","","","21","","10","","4.0","","98.50","","","","-8","","Freezing Drizzle,Fog"
"-77.70","53.63","LA GRANDE RIVIERE A","7093716","2021-01-11 19:00","2021","01","11","19:00","-3.7","","-4.2","","96","","","","18","","8","","4.0","","98.47","","","","-7","","Freezing Drizzle,Fog"
"-77.70","53.63","LA GRANDE RIVIERE A","7093716","2021-01-11 20:00","2021","01","11","20:00","-3.7","","-4.2","","96","","","","19","","8","","6.4","","98.42","","","","-7","","Freezing Drizzle,Fog"
"-77.70","53.63","LA GRANDE RIVIERE A","7093716","2021-01-11 21:00","2021","01","11","21:00","-3.4","","-3.9","","96","","","","22","","14","","4.8","","98.41","","","","-8","","Freezing Drizzle,Fog"
"-77.70","53.63","LA GRANDE RIVIERE A","7093716","2021-01-11 22:00","2021","01","11","22:00","-3.7","","-4.2","","96","","","","22","","11","","4.8","","98.38","","","","-8","","Freezing Drizzle,Snow,Fog"
"-77.70","53.63","LA GRANDE RIVIERE A","7093716","2021-01-11 23:00","2021","01","11","23:00","-4.0","","-4.6","","96","","","","24","","14","","16.1","","98.39","","","","-9","","Freezing Drizzle,Snow,Fog"
"-77.70","53.63","LA GRANDE RIVIERE A","7093716","2021-01-12 00:00","2021","01","12","00:00","-4.9","","-5.6","","95","","","","24","","18","","11.3","","98.41","","","","-11","","Snow"
"-77.70","53.63","LA GRANDE RIVIERE A","7093716","2021-01-12 01:00","2021","01","12","01:00","-5.4","","-6.1","","95","","","","24","","16","","4.8","","98.40","","","","-11","","Snow,Fog"
"-77.70","53.63","LA GRANDE RIVIERE A","7093716","2021-01-12 02:00","2021","01","12","02:00","-5.4","","-6.1","","95","","","","23","","14","","12.9","","98.41","","","","-11","","Snow"
"-77.70","53.63","LA GRANDE RIVIERE A","7093716","2021-01-12 03:00","2021","01","12","03:00","-5.5","","-6.3","","95","","","","22","","13","","11.3","","98.40","","","","-11","","Snow"
"-77.70","53.63","LA GRANDE RIVIERE A","7093716","2021-01-12 04:00","2021","01","12","04:00","-5.5","","-6.2","","95","","","","21","","10","","11.3","","98.36","","","","-10","","Freezing Drizzle,Snow"
"-77.70","53.63","LA GRANDE RIVIERE A","7093716","2021-01-12 05:00","2021","01","12","05:00","-5.5","","-6.3","","95","","","","19","","13","","16.1","","98.32","","","","-11","","Freezing Drizzle,Snow"
"-77.70","53.63","LA GRANDE RIVIERE A","7093716","2021-01-12 06:00","2021","01","12","06:00","-5.0","","-5.7","","95","","","","21","","14","","6.4","","98.30","","","","-10","","Freezing Drizzle,Snow,Fog"
"-77.70","53.63","LA GRANDE RIVIERE A","7093716","2021-01-12 07:00","2021","01","12","07:00","-5.7","","-6.5","","94","","","","21","","25","","19.3","","98.31","","","","-13","","Freezing Drizzle,Snow"
"-77.70","53.63","LA GRANDE RIVIERE A","7093716","2021-01-12 08:00","2021","01","12","08:00","-6.3","","-7.2","","94","","","","23","","25","","19.3","","98.35","","","","-14","","Freezing Drizzle,Snow"
"-77.70","53.63","LA GRANDE RIVIERE A","7093716","2021-01-12 09:00","2021","01","12","09:00","-6.1","","-6.9","","94","","","","22","","15","","9.7","","98.32","","","","-12","","Freezing Drizzle,Snow,Fog"
"-77.70","53.63","LA GRANDE RIVIERE A","7093716","2021-01-12 10:00","2021","01","12","10:00","-6.0","","-6.8","","94","","","","19","","14","","16.1","","98.26","","","","-12","","Freezing Drizzle,Snow"
"-77.70","53.63","LA GRANDE RIVIERE A","7093716","2021-01-12 11:00","2021","01","12","11:00","-5.6","","-6.4","","94","","","","21","","20","","4.0","","98.22","","","","-12","","Freezing Drizzle,Snow,Fog"
"-77.70","53.63","LA GRANDE RIVIERE A","7093716","2021-01-12 12:00","2021","01","12","12:00","-5.2","","-5.9","","95","","","","20","","22","","4.0","","98.14","","","","-12","","Freezing Drizzle,Snow,Fog"
"-77.70","53.63","LA GRANDE RIVIERE A","7093716","2021-01-12 13:00","2021","01","12","13:00","-4.8","","-5.5","","95","","","","22","","25","","3.2","","98.09","","","","-12","","Freezing Drizzle,Snow,Fog"
"-77.70","53.63","LA GRANDE RIVIERE A","7093716","2021-01-12 14:00","2021","01","12","14:00","-4.9","","-5.6","","95","","","","23","","23","","4.0","","98.11","","","","-12","","Freezing Drizzle,Snow,Fog"
"-77.70","53.63","LA GRANDE RIVIERE A","7093716","2021-01-12 15:00","2021","01","12","15:00","-4.9","","-5.6","","95","","","","23","","26","","6.4","","98.12","","","","-12","","Freezing Drizzle,Snow,Fog"
"-77.70","53.63","LA GRANDE RIVIERE A","7093716","2021-01-12 16:00","2021","01","12","16:00","-5.2","","-5.9","","95","","","","22","","25","","4.8","","98.09","","","","-13","","Freezing Drizzle,Snow,Fog"
"-77.70","53.63","LA GRANDE RIVIERE A","7093716","2021-01-12 17:00","2021","01","12","17:00","-5.6","","-6.4","","94","","","","21","","17","","19.3","","98.05","","","","-12","","Snow"
"-77.70","53.63","LA GRANDE RIVIERE A","7093716","2021-01-12 18:00","2021","01","12","18:00","-5.5","","-6.3","","94","","","","20","","15","","24.1","","98.08","","","","-11","","Snow"
"-77.70","53.63","LA GRANDE RIVIERE A","7093716","2021-01-12 19:00","2021","01","12","19:00","-5.4","","-6.1","","95","","","","21","","19","","19.3","","98.06","","","","-12","","Snow"
"-77.70","53.63","LA GRANDE RIVIERE A","7093716","2021-01-12 20:00","2021","01","12","20:00","-5.2","","-5.9","","95","","","","21","","16","","6.4","","98.03","","","","-11","","Snow"
"-77.70","53.63","LA GRANDE RIVIERE A","7093716","2021-01-12 21:00","2021","01","12","21:00","-5.0","","-5.7","","95","","","","21","","16","","6.4","","97.97","","","","-11","","Freezing Drizzle,Snow"
"-77.70","53.63","LA GRANDE RIVIERE A","7093716","2021-01-12 22:00","2021","01","12","22:00","-5.0","","-5.6","","95","","","","20","","18","","3.2","","97.92","","","","-11","","Freezing Drizzle,Snow"
"-77.70","53.63","LA GRANDE RIVIERE A","7093716","2021-01-12 23:00","2021","01","12","23:00","-5.1","","-5.8","","95","","","","20","","16","","4.8","","97.87","","","","-11","","Freezing Drizzle,Snow"
"-77.70","53.63","LA GRANDE RIVIERE A","7093716","2021-01-13 00:00","2021","01","13","00:00","-5.1","","-5.8","","95","","","","18","","13","","3.2","","97.79","","","","-10","","Freezing Drizzle,Snow,Fog"
"-77.70","53.63","LA GRANDE RIVIERE A","7093716","2021-01-13 01:00","2021","01","13","01:00","-5.2","","-5.9","","95","","","","17","","15","","4.8","","97.69","","","","-11","","Snow"
"-77.70","53.63","LA GRANDE RIVIERE A","7093716","2021-01-13 02:00","2021","01","13","02:00","-5.1","","-5.8","","95","","","","19","","13","","2.4","","97.70","","","","-10","","Snow"
"-77.70","53.63","LA GRANDE RIVIERE A","7093716","2021-01-13 03:00","2021","01","13","03:00","-4.7","","-5.3","","95","","","","19","","9","","2.4","","97.68","","","","-9","","Freezing Drizzle,Snow,Fog"
"-77.70","53.63","LA GRANDE RIVIERE A","7093716","2021-01-13 04:00","2021","01","13","04:00","-4.5","","-5.1","","96","","","","21","","11","","3.2","","97.64","","","","-9","","Freezing Drizzle,Snow,Fog"
"-77.70","53.63","LA GRANDE RIVIERE A","7093716","2021-01-13 05:00","2021","01","13","05:00","-4.5","","-5.1","","95","","","","19","","8","","4.0","","97.60","","","","-8","","Freezing Drizzle,Snow,Fog"
"-77.70","53.63","LA GRANDE RIVIERE A","7093716","2021-01-13 06:00","2021","01","13","06:00","-4.4","","-5.0","","96","","","","17","","7","","4.0","","97.58","","","","-8","","Freezing Drizzle,Snow,Fog"
"-77.70","53.63","LA GRANDE RIVIERE A","7093716","2021-01-13 07:00","2021","01","13","07:00","-4.3","","-4.9","","96","","","","15","","5","","4.0","","97.56","","","","-6","","Freezing Drizzle,Fog"
"-77.70","53.63","LA GRANDE RIVIERE A","7093716","2021-01-13 08:00","2021","01","13","08:00","-4.3","","-4.9","","96","","","","16","","7","","4.0","","97.55","","","","-7","","Freezing Drizzle,Fog"
"-77.70","53.63","LA GRANDE RIVIERE A","7093716","2021-01-13 09:00","2021","01","13","09:00","-4.5","","-5.1","","95","","","","16","","7","","19.3","","97.57","","","","-8","","Snow"
"-77.70","53.63","LA GRANDE RIVIERE A","7093716","2021-01-13 10:00","2021","01","13","10:00","-4.5","","-5.1","","95","","","","20","","6","","12.9","","97.58","","","","-7","","Snow"
"-77.70","53.63","LA GRANDE RIVIERE A","7093716","2021-01-13 11:00","2021","01","13","11:00","-4.2","","-4.8","","96","","","","19","","7","","12.9","","97.57","","","","-7","","Snow"
"-77.70","53.63","LA GRANDE RIVIERE A","7093716","2021-01-13 12:00","2021","01","13","12:00","-4.2","","-4.9","","95","","","","20","","6","","12.9","","97.51","","","","-7","","Snow"
"-77.70","53.63","LA GRANDE RIVIERE A","7093716","2021-01-13 13:00","2021","01","13","13:00","-4.2","","-4.9","","95","","","","29","","5","","12.9","","97.53","","","","-6","","Snow"
"-77.70","53.63","LA GRANDE RIVIERE A","7093716","2021-01-13 14:00","2021","01","13","14:00","-4.1","","-4.7","","95","","","","36","","2","","19.3","","97.55","","","","-5","","Snow"
"-77.70","53.63","LA GRANDE RIVIERE A","7093716","2021-01-13 15:00","2021","01","13","15:00","-4.1","","-4.9","","94","","","","5","","4","","19.3","","97.60","","","","-6","","Snow"
"-77.70","53.63","LA GRANDE RIVIERE A","7093716","2021-01-13 16:00","2021","01","13","16:00","-4.1","","-5.1","","93","","","","5","","3","","24.1","","97.66","","","","-5","","Snow"
"-77.70","53.63","LA GRANDE RIVIERE A","7093716","2021-01-13 17:00","2021","01","13","17:00","-4.3","","-5.1","","94","","","","9","","4","","24.1","","97.71","","","","-6","","Snow"
"-77.70","53.63","LA GRANDE RIVIERE A","7093716","2021-01-13 18:00","2021","01","13","18:00","-4.6","","-5.4","","94","","","","27","","3","","24.1","","97.76","","","","-6","","Snow"
"-77.70","53.63","LA GRANDE RIVIERE A","7093716","2021-01-13 19:00","2021","01","13","19:00","-4.3","","-5.1","","95","","","","34","","3","","24.1","","97.80","","","","-6","","Snow"
"-77.70","53.63","LA GRANDE RIVIERE A","7093716","2021-01-13 20:00","2021","01","13","20:00","-4.6","","-5.3","","95","","","","22","","3","","24.1","","97.82","","","","-6","","Snow"
"-77.70","53.63","LA GRANDE RIVIERE A","7093716","2021-01-13 21:00","2021","01","13","21:00","-4.6","","-5.7","","92","","","","36","","2","","24.1","","97.83","","","","-5","","NA"
"-77.70","53.63","LA GRANDE RIVIERE A","7093716","2021-01-13 22:00","2021","01","13","22:00","-4.7","","-5.6","","93","","","","15","","3","","24.1","","97.84","","","","-6","","Cloudy"
"-77.70","53.63","LA GRANDE RIVIERE A","7093716","2021-01-13 23:00","2021","01","13","23:00","-4.5","","-5.8","","90","","","","32","","6","","24.1","","97.90","","","","-7","","NA"
"-77.70","53.63","LA GRANDE RIVIERE A","7093716","2021-01-14 00:00","2021","01","14","00:00","-4.8","","-5.8","","93","","","","24","","5","","24.1","","97.93","","","","-7","","NA"
"-77.70","53.63","LA GRANDE RIVIERE A","7093716","2021-01-14 01:00","2021","01","14","01:00","-4.6","","-5.8","","91","","","","31","","5","","24.1","","98.01","","","","-7","","Cloudy"
"-77.70","53.63","LA GRANDE RIVIERE A","7093716","2021-01-14 02:00","2021","01","14","02:00","-4.8","","-5.4","","96","","","","28","","6","","11.3","","98.08","","","","-8","","NA"
"-77.70","53.63","LA GRANDE RIVIERE A","7093716","2021-01-14 03:00","2021","01","14","03:00","-5.3","","-6.0","","95","","","","27","","11","","11.3","","98.16","","","","-10","","Freezing Drizzle"
"-77.70","53.63","LA GRANDE RIVIERE A","7093716","2021-01-14 04:00","2021","01","14","04:00","-5.7","","-6.4","","95","","","","27","","9","","11.3","","98.19","","","","-10","","Freezing Drizzle"
"-77.70","53.63","LA GRANDE RIVIERE A","7093716","2021-01-14 05:00","2021","01","14","05:00","-6.0","","-6.8","","95","","","","27","","7","","11.3","","98.23","","","","-9","","Freezing Drizzle"
"-77.70","53.63","LA GRANDE RIVIERE A","7093716","2021-01-14 06:00","2021","01","14","06:00","-6.4","","-7.1","","95","","","","25","","8","","24.1","","98.22","","","","-10","","Freezing Drizzle"
"-77.70","53.63","LA GRANDE RIVIERE A","7093716","2021-01-14 07:00","2021","01","14","07:00","-6.5","","-7.2","","94","","","","24","","6","","16.1","","98.25","","","","-9","","Cloudy"
"-77.70","53.63","LA GRANDE RIVIERE A","7093716","2021-01-14 08:00","2021","01","14","08:00","-6.5","","-7.3","","94","","","","25","","5","","6.4","","98.35","","","","-9","","Freezing Drizzle"
"-77.70","53.63","LA GRANDE RIVIERE A","7093716","2021-01-14 09:00","2021","01","14","09:00","-6.7","","-7.6","","93","","","","26","","10","","8.1","","98.41","","","","-11","","Freezing Drizzle"
"-77.70","53.63","LA GRANDE RIVIERE A","7093716","2021-01-14 10:00","2021","01","14","10:00","-7.0","","-7.9","","93","","","","23","","8","","8.1","","98.46","","","","-11","","Freezing Drizzle"
"-77.70","53.63","LA GRANDE RIVIERE A","7093716","2021-01-14 11:00","2021","01","14","11:00","-7.0","","-7.9","","94","","","","24","","10","","8.1","","98.47","","","","-12","","Freezing Drizzle"
"-77.70","53.63","LA GRANDE RIVIERE A","7093716","2021-01-14 12:00","2021","01","14","12:00","-7.2","","-8.1","","93","","","","25","","12","","8.1","","98.53","","","","-13","","Fog"
"-77.70","53.63","LA GRANDE RIVIERE A","7093716","2021-01-14 13:00","2021","01","14","13:00","-7.2","","-8.1","","93","","","","24","","12","","8.1","","98.51","","","","-13","","Freezing Drizzle,Fog"
"-77.70","53.63","LA GRANDE RIVIERE A","7093716","2021-01-14 14:00","2021","01","14","14:00","-7.5","","-8.5","","93","","","","28","","11","","8.1","","98.58","","","","-13","","Freezing Drizzle,Fog"
"-77.70","53.63","LA GRANDE RIVIERE A","7093716","2021-01-14 15:00","2021","01","14","15:00","-7.5","","-8.7","","91","","","","24","","7","","8.1","","98.63","","","","-11","","Freezing Drizzle,Fog"
"-77.70","53.63","LA GRANDE RIVIERE A","7093716","2021-01-14 16:00","2021","01","14","16:00","-7.6","","-8.5","","93","","","","21","","10","","8.1","","98.70","","","","-12","","Freezing Drizzle,Fog"
"-77.70","53.63","LA GRANDE RIVIERE A","7093716","2021-01-14 17:00","2021","01","14","17:00","-8.2","","-9.1","","94","","","","22","","13","","11.3","","98.77","","","","-14","","NA"
"-77.70","53.63","LA GRANDE RIVIERE A","7093716","2021-01-14 18:00","2021","01","14","18:00","-8.7","","-9.5","","94","","","","21","","10","","8.1","","98.79","","","","-14","","Fog"
"-77.70","53.63","LA GRANDE RIVIERE A","7093716","2021-01-14 19:00","2021","01","14","19:00","-9.0","","-9.9","","93","","","","21","","13","","4.8","","98.82","","","","-15","","Freezing Drizzle,Fog"
"-77.70","53.63","LA GRANDE RIVIERE A","7093716","2021-01-14 20:00","2021","01","14","20:00","-8.8","","-9.6","","94","","","","19","","11","","4.8","","98.85","","","","-14","","Freezing Drizzle,Fog"
"-77.70","53.63","LA GRANDE RIVIERE A","7093716","2021-01-14 21:00","2021","01","14","21:00","-8.6","","-9.5","","94","","","","20","","8","","4.8","","98.91","","","","-13","","Freezing Drizzle,Fog"
"-77.70","53.63","LA GRANDE RIVIERE A","7093716","2021-01-14 22:00","2021","01","14","22:00","-8.3","","-9.2","","94","","","","21","","7","","4.8","","98.89","","","","-12","","Freezing Drizzle,Fog"
"-77.70","53.63","LA GRANDE RIVIERE A","7093716","2021-01-14 23:00","2021","01","14","23:00","-8.1","","-8.9","","94","","","","20","","14","","3.2","","98.91","","","","-14","","Freezing Drizzle,Fog"
"-77.70","53.63","LA GRANDE RIVIERE A","7093716","2021-01-15 00:00","2021","01","15","00:00","-8.2","","-9.0","","94","","","","23","","15","","2.4","","98.95","","","","-15","","Freezing Drizzle,Fog"
"-77.70","53.63","LA GRANDE RIVIERE A","7093716","2021-01-15 01:00","2021","01","15","01:00","-8.1","","-8.9","","94","","","","22","","12","","2.4","","98.97","","","","-14","","Freezing Drizzle,Fog"
"-77.70","53.63","LA GRANDE RIVIERE A","7093716","2021-01-15 02:00","2021","01","15","02:00","-7.9","","-8.8","","94","","","","24","","12","","2.4","","99.04","","","","-13","","Freezing Drizzle,Fog"
"-77.70","53.63","LA GRANDE RIVIERE A","7093716","2021-01-15 03:00","2021","01","15","03:00","-7.8","","-8.7","","94","","","","17","","5","","2.4","","99.11","","","","-10","","Freezing Drizzle,Fog"
"-77.70","53.63","LA GRANDE RIVIERE A","7093716","2021-01-15 04:00","2021","01","15","04:00","-7.7","","-8.6","","94","","","","17","","8","","8.1","","99.10","","","","-12","","Freezing Drizzle,Fog"
"-77.70","53.63","LA GRANDE RIVIERE A","7093716","2021-01-15 05:00","2021","01","15","05:00","-7.5","","-8.4","","94","","","","18","","10","","4.8","","99.10","","","","-12","","Freezing Drizzle,Fog"
"-77.70","53.63","LA GRANDE RIVIERE A","7093716","2021-01-15 06:00","2021","01","15","06:00","-7.6","","-8.4","","93","","","","18","","10","","6.4","","99.08","","","","-12","","Freezing Drizzle,Fog"
"-77.70","53.63","LA GRANDE RIVIERE A","7093716","2021-01-15 07:00","2021","01","15","07:00","-7.8","","-8.8","","93","","","","15","","12","","11.3","","99.06","","","","-13","","Freezing Drizzle"
"-77.70","53.63","LA GRANDE RIVIERE A","7093716","2021-01-15 08:00","2021","01","15","08:00","-8.9","","-9.9","","92","","","","17","","11","","4.8","","99.08","","","","-14","","Freezing Drizzle,Fog"
"-77.70","53.63","LA GRANDE RIVIERE A","7093716","2021-01-15 09:00","2021","01","15","09:00","-9.1","","-10.1","","93","","","","17","","9","","3.2","","99.14","","","","-14","","Freezing Drizzle,Fog"
"-77.70","53.63","LA GRANDE RIVIERE A","7093716","2021-01-15 10:00","2021","01","15","10:00","-8.4","","-9.3","","93","","","","17","","9","","3.2","","99.10","","","","-13","","Freezing Drizzle,Fog"
"-77.70","53.63","LA GRANDE RIVIERE A","7093716","2021-01-15 11:00","2021","01","15","11:00","-7.6","","-8.5","","93","","","","19","","16","","3.2","","99.04","","","","-14","","Freezing Drizzle,Fog"
"-77.70","53.63","LA GRANDE RIVIERE A","7093716","2021-01-15 12:00","2021","01","15","12:00","-6.7","","-7.6","","94","","","","20","","17","","6.4","","98.97","","","","-13","","Fog"
"-77.70","53.63","LA GRANDE RIVIERE A","7093716","2021-01-15 13:00","2021","01","15","13:00","-6.2","","-7.1","","94","","","","21","","16","","6.4","","98.91","","","","-12","","Fog"
"-77.70","53.63","LA GRANDE RIVIERE A","7093716","2021-01-15 14:00","2021","01","15","14:00","-5.5","","-6.2","","94","","","","22","","13","","4.0","","98.84","","","","-11","","Snow"
"-77.70","53.63","LA GRANDE RIVIERE A","7093716","2021-01-15 15:00","2021","01","15","15:00","-5.1","","-5.8","","94","","","","18","","8","","8.1","","98.79","","","","-9","","Snow"
"-77.70","53.63","LA GRANDE RIVIERE A","7093716","2021-01-15 16:00","2021","01","15","16:00","-4.9","","-5.6","","95","","","","16","","7","","24.1","","98.79","","","","-8","","Snow"
"-77.70","53.63","LA GRANDE RIVIERE A","7093716","2021-01-15 17:00","2021","01","15","17:00","-4.7","","-5.4","","95","","","","15","","10","","8.1","","98.77","","","","-9","","Snow"
"-77.70","53.63","LA GRANDE RIVIERE A","7093716","2021-01-15 18:00","2021","01","15","18:00","-4.2","","-4.9","","95","","","","17","","10","","6.4","","98.72","","","","-8","","Snow"
"-77.70","53.63","LA GRANDE RIVIERE A","7093716","2021-01-15 19:00","2021","01","15","19:00","-4.0","","-4.6","","95","","","","18","","13","","11.3","","98.70","","","","-9","","Snow"
"-77.70","53.63","LA GRANDE RIVIERE A","7093716","2021-01-15 20:00","2021","01","15","20:00","-3.8","","-4.4","","96","","","","18","","13","","12.9","","98.63","","","","-9","","Snow"
"-77.70","53.63","LA GRANDE RIVIERE A","7093716","2021-01-15 21:00","2021","01","15","21:00","-3.6","","-4.1","","96","","","","19","","13","","12.9","","98.58","","","","-8","","Snow"
"-77.70","53.63","LA GRANDE RIVIERE A","7093716","2021-01-15 22:00","2021","01","15","22:00","-3.2","","-3.7","","96","","","","21","","13","","11.3","","98.56","","","","-8","","Snow"
"-77.70","53.63","LA GRANDE RIVIERE A","7093716","2021-01-15 23:00","2021","01","15","23:00","-3.1","","-3.7","","96","","","","23","","16","","4.8","","98.54","","","","-8","","Snow"
"-77.70","53.63","LA GRANDE RIVIERE A","7093716","2021-01-16 00:00","2021","01","16","00:00","-3.7","","-4.4","","95","","","","26","","16","","12.9","","98.52","","","","-9","","Snow"
"-77.70","53.63","LA GRANDE RIVIERE A","7093716","2021-01-16 01:00","2021","01","16","01:00","-4.5","","-5.5","","93","","","","24","","10","","24.1","","98.53","","","","-9","","Snow"
"-77.70","53.63","LA GRANDE RIVIERE A","7093716","2021-01-16 02:00","2021","01","16","02:00","-4.8","","-5.6","","94","","","","25","","8","","24.1","","98.56","","","","-8","","Snow"
"-77.70","53.63","LA GRANDE RIVIERE A","7093716","2021-01-16 03:00","2021","01","16","03:00","-5.0","","-5.8","","94","","","","25","","9","","24.1","","98.56","","","","-9","","Snow"
"-77.70","53.63","LA GRANDE RIVIERE A","7093716","2021-01-16 04:00","2021","01","16","04:00","-5.2","","-6.0","","95","","","","27","","15","","6.4","","98.53","","","","-11","","Snow"
"-77.70","53.63","LA GRANDE RIVIERE A","7093716","2021-01-16 05:00","2021","01","16","05:00","-7.2","","-7.9","","94","","","","30","","8","","2.4","","98.56","","","","-11","","Freezing Drizzle,Snow,Fog"
"-77.70","53.63","LA GRANDE RIVIERE A","7093716","2021-01-16 06:00","2021","01","16","06:00","-8.6","","-9.6","","92","","","","32","","9","","24.1","","98.62","","","","-13","","Freezing Drizzle"
"-77.70","53.63","LA GRANDE RIVIERE A","7093716","2021-01-16 07:00","2021","01","16","07:00","-9.7","","-10.9","","91","","","","34","","10","","24.1","","98.66","","","","-15","","Cloudy"
"-77.70","53.63","LA GRANDE RIVIERE A","7093716","2021-01-16 08:00","2021","01","16","08:00","-11.2","","-12.7","","89","","","","34","","7","","24.1","","98.65","","","","-15","","NA"
"-77.70","53.63","LA GRANDE RIVIERE A","7093716","2021-01-16 09:00","2021","01","16","09:00","-12.8","","-14.3","","88","","","","1","","7","","24.1","","98.70","","","","-17","","NA"
"-77.70","53.63","LA GRANDE RIVIERE A","7093716","2021-01-16 10:00","2021","01","16","10:00","-12.9","","-14.5","","88","","","","36","","8","","24.1","","98.65","","","","-18","","Mostly Cloudy"
"-77.70","53.63","LA GRANDE RIVIERE A","7093716","2021-01-16 11:00","2021","01","16","11:00","-13.1","","-14.7","","88","","","","1","","9","","24.1","","98.71","","","","-19","","NA"
"-77.70","53.63","LA GRANDE RIVIERE A","7093716","2021-01-16 12:00","2021","01","16","12:00","-12.2","","-14.0","","87","","","","36","","10","","24.1","","98.71","","","","-18","","NA"
"-77.70","53.63","LA GRANDE RIVIERE A","7093716","2021-01-16 13:00","2021","01","16","13:00","-12.2","","-14.1","","87","","","","1","","9","","24.1","","98.69","","","","-17","","Mostly Cloudy"
"-77.70","53.63","LA GRANDE RIVIERE A","7093716","2021-01-16 14:00","2021","01","16","14:00","-12.2","","-14.1","","86","","","","1","","9","","24.1","","98.63","","","","-17","","NA"
"-77.70","53.63","LA GRANDE RIVIERE A","7093716","2021-01-16 15:00","2021","01","16","15:00","-12.4","","-14.3","","86","","","","2","","9","","24.1","","98.54","","","","-18","","NA"
"-77.70","53.63","LA GRANDE RIVIERE A","7093716","2021-01-16 16:00","2021","01","16","16:00","-13.5","","-15.3","","86","","","","1","","10","","24.1","","98.59","","","","-19","","Ice Crystals"
"-77.70","53.63","LA GRANDE RIVIERE A","7093716","2021-01-16 17:00","2021","01","16","17:00","-15.0","","-16.9","","86","","","","2","","13","","24.1","","98.58","","","","-22","","Ice Crystals"
"-77.70","53.63","LA GRANDE RIVIERE A","7093716","2021-01-16 18:00","2021","01","16","18:00","-15.7","","-17.5","","86","","","","3","","12","","24.1","","98.58","","","","-23","","Ice Crystals"
"-77.70","53.63","LA GRANDE RIVIERE A","7093716","2021-01-16 19:00","2021","01","16","19:00","-16.3","","-18.2","","86","","","","4","","12","","24.1","","98.59","","","","-24","","Ice Crystals"
"-77.70","53.63","LA GRANDE RIVIERE A","7093716","2021-01-16 20:00","2021","01","16","20:00","-16.6","","-18.5","","85","","","","3","","13","","24.1","","98.48","","","","-24","","NA"
"-77.70","53.63","LA GRANDE RIVIERE A","7093716","2021-01-16 21:00","2021","01","16","21:00","-16.8","","-18.8","","85","","","","3","","12","","24.1","","98.39","","","","-24","","NA"
"-77.70","53.63","LA GRANDE RIVIERE A","7093716","2021-01-16 22:00","2021","01","16","22:00","-17.1","","-19.1","","84","","","","4","","13","","24.1","","98.36","","","","-25","","Mainly Clear"
"-77.70","53.63","LA GRANDE RIVIERE A","7093716","2021-01-16 23:00","2021","01","16","23:00","-17.4","","-19.5","","84","","","","2","","18","","24.1","","98.31","","","","-27","","NA"
"-77.70","53.63","LA GRANDE RIVIERE A","7093716","2021-01-17 00:00","2021","01","17","00:00","-18.0","","-20.1","","84","","","","3","","12","","24.1","","98.25","","","","-26","","NA"
"-77.70","53.63","LA GRANDE RIVIERE A","7093716","2021-01-17 01:00","2021","01","17","01:00","-18.3","","-20.5","","83","","","","2","","14","","24.1","","98.19","","","","-27","","Mainly Clear"
"-77.70","53.63","LA GRANDE RIVIERE A","7093716","2021-01-17 02:00","2021","01","17","02:00","-18.6","","-20.8","","83","","","","2","","7","","24.1","","98.16","","","","-24","","NA"
"-77.70","53.63","LA GRANDE RIVIERE A","7093716","2021-01-17 03:00","2021","01","17","03:00","-19.0","","-21.2","","83","","","","2","","13","","24.1","","98.13","","","","-27","","NA"
"-77.70","53.63","LA GRANDE RIVIERE A","7093716","2021-01-17 04:00","2021","01","17","04:00","-19.3","","-21.6","","82","","","","1","","15","","24.1","","98.12","","","","-28","","Mainly Clear"
"-77.70","53.63","LA GRANDE RIVIERE A","7093716","2021-01-17 05:00","2021","01","17","05:00","-19.8","","-22.1","","82","","","","2","","13","","24.1","","98.08","","","","-28","","NA"
"-77.70","53.63","LA GRANDE RIVIERE A","7093716","2021-01-17 06:00","2021","01","17","06:00","-19.8","","-22.1","","82","","","","2","","11","","24.1","","98.02","","","","-27","","NA"
"-77.70","53.63","LA GRANDE RIVIERE A","7093716","2021-01-17 07:00","2021","01","17","07:00","-19.8","","-22.1","","82","","","","1","","10","","24.1","","97.99","","","","-27","","Mainly Clear"
"-77.70","53.63","LA GRANDE RIVIERE A","7093716","2021-01-17 08:00","2021","01","17","08:00","-20.0","","-22.5","","81","","","","36","","12","","24.1","","98.02","","","","-28","","NA"
"-77.70","53.63","LA GRANDE RIVIERE A","7093716","2021-01-17 09:00","2021","01","17","09:00","-19.5","","-21.9","","81","","","","36","","12","","24.1","","97.99","","","","-27","","NA"
"-77.70","53.63","LA GRANDE RIVIERE A","7093716","2021-01-17 10:00","2021","01","17","10:00","-18.4","","-20.8","","82","","","","36","","12","","24.1","","97.98","","","","-26","","Mostly Cloudy"
"-77.70","53.63","LA GRANDE RIVIERE A","7093716","2021-01-17 11:00","2021","01","17","11:00","-17.6","","-20.0","","82","","","","35","","11","","24.1","","97.92","","","","-25","","NA"
"-77.70","53.63","LA GRANDE RIVIERE A","7093716","2021-01-17 12:00","2021","01","17","12:00","-16.8","","-19.3","","82","","","","35","","16","","24.1","","97.85","","","","-25","","NA"
"-77.70","53.63","LA GRANDE RIVIERE A","7093716","2021-01-17 13:00","2021","01","17","13:00","-15.5","","-18.5","","78","","","","35","","17","","24.1","","97.85","","","","-24","","Mostly Cloudy"
"-77.70","53.63","LA GRANDE RIVIERE A","7093716","2021-01-17 14:00","2021","01","17","14:00","-15.0","","-18.2","","77","","","","34","","21","","24.1","","97.85","","","","-24","","NA"
"-77.70","53.63","LA GRANDE RIVIERE A","7093716","2021-01-17 15:00","2021","01","17","15:00","-15.3","","-18.5","","77","","","","34","","18","","24.1","","97.86","","","","-24","","NA"
"-77.70","53.63","LA GRANDE RIVIERE A","7093716","2021-01-17 16:00","2021","01","17","16:00","-17.0","","-19.8","","79","","","","33","","16","","24.1","","97.95","","","","-26","","Mostly Cloudy"
"-77.70","53.63","LA GRANDE RIVIERE A","7093716","2021-01-17 17:00","2021","01","17","17:00","-17.6","","-20.3","","80","","","","33","","15","","24.1","","97.96","","","","-26","","NA"
"-77.70","53.63","LA GRANDE RIVIERE A","7093716","2021-01-17 18:00","2021","01","17","18:00","-17.7","","-20.6","","78","","","","33","","12","","24.1","","97.98","","","","-25","","NA"
"-77.70","53.63","LA GRANDE RIVIERE A","7093716","2021-01-17 19:00","2021","01","17","19:00","-18.3","","-21.3","","78","","","","33","","17","","24.1","","98.01","","","","-28","","Mostly Cloudy"
"-77.70","53.63","LA GRANDE RIVIERE A","7093716","2021-01-17 20:00","2021","01","17","20:00","-19.1","","-21.9","","79","","","","32","","13","","24.1","","98.03","","","","-27","","NA"
"-77.70","53.63","LA GRANDE RIVIERE A","7093716","2021-01-17 21:00","2021","01","17","21:00","-19.7","","-22.5","","79","","","","32","","16","","24.1","","98.04","","","","-29","","NA"
"-77.70","53.63","LA GRANDE RIVIERE A","7093716","2021-01-17 22:00","2021","01","17","22:00","-19.9","","-22.6","","79","","","","32","","16","","24.1","","98.02","","","","-29","","Mainly Clear"
"-77.70","53.63","LA GRANDE RIVIERE A","7093716","2021-01-17 23:00","2021","01","17","23:00","-20.0","","-22.7","","79","","","","32","","17","","24.1","","98.04","","","","-30","","NA"
"-77.70","53.63","LA GRANDE RIVIERE A","7093716","2021-01-18 00:00","2021","01","18","00:00","-20.2","","-23.1","","78","","","","32","","15","","24.1","","98.04","","","","-29","","NA"
"-77.70","53.63","LA GRANDE RIVIERE A","7093716","2021-01-18 01:00","2021","01","18","01:00","-20.9","","-23.6","","79","","","","33","","14","","24.1","","98.06","","","","-30","","Clear"
"-77.70","53.63","LA GRANDE RIVIERE A","7093716","2021-01-18 02:00","2021","01","18","02:00","-21.8","","-24.4","","80","","","","31","","13","","24.1","","98.10","","","","-31","","NA"
"-77.70","53.63","LA GRANDE RIVIERE A","7093716","2021-01-18 03:00","2021","01","18","03:00","-22.0","","-24.6","","80","","","","31","","13","","24.1","","98.14","","","","-31","","NA"
"-77.70","53.63","LA GRANDE RIVIERE A","7093716","2021-01-18 04:00","2021","01","18","04:00","-22.6","","-25.2","","79","","","","32","","14","","24.1","","98.19","","","","-32","","Clear"
"-77.70","53.63","LA GRANDE RIVIERE A","7093716","2021-01-18 05:00","2021","01","18","05:00","-23.3","","-25.9","","79","","","","32","","14","","24.1","","98.21","","","","-33","","NA"
"-77.70","53.63","LA GRANDE RIVIERE A","7093716","2021-01-18 06:00","2021","01","18","06:00","-23.8","","-26.4","","80","","","","32","","14","","24.1","","98.26","","","","-33","","NA"
"-77.70","53.63","LA GRANDE RIVIERE A","7093716","2021-01-18 07:00","2021","01","18","07:00","-24.4","","-26.9","","80","","","","31","","15","","24.1","","98.29","","","","-35","","Clear"
"-77.70","53.63","LA GRANDE RIVIERE A","7093716","2021-01-18 08:00","2021","01","18","08:00","-25.0","","-27.4","","80","","","","31","","15","","24.1","","98.30","","","","-35","","NA"
"-77.70","53.63","LA GRANDE RIVIERE A","7093716","2021-01-18 09:00","2021","01","18","09:00","-25.0","","-27.3","","81","","","","31","","19","","24.1","","98.31","","","","-37","","NA"
"-77.70","53.63","LA GRANDE RIVIERE A","7093716","2021-01-18 10:00","2021","01","18","10:00","-24.4","","-26.8","","81","","","","30","","21","","24.1","","98.35","","","","-36","","Mostly Cloudy"
"-77.70","53.63","LA GRANDE RIVIERE A","7093716","2021-01-18 11:00","2021","01","18","11:00","-23.1","","-25.6","","80","","","","30","","20","","24.1","","98.33","","","","-34","","NA"
"-77.70","53.63","LA GRANDE RIVIERE A","7093716","2021-01-18 12:00","2021","01","18","12:00","-22.8","","-25.4","","79","","","","29","","23","","24.1","","98.35","","","","-35","","NA"
"-77.70","53.63","LA GRANDE RIVIERE A","7093716","2021-01-18 13:00","2021","01","18","13:00","-22.9","","-25.5","","80","","","","30","","22","","24.1","","98.39","","","","-35","","Mainly Clear"
"-77.70","53.63","LA GRANDE RIVIERE A","7093716","2021-01-18 14:00","2021","01","18","14:00","-22.5","","-25.1","","80","","","","30","","17","","24.1","","98.42","","","","-33","","Ice Crystals"
"-77.70","53.63","LA GRANDE RIVIERE A","7093716","2021-01-18 15:00","2021","01","18","15:00","-22.5","","-25.0","","80","","","","31","","17","","24.1","","98.49","","","","-33","","Ice Crystals"
"-77.70","53.63","LA GRANDE RIVIERE A","7093716","2021-01-18 16:00","2021","01","18","16:00","-22.6","","-25.1","","81","","","","30","","20","","24.1","","98.58","","","","-34","","Ice Crystals"
"-77.70","53.63","LA GRANDE RIVIERE A","7093716","2021-01-18 17:00","2021","01","18","17:00","-22.9","","-25.3","","81","","","","30","","18","","24.1","","98.65","","","","-34","","Ice Crystals"
"-77.70","53.63","LA GRANDE RIVIERE A","7093716","2021-01-18 18:00","2021","01","18","18:00","-23.3","","-25.9","","80","","","","31","","13","","24.1","","98.68","","","","-32","","Ice Crystals"
"-77.70","53.63","LA GRANDE RIVIERE A","7093716","2021-01-18 19:00","2021","01","18","19:00","-23.2","","-25.6","","81","","","","30","","17","","24.1","","98.69","","","","-34","","Ice Crystals"
"-77.70","53.63","LA GRANDE RIVIERE A","7093716","2021-01-18 20:00","2021","01","18","20:00","-23.3","","-25.8","","81","","","","30","","20","","24.1","","98.73","","","","-35","","NA"
"-77.70","53.63","LA GRANDE RIVIERE A","7093716","2021-01-18 21:00","2021","01","18","21:00","-23.5","","-25.9","","81","","","","29","","19","","24.1","","98.79","","","","-35","","Ice Crystals"
"-77.70","53.63","LA GRANDE RIVIERE A","7093716","2021-01-18 22:00","2021","01","18","22:00","-23.9","","-26.2","","82","","","","29","","12","","24.1","","98.80","","","","-33","","Snow"
"-77.70","53.63","LA GRANDE RIVIERE A","7093716","2021-01-18 23:00","2021","01","18","23:00","-24.8","","-27.0","","82","","","","29","","15","","24.1","","98.86","","","","-35","","Snow"
"-77.70","53.63","LA GRANDE RIVIERE A","7093716","2021-01-19 00:00","2021","01","19","00:00","-24.9","","-27.1","","82","","","","30","","11","","24.1","","98.89","","","","-34","","Snow"
"-77.70","53.63","LA GRANDE RIVIERE A","7093716","2021-01-19 01:00","2021","01","19","01:00","-24.8","","-26.9","","83","","","","29","","13","","24.1","","98.90","","","","-34","","Snow"
"-77.70","53.63","LA GRANDE RIVIERE A","7093716","2021-01-19 02:00","2021","01","19","02:00","-24.5","","-26.7","","83","","","","28","","18","","24.1","","98.92","","","","-36","","Snow"
"-77.70","53.63","LA GRANDE RIVIERE A","7093716","2021-01-19 03:00","2021","01","19","03:00","-24.5","","-26.6","","83","","","","28","","21","","24.1","","98.95","","","","-36","","Snow"
"-77.70","53.63","LA GRANDE RIVIERE A","7093716","2021-01-19 04:00","2021","01","19","04:00","-25.8","","-28.1","","81","","","","28","","17","","24.1","","98.97","","","","-37","","Snow"
"-77.70","53.63","LA GRANDE RIVIERE A","7093716","2021-01-19 05:00","2021","01","19","05:00","-26.2","","-28.6","","81","","","","26","","10","","24.1","","98.97","","","","-35","","NA"
"-77.70","53.63","LA GRANDE RIVIERE A","7093716","2021-01-19 06:00","2021","01","19","06:00","-25.7","","-28.0","","82","","","","27","","13","","24.1","","99.01","","","","-35","","NA"
"-77.70","53.63","LA GRANDE RIVIERE A","7093716","2021-01-19 07:00","2021","01","19","07:00","-25.4","","-27.5","","83","","","","28","","14","","11.3","","99.05","","","","-35","","Snow"
"-77.70","53.63","LA GRANDE RIVIERE A","7093716","2021-01-19 08:00","2021","01","19","08:00","-25.2","","-27.4","","83","","","","27","","12","","1.6","","99.07","","","","-34","","Snow,Fog"
"-77.70","53.63","LA GRANDE RIVIERE A","7093716","2021-01-19 09:00","2021","01","19","09:00","-24.9","","-27.3","","81","","","","26","","8","","2.0","","99.10","","","","-32","","Fog"
"-77.70","53.63","LA GRANDE RIVIERE A","7093716","2021-01-19 10:00","2021","01","19","10:00","-24.3","","-27.0","","79","","","","25","","8","","2.4","","99.12","","","","-31","","Fog"
"-77.70","53.63","LA GRANDE RIVIERE A","7093716","2021-01-19 11:00","2021","01","19","11:00","-23.6","","-26.2","","79","","","","24","","10","","3.2","","99.12","","","","-32","","Fog"
"-77.70","53.63","LA GRANDE RIVIERE A","7093716","2021-01-19 12:00","2021","01","19","12:00","-22.9","","-25.5","","80","","","","22","","10","","4.0","","99.08","","","","-31","","Fog"
"-77.70","53.63","LA GRANDE RIVIERE A","7093716","2021-01-19 13:00","2021","01","19","13:00","-22.1","","-24.6","","80","","","","26","","9","","16.1","","99.07","","","","-29","","Cloudy"
"-77.70","53.63","LA GRANDE RIVIERE A","7093716","2021-01-19 14:00","2021","01","19","14:00","-22.1","","-24.6","","80","","","","28","","12","","24.1","","99.07","","","","-31","","NA"
"-77.70","53.63","LA GRANDE RIVIERE A","7093716","2021-01-19 15:00","2021","01","19","15:00","-21.9","","-24.4","","81","","","","28","","13","","24.1","","99.10","","","","-31","","NA"
"-77.70","53.63","LA GRANDE RIVIERE A","7093716","2021-01-19 16:00","2021","01","19","16:00","-21.9","","-24.4","","81","","","","29","","9","","24.1","","99.13","","","","-29","","Cloudy"
"-77.70","53.63","LA GRANDE RIVIERE A","7093716","2021-01-19 17:00","2021","01","19","17:00","-21.5","","-23.9","","81","","","","25","","4","","8.1","","99.14","","","","-25","","Snow"
"-77.70","53.63","LA GRANDE RIVIERE A","7093716","2021-01-19 18:00","2021","01","19","18:00","-21.5","","-24.0","","81","","","","33","","4","","24.1","","99.14","","","","-25","","Snow"
"-77.70","53.63","LA GRANDE RIVIERE A","7093716","2021-01-19 19:00","2021","01","19","19:00","-22.2","","-24.7","","80","","","","7","","5","","12.9","","99.12","","","","-27","","Snow"
"-77.70","53.63","LA GRANDE RIVIERE A","7093716","2021-01-19 20:00","2021","01","19","20:00","-23.9","","-26.5","","79","","","","11","","9","","24.1","","99.11","","","","-31","","Snow"
"-77.70","53.63","LA GRANDE RIVIERE A","7093716","2021-01-19 21:00","2021","01","19","21:00","-22.9","","-25.4","","80","","","","10","","5","","24.1","","99.09","","","","-28","","Snow"
"-77.70","53.63","LA GRANDE RIVIERE A","7093716","2021-01-19 22:00","2021","01","19","22:00","-24.1","","-26.7","","79","","","","12","","10","","24.1","","99.08","","","","-32","","Snow"
"-77.70","53.63","LA GRANDE RIVIERE A","7093716","2021-01-19 23:00","2021","01","19","23:00","-23.4","","-26.0","","80","","","","17","","12","","24.1","","99.07","","","","-32","","Snow"
"-77.70","53.63","LA GRANDE RIVIERE A","7093716","2021-01-20 00:00","2021","01","20","00:00","-23.6","","-26.2","","79","","","","16","","15","","24.1","","99.04","","","","-34","","Snow"
"-77.70","53.63","LA GRANDE RIVIERE A","7093716","2021-01-20 01:00","2021","01","20","01:00","-25.0","","-27.8","","78","","","","36","","1","","24.1","","99.05","","","","-26","","Snow"
"-77.70","53.63","LA GRANDE RIVIERE A","7093716","2021-01-20 02:00","2021","01","20","02:00","-23.5","","-26.1","","79","","","","17","","12","","24.1","","99.07","","","","-32","","Snow"
"-77.70","53.63","LA GRANDE RIVIERE A","7093716","2021-01-20 03:00","2021","01","20","03:00","-23.3","","-25.9","","80","","","","15","","11","","24.1","","99.06","","","","-32","","Snow"
"-77.70","53.63","LA GRANDE RIVIERE A","7093716","2021-01-20 04:00","2021","01","20","04:00","-23.5","","-26.1","","79","","","","13","","8","","24.1","","99.07","","","","-30","","Snow"
"-77.70","53.63","LA GRANDE RIVIERE A","7093716","2021-01-20 05:00","2021","01","20","05:00","-23.6","","-26.2","","79","","","","16","","9","","24.1","","99.07","","","","-31","","Snow"
"-77.70","53.63","LA GRANDE RIVIERE A","7093716","2021-01-20 06:00","2021","01","20","06:00","-23.6","","-26.2","","79","","","","17","","9","","24.1","","99.07","","","","-31","","Snow"
"-77.70","53.63","LA GRANDE RIVIERE A","7093716","2021-01-20 07:00","2021","01","20","07:00","-23.9","","-26.5","","79","","","","12","","12","","24.1","","99.07","","","","-33","","Snow"
"-77.70","53.63","LA GRANDE RIVIERE A","7093716","2021-01-20 08:00","2021","01","20","08:00","-23.7","","-26.3","","79","","","","14","","10","","24.1","","99.10","","","","-32","","Snow"
"-77.70","53.63","LA GRANDE RIVIERE A","7093716","2021-01-20 09:00","2021","01","20","09:00","-23.6","","-26.2","","79","","","","14","","9","","24.1","","99.10","","","","-31","","Snow"
"-77.70","53.63","LA GRANDE RIVIERE A","7093716","2021-01-20 10:00","2021","01","20","10:00","-23.1","","-25.7","","80","","","","15","","12","","24.1","","99.11","","","","-32","","Snow"
"-77.70","53.63","LA GRANDE RIVIERE A","7093716","2021-01-20 11:00","2021","01","20","11:00","-22.5","","-25.0","","80","","","","15","","11","","24.1","","99.07","","","","-31","","NA"
"-77.70","53.63","LA GRANDE RIVIERE A","7093716","2021-01-20 12:00","2021","01","20","12:00","-21.4","","-23.9","","81","","","","16","","15","","24.1","","98.99","","","","-31","","Snow"
"-77.70","53.63","LA GRANDE RIVIERE A","7093716","2021-01-20 13:00","2021","01","20","13:00","-21.6","","-24.1","","81","","","","16","","16","","24.1","","98.93","","","","-31","","Snow"
"-77.70","53.63","LA GRANDE RIVIERE A","7093716","2021-01-20 14:00","2021","01","20","14:00","-21.6","","-24.1","","81","","","","15","","21","","8.1","","98.87","","","","-33","","Snow"
"-77.70","53.63","LA GRANDE RIVIERE A","7093716","2021-01-20 15:00","2021","01","20","15:00","-21.9","","-24.4","","81","","","","15","","18","","24.1","","98.83","","","","-32","","Snow"
"-77.70","53.63","LA GRANDE RIVIERE A","7093716","2021-01-20 16:00","2021","01","20","16:00","-22.1","","-24.6","","80","","","","14","","17","","24.1","","98.83","","","","-32","","Snow"
"-77.70","53.63","LA GRANDE RIVIERE A","7093716","2021-01-20 17:00","2021","01","20","17:00","-23.4","","-25.9","","80","","","","13","","12","","24.1","","98.77","","","","-32","","NA"
"-77.70","53.63","LA GRANDE RIVIERE A","7093716","2021-01-20 18:00","2021","01","20","18:00","-24.2","","-26.8","","79","","","","11","","19","","24.1","","98.65","","","","-36","","NA"
"-77.70","53.63","LA GRANDE RIVIERE A","7093716","2021-01-20 19:00","2021","01","20","19:00","-24.2","","-26.9","","79","","","","12","","24","","16.1","","98.54","","","","-37","","Ice Crystals"
"-77.70","53.63","LA GRANDE RIVIERE A","7093716","2021-01-20 20:00","2021","01","20","20:00","-24.0","","-26.6","","79","","","","12","","18","","16.1","","98.49","","","","-35","","Ice Crystals"
"-77.70","53.63","LA GRANDE RIVIERE A","7093716","2021-01-20 21:00","2021","01","20","21:00","-23.5","","-26.1","","80","","","","12","","23","","16.1","","98.45","","","","-36","","Ice Crystals"
"-77.70","53.63","LA GRANDE RIVIERE A","7093716","2021-01-20 22:00","2021","01","20","22:00","-23.8","","-26.4","","79","","","","11","","25","","24.1","","98.36","","","","-36","","Ice Crystals"
"-77.70","53.63","LA GRANDE RIVIERE A","7093716","2021-01-20 23:00","2021","01","20","23:00","-23.5","","-26.1","","79","","","","12","","26","","24.1","","98.30","","","","-36","","NA"
"-77.70","53.63","LA GRANDE RIVIERE A","7093716","2021-01-21 00:00","2021","01","21","00:00","-23.8","","-26.4","","79","","","","11","","25","","24.1","","98.19","","","","-36","","NA"
"-77.70","53.63","LA GRANDE RIVIERE A","7093716","2021-01-21 01:00","2021","01","21","01:00","-23.9","","-26.6","","79","","","","11","","24","","24.1","","98.15","","","","-36","","Mostly Cloudy"
"-77.70","53.63","LA GRANDE RIVIERE A","7093716","2021-01-21 02:00","2021","01","21","02:00","-24.2","","-26.9","","79","","","","10","","27","","24.1","","98.06","","","","-37","","NA"
"-77.70","53.63","LA GRANDE RIVIERE A","7093716","2021-01-21 03:00","2021","01","21","03:00","-24.2","","-26.9","","79","","","","11","","30","","24.1","","97.98","","","","-38","","NA"
"-77.70","53.63","LA GRANDE RIVIERE A","7093716","2021-01-21 04:00","2021","01","21","04:00","-23.7","","-26.3","","79","","","","10","","27","","24.1","","97.91","","","","-37","","Mainly Clear"
"-77.70","53.63","LA GRANDE RIVIERE A","7093716","2021-01-21 05:00","2021","01","21","05:00","-23.3","","-25.9","","80","","","","9","","30","","24.1","","97.83","","","","-37","","NA"
"-77.70","53.63","LA GRANDE RIVIERE A","7093716","2021-01-21 06:00","2021","01","21","06:00","-22.8","","-25.4","","80","","","","10","","32","","24.1","","97.78","","","","-37","","NA"
"-77.70","53.63","LA GRANDE RIVIERE A","7093716","2021-01-21 07:00","2021","01","21","07:00","-22.4","","-24.9","","80","","","","10","","32","","24.1","","97.75","","","","-36","","Mostly Cloudy"
"-77.70","53.63","LA GRANDE RIVIERE A","7093716","2021-01-21 08:00","2021","01","21","08:00","-22.1","","-24.6","","80","","","","10","","27","","24.1","","97.77","","","","-35","","NA"
"-77.70","53.63","LA GRANDE RIVIERE A","7093716","2021-01-21 09:00","2021","01","21","09:00","-22.7","","-25.3","","80","","","","9","","24","","24.1","","97.76","","","","-35","","NA"
"-77.70","53.63","LA GRANDE RIVIERE A","7093716","2021-01-21 10:00","2021","01","21","10:00","-22.6","","-25.1","","80","","","","9","","23","","24.1","","97.73","","","","-35","","Mainly Clear"
"-77.70","53.63","LA GRANDE RIVIERE A","7093716","2021-01-21 11:00","2021","01","21","11:00","-21.3","","-23.7","","81","","","","9","","28","","24.1","","97.68","","","","-34","","NA"
"-77.70","53.63","LA GRANDE RIVIERE A","7093716","2021-01-21 12:00","2021","01","21","12:00","-20.4","","-22.7","","82","","","","8","","23","","24.1","","97.64","","","","-32","","NA"
"-77.70","53.63","LA GRANDE RIVIERE A","7093716","2021-01-21 13:00","2021","01","21","13:00","-20.0","","-22.3","","82","","","","6","","18","","24.1","","97.62","","","","-30","","Mainly Clear"
"-77.70","53.63","LA GRANDE RIVIERE A","7093716","2021-01-21 14:00","2021","01","21","14:00","-19.4","","-21.7","","82","","","","7","","20","","24.1","","97.62","","","","-30","","NA"
"-77.70","53.63","LA GRANDE RIVIERE A","7093716","2021-01-21 15:00","2021","01","21","15:00","-19.1","","-21.4","","82","","","","7","","23","","24.1","","97.64","","","","-30","","NA"
"-77.70","53.63","LA GRANDE RIVIERE A","7093716","2021-01-21 16:00","2021","01","21","16:00","-19.6","","-21.9","","82","","","","7","","17","","24.1","","97.67","","","","-29","","Clear"
"-77.70","53.63","LA GRANDE RIVIERE A","7093716","2021-01-21 17:00","2021","01","21","17:00","-20.4","","-22.8","","82","","","","6","","21","","24.1","","97.71","","","","-31","","NA"
"-77.70","53.63","LA GRANDE RIVIERE A","7093716","2021-01-21 18:00","2021","01","21","18:00","-20.9","","-23.4","","81","","","","7","","20","","24.1","","97.73","","","","-32","","NA"
"-77.70","53.63","LA GRANDE RIVIERE A","7093716","2021-01-21 19:00","2021","01","21","19:00","-21.6","","-24.1","","81","","","","8","","17","","24.1","","97.74","","","","-32","","Mainly Clear"
"-77.70","53.63","LA GRANDE RIVIERE A","7093716","2021-01-21 20:00","2021","01","21","20:00","-22.3","","-24.8","","80","","","","7","","17","","24.1","","97.79","","","","-33","","NA"
"-77.70","53.63","LA GRANDE RIVIERE A","7093716","2021-01-21 21:00","2021","01","21","21:00","-22.9","","-25.4","","80","","","","8","","19","","24.1","","97.82","","","","-34","","NA"
"-77.70","53.63","LA GRANDE RIVIERE A","7093716","2021-01-21 22:00","2021","01","21","22:00","-23.1","","-25.7","","80","","","","7","","14","","24.1","","97.84","","","","-33","","Mainly Clear"
"-77.70","53.63","LA GRANDE RIVIERE A","7093716","2021-01-21 23:00","2021","01","21","23:00","-24.5","","-27.1","","79","","","","8","","7","","24.1","","97.88","","","","-31","","NA"
"-77.70","53.63","LA GRANDE RIVIERE A","7093716","2021-01-22 00:00","2021","01","22","00:00","-24.3","","-27.0","","79","","","","7","","10","","24.1","","97.91","","","","-32","","NA"
"-77.70","53.63","LA GRANDE RIVIERE A","7093716","2021-01-22 01:00","2021","01","22","01:00","-24.4","","-27.1","","79","","","","7","","11","","24.1","","97.94","","","","-33","","Clear"
"-77.70","53.63","LA GRANDE RIVIERE A","7093716","2021-01-22 02:00","2021","01","22","02:00","-24.7","","-27.4","","79","","","","7","","10","","24.1","","98.01","","","","-33","","NA"
"-77.70","53.63","LA GRANDE RIVIERE A","7093716","2021-01-22 03:00","2021","01","22","03:00","-25.1","","-27.9","","78","","","","7","","10","","24.1","","98.06","","","","-33","","NA"
"-77.70","53.63","LA GRANDE RIVIERE A","7093716","2021-01-22 04:00","2021","01","22","04:00","-25.0","","-27.7","","78","","","","7","","10","","24.1","","98.07","","","","-33","","Clear"
"-77.70","53.63","LA GRANDE RIVIERE A","7093716","2021-01-22 05:00","2021","01","22","05:00","-25.3","","-28.0","","78","","","","6","","11","","24.1","","98.12","","","","-34","","NA"
"-77.70","53.63","LA GRANDE RIVIERE A","7093716","2021-01-22 06:00","2021","01","22","06:00","-25.2","","-28.0","","78","","","","6","","13","","24.1","","98.19","","","","-35","","NA"
"-77.70","53.63","LA GRANDE RIVIERE A","7093716","2021-01-22 07:00","2021","01","22","07:00","-25.7","","-28.5","","78","","","","6","","13","","24.1","","98.27","","","","-35","","Clear"
"-77.70","53.63","LA GRANDE RIVIERE A","7093716","2021-01-22 08:00","2021","01","22","08:00","-25.6","","-28.4","","78","","","","7","","12","","24.1","","98.33","","","","-35","","NA"
"-77.70","53.63","LA GRANDE RIVIERE A","7093716","2021-01-22 09:00","2021","01","22","09:00","-25.8","","-28.7","","78","","","","7","","9","","24.1","","98.41","","","","-34","","NA"
"-77.70","53.63","LA GRANDE RIVIERE A","7093716","2021-01-22 10:00","2021","01","22","10:00","-24.7","","-27.5","","78","","","","5","","9","","24.1","","98.48","","","","-32","","Mainly Clear"
"-77.70","53.63","LA GRANDE RIVIERE A","7093716","2021-01-22 11:00","2021","01","22","11:00","-22.6","","-25.3","","79","","","","6","","10","","24.1","","98.53","","","","-30","","NA"
"-77.70","53.63","LA GRANDE RIVIERE A","7093716","2021-01-22 12:00","2021","01","22","12:00","-21.6","","-24.2","","80","","","","6","","15","","24.1","","98.57","","","","-31","","NA"
"-77.70","53.63","LA GRANDE RIVIERE A","7093716","2021-01-22 13:00","2021","01","22","13:00","-20.3","","-22.9","","80","","","","7","","10","","24.1","","98.62","","","","-28","","Mainly Clear"
"-77.70","53.63","LA GRANDE RIVIERE A","7093716","2021-01-22 14:00","2021","01","22","14:00","-18.7","","-21.4","","79","","","","4","","8","","24.1","","98.66","","","","-25","","NA"
"-77.70","53.63","LA GRANDE RIVIERE A","7093716","2021-01-22 15:00","2021","01","22","15:00","-18.4","","-21.2","","79","","","","5","","7","","24.1","","98.74","","","","-24","","NA"
"-77.70","53.63","LA GRANDE RIVIERE A","7093716","2021-01-22 16:00","2021","01","22","16:00","-18.8","","-21.3","","80","","","","5","","5","","24.1","","98.84","","","","-23","","Mainly Clear"
"-77.70","53.63","LA GRANDE RIVIERE A","7093716","2021-01-22 17:00","2021","01","22","17:00","-19.2","","-21.7","","81","","","","2","","4","","24.1","","98.90","","","","-23","","NA"
"-77.70","53.63","LA GRANDE RIVIERE A","7093716","2021-01-22 18:00","2021","01","22","18:00","-20.5","","-22.6","","84","","","","32","","4","","24.1","","98.97","","","","-24","","NA"
"-77.70","53.63","LA GRANDE RIVIERE A","7093716","2021-01-22 19:00","2021","01","22","19:00","-19.9","","-22.0","","83","","","","1","","5","","24.1","","99.03","","","","-24","","Mostly Cloudy"
"-77.70","53.63","LA GRANDE RIVIERE A","7093716","2021-01-22 20:00","2021","01","22","20:00","-20.1","","-22.5","","82","","","","35","","5","","24.1","","99.08","","","","-24","","NA"
"-77.70","53.63","LA GRANDE RIVIERE A","7093716","2021-01-22 21:00","2021","01","22","21:00","-19.9","","-22.3","","81","","","","1","","5","","24.1","","99.10","","","","-24","","NA"
"-77.70","53.63","LA GRANDE RIVIERE A","7093716","2021-01-22 22:00","2021","01","22","22:00","-19.8","","-22.2","","82","","","","2","","7","","24.1","","99.14","","","","-25","","Mostly Cloudy"
"-77.70","53.63","LA GRANDE RIVIERE A","7093716","2021-01-22 23:00","2021","01","22","23:00","-20.5","","-22.8","","82","","","","2","","8","","24.1","","99.17","","","","-27","","NA"
"-77.70","53.63","LA GRANDE RIVIERE A","7093716","2021-01-23 00:00","2021","01","23","00:00","-20.9","","-23.1","","83","","","","3","","11","","24.1","","99.18","","","","-29","","NA"
"-77.70","53.63","LA GRANDE RIVIERE A","7093716","2021-01-23 01:00","2021","01","23","01:00","-21.9","","-24.1","","83","","","","36","","6","","24.1","","99.19","","","","-27","","Mainly Clear"
"-77.70","53.63","LA GRANDE RIVIERE A","7093716","2021-01-23 02:00","2021","01","23","02:00","-22.5","","-24.6","","83","","","","36","","3","","24.1","","99.28","","","","-25","","NA"
"-77.70","53.63","LA GRANDE RIVIERE A","7093716","2021-01-23 03:00","2021","01","23","03:00","-22.7","","-24.6","","85","","","","35","","5","","24.1","","99.33","","","","-27","","NA"
"-77.70","53.63","LA GRANDE RIVIERE A","7093716","2021-01-23 04:00","2021","01","23","04:00","-22.1","","-24.4","","82","","","","2","","5","","24.1","","99.38","","","","-27","","Mainly Clear"
"-77.70","53.63","LA GRANDE RIVIERE A","7093716","2021-01-23 05:00","2021","01","23","05:00","-25.1","","-27.4","","81","","","","28","","7","","24.1","","99.42","","","","-32","","NA"
"-77.70","53.63","LA GRANDE RIVIERE A","7093716","2021-01-23 06:00","2021","01","23","06:00","-25.1","","-27.6","","81","","","","28","","4","","24.1","","99.48","","","","-29","","NA"
"-77.70","53.63","LA GRANDE RIVIERE A","7093716","2021-01-23 07:00","2021","01","23","07:00","-25.1","","-27.6","","80","","","","34","","4","","24.1","","99.48","","","","-29","","Mainly Clear"
"-77.70","53.63","LA GRANDE RIVIERE A","7093716","2021-01-23 08:00","2021","01","23","08:00","-25.1","","-27.4","","81","","","","28","","4","","24.1","","99.56","","","","-29","","NA"
"-77.70","53.63","LA GRANDE RIVIERE A","7093716","2021-01-23 09:00","2021","01","23","09:00","-21.6","","-23.6","","84","","","","2","","4","","24.1","","99.60","","","","-25","","NA"
"-77.70","53.63","LA GRANDE RIVIERE A","7093716","2021-01-23 10:00","2021","01","23","10:00","-23.9","","-26.3","","81","","","","28","","5","","24.1","","99.62","","","","-29","","Mostly Cloudy"
"-77.70","53.63","LA GRANDE RIVIERE A","7093716","2021-01-23 11:00","2021","01","23","11:00","-22.5","","-24.8","","82","","","","27","","5","","24.1","","99.64","","","","-27","","NA"
"-77.70","53.63","LA GRANDE RIVIERE A","7093716","2021-01-23 12:00","2021","01","23","12:00","-19.8","","-22.1","","82","","","","27","","8","","24.1","","99.67","","","","-26","","NA"
"-77.70","53.63","LA GRANDE RIVIERE A","7093716","2021-01-23 13:00","2021","01","23","13:00","-17.1","","-19.4","","83","","","","27","","7","","24.1","","99.68","","","","-22","","Mainly Clear"
"-77.70","53.63","LA GRANDE RIVIERE A","7093716","2021-01-23 14:00","2021","01","23","14:00","-15.4","","-17.6","","84","","","","30","","11","","24.1","","99.71","","","","-22","","NA"
"-77.70","53.63","LA GRANDE RIVIERE A","7093716","2021-01-23 15:00","2021","01","23","15:00","-15.1","","-17.3","","83","","","","31","","9","","24.1","","99.77","","","","-21","","NA"
"-77.70","53.63","LA GRANDE RIVIERE A","7093716","2021-01-23 16:00","2021","01","23","16:00","-16.6","","-18.8","","83","","","","29","","8","","24.1","","99.80","","","","-22","","Mainly Clear"
"-77.70","53.63","LA GRANDE RIVIERE A","7093716","2021-01-23 17:00","2021","01","23","17:00","-17.7","","-19.7","","84","","","","30","","9","","24.1","","99.84","","","","-24","","NA"
"-77.70","53.63","LA GRANDE RIVIERE A","7093716","2021-01-23 18:00","2021","01","23","18:00","-20.8","","-22.8","","84","","","","27","","9","","24.1","","99.87","","","","-28","","NA"
"-77.70","53.63","LA GRANDE RIVIERE A","7093716","2021-01-23 19:00","2021","01","23","19:00","-18.4","","-20.3","","85","","","","30","","11","","16.1","","99.89","","","","-26","","Cloudy"
"-77.70","53.63","LA GRANDE RIVIERE A","7093716","2021-01-23 20:00","2021","01","23","20:00","-17.9","","-19.8","","86","","","","31","","12","","16.1","","99.91","","","","-25","","NA"
"-77.70","53.63","LA GRANDE RIVIERE A","7093716","2021-01-23 21:00","2021","01","23","21:00","-17.4","","-19.3","","85","","","","31","","10","","16.1","","99.93","","","","-24","","NA"
"-77.70","53.63","LA GRANDE RIVIERE A","7093716","2021-01-23 22:00","2021","01","23","22:00","-17.1","","-19.0","","85","","","","29","","13","","19.3","","99.94","","","","-25","","Cloudy"
"-77.70","53.63","LA GRANDE RIVIERE A","7093716","2021-01-23 23:00","2021","01","23","23:00","-17.4","","-19.4","","85","","","","30","","12","","19.3","","99.92","","","","-25","","Snow"
"-77.70","53.63","LA GRANDE RIVIERE A","7093716","2021-01-24 00:00","2021","01","24","00:00","-17.4","","-19.4","","85","","","","31","","10","","19.3","","99.93","","","","-24","","Snow"
"-77.70","53.63","LA GRANDE RIVIERE A","7093716","2021-01-24 01:00","2021","01","24","01:00","-17.6","","-19.6","","84","","","","30","","13","","24.1","","99.91","","","","-25","","Ice Crystals"
"-77.70","53.63","LA GRANDE RIVIERE A","7093716","2021-01-24 02:00","2021","01","24","02:00","-18.2","","-20.3","","84","","","","30","","14","","24.1","","99.88","","","","-27","","Ice Crystals"
"-77.70","53.63","LA GRANDE RIVIERE A","7093716","2021-01-24 03:00","2021","01","24","03:00","-17.8","","-19.8","","84","","","","29","","15","","16.1","","99.88","","","","-26","","Snow"
"-77.70","53.63","LA GRANDE RIVIERE A","7093716","2021-01-24 04:00","2021","01","24","04:00","-17.6","","-19.6","","85","","","","29","","14","","8.1","","99.87","","","","-26","","Snow"
"-77.70","53.63","LA GRANDE RIVIERE A","7093716","2021-01-24 05:00","2021","01","24","05:00","-17.4","","-19.4","","84","","","","30","","14","","6.4","","99.87","","","","-26","","Snow"
"-77.70","53.63","LA GRANDE RIVIERE A","7093716","2021-01-24 06:00","2021","01","24","06:00","-17.5","","-19.5","","84","","","","29","","15","","6.4","","99.87","","","","-26","","Snow"
"-77.70","53.63","LA GRANDE RIVIERE A","7093716","2021-01-24 07:00","2021","01","24","07:00","-17.8","","-19.9","","84","","","","29","","13","","16.1","","99.87","","","","-26","","Snow"
"-77.70","53.63","LA GRANDE RIVIERE A","7093716","2021-01-24 08:00","2021","01","24","08:00","-18.0","","-20.1","","84","","","","28","","13","","6.4","","99.85","","","","-26","","Snow Showers"
"-77.70","53.63","LA GRANDE RIVIERE A","7093716","2021-01-24 09:00","2021","01","24","09:00","-17.7","","-19.8","","84","","","","29","","14","","24.1","","99.82","","","","-26","","Snow Showers"
"-77.70","53.63","LA GRANDE RIVIERE A","7093716","2021-01-24 10:00","2021","01","24","10:00","-16.8","","-18.8","","85","","","","31","","13","","6.4","","99.80","","","","-25","","Snow Showers"
"-77.70","53.63","LA GRANDE RIVIERE A","7093716","2021-01-24 11:00","2021","01","24","11:00","-15.9","","-17.8","","86","","","","31","","12","","4.8","","99.75","","","","-23","","Snow Showers"
"-77.70","53.63","LA GRANDE RIVIERE A","7093716","2021-01-24 12:00","2021","01","24","12:00","-15.5","","-17.3","","86","","","","30","","10","","2.4","","99.70","","","","-22","","Snow Showers"
"-77.70","53.63","LA GRANDE RIVIERE A","7093716","2021-01-24 13:00","2021","01","24","13:00","-15.0","","-16.9","","86","","","","31","","9","","3.2","","99.66","","","","-21","","Freezing Drizzle,Snow Showers"
"-77.70","53.63","LA GRANDE RIVIERE A","7093716","2021-01-24 14:00","2021","01","24","14:00","-14.7","","-16.5","","86","","","","31","","9","","4.8","","99.62","","","","-20","","Freezing Drizzle,Snow Showers"
"-77.70","53.63","LA GRANDE RIVIERE A","7093716","2021-01-24 15:00","2021","01","24","15:00","-14.5","","-16.2","","87","","","","29","","9","","8.1","","99.62","","","","-20","","Snow"
"-77.70","53.63","LA GRANDE RIVIERE A","7093716","2021-01-24 16:00","2021","01","24","16:00","-14.4","","-16.2","","87","","","","29","","9","","8.1","","99.63","","","","-20","","Snow"
"-77.70","53.63","LA GRANDE RIVIERE A","7093716","2021-01-24 17:00","2021","01","24","17:00","-14.6","","-16.4","","86","","","","29","","8","","6.4","","99.61","","","","-20","","Snow"
"-77.70","53.63","LA GRANDE RIVIERE A","7093716","2021-01-24 18:00","2021","01","24","18:00","-14.8","","-16.6","","86","","","","29","","7","","24.1","","99.60","","","","-20","","Snow"
"-77.70","53.63","LA GRANDE RIVIERE A","7093716","2021-01-24 19:00","2021","01","24","19:00","-14.9","","-16.7","","86","","","","29","","5","","24.1","","99.57","","","","-18","","Snow"
"-77.70","53.63","LA GRANDE RIVIERE A","7093716","2021-01-24 20:00","2021","01","24","20:00","-14.9","","-16.7","","86","","","","30","","3","","24.1","","99.55","","","","-17","","Snow"
"-77.70","53.63","LA GRANDE RIVIERE A","7093716","2021-01-24 21:00","2021","01","24","21:00","-14.8","","-16.6","","86","","","","26","","4","","24.1","","99.53","","","","-18","","Snow"
"-77.70","53.63","LA GRANDE RIVIERE A","7093716","2021-01-24 22:00","2021","01","24","22:00","-14.9","","-16.7","","86","","","","25","","5","","24.1","","99.53","","","","-18","","Snow"
"-77.70","53.63","LA GRANDE RIVIERE A","7093716","2021-01-24 23:00","2021","01","24","23:00","-15.0","","-16.8","","86","","","","27","","3","","24.1","","99.51","","","","-17","","Snow"
"-77.70","53.63","LA GRANDE RIVIERE A","7093716","2021-01-25 00:00","2021","01","25","00:00","-15.1","","-16.9","","86","","","","24","","4","","24.1","","99.46","","","","-18","","Snow"
"-77.70","53.63","LA GRANDE RIVIERE A","7093716","2021-01-25 01:00","2021","01","25","01:00","-15.0","","-16.8","","86","","","","24","","5","","24.1","","99.48","","","","-19","","Snow"
"-77.70","53.63","LA GRANDE RIVIERE A","7093716","2021-01-25 02:00","2021","01","25","02:00","-15.1","","-16.9","","86","","","","23","","4","","24.1","","99.49","","","","-18","","Snow"
"-77.70","53.63","LA GRANDE RIVIERE A","7093716","2021-01-25 03:00","2021","01","25","03:00","-15.1","","-16.9","","86","","","","24","","5","","24.1","","99.50","","","","-19","","Snow"
"-77.70","53.63","LA GRANDE RIVIERE A","7093716","2021-01-25 04:00","2021","01","25","04:00","-15.1","","-16.9","","86","","","","36","","2","","24.1","","99.54","","","","-17","","Snow"
"-77.70","53.63","LA GRANDE RIVIERE A","7093716","2021-01-25 05:00","2021","01","25","05:00","-15.2","","-17.0","","86","","","","28","","4","","24.1","","99.53","","","","-18","","Snow"
"-77.70","53.63","LA GRANDE RIVIERE A","7093716","2021-01-25 06:00","2021","01","25","06:00","-15.3","","-17.2","","86","","","","","","0","","24.1","","99.54","","","","","","Snow"
"-77.70","53.63","LA GRANDE RIVIERE A","7093716","2021-01-25 07:00","2021","01","25","07:00","-15.4","","-17.2","","86","","","","36","","2","","24.1","","99.55","","","","-17","","Snow"
"-77.70","53.63","LA GRANDE RIVIERE A","7093716","2021-01-25 08:00","2021","01","25","08:00","-15.6","","-17.4","","86","","","","23","","4","","24.1","","99.56","","","","-19","","Snow"
"-77.70","53.63","LA GRANDE RIVIERE A","7093716","2021-01-25 09:00","2021","01","25","09:00","-15.5","","-17.3","","86","","","","36","","1","","24.1","","99.56","","","","-16","","Snow"
"-77.70","53.63","LA GRANDE RIVIERE A","7093716","2021-01-25 10:00","2021","01","25","10:00","-14.7","","-16.5","","86","","","","36","","2","","24.1","","99.55","","","","-16","","Cloudy"
"-77.70","53.63","LA GRANDE RIVIERE A","7093716","2021-01-25 11:00","2021","01","25","11:00","-14.4","","-16.2","","86","","","","36","","2","","24.1","","99.57","","","","-16","","NA"
"-77.70","53.63","LA GRANDE RIVIERE A","7093716","2021-01-25 12:00","2021","01","25","12:00","-13.7","","-15.5","","86","","","","26","","3","","24.1","","99.57","","","","-16","","Snow"
"-77.70","53.63","LA GRANDE RIVIERE A","7093716","2021-01-25 13:00","2021","01","25","13:00","-13.5","","-15.3","","87","","","","27","","5","","24.1","","99.55","","","","-17","","Snow"
"-77.70","53.63","LA GRANDE RIVIERE A","7093716","2021-01-25 14:00","2021","01","25","14:00","-12.9","","-14.7","","87","","","","23","","9","","24.1","","99.62","","","","-18","","Snow"
"-77.70","53.63","LA GRANDE RIVIERE A","7093716","2021-01-25 15:00","2021","01","25","15:00","-12.9","","-14.7","","86","","","","28","","5","","24.1","","99.67","","","","-16","","Snow"
"-77.70","53.63","LA GRANDE RIVIERE A","7093716","2021-01-25 16:00","2021","01","25","16:00","-13.1","","-14.9","","86","","","","28","","7","","24.1","","99.71","","","","-18","","Snow"
"-77.70","53.63","LA GRANDE RIVIERE A","7093716","2021-01-25 17:00","2021","01","25","17:00","-13.3","","-15.2","","86","","","","29","","4","","24.1","","99.72","","","","-16","","Snow"
"-77.70","53.63","LA GRANDE RIVIERE A","7093716","2021-01-25 18:00","2021","01","25","18:00","-13.8","","-15.6","","87","","","","30","","5","","16.1","","99.72","","","","-17","","Snow"
"-77.70","53.63","LA GRANDE RIVIERE A","7093716","2021-01-25 19:00","2021","01","25","19:00","-14.0","","-15.6","","88","","","","30","","9","","24.1","","99.71","","","","-20","","Snow"
"-77.70","53.63","LA GRANDE RIVIERE A","7093716","2021-01-25 20:00","2021","01","25","20:00","-14.2","","-15.9","","87","","","","32","","4","","24.1","","99.71","","","","-17","","Snow"
"-77.70","53.63","LA GRANDE RIVIERE A","7093716","2021-01-25 21:00","2021","01","25","21:00","-14.1","","-15.9","","87","","","","36","","3","","19.3","","99.72","","","","-16","","Snow"
"-77.70","53.63","LA GRANDE RIVIERE A","7093716","2021-01-25 22:00","2021","01","25","22:00","-14.8","","-16.5","","87","","","","24","","5","","24.1","","99.72","","","","-18","","Snow"
"-77.70","53.63","LA GRANDE RIVIERE A","7093716","2021-01-25 23:00","2021","01","25","23:00","-14.9","","-16.6","","87","","","","27","","6","","24.1","","99.71","","","","-19","","Snow"
"-77.70","53.63","LA GRANDE RIVIERE A","7093716","2021-01-26 00:00","2021","01","26","00:00","-14.3","","-16.0","","87","","","","25","","5","","9.7","","99.73","","","","-18","","Snow"
"-77.70","53.63","LA GRANDE RIVIERE A","7093716","2021-01-26 01:00","2021","01","26","01:00","-14.2","","-16.0","","87","","","","27","","5","","16.1","","99.72","","","","-18","","Snow"
"-77.70","53.63","LA GRANDE RIVIERE A","7093716","2021-01-26 02:00","2021","01","26","02:00","-14.0","","-15.7","","87","","","","26","","7","","4.0","","99.74","","","","-19","","Snow"
"-77.70","53.63","LA GRANDE RIVIERE A","7093716","2021-01-26 03:00","2021","01","26","03:00","-13.9","","-15.7","","87","","","","26","","7","","4.8","","99.75","","","","-19","","Snow"
"-77.70","53.63","LA GRANDE RIVIERE A","7093716","2021-01-26 04:00","2021","01","26","04:00","-14.2","","-15.9","","87","","","","27","","8","","6.4","","99.78","","","","-19","","Snow"
"-77.70","53.63","LA GRANDE RIVIERE A","7093716","2021-01-26 05:00","2021","01","26","05:00","-14.2","","-15.9","","87","","","","27","","4","","9.7","","99.80","","","","-17","","Snow"
"-77.70","53.63","LA GRANDE RIVIERE A","7093716","2021-01-26 06:00","2021","01","26","06:00","-14.7","","-16.4","","87","","","","31","","4","","19.3","","99.80","","","","-18","","Snow"
"-77.70","53.63","LA GRANDE RIVIERE A","7093716","2021-01-26 07:00","2021","01","26","07:00","-15.1","","-16.9","","86","","","","36","","2","","24.1","","99.83","","","","-17","","Snow"
"-77.70","53.63","LA GRANDE RIVIERE A","7093716","2021-01-26 08:00","2021","01","26","08:00","-15.2","","-17.0","","87","","","","18","","5","","24.1","","99.88","","","","-19","","Snow"
"-77.70","53.63","LA GRANDE RIVIERE A","7093716","2021-01-26 09:00","2021","01","26","09:00","-14.8","","-16.5","","87","","","","36","","3","","24.1","","99.87","","","","-17","","NA"
"-77.70","53.63","LA GRANDE RIVIERE A","7093716","2021-01-26 10:00","2021","01","26","10:00","-14.6","","-16.3","","86","","","","26","","5","","24.1","","99.89","","","","-18","","Cloudy"
"-77.70","53.63","LA GRANDE RIVIERE A","7093716","2021-01-26 11:00","2021","01","26","11:00","-13.6","","-15.3","","87","","","","36","","2","","24.1","","99.89","","","","-15","","Snow"
"-77.70","53.63","LA GRANDE RIVIERE A","7093716","2021-01-26 12:00","2021","01","26","12:00","-13.0","","-14.9","","86","","","","29","","6","","24.1","","99.83","","","","-17","","Snow"
"-77.70","53.63","LA GRANDE RIVIERE A","7093716","2021-01-26 13:00","2021","01","26","13:00","-11.9","","-13.8","","86","","","","26","","5","","24.1","","99.79","","","","-15","","Snow"
"-77.70","53.63","LA GRANDE RIVIERE A","7093716","2021-01-26 14:00","2021","01","26","14:00","-11.3","","-13.5","","84","","","","36","","2","","24.1","","99.79","","","","-13","","Snow"
"-77.70","53.63","LA GRANDE RIVIERE A","7093716","2021-01-26 15:00","2021","01","26","15:00","-10.5","","-12.5","","85","","","","35","","4","","24.1","","99.77","","","","-13","","Snow"
"-77.70","53.63","LA GRANDE RIVIERE A","7093716","2021-01-26 16:00","2021","01","26","16:00","-10.4","","-12.1","","88","","","","35","","7","","24.1","","99.75","","","","-14","","Mostly Cloudy"
"-77.70","53.63","LA GRANDE RIVIERE A","7093716","2021-01-26 17:00","2021","01","26","17:00","-11.1","","-12.8","","87","","","","33","","7","","24.1","","99.78","","","","-15","","NA"
"-77.70","53.63","LA GRANDE RIVIERE A","7093716","2021-01-26 18:00","2021","01","26","18:00","-11.7","","-13.2","","89","","","","30","","8","","24.1","","99.82","","","","-16","","NA"
"-77.70","53.63","LA GRANDE RIVIERE A","7093716","2021-01-26 19:00","2021","01","26","19:00","-12.1","","-13.6","","88","","","","31","","4","","24.1","","99.83","","","","-15","","Cloudy"
"-77.70","53.63","LA GRANDE RIVIERE A","7093716","2021-01-26 20:00","2021","01","26","20:00","-12.2","","-13.7","","89","","","","35","","3","","24.1","","99.83","","","","-14","","NA"
"-77.70","53.63","LA GRANDE RIVIERE A","7093716","2021-01-26 21:00","2021","01","26","21:00","-10.9","","-12.5","","88","","","","6","","12","","24.1","","99.81","","","","-17","","NA"
"-77.70","53.63","LA GRANDE RIVIERE A","7093716","2021-01-26 22:00","2021","01","26","22:00","-10.8","","-12.4","","88","","","","5","","13","","24.1","","99.80","","","","-17","","Mostly Cloudy"
"-77.70","53.63","LA GRANDE RIVIERE A","7093716","2021-01-26 23:00","2021","01","26","23:00","-10.6","","-12.3","","87","","","","6","","13","","24.1","","99.79","","","","-17","","NA"
"-77.70","53.63","LA GRANDE RIVIERE A","7093716","2021-01-27 00:00","2021","01","27","00:00","-11.5","","-13.2","","87","","","","6","","11","","24.1","","99.77","","","","-17","","NA"
"-77.70","53.63","LA GRANDE RIVIERE A","7093716","2021-01-27 01:00","2021","01","27","01:00","-12.1","","-13.8","","87","","","","7","","7","","24.1","","99.76","","","","-16","","Mostly Cloudy"
"-77.70","53.63","LA GRANDE RIVIERE A","7093716","2021-01-27 02:00","2021","01","27","02:00","-11.6","","-13.5","","86","","","","6","","9","","24.1","","99.74","","","","-17","","NA"
"-77.70","53.63","LA GRANDE RIVIERE A","7093716","2021-01-27 03:00","2021","01","27","03:00","-12.0","","-14.0","","85","","","","9","","11","","24.1","","99.76","","","","-18","","NA"
"-77.70","53.63","LA GRANDE RIVIERE A","7093716","2021-01-27 04:00","2021","01","27","04:00","-12.2","","-14.3","","85","","","","7","","11","","24.1","","99.78","","","","-18","","Mostly Cloudy"
"-77.70","53.63","LA GRANDE RIVIERE A","7093716","2021-01-27 05:00","2021","01","27","05:00","-13.5","","-15.5","","85","","","","8","","13","","24.1","","99.77","","","","-20","","NA"
"-77.70","53.63","LA GRANDE RIVIERE A","7093716","2021-01-27 06:00","2021","01","27","06:00","-15.2","","-17.2","","85","","","","7","","11","","24.1","","99.78","","","","-22","","NA"
"-77.70","53.63","LA GRANDE RIVIERE A","7093716","2021-01-27 07:00","2021","01","27","07:00","-15.2","","-17.0","","86","","","","7","","15","","24.1","","99.78","","","","-23","","Mainly Clear"
"-77.70","53.63","LA GRANDE RIVIERE A","7093716","2021-01-27 08:00","2021","01","27","08:00","-14.7","","-16.6","","86","","","","8","","14","","24.1","","99.79","","","","-22","","NA"
"-77.70","53.63","LA GRANDE RIVIERE A","7093716","2021-01-27 09:00","2021","01","27","09:00","-13.7","","-15.6","","86","","","","8","","11","","6.4","","99.81","","","","-20","","Snow"
"-77.70","53.63","LA GRANDE RIVIERE A","7093716","2021-01-27 10:00","2021","01","27","10:00","-12.6","","-14.5","","86","","","","10","","9","","3.2","","99.84","","","","-18","","Snow"
"-77.70","53.63","LA GRANDE RIVIERE A","7093716","2021-01-27 11:00","2021","01","27","11:00","-12.0","","-13.8","","86","","","","11","","8","","3.2","","99.84","","","","-17","","Snow"
"-77.70","53.63","LA GRANDE RIVIERE A","7093716","2021-01-27 12:00","2021","01","27","12:00","-11.3","","-13.4","","85","","","","17","","6","","1.6","","99.81","","","","-15","","Snow"
"-77.70","53.63","LA GRANDE RIVIERE A","7093716","2021-01-27 13:00","2021","01","27","13:00","-11.0","","-13.1","","85","","","","36","","2","","2.4","","99.77","","","","-12","","Snow"
"-77.70","53.63","LA GRANDE RIVIERE A","7093716","2021-01-27 14:00","2021","01","27","14:00","-11.0","","-13.2","","84","","","","17","","7","","2.4","","99.75","","","","-15","","Snow"
"-77.70","53.63","LA GRANDE RIVIERE A","7093716","2021-01-27 15:00","2021","01","27","15:00","-11.2","","-13.3","","84","","","","21","","10","","2.4","","99.76","","","","-17","","Snow"
"-77.70","53.63","LA GRANDE RIVIERE A","7093716","2021-01-27 16:00","2021","01","27","16:00","-11.5","","-13.2","","87","","","","21","","9","","2.4","","99.78","","","","-17","","Freezing Drizzle,Snow"
"-77.70","53.63","LA GRANDE RIVIERE A","7093716","2021-01-27 17:00","2021","01","27","17:00","-11.9","","-13.8","","87","","","","22","","11","","2.4","","99.80","","","","-18","","Snow"
"-77.70","53.63","LA GRANDE RIVIERE A","7093716","2021-01-27 18:00","2021","01","27","18:00","-12.8","","-14.7","","86","","","","24","","12","","4.8","","99.83","","","","-19","","Snow,Ice Crystals"
"-77.70","53.63","LA GRANDE RIVIERE A","7093716","2021-01-27 19:00","2021","01","27","19:00","-13.5","","-15.4","","86","","","","24","","14","","9.7","","99.82","","","","-21","","Snow"
"-77.70","53.63","LA GRANDE RIVIERE A","7093716","2021-01-27 20:00","2021","01","27","20:00","-14.3","","-16.4","","85","","","","24","","14","","11.3","","99.84","","","","-22","","Snow"
"-77.70","53.63","LA GRANDE RIVIERE A","7093716","2021-01-27 21:00","2021","01","27","21:00","-14.9","","-17.0","","84","","","","23","","14","","11.3","","99.83","","","","-22","","Snow"
"-77.70","53.63","LA GRANDE RIVIERE A","7093716","2021-01-27 22:00","2021","01","27","22:00","-15.3","","-17.4","","84","","","","23","","13","","12.9","","99.81","","","","-23","","Snow"
"-77.70","53.63","LA GRANDE RIVIERE A","7093716","2021-01-27 23:00","2021","01","27","23:00","-15.6","","-17.8","","83","","","","23","","13","","12.9","","99.79","","","","-23","","Snow"
"-77.70","53.63","LA GRANDE RIVIERE A","7093716","2021-01-28 00:00","2021","01","28","00:00","-15.8","","-17.9","","84","","","","23","","14","","6.4","","99.77","","","","-24","","Snow"
"-77.70","53.63","LA GRANDE RIVIERE A","7093716","2021-01-28 01:00","2021","01","28","01:00","-16.1","","-18.2","","84","","","","23","","15","","6.4","","99.74","","","","-24","","Snow"
"-77.70","53.63","LA GRANDE RIVIERE A","7093716","2021-01-28 02:00","2021","01","28","02:00","-16.2","","-18.4","","84","","","","24","","13","","6.4","","99.75","","","","-24","","Snow"
"-77.70","53.63","LA GRANDE RIVIERE A","7093716","2021-01-28 03:00","2021","01","28","03:00","-16.4","","-18.6","","84","","","","23","","13","","11.3","","99.74","","","","-24","","Snow"
"-77.70","53.63","LA GRANDE RIVIERE A","7093716","2021-01-28 04:00","2021","01","28","04:00","-16.6","","-18.8","","83","","","","23","","17","","6.4","","99.74","","","","-25","","Snow"
"-77.70","53.63","LA GRANDE RIVIERE A","7093716","2021-01-28 05:00","2021","01","28","05:00","-16.8","","-19.1","","83","","","","23","","17","","12.9","","99.71","","","","-26","","Snow"
"-77.70","53.63","LA GRANDE RIVIERE A","7093716","2021-01-28 06:00","2021","01","28","06:00","-17.1","","-19.4","","83","","","","23","","14","","6.4","","99.71","","","","-25","","Snow"
"-77.70","53.63","LA GRANDE RIVIERE A","7093716","2021-01-28 07:00","2021","01","28","07:00","-17.5","","-19.8","","83","","","","23","","11","","6.4","","99.71","","","","-25","","Snow"
"-77.70","53.63","LA GRANDE RIVIERE A","7093716","2021-01-28 08:00","2021","01","28","08:00","-17.6","","-19.9","","82","","","","23","","11","","11.3","","99.71","","","","-25","","Snow"
"-77.70","53.63","LA GRANDE RIVIERE A","7093716","2021-01-28 09:00","2021","01","28","09:00","-17.6","","-19.9","","83","","","","23","","14","","16.1","","99.68","","","","-26","","Snow"
"-77.70","53.63","LA GRANDE RIVIERE A","7093716","2021-01-28 10:00","2021","01","28","10:00","-17.1","","-19.3","","83","","","","22","","14","","24.1","","99.64","","","","-25","","Snow"
"-77.70","53.63","LA GRANDE RIVIERE A","7093716","2021-01-28 11:00","2021","01","28","11:00","-16.3","","-18.3","","85","","","","23","","9","","9.7","","99.63","","","","-22","","Snow"
"-77.70","53.63","LA GRANDE RIVIERE A","7093716","2021-01-28 12:00","2021","01","28","12:00","-15.8","","-17.7","","85","","","","24","","9","","8.1","","99.62","","","","-22","","Snow"
"-77.70","53.63","LA GRANDE RIVIERE A","7093716","2021-01-28 13:00","2021","01","28","13:00","-15.3","","-16.6","","89","","","","26","","7","","4.8","","99.60","","","","-20","","Snow"
"-77.70","53.63","LA GRANDE RIVIERE A","7093716","2021-01-28 14:00","2021","01","28","14:00","-14.6","","-16.1","","89","","","","27","","8","","4.0","","99.59","","","","-20","","Snow,Fog"
"-77.70","53.63","LA GRANDE RIVIERE A","7093716","2021-01-28 15:00","2021","01","28","15:00","-14.5","","-16.3","","86","","","","30","","13","","4.8","","99.63","","","","-22","","Snow,Fog"
"-77.70","53.63","LA GRANDE RIVIERE A","7093716","2021-01-28 16:00","2021","01","28","16:00","-14.9","","-16.7","","87","","","","31","","10","","6.4","","99.64","","","","-21","","Snow,Fog"
"-77.70","53.63","LA GRANDE RIVIERE A","7093716","2021-01-28 17:00","2021","01","28","17:00","-15.6","","-17.3","","87","","","","30","","9","","6.4","","99.67","","","","-22","","Snow"
"-77.70","53.63","LA GRANDE RIVIERE A","7093716","2021-01-28 18:00","2021","01","28","18:00","-16.6","","-18.4","","87","","","","29","","10","","9.7","","99.75","","","","-23","","Snow"
"-77.70","53.63","LA GRANDE RIVIERE A","7093716","2021-01-28 19:00","2021","01","28","19:00","-17.8","","-19.8","","85","","","","30","","9","","12.9","","99.75","","","","-24","","Snow"
"-77.70","53.63","LA GRANDE RIVIERE A","7093716","2021-01-28 20:00","2021","01","28","20:00","-19.1","","-21.0","","85","","","","28","","7","","24.1","","99.76","","","","-25","","NA"
"-77.70","53.63","LA GRANDE RIVIERE A","7093716","2021-01-28 21:00","2021","01","28","21:00","-18.5","","-20.4","","85","","","","30","","7","","6.4","","99.77","","","","-24","","Fog"
"-77.70","53.63","LA GRANDE RIVIERE A","7093716","2021-01-28 22:00","2021","01","28","22:00","-19.6","","-21.6","","84","","","","32","","8","","4.0","","99.78","","","","-26","","Fog"
"-77.70","53.63","LA GRANDE RIVIERE A","7093716","2021-01-28 23:00","2021","01","28","23:00","-21.1","","-23.2","","84","","","","29","","7","","2.4","","99.78","","","","-27","","Fog"
"-77.70","53.63","LA GRANDE RIVIERE A","7093716","2021-01-29 00:00","2021","01","29","00:00","-21.6","","-23.9","","82","","","","31","","6","","4.8","","99.79","","","","-27","","Fog"
"-77.70","53.63","LA GRANDE RIVIERE A","7093716","2021-01-29 01:00","2021","01","29","01:00","-22.0","","-24.4","","81","","","","1","","4","","1.2","","99.81","","","","-26","","Fog"
"-77.70","53.63","LA GRANDE RIVIERE A","7093716","2021-01-29 02:00","2021","01","29","02:00","-21.5","","-23.9","","81","","","","36","","2","","1.0","","99.81","","","","-23","","Fog"
"-77.70","53.63","LA GRANDE RIVIERE A","7093716","2021-01-29 03:00","2021","01","29","03:00","-21.2","","-23.6","","81","","","","29","","11","","3.2","","99.82","","","","-29","","Fog"
"-77.70","53.63","LA GRANDE RIVIERE A","7093716","2021-01-29 04:00","2021","01","29","04:00","-21.4","","-23.9","","81","","","","33","","3","","3.2","","99.84","","","","-24","","Fog"
"-77.70","53.63","LA GRANDE RIVIERE A","7093716","2021-01-29 05:00","2021","01","29","05:00","-21.2","","-23.6","","81","","","","36","","3","","3.2","","99.84","","","","-24","","Fog"
"-77.70","53.63","LA GRANDE RIVIERE A","7093716","2021-01-29 06:00","2021","01","29","06:00","-21.9","","-24.4","","81","","","","28","","14","","3.2","","99.88","","","","-31","","Fog"
"-77.70","53.63","LA GRANDE RIVIERE A","7093716","2021-01-29 07:00","2021","01","29","07:00","-22.0","","-24.5","","81","","","","29","","10","","4.0","","99.91","","","","-30","","Fog"
"-77.70","53.63","LA GRANDE RIVIERE A","7093716","2021-01-29 08:00","2021","01","29","08:00","-22.1","","-24.6","","80","","","","29","","9","","2.4","","99.93","","","","-29","","Fog"
"-77.70","53.63","LA GRANDE RIVIERE A","7093716","2021-01-29 09:00","2021","01","29","09:00","-22.4","","-24.9","","80","","","","34","","8","","4.8","","99.95","","","","-29","","Fog"
"-77.70","53.63","LA GRANDE RIVIERE A","7093716","2021-01-29 10:00","2021","01","29","10:00","-22.2","","-24.7","","80","","","","30","","8","","2.4","","99.99","","","","-29","","Fog"
"-77.70","53.63","LA GRANDE RIVIERE A","7093716","2021-01-29 11:00","2021","01","29","11:00","-21.7","","-24.2","","81","","","","32","","7","","3.2","","100.00","","","","-28","","Fog"
"-77.70","53.63","LA GRANDE RIVIERE A","7093716","2021-01-29 12:00","2021","01","29","12:00","-21.1","","-23.6","","81","","","","28","","10","","8.1","","99.97","","","","-29","","Fog"
"-77.70","53.63","LA GRANDE RIVIERE A","7093716","2021-01-29 13:00","2021","01","29","13:00","-20.6","","-23.0","","81","","","","28","","10","","6.4","","99.96","","","","-28","","Fog"
"-77.70","53.63","LA GRANDE RIVIERE A","7093716","2021-01-29 14:00","2021","01","29","14:00","-20.0","","-22.3","","82","","","","29","","11","","8.1","","99.94","","","","-28","","Fog"
"-77.70","53.63","LA GRANDE RIVIERE A","7093716","2021-01-29 15:00","2021","01","29","15:00","-20.2","","-22.6","","82","","","","28","","10","","8.1","","99.98","","","","-27","","Fog"
"-77.70","53.63","LA GRANDE RIVIERE A","7093716","2021-01-29 16:00","2021","01","29","16:00","-20.9","","-23.2","","81","","","","28","","14","","11.3","","100.02","","","","-30","","Mostly Cloudy"
"-77.70","53.63","LA GRANDE RIVIERE A","7093716","2021-01-29 17:00","2021","01","29","17:00","-21.3","","-23.8","","81","","","","29","","13","","12.9","","100.05","","","","-30","","NA"
"-77.70","53.63","LA GRANDE RIVIERE A","7093716","2021-01-29 18:00","2021","01","29","18:00","-22.2","","-24.7","","81","","","","31","","5","","6.4","","100.10","","","","-27","","Fog"
"-77.70","53.63","LA GRANDE RIVIERE A","7093716","2021-01-29 19:00","2021","01","29","19:00","-22.1","","-24.5","","81","","","","30","","8","","6.4","","100.11","","","","-29","","Fog"
"-77.70","53.63","LA GRANDE RIVIERE A","7093716","2021-01-29 20:00","2021","01","29","20:00","-22.8","","-25.4","","80","","","","32","","7","","2.4","","100.12","","","","-29","","Fog"
"-77.70","53.63","LA GRANDE RIVIERE A","7093716","2021-01-29 21:00","2021","01","29","21:00","-22.7","","-25.2","","80","","","","30","","5","","3.2","","100.13","","","","-27","","Fog"
"-77.70","53.63","LA GRANDE RIVIERE A","7093716","2021-01-29 22:00","2021","01","29","22:00","-22.6","","-25.1","","80","","","","29","","5","","2.4","","100.14","","","","-27","","Fog"
"-77.70","53.63","LA GRANDE RIVIERE A","7093716","2021-01-29 23:00","2021","01","29","23:00","-22.4","","-24.9","","80","","","","34","","4","","24.1","","100.19","","","","-26","","NA"
"-77.70","53.63","LA GRANDE RIVIERE A","7093716","2021-01-30 00:00","2021","01","30","00:00","-22.5","","-25.0","","80","","","","33","","5","","24.1","","100.19","","","","-27","","NA"
"-77.70","53.63","LA GRANDE RIVIERE A","7093716","2021-01-30 01:00","2021","01","30","01:00","-22.7","","-25.2","","80","","","","36","","2","","3.2","","100.18","","","","-25","","Fog"
"-77.70","53.63","LA GRANDE RIVIERE A","7093716","2021-01-30 02:00","2021","01","30","02:00","-22.9","","-25.4","","80","","","","32","","4","","24.1","","100.21","","","","-27","","NA"
"-77.70","53.63","LA GRANDE RIVIERE A","7093716","2021-01-30 03:00","2021","01","30","03:00","-23.8","","-26.4","","80","","","","36","","3","","24.1","","100.24","","","","-27","","NA"
"-77.70","53.63","LA GRANDE RIVIERE A","7093716","2021-01-30 04:00","2021","01","30","04:00","-25.9","","-28.7","","78","","","","27","","3","","12.9","","100.26","","","","-29","","Mainly Clear"
"-77.70","53.63","LA GRANDE RIVIERE A","7093716","2021-01-30 05:00","2021","01","30","05:00","-25.5","","-28.3","","78","","","","31","","3","","24.1","","100.27","","","","-29","","NA"
"-77.70","53.63","LA GRANDE RIVIERE A","7093716","2021-01-30 06:00","2021","01","30","06:00","-26.3","","-29.1","","78","","","","24","","3","","24.1","","100.34","","","","-29","","NA"
"-77.70","53.63","LA GRANDE RIVIERE A","7093716","2021-01-30 07:00","2021","01","30","07:00","-26.7","","-29.5","","77","","","","23","","5","","24.1","","100.40","","","","-32","","Mainly Clear"
"-77.70","53.63","LA GRANDE RIVIERE A","7093716","2021-01-30 08:00","2021","01","30","08:00","-26.8","","-29.8","","77","","","","36","","2","","1.2","","100.44","","","","-29","","Fog"
"-77.70","53.63","LA GRANDE RIVIERE A","7093716","2021-01-30 09:00","2021","01","30","09:00","-25.8","","-28.6","","78","","","","22","","5","","4.0","","100.48","","","","-31","","Fog"
"-77.70","53.63","LA GRANDE RIVIERE A","7093716","2021-01-30 10:00","2021","01","30","10:00","-24.8","","-27.6","","78","","","","36","","2","","6.4","","100.50","","","","-27","","Fog"
"-77.70","53.63","LA GRANDE RIVIERE A","7093716","2021-01-30 11:00","2021","01","30","11:00","-24.7","","-27.5","","78","","","","26","","5","","16.1","","100.54","","","","-30","","NA"
"-77.70","53.63","LA GRANDE RIVIERE A","7093716","2021-01-30 12:00","2021","01","30","12:00","-22.2","","-24.9","","80","","","","28","","5","","24.1","","100.52","","","","-27","","NA"
"-77.70","53.63","LA GRANDE RIVIERE A","7093716","2021-01-30 13:00","2021","01","30","13:00","-19.9","","-22.3","","81","","","","27","","5","","24.1","","100.51","","","","-24","","Mostly Cloudy"
"-77.70","53.63","LA GRANDE RIVIERE A","7093716","2021-01-30 14:00","2021","01","30","14:00","-18.9","","-21.2","","82","","","","28","","6","","24.1","","100.51","","","","-24","","NA"
"-77.70","53.63","LA GRANDE RIVIERE A","7093716","2021-01-30 15:00","2021","01","30","15:00","-18.1","","-20.4","","83","","","","27","","4","","24.1","","100.52","","","","-21","","NA"
"-77.70","53.63","LA GRANDE RIVIERE A","7093716","2021-01-30 16:00","2021","01","30","16:00","-17.4","","-19.5","","84","","","","28","","5","","24.1","","100.57","","","","-21","","Mainly Clear"
"-77.70","53.63","LA GRANDE RIVIERE A","7093716","2021-01-30 17:00","2021","01","30","17:00","-18.9","","-21.1","","83","","","","29","","9","","24.1","","100.60","","","","-25","","NA"
"-77.70","53.63","LA GRANDE RIVIERE A","7093716","2021-01-30 18:00","2021","01","30","18:00","-20.2","","-22.5","","82","","","","31","","7","","24.1","","100.64","","","","-26","","NA"
"-77.70","53.63","LA GRANDE RIVIERE A","7093716","2021-01-30 19:00","2021","01","30","19:00","-21.2","","-23.6","","81","","","","33","","5","","24.1","","100.67","","","","-26","","Mainly Clear"
"-77.70","53.63","LA GRANDE RIVIERE A","7093716","2021-01-30 20:00","2021","01","30","20:00","-22.4","","-24.9","","80","","","","31","","5","","24.1","","100.69","","","","-27","","NA"
"-77.70","53.63","LA GRANDE RIVIERE A","7093716","2021-01-30 21:00","2021","01","30","21:00","-23.7","","-26.4","","78","","","","29","","9","","1.6","","100.68","","","","-31","","Fog"
"-77.70","53.63","LA GRANDE RIVIERE A","7093716","2021-01-30 22:00","2021","01","30","22:00","-25.4","","-28.2","","78","","","","26","","5","","1.6","","100.68","","","","-30","","Fog"
"-77.70","53.63","LA GRANDE RIVIERE A","7093716","2021-01-30 23:00","2021","01","30","23:00","-25.1","","-27.9","","79","","","","28","","8","","1.6","","100.67","","","","-32","","Fog"
"-77.70","53.63","LA GRANDE RIVIERE A","7093716","2021-01-31 00:00","2021","01","31","00:00","-26.1","","-29.0","","78","","","","25","","4","","1.6","","100.72","","","","-30","","Fog"
"-77.70","53.63","LA GRANDE RIVIERE A","7093716","2021-01-31 01:00","2021","01","31","01:00","-26.3","","-29.1","","78","","","","29","","8","","1.0","","100.71","","","","-34","","Fog"
"-77.70","53.63","LA GRANDE RIVIERE A","7093716","2021-01-31 02:00","2021","01","31","02:00","-26.7","","-29.6","","77","","","","30","","4","","24.1","","100.69","","","","-31","","NA"
"-77.70","53.63","LA GRANDE RIVIERE A","7093716","2021-01-31 03:00","2021","01","31","03:00","-27.3","","-30.2","","77","","","","27","","3","","24.1","","100.72","","","","-30","","NA"
"-77.70","53.63","LA GRANDE RIVIERE A","7093716","2021-01-31 04:00","2021","01","31","04:00","-27.8","","-30.7","","76","","","","28","","7","","24.1","","100.72","","","","-35","","Mainly Clear"
"-77.70","53.63","LA GRANDE RIVIERE A","7093716","2021-01-31 05:00","2021","01","31","05:00","-27.4","","-30.3","","77","","","","36","","2","","24.1","","100.71","","","","-30","","NA"
"-77.70","53.63","LA GRANDE RIVIERE A","7093716","2021-01-31 06:00","2021","01","31","06:00","-28.4","","-31.5","","76","","","","26","","3","","24.1","","100.71","","","","-32","","NA"
"-77.70","53.63","LA GRANDE RIVIERE A","7093716","2021-01-31 07:00","2021","01","31","07:00","-27.8","","-30.7","","76","","","","36","","2","","24.1","","100.74","","","","-30","","Mainly Clear"
"-77.70","53.63","LA GRANDE RIVIERE A","7093716","2021-01-31 08:00","2021","01","31","08:00","-28.4","","-31.4","","76","","","","25","","3","","24.1","","100.81","","","","-32","","NA"
"-77.70","53.63","LA GRANDE RIVIERE A","7093716","2021-01-31 09:00","2021","01","31","09:00","-26.7","","-29.6","","77","","","","36","","3","","24.1","","100.80","","","","-30","","NA"
"-77.70","53.63","LA GRANDE RIVIERE A","7093716","2021-01-31 10:00","2021","01","31","10:00","-25.5","","-28.4","","77","","","","36","","2","","24.1","","100.81","","","","-28","","Clear"
"-77.70","53.63","LA GRANDE RIVIERE A","7093716","2021-01-31 11:00","2021","01","31","11:00","-22.5","","-25.3","","79","","","","8","","3","","24.1","","100.80","","","","-25","","Ice Crystals"
"-77.70","53.63","LA GRANDE RIVIERE A","7093716","2021-01-31 12:00","2021","01","31","12:00","-20.8","","-23.3","","80","","","","36","","1","","24.1","","100.75","","","","-22","","Ice Crystals"
"-77.70","53.63","LA GRANDE RIVIERE A","7093716","2021-01-31 13:00","2021","01","31","13:00","-19.4","","-21.9","","81","","","","36","","2","","24.1","","100.71","","","","-21","","Ice Crystals"
"-77.70","53.63","LA GRANDE RIVIERE A","7093716","2021-01-31 14:00","2021","01","31","14:00","-18.3","","-20.6","","82","","","","36","","1","","24.1","","100.69","","","","-19","","NA"
"-77.70","53.63","LA GRANDE RIVIERE A","7093716","2021-01-31 15:00","2021","01","31","15:00","-18.4","","-20.8","","82","","","","5","","5","","24.1","","100.65","","","","-22","","NA"
"-77.70","53.63","LA GRANDE RIVIERE A","7093716","2021-01-31 16:00","2021","01","31","16:00","-19.5","","-21.8","","82","","","","5","","8","","24.1","","100.66","","","","-26","","Clear"
"-77.70","53.63","LA GRANDE RIVIERE A","7093716","2021-01-31 17:00","2021","01","31","17:00","-20.9","","-23.4","","81","","","","6","","4","","24.1","","100.65","","","","-24","","NA"
"-77.70","53.63","LA GRANDE RIVIERE A","7093716","2021-01-31 18:00","2021","01","31","18:00","-22.8","","-25.4","","80","","","","7","","5","","24.1","","100.70","","","","-27","","NA"
"-77.70","53.63","LA GRANDE RIVIERE A","7093716","2021-01-31 19:00","2021","01","31","19:00","-22.5","","-25.0","","80","","","","10","","5","","24.1","","100.71","","","","-27","","Clear"
"-77.70","53.63","LA GRANDE RIVIERE A","7093716","2021-01-31 20:00","2021","01","31","20:00","-23.6","","-26.2","","80","","","","12","","8","","24.1","","100.69","","","","-30","","NA"
"-77.70","53.63","LA GRANDE RIVIERE A","7093716","2021-01-31 21:00","2021","01","31","21:00","-24.2","","-26.9","","79","","","","12","","11","","24.1","","100.66","","","","-33","","NA"
"-77.70","53.63","LA GRANDE RIVIERE A","7093716","2021-01-31 22:00","2021","01","31","22:00","-24.9","","-27.6","","78","","","","12","","9","","24.1","","100.65","","","","-33","","Clear"
"-77.70","53.63","LA GRANDE RIVIERE A","7093716","2021-01-31 23:00","2021","01","31","23:00","-25.7","","-28.5","","78","","","","13","","6","","24.1","","100.63","","","","-32","","NA"
