"Longitude (x)","Latitude (y)","Station Name","Climate ID","Date/Time (LST)","Year","Month","Day","Time (LST)","Temp (°C)","Temp Flag","Dew Point Temp (°C)","Dew Point Temp Flag","Rel Hum (%)","Rel Hum Flag","Precip. Amount (mm)","Precip. Amount Flag","Wind Dir (10s deg)","Wind Dir Flag","Wind Spd (km/h)","Wind Spd Flag","Visibility (km)","Visibility Flag","Stn Press (kPa)","Stn Press Flag","Hmdx","Hmdx Flag","Wind Chill","Wind Chill Flag","Weather"
"-60.14","47.23","ST PAUL ISLAND (AUT)","8204909","2018-09-01 00:00","2018","09","01","00:00","15.8","","10.0","","68","","","M","6","","22","","","","102.60","","","","","","NA"
"-60.14","47.23","ST PAUL ISLAND (AUT)","8204909","2018-09-01 01:00","2018","09","01","01:00","15.6","","11.2","","75","","","M","11","","15","","","","102.62","","","","","","NA"
"-60.14","47.23","ST PAUL ISLAND (AUT)","8204909","2018-09-01 02:00","2018","09","01","02:00","16.2","","12.8","","80","","","M","15","","17","","","","102.62","","","","","","NA"
"-60.14","47.23","ST PAUL ISLAND (AUT)","8204909","2018-09-01 03:00","2018","09","01","03:00","16.8","","12.8","","77","","","M","17","","24","","","","102.63","","","","","","NA"
"-60.14","47.23","ST PAUL ISLAND (AUT)","8204909","2018-09-01 04:00","2018","09","01","04:00","16.9","","12.9","","77","","","M","17","","28","","","","102.63","","","","","","NA"
"-60.14","47.23","ST PAUL ISLAND (AUT)","8204909","2018-09-01 05:00","2018","09","01","05:00","17.0","","13.2","","78","","","M","15","","29","","","","102.62","","","","","","NA"
"-60.14","47.23","ST PAUL ISLAND (AUT)","8204909","2018-09-01 06:00","2018","09","01","06:00","16.7","","12.6","","77","","","M","16","","31","","","","102.67","","","","","","NA"
"-60.14","47.23","ST PAUL ISLAND (AUT)","8204909","2018-09-01 07:00","2018","09","01","07:00","17.4","","11.3","","67","","","M","16","","28","","","","102.74","","","","","","NA"
"-60.14","47.23","ST PAUL ISLAND (AUT)","8204909","2018-09-01 08:00","2018","09","01","08:00","16.1","","12.3","","78","","","M","17","","29","","","","102.78","","","","","","NA"
"-60.14","47.23","ST PAUL ISLAND (AUT)","8204909","2018-09-01 09:00","2018","09","01","09:00","14.2","","11.7","","85","","","M","14","","32","","","","102.77","","","","","","NA"
"-60.14","47.23","ST PAUL ISLAND (AUT)","8204909","2018-09-01 10:00","2018","09","01","10:00","15.5","","14.0","","91","","","M","9","","4","","","","102.77","","","","","","NA"
"-60.14","47.23","ST PAUL ISLAND (AUT)","8204909","2018-09-01 11:00","2018","09","01","11:00","15.8","","12.8","","83","","","M","21","","15","","","","102.76","","","","","","NA"
"-60.14","47.23","ST PAUL ISLAND (AUT)","8204909","2018-09-01 12:00","2018","09","01","12:00","15.4","","13.2","","87","","","M","17","","20","","","","102.71","","","","","","NA"
"-60.14","47.23","ST PAUL ISLAND (AUT)","8204909","2018-09-01 13:00","2018","09","01","13:00","16.6","","12.3","","76","","","M","15","","33","","","","102.61","","","","","","NA"
"-60.14","47.23","ST PAUL ISLAND (AUT)","8204909","2018-09-01 14:00","2018","09","01","14:00","17.4","","11.8","","70","","","M","15","","33","","","","102.54","","","","","","NA"
"-60.14","47.23","ST PAUL ISLAND (AUT)","8204909","2018-09-01 15:00","2018","09","01","15:00","17.6","","11.6","","68","","","M","16","","31","","","","102.51","","","","","","NA"
"-60.14","47.23","ST PAUL ISLAND (AUT)","8204909","2018-09-01 16:00","2018","09","01","16:00","17.7","","12.0","","69","","","M","16","","35","","","","102.47","","","","","","NA"
"-60.14","47.23","ST PAUL ISLAND (AUT)","8204909","2018-09-01 17:00","2018","09","01","17:00","17.3","","12.0","","71","","","M","16","","33","","","","102.43","","","","","","NA"
"-60.14","47.23","ST PAUL ISLAND (AUT)","8204909","2018-09-01 18:00","2018","09","01","18:00","16.9","","11.9","","72","","","M","17","","34","","","","102.41","","","","","","NA"
"-60.14","47.23","ST PAUL ISLAND (AUT)","8204909","2018-09-01 19:00","2018","09","01","19:00","17.0","","11.3","","69","","","M","17","","37","","","","102.36","","","","","","NA"
"-60.14","47.23","ST PAUL ISLAND (AUT)","8204909","2018-09-01 20:00","2018","09","01","20:00","17.0","","12.1","","73","","","M","17","","30","","","","102.35","","","","","","NA"
"-60.14","47.23","ST PAUL ISLAND (AUT)","8204909","2018-09-01 21:00","2018","09","01","21:00","17.0","","11.8","","72","","","M","17","","32","","","","102.27","","","","","","NA"
"-60.14","47.23","ST PAUL ISLAND (AUT)","8204909","2018-09-01 22:00","2018","09","01","22:00","17.1","","11.9","","72","","","M","18","","21","","","","102.26","","","","","","NA"
"-60.14","47.23","ST PAUL ISLAND (AUT)","8204909","2018-09-01 23:00","2018","09","01","23:00","16.6","","12.2","","75","","","M","20","","22","","","","102.25","","","","","","NA"
"-60.14","47.23","ST PAUL ISLAND (AUT)","8204909","2018-09-02 00:00","2018","09","02","00:00","16.2","","11.1","","72","","","M","20","","23","","","","102.23","","","","","","NA"
"-60.14","47.23","ST PAUL ISLAND (AUT)","8204909","2018-09-02 01:00","2018","09","02","01:00","16.0","","11.3","","74","","","M","19","","22","","","","102.19","","","","","","NA"
"-60.14","47.23","ST PAUL ISLAND (AUT)","8204909","2018-09-02 02:00","2018","09","02","02:00","16.1","","11.6","","75","","","M","19","","21","","","","102.17","","","","","","NA"
"-60.14","47.23","ST PAUL ISLAND (AUT)","8204909","2018-09-02 03:00","2018","09","02","03:00","16.2","","11.4","","73","","","M","18","","20","","","","102.11","","","","","","NA"
"-60.14","47.23","ST PAUL ISLAND (AUT)","8204909","2018-09-02 04:00","2018","09","02","04:00","16.2","","11.4","","73","","","M","19","","21","","","","102.11","","","","","","NA"
"-60.14","47.23","ST PAUL ISLAND (AUT)","8204909","2018-09-02 05:00","2018","09","02","05:00","16.5","","11.2","","71","","","M","20","","19","","","","102.11","","","","","","NA"
"-60.14","47.23","ST PAUL ISLAND (AUT)","8204909","2018-09-02 06:00","2018","09","02","06:00","17.4","","12.0","","70","","","M","21","","20","","","","102.12","","","","","","NA"
"-60.14","47.23","ST PAUL ISLAND (AUT)","8204909","2018-09-02 07:00","2018","09","02","07:00","17.9","","13.6","","76","","","M","22","","23","","","","102.12","","","","","","NA"
"-60.14","47.23","ST PAUL ISLAND (AUT)","8204909","2018-09-02 08:00","2018","09","02","08:00","18.7","","13.5","","72","","","M","21","","18","","","","102.09","","","","","","NA"
"-60.14","47.23","ST PAUL ISLAND (AUT)","8204909","2018-09-02 09:00","2018","09","02","09:00","19.2","","13.4","","69","","","M","22","","18","","","","102.07","","","","","","NA"
"-60.14","47.23","ST PAUL ISLAND (AUT)","8204909","2018-09-02 10:00","2018","09","02","10:00","20.2","","12.6","","62","","","M","21","","17","","","","102.05","","","","","","NA"
"-60.14","47.23","ST PAUL ISLAND (AUT)","8204909","2018-09-02 11:00","2018","09","02","11:00","19.6","","13.1","","66","","","M","24","","44","","","","102.00","","","","","","NA"
"-60.14","47.23","ST PAUL ISLAND (AUT)","8204909","2018-09-02 12:00","2018","09","02","12:00","20.2","","13.8","","67","","","M","25","","37","","","","101.98","","","","","","NA"
"-60.14","47.23","ST PAUL ISLAND (AUT)","8204909","2018-09-02 13:00","2018","09","02","13:00","19.9","","14.6","","72","","","M","23","","26","","","","101.94","","","","","","NA"
"-60.14","47.23","ST PAUL ISLAND (AUT)","8204909","2018-09-02 14:00","2018","09","02","14:00","20.5","","14.0","","66","","","M","20","","13","","","","101.89","","","","","","NA"
"-60.14","47.23","ST PAUL ISLAND (AUT)","8204909","2018-09-02 15:00","2018","09","02","15:00","22.0","","16.1","","69","","","M","27","","12","","","","101.92","","27","","","","NA"
"-60.14","47.23","ST PAUL ISLAND (AUT)","8204909","2018-09-02 16:00","2018","09","02","16:00","20.2","","13.7","","66","","","M","25","","34","","","","101.86","","","","","","NA"
"-60.14","47.23","ST PAUL ISLAND (AUT)","8204909","2018-09-02 17:00","2018","09","02","17:00","20.7","","12.5","","59","","","M","26","","40","","","","101.86","","","","","","NA"
"-60.14","47.23","ST PAUL ISLAND (AUT)","8204909","2018-09-02 18:00","2018","09","02","18:00","19.7","","14.7","","73","","","M","24","","15","","","","101.90","","","","","","NA"
"-60.14","47.23","ST PAUL ISLAND (AUT)","8204909","2018-09-02 19:00","2018","09","02","19:00","20.7","","10.8","","53","","","M","20","","9","","","","101.92","","","","","","NA"
"-60.14","47.23","ST PAUL ISLAND (AUT)","8204909","2018-09-02 20:00","2018","09","02","20:00","19.2","","14.9","","76","","","M","16","","14","","","","101.98","","","","","","NA"
"-60.14","47.23","ST PAUL ISLAND (AUT)","8204909","2018-09-02 21:00","2018","09","02","21:00","19.2","","16.4","","84","","","M","15","","15","","","","101.96","","","","","","NA"
"-60.14","47.23","ST PAUL ISLAND (AUT)","8204909","2018-09-02 22:00","2018","09","02","22:00","19.6","","16.2","","81","","","M","17","","16","","","","101.98","","","","","","NA"
"-60.14","47.23","ST PAUL ISLAND (AUT)","8204909","2018-09-02 23:00","2018","09","02","23:00","20.8","","14.2","","66","","","M","18","","19","","","","101.94","","","","","","NA"
"-60.14","47.23","ST PAUL ISLAND (AUT)","8204909","2018-09-03 00:00","2018","09","03","00:00","20.3","","13.5","","65","","","M","20","","18","","","","101.94","","","","","","NA"
"-60.14","47.23","ST PAUL ISLAND (AUT)","8204909","2018-09-03 01:00","2018","09","03","01:00","19.2","","15.0","","77","","","M","23","","17","","","","101.94","","","","","","NA"
"-60.14","47.23","ST PAUL ISLAND (AUT)","8204909","2018-09-03 02:00","2018","09","03","02:00","19.2","","15.3","","78","","","M","22","","18","","","","101.97","","","","","","NA"
"-60.14","47.23","ST PAUL ISLAND (AUT)","8204909","2018-09-03 03:00","2018","09","03","03:00","19.8","","14.0","","69","","","M","22","","13","","","","101.97","","","","","","NA"
"-60.14","47.23","ST PAUL ISLAND (AUT)","8204909","2018-09-03 04:00","2018","09","03","04:00","19.0","","15.4","","80","","","M","23","","18","","","","101.98","","","","","","NA"
"-60.14","47.23","ST PAUL ISLAND (AUT)","8204909","2018-09-03 05:00","2018","09","03","05:00","18.9","","14.8","","77","","","M","21","","12","","","","102.00","","","","","","NA"
"-60.14","47.23","ST PAUL ISLAND (AUT)","8204909","2018-09-03 06:00","2018","09","03","06:00","19.2","","14.0","","72","","","M","20","","12","","","","101.99","","","","","","NA"
"-60.14","47.23","ST PAUL ISLAND (AUT)","8204909","2018-09-03 07:00","2018","09","03","07:00","19.2","","14.8","","76","","","M","19","","8","","","","102.00","","","","","","NA"
"-60.14","47.23","ST PAUL ISLAND (AUT)","8204909","2018-09-03 08:00","2018","09","03","08:00","19.4","","15.3","","77","","","M","22","","12","","","","102.01","","","","","","NA"
"-60.14","47.23","ST PAUL ISLAND (AUT)","8204909","2018-09-03 09:00","2018","09","03","09:00","20.2","","15.1","","72","","","M","22","","8","","","","102.06","","","","","","NA"
"-60.14","47.23","ST PAUL ISLAND (AUT)","8204909","2018-09-03 10:00","2018","09","03","10:00","20.8","","15.1","","70","","","M","22","","4","","","","102.03","","25","","","","NA"
"-60.14","47.23","ST PAUL ISLAND (AUT)","8204909","2018-09-03 11:00","2018","09","03","11:00","21.6","","16.0","","71","","","M","10","","4","","","","101.96","","26","","","","NA"
"-60.14","47.23","ST PAUL ISLAND (AUT)","8204909","2018-09-03 12:00","2018","09","03","12:00","20.6","","16.5","","78","","","M","12","","8","","","","101.90","","26","","","","NA"
"-60.14","47.23","ST PAUL ISLAND (AUT)","8204909","2018-09-03 13:00","2018","09","03","13:00","22.2","","16.6","","71","","","M","35","","5","","","","101.86","","27","","","","NA"
"-60.14","47.23","ST PAUL ISLAND (AUT)","8204909","2018-09-03 14:00","2018","09","03","14:00","22.1","","16.2","","69","","","M","4","","7","","","","101.80","","27","","","","NA"
"-60.14","47.23","ST PAUL ISLAND (AUT)","8204909","2018-09-03 15:00","2018","09","03","15:00","21.6","","16.6","","73","","","M","12","","7","","","","101.76","","27","","","","NA"
"-60.14","47.23","ST PAUL ISLAND (AUT)","8204909","2018-09-03 16:00","2018","09","03","16:00","21.0","","16.9","","78","","","M","15","","21","","","","101.64","","26","","","","NA"
"-60.14","47.23","ST PAUL ISLAND (AUT)","8204909","2018-09-03 17:00","2018","09","03","17:00","22.4","","16.5","","69","","","M","19","","34","","","","101.56","","27","","","","NA"
"-60.14","47.23","ST PAUL ISLAND (AUT)","8204909","2018-09-03 18:00","2018","09","03","18:00","22.0","","16.0","","69","","","M","19","","38","","","","101.54","","27","","","","NA"
"-60.14","47.23","ST PAUL ISLAND (AUT)","8204909","2018-09-03 19:00","2018","09","03","19:00","21.6","","16.1","","71","","","M","19","","36","","","","101.50","","26","","","","NA"
"-60.14","47.23","ST PAUL ISLAND (AUT)","8204909","2018-09-03 20:00","2018","09","03","20:00","22.3","","16.0","","67","","","M","19","","34","","","","101.51","","27","","","","NA"
"-60.14","47.23","ST PAUL ISLAND (AUT)","8204909","2018-09-03 21:00","2018","09","03","21:00","21.3","","15.8","","71","","","M","18","","26","","","","101.45","","26","","","","NA"
"-60.14","47.23","ST PAUL ISLAND (AUT)","8204909","2018-09-03 22:00","2018","09","03","22:00","20.8","","15.7","","73","","","M","18","","27","","","","101.40","","25","","","","NA"
"-60.14","47.23","ST PAUL ISLAND (AUT)","8204909","2018-09-03 23:00","2018","09","03","23:00","20.9","","15.2","","70","","","M","19","","28","","","","101.37","","25","","","","NA"
"-60.14","47.23","ST PAUL ISLAND (AUT)","8204909","2018-09-04 00:00","2018","09","04","00:00","21.8","","16.1","","70","","","M","21","","23","","","","101.34","","26","","","","NA"
"-60.14","47.23","ST PAUL ISLAND (AUT)","8204909","2018-09-04 01:00","2018","09","04","01:00","21.5","","16.9","","75","","","M","20","","21","","","","101.26","","27","","","","NA"
"-60.14","47.23","ST PAUL ISLAND (AUT)","8204909","2018-09-04 02:00","2018","09","04","02:00","21.6","","17.3","","77","","","M","21","","18","","","","101.17","","27","","","","NA"
"-60.14","47.23","ST PAUL ISLAND (AUT)","8204909","2018-09-04 03:00","2018","09","04","03:00","20.2","","17.2","","83","","","M","23","","33","","","","101.11","","26","","","","NA"
"-60.14","47.23","ST PAUL ISLAND (AUT)","8204909","2018-09-04 04:00","2018","09","04","04:00","20.2","","17.6","","85","","","M","24","","44","","","","101.03","","26","","","","NA"
"-60.14","47.23","ST PAUL ISLAND (AUT)","8204909","2018-09-04 05:00","2018","09","04","05:00","19.7","","17.6","","88","","","M","25","","52","","","","101.05","","","","","","NA"
"-60.14","47.23","ST PAUL ISLAND (AUT)","8204909","2018-09-04 06:00","2018","09","04","06:00","19.2","","17.6","","90","","","M","25","","52","","","","101.07","","","","","","NA"
"-60.14","47.23","ST PAUL ISLAND (AUT)","8204909","2018-09-04 07:00","2018","09","04","07:00","19.1","","17.7","","91","","","M","25","","50","","","","101.09","","","","","","NA"
"-60.14","47.23","ST PAUL ISLAND (AUT)","8204909","2018-09-04 08:00","2018","09","04","08:00","19.1","","18.0","","93","","","M","26","","50","","","","101.10","","","","","","NA"
"-60.14","47.23","ST PAUL ISLAND (AUT)","8204909","2018-09-04 09:00","2018","09","04","09:00","18.7","","16.5","","87","","","M","29","","41","","","","101.17","","","","","","NA"
"-60.14","47.23","ST PAUL ISLAND (AUT)","8204909","2018-09-04 10:00","2018","09","04","10:00","18.1","","14.7","","80","","","M","30","","39","","","","101.21","","","","","","NA"
"-60.14","47.23","ST PAUL ISLAND (AUT)","8204909","2018-09-04 11:00","2018","09","04","11:00","18.4","","14.8","","80","","","M","31","","38","","","","101.24","","","","","","NA"
"-60.14","47.23","ST PAUL ISLAND (AUT)","8204909","2018-09-04 12:00","2018","09","04","12:00","18.5","","14.1","","76","","","M","31","","36","","","","101.26","","","","","","NA"
"-60.14","47.23","ST PAUL ISLAND (AUT)","8204909","2018-09-04 13:00","2018","09","04","13:00","18.4","","13.1","","71","","","M","31","","42","","","","101.24","","","","","","NA"
"-60.14","47.23","ST PAUL ISLAND (AUT)","8204909","2018-09-04 14:00","2018","09","04","14:00","18.5","","12.6","","68","","","M","31","","45","","","","101.22","","","","","","NA"
"-60.14","47.23","ST PAUL ISLAND (AUT)","8204909","2018-09-04 15:00","2018","09","04","15:00","18.3","","10.9","","62","","","M","32","","56","","","","101.27","","","","","","NA"
"-60.14","47.23","ST PAUL ISLAND (AUT)","8204909","2018-09-04 16:00","2018","09","04","16:00","18.6","","12.9","","70","","","M","30","","36","","","","101.35","","","","","","NA"
"-60.14","47.23","ST PAUL ISLAND (AUT)","8204909","2018-09-04 17:00","2018","09","04","17:00","18.0","","12.2","","69","","","M","31","","41","","","","101.36","","","","","","NA"
"-60.14","47.23","ST PAUL ISLAND (AUT)","8204909","2018-09-04 18:00","2018","09","04","18:00","17.5","","10.9","","65","","","M","31","","46","","","","101.40","","","","","","NA"
"-60.14","47.23","ST PAUL ISLAND (AUT)","8204909","2018-09-04 19:00","2018","09","04","19:00","17.0","","10.7","","67","","","M","30","","42","","","","101.41","","","","","","NA"
"-60.14","47.23","ST PAUL ISLAND (AUT)","8204909","2018-09-04 20:00","2018","09","04","20:00","17.1","","11.2","","68","","","M","30","","40","","","","101.47","","","","","","NA"
"-60.14","47.23","ST PAUL ISLAND (AUT)","8204909","2018-09-04 21:00","2018","09","04","21:00","17.4","","11.5","","69","","","M","30","","37","","","","101.49","","","","","","NA"
"-60.14","47.23","ST PAUL ISLAND (AUT)","8204909","2018-09-04 22:00","2018","09","04","22:00","17.3","","11.8","","70","","","M","29","","36","","","","101.53","","","","","","NA"
"-60.14","47.23","ST PAUL ISLAND (AUT)","8204909","2018-09-04 23:00","2018","09","04","23:00","17.7","","12.0","","69","","","M","32","","35","","","","101.53","","","","","","NA"
"-60.14","47.23","ST PAUL ISLAND (AUT)","8204909","2018-09-05 00:00","2018","09","05","00:00","17.5","","12.4","","72","","","M","31","","40","","","","101.54","","","","","","NA"
"-60.14","47.23","ST PAUL ISLAND (AUT)","8204909","2018-09-05 01:00","2018","09","05","01:00","17.3","","12.2","","72","","","M","31","","41","","","","101.51","","","","","","NA"
"-60.14","47.23","ST PAUL ISLAND (AUT)","8204909","2018-09-05 02:00","2018","09","05","02:00","17.1","","12.2","","73","","","M","31","","38","","","","101.55","","","","","","NA"
"-60.14","47.23","ST PAUL ISLAND (AUT)","8204909","2018-09-05 03:00","2018","09","05","03:00","17.0","","11.9","","72","","","M","31","","37","","","","101.59","","","","","","NA"
"-60.14","47.23","ST PAUL ISLAND (AUT)","8204909","2018-09-05 04:00","2018","09","05","04:00","17.1","","12.3","","73","","","M","31","","33","","","","101.65","","","","","","NA"
"-60.14","47.23","ST PAUL ISLAND (AUT)","8204909","2018-09-05 05:00","2018","09","05","05:00","16.7","","12.3","","75","","","M","32","","31","","","","101.69","","","","","","NA"
"-60.14","47.23","ST PAUL ISLAND (AUT)","8204909","2018-09-05 06:00","2018","09","05","06:00","16.6","","12.7","","78","","","M","32","","29","","","","101.77","","","","","","NA"
"-60.14","47.23","ST PAUL ISLAND (AUT)","8204909","2018-09-05 07:00","2018","09","05","07:00","16.8","","13.4","","81","","","M","32","","21","","","","101.83","","","","","","NA"
"-60.14","47.23","ST PAUL ISLAND (AUT)","8204909","2018-09-05 08:00","2018","09","05","08:00","17.4","","12.9","","75","","","M","33","","17","","","","101.88","","","","","","NA"
"-60.14","47.23","ST PAUL ISLAND (AUT)","8204909","2018-09-05 09:00","2018","09","05","09:00","17.6","","12.4","","72","","","M","31","","12","","","","101.90","","","","","","NA"
"-60.14","47.23","ST PAUL ISLAND (AUT)","8204909","2018-09-05 10:00","2018","09","05","10:00","17.8","","12.6","","72","","","M","31","","16","","","","101.91","","","","","","NA"
"-60.14","47.23","ST PAUL ISLAND (AUT)","8204909","2018-09-05 11:00","2018","09","05","11:00","17.9","","14.0","","78","","","M","30","","19","","","","101.93","","","","","","NA"
"-60.14","47.23","ST PAUL ISLAND (AUT)","8204909","2018-09-05 12:00","2018","09","05","12:00","18.0","","12.5","","71","","","M","31","","13","","","","101.92","","","","","","NA"
"-60.14","47.23","ST PAUL ISLAND (AUT)","8204909","2018-09-05 13:00","2018","09","05","13:00","18.1","","11.9","","67","","","M","32","","14","","","","101.87","","","","","","NA"
"-60.14","47.23","ST PAUL ISLAND (AUT)","8204909","2018-09-05 14:00","2018","09","05","14:00","18.8","","12.6","","67","","","M","30","","12","","","","101.86","","","","","","NA"
"-60.14","47.23","ST PAUL ISLAND (AUT)","8204909","2018-09-05 15:00","2018","09","05","15:00","18.7","","12.4","","67","","","M","29","","14","","","","101.89","","","","","","NA"
"-60.14","47.23","ST PAUL ISLAND (AUT)","8204909","2018-09-05 16:00","2018","09","05","16:00","17.4","","12.0","","71","","","M","31","","10","","","","101.90","","","","","","NA"
"-60.14","47.23","ST PAUL ISLAND (AUT)","8204909","2018-09-05 17:00","2018","09","05","17:00","17.2","","11.8","","71","","","M","27","","7","","","","101.87","","","","","","NA"
"-60.14","47.23","ST PAUL ISLAND (AUT)","8204909","2018-09-05 18:00","2018","09","05","18:00","17.0","","11.9","","72","","","M","25","","8","","","","101.87","","","","","","NA"
"-60.14","47.23","ST PAUL ISLAND (AUT)","8204909","2018-09-05 19:00","2018","09","05","19:00","16.8","","12.0","","74","","","M","0","","1","","","","101.82","","","","","","NA"
"-60.14","47.23","ST PAUL ISLAND (AUT)","8204909","2018-09-05 20:00","2018","09","05","20:00","17.1","","12.9","","76","","","M","17","","9","","","","101.81","","","","","","NA"
"-60.14","47.23","ST PAUL ISLAND (AUT)","8204909","2018-09-05 21:00","2018","09","05","21:00","17.2","","13.4","","78","","","M","16","","16","","","","101.72","","","","","","NA"
"-60.14","47.23","ST PAUL ISLAND (AUT)","8204909","2018-09-05 22:00","2018","09","05","22:00","17.7","","13.5","","76","","","M","17","","28","","","","101.68","","","","","","NA"
"-60.14","47.23","ST PAUL ISLAND (AUT)","8204909","2018-09-05 23:00","2018","09","05","23:00","17.8","","14.5","","81","","","M","17","","33","","","","101.61","","","","","","NA"
"-60.14","47.23","ST PAUL ISLAND (AUT)","8204909","2018-09-06 00:00","2018","09","06","00:00","18.2","","15.6","","85","","","M","17","","27","","","","101.55","","","","","","NA"
"-60.14","47.23","ST PAUL ISLAND (AUT)","8204909","2018-09-06 01:00","2018","09","06","01:00","18.1","","15.8","","86","","","M","17","","30","","","","101.45","","","","","","NA"
"-60.14","47.23","ST PAUL ISLAND (AUT)","8204909","2018-09-06 02:00","2018","09","06","02:00","18.7","","14.7","","78","","","M","18","","28","","","","101.35","","","","","","NA"
"-60.14","47.23","ST PAUL ISLAND (AUT)","8204909","2018-09-06 03:00","2018","09","06","03:00","18.4","","15.5","","83","","","M","17","","29","","","","101.25","","","","","","NA"
"-60.14","47.23","ST PAUL ISLAND (AUT)","8204909","2018-09-06 04:00","2018","09","06","04:00","18.7","","15.6","","83","","","M","17","","33","","","","101.12","","","","","","NA"
"-60.14","47.23","ST PAUL ISLAND (AUT)","8204909","2018-09-06 05:00","2018","09","06","05:00","19.5","","13.4","","68","","","M","18","","30","","","","101.03","","","","","","NA"
"-60.14","47.23","ST PAUL ISLAND (AUT)","8204909","2018-09-06 06:00","2018","09","06","06:00","19.8","","13.2","","66","","","M","18","","31","","","","100.92","","","","","","NA"
"-60.14","47.23","ST PAUL ISLAND (AUT)","8204909","2018-09-06 07:00","2018","09","06","07:00","20.3","","14.5","","69","","","M","19","","41","","","","100.83","","","","","","NA"
"-60.14","47.23","ST PAUL ISLAND (AUT)","8204909","2018-09-06 08:00","2018","09","06","08:00","21.3","","15.5","","70","","","M","19","","33","","","","100.71","","26","","","","NA"
"-60.14","47.23","ST PAUL ISLAND (AUT)","8204909","2018-09-06 09:00","2018","09","06","09:00","22.9","","16.9","","69","","","M","20","","34","","","","100.60","","28","","","","NA"
"-60.14","47.23","ST PAUL ISLAND (AUT)","8204909","2018-09-06 10:00","2018","09","06","10:00","22.9","","17.2","","70","","","M","24","","50","","","","100.47","","28","","","","NA"
"-60.14","47.23","ST PAUL ISLAND (AUT)","8204909","2018-09-06 11:00","2018","09","06","11:00","22.0","","16.3","","70","","","M","25","","77","","","","100.36","","27","","","","NA"
"-60.14","47.23","ST PAUL ISLAND (AUT)","8204909","2018-09-06 12:00","2018","09","06","12:00","21.2","","16.3","","74","","","M","25","","74","","","","100.41","","26","","","","NA"
"-60.14","47.23","ST PAUL ISLAND (AUT)","8204909","2018-09-06 13:00","2018","09","06","13:00","20.8","","16.9","","78","","","M","26","","78","","","","100.39","","26","","","","NA"
"-60.14","47.23","ST PAUL ISLAND (AUT)","8204909","2018-09-06 14:00","2018","09","06","14:00","17.1","","14.9","","87","","","M","29","","58","","","","100.61","","","","","","NA"
"-60.14","47.23","ST PAUL ISLAND (AUT)","8204909","2018-09-06 15:00","2018","09","06","15:00","17.4","","13.9","","80","","","M","30","","59","","","","100.71","","","","","","NA"
"-60.14","47.23","ST PAUL ISLAND (AUT)","8204909","2018-09-06 16:00","2018","09","06","16:00","17.1","","13.6","","80","","","M","30","","53","","","","100.80","","","","","","NA"
"-60.14","47.23","ST PAUL ISLAND (AUT)","8204909","2018-09-06 17:00","2018","09","06","17:00","17.2","","13.0","","76","","","M","31","","48","","","","100.86","","","","","","NA"
"-60.14","47.23","ST PAUL ISLAND (AUT)","8204909","2018-09-06 18:00","2018","09","06","18:00","16.4","","12.6","","78","","","M","31","","50","","","","100.93","","","","","","NA"
"-60.14","47.23","ST PAUL ISLAND (AUT)","8204909","2018-09-06 19:00","2018","09","06","19:00","15.9","","10.7","","71","","","M","31","","52","","","","100.95","","","","","","NA"
"-60.14","47.23","ST PAUL ISLAND (AUT)","8204909","2018-09-06 20:00","2018","09","06","20:00","15.8","","10.6","","71","","","M","31","","56","","","","101.02","","","","","","NA"
"-60.14","47.23","ST PAUL ISLAND (AUT)","8204909","2018-09-06 21:00","2018","09","06","21:00","15.9","","10.9","","72","","","M","31","","56","","","","101.08","","","","","","NA"
"-60.14","47.23","ST PAUL ISLAND (AUT)","8204909","2018-09-06 22:00","2018","09","06","22:00","16.0","","10.9","","72","","","M","32","","51","","","","101.15","","","","","","NA"
"-60.14","47.23","ST PAUL ISLAND (AUT)","8204909","2018-09-06 23:00","2018","09","06","23:00","16.3","","10.6","","69","","","M","32","","50","","","","101.17","","","","","","NA"
"-60.14","47.23","ST PAUL ISLAND (AUT)","8204909","2018-09-07 00:00","2018","09","07","00:00","16.3","","10.7","","69","","","M","32","","50","","","","101.20","","","","","","NA"
"-60.14","47.23","ST PAUL ISLAND (AUT)","8204909","2018-09-07 01:00","2018","09","07","01:00","16.1","","11.4","","74","","","M","31","","42","","","","101.23","","","","","","NA"
"-60.14","47.23","ST PAUL ISLAND (AUT)","8204909","2018-09-07 02:00","2018","09","07","02:00","15.9","","11.2","","74","","","M","31","","47","","","","101.26","","","","","","NA"
"-60.14","47.23","ST PAUL ISLAND (AUT)","8204909","2018-09-07 03:00","2018","09","07","03:00","15.7","","11.1","","74","","","M","31","","42","","","","101.30","","","","","","NA"
"-60.14","47.23","ST PAUL ISLAND (AUT)","8204909","2018-09-07 04:00","2018","09","07","04:00","15.5","","11.4","","76","","","M","31","","39","","","","101.33","","","","","","NA"
"-60.14","47.23","ST PAUL ISLAND (AUT)","8204909","2018-09-07 05:00","2018","09","07","05:00","15.5","","11.4","","76","","","M","32","","37","","","","101.40","","","","","","NA"
"-60.14","47.23","ST PAUL ISLAND (AUT)","8204909","2018-09-07 06:00","2018","09","07","06:00","15.5","","11.7","","78","","","M","32","","30","","","","101.46","","","","","","NA"
"-60.14","47.23","ST PAUL ISLAND (AUT)","8204909","2018-09-07 07:00","2018","09","07","07:00","15.8","","11.8","","77","","","M","32","","27","","","","101.49","","","","","","NA"
"-60.14","47.23","ST PAUL ISLAND (AUT)","8204909","2018-09-07 08:00","2018","09","07","08:00","15.6","","11.5","","76","","","M","32","","31","","","","101.53","","","","","","NA"
"-60.14","47.23","ST PAUL ISLAND (AUT)","8204909","2018-09-07 09:00","2018","09","07","09:00","16.5","","10.5","","68","","","M","33","","25","","","","101.57","","","","","","NA"
"-60.14","47.23","ST PAUL ISLAND (AUT)","8204909","2018-09-07 10:00","2018","09","07","10:00","16.5","","11.2","","71","","","M","32","","24","","","","101.59","","","","","","NA"
"-60.14","47.23","ST PAUL ISLAND (AUT)","8204909","2018-09-07 11:00","2018","09","07","11:00","17.0","","11.7","","71","","","M","30","","21","","","","101.59","","","","","","NA"
"-60.14","47.23","ST PAUL ISLAND (AUT)","8204909","2018-09-07 12:00","2018","09","07","12:00","17.0","","11.2","","68","","","M","29","","24","","","","101.59","","","","","","NA"
"-60.14","47.23","ST PAUL ISLAND (AUT)","8204909","2018-09-07 13:00","2018","09","07","13:00","16.8","","10.7","","67","","","M","30","","25","","","","101.56","","","","","","NA"
"-60.14","47.23","ST PAUL ISLAND (AUT)","8204909","2018-09-07 14:00","2018","09","07","14:00","16.8","","10.4","","66","","","M","30","","24","","","","101.53","","","","","","NA"
"-60.14","47.23","ST PAUL ISLAND (AUT)","8204909","2018-09-07 15:00","2018","09","07","15:00","16.8","","9.6","","63","","","M","29","","24","","","","101.51","","","","","","NA"
"-60.14","47.23","ST PAUL ISLAND (AUT)","8204909","2018-09-07 16:00","2018","09","07","16:00","16.4","","8.1","","58","","","M","28","","25","","","","101.48","","","","","","NA"
"-60.14","47.23","ST PAUL ISLAND (AUT)","8204909","2018-09-07 17:00","2018","09","07","17:00","16.3","","8.6","","60","","","M","27","","24","","","","101.43","","","","","","NA"
"-60.14","47.23","ST PAUL ISLAND (AUT)","8204909","2018-09-07 18:00","2018","09","07","18:00","15.6","","8.9","","64","","","M","26","","22","","","","101.40","","","","","","NA"
"-60.14","47.23","ST PAUL ISLAND (AUT)","8204909","2018-09-07 19:00","2018","09","07","19:00","15.6","","9.8","","68","","","M","26","","20","","","","101.38","","","","","","NA"
"-60.14","47.23","ST PAUL ISLAND (AUT)","8204909","2018-09-07 20:00","2018","09","07","20:00","15.6","","9.3","","66","","","M","25","","16","","","","101.38","","","","","","NA"
"-60.14","47.23","ST PAUL ISLAND (AUT)","8204909","2018-09-07 21:00","2018","09","07","21:00","15.4","","9.4","","67","","","M","21","","12","","","","101.34","","","","","","NA"
"-60.14","47.23","ST PAUL ISLAND (AUT)","8204909","2018-09-07 22:00","2018","09","07","22:00","16.3","","10.2","","67","","","M","24","","27","","","","101.30","","","","","","NA"
"-60.14","47.23","ST PAUL ISLAND (AUT)","8204909","2018-09-07 23:00","2018","09","07","23:00","16.4","","11.2","","71","","","M","23","","28","","","","101.24","","","","","","NA"
"-60.14","47.23","ST PAUL ISLAND (AUT)","8204909","2018-09-08 00:00","2018","09","08","00:00","16.1","","11.1","","72","","","M","22","","23","","","","101.18","","","","","","NA"
"-60.14","47.23","ST PAUL ISLAND (AUT)","8204909","2018-09-08 01:00","2018","09","08","01:00","16.1","","10.5","","69","","","M","21","","23","","","","101.09","","","","","","NA"
"-60.14","47.23","ST PAUL ISLAND (AUT)","8204909","2018-09-08 02:00","2018","09","08","02:00","15.8","","11.1","","74","","","M","21","","18","","","","101.02","","","","","","NA"
"-60.14","47.23","ST PAUL ISLAND (AUT)","8204909","2018-09-08 03:00","2018","09","08","03:00","15.6","","9.8","","69","","","M","21","","15","","","","100.94","","","","","","NA"
"-60.14","47.23","ST PAUL ISLAND (AUT)","8204909","2018-09-08 04:00","2018","09","08","04:00","16.4","","10.7","","69","","","M","21","","19","","","","100.88","","","","","","NA"
"-60.14","47.23","ST PAUL ISLAND (AUT)","8204909","2018-09-08 05:00","2018","09","08","05:00","17.0","","12.4","","74","","","M","26","","41","","","","100.82","","","","","","NA"
"-60.14","47.23","ST PAUL ISLAND (AUT)","8204909","2018-09-08 06:00","2018","09","08","06:00","15.4","","11.0","","75","","","M","33","","37","","","","100.86","","","","","","NA"
"-60.14","47.23","ST PAUL ISLAND (AUT)","8204909","2018-09-08 07:00","2018","09","08","07:00","14.8","","7.4","","61","","","M","33","","37","","","","100.91","","","","","","NA"
"-60.14","47.23","ST PAUL ISLAND (AUT)","8204909","2018-09-08 08:00","2018","09","08","08:00","14.6","","7.7","","63","","","M","33","","34","","","","100.93","","","","","","NA"
"-60.14","47.23","ST PAUL ISLAND (AUT)","8204909","2018-09-08 09:00","2018","09","08","09:00","14.7","","6.1","","56","","","M","34","","32","","","","101.00","","","","","","NA"
"-60.14","47.23","ST PAUL ISLAND (AUT)","8204909","2018-09-08 10:00","2018","09","08","10:00","15.1","","4.9","","51","","","M","34","","34","","","","101.05","","","","","","NA"
"-60.14","47.23","ST PAUL ISLAND (AUT)","8204909","2018-09-08 11:00","2018","09","08","11:00","15.3","","4.9","","50","","","M","33","","32","","","","101.07","","","","","","NA"
"-60.14","47.23","ST PAUL ISLAND (AUT)","8204909","2018-09-08 12:00","2018","09","08","12:00","14.9","","4.4","","49","","","M","32","","34","","","","101.09","","","","","","NA"
"-60.14","47.23","ST PAUL ISLAND (AUT)","8204909","2018-09-08 13:00","2018","09","08","13:00","14.9","","5.1","","52","","","M","31","","32","","","","101.08","","","","","","NA"
"-60.14","47.23","ST PAUL ISLAND (AUT)","8204909","2018-09-08 14:00","2018","09","08","14:00","14.4","","6.7","","60","","","M","30","","35","","","","101.10","","","","","","NA"
"-60.14","47.23","ST PAUL ISLAND (AUT)","8204909","2018-09-08 15:00","2018","09","08","15:00","14.3","","7.4","","63","","","M","31","","43","","","","101.12","","","","","","NA"
"-60.14","47.23","ST PAUL ISLAND (AUT)","8204909","2018-09-08 16:00","2018","09","08","16:00","13.4","","6.6","","63","","","M","31","","44","","","","101.14","","","","","","NA"
"-60.14","47.23","ST PAUL ISLAND (AUT)","8204909","2018-09-08 17:00","2018","09","08","17:00","13.4","","5.6","","59","","","M","31","","47","","","","101.18","","","","","","NA"
"-60.14","47.23","ST PAUL ISLAND (AUT)","8204909","2018-09-08 18:00","2018","09","08","18:00","12.8","","6.7","","66","","","M","31","","46","","","","101.25","","","","","","NA"
"-60.14","47.23","ST PAUL ISLAND (AUT)","8204909","2018-09-08 19:00","2018","09","08","19:00","12.6","","6.6","","67","","","M","32","","39","","","","101.31","","","","","","NA"
"-60.14","47.23","ST PAUL ISLAND (AUT)","8204909","2018-09-08 20:00","2018","09","08","20:00","12.8","","6.3","","65","","","M","32","","37","","","","101.37","","","","","","NA"
"-60.14","47.23","ST PAUL ISLAND (AUT)","8204909","2018-09-08 21:00","2018","09","08","21:00","13.0","","7.0","","67","","","M","32","","37","","","","101.41","","","","","","NA"
"-60.14","47.23","ST PAUL ISLAND (AUT)","8204909","2018-09-08 22:00","2018","09","08","22:00","12.9","","6.2","","64","","","M","32","","34","","","","101.46","","","","","","NA"
"-60.14","47.23","ST PAUL ISLAND (AUT)","8204909","2018-09-08 23:00","2018","09","08","23:00","13.0","","6.3","","64","","","M","32","","31","","","","101.47","","","","","","NA"
"-60.14","47.23","ST PAUL ISLAND (AUT)","8204909","2018-09-09 00:00","2018","09","09","00:00","13.2","","6.3","","63","","","M","33","","31","","","","101.51","","","","","","NA"
"-60.14","47.23","ST PAUL ISLAND (AUT)","8204909","2018-09-09 01:00","2018","09","09","01:00","13.2","","5.8","","61","","","M","33","","30","","","","101.52","","","","","","NA"
"-60.14","47.23","ST PAUL ISLAND (AUT)","8204909","2018-09-09 02:00","2018","09","09","02:00","13.3","","3.8","","53","","","M","33","","29","","","","101.51","","","","","","NA"
"-60.14","47.23","ST PAUL ISLAND (AUT)","8204909","2018-09-09 03:00","2018","09","09","03:00","13.4","","4.0","","53","","","M","32","","26","","","","101.54","","","","","","NA"
"-60.14","47.23","ST PAUL ISLAND (AUT)","8204909","2018-09-09 04:00","2018","09","09","04:00","13.4","","5.4","","58","","","M","32","","26","","","","101.57","","","","","","NA"
"-60.14","47.23","ST PAUL ISLAND (AUT)","8204909","2018-09-09 05:00","2018","09","09","05:00","13.2","","5.7","","60","","","M","31","","24","","","","101.60","","","","","","NA"
"-60.14","47.23","ST PAUL ISLAND (AUT)","8204909","2018-09-09 06:00","2018","09","09","06:00","13.1","","7.6","","69","","","M","29","","24","","","","101.66","","","","","","NA"
"-60.14","47.23","ST PAUL ISLAND (AUT)","8204909","2018-09-09 07:00","2018","09","09","07:00","13.3","","8.1","","71","","","M","30","","27","","","","101.70","","","","","","NA"
"-60.14","47.23","ST PAUL ISLAND (AUT)","8204909","2018-09-09 08:00","2018","09","09","08:00","13.8","","8.5","","71","","","M","31","","28","","","","101.75","","","","","","NA"
"-60.14","47.23","ST PAUL ISLAND (AUT)","8204909","2018-09-09 09:00","2018","09","09","09:00","14.2","","8.0","","66","","","M","31","","25","","","","101.82","","","","","","NA"
"-60.14","47.23","ST PAUL ISLAND (AUT)","8204909","2018-09-09 10:00","2018","09","09","10:00","14.9","","6.9","","59","","","M","31","","26","","","","101.87","","","","","","NA"
"-60.14","47.23","ST PAUL ISLAND (AUT)","8204909","2018-09-09 11:00","2018","09","09","11:00","14.7","","7.4","","62","","","M","31","","33","","","","101.91","","","","","","NA"
"-60.14","47.23","ST PAUL ISLAND (AUT)","8204909","2018-09-09 12:00","2018","09","09","12:00","14.6","","6.5","","58","","","M","32","","32","","","","101.95","","","","","","NA"
"-60.14","47.23","ST PAUL ISLAND (AUT)","8204909","2018-09-09 13:00","2018","09","09","13:00","14.5","","7.2","","61","","","M","32","","31","","","","101.99","","","","","","NA"
"-60.14","47.23","ST PAUL ISLAND (AUT)","8204909","2018-09-09 14:00","2018","09","09","14:00","14.8","","6.9","","59","","","M","32","","30","","","","102.01","","","","","","NA"
"-60.14","47.23","ST PAUL ISLAND (AUT)","8204909","2018-09-09 15:00","2018","09","09","15:00","14.3","","6.9","","61","","","M","32","","31","","","","102.05","","","","","","NA"
"-60.14","47.23","ST PAUL ISLAND (AUT)","8204909","2018-09-09 16:00","2018","09","09","16:00","14.0","","7.3","","64","","","M","32","","30","","","","102.07","","","","","","NA"
"-60.14","47.23","ST PAUL ISLAND (AUT)","8204909","2018-09-09 17:00","2018","09","09","17:00","13.6","","6.2","","61","","","M","33","","29","","","","102.11","","","","","","NA"
"-60.14","47.23","ST PAUL ISLAND (AUT)","8204909","2018-09-09 18:00","2018","09","09","18:00","13.0","","6.2","","64","","","M","34","","28","","","","102.14","","","","","","NA"
"-60.14","47.23","ST PAUL ISLAND (AUT)","8204909","2018-09-09 19:00","2018","09","09","19:00","12.7","","5.7","","63","","","M","34","","26","","","","102.22","","","","","","NA"
"-60.14","47.23","ST PAUL ISLAND (AUT)","8204909","2018-09-09 20:00","2018","09","09","20:00","12.8","","5.1","","59","","","M","34","","22","","","","102.31","","","","","","NA"
"-60.14","47.23","ST PAUL ISLAND (AUT)","8204909","2018-09-09 21:00","2018","09","09","21:00","12.6","","4.5","","58","","","M","33","","18","","","","102.37","","","","","","NA"
"-60.14","47.23","ST PAUL ISLAND (AUT)","8204909","2018-09-09 22:00","2018","09","09","22:00","12.6","","5.2","","60","","","M","33","","19","","","","102.42","","","","","","NA"
"-60.14","47.23","ST PAUL ISLAND (AUT)","8204909","2018-09-09 23:00","2018","09","09","23:00","12.7","","6.5","","66","","","M","33","","22","","","","102.44","","","","","","NA"
"-60.14","47.23","ST PAUL ISLAND (AUT)","8204909","2018-09-10 00:00","2018","09","10","00:00","12.8","","5.5","","61","","","M","33","","23","","","","102.49","","","","","","NA"
"-60.14","47.23","ST PAUL ISLAND (AUT)","8204909","2018-09-10 01:00","2018","09","10","01:00","12.6","","5.2","","61","","","M","34","","19","","","","102.52","","","","","","NA"
"-60.14","47.23","ST PAUL ISLAND (AUT)","8204909","2018-09-10 02:00","2018","09","10","02:00","12.6","","5.2","","60","","","M","32","","22","","","","102.57","","","","","","NA"
"-60.14","47.23","ST PAUL ISLAND (AUT)","8204909","2018-09-10 03:00","2018","09","10","03:00","12.4","","5.4","","62","","","M","34","","17","","","","102.59","","","","","","NA"
"-60.14","47.23","ST PAUL ISLAND (AUT)","8204909","2018-09-10 04:00","2018","09","10","04:00","12.8","","4.9","","59","","","M","34","","17","","","","102.63","","","","","","NA"
"-60.14","47.23","ST PAUL ISLAND (AUT)","8204909","2018-09-10 05:00","2018","09","10","05:00","12.9","","4.8","","58","","","M","36","","16","","","","102.71","","","","","","NA"
"-60.14","47.23","ST PAUL ISLAND (AUT)","8204909","2018-09-10 06:00","2018","09","10","06:00","13.4","","4.3","","54","","","M","2","","17","","","","102.78","","","","","","NA"
"-60.14","47.23","ST PAUL ISLAND (AUT)","8204909","2018-09-10 07:00","2018","09","10","07:00","14.1","","3.1","","48","","","M","5","","7","","","","102.80","","","","","","NA"
"-60.14","47.23","ST PAUL ISLAND (AUT)","8204909","2018-09-10 08:00","2018","09","10","08:00","15.0","","3.8","","47","","","M","6","","4","","","","102.85","","","","","","NA"
"-60.14","47.23","ST PAUL ISLAND (AUT)","8204909","2018-09-10 09:00","2018","09","10","09:00","15.8","","4.3","","46","","","M","32","","3","","","","102.90","","","","","","NA"
"-60.14","47.23","ST PAUL ISLAND (AUT)","8204909","2018-09-10 10:00","2018","09","10","10:00","16.5","","5.0","","47","","","M","34","","5","","","","102.92","","","","","","NA"
"-60.14","47.23","ST PAUL ISLAND (AUT)","8204909","2018-09-10 11:00","2018","09","10","11:00","16.2","","3.8","","44","","","M","5","","3","","","","102.90","","","","","","NA"
"-60.14","47.23","ST PAUL ISLAND (AUT)","8204909","2018-09-10 12:00","2018","09","10","12:00","16.4","","4.1","","44","","","M","29","","4","","","","102.93","","","","","","NA"
"-60.14","47.23","ST PAUL ISLAND (AUT)","8204909","2018-09-10 13:00","2018","09","10","13:00","17.1","","4.8","","44","","","M","29","","3","","","","102.91","","","","","","NA"
"-60.14","47.23","ST PAUL ISLAND (AUT)","8204909","2018-09-10 14:00","2018","09","10","14:00","15.8","","3.7","","44","","","M","24","","10","","","","102.95","","","","","","NA"
"-60.14","47.23","ST PAUL ISLAND (AUT)","8204909","2018-09-10 15:00","2018","09","10","15:00","16.3","","3.5","","42","","","M","24","","5","","","","102.93","","","","","","NA"
"-60.14","47.23","ST PAUL ISLAND (AUT)","8204909","2018-09-10 16:00","2018","09","10","16:00","16.2","","2.9","","41","","","M","22","","4","","","","102.89","","","","","","NA"
"-60.14","47.23","ST PAUL ISLAND (AUT)","8204909","2018-09-10 17:00","2018","09","10","17:00","15.1","","3.3","","45","","","M","17","","10","","","","102.87","","","","","","NA"
"-60.14","47.23","ST PAUL ISLAND (AUT)","8204909","2018-09-10 18:00","2018","09","10","18:00","14.2","","5.8","","57","","","M","16","","7","","","","102.89","","","","","","NA"
"-60.14","47.23","ST PAUL ISLAND (AUT)","8204909","2018-09-10 19:00","2018","09","10","19:00","14.0","","4.8","","54","","","M","20","","16","","","","102.91","","","","","","NA"
"-60.14","47.23","ST PAUL ISLAND (AUT)","8204909","2018-09-10 20:00","2018","09","10","20:00","14.2","","5.0","","54","","","M","20","","18","","","","102.93","","","","","","NA"
"-60.14","47.23","ST PAUL ISLAND (AUT)","8204909","2018-09-10 21:00","2018","09","10","21:00","14.3","","5.7","","56","","","M","19","","19","","","","102.89","","","","","","NA"
"-60.14","47.23","ST PAUL ISLAND (AUT)","8204909","2018-09-10 22:00","2018","09","10","22:00","14.5","","7.2","","61","","","M","19","","18","","","","102.87","","","","","","NA"
"-60.14","47.23","ST PAUL ISLAND (AUT)","8204909","2018-09-10 23:00","2018","09","10","23:00","14.3","","7.6","","64","","","M","19","","20","","","","102.83","","","","","","NA"
"-60.14","47.23","ST PAUL ISLAND (AUT)","8204909","2018-09-11 00:00","2018","09","11","00:00","14.0","","7.3","","64","","","M","19","","23","","","","102.84","","","","","","NA"
"-60.14","47.23","ST PAUL ISLAND (AUT)","8204909","2018-09-11 01:00","2018","09","11","01:00","13.7","","8.0","","68","","","M","20","","21","","","","102.88","","","","","","NA"
"-60.14","47.23","ST PAUL ISLAND (AUT)","8204909","2018-09-11 02:00","2018","09","11","02:00","13.9","","7.7","","66","","","M","20","","18","","","","102.90","","","","","","NA"
"-60.14","47.23","ST PAUL ISLAND (AUT)","8204909","2018-09-11 03:00","2018","09","11","03:00","14.3","","8.1","","66","","","M","21","","15","","","","102.91","","","","","","NA"
"-60.14","47.23","ST PAUL ISLAND (AUT)","8204909","2018-09-11 04:00","2018","09","11","04:00","14.4","","8.0","","65","","","M","21","","14","","","","102.88","","","","","","NA"
"-60.14","47.23","ST PAUL ISLAND (AUT)","8204909","2018-09-11 05:00","2018","09","11","05:00","14.3","","8.0","","66","","","M","20","","16","","","","102.85","","","","","","NA"
"-60.14","47.23","ST PAUL ISLAND (AUT)","8204909","2018-09-11 06:00","2018","09","11","06:00","13.9","","8.3","","69","","","M","20","","16","","","","102.88","","","","","","NA"
"-60.14","47.23","ST PAUL ISLAND (AUT)","8204909","2018-09-11 07:00","2018","09","11","07:00","14.5","","7.9","","65","","","M","20","","13","","","","102.90","","","","","","NA"
"-60.14","47.23","ST PAUL ISLAND (AUT)","8204909","2018-09-11 08:00","2018","09","11","08:00","15.2","","8.9","","66","","","M","18","","8","","","","102.91","","","","","","NA"
"-60.14","47.23","ST PAUL ISLAND (AUT)","8204909","2018-09-11 09:00","2018","09","11","09:00","15.7","","8.8","","64","","","M","17","","18","","","","102.89","","","","","","NA"
"-60.14","47.23","ST PAUL ISLAND (AUT)","8204909","2018-09-11 10:00","2018","09","11","10:00","15.6","","9.1","","65","","","M","19","","17","","","","102.85","","","","","","NA"
"-60.14","47.23","ST PAUL ISLAND (AUT)","8204909","2018-09-11 11:00","2018","09","11","11:00","16.4","","10.3","","67","","","M","17","","25","","","","102.82","","","","","","NA"
"-60.14","47.23","ST PAUL ISLAND (AUT)","8204909","2018-09-11 12:00","2018","09","11","12:00","16.4","","9.9","","65","","","M","17","","26","","","","102.76","","","","","","NA"
"-60.14","47.23","ST PAUL ISLAND (AUT)","8204909","2018-09-11 13:00","2018","09","11","13:00","16.4","","10.6","","68","","","M","17","","34","","","","102.67","","","","","","NA"
"-60.14","47.23","ST PAUL ISLAND (AUT)","8204909","2018-09-11 14:00","2018","09","11","14:00","16.4","","11.2","","71","","","M","17","","41","","","","102.52","","","","","","NA"
"-60.14","47.23","ST PAUL ISLAND (AUT)","8204909","2018-09-11 15:00","2018","09","11","15:00","17.1","","11.5","","69","","","M","17","","26","","","","102.54","","","","","","NA"
"-60.14","47.23","ST PAUL ISLAND (AUT)","8204909","2018-09-11 16:00","2018","09","11","16:00","17.5","","12.3","","72","","","M","18","","22","","","","102.52","","","","","","NA"
"-60.14","47.23","ST PAUL ISLAND (AUT)","8204909","2018-09-11 17:00","2018","09","11","17:00","17.0","","12.9","","77","","","M","19","","21","","","","102.47","","","","","","NA"
"-60.14","47.23","ST PAUL ISLAND (AUT)","8204909","2018-09-11 18:00","2018","09","11","18:00","16.8","","13.6","","81","","","M","19","","14","","","","102.44","","","","","","NA"
"-60.14","47.23","ST PAUL ISLAND (AUT)","8204909","2018-09-11 19:00","2018","09","11","19:00","17.1","","13.7","","80","","","M","17","","19","","","","102.42","","","","","","NA"
"-60.14","47.23","ST PAUL ISLAND (AUT)","8204909","2018-09-11 20:00","2018","09","11","20:00","17.4","","14.3","","82","","","M","17","","28","","","","102.36","","","","","","NA"
"-60.14","47.23","ST PAUL ISLAND (AUT)","8204909","2018-09-11 21:00","2018","09","11","21:00","17.3","","14.6","","84","","","M","17","","30","","","","102.28","","","","","","NA"
"-60.14","47.23","ST PAUL ISLAND (AUT)","8204909","2018-09-11 22:00","2018","09","11","22:00","16.9","","15.0","","89","","","M","17","","23","","","","102.18","","","","","","NA"
"-60.14","47.23","ST PAUL ISLAND (AUT)","8204909","2018-09-11 23:00","2018","09","11","23:00","17.2","","15.2","","88","","","M","17","","24","","","","102.07","","","","","","NA"
"-60.14","47.23","ST PAUL ISLAND (AUT)","8204909","2018-09-12 00:00","2018","09","12","00:00","17.5","","15.4","","88","","","M","17","","29","","","","101.91","","","","","","NA"
"-60.14","47.23","ST PAUL ISLAND (AUT)","8204909","2018-09-12 01:00","2018","09","12","01:00","17.7","","15.6","","88","","","M","17","","27","","","","101.88","","","","","","NA"
"-60.14","47.23","ST PAUL ISLAND (AUT)","8204909","2018-09-12 02:00","2018","09","12","02:00","16.8","","14.9","","89","","","M","19","","24","","","","101.82","","","","","","NA"
"-60.14","47.23","ST PAUL ISLAND (AUT)","8204909","2018-09-12 03:00","2018","09","12","03:00","16.1","","14.8","","92","","","M","17","","52","","","","101.56","","","","","","NA"
"-60.14","47.23","ST PAUL ISLAND (AUT)","8204909","2018-09-12 04:00","2018","09","12","04:00","16.4","","15.3","","93","","","M","17","","47","","","","101.50","","","","","","NA"
"-60.14","47.23","ST PAUL ISLAND (AUT)","8204909","2018-09-12 05:00","2018","09","12","05:00","16.7","","15.6","","94","","","M","18","","21","","","","101.46","","","","","","NA"
"-60.14","47.23","ST PAUL ISLAND (AUT)","8204909","2018-09-12 06:00","2018","09","12","06:00","17.6","","16.6","","94","","","M","21","","26","","","","101.47","","","","","","NA"
"-60.14","47.23","ST PAUL ISLAND (AUT)","8204909","2018-09-12 07:00","2018","09","12","07:00","17.6","","16.6","","94","","","M","26","","39","","","","101.45","","","","","","NA"
"-60.14","47.23","ST PAUL ISLAND (AUT)","8204909","2018-09-12 08:00","2018","09","12","08:00","16.8","","15.8","","94","","","M","29","","34","","","","101.50","","","","","","NA"
"-60.14","47.23","ST PAUL ISLAND (AUT)","8204909","2018-09-12 09:00","2018","09","12","09:00","16.8","","15.8","","94","","","M","29","","33","","","","101.54","","","","","","NA"
"-60.14","47.23","ST PAUL ISLAND (AUT)","8204909","2018-09-12 10:00","2018","09","12","10:00","16.1","","15.1","","94","","","M","31","","36","","","","101.61","","","","","","NA"
"-60.14","47.23","ST PAUL ISLAND (AUT)","8204909","2018-09-12 11:00","2018","09","12","11:00","16.2","","14.4","","89","","","M","32","","45","","","","101.65","","","","","","NA"
"-60.14","47.23","ST PAUL ISLAND (AUT)","8204909","2018-09-12 12:00","2018","09","12","12:00","15.4","","13.5","","88","","","M","32","","46","","","","101.71","","","","","","NA"
"-60.14","47.23","ST PAUL ISLAND (AUT)","8204909","2018-09-12 13:00","2018","09","12","13:00","14.7","","12.9","","89","","","M","31","","41","","","","101.79","","","","","","NA"
"-60.14","47.23","ST PAUL ISLAND (AUT)","8204909","2018-09-12 14:00","2018","09","12","14:00","14.2","","12.6","","90","","","M","32","","45","","","","101.80","","","","","","NA"
"-60.14","47.23","ST PAUL ISLAND (AUT)","8204909","2018-09-12 15:00","2018","09","12","15:00","14.3","","12.7","","90","","","M","32","","43","","","","101.80","","","","","","NA"
"-60.14","47.23","ST PAUL ISLAND (AUT)","8204909","2018-09-12 16:00","2018","09","12","16:00","14.4","","12.6","","89","","","M","32","","38","","","","101.87","","","","","","NA"
"-60.14","47.23","ST PAUL ISLAND (AUT)","8204909","2018-09-12 17:00","2018","09","12","17:00","14.3","","12.1","","87","","","M","31","","32","","","","101.91","","","","","","NA"
"-60.14","47.23","ST PAUL ISLAND (AUT)","8204909","2018-09-12 18:00","2018","09","12","18:00","14.4","","12.0","","86","","","M","30","","33","","","","101.98","","","","","","NA"
"-60.14","47.23","ST PAUL ISLAND (AUT)","8204909","2018-09-12 19:00","2018","09","12","19:00","14.4","","11.8","","84","","","M","32","","32","","","","102.02","","","","","","NA"
"-60.14","47.23","ST PAUL ISLAND (AUT)","8204909","2018-09-12 20:00","2018","09","12","20:00","14.3","","12.0","","86","","","M","33","","31","","","","102.01","","","","","","NA"
"-60.14","47.23","ST PAUL ISLAND (AUT)","8204909","2018-09-12 21:00","2018","09","12","21:00","14.4","","12.0","","86","","","M","32","","28","","","","102.01","","","","","","NA"
"-60.14","47.23","ST PAUL ISLAND (AUT)","8204909","2018-09-12 22:00","2018","09","12","22:00","14.6","","12.0","","84","","","M","32","","28","","","","101.99","","","","","","NA"
"-60.14","47.23","ST PAUL ISLAND (AUT)","8204909","2018-09-12 23:00","2018","09","12","23:00","14.8","","11.7","","82","","","M","32","","27","","","","101.98","","","","","","NA"
"-60.14","47.23","ST PAUL ISLAND (AUT)","8204909","2018-09-13 00:00","2018","09","13","00:00","14.8","","12.0","","84","","","M","31","","26","","","","101.94","","","","","","NA"
"-60.14","47.23","ST PAUL ISLAND (AUT)","8204909","2018-09-13 01:00","2018","09","13","01:00","14.6","","12.3","","86","","","M","30","","30","","","","101.96","","","","","","NA"
"-60.14","47.23","ST PAUL ISLAND (AUT)","8204909","2018-09-13 02:00","2018","09","13","02:00","14.5","","12.3","","86","","","M","31","","28","","","","101.96","","","","","","NA"
"-60.14","47.23","ST PAUL ISLAND (AUT)","8204909","2018-09-13 03:00","2018","09","13","03:00","14.7","","12.0","","84","","","M","32","","23","","","","101.95","","","","","","NA"
"-60.14","47.23","ST PAUL ISLAND (AUT)","8204909","2018-09-13 04:00","2018","09","13","04:00","14.8","","12.1","","83","","","M","31","","19","","","","101.97","","","","","","NA"
"-60.14","47.23","ST PAUL ISLAND (AUT)","8204909","2018-09-13 05:00","2018","09","13","05:00","14.9","","12.3","","84","","","M","30","","19","","","","101.98","","","","","","NA"
"-60.14","47.23","ST PAUL ISLAND (AUT)","8204909","2018-09-13 06:00","2018","09","13","06:00","15.2","","12.3","","83","","","M","31","","27","","","","102.01","","","","","","NA"
"-60.14","47.23","ST PAUL ISLAND (AUT)","8204909","2018-09-13 07:00","2018","09","13","07:00","15.5","","12.7","","84","","","M","31","","21","","","","102.02","","","","","","NA"
"-60.14","47.23","ST PAUL ISLAND (AUT)","8204909","2018-09-13 08:00","2018","09","13","08:00","15.9","","13.1","","83","","","M","30","","18","","","","102.05","","","","","","NA"
"-60.14","47.23","ST PAUL ISLAND (AUT)","8204909","2018-09-13 09:00","2018","09","13","09:00","16.4","","13.3","","82","","","M","30","","22","","","","102.07","","","","","","NA"
"-60.14","47.23","ST PAUL ISLAND (AUT)","8204909","2018-09-13 10:00","2018","09","13","10:00","17.0","","13.8","","82","","","M","29","","23","","","","102.05","","","","","","NA"
"-60.14","47.23","ST PAUL ISLAND (AUT)","8204909","2018-09-13 11:00","2018","09","13","11:00","17.2","","13.8","","80","","","M","28","","20","","","","102.02","","","","","","NA"
"-60.14","47.23","ST PAUL ISLAND (AUT)","8204909","2018-09-13 12:00","2018","09","13","12:00","17.6","","14.0","","80","","","M","27","","26","","","","102.01","","","","","","NA"
"-60.14","47.23","ST PAUL ISLAND (AUT)","8204909","2018-09-13 13:00","2018","09","13","13:00","17.7","","14.2","","80","","","M","28","","24","","","","101.97","","","","","","NA"
"-60.14","47.23","ST PAUL ISLAND (AUT)","8204909","2018-09-13 14:00","2018","09","13","14:00","17.6","","14.6","","83","","","M","25","","23","","","","101.91","","","","","","NA"
"-60.14","47.23","ST PAUL ISLAND (AUT)","8204909","2018-09-13 15:00","2018","09","13","15:00","18.4","","15.0","","81","","","M","26","","25","","","","101.86","","","","","","NA"
"-60.14","47.23","ST PAUL ISLAND (AUT)","8204909","2018-09-13 16:00","2018","09","13","16:00","18.0","","15.0","","83","","","M","27","","25","","","","101.90","","","","","","NA"
"-60.14","47.23","ST PAUL ISLAND (AUT)","8204909","2018-09-13 17:00","2018","09","13","17:00","17.4","","14.9","","86","","","M","28","","27","","","","101.95","","","","","","NA"
"-60.14","47.23","ST PAUL ISLAND (AUT)","8204909","2018-09-13 18:00","2018","09","13","18:00","16.9","","15.2","","89","","","M","28","","27","","","","101.97","","","","","","NA"
"-60.14","47.23","ST PAUL ISLAND (AUT)","8204909","2018-09-13 19:00","2018","09","13","19:00","16.9","","15.5","","92","","","M","29","","24","","","","102.00","","","","","","NA"
"-60.14","47.23","ST PAUL ISLAND (AUT)","8204909","2018-09-13 20:00","2018","09","13","20:00","16.2","","15.0","","93","","","M","30","","13","","","","102.00","","","","","","NA"
"-60.14","47.23","ST PAUL ISLAND (AUT)","8204909","2018-09-13 21:00","2018","09","13","21:00","15.8","","14.5","","92","","","M","28","","16","","","","101.97","","","","","","NA"
"-60.14","47.23","ST PAUL ISLAND (AUT)","8204909","2018-09-13 22:00","2018","09","13","22:00","15.9","","14.8","","93","","","M","27","","18","","","","101.96","","","","","","NA"
"-60.14","47.23","ST PAUL ISLAND (AUT)","8204909","2018-09-13 23:00","2018","09","13","23:00","16.3","","15.1","","93","","","M","28","","19","","","","101.99","","","","","","NA"
"-60.14","47.23","ST PAUL ISLAND (AUT)","8204909","2018-09-14 00:00","2018","09","14","00:00","16.2","","15.0","","93","","","M","30","","21","","","","102.00","","","","","","NA"
"-60.14","47.23","ST PAUL ISLAND (AUT)","8204909","2018-09-14 01:00","2018","09","14","01:00","16.1","","14.9","","93","","","M","30","","19","","","","102.02","","","","","","NA"
"-60.14","47.23","ST PAUL ISLAND (AUT)","8204909","2018-09-14 02:00","2018","09","14","02:00","15.8","","14.7","","93","","","M","31","","12","","","","102.06","","","","","","NA"
"-60.14","47.23","ST PAUL ISLAND (AUT)","8204909","2018-09-14 03:00","2018","09","14","03:00","15.6","","14.2","","92","","","M","34","","8","","","","102.07","","","","","","NA"
"-60.14","47.23","ST PAUL ISLAND (AUT)","8204909","2018-09-14 04:00","2018","09","14","04:00","15.5","","14.2","","92","","","M","34","","2","","","","102.09","","","","","","NA"
"-60.14","47.23","ST PAUL ISLAND (AUT)","8204909","2018-09-14 05:00","2018","09","14","05:00","15.4","","14.1","","92","","","M","4","","4","","","","102.15","","","","","","NA"
"-60.14","47.23","ST PAUL ISLAND (AUT)","8204909","2018-09-14 06:00","2018","09","14","06:00","15.4","","14.1","","92","","","M","10","","8","","","","102.20","","","","","","NA"
"-60.14","47.23","ST PAUL ISLAND (AUT)","8204909","2018-09-14 07:00","2018","09","14","07:00","15.5","","13.4","","87","","","M","14","","17","","","","102.20","","","","","","NA"
"-60.14","47.23","ST PAUL ISLAND (AUT)","8204909","2018-09-14 08:00","2018","09","14","08:00","15.7","","13.6","","87","","","M","14","","17","","","","102.24","","","","","","NA"
"-60.14","47.23","ST PAUL ISLAND (AUT)","8204909","2018-09-14 09:00","2018","09","14","09:00","15.9","","13.7","","87","","","M","14","","6","","","","102.24","","","","","","NA"
"-60.14","47.23","ST PAUL ISLAND (AUT)","8204909","2018-09-14 10:00","2018","09","14","10:00","16.7","","13.8","","83","","","M","14","","9","","","","102.23","","","","","","NA"
"-60.14","47.23","ST PAUL ISLAND (AUT)","8204909","2018-09-14 11:00","2018","09","14","11:00","16.3","","13.5","","84","","","M","15","","8","","","","102.19","","","","","","NA"
"-60.14","47.23","ST PAUL ISLAND (AUT)","8204909","2018-09-14 12:00","2018","09","14","12:00","16.2","","13.6","","85","","","M","15","","10","","","","102.20","","","","","","NA"
"-60.14","47.23","ST PAUL ISLAND (AUT)","8204909","2018-09-14 13:00","2018","09","14","13:00","16.8","","13.7","","82","","","M","15","","9","","","","102.15","","","","","","NA"
"-60.14","47.23","ST PAUL ISLAND (AUT)","8204909","2018-09-14 14:00","2018","09","14","14:00","16.9","","13.8","","82","","","M","16","","7","","","","102.13","","","","","","NA"
"-60.14","47.23","ST PAUL ISLAND (AUT)","8204909","2018-09-14 15:00","2018","09","14","15:00","16.6","","13.8","","84","","","M","15","","8","","","","102.10","","","","","","NA"
"-60.14","47.23","ST PAUL ISLAND (AUT)","8204909","2018-09-14 16:00","2018","09","14","16:00","16.4","","13.8","","85","","","M","15","","8","","","","102.07","","","","","","NA"
"-60.14","47.23","ST PAUL ISLAND (AUT)","8204909","2018-09-14 17:00","2018","09","14","17:00","15.7","","13.6","","87","","","M","15","","21","","","","102.01","","","","","","NA"
"-60.14","47.23","ST PAUL ISLAND (AUT)","8204909","2018-09-14 18:00","2018","09","14","18:00","15.4","","13.7","","90","","","M","16","","24","","","","102.01","","","","","","NA"
"-60.14","47.23","ST PAUL ISLAND (AUT)","8204909","2018-09-14 19:00","2018","09","14","19:00","15.5","","13.8","","90","","","M","15","","26","","","","101.99","","","","","","NA"
"-60.14","47.23","ST PAUL ISLAND (AUT)","8204909","2018-09-14 20:00","2018","09","14","20:00","15.5","","13.9","","90","","","M","17","","29","","","","101.96","","","","","","NA"
"-60.14","47.23","ST PAUL ISLAND (AUT)","8204909","2018-09-14 21:00","2018","09","14","21:00","15.9","","14.2","","90","","","M","17","","33","","","","101.91","","","","","","NA"
"-60.14","47.23","ST PAUL ISLAND (AUT)","8204909","2018-09-14 22:00","2018","09","14","22:00","15.9","","14.3","","90","","","M","17","","44","","","","101.84","","","","","","NA"
"-60.14","47.23","ST PAUL ISLAND (AUT)","8204909","2018-09-14 23:00","2018","09","14","23:00","16.2","","14.7","","91","","","M","17","","37","","","","101.80","","","","","","NA"
"-60.14","47.23","ST PAUL ISLAND (AUT)","8204909","2018-09-15 00:00","2018","09","15","00:00","16.2","","15.0","","92","","","M","17","","32","","","","101.77","","","","","","NA"
"-60.14","47.23","ST PAUL ISLAND (AUT)","8204909","2018-09-15 01:00","2018","09","15","01:00","16.3","","15.2","","93","","","M","17","","29","","","","101.73","","","","","","NA"
"-60.14","47.23","ST PAUL ISLAND (AUT)","8204909","2018-09-15 02:00","2018","09","15","02:00","16.7","","15.4","","92","","","M","18","","16","","","","101.70","","","","","","NA"
"-60.14","47.23","ST PAUL ISLAND (AUT)","8204909","2018-09-15 03:00","2018","09","15","03:00","18.2","","15.2","","83","","","M","21","","9","","","","101.67","","","","","","NA"
"-60.14","47.23","ST PAUL ISLAND (AUT)","8204909","2018-09-15 04:00","2018","09","15","04:00","19.3","","15.0","","76","","","M","22","","14","","","","101.62","","","","","","NA"
"-60.14","47.23","ST PAUL ISLAND (AUT)","8204909","2018-09-15 05:00","2018","09","15","05:00","20.1","","14.6","","71","","","M","22","","11","","","","101.59","","","","","","NA"
"-60.14","47.23","ST PAUL ISLAND (AUT)","8204909","2018-09-15 06:00","2018","09","15","06:00","19.4","","15.0","","76","","","M","23","","16","","","","101.56","","","","","","NA"
"-60.14","47.23","ST PAUL ISLAND (AUT)","8204909","2018-09-15 07:00","2018","09","15","07:00","18.8","","15.3","","80","","","M","24","","25","","","","101.54","","","","","","NA"
"-60.14","47.23","ST PAUL ISLAND (AUT)","8204909","2018-09-15 08:00","2018","09","15","08:00","19.1","","15.2","","78","","","M","25","","39","","","","101.51","","","","","","NA"
"-60.14","47.23","ST PAUL ISLAND (AUT)","8204909","2018-09-15 09:00","2018","09","15","09:00","19.4","","15.4","","78","","","M","25","","44","","","","101.45","","","","","","NA"
"-60.14","47.23","ST PAUL ISLAND (AUT)","8204909","2018-09-15 10:00","2018","09","15","10:00","19.6","","15.5","","77","","","M","26","","44","","","","101.43","","","","","","NA"
"-60.14","47.23","ST PAUL ISLAND (AUT)","8204909","2018-09-15 11:00","2018","09","15","11:00","19.4","","15.6","","79","","","M","25","","38","","","","101.42","","","","","","NA"
"-60.14","47.23","ST PAUL ISLAND (AUT)","8204909","2018-09-15 12:00","2018","09","15","12:00","19.5","","15.9","","80","","","M","24","","37","","","","101.37","","","","","","NA"
"-60.14","47.23","ST PAUL ISLAND (AUT)","8204909","2018-09-15 13:00","2018","09","15","13:00","19.6","","15.6","","78","","","M","26","","43","","","","101.35","","","","","","NA"
"-60.14","47.23","ST PAUL ISLAND (AUT)","8204909","2018-09-15 14:00","2018","09","15","14:00","19.9","","15.8","","77","","","M","25","","41","","","","101.31","","","","","","NA"
"-60.14","47.23","ST PAUL ISLAND (AUT)","8204909","2018-09-15 15:00","2018","09","15","15:00","19.9","","15.8","","77","","","M","25","","41","","","","101.29","","","","","","NA"
"-60.14","47.23","ST PAUL ISLAND (AUT)","8204909","2018-09-15 16:00","2018","09","15","16:00","19.5","","15.8","","79","","","M","26","","37","","","","101.32","","","","","","NA"
"-60.14","47.23","ST PAUL ISLAND (AUT)","8204909","2018-09-15 17:00","2018","09","15","17:00","19.1","","16.0","","82","","","M","25","","32","","","","101.34","","","","","","NA"
"-60.14","47.23","ST PAUL ISLAND (AUT)","8204909","2018-09-15 18:00","2018","09","15","18:00","18.6","","16.0","","85","","","M","24","","29","","","","101.34","","","","","","NA"
"-60.14","47.23","ST PAUL ISLAND (AUT)","8204909","2018-09-15 19:00","2018","09","15","19:00","18.5","","16.0","","85","","","M","24","","20","","","","101.33","","","","","","NA"
"-60.14","47.23","ST PAUL ISLAND (AUT)","8204909","2018-09-15 20:00","2018","09","15","20:00","18.9","","16.1","","84","","","M","25","","18","","","","101.32","","","","","","NA"
"-60.14","47.23","ST PAUL ISLAND (AUT)","8204909","2018-09-15 21:00","2018","09","15","21:00","18.2","","15.9","","87","","","M","27","","6","","","","101.30","","","","","","NA"
"-60.14","47.23","ST PAUL ISLAND (AUT)","8204909","2018-09-15 22:00","2018","09","15","22:00","19.4","","15.7","","80","","","M","25","","30","","","","101.22","","","","","","NA"
"-60.14","47.23","ST PAUL ISLAND (AUT)","8204909","2018-09-15 23:00","2018","09","15","23:00","19.1","","15.5","","80","","","M","24","","19","","","","101.21","","","","","","NA"
"-60.14","47.23","ST PAUL ISLAND (AUT)","8204909","2018-09-16 00:00","2018","09","16","00:00","19.1","","15.7","","81","","","M","27","","37","","","","101.20","","","","","","NA"
"-60.14","47.23","ST PAUL ISLAND (AUT)","8204909","2018-09-16 01:00","2018","09","16","01:00","18.5","","15.6","","83","","","M","27","","41","","","","101.17","","","","","","NA"
"-60.14","47.23","ST PAUL ISLAND (AUT)","8204909","2018-09-16 02:00","2018","09","16","02:00","18.6","","15.7","","83","","","M","26","","36","","","","101.14","","","","","","NA"
"-60.14","47.23","ST PAUL ISLAND (AUT)","8204909","2018-09-16 03:00","2018","09","16","03:00","18.5","","15.7","","84","","","M","27","","36","","","","101.14","","","","","","NA"
"-60.14","47.23","ST PAUL ISLAND (AUT)","8204909","2018-09-16 04:00","2018","09","16","04:00","18.6","","15.8","","84","","","M","26","","35","","","","101.18","","","","","","NA"
"-60.14","47.23","ST PAUL ISLAND (AUT)","8204909","2018-09-16 05:00","2018","09","16","05:00","18.1","","15.6","","85","","","M","28","","32","","","","101.23","","","","","","NA"
"-60.14","47.23","ST PAUL ISLAND (AUT)","8204909","2018-09-16 06:00","2018","09","16","06:00","17.7","","15.8","","89","","","M","29","","24","","","","101.27","","","","","","NA"
"-60.14","47.23","ST PAUL ISLAND (AUT)","8204909","2018-09-16 07:00","2018","09","16","07:00","17.7","","15.8","","89","","","M","29","","28","","","","101.34","","","","","","NA"
"-60.14","47.23","ST PAUL ISLAND (AUT)","8204909","2018-09-16 08:00","2018","09","16","08:00","17.6","","15.9","","90","","","M","30","","25","","","","101.41","","","","","","NA"
"-60.14","47.23","ST PAUL ISLAND (AUT)","8204909","2018-09-16 09:00","2018","09","16","09:00","17.8","","15.0","","84","","","M","30","","17","","","","101.47","","","","","","NA"
"-60.14","47.23","ST PAUL ISLAND (AUT)","8204909","2018-09-16 10:00","2018","09","16","10:00","17.0","","14.2","","84","","","M","31","","11","","","","101.53","","","","","","NA"
"-60.14","47.23","ST PAUL ISLAND (AUT)","8204909","2018-09-16 11:00","2018","09","16","11:00","17.4","","14.2","","81","","","M","32","","2","","","","101.58","","","","","","NA"
"-60.14","47.23","ST PAUL ISLAND (AUT)","8204909","2018-09-16 12:00","2018","09","16","12:00","17.4","","14.1","","81","","","M","32","","21","","","","101.62","","","","","","NA"
"-60.14","47.23","ST PAUL ISLAND (AUT)","8204909","2018-09-16 13:00","2018","09","16","13:00","17.2","","14.2","","82","","","M","33","","19","","","","101.65","","","","","","NA"
"-60.14","47.23","ST PAUL ISLAND (AUT)","8204909","2018-09-16 14:00","2018","09","16","14:00","17.0","","14.0","","83","","","M","33","","26","","","","101.67","","","","","","NA"
"-60.14","47.23","ST PAUL ISLAND (AUT)","8204909","2018-09-16 15:00","2018","09","16","15:00","16.4","","13.0","","80","","","M","33","","27","","","","101.74","","","","","","NA"
"-60.14","47.23","ST PAUL ISLAND (AUT)","8204909","2018-09-16 16:00","2018","09","16","16:00","16.3","","12.3","","77","","","M","33","","25","","","","101.79","","","","","","NA"
"-60.14","47.23","ST PAUL ISLAND (AUT)","8204909","2018-09-16 17:00","2018","09","16","17:00","15.8","","11.2","","74","","","M","32","","17","","","","101.81","","","","","","NA"
"-60.14","47.23","ST PAUL ISLAND (AUT)","8204909","2018-09-16 18:00","2018","09","16","18:00","15.6","","10.9","","73","","","M","32","","19","","","","101.86","","","","","","NA"
"-60.14","47.23","ST PAUL ISLAND (AUT)","8204909","2018-09-16 19:00","2018","09","16","19:00","15.2","","9.6","","69","","","M","32","","11","","","","101.93","","","","","","NA"
"-60.14","47.23","ST PAUL ISLAND (AUT)","8204909","2018-09-16 20:00","2018","09","16","20:00","14.9","","10.3","","74","","","M","32","","6","","","","101.90","","","","","","NA"
"-60.14","47.23","ST PAUL ISLAND (AUT)","8204909","2018-09-16 21:00","2018","09","16","21:00","14.8","","9.8","","72","","","M","31","","2","","","","101.86","","","","","","NA"
"-60.14","47.23","ST PAUL ISLAND (AUT)","8204909","2018-09-16 22:00","2018","09","16","22:00","14.8","","9.4","","70","","","M","31","","2","","","","101.85","","","","","","NA"
"-60.14","47.23","ST PAUL ISLAND (AUT)","8204909","2018-09-16 23:00","2018","09","16","23:00","14.8","","8.4","","65","","","M","","","0","","","","101.81","","","","","","NA"
"-60.14","47.23","ST PAUL ISLAND (AUT)","8204909","2018-09-17 00:00","2018","09","17","00:00","14.7","","9.0","","69","","","M","22","","3","","","","101.82","","","","","","NA"
"-60.14","47.23","ST PAUL ISLAND (AUT)","8204909","2018-09-17 01:00","2018","09","17","01:00","15.1","","10.9","","76","","","M","21","","12","","","","101.77","","","","","","NA"
"-60.14","47.23","ST PAUL ISLAND (AUT)","8204909","2018-09-17 02:00","2018","09","17","02:00","15.1","","10.0","","71","","","M","21","","14","","","","101.71","","","","","","NA"
"-60.14","47.23","ST PAUL ISLAND (AUT)","8204909","2018-09-17 03:00","2018","09","17","03:00","15.3","","9.4","","68","","","M","21","","12","","","","101.67","","","","","","NA"
"-60.14","47.23","ST PAUL ISLAND (AUT)","8204909","2018-09-17 04:00","2018","09","17","04:00","15.4","","8.4","","63","","","M","19","","6","","","","101.62","","","","","","NA"
"-60.14","47.23","ST PAUL ISLAND (AUT)","8204909","2018-09-17 05:00","2018","09","17","05:00","15.2","","7.7","","61","","","M","18","","10","","","","101.51","","","","","","NA"
"-60.14","47.23","ST PAUL ISLAND (AUT)","8204909","2018-09-17 06:00","2018","09","17","06:00","16.2","","5.0","","47","","","M","19","","13","","","","101.40","","","","","","NA"
"-60.14","47.23","ST PAUL ISLAND (AUT)","8204909","2018-09-17 07:00","2018","09","17","07:00","17.1","","5.2","","46","","","M","20","","18","","","","101.38","","","","","","NA"
"-60.14","47.23","ST PAUL ISLAND (AUT)","8204909","2018-09-17 08:00","2018","09","17","08:00","18.6","","8.6","","52","","","M","20","","25","","","","101.27","","","","","","NA"
"-60.14","47.23","ST PAUL ISLAND (AUT)","8204909","2018-09-17 09:00","2018","09","17","09:00","18.8","","13.4","","71","","","M","24","","39","","","","101.16","","","","","","NA"
"-60.14","47.23","ST PAUL ISLAND (AUT)","8204909","2018-09-17 10:00","2018","09","17","10:00","19.6","","14.6","","73","","","M","24","","33","","","","101.07","","","","","","NA"
"-60.14","47.23","ST PAUL ISLAND (AUT)","8204909","2018-09-17 11:00","2018","09","17","11:00","19.5","","14.7","","74","","","M","24","","54","","","","100.93","","","","","","NA"
"-60.14","47.23","ST PAUL ISLAND (AUT)","8204909","2018-09-17 12:00","2018","09","17","12:00","19.8","","15.5","","76","","","M","24","","48","","","","100.84","","","","","","NA"
"-60.14","47.23","ST PAUL ISLAND (AUT)","8204909","2018-09-17 13:00","2018","09","17","13:00","19.7","","16.2","","80","","","M","25","","53","","","","100.78","","","","","","NA"
"-60.14","47.23","ST PAUL ISLAND (AUT)","8204909","2018-09-17 14:00","2018","09","17","14:00","20.0","","16.3","","79","","","M","25","","51","","","","100.72","","25","","","","NA"
"-60.14","47.23","ST PAUL ISLAND (AUT)","8204909","2018-09-17 15:00","2018","09","17","15:00","20.1","","16.4","","80","","","M","25","","50","","","","100.68","","25","","","","NA"
"-60.14","47.23","ST PAUL ISLAND (AUT)","8204909","2018-09-17 16:00","2018","09","17","16:00","19.7","","16.5","","82","","","M","25","","42","","","","100.68","","","","","","NA"
"-60.14","47.23","ST PAUL ISLAND (AUT)","8204909","2018-09-17 17:00","2018","09","17","17:00","19.5","","16.8","","85","","","M","25","","42","","","","100.64","","","","","","NA"
"-60.14","47.23","ST PAUL ISLAND (AUT)","8204909","2018-09-17 18:00","2018","09","17","18:00","17.3","","15.6","","90","","","M","34","","12","","","","100.67","","","","","","NA"
"-60.14","47.23","ST PAUL ISLAND (AUT)","8204909","2018-09-17 19:00","2018","09","17","19:00","16.3","","15.1","","93","","","M","","","0","","","","100.69","","","","","","NA"
"-60.14","47.23","ST PAUL ISLAND (AUT)","8204909","2018-09-17 20:00","2018","09","17","20:00","15.9","","14.8","","93","","","M","6","","6","","","","100.60","","","","","","NA"
"-60.14","47.23","ST PAUL ISLAND (AUT)","8204909","2018-09-17 21:00","2018","09","17","21:00","15.2","","14.0","","93","","","M","7","","14","","","","100.58","","","","","","NA"
"-60.14","47.23","ST PAUL ISLAND (AUT)","8204909","2018-09-17 22:00","2018","09","17","22:00","15.3","","13.7","","90","","","M","6","","12","","","","100.58","","","","","","NA"
"-60.14","47.23","ST PAUL ISLAND (AUT)","8204909","2018-09-17 23:00","2018","09","17","23:00","15.0","","13.5","","90","","","M","","","0","","","","100.55","","","","","","NA"
"-60.14","47.23","ST PAUL ISLAND (AUT)","8204909","2018-09-18 00:00","2018","09","18","00:00","15.4","","13.7","","90","","","M","8","","8","","","","100.51","","","","","","NA"
"-60.14","47.23","ST PAUL ISLAND (AUT)","8204909","2018-09-18 01:00","2018","09","18","01:00","15.8","","14.3","","91","","","M","10","","16","","","","100.44","","","","","","NA"
"-60.14","47.23","ST PAUL ISLAND (AUT)","8204909","2018-09-18 02:00","2018","09","18","02:00","15.5","","14.3","","93","","","M","13","","30","","","","100.36","","","","","","NA"
"-60.14","47.23","ST PAUL ISLAND (AUT)","8204909","2018-09-18 03:00","2018","09","18","03:00","15.2","","13.9","","92","","","M","13","","31","","","","100.26","","","","","","NA"
"-60.14","47.23","ST PAUL ISLAND (AUT)","8204909","2018-09-18 04:00","2018","09","18","04:00","15.1","","14.1","","94","","","M","12","","26","","","","100.29","","","","","","NA"
"-60.14","47.23","ST PAUL ISLAND (AUT)","8204909","2018-09-18 05:00","2018","09","18","05:00","15.2","","14.3","","94","","","M","13","","22","","","","100.27","","","","","","NA"
"-60.14","47.23","ST PAUL ISLAND (AUT)","8204909","2018-09-18 06:00","2018","09","18","06:00","15.0","","14.1","","95","","","M","11","","24","","","","100.23","","","","","","NA"
"-60.14","47.23","ST PAUL ISLAND (AUT)","8204909","2018-09-18 07:00","2018","09","18","07:00","14.4","","13.6","","95","","","M","11","","32","","","","100.20","","","","","","NA"
"-60.14","47.23","ST PAUL ISLAND (AUT)","8204909","2018-09-18 08:00","2018","09","18","08:00","13.9","","13.1","","95","","","M","11","","33","","","","100.17","","","","","","NA"
"-60.14","47.23","ST PAUL ISLAND (AUT)","8204909","2018-09-18 09:00","2018","09","18","09:00","13.5","","12.7","","95","","","M","9","","40","","","","100.20","","","","","","NA"
"-60.14","47.23","ST PAUL ISLAND (AUT)","8204909","2018-09-18 10:00","2018","09","18","10:00","12.3","","11.5","","95","","","M","10","","47","","","","100.21","","","","","","NA"
"-60.14","47.23","ST PAUL ISLAND (AUT)","8204909","2018-09-18 11:00","2018","09","18","11:00","12.0","","11.0","","94","","","M","10","","47","","","","100.28","","","","","","NA"
"-60.14","47.23","ST PAUL ISLAND (AUT)","8204909","2018-09-18 12:00","2018","09","18","12:00","11.3","","10.3","","94","","","M","8","","45","","","","100.36","","","","","","NA"
"-60.14","47.23","ST PAUL ISLAND (AUT)","8204909","2018-09-18 13:00","2018","09","18","13:00","10.2","","9.2","","93","","","M","7","","53","","","","100.48","","","","","","NA"
"-60.14","47.23","ST PAUL ISLAND (AUT)","8204909","2018-09-18 14:00","2018","09","18","14:00","9.7","","8.5","","93","","","M","8","","52","","","","100.55","","","","","","NA"
"-60.14","47.23","ST PAUL ISLAND (AUT)","8204909","2018-09-18 15:00","2018","09","18","15:00","9.4","","8.1","","92","","","M","8","","50","","","","100.66","","","","","","NA"
"-60.14","47.23","ST PAUL ISLAND (AUT)","8204909","2018-09-18 16:00","2018","09","18","16:00","10.1","","8.7","","91","","","M","9","","44","","","","100.70","","","","","","NA"
"-60.14","47.23","ST PAUL ISLAND (AUT)","8204909","2018-09-18 17:00","2018","09","18","17:00","10.3","","8.4","","89","","","M","9","","41","","","","100.76","","","","","","NA"
"-60.14","47.23","ST PAUL ISLAND (AUT)","8204909","2018-09-18 18:00","2018","09","18","18:00","10.2","","8.3","","88","","","M","9","","43","","","","100.85","","","","","","NA"
"-60.14","47.23","ST PAUL ISLAND (AUT)","8204909","2018-09-18 19:00","2018","09","18","19:00","10.4","","8.3","","87","","","M","9","","46","","","","100.93","","","","","","NA"
"-60.14","47.23","ST PAUL ISLAND (AUT)","8204909","2018-09-18 20:00","2018","09","18","20:00","10.2","","7.1","","81","","","M","9","","42","","","","101.01","","","","","","NA"
"-60.14","47.23","ST PAUL ISLAND (AUT)","8204909","2018-09-18 21:00","2018","09","18","21:00"
"-60.14","47.23","ST PAUL ISLAND (AUT)","8204909","2018-09-18 22:00","2018","09","18","22:00","9.9","","6.6","","80","","","M","9","","44","","","","101.11","","","","","","NA"
"-60.14","47.23","ST PAUL ISLAND (AUT)","8204909","2018-09-18 23:00","2018","09","18","23:00","9.7","","7.0","","83","","","M","8","","41","","","","101.14","","","","","","NA"
"-60.14","47.23","ST PAUL ISLAND (AUT)","8204909","2018-09-19 00:00","2018","09","19","00:00","9.7","","6.7","","82","","","M","8","","49","","","","101.10","","","","","","NA"
"-60.14","47.23","ST PAUL ISLAND (AUT)","8204909","2018-09-19 01:00","2018","09","19","01:00","9.8","","6.5","","80","","","M","8","","46","","","","101.09","","","","","","NA"
"-60.14","47.23","ST PAUL ISLAND (AUT)","8204909","2018-09-19 02:00","2018","09","19","02:00","9.6","","6.6","","82","","","M","8","","47","","","","101.09","","","","","","NA"
"-60.14","47.23","ST PAUL ISLAND (AUT)","8204909","2018-09-19 03:00","2018","09","19","03:00","9.4","","6.2","","81","","","M","9","","48","","","","101.09","","","","","","NA"
"-60.14","47.23","ST PAUL ISLAND (AUT)","8204909","2018-09-19 04:00","2018","09","19","04:00","9.4","","6.2","","80","","","M","8","","41","","","","101.17","","","","","","NA"
"-60.14","47.23","ST PAUL ISLAND (AUT)","8204909","2018-09-19 05:00","2018","09","19","05:00","9.3","","5.5","","77","","","M","9","","42","","","","101.23","","","","","","NA"
"-60.14","47.23","ST PAUL ISLAND (AUT)","8204909","2018-09-19 06:00","2018","09","19","06:00","9.3","","5.5","","77","","","M","9","","43","","","","101.29","","","","","","NA"
"-60.14","47.23","ST PAUL ISLAND (AUT)","8204909","2018-09-19 07:00","2018","09","19","07:00","9.5","","6.0","","79","","","M","9","","45","","","","101.24","","","","","","NA"
"-60.14","47.23","ST PAUL ISLAND (AUT)","8204909","2018-09-19 08:00","2018","09","19","08:00","9.3","","5.7","","78","","","M","8","","46","","","","101.32","","","","","","NA"
"-60.14","47.23","ST PAUL ISLAND (AUT)","8204909","2018-09-19 09:00","2018","09","19","09:00","9.3","","5.3","","76","","","M","9","","46","","","","101.38","","","","","","NA"
"-60.14","47.23","ST PAUL ISLAND (AUT)","8204909","2018-09-19 10:00","2018","09","19","10:00","9.0","","4.6","","74","","","M","9","","45","","","","101.51","","","","","","NA"
"-60.14","47.23","ST PAUL ISLAND (AUT)","8204909","2018-09-19 11:00","2018","09","19","11:00","9.3","","4.6","","72","","","M","9","","41","","","","101.53","","","","","","NA"
"-60.14","47.23","ST PAUL ISLAND (AUT)","8204909","2018-09-19 12:00","2018","09","19","12:00","9.6","","4.5","","70","","","M","9","","38","","","","101.55","","","","","","NA"
"-60.14","47.23","ST PAUL ISLAND (AUT)","8204909","2018-09-19 13:00","2018","09","19","13:00"
"-60.14","47.23","ST PAUL ISLAND (AUT)","8204909","2018-09-19 14:00","2018","09","19","14:00","10.1","","4.3","","67","","","M","9","","34","","","","101.60","","","","","","NA"
"-60.14","47.23","ST PAUL ISLAND (AUT)","8204909","2018-09-19 15:00","2018","09","19","15:00","10.3","","4.0","","65","","","M","9","","31","","","","101.61","","","","","","NA"
"-60.14","47.23","ST PAUL ISLAND (AUT)","8204909","2018-09-19 16:00","2018","09","19","16:00","10.4","","3.9","","64","","","M","9","","28","","","","101.65","","","","","","NA"
"-60.14","47.23","ST PAUL ISLAND (AUT)","8204909","2018-09-19 17:00","2018","09","19","17:00","10.6","","3.6","","62","","","M","9","","29","","","","101.67","","","","","","NA"
"-60.14","47.23","ST PAUL ISLAND (AUT)","8204909","2018-09-19 18:00","2018","09","19","18:00","10.7","","3.5","","61","","","M","9","","29","","","","101.70","","","","","","NA"
"-60.14","47.23","ST PAUL ISLAND (AUT)","8204909","2018-09-19 19:00","2018","09","19","19:00","11.0","","4.5","","64","","","M","8","","27","","","","101.78","","","","","","NA"
"-60.14","47.23","ST PAUL ISLAND (AUT)","8204909","2018-09-19 20:00","2018","09","19","20:00","11.2","","4.6","","64","","","M","8","","26","","","","101.83","","","","","","NA"
"-60.14","47.23","ST PAUL ISLAND (AUT)","8204909","2018-09-19 21:00","2018","09","19","21:00","11.4","","4.5","","62","","","M","8","","25","","","","101.82","","","","","","NA"
"-60.14","47.23","ST PAUL ISLAND (AUT)","8204909","2018-09-19 22:00","2018","09","19","22:00","11.0","","3.5","","60","","","M","8","","28","","","","101.83","","","","","","NA"
"-60.14","47.23","ST PAUL ISLAND (AUT)","8204909","2018-09-19 23:00","2018","09","19","23:00","11.0","","4.8","","65","","","M","10","","30","","","","101.82","","","","","","NA"
"-60.14","47.23","ST PAUL ISLAND (AUT)","8204909","2018-09-20 00:00","2018","09","20","00:00","10.2","","5.4","","72","","","M","9","","32","","","","101.83","","","","","","NA"
"-60.14","47.23","ST PAUL ISLAND (AUT)","8204909","2018-09-20 01:00","2018","09","20","01:00","10.0","","5.6","","74","","","M","10","","33","","","","101.86","","","","","","NA"
"-60.14","47.23","ST PAUL ISLAND (AUT)","8204909","2018-09-20 02:00","2018","09","20","02:00","10.1","","6.1","","76","","","M","9","","27","","","","101.90","","","","","","NA"
"-60.14","47.23","ST PAUL ISLAND (AUT)","8204909","2018-09-20 03:00","2018","09","20","03:00","9.7","","5.6","","76","","","M","9","","26","","","","101.92","","","","","","NA"
"-60.14","47.23","ST PAUL ISLAND (AUT)","8204909","2018-09-20 04:00","2018","09","20","04:00","9.5","","5.5","","76","","","M","8","","27","","","","101.94","","","","","","NA"
"-60.14","47.23","ST PAUL ISLAND (AUT)","8204909","2018-09-20 05:00","2018","09","20","05:00"
"-60.14","47.23","ST PAUL ISLAND (AUT)","8204909","2018-09-20 06:00","2018","09","20","06:00","8.8","","4.2","","73","","","M","8","","25","","","","102.01","","","","","","NA"
"-60.14","47.23","ST PAUL ISLAND (AUT)","8204909","2018-09-20 07:00","2018","09","20","07:00","8.8","","3.9","","71","","","M","8","","24","","","","102.05","","","","","","NA"
"-60.14","47.23","ST PAUL ISLAND (AUT)","8204909","2018-09-20 08:00","2018","09","20","08:00","8.9","","3.5","","69","","","M","8","","26","","","","102.06","","","","","","NA"
"-60.14","47.23","ST PAUL ISLAND (AUT)","8204909","2018-09-20 09:00","2018","09","20","09:00","9.8","","3.6","","65","","","M","8","","23","","","","102.11","","","","","","NA"
"-60.14","47.23","ST PAUL ISLAND (AUT)","8204909","2018-09-20 10:00","2018","09","20","10:00","9.5","","3.2","","65","","","M","8","","20","","","","102.15","","","","","","NA"
"-60.14","47.23","ST PAUL ISLAND (AUT)","8204909","2018-09-20 11:00","2018","09","20","11:00","9.5","","2.5","","61","","","M","9","","14","","","","102.14","","","","","","NA"
"-60.14","47.23","ST PAUL ISLAND (AUT)","8204909","2018-09-20 12:00","2018","09","20","12:00","10.3","","2.3","","57","","","M","7","","11","","","","102.15","","","","","","NA"
"-60.14","47.23","ST PAUL ISLAND (AUT)","8204909","2018-09-20 13:00","2018","09","20","13:00","10.7","","2.1","","55","","","M","7","","5","","","","102.15","","","","","","NA"
"-60.14","47.23","ST PAUL ISLAND (AUT)","8204909","2018-09-20 14:00","2018","09","20","14:00","10.0","","3.1","","62","","","M","7","","6","","","","102.11","","","","","","NA"
"-60.14","47.23","ST PAUL ISLAND (AUT)","8204909","2018-09-20 15:00","2018","09","20","15:00","11.1","","2.5","","56","","","M","8","","2","","","","102.11","","","","","","NA"
"-60.14","47.23","ST PAUL ISLAND (AUT)","8204909","2018-09-20 16:00","2018","09","20","16:00","10.2","","2.6","","59","","","M","6","","2","","","","102.11","","","","","","NA"
"-60.14","47.23","ST PAUL ISLAND (AUT)","8204909","2018-09-20 17:00","2018","09","20","17:00","9.8","","1.4","","56","","","M","","","0","","","","102.11","","","","","","NA"
"-60.14","47.23","ST PAUL ISLAND (AUT)","8204909","2018-09-20 18:00","2018","09","20","18:00","9.1","","2.3","","62","","","M","5","","1","","","","102.10","","","","","","NA"
"-60.14","47.23","ST PAUL ISLAND (AUT)","8204909","2018-09-20 19:00","2018","09","20","19:00","8.7","","2.0","","63","","","M","","","0","","","","102.13","","","","","","NA"
"-60.14","47.23","ST PAUL ISLAND (AUT)","8204909","2018-09-20 20:00","2018","09","20","20:00","8.8","","2.0","","62","","","M","","","0","","","","102.19","","","","","","NA"
"-60.14","47.23","ST PAUL ISLAND (AUT)","8204909","2018-09-20 21:00","2018","09","20","21:00","9.0","","2.4","","63","","","M","","","0","","","","102.19","","","","","","NA"
"-60.14","47.23","ST PAUL ISLAND (AUT)","8204909","2018-09-20 22:00","2018","09","20","22:00","9.2","","2.6","","63","","","M","34","","1","","","","102.20","","","","","","NA"
"-60.14","47.23","ST PAUL ISLAND (AUT)","8204909","2018-09-20 23:00","2018","09","20","23:00","9.1","","2.2","","62","","","M","32","","4","","","","102.21","","","","","","NA"
"-60.14","47.23","ST PAUL ISLAND (AUT)","8204909","2018-09-21 00:00","2018","09","21","00:00","9.0","","2.4","","63","","","M","34","","5","","","","102.22","","","","","","NA"
"-60.14","47.23","ST PAUL ISLAND (AUT)","8204909","2018-09-21 01:00","2018","09","21","01:00","9.2","","2.6","","63","","","M","","","0","","","","102.20","","","","","","NA"
"-60.14","47.23","ST PAUL ISLAND (AUT)","8204909","2018-09-21 02:00","2018","09","21","02:00","9.5","","2.6","","62","","","M","34","","8","","","","102.24","","","","","","NA"
"-60.14","47.23","ST PAUL ISLAND (AUT)","8204909","2018-09-21 03:00","2018","09","21","03:00","9.6","","3.2","","65","","","M","34","","6","","","","102.23","","","","","","NA"
"-60.14","47.23","ST PAUL ISLAND (AUT)","8204909","2018-09-21 04:00","2018","09","21","04:00","9.6","","3.4","","65","","","M","","","0","","","","102.20","","","","","","NA"
"-60.14","47.23","ST PAUL ISLAND (AUT)","8204909","2018-09-21 05:00","2018","09","21","05:00","9.8","","4.0","","67","","","M","34","","4","","","","102.21","","","","","","NA"
"-60.14","47.23","ST PAUL ISLAND (AUT)","8204909","2018-09-21 06:00","2018","09","21","06:00","10.0","","3.4","","64","","","M","33","","8","","","","102.30","","","","","","NA"
"-60.14","47.23","ST PAUL ISLAND (AUT)","8204909","2018-09-21 07:00","2018","09","21","07:00","10.8","","3.4","","60","","","M","34","","4","","","","102.31","","","","","","NA"
"-60.14","47.23","ST PAUL ISLAND (AUT)","8204909","2018-09-21 08:00","2018","09","21","08:00","11.9","","3.4","","56","","","M","","","0","","","","102.32","","","","","","NA"
"-60.14","47.23","ST PAUL ISLAND (AUT)","8204909","2018-09-21 09:00","2018","09","21","09:00","12.6","","3.7","","55","","","M","","","0","","","","102.37","","","","","","NA"
"-60.14","47.23","ST PAUL ISLAND (AUT)","8204909","2018-09-21 10:00","2018","09","21","10:00","12.9","","3.8","","54","","","M","30","","7","","","","102.41","","","","","","NA"
"-60.14","47.23","ST PAUL ISLAND (AUT)","8204909","2018-09-21 11:00","2018","09","21","11:00","13.8","","4.1","","52","","","M","25","","3","","","","102.34","","","","","","NA"
"-60.14","47.23","ST PAUL ISLAND (AUT)","8204909","2018-09-21 12:00","2018","09","21","12:00","13.2","","3.5","","52","","","M","","","0","","","","102.29","","","","","","NA"
"-60.14","47.23","ST PAUL ISLAND (AUT)","8204909","2018-09-21 13:00","2018","09","21","13:00","13.6","","3.8","","52","","","M","23","","6","","","","102.26","","","","","","NA"
"-60.14","47.23","ST PAUL ISLAND (AUT)","8204909","2018-09-21 14:00","2018","09","21","14:00","13.9","","4.5","","53","","","M","22","","6","","","","102.17","","","","","","NA"
"-60.14","47.23","ST PAUL ISLAND (AUT)","8204909","2018-09-21 15:00","2018","09","21","15:00","13.3","","5.8","","60","","","M","17","","21","","","","102.06","","","","","","NA"
"-60.14","47.23","ST PAUL ISLAND (AUT)","8204909","2018-09-21 16:00","2018","09","21","16:00","12.5","","5.7","","63","","","M","17","","23","","","","102.00","","","","","","NA"
"-60.14","47.23","ST PAUL ISLAND (AUT)","8204909","2018-09-21 17:00","2018","09","21","17:00","12.6","","6.4","","66","","","M","17","","27","","","","101.97","","","","","","NA"
"-60.14","47.23","ST PAUL ISLAND (AUT)","8204909","2018-09-21 18:00","2018","09","21","18:00","12.6","","6.1","","64","","","M","17","","31","","","","101.88","","","","","","NA"
"-60.14","47.23","ST PAUL ISLAND (AUT)","8204909","2018-09-21 19:00","2018","09","21","19:00","13.0","","7.5","","69","","","M","16","","39","","","","101.74","","","","","","NA"
"-60.14","47.23","ST PAUL ISLAND (AUT)","8204909","2018-09-21 20:00","2018","09","21","20:00","13.0","","7.7","","70","","","M","17","","37","","","","101.64","","","","","","NA"
"-60.14","47.23","ST PAUL ISLAND (AUT)","8204909","2018-09-21 21:00","2018","09","21","21:00","12.9","","7.1","","68","","","M","19","","25","","","","101.64","","","","","","NA"
"-60.14","47.23","ST PAUL ISLAND (AUT)","8204909","2018-09-21 22:00","2018","09","21","22:00","12.9","","6.8","","66","","","M","18","","29","","","","101.48","","","","","","NA"
"-60.14","47.23","ST PAUL ISLAND (AUT)","8204909","2018-09-21 23:00","2018","09","21","23:00","13.3","","7.6","","69","","","M","18","","38","","","","101.30","","","","","","NA"
"-60.14","47.23","ST PAUL ISLAND (AUT)","8204909","2018-09-22 00:00","2018","09","22","00:00","13.4","","7.4","","67","","","M","19","","38","","","","101.18","","","","","","NA"
"-60.14","47.23","ST PAUL ISLAND (AUT)","8204909","2018-09-22 01:00","2018","09","22","01:00","13.5","","7.7","","68","","","M","17","","43","","","","100.93","","","","","","NA"
"-60.14","47.23","ST PAUL ISLAND (AUT)","8204909","2018-09-22 02:00","2018","09","22","02:00","13.2","","9.4","","78","","","M","18","","47","","","","100.75","","","","","","NA"
"-60.14","47.23","ST PAUL ISLAND (AUT)","8204909","2018-09-22 03:00","2018","09","22","03:00","14.0","","10.3","","79","","","M","17","","48","","","","100.43","","","","","","NA"
"-60.14","47.23","ST PAUL ISLAND (AUT)","8204909","2018-09-22 04:00","2018","09","22","04:00","14.9","","11.7","","81","","","M","18","","35","","","","100.37","","","","","","NA"
"-60.14","47.23","ST PAUL ISLAND (AUT)","8204909","2018-09-22 05:00","2018","09","22","05:00","15.5","","12.3","","81","","","M","18","","35","","","","100.21","","","","","","NA"
"-60.14","47.23","ST PAUL ISLAND (AUT)","8204909","2018-09-22 06:00","2018","09","22","06:00","16.9","","12.7","","77","","","M","20","","34","","","","100.14","","","","","","NA"
"-60.14","47.23","ST PAUL ISLAND (AUT)","8204909","2018-09-22 07:00","2018","09","22","07:00","15.9","","13.1","","83","","","M","20","","41","","","","100.05","","","","","","NA"
"-60.14","47.23","ST PAUL ISLAND (AUT)","8204909","2018-09-22 08:00","2018","09","22","08:00","15.8","","13.6","","87","","","M","19","","45","","","","99.92","","","","","","NA"
"-60.14","47.23","ST PAUL ISLAND (AUT)","8204909","2018-09-22 09:00","2018","09","22","09:00","17.6","","14.6","","83","","","M","21","","44","","","","99.88","","","","","","NA"
"-60.14","47.23","ST PAUL ISLAND (AUT)","8204909","2018-09-22 10:00","2018","09","22","10:00","18.3","","14.8","","80","","","M","24","","73","","","","99.76","","","","","","NA"
"-60.14","47.23","ST PAUL ISLAND (AUT)","8204909","2018-09-22 11:00","2018","09","22","11:00","18.7","","14.9","","78","","","M","24","","76","","","","99.75","","","","","","NA"
"-60.14","47.23","ST PAUL ISLAND (AUT)","8204909","2018-09-22 12:00","2018","09","22","12:00","17.8","","15.0","","83","","","M","25","","71","","","","99.87","","","","","","NA"
"-60.14","47.23","ST PAUL ISLAND (AUT)","8204909","2018-09-22 13:00","2018","09","22","13:00","14.6","","10.5","","77","","","M","28","","60","","","","100.14","","","","","","NA"
"-60.14","47.23","ST PAUL ISLAND (AUT)","8204909","2018-09-22 14:00","2018","09","22","14:00","13.6","","9.1","","74","","","M","32","","41","","","","100.29","","","","","","NA"
"-60.14","47.23","ST PAUL ISLAND (AUT)","8204909","2018-09-22 15:00","2018","09","22","15:00","12.5","","7.5","","72","","","M","32","","48","","","","100.49","","","","","","NA"
"-60.14","47.23","ST PAUL ISLAND (AUT)","8204909","2018-09-22 16:00","2018","09","22","16:00","12.7","","7.7","","71","","","M","31","","56","","","","100.62","","","","","","NA"
"-60.14","47.23","ST PAUL ISLAND (AUT)","8204909","2018-09-22 17:00","2018","09","22","17:00","12.6","","5.4","","61","","","M","32","","52","","","","100.79","","","","","","NA"
"-60.14","47.23","ST PAUL ISLAND (AUT)","8204909","2018-09-22 18:00","2018","09","22","18:00","12.4","","6.1","","65","","","M","31","","40","","","","100.94","","","","","","NA"
"-60.14","47.23","ST PAUL ISLAND (AUT)","8204909","2018-09-22 19:00","2018","09","22","19:00","12.6","","6.9","","68","","","M","30","","34","","","","101.05","","","","","","NA"
"-60.14","47.23","ST PAUL ISLAND (AUT)","8204909","2018-09-22 20:00","2018","09","22","20:00","13.1","","7.4","","69","","","M","30","","34","","","","101.13","","","","","","NA"
"-60.14","47.23","ST PAUL ISLAND (AUT)","8204909","2018-09-22 21:00","2018","09","22","21:00","12.5","","7.5","","72","","","M","34","","24","","","","101.21","","","","","","NA"
"-60.14","47.23","ST PAUL ISLAND (AUT)","8204909","2018-09-22 22:00","2018","09","22","22:00","12.4","","7.5","","72","","","M","35","","21","","","","101.32","","","","","","NA"
"-60.14","47.23","ST PAUL ISLAND (AUT)","8204909","2018-09-22 23:00","2018","09","22","23:00","11.8","","6.4","","70","","","M","35","","37","","","","101.36","","","","","","NA"
"-60.14","47.23","ST PAUL ISLAND (AUT)","8204909","2018-09-23 00:00","2018","09","23","00:00","11.2","","4.6","","64","","","M","34","","47","","","","101.40","","","","","","NA"
"-60.14","47.23","ST PAUL ISLAND (AUT)","8204909","2018-09-23 01:00","2018","09","23","01:00","11.1","","4.0","","62","","","M","33","","43","","","","101.49","","","","","","NA"
"-60.14","47.23","ST PAUL ISLAND (AUT)","8204909","2018-09-23 02:00","2018","09","23","02:00","10.3","","4.0","","65","","","M","34","","37","","","","101.57","","","","","","NA"
"-60.14","47.23","ST PAUL ISLAND (AUT)","8204909","2018-09-23 03:00","2018","09","23","03:00","10.0","","1.8","","57","","","M","34","","29","","","","101.59","","","","","","NA"
"-60.14","47.23","ST PAUL ISLAND (AUT)","8204909","2018-09-23 04:00","2018","09","23","04:00","9.8","","1.2","","55","","","M","33","","26","","","","101.65","","","","","","NA"
"-60.14","47.23","ST PAUL ISLAND (AUT)","8204909","2018-09-23 05:00","2018","09","23","05:00","10.2","","2.9","","60","","","M","32","","19","","","","101.69","","","","","","NA"
"-60.14","47.23","ST PAUL ISLAND (AUT)","8204909","2018-09-23 06:00","2018","09","23","06:00","10.1","","2.3","","58","","","M","30","","12","","","","101.72","","","","","","NA"
"-60.14","47.23","ST PAUL ISLAND (AUT)","8204909","2018-09-23 07:00","2018","09","23","07:00","10.9","","3.0","","58","","","M","26","","13","","","","101.73","","","","","","NA"
"-60.14","47.23","ST PAUL ISLAND (AUT)","8204909","2018-09-23 08:00","2018","09","23","08:00","11.3","","2.8","","56","","","M","22","","15","","","","101.73","","","","","","NA"
"-60.14","47.23","ST PAUL ISLAND (AUT)","8204909","2018-09-23 09:00","2018","09","23","09:00","11.8","","4.2","","60","","","M","21","","22","","","","101.75","","","","","","NA"
"-60.14","47.23","ST PAUL ISLAND (AUT)","8204909","2018-09-23 10:00","2018","09","23","10:00","12.7","","3.4","","53","","","M","26","","41","","","","101.73","","","","","","NA"
"-60.14","47.23","ST PAUL ISLAND (AUT)","8204909","2018-09-23 11:00","2018","09","23","11:00","12.9","","3.5","","53","","","M","26","","34","","","","101.71","","","","","","NA"
"-60.14","47.23","ST PAUL ISLAND (AUT)","8204909","2018-09-23 12:00","2018","09","23","12:00","13.5","","4.5","","54","","","M","25","","39","","","","101.64","","","","","","NA"
"-60.14","47.23","ST PAUL ISLAND (AUT)","8204909","2018-09-23 13:00","2018","09","23","13:00","13.8","","6.3","","61","","","M","25","","48","","","","101.56","","","","","","NA"
"-60.14","47.23","ST PAUL ISLAND (AUT)","8204909","2018-09-23 14:00","2018","09","23","14:00","14.0","","5.7","","58","","","M","25","","45","","","","101.55","","","","","","NA"
"-60.14","47.23","ST PAUL ISLAND (AUT)","8204909","2018-09-23 15:00","2018","09","23","15:00","13.9","","6.8","","62","","","M","25","","53","","","","101.51","","","","","","NA"
"-60.14","47.23","ST PAUL ISLAND (AUT)","8204909","2018-09-23 16:00","2018","09","23","16:00","14.1","","6.7","","61","","","M","24","","48","","","","101.52","","","","","","NA"
"-60.14","47.23","ST PAUL ISLAND (AUT)","8204909","2018-09-23 17:00","2018","09","23","17:00","14.2","","7.2","","63","","","M","25","","47","","","","101.55","","","","","","NA"
"-60.14","47.23","ST PAUL ISLAND (AUT)","8204909","2018-09-23 18:00","2018","09","23","18:00","13.6","","7.3","","66","","","M","28","","42","","","","101.56","","","","","","NA"
"-60.14","47.23","ST PAUL ISLAND (AUT)","8204909","2018-09-23 19:00","2018","09","23","19:00","12.7","","8.0","","73","","","M","31","","44","","","","101.63","","","","","","NA"
"-60.14","47.23","ST PAUL ISLAND (AUT)","8204909","2018-09-23 20:00","2018","09","23","20:00","9.9","","6.5","","80","","","M","35","","45","","","","101.75","","","","","","NA"
"-60.14","47.23","ST PAUL ISLAND (AUT)","8204909","2018-09-23 21:00","2018","09","23","21:00","9.4","","5.3","","75","","","M","34","","41","","","","101.81","","","","","","NA"
"-60.14","47.23","ST PAUL ISLAND (AUT)","8204909","2018-09-23 22:00","2018","09","23","22:00","9.0","","3.9","","70","","","M","33","","38","","","","101.91","","","","","","NA"
"-60.14","47.23","ST PAUL ISLAND (AUT)","8204909","2018-09-23 23:00","2018","09","23","23:00","8.6","","1.2","","60","","","M","33","","39","","","","101.96","","","","","","NA"
"-60.14","47.23","ST PAUL ISLAND (AUT)","8204909","2018-09-24 00:00","2018","09","24","00:00","8.6","","1.3","","60","","","M","33","","38","","","","101.99","","","","","","NA"
"-60.14","47.23","ST PAUL ISLAND (AUT)","8204909","2018-09-24 01:00","2018","09","24","01:00","8.5","","0.1","","55","","","M","33","","41","","","","102.04","","","","","","NA"
"-60.14","47.23","ST PAUL ISLAND (AUT)","8204909","2018-09-24 02:00","2018","09","24","02:00","8.5","","-1.0","","51","","","M","33","","43","","","","102.08","","","","","","NA"
"-60.14","47.23","ST PAUL ISLAND (AUT)","8204909","2018-09-24 03:00","2018","09","24","03:00","8.4","","-1.0","","52","","","M","33","","45","","","","102.14","","","","","","NA"
"-60.14","47.23","ST PAUL ISLAND (AUT)","8204909","2018-09-24 04:00","2018","09","24","04:00","8.4","","-3.4","","43","","","M","33","","49","","","","102.21","","","","","","NA"
"-60.14","47.23","ST PAUL ISLAND (AUT)","8204909","2018-09-24 05:00","2018","09","24","05:00","8.3","","-1.2","","51","","","M","33","","43","","","","102.28","","","","","","NA"
"-60.14","47.23","ST PAUL ISLAND (AUT)","8204909","2018-09-24 06:00","2018","09","24","06:00","8.3","","-0.7","","53","","","M","33","","44","","","","102.41","","","","","","NA"
"-60.14","47.23","ST PAUL ISLAND (AUT)","8204909","2018-09-24 07:00","2018","09","24","07:00","8.5","","-0.5","","53","","","M","33","","45","","","","102.49","","","","","","NA"
"-60.14","47.23","ST PAUL ISLAND (AUT)","8204909","2018-09-24 08:00","2018","09","24","08:00","8.3","","0.6","","58","","","M","32","","44","","","","102.59","","","","","","NA"
"-60.14","47.23","ST PAUL ISLAND (AUT)","8204909","2018-09-24 09:00","2018","09","24","09:00","8.8","","0.7","","57","","","M","33","","46","","","","102.65","","","","","","NA"
"-60.14","47.23","ST PAUL ISLAND (AUT)","8204909","2018-09-24 10:00","2018","09","24","10:00","9.0","","1.8","","61","","","M","32","","43","","","","102.68","","","","","","NA"
"-60.14","47.23","ST PAUL ISLAND (AUT)","8204909","2018-09-24 11:00","2018","09","24","11:00","8.9","","3.0","","66","","","M","32","","48","","","","102.71","","","","","","NA"
"-60.14","47.23","ST PAUL ISLAND (AUT)","8204909","2018-09-24 12:00","2018","09","24","12:00","8.8","","1.4","","60","","","M","32","","48","","","","102.77","","","","","","NA"
"-60.14","47.23","ST PAUL ISLAND (AUT)","8204909","2018-09-24 13:00","2018","09","24","13:00","8.9","","1.3","","59","","","M","31","","44","","","","102.76","","","","","","NA"
"-60.14","47.23","ST PAUL ISLAND (AUT)","8204909","2018-09-24 14:00","2018","09","24","14:00","8.9","","1.2","","59","","","M","32","","48","","","","102.76","","","","","","NA"
"-60.14","47.23","ST PAUL ISLAND (AUT)","8204909","2018-09-24 15:00","2018","09","24","15:00","8.6","","1.5","","61","","","M","31","","47","","","","102.78","","","","","","NA"
"-60.14","47.23","ST PAUL ISLAND (AUT)","8204909","2018-09-24 16:00","2018","09","24","16:00","8.1","","2.6","","68","","","M","32","","42","","","","102.81","","","","","","NA"
"-60.14","47.23","ST PAUL ISLAND (AUT)","8204909","2018-09-24 17:00","2018","09","24","17:00","8.4","","1.7","","63","","","M","31","","49","","","","102.86","","","","","","NA"
"-60.14","47.23","ST PAUL ISLAND (AUT)","8204909","2018-09-24 18:00","2018","09","24","18:00","7.9","","0.0","","57","","","M","32","","49","","","","102.95","","","","","","NA"
"-60.14","47.23","ST PAUL ISLAND (AUT)","8204909","2018-09-24 19:00","2018","09","24","19:00","8.0","","0.5","","59","","","M","32","","49","","","","103.05","","","","","","NA"
"-60.14","47.23","ST PAUL ISLAND (AUT)","8204909","2018-09-24 20:00","2018","09","24","20:00","7.9","","0.4","","59","","","M","33","","46","","","","103.16","","","","","","NA"
"-60.14","47.23","ST PAUL ISLAND (AUT)","8204909","2018-09-24 21:00","2018","09","24","21:00","8.1","","-1.2","","52","","","M","33","","46","","","","103.20","","","","","","NA"
"-60.14","47.23","ST PAUL ISLAND (AUT)","8204909","2018-09-24 22:00","2018","09","24","22:00","8.2","","-0.5","","54","","","M","33","","45","","","","103.22","","","","","","NA"
"-60.14","47.23","ST PAUL ISLAND (AUT)","8204909","2018-09-24 23:00","2018","09","24","23:00","8.5","","0.1","","56","","","M","32","","47","","","","103.27","","","","","","NA"
"-60.14","47.23","ST PAUL ISLAND (AUT)","8204909","2018-09-25 00:00","2018","09","25","00:00","8.5","","-1.6","","49","","","M","33","","46","","","","103.27","","","","","","NA"
"-60.14","47.23","ST PAUL ISLAND (AUT)","8204909","2018-09-25 01:00","2018","09","25","01:00","8.3","","-1.8","","49","","","M","33","","46","","","","103.31","","","","","","NA"
"-60.14","47.23","ST PAUL ISLAND (AUT)","8204909","2018-09-25 02:00","2018","09","25","02:00","8.4","","-2.8","","45","","","M","32","","43","","","","103.35","","","","","","NA"
"-60.14","47.23","ST PAUL ISLAND (AUT)","8204909","2018-09-25 03:00","2018","09","25","03:00","8.4","","-2.3","","47","","","M","32","","38","","","","103.36","","","","","","NA"
"-60.14","47.23","ST PAUL ISLAND (AUT)","8204909","2018-09-25 04:00","2018","09","25","04:00","8.3","","-1.4","","50","","","M","32","","36","","","","103.37","","","","","","NA"
"-60.14","47.23","ST PAUL ISLAND (AUT)","8204909","2018-09-25 05:00","2018","09","25","05:00","8.3","","-2.0","","48","","","M","33","","32","","","","103.44","","","","","","NA"
"-60.14","47.23","ST PAUL ISLAND (AUT)","8204909","2018-09-25 06:00","2018","09","25","06:00","8.1","","-2.8","","46","","","M","35","","27","","","","103.47","","","","","","NA"
"-60.14","47.23","ST PAUL ISLAND (AUT)","8204909","2018-09-25 07:00","2018","09","25","07:00","8.6","","-2.1","","47","","","M","36","","19","","","","103.49","","","","","","NA"
"-60.14","47.23","ST PAUL ISLAND (AUT)","8204909","2018-09-25 08:00","2018","09","25","08:00","8.9","","-2.1","","46","","","M","35","","12","","","","103.54","","","","","","NA"
"-60.14","47.23","ST PAUL ISLAND (AUT)","8204909","2018-09-25 09:00","2018","09","25","09:00","9.6","","-1.1","","47","","","M","32","","12","","","","103.60","","","","","","NA"
"-60.14","47.23","ST PAUL ISLAND (AUT)","8204909","2018-09-25 10:00","2018","09","25","10:00","9.7","","-1.9","","44","","","M","31","","17","","","","103.60","","","","","","NA"
"-60.14","47.23","ST PAUL ISLAND (AUT)","8204909","2018-09-25 11:00","2018","09","25","11:00","10.0","","-1.8","","44","","","M","31","","18","","","","103.59","","","","","","NA"
"-60.14","47.23","ST PAUL ISLAND (AUT)","8204909","2018-09-25 12:00","2018","09","25","12:00","10.2","","-1.1","","45","","","M","29","","18","","","","103.53","","","","","","NA"
"-60.14","47.23","ST PAUL ISLAND (AUT)","8204909","2018-09-25 13:00","2018","09","25","13:00","10.4","","-2.3","","41","","","M","30","","19","","","","103.46","","","","","","NA"
"-60.14","47.23","ST PAUL ISLAND (AUT)","8204909","2018-09-25 14:00","2018","09","25","14:00","10.7","","-1.7","","42","","","M","29","","17","","","","103.41","","","","","","NA"
"-60.14","47.23","ST PAUL ISLAND (AUT)","8204909","2018-09-25 15:00","2018","09","25","15:00","10.6","","-1.1","","44","","","M","30","","9","","","","103.34","","","","","","NA"
"-60.14","47.23","ST PAUL ISLAND (AUT)","8204909","2018-09-25 16:00","2018","09","25","16:00","10.4","","-2.1","","41","","","M","30","","5","","","","103.33","","","","","","NA"
"-60.14","47.23","ST PAUL ISLAND (AUT)","8204909","2018-09-25 17:00","2018","09","25","17:00","9.8","","-1.1","","46","","","M","25","","2","","","","103.30","","","","","","NA"
"-60.14","47.23","ST PAUL ISLAND (AUT)","8204909","2018-09-25 18:00","2018","09","25","18:00","8.9","","-0.8","","51","","","M","18","","8","","","","103.22","","","","","","NA"
"-60.14","47.23","ST PAUL ISLAND (AUT)","8204909","2018-09-25 19:00","2018","09","25","19:00","9.1","","0.7","","56","","","M","18","","14","","","","103.16","","","","","","NA"
"-60.14","47.23","ST PAUL ISLAND (AUT)","8204909","2018-09-25 20:00","2018","09","25","20:00","9.5","","1.9","","59","","","M","19","","18","","","","103.09","","","","","","NA"
"-60.14","47.23","ST PAUL ISLAND (AUT)","8204909","2018-09-25 21:00","2018","09","25","21:00","10.2","","3.3","","62","","","M","17","","34","","","","103.00","","","","","","NA"
"-60.14","47.23","ST PAUL ISLAND (AUT)","8204909","2018-09-25 22:00","2018","09","25","22:00","10.5","","2.8","","59","","","M","19","","26","","","","102.96","","","","","","NA"
"-60.14","47.23","ST PAUL ISLAND (AUT)","8204909","2018-09-25 23:00","2018","09","25","23:00","9.9","","3.0","","62","","","M","20","","26","","","","102.86","","","","","","NA"
"-60.14","47.23","ST PAUL ISLAND (AUT)","8204909","2018-09-26 00:00","2018","09","26","00:00","9.9","","3.4","","64","","","M","19","","28","","","","102.77","","","","","","NA"
"-60.14","47.23","ST PAUL ISLAND (AUT)","8204909","2018-09-26 01:00","2018","09","26","01:00","10.0","","3.5","","64","","","M","20","","28","","","","102.74","","","","","","NA"
"-60.14","47.23","ST PAUL ISLAND (AUT)","8204909","2018-09-26 02:00","2018","09","26","02:00","10.2","","3.4","","63","","","M","19","","27","","","","102.67","","","","","","NA"
"-60.14","47.23","ST PAUL ISLAND (AUT)","8204909","2018-09-26 03:00","2018","09","26","03:00","10.4","","3.7","","63","","","M","20","","29","","","","102.61","","","","","","NA"
"-60.14","47.23","ST PAUL ISLAND (AUT)","8204909","2018-09-26 04:00","2018","09","26","04:00","10.6","","3.8","","63","","","M","19","","28","","","","102.52","","","","","","NA"
"-60.14","47.23","ST PAUL ISLAND (AUT)","8204909","2018-09-26 05:00","2018","09","26","05:00","11.1","","3.9","","61","","","M","20","","36","","","","102.43","","","","","","NA"
"-60.14","47.23","ST PAUL ISLAND (AUT)","8204909","2018-09-26 06:00","2018","09","26","06:00","11.7","","6.1","","68","","","M","20","","28","","","","102.36","","","","","","NA"
"-60.14","47.23","ST PAUL ISLAND (AUT)","8204909","2018-09-26 07:00","2018","09","26","07:00","12.1","","6.9","","71","","","M","21","","29","","","","102.31","","","","","","NA"
"-60.14","47.23","ST PAUL ISLAND (AUT)","8204909","2018-09-26 08:00","2018","09","26","08:00","12.3","","8.0","","75","","","M","20","","26","","","","102.24","","","","","","NA"
"-60.14","47.23","ST PAUL ISLAND (AUT)","8204909","2018-09-26 09:00","2018","09","26","09:00","12.9","","9.0","","77","","","M","20","","25","","","","102.15","","","","","","NA"
"-60.14","47.23","ST PAUL ISLAND (AUT)","8204909","2018-09-26 10:00","2018","09","26","10:00","12.9","","10.3","","84","","","M","17","","36","","","","102.05","","","","","","NA"
"-60.14","47.23","ST PAUL ISLAND (AUT)","8204909","2018-09-26 11:00","2018","09","26","11:00","13.2","","10.1","","81","","","M","18","","37","","","","101.90","","","","","","NA"
"-60.14","47.23","ST PAUL ISLAND (AUT)","8204909","2018-09-26 12:00","2018","09","26","12:00","13.5","","11.2","","86","","","M","17","","48","","","","101.75","","","","","","NA"
"-60.14","47.23","ST PAUL ISLAND (AUT)","8204909","2018-09-26 13:00","2018","09","26","13:00","13.5","","11.1","","86","","","M","17","","45","","","","101.60","","","","","","NA"
"-60.14","47.23","ST PAUL ISLAND (AUT)","8204909","2018-09-26 14:00","2018","09","26","14:00","14.4","","12.0","","85","","","M","17","","49","","","","101.46","","","","","","NA"
"-60.14","47.23","ST PAUL ISLAND (AUT)","8204909","2018-09-26 15:00","2018","09","26","15:00","15.2","","12.3","","83","","","M","17","","44","","","","101.43","","","","","","NA"
"-60.14","47.23","ST PAUL ISLAND (AUT)","8204909","2018-09-26 16:00","2018","09","26","16:00","16.1","","12.8","","81","","","M","19","","44","","","","101.37","","","","","","NA"
"-60.14","47.23","ST PAUL ISLAND (AUT)","8204909","2018-09-26 17:00","2018","09","26","17:00","16.2","","13.0","","81","","","M","19","","45","","","","101.29","","","","","","NA"
"-60.14","47.23","ST PAUL ISLAND (AUT)","8204909","2018-09-26 18:00","2018","09","26","18:00","16.0","","13.6","","85","","","M","18","","44","","","","101.24","","","","","","NA"
"-60.14","47.23","ST PAUL ISLAND (AUT)","8204909","2018-09-26 19:00","2018","09","26","19:00","16.4","","13.9","","85","","","M","17","","46","","","","101.19","","","","","","NA"
"-60.14","47.23","ST PAUL ISLAND (AUT)","8204909","2018-09-26 20:00","2018","09","26","20:00","16.5","","14.2","","86","","","M","18","","41","","","","101.11","","","","","","NA"
"-60.14","47.23","ST PAUL ISLAND (AUT)","8204909","2018-09-26 21:00","2018","09","26","21:00","16.3","","14.4","","89","","","M","18","","44","","","","101.07","","","","","","NA"
"-60.14","47.23","ST PAUL ISLAND (AUT)","8204909","2018-09-26 22:00","2018","09","26","22:00","16.1","","14.6","","91","","","M","17","","45","","","","100.96","","","","","","NA"
"-60.14","47.23","ST PAUL ISLAND (AUT)","8204909","2018-09-26 23:00","2018","09","26","23:00","17.0","","15.4","","90","","","M","18","","48","","","","100.83","","","","","","NA"
"-60.14","47.23","ST PAUL ISLAND (AUT)","8204909","2018-09-27 00:00","2018","09","27","00:00","16.8","","15.3","","91","","","M","17","","55","","","","100.80","","","","","","NA"
"-60.14","47.23","ST PAUL ISLAND (AUT)","8204909","2018-09-27 01:00","2018","09","27","01:00","16.8","","15.4","","92","","","M","17","","54","","","","100.77","","","","","","NA"
"-60.14","47.23","ST PAUL ISLAND (AUT)","8204909","2018-09-27 02:00","2018","09","27","02:00","16.6","","15.2","","92","","","M","17","","53","","","","100.69","","","","","","NA"
"-60.14","47.23","ST PAUL ISLAND (AUT)","8204909","2018-09-27 03:00","2018","09","27","03:00","16.7","","15.5","","93","","","M","17","","54","","","","100.62","","","","","","NA"
"-60.14","47.23","ST PAUL ISLAND (AUT)","8204909","2018-09-27 04:00","2018","09","27","04:00","18.7","","16.5","","87","","","M","18","","46","","","","100.56","","","","","","NA"
"-60.14","47.23","ST PAUL ISLAND (AUT)","8204909","2018-09-27 05:00","2018","09","27","05:00","21.7","","17.8","","78","","","M","19","","42","","","","100.63","","28","","","","NA"
"-60.14","47.23","ST PAUL ISLAND (AUT)","8204909","2018-09-27 06:00","2018","09","27","06:00","20.5","","16.9","","80","","","M","20","","36","","","","100.66","","26","","","","NA"
"-60.14","47.23","ST PAUL ISLAND (AUT)","8204909","2018-09-27 07:00","2018","09","27","07:00","14.9","","14.0","","94","","","M","27","","43","","","","100.89","","","","","","NA"
"-60.14","47.23","ST PAUL ISLAND (AUT)","8204909","2018-09-27 08:00","2018","09","27","08:00","13.4","","11.6","","89","","","M","32","","42","","","","101.20","","","","","","NA"
"-60.14","47.23","ST PAUL ISLAND (AUT)","8204909","2018-09-27 09:00","2018","09","27","09:00","12.6","","8.8","","78","","","M","33","","36","","","","101.25","","","","","","NA"
"-60.14","47.23","ST PAUL ISLAND (AUT)","8204909","2018-09-27 10:00","2018","09","27","10:00","12.4","","8.4","","77","","","M","32","","42","","","","101.38","","","","","","NA"
"-60.14","47.23","ST PAUL ISLAND (AUT)","8204909","2018-09-27 11:00","2018","09","27","11:00","12.5","","8.2","","75","","","M","32","","40","","","","101.47","","","","","","NA"
"-60.14","47.23","ST PAUL ISLAND (AUT)","8204909","2018-09-27 12:00","2018","09","27","12:00","11.9","","7.7","","75","","","M","33","","38","","","","101.54","","","","","","NA"
"-60.14","47.23","ST PAUL ISLAND (AUT)","8204909","2018-09-27 13:00","2018","09","27","13:00","11.4","","6.8","","74","","","M","33","","44","","","","101.62","","","","","","NA"
"-60.14","47.23","ST PAUL ISLAND (AUT)","8204909","2018-09-27 14:00","2018","09","27","14:00","11.3","","6.6","","73","","","M","33","","38","","","","101.66","","","","","","NA"
"-60.14","47.23","ST PAUL ISLAND (AUT)","8204909","2018-09-27 15:00","2018","09","27","15:00","11.0","","6.8","","75","","","M","33","","35","","","","101.72","","","","","","NA"
"-60.14","47.23","ST PAUL ISLAND (AUT)","8204909","2018-09-27 16:00","2018","09","27","16:00","10.7","","6.4","","75","","","M","33","","40","","","","101.81","","","","","","NA"
"-60.14","47.23","ST PAUL ISLAND (AUT)","8204909","2018-09-27 17:00","2018","09","27","17:00","10.6","","6.6","","76","","","M","33","","33","","","","101.90","","","","","","NA"
"-60.14","47.23","ST PAUL ISLAND (AUT)","8204909","2018-09-27 18:00","2018","09","27","18:00","10.3","","6.2","","76","","","M","33","","25","","","","101.98","","","","","","NA"
"-60.14","47.23","ST PAUL ISLAND (AUT)","8204909","2018-09-27 19:00","2018","09","27","19:00","10.0","","6.1","","77","","","M","35","","27","","","","102.04","","","","","","NA"
"-60.14","47.23","ST PAUL ISLAND (AUT)","8204909","2018-09-27 20:00","2018","09","27","20:00","9.9","","6.1","","77","","","M","35","","27","","","","102.06","","","","","","NA"
"-60.14","47.23","ST PAUL ISLAND (AUT)","8204909","2018-09-27 21:00","2018","09","27","21:00","10.0","","5.4","","73","","","M","35","","30","","","","102.12","","","","","","NA"
"-60.14","47.23","ST PAUL ISLAND (AUT)","8204909","2018-09-27 22:00","2018","09","27","22:00","9.9","","5.9","","76","","","M","36","","28","","","","102.09","","","","","","NA"
"-60.14","47.23","ST PAUL ISLAND (AUT)","8204909","2018-09-27 23:00","2018","09","27","23:00","10.2","","7.4","","83","","","M","2","","17","","","","102.16","","","","","","NA"
"-60.14","47.23","ST PAUL ISLAND (AUT)","8204909","2018-09-28 00:00","2018","09","28","00:00","10.5","","8.0","","84","","","M","3","","21","","","","102.14","","","","","","NA"
"-60.14","47.23","ST PAUL ISLAND (AUT)","8204909","2018-09-28 01:00","2018","09","28","01:00","10.6","","7.6","","82","","","M","4","","26","","","","102.12","","","","","","NA"
"-60.14","47.23","ST PAUL ISLAND (AUT)","8204909","2018-09-28 02:00","2018","09","28","02:00","10.6","","7.5","","81","","","M","5","","27","","","","102.10","","","","","","NA"
"-60.14","47.23","ST PAUL ISLAND (AUT)","8204909","2018-09-28 03:00","2018","09","28","03:00","11.1","","7.4","","78","","","M","5","","29","","","","102.10","","","","","","NA"
"-60.14","47.23","ST PAUL ISLAND (AUT)","8204909","2018-09-28 04:00","2018","09","28","04:00","10.9","","7.2","","78","","","M","7","","32","","","","102.09","","","","","","NA"
"-60.14","47.23","ST PAUL ISLAND (AUT)","8204909","2018-09-28 05:00","2018","09","28","05:00","10.8","","7.6","","81","","","M","8","","23","","","","102.16","","","","","","NA"
"-60.14","47.23","ST PAUL ISLAND (AUT)","8204909","2018-09-28 06:00","2018","09","28","06:00","11.5","","7.9","","79","","","M","10","","34","","","","102.17","","","","","","NA"
"-60.14","47.23","ST PAUL ISLAND (AUT)","8204909","2018-09-28 07:00","2018","09","28","07:00","11.5","","6.7","","73","","","M","9","","38","","","","102.16","","","","","","NA"
"-60.14","47.23","ST PAUL ISLAND (AUT)","8204909","2018-09-28 08:00","2018","09","28","08:00","11.4","","7.4","","77","","","M","10","","47","","","","102.07","","","","","","NA"
"-60.14","47.23","ST PAUL ISLAND (AUT)","8204909","2018-09-28 09:00","2018","09","28","09:00","11.6","","7.7","","77","","","M","11","","51","","","","102.06","","","","","","NA"
"-60.14","47.23","ST PAUL ISLAND (AUT)","8204909","2018-09-28 10:00","2018","09","28","10:00","11.7","","8.3","","80","","","M","11","","54","","","","101.98","","","","","","NA"
"-60.14","47.23","ST PAUL ISLAND (AUT)","8204909","2018-09-28 11:00","2018","09","28","11:00","11.7","","8.7","","82","","","M","11","","51","","","","101.93","","","","","","NA"
"-60.14","47.23","ST PAUL ISLAND (AUT)","8204909","2018-09-28 12:00","2018","09","28","12:00","11.2","","8.5","","83","","","M","11","","56","","","","101.83","","","","","","NA"
"-60.14","47.23","ST PAUL ISLAND (AUT)","8204909","2018-09-28 13:00","2018","09","28","13:00","10.9","","9.5","","91","","","M","12","","48","","","","101.77","","","","","","NA"
"-60.14","47.23","ST PAUL ISLAND (AUT)","8204909","2018-09-28 14:00","2018","09","28","14:00","10.9","","9.8","","93","","","M","11","","44","","","","101.72","","","","","","NA"
"-60.14","47.23","ST PAUL ISLAND (AUT)","8204909","2018-09-28 15:00","2018","09","28","15:00","11.1","","10.1","","94","","","M","11","","51","","","","101.54","","","","","","NA"
"-60.14","47.23","ST PAUL ISLAND (AUT)","8204909","2018-09-28 16:00","2018","09","28","16:00","11.4","","10.4","","94","","","M","11","","44","","","","101.53","","","","","","NA"
"-60.14","47.23","ST PAUL ISLAND (AUT)","8204909","2018-09-28 17:00","2018","09","28","17:00","11.6","","10.8","","95","","","M","10","","43","","","","101.40","","","","","","NA"
"-60.14","47.23","ST PAUL ISLAND (AUT)","8204909","2018-09-28 18:00","2018","09","28","18:00","11.6","","10.8","","95","","","M","10","","46","","","","101.29","","","","","","NA"
"-60.14","47.23","ST PAUL ISLAND (AUT)","8204909","2018-09-28 19:00","2018","09","28","19:00","11.6","","10.8","","95","","","M","9","","51","","","","101.09","","","","","","NA"
"-60.14","47.23","ST PAUL ISLAND (AUT)","8204909","2018-09-28 20:00","2018","09","28","20:00","12.1","","11.3","","95","","","M","9","","52","","","","100.91","","","","","","NA"
"-60.14","47.23","ST PAUL ISLAND (AUT)","8204909","2018-09-28 21:00","2018","09","28","21:00","12.9","","12.2","","95","","","M","11","","41","","","","100.83","","","","","","NA"
"-60.14","47.23","ST PAUL ISLAND (AUT)","8204909","2018-09-28 22:00","2018","09","28","22:00","13.8","","13.1","","96","","","M","16","","9","","","","100.79","","","","","","NA"
"-60.14","47.23","ST PAUL ISLAND (AUT)","8204909","2018-09-28 23:00","2018","09","28","23:00","15.6","","14.9","","96","","","M","22","","15","","","","100.74","","","","","","NA"
"-60.14","47.23","ST PAUL ISLAND (AUT)","8204909","2018-09-29 00:00","2018","09","29","00:00","15.1","","14.0","","93","","","M","24","","32","","","","100.76","","","","","","NA"
"-60.14","47.23","ST PAUL ISLAND (AUT)","8204909","2018-09-29 01:00","2018","09","29","01:00","14.1","","13.3","","95","","","M","24","","47","","","","100.81","","","","","","NA"
"-60.14","47.23","ST PAUL ISLAND (AUT)","8204909","2018-09-29 02:00","2018","09","29","02:00","13.6","","12.9","","96","","","M","24","","42","","","","100.81","","","","","","NA"
"-60.14","47.23","ST PAUL ISLAND (AUT)","8204909","2018-09-29 03:00","2018","09","29","03:00","13.0","","12.3","","96","","","M","24","","37","","","","100.84","","","","","","NA"
"-60.14","47.23","ST PAUL ISLAND (AUT)","8204909","2018-09-29 04:00","2018","09","29","04:00","12.6","","12.0","","96","","","M","26","","45","","","","100.86","","","","","","NA"
"-60.14","47.23","ST PAUL ISLAND (AUT)","8204909","2018-09-29 05:00","2018","09","29","05:00","12.4","","11.7","","96","","","M","27","","45","","","","100.90","","","","","","NA"
"-60.14","47.23","ST PAUL ISLAND (AUT)","8204909","2018-09-29 06:00","2018","09","29","06:00","12.2","","11.4","","95","","","M","26","","34","","","","100.99","","","","","","NA"
"-60.14","47.23","ST PAUL ISLAND (AUT)","8204909","2018-09-29 07:00","2018","09","29","07:00","11.9","","11.1","","95","","","M","25","","43","","","","100.98","","","","","","NA"
"-60.14","47.23","ST PAUL ISLAND (AUT)","8204909","2018-09-29 08:00","2018","09","29","08:00","11.8","","11.1","","95","","","M","30","","29","","","","101.01","","","","","","NA"
"-60.14","47.23","ST PAUL ISLAND (AUT)","8204909","2018-09-29 09:00","2018","09","29","09:00","11.7","","10.8","","95","","","M","29","","33","","","","101.07","","","","","","NA"
"-60.14","47.23","ST PAUL ISLAND (AUT)","8204909","2018-09-29 10:00","2018","09","29","10:00","12.0","","10.5","","91","","","M","28","","31","","","","101.13","","","","","","NA"
"-60.14","47.23","ST PAUL ISLAND (AUT)","8204909","2018-09-29 11:00","2018","09","29","11:00","12.0","","10.0","","88","","","M","28","","31","","","","101.11","","","","","","NA"
"-60.14","47.23","ST PAUL ISLAND (AUT)","8204909","2018-09-29 12:00","2018","09","29","12:00","12.2","","9.9","","86","","","M","28","","31","","","","101.10","","","","","","NA"
"-60.14","47.23","ST PAUL ISLAND (AUT)","8204909","2018-09-29 13:00","2018","09","29","13:00","12.0","","9.6","","85","","","M","27","","35","","","","101.08","","","","","","NA"
"-60.14","47.23","ST PAUL ISLAND (AUT)","8204909","2018-09-29 14:00","2018","09","29","14:00","12.1","","9.9","","86","","","M","28","","37","","","","101.10","","","","","","NA"
"-60.14","47.23","ST PAUL ISLAND (AUT)","8204909","2018-09-29 15:00","2018","09","29","15:00","11.9","","9.9","","88","","","M","29","","43","","","","101.15","","","","","","NA"
"-60.14","47.23","ST PAUL ISLAND (AUT)","8204909","2018-09-29 16:00","2018","09","29","16:00","12.3","","9.0","","81","","","M","28","","44","","","","101.22","","","","","","NA"
"-60.14","47.23","ST PAUL ISLAND (AUT)","8204909","2018-09-29 17:00","2018","09","29","17:00","11.8","","10.0","","88","","","M","29","","33","","","","101.27","","","","","","NA"
"-60.14","47.23","ST PAUL ISLAND (AUT)","8204909","2018-09-29 18:00","2018","09","29","18:00","11.6","","10.3","","92","","","M","29","","31","","","","101.34","","","","","","NA"
"-60.14","47.23","ST PAUL ISLAND (AUT)","8204909","2018-09-29 19:00","2018","09","29","19:00","10.5","","9.2","","91","","","M","34","","47","","","","101.39","","","","","","NA"
"-60.14","47.23","ST PAUL ISLAND (AUT)","8204909","2018-09-29 20:00","2018","09","29","20:00","11.7","","8.6","","82","","","M","32","","30","","","","101.45","","","","","","NA"
"-60.14","47.23","ST PAUL ISLAND (AUT)","8204909","2018-09-29 21:00","2018","09","29","21:00","11.3","","7.7","","79","","","M","32","","36","","","","101.48","","","","","","NA"
"-60.14","47.23","ST PAUL ISLAND (AUT)","8204909","2018-09-29 22:00","2018","09","29","22:00","10.9","","8.2","","84","","","M","33","","41","","","","101.52","","","","","","NA"
"-60.14","47.23","ST PAUL ISLAND (AUT)","8204909","2018-09-29 23:00","2018","09","29","23:00","10.2","","7.0","","81","","","M","33","","46","","","","101.59","","","","","","NA"
"-60.14","47.23","ST PAUL ISLAND (AUT)","8204909","2018-09-30 00:00","2018","09","30","00:00","10.2","","6.2","","76","","","M","33","","52","","","","101.59","","","","","","NA"
"-60.14","47.23","ST PAUL ISLAND (AUT)","8204909","2018-09-30 01:00","2018","09","30","01:00","9.9","","4.7","","70","","","M","34","","39","","","","101.66","","","","","","NA"
"-60.14","47.23","ST PAUL ISLAND (AUT)","8204909","2018-09-30 02:00","2018","09","30","02:00","9.8","","4.8","","71","","","M","33","","40","","","","101.73","","","","","","NA"
"-60.14","47.23","ST PAUL ISLAND (AUT)","8204909","2018-09-30 03:00","2018","09","30","03:00","9.6","","3.3","","65","","","M","33","","39","","","","101.77","","","","","","NA"
"-60.14","47.23","ST PAUL ISLAND (AUT)","8204909","2018-09-30 04:00","2018","09","30","04:00","9.5","","2.4","","61","","","M","34","","33","","","","101.83","","","","","","NA"
"-60.14","47.23","ST PAUL ISLAND (AUT)","8204909","2018-09-30 05:00","2018","09","30","05:00","9.3","","2.5","","62","","","M","34","","33","","","","101.91","","","","","","NA"
"-60.14","47.23","ST PAUL ISLAND (AUT)","8204909","2018-09-30 06:00","2018","09","30","06:00","9.4","","2.2","","61","","","M","33","","31","","","","101.96","","","","","","NA"
"-60.14","47.23","ST PAUL ISLAND (AUT)","8204909","2018-09-30 07:00","2018","09","30","07:00","9.7","","2.3","","60","","","M","34","","27","","","","102.03","","","","","","NA"
"-60.14","47.23","ST PAUL ISLAND (AUT)","8204909","2018-09-30 08:00","2018","09","30","08:00","10.3","","1.8","","56","","","M","33","","28","","","","102.13","","","","","","NA"
"-60.14","47.23","ST PAUL ISLAND (AUT)","8204909","2018-09-30 09:00","2018","09","30","09:00","10.5","","2.0","","56","","","M","33","","28","","","","102.17","","","","","","NA"
"-60.14","47.23","ST PAUL ISLAND (AUT)","8204909","2018-09-30 10:00","2018","09","30","10:00","10.8","","2.7","","57","","","M","32","","26","","","","102.20","","","","","","NA"
"-60.14","47.23","ST PAUL ISLAND (AUT)","8204909","2018-09-30 11:00","2018","09","30","11:00","10.9","","2.3","","55","","","M","33","","28","","","","102.25","","","","","","NA"
"-60.14","47.23","ST PAUL ISLAND (AUT)","8204909","2018-09-30 12:00","2018","09","30","12:00","11.2","","2.8","","56","","","M","33","","28","","","","102.24","","","","","","NA"
"-60.14","47.23","ST PAUL ISLAND (AUT)","8204909","2018-09-30 13:00","2018","09","30","13:00","11.3","","3.2","","57","","","M","34","","23","","","","102.25","","","","","","NA"
"-60.14","47.23","ST PAUL ISLAND (AUT)","8204909","2018-09-30 14:00","2018","09","30","14:00","10.8","","4.0","","62","","","M","34","","23","","","","102.27","","","","","","NA"
"-60.14","47.23","ST PAUL ISLAND (AUT)","8204909","2018-09-30 15:00","2018","09","30","15:00","10.7","","3.2","","60","","","M","35","","21","","","","102.29","","","","","","NA"
"-60.14","47.23","ST PAUL ISLAND (AUT)","8204909","2018-09-30 16:00","2018","09","30","16:00","10.3","","2.5","","58","","","M","35","","19","","","","102.26","","","","","","NA"
"-60.14","47.23","ST PAUL ISLAND (AUT)","8204909","2018-09-30 17:00","2018","09","30","17:00","9.9","","2.2","","59","","","M","1","","11","","","","102.28","","","","","","NA"
"-60.14","47.23","ST PAUL ISLAND (AUT)","8204909","2018-09-30 18:00","2018","09","30","18:00","9.2","","2.1","","61","","","M","1","","9","","","","102.28","","","","","","NA"
"-60.14","47.23","ST PAUL ISLAND (AUT)","8204909","2018-09-30 19:00","2018","09","30","19:00","9.1","","2.3","","62","","","M","2","","3","","","","102.31","","","","","","NA"
"-60.14","47.23","ST PAUL ISLAND (AUT)","8204909","2018-09-30 20:00","2018","09","30","20:00","8.8","","2.4","","64","","","M","","","0","","","","102.32","","","","","","NA"
"-60.14","47.23","ST PAUL ISLAND (AUT)","8204909","2018-09-30 21:00","2018","09","30","21:00","9.0","","3.4","","68","","","M","7","","3","","","","102.24","","","","","","NA"
"-60.14","47.23","ST PAUL ISLAND (AUT)","8204909","2018-09-30 22:00","2018","09","30","22:00","9.1","","3.2","","67","","","M","","","0","","","","102.28","","","","","","NA"
"-60.14","47.23","ST PAUL ISLAND (AUT)","8204909","2018-09-30 23:00","2018","09","30","23:00","9.3","","3.8","","69","","","M","15","","16","","","","102.20","","","","","","NA"
