"Longitude (x)","Latitude (y)","Station Name","Climate ID","Date/Time (LST)","Year","Month","Day","Time (LST)","Temp (°C)","Temp Flag","Dew Point Temp (°C)","Dew Point Temp Flag","Rel Hum (%)","Rel Hum Flag","Precip. Amount (mm)","Precip. Amount Flag","Wind Dir (10s deg)","Wind Dir Flag","Wind Spd (km/h)","Wind Spd Flag","Visibility (km)","Visibility Flag","Stn Press (kPa)","Stn Press Flag","Hmdx","Hmdx Flag","Wind Chill","Wind Chill Flag","Weather"
"-55.33","47.14","WINTERLAND","8404241","2018-08-01 00:30","2018","08","01","00:30","16.6","","15.5","","93","","","","29","","20","","","M","101.13","","","","","","NA"
"-55.33","47.14","WINTERLAND","8404241","2018-08-01 01:30","2018","08","01","01:30","15.3","","15.0","","98","","","","28","","15","","","M","101.15","","","","","","NA"
"-55.33","47.14","WINTERLAND","8404241","2018-08-01 02:30","2018","08","01","02:30","15.1","","14.9","","99","","","","29","","13","","","M","101.16","","","","","","NA"
"-55.33","47.14","WINTERLAND","8404241","2018-08-01 03:30","2018","08","01","03:30","14.8","","14.6","","99","","","","30","","4","","","M","101.18","","","","","","NA"
"-55.33","47.14","WINTERLAND","8404241","2018-08-01 04:30","2018","08","01","04:30","14.2","","14.2","","100","","","","30","","9","","","M","101.21","","","","","","NA"
"-55.33","47.14","WINTERLAND","8404241","2018-08-01 05:30","2018","08","01","05:30","14.6","","14.6","","100","","","","31","","11","","","M","101.26","","","","","","NA"
"-55.33","47.14","WINTERLAND","8404241","2018-08-01 06:30","2018","08","01","06:30","16.7","","16.2","","97","","","","29","","13","","","M","101.31","","","","","","NA"
"-55.33","47.14","WINTERLAND","8404241","2018-08-01 07:30","2018","08","01","07:30","19.3","","16.9","","86","","","","29","","11","","","M","101.33","","","","","","NA"
"-55.33","47.14","WINTERLAND","8404241","2018-08-01 08:30","2018","08","01","08:30","21.7","","16.7","","73","","","","29","","13","","","M","101.37","","27","","","","NA"
"-55.33","47.14","WINTERLAND","8404241","2018-08-01 09:30","2018","08","01","09:30","23.1","","15.9","","64","","","","30","","17","","","M","101.34","","28","","","","NA"
"-55.33","47.14","WINTERLAND","8404241","2018-08-01 10:30","2018","08","01","10:30","24.3","","14.6","","55","","","","29","","19","","","M","101.32","","28","","","","NA"
"-55.33","47.14","WINTERLAND","8404241","2018-08-01 11:30","2018","08","01","11:30","24.7","","17.1","","63","","","","29","","28","","","M","101.37","","30","","","","NA"
"-55.33","47.14","WINTERLAND","8404241","2018-08-01 12:30","2018","08","01","12:30","24.7","","16.9","","62","","","","29","","31","","","M","101.39","","30","","","","NA"
"-55.33","47.14","WINTERLAND","8404241","2018-08-01 13:30","2018","08","01","13:30","26.0","","16.6","","56","","","","29","","24","","","M","101.39","","31","","","","NA"
"-55.33","47.14","WINTERLAND","8404241","2018-08-01 14:30","2018","08","01","14:30","26.3","","15.7","","52","","","","28","","31","","","M","101.37","","31","","","","NA"
"-55.33","47.14","WINTERLAND","8404241","2018-08-01 15:30","2018","08","01","15:30","26.3","","15.5","","52","","","","29","","31","","","M","101.39","","31","","","","NA"
"-55.33","47.14","WINTERLAND","8404241","2018-08-01 16:30","2018","08","01","16:30","26.0","","15.2","","51","","","","29","","31","","","M","101.38","","30","","","","NA"
"-55.33","47.14","WINTERLAND","8404241","2018-08-01 17:30","2018","08","01","17:30","25.2","","13.9","","50","","","","29","","26","","","M","101.38","","29","","","","NA"
"-55.33","47.14","WINTERLAND","8404241","2018-08-01 18:30","2018","08","01","18:30","24.1","","14.7","","56","","","","27","","15","","","M","101.40","","28","","","","NA"
"-55.33","47.14","WINTERLAND","8404241","2018-08-01 19:30","2018","08","01","19:30","20.6","","15.6","","73","","","","29","","15","","","M","101.48","","25","","","","NA"
"-55.33","47.14","WINTERLAND","8404241","2018-08-01 20:30","2018","08","01","20:30","19.0","","14.9","","77","","","","30","","13","","","M","101.51","","","","","","NA"
"-55.33","47.14","WINTERLAND","8404241","2018-08-01 21:30","2018","08","01","21:30","17.6","","15.0","","85","","","","26","","7","","","M","101.51","","","","","","NA"
"-55.33","47.14","WINTERLAND","8404241","2018-08-01 22:30","2018","08","01","22:30","18.2","","15.2","","83","","","","31","","11","","","M","101.52","","","","","","NA"
"-55.33","47.14","WINTERLAND","8404241","2018-08-01 23:30","2018","08","01","23:30","17.0","","14.9","","87","","","","27","","9","","","M","101.56","","","","","","NA"
"-55.33","47.14","WINTERLAND","8404241","2018-08-02 00:30","2018","08","02","00:30","17.2","","14.5","","84","","","","29","","7","","","M","101.56","","","","","","NA"
"-55.33","47.14","WINTERLAND","8404241","2018-08-02 01:30","2018","08","02","01:30","16.4","","14.5","","89","","","","31","","6","","","M","101.54","","","","","","NA"
"-55.33","47.14","WINTERLAND","8404241","2018-08-02 02:30","2018","08","02","02:30","17.0","","14.4","","85","","","","27","","9","","","M","101.54","","","","","","NA"
"-55.33","47.14","WINTERLAND","8404241","2018-08-02 03:30","2018","08","02","03:30","16.5","","14.4","","87","","","","","","0","","","M","101.52","","","","","","NA"
"-55.33","47.14","WINTERLAND","8404241","2018-08-02 04:30","2018","08","02","04:30","16.7","","14.8","","89","","","","25","","9","","","M","101.52","","","","","","NA"
"-55.33","47.14","WINTERLAND","8404241","2018-08-02 05:30","2018","08","02","05:30","17.8","","14.9","","83","","","","24","","15","","","M","101.54","","","","","","NA"
"-55.33","47.14","WINTERLAND","8404241","2018-08-02 06:30","2018","08","02","06:30","18.8","","15.3","","80","","","","25","","7","","","M","101.53","","","","","","NA"
"-55.33","47.14","WINTERLAND","8404241","2018-08-02 07:30","2018","08","02","07:30","22.3","","16.5","","70","","","","24","","17","","","M","101.54","","27","","","","NA"
"-55.33","47.14","WINTERLAND","8404241","2018-08-02 08:30","2018","08","02","08:30","23.3","","16.7","","66","","","","23","","20","","","M","101.52","","28","","","","NA"
"-55.33","47.14","WINTERLAND","8404241","2018-08-02 09:30","2018","08","02","09:30","23.7","","17.2","","67","","","","24","","15","","","M","101.51","","29","","","","NA"
"-55.33","47.14","WINTERLAND","8404241","2018-08-02 10:30","2018","08","02","10:30","25.3","","15.6","","55","","","","25","","24","","","M","101.50","","30","","","","NA"
"-55.33","47.14","WINTERLAND","8404241","2018-08-02 11:30","2018","08","02","11:30","26.1","","15.6","","52","","","","25","","26","","","M","101.44","","30","","","","NA"
"-55.33","47.14","WINTERLAND","8404241","2018-08-02 12:30","2018","08","02","12:30","26.3","","15.1","","50","","","","25","","28","","","M","101.38","","30","","","","NA"
"-55.33","47.14","WINTERLAND","8404241","2018-08-02 13:30","2018","08","02","13:30","25.8","","15.2","","52","","","","23","","28","","","M","101.38","","30","","","","NA"
"-55.33","47.14","WINTERLAND","8404241","2018-08-02 14:30","2018","08","02","14:30","26.0","","15.1","","51","","","","23","","30","","","M","101.31","","30","","","","NA"
"-55.33","47.14","WINTERLAND","8404241","2018-08-02 15:30","2018","08","02","15:30","24.3","","15.9","","60","","","","24","","31","","","M","101.27","","29","","","","NA"
"-55.33","47.14","WINTERLAND","8404241","2018-08-02 16:30","2018","08","02","16:30","23.1","","15.9","","64","","","","24","","37","","","M","101.25","","28","","","","NA"
"-55.33","47.14","WINTERLAND","8404241","2018-08-02 17:30","2018","08","02","17:30","21.3","","16.5","","74","","","","23","","31","","","M","101.18","","26","","","","NA"
"-55.33","47.14","WINTERLAND","8404241","2018-08-02 18:30","2018","08","02","18:30","19.6","","17.9","","90","","","","24","","30","","","M","101.14","","","","","","NA"
"-55.33","47.14","WINTERLAND","8404241","2018-08-02 19:30","2018","08","02","19:30","18.0","","17.4","","96","","","","22","","31","","","M","101.08","","","","","","NA"
"-55.33","47.14","WINTERLAND","8404241","2018-08-02 20:30","2018","08","02","20:30","17.8","","17.1","","96","","","","22","","28","","","M","101.06","","","","","","NA"
"-55.33","47.14","WINTERLAND","8404241","2018-08-02 21:30","2018","08","02","21:30","18.2","","17.1","","93","","","","23","","35","","","M","101.01","","","","","","NA"
"-55.33","47.14","WINTERLAND","8404241","2018-08-02 22:30","2018","08","02","22:30","17.5","","17.5","","100","","","","23","","28","","","M","100.96","","","","","","NA"
"-55.33","47.14","WINTERLAND","8404241","2018-08-02 23:30","2018","08","02","23:30","17.9","","17.9","","100","","","","24","","35","","","M","100.94","","","","","","NA"
"-55.33","47.14","WINTERLAND","8404241","2018-08-03 00:30","2018","08","03","00:30","18.1","","18.1","","100","","","","25","","30","","","M","100.94","","","","","","NA"
"-55.33","47.14","WINTERLAND","8404241","2018-08-03 01:30","2018","08","03","01:30","18.1","","18.1","","100","","","","25","","26","","","M","100.90","","","","","","NA"
"-55.33","47.14","WINTERLAND","8404241","2018-08-03 02:30","2018","08","03","02:30","17.9","","17.9","","100","","","","25","","19","","","M","100.92","","","","","","NA"
"-55.33","47.14","WINTERLAND","8404241","2018-08-03 03:30","2018","08","03","03:30","18.6","","18.6","","100","","","","27","","19","","","M","100.92","","","","","","NA"
"-55.33","47.14","WINTERLAND","8404241","2018-08-03 04:30","2018","08","03","04:30","18.7","","18.7","","100","","","","27","","11","","","M","100.94","","","","","","NA"
"-55.33","47.14","WINTERLAND","8404241","2018-08-03 05:30","2018","08","03","05:30","19.0","","19.0","","100","","","","27","","17","","","M","100.95","","","","","","NA"
"-55.33","47.14","WINTERLAND","8404241","2018-08-03 06:30","2018","08","03","06:30","19.4","","19.4","","100","","","","28","","17","","","M","101.00","","","","","","NA"
"-55.33","47.14","WINTERLAND","8404241","2018-08-03 07:30","2018","08","03","07:30","19.5","","19.5","","100","","","","29","","19","","","M","101.03","","","","","","NA"
"-55.33","47.14","WINTERLAND","8404241","2018-08-03 08:30","2018","08","03","08:30","20.9","","20.9","","100","","","","29","","15","","","M","101.02","","29","","","","NA"
"-55.33","47.14","WINTERLAND","8404241","2018-08-03 09:30","2018","08","03","09:30","22.5","","22.1","","98","","","","29","","7","","","M","101.02","","32","","","","NA"
"-55.33","47.14","WINTERLAND","8404241","2018-08-03 10:30","2018","08","03","10:30","19.8","","19.8","","100","","","","30","","15","","","M","101.03","","","","","","NA"
"-55.33","47.14","WINTERLAND","8404241","2018-08-03 11:30","2018","08","03","11:30","20.8","","20.3","","97","","","","30","","19","","","M","101.04","","29","","","","NA"
"-55.33","47.14","WINTERLAND","8404241","2018-08-03 12:30","2018","08","03","12:30","23.1","","21.7","","92","","","","28","","15","","","M","101.00","","32","","","","NA"
"-55.33","47.14","WINTERLAND","8404241","2018-08-03 13:30","2018","08","03","13:30","22.9","","21.2","","90","","","","29","","19","","","M","101.01","","31","","","","NA"
"-55.33","47.14","WINTERLAND","8404241","2018-08-03 14:30","2018","08","03","14:30","22.7","","21.0","","90","","","","28","","28","","","M","101.02","","31","","","","NA"
"-55.33","47.14","WINTERLAND","8404241","2018-08-03 15:30","2018","08","03","15:30","22.4","","20.6","","90","","","","28","","26","","","M","101.02","","30","","","","NA"
"-55.33","47.14","WINTERLAND","8404241","2018-08-03 16:30","2018","08","03","16:30","21.3","","19.5","","90","","","","29","","22","","","M","101.04","","28","","","","NA"
"-55.33","47.14","WINTERLAND","8404241","2018-08-03 17:30","2018","08","03","17:30","20.5","","18.4","","88","","","","31","","17","","","M","101.07","","27","","","","NA"
"-55.33","47.14","WINTERLAND","8404241","2018-08-03 18:30","2018","08","03","18:30","19.3","","17.6","","90","","","","29","","19","","","M","101.09","","","","","","NA"
"-55.33","47.14","WINTERLAND","8404241","2018-08-03 19:30","2018","08","03","19:30","17.7","","17.1","","96","","","","29","","6","","","M","101.08","","","","","","NA"
"-55.33","47.14","WINTERLAND","8404241","2018-08-03 20:30","2018","08","03","20:30","16.7","","16.6","","99","","","","7","","9","","","M","101.19","","","","","","NA"
"-55.33","47.14","WINTERLAND","8404241","2018-08-03 21:30","2018","08","03","21:30","17.0","","17.0","","100","","","","6","","9","","","M","101.23","","","","","","NA"
"-55.33","47.14","WINTERLAND","8404241","2018-08-03 22:30","2018","08","03","22:30","16.3","","16.3","","100","","","","10","","11","","","M","101.23","","","","","","NA"
"-55.33","47.14","WINTERLAND","8404241","2018-08-03 23:30","2018","08","03","23:30","16.1","","16.1","","100","","","","12","","7","","","M","101.28","","","","","","NA"
"-55.33","47.14","WINTERLAND","8404241","2018-08-04 00:30","2018","08","04","00:30","15.9","","15.9","","100","","","","9","","13","","","M","101.29","","","","","","NA"
"-55.33","47.14","WINTERLAND","8404241","2018-08-04 01:30","2018","08","04","01:30","15.3","","15.3","","100","","","","10","","15","","","M","101.35","","","","","","NA"
"-55.33","47.14","WINTERLAND","8404241","2018-08-04 02:30","2018","08","04","02:30","15.0","","15.0","","100","","","","10","","11","","","M","101.36","","","","","","NA"
"-55.33","47.14","WINTERLAND","8404241","2018-08-04 03:30","2018","08","04","03:30","14.9","","14.9","","100","","","","10","","11","","","M","101.41","","","","","","NA"
"-55.33","47.14","WINTERLAND","8404241","2018-08-04 04:30","2018","08","04","04:30","14.5","","14.5","","100","","","","9","","11","","","M","101.46","","","","","","NA"
"-55.33","47.14","WINTERLAND","8404241","2018-08-04 05:30","2018","08","04","05:30","14.6","","14.6","","100","","","","12","","9","","","M","101.51","","","","","","NA"
"-55.33","47.14","WINTERLAND","8404241","2018-08-04 06:30","2018","08","04","06:30","14.4","","14.4","","100","","","","11","","9","","","M","101.56","","","","","","NA"
"-55.33","47.14","WINTERLAND","8404241","2018-08-04 07:30","2018","08","04","07:30","15.5","","15.2","","98","","","","12","","13","","","M","101.59","","","","","","NA"
"-55.33","47.14","WINTERLAND","8404241","2018-08-04 08:30","2018","08","04","08:30","16.2","","15.4","","95","","","","14","","13","","","M","101.61","","","","","","NA"
"-55.33","47.14","WINTERLAND","8404241","2018-08-04 09:30","2018","08","04","09:30","17.8","","16.3","","91","","","","12","","11","","","M","101.64","","","","","","NA"
"-55.33","47.14","WINTERLAND","8404241","2018-08-04 10:30","2018","08","04","10:30","18.1","","16.2","","89","","","","13","","11","","","M","101.67","","","","","","NA"
"-55.33","47.14","WINTERLAND","8404241","2018-08-04 11:30","2018","08","04","11:30","18.8","","16.4","","86","","","","13","","13","","","M","101.68","","","","","","NA"
"-55.33","47.14","WINTERLAND","8404241","2018-08-04 12:30","2018","08","04","12:30","18.8","","16.3","","85","","","","12","","11","","","M","101.68","","","","","","NA"
"-55.33","47.14","WINTERLAND","8404241","2018-08-04 13:30","2018","08","04","13:30","19.0","","16.7","","87","","","","14","","15","","","M","101.67","","","","","","NA"
"-55.33","47.14","WINTERLAND","8404241","2018-08-04 14:30","2018","08","04","14:30","19.8","","17.6","","87","","","","14","","4","","","M","101.69","","","","","","NA"
"-55.33","47.14","WINTERLAND","8404241","2018-08-04 15:30","2018","08","04","15:30","19.6","","17.2","","86","","","","17","","9","","","M","101.71","","","","","","NA"
"-55.33","47.14","WINTERLAND","8404241","2018-08-04 16:30","2018","08","04","16:30","17.4","","15.7","","90","","","","15","","13","","","M","101.73","","","","","","NA"
"-55.33","47.14","WINTERLAND","8404241","2018-08-04 17:30","2018","08","04","17:30","16.5","","15.2","","92","","","","16","","11","","","M","101.73","","","","","","NA"
"-55.33","47.14","WINTERLAND","8404241","2018-08-04 18:30","2018","08","04","18:30","16.2","","15.2","","94","","","","15","","11","","","M","101.72","","","","","","NA"
"-55.33","47.14","WINTERLAND","8404241","2018-08-04 19:30","2018","08","04","19:30","14.8","","14.3","","97","","","","16","","13","","","M","101.79","","","","","","NA"
"-55.33","47.14","WINTERLAND","8404241","2018-08-04 20:30","2018","08","04","20:30","13.9","","13.6","","98","","","","16","","11","","","M","101.80","","","","","","NA"
"-55.33","47.14","WINTERLAND","8404241","2018-08-04 21:30","2018","08","04","21:30","13.7","","13.6","","99","","","","14","","11","","","M","101.82","","","","","","NA"
"-55.33","47.14","WINTERLAND","8404241","2018-08-04 22:30","2018","08","04","22:30","13.5","","13.5","","100","","","","14","","11","","","M","101.81","","","","","","NA"
"-55.33","47.14","WINTERLAND","8404241","2018-08-04 23:30","2018","08","04","23:30","13.5","","13.5","","100","","","","15","","11","","","M","101.78","","","","","","NA"
"-55.33","47.14","WINTERLAND","8404241","2018-08-05 00:30","2018","08","05","00:30","13.6","","13.6","","100","","","","15","","9","","","M","101.76","","","","","","NA"
"-55.33","47.14","WINTERLAND","8404241","2018-08-05 01:30","2018","08","05","01:30","13.5","","13.5","","100","","","","16","","9","","","M","101.77","","","","","","NA"
"-55.33","47.14","WINTERLAND","8404241","2018-08-05 02:30","2018","08","05","02:30","13.5","","13.5","","100","","","","15","","15","","","M","101.75","","","","","","NA"
"-55.33","47.14","WINTERLAND","8404241","2018-08-05 03:30","2018","08","05","03:30","13.3","","13.3","","100","","","","13","","13","","","M","101.70","","","","","","NA"
"-55.33","47.14","WINTERLAND","8404241","2018-08-05 04:30","2018","08","05","04:30","13.1","","13.1","","100","","","","12","","15","","","M","101.70","","","","","","NA"
"-55.33","47.14","WINTERLAND","8404241","2018-08-05 05:30","2018","08","05","05:30","13.0","","13.0","","100","","","","14","","15","","","M","101.74","","","","","","NA"
"-55.33","47.14","WINTERLAND","8404241","2018-08-05 06:30","2018","08","05","06:30","13.2","","13.2","","100","","","","14","","17","","","M","101.73","","","","","","NA"
"-55.33","47.14","WINTERLAND","8404241","2018-08-05 07:30","2018","08","05","07:30","13.5","","13.5","","100","","","","14","","17","","","M","101.71","","","","","","NA"
"-55.33","47.14","WINTERLAND","8404241","2018-08-05 08:30","2018","08","05","08:30","13.8","","13.8","","100","","","","15","","17","","","M","101.70","","","","","","NA"
"-55.33","47.14","WINTERLAND","8404241","2018-08-05 09:30","2018","08","05","09:30","14.4","","14.4","","100","","","","14","","20","","","M","101.73","","","","","","NA"
"-55.33","47.14","WINTERLAND","8404241","2018-08-05 10:30","2018","08","05","10:30","15.3","","15.3","","100","","","","16","","17","","","M","101.74","","","","","","NA"
"-55.33","47.14","WINTERLAND","8404241","2018-08-05 11:30","2018","08","05","11:30","15.0","","15.0","","100","","","","13","","17","","","M","101.73","","","","","","NA"
"-55.33","47.14","WINTERLAND","8404241","2018-08-05 12:30","2018","08","05","12:30","14.9","","14.9","","100","","","","14","","15","","","M","101.68","","","","","","NA"
"-55.33","47.14","WINTERLAND","8404241","2018-08-05 13:30","2018","08","05","13:30","14.8","","14.8","","100","","","","14","","19","","","M","101.65","","","","","","NA"
"-55.33","47.14","WINTERLAND","8404241","2018-08-05 14:30","2018","08","05","14:30","14.9","","14.9","","100","","","","13","","13","","","M","101.59","","","","","","NA"
"-55.33","47.14","WINTERLAND","8404241","2018-08-05 15:30","2018","08","05","15:30","15.4","","15.4","","100","","","","15","","20","","","M","101.53","","","","","","NA"
"-55.33","47.14","WINTERLAND","8404241","2018-08-05 16:30","2018","08","05","16:30","15.4","","15.4","","100","","","","15","","19","","","M","101.50","","","","","","NA"
"-55.33","47.14","WINTERLAND","8404241","2018-08-05 17:30","2018","08","05","17:30","15.3","","15.3","","100","","","","16","","26","","","M","101.46","","","","","","NA"
"-55.33","47.14","WINTERLAND","8404241","2018-08-05 18:30","2018","08","05","18:30","15.1","","15.1","","100","","","","16","","20","","","M","101.48","","","","","","NA"
"-55.33","47.14","WINTERLAND","8404241","2018-08-05 19:30","2018","08","05","19:30","14.8","","14.8","","100","","","","15","","22","","","M","101.48","","","","","","NA"
"-55.33","47.14","WINTERLAND","8404241","2018-08-05 20:30","2018","08","05","20:30","14.6","","14.6","","100","","","","15","","22","","","M","101.48","","","","","","NA"
"-55.33","47.14","WINTERLAND","8404241","2018-08-05 21:30","2018","08","05","21:30","14.9","","14.9","","100","","","","15","","15","","","M","101.48","","","","","","NA"
"-55.33","47.14","WINTERLAND","8404241","2018-08-05 22:30","2018","08","05","22:30","15.1","","15.1","","100","","","","15","","13","","","M","101.45","","","","","","NA"
"-55.33","47.14","WINTERLAND","8404241","2018-08-05 23:30","2018","08","05","23:30","15.3","","15.3","","100","","","","16","","24","","","M","101.43","","","","","","NA"
"-55.33","47.14","WINTERLAND","8404241","2018-08-06 00:30","2018","08","06","00:30","14.9","","14.9","","100","","","","14","","19","","","M","101.43","","","","","","NA"
"-55.33","47.14","WINTERLAND","8404241","2018-08-06 01:30","2018","08","06","01:30","14.6","","14.6","","100","","","","13","","19","","","M","101.38","","","","","","NA"
"-55.33","47.14","WINTERLAND","8404241","2018-08-06 02:30","2018","08","06","02:30","14.7","","14.7","","100","","","","12","","17","","","M","101.35","","","","","","NA"
"-55.33","47.14","WINTERLAND","8404241","2018-08-06 03:30","2018","08","06","03:30","14.6","","14.6","","100","","","","13","","17","","","M","101.35","","","","","","NA"
"-55.33","47.14","WINTERLAND","8404241","2018-08-06 04:30","2018","08","06","04:30","14.4","","14.4","","100","","","","13","","15","","","M","101.35","","","","","","NA"
"-55.33","47.14","WINTERLAND","8404241","2018-08-06 05:30","2018","08","06","05:30","14.3","","14.3","","100","","","","15","","22","","","M","101.36","","","","","","NA"
"-55.33","47.14","WINTERLAND","8404241","2018-08-06 06:30","2018","08","06","06:30","14.7","","14.7","","100","","","","13","","13","","","M","101.37","","","","","","NA"
"-55.33","47.14","WINTERLAND","8404241","2018-08-06 07:30","2018","08","06","07:30","14.5","","14.5","","100","","","","13","","17","","","M","101.35","","","","","","NA"
"-55.33","47.14","WINTERLAND","8404241","2018-08-06 08:30","2018","08","06","08:30","14.3","","14.3","","100","","","","13","","17","","","M","101.38","","","","","","NA"
"-55.33","47.14","WINTERLAND","8404241","2018-08-06 09:30","2018","08","06","09:30","14.9","","14.9","","100","","","","14","","19","","","M","101.36","","","","","","NA"
"-55.33","47.14","WINTERLAND","8404241","2018-08-06 10:30","2018","08","06","10:30","15.0","","15.0","","100","","","","13","","17","","","M","101.36","","","","","","NA"
"-55.33","47.14","WINTERLAND","8404241","2018-08-06 11:30","2018","08","06","11:30","14.8","","14.8","","100","","","","14","","24","","","M","101.34","","","","","","NA"
"-55.33","47.14","WINTERLAND","8404241","2018-08-06 12:30","2018","08","06","12:30","15.1","","15.1","","100","","","","13","","20","","","M","101.33","","","","","","NA"
"-55.33","47.14","WINTERLAND","8404241","2018-08-06 13:30","2018","08","06","13:30","14.9","","14.9","","100","","","","13","","13","","","M","101.28","","","","","","NA"
"-55.33","47.14","WINTERLAND","8404241","2018-08-06 14:30","2018","08","06","14:30","14.7","","14.7","","100","","","","12","","15","","","M","101.29","","","","","","NA"
"-55.33","47.14","WINTERLAND","8404241","2018-08-06 15:30","2018","08","06","15:30","14.4","","14.4","","100","","","","12","","17","","","M","101.26","","","","","","NA"
"-55.33","47.14","WINTERLAND","8404241","2018-08-06 16:30","2018","08","06","16:30","14.5","","14.5","","100","","","","14","","22","","","M","101.25","","","","","","NA"
"-55.33","47.14","WINTERLAND","8404241","2018-08-06 17:30","2018","08","06","17:30","14.4","","14.4","","100","","","","12","","17","","","M","101.22","","","","","","NA"
"-55.33","47.14","WINTERLAND","8404241","2018-08-06 18:30","2018","08","06","18:30","14.2","","14.2","","100","","","","10","","15","","","M","101.23","","","","","","NA"
"-55.33","47.14","WINTERLAND","8404241","2018-08-06 19:30","2018","08","06","19:30","14.1","","14.1","","100","","","","12","","15","","","M","101.23","","","","","","NA"
"-55.33","47.14","WINTERLAND","8404241","2018-08-06 20:30","2018","08","06","20:30","14.1","","14.1","","100","","","","12","","15","","","M","101.23","","","","","","NA"
"-55.33","47.14","WINTERLAND","8404241","2018-08-06 21:30","2018","08","06","21:30","14.2","","14.2","","100","","","","11","","17","","","M","101.23","","","","","","NA"
"-55.33","47.14","WINTERLAND","8404241","2018-08-06 22:30","2018","08","06","22:30","14.2","","14.2","","100","","","","12","","17","","","M","101.22","","","","","","NA"
"-55.33","47.14","WINTERLAND","8404241","2018-08-06 23:30","2018","08","06","23:30","14.2","","14.2","","100","","","","12","","11","","","M","101.20","","","","","","NA"
"-55.33","47.14","WINTERLAND","8404241","2018-08-07 00:30","2018","08","07","00:30","14.5","","14.5","","100","","","","14","","15","","","M","101.19","","","","","","NA"
"-55.33","47.14","WINTERLAND","8404241","2018-08-07 01:30","2018","08","07","01:30","14.2","","14.2","","100","","","","13","","15","","","M","101.14","","","","","","NA"
"-55.33","47.14","WINTERLAND","8404241","2018-08-07 02:30","2018","08","07","02:30","14.4","","14.4","","100","","","","13","","17","","","M","101.09","","","","","","NA"
"-55.33","47.14","WINTERLAND","8404241","2018-08-07 03:30","2018","08","07","03:30","14.2","","14.2","","100","","","","12","","11","","","M","101.08","","","","","","NA"
"-55.33","47.14","WINTERLAND","8404241","2018-08-07 04:30","2018","08","07","04:30","14.5","","14.5","","100","","","","12","","13","","","M","101.09","","","","","","NA"
"-55.33","47.14","WINTERLAND","8404241","2018-08-07 05:30","2018","08","07","05:30","14.3","","14.3","","100","","","","12","","13","","","M","101.06","","","","","","NA"
"-55.33","47.14","WINTERLAND","8404241","2018-08-07 06:30","2018","08","07","06:30","14.9","","14.9","","100","","","","14","","15","","","M","101.07","","","","","","NA"
"-55.33","47.14","WINTERLAND","8404241","2018-08-07 07:30","2018","08","07","07:30","15.7","","15.7","","100","","","","13","","11","","","M","101.10","","","","","","NA"
"-55.33","47.14","WINTERLAND","8404241","2018-08-07 08:30","2018","08","07","08:30","16.0","","16.0","","100","","","","11","","9","","","M","101.11","","","","","","NA"
"-55.33","47.14","WINTERLAND","8404241","2018-08-07 09:30","2018","08","07","09:30","16.5","","16.5","","100","","","","10","","11","","","M","101.10","","","","","","NA"
"-55.33","47.14","WINTERLAND","8404241","2018-08-07 10:30","2018","08","07","10:30","17.8","","17.8","","100","","","","14","","15","","","M","101.10","","","","","","NA"
"-55.33","47.14","WINTERLAND","8404241","2018-08-07 11:30","2018","08","07","11:30","18.8","","18.8","","100","","","","12","","7","","","M","101.08","","","","","","NA"
"-55.33","47.14","WINTERLAND","8404241","2018-08-07 12:30","2018","08","07","12:30","18.9","","18.8","","99","","","","16","","17","","","M","101.07","","","","","","NA"
"-55.33","47.14","WINTERLAND","8404241","2018-08-07 13:30","2018","08","07","13:30","20.4","","19.9","","97","","","","14","","11","","","M","101.05","","28","","","","NA"
"-55.33","47.14","WINTERLAND","8404241","2018-08-07 14:30","2018","08","07","14:30","19.5","","19.5","","100","","","","18","","15","","","M","101.04","","","","","","NA"
"-55.33","47.14","WINTERLAND","8404241","2018-08-07 15:30","2018","08","07","15:30","20.2","","19.9","","98","","","","17","","11","","","M","101.01","","28","","","","NA"
"-55.33","47.14","WINTERLAND","8404241","2018-08-07 16:30","2018","08","07","16:30","19.4","","19.4","","100","","","","17","","15","","","M","100.99","","","","","","NA"
"-55.33","47.14","WINTERLAND","8404241","2018-08-07 17:30","2018","08","07","17:30","18.5","","18.5","","100","","","","11","","7","","","M","100.97","","","","","","NA"
"-55.33","47.14","WINTERLAND","8404241","2018-08-07 18:30","2018","08","07","18:30","18.1","","18.1","","100","","","","13","","7","","","M","100.95","","","","","","NA"
"-55.33","47.14","WINTERLAND","8404241","2018-08-07 19:30","2018","08","07","19:30","16.9","","16.9","","100","","","","10","","7","","","M","100.96","","","","","","NA"
"-55.33","47.14","WINTERLAND","8404241","2018-08-07 20:30","2018","08","07","20:30","16.9","","16.9","","100","","","","13","","7","","","M","100.99","","","","","","NA"
"-55.33","47.14","WINTERLAND","8404241","2018-08-07 21:30","2018","08","07","21:30","16.6","","16.6","","100","","","","12","","7","","","M","101.00","","","","","","NA"
"-55.33","47.14","WINTERLAND","8404241","2018-08-07 22:30","2018","08","07","22:30","16.3","","16.3","","100","","","","12","","11","","","M","100.97","","","","","","NA"
"-55.33","47.14","WINTERLAND","8404241","2018-08-07 23:30","2018","08","07","23:30","16.7","","16.7","","100","","","","15","","15","","","M","100.91","","","","","","NA"
"-55.33","47.14","WINTERLAND","8404241","2018-08-08 00:30","2018","08","08","00:30","16.0","","16.0","","100","","","","13","","4","","","M","100.90","","","","","","NA"
"-55.33","47.14","WINTERLAND","8404241","2018-08-08 01:30","2018","08","08","01:30","16.0","","16.0","","100","","","","10","","11","","","M","100.84","","","","","","NA"
"-55.33","47.14","WINTERLAND","8404241","2018-08-08 02:30","2018","08","08","02:30","16.1","","16.1","","100","","","","13","","9","","","M","100.80","","","","","","NA"
"-55.33","47.14","WINTERLAND","8404241","2018-08-08 03:30","2018","08","08","03:30","16.2","","16.2","","100","","","","14","","9","","","M","100.77","","","","","","NA"
"-55.33","47.14","WINTERLAND","8404241","2018-08-08 04:30","2018","08","08","04:30","16.0","","16.0","","100","","","","15","","7","","","M","100.75","","","","","","NA"
"-55.33","47.14","WINTERLAND","8404241","2018-08-08 05:30","2018","08","08","05:30","16.5","","16.5","","100","","","","13","","6","","","M","100.73","","","","","","NA"
"-55.33","47.14","WINTERLAND","8404241","2018-08-08 06:30","2018","08","08","06:30","17.2","","17.2","","100","","","","13","","9","","","M","100.68","","","","","","NA"
"-55.33","47.14","WINTERLAND","8404241","2018-08-08 07:30","2018","08","08","07:30","18.1","","18.1","","100","","","","18","","6","","","M","100.70","","","","","","NA"
"-55.33","47.14","WINTERLAND","8404241","2018-08-08 08:30","2018","08","08","08:30","18.7","","18.7","","100","","","","21","","6","","","M","100.69","","","","","","NA"
"-55.33","47.14","WINTERLAND","8404241","2018-08-08 09:30","2018","08","08","09:30","20.9","","20.1","","95","","","","21","","17","","","M","100.61","","29","","","","NA"
"-55.33","47.14","WINTERLAND","8404241","2018-08-08 10:30","2018","08","08","10:30","19.3","","19.0","","98","","","","26","","15","","","M","100.74","","","","","","NA"
"-55.33","47.14","WINTERLAND","8404241","2018-08-08 11:30","2018","08","08","11:30","21.5","","20.6","","95","","","","16","","15","","","M","100.53","","30","","","","NA"
"-55.33","47.14","WINTERLAND","8404241","2018-08-08 12:30","2018","08","08","12:30","21.4","","20.2","","93","","","","19","","19","","","M","100.45","","29","","","","NA"
"-55.33","47.14","WINTERLAND","8404241","2018-08-08 13:30","2018","08","08","13:30","21.0","","20.0","","94","","","","24","","17","","","M","100.42","","29","","","","NA"
"-55.33","47.14","WINTERLAND","8404241","2018-08-08 14:30","2018","08","08","14:30","20.5","","19.7","","95","","","","23","","17","","","M","100.39","","28","","","","NA"
"-55.33","47.14","WINTERLAND","8404241","2018-08-08 15:30","2018","08","08","15:30","20.9","","20.0","","95","","","","27","","20","","","M","100.36","","28","","","","NA"
"-55.33","47.14","WINTERLAND","8404241","2018-08-08 16:30","2018","08","08","16:30","21.2","","20.3","","95","","","","30","","9","","","M","100.36","","29","","","","NA"
"-55.33","47.14","WINTERLAND","8404241","2018-08-08 17:30","2018","08","08","17:30","19.4","","19.0","","98","","","","29","","30","","","M","100.35","","","","","","NA"
"-55.33","47.14","WINTERLAND","8404241","2018-08-08 18:30","2018","08","08","18:30","18.8","","17.6","","93","","","","28","","24","","","M","100.35","","","","","","NA"
"-55.33","47.14","WINTERLAND","8404241","2018-08-08 19:30","2018","08","08","19:30","17.5","","17.0","","97","","","","29","","26","","","M","100.38","","","","","","NA"
"-55.33","47.14","WINTERLAND","8404241","2018-08-08 20:30","2018","08","08","20:30","16.7","","16.4","","98","","","","28","","13","","","M","100.41","","","","","","NA"
"-55.33","47.14","WINTERLAND","8404241","2018-08-08 21:30","2018","08","08","21:30","17.0","","16.7","","98","","","","29","","20","","","M","100.47","","","","","","NA"
"-55.33","47.14","WINTERLAND","8404241","2018-08-08 22:30","2018","08","08","22:30","16.7","","16.6","","99","","","","27","","17","","","M","100.47","","","","","","NA"
"-55.33","47.14","WINTERLAND","8404241","2018-08-08 23:30","2018","08","08","23:30","16.0","","15.9","","99","","","","29","","15","","","M","100.51","","","","","","NA"
"-55.33","47.14","WINTERLAND","8404241","2018-08-09 00:30","2018","08","09","00:30","15.4","","15.4","","100","","","","30","","13","","","M","100.53","","","","","","NA"
"-55.33","47.14","WINTERLAND","8404241","2018-08-09 01:30","2018","08","09","01:30","14.6","","14.6","","100","","","","30","","7","","","M","100.55","","","","","","NA"
"-55.33","47.14","WINTERLAND","8404241","2018-08-09 02:30","2018","08","09","02:30","13.8","","13.8","","100","","","","28","","9","","","M","100.57","","","","","","NA"
"-55.33","47.14","WINTERLAND","8404241","2018-08-09 03:30","2018","08","09","03:30","15.2","","15.2","","100","","","","33","","9","","","M","100.62","","","","","","NA"
"-55.33","47.14","WINTERLAND","8404241","2018-08-09 04:30","2018","08","09","04:30","14.4","","14.4","","100","","","","","","0","","","M","100.65","","","","","","NA"
"-55.33","47.14","WINTERLAND","8404241","2018-08-09 05:30","2018","08","09","05:30","15.9","","15.9","","100","","","","36","","9","","","M","100.71","","","","","","NA"
"-55.33","47.14","WINTERLAND","8404241","2018-08-09 06:30","2018","08","09","06:30","16.1","","16.1","","100","","","","8","","6","","","M","100.76","","","","","","NA"
"-55.33","47.14","WINTERLAND","8404241","2018-08-09 07:30","2018","08","09","07:30","16.4","","15.8","","96","","","","8","","7","","","M","100.83","","","","","","NA"
"-55.33","47.14","WINTERLAND","8404241","2018-08-09 08:30","2018","08","09","08:30","17.6","","15.4","","87","","","","11","","11","","","M","100.83","","","","","","NA"
"-55.33","47.14","WINTERLAND","8404241","2018-08-09 09:30","2018","08","09","09:30","17.5","","15.1","","86","","","","11","","9","","","M","100.86","","","","","","NA"
"-55.33","47.14","WINTERLAND","8404241","2018-08-09 10:30","2018","08","09","10:30","18.7","","15.6","","82","","","","16","","13","","","M","100.89","","","","","","NA"
"-55.33","47.14","WINTERLAND","8404241","2018-08-09 11:30","2018","08","09","11:30","19.6","","15.9","","79","","","","15","","15","","","M","100.87","","","","","","NA"
"-55.33","47.14","WINTERLAND","8404241","2018-08-09 12:30","2018","08","09","12:30","19.3","","15.2","","77","","","","12","","15","","","M","100.85","","","","","","NA"
"-55.33","47.14","WINTERLAND","8404241","2018-08-09 13:30","2018","08","09","13:30","19.5","","15.1","","76","","","","13","","17","","","M","100.82","","","","","","NA"
"-55.33","47.14","WINTERLAND","8404241","2018-08-09 14:30","2018","08","09","14:30","20.1","","15.3","","74","","","","13","","17","","","M","100.79","","","","","","NA"
"-55.33","47.14","WINTERLAND","8404241","2018-08-09 15:30","2018","08","09","15:30","18.1","","15.5","","85","","","","16","","20","","","M","100.80","","","","","","NA"
"-55.33","47.14","WINTERLAND","8404241","2018-08-09 16:30","2018","08","09","16:30","16.8","","15.3","","91","","","","16","","13","","","M","100.80","","","","","","NA"
"-55.33","47.14","WINTERLAND","8404241","2018-08-09 17:30","2018","08","09","17:30","15.6","","15.2","","98","","","","16","","17","","","M","100.80","","","","","","NA"
"-55.33","47.14","WINTERLAND","8404241","2018-08-09 18:30","2018","08","09","18:30","15.3","","15.2","","99","","","","15","","15","","","M","100.80","","","","","","NA"
"-55.33","47.14","WINTERLAND","8404241","2018-08-09 19:30","2018","08","09","19:30","15.1","","15.1","","100","","","","15","","9","","","M","100.79","","","","","","NA"
"-55.33","47.14","WINTERLAND","8404241","2018-08-09 20:30","2018","08","09","20:30","14.9","","14.9","","100","","","","13","","19","","","M","100.81","","","","","","NA"
"-55.33","47.14","WINTERLAND","8404241","2018-08-09 21:30","2018","08","09","21:30","15.3","","15.3","","100","","","","15","","13","","","M","100.78","","","","","","NA"
"-55.33","47.14","WINTERLAND","8404241","2018-08-09 22:30","2018","08","09","22:30","15.6","","15.6","","100","","","","16","","20","","","M","100.71","","","","","","NA"
"-55.33","47.14","WINTERLAND","8404241","2018-08-09 23:30","2018","08","09","23:30","16.2","","16.2","","100","","","","16","","22","","","M","100.65","","","","","","NA"
"-55.33","47.14","WINTERLAND","8404241","2018-08-10 00:30","2018","08","10","00:30","17.1","","17.1","","100","","","","14","","11","","","M","100.57","","","","","","NA"
"-55.33","47.14","WINTERLAND","8404241","2018-08-10 01:30","2018","08","10","01:30","17.4","","17.4","","100","","","","14","","15","","","M","100.50","","","","","","NA"
"-55.33","47.14","WINTERLAND","8404241","2018-08-10 02:30","2018","08","10","02:30","17.8","","17.8","","100","","","","15","","11","","","M","100.46","","","","","","NA"
"-55.33","47.14","WINTERLAND","8404241","2018-08-10 03:30","2018","08","10","03:30","18.9","","18.9","","100","","","","20","","13","","","M","100.38","","","","","","NA"
"-55.33","47.14","WINTERLAND","8404241","2018-08-10 04:30","2018","08","10","04:30","19.4","","19.4","","100","","","","22","","15","","","M","100.36","","","","","","NA"
"-55.33","47.14","WINTERLAND","8404241","2018-08-10 05:30","2018","08","10","05:30","19.8","","19.8","","100","","","","23","","30","","","M","100.34","","","","","","NA"
"-55.33","47.14","WINTERLAND","8404241","2018-08-10 06:30","2018","08","10","06:30","20.4","","20.4","","100","","","","22","","31","","","M","100.33","","28","","","","NA"
"-55.33","47.14","WINTERLAND","8404241","2018-08-10 07:30","2018","08","10","07:30","20.6","","20.6","","100","","","","21","","31","","","M","100.30","","29","","","","NA"
"-55.33","47.14","WINTERLAND","8404241","2018-08-10 08:30","2018","08","10","08:30","21.2","","21.2","","100","","","","22","","26","","","M","100.28","","30","","","","NA"
"-55.33","47.14","WINTERLAND","8404241","2018-08-10 09:30","2018","08","10","09:30","21.2","","21.0","","99","","","","21","","30","","","M","100.26","","30","","","","NA"
"-55.33","47.14","WINTERLAND","8404241","2018-08-10 10:30","2018","08","10","10:30","20.8","","20.7","","99","","","","22","","35","","","M","100.26","","29","","","","NA"
"-55.33","47.14","WINTERLAND","8404241","2018-08-10 11:30","2018","08","10","11:30","21.7","","21.4","","98","","","","21","","31","","","M","100.19","","30","","","","NA"
"-55.33","47.14","WINTERLAND","8404241","2018-08-10 12:30","2018","08","10","12:30","21.1","","20.7","","98","","","","22","","43","","","M","100.14","","29","","","","NA"
"-55.33","47.14","WINTERLAND","8404241","2018-08-10 13:30","2018","08","10","13:30","21.0","","20.3","","96","","","","23","","30","","","M","100.21","","29","","","","NA"
"-55.33","47.14","WINTERLAND","8404241","2018-08-10 14:30","2018","08","10","14:30","20.4","","19.5","","95","","","","23","","30","","","M","100.22","","28","","","","NA"
"-55.33","47.14","WINTERLAND","8404241","2018-08-10 15:30","2018","08","10","15:30","20.0","","19.9","","99","","","","23","","22","","","M","100.22","","27","","","","NA"
"-55.33","47.14","WINTERLAND","8404241","2018-08-10 16:30","2018","08","10","16:30","20.6","","20.2","","98","","","","23","","26","","","M","100.21","","28","","","","NA"
"-55.33","47.14","WINTERLAND","8404241","2018-08-10 17:30","2018","08","10","17:30","19.7","","19.6","","99","","","","23","","22","","","M","100.25","","","","","","NA"
"-55.33","47.14","WINTERLAND","8404241","2018-08-10 18:30","2018","08","10","18:30","19.2","","19.2","","100","","","","23","","24","","","M","100.28","","","","","","NA"
"-55.33","47.14","WINTERLAND","8404241","2018-08-10 19:30","2018","08","10","19:30","19.1","","19.1","","100","","","","23","","24","","","M","100.30","","","","","","NA"
"-55.33","47.14","WINTERLAND","8404241","2018-08-10 20:30","2018","08","10","20:30","18.9","","18.9","","100","","","","23","","15","","","M","100.33","","","","","","NA"
"-55.33","47.14","WINTERLAND","8404241","2018-08-10 21:30","2018","08","10","21:30","18.9","","18.9","","100","","","","24","","17","","","M","100.41","","","","","","NA"
"-55.33","47.14","WINTERLAND","8404241","2018-08-10 22:30","2018","08","10","22:30","18.7","","18.7","","100","","","","24","","15","","","M","100.44","","","","","","NA"
"-55.33","47.14","WINTERLAND","8404241","2018-08-10 23:30","2018","08","10","23:30","18.6","","18.6","","100","","","","25","","13","","","M","100.45","","","","","","NA"
"-55.33","47.14","WINTERLAND","8404241","2018-08-11 00:30","2018","08","11","00:30","18.4","","18.4","","100","","","","21","","9","","","M","100.42","","","","","","NA"
"-55.33","47.14","WINTERLAND","8404241","2018-08-11 01:30","2018","08","11","01:30","18.7","","18.7","","100","","","","25","","15","","","M","100.40","","","","","","NA"
"-55.33","47.14","WINTERLAND","8404241","2018-08-11 02:30","2018","08","11","02:30","18.7","","18.7","","100","","","","23","","9","","","M","100.46","","","","","","NA"
"-55.33","47.14","WINTERLAND","8404241","2018-08-11 03:30","2018","08","11","03:30","18.1","","18.1","","100","","","","24","","7","","","M","100.44","","","","","","NA"
"-55.33","47.14","WINTERLAND","8404241","2018-08-11 04:30","2018","08","11","04:30","18.0","","18.0","","100","","","","25","","11","","","M","100.48","","","","","","NA"
"-55.33","47.14","WINTERLAND","8404241","2018-08-11 05:30","2018","08","11","05:30","18.2","","18.1","","99","","","","24","","7","","","M","100.49","","","","","","NA"
"-55.33","47.14","WINTERLAND","8404241","2018-08-11 06:30","2018","08","11","06:30","18.4","","18.4","","100","","","","25","","9","","","M","100.52","","","","","","NA"
"-55.33","47.14","WINTERLAND","8404241","2018-08-11 07:30","2018","08","11","07:30","19.3","","17.3","","88","","","","28","","20","","","M","100.58","","","","","","NA"
"-55.33","47.14","WINTERLAND","8404241","2018-08-11 08:30","2018","08","11","08:30","20.2","","14.1","","68","","","","29","","24","","","M","100.66","","","","","","NA"
"-55.33","47.14","WINTERLAND","8404241","2018-08-11 09:30","2018","08","11","09:30","21.0","","14.4","","66","","","","28","","30","","","M","100.74","","25","","","","NA"
"-55.33","47.14","WINTERLAND","8404241","2018-08-11 10:30","2018","08","11","10:30","21.2","","14.1","","64","","","","28","","31","","","M","100.81","","25","","","","NA"
"-55.33","47.14","WINTERLAND","8404241","2018-08-11 11:30","2018","08","11","11:30","22.1","","14.4","","62","","","","28","","22","","","M","100.84","","26","","","","NA"
"-55.33","47.14","WINTERLAND","8404241","2018-08-11 12:30","2018","08","11","12:30","22.9","","13.3","","55","","","","29","","28","","","M","100.85","","26","","","","NA"
"-55.33","47.14","WINTERLAND","8404241","2018-08-11 13:30","2018","08","11","13:30","23.3","","12.6","","51","","","","29","","31","","","M","100.88","","26","","","","NA"
"-55.33","47.14","WINTERLAND","8404241","2018-08-11 14:30","2018","08","11","14:30","23.0","","13.7","","56","","","","29","","39","","","M","100.87","","26","","","","NA"
"-55.33","47.14","WINTERLAND","8404241","2018-08-11 15:30","2018","08","11","15:30","22.3","","14.9","","63","","","","29","","31","","","M","100.91","","26","","","","NA"
"-55.33","47.14","WINTERLAND","8404241","2018-08-11 16:30","2018","08","11","16:30","21.3","","14.6","","66","","","","29","","37","","","M","100.96","","25","","","","NA"
"-55.33","47.14","WINTERLAND","8404241","2018-08-11 17:30","2018","08","11","17:30","20.7","","15.1","","70","","","","28","","28","","","M","100.99","","25","","","","NA"
"-55.33","47.14","WINTERLAND","8404241","2018-08-11 18:30","2018","08","11","18:30","19.7","","12.7","","64","","","","27","","24","","","M","101.05","","","","","","NA"
"-55.33","47.14","WINTERLAND","8404241","2018-08-11 19:30","2018","08","11","19:30","17.4","","13.1","","76","","","","25","","15","","","M","101.09","","","","","","NA"
"-55.33","47.14","WINTERLAND","8404241","2018-08-11 20:30","2018","08","11","20:30","16.7","","13.2","","80","","","","25","","19","","","M","101.16","","","","","","NA"
"-55.33","47.14","WINTERLAND","8404241","2018-08-11 21:30","2018","08","11","21:30","15.9","","12.9","","82","","","","27","","15","","","M","101.15","","","","","","NA"
"-55.33","47.14","WINTERLAND","8404241","2018-08-11 22:30","2018","08","11","22:30","15.3","","12.6","","84","","","","27","","9","","","M","101.18","","","","","","NA"
"-55.33","47.14","WINTERLAND","8404241","2018-08-11 23:30","2018","08","11","23:30","14.7","","12.6","","87","","","","26","","20","","","M","101.15","","","","","","NA"
"-55.33","47.14","WINTERLAND","8404241","2018-08-12 00:30","2018","08","12","00:30","12.8","","12.0","","95","","","","27","","17","","","M","101.16","","","","","","NA"
"-55.33","47.14","WINTERLAND","8404241","2018-08-12 01:30","2018","08","12","01:30","14.0","","13.0","","94","","","","29","","15","","","M","101.21","","","","","","NA"
"-55.33","47.14","WINTERLAND","8404241","2018-08-12 02:30","2018","08","12","02:30","13.4","","13.0","","97","","","","27","","11","","","M","101.22","","","","","","NA"
"-55.33","47.14","WINTERLAND","8404241","2018-08-12 03:30","2018","08","12","03:30","13.9","","13.7","","99","","","","28","","11","","","M","101.22","","","","","","NA"
"-55.33","47.14","WINTERLAND","8404241","2018-08-12 04:30","2018","08","12","04:30","14.4","","14.0","","97","","","","30","","15","","","M","101.21","","","","","","NA"
"-55.33","47.14","WINTERLAND","8404241","2018-08-12 05:30","2018","08","12","05:30","14.5","","14.2","","98","","","","30","","20","","","M","101.26","","","","","","NA"
"-55.33","47.14","WINTERLAND","8404241","2018-08-12 06:30","2018","08","12","06:30","15.4","","14.8","","96","","","","30","","11","","","M","101.28","","","","","","NA"
"-55.33","47.14","WINTERLAND","8404241","2018-08-12 07:30","2018","08","12","07:30","16.7","","14.5","","87","","","","29","","19","","","M","101.33","","","","","","NA"
"-55.33","47.14","WINTERLAND","8404241","2018-08-12 08:30","2018","08","12","08:30","17.8","","14.3","","80","","","","30","","19","","","M","101.36","","","","","","NA"
"-55.33","47.14","WINTERLAND","8404241","2018-08-12 09:30","2018","08","12","09:30","19.7","","14.9","","74","","","","30","","19","","","M","101.37","","","","","","NA"
"-55.33","47.14","WINTERLAND","8404241","2018-08-12 10:30","2018","08","12","10:30","20.4","","13.0","","63","","","","30","","22","","","M","101.38","","","","","","NA"
"-55.33","47.14","WINTERLAND","8404241","2018-08-12 11:30","2018","08","12","11:30","21.4","","13.5","","61","","","","30","","17","","","M","101.37","","","","","","NA"
"-55.33","47.14","WINTERLAND","8404241","2018-08-12 12:30","2018","08","12","12:30","21.7","","13.0","","58","","","","28","","22","","","M","101.36","","","","","","NA"
"-55.33","47.14","WINTERLAND","8404241","2018-08-12 13:30","2018","08","12","13:30","21.3","","14.0","","63","","","","29","","28","","","M","101.37","","25","","","","NA"
"-55.33","47.14","WINTERLAND","8404241","2018-08-12 14:30","2018","08","12","14:30","22.7","","15.3","","63","","","","30","","19","","","M","101.34","","27","","","","NA"
"-55.33","47.14","WINTERLAND","8404241","2018-08-12 15:30","2018","08","12","15:30","22.8","","16.0","","66","","","","28","","20","","","M","101.34","","27","","","","NA"
"-55.33","47.14","WINTERLAND","8404241","2018-08-12 16:30","2018","08","12","16:30","21.2","","15.3","","69","","","","28","","22","","","M","101.33","","25","","","","NA"
"-55.33","47.14","WINTERLAND","8404241","2018-08-12 17:30","2018","08","12","17:30","20.2","","14.4","","69","","","","30","","28","","","M","101.36","","","","","","NA"
"-55.33","47.14","WINTERLAND","8404241","2018-08-12 18:30","2018","08","12","18:30","19.0","","14.2","","74","","","","29","","24","","","M","101.35","","","","","","NA"
"-55.33","47.14","WINTERLAND","8404241","2018-08-12 19:30","2018","08","12","19:30","17.7","","13.9","","78","","","","29","","22","","","M","101.37","","","","","","NA"
"-55.33","47.14","WINTERLAND","8404241","2018-08-12 20:30","2018","08","12","20:30","16.8","","13.6","","81","","","","29","","22","","","M","101.43","","","","","","NA"
"-55.33","47.14","WINTERLAND","8404241","2018-08-12 21:30","2018","08","12","21:30","16.6","","13.7","","83","","","","29","","17","","","M","101.44","","","","","","NA"
"-55.33","47.14","WINTERLAND","8404241","2018-08-12 22:30","2018","08","12","22:30","15.0","","13.3","","90","","","","28","","11","","","M","101.44","","","","","","NA"
"-55.33","47.14","WINTERLAND","8404241","2018-08-12 23:30","2018","08","12","23:30","15.5","","13.7","","89","","","","29","","11","","","M","101.42","","","","","","NA"
"-55.33","47.14","WINTERLAND","8404241","2018-08-13 00:30","2018","08","13","00:30","15.5","","13.7","","89","","","","29","","15","","","M","101.40","","","","","","NA"
"-55.33","47.14","WINTERLAND","8404241","2018-08-13 01:30","2018","08","13","01:30","14.9","","13.5","","91","","","","29","","11","","","M","101.40","","","","","","NA"
"-55.33","47.14","WINTERLAND","8404241","2018-08-13 02:30","2018","08","13","02:30","13.8","","13.0","","95","","","","28","","9","","","M","101.42","","","","","","NA"
"-55.33","47.14","WINTERLAND","8404241","2018-08-13 03:30","2018","08","13","03:30","13.0","","12.3","","96","","","","28","","9","","","M","101.41","","","","","","NA"
"-55.33","47.14","WINTERLAND","8404241","2018-08-13 04:30","2018","08","13","04:30","13.8","","13.0","","95","","","","29","","11","","","M","101.40","","","","","","NA"
"-55.33","47.14","WINTERLAND","8404241","2018-08-13 05:30","2018","08","13","05:30","13.7","","13.2","","97","","","","28","","9","","","M","101.40","","","","","","NA"
"-55.33","47.14","WINTERLAND","8404241","2018-08-13 06:30","2018","08","13","06:30","16.3","","15.6","","96","","","","29","","9","","","M","101.44","","","","","","NA"
"-55.33","47.14","WINTERLAND","8404241","2018-08-13 07:30","2018","08","13","07:30","19.5","","17.8","","90","","","","28","","11","","","M","101.41","","","","","","NA"
"-55.33","47.14","WINTERLAND","8404241","2018-08-13 08:30","2018","08","13","08:30","21.7","","17.6","","78","","","","29","","20","","","M","101.40","","27","","","","NA"
"-55.33","47.14","WINTERLAND","8404241","2018-08-13 09:30","2018","08","13","09:30","22.2","","16.8","","72","","","","28","","26","","","M","101.36","","27","","","","NA"
"-55.33","47.14","WINTERLAND","8404241","2018-08-13 10:30","2018","08","13","10:30","23.7","","17.6","","69","","","","29","","20","","","M","101.32","","29","","","","NA"
"-55.33","47.14","WINTERLAND","8404241","2018-08-13 11:30","2018","08","13","11:30","25.1","","16.2","","58","","","","28","","22","","","M","101.29","","30","","","","NA"
"-55.33","47.14","WINTERLAND","8404241","2018-08-13 12:30","2018","08","13","12:30","26.5","","16.3","","54","","","","25","","24","","","M","101.21","","31","","","","NA"
"-55.33","47.14","WINTERLAND","8404241","2018-08-13 13:30","2018","08","13","13:30","25.6","","15.2","","53","","","","29","","31","","","M","101.19","","30","","","","NA"
"-55.33","47.14","WINTERLAND","8404241","2018-08-13 14:30","2018","08","13","14:30","25.7","","16.6","","57","","","","29","","26","","","M","101.14","","31","","","","NA"
"-55.33","47.14","WINTERLAND","8404241","2018-08-13 15:30","2018","08","13","15:30","25.5","","16.6","","58","","","","28","","22","","","M","101.09","","31","","","","NA"
"-55.33","47.14","WINTERLAND","8404241","2018-08-13 16:30","2018","08","13","16:30","25.0","","16.8","","60","","","","28","","19","","","M","101.11","","30","","","","NA"
"-55.33","47.14","WINTERLAND","8404241","2018-08-13 17:30","2018","08","13","17:30","23.4","","15.3","","60","","","","28","","26","","","M","101.13","","28","","","","NA"
"-55.33","47.14","WINTERLAND","8404241","2018-08-13 18:30","2018","08","13","18:30","21.8","","15.6","","68","","","","27","","24","","","M","101.11","","26","","","","NA"
"-55.33","47.14","WINTERLAND","8404241","2018-08-13 19:30","2018","08","13","19:30","19.8","","15.4","","76","","","","27","","15","","","M","101.11","","","","","","NA"
"-55.33","47.14","WINTERLAND","8404241","2018-08-13 20:30","2018","08","13","20:30","18.2","","16.1","","88","","","","28","","15","","","M","101.19","","","","","","NA"
"-55.33","47.14","WINTERLAND","8404241","2018-08-13 21:30","2018","08","13","21:30","17.1","","15.3","","89","","","","28","","11","","","M","101.18","","","","","","NA"
"-55.33","47.14","WINTERLAND","8404241","2018-08-13 22:30","2018","08","13","22:30","17.1","","15.5","","90","","","","29","","17","","","M","101.15","","","","","","NA"
"-55.33","47.14","WINTERLAND","8404241","2018-08-13 23:30","2018","08","13","23:30","17.4","","16.0","","92","","","","28","","15","","","M","101.17","","","","","","NA"
"-55.33","47.14","WINTERLAND","8404241","2018-08-14 00:30","2018","08","14","00:30","16.8","","15.9","","94","","","","27","","11","","","M","101.16","","","","","","NA"
"-55.33","47.14","WINTERLAND","8404241","2018-08-14 01:30","2018","08","14","01:30","16.9","","16.3","","96","","","","27","","11","","","M","101.16","","","","","","NA"
"-55.33","47.14","WINTERLAND","8404241","2018-08-14 02:30","2018","08","14","02:30","16.8","","16.4","","98","","","","29","","11","","","M","101.15","","","","","","NA"
"-55.33","47.14","WINTERLAND","8404241","2018-08-14 03:30","2018","08","14","03:30","16.6","","16.1","","97","","","","28","","11","","","M","101.13","","","","","","NA"
"-55.33","47.14","WINTERLAND","8404241","2018-08-14 04:30","2018","08","14","04:30","16.6","","16.2","","98","","","","24","","7","","","M","101.15","","","","","","NA"
"-55.33","47.14","WINTERLAND","8404241","2018-08-14 05:30","2018","08","14","05:30","16.1","","15.9","","99","","","","26","","9","","","M","101.17","","","","","","NA"
"-55.33","47.14","WINTERLAND","8404241","2018-08-14 06:30","2018","08","14","06:30","17.4","","16.8","","96","","","","26","","6","","","M","101.20","","","","","","NA"
"-55.33","47.14","WINTERLAND","8404241","2018-08-14 07:30","2018","08","14","07:30","20.2","","18.8","","92","","","","27","","13","","","M","101.19","","27","","","","NA"
"-55.33","47.14","WINTERLAND","8404241","2018-08-14 08:30","2018","08","14","08:30","22.4","","19.4","","83","","","","26","","13","","","M","101.20","","29","","","","NA"
"-55.33","47.14","WINTERLAND","8404241","2018-08-14 09:30","2018","08","14","09:30","24.6","","19.9","","75","","","","28","","17","","","M","101.19","","32","","","","NA"
"-55.33","47.14","WINTERLAND","8404241","2018-08-14 10:30","2018","08","14","10:30","25.5","","20.5","","74","","","","24","","11","","","M","101.19","","33","","","","NA"
"-55.33","47.14","WINTERLAND","8404241","2018-08-14 11:30","2018","08","14","11:30","26.3","","21.0","","73","","","","30","","13","","","M","101.20","","35","","","","NA"
"-55.33","47.14","WINTERLAND","8404241","2018-08-14 12:30","2018","08","14","12:30","24.9","","20.3","","76","","","","28","","26","","","M","101.20","","33","","","","NA"
"-55.33","47.14","WINTERLAND","8404241","2018-08-14 13:30","2018","08","14","13:30","25.3","","20.0","","73","","","","29","","22","","","M","101.16","","33","","","","NA"
"-55.33","47.14","WINTERLAND","8404241","2018-08-14 14:30","2018","08","14","14:30","24.3","","19.2","","73","","","","30","","20","","","M","101.15","","31","","","","NA"
"-55.33","47.14","WINTERLAND","8404241","2018-08-14 15:30","2018","08","14","15:30","25.7","","20.0","","71","","","","28","","13","","","M","101.14","","33","","","","NA"
"-55.33","47.14","WINTERLAND","8404241","2018-08-14 16:30","2018","08","14","16:30","24.0","","18.1","","70","","","","24","","20","","","M","101.14","","30","","","","NA"
"-55.33","47.14","WINTERLAND","8404241","2018-08-14 17:30","2018","08","14","17:30","22.6","","18.1","","76","","","","24","","22","","","M","101.16","","29","","","","NA"
"-55.33","47.14","WINTERLAND","8404241","2018-08-14 18:30","2018","08","14","18:30","21.0","","18.5","","86","","","","24","","15","","","M","101.18","","27","","","","NA"
"-55.33","47.14","WINTERLAND","8404241","2018-08-14 19:30","2018","08","14","19:30","18.8","","17.8","","94","","","","24","","9","","","M","101.23","","","","","","NA"
"-55.33","47.14","WINTERLAND","8404241","2018-08-14 20:30","2018","08","14","20:30","18.0","","17.5","","97","","","","23","","13","","","M","101.25","","","","","","NA"
"-55.33","47.14","WINTERLAND","8404241","2018-08-14 21:30","2018","08","14","21:30","17.5","","16.9","","96","","","","24","","13","","","M","101.27","","","","","","NA"
"-55.33","47.14","WINTERLAND","8404241","2018-08-14 22:30","2018","08","14","22:30","17.0","","16.4","","96","","","","24","","13","","","M","101.25","","","","","","NA"
"-55.33","47.14","WINTERLAND","8404241","2018-08-14 23:30","2018","08","14","23:30","17.1","","16.6","","97","","","","23","","11","","","M","101.23","","","","","","NA"
"-55.33","47.14","WINTERLAND","8404241","2018-08-15 00:30","2018","08","15","00:30","16.7","","16.2","","97","","","","23","","7","","","M","101.21","","","","","","NA"
"-55.33","47.14","WINTERLAND","8404241","2018-08-15 01:30","2018","08","15","01:30","16.7","","16.2","","97","","","","23","","9","","","M","101.19","","","","","","NA"
"-55.33","47.14","WINTERLAND","8404241","2018-08-15 02:30","2018","08","15","02:30","16.4","","16.1","","98","","","","21","","6","","","M","101.19","","","","","","NA"
"-55.33","47.14","WINTERLAND","8404241","2018-08-15 03:30","2018","08","15","03:30","17.1","","16.4","","96","","","","21","","9","","","M","101.13","","","","","","NA"
"-55.33","47.14","WINTERLAND","8404241","2018-08-15 04:30","2018","08","15","04:30","17.4","","16.5","","95","","","","19","","13","","","M","101.11","","","","","","NA"
"-55.33","47.14","WINTERLAND","8404241","2018-08-15 05:30","2018","08","15","05:30","17.6","","17.2","","98","","","","22","","11","","","M","101.10","","","","","","NA"
"-55.33","47.14","WINTERLAND","8404241","2018-08-15 06:30","2018","08","15","06:30","18.6","","17.9","","96","","","","8","","4","","","M","101.08","","","","","","NA"
"-55.33","47.14","WINTERLAND","8404241","2018-08-15 07:30","2018","08","15","07:30","19.3","","18.3","","94","","","","18","","9","","","M","101.07","","","","","","NA"
"-55.33","47.14","WINTERLAND","8404241","2018-08-15 08:30","2018","08","15","08:30","22.0","","19.5","","86","","","","19","","19","","","M","101.04","","29","","","","NA"
"-55.33","47.14","WINTERLAND","8404241","2018-08-15 09:30","2018","08","15","09:30","24.0","","20.3","","80","","","","20","","26","","","M","100.98","","32","","","","NA"
"-55.33","47.14","WINTERLAND","8404241","2018-08-15 10:30","2018","08","15","10:30","23.7","","20.3","","81","","","","19","","20","","","M","100.93","","32","","","","NA"
"-55.33","47.14","WINTERLAND","8404241","2018-08-15 11:30","2018","08","15","11:30","23.7","","20.9","","84","","","","21","","20","","","M","100.91","","32","","","","NA"
"-55.33","47.14","WINTERLAND","8404241","2018-08-15 12:30","2018","08","15","12:30","23.1","","20.5","","85","","","","21","","31","","","M","100.87","","31","","","","NA"
"-55.33","47.14","WINTERLAND","8404241","2018-08-15 13:30","2018","08","15","13:30","22.6","","20.7","","89","","","","20","","26","","","M","100.82","","31","","","","NA"
"-55.33","47.14","WINTERLAND","8404241","2018-08-15 14:30","2018","08","15","14:30","21.8","","21.1","","96","","","","20","","33","","","M","100.76","","30","","","","NA"
"-55.33","47.14","WINTERLAND","8404241","2018-08-15 15:30","2018","08","15","15:30","21.6","","21.2","","98","","","","21","","24","","","M","100.77","","30","","","","NA"
"-55.33","47.14","WINTERLAND","8404241","2018-08-15 16:30","2018","08","15","16:30","21.0","","20.8","","99","","","","23","","22","","","M","100.74","","29","","","","NA"
"-55.33","47.14","WINTERLAND","8404241","2018-08-15 17:30","2018","08","15","17:30","20.9","","20.8","","99","","","","23","","19","","","M","100.72","","29","","","","NA"
"-55.33","47.14","WINTERLAND","8404241","2018-08-15 18:30","2018","08","15","18:30","20.5","","20.5","","100","","","","23","","22","","","M","100.70","","28","","","","NA"
"-55.33","47.14","WINTERLAND","8404241","2018-08-15 19:30","2018","08","15","19:30","20.3","","20.3","","100","","","","23","","17","","","M","100.71","","28","","","","NA"
"-55.33","47.14","WINTERLAND","8404241","2018-08-15 20:30","2018","08","15","20:30","20.4","","20.4","","100","","","","23","","17","","","M","100.71","","28","","","","NA"
"-55.33","47.14","WINTERLAND","8404241","2018-08-15 21:30","2018","08","15","21:30","20.5","","20.5","","100","","","","23","","13","","","M","100.72","","28","","","","NA"
"-55.33","47.14","WINTERLAND","8404241","2018-08-15 22:30","2018","08","15","22:30","20.3","","20.3","","100","","","","22","","13","","","M","100.71","","28","","","","NA"
"-55.33","47.14","WINTERLAND","8404241","2018-08-15 23:30","2018","08","15","23:30","20.2","","20.2","","100","","","","23","","15","","","M","100.69","","28","","","","NA"
"-55.33","47.14","WINTERLAND","8404241","2018-08-16 00:30","2018","08","16","00:30","20.1","","20.1","","100","","","","25","","13","","","M","100.64","","28","","","","NA"
"-55.33","47.14","WINTERLAND","8404241","2018-08-16 01:30","2018","08","16","01:30","20.0","","20.0","","100","","","","27","","11","","","M","100.66","","28","","","","NA"
"-55.33","47.14","WINTERLAND","8404241","2018-08-16 02:30","2018","08","16","02:30","19.8","","19.8","","100","","","","25","","9","","","M","100.67","","","","","","NA"
"-55.33","47.14","WINTERLAND","8404241","2018-08-16 03:30","2018","08","16","03:30","19.7","","19.7","","100","","","","25","","7","","","M","100.64","","","","","","NA"
"-55.33","47.14","WINTERLAND","8404241","2018-08-16 04:30","2018","08","16","04:30","19.7","","19.7","","100","","","","20","","4","","","M","100.64","","","","","","NA"
"-55.33","47.14","WINTERLAND","8404241","2018-08-16 05:30","2018","08","16","05:30","19.4","","19.4","","100","","","","21","","7","","","M","100.66","","","","","","NA"
"-55.33","47.14","WINTERLAND","8404241","2018-08-16 06:30","2018","08","16","06:30","19.6","","19.6","","100","","","","21","","7","","","M","100.66","","","","","","NA"
"-55.33","47.14","WINTERLAND","8404241","2018-08-16 07:30","2018","08","16","07:30"
"-55.33","47.14","WINTERLAND","8404241","2018-08-16 08:30","2018","08","16","08:30","20.9","","20.9","","100","","","","18","","7","","","M","100.56","","29","","","","NA"
"-55.33","47.14","WINTERLAND","8404241","2018-08-16 09:30","2018","08","16","09:30","21.9","","21.4","","97","","","","19","","4","","","M","100.55","","31","","","","NA"
"-55.33","47.14","WINTERLAND","8404241","2018-08-16 10:30","2018","08","16","10:30","20.7","","20.7","","100","","","","17","","13","","","M","100.53","","29","","","","NA"
"-55.33","47.14","WINTERLAND","8404241","2018-08-16 11:30","2018","08","16","11:30","19.1","","19.1","","100","","","","12","","15","","","M","100.43","","","","","","NA"
"-55.33","47.14","WINTERLAND","8404241","2018-08-16 12:30","2018","08","16","12:30","18.4","","18.4","","100","","","","10","","9","","","M","100.34","","","","","","NA"
"-55.33","47.14","WINTERLAND","8404241","2018-08-16 13:30","2018","08","16","13:30","19.1","","19.1","","100","","","","21","","7","","","M","100.36","","","","","","NA"
"-55.33","47.14","WINTERLAND","8404241","2018-08-16 14:30","2018","08","16","14:30","20.1","","20.1","","100","","","","24","","13","","","M","100.32","","28","","","","NA"
"-55.33","47.14","WINTERLAND","8404241","2018-08-16 15:30","2018","08","16","15:30","19.5","","19.5","","100","","","","23","","6","","","M","100.29","","","","","","NA"
"-55.33","47.14","WINTERLAND","8404241","2018-08-16 16:30","2018","08","16","16:30","20.0","","20.0","","100","","","","29","","4","","","M","100.30","","28","","","","NA"
"-55.33","47.14","WINTERLAND","8404241","2018-08-16 17:30","2018","08","16","17:30","20.4","","20.4","","100","","","","28","","9","","","M","100.28","","28","","","","NA"
"-55.33","47.14","WINTERLAND","8404241","2018-08-16 18:30","2018","08","16","18:30","19.9","","19.9","","100","","","","32","","13","","","M","100.32","","","","","","NA"
"-55.33","47.14","WINTERLAND","8404241","2018-08-16 19:30","2018","08","16","19:30","18.3","","18.3","","100","","","","33","","4","","","M","100.34","","","","","","NA"
"-55.33","47.14","WINTERLAND","8404241","2018-08-16 20:30","2018","08","16","20:30","17.6","","17.6","","100","","","","1","","13","","","M","100.40","","","","","","NA"
"-55.33","47.14","WINTERLAND","8404241","2018-08-16 21:30","2018","08","16","21:30","16.3","","16.3","","100","","","","3","","19","","","M","100.41","","","","","","NA"
"-55.33","47.14","WINTERLAND","8404241","2018-08-16 22:30","2018","08","16","22:30","15.6","","15.6","","100","","","","6","","9","","","M","100.43","","","","","","NA"
"-55.33","47.14","WINTERLAND","8404241","2018-08-16 23:30","2018","08","16","23:30","14.9","","14.9","","100","","","","1","","6","","","M","100.45","","","","","","NA"
"-55.33","47.14","WINTERLAND","8404241","2018-08-17 00:30","2018","08","17","00:30","14.1","","14.1","","100","","","","1","","19","","","M","100.51","","","","","","NA"
"-55.33","47.14","WINTERLAND","8404241","2018-08-17 01:30","2018","08","17","01:30","12.9","","12.9","","100","","","","1","","17","","","M","100.53","","","","","","NA"
"-55.33","47.14","WINTERLAND","8404241","2018-08-17 02:30","2018","08","17","02:30","12.9","","12.9","","100","","","","3","","7","","","M","100.59","","","","","","NA"
"-55.33","47.14","WINTERLAND","8404241","2018-08-17 03:30","2018","08","17","03:30","12.8","","12.8","","100","","","","2","","6","","","M","100.64","","","","","","NA"
"-55.33","47.14","WINTERLAND","8404241","2018-08-17 04:30","2018","08","17","04:30","12.5","","12.5","","100","","","","2","","13","","","M","100.67","","","","","","NA"
"-55.33","47.14","WINTERLAND","8404241","2018-08-17 05:30","2018","08","17","05:30","12.5","","12.5","","100","","","","1","","9","","","M","100.76","","","","","","NA"
"-55.33","47.14","WINTERLAND","8404241","2018-08-17 06:30","2018","08","17","06:30","12.4","","12.4","","100","","","","3","","15","","","M","100.79","","","","","","NA"
"-55.33","47.14","WINTERLAND","8404241","2018-08-17 07:30","2018","08","17","07:30","12.8","","12.6","","99","","","","3","","15","","","M","100.87","","","","","","NA"
"-55.33","47.14","WINTERLAND","8404241","2018-08-17 08:30","2018","08","17","08:30","13.2","","12.7","","97","","","","1","","11","","","M","100.90","","","","","","NA"
"-55.33","47.14","WINTERLAND","8404241","2018-08-17 09:30","2018","08","17","09:30","14.1","","13.1","","94","","","","5","","13","","","M","100.92","","","","","","NA"
"-55.33","47.14","WINTERLAND","8404241","2018-08-17 10:30","2018","08","17","10:30","15.3","","13.6","","90","","","","6","","7","","","M","100.94","","","","","","NA"
"-55.33","47.14","WINTERLAND","8404241","2018-08-17 11:30","2018","08","17","11:30","15.5","","13.6","","88","","","","36","","11","","","M","100.95","","","","","","NA"
"-55.33","47.14","WINTERLAND","8404241","2018-08-17 12:30","2018","08","17","12:30","16.2","","13.8","","86","","","","3","","9","","","M","100.95","","","","","","NA"
"-55.33","47.14","WINTERLAND","8404241","2018-08-17 13:30","2018","08","17","13:30","16.0","","13.5","","85","","","","36","","15","","","M","100.96","","","","","","NA"
"-55.33","47.14","WINTERLAND","8404241","2018-08-17 14:30","2018","08","17","14:30","16.3","","14.0","","86","","","","1","","7","","","M","100.97","","","","","","NA"
"-55.33","47.14","WINTERLAND","8404241","2018-08-17 15:30","2018","08","17","15:30","16.0","","13.5","","85","","","","34","","7","","","M","101.01","","","","","","NA"
"-55.33","47.14","WINTERLAND","8404241","2018-08-17 16:30","2018","08","17","16:30","16.4","","14.1","","86","","","","8","","6","","","M","101.00","","","","","","NA"
"-55.33","47.14","WINTERLAND","8404241","2018-08-17 17:30","2018","08","17","17:30","15.1","","14.4","","96","","","","12","","9","","","M","101.02","","","","","","NA"
"-55.33","47.14","WINTERLAND","8404241","2018-08-17 18:30","2018","08","17","18:30","14.1","","13.9","","99","","","","17","","7","","","M","101.09","","","","","","NA"
"-55.33","47.14","WINTERLAND","8404241","2018-08-17 19:30","2018","08","17","19:30","13.8","","13.8","","100","","","","","","0","","","M","101.09","","","","","","NA"
"-55.33","47.14","WINTERLAND","8404241","2018-08-17 20:30","2018","08","17","20:30","13.5","","13.5","","100","","","","10","","4","","","M","101.14","","","","","","NA"
"-55.33","47.14","WINTERLAND","8404241","2018-08-17 21:30","2018","08","17","21:30","13.6","","13.6","","100","","","","","","0","","","M","101.17","","","","","","NA"
"-55.33","47.14","WINTERLAND","8404241","2018-08-17 22:30","2018","08","17","22:30","13.2","","13.2","","100","","","","18","","6","","","M","101.14","","","","","","NA"
"-55.33","47.14","WINTERLAND","8404241","2018-08-17 23:30","2018","08","17","23:30","12.8","","12.8","","100","","","","","","0","","","M","101.12","","","","","","NA"
"-55.33","47.14","WINTERLAND","8404241","2018-08-18 00:30","2018","08","18","00:30","12.8","","12.8","","100","","","","","","0","","","M","101.12","","","","","","NA"
"-55.33","47.14","WINTERLAND","8404241","2018-08-18 01:30","2018","08","18","01:30","12.7","","12.7","","100","","","","","","0","","","M","101.08","","","","","","NA"
"-55.33","47.14","WINTERLAND","8404241","2018-08-18 02:30","2018","08","18","02:30","13.1","","13.1","","100","","","","24","","4","","","M","101.07","","","","","","NA"
"-55.33","47.14","WINTERLAND","8404241","2018-08-18 03:30","2018","08","18","03:30"
"-55.33","47.14","WINTERLAND","8404241","2018-08-18 04:30","2018","08","18","04:30","12.8","","12.8","","100","","","","18","","4","","","M","101.04","","","","","","NA"
"-55.33","47.14","WINTERLAND","8404241","2018-08-18 05:30","2018","08","18","05:30","12.9","","12.9","","100","","","","15","","6","","","M","101.05","","","","","","NA"
"-55.33","47.14","WINTERLAND","8404241","2018-08-18 06:30","2018","08","18","06:30","13.2","","13.2","","100","","","","","","0","","","M","101.08","","","","","","NA"
"-55.33","47.14","WINTERLAND","8404241","2018-08-18 07:30","2018","08","18","07:30","15.0","","14.8","","99","","","","","","0","","","M","101.05","","","","","","NA"
"-55.33","47.14","WINTERLAND","8404241","2018-08-18 08:30","2018","08","18","08:30","16.8","","15.0","","89","","","","25","","4","","","M","101.02","","","","","","NA"
"-55.33","47.14","WINTERLAND","8404241","2018-08-18 09:30","2018","08","18","09:30","16.5","","13.9","","85","","","","","","0","","","M","100.99","","","","","","NA"
"-55.33","47.14","WINTERLAND","8404241","2018-08-18 10:30","2018","08","18","10:30","16.8","","14.2","","85","","","","27","","4","","","M","101.01","","","","","","NA"
"-55.33","47.14","WINTERLAND","8404241","2018-08-18 11:30","2018","08","18","11:30","17.7","","15.2","","85","","","","28","","9","","","M","101.00","","","","","","NA"
"-55.33","47.14","WINTERLAND","8404241","2018-08-18 12:30","2018","08","18","12:30","18.4","","15.0","","81","","","","","","0","","","M","100.91","","","","","","NA"
"-55.33","47.14","WINTERLAND","8404241","2018-08-18 13:30","2018","08","18","13:30","18.8","","16.1","","84","","","","14","","7","","","M","100.84","","","","","","NA"
"-55.33","47.14","WINTERLAND","8404241","2018-08-18 14:30","2018","08","18","14:30","18.6","","14.5","","77","","","","22","","17","","","M","100.86","","","","","","NA"
"-55.33","47.14","WINTERLAND","8404241","2018-08-18 15:30","2018","08","18","15:30","16.8","","13.6","","81","","","","23","","15","","","M","100.91","","","","","","NA"
"-55.33","47.14","WINTERLAND","8404241","2018-08-18 16:30","2018","08","18","16:30","16.4","","14.2","","87","","","","24","","9","","","M","100.91","","","","","","NA"
"-55.33","47.14","WINTERLAND","8404241","2018-08-18 17:30","2018","08","18","17:30","16.0","","15.2","","95","","","","25","","4","","","M","100.91","","","","","","NA"
"-55.33","47.14","WINTERLAND","8404241","2018-08-18 18:30","2018","08","18","18:30","15.7","","15.0","","96","","","","","","0","","","M","100.88","","","","","","NA"
"-55.33","47.14","WINTERLAND","8404241","2018-08-18 19:30","2018","08","18","19:30","15.4","","14.8","","96","","","","","","0","","","M","100.89","","","","","","NA"
"-55.33","47.14","WINTERLAND","8404241","2018-08-18 20:30","2018","08","18","20:30","14.9","","14.7","","99","","","","","","0","","","M","100.94","","","","","","NA"
"-55.33","47.14","WINTERLAND","8404241","2018-08-18 21:30","2018","08","18","21:30","14.6","","14.6","","100","","","","","","0","","","M","100.91","","","","","","NA"
"-55.33","47.14","WINTERLAND","8404241","2018-08-18 22:30","2018","08","18","22:30","14.9","","14.9","","100","","","","9","","4","","","M","100.88","","","","","","NA"
"-55.33","47.14","WINTERLAND","8404241","2018-08-18 23:30","2018","08","18","23:30","14.5","","14.5","","100","","","","7","","4","","","M","100.85","","","","","","NA"
"-55.33","47.14","WINTERLAND","8404241","2018-08-19 00:30","2018","08","19","00:30","14.3","","14.3","","100","","","","5","","7","","","M","100.84","","","","","","NA"
"-55.33","47.14","WINTERLAND","8404241","2018-08-19 01:30","2018","08","19","01:30","14.1","","14.1","","100","","","","8","","7","","","M","100.85","","","","","","NA"
"-55.33","47.14","WINTERLAND","8404241","2018-08-19 02:30","2018","08","19","02:30","13.8","","13.8","","100","","","","9","","11","","","M","100.81","","","","","","NA"
"-55.33","47.14","WINTERLAND","8404241","2018-08-19 03:30","2018","08","19","03:30","13.8","","13.8","","100","","","","9","","11","","","M","100.79","","","","","","NA"
"-55.33","47.14","WINTERLAND","8404241","2018-08-19 04:30","2018","08","19","04:30","14.0","","14.0","","100","","","","10","","11","","","M","100.76","","","","","","NA"
"-55.33","47.14","WINTERLAND","8404241","2018-08-19 05:30","2018","08","19","05:30","13.9","","13.9","","100","","","","7","","11","","","M","100.76","","","","","","NA"
"-55.33","47.14","WINTERLAND","8404241","2018-08-19 06:30","2018","08","19","06:30","13.6","","13.6","","100","","","","8","","15","","","M","100.78","","","","","","NA"
"-55.33","47.14","WINTERLAND","8404241","2018-08-19 07:30","2018","08","19","07:30","14.0","","14.0","","100","","","","7","","17","","","M","100.80","","","","","","NA"
"-55.33","47.14","WINTERLAND","8404241","2018-08-19 08:30","2018","08","19","08:30","14.3","","14.3","","100","","","","9","","17","","","M","100.79","","","","","","NA"
"-55.33","47.14","WINTERLAND","8404241","2018-08-19 09:30","2018","08","19","09:30","14.9","","14.9","","100","","","","9","","22","","","M","100.86","","","","","","NA"
"-55.33","47.14","WINTERLAND","8404241","2018-08-19 10:30","2018","08","19","10:30","15.6","","15.5","","99","","","","7","","24","","","M","100.86","","","","","","NA"
"-55.33","47.14","WINTERLAND","8404241","2018-08-19 11:30","2018","08","19","11:30","17.4","","15.9","","91","","","","6","","24","","","M","100.87","","","","","","NA"
"-55.33","47.14","WINTERLAND","8404241","2018-08-19 12:30","2018","08","19","12:30","18.6","","16.1","","85","","","","8","","20","","","M","100.88","","","","","","NA"
"-55.33","47.14","WINTERLAND","8404241","2018-08-19 13:30","2018","08","19","13:30","18.6","","14.6","","78","","","","9","","26","","","M","100.92","","","","","","NA"
"-55.33","47.14","WINTERLAND","8404241","2018-08-19 14:30","2018","08","19","14:30","18.8","","15.0","","79","","","","9","","24","","","M","100.97","","","","","","NA"
"-55.33","47.14","WINTERLAND","8404241","2018-08-19 15:30","2018","08","19","15:30","18.9","","15.0","","78","","","","9","","22","","","M","101.02","","","","","","NA"
"-55.33","47.14","WINTERLAND","8404241","2018-08-19 16:30","2018","08","19","16:30","18.3","","14.0","","76","","","","10","","30","","","M","101.08","","","","","","NA"
"-55.33","47.14","WINTERLAND","8404241","2018-08-19 17:30","2018","08","19","17:30","17.2","","12.2","","72","","","","8","","24","","","M","101.09","","","","","","NA"
"-55.33","47.14","WINTERLAND","8404241","2018-08-19 18:30","2018","08","19","18:30","15.6","","12.3","","81","","","","9","","13","","","M","101.24","","","","","","NA"
"-55.33","47.14","WINTERLAND","8404241","2018-08-19 19:30","2018","08","19","19:30","13.5","","12.1","","91","","","","10","","9","","","M","101.33","","","","","","NA"
"-55.33","47.14","WINTERLAND","8404241","2018-08-19 20:30","2018","08","19","20:30","13.1","","12.0","","93","","","","8","","7","","","M","101.44","","","","","","NA"
"-55.33","47.14","WINTERLAND","8404241","2018-08-19 21:30","2018","08","19","21:30","12.9","","11.5","","91","","","","10","","4","","","M","101.52","","","","","","NA"
"-55.33","47.14","WINTERLAND","8404241","2018-08-19 22:30","2018","08","19","22:30","10.7","","10.6","","99","","","","2","","11","","","M","101.56","","","","","","NA"
"-55.33","47.14","WINTERLAND","8404241","2018-08-19 23:30","2018","08","19","23:30","10.9","","10.6","","98","","","","36","","13","","","M","101.62","","","","","","NA"
"-55.33","47.14","WINTERLAND","8404241","2018-08-20 00:30","2018","08","20","00:30","10.4","","10.1","","98","","","","1","","9","","","M","101.61","","","","","","NA"
"-55.33","47.14","WINTERLAND","8404241","2018-08-20 01:30","2018","08","20","01:30","10.1","","10.1","","100","","","","3","","6","","","M","101.62","","","","","","NA"
"-55.33","47.14","WINTERLAND","8404241","2018-08-20 02:30","2018","08","20","02:30","10.4","","10.4","","100","","","","36","","7","","","M","101.67","","","","","","NA"
"-55.33","47.14","WINTERLAND","8404241","2018-08-20 03:30","2018","08","20","03:30","9.9","","9.9","","100","","","","3","","13","","","M","101.71","","","","","","NA"
"-55.33","47.14","WINTERLAND","8404241","2018-08-20 04:30","2018","08","20","04:30","9.0","","9.0","","100","","","","","","0","","","M","101.79","","","","","","NA"
"-55.33","47.14","WINTERLAND","8404241","2018-08-20 05:30","2018","08","20","05:30","10.4","","10.4","","100","","","","12","","4","","","M","101.87","","","","","","NA"
"-55.33","47.14","WINTERLAND","8404241","2018-08-20 06:30","2018","08","20","06:30","11.4","","11.4","","100","","","","5","","4","","","M","101.95","","","","","","NA"
"-55.33","47.14","WINTERLAND","8404241","2018-08-20 07:30","2018","08","20","07:30","12.2","","12.2","","100","","","","","","0","","","M","102.03","","","","","","NA"
"-55.33","47.14","WINTERLAND","8404241","2018-08-20 08:30","2018","08","20","08:30","12.9","","12.9","","100","","","","6","","7","","","M","102.08","","","","","","NA"
"-55.33","47.14","WINTERLAND","8404241","2018-08-20 09:30","2018","08","20","09:30","13.8","","13.4","","97","","","","7","","4","","","M","102.10","","","","","","NA"
"-55.33","47.14","WINTERLAND","8404241","2018-08-20 10:30","2018","08","20","10:30","15.1","","13.4","","90","","","","9","","6","","","M","102.10","","","","","","NA"
"-55.33","47.14","WINTERLAND","8404241","2018-08-20 11:30","2018","08","20","11:30","17.3","","13.9","","80","","","","14","","9","","","M","102.10","","","","","","NA"
"-55.33","47.14","WINTERLAND","8404241","2018-08-20 12:30","2018","08","20","12:30","18.2","","14.6","","80","","","","15","","9","","","M","102.05","","","","","","NA"
"-55.33","47.14","WINTERLAND","8404241","2018-08-20 13:30","2018","08","20","13:30","18.0","","14.2","","79","","","","14","","15","","","M","102.02","","","","","","NA"
"-55.33","47.14","WINTERLAND","8404241","2018-08-20 14:30","2018","08","20","14:30","18.0","","13.9","","77","","","","14","","13","","","M","102.00","","","","","","NA"
"-55.33","47.14","WINTERLAND","8404241","2018-08-20 15:30","2018","08","20","15:30","18.0","","13.9","","77","","","","12","","13","","","M","102.00","","","","","","NA"
"-55.33","47.14","WINTERLAND","8404241","2018-08-20 16:30","2018","08","20","16:30","17.7","","12.9","","74","","","","16","","13","","","M","101.99","","","","","","NA"
"-55.33","47.14","WINTERLAND","8404241","2018-08-20 17:30","2018","08","20","17:30"
"-55.33","47.14","WINTERLAND","8404241","2018-08-20 18:30","2018","08","20","18:30"
"-55.33","47.14","WINTERLAND","8404241","2018-08-20 19:30","2018","08","20","19:30"
"-55.33","47.14","WINTERLAND","8404241","2018-08-20 20:30","2018","08","20","20:30"
"-55.33","47.14","WINTERLAND","8404241","2018-08-20 21:30","2018","08","20","21:30"
"-55.33","47.14","WINTERLAND","8404241","2018-08-20 22:30","2018","08","20","22:30"
"-55.33","47.14","WINTERLAND","8404241","2018-08-20 23:30","2018","08","20","23:30"
"-55.33","47.14","WINTERLAND","8404241","2018-08-21 00:30","2018","08","21","00:30"
"-55.33","47.14","WINTERLAND","8404241","2018-08-21 01:30","2018","08","21","01:30"
"-55.33","47.14","WINTERLAND","8404241","2018-08-21 02:30","2018","08","21","02:30"
"-55.33","47.14","WINTERLAND","8404241","2018-08-21 03:30","2018","08","21","03:30"
"-55.33","47.14","WINTERLAND","8404241","2018-08-21 04:30","2018","08","21","04:30"
"-55.33","47.14","WINTERLAND","8404241","2018-08-21 05:30","2018","08","21","05:30"
"-55.33","47.14","WINTERLAND","8404241","2018-08-21 06:30","2018","08","21","06:30"
"-55.33","47.14","WINTERLAND","8404241","2018-08-21 07:30","2018","08","21","07:30"
"-55.33","47.14","WINTERLAND","8404241","2018-08-21 08:30","2018","08","21","08:30"
"-55.33","47.14","WINTERLAND","8404241","2018-08-21 09:30","2018","08","21","09:30"
"-55.33","47.14","WINTERLAND","8404241","2018-08-21 10:30","2018","08","21","10:30"
"-55.33","47.14","WINTERLAND","8404241","2018-08-21 11:30","2018","08","21","11:30"
"-55.33","47.14","WINTERLAND","8404241","2018-08-21 12:30","2018","08","21","12:30"
"-55.33","47.14","WINTERLAND","8404241","2018-08-21 13:30","2018","08","21","13:30"
"-55.33","47.14","WINTERLAND","8404241","2018-08-21 14:30","2018","08","21","14:30"
"-55.33","47.14","WINTERLAND","8404241","2018-08-21 15:30","2018","08","21","15:30"
"-55.33","47.14","WINTERLAND","8404241","2018-08-21 16:30","2018","08","21","16:30"
"-55.33","47.14","WINTERLAND","8404241","2018-08-21 17:30","2018","08","21","17:30"
"-55.33","47.14","WINTERLAND","8404241","2018-08-21 18:30","2018","08","21","18:30"
"-55.33","47.14","WINTERLAND","8404241","2018-08-21 19:30","2018","08","21","19:30"
"-55.33","47.14","WINTERLAND","8404241","2018-08-21 20:30","2018","08","21","20:30"
"-55.33","47.14","WINTERLAND","8404241","2018-08-21 21:30","2018","08","21","21:30"
"-55.33","47.14","WINTERLAND","8404241","2018-08-21 22:30","2018","08","21","22:30"
"-55.33","47.14","WINTERLAND","8404241","2018-08-21 23:30","2018","08","21","23:30"
"-55.33","47.14","WINTERLAND","8404241","2018-08-22 00:30","2018","08","22","00:30"
"-55.33","47.14","WINTERLAND","8404241","2018-08-22 01:30","2018","08","22","01:30"
"-55.33","47.14","WINTERLAND","8404241","2018-08-22 02:30","2018","08","22","02:30"
"-55.33","47.14","WINTERLAND","8404241","2018-08-22 03:30","2018","08","22","03:30"
"-55.33","47.14","WINTERLAND","8404241","2018-08-22 04:30","2018","08","22","04:30"
"-55.33","47.14","WINTERLAND","8404241","2018-08-22 05:30","2018","08","22","05:30"
"-55.33","47.14","WINTERLAND","8404241","2018-08-22 06:30","2018","08","22","06:30"
"-55.33","47.14","WINTERLAND","8404241","2018-08-22 07:30","2018","08","22","07:30"
"-55.33","47.14","WINTERLAND","8404241","2018-08-22 08:30","2018","08","22","08:30"
"-55.33","47.14","WINTERLAND","8404241","2018-08-22 09:30","2018","08","22","09:30"
"-55.33","47.14","WINTERLAND","8404241","2018-08-22 10:30","2018","08","22","10:30"
"-55.33","47.14","WINTERLAND","8404241","2018-08-22 11:30","2018","08","22","11:30"
"-55.33","47.14","WINTERLAND","8404241","2018-08-22 12:30","2018","08","22","12:30"
"-55.33","47.14","WINTERLAND","8404241","2018-08-22 13:30","2018","08","22","13:30"
"-55.33","47.14","WINTERLAND","8404241","2018-08-22 14:30","2018","08","22","14:30"
"-55.33","47.14","WINTERLAND","8404241","2018-08-22 15:30","2018","08","22","15:30"
"-55.33","47.14","WINTERLAND","8404241","2018-08-22 16:30","2018","08","22","16:30"
"-55.33","47.14","WINTERLAND","8404241","2018-08-22 17:30","2018","08","22","17:30"
"-55.33","47.14","WINTERLAND","8404241","2018-08-22 18:30","2018","08","22","18:30"
"-55.33","47.14","WINTERLAND","8404241","2018-08-22 19:30","2018","08","22","19:30"
"-55.33","47.14","WINTERLAND","8404241","2018-08-22 20:30","2018","08","22","20:30"
"-55.33","47.14","WINTERLAND","8404241","2018-08-22 21:30","2018","08","22","21:30"
"-55.33","47.14","WINTERLAND","8404241","2018-08-22 22:30","2018","08","22","22:30"
"-55.33","47.14","WINTERLAND","8404241","2018-08-22 23:30","2018","08","22","23:30"
"-55.33","47.14","WINTERLAND","8404241","2018-08-23 00:30","2018","08","23","00:30"
"-55.33","47.14","WINTERLAND","8404241","2018-08-23 01:30","2018","08","23","01:30","17.7","","17.7","","100","","","","13","","11","","","M","100.58","","","","","","NA"
"-55.33","47.14","WINTERLAND","8404241","2018-08-23 02:30","2018","08","23","02:30","18.4","","18.4","","100","","","","14","","7","","","M","100.56","","","","","","NA"
"-55.33","47.14","WINTERLAND","8404241","2018-08-23 03:30","2018","08","23","03:30","19.4","","19.4","","100","","","","20","","13","","","M","100.53","","","","","","NA"
"-55.33","47.14","WINTERLAND","8404241","2018-08-23 04:30","2018","08","23","04:30","19.8","","19.8","","100","","","","22","","20","","","M","100.49","","","","","","NA"
"-55.33","47.14","WINTERLAND","8404241","2018-08-23 05:30","2018","08","23","05:30","19.8","","19.8","","100","","","","21","","30","","","M","100.49","","","","","","NA"
"-55.33","47.14","WINTERLAND","8404241","2018-08-23 06:30","2018","08","23","06:30","20.8","","20.8","","100","","","","22","","15","","","M","100.49","","29","","","","NA"
"-55.33","47.14","WINTERLAND","8404241","2018-08-23 07:30","2018","08","23","07:30","20.9","","20.9","","100","","","","22","","24","","","M","100.48","","29","","","","NA"
"-55.33","47.14","WINTERLAND","8404241","2018-08-23 08:30","2018","08","23","08:30","21.3","","21.3","","100","","","","22","","28","","","M","100.46","","30","","","","NA"
"-55.33","47.14","WINTERLAND","8404241","2018-08-23 09:30","2018","08","23","09:30","22.8","","22.1","","96","","","","22","","28","","","M","100.45","","32","","","","NA"
"-55.33","47.14","WINTERLAND","8404241","2018-08-23 10:30","2018","08","23","10:30","22.1","","21.3","","95","","","","22","","30","","","M","100.46","","31","","","","NA"
"-55.33","47.14","WINTERLAND","8404241","2018-08-23 11:30","2018","08","23","11:30","22.4","","21.4","","94","","","","22","","39","","","M","100.42","","31","","","","NA"
"-55.33","47.14","WINTERLAND","8404241","2018-08-23 12:30","2018","08","23","12:30","22.6","","21.4","","93","","","","22","","28","","","M","100.39","","31","","","","NA"
"-55.33","47.14","WINTERLAND","8404241","2018-08-23 13:30","2018","08","23","13:30","21.7","","21.7","","100","","","","23","","22","","","M","100.39","","31","","","","NA"
"-55.33","47.14","WINTERLAND","8404241","2018-08-23 14:30","2018","08","23","14:30","22.2","","21.5","","96","","","","21","","30","","","M","100.33","","31","","","","NA"
"-55.33","47.14","WINTERLAND","8404241","2018-08-23 15:30","2018","08","23","15:30","21.5","","21.1","","98","","","","23","","30","","","M","100.29","","30","","","","NA"
"-55.33","47.14","WINTERLAND","8404241","2018-08-23 16:30","2018","08","23","16:30","20.3","","20.3","","100","","","","22","","28","","","M","100.28","","28","","","","NA"
"-55.33","47.14","WINTERLAND","8404241","2018-08-23 17:30","2018","08","23","17:30","19.5","","19.5","","100","","","","23","","24","","","M","100.30","","","","","","NA"
"-55.33","47.14","WINTERLAND","8404241","2018-08-23 18:30","2018","08","23","18:30","19.0","","19.0","","100","","","","24","","24","","","M","100.35","","","","","","NA"
"-55.33","47.14","WINTERLAND","8404241","2018-08-23 19:30","2018","08","23","19:30","18.9","","18.9","","100","","","","24","","19","","","M","100.40","","","","","","NA"
"-55.33","47.14","WINTERLAND","8404241","2018-08-23 20:30","2018","08","23","20:30","18.9","","18.9","","100","","","","24","","24","","","M","100.47","","","","","","NA"
"-55.33","47.14","WINTERLAND","8404241","2018-08-23 21:30","2018","08","23","21:30","18.5","","18.5","","100","","","","24","","22","","","M","100.50","","","","","","NA"
"-55.33","47.14","WINTERLAND","8404241","2018-08-23 22:30","2018","08","23","22:30","18.4","","18.4","","100","","","","27","","15","","","M","100.51","","","","","","NA"
"-55.33","47.14","WINTERLAND","8404241","2018-08-23 23:30","2018","08","23","23:30","18.3","","18.3","","100","","","","26","","15","","","M","100.54","","","","","","NA"
"-55.33","47.14","WINTERLAND","8404241","2018-08-24 00:30","2018","08","24","00:30","18.4","","18.4","","100","","","","25","","15","","","M","100.55","","","","","","NA"
"-55.33","47.14","WINTERLAND","8404241","2018-08-24 01:30","2018","08","24","01:30","18.6","","18.6","","100","","","","24","","13","","","M","100.48","","","","","","NA"
"-55.33","47.14","WINTERLAND","8404241","2018-08-24 02:30","2018","08","24","02:30","18.8","","18.8","","100","","","","28","","11","","","M","100.47","","","","","","NA"
"-55.33","47.14","WINTERLAND","8404241","2018-08-24 03:30","2018","08","24","03:30","18.9","","18.9","","100","","","","24","","6","","","M","100.47","","","","","","NA"
"-55.33","47.14","WINTERLAND","8404241","2018-08-24 04:30","2018","08","24","04:30","18.4","","18.4","","100","","","","22","","7","","","M","100.47","","","","","","NA"
"-55.33","47.14","WINTERLAND","8404241","2018-08-24 05:30","2018","08","24","05:30","18.5","","18.5","","100","","","","22","","6","","","M","100.53","","","","","","NA"
"-55.33","47.14","WINTERLAND","8404241","2018-08-24 06:30","2018","08","24","06:30","18.8","","18.8","","100","","","","27","","11","","","M","100.59","","","","","","NA"
"-55.33","47.14","WINTERLAND","8404241","2018-08-24 07:30","2018","08","24","07:30","19.3","","19.3","","100","","","","24","","7","","","M","100.66","","","","","","NA"
"-55.33","47.14","WINTERLAND","8404241","2018-08-24 08:30","2018","08","24","08:30","19.8","","19.7","","99","","","","27","","19","","","M","100.73","","","","","","NA"
"-55.33","47.14","WINTERLAND","8404241","2018-08-24 09:30","2018","08","24","09:30","20.8","","18.2","","85","","","","29","","24","","","M","100.86","","27","","","","NA"
"-55.33","47.14","WINTERLAND","8404241","2018-08-24 10:30","2018","08","24","10:30","21.2","","17.5","","79","","","","29","","24","","","M","100.90","","27","","","","NA"
"-55.33","47.14","WINTERLAND","8404241","2018-08-24 11:30","2018","08","24","11:30","21.2","","16.6","","75","","","","28","","31","","","M","100.95","","26","","","","NA"
"-55.33","47.14","WINTERLAND","8404241","2018-08-24 12:30","2018","08","24","12:30","22.3","","17.7","","75","","","","28","","31","","","M","101.01","","28","","","","NA"
"-55.33","47.14","WINTERLAND","8404241","2018-08-24 13:30","2018","08","24","13:30","22.2","","17.7","","76","","","","29","","33","","","M","101.07","","28","","","","NA"
"-55.33","47.14","WINTERLAND","8404241","2018-08-24 14:30","2018","08","24","14:30","21.9","","16.8","","73","","","","29","","35","","","M","101.12","","27","","","","NA"
"-55.33","47.14","WINTERLAND","8404241","2018-08-24 15:30","2018","08","24","15:30","22.1","","15.5","","66","","","","28","","37","","","M","101.17","","26","","","","NA"
"-55.33","47.14","WINTERLAND","8404241","2018-08-24 16:30","2018","08","24","16:30","21.4","","14.8","","66","","","","29","","37","","","M","101.24","","25","","","","NA"
"-55.33","47.14","WINTERLAND","8404241","2018-08-24 17:30","2018","08","24","17:30","21.1","","15.8","","72","","","","28","","31","","","M","101.33","","26","","","","NA"
"-55.33","47.14","WINTERLAND","8404241","2018-08-24 18:30","2018","08","24","18:30","19.7","","15.5","","77","","","","27","","24","","","M","101.43","","","","","","NA"
"-55.33","47.14","WINTERLAND","8404241","2018-08-24 19:30","2018","08","24","19:30","17.7","","16.2","","91","","","","27","","15","","","M","101.53","","","","","","NA"
"-55.33","47.14","WINTERLAND","8404241","2018-08-24 20:30","2018","08","24","20:30","16.9","","16.3","","96","","","","28","","15","","","M","101.62","","","","","","NA"
"-55.33","47.14","WINTERLAND","8404241","2018-08-24 21:30","2018","08","24","21:30","16.2","","15.5","","96","","","","28","","9","","","M","101.67","","","","","","NA"
"-55.33","47.14","WINTERLAND","8404241","2018-08-24 22:30","2018","08","24","22:30","15.6","","14.8","","95","","","","27","","11","","","M","101.73","","","","","","NA"
"-55.33","47.14","WINTERLAND","8404241","2018-08-24 23:30","2018","08","24","23:30","15.4","","14.6","","95","","","","28","","13","","","M","101.77","","","","","","NA"
"-55.33","47.14","WINTERLAND","8404241","2018-08-25 00:30","2018","08","25","00:30","14.8","","13.7","","93","","","","29","","15","","","M","101.78","","","","","","NA"
"-55.33","47.14","WINTERLAND","8404241","2018-08-25 01:30","2018","08","25","01:30","14.8","","13.4","","91","","","","30","","4","","","M","101.82","","","","","","NA"
"-55.33","47.14","WINTERLAND","8404241","2018-08-25 02:30","2018","08","25","02:30","15.2","","13.4","","89","","","","29","","11","","","M","101.86","","","","","","NA"
"-55.33","47.14","WINTERLAND","8404241","2018-08-25 03:30","2018","08","25","03:30","15.9","","13.5","","86","","","","28","","17","","","M","101.89","","","","","","NA"
"-55.33","47.14","WINTERLAND","8404241","2018-08-25 04:30","2018","08","25","04:30","15.2","","13.2","","88","","","","29","","11","","","M","101.91","","","","","","NA"
"-55.33","47.14","WINTERLAND","8404241","2018-08-25 05:30","2018","08","25","05:30","15.2","","14.0","","93","","","","29","","11","","","M","101.95","","","","","","NA"
"-55.33","47.14","WINTERLAND","8404241","2018-08-25 06:30","2018","08","25","06:30","15.7","","14.9","","95","","","","28","","11","","","M","102.02","","","","","","NA"
"-55.33","47.14","WINTERLAND","8404241","2018-08-25 07:30","2018","08","25","07:30","18.5","","17.2","","92","","","","25","","7","","","M","102.07","","","","","","NA"
"-55.33","47.14","WINTERLAND","8404241","2018-08-25 08:30","2018","08","25","08:30","21.0","","18.3","","85","","","","26","","15","","","M","102.08","","27","","","","NA"
"-55.33","47.14","WINTERLAND","8404241","2018-08-25 09:30","2018","08","25","09:30","23.2","","17.7","","71","","","","28","","13","","","M","102.05","","29","","","","NA"
"-55.33","47.14","WINTERLAND","8404241","2018-08-25 10:30","2018","08","25","10:30","24.8","","17.9","","66","","","","25","","11","","","M","102.01","","31","","","","NA"
"-55.33","47.14","WINTERLAND","8404241","2018-08-25 11:30","2018","08","25","11:30","25.3","","17.9","","64","","","","28","","19","","","M","101.98","","31","","","","NA"
"-55.33","47.14","WINTERLAND","8404241","2018-08-25 12:30","2018","08","25","12:30","25.0","","17.5","","63","","","","25","","19","","","M","101.95","","31","","","","NA"
"-55.33","47.14","WINTERLAND","8404241","2018-08-25 13:30","2018","08","25","13:30","24.8","","17.4","","64","","","","24","","17","","","M","101.93","","30","","","","NA"
"-55.33","47.14","WINTERLAND","8404241","2018-08-25 14:30","2018","08","25","14:30","23.9","","15.3","","59","","","","24","","22","","","M","101.92","","28","","","","NA"
"-55.33","47.14","WINTERLAND","8404241","2018-08-25 15:30","2018","08","25","15:30","23.6","","15.2","","59","","","","25","","24","","","M","101.90","","28","","","","NA"
"-55.33","47.14","WINTERLAND","8404241","2018-08-25 16:30","2018","08","25","16:30","22.6","","16.9","","70","","","","24","","19","","","M","101.85","","28","","","","NA"
"-55.33","47.14","WINTERLAND","8404241","2018-08-25 17:30","2018","08","25","17:30","21.7","","16.8","","74","","","","25","","17","","","M","101.83","","27","","","","NA"
"-55.33","47.14","WINTERLAND","8404241","2018-08-25 18:30","2018","08","25","18:30","19.5","","17.2","","87","","","","24","","11","","","M","101.81","","","","","","NA"
"-55.33","47.14","WINTERLAND","8404241","2018-08-25 19:30","2018","08","25","19:30","17.9","","16.9","","94","","","","24","","15","","","M","101.82","","","","","","NA"
"-55.33","47.14","WINTERLAND","8404241","2018-08-25 20:30","2018","08","25","20:30","17.2","","16.7","","97","","","","26","","15","","","M","101.83","","","","","","NA"
"-55.33","47.14","WINTERLAND","8404241","2018-08-25 21:30","2018","08","25","21:30","17.1","","16.4","","96","","","","24","","15","","","M","101.83","","","","","","NA"
"-55.33","47.14","WINTERLAND","8404241","2018-08-25 22:30","2018","08","25","22:30","17.3","","16.4","","94","","","","25","","17","","","M","101.82","","","","","","NA"
"-55.33","47.14","WINTERLAND","8404241","2018-08-25 23:30","2018","08","25","23:30","17.1","","16.2","","94","","","","25","","17","","","M","101.80","","","","","","NA"
"-55.33","47.14","WINTERLAND","8404241","2018-08-26 00:30","2018","08","26","00:30","15.8","","15.3","","97","","","","27","","7","","","M","101.79","","","","","","NA"
"-55.33","47.14","WINTERLAND","8404241","2018-08-26 01:30","2018","08","26","01:30","16.0","","15.4","","96","","","","28","","9","","","M","101.76","","","","","","NA"
"-55.33","47.14","WINTERLAND","8404241","2018-08-26 02:30","2018","08","26","02:30","15.6","","15.3","","98","","","","25","","13","","","M","101.73","","","","","","NA"
"-55.33","47.14","WINTERLAND","8404241","2018-08-26 03:30","2018","08","26","03:30","15.5","","15.3","","99","","","","25","","11","","","M","101.71","","","","","","NA"
"-55.33","47.14","WINTERLAND","8404241","2018-08-26 04:30","2018","08","26","04:30","15.6","","15.4","","99","","","","28","","7","","","M","101.68","","","","","","NA"
"-55.33","47.14","WINTERLAND","8404241","2018-08-26 05:30","2018","08","26","05:30","15.6","","15.4","","99","","","","22","","6","","","M","101.65","","","","","","NA"
"-55.33","47.14","WINTERLAND","8404241","2018-08-26 06:30","2018","08","26","06:30","16.9","","16.7","","99","","","","25","","9","","","M","101.66","","","","","","NA"
"-55.33","47.14","WINTERLAND","8404241","2018-08-26 07:30","2018","08","26","07:30","18.9","","18.3","","96","","","","25","","6","","","M","101.64","","","","","","NA"
"-55.33","47.14","WINTERLAND","8404241","2018-08-26 08:30","2018","08","26","08:30","20.6","","19.5","","93","","","","27","","13","","","M","101.61","","28","","","","NA"
"-55.33","47.14","WINTERLAND","8404241","2018-08-26 09:30","2018","08","26","09:30","23.3","","20.2","","83","","","","25","","7","","","M","101.59","","31","","","","NA"
"-55.33","47.14","WINTERLAND","8404241","2018-08-26 10:30","2018","08","26","10:30","24.1","","20.6","","81","","","","26","","17","","","M","101.56","","32","","","","NA"
"-55.33","47.14","WINTERLAND","8404241","2018-08-26 11:30","2018","08","26","11:30","24.7","","19.7","","74","","","","30","","19","","","M","101.52","","32","","","","NA"
"-55.33","47.14","WINTERLAND","8404241","2018-08-26 12:30","2018","08","26","12:30","24.5","","18.5","","69","","","","30","","20","","","M","101.50","","31","","","","NA"
"-55.33","47.14","WINTERLAND","8404241","2018-08-26 13:30","2018","08","26","13:30","24.7","","18.1","","67","","","","30","","17","","","M","101.46","","31","","","","NA"
"-55.33","47.14","WINTERLAND","8404241","2018-08-26 14:30","2018","08","26","14:30","23.0","","17.1","","69","","","","30","","17","","","M","101.45","","28","","","","NA"
"-55.33","47.14","WINTERLAND","8404241","2018-08-26 15:30","2018","08","26","15:30","22.8","","18.0","","74","","","","29","","17","","","M","101.41","","29","","","","NA"
"-55.33","47.14","WINTERLAND","8404241","2018-08-26 16:30","2018","08","26","16:30","21.7","","17.7","","78","","","","29","","20","","","M","101.40","","27","","","","NA"
"-55.33","47.14","WINTERLAND","8404241","2018-08-26 17:30","2018","08","26","17:30","21.4","","18.9","","86","","","","29","","7","","","M","101.35","","28","","","","NA"
"-55.33","47.14","WINTERLAND","8404241","2018-08-26 18:30","2018","08","26","18:30","20.2","","19.0","","93","","","","23","","9","","","M","101.31","","27","","","","NA"
"-55.33","47.14","WINTERLAND","8404241","2018-08-26 19:30","2018","08","26","19:30","18.1","","17.8","","98","","","","23","","11","","","M","101.32","","","","","","NA"
"-55.33","47.14","WINTERLAND","8404241","2018-08-26 20:30","2018","08","26","20:30","17.9","","17.7","","99","","","","27","","9","","","M","101.32","","","","","","NA"
"-55.33","47.14","WINTERLAND","8404241","2018-08-26 21:30","2018","08","26","21:30","17.0","","17.0","","100","","","","24","","9","","","M","101.31","","","","","","NA"
"-55.33","47.14","WINTERLAND","8404241","2018-08-26 22:30","2018","08","26","22:30","16.7","","16.4","","98","","","","25","","17","","","M","101.29","","","","","","NA"
"-55.33","47.14","WINTERLAND","8404241","2018-08-26 23:30","2018","08","26","23:30","15.8","","15.6","","99","","","","25","","7","","","M","101.26","","","","","","NA"
"-55.33","47.14","WINTERLAND","8404241","2018-08-27 00:30","2018","08","27","00:30","15.4","","15.4","","100","","","","25","","7","","","M","101.21","","","","","","NA"
"-55.33","47.14","WINTERLAND","8404241","2018-08-27 01:30","2018","08","27","01:30","15.2","","15.2","","100","","","","27","","11","","","M","101.14","","","","","","NA"
"-55.33","47.14","WINTERLAND","8404241","2018-08-27 02:30","2018","08","27","02:30","14.8","","14.8","","100","","","","27","","9","","","M","101.11","","","","","","NA"
"-55.33","47.14","WINTERLAND","8404241","2018-08-27 03:30","2018","08","27","03:30","14.2","","14.2","","100","","","","","","0","","","M","101.06","","","","","","NA"
"-55.33","47.14","WINTERLAND","8404241","2018-08-27 04:30","2018","08","27","04:30","14.8","","14.8","","100","","","","23","","7","","","M","101.03","","","","","","NA"
"-55.33","47.14","WINTERLAND","8404241","2018-08-27 05:30","2018","08","27","05:30","12.9","","12.9","","100","","","","9","","6","","","M","101.02","","","","","","NA"
"-55.33","47.14","WINTERLAND","8404241","2018-08-27 06:30","2018","08","27","06:30","13.6","","13.6","","100","","","","9","","4","","","M","101.04","","","","","","NA"
"-55.33","47.14","WINTERLAND","8404241","2018-08-27 07:30","2018","08","27","07:30","15.2","","15.2","","100","","","","","","0","","","M","101.03","","","","","","NA"
"-55.33","47.14","WINTERLAND","8404241","2018-08-27 08:30","2018","08","27","08:30","16.9","","16.4","","97","","","","12","","4","","","M","100.98","","","","","","NA"
"-55.33","47.14","WINTERLAND","8404241","2018-08-27 09:30","2018","08","27","09:30","19.1","","15.7","","81","","","","11","","6","","","M","100.93","","","","","","NA"
"-55.33","47.14","WINTERLAND","8404241","2018-08-27 10:30","2018","08","27","10:30","20.5","","16.5","","78","","","","14","","9","","","M","100.91","","25","","","","NA"
"-55.33","47.14","WINTERLAND","8404241","2018-08-27 11:30","2018","08","27","11:30","21.6","","17.4","","77","","","","19","","15","","","M","100.84","","27","","","","NA"
"-55.33","47.14","WINTERLAND","8404241","2018-08-27 12:30","2018","08","27","12:30"
"-55.33","47.14","WINTERLAND","8404241","2018-08-27 13:30","2018","08","27","13:30","21.8","","17.7","","78","","","","17","","15","","","M","100.75","","28","","","","NA"
"-55.33","47.14","WINTERLAND","8404241","2018-08-27 14:30","2018","08","27","14:30","22.6","","17.5","","73","","","","22","","17","","","M","100.69","","28","","","","NA"
"-55.33","47.14","WINTERLAND","8404241","2018-08-27 15:30","2018","08","27","15:30","22.6","","17.3","","72","","","","21","","13","","","M","100.64","","28","","","","NA"
"-55.33","47.14","WINTERLAND","8404241","2018-08-27 16:30","2018","08","27","16:30","21.5","","16.7","","74","","","","21","","15","","","M","100.64","","27","","","","NA"
"-55.33","47.14","WINTERLAND","8404241","2018-08-27 17:30","2018","08","27","17:30","20.3","","17.7","","85","","","","31","","7","","","M","100.62","","26","","","","NA"
"-55.33","47.14","WINTERLAND","8404241","2018-08-27 18:30","2018","08","27","18:30","18.8","","17.2","","90","","","","30","","6","","","M","100.63","","","","","","NA"
"-55.33","47.14","WINTERLAND","8404241","2018-08-27 19:30","2018","08","27","19:30","18.0","","17.2","","95","","","","30","","6","","","M","100.63","","","","","","NA"
"-55.33","47.14","WINTERLAND","8404241","2018-08-27 20:30","2018","08","27","20:30","17.7","","17.2","","97","","","","","","0","","","M","100.63","","","","","","NA"
"-55.33","47.14","WINTERLAND","8404241","2018-08-27 21:30","2018","08","27","21:30","17.6","","17.1","","97","","","","16","","6","","","M","100.61","","","","","","NA"
"-55.33","47.14","WINTERLAND","8404241","2018-08-27 22:30","2018","08","27","22:30","17.4","","17.1","","98","","","","12","","4","","","M","100.59","","","","","","NA"
"-55.33","47.14","WINTERLAND","8404241","2018-08-27 23:30","2018","08","27","23:30","17.4","","17.2","","99","","","","32","","6","","","M","100.59","","","","","","NA"
"-55.33","47.14","WINTERLAND","8404241","2018-08-28 00:30","2018","08","28","00:30","17.1","","17.1","","100","","","","25","","6","","","M","100.59","","","","","","NA"
"-55.33","47.14","WINTERLAND","8404241","2018-08-28 01:30","2018","08","28","01:30","16.5","","16.4","","99","","","","","","0","","","M","100.55","","","","","","NA"
"-55.33","47.14","WINTERLAND","8404241","2018-08-28 02:30","2018","08","28","02:30","15.8","","15.8","","100","","","","","","0","","","M","100.55","","","","","","NA"
"-55.33","47.14","WINTERLAND","8404241","2018-08-28 03:30","2018","08","28","03:30","15.0","","15.0","","100","","","","","","0","","","M","100.56","","","","","","NA"
"-55.33","47.14","WINTERLAND","8404241","2018-08-28 04:30","2018","08","28","04:30","14.0","","14.0","","100","","","","","","0","","","M","100.55","","","","","","NA"
"-55.33","47.14","WINTERLAND","8404241","2018-08-28 05:30","2018","08","28","05:30","14.2","","14.2","","100","","","","29","","6","","","M","100.59","","","","","","NA"
"-55.33","47.14","WINTERLAND","8404241","2018-08-28 06:30","2018","08","28","06:30","15.4","","15.4","","100","","","","30","","6","","","M","100.58","","","","","","NA"
"-55.33","47.14","WINTERLAND","8404241","2018-08-28 07:30","2018","08","28","07:30","18.4","","18.1","","98","","","","29","","7","","","M","100.60","","","","","","NA"
"-55.33","47.14","WINTERLAND","8404241","2018-08-28 08:30","2018","08","28","08:30","19.5","","18.0","","91","","","","28","","6","","","M","100.57","","","","","","NA"
"-55.33","47.14","WINTERLAND","8404241","2018-08-28 09:30","2018","08","28","09:30","19.6","","17.7","","89","","","","30","","15","","","M","100.65","","","","","","NA"
"-55.33","47.14","WINTERLAND","8404241","2018-08-28 10:30","2018","08","28","10:30","20.0","","18.9","","93","","","","28","","17","","","M","100.66","","27","","","","NA"
"-55.33","47.14","WINTERLAND","8404241","2018-08-28 11:30","2018","08","28","11:30","21.6","","18.6","","83","","","","27","","15","","","M","100.62","","28","","","","NA"
"-55.33","47.14","WINTERLAND","8404241","2018-08-28 12:30","2018","08","28","12:30"
"-55.33","47.14","WINTERLAND","8404241","2018-08-28 13:30","2018","08","28","13:30","21.9","","18.6","","82","","","","30","","17","","","M","100.59","","28","","","","NA"
"-55.33","47.14","WINTERLAND","8404241","2018-08-28 14:30","2018","08","28","14:30","22.9","","19.0","","79","","","","29","","22","","","M","100.55","","30","","","","NA"
"-55.33","47.14","WINTERLAND","8404241","2018-08-28 15:30","2018","08","28","15:30","23.5","","17.3","","68","","","","28","","20","","","M","100.52","","29","","","","NA"
"-55.33","47.14","WINTERLAND","8404241","2018-08-28 16:30","2018","08","28","16:30","22.2","","17.0","","72","","","","30","","28","","","M","100.52","","27","","","","NA"
"-55.33","47.14","WINTERLAND","8404241","2018-08-28 17:30","2018","08","28","17:30","21.1","","17.7","","81","","","","29","","26","","","M","100.51","","27","","","","NA"
"-55.33","47.14","WINTERLAND","8404241","2018-08-28 18:30","2018","08","28","18:30","19.2","","17.2","","88","","","","28","","13","","","M","100.51","","","","","","NA"
"-55.33","47.14","WINTERLAND","8404241","2018-08-28 19:30","2018","08","28","19:30","17.9","","16.8","","93","","","","24","","9","","","M","100.53","","","","","","NA"
"-55.33","47.14","WINTERLAND","8404241","2018-08-28 20:30","2018","08","28","20:30","17.6","","17.3","","98","","","","25","","15","","","M","100.57","","","","","","NA"
"-55.33","47.14","WINTERLAND","8404241","2018-08-28 21:30","2018","08","28","21:30","17.4","","17.3","","99","","","","24","","11","","","M","100.57","","","","","","NA"
"-55.33","47.14","WINTERLAND","8404241","2018-08-28 22:30","2018","08","28","22:30","17.5","","17.4","","99","","","","23","","11","","","M","100.52","","","","","","NA"
"-55.33","47.14","WINTERLAND","8404241","2018-08-28 23:30","2018","08","28","23:30","18.1","","17.8","","98","","","","25","","9","","","M","100.50","","","","","","NA"
"-55.33","47.14","WINTERLAND","8404241","2018-08-29 00:30","2018","08","29","00:30","18.0","","17.7","","98","","","","26","","15","","","M","100.47","","","","","","NA"
"-55.33","47.14","WINTERLAND","8404241","2018-08-29 01:30","2018","08","29","01:30","18.3","","18.1","","99","","","","24","","13","","","M","100.39","","","","","","NA"
"-55.33","47.14","WINTERLAND","8404241","2018-08-29 02:30","2018","08","29","02:30","18.2","","17.9","","98","","","","23","","17","","","M","100.32","","","","","","NA"
"-55.33","47.14","WINTERLAND","8404241","2018-08-29 03:30","2018","08","29","03:30","17.3","","17.0","","98","","","","21","","22","","","M","100.20","","","","","","NA"
"-55.33","47.14","WINTERLAND","8404241","2018-08-29 04:30","2018","08","29","04:30","17.2","","17.0","","99","","","","20","","20","","","M","100.12","","","","","","NA"
"-55.33","47.14","WINTERLAND","8404241","2018-08-29 05:30","2018","08","29","05:30","17.4","","17.1","","98","","","","21","","15","","","M","100.14","","","","","","NA"
"-55.33","47.14","WINTERLAND","8404241","2018-08-29 06:30","2018","08","29","06:30","18.7","","17.7","","94","","","","21","","22","","","M","100.06","","","","","","NA"
"-55.33","47.14","WINTERLAND","8404241","2018-08-29 07:30","2018","08","29","07:30","19.4","","18.1","","92","","","","22","","28","","","M","99.99","","","","","","NA"
"-55.33","47.14","WINTERLAND","8404241","2018-08-29 08:30","2018","08","29","08:30","20.2","","19.0","","93","","","","22","","39","","","M","99.95","","27","","","","NA"
"-55.33","47.14","WINTERLAND","8404241","2018-08-29 09:30","2018","08","29","09:30","21.1","","19.9","","93","","","","23","","35","","","M","99.88","","29","","","","NA"
"-55.33","47.14","WINTERLAND","8404241","2018-08-29 10:30","2018","08","29","10:30","20.7","","20.3","","98","","","","24","","31","","","M","99.91","","29","","","","NA"
"-55.33","47.14","WINTERLAND","8404241","2018-08-29 11:30","2018","08","29","11:30","20.4","","20.4","","100","","","","24","","28","","","M","99.92","","28","","","","NA"
"-55.33","47.14","WINTERLAND","8404241","2018-08-29 12:30","2018","08","29","12:30","23.4","","21.2","","88","","","","26","","33","","","M","99.88","","32","","","","NA"
"-55.33","47.14","WINTERLAND","8404241","2018-08-29 13:30","2018","08","29","13:30","25.2","","21.1","","78","","","","28","","33","","","M","99.86","","34","","","","NA"
"-55.33","47.14","WINTERLAND","8404241","2018-08-29 14:30","2018","08","29","14:30","23.7","","18.5","","73","","","","29","","43","","","M","99.91","","30","","","","NA"
"-55.33","47.14","WINTERLAND","8404241","2018-08-29 15:30","2018","08","29","15:30","22.4","","17.9","","76","","","","28","","37","","","M","99.96","","28","","","","NA"
"-55.33","47.14","WINTERLAND","8404241","2018-08-29 16:30","2018","08","29","16:30","21.7","","17.7","","78","","","","28","","28","","","M","100.03","","27","","","","NA"
"-55.33","47.14","WINTERLAND","8404241","2018-08-29 17:30","2018","08","29","17:30","21.0","","17.7","","81","","","","29","","22","","","M","100.07","","27","","","","NA"
"-55.33","47.14","WINTERLAND","8404241","2018-08-29 18:30","2018","08","29","18:30","19.2","","17.2","","88","","","","30","","20","","","M","100.23","","","","","","NA"
"-55.33","47.14","WINTERLAND","8404241","2018-08-29 19:30","2018","08","29","19:30","18.3","","17.0","","92","","","","3","","11","","","M","100.36","","","","","","NA"
"-55.33","47.14","WINTERLAND","8404241","2018-08-29 20:30","2018","08","29","20:30","16.5","","15.6","","94","","","","7","","6","","","M","100.56","","","","","","NA"
"-55.33","47.14","WINTERLAND","8404241","2018-08-29 21:30","2018","08","29","21:30","15.7","","13.6","","87","","","","6","","11","","","M","100.69","","","","","","NA"
"-55.33","47.14","WINTERLAND","8404241","2018-08-29 22:30","2018","08","29","22:30","15.2","","12.9","","86","","","","7","","15","","","M","100.73","","","","","","NA"
"-55.33","47.14","WINTERLAND","8404241","2018-08-29 23:30","2018","08","29","23:30","14.8","","12.8","","88","","","","12","","13","","","M","100.82","","","","","","NA"
"-55.33","47.14","WINTERLAND","8404241","2018-08-30 00:30","2018","08","30","00:30","14.0","","11.4","","84","","","","11","","17","","","M","100.88","","","","","","NA"
"-55.33","47.14","WINTERLAND","8404241","2018-08-30 01:30","2018","08","30","01:30","13.6","","10.5","","82","","","","12","","11","","","M","100.90","","","","","","NA"
"-55.33","47.14","WINTERLAND","8404241","2018-08-30 02:30","2018","08","30","02:30","13.5","","10.8","","84","","","","12","","15","","","M","100.86","","","","","","NA"
"-55.33","47.14","WINTERLAND","8404241","2018-08-30 03:30","2018","08","30","03:30","13.6","","10.7","","83","","","","12","","20","","","M","100.83","","","","","","NA"
"-55.33","47.14","WINTERLAND","8404241","2018-08-30 04:30","2018","08","30","04:30","13.9","","10.8","","82","","","","11","","13","","","M","100.88","","","","","","NA"
"-55.33","47.14","WINTERLAND","8404241","2018-08-30 05:30","2018","08","30","05:30","13.3","","11.2","","87","","","","15","","17","","","M","100.90","","","","","","NA"
"-55.33","47.14","WINTERLAND","8404241","2018-08-30 06:30","2018","08","30","06:30","15.2","","11.8","","80","","","","14","","24","","","M","100.94","","","","","","NA"
"-55.33","47.14","WINTERLAND","8404241","2018-08-30 07:30","2018","08","30","07:30","16.1","","12.4","","79","","","","16","","22","","","M","101.00","","","","","","NA"
"-55.33","47.14","WINTERLAND","8404241","2018-08-30 08:30","2018","08","30","08:30","16.3","","13.2","","82","","","","16","","22","","","M","101.01","","","","","","NA"
"-55.33","47.14","WINTERLAND","8404241","2018-08-30 09:30","2018","08","30","09:30","16.6","","14.4","","87","","","","16","","26","","","M","100.97","","","","","","NA"
"-55.33","47.14","WINTERLAND","8404241","2018-08-30 10:30","2018","08","30","10:30","16.3","","14.5","","89","","","","16","","30","","","M","100.93","","","","","","NA"
"-55.33","47.14","WINTERLAND","8404241","2018-08-30 11:30","2018","08","30","11:30","18.1","","16.2","","89","","","","16","","20","","","M","100.89","","","","","","NA"
"-55.33","47.14","WINTERLAND","8404241","2018-08-30 12:30","2018","08","30","12:30","19.2","","16.8","","86","","","","16","","22","","","M","100.85","","","","","","NA"
"-55.33","47.14","WINTERLAND","8404241","2018-08-30 13:30","2018","08","30","13:30","18.2","","16.7","","91","","","","15","","20","","","M","100.76","","","","","","NA"
"-55.33","47.14","WINTERLAND","8404241","2018-08-30 14:30","2018","08","30","14:30","17.7","","16.7","","94","","","","16","","24","","","M","100.73","","","","","","NA"
"-55.33","47.14","WINTERLAND","8404241","2018-08-30 15:30","2018","08","30","15:30","18.3","","16.9","","92","","","","15","","22","","","M","100.68","","","","","","NA"
"-55.33","47.14","WINTERLAND","8404241","2018-08-30 16:30","2018","08","30","16:30","17.5","","16.6","","95","","","","17","","26","","","M","100.58","","","","","","NA"
"-55.33","47.14","WINTERLAND","8404241","2018-08-30 17:30","2018","08","30","17:30","17.0","","17.0","","100","","","","19","","20","","","M","100.60","","","","","","NA"
"-55.33","47.14","WINTERLAND","8404241","2018-08-30 18:30","2018","08","30","18:30","18.2","","18.2","","100","","","","22","","17","","","M","100.58","","","","","","NA"
"-55.33","47.14","WINTERLAND","8404241","2018-08-30 19:30","2018","08","30","19:30","18.4","","18.4","","100","","","","23","","13","","","M","100.60","","","","","","NA"
"-55.33","47.14","WINTERLAND","8404241","2018-08-30 20:30","2018","08","30","20:30","18.8","","18.8","","100","","","","24","","9","","","M","100.60","","","","","","NA"
"-55.33","47.14","WINTERLAND","8404241","2018-08-30 21:30","2018","08","30","21:30","18.8","","18.8","","100","","","","29","","19","","","M","100.63","","","","","","NA"
"-55.33","47.14","WINTERLAND","8404241","2018-08-30 22:30","2018","08","30","22:30","18.2","","18.2","","100","","","","28","","26","","","M","100.61","","","","","","NA"
"-55.33","47.14","WINTERLAND","8404241","2018-08-30 23:30","2018","08","30","23:30","17.8","","17.8","","100","","","","27","","13","","","M","100.63","","","","","","NA"
"-55.33","47.14","WINTERLAND","8404241","2018-08-31 00:30","2018","08","31","00:30","17.7","","17.7","","100","","","","29","","19","","","M","100.66","","","","","","NA"
"-55.33","47.14","WINTERLAND","8404241","2018-08-31 01:30","2018","08","31","01:30","17.1","","17.1","","100","","","","30","","13","","","M","100.72","","","","","","NA"
"-55.33","47.14","WINTERLAND","8404241","2018-08-31 02:30","2018","08","31","02:30","15.9","","15.2","","96","","","","34","","13","","","M","100.78","","","","","","NA"
"-55.33","47.14","WINTERLAND","8404241","2018-08-31 03:30","2018","08","31","03:30","14.6","","14.4","","99","","","","34","","13","","","M","100.88","","","","","","NA"
"-55.33","47.14","WINTERLAND","8404241","2018-08-31 04:30","2018","08","31","04:30","14.1","","13.6","","97","","","","33","","17","","","M","100.94","","","","","","NA"
"-55.33","47.14","WINTERLAND","8404241","2018-08-31 05:30","2018","08","31","05:30","14.1","","13.3","","95","","","","34","","20","","","M","101.04","","","","","","NA"
"-55.33","47.14","WINTERLAND","8404241","2018-08-31 06:30","2018","08","31","06:30","14.2","","13.3","","94","","","","34","","19","","","M","101.14","","","","","","NA"
"-55.33","47.14","WINTERLAND","8404241","2018-08-31 07:30","2018","08","31","07:30","14.9","","13.0","","88","","","","35","","28","","","M","101.24","","","","","","NA"
"-55.33","47.14","WINTERLAND","8404241","2018-08-31 08:30","2018","08","31","08:30","14.3","","12.1","","87","","","","34","","28","","","M","101.32","","","","","","NA"
"-55.33","47.14","WINTERLAND","8404241","2018-08-31 09:30","2018","08","31","09:30","15.3","","12.3","","82","","","","35","","31","","","M","101.39","","","","","","NA"
"-55.33","47.14","WINTERLAND","8404241","2018-08-31 10:30","2018","08","31","10:30","16.5","","12.8","","79","","","","36","","26","","","M","101.47","","","","","","NA"
"-55.33","47.14","WINTERLAND","8404241","2018-08-31 11:30","2018","08","31","11:30","16.5","","12.5","","77","","","","36","","28","","","M","101.55","","","","","","NA"
"-55.33","47.14","WINTERLAND","8404241","2018-08-31 12:30","2018","08","31","12:30","17.2","","12.1","","72","","","","1","","31","","","M","101.64","","","","","","NA"
"-55.33","47.14","WINTERLAND","8404241","2018-08-31 13:30","2018","08","31","13:30","17.7","","11.9","","69","","","","2","","24","","","M","101.70","","","","","","NA"
"-55.33","47.14","WINTERLAND","8404241","2018-08-31 14:30","2018","08","31","14:30","17.6","","11.7","","68","","","","1","","24","","","M","101.79","","","","","","NA"
"-55.33","47.14","WINTERLAND","8404241","2018-08-31 15:30","2018","08","31","15:30","17.0","","11.3","","69","","","","3","","20","","","M","101.89","","","","","","NA"
"-55.33","47.14","WINTERLAND","8404241","2018-08-31 16:30","2018","08","31","16:30","17.3","","10.5","","64","","","","1","","28","","","M","101.94","","","","","","NA"
"-55.33","47.14","WINTERLAND","8404241","2018-08-31 17:30","2018","08","31","17:30","15.4","","10.5","","73","","","","4","","24","","","M","102.05","","","","","","NA"
"-55.33","47.14","WINTERLAND","8404241","2018-08-31 18:30","2018","08","31","18:30","13.9","","10.5","","80","","","","6","","9","","","M","102.16","","","","","","NA"
"-55.33","47.14","WINTERLAND","8404241","2018-08-31 19:30","2018","08","31","19:30","13.1","","9.8","","80","","","","7","","15","","","M","102.28","","","","","","NA"
"-55.33","47.14","WINTERLAND","8404241","2018-08-31 20:30","2018","08","31","20:30","12.6","","9.6","","82","","","","8","","11","","","M","102.39","","","","","","NA"
"-55.33","47.14","WINTERLAND","8404241","2018-08-31 21:30","2018","08","31","21:30","11.6","","8.2","","80","","","","5","","17","","","M","102.46","","","","","","NA"
"-55.33","47.14","WINTERLAND","8404241","2018-08-31 22:30","2018","08","31","22:30","10.4","","8.4","","87","","","","7","","17","","","M","102.45","","","","","","NA"
"-55.33","47.14","WINTERLAND","8404241","2018-08-31 23:30","2018","08","31","23:30","8.6","","7.8","","95","","","","5","","11","","","M","102.53","","","","","","NA"
