"Longitude (x)","Latitude (y)","Station Name","Climate ID","Date/Time (LST)","Year","Month","Day","Time (LST)","Temp (°C)","Temp Flag","Dew Point Temp (°C)","Dew Point Temp Flag","Rel Hum (%)","Rel Hum Flag","Precip. Amount (mm)","Precip. Amount Flag","Wind Dir (10s deg)","Wind Dir Flag","Wind Spd (km/h)","Wind Spd Flag","Visibility (km)","Visibility Flag","Stn Press (kPa)","Stn Press Flag","Hmdx","Hmdx Flag","Wind Chill","Wind Chill Flag","Weather"
"-105.14","69.11","CAMBRIDGE BAY A","2400601","2023-05-01 00:00","2023","05","01","00:00","-14.1","","-15.9","","86","","","","36","","2","","9.7","","101.91","","","","-15","","Fog"
"-105.14","69.11","CAMBRIDGE BAY A","2400601","2023-05-01 01:00","2023","05","01","01:00","-13.2","","-14.9","","87","","","","26","","5","","1.0","","101.92","","","","-17","","Fog"
"-105.14","69.11","CAMBRIDGE BAY A","2400601","2023-05-01 02:00","2023","05","01","02:00","-15.0","","-16.8","","86","","","","30","","9","","1.2","","101.92","","","","-21","","Fog"
"-105.14","69.11","CAMBRIDGE BAY A","2400601","2023-05-01 03:00","2023","05","01","03:00","-14.2","","-16.1","","86","","","","35","","6","","0.2","","101.90","","","","-18","","Freezing Fog"
"-105.14","69.11","CAMBRIDGE BAY A","2400601","2023-05-01 04:00","2023","05","01","04:00","-14.2","","-16.1","","86","","","","1","","5","","0.2","","101.90","","","","-18","","Freezing Fog"
"-105.14","69.11","CAMBRIDGE BAY A","2400601","2023-05-01 05:00","2023","05","01","05:00","-13.7","","-15.6","","86","","","","36","","2","","0.4","","101.89","","","","-15","","Freezing Fog"
"-105.14","69.11","CAMBRIDGE BAY A","2400601","2023-05-01 06:00","2023","05","01","06:00","-12.2","","-13.9","","88","","","","27","","7","","0.2","","101.89","","","","-17","","Freezing Fog"
"-105.14","69.11","CAMBRIDGE BAY A","2400601","2023-05-01 07:00","2023","05","01","07:00","-11.7","","-13.3","","88","","","","31","","4","","1.2","","101.89","","","","-14","","Fog"
"-105.14","69.11","CAMBRIDGE BAY A","2400601","2023-05-01 08:00","2023","05","01","08:00","-11.1","","-12.7","","88","","","","4","","6","","0.6","","101.85","","","","-15","","Freezing Fog"
"-105.14","69.11","CAMBRIDGE BAY A","2400601","2023-05-01 09:00","2023","05","01","09:00","-10.7","","-12.2","","88","","","","5","","4","","0.6","","101.84","","","","-13","","Freezing Fog"
"-105.14","69.11","CAMBRIDGE BAY A","2400601","2023-05-01 10:00","2023","05","01","10:00","-10.1","","-11.6","","89","","","","8","","6","","2.0","","101.79","","","","-14","","Fog"
"-105.14","69.11","CAMBRIDGE BAY A","2400601","2023-05-01 11:00","2023","05","01","11:00","-9.5","","-10.9","","90","","","","8","","9","","4.0","","101.76","","","","-14","","Fog"
"-105.14","69.11","CAMBRIDGE BAY A","2400601","2023-05-01 12:00","2023","05","01","12:00","-8.9","","-10.3","","90","","","","7","","11","","17.7","","101.73","","","","-14","","NA"
"-105.14","69.11","CAMBRIDGE BAY A","2400601","2023-05-01 13:00","2023","05","01","13:00","-8.1","","-9.3","","91","","","","7","","13","","17.7","","101.69","","","","-14","","NA"
"-105.14","69.11","CAMBRIDGE BAY A","2400601","2023-05-01 14:00","2023","05","01","14:00","-6.9","","-8.0","","92","","","","11","","15","","24.1","","101.66","","","","-13","","Mostly Cloudy"
"-105.14","69.11","CAMBRIDGE BAY A","2400601","2023-05-01 15:00","2023","05","01","15:00","-6.1","","-7.2","","92","","","","12","","16","","24.1","","101.62","","","","-12","","NA"
"-105.14","69.11","CAMBRIDGE BAY A","2400601","2023-05-01 16:00","2023","05","01","16:00","-6.2","","-7.4","","92","","","","12","","17","","24.1","","101.59","","","","-12","","NA"
"-105.14","69.11","CAMBRIDGE BAY A","2400601","2023-05-01 17:00","2023","05","01","17:00","-6.2","","-8.2","","86","","","","12","","24","","24.1","","101.55","","","","-14","","Mostly Cloudy"
"-105.14","69.11","CAMBRIDGE BAY A","2400601","2023-05-01 18:00","2023","05","01","18:00","-6.1","","-8.5","","84","","","","13","","20","","24.1","","101.51","","","","-13","","NA"
"-105.14","69.11","CAMBRIDGE BAY A","2400601","2023-05-01 19:00","2023","05","01","19:00","-6.4","","-8.7","","84","","","","11","","26","","24.1","","101.47","","","","-14","","NA"
"-105.14","69.11","CAMBRIDGE BAY A","2400601","2023-05-01 20:00","2023","05","01","20:00","-6.7","","-8.9","","84","","","","10","","23","","24.1","","101.43","","","","-14","","Mostly Cloudy"
"-105.14","69.11","CAMBRIDGE BAY A","2400601","2023-05-01 21:00","2023","05","01","21:00","-8.1","","-9.4","","90","","","","12","","18","","24.1","","101.39","","","","-15","","NA"
"-105.14","69.11","CAMBRIDGE BAY A","2400601","2023-05-01 22:00","2023","05","01","22:00","-7.7","","-8.9","","91","","","","11","","16","","24.1","","101.36","","","","-14","","NA"
"-105.14","69.11","CAMBRIDGE BAY A","2400601","2023-05-01 23:00","2023","05","01","23:00","-8.3","","-9.3","","93","","","","11","","18","","24.1","","101.34","","","","-15","","Cloudy"
"-105.14","69.11","CAMBRIDGE BAY A","2400601","2023-05-02 00:00","2023","05","02","00:00","-8.9","","-9.9","","92","","","","12","","21","","3.2","","101.31","","","","-17","","Fog"
"-105.14","69.11","CAMBRIDGE BAY A","2400601","2023-05-02 01:00","2023","05","02","01:00","-9.6","","-10.8","","91","","","","12","","21","","1.2","","101.30","","","","-18","","Fog"
"-105.14","69.11","CAMBRIDGE BAY A","2400601","2023-05-02 02:00","2023","05","02","02:00","-10.9","","-12.4","","89","","","","11","","18","","1.2","","101.28","","","","-19","","Fog"
"-105.14","69.11","CAMBRIDGE BAY A","2400601","2023-05-02 03:00","2023","05","02","03:00","-10.7","","-12.1","","89","","","","8","","14","","1.2","","101.24","","","","-17","","Fog"
"-105.14","69.11","CAMBRIDGE BAY A","2400601","2023-05-02 04:00","2023","05","02","04:00","-10.4","","-11.9","","89","","","","6","","11","","4.0","","101.21","","","","-16","","Fog"
"-105.14","69.11","CAMBRIDGE BAY A","2400601","2023-05-02 05:00","2023","05","02","05:00","-9.5","","-10.8","","90","","","","3","","17","","19.3","","101.17","","","","-17","","Mostly Cloudy"
"-105.14","69.11","CAMBRIDGE BAY A","2400601","2023-05-02 06:00","2023","05","02","06:00","-9.0","","-10.4","","90","","","","8","","13","","19.3","","101.18","","","","-15","","NA"
"-105.14","69.11","CAMBRIDGE BAY A","2400601","2023-05-02 07:00","2023","05","02","07:00","-8.6","","-9.9","","90","","","","5","","14","","19.3","","101.17","","","","-15","","NA"
"-105.14","69.11","CAMBRIDGE BAY A","2400601","2023-05-02 08:00","2023","05","02","08:00","-8.2","","-9.5","","90","","","","5","","24","","24.1","","101.11","","","","-16","","Cloudy"
"-105.14","69.11","CAMBRIDGE BAY A","2400601","2023-05-02 09:00","2023","05","02","09:00","-7.7","","-9.0","","91","","","","5","","22","","24.1","","101.09","","","","-15","","NA"
"-105.14","69.11","CAMBRIDGE BAY A","2400601","2023-05-02 10:00","2023","05","02","10:00","-7.6","","-9.0","","90","","","","4","","25","","24.1","","101.06","","","","-16","","NA"
"-105.14","69.11","CAMBRIDGE BAY A","2400601","2023-05-02 11:00","2023","05","02","11:00","-7.2","","-8.6","","90","","","","5","","22","","24.1","","101.06","","","","-15","","Cloudy"
"-105.14","69.11","CAMBRIDGE BAY A","2400601","2023-05-02 12:00","2023","05","02","12:00","-6.2","","-7.7","","90","","","","6","","24","","24.1","","101.01","","","","-14","","NA"
"-105.14","69.11","CAMBRIDGE BAY A","2400601","2023-05-02 13:00","2023","05","02","13:00","-5.7","","-7.3","","89","","","","6","","21","","24.1","","101.01","","","","-13","","NA"
"-105.14","69.11","CAMBRIDGE BAY A","2400601","2023-05-02 14:00","2023","05","02","14:00","-5.3","","-7.1","","88","","","","6","","23","","24.1","","100.99","","","","-12","","Cloudy"
"-105.14","69.11","CAMBRIDGE BAY A","2400601","2023-05-02 15:00","2023","05","02","15:00","-4.9","","-6.3","","90","","","","6","","20","","24.1","","101.00","","","","-11","","NA"
"-105.14","69.11","CAMBRIDGE BAY A","2400601","2023-05-02 16:00","2023","05","02","16:00","-4.7","","-6.1","","90","","","","7","","18","","24.1","","100.98","","","","-11","","NA"
"-105.14","69.11","CAMBRIDGE BAY A","2400601","2023-05-02 17:00","2023","05","02","17:00","-4.6","","-5.8","","92","","","","7","","16","","24.1","","100.95","","","","-10","","Cloudy"
"-105.14","69.11","CAMBRIDGE BAY A","2400601","2023-05-02 18:00","2023","05","02","18:00","-4.5","","-5.7","","92","","","","8","","12","","24.1","","100.94","","","","-9","","NA"
"-105.14","69.11","CAMBRIDGE BAY A","2400601","2023-05-02 19:00","2023","05","02","19:00","-4.5","","-5.4","","93","","","","8","","14","","19.3","","100.94","","","","-10","","NA"
"-105.14","69.11","CAMBRIDGE BAY A","2400601","2023-05-02 20:00","2023","05","02","20:00","-4.7","","-5.3","","95","","","","9","","10","","3.2","","100.95","","","","-9","","Fog"
"-105.14","69.11","CAMBRIDGE BAY A","2400601","2023-05-02 21:00","2023","05","02","21:00","-4.9","","-5.6","","95","","","","9","","8","","1.2","","100.94","","","","-8","","Fog"
"-105.14","69.11","CAMBRIDGE BAY A","2400601","2023-05-02 22:00","2023","05","02","22:00","-5.2","","-5.9","","95","","","","8","","8","","1.2","","100.89","","","","-9","","Fog"
"-105.14","69.11","CAMBRIDGE BAY A","2400601","2023-05-02 23:00","2023","05","02","23:00","-5.6","","-6.5","","94","","","","11","","12","","16.1","","100.89","","","","-11","","Cloudy"
"-105.14","69.11","CAMBRIDGE BAY A","2400601","2023-05-03 00:00","2023","05","03","00:00","-6.2","","-7.2","","93","","","","11","","9","","19.3","","100.92","","","","-10","","NA"
"-105.14","69.11","CAMBRIDGE BAY A","2400601","2023-05-03 01:00","2023","05","03","01:00","-6.4","","-7.3","","93","","","","10","","9","","19.3","","100.92","","","","-11","","NA"
"-105.14","69.11","CAMBRIDGE BAY A","2400601","2023-05-03 02:00","2023","05","03","02:00","-6.6","","-7.6","","93","","","","8","","10","","19.3","","100.89","","","","-11","","Cloudy"
"-105.14","69.11","CAMBRIDGE BAY A","2400601","2023-05-03 03:00","2023","05","03","03:00","-6.6","","-7.6","","93","","","","10","","10","","1.6","","100.89","","","","-11","","Fog"
"-105.14","69.11","CAMBRIDGE BAY A","2400601","2023-05-03 04:00","2023","05","03","04:00","-6.7","","-7.7","","93","","","","9","","9","","1.6","","100.91","","","","-11","","Fog"
"-105.14","69.11","CAMBRIDGE BAY A","2400601","2023-05-03 05:00","2023","05","03","05:00","-6.5","","-7.5","","93","","","","11","","12","","24.1","","100.92","","","","-12","","Mostly Cloudy"
"-105.14","69.11","CAMBRIDGE BAY A","2400601","2023-05-03 06:00","2023","05","03","06:00","-6.4","","-7.3","","93","","","","12","","13","","24.1","","100.93","","","","-12","","NA"
"-105.14","69.11","CAMBRIDGE BAY A","2400601","2023-05-03 07:00","2023","05","03","07:00","-6.5","","-7.6","","92","","","","12","","15","","24.1","","100.90","","","","-12","","NA"
"-105.14","69.11","CAMBRIDGE BAY A","2400601","2023-05-03 08:00","2023","05","03","08:00","-5.7","","-6.7","","93","","","","14","","17","","19.3","","100.91","","","","-12","","Cloudy"
"-105.14","69.11","CAMBRIDGE BAY A","2400601","2023-05-03 09:00","2023","05","03","09:00","-5.0","","-5.9","","93","","","","13","","21","","6.4","","100.86","","","","-12","","Fog"
"-105.14","69.11","CAMBRIDGE BAY A","2400601","2023-05-03 10:00","2023","05","03","10:00","-4.4","","-5.2","","94","","","","13","","24","","4.8","","100.82","","","","-11","","Snow,Fog"
"-105.14","69.11","CAMBRIDGE BAY A","2400601","2023-05-03 11:00","2023","05","03","11:00","-4.7","","-5.6","","93","","","","14","","24","","4.8","","100.82","","","","-12","","Snow,Fog"
"-105.14","69.11","CAMBRIDGE BAY A","2400601","2023-05-03 12:00","2023","05","03","12:00","-4.4","","-5.3","","93","","","","12","","28","","4.8","","100.76","","","","-12","","Snow,Fog"
"-105.14","69.11","CAMBRIDGE BAY A","2400601","2023-05-03 13:00","2023","05","03","13:00","-4.0","","-4.9","","94","","","","13","","31","","4.8","","100.71","","","","-12","","Snow,Fog,Blowing Snow"
"-105.14","69.11","CAMBRIDGE BAY A","2400601","2023-05-03 14:00","2023","05","03","14:00","-3.4","","-4.2","","94","","","","13","","31","","4.8","","100.65","","","","-11","","Snow,Fog,Blowing Snow"
"-105.14","69.11","CAMBRIDGE BAY A","2400601","2023-05-03 15:00","2023","05","03","15:00","-2.9","","-4.0","","92","","","","13","","31","","9.7","","100.63","","","","-10","","Snow,Blowing Snow"
"-105.14","69.11","CAMBRIDGE BAY A","2400601","2023-05-03 16:00","2023","05","03","16:00","-2.8","","-3.7","","94","","","","12","","32","","9.7","","100.53","","","","-10","","Snow,Blowing Snow"
"-105.14","69.11","CAMBRIDGE BAY A","2400601","2023-05-03 17:00","2023","05","03","17:00","-1.9","","-3.0","","93","","","","13","","35","","9.7","","100.42","","","","-9","","Snow,Blowing Snow"
"-105.14","69.11","CAMBRIDGE BAY A","2400601","2023-05-03 18:00","2023","05","03","18:00","-1.9","","-3.0","","92","","","","13","","34","","9.7","","100.36","","","","-9","","Snow,Blowing Snow"
"-105.14","69.11","CAMBRIDGE BAY A","2400601","2023-05-03 19:00","2023","05","03","19:00","-1.7","","-2.7","","93","","","","13","","41","","8.1","","100.24","","","","-10","","Snow,Blowing Snow"
"-105.14","69.11","CAMBRIDGE BAY A","2400601","2023-05-03 20:00","2023","05","03","20:00","-1.5","","-2.3","","94","","","","13","","42","","1.0","","100.09","","","","-10","","Snow"
"-105.14","69.11","CAMBRIDGE BAY A","2400601","2023-05-03 21:00","2023","05","03","21:00","-1.2","","-1.7","","96","","","","13","","47","","9.7","","99.97","","","","-10","","Snow,Blowing Snow"
"-105.14","69.11","CAMBRIDGE BAY A","2400601","2023-05-03 22:00","2023","05","03","22:00","-0.8","","-1.3","","97","","","","14","","54","","4.8","","99.87","","","","-10","","Snow,Blowing Snow"
"-105.14","69.11","CAMBRIDGE BAY A","2400601","2023-05-03 23:00","2023","05","03","23:00","-0.4","","-0.9","","96","","","","14","","52","","4.8","","99.73","","","","-9","","Snow,Blowing Snow"
"-105.14","69.11","CAMBRIDGE BAY A","2400601","2023-05-04 00:00","2023","05","04","00:00","-0.5","","-1.0","","96","","","","15","","37","","4.8","","99.70","","","","-8","","Snow,Blowing Snow"
"-105.14","69.11","CAMBRIDGE BAY A","2400601","2023-05-04 01:00","2023","05","04","01:00","-0.4","","-0.9","","96","","","","16","","42","","4.8","","99.55","","","","-8","","Snow,Blowing Snow"
"-105.14","69.11","CAMBRIDGE BAY A","2400601","2023-05-04 02:00","2023","05","04","02:00","-0.4","","-1.0","","95","","","","17","","42","","12.9","","99.48","","","","-8","","Blowing Snow"
"-105.14","69.11","CAMBRIDGE BAY A","2400601","2023-05-04 03:00","2023","05","04","03:00","0.1","","-0.6","","95","","","","18","","40","","12.9","","99.44","","","","","","Freezing Rain,Blowing Snow"
"-105.14","69.11","CAMBRIDGE BAY A","2400601","2023-05-04 04:00","2023","05","04","04:00","0.3","","-0.5","","94","","","","18","","31","","17.7","","99.44","","","","","","NA"
"-105.14","69.11","CAMBRIDGE BAY A","2400601","2023-05-04 05:00","2023","05","04","05:00","0.4","","-0.5","","94","","","","21","","23","","24.1","","99.55","","","","","","Mostly Cloudy"
"-105.14","69.11","CAMBRIDGE BAY A","2400601","2023-05-04 06:00","2023","05","04","06:00","0.1","","-1.2","","91","","","","25","","32","","24.1","","99.68","","","","","","NA"
"-105.14","69.11","CAMBRIDGE BAY A","2400601","2023-05-04 07:00","2023","05","04","07:00","-0.2","","-1.5","","91","","","","27","","51","","24.1","","99.76","","","","-8","","NA"
"-105.14","69.11","CAMBRIDGE BAY A","2400601","2023-05-04 08:00","2023","05","04","08:00","-0.4","","-2.1","","89","","","","28","","40","","24.1","","99.97","","","","-8","","Blowing Snow"
"-105.14","69.11","CAMBRIDGE BAY A","2400601","2023-05-04 09:00","2023","05","04","09:00","-0.7","","-2.9","","85","","","","27","","47","","19.3","","100.12","","","","-9","","Blowing Snow"
"-105.14","69.11","CAMBRIDGE BAY A","2400601","2023-05-04 10:00","2023","05","04","10:00","-1.0","","-2.9","","87","","","","27","","48","","12.9","","100.23","","","","-9","","Snow,Blowing Snow"
"-105.14","69.11","CAMBRIDGE BAY A","2400601","2023-05-04 11:00","2023","05","04","11:00","-1.0","","-3.3","","85","","","","27","","48","","14.5","","100.36","","","","-9","","Snow,Blowing Snow"
"-105.14","69.11","CAMBRIDGE BAY A","2400601","2023-05-04 12:00","2023","05","04","12:00","-1.0","","-3.4","","84","","","","27","","55","","14.5","","100.44","","","","-10","","Snow,Blowing Snow"
"-105.14","69.11","CAMBRIDGE BAY A","2400601","2023-05-04 13:00","2023","05","04","13:00","-1.0","","-2.9","","87","","","","28","","46","","19.3","","100.64","","","","-9","","Snow,Blowing Snow"
"-105.14","69.11","CAMBRIDGE BAY A","2400601","2023-05-04 14:00","2023","05","04","14:00","-0.9","","-3.2","","84","","","","28","","45","","16.1","","100.82","","","","-9","","Snow,Blowing Snow"
"-105.14","69.11","CAMBRIDGE BAY A","2400601","2023-05-04 15:00","2023","05","04","15:00","0.0","","-2.6","","83","","","","26","","39","","24.1","","100.89","","","","-7","","Blowing Snow"
"-105.14","69.11","CAMBRIDGE BAY A","2400601","2023-05-04 16:00","2023","05","04","16:00","0.3","","-2.4","","82","","","","26","","45","","24.1","","100.95","","","","","","Blowing Snow"
"-105.14","69.11","CAMBRIDGE BAY A","2400601","2023-05-04 17:00","2023","05","04","17:00","0.5","","-1.9","","84","","","","26","","39","","24.1","","101.02","","","","","","Mainly Clear"
"-105.14","69.11","CAMBRIDGE BAY A","2400601","2023-05-04 18:00","2023","05","04","18:00","0.6","","-1.5","","86","","","","25","","38","","24.1","","101.11","","","","","","NA"
"-105.14","69.11","CAMBRIDGE BAY A","2400601","2023-05-04 19:00","2023","05","04","19:00","0.7","","-1.6","","84","","","","26","","43","","24.1","","101.18","","","","","","Blowing Snow"
"-105.14","69.11","CAMBRIDGE BAY A","2400601","2023-05-04 20:00","2023","05","04","20:00","0.0","","-1.9","","87","","","","26","","45","","24.1","","101.26","","","","-8","","Blowing Snow"
"-105.14","69.11","CAMBRIDGE BAY A","2400601","2023-05-04 21:00","2023","05","04","21:00","-0.7","","-2.5","","88","","","","26","","36","","24.1","","101.39","","","","-8","","Blowing Snow"
"-105.14","69.11","CAMBRIDGE BAY A","2400601","2023-05-04 22:00","2023","05","04","22:00","-2.1","","-3.5","","91","","","","27","","26","","24.1","","101.55","","","","-9","","Blowing Snow"
"-105.14","69.11","CAMBRIDGE BAY A","2400601","2023-05-04 23:00","2023","05","04","23:00","-3.8","","-5.1","","91","","","","27","","25","","24.1","","101.65","","","","-11","","Blowing Snow"
"-105.14","69.11","CAMBRIDGE BAY A","2400601","2023-05-05 00:00","2023","05","05","00:00","-4.7","","-5.8","","92","","","","28","","25","","24.1","","101.79","","","","-12","","Blowing Snow"
"-105.14","69.11","CAMBRIDGE BAY A","2400601","2023-05-05 01:00","2023","05","05","01:00","-5.5","","-6.8","","91","","","","28","","22","","24.1","","101.92","","","","-13","","Blowing Snow"
"-105.14","69.11","CAMBRIDGE BAY A","2400601","2023-05-05 02:00","2023","05","05","02:00","-5.4","","-7.0","","89","","","","29","","19","","24.1","","102.03","","","","-12","","Mainly Clear"
"-105.14","69.11","CAMBRIDGE BAY A","2400601","2023-05-05 03:00","2023","05","05","03:00","-7.6","","-8.7","","92","","","","27","","18","","24.1","","102.11","","","","-14","","NA"
"-105.14","69.11","CAMBRIDGE BAY A","2400601","2023-05-05 04:00","2023","05","05","04:00","-8.4","","-9.8","","90","","","","27","","12","","24.1","","102.24","","","","-14","","NA"
"-105.14","69.11","CAMBRIDGE BAY A","2400601","2023-05-05 05:00","2023","05","05","05:00","-6.3","","-8.1","","87","","","","29","","21","","24.1","","102.34","","","","-13","","Mainly Clear"
"-105.14","69.11","CAMBRIDGE BAY A","2400601","2023-05-05 06:00","2023","05","05","06:00","-6.2","","-8.4","","85","","","","28","","8","","24.1","","102.44","","","","-10","","NA"
"-105.14","69.11","CAMBRIDGE BAY A","2400601","2023-05-05 07:00","2023","05","05","07:00","-5.7","","-8.0","","84","","","","30","","11","","24.1","","102.52","","","","-10","","NA"
"-105.14","69.11","CAMBRIDGE BAY A","2400601","2023-05-05 08:00","2023","05","05","08:00","-5.0","","-7.5","","83","","","","28","","14","","24.1","","102.52","","","","-10","","Mainly Clear"
"-105.14","69.11","CAMBRIDGE BAY A","2400601","2023-05-05 09:00","2023","05","05","09:00","-4.8","","-7.2","","83","","","","26","","14","","24.1","","102.58","","","","-10","","NA"
"-105.14","69.11","CAMBRIDGE BAY A","2400601","2023-05-05 10:00","2023","05","05","10:00","-3.9","","-6.5","","82","","","","20","","8","","24.1","","102.60","","","","-7","","NA"
"-105.14","69.11","CAMBRIDGE BAY A","2400601","2023-05-05 11:00","2023","05","05","11:00","-3.0","","-5.4","","84","","","","25","","15","","24.1","","102.62","","","","-8","","Mainly Clear"
"-105.14","69.11","CAMBRIDGE BAY A","2400601","2023-05-05 12:00","2023","05","05","12:00","-1.5","","-4.6","","80","","","","22","","5","","24.1","","102.67","","","","-3","","NA"
"-105.14","69.11","CAMBRIDGE BAY A","2400601","2023-05-05 13:00","2023","05","05","13:00","-0.7","","-3.3","","83","","","","21","","12","","24.1","","102.71","","","","-5","","NA"
"-105.14","69.11","CAMBRIDGE BAY A","2400601","2023-05-05 14:00","2023","05","05","14:00","0.6","","-2.7","","78","","","","12","","3","","24.1","","102.70","","","","","","Mainly Clear"
"-105.14","69.11","CAMBRIDGE BAY A","2400601","2023-05-05 15:00","2023","05","05","15:00","0.8","","-2.0","","82","","","","12","","6","","24.1","","102.70","","","","","","NA"
"-105.14","69.11","CAMBRIDGE BAY A","2400601","2023-05-05 16:00","2023","05","05","16:00","0.8","","-1.8","","82","","","","17","","11","","24.1","","102.71","","","","","","NA"
"-105.14","69.11","CAMBRIDGE BAY A","2400601","2023-05-05 17:00","2023","05","05","17:00","0.5","","-1.9","","84","","","","15","","6","","24.1","","102.70","","","","","","Mostly Cloudy"
"-105.14","69.11","CAMBRIDGE BAY A","2400601","2023-05-05 18:00","2023","05","05","18:00","0.4","","-1.5","","87","","","","15","","5","","24.1","","102.65","","","","","","NA"
"-105.14","69.11","CAMBRIDGE BAY A","2400601","2023-05-05 19:00","2023","05","05","19:00","0.8","","-1.1","","87","","","","16","","14","","24.1","","102.61","","","","","","NA"
"-105.14","69.11","CAMBRIDGE BAY A","2400601","2023-05-05 20:00","2023","05","05","20:00","0.6","","-1.4","","87","","","","16","","22","","24.1","","102.59","","","","","","Mostly Cloudy"
"-105.14","69.11","CAMBRIDGE BAY A","2400601","2023-05-05 21:00","2023","05","05","21:00","0.6","","-1.3","","87","","","","16","","18","","24.1","","102.56","","","","","","NA"
"-105.14","69.11","CAMBRIDGE BAY A","2400601","2023-05-05 22:00","2023","05","05","22:00","0.6","","-1.1","","88","","","","16","","19","","24.1","","102.56","","","","","","NA"
"-105.14","69.11","CAMBRIDGE BAY A","2400601","2023-05-05 23:00","2023","05","05","23:00","0.4","","-0.9","","91","","","","16","","19","","24.1","","102.54","","","","","","Mostly Cloudy"
"-105.14","69.11","CAMBRIDGE BAY A","2400601","2023-05-06 00:00","2023","05","06","00:00","0.4","","-0.9","","91","","","","16","","21","","24.1","","102.48","","","","","","NA"
"-105.14","69.11","CAMBRIDGE BAY A","2400601","2023-05-06 01:00","2023","05","06","01:00","-0.8","","-2.0","","91","","","","17","","23","","24.1","","102.48","","","","-7","","NA"
"-105.14","69.11","CAMBRIDGE BAY A","2400601","2023-05-06 02:00","2023","05","06","02:00","-1.7","","-2.8","","92","","","","17","","21","","24.1","","102.44","","","","-8","","Mostly Cloudy"
"-105.14","69.11","CAMBRIDGE BAY A","2400601","2023-05-06 03:00","2023","05","06","03:00","-2.1","","-3.2","","92","","","","17","","22","","24.1","","102.43","","","","-8","","NA"
"-105.14","69.11","CAMBRIDGE BAY A","2400601","2023-05-06 04:00","2023","05","06","04:00","-2.1","","-3.6","","90","","","","16","","24","","24.1","","102.39","","","","-8","","NA"
"-105.14","69.11","CAMBRIDGE BAY A","2400601","2023-05-06 05:00","2023","05","06","05:00","-2.2","","-3.8","","89","","","","16","","19","","24.1","","102.40","","","","-8","","Mostly Cloudy"
"-105.14","69.11","CAMBRIDGE BAY A","2400601","2023-05-06 06:00","2023","05","06","06:00","-2.3","","-4.0","","88","","","","16","","25","","24.1","","102.36","","","","-9","","NA"
"-105.14","69.11","CAMBRIDGE BAY A","2400601","2023-05-06 07:00","2023","05","06","07:00","-1.5","","-3.4","","87","","","","16","","26","","24.1","","102.36","","","","-8","","NA"
"-105.14","69.11","CAMBRIDGE BAY A","2400601","2023-05-06 08:00","2023","05","06","08:00","-0.2","","-2.2","","86","","","","16","","21","","24.1","","102.34","","","","-6","","Mostly Cloudy"
"-105.14","69.11","CAMBRIDGE BAY A","2400601","2023-05-06 09:00","2023","05","06","09:00","0.5","","-1.6","","86","","","","14","","18","","24.1","","102.31","","","","","","NA"
"-105.14","69.11","CAMBRIDGE BAY A","2400601","2023-05-06 10:00","2023","05","06","10:00","1.0","","-1.5","","84","","","","14","","18","","24.1","","102.30","","","","","","NA"
"-105.14","69.11","CAMBRIDGE BAY A","2400601","2023-05-06 11:00","2023","05","06","11:00","1.3","","-1.9","","79","","","","14","","19","","24.1","","102.22","","","","","","Cloudy"
"-105.14","69.11","CAMBRIDGE BAY A","2400601","2023-05-06 12:00","2023","05","06","12:00","1.1","","-1.6","","83","","","","13","","19","","24.1","","102.20","","","","","","NA"
"-105.14","69.11","CAMBRIDGE BAY A","2400601","2023-05-06 13:00","2023","05","06","13:00","0.9","","-1.7","","83","","","","12","","23","","24.1","","102.09","","","","","","NA"
"-105.14","69.11","CAMBRIDGE BAY A","2400601","2023-05-06 14:00","2023","05","06","14:00","0.9","","-1.5","","84","","","","11","","23","","24.1","","102.04","","","","","","Cloudy"
"-105.14","69.11","CAMBRIDGE BAY A","2400601","2023-05-06 15:00","2023","05","06","15:00","1.0","","-1.3","","84","","","","12","","26","","24.1","","101.99","","","","","","NA"
"-105.14","69.11","CAMBRIDGE BAY A","2400601","2023-05-06 16:00","2023","05","06","16:00","0.8","","-1.2","","86","","","","11","","22","","24.1","","101.96","","","","","","NA"
"-105.14","69.11","CAMBRIDGE BAY A","2400601","2023-05-06 17:00","2023","05","06","17:00","0.9","","-1.3","","85","","","","12","","29","","24.1","","101.86","","","","","","Cloudy"
"-105.14","69.11","CAMBRIDGE BAY A","2400601","2023-05-06 18:00","2023","05","06","18:00","1.0","","-1.3","","85","","","","11","","28","","24.1","","101.81","","","","","","NA"
"-105.14","69.11","CAMBRIDGE BAY A","2400601","2023-05-06 19:00","2023","05","06","19:00","0.8","","-1.3","","86","","","","11","","26","","24.1","","101.77","","","","","","NA"
"-105.14","69.11","CAMBRIDGE BAY A","2400601","2023-05-06 20:00","2023","05","06","20:00","0.2","","-1.6","","88","","","","11","","29","","24.1","","101.69","","","","","","Mainly Clear"
"-105.14","69.11","CAMBRIDGE BAY A","2400601","2023-05-06 21:00","2023","05","06","21:00","-0.1","","-1.7","","89","","","","11","","32","","24.1","","101.59","","","","-7","","NA"
"-105.14","69.11","CAMBRIDGE BAY A","2400601","2023-05-06 22:00","2023","05","06","22:00","-0.6","","-2.0","","90","","","","11","","31","","24.1","","101.55","","","","-7","","NA"
"-105.14","69.11","CAMBRIDGE BAY A","2400601","2023-05-06 23:00","2023","05","06","23:00","-1.0","","-2.4","","91","","","","10","","27","","24.1","","101.50","","","","-7","","Mostly Cloudy"
"-105.14","69.11","CAMBRIDGE BAY A","2400601","2023-05-07 00:00","2023","05","07","00:00","-1.4","","-2.6","","91","","","","10","","35","","24.1","","101.35","","","","-9","","NA"
"-105.14","69.11","CAMBRIDGE BAY A","2400601","2023-05-07 01:00","2023","05","07","01:00","-1.4","","-2.5","","92","","","","11","","28","","24.1","","101.34","","","","-8","","NA"
"-105.14","69.11","CAMBRIDGE BAY A","2400601","2023-05-07 02:00","2023","05","07","02:00","-1.4","","-2.4","","93","","","","10","","34","","24.1","","101.21","","","","-9","","Mostly Cloudy"
"-105.14","69.11","CAMBRIDGE BAY A","2400601","2023-05-07 03:00","2023","05","07","03:00","-1.8","","-2.7","","93","","","","11","","31","","24.1","","101.14","","","","-9","","NA"
"-105.14","69.11","CAMBRIDGE BAY A","2400601","2023-05-07 04:00","2023","05","07","04:00","-2.2","","-3.0","","94","","","","11","","29","","24.1","","101.05","","","","-9","","NA"
"-105.14","69.11","CAMBRIDGE BAY A","2400601","2023-05-07 05:00","2023","05","07","05:00","-2.0","","-2.9","","94","","","","10","","32","","24.1","","101.00","","","","-9","","Mostly Cloudy"
"-105.14","69.11","CAMBRIDGE BAY A","2400601","2023-05-07 06:00","2023","05","07","06:00","-1.7","","-2.5","","94","","","","12","","26","","24.1","","100.97","","","","-8","","NA"
"-105.14","69.11","CAMBRIDGE BAY A","2400601","2023-05-07 07:00","2023","05","07","07:00","-1.7","","-2.5","","94","","","","11","","23","","16.1","","100.94","","","","-8","","NA"
"-105.14","69.11","CAMBRIDGE BAY A","2400601","2023-05-07 08:00","2023","05","07","08:00","-1.3","","-2.0","","95","","","","11","","16","","4.8","","100.88","","","","-6","","Fog"
"-105.14","69.11","CAMBRIDGE BAY A","2400601","2023-05-07 09:00","2023","05","07","09:00","-1.0","","-1.6","","96","","","","11","","24","","4.8","","100.80","","","","-7","","Fog"
"-105.14","69.11","CAMBRIDGE BAY A","2400601","2023-05-07 10:00","2023","05","07","10:00","-0.6","","-1.2","","96","","","","12","","17","","16.1","","100.77","","","","-6","","NA"
"-105.14","69.11","CAMBRIDGE BAY A","2400601","2023-05-07 11:00","2023","05","07","11:00","-0.5","","-1.1","","95","","","","12","","19","","24.1","","100.70","","","","-6","","Cloudy"
"-105.14","69.11","CAMBRIDGE BAY A","2400601","2023-05-07 12:00","2023","05","07","12:00","-0.2","","-0.8","","95","","","","14","","11","","24.1","","100.68","","","","-4","","NA"
"-105.14","69.11","CAMBRIDGE BAY A","2400601","2023-05-07 13:00","2023","05","07","13:00","0.1","","-0.6","","95","","","","17","","6","","24.1","","100.66","","","","","","NA"
"-105.14","69.11","CAMBRIDGE BAY A","2400601","2023-05-07 14:00","2023","05","07","14:00","0.3","","-0.5","","95","","","","19","","4","","24.1","","100.64","","","","","","Cloudy"
"-105.14","69.11","CAMBRIDGE BAY A","2400601","2023-05-07 15:00","2023","05","07","15:00","0.5","","-0.4","","94","","","","24","","6","","24.1","","100.62","","","","","","NA"
"-105.14","69.11","CAMBRIDGE BAY A","2400601","2023-05-07 16:00","2023","05","07","16:00","1.1","","-0.2","","91","","","","27","","24","","24.1","","100.61","","","","","","NA"
"-105.14","69.11","CAMBRIDGE BAY A","2400601","2023-05-07 17:00","2023","05","07","17:00","0.9","","-0.2","","92","","","","28","","30","","24.1","","100.63","","","","","","Cloudy"
"-105.14","69.11","CAMBRIDGE BAY A","2400601","2023-05-07 18:00","2023","05","07","18:00","1.0","","-0.3","","91","","","","29","","21","","24.1","","100.68","","","","","","NA"
"-105.14","69.11","CAMBRIDGE BAY A","2400601","2023-05-07 19:00","2023","05","07","19:00","0.2","","-0.8","","93","","","","29","","32","","24.1","","100.75","","","","","","NA"
"-105.14","69.11","CAMBRIDGE BAY A","2400601","2023-05-07 20:00","2023","05","07","20:00","-0.5","","-0.9","","97","","","","30","","28","","2.0","","100.81","","","","-7","","Fog"
"-105.14","69.11","CAMBRIDGE BAY A","2400601","2023-05-07 21:00","2023","05","07","21:00","-0.3","","-0.6","","97","","","","31","","31","","2.0","","100.82","","","","-7","","Fog"
"-105.14","69.11","CAMBRIDGE BAY A","2400601","2023-05-07 22:00","2023","05","07","22:00","-0.6","","-1.0","","97","","","","31","","30","","4.8","","100.85","","","","-7","","Fog"
"-105.14","69.11","CAMBRIDGE BAY A","2400601","2023-05-07 23:00","2023","05","07","23:00","-0.6","","-1.0","","97","","","","30","","31","","8.1","","100.88","","","","-7","","Fog"
"-105.14","69.11","CAMBRIDGE BAY A","2400601","2023-05-08 00:00","2023","05","08","00:00","-0.6","","-1.0","","97","","","","31","","27","","8.1","","100.93","","","","-7","","Fog"
"-105.14","69.11","CAMBRIDGE BAY A","2400601","2023-05-08 01:00","2023","05","08","01:00","-0.2","","-1.5","","91","","","","32","","26","","24.1","","100.95","","","","-6","","NA"
"-105.14","69.11","CAMBRIDGE BAY A","2400601","2023-05-08 02:00","2023","05","08","02:00","0.1","","-0.9","","93","","","","31","","20","","24.1","","100.99","","","","","","Cloudy"
"-105.14","69.11","CAMBRIDGE BAY A","2400601","2023-05-08 03:00","2023","05","08","03:00","-0.2","","-0.9","","95","","","","28","","17","","24.1","","101.02","","","","-5","","NA"
"-105.14","69.11","CAMBRIDGE BAY A","2400601","2023-05-08 04:00","2023","05","08","04:00","-0.3","","-0.8","","96","","","","28","","14","","24.1","","101.06","","","","-5","","NA"
"-105.14","69.11","CAMBRIDGE BAY A","2400601","2023-05-08 05:00","2023","05","08","05:00","-0.1","","-0.6","","96","","","","28","","16","","24.1","","101.07","","","","-5","","Cloudy"
"-105.14","69.11","CAMBRIDGE BAY A","2400601","2023-05-08 06:00","2023","05","08","06:00","0.1","","-0.5","","96","","","","28","","18","","24.1","","101.06","","","","","","NA"
"-105.14","69.11","CAMBRIDGE BAY A","2400601","2023-05-08 07:00","2023","05","08","07:00","0.5","","-0.3","","94","","","","30","","19","","24.1","","101.08","","","","","","NA"
"-105.14","69.11","CAMBRIDGE BAY A","2400601","2023-05-08 08:00","2023","05","08","08:00","0.7","","-0.4","","92","","","","31","","16","","24.1","","101.09","","","","","","Cloudy"
"-105.14","69.11","CAMBRIDGE BAY A","2400601","2023-05-08 09:00","2023","05","08","09:00","1.0","","-0.4","","90","","","","31","","16","","24.1","","101.10","","","","","","NA"
"-105.14","69.11","CAMBRIDGE BAY A","2400601","2023-05-08 10:00","2023","05","08","10:00","1.1","","-0.4","","90","","","","33","","17","","24.1","","101.12","","","","","","NA"
"-105.14","69.11","CAMBRIDGE BAY A","2400601","2023-05-08 11:00","2023","05","08","11:00","1.1","","-0.3","","90","","","","33","","10","","24.1","","101.12","","","","","","Mostly Cloudy"
"-105.14","69.11","CAMBRIDGE BAY A","2400601","2023-05-08 12:00","2023","05","08","12:00","1.1","","-0.3","","90","","","","32","","10","","24.1","","101.12","","","","","","NA"
"-105.14","69.11","CAMBRIDGE BAY A","2400601","2023-05-08 13:00","2023","05","08","13:00","1.0","","-0.4","","91","","","","32","","7","","24.1","","101.12","","","","","","NA"
"-105.14","69.11","CAMBRIDGE BAY A","2400601","2023-05-08 14:00","2023","05","08","14:00","1.0","","-0.2","","91","","","","34","","6","","24.1","","101.09","","","","","","Mostly Cloudy"
"-105.14","69.11","CAMBRIDGE BAY A","2400601","2023-05-08 15:00","2023","05","08","15:00","1.2","","-0.1","","91","","","","36","","1","","24.1","","101.08","","","","","","NA"
"-105.14","69.11","CAMBRIDGE BAY A","2400601","2023-05-08 16:00","2023","05","08","16:00","0.7","","-0.3","","93","","","","20","","3","","24.1","","101.08","","","","","","NA"
"-105.14","69.11","CAMBRIDGE BAY A","2400601","2023-05-08 17:00","2023","05","08","17:00","0.8","","-0.2","","93","","","","36","","1","","24.1","","101.06","","","","","","Cloudy"
"-105.14","69.11","CAMBRIDGE BAY A","2400601","2023-05-08 18:00","2023","05","08","18:00","0.3","","-0.4","","95","","","","8","","6","","24.1","","101.06","","","","","","NA"
"-105.14","69.11","CAMBRIDGE BAY A","2400601","2023-05-08 19:00","2023","05","08","19:00","0.2","","-0.4","","96","","","","12","","11","","24.1","","101.03","","","","","","NA"
"-105.14","69.11","CAMBRIDGE BAY A","2400601","2023-05-08 20:00","2023","05","08","20:00","0.0","","-0.5","","96","","","","11","","10","","24.1","","101.02","","","","-3","","Cloudy"
"-105.14","69.11","CAMBRIDGE BAY A","2400601","2023-05-08 21:00","2023","05","08","21:00","-0.3","","-0.8","","96","","","","12","","13","","16.1","","101.01","","","","-4","","NA"
"-105.14","69.11","CAMBRIDGE BAY A","2400601","2023-05-08 22:00","2023","05","08","22:00","-0.5","","-1.0","","96","","","","11","","10","","19.3","","101.00","","","","-4","","NA"
"-105.14","69.11","CAMBRIDGE BAY A","2400601","2023-05-08 23:00","2023","05","08","23:00","-0.7","","-1.2","","97","","","","11","","17","","12.9","","100.96","","","","-6","","Cloudy"
"-105.14","69.11","CAMBRIDGE BAY A","2400601","2023-05-09 00:00","2023","05","09","00:00","-1.3","","-1.7","","97","","","","11","","16","","2.4","","100.97","","","","-6","","Fog"
"-105.14","69.11","CAMBRIDGE BAY A","2400601","2023-05-09 01:00","2023","05","09","01:00","-1.2","","-1.6","","97","","","","10","","14","","1.6","","100.93","","","","-6","","Fog"
"-105.14","69.11","CAMBRIDGE BAY A","2400601","2023-05-09 02:00","2023","05","09","02:00","-1.4","","-1.8","","97","","","","10","","17","","2.4","","100.90","","","","-7","","Fog"
"-105.14","69.11","CAMBRIDGE BAY A","2400601","2023-05-09 03:00","2023","05","09","03:00","-1.6","","-2.0","","97","","","","11","","22","","2.4","","100.90","","","","-8","","Fog"
"-105.14","69.11","CAMBRIDGE BAY A","2400601","2023-05-09 04:00","2023","05","09","04:00","-1.8","","-2.2","","97","","","","9","","22","","0.4","","100.91","","","","-8","","Freezing Fog"
"-105.14","69.11","CAMBRIDGE BAY A","2400601","2023-05-09 05:00","2023","05","09","05:00","-2.0","","-2.4","","97","","","","9","","22","","4.0","","100.89","","","","-8","","Fog"
"-105.14","69.11","CAMBRIDGE BAY A","2400601","2023-05-09 06:00","2023","05","09","06:00","-2.2","","-2.7","","96","","","","8","","23","","6.4","","100.89","","","","-8","","Fog"
"-105.14","69.11","CAMBRIDGE BAY A","2400601","2023-05-09 07:00","2023","05","09","07:00","-1.8","","-2.8","","93","","","","7","","27","","6.4","","100.80","","","","-8","","Fog"
"-105.14","69.11","CAMBRIDGE BAY A","2400601","2023-05-09 08:00","2023","05","09","08:00","-1.4","","-2.5","","93","","","","7","","27","","6.4","","100.75","","","","-8","","Fog"
"-105.14","69.11","CAMBRIDGE BAY A","2400601","2023-05-09 09:00","2023","05","09","09:00","-1.2","","-2.3","","92","","","","7","","23","","8.1","","100.77","","","","-7","","Fog"
"-105.14","69.11","CAMBRIDGE BAY A","2400601","2023-05-09 10:00","2023","05","09","10:00","-1.0","","-1.8","","94","","","","6","","28","","9.7","","100.68","","","","-8","","Fog"
"-105.14","69.11","CAMBRIDGE BAY A","2400601","2023-05-09 11:00","2023","05","09","11:00","-0.6","","-1.4","","94","","","","7","","27","","16.1","","100.66","","","","-7","","Cloudy"
"-105.14","69.11","CAMBRIDGE BAY A","2400601","2023-05-09 12:00","2023","05","09","12:00","-0.5","","-1.1","","96","","","","7","","30","","11.3","","100.65","","","","-7","","NA"
"-105.14","69.11","CAMBRIDGE BAY A","2400601","2023-05-09 13:00","2023","05","09","13:00","-0.3","","-0.9","","96","","","","7","","26","","12.9","","100.65","","","","-6","","Freezing Rain"
"-105.14","69.11","CAMBRIDGE BAY A","2400601","2023-05-09 14:00","2023","05","09","14:00","-0.2","","-0.8","","96","","","","7","","30","","11.3","","100.61","","","","-7","","Freezing Rain"
"-105.14","69.11","CAMBRIDGE BAY A","2400601","2023-05-09 15:00","2023","05","09","15:00","-0.3","","-0.8","","96","","","","7","","33","","6.4","","100.56","","","","-7","","Freezing Rain,Fog"
"-105.14","69.11","CAMBRIDGE BAY A","2400601","2023-05-09 16:00","2023","05","09","16:00","-0.6","","-0.9","","97","","","","7","","39","","1.2","","100.53","","","","-8","","Fog"
"-105.14","69.11","CAMBRIDGE BAY A","2400601","2023-05-09 17:00","2023","05","09","17:00","-0.5","","-1.4","","94","","","","6","","36","","16.1","","100.48","","","","-8","","Cloudy"
"-105.14","69.11","CAMBRIDGE BAY A","2400601","2023-05-09 18:00","2023","05","09","18:00","-0.6","","-1.6","","93","","","","6","","36","","16.1","","100.44","","","","-8","","NA"
"-105.14","69.11","CAMBRIDGE BAY A","2400601","2023-05-09 19:00","2023","05","09","19:00","-0.7","","-1.5","","94","","","","7","","28","","16.1","","100.47","","","","-7","","Freezing Rain"
"-105.14","69.11","CAMBRIDGE BAY A","2400601","2023-05-09 20:00","2023","05","09","20:00","-1.0","","-1.8","","95","","","","7","","33","","22.5","","100.46","","","","-8","","Freezing Rain"
"-105.14","69.11","CAMBRIDGE BAY A","2400601","2023-05-09 21:00","2023","05","09","21:00","-0.9","","-1.6","","95","","","","6","","26","","24.1","","100.43","","","","-7","","NA"
"-105.14","69.11","CAMBRIDGE BAY A","2400601","2023-05-09 22:00","2023","05","09","22:00","-0.8","","-1.5","","95","","","","5","","27","","24.1","","100.44","","","","-7","","NA"
"-105.14","69.11","CAMBRIDGE BAY A","2400601","2023-05-09 23:00","2023","05","09","23:00","-0.8","","-1.5","","95","","","","5","","26","","24.1","","100.42","","","","-7","","Cloudy"
"-105.14","69.11","CAMBRIDGE BAY A","2400601","2023-05-10 00:00","2023","05","10","00:00","-0.9","","-1.5","","95","","","","5","","34","","24.1","","100.37","","","","-8","","NA"
"-105.14","69.11","CAMBRIDGE BAY A","2400601","2023-05-10 01:00","2023","05","10","01:00","-0.7","","-1.3","","95","","","","6","","30","","24.1","","100.35","","","","-7","","NA"
"-105.14","69.11","CAMBRIDGE BAY A","2400601","2023-05-10 02:00","2023","05","10","02:00","-0.8","","-1.4","","96","","","","6","","27","","16.1","","100.36","","","","-7","","Freezing Rain"
"-105.14","69.11","CAMBRIDGE BAY A","2400601","2023-05-10 03:00","2023","05","10","03:00","-1.0","","-1.6","","96","","","","5","","32","","16.1","","100.39","","","","-8","","Freezing Rain"
"-105.14","69.11","CAMBRIDGE BAY A","2400601","2023-05-10 04:00","2023","05","10","04:00","-0.8","","-1.5","","95","","","","4","","33","","19.3","","100.42","","","","-8","","Freezing Rain"
"-105.14","69.11","CAMBRIDGE BAY A","2400601","2023-05-10 05:00","2023","05","10","05:00","-1.0","","-1.9","","94","","","","5","","37","","22.5","","100.44","","","","-8","","Freezing Rain"
"-105.14","69.11","CAMBRIDGE BAY A","2400601","2023-05-10 06:00","2023","05","10","06:00","-1.3","","-2.1","","94","","","","4","","34","","22.5","","100.48","","","","-9","","Freezing Rain"
"-105.14","69.11","CAMBRIDGE BAY A","2400601","2023-05-10 07:00","2023","05","10","07:00","-1.2","","-2.2","","93","","","","4","","35","","22.5","","100.48","","","","-9","","Freezing Rain"
"-105.14","69.11","CAMBRIDGE BAY A","2400601","2023-05-10 08:00","2023","05","10","08:00","-1.1","","-2.0","","93","","","","4","","39","","24.1","","100.49","","","","-9","","Freezing Rain"
"-105.14","69.11","CAMBRIDGE BAY A","2400601","2023-05-10 09:00","2023","05","10","09:00","-1.2","","-2.1","","94","","","","3","","33","","24.1","","100.56","","","","-8","","Freezing Rain"
"-105.14","69.11","CAMBRIDGE BAY A","2400601","2023-05-10 10:00","2023","05","10","10:00","-1.4","","-2.2","","94","","","","3","","23","","24.1","","100.61","","","","-7","","Freezing Rain"
"-105.14","69.11","CAMBRIDGE BAY A","2400601","2023-05-10 11:00","2023","05","10","11:00","-1.3","","-2.1","","94","","","","4","","31","","24.1","","100.59","","","","-8","","Freezing Rain"
"-105.14","69.11","CAMBRIDGE BAY A","2400601","2023-05-10 12:00","2023","05","10","12:00","-1.3","","-2.1","","94","","","","2","","19","","24.1","","100.67","","","","-7","","Freezing Rain"
"-105.14","69.11","CAMBRIDGE BAY A","2400601","2023-05-10 13:00","2023","05","10","13:00","-1.4","","-2.1","","95","","","","3","","21","","12.9","","100.72","","","","-7","","Freezing Rain"
"-105.14","69.11","CAMBRIDGE BAY A","2400601","2023-05-10 14:00","2023","05","10","14:00","-1.2","","-1.8","","95","","","","2","","19","","4.8","","100.72","","","","-7","","Freezing Rain,Fog"
"-105.14","69.11","CAMBRIDGE BAY A","2400601","2023-05-10 15:00","2023","05","10","15:00","-0.8","","-1.7","","94","","","","1","","16","","6.4","","100.76","","","","-6","","Freezing Rain,Fog"
"-105.14","69.11","CAMBRIDGE BAY A","2400601","2023-05-10 16:00","2023","05","10","16:00","-0.8","","-1.6","","94","","","","1","","16","","6.4","","100.81","","","","-6","","Snow"
"-105.14","69.11","CAMBRIDGE BAY A","2400601","2023-05-10 17:00","2023","05","10","17:00","-0.8","","-1.5","","95","","","","35","","13","","4.8","","100.85","","","","-5","","Snow"
"-105.14","69.11","CAMBRIDGE BAY A","2400601","2023-05-10 18:00","2023","05","10","18:00","-0.8","","-1.6","","94","","","","35","","14","","4.8","","100.88","","","","-5","","Snow"
"-105.14","69.11","CAMBRIDGE BAY A","2400601","2023-05-10 19:00","2023","05","10","19:00","-1.3","","-2.0","","95","","","","36","","18","","3.2","","100.89","","","","-7","","Snow"
"-105.14","69.11","CAMBRIDGE BAY A","2400601","2023-05-10 20:00","2023","05","10","20:00","-2.0","","-2.8","","94","","","","36","","20","","3.2","","100.92","","","","-8","","Snow"
"-105.14","69.11","CAMBRIDGE BAY A","2400601","2023-05-10 21:00","2023","05","10","21:00","-2.4","","-3.4","","93","","","","35","","21","","8.1","","100.96","","","","-8","","Snow,Fog"
"-105.14","69.11","CAMBRIDGE BAY A","2400601","2023-05-10 22:00","2023","05","10","22:00","-2.8","","-3.8","","93","","","","35","","19","","8.1","","101.02","","","","-9","","Snow,Fog"
"-105.14","69.11","CAMBRIDGE BAY A","2400601","2023-05-10 23:00","2023","05","10","23:00","-3.1","","-4.2","","92","","","","35","","16","","19.3","","101.07","","","","-8","","Snow"
"-105.14","69.11","CAMBRIDGE BAY A","2400601","2023-05-11 00:00","2023","05","11","00:00","-3.5","","-4.7","","91","","","","34","","23","","22.5","","101.12","","","","-10","","Snow,Blowing Snow"
"-105.14","69.11","CAMBRIDGE BAY A","2400601","2023-05-11 01:00","2023","05","11","01:00","-4.0","","-5.3","","90","","","","34","","19","","22.5","","101.18","","","","-10","","Snow,Blowing Snow"
"-105.14","69.11","CAMBRIDGE BAY A","2400601","2023-05-11 02:00","2023","05","11","02:00","-4.4","","-5.8","","90","","","","34","","30","","22.5","","101.22","","","","-12","","Snow,Blowing Snow"
"-105.14","69.11","CAMBRIDGE BAY A","2400601","2023-05-11 03:00","2023","05","11","03:00","-4.9","","-6.5","","89","","","","34","","27","","22.5","","101.30","","","","-12","","Snow,Blowing Snow"
"-105.14","69.11","CAMBRIDGE BAY A","2400601","2023-05-11 04:00","2023","05","11","04:00","-5.3","","-6.9","","88","","","","35","","18","","22.5","","101.38","","","","-12","","Snow,Blowing Snow"
"-105.14","69.11","CAMBRIDGE BAY A","2400601","2023-05-11 05:00","2023","05","11","05:00","-5.5","","-7.1","","88","","","","34","","18","","24.1","","101.45","","","","-12","","Blowing Snow"
"-105.14","69.11","CAMBRIDGE BAY A","2400601","2023-05-11 06:00","2023","05","11","06:00","-5.2","","-7.0","","87","","","","34","","18","","24.1","","101.49","","","","-11","","NA"
"-105.14","69.11","CAMBRIDGE BAY A","2400601","2023-05-11 07:00","2023","05","11","07:00","-4.9","","-6.6","","88","","","","32","","18","","24.1","","101.55","","","","-11","","NA"
"-105.14","69.11","CAMBRIDGE BAY A","2400601","2023-05-11 08:00","2023","05","11","08:00","-5.0","","-7.2","","85","","","","33","","20","","24.1","","101.60","","","","-12","","Cloudy"
"-105.14","69.11","CAMBRIDGE BAY A","2400601","2023-05-11 09:00","2023","05","11","09:00","-5.1","","-7.6","","83","","","","35","","25","","24.1","","101.62","","","","-12","","NA"
"-105.14","69.11","CAMBRIDGE BAY A","2400601","2023-05-11 10:00","2023","05","11","10:00","-4.9","","-7.5","","82","","","","35","","24","","24.1","","101.65","","","","-12","","NA"
"-105.14","69.11","CAMBRIDGE BAY A","2400601","2023-05-11 11:00","2023","05","11","11:00","-4.2","","-7.0","","81","","","","35","","21","","24.1","","101.70","","","","-11","","Mostly Cloudy"
"-105.14","69.11","CAMBRIDGE BAY A","2400601","2023-05-11 12:00","2023","05","11","12:00","-3.8","","-6.7","","80","","","","36","","14","","24.1","","101.75","","","","-9","","NA"
"-105.14","69.11","CAMBRIDGE BAY A","2400601","2023-05-11 13:00","2023","05","11","13:00","-3.4","","-6.7","","78","","","","1","","12","","24.1","","101.78","","","","-8","","NA"
"-105.14","69.11","CAMBRIDGE BAY A","2400601","2023-05-11 14:00","2023","05","11","14:00","-3.2","","-6.8","","76","","","","34","","9","","24.1","","101.84","","","","-7","","Cloudy"
"-105.14","69.11","CAMBRIDGE BAY A","2400601","2023-05-11 15:00","2023","05","11","15:00","-2.9","","-6.3","","77","","","","34","","9","","24.1","","101.84","","","","-6","","NA"
"-105.14","69.11","CAMBRIDGE BAY A","2400601","2023-05-11 16:00","2023","05","11","16:00","-2.8","","-6.5","","76","","","","34","","7","","24.1","","101.87","","","","-6","","NA"
"-105.14","69.11","CAMBRIDGE BAY A","2400601","2023-05-11 17:00","2023","05","11","17:00","-3.0","","-6.2","","79","","","","32","","9","","24.1","","101.88","","","","-7","","Mostly Cloudy"
"-105.14","69.11","CAMBRIDGE BAY A","2400601","2023-05-11 18:00","2023","05","11","18:00","-3.3","","-5.8","","83","","","","33","","8","","24.1","","101.87","","","","-7","","NA"
"-105.14","69.11","CAMBRIDGE BAY A","2400601","2023-05-11 19:00","2023","05","11","19:00","-3.7","","-6.5","","81","","","","3","","5","","24.1","","101.86","","","","-6","","NA"
"-105.14","69.11","CAMBRIDGE BAY A","2400601","2023-05-11 20:00","2023","05","11","20:00","-5.2","","-6.7","","89","","","","4","","6","","24.1","","101.85","","","","-8","","Mostly Cloudy"
"-105.14","69.11","CAMBRIDGE BAY A","2400601","2023-05-11 21:00","2023","05","11","21:00","-6.4","","-8.4","","86","","","","9","","9","","24.1","","101.82","","","","-11","","NA"
"-105.14","69.11","CAMBRIDGE BAY A","2400601","2023-05-11 22:00","2023","05","11","22:00","-7.2","","-8.6","","90","","","","14","","9","","24.1","","101.82","","","","-12","","NA"
"-105.14","69.11","CAMBRIDGE BAY A","2400601","2023-05-11 23:00","2023","05","11","23:00","-7.5","","-9.1","","89","","","","11","","10","","24.1","","101.81","","","","-12","","Mainly Clear"
"-105.14","69.11","CAMBRIDGE BAY A","2400601","2023-05-12 00:00","2023","05","12","00:00","-8.4","","-10.0","","88","","","","10","","13","","24.1","","101.78","","","","-14","","NA"
"-105.14","69.11","CAMBRIDGE BAY A","2400601","2023-05-12 01:00","2023","05","12","01:00","-9.5","","-11.3","","87","","","","10","","14","","24.1","","101.72","","","","-16","","NA"
"-105.14","69.11","CAMBRIDGE BAY A","2400601","2023-05-12 02:00","2023","05","12","02:00","-10.2","","-11.4","","91","","","","12","","15","","24.1","","101.69","","","","-17","","Mainly Clear"
"-105.14","69.11","CAMBRIDGE BAY A","2400601","2023-05-12 03:00","2023","05","12","03:00","-10.0","","-11.1","","91","","","","13","","18","","24.1","","101.66","","","","-17","","NA"
"-105.14","69.11","CAMBRIDGE BAY A","2400601","2023-05-12 04:00","2023","05","12","04:00","-8.8","","-10.0","","91","","","","12","","18","","24.1","","101.63","","","","-16","","NA"
"-105.14","69.11","CAMBRIDGE BAY A","2400601","2023-05-12 05:00","2023","05","12","05:00","-7.8","","-8.9","","92","","","","11","","18","","24.1","","101.60","","","","-15","","Mostly Cloudy"
"-105.14","69.11","CAMBRIDGE BAY A","2400601","2023-05-12 06:00","2023","05","12","06:00","-7.4","","-8.6","","92","","","","12","","16","","24.1","","101.58","","","","-14","","NA"
"-105.14","69.11","CAMBRIDGE BAY A","2400601","2023-05-12 07:00","2023","05","12","07:00","-5.1","","-6.5","","90","","","","10","","19","","24.1","","101.51","","","","-12","","NA"
"-105.14","69.11","CAMBRIDGE BAY A","2400601","2023-05-12 08:00","2023","05","12","08:00","-2.9","","-4.7","","88","","","","12","","27","","24.1","","101.44","","","","-10","","Mainly Clear"
"-105.14","69.11","CAMBRIDGE BAY A","2400601","2023-05-12 09:00","2023","05","12","09:00","-2.0","","-3.6","","89","","","","13","","31","","24.1","","101.40","","","","-9","","NA"
"-105.14","69.11","CAMBRIDGE BAY A","2400601","2023-05-12 10:00","2023","05","12","10:00","-1.2","","-2.9","","88","","","","14","","32","","24.1","","101.39","","","","-8","","NA"
"-105.14","69.11","CAMBRIDGE BAY A","2400601","2023-05-12 11:00","2023","05","12","11:00","-0.5","","-2.2","","88","","","","15","","31","","24.1","","101.40","","","","-7","","Mostly Cloudy"
"-105.14","69.11","CAMBRIDGE BAY A","2400601","2023-05-12 12:00","2023","05","12","12:00","-0.1","","-1.9","","88","","","","15","","28","","24.1","","101.37","","","","-6","","NA"
"-105.14","69.11","CAMBRIDGE BAY A","2400601","2023-05-12 13:00","2023","05","12","13:00","0.3","","-1.4","","88","","","","14","","32","","24.1","","101.26","","","","","","NA"
"-105.14","69.11","CAMBRIDGE BAY A","2400601","2023-05-12 14:00","2023","05","12","14:00","0.6","","-1.1","","88","","","","15","","28","","24.1","","101.21","","","","","","Mostly Cloudy"
"-105.14","69.11","CAMBRIDGE BAY A","2400601","2023-05-12 15:00","2023","05","12","15:00","1.0","","-0.8","","88","","","","14","","25","","24.1","","101.15","","","","","","NA"
"-105.14","69.11","CAMBRIDGE BAY A","2400601","2023-05-12 16:00","2023","05","12","16:00","1.1","","-0.6","","89","","","","15","","23","","24.1","","101.12","","","","","","NA"
"-105.14","69.11","CAMBRIDGE BAY A","2400601","2023-05-12 17:00","2023","05","12","17:00","1.1","","-0.5","","89","","","","15","","17","","24.1","","101.04","","","","","","Mostly Cloudy"
"-105.14","69.11","CAMBRIDGE BAY A","2400601","2023-05-12 18:00","2023","05","12","18:00","1.3","","-0.2","","90","","","","14","","22","","24.1","","100.89","","","","","","NA"
"-105.14","69.11","CAMBRIDGE BAY A","2400601","2023-05-12 19:00","2023","05","12","19:00","1.2","","-0.4","","90","","","","14","","12","","24.1","","100.83","","","","","","NA"
"-105.14","69.11","CAMBRIDGE BAY A","2400601","2023-05-12 20:00","2023","05","12","20:00","1.6","","0.2","","91","","","","9","","12","","24.1","","100.74","","","","","","Mostly Cloudy"
"-105.14","69.11","CAMBRIDGE BAY A","2400601","2023-05-12 21:00","2023","05","12","21:00"
"-105.14","69.11","CAMBRIDGE BAY A","2400601","2023-05-12 22:00","2023","05","12","22:00"
"-105.14","69.11","CAMBRIDGE BAY A","2400601","2023-05-12 23:00","2023","05","12","23:00"
"-105.14","69.11","CAMBRIDGE BAY A","2400601","2023-05-13 00:00","2023","05","13","00:00"
"-105.14","69.11","CAMBRIDGE BAY A","2400601","2023-05-13 01:00","2023","05","13","01:00"
"-105.14","69.11","CAMBRIDGE BAY A","2400601","2023-05-13 02:00","2023","05","13","02:00"
"-105.14","69.11","CAMBRIDGE BAY A","2400601","2023-05-13 03:00","2023","05","13","03:00"
"-105.14","69.11","CAMBRIDGE BAY A","2400601","2023-05-13 04:00","2023","05","13","04:00"
"-105.14","69.11","CAMBRIDGE BAY A","2400601","2023-05-13 05:00","2023","05","13","05:00","-0.8","","-2.8","","87","","","","32","","23","","24.1","","100.93","","","","-7","","Mainly Clear"
"-105.14","69.11","CAMBRIDGE BAY A","2400601","2023-05-13 06:00","2023","05","13","06:00","-1.0","","-3.0","","86","","","","32","","20","","24.1","","101.08","","","","-7","","NA"
"-105.14","69.11","CAMBRIDGE BAY A","2400601","2023-05-13 07:00","2023","05","13","07:00","-1.0","","-3.1","","85","","","","31","","22","","24.1","","101.21","","","","-7","","NA"
"-105.14","69.11","CAMBRIDGE BAY A","2400601","2023-05-13 08:00","2023","05","13","08:00","-0.7","","-3.0","","85","","","","33","","23","","24.1","","101.30","","","","-7","","Mainly Clear"
"-105.14","69.11","CAMBRIDGE BAY A","2400601","2023-05-13 09:00","2023","05","13","09:00","-0.6","","-2.1","","89","","","","1","","21","","24.1","","101.40","","","","-6","","NA"
"-105.14","69.11","CAMBRIDGE BAY A","2400601","2023-05-13 10:00","2023","05","13","10:00","-0.6","","-2.6","","86","","","","34","","17","","24.1","","101.51","","","","-6","","NA"
"-105.14","69.11","CAMBRIDGE BAY A","2400601","2023-05-13 11:00","2023","05","13","11:00","-0.6","","-3.1","","83","","","","36","","18","","24.1","","101.56","","","","-6","","Mostly Cloudy"
"-105.14","69.11","CAMBRIDGE BAY A","2400601","2023-05-13 12:00","2023","05","13","12:00","-0.3","","-2.8","","83","","","","36","","10","","24.1","","101.66","","","","-4","","NA"
"-105.14","69.11","CAMBRIDGE BAY A","2400601","2023-05-13 13:00","2023","05","13","13:00","0.2","","-2.4","","83","","","","32","","19","","24.1","","101.75","","","","","","NA"
"-105.14","69.11","CAMBRIDGE BAY A","2400601","2023-05-13 14:00","2023","05","13","14:00","-0.1","","-3.5","","78","","","","35","","18","","24.1","","101.78","","","","-5","","Mostly Cloudy"
"-105.14","69.11","CAMBRIDGE BAY A","2400601","2023-05-13 15:00","2023","05","13","15:00","0.0","","-3.4","","78","","","","36","","19","","24.1","","101.84","","","","-5","","NA"
"-105.14","69.11","CAMBRIDGE BAY A","2400601","2023-05-13 16:00","2023","05","13","16:00","0.1","","-3.2","","79","","","","36","","19","","24.1","","101.88","","","","","","NA"
"-105.14","69.11","CAMBRIDGE BAY A","2400601","2023-05-13 17:00","2023","05","13","17:00","-0.8","","-3.8","","80","","","","36","","16","","24.1","","101.96","","","","-6","","Mostly Cloudy"
"-105.14","69.11","CAMBRIDGE BAY A","2400601","2023-05-13 18:00","2023","05","13","18:00","-1.5","","-4.4","","81","","","","1","","15","","24.1","","102.02","","","","-6","","NA"
"-105.14","69.11","CAMBRIDGE BAY A","2400601","2023-05-13 19:00","2023","05","13","19:00","-2.3","","-4.8","","83","","","","3","","13","","24.1","","102.08","","","","-7","","NA"
"-105.14","69.11","CAMBRIDGE BAY A","2400601","2023-05-13 20:00","2023","05","13","20:00"
"-105.14","69.11","CAMBRIDGE BAY A","2400601","2023-05-13 21:00","2023","05","13","21:00"
"-105.14","69.11","CAMBRIDGE BAY A","2400601","2023-05-13 22:00","2023","05","13","22:00"
"-105.14","69.11","CAMBRIDGE BAY A","2400601","2023-05-13 23:00","2023","05","13","23:00"
"-105.14","69.11","CAMBRIDGE BAY A","2400601","2023-05-14 00:00","2023","05","14","00:00"
"-105.14","69.11","CAMBRIDGE BAY A","2400601","2023-05-14 01:00","2023","05","14","01:00"
"-105.14","69.11","CAMBRIDGE BAY A","2400601","2023-05-14 02:00","2023","05","14","02:00"
"-105.14","69.11","CAMBRIDGE BAY A","2400601","2023-05-14 03:00","2023","05","14","03:00"
"-105.14","69.11","CAMBRIDGE BAY A","2400601","2023-05-14 04:00","2023","05","14","04:00"
"-105.14","69.11","CAMBRIDGE BAY A","2400601","2023-05-14 05:00","2023","05","14","05:00","-7.4","","-8.3","","94","","","","10","","11","","12.9","","102.39","","","","-12","","Cloudy"
"-105.14","69.11","CAMBRIDGE BAY A","2400601","2023-05-14 06:00","2023","05","14","06:00","-8.0","","-9.1","","92","","","","7","","10","","16.1","","102.38","","","","-13","","NA"
"-105.14","69.11","CAMBRIDGE BAY A","2400601","2023-05-14 07:00","2023","05","14","07:00","-8.6","","-10.0","","90","","","","3","","17","","16.1","","102.38","","","","-15","","NA"
"-105.14","69.11","CAMBRIDGE BAY A","2400601","2023-05-14 08:00","2023","05","14","08:00","-8.7","","-10.2","","89","","","","10","","13","","24.1","","102.37","","","","-15","","Mostly Cloudy"
"-105.14","69.11","CAMBRIDGE BAY A","2400601","2023-05-14 09:00","2023","05","14","09:00","-8.4","","-9.6","","91","","","","9","","14","","14.5","","102.38","","","","-15","","NA"
"-105.14","69.11","CAMBRIDGE BAY A","2400601","2023-05-14 10:00","2023","05","14","10:00","-7.7","","-8.8","","92","","","","9","","15","","14.5","","102.38","","","","-14","","NA"
"-105.14","69.11","CAMBRIDGE BAY A","2400601","2023-05-14 11:00","2023","05","14","11:00","-6.6","","-7.8","","91","","","","9","","16","","16.1","","102.37","","","","-13","","Mostly Cloudy"
"-105.14","69.11","CAMBRIDGE BAY A","2400601","2023-05-14 12:00","2023","05","14","12:00","-6.1","","-7.3","","91","","","","10","","18","","16.1","","102.41","","","","-13","","NA"
"-105.14","69.11","CAMBRIDGE BAY A","2400601","2023-05-14 13:00","2023","05","14","13:00","-5.6","","-6.9","","91","","","","10","","19","","16.1","","102.34","","","","-12","","NA"
"-105.14","69.11","CAMBRIDGE BAY A","2400601","2023-05-14 14:00","2023","05","14","14:00","-4.9","","-6.2","","91","","","","12","","18","","17.7","","102.34","","","","-11","","Mostly Cloudy"
"-105.14","69.11","CAMBRIDGE BAY A","2400601","2023-05-14 15:00","2023","05","14","15:00","-4.6","","-5.8","","91","","","","12","","17","","17.7","","102.37","","","","-10","","NA"
"-105.14","69.11","CAMBRIDGE BAY A","2400601","2023-05-14 16:00","2023","05","14","16:00","-4.7","","-6.0","","90","","","","11","","22","","24.1","","102.40","","","","-12","","NA"
"-105.14","69.11","CAMBRIDGE BAY A","2400601","2023-05-14 17:00","2023","05","14","17:00","-4.7","","-5.9","","92","","","","12","","22","","24.1","","102.37","","","","-12","","Mostly Cloudy"
"-105.14","69.11","CAMBRIDGE BAY A","2400601","2023-05-14 18:00","2023","05","14","18:00","-4.8","","-6.0","","91","","","","12","","21","","24.1","","102.38","","","","-11","","NA"
"-105.14","69.11","CAMBRIDGE BAY A","2400601","2023-05-14 19:00","2023","05","14","19:00","-4.9","","-6.1","","91","","","","10","","19","","24.1","","102.40","","","","-11","","NA"
"-105.14","69.11","CAMBRIDGE BAY A","2400601","2023-05-14 20:00","2023","05","14","20:00"
"-105.14","69.11","CAMBRIDGE BAY A","2400601","2023-05-14 21:00","2023","05","14","21:00"
"-105.14","69.11","CAMBRIDGE BAY A","2400601","2023-05-14 22:00","2023","05","14","22:00"
"-105.14","69.11","CAMBRIDGE BAY A","2400601","2023-05-14 23:00","2023","05","14","23:00"
"-105.14","69.11","CAMBRIDGE BAY A","2400601","2023-05-15 00:00","2023","05","15","00:00"
"-105.14","69.11","CAMBRIDGE BAY A","2400601","2023-05-15 01:00","2023","05","15","01:00"
"-105.14","69.11","CAMBRIDGE BAY A","2400601","2023-05-15 02:00","2023","05","15","02:00"
"-105.14","69.11","CAMBRIDGE BAY A","2400601","2023-05-15 03:00","2023","05","15","03:00"
"-105.14","69.11","CAMBRIDGE BAY A","2400601","2023-05-15 04:00","2023","05","15","04:00"
"-105.14","69.11","CAMBRIDGE BAY A","2400601","2023-05-15 05:00","2023","05","15","05:00","-5.9","","-6.8","","94","","","","15","","15","","0.4","","102.50","","","","-12","","Freezing Fog"
"-105.14","69.11","CAMBRIDGE BAY A","2400601","2023-05-15 06:00","2023","05","15","06:00","-5.7","","-6.6","","94","","","","15","","14","","0.6","","102.53","","","","-11","","Freezing Fog"
"-105.14","69.11","CAMBRIDGE BAY A","2400601","2023-05-15 07:00","2023","05","15","07:00","-5.2","","-6.0","","94","","","","16","","14","","0.8","","102.49","","","","-11","","Freezing Fog"
"-105.14","69.11","CAMBRIDGE BAY A","2400601","2023-05-15 08:00","2023","05","15","08:00","-4.5","","-5.2","","95","","","","17","","15","","2.0","","102.47","","","","-10","","Snow,Fog"
"-105.14","69.11","CAMBRIDGE BAY A","2400601","2023-05-15 09:00","2023","05","15","09:00","-3.9","","-4.5","","95","","","","17","","16","","1.6","","102.46","","","","-9","","Fog"
"-105.14","69.11","CAMBRIDGE BAY A","2400601","2023-05-15 10:00","2023","05","15","10:00","-3.4","","-4.0","","96","","","","17","","17","","0.8","","102.45","","","","-9","","Freezing Fog"
"-105.14","69.11","CAMBRIDGE BAY A","2400601","2023-05-15 11:00","2023","05","15","11:00","-2.6","","-3.1","","96","","","","18","","16","","1.2","","102.44","","","","-8","","Fog"
"-105.14","69.11","CAMBRIDGE BAY A","2400601","2023-05-15 12:00","2023","05","15","12:00","-1.7","","-2.2","","97","","","","19","","18","","1.2","","102.41","","","","-7","","Fog"
"-105.14","69.11","CAMBRIDGE BAY A","2400601","2023-05-15 13:00","2023","05","15","13:00","-1.4","","-1.8","","97","","","","18","","16","","0.8","","102.38","","","","-6","","Freezing Fog"
"-105.14","69.11","CAMBRIDGE BAY A","2400601","2023-05-15 14:00","2023","05","15","14:00","-1.0","","-1.4","","97","","","","20","","14","","0.8","","102.36","","","","-5","","Freezing Fog"
"-105.14","69.11","CAMBRIDGE BAY A","2400601","2023-05-15 15:00","2023","05","15","15:00","-1.0","","-1.3","","98","","","","18","","13","","0.8","","102.33","","","","-5","","Freezing Fog"
"-105.14","69.11","CAMBRIDGE BAY A","2400601","2023-05-15 16:00","2023","05","15","16:00","-1.0","","-1.3","","98","","","","16","","9","","0.8","","102.30","","","","-4","","Freezing Fog"
"-105.14","69.11","CAMBRIDGE BAY A","2400601","2023-05-15 17:00","2023","05","15","17:00","-0.5","","-0.8","","98","","","","15","","9","","8.1","","102.23","","","","-4","","Fog"
"-105.14","69.11","CAMBRIDGE BAY A","2400601","2023-05-15 18:00","2023","05","15","18:00","0.0","","-0.3","","98","","","","15","","6","","24.1","","102.18","","","","-2","","NA"
"-105.14","69.11","CAMBRIDGE BAY A","2400601","2023-05-15 19:00","2023","05","15","19:00","0.1","","-0.4","","96","","","","14","","3","","24.1","","102.11","","","","","","NA"
"-105.14","69.11","CAMBRIDGE BAY A","2400601","2023-05-15 20:00","2023","05","15","20:00"
"-105.14","69.11","CAMBRIDGE BAY A","2400601","2023-05-15 21:00","2023","05","15","21:00"
"-105.14","69.11","CAMBRIDGE BAY A","2400601","2023-05-15 22:00","2023","05","15","22:00"
"-105.14","69.11","CAMBRIDGE BAY A","2400601","2023-05-15 23:00","2023","05","15","23:00"
"-105.14","69.11","CAMBRIDGE BAY A","2400601","2023-05-16 00:00","2023","05","16","00:00"
"-105.14","69.11","CAMBRIDGE BAY A","2400601","2023-05-16 01:00","2023","05","16","01:00"
"-105.14","69.11","CAMBRIDGE BAY A","2400601","2023-05-16 02:00","2023","05","16","02:00"
"-105.14","69.11","CAMBRIDGE BAY A","2400601","2023-05-16 03:00","2023","05","16","03:00"
"-105.14","69.11","CAMBRIDGE BAY A","2400601","2023-05-16 04:00","2023","05","16","04:00"
"-105.14","69.11","CAMBRIDGE BAY A","2400601","2023-05-16 05:00","2023","05","16","05:00","-2.0","","-2.5","","96","","","","17","","13","","24.1","","101.63","","","","-6","","Mostly Cloudy"
"-105.14","69.11","CAMBRIDGE BAY A","2400601","2023-05-16 06:00","2023","05","16","06:00","0.5","","-0.1","","95","","","","18","","17","","24.1","","101.58","","","","","","NA"
"-105.14","69.11","CAMBRIDGE BAY A","2400601","2023-05-16 07:00","2023","05","16","07:00","1.1","","0.1","","93","","","","19","","8","","24.1","","101.54","","","","","","NA"
"-105.14","69.11","CAMBRIDGE BAY A","2400601","2023-05-16 08:00","2023","05","16","08:00","1.6","","0.4","","92","","","","18","","20","","24.1","","101.48","","","","","","Mainly Clear"
"-105.14","69.11","CAMBRIDGE BAY A","2400601","2023-05-16 09:00","2023","05","16","09:00","1.9","","0.6","","91","","","","18","","18","","24.1","","101.42","","","","","","NA"
"-105.14","69.11","CAMBRIDGE BAY A","2400601","2023-05-16 10:00","2023","05","16","10:00","2.3","","1.1","","91","","","","21","","17","","24.1","","101.41","","","","","","NA"
"-105.14","69.11","CAMBRIDGE BAY A","2400601","2023-05-16 11:00","2023","05","16","11:00","2.5","","1.1","","90","","","","21","","14","","24.1","","101.36","","","","","","Mainly Clear"
"-105.14","69.11","CAMBRIDGE BAY A","2400601","2023-05-16 12:00","2023","05","16","12:00","2.7","","0.9","","88","","","","20","","14","","24.1","","101.33","","","","","","NA"
"-105.14","69.11","CAMBRIDGE BAY A","2400601","2023-05-16 13:00","2023","05","16","13:00","3.5","","1.3","","86","","","","23","","14","","24.1","","101.32","","","","","","NA"
"-105.14","69.11","CAMBRIDGE BAY A","2400601","2023-05-16 14:00","2023","05","16","14:00","2.6","","0.9","","89","","","","25","","21","","24.1","","101.29","","","","","","Mostly Cloudy"
"-105.14","69.11","CAMBRIDGE BAY A","2400601","2023-05-16 15:00","2023","05","16","15:00","2.0","","0.5","","90","","","","27","","28","","24.1","","101.25","","","","","","NA"
"-105.14","69.11","CAMBRIDGE BAY A","2400601","2023-05-16 16:00","2023","05","16","16:00","1.8","","0.4","","90","","","","26","","21","","24.1","","101.24","","","","","","NA"
"-105.14","69.11","CAMBRIDGE BAY A","2400601","2023-05-16 17:00","2023","05","16","17:00","1.8","","0.3","","90","","","","27","","20","","24.1","","101.23","","","","","","Mostly Cloudy"
"-105.14","69.11","CAMBRIDGE BAY A","2400601","2023-05-16 18:00","2023","05","16","18:00","1.3","","0.1","","91","","","","25","","3","","24.1","","101.28","","","","","","NA"
"-105.14","69.11","CAMBRIDGE BAY A","2400601","2023-05-16 19:00","2023","05","16","19:00","1.5","","-0.1","","90","","","","30","","16","","24.1","","101.30","","","","","","NA"
"-105.14","69.11","CAMBRIDGE BAY A","2400601","2023-05-16 20:00","2023","05","16","20:00","1.6","","-0.1","","88","","","","32","","18","","24.1","","101.34","","","","","","Mostly Cloudy"
"-105.14","69.11","CAMBRIDGE BAY A","2400601","2023-05-16 21:00","2023","05","16","21:00","1.2","","-0.3","","89","","","","24","","9","","24.1","","101.38","","","","","","NA"
"-105.14","69.11","CAMBRIDGE BAY A","2400601","2023-05-16 22:00","2023","05","16","22:00","0.8","","-0.7","","90","","","","29","","12","","24.1","","101.42","","","","","","NA"
"-105.14","69.11","CAMBRIDGE BAY A","2400601","2023-05-16 23:00","2023","05","16","23:00","0.6","","-0.7","","91","","","","28","","14","","24.1","","101.44","","","","","","Mostly Cloudy"
"-105.14","69.11","CAMBRIDGE BAY A","2400601","2023-05-17 00:00","2023","05","17","00:00","0.3","","-1.1","","91","","","","32","","15","","24.1","","101.49","","","","","","NA"
"-105.14","69.11","CAMBRIDGE BAY A","2400601","2023-05-17 01:00","2023","05","17","01:00","-1.8","","-4.0","","85","","","","36","","14","","24.1","","101.59","","","","-6","","NA"
"-105.14","69.11","CAMBRIDGE BAY A","2400601","2023-05-17 02:00","2023","05","17","02:00","-3.3","","-5.8","","83","","","","32","","18","","24.1","","101.64","","","","-9","","Mostly Cloudy"
"-105.14","69.11","CAMBRIDGE BAY A","2400601","2023-05-17 03:00","2023","05","17","03:00","-4.9","","-7.8","","80","","","","33","","19","","24.1","","101.68","","","","-11","","NA"
"-105.14","69.11","CAMBRIDGE BAY A","2400601","2023-05-17 04:00","2023","05","17","04:00","-5.0","","-7.6","","82","","","","33","","17","","24.1","","101.69","","","","-11","","NA"
"-105.14","69.11","CAMBRIDGE BAY A","2400601","2023-05-17 05:00","2023","05","17","05:00","-4.5","","-7.2","","82","","","","32","","23","","24.1","","101.69","","","","-11","","Mostly Cloudy"
"-105.14","69.11","CAMBRIDGE BAY A","2400601","2023-05-17 06:00","2023","05","17","06:00","-4.4","","-7.3","","80","","","","35","","20","","24.1","","101.70","","","","-11","","NA"
"-105.14","69.11","CAMBRIDGE BAY A","2400601","2023-05-17 07:00","2023","05","17","07:00","-4.8","","-7.9","","79","","","","35","","19","","24.1","","101.74","","","","-11","","NA"
"-105.14","69.11","CAMBRIDGE BAY A","2400601","2023-05-17 08:00","2023","05","17","08:00","-4.9","","-7.9","","79","","","","35","","16","","24.1","","101.77","","","","-11","","Cloudy"
"-105.14","69.11","CAMBRIDGE BAY A","2400601","2023-05-17 09:00","2023","05","17","09:00","-4.9","","-8.1","","79","","","","35","","17","","24.1","","101.76","","","","-11","","NA"
"-105.14","69.11","CAMBRIDGE BAY A","2400601","2023-05-17 10:00","2023","05","17","10:00","-5.5","","-8.7","","78","","","","1","","16","","24.1","","101.76","","","","-11","","NA"
"-105.14","69.11","CAMBRIDGE BAY A","2400601","2023-05-17 11:00","2023","05","17","11:00","-5.2","","-8.6","","77","","","","36","","18","","24.1","","101.74","","","","-11","","Mostly Cloudy"
"-105.14","69.11","CAMBRIDGE BAY A","2400601","2023-05-17 12:00","2023","05","17","12:00","-4.9","","-8.0","","79","","","","36","","19","","24.1","","101.73","","","","-11","","NA"
"-105.14","69.11","CAMBRIDGE BAY A","2400601","2023-05-17 13:00","2023","05","17","13:00","-5.4","","-8.7","","78","","","","36","","18","","24.1","","101.73","","","","-12","","NA"
"-105.14","69.11","CAMBRIDGE BAY A","2400601","2023-05-17 14:00","2023","05","17","14:00","-5.1","","-12.3","","57","","","","2","","19","","24.1","","101.73","","","","-12","","Mostly Cloudy"
"-105.14","69.11","CAMBRIDGE BAY A","2400601","2023-05-17 15:00","2023","05","17","15:00","-5.2","","-10.1","","69","","","","1","","17","","24.1","","101.76","","","","-11","","NA"
"-105.14","69.11","CAMBRIDGE BAY A","2400601","2023-05-17 16:00","2023","05","17","16:00","-5.0","","-9.8","","69","","","","1","","17","","24.1","","101.74","","","","-11","","NA"
"-105.14","69.11","CAMBRIDGE BAY A","2400601","2023-05-17 17:00","2023","05","17","17:00","-5.3","","-11.1","","64","","","","1","","16","","24.1","","101.73","","","","-11","","Mostly Cloudy"
"-105.14","69.11","CAMBRIDGE BAY A","2400601","2023-05-17 18:00","2023","05","17","18:00","-5.5","","-10.8","","67","","","","1","","18","","24.1","","101.73","","","","-12","","NA"
"-105.14","69.11","CAMBRIDGE BAY A","2400601","2023-05-17 19:00","2023","05","17","19:00","-5.9","","-9.7","","75","","","","4","","14","","24.1","","101.72","","","","-11","","NA"
"-105.14","69.11","CAMBRIDGE BAY A","2400601","2023-05-17 20:00","2023","05","17","20:00"
"-105.14","69.11","CAMBRIDGE BAY A","2400601","2023-05-17 21:00","2023","05","17","21:00"
"-105.14","69.11","CAMBRIDGE BAY A","2400601","2023-05-17 22:00","2023","05","17","22:00"
"-105.14","69.11","CAMBRIDGE BAY A","2400601","2023-05-17 23:00","2023","05","17","23:00"
"-105.14","69.11","CAMBRIDGE BAY A","2400601","2023-05-18 00:00","2023","05","18","00:00"
"-105.14","69.11","CAMBRIDGE BAY A","2400601","2023-05-18 01:00","2023","05","18","01:00"
"-105.14","69.11","CAMBRIDGE BAY A","2400601","2023-05-18 02:00","2023","05","18","02:00"
"-105.14","69.11","CAMBRIDGE BAY A","2400601","2023-05-18 03:00","2023","05","18","03:00"
"-105.14","69.11","CAMBRIDGE BAY A","2400601","2023-05-18 04:00","2023","05","18","04:00"
"-105.14","69.11","CAMBRIDGE BAY A","2400601","2023-05-18 05:00","2023","05","18","05:00","-8.5","","-11.1","","82","","","","30","","16","","24.1","","101.76","","","","-15","","Mainly Clear"
"-105.14","69.11","CAMBRIDGE BAY A","2400601","2023-05-18 06:00","2023","05","18","06:00","-8.1","","-10.8","","81","","","","30","","14","","24.1","","101.73","","","","-14","","NA"
"-105.14","69.11","CAMBRIDGE BAY A","2400601","2023-05-18 07:00","2023","05","18","07:00","-7.4","","-10.1","","81","","","","28","","18","","24.1","","101.71","","","","-14","","NA"
"-105.14","69.11","CAMBRIDGE BAY A","2400601","2023-05-18 08:00","2023","05","18","08:00","-6.6","","-9.1","","83","","","","30","","16","","24.1","","101.72","","","","-13","","Mainly Clear"
"-105.14","69.11","CAMBRIDGE BAY A","2400601","2023-05-18 09:00","2023","05","18","09:00","-6.5","","-8.8","","83","","","","30","","17","","24.1","","101.67","","","","-13","","NA"
"-105.14","69.11","CAMBRIDGE BAY A","2400601","2023-05-18 10:00","2023","05","18","10:00","-6.3","","-8.7","","83","","","","33","","12","","24.1","","101.66","","","","-11","","NA"
"-105.14","69.11","CAMBRIDGE BAY A","2400601","2023-05-18 11:00","2023","05","18","11:00","-5.2","","-8.0","","81","","","","28","","12","","24.1","","101.65","","","","-10","","Mostly Cloudy"
"-105.14","69.11","CAMBRIDGE BAY A","2400601","2023-05-18 12:00","2023","05","18","12:00","-4.9","","-8.2","","78","","","","26","","16","","24.1","","101.64","","","","-11","","NA"
"-105.14","69.11","CAMBRIDGE BAY A","2400601","2023-05-18 13:00","2023","05","18","13:00","-4.2","","-7.7","","77","","","","28","","17","","24.1","","101.59","","","","-10","","NA"
"-105.14","69.11","CAMBRIDGE BAY A","2400601","2023-05-18 14:00","2023","05","18","14:00","-4.5","","-7.3","","81","","","","26","","15","","24.1","","101.54","","","","-10","","Mostly Cloudy"
"-105.14","69.11","CAMBRIDGE BAY A","2400601","2023-05-18 15:00","2023","05","18","15:00","-4.5","","-7.5","","80","","","","26","","14","","24.1","","101.46","","","","-10","","NA"
"-105.14","69.11","CAMBRIDGE BAY A","2400601","2023-05-18 16:00","2023","05","18","16:00","-4.1","","-7.3","","79","","","","25","","8","","24.1","","101.36","","","","-8","","NA"
"-105.14","69.11","CAMBRIDGE BAY A","2400601","2023-05-18 17:00","2023","05","18","17:00","-4.1","","-7.9","","75","","","","25","","4","","24.1","","101.30","","","","-6","","Mostly Cloudy"
"-105.14","69.11","CAMBRIDGE BAY A","2400601","2023-05-18 18:00","2023","05","18","18:00","-4.0","","-9.0","","68","","","","14","","10","","24.1","","101.15","","","","-8","","NA"
"-105.14","69.11","CAMBRIDGE BAY A","2400601","2023-05-18 19:00","2023","05","18","19:00","-4.5","","-8.8","","72","","","","18","","3","","24.1","","101.17","","","","-6","","NA"
"-105.14","69.11","CAMBRIDGE BAY A","2400601","2023-05-18 20:00","2023","05","18","20:00"
"-105.14","69.11","CAMBRIDGE BAY A","2400601","2023-05-18 21:00","2023","05","18","21:00"
"-105.14","69.11","CAMBRIDGE BAY A","2400601","2023-05-18 22:00","2023","05","18","22:00"
"-105.14","69.11","CAMBRIDGE BAY A","2400601","2023-05-18 23:00","2023","05","18","23:00"
"-105.14","69.11","CAMBRIDGE BAY A","2400601","2023-05-19 00:00","2023","05","19","00:00"
"-105.14","69.11","CAMBRIDGE BAY A","2400601","2023-05-19 01:00","2023","05","19","01:00"
"-105.14","69.11","CAMBRIDGE BAY A","2400601","2023-05-19 02:00","2023","05","19","02:00"
"-105.14","69.11","CAMBRIDGE BAY A","2400601","2023-05-19 03:00","2023","05","19","03:00"
"-105.14","69.11","CAMBRIDGE BAY A","2400601","2023-05-19 04:00","2023","05","19","04:00"
"-105.14","69.11","CAMBRIDGE BAY A","2400601","2023-05-19 05:00","2023","05","19","05:00","-6.4","","-8.2","","87","","","","31","","18","","24.1","","100.85","","","","-13","","Mostly Cloudy"
"-105.14","69.11","CAMBRIDGE BAY A","2400601","2023-05-19 06:00","2023","05","19","06:00","-7.7","","-10.0","","84","","","","33","","20","","24.1","","100.86","","","","-15","","NA"
"-105.14","69.11","CAMBRIDGE BAY A","2400601","2023-05-19 07:00","2023","05","19","07:00","-7.1","","-10.0","","80","","","","35","","18","","24.1","","100.92","","","","-14","","NA"
"-105.14","69.11","CAMBRIDGE BAY A","2400601","2023-05-19 08:00","2023","05","19","08:00","-7.0","","-11.1","","73","","","","35","","25","","20.9","","100.97","","","","-15","","Mostly Cloudy"
"-105.14","69.11","CAMBRIDGE BAY A","2400601","2023-05-19 09:00","2023","05","19","09:00","-6.7","","-10.3","","75","","","","34","","23","","24.1","","101.02","","","","-14","","NA"
"-105.14","69.11","CAMBRIDGE BAY A","2400601","2023-05-19 10:00","2023","05","19","10:00","-6.9","","-10.1","","78","","","","31","","27","","24.1","","101.07","","","","-15","","NA"
"-105.14","69.11","CAMBRIDGE BAY A","2400601","2023-05-19 11:00","2023","05","19","11:00","-6.8","","-10.0","","78","","","","30","","30","","24.1","","101.11","","","","-15","","Mostly Cloudy"
"-105.14","69.11","CAMBRIDGE BAY A","2400601","2023-05-19 12:00","2023","05","19","12:00","-5.5","","-9.0","","77","","","","32","","29","","24.1","","101.17","","","","-14","","NA"
"-105.14","69.11","CAMBRIDGE BAY A","2400601","2023-05-19 13:00","2023","05","19","13:00","-6.0","","-10.0","","73","","","","33","","28","","24.1","","101.23","","","","-14","","NA"
"-105.14","69.11","CAMBRIDGE BAY A","2400601","2023-05-19 14:00","2023","05","19","14:00","-5.4","","-9.8","","71","","","","33","","31","","24.1","","101.27","","","","-14","","Mostly Cloudy"
"-105.14","69.11","CAMBRIDGE BAY A","2400601","2023-05-19 15:00","2023","05","19","15:00","-5.0","","-9.7","","70","","","","32","","31","","19.3","","101.32","","","","-13","","Snow Showers"
"-105.14","69.11","CAMBRIDGE BAY A","2400601","2023-05-19 16:00","2023","05","19","16:00","-5.5","","-9.5","","73","","","","33","","26","","19.3","","101.37","","","","-13","","Snow Showers"
"-105.14","69.11","CAMBRIDGE BAY A","2400601","2023-05-19 17:00","2023","05","19","17:00","-5.5","","-9.3","","75","","","","34","","21","","19.3","","101.42","","","","-12","","Snow Showers"
"-105.14","69.11","CAMBRIDGE BAY A","2400601","2023-05-19 18:00","2023","05","19","18:00","-5.8","","-9.2","","77","","","","32","","23","","24.1","","101.46","","","","-13","","Snow Showers"
"-105.14","69.11","CAMBRIDGE BAY A","2400601","2023-05-19 19:00","2023","05","19","19:00","-6.4","","-9.9","","76","","","","35","","17","","24.1","","101.52","","","","-13","","Snow Showers"
"-105.14","69.11","CAMBRIDGE BAY A","2400601","2023-05-19 20:00","2023","05","19","20:00"
"-105.14","69.11","CAMBRIDGE BAY A","2400601","2023-05-19 21:00","2023","05","19","21:00"
"-105.14","69.11","CAMBRIDGE BAY A","2400601","2023-05-19 22:00","2023","05","19","22:00"
"-105.14","69.11","CAMBRIDGE BAY A","2400601","2023-05-19 23:00","2023","05","19","23:00"
"-105.14","69.11","CAMBRIDGE BAY A","2400601","2023-05-20 00:00","2023","05","20","00:00"
"-105.14","69.11","CAMBRIDGE BAY A","2400601","2023-05-20 01:00","2023","05","20","01:00"
"-105.14","69.11","CAMBRIDGE BAY A","2400601","2023-05-20 02:00","2023","05","20","02:00"
"-105.14","69.11","CAMBRIDGE BAY A","2400601","2023-05-20 03:00","2023","05","20","03:00"
"-105.14","69.11","CAMBRIDGE BAY A","2400601","2023-05-20 04:00","2023","05","20","04:00"
"-105.14","69.11","CAMBRIDGE BAY A","2400601","2023-05-20 05:00","2023","05","20","05:00","-13.0","","-16.3","","77","","","","31","","19","","24.1","","101.85","","","","-21","","Mainly Clear"
"-105.14","69.11","CAMBRIDGE BAY A","2400601","2023-05-20 06:00","2023","05","20","06:00","-11.8","","-15.8","","72","","","","31","","18","","24.1","","101.87","","","","-20","","NA"
"-105.14","69.11","CAMBRIDGE BAY A","2400601","2023-05-20 07:00","2023","05","20","07:00","-11.4","","-15.2","","74","","","","28","","17","","24.1","","101.91","","","","-19","","NA"
"-105.14","69.11","CAMBRIDGE BAY A","2400601","2023-05-20 08:00","2023","05","20","08:00","-9.4","","-13.3","","74","","","","27","","15","","24.1","","101.87","","","","-16","","Mostly Cloudy"
"-105.14","69.11","CAMBRIDGE BAY A","2400601","2023-05-20 09:00","2023","05","20","09:00","-9.2","","-12.6","","76","","","","23","","13","","24.1","","101.83","","","","-15","","NA"
"-105.14","69.11","CAMBRIDGE BAY A","2400601","2023-05-20 10:00","2023","05","20","10:00","-7.8","","-11.8","","74","","","","24","","17","","24.1","","101.80","","","","-14","","NA"
"-105.14","69.11","CAMBRIDGE BAY A","2400601","2023-05-20 11:00","2023","05","20","11:00","-6.7","","-10.6","","74","","","","24","","17","","24.1","","101.76","","","","-13","","Mainly Clear"
"-105.14","69.11","CAMBRIDGE BAY A","2400601","2023-05-20 12:00","2023","05","20","12:00","-5.2","","-9.2","","74","","","","26","","21","","24.1","","101.74","","","","-12","","NA"
"-105.14","69.11","CAMBRIDGE BAY A","2400601","2023-05-20 13:00","2023","05","20","13:00","-5.1","","-9.4","","72","","","","24","","17","","24.1","","101.67","","","","-11","","NA"
"-105.14","69.11","CAMBRIDGE BAY A","2400601","2023-05-20 14:00","2023","05","20","14:00","-4.2","","-8.7","","71","","","","22","","17","","24.1","","101.63","","","","-10","","Mainly Clear"
"-105.14","69.11","CAMBRIDGE BAY A","2400601","2023-05-20 15:00","2023","05","20","15:00","-4.2","","-8.6","","72","","","","23","","10","","24.1","","101.56","","","","-8","","NA"
"-105.14","69.11","CAMBRIDGE BAY A","2400601","2023-05-20 16:00","2023","05","20","16:00","-3.6","","-7.3","","76","","","","20","","16","","24.1","","101.46","","","","-9","","NA"
"-105.14","69.11","CAMBRIDGE BAY A","2400601","2023-05-20 17:00","2023","05","20","17:00","-3.4","","-6.9","","77","","","","19","","15","","24.1","","101.39","","","","-9","","Mostly Cloudy"
"-105.14","69.11","CAMBRIDGE BAY A","2400601","2023-05-20 18:00","2023","05","20","18:00","-3.5","","-6.7","","79","","","","18","","15","","24.1","","101.31","","","","-9","","NA"
"-105.14","69.11","CAMBRIDGE BAY A","2400601","2023-05-20 19:00","2023","05","20","19:00","-4.2","","-6.3","","86","","","","17","","15","","24.1","","101.22","","","","-10","","NA"
"-105.14","69.11","CAMBRIDGE BAY A","2400601","2023-05-20 20:00","2023","05","20","20:00","-4.2","","-6.3","","85","","","","16","","12","","24.1","","101.14","","","","-9","","Mostly Cloudy"
"-105.14","69.11","CAMBRIDGE BAY A","2400601","2023-05-20 21:00","2023","05","20","21:00","-5.7","","-7.2","","89","","","","16","","14","","24.1","","101.04","","","","-11","","NA"
"-105.14","69.11","CAMBRIDGE BAY A","2400601","2023-05-20 22:00","2023","05","20","22:00","-6.0","","-7.6","","89","","","","15","","12","","24.1","","101.00","","","","-11","","NA"
"-105.14","69.11","CAMBRIDGE BAY A","2400601","2023-05-20 23:00","2023","05","20","23:00","-5.8","","-7.3","","90","","","","15","","13","","24.1","","100.92","","","","-11","","Mostly Cloudy"
"-105.14","69.11","CAMBRIDGE BAY A","2400601","2023-05-21 00:00","2023","05","21","00:00","-5.6","","-7.0","","90","","","","16","","7","","24.1","","100.85","","","","-9","","NA"
"-105.14","69.11","CAMBRIDGE BAY A","2400601","2023-05-21 01:00","2023","05","21","01:00","-7.1","","-8.5","","90","","","","3","","10","","24.1","","100.78","","","","-12","","NA"
"-105.14","69.11","CAMBRIDGE BAY A","2400601","2023-05-21 02:00","2023","05","21","02:00","-6.5","","-8.0","","89","","","","3","","5","","24.1","","100.70","","","","-9","","Mostly Cloudy"
"-105.14","69.11","CAMBRIDGE BAY A","2400601","2023-05-21 03:00","2023","05","21","03:00","-5.3","","-7.0","","88","","","","3","","4","","24.1","","100.60","","","","-7","","NA"
"-105.14","69.11","CAMBRIDGE BAY A","2400601","2023-05-21 04:00","2023","05","21","04:00","-5.9","","-7.8","","87","","","","2","","7","","24.1","","100.56","","","","-9","","NA"
"-105.14","69.11","CAMBRIDGE BAY A","2400601","2023-05-21 05:00","2023","05","21","05:00","-5.7","","-7.9","","84","","","","3","","8","","24.1","","100.53","","","","-9","","Mainly Clear"
"-105.14","69.11","CAMBRIDGE BAY A","2400601","2023-05-21 06:00","2023","05","21","06:00","-4.7","","-7.1","","83","","","","36","","3","","24.1","","100.51","","","","-6","","NA"
"-105.14","69.11","CAMBRIDGE BAY A","2400601","2023-05-21 07:00","2023","05","21","07:00","-4.7","","-7.4","","81","","","","2","","10","","24.1","","100.50","","","","-9","","NA"
"-105.14","69.11","CAMBRIDGE BAY A","2400601","2023-05-21 08:00","2023","05","21","08:00","-3.7","","-6.0","","84","","","","31","","4","","24.1","","100.50","","","","-5","","Mainly Clear"
"-105.14","69.11","CAMBRIDGE BAY A","2400601","2023-05-21 09:00","2023","05","21","09:00","-2.7","","-5.3","","82","","","","30","","11","","24.1","","100.51","","","","-7","","NA"
"-105.14","69.11","CAMBRIDGE BAY A","2400601","2023-05-21 10:00","2023","05","21","10:00","-1.8","","-4.1","","84","","","","32","","15","","24.1","","100.55","","","","-7","","NA"
"-105.14","69.11","CAMBRIDGE BAY A","2400601","2023-05-21 11:00","2023","05","21","11:00","-1.4","","-3.6","","85","","","","30","","14","","24.1","","100.61","","","","-6","","Mainly Clear"
"-105.14","69.11","CAMBRIDGE BAY A","2400601","2023-05-21 12:00","2023","05","21","12:00","-0.5","","-3.3","","81","","","","29","","22","","24.1","","100.64","","","","-6","","NA"
"-105.14","69.11","CAMBRIDGE BAY A","2400601","2023-05-21 13:00","2023","05","21","13:00","0.1","","-2.7","","82","","","","29","","23","","24.1","","100.70","","","","","","NA"
"-105.14","69.11","CAMBRIDGE BAY A","2400601","2023-05-21 14:00","2023","05","21","14:00","0.2","","-2.7","","81","","","","31","","19","","24.1","","100.76","","","","","","Clear"
"-105.14","69.11","CAMBRIDGE BAY A","2400601","2023-05-21 15:00","2023","05","21","15:00","0.8","","-2.2","","80","","","","30","","23","","24.1","","100.82","","","","","","NA"
"-105.14","69.11","CAMBRIDGE BAY A","2400601","2023-05-21 16:00","2023","05","21","16:00","1.2","","-1.4","","83","","","","32","","22","","24.1","","100.86","","","","","","NA"
"-105.14","69.11","CAMBRIDGE BAY A","2400601","2023-05-21 17:00","2023","05","21","17:00","1.1","","-1.3","","84","","","","31","","21","","24.1","","100.94","","","","","","Mainly Clear"
"-105.14","69.11","CAMBRIDGE BAY A","2400601","2023-05-21 18:00","2023","05","21","18:00","1.0","","-1.2","","85","","","","32","","23","","24.1","","101.00","","","","","","NA"
"-105.14","69.11","CAMBRIDGE BAY A","2400601","2023-05-21 19:00","2023","05","21","19:00","0.6","","-1.0","","89","","","","31","","17","","24.1","","101.05","","","","","","NA"
"-105.14","69.11","CAMBRIDGE BAY A","2400601","2023-05-21 20:00","2023","05","21","20:00","0.6","","-0.8","","90","","","","31","","19","","24.1","","101.09","","","","","","Mostly Cloudy"
"-105.14","69.11","CAMBRIDGE BAY A","2400601","2023-05-21 21:00","2023","05","21","21:00","0.4","","-0.6","","93","","","","30","","19","","22.5","","101.13","","","","","","Snow"
"-105.14","69.11","CAMBRIDGE BAY A","2400601","2023-05-21 22:00","2023","05","21","22:00","0.5","","-0.6","","93","","","","30","","20","","24.1","","101.21","","","","","","Snow"
"-105.14","69.11","CAMBRIDGE BAY A","2400601","2023-05-21 23:00","2023","05","21","23:00","0.4","","-0.5","","94","","","","32","","22","","2.4","","101.26","","","","","","Snow,Fog"
"-105.14","69.11","CAMBRIDGE BAY A","2400601","2023-05-22 00:00","2023","05","22","00:00","-0.4","","-2.7","","84","","","","35","","15","","16.1","","101.34","","","","-5","","Snow"
"-105.14","69.11","CAMBRIDGE BAY A","2400601","2023-05-22 01:00","2023","05","22","01:00","-1.5","","-3.3","","88","","","","33","","17","","24.1","","101.41","","","","-7","","NA"
"-105.14","69.11","CAMBRIDGE BAY A","2400601","2023-05-22 02:00","2023","05","22","02:00","-1.4","","-2.4","","92","","","","1","","30","","4.0","","101.48","","","","-8","","Snow,Blowing Snow"
"-105.14","69.11","CAMBRIDGE BAY A","2400601","2023-05-22 03:00","2023","05","22","03:00","-2.1","","-4.3","","85","","","","2","","26","","22.5","","101.58","","","","-9","","Snow,Blowing Snow"
"-105.14","69.11","CAMBRIDGE BAY A","2400601","2023-05-22 04:00","2023","05","22","04:00","-2.8","","-5.5","","81","","","","36","","16","","24.1","","101.69","","","","-8","","NA"
"-105.14","69.11","CAMBRIDGE BAY A","2400601","2023-05-22 05:00","2023","05","22","05:00","-3.3","","-6.0","","82","","","","34","","18","","24.1","","101.76","","","","-9","","Mostly Cloudy"
"-105.14","69.11","CAMBRIDGE BAY A","2400601","2023-05-22 06:00","2023","05","22","06:00","-3.5","","-5.8","","84","","","","31","","20","","24.1","","101.84","","","","-10","","NA"
"-105.14","69.11","CAMBRIDGE BAY A","2400601","2023-05-22 07:00","2023","05","22","07:00","-2.7","","-5.7","","80","","","","32","","19","","24.1","","101.87","","","","-8","","NA"
"-105.14","69.11","CAMBRIDGE BAY A","2400601","2023-05-22 08:00","2023","05","22","08:00","-1.8","","-5.7","","75","","","","32","","19","","24.1","","101.91","","","","-7","","Mostly Cloudy"
"-105.14","69.11","CAMBRIDGE BAY A","2400601","2023-05-22 09:00","2023","05","22","09:00","-1.3","","-5.9","","71","","","","31","","17","","24.1","","101.94","","","","-6","","NA"
"-105.14","69.11","CAMBRIDGE BAY A","2400601","2023-05-22 10:00","2023","05","22","10:00","-1.4","","-5.0","","76","","","","30","","19","","24.1","","101.96","","","","-7","","NA"
"-105.14","69.11","CAMBRIDGE BAY A","2400601","2023-05-22 11:00","2023","05","22","11:00","-0.6","","-4.8","","73","","","","30","","23","","24.1","","101.97","","","","-6","","Mostly Cloudy"
"-105.14","69.11","CAMBRIDGE BAY A","2400601","2023-05-22 12:00","2023","05","22","12:00","-0.4","","-4.9","","71","","","","29","","22","","24.1","","102.00","","","","-6","","NA"
"-105.14","69.11","CAMBRIDGE BAY A","2400601","2023-05-22 13:00","2023","05","22","13:00","-0.4","","-4.5","","74","","","","27","","26","","24.1","","101.98","","","","-7","","NA"
"-105.14","69.11","CAMBRIDGE BAY A","2400601","2023-05-22 14:00","2023","05","22","14:00","-0.5","","-3.4","","81","","","","26","","28","","24.1","","101.98","","","","-7","","Mostly Cloudy"
"-105.14","69.11","CAMBRIDGE BAY A","2400601","2023-05-22 15:00","2023","05","22","15:00","-0.5","","-3.3","","81","","","","26","","32","","24.1","","101.95","","","","-7","","NA"
"-105.14","69.11","CAMBRIDGE BAY A","2400601","2023-05-22 16:00","2023","05","22","16:00","-0.6","","-3.0","","84","","","","26","","30","","24.1","","101.94","","","","-7","","NA"
"-105.14","69.11","CAMBRIDGE BAY A","2400601","2023-05-22 17:00","2023","05","22","17:00","-0.7","","-3.0","","84","","","","26","","30","","24.1","","101.93","","","","-7","","Cloudy"
"-105.14","69.11","CAMBRIDGE BAY A","2400601","2023-05-22 18:00","2023","05","22","18:00","-0.7","","-2.6","","87","","","","25","","24","","24.1","","101.87","","","","-7","","NA"
"-105.14","69.11","CAMBRIDGE BAY A","2400601","2023-05-22 19:00","2023","05","22","19:00","-0.9","","-2.7","","88","","","","25","","28","","24.1","","101.82","","","","-7","","NA"
"-105.14","69.11","CAMBRIDGE BAY A","2400601","2023-05-22 20:00","2023","05","22","20:00","-0.9","","-2.4","","90","","","","25","","23","","24.1","","101.75","","","","-7","","Cloudy"
"-105.14","69.11","CAMBRIDGE BAY A","2400601","2023-05-22 21:00","2023","05","22","21:00","-1.0","","-3.5","","83","","","","26","","30","","24.1","","101.70","","","","-8","","NA"
"-105.14","69.11","CAMBRIDGE BAY A","2400601","2023-05-22 22:00","2023","05","22","22:00","-1.0","","-2.8","","88","","","","24","","24","","24.1","","101.68","","","","-7","","NA"
"-105.14","69.11","CAMBRIDGE BAY A","2400601","2023-05-22 23:00","2023","05","22","23:00","-1.2","","-3.1","","87","","","","25","","33","","24.1","","101.64","","","","-8","","Cloudy"
"-105.14","69.11","CAMBRIDGE BAY A","2400601","2023-05-23 00:00","2023","05","23","00:00","-3.1","","-4.3","","92","","","","24","","22","","24.1","","101.60","","","","-9","","NA"
"-105.14","69.11","CAMBRIDGE BAY A","2400601","2023-05-23 01:00","2023","05","23","01:00","-4.2","","-5.1","","93","","","","23","","17","","24.1","","101.53","","","","-10","","NA"
"-105.14","69.11","CAMBRIDGE BAY A","2400601","2023-05-23 02:00","2023","05","23","02:00","-4.1","","-5.4","","91","","","","22","","25","","24.1","","101.42","","","","-11","","Mainly Clear"
"-105.14","69.11","CAMBRIDGE BAY A","2400601","2023-05-23 03:00","2023","05","23","03:00","-4.0","","-5.5","","89","","","","23","","18","","24.1","","101.36","","","","-10","","NA"
"-105.14","69.11","CAMBRIDGE BAY A","2400601","2023-05-23 04:00","2023","05","23","04:00","-2.9","","-4.6","","88","","","","24","","22","","24.1","","101.29","","","","-9","","NA"
"-105.14","69.11","CAMBRIDGE BAY A","2400601","2023-05-23 05:00","2023","05","23","05:00","-1.9","","-4.0","","86","","","","26","","25","","24.1","","101.22","","","","-8","","Mainly Clear"
"-105.14","69.11","CAMBRIDGE BAY A","2400601","2023-05-23 06:00","2023","05","23","06:00","-0.3","","-2.7","","84","","","","27","","19","","24.1","","101.18","","","","-5","","NA"
"-105.14","69.11","CAMBRIDGE BAY A","2400601","2023-05-23 07:00","2023","05","23","07:00","0.1","","-2.1","","85","","","","23","","11","","24.1","","101.13","","","","","","NA"
"-105.14","69.11","CAMBRIDGE BAY A","2400601","2023-05-23 08:00","2023","05","23","08:00","2.7","","-0.1","","81","","","","25","","32","","24.1","","101.08","","","","","","Mainly Clear"
"-105.14","69.11","CAMBRIDGE BAY A","2400601","2023-05-23 09:00","2023","05","23","09:00","2.8","","0.0","","82","","","","28","","23","","24.1","","101.07","","","","","","NA"
"-105.14","69.11","CAMBRIDGE BAY A","2400601","2023-05-23 10:00","2023","05","23","10:00","2.5","","-0.1","","83","","","","27","","33","","24.1","","101.05","","","","","","NA"
"-105.14","69.11","CAMBRIDGE BAY A","2400601","2023-05-23 11:00","2023","05","23","11:00","2.5","","0.2","","85","","","","27","","28","","24.1","","101.08","","","","","","Mainly Clear"
"-105.14","69.11","CAMBRIDGE BAY A","2400601","2023-05-23 12:00","2023","05","23","12:00","2.4","","0.0","","84","","","","26","","24","","24.1","","101.12","","","","","","NA"
"-105.14","69.11","CAMBRIDGE BAY A","2400601","2023-05-23 13:00","2023","05","23","13:00","2.5","","0.2","","84","","","","27","","22","","24.1","","101.14","","","","","","NA"
"-105.14","69.11","CAMBRIDGE BAY A","2400601","2023-05-23 14:00","2023","05","23","14:00","3.4","","0.2","","79","","","","28","","26","","24.1","","101.11","","","","","","Mainly Clear"
"-105.14","69.11","CAMBRIDGE BAY A","2400601","2023-05-23 15:00","2023","05","23","15:00","2.2","","0.1","","86","","","","24","","10","","24.1","","101.15","","","","","","NA"
"-105.14","69.11","CAMBRIDGE BAY A","2400601","2023-05-23 16:00","2023","05","23","16:00","2.2","","0.2","","86","","","","25","","14","","20.9","","101.13","","","","","","NA"
"-105.14","69.11","CAMBRIDGE BAY A","2400601","2023-05-23 17:00","2023","05","23","17:00","2.2","","0.4","","88","","","","28","","14","","24.1","","101.15","","","","","","Mainly Clear"
"-105.14","69.11","CAMBRIDGE BAY A","2400601","2023-05-23 18:00","2023","05","23","18:00","1.9","","0.1","","88","","","","35","","5","","24.1","","101.14","","","","","","NA"
"-105.14","69.11","CAMBRIDGE BAY A","2400601","2023-05-23 19:00","2023","05","23","19:00","1.9","","-0.1","","86","","","","2","","7","","24.1","","101.16","","","","","","NA"
"-105.14","69.11","CAMBRIDGE BAY A","2400601","2023-05-23 20:00","2023","05","23","20:00","1.1","","-0.2","","91","","","","5","","3","","24.1","","101.14","","","","","","Mainly Clear"
"-105.14","69.11","CAMBRIDGE BAY A","2400601","2023-05-23 21:00","2023","05","23","21:00","-0.2","","-0.8","","96","","","","8","","13","","24.1","","101.10","","","","-4","","NA"
"-105.14","69.11","CAMBRIDGE BAY A","2400601","2023-05-23 22:00","2023","05","23","22:00","-0.4","","-1.0","","96","","","","10","","13","","24.1","","101.08","","","","-5","","NA"
"-105.14","69.11","CAMBRIDGE BAY A","2400601","2023-05-23 23:00","2023","05","23","23:00","-1.4","","-1.9","","96","","","","9","","11","","24.1","","101.05","","","","-5","","Mostly Cloudy"
"-105.14","69.11","CAMBRIDGE BAY A","2400601","2023-05-24 00:00","2023","05","24","00:00","-1.6","","-2.0","","97","","","","10","","13","","24.1","","101.03","","","","-6","","NA"
"-105.14","69.11","CAMBRIDGE BAY A","2400601","2023-05-24 01:00","2023","05","24","01:00","-1.4","","-1.9","","97","","","","10","","16","","24.1","","100.95","","","","-6","","NA"
"-105.14","69.11","CAMBRIDGE BAY A","2400601","2023-05-24 02:00","2023","05","24","02:00","-0.8","","-1.2","","97","","","","12","","14","","24.1","","100.86","","","","-5","","Mostly Cloudy"
"-105.14","69.11","CAMBRIDGE BAY A","2400601","2023-05-24 03:00","2023","05","24","03:00","-1.1","","-1.6","","96","","","","11","","17","","24.1","","100.78","","","","-6","","NA"
"-105.14","69.11","CAMBRIDGE BAY A","2400601","2023-05-24 04:00","2023","05","24","04:00","-1.3","","-1.6","","97","","","","12","","16","","24.1","","100.71","","","","-6","","NA"
"-105.14","69.11","CAMBRIDGE BAY A","2400601","2023-05-24 05:00","2023","05","24","05:00","-0.9","","-1.2","","98","","","","11","","15","","1.2","","100.63","","","","-6","","Fog"
"-105.14","69.11","CAMBRIDGE BAY A","2400601","2023-05-24 06:00","2023","05","24","06:00","-0.6","","-1.0","","98","","","","9","","13","","4.8","","100.53","","","","-5","","Fog"
"-105.14","69.11","CAMBRIDGE BAY A","2400601","2023-05-24 07:00","2023","05","24","07:00","0.1","","-0.3","","97","","","","11","","13","","24.1","","100.42","","","","","","NA"
"-105.14","69.11","CAMBRIDGE BAY A","2400601","2023-05-24 08:00","2023","05","24","08:00","0.7","","-0.3","","93","","","","5","","5","","24.1","","100.36","","","","","","Cloudy"
"-105.14","69.11","CAMBRIDGE BAY A","2400601","2023-05-24 09:00","2023","05","24","09:00","1.2","","-0.3","","90","","","","11","","6","","24.1","","100.29","","","","","","NA"
"-105.14","69.11","CAMBRIDGE BAY A","2400601","2023-05-24 10:00","2023","05","24","10:00","1.4","","-0.2","","89","","","","36","","2","","24.1","","100.23","","","","","","NA"
"-105.14","69.11","CAMBRIDGE BAY A","2400601","2023-05-24 11:00","2023","05","24","11:00","1.6","","-0.1","","88","","","","24","","8","","24.1","","100.19","","","","","","Cloudy"
"-105.14","69.11","CAMBRIDGE BAY A","2400601","2023-05-24 12:00","2023","05","24","12:00","1.6","","-0.1","","88","","","","26","","14","","24.1","","100.20","","","","","","NA"
"-105.14","69.11","CAMBRIDGE BAY A","2400601","2023-05-24 13:00","2023","05","24","13:00","2.5","","0.2","","85","","","","29","","19","","24.1","","100.20","","","","","","NA"
"-105.14","69.11","CAMBRIDGE BAY A","2400601","2023-05-24 14:00","2023","05","24","14:00","1.8","","-0.1","","87","","","","31","","23","","24.1","","100.24","","","","","","Mostly Cloudy"
"-105.14","69.11","CAMBRIDGE BAY A","2400601","2023-05-24 15:00","2023","05","24","15:00","1.2","","-0.2","","90","","","","33","","26","","24.1","","100.36","","","","","","NA"
"-105.14","69.11","CAMBRIDGE BAY A","2400601","2023-05-24 16:00","2023","05","24","16:00","1.4","","-1.4","","82","","","","36","","32","","24.1","","100.46","","","","","","NA"
"-105.14","69.11","CAMBRIDGE BAY A","2400601","2023-05-24 17:00","2023","05","24","17:00","-0.4","","-2.6","","85","","","","36","","36","","24.1","","100.64","","","","-8","","Cloudy"
"-105.14","69.11","CAMBRIDGE BAY A","2400601","2023-05-24 18:00","2023","05","24","18:00","-2.3","","-5.8","","77","","","","1","","43","","24.1","","100.81","","","","-11","","NA"
"-105.14","69.11","CAMBRIDGE BAY A","2400601","2023-05-24 19:00","2023","05","24","19:00","-3.1","","-6.7","","76","","","","36","","32","","24.1","","100.94","","","","-11","","NA"
"-105.14","69.11","CAMBRIDGE BAY A","2400601","2023-05-24 20:00","2023","05","24","20:00","-5.7","","-9.3","","76","","","","36","","41","","24.1","","101.15","","","","-15","","Mainly Clear"
"-105.14","69.11","CAMBRIDGE BAY A","2400601","2023-05-24 21:00","2023","05","24","21:00","-7.9","","-11.8","","74","","","","36","","31","","24.1","","101.32","","","","-17","","NA"
"-105.14","69.11","CAMBRIDGE BAY A","2400601","2023-05-24 22:00","2023","05","24","22:00","-8.7","","-12.2","","76","","","","36","","29","","24.1","","101.46","","","","-18","","NA"
"-105.14","69.11","CAMBRIDGE BAY A","2400601","2023-05-24 23:00","2023","05","24","23:00","-9.1","","-12.3","","78","","","","35","","23","","24.1","","101.59","","","","-17","","Clear"
"-105.14","69.11","CAMBRIDGE BAY A","2400601","2023-05-25 00:00","2023","05","25","00:00","-9.6","","-12.6","","79","","","","32","","21","","24.1","","101.72","","","","-18","","NA"
"-105.14","69.11","CAMBRIDGE BAY A","2400601","2023-05-25 01:00","2023","05","25","01:00","-10.1","","-12.7","","81","","","","32","","17","","24.1","","101.80","","","","-17","","NA"
"-105.14","69.11","CAMBRIDGE BAY A","2400601","2023-05-25 02:00","2023","05","25","02:00","-9.8","","-12.3","","83","","","","29","","21","","24.1","","101.87","","","","-18","","Clear"
"-105.14","69.11","CAMBRIDGE BAY A","2400601","2023-05-25 03:00","2023","05","25","03:00","-10.4","","-13.3","","80","","","","31","","21","","24.1","","101.92","","","","-19","","NA"
"-105.14","69.11","CAMBRIDGE BAY A","2400601","2023-05-25 04:00","2023","05","25","04:00","-10.3","","-13.8","","76","","","","32","","28","","24.1","","101.97","","","","-20","","NA"
"-105.14","69.11","CAMBRIDGE BAY A","2400601","2023-05-25 05:00","2023","05","25","05:00","-9.7","","-13.4","","75","","","","32","","24","","24.1","","102.02","","","","-18","","Clear"
"-105.14","69.11","CAMBRIDGE BAY A","2400601","2023-05-25 06:00","2023","05","25","06:00","-9.6","","-13.2","","75","","","","32","","19","","24.1","","102.06","","","","-17","","NA"
"-105.14","69.11","CAMBRIDGE BAY A","2400601","2023-05-25 07:00","2023","05","25","07:00","-9.1","","-13.2","","72","","","","32","","23","","24.1","","102.10","","","","-17","","NA"
"-105.14","69.11","CAMBRIDGE BAY A","2400601","2023-05-25 08:00","2023","05","25","08:00","-9.0","","-13.2","","72","","","","32","","20","","24.1","","102.11","","","","-17","","Clear"
"-105.14","69.11","CAMBRIDGE BAY A","2400601","2023-05-25 09:00","2023","05","25","09:00","-8.5","","-12.9","","71","","","","33","","15","","24.1","","102.10","","","","-15","","NA"
"-105.14","69.11","CAMBRIDGE BAY A","2400601","2023-05-25 10:00","2023","05","25","10:00","-7.9","","-12.2","","71","","","","32","","17","","24.1","","102.12","","","","-15","","NA"
"-105.14","69.11","CAMBRIDGE BAY A","2400601","2023-05-25 11:00","2023","05","25","11:00","-8.0","","-13.1","","67","","","","32","","9","","24.1","","102.11","","","","-13","","Mainly Clear"
"-105.14","69.11","CAMBRIDGE BAY A","2400601","2023-05-25 12:00","2023","05","25","12:00","-7.3","","-12.9","","65","","","","29","","10","","24.1","","102.11","","","","-12","","NA"
"-105.14","69.11","CAMBRIDGE BAY A","2400601","2023-05-25 13:00","2023","05","25","13:00","-6.4","","-11.8","","66","","","","28","","14","","24.1","","102.07","","","","-12","","NA"
"-105.14","69.11","CAMBRIDGE BAY A","2400601","2023-05-25 14:00","2023","05","25","14:00","-6.3","","-11.3","","68","","","","28","","13","","24.1","","102.03","","","","-12","","Mostly Cloudy"
"-105.14","69.11","CAMBRIDGE BAY A","2400601","2023-05-25 15:00","2023","05","25","15:00","-6.3","","-11.4","","67","","","","26","","16","","24.1","","101.98","","","","-12","","NA"
"-105.14","69.11","CAMBRIDGE BAY A","2400601","2023-05-25 16:00","2023","05","25","16:00","-6.2","","-10.5","","72","","","","26","","20","","24.1","","101.94","","","","-13","","NA"
"-105.14","69.11","CAMBRIDGE BAY A","2400601","2023-05-25 17:00","2023","05","25","17:00","-6.3","","-10.6","","72","","","","24","","12","","24.1","","101.89","","","","-11","","Cloudy"
"-105.14","69.11","CAMBRIDGE BAY A","2400601","2023-05-25 18:00","2023","05","25","18:00","-6.3","","-10.5","","72","","","","25","","12","","24.1","","101.82","","","","-11","","NA"
"-105.14","69.11","CAMBRIDGE BAY A","2400601","2023-05-25 19:00","2023","05","25","19:00","-6.3","","-10.5","","72","","","","26","","7","","24.1","","101.78","","","","-10","","NA"
"-105.14","69.11","CAMBRIDGE BAY A","2400601","2023-05-25 20:00","2023","05","25","20:00","-6.6","","-9.4","","81","","","","33","","7","","2.4","","101.75","","","","-10","","Snow,Fog"
"-105.14","69.11","CAMBRIDGE BAY A","2400601","2023-05-25 21:00","2023","05","25","21:00","-6.9","","-9.2","","84","","","","20","","3","","3.2","","101.68","","","","-8","","Snow,Fog"
"-105.14","69.11","CAMBRIDGE BAY A","2400601","2023-05-25 22:00","2023","05","25","22:00","-7.2","","-8.9","","88","","","","16","","9","","2.4","","101.64","","","","-12","","Snow,Fog"
"-105.14","69.11","CAMBRIDGE BAY A","2400601","2023-05-25 23:00","2023","05","25","23:00","-7.2","","-8.7","","89","","","","15","","5","","8.1","","101.59","","","","-10","","Snow,Fog"
"-105.14","69.11","CAMBRIDGE BAY A","2400601","2023-05-26 00:00","2023","05","26","00:00","-7.3","","-8.8","","89","","","","8","","7","","22.5","","101.53","","","","-11","","Snow"
"-105.14","69.11","CAMBRIDGE BAY A","2400601","2023-05-26 01:00","2023","05","26","01:00","-8.3","","-9.7","","90","","","","3","","10","","22.5","","101.49","","","","-13","","Snow"
"-105.14","69.11","CAMBRIDGE BAY A","2400601","2023-05-26 02:00","2023","05","26","02:00","-9.5","","-11.0","","89","","","","4","","14","","24.1","","101.46","","","","-16","","Mostly Cloudy"
"-105.14","69.11","CAMBRIDGE BAY A","2400601","2023-05-26 03:00","2023","05","26","03:00","-10.7","","-12.4","","87","","","","3","","11","","24.1","","101.43","","","","-16","","NA"
"-105.14","69.11","CAMBRIDGE BAY A","2400601","2023-05-26 04:00","2023","05","26","04:00","-10.6","","-12.6","","85","","","","4","","17","","24.1","","101.40","","","","-18","","NA"
"-105.14","69.11","CAMBRIDGE BAY A","2400601","2023-05-26 05:00","2023","05","26","05:00","-10.1","","-12.6","","82","","","","3","","15","","24.1","","101.40","","","","-17","","Mainly Clear"
"-105.14","69.11","CAMBRIDGE BAY A","2400601","2023-05-26 06:00","2023","05","26","06:00","-9.5","","-12.5","","79","","","","2","","14","","24.1","","101.40","","","","-16","","NA"
"-105.14","69.11","CAMBRIDGE BAY A","2400601","2023-05-26 07:00","2023","05","26","07:00","-8.5","","-11.4","","80","","","","3","","16","","24.1","","101.40","","","","-15","","NA"
"-105.14","69.11","CAMBRIDGE BAY A","2400601","2023-05-26 08:00","2023","05","26","08:00","-7.9","","-12.1","","72","","","","3","","25","","24.1","","101.40","","","","-16","","Mainly Clear"
"-105.14","69.11","CAMBRIDGE BAY A","2400601","2023-05-26 09:00","2023","05","26","09:00","-7.9","","-12.1","","72","","","","2","","19","","24.1","","101.43","","","","-15","","NA"
"-105.14","69.11","CAMBRIDGE BAY A","2400601","2023-05-26 10:00","2023","05","26","10:00","-7.5","","-11.6","","73","","","","3","","19","","24.1","","101.45","","","","-15","","NA"
"-105.14","69.11","CAMBRIDGE BAY A","2400601","2023-05-26 11:00","2023","05","26","11:00","-7.2","","-11.2","","73","","","","1","","17","","24.1","","101.46","","","","-14","","Mostly Cloudy"
"-105.14","69.11","CAMBRIDGE BAY A","2400601","2023-05-26 12:00","2023","05","26","12:00","-6.9","","-11.2","","71","","","","1","","16","","24.1","","101.49","","","","-13","","NA"
"-105.14","69.11","CAMBRIDGE BAY A","2400601","2023-05-26 13:00","2023","05","26","13:00","-6.7","","-11.2","","70","","","","1","","15","","24.1","","101.52","","","","-13","","NA"
"-105.14","69.11","CAMBRIDGE BAY A","2400601","2023-05-26 14:00","2023","05","26","14:00","-6.4","","-11.2","","69","","","","1","","14","","24.1","","101.53","","","","-12","","Mostly Cloudy"
"-105.14","69.11","CAMBRIDGE BAY A","2400601","2023-05-26 15:00","2023","05","26","15:00","-6.0","","-10.5","","71","","","","35","","11","","24.1","","101.53","","","","-11","","NA"
"-105.14","69.11","CAMBRIDGE BAY A","2400601","2023-05-26 16:00","2023","05","26","16:00","-5.8","","-10.6","","69","","","","33","","14","","24.1","","101.54","","","","-11","","NA"
"-105.14","69.11","CAMBRIDGE BAY A","2400601","2023-05-26 17:00","2023","05","26","17:00","-5.7","","-10.5","","69","","","","34","","11","","24.1","","101.55","","","","-10","","Clear"
"-105.14","69.11","CAMBRIDGE BAY A","2400601","2023-05-26 18:00","2023","05","26","18:00","-5.7","","-10.6","","69","","","","33","","13","","24.1","","101.54","","","","-11","","NA"
"-105.14","69.11","CAMBRIDGE BAY A","2400601","2023-05-26 19:00","2023","05","26","19:00","-5.6","","-9.6","","73","","","","34","","9","","24.1","","101.52","","","","-10","","NA"
"-105.14","69.11","CAMBRIDGE BAY A","2400601","2023-05-26 20:00","2023","05","26","20:00","-6.3","","-9.7","","78","","","","31","","8","","24.1","","101.53","","","","-10","","Mainly Clear"
"-105.14","69.11","CAMBRIDGE BAY A","2400601","2023-05-26 21:00","2023","05","26","21:00","-6.9","","-10.0","","79","","","","32","","11","","24.1","","101.54","","","","-12","","NA"
"-105.14","69.11","CAMBRIDGE BAY A","2400601","2023-05-26 22:00","2023","05","26","22:00","-8.7","","-11.1","","83","","","","32","","11","","24.1","","101.55","","","","-14","","NA"
"-105.14","69.11","CAMBRIDGE BAY A","2400601","2023-05-26 23:00","2023","05","26","23:00","-9.1","","-11.2","","85","","","","33","","10","","24.1","","101.56","","","","-14","","Mainly Clear"
"-105.14","69.11","CAMBRIDGE BAY A","2400601","2023-05-27 00:00","2023","05","27","00:00","-8.4","","-10.7","","84","","","","30","","8","","24.1","","101.58","","","","-13","","NA"
"-105.14","69.11","CAMBRIDGE BAY A","2400601","2023-05-27 01:00","2023","05","27","01:00","-9.8","","-12.1","","84","","","","28","","5","","24.1","","101.58","","","","-13","","NA"
"-105.14","69.11","CAMBRIDGE BAY A","2400601","2023-05-27 02:00","2023","05","27","02:00","-11.3","","-13.4","","85","","","","9","","7","","24.1","","101.53","","","","-16","","Mainly Clear"
"-105.14","69.11","CAMBRIDGE BAY A","2400601","2023-05-27 03:00","2023","05","27","03:00","-10.5","","-12.5","","86","","","","12","","3","","24.1","","101.50","","","","-12","","NA"
"-105.14","69.11","CAMBRIDGE BAY A","2400601","2023-05-27 04:00","2023","05","27","04:00","-10.5","","-12.6","","85","","","","36","","2","","24.1","","101.47","","","","-12","","NA"
"-105.14","69.11","CAMBRIDGE BAY A","2400601","2023-05-27 05:00","2023","05","27","05:00","-9.5","","-11.5","","86","","","","16","","7","","24.1","","101.45","","","","-13","","Mainly Clear"
"-105.14","69.11","CAMBRIDGE BAY A","2400601","2023-05-27 06:00","2023","05","27","06:00","-8.7","","-11.2","","82","","","","16","","12","","24.1","","101.39","","","","-14","","NA"
"-105.14","69.11","CAMBRIDGE BAY A","2400601","2023-05-27 07:00","2023","05","27","07:00","-7.5","","-10.5","","80","","","","15","","17","","24.1","","101.30","","","","-14","","NA"
"-105.14","69.11","CAMBRIDGE BAY A","2400601","2023-05-27 08:00","2023","05","27","08:00","-6.3","","-9.5","","78","","","","15","","19","","24.1","","101.23","","","","-13","","Clear"
"-105.14","69.11","CAMBRIDGE BAY A","2400601","2023-05-27 09:00","2023","05","27","09:00","-5.8","","-8.3","","82","","","","16","","26","","24.1","","101.18","","","","-14","","NA"
"-105.14","69.11","CAMBRIDGE BAY A","2400601","2023-05-27 10:00","2023","05","27","10:00","-5.2","","-7.6","","84","","","","15","","32","","24.1","","101.09","","","","-13","","NA"
"-105.14","69.11","CAMBRIDGE BAY A","2400601","2023-05-27 11:00","2023","05","27","11:00","-4.7","","-7.2","","82","","","","15","","35","","24.1","","100.97","","","","-13","","Mostly Cloudy"
"-105.14","69.11","CAMBRIDGE BAY A","2400601","2023-05-27 12:00","2023","05","27","12:00","-3.5","","-6.2","","82","","","","15","","35","","24.1","","100.85","","","","-12","","NA"
"-105.14","69.11","CAMBRIDGE BAY A","2400601","2023-05-27 13:00","2023","05","27","13:00","-3.2","","-5.5","","84","","","","13","","38","","24.1","","100.70","","","","-11","","NA"
"-105.14","69.11","CAMBRIDGE BAY A","2400601","2023-05-27 14:00","2023","05","27","14:00","-2.6","","-4.8","","85","","","","13","","41","","24.1","","100.53","","","","-11","","Mostly Cloudy"
"-105.14","69.11","CAMBRIDGE BAY A","2400601","2023-05-27 15:00","2023","05","27","15:00","-2.4","","-4.4","","86","","","","13","","40","","24.1","","100.41","","","","-11","","NA"
"-105.14","69.11","CAMBRIDGE BAY A","2400601","2023-05-27 16:00","2023","05","27","16:00","-2.1","","-3.8","","88","","","","12","","41","","24.1","","100.24","","","","-10","","NA"
"-105.14","69.11","CAMBRIDGE BAY A","2400601","2023-05-27 17:00","2023","05","27","17:00","-1.9","","-2.6","","95","","","","12","","42","","2.4","","100.05","","","","-10","","Snow,Blowing Snow"
"-105.14","69.11","CAMBRIDGE BAY A","2400601","2023-05-27 18:00","2023","05","27","18:00","-1.2","","-2.0","","94","","","","13","","50","","4.0","","99.82","","","","-10","","Snow,Blowing Snow"
"-105.14","69.11","CAMBRIDGE BAY A","2400601","2023-05-27 19:00","2023","05","27","19:00","-0.4","","-1.0","","95","","","","13","","52","","8.1","","99.65","","","","-9","","Snow,Blowing Snow"
"-105.14","69.11","CAMBRIDGE BAY A","2400601","2023-05-27 20:00","2023","05","27","20:00"
"-105.14","69.11","CAMBRIDGE BAY A","2400601","2023-05-27 21:00","2023","05","27","21:00"
"-105.14","69.11","CAMBRIDGE BAY A","2400601","2023-05-27 22:00","2023","05","27","22:00"
"-105.14","69.11","CAMBRIDGE BAY A","2400601","2023-05-27 23:00","2023","05","27","23:00"
"-105.14","69.11","CAMBRIDGE BAY A","2400601","2023-05-28 00:00","2023","05","28","00:00"
"-105.14","69.11","CAMBRIDGE BAY A","2400601","2023-05-28 01:00","2023","05","28","01:00"
"-105.14","69.11","CAMBRIDGE BAY A","2400601","2023-05-28 02:00","2023","05","28","02:00"
"-105.14","69.11","CAMBRIDGE BAY A","2400601","2023-05-28 03:00","2023","05","28","03:00"
"-105.14","69.11","CAMBRIDGE BAY A","2400601","2023-05-28 04:00","2023","05","28","04:00"
"-105.14","69.11","CAMBRIDGE BAY A","2400601","2023-05-28 05:00","2023","05","28","05:00","0.2","","-0.1","","98","","","","36","","17","","4.0","","99.06","","","","","","Drizzle,Fog"
"-105.14","69.11","CAMBRIDGE BAY A","2400601","2023-05-28 06:00","2023","05","28","06:00","-1.2","","-1.6","","97","","","","2","","38","","4.0","","99.10","","","","-9","","Fog"
"-105.14","69.11","CAMBRIDGE BAY A","2400601","2023-05-28 07:00","2023","05","28","07:00","-3.2","","-4.2","","92","","","","2","","40","","4.8","","99.21","","","","-12","","Fog"
"-105.14","69.11","CAMBRIDGE BAY A","2400601","2023-05-28 08:00","2023","05","28","08:00","-3.3","","-4.7","","90","","","","2","","43","","4.8","","99.30","","","","-12","","Fog"
"-105.14","69.11","CAMBRIDGE BAY A","2400601","2023-05-28 09:00","2023","05","28","09:00","-3.1","","-4.5","","90","","","","2","","45","","17.7","","99.37","","","","-12","","NA"
"-105.14","69.11","CAMBRIDGE BAY A","2400601","2023-05-28 10:00","2023","05","28","10:00","-3.0","","-4.7","","88","","","","2","","39","","19.3","","99.51","","","","-11","","NA"
"-105.14","69.11","CAMBRIDGE BAY A","2400601","2023-05-28 11:00","2023","05","28","11:00","-2.7","","-4.5","","87","","","","2","","40","","24.1","","99.61","","","","-11","","Mostly Cloudy"
"-105.14","69.11","CAMBRIDGE BAY A","2400601","2023-05-28 12:00","2023","05","28","12:00","-2.4","","-4.5","","86","","","","3","","42","","24.1","","99.68","","","","-11","","NA"
"-105.14","69.11","CAMBRIDGE BAY A","2400601","2023-05-28 13:00","2023","05","28","13:00","-2.4","","-4.8","","84","","","","2","","42","","24.1","","99.76","","","","-11","","NA"
"-105.14","69.11","CAMBRIDGE BAY A","2400601","2023-05-28 14:00","2023","05","28","14:00","-2.4","","-4.7","","85","","","","2","","40","","24.1","","99.80","","","","-11","","Mainly Clear"
"-105.14","69.11","CAMBRIDGE BAY A","2400601","2023-05-28 15:00","2023","05","28","15:00","-2.9","","-5.4","","83","","","","2","","44","","24.1","","99.93","","","","-12","","NA"
"-105.14","69.11","CAMBRIDGE BAY A","2400601","2023-05-28 16:00","2023","05","28","16:00","-2.5","","-4.9","","83","","","","2","","38","","24.1","","100.04","","","","-11","","NA"
"-105.14","69.11","CAMBRIDGE BAY A","2400601","2023-05-28 17:00","2023","05","28","17:00","-2.9","","-5.3","","84","","","","1","","36","","24.1","","100.17","","","","-11","","Mostly Cloudy"
"-105.14","69.11","CAMBRIDGE BAY A","2400601","2023-05-28 18:00","2023","05","28","18:00","-3.1","","-5.2","","85","","","","3","","35","","24.1","","100.26","","","","-11","","NA"
"-105.14","69.11","CAMBRIDGE BAY A","2400601","2023-05-28 19:00","2023","05","28","19:00","-3.6","","-5.7","","85","","","","2","","34","","24.1","","100.32","","","","-12","","NA"
"-105.14","69.11","CAMBRIDGE BAY A","2400601","2023-05-28 20:00","2023","05","28","20:00","-4.0","","-5.8","","87","","","","2","","28","","24.1","","100.41","","","","-11","","Mostly Cloudy"
"-105.14","69.11","CAMBRIDGE BAY A","2400601","2023-05-28 21:00","2023","05","28","21:00","-4.8","","-6.5","","88","","","","2","","30","","24.1","","100.46","","","","-13","","NA"
"-105.14","69.11","CAMBRIDGE BAY A","2400601","2023-05-28 22:00","2023","05","28","22:00","-5.9","","-7.4","","89","","","","2","","24","","24.1","","100.51","","","","-13","","NA"
"-105.14","69.11","CAMBRIDGE BAY A","2400601","2023-05-28 23:00","2023","05","28","23:00","-7.1","","-8.5","","89","","","","2","","11","","24.1","","100.55","","","","-12","","Mainly Clear"
"-105.14","69.11","CAMBRIDGE BAY A","2400601","2023-05-29 00:00","2023","05","29","00:00","-7.8","","-9.3","","89","","","","3","","12","","24.1","","100.59","","","","-13","","NA"
"-105.14","69.11","CAMBRIDGE BAY A","2400601","2023-05-29 01:00","2023","05","29","01:00","-8.2","","-9.8","","88","","","","2","","20","","24.1","","100.62","","","","-16","","NA"
"-105.14","69.11","CAMBRIDGE BAY A","2400601","2023-05-29 02:00","2023","05","29","02:00","-8.6","","-10.3","","88","","","","1","","15","","24.1","","100.71","","","","-15","","Mainly Clear"
"-105.14","69.11","CAMBRIDGE BAY A","2400601","2023-05-29 03:00","2023","05","29","03:00","-8.8","","-10.7","","86","","","","1","","17","","24.1","","100.74","","","","-16","","NA"
"-105.14","69.11","CAMBRIDGE BAY A","2400601","2023-05-29 04:00","2023","05","29","04:00","-8.9","","-11.0","","85","","","","1","","17","","24.1","","100.79","","","","-16","","NA"
"-105.14","69.11","CAMBRIDGE BAY A","2400601","2023-05-29 05:00","2023","05","29","05:00","-8.3","","-10.6","","84","","","","3","","16","","24.1","","100.84","","","","-15","","Mainly Clear"
"-105.14","69.11","CAMBRIDGE BAY A","2400601","2023-05-29 06:00","2023","05","29","06:00","-8.4","","-10.4","","85","","","","2","","22","","24.1","","100.87","","","","-16","","NA"
"-105.14","69.11","CAMBRIDGE BAY A","2400601","2023-05-29 07:00","2023","05","29","07:00","-7.7","","-9.8","","85","","","","2","","18","","24.1","","100.91","","","","-15","","NA"
"-105.14","69.11","CAMBRIDGE BAY A","2400601","2023-05-29 08:00","2023","05","29","08:00","-7.0","","-9.2","","84","","","","3","","17","","24.1","","100.92","","","","-13","","Mostly Cloudy"
"-105.14","69.11","CAMBRIDGE BAY A","2400601","2023-05-29 09:00","2023","05","29","09:00","-6.7","","-8.9","","84","","","","3","","16","","24.1","","100.95","","","","-13","","NA"
"-105.14","69.11","CAMBRIDGE BAY A","2400601","2023-05-29 10:00","2023","05","29","10:00","-5.9","","-8.4","","82","","","","3","","18","","24.1","","100.98","","","","-12","","NA"
"-105.14","69.11","CAMBRIDGE BAY A","2400601","2023-05-29 11:00","2023","05","29","11:00","-5.7","","-8.4","","81","","","","1","","16","","24.1","","100.99","","","","-12","","Mostly Cloudy"
"-105.14","69.11","CAMBRIDGE BAY A","2400601","2023-05-29 12:00","2023","05","29","12:00","-5.2","","-7.7","","83","","","","3","","20","","24.1","","101.01","","","","-12","","NA"
"-105.14","69.11","CAMBRIDGE BAY A","2400601","2023-05-29 13:00","2023","05","29","13:00","-4.6","","-6.8","","84","","","","3","","19","","24.1","","101.03","","","","-11","","NA"
"-105.14","69.11","CAMBRIDGE BAY A","2400601","2023-05-29 14:00","2023","05","29","14:00","-4.7","","-7.1","","83","","","","7","","9","","24.1","","101.08","","","","-9","","Mostly Cloudy"
"-105.14","69.11","CAMBRIDGE BAY A","2400601","2023-05-29 15:00","2023","05","29","15:00","-4.4","","-6.4","","86","","","","5","","16","","24.1","","101.12","","","","-10","","NA"
"-105.14","69.11","CAMBRIDGE BAY A","2400601","2023-05-29 16:00","2023","05","29","16:00","-4.3","","-6.4","","85","","","","5","","13","","24.1","","101.13","","","","-9","","NA"
"-105.14","69.11","CAMBRIDGE BAY A","2400601","2023-05-29 17:00","2023","05","29","17:00","-4.3","","-6.4","","85","","","","4","","15","","24.1","","101.19","","","","-10","","Mostly Cloudy"
"-105.14","69.11","CAMBRIDGE BAY A","2400601","2023-05-29 18:00","2023","05","29","18:00","-4.5","","-6.7","","85","","","","6","","11","","24.1","","101.22","","","","-9","","NA"
"-105.14","69.11","CAMBRIDGE BAY A","2400601","2023-05-29 19:00","2023","05","29","19:00","-4.5","","-6.3","","87","","","","7","","15","","24.1","","101.24","","","","-10","","NA"
"-105.14","69.11","CAMBRIDGE BAY A","2400601","2023-05-29 20:00","2023","05","29","20:00","-4.9","","-6.5","","88","","","","8","","12","","24.1","","101.26","","","","-10","","Mostly Cloudy"
"-105.14","69.11","CAMBRIDGE BAY A","2400601","2023-05-29 21:00","2023","05","29","21:00","-5.3","","-6.8","","90","","","","9","","9","","24.1","","101.29","","","","-9","","NA"
"-105.14","69.11","CAMBRIDGE BAY A","2400601","2023-05-29 22:00","2023","05","29","22:00","-5.4","","-6.6","","91","","","","8","","16","","24.1","","101.31","","","","-11","","NA"
"-105.14","69.11","CAMBRIDGE BAY A","2400601","2023-05-29 23:00","2023","05","29","23:00","-5.6","","-6.8","","92","","","","13","","10","","24.1","","101.36","","","","-10","","Mostly Cloudy"
"-105.14","69.11","CAMBRIDGE BAY A","2400601","2023-05-30 00:00","2023","05","30","00:00","-5.9","","-6.9","","92","","","","10","","12","","24.1","","101.37","","","","-11","","NA"
"-105.14","69.11","CAMBRIDGE BAY A","2400601","2023-05-30 01:00","2023","05","30","01:00","-6.3","","-7.0","","95","","","","11","","15","","16.1","","101.39","","","","-12","","NA"
"-105.14","69.11","CAMBRIDGE BAY A","2400601","2023-05-30 02:00","2023","05","30","02:00","-6.6","","-7.3","","95","","","","13","","12","","4.8","","101.40","","","","-12","","Fog"
"-105.14","69.11","CAMBRIDGE BAY A","2400601","2023-05-30 03:00","2023","05","30","03:00","-6.4","","-7.2","","94","","","","14","","12","","2.4","","101.42","","","","-12","","Fog"
"-105.14","69.11","CAMBRIDGE BAY A","2400601","2023-05-30 04:00","2023","05","30","04:00","-6.1","","-6.9","","94","","","","12","","12","","1.2","","101.45","","","","-11","","Fog"
"-105.14","69.11","CAMBRIDGE BAY A","2400601","2023-05-30 05:00","2023","05","30","05:00","-6.6","","-7.6","","93","","","","14","","13","","3.6","","101.48","","","","-12","","Fog"
"-105.14","69.11","CAMBRIDGE BAY A","2400601","2023-05-30 06:00","2023","05","30","06:00","-6.0","","-6.8","","94","","","","13","","17","","3.6","","101.49","","","","-12","","Freezing Drizzle,Fog"
"-105.14","69.11","CAMBRIDGE BAY A","2400601","2023-05-30 07:00","2023","05","30","07:00","-5.5","","-6.3","","94","","","","14","","17","","3.6","","101.51","","","","-12","","Fog"
"-105.14","69.11","CAMBRIDGE BAY A","2400601","2023-05-30 08:00","2023","05","30","08:00","-5.2","","-6.0","","94","","","","14","","17","","4.0","","101.50","","","","-11","","Fog"
"-105.14","69.11","CAMBRIDGE BAY A","2400601","2023-05-30 09:00","2023","05","30","09:00","-4.6","","-5.3","","95","","","","16","","18","","8.1","","101.50","","","","-11","","Fog"
"-105.14","69.11","CAMBRIDGE BAY A","2400601","2023-05-30 10:00","2023","05","30","10:00","-4.5","","-5.2","","95","","","","16","","17","","14.5","","101.50","","","","-10","","NA"
"-105.14","69.11","CAMBRIDGE BAY A","2400601","2023-05-30 11:00","2023","05","30","11:00","-3.9","","-4.6","","95","","","","16","","18","","12.9","","101.52","","","","-10","","Mostly Cloudy"
"-105.14","69.11","CAMBRIDGE BAY A","2400601","2023-05-30 12:00","2023","05","30","12:00","-3.3","","-4.0","","95","","","","16","","21","","14.5","","101.53","","","","-10","","NA"
"-105.14","69.11","CAMBRIDGE BAY A","2400601","2023-05-30 13:00","2023","05","30","13:00","-2.7","","-3.8","","93","","","","14","","17","","16.1","","101.52","","","","-8","","NA"
"-105.14","69.11","CAMBRIDGE BAY A","2400601","2023-05-30 14:00","2023","05","30","14:00","-2.1","","-3.2","","92","","","","15","","20","","24.1","","101.54","","","","-8","","Cloudy"
"-105.14","69.11","CAMBRIDGE BAY A","2400601","2023-05-30 15:00","2023","05","30","15:00","-2.2","","-3.6","","90","","","","14","","21","","24.1","","101.54","","","","-8","","NA"
"-105.14","69.11","CAMBRIDGE BAY A","2400601","2023-05-30 16:00","2023","05","30","16:00","-1.8","","-3.2","","90","","","","13","","22","","24.1","","101.54","","","","-8","","NA"
"-105.14","69.11","CAMBRIDGE BAY A","2400601","2023-05-30 17:00","2023","05","30","17:00","-1.8","","-3.0","","91","","","","13","","21","","24.1","","101.56","","","","-8","","Mostly Cloudy"
"-105.14","69.11","CAMBRIDGE BAY A","2400601","2023-05-30 18:00","2023","05","30","18:00","-2.0","","-3.1","","92","","","","12","","22","","24.1","","101.56","","","","-8","","NA"
"-105.14","69.11","CAMBRIDGE BAY A","2400601","2023-05-30 19:00","2023","05","30","19:00","-2.7","","-3.5","","94","","","","13","","27","","24.1","","101.54","","","","-10","","NA"
"-105.14","69.11","CAMBRIDGE BAY A","2400601","2023-05-30 20:00","2023","05","30","20:00"
"-105.14","69.11","CAMBRIDGE BAY A","2400601","2023-05-30 21:00","2023","05","30","21:00"
"-105.14","69.11","CAMBRIDGE BAY A","2400601","2023-05-30 22:00","2023","05","30","22:00"
"-105.14","69.11","CAMBRIDGE BAY A","2400601","2023-05-30 23:00","2023","05","30","23:00"
"-105.14","69.11","CAMBRIDGE BAY A","2400601","2023-05-31 00:00","2023","05","31","00:00"
"-105.14","69.11","CAMBRIDGE BAY A","2400601","2023-05-31 01:00","2023","05","31","01:00"
"-105.14","69.11","CAMBRIDGE BAY A","2400601","2023-05-31 02:00","2023","05","31","02:00"
"-105.14","69.11","CAMBRIDGE BAY A","2400601","2023-05-31 03:00","2023","05","31","03:00"
"-105.14","69.11","CAMBRIDGE BAY A","2400601","2023-05-31 04:00","2023","05","31","04:00"
"-105.14","69.11","CAMBRIDGE BAY A","2400601","2023-05-31 05:00","2023","05","31","05:00","-2.7","","-4.3","","89","","","","13","","19","","24.1","","101.54","","","","-8","","Mainly Clear"
"-105.14","69.11","CAMBRIDGE BAY A","2400601","2023-05-31 06:00","2023","05","31","06:00","-2.2","","-3.9","","88","","","","13","","20","","24.1","","101.54","","","","-8","","NA"
"-105.14","69.11","CAMBRIDGE BAY A","2400601","2023-05-31 07:00","2023","05","31","07:00","-0.9","","-2.8","","87","","","","14","","22","","24.1","","101.51","","","","-7","","NA"
"-105.14","69.11","CAMBRIDGE BAY A","2400601","2023-05-31 08:00","2023","05","31","08:00","0.0","","-1.8","","88","","","","13","","26","","24.1","","101.48","","","","-6","","Mainly Clear"
"-105.14","69.11","CAMBRIDGE BAY A","2400601","2023-05-31 09:00","2023","05","31","09:00","0.8","","-1.1","","87","","","","13","","25","","24.1","","101.46","","","","","","NA"
"-105.14","69.11","CAMBRIDGE BAY A","2400601","2023-05-31 10:00","2023","05","31","10:00","1.4","","-0.6","","87","","","","12","","21","","24.1","","101.44","","","","","","NA"
"-105.14","69.11","CAMBRIDGE BAY A","2400601","2023-05-31 11:00","2023","05","31","11:00","1.6","","-0.2","","87","","","","12","","23","","24.1","","101.41","","","","","","Mainly Clear"
"-105.14","69.11","CAMBRIDGE BAY A","2400601","2023-05-31 12:00","2023","05","31","12:00","2.0","","-0.3","","85","","","","12","","32","","24.1","","101.37","","","","","","NA"
"-105.14","69.11","CAMBRIDGE BAY A","2400601","2023-05-31 13:00","2023","05","31","13:00","2.2","","-0.3","","84","","","","12","","29","","24.1","","101.30","","","","","","NA"
"-105.14","69.11","CAMBRIDGE BAY A","2400601","2023-05-31 14:00","2023","05","31","14:00","2.4","","-0.3","","83","","","","12","","28","","24.1","","101.26","","","","","","Mainly Clear"
"-105.14","69.11","CAMBRIDGE BAY A","2400601","2023-05-31 15:00","2023","05","31","15:00","2.6","","-0.4","","80","","","","12","","32","","24.1","","101.23","","","","","","NA"
"-105.14","69.11","CAMBRIDGE BAY A","2400601","2023-05-31 16:00","2023","05","31","16:00","2.7","","-0.4","","80","","","","12","","34","","24.1","","101.16","","","","","","NA"
"-105.14","69.11","CAMBRIDGE BAY A","2400601","2023-05-31 17:00","2023","05","31","17:00","2.6","","-0.3","","81","","","","12","","32","","24.1","","101.12","","","","","","Mainly Clear"
"-105.14","69.11","CAMBRIDGE BAY A","2400601","2023-05-31 18:00","2023","05","31","18:00","2.8","","-0.1","","81","","","","13","","35","","24.1","","101.06","","","","","","NA"
"-105.14","69.11","CAMBRIDGE BAY A","2400601","2023-05-31 19:00","2023","05","31","19:00","2.5","","-0.1","","83","","","","12","","31","","24.1","","101.05","","","","","","NA"
"-105.14","69.11","CAMBRIDGE BAY A","2400601","2023-05-31 20:00","2023","05","31","20:00"
"-105.14","69.11","CAMBRIDGE BAY A","2400601","2023-05-31 21:00","2023","05","31","21:00"
"-105.14","69.11","CAMBRIDGE BAY A","2400601","2023-05-31 22:00","2023","05","31","22:00"
"-105.14","69.11","CAMBRIDGE BAY A","2400601","2023-05-31 23:00","2023","05","31","23:00"
