"Longitude (x)","Latitude (y)","Station Name","Climate ID","Date/Time (LST)","Year","Month","Day","Time (LST)","Temp (°C)","Temp Flag","Dew Point Temp (°C)","Dew Point Temp Flag","Rel Hum (%)","Rel Hum Flag","Precip. Amount (mm)","Precip. Amount Flag","Wind Dir (10s deg)","Wind Dir Flag","Wind Spd (km/h)","Wind Spd Flag","Visibility (km)","Visibility Flag","Stn Press (kPa)","Stn Press Flag","Hmdx","Hmdx Flag","Wind Chill","Wind Chill Flag","Weather"
"-86.35","48.76","MARATHON A","6044963","2019-07-01 00:00","2019","07","01","00:00"
"-86.35","48.76","MARATHON A","6044963","2019-07-01 01:00","2019","07","01","01:00"
"-86.35","48.76","MARATHON A","6044963","2019-07-01 02:00","2019","07","01","02:00"
"-86.35","48.76","MARATHON A","6044963","2019-07-01 03:00","2019","07","01","03:00"
"-86.35","48.76","MARATHON A","6044963","2019-07-01 04:00","2019","07","01","04:00"
"-86.35","48.76","MARATHON A","6044963","2019-07-01 05:00","2019","07","01","05:00"
"-86.35","48.76","MARATHON A","6044963","2019-07-01 06:00","2019","07","01","06:00"
"-86.35","48.76","MARATHON A","6044963","2019-07-01 07:00","2019","07","01","07:00","10.3","","9.8","","97","","","","25","","7","","6.4","","97.48","","","","","","Fog"
"-86.35","48.76","MARATHON A","6044963","2019-07-01 08:00","2019","07","01","08:00","10.0","","10.0","","100","","","","26","","5","","0.0","","97.56","","","","","","Fog"
"-86.35","48.76","MARATHON A","6044963","2019-07-01 09:00","2019","07","01","09:00","9.3","","9.3","","100","","","","23","","5","","0.0","","97.56","","","","","","Fog"
"-86.35","48.76","MARATHON A","6044963","2019-07-01 10:00","2019","07","01","10:00","10.0","","10.0","","100","","","","19","","4","","0.0","","97.49","","","","","","Fog"
"-86.35","48.76","MARATHON A","6044963","2019-07-01 11:00","2019","07","01","11:00","12.7","","12.3","","98","","","","25","","5","","4.0","","97.44","","","","","","Fog"
"-86.35","48.76","MARATHON A","6044963","2019-07-01 12:00","2019","07","01","12:00","12.5","","11.6","","94","","","","27","","7","","2.4","","97.51","","","","","","Fog"
"-86.35","48.76","MARATHON A","6044963","2019-07-01 13:00","2019","07","01","13:00","12.6","","10.7","","89","","","","24","","12","","3.2","","97.52","","","","","","Fog"
"-86.35","48.76","MARATHON A","6044963","2019-07-01 14:00","2019","07","01","14:00","13.5","","10.6","","82","","","","26","","10","","16.1","","97.50","","","","","","Haze"
"-86.35","48.76","MARATHON A","6044963","2019-07-01 15:00","2019","07","01","15:00","14.2","","11.0","","81","","","","25","","8","","14.5","","97.47","","","","","","Haze"
"-86.35","48.76","MARATHON A","6044963","2019-07-01 16:00","2019","07","01","16:00","13.0","","11.1","","88","","","","26","","7","","19.3","","97.46","","","","","","Haze"
"-86.35","48.76","MARATHON A","6044963","2019-07-01 17:00","2019","07","01","17:00"
"-86.35","48.76","MARATHON A","6044963","2019-07-01 18:00","2019","07","01","18:00"
"-86.35","48.76","MARATHON A","6044963","2019-07-01 19:00","2019","07","01","19:00"
"-86.35","48.76","MARATHON A","6044963","2019-07-01 20:00","2019","07","01","20:00"
"-86.35","48.76","MARATHON A","6044963","2019-07-01 21:00","2019","07","01","21:00"
"-86.35","48.76","MARATHON A","6044963","2019-07-01 22:00","2019","07","01","22:00"
"-86.35","48.76","MARATHON A","6044963","2019-07-01 23:00","2019","07","01","23:00"
"-86.35","48.76","MARATHON A","6044963","2019-07-02 00:00","2019","07","02","00:00"
"-86.35","48.76","MARATHON A","6044963","2019-07-02 01:00","2019","07","02","01:00"
"-86.35","48.76","MARATHON A","6044963","2019-07-02 02:00","2019","07","02","02:00"
"-86.35","48.76","MARATHON A","6044963","2019-07-02 03:00","2019","07","02","03:00"
"-86.35","48.76","MARATHON A","6044963","2019-07-02 04:00","2019","07","02","04:00"
"-86.35","48.76","MARATHON A","6044963","2019-07-02 05:00","2019","07","02","05:00"
"-86.35","48.76","MARATHON A","6044963","2019-07-02 06:00","2019","07","02","06:00"
"-86.35","48.76","MARATHON A","6044963","2019-07-02 07:00","2019","07","02","07:00","12.5","","11.2","","92","","","","15","","4","","24.1","","97.42","","","","","","Mainly Clear"
"-86.35","48.76","MARATHON A","6044963","2019-07-02 08:00","2019","07","02","08:00","14.7","","12.0","","84","","","","26","","4","","24.1","","97.47","","","","","","NA"
"-86.35","48.76","MARATHON A","6044963","2019-07-02 09:00","2019","07","02","09:00","16.8","","12.1","","73","","","","25","","4","","24.1","","97.45","","","","","","NA"
"-86.35","48.76","MARATHON A","6044963","2019-07-02 10:00","2019","07","02","10:00","15.7","","11.4","","75","","","","24","","9","","24.1","","97.48","","","","","","Mainly Clear"
"-86.35","48.76","MARATHON A","6044963","2019-07-02 11:00","2019","07","02","11:00","15.8","","10.9","","72","","","","24","","10","","24.1","","97.47","","","","","","NA"
"-86.35","48.76","MARATHON A","6044963","2019-07-02 12:00","2019","07","02","12:00","14.3","","11.3","","82","","","","27","","8","","24.1","","97.50","","","","","","NA"
"-86.35","48.76","MARATHON A","6044963","2019-07-02 13:00","2019","07","02","13:00","17.1","","13.8","","80","","","","26","","10","","24.1","","97.47","","","","","","Mainly Clear"
"-86.35","48.76","MARATHON A","6044963","2019-07-02 14:00","2019","07","02","14:00","16.1","","14.1","","88","","","","26","","10","","19.3","","97.45","","","","","","Haze"
"-86.35","48.76","MARATHON A","6044963","2019-07-02 15:00","2019","07","02","15:00","15.8","","13.8","","88","","","","25","","6","","12.9","","97.44","","","","","","Haze"
"-86.35","48.76","MARATHON A","6044963","2019-07-02 16:00","2019","07","02","16:00","17.2","","14.8","","86","","","","24","","7","","12.9","","97.39","","","","","","Fog,Haze"
"-86.35","48.76","MARATHON A","6044963","2019-07-02 17:00","2019","07","02","17:00"
"-86.35","48.76","MARATHON A","6044963","2019-07-02 18:00","2019","07","02","18:00"
"-86.35","48.76","MARATHON A","6044963","2019-07-02 19:00","2019","07","02","19:00"
"-86.35","48.76","MARATHON A","6044963","2019-07-02 20:00","2019","07","02","20:00"
"-86.35","48.76","MARATHON A","6044963","2019-07-02 21:00","2019","07","02","21:00"
"-86.35","48.76","MARATHON A","6044963","2019-07-02 22:00","2019","07","02","22:00"
"-86.35","48.76","MARATHON A","6044963","2019-07-02 23:00","2019","07","02","23:00"
"-86.35","48.76","MARATHON A","6044963","2019-07-03 00:00","2019","07","03","00:00"
"-86.35","48.76","MARATHON A","6044963","2019-07-03 01:00","2019","07","03","01:00"
"-86.35","48.76","MARATHON A","6044963","2019-07-03 02:00","2019","07","03","02:00"
"-86.35","48.76","MARATHON A","6044963","2019-07-03 03:00","2019","07","03","03:00"
"-86.35","48.76","MARATHON A","6044963","2019-07-03 04:00","2019","07","03","04:00"
"-86.35","48.76","MARATHON A","6044963","2019-07-03 05:00","2019","07","03","05:00"
"-86.35","48.76","MARATHON A","6044963","2019-07-03 06:00","2019","07","03","06:00"
"-86.35","48.76","MARATHON A","6044963","2019-07-03 07:00","2019","07","03","07:00","10.4","","10.4","","100","","","","24","","5","","0.0","","97.49","","","","","","Fog"
"-86.35","48.76","MARATHON A","6044963","2019-07-03 08:00","2019","07","03","08:00","11.7","","11.7","","100","","","","23","","6","","0.0","","97.55","","","","","","Fog"
"-86.35","48.76","MARATHON A","6044963","2019-07-03 09:00","2019","07","03","09:00","12.3","","12.3","","100","","","","27","","4","","0.2","","97.61","","","","","","Fog"
"-86.35","48.76","MARATHON A","6044963","2019-07-03 10:00","2019","07","03","10:00","14.0","","13.8","","99","","","","25","","4","","14.5","","97.61","","","","","","Fog"
"-86.35","48.76","MARATHON A","6044963","2019-07-03 11:00","2019","07","03","11:00","15.3","","13.1","","87","","","","26","","11","","24.1","","97.68","","","","","","NA"
"-86.35","48.76","MARATHON A","6044963","2019-07-03 12:00","2019","07","03","12:00","16.2","","12.6","","79","","","","24","","8","","24.1","","97.69","","","","","","NA"
"-86.35","48.76","MARATHON A","6044963","2019-07-03 13:00","2019","07","03","13:00","17.0","","12.8","","76","","","","27","","8","","24.1","","97.66","","","","","","Mainly Clear"
"-86.35","48.76","MARATHON A","6044963","2019-07-03 14:00","2019","07","03","14:00","18.9","","13.3","","70","","","","26","","8","","24.1","","97.64","","","","","","NA"
"-86.35","48.76","MARATHON A","6044963","2019-07-03 15:00","2019","07","03","15:00","18.7","","13.5","","71","","","","25","","8","","24.1","","97.64","","","","","","NA"
"-86.35","48.76","MARATHON A","6044963","2019-07-03 16:00","2019","07","03","16:00","18.8","","14.1","","74","","","","25","","7","","24.1","","97.66","","","","","","Mostly Cloudy"
"-86.35","48.76","MARATHON A","6044963","2019-07-03 17:00","2019","07","03","17:00"
"-86.35","48.76","MARATHON A","6044963","2019-07-03 18:00","2019","07","03","18:00"
"-86.35","48.76","MARATHON A","6044963","2019-07-03 19:00","2019","07","03","19:00"
"-86.35","48.76","MARATHON A","6044963","2019-07-03 20:00","2019","07","03","20:00"
"-86.35","48.76","MARATHON A","6044963","2019-07-03 21:00","2019","07","03","21:00"
"-86.35","48.76","MARATHON A","6044963","2019-07-03 22:00","2019","07","03","22:00"
"-86.35","48.76","MARATHON A","6044963","2019-07-03 23:00","2019","07","03","23:00"
"-86.35","48.76","MARATHON A","6044963","2019-07-04 00:00","2019","07","04","00:00"
"-86.35","48.76","MARATHON A","6044963","2019-07-04 01:00","2019","07","04","01:00"
"-86.35","48.76","MARATHON A","6044963","2019-07-04 02:00","2019","07","04","02:00"
"-86.35","48.76","MARATHON A","6044963","2019-07-04 03:00","2019","07","04","03:00"
"-86.35","48.76","MARATHON A","6044963","2019-07-04 04:00","2019","07","04","04:00"
"-86.35","48.76","MARATHON A","6044963","2019-07-04 05:00","2019","07","04","05:00"
"-86.35","48.76","MARATHON A","6044963","2019-07-04 06:00","2019","07","04","06:00"
"-86.35","48.76","MARATHON A","6044963","2019-07-04 07:00","2019","07","04","07:00","17.8","","14.2","","79","","","","26","","4","","24.1","","97.73","","","","","","Mainly Clear"
"-86.35","48.76","MARATHON A","6044963","2019-07-04 08:00","2019","07","04","08:00","18.9","","13.4","","70","","","","24","","10","","24.1","","97.73","","","","","","NA"
"-86.35","48.76","MARATHON A","6044963","2019-07-04 09:00","2019","07","04","09:00","20.5","","13.7","","65","","","","24","","8","","24.1","","97.73","","","","","","NA"
"-86.35","48.76","MARATHON A","6044963","2019-07-04 10:00","2019","07","04","10:00","21.1","","13.2","","60","","","","20","","10","","24.1","","97.70","","","","","","Mainly Clear"
"-86.35","48.76","MARATHON A","6044963","2019-07-04 11:00","2019","07","04","11:00","22.8","","14.2","","58","","","","21","","8","","24.1","","97.70","","26","","","","NA"
"-86.35","48.76","MARATHON A","6044963","2019-07-04 12:00","2019","07","04","12:00","22.4","","13.6","","57","","","","25","","10","","24.1","","97.72","","26","","","","NA"
"-86.35","48.76","MARATHON A","6044963","2019-07-04 13:00","2019","07","04","13:00","22.6","","13.8","","57","","","","27","","14","","24.1","","97.70","","26","","","","Mainly Clear"
"-86.35","48.76","MARATHON A","6044963","2019-07-04 14:00","2019","07","04","14:00","23.5","","13.3","","52","","","","23","","8","","24.1","","97.70","","26","","","","NA"
"-86.35","48.76","MARATHON A","6044963","2019-07-04 15:00","2019","07","04","15:00","24.7","","14.6","","53","","","","25","","7","","24.1","","97.62","","28","","","","NA"
"-86.35","48.76","MARATHON A","6044963","2019-07-04 16:00","2019","07","04","16:00","24.5","","14.8","","54","","","","24","","7","","19.3","","97.59","","28","","","","Mostly Cloudy"
"-86.35","48.76","MARATHON A","6044963","2019-07-04 17:00","2019","07","04","17:00"
"-86.35","48.76","MARATHON A","6044963","2019-07-04 18:00","2019","07","04","18:00"
"-86.35","48.76","MARATHON A","6044963","2019-07-04 19:00","2019","07","04","19:00"
"-86.35","48.76","MARATHON A","6044963","2019-07-04 20:00","2019","07","04","20:00"
"-86.35","48.76","MARATHON A","6044963","2019-07-04 21:00","2019","07","04","21:00"
"-86.35","48.76","MARATHON A","6044963","2019-07-04 22:00","2019","07","04","22:00"
"-86.35","48.76","MARATHON A","6044963","2019-07-04 23:00","2019","07","04","23:00"
"-86.35","48.76","MARATHON A","6044963","2019-07-05 00:00","2019","07","05","00:00"
"-86.35","48.76","MARATHON A","6044963","2019-07-05 01:00","2019","07","05","01:00"
"-86.35","48.76","MARATHON A","6044963","2019-07-05 02:00","2019","07","05","02:00"
"-86.35","48.76","MARATHON A","6044963","2019-07-05 03:00","2019","07","05","03:00"
"-86.35","48.76","MARATHON A","6044963","2019-07-05 04:00","2019","07","05","04:00"
"-86.35","48.76","MARATHON A","6044963","2019-07-05 05:00","2019","07","05","05:00"
"-86.35","48.76","MARATHON A","6044963","2019-07-05 06:00","2019","07","05","06:00"
"-86.35","48.76","MARATHON A","6044963","2019-07-05 07:00","2019","07","05","07:00","18.2","","16.1","","87","","","","36","","2","","16.1","","97.67","","","","","","Mainly Clear"
"-86.35","48.76","MARATHON A","6044963","2019-07-05 08:00","2019","07","05","08:00","22.4","","18.3","","77","","","","35","","14","","19.3","","97.73","","29","","","","NA"
"-86.35","48.76","MARATHON A","6044963","2019-07-05 09:00","2019","07","05","09:00","23.8","","15.9","","61","","","","36","","12","","9.7","","97.74","","28","","","","Fog"
"-86.35","48.76","MARATHON A","6044963","2019-07-05 10:00","2019","07","05","10:00","25.3","","15.0","","53","","","","36","","17","","9.7","","97.82","","29","","","","Fog"
"-86.35","48.76","MARATHON A","6044963","2019-07-05 11:00","2019","07","05","11:00","26.0","","13.3","","45","","","","34","","14","","9.7","","97.79","","29","","","","Fog"
"-86.35","48.76","MARATHON A","6044963","2019-07-05 12:00","2019","07","05","12:00","26.1","","14.7","","49","","","","26","","8","","9.7","","97.78","","30","","","","Fog"
"-86.35","48.76","MARATHON A","6044963","2019-07-05 13:00","2019","07","05","13:00","23.8","","15.9","","61","","","","23","","11","","12.9","","97.83","","28","","","","Haze"
"-86.35","48.76","MARATHON A","6044963","2019-07-05 14:00","2019","07","05","14:00","25.5","","16.2","","56","","","","26","","5","","12.9","","97.83","","30","","","","Haze"
"-86.35","48.76","MARATHON A","6044963","2019-07-05 15:00","2019","07","05","15:00","25.0","","14.7","","52","","","","27","","14","","12.9","","97.83","","29","","","","Haze"
"-86.35","48.76","MARATHON A","6044963","2019-07-05 16:00","2019","07","05","16:00","24.5","","14.0","","51","","","","24","","8","","12.9","","97.82","","28","","","","Haze"
"-86.35","48.76","MARATHON A","6044963","2019-07-05 17:00","2019","07","05","17:00"
"-86.35","48.76","MARATHON A","6044963","2019-07-05 18:00","2019","07","05","18:00"
"-86.35","48.76","MARATHON A","6044963","2019-07-05 19:00","2019","07","05","19:00"
"-86.35","48.76","MARATHON A","6044963","2019-07-05 20:00","2019","07","05","20:00"
"-86.35","48.76","MARATHON A","6044963","2019-07-05 21:00","2019","07","05","21:00"
"-86.35","48.76","MARATHON A","6044963","2019-07-05 22:00","2019","07","05","22:00"
"-86.35","48.76","MARATHON A","6044963","2019-07-05 23:00","2019","07","05","23:00"
"-86.35","48.76","MARATHON A","6044963","2019-07-06 00:00","2019","07","06","00:00"
"-86.35","48.76","MARATHON A","6044963","2019-07-06 01:00","2019","07","06","01:00"
"-86.35","48.76","MARATHON A","6044963","2019-07-06 02:00","2019","07","06","02:00"
"-86.35","48.76","MARATHON A","6044963","2019-07-06 03:00","2019","07","06","03:00"
"-86.35","48.76","MARATHON A","6044963","2019-07-06 04:00","2019","07","06","04:00"
"-86.35","48.76","MARATHON A","6044963","2019-07-06 05:00","2019","07","06","05:00"
"-86.35","48.76","MARATHON A","6044963","2019-07-06 06:00","2019","07","06","06:00"
"-86.35","48.76","MARATHON A","6044963","2019-07-06 07:00","2019","07","06","07:00","14.4","","8.2","","66","","","","8","","17","","24.1","","98.51","","","","","","Mainly Clear"
"-86.35","48.76","MARATHON A","6044963","2019-07-06 08:00","2019","07","06","08:00","15.8","","8.3","","61","","","","6","","15","","24.1","","98.60","","","","","","NA"
"-86.35","48.76","MARATHON A","6044963","2019-07-06 09:00","2019","07","06","09:00","16.5","","7.7","","56","","","","7","","19","","24.1","","98.61","","","","","","NA"
"-86.35","48.76","MARATHON A","6044963","2019-07-06 10:00","2019","07","06","10:00","18.1","","7.7","","50","","","","4","","18","","24.1","","98.58","","","","","","Mostly Cloudy"
"-86.35","48.76","MARATHON A","6044963","2019-07-06 11:00","2019","07","06","11:00","19.1","","7.6","","47","","","","5","","20","","24.1","","98.57","","","","","","NA"
"-86.35","48.76","MARATHON A","6044963","2019-07-06 12:00","2019","07","06","12:00","20.2","","7.4","","43","","","","5","","12","","24.1","","98.55","","","","","","NA"
"-86.35","48.76","MARATHON A","6044963","2019-07-06 13:00","2019","07","06","13:00","21.1","","6.4","","38","","","","6","","13","","24.1","","98.53","","","","","","Mainly Clear"
"-86.35","48.76","MARATHON A","6044963","2019-07-06 14:00","2019","07","06","14:00","22.0","","6.1","","35","","","","1","","14","","24.1","","98.49","","","","","","NA"
"-86.35","48.76","MARATHON A","6044963","2019-07-06 15:00","2019","07","06","15:00","22.3","","6.2","","35","","","","3","","15","","24.1","","98.47","","","","","","NA"
"-86.35","48.76","MARATHON A","6044963","2019-07-06 16:00","2019","07","06","16:00","22.9","","6.3","","34","","","","3","","4","","24.1","","98.47","","","","","","Mainly Clear"
"-86.35","48.76","MARATHON A","6044963","2019-07-06 17:00","2019","07","06","17:00"
"-86.35","48.76","MARATHON A","6044963","2019-07-06 18:00","2019","07","06","18:00"
"-86.35","48.76","MARATHON A","6044963","2019-07-06 19:00","2019","07","06","19:00"
"-86.35","48.76","MARATHON A","6044963","2019-07-06 20:00","2019","07","06","20:00"
"-86.35","48.76","MARATHON A","6044963","2019-07-06 21:00","2019","07","06","21:00"
"-86.35","48.76","MARATHON A","6044963","2019-07-06 22:00","2019","07","06","22:00"
"-86.35","48.76","MARATHON A","6044963","2019-07-06 23:00","2019","07","06","23:00"
"-86.35","48.76","MARATHON A","6044963","2019-07-07 00:00","2019","07","07","00:00"
"-86.35","48.76","MARATHON A","6044963","2019-07-07 01:00","2019","07","07","01:00"
"-86.35","48.76","MARATHON A","6044963","2019-07-07 02:00","2019","07","07","02:00"
"-86.35","48.76","MARATHON A","6044963","2019-07-07 03:00","2019","07","07","03:00"
"-86.35","48.76","MARATHON A","6044963","2019-07-07 04:00","2019","07","07","04:00"
"-86.35","48.76","MARATHON A","6044963","2019-07-07 05:00","2019","07","07","05:00"
"-86.35","48.76","MARATHON A","6044963","2019-07-07 06:00","2019","07","07","06:00"
"-86.35","48.76","MARATHON A","6044963","2019-07-07 07:00","2019","07","07","07:00","14.8","","10.4","","74","","","","36","","2","","24.1","","98.38","","","","","","Cloudy"
"-86.35","48.76","MARATHON A","6044963","2019-07-07 08:00","2019","07","07","08:00","17.7","","9.4","","58","","","","36","","1","","24.1","","98.40","","","","","","NA"
"-86.35","48.76","MARATHON A","6044963","2019-07-07 09:00","2019","07","07","09:00","18.3","","7.9","","50","","","","24","","8","","24.1","","98.41","","","","","","NA"
"-86.35","48.76","MARATHON A","6044963","2019-07-07 10:00","2019","07","07","10:00","18.7","","8.0","","49","","","","26","","7","","24.1","","98.39","","","","","","Cloudy"
"-86.35","48.76","MARATHON A","6044963","2019-07-07 11:00","2019","07","07","11:00","18.5","","8.2","","51","","","","26","","5","","24.1","","98.38","","","","","","NA"
"-86.35","48.76","MARATHON A","6044963","2019-07-07 12:00","2019","07","07","12:00","17.9","","7.5","","50","","","","26","","11","","24.1","","98.36","","","","","","NA"
"-86.35","48.76","MARATHON A","6044963","2019-07-07 13:00","2019","07","07","13:00","18.6","","7.7","","49","","","","25","","7","","24.1","","98.30","","","","","","Mostly Cloudy"
"-86.35","48.76","MARATHON A","6044963","2019-07-07 14:00","2019","07","07","14:00","19.1","","7.5","","47","","","","27","","13","","24.1","","98.26","","","","","","NA"
"-86.35","48.76","MARATHON A","6044963","2019-07-07 15:00","2019","07","07","15:00","18.1","","8.1","","52","","","","24","","10","","24.1","","98.26","","","","","","NA"
"-86.35","48.76","MARATHON A","6044963","2019-07-07 16:00","2019","07","07","16:00","17.4","","7.9","","54","","","","22","","5","","24.1","","98.24","","","","","","Mainly Clear"
"-86.35","48.76","MARATHON A","6044963","2019-07-07 17:00","2019","07","07","17:00"
"-86.35","48.76","MARATHON A","6044963","2019-07-07 18:00","2019","07","07","18:00"
"-86.35","48.76","MARATHON A","6044963","2019-07-07 19:00","2019","07","07","19:00"
"-86.35","48.76","MARATHON A","6044963","2019-07-07 20:00","2019","07","07","20:00"
"-86.35","48.76","MARATHON A","6044963","2019-07-07 21:00","2019","07","07","21:00"
"-86.35","48.76","MARATHON A","6044963","2019-07-07 22:00","2019","07","07","22:00"
"-86.35","48.76","MARATHON A","6044963","2019-07-07 23:00","2019","07","07","23:00"
"-86.35","48.76","MARATHON A","6044963","2019-07-08 00:00","2019","07","08","00:00"
"-86.35","48.76","MARATHON A","6044963","2019-07-08 01:00","2019","07","08","01:00"
"-86.35","48.76","MARATHON A","6044963","2019-07-08 02:00","2019","07","08","02:00"
"-86.35","48.76","MARATHON A","6044963","2019-07-08 03:00","2019","07","08","03:00"
"-86.35","48.76","MARATHON A","6044963","2019-07-08 04:00","2019","07","08","04:00"
"-86.35","48.76","MARATHON A","6044963","2019-07-08 05:00","2019","07","08","05:00"
"-86.35","48.76","MARATHON A","6044963","2019-07-08 06:00","2019","07","08","06:00"
"-86.35","48.76","MARATHON A","6044963","2019-07-08 07:00","2019","07","08","07:00","9.7","","8.3","","91","","","","36","","2","","24.1","","98.17","","","","","","Cloudy"
"-86.35","48.76","MARATHON A","6044963","2019-07-08 08:00","2019","07","08","08:00","11.5","","8.8","","84","","","","24","","5","","24.1","","98.18","","","","","","NA"
"-86.35","48.76","MARATHON A","6044963","2019-07-08 09:00","2019","07","08","09:00","13.5","","8.1","","70","","","","24","","9","","24.1","","98.20","","","","","","NA"
"-86.35","48.76","MARATHON A","6044963","2019-07-08 10:00","2019","07","08","10:00","15.0","","8.5","","65","","","","23","","5","","24.1","","98.17","","","","","","Mostly Cloudy"
"-86.35","48.76","MARATHON A","6044963","2019-07-08 11:00","2019","07","08","11:00","15.1","","8.1","","63","","","","26","","13","","24.1","","98.18","","","","","","NA"
"-86.35","48.76","MARATHON A","6044963","2019-07-08 12:00","2019","07","08","12:00","16.0","","9.4","","65","","","","24","","8","","24.1","","98.20","","","","","","NA"
"-86.35","48.76","MARATHON A","6044963","2019-07-08 13:00","2019","07","08","13:00","16.7","","10.3","","66","","","","25","","7","","24.1","","98.19","","","","","","Mostly Cloudy"
"-86.35","48.76","MARATHON A","6044963","2019-07-08 14:00","2019","07","08","14:00","17.1","","10.5","","65","","","","24","","9","","24.1","","98.14","","","","","","NA"
"-86.35","48.76","MARATHON A","6044963","2019-07-08 15:00","2019","07","08","15:00","17.0","","9.2","","60","","","","22","","10","","24.1","","98.10","","","","","","NA"
"-86.35","48.76","MARATHON A","6044963","2019-07-08 16:00","2019","07","08","16:00","15.8","","10.0","","68","","","","24","","9","","24.1","","98.11","","","","","","Mostly Cloudy"
"-86.35","48.76","MARATHON A","6044963","2019-07-08 17:00","2019","07","08","17:00"
"-86.35","48.76","MARATHON A","6044963","2019-07-08 18:00","2019","07","08","18:00"
"-86.35","48.76","MARATHON A","6044963","2019-07-08 19:00","2019","07","08","19:00"
"-86.35","48.76","MARATHON A","6044963","2019-07-08 20:00","2019","07","08","20:00"
"-86.35","48.76","MARATHON A","6044963","2019-07-08 21:00","2019","07","08","21:00"
"-86.35","48.76","MARATHON A","6044963","2019-07-08 22:00","2019","07","08","22:00"
"-86.35","48.76","MARATHON A","6044963","2019-07-08 23:00","2019","07","08","23:00"
"-86.35","48.76","MARATHON A","6044963","2019-07-09 00:00","2019","07","09","00:00"
"-86.35","48.76","MARATHON A","6044963","2019-07-09 01:00","2019","07","09","01:00"
"-86.35","48.76","MARATHON A","6044963","2019-07-09 02:00","2019","07","09","02:00"
"-86.35","48.76","MARATHON A","6044963","2019-07-09 03:00","2019","07","09","03:00"
"-86.35","48.76","MARATHON A","6044963","2019-07-09 04:00","2019","07","09","04:00"
"-86.35","48.76","MARATHON A","6044963","2019-07-09 05:00","2019","07","09","05:00"
"-86.35","48.76","MARATHON A","6044963","2019-07-09 06:00","2019","07","09","06:00"
"-86.35","48.76","MARATHON A","6044963","2019-07-09 07:00","2019","07","09","07:00","15.6","","11.8","","78","","","","24","","3","","16.1","","97.89","","","","","","Haze"
"-86.35","48.76","MARATHON A","6044963","2019-07-09 08:00","2019","07","09","08:00","17.2","","12.7","","75","","","","24","","4","","16.1","","97.90","","","","","","Haze"
"-86.35","48.76","MARATHON A","6044963","2019-07-09 09:00","2019","07","09","09:00","18.6","","13.4","","71","","","","26","","9","","12.9","","97.86","","","","","","Haze"
"-86.35","48.76","MARATHON A","6044963","2019-07-09 10:00","2019","07","09","10:00","19.4","","13.7","","69","","","","20","","9","","12.9","","97.88","","","","","","Haze"
"-86.35","48.76","MARATHON A","6044963","2019-07-09 11:00","2019","07","09","11:00","19.6","","14.1","","70","","","","21","","4","","12.9","","97.88","","","","","","Haze"
"-86.35","48.76","MARATHON A","6044963","2019-07-09 12:00","2019","07","09","12:00","20.7","","14.1","","65","","","","21","","8","","16.1","","97.88","","","","","","Haze"
"-86.35","48.76","MARATHON A","6044963","2019-07-09 13:00","2019","07","09","13:00","19.1","","13.4","","69","","","","25","","12","","24.1","","97.87","","","","","","Haze"
"-86.35","48.76","MARATHON A","6044963","2019-07-09 14:00","2019","07","09","14:00","18.7","","13.5","","72","","","","25","","9","","12.9","","97.87","","","","","","Haze"
"-86.35","48.76","MARATHON A","6044963","2019-07-09 15:00","2019","07","09","15:00","19.5","","13.7","","69","","","","24","","9","","16.1","","97.83","","","","","","Haze"
"-86.35","48.76","MARATHON A","6044963","2019-07-09 16:00","2019","07","09","16:00","20.8","","14.1","","65","","","","24","","10","","16.1","","97.79","","","","","","Haze"
"-86.35","48.76","MARATHON A","6044963","2019-07-09 17:00","2019","07","09","17:00"
"-86.35","48.76","MARATHON A","6044963","2019-07-09 18:00","2019","07","09","18:00"
"-86.35","48.76","MARATHON A","6044963","2019-07-09 19:00","2019","07","09","19:00"
"-86.35","48.76","MARATHON A","6044963","2019-07-09 20:00","2019","07","09","20:00"
"-86.35","48.76","MARATHON A","6044963","2019-07-09 21:00","2019","07","09","21:00"
"-86.35","48.76","MARATHON A","6044963","2019-07-09 22:00","2019","07","09","22:00"
"-86.35","48.76","MARATHON A","6044963","2019-07-09 23:00","2019","07","09","23:00"
"-86.35","48.76","MARATHON A","6044963","2019-07-10 00:00","2019","07","10","00:00"
"-86.35","48.76","MARATHON A","6044963","2019-07-10 01:00","2019","07","10","01:00"
"-86.35","48.76","MARATHON A","6044963","2019-07-10 02:00","2019","07","10","02:00"
"-86.35","48.76","MARATHON A","6044963","2019-07-10 03:00","2019","07","10","03:00"
"-86.35","48.76","MARATHON A","6044963","2019-07-10 04:00","2019","07","10","04:00"
"-86.35","48.76","MARATHON A","6044963","2019-07-10 05:00","2019","07","10","05:00"
"-86.35","48.76","MARATHON A","6044963","2019-07-10 06:00","2019","07","10","06:00"
"-86.35","48.76","MARATHON A","6044963","2019-07-10 07:00","2019","07","10","07:00","16.2","","16.0","","99","","","","14","","15","","8.1","","97.11","","","","","","Drizzle,Fog"
"-86.35","48.76","MARATHON A","6044963","2019-07-10 08:00","2019","07","10","08:00","16.6","","16.5","","99","","","","14","","9","","11.3","","97.08","","","","","","Fog"
"-86.35","48.76","MARATHON A","6044963","2019-07-10 09:00","2019","07","10","09:00","16.9","","16.2","","95","","","","18","","19","","11.3","","97.06","","","","","","Fog"
"-86.35","48.76","MARATHON A","6044963","2019-07-10 10:00","2019","07","10","10:00","17.0","","16.2","","95","","","","18","","12","","11.3","","97.01","","","","","","Fog"
"-86.35","48.76","MARATHON A","6044963","2019-07-10 11:00","2019","07","10","11:00","16.9","","16.1","","95","","","","18","","21","","6.4","","96.99","","","","","","Fog"
"-86.35","48.76","MARATHON A","6044963","2019-07-10 12:00","2019","07","10","12:00","16.4","","16.1","","98","","","","18","","14","","6.4","","97.00","","","","","","Fog"
"-86.35","48.76","MARATHON A","6044963","2019-07-10 13:00","2019","07","10","13:00","14.4","","14.4","","100","","","","21","","9","","0.2","","96.99","","","","","","Fog"
"-86.35","48.76","MARATHON A","6044963","2019-07-10 14:00","2019","07","10","14:00","10.4","","10.4","","100","","","","21","","8","","0.0","","97.04","","","","","","Fog"
"-86.35","48.76","MARATHON A","6044963","2019-07-10 15:00","2019","07","10","15:00","10.0","","10.0","","100","","","","22","","6","","0.2","","97.07","","","","","","Fog"
"-86.35","48.76","MARATHON A","6044963","2019-07-10 16:00","2019","07","10","16:00","11.7","","11.5","","98","","","","21","","4","","2.4","","97.08","","","","","","Fog"
"-86.35","48.76","MARATHON A","6044963","2019-07-10 17:00","2019","07","10","17:00"
"-86.35","48.76","MARATHON A","6044963","2019-07-10 18:00","2019","07","10","18:00"
"-86.35","48.76","MARATHON A","6044963","2019-07-10 19:00","2019","07","10","19:00"
"-86.35","48.76","MARATHON A","6044963","2019-07-10 20:00","2019","07","10","20:00"
"-86.35","48.76","MARATHON A","6044963","2019-07-10 21:00","2019","07","10","21:00"
"-86.35","48.76","MARATHON A","6044963","2019-07-10 22:00","2019","07","10","22:00"
"-86.35","48.76","MARATHON A","6044963","2019-07-10 23:00","2019","07","10","23:00"
"-86.35","48.76","MARATHON A","6044963","2019-07-11 00:00","2019","07","11","00:00"
"-86.35","48.76","MARATHON A","6044963","2019-07-11 01:00","2019","07","11","01:00"
"-86.35","48.76","MARATHON A","6044963","2019-07-11 02:00","2019","07","11","02:00"
"-86.35","48.76","MARATHON A","6044963","2019-07-11 03:00","2019","07","11","03:00"
"-86.35","48.76","MARATHON A","6044963","2019-07-11 04:00","2019","07","11","04:00"
"-86.35","48.76","MARATHON A","6044963","2019-07-11 05:00","2019","07","11","05:00"
"-86.35","48.76","MARATHON A","6044963","2019-07-11 06:00","2019","07","11","06:00"
"-86.35","48.76","MARATHON A","6044963","2019-07-11 07:00","2019","07","11","07:00","12.1","","11.7","","98","","","","3","","14","","9.7","","97.44","","","","","","Fog"
"-86.35","48.76","MARATHON A","6044963","2019-07-11 08:00","2019","07","11","08:00","12.5","","11.8","","95","","","","2","","16","","9.7","","97.52","","","","","","Fog"
"-86.35","48.76","MARATHON A","6044963","2019-07-11 09:00","2019","07","11","09:00","13.4","","10.6","","83","","","","3","","16","","16.1","","97.59","","","","","","NA"
"-86.35","48.76","MARATHON A","6044963","2019-07-11 10:00","2019","07","11","10:00","16.0","","8.4","","60","","","","4","","19","","16.1","","97.62","","","","","","Mainly Clear"
"-86.35","48.76","MARATHON A","6044963","2019-07-11 11:00","2019","07","11","11:00","18.3","","5.9","","44","","","","36","","33","","24.1","","97.67","","","","","","NA"
"-86.35","48.76","MARATHON A","6044963","2019-07-11 12:00","2019","07","11","12:00","20.0","","5.7","","39","","","","2","","20","","24.1","","97.69","","","","","","NA"
"-86.35","48.76","MARATHON A","6044963","2019-07-11 13:00","2019","07","11","13:00","21.1","","4.6","","34","","","","2","","24","","24.1","","97.68","","","","","","Mainly Clear"
"-86.35","48.76","MARATHON A","6044963","2019-07-11 14:00","2019","07","11","14:00","22.8","","6.0","","33","","","","3","","18","","24.1","","97.67","","","","","","NA"
"-86.35","48.76","MARATHON A","6044963","2019-07-11 15:00","2019","07","11","15:00","23.4","","5.6","","31","","","","1","","20","","24.1","","97.64","","","","","","NA"
"-86.35","48.76","MARATHON A","6044963","2019-07-11 16:00","2019","07","11","16:00","23.8","","5.2","","30","","","","35","","25","","24.1","","97.63","","","","","","Mainly Clear"
"-86.35","48.76","MARATHON A","6044963","2019-07-11 17:00","2019","07","11","17:00"
"-86.35","48.76","MARATHON A","6044963","2019-07-11 18:00","2019","07","11","18:00"
"-86.35","48.76","MARATHON A","6044963","2019-07-11 19:00","2019","07","11","19:00"
"-86.35","48.76","MARATHON A","6044963","2019-07-11 20:00","2019","07","11","20:00"
"-86.35","48.76","MARATHON A","6044963","2019-07-11 21:00","2019","07","11","21:00"
"-86.35","48.76","MARATHON A","6044963","2019-07-11 22:00","2019","07","11","22:00"
"-86.35","48.76","MARATHON A","6044963","2019-07-11 23:00","2019","07","11","23:00"
"-86.35","48.76","MARATHON A","6044963","2019-07-12 00:00","2019","07","12","00:00"
"-86.35","48.76","MARATHON A","6044963","2019-07-12 01:00","2019","07","12","01:00"
"-86.35","48.76","MARATHON A","6044963","2019-07-12 02:00","2019","07","12","02:00"
"-86.35","48.76","MARATHON A","6044963","2019-07-12 03:00","2019","07","12","03:00"
"-86.35","48.76","MARATHON A","6044963","2019-07-12 04:00","2019","07","12","04:00"
"-86.35","48.76","MARATHON A","6044963","2019-07-12 05:00","2019","07","12","05:00"
"-86.35","48.76","MARATHON A","6044963","2019-07-12 06:00","2019","07","12","06:00"
"-86.35","48.76","MARATHON A","6044963","2019-07-12 07:00","2019","07","12","07:00","11.7","","8.5","","80","","","","18","","14","","16.1","","97.24","","","","","","Mostly Cloudy"
"-86.35","48.76","MARATHON A","6044963","2019-07-12 08:00","2019","07","12","08:00","13.7","","8.8","","72","","","","23","","11","","16.1","","97.28","","","","","","NA"
"-86.35","48.76","MARATHON A","6044963","2019-07-12 09:00","2019","07","12","09:00","12.7","","8.6","","76","","","","23","","7","","16.1","","97.29","","","","","","NA"
"-86.35","48.76","MARATHON A","6044963","2019-07-12 10:00","2019","07","12","10:00","14.1","","8.6","","69","","","","21","","8","","16.1","","97.19","","","","","","Mostly Cloudy"
"-86.35","48.76","MARATHON A","6044963","2019-07-12 11:00","2019","07","12","11:00","14.8","","8.9","","67","","","","21","","12","","16.1","","97.16","","","","","","NA"
"-86.35","48.76","MARATHON A","6044963","2019-07-12 12:00","2019","07","12","12:00","15.1","","9.4","","69","","","","23","","9","","24.1","","97.14","","","","","","NA"
"-86.35","48.76","MARATHON A","6044963","2019-07-12 13:00","2019","07","12","13:00","13.8","","9.8","","77","","","","22","","8","","24.1","","97.12","","","","","","Mostly Cloudy"
"-86.35","48.76","MARATHON A","6044963","2019-07-12 14:00","2019","07","12","14:00","15.1","","10.4","","73","","","","26","","11","","16.1","","97.11","","","","","","NA"
"-86.35","48.76","MARATHON A","6044963","2019-07-12 15:00","2019","07","12","15:00","14.8","","10.7","","76","","","","22","","11","","16.1","","97.08","","","","","","NA"
"-86.35","48.76","MARATHON A","6044963","2019-07-12 16:00","2019","07","12","16:00","16.9","","11.3","","69","","","","25","","13","","16.1","","97.06","","","","","","Mainly Clear"
"-86.35","48.76","MARATHON A","6044963","2019-07-12 17:00","2019","07","12","17:00"
"-86.35","48.76","MARATHON A","6044963","2019-07-12 18:00","2019","07","12","18:00"
"-86.35","48.76","MARATHON A","6044963","2019-07-12 19:00","2019","07","12","19:00"
"-86.35","48.76","MARATHON A","6044963","2019-07-12 20:00","2019","07","12","20:00"
"-86.35","48.76","MARATHON A","6044963","2019-07-12 21:00","2019","07","12","21:00"
"-86.35","48.76","MARATHON A","6044963","2019-07-12 22:00","2019","07","12","22:00"
"-86.35","48.76","MARATHON A","6044963","2019-07-12 23:00","2019","07","12","23:00"
"-86.35","48.76","MARATHON A","6044963","2019-07-13 00:00","2019","07","13","00:00"
"-86.35","48.76","MARATHON A","6044963","2019-07-13 01:00","2019","07","13","01:00"
"-86.35","48.76","MARATHON A","6044963","2019-07-13 02:00","2019","07","13","02:00"
"-86.35","48.76","MARATHON A","6044963","2019-07-13 03:00","2019","07","13","03:00"
"-86.35","48.76","MARATHON A","6044963","2019-07-13 04:00","2019","07","13","04:00"
"-86.35","48.76","MARATHON A","6044963","2019-07-13 05:00","2019","07","13","05:00"
"-86.35","48.76","MARATHON A","6044963","2019-07-13 06:00","2019","07","13","06:00"
"-86.35","48.76","MARATHON A","6044963","2019-07-13 07:00","2019","07","13","07:00","10.5","","10.3","","98","","","","28","","3","","16.1","","97.42","","","","","","Fog"
"-86.35","48.76","MARATHON A","6044963","2019-07-13 08:00","2019","07","13","08:00","14.4","","12.5","","88","","","","20","","5","","19.3","","97.46","","","","","","Fog"
"-86.35","48.76","MARATHON A","6044963","2019-07-13 09:00","2019","07","13","09:00","16.6","","13.2","","80","","","","36","","2","","24.1","","97.50","","","","","","NA"
"-86.35","48.76","MARATHON A","6044963","2019-07-13 10:00","2019","07","13","10:00","15.3","","12.4","","83","","","","25","","3","","24.1","","97.55","","","","","","Cloudy"
"-86.35","48.76","MARATHON A","6044963","2019-07-13 11:00","2019","07","13","11:00","18.5","","11.6","","64","","","","31","","12","","24.1","","97.59","","","","","","NA"
"-86.35","48.76","MARATHON A","6044963","2019-07-13 12:00","2019","07","13","12:00","20.5","","11.1","","54","","","","31","","13","","24.1","","97.61","","","","","","NA"
"-86.35","48.76","MARATHON A","6044963","2019-07-13 13:00","2019","07","13","13:00","22.1","","9.5","","44","","","","1","","25","","24.1","","97.63","","","","","","Mainly Clear"
"-86.35","48.76","MARATHON A","6044963","2019-07-13 14:00","2019","07","13","14:00","24.7","","7.4","","33","","","","35","","18","","24.1","","97.66","","25","","","","NA"
"-86.35","48.76","MARATHON A","6044963","2019-07-13 15:00","2019","07","13","15:00","22.6","","9.8","","44","","","","34","","6","","24.1","","97.71","","","","","","NA"
"-86.35","48.76","MARATHON A","6044963","2019-07-13 16:00","2019","07","13","16:00","25.7","","8.2","","32","","","","34","","23","","24.1","","97.74","","26","","","","Mainly Clear"
"-86.35","48.76","MARATHON A","6044963","2019-07-13 17:00","2019","07","13","17:00"
"-86.35","48.76","MARATHON A","6044963","2019-07-13 18:00","2019","07","13","18:00"
"-86.35","48.76","MARATHON A","6044963","2019-07-13 19:00","2019","07","13","19:00"
"-86.35","48.76","MARATHON A","6044963","2019-07-13 20:00","2019","07","13","20:00"
"-86.35","48.76","MARATHON A","6044963","2019-07-13 21:00","2019","07","13","21:00"
"-86.35","48.76","MARATHON A","6044963","2019-07-13 22:00","2019","07","13","22:00"
"-86.35","48.76","MARATHON A","6044963","2019-07-13 23:00","2019","07","13","23:00"
"-86.35","48.76","MARATHON A","6044963","2019-07-14 00:00","2019","07","14","00:00"
"-86.35","48.76","MARATHON A","6044963","2019-07-14 01:00","2019","07","14","01:00"
"-86.35","48.76","MARATHON A","6044963","2019-07-14 02:00","2019","07","14","02:00"
"-86.35","48.76","MARATHON A","6044963","2019-07-14 03:00","2019","07","14","03:00"
"-86.35","48.76","MARATHON A","6044963","2019-07-14 04:00","2019","07","14","04:00"
"-86.35","48.76","MARATHON A","6044963","2019-07-14 05:00","2019","07","14","05:00"
"-86.35","48.76","MARATHON A","6044963","2019-07-14 06:00","2019","07","14","06:00"
"-86.35","48.76","MARATHON A","6044963","2019-07-14 07:00","2019","07","14","07:00","11.9","","9.0","","82","","","","31","","3","","24.1","","98.21","","","","","","Mostly Cloudy"
"-86.35","48.76","MARATHON A","6044963","2019-07-14 08:00","2019","07","14","08:00","13.6","","9.6","","77","","","","25","","7","","24.1","","98.28","","","","","","NA"
"-86.35","48.76","MARATHON A","6044963","2019-07-14 09:00","2019","07","14","09:00","14.7","","9.2","","70","","","","19","","10","","24.1","","98.25","","","","","","NA"
"-86.35","48.76","MARATHON A","6044963","2019-07-14 10:00","2019","07","14","10:00","15.7","","8.8","","63","","","","23","","8","","24.1","","98.24","","","","","","Mostly Cloudy"
"-86.35","48.76","MARATHON A","6044963","2019-07-14 11:00","2019","07","14","11:00","14.5","","8.0","","65","","","","26","","7","","24.1","","98.25","","","","","","NA"
"-86.35","48.76","MARATHON A","6044963","2019-07-14 12:00","2019","07","14","12:00","15.4","","7.6","","59","","","","25","","8","","24.1","","98.25","","","","","","NA"
"-86.35","48.76","MARATHON A","6044963","2019-07-14 13:00","2019","07","14","13:00","16.4","","8.0","","57","","","","26","","9","","24.1","","98.20","","","","","","Cloudy"
"-86.35","48.76","MARATHON A","6044963","2019-07-14 14:00","2019","07","14","14:00","17.2","","8.0","","54","","","","24","","9","","24.1","","98.17","","","","","","NA"
"-86.35","48.76","MARATHON A","6044963","2019-07-14 15:00","2019","07","14","15:00","17.3","","8.9","","57","","","","23","","8","","24.1","","98.14","","","","","","NA"
"-86.35","48.76","MARATHON A","6044963","2019-07-14 16:00","2019","07","14","16:00","16.9","","10.6","","66","","","","25","","9","","24.1","","98.11","","","","","","Mostly Cloudy"
"-86.35","48.76","MARATHON A","6044963","2019-07-14 17:00","2019","07","14","17:00"
"-86.35","48.76","MARATHON A","6044963","2019-07-14 18:00","2019","07","14","18:00"
"-86.35","48.76","MARATHON A","6044963","2019-07-14 19:00","2019","07","14","19:00"
"-86.35","48.76","MARATHON A","6044963","2019-07-14 20:00","2019","07","14","20:00"
"-86.35","48.76","MARATHON A","6044963","2019-07-14 21:00","2019","07","14","21:00"
"-86.35","48.76","MARATHON A","6044963","2019-07-14 22:00","2019","07","14","22:00"
"-86.35","48.76","MARATHON A","6044963","2019-07-14 23:00","2019","07","14","23:00"
"-86.35","48.76","MARATHON A","6044963","2019-07-15 00:00","2019","07","15","00:00"
"-86.35","48.76","MARATHON A","6044963","2019-07-15 01:00","2019","07","15","01:00"
"-86.35","48.76","MARATHON A","6044963","2019-07-15 02:00","2019","07","15","02:00"
"-86.35","48.76","MARATHON A","6044963","2019-07-15 03:00","2019","07","15","03:00"
"-86.35","48.76","MARATHON A","6044963","2019-07-15 04:00","2019","07","15","04:00"
"-86.35","48.76","MARATHON A","6044963","2019-07-15 05:00","2019","07","15","05:00"
"-86.35","48.76","MARATHON A","6044963","2019-07-15 06:00","2019","07","15","06:00"
"-86.35","48.76","MARATHON A","6044963","2019-07-15 07:00","2019","07","15","07:00","15.0","","11.5","","80","","","","18","","6","","24.1","","97.67","","","","","","Mostly Cloudy"
"-86.35","48.76","MARATHON A","6044963","2019-07-15 08:00","2019","07","15","08:00","17.4","","12.4","","72","","","","19","","4","","24.1","","97.71","","","","","","NA"
"-86.35","48.76","MARATHON A","6044963","2019-07-15 09:00","2019","07","15","09:00","18.0","","13.1","","73","","","","19","","10","","24.1","","97.66","","","","","","NA"
"-86.35","48.76","MARATHON A","6044963","2019-07-15 10:00","2019","07","15","10:00","18.9","","14.2","","74","","","","22","","11","","24.1","","97.61","","","","","","Mostly Cloudy"
"-86.35","48.76","MARATHON A","6044963","2019-07-15 11:00","2019","07","15","11:00","16.8","","12.9","","78","","","","24","","9","","24.1","","97.58","","","","","","NA"
"-86.35","48.76","MARATHON A","6044963","2019-07-15 12:00","2019","07","15","12:00","15.0","","12.4","","84","","","","23","","8","","24.1","","97.56","","","","","","NA"
"-86.35","48.76","MARATHON A","6044963","2019-07-15 13:00","2019","07","15","13:00","15.1","","13.8","","92","","","","23","","9","","6.4","","97.47","","","","","","Fog"
"-86.35","48.76","MARATHON A","6044963","2019-07-15 14:00","2019","07","15","14:00","18.1","","16.7","","91","","","","20","","14","","4.8","","97.46","","","","","","Fog"
"-86.35","48.76","MARATHON A","6044963","2019-07-15 15:00","2019","07","15","15:00","21.5","","17.9","","80","","","","19","","16","","16.1","","97.37","","27","","","","Haze"
"-86.35","48.76","MARATHON A","6044963","2019-07-15 16:00","2019","07","15","16:00","19.4","","17.9","","91","","","","19","","19","","6.4","","97.29","","","","","","Fog"
"-86.35","48.76","MARATHON A","6044963","2019-07-15 17:00","2019","07","15","17:00"
"-86.35","48.76","MARATHON A","6044963","2019-07-15 18:00","2019","07","15","18:00"
"-86.35","48.76","MARATHON A","6044963","2019-07-15 19:00","2019","07","15","19:00"
"-86.35","48.76","MARATHON A","6044963","2019-07-15 20:00","2019","07","15","20:00"
"-86.35","48.76","MARATHON A","6044963","2019-07-15 21:00","2019","07","15","21:00"
"-86.35","48.76","MARATHON A","6044963","2019-07-15 22:00","2019","07","15","22:00"
"-86.35","48.76","MARATHON A","6044963","2019-07-15 23:00","2019","07","15","23:00"
"-86.35","48.76","MARATHON A","6044963","2019-07-16 00:00","2019","07","16","00:00"
"-86.35","48.76","MARATHON A","6044963","2019-07-16 01:00","2019","07","16","01:00"
"-86.35","48.76","MARATHON A","6044963","2019-07-16 02:00","2019","07","16","02:00"
"-86.35","48.76","MARATHON A","6044963","2019-07-16 03:00","2019","07","16","03:00"
"-86.35","48.76","MARATHON A","6044963","2019-07-16 04:00","2019","07","16","04:00"
"-86.35","48.76","MARATHON A","6044963","2019-07-16 05:00","2019","07","16","05:00"
"-86.35","48.76","MARATHON A","6044963","2019-07-16 06:00","2019","07","16","06:00"
"-86.35","48.76","MARATHON A","6044963","2019-07-16 07:00","2019","07","16","07:00","12.4","","12.4","","100","","","","23","","6","","0.0","","96.96","","","","","","Fog"
"-86.35","48.76","MARATHON A","6044963","2019-07-16 08:00","2019","07","16","08:00","11.8","","11.8","","100","","","","20","","7","","0.0","","96.98","","","","","","Fog"
"-86.35","48.76","MARATHON A","6044963","2019-07-16 09:00","2019","07","16","09:00","12.1","","12.1","","100","","","","25","","7","","0.0","","97.02","","","","","","Fog"
"-86.35","48.76","MARATHON A","6044963","2019-07-16 10:00","2019","07","16","10:00","12.0","","12.0","","100","","","","23","","8","","0.2","","97.05","","","","","","Fog"
"-86.35","48.76","MARATHON A","6044963","2019-07-16 11:00","2019","07","16","11:00","11.8","","11.8","","100","","","","25","","5","","0.2","","97.10","","","","","","Fog"
"-86.35","48.76","MARATHON A","6044963","2019-07-16 12:00","2019","07","16","12:00","12.3","","12.3","","100","","","","25","","6","","0.2","","97.15","","","","","","Fog"
"-86.35","48.76","MARATHON A","6044963","2019-07-16 13:00","2019","07","16","13:00","12.0","","12.0","","100","","","","25","","8","","0.4","","97.21","","","","","","Fog"
"-86.35","48.76","MARATHON A","6044963","2019-07-16 14:00","2019","07","16","14:00","12.4","","12.3","","99","","","","26","","8","","0.8","","97.25","","","","","","Fog"
"-86.35","48.76","MARATHON A","6044963","2019-07-16 15:00","2019","07","16","15:00","13.7","","12.9","","95","","","","23","","7","","14.5","","97.28","","","","","","Fog"
"-86.35","48.76","MARATHON A","6044963","2019-07-16 16:00","2019","07","16","16:00","15.5","","13.3","","87","","","","24","","9","","24.1","","97.31","","","","","","Mostly Cloudy"
"-86.35","48.76","MARATHON A","6044963","2019-07-16 17:00","2019","07","16","17:00"
"-86.35","48.76","MARATHON A","6044963","2019-07-16 18:00","2019","07","16","18:00"
"-86.35","48.76","MARATHON A","6044963","2019-07-16 19:00","2019","07","16","19:00"
"-86.35","48.76","MARATHON A","6044963","2019-07-16 20:00","2019","07","16","20:00"
"-86.35","48.76","MARATHON A","6044963","2019-07-16 21:00","2019","07","16","21:00"
"-86.35","48.76","MARATHON A","6044963","2019-07-16 22:00","2019","07","16","22:00"
"-86.35","48.76","MARATHON A","6044963","2019-07-16 23:00","2019","07","16","23:00"
"-86.35","48.76","MARATHON A","6044963","2019-07-17 00:00","2019","07","17","00:00"
"-86.35","48.76","MARATHON A","6044963","2019-07-17 01:00","2019","07","17","01:00"
"-86.35","48.76","MARATHON A","6044963","2019-07-17 02:00","2019","07","17","02:00"
"-86.35","48.76","MARATHON A","6044963","2019-07-17 03:00","2019","07","17","03:00"
"-86.35","48.76","MARATHON A","6044963","2019-07-17 04:00","2019","07","17","04:00"
"-86.35","48.76","MARATHON A","6044963","2019-07-17 05:00","2019","07","17","05:00"
"-86.35","48.76","MARATHON A","6044963","2019-07-17 06:00","2019","07","17","06:00"
"-86.35","48.76","MARATHON A","6044963","2019-07-17 07:00","2019","07","17","07:00","15.6","","13.0","","85","","","","10","","12","","24.1","","97.95","","","","","","Mostly Cloudy"
"-86.35","48.76","MARATHON A","6044963","2019-07-17 08:00","2019","07","17","08:00","17.0","","13.5","","80","","","","9","","13","","24.1","","97.93","","","","","","NA"
"-86.35","48.76","MARATHON A","6044963","2019-07-17 09:00","2019","07","17","09:00","19.4","","14.5","","73","","","","14","","10","","24.1","","97.95","","","","","","NA"
"-86.35","48.76","MARATHON A","6044963","2019-07-17 10:00","2019","07","17","10:00","21.3","","13.7","","62","","","","0","","1","","24.1","","97.94","","","","","","Mainly Clear"
"-86.35","48.76","MARATHON A","6044963","2019-07-17 11:00","2019","07","17","11:00","22.7","","14.3","","59","","","","23","","8","","24.1","","97.94","","26","","","","NA"
"-86.35","48.76","MARATHON A","6044963","2019-07-17 12:00","2019","07","17","12:00","22.9","","13.5","","55","","","","26","","10","","24.1","","97.93","","26","","","","NA"
"-86.35","48.76","MARATHON A","6044963","2019-07-17 13:00","2019","07","17","13:00","21.9","","13.0","","57","","","","24","","10","","24.1","","97.93","","25","","","","Cloudy"
"-86.35","48.76","MARATHON A","6044963","2019-07-17 14:00","2019","07","17","14:00","21.7","","12.8","","57","","","","25","","10","","24.1","","97.93","","","","","","NA"
"-86.35","48.76","MARATHON A","6044963","2019-07-17 15:00","2019","07","17","15:00","21.4","","13.0","","58","","","","23","","6","","24.1","","97.86","","","","","","NA"
"-86.35","48.76","MARATHON A","6044963","2019-07-17 16:00","2019","07","17","16:00","20.9","","12.8","","59","","","","24","","8","","24.1","","97.82","","","","","","Cloudy"
"-86.35","48.76","MARATHON A","6044963","2019-07-17 17:00","2019","07","17","17:00"
"-86.35","48.76","MARATHON A","6044963","2019-07-17 18:00","2019","07","17","18:00"
"-86.35","48.76","MARATHON A","6044963","2019-07-17 19:00","2019","07","17","19:00"
"-86.35","48.76","MARATHON A","6044963","2019-07-17 20:00","2019","07","17","20:00"
"-86.35","48.76","MARATHON A","6044963","2019-07-17 21:00","2019","07","17","21:00"
"-86.35","48.76","MARATHON A","6044963","2019-07-17 22:00","2019","07","17","22:00"
"-86.35","48.76","MARATHON A","6044963","2019-07-17 23:00","2019","07","17","23:00"
"-86.35","48.76","MARATHON A","6044963","2019-07-18 00:00","2019","07","18","00:00"
"-86.35","48.76","MARATHON A","6044963","2019-07-18 01:00","2019","07","18","01:00"
"-86.35","48.76","MARATHON A","6044963","2019-07-18 02:00","2019","07","18","02:00"
"-86.35","48.76","MARATHON A","6044963","2019-07-18 03:00","2019","07","18","03:00"
"-86.35","48.76","MARATHON A","6044963","2019-07-18 04:00","2019","07","18","04:00"
"-86.35","48.76","MARATHON A","6044963","2019-07-18 05:00","2019","07","18","05:00"
"-86.35","48.76","MARATHON A","6044963","2019-07-18 06:00","2019","07","18","06:00"
"-86.35","48.76","MARATHON A","6044963","2019-07-18 07:00","2019","07","18","07:00","16.8","","16.4","","97","","","","20","","3","","9.7","","96.97","","","","","","Fog"
"-86.35","48.76","MARATHON A","6044963","2019-07-18 08:00","2019","07","18","08:00","17.2","","16.0","","93","","","","18","","15","","9.7","","96.97","","","","","","Fog"
"-86.35","48.76","MARATHON A","6044963","2019-07-18 09:00","2019","07","18","09:00","17.6","","16.6","","94","","","","19","","16","","9.7","","96.90","","","","","","Fog"
"-86.35","48.76","MARATHON A","6044963","2019-07-18 10:00","2019","07","18","10:00","16.8","","16.6","","99","","","","19","","16","","6.4","","96.87","","","","","","Fog"
"-86.35","48.76","MARATHON A","6044963","2019-07-18 11:00","2019","07","18","11:00","16.3","","16.3","","100","","","","19","","9","","1.6","","96.83","","","","","","Drizzle,Fog"
"-86.35","48.76","MARATHON A","6044963","2019-07-18 12:00","2019","07","18","12:00","16.1","","16.1","","100","","","","19","","8","","1.6","","96.81","","","","","","Drizzle,Fog"
"-86.35","48.76","MARATHON A","6044963","2019-07-18 13:00","2019","07","18","13:00","15.8","","15.8","","100","","","","20","","8","","0.4","","96.75","","","","","","Drizzle,Fog"
"-86.35","48.76","MARATHON A","6044963","2019-07-18 14:00","2019","07","18","14:00","15.1","","15.1","","100","","","","20","","7","","0.4","","96.67","","","","","","Drizzle"
"-86.35","48.76","MARATHON A","6044963","2019-07-18 15:00","2019","07","18","15:00","14.4","","14.4","","100","","","","36","","3","","0.2","","96.64","","","","","","Drizzle,Fog"
"-86.35","48.76","MARATHON A","6044963","2019-07-18 16:00","2019","07","18","16:00","14.0","","14.0","","100","","","","22","","3","","0.2","","96.61","","","","","","Drizzle,Fog"
"-86.35","48.76","MARATHON A","6044963","2019-07-18 17:00","2019","07","18","17:00"
"-86.35","48.76","MARATHON A","6044963","2019-07-18 18:00","2019","07","18","18:00"
"-86.35","48.76","MARATHON A","6044963","2019-07-18 19:00","2019","07","18","19:00"
"-86.35","48.76","MARATHON A","6044963","2019-07-18 20:00","2019","07","18","20:00"
"-86.35","48.76","MARATHON A","6044963","2019-07-18 21:00","2019","07","18","21:00"
"-86.35","48.76","MARATHON A","6044963","2019-07-18 22:00","2019","07","18","22:00"
"-86.35","48.76","MARATHON A","6044963","2019-07-18 23:00","2019","07","18","23:00"
"-86.35","48.76","MARATHON A","6044963","2019-07-19 00:00","2019","07","19","00:00"
"-86.35","48.76","MARATHON A","6044963","2019-07-19 01:00","2019","07","19","01:00"
"-86.35","48.76","MARATHON A","6044963","2019-07-19 02:00","2019","07","19","02:00"
"-86.35","48.76","MARATHON A","6044963","2019-07-19 03:00","2019","07","19","03:00"
"-86.35","48.76","MARATHON A","6044963","2019-07-19 04:00","2019","07","19","04:00"
"-86.35","48.76","MARATHON A","6044963","2019-07-19 05:00","2019","07","19","05:00"
"-86.35","48.76","MARATHON A","6044963","2019-07-19 06:00","2019","07","19","06:00"
"-86.35","48.76","MARATHON A","6044963","2019-07-19 07:00","2019","07","19","07:00","12.8","","12.8","","100","","","","36","","3","","0.2","","96.57","","","","","","Fog"
"-86.35","48.76","MARATHON A","6044963","2019-07-19 08:00","2019","07","19","08:00","12.3","","12.3","","100","","","","36","","1","","0.2","","96.64","","","","","","Fog"
"-86.35","48.76","MARATHON A","6044963","2019-07-19 09:00","2019","07","19","09:00","12.1","","12.1","","100","","","","26","","8","","0.2","","96.70","","","","","","Fog"
"-86.35","48.76","MARATHON A","6044963","2019-07-19 10:00","2019","07","19","10:00","12.4","","12.4","","100","","","","27","","5","","0.2","","96.74","","","","","","Fog"
"-86.35","48.76","MARATHON A","6044963","2019-07-19 11:00","2019","07","19","11:00","13.6","","13.6","","100","","","","22","","7","","0.4","","96.79","","","","","","Fog"
"-86.35","48.76","MARATHON A","6044963","2019-07-19 12:00","2019","07","19","12:00","13.5","","13.5","","100","","","","24","","10","","2.0","","96.87","","","","","","Fog"
"-86.35","48.76","MARATHON A","6044963","2019-07-19 13:00","2019","07","19","13:00","14.0","","13.6","","97","","","","27","","9","","8.1","","96.93","","","","","","Fog"
"-86.35","48.76","MARATHON A","6044963","2019-07-19 14:00","2019","07","19","14:00","15.8","","14.4","","91","","","","24","","7","","9.7","","96.97","","","","","","Fog"
"-86.35","48.76","MARATHON A","6044963","2019-07-19 15:00","2019","07","19","15:00","17.5","","14.5","","82","","","","23","","9","","9.7","","96.94","","","","","","Fog"
"-86.35","48.76","MARATHON A","6044963","2019-07-19 16:00","2019","07","19","16:00","16.9","","14.5","","86","","","","24","","4","","9.7","","96.91","","","","","","Fog"
"-86.35","48.76","MARATHON A","6044963","2019-07-19 17:00","2019","07","19","17:00"
"-86.35","48.76","MARATHON A","6044963","2019-07-19 18:00","2019","07","19","18:00"
"-86.35","48.76","MARATHON A","6044963","2019-07-19 19:00","2019","07","19","19:00"
"-86.35","48.76","MARATHON A","6044963","2019-07-19 20:00","2019","07","19","20:00"
"-86.35","48.76","MARATHON A","6044963","2019-07-19 21:00","2019","07","19","21:00"
"-86.35","48.76","MARATHON A","6044963","2019-07-19 22:00","2019","07","19","22:00"
"-86.35","48.76","MARATHON A","6044963","2019-07-19 23:00","2019","07","19","23:00"
"-86.35","48.76","MARATHON A","6044963","2019-07-20 00:00","2019","07","20","00:00"
"-86.35","48.76","MARATHON A","6044963","2019-07-20 01:00","2019","07","20","01:00"
"-86.35","48.76","MARATHON A","6044963","2019-07-20 02:00","2019","07","20","02:00"
"-86.35","48.76","MARATHON A","6044963","2019-07-20 03:00","2019","07","20","03:00"
"-86.35","48.76","MARATHON A","6044963","2019-07-20 04:00","2019","07","20","04:00"
"-86.35","48.76","MARATHON A","6044963","2019-07-20 05:00","2019","07","20","05:00"
"-86.35","48.76","MARATHON A","6044963","2019-07-20 06:00","2019","07","20","06:00"
"-86.35","48.76","MARATHON A","6044963","2019-07-20 07:00","2019","07","20","07:00","14.6","","13.8","","95","","","","21","","3","","24.1","","97.02","","","","","","Mostly Cloudy"
"-86.35","48.76","MARATHON A","6044963","2019-07-20 08:00","2019","07","20","08:00","17.8","","14.7","","82","","","","28","","8","","24.1","","97.06","","","","","","NA"
"-86.35","48.76","MARATHON A","6044963","2019-07-20 09:00","2019","07","20","09:00","20.4","","15.3","","72","","","","26","","3","","24.1","","97.01","","25","","","","NA"
"-86.35","48.76","MARATHON A","6044963","2019-07-20 10:00","2019","07","20","10:00","17.2","","14.2","","82","","","","22","","5","","24.1","","97.00","","","","","","Mostly Cloudy"
"-86.35","48.76","MARATHON A","6044963","2019-07-20 11:00","2019","07","20","11:00","15.4","","13.2","","86","","","","26","","7","","24.1","","97.14","","","","","","NA"
"-86.35","48.76","MARATHON A","6044963","2019-07-20 12:00","2019","07","20","12:00","18.6","","13.8","","74","","","","23","","7","","24.1","","97.15","","","","","","NA"
"-86.35","48.76","MARATHON A","6044963","2019-07-20 13:00","2019","07","20","13:00","20.0","","13.9","","67","","","","24","","8","","24.1","","97.06","","","","","","Mostly Cloudy"
"-86.35","48.76","MARATHON A","6044963","2019-07-20 14:00","2019","07","20","14:00","18.8","","12.9","","68","","","","24","","7","","24.1","","97.14","","","","","","NA"
"-86.35","48.76","MARATHON A","6044963","2019-07-20 15:00","2019","07","20","15:00","18.6","","12.7","","68","","","","24","","7","","24.1","","97.17","","","","","","NA"
"-86.35","48.76","MARATHON A","6044963","2019-07-20 16:00","2019","07","20","16:00","19.2","","13.1","","67","","","","25","","11","","24.1","","97.26","","","","","","Mostly Cloudy"
"-86.35","48.76","MARATHON A","6044963","2019-07-20 17:00","2019","07","20","17:00"
"-86.35","48.76","MARATHON A","6044963","2019-07-20 18:00","2019","07","20","18:00"
"-86.35","48.76","MARATHON A","6044963","2019-07-20 19:00","2019","07","20","19:00"
"-86.35","48.76","MARATHON A","6044963","2019-07-20 20:00","2019","07","20","20:00"
"-86.35","48.76","MARATHON A","6044963","2019-07-20 21:00","2019","07","20","21:00"
"-86.35","48.76","MARATHON A","6044963","2019-07-20 22:00","2019","07","20","22:00"
"-86.35","48.76","MARATHON A","6044963","2019-07-20 23:00","2019","07","20","23:00"
"-86.35","48.76","MARATHON A","6044963","2019-07-21 00:00","2019","07","21","00:00"
"-86.35","48.76","MARATHON A","6044963","2019-07-21 01:00","2019","07","21","01:00"
"-86.35","48.76","MARATHON A","6044963","2019-07-21 02:00","2019","07","21","02:00"
"-86.35","48.76","MARATHON A","6044963","2019-07-21 03:00","2019","07","21","03:00"
"-86.35","48.76","MARATHON A","6044963","2019-07-21 04:00","2019","07","21","04:00"
"-86.35","48.76","MARATHON A","6044963","2019-07-21 05:00","2019","07","21","05:00"
"-86.35","48.76","MARATHON A","6044963","2019-07-21 06:00","2019","07","21","06:00"
"-86.35","48.76","MARATHON A","6044963","2019-07-21 07:00","2019","07","21","07:00","14.1","","10.4","","78","","","","3","","18","","24.1","","97.87","","","","","","Mainly Clear"
"-86.35","48.76","MARATHON A","6044963","2019-07-21 08:00","2019","07","21","08:00","15.4","","10.5","","72","","","","3","","11","","24.1","","97.92","","","","","","NA"
"-86.35","48.76","MARATHON A","6044963","2019-07-21 09:00","2019","07","21","09:00","16.3","","9.3","","63","","","","2","","20","","24.1","","97.95","","","","","","NA"
"-86.35","48.76","MARATHON A","6044963","2019-07-21 10:00","2019","07","21","10:00","17.2","","9.3","","59","","","","4","","8","","24.1","","97.97","","","","","","Mostly Cloudy"
"-86.35","48.76","MARATHON A","6044963","2019-07-21 11:00","2019","07","21","11:00","18.4","","7.3","","48","","","","34","","14","","24.1","","97.99","","","","","","NA"
"-86.35","48.76","MARATHON A","6044963","2019-07-21 12:00","2019","07","21","12:00","19.1","","6.9","","45","","","","1","","15","","24.1","","98.03","","","","","","NA"
"-86.35","48.76","MARATHON A","6044963","2019-07-21 13:00","2019","07","21","13:00","19.9","","6.8","","42","","","","2","","17","","24.1","","97.99","","","","","","Mainly Clear"
"-86.35","48.76","MARATHON A","6044963","2019-07-21 14:00","2019","07","21","14:00","20.9","","6.3","","38","","","","32","","16","","24.1","","97.99","","","","","","NA"
"-86.35","48.76","MARATHON A","6044963","2019-07-21 15:00","2019","07","21","15:00","21.2","","5.7","","36","","","","1","","17","","24.1","","97.97","","","","","","NA"
"-86.35","48.76","MARATHON A","6044963","2019-07-21 16:00","2019","07","21","16:00","18.7","","7.7","","48","","","","19","","5","","24.1","","97.96","","","","","","Mainly Clear"
"-86.35","48.76","MARATHON A","6044963","2019-07-21 17:00","2019","07","21","17:00"
"-86.35","48.76","MARATHON A","6044963","2019-07-21 18:00","2019","07","21","18:00"
"-86.35","48.76","MARATHON A","6044963","2019-07-21 19:00","2019","07","21","19:00"
"-86.35","48.76","MARATHON A","6044963","2019-07-21 20:00","2019","07","21","20:00"
"-86.35","48.76","MARATHON A","6044963","2019-07-21 21:00","2019","07","21","21:00"
"-86.35","48.76","MARATHON A","6044963","2019-07-21 22:00","2019","07","21","22:00"
"-86.35","48.76","MARATHON A","6044963","2019-07-21 23:00","2019","07","21","23:00"
"-86.35","48.76","MARATHON A","6044963","2019-07-22 00:00","2019","07","22","00:00"
"-86.35","48.76","MARATHON A","6044963","2019-07-22 01:00","2019","07","22","01:00"
"-86.35","48.76","MARATHON A","6044963","2019-07-22 02:00","2019","07","22","02:00"
"-86.35","48.76","MARATHON A","6044963","2019-07-22 03:00","2019","07","22","03:00"
"-86.35","48.76","MARATHON A","6044963","2019-07-22 04:00","2019","07","22","04:00"
"-86.35","48.76","MARATHON A","6044963","2019-07-22 05:00","2019","07","22","05:00"
"-86.35","48.76","MARATHON A","6044963","2019-07-22 06:00","2019","07","22","06:00"
"-86.35","48.76","MARATHON A","6044963","2019-07-22 07:00","2019","07","22","07:00","13.2","","11.0","","87","","","","","","0","","24.1","","97.94","","","","","","Clear"
"-86.35","48.76","MARATHON A","6044963","2019-07-22 08:00","2019","07","22","08:00","17.6","","8.5","","55","","","","36","","16","","24.1","","97.96","","","","","","NA"
"-86.35","48.76","MARATHON A","6044963","2019-07-22 09:00","2019","07","22","09:00","19.5","","6.1","","41","","","","35","","23","","24.1","","97.96","","","","","","NA"
"-86.35","48.76","MARATHON A","6044963","2019-07-22 10:00","2019","07","22","10:00","20.9","","5.4","","36","","","","34","","20","","24.1","","97.90","","","","","","Mainly Clear"
"-86.35","48.76","MARATHON A","6044963","2019-07-22 11:00","2019","07","22","11:00","22.0","","4.4","","31","","","","33","","32","","24.1","","97.92","","","","","","NA"
"-86.35","48.76","MARATHON A","6044963","2019-07-22 12:00","2019","07","22","12:00","22.7","","4.5","","30","","","","33","","28","","24.1","","97.88","","","","","","NA"
"-86.35","48.76","MARATHON A","6044963","2019-07-22 13:00","2019","07","22","13:00","23.8","","3.3","","26","","","","32","","23","","24.1","","97.87","","","","","","Mainly Clear"
"-86.35","48.76","MARATHON A","6044963","2019-07-22 14:00","2019","07","22","14:00","23.9","","3.5","","26","","","","36","","27","","24.1","","97.87","","","","","","NA"
"-86.35","48.76","MARATHON A","6044963","2019-07-22 15:00","2019","07","22","15:00","23.1","","3.2","","27","","","","34","","18","","24.1","","97.85","","","","","","NA"
"-86.35","48.76","MARATHON A","6044963","2019-07-22 16:00","2019","07","22","16:00","24.6","","4.9","","28","","","","36","","17","","24.1","","97.81","","","","","","Mostly Cloudy"
"-86.35","48.76","MARATHON A","6044963","2019-07-22 17:00","2019","07","22","17:00"
"-86.35","48.76","MARATHON A","6044963","2019-07-22 18:00","2019","07","22","18:00"
"-86.35","48.76","MARATHON A","6044963","2019-07-22 19:00","2019","07","22","19:00"
"-86.35","48.76","MARATHON A","6044963","2019-07-22 20:00","2019","07","22","20:00"
"-86.35","48.76","MARATHON A","6044963","2019-07-22 21:00","2019","07","22","21:00"
"-86.35","48.76","MARATHON A","6044963","2019-07-22 22:00","2019","07","22","22:00"
"-86.35","48.76","MARATHON A","6044963","2019-07-22 23:00","2019","07","22","23:00"
"-86.35","48.76","MARATHON A","6044963","2019-07-23 00:00","2019","07","23","00:00"
"-86.35","48.76","MARATHON A","6044963","2019-07-23 01:00","2019","07","23","01:00"
"-86.35","48.76","MARATHON A","6044963","2019-07-23 02:00","2019","07","23","02:00"
"-86.35","48.76","MARATHON A","6044963","2019-07-23 03:00","2019","07","23","03:00"
"-86.35","48.76","MARATHON A","6044963","2019-07-23 04:00","2019","07","23","04:00"
"-86.35","48.76","MARATHON A","6044963","2019-07-23 05:00","2019","07","23","05:00"
"-86.35","48.76","MARATHON A","6044963","2019-07-23 06:00","2019","07","23","06:00"
"-86.35","48.76","MARATHON A","6044963","2019-07-23 07:00","2019","07","23","07:00","14.1","","11.5","","84","","","","3","","9","","24.1","","98.08","","","","","","Mainly Clear"
"-86.35","48.76","MARATHON A","6044963","2019-07-23 08:00","2019","07","23","08:00","16.2","","11.3","","72","","","","2","","7","","24.1","","98.12","","","","","","NA"
"-86.35","48.76","MARATHON A","6044963","2019-07-23 09:00","2019","07","23","09:00","18.1","","8.9","","55","","","","1","","7","","24.1","","98.14","","","","","","NA"
"-86.35","48.76","MARATHON A","6044963","2019-07-23 10:00","2019","07","23","10:00","19.7","","8.0","","46","","","","3","","12","","24.1","","98.12","","","","","","Mainly Clear"
"-86.35","48.76","MARATHON A","6044963","2019-07-23 11:00","2019","07","23","11:00","20.6","","5.4","","36","","","","33","","20","","24.1","","98.11","","","","","","NA"
"-86.35","48.76","MARATHON A","6044963","2019-07-23 12:00","2019","07","23","12:00","21.7","","5.8","","35","","","","35","","13","","24.1","","98.08","","","","","","NA"
"-86.35","48.76","MARATHON A","6044963","2019-07-23 13:00","2019","07","23","13:00","20.7","","9.5","","48","","","","26","","5","","24.1","","98.07","","","","","","Mainly Clear"
"-86.35","48.76","MARATHON A","6044963","2019-07-23 14:00","2019","07","23","14:00","18.8","","7.4","","47","","","","23","","14","","24.1","","98.06","","","","","","NA"
"-86.35","48.76","MARATHON A","6044963","2019-07-23 15:00","2019","07","23","15:00","19.3","","10.0","","54","","","","25","","4","","24.1","","98.05","","","","","","NA"
"-86.35","48.76","MARATHON A","6044963","2019-07-23 16:00","2019","07","23","16:00","18.4","","11.8","","65","","","","25","","7","","24.1","","98.04","","","","","","Mostly Cloudy"
"-86.35","48.76","MARATHON A","6044963","2019-07-23 17:00","2019","07","23","17:00"
"-86.35","48.76","MARATHON A","6044963","2019-07-23 18:00","2019","07","23","18:00"
"-86.35","48.76","MARATHON A","6044963","2019-07-23 19:00","2019","07","23","19:00"
"-86.35","48.76","MARATHON A","6044963","2019-07-23 20:00","2019","07","23","20:00"
"-86.35","48.76","MARATHON A","6044963","2019-07-23 21:00","2019","07","23","21:00"
"-86.35","48.76","MARATHON A","6044963","2019-07-23 22:00","2019","07","23","22:00"
"-86.35","48.76","MARATHON A","6044963","2019-07-23 23:00","2019","07","23","23:00"
"-86.35","48.76","MARATHON A","6044963","2019-07-24 00:00","2019","07","24","00:00"
"-86.35","48.76","MARATHON A","6044963","2019-07-24 01:00","2019","07","24","01:00"
"-86.35","48.76","MARATHON A","6044963","2019-07-24 02:00","2019","07","24","02:00"
"-86.35","48.76","MARATHON A","6044963","2019-07-24 03:00","2019","07","24","03:00"
"-86.35","48.76","MARATHON A","6044963","2019-07-24 04:00","2019","07","24","04:00"
"-86.35","48.76","MARATHON A","6044963","2019-07-24 05:00","2019","07","24","05:00"
"-86.35","48.76","MARATHON A","6044963","2019-07-24 06:00","2019","07","24","06:00"
"-86.35","48.76","MARATHON A","6044963","2019-07-24 07:00","2019","07","24","07:00","12.2","","12.0","","99","","","","19","","3","","16.1","","97.98","","","","","","Fog"
"-86.35","48.76","MARATHON A","6044963","2019-07-24 08:00","2019","07","24","08:00","13.2","","12.4","","95","","","","36","","2","","16.1","","98.03","","","","","","Fog"
"-86.35","48.76","MARATHON A","6044963","2019-07-24 09:00","2019","07","24","09:00","13.6","","12.5","","93","","","","28","","3","","16.1","","98.14","","","","","","Fog"
"-86.35","48.76","MARATHON A","6044963","2019-07-24 10:00","2019","07","24","10:00","15.6","","14.1","","91","","","","36","","2","","12.9","","98.18","","","","","","Fog"
"-86.35","48.76","MARATHON A","6044963","2019-07-24 11:00","2019","07","24","11:00","18.8","","16.6","","86","","","","14","","13","","16.1","","98.00","","","","","","Haze"
"-86.35","48.76","MARATHON A","6044963","2019-07-24 12:00","2019","07","24","12:00","16.6","","14.2","","85","","","","27","","8","","16.1","","98.05","","","","","","Haze"
"-86.35","48.76","MARATHON A","6044963","2019-07-24 13:00","2019","07","24","13:00","16.2","","13.8","","85","","","","26","","3","","19.3","","98.08","","","","","","Haze"
"-86.35","48.76","MARATHON A","6044963","2019-07-24 14:00","2019","07","24","14:00","18.2","","14.1","","76","","","","22","","5","","24.1","","98.09","","","","","","NA"
"-86.35","48.76","MARATHON A","6044963","2019-07-24 15:00","2019","07","24","15:00","20.8","","14.5","","67","","","","24","","9","","24.1","","98.08","","","","","","NA"
"-86.35","48.76","MARATHON A","6044963","2019-07-24 16:00","2019","07","24","16:00","19.8","","14.5","","71","","","","23","","3","","24.1","","98.06","","","","","","Mostly Cloudy"
"-86.35","48.76","MARATHON A","6044963","2019-07-24 17:00","2019","07","24","17:00"
"-86.35","48.76","MARATHON A","6044963","2019-07-24 18:00","2019","07","24","18:00"
"-86.35","48.76","MARATHON A","6044963","2019-07-24 19:00","2019","07","24","19:00"
"-86.35","48.76","MARATHON A","6044963","2019-07-24 20:00","2019","07","24","20:00"
"-86.35","48.76","MARATHON A","6044963","2019-07-24 21:00","2019","07","24","21:00"
"-86.35","48.76","MARATHON A","6044963","2019-07-24 22:00","2019","07","24","22:00"
"-86.35","48.76","MARATHON A","6044963","2019-07-24 23:00","2019","07","24","23:00"
"-86.35","48.76","MARATHON A","6044963","2019-07-25 00:00","2019","07","25","00:00"
"-86.35","48.76","MARATHON A","6044963","2019-07-25 01:00","2019","07","25","01:00"
"-86.35","48.76","MARATHON A","6044963","2019-07-25 02:00","2019","07","25","02:00"
"-86.35","48.76","MARATHON A","6044963","2019-07-25 03:00","2019","07","25","03:00"
"-86.35","48.76","MARATHON A","6044963","2019-07-25 04:00","2019","07","25","04:00"
"-86.35","48.76","MARATHON A","6044963","2019-07-25 05:00","2019","07","25","05:00"
"-86.35","48.76","MARATHON A","6044963","2019-07-25 06:00","2019","07","25","06:00"
"-86.35","48.76","MARATHON A","6044963","2019-07-25 07:00","2019","07","25","07:00","13.4","","13.2","","98","","","","27","","4","","8.1","","98.15","","","","","","Fog"
"-86.35","48.76","MARATHON A","6044963","2019-07-25 08:00","2019","07","25","08:00","14.9","","13.5","","92","","","","26","","5","","9.7","","98.15","","","","","","Fog"
"-86.35","48.76","MARATHON A","6044963","2019-07-25 09:00","2019","07","25","09:00","17.7","","14.3","","80","","","","24","","5","","9.7","","98.13","","","","","","Fog"
"-86.35","48.76","MARATHON A","6044963","2019-07-25 10:00","2019","07","25","10:00","17.9","","14.0","","78","","","","21","","6","","16.1","","98.12","","","","","","Mainly Clear"
"-86.35","48.76","MARATHON A","6044963","2019-07-25 11:00","2019","07","25","11:00","18.7","","14.8","","78","","","","23","","11","","16.1","","98.15","","","","","","NA"
"-86.35","48.76","MARATHON A","6044963","2019-07-25 12:00","2019","07","25","12:00","18.9","","15.2","","79","","","","23","","8","","16.1","","98.12","","","","","","NA"
"-86.35","48.76","MARATHON A","6044963","2019-07-25 13:00","2019","07","25","13:00","18.4","","15.4","","83","","","","24","","9","","16.1","","98.07","","","","","","Mostly Cloudy"
"-86.35","48.76","MARATHON A","6044963","2019-07-25 14:00","2019","07","25","14:00","18.2","","15.2","","82","","","","22","","9","","16.1","","98.05","","","","","","NA"
"-86.35","48.76","MARATHON A","6044963","2019-07-25 15:00","2019","07","25","15:00","19.9","","15.9","","77","","","","19","","5","","16.1","","98.02","","","","","","NA"
"-86.35","48.76","MARATHON A","6044963","2019-07-25 16:00","2019","07","25","16:00","19.9","","15.4","","75","","","","23","","12","","16.1","","98.01","","","","","","Mainly Clear"
"-86.35","48.76","MARATHON A","6044963","2019-07-25 17:00","2019","07","25","17:00"
"-86.35","48.76","MARATHON A","6044963","2019-07-25 18:00","2019","07","25","18:00"
"-86.35","48.76","MARATHON A","6044963","2019-07-25 19:00","2019","07","25","19:00"
"-86.35","48.76","MARATHON A","6044963","2019-07-25 20:00","2019","07","25","20:00"
"-86.35","48.76","MARATHON A","6044963","2019-07-25 21:00","2019","07","25","21:00"
"-86.35","48.76","MARATHON A","6044963","2019-07-25 22:00","2019","07","25","22:00"
"-86.35","48.76","MARATHON A","6044963","2019-07-25 23:00","2019","07","25","23:00"
"-86.35","48.76","MARATHON A","6044963","2019-07-26 00:00","2019","07","26","00:00"
"-86.35","48.76","MARATHON A","6044963","2019-07-26 01:00","2019","07","26","01:00"
"-86.35","48.76","MARATHON A","6044963","2019-07-26 02:00","2019","07","26","02:00"
"-86.35","48.76","MARATHON A","6044963","2019-07-26 03:00","2019","07","26","03:00"
"-86.35","48.76","MARATHON A","6044963","2019-07-26 04:00","2019","07","26","04:00"
"-86.35","48.76","MARATHON A","6044963","2019-07-26 05:00","2019","07","26","05:00"
"-86.35","48.76","MARATHON A","6044963","2019-07-26 06:00","2019","07","26","06:00"
"-86.35","48.76","MARATHON A","6044963","2019-07-26 07:00","2019","07","26","07:00","15.3","","15.3","","100","","","","22","","9","","9.7","","97.85","","","","","","Fog"
"-86.35","48.76","MARATHON A","6044963","2019-07-26 08:00","2019","07","26","08:00","14.2","","14.2","","100","","","","20","","6","","2.0","","97.91","","","","","","Fog"
"-86.35","48.76","MARATHON A","6044963","2019-07-26 09:00","2019","07","26","09:00","15.2","","15.1","","99","","","","23","","5","","6.4","","97.93","","","","","","Fog"
"-86.35","48.76","MARATHON A","6044963","2019-07-26 10:00","2019","07","26","10:00","16.0","","15.5","","97","","","","20","","10","","8.1","","97.90","","","","","","Fog"
"-86.35","48.76","MARATHON A","6044963","2019-07-26 11:00","2019","07","26","11:00","18.1","","17.3","","95","","","","19","","12","","8.1","","97.86","","","","","","Rain,Fog"
"-86.35","48.76","MARATHON A","6044963","2019-07-26 12:00","2019","07","26","12:00","19.1","","16.3","","83","","","","19","","14","","9.7","","97.84","","","","","","Fog"
"-86.35","48.76","MARATHON A","6044963","2019-07-26 13:00","2019","07","26","13:00","22.1","","16.7","","71","","","","19","","17","","9.7","","97.77","","27","","","","Fog"
"-86.35","48.76","MARATHON A","6044963","2019-07-26 14:00","2019","07","26","14:00","21.6","","16.4","","72","","","","20","","17","","9.7","","97.76","","26","","","","Fog"
"-86.35","48.76","MARATHON A","6044963","2019-07-26 15:00","2019","07","26","15:00","20.3","","16.3","","78","","","","19","","16","","9.7","","97.75","","25","","","","Fog"
"-86.35","48.76","MARATHON A","6044963","2019-07-26 16:00","2019","07","26","16:00","17.3","","16.7","","97","","","","17","","14","","6.4","","97.72","","","","","","Fog"
"-86.35","48.76","MARATHON A","6044963","2019-07-26 17:00","2019","07","26","17:00"
"-86.35","48.76","MARATHON A","6044963","2019-07-26 18:00","2019","07","26","18:00"
"-86.35","48.76","MARATHON A","6044963","2019-07-26 19:00","2019","07","26","19:00"
"-86.35","48.76","MARATHON A","6044963","2019-07-26 20:00","2019","07","26","20:00"
"-86.35","48.76","MARATHON A","6044963","2019-07-26 21:00","2019","07","26","21:00"
"-86.35","48.76","MARATHON A","6044963","2019-07-26 22:00","2019","07","26","22:00"
"-86.35","48.76","MARATHON A","6044963","2019-07-26 23:00","2019","07","26","23:00"
"-86.35","48.76","MARATHON A","6044963","2019-07-27 00:00","2019","07","27","00:00"
"-86.35","48.76","MARATHON A","6044963","2019-07-27 01:00","2019","07","27","01:00"
"-86.35","48.76","MARATHON A","6044963","2019-07-27 02:00","2019","07","27","02:00"
"-86.35","48.76","MARATHON A","6044963","2019-07-27 03:00","2019","07","27","03:00"
"-86.35","48.76","MARATHON A","6044963","2019-07-27 04:00","2019","07","27","04:00"
"-86.35","48.76","MARATHON A","6044963","2019-07-27 05:00","2019","07","27","05:00"
"-86.35","48.76","MARATHON A","6044963","2019-07-27 06:00","2019","07","27","06:00"
"-86.35","48.76","MARATHON A","6044963","2019-07-27 07:00","2019","07","27","07:00","14.2","","14.2","","100","","","","19","","10","","0.2","","97.27","","","","","","Fog"
"-86.35","48.76","MARATHON A","6044963","2019-07-27 08:00","2019","07","27","08:00","13.7","","13.7","","100","","","","36","","1","","0.0","","97.30","","","","","","Fog"
"-86.35","48.76","MARATHON A","6044963","2019-07-27 09:00","2019","07","27","09:00","12.7","","12.7","","100","","","","24","","6","","0.0","","97.35","","","","","","Drizzle,Fog"
"-86.35","48.76","MARATHON A","6044963","2019-07-27 10:00","2019","07","27","10:00","12.9","","12.9","","100","","","","23","","3","","0.0","","97.36","","","","","","Drizzle,Fog"
"-86.35","48.76","MARATHON A","6044963","2019-07-27 11:00","2019","07","27","11:00","12.9","","12.9","","100","","","","22","","5","","0.2","","97.40","","","","","","Fog"
"-86.35","48.76","MARATHON A","6044963","2019-07-27 12:00","2019","07","27","12:00","12.2","","12.2","","100","","","","24","","9","","0.2","","97.43","","","","","","Fog"
"-86.35","48.76","MARATHON A","6044963","2019-07-27 13:00","2019","07","27","13:00","13.0","","13.0","","100","","","","24","","4","","0.2","","97.41","","","","","","Fog"
"-86.35","48.76","MARATHON A","6044963","2019-07-27 14:00","2019","07","27","14:00","13.4","","13.4","","100","","","","24","","9","","0.4","","97.43","","","","","","Fog"
"-86.35","48.76","MARATHON A","6044963","2019-07-27 15:00","2019","07","27","15:00","14.4","","14.4","","100","","","","24","","4","","1.2","","97.42","","","","","","Fog"
"-86.35","48.76","MARATHON A","6044963","2019-07-27 16:00","2019","07","27","16:00","15.7","","14.7","","94","","","","28","","10","","11.3","","97.46","","","","","","Cloudy"
"-86.35","48.76","MARATHON A","6044963","2019-07-27 17:00","2019","07","27","17:00"
"-86.35","48.76","MARATHON A","6044963","2019-07-27 18:00","2019","07","27","18:00"
"-86.35","48.76","MARATHON A","6044963","2019-07-27 19:00","2019","07","27","19:00"
"-86.35","48.76","MARATHON A","6044963","2019-07-27 20:00","2019","07","27","20:00"
"-86.35","48.76","MARATHON A","6044963","2019-07-27 21:00","2019","07","27","21:00"
"-86.35","48.76","MARATHON A","6044963","2019-07-27 22:00","2019","07","27","22:00"
"-86.35","48.76","MARATHON A","6044963","2019-07-27 23:00","2019","07","27","23:00"
"-86.35","48.76","MARATHON A","6044963","2019-07-28 00:00","2019","07","28","00:00"
"-86.35","48.76","MARATHON A","6044963","2019-07-28 01:00","2019","07","28","01:00"
"-86.35","48.76","MARATHON A","6044963","2019-07-28 02:00","2019","07","28","02:00"
"-86.35","48.76","MARATHON A","6044963","2019-07-28 03:00","2019","07","28","03:00"
"-86.35","48.76","MARATHON A","6044963","2019-07-28 04:00","2019","07","28","04:00"
"-86.35","48.76","MARATHON A","6044963","2019-07-28 05:00","2019","07","28","05:00"
"-86.35","48.76","MARATHON A","6044963","2019-07-28 06:00","2019","07","28","06:00"
"-86.35","48.76","MARATHON A","6044963","2019-07-28 07:00","2019","07","28","07:00","12.0","","12.0","","100","","","","36","","2","","11.3","","97.67","","","","","","Mostly Cloudy"
"-86.35","48.76","MARATHON A","6044963","2019-07-28 08:00","2019","07","28","08:00","14.1","","13.7","","97","","","","24","","3","","19.3","","97.70","","","","","","NA"
"-86.35","48.76","MARATHON A","6044963","2019-07-28 09:00","2019","07","28","09:00","15.2","","13.8","","91","","","","24","","6","","24.1","","97.72","","","","","","NA"
"-86.35","48.76","MARATHON A","6044963","2019-07-28 10:00","2019","07","28","10:00","15.8","","13.3","","85","","","","24","","5","","24.1","","97.70","","","","","","Clear"
"-86.35","48.76","MARATHON A","6044963","2019-07-28 11:00","2019","07","28","11:00","17.2","","14.3","","83","","","","26","","7","","24.1","","97.70","","","","","","NA"
"-86.35","48.76","MARATHON A","6044963","2019-07-28 12:00","2019","07","28","12:00","16.9","","14.2","","84","","","","27","","8","","24.1","","97.71","","","","","","NA"
"-86.35","48.76","MARATHON A","6044963","2019-07-28 13:00","2019","07","28","13:00","18.2","","14.3","","78","","","","26","","8","","24.1","","97.64","","","","","","Mainly Clear"
"-86.35","48.76","MARATHON A","6044963","2019-07-28 14:00","2019","07","28","14:00","17.9","","14.8","","82","","","","25","","8","","24.1","","97.65","","","","","","NA"
"-86.35","48.76","MARATHON A","6044963","2019-07-28 15:00","2019","07","28","15:00","17.7","","14.4","","81","","","","24","","9","","24.1","","97.64","","","","","","NA"
"-86.35","48.76","MARATHON A","6044963","2019-07-28 16:00","2019","07","28","16:00","18.1","","14.6","","80","","","","26","","8","","24.1","","97.61","","","","","","Mainly Clear"
"-86.35","48.76","MARATHON A","6044963","2019-07-28 17:00","2019","07","28","17:00"
"-86.35","48.76","MARATHON A","6044963","2019-07-28 18:00","2019","07","28","18:00"
"-86.35","48.76","MARATHON A","6044963","2019-07-28 19:00","2019","07","28","19:00"
"-86.35","48.76","MARATHON A","6044963","2019-07-28 20:00","2019","07","28","20:00"
"-86.35","48.76","MARATHON A","6044963","2019-07-28 21:00","2019","07","28","21:00"
"-86.35","48.76","MARATHON A","6044963","2019-07-28 22:00","2019","07","28","22:00"
"-86.35","48.76","MARATHON A","6044963","2019-07-28 23:00","2019","07","28","23:00"
"-86.35","48.76","MARATHON A","6044963","2019-07-29 00:00","2019","07","29","00:00"
"-86.35","48.76","MARATHON A","6044963","2019-07-29 01:00","2019","07","29","01:00"
"-86.35","48.76","MARATHON A","6044963","2019-07-29 02:00","2019","07","29","02:00"
"-86.35","48.76","MARATHON A","6044963","2019-07-29 03:00","2019","07","29","03:00"
"-86.35","48.76","MARATHON A","6044963","2019-07-29 04:00","2019","07","29","04:00"
"-86.35","48.76","MARATHON A","6044963","2019-07-29 05:00","2019","07","29","05:00"
"-86.35","48.76","MARATHON A","6044963","2019-07-29 06:00","2019","07","29","06:00"
"-86.35","48.76","MARATHON A","6044963","2019-07-29 07:00","2019","07","29","07:00","17.3","","17.3","","100","","","","28","","19","","2.8","","96.41","","","","","","Rain,Fog"
"-86.35","48.76","MARATHON A","6044963","2019-07-29 08:00","2019","07","29","08:00","15.1","","15.1","","100","","","","36","","3","","0.8","","96.34","","","","","","Moderate Rain,Fog"
"-86.35","48.76","MARATHON A","6044963","2019-07-29 09:00","2019","07","29","09:00","16.0","","16.0","","100","","","","31","","7","","4.0","","96.34","","","","","","Rain,Fog"
"-86.35","48.76","MARATHON A","6044963","2019-07-29 10:00","2019","07","29","10:00","17.1","","17.1","","100","","","","31","","8","","4.8","","96.38","","","","","","Fog"
"-86.35","48.76","MARATHON A","6044963","2019-07-29 11:00","2019","07","29","11:00","19.3","","18.8","","97","","","","27","","4","","9.7","","96.42","","","","","","Fog"
"-86.35","48.76","MARATHON A","6044963","2019-07-29 12:00","2019","07","29","12:00","18.4","","18.1","","98","","","","24","","4","","6.4","","96.51","","","","","","Fog"
"-86.35","48.76","MARATHON A","6044963","2019-07-29 13:00","2019","07","29","13:00","18.9","","17.8","","93","","","","25","","11","","9.7","","96.58","","","","","","Fog"
"-86.35","48.76","MARATHON A","6044963","2019-07-29 14:00","2019","07","29","14:00","17.2","","16.1","","93","","","","25","","10","","11.3","","96.63","","","","","","NA"
"-86.35","48.76","MARATHON A","6044963","2019-07-29 15:00","2019","07","29","15:00","18.7","","16.2","","86","","","","26","","8","","16.1","","96.65","","","","","","NA"
"-86.35","48.76","MARATHON A","6044963","2019-07-29 16:00","2019","07","29","16:00","16.2","","14.9","","92","","","","25","","9","","24.1","","96.72","","","","","","Mostly Cloudy"
"-86.35","48.76","MARATHON A","6044963","2019-07-29 17:00","2019","07","29","17:00"
"-86.35","48.76","MARATHON A","6044963","2019-07-29 18:00","2019","07","29","18:00"
"-86.35","48.76","MARATHON A","6044963","2019-07-29 19:00","2019","07","29","19:00"
"-86.35","48.76","MARATHON A","6044963","2019-07-29 20:00","2019","07","29","20:00"
"-86.35","48.76","MARATHON A","6044963","2019-07-29 21:00","2019","07","29","21:00"
"-86.35","48.76","MARATHON A","6044963","2019-07-29 22:00","2019","07","29","22:00"
"-86.35","48.76","MARATHON A","6044963","2019-07-29 23:00","2019","07","29","23:00"
"-86.35","48.76","MARATHON A","6044963","2019-07-30 00:00","2019","07","30","00:00"
"-86.35","48.76","MARATHON A","6044963","2019-07-30 01:00","2019","07","30","01:00"
"-86.35","48.76","MARATHON A","6044963","2019-07-30 02:00","2019","07","30","02:00"
"-86.35","48.76","MARATHON A","6044963","2019-07-30 03:00","2019","07","30","03:00"
"-86.35","48.76","MARATHON A","6044963","2019-07-30 04:00","2019","07","30","04:00"
"-86.35","48.76","MARATHON A","6044963","2019-07-30 05:00","2019","07","30","05:00"
"-86.35","48.76","MARATHON A","6044963","2019-07-30 06:00","2019","07","30","06:00"
"-86.35","48.76","MARATHON A","6044963","2019-07-30 07:00","2019","07","30","07:00","12.1","","8.5","","78","","","","36","","12","","24.1","","97.71","","","","","","Mostly Cloudy"
"-86.35","48.76","MARATHON A","6044963","2019-07-30 08:00","2019","07","30","08:00","12.7","","8.2","","74","","","","36","","12","","24.1","","97.78","","","","","","NA"
"-86.35","48.76","MARATHON A","6044963","2019-07-30 09:00","2019","07","30","09:00","14.1","","7.9","","66","","","","31","","13","","24.1","","97.81","","","","","","NA"
"-86.35","48.76","MARATHON A","6044963","2019-07-30 10:00","2019","07","30","10:00","15.3","","7.6","","60","","","","34","","14","","24.1","","97.81","","","","","","Mostly Cloudy"
"-86.35","48.76","MARATHON A","6044963","2019-07-30 11:00","2019","07","30","11:00","17.0","","6.3","","49","","","","31","","16","","24.1","","97.84","","","","","","NA"
"-86.35","48.76","MARATHON A","6044963","2019-07-30 12:00","2019","07","30","12:00","16.4","","8.5","","59","","","","25","","9","","24.1","","97.86","","","","","","NA"
"-86.35","48.76","MARATHON A","6044963","2019-07-30 13:00","2019","07","30","13:00","16.8","","8.7","","59","","","","25","","7","","24.1","","97.87","","","","","","Clear"
"-86.35","48.76","MARATHON A","6044963","2019-07-30 14:00","2019","07","30","14:00","16.6","","8.8","","60","","","","25","","10","","24.1","","97.88","","","","","","NA"
"-86.35","48.76","MARATHON A","6044963","2019-07-30 15:00","2019","07","30","15:00","17.6","","8.7","","56","","","","24","","12","","24.1","","97.87","","","","","","NA"
"-86.35","48.76","MARATHON A","6044963","2019-07-30 16:00","2019","07","30","16:00","17.9","","9.9","","59","","","","20","","7","","24.1","","97.90","","","","","","Mainly Clear"
"-86.35","48.76","MARATHON A","6044963","2019-07-30 17:00","2019","07","30","17:00"
"-86.35","48.76","MARATHON A","6044963","2019-07-30 18:00","2019","07","30","18:00"
"-86.35","48.76","MARATHON A","6044963","2019-07-30 19:00","2019","07","30","19:00"
"-86.35","48.76","MARATHON A","6044963","2019-07-30 20:00","2019","07","30","20:00"
"-86.35","48.76","MARATHON A","6044963","2019-07-30 21:00","2019","07","30","21:00"
"-86.35","48.76","MARATHON A","6044963","2019-07-30 22:00","2019","07","30","22:00"
"-86.35","48.76","MARATHON A","6044963","2019-07-30 23:00","2019","07","30","23:00"
"-86.35","48.76","MARATHON A","6044963","2019-07-31 00:00","2019","07","31","00:00"
"-86.35","48.76","MARATHON A","6044963","2019-07-31 01:00","2019","07","31","01:00"
"-86.35","48.76","MARATHON A","6044963","2019-07-31 02:00","2019","07","31","02:00"
"-86.35","48.76","MARATHON A","6044963","2019-07-31 03:00","2019","07","31","03:00"
"-86.35","48.76","MARATHON A","6044963","2019-07-31 04:00","2019","07","31","04:00"
"-86.35","48.76","MARATHON A","6044963","2019-07-31 05:00","2019","07","31","05:00"
"-86.35","48.76","MARATHON A","6044963","2019-07-31 06:00","2019","07","31","06:00"
"-86.35","48.76","MARATHON A","6044963","2019-07-31 07:00","2019","07","31","07:00","9.7","","9.4","","98","","","","14","","3","","19.3","","98.43","","","","","","Clear"
"-86.35","48.76","MARATHON A","6044963","2019-07-31 08:00","2019","07","31","08:00","13.3","","10.8","","85","","","","36","","2","","24.1","","98.46","","","","","","NA"
"-86.35","48.76","MARATHON A","6044963","2019-07-31 09:00","2019","07","31","09:00","17.2","","10.3","","64","","","","36","","2","","24.1","","98.47","","","","","","NA"
"-86.35","48.76","MARATHON A","6044963","2019-07-31 10:00","2019","07","31","10:00","18.0","","10.3","","60","","","","24","","7","","24.1","","98.50","","","","","","Mainly Clear"
"-86.35","48.76","MARATHON A","6044963","2019-07-31 11:00","2019","07","31","11:00","18.6","","10.8","","60","","","","22","","7","","24.1","","98.51","","","","","","NA"
"-86.35","48.76","MARATHON A","6044963","2019-07-31 12:00","2019","07","31","12:00","18.3","","9.7","","57","","","","25","","10","","24.1","","98.49","","","","","","NA"
"-86.35","48.76","MARATHON A","6044963","2019-07-31 13:00","2019","07","31","13:00","18.2","","9.5","","57","","","","25","","11","","24.1","","98.49","","","","","","Mainly Clear"
"-86.35","48.76","MARATHON A","6044963","2019-07-31 14:00","2019","07","31","14:00","17.4","","8.9","","57","","","","25","","8","","24.1","","98.49","","","","","","NA"
"-86.35","48.76","MARATHON A","6044963","2019-07-31 15:00","2019","07","31","15:00","18.2","","9.3","","56","","","","25","","9","","24.1","","98.47","","","","","","NA"
"-86.35","48.76","MARATHON A","6044963","2019-07-31 16:00","2019","07","31","16:00","17.3","","10.2","","63","","","","26","","9","","24.1","","98.47","","","","","","Mainly Clear"
"-86.35","48.76","MARATHON A","6044963","2019-07-31 17:00","2019","07","31","17:00"
"-86.35","48.76","MARATHON A","6044963","2019-07-31 18:00","2019","07","31","18:00"
"-86.35","48.76","MARATHON A","6044963","2019-07-31 19:00","2019","07","31","19:00"
"-86.35","48.76","MARATHON A","6044963","2019-07-31 20:00","2019","07","31","20:00"
"-86.35","48.76","MARATHON A","6044963","2019-07-31 21:00","2019","07","31","21:00"
"-86.35","48.76","MARATHON A","6044963","2019-07-31 22:00","2019","07","31","22:00"
"-86.35","48.76","MARATHON A","6044963","2019-07-31 23:00","2019","07","31","23:00"
