"Longitude (x)","Latitude (y)","Station Name","Climate ID","Date/Time (LST)","Year","Month","Day","Time (LST)","Temp (°C)","Temp Flag","Dew Point Temp (°C)","Dew Point Temp Flag","Rel Hum (%)","Rel Hum Flag","Precip. Amount (mm)","Precip. Amount Flag","Wind Dir (10s deg)","Wind Dir Flag","Wind Spd (km/h)","Wind Spd Flag","Visibility (km)","Visibility Flag","Stn Press (kPa)","Stn Press Flag","Hmdx","Hmdx Flag","Wind Chill","Wind Chill Flag","Weather"
"-93.58","69.55","TALOYOAK A","2403855","2018-02-01 00:00","2018","02","01","00:00","-39.1","","-43.6","","64","","","","20","","3","","16.1","","101.88","","","","-43","","Snow,Heavy Ice Pellet Showers"
"-93.58","69.55","TALOYOAK A","2403855","2018-02-01 01:00","2018","02","01","01:00","-39.7","","-44.2","","63","","","","16","","4","","16.1","","101.81","","","","-45","","Snow"
"-93.58","69.55","TALOYOAK A","2403855","2018-02-01 02:00","2018","02","01","02:00","-40.2","","-44.7","","63","","","","15","","9","","16.1","","101.71","","","","-51","","Snow"
"-93.58","69.55","TALOYOAK A","2403855","2018-02-01 03:00","2018","02","01","03:00","-40.7","","-45.2","","63","","","","15","","9","","16.1","","101.67","","","","-51","","Snow"
"-93.58","69.55","TALOYOAK A","2403855","2018-02-01 04:00","2018","02","01","04:00","-41.0","","-45.5","","63","","","","16","","12","","16.1","","101.56","","","","-53","","Snow"
"-93.58","69.55","TALOYOAK A","2403855","2018-02-01 05:00","2018","02","01","05:00","-42.1","","-46.7","","62","","","","16","","13","","9.7","","101.48","","","","-55","","Snow"
"-93.58","69.55","TALOYOAK A","2403855","2018-02-01 06:00","2018","02","01","06:00","-41.2","","-45.8","","63","","","","16","","16","","16.1","","101.36","","","","-56","","Snow"
"-93.58","69.55","TALOYOAK A","2403855","2018-02-01 07:00","2018","02","01","07:00","-40.4","","-44.9","","63","","","","16","","17","","4.8","","101.26","","","","-55","","Ice Crystals,Fog"
"-93.58","69.55","TALOYOAK A","2403855","2018-02-01 08:00","2018","02","01","08:00","-39.3","","-43.8","","63","","","","15","","14","","2.0","","101.14","","","","-52","","Ice Crystals,Fog"
"-93.58","69.55","TALOYOAK A","2403855","2018-02-01 09:00","2018","02","01","09:00","-38.6","","-43.0","","64","","","","15","","14","","6.4","","101.05","","","","-52","","Snow,Fog"
"-93.58","69.55","TALOYOAK A","2403855","2018-02-01 10:00","2018","02","01","10:00","-38.2","","-42.6","","64","","","","15","","13","","6.4","","100.99","","","","-51","","Snow,Fog"
"-93.58","69.55","TALOYOAK A","2403855","2018-02-01 11:00","2018","02","01","11:00","-38.2","","-42.7","","64","","","","16","","10","","9.7","","100.92","","","","-49","","Snow,Fog"
"-93.58","69.55","TALOYOAK A","2403855","2018-02-01 12:00","2018","02","01","12:00","-38.1","","-42.5","","64","","","","15","","9","","16.1","","100.87","","","","-48","","Snow"
"-93.58","69.55","TALOYOAK A","2403855","2018-02-01 13:00","2018","02","01","13:00","-37.8","","-42.2","","64","","","","15","","11","","16.1","","100.83","","","","-49","","Snow"
"-93.58","69.55","TALOYOAK A","2403855","2018-02-01 14:00","2018","02","01","14:00","-37.3","","-41.7","","65","","","","15","","11","","16.1","","100.80","","","","-48","","Snow"
"-93.58","69.55","TALOYOAK A","2403855","2018-02-01 15:00","2018","02","01","15:00","-37.7","","-42.1","","65","","","","17","","9","","24.1","","100.78","","","","-48","","Snow"
"-93.58","69.55","TALOYOAK A","2403855","2018-02-01 16:00","2018","02","01","16:00","-38.0","","-42.4","","64","","","","16","","12","","16.1","","100.74","","","","-50","","Snow"
"-93.58","69.55","TALOYOAK A","2403855","2018-02-01 17:00","2018","02","01","17:00","-37.6","","-42.0","","65","","","","16","","17","","16.1","","100.68","","","","-52","","Snow"
"-93.58","69.55","TALOYOAK A","2403855","2018-02-01 18:00","2018","02","01","18:00","-37.6","","-42.0","","65","","","","16","","14","","16.1","","100.64","","","","-50","","Snow"
"-93.58","69.55","TALOYOAK A","2403855","2018-02-01 19:00","2018","02","01","19:00","-38.2","","-42.6","","64","","","","15","","18","","16.1","","100.56","","","","-53","","Ice Crystals,Blowing Snow"
"-93.58","69.55","TALOYOAK A","2403855","2018-02-01 20:00","2018","02","01","20:00","-38.6","","-43.0","","64","","","","17","","14","","16.1","","100.52","","","","-52","","Snow Grains"
"-93.58","69.55","TALOYOAK A","2403855","2018-02-01 21:00","2018","02","01","21:00","-38.2","","-42.7","","64","","","","13","","7","","16.1","","100.47","","","","-47","","Snow"
"-93.58","69.55","TALOYOAK A","2403855","2018-02-01 22:00","2018","02","01","22:00","-39.2","","-43.7","","64","","","","15","","12","","16.1","","100.47","","","","-51","","Ice Crystals"
"-93.58","69.55","TALOYOAK A","2403855","2018-02-01 23:00","2018","02","01","23:00","-37.9","","-42.3","","64","","","","18","","5","","16.1","","100.44","","","","-45","","Ice Crystals"
"-93.58","69.55","TALOYOAK A","2403855","2018-02-02 00:00","2018","02","02","00:00","-39.0","","-43.5","","64","","","","14","","10","","16.1","","100.41","","","","-50","","Ice Crystals"
"-93.58","69.55","TALOYOAK A","2403855","2018-02-02 01:00","2018","02","02","01:00","-38.7","","-43.1","","64","","","","14","","9","","16.1","","100.40","","","","-49","","Ice Crystals"
"-93.58","69.55","TALOYOAK A","2403855","2018-02-02 02:00","2018","02","02","02:00","-39.5","","-44.0","","64","","","","15","","9","","16.1","","100.40","","","","-50","","Ice Crystals"
"-93.58","69.55","TALOYOAK A","2403855","2018-02-02 03:00","2018","02","02","03:00","-39.3","","-43.8","","64","","","","15","","5","","16.1","","100.41","","","","-46","","Ice Crystals"
"-93.58","69.55","TALOYOAK A","2403855","2018-02-02 04:00","2018","02","02","04:00","-40.2","","-44.7","","63","","","","16","","8","","16.1","","100.41","","","","-50","","Ice Crystals"
"-93.58","69.55","TALOYOAK A","2403855","2018-02-02 05:00","2018","02","02","05:00","-40.3","","-44.8","","63","","","","17","","8","","9.7","","100.40","","","","-50","","Ice Crystals"
"-93.58","69.55","TALOYOAK A","2403855","2018-02-02 06:00","2018","02","02","06:00","-40.2","","-44.7","","63","","","","16","","13","","4.8","","100.38","","","","-53","","Ice Crystals,Fog"
"-93.58","69.55","TALOYOAK A","2403855","2018-02-02 07:00","2018","02","02","07:00","-39.9","","-44.4","","63","","","","15","","15","","16.1","","100.34","","","","-54","","Ice Crystals"
"-93.58","69.55","TALOYOAK A","2403855","2018-02-02 08:00","2018","02","02","08:00","-39.2","","-43.7","","64","","","","16","","10","","9.7","","100.30","","","","-50","","Ice Crystals"
"-93.58","69.55","TALOYOAK A","2403855","2018-02-02 09:00","2018","02","02","09:00","-39.2","","-43.8","","64","","","","17","","8","","3.2","","100.27","","","","-49","","Snow,Fog"
"-93.58","69.55","TALOYOAK A","2403855","2018-02-02 10:00","2018","02","02","10:00","-38.6","","-43.1","","64","","","","18","","8","","3.2","","100.22","","","","-48","","Ice Crystals,Fog"
"-93.58","69.55","TALOYOAK A","2403855","2018-02-02 11:00","2018","02","02","11:00","-39.1","","-43.6","","64","","","","15","","14","","3.2","","100.20","","","","-52","","Ice Crystals,Fog"
"-93.58","69.55","TALOYOAK A","2403855","2018-02-02 12:00","2018","02","02","12:00","-35.5","","-39.8","","65","","","","27","","7","","3.2","","100.19","","","","-44","","Ice Crystals,Fog"
"-93.58","69.55","TALOYOAK A","2403855","2018-02-02 13:00","2018","02","02","13:00","-35.0","","-39.3","","66","","","","24","","9","","3.2","","100.16","","","","-45","","Ice Crystals,Fog"
"-93.58","69.55","TALOYOAK A","2403855","2018-02-02 14:00","2018","02","02","14:00","-34.8","","-39.1","","66","","","","31","","30","","1.6","","100.14","","","","-52","","Snow Grains,Fog,Blowing Snow"
"-93.58","69.55","TALOYOAK A","2403855","2018-02-02 15:00","2018","02","02","15:00","-34.0","","-38.2","","67","","","","30","","37","","0.8","","100.06","","","","-52","","Ice Crystals,Blowing Snow,Freezing Fog"
"-93.58","69.55","TALOYOAK A","2403855","2018-02-02 16:00","2018","02","02","16:00","-34.9","","-39.1","","66","","","","32","","30","","3.2","","100.06","","","","-52","","Ice Crystals,Fog,Blowing Snow"
"-93.58","69.55","TALOYOAK A","2403855","2018-02-02 17:00","2018","02","02","17:00","-34.4","","-38.6","","66","","","","29","","24","","3.2","","100.02","","","","-50","","Ice Crystals,Fog,Blowing Snow"
"-93.58","69.55","TALOYOAK A","2403855","2018-02-02 18:00","2018","02","02","18:00","-34.5","","-38.7","","66","","","","30","","24","","3.2","","99.99","","","","-50","","Ice Crystals,Fog,Blowing Snow"
"-93.58","69.55","TALOYOAK A","2403855","2018-02-02 19:00","2018","02","02","19:00","-35.0","","-39.2","","66","","","","28","","10","","3.2","","99.96","","","","-45","","Ice Crystals,Fog"
"-93.58","69.55","TALOYOAK A","2403855","2018-02-02 20:00","2018","02","02","20:00","-34.4","","-38.6","","67","","","","29","","14","","4.8","","99.87","","","","-46","","Snow Grains,Fog"
"-93.58","69.55","TALOYOAK A","2403855","2018-02-02 21:00","2018","02","02","21:00","-34.8","","-39.0","","66","","","","23","","5","","4.8","","99.81","","","","-41","","Snow Grains,Fog"
"-93.58","69.55","TALOYOAK A","2403855","2018-02-02 22:00","2018","02","02","22:00","-35.5","","-39.8","","66","","","","27","","10","","9.7","","99.76","","","","-46","","Snow Grains,Fog"
"-93.58","69.55","TALOYOAK A","2403855","2018-02-02 23:00","2018","02","02","23:00","-36.6","","-40.9","","65","","","","21","","4","","16.1","","99.73","","","","-42","","Ice Crystals"
"-93.58","69.55","TALOYOAK A","2403855","2018-02-03 00:00","2018","02","03","00:00","-37.6","","-42.0","","65","","","","4","","8","","16.1","","99.69","","","","-47","","Ice Crystals"
"-93.58","69.55","TALOYOAK A","2403855","2018-02-03 01:00","2018","02","03","01:00","-37.9","","-42.3","","65","","","","3","","3","","16.1","","99.66","","","","-42","","Ice Crystals"
"-93.58","69.55","TALOYOAK A","2403855","2018-02-03 02:00","2018","02","03","02:00","-38.5","","-42.9","","64","","","","1","","7","","16.1","","99.62","","","","-47","","Snow Grains"
"-93.58","69.55","TALOYOAK A","2403855","2018-02-03 03:00","2018","02","03","03:00","-40.4","","-44.9","","63","","","","3","","10","","16.1","","99.59","","","","-52","","Snow Grains,Ice Crystals"
"-93.58","69.55","TALOYOAK A","2403855","2018-02-03 04:00","2018","02","03","04:00","-41.1","","-45.6","","63","","","","2","","8","","16.1","","99.55","","","","-51","","Ice Crystals"
"-93.58","69.55","TALOYOAK A","2403855","2018-02-03 05:00","2018","02","03","05:00","-39.7","","-44.2","","63","","","","6","","16","","16.1","","99.48","","","","-54","","Ice Crystals"
"-93.58","69.55","TALOYOAK A","2403855","2018-02-03 06:00","2018","02","03","06:00","-42.0","","-46.6","","62","","","","6","","12","","16.1","","99.42","","","","-55","","Ice Crystals"
"-93.58","69.55","TALOYOAK A","2403855","2018-02-03 07:00","2018","02","03","07:00","-42.2","","-46.8","","62","","","","5","","11","","16.1","","99.36","","","","-54","","Ice Crystals"
"-93.58","69.55","TALOYOAK A","2403855","2018-02-03 08:00","2018","02","03","08:00","-40.5","","-45.0","","63","","","","6","","14","","16.1","","99.30","","","","-54","","Ice Crystals"
"-93.58","69.55","TALOYOAK A","2403855","2018-02-03 09:00","2018","02","03","09:00","-43.1","","-47.7","","62","","","","34","","6","","16.1","","99.24","","","","-52","","Ice Crystals"
"-93.58","69.55","TALOYOAK A","2403855","2018-02-03 10:00","2018","02","03","10:00","-42.8","","-47.4","","62","","","","2","","12","","9.7","","99.19","","","","-56","","Ice Crystals,Fog"
"-93.58","69.55","TALOYOAK A","2403855","2018-02-03 11:00","2018","02","03","11:00","-41.6","","-46.2","","62","","","","25","","4","","6.4","","99.14","","","","-47","","Ice Crystals,Fog"
"-93.58","69.55","TALOYOAK A","2403855","2018-02-03 12:00","2018","02","03","12:00","-40.3","","-44.9","","63","","","","5","","18","","6.4","","99.06","","","","-55","","Ice Crystals,Fog"
"-93.58","69.55","TALOYOAK A","2403855","2018-02-03 13:00","2018","02","03","13:00","-39.6","","-44.1","","63","","","","6","","16","","24.1","","99.01","","","","-54","","Snow Grains"
"-93.58","69.55","TALOYOAK A","2403855","2018-02-03 14:00","2018","02","03","14:00","-39.8","","-44.4","","63","","","","7","","16","","24.1","","98.98","","","","-54","","Ice Crystals"
"-93.58","69.55","TALOYOAK A","2403855","2018-02-03 15:00","2018","02","03","15:00","-41.3","","-45.9","","62","","","","5","","21","","24.1","","98.94","","","","-58","","Ice Crystals"
"-93.58","69.55","TALOYOAK A","2403855","2018-02-03 16:00","2018","02","03","16:00","-40.7","","-45.2","","63","","","","6","","20","","12.9","","98.94","","","","-57","","Ice Crystals,Fog"
"-93.58","69.55","TALOYOAK A","2403855","2018-02-03 17:00","2018","02","03","17:00","-40.2","","-44.8","","63","","","","5","","24","","16.1","","98.92","","","","-57","","Ice Crystals,Blowing Snow"
"-93.58","69.55","TALOYOAK A","2403855","2018-02-03 18:00","2018","02","03","18:00","-41.5","","-46.1","","62","","","","4","","22","","16.1","","98.91","","","","-58","","Ice Crystals,Blowing Snow"
"-93.58","69.55","TALOYOAK A","2403855","2018-02-03 19:00","2018","02","03","19:00","-41.6","","-46.2","","62","","","","2","","16","","16.1","","98.91","","","","-56","","Ice Crystals"
"-93.58","69.55","TALOYOAK A","2403855","2018-02-03 20:00","2018","02","03","20:00","-41.3","","-45.9","","62","","","","35","","12","","16.1","","98.92","","","","-54","","Ice Crystals"
"-93.58","69.55","TALOYOAK A","2403855","2018-02-03 21:00","2018","02","03","21:00","-42.3","","-46.9","","62","","","","2","","21","","16.1","","98.94","","","","-59","","Ice Crystals"
"-93.58","69.55","TALOYOAK A","2403855","2018-02-03 22:00","2018","02","03","22:00","-42.9","","-47.6","","62","","","","2","","20","","16.1","","98.95","","","","-59","","Ice Crystals"
"-93.58","69.55","TALOYOAK A","2403855","2018-02-03 23:00","2018","02","03","23:00","-43.1","","-47.7","","61","","","","32","","12","","16.1","","98.98","","","","-56","","Ice Crystals"
"-93.58","69.55","TALOYOAK A","2403855","2018-02-04 00:00","2018","02","04","00:00","-43.6","","-48.3","","61","","","","36","","10","","19.3","","98.99","","","","-55","","Ice Crystals"
"-93.58","69.55","TALOYOAK A","2403855","2018-02-04 01:00","2018","02","04","01:00","-42.1","","-46.8","","62","","","","35","","8","","19.3","","99.01","","","","-52","","Ice Crystals"
"-93.58","69.55","TALOYOAK A","2403855","2018-02-04 02:00","2018","02","04","02:00","-42.5","","-47.1","","62","","","","26","","4","","19.3","","99.05","","","","-48","","Ice Crystals"
"-93.58","69.55","TALOYOAK A","2403855","2018-02-04 03:00","2018","02","04","03:00","-43.0","","-47.6","","61","","","","17","","7","","16.1","","99.06","","","","-52","","Ice Crystals"
"-93.58","69.55","TALOYOAK A","2403855","2018-02-04 04:00","2018","02","04","04:00","-43.5","","-48.1","","61","","","","15","","10","","12.9","","99.07","","","","-55","","Ice Crystals"
"-93.58","69.55","TALOYOAK A","2403855","2018-02-04 05:00","2018","02","04","05:00","-42.2","","-46.8","","62","","","","15","","14","","4.8","","99.06","","","","-56","","Ice Crystals,Fog"
"-93.58","69.55","TALOYOAK A","2403855","2018-02-04 06:00","2018","02","04","06:00","-42.1","","-46.8","","62","","","","15","","18","","4.8","","99.06","","","","-58","","Ice Crystals,Fog,Blowing Snow"
"-93.58","69.55","TALOYOAK A","2403855","2018-02-04 07:00","2018","02","04","07:00","-41.5","","-46.2","","62","","","","13","","10","","4.8","","99.05","","","","-53","","Ice Crystals,Fog"
"-93.58","69.55","TALOYOAK A","2403855","2018-02-04 08:00","2018","02","04","08:00","-40.9","","-45.5","","62","","","","15","","14","","16.1","","99.07","","","","-54","","Snow"
"-93.58","69.55","TALOYOAK A","2403855","2018-02-04 09:00","2018","02","04","09:00","-40.7","","-45.3","","63","","","","15","","14","","16.1","","99.08","","","","-54","","Snow"
"-93.58","69.55","TALOYOAK A","2403855","2018-02-04 10:00","2018","02","04","10:00","-40.5","","-45.1","","63","","","","14","","13","","16.1","","99.06","","","","-53","","Snow"
"-93.58","69.55","TALOYOAK A","2403855","2018-02-04 11:00","2018","02","04","11:00","-40.1","","-44.7","","63","","","","15","","14","","6.4","","99.08","","","","-53","","Snow,Fog"
"-93.58","69.55","TALOYOAK A","2403855","2018-02-04 12:00","2018","02","04","12:00","-39.6","","-44.1","","63","","","","14","","14","","8.1","","99.09","","","","-53","","Snow,Fog"
"-93.58","69.55","TALOYOAK A","2403855","2018-02-04 13:00","2018","02","04","13:00","-38.4","","-42.9","","64","","","","17","","13","","16.1","","99.14","","","","-51","","Snow"
"-93.58","69.55","TALOYOAK A","2403855","2018-02-04 14:00","2018","02","04","14:00","-38.5","","-43.0","","64","","","","15","","15","","16.1","","99.16","","","","-52","","Snow"
"-93.58","69.55","TALOYOAK A","2403855","2018-02-04 15:00","2018","02","04","15:00","-37.5","","-42.0","","64","","","","15","","12","","16.1","","99.16","","","","-49","","Snow"
"-93.58","69.55","TALOYOAK A","2403855","2018-02-04 16:00","2018","02","04","16:00","-37.4","","-41.8","","64","","","","15","","7","","16.1","","99.18","","","","-46","","Snow"
"-93.58","69.55","TALOYOAK A","2403855","2018-02-04 17:00","2018","02","04","17:00","-38.6","","-43.1","","64","","","","13","","14","","16.1","","99.20","","","","-52","","Ice Crystals"
"-93.58","69.55","TALOYOAK A","2403855","2018-02-04 18:00","2018","02","04","18:00","-38.5","","-43.0","","64","","","","15","","23","","16.1","","99.19","","","","-55","","Ice Crystals,Blowing Snow"
"-93.58","69.55","TALOYOAK A","2403855","2018-02-04 19:00","2018","02","04","19:00","-38.1","","-42.6","","64","","","","16","","23","","16.1","","99.26","","","","-54","","Ice Crystals,Blowing Snow"
"-93.58","69.55","TALOYOAK A","2403855","2018-02-04 20:00","2018","02","04","20:00","-38.2","","-42.7","","64","","","","17","","21","","16.1","","99.23","","","","-54","","Ice Crystals,Blowing Snow"
"-93.58","69.55","TALOYOAK A","2403855","2018-02-04 21:00","2018","02","04","21:00","-38.8","","-43.3","","64","","","","18","","21","","19.3","","99.25","","","","-55","","Ice Crystals,Blowing Snow"
"-93.58","69.55","TALOYOAK A","2403855","2018-02-04 22:00","2018","02","04","22:00","-39.4","","-43.9","","63","","","","16","","15","","16.1","","99.31","","","","-53","","Ice Crystals,Blowing Snow"
"-93.58","69.55","TALOYOAK A","2403855","2018-02-04 23:00","2018","02","04","23:00","-40.3","","-44.8","","63","","","","15","","16","","16.1","","99.35","","","","-55","","Ice Crystals,Blowing Snow"
"-93.58","69.55","TALOYOAK A","2403855","2018-02-05 00:00","2018","02","05","00:00","-40.9","","-45.5","","63","","","","15","","18","","19.3","","99.37","","","","-56","","Ice Crystals,Blowing Snow"
"-93.58","69.55","TALOYOAK A","2403855","2018-02-05 01:00","2018","02","05","01:00","-40.8","","-45.4","","63","","","","15","","16","","16.1","","99.42","","","","-55","","Ice Crystals,Blowing Snow"
"-93.58","69.55","TALOYOAK A","2403855","2018-02-05 02:00","2018","02","05","02:00","-40.2","","-44.8","","63","","","","15","","19","","12.9","","99.48","","","","-56","","Snow,Blowing Snow"
"-93.58","69.55","TALOYOAK A","2403855","2018-02-05 03:00","2018","02","05","03:00","-39.9","","-44.4","","63","","","","14","","10","","16.1","","99.53","","","","-51","","Snow,Blowing Snow"
"-93.58","69.55","TALOYOAK A","2403855","2018-02-05 04:00","2018","02","05","04:00","-39.3","","-43.9","","63","","","","5","","7","","12.9","","99.59","","","","-48","","Snow"
"-93.58","69.55","TALOYOAK A","2403855","2018-02-05 05:00","2018","02","05","05:00","-39.1","","-43.6","","63","","","","6","","11","","9.7","","99.63","","","","-51","","Snow Showers"
"-93.58","69.55","TALOYOAK A","2403855","2018-02-05 06:00","2018","02","05","06:00","-39.0","","-43.5","","64","","","","7","","14","","12.9","","99.68","","","","-52","","Snow Showers"
"-93.58","69.55","TALOYOAK A","2403855","2018-02-05 07:00","2018","02","05","07:00","-38.8","","-43.4","","64","","","","6","","16","","19.3","","99.72","","","","-53","","Snow"
"-93.58","69.55","TALOYOAK A","2403855","2018-02-05 08:00","2018","02","05","08:00","-39.5","","-44.0","","63","","","","8","","16","","19.3","","99.81","","","","-54","","Snow"
"-93.58","69.55","TALOYOAK A","2403855","2018-02-05 09:00","2018","02","05","09:00","-39.8","","-44.3","","63","","","","5","","14","","24.1","","99.83","","","","-53","","Ice Crystals"
"-93.58","69.55","TALOYOAK A","2403855","2018-02-05 10:00","2018","02","05","10:00","-40.9","","-45.5","","63","","","","6","","16","","24.1","","99.90","","","","-55","","Ice Crystals"
"-93.58","69.55","TALOYOAK A","2403855","2018-02-05 11:00","2018","02","05","11:00","-41.0","","-45.6","","62","","","","5","","13","","24.1","","99.95","","","","-54","","Ice Crystals"
"-93.58","69.55","TALOYOAK A","2403855","2018-02-05 12:00","2018","02","05","12:00","-41.2","","-45.9","","62","","","","6","","17","","24.1","","100.03","","","","-56","","Ice Crystals"
"-93.58","69.55","TALOYOAK A","2403855","2018-02-05 13:00","2018","02","05","13:00","-41.2","","-45.9","","62","","","","5","","12","","24.1","","100.10","","","","-54","","Ice Crystals"
"-93.58","69.55","TALOYOAK A","2403855","2018-02-05 14:00","2018","02","05","14:00","-41.6","","-46.3","","62","","","","31","","7","","24.1","","100.18","","","","-51","","Ice Crystals"
"-93.58","69.55","TALOYOAK A","2403855","2018-02-05 15:00","2018","02","05","15:00","-40.9","","-45.5","","62","","","","3","","9","","24.1","","100.25","","","","-52","","Ice Crystals"
"-93.58","69.55","TALOYOAK A","2403855","2018-02-05 16:00","2018","02","05","16:00","-39.9","","-44.5","","63","","","","4","","16","","16.1","","100.30","","","","-54","","Ice Crystals"
"-93.58","69.55","TALOYOAK A","2403855","2018-02-05 17:00","2018","02","05","17:00","-39.8","","-44.4","","63","","","","3","","18","","3.2","","100.36","","","","-55","","Ice Crystals,Fog"
"-93.58","69.55","TALOYOAK A","2403855","2018-02-05 18:00","2018","02","05","18:00","-38.7","","-43.2","","64","","","","4","","15","","1.6","","100.39","","","","-52","","Ice Crystals,Fog"
"-93.58","69.55","TALOYOAK A","2403855","2018-02-05 19:00","2018","02","05","19:00"
"-93.58","69.55","TALOYOAK A","2403855","2018-02-05 20:00","2018","02","05","20:00","-38.0","","-42.1","","66","","","","5","","26","","1.6","","100.47","","","","-55","","Ice Crystals,Fog,Blowing Snow"
"-93.58","69.55","TALOYOAK A","2403855","2018-02-05 21:00","2018","02","05","21:00","-38.9","","-43.0","","66","","","","32","","17","","1.6","","100.51","","","","-53","","Ice Crystals,Fog,Blowing Snow"
"-93.58","69.55","TALOYOAK A","2403855","2018-02-05 22:00","2018","02","05","22:00","-38.9","","-43.0","","66","","","","36","","26","","2.0","","100.53","","","","-56","","Ice Crystals,Fog,Blowing Snow"
"-93.58","69.55","TALOYOAK A","2403855","2018-02-05 23:00","2018","02","05","23:00","-41.3","","-45.5","","64","","","","32","","17","","2.0","","100.58","","","","-56","","Ice Crystals,Fog,Blowing Snow"
"-93.58","69.55","TALOYOAK A","2403855","2018-02-06 00:00","2018","02","06","00:00","-40.4","","-44.6","","65","","","","36","","17","","3.2","","100.59","","","","-55","","Ice Crystals,Fog,Blowing Snow"
"-93.58","69.55","TALOYOAK A","2403855","2018-02-06 01:00","2018","02","06","01:00","-40.2","","-44.4","","65","","","","32","","17","","6.4","","100.64","","","","-55","","Ice Crystals,Fog,Blowing Snow"
"-93.58","69.55","TALOYOAK A","2403855","2018-02-06 02:00","2018","02","06","02:00","-41.3","","-45.5","","64","","","","36","","17","","6.4","","100.64","","","","-56","","Ice Crystals,Fog,Blowing Snow"
"-93.58","69.55","TALOYOAK A","2403855","2018-02-06 03:00","2018","02","06","03:00","-40.6","","-44.8","","64","","","","36","","9","","6.4","","100.67","","","","-51","","Ice Crystals,Fog"
"-93.58","69.55","TALOYOAK A","2403855","2018-02-06 04:00","2018","02","06","04:00","-39.1","","-43.3","","65","","","","36","","9","","6.4","","100.69","","","","-49","","Ice Crystals,Fog"
"-93.58","69.55","TALOYOAK A","2403855","2018-02-06 05:00","2018","02","06","05:00","-39.3","","-43.5","","65","","","","36","","9","","6.4","","100.68","","","","-50","","Ice Crystals,Fog"
"-93.58","69.55","TALOYOAK A","2403855","2018-02-06 06:00","2018","02","06","06:00","-40.0","","-44.2","","65","","","","36","","17","","9.7","","100.68","","","","-55","","Ice Crystals,Fog"
"-93.58","69.55","TALOYOAK A","2403855","2018-02-06 07:00","2018","02","06","07:00","-37.6","","-41.7","","66","","","","36","","26","","17.7","","100.64","","","","-55","","Ice Crystals,Blowing Snow"
"-93.58","69.55","TALOYOAK A","2403855","2018-02-06 08:00","2018","02","06","08:00","-39.3","","-43.5","","65","","","","36","","17","","24.1","","100.61","","","","-54","","Ice Crystals,Blowing Snow"
"-93.58","69.55","TALOYOAK A","2403855","2018-02-06 09:00","2018","02","06","09:00","-39.4","","-42.6","","72","","","","32","","17","","24.1","","100.52","","","","-54","","Ice Crystals"
"-93.58","69.55","TALOYOAK A","2403855","2018-02-06 10:00","2018","02","06","10:00","-36.5","","-40.5","","67","","","","32","","17","","24.1","","100.51","","","","-50","","Ice Crystals"
"-93.58","69.55","TALOYOAK A","2403855","2018-02-06 11:00","2018","02","06","11:00","-36.4","","-40.4","","67","","","","32","","9","","24.1","","100.49","","","","-46","","Ice Crystals"
"-93.58","69.55","TALOYOAK A","2403855","2018-02-06 12:00","2018","02","06","12:00","-36.7","","-40.8","","67","","","","32","","9","","24.1","","100.41","","","","-47","","Ice Crystals"
"-93.58","69.55","TALOYOAK A","2403855","2018-02-06 13:00","2018","02","06","13:00","-36.9","","-40.8","","67","","","","36","","17","","24.1","","100.37","","","","-51","","Ice Crystals"
"-93.58","69.55","TALOYOAK A","2403855","2018-02-06 14:00","2018","02","06","14:00","-36.0","","-40.1","","66","","","","36","","26","","24.1","","100.36","","","","-52","","Blowing Snow"
"-93.58","69.55","TALOYOAK A","2403855","2018-02-06 15:00","2018","02","06","15:00","-37.6","","-41.9","","65","","","","32","","9","","24.1","","100.34","","","","-48","","NA"
"-93.58","69.55","TALOYOAK A","2403855","2018-02-06 16:00","2018","02","06","16:00","-37.6","","-41.9","","65","","","","","","0","","24.1","","100.32","","","","","","NA"
"-93.58","69.55","TALOYOAK A","2403855","2018-02-06 17:00","2018","02","06","17:00","-37.8","","-42.1","","65","","","","36","","9","","24.1","","100.28","","","","-48","","Clear"
"-93.58","69.55","TALOYOAK A","2403855","2018-02-06 18:00","2018","02","06","18:00","-37.7","","-42.1","","64","","","","32","","9","","24.1","","100.26","","","","-48","","NA"
"-93.58","69.55","TALOYOAK A","2403855","2018-02-06 19:00","2018","02","06","19:00","-37.5","","-41.7","","65","","","","36","","9","","24.1","","100.21","","","","-47","","Ice Crystals"
"-93.58","69.55","TALOYOAK A","2403855","2018-02-06 20:00","2018","02","06","20:00","-37.0","","-41.2","","65","","","","32","","17","","24.1","","100.16","","","","-51","","Ice Crystals"
"-93.58","69.55","TALOYOAK A","2403855","2018-02-06 21:00","2018","02","06","21:00","-36.2","","-40.3","","66","","","","32","","17","","24.1","","100.13","","","","-50","","Ice Crystals,Blowing Snow"
"-93.58","69.55","TALOYOAK A","2403855","2018-02-06 22:00","2018","02","06","22:00","-35.8","","-39.9","","66","","","","32","","17","","3.2","","100.12","","","","-49","","Ice Crystals,Blowing Snow"
"-93.58","69.55","TALOYOAK A","2403855","2018-02-06 23:00","2018","02","06","23:00","-35.2","","-39.4","","66","","","","32","","17","","6.4","","100.09","","","","-49","","Ice Crystals,Blowing Snow"
"-93.58","69.55","TALOYOAK A","2403855","2018-02-07 00:00","2018","02","07","00:00","-35.9","","-40.2","","65","","","","32","","26","","6.4","","100.08","","","","-52","","Ice Crystals,Blowing Snow"
"-93.58","69.55","TALOYOAK A","2403855","2018-02-07 01:00","2018","02","07","01:00","-36.4","","-40.6","","66","","","","32","","26","","4.8","","100.03","","","","-53","","Ice Crystals,Blowing Snow"
"-93.58","69.55","TALOYOAK A","2403855","2018-02-07 02:00","2018","02","07","02:00","-37.1","","-41.3","","66","","","","32","","26","","2.0","","100.06","","","","-54","","Ice Crystals,Blowing Snow"
"-93.58","69.55","TALOYOAK A","2403855","2018-02-07 03:00","2018","02","07","03:00","-38.1","","-42.3","","65","","","","32","","35","","2.0","","100.06","","","","-57","","Ice Crystals,Blowing Snow"
"-93.58","69.55","TALOYOAK A","2403855","2018-02-07 04:00","2018","02","07","04:00","-37.9","","-42.1","","65","","","","32","","26","","2.0","","100.12","","","","-55","","Ice Crystals,Blowing Snow"
"-93.58","69.55","TALOYOAK A","2403855","2018-02-07 05:00","2018","02","07","05:00","-38.1","","-42.3","","66","","","","32","","26","","3.2","","100.09","","","","-55","","Ice Crystals,Blowing Snow"
"-93.58","69.55","TALOYOAK A","2403855","2018-02-07 06:00","2018","02","07","06:00","-37.6","","-42.2","","63","","","","32","","26","","12.9","","100.11","","","","-55","","Ice Crystals,Blowing Snow"
"-93.58","69.55","TALOYOAK A","2403855","2018-02-07 07:00","2018","02","07","07:00","-37.1","","-41.5","","64","","","","32","","26","","16.1","","100.09","","","","-54","","Ice Crystals,Blowing Snow"
"-93.58","69.55","TALOYOAK A","2403855","2018-02-07 08:00","2018","02","07","08:00","-37.3","","-41.5","","65","","","","32","","17","","19.3","","100.12","","","","-51","","Ice Crystals,Blowing Snow"
"-93.58","69.55","TALOYOAK A","2403855","2018-02-07 09:00","2018","02","07","09:00","-37.3","","-41.5","","65","","","","32","","26","","16.1","","100.04","","","","-54","","Ice Crystals,Blowing Snow"
"-93.58","69.55","TALOYOAK A","2403855","2018-02-07 10:00","2018","02","07","10:00","-36.9","","-41.3","","64","","","","32","","26","","24.1","","100.04","","","","-54","","Ice Crystals,Blowing Snow"
"-93.58","69.55","TALOYOAK A","2403855","2018-02-07 11:00","2018","02","07","11:00","-36.3","","-40.8","","64","","","","32","","9","","24.1","","100.10","","","","-46","","Ice Crystals"
"-93.58","69.55","TALOYOAK A","2403855","2018-02-07 12:00","2018","02","07","12:00","-35.6","","-40.2","","63","","","","32","","26","","24.1","","100.07","","","","-52","","Ice Crystals,Blowing Snow"
"-93.58","69.55","TALOYOAK A","2403855","2018-02-07 13:00","2018","02","07","13:00","-35.6","","-39.9","","65","","","","32","","17","","24.1","","100.09","","","","-49","","Ice Crystals,Blowing Snow"
"-93.58","69.55","TALOYOAK A","2403855","2018-02-07 14:00","2018","02","07","14:00","-34.4","","-38.6","","66","","","","32","","17","","24.1","","100.13","","","","-48","","Ice Crystals,Blowing Snow"
"-93.58","69.55","TALOYOAK A","2403855","2018-02-07 15:00","2018","02","07","15:00","-34.5","","-38.6","","67","","","","27","","97","","16.1","","100.15","","","","-60","","Ice Crystals"
"-93.58","69.55","TALOYOAK A","2403855","2018-02-07 16:00","2018","02","07","16:00","-38.4","","-42.6","","65","","","","27","","9","","2.0","","100.13","","","","-49","","Ice Crystals,Fog"
"-93.58","69.55","TALOYOAK A","2403855","2018-02-07 17:00","2018","02","07","17:00","-34.2","","-38.2","","68","","","","27","","4","","1.6","","100.08","","","","-39","","Ice Crystals,Fog"
"-93.58","69.55","TALOYOAK A","2403855","2018-02-07 18:00","2018","02","07","18:00","-33.8","","-37.7","","68","","","","27","","17","","1.6","","100.08","","","","-47","","Snow,Blowing Snow"
"-93.58","69.55","TALOYOAK A","2403855","2018-02-07 19:00","2018","02","07","19:00","-33.6","","-37.5","","68","","","","27","","17","","2.4","","100.05","","","","-47","","Snow,Blowing Snow"
"-93.58","69.55","TALOYOAK A","2403855","2018-02-07 20:00","2018","02","07","20:00","-33.2","","-37.1","","68","","","","27","","17","","9.7","","100.07","","","","-46","","Snow,Blowing Snow"
"-93.58","69.55","TALOYOAK A","2403855","2018-02-07 21:00","2018","02","07","21:00","-33.9","","-37.9","","68","","","","32","","17","","6.4","","100.02","","","","-47","","Snow,Blowing Snow"
"-93.58","69.55","TALOYOAK A","2403855","2018-02-07 22:00","2018","02","07","22:00","-33.5","","-37.4","","68","","","","27","","17","","4.8","","99.99","","","","-46","","Snow,Blowing Snow"
"-93.58","69.55","TALOYOAK A","2403855","2018-02-07 23:00","2018","02","07","23:00","-32.9","","-36.7","","69","","","","32","","17","","4.8","","99.91","","","","-46","","Snow,Blowing Snow"
"-93.58","69.55","TALOYOAK A","2403855","2018-02-08 00:00","2018","02","08","00:00","-33.2","","-37.1","","69","","","","27","","17","","4.8","","99.89","","","","-46","","Snow,Blowing Snow"
"-93.58","69.55","TALOYOAK A","2403855","2018-02-08 01:00","2018","02","08","01:00","-34.0","","-37.9","","68","","","","27","","17","","6.4","","99.87","","","","-47","","Snow,Blowing Snow"
"-93.58","69.55","TALOYOAK A","2403855","2018-02-08 02:00","2018","02","08","02:00","-34.7","","-38.8","","67","","","","32","","17","","9.7","","99.85","","","","-48","","Snow,Blowing Snow"
"-93.58","69.55","TALOYOAK A","2403855","2018-02-08 03:00","2018","02","08","03:00","-35.8","","-40.0","","66","","","","32","","17","","16.1","","99.85","","","","-49","","Ice Crystals,Blowing Snow"
"-93.58","69.55","TALOYOAK A","2403855","2018-02-08 04:00","2018","02","08","04:00","-36.2","","-40.4","","66","","","","36","","17","","16.1","","99.82","","","","-50","","Ice Crystals,Blowing Snow"
"-93.58","69.55","TALOYOAK A","2403855","2018-02-08 05:00","2018","02","08","05:00","-36.2","","-40.3","","67","","","","36","","9","","19.3","","99.77","","","","-46","","Ice Crystals,Blowing Snow"
"-93.58","69.55","TALOYOAK A","2403855","2018-02-08 06:00","2018","02","08","06:00","-36.5","","-40.6","","67","","","","9","","9","","16.1","","99.70","","","","-46","","Ice Crystals"
"-93.58","69.55","TALOYOAK A","2403855","2018-02-08 07:00","2018","02","08","07:00","-36.5","","-40.6","","67","","","","9","","9","","12.9","","99.64","","","","-46","","Snow"
"-93.58","69.55","TALOYOAK A","2403855","2018-02-08 08:00","2018","02","08","08:00","-35.8","","-39.8","","67","","","","14","","9","","9.7","","99.57","","","","-45","","Snow"
"-93.58","69.55","TALOYOAK A","2403855","2018-02-08 09:00","2018","02","08","09:00","-34.7","","-38.6","","68","","","","14","","9","","2.4","","99.46","","","","-44","","Snow"
"-93.58","69.55","TALOYOAK A","2403855","2018-02-08 10:00","2018","02","08","10:00","-34.2","","-38.1","","68","","","","14","","9","","2.4","","99.36","","","","-44","","Snow"
"-93.58","69.55","TALOYOAK A","2403855","2018-02-08 11:00","2018","02","08","11:00","-33.4","","-37.3","","69","","","","14","","9","","2.4","","99.26","","","","-43","","Snow"
"-93.58","69.55","TALOYOAK A","2403855","2018-02-08 12:00","2018","02","08","12:00","-32.7","","-36.5","","69","","","","","","0","","1.6","","99.17","","","","","","Snow"
"-93.58","69.55","TALOYOAK A","2403855","2018-02-08 13:00","2018","02","08","13:00","-32.6","","-36.4","","69","","","","5","","9","","2.0","","99.18","","","","-42","","Snow"
"-93.58","69.55","TALOYOAK A","2403855","2018-02-08 14:00","2018","02","08","14:00","-33.3","","-37.2","","69","","","","5","","17","","2.0","","99.16","","","","-46","","Ice Crystals"
"-93.58","69.55","TALOYOAK A","2403855","2018-02-08 15:00","2018","02","08","15:00","-34.4","","-38.3","","68","","","","5","","17","","2.4","","99.14","","","","-48","","Ice Crystals"
"-93.58","69.55","TALOYOAK A","2403855","2018-02-08 16:00","2018","02","08","16:00","-36.0","","-40.0","","67","","","","5","","17","","4.8","","99.15","","","","-50","","Ice Crystals,Blowing Snow"
"-93.58","69.55","TALOYOAK A","2403855","2018-02-08 17:00","2018","02","08","17:00","-36.5","","-40.6","","67","","","","5","","35","","2.0","","99.15","","","","-55","","Blowing Snow"
"-93.58","69.55","TALOYOAK A","2403855","2018-02-08 18:00","2018","02","08","18:00","-36.8","","-40.9","","66","","","","5","","35","","1.6","","99.27","","","","-56","","Blowing Snow"
"-93.58","69.55","TALOYOAK A","2403855","2018-02-08 19:00","2018","02","08","19:00","-36.9","","-41.0","","66","","","","5","","35","","2.0","","99.36","","","","-56","","Blowing Snow"
"-93.58","69.55","TALOYOAK A","2403855","2018-02-08 20:00","2018","02","08","20:00","-36.5","","-40.6","","67","","","","5","","35","","1.2","","99.41","","","","-55","","Blowing Snow"
"-93.58","69.55","TALOYOAK A","2403855","2018-02-08 21:00","2018","02","08","21:00","-36.7","","-40.8","","67","","","","5","","26","","1.6","","99.52","","","","-53","","Fog,Blowing Snow"
"-93.58","69.55","TALOYOAK A","2403855","2018-02-08 22:00","2018","02","08","22:00","-37.0","","-41.1","","66","","","","5","","26","","1.6","","99.58","","","","-54","","Fog,Blowing Snow"
"-93.58","69.55","TALOYOAK A","2403855","2018-02-08 23:00","2018","02","08","23:00","-37.4","","-41.5","","66","","","","5","","26","","1.6","","99.70","","","","-54","","Fog,Blowing Snow"
"-93.58","69.55","TALOYOAK A","2403855","2018-02-09 00:00","2018","02","09","00:00","-37.9","","-42.0","","66","","","","5","","26","","1.6","","99.72","","","","-55","","Fog,Blowing Snow"
"-93.58","69.55","TALOYOAK A","2403855","2018-02-09 01:00","2018","02","09","01:00","-38.4","","-42.6","","66","","","","5","","17","","1.6","","99.81","","","","-53","","Fog,Blowing Snow"
"-93.58","69.55","TALOYOAK A","2403855","2018-02-09 02:00","2018","02","09","02:00","-38.4","","-42.6","","65","","","","5","","17","","1.6","","99.90","","","","-53","","Fog,Blowing Snow"
"-93.58","69.55","TALOYOAK A","2403855","2018-02-09 03:00","2018","02","09","03:00","-38.7","","-42.9","","65","","","","5","","17","","1.6","","99.94","","","","-53","","Fog,Blowing Snow"
"-93.58","69.55","TALOYOAK A","2403855","2018-02-09 04:00","2018","02","09","04:00","-38.0","","-42.2","","66","","","","5","","17","","3.2","","100.01","","","","-52","","Fog,Blowing Snow"
"-93.58","69.55","TALOYOAK A","2403855","2018-02-09 05:00","2018","02","09","05:00","-38.2","","-42.4","","65","","","","5","","9","","3.2","","100.06","","","","-48","","Fog"
"-93.58","69.55","TALOYOAK A","2403855","2018-02-09 06:00","2018","02","09","06:00","-38.0","","-42.2","","66","","","","5","","9","","9.7","","100.13","","","","-48","","Ice Crystals"
"-93.58","69.55","TALOYOAK A","2403855","2018-02-09 07:00","2018","02","09","07:00","-38.8","","-43.0","","65","","","","5","","4","","16.1","","100.13","","","","-44","","Ice Crystals"
"-93.58","69.55","TALOYOAK A","2403855","2018-02-09 08:00","2018","02","09","08:00","-38.2","","-42.4","","65","","","","5","","4","","24.1","","100.17","","","","-44","","Ice Crystals"
"-93.58","69.55","TALOYOAK A","2403855","2018-02-09 09:00","2018","02","09","09:00","-37.8","","-42.0","","66","","","","","","0","","24.1","","100.13","","","","","","Ice Crystals"
"-93.58","69.55","TALOYOAK A","2403855","2018-02-09 10:00","2018","02","09","10:00","-37.7","","-41.9","","66","","","","","","0","","24.1","","100.12","","","","","","Ice Crystals"
"-93.58","69.55","TALOYOAK A","2403855","2018-02-09 11:00","2018","02","09","11:00","-37.2","","-41.3","","66","","","","","","0","","24.1","","100.13","","","","","","Ice Crystals"
"-93.58","69.55","TALOYOAK A","2403855","2018-02-09 12:00","2018","02","09","12:00","-37.7","","-41.9","","66","","","","","","0","","24.1","","100.11","","","","","","NA"
"-93.58","69.55","TALOYOAK A","2403855","2018-02-09 13:00","2018","02","09","13:00","-37.1","","-41.2","","66","","","","","","0","","24.1","","100.12","","","","","","NA"
"-93.58","69.55","TALOYOAK A","2403855","2018-02-09 14:00","2018","02","09","14:00","-36.7","","-40.8","","67","","","","","","0","","24.1","","100.13","","","","","","Mostly Cloudy"
"-93.58","69.55","TALOYOAK A","2403855","2018-02-09 15:00","2018","02","09","15:00","-38.0","","-42.2","","66","","","","","","0","","24.1","","100.14","","","","","","NA"
"-93.58","69.55","TALOYOAK A","2403855","2018-02-09 16:00","2018","02","09","16:00","-37.8","","-42.0","","66","","","","","","0","","24.1","","100.14","","","","","","NA"
"-93.58","69.55","TALOYOAK A","2403855","2018-02-09 17:00","2018","02","09","17:00","-38.0","","-42.1","","66","","","","","","0","","24.1","","100.11","","","","","","Mainly Clear"
"-93.58","69.55","TALOYOAK A","2403855","2018-02-09 18:00","2018","02","09","18:00","-37.5","","-41.7","","66","","","","","","0","","24.1","","100.07","","","","","","NA"
"-93.58","69.55","TALOYOAK A","2403855","2018-02-09 19:00","2018","02","09","19:00","-37.8","","-42.0","","66","","","","","","0","","24.1","","100.08","","","","","","NA"
"-93.58","69.55","TALOYOAK A","2403855","2018-02-09 20:00","2018","02","09","20:00","-37.1","","-41.2","","66","","","","9","","4","","24.1","","100.09","","","","-42","","Mostly Cloudy"
"-93.58","69.55","TALOYOAK A","2403855","2018-02-09 21:00","2018","02","09","21:00","-36.8","","-40.9","","66","","","","27","","4","","24.1","","100.04","","","","-42","","NA"
"-93.58","69.55","TALOYOAK A","2403855","2018-02-09 22:00","2018","02","09","22:00","-36.6","","-40.7","","66","","","","18","","4","","24.1","","100.08","","","","-42","","Snow"
"-93.58","69.55","TALOYOAK A","2403855","2018-02-09 23:00","2018","02","09","23:00","-36.6","","-40.7","","66","","","","18","","4","","24.1","","100.10","","","","-42","","Snow"
"-93.58","69.55","TALOYOAK A","2403855","2018-02-10 00:00","2018","02","10","00:00","-36.2","","-40.3","","67","","","","18","","4","","24.1","","100.09","","","","-41","","Snow"
"-93.58","69.55","TALOYOAK A","2403855","2018-02-10 01:00","2018","02","10","01:00","-36.5","","-40.6","","67","","","","23","","4","","16.1","","100.11","","","","-42","","Snow"
"-93.58","69.55","TALOYOAK A","2403855","2018-02-10 02:00","2018","02","10","02:00","-36.1","","-40.2","","67","","","","14","","4","","16.1","","100.12","","","","-41","","Snow"
"-93.58","69.55","TALOYOAK A","2403855","2018-02-10 03:00","2018","02","10","03:00","-36.0","","-40.0","","67","","","","18","","4","","16.1","","100.14","","","","-41","","Snow"
"-93.58","69.55","TALOYOAK A","2403855","2018-02-10 04:00","2018","02","10","04:00","-36.1","","-40.2","","67","","","","14","","4","","16.1","","100.15","","","","-41","","Snow"
"-93.58","69.55","TALOYOAK A","2403855","2018-02-10 05:00","2018","02","10","05:00","-36.3","","-40.4","","67","","","","9","","4","","16.1","","100.14","","","","-41","","Snow"
"-93.58","69.55","TALOYOAK A","2403855","2018-02-10 06:00","2018","02","10","06:00","-36.6","","-40.7","","66","","","","14","","4","","16.1","","100.17","","","","-42","","Snow"
"-93.58","69.55","TALOYOAK A","2403855","2018-02-10 07:00","2018","02","10","07:00","-37.5","","-41.6","","66","","","","14","","9","","24.1","","100.24","","","","-47","","Ice Crystals"
"-93.58","69.55","TALOYOAK A","2403855","2018-02-10 08:00","2018","02","10","08:00","-38.0","","-42.2","","66","","","","14","","9","","24.1","","100.30","","","","-48","","Ice Crystals"
"-93.58","69.55","TALOYOAK A","2403855","2018-02-10 09:00","2018","02","10","09:00","-36.9","","-41.0","","66","","","","14","","9","","24.1","","100.32","","","","-47","","Ice Crystals"
"-93.58","69.55","TALOYOAK A","2403855","2018-02-10 10:00","2018","02","10","10:00","-36.9","","-41.0","","66","","","","14","","9","","9.7","","100.36","","","","-47","","Snow"
"-93.58","69.55","TALOYOAK A","2403855","2018-02-10 11:00","2018","02","10","11:00","-36.3","","-40.4","","67","","","","14","","9","","9.7","","100.38","","","","-46","","Snow"
"-93.58","69.55","TALOYOAK A","2403855","2018-02-10 12:00","2018","02","10","12:00","-36.8","","-40.9","","66","","","","14","","9","","16.1","","100.45","","","","-47","","Snow"
"-93.58","69.55","TALOYOAK A","2403855","2018-02-10 13:00","2018","02","10","13:00","-36.8","","-40.9","","66","","","","14","","9","","16.1","","100.51","","","","-47","","Snow"
"-93.58","69.55","TALOYOAK A","2403855","2018-02-10 14:00","2018","02","10","14:00","-36.8","","-40.9","","66","","","","14","","9","","16.1","","100.55","","","","-47","","Snow"
"-93.58","69.55","TALOYOAK A","2403855","2018-02-10 15:00","2018","02","10","15:00","-38.2","","-42.4","","65","","","","14","","9","","19.3","","100.60","","","","-48","","Ice Crystals"
"-93.58","69.55","TALOYOAK A","2403855","2018-02-10 16:00","2018","02","10","16:00","-38.2","","-42.4","","65","","","","14","","9","","24.1","","100.68","","","","-48","","Ice Crystals"
"-93.58","69.55","TALOYOAK A","2403855","2018-02-10 17:00","2018","02","10","17:00","-39.9","","-44.3","","63","","","","14","","9","","24.1","","100.69","","","","-50","","Ice Crystals"
"-93.58","69.55","TALOYOAK A","2403855","2018-02-10 18:00","2018","02","10","18:00","-39.8","","-44.1","","64","","","","14","","9","","24.1","","100.73","","","","-50","","Ice Crystals"
"-93.58","69.55","TALOYOAK A","2403855","2018-02-10 19:00","2018","02","10","19:00","-40.4","","-44.7","","64","","","","14","","9","","24.1","","100.77","","","","-51","","Ice Crystals"
"-93.58","69.55","TALOYOAK A","2403855","2018-02-10 20:00","2018","02","10","20:00","-40.5","","-44.8","","64","","","","23","","4","","24.1","","100.80","","","","-46","","Ice Crystals"
"-93.58","69.55","TALOYOAK A","2403855","2018-02-10 21:00","2018","02","10","21:00","-40.0","","-44.4","","64","","","","18","","4","","24.1","","100.82","","","","-46","","Ice Crystals"
"-93.58","69.55","TALOYOAK A","2403855","2018-02-10 22:00","2018","02","10","22:00","-41.4","","-45.8","","63","","","","27","","4","","24.1","","100.84","","","","-47","","Ice Crystals"
"-93.58","69.55","TALOYOAK A","2403855","2018-02-10 23:00","2018","02","10","23:00","-41.0","","-45.4","","63","","","","27","","4","","24.1","","100.87","","","","-47","","Ice Crystals"
"-93.58","69.55","TALOYOAK A","2403855","2018-02-11 00:00","2018","02","11","00:00","-39.9","","-44.2","","64","","","","18","","4","","24.1","","100.90","","","","-45","","Ice Crystals"
"-93.58","69.55","TALOYOAK A","2403855","2018-02-11 01:00","2018","02","11","01:00","-41.4","","-45.8","","63","","","","14","","4","","24.1","","100.88","","","","-47","","Ice Crystals"
"-93.58","69.55","TALOYOAK A","2403855","2018-02-11 02:00","2018","02","11","02:00","-41.7","","-46.1","","63","","","","9","","4","","24.1","","100.93","","","","-47","","Ice Crystals"
"-93.58","69.55","TALOYOAK A","2403855","2018-02-11 03:00","2018","02","11","03:00","-39.7","","-44.0","","64","","","","14","","4","","24.1","","100.93","","","","-45","","Ice Crystals"
"-93.58","69.55","TALOYOAK A","2403855","2018-02-11 04:00","2018","02","11","04:00","-38.8","","-43.1","","64","","","","14","","4","","24.1","","100.91","","","","-44","","Ice Crystals"
"-93.58","69.55","TALOYOAK A","2403855","2018-02-11 05:00","2018","02","11","05:00","-38.8","","-43.1","","64","","","","18","","4","","16.1","","100.87","","","","-44","","Snow"
"-93.58","69.55","TALOYOAK A","2403855","2018-02-11 06:00","2018","02","11","06:00","-38.6","","-42.9","","64","","","","18","","9","","16.1","","100.85","","","","-49","","Snow"
"-93.58","69.55","TALOYOAK A","2403855","2018-02-11 07:00","2018","02","11","07:00","-38.6","","-42.9","","64","","","","14","","17","","12.9","","100.81","","","","-53","","Snow,Blowing Snow"
"-93.58","69.55","TALOYOAK A","2403855","2018-02-11 08:00","2018","02","11","08:00","-38.6","","-42.9","","64","","","","14","","17","","9.7","","100.76","","","","-53","","Snow,Blowing Snow"
"-93.58","69.55","TALOYOAK A","2403855","2018-02-11 09:00","2018","02","11","09:00","-38.6","","-42.9","","64","","","","14","","17","","9.7","","100.70","","","","-53","","Snow,Blowing Snow"
"-93.58","69.55","TALOYOAK A","2403855","2018-02-11 10:00","2018","02","11","10:00","-38.4","","-42.7","","65","","","","14","","9","","12.9","","100.68","","","","-49","","Snow"
"-93.58","69.55","TALOYOAK A","2403855","2018-02-11 11:00","2018","02","11","11:00","-38.3","","-42.6","","65","","","","18","","9","","16.1","","100.66","","","","-48","","Snow"
"-93.58","69.55","TALOYOAK A","2403855","2018-02-11 12:00","2018","02","11","12:00","-37.8","","-42.1","","65","","","","18","","9","","14.5","","100.61","","","","-48","","Snow"
"-93.58","69.55","TALOYOAK A","2403855","2018-02-11 13:00","2018","02","11","13:00","-38.4","","-42.7","","65","","","","18","","17","","14.5","","100.56","","","","-53","","Snow"
"-93.58","69.55","TALOYOAK A","2403855","2018-02-11 14:00","2018","02","11","14:00","-38.3","","-42.6","","65","","","","18","","17","","16.1","","100.51","","","","-52","","Snow"
"-93.58","69.55","TALOYOAK A","2403855","2018-02-11 15:00","2018","02","11","15:00","-37.8","","-42.0","","65","","","","18","","17","","12.9","","100.43","","","","-52","","Snow"
"-93.58","69.55","TALOYOAK A","2403855","2018-02-11 16:00","2018","02","11","16:00","-37.4","","-41.5","","66","","","","14","","17","","8.1","","100.34","","","","-51","","Snow,Blowing Snow"
"-93.58","69.55","TALOYOAK A","2403855","2018-02-11 17:00","2018","02","11","17:00","-37.3","","-41.5","","66","","","","14","","17","","6.4","","100.31","","","","-51","","Snow,Blowing Snow"
"-93.58","69.55","TALOYOAK A","2403855","2018-02-11 18:00","2018","02","11","18:00","-36.9","","-41.1","","66","","","","14","","17","","4.8","","100.27","","","","-51","","Snow,Blowing Snow"
"-93.58","69.55","TALOYOAK A","2403855","2018-02-11 19:00","2018","02","11","19:00","-36.8","","-41.0","","66","","","","14","","17","","4.8","","100.22","","","","-51","","Snow,Blowing Snow"
"-93.58","69.55","TALOYOAK A","2403855","2018-02-11 20:00","2018","02","11","20:00","-36.7","","-40.9","","66","","","","18","","17","","3.2","","100.16","","","","-50","","Snow,Snow Showers,Blowing Snow"
"-93.58","69.55","TALOYOAK A","2403855","2018-02-11 21:00","2018","02","11","21:00","-36.4","","-40.6","","66","","","","14","","17","","1.6","","100.10","","","","-50","","Snow Showers,Blowing Snow"
"-93.58","69.55","TALOYOAK A","2403855","2018-02-11 22:00","2018","02","11","22:00","-36.3","","-40.4","","66","","","","14","","17","","1.6","","100.03","","","","-50","","Snow Showers,Blowing Snow"
"-93.58","69.55","TALOYOAK A","2403855","2018-02-11 23:00","2018","02","11","23:00","-35.9","","-40.0","","67","","","","14","","26","","1.6","","100.01","","","","-52","","Snow Showers,Blowing Snow"
"-93.58","69.55","TALOYOAK A","2403855","2018-02-12 00:00","2018","02","12","00:00","-35.8","","-39.9","","67","","","","14","","17","","1.6","","100.02","","","","-49","","Snow Showers,Blowing Snow"
"-93.58","69.55","TALOYOAK A","2403855","2018-02-12 01:00","2018","02","12","01:00","-35.5","","-39.6","","67","","","","14","","17","","4.8","","99.98","","","","-49","","Snow,Blowing Snow"
"-93.58","69.55","TALOYOAK A","2403855","2018-02-12 02:00","2018","02","12","02:00","-35.3","","-39.4","","67","","","","9","","9","","16.1","","99.96","","","","-45","","Snow"
"-93.58","69.55","TALOYOAK A","2403855","2018-02-12 03:00","2018","02","12","03:00","-35.0","","-39.1","","67","","","","9","","9","","9.7","","99.93","","","","-45","","Snow"
"-93.58","69.55","TALOYOAK A","2403855","2018-02-12 04:00","2018","02","12","04:00","-36.6","","-40.8","","66","","","","9","","17","","9.7","","99.92","","","","-50","","Snow,Blowing Snow"
"-93.58","69.55","TALOYOAK A","2403855","2018-02-12 05:00","2018","02","12","05:00","-37.0","","-41.2","","66","","","","5","","17","","9.7","","99.91","","","","-51","","Snow,Blowing Snow"
"-93.58","69.55","TALOYOAK A","2403855","2018-02-12 06:00","2018","02","12","06:00","-37.5","","-41.7","","65","","","","5","","17","","9.7","","99.87","","","","-51","","Snow,Blowing Snow"
"-93.58","69.55","TALOYOAK A","2403855","2018-02-12 07:00","2018","02","12","07:00","-37.6","","-41.8","","65","","","","9","","17","","16.1","","99.85","","","","-52","","Ice Crystals,Blowing Snow"
"-93.58","69.55","TALOYOAK A","2403855","2018-02-12 08:00","2018","02","12","08:00","-37.2","","-41.4","","65","","","","9","","17","","16.1","","99.85","","","","-51","","Snow,Blowing Snow"
"-93.58","69.55","TALOYOAK A","2403855","2018-02-12 09:00","2018","02","12","09:00","-37.0","","-41.2","","65","","","","27","","17","","9.7","","99.81","","","","-51","","Snow,Blowing Snow"
"-93.58","69.55","TALOYOAK A","2403855","2018-02-12 10:00","2018","02","12","10:00","-37.2","","-41.4","","65","","","","27","","26","","8.1","","99.83","","","","-54","","Snow,Blowing Snow"
"-93.58","69.55","TALOYOAK A","2403855","2018-02-12 11:00","2018","02","12","11:00","-37.6","","-41.8","","65","","","","27","","26","","8.1","","99.84","","","","-55","","Snow,Blowing Snow"
"-93.58","69.55","TALOYOAK A","2403855","2018-02-12 12:00","2018","02","12","12:00","-37.4","","-41.6","","66","","","","27","","26","","8.1","","99.84","","","","-54","","Snow,Blowing Snow"
"-93.58","69.55","TALOYOAK A","2403855","2018-02-12 13:00","2018","02","12","13:00","-37.7","","-41.9","","65","","","","27","","17","","8.1","","99.83","","","","-52","","Snow,Blowing Snow"
"-93.58","69.55","TALOYOAK A","2403855","2018-02-12 14:00","2018","02","12","14:00","-38.0","","-42.2","","65","","","","27","","26","","9.7","","99.89","","","","-55","","Snow,Blowing Snow"
"-93.58","69.55","TALOYOAK A","2403855","2018-02-12 15:00","2018","02","12","15:00","-38.4","","-42.6","","65","","","","27","","26","","6.4","","99.85","","","","-56","","Snow,Blowing Snow"
"-93.58","69.55","TALOYOAK A","2403855","2018-02-12 16:00","2018","02","12","16:00","-38.6","","-42.9","","65","","","","9","","26","","6.4","","99.92","","","","-56","","Snow,Blowing Snow"
"-93.58","69.55","TALOYOAK A","2403855","2018-02-12 17:00","2018","02","12","17:00","-38.4","","-42.9","","64","","","","7","","41","","1.6","","99.91","","","","-59","","Snow,Blowing Snow"
"-93.58","69.55","TALOYOAK A","2403855","2018-02-12 18:00","2018","02","12","18:00","-38.9","","-43.3","","64","","","","6","","23","","1.6","","99.98","","","","-55","","Snow,Blowing Snow"
"-93.58","69.55","TALOYOAK A","2403855","2018-02-12 19:00","2018","02","12","19:00","-37.9","","-42.4","","64","","","","7","","37","","1.6","","99.96","","","","-57","","Snow,Blowing Snow"
"-93.58","69.55","TALOYOAK A","2403855","2018-02-12 20:00","2018","02","12","20:00","-37.6","","-42.1","","64","","","","7","","39","","1.2","","99.98","","","","-57","","Blowing Snow"
"-93.58","69.55","TALOYOAK A","2403855","2018-02-12 21:00","2018","02","12","21:00","-37.3","","-41.6","","65","","","","6","","22","","1.6","","100.08","","","","-53","","Fog,Blowing Snow"
"-93.58","69.55","TALOYOAK A","2403855","2018-02-12 22:00","2018","02","12","22:00","-37.0","","-41.4","","65","","","","7","","31","","1.6","","100.05","","","","-55","","Fog,Blowing Snow"
"-93.58","69.55","TALOYOAK A","2403855","2018-02-12 23:00","2018","02","12","23:00","-37.1","","-41.5","","65","","","","6","","28","","1.6","","100.10","","","","-54","","Fog,Blowing Snow"
"-93.58","69.55","TALOYOAK A","2403855","2018-02-13 00:00","2018","02","13","00:00","-38.4","","-42.9","","64","","","","6","","27","","3.2","","100.21","","","","-56","","Fog,Blowing Snow"
"-93.58","69.55","TALOYOAK A","2403855","2018-02-13 01:00","2018","02","13","01:00","-38.4","","-42.9","","64","","","","5","","25","","3.2","","100.26","","","","-55","","Fog,Blowing Snow"
"-93.58","69.55","TALOYOAK A","2403855","2018-02-13 02:00","2018","02","13","02:00","-38.9","","-43.3","","64","","","","5","","24","","3.2","","100.27","","","","-56","","Fog,Blowing Snow"
"-93.58","69.55","TALOYOAK A","2403855","2018-02-13 03:00","2018","02","13","03:00","-38.7","","-43.1","","64","","","","7","","28","","3.2","","100.30","","","","-56","","Fog,Blowing Snow"
"-93.58","69.55","TALOYOAK A","2403855","2018-02-13 04:00","2018","02","13","04:00","-38.2","","-42.7","","64","","","","6","","31","","3.2","","100.28","","","","-57","","Fog,Blowing Snow"
"-93.58","69.55","TALOYOAK A","2403855","2018-02-13 05:00","2018","02","13","05:00","-39.2","","-43.7","","64","","","","5","","22","","4.8","","100.28","","","","-55","","Fog,Blowing Snow"
"-93.58","69.55","TALOYOAK A","2403855","2018-02-13 06:00","2018","02","13","06:00","-40.5","","-45.0","","63","","","","3","","27","","4.8","","100.28","","","","-59","","Ice Crystals,Fog,Blowing Snow"
"-93.58","69.55","TALOYOAK A","2403855","2018-02-13 07:00","2018","02","13","07:00","-40.1","","-44.6","","63","","","","2","","20","","24.1","","100.35","","","","-56","","Ice Crystals,Blowing Snow"
"-93.58","69.55","TALOYOAK A","2403855","2018-02-13 08:00","2018","02","13","08:00","-40.9","","-45.5","","63","","","","36","","15","","24.1","","100.36","","","","-55","","Ice Crystals"
"-93.58","69.55","TALOYOAK A","2403855","2018-02-13 09:00","2018","02","13","09:00","-42.1","","-46.7","","62","","","","35","","16","","24.1","","100.36","","","","-57","","Ice Crystals"
"-93.58","69.55","TALOYOAK A","2403855","2018-02-13 10:00","2018","02","13","10:00","-41.9","","-46.5","","62","","","","36","","14","","24.1","","100.32","","","","-56","","Ice Crystals"
"-93.58","69.55","TALOYOAK A","2403855","2018-02-13 11:00","2018","02","13","11:00","-39.6","","-44.2","","63","","","","2","","18","","24.1","","100.30","","","","-54","","Ice Crystals"
"-93.58","69.55","TALOYOAK A","2403855","2018-02-13 12:00","2018","02","13","12:00","-39.4","","-44.0","","63","","","","36","","2","","24.1","","100.31","","","","-42","","Ice Crystals"
"-93.58","69.55","TALOYOAK A","2403855","2018-02-13 13:00","2018","02","13","13:00","-40.8","","-45.4","","62","","","","35","","10","","24.1","","100.32","","","","-52","","Ice Crystals"
"-93.58","69.55","TALOYOAK A","2403855","2018-02-13 14:00","2018","02","13","14:00","-37.0","","-41.5","","64","","","","30","","8","","24.1","","100.27","","","","-46","","Ice Crystals"
"-93.58","69.55","TALOYOAK A","2403855","2018-02-13 15:00","2018","02","13","15:00","-39.9","","-44.4","","63","","","","17","","9","","24.1","","100.26","","","","-50","","Ice Crystals"
"-93.58","69.55","TALOYOAK A","2403855","2018-02-13 16:00","2018","02","13","16:00","-39.0","","-43.5","","64","","","","15","","12","","24.1","","100.20","","","","-51","","Ice Crystals"
"-93.58","69.55","TALOYOAK A","2403855","2018-02-13 17:00","2018","02","13","17:00","-38.3","","-42.7","","64","","","","17","","7","","24.1","","100.16","","","","-47","","Ice Crystals"
"-93.58","69.55","TALOYOAK A","2403855","2018-02-13 18:00","2018","02","13","18:00","-33.8","","-38.1","","66","","","","29","","13","","24.1","","100.12","","","","-45","","Ice Crystals"
"-93.58","69.55","TALOYOAK A","2403855","2018-02-13 19:00","2018","02","13","19:00","-32.3","","-36.5","","67","","","","32","","5","","24.1","","100.08","","","","-38","","Ice Crystals"
"-93.58","69.55","TALOYOAK A","2403855","2018-02-13 20:00","2018","02","13","20:00","-31.0","","-35.1","","68","","","","32","","31","","3.2","","99.99","","","","-47","","Ice Crystals,Blowing Snow"
"-93.58","69.55","TALOYOAK A","2403855","2018-02-13 21:00","2018","02","13","21:00","-31.0","","-35.1","","68","","","","31","","34","","3.2","","99.91","","","","-48","","Ice Crystals,Blowing Snow"
"-93.58","69.55","TALOYOAK A","2403855","2018-02-13 22:00","2018","02","13","22:00","-31.1","","-35.1","","68","","","","31","","32","","4.8","","99.87","","","","-47","","Snow,Blowing Snow"
"-93.58","69.55","TALOYOAK A","2403855","2018-02-13 23:00","2018","02","13","23:00","-32.1","","-36.2","","68","","","","31","","23","","2.4","","99.85","","","","-47","","Snow,Blowing Snow"
"-93.58","69.55","TALOYOAK A","2403855","2018-02-14 00:00","2018","02","14","00:00","-32.8","","-36.9","","67","","","","30","","34","","2.4","","99.72","","","","-50","","Snow,Heavy Ice Pellet Showers,Blowing Snow"
"-93.58","69.55","TALOYOAK A","2403855","2018-02-14 01:00","2018","02","14","01:00","-32.8","","-36.9","","67","","","","31","","33","","2.4","","99.67","","","","-50","","Snow,Blowing Snow"
"-93.58","69.55","TALOYOAK A","2403855","2018-02-14 02:00","2018","02","14","02:00","-32.8","","-36.9","","67","","","","30","","36","","2.4","","99.63","","","","-51","","Snow,Blowing Snow"
"-93.58","69.55","TALOYOAK A","2403855","2018-02-14 03:00","2018","02","14","03:00","-32.8","","-37.0","","67","","","","31","","39","","1.6","","99.60","","","","-51","","Snow,Blowing Snow"
"-93.58","69.55","TALOYOAK A","2403855","2018-02-14 04:00","2018","02","14","04:00","-33.0","","-37.1","","67","","","","32","","34","","1.6","","99.59","","","","-50","","Snow,Blowing Snow"
"-93.58","69.55","TALOYOAK A","2403855","2018-02-14 05:00","2018","02","14","05:00","-33.5","","-37.7","","67","","","","31","","32","","1.6","","99.52","","","","-51","","Snow,Blowing Snow"
"-93.58","69.55","TALOYOAK A","2403855","2018-02-14 06:00","2018","02","14","06:00","-34.4","","-38.6","","66","","","","32","","30","","3.2","","99.50","","","","-51","","Snow,Blowing Snow"
"-93.58","69.55","TALOYOAK A","2403855","2018-02-14 07:00","2018","02","14","07:00","-35.2","","-39.5","","66","","","","32","","27","","16.1","","99.49","","","","-52","","Snow,Blowing Snow"
"-93.58","69.55","TALOYOAK A","2403855","2018-02-14 08:00","2018","02","14","08:00","-36.6","","-41.0","","65","","","","31","","24","","16.1","","99.48","","","","-53","","Ice Crystals"
"-93.58","69.55","TALOYOAK A","2403855","2018-02-14 09:00","2018","02","14","09:00","-38.0","","-42.5","","64","","","","36","","15","","19.3","","99.49","","","","-51","","Ice Crystals"
"-93.58","69.55","TALOYOAK A","2403855","2018-02-14 10:00","2018","02","14","10:00","-38.3","","-42.8","","64","","","","36","","15","","16.1","","99.48","","","","-52","","Ice Crystals,Blowing Snow"
"-93.58","69.55","TALOYOAK A","2403855","2018-02-14 11:00","2018","02","14","11:00","-38.0","","-42.5","","64","","","","1","","13","","19.3","","99.50","","","","-50","","Ice Crystals,Blowing Snow"
"-93.58","69.55","TALOYOAK A","2403855","2018-02-14 12:00","2018","02","14","12:00","-39.0","","-43.5","","63","","","","36","","11","","12.9","","99.51","","","","-51","","Ice Crystals,Blowing Snow"
"-93.58","69.55","TALOYOAK A","2403855","2018-02-14 13:00","2018","02","14","13:00","-38.5","","-43.0","","64","","","","1","","14","","14.5","","99.53","","","","-51","","Ice Crystals,Blowing Snow"
"-93.58","69.55","TALOYOAK A","2403855","2018-02-14 14:00","2018","02","14","14:00","-39.0","","-43.4","","64","","","","36","","14","","19.3","","99.56","","","","-52","","Ice Crystals,Blowing Snow"
"-93.58","69.55","TALOYOAK A","2403855","2018-02-14 15:00","2018","02","14","15:00","-39.7","","-44.2","","64","","","","2","","13","","24.1","","99.57","","","","-52","","Ice Crystals"
"-93.58","69.55","TALOYOAK A","2403855","2018-02-14 16:00","2018","02","14","16:00","-38.0","","-42.5","","64","","","","5","","22","","24.1","","99.61","","","","-54","","Ice Crystals"
"-93.58","69.55","TALOYOAK A","2403855","2018-02-14 17:00","2018","02","14","17:00","-39.8","","-44.3","","64","","","","6","","10","","24.1","","99.64","","","","-51","","Ice Crystals"
"-93.58","69.55","TALOYOAK A","2403855","2018-02-14 18:00","2018","02","14","18:00","-38.9","","-43.4","","64","","","","5","","15","","24.1","","99.67","","","","-52","","Ice Crystals"
"-93.58","69.55","TALOYOAK A","2403855","2018-02-14 19:00","2018","02","14","19:00","-42.1","","-46.6","","63","","","","36","","8","","24.1","","99.70","","","","-52","","Ice Crystals"
"-93.58","69.55","TALOYOAK A","2403855","2018-02-14 20:00","2018","02","14","20:00","-43.5","","-48.0","","62","","","","1","","12","","19.3","","99.71","","","","-57","","Ice Crystals"
"-93.58","69.55","TALOYOAK A","2403855","2018-02-14 21:00","2018","02","14","21:00","-42.2","","-46.7","","63","","","","3","","10","","19.3","","99.74","","","","-54","","Ice Crystals"
"-93.58","69.55","TALOYOAK A","2403855","2018-02-14 22:00","2018","02","14","22:00","-41.7","","-46.2","","63","","","","6","","6","","19.3","","99.74","","","","-50","","Ice Crystals"
"-93.58","69.55","TALOYOAK A","2403855","2018-02-14 23:00","2018","02","14","23:00","-44.1","","-48.6","","62","","","","36","","7","","24.1","","99.72","","","","-54","","Ice Crystals"
"-93.58","69.55","TALOYOAK A","2403855","2018-02-15 00:00","2018","02","15","00:00","-41.8","","-46.2","","63","","","","5","","8","","24.1","","99.77","","","","-52","","Ice Crystals"
"-93.58","69.55","TALOYOAK A","2403855","2018-02-15 01:00","2018","02","15","01:00","-43.9","","-48.5","","62","","","","3","","9","","24.1","","99.80","","","","-55","","Ice Crystals"
"-93.58","69.55","TALOYOAK A","2403855","2018-02-15 02:00","2018","02","15","02:00","-44.4","","-48.9","","62","","","","36","","11","","24.1","","99.80","","","","-57","","Ice Crystals"
"-93.58","69.55","TALOYOAK A","2403855","2018-02-15 03:00","2018","02","15","03:00","-44.2","","-48.8","","62","","","","1","","13","","24.1","","99.83","","","","-58","","Ice Crystals"
"-93.58","69.55","TALOYOAK A","2403855","2018-02-15 04:00","2018","02","15","04:00","-43.6","","-48.2","","62","","","","2","","15","","24.1","","99.81","","","","-58","","Ice Crystals"
"-93.58","69.55","TALOYOAK A","2403855","2018-02-15 05:00","2018","02","15","05:00","-43.6","","-48.1","","62","","","","2","","11","","16.1","","99.81","","","","-56","","Ice Crystals"
"-93.58","69.55","TALOYOAK A","2403855","2018-02-15 06:00","2018","02","15","06:00","-43.0","","-47.6","","62","","","","5","","4","","16.1","","99.79","","","","-49","","Ice Crystals"
"-93.58","69.55","TALOYOAK A","2403855","2018-02-15 07:00","2018","02","15","07:00","-45.3","","-50.0","","61","","","","5","","10","","16.1","","99.83","","","","-57","","Ice Crystals"
"-93.58","69.55","TALOYOAK A","2403855","2018-02-15 08:00","2018","02","15","08:00","-44.6","","-49.3","","61","","","","1","","5","","16.1","","99.83","","","","-52","","Ice Crystals"
"-93.58","69.55","TALOYOAK A","2403855","2018-02-15 09:00","2018","02","15","09:00","-44.2","","-48.9","","61","","","","13","","5","","19.3","","99.82","","","","-52","","Ice Crystals"
"-93.58","69.55","TALOYOAK A","2403855","2018-02-15 10:00","2018","02","15","10:00","-46.0","","-50.8","","60","","","","2","","7","","16.1","","99.81","","","","-56","","Ice Crystals"
"-93.58","69.55","TALOYOAK A","2403855","2018-02-15 11:00","2018","02","15","11:00","-44.1","","-48.9","","61","","","","0","","1","","9.7","","99.83","","","","-46","","Ice Crystals,Fog"
"-93.58","69.55","TALOYOAK A","2403855","2018-02-15 12:00","2018","02","15","12:00","-43.5","","-48.3","","61","","","","36","","2","","19.3","","99.82","","","","-46","","Ice Crystals,Fog"
"-93.58","69.55","TALOYOAK A","2403855","2018-02-15 13:00","2018","02","15","13:00","-43.6","","-48.3","","61","","","","16","","9","","16.1","","99.84","","","","-55","","Ice Crystals"
"-93.58","69.55","TALOYOAK A","2403855","2018-02-15 14:00","2018","02","15","14:00","-43.6","","-48.4","","61","","","","16","","8","","16.1","","99.91","","","","-54","","Ice Crystals"
"-93.58","69.55","TALOYOAK A","2403855","2018-02-15 15:00","2018","02","15","15:00","-43.4","","-48.1","","61","","","","19","","7","","19.3","","99.90","","","","-53","","Ice Crystals"
"-93.58","69.55","TALOYOAK A","2403855","2018-02-15 16:00","2018","02","15","16:00","-43.5","","-48.2","","61","","","","20","","7","","24.1","","99.89","","","","-53","","Ice Crystals"
"-93.58","69.55","TALOYOAK A","2403855","2018-02-15 17:00","2018","02","15","17:00","-44.0","","-48.7","","61","","","","18","","13","","24.1","","99.87","","","","-58","","Ice Crystals"
"-93.58","69.55","TALOYOAK A","2403855","2018-02-15 18:00","2018","02","15","18:00","-44.6","","-49.4","","61","","","","18","","10","","19.3","","99.84","","","","-57","","Ice Crystals"
"-93.58","69.55","TALOYOAK A","2403855","2018-02-15 19:00","2018","02","15","19:00","-44.8","","-49.5","","60","","","","16","","12","","24.1","","99.86","","","","-58","","Ice Crystals"
"-93.58","69.55","TALOYOAK A","2403855","2018-02-15 20:00","2018","02","15","20:00","-44.4","","-49.1","","61","","","","17","","13","","24.1","","99.85","","","","-58","","Ice Crystals"
"-93.58","69.55","TALOYOAK A","2403855","2018-02-15 21:00","2018","02","15","21:00","-44.6","","-49.3","","60","","","","17","","10","","24.1","","99.83","","","","-57","","Ice Crystals"
"-93.58","69.55","TALOYOAK A","2403855","2018-02-15 22:00","2018","02","15","22:00","-45.2","","-50.0","","60","","","","19","","13","","16.1","","99.83","","","","-59","","Ice Crystals"
"-93.58","69.55","TALOYOAK A","2403855","2018-02-15 23:00","2018","02","15","23:00","-45.8","","-50.6","","60","","","","18","","10","","16.1","","99.85","","","","-58","","Ice Crystals"
"-93.58","69.55","TALOYOAK A","2403855","2018-02-16 00:00","2018","02","16","00:00","-45.5","","-50.3","","60","","","","36","","2","","9.7","","99.84","","","","-49","","Ice Crystals,Fog"
"-93.58","69.55","TALOYOAK A","2403855","2018-02-16 01:00","2018","02","16","01:00","-47.7","","-52.5","","59","","","","36","","8","","2.0","","99.85","","","","-59","","Ice Crystals,Fog"
"-93.58","69.55","TALOYOAK A","2403855","2018-02-16 02:00","2018","02","16","02:00","-47.3","","-52.1","","59","","","","4","","11","","4.8","","99.84","","","","-60","","Ice Crystals,Fog"
"-93.58","69.55","TALOYOAK A","2403855","2018-02-16 03:00","2018","02","16","03:00","-47.1","","-52.0","","59","","","","2","","11","","4.8","","99.87","","","","-60","","Ice Crystals,Fog"
"-93.58","69.55","TALOYOAK A","2403855","2018-02-16 04:00","2018","02","16","04:00","-47.7","","-52.6","","59","","","","3","","12","","16.1","","99.89","","","","-62","","Ice Crystals"
"-93.58","69.55","TALOYOAK A","2403855","2018-02-16 05:00","2018","02","16","05:00","-48.4","","-53.3","","58","","","","1","","10","","16.1","","99.88","","","","-61","","Ice Crystals"
"-93.58","69.55","TALOYOAK A","2403855","2018-02-16 06:00","2018","02","16","06:00","-47.8","","-52.7","","59","","","","1","","20","","16.1","","99.89","","","","-66","","Ice Crystals"
"-93.58","69.55","TALOYOAK A","2403855","2018-02-16 07:00","2018","02","16","07:00","-47.5","","-52.4","","59","","","","2","","21","","16.1","","99.93","","","","-66","","Ice Crystals"
"-93.58","69.55","TALOYOAK A","2403855","2018-02-16 08:00","2018","02","16","08:00","-47.5","","-52.4","","59","","","","1","","14","","16.1","","99.96","","","","-62","","Ice Crystals"
"-93.58","69.55","TALOYOAK A","2403855","2018-02-16 09:00","2018","02","16","09:00","-46.7","","-51.5","","59","","","","2","","16","","24.1","","99.97","","","","-62","","Ice Crystals"
"-93.58","69.55","TALOYOAK A","2403855","2018-02-16 10:00","2018","02","16","10:00","-46.6","","-51.5","","59","","","","2","","7","","9.7","","100.05","","","","-57","","Ice Crystals,Fog"
"-93.58","69.55","TALOYOAK A","2403855","2018-02-16 11:00","2018","02","16","11:00","-45.5","","-50.4","","59","","","","34","","9","","24.1","","100.08","","","","-57","","Ice Crystals"
"-93.58","69.55","TALOYOAK A","2403855","2018-02-16 12:00","2018","02","16","12:00","-43.9","","-48.7","","60","","","","36","","16","","24.1","","100.12","","","","-59","","Ice Crystals"
"-93.58","69.55","TALOYOAK A","2403855","2018-02-16 13:00","2018","02","16","13:00","-44.0","","-48.8","","60","","","","1","","17","","24.1","","100.16","","","","-60","","Ice Crystals,Fog"
"-93.58","69.55","TALOYOAK A","2403855","2018-02-16 14:00","2018","02","16","14:00","-43.8","","-48.6","","60","","","","1","","19","","24.1","","100.24","","","","-60","","Ice Crystals"
"-93.58","69.55","TALOYOAK A","2403855","2018-02-16 15:00","2018","02","16","15:00","-43.4","","-48.2","","61","","","","1","","17","","24.1","","100.32","","","","-59","","Ice Crystals"
"-93.58","69.55","TALOYOAK A","2403855","2018-02-16 16:00","2018","02","16","16:00","-43.7","","-48.5","","61","","","","34","","12","","24.1","","100.39","","","","-57","","Ice Crystals"
"-93.58","69.55","TALOYOAK A","2403855","2018-02-16 17:00","2018","02","16","17:00","-43.6","","-48.4","","61","","","","33","","13","","24.1","","100.44","","","","-57","","Ice Crystals"
"-93.58","69.55","TALOYOAK A","2403855","2018-02-16 18:00","2018","02","16","18:00","-44.8","","-49.6","","60","","","","36","","17","","16.1","","100.51","","","","-61","","Ice Crystals"
"-93.58","69.55","TALOYOAK A","2403855","2018-02-16 19:00","2018","02","16","19:00","-41.0","","-45.7","","62","","","","3","","25","","16.1","","100.53","","","","-59","","Ice Crystals"
"-93.58","69.55","TALOYOAK A","2403855","2018-02-16 20:00","2018","02","16","20:00","-41.9","","-46.6","","62","","","","4","","21","","16.1","","100.58","","","","-58","","Ice Crystals"
"-93.58","69.55","TALOYOAK A","2403855","2018-02-16 21:00","2018","02","16","21:00","-40.5","","-45.1","","62","","","","5","","19","","16.1","","100.62","","","","-56","","Ice Crystals"
"-93.58","69.55","TALOYOAK A","2403855","2018-02-16 22:00","2018","02","16","22:00","-41.9","","-46.6","","62","","","","1","","11","","16.1","","100.66","","","","-54","","Ice Crystals"
"-93.58","69.55","TALOYOAK A","2403855","2018-02-16 23:00","2018","02","16","23:00","-42.2","","-46.9","","62","","","","33","","17","","16.1","","100.71","","","","-57","","Ice Crystals"
"-93.58","69.55","TALOYOAK A","2403855","2018-02-17 00:00","2018","02","17","00:00","-43.4","","-48.1","","61","","","","35","","20","","16.1","","100.79","","","","-60","","Ice Crystals"
"-93.58","69.55","TALOYOAK A","2403855","2018-02-17 01:00","2018","02","17","01:00","-43.6","","-48.4","","61","","","","1","","19","","24.1","","100.84","","","","-60","","Ice Crystals"
"-93.58","69.55","TALOYOAK A","2403855","2018-02-17 02:00","2018","02","17","02:00","-43.4","","-48.1","","61","","","","2","","23","","24.1","","100.84","","","","-61","","Ice Crystals"
"-93.58","69.55","TALOYOAK A","2403855","2018-02-17 03:00","2018","02","17","03:00","-44.4","","-49.2","","60","","","","36","","17","","24.1","","100.93","","","","-60","","Ice Crystals"
"-93.58","69.55","TALOYOAK A","2403855","2018-02-17 04:00","2018","02","17","04:00","-42.2","","-46.9","","61","","","","2","","24","","24.1","","100.95","","","","-60","","Ice Crystals"
"-93.58","69.55","TALOYOAK A","2403855","2018-02-17 05:00","2018","02","17","05:00","-43.2","","-47.9","","61","","","","2","","14","","24.1","","101.02","","","","-57","","Ice Crystals"
"-93.58","69.55","TALOYOAK A","2403855","2018-02-17 06:00","2018","02","17","06:00","-43.5","","-48.2","","61","","","","36","","13","","16.1","","101.04","","","","-57","","Ice Crystals"
"-93.58","69.55","TALOYOAK A","2403855","2018-02-17 07:00","2018","02","17","07:00","-40.9","","-45.5","","62","","","","3","","18","","24.1","","101.06","","","","-56","","Ice Crystals"
"-93.58","69.55","TALOYOAK A","2403855","2018-02-17 08:00","2018","02","17","08:00","-42.3","","-47.0","","61","","","","35","","21","","24.1","","101.09","","","","-59","","Ice Crystals"
"-93.58","69.55","TALOYOAK A","2403855","2018-02-17 09:00","2018","02","17","09:00","-42.1","","-46.8","","61","","","","1","","22","","24.1","","101.10","","","","-59","","Ice Crystals"
"-93.58","69.55","TALOYOAK A","2403855","2018-02-17 10:00","2018","02","17","10:00","-39.7","","-44.3","","63","","","","3","","25","","24.1","","101.09","","","","-57","","Ice Crystals"
"-93.58","69.55","TALOYOAK A","2403855","2018-02-17 11:00","2018","02","17","11:00","-39.7","","-44.3","","63","","","","3","","27","","24.1","","101.13","","","","-57","","Ice Crystals,Blowing Snow"
"-93.58","69.55","TALOYOAK A","2403855","2018-02-17 12:00","2018","02","17","12:00","-40.3","","-44.9","","62","","","","36","","18","","24.1","","101.19","","","","-55","","Ice Crystals"
"-93.58","69.55","TALOYOAK A","2403855","2018-02-17 13:00","2018","02","17","13:00","-38.8","","-43.4","","63","","","","34","","21","","24.1","","101.24","","","","-55","","Ice Crystals"
"-93.58","69.55","TALOYOAK A","2403855","2018-02-17 14:00","2018","02","17","14:00","-38.6","","-43.2","","63","","","","35","","18","","24.1","","101.25","","","","-53","","Ice Crystals"
"-93.58","69.55","TALOYOAK A","2403855","2018-02-17 15:00","2018","02","17","15:00","-40.3","","-44.9","","63","","","","36","","14","","24.1","","101.28","","","","-54","","Ice Crystals"
"-93.58","69.55","TALOYOAK A","2403855","2018-02-17 16:00","2018","02","17","16:00","-40.5","","-45.2","","62","","","","35","","15","","24.1","","101.31","","","","-54","","Ice Crystals"
"-93.58","69.55","TALOYOAK A","2403855","2018-02-17 17:00","2018","02","17","17:00","-40.3","","-44.9","","63","","","","35","","22","","24.1","","101.33","","","","-57","","Ice Crystals"
"-93.58","69.55","TALOYOAK A","2403855","2018-02-17 18:00","2018","02","17","18:00","-40.0","","-44.6","","63","","","","36","","23","","24.1","","101.31","","","","-57","","Ice Crystals"
"-93.58","69.55","TALOYOAK A","2403855","2018-02-17 19:00","2018","02","17","19:00","-40.4","","-45.0","","63","","","","36","","18","","24.1","","101.31","","","","-55","","Ice Crystals"
"-93.58","69.55","TALOYOAK A","2403855","2018-02-17 20:00","2018","02","17","20:00","-37.6","","-42.1","","64","","","","34","","26","","24.1","","101.28","","","","-55","","Ice Crystals"
"-93.58","69.55","TALOYOAK A","2403855","2018-02-17 21:00","2018","02","17","21:00","-38.6","","-43.2","","63","","","","36","","22","","24.1","","101.25","","","","-55","","Ice Crystals"
"-93.58","69.55","TALOYOAK A","2403855","2018-02-17 22:00","2018","02","17","22:00","-39.1","","-43.7","","63","","","","2","","18","","24.1","","101.30","","","","-54","","Ice Crystals"
"-93.58","69.55","TALOYOAK A","2403855","2018-02-17 23:00","2018","02","17","23:00","-39.0","","-43.5","","63","","","","36","","18","","24.1","","101.32","","","","-54","","Ice Crystals"
"-93.58","69.55","TALOYOAK A","2403855","2018-02-18 00:00","2018","02","18","00:00","-40.4","","-45.0","","63","","","","1","","19","","24.1","","101.25","","","","-56","","Ice Crystals"
"-93.58","69.55","TALOYOAK A","2403855","2018-02-18 01:00","2018","02","18","01:00","-39.3","","-43.9","","63","","","","35","","17","","24.1","","101.26","","","","-54","","Ice Crystals"
"-93.58","69.55","TALOYOAK A","2403855","2018-02-18 02:00","2018","02","18","02:00","-39.6","","-44.1","","63","","","","3","","17","","24.1","","101.25","","","","-54","","Ice Crystals"
"-93.58","69.55","TALOYOAK A","2403855","2018-02-18 03:00","2018","02","18","03:00","-41.0","","-45.6","","62","","","","1","","19","","24.1","","101.24","","","","-57","","Ice Crystals"
"-93.58","69.55","TALOYOAK A","2403855","2018-02-18 04:00","2018","02","18","04:00","-40.0","","-44.6","","63","","","","1","","23","","24.1","","101.26","","","","-57","","Ice Crystals"
"-93.58","69.55","TALOYOAK A","2403855","2018-02-18 05:00","2018","02","18","05:00","-39.5","","-44.1","","63","","","","35","","18","","24.1","","101.25","","","","-54","","Ice Crystals"
"-93.58","69.55","TALOYOAK A","2403855","2018-02-18 06:00","2018","02","18","06:00","-39.1","","-43.6","","63","","","","1","","27","","24.1","","101.23","","","","-57","","Ice Crystals"
"-93.58","69.55","TALOYOAK A","2403855","2018-02-18 07:00","2018","02","18","07:00","-40.2","","-44.8","","63","","","","36","","13","","24.1","","101.25","","","","-53","","Ice Crystals"
"-93.58","69.55","TALOYOAK A","2403855","2018-02-18 08:00","2018","02","18","08:00","-40.1","","-44.7","","63","","","","36","","10","","24.1","","101.23","","","","-51","","Ice Crystals"
"-93.58","69.55","TALOYOAK A","2403855","2018-02-18 09:00","2018","02","18","09:00","-38.2","","-42.7","","64","","","","2","","22","","24.1","","101.24","","","","-54","","Ice Crystals"
"-93.58","69.55","TALOYOAK A","2403855","2018-02-18 10:00","2018","02","18","10:00","-36.3","","-40.8","","64","","","","2","","18","","24.1","","101.26","","","","-50","","Ice Crystals"
"-93.58","69.55","TALOYOAK A","2403855","2018-02-18 11:00","2018","02","18","11:00","-36.3","","-40.8","","64","","","","3","","22","","24.1","","101.29","","","","-52","","Ice Crystals"
"-93.58","69.55","TALOYOAK A","2403855","2018-02-18 12:00","2018","02","18","12:00","-36.5","","-41.1","","64","","","","2","","17","","24.1","","101.32","","","","-50","","Ice Crystals"
"-93.58","69.55","TALOYOAK A","2403855","2018-02-18 13:00","2018","02","18","13:00","-36.7","","-41.3","","63","","","","2","","15","","24.1","","101.34","","","","-50","","Ice Crystals"
"-93.58","69.55","TALOYOAK A","2403855","2018-02-18 14:00","2018","02","18","14:00","-35.4","","-40.0","","64","","","","3","","14","","24.1","","101.34","","","","-48","","Ice Crystals"
"-93.58","69.55","TALOYOAK A","2403855","2018-02-18 15:00","2018","02","18","15:00","-36.5","","-41.1","","63","","","","1","","18","","24.1","","101.37","","","","-51","","Ice Crystals"
"-93.58","69.55","TALOYOAK A","2403855","2018-02-18 16:00","2018","02","18","16:00","-37.1","","-41.9","","62","","","","1","","22","","24.1","","101.39","","","","-53","","NA"
"-93.58","69.55","TALOYOAK A","2403855","2018-02-18 17:00","2018","02","18","17:00","-36.8","","-41.5","","63","","","","1","","23","","24.1","","101.38","","","","-53","","Mostly Cloudy"
"-93.58","69.55","TALOYOAK A","2403855","2018-02-18 18:00","2018","02","18","18:00","-34.8","","-39.8","","62","","","","2","","21","","24.1","","101.40","","","","-49","","NA"
"-93.58","69.55","TALOYOAK A","2403855","2018-02-18 19:00","2018","02","18","19:00","-35.0","","-40.1","","61","","","","2","","13","","24.1","","101.40","","","","-47","","NA"
"-93.58","69.55","TALOYOAK A","2403855","2018-02-18 20:00","2018","02","18","20:00","-36.3","","-41.5","","60","","","","1","","15","","24.1","","101.39","","","","-49","","Mainly Clear"
"-93.58","69.55","TALOYOAK A","2403855","2018-02-18 21:00","2018","02","18","21:00","-36.4","","-41.5","","60","","","","1","","18","","24.1","","101.38","","","","-50","","NA"
"-93.58","69.55","TALOYOAK A","2403855","2018-02-18 22:00","2018","02","18","22:00","-37.6","","-43.0","","59","","","","1","","14","","24.1","","101.38","","","","-50","","NA"
"-93.58","69.55","TALOYOAK A","2403855","2018-02-18 23:00","2018","02","18","23:00","-37.3","","-42.4","","61","","","","36","","12","","24.1","","101.42","","","","-49","","Mainly Clear"
"-93.58","69.55","TALOYOAK A","2403855","2018-02-19 00:00","2018","02","19","00:00","-36.2","","-41.5","","60","","","","35","","13","","24.1","","101.42","","","","-48","","NA"
"-93.58","69.55","TALOYOAK A","2403855","2018-02-19 01:00","2018","02","19","01:00","-35.6","","-41.1","","58","","","","35","","10","","24.1","","101.45","","","","-46","","NA"
"-93.58","69.55","TALOYOAK A","2403855","2018-02-19 02:00","2018","02","19","02:00","-34.2","","-40.0","","57","","","","36","","8","","24.1","","101.46","","","","-43","","Clear"
"-93.58","69.55","TALOYOAK A","2403855","2018-02-19 03:00","2018","02","19","03:00","-34.0","","-39.7","","58","","","","36","","9","","24.1","","101.49","","","","-43","","NA"
"-93.58","69.55","TALOYOAK A","2403855","2018-02-19 04:00","2018","02","19","04:00","-34.5","","-40.5","","55","","","","36","","9","","24.1","","101.49","","","","-44","","NA"
"-93.58","69.55","TALOYOAK A","2403855","2018-02-19 05:00","2018","02","19","05:00","-36.2","","-42.1","","56","","","","1","","9","","24.1","","101.50","","","","-46","","Clear"
"-93.58","69.55","TALOYOAK A","2403855","2018-02-19 06:00","2018","02","19","06:00","-36.9","","-42.2","","59","","","","36","","10","","24.1","","101.50","","","","-47","","NA"
"-93.58","69.55","TALOYOAK A","2403855","2018-02-19 07:00","2018","02","19","07:00","-35.6","","-41.3","","57","","","","35","","5","","24.1","","101.54","","","","-42","","NA"
"-93.58","69.55","TALOYOAK A","2403855","2018-02-19 08:00","2018","02","19","08:00","-37.7","","-43.1","","58","","","","36","","10","","24.1","","101.52","","","","-48","","Clear"
"-93.58","69.55","TALOYOAK A","2403855","2018-02-19 09:00","2018","02","19","09:00","-37.1","","-42.6","","58","","","","2","","14","","24.1","","101.55","","","","-50","","NA"
"-93.58","69.55","TALOYOAK A","2403855","2018-02-19 10:00","2018","02","19","10:00","-37.7","","-43.3","","57","","","","36","","11","","24.1","","101.56","","","","-49","","NA"
"-93.58","69.55","TALOYOAK A","2403855","2018-02-19 11:00","2018","02","19","11:00","-35.2","","-41.0","","56","","","","36","","9","","24.1","","101.56","","","","-45","","Mainly Clear"
"-93.58","69.55","TALOYOAK A","2403855","2018-02-19 12:00","2018","02","19","12:00","-37.8","","-43.3","","58","","","","36","","2","","24.1","","101.59","","","","-40","","NA"
"-93.58","69.55","TALOYOAK A","2403855","2018-02-19 13:00","2018","02","19","13:00","-37.5","","-42.8","","60","","","","36","","2","","24.1","","101.59","","","","-40","","NA"
"-93.58","69.55","TALOYOAK A","2403855","2018-02-19 14:00","2018","02","19","14:00","-37.9","","-42.9","","61","","","","15","","5","","24.1","","101.64","","","","-45","","Mainly Clear"
"-93.58","69.55","TALOYOAK A","2403855","2018-02-19 15:00","2018","02","19","15:00","-37.6","","-42.5","","61","","","","14","","5","","24.1","","101.70","","","","-44","","NA"
"-93.58","69.55","TALOYOAK A","2403855","2018-02-19 16:00","2018","02","19","16:00","-39.0","","-44.0","","61","","","","15","","7","","24.1","","101.74","","","","-48","","NA"
"-93.58","69.55","TALOYOAK A","2403855","2018-02-19 17:00","2018","02","19","17:00","-38.0","","-42.7","","62","","","","15","","5","","24.1","","101.77","","","","-45","","Mainly Clear"
"-93.58","69.55","TALOYOAK A","2403855","2018-02-19 18:00","2018","02","19","18:00","-37.7","","-42.6","","61","","","","14","","4","","24.1","","101.80","","","","-43","","Ice Crystals"
"-93.58","69.55","TALOYOAK A","2403855","2018-02-19 19:00","2018","02","19","19:00","-34.2","","-38.5","","66","","","","34","","4","","24.1","","101.82","","","","-39","","Ice Crystals"
"-93.58","69.55","TALOYOAK A","2403855","2018-02-19 20:00","2018","02","19","20:00","-32.4","","-36.6","","67","","","","27","","9","","24.1","","101.82","","","","-41","","Ice Crystals"
"-93.58","69.55","TALOYOAK A","2403855","2018-02-19 21:00","2018","02","19","21:00","-31.4","","-35.6","","67","","","","28","","14","","24.1","","101.86","","","","-43","","Ice Crystals"
"-93.58","69.55","TALOYOAK A","2403855","2018-02-19 22:00","2018","02","19","22:00","-38.9","","-43.3","","64","","","","18","","10","","24.1","","101.89","","","","-50","","Ice Crystals"
"-93.58","69.55","TALOYOAK A","2403855","2018-02-19 23:00","2018","02","19","23:00","-39.5","","-43.9","","64","","","","19","","9","","16.1","","101.92","","","","-50","","Ice Crystals"
"-93.58","69.55","TALOYOAK A","2403855","2018-02-20 00:00","2018","02","20","00:00","-39.4","","-43.9","","64","","","","15","","13","","16.1","","101.91","","","","-52","","Ice Crystals"
"-93.58","69.55","TALOYOAK A","2403855","2018-02-20 01:00","2018","02","20","01:00","-39.8","","-44.3","","63","","","","15","","17","","6.4","","101.96","","","","-54","","Ice Crystals,Fog"
"-93.58","69.55","TALOYOAK A","2403855","2018-02-20 02:00","2018","02","20","02:00","-39.8","","-44.3","","63","","","","15","","10","","6.4","","102.00","","","","-51","","Ice Crystals,Fog"
"-93.58","69.55","TALOYOAK A","2403855","2018-02-20 03:00","2018","02","20","03:00","-39.3","","-43.8","","63","","","","15","","16","","8.1","","102.04","","","","-53","","Ice Crystals,Fog"
"-93.58","69.55","TALOYOAK A","2403855","2018-02-20 04:00","2018","02","20","04:00","-39.2","","-43.7","","64","","","","16","","14","","6.4","","102.08","","","","-52","","Ice Crystals,Fog"
"-93.58","69.55","TALOYOAK A","2403855","2018-02-20 05:00","2018","02","20","05:00","-39.5","","-44.1","","63","","","","15","","14","","8.1","","102.06","","","","-53","","Ice Crystals,Fog"
"-93.58","69.55","TALOYOAK A","2403855","2018-02-20 06:00","2018","02","20","06:00","-39.1","","-43.6","","64","","","","14","","13","","8.1","","102.05","","","","-52","","Ice Crystals,Fog"
"-93.58","69.55","TALOYOAK A","2403855","2018-02-20 07:00","2018","02","20","07:00","-39.3","","-43.8","","63","","","","16","","19","","9.7","","102.08","","","","-54","","Ice Crystals,Fog"
"-93.58","69.55","TALOYOAK A","2403855","2018-02-20 08:00","2018","02","20","08:00","-39.7","","-44.2","","63","","","","17","","22","","24.1","","102.09","","","","-56","","Ice Crystals"
"-93.58","69.55","TALOYOAK A","2403855","2018-02-20 09:00","2018","02","20","09:00","-39.3","","-43.9","","63","","","","16","","21","","24.1","","102.09","","","","-55","","Ice Crystals,Blowing Snow"
"-93.58","69.55","TALOYOAK A","2403855","2018-02-20 10:00","2018","02","20","10:00","-39.0","","-43.6","","63","","","","16","","21","","24.1","","102.13","","","","-55","","Ice Crystals,Blowing Snow"
"-93.58","69.55","TALOYOAK A","2403855","2018-02-20 11:00","2018","02","20","11:00","-38.8","","-43.4","","63","","","","17","","25","","24.1","","102.14","","","","-56","","Ice Crystals,Blowing Snow"
"-93.58","69.55","TALOYOAK A","2403855","2018-02-20 12:00","2018","02","20","12:00","-38.7","","-43.4","","62","","","","16","","24","","24.1","","102.12","","","","-55","","Ice Crystals,Blowing Snow"
"-93.58","69.55","TALOYOAK A","2403855","2018-02-20 13:00","2018","02","20","13:00","-38.4","","-43.1","","62","","","","17","","27","","24.1","","102.11","","","","-56","","Ice Crystals,Blowing Snow"
"-93.58","69.55","TALOYOAK A","2403855","2018-02-20 14:00","2018","02","20","14:00","-38.5","","-43.2","","62","","","","16","","22","","24.1","","102.10","","","","-54","","Ice Crystals,Blowing Snow"
"-93.58","69.55","TALOYOAK A","2403855","2018-02-20 15:00","2018","02","20","15:00","-38.7","","-43.4","","62","","","","16","","15","","24.1","","102.08","","","","-52","","Ice Crystals"
"-93.58","69.55","TALOYOAK A","2403855","2018-02-20 16:00","2018","02","20","16:00","-39.3","","-43.9","","63","","","","17","","26","","24.1","","102.07","","","","-57","","Ice Crystals,Blowing Snow"
"-93.58","69.55","TALOYOAK A","2403855","2018-02-20 17:00","2018","02","20","17:00","-39.2","","-43.8","","63","","","","17","","27","","24.1","","102.01","","","","-57","","Ice Crystals,Blowing Snow"
"-93.58","69.55","TALOYOAK A","2403855","2018-02-20 18:00","2018","02","20","18:00","-39.1","","-43.8","","62","","","","17","","27","","24.1","","101.96","","","","-57","","Ice Crystals,Blowing Snow"
"-93.58","69.55","TALOYOAK A","2403855","2018-02-20 19:00","2018","02","20","19:00","-39.4","","-44.1","","63","","","","17","","26","","24.1","","101.94","","","","-57","","Ice Crystals"
"-93.58","69.55","TALOYOAK A","2403855","2018-02-20 20:00","2018","02","20","20:00","-39.6","","-44.2","","63","","","","16","","23","","24.1","","101.91","","","","-56","","Ice Crystals"
"-93.58","69.55","TALOYOAK A","2403855","2018-02-20 21:00","2018","02","20","21:00","-39.3","","-43.9","","63","","","","16","","23","","24.1","","101.91","","","","-56","","Ice Crystals"
"-93.58","69.55","TALOYOAK A","2403855","2018-02-20 22:00","2018","02","20","22:00","-39.0","","-43.7","","63","","","","16","","20","","24.1","","101.88","","","","-54","","Ice Crystals"
"-93.58","69.55","TALOYOAK A","2403855","2018-02-20 23:00","2018","02","20","23:00","-39.1","","-43.9","","62","","","","17","","21","","24.1","","101.87","","","","-55","","Ice Crystals"
"-93.58","69.55","TALOYOAK A","2403855","2018-02-21 00:00","2018","02","21","00:00","-39.0","","-43.8","","62","","","","17","","20","","24.1","","101.83","","","","-54","","Ice Crystals"
"-93.58","69.55","TALOYOAK A","2403855","2018-02-21 01:00","2018","02","21","01:00","-39.2","","-44.1","","61","","","","17","","17","","24.1","","101.79","","","","-54","","Ice Crystals"
"-93.58","69.55","TALOYOAK A","2403855","2018-02-21 02:00","2018","02","21","02:00","-38.9","","-43.6","","62","","","","17","","19","","24.1","","101.75","","","","-54","","Ice Crystals"
"-93.58","69.55","TALOYOAK A","2403855","2018-02-21 03:00","2018","02","21","03:00","-38.8","","-43.3","","64","","","","19","","14","","24.1","","101.71","","","","-52","","Ice Crystals"
"-93.58","69.55","TALOYOAK A","2403855","2018-02-21 04:00","2018","02","21","04:00","-39.0","","-43.3","","65","","","","20","","11","","24.1","","101.67","","","","-51","","Ice Crystals"
"-93.58","69.55","TALOYOAK A","2403855","2018-02-21 05:00","2018","02","21","05:00","-38.9","","-43.3","","64","","","","12","","8","","16.1","","101.65","","","","-48","","Ice Crystals"
"-93.58","69.55","TALOYOAK A","2403855","2018-02-21 06:00","2018","02","21","06:00","-38.0","","-42.4","","65","","","","17","","10","","19.3","","101.57","","","","-49","","Ice Crystals"
"-93.58","69.55","TALOYOAK A","2403855","2018-02-21 07:00","2018","02","21","07:00","-37.9","","-42.3","","65","","","","19","","4","","24.1","","101.54","","","","-43","","Ice Crystals"
"-93.58","69.55","TALOYOAK A","2403855","2018-02-21 08:00","2018","02","21","08:00","-38.3","","-42.7","","64","","","","19","","11","","24.1","","101.53","","","","-50","","Ice Crystals"
"-93.58","69.55","TALOYOAK A","2403855","2018-02-21 09:00","2018","02","21","09:00","-36.6","","-41.0","","65","","","","18","","5","","24.1","","101.55","","","","-43","","Ice Crystals"
"-93.58","69.55","TALOYOAK A","2403855","2018-02-21 10:00","2018","02","21","10:00","-36.6","","-41.1","","64","","","","20","","8","","24.1","","101.51","","","","-46","","NA"
"-93.58","69.55","TALOYOAK A","2403855","2018-02-21 11:00","2018","02","21","11:00","-37.3","","-41.8","","64","","","","21","","6","","24.1","","101.48","","","","-45","","Clear"
"-93.58","69.55","TALOYOAK A","2403855","2018-02-21 12:00","2018","02","21","12:00","-37.0","","-41.5","","64","","","","36","","2","","24.1","","101.49","","","","-40","","NA"
"-93.58","69.55","TALOYOAK A","2403855","2018-02-21 13:00","2018","02","21","13:00","-36.9","","-41.5","","64","","","","17","","5","","24.1","","101.48","","","","-43","","NA"
"-93.58","69.55","TALOYOAK A","2403855","2018-02-21 14:00","2018","02","21","14:00","-37.0","","-41.5","","64","","","","20","","5","","24.1","","101.47","","","","-44","","Clear"
"-93.58","69.55","TALOYOAK A","2403855","2018-02-21 15:00","2018","02","21","15:00","-37.4","","-41.8","","64","","","","19","","5","","24.1","","101.46","","","","-44","","NA"
"-93.58","69.55","TALOYOAK A","2403855","2018-02-21 16:00","2018","02","21","16:00","-37.9","","-42.3","","65","","","","22","","6","","24.1","","101.41","","","","-46","","NA"
"-93.58","69.55","TALOYOAK A","2403855","2018-02-21 17:00","2018","02","21","17:00","-37.8","","-42.1","","65","","","","18","","4","","24.1","","101.42","","","","-43","","Clear"
"-93.58","69.55","TALOYOAK A","2403855","2018-02-21 18:00","2018","02","21","18:00","-41.4","","-45.9","","63","","","","1","","5","","24.1","","101.41","","","","-49","","Ice Crystals"
"-93.58","69.55","TALOYOAK A","2403855","2018-02-21 19:00","2018","02","21","19:00","-39.8","","-44.2","","64","","","","22","","9","","24.1","","101.32","","","","-50","","Ice Crystals"
"-93.58","69.55","TALOYOAK A","2403855","2018-02-21 20:00","2018","02","21","20:00","-40.2","","-44.6","","64","","","","16","","5","","24.1","","101.29","","","","-47","","Ice Crystals"
"-93.58","69.55","TALOYOAK A","2403855","2018-02-21 21:00","2018","02","21","21:00","-39.7","","-44.2","","64","","","","18","","13","","24.1","","101.26","","","","-52","","Ice Crystals"
"-93.58","69.55","TALOYOAK A","2403855","2018-02-21 22:00","2018","02","21","22:00","-39.8","","-44.3","","63","","","","16","","10","","9.7","","101.21","","","","-51","","Ice Crystals,Fog"
"-93.58","69.55","TALOYOAK A","2403855","2018-02-21 23:00","2018","02","21","23:00","-40.0","","-44.5","","63","","","","16","","15","","9.7","","101.15","","","","-54","","Ice Crystals,Fog"
"-93.58","69.55","TALOYOAK A","2403855","2018-02-22 00:00","2018","02","22","00:00","-40.4","","-44.9","","63","","","","16","","15","","9.7","","101.13","","","","-54","","Ice Crystals,Fog"
"-93.58","69.55","TALOYOAK A","2403855","2018-02-22 01:00","2018","02","22","01:00","-39.1","","-43.6","","64","","","","16","","17","","9.7","","101.10","","","","-53","","Ice Crystals,Fog"
"-93.58","69.55","TALOYOAK A","2403855","2018-02-22 02:00","2018","02","22","02:00","-39.6","","-44.1","","63","","","","16","","17","","6.4","","101.04","","","","-54","","Ice Crystals,Fog"
"-93.58","69.55","TALOYOAK A","2403855","2018-02-22 03:00","2018","02","22","03:00","-39.4","","-43.9","","63","","","","15","","18","","6.4","","100.96","","","","-54","","Ice Crystals,Fog"
"-93.58","69.55","TALOYOAK A","2403855","2018-02-22 04:00","2018","02","22","04:00","-39.3","","-43.8","","63","","","","15","","20","","9.7","","100.92","","","","-55","","Ice Crystals,Fog"
"-93.58","69.55","TALOYOAK A","2403855","2018-02-22 05:00","2018","02","22","05:00","-39.7","","-44.2","","63","","","","15","","19","","9.7","","100.87","","","","-55","","Ice Crystals,Fog"
"-93.58","69.55","TALOYOAK A","2403855","2018-02-22 06:00","2018","02","22","06:00","-39.5","","-44.1","","63","","","","16","","18","","9.7","","100.82","","","","-54","","Ice Crystals,Fog"
"-93.58","69.55","TALOYOAK A","2403855","2018-02-22 07:00","2018","02","22","07:00","-40.1","","-44.7","","63","","","","15","","17","","19.3","","100.78","","","","-55","","Ice Crystals"
"-93.58","69.55","TALOYOAK A","2403855","2018-02-22 08:00","2018","02","22","08:00","-39.6","","-44.2","","63","","","","16","","19","","19.3","","100.75","","","","-55","","Ice Crystals"
"-93.58","69.55","TALOYOAK A","2403855","2018-02-22 09:00","2018","02","22","09:00","-38.9","","-43.4","","63","","","","15","","20","","19.3","","100.70","","","","-54","","Ice Crystals"
"-93.58","69.55","TALOYOAK A","2403855","2018-02-22 10:00","2018","02","22","10:00","-37.6","","-42.1","","64","","","","15","","21","","16.1","","100.63","","","","-53","","Ice Crystals"
"-93.58","69.55","TALOYOAK A","2403855","2018-02-22 11:00","2018","02","22","11:00","-35.6","","-40.0","","65","","","","19","","17","","1.6","","100.59","","","","-49","","Ice Crystals,Fog"
"-93.58","69.55","TALOYOAK A","2403855","2018-02-22 12:00","2018","02","22","12:00","-35.6","","-40.0","","65","","","","15","","14","","1.6","","100.59","","","","-48","","Ice Crystals,Fog"
"-93.58","69.55","TALOYOAK A","2403855","2018-02-22 13:00","2018","02","22","13:00","-35.0","","-39.4","","66","","","","17","","8","","4.8","","100.56","","","","-44","","Ice Crystals,Fog"
"-93.58","69.55","TALOYOAK A","2403855","2018-02-22 14:00","2018","02","22","14:00","-34.1","","-38.4","","66","","","","25","","13","","4.8","","100.53","","","","-46","","Ice Crystals,Fog"
"-93.58","69.55","TALOYOAK A","2403855","2018-02-22 15:00","2018","02","22","15:00","-36.7","","-41.0","","65","","","","21","","23","","1.6","","100.53","","","","-52","","Ice Crystals,Fog"
"-93.58","69.55","TALOYOAK A","2403855","2018-02-22 16:00","2018","02","22","16:00","-36.7","","-41.0","","65","","","","22","","21","","2.0","","100.46","","","","-52","","Ice Crystals,Fog"
"-93.58","69.55","TALOYOAK A","2403855","2018-02-22 17:00","2018","02","22","17:00","-36.7","","-41.1","","65","","","","21","","23","","2.0","","100.40","","","","-52","","Ice Crystals,Fog"
"-93.58","69.55","TALOYOAK A","2403855","2018-02-22 18:00","2018","02","22","18:00","-36.2","","-40.6","","65","","","","21","","25","","2.0","","100.36","","","","-52","","Ice Crystals,Fog"
"-93.58","69.55","TALOYOAK A","2403855","2018-02-22 19:00","2018","02","22","19:00","-36.3","","-40.7","","65","","","","20","","22","","2.0","","100.30","","","","-52","","Ice Crystals,Fog"
"-93.58","69.55","TALOYOAK A","2403855","2018-02-22 20:00","2018","02","22","20:00","-36.8","","-41.2","","65","","","","21","","25","","2.0","","100.25","","","","-53","","Ice Crystals,Fog"
"-93.58","69.55","TALOYOAK A","2403855","2018-02-22 21:00","2018","02","22","21:00","-37.3","","-41.7","","65","","","","21","","28","","2.0","","100.23","","","","-55","","Ice Crystals,Fog,Blowing Snow"
"-93.58","69.55","TALOYOAK A","2403855","2018-02-22 22:00","2018","02","22","22:00","-37.3","","-41.7","","65","","","","22","","39","","1.6","","100.16","","","","-57","","Ice Crystals,Blowing Snow"
"-93.58","69.55","TALOYOAK A","2403855","2018-02-22 23:00","2018","02","22","23:00","-37.7","","-42.1","","64","","","","21","","30","","2.0","","100.10","","","","-56","","Ice Crystals,Blowing Snow"
"-93.58","69.55","TALOYOAK A","2403855","2018-02-23 00:00","2018","02","23","00:00","-37.8","","-42.2","","64","","","","20","","25","","2.0","","100.09","","","","-54","","Ice Crystals,Blowing Snow"
"-93.58","69.55","TALOYOAK A","2403855","2018-02-23 01:00","2018","02","23","01:00","-37.6","","-42.0","","64","","","","19","","30","","2.0","","100.02","","","","-56","","Ice Crystals,Blowing Snow"
"-93.58","69.55","TALOYOAK A","2403855","2018-02-23 02:00","2018","02","23","02:00","-37.8","","-42.2","","64","","","","20","","27","","6.4","","99.94","","","","-55","","Snow,Fog,Blowing Snow"
"-93.58","69.55","TALOYOAK A","2403855","2018-02-23 03:00","2018","02","23","03:00","-38.1","","-42.6","","64","","","","19","","27","","6.4","","99.88","","","","-55","","Snow,Fog,Blowing Snow"
"-93.58","69.55","TALOYOAK A","2403855","2018-02-23 04:00","2018","02","23","04:00","-38.1","","-42.6","","64","","","","18","","33","","6.4","","99.82","","","","-57","","Snow,Fog,Blowing Snow"
"-93.58","69.55","TALOYOAK A","2403855","2018-02-23 05:00","2018","02","23","05:00","-37.8","","-42.3","","64","","","","17","","29","","9.7","","99.73","","","","-56","","Snow,Fog,Blowing Snow"
"-93.58","69.55","TALOYOAK A","2403855","2018-02-23 06:00","2018","02","23","06:00","-37.1","","-41.5","","65","","","","18","","31","","9.7","","99.63","","","","-55","","Snow,Fog,Blowing Snow"
"-93.58","69.55","TALOYOAK A","2403855","2018-02-23 07:00","2018","02","23","07:00","-37.3","","-41.7","","65","","","","20","","23","","8.1","","99.59","","","","-53","","Snow,Fog,Blowing Snow"
"-93.58","69.55","TALOYOAK A","2403855","2018-02-23 08:00","2018","02","23","08:00","-36.9","","-41.3","","65","","","","17","","22","","6.4","","99.50","","","","-52","","Snow,Fog,Blowing Snow"
"-93.58","69.55","TALOYOAK A","2403855","2018-02-23 09:00","2018","02","23","09:00","-35.9","","-40.3","","65","","","","18","","26","","6.4","","99.39","","","","-52","","Ice Crystals"
"-93.58","69.55","TALOYOAK A","2403855","2018-02-23 10:00","2018","02","23","10:00","-35.1","","-39.5","","65","","","","18","","23","","4.8","","99.35","","","","-50","","Ice Crystals,Fog"
"-93.58","69.55","TALOYOAK A","2403855","2018-02-23 11:00","2018","02","23","11:00","-34.8","","-39.2","","66","","","","18","","20","","4.8","","99.29","","","","-49","","Ice Crystals,Fog"
"-93.58","69.55","TALOYOAK A","2403855","2018-02-23 12:00","2018","02","23","12:00","-33.7","","-38.0","","66","","","","20","","23","","4.8","","99.23","","","","-49","","Ice Crystals,Fog"
"-93.58","69.55","TALOYOAK A","2403855","2018-02-23 13:00","2018","02","23","13:00","-33.3","","-37.5","","66","","","","21","","18","","4.8","","99.22","","","","-47","","Ice Crystals,Fog"
"-93.58","69.55","TALOYOAK A","2403855","2018-02-23 14:00","2018","02","23","14:00","-33.2","","-37.5","","66","","","","20","","14","","6.4","","99.20","","","","-45","","Ice Crystals,Fog"
"-93.58","69.55","TALOYOAK A","2403855","2018-02-23 15:00","2018","02","23","15:00","-33.9","","-38.2","","66","","","","17","","7","","24.1","","99.19","","","","-42","","Ice Crystals"
"-93.58","69.55","TALOYOAK A","2403855","2018-02-23 16:00","2018","02","23","16:00","-34.6","","-38.8","","66","","","","11","","5","","24.1","","99.14","","","","-41","","Ice Crystals"
"-93.58","69.55","TALOYOAK A","2403855","2018-02-23 17:00","2018","02","23","17:00","-35.0","","-39.3","","66","","","","9","","4","","24.1","","99.08","","","","-40","","Ice Crystals"
"-93.58","69.55","TALOYOAK A","2403855","2018-02-23 18:00","2018","02","23","18:00","-35.8","","-40.1","","66","","","","3","","4","","16.1","","99.07","","","","-41","","Ice Crystals"
"-93.58","69.55","TALOYOAK A","2403855","2018-02-23 19:00","2018","02","23","19:00","-34.7","","-39.0","","66","","","","7","","11","","16.1","","99.03","","","","-45","","Ice Crystals"
"-93.58","69.55","TALOYOAK A","2403855","2018-02-23 20:00","2018","02","23","20:00","-34.6","","-38.9","","66","","","","7","","15","","16.1","","99.02","","","","-47","","Ice Crystals"
"-93.58","69.55","TALOYOAK A","2403855","2018-02-23 21:00","2018","02","23","21:00","-34.1","","-38.3","","67","","","","8","","7","","19.3","","98.94","","","","-42","","Ice Crystals"
"-93.58","69.55","TALOYOAK A","2403855","2018-02-23 22:00","2018","02","23","22:00","-34.0","","-38.2","","67","","","","7","","16","","19.3","","98.89","","","","-47","","Ice Crystals"
"-93.58","69.55","TALOYOAK A","2403855","2018-02-23 23:00","2018","02","23","23:00","-34.0","","-38.2","","67","","","","7","","14","","19.3","","98.85","","","","-46","","Ice Crystals"
"-93.58","69.55","TALOYOAK A","2403855","2018-02-24 00:00","2018","02","24","00:00","-34.5","","-38.7","","66","","","","2","","8","","19.3","","98.83","","","","-43","","Ice Crystals"
"-93.58","69.55","TALOYOAK A","2403855","2018-02-24 01:00","2018","02","24","01:00","-35.9","","-40.2","","66","","","","2","","9","","24.1","","98.81","","","","-46","","Ice Crystals"
"-93.58","69.55","TALOYOAK A","2403855","2018-02-24 02:00","2018","02","24","02:00","-34.0","","-38.1","","67","","","","7","","16","","24.1","","98.77","","","","-47","","Ice Crystals"
"-93.58","69.55","TALOYOAK A","2403855","2018-02-24 03:00","2018","02","24","03:00","-34.6","","-38.8","","67","","","","7","","16","","24.1","","98.73","","","","-47","","Ice Crystals"
"-93.58","69.55","TALOYOAK A","2403855","2018-02-24 04:00","2018","02","24","04:00","-33.8","","-37.9","","67","","","","7","","14","","19.3","","98.68","","","","-46","","Ice Crystals"
"-93.58","69.55","TALOYOAK A","2403855","2018-02-24 05:00","2018","02","24","05:00","-33.8","","-38.0","","67","","","","6","","17","","19.3","","98.64","","","","-47","","Ice Crystals"
"-93.58","69.55","TALOYOAK A","2403855","2018-02-24 06:00","2018","02","24","06:00","-33.7","","-37.8","","67","","","","7","","18","","19.3","","98.61","","","","-47","","Snow"
"-93.58","69.55","TALOYOAK A","2403855","2018-02-24 07:00","2018","02","24","07:00","-33.6","","-37.8","","67","","","","7","","18","","19.3","","98.60","","","","-47","","Snow"
"-93.58","69.55","TALOYOAK A","2403855","2018-02-24 08:00","2018","02","24","08:00","-33.1","","-37.3","","67","","","","7","","15","","24.1","","98.56","","","","-45","","Snow"
"-93.58","69.55","TALOYOAK A","2403855","2018-02-24 09:00","2018","02","24","09:00","-33.0","","-37.1","","67","","","","7","","15","","24.1","","98.46","","","","-45","","Ice Crystals"
"-93.58","69.55","TALOYOAK A","2403855","2018-02-24 10:00","2018","02","24","10:00","-32.0","","-36.2","","68","","","","8","","7","","24.1","","98.48","","","","-40","","Ice Crystals"
"-93.58","69.55","TALOYOAK A","2403855","2018-02-24 11:00","2018","02","24","11:00","-31.4","","-35.5","","68","","","","6","","14","","24.1","","98.43","","","","-43","","Ice Crystals"
"-93.58","69.55","TALOYOAK A","2403855","2018-02-24 12:00","2018","02","24","12:00","-30.9","","-35.0","","68","","","","7","","10","","24.1","","98.40","","","","-40","","Ice Crystals"
"-93.58","69.55","TALOYOAK A","2403855","2018-02-24 13:00","2018","02","24","13:00","-30.8","","-34.9","","68","","","","7","","16","","24.1","","98.40","","","","-43","","Ice Crystals"
"-93.58","69.55","TALOYOAK A","2403855","2018-02-24 14:00","2018","02","24","14:00","-30.6","","-34.7","","69","","","","9","","13","","24.1","","98.44","","","","-41","","Ice Crystals"
"-93.58","69.55","TALOYOAK A","2403855","2018-02-24 15:00","2018","02","24","15:00","-29.9","","-33.9","","69","","","","10","","9","","20.9","","98.41","","","","-38","","Snow"
"-93.58","69.55","TALOYOAK A","2403855","2018-02-24 16:00","2018","02","24","16:00","-30.1","","-34.0","","70","","","","16","","7","","24.1","","98.41","","","","-37","","Snow"
"-93.58","69.55","TALOYOAK A","2403855","2018-02-24 17:00","2018","02","24","17:00","-30.0","","-33.9","","70","","","","20","","10","","24.1","","98.43","","","","-39","","Snow"
"-93.58","69.55","TALOYOAK A","2403855","2018-02-24 18:00","2018","02","24","18:00","-29.0","","-32.8","","70","","","","16","","19","","24.1","","98.40","","","","-42","","Snow"
"-93.58","69.55","TALOYOAK A","2403855","2018-02-24 19:00","2018","02","24","19:00","-30.4","","-34.2","","70","","","","18","","19","","24.1","","98.44","","","","-43","","Snow"
"-93.58","69.55","TALOYOAK A","2403855","2018-02-24 20:00","2018","02","24","20:00","-31.4","","-35.3","","69","","","","17","","13","","24.1","","98.47","","","","-42","","Snow"
"-93.58","69.55","TALOYOAK A","2403855","2018-02-24 21:00","2018","02","24","21:00","-31.5","","-35.5","","69","","","","18","","16","","24.1","","98.51","","","","-44","","Snow"
"-93.58","69.55","TALOYOAK A","2403855","2018-02-24 22:00","2018","02","24","22:00","-30.8","","-34.7","","69","","","","17","","18","","24.1","","98.54","","","","-43","","Snow"
"-93.58","69.55","TALOYOAK A","2403855","2018-02-24 23:00","2018","02","24","23:00","-30.1","","-34.0","","70","","","","16","","14","","16.1","","98.60","","","","-41","","Snow"
"-93.58","69.55","TALOYOAK A","2403855","2018-02-25 00:00","2018","02","25","00:00","-30.1","","-34.0","","70","","","","17","","10","","24.1","","98.65","","","","-39","","Snow"
"-93.58","69.55","TALOYOAK A","2403855","2018-02-25 01:00","2018","02","25","01:00","-30.6","","-34.5","","69","","","","18","","14","","16.1","","98.69","","","","-42","","Snow"
"-93.58","69.55","TALOYOAK A","2403855","2018-02-25 02:00","2018","02","25","02:00","-31.6","","-35.6","","69","","","","17","","13","","16.1","","98.74","","","","-43","","Snow"
"-93.58","69.55","TALOYOAK A","2403855","2018-02-25 03:00","2018","02","25","03:00","-31.9","","-35.9","","69","","","","16","","17","","16.1","","98.80","","","","-44","","Snow"
"-93.58","69.55","TALOYOAK A","2403855","2018-02-25 04:00","2018","02","25","04:00","-32.1","","-36.1","","68","","","","17","","22","","16.1","","98.81","","","","-46","","Snow"
"-93.58","69.55","TALOYOAK A","2403855","2018-02-25 05:00","2018","02","25","05:00","-32.4","","-36.5","","68","","","","16","","21","","16.1","","98.86","","","","-46","","Snow"
"-93.58","69.55","TALOYOAK A","2403855","2018-02-25 06:00","2018","02","25","06:00","-33.1","","-37.2","","68","","","","16","","23","","24.1","","98.88","","","","-48","","Snow"
"-93.58","69.55","TALOYOAK A","2403855","2018-02-25 07:00","2018","02","25","07:00","-33.4","","-37.5","","68","","","","16","","22","","12.9","","98.93","","","","-48","","Snow,Blowing Snow"
"-93.58","69.55","TALOYOAK A","2403855","2018-02-25 08:00","2018","02","25","08:00","-34.0","","-38.1","","67","","","","16","","20","","16.1","","98.95","","","","-48","","Ice Crystals,Blowing Snow"
"-93.58","69.55","TALOYOAK A","2403855","2018-02-25 09:00","2018","02","25","09:00","-33.0","","-37.1","","68","","","","16","","21","","16.1","","98.98","","","","-47","","Ice Crystals"
"-93.58","69.55","TALOYOAK A","2403855","2018-02-25 10:00","2018","02","25","10:00","-33.2","","-37.3","","67","","","","17","","14","","16.1","","99.02","","","","-45","","Ice Crystals"
"-93.58","69.55","TALOYOAK A","2403855","2018-02-25 11:00","2018","02","25","11:00","-31.2","","-35.2","","69","","","","16","","19","","16.1","","99.04","","","","-44","","Ice Crystals"
"-93.58","69.55","TALOYOAK A","2403855","2018-02-25 12:00","2018","02","25","12:00","-30.6","","-34.6","","69","","","","15","","18","","16.1","","99.05","","","","-43","","Ice Crystals"
"-93.58","69.55","TALOYOAK A","2403855","2018-02-25 13:00","2018","02","25","13:00","-29.9","","-33.8","","69","","","","16","","19","","16.1","","99.07","","","","-43","","Ice Crystals"
"-93.58","69.55","TALOYOAK A","2403855","2018-02-25 14:00","2018","02","25","14:00","-30.1","","-34.1","","69","","","","16","","21","","16.1","","99.11","","","","-44","","Ice Crystals"
"-93.58","69.55","TALOYOAK A","2403855","2018-02-25 15:00","2018","02","25","15:00","-30.2","","-34.2","","69","","","","15","","19","","16.1","","99.17","","","","-43","","Ice Crystals"
"-93.58","69.55","TALOYOAK A","2403855","2018-02-25 16:00","2018","02","25","16:00","-30.8","","-34.7","","69","","","","16","","15","","16.1","","99.21","","","","-42","","Ice Crystals"
"-93.58","69.55","TALOYOAK A","2403855","2018-02-25 17:00","2018","02","25","17:00","-30.7","","-34.6","","69","","","","16","","18","","24.1","","99.24","","","","-43","","Ice Crystals"
"-93.58","69.55","TALOYOAK A","2403855","2018-02-25 18:00","2018","02","25","18:00","-30.9","","-34.8","","69","","","","16","","19","","24.1","","99.26","","","","-44","","Ice Crystals"
"-93.58","69.55","TALOYOAK A","2403855","2018-02-25 19:00","2018","02","25","19:00","-30.8","","-34.8","","69","","","","15","","18","","24.1","","99.31","","","","-43","","Ice Crystals"
"-93.58","69.55","TALOYOAK A","2403855","2018-02-25 20:00","2018","02","25","20:00","-30.8","","-34.7","","69","","","","16","","16","","24.1","","99.31","","","","-43","","Ice Crystals"
"-93.58","69.55","TALOYOAK A","2403855","2018-02-25 21:00","2018","02","25","21:00","-32.1","","-36.1","","69","","","","18","","6","","24.1","","99.35","","","","-39","","Ice Crystals"
"-93.58","69.55","TALOYOAK A","2403855","2018-02-25 22:00","2018","02","25","22:00","-30.6","","-34.4","","70","","","","13","","6","","24.1","","99.41","","","","-37","","Ice Crystals"
"-93.58","69.55","TALOYOAK A","2403855","2018-02-25 23:00","2018","02","25","23:00","-33.5","","-37.6","","68","","","","11","","8","","24.1","","99.41","","","","-42","","Ice Crystals"
"-93.58","69.55","TALOYOAK A","2403855","2018-02-26 00:00","2018","02","26","00:00","-31.8","","-35.8","","69","","","","12","","8","","24.1","","99.45","","","","-40","","Ice Crystals"
"-93.58","69.55","TALOYOAK A","2403855","2018-02-26 01:00","2018","02","26","01:00","-32.0","","-36.0","","69","","","","11","","10","","24.1","","99.50","","","","-42","","Ice Crystals"
"-93.58","69.55","TALOYOAK A","2403855","2018-02-26 02:00","2018","02","26","02:00","-32.1","","-36.1","","69","","","","36","","3","","24.1","","99.54","","","","-36","","Ice Crystals"
"-93.58","69.55","TALOYOAK A","2403855","2018-02-26 03:00","2018","02","26","03:00","-31.9","","-35.9","","69","","","","15","","7","","24.1","","99.58","","","","-39","","Ice Crystals"
"-93.58","69.55","TALOYOAK A","2403855","2018-02-26 04:00","2018","02","26","04:00","-34.3","","-38.4","","67","","","","14","","3","","24.1","","99.60","","","","-38","","Ice Crystals"
"-93.58","69.55","TALOYOAK A","2403855","2018-02-26 05:00","2018","02","26","05:00","-32.9","","-36.9","","68","","","","18","","7","","24.1","","99.64","","","","-41","","Snow"
"-93.58","69.55","TALOYOAK A","2403855","2018-02-26 06:00","2018","02","26","06:00","-32.8","","-36.8","","68","","","","18","","8","","24.1","","99.69","","","","-41","","Snow"
"-93.58","69.55","TALOYOAK A","2403855","2018-02-26 07:00","2018","02","26","07:00","-33.1","","-37.1","","68","","","","15","","10","","16.1","","99.72","","","","-43","","Snow"
"-93.58","69.55","TALOYOAK A","2403855","2018-02-26 08:00","2018","02","26","08:00","-33.2","","-37.3","","68","","","","15","","12","","16.1","","99.76","","","","-44","","Snow"
"-93.58","69.55","TALOYOAK A","2403855","2018-02-26 09:00","2018","02","26","09:00","-32.8","","-36.8","","68","","","","16","","15","","24.1","","99.79","","","","-45","","Ice Crystals"
"-93.58","69.55","TALOYOAK A","2403855","2018-02-26 10:00","2018","02","26","10:00","-31.2","","-35.2","","69","","","","16","","17","","24.1","","99.83","","","","-44","","Ice Crystals"
"-93.58","69.55","TALOYOAK A","2403855","2018-02-26 11:00","2018","02","26","11:00","-31.6","","-35.7","","68","","","","22","","9","","16.1","","99.85","","","","-40","","Ice Crystals"
"-93.58","69.55","TALOYOAK A","2403855","2018-02-26 12:00","2018","02","26","12:00","-32.8","","-36.9","","68","","","","","","0","","24.1","","99.87","","","","","","Ice Crystals"
"-93.58","69.55","TALOYOAK A","2403855","2018-02-26 13:00","2018","02","26","13:00","-30.9","","-34.9","","69","","","","14","","4","","24.1","","99.91","","","","-35","","Ice Crystals"
"-93.58","69.55","TALOYOAK A","2403855","2018-02-26 14:00","2018","02","26","14:00","-28.3","","-32.1","","71","","","","18","","13","","16.1","","99.94","","","","-39","","Ice Crystals"
"-93.58","69.55","TALOYOAK A","2403855","2018-02-26 15:00","2018","02","26","15:00","-27.9","","-31.7","","71","","","","19","","7","","4.0","","99.95","","","","-35","","Snow Grains"
"-93.58","69.55","TALOYOAK A","2403855","2018-02-26 16:00","2018","02","26","16:00","-26.8","","-30.5","","72","","","","14","","18","","6.4","","100.00","","","","-38","","Snow Grains"
"-93.58","69.55","TALOYOAK A","2403855","2018-02-26 17:00","2018","02","26","17:00","-28.2","","-32.0","","71","","","","11","","10","","16.1","","100.01","","","","-37","","Snow Grains"
"-93.58","69.55","TALOYOAK A","2403855","2018-02-26 18:00","2018","02","26","18:00","-27.3","","-31.0","","72","","","","15","","19","","16.1","","100.03","","","","-39","","Snow"
"-93.58","69.55","TALOYOAK A","2403855","2018-02-26 19:00","2018","02","26","19:00","-27.8","","-31.4","","72","","","","15","","19","","16.1","","100.06","","","","-40","","Snow"
"-93.58","69.55","TALOYOAK A","2403855","2018-02-26 20:00","2018","02","26","20:00","-28.8","","-32.6","","71","","","","16","","16","","16.1","","100.08","","","","-40","","Ice Crystals"
"-93.58","69.55","TALOYOAK A","2403855","2018-02-26 21:00","2018","02","26","21:00","-28.7","","-32.4","","71","","","","16","","18","","16.1","","100.16","","","","-41","","Ice Crystals"
"-93.58","69.55","TALOYOAK A","2403855","2018-02-26 22:00","2018","02","26","22:00","-29.4","","-33.2","","70","","","","15","","15","","16.1","","100.18","","","","-41","","Ice Crystals"
"-93.58","69.55","TALOYOAK A","2403855","2018-02-26 23:00","2018","02","26","23:00","-29.4","","-33.2","","70","","","","16","","18","","16.1","","100.23","","","","-42","","Ice Crystals"
"-93.58","69.55","TALOYOAK A","2403855","2018-02-27 00:00","2018","02","27","00:00","-29.9","","-33.7","","70","","","","16","","17","","16.1","","100.27","","","","-42","","Ice Crystals"
"-93.58","69.55","TALOYOAK A","2403855","2018-02-27 01:00","2018","02","27","01:00","-29.9","","-33.7","","70","","","","15","","20","","16.1","","100.31","","","","-43","","Ice Crystals"
"-93.58","69.55","TALOYOAK A","2403855","2018-02-27 02:00","2018","02","27","02:00","-29.6","","-33.4","","70","","","","16","","20","","24.1","","100.36","","","","-43","","Ice Crystals"
"-93.58","69.55","TALOYOAK A","2403855","2018-02-27 03:00","2018","02","27","03:00","-29.5","","-33.3","","70","","","","15","","21","","24.1","","100.44","","","","-43","","Ice Crystals"
"-93.58","69.55","TALOYOAK A","2403855","2018-02-27 04:00","2018","02","27","04:00","-29.6","","-33.4","","70","","","","15","","20","","24.1","","100.49","","","","-43","","Ice Crystals"
"-93.58","69.55","TALOYOAK A","2403855","2018-02-27 05:00","2018","02","27","05:00","-28.7","","-32.4","","71","","","","15","","19","","24.1","","100.54","","","","-41","","Ice Crystals"
"-93.58","69.55","TALOYOAK A","2403855","2018-02-27 06:00","2018","02","27","06:00","-27.6","","-31.2","","72","","","","15","","16","","24.1","","100.59","","","","-39","","Ice Crystals"
"-93.58","69.55","TALOYOAK A","2403855","2018-02-27 07:00","2018","02","27","07:00","-26.4","","-29.9","","72","","","","15","","18","","24.1","","100.65","","","","-38","","NA"
"-93.58","69.55","TALOYOAK A","2403855","2018-02-27 08:00","2018","02","27","08:00","-25.5","","-29.0","","73","","","","15","","14","","24.1","","100.71","","","","-35","","Mostly Cloudy"
"-93.58","69.55","TALOYOAK A","2403855","2018-02-27 09:00","2018","02","27","09:00","-25.1","","-28.6","","73","","","","15","","17","","24.1","","100.77","","","","-36","","NA"
"-93.58","69.55","TALOYOAK A","2403855","2018-02-27 10:00","2018","02","27","10:00","-24.8","","-28.3","","73","","","","13","","11","","24.1","","100.83","","","","-33","","NA"
"-93.58","69.55","TALOYOAK A","2403855","2018-02-27 11:00","2018","02","27","11:00","-24.8","","-28.4","","73","","","","14","","13","","24.1","","100.87","","","","-34","","Mostly Cloudy"
"-93.58","69.55","TALOYOAK A","2403855","2018-02-27 12:00","2018","02","27","12:00","-23.3","","-26.8","","73","","","","15","","19","","24.1","","100.91","","","","-34","","NA"
"-93.58","69.55","TALOYOAK A","2403855","2018-02-27 13:00","2018","02","27","13:00","-23.6","","-27.4","","71","","","","15","","18","","24.1","","100.97","","","","-34","","NA"
"-93.58","69.55","TALOYOAK A","2403855","2018-02-27 14:00","2018","02","27","14:00","-23.6","","-27.6","","70","","","","15","","14","","24.1","","101.06","","","","-33","","Snow"
"-93.58","69.55","TALOYOAK A","2403855","2018-02-27 15:00","2018","02","27","15:00","-24.3","","-28.0","","72","","","","11","","9","","24.1","","101.11","","","","-32","","Snow"
"-93.58","69.55","TALOYOAK A","2403855","2018-02-27 16:00","2018","02","27","16:00","-27.0","","-30.6","","72","","","","7","","24","","24.1","","101.16","","","","-40","","Snow"
"-93.58","69.55","TALOYOAK A","2403855","2018-02-27 17:00","2018","02","27","17:00","-27.6","","-31.2","","72","","","","7","","23","","24.1","","101.17","","","","-41","","Snow"
"-93.58","69.55","TALOYOAK A","2403855","2018-02-27 18:00","2018","02","27","18:00","-27.5","","-31.2","","71","","","","6","","21","","24.1","","101.20","","","","-40","","Snow"
"-93.58","69.55","TALOYOAK A","2403855","2018-02-27 19:00","2018","02","27","19:00","-29.0","","-32.8","","71","","","","6","","22","","24.1","","101.24","","","","-42","","Snow"
"-93.58","69.55","TALOYOAK A","2403855","2018-02-27 20:00","2018","02","27","20:00","-28.8","","-32.6","","70","","","","5","","23","","24.1","","101.26","","","","-42","","Snow"
"-93.58","69.55","TALOYOAK A","2403855","2018-02-27 21:00","2018","02","27","21:00","-29.1","","-32.9","","70","","","","5","","18","","24.1","","101.31","","","","-41","","Ice Crystals"
"-93.58","69.55","TALOYOAK A","2403855","2018-02-27 22:00","2018","02","27","22:00","-28.5","","-32.2","","71","","","","8","","20","","24.1","","101.30","","","","-41","","Ice Crystals"
"-93.58","69.55","TALOYOAK A","2403855","2018-02-27 23:00","2018","02","27","23:00","-28.1","","-31.8","","71","","","","7","","20","","24.1","","101.32","","","","-41","","Ice Crystals"
"-93.58","69.55","TALOYOAK A","2403855","2018-02-28 00:00","2018","02","28","00:00","-27.1","","-30.7","","72","","","","6","","18","","24.1","","101.34","","","","-39","","Ice Crystals"
"-93.58","69.55","TALOYOAK A","2403855","2018-02-28 01:00","2018","02","28","01:00","-26.3","","-30.0","","71","","","","4","","17","","24.1","","101.37","","","","-38","","Ice Crystals"
"-93.58","69.55","TALOYOAK A","2403855","2018-02-28 02:00","2018","02","28","02:00","-24.3","","-28.0","","72","","","","7","","16","","24.1","","101.43","","","","-35","","Ice Crystals"
"-93.58","69.55","TALOYOAK A","2403855","2018-02-28 03:00","2018","02","28","03:00","-23.7","","-27.4","","72","","","","7","","18","","16.1","","101.45","","","","-35","","Snow"
"-93.58","69.55","TALOYOAK A","2403855","2018-02-28 04:00","2018","02","28","04:00","-23.9","","-27.5","","72","","","","6","","19","","16.1","","101.47","","","","-35","","Snow"
"-93.58","69.55","TALOYOAK A","2403855","2018-02-28 05:00","2018","02","28","05:00","-23.7","","-27.2","","74","","","","7","","15","","16.1","","101.51","","","","-34","","Snow"
"-93.58","69.55","TALOYOAK A","2403855","2018-02-28 06:00","2018","02","28","06:00","-24.4","","-27.9","","73","","","","7","","12","","24.1","","101.57","","","","-33","","Ice Crystals"
"-93.58","69.55","TALOYOAK A","2403855","2018-02-28 07:00","2018","02","28","07:00","-23.9","","-27.4","","74","","","","7","","23","","24.1","","101.60","","","","-36","","Ice Crystals"
"-93.58","69.55","TALOYOAK A","2403855","2018-02-28 08:00","2018","02","28","08:00","-21.6","","-25.2","","73","","","","10","","20","","24.1","","101.65","","","","-32","","Ice Crystals"
"-93.58","69.55","TALOYOAK A","2403855","2018-02-28 09:00","2018","02","28","09:00","-21.2","","-25.0","","72","","","","7","","10","","8.1","","101.72","","","","-29","","Snow"
"-93.58","69.55","TALOYOAK A","2403855","2018-02-28 10:00","2018","02","28","10:00","-20.8","","-24.1","","75","","","","8","","14","","4.8","","101.74","","","","-30","","Snow"
"-93.58","69.55","TALOYOAK A","2403855","2018-02-28 11:00","2018","02","28","11:00","-20.3","","-23.8","","74","","","","6","","12","","16.1","","101.77","","","","-28","","Snow"
"-93.58","69.55","TALOYOAK A","2403855","2018-02-28 12:00","2018","02","28","12:00","-22.2","","-26.0","","72","","","","4","","16","","24.1","","101.80","","","","-32","","Snow"
"-93.58","69.55","TALOYOAK A","2403855","2018-02-28 13:00","2018","02","28","13:00","-21.6","","-25.3","","73","","","","6","","18","","24.1","","101.85","","","","-32","","Snow"
"-93.58","69.55","TALOYOAK A","2403855","2018-02-28 14:00","2018","02","28","14:00","-22.0","","-25.8","","72","","","","5","","16","","24.1","","101.88","","","","-32","","Snow"
"-93.58","69.55","TALOYOAK A","2403855","2018-02-28 15:00","2018","02","28","15:00","-21.2","","-25.1","","71","","","","6","","24","","24.1","","101.90","","","","-33","","Snow"
"-93.58","69.55","TALOYOAK A","2403855","2018-02-28 16:00","2018","02","28","16:00","-21.4","","-25.3","","71","","","","7","","24","","24.1","","101.93","","","","-33","","Snow"
"-93.58","69.55","TALOYOAK A","2403855","2018-02-28 17:00","2018","02","28","17:00","-21.0","","-24.7","","72","","","","8","","25","","24.1","","101.96","","","","-33","","Snow,Blowing Snow"
"-93.58","69.55","TALOYOAK A","2403855","2018-02-28 18:00","2018","02","28","18:00","-20.4","","-24.1","","73","","","","8","","26","","16.1","","101.97","","","","-32","","Snow,Blowing Snow"
"-93.58","69.55","TALOYOAK A","2403855","2018-02-28 19:00","2018","02","28","19:00","-19.4","","-23.0","","73","","","","10","","23","","12.9","","101.99","","","","-30","","Snow,Blowing Snow"
"-93.58","69.55","TALOYOAK A","2403855","2018-02-28 20:00","2018","02","28","20:00","-18.4","","-21.6","","76","","","","11","","22","","6.4","","102.02","","","","-29","","Snow Showers,Blowing Snow"
"-93.58","69.55","TALOYOAK A","2403855","2018-02-28 21:00","2018","02","28","21:00","-17.1","","-20.1","","78","","","","12","","20","","6.4","","102.05","","","","-27","","Snow Showers,Blowing Snow"
"-93.58","69.55","TALOYOAK A","2403855","2018-02-28 22:00","2018","02","28","22:00","-16.5","","-19.7","","77","","","","13","","19","","9.7","","102.08","","","","-26","","Snow Showers,Blowing Snow"
"-93.58","69.55","TALOYOAK A","2403855","2018-02-28 23:00","2018","02","28","23:00","-15.1","","-18.2","","77","","","","15","","22","","6.4","","102.12","","","","-25","","Snow Showers,Blowing Snow"
