"Longitude (x)","Latitude (y)","Station Name","Climate ID","Date/Time (LST)","Year","Month","Day","Time (LST)","Temp (°C)","Temp Flag","Dew Point Temp (°C)","Dew Point Temp Flag","Rel Hum (%)","Rel Hum Flag","Precip. Amount (mm)","Precip. Amount Flag","Wind Dir (10s deg)","Wind Dir Flag","Wind Spd (km/h)","Wind Spd Flag","Visibility (km)","Visibility Flag","Stn Press (kPa)","Stn Press Flag","Hmdx","Hmdx Flag","Wind Chill","Wind Chill Flag","Weather"
"-129.98","55.93","STEWART A","1067741","2021-12-01 00:00","2021","12","01","00:00"
"-129.98","55.93","STEWART A","1067741","2021-12-01 01:00","2021","12","01","01:00"
"-129.98","55.93","STEWART A","1067741","2021-12-01 02:00","2021","12","01","02:00"
"-129.98","55.93","STEWART A","1067741","2021-12-01 03:00","2021","12","01","03:00"
"-129.98","55.93","STEWART A","1067741","2021-12-01 04:00","2021","12","01","04:00"
"-129.98","55.93","STEWART A","1067741","2021-12-01 05:00","2021","12","01","05:00"
"-129.98","55.93","STEWART A","1067741","2021-12-01 06:00","2021","12","01","06:00"
"-129.98","55.93","STEWART A","1067741","2021-12-01 07:00","2021","12","01","07:00","0.5","","0.4","","100","","","","36","","2","","12.9","","100.63","","","","","","Cloudy"
"-129.98","55.93","STEWART A","1067741","2021-12-01 08:00","2021","12","01","08:00","0.7","","0.6","","100","","","","4","","6","","12.9","","100.61","","","","","","NA"
"-129.98","55.93","STEWART A","1067741","2021-12-01 09:00","2021","12","01","09:00","1.0","","1.0","","100","","","","6","","5","","9.7","","100.50","","","","","","Fog"
"-129.98","55.93","STEWART A","1067741","2021-12-01 10:00","2021","12","01","10:00","0.6","","0.6","","100","","","","5","","6","","9.7","","100.45","","","","","","Rain,Fog"
"-129.98","55.93","STEWART A","1067741","2021-12-01 11:00","2021","12","01","11:00","0.9","","0.9","","100","","","","7","","3","","6.4","","100.44","","","","","","Rain,Fog"
"-129.98","55.93","STEWART A","1067741","2021-12-01 12:00","2021","12","01","12:00","1.0","","1.0","","100","","","","19","","4","","3.2","","100.34","","","","","","Rain,Fog"
"-129.98","55.93","STEWART A","1067741","2021-12-01 13:00","2021","12","01","13:00","1.0","","0.9","","100","","","","36","","1","","2.4","","100.22","","","","","","Rain,Fog"
"-129.98","55.93","STEWART A","1067741","2021-12-01 14:00","2021","12","01","14:00","1.0","","1.0","","100","","","","36","","2","","2.0","","100.15","","","","","","Rain,Fog"
"-129.98","55.93","STEWART A","1067741","2021-12-01 15:00","2021","12","01","15:00","0.5","","0.5","","100","","","","35","","8","","12.9","","100.18","","","","","","NA"
"-129.98","55.93","STEWART A","1067741","2021-12-01 16:00","2021","12","01","16:00","0.7","","0.7","","100","","","","36","","1","","16.1","","100.26","","","","","","Rain"
"-129.98","55.93","STEWART A","1067741","2021-12-01 17:00","2021","12","01","17:00","2.5","","2.0","","96","","","","19","","22","","16.1","","100.30","","","","","","Rain"
"-129.98","55.93","STEWART A","1067741","2021-12-01 18:00","2021","12","01","18:00"
"-129.98","55.93","STEWART A","1067741","2021-12-01 19:00","2021","12","01","19:00"
"-129.98","55.93","STEWART A","1067741","2021-12-01 20:00","2021","12","01","20:00"
"-129.98","55.93","STEWART A","1067741","2021-12-01 21:00","2021","12","01","21:00"
"-129.98","55.93","STEWART A","1067741","2021-12-01 22:00","2021","12","01","22:00"
"-129.98","55.93","STEWART A","1067741","2021-12-01 23:00","2021","12","01","23:00"
"-129.98","55.93","STEWART A","1067741","2021-12-02 00:00","2021","12","02","00:00"
"-129.98","55.93","STEWART A","1067741","2021-12-02 01:00","2021","12","02","01:00"
"-129.98","55.93","STEWART A","1067741","2021-12-02 02:00","2021","12","02","02:00"
"-129.98","55.93","STEWART A","1067741","2021-12-02 03:00","2021","12","02","03:00"
"-129.98","55.93","STEWART A","1067741","2021-12-02 04:00","2021","12","02","04:00"
"-129.98","55.93","STEWART A","1067741","2021-12-02 05:00","2021","12","02","05:00"
"-129.98","55.93","STEWART A","1067741","2021-12-02 06:00","2021","12","02","06:00"
"-129.98","55.93","STEWART A","1067741","2021-12-02 07:00","2021","12","02","07:00","-0.2","","-0.5","","98","","","","36","","2","","4.8","","101.53","","","","-1","","Snow"
"-129.98","55.93","STEWART A","1067741","2021-12-02 08:00","2021","12","02","08:00","-0.5","","-0.8","","98","","","","30","","3","","4.8","","101.57","","","","-1","","Snow"
"-129.98","55.93","STEWART A","1067741","2021-12-02 09:00","2021","12","02","09:00","-0.6","","-0.8","","98","","","","11","","4","","9.7","","101.59","","","","-2","","Snow"
"-129.98","55.93","STEWART A","1067741","2021-12-02 10:00","2021","12","02","10:00","0.4","","-1.1","","90","","","","17","","8","","9.7","","101.64","","","","","","Snow"
"-129.98","55.93","STEWART A","1067741","2021-12-02 11:00","2021","12","02","11:00","0.8","","-1.7","","83","","","","36","","1","","19.3","","101.69","","","","","","NA"
"-129.98","55.93","STEWART A","1067741","2021-12-02 12:00","2021","12","02","12:00","1.3","","-1.8","","80","","","","21","","4","","19.3","","101.75","","","","","","NA"
"-129.98","55.93","STEWART A","1067741","2021-12-02 13:00","2021","12","02","13:00","0.3","","-1.0","","91","","","","20","","11","","4.8","","101.83","","","","","","Snow"
"-129.98","55.93","STEWART A","1067741","2021-12-02 14:00","2021","12","02","14:00","-0.1","","-0.6","","97","","","","21","","9","","3.2","","101.88","","","","-3","","Snow"
"-129.98","55.93","STEWART A","1067741","2021-12-02 15:00","2021","12","02","15:00","0.2","","-0.6","","94","","","","21","","8","","19.3","","101.90","","","","","","NA"
"-129.98","55.93","STEWART A","1067741","2021-12-02 16:00","2021","12","02","16:00","0.6","","-1.1","","88","","","","20","","14","","19.3","","101.91","","","","","","Cloudy"
"-129.98","55.93","STEWART A","1067741","2021-12-02 17:00","2021","12","02","17:00","0.7","","-1.6","","85","","","","19","","12","","19.3","","101.93","","","","","","NA"
"-129.98","55.93","STEWART A","1067741","2021-12-02 18:00","2021","12","02","18:00"
"-129.98","55.93","STEWART A","1067741","2021-12-02 19:00","2021","12","02","19:00"
"-129.98","55.93","STEWART A","1067741","2021-12-02 20:00","2021","12","02","20:00"
"-129.98","55.93","STEWART A","1067741","2021-12-02 21:00","2021","12","02","21:00"
"-129.98","55.93","STEWART A","1067741","2021-12-02 22:00","2021","12","02","22:00"
"-129.98","55.93","STEWART A","1067741","2021-12-02 23:00","2021","12","02","23:00"
"-129.98","55.93","STEWART A","1067741","2021-12-03 00:00","2021","12","03","00:00"
"-129.98","55.93","STEWART A","1067741","2021-12-03 01:00","2021","12","03","01:00"
"-129.98","55.93","STEWART A","1067741","2021-12-03 02:00","2021","12","03","02:00"
"-129.98","55.93","STEWART A","1067741","2021-12-03 03:00","2021","12","03","03:00"
"-129.98","55.93","STEWART A","1067741","2021-12-03 04:00","2021","12","03","04:00"
"-129.98","55.93","STEWART A","1067741","2021-12-03 05:00","2021","12","03","05:00"
"-129.98","55.93","STEWART A","1067741","2021-12-03 06:00","2021","12","03","06:00"
"-129.98","55.93","STEWART A","1067741","2021-12-03 07:00","2021","12","03","07:00","0.6","","-0.9","","90","","","","21","","10","","9.7","","102.19","","","","","","Snow"
"-129.98","55.93","STEWART A","1067741","2021-12-03 08:00","2021","12","03","08:00","0.1","","-0.4","","96","","","","36","","1","","9.7","","102.20","","","","","","Snow"
"-129.98","55.93","STEWART A","1067741","2021-12-03 09:00","2021","12","03","09:00","-1.0","","-1.4","","97","","","","0","","1","","19.3","","102.21","","","","-1","","NA"
"-129.98","55.93","STEWART A","1067741","2021-12-03 10:00","2021","12","03","10:00","-1.2","","-1.3","","99","","","","36","","2","","19.3","","102.18","","","","-2","","Cloudy"
"-129.98","55.93","STEWART A","1067741","2021-12-03 11:00","2021","12","03","11:00","-0.5","","-0.7","","99","","","","36","","1","","4.8","","102.15","","","","-1","","Snow"
"-129.98","55.93","STEWART A","1067741","2021-12-03 12:00","2021","12","03","12:00","-0.6","","-0.7","","99","","","","0","","1","","2.4","","102.08","","","","-1","","Snow"
"-129.98","55.93","STEWART A","1067741","2021-12-03 13:00","2021","12","03","13:00","-0.3","","-0.4","","99","","","","4","","4","","0.8","","102.02","","","","-2","","Moderate Snow"
"-129.98","55.93","STEWART A","1067741","2021-12-03 14:00","2021","12","03","14:00","-0.4","","-0.7","","98","","","","36","","1","","2.4","","102.01","","","","-1","","Snow"
"-129.98","55.93","STEWART A","1067741","2021-12-03 15:00","2021","12","03","15:00","-0.5","","-0.8","","98","","","","0","","1","","2.4","","101.97","","","","-1","","Snow"
"-129.98","55.93","STEWART A","1067741","2021-12-03 16:00","2021","12","03","16:00","-0.6","","-0.8","","99","","","","10","","3","","4.8","","101.99","","","","-2","","Snow"
"-129.98","55.93","STEWART A","1067741","2021-12-03 17:00","2021","12","03","17:00","-0.6","","-0.8","","99","","","","4","","4","","12.9","","101.93","","","","-2","","NA"
"-129.98","55.93","STEWART A","1067741","2021-12-03 18:00","2021","12","03","18:00"
"-129.98","55.93","STEWART A","1067741","2021-12-03 19:00","2021","12","03","19:00"
"-129.98","55.93","STEWART A","1067741","2021-12-03 20:00","2021","12","03","20:00"
"-129.98","55.93","STEWART A","1067741","2021-12-03 21:00","2021","12","03","21:00"
"-129.98","55.93","STEWART A","1067741","2021-12-03 22:00","2021","12","03","22:00"
"-129.98","55.93","STEWART A","1067741","2021-12-03 23:00","2021","12","03","23:00"
"-129.98","55.93","STEWART A","1067741","2021-12-04 00:00","2021","12","04","00:00"
"-129.98","55.93","STEWART A","1067741","2021-12-04 01:00","2021","12","04","01:00"
"-129.98","55.93","STEWART A","1067741","2021-12-04 02:00","2021","12","04","02:00"
"-129.98","55.93","STEWART A","1067741","2021-12-04 03:00","2021","12","04","03:00"
"-129.98","55.93","STEWART A","1067741","2021-12-04 04:00","2021","12","04","04:00"
"-129.98","55.93","STEWART A","1067741","2021-12-04 05:00","2021","12","04","05:00"
"-129.98","55.93","STEWART A","1067741","2021-12-04 06:00","2021","12","04","06:00"
"-129.98","55.93","STEWART A","1067741","2021-12-04 07:00","2021","12","04","07:00","-2.3","","-2.5","","99","","","","36","","1","","4.8","","101.72","","","","-3","","Fog"
"-129.98","55.93","STEWART A","1067741","2021-12-04 08:00","2021","12","04","08:00","-1.8","","-2.3","","96","","","","35","","3","","4.8","","101.76","","","","-3","","Fog"
"-129.98","55.93","STEWART A","1067741","2021-12-04 09:00","2021","12","04","09:00","-2.3","","-3.9","","89","","","","24","","5","","12.9","","101.84","","","","-4","","NA"
"-129.98","55.93","STEWART A","1067741","2021-12-04 10:00","2021","12","04","10:00","-2.7","","-4.8","","85","","","","36","","3","","24.1","","101.93","","","","-4","","Mostly Cloudy"
"-129.98","55.93","STEWART A","1067741","2021-12-04 11:00","2021","12","04","11:00","-3.6","","-4.8","","91","","","","1","","4","","24.1","","102.03","","","","-5","","NA"
"-129.98","55.93","STEWART A","1067741","2021-12-04 12:00","2021","12","04","12:00","-4.9","","-5.3","","97","","","","36","","1","","24.1","","102.12","","","","-5","","NA"
"-129.98","55.93","STEWART A","1067741","2021-12-04 13:00","2021","12","04","13:00","-4.0","","-4.4","","97","","","","36","","1","","24.1","","102.18","","","","-4","","Mainly Clear"
"-129.98","55.93","STEWART A","1067741","2021-12-04 14:00","2021","12","04","14:00","-3.6","","-4.1","","96","","","","36","","1","","24.1","","102.28","","","","-4","","NA"
"-129.98","55.93","STEWART A","1067741","2021-12-04 15:00","2021","12","04","15:00","-3.5","","-5.9","","84","","","","21","","3","","24.1","","102.39","","","","-5","","NA"
"-129.98","55.93","STEWART A","1067741","2021-12-04 16:00","2021","12","04","16:00","-6.5","","-7.3","","94","","","","4","","3","","24.1","","102.51","","","","-8","","Mainly Clear"
"-129.98","55.93","STEWART A","1067741","2021-12-04 17:00","2021","12","04","17:00","-6.5","","-6.8","","97","","","","","","0","","24.1","","102.65","","","","","","NA"
"-129.98","55.93","STEWART A","1067741","2021-12-04 18:00","2021","12","04","18:00"
"-129.98","55.93","STEWART A","1067741","2021-12-04 19:00","2021","12","04","19:00"
"-129.98","55.93","STEWART A","1067741","2021-12-04 20:00","2021","12","04","20:00"
"-129.98","55.93","STEWART A","1067741","2021-12-04 21:00","2021","12","04","21:00"
"-129.98","55.93","STEWART A","1067741","2021-12-04 22:00","2021","12","04","22:00"
"-129.98","55.93","STEWART A","1067741","2021-12-04 23:00","2021","12","04","23:00"
"-129.98","55.93","STEWART A","1067741","2021-12-05 00:00","2021","12","05","00:00"
"-129.98","55.93","STEWART A","1067741","2021-12-05 01:00","2021","12","05","01:00"
"-129.98","55.93","STEWART A","1067741","2021-12-05 02:00","2021","12","05","02:00"
"-129.98","55.93","STEWART A","1067741","2021-12-05 03:00","2021","12","05","03:00"
"-129.98","55.93","STEWART A","1067741","2021-12-05 04:00","2021","12","05","04:00"
"-129.98","55.93","STEWART A","1067741","2021-12-05 05:00","2021","12","05","05:00"
"-129.98","55.93","STEWART A","1067741","2021-12-05 06:00","2021","12","05","06:00"
"-129.98","55.93","STEWART A","1067741","2021-12-05 07:00","2021","12","05","07:00","-8.0","","-10.9","","79","","","","36","","5","","24.1","","103.67","","","","-11","","Mainly Clear"
"-129.98","55.93","STEWART A","1067741","2021-12-05 08:00","2021","12","05","08:00","-9.5","","-11.8","","83","","","","36","","5","","24.1","","103.69","","","","-12","","NA"
"-129.98","55.93","STEWART A","1067741","2021-12-05 09:00","2021","12","05","09:00","-10.1","","-11.6","","88","","","","36","","5","","24.1","","103.73","","","","-13","","NA"
"-129.98","55.93","STEWART A","1067741","2021-12-05 10:00","2021","12","05","10:00","-8.7","","-9.7","","93","","","","36","","5","","24.1","","103.74","","","","-11","","Cloudy"
"-129.98","55.93","STEWART A","1067741","2021-12-05 11:00","2021","12","05","11:00","-7.7","","-8.5","","93","","","","0","","1","","24.1","","103.71","","","","-8","","NA"
"-129.98","55.93","STEWART A","1067741","2021-12-05 12:00","2021","12","05","12:00","-6.7","","-7.8","","92","","","","36","","2","","24.1","","103.64","","","","-8","","NA"
"-129.98","55.93","STEWART A","1067741","2021-12-05 13:00","2021","12","05","13:00","-6.3","","-7.5","","91","","","","36","","2","","24.1","","103.58","","","","-7","","Cloudy"
"-129.98","55.93","STEWART A","1067741","2021-12-05 14:00","2021","12","05","14:00","-6.1","","-7.5","","90","","","","36","","3","","24.1","","103.44","","","","-8","","NA"
"-129.98","55.93","STEWART A","1067741","2021-12-05 15:00","2021","12","05","15:00","-5.8","","-7.3","","89","","","","5","","5","","24.1","","103.37","","","","-8","","NA"
"-129.98","55.93","STEWART A","1067741","2021-12-05 16:00","2021","12","05","16:00","-5.8","","-7.8","","86","","","","36","","3","","24.1","","103.28","","","","-7","","Cloudy"
"-129.98","55.93","STEWART A","1067741","2021-12-05 17:00","2021","12","05","17:00","-5.9","","-8.2","","84","","","","36","","1","","24.1","","103.19","","","","-6","","NA"
"-129.98","55.93","STEWART A","1067741","2021-12-05 18:00","2021","12","05","18:00"
"-129.98","55.93","STEWART A","1067741","2021-12-05 19:00","2021","12","05","19:00"
"-129.98","55.93","STEWART A","1067741","2021-12-05 20:00","2021","12","05","20:00"
"-129.98","55.93","STEWART A","1067741","2021-12-05 21:00","2021","12","05","21:00"
"-129.98","55.93","STEWART A","1067741","2021-12-05 22:00","2021","12","05","22:00"
"-129.98","55.93","STEWART A","1067741","2021-12-05 23:00","2021","12","05","23:00"
"-129.98","55.93","STEWART A","1067741","2021-12-06 00:00","2021","12","06","00:00"
"-129.98","55.93","STEWART A","1067741","2021-12-06 01:00","2021","12","06","01:00"
"-129.98","55.93","STEWART A","1067741","2021-12-06 02:00","2021","12","06","02:00"
"-129.98","55.93","STEWART A","1067741","2021-12-06 03:00","2021","12","06","03:00"
"-129.98","55.93","STEWART A","1067741","2021-12-06 04:00","2021","12","06","04:00"
"-129.98","55.93","STEWART A","1067741","2021-12-06 05:00","2021","12","06","05:00"
"-129.98","55.93","STEWART A","1067741","2021-12-06 06:00","2021","12","06","06:00"
"-129.98","55.93","STEWART A","1067741","2021-12-06 07:00","2021","12","06","07:00","-11.9","","-16.5","","69","","","","36","","9","","24.1","","102.14","","","","-17","","Mostly Cloudy"
"-129.98","55.93","STEWART A","1067741","2021-12-06 08:00","2021","12","06","08:00","-11.5","","-14.0","","82","","","","36","","8","","24.1","","102.07","","","","-16","","NA"
"-129.98","55.93","STEWART A","1067741","2021-12-06 09:00","2021","12","06","09:00","-10.8","","-12.8","","85","","","","36","","8","","24.1","","102.06","","","","-15","","NA"
"-129.98","55.93","STEWART A","1067741","2021-12-06 10:00","2021","12","06","10:00","-9.4","","-12.2","","80","","","","36","","5","","24.1","","101.96","","","","-12","","Clear"
"-129.98","55.93","STEWART A","1067741","2021-12-06 11:00","2021","12","06","11:00","-10.0","","-11.6","","88","","","","36","","5","","24.1","","101.92","","","","-13","","NA"
"-129.98","55.93","STEWART A","1067741","2021-12-06 12:00","2021","12","06","12:00","-10.3","","-11.9","","88","","","","36","","5","","24.1","","101.88","","","","-13","","NA"
"-129.98","55.93","STEWART A","1067741","2021-12-06 13:00","2021","12","06","13:00","-7.7","","-10.2","","82","","","","34","","5","","24.1","","101.86","","","","-10","","Mainly Clear"
"-129.98","55.93","STEWART A","1067741","2021-12-06 14:00","2021","12","06","14:00","-7.3","","-10.5","","78","","","","5","","7","","24.1","","101.85","","","","-11","","NA"
"-129.98","55.93","STEWART A","1067741","2021-12-06 15:00","2021","12","06","15:00","-7.5","","-10.4","","80","","","","6","","10","","24.1","","101.78","","","","-12","","NA"
"-129.98","55.93","STEWART A","1067741","2021-12-06 16:00","2021","12","06","16:00","-7.3","","-10.8","","76","","","","4","","9","","24.1","","101.75","","","","-12","","Cloudy"
"-129.98","55.93","STEWART A","1067741","2021-12-06 17:00","2021","12","06","17:00","-7.2","","-11.1","","74","","","","3","","12","","24.1","","101.65","","","","-13","","NA"
"-129.98","55.93","STEWART A","1067741","2021-12-06 18:00","2021","12","06","18:00"
"-129.98","55.93","STEWART A","1067741","2021-12-06 19:00","2021","12","06","19:00"
"-129.98","55.93","STEWART A","1067741","2021-12-06 20:00","2021","12","06","20:00"
"-129.98","55.93","STEWART A","1067741","2021-12-06 21:00","2021","12","06","21:00"
"-129.98","55.93","STEWART A","1067741","2021-12-06 22:00","2021","12","06","22:00"
"-129.98","55.93","STEWART A","1067741","2021-12-06 23:00","2021","12","06","23:00"
"-129.98","55.93","STEWART A","1067741","2021-12-07 00:00","2021","12","07","00:00"
"-129.98","55.93","STEWART A","1067741","2021-12-07 01:00","2021","12","07","01:00"
"-129.98","55.93","STEWART A","1067741","2021-12-07 02:00","2021","12","07","02:00"
"-129.98","55.93","STEWART A","1067741","2021-12-07 03:00","2021","12","07","03:00"
"-129.98","55.93","STEWART A","1067741","2021-12-07 04:00","2021","12","07","04:00"
"-129.98","55.93","STEWART A","1067741","2021-12-07 05:00","2021","12","07","05:00"
"-129.98","55.93","STEWART A","1067741","2021-12-07 06:00","2021","12","07","06:00"
"-129.98","55.93","STEWART A","1067741","2021-12-07 07:00","2021","12","07","07:00","-6.6","","-8.2","","89","","","","4","","7","","4.0","","101.05","","","","-10","","Snow"
"-129.98","55.93","STEWART A","1067741","2021-12-07 08:00","2021","12","07","08:00","-6.5","","-8.3","","87","","","","36","","1","","4.0","","100.97","","","","-7","","Snow"
"-129.98","55.93","STEWART A","1067741","2021-12-07 09:00","2021","12","07","09:00","-6.4","","-8.0","","88","","","","5","","5","","4.8","","100.93","","","","-9","","Snow"
"-129.98","55.93","STEWART A","1067741","2021-12-07 10:00","2021","12","07","10:00","-6.3","","-7.8","","89","","","","4","","8","","4.0","","100.83","","","","-10","","Snow"
"-129.98","55.93","STEWART A","1067741","2021-12-07 11:00","2021","12","07","11:00","-6.1","","-7.9","","87","","","","3","","5","","4.8","","100.67","","","","-9","","Snow"
"-129.98","55.93","STEWART A","1067741","2021-12-07 12:00","2021","12","07","12:00","-6.1","","-7.3","","91","","","","3","","4","","0.8","","100.58","","","","-8","","Moderate Snow"
"-129.98","55.93","STEWART A","1067741","2021-12-07 13:00","2021","12","07","13:00","-6.0","","-7.2","","91","","","","5","","6","","2.4","","100.45","","","","-9","","Snow"
"-129.98","55.93","STEWART A","1067741","2021-12-07 14:00","2021","12","07","14:00","-5.9","","-7.1","","91","","","","4","","6","","0.8","","100.32","","","","-9","","Moderate Snow"
"-129.98","55.93","STEWART A","1067741","2021-12-07 15:00","2021","12","07","15:00","-5.9","","-7.0","","92","","","","7","","4","","2.4","","100.20","","","","-8","","Snow"
"-129.98","55.93","STEWART A","1067741","2021-12-07 16:00","2021","12","07","16:00","-5.8","","-6.9","","92","","","","36","","2","","2.4","","100.15","","","","-7","","Snow"
"-129.98","55.93","STEWART A","1067741","2021-12-07 17:00","2021","12","07","17:00","-5.8","","-7.0","","92","","","","4","","3","","2.4","","100.12","","","","-7","","Snow"
"-129.98","55.93","STEWART A","1067741","2021-12-07 18:00","2021","12","07","18:00"
"-129.98","55.93","STEWART A","1067741","2021-12-07 19:00","2021","12","07","19:00"
"-129.98","55.93","STEWART A","1067741","2021-12-07 20:00","2021","12","07","20:00"
"-129.98","55.93","STEWART A","1067741","2021-12-07 21:00","2021","12","07","21:00"
"-129.98","55.93","STEWART A","1067741","2021-12-07 22:00","2021","12","07","22:00"
"-129.98","55.93","STEWART A","1067741","2021-12-07 23:00","2021","12","07","23:00"
"-129.98","55.93","STEWART A","1067741","2021-12-08 00:00","2021","12","08","00:00"
"-129.98","55.93","STEWART A","1067741","2021-12-08 01:00","2021","12","08","01:00"
"-129.98","55.93","STEWART A","1067741","2021-12-08 02:00","2021","12","08","02:00"
"-129.98","55.93","STEWART A","1067741","2021-12-08 03:00","2021","12","08","03:00"
"-129.98","55.93","STEWART A","1067741","2021-12-08 04:00","2021","12","08","04:00"
"-129.98","55.93","STEWART A","1067741","2021-12-08 05:00","2021","12","08","05:00"
"-129.98","55.93","STEWART A","1067741","2021-12-08 06:00","2021","12","08","06:00"
"-129.98","55.93","STEWART A","1067741","2021-12-08 07:00","2021","12","08","07:00","-5.7","","-6.8","","92","","","","36","","1","","4.8","","100.17","","","","-6","","Snow"
"-129.98","55.93","STEWART A","1067741","2021-12-08 08:00","2021","12","08","08:00","-5.7","","-6.6","","93","","","","2","","5","","4.8","","100.19","","","","-8","","Snow"
"-129.98","55.93","STEWART A","1067741","2021-12-08 09:00","2021","12","08","09:00","-5.7","","-6.8","","92","","","","7","","4","","12.9","","100.22","","","","-8","","NA"
"-129.98","55.93","STEWART A","1067741","2021-12-08 10:00","2021","12","08","10:00","-5.3","","-6.4","","92","","","","3","","3","","9.7","","100.26","","","","-7","","Snow"
"-129.98","55.93","STEWART A","1067741","2021-12-08 11:00","2021","12","08","11:00","-4.8","","-5.9","","92","","","","4","","5","","4.8","","100.29","","","","-7","","Snow"
"-129.98","55.93","STEWART A","1067741","2021-12-08 12:00","2021","12","08","12:00","-4.4","","-5.5","","92","","","","36","","3","","4.8","","100.28","","","","-6","","Snow"
"-129.98","55.93","STEWART A","1067741","2021-12-08 13:00","2021","12","08","13:00","-4.0","","-5.2","","92","","","","36","","2","","4.8","","100.31","","","","-5","","Snow"
"-129.98","55.93","STEWART A","1067741","2021-12-08 14:00","2021","12","08","14:00","-3.6","","-4.8","","92","","","","0","","1","","12.9","","100.28","","","","-4","","NA"
"-129.98","55.93","STEWART A","1067741","2021-12-08 15:00","2021","12","08","15:00","-3.6","","-4.7","","92","","","","6","","4","","12.9","","100.27","","","","-5","","NA"
"-129.98","55.93","STEWART A","1067741","2021-12-08 16:00","2021","12","08","16:00","-3.5","","-4.5","","93","","","","4","","4","","9.7","","100.29","","","","-5","","Snow"
"-129.98","55.93","STEWART A","1067741","2021-12-08 17:00","2021","12","08","17:00","-4.3","","-5.1","","95","","","","36","","2","","16.1","","100.30","","","","-5","","NA"
"-129.98","55.93","STEWART A","1067741","2021-12-08 18:00","2021","12","08","18:00"
"-129.98","55.93","STEWART A","1067741","2021-12-08 19:00","2021","12","08","19:00"
"-129.98","55.93","STEWART A","1067741","2021-12-08 20:00","2021","12","08","20:00"
"-129.98","55.93","STEWART A","1067741","2021-12-08 21:00","2021","12","08","21:00"
"-129.98","55.93","STEWART A","1067741","2021-12-08 22:00","2021","12","08","22:00"
"-129.98","55.93","STEWART A","1067741","2021-12-08 23:00","2021","12","08","23:00"
"-129.98","55.93","STEWART A","1067741","2021-12-09 00:00","2021","12","09","00:00"
"-129.98","55.93","STEWART A","1067741","2021-12-09 01:00","2021","12","09","01:00"
"-129.98","55.93","STEWART A","1067741","2021-12-09 02:00","2021","12","09","02:00"
"-129.98","55.93","STEWART A","1067741","2021-12-09 03:00","2021","12","09","03:00"
"-129.98","55.93","STEWART A","1067741","2021-12-09 04:00","2021","12","09","04:00"
"-129.98","55.93","STEWART A","1067741","2021-12-09 05:00","2021","12","09","05:00"
"-129.98","55.93","STEWART A","1067741","2021-12-09 06:00","2021","12","09","06:00"
"-129.98","55.93","STEWART A","1067741","2021-12-09 07:00","2021","12","09","07:00","-0.1","","-0.2","","99","","","","36","","1","","9.7","","100.40","","","","0","","Snow"
"-129.98","55.93","STEWART A","1067741","2021-12-09 08:00","2021","12","09","08:00","0.0","","-0.1","","99","","","","36","","3","","9.7","","100.42","","","","-1","","Snow"
"-129.98","55.93","STEWART A","1067741","2021-12-09 09:00","2021","12","09","09:00","-0.2","","-0.3","","99","","","","36","","1","","4.8","","100.46","","","","-1","","Snow"
"-129.98","55.93","STEWART A","1067741","2021-12-09 10:00","2021","12","09","10:00","-0.1","","-0.2","","99","","","","36","","1","","4.8","","100.47","","","","0","","Snow"
"-129.98","55.93","STEWART A","1067741","2021-12-09 11:00","2021","12","09","11:00","0.2","","0.1","","99","","","","5","","4","","4.8","","100.47","","","","","","Snow"
"-129.98","55.93","STEWART A","1067741","2021-12-09 12:00","2021","12","09","12:00","-0.1","","-0.3","","98","","","","4","","5","","4.8","","100.47","","","","-2","","Snow"
"-129.98","55.93","STEWART A","1067741","2021-12-09 13:00","2021","12","09","13:00","-0.2","","-0.6","","97","","","","36","","3","","2.4","","100.44","","","","-1","","Snow"
"-129.98","55.93","STEWART A","1067741","2021-12-09 14:00","2021","12","09","14:00","-0.4","","-1.0","","96","","","","4","","5","","2.4","","100.45","","","","-2","","Snow"
"-129.98","55.93","STEWART A","1067741","2021-12-09 15:00","2021","12","09","15:00","-0.6","","-1.1","","96","","","","4","","7","","2.4","","100.47","","","","-3","","Snow"
"-129.98","55.93","STEWART A","1067741","2021-12-09 16:00","2021","12","09","16:00","-0.8","","-1.4","","96","","","","4","","5","","2.4","","100.47","","","","-2","","Snow"
"-129.98","55.93","STEWART A","1067741","2021-12-09 17:00","2021","12","09","17:00","-1.0","","-1.5","","96","","","","1","","3","","4.8","","100.49","","","","-2","","Snow"
"-129.98","55.93","STEWART A","1067741","2021-12-09 18:00","2021","12","09","18:00"
"-129.98","55.93","STEWART A","1067741","2021-12-09 19:00","2021","12","09","19:00"
"-129.98","55.93","STEWART A","1067741","2021-12-09 20:00","2021","12","09","20:00"
"-129.98","55.93","STEWART A","1067741","2021-12-09 21:00","2021","12","09","21:00"
"-129.98","55.93","STEWART A","1067741","2021-12-09 22:00","2021","12","09","22:00"
"-129.98","55.93","STEWART A","1067741","2021-12-09 23:00","2021","12","09","23:00"
"-129.98","55.93","STEWART A","1067741","2021-12-10 00:00","2021","12","10","00:00"
"-129.98","55.93","STEWART A","1067741","2021-12-10 01:00","2021","12","10","01:00"
"-129.98","55.93","STEWART A","1067741","2021-12-10 02:00","2021","12","10","02:00"
"-129.98","55.93","STEWART A","1067741","2021-12-10 03:00","2021","12","10","03:00"
"-129.98","55.93","STEWART A","1067741","2021-12-10 04:00","2021","12","10","04:00"
"-129.98","55.93","STEWART A","1067741","2021-12-10 05:00","2021","12","10","05:00"
"-129.98","55.93","STEWART A","1067741","2021-12-10 06:00","2021","12","10","06:00"
"-129.98","55.93","STEWART A","1067741","2021-12-10 07:00","2021","12","10","07:00","-1.1","","-1.5","","97","","","","3","","14","","0.8","","99.18","","","","-6","","Moderate Snow"
"-129.98","55.93","STEWART A","1067741","2021-12-10 08:00","2021","12","10","08:00","-1.1","","-1.4","","97","","","","3","","13","","0.8","","98.99","","","","-5","","Moderate Snow"
"-129.98","55.93","STEWART A","1067741","2021-12-10 09:00","2021","12","10","09:00","-1.0","","-1.3","","98","","","","4","","10","","0.8","","98.80","","","","-5","","Moderate Snow"
"-129.98","55.93","STEWART A","1067741","2021-12-10 10:00","2021","12","10","10:00","-0.7","","-1.0","","98","","","","4","","12","","0.4","","98.64","","","","-5","","Heavy Snow"
"-129.98","55.93","STEWART A","1067741","2021-12-10 11:00","2021","12","10","11:00","-0.5","","-0.9","","98","","","","4","","5","","0.8","","98.51","","","","-2","","Moderate Snow"
"-129.98","55.93","STEWART A","1067741","2021-12-10 12:00","2021","12","10","12:00","-0.6","","-0.9","","98","","","","32","","4","","0.4","","98.42","","","","-2","","Heavy Snow"
"-129.98","55.93","STEWART A","1067741","2021-12-10 13:00","2021","12","10","13:00","-0.6","","-0.7","","99","","","","36","","7","","0.8","","98.37","","","","-3","","Moderate Snow"
"-129.98","55.93","STEWART A","1067741","2021-12-10 14:00","2021","12","10","14:00","-0.5","","-0.7","","99","","","","36","","3","","2.4","","98.36","","","","-1","","Snow"
"-129.98","55.93","STEWART A","1067741","2021-12-10 15:00","2021","12","10","15:00","-0.3","","-0.6","","98","","","","32","","5","","8.1","","98.35","","","","-2","","Snow"
"-129.98","55.93","STEWART A","1067741","2021-12-10 16:00","2021","12","10","16:00","-0.3","","-0.6","","98","","","","12","","8","","9.7","","98.39","","","","-3","","Snow"
"-129.98","55.93","STEWART A","1067741","2021-12-10 17:00","2021","12","10","17:00","-1.7","","-1.8","","99","","","","36","","3","","12.9","","98.38","","","","-3","","NA"
"-129.98","55.93","STEWART A","1067741","2021-12-10 18:00","2021","12","10","18:00"
"-129.98","55.93","STEWART A","1067741","2021-12-10 19:00","2021","12","10","19:00"
"-129.98","55.93","STEWART A","1067741","2021-12-10 20:00","2021","12","10","20:00"
"-129.98","55.93","STEWART A","1067741","2021-12-10 21:00","2021","12","10","21:00"
"-129.98","55.93","STEWART A","1067741","2021-12-10 22:00","2021","12","10","22:00"
"-129.98","55.93","STEWART A","1067741","2021-12-10 23:00","2021","12","10","23:00"
"-129.98","55.93","STEWART A","1067741","2021-12-11 00:00","2021","12","11","00:00"
"-129.98","55.93","STEWART A","1067741","2021-12-11 01:00","2021","12","11","01:00"
"-129.98","55.93","STEWART A","1067741","2021-12-11 02:00","2021","12","11","02:00"
"-129.98","55.93","STEWART A","1067741","2021-12-11 03:00","2021","12","11","03:00"
"-129.98","55.93","STEWART A","1067741","2021-12-11 04:00","2021","12","11","04:00"
"-129.98","55.93","STEWART A","1067741","2021-12-11 05:00","2021","12","11","05:00"
"-129.98","55.93","STEWART A","1067741","2021-12-11 06:00","2021","12","11","06:00"
"-129.98","55.93","STEWART A","1067741","2021-12-11 07:00","2021","12","11","07:00","-2.6","","-3.0","","98","","","","5","","3","","0.8","","98.11","","","","-4","","Moderate Snow"
"-129.98","55.93","STEWART A","1067741","2021-12-11 08:00","2021","12","11","08:00","-2.4","","-2.8","","98","","","","36","","3","","0.8","","98.12","","","","-4","","Moderate Snow"
"-129.98","55.93","STEWART A","1067741","2021-12-11 09:00","2021","12","11","09:00","-2.3","","-2.6","","98","","","","36","","2","","1.6","","98.15","","","","-3","","Snow"
"-129.98","55.93","STEWART A","1067741","2021-12-11 10:00","2021","12","11","10:00","-2.2","","-2.5","","98","","","","36","","2","","1.6","","98.20","","","","-3","","Snow"
"-129.98","55.93","STEWART A","1067741","2021-12-11 11:00","2021","12","11","11:00","-2.0","","-2.2","","98","","","","36","","2","","1.6","","98.28","","","","-3","","Snow"
"-129.98","55.93","STEWART A","1067741","2021-12-11 12:00","2021","12","11","12:00","-2.2","","-2.6","","97","","","","36","","1","","4.8","","98.32","","","","-3","","Snow"
"-129.98","55.93","STEWART A","1067741","2021-12-11 13:00","2021","12","11","13:00","-1.9","","-2.2","","98","","","","36","","1","","4.8","","98.36","","","","-2","","Snow"
"-129.98","55.93","STEWART A","1067741","2021-12-11 14:00","2021","12","11","14:00","-1.7","","-2.0","","98","","","","36","","1","","4.8","","98.39","","","","-2","","Snow"
"-129.98","55.93","STEWART A","1067741","2021-12-11 15:00","2021","12","11","15:00","-2.0","","-2.4","","97","","","","36","","2","","4.8","","98.40","","","","-3","","Snow"
"-129.98","55.93","STEWART A","1067741","2021-12-11 16:00","2021","12","11","16:00","-2.0","","-2.2","","98","","","","36","","1","","4.8","","98.44","","","","-2","","Snow"
"-129.98","55.93","STEWART A","1067741","2021-12-11 17:00","2021","12","11","17:00","-2.3","","-2.5","","98","","","","0","","1","","4.8","","98.48","","","","-3","","Snow"
"-129.98","55.93","STEWART A","1067741","2021-12-11 18:00","2021","12","11","18:00"
"-129.98","55.93","STEWART A","1067741","2021-12-11 19:00","2021","12","11","19:00"
"-129.98","55.93","STEWART A","1067741","2021-12-11 20:00","2021","12","11","20:00"
"-129.98","55.93","STEWART A","1067741","2021-12-11 21:00","2021","12","11","21:00"
"-129.98","55.93","STEWART A","1067741","2021-12-11 22:00","2021","12","11","22:00"
"-129.98","55.93","STEWART A","1067741","2021-12-11 23:00","2021","12","11","23:00"
"-129.98","55.93","STEWART A","1067741","2021-12-12 00:00","2021","12","12","00:00"
"-129.98","55.93","STEWART A","1067741","2021-12-12 01:00","2021","12","12","01:00"
"-129.98","55.93","STEWART A","1067741","2021-12-12 02:00","2021","12","12","02:00"
"-129.98","55.93","STEWART A","1067741","2021-12-12 03:00","2021","12","12","03:00"
"-129.98","55.93","STEWART A","1067741","2021-12-12 04:00","2021","12","12","04:00"
"-129.98","55.93","STEWART A","1067741","2021-12-12 05:00","2021","12","12","05:00"
"-129.98","55.93","STEWART A","1067741","2021-12-12 06:00","2021","12","12","06:00"
"-129.98","55.93","STEWART A","1067741","2021-12-12 07:00","2021","12","12","07:00","-7.1","","-7.6","","96","","","","34","","4","","24.1","","99.02","","","","-9","","Clear"
"-129.98","55.93","STEWART A","1067741","2021-12-12 08:00","2021","12","12","08:00","-7.7","","-8.2","","96","","","","5","","4","","24.1","","99.09","","","","-10","","NA"
"-129.98","55.93","STEWART A","1067741","2021-12-12 09:00","2021","12","12","09:00","-8.7","","-9.3","","95","","","","36","","3","","24.1","","99.19","","","","-10","","NA"
"-129.98","55.93","STEWART A","1067741","2021-12-12 10:00","2021","12","12","10:00","-9.4","","-10.3","","94","","","","3","","4","","24.1","","99.28","","","","-12","","Mainly Clear"
"-129.98","55.93","STEWART A","1067741","2021-12-12 11:00","2021","12","12","11:00","-9.2","","-9.9","","95","","","","35","","3","","24.1","","99.36","","","","-11","","NA"
"-129.98","55.93","STEWART A","1067741","2021-12-12 12:00","2021","12","12","12:00","-9.6","","-10.2","","95","","","","36","","3","","24.1","","99.44","","","","-11","","NA"
"-129.98","55.93","STEWART A","1067741","2021-12-12 13:00","2021","12","12","13:00","-9.4","","-10.5","","92","","","","10","","4","","24.1","","99.47","","","","-12","","Mainly Clear"
"-129.98","55.93","STEWART A","1067741","2021-12-12 14:00","2021","12","12","14:00","-7.1","","-7.8","","95","","","","0","","1","","24.1","","99.48","","","","-8","","NA"
"-129.98","55.93","STEWART A","1067741","2021-12-12 15:00","2021","12","12","15:00","-8.4","","-9.3","","93","","","","8","","5","","24.1","","99.54","","","","-11","","NA"
"-129.98","55.93","STEWART A","1067741","2021-12-12 16:00","2021","12","12","16:00","-9.9","","-10.8","","93","","","","11","","4","","24.1","","99.63","","","","-12","","Mainly Clear"
"-129.98","55.93","STEWART A","1067741","2021-12-12 17:00","2021","12","12","17:00","-9.6","","-10.3","","94","","","","6","","5","","24.1","","99.70","","","","-12","","NA"
"-129.98","55.93","STEWART A","1067741","2021-12-12 18:00","2021","12","12","18:00"
"-129.98","55.93","STEWART A","1067741","2021-12-12 19:00","2021","12","12","19:00"
"-129.98","55.93","STEWART A","1067741","2021-12-12 20:00","2021","12","12","20:00"
"-129.98","55.93","STEWART A","1067741","2021-12-12 21:00","2021","12","12","21:00"
"-129.98","55.93","STEWART A","1067741","2021-12-12 22:00","2021","12","12","22:00"
"-129.98","55.93","STEWART A","1067741","2021-12-12 23:00","2021","12","12","23:00"
"-129.98","55.93","STEWART A","1067741","2021-12-13 00:00","2021","12","13","00:00"
"-129.98","55.93","STEWART A","1067741","2021-12-13 01:00","2021","12","13","01:00"
"-129.98","55.93","STEWART A","1067741","2021-12-13 02:00","2021","12","13","02:00"
"-129.98","55.93","STEWART A","1067741","2021-12-13 03:00","2021","12","13","03:00"
"-129.98","55.93","STEWART A","1067741","2021-12-13 04:00","2021","12","13","04:00"
"-129.98","55.93","STEWART A","1067741","2021-12-13 05:00","2021","12","13","05:00"
"-129.98","55.93","STEWART A","1067741","2021-12-13 06:00","2021","12","13","06:00"
"-129.98","55.93","STEWART A","1067741","2021-12-13 07:00","2021","12","13","07:00","-11.9","","-12.9","","92","","","","","","0","","24.1","","100.65","","","","","","Clear"
"-129.98","55.93","STEWART A","1067741","2021-12-13 08:00","2021","12","13","08:00","-12.9","","-14.3","","89","","","","36","","3","","24.1","","100.67","","","","-15","","NA"
"-129.98","55.93","STEWART A","1067741","2021-12-13 09:00","2021","12","13","09:00","-12.6","","-13.8","","91","","","","36","","5","","24.1","","100.72","","","","-16","","NA"
"-129.98","55.93","STEWART A","1067741","2021-12-13 10:00","2021","12","13","10:00","-12.1","","-13.3","","91","","","","36","","5","","24.1","","100.78","","","","-15","","Mainly Clear"
"-129.98","55.93","STEWART A","1067741","2021-12-13 11:00","2021","12","13","11:00","-13.7","","-15.2","","88","","","","","","0","","24.1","","100.83","","","","","","NA"
"-129.98","55.93","STEWART A","1067741","2021-12-13 12:00","2021","12","13","12:00","-11.5","","-12.6","","91","","","","36","","8","","24.1","","100.86","","","","-16","","NA"
"-129.98","55.93","STEWART A","1067741","2021-12-13 13:00","2021","12","13","13:00","-9.2","","-10.2","","92","","","","34","","3","","24.1","","100.86","","","","-11","","Mainly Clear"
"-129.98","55.93","STEWART A","1067741","2021-12-13 14:00","2021","12","13","14:00","-8.9","","-10.0","","92","","","","9","","3","","24.1","","100.86","","","","-11","","NA"
"-129.98","55.93","STEWART A","1067741","2021-12-13 15:00","2021","12","13","15:00","-8.1","","-8.9","","94","","","","4","","12","","24.1","","100.90","","","","-14","","NA"
"-129.98","55.93","STEWART A","1067741","2021-12-13 16:00","2021","12","13","16:00","-10.3","","-11.3","","92","","","","","","0","","24.1","","100.97","","","","","","Mainly Clear"
"-129.98","55.93","STEWART A","1067741","2021-12-13 17:00","2021","12","13","17:00","-9.6","","-12.4","","80","","","","","","0","","24.1","","101.02","","","","","","NA"
"-129.98","55.93","STEWART A","1067741","2021-12-13 18:00","2021","12","13","18:00"
"-129.98","55.93","STEWART A","1067741","2021-12-13 19:00","2021","12","13","19:00"
"-129.98","55.93","STEWART A","1067741","2021-12-13 20:00","2021","12","13","20:00"
"-129.98","55.93","STEWART A","1067741","2021-12-13 21:00","2021","12","13","21:00"
"-129.98","55.93","STEWART A","1067741","2021-12-13 22:00","2021","12","13","22:00"
"-129.98","55.93","STEWART A","1067741","2021-12-13 23:00","2021","12","13","23:00"
"-129.98","55.93","STEWART A","1067741","2021-12-14 00:00","2021","12","14","00:00"
"-129.98","55.93","STEWART A","1067741","2021-12-14 01:00","2021","12","14","01:00"
"-129.98","55.93","STEWART A","1067741","2021-12-14 02:00","2021","12","14","02:00"
"-129.98","55.93","STEWART A","1067741","2021-12-14 03:00","2021","12","14","03:00"
"-129.98","55.93","STEWART A","1067741","2021-12-14 04:00","2021","12","14","04:00"
"-129.98","55.93","STEWART A","1067741","2021-12-14 05:00","2021","12","14","05:00"
"-129.98","55.93","STEWART A","1067741","2021-12-14 06:00","2021","12","14","06:00"
"-129.98","55.93","STEWART A","1067741","2021-12-14 07:00","2021","12","14","07:00","-13.9","","-17.8","","72","","","","","","0","","24.1","","100.94","","","","","","Clear"
"-129.98","55.93","STEWART A","1067741","2021-12-14 08:00","2021","12","14","08:00","-13.3","","-15.2","","85","","","","","","0","","24.1","","100.88","","","","","","NA"
"-129.98","55.93","STEWART A","1067741","2021-12-14 09:00","2021","12","14","09:00","-13.3","","-15.3","","85","","","","","","0","","24.1","","100.85","","","","","","NA"
"-129.98","55.93","STEWART A","1067741","2021-12-14 10:00","2021","12","14","10:00","-10.6","","-13.4","","80","","","","36","","5","","24.1","","100.86","","","","-14","","Cloudy"
"-129.98","55.93","STEWART A","1067741","2021-12-14 11:00","2021","12","14","11:00","-11.0","","-12.2","","91","","","","36","","5","","24.1","","100.85","","","","-14","","NA"
"-129.98","55.93","STEWART A","1067741","2021-12-14 12:00","2021","12","14","12:00","-10.1","","-11.3","","91","","","","","","0","","24.1","","100.78","","","","","","NA"
"-129.98","55.93","STEWART A","1067741","2021-12-14 13:00","2021","12","14","13:00","-9.4","","-10.6","","91","","","","36","","1","","24.1","","100.75","","","","-10","","Cloudy"
"-129.98","55.93","STEWART A","1067741","2021-12-14 14:00","2021","12","14","14:00","-8.8","","-10.0","","91","","","","27","","3","","24.1","","100.74","","","","-10","","NA"
"-129.98","55.93","STEWART A","1067741","2021-12-14 15:00","2021","12","14","15:00","-8.4","","-9.6","","91","","","","36","","3","","24.1","","100.72","","","","-10","","NA"
"-129.98","55.93","STEWART A","1067741","2021-12-14 16:00","2021","12","14","16:00","-9.5","","-10.8","","90","","","","36","","1","","24.1","","100.75","","","","-10","","Cloudy"
"-129.98","55.93","STEWART A","1067741","2021-12-14 17:00","2021","12","14","17:00","-9.0","","-10.1","","92","","","","36","","1","","24.1","","100.77","","","","-10","","NA"
"-129.98","55.93","STEWART A","1067741","2021-12-14 18:00","2021","12","14","18:00"
"-129.98","55.93","STEWART A","1067741","2021-12-14 19:00","2021","12","14","19:00"
"-129.98","55.93","STEWART A","1067741","2021-12-14 20:00","2021","12","14","20:00"
"-129.98","55.93","STEWART A","1067741","2021-12-14 21:00","2021","12","14","21:00"
"-129.98","55.93","STEWART A","1067741","2021-12-14 22:00","2021","12","14","22:00"
"-129.98","55.93","STEWART A","1067741","2021-12-14 23:00","2021","12","14","23:00"
"-129.98","55.93","STEWART A","1067741","2021-12-15 00:00","2021","12","15","00:00"
"-129.98","55.93","STEWART A","1067741","2021-12-15 01:00","2021","12","15","01:00"
"-129.98","55.93","STEWART A","1067741","2021-12-15 02:00","2021","12","15","02:00"
"-129.98","55.93","STEWART A","1067741","2021-12-15 03:00","2021","12","15","03:00"
"-129.98","55.93","STEWART A","1067741","2021-12-15 04:00","2021","12","15","04:00"
"-129.98","55.93","STEWART A","1067741","2021-12-15 05:00","2021","12","15","05:00"
"-129.98","55.93","STEWART A","1067741","2021-12-15 06:00","2021","12","15","06:00"
"-129.98","55.93","STEWART A","1067741","2021-12-15 07:00","2021","12","15","07:00","-7.9","","-9.9","","86","","","","36","","3","","24.1","","101.19","","","","-9","","Cloudy"
"-129.98","55.93","STEWART A","1067741","2021-12-15 08:00","2021","12","15","08:00","-7.8","","-9.7","","87","","","","36","","3","","24.1","","101.22","","","","-9","","NA"
"-129.98","55.93","STEWART A","1067741","2021-12-15 09:00","2021","12","15","09:00","-7.4","","-10.0","","82","","","","36","","1","","12.9","","101.23","","","","-8","","Snow"
"-129.98","55.93","STEWART A","1067741","2021-12-15 10:00","2021","12","15","10:00","-7.5","","-9.2","","88","","","","36","","2","","16.1","","101.27","","","","-9","","Cloudy"
"-129.98","55.93","STEWART A","1067741","2021-12-15 11:00","2021","12","15","11:00","-7.2","","-9.7","","82","","","","36","","1","","9.7","","101.28","","","","-8","","Snow"
"-129.98","55.93","STEWART A","1067741","2021-12-15 12:00","2021","12","15","12:00","-7.1","","-9.6","","82","","","","4","","3","","19.3","","101.27","","","","-9","","NA"
"-129.98","55.93","STEWART A","1067741","2021-12-15 13:00","2021","12","15","13:00","-6.8","","-10.6","","75","","","","35","","7","","24.1","","101.29","","","","-10","","Mainly Clear"
"-129.98","55.93","STEWART A","1067741","2021-12-15 14:00","2021","12","15","14:00","-8.8","","-10.7","","86","","","","15","","3","","24.1","","101.28","","","","-10","","NA"
"-129.98","55.93","STEWART A","1067741","2021-12-15 15:00","2021","12","15","15:00","-9.2","","-11.1","","86","","","","36","","1","","24.1","","101.30","","","","-10","","NA"
"-129.98","55.93","STEWART A","1067741","2021-12-15 16:00","2021","12","15","16:00","-11.1","","-12.4","","90","","","","36","","2","","24.1","","101.36","","","","-12","","Clear"
"-129.98","55.93","STEWART A","1067741","2021-12-15 17:00","2021","12","15","17:00","-12.8","","-14.1","","91","","","","","","0","","24.1","","101.40","","","","","","NA"
"-129.98","55.93","STEWART A","1067741","2021-12-15 18:00","2021","12","15","18:00"
"-129.98","55.93","STEWART A","1067741","2021-12-15 19:00","2021","12","15","19:00"
"-129.98","55.93","STEWART A","1067741","2021-12-15 20:00","2021","12","15","20:00"
"-129.98","55.93","STEWART A","1067741","2021-12-15 21:00","2021","12","15","21:00"
"-129.98","55.93","STEWART A","1067741","2021-12-15 22:00","2021","12","15","22:00"
"-129.98","55.93","STEWART A","1067741","2021-12-15 23:00","2021","12","15","23:00"
"-129.98","55.93","STEWART A","1067741","2021-12-16 00:00","2021","12","16","00:00"
"-129.98","55.93","STEWART A","1067741","2021-12-16 01:00","2021","12","16","01:00"
"-129.98","55.93","STEWART A","1067741","2021-12-16 02:00","2021","12","16","02:00"
"-129.98","55.93","STEWART A","1067741","2021-12-16 03:00","2021","12","16","03:00"
"-129.98","55.93","STEWART A","1067741","2021-12-16 04:00","2021","12","16","04:00"
"-129.98","55.93","STEWART A","1067741","2021-12-16 05:00","2021","12","16","05:00"
"-129.98","55.93","STEWART A","1067741","2021-12-16 06:00","2021","12","16","06:00"
"-129.98","55.93","STEWART A","1067741","2021-12-16 07:00","2021","12","16","07:00","-17.1","","-18.6","","88","","","","","","0","","24.1","","102.11","","","","","","Clear"
"-129.98","55.93","STEWART A","1067741","2021-12-16 08:00","2021","12","16","08:00","-16.1","","-19.1","","77","","","","","","0","","24.1","","102.17","","","","","","NA"
"-129.98","55.93","STEWART A","1067741","2021-12-16 09:00","2021","12","16","09:00","-14.8","","-16.8","","84","","","","","","0","","24.1","","102.21","","","","","","NA"
"-129.98","55.93","STEWART A","1067741","2021-12-16 10:00","2021","12","16","10:00","-17.4","","-19.3","","85","","","","","","0","","24.1","","102.29","","","","","","Clear"
"-129.98","55.93","STEWART A","1067741","2021-12-16 11:00","2021","12","16","11:00","-16.7","","-18.6","","86","","","","9","","3","","24.1","","102.33","","","","-19","","NA"
"-129.98","55.93","STEWART A","1067741","2021-12-16 12:00","2021","12","16","12:00","-15.4","","-17.2","","86","","","","","","0","","24.1","","102.36","","","","","","NA"
"-129.98","55.93","STEWART A","1067741","2021-12-16 13:00","2021","12","16","13:00","-10.9","","-12.7","","87","","","","35","","9","","24.1","","102.39","","","","-16","","Clear"
"-129.98","55.93","STEWART A","1067741","2021-12-16 14:00","2021","12","16","14:00","-10.9","","-13.1","","84","","","","30","","3","","24.1","","102.40","","","","-13","","NA"
"-129.98","55.93","STEWART A","1067741","2021-12-16 15:00","2021","12","16","15:00","-11.6","","-14.1","","82","","","","2","","4","","24.1","","102.44","","","","-14","","NA"
"-129.98","55.93","STEWART A","1067741","2021-12-16 16:00","2021","12","16","16:00","-11.1","","-14.2","","78","","","","4","","4","","24.1","","102.47","","","","-14","","Mainly Clear"
"-129.98","55.93","STEWART A","1067741","2021-12-16 17:00","2021","12","16","17:00","-12.0","","-14.3","","83","","","","2","","5","","24.1","","102.51","","","","-15","","NA"
"-129.98","55.93","STEWART A","1067741","2021-12-16 18:00","2021","12","16","18:00"
"-129.98","55.93","STEWART A","1067741","2021-12-16 19:00","2021","12","16","19:00"
"-129.98","55.93","STEWART A","1067741","2021-12-16 20:00","2021","12","16","20:00"
"-129.98","55.93","STEWART A","1067741","2021-12-16 21:00","2021","12","16","21:00"
"-129.98","55.93","STEWART A","1067741","2021-12-16 22:00","2021","12","16","22:00"
"-129.98","55.93","STEWART A","1067741","2021-12-16 23:00","2021","12","16","23:00"
"-129.98","55.93","STEWART A","1067741","2021-12-17 00:00","2021","12","17","00:00"
"-129.98","55.93","STEWART A","1067741","2021-12-17 01:00","2021","12","17","01:00"
"-129.98","55.93","STEWART A","1067741","2021-12-17 02:00","2021","12","17","02:00"
"-129.98","55.93","STEWART A","1067741","2021-12-17 03:00","2021","12","17","03:00"
"-129.98","55.93","STEWART A","1067741","2021-12-17 04:00","2021","12","17","04:00"
"-129.98","55.93","STEWART A","1067741","2021-12-17 05:00","2021","12","17","05:00"
"-129.98","55.93","STEWART A","1067741","2021-12-17 06:00","2021","12","17","06:00"
"-129.98","55.93","STEWART A","1067741","2021-12-17 07:00","2021","12","17","07:00","-11.6","","-13.4","","87","","","","36","","1","","24.1","","102.45","","","","-12","","Mainly Clear"
"-129.98","55.93","STEWART A","1067741","2021-12-17 08:00","2021","12","17","08:00","-10.1","","-12.8","","81","","","","36","","1","","24.1","","102.43","","","","-11","","NA"
"-129.98","55.93","STEWART A","1067741","2021-12-17 09:00","2021","12","17","09:00","-9.3","","-13.0","","75","","","","4","","5","","24.1","","102.42","","","","-12","","NA"
"-129.98","55.93","STEWART A","1067741","2021-12-17 10:00","2021","12","17","10:00","-8.9","","-13.2","","72","","","","1","","7","","24.1","","102.44","","","","-13","","Cloudy"
"-129.98","55.93","STEWART A","1067741","2021-12-17 11:00","2021","12","17","11:00","-8.6","","-13.2","","69","","","","1","","7","","24.1","","102.41","","","","-12","","NA"
"-129.98","55.93","STEWART A","1067741","2021-12-17 12:00","2021","12","17","12:00","-8.3","","-12.9","","70","","","","36","","4","","19.3","","102.41","","","","-10","","NA"
"-129.98","55.93","STEWART A","1067741","2021-12-17 13:00","2021","12","17","13:00","-8.4","","-11.8","","77","","","","3","","10","","9.7","","102.42","","","","-13","","Snow"
"-129.98","55.93","STEWART A","1067741","2021-12-17 14:00","2021","12","17","14:00","-8.3","","-11.9","","75","","","","1","","9","","19.3","","102.39","","","","-13","","NA"
"-129.98","55.93","STEWART A","1067741","2021-12-17 15:00","2021","12","17","15:00","-7.9","","-12.5","","70","","","","2","","10","","19.3","","102.31","","","","-13","","Snow"
"-129.98","55.93","STEWART A","1067741","2021-12-17 16:00","2021","12","17","16:00","-7.9","","-11.9","","73","","","","36","","4","","19.3","","102.24","","","","-10","","Cloudy"
"-129.98","55.93","STEWART A","1067741","2021-12-17 17:00","2021","12","17","17:00","-7.7","","-12.5","","69","","","","35","","9","","19.3","","102.18","","","","-12","","NA"
"-129.98","55.93","STEWART A","1067741","2021-12-17 18:00","2021","12","17","18:00"
"-129.98","55.93","STEWART A","1067741","2021-12-17 19:00","2021","12","17","19:00"
"-129.98","55.93","STEWART A","1067741","2021-12-17 20:00","2021","12","17","20:00"
"-129.98","55.93","STEWART A","1067741","2021-12-17 21:00","2021","12","17","21:00"
"-129.98","55.93","STEWART A","1067741","2021-12-17 22:00","2021","12","17","22:00"
"-129.98","55.93","STEWART A","1067741","2021-12-17 23:00","2021","12","17","23:00"
"-129.98","55.93","STEWART A","1067741","2021-12-18 00:00","2021","12","18","00:00"
"-129.98","55.93","STEWART A","1067741","2021-12-18 01:00","2021","12","18","01:00"
"-129.98","55.93","STEWART A","1067741","2021-12-18 02:00","2021","12","18","02:00"
"-129.98","55.93","STEWART A","1067741","2021-12-18 03:00","2021","12","18","03:00"
"-129.98","55.93","STEWART A","1067741","2021-12-18 04:00","2021","12","18","04:00"
"-129.98","55.93","STEWART A","1067741","2021-12-18 05:00","2021","12","18","05:00"
"-129.98","55.93","STEWART A","1067741","2021-12-18 06:00","2021","12","18","06:00"
"-129.98","55.93","STEWART A","1067741","2021-12-18 07:00","2021","12","18","07:00","-10.7","","-13.1","","83","","","","","","0","","24.1","","101.19","","","","","","Mainly Clear"
"-129.98","55.93","STEWART A","1067741","2021-12-18 08:00","2021","12","18","08:00","-9.9","","-13.7","","74","","","","","","0","","24.1","","101.19","","","","","","NA"
"-129.98","55.93","STEWART A","1067741","2021-12-18 09:00","2021","12","18","09:00","-9.6","","-13.5","","74","","","","","","0","","24.1","","101.14","","","","","","NA"
"-129.98","55.93","STEWART A","1067741","2021-12-18 10:00","2021","12","18","10:00","-9.8","","-14.2","","70","","","","","","0","","24.1","","101.16","","","","","","Clear"
"-129.98","55.93","STEWART A","1067741","2021-12-18 11:00","2021","12","18","11:00","-9.1","","-13.7","","69","","","","2","","7","","24.1","","101.10","","","","-13","","NA"
"-129.98","55.93","STEWART A","1067741","2021-12-18 12:00","2021","12","18","12:00","-8.8","","-13.6","","68","","","","1","","8","","24.1","","101.06","","","","-13","","NA"
"-129.98","55.93","STEWART A","1067741","2021-12-18 13:00","2021","12","18","13:00","-7.4","","-12.9","","65","","","","4","","13","","24.1","","101.06","","","","-13","","Clear"
"-129.98","55.93","STEWART A","1067741","2021-12-18 14:00","2021","12","18","14:00","-7.0","","-12.7","","64","","","","6","","8","","24.1","","101.07","","","","-11","","NA"
"-129.98","55.93","STEWART A","1067741","2021-12-18 15:00","2021","12","18","15:00","-7.2","","-12.9","","64","","","","1","","12","","24.1","","101.07","","","","-13","","NA"
"-129.98","55.93","STEWART A","1067741","2021-12-18 16:00","2021","12","18","16:00","-8.2","","-13.3","","67","","","","3","","11","","24.1","","101.17","","","","-13","","Clear"
"-129.98","55.93","STEWART A","1067741","2021-12-18 17:00","2021","12","18","17:00","-8.5","","-13.5","","68","","","","","","0","","24.1","","101.25","","","","","","NA"
"-129.98","55.93","STEWART A","1067741","2021-12-18 18:00","2021","12","18","18:00"
"-129.98","55.93","STEWART A","1067741","2021-12-18 19:00","2021","12","18","19:00"
"-129.98","55.93","STEWART A","1067741","2021-12-18 20:00","2021","12","18","20:00"
"-129.98","55.93","STEWART A","1067741","2021-12-18 21:00","2021","12","18","21:00"
"-129.98","55.93","STEWART A","1067741","2021-12-18 22:00","2021","12","18","22:00"
"-129.98","55.93","STEWART A","1067741","2021-12-18 23:00","2021","12","18","23:00"
"-129.98","55.93","STEWART A","1067741","2021-12-19 00:00","2021","12","19","00:00"
"-129.98","55.93","STEWART A","1067741","2021-12-19 01:00","2021","12","19","01:00"
"-129.98","55.93","STEWART A","1067741","2021-12-19 02:00","2021","12","19","02:00"
"-129.98","55.93","STEWART A","1067741","2021-12-19 03:00","2021","12","19","03:00"
"-129.98","55.93","STEWART A","1067741","2021-12-19 04:00","2021","12","19","04:00"
"-129.98","55.93","STEWART A","1067741","2021-12-19 05:00","2021","12","19","05:00"
"-129.98","55.93","STEWART A","1067741","2021-12-19 06:00","2021","12","19","06:00"
"-129.98","55.93","STEWART A","1067741","2021-12-19 07:00","2021","12","19","07:00","-8.1","","-13.4","","66","","","","3","","7","","24.1","","102.17","","","","-12","","Cloudy"
"-129.98","55.93","STEWART A","1067741","2021-12-19 08:00","2021","12","19","08:00","-8.6","","-13.4","","68","","","","2","","5","","24.1","","102.22","","","","-11","","NA"
"-129.98","55.93","STEWART A","1067741","2021-12-19 09:00","2021","12","19","09:00","-8.6","","-13.2","","70","","","","3","","6","","24.1","","102.26","","","","-12","","NA"
"-129.98","55.93","STEWART A","1067741","2021-12-19 10:00","2021","12","19","10:00","-8.0","","-13.3","","66","","","","34","","6","","24.1","","102.29","","","","-11","","Cloudy"
"-129.98","55.93","STEWART A","1067741","2021-12-19 11:00","2021","12","19","11:00","-7.7","","-13.3","","64","","","","2","","8","","24.1","","102.33","","","","-12","","NA"
"-129.98","55.93","STEWART A","1067741","2021-12-19 12:00","2021","12","19","12:00","-7.7","","-13.6","","63","","","","2","","8","","24.1","","102.36","","","","-12","","NA"
"-129.98","55.93","STEWART A","1067741","2021-12-19 13:00","2021","12","19","13:00","-7.1","","-13.5","","60","","","","5","","9","","40.2","","102.37","","","","-11","","Mostly Cloudy"
"-129.98","55.93","STEWART A","1067741","2021-12-19 14:00","2021","12","19","14:00","-7.2","","-13.6","","61","","","","3","","13","","24.1","","102.39","","","","-13","","NA"
"-129.98","55.93","STEWART A","1067741","2021-12-19 15:00","2021","12","19","15:00","-6.9","","-13.5","","60","","","","2","","4","","24.1","","102.41","","","","-9","","NA"
"-129.98","55.93","STEWART A","1067741","2021-12-19 16:00","2021","12","19","16:00","-8.4","","-13.9","","65","","","","36","","8","","24.1","","102.41","","","","-13","","Mainly Clear"
"-129.98","55.93","STEWART A","1067741","2021-12-19 17:00","2021","12","19","17:00","-8.9","","-14.0","","67","","","","36","","8","","24.1","","102.44","","","","-13","","NA"
"-129.98","55.93","STEWART A","1067741","2021-12-19 18:00","2021","12","19","18:00"
"-129.98","55.93","STEWART A","1067741","2021-12-19 19:00","2021","12","19","19:00"
"-129.98","55.93","STEWART A","1067741","2021-12-19 20:00","2021","12","19","20:00"
"-129.98","55.93","STEWART A","1067741","2021-12-19 21:00","2021","12","19","21:00"
"-129.98","55.93","STEWART A","1067741","2021-12-19 22:00","2021","12","19","22:00"
"-129.98","55.93","STEWART A","1067741","2021-12-19 23:00","2021","12","19","23:00"
"-129.98","55.93","STEWART A","1067741","2021-12-20 00:00","2021","12","20","00:00"
"-129.98","55.93","STEWART A","1067741","2021-12-20 01:00","2021","12","20","01:00"
"-129.98","55.93","STEWART A","1067741","2021-12-20 02:00","2021","12","20","02:00"
"-129.98","55.93","STEWART A","1067741","2021-12-20 03:00","2021","12","20","03:00"
"-129.98","55.93","STEWART A","1067741","2021-12-20 04:00","2021","12","20","04:00"
"-129.98","55.93","STEWART A","1067741","2021-12-20 05:00","2021","12","20","05:00"
"-129.98","55.93","STEWART A","1067741","2021-12-20 06:00","2021","12","20","06:00"
"-129.98","55.93","STEWART A","1067741","2021-12-20 07:00","2021","12","20","07:00","-9.0","","-16.4","","55","","","","36","","5","","24.1","","102.57","","","","-12","","Clear"
"-129.98","55.93","STEWART A","1067741","2021-12-20 08:00","2021","12","20","08:00","-9.6","","-14.2","","69","","","","36","","5","","24.1","","102.57","","","","-12","","NA"
"-129.98","55.93","STEWART A","1067741","2021-12-20 09:00","2021","12","20","09:00","-9.8","","-14.9","","66","","","","36","","8","","24.1","","102.58","","","","-14","","NA"
"-129.98","55.93","STEWART A","1067741","2021-12-20 10:00","2021","12","20","10:00","-9.5","","-14.8","","65","","","","36","","9","","24.1","","102.58","","","","-14","","Clear"
"-129.98","55.93","STEWART A","1067741","2021-12-20 11:00","2021","12","20","11:00","-9.4","","-14.8","","65","","","","36","","9","","24.1","","102.58","","","","-14","","NA"
"-129.98","55.93","STEWART A","1067741","2021-12-20 12:00","2021","12","20","12:00","-9.6","","-15.6","","62","","","","","","0","","24.1","","102.58","","","","","","NA"
"-129.98","55.93","STEWART A","1067741","2021-12-20 13:00","2021","12","20","13:00","-9.0","","-15.5","","60","","","","3","","11","","24.1","","102.56","","","","-14","","Clear"
"-129.98","55.93","STEWART A","1067741","2021-12-20 14:00","2021","12","20","14:00","-8.8","","-15.0","","61","","","","4","","13","","24.1","","102.51","","","","-15","","NA"
"-129.98","55.93","STEWART A","1067741","2021-12-20 15:00","2021","12","20","15:00","-9.4","","-15.4","","62","","","","36","","9","","24.1","","102.49","","","","-14","","NA"
"-129.98","55.93","STEWART A","1067741","2021-12-20 16:00","2021","12","20","16:00","-9.9","","-15.5","","64","","","","36","","9","","24.1","","102.52","","","","-15","","Mostly Cloudy"
"-129.98","55.93","STEWART A","1067741","2021-12-20 17:00","2021","12","20","17:00","-7.3","","-13.5","","61","","","","36","","9","","24.1","","102.41","","","","-12","","NA"
"-129.98","55.93","STEWART A","1067741","2021-12-20 18:00","2021","12","20","18:00"
"-129.98","55.93","STEWART A","1067741","2021-12-20 19:00","2021","12","20","19:00"
"-129.98","55.93","STEWART A","1067741","2021-12-20 20:00","2021","12","20","20:00"
"-129.98","55.93","STEWART A","1067741","2021-12-20 21:00","2021","12","20","21:00"
"-129.98","55.93","STEWART A","1067741","2021-12-20 22:00","2021","12","20","22:00"
"-129.98","55.93","STEWART A","1067741","2021-12-20 23:00","2021","12","20","23:00"
"-129.98","55.93","STEWART A","1067741","2021-12-21 00:00","2021","12","21","00:00"
"-129.98","55.93","STEWART A","1067741","2021-12-21 01:00","2021","12","21","01:00"
"-129.98","55.93","STEWART A","1067741","2021-12-21 02:00","2021","12","21","02:00"
"-129.98","55.93","STEWART A","1067741","2021-12-21 03:00","2021","12","21","03:00"
"-129.98","55.93","STEWART A","1067741","2021-12-21 04:00","2021","12","21","04:00"
"-129.98","55.93","STEWART A","1067741","2021-12-21 05:00","2021","12","21","05:00"
"-129.98","55.93","STEWART A","1067741","2021-12-21 06:00","2021","12","21","06:00"
"-129.98","55.93","STEWART A","1067741","2021-12-21 07:00","2021","12","21","07:00","-10.2","","-12.0","","86","","","","","","0","","0.8","","101.62","","","","","","Moderate Snow"
"-129.98","55.93","STEWART A","1067741","2021-12-21 08:00","2021","12","21","08:00","-9.0","","-11.3","","83","","","","36","","9","","2.0","","101.46","","","","-14","","Snow"
"-129.98","55.93","STEWART A","1067741","2021-12-21 09:00","2021","12","21","09:00","-8.9","","-11.3","","82","","","","36","","8","","2.0","","101.31","","","","-13","","Snow"
"-129.98","55.93","STEWART A","1067741","2021-12-21 10:00","2021","12","21","10:00","-8.2","","-10.3","","85","","","","36","","8","","2.0","","101.20","","","","-12","","Snow"
"-129.98","55.93","STEWART A","1067741","2021-12-21 11:00","2021","12","21","11:00","-8.3","","-10.2","","86","","","","36","","8","","1.6","","101.11","","","","-12","","Snow"
"-129.98","55.93","STEWART A","1067741","2021-12-21 12:00","2021","12","21","12:00","-9.2","","-10.8","","88","","","","36","","8","","1.6","","101.00","","","","-14","","Snow"
"-129.98","55.93","STEWART A","1067741","2021-12-21 13:00","2021","12","21","13:00","-8.7","","-10.4","","87","","","","3","","9","","1.6","","100.88","","","","-13","","Snow"
"-129.98","55.93","STEWART A","1067741","2021-12-21 14:00","2021","12","21","14:00","-8.2","","-9.9","","87","","","","4","","3","","1.6","","100.77","","","","-10","","Snow"
"-129.98","55.93","STEWART A","1067741","2021-12-21 15:00","2021","12","21","15:00","-7.6","","-9.1","","89","","","","4","","10","","1.6","","100.61","","","","-12","","Snow"
"-129.98","55.93","STEWART A","1067741","2021-12-21 16:00","2021","12","21","16:00","-7.2","","-9.2","","86","","","","35","","4","","4.8","","100.57","","","","-9","","Snow"
"-129.98","55.93","STEWART A","1067741","2021-12-21 17:00","2021","12","21","17:00","-6.9","","-9.2","","84","","","","36","","2","","4.8","","100.49","","","","-8","","Snow"
"-129.98","55.93","STEWART A","1067741","2021-12-21 18:00","2021","12","21","18:00"
"-129.98","55.93","STEWART A","1067741","2021-12-21 19:00","2021","12","21","19:00"
"-129.98","55.93","STEWART A","1067741","2021-12-21 20:00","2021","12","21","20:00"
"-129.98","55.93","STEWART A","1067741","2021-12-21 21:00","2021","12","21","21:00"
"-129.98","55.93","STEWART A","1067741","2021-12-21 22:00","2021","12","21","22:00"
"-129.98","55.93","STEWART A","1067741","2021-12-21 23:00","2021","12","21","23:00"
"-129.98","55.93","STEWART A","1067741","2021-12-22 00:00","2021","12","22","00:00"
"-129.98","55.93","STEWART A","1067741","2021-12-22 01:00","2021","12","22","01:00"
"-129.98","55.93","STEWART A","1067741","2021-12-22 02:00","2021","12","22","02:00"
"-129.98","55.93","STEWART A","1067741","2021-12-22 03:00","2021","12","22","03:00"
"-129.98","55.93","STEWART A","1067741","2021-12-22 04:00","2021","12","22","04:00"
"-129.98","55.93","STEWART A","1067741","2021-12-22 05:00","2021","12","22","05:00"
"-129.98","55.93","STEWART A","1067741","2021-12-22 06:00","2021","12","22","06:00"
"-129.98","55.93","STEWART A","1067741","2021-12-22 07:00","2021","12","22","07:00","-11.7","","-13.0","","90","","","","","","0","","24.1","","100.29","","","","","","Mainly Clear"
"-129.98","55.93","STEWART A","1067741","2021-12-22 08:00","2021","12","22","08:00","-10.2","","-11.4","","91","","","","","","0","","24.1","","100.27","","","","","","NA"
"-129.98","55.93","STEWART A","1067741","2021-12-22 09:00","2021","12","22","09:00","-9.0","","-10.2","","91","","","","","","0","","24.1","","100.27","","","","","","NA"
"-129.98","55.93","STEWART A","1067741","2021-12-22 10:00","2021","12","22","10:00","-9.0","","-10.5","","88","","","","","","0","","24.1","","100.31","","","","","","Clear"
"-129.98","55.93","STEWART A","1067741","2021-12-22 11:00","2021","12","22","11:00","-11.7","","-13.0","","90","","","","","","0","","24.1","","100.35","","","","","","NA"
"-129.98","55.93","STEWART A","1067741","2021-12-22 12:00","2021","12","22","12:00","-11.9","","-13.0","","91","","","","","","0","","24.1","","100.36","","","","","","NA"
"-129.98","55.93","STEWART A","1067741","2021-12-22 13:00","2021","12","22","13:00","-9.4","","-10.5","","92","","","","36","","3","","24.1","","100.36","","","","-11","","Clear"
"-129.98","55.93","STEWART A","1067741","2021-12-22 14:00","2021","12","22","14:00","-8.2","","-9.2","","93","","","","5","","3","","24.1","","100.37","","","","-10","","NA"
"-129.98","55.93","STEWART A","1067741","2021-12-22 15:00","2021","12","22","15:00","-5.8","","-8.6","","81","","","","4","","5","","24.1","","100.35","","","","-8","","NA"
"-129.98","55.93","STEWART A","1067741","2021-12-22 16:00","2021","12","22","16:00","-9.0","","-11.2","","84","","","","14","","3","","24.1","","100.38","","","","-11","","Clear"
"-129.98","55.93","STEWART A","1067741","2021-12-22 17:00","2021","12","22","17:00","-10.2","","-11.2","","93","","","","","","0","","24.1","","100.39","","","","","","NA"
"-129.98","55.93","STEWART A","1067741","2021-12-22 18:00","2021","12","22","18:00"
"-129.98","55.93","STEWART A","1067741","2021-12-22 19:00","2021","12","22","19:00"
"-129.98","55.93","STEWART A","1067741","2021-12-22 20:00","2021","12","22","20:00"
"-129.98","55.93","STEWART A","1067741","2021-12-22 21:00","2021","12","22","21:00"
"-129.98","55.93","STEWART A","1067741","2021-12-22 22:00","2021","12","22","22:00"
"-129.98","55.93","STEWART A","1067741","2021-12-22 23:00","2021","12","22","23:00"
"-129.98","55.93","STEWART A","1067741","2021-12-23 00:00","2021","12","23","00:00"
"-129.98","55.93","STEWART A","1067741","2021-12-23 01:00","2021","12","23","01:00"
"-129.98","55.93","STEWART A","1067741","2021-12-23 02:00","2021","12","23","02:00"
"-129.98","55.93","STEWART A","1067741","2021-12-23 03:00","2021","12","23","03:00"
"-129.98","55.93","STEWART A","1067741","2021-12-23 04:00","2021","12","23","04:00"
"-129.98","55.93","STEWART A","1067741","2021-12-23 05:00","2021","12","23","05:00"
"-129.98","55.93","STEWART A","1067741","2021-12-23 06:00","2021","12","23","06:00"
"-129.98","55.93","STEWART A","1067741","2021-12-23 07:00","2021","12","23","07:00","-11.1","","-13.5","","82","","","","","","0","","24.1","","99.96","","","","","","Cloudy"
"-129.98","55.93","STEWART A","1067741","2021-12-23 08:00","2021","12","23","08:00","-11.6","","-12.6","","92","","","","","","0","","24.1","","99.88","","","","","","NA"
"-129.98","55.93","STEWART A","1067741","2021-12-23 09:00","2021","12","23","09:00","-12.2","","-13.5","","90","","","","","","0","","24.1","","99.84","","","","","","NA"
"-129.98","55.93","STEWART A","1067741","2021-12-23 10:00","2021","12","23","10:00","-10.2","","-12.9","","81","","","","","","0","","24.1","","99.80","","","","","","Mostly Cloudy"
"-129.98","55.93","STEWART A","1067741","2021-12-23 11:00","2021","12","23","11:00","-10.2","","-12.1","","86","","","","5","","4","","24.1","","99.77","","","","-13","","NA"
"-129.98","55.93","STEWART A","1067741","2021-12-23 12:00","2021","12","23","12:00","-8.6","","-11.9","","77","","","","","","0","","24.1","","99.73","","","","","","NA"
"-129.98","55.93","STEWART A","1067741","2021-12-23 13:00","2021","12","23","13:00","-9.2","","-12.0","","80","","","","36","","3","","24.1","","99.67","","","","-11","","Mostly Cloudy"
"-129.98","55.93","STEWART A","1067741","2021-12-23 14:00","2021","12","23","14:00","-8.3","","-11.0","","81","","","","0","","1","","24.1","","99.64","","","","-9","","NA"
"-129.98","55.93","STEWART A","1067741","2021-12-23 15:00","2021","12","23","15:00","-8.1","","-10.8","","81","","","","0","","1","","24.1","","99.64","","","","-9","","NA"
"-129.98","55.93","STEWART A","1067741","2021-12-23 16:00","2021","12","23","16:00","-9.1","","-12.9","","74","","","","36","","2","","24.1","","99.66","","","","-10","","Mainly Clear"
"-129.98","55.93","STEWART A","1067741","2021-12-23 17:00","2021","12","23","17:00","-9.5","","-13.8","","71","","","","","","0","","24.1","","99.70","","","","","","NA"
"-129.98","55.93","STEWART A","1067741","2021-12-23 18:00","2021","12","23","18:00"
"-129.98","55.93","STEWART A","1067741","2021-12-23 19:00","2021","12","23","19:00"
"-129.98","55.93","STEWART A","1067741","2021-12-23 20:00","2021","12","23","20:00"
"-129.98","55.93","STEWART A","1067741","2021-12-23 21:00","2021","12","23","21:00"
"-129.98","55.93","STEWART A","1067741","2021-12-23 22:00","2021","12","23","22:00"
"-129.98","55.93","STEWART A","1067741","2021-12-23 23:00","2021","12","23","23:00"
"-129.98","55.93","STEWART A","1067741","2021-12-24 00:00","2021","12","24","00:00"
"-129.98","55.93","STEWART A","1067741","2021-12-24 01:00","2021","12","24","01:00"
"-129.98","55.93","STEWART A","1067741","2021-12-24 02:00","2021","12","24","02:00"
"-129.98","55.93","STEWART A","1067741","2021-12-24 03:00","2021","12","24","03:00"
"-129.98","55.93","STEWART A","1067741","2021-12-24 04:00","2021","12","24","04:00"
"-129.98","55.93","STEWART A","1067741","2021-12-24 05:00","2021","12","24","05:00"
"-129.98","55.93","STEWART A","1067741","2021-12-24 06:00","2021","12","24","06:00"
"-129.98","55.93","STEWART A","1067741","2021-12-24 07:00","2021","12","24","07:00","-8.4","","-18.5","","44","","","","3","","8","","24.1","","100.63","","","","-13","","Clear"
"-129.98","55.93","STEWART A","1067741","2021-12-24 08:00","2021","12","24","08:00","-7.8","","-19.5","","39","","","","1","","13","","24.1","","100.72","","","","-14","","NA"
"-129.98","55.93","STEWART A","1067741","2021-12-24 09:00","2021","12","24","09:00","-8.1","","-19.5","","40","","","","","","0","","24.1","","100.81","","","","","","NA"
"-129.98","55.93","STEWART A","1067741","2021-12-24 10:00","2021","12","24","10:00","-8.0","","-19.4","","40","","","","36","","24","","24.1","","100.89","","","","-16","","Clear"
"-129.98","55.93","STEWART A","1067741","2021-12-24 11:00","2021","12","24","11:00","-8.0","","-20.1","","38","","","","36","","13","","24.1","","100.97","","","","-14","","NA"
"-129.98","55.93","STEWART A","1067741","2021-12-24 12:00","2021","12","24","12:00","-8.2","","-19.5","","40","","","","36","","13","","24.1","","100.97","","","","-14","","NA"
"-129.98","55.93","STEWART A","1067741","2021-12-24 13:00","2021","12","24","13:00","-7.3","","-19.7","","37","","","","4","","21","","24.1","","100.99","","","","-15","","Clear"
"-129.98","55.93","STEWART A","1067741","2021-12-24 14:00","2021","12","24","14:00","-7.3","","-19.7","","37","","","","4","","16","","24.1","","101.02","","","","-14","","NA"
"-129.98","55.93","STEWART A","1067741","2021-12-24 15:00","2021","12","24","15:00","-7.5","","-20.2","","36","","","","2","","13","","24.1","","101.04","","","","-13","","NA"
"-129.98","55.93","STEWART A","1067741","2021-12-24 16:00","2021","12","24","16:00","-6.2","","-19.7","","34","","","","36","","18","","24.1","","101.09","","","","-13","","Clear"
"-129.98","55.93","STEWART A","1067741","2021-12-24 17:00","2021","12","24","17:00","-9.5","","-17.9","","51","","","","36","","11","","24.1","","101.12","","","","-15","","NA"
"-129.98","55.93","STEWART A","1067741","2021-12-24 18:00","2021","12","24","18:00"
"-129.98","55.93","STEWART A","1067741","2021-12-24 19:00","2021","12","24","19:00"
"-129.98","55.93","STEWART A","1067741","2021-12-24 20:00","2021","12","24","20:00"
"-129.98","55.93","STEWART A","1067741","2021-12-24 21:00","2021","12","24","21:00"
"-129.98","55.93","STEWART A","1067741","2021-12-24 22:00","2021","12","24","22:00"
"-129.98","55.93","STEWART A","1067741","2021-12-24 23:00","2021","12","24","23:00"
"-129.98","55.93","STEWART A","1067741","2021-12-25 00:00","2021","12","25","00:00"
"-129.98","55.93","STEWART A","1067741","2021-12-25 01:00","2021","12","25","01:00"
"-129.98","55.93","STEWART A","1067741","2021-12-25 02:00","2021","12","25","02:00"
"-129.98","55.93","STEWART A","1067741","2021-12-25 03:00","2021","12","25","03:00"
"-129.98","55.93","STEWART A","1067741","2021-12-25 04:00","2021","12","25","04:00"
"-129.98","55.93","STEWART A","1067741","2021-12-25 05:00","2021","12","25","05:00"
"-129.98","55.93","STEWART A","1067741","2021-12-25 06:00","2021","12","25","06:00"
"-129.98","55.93","STEWART A","1067741","2021-12-25 07:00","2021","12","25","07:00","-11.2","","-20.5","","46","","","","36","","15","","24.1","","101.95","","","","-18","","Clear"
"-129.98","55.93","STEWART A","1067741","2021-12-25 08:00","2021","12","25","08:00","-11.9","","-20.7","","48","","","","","","0","","24.1","","101.96","","","","","","NA"
"-129.98","55.93","STEWART A","1067741","2021-12-25 09:00","2021","12","25","09:00","-12.0","","-21.6","","45","","","","36","","9","","24.1","","101.97","","","","-17","","NA"
"-129.98","55.93","STEWART A","1067741","2021-12-25 10:00","2021","12","25","10:00","-12.6","","-21.6","","47","","","","","","0","","24.1","","101.98","","","","","","Clear"
"-129.98","55.93","STEWART A","1067741","2021-12-25 11:00","2021","12","25","11:00","-12.2","","-23.8","","38","","","","36","","9","","24.1","","102.01","","","","-17","","NA"
"-129.98","55.93","STEWART A","1067741","2021-12-25 12:00","2021","12","25","12:00","-11.7","","-23.5","","37","","","","36","","18","","24.1","","102.02","","","","-20","","NA"
"-129.98","55.93","STEWART A","1067741","2021-12-25 13:00","2021","12","25","13:00","-10.8","","-24.2","","33","","","","36","","28","","24.1","","101.97","","","","-20","","Clear"
"-129.98","55.93","STEWART A","1067741","2021-12-25 14:00","2021","12","25","14:00","-10.6","","-24.4","","32","","","","4","","19","","24.1","","101.92","","","","-18","","NA"
"-129.98","55.93","STEWART A","1067741","2021-12-25 15:00","2021","12","25","15:00","-11.0","","-24.4","","33","","","","36","","18","","24.1","","101.89","","","","-19","","NA"
"-129.98","55.93","STEWART A","1067741","2021-12-25 16:00","2021","12","25","16:00","-11.9","","-23.0","","39","","","","36","","15","","24.1","","101.89","","","","-19","","Clear"
"-129.98","55.93","STEWART A","1067741","2021-12-25 17:00","2021","12","25","17:00","-12.3","","-24.5","","36","","","","36","","18","","24.1","","101.87","","","","-20","","NA"
"-129.98","55.93","STEWART A","1067741","2021-12-25 18:00","2021","12","25","18:00"
"-129.98","55.93","STEWART A","1067741","2021-12-25 19:00","2021","12","25","19:00"
"-129.98","55.93","STEWART A","1067741","2021-12-25 20:00","2021","12","25","20:00"
"-129.98","55.93","STEWART A","1067741","2021-12-25 21:00","2021","12","25","21:00"
"-129.98","55.93","STEWART A","1067741","2021-12-25 22:00","2021","12","25","22:00"
"-129.98","55.93","STEWART A","1067741","2021-12-25 23:00","2021","12","25","23:00"
"-129.98","55.93","STEWART A","1067741","2021-12-26 00:00","2021","12","26","00:00"
"-129.98","55.93","STEWART A","1067741","2021-12-26 01:00","2021","12","26","01:00"
"-129.98","55.93","STEWART A","1067741","2021-12-26 02:00","2021","12","26","02:00"
"-129.98","55.93","STEWART A","1067741","2021-12-26 03:00","2021","12","26","03:00"
"-129.98","55.93","STEWART A","1067741","2021-12-26 04:00","2021","12","26","04:00"
"-129.98","55.93","STEWART A","1067741","2021-12-26 05:00","2021","12","26","05:00"
"-129.98","55.93","STEWART A","1067741","2021-12-26 06:00","2021","12","26","06:00"
"-129.98","55.93","STEWART A","1067741","2021-12-26 07:00","2021","12","26","07:00","-23.0","","-25.6","","80","","","","","","0","","24.1","","102.01","","","","","","Clear"
"-129.98","55.93","STEWART A","1067741","2021-12-26 08:00","2021","12","26","08:00","-23.7","","-26.2","","80","","","","36","","8","","24.1","","102.04","","","","-31","","NA"
"-129.98","55.93","STEWART A","1067741","2021-12-26 09:00","2021","12","26","09:00","-24.0","","-26.6","","79","","","","","","0","","24.1","","102.12","","","","","","NA"
"-129.98","55.93","STEWART A","1067741","2021-12-26 10:00","2021","12","26","10:00","-23.7","","-26.2","","80","","","","36","","5","","24.1","","102.17","","","","-28","","Clear"
"-129.98","55.93","STEWART A","1067741","2021-12-26 11:00","2021","12","26","11:00","-22.6","","-25.1","","80","","","","36","","5","","24.1","","102.23","","","","-27","","NA"
"-129.98","55.93","STEWART A","1067741","2021-12-26 12:00","2021","12","26","12:00","-23.5","","-26.0","","80","","","","36","","5","","24.1","","102.23","","","","-28","","NA"
"-129.98","55.93","STEWART A","1067741","2021-12-26 13:00","2021","12","26","13:00","-20.3","","-25.6","","63","","","","36","","5","","24.1","","102.24","","","","-25","","Clear"
"-129.98","55.93","STEWART A","1067741","2021-12-26 14:00","2021","12","26","14:00","-17.4","","-20.7","","76","","","","36","","4","","24.1","","102.21","","","","-21","","NA"
"-129.98","55.93","STEWART A","1067741","2021-12-26 15:00","2021","12","26","15:00","-15.9","","-21.2","","64","","","","36","","5","","24.1","","102.25","","","","-20","","NA"
"-129.98","55.93","STEWART A","1067741","2021-12-26 16:00","2021","12","26","16:00","-17.2","","-19.9","","80","","","","36","","5","","24.1","","102.30","","","","-21","","Mainly Clear"
"-129.98","55.93","STEWART A","1067741","2021-12-26 17:00","2021","12","26","17:00","-17.5","","-23.5","","60","","","","36","","5","","24.1","","102.37","","","","-21","","NA"
"-129.98","55.93","STEWART A","1067741","2021-12-26 18:00","2021","12","26","18:00"
"-129.98","55.93","STEWART A","1067741","2021-12-26 19:00","2021","12","26","19:00"
"-129.98","55.93","STEWART A","1067741","2021-12-26 20:00","2021","12","26","20:00"
"-129.98","55.93","STEWART A","1067741","2021-12-26 21:00","2021","12","26","21:00"
"-129.98","55.93","STEWART A","1067741","2021-12-26 22:00","2021","12","26","22:00"
"-129.98","55.93","STEWART A","1067741","2021-12-26 23:00","2021","12","26","23:00"
"-129.98","55.93","STEWART A","1067741","2021-12-27 00:00","2021","12","27","00:00"
"-129.98","55.93","STEWART A","1067741","2021-12-27 01:00","2021","12","27","01:00"
"-129.98","55.93","STEWART A","1067741","2021-12-27 02:00","2021","12","27","02:00"
"-129.98","55.93","STEWART A","1067741","2021-12-27 03:00","2021","12","27","03:00"
"-129.98","55.93","STEWART A","1067741","2021-12-27 04:00","2021","12","27","04:00"
"-129.98","55.93","STEWART A","1067741","2021-12-27 05:00","2021","12","27","05:00"
"-129.98","55.93","STEWART A","1067741","2021-12-27 06:00","2021","12","27","06:00"
"-129.98","55.93","STEWART A","1067741","2021-12-27 07:00","2021","12","27","07:00","-13.3","","-16.1","","80","","","","","","0","","9.7","","101.31","","","","","","Fog"
"-129.98","55.93","STEWART A","1067741","2021-12-27 08:00","2021","12","27","08:00","-14.0","","-16.7","","80","","","","","","0","","4.8","","101.21","","","","","","Snow"
"-129.98","55.93","STEWART A","1067741","2021-12-27 09:00","2021","12","27","09:00","-14.4","","-17.1","","80","","","","36","","5","","24.1","","101.11","","","","-18","","NA"
"-129.98","55.93","STEWART A","1067741","2021-12-27 10:00","2021","12","27","10:00","-15.2","","-21.3","","60","","","","36","","9","","24.1","","101.23","","","","-21","","Mainly Clear"
"-129.98","55.93","STEWART A","1067741","2021-12-27 11:00","2021","12","27","11:00","-15.5","","-18.2","","80","","","","36","","9","","24.1","","101.21","","","","-21","","NA"
"-129.98","55.93","STEWART A","1067741","2021-12-27 12:00","2021","12","27","12:00","-13.0","","-19.2","","60","","","","36","","9","","24.1","","101.25","","","","-18","","NA"
"-129.98","55.93","STEWART A","1067741","2021-12-27 13:00","2021","12","27","13:00","-11.5","","-17.8","","60","","","","36","","9","","24.1","","101.30","","","","-17","","Mainly Clear"
"-129.98","55.93","STEWART A","1067741","2021-12-27 14:00","2021","12","27","14:00","-13.9","","-21.9","","52","","","","36","","9","","24.1","","101.27","","","","-20","","NA"
"-129.98","55.93","STEWART A","1067741","2021-12-27 15:00","2021","12","27","15:00","-14.3","","-21.9","","53","","","","","","","M","24.1","","101.31","","","","","","NA"
"-129.98","55.93","STEWART A","1067741","2021-12-27 16:00","2021","12","27","16:00","-14.6","","-20.8","","60","","","","36","","9","","24.1","","101.36","","","","-20","","Mainly Clear"
"-129.98","55.93","STEWART A","1067741","2021-12-27 17:00","2021","12","27","17:00","-15.1","","-21.2","","60","","","","36","","9","","24.1","","101.38","","","","-21","","NA"
"-129.98","55.93","STEWART A","1067741","2021-12-27 18:00","2021","12","27","18:00"
"-129.98","55.93","STEWART A","1067741","2021-12-27 19:00","2021","12","27","19:00"
"-129.98","55.93","STEWART A","1067741","2021-12-27 20:00","2021","12","27","20:00"
"-129.98","55.93","STEWART A","1067741","2021-12-27 21:00","2021","12","27","21:00"
"-129.98","55.93","STEWART A","1067741","2021-12-27 22:00","2021","12","27","22:00"
"-129.98","55.93","STEWART A","1067741","2021-12-27 23:00","2021","12","27","23:00"
"-129.98","55.93","STEWART A","1067741","2021-12-28 00:00","2021","12","28","00:00"
"-129.98","55.93","STEWART A","1067741","2021-12-28 01:00","2021","12","28","01:00"
"-129.98","55.93","STEWART A","1067741","2021-12-28 02:00","2021","12","28","02:00"
"-129.98","55.93","STEWART A","1067741","2021-12-28 03:00","2021","12","28","03:00"
"-129.98","55.93","STEWART A","1067741","2021-12-28 04:00","2021","12","28","04:00"
"-129.98","55.93","STEWART A","1067741","2021-12-28 05:00","2021","12","28","05:00"
"-129.98","55.93","STEWART A","1067741","2021-12-28 06:00","2021","12","28","06:00"
"-129.98","55.93","STEWART A","1067741","2021-12-28 07:00","2021","12","28","07:00","-14.8","","-19.1","","70","","","","36","","5","","24.1","","101.28","","","","-18","","Clear"
"-129.98","55.93","STEWART A","1067741","2021-12-28 08:00","2021","12","28","08:00","-14.3","","-20.5","","60","","","","36","","9","","24.1","","101.32","","","","-20","","NA"
"-129.98","55.93","STEWART A","1067741","2021-12-28 09:00","2021","12","28","09:00","-14.1","","-20.3","","60","","","","36","","9","","24.1","","101.37","","","","-20","","NA"
"-129.98","55.93","STEWART A","1067741","2021-12-28 10:00","2021","12","28","10:00","-14.5","","-20.7","","60","","","","36","","9","","24.1","","101.42","","","","-20","","Mainly Clear"
"-129.98","55.93","STEWART A","1067741","2021-12-28 11:00","2021","12","28","11:00","-14.0","","-20.2","","60","","","","36","","9","","24.1","","101.48","","","","-20","","NA"
"-129.98","55.93","STEWART A","1067741","2021-12-28 12:00","2021","12","28","12:00","-14.5","","-21.6","","55","","","","36","","9","","24.1","","101.47","","","","-20","","NA"
"-129.98","55.93","STEWART A","1067741","2021-12-28 13:00","2021","12","28","13:00","-14.0","","-21.9","","52","","","","36","","11","","24.1","","101.53","","","","-20","","Mostly Cloudy"
"-129.98","55.93","STEWART A","1067741","2021-12-28 14:00","2021","12","28","14:00","-11.6","","-20.1","","50","","","","36","","13","","24.1","","101.57","","","","-18","","NA"
"-129.98","55.93","STEWART A","1067741","2021-12-28 15:00","2021","12","28","15:00","-12.3","","-20.3","","51","","","","","","0","","24.1","","101.66","","","","","","NA"
"-129.98","55.93","STEWART A","1067741","2021-12-28 16:00","2021","12","28","16:00","-12.4","","-19.7","","55","","","","36","","8","","24.1","","101.74","","","","-17","","Mostly Cloudy"
"-129.98","55.93","STEWART A","1067741","2021-12-28 17:00","2021","12","28","17:00","-12.3","","-18.7","","59","","","","36","","15","","24.1","","101.76","","","","-20","","NA"
"-129.98","55.93","STEWART A","1067741","2021-12-28 18:00","2021","12","28","18:00"
"-129.98","55.93","STEWART A","1067741","2021-12-28 19:00","2021","12","28","19:00"
"-129.98","55.93","STEWART A","1067741","2021-12-28 20:00","2021","12","28","20:00"
"-129.98","55.93","STEWART A","1067741","2021-12-28 21:00","2021","12","28","21:00"
"-129.98","55.93","STEWART A","1067741","2021-12-28 22:00","2021","12","28","22:00"
"-129.98","55.93","STEWART A","1067741","2021-12-28 23:00","2021","12","28","23:00"
"-129.98","55.93","STEWART A","1067741","2021-12-29 00:00","2021","12","29","00:00"
"-129.98","55.93","STEWART A","1067741","2021-12-29 01:00","2021","12","29","01:00"
"-129.98","55.93","STEWART A","1067741","2021-12-29 02:00","2021","12","29","02:00"
"-129.98","55.93","STEWART A","1067741","2021-12-29 03:00","2021","12","29","03:00"
"-129.98","55.93","STEWART A","1067741","2021-12-29 04:00","2021","12","29","04:00"
"-129.98","55.93","STEWART A","1067741","2021-12-29 05:00","2021","12","29","05:00"
"-129.98","55.93","STEWART A","1067741","2021-12-29 06:00","2021","12","29","06:00"
"-129.98","55.93","STEWART A","1067741","2021-12-29 07:00","2021","12","29","07:00","-11.8","","-17.4","","63","","","","36","","15","","19.3","","101.57","","","","-19","","Cloudy"
"-129.98","55.93","STEWART A","1067741","2021-12-29 08:00","2021","12","29","08:00","-11.8","","-16.2","","70","","","","36","","9","","19.3","","101.59","","","","-17","","NA"
"-129.98","55.93","STEWART A","1067741","2021-12-29 09:00","2021","12","29","09:00","-11.9","","-16.9","","66","","","","","","0","","24.1","","101.36","","","","","","NA"
"-129.98","55.93","STEWART A","1067741","2021-12-29 10:00","2021","12","29","10:00","-12.1","","-17.2","","65","","","","36","","18","","24.1","","101.17","","","","-20","","Cloudy"
"-129.98","55.93","STEWART A","1067741","2021-12-29 11:00","2021","12","29","11:00","-12.1","","-17.3","","65","","","","36","","18","","24.1","","101.02","","","","-20","","NA"
"-129.98","55.93","STEWART A","1067741","2021-12-29 12:00","2021","12","29","12:00","-11.6","","-17.7","","60","","","","36","","18","","24.1","","100.84","","","","-19","","NA"
"-129.98","55.93","STEWART A","1067741","2021-12-29 13:00","2021","12","29","13:00","-11.3","","-17.6","","60","","","","36","","18","","12.9","","100.74","","","","-19","","Snow"
"-129.98","55.93","STEWART A","1067741","2021-12-29 14:00","2021","12","29","14:00","-11.8","","-14.5","","80","","","","36","","18","","2.4","","100.68","","","","-20","","Snow"
"-129.98","55.93","STEWART A","1067741","2021-12-29 15:00","2021","12","29","15:00","-11.8","","-14.5","","80","","","","36","","9","","2.4","","100.54","","","","-17","","Snow"
"-129.98","55.93","STEWART A","1067741","2021-12-29 16:00","2021","12","29","16:00","-11.9","","-13.8","","86","","","","36","","18","","1.6","","100.46","","","","-20","","Snow"
"-129.98","55.93","STEWART A","1067741","2021-12-29 17:00","2021","12","29","17:00","-11.8","","-14.5","","80","","","","36","","18","","1.6","","100.43","","","","-20","","Snow"
"-129.98","55.93","STEWART A","1067741","2021-12-29 18:00","2021","12","29","18:00"
"-129.98","55.93","STEWART A","1067741","2021-12-29 19:00","2021","12","29","19:00"
"-129.98","55.93","STEWART A","1067741","2021-12-29 20:00","2021","12","29","20:00"
"-129.98","55.93","STEWART A","1067741","2021-12-29 21:00","2021","12","29","21:00"
"-129.98","55.93","STEWART A","1067741","2021-12-29 22:00","2021","12","29","22:00"
"-129.98","55.93","STEWART A","1067741","2021-12-29 23:00","2021","12","29","23:00"
"-129.98","55.93","STEWART A","1067741","2021-12-30 00:00","2021","12","30","00:00"
"-129.98","55.93","STEWART A","1067741","2021-12-30 01:00","2021","12","30","01:00"
"-129.98","55.93","STEWART A","1067741","2021-12-30 02:00","2021","12","30","02:00"
"-129.98","55.93","STEWART A","1067741","2021-12-30 03:00","2021","12","30","03:00"
"-129.98","55.93","STEWART A","1067741","2021-12-30 04:00","2021","12","30","04:00"
"-129.98","55.93","STEWART A","1067741","2021-12-30 05:00","2021","12","30","05:00"
"-129.98","55.93","STEWART A","1067741","2021-12-30 06:00","2021","12","30","06:00"
"-129.98","55.93","STEWART A","1067741","2021-12-30 07:00","2021","12","30","07:00","-17.7","","-21.4","","73","","","","","","0","","24.1","","101.12","","","","","","Clear"
"-129.98","55.93","STEWART A","1067741","2021-12-30 08:00","2021","12","30","08:00","-17.4","","-20.3","","78","","","","","","0","","24.1","","101.17","","","","","","NA"
"-129.98","55.93","STEWART A","1067741","2021-12-30 09:00","2021","12","30","09:00","-18.0","","-21.6","","74","","","","","","0","","24.1","","101.21","","","","","","NA"
"-129.98","55.93","STEWART A","1067741","2021-12-30 10:00","2021","12","30","10:00","-17.6","","-20.8","","76","","","","","","0","","24.1","","101.30","","","","","","Clear"
"-129.98","55.93","STEWART A","1067741","2021-12-30 11:00","2021","12","30","11:00","-14.8","","-17.7","","78","","","","","","0","","24.1","","101.32","","","","","","NA"
"-129.98","55.93","STEWART A","1067741","2021-12-30 12:00","2021","12","30","12:00","-13.9","","-17.8","","73","","","","","","0","","24.1","","101.32","","","","","","NA"
"-129.98","55.93","STEWART A","1067741","2021-12-30 13:00","2021","12","30","13:00","-13.4","","-16.5","","78","","","","6","","3","","24.1","","101.32","","","","-15","","Clear"
"-129.98","55.93","STEWART A","1067741","2021-12-30 14:00","2021","12","30","14:00","-10.6","","-15.1","","70","","","","5","","7","","24.1","","101.34","","","","-15","","NA"
"-129.98","55.93","STEWART A","1067741","2021-12-30 15:00","2021","12","30","15:00","-9.8","","-15.6","","63","","","","2","","8","","24.1","","101.38","","","","-14","","NA"
"-129.98","55.93","STEWART A","1067741","2021-12-30 16:00","2021","12","30","16:00","-11.0","","-15.6","","69","","","","4","","9","","24.1","","101.42","","","","-16","","Mainly Clear"
"-129.98","55.93","STEWART A","1067741","2021-12-30 17:00","2021","12","30","17:00","-11.0","","-15.5","","70","","","","","","0","","24.1","","101.44","","","","","","NA"
"-129.98","55.93","STEWART A","1067741","2021-12-30 18:00","2021","12","30","18:00"
"-129.98","55.93","STEWART A","1067741","2021-12-30 19:00","2021","12","30","19:00"
"-129.98","55.93","STEWART A","1067741","2021-12-30 20:00","2021","12","30","20:00"
"-129.98","55.93","STEWART A","1067741","2021-12-30 21:00","2021","12","30","21:00"
"-129.98","55.93","STEWART A","1067741","2021-12-30 22:00","2021","12","30","22:00"
"-129.98","55.93","STEWART A","1067741","2021-12-30 23:00","2021","12","30","23:00"
"-129.98","55.93","STEWART A","1067741","2021-12-31 00:00","2021","12","31","00:00"
"-129.98","55.93","STEWART A","1067741","2021-12-31 01:00","2021","12","31","01:00"
"-129.98","55.93","STEWART A","1067741","2021-12-31 02:00","2021","12","31","02:00"
"-129.98","55.93","STEWART A","1067741","2021-12-31 03:00","2021","12","31","03:00"
"-129.98","55.93","STEWART A","1067741","2021-12-31 04:00","2021","12","31","04:00"
"-129.98","55.93","STEWART A","1067741","2021-12-31 05:00","2021","12","31","05:00"
"-129.98","55.93","STEWART A","1067741","2021-12-31 06:00","2021","12","31","06:00"
"-129.98","55.93","STEWART A","1067741","2021-12-31 07:00","2021","12","31","07:00","-13.9","","-17.2","","77","","","","","","0","","24.1","","101.77","","","","","","Cloudy"
"-129.98","55.93","STEWART A","1067741","2021-12-31 08:00","2021","12","31","08:00","-10.9","","-15.6","","68","","","","","","0","","24.1","","101.79","","","","","","NA"
"-129.98","55.93","STEWART A","1067741","2021-12-31 09:00","2021","12","31","09:00","-10.1","","-15.1","","67","","","","36","","9","","24.1","","101.77","","","","-15","","NA"
"-129.98","55.93","STEWART A","1067741","2021-12-31 10:00","2021","12","31","10:00","-10.3","","-15.9","","64","","","","36","","9","","24.1","","101.72","","","","-15","","Cloudy"
"-129.98","55.93","STEWART A","1067741","2021-12-31 11:00","2021","12","31","11:00","-9.4","","-15.1","","63","","","","36","","9","","24.1","","101.72","","","","-14","","NA"
"-129.98","55.93","STEWART A","1067741","2021-12-31 12:00","2021","12","31","12:00","-9.9","","-14.7","","68","","","","3","","8","","9.7","","101.66","","","","-14","","Snow"
"-129.98","55.93","STEWART A","1067741","2021-12-31 13:00","2021","12","31","13:00","-10.3","","-15.3","","67","","","","36","","9","","19.3","","101.59","","","","-15","","Snow"
"-129.98","55.93","STEWART A","1067741","2021-12-31 14:00","2021","12","31","14:00","-9.9","","-12.9","","79","","","","4","","10","","9.7","","101.53","","","","-15","","Snow"
"-129.98","55.93","STEWART A","1067741","2021-12-31 15:00","2021","12","31","15:00","-10.0","","-12.8","","80","","","","3","","12","","4.8","","101.53","","","","-16","","Snow"
"-129.98","55.93","STEWART A","1067741","2021-12-31 16:00","2021","12","31","16:00","-10.1","","-12.5","","83","","","","3","","4","","4.8","","101.49","","","","-12","","Snow"
"-129.98","55.93","STEWART A","1067741","2021-12-31 17:00","2021","12","31","17:00","-10.0","","-12.4","","83","","","","4","","9","","4.8","","101.40","","","","-15","","Snow"
"-129.98","55.93","STEWART A","1067741","2021-12-31 18:00","2021","12","31","18:00"
"-129.98","55.93","STEWART A","1067741","2021-12-31 19:00","2021","12","31","19:00"
"-129.98","55.93","STEWART A","1067741","2021-12-31 20:00","2021","12","31","20:00"
"-129.98","55.93","STEWART A","1067741","2021-12-31 21:00","2021","12","31","21:00"
"-129.98","55.93","STEWART A","1067741","2021-12-31 22:00","2021","12","31","22:00"
"-129.98","55.93","STEWART A","1067741","2021-12-31 23:00","2021","12","31","23:00"
