"Longitude (x)","Latitude (y)","Station Name","Climate ID","Date/Time (LST)","Year","Month","Day","Time (LST)","Temp (°C)","Temp Flag","Dew Point Temp (°C)","Dew Point Temp Flag","Rel Hum (%)","Rel Hum Flag","Precip. Amount (mm)","Precip. Amount Flag","Wind Dir (10s deg)","Wind Dir Flag","Wind Spd (km/h)","Wind Spd Flag","Visibility (km)","Visibility Flag","Stn Press (kPa)","Stn Press Flag","Hmdx","Hmdx Flag","Wind Chill","Wind Chill Flag","Weather"
"-114.44","62.46","YELLOWKNIFE A","2204101","2018-12-01 00:00","2018","12","01","00:00","-16.9","","-19.0","","84","","","","33","","12","","2.4","","99.23","","","","-24","","Snow,Fog"
"-114.44","62.46","YELLOWKNIFE A","2204101","2018-12-01 01:00","2018","12","01","01:00","-16.2","","-18.2","","85","","","","34","","9","","8.1","","99.25","","","","-22","","Snow"
"-114.44","62.46","YELLOWKNIFE A","2204101","2018-12-01 02:00","2018","12","01","02:00","-15.7","","-17.7","","85","","","","3","","5","","9.7","","99.31","","","","-19","","Snow"
"-114.44","62.46","YELLOWKNIFE A","2204101","2018-12-01 03:00","2018","12","01","03:00","-15.5","","-17.4","","85","","","","36","","10","","4.0","","99.34","","","","-22","","Snow,Fog"
"-114.44","62.46","YELLOWKNIFE A","2204101","2018-12-01 04:00","2018","12","01","04:00","-15.1","","-17.0","","86","","","","3","","9","","6.4","","99.37","","","","-21","","Snow,Fog"
"-114.44","62.46","YELLOWKNIFE A","2204101","2018-12-01 05:00","2018","12","01","05:00","-15.5","","-17.5","","85","","","","7","","7","","6.4","","99.40","","","","-20","","Snow,Fog"
"-114.44","62.46","YELLOWKNIFE A","2204101","2018-12-01 06:00","2018","12","01","06:00","-15.4","","-17.3","","85","","","","6","","5","","9.7","","99.42","","","","-19","","Snow,Fog"
"-114.44","62.46","YELLOWKNIFE A","2204101","2018-12-01 07:00","2018","12","01","07:00","-14.9","","-16.8","","86","","","","2","","4","","6.4","","99.43","","","","-18","","Snow"
"-114.44","62.46","YELLOWKNIFE A","2204101","2018-12-01 08:00","2018","12","01","08:00","-14.7","","-16.5","","86","","","","2","","7","","3.2","","99.47","","","","-19","","Snow,Fog"
"-114.44","62.46","YELLOWKNIFE A","2204101","2018-12-01 09:00","2018","12","01","09:00","-13.8","","-15.6","","87","","","","4","","5","","1.6","","99.51","","","","-17","","Snow,Fog"
"-114.44","62.46","YELLOWKNIFE A","2204101","2018-12-01 10:00","2018","12","01","10:00","-13.6","","-15.3","","87","","","","3","","5","","1.6","","99.54","","","","-17","","Snow,Fog"
"-114.44","62.46","YELLOWKNIFE A","2204101","2018-12-01 11:00","2018","12","01","11:00","-12.8","","-14.5","","87","","","","8","","4","","4.0","","99.56","","","","-15","","Snow,Fog"
"-114.44","62.46","YELLOWKNIFE A","2204101","2018-12-01 12:00","2018","12","01","12:00","-12.4","","-14.0","","88","","","","7","","7","","4.0","","99.55","","","","-17","","Snow,Fog"
"-114.44","62.46","YELLOWKNIFE A","2204101","2018-12-01 13:00","2018","12","01","13:00","-12.1","","-13.7","","88","","","","8","","8","","4.8","","99.58","","","","-17","","Snow,Fog"
"-114.44","62.46","YELLOWKNIFE A","2204101","2018-12-01 14:00","2018","12","01","14:00","-11.5","","-13.1","","88","","","","9","","9","","4.8","","99.60","","","","-17","","Snow,Fog"
"-114.44","62.46","YELLOWKNIFE A","2204101","2018-12-01 15:00","2018","12","01","15:00","-11.4","","-12.9","","89","","","","7","","10","","9.7","","99.60","","","","-17","","Snow,Fog"
"-114.44","62.46","YELLOWKNIFE A","2204101","2018-12-01 16:00","2018","12","01","16:00","-11.3","","-12.8","","89","","","","8","","10","","9.7","","99.61","","","","-17","","Snow,Fog"
"-114.44","62.46","YELLOWKNIFE A","2204101","2018-12-01 17:00","2018","12","01","17:00","-11.1","","-12.6","","89","","","","7","","9","","9.7","","99.63","","","","-16","","Snow,Fog"
"-114.44","62.46","YELLOWKNIFE A","2204101","2018-12-01 18:00","2018","12","01","18:00","-11.0","","-12.5","","89","","","","9","","9","","9.7","","99.62","","","","-16","","Snow,Fog"
"-114.44","62.46","YELLOWKNIFE A","2204101","2018-12-01 19:00","2018","12","01","19:00","-10.9","","-12.4","","89","","","","9","","9","","16.1","","99.61","","","","-16","","Snow"
"-114.44","62.46","YELLOWKNIFE A","2204101","2018-12-01 20:00","2018","12","01","20:00","-10.8","","-12.2","","89","","","","10","","9","","24.1","","99.61","","","","-16","","Snow"
"-114.44","62.46","YELLOWKNIFE A","2204101","2018-12-01 21:00","2018","12","01","21:00","-10.6","","-12.0","","90","","","","11","","8","","16.1","","99.60","","","","-15","","Snow"
"-114.44","62.46","YELLOWKNIFE A","2204101","2018-12-01 22:00","2018","12","01","22:00","-10.5","","-11.9","","89","","","","11","","8","","16.1","","99.60","","","","-15","","Snow"
"-114.44","62.46","YELLOWKNIFE A","2204101","2018-12-01 23:00","2018","12","01","23:00","-10.4","","-11.8","","90","","","","10","","7","","9.7","","99.59","","","","-14","","Snow"
"-114.44","62.46","YELLOWKNIFE A","2204101","2018-12-02 00:00","2018","12","02","00:00","-10.2","","-11.6","","90","","","","11","","6","","9.7","","99.59","","","","-14","","Snow"
"-114.44","62.46","YELLOWKNIFE A","2204101","2018-12-02 01:00","2018","12","02","01:00","-9.5","","-10.8","","90","","","","12","","7","","16.1","","99.61","","","","-13","","Snow"
"-114.44","62.46","YELLOWKNIFE A","2204101","2018-12-02 02:00","2018","12","02","02:00","-9.4","","-10.7","","90","","","","11","","7","","16.1","","99.59","","","","-13","","Snow"
"-114.44","62.46","YELLOWKNIFE A","2204101","2018-12-02 03:00","2018","12","02","03:00","-9.3","","-10.6","","90","","","","10","","7","","8.1","","99.56","","","","-13","","Snow"
"-114.44","62.46","YELLOWKNIFE A","2204101","2018-12-02 04:00","2018","12","02","04:00","-8.9","","-10.2","","91","","","","13","","7","","4.8","","99.53","","","","-13","","Snow"
"-114.44","62.46","YELLOWKNIFE A","2204101","2018-12-02 05:00","2018","12","02","05:00","-8.8","","-10.1","","91","","","","15","","11","","6.4","","99.51","","","","-14","","Snow"
"-114.44","62.46","YELLOWKNIFE A","2204101","2018-12-02 06:00","2018","12","02","06:00","-9.2","","-10.4","","91","","","","15","","11","","24.1","","99.52","","","","-15","","Snow"
"-114.44","62.46","YELLOWKNIFE A","2204101","2018-12-02 07:00","2018","12","02","07:00","-9.1","","-10.4","","91","","","","14","","9","","24.1","","99.51","","","","-14","","Snow"
"-114.44","62.46","YELLOWKNIFE A","2204101","2018-12-02 08:00","2018","12","02","08:00","-9.1","","-10.3","","91","","","","15","","8","","24.1","","99.48","","","","-13","","Snow"
"-114.44","62.46","YELLOWKNIFE A","2204101","2018-12-02 09:00","2018","12","02","09:00","-8.8","","-10.0","","91","","","","15","","8","","24.1","","99.48","","","","-13","","Snow"
"-114.44","62.46","YELLOWKNIFE A","2204101","2018-12-02 10:00","2018","12","02","10:00","-8.7","","-9.9","","91","","","","16","","10","","24.1","","99.47","","","","-14","","Snow"
"-114.44","62.46","YELLOWKNIFE A","2204101","2018-12-02 11:00","2018","12","02","11:00","-8.5","","-9.7","","91","","","","16","","9","","24.1","","99.50","","","","-13","","Snow"
"-114.44","62.46","YELLOWKNIFE A","2204101","2018-12-02 12:00","2018","12","02","12:00","-8.2","","-9.4","","91","","","","16","","8","","24.1","","99.51","","","","-12","","Snow"
"-114.44","62.46","YELLOWKNIFE A","2204101","2018-12-02 13:00","2018","12","02","13:00","-7.9","","-9.0","","91","","","","21","","5","","24.1","","99.50","","","","-11","","Snow"
"-114.44","62.46","YELLOWKNIFE A","2204101","2018-12-02 14:00","2018","12","02","14:00","-8.9","","-10.1","","91","","","","19","","9","","1.6","","99.51","","","","-14","","Snow,Fog"
"-114.44","62.46","YELLOWKNIFE A","2204101","2018-12-02 15:00","2018","12","02","15:00","-8.9","","-10.1","","91","","","","21","","5","","1.0","","99.54","","","","-12","","Snow,Fog"
"-114.44","62.46","YELLOWKNIFE A","2204101","2018-12-02 16:00","2018","12","02","16:00","-9.8","","-11.1","","90","","","","16","","11","","0.6","","99.54","","","","-15","","Snow,Freezing Fog"
"-114.44","62.46","YELLOWKNIFE A","2204101","2018-12-02 17:00","2018","12","02","17:00","-9.8","","-11.2","","90","","","","18","","10","","0.6","","99.55","","","","-15","","Snow,Freezing Fog"
"-114.44","62.46","YELLOWKNIFE A","2204101","2018-12-02 18:00","2018","12","02","18:00","-10.3","","-11.7","","90","","","","20","","7","","0.4","","99.53","","","","-14","","Snow,Freezing Fog"
"-114.44","62.46","YELLOWKNIFE A","2204101","2018-12-02 19:00","2018","12","02","19:00","-11.3","","-12.9","","89","","","","19","","8","","0.8","","99.57","","","","-16","","Snow,Freezing Fog"
"-114.44","62.46","YELLOWKNIFE A","2204101","2018-12-02 20:00","2018","12","02","20:00","-11.2","","-12.7","","89","","","","19","","7","","0.6","","99.56","","","","-15","","Snow,Freezing Fog"
"-114.44","62.46","YELLOWKNIFE A","2204101","2018-12-02 21:00","2018","12","02","21:00","-11.7","","-13.2","","88","","","","25","","4","","0.8","","99.58","","","","-14","","Snow,Freezing Fog"
"-114.44","62.46","YELLOWKNIFE A","2204101","2018-12-02 22:00","2018","12","02","22:00","-13.0","","-14.7","","87","","","","18","","8","","1.6","","99.54","","","","-18","","Snow,Fog"
"-114.44","62.46","YELLOWKNIFE A","2204101","2018-12-02 23:00","2018","12","02","23:00","-14.0","","-15.7","","87","","","","17","","11","","8.1","","99.52","","","","-20","","Snow,Fog"
"-114.44","62.46","YELLOWKNIFE A","2204101","2018-12-03 00:00","2018","12","03","00:00","-13.5","","-15.2","","87","","","","18","","9","","24.1","","99.51","","","","-19","","Snow"
"-114.44","62.46","YELLOWKNIFE A","2204101","2018-12-03 01:00","2018","12","03","01:00","-13.1","","-14.8","","87","","","","20","","11","","24.1","","99.49","","","","-19","","NA"
"-114.44","62.46","YELLOWKNIFE A","2204101","2018-12-03 02:00","2018","12","03","02:00","-14.0","","-15.8","","87","","","","21","","7","","24.1","","99.46","","","","-19","","Mostly Cloudy"
"-114.44","62.46","YELLOWKNIFE A","2204101","2018-12-03 03:00","2018","12","03","03:00","-13.3","","-14.9","","87","","","","21","","9","","24.1","","99.40","","","","-19","","NA"
"-114.44","62.46","YELLOWKNIFE A","2204101","2018-12-03 04:00","2018","12","03","04:00","-12.5","","-14.1","","88","","","","25","","10","","12.9","","99.42","","","","-18","","Snow"
"-114.44","62.46","YELLOWKNIFE A","2204101","2018-12-03 05:00","2018","12","03","05:00","-11.5","","-13.1","","89","","","","25","","8","","24.1","","99.37","","","","-16","","Snow"
"-114.44","62.46","YELLOWKNIFE A","2204101","2018-12-03 06:00","2018","12","03","06:00","-11.6","","-13.2","","89","","","","25","","9","","24.1","","99.33","","","","-17","","NA"
"-114.44","62.46","YELLOWKNIFE A","2204101","2018-12-03 07:00","2018","12","03","07:00","-10.8","","-12.3","","89","","","","26","","13","","24.1","","99.34","","","","-17","","Snow"
"-114.44","62.46","YELLOWKNIFE A","2204101","2018-12-03 08:00","2018","12","03","08:00","-10.6","","-12.0","","89","","","","27","","12","","24.1","","99.34","","","","-17","","Snow"
"-114.44","62.46","YELLOWKNIFE A","2204101","2018-12-03 09:00","2018","12","03","09:00","-10.9","","-12.3","","89","","","","27","","12","","24.1","","99.31","","","","-17","","Snow"
"-114.44","62.46","YELLOWKNIFE A","2204101","2018-12-03 10:00","2018","12","03","10:00","-9.7","","-11.0","","90","","","","28","","12","","24.1","","99.30","","","","-16","","Snow"
"-114.44","62.46","YELLOWKNIFE A","2204101","2018-12-03 11:00","2018","12","03","11:00","-8.8","","-10.0","","91","","","","28","","16","","24.1","","99.34","","","","-16","","Snow"
"-114.44","62.46","YELLOWKNIFE A","2204101","2018-12-03 12:00","2018","12","03","12:00","-8.4","","-9.6","","91","","","","28","","13","","24.1","","99.30","","","","-14","","Snow"
"-114.44","62.46","YELLOWKNIFE A","2204101","2018-12-03 13:00","2018","12","03","13:00","-7.6","","-8.7","","92","","","","28","","13","","24.1","","99.28","","","","-13","","Snow"
"-114.44","62.46","YELLOWKNIFE A","2204101","2018-12-03 14:00","2018","12","03","14:00","-6.6","","-7.5","","93","","","","29","","14","","24.1","","99.27","","","","-12","","Snow"
"-114.44","62.46","YELLOWKNIFE A","2204101","2018-12-03 15:00","2018","12","03","15:00","-6.3","","-7.2","","93","","","","29","","13","","24.1","","99.25","","","","-12","","Snow"
"-114.44","62.46","YELLOWKNIFE A","2204101","2018-12-03 16:00","2018","12","03","16:00","-6.1","","-7.0","","93","","","","29","","14","","24.1","","99.22","","","","-12","","Snow"
"-114.44","62.46","YELLOWKNIFE A","2204101","2018-12-03 17:00","2018","12","03","17:00","-6.3","","-7.3","","93","","","","30","","13","","24.1","","99.18","","","","-12","","Snow"
"-114.44","62.46","YELLOWKNIFE A","2204101","2018-12-03 18:00","2018","12","03","18:00","-6.1","","-7.0","","93","","","","30","","11","","24.1","","99.17","","","","-11","","Snow"
"-114.44","62.46","YELLOWKNIFE A","2204101","2018-12-03 19:00","2018","12","03","19:00","-6.0","","-6.9","","93","","","","31","","7","","24.1","","99.12","","","","-9","","Snow"
"-114.44","62.46","YELLOWKNIFE A","2204101","2018-12-03 20:00","2018","12","03","20:00","-6.0","","-6.9","","93","","","","30","","8","","24.1","","99.10","","","","-10","","Snow"
"-114.44","62.46","YELLOWKNIFE A","2204101","2018-12-03 21:00","2018","12","03","21:00","-6.0","","-6.9","","93","","","","30","","8","","24.1","","99.08","","","","-10","","Snow"
"-114.44","62.46","YELLOWKNIFE A","2204101","2018-12-03 22:00","2018","12","03","22:00","-6.1","","-7.0","","93","","","","34","","5","","16.1","","99.03","","","","-9","","Snow"
"-114.44","62.46","YELLOWKNIFE A","2204101","2018-12-03 23:00","2018","12","03","23:00","-6.2","","-7.1","","93","","","","34","","5","","16.1","","99.01","","","","-9","","Snow,Snow Grains"
"-114.44","62.46","YELLOWKNIFE A","2204101","2018-12-04 00:00","2018","12","04","00:00","-6.1","","-7.0","","93","","","","36","","4","","16.1","","98.99","","","","-8","","Snow"
"-114.44","62.46","YELLOWKNIFE A","2204101","2018-12-04 01:00","2018","12","04","01:00","-6.3","","-7.3","","93","","","","3","","5","","24.1","","98.97","","","","-9","","Snow"
"-114.44","62.46","YELLOWKNIFE A","2204101","2018-12-04 02:00","2018","12","04","02:00","-6.7","","-7.7","","93","","","","4","","14","","24.1","","98.99","","","","-12","","Cloudy"
"-114.44","62.46","YELLOWKNIFE A","2204101","2018-12-04 03:00","2018","12","04","03:00","-7.7","","-8.8","","92","","","","4","","15","","24.1","","99.02","","","","-14","","NA"
"-114.44","62.46","YELLOWKNIFE A","2204101","2018-12-04 04:00","2018","12","04","04:00","-9.0","","-10.2","","91","","","","4","","17","","24.1","","99.02","","","","-16","","NA"
"-114.44","62.46","YELLOWKNIFE A","2204101","2018-12-04 05:00","2018","12","04","05:00","-11.2","","-12.7","","89","","","","3","","14","","24.1","","99.06","","","","-18","","Mostly Cloudy"
"-114.44","62.46","YELLOWKNIFE A","2204101","2018-12-04 06:00","2018","12","04","06:00","-13.4","","-15.1","","87","","","","4","","18","","24.1","","99.14","","","","-22","","NA"
"-114.44","62.46","YELLOWKNIFE A","2204101","2018-12-04 07:00","2018","12","04","07:00","-15.1","","-16.9","","86","","","","4","","18","","24.1","","99.21","","","","-24","","NA"
"-114.44","62.46","YELLOWKNIFE A","2204101","2018-12-04 08:00","2018","12","04","08:00","-16.6","","-18.6","","84","","","","3","","17","","24.1","","99.31","","","","-25","","Snow"
"-114.44","62.46","YELLOWKNIFE A","2204101","2018-12-04 09:00","2018","12","04","09:00","-17.3","","-19.4","","84","","","","3","","17","","24.1","","99.43","","","","-26","","Snow"
"-114.44","62.46","YELLOWKNIFE A","2204101","2018-12-04 10:00","2018","12","04","10:00","-17.4","","-19.6","","84","","","","3","","14","","24.1","","99.51","","","","-26","","Snow"
"-114.44","62.46","YELLOWKNIFE A","2204101","2018-12-04 11:00","2018","12","04","11:00","-18.0","","-20.1","","84","","","","3","","10","","24.1","","99.57","","","","-25","","Snow"
"-114.44","62.46","YELLOWKNIFE A","2204101","2018-12-04 12:00","2018","12","04","12:00","-17.5","","-19.6","","84","","","","3","","17","","24.1","","99.62","","","","-27","","Snow"
"-114.44","62.46","YELLOWKNIFE A","2204101","2018-12-04 13:00","2018","12","04","13:00","-17.8","","-20.0","","83","","","","2","","15","","24.1","","99.67","","","","-26","","Snow"
"-114.44","62.46","YELLOWKNIFE A","2204101","2018-12-04 14:00","2018","12","04","14:00","-18.4","","-20.6","","83","","","","2","","10","","24.1","","99.76","","","","-25","","Snow"
"-114.44","62.46","YELLOWKNIFE A","2204101","2018-12-04 15:00","2018","12","04","15:00","-19.4","","-21.8","","82","","","","35","","9","","24.1","","99.85","","","","-26","","Snow"
"-114.44","62.46","YELLOWKNIFE A","2204101","2018-12-04 16:00","2018","12","04","16:00","-20.3","","-22.7","","81","","","","1","","10","","24.1","","99.89","","","","-28","","Snow"
"-114.44","62.46","YELLOWKNIFE A","2204101","2018-12-04 17:00","2018","12","04","17:00","-19.7","","-22.0","","82","","","","2","","9","","24.1","","99.97","","","","-26","","Snow"
"-114.44","62.46","YELLOWKNIFE A","2204101","2018-12-04 18:00","2018","12","04","18:00","-19.9","","-22.3","","82","","","","3","","12","","24.1","","99.99","","","","-28","","Snow"
"-114.44","62.46","YELLOWKNIFE A","2204101","2018-12-04 19:00","2018","12","04","19:00","-20.3","","-22.7","","82","","","","5","","9","","24.1","","100.00","","","","-27","","Snow"
"-114.44","62.46","YELLOWKNIFE A","2204101","2018-12-04 20:00","2018","12","04","20:00","-21.4","","-23.9","","81","","","","4","","7","","24.1","","100.06","","","","-27","","Snow"
"-114.44","62.46","YELLOWKNIFE A","2204101","2018-12-04 21:00","2018","12","04","21:00","-21.4","","-23.9","","81","","","","9","","9","","24.1","","100.03","","","","-28","","Snow"
"-114.44","62.46","YELLOWKNIFE A","2204101","2018-12-04 22:00","2018","12","04","22:00","-22.3","","-24.8","","80","","","","8","","5","","24.1","","100.02","","","","-27","","NA"
"-114.44","62.46","YELLOWKNIFE A","2204101","2018-12-04 23:00","2018","12","04","23:00","-22.0","","-24.5","","81","","","","9","","7","","24.1","","100.00","","","","-28","","Mainly Clear"
"-114.44","62.46","YELLOWKNIFE A","2204101","2018-12-05 00:00","2018","12","05","00:00","-22.6","","-25.1","","81","","","","7","","4","","24.1","","99.98","","","","-26","","NA"
"-114.44","62.46","YELLOWKNIFE A","2204101","2018-12-05 01:00","2018","12","05","01:00","-21.5","","-23.9","","81","","","","11","","5","","24.1","","99.96","","","","-26","","NA"
"-114.44","62.46","YELLOWKNIFE A","2204101","2018-12-05 02:00","2018","12","05","02:00","-21.5","","-24.1","","80","","","","6","","5","","16.1","","99.97","","","","-26","","Snow"
"-114.44","62.46","YELLOWKNIFE A","2204101","2018-12-05 03:00","2018","12","05","03:00","-20.9","","-23.3","","81","","","","5","","5","","16.1","","99.89","","","","-25","","Snow"
"-114.44","62.46","YELLOWKNIFE A","2204101","2018-12-05 04:00","2018","12","05","04:00","-19.9","","-22.2","","82","","","","7","","3","","16.1","","99.88","","","","-22","","Snow"
"-114.44","62.46","YELLOWKNIFE A","2204101","2018-12-05 05:00","2018","12","05","05:00","-19.5","","-21.8","","82","","","","1","","3","","3.2","","99.83","","","","-22","","Snow"
"-114.44","62.46","YELLOWKNIFE A","2204101","2018-12-05 06:00","2018","12","05","06:00","-19.0","","-21.3","","82","","","","2","","7","","24.1","","99.76","","","","-24","","Snow"
"-114.44","62.46","YELLOWKNIFE A","2204101","2018-12-05 07:00","2018","12","05","07:00","-20.8","","-23.1","","82","","","","36","","2","","24.1","","99.71","","","","-23","","Snow"
"-114.44","62.46","YELLOWKNIFE A","2204101","2018-12-05 08:00","2018","12","05","08:00","-21.6","","-24.0","","82","","","","30","","5","","16.1","","99.71","","","","-26","","Snow"
"-114.44","62.46","YELLOWKNIFE A","2204101","2018-12-05 09:00","2018","12","05","09:00","-20.8","","-23.1","","82","","","","35","","6","","1.2","","99.67","","","","-26","","Snow,Fog"
"-114.44","62.46","YELLOWKNIFE A","2204101","2018-12-05 10:00","2018","12","05","10:00","-19.7","","-22.1","","82","","","","2","","4","","9.7","","99.65","","","","-23","","Snow,Fog"
"-114.44","62.46","YELLOWKNIFE A","2204101","2018-12-05 11:00","2018","12","05","11:00","-18.0","","-20.2","","83","","","","34","","5","","16.1","","99.64","","","","-22","","Snow,Fog"
"-114.44","62.46","YELLOWKNIFE A","2204101","2018-12-05 12:00","2018","12","05","12:00","-16.9","","-18.9","","85","","","","36","","1","","1.6","","99.61","","","","-18","","Snow,Fog"
"-114.44","62.46","YELLOWKNIFE A","2204101","2018-12-05 13:00","2018","12","05","13:00","-17.6","","-19.7","","84","","","","24","","6","","12.9","","99.61","","","","-22","","Snow,Fog"
"-114.44","62.46","YELLOWKNIFE A","2204101","2018-12-05 14:00","2018","12","05","14:00","-17.5","","-19.7","","84","","","","16","","6","","0.8","","99.57","","","","-22","","Snow,Freezing Fog"
"-114.44","62.46","YELLOWKNIFE A","2204101","2018-12-05 15:00","2018","12","05","15:00","-17.2","","-19.4","","84","","","","36","","2","","0.8","","99.53","","","","-19","","Snow,Freezing Fog"
"-114.44","62.46","YELLOWKNIFE A","2204101","2018-12-05 16:00","2018","12","05","16:00","-17.2","","-19.3","","84","","","","36","","3","","2.4","","99.50","","","","-20","","Snow,Fog"
"-114.44","62.46","YELLOWKNIFE A","2204101","2018-12-05 17:00","2018","12","05","17:00","-17.8","","-20.0","","83","","","","16","","4","","2.4","","99.45","","","","-21","","Snow,Fog"
"-114.44","62.46","YELLOWKNIFE A","2204101","2018-12-05 18:00","2018","12","05","18:00","-17.1","","-19.2","","84","","","","14","","5","","0.8","","99.41","","","","-21","","Snow,Freezing Fog"
"-114.44","62.46","YELLOWKNIFE A","2204101","2018-12-05 19:00","2018","12","05","19:00","-15.7","","-17.7","","85","","","","10","","6","","1.6","","99.38","","","","-20","","Snow,Fog"
"-114.44","62.46","YELLOWKNIFE A","2204101","2018-12-05 20:00","2018","12","05","20:00","-15.0","","-16.9","","86","","","","12","","8","","1.6","","99.31","","","","-20","","Snow,Fog"
"-114.44","62.46","YELLOWKNIFE A","2204101","2018-12-05 21:00","2018","12","05","21:00","-13.8","","-15.6","","87","","","","17","","7","","1.6","","99.26","","","","-18","","Snow,Fog"
"-114.44","62.46","YELLOWKNIFE A","2204101","2018-12-05 22:00","2018","12","05","22:00","-13.0","","-14.7","","87","","","","15","","7","","0.8","","99.22","","","","-18","","Snow,Freezing Fog"
"-114.44","62.46","YELLOWKNIFE A","2204101","2018-12-05 23:00","2018","12","05","23:00","-13.6","","-15.3","","87","","","","11","","10","","0.8","","99.18","","","","-20","","Snow,Freezing Fog"
"-114.44","62.46","YELLOWKNIFE A","2204101","2018-12-06 00:00","2018","12","06","00:00","-13.2","","-14.9","","87","","","","11","","7","","0.8","","99.15","","","","-18","","Snow,Freezing Fog"
"-114.44","62.46","YELLOWKNIFE A","2204101","2018-12-06 01:00","2018","12","06","01:00","-11.6","","-13.2","","88","","","","16","","8","","0.8","","99.09","","","","-16","","Snow,Freezing Fog"
"-114.44","62.46","YELLOWKNIFE A","2204101","2018-12-06 02:00","2018","12","06","02:00","-10.7","","-12.2","","89","","","","17","","6","","0.8","","99.06","","","","-14","","Snow,Freezing Fog"
"-114.44","62.46","YELLOWKNIFE A","2204101","2018-12-06 03:00","2018","12","06","03:00","-9.5","","-10.8","","90","","","","20","","14","","3.2","","98.98","","","","-16","","Snow"
"-114.44","62.46","YELLOWKNIFE A","2204101","2018-12-06 04:00","2018","12","06","04:00","-9.7","","-11.0","","90","","","","19","","12","","6.4","","98.92","","","","-16","","Snow"
"-114.44","62.46","YELLOWKNIFE A","2204101","2018-12-06 05:00","2018","12","06","05:00","-9.8","","-11.2","","90","","","","20","","9","","24.1","","98.87","","","","-15","","Snow"
"-114.44","62.46","YELLOWKNIFE A","2204101","2018-12-06 06:00","2018","12","06","06:00","-10.8","","-12.2","","89","","","","20","","11","","24.1","","98.79","","","","-17","","NA"
"-114.44","62.46","YELLOWKNIFE A","2204101","2018-12-06 07:00","2018","12","06","07:00","-11.0","","-12.5","","89","","","","21","","9","","24.1","","98.76","","","","-16","","Snow"
"-114.44","62.46","YELLOWKNIFE A","2204101","2018-12-06 08:00","2018","12","06","08:00","-11.4","","-12.9","","89","","","","23","","9","","9.7","","98.70","","","","-17","","Snow"
"-114.44","62.46","YELLOWKNIFE A","2204101","2018-12-06 09:00","2018","12","06","09:00","-12.0","","-13.6","","88","","","","22","","14","","9.7","","98.66","","","","-19","","Snow"
"-114.44","62.46","YELLOWKNIFE A","2204101","2018-12-06 10:00","2018","12","06","10:00","-12.2","","-13.8","","88","","","","23","","9","","24.1","","98.67","","","","-17","","Snow"
"-114.44","62.46","YELLOWKNIFE A","2204101","2018-12-06 11:00","2018","12","06","11:00","-11.5","","-13.0","","89","","","","22","","8","","24.1","","98.64","","","","-16","","Snow"
"-114.44","62.46","YELLOWKNIFE A","2204101","2018-12-06 12:00","2018","12","06","12:00","-11.4","","-12.9","","89","","","","26","","5","","24.1","","98.64","","","","-15","","Snow"
"-114.44","62.46","YELLOWKNIFE A","2204101","2018-12-06 13:00","2018","12","06","13:00","-11.3","","-12.8","","89","","","","28","","5","","24.1","","98.65","","","","-14","","Snow"
"-114.44","62.46","YELLOWKNIFE A","2204101","2018-12-06 14:00","2018","12","06","14:00","-11.1","","-12.6","","89","","","","36","","3","","24.1","","98.65","","","","-13","","Snow"
"-114.44","62.46","YELLOWKNIFE A","2204101","2018-12-06 15:00","2018","12","06","15:00","-13.6","","-15.3","","87","","","","36","","2","","24.1","","98.64","","","","-15","","NA"
"-114.44","62.46","YELLOWKNIFE A","2204101","2018-12-06 16:00","2018","12","06","16:00","-15.2","","-17.1","","86","","","","36","","2","","24.1","","98.68","","","","-17","","NA"
"-114.44","62.46","YELLOWKNIFE A","2204101","2018-12-06 17:00","2018","12","06","17:00","-15.7","","-17.7","","85","","","","8","","6","","24.1","","98.64","","","","-20","","Mainly Clear"
"-114.44","62.46","YELLOWKNIFE A","2204101","2018-12-06 18:00","2018","12","06","18:00","-16.4","","-18.5","","84","","","","13","","7","","24.1","","98.60","","","","-21","","NA"
"-114.44","62.46","YELLOWKNIFE A","2204101","2018-12-06 19:00","2018","12","06","19:00","-13.6","","-15.3","","87","","","","10","","10","","0.8","","98.55","","","","-20","","Freezing Fog"
"-114.44","62.46","YELLOWKNIFE A","2204101","2018-12-06 20:00","2018","12","06","20:00","-13.7","","-15.4","","87","","","","10","","10","","1.6","","98.55","","","","-20","","Fog"
"-114.44","62.46","YELLOWKNIFE A","2204101","2018-12-06 21:00","2018","12","06","21:00","-13.6","","-15.3","","87","","","","10","","8","","1.6","","98.56","","","","-19","","Snow,Fog"
"-114.44","62.46","YELLOWKNIFE A","2204101","2018-12-06 22:00","2018","12","06","22:00","-13.3","","-15.1","","87","","","","8","","13","","1.6","","98.54","","","","-20","","Snow,Fog"
"-114.44","62.46","YELLOWKNIFE A","2204101","2018-12-06 23:00","2018","12","06","23:00","-13.3","","-15.0","","87","","","","6","","13","","1.2","","98.51","","","","-20","","Snow,Fog"
"-114.44","62.46","YELLOWKNIFE A","2204101","2018-12-07 00:00","2018","12","07","00:00","-14.7","","-16.6","","86","","","","7","","11","","24.1","","98.47","","","","-21","","Snow"
"-114.44","62.46","YELLOWKNIFE A","2204101","2018-12-07 01:00","2018","12","07","01:00","-15.2","","-17.1","","86","","","","10","","10","","24.1","","98.46","","","","-21","","NA"
"-114.44","62.46","YELLOWKNIFE A","2204101","2018-12-07 02:00","2018","12","07","02:00","-15.0","","-16.9","","86","","","","10","","8","","16.1","","98.46","","","","-20","","Snow"
"-114.44","62.46","YELLOWKNIFE A","2204101","2018-12-07 03:00","2018","12","07","03:00","-14.6","","-16.4","","86","","","","11","","13","","16.1","","98.42","","","","-22","","Snow"
"-114.44","62.46","YELLOWKNIFE A","2204101","2018-12-07 04:00","2018","12","07","04:00","-14.8","","-16.7","","86","","","","7","","11","","3.2","","98.41","","","","-21","","Snow,Fog"
"-114.44","62.46","YELLOWKNIFE A","2204101","2018-12-07 05:00","2018","12","07","05:00","-15.2","","-17.1","","85","","","","9","","11","","6.4","","98.36","","","","-22","","Snow,Fog"
"-114.44","62.46","YELLOWKNIFE A","2204101","2018-12-07 06:00","2018","12","07","06:00","-17.0","","-19.0","","84","","","","11","","13","","24.1","","98.32","","","","-25","","Snow"
"-114.44","62.46","YELLOWKNIFE A","2204101","2018-12-07 07:00","2018","12","07","07:00","-15.1","","-17.1","","85","","","","13","","5","","24.1","","98.34","","","","-19","","Snow"
"-114.44","62.46","YELLOWKNIFE A","2204101","2018-12-07 08:00","2018","12","07","08:00","-16.9","","-18.9","","85","","","","13","","11","","24.1","","98.27","","","","-24","","Snow"
"-114.44","62.46","YELLOWKNIFE A","2204101","2018-12-07 09:00","2018","12","07","09:00","-16.4","","-18.5","","84","","","","15","","9","","24.1","","98.34","","","","-22","","Snow"
"-114.44","62.46","YELLOWKNIFE A","2204101","2018-12-07 10:00","2018","12","07","10:00","-17.2","","-19.3","","84","","","","13","","8","","24.1","","98.37","","","","-23","","Snow"
"-114.44","62.46","YELLOWKNIFE A","2204101","2018-12-07 11:00","2018","12","07","11:00","-16.7","","-18.8","","85","","","","8","","4","","24.1","","98.36","","","","-20","","Mostly Cloudy"
"-114.44","62.46","YELLOWKNIFE A","2204101","2018-12-07 12:00","2018","12","07","12:00","-15.6","","-17.4","","86","","","","16","","14","","24.1","","98.28","","","","-23","","NA"
"-114.44","62.46","YELLOWKNIFE A","2204101","2018-12-07 13:00","2018","12","07","13:00","-15.6","","-17.6","","85","","","","18","","6","","24.1","","98.33","","","","-20","","NA"
"-114.44","62.46","YELLOWKNIFE A","2204101","2018-12-07 14:00","2018","12","07","14:00","-16.0","","-18.0","","85","","","","18","","7","","24.1","","98.32","","","","-21","","Snow"
"-114.44","62.46","YELLOWKNIFE A","2204101","2018-12-07 15:00","2018","12","07","15:00","-16.9","","-19.0","","84","","","","13","","7","","24.1","","98.29","","","","-22","","NA"
"-114.44","62.46","YELLOWKNIFE A","2204101","2018-12-07 16:00","2018","12","07","16:00","-17.0","","-19.1","","84","","","","12","","5","","24.1","","98.32","","","","-21","","NA"
"-114.44","62.46","YELLOWKNIFE A","2204101","2018-12-07 17:00","2018","12","07","17:00","-17.7","","-19.8","","83","","","","10","","7","","24.1","","98.36","","","","-23","","Mainly Clear"
"-114.44","62.46","YELLOWKNIFE A","2204101","2018-12-07 18:00","2018","12","07","18:00","-17.9","","-20.0","","84","","","","10","","4","","24.1","","98.40","","","","-21","","Snow"
"-114.44","62.46","YELLOWKNIFE A","2204101","2018-12-07 19:00","2018","12","07","19:00","-18.3","","-20.5","","83","","","","8","","5","","16.1","","98.39","","","","-22","","Snow"
"-114.44","62.46","YELLOWKNIFE A","2204101","2018-12-07 20:00","2018","12","07","20:00","-17.3","","-19.5","","84","","","","4","","5","","24.1","","98.42","","","","-21","","Snow"
"-114.44","62.46","YELLOWKNIFE A","2204101","2018-12-07 21:00","2018","12","07","21:00","-16.8","","-18.9","","84","","","","8","","7","","24.1","","98.41","","","","-22","","Snow"
"-114.44","62.46","YELLOWKNIFE A","2204101","2018-12-07 22:00","2018","12","07","22:00","-16.8","","-18.9","","84","","","","3","","7","","24.1","","98.43","","","","-22","","Snow"
"-114.44","62.46","YELLOWKNIFE A","2204101","2018-12-07 23:00","2018","12","07","23:00","-16.2","","-18.2","","85","","","","8","","9","","24.1","","98.44","","","","-22","","Snow"
"-114.44","62.46","YELLOWKNIFE A","2204101","2018-12-08 00:00","2018","12","08","00:00","-16.1","","-18.1","","85","","","","7","","10","","24.1","","98.39","","","","-23","","NA"
"-114.44","62.46","YELLOWKNIFE A","2204101","2018-12-08 01:00","2018","12","08","01:00","-15.9","","-17.9","","85","","","","10","","11","","24.1","","98.37","","","","-23","","NA"
"-114.44","62.46","YELLOWKNIFE A","2204101","2018-12-08 02:00","2018","12","08","02:00","-15.3","","-17.2","","86","","","","14","","10","","24.1","","98.40","","","","-22","","Mostly Cloudy"
"-114.44","62.46","YELLOWKNIFE A","2204101","2018-12-08 03:00","2018","12","08","03:00","-15.2","","-17.1","","86","","","","10","","17","","24.1","","98.32","","","","-24","","NA"
"-114.44","62.46","YELLOWKNIFE A","2204101","2018-12-08 04:00","2018","12","08","04:00","-14.5","","-16.3","","86","","","","9","","15","","24.1","","98.34","","","","-22","","NA"
"-114.44","62.46","YELLOWKNIFE A","2204101","2018-12-08 05:00","2018","12","08","05:00","-13.2","","-14.9","","87","","","","11","","23","","24.1","","98.25","","","","-23","","Cloudy"
"-114.44","62.46","YELLOWKNIFE A","2204101","2018-12-08 06:00","2018","12","08","06:00","-12.7","","-14.3","","88","","","","11","","18","","24.1","","98.21","","","","-21","","NA"
"-114.44","62.46","YELLOWKNIFE A","2204101","2018-12-08 07:00","2018","12","08","07:00","-12.7","","-14.3","","88","","","","11","","21","","24.1","","98.09","","","","-21","","NA"
"-114.44","62.46","YELLOWKNIFE A","2204101","2018-12-08 08:00","2018","12","08","08:00","-12.7","","-14.3","","88","","","","11","","18","","24.1","","98.02","","","","-21","","Snow"
"-114.44","62.46","YELLOWKNIFE A","2204101","2018-12-08 09:00","2018","12","08","09:00","-12.7","","-14.4","","88","","","","11","","21","","24.1","","97.94","","","","-21","","Snow"
"-114.44","62.46","YELLOWKNIFE A","2204101","2018-12-08 10:00","2018","12","08","10:00","-12.7","","-14.4","","88","","","","11","","18","","24.1","","97.94","","","","-21","","NA"
"-114.44","62.46","YELLOWKNIFE A","2204101","2018-12-08 11:00","2018","12","08","11:00","-12.7","","-14.3","","88","","","","11","","15","","24.1","","97.94","","","","-20","","Mostly Cloudy"
"-114.44","62.46","YELLOWKNIFE A","2204101","2018-12-08 12:00","2018","12","08","12:00","-11.8","","-13.3","","88","","","","13","","16","","24.1","","97.89","","","","-19","","NA"
"-114.44","62.46","YELLOWKNIFE A","2204101","2018-12-08 13:00","2018","12","08","13:00","-11.7","","-13.2","","88","","","","13","","19","","24.1","","97.80","","","","-20","","NA"
"-114.44","62.46","YELLOWKNIFE A","2204101","2018-12-08 14:00","2018","12","08","14:00","-11.0","","-12.5","","89","","","","14","","17","","24.1","","97.78","","","","-18","","Mostly Cloudy"
"-114.44","62.46","YELLOWKNIFE A","2204101","2018-12-08 15:00","2018","12","08","15:00","-10.5","","-11.9","","89","","","","14","","17","","24.1","","97.76","","","","-18","","NA"
"-114.44","62.46","YELLOWKNIFE A","2204101","2018-12-08 16:00","2018","12","08","16:00","-10.5","","-12.0","","89","","","","14","","16","","24.1","","97.69","","","","-18","","NA"
"-114.44","62.46","YELLOWKNIFE A","2204101","2018-12-08 17:00","2018","12","08","17:00","-11.7","","-13.3","","88","","","","15","","14","","24.1","","97.69","","","","-19","","Mainly Clear"
"-114.44","62.46","YELLOWKNIFE A","2204101","2018-12-08 18:00","2018","12","08","18:00","-12.4","","-14.1","","88","","","","15","","14","","24.1","","97.69","","","","-19","","NA"
"-114.44","62.46","YELLOWKNIFE A","2204101","2018-12-08 19:00","2018","12","08","19:00","-11.8","","-13.3","","89","","","","17","","13","","24.1","","97.71","","","","-18","","Snow"
"-114.44","62.46","YELLOWKNIFE A","2204101","2018-12-08 20:00","2018","12","08","20:00","-11.7","","-13.2","","89","","","","18","","4","","24.1","","97.66","","","","-14","","Snow"
"-114.44","62.46","YELLOWKNIFE A","2204101","2018-12-08 21:00","2018","12","08","21:00","-11.7","","-13.3","","88","","","","17","","13","","24.1","","97.69","","","","-18","","NA"
"-114.44","62.46","YELLOWKNIFE A","2204101","2018-12-08 22:00","2018","12","08","22:00","-10.6","","-12.1","","89","","","","19","","11","","24.1","","97.70","","","","-16","","NA"
"-114.44","62.46","YELLOWKNIFE A","2204101","2018-12-08 23:00","2018","12","08","23:00","-9.2","","-10.5","","90","","","","23","","12","","24.1","","97.77","","","","-15","","Clear"
"-114.44","62.46","YELLOWKNIFE A","2204101","2018-12-09 00:00","2018","12","09","00:00","-8.3","","-9.5","","91","","","","23","","12","","24.1","","97.82","","","","-14","","NA"
"-114.44","62.46","YELLOWKNIFE A","2204101","2018-12-09 01:00","2018","12","09","01:00","-7.3","","-8.4","","92","","","","24","","13","","24.1","","97.87","","","","-13","","NA"
"-114.44","62.46","YELLOWKNIFE A","2204101","2018-12-09 02:00","2018","12","09","02:00","-7.1","","-8.1","","92","","","","24","","12","","24.1","","97.92","","","","-12","","Clear"
"-114.44","62.46","YELLOWKNIFE A","2204101","2018-12-09 03:00","2018","12","09","03:00","-7.9","","-9.1","","92","","","","24","","11","","24.1","","98.00","","","","-13","","NA"
"-114.44","62.46","YELLOWKNIFE A","2204101","2018-12-09 04:00","2018","12","09","04:00","-7.1","","-8.1","","92","","","","26","","15","","24.1","","98.07","","","","-13","","NA"
"-114.44","62.46","YELLOWKNIFE A","2204101","2018-12-09 05:00","2018","12","09","05:00","-8.6","","-9.7","","92","","","","22","","8","","24.1","","98.08","","","","-13","","Clear"
"-114.44","62.46","YELLOWKNIFE A","2204101","2018-12-09 06:00","2018","12","09","06:00","-8.2","","-9.4","","92","","","","20","","5","","24.1","","98.09","","","","-11","","NA"
"-114.44","62.46","YELLOWKNIFE A","2204101","2018-12-09 07:00","2018","12","09","07:00","-9.4","","-10.8","","90","","","","19","","11","","24.1","","98.07","","","","-15","","NA"
"-114.44","62.46","YELLOWKNIFE A","2204101","2018-12-09 08:00","2018","12","09","08:00","-10.9","","-12.3","","89","","","","18","","6","","24.1","","98.08","","","","-15","","Clear"
"-114.44","62.46","YELLOWKNIFE A","2204101","2018-12-09 09:00","2018","12","09","09:00","-9.9","","-11.2","","90","","","","18","","7","","24.1","","98.12","","","","-14","","NA"
"-114.44","62.46","YELLOWKNIFE A","2204101","2018-12-09 10:00","2018","12","09","10:00","-11.6","","-13.1","","88","","","","15","","12","","24.1","","98.10","","","","-18","","NA"
"-114.44","62.46","YELLOWKNIFE A","2204101","2018-12-09 11:00","2018","12","09","11:00","-9.4","","-10.7","","90","","","","16","","15","","24.1","","98.09","","","","-16","","Mostly Cloudy"
"-114.44","62.46","YELLOWKNIFE A","2204101","2018-12-09 12:00","2018","12","09","12:00","-9.1","","-10.3","","91","","","","16","","15","","24.1","","98.04","","","","-16","","NA"
"-114.44","62.46","YELLOWKNIFE A","2204101","2018-12-09 13:00","2018","12","09","13:00","-7.5","","-8.6","","92","","","","15","","18","","24.1","","98.00","","","","-14","","NA"
"-114.44","62.46","YELLOWKNIFE A","2204101","2018-12-09 14:00","2018","12","09","14:00","-6.7","","-7.7","","93","","","","15","","19","","24.1","","97.92","","","","-14","","Mostly Cloudy"
"-114.44","62.46","YELLOWKNIFE A","2204101","2018-12-09 15:00","2018","12","09","15:00","-7.5","","-8.6","","92","","","","16","","20","","24.1","","97.92","","","","-15","","NA"
"-114.44","62.46","YELLOWKNIFE A","2204101","2018-12-09 16:00","2018","12","09","16:00","-6.8","","-7.8","","93","","","","14","","20","","24.1","","97.84","","","","-14","","NA"
"-114.44","62.46","YELLOWKNIFE A","2204101","2018-12-09 17:00","2018","12","09","17:00","-7.1","","-8.1","","92","","","","14","","22","","24.1","","97.70","","","","-15","","Mostly Cloudy"
"-114.44","62.46","YELLOWKNIFE A","2204101","2018-12-09 18:00","2018","12","09","18:00","-6.4","","-7.4","","93","","","","16","","28","","24.1","","97.65","","","","-15","","NA"
"-114.44","62.46","YELLOWKNIFE A","2204101","2018-12-09 19:00","2018","12","09","19:00","-5.6","","-6.5","","94","","","","16","","30","","24.1","","97.53","","","","-14","","NA"
"-114.44","62.46","YELLOWKNIFE A","2204101","2018-12-09 20:00","2018","12","09","20:00","-6.6","","-7.7","","92","","","","16","","21","","24.1","","97.47","","","","-14","","Mainly Clear"
"-114.44","62.46","YELLOWKNIFE A","2204101","2018-12-09 21:00","2018","12","09","21:00","-5.3","","-6.5","","92","","","","16","","27","","24.1","","97.44","","","","-13","","NA"
"-114.44","62.46","YELLOWKNIFE A","2204101","2018-12-09 22:00","2018","12","09","22:00","-6.0","","-7.2","","91","","","","15","","30","","24.1","","97.33","","","","-14","","NA"
"-114.44","62.46","YELLOWKNIFE A","2204101","2018-12-09 23:00","2018","12","09","23:00","-6.5","","-8.0","","89","","","","15","","32","","24.1","","97.23","","","","-15","","Mainly Clear"
"-114.44","62.46","YELLOWKNIFE A","2204101","2018-12-10 00:00","2018","12","10","00:00","-5.5","","-7.0","","89","","","","15","","28","","24.1","","97.18","","","","-13","","NA"
"-114.44","62.46","YELLOWKNIFE A","2204101","2018-12-10 01:00","2018","12","10","01:00","-5.0","","-6.6","","88","","","","16","","26","","24.1","","97.11","","","","-12","","NA"
"-114.44","62.46","YELLOWKNIFE A","2204101","2018-12-10 02:00","2018","12","10","02:00","-4.4","","-6.3","","86","","","","17","","18","","24.1","","97.07","","","","-10","","Mostly Cloudy"
"-114.44","62.46","YELLOWKNIFE A","2204101","2018-12-10 03:00","2018","12","10","03:00","-3.4","","-5.3","","87","","","","17","","18","","24.1","","97.02","","","","-9","","NA"
"-114.44","62.46","YELLOWKNIFE A","2204101","2018-12-10 04:00","2018","12","10","04:00","-3.0","","-4.5","","89","","","","18","","17","","24.1","","96.98","","","","-9","","NA"
"-114.44","62.46","YELLOWKNIFE A","2204101","2018-12-10 05:00","2018","12","10","05:00","-2.4","","-4.0","","89","","","","17","","22","","24.1","","96.93","","","","-9","","Mostly Cloudy"
"-114.44","62.46","YELLOWKNIFE A","2204101","2018-12-10 06:00","2018","12","10","06:00","-2.4","","-3.7","","90","","","","18","","19","","24.1","","96.89","","","","-8","","NA"
"-114.44","62.46","YELLOWKNIFE A","2204101","2018-12-10 07:00","2018","12","10","07:00","-2.7","","-4.0","","91","","","","17","","21","","24.1","","96.90","","","","-9","","NA"
"-114.44","62.46","YELLOWKNIFE A","2204101","2018-12-10 08:00","2018","12","10","08:00","-3.7","","-4.8","","92","","","","18","","19","","24.1","","96.86","","","","-10","","Mainly Clear"
"-114.44","62.46","YELLOWKNIFE A","2204101","2018-12-10 09:00","2018","12","10","09:00","-4.8","","-6.0","","92","","","","17","","20","","24.1","","96.82","","","","-11","","NA"
"-114.44","62.46","YELLOWKNIFE A","2204101","2018-12-10 10:00","2018","12","10","10:00","-6.1","","-7.2","","92","","","","17","","19","","24.1","","96.84","","","","-13","","NA"
"-114.44","62.46","YELLOWKNIFE A","2204101","2018-12-10 11:00","2018","12","10","11:00","-4.6","","-5.9","","90","","","","17","","20","","24.1","","96.81","","","","-11","","Clear"
"-114.44","62.46","YELLOWKNIFE A","2204101","2018-12-10 12:00","2018","12","10","12:00","-4.1","","-5.8","","88","","","","17","","19","","24.1","","96.77","","","","-10","","NA"
"-114.44","62.46","YELLOWKNIFE A","2204101","2018-12-10 13:00","2018","12","10","13:00","-3.1","","-5.5","","84","","","","19","","17","","24.1","","96.76","","","","-9","","NA"
"-114.44","62.46","YELLOWKNIFE A","2204101","2018-12-10 14:00","2018","12","10","14:00","-3.7","","-5.8","","85","","","","20","","10","","24.1","","96.81","","","","-8","","Clear"
"-114.44","62.46","YELLOWKNIFE A","2204101","2018-12-10 15:00","2018","12","10","15:00","-4.8","","-6.2","","90","","","","18","","9","","24.1","","96.84","","","","-9","","NA"
"-114.44","62.46","YELLOWKNIFE A","2204101","2018-12-10 16:00","2018","12","10","16:00","-4.7","","-7.1","","84","","","","19","","11","","24.1","","96.87","","","","-9","","NA"
"-114.44","62.46","YELLOWKNIFE A","2204101","2018-12-10 17:00","2018","12","10","17:00","-5.0","","-6.8","","87","","","","21","","8","","24.1","","96.91","","","","-9","","Clear"
"-114.44","62.46","YELLOWKNIFE A","2204101","2018-12-10 18:00","2018","12","10","18:00","-5.4","","-7.1","","88","","","","22","","10","","24.1","","96.91","","","","-10","","NA"
"-114.44","62.46","YELLOWKNIFE A","2204101","2018-12-10 19:00","2018","12","10","19:00","-5.8","","-7.3","","89","","","","19","","12","","24.1","","96.91","","","","-11","","NA"
"-114.44","62.46","YELLOWKNIFE A","2204101","2018-12-10 20:00","2018","12","10","20:00","-7.7","","-8.7","","92","","","","19","","10","","24.1","","96.98","","","","-13","","Clear"
"-114.44","62.46","YELLOWKNIFE A","2204101","2018-12-10 21:00","2018","12","10","21:00","-7.5","","-8.8","","90","","","","17","","10","","24.1","","96.97","","","","-12","","NA"
"-114.44","62.46","YELLOWKNIFE A","2204101","2018-12-10 22:00","2018","12","10","22:00","-6.9","","-8.2","","91","","","","19","","13","","24.1","","96.98","","","","-12","","NA"
"-114.44","62.46","YELLOWKNIFE A","2204101","2018-12-10 23:00","2018","12","10","23:00","-7.5","","-8.4","","93","","","","21","","8","","24.1","","97.03","","","","-12","","Clear"
"-114.44","62.46","YELLOWKNIFE A","2204101","2018-12-11 00:00","2018","12","11","00:00","-10.8","","-11.8","","92","","","","21","","5","","24.1","","97.02","","","","-14","","NA"
"-114.44","62.46","YELLOWKNIFE A","2204101","2018-12-11 01:00","2018","12","11","01:00","-12.5","","-13.8","","90","","","","16","","8","","24.1","","97.04","","","","-17","","NA"
"-114.44","62.46","YELLOWKNIFE A","2204101","2018-12-11 02:00","2018","12","11","02:00","-12.3","","-14.2","","86","","","","20","","7","","24.1","","97.05","","","","-17","","Clear"
"-114.44","62.46","YELLOWKNIFE A","2204101","2018-12-11 03:00","2018","12","11","03:00","-12.7","","-14.3","","88","","","","25","","5","","24.1","","97.03","","","","-16","","NA"
"-114.44","62.46","YELLOWKNIFE A","2204101","2018-12-11 04:00","2018","12","11","04:00","-15.0","","-16.8","","86","","","","9","","5","","6.4","","96.99","","","","-19","","Fog"
"-114.44","62.46","YELLOWKNIFE A","2204101","2018-12-11 05:00","2018","12","11","05:00","-13.7","","-15.3","","88","","","","12","","10","","2.4","","96.90","","","","-20","","Fog"
"-114.44","62.46","YELLOWKNIFE A","2204101","2018-12-11 06:00","2018","12","11","06:00","-13.5","","-15.2","","87","","","","13","","10","","0.8","","96.82","","","","-19","","Freezing Fog"
"-114.44","62.46","YELLOWKNIFE A","2204101","2018-12-11 07:00","2018","12","11","07:00","-12.8","","-14.4","","88","","","","12","","9","","24.1","","96.77","","","","-18","","NA"
"-114.44","62.46","YELLOWKNIFE A","2204101","2018-12-11 08:00","2018","12","11","08:00","-12.3","","-13.8","","88","","","","12","","10","","24.1","","96.71","","","","-18","","Clear"
"-114.44","62.46","YELLOWKNIFE A","2204101","2018-12-11 09:00","2018","12","11","09:00","-14.1","","-15.8","","87","","","","9","","14","","24.1","","96.61","","","","-22","","NA"
"-114.44","62.46","YELLOWKNIFE A","2204101","2018-12-11 10:00","2018","12","11","10:00","-12.1","","-13.6","","89","","","","12","","12","","24.1","","96.56","","","","-18","","NA"
"-114.44","62.46","YELLOWKNIFE A","2204101","2018-12-11 11:00","2018","12","11","11:00","-9.6","","-10.9","","90","","","","12","","17","","24.1","","96.48","","","","-17","","Mostly Cloudy"
"-114.44","62.46","YELLOWKNIFE A","2204101","2018-12-11 12:00","2018","12","11","12:00","-8.2","","-9.3","","92","","","","11","","19","","24.1","","96.34","","","","-15","","NA"
"-114.44","62.46","YELLOWKNIFE A","2204101","2018-12-11 13:00","2018","12","11","13:00","-7.1","","-8.2","","92","","","","12","","26","","24.1","","96.19","","","","-15","","NA"
"-114.44","62.46","YELLOWKNIFE A","2204101","2018-12-11 14:00","2018","12","11","14:00","-7.4","","-8.5","","92","","","","12","","25","","24.1","","96.07","","","","-15","","Mostly Cloudy"
"-114.44","62.46","YELLOWKNIFE A","2204101","2018-12-11 15:00","2018","12","11","15:00","-7.4","","-8.5","","92","","","","13","","23","","24.1","","96.02","","","","-15","","NA"
"-114.44","62.46","YELLOWKNIFE A","2204101","2018-12-11 16:00","2018","12","11","16:00","-7.4","","-8.7","","91","","","","13","","24","","24.1","","95.90","","","","-15","","NA"
"-114.44","62.46","YELLOWKNIFE A","2204101","2018-12-11 17:00","2018","12","11","17:00","-6.1","","-8.0","","87","","","","13","","23","","24.1","","95.86","","","","-13","","Cloudy"
"-114.44","62.46","YELLOWKNIFE A","2204101","2018-12-11 18:00","2018","12","11","18:00","-5.2","","-7.5","","84","","","","13","","21","","16.1","","95.78","","","","-12","","NA"
"-114.44","62.46","YELLOWKNIFE A","2204101","2018-12-11 19:00","2018","12","11","19:00","-4.7","","-5.8","","92","","","","13","","25","","1.6","","95.65","","","","-12","","Snow,Blowing Snow"
"-114.44","62.46","YELLOWKNIFE A","2204101","2018-12-11 20:00","2018","12","11","20:00","-4.3","","-5.5","","92","","","","13","","24","","12.9","","95.56","","","","-11","","Snow,Blowing Snow"
"-114.44","62.46","YELLOWKNIFE A","2204101","2018-12-11 21:00","2018","12","11","21:00","-3.6","","-5.6","","86","","","","12","","19","","24.1","","95.51","","","","-10","","Snow"
"-114.44","62.46","YELLOWKNIFE A","2204101","2018-12-11 22:00","2018","12","11","22:00","-3.6","","-6.2","","82","","","","14","","25","","24.1","","95.43","","","","-11","","Snow"
"-114.44","62.46","YELLOWKNIFE A","2204101","2018-12-11 23:00","2018","12","11","23:00","-4.3","","-6.6","","84","","","","13","","22","","24.1","","95.38","","","","-11","","Snow"
"-114.44","62.46","YELLOWKNIFE A","2204101","2018-12-12 00:00","2018","12","12","00:00","-4.3","","-6.5","","85","","","","14","","25","","24.1","","95.37","","","","-11","","Snow"
"-114.44","62.46","YELLOWKNIFE A","2204101","2018-12-12 01:00","2018","12","12","01:00","-4.6","","-6.6","","86","","","","14","","23","","24.1","","95.36","","","","-12","","Snow"
"-114.44","62.46","YELLOWKNIFE A","2204101","2018-12-12 02:00","2018","12","12","02:00","-4.9","","-6.7","","87","","","","12","","21","","24.1","","95.31","","","","-12","","Snow"
"-114.44","62.46","YELLOWKNIFE A","2204101","2018-12-12 03:00","2018","12","12","03:00","-5.3","","-7.0","","88","","","","13","","16","","24.1","","95.30","","","","-11","","Snow"
"-114.44","62.46","YELLOWKNIFE A","2204101","2018-12-12 04:00","2018","12","12","04:00","-5.9","","-7.2","","91","","","","13","","16","","24.1","","95.27","","","","-12","","Snow"
"-114.44","62.46","YELLOWKNIFE A","2204101","2018-12-12 05:00","2018","12","12","05:00","-6.2","","-7.4","","91","","","","14","","10","","24.1","","95.26","","","","-11","","Snow"
"-114.44","62.46","YELLOWKNIFE A","2204101","2018-12-12 06:00","2018","12","12","06:00","-5.7","","-6.8","","92","","","","13","","13","","24.1","","95.31","","","","-11","","Snow"
"-114.44","62.46","YELLOWKNIFE A","2204101","2018-12-12 07:00","2018","12","12","07:00","-6.4","","-7.2","","94","","","","17","","8","","24.1","","95.30","","","","-10","","Snow"
"-114.44","62.46","YELLOWKNIFE A","2204101","2018-12-12 08:00","2018","12","12","08:00","-6.8","","-7.5","","94","","","","19","","5","","16.1","","95.37","","","","-9","","Cloudy"
"-114.44","62.46","YELLOWKNIFE A","2204101","2018-12-12 09:00","2018","12","12","09:00","-7.1","","-8.0","","94","","","","25","","8","","12.9","","95.41","","","","-11","","Snow"
"-114.44","62.46","YELLOWKNIFE A","2204101","2018-12-12 10:00","2018","12","12","10:00","-7.6","","-8.5","","94","","","","28","","12","","8.1","","95.45","","","","-13","","Snow,Fog"
"-114.44","62.46","YELLOWKNIFE A","2204101","2018-12-12 11:00","2018","12","12","11:00","-6.7","","-7.7","","93","","","","27","","8","","8.1","","95.52","","","","-11","","Snow,Fog"
"-114.44","62.46","YELLOWKNIFE A","2204101","2018-12-12 12:00","2018","12","12","12:00","-6.1","","-7.1","","92","","","","27","","21","","12.9","","95.60","","","","-13","","NA"
"-114.44","62.46","YELLOWKNIFE A","2204101","2018-12-12 13:00","2018","12","12","13:00","-8.4","","-9.8","","90","","","","28","","24","","16.1","","95.69","","","","-17","","NA"
"-114.44","62.46","YELLOWKNIFE A","2204101","2018-12-12 14:00","2018","12","12","14:00","-9.6","","-11.4","","87","","","","27","","21","","6.4","","95.78","","","","-18","","Snow,Blowing Snow"
"-114.44","62.46","YELLOWKNIFE A","2204101","2018-12-12 15:00","2018","12","12","15:00","-10.6","","-12.7","","85","","","","27","","18","","4.0","","95.89","","","","-18","","Snow,Fog,Blowing Snow"
"-114.44","62.46","YELLOWKNIFE A","2204101","2018-12-12 16:00","2018","12","12","16:00","-11.2","","-13.4","","84","","","","27","","21","","3.2","","96.01","","","","-20","","Snow,Fog,Blowing Snow"
"-114.44","62.46","YELLOWKNIFE A","2204101","2018-12-12 17:00","2018","12","12","17:00","-11.7","","-14.1","","83","","","","27","","23","","12.9","","96.12","","","","-21","","Snow,Blowing Snow"
"-114.44","62.46","YELLOWKNIFE A","2204101","2018-12-12 18:00","2018","12","12","18:00","-12.0","","-14.4","","82","","","","27","","22","","12.9","","96.17","","","","-21","","Snow,Blowing Snow"
"-114.44","62.46","YELLOWKNIFE A","2204101","2018-12-12 19:00","2018","12","12","19:00","-12.4","","-14.9","","82","","","","28","","24","","12.9","","96.22","","","","-22","","Snow,Blowing Snow"
"-114.44","62.46","YELLOWKNIFE A","2204101","2018-12-12 20:00","2018","12","12","20:00","-13.2","","-15.7","","82","","","","28","","23","","12.9","","96.30","","","","-23","","Snow,Blowing Snow"
"-114.44","62.46","YELLOWKNIFE A","2204101","2018-12-12 21:00","2018","12","12","21:00","-13.9","","-16.4","","82","","","","28","","18","","12.9","","96.34","","","","-22","","Snow,Blowing Snow"
"-114.44","62.46","YELLOWKNIFE A","2204101","2018-12-12 22:00","2018","12","12","22:00","-15.2","","-17.6","","83","","","","27","","14","","16.1","","96.36","","","","-23","","Blowing Snow"
"-114.44","62.46","YELLOWKNIFE A","2204101","2018-12-12 23:00","2018","12","12","23:00","-16.3","","-18.6","","83","","","","26","","16","","24.1","","96.42","","","","-25","","Blowing Snow"
"-114.44","62.46","YELLOWKNIFE A","2204101","2018-12-13 00:00","2018","12","13","00:00","-17.2","","-19.7","","81","","","","27","","17","","24.1","","96.45","","","","-26","","NA"
"-114.44","62.46","YELLOWKNIFE A","2204101","2018-12-13 01:00","2018","12","13","01:00","-17.8","","-20.4","","81","","","","27","","17","","24.1","","96.47","","","","-27","","NA"
"-114.44","62.46","YELLOWKNIFE A","2204101","2018-12-13 02:00","2018","12","13","02:00","-18.7","","-21.2","","81","","","","28","","14","","24.1","","96.51","","","","-27","","Clear"
"-114.44","62.46","YELLOWKNIFE A","2204101","2018-12-13 03:00","2018","12","13","03:00","-19.0","","-21.4","","81","","","","27","","14","","24.1","","96.61","","","","-28","","NA"
"-114.44","62.46","YELLOWKNIFE A","2204101","2018-12-13 04:00","2018","12","13","04:00","-19.6","","-21.9","","82","","","","27","","15","","24.1","","96.66","","","","-29","","NA"
"-114.44","62.46","YELLOWKNIFE A","2204101","2018-12-13 05:00","2018","12","13","05:00","-20.1","","-22.4","","82","","","","27","","14","","24.1","","96.64","","","","-29","","Clear"
"-114.44","62.46","YELLOWKNIFE A","2204101","2018-12-13 06:00","2018","12","13","06:00","-19.9","","-22.4","","81","","","","29","","14","","24.1","","96.65","","","","-29","","Snow"
"-114.44","62.46","YELLOWKNIFE A","2204101","2018-12-13 07:00","2018","12","13","07:00","-20.7","","-23.1","","81","","","","26","","11","","24.1","","96.66","","","","-28","","NA"
"-114.44","62.46","YELLOWKNIFE A","2204101","2018-12-13 08:00","2018","12","13","08:00","-21.4","","-23.8","","81","","","","27","","11","","24.1","","96.68","","","","-29","","Mainly Clear"
"-114.44","62.46","YELLOWKNIFE A","2204101","2018-12-13 09:00","2018","12","13","09:00","-21.9","","-24.3","","81","","","","27","","10","","24.1","","96.78","","","","-29","","Snow"
"-114.44","62.46","YELLOWKNIFE A","2204101","2018-12-13 10:00","2018","12","13","10:00","-22.0","","-24.4","","81","","","","28","","15","","24.1","","96.83","","","","-32","","NA"
"-114.44","62.46","YELLOWKNIFE A","2204101","2018-12-13 11:00","2018","12","13","11:00","-22.1","","-24.6","","80","","","","27","","13","","24.1","","96.91","","","","-31","","Clear"
"-114.44","62.46","YELLOWKNIFE A","2204101","2018-12-13 12:00","2018","12","13","12:00","-21.5","","-24.2","","80","","","","29","","18","","24.1","","96.96","","","","-32","","NA"
"-114.44","62.46","YELLOWKNIFE A","2204101","2018-12-13 13:00","2018","12","13","13:00","-21.5","","-24.3","","79","","","","29","","17","","24.1","","97.01","","","","-32","","NA"
"-114.44","62.46","YELLOWKNIFE A","2204101","2018-12-13 14:00","2018","12","13","14:00","-21.7","","-24.5","","78","","","","28","","19","","24.1","","97.09","","","","-32","","Mainly Clear"
"-114.44","62.46","YELLOWKNIFE A","2204101","2018-12-13 15:00","2018","12","13","15:00","-22.4","","-25.3","","78","","","","29","","16","","24.1","","97.16","","","","-32","","NA"
"-114.44","62.46","YELLOWKNIFE A","2204101","2018-12-13 16:00","2018","12","13","16:00","-22.8","","-25.6","","78","","","","29","","16","","24.1","","97.23","","","","-33","","NA"
"-114.44","62.46","YELLOWKNIFE A","2204101","2018-12-13 17:00","2018","12","13","17:00","-23.2","","-26.0","","79","","","","28","","14","","24.1","","97.29","","","","-33","","Clear"
"-114.44","62.46","YELLOWKNIFE A","2204101","2018-12-13 18:00","2018","12","13","18:00","-23.8","","-26.4","","79","","","","27","","12","","24.1","","97.34","","","","-33","","NA"
"-114.44","62.46","YELLOWKNIFE A","2204101","2018-12-13 19:00","2018","12","13","19:00","-24.3","","-27.0","","79","","","","26","","13","","24.1","","97.42","","","","-34","","NA"
"-114.44","62.46","YELLOWKNIFE A","2204101","2018-12-13 20:00","2018","12","13","20:00","-24.4","","-27.1","","79","","","","26","","12","","24.1","","97.52","","","","-33","","Clear"
"-114.44","62.46","YELLOWKNIFE A","2204101","2018-12-13 21:00","2018","12","13","21:00","-24.5","","-27.3","","78","","","","26","","13","","24.1","","97.56","","","","-34","","NA"
"-114.44","62.46","YELLOWKNIFE A","2204101","2018-12-13 22:00","2018","12","13","22:00","-24.9","","-27.7","","78","","","","27","","12","","24.1","","97.63","","","","-34","","NA"
"-114.44","62.46","YELLOWKNIFE A","2204101","2018-12-13 23:00","2018","12","13","23:00","-26.3","","-29.0","","78","","","","26","","10","","24.1","","97.65","","","","-35","","Clear"
"-114.44","62.46","YELLOWKNIFE A","2204101","2018-12-14 00:00","2018","12","14","00:00","-26.5","","-29.2","","78","","","","26","","11","","24.1","","97.70","","","","-35","","NA"
"-114.44","62.46","YELLOWKNIFE A","2204101","2018-12-14 01:00","2018","12","14","01:00","-27.0","","-29.8","","78","","","","27","","11","","24.1","","97.73","","","","-36","","NA"
"-114.44","62.46","YELLOWKNIFE A","2204101","2018-12-14 02:00","2018","12","14","02:00","-27.0","","-29.7","","78","","","","26","","13","","24.1","","97.81","","","","-37","","Clear"
"-114.44","62.46","YELLOWKNIFE A","2204101","2018-12-14 03:00","2018","12","14","03:00","-27.8","","-30.5","","78","","","","30","","9","","24.1","","97.86","","","","-36","","NA"
"-114.44","62.46","YELLOWKNIFE A","2204101","2018-12-14 04:00","2018","12","14","04:00","-27.6","","-30.3","","78","","","","29","","10","","24.1","","97.92","","","","-36","","NA"
"-114.44","62.46","YELLOWKNIFE A","2204101","2018-12-14 05:00","2018","12","14","05:00","-27.5","","-30.2","","78","","","","32","","10","","24.1","","97.93","","","","-36","","Clear"
"-114.44","62.46","YELLOWKNIFE A","2204101","2018-12-14 06:00","2018","12","14","06:00","-27.7","","-30.4","","78","","","","26","","5","","6.4","","97.98","","","","-33","","Fog"
"-114.44","62.46","YELLOWKNIFE A","2204101","2018-12-14 07:00","2018","12","14","07:00","-28.3","","-31.0","","79","","","","24","","9","","24.1","","98.00","","","","-37","","NA"
"-114.44","62.46","YELLOWKNIFE A","2204101","2018-12-14 08:00","2018","12","14","08:00","-29.3","","-32.3","","76","","","","27","","5","","24.1","","98.00","","","","-35","","Clear"
"-114.44","62.46","YELLOWKNIFE A","2204101","2018-12-14 09:00","2018","12","14","09:00","-29.6","","-32.6","","75","","","","19","","3","","24.1","","98.02","","","","-33","","NA"
"-114.44","62.46","YELLOWKNIFE A","2204101","2018-12-14 10:00","2018","12","14","10:00","-29.8","","-32.8","","75","","","","25","","6","","24.1","","98.05","","","","-36","","NA"
"-114.44","62.46","YELLOWKNIFE A","2204101","2018-12-14 11:00","2018","12","14","11:00","-30.2","","-33.1","","76","","","","2","","4","","24.1","","98.06","","","","-35","","Clear"
"-114.44","62.46","YELLOWKNIFE A","2204101","2018-12-14 12:00","2018","12","14","12:00","-29.4","","-32.5","","76","","","","5","","7","","24.1","","98.06","","","","-37","","NA"
"-114.44","62.46","YELLOWKNIFE A","2204101","2018-12-14 13:00","2018","12","14","13:00","-29.3","","-32.3","","75","","","","4","","8","","24.1","","98.00","","","","-37","","NA"
"-114.44","62.46","YELLOWKNIFE A","2204101","2018-12-14 14:00","2018","12","14","14:00","-28.1","","-31.1","","76","","","","10","","4","","24.1","","98.08","","","","-32","","Mostly Cloudy"
"-114.44","62.46","YELLOWKNIFE A","2204101","2018-12-14 15:00","2018","12","14","15:00","-28.8","","-31.9","","75","","","","5","","3","","24.1","","98.09","","","","-32","","NA"
"-114.44","62.46","YELLOWKNIFE A","2204101","2018-12-14 16:00","2018","12","14","16:00","-29.0","","-32.0","","75","","","","5","","12","","24.1","","98.07","","","","-39","","NA"
"-114.44","62.46","YELLOWKNIFE A","2204101","2018-12-14 17:00","2018","12","14","17:00","-28.5","","-31.5","","76","","","","7","","14","","24.1","","98.04","","","","-39","","Mostly Cloudy"
"-114.44","62.46","YELLOWKNIFE A","2204101","2018-12-14 18:00","2018","12","14","18:00","-27.9","","-30.9","","76","","","","5","","5","","24.1","","98.02","","","","-33","","NA"
"-114.44","62.46","YELLOWKNIFE A","2204101","2018-12-14 19:00","2018","12","14","19:00","-27.7","","-30.6","","76","","","","6","","6","","24.1","","97.98","","","","-34","","NA"
"-114.44","62.46","YELLOWKNIFE A","2204101","2018-12-14 20:00","2018","12","14","20:00","-27.0","","-29.9","","77","","","","3","","8","","24.1","","97.98","","","","-34","","Mostly Cloudy"
"-114.44","62.46","YELLOWKNIFE A","2204101","2018-12-14 21:00","2018","12","14","21:00","-26.5","","-29.4","","77","","","","3","","10","","24.1","","97.96","","","","-35","","NA"
"-114.44","62.46","YELLOWKNIFE A","2204101","2018-12-14 22:00","2018","12","14","22:00","-26.4","","-29.4","","77","","","","6","","9","","24.1","","97.95","","","","-34","","NA"
"-114.44","62.46","YELLOWKNIFE A","2204101","2018-12-14 23:00","2018","12","14","23:00","-26.9","","-29.9","","76","","","","35","","6","","24.1","","97.96","","","","-33","","Mostly Cloudy"
"-114.44","62.46","YELLOWKNIFE A","2204101","2018-12-15 00:00","2018","12","15","00:00","-26.4","","-29.4","","77","","","","4","","15","","24.1","","97.98","","","","-37","","Snow"
"-114.44","62.46","YELLOWKNIFE A","2204101","2018-12-15 01:00","2018","12","15","01:00","-26.3","","-29.2","","77","","","","2","","14","","24.1","","97.92","","","","-36","","Snow"
"-114.44","62.46","YELLOWKNIFE A","2204101","2018-12-15 02:00","2018","12","15","02:00","-25.8","","-28.8","","77","","","","2","","11","","24.1","","97.93","","","","-35","","Snow"
"-114.44","62.46","YELLOWKNIFE A","2204101","2018-12-15 03:00","2018","12","15","03:00","-25.4","","-28.3","","77","","","","1","","9","","24.1","","97.95","","","","-33","","Snow"
"-114.44","62.46","YELLOWKNIFE A","2204101","2018-12-15 04:00","2018","12","15","04:00","-25.1","","-28.1","","77","","","","36","","7","","24.1","","98.01","","","","-32","","NA"
"-114.44","62.46","YELLOWKNIFE A","2204101","2018-12-15 05:00","2018","12","15","05:00","-24.6","","-27.6","","77","","","","36","","12","","24.1","","98.01","","","","-34","","Snow"
"-114.44","62.46","YELLOWKNIFE A","2204101","2018-12-15 06:00","2018","12","15","06:00","-24.8","","-27.9","","76","","","","36","","11","","24.1","","98.03","","","","-33","","Snow"
"-114.44","62.46","YELLOWKNIFE A","2204101","2018-12-15 07:00","2018","12","15","07:00","-24.4","","-27.5","","76","","","","35","","15","","24.1","","98.10","","","","-35","","Snow"
"-114.44","62.46","YELLOWKNIFE A","2204101","2018-12-15 08:00","2018","12","15","08:00","-24.4","","-27.5","","76","","","","35","","15","","24.1","","98.16","","","","-35","","Snow"
"-114.44","62.46","YELLOWKNIFE A","2204101","2018-12-15 09:00","2018","12","15","09:00","-24.3","","-27.5","","76","","","","34","","17","","24.1","","98.20","","","","-35","","Snow"
"-114.44","62.46","YELLOWKNIFE A","2204101","2018-12-15 10:00","2018","12","15","10:00","-24.1","","-27.3","","75","","","","35","","14","","24.1","","98.30","","","","-34","","Snow"
"-114.44","62.46","YELLOWKNIFE A","2204101","2018-12-15 11:00","2018","12","15","11:00","-23.8","","-27.0","","75","","","","34","","14","","24.1","","98.40","","","","-33","","Snow"
"-114.44","62.46","YELLOWKNIFE A","2204101","2018-12-15 12:00","2018","12","15","12:00","-23.8","","-27.0","","75","","","","32","","12","","24.1","","98.46","","","","-33","","NA"
"-114.44","62.46","YELLOWKNIFE A","2204101","2018-12-15 13:00","2018","12","15","13:00","-23.2","","-26.4","","75","","","","32","","17","","24.1","","98.53","","","","-34","","NA"
"-114.44","62.46","YELLOWKNIFE A","2204101","2018-12-15 14:00","2018","12","15","14:00","-23.3","","-26.5","","76","","","","31","","14","","24.1","","98.65","","","","-33","","Mostly Cloudy"
"-114.44","62.46","YELLOWKNIFE A","2204101","2018-12-15 15:00","2018","12","15","15:00","-23.3","","-26.4","","76","","","","31","","14","","24.1","","98.75","","","","-33","","NA"
"-114.44","62.46","YELLOWKNIFE A","2204101","2018-12-15 16:00","2018","12","15","16:00","-23.5","","-26.6","","76","","","","31","","18","","24.1","","98.89","","","","-34","","NA"
"-114.44","62.46","YELLOWKNIFE A","2204101","2018-12-15 17:00","2018","12","15","17:00","-23.9","","-26.8","","77","","","","31","","13","","24.1","","99.00","","","","-33","","Mostly Cloudy"
"-114.44","62.46","YELLOWKNIFE A","2204101","2018-12-15 18:00","2018","12","15","18:00","-25.0","","-27.9","","77","","","","31","","12","","24.1","","99.10","","","","-34","","NA"
"-114.44","62.46","YELLOWKNIFE A","2204101","2018-12-15 19:00","2018","12","15","19:00","-25.8","","-28.6","","78","","","","30","","11","","24.1","","99.16","","","","-35","","NA"
"-114.44","62.46","YELLOWKNIFE A","2204101","2018-12-15 20:00","2018","12","15","20:00","-26.5","","-29.3","","77","","","","31","","11","","24.1","","99.24","","","","-35","","Mainly Clear"
"-114.44","62.46","YELLOWKNIFE A","2204101","2018-12-15 21:00","2018","12","15","21:00","-27.1","","-30.0","","77","","","","32","","7","","24.1","","99.28","","","","-34","","NA"
"-114.44","62.46","YELLOWKNIFE A","2204101","2018-12-15 22:00","2018","12","15","22:00","-28.0","","-31.0","","76","","","","30","","9","","24.1","","99.37","","","","-36","","NA"
"-114.44","62.46","YELLOWKNIFE A","2204101","2018-12-15 23:00","2018","12","15","23:00","-29.4","","-32.6","","75","","","","30","","10","","24.1","","99.47","","","","-38","","Clear"
"-114.44","62.46","YELLOWKNIFE A","2204101","2018-12-16 00:00","2018","12","16","00:00","-29.5","","-32.8","","74","","","","35","","10","","24.1","","99.48","","","","-39","","NA"
"-114.44","62.46","YELLOWKNIFE A","2204101","2018-12-16 01:00","2018","12","16","01:00","-29.9","","-33.3","","73","","","","2","","10","","24.1","","99.48","","","","-39","","NA"
"-114.44","62.46","YELLOWKNIFE A","2204101","2018-12-16 02:00","2018","12","16","02:00","-30.1","","-33.5","","73","","","","3","","8","","24.1","","99.50","","","","-38","","Clear"
"-114.44","62.46","YELLOWKNIFE A","2204101","2018-12-16 03:00","2018","12","16","03:00","-28.5","","-31.9","","73","","","","7","","6","","24.1","","99.57","","","","-35","","NA"
"-114.44","62.46","YELLOWKNIFE A","2204101","2018-12-16 04:00","2018","12","16","04:00","-30.1","","-33.4","","74","","","","23","","12","","24.1","","99.74","","","","-40","","NA"
"-114.44","62.46","YELLOWKNIFE A","2204101","2018-12-16 05:00","2018","12","16","05:00","-31.1","","-34.4","","73","","","","28","","4","","24.1","","99.78","","","","-36","","Clear"
"-114.44","62.46","YELLOWKNIFE A","2204101","2018-12-16 06:00","2018","12","16","06:00","-31.6","","-35.0","","73","","","","34","","3","","24.1","","99.79","","","","-35","","NA"
"-114.44","62.46","YELLOWKNIFE A","2204101","2018-12-16 07:00","2018","12","16","07:00","-30.7","","-33.9","","74","","","","5","","12","","24.1","","99.66","","","","-41","","NA"
"-114.44","62.46","YELLOWKNIFE A","2204101","2018-12-16 08:00","2018","12","16","08:00","-29.9","","-33.2","","73","","","","10","","5","","24.1","","99.72","","","","-36","","Clear"
"-114.44","62.46","YELLOWKNIFE A","2204101","2018-12-16 09:00","2018","12","16","09:00","-29.7","","-33.1","","73","","","","8","","13","","24.1","","99.63","","","","-40","","NA"
"-114.44","62.46","YELLOWKNIFE A","2204101","2018-12-16 10:00","2018","12","16","10:00","-30.1","","-33.5","","73","","","","7","","10","","24.1","","99.66","","","","-39","","NA"
"-114.44","62.46","YELLOWKNIFE A","2204101","2018-12-16 11:00","2018","12","16","11:00","-29.4","","-32.8","","73","","","","7","","8","","24.1","","99.67","","","","-37","","Mostly Cloudy"
"-114.44","62.46","YELLOWKNIFE A","2204101","2018-12-16 12:00","2018","12","16","12:00","-28.3","","-31.5","","74","","","","7","","13","","24.1","","99.65","","","","-39","","NA"
"-114.44","62.46","YELLOWKNIFE A","2204101","2018-12-16 13:00","2018","12","16","13:00","-27.6","","-30.9","","75","","","","9","","12","","24.1","","99.63","","","","-37","","NA"
"-114.44","62.46","YELLOWKNIFE A","2204101","2018-12-16 14:00","2018","12","16","14:00","-26.6","","-29.6","","77","","","","9","","11","","24.1","","99.60","","","","-36","","Mostly Cloudy"
"-114.44","62.46","YELLOWKNIFE A","2204101","2018-12-16 15:00","2018","12","16","15:00","-25.0","","-27.8","","78","","","","10","","15","","24.1","","99.53","","","","-35","","NA"
"-114.44","62.46","YELLOWKNIFE A","2204101","2018-12-16 16:00","2018","12","16","16:00","-23.5","","-26.4","","78","","","","9","","19","","24.1","","99.46","","","","-35","","NA"
"-114.44","62.46","YELLOWKNIFE A","2204101","2018-12-16 17:00","2018","12","16","17:00","-21.8","","-24.9","","77","","","","9","","17","","24.1","","99.28","","","","-32","","Mostly Cloudy"
"-114.44","62.46","YELLOWKNIFE A","2204101","2018-12-16 18:00","2018","12","16","18:00","-20.4","","-23.6","","76","","","","11","","22","","24.1","","99.29","","","","-31","","NA"
"-114.44","62.46","YELLOWKNIFE A","2204101","2018-12-16 19:00","2018","12","16","19:00","-19.8","","-23.1","","76","","","","10","","24","","24.1","","99.19","","","","-31","","NA"
"-114.44","62.46","YELLOWKNIFE A","2204101","2018-12-16 20:00","2018","12","16","20:00","-19.4","","-22.7","","75","","","","10","","27","","24.1","","98.97","","","","-31","","Blowing Snow"
"-114.44","62.46","YELLOWKNIFE A","2204101","2018-12-16 21:00","2018","12","16","21:00","-18.9","","-22.3","","75","","","","10","","27","","24.1","","98.91","","","","-31","","Snow,Blowing Snow"
"-114.44","62.46","YELLOWKNIFE A","2204101","2018-12-16 22:00","2018","12","16","22:00","-18.7","","-21.8","","77","","","","10","","34","","24.1","","98.74","","","","-32","","Snow,Blowing Snow"
"-114.44","62.46","YELLOWKNIFE A","2204101","2018-12-16 23:00","2018","12","16","23:00","-17.7","","-21.0","","76","","","","10","","34","","24.1","","98.62","","","","-30","","Snow,Blowing Snow"
"-114.44","62.46","YELLOWKNIFE A","2204101","2018-12-17 00:00","2018","12","17","00:00","-16.7","","-20.0","","76","","","","11","","28","","24.1","","98.54","","","","-28","","Blowing Snow"
"-114.44","62.46","YELLOWKNIFE A","2204101","2018-12-17 01:00","2018","12","17","01:00","-16.0","","-19.2","","77","","","","10","","32","","24.1","","98.34","","","","-28","","Blowing Snow"
"-114.44","62.46","YELLOWKNIFE A","2204101","2018-12-17 02:00","2018","12","17","02:00","-15.6","","-19.0","","76","","","","10","","21","","24.1","","98.27","","","","-25","","Blowing Snow"
"-114.44","62.46","YELLOWKNIFE A","2204101","2018-12-17 03:00","2018","12","17","03:00","-14.6","","-17.9","","76","","","","11","","18","","24.1","","98.24","","","","-23","","Blowing Snow"
"-114.44","62.46","YELLOWKNIFE A","2204101","2018-12-17 04:00","2018","12","17","04:00","-13.9","","-17.2","","77","","","","12","","28","","24.1","","97.97","","","","-24","","NA"
"-114.44","62.46","YELLOWKNIFE A","2204101","2018-12-17 05:00","2018","12","17","05:00","-12.6","","-16.0","","76","","","","14","","23","","24.1","","97.94","","","","-22","","Blowing Snow"
"-114.44","62.46","YELLOWKNIFE A","2204101","2018-12-17 06:00","2018","12","17","06:00","-12.0","","-15.1","","78","","","","14","","25","","24.1","","97.88","","","","-21","","Blowing Snow"
"-114.44","62.46","YELLOWKNIFE A","2204101","2018-12-17 07:00","2018","12","17","07:00","-11.4","","-14.4","","78","","","","14","","33","","24.1","","97.77","","","","-22","","Blowing Snow"
"-114.44","62.46","YELLOWKNIFE A","2204101","2018-12-17 08:00","2018","12","17","08:00","-12.1","","-14.8","","80","","","","14","","26","","24.1","","97.71","","","","-22","","Snow,Blowing Snow"
"-114.44","62.46","YELLOWKNIFE A","2204101","2018-12-17 09:00","2018","12","17","09:00","-12.7","","-15.2","","82","","","","14","","19","","24.1","","97.67","","","","-21","","Snow"
"-114.44","62.46","YELLOWKNIFE A","2204101","2018-12-17 10:00","2018","12","17","10:00","-13.0","","-15.6","","81","","","","14","","20","","24.1","","97.66","","","","-22","","NA"
"-114.44","62.46","YELLOWKNIFE A","2204101","2018-12-17 11:00","2018","12","17","11:00","-13.1","","-15.7","","82","","","","14","","25","","24.1","","97.61","","","","-23","","Mainly Clear"
"-114.44","62.46","YELLOWKNIFE A","2204101","2018-12-17 12:00","2018","12","17","12:00","-13.2","","-15.7","","82","","","","14","","23","","24.1","","97.52","","","","-23","","NA"
"-114.44","62.46","YELLOWKNIFE A","2204101","2018-12-17 13:00","2018","12","17","13:00","-13.2","","-15.7","","82","","","","14","","22","","24.1","","97.49","","","","-22","","NA"
"-114.44","62.46","YELLOWKNIFE A","2204101","2018-12-17 14:00","2018","12","17","14:00","-13.6","","-15.8","","83","","","","14","","19","","24.1","","97.46","","","","-22","","Mainly Clear"
"-114.44","62.46","YELLOWKNIFE A","2204101","2018-12-17 15:00","2018","12","17","15:00","-14.0","","-16.1","","84","","","","14","","21","","24.1","","97.37","","","","-23","","NA"
"-114.44","62.46","YELLOWKNIFE A","2204101","2018-12-17 16:00","2018","12","17","16:00","-14.2","","-16.1","","86","","","","13","","16","","24.1","","97.34","","","","-22","","NA"
"-114.44","62.46","YELLOWKNIFE A","2204101","2018-12-17 17:00","2018","12","17","17:00","-14.4","","-16.2","","86","","","","13","","17","","24.1","","97.31","","","","-23","","Mainly Clear"
"-114.44","62.46","YELLOWKNIFE A","2204101","2018-12-17 18:00","2018","12","17","18:00","-15.9","","-17.6","","87","","","","9","","11","","24.1","","97.30","","","","-23","","Snow"
"-114.44","62.46","YELLOWKNIFE A","2204101","2018-12-17 19:00","2018","12","17","19:00","-17.2","","-19.1","","86","","","","10","","15","","24.1","","97.24","","","","-26","","Snow"
"-114.44","62.46","YELLOWKNIFE A","2204101","2018-12-17 20:00","2018","12","17","20:00","-16.8","","-18.7","","86","","","","10","","14","","24.1","","97.22","","","","-25","","Snow"
"-114.44","62.46","YELLOWKNIFE A","2204101","2018-12-17 21:00","2018","12","17","21:00","-15.2","","-17.0","","86","","","","11","","17","","24.1","","97.18","","","","-24","","Snow"
"-114.44","62.46","YELLOWKNIFE A","2204101","2018-12-17 22:00","2018","12","17","22:00","-15.2","","-17.0","","86","","","","12","","16","","24.1","","97.13","","","","-23","","Snow"
"-114.44","62.46","YELLOWKNIFE A","2204101","2018-12-17 23:00","2018","12","17","23:00","-16.4","","-18.4","","85","","","","10","","14","","24.1","","97.12","","","","-24","","Snow"
"-114.44","62.46","YELLOWKNIFE A","2204101","2018-12-18 00:00","2018","12","18","00:00","-16.7","","-18.6","","85","","","","11","","13","","24.1","","97.13","","","","-24","","Snow"
"-114.44","62.46","YELLOWKNIFE A","2204101","2018-12-18 01:00","2018","12","18","01:00","-16.5","","-18.3","","87","","","","9","","14","","24.1","","97.12","","","","-24","","Snow"
"-114.44","62.46","YELLOWKNIFE A","2204101","2018-12-18 02:00","2018","12","18","02:00","-16.8","","-18.8","","85","","","","10","","14","","24.1","","97.10","","","","-25","","Snow"
"-114.44","62.46","YELLOWKNIFE A","2204101","2018-12-18 03:00","2018","12","18","03:00","-16.5","","-18.5","","85","","","","11","","14","","24.1","","97.08","","","","-24","","Snow"
"-114.44","62.46","YELLOWKNIFE A","2204101","2018-12-18 04:00","2018","12","18","04:00","-17.1","","-19.1","","84","","","","11","","13","","24.1","","97.06","","","","-25","","Snow"
"-114.44","62.46","YELLOWKNIFE A","2204101","2018-12-18 05:00","2018","12","18","05:00","-16.0","","-18.0","","85","","","","10","","16","","24.1","","97.05","","","","-24","","Snow"
"-114.44","62.46","YELLOWKNIFE A","2204101","2018-12-18 06:00","2018","12","18","06:00","-15.9","","-17.9","","85","","","","10","","16","","24.1","","97.06","","","","-24","","Snow"
"-114.44","62.46","YELLOWKNIFE A","2204101","2018-12-18 07:00","2018","12","18","07:00","-15.2","","-17.0","","86","","","","9","","16","","24.1","","97.04","","","","-23","","Snow"
"-114.44","62.46","YELLOWKNIFE A","2204101","2018-12-18 08:00","2018","12","18","08:00","-14.7","","-16.6","","86","","","","10","","15","","24.1","","97.07","","","","-23","","Snow"
"-114.44","62.46","YELLOWKNIFE A","2204101","2018-12-18 09:00","2018","12","18","09:00","-15.5","","-17.5","","85","","","","10","","15","","24.1","","97.07","","","","-24","","NA"
"-114.44","62.46","YELLOWKNIFE A","2204101","2018-12-18 10:00","2018","12","18","10:00","-15.1","","-17.0","","85","","","","10","","17","","24.1","","97.08","","","","-24","","NA"
"-114.44","62.46","YELLOWKNIFE A","2204101","2018-12-18 11:00","2018","12","18","11:00","-15.0","","-16.9","","86","","","","10","","17","","24.1","","97.11","","","","-23","","Mainly Clear"
"-114.44","62.46","YELLOWKNIFE A","2204101","2018-12-18 12:00","2018","12","18","12:00","-14.0","","-15.8","","87","","","","10","","18","","24.1","","97.12","","","","-22","","NA"
"-114.44","62.46","YELLOWKNIFE A","2204101","2018-12-18 13:00","2018","12","18","13:00","-13.4","","-15.1","","87","","","","11","","20","","24.1","","97.13","","","","-22","","NA"
"-114.44","62.46","YELLOWKNIFE A","2204101","2018-12-18 14:00","2018","12","18","14:00","-14.0","","-15.8","","86","","","","10","","16","","24.1","","97.16","","","","-22","","Mainly Clear"
"-114.44","62.46","YELLOWKNIFE A","2204101","2018-12-18 15:00","2018","12","18","15:00","-13.6","","-15.4","","87","","","","11","","17","","24.1","","97.20","","","","-22","","NA"
"-114.44","62.46","YELLOWKNIFE A","2204101","2018-12-18 16:00","2018","12","18","16:00","-13.4","","-15.2","","87","","","","10","","19","","16.1","","97.23","","","","-22","","Snow"
"-114.44","62.46","YELLOWKNIFE A","2204101","2018-12-18 17:00","2018","12","18","17:00","-13.9","","-15.6","","87","","","","10","","9","","24.1","","97.29","","","","-20","","Snow"
"-114.44","62.46","YELLOWKNIFE A","2204101","2018-12-18 18:00","2018","12","18","18:00","-13.6","","-15.3","","87","","","","8","","13","","24.1","","97.31","","","","-21","","Snow"
"-114.44","62.46","YELLOWKNIFE A","2204101","2018-12-18 19:00","2018","12","18","19:00","-14.3","","-16.1","","86","","","","8","","14","","24.1","","97.33","","","","-22","","Snow"
"-114.44","62.46","YELLOWKNIFE A","2204101","2018-12-18 20:00","2018","12","18","20:00","-14.8","","-16.7","","86","","","","9","","15","","24.1","","97.37","","","","-23","","Mainly Clear"
"-114.44","62.46","YELLOWKNIFE A","2204101","2018-12-18 21:00","2018","12","18","21:00","-16.0","","-18.0","","85","","","","10","","12","","8.1","","97.43","","","","-23","","Snow"
"-114.44","62.46","YELLOWKNIFE A","2204101","2018-12-18 22:00","2018","12","18","22:00","-16.3","","-18.4","","84","","","","9","","12","","24.1","","97.48","","","","-24","","Snow"
"-114.44","62.46","YELLOWKNIFE A","2204101","2018-12-18 23:00","2018","12","18","23:00","-16.2","","-18.3","","85","","","","8","","14","","24.1","","97.51","","","","-24","","Snow"
"-114.44","62.46","YELLOWKNIFE A","2204101","2018-12-19 00:00","2018","12","19","00:00","-16.6","","-18.7","","84","","","","9","","14","","24.1","","97.61","","","","-25","","Snow"
"-114.44","62.46","YELLOWKNIFE A","2204101","2018-12-19 01:00","2018","12","19","01:00","-16.6","","-18.7","","84","","","","9","","14","","24.1","","97.66","","","","-25","","Snow"
"-114.44","62.46","YELLOWKNIFE A","2204101","2018-12-19 02:00","2018","12","19","02:00","-16.9","","-19.0","","84","","","","8","","11","","24.1","","97.70","","","","-24","","Snow"
"-114.44","62.46","YELLOWKNIFE A","2204101","2018-12-19 03:00","2018","12","19","03:00","-16.9","","-19.1","","84","","","","8","","9","","24.1","","97.76","","","","-23","","Snow"
"-114.44","62.46","YELLOWKNIFE A","2204101","2018-12-19 04:00","2018","12","19","04:00","-17.6","","-19.9","","83","","","","6","","7","","24.1","","97.78","","","","-23","","Snow"
"-114.44","62.46","YELLOWKNIFE A","2204101","2018-12-19 05:00","2018","12","19","05:00","-17.2","","-19.1","","85","","","","6","","10","","24.1","","97.80","","","","-24","","Snow"
"-114.44","62.46","YELLOWKNIFE A","2204101","2018-12-19 06:00","2018","12","19","06:00","-17.0","","-18.9","","86","","","","4","","8","","24.1","","97.84","","","","-23","","Snow"
"-114.44","62.46","YELLOWKNIFE A","2204101","2018-12-19 07:00","2018","12","19","07:00","-16.6","","-18.6","","85","","","","5","","6","","4.8","","97.90","","","","-21","","Snow,Fog"
"-114.44","62.46","YELLOWKNIFE A","2204101","2018-12-19 08:00","2018","12","19","08:00","-16.2","","-18.2","","85","","","","7","","9","","8.1","","97.93","","","","-22","","Snow,Fog"
"-114.44","62.46","YELLOWKNIFE A","2204101","2018-12-19 09:00","2018","12","19","09:00","-16.0","","-18.0","","85","","","","8","","12","","8.1","","97.97","","","","-23","","Snow,Fog"
"-114.44","62.46","YELLOWKNIFE A","2204101","2018-12-19 10:00","2018","12","19","10:00","-15.9","","-17.9","","85","","","","8","","10","","8.1","","98.03","","","","-22","","Snow,Fog"
"-114.44","62.46","YELLOWKNIFE A","2204101","2018-12-19 11:00","2018","12","19","11:00","-15.7","","-17.6","","85","","","","9","","10","","12.9","","98.06","","","","-22","","Snow"
"-114.44","62.46","YELLOWKNIFE A","2204101","2018-12-19 12:00","2018","12","19","12:00","-15.4","","-17.3","","85","","","","7","","10","","12.9","","98.09","","","","-22","","Snow"
"-114.44","62.46","YELLOWKNIFE A","2204101","2018-12-19 13:00","2018","12","19","13:00","-14.9","","-16.8","","86","","","","10","","9","","12.9","","98.12","","","","-21","","Snow"
"-114.44","62.46","YELLOWKNIFE A","2204101","2018-12-19 14:00","2018","12","19","14:00","-14.6","","-16.4","","86","","","","9","","9","","9.7","","98.13","","","","-20","","Snow"
"-114.44","62.46","YELLOWKNIFE A","2204101","2018-12-19 15:00","2018","12","19","15:00","-14.4","","-16.3","","86","","","","7","","10","","4.8","","98.17","","","","-21","","Snow"
"-114.44","62.46","YELLOWKNIFE A","2204101","2018-12-19 16:00","2018","12","19","16:00","-14.8","","-16.7","","86","","","","7","","9","","12.9","","98.20","","","","-21","","Snow"
"-114.44","62.46","YELLOWKNIFE A","2204101","2018-12-19 17:00","2018","12","19","17:00","-14.3","","-16.1","","86","","","","9","","13","","24.1","","98.24","","","","-21","","Snow"
"-114.44","62.46","YELLOWKNIFE A","2204101","2018-12-19 18:00","2018","12","19","18:00","-14.2","","-16.1","","86","","","","10","","12","","24.1","","98.23","","","","-21","","Snow"
"-114.44","62.46","YELLOWKNIFE A","2204101","2018-12-19 19:00","2018","12","19","19:00","-14.4","","-16.2","","86","","","","11","","10","","24.1","","98.27","","","","-21","","Snow"
"-114.44","62.46","YELLOWKNIFE A","2204101","2018-12-19 20:00","2018","12","19","20:00","-14.6","","-16.5","","86","","","","10","","10","","8.1","","98.29","","","","-21","","Snow"
"-114.44","62.46","YELLOWKNIFE A","2204101","2018-12-19 21:00","2018","12","19","21:00","-14.9","","-16.8","","86","","","","8","","11","","4.8","","98.29","","","","-21","","Snow,Fog"
"-114.44","62.46","YELLOWKNIFE A","2204101","2018-12-19 22:00","2018","12","19","22:00","-15.0","","-16.9","","86","","","","7","","12","","3.2","","98.30","","","","-22","","Snow,Fog"
"-114.44","62.46","YELLOWKNIFE A","2204101","2018-12-19 23:00","2018","12","19","23:00","-15.0","","-16.8","","86","","","","9","","14","","4.0","","98.31","","","","-23","","Snow"
"-114.44","62.46","YELLOWKNIFE A","2204101","2018-12-20 00:00","2018","12","20","00:00","-14.9","","-16.7","","86","","","","8","","10","","12.9","","98.31","","","","-21","","Snow"
"-114.44","62.46","YELLOWKNIFE A","2204101","2018-12-20 01:00","2018","12","20","01:00","-14.8","","-16.6","","86","","","","9","","12","","9.7","","98.33","","","","-22","","Snow"
"-114.44","62.46","YELLOWKNIFE A","2204101","2018-12-20 02:00","2018","12","20","02:00","-14.7","","-16.5","","86","","","","8","","9","","12.9","","98.35","","","","-20","","Snow"
"-114.44","62.46","YELLOWKNIFE A","2204101","2018-12-20 03:00","2018","12","20","03:00","-14.5","","-16.3","","86","","","","7","","11","","12.9","","98.36","","","","-21","","Snow"
"-114.44","62.46","YELLOWKNIFE A","2204101","2018-12-20 04:00","2018","12","20","04:00","-14.3","","-16.1","","86","","","","8","","12","","4.8","","98.38","","","","-21","","Snow"
"-114.44","62.46","YELLOWKNIFE A","2204101","2018-12-20 05:00","2018","12","20","05:00","-14.1","","-15.9","","86","","","","8","","13","","6.4","","98.35","","","","-21","","Snow"
"-114.44","62.46","YELLOWKNIFE A","2204101","2018-12-20 06:00","2018","12","20","06:00","-13.9","","-15.7","","87","","","","8","","13","","9.7","","98.33","","","","-21","","Snow"
"-114.44","62.46","YELLOWKNIFE A","2204101","2018-12-20 07:00","2018","12","20","07:00","-13.8","","-15.6","","87","","","","7","","11","","8.1","","98.32","","","","-20","","Snow"
"-114.44","62.46","YELLOWKNIFE A","2204101","2018-12-20 08:00","2018","12","20","08:00","-13.5","","-15.3","","87","","","","7","","13","","16.1","","98.30","","","","-20","","Snow"
"-114.44","62.46","YELLOWKNIFE A","2204101","2018-12-20 09:00","2018","12","20","09:00","-13.3","","-15.0","","87","","","","7","","13","","24.1","","98.27","","","","-20","","Snow"
"-114.44","62.46","YELLOWKNIFE A","2204101","2018-12-20 10:00","2018","12","20","10:00","-13.0","","-14.7","","87","","","","7","","14","","24.1","","98.25","","","","-20","","NA"
"-114.44","62.46","YELLOWKNIFE A","2204101","2018-12-20 11:00","2018","12","20","11:00","-12.8","","-14.4","","88","","","","8","","14","","24.1","","98.24","","","","-20","","Cloudy"
"-114.44","62.46","YELLOWKNIFE A","2204101","2018-12-20 12:00","2018","12","20","12:00","-12.5","","-14.2","","88","","","","7","","12","","12.9","","98.19","","","","-19","","NA"
"-114.44","62.46","YELLOWKNIFE A","2204101","2018-12-20 13:00","2018","12","20","13:00","-12.2","","-13.8","","88","","","","8","","10","","9.7","","98.18","","","","-18","","Snow"
"-114.44","62.46","YELLOWKNIFE A","2204101","2018-12-20 14:00","2018","12","20","14:00","-12.1","","-13.7","","88","","","","8","","14","","9.7","","98.18","","","","-19","","Snow"
"-114.44","62.46","YELLOWKNIFE A","2204101","2018-12-20 15:00","2018","12","20","15:00","-12.0","","-13.6","","88","","","","7","","15","","6.4","","98.11","","","","-19","","Snow"
"-114.44","62.46","YELLOWKNIFE A","2204101","2018-12-20 16:00","2018","12","20","16:00","-12.0","","-13.6","","88","","","","8","","16","","2.4","","98.10","","","","-19","","Snow"
"-114.44","62.46","YELLOWKNIFE A","2204101","2018-12-20 17:00","2018","12","20","17:00","-12.2","","-13.8","","88","","","","7","","12","","16.1","","98.08","","","","-19","","Snow"
"-114.44","62.46","YELLOWKNIFE A","2204101","2018-12-20 18:00","2018","12","20","18:00","-12.1","","-13.7","","88","","","","7","","13","","16.1","","98.07","","","","-19","","Snow"
"-114.44","62.46","YELLOWKNIFE A","2204101","2018-12-20 19:00","2018","12","20","19:00","-12.1","","-13.7","","88","","","","7","","13","","24.1","","98.03","","","","-19","","Snow"
"-114.44","62.46","YELLOWKNIFE A","2204101","2018-12-20 20:00","2018","12","20","20:00","-11.7","","-13.3","","88","","","","7","","13","","16.1","","98.03","","","","-18","","Snow"
"-114.44","62.46","YELLOWKNIFE A","2204101","2018-12-20 21:00","2018","12","20","21:00","-11.7","","-13.2","","88","","","","8","","14","","16.1","","98.03","","","","-19","","Snow"
"-114.44","62.46","YELLOWKNIFE A","2204101","2018-12-20 22:00","2018","12","20","22:00","-11.7","","-13.3","","88","","","","7","","16","","16.1","","98.02","","","","-19","","Snow"
"-114.44","62.46","YELLOWKNIFE A","2204101","2018-12-20 23:00","2018","12","20","23:00","-11.7","","-13.2","","88","","","","8","","14","","24.1","","98.04","","","","-19","","Snow"
"-114.44","62.46","YELLOWKNIFE A","2204101","2018-12-21 00:00","2018","12","21","00:00","-11.5","","-13.0","","89","","","","6","","11","","4.8","","98.04","","","","-17","","Snow,Fog"
"-114.44","62.46","YELLOWKNIFE A","2204101","2018-12-21 01:00","2018","12","21","01:00","-11.4","","-12.9","","89","","","","6","","10","","3.2","","98.04","","","","-17","","Snow,Fog"
"-114.44","62.46","YELLOWKNIFE A","2204101","2018-12-21 02:00","2018","12","21","02:00","-11.4","","-12.9","","89","","","","6","","10","","3.2","","98.08","","","","-17","","Snow,Fog"
"-114.44","62.46","YELLOWKNIFE A","2204101","2018-12-21 03:00","2018","12","21","03:00","-11.2","","-12.7","","89","","","","6","","9","","1.6","","98.14","","","","-16","","Snow,Fog"
"-114.44","62.46","YELLOWKNIFE A","2204101","2018-12-21 04:00","2018","12","21","04:00","-11.1","","-12.6","","89","","","","6","","8","","0.8","","98.19","","","","-16","","Snow,Freezing Fog"
"-114.44","62.46","YELLOWKNIFE A","2204101","2018-12-21 05:00","2018","12","21","05:00","-11.0","","-12.5","","89","","","","6","","7","","0.8","","98.23","","","","-15","","Snow,Freezing Fog"
"-114.44","62.46","YELLOWKNIFE A","2204101","2018-12-21 06:00","2018","12","21","06:00","-11.1","","-12.6","","89","","","","6","","7","","6.4","","98.26","","","","-15","","Snow,Fog"
"-114.44","62.46","YELLOWKNIFE A","2204101","2018-12-21 07:00","2018","12","21","07:00","-11.2","","-12.7","","89","","","","6","","7","","4.0","","98.31","","","","-15","","Snow,Fog"
"-114.44","62.46","YELLOWKNIFE A","2204101","2018-12-21 08:00","2018","12","21","08:00","-11.3","","-12.8","","89","","","","6","","6","","8.1","","98.35","","","","-15","","Snow,Fog"
"-114.44","62.46","YELLOWKNIFE A","2204101","2018-12-21 09:00","2018","12","21","09:00","-11.5","","-13.1","","89","","","","6","","4","","12.9","","98.40","","","","-14","","Freezing Drizzle,Snow"
"-114.44","62.46","YELLOWKNIFE A","2204101","2018-12-21 10:00","2018","12","21","10:00","-11.7","","-13.2","","88","","","","6","","3","","8.1","","98.46","","","","-14","","Snow"
"-114.44","62.46","YELLOWKNIFE A","2204101","2018-12-21 11:00","2018","12","21","11:00","-11.8","","-13.3","","88","","","","7","","3","","8.1","","98.53","","","","-14","","Snow"
"-114.44","62.46","YELLOWKNIFE A","2204101","2018-12-21 12:00","2018","12","21","12:00","-11.3","","-12.8","","89","","","","28","","4","","8.1","","98.56","","","","-14","","Snow"
"-114.44","62.46","YELLOWKNIFE A","2204101","2018-12-21 13:00","2018","12","21","13:00","-10.8","","-12.2","","89","","","","30","","3","","8.1","","98.60","","","","-13","","Snow"
"-114.44","62.46","YELLOWKNIFE A","2204101","2018-12-21 14:00","2018","12","21","14:00","-10.8","","-12.2","","89","","","","30","","9","","12.9","","98.63","","","","-16","","Snow"
"-114.44","62.46","YELLOWKNIFE A","2204101","2018-12-21 15:00","2018","12","21","15:00","-10.9","","-12.4","","89","","","","30","","9","","9.7","","98.67","","","","-16","","Snow"
"-114.44","62.46","YELLOWKNIFE A","2204101","2018-12-21 16:00","2018","12","21","16:00","-11.1","","-12.6","","89","","","","28","","10","","12.9","","98.73","","","","-17","","Snow"
"-114.44","62.46","YELLOWKNIFE A","2204101","2018-12-21 17:00","2018","12","21","17:00","-11.4","","-12.9","","89","","","","28","","9","","9.7","","98.79","","","","-17","","Snow"
"-114.44","62.46","YELLOWKNIFE A","2204101","2018-12-21 18:00","2018","12","21","18:00","-11.7","","-13.2","","89","","","","29","","12","","24.1","","98.81","","","","-18","","Snow"
"-114.44","62.46","YELLOWKNIFE A","2204101","2018-12-21 19:00","2018","12","21","19:00","-11.7","","-13.2","","89","","","","27","","8","","24.1","","98.84","","","","-16","","Snow"
"-114.44","62.46","YELLOWKNIFE A","2204101","2018-12-21 20:00","2018","12","21","20:00","-11.8","","-13.3","","88","","","","28","","11","","24.1","","98.85","","","","-18","","Snow"
"-114.44","62.46","YELLOWKNIFE A","2204101","2018-12-21 21:00","2018","12","21","21:00","-12.4","","-14.0","","88","","","","27","","14","","24.1","","98.88","","","","-19","","Snow"
"-114.44","62.46","YELLOWKNIFE A","2204101","2018-12-21 22:00","2018","12","21","22:00","-12.7","","-14.3","","88","","","","28","","10","","24.1","","98.93","","","","-18","","Snow"
"-114.44","62.46","YELLOWKNIFE A","2204101","2018-12-21 23:00","2018","12","21","23:00","-12.8","","-14.4","","88","","","","29","","10","","6.4","","98.97","","","","-19","","Snow"
"-114.44","62.46","YELLOWKNIFE A","2204101","2018-12-22 00:00","2018","12","22","00:00","-12.8","","-14.5","","88","","","","30","","9","","24.1","","99.01","","","","-18","","Snow"
"-114.44","62.46","YELLOWKNIFE A","2204101","2018-12-22 01:00","2018","12","22","01:00","-12.9","","-14.6","","87","","","","29","","12","","24.1","","99.04","","","","-19","","Snow"
"-114.44","62.46","YELLOWKNIFE A","2204101","2018-12-22 02:00","2018","12","22","02:00","-13.3","","-15.0","","87","","","","28","","12","","24.1","","99.08","","","","-20","","Snow"
"-114.44","62.46","YELLOWKNIFE A","2204101","2018-12-22 03:00","2018","12","22","03:00","-13.9","","-15.7","","87","","","","28","","10","","24.1","","99.11","","","","-20","","Snow"
"-114.44","62.46","YELLOWKNIFE A","2204101","2018-12-22 04:00","2018","12","22","04:00","-14.4","","-16.2","","86","","","","29","","12","","24.1","","99.14","","","","-21","","Snow"
"-114.44","62.46","YELLOWKNIFE A","2204101","2018-12-22 05:00","2018","12","22","05:00","-15.5","","-17.5","","85","","","","30","","15","","24.1","","99.16","","","","-24","","Snow"
"-114.44","62.46","YELLOWKNIFE A","2204101","2018-12-22 06:00","2018","12","22","06:00","-16.4","","-18.5","","84","","","","29","","14","","24.1","","99.21","","","","-24","","Snow"
"-114.44","62.46","YELLOWKNIFE A","2204101","2018-12-22 07:00","2018","12","22","07:00","-18.0","","-20.2","","83","","","","29","","14","","24.1","","99.22","","","","-26","","Snow"
"-114.44","62.46","YELLOWKNIFE A","2204101","2018-12-22 08:00","2018","12","22","08:00","-20.1","","-22.4","","82","","","","29","","16","","16.1","","99.25","","","","-30","","Snow"
"-114.44","62.46","YELLOWKNIFE A","2204101","2018-12-22 09:00","2018","12","22","09:00","-21.2","","-23.6","","81","","","","28","","11","","16.1","","99.30","","","","-29","","Snow"
"-114.44","62.46","YELLOWKNIFE A","2204101","2018-12-22 10:00","2018","12","22","10:00","-21.1","","-23.6","","81","","","","28","","7","","24.1","","99.33","","","","-27","","NA"
"-114.44","62.46","YELLOWKNIFE A","2204101","2018-12-22 11:00","2018","12","22","11:00","-20.3","","-22.7","","82","","","","29","","9","","16.1","","99.33","","","","-27","","Cloudy"
"-114.44","62.46","YELLOWKNIFE A","2204101","2018-12-22 12:00","2018","12","22","12:00","-19.6","","-22.0","","82","","","","29","","8","","16.1","","99.32","","","","-26","","NA"
"-114.44","62.46","YELLOWKNIFE A","2204101","2018-12-22 13:00","2018","12","22","13:00","-18.7","","-20.9","","83","","","","29","","9","","24.1","","99.30","","","","-25","","NA"
"-114.44","62.46","YELLOWKNIFE A","2204101","2018-12-22 14:00","2018","12","22","14:00","-17.9","","-20.0","","83","","","","27","","7","","16.1","","99.33","","","","-23","","Cloudy"
"-114.44","62.46","YELLOWKNIFE A","2204101","2018-12-22 15:00","2018","12","22","15:00","-17.4","","-19.5","","84","","","","27","","7","","24.1","","99.37","","","","-23","","Snow"
"-114.44","62.46","YELLOWKNIFE A","2204101","2018-12-22 16:00","2018","12","22","16:00","-16.9","","-19.0","","84","","","","28","","7","","9.7","","99.37","","","","-22","","Snow"
"-114.44","62.46","YELLOWKNIFE A","2204101","2018-12-22 17:00","2018","12","22","17:00","-16.6","","-18.6","","84","","","","25","","5","","16.1","","99.39","","","","-20","","Snow"
"-114.44","62.46","YELLOWKNIFE A","2204101","2018-12-22 18:00","2018","12","22","18:00","-16.2","","-18.2","","85","","","","26","","7","","24.1","","99.39","","","","-21","","Snow"
"-114.44","62.46","YELLOWKNIFE A","2204101","2018-12-22 19:00","2018","12","22","19:00","-15.8","","-17.8","","85","","","","29","","8","","24.1","","99.37","","","","-21","","Snow"
"-114.44","62.46","YELLOWKNIFE A","2204101","2018-12-22 20:00","2018","12","22","20:00","-15.4","","-17.4","","85","","","","27","","9","","24.1","","99.37","","","","-21","","Snow"
"-114.44","62.46","YELLOWKNIFE A","2204101","2018-12-22 21:00","2018","12","22","21:00","-15.4","","-17.4","","85","","","","27","","11","","24.1","","99.36","","","","-22","","Snow"
"-114.44","62.46","YELLOWKNIFE A","2204101","2018-12-22 22:00","2018","12","22","22:00","-15.5","","-17.4","","85","","","","27","","10","","24.1","","99.36","","","","-22","","Snow"
"-114.44","62.46","YELLOWKNIFE A","2204101","2018-12-22 23:00","2018","12","22","23:00","-15.6","","-17.6","","85","","","","30","","9","","24.1","","99.36","","","","-22","","Snow"
"-114.44","62.46","YELLOWKNIFE A","2204101","2018-12-23 00:00","2018","12","23","00:00","-16.0","","-18.0","","85","","","","23","","7","","24.1","","99.36","","","","-21","","Snow"
"-114.44","62.46","YELLOWKNIFE A","2204101","2018-12-23 01:00","2018","12","23","01:00","-16.1","","-18.1","","85","","","","24","","9","","24.1","","99.37","","","","-22","","Snow"
"-114.44","62.46","YELLOWKNIFE A","2204101","2018-12-23 02:00","2018","12","23","02:00","-16.2","","-18.2","","85","","","","26","","8","","24.1","","99.38","","","","-22","","Snow"
"-114.44","62.46","YELLOWKNIFE A","2204101","2018-12-23 03:00","2018","12","23","03:00","-16.4","","-18.4","","85","","","","28","","8","","24.1","","99.40","","","","-22","","Snow"
"-114.44","62.46","YELLOWKNIFE A","2204101","2018-12-23 04:00","2018","12","23","04:00","-16.5","","-18.6","","84","","","","30","","6","","24.1","","99.43","","","","-21","","Snow"
"-114.44","62.46","YELLOWKNIFE A","2204101","2018-12-23 05:00","2018","12","23","05:00","-17.0","","-19.1","","84","","","","29","","11","","24.1","","99.44","","","","-24","","Snow"
"-114.44","62.46","YELLOWKNIFE A","2204101","2018-12-23 06:00","2018","12","23","06:00","-17.3","","-19.5","","84","","","","30","","8","","24.1","","99.45","","","","-23","","Snow"
"-114.44","62.46","YELLOWKNIFE A","2204101","2018-12-23 07:00","2018","12","23","07:00","-18.3","","-20.6","","83","","","","28","","10","","24.1","","99.45","","","","-25","","Snow"
"-114.44","62.46","YELLOWKNIFE A","2204101","2018-12-23 08:00","2018","12","23","08:00","-19.8","","-22.2","","82","","","","28","","7","","24.1","","99.46","","","","-25","","Snow,Fog"
"-114.44","62.46","YELLOWKNIFE A","2204101","2018-12-23 09:00","2018","12","23","09:00","-19.7","","-22.0","","82","","","","26","","6","","24.1","","99.48","","","","-25","","Snow,Fog"
"-114.44","62.46","YELLOWKNIFE A","2204101","2018-12-23 10:00","2018","12","23","10:00","-19.8","","-22.1","","82","","","","26","","7","","24.1","","99.50","","","","-25","","Snow"
"-114.44","62.46","YELLOWKNIFE A","2204101","2018-12-23 11:00","2018","12","23","11:00","-20.0","","-22.4","","82","","","","24","","12","","24.1","","99.54","","","","-28","","Snow"
"-114.44","62.46","YELLOWKNIFE A","2204101","2018-12-23 12:00","2018","12","23","12:00","-20.4","","-22.8","","81","","","","25","","8","","24.1","","99.57","","","","-27","","Snow"
"-114.44","62.46","YELLOWKNIFE A","2204101","2018-12-23 13:00","2018","12","23","13:00","-20.3","","-22.7","","81","","","","26","","5","","24.1","","99.58","","","","-25","","Snow"
"-114.44","62.46","YELLOWKNIFE A","2204101","2018-12-23 14:00","2018","12","23","14:00","-20.1","","-22.6","","81","","","","23","","8","","24.1","","99.62","","","","-26","","Snow"
"-114.44","62.46","YELLOWKNIFE A","2204101","2018-12-23 15:00","2018","12","23","15:00","-20.0","","-22.4","","82","","","","22","","5","","24.1","","99.63","","","","-24","","Snow"
"-114.44","62.46","YELLOWKNIFE A","2204101","2018-12-23 16:00","2018","12","23","16:00","-19.9","","-22.2","","82","","","","22","","6","","24.1","","99.67","","","","-25","","Snow"
"-114.44","62.46","YELLOWKNIFE A","2204101","2018-12-23 17:00","2018","12","23","17:00","-19.9","","-22.2","","82","","","","22","","4","","24.1","","99.71","","","","-23","","Snow"
"-114.44","62.46","YELLOWKNIFE A","2204101","2018-12-23 18:00","2018","12","23","18:00","-20.1","","-22.5","","82","","","","24","","6","","24.1","","99.72","","","","-25","","Snow"
"-114.44","62.46","YELLOWKNIFE A","2204101","2018-12-23 19:00","2018","12","23","19:00","-20.3","","-22.7","","81","","","","22","","7","","24.1","","99.74","","","","-26","","Snow"
"-114.44","62.46","YELLOWKNIFE A","2204101","2018-12-23 20:00","2018","12","23","20:00","-20.6","","-23.0","","81","","","","17","","5","","24.1","","99.74","","","","-25","","Snow,Ice Crystals"
"-114.44","62.46","YELLOWKNIFE A","2204101","2018-12-23 21:00","2018","12","23","21:00","-21.1","","-23.6","","81","","","","36","","1","","24.1","","99.76","","","","-22","","Snow"
"-114.44","62.46","YELLOWKNIFE A","2204101","2018-12-23 22:00","2018","12","23","22:00","-20.9","","-23.4","","81","","","","22","","5","","24.1","","99.80","","","","-25","","Snow"
"-114.44","62.46","YELLOWKNIFE A","2204101","2018-12-23 23:00","2018","12","23","23:00","-20.9","","-23.4","","81","","","","24","","8","","24.1","","99.86","","","","-27","","Snow"
"-114.44","62.46","YELLOWKNIFE A","2204101","2018-12-24 00:00","2018","12","24","00:00","-21.1","","-23.6","","81","","","","23","","9","","24.1","","99.92","","","","-28","","Snow"
"-114.44","62.46","YELLOWKNIFE A","2204101","2018-12-24 01:00","2018","12","24","01:00","-20.6","","-23.0","","81","","","","25","","6","","24.1","","99.91","","","","-26","","Snow"
"-114.44","62.46","YELLOWKNIFE A","2204101","2018-12-24 02:00","2018","12","24","02:00","-20.2","","-22.6","","81","","","","27","","4","","24.1","","99.95","","","","-24","","Snow"
"-114.44","62.46","YELLOWKNIFE A","2204101","2018-12-24 03:00","2018","12","24","03:00","-20.3","","-22.7","","81","","","","25","","4","","24.1","","99.99","","","","-24","","Snow"
"-114.44","62.46","YELLOWKNIFE A","2204101","2018-12-24 04:00","2018","12","24","04:00","-22.0","","-24.6","","80","","","","23","","4","","24.1","","100.03","","","","-26","","NA"
"-114.44","62.46","YELLOWKNIFE A","2204101","2018-12-24 05:00","2018","12","24","05:00","-24.4","","-27.2","","78","","","","21","","5","","24.1","","100.03","","","","-29","","Mainly Clear"
"-114.44","62.46","YELLOWKNIFE A","2204101","2018-12-24 06:00","2018","12","24","06:00","-25.4","","-28.3","","77","","","","23","","3","","24.1","","100.03","","","","-28","","NA"
"-114.44","62.46","YELLOWKNIFE A","2204101","2018-12-24 07:00","2018","12","24","07:00","-27.0","","-30.1","","76","","","","24","","5","","24.1","","100.06","","","","-32","","NA"
"-114.44","62.46","YELLOWKNIFE A","2204101","2018-12-24 08:00","2018","12","24","08:00","-25.8","","-28.6","","78","","","","27","","5","","24.1","","100.07","","","","-31","","Mainly Clear"
"-114.44","62.46","YELLOWKNIFE A","2204101","2018-12-24 09:00","2018","12","24","09:00","-25.2","","-28.0","","78","","","","26","","6","","24.1","","100.10","","","","-31","","NA"
"-114.44","62.46","YELLOWKNIFE A","2204101","2018-12-24 10:00","2018","12","24","10:00","-26.4","","-29.2","","77","","","","28","","4","","24.1","","100.14","","","","-31","","NA"
"-114.44","62.46","YELLOWKNIFE A","2204101","2018-12-24 11:00","2018","12","24","11:00","-28.1","","-31.2","","76","","","","3","","8","","24.1","","100.15","","","","-36","","Mostly Cloudy"
"-114.44","62.46","YELLOWKNIFE A","2204101","2018-12-24 12:00","2018","12","24","12:00","-27.2","","-30.1","","77","","","","1","","6","","24.1","","100.19","","","","-33","","NA"
"-114.44","62.46","YELLOWKNIFE A","2204101","2018-12-24 13:00","2018","12","24","13:00","-26.1","","-29.0","","77","","","","3","","7","","24.1","","100.20","","","","-33","","NA"
"-114.44","62.46","YELLOWKNIFE A","2204101","2018-12-24 14:00","2018","12","24","14:00","-25.6","","-28.4","","77","","","","3","","6","","24.1","","100.22","","","","-31","","Mostly Cloudy"
"-114.44","62.46","YELLOWKNIFE A","2204101","2018-12-24 15:00","2018","12","24","15:00","-25.1","","-27.9","","78","","","","36","","7","","24.1","","100.24","","","","-32","","NA"
"-114.44","62.46","YELLOWKNIFE A","2204101","2018-12-24 16:00","2018","12","24","16:00","-23.6","","-26.4","","79","","","","34","","7","","24.1","","100.29","","","","-30","","NA"
"-114.44","62.46","YELLOWKNIFE A","2204101","2018-12-24 17:00","2018","12","24","17:00","-23.2","","-25.9","","79","","","","1","","8","","24.1","","100.32","","","","-30","","Snow"
"-114.44","62.46","YELLOWKNIFE A","2204101","2018-12-24 18:00","2018","12","24","18:00","-21.8","","-24.4","","80","","","","4","","7","","24.1","","100.33","","","","-28","","Snow"
"-114.44","62.46","YELLOWKNIFE A","2204101","2018-12-24 19:00","2018","12","24","19:00","-21.1","","-23.6","","81","","","","1","","5","","24.1","","100.33","","","","-26","","Snow"
"-114.44","62.46","YELLOWKNIFE A","2204101","2018-12-24 20:00","2018","12","24","20:00","-20.7","","-23.1","","81","","","","3","","14","","24.1","","100.31","","","","-30","","Snow"
"-114.44","62.46","YELLOWKNIFE A","2204101","2018-12-24 21:00","2018","12","24","21:00","-20.9","","-23.4","","81","","","","2","","4","","24.1","","100.31","","","","-24","","NA"
"-114.44","62.46","YELLOWKNIFE A","2204101","2018-12-24 22:00","2018","12","24","22:00","-21.5","","-24.0","","81","","","","4","","8","","24.1","","100.35","","","","-28","","NA"
"-114.44","62.46","YELLOWKNIFE A","2204101","2018-12-24 23:00","2018","12","24","23:00","-21.3","","-23.8","","81","","","","4","","5","","24.1","","100.39","","","","-26","","Cloudy"
"-114.44","62.46","YELLOWKNIFE A","2204101","2018-12-25 00:00","2018","12","25","00:00","-21.1","","-23.6","","81","","","","4","","12","","12.9","","100.39","","","","-29","","Snow"
"-114.44","62.46","YELLOWKNIFE A","2204101","2018-12-25 01:00","2018","12","25","01:00","-21.3","","-23.9","","80","","","","3","","11","","6.4","","100.42","","","","-29","","Snow"
"-114.44","62.46","YELLOWKNIFE A","2204101","2018-12-25 02:00","2018","12","25","02:00","-21.6","","-24.2","","80","","","","3","","9","","12.9","","100.44","","","","-29","","Snow"
"-114.44","62.46","YELLOWKNIFE A","2204101","2018-12-25 03:00","2018","12","25","03:00","-22.0","","-24.6","","80","","","","3","","9","","12.9","","100.48","","","","-29","","Snow"
"-114.44","62.46","YELLOWKNIFE A","2204101","2018-12-25 04:00","2018","12","25","04:00","-22.0","","-24.6","","80","","","","4","","7","","24.1","","100.48","","","","-28","","Snow"
"-114.44","62.46","YELLOWKNIFE A","2204101","2018-12-25 05:00","2018","12","25","05:00","-22.4","","-25.0","","80","","","","36","","9","","24.1","","100.49","","","","-30","","Snow"
"-114.44","62.46","YELLOWKNIFE A","2204101","2018-12-25 06:00","2018","12","25","06:00","-22.1","","-24.7","","80","","","","35","","8","","12.9","","100.54","","","","-29","","Snow"
"-114.44","62.46","YELLOWKNIFE A","2204101","2018-12-25 07:00","2018","12","25","07:00","-22.4","","-25.1","","80","","","","1","","9","","12.9","","100.54","","","","-30","","Snow"
"-114.44","62.46","YELLOWKNIFE A","2204101","2018-12-25 08:00","2018","12","25","08:00","-23.5","","-26.2","","79","","","","1","","9","","16.1","","100.55","","","","-31","","Snow"
"-114.44","62.46","YELLOWKNIFE A","2204101","2018-12-25 09:00","2018","12","25","09:00","-24.4","","-27.1","","78","","","","1","","8","","24.1","","100.55","","","","-31","","Snow"
"-114.44","62.46","YELLOWKNIFE A","2204101","2018-12-25 10:00","2018","12","25","10:00","-24.0","","-26.7","","79","","","","1","","9","","24.1","","100.58","","","","-31","","NA"
"-114.44","62.46","YELLOWKNIFE A","2204101","2018-12-25 11:00","2018","12","25","11:00","-24.0","","-26.7","","79","","","","2","","11","","9.7","","100.58","","","","-32","","Snow"
"-114.44","62.46","YELLOWKNIFE A","2204101","2018-12-25 12:00","2018","12","25","12:00","-24.4","","-27.2","","78","","","","3","","13","","24.1","","100.55","","","","-34","","Snow"
"-114.44","62.46","YELLOWKNIFE A","2204101","2018-12-25 13:00","2018","12","25","13:00","-24.7","","-27.5","","78","","","","2","","10","","24.1","","100.59","","","","-33","","NA"
"-114.44","62.46","YELLOWKNIFE A","2204101","2018-12-25 14:00","2018","12","25","14:00","-23.9","","-26.7","","79","","","","3","","13","","9.7","","100.58","","","","-33","","Snow"
"-114.44","62.46","YELLOWKNIFE A","2204101","2018-12-25 15:00","2018","12","25","15:00","-24.6","","-27.4","","78","","","","2","","11","","12.9","","100.59","","","","-33","","Snow"
"-114.44","62.46","YELLOWKNIFE A","2204101","2018-12-25 16:00","2018","12","25","16:00","-25.2","","-28.1","","78","","","","2","","10","","24.1","","100.60","","","","-33","","NA"
"-114.44","62.46","YELLOWKNIFE A","2204101","2018-12-25 17:00","2018","12","25","17:00","-25.5","","-28.3","","77","","","","34","","7","","24.1","","100.63","","","","-32","","Snow"
"-114.44","62.46","YELLOWKNIFE A","2204101","2018-12-25 18:00","2018","12","25","18:00","-25.3","","-28.1","","78","","","","35","","8","","12.9","","100.61","","","","-32","","Snow"
"-114.44","62.46","YELLOWKNIFE A","2204101","2018-12-25 19:00","2018","12","25","19:00","-23.5","","-26.2","","79","","","","2","","11","","24.1","","100.55","","","","-32","","Snow"
"-114.44","62.46","YELLOWKNIFE A","2204101","2018-12-25 20:00","2018","12","25","20:00","-24.9","","-27.8","","78","","","","3","","10","","24.1","","100.50","","","","-33","","Snow"
"-114.44","62.46","YELLOWKNIFE A","2204101","2018-12-25 21:00","2018","12","25","21:00","-25.5","","-28.4","","77","","","","36","","7","","24.1","","100.52","","","","-32","","Snow"
"-114.44","62.46","YELLOWKNIFE A","2204101","2018-12-25 22:00","2018","12","25","22:00","-26.1","","-29.0","","77","","","","35","","9","","24.1","","100.50","","","","-34","","Snow"
"-114.44","62.46","YELLOWKNIFE A","2204101","2018-12-25 23:00","2018","12","25","23:00","-27.1","","-30.2","","76","","","","36","","12","","24.1","","100.53","","","","-37","","Mostly Cloudy"
"-114.44","62.46","YELLOWKNIFE A","2204101","2018-12-26 00:00","2018","12","26","00:00","-26.2","","-29.1","","77","","","","2","","11","","24.1","","100.54","","","","-35","","NA"
"-114.44","62.46","YELLOWKNIFE A","2204101","2018-12-26 01:00","2018","12","26","01:00","-24.2","","-27.0","","78","","","","2","","9","","24.1","","100.55","","","","-32","","NA"
"-114.44","62.46","YELLOWKNIFE A","2204101","2018-12-26 02:00","2018","12","26","02:00","-24.0","","-26.8","","78","","","","2","","10","","24.1","","100.57","","","","-32","","Mostly Cloudy"
"-114.44","62.46","YELLOWKNIFE A","2204101","2018-12-26 03:00","2018","12","26","03:00","-24.2","","-27.0","","78","","","","1","","9","","24.1","","100.56","","","","-32","","NA"
"-114.44","62.46","YELLOWKNIFE A","2204101","2018-12-26 04:00","2018","12","26","04:00","-24.8","","-27.6","","78","","","","1","","13","","24.1","","100.56","","","","-34","","NA"
"-114.44","62.46","YELLOWKNIFE A","2204101","2018-12-26 05:00","2018","12","26","05:00","-24.9","","-27.8","","78","","","","3","","14","","24.1","","100.51","","","","-35","","Cloudy"
"-114.44","62.46","YELLOWKNIFE A","2204101","2018-12-26 06:00","2018","12","26","06:00","-25.6","","-28.5","","77","","","","2","","15","","24.1","","100.52","","","","-36","","NA"
"-114.44","62.46","YELLOWKNIFE A","2204101","2018-12-26 07:00","2018","12","26","07:00","-26.6","","-29.6","","77","","","","2","","14","","24.1","","100.50","","","","-37","","NA"
"-114.44","62.46","YELLOWKNIFE A","2204101","2018-12-26 08:00","2018","12","26","08:00","-26.9","","-29.8","","76","","","","2","","12","","24.1","","100.49","","","","-36","","Mostly Cloudy"
"-114.44","62.46","YELLOWKNIFE A","2204101","2018-12-26 09:00","2018","12","26","09:00","-26.4","","-29.4","","77","","","","3","","14","","24.1","","100.52","","","","-37","","NA"
"-114.44","62.46","YELLOWKNIFE A","2204101","2018-12-26 10:00","2018","12","26","10:00","-27.4","","-30.4","","76","","","","3","","10","","24.1","","100.56","","","","-36","","NA"
"-114.44","62.46","YELLOWKNIFE A","2204101","2018-12-26 11:00","2018","12","26","11:00","-28.4","","-31.5","","75","","","","3","","12","","24.1","","100.54","","","","-38","","Mostly Cloudy"
"-114.44","62.46","YELLOWKNIFE A","2204101","2018-12-26 12:00","2018","12","26","12:00","-27.9","","-30.9","","76","","","","4","","16","","24.1","","100.56","","","","-39","","NA"
"-114.44","62.46","YELLOWKNIFE A","2204101","2018-12-26 13:00","2018","12","26","13:00","-28.0","","-31.1","","75","","","","4","","12","","24.1","","100.55","","","","-38","","NA"
"-114.44","62.46","YELLOWKNIFE A","2204101","2018-12-26 14:00","2018","12","26","14:00","-28.7","","-31.9","","75","","","","4","","14","","24.1","","100.57","","","","-39","","Mainly Clear"
"-114.44","62.46","YELLOWKNIFE A","2204101","2018-12-26 15:00","2018","12","26","15:00","-29.0","","-32.1","","75","","","","4","","13","","24.1","","100.59","","","","-39","","NA"
"-114.44","62.46","YELLOWKNIFE A","2204101","2018-12-26 16:00","2018","12","26","16:00","-29.2","","-32.4","","75","","","","4","","12","","24.1","","100.61","","","","-39","","NA"
"-114.44","62.46","YELLOWKNIFE A","2204101","2018-12-26 17:00","2018","12","26","17:00","-30.0","","-33.3","","74","","","","3","","9","","24.1","","100.64","","","","-39","","Mainly Clear"
"-114.44","62.46","YELLOWKNIFE A","2204101","2018-12-26 18:00","2018","12","26","18:00","-30.4","","-33.6","","74","","","","4","","11","","24.1","","100.64","","","","-40","","NA"
"-114.44","62.46","YELLOWKNIFE A","2204101","2018-12-26 19:00","2018","12","26","19:00","-30.8","","-34.0","","74","","","","5","","9","","24.1","","100.65","","","","-40","","NA"
"-114.44","62.46","YELLOWKNIFE A","2204101","2018-12-26 20:00","2018","12","26","20:00","-30.9","","-34.1","","74","","","","2","","5","","24.1","","100.71","","","","-37","","Clear"
"-114.44","62.46","YELLOWKNIFE A","2204101","2018-12-26 21:00","2018","12","26","21:00","-31.6","","-35.0","","73","","","","3","","9","","24.1","","100.74","","","","-40","","NA"
"-114.44","62.46","YELLOWKNIFE A","2204101","2018-12-26 22:00","2018","12","26","22:00","-31.7","","-35.0","","73","","","","4","","11","","24.1","","100.76","","","","-42","","NA"
"-114.44","62.46","YELLOWKNIFE A","2204101","2018-12-26 23:00","2018","12","26","23:00","-31.1","","-34.5","","73","","","","4","","10","","24.1","","100.78","","","","-40","","Clear"
"-114.44","62.46","YELLOWKNIFE A","2204101","2018-12-27 00:00","2018","12","27","00:00","-31.7","","-35.0","","73","","","","4","","9","","24.1","","100.81","","","","-41","","NA"
"-114.44","62.46","YELLOWKNIFE A","2204101","2018-12-27 01:00","2018","12","27","01:00","-31.8","","-35.2","","73","","","","4","","10","","24.1","","100.83","","","","-41","","NA"
"-114.44","62.46","YELLOWKNIFE A","2204101","2018-12-27 02:00","2018","12","27","02:00","-31.7","","-35.1","","73","","","","5","","12","","24.1","","100.86","","","","-42","","Clear"
"-114.44","62.46","YELLOWKNIFE A","2204101","2018-12-27 03:00","2018","12","27","03:00","-32.2","","-35.5","","73","","","","5","","12","","24.1","","100.87","","","","-43","","NA"
"-114.44","62.46","YELLOWKNIFE A","2204101","2018-12-27 04:00","2018","12","27","04:00","-31.7","","-35.0","","73","","","","6","","9","","24.1","","100.90","","","","-41","","NA"
"-114.44","62.46","YELLOWKNIFE A","2204101","2018-12-27 05:00","2018","12","27","05:00","-32.0","","-35.4","","73","","","","6","","11","","24.1","","100.89","","","","-42","","Clear"
"-114.44","62.46","YELLOWKNIFE A","2204101","2018-12-27 06:00","2018","12","27","06:00","-32.5","","-36.0","","72","","","","4","","9","","24.1","","100.86","","","","-42","","NA"
"-114.44","62.46","YELLOWKNIFE A","2204101","2018-12-27 07:00","2018","12","27","07:00","-31.6","","-34.9","","73","","","","5","","9","","24.1","","100.88","","","","-40","","NA"
"-114.44","62.46","YELLOWKNIFE A","2204101","2018-12-27 08:00","2018","12","27","08:00","-31.9","","-35.3","","73","","","","6","","11","","24.1","","100.89","","","","-42","","Clear"
"-114.44","62.46","YELLOWKNIFE A","2204101","2018-12-27 09:00","2018","12","27","09:00","-31.8","","-35.1","","73","","","","7","","11","","24.1","","100.89","","","","-42","","NA"
"-114.44","62.46","YELLOWKNIFE A","2204101","2018-12-27 10:00","2018","12","27","10:00","-32.0","","-35.4","","73","","","","5","","13","","24.1","","100.94","","","","-43","","NA"
"-114.44","62.46","YELLOWKNIFE A","2204101","2018-12-27 11:00","2018","12","27","11:00","-31.2","","-34.6","","73","","","","6","","15","","24.1","","100.91","","","","-43","","Clear"
"-114.44","62.46","YELLOWKNIFE A","2204101","2018-12-27 12:00","2018","12","27","12:00","-30.7","","-34.0","","73","","","","6","","12","","24.1","","100.92","","","","-41","","NA"
"-114.44","62.46","YELLOWKNIFE A","2204101","2018-12-27 13:00","2018","12","27","13:00","-30.3","","-33.6","","74","","","","6","","9","","24.1","","100.87","","","","-39","","NA"
"-114.44","62.46","YELLOWKNIFE A","2204101","2018-12-27 14:00","2018","12","27","14:00","-30.6","","-33.9","","73","","","","6","","12","","24.1","","100.89","","","","-41","","Clear"
"-114.44","62.46","YELLOWKNIFE A","2204101","2018-12-27 15:00","2018","12","27","15:00","-30.8","","-34.1","","73","","","","6","","9","","24.1","","100.91","","","","-40","","NA"
"-114.44","62.46","YELLOWKNIFE A","2204101","2018-12-27 16:00","2018","12","27","16:00","-31.4","","-34.7","","73","","","","5","","12","","24.1","","100.87","","","","-42","","NA"
"-114.44","62.46","YELLOWKNIFE A","2204101","2018-12-27 17:00","2018","12","27","17:00","-31.0","","-34.3","","73","","","","6","","13","","24.1","","100.84","","","","-42","","Clear"
"-114.44","62.46","YELLOWKNIFE A","2204101","2018-12-27 18:00","2018","12","27","18:00","-31.6","","-35.0","","73","","","","5","","10","","24.1","","100.77","","","","-41","","NA"
"-114.44","62.46","YELLOWKNIFE A","2204101","2018-12-27 19:00","2018","12","27","19:00","-32.5","","-36.0","","72","","","","5","","9","","24.1","","100.75","","","","-42","","NA"
"-114.44","62.46","YELLOWKNIFE A","2204101","2018-12-27 20:00","2018","12","27","20:00","-31.4","","-34.7","","73","","","","6","","12","","24.1","","100.70","","","","-42","","Clear"
"-114.44","62.46","YELLOWKNIFE A","2204101","2018-12-27 21:00","2018","12","27","21:00","-32.3","","-35.7","","72","","","","6","","7","","24.1","","100.65","","","","-40","","NA"
"-114.44","62.46","YELLOWKNIFE A","2204101","2018-12-27 22:00","2018","12","27","22:00","-31.7","","-35.1","","73","","","","7","","8","","24.1","","100.62","","","","-40","","NA"
"-114.44","62.46","YELLOWKNIFE A","2204101","2018-12-27 23:00","2018","12","27","23:00","-32.5","","-36.0","","72","","","","9","","9","","24.1","","100.56","","","","-42","","Clear"
"-114.44","62.46","YELLOWKNIFE A","2204101","2018-12-28 00:00","2018","12","28","00:00","-32.4","","-35.9","","72","","","","7","","6","","24.1","","100.52","","","","-39","","NA"
"-114.44","62.46","YELLOWKNIFE A","2204101","2018-12-28 01:00","2018","12","28","01:00","-31.9","","-35.2","","73","","","","7","","7","","24.1","","100.47","","","","-39","","NA"
"-114.44","62.46","YELLOWKNIFE A","2204101","2018-12-28 02:00","2018","12","28","02:00","-31.9","","-35.3","","73","","","","8","","14","","24.1","","100.43","","","","-43","","Clear"
"-114.44","62.46","YELLOWKNIFE A","2204101","2018-12-28 03:00","2018","12","28","03:00","-32.0","","-35.4","","73","","","","7","","15","","24.1","","100.34","","","","-44","","NA"
"-114.44","62.46","YELLOWKNIFE A","2204101","2018-12-28 04:00","2018","12","28","04:00","-31.8","","-35.1","","73","","","","7","","10","","24.1","","100.26","","","","-41","","NA"
"-114.44","62.46","YELLOWKNIFE A","2204101","2018-12-28 05:00","2018","12","28","05:00","-31.8","","-35.2","","73","","","","6","","10","","24.1","","100.17","","","","-41","","Clear"
"-114.44","62.46","YELLOWKNIFE A","2204101","2018-12-28 06:00","2018","12","28","06:00","-31.6","","-34.9","","73","","","","7","","13","","24.1","","100.11","","","","-43","","NA"
"-114.44","62.46","YELLOWKNIFE A","2204101","2018-12-28 07:00","2018","12","28","07:00","-31.4","","-34.8","","73","","","","7","","14","","24.1","","100.02","","","","-43","","NA"
"-114.44","62.46","YELLOWKNIFE A","2204101","2018-12-28 08:00","2018","12","28","08:00","-31.0","","-34.3","","73","","","","8","","15","","24.1","","99.95","","","","-43","","Clear"
"-114.44","62.46","YELLOWKNIFE A","2204101","2018-12-28 09:00","2018","12","28","09:00","-30.9","","-34.2","","73","","","","7","","13","","24.1","","99.95","","","","-42","","NA"
"-114.44","62.46","YELLOWKNIFE A","2204101","2018-12-28 10:00","2018","12","28","10:00","-30.8","","-34.1","","73","","","","8","","14","","24.1","","99.91","","","","-42","","NA"
"-114.44","62.46","YELLOWKNIFE A","2204101","2018-12-28 11:00","2018","12","28","11:00","-30.4","","-33.8","","73","","","","8","","13","","24.1","","99.86","","","","-41","","Mainly Clear"
"-114.44","62.46","YELLOWKNIFE A","2204101","2018-12-28 12:00","2018","12","28","12:00","-30.1","","-33.3","","74","","","","8","","14","","24.1","","99.75","","","","-41","","NA"
"-114.44","62.46","YELLOWKNIFE A","2204101","2018-12-28 13:00","2018","12","28","13:00","-28.8","","-32.0","","75","","","","8","","15","","24.1","","99.70","","","","-40","","NA"
"-114.44","62.46","YELLOWKNIFE A","2204101","2018-12-28 14:00","2018","12","28","14:00","-28.3","","-31.4","","75","","","","8","","15","","24.1","","99.64","","","","-39","","Mostly Cloudy"
"-114.44","62.46","YELLOWKNIFE A","2204101","2018-12-28 15:00","2018","12","28","15:00","-27.8","","-30.9","","75","","","","8","","14","","24.1","","99.63","","","","-38","","NA"
"-114.44","62.46","YELLOWKNIFE A","2204101","2018-12-28 16:00","2018","12","28","16:00","-27.8","","-30.9","","75","","","","7","","15","","24.1","","99.61","","","","-39","","NA"
"-114.44","62.46","YELLOWKNIFE A","2204101","2018-12-28 17:00","2018","12","28","17:00","-27.4","","-30.5","","76","","","","9","","16","","24.1","","99.53","","","","-39","","Mainly Clear"
"-114.44","62.46","YELLOWKNIFE A","2204101","2018-12-28 18:00","2018","12","28","18:00","-27.2","","-30.3","","76","","","","9","","15","","24.1","","99.49","","","","-38","","NA"
"-114.44","62.46","YELLOWKNIFE A","2204101","2018-12-28 19:00","2018","12","28","19:00","-26.7","","-29.8","","76","","","","8","","18","","24.1","","99.43","","","","-38","","NA"
"-114.44","62.46","YELLOWKNIFE A","2204101","2018-12-28 20:00","2018","12","28","20:00","-26.0","","-29.0","","77","","","","9","","18","","24.1","","99.39","","","","-37","","Cloudy"
"-114.44","62.46","YELLOWKNIFE A","2204101","2018-12-28 21:00","2018","12","28","21:00","-26.2","","-29.2","","77","","","","9","","16","","24.1","","99.36","","","","-37","","NA"
"-114.44","62.46","YELLOWKNIFE A","2204101","2018-12-28 22:00","2018","12","28","22:00","-26.9","","-29.9","","76","","","","8","","18","","24.1","","99.34","","","","-39","","NA"
"-114.44","62.46","YELLOWKNIFE A","2204101","2018-12-28 23:00","2018","12","28","23:00","-26.9","","-29.9","","76","","","","8","","20","","24.1","","99.31","","","","-39","","Mainly Clear"
"-114.44","62.46","YELLOWKNIFE A","2204101","2018-12-29 00:00","2018","12","29","00:00","-27.1","","-30.1","","76","","","","8","","19","","24.1","","99.31","","","","-39","","NA"
"-114.44","62.46","YELLOWKNIFE A","2204101","2018-12-29 01:00","2018","12","29","01:00","-26.8","","-29.8","","76","","","","8","","19","","24.1","","99.29","","","","-39","","NA"
"-114.44","62.46","YELLOWKNIFE A","2204101","2018-12-29 02:00","2018","12","29","02:00","-26.6","","-29.6","","76","","","","8","","18","","24.1","","99.26","","","","-38","","Clear"
"-114.44","62.46","YELLOWKNIFE A","2204101","2018-12-29 03:00","2018","12","29","03:00","-26.2","","-29.2","","77","","","","8","","17","","24.1","","99.24","","","","-37","","NA"
"-114.44","62.46","YELLOWKNIFE A","2204101","2018-12-29 04:00","2018","12","29","04:00","-26.4","","-29.4","","77","","","","8","","17","","24.1","","99.21","","","","-38","","NA"
"-114.44","62.46","YELLOWKNIFE A","2204101","2018-12-29 05:00","2018","12","29","05:00","-26.1","","-29.0","","77","","","","8","","20","","24.1","","99.16","","","","-38","","Mainly Clear"
"-114.44","62.46","YELLOWKNIFE A","2204101","2018-12-29 06:00","2018","12","29","06:00","-26.1","","-29.1","","77","","","","8","","20","","24.1","","99.11","","","","-38","","NA"
"-114.44","62.46","YELLOWKNIFE A","2204101","2018-12-29 07:00","2018","12","29","07:00","-26.1","","-29.0","","77","","","","7","","17","","24.1","","99.05","","","","-37","","NA"
"-114.44","62.46","YELLOWKNIFE A","2204101","2018-12-29 08:00","2018","12","29","08:00","-25.8","","-28.7","","77","","","","8","","19","","24.1","","99.09","","","","-38","","Mainly Clear"
"-114.44","62.46","YELLOWKNIFE A","2204101","2018-12-29 09:00","2018","12","29","09:00","-25.3","","-28.2","","77","","","","8","","21","","24.1","","99.07","","","","-37","","Snow"
"-114.44","62.46","YELLOWKNIFE A","2204101","2018-12-29 10:00","2018","12","29","10:00","-25.0","","-27.9","","78","","","","8","","19","","24.1","","99.08","","","","-37","","Snow"
"-114.44","62.46","YELLOWKNIFE A","2204101","2018-12-29 11:00","2018","12","29","11:00","-24.8","","-27.6","","78","","","","8","","22","","24.1","","99.01","","","","-37","","Mostly Cloudy"
"-114.44","62.46","YELLOWKNIFE A","2204101","2018-12-29 12:00","2018","12","29","12:00","-24.3","","-27.1","","78","","","","6","","11","","24.1","","99.00","","","","-33","","NA"
"-114.44","62.46","YELLOWKNIFE A","2204101","2018-12-29 13:00","2018","12","29","13:00","-23.6","","-26.4","","78","","","","7","","18","","24.1","","98.94","","","","-34","","NA"
"-114.44","62.46","YELLOWKNIFE A","2204101","2018-12-29 14:00","2018","12","29","14:00","-23.8","","-26.6","","78","","","","7","","18","","24.1","","98.95","","","","-35","","Mostly Cloudy"
"-114.44","62.46","YELLOWKNIFE A","2204101","2018-12-29 15:00","2018","12","29","15:00","-24.8","","-27.6","","78","","","","6","","16","","24.1","","99.03","","","","-35","","NA"
"-114.44","62.46","YELLOWKNIFE A","2204101","2018-12-29 16:00","2018","12","29","16:00","-25.8","","-28.8","","77","","","","6","","15","","24.1","","99.06","","","","-36","","NA"
"-114.44","62.46","YELLOWKNIFE A","2204101","2018-12-29 17:00","2018","12","29","17:00","-26.8","","-29.8","","76","","","","5","","9","","24.1","","99.12","","","","-35","","Mainly Clear"
"-114.44","62.46","YELLOWKNIFE A","2204101","2018-12-29 18:00","2018","12","29","18:00","-27.6","","-30.6","","76","","","","6","","13","","24.1","","99.18","","","","-38","","NA"
"-114.44","62.46","YELLOWKNIFE A","2204101","2018-12-29 19:00","2018","12","29","19:00","-27.9","","-31.0","","76","","","","5","","17","","24.1","","99.20","","","","-40","","NA"
"-114.44","62.46","YELLOWKNIFE A","2204101","2018-12-29 20:00","2018","12","29","20:00","-28.1","","-31.2","","76","","","","5","","20","","24.1","","99.23","","","","-41","","Clear"
"-114.44","62.46","YELLOWKNIFE A","2204101","2018-12-29 21:00","2018","12","29","21:00","-29.0","","-32.1","","75","","","","5","","16","","24.1","","99.32","","","","-41","","NA"
"-114.44","62.46","YELLOWKNIFE A","2204101","2018-12-29 22:00","2018","12","29","22:00","-29.7","","-32.9","","74","","","","5","","12","","24.1","","99.37","","","","-40","","NA"
"-114.44","62.46","YELLOWKNIFE A","2204101","2018-12-29 23:00","2018","12","29","23:00","-30.3","","-33.5","","74","","","","5","","11","","24.1","","99.41","","","","-40","","Clear"
"-114.44","62.46","YELLOWKNIFE A","2204101","2018-12-30 00:00","2018","12","30","00:00","-31.1","","-34.4","","73","","","","5","","12","","24.1","","99.48","","","","-41","","NA"
"-114.44","62.46","YELLOWKNIFE A","2204101","2018-12-30 01:00","2018","12","30","01:00","-31.3","","-34.6","","73","","","","5","","10","","24.1","","99.55","","","","-41","","NA"
"-114.44","62.46","YELLOWKNIFE A","2204101","2018-12-30 02:00","2018","12","30","02:00","-31.8","","-35.1","","73","","","","4","","10","","24.1","","99.66","","","","-41","","Clear"
"-114.44","62.46","YELLOWKNIFE A","2204101","2018-12-30 03:00","2018","12","30","03:00","-31.8","","-35.1","","73","","","","5","","10","","24.1","","99.74","","","","-41","","NA"
"-114.44","62.46","YELLOWKNIFE A","2204101","2018-12-30 04:00","2018","12","30","04:00","-32.3","","-35.7","","73","","","","4","","8","","24.1","","99.83","","","","-41","","NA"
"-114.44","62.46","YELLOWKNIFE A","2204101","2018-12-30 05:00","2018","12","30","05:00","-32.9","","-36.3","","72","","","","4","","11","","24.1","","99.92","","","","-43","","Clear"
"-114.44","62.46","YELLOWKNIFE A","2204101","2018-12-30 06:00","2018","12","30","06:00","-33.0","","-36.4","","72","","","","4","","9","","24.1","","99.98","","","","-42","","NA"
"-114.44","62.46","YELLOWKNIFE A","2204101","2018-12-30 07:00","2018","12","30","07:00","-33.3","","-36.8","","72","","","","4","","11","","24.1","","100.04","","","","-44","","NA"
"-114.44","62.46","YELLOWKNIFE A","2204101","2018-12-30 08:00","2018","12","30","08:00","-33.2","","-36.6","","72","","","","5","","13","","24.1","","100.13","","","","-44","","Clear"
"-114.44","62.46","YELLOWKNIFE A","2204101","2018-12-30 09:00","2018","12","30","09:00","-33.7","","-37.2","","72","","","","5","","11","","24.1","","100.21","","","","-44","","NA"
"-114.44","62.46","YELLOWKNIFE A","2204101","2018-12-30 10:00","2018","12","30","10:00","-33.9","","-37.4","","72","","","","36","","2","","24.1","","100.26","","","","-36","","NA"
"-114.44","62.46","YELLOWKNIFE A","2204101","2018-12-30 11:00","2018","12","30","11:00","-33.9","","-37.4","","72","","","","5","","4","","24.1","","100.30","","","","-39","","Clear"
"-114.44","62.46","YELLOWKNIFE A","2204101","2018-12-30 12:00","2018","12","30","12:00","-33.3","","-36.8","","72","","","","5","","5","","24.1","","100.37","","","","-39","","NA"
"-114.44","62.46","YELLOWKNIFE A","2204101","2018-12-30 13:00","2018","12","30","13:00","-32.7","","-36.2","","72","","","","6","","5","","24.1","","100.38","","","","-39","","NA"
"-114.44","62.46","YELLOWKNIFE A","2204101","2018-12-30 14:00","2018","12","30","14:00","-32.2","","-35.6","","72","","","","7","","9","","24.1","","100.42","","","","-41","","Clear"
"-114.44","62.46","YELLOWKNIFE A","2204101","2018-12-30 15:00","2018","12","30","15:00","-32.6","","-36.0","","72","","","","6","","8","","24.1","","100.54","","","","-41","","NA"
"-114.44","62.46","YELLOWKNIFE A","2204101","2018-12-30 16:00","2018","12","30","16:00","-33.0","","-36.4","","72","","","","7","","7","","24.1","","100.59","","","","-41","","NA"
"-114.44","62.46","YELLOWKNIFE A","2204101","2018-12-30 17:00","2018","12","30","17:00","-33.5","","-37.0","","72","","","","7","","4","","24.1","","100.64","","","","-38","","Clear"
"-114.44","62.46","YELLOWKNIFE A","2204101","2018-12-30 18:00","2018","12","30","18:00","-33.7","","-37.2","","72","","","","10","","5","","24.1","","100.64","","","","-40","","NA"
"-114.44","62.46","YELLOWKNIFE A","2204101","2018-12-30 19:00","2018","12","30","19:00","-32.5","","-35.9","","73","","","","9","","8","","24.1","","100.65","","","","-41","","NA"
"-114.44","62.46","YELLOWKNIFE A","2204101","2018-12-30 20:00","2018","12","30","20:00","-33.5","","-37.0","","71","","","","10","","8","","24.1","","100.60","","","","-42","","Clear"
"-114.44","62.46","YELLOWKNIFE A","2204101","2018-12-30 21:00","2018","12","30","21:00","-34.2","","-37.8","","71","","","","12","","7","","24.1","","100.57","","","","-42","","NA"
"-114.44","62.46","YELLOWKNIFE A","2204101","2018-12-30 22:00","2018","12","30","22:00","-32.9","","-36.3","","72","","","","11","","10","","24.1","","100.52","","","","-43","","NA"
"-114.44","62.46","YELLOWKNIFE A","2204101","2018-12-30 23:00","2018","12","30","23:00","-32.4","","-35.8","","72","","","","9","","9","","24.1","","100.52","","","","-41","","Clear"
"-114.44","62.46","YELLOWKNIFE A","2204101","2018-12-31 00:00","2018","12","31","00:00","-32.8","","-36.3","","72","","","","10","","8","","24.1","","100.52","","","","-41","","NA"
"-114.44","62.46","YELLOWKNIFE A","2204101","2018-12-31 01:00","2018","12","31","01:00","-32.9","","-36.3","","72","","","","10","","12","","24.1","","100.44","","","","-44","","NA"
"-114.44","62.46","YELLOWKNIFE A","2204101","2018-12-31 02:00","2018","12","31","02:00","-32.6","","-36.0","","72","","","","8","","11","","24.1","","100.41","","","","-43","","Clear"
"-114.44","62.46","YELLOWKNIFE A","2204101","2018-12-31 03:00","2018","12","31","03:00","-31.0","","-34.3","","73","","","","9","","13","","24.1","","100.44","","","","-42","","NA"
"-114.44","62.46","YELLOWKNIFE A","2204101","2018-12-31 04:00","2018","12","31","04:00","-30.6","","-33.9","","73","","","","9","","12","","24.1","","100.26","","","","-41","","NA"
"-114.44","62.46","YELLOWKNIFE A","2204101","2018-12-31 05:00","2018","12","31","05:00","-29.7","","-32.9","","74","","","","9","","14","","24.1","","100.18","","","","-41","","Mainly Clear"
"-114.44","62.46","YELLOWKNIFE A","2204101","2018-12-31 06:00","2018","12","31","06:00","-27.5","","-30.4","","77","","","","12","","21","","24.1","","100.03","","","","-40","","Snow"
"-114.44","62.46","YELLOWKNIFE A","2204101","2018-12-31 07:00","2018","12","31","07:00","-27.7","","-30.8","","75","","","","10","","17","","24.1","","99.93","","","","-39","","Snow"
"-114.44","62.46","YELLOWKNIFE A","2204101","2018-12-31 08:00","2018","12","31","08:00","-26.6","","-29.6","","76","","","","12","","21","","24.1","","99.89","","","","-39","","Snow"
"-114.44","62.46","YELLOWKNIFE A","2204101","2018-12-31 09:00","2018","12","31","09:00","-25.8","","-28.8","","77","","","","12","","25","","24.1","","99.81","","","","-39","","Snow"
"-114.44","62.46","YELLOWKNIFE A","2204101","2018-12-31 10:00","2018","12","31","10:00","-25.6","","-28.5","","77","","","","13","","20","","24.1","","99.69","","","","-38","","Snow"
"-114.44","62.46","YELLOWKNIFE A","2204101","2018-12-31 11:00","2018","12","31","11:00","-25.0","","-27.9","","78","","","","13","","16","","24.1","","99.62","","","","-36","","Mostly Cloudy"
"-114.44","62.46","YELLOWKNIFE A","2204101","2018-12-31 12:00","2018","12","31","12:00","-23.7","","-26.5","","78","","","","13","","25","","24.1","","99.44","","","","-36","","Blowing Snow"
"-114.44","62.46","YELLOWKNIFE A","2204101","2018-12-31 13:00","2018","12","31","13:00","-23.1","","-25.8","","79","","","","14","","21","","24.1","","99.30","","","","-35","","Blowing Snow"
"-114.44","62.46","YELLOWKNIFE A","2204101","2018-12-31 14:00","2018","12","31","14:00","-22.5","","-25.2","","79","","","","15","","26","","24.1","","99.16","","","","-35","","Blowing Snow"
"-114.44","62.46","YELLOWKNIFE A","2204101","2018-12-31 15:00","2018","12","31","15:00","-22.0","","-24.6","","80","","","","13","","28","","24.1","","99.00","","","","-35","","Blowing Snow"
"-114.44","62.46","YELLOWKNIFE A","2204101","2018-12-31 16:00","2018","12","31","16:00","-21.7","","-24.3","","80","","","","14","","24","","24.1","","98.83","","","","-34","","Blowing Snow"
"-114.44","62.46","YELLOWKNIFE A","2204101","2018-12-31 17:00","2018","12","31","17:00","-21.2","","-23.7","","81","","","","13","","20","","24.1","","98.66","","","","-32","","Mainly Clear"
"-114.44","62.46","YELLOWKNIFE A","2204101","2018-12-31 18:00","2018","12","31","18:00","-20.3","","-22.8","","81","","","","14","","33","","2.4","","98.57","","","","-33","","Snow,Blowing Snow"
"-114.44","62.46","YELLOWKNIFE A","2204101","2018-12-31 19:00","2018","12","31","19:00","-19.7","","-22.1","","82","","","","13","","33","","2.4","","98.35","","","","-33","","Snow,Blowing Snow"
"-114.44","62.46","YELLOWKNIFE A","2204101","2018-12-31 20:00","2018","12","31","20:00","-19.0","","-21.3","","82","","","","13","","36","","4.8","","98.01","","","","-32","","Snow,Blowing Snow"
"-114.44","62.46","YELLOWKNIFE A","2204101","2018-12-31 21:00","2018","12","31","21:00","-18.8","","-21.1","","82","","","","14","","35","","4.8","","97.83","","","","-32","","Snow,Blowing Snow"
"-114.44","62.46","YELLOWKNIFE A","2204101","2018-12-31 22:00","2018","12","31","22:00","-19.0","","-21.3","","82","","","","14","","37","","0.8","","97.65","","","","-32","","Snow,Blowing Snow"
"-114.44","62.46","YELLOWKNIFE A","2204101","2018-12-31 23:00","2018","12","31","23:00","-18.7","","-21.0","","82","","","","13","","31","","1.2","","97.40","","","","-31","","Snow,Blowing Snow"
