"Longitude (x)","Latitude (y)","Station Name","Climate ID","Date/Time (LST)","Year","Month","Day","Time (LST)","Temp (°C)","Temp Flag","Dew Point Temp (°C)","Dew Point Temp Flag","Rel Hum (%)","Rel Hum Flag","Precip. Amount (mm)","Precip. Amount Flag","Wind Dir (10s deg)","Wind Dir Flag","Wind Spd (km/h)","Wind Spd Flag","Visibility (km)","Visibility Flag","Stn Press (kPa)","Stn Press Flag","Hmdx","Hmdx Flag","Wind Chill","Wind Chill Flag","Weather"
"-115.14","67.82","KUGLUKTUK CLIMATE","2300904","2021-02-01 00:00","2021","02","01","00:00","-31.7","","-35.1","","71","","0.0","","27","","5","","","","103.13","","","","-38","","NA"
"-115.14","67.82","KUGLUKTUK CLIMATE","2300904","2021-02-01 01:00","2021","02","01","01:00","-33.3","","-36.8","","70","","0.0","","23","","17","","","","103.15","","","","-46","","NA"
"-115.14","67.82","KUGLUKTUK CLIMATE","2300904","2021-02-01 02:00","2021","02","01","02:00","-32.9","","-36.4","","71","","0.0","","23","","16","","","","103.19","","","","-45","","NA"
"-115.14","67.82","KUGLUKTUK CLIMATE","2300904","2021-02-01 03:00","2021","02","01","03:00","-33.6","","-37.1","","70","","0.0","","23","","17","","","","103.23","","","","-47","","NA"
"-115.14","67.82","KUGLUKTUK CLIMATE","2300904","2021-02-01 04:00","2021","02","01","04:00","-33.4","","-36.9","","70","","0.0","","23","","19","","","","103.24","","","","-47","","NA"
"-115.14","67.82","KUGLUKTUK CLIMATE","2300904","2021-02-01 05:00","2021","02","01","05:00","-34.0","","-37.6","","70","","0.0","","23","","17","","","","103.25","","","","-47","","NA"
"-115.14","67.82","KUGLUKTUK CLIMATE","2300904","2021-02-01 06:00","2021","02","01","06:00","-33.4","","-37.0","","70","","0.0","","23","","18","","","","103.27","","","","-47","","NA"
"-115.14","67.82","KUGLUKTUK CLIMATE","2300904","2021-02-01 07:00","2021","02","01","07:00","-34.3","","-38.0","","69","","0.0","","23","","18","","","","103.26","","","","-48","","NA"
"-115.14","67.82","KUGLUKTUK CLIMATE","2300904","2021-02-01 08:00","2021","02","01","08:00","-34.8","","-38.5","","69","","0.0","","23","","17","","","","103.28","","","","-48","","NA"
"-115.14","67.82","KUGLUKTUK CLIMATE","2300904","2021-02-01 09:00","2021","02","01","09:00","-34.6","","-38.3","","69","","0.0","","23","","20","","","","103.28","","","","-49","","NA"
"-115.14","67.82","KUGLUKTUK CLIMATE","2300904","2021-02-01 10:00","2021","02","01","10:00","-34.1","","-37.7","","70","","0.0","","23","","17","","","","103.26","","","","-47","","NA"
"-115.14","67.82","KUGLUKTUK CLIMATE","2300904","2021-02-01 11:00","2021","02","01","11:00","-32.3","","-35.9","","71","","0.0","","24","","16","","","","103.31","","","","-45","","NA"
"-115.14","67.82","KUGLUKTUK CLIMATE","2300904","2021-02-01 12:00","2021","02","01","12:00","-32.0","","-35.5","","71","","0.0","","23","","16","","","","103.31","","","","-44","","NA"
"-115.14","67.82","KUGLUKTUK CLIMATE","2300904","2021-02-01 13:00","2021","02","01","13:00","-30.8","","-34.4","","71","","0.0","","23","","14","","","","103.32","","","","-42","","NA"
"-115.14","67.82","KUGLUKTUK CLIMATE","2300904","2021-02-01 14:00","2021","02","01","14:00","-29.9","","-33.3","","72","","0.0","","23","","13","","","","103.32","","","","-40","","NA"
"-115.14","67.82","KUGLUKTUK CLIMATE","2300904","2021-02-01 15:00","2021","02","01","15:00","-28.8","","-32.2","","73","","0.0","","27","","15","","","","103.30","","","","-40","","NA"
"-115.14","67.82","KUGLUKTUK CLIMATE","2300904","2021-02-01 16:00","2021","02","01","16:00","-29.1","","-32.5","","73","","0.0","","27","","14","","","","103.31","","","","-40","","NA"
"-115.14","67.82","KUGLUKTUK CLIMATE","2300904","2021-02-01 17:00","2021","02","01","17:00","-29.3","","-32.7","","72","","0.0","","26","","16","","","","103.29","","","","-41","","NA"
"-115.14","67.82","KUGLUKTUK CLIMATE","2300904","2021-02-01 18:00","2021","02","01","18:00","-29.2","","-32.6","","73","","0.0","","25","","15","","","","103.25","","","","-40","","NA"
"-115.14","67.82","KUGLUKTUK CLIMATE","2300904","2021-02-01 19:00","2021","02","01","19:00","-29.4","","-32.8","","72","","0.0","","25","","16","","","","103.23","","","","-41","","NA"
"-115.14","67.82","KUGLUKTUK CLIMATE","2300904","2021-02-01 20:00","2021","02","01","20:00","-29.9","","-33.3","","72","","0.0","","25","","19","","","","103.17","","","","-43","","NA"
"-115.14","67.82","KUGLUKTUK CLIMATE","2300904","2021-02-01 21:00","2021","02","01","21:00","-30.2","","-33.7","","72","","0.0","","25","","23","","","","103.13","","","","-44","","NA"
"-115.14","67.82","KUGLUKTUK CLIMATE","2300904","2021-02-01 22:00","2021","02","01","22:00","-29.9","","-33.3","","72","","0.0","","26","","22","","","","103.12","","","","-44","","NA"
"-115.14","67.82","KUGLUKTUK CLIMATE","2300904","2021-02-01 23:00","2021","02","01","23:00","-30.5","","-34.0","","72","","0.0","","25","","21","","","","103.12","","","","-44","","NA"
"-115.14","67.82","KUGLUKTUK CLIMATE","2300904","2021-02-02 00:00","2021","02","02","00:00","-30.6","","-34.0","","72","","0.0","","25","","21","","","","103.09","","","","-44","","NA"
"-115.14","67.82","KUGLUKTUK CLIMATE","2300904","2021-02-02 01:00","2021","02","02","01:00","-31.3","","-34.8","","71","","0.0","","24","","19","","","","103.10","","","","-44","","NA"
"-115.14","67.82","KUGLUKTUK CLIMATE","2300904","2021-02-02 02:00","2021","02","02","02:00","-29.4","","-32.7","","73","","0.0","","26","","16","","","","103.10","","","","-41","","NA"
"-115.14","67.82","KUGLUKTUK CLIMATE","2300904","2021-02-02 03:00","2021","02","02","03:00","-29.1","","-32.5","","73","","0.0","","26","","16","","","","103.10","","","","-41","","NA"
"-115.14","67.82","KUGLUKTUK CLIMATE","2300904","2021-02-02 04:00","2021","02","02","04:00","-29.3","","-32.7","","73","","0.0","","24","","17","","","","103.08","","","","-41","","NA"
"-115.14","67.82","KUGLUKTUK CLIMATE","2300904","2021-02-02 05:00","2021","02","02","05:00","-28.6","","-31.9","","73","","0.0","","25","","20","","","","103.04","","","","-41","","NA"
"-115.14","67.82","KUGLUKTUK CLIMATE","2300904","2021-02-02 06:00","2021","02","02","06:00","-27.6","","-30.8","","74","","0.0","","26","","22","","","","103.01","","","","-41","","NA"
"-115.14","67.82","KUGLUKTUK CLIMATE","2300904","2021-02-02 07:00","2021","02","02","07:00","-27.6","","-30.9","","74","","0.0","","27","","23","","","","102.98","","","","-41","","NA"
"-115.14","67.82","KUGLUKTUK CLIMATE","2300904","2021-02-02 08:00","2021","02","02","08:00","-26.9","","-30.2","","73","","0.0","","26","","18","","","","102.97","","","","-39","","NA"
"-115.14","67.82","KUGLUKTUK CLIMATE","2300904","2021-02-02 09:00","2021","02","02","09:00","-26.4","","-29.6","","74","","0.0","","27","","22","","","","102.98","","","","-39","","NA"
"-115.14","67.82","KUGLUKTUK CLIMATE","2300904","2021-02-02 10:00","2021","02","02","10:00","-26.2","","-29.4","","74","","0.0","","27","","19","","","","103.01","","","","-38","","NA"
"-115.14","67.82","KUGLUKTUK CLIMATE","2300904","2021-02-02 11:00","2021","02","02","11:00","-26.2","","-29.4","","74","","0.0","","29","","17","","","","103.03","","","","-37","","NA"
"-115.14","67.82","KUGLUKTUK CLIMATE","2300904","2021-02-02 12:00","2021","02","02","12:00","-25.5","","-28.9","","73","","0.0","","36","","19","","","","103.03","","","","-37","","NA"
"-115.14","67.82","KUGLUKTUK CLIMATE","2300904","2021-02-02 13:00","2021","02","02","13:00","-26.0","","-29.5","","72","","0.0","","34","","11","","","","103.05","","","","-35","","NA"
"-115.14","67.82","KUGLUKTUK CLIMATE","2300904","2021-02-02 14:00","2021","02","02","14:00","-27.2","","-31.0","","71","","0.0","","30","","12","","","","103.08","","","","-37","","NA"
"-115.14","67.82","KUGLUKTUK CLIMATE","2300904","2021-02-02 15:00","2021","02","02","15:00","-27.4","","-31.1","","71","","0.0","","33","","17","","","","103.10","","","","-39","","NA"
"-115.14","67.82","KUGLUKTUK CLIMATE","2300904","2021-02-02 16:00","2021","02","02","16:00","-29.3","","-32.9","","71","","0.0","","33","","13","","","","103.09","","","","-40","","NA"
"-115.14","67.82","KUGLUKTUK CLIMATE","2300904","2021-02-02 17:00","2021","02","02","17:00","-31.2","","-34.9","","70","","0.0","","27","","11","","","","103.08","","","","-41","","NA"
"-115.14","67.82","KUGLUKTUK CLIMATE","2300904","2021-02-02 18:00","2021","02","02","18:00","-32.5","","-36.1","","71","","0.2","","28","","13","","","","103.06","","","","-44","","NA"
"-115.14","67.82","KUGLUKTUK CLIMATE","2300904","2021-02-02 19:00","2021","02","02","19:00","-32.9","","-36.5","","70","","0.0","","27","","19","","","","103.06","","","","-46","","NA"
"-115.14","67.82","KUGLUKTUK CLIMATE","2300904","2021-02-02 20:00","2021","02","02","20:00","-35.5","","-39.2","","69","","0.0","","24","","17","","","","103.04","","","","-49","","NA"
"-115.14","67.82","KUGLUKTUK CLIMATE","2300904","2021-02-02 21:00","2021","02","02","21:00","-35.2","","-38.9","","69","","0.0","","24","","24","","","","103.04","","","","-51","","NA"
"-115.14","67.82","KUGLUKTUK CLIMATE","2300904","2021-02-02 22:00","2021","02","02","22:00","-34.2","","-37.8","","70","","0.0","","26","","25","","","","103.00","","","","-50","","NA"
"-115.14","67.82","KUGLUKTUK CLIMATE","2300904","2021-02-02 23:00","2021","02","02","23:00","-35.4","","-39.1","","69","","0.0","","25","","22","","","","102.96","","","","-51","","NA"
"-115.14","67.82","KUGLUKTUK CLIMATE","2300904","2021-02-03 00:00","2021","02","03","00:00","-35.7","","-39.4","","69","","0.0","","25","","23","","","","102.96","","","","-51","","NA"
"-115.14","67.82","KUGLUKTUK CLIMATE","2300904","2021-02-03 01:00","2021","02","03","01:00","-36.2","","-40.0","","68","","0.0","","25","","21","","","","102.92","","","","-51","","NA"
"-115.14","67.82","KUGLUKTUK CLIMATE","2300904","2021-02-03 02:00","2021","02","03","02:00","-35.9","","-39.6","","69","","0.0","","24","","23","","","","102.87","","","","-51","","NA"
"-115.14","67.82","KUGLUKTUK CLIMATE","2300904","2021-02-03 03:00","2021","02","03","03:00","-37.0","","-40.8","","68","","0.0","","23","","19","","","","102.85","","","","-52","","NA"
"-115.14","67.82","KUGLUKTUK CLIMATE","2300904","2021-02-03 04:00","2021","02","03","04:00","-36.5","","-40.3","","68","","0.0","","24","","23","","","","102.80","","","","-52","","NA"
"-115.14","67.82","KUGLUKTUK CLIMATE","2300904","2021-02-03 05:00","2021","02","03","05:00","-36.6","","-40.4","","68","","0.0","","24","","21","","","","102.83","","","","-52","","NA"
"-115.14","67.82","KUGLUKTUK CLIMATE","2300904","2021-02-03 06:00","2021","02","03","06:00","-37.4","","-41.3","","67","","0.0","","21","","9","","","","102.79","","","","-47","","NA"
"-115.14","67.82","KUGLUKTUK CLIMATE","2300904","2021-02-03 07:00","2021","02","03","07:00","-37.3","","-41.1","","68","","0.0","","23","","21","","","","102.75","","","","-53","","NA"
"-115.14","67.82","KUGLUKTUK CLIMATE","2300904","2021-02-03 08:00","2021","02","03","08:00","-37.3","","-41.1","","68","","0.0","","24","","21","","","","102.70","","","","-53","","NA"
"-115.14","67.82","KUGLUKTUK CLIMATE","2300904","2021-02-03 09:00","2021","02","03","09:00","-36.4","","-40.2","","68","","0.0","","25","","24","","","","102.66","","","","-52","","NA"
"-115.14","67.82","KUGLUKTUK CLIMATE","2300904","2021-02-03 10:00","2021","02","03","10:00","-37.5","","-41.3","","67","","0.0","","24","","27","","","","102.62","","","","-55","","NA"
"-115.14","67.82","KUGLUKTUK CLIMATE","2300904","2021-02-03 11:00","2021","02","03","11:00","-37.3","","-41.1","","67","","0.0","","23","","29","","","","102.60","","","","-55","","NA"
"-115.14","67.82","KUGLUKTUK CLIMATE","2300904","2021-02-03 12:00","2021","02","03","12:00","-36.8","","-40.7","","67","","0.0","","24","","25","","","","102.56","","","","-53","","NA"
"-115.14","67.82","KUGLUKTUK CLIMATE","2300904","2021-02-03 13:00","2021","02","03","13:00","-35.8","","-39.7","","67","","0.0","","24","","24","","","","102.53","","","","-52","","NA"
"-115.14","67.82","KUGLUKTUK CLIMATE","2300904","2021-02-03 14:00","2021","02","03","14:00","-36.6","","-40.6","","67","","0.0","","24","","21","","","","102.49","","","","-52","","NA"
"-115.14","67.82","KUGLUKTUK CLIMATE","2300904","2021-02-03 15:00","2021","02","03","15:00","-36.1","","-40.1","","67","","0.0","","25","","29","","","","102.44","","","","-53","","NA"
"-115.14","67.82","KUGLUKTUK CLIMATE","2300904","2021-02-03 16:00","2021","02","03","16:00","-35.9","","-39.7","","68","","0.0","","25","","27","","","","102.42","","","","-53","","NA"
"-115.14","67.82","KUGLUKTUK CLIMATE","2300904","2021-02-03 17:00","2021","02","03","17:00","-35.6","","-39.5","","67","","0.0","","24","","23","","","","102.41","","","","-51","","NA"
"-115.14","67.82","KUGLUKTUK CLIMATE","2300904","2021-02-03 18:00","2021","02","03","18:00","-34.4","","-38.3","","68","","0.0","","25","","22","","","","102.36","","","","-49","","NA"
"-115.14","67.82","KUGLUKTUK CLIMATE","2300904","2021-02-03 19:00","2021","02","03","19:00","-34.6","","-38.5","","68","","0.0","","24","","21","","","","102.33","","","","-49","","NA"
"-115.14","67.82","KUGLUKTUK CLIMATE","2300904","2021-02-03 20:00","2021","02","03","20:00","-33.5","","-37.3","","69","","0.0","","25","","24","","","","102.31","","","","-49","","NA"
"-115.14","67.82","KUGLUKTUK CLIMATE","2300904","2021-02-03 21:00","2021","02","03","21:00","-33.6","","-37.4","","69","","0.0","","25","","25","","","","102.30","","","","-49","","NA"
"-115.14","67.82","KUGLUKTUK CLIMATE","2300904","2021-02-03 22:00","2021","02","03","22:00","-32.4","","-36.2","","69","","0.0","","25","","19","","","","102.29","","","","-46","","NA"
"-115.14","67.82","KUGLUKTUK CLIMATE","2300904","2021-02-03 23:00","2021","02","03","23:00","-33.7","","-37.5","","68","","0.0","","24","","22","","","","102.26","","","","-48","","NA"
"-115.14","67.82","KUGLUKTUK CLIMATE","2300904","2021-02-04 00:00","2021","02","04","00:00","-34.5","","-38.4","","68","","0.0","","24","","26","","","","102.24","","","","-51","","NA"
"-115.14","67.82","KUGLUKTUK CLIMATE","2300904","2021-02-04 01:00","2021","02","04","01:00","-35.0","","-38.9","","67","","0.2","","26","","24","","","","102.25","","","","-51","","NA"
"-115.14","67.82","KUGLUKTUK CLIMATE","2300904","2021-02-04 02:00","2021","02","04","02:00","-33.5","","-37.4","","68","","0.0","","27","","29","","","","102.22","","","","-50","","NA"
"-115.14","67.82","KUGLUKTUK CLIMATE","2300904","2021-02-04 03:00","2021","02","04","03:00","-34.3","","-38.2","","67","","0.0","","27","","25","","","","102.23","","","","-50","","NA"
"-115.14","67.82","KUGLUKTUK CLIMATE","2300904","2021-02-04 04:00","2021","02","04","04:00","-34.5","","-38.5","","67","","0.0","","28","","27","","","","102.20","","","","-51","","NA"
"-115.14","67.82","KUGLUKTUK CLIMATE","2300904","2021-02-04 05:00","2021","02","04","05:00","-35.0","","-39.0","","67","","0.0","","27","","28","","","","102.18","","","","-52","","NA"
"-115.14","67.82","KUGLUKTUK CLIMATE","2300904","2021-02-04 06:00","2021","02","04","06:00","-35.5","","-39.4","","67","","0.0","","26","","20","","","","102.21","","","","-50","","NA"
"-115.14","67.82","KUGLUKTUK CLIMATE","2300904","2021-02-04 07:00","2021","02","04","07:00","-35.1","","-39.0","","67","","0.0","","27","","25","","","","102.22","","","","-51","","NA"
"-115.14","67.82","KUGLUKTUK CLIMATE","2300904","2021-02-04 08:00","2021","02","04","08:00","-35.6","","-39.6","","67","","0.0","","27","","25","","","","102.23","","","","-52","","NA"
"-115.14","67.82","KUGLUKTUK CLIMATE","2300904","2021-02-04 09:00","2021","02","04","09:00","-35.3","","-39.3","","67","","0.0","","27","","23","","","","102.25","","","","-51","","NA"
"-115.14","67.82","KUGLUKTUK CLIMATE","2300904","2021-02-04 10:00","2021","02","04","10:00","-35.4","","-39.4","","67","","0.0","","27","","24","","","","102.26","","","","-51","","NA"
"-115.14","67.82","KUGLUKTUK CLIMATE","2300904","2021-02-04 11:00","2021","02","04","11:00","-35.5","","-39.3","","68","","0.0","","27","","24","","","","102.28","","","","-51","","NA"
"-115.14","67.82","KUGLUKTUK CLIMATE","2300904","2021-02-04 12:00","2021","02","04","12:00","-35.0","","-38.9","","68","","0.0","","26","","24","","","","102.31","","","","-51","","NA"
"-115.14","67.82","KUGLUKTUK CLIMATE","2300904","2021-02-04 13:00","2021","02","04","13:00","-35.0","","-38.8","","68","","0.0","","27","","20","","","","102.33","","","","-49","","NA"
"-115.14","67.82","KUGLUKTUK CLIMATE","2300904","2021-02-04 14:00","2021","02","04","14:00","-34.6","","-38.4","","68","","0.0","","27","","19","","","","102.36","","","","-49","","NA"
"-115.14","67.82","KUGLUKTUK CLIMATE","2300904","2021-02-04 15:00","2021","02","04","15:00","-34.9","","-38.8","","68","","0.0","","26","","18","","","","102.40","","","","-49","","NA"
"-115.14","67.82","KUGLUKTUK CLIMATE","2300904","2021-02-04 16:00","2021","02","04","16:00","-34.9","","-38.7","","68","","0.0","","27","","21","","","","102.42","","","","-50","","NA"
"-115.14","67.82","KUGLUKTUK CLIMATE","2300904","2021-02-04 17:00","2021","02","04","17:00","-35.3","","-39.2","","68","","0.0","","27","","25","","","","102.44","","","","-51","","NA"
"-115.14","67.82","KUGLUKTUK CLIMATE","2300904","2021-02-04 18:00","2021","02","04","18:00","-35.8","","-39.6","","68","","0.0","","28","","22","","","","102.47","","","","-51","","NA"
"-115.14","67.82","KUGLUKTUK CLIMATE","2300904","2021-02-04 19:00","2021","02","04","19:00","-36.3","","-40.2","","67","","0.0","","27","","24","","","","102.46","","","","-52","","NA"
"-115.14","67.82","KUGLUKTUK CLIMATE","2300904","2021-02-04 20:00","2021","02","04","20:00","-36.9","","-40.8","","67","","0.0","","27","","23","","","","102.49","","","","-53","","NA"
"-115.14","67.82","KUGLUKTUK CLIMATE","2300904","2021-02-04 21:00","2021","02","04","21:00","-37.0","","-40.9","","67","","0.0","","28","","17","","","","102.55","","","","-51","","NA"
"-115.14","67.82","KUGLUKTUK CLIMATE","2300904","2021-02-04 22:00","2021","02","04","22:00","-37.4","","-41.4","","66","","0.0","","28","","18","","","","102.59","","","","-52","","NA"
"-115.14","67.82","KUGLUKTUK CLIMATE","2300904","2021-02-04 23:00","2021","02","04","23:00","-37.8","","-41.9","","65","","0.0","","27","","19","","","","102.60","","","","-53","","NA"
"-115.14","67.82","KUGLUKTUK CLIMATE","2300904","2021-02-05 00:00","2021","02","05","00:00","-37.9","","-41.9","","66","","0.0","","27","","23","","","","102.64","","","","-54","","NA"
"-115.14","67.82","KUGLUKTUK CLIMATE","2300904","2021-02-05 01:00","2021","02","05","01:00","-37.7","","-41.7","","66","","0.0","","27","","26","","","","102.67","","","","-55","","NA"
"-115.14","67.82","KUGLUKTUK CLIMATE","2300904","2021-02-05 02:00","2021","02","05","02:00","-37.5","","-41.6","","66","","0.0","","26","","25","","","","102.70","","","","-54","","NA"
"-115.14","67.82","KUGLUKTUK CLIMATE","2300904","2021-02-05 03:00","2021","02","05","03:00","-37.5","","-41.5","","66","","0.0","","27","","25","","","","102.75","","","","-54","","NA"
"-115.14","67.82","KUGLUKTUK CLIMATE","2300904","2021-02-05 04:00","2021","02","05","04:00","-36.8","","-40.9","","66","","0.0","","27","","22","","","","102.76","","","","-52","","NA"
"-115.14","67.82","KUGLUKTUK CLIMATE","2300904","2021-02-05 05:00","2021","02","05","05:00","-36.4","","-40.4","","66","","0.0","","28","","22","","","","102.80","","","","-52","","NA"
"-115.14","67.82","KUGLUKTUK CLIMATE","2300904","2021-02-05 06:00","2021","02","05","06:00","-35.7","","-39.7","","67","","0.0","","29","","23","","","","102.82","","","","-51","","NA"
"-115.14","67.82","KUGLUKTUK CLIMATE","2300904","2021-02-05 07:00","2021","02","05","07:00","-36.2","","-40.3","","66","","0.0","","30","","16","","","","102.88","","","","-49","","NA"
"-115.14","67.82","KUGLUKTUK CLIMATE","2300904","2021-02-05 08:00","2021","02","05","08:00","-37.0","","-41.1","","65","","0.0","","30","","19","","","","102.88","","","","-52","","NA"
"-115.14","67.82","KUGLUKTUK CLIMATE","2300904","2021-02-05 09:00","2021","02","05","09:00","-36.2","","-40.3","","66","","0.0","","31","","20","","","","102.91","","","","-51","","NA"
"-115.14","67.82","KUGLUKTUK CLIMATE","2300904","2021-02-05 10:00","2021","02","05","10:00","-36.0","","-40.1","","66","","0.0","","29","","18","","","","102.95","","","","-50","","NA"
"-115.14","67.82","KUGLUKTUK CLIMATE","2300904","2021-02-05 11:00","2021","02","05","11:00","-35.9","","-40.2","","65","","0.0","","29","","18","","","","102.96","","","","-50","","NA"
"-115.14","67.82","KUGLUKTUK CLIMATE","2300904","2021-02-05 12:00","2021","02","05","12:00","-35.2","","-39.4","","66","","0.0","","29","","21","","","","102.96","","","","-50","","NA"
"-115.14","67.82","KUGLUKTUK CLIMATE","2300904","2021-02-05 13:00","2021","02","05","13:00","-35.2","","-39.4","","66","","0.0","","29","","18","","","","102.99","","","","-49","","NA"
"-115.14","67.82","KUGLUKTUK CLIMATE","2300904","2021-02-05 14:00","2021","02","05","14:00","-35.5","","-39.8","","65","","0.0","","28","","23","","","","102.99","","","","-51","","NA"
"-115.14","67.82","KUGLUKTUK CLIMATE","2300904","2021-02-05 15:00","2021","02","05","15:00","-36.0","","-40.3","","65","","0.0","","27","","22","","","","103.00","","","","-51","","NA"
"-115.14","67.82","KUGLUKTUK CLIMATE","2300904","2021-02-05 16:00","2021","02","05","16:00","-36.2","","-40.2","","66","","0.0","","27","","26","","","","103.00","","","","-53","","NA"
"-115.14","67.82","KUGLUKTUK CLIMATE","2300904","2021-02-05 17:00","2021","02","05","17:00","-36.1","","-40.1","","66","","0.0","","27","","25","","","","103.03","","","","-52","","NA"
"-115.14","67.82","KUGLUKTUK CLIMATE","2300904","2021-02-05 18:00","2021","02","05","18:00","-36.5","","-40.4","","67","","0.0","","28","","25","","","","103.01","","","","-53","","NA"
"-115.14","67.82","KUGLUKTUK CLIMATE","2300904","2021-02-05 19:00","2021","02","05","19:00","-36.5","","-40.4","","67","","0.0","","28","","21","","","","103.00","","","","-52","","NA"
"-115.14","67.82","KUGLUKTUK CLIMATE","2300904","2021-02-05 20:00","2021","02","05","20:00","-37.2","","-41.2","","66","","0.0","","27","","23","","","","103.00","","","","-53","","NA"
"-115.14","67.82","KUGLUKTUK CLIMATE","2300904","2021-02-05 21:00","2021","02","05","21:00","-36.9","","-40.8","","67","","0.0","","26","","21","","","","102.99","","","","-52","","NA"
"-115.14","67.82","KUGLUKTUK CLIMATE","2300904","2021-02-05 22:00","2021","02","05","22:00","-36.1","","-40.0","","67","","0.0","","27","","22","","","","102.98","","","","-51","","NA"
"-115.14","67.82","KUGLUKTUK CLIMATE","2300904","2021-02-05 23:00","2021","02","05","23:00","-36.6","","-40.6","","66","","0.0","","27","","20","","","","102.98","","","","-51","","NA"
"-115.14","67.82","KUGLUKTUK CLIMATE","2300904","2021-02-06 00:00","2021","02","06","00:00","-36.2","","-40.1","","67","","0.0","","27","","19","","","","102.99","","","","-51","","NA"
"-115.14","67.82","KUGLUKTUK CLIMATE","2300904","2021-02-06 01:00","2021","02","06","01:00","-36.3","","-40.2","","67","","0.0","","27","","21","","","","102.99","","","","-51","","NA"
"-115.14","67.82","KUGLUKTUK CLIMATE","2300904","2021-02-06 02:00","2021","02","06","02:00","-36.8","","-40.7","","67","","0.0","","27","","20","","","","103.00","","","","-52","","NA"
"-115.14","67.82","KUGLUKTUK CLIMATE","2300904","2021-02-06 03:00","2021","02","06","03:00","-37.5","","-41.5","","66","","0.0","","28","","24","","","","102.99","","","","-54","","NA"
"-115.14","67.82","KUGLUKTUK CLIMATE","2300904","2021-02-06 04:00","2021","02","06","04:00","-38.2","","-42.3","","66","","0.0","","26","","22","","","","102.97","","","","-54","","NA"
"-115.14","67.82","KUGLUKTUK CLIMATE","2300904","2021-02-06 05:00","2021","02","06","05:00","-38.6","","-42.7","","65","","0.0","","25","","24","","","","102.95","","","","-55","","NA"
"-115.14","67.82","KUGLUKTUK CLIMATE","2300904","2021-02-06 06:00","2021","02","06","06:00","-39.4","","-43.7","","64","","0.0","","24","","25","","","","102.93","","","","-57","","NA"
"-115.14","67.82","KUGLUKTUK CLIMATE","2300904","2021-02-06 07:00","2021","02","06","07:00","-40.6","","-44.9","","63","","0.0","","23","","21","","","","102.92","","","","-57","","NA"
"-115.14","67.82","KUGLUKTUK CLIMATE","2300904","2021-02-06 08:00","2021","02","06","08:00","-40.7","","-44.8","","64","","0.0","","23","","21","","","","102.81","","","","-57","","NA"
"-115.14","67.82","KUGLUKTUK CLIMATE","2300904","2021-02-06 09:00","2021","02","06","09:00","-40.4","","-44.7","","63","","0.0","","24","","22","","","","102.79","","","","-57","","NA"
"-115.14","67.82","KUGLUKTUK CLIMATE","2300904","2021-02-06 10:00","2021","02","06","10:00","-39.6","","-43.9","","63","","0.0","","24","","24","","","","102.78","","","","-57","","NA"
"-115.14","67.82","KUGLUKTUK CLIMATE","2300904","2021-02-06 11:00","2021","02","06","11:00","-39.6","","-44.1","","62","","0.0","","22","","21","","","","102.77","","","","-56","","NA"
"-115.14","67.82","KUGLUKTUK CLIMATE","2300904","2021-02-06 12:00","2021","02","06","12:00","-39.1","","-43.6","","62","","0.0","","23","","22","","","","102.74","","","","-55","","NA"
"-115.14","67.82","KUGLUKTUK CLIMATE","2300904","2021-02-06 13:00","2021","02","06","13:00","-38.8","","-43.3","","62","","0.0","","23","","16","","","","102.71","","","","-53","","NA"
"-115.14","67.82","KUGLUKTUK CLIMATE","2300904","2021-02-06 14:00","2021","02","06","14:00","-37.7","","-42.2","","63","","0.0","","23","","8","","","","102.73","","","","-47","","NA"
"-115.14","67.82","KUGLUKTUK CLIMATE","2300904","2021-02-06 15:00","2021","02","06","15:00","-37.8","","-42.2","","63","","0.0","","23","","20","","","","102.73","","","","-53","","NA"
"-115.14","67.82","KUGLUKTUK CLIMATE","2300904","2021-02-06 16:00","2021","02","06","16:00","-38.4","","-42.7","","64","","0.0","","23","","8","","","","102.75","","","","-48","","NA"
"-115.14","67.82","KUGLUKTUK CLIMATE","2300904","2021-02-06 17:00","2021","02","06","17:00","-39.6","","-43.8","","64","","0.0","","24","","20","","","","102.73","","","","-55","","NA"
"-115.14","67.82","KUGLUKTUK CLIMATE","2300904","2021-02-06 18:00","2021","02","06","18:00","-39.2","","-43.6","","63","","0.0","","23","","21","","","","102.73","","","","-55","","NA"
"-115.14","67.82","KUGLUKTUK CLIMATE","2300904","2021-02-06 19:00","2021","02","06","19:00","-38.6","","-43.0","","63","","0.0","","22","","25","","","","102.73","","","","-56","","NA"
"-115.14","67.82","KUGLUKTUK CLIMATE","2300904","2021-02-06 20:00","2021","02","06","20:00","-39.7","","-44.0","","64","","0.0","","23","","20","","","","102.73","","","","-55","","NA"
"-115.14","67.82","KUGLUKTUK CLIMATE","2300904","2021-02-06 21:00","2021","02","06","21:00","-39.3","","-43.6","","64","","0.0","","21","","19","","","","102.72","","","","-54","","NA"
"-115.14","67.82","KUGLUKTUK CLIMATE","2300904","2021-02-06 22:00","2021","02","06","22:00","-38.8","","-43.1","","64","","0.0","","23","","20","","","","102.77","","","","-54","","NA"
"-115.14","67.82","KUGLUKTUK CLIMATE","2300904","2021-02-06 23:00","2021","02","06","23:00","-39.5","","-43.9","","63","","0.0","","21","","12","","","","102.81","","","","-52","","NA"
"-115.14","67.82","KUGLUKTUK CLIMATE","2300904","2021-02-07 00:00","2021","02","07","00:00","-39.1","","-43.6","","63","","0.0","","21","","15","","","","102.83","","","","-53","","NA"
"-115.14","67.82","KUGLUKTUK CLIMATE","2300904","2021-02-07 01:00","2021","02","07","01:00","-38.8","","-43.2","","63","","0.0","","22","","15","","","","102.86","","","","-52","","NA"
"-115.14","67.82","KUGLUKTUK CLIMATE","2300904","2021-02-07 02:00","2021","02","07","02:00","-38.0","","-42.4","","64","","0.0","","22","","13","","","","102.90","","","","-50","","NA"
"-115.14","67.82","KUGLUKTUK CLIMATE","2300904","2021-02-07 03:00","2021","02","07","03:00","-38.4","","-42.9","","63","","0.0","","22","","12","","","","102.94","","","","-50","","NA"
"-115.14","67.82","KUGLUKTUK CLIMATE","2300904","2021-02-07 04:00","2021","02","07","04:00","-38.2","","-42.7","","63","","0.0","","22","","13","","","","102.98","","","","-51","","NA"
"-115.14","67.82","KUGLUKTUK CLIMATE","2300904","2021-02-07 05:00","2021","02","07","05:00","-37.9","","-42.3","","64","","0.0","","","","0","","","","103.02","","","","","","NA"
"-115.14","67.82","KUGLUKTUK CLIMATE","2300904","2021-02-07 06:00","2021","02","07","06:00","-38.1","","-42.5","","64","","0.0","","22","","5","","","","103.11","","","","-45","","NA"
"-115.14","67.82","KUGLUKTUK CLIMATE","2300904","2021-02-07 07:00","2021","02","07","07:00","-39.7","","-43.8","","65","","0.0","","19","","10","","","","103.14","","","","-51","","NA"
"-115.14","67.82","KUGLUKTUK CLIMATE","2300904","2021-02-07 08:00","2021","02","07","08:00","-40.2","","-44.3","","64","","0.0","","35","","1","","","","103.16","","","","-42","","NA"
"-115.14","67.82","KUGLUKTUK CLIMATE","2300904","2021-02-07 09:00","2021","02","07","09:00","-39.9","","-43.9","","66","","0.0","","32","","4","","","","103.21","","","","-45","","NA"
"-115.14","67.82","KUGLUKTUK CLIMATE","2300904","2021-02-07 10:00","2021","02","07","10:00","-40.3","","-44.3","","65","","0.0","","34","","4","","","","103.27","","","","-46","","NA"
"-115.14","67.82","KUGLUKTUK CLIMATE","2300904","2021-02-07 11:00","2021","02","07","11:00","-40.2","","-44.1","","66","","0.0","","","","0","","","","103.35","","","","","","NA"
"-115.14","67.82","KUGLUKTUK CLIMATE","2300904","2021-02-07 12:00","2021","02","07","12:00","-41.3","","-45.8","","62","","0.0","","1","","3","","","","103.43","","","","-46","","NA"
"-115.14","67.82","KUGLUKTUK CLIMATE","2300904","2021-02-07 13:00","2021","02","07","13:00","-40.5","","-44.7","","64","","0.0","","30","","8","","","","103.54","","","","-50","","NA"
"-115.14","67.82","KUGLUKTUK CLIMATE","2300904","2021-02-07 14:00","2021","02","07","14:00","-40.4","","-44.7","","64","","0.0","","27","","14","","","","103.61","","","","-54","","NA"
"-115.14","67.82","KUGLUKTUK CLIMATE","2300904","2021-02-07 15:00","2021","02","07","15:00","-39.9","","-44.4","","63","","0.0","","28","","8","","","","103.69","","","","-50","","NA"
"-115.14","67.82","KUGLUKTUK CLIMATE","2300904","2021-02-07 16:00","2021","02","07","16:00","-39.9","","-44.1","","64","","0.0","","24","","15","","","","103.75","","","","-54","","NA"
"-115.14","67.82","KUGLUKTUK CLIMATE","2300904","2021-02-07 17:00","2021","02","07","17:00","-40.0","","-44.1","","65","","0.0","","23","","17","","","","103.80","","","","-55","","NA"
"-115.14","67.82","KUGLUKTUK CLIMATE","2300904","2021-02-07 18:00","2021","02","07","18:00","-39.3","","-43.5","","65","","0.0","","24","","23","","","","103.81","","","","-56","","NA"
"-115.14","67.82","KUGLUKTUK CLIMATE","2300904","2021-02-07 19:00","2021","02","07","19:00","-40.7","","-44.9","","64","","0.0","","23","","21","","","","103.85","","","","-57","","NA"
"-115.14","67.82","KUGLUKTUK CLIMATE","2300904","2021-02-07 20:00","2021","02","07","20:00","-39.9","","-44.1","","64","","0.0","","23","","19","","","","103.92","","","","-55","","NA"
"-115.14","67.82","KUGLUKTUK CLIMATE","2300904","2021-02-07 21:00","2021","02","07","21:00","-39.2","","-43.6","","63","","0.0","","24","","29","","","","103.90","","","","-57","","NA"
"-115.14","67.82","KUGLUKTUK CLIMATE","2300904","2021-02-07 22:00","2021","02","07","22:00","-40.1","","-44.5","","63","","0.0","","24","","28","","","","103.96","","","","-58","","NA"
"-115.14","67.82","KUGLUKTUK CLIMATE","2300904","2021-02-07 23:00","2021","02","07","23:00","-39.8","","-44.3","","63","","0.0","","24","","28","","","","103.98","","","","-58","","NA"
"-115.14","67.82","KUGLUKTUK CLIMATE","2300904","2021-02-08 00:00","2021","02","08","00:00","-39.4","","-43.7","","63","","0.0","","25","","24","","","","104.01","","","","-56","","NA"
"-115.14","67.82","KUGLUKTUK CLIMATE","2300904","2021-02-08 01:00","2021","02","08","01:00","-39.9","","-44.4","","63","","0.0","","24","","28","","","","104.07","","","","-58","","NA"
"-115.14","67.82","KUGLUKTUK CLIMATE","2300904","2021-02-08 02:00","2021","02","08","02:00","-39.6","","-43.9","","64","","0.0","","24","","27","","","","104.05","","","","-57","","NA"
"-115.14","67.82","KUGLUKTUK CLIMATE","2300904","2021-02-08 03:00","2021","02","08","03:00","-40.2","","-44.4","","64","","0.0","","24","","24","","","","104.10","","","","-57","","NA"
"-115.14","67.82","KUGLUKTUK CLIMATE","2300904","2021-02-08 04:00","2021","02","08","04:00","-40.4","","-44.5","","64","","0.0","","24","","26","","","","104.09","","","","-58","","NA"
"-115.14","67.82","KUGLUKTUK CLIMATE","2300904","2021-02-08 05:00","2021","02","08","05:00","-39.4","","-43.5","","65","","0.0","","24","","28","","","","104.09","","","","-57","","NA"
"-115.14","67.82","KUGLUKTUK CLIMATE","2300904","2021-02-08 06:00","2021","02","08","06:00","-37.8","","-41.8","","66","","0.0","","25","","30","","","","104.08","","","","-56","","NA"
"-115.14","67.82","KUGLUKTUK CLIMATE","2300904","2021-02-08 07:00","2021","02","08","07:00","-35.8","","-39.9","","66","","0.0","","26","","34","","","","104.08","","","","-54","","NA"
"-115.14","67.82","KUGLUKTUK CLIMATE","2300904","2021-02-08 08:00","2021","02","08","08:00","-35.3","","-39.5","","65","","0.0","","26","","34","","","","104.04","","","","-53","","NA"
"-115.14","67.82","KUGLUKTUK CLIMATE","2300904","2021-02-08 09:00","2021","02","08","09:00","-34.7","","-38.7","","67","","0.0","","25","","29","","","","104.01","","","","-52","","NA"
"-115.14","67.82","KUGLUKTUK CLIMATE","2300904","2021-02-08 10:00","2021","02","08","10:00","-33.2","","-37.0","","68","","0.0","","26","","25","","","","104.03","","","","-49","","NA"
"-115.14","67.82","KUGLUKTUK CLIMATE","2300904","2021-02-08 11:00","2021","02","08","11:00","-32.4","","-36.2","","69","","0.0","","26","","24","","","","104.03","","","","-47","","NA"
"-115.14","67.82","KUGLUKTUK CLIMATE","2300904","2021-02-08 12:00","2021","02","08","12:00","-31.3","","-35.0","","70","","0.0","","26","","22","","","","104.03","","","","-45","","NA"
"-115.14","67.82","KUGLUKTUK CLIMATE","2300904","2021-02-08 13:00","2021","02","08","13:00","-29.9","","-33.4","","71","","0.0","","28","","14","","","","104.06","","","","-41","","NA"
"-115.14","67.82","KUGLUKTUK CLIMATE","2300904","2021-02-08 14:00","2021","02","08","14:00","-29.1","","-32.6","","72","","0.0","","28","","13","","","","104.03","","","","-39","","NA"
"-115.14","67.82","KUGLUKTUK CLIMATE","2300904","2021-02-08 15:00","2021","02","08","15:00","-28.8","","-32.2","","72","","0.0","","29","","14","","","","104.03","","","","-40","","NA"
"-115.14","67.82","KUGLUKTUK CLIMATE","2300904","2021-02-08 16:00","2021","02","08","16:00","-29.2","","-32.7","","72","","0.0","","28","","10","","","","104.10","","","","-38","","NA"
"-115.14","67.82","KUGLUKTUK CLIMATE","2300904","2021-02-08 17:00","2021","02","08","17:00","-28.7","","-32.1","","73","","0.0","","30","","12","","","","104.11","","","","-39","","NA"
"-115.14","67.82","KUGLUKTUK CLIMATE","2300904","2021-02-08 18:00","2021","02","08","18:00","-28.8","","-32.2","","73","","0.0","","30","","12","","","","104.08","","","","-39","","NA"
"-115.14","67.82","KUGLUKTUK CLIMATE","2300904","2021-02-08 19:00","2021","02","08","19:00","-29.0","","-32.4","","72","","0.0","","32","","17","","","","104.06","","","","-41","","NA"
"-115.14","67.82","KUGLUKTUK CLIMATE","2300904","2021-02-08 20:00","2021","02","08","20:00","-28.4","","-31.8","","73","","0.2","","32","","20","","","","104.07","","","","-41","","NA"
"-115.14","67.82","KUGLUKTUK CLIMATE","2300904","2021-02-08 21:00","2021","02","08","21:00","-28.7","","-32.0","","73","","0.0","","31","","15","","","","104.13","","","","-40","","NA"
"-115.14","67.82","KUGLUKTUK CLIMATE","2300904","2021-02-08 22:00","2021","02","08","22:00","-28.6","","-32.0","","73","","0.0","","32","","15","","","","104.12","","","","-40","","NA"
"-115.14","67.82","KUGLUKTUK CLIMATE","2300904","2021-02-08 23:00","2021","02","08","23:00","-28.4","","-31.8","","73","","0.0","","30","","16","","","","104.10","","","","-40","","NA"
"-115.14","67.82","KUGLUKTUK CLIMATE","2300904","2021-02-09 00:00","2021","02","09","00:00","-28.2","","-31.5","","73","","0.0","","29","","13","","","","104.10","","","","-38","","NA"
"-115.14","67.82","KUGLUKTUK CLIMATE","2300904","2021-02-09 01:00","2021","02","09","01:00","-28.2","","-31.5","","73","","0.0","","29","","10","","","","104.10","","","","-37","","NA"
"-115.14","67.82","KUGLUKTUK CLIMATE","2300904","2021-02-09 02:00","2021","02","09","02:00","-28.3","","-31.7","","73","","0.0","","30","","12","","","","104.11","","","","-38","","NA"
"-115.14","67.82","KUGLUKTUK CLIMATE","2300904","2021-02-09 03:00","2021","02","09","03:00","-28.1","","-31.5","","73","","0.0","","29","","14","","","","104.12","","","","-39","","NA"
"-115.14","67.82","KUGLUKTUK CLIMATE","2300904","2021-02-09 04:00","2021","02","09","04:00","-28.1","","-31.4","","73","","0.0","","30","","11","","","","104.15","","","","-37","","NA"
"-115.14","67.82","KUGLUKTUK CLIMATE","2300904","2021-02-09 05:00","2021","02","09","05:00","-29.2","","-32.7","","72","","0.0","","28","","11","","","","104.14","","","","-39","","NA"
"-115.14","67.82","KUGLUKTUK CLIMATE","2300904","2021-02-09 06:00","2021","02","09","06:00","-30.2","","-33.7","","72","","0.0","","29","","18","","","","104.12","","","","-43","","NA"
"-115.14","67.82","KUGLUKTUK CLIMATE","2300904","2021-02-09 07:00","2021","02","09","07:00","-29.8","","-33.3","","72","","0.0","","30","","18","","","","104.17","","","","-42","","NA"
"-115.14","67.82","KUGLUKTUK CLIMATE","2300904","2021-02-09 08:00","2021","02","09","08:00","-30.3","","-33.8","","72","","0.0","","29","","15","","","","104.14","","","","-42","","NA"
"-115.14","67.82","KUGLUKTUK CLIMATE","2300904","2021-02-09 09:00","2021","02","09","09:00","-29.5","","-32.9","","73","","0.0","","29","","19","","","","104.11","","","","-42","","NA"
"-115.14","67.82","KUGLUKTUK CLIMATE","2300904","2021-02-09 10:00","2021","02","09","10:00","-29.2","","-32.6","","72","","0.0","","27","","17","","","","104.13","","","","-41","","NA"
"-115.14","67.82","KUGLUKTUK CLIMATE","2300904","2021-02-09 11:00","2021","02","09","11:00","-28.5","","-31.8","","73","","0.0","","27","","18","","","","104.18","","","","-41","","NA"
"-115.14","67.82","KUGLUKTUK CLIMATE","2300904","2021-02-09 12:00","2021","02","09","12:00","-27.7","","-31.0","","73","","0.0","","26","","17","","","","104.12","","","","-39","","NA"
"-115.14","67.82","KUGLUKTUK CLIMATE","2300904","2021-02-09 13:00","2021","02","09","13:00","-27.0","","-30.3","","74","","0.0","","26","","16","","","","104.15","","","","-38","","NA"
"-115.14","67.82","KUGLUKTUK CLIMATE","2300904","2021-02-09 14:00","2021","02","09","14:00","-25.9","","-29.0","","75","","0.0","","30","","14","","","","104.14","","","","-36","","NA"
"-115.14","67.82","KUGLUKTUK CLIMATE","2300904","2021-02-09 15:00","2021","02","09","15:00","-25.1","","-28.4","","74","","0.0","","31","","18","","","","104.24","","","","-36","","NA"
"-115.14","67.82","KUGLUKTUK CLIMATE","2300904","2021-02-09 16:00","2021","02","09","16:00","-25.0","","-28.1","","75","","0.0","","29","","14","","","","104.25","","","","-35","","NA"
"-115.14","67.82","KUGLUKTUK CLIMATE","2300904","2021-02-09 17:00","2021","02","09","17:00","-24.5","","-27.7","","75","","0.0","","34","","20","","","","104.29","","","","-36","","NA"
"-115.14","67.82","KUGLUKTUK CLIMATE","2300904","2021-02-09 18:00","2021","02","09","18:00","-24.4","","-27.5","","76","","0.0","","28","","11","","","","104.28","","","","-33","","NA"
"-115.14","67.82","KUGLUKTUK CLIMATE","2300904","2021-02-09 19:00","2021","02","09","19:00","-24.0","","-26.9","","77","","0.0","","32","","14","","","","104.28","","","","-34","","NA"
"-115.14","67.82","KUGLUKTUK CLIMATE","2300904","2021-02-09 20:00","2021","02","09","20:00","-24.3","","-27.4","","75","","0.0","","32","","17","","","","104.27","","","","-35","","NA"
"-115.14","67.82","KUGLUKTUK CLIMATE","2300904","2021-02-09 21:00","2021","02","09","21:00","-24.7","","-27.8","","76","","0.0","","35","","18","","","","104.26","","","","-36","","NA"
"-115.14","67.82","KUGLUKTUK CLIMATE","2300904","2021-02-09 22:00","2021","02","09","22:00","-24.9","","-28.0","","76","","0.0","","34","","19","","","","104.26","","","","-36","","NA"
"-115.14","67.82","KUGLUKTUK CLIMATE","2300904","2021-02-09 23:00","2021","02","09","23:00","-25.7","","-28.7","","75","","0.0","","31","","12","","","","104.27","","","","-35","","NA"
"-115.14","67.82","KUGLUKTUK CLIMATE","2300904","2021-02-10 00:00","2021","02","10","00:00","-25.4","","-28.4","","76","","0.0","","28","","4","","","","104.31","","","","-29","","NA"
"-115.14","67.82","KUGLUKTUK CLIMATE","2300904","2021-02-10 01:00","2021","02","10","01:00","-25.3","","-28.4","","76","","0.0","","20","","4","","","","104.33","","","","-29","","NA"
"-115.14","67.82","KUGLUKTUK CLIMATE","2300904","2021-02-10 02:00","2021","02","10","02:00","-25.1","","-28.2","","76","","0.0","","32","","10","","","","104.38","","","","-33","","NA"
"-115.14","67.82","KUGLUKTUK CLIMATE","2300904","2021-02-10 03:00","2021","02","10","03:00","-25.5","","-28.6","","75","","0.0","","33","","15","","","","104.38","","","","-36","","NA"
"-115.14","67.82","KUGLUKTUK CLIMATE","2300904","2021-02-10 04:00","2021","02","10","04:00","-25.2","","-28.3","","76","","0.0","","32","","8","","","","104.42","","","","-32","","NA"
"-115.14","67.82","KUGLUKTUK CLIMATE","2300904","2021-02-10 05:00","2021","02","10","05:00","-25.4","","-28.5","","75","","0.0","","32","","7","","","","104.46","","","","-32","","NA"
"-115.14","67.82","KUGLUKTUK CLIMATE","2300904","2021-02-10 06:00","2021","02","10","06:00","-25.6","","-28.7","","75","","0.0","","32","","12","","","","104.48","","","","-35","","NA"
"-115.14","67.82","KUGLUKTUK CLIMATE","2300904","2021-02-10 07:00","2021","02","10","07:00","-25.4","","-28.6","","75","","0.0","","34","","16","","","","104.50","","","","-36","","NA"
"-115.14","67.82","KUGLUKTUK CLIMATE","2300904","2021-02-10 08:00","2021","02","10","08:00","-25.6","","-28.7","","75","","0.0","","29","","5","","","","104.55","","","","-31","","NA"
"-115.14","67.82","KUGLUKTUK CLIMATE","2300904","2021-02-10 09:00","2021","02","10","09:00","-25.5","","-28.6","","75","","0.0","","24","","6","","","","104.59","","","","-31","","NA"
"-115.14","67.82","KUGLUKTUK CLIMATE","2300904","2021-02-10 10:00","2021","02","10","10:00","-25.5","","-28.6","","75","","0.0","","18","","7","","","","104.66","","","","-32","","NA"
"-115.14","67.82","KUGLUKTUK CLIMATE","2300904","2021-02-10 11:00","2021","02","10","11:00","-25.3","","-28.5","","74","","0.0","","20","","4","","","","104.71","","","","-29","","NA"
"-115.14","67.82","KUGLUKTUK CLIMATE","2300904","2021-02-10 12:00","2021","02","10","12:00","-25.2","","-28.4","","75","","0.0","","31","","9","","","","104.75","","","","-33","","NA"
"-115.14","67.82","KUGLUKTUK CLIMATE","2300904","2021-02-10 13:00","2021","02","10","13:00","-25.4","","-28.6","","74","","0.0","","31","","9","","","","104.72","","","","-33","","NA"
"-115.14","67.82","KUGLUKTUK CLIMATE","2300904","2021-02-10 14:00","2021","02","10","14:00","-25.4","","-28.6","","74","","0.0","","29","","4","","","","104.80","","","","-29","","NA"
"-115.14","67.82","KUGLUKTUK CLIMATE","2300904","2021-02-10 15:00","2021","02","10","15:00","-25.2","","-28.4","","75","","0.0","","29","","3","","","","104.81","","","","-28","","NA"
"-115.14","67.82","KUGLUKTUK CLIMATE","2300904","2021-02-10 16:00","2021","02","10","16:00","-25.6","","-28.9","","74","","0.0","","26","","12","","","","104.78","","","","-35","","NA"
"-115.14","67.82","KUGLUKTUK CLIMATE","2300904","2021-02-10 17:00","2021","02","10","17:00","-26.5","","-29.8","","73","","0.0","","26","","15","","","","104.78","","","","-37","","NA"
"-115.14","67.82","KUGLUKTUK CLIMATE","2300904","2021-02-10 18:00","2021","02","10","18:00","-26.8","","-30.2","","73","","0.0","","26","","18","","","","104.80","","","","-38","","NA"
"-115.14","67.82","KUGLUKTUK CLIMATE","2300904","2021-02-10 19:00","2021","02","10","19:00","-27.7","","-31.2","","73","","0.0","","25","","18","","","","104.78","","","","-40","","NA"
"-115.14","67.82","KUGLUKTUK CLIMATE","2300904","2021-02-10 20:00","2021","02","10","20:00","-28.3","","-31.7","","72","","0.0","","24","","19","","","","104.74","","","","-41","","NA"
"-115.14","67.82","KUGLUKTUK CLIMATE","2300904","2021-02-10 21:00","2021","02","10","21:00","-28.8","","-32.4","","71","","0.0","","25","","21","","","","104.72","","","","-42","","NA"
"-115.14","67.82","KUGLUKTUK CLIMATE","2300904","2021-02-10 22:00","2021","02","10","22:00","-29.1","","-32.6","","72","","0.0","","25","","22","","","","104.69","","","","-43","","NA"
"-115.14","67.82","KUGLUKTUK CLIMATE","2300904","2021-02-10 23:00","2021","02","10","23:00","-29.4","","-33.0","","71","","0.0","","24","","19","","","","104.69","","","","-42","","NA"
"-115.14","67.82","KUGLUKTUK CLIMATE","2300904","2021-02-11 00:00","2021","02","11","00:00","-29.1","","-32.6","","72","","0.0","","25","","21","","","","104.68","","","","-42","","NA"
"-115.14","67.82","KUGLUKTUK CLIMATE","2300904","2021-02-11 01:00","2021","02","11","01:00","-28.9","","-32.4","","72","","0.0","","24","","24","","","","104.64","","","","-43","","NA"
"-115.14","67.82","KUGLUKTUK CLIMATE","2300904","2021-02-11 02:00","2021","02","11","02:00","-28.8","","-32.2","","72","","0.0","","24","","23","","","","104.62","","","","-42","","NA"
"-115.14","67.82","KUGLUKTUK CLIMATE","2300904","2021-02-11 03:00","2021","02","11","03:00","-28.6","","-32.1","","72","","0.0","","23","","21","","","","104.58","","","","-42","","NA"
"-115.14","67.82","KUGLUKTUK CLIMATE","2300904","2021-02-11 04:00","2021","02","11","04:00","-28.4","","-31.9","","72","","0.0","","23","","22","","","","104.54","","","","-42","","NA"
"-115.14","67.82","KUGLUKTUK CLIMATE","2300904","2021-02-11 05:00","2021","02","11","05:00","-28.7","","-32.1","","72","","0.0","","24","","18","","","","104.52","","","","-41","","NA"
"-115.14","67.82","KUGLUKTUK CLIMATE","2300904","2021-02-11 06:00","2021","02","11","06:00","-28.6","","-32.0","","72","","0.0","","25","","14","","","","104.50","","","","-39","","NA"
"-115.14","67.82","KUGLUKTUK CLIMATE","2300904","2021-02-11 07:00","2021","02","11","07:00","-29.1","","-32.5","","73","","0.0","","21","","6","","","","104.45","","","","-35","","NA"
"-115.14","67.82","KUGLUKTUK CLIMATE","2300904","2021-02-11 08:00","2021","02","11","08:00","-29.3","","-32.6","","73","","0.0","","23","","20","","","","104.40","","","","-42","","NA"
"-115.14","67.82","KUGLUKTUK CLIMATE","2300904","2021-02-11 09:00","2021","02","11","09:00","-28.9","","-32.2","","73","","0.2","","17","","4","","","","104.37","","","","-33","","NA"
"-115.14","67.82","KUGLUKTUK CLIMATE","2300904","2021-02-11 10:00","2021","02","11","10:00","-29.3","","-32.7","","73","","0.0","","24","","19","","","","104.34","","","","-42","","NA"
"-115.14","67.82","KUGLUKTUK CLIMATE","2300904","2021-02-11 11:00","2021","02","11","11:00","-28.7","","-32.2","","72","","0.0","","24","","14","","","","104.29","","","","-39","","NA"
"-115.14","67.82","KUGLUKTUK CLIMATE","2300904","2021-02-11 12:00","2021","02","11","12:00","-27.7","","-31.3","","71","","0.0","","24","","14","","","","104.29","","","","-38","","NA"
"-115.14","67.82","KUGLUKTUK CLIMATE","2300904","2021-02-11 13:00","2021","02","11","13:00","-27.6","","-31.3","","70","","0.0","","24","","11","","","","104.25","","","","-37","","NA"
"-115.14","67.82","KUGLUKTUK CLIMATE","2300904","2021-02-11 14:00","2021","02","11","14:00","-26.9","","-30.6","","71","","0.0","","24","","15","","","","104.19","","","","-38","","NA"
"-115.14","67.82","KUGLUKTUK CLIMATE","2300904","2021-02-11 15:00","2021","02","11","15:00","-28.0","","-31.7","","71","","0.0","","24","","12","","","","104.17","","","","-38","","NA"
"-115.14","67.82","KUGLUKTUK CLIMATE","2300904","2021-02-11 16:00","2021","02","11","16:00","-28.1","","-31.5","","73","","0.0","","23","","13","","","","104.10","","","","-38","","NA"
"-115.14","67.82","KUGLUKTUK CLIMATE","2300904","2021-02-11 17:00","2021","02","11","17:00","-28.5","","-31.7","","74","","0.0","","22","","13","","","","104.03","","","","-39","","NA"
"-115.14","67.82","KUGLUKTUK CLIMATE","2300904","2021-02-11 18:00","2021","02","11","18:00","-28.2","","-31.7","","72","","0.0","","26","","8","","","","103.96","","","","-36","","NA"
"-115.14","67.82","KUGLUKTUK CLIMATE","2300904","2021-02-11 19:00","2021","02","11","19:00","-27.7","","-31.0","","73","","0.0","","26","","17","","","","103.91","","","","-39","","NA"
"-115.14","67.82","KUGLUKTUK CLIMATE","2300904","2021-02-11 20:00","2021","02","11","20:00","-27.6","","-30.7","","75","","0.0","","27","","2","","","","103.83","","","","-30","","NA"
"-115.14","67.82","KUGLUKTUK CLIMATE","2300904","2021-02-11 21:00","2021","02","11","21:00","-26.7","","-29.7","","75","","0.0","","25","","9","","","","103.75","","","","-35","","NA"
"-115.14","67.82","KUGLUKTUK CLIMATE","2300904","2021-02-11 22:00","2021","02","11","22:00","-28.5","","-31.4","","76","","0.0","","21","","11","","","","103.71","","","","-38","","NA"
"-115.14","67.82","KUGLUKTUK CLIMATE","2300904","2021-02-11 23:00","2021","02","11","23:00","-29.4","","-32.7","","73","","0.0","","21","","8","","","","103.72","","","","-37","","NA"
"-115.14","67.82","KUGLUKTUK CLIMATE","2300904","2021-02-12 00:00","2021","02","12","00:00","-31.3","","-34.6","","72","","0.0","","33","","4","","","","103.71","","","","-36","","NA"
"-115.14","67.82","KUGLUKTUK CLIMATE","2300904","2021-02-12 01:00","2021","02","12","01:00","-26.5","","-29.6","","75","","0.0","","27","","6","","","","103.66","","","","-32","","NA"
"-115.14","67.82","KUGLUKTUK CLIMATE","2300904","2021-02-12 02:00","2021","02","12","02:00","-29.9","","-33.3","","73","","0.0","","23","","26","","","","103.59","","","","-45","","NA"
"-115.14","67.82","KUGLUKTUK CLIMATE","2300904","2021-02-12 03:00","2021","02","12","03:00","-29.3","","-32.6","","73","","0.0","","23","","19","","","","103.57","","","","-42","","NA"
"-115.14","67.82","KUGLUKTUK CLIMATE","2300904","2021-02-12 04:00","2021","02","12","04:00","-29.4","","-32.7","","73","","0.0","","22","","17","","","","103.52","","","","-41","","NA"
"-115.14","67.82","KUGLUKTUK CLIMATE","2300904","2021-02-12 05:00","2021","02","12","05:00","-29.2","","-32.5","","73","","0.0","","22","","3","","","","103.50","","","","-33","","NA"
"-115.14","67.82","KUGLUKTUK CLIMATE","2300904","2021-02-12 06:00","2021","02","12","06:00","-29.9","","-33.3","","72","","0.0","","25","","11","","","","103.45","","","","-40","","NA"
"-115.14","67.82","KUGLUKTUK CLIMATE","2300904","2021-02-12 07:00","2021","02","12","07:00","-27.9","","-31.2","","73","","0.0","","23","","8","","","","103.43","","","","-36","","NA"
"-115.14","67.82","KUGLUKTUK CLIMATE","2300904","2021-02-12 08:00","2021","02","12","08:00","-28.9","","-32.1","","74","","0.0","","28","","8","","","","103.41","","","","-37","","NA"
"-115.14","67.82","KUGLUKTUK CLIMATE","2300904","2021-02-12 09:00","2021","02","12","09:00","-29.7","","-33.1","","72","","0.0","","22","","10","","","","103.37","","","","-39","","NA"
"-115.14","67.82","KUGLUKTUK CLIMATE","2300904","2021-02-12 10:00","2021","02","12","10:00","-30.3","","-33.7","","72","","0.0","","22","","5","","","","103.41","","","","-36","","NA"
"-115.14","67.82","KUGLUKTUK CLIMATE","2300904","2021-02-12 11:00","2021","02","12","11:00","-30.3","","-33.7","","72","","0.0","","22","","10","","","","103.33","","","","-40","","NA"
"-115.14","67.82","KUGLUKTUK CLIMATE","2300904","2021-02-12 12:00","2021","02","12","12:00","-30.8","","-34.4","","70","","0.0","","31","","4","","","","103.30","","","","-35","","NA"
"-115.14","67.82","KUGLUKTUK CLIMATE","2300904","2021-02-12 13:00","2021","02","12","13:00","-28.9","","-32.3","","73","","0.0","","","","0","","","","103.27","","","","","","NA"
"-115.14","67.82","KUGLUKTUK CLIMATE","2300904","2021-02-12 14:00","2021","02","12","14:00","-30.1","","-33.9","","69","","0.0","","14","","7","","","","103.24","","","","-37","","NA"
"-115.14","67.82","KUGLUKTUK CLIMATE","2300904","2021-02-12 15:00","2021","02","12","15:00","-30.6","","-34.4","","70","","0.0","","32","","4","","","","103.21","","","","-35","","NA"
"-115.14","67.82","KUGLUKTUK CLIMATE","2300904","2021-02-12 16:00","2021","02","12","16:00","-30.6","","-34.1","","71","","0.0","","32","","4","","","","103.18","","","","-35","","NA"
"-115.14","67.82","KUGLUKTUK CLIMATE","2300904","2021-02-12 17:00","2021","02","12","17:00","-31.6","","-34.9","","72","","0.0","","26","","3","","","","103.21","","","","-35","","NA"
"-115.14","67.82","KUGLUKTUK CLIMATE","2300904","2021-02-12 18:00","2021","02","12","18:00","-31.2","","-34.6","","72","","0.0","","0","","1","","","","103.12","","","","-32","","NA"
"-115.14","67.82","KUGLUKTUK CLIMATE","2300904","2021-02-12 19:00","2021","02","12","19:00","-30.7","","-34.0","","73","","0.0","","","","0","","","","103.09","","","","","","NA"
"-115.14","67.82","KUGLUKTUK CLIMATE","2300904","2021-02-12 20:00","2021","02","12","20:00","-31.7","","-35.0","","72","","0.0","","16","","1","","","","103.05","","","","-33","","NA"
"-115.14","67.82","KUGLUKTUK CLIMATE","2300904","2021-02-12 21:00","2021","02","12","21:00","-31.0","","-34.3","","73","","0.0","","17","","3","","","","103.02","","","","-34","","NA"
"-115.14","67.82","KUGLUKTUK CLIMATE","2300904","2021-02-12 22:00","2021","02","12","22:00","-33.3","","-36.9","","70","","0.0","","32","","6","","","","103.02","","","","-40","","NA"
"-115.14","67.82","KUGLUKTUK CLIMATE","2300904","2021-02-12 23:00","2021","02","12","23:00","-31.5","","-34.8","","72","","0.2","","20","","3","","","","102.93","","","","-35","","NA"
"-115.14","67.82","KUGLUKTUK CLIMATE","2300904","2021-02-13 00:00","2021","02","13","00:00","-32.4","","-36.1","","70","","0.0","","35","","7","","","","102.84","","","","-40","","NA"
"-115.14","67.82","KUGLUKTUK CLIMATE","2300904","2021-02-13 01:00","2021","02","13","01:00","-30.8","","-34.1","","72","","0.0","","32","","6","","","","102.85","","","","-37","","NA"
"-115.14","67.82","KUGLUKTUK CLIMATE","2300904","2021-02-13 02:00","2021","02","13","02:00","-25.1","","-27.9","","77","","0.0","","22","","13","","","","102.81","","","","-35","","NA"
"-115.14","67.82","KUGLUKTUK CLIMATE","2300904","2021-02-13 03:00","2021","02","13","03:00","-27.0","","-30.6","","71","","0.0","","25","","10","","","","102.78","","","","-36","","NA"
"-115.14","67.82","KUGLUKTUK CLIMATE","2300904","2021-02-13 04:00","2021","02","13","04:00","-29.1","","-32.3","","74","","0.0","","33","","9","","","","102.80","","","","-38","","NA"
"-115.14","67.82","KUGLUKTUK CLIMATE","2300904","2021-02-13 05:00","2021","02","13","05:00","-22.7","","-26.0","","74","","0.0","","24","","21","","","","102.74","","","","-34","","NA"
"-115.14","67.82","KUGLUKTUK CLIMATE","2300904","2021-02-13 06:00","2021","02","13","06:00","-21.3","","-25.4","","70","","0.0","","22","","30","","","","102.76","","","","-34","","NA"
"-115.14","67.82","KUGLUKTUK CLIMATE","2300904","2021-02-13 07:00","2021","02","13","07:00","-21.6","","-25.5","","71","","0.0","","22","","25","","","","102.72","","","","-34","","NA"
"-115.14","67.82","KUGLUKTUK CLIMATE","2300904","2021-02-13 08:00","2021","02","13","08:00","-20.7","","-24.5","","72","","0.0","","22","","28","","","","102.69","","","","-33","","NA"
"-115.14","67.82","KUGLUKTUK CLIMATE","2300904","2021-02-13 09:00","2021","02","13","09:00","-20.4","","-23.8","","74","","0.0","","23","","31","","","","102.67","","","","-33","","NA"
"-115.14","67.82","KUGLUKTUK CLIMATE","2300904","2021-02-13 10:00","2021","02","13","10:00","-20.6","","-24.1","","74","","0.0","","23","","35","","","","102.61","","","","-34","","NA"
"-115.14","67.82","KUGLUKTUK CLIMATE","2300904","2021-02-13 11:00","2021","02","13","11:00","-20.1","","-23.4","","75","","0.0","","22","","42","","","","102.48","","","","-35","","NA"
"-115.14","67.82","KUGLUKTUK CLIMATE","2300904","2021-02-13 12:00","2021","02","13","12:00","-19.8","","-23.4","","73","","0.0","","22","","39","","","","102.50","","","","-34","","NA"
"-115.14","67.82","KUGLUKTUK CLIMATE","2300904","2021-02-13 13:00","2021","02","13","13:00","-19.2","","-23.2","","71","","0.0","","22","","30","","","","102.50","","","","-32","","NA"
"-115.14","67.82","KUGLUKTUK CLIMATE","2300904","2021-02-13 14:00","2021","02","13","14:00","-19.3","","-23.0","","73","","0.0","","22","","33","","","","102.43","","","","-32","","NA"
"-115.14","67.82","KUGLUKTUK CLIMATE","2300904","2021-02-13 15:00","2021","02","13","15:00","-19.1","","-22.8","","73","","0.0","","23","","37","","","","102.37","","","","-33","","NA"
"-115.14","67.82","KUGLUKTUK CLIMATE","2300904","2021-02-13 16:00","2021","02","13","16:00","-19.3","","-22.8","","73","","0.0","","22","","38","","","","102.31","","","","-33","","NA"
"-115.14","67.82","KUGLUKTUK CLIMATE","2300904","2021-02-13 17:00","2021","02","13","17:00","-19.5","","-23.1","","73","","0.0","","22","","20","","","","102.24","","","","-30","","NA"
"-115.14","67.82","KUGLUKTUK CLIMATE","2300904","2021-02-13 18:00","2021","02","13","18:00","-18.7","","-22.8","","70","","0.0","","22","","29","","","","102.14","","","","-31","","NA"
"-115.14","67.82","KUGLUKTUK CLIMATE","2300904","2021-02-13 19:00","2021","02","13","19:00","-19.7","","-24.2","","68","","0.0","","22","","17","","","","102.10","","","","-29","","NA"
"-115.14","67.82","KUGLUKTUK CLIMATE","2300904","2021-02-13 20:00","2021","02","13","20:00","-20.1","","-24.6","","68","","0.0","","29","","7","","","","102.04","","","","-26","","NA"
"-115.14","67.82","KUGLUKTUK CLIMATE","2300904","2021-02-13 21:00","2021","02","13","21:00","-22.0","","-25.9","","70","","0.0","","24","","11","","","","101.94","","","","-30","","NA"
"-115.14","67.82","KUGLUKTUK CLIMATE","2300904","2021-02-13 22:00","2021","02","13","22:00","-22.8","","-27.0","","69","","0.0","","33","","6","","","","101.86","","","","-28","","NA"
"-115.14","67.82","KUGLUKTUK CLIMATE","2300904","2021-02-13 23:00","2021","02","13","23:00","-21.4","","-25.4","","70","","0.0","","24","","15","","","","101.81","","","","-31","","NA"
"-115.14","67.82","KUGLUKTUK CLIMATE","2300904","2021-02-14 00:00","2021","02","14","00:00","-21.6","","-26.1","","67","","0.0","","25","","28","","","","101.72","","","","-34","","NA"
"-115.14","67.82","KUGLUKTUK CLIMATE","2300904","2021-02-14 01:00","2021","02","14","01:00","-20.8","","-24.9","","69","","0.0","","24","","19","","","","101.70","","","","-31","","NA"
"-115.14","67.82","KUGLUKTUK CLIMATE","2300904","2021-02-14 02:00","2021","02","14","02:00","-22.5","","-27.0","","67","","0.0","","24","","28","","","","101.60","","","","-35","","NA"
"-115.14","67.82","KUGLUKTUK CLIMATE","2300904","2021-02-14 03:00","2021","02","14","03:00","-19.6","","-24.4","","66","","0.0","","23","","31","","","","101.53","","","","-32","","NA"
"-115.14","67.82","KUGLUKTUK CLIMATE","2300904","2021-02-14 04:00","2021","02","14","04:00","-20.3","","-24.5","","69","","0.0","","24","","32","","","","101.48","","","","-33","","NA"
"-115.14","67.82","KUGLUKTUK CLIMATE","2300904","2021-02-14 05:00","2021","02","14","05:00","-22.1","","-26.5","","67","","0.0","","24","","20","","","","101.42","","","","-33","","NA"
"-115.14","67.82","KUGLUKTUK CLIMATE","2300904","2021-02-14 06:00","2021","02","14","06:00","-22.2","","-26.2","","70","","0.0","","26","","20","","","","101.37","","","","-33","","NA"
"-115.14","67.82","KUGLUKTUK CLIMATE","2300904","2021-02-14 07:00","2021","02","14","07:00","-24.0","","-27.6","","72","","0.0","","35","","6","","","","101.29","","","","-30","","NA"
"-115.14","67.82","KUGLUKTUK CLIMATE","2300904","2021-02-14 08:00","2021","02","14","08:00","-20.9","","-25.1","","69","","0.0","","24","","24","","","","101.26","","","","-33","","NA"
"-115.14","67.82","KUGLUKTUK CLIMATE","2300904","2021-02-14 09:00","2021","02","14","09:00","-24.5","","-28.8","","68","","0.0","","28","","16","","","","101.20","","","","-35","","NA"
"-115.14","67.82","KUGLUKTUK CLIMATE","2300904","2021-02-14 10:00","2021","02","14","10:00","-26.0","","-29.9","","70","","0.0","","27","","13","","","","101.16","","","","-36","","NA"
"-115.14","67.82","KUGLUKTUK CLIMATE","2300904","2021-02-14 11:00","2021","02","14","11:00","-25.5","","-30.1","","65","","0.0","","28","","17","","","","101.11","","","","-37","","NA"
"-115.14","67.82","KUGLUKTUK CLIMATE","2300904","2021-02-14 12:00","2021","02","14","12:00","-26.3","","-30.8","","66","","0.0","","22","","15","","","","101.08","","","","-37","","NA"
"-115.14","67.82","KUGLUKTUK CLIMATE","2300904","2021-02-14 13:00","2021","02","14","13:00","-26.5","","-31.0","","66","","0.0","","27","","18","","","","101.03","","","","-38","","NA"
"-115.14","67.82","KUGLUKTUK CLIMATE","2300904","2021-02-14 14:00","2021","02","14","14:00","-25.4","","-29.5","","69","","0.0","","27","","15","","","","101.01","","","","-36","","NA"
"-115.14","67.82","KUGLUKTUK CLIMATE","2300904","2021-02-14 15:00","2021","02","14","15:00","-26.1","","-29.9","","70","","0.0","","26","","16","","","","100.97","","","","-37","","NA"
"-115.14","67.82","KUGLUKTUK CLIMATE","2300904","2021-02-14 16:00","2021","02","14","16:00","-24.4","","-27.7","","74","","0.0","","27","","13","","","","100.95","","","","-34","","NA"
"-115.14","67.82","KUGLUKTUK CLIMATE","2300904","2021-02-14 17:00","2021","02","14","17:00","-25.2","","-29.1","","70","","0.0","","27","","15","","","","100.95","","","","-35","","NA"
"-115.14","67.82","KUGLUKTUK CLIMATE","2300904","2021-02-14 18:00","2021","02","14","18:00","-24.7","","-28.0","","74","","0.0","","28","","18","","","","100.92","","","","-36","","NA"
"-115.14","67.82","KUGLUKTUK CLIMATE","2300904","2021-02-14 19:00","2021","02","14","19:00","-25.6","","-28.5","","77","","0.0","","26","","15","","","","100.87","","","","-36","","NA"
"-115.14","67.82","KUGLUKTUK CLIMATE","2300904","2021-02-14 20:00","2021","02","14","20:00","-28.1","","-31.5","","73","","0.0","","26","","16","","","","100.89","","","","-39","","NA"
"-115.14","67.82","KUGLUKTUK CLIMATE","2300904","2021-02-14 21:00","2021","02","14","21:00","-27.0","","-30.1","","75","","0.0","","28","","26","","","","100.93","","","","-41","","NA"
"-115.14","67.82","KUGLUKTUK CLIMATE","2300904","2021-02-14 22:00","2021","02","14","22:00","-26.6","","-29.9","","74","","0.0","","27","","21","","","","100.94","","","","-39","","NA"
"-115.14","67.82","KUGLUKTUK CLIMATE","2300904","2021-02-14 23:00","2021","02","14","23:00","-26.8","","-30.5","","71","","0.0","","26","","30","","","","100.93","","","","-41","","NA"
"-115.14","67.82","KUGLUKTUK CLIMATE","2300904","2021-02-15 00:00","2021","02","15","00:00","-26.9","","-30.6","","71","","0.0","","25","","32","","","","100.99","","","","-42","","NA"
"-115.14","67.82","KUGLUKTUK CLIMATE","2300904","2021-02-15 01:00","2021","02","15","01:00","-25.9","","-29.5","","71","","0.0","","26","","33","","","","100.99","","","","-41","","NA"
"-115.14","67.82","KUGLUKTUK CLIMATE","2300904","2021-02-15 02:00","2021","02","15","02:00","-25.5","","-29.2","","71","","0.0","","27","","29","","","","101.02","","","","-40","","NA"
"-115.14","67.82","KUGLUKTUK CLIMATE","2300904","2021-02-15 03:00","2021","02","15","03:00","-24.5","","-28.1","","72","","0.0","","27","","25","","","","101.03","","","","-37","","NA"
"-115.14","67.82","KUGLUKTUK CLIMATE","2300904","2021-02-15 04:00","2021","02","15","04:00","-24.1","","-27.8","","72","","0.0","","26","","17","","","","101.08","","","","-35","","NA"
"-115.14","67.82","KUGLUKTUK CLIMATE","2300904","2021-02-15 05:00","2021","02","15","05:00","-26.0","","-29.7","","71","","0.0","","24","","13","","","","101.10","","","","-36","","NA"
"-115.14","67.82","KUGLUKTUK CLIMATE","2300904","2021-02-15 06:00","2021","02","15","06:00","-26.7","","-30.0","","74","","0.0","","23","","10","","","","101.08","","","","-35","","NA"
"-115.14","67.82","KUGLUKTUK CLIMATE","2300904","2021-02-15 07:00","2021","02","15","07:00","-25.9","","-29.3","","73","","0.0","","26","","8","","","","101.06","","","","-33","","NA"
"-115.14","67.82","KUGLUKTUK CLIMATE","2300904","2021-02-15 08:00","2021","02","15","08:00","-27.2","","-30.2","","76","","0.0","","30","","6","","","","101.06","","","","-33","","NA"
"-115.14","67.82","KUGLUKTUK CLIMATE","2300904","2021-02-15 09:00","2021","02","15","09:00","-29.0","","-32.4","","73","","0.0","","20","","2","","","","101.03","","","","-31","","NA"
"-115.14","67.82","KUGLUKTUK CLIMATE","2300904","2021-02-15 10:00","2021","02","15","10:00","-30.0","","-33.3","","73","","0.0","","22","","11","","","","100.97","","","","-40","","NA"
"-115.14","67.82","KUGLUKTUK CLIMATE","2300904","2021-02-15 11:00","2021","02","15","11:00","-27.9","","-31.2","","73","","0.0","","24","","14","","","","100.98","","","","-38","","NA"
"-115.14","67.82","KUGLUKTUK CLIMATE","2300904","2021-02-15 12:00","2021","02","15","12:00","-27.5","","-31.3","","70","","0.0","","25","","17","","","","101.00","","","","-39","","NA"
"-115.14","67.82","KUGLUKTUK CLIMATE","2300904","2021-02-15 13:00","2021","02","15","13:00","-27.0","","-31.2","","67","","0.0","","24","","15","","","","100.97","","","","-38","","NA"
"-115.14","67.82","KUGLUKTUK CLIMATE","2300904","2021-02-15 14:00","2021","02","15","14:00","-27.9","","-31.9","","69","","0.0","","24","","20","","","","100.91","","","","-40","","NA"
"-115.14","67.82","KUGLUKTUK CLIMATE","2300904","2021-02-15 15:00","2021","02","15","15:00","-27.0","","-31.1","","69","","0.0","","25","","20","","","","100.87","","","","-39","","NA"
"-115.14","67.82","KUGLUKTUK CLIMATE","2300904","2021-02-15 16:00","2021","02","15","16:00","-28.0","","-31.9","","69","","0.0","","25","","24","","","","100.86","","","","-42","","NA"
"-115.14","67.82","KUGLUKTUK CLIMATE","2300904","2021-02-15 17:00","2021","02","15","17:00","-30.1","","-33.6","","71","","0.0","","24","","20","","","","100.85","","","","-43","","NA"
"-115.14","67.82","KUGLUKTUK CLIMATE","2300904","2021-02-15 18:00","2021","02","15","18:00","-30.2","","-33.8","","71","","0.0","","24","","20","","","","100.87","","","","-43","","NA"
"-115.14","67.82","KUGLUKTUK CLIMATE","2300904","2021-02-15 19:00","2021","02","15","19:00","-30.9","","-34.4","","71","","0.0","","23","","23","","","","100.82","","","","-45","","NA"
"-115.14","67.82","KUGLUKTUK CLIMATE","2300904","2021-02-15 20:00","2021","02","15","20:00","-28.5","","-32.3","","70","","0.0","","25","","28","","","","100.84","","","","-43","","NA"
"-115.14","67.82","KUGLUKTUK CLIMATE","2300904","2021-02-15 21:00","2021","02","15","21:00","-29.7","","-33.6","","69","","0.0","","29","","20","","","","100.89","","","","-43","","NA"
"-115.14","67.82","KUGLUKTUK CLIMATE","2300904","2021-02-15 22:00","2021","02","15","22:00","-30.7","","-34.2","","71","","0.0","","25","","9","","","","100.89","","","","-39","","NA"
"-115.14","67.82","KUGLUKTUK CLIMATE","2300904","2021-02-15 23:00","2021","02","15","23:00","-30.6","","-34.1","","72","","0.0","","24","","17","","","","100.95","","","","-43","","NA"
"-115.14","67.82","KUGLUKTUK CLIMATE","2300904","2021-02-16 00:00","2021","02","16","00:00","-31.7","","-35.2","","71","","0.0","","23","","20","","","","100.96","","","","-45","","NA"
"-115.14","67.82","KUGLUKTUK CLIMATE","2300904","2021-02-16 01:00","2021","02","16","01:00","-32.7","","-36.2","","71","","0.0","","23","","20","","","","100.98","","","","-47","","NA"
"-115.14","67.82","KUGLUKTUK CLIMATE","2300904","2021-02-16 02:00","2021","02","16","02:00","-31.6","","-35.0","","72","","0.0","","25","","22","","","","100.96","","","","-46","","NA"
"-115.14","67.82","KUGLUKTUK CLIMATE","2300904","2021-02-16 03:00","2021","02","16","03:00","-32.1","","-35.6","","71","","0.0","","25","","23","","","","100.95","","","","-47","","NA"
"-115.14","67.82","KUGLUKTUK CLIMATE","2300904","2021-02-16 04:00","2021","02","16","04:00","-32.1","","-35.7","","70","","0.0","","24","","20","","","","100.96","","","","-46","","NA"
"-115.14","67.82","KUGLUKTUK CLIMATE","2300904","2021-02-16 05:00","2021","02","16","05:00","-31.6","","-35.1","","71","","0.0","","25","","24","","","","100.95","","","","-46","","NA"
"-115.14","67.82","KUGLUKTUK CLIMATE","2300904","2021-02-16 06:00","2021","02","16","06:00","-32.6","","-36.0","","71","","0.0","","25","","26","","","","100.97","","","","-48","","NA"
"-115.14","67.82","KUGLUKTUK CLIMATE","2300904","2021-02-16 07:00","2021","02","16","07:00","-32.0","","-35.5","","71","","0.0","","22","","16","","","","100.97","","","","-44","","NA"
"-115.14","67.82","KUGLUKTUK CLIMATE","2300904","2021-02-16 08:00","2021","02","16","08:00","-31.7","","-35.2","","71","","0.0","","25","","23","","","","100.95","","","","-46","","NA"
"-115.14","67.82","KUGLUKTUK CLIMATE","2300904","2021-02-16 09:00","2021","02","16","09:00","-31.8","","-35.3","","71","","0.0","","26","","22","","","","100.99","","","","-46","","NA"
"-115.14","67.82","KUGLUKTUK CLIMATE","2300904","2021-02-16 10:00","2021","02","16","10:00","-33.0","","-36.5","","70","","0.0","","23","","22","","","","101.03","","","","-47","","NA"
"-115.14","67.82","KUGLUKTUK CLIMATE","2300904","2021-02-16 11:00","2021","02","16","11:00","-32.5","","-36.2","","69","","0.0","","23","","27","","","","101.03","","","","-48","","NA"
"-115.14","67.82","KUGLUKTUK CLIMATE","2300904","2021-02-16 12:00","2021","02","16","12:00","-30.4","","-34.2","","69","","0.0","","24","","28","","","","101.07","","","","-46","","NA"
"-115.14","67.82","KUGLUKTUK CLIMATE","2300904","2021-02-16 13:00","2021","02","16","13:00","-30.3","","-34.2","","68","","0.0","","24","","27","","","","101.09","","","","-45","","NA"
"-115.14","67.82","KUGLUKTUK CLIMATE","2300904","2021-02-16 14:00","2021","02","16","14:00","-29.2","","-33.4","","67","","0.0","","23","","28","","","","101.09","","","","-44","","NA"
"-115.14","67.82","KUGLUKTUK CLIMATE","2300904","2021-02-16 15:00","2021","02","16","15:00","-27.9","","-32.1","","67","","0.0","","25","","32","","","","101.09","","","","-43","","NA"
"-115.14","67.82","KUGLUKTUK CLIMATE","2300904","2021-02-16 16:00","2021","02","16","16:00","-28.0","","-32.2","","67","","0.0","","24","","30","","","","101.16","","","","-43","","NA"
"-115.14","67.82","KUGLUKTUK CLIMATE","2300904","2021-02-16 17:00","2021","02","16","17:00","-28.1","","-32.0","","69","","0.0","","25","","27","","","","101.21","","","","-42","","NA"
"-115.14","67.82","KUGLUKTUK CLIMATE","2300904","2021-02-16 18:00","2021","02","16","18:00","-27.5","","-31.4","","69","","0.0","","25","","23","","","","101.23","","","","-41","","NA"
"-115.14","67.82","KUGLUKTUK CLIMATE","2300904","2021-02-16 19:00","2021","02","16","19:00","-27.7","","-31.7","","69","","0.0","","25","","28","","","","101.23","","","","-42","","NA"
"-115.14","67.82","KUGLUKTUK CLIMATE","2300904","2021-02-16 20:00","2021","02","16","20:00","-28.0","","-31.7","","70","","0.0","","25","","30","","","","101.24","","","","-43","","NA"
"-115.14","67.82","KUGLUKTUK CLIMATE","2300904","2021-02-16 21:00","2021","02","16","21:00","-26.7","","-30.8","","69","","0.0","","26","","26","","","","101.26","","","","-40","","NA"
"-115.14","67.82","KUGLUKTUK CLIMATE","2300904","2021-02-16 22:00","2021","02","16","22:00","-26.6","","-30.7","","68","","0.0","","26","","32","","","","101.26","","","","-42","","NA"
"-115.14","67.82","KUGLUKTUK CLIMATE","2300904","2021-02-16 23:00","2021","02","16","23:00","-27.2","","-31.2","","69","","0.0","","26","","30","","","","101.32","","","","-42","","NA"
"-115.14","67.82","KUGLUKTUK CLIMATE","2300904","2021-02-17 00:00","2021","02","17","00:00","-26.8","","-30.9","","68","","0.0","","26","","31","","","","101.32","","","","-42","","NA"
"-115.14","67.82","KUGLUKTUK CLIMATE","2300904","2021-02-17 01:00","2021","02","17","01:00","-27.2","","-31.0","","70","","0.0","","25","","30","","","","101.35","","","","-42","","NA"
"-115.14","67.82","KUGLUKTUK CLIMATE","2300904","2021-02-17 02:00","2021","02","17","02:00","-27.6","","-31.7","","68","","0.0","","27","","25","","","","101.40","","","","-41","","NA"
"-115.14","67.82","KUGLUKTUK CLIMATE","2300904","2021-02-17 03:00","2021","02","17","03:00","-28.7","","-32.7","","69","","0.0","","26","","30","","","","101.43","","","","-44","","NA"
"-115.14","67.82","KUGLUKTUK CLIMATE","2300904","2021-02-17 04:00","2021","02","17","04:00","-29.9","","-33.8","","69","","0.0","","24","","29","","","","101.43","","","","-45","","NA"
"-115.14","67.82","KUGLUKTUK CLIMATE","2300904","2021-02-17 05:00","2021","02","17","05:00","-27.6","","-31.6","","69","","0.0","","26","","31","","","","101.43","","","","-43","","NA"
"-115.14","67.82","KUGLUKTUK CLIMATE","2300904","2021-02-17 06:00","2021","02","17","06:00","-29.4","","-33.4","","69","","0.0","","24","","29","","","","101.46","","","","-45","","NA"
"-115.14","67.82","KUGLUKTUK CLIMATE","2300904","2021-02-17 07:00","2021","02","17","07:00","-29.1","","-33.4","","67","","0.0","","25","","32","","","","101.48","","","","-45","","NA"
"-115.14","67.82","KUGLUKTUK CLIMATE","2300904","2021-02-17 08:00","2021","02","17","08:00","-30.1","","-33.9","","69","","0.0","","24","","29","","","","101.45","","","","-46","","NA"
"-115.14","67.82","KUGLUKTUK CLIMATE","2300904","2021-02-17 09:00","2021","02","17","09:00","-30.0","","-33.8","","69","","0.0","","24","","29","","","","101.42","","","","-45","","NA"
"-115.14","67.82","KUGLUKTUK CLIMATE","2300904","2021-02-17 10:00","2021","02","17","10:00","-29.7","","-33.6","","69","","0.0","","24","","29","","","","101.42","","","","-45","","NA"
"-115.14","67.82","KUGLUKTUK CLIMATE","2300904","2021-02-17 11:00","2021","02","17","11:00","-29.8","","-33.9","","67","","0.0","","23","","25","","","","101.40","","","","-44","","NA"
"-115.14","67.82","KUGLUKTUK CLIMATE","2300904","2021-02-17 12:00","2021","02","17","12:00","-29.4","","-33.5","","67","","0.0","","23","","28","","","","101.41","","","","-44","","NA"
"-115.14","67.82","KUGLUKTUK CLIMATE","2300904","2021-02-17 13:00","2021","02","17","13:00","-29.2","","-33.9","","64","","0.0","","23","","9","","","","101.45","","","","-38","","NA"
"-115.14","67.82","KUGLUKTUK CLIMATE","2300904","2021-02-17 14:00","2021","02","17","14:00","-29.0","","-33.2","","67","","0.0","","23","","19","","","","101.40","","","","-42","","NA"
"-115.14","67.82","KUGLUKTUK CLIMATE","2300904","2021-02-17 15:00","2021","02","17","15:00","-29.9","","-33.7","","70","","0.0","","22","","19","","","","101.35","","","","-43","","NA"
"-115.14","67.82","KUGLUKTUK CLIMATE","2300904","2021-02-17 16:00","2021","02","17","16:00","-27.8","","-31.8","","68","","0.0","","23","","21","","","","101.29","","","","-41","","NA"
"-115.14","67.82","KUGLUKTUK CLIMATE","2300904","2021-02-17 17:00","2021","02","17","17:00","-28.3","","-32.0","","71","","0.0","","24","","20","","","","101.23","","","","-41","","NA"
"-115.14","67.82","KUGLUKTUK CLIMATE","2300904","2021-02-17 18:00","2021","02","17","18:00","-29.0","","-32.6","","71","","0.0","","24","","21","","","","101.17","","","","-42","","NA"
"-115.14","67.82","KUGLUKTUK CLIMATE","2300904","2021-02-17 19:00","2021","02","17","19:00","-29.5","","-33.1","","71","","0.0","","23","","24","","","","101.09","","","","-44","","NA"
"-115.14","67.82","KUGLUKTUK CLIMATE","2300904","2021-02-17 20:00","2021","02","17","20:00","-27.2","","-30.7","","72","","0.0","","24","","22","","","","101.04","","","","-40","","NA"
"-115.14","67.82","KUGLUKTUK CLIMATE","2300904","2021-02-17 21:00","2021","02","17","21:00","-26.8","","-30.7","","69","","0.0","","24","","26","","","","100.97","","","","-41","","NA"
"-115.14","67.82","KUGLUKTUK CLIMATE","2300904","2021-02-17 22:00","2021","02","17","22:00","-27.8","","-31.7","","69","","0.0","","24","","25","","","","100.93","","","","-42","","NA"
"-115.14","67.82","KUGLUKTUK CLIMATE","2300904","2021-02-17 23:00","2021","02","17","23:00","-28.3","","-32.1","","70","","0.0","","24","","27","","","","100.90","","","","-43","","NA"
"-115.14","67.82","KUGLUKTUK CLIMATE","2300904","2021-02-18 00:00","2021","02","18","00:00","-27.5","","-31.5","","68","","0.0","","25","","25","","","","100.87","","","","-41","","NA"
"-115.14","67.82","KUGLUKTUK CLIMATE","2300904","2021-02-18 01:00","2021","02","18","01:00","-29.4","","-33.3","","69","","0.0","","24","","23","","","","100.86","","","","-43","","NA"
"-115.14","67.82","KUGLUKTUK CLIMATE","2300904","2021-02-18 02:00","2021","02","18","02:00","-28.5","","-32.1","","71","","0.0","","26","","25","","","","100.82","","","","-43","","NA"
"-115.14","67.82","KUGLUKTUK CLIMATE","2300904","2021-02-18 03:00","2021","02","18","03:00","-30.5","","-34.1","","71","","0.0","","25","","17","","","","100.83","","","","-43","","NA"
"-115.14","67.82","KUGLUKTUK CLIMATE","2300904","2021-02-18 04:00","2021","02","18","04:00","-31.6","","-35.2","","70","","0.0","","25","","13","","","","100.79","","","","-43","","NA"
"-115.14","67.82","KUGLUKTUK CLIMATE","2300904","2021-02-18 05:00","2021","02","18","05:00","-30.1","","-33.5","","72","","0.0","","29","","5","","","","100.77","","","","-36","","NA"
"-115.14","67.82","KUGLUKTUK CLIMATE","2300904","2021-02-18 06:00","2021","02","18","06:00","-31.3","","-34.8","","72","","0.0","","27","","10","","","","100.64","","","","-41","","NA"
"-115.14","67.82","KUGLUKTUK CLIMATE","2300904","2021-02-18 07:00","2021","02","18","07:00","-32.1","","-36.0","","68","","0.0","","20","","4","","","","100.66","","","","-37","","NA"
"-115.14","67.82","KUGLUKTUK CLIMATE","2300904","2021-02-18 08:00","2021","02","18","08:00","-30.2","","-34.1","","69","","0.0","","26","","8","","","","100.62","","","","-38","","NA"
"-115.14","67.82","KUGLUKTUK CLIMATE","2300904","2021-02-18 09:00","2021","02","18","09:00","-31.2","","-34.8","","71","","0.0","","34","","6","","","","100.60","","","","-38","","NA"
"-115.14","67.82","KUGLUKTUK CLIMATE","2300904","2021-02-18 10:00","2021","02","18","10:00","-29.8","","-33.6","","70","","0.0","","23","","8","","","","100.58","","","","-38","","NA"
"-115.14","67.82","KUGLUKTUK CLIMATE","2300904","2021-02-18 11:00","2021","02","18","11:00","-29.0","","-32.5","","71","","0.0","","28","","5","","","","100.54","","","","-34","","NA"
"-115.14","67.82","KUGLUKTUK CLIMATE","2300904","2021-02-18 12:00","2021","02","18","12:00","-28.8","","-32.7","","69","","0.0","","7","","3","","","","100.54","","","","-32","","NA"
"-115.14","67.82","KUGLUKTUK CLIMATE","2300904","2021-02-18 13:00","2021","02","18","13:00","-28.3","","-32.2","","69","","0.0","","11","","2","","","","100.46","","","","-30","","NA"
"-115.14","67.82","KUGLUKTUK CLIMATE","2300904","2021-02-18 14:00","2021","02","18","14:00","-28.1","","-32.2","","68","","0.0","","4","","1","","","","100.46","","","","-29","","NA"
"-115.14","67.82","KUGLUKTUK CLIMATE","2300904","2021-02-18 15:00","2021","02","18","15:00","-28.1","","-31.8","","71","","0.0","","12","","6","","","","100.39","","","","-34","","NA"
"-115.14","67.82","KUGLUKTUK CLIMATE","2300904","2021-02-18 16:00","2021","02","18","16:00","-27.0","","-30.5","","73","","0.0","","4","","5","","","","100.31","","","","-32","","NA"
"-115.14","67.82","KUGLUKTUK CLIMATE","2300904","2021-02-18 17:00","2021","02","18","17:00","-27.3","","-30.8","","72","","0.0","","5","","7","","","","100.28","","","","-34","","NA"
"-115.14","67.82","KUGLUKTUK CLIMATE","2300904","2021-02-18 18:00","2021","02","18","18:00","-27.0","","-30.3","","74","","0.0","","5","","8","","","","100.24","","","","-34","","NA"
"-115.14","67.82","KUGLUKTUK CLIMATE","2300904","2021-02-18 19:00","2021","02","18","19:00","-26.6","","-29.9","","74","","0.0","","7","","10","","","","100.18","","","","-35","","NA"
"-115.14","67.82","KUGLUKTUK CLIMATE","2300904","2021-02-18 20:00","2021","02","18","20:00","-26.1","","-29.3","","74","","0.0","","8","","9","","","","100.13","","","","-34","","NA"
"-115.14","67.82","KUGLUKTUK CLIMATE","2300904","2021-02-18 21:00","2021","02","18","21:00","-25.8","","-29.1","","74","","0.0","","6","","13","","","","100.08","","","","-35","","NA"
"-115.14","67.82","KUGLUKTUK CLIMATE","2300904","2021-02-18 22:00","2021","02","18","22:00","-25.7","","-29.0","","74","","0.0","","7","","12","","","","100.02","","","","-35","","NA"
"-115.14","67.82","KUGLUKTUK CLIMATE","2300904","2021-02-18 23:00","2021","02","18","23:00","-25.5","","-28.8","","74","","0.0","","7","","14","","","","99.96","","","","-35","","NA"
"-115.14","67.82","KUGLUKTUK CLIMATE","2300904","2021-02-19 00:00","2021","02","19","00:00","-25.4","","-28.6","","74","","0.0","","7","","14","","","","99.93","","","","-35","","NA"
"-115.14","67.82","KUGLUKTUK CLIMATE","2300904","2021-02-19 01:00","2021","02","19","01:00","-25.2","","-28.4","","74","","0.0","","4","","16","","","","99.95","","","","-36","","NA"
"-115.14","67.82","KUGLUKTUK CLIMATE","2300904","2021-02-19 02:00","2021","02","19","02:00","-25.1","","-28.3","","75","","0.0","","7","","17","","","","99.88","","","","-36","","NA"
"-115.14","67.82","KUGLUKTUK CLIMATE","2300904","2021-02-19 03:00","2021","02","19","03:00","-24.7","","-27.8","","75","","0.0","","7","","18","","","","99.83","","","","-36","","NA"
"-115.14","67.82","KUGLUKTUK CLIMATE","2300904","2021-02-19 04:00","2021","02","19","04:00","-24.8","","-28.0","","75","","0.0","","6","","19","","","","99.80","","","","-36","","NA"
"-115.14","67.82","KUGLUKTUK CLIMATE","2300904","2021-02-19 05:00","2021","02","19","05:00","-24.8","","-28.0","","74","","0.0","","7","","21","","","","99.77","","","","-37","","NA"
"-115.14","67.82","KUGLUKTUK CLIMATE","2300904","2021-02-19 06:00","2021","02","19","06:00","-24.6","","-27.9","","74","","0.0","","7","","16","","","","99.73","","","","-35","","NA"
"-115.14","67.82","KUGLUKTUK CLIMATE","2300904","2021-02-19 07:00","2021","02","19","07:00","-24.8","","-28.0","","75","","0.0","","8","","16","","","","99.67","","","","-35","","NA"
"-115.14","67.82","KUGLUKTUK CLIMATE","2300904","2021-02-19 08:00","2021","02","19","08:00","-25.1","","-28.4","","74","","0.2","","7","","20","","","","99.63","","","","-37","","NA"
"-115.14","67.82","KUGLUKTUK CLIMATE","2300904","2021-02-19 09:00","2021","02","19","09:00","-25.0","","-28.2","","75","","0.0","","6","","18","","","","99.52","","","","-36","","NA"
"-115.14","67.82","KUGLUKTUK CLIMATE","2300904","2021-02-19 10:00","2021","02","19","10:00","-24.9","","-28.1","","74","","0.2","","7","","17","","","","99.49","","","","-36","","NA"
"-115.14","67.82","KUGLUKTUK CLIMATE","2300904","2021-02-19 11:00","2021","02","19","11:00","-24.7","","-28.0","","74","","0.0","","7","","18","","","","99.43","","","","-36","","NA"
"-115.14","67.82","KUGLUKTUK CLIMATE","2300904","2021-02-19 12:00","2021","02","19","12:00","-24.6","","-27.9","","74","","0.2","","6","","18","","","","99.39","","","","-36","","NA"
"-115.14","67.82","KUGLUKTUK CLIMATE","2300904","2021-02-19 13:00","2021","02","19","13:00","-24.4","","-27.7","","74","","0.2","","5","","20","","","","99.29","","","","-36","","NA"
"-115.14","67.82","KUGLUKTUK CLIMATE","2300904","2021-02-19 14:00","2021","02","19","14:00","-24.4","","-27.7","","74","","0.2","","5","","20","","","","99.26","","","","-36","","NA"
"-115.14","67.82","KUGLUKTUK CLIMATE","2300904","2021-02-19 15:00","2021","02","19","15:00","-24.5","","-27.8","","74","","0.0","","5","","22","","","","99.21","","","","-37","","NA"
"-115.14","67.82","KUGLUKTUK CLIMATE","2300904","2021-02-19 16:00","2021","02","19","16:00","-24.4","","-27.8","","73","","0.0","","4","","23","","","","99.17","","","","-37","","NA"
"-115.14","67.82","KUGLUKTUK CLIMATE","2300904","2021-02-19 17:00","2021","02","19","17:00","-25.1","","-28.5","","74","","0.2","","4","","25","","","","99.18","","","","-38","","NA"
"-115.14","67.82","KUGLUKTUK CLIMATE","2300904","2021-02-19 18:00","2021","02","19","18:00","-25.2","","-28.6","","73","","0.0","","3","","22","","","","99.22","","","","-38","","NA"
"-115.14","67.82","KUGLUKTUK CLIMATE","2300904","2021-02-19 19:00","2021","02","19","19:00","-25.2","","-28.7","","73","","0.2","","2","","23","","","","99.22","","","","-38","","NA"
"-115.14","67.82","KUGLUKTUK CLIMATE","2300904","2021-02-19 20:00","2021","02","19","20:00","-25.1","","-28.5","","74","","0.0","","2","","21","","","","99.21","","","","-37","","NA"
"-115.14","67.82","KUGLUKTUK CLIMATE","2300904","2021-02-19 21:00","2021","02","19","21:00","-25.6","","-28.9","","74","","0.2","","1","","22","","","","99.25","","","","-38","","NA"
"-115.14","67.82","KUGLUKTUK CLIMATE","2300904","2021-02-19 22:00","2021","02","19","22:00","-26.6","","-30.1","","73","","0.0","","36","","26","","","","99.26","","","","-40","","NA"
"-115.14","67.82","KUGLUKTUK CLIMATE","2300904","2021-02-19 23:00","2021","02","19","23:00","-27.3","","-30.9","","71","","0.0","","36","","32","","","","99.31","","","","-42","","NA"
"-115.14","67.82","KUGLUKTUK CLIMATE","2300904","2021-02-20 00:00","2021","02","20","00:00","-27.2","","-30.8","","71","","0.2","","36","","24","","","","99.35","","","","-41","","NA"
"-115.14","67.82","KUGLUKTUK CLIMATE","2300904","2021-02-20 01:00","2021","02","20","01:00","-27.4","","-31.2","","71","","0.0","","35","","20","","","","99.41","","","","-40","","NA"
"-115.14","67.82","KUGLUKTUK CLIMATE","2300904","2021-02-20 02:00","2021","02","20","02:00","-27.7","","-31.5","","70","","0.0","","33","","13","","","","99.44","","","","-38","","NA"
"-115.14","67.82","KUGLUKTUK CLIMATE","2300904","2021-02-20 03:00","2021","02","20","03:00","-27.2","","-30.8","","72","","0.0","","26","","13","","","","99.48","","","","-37","","NA"
"-115.14","67.82","KUGLUKTUK CLIMATE","2300904","2021-02-20 04:00","2021","02","20","04:00","-25.5","","-29.2","","71","","0.0","","35","","26","","","","99.49","","","","-39","","NA"
"-115.14","67.82","KUGLUKTUK CLIMATE","2300904","2021-02-20 05:00","2021","02","20","05:00","-26.2","","-29.8","","72","","0.0","","35","","27","","","","99.52","","","","-40","","NA"
"-115.14","67.82","KUGLUKTUK CLIMATE","2300904","2021-02-20 06:00","2021","02","20","06:00","-26.9","","-30.5","","72","","0.0","","35","","27","","","","99.55","","","","-41","","NA"
"-115.14","67.82","KUGLUKTUK CLIMATE","2300904","2021-02-20 07:00","2021","02","20","07:00","-27.5","","-31.1","","71","","0.0","","34","","29","","","","99.56","","","","-42","","NA"
"-115.14","67.82","KUGLUKTUK CLIMATE","2300904","2021-02-20 08:00","2021","02","20","08:00","-29.1","","-32.7","","71","","0.0","","33","","23","","","","99.63","","","","-43","","NA"
"-115.14","67.82","KUGLUKTUK CLIMATE","2300904","2021-02-20 09:00","2021","02","20","09:00","-30.2","","-33.6","","72","","0.0","","34","","15","","","","99.65","","","","-42","","NA"
"-115.14","67.82","KUGLUKTUK CLIMATE","2300904","2021-02-20 10:00","2021","02","20","10:00","-32.2","","-35.9","","69","","0.3","","24","","13","","","","99.71","","","","-43","","NA"
"-115.14","67.82","KUGLUKTUK CLIMATE","2300904","2021-02-20 11:00","2021","02","20","11:00","-31.2","","-35.3","","68","","0.0","","28","","18","","","","99.71","","","","-44","","NA"
"-115.14","67.82","KUGLUKTUK CLIMATE","2300904","2021-02-20 12:00","2021","02","20","12:00","-32.0","","-36.2","","66","","0.0","","28","","14","","","","99.74","","","","-43","","NA"
"-115.14","67.82","KUGLUKTUK CLIMATE","2300904","2021-02-20 13:00","2021","02","20","13:00","-32.2","","-36.6","","65","","0.0","","24","","15","","","","99.78","","","","-44","","NA"
"-115.14","67.82","KUGLUKTUK CLIMATE","2300904","2021-02-20 14:00","2021","02","20","14:00","-31.4","","-35.7","","66","","0.0","","26","","17","","","","99.78","","","","-44","","NA"
"-115.14","67.82","KUGLUKTUK CLIMATE","2300904","2021-02-20 15:00","2021","02","20","15:00","-32.3","","-36.8","","65","","0.0","","24","","14","","","","99.76","","","","-44","","NA"
"-115.14","67.82","KUGLUKTUK CLIMATE","2300904","2021-02-20 16:00","2021","02","20","16:00","-32.4","","-36.6","","66","","0.0","","24","","17","","","","99.76","","","","-45","","NA"
"-115.14","67.82","KUGLUKTUK CLIMATE","2300904","2021-02-20 17:00","2021","02","20","17:00","-33.4","","-37.4","","68","","0.0","","23","","17","","","","99.76","","","","-46","","NA"
"-115.14","67.82","KUGLUKTUK CLIMATE","2300904","2021-02-20 18:00","2021","02","20","18:00","-34.4","","-38.2","","68","","0.0","","23","","16","","","","99.74","","","","-47","","NA"
"-115.14","67.82","KUGLUKTUK CLIMATE","2300904","2021-02-20 19:00","2021","02","20","19:00","-34.2","","-38.0","","69","","0.2","","22","","13","","","","99.71","","","","-46","","NA"
"-115.14","67.82","KUGLUKTUK CLIMATE","2300904","2021-02-20 20:00","2021","02","20","20:00","-33.2","","-36.9","","69","","0.0","","22","","14","","","","99.64","","","","-45","","NA"
"-115.14","67.82","KUGLUKTUK CLIMATE","2300904","2021-02-20 21:00","2021","02","20","21:00","-32.8","","-36.7","","69","","0.0","","23","","14","","","","99.62","","","","-44","","NA"
"-115.14","67.82","KUGLUKTUK CLIMATE","2300904","2021-02-20 22:00","2021","02","20","22:00","-32.7","","-36.6","","68","","0.0","","21","","10","","","","99.56","","","","-42","","NA"
"-115.14","67.82","KUGLUKTUK CLIMATE","2300904","2021-02-20 23:00","2021","02","20","23:00","-31.4","","-35.3","","69","","0.0","","22","","10","","","","99.51","","","","-41","","NA"
"-115.14","67.82","KUGLUKTUK CLIMATE","2300904","2021-02-21 00:00","2021","02","21","00:00","-30.6","","-34.5","","68","","0.0","","22","","7","","","","99.45","","","","-38","","NA"
"-115.14","67.82","KUGLUKTUK CLIMATE","2300904","2021-02-21 01:00","2021","02","21","01:00","-31.0","","-34.6","","71","","0.0","","1","","4","","","","99.40","","","","-36","","NA"
"-115.14","67.82","KUGLUKTUK CLIMATE","2300904","2021-02-21 02:00","2021","02","21","02:00","-30.4","","-33.9","","71","","0.0","","16","","5","","","","99.36","","","","-36","","NA"
"-115.14","67.82","KUGLUKTUK CLIMATE","2300904","2021-02-21 03:00","2021","02","21","03:00","-30.1","","-33.5","","72","","0.0","","10","","2","","","","99.30","","","","-32","","NA"
"-115.14","67.82","KUGLUKTUK CLIMATE","2300904","2021-02-21 04:00","2021","02","21","04:00","-29.6","","-33.0","","72","","0.0","","12","","5","","","","99.21","","","","-35","","NA"
"-115.14","67.82","KUGLUKTUK CLIMATE","2300904","2021-02-21 05:00","2021","02","21","05:00","-30.6","","-34.1","","71","","0.0","","11","","7","","","","99.19","","","","-38","","NA"
"-115.14","67.82","KUGLUKTUK CLIMATE","2300904","2021-02-21 06:00","2021","02","21","06:00","-30.4","","-33.7","","73","","0.0","","14","","5","","","","99.14","","","","-36","","NA"
"-115.14","67.82","KUGLUKTUK CLIMATE","2300904","2021-02-21 07:00","2021","02","21","07:00","-31.5","","-34.9","","72","","0.0","","21","","4","","","","99.12","","","","-36","","NA"
"-115.14","67.82","KUGLUKTUK CLIMATE","2300904","2021-02-21 08:00","2021","02","21","08:00","-32.9","","-36.4","","71","","0.0","","23","","10","","","","99.06","","","","-43","","NA"
"-115.14","67.82","KUGLUKTUK CLIMATE","2300904","2021-02-21 09:00","2021","02","21","09:00","-32.6","","-36.0","","72","","0.0","","25","","8","","","","99.03","","","","-41","","NA"
"-115.14","67.82","KUGLUKTUK CLIMATE","2300904","2021-02-21 10:00","2021","02","21","10:00","-31.6","","-35.0","","72","","0.0","","26","","3","","","","99.01","","","","-35","","NA"
"-115.14","67.82","KUGLUKTUK CLIMATE","2300904","2021-02-21 11:00","2021","02","21","11:00","-31.3","","-34.9","","70","","0.2","","24","","5","","","","99.00","","","","-37","","NA"
"-115.14","67.82","KUGLUKTUK CLIMATE","2300904","2021-02-21 12:00","2021","02","21","12:00","-31.0","","-34.5","","71","","0.0","","25","","3","","","","98.98","","","","-34","","NA"
"-115.14","67.82","KUGLUKTUK CLIMATE","2300904","2021-02-21 13:00","2021","02","21","13:00","-31.9","","-36.5","","64","","0.0","","25","","11","","","","98.99","","","","-42","","NA"
"-115.14","67.82","KUGLUKTUK CLIMATE","2300904","2021-02-21 14:00","2021","02","21","14:00","-31.4","","-35.7","","66","","0.0","","22","","8","","","","98.98","","","","-40","","NA"
"-115.14","67.82","KUGLUKTUK CLIMATE","2300904","2021-02-21 15:00","2021","02","21","15:00","-31.1","","-35.5","","65","","0.0","","21","","5","","","","98.97","","","","-37","","NA"
"-115.14","67.82","KUGLUKTUK CLIMATE","2300904","2021-02-21 16:00","2021","02","21","16:00","-32.0","","-36.4","","65","","0.0","","29","","4","","","","98.99","","","","-37","","NA"
"-115.14","67.82","KUGLUKTUK CLIMATE","2300904","2021-02-21 17:00","2021","02","21","17:00","-33.4","","-37.6","","66","","0.0","","23","","9","","","","99.02","","","","-43","","NA"
"-115.14","67.82","KUGLUKTUK CLIMATE","2300904","2021-02-21 18:00","2021","02","21","18:00","-34.4","","-38.2","","68","","0.0","","23","","19","","","","99.02","","","","-48","","NA"
"-115.14","67.82","KUGLUKTUK CLIMATE","2300904","2021-02-21 19:00","2021","02","21","19:00","-33.5","","-37.2","","70","","0.0","","22","","15","","","","98.96","","","","-46","","NA"
"-115.14","67.82","KUGLUKTUK CLIMATE","2300904","2021-02-21 20:00","2021","02","21","20:00","-33.9","","-37.6","","69","","0.0","","21","","15","","","","99.01","","","","-46","","NA"
"-115.14","67.82","KUGLUKTUK CLIMATE","2300904","2021-02-21 21:00","2021","02","21","21:00","-33.9","","-37.9","","67","","0.0","","23","","26","","","","99.03","","","","-50","","NA"
"-115.14","67.82","KUGLUKTUK CLIMATE","2300904","2021-02-21 22:00","2021","02","21","22:00","-33.4","","-37.5","","67","","0.0","","23","","24","","","","99.05","","","","-49","","NA"
"-115.14","67.82","KUGLUKTUK CLIMATE","2300904","2021-02-21 23:00","2021","02","21","23:00","-33.7","","-37.8","","67","","0.0","","23","","28","","","","99.05","","","","-50","","NA"
"-115.14","67.82","KUGLUKTUK CLIMATE","2300904","2021-02-22 00:00","2021","02","22","00:00","-32.6","","-36.6","","68","","0.0","","23","","22","","","","99.07","","","","-47","","NA"
"-115.14","67.82","KUGLUKTUK CLIMATE","2300904","2021-02-22 01:00","2021","02","22","01:00","-32.7","","-36.9","","66","","0.0","","23","","25","","","","99.13","","","","-48","","NA"
"-115.14","67.82","KUGLUKTUK CLIMATE","2300904","2021-02-22 02:00","2021","02","22","02:00","-31.6","","-35.6","","68","","0.0","","24","","33","","","","99.17","","","","-48","","NA"
"-115.14","67.82","KUGLUKTUK CLIMATE","2300904","2021-02-22 03:00","2021","02","22","03:00","-32.7","","-36.9","","67","","0.0","","22","","17","","","","99.25","","","","-45","","NA"
"-115.14","67.82","KUGLUKTUK CLIMATE","2300904","2021-02-22 04:00","2021","02","22","04:00","-32.0","","-36.1","","67","","0.0","","23","","22","","","","99.27","","","","-46","","NA"
"-115.14","67.82","KUGLUKTUK CLIMATE","2300904","2021-02-22 05:00","2021","02","22","05:00","-31.3","","-35.3","","68","","0.0","","24","","26","","","","99.26","","","","-46","","NA"
"-115.14","67.82","KUGLUKTUK CLIMATE","2300904","2021-02-22 06:00","2021","02","22","06:00","-31.3","","-35.5","","67","","0.0","","24","","25","","","","99.31","","","","-46","","NA"
"-115.14","67.82","KUGLUKTUK CLIMATE","2300904","2021-02-22 07:00","2021","02","22","07:00","-28.5","","-32.5","","68","","0.0","","24","","25","","","","99.34","","","","-43","","NA"
"-115.14","67.82","KUGLUKTUK CLIMATE","2300904","2021-02-22 08:00","2021","02","22","08:00","-28.0","","-32.1","","68","","0.0","","24","","25","","","","99.42","","","","-42","","NA"
"-115.14","67.82","KUGLUKTUK CLIMATE","2300904","2021-02-22 09:00","2021","02","22","09:00","-28.1","","-32.2","","68","","0.0","","24","","25","","","","99.45","","","","-42","","NA"
"-115.14","67.82","KUGLUKTUK CLIMATE","2300904","2021-02-22 10:00","2021","02","22","10:00","-27.4","","-31.4","","68","","0.0","","25","","31","","","","99.46","","","","-42","","NA"
"-115.14","67.82","KUGLUKTUK CLIMATE","2300904","2021-02-22 11:00","2021","02","22","11:00","-26.6","","-30.5","","70","","0.0","","25","","33","","","","99.48","","","","-42","","NA"
"-115.14","67.82","KUGLUKTUK CLIMATE","2300904","2021-02-22 12:00","2021","02","22","12:00","-25.7","","-29.4","","71","","0.0","","26","","39","","","","99.54","","","","-42","","NA"
"-115.14","67.82","KUGLUKTUK CLIMATE","2300904","2021-02-22 13:00","2021","02","22","13:00","-25.2","","-28.9","","71","","0.0","","26","","34","","","","99.66","","","","-40","","NA"
"-115.14","67.82","KUGLUKTUK CLIMATE","2300904","2021-02-22 14:00","2021","02","22","14:00","-25.1","","-28.8","","71","","0.0","","24","","27","","","","99.73","","","","-39","","NA"
"-115.14","67.82","KUGLUKTUK CLIMATE","2300904","2021-02-22 15:00","2021","02","22","15:00","-25.3","","-29.4","","69","","0.0","","25","","29","","","","99.81","","","","-39","","NA"
"-115.14","67.82","KUGLUKTUK CLIMATE","2300904","2021-02-22 16:00","2021","02","22","16:00","-25.7","","-30.0","","67","","0.0","","25","","29","","","","99.88","","","","-40","","NA"
"-115.14","67.82","KUGLUKTUK CLIMATE","2300904","2021-02-22 17:00","2021","02","22","17:00","-26.1","","-30.2","","68","","0.0","","25","","27","","","","99.92","","","","-40","","NA"
"-115.14","67.82","KUGLUKTUK CLIMATE","2300904","2021-02-22 18:00","2021","02","22","18:00","-26.2","","-30.3","","69","","0.0","","25","","26","","","","100.00","","","","-40","","NA"
"-115.14","67.82","KUGLUKTUK CLIMATE","2300904","2021-02-22 19:00","2021","02","22","19:00","-25.9","","-29.9","","69","","0.0","","26","","25","","","","100.03","","","","-39","","NA"
"-115.14","67.82","KUGLUKTUK CLIMATE","2300904","2021-02-22 20:00","2021","02","22","20:00","-26.9","","-30.7","","70","","0.0","","24","","27","","","","100.05","","","","-41","","NA"
"-115.14","67.82","KUGLUKTUK CLIMATE","2300904","2021-02-22 21:00","2021","02","22","21:00","-27.4","","-31.4","","69","","0.0","","23","","21","","","","100.08","","","","-40","","NA"
"-115.14","67.82","KUGLUKTUK CLIMATE","2300904","2021-02-22 22:00","2021","02","22","22:00","-27.8","","-31.7","","69","","0.0","","23","","18","","","","100.13","","","","-40","","NA"
"-115.14","67.82","KUGLUKTUK CLIMATE","2300904","2021-02-22 23:00","2021","02","22","23:00","-27.2","","-31.0","","70","","0.0","","23","","21","","","","100.18","","","","-40","","NA"
"-115.14","67.82","KUGLUKTUK CLIMATE","2300904","2021-02-23 00:00","2021","02","23","00:00","-26.7","","-30.3","","72","","0.0","","23","","18","","","","100.21","","","","-38","","NA"
"-115.14","67.82","KUGLUKTUK CLIMATE","2300904","2021-02-23 01:00","2021","02","23","01:00","-26.1","","-29.8","","71","","0.0","","24","","19","","","","100.28","","","","-38","","NA"
"-115.14","67.82","KUGLUKTUK CLIMATE","2300904","2021-02-23 02:00","2021","02","23","02:00","-26.6","","-30.4","","71","","0.0","","24","","25","","","","100.32","","","","-40","","NA"
"-115.14","67.82","KUGLUKTUK CLIMATE","2300904","2021-02-23 03:00","2021","02","23","03:00","-28.5","","-32.3","","70","","0.0","","24","","20","","","","100.39","","","","-41","","NA"
"-115.14","67.82","KUGLUKTUK CLIMATE","2300904","2021-02-23 04:00","2021","02","23","04:00","-29.2","","-32.6","","72","","0.0","","23","","19","","","","100.44","","","","-42","","NA"
"-115.14","67.82","KUGLUKTUK CLIMATE","2300904","2021-02-23 05:00","2021","02","23","05:00","-29.1","","-32.8","","71","","0.0","","24","","28","","","","100.45","","","","-44","","NA"
"-115.14","67.82","KUGLUKTUK CLIMATE","2300904","2021-02-23 06:00","2021","02","23","06:00","-29.2","","-32.9","","70","","0.0","","25","","31","","","","100.50","","","","-45","","NA"
"-115.14","67.82","KUGLUKTUK CLIMATE","2300904","2021-02-23 07:00","2021","02","23","07:00","-29.2","","-33.1","","68","","0.0","","25","","28","","","","100.56","","","","-44","","NA"
"-115.14","67.82","KUGLUKTUK CLIMATE","2300904","2021-02-23 08:00","2021","02","23","08:00","-28.7","","-32.9","","67","","0.0","","27","","29","","","","100.60","","","","-44","","NA"
"-115.14","67.82","KUGLUKTUK CLIMATE","2300904","2021-02-23 09:00","2021","02","23","09:00","-28.9","","-33.3","","66","","0.0","","21","","18","","","","100.65","","","","-41","","NA"
"-115.14","67.82","KUGLUKTUK CLIMATE","2300904","2021-02-23 10:00","2021","02","23","10:00","-28.1","","-32.3","","67","","0.0","","24","","19","","","","100.71","","","","-40","","NA"
"-115.14","67.82","KUGLUKTUK CLIMATE","2300904","2021-02-23 11:00","2021","02","23","11:00","-28.2","","-32.2","","69","","0.0","","24","","26","","","","100.76","","","","-42","","NA"
"-115.14","67.82","KUGLUKTUK CLIMATE","2300904","2021-02-23 12:00","2021","02","23","12:00","-26.8","","-30.6","","70","","0.0","","25","","29","","","","100.76","","","","-41","","NA"
"-115.14","67.82","KUGLUKTUK CLIMATE","2300904","2021-02-23 13:00","2021","02","23","13:00","-25.7","","-30.2","","66","","0.0","","27","","26","","","","100.80","","","","-39","","NA"
"-115.14","67.82","KUGLUKTUK CLIMATE","2300904","2021-02-23 14:00","2021","02","23","14:00","-26.1","","-30.5","","67","","0.0","","26","","29","","","","100.84","","","","-40","","NA"
"-115.14","67.82","KUGLUKTUK CLIMATE","2300904","2021-02-23 15:00","2021","02","23","15:00","-25.4","","-30.4","","63","","0.0","","27","","29","","","","100.92","","","","-39","","NA"
"-115.14","67.82","KUGLUKTUK CLIMATE","2300904","2021-02-23 16:00","2021","02","23","16:00","-26.8","","-31.6","","64","","0.0","","26","","25","","","","100.97","","","","-40","","NA"
"-115.14","67.82","KUGLUKTUK CLIMATE","2300904","2021-02-23 17:00","2021","02","23","17:00","-28.1","","-32.3","","67","","0.0","","25","","26","","","","100.97","","","","-42","","NA"
"-115.14","67.82","KUGLUKTUK CLIMATE","2300904","2021-02-23 18:00","2021","02","23","18:00","-27.6","","-31.6","","68","","0.0","","26","","44","","","","100.94","","","","-45","","NA"
"-115.14","67.82","KUGLUKTUK CLIMATE","2300904","2021-02-23 19:00","2021","02","23","19:00","-27.8","","-32.0","","68","","0.0","","27","","34","","","","101.01","","","","-44","","NA"
"-115.14","67.82","KUGLUKTUK CLIMATE","2300904","2021-02-23 20:00","2021","02","23","20:00","-27.5","","-31.7","","68","","0.0","","28","","35","","","","101.06","","","","-43","","NA"
"-115.14","67.82","KUGLUKTUK CLIMATE","2300904","2021-02-23 21:00","2021","02","23","21:00","-27.3","","-31.7","","66","","0.0","","27","","37","","","","101.04","","","","-43","","NA"
"-115.14","67.82","KUGLUKTUK CLIMATE","2300904","2021-02-23 22:00","2021","02","23","22:00","-26.7","","-31.7","","63","","0.0","","26","","32","","","","101.07","","","","-42","","NA"
"-115.14","67.82","KUGLUKTUK CLIMATE","2300904","2021-02-23 23:00","2021","02","23","23:00","-26.4","","-31.5","","62","","0.0","","26","","28","","","","101.02","","","","-41","","NA"
"-115.14","67.82","KUGLUKTUK CLIMATE","2300904","2021-02-24 00:00","2021","02","24","00:00","-26.0","","-30.8","","64","","0.0","","26","","30","","","","101.00","","","","-40","","NA"
"-115.14","67.82","KUGLUKTUK CLIMATE","2300904","2021-02-24 01:00","2021","02","24","01:00","-25.9","","-30.7","","64","","0.0","","27","","31","","","","100.98","","","","-40","","NA"
"-115.14","67.82","KUGLUKTUK CLIMATE","2300904","2021-02-24 02:00","2021","02","24","02:00","-25.6","","-30.5","","63","","0.0","","26","","33","","","","100.98","","","","-40","","NA"
"-115.14","67.82","KUGLUKTUK CLIMATE","2300904","2021-02-24 03:00","2021","02","24","03:00","-25.5","","-30.5","","63","","0.0","","26","","28","","","","100.93","","","","-39","","NA"
"-115.14","67.82","KUGLUKTUK CLIMATE","2300904","2021-02-24 04:00","2021","02","24","04:00","-25.6","","-30.3","","65","","0.0","","25","","30","","","","100.89","","","","-40","","NA"
"-115.14","67.82","KUGLUKTUK CLIMATE","2300904","2021-02-24 05:00","2021","02","24","05:00","-25.6","","-29.0","","73","","0.0","","25","","35","","","","100.75","","","","-41","","NA"
"-115.14","67.82","KUGLUKTUK CLIMATE","2300904","2021-02-24 06:00","2021","02","24","06:00","-25.1","","-28.4","","74","","0.0","","25","","38","","","","100.66","","","","-41","","NA"
"-115.14","67.82","KUGLUKTUK CLIMATE","2300904","2021-02-24 07:00","2021","02","24","07:00","-24.9","","-28.1","","75","","0.0","","26","","39","","","","100.58","","","","-41","","NA"
"-115.14","67.82","KUGLUKTUK CLIMATE","2300904","2021-02-24 08:00","2021","02","24","08:00","-25.2","","-28.3","","75","","0.0","","28","","30","","","","100.53","","","","-39","","NA"
"-115.14","67.82","KUGLUKTUK CLIMATE","2300904","2021-02-24 09:00","2021","02","24","09:00","-25.8","","-29.4","","72","","0.0","","31","","33","","","","100.51","","","","-41","","NA"
"-115.14","67.82","KUGLUKTUK CLIMATE","2300904","2021-02-24 10:00","2021","02","24","10:00","-27.9","","-32.2","","67","","0.0","","33","","23","","","","100.55","","","","-41","","NA"
"-115.14","67.82","KUGLUKTUK CLIMATE","2300904","2021-02-24 11:00","2021","02","24","11:00","-29.7","","-34.3","","64","","0.0","","33","","21","","","","100.63","","","","-43","","NA"
"-115.14","67.82","KUGLUKTUK CLIMATE","2300904","2021-02-24 12:00","2021","02","24","12:00","-31.2","","-35.2","","68","","0.0","","34","","33","","","","100.70","","","","-48","","NA"
"-115.14","67.82","KUGLUKTUK CLIMATE","2300904","2021-02-24 13:00","2021","02","24","13:00","-32.1","","-36.4","","65","","0.0","","33","","37","","","","100.74","","","","-50","","NA"
"-115.14","67.82","KUGLUKTUK CLIMATE","2300904","2021-02-24 14:00","2021","02","24","14:00","-32.9","","-37.0","","67","","0.0","","32","","39","","","","100.83","","","","-51","","NA"
"-115.14","67.82","KUGLUKTUK CLIMATE","2300904","2021-02-24 15:00","2021","02","24","15:00","-34.2","","-38.0","","68","","0.0","","32","","41","","","","100.93","","","","-53","","NA"
"-115.14","67.82","KUGLUKTUK CLIMATE","2300904","2021-02-24 16:00","2021","02","24","16:00","-35.4","","-39.2","","68","","0.0","","31","","34","","","","101.02","","","","-54","","NA"
"-115.14","67.82","KUGLUKTUK CLIMATE","2300904","2021-02-24 17:00","2021","02","24","17:00","-35.8","","-39.5","","68","","0.0","","32","","32","","","","101.11","","","","-54","","NA"
"-115.14","67.82","KUGLUKTUK CLIMATE","2300904","2021-02-24 18:00","2021","02","24","18:00","-36.5","","-40.2","","68","","0.0","","32","","34","","","","101.13","","","","-55","","NA"
"-115.14","67.82","KUGLUKTUK CLIMATE","2300904","2021-02-24 19:00","2021","02","24","19:00","-36.9","","-40.7","","68","","0.0","","32","","28","","","","101.12","","","","-54","","NA"
"-115.14","67.82","KUGLUKTUK CLIMATE","2300904","2021-02-24 20:00","2021","02","24","20:00","-37.5","","-41.3","","67","","0.0","","30","","25","","","","101.13","","","","-54","","NA"
"-115.14","67.82","KUGLUKTUK CLIMATE","2300904","2021-02-24 21:00","2021","02","24","21:00","-37.6","","-41.4","","67","","0.0","","31","","36","","","","101.15","","","","-57","","NA"
"-115.14","67.82","KUGLUKTUK CLIMATE","2300904","2021-02-24 22:00","2021","02","24","22:00","-37.5","","-41.4","","67","","0.0","","27","","23","","","","101.15","","","","-54","","NA"
"-115.14","67.82","KUGLUKTUK CLIMATE","2300904","2021-02-24 23:00","2021","02","24","23:00","-37.2","","-41.1","","67","","0.0","","29","","28","","","","101.15","","","","-55","","NA"
"-115.14","67.82","KUGLUKTUK CLIMATE","2300904","2021-02-25 00:00","2021","02","25","00:00","-37.2","","-41.0","","68","","0.0","","26","","28","","","","101.19","","","","-55","","NA"
"-115.14","67.82","KUGLUKTUK CLIMATE","2300904","2021-02-25 01:00","2021","02","25","01:00","-37.6","","-41.5","","67","","0.0","","27","","30","","","","101.13","","","","-56","","NA"
"-115.14","67.82","KUGLUKTUK CLIMATE","2300904","2021-02-25 02:00","2021","02","25","02:00","-37.1","","-40.9","","68","","0.0","","26","","34","","","","101.15","","","","-56","","NA"
"-115.14","67.82","KUGLUKTUK CLIMATE","2300904","2021-02-25 03:00","2021","02","25","03:00","-37.5","","-41.4","","67","","0.0","","30","","35","","","","101.15","","","","-57","","NA"
"-115.14","67.82","KUGLUKTUK CLIMATE","2300904","2021-02-25 04:00","2021","02","25","04:00","-37.5","","-41.4","","67","","0.0","","27","","30","","","","101.15","","","","-55","","NA"
"-115.14","67.82","KUGLUKTUK CLIMATE","2300904","2021-02-25 05:00","2021","02","25","05:00","-37.2","","-41.0","","67","","0.0","","26","","29","","","","101.15","","","","-55","","NA"
"-115.14","67.82","KUGLUKTUK CLIMATE","2300904","2021-02-25 06:00","2021","02","25","06:00","-36.9","","-40.8","","68","","0.0","","28","","32","","","","101.08","","","","-55","","NA"
"-115.14","67.82","KUGLUKTUK CLIMATE","2300904","2021-02-25 07:00","2021","02","25","07:00","-36.5","","-40.3","","68","","0.0","","27","","30","","","","101.06","","","","-54","","NA"
"-115.14","67.82","KUGLUKTUK CLIMATE","2300904","2021-02-25 08:00","2021","02","25","08:00","-35.8","","-39.6","","68","","0.0","","28","","31","","","","101.04","","","","-53","","NA"
"-115.14","67.82","KUGLUKTUK CLIMATE","2300904","2021-02-25 09:00","2021","02","25","09:00","-35.2","","-39.0","","68","","0.0","","28","","33","","","","101.01","","","","-53","","NA"
"-115.14","67.82","KUGLUKTUK CLIMATE","2300904","2021-02-25 10:00","2021","02","25","10:00","-34.7","","-38.5","","68","","0.0","","27","","31","","","","100.98","","","","-52","","NA"
"-115.14","67.82","KUGLUKTUK CLIMATE","2300904","2021-02-25 11:00","2021","02","25","11:00","-35.6","","-39.5","","68","","0.0","","25","","32","","","","100.94","","","","-53","","NA"
"-115.14","67.82","KUGLUKTUK CLIMATE","2300904","2021-02-25 12:00","2021","02","25","12:00","-34.1","","-37.9","","68","","0.0","","26","","25","","","","100.93","","","","-50","","NA"
"-115.14","67.82","KUGLUKTUK CLIMATE","2300904","2021-02-25 13:00","2021","02","25","13:00","-32.7","","-36.4","","69","","0.0","","26","","26","","","","100.88","","","","-48","","NA"
"-115.14","67.82","KUGLUKTUK CLIMATE","2300904","2021-02-25 14:00","2021","02","25","14:00","-32.6","","-36.4","","69","","0.0","","26","","32","","","","100.83","","","","-49","","NA"
"-115.14","67.82","KUGLUKTUK CLIMATE","2300904","2021-02-25 15:00","2021","02","25","15:00","-33.1","","-36.9","","69","","0.0","","25","","32","","","","100.79","","","","-50","","NA"
"-115.14","67.82","KUGLUKTUK CLIMATE","2300904","2021-02-25 16:00","2021","02","25","16:00","-33.4","","-37.2","","69","","0.0","","25","","32","","","","100.78","","","","-50","","NA"
"-115.14","67.82","KUGLUKTUK CLIMATE","2300904","2021-02-25 17:00","2021","02","25","17:00","-33.4","","-37.1","","69","","0.0","","24","","33","","","","100.78","","","","-51","","NA"
"-115.14","67.82","KUGLUKTUK CLIMATE","2300904","2021-02-25 18:00","2021","02","25","18:00","-33.3","","-37.0","","69","","0.0","","25","","38","","","","100.72","","","","-52","","NA"
"-115.14","67.82","KUGLUKTUK CLIMATE","2300904","2021-02-25 19:00","2021","02","25","19:00","-32.5","","-36.2","","70","","0.0","","25","","38","","","","100.67","","","","-50","","NA"
"-115.14","67.82","KUGLUKTUK CLIMATE","2300904","2021-02-25 20:00","2021","02","25","20:00","-32.1","","-35.7","","70","","0.0","","26","","34","","","","100.70","","","","-49","","NA"
"-115.14","67.82","KUGLUKTUK CLIMATE","2300904","2021-02-25 21:00","2021","02","25","21:00","-31.2","","-34.8","","71","","0.0","","27","","34","","","","100.67","","","","-48","","NA"
"-115.14","67.82","KUGLUKTUK CLIMATE","2300904","2021-02-25 22:00","2021","02","25","22:00","-30.4","","-33.9","","72","","0.0","","27","","28","","","","100.64","","","","-46","","NA"
"-115.14","67.82","KUGLUKTUK CLIMATE","2300904","2021-02-25 23:00","2021","02","25","23:00","-30.1","","-33.7","","71","","0.0","","28","","28","","","","100.65","","","","-45","","NA"
"-115.14","67.82","KUGLUKTUK CLIMATE","2300904","2021-02-26 00:00","2021","02","26","00:00","-29.9","","-33.5","","71","","0.0","","29","","29","","","","100.62","","","","-45","","NA"
"-115.14","67.82","KUGLUKTUK CLIMATE","2300904","2021-02-26 01:00","2021","02","26","01:00","-29.4","","-33.0","","71","","0.0","","29","","38","","","","100.62","","","","-46","","NA"
"-115.14","67.82","KUGLUKTUK CLIMATE","2300904","2021-02-26 02:00","2021","02","26","02:00","-29.1","","-32.9","","70","","0.0","","30","","33","","","","100.62","","","","-45","","NA"
"-115.14","67.82","KUGLUKTUK CLIMATE","2300904","2021-02-26 03:00","2021","02","26","03:00","-29.1","","-32.9","","70","","0.0","","30","","29","","","","100.66","","","","-44","","NA"
"-115.14","67.82","KUGLUKTUK CLIMATE","2300904","2021-02-26 04:00","2021","02","26","04:00","-29.5","","-33.4","","69","","0.0","","31","","33","","","","100.67","","","","-46","","NA"
"-115.14","67.82","KUGLUKTUK CLIMATE","2300904","2021-02-26 05:00","2021","02","26","05:00","-29.4","","-33.2","","70","","0.0","","30","","29","","","","100.66","","","","-45","","NA"
"-115.14","67.82","KUGLUKTUK CLIMATE","2300904","2021-02-26 06:00","2021","02","26","06:00","-29.5","","-33.5","","68","","0.0","","31","","32","","","","100.69","","","","-45","","NA"
"-115.14","67.82","KUGLUKTUK CLIMATE","2300904","2021-02-26 07:00","2021","02","26","07:00","-29.7","","-34.0","","66","","0.0","","31","","32","","","","100.70","","","","-46","","NA"
"-115.14","67.82","KUGLUKTUK CLIMATE","2300904","2021-02-26 08:00","2021","02","26","08:00","-29.9","","-34.5","","64","","0.0","","31","","29","","","","100.70","","","","-45","","NA"
"-115.14","67.82","KUGLUKTUK CLIMATE","2300904","2021-02-26 09:00","2021","02","26","09:00","-30.8","","-35.3","","65","","0.0","","31","","22","","","","100.76","","","","-45","","NA"
"-115.14","67.82","KUGLUKTUK CLIMATE","2300904","2021-02-26 10:00","2021","02","26","10:00","-30.6","","-35.0","","65","","0.0","","30","","33","","","","100.71","","","","-47","","NA"
"-115.14","67.82","KUGLUKTUK CLIMATE","2300904","2021-02-26 11:00","2021","02","26","11:00","-30.7","","-35.3","","64","","0.0","","30","","26","","","","100.75","","","","-46","","NA"
"-115.14","67.82","KUGLUKTUK CLIMATE","2300904","2021-02-26 12:00","2021","02","26","12:00","-30.3","","-34.9","","64","","0.0","","30","","32","","","","100.74","","","","-46","","NA"
"-115.14","67.82","KUGLUKTUK CLIMATE","2300904","2021-02-26 13:00","2021","02","26","13:00","-30.0","","-34.4","","65","","0.0","","30","","32","","","","100.74","","","","-46","","NA"
"-115.14","67.82","KUGLUKTUK CLIMATE","2300904","2021-02-26 14:00","2021","02","26","14:00","-30.0","","-34.2","","67","","0.0","","31","","37","","","","100.76","","","","-47","","NA"
"-115.14","67.82","KUGLUKTUK CLIMATE","2300904","2021-02-26 15:00","2021","02","26","15:00","-30.3","","-34.3","","68","","0.0","","32","","37","","","","100.80","","","","-47","","NA"
"-115.14","67.82","KUGLUKTUK CLIMATE","2300904","2021-02-26 16:00","2021","02","26","16:00","-31.2","","-35.2","","67","","0.0","","34","","33","","","","100.87","","","","-48","","NA"
"-115.14","67.82","KUGLUKTUK CLIMATE","2300904","2021-02-26 17:00","2021","02","26","17:00","-31.4","","-35.5","","67","","0.0","","33","","31","","","","100.93","","","","-48","","NA"
"-115.14","67.82","KUGLUKTUK CLIMATE","2300904","2021-02-26 18:00","2021","02","26","18:00","-31.9","","-36.3","","66","","0.0","","34","","31","","","","100.96","","","","-48","","NA"
"-115.14","67.82","KUGLUKTUK CLIMATE","2300904","2021-02-26 19:00","2021","02","26","19:00","-32.4","","-36.9","","65","","0.0","","32","","30","","","","100.99","","","","-49","","NA"
"-115.14","67.82","KUGLUKTUK CLIMATE","2300904","2021-02-26 20:00","2021","02","26","20:00","-33.8","","-38.3","","64","","0.0","","32","","23","","","","101.06","","","","-49","","NA"
"-115.14","67.82","KUGLUKTUK CLIMATE","2300904","2021-02-26 21:00","2021","02","26","21:00","-35.7","","-39.7","","66","","0.2","","1","","14","","","","101.19","","","","-48","","NA"
"-115.14","67.82","KUGLUKTUK CLIMATE","2300904","2021-02-26 22:00","2021","02","26","22:00","-37.6","","-41.9","","64","","0.0","","36","","11","","","","101.23","","","","-49","","NA"
"-115.14","67.82","KUGLUKTUK CLIMATE","2300904","2021-02-26 23:00","2021","02","26","23:00","-38.2","","-42.3","","65","","0.0","","36","","16","","","","101.34","","","","-52","","NA"
"-115.14","67.82","KUGLUKTUK CLIMATE","2300904","2021-02-27 00:00","2021","02","27","00:00","-39.0","","-43.2","","64","","0.0","","1","","15","","","","101.40","","","","-53","","NA"
"-115.14","67.82","KUGLUKTUK CLIMATE","2300904","2021-02-27 01:00","2021","02","27","01:00","-39.5","","-43.8","","64","","0.0","","1","","14","","","","101.52","","","","-53","","NA"
"-115.14","67.82","KUGLUKTUK CLIMATE","2300904","2021-02-27 02:00","2021","02","27","02:00","-40.5","","-44.7","","64","","0.0","","36","","10","","","","101.62","","","","-52","","NA"
"-115.14","67.82","KUGLUKTUK CLIMATE","2300904","2021-02-27 03:00","2021","02","27","03:00","-40.7","","-44.9","","64","","0.0","","4","","6","","","","101.60","","","","-49","","NA"
"-115.14","67.82","KUGLUKTUK CLIMATE","2300904","2021-02-27 04:00","2021","02","27","04:00","-40.8","","-45.1","","64","","0.0","","27","","5","","","","101.70","","","","-48","","NA"
"-115.14","67.82","KUGLUKTUK CLIMATE","2300904","2021-02-27 05:00","2021","02","27","05:00","-42.7","","-46.8","","64","","0.0","","23","","16","","","","101.74","","","","-58","","NA"
"-115.14","67.82","KUGLUKTUK CLIMATE","2300904","2021-02-27 06:00","2021","02","27","06:00","-43.2","","-47.2","","64","","0.0","","22","","17","","","","101.78","","","","-59","","NA"
"-115.14","67.82","KUGLUKTUK CLIMATE","2300904","2021-02-27 07:00","2021","02","27","07:00","-43.1","","-47.3","","64","","0.0","","23","","23","","","","101.80","","","","-61","","NA"
"-115.14","67.82","KUGLUKTUK CLIMATE","2300904","2021-02-27 08:00","2021","02","27","08:00","-42.5","","-46.6","","64","","0.0","","24","","24","","","","101.79","","","","-60","","NA"
"-115.14","67.82","KUGLUKTUK CLIMATE","2300904","2021-02-27 09:00","2021","02","27","09:00","-42.0","","-46.3","","63","","0.0","","24","","28","","","","101.81","","","","-61","","NA"
"-115.14","67.82","KUGLUKTUK CLIMATE","2300904","2021-02-27 10:00","2021","02","27","10:00","-41.0","","-45.4","","63","","0.0","","24","","28","","","","101.83","","","","-59","","NA"
"-115.14","67.82","KUGLUKTUK CLIMATE","2300904","2021-02-27 11:00","2021","02","27","11:00","-38.9","","-43.4","","63","","0.0","","24","","26","","","","101.86","","","","-56","","NA"
"-115.14","67.82","KUGLUKTUK CLIMATE","2300904","2021-02-27 12:00","2021","02","27","12:00","-37.8","","-42.4","","62","","0.0","","25","","30","","","","101.87","","","","-56","","NA"
"-115.14","67.82","KUGLUKTUK CLIMATE","2300904","2021-02-27 13:00","2021","02","27","13:00","-36.7","","-41.4","","62","","0.0","","24","","25","","","","101.91","","","","-53","","NA"
"-115.14","67.82","KUGLUKTUK CLIMATE","2300904","2021-02-27 14:00","2021","02","27","14:00","-36.3","","-41.1","","61","","0.0","","24","","30","","","","101.88","","","","-54","","NA"
"-115.14","67.82","KUGLUKTUK CLIMATE","2300904","2021-02-27 15:00","2021","02","27","15:00","-35.1","","-40.1","","60","","0.0","","25","","30","","","","101.85","","","","-52","","NA"
"-115.14","67.82","KUGLUKTUK CLIMATE","2300904","2021-02-27 16:00","2021","02","27","16:00","-34.2","","-39.4","","59","","0.0","","24","","24","","","","101.86","","","","-50","","NA"
"-115.14","67.82","KUGLUKTUK CLIMATE","2300904","2021-02-27 17:00","2021","02","27","17:00","-35.1","","-40.0","","61","","0.0","","23","","30","","","","101.84","","","","-52","","NA"
"-115.14","67.82","KUGLUKTUK CLIMATE","2300904","2021-02-27 18:00","2021","02","27","18:00","-35.2","","-40.0","","62","","0.0","","22","","21","","","","101.83","","","","-50","","NA"
"-115.14","67.82","KUGLUKTUK CLIMATE","2300904","2021-02-27 19:00","2021","02","27","19:00","-35.4","","-40.1","","62","","0.0","","24","","22","","","","101.82","","","","-51","","NA"
"-115.14","67.82","KUGLUKTUK CLIMATE","2300904","2021-02-27 20:00","2021","02","27","20:00","-35.6","","-40.0","","64","","0.0","","25","","23","","","","101.81","","","","-51","","NA"
"-115.14","67.82","KUGLUKTUK CLIMATE","2300904","2021-02-27 21:00","2021","02","27","21:00","-34.7","","-39.4","","62","","0.0","","25","","29","","","","101.77","","","","-52","","NA"
"-115.14","67.82","KUGLUKTUK CLIMATE","2300904","2021-02-27 22:00","2021","02","27","22:00","-34.5","","-39.1","","63","","0.0","","24","","21","","","","101.77","","","","-49","","NA"
"-115.14","67.82","KUGLUKTUK CLIMATE","2300904","2021-02-27 23:00","2021","02","27","23:00","-35.3","","-39.9","","63","","0.0","","25","","29","","","","101.73","","","","-52","","NA"
"-115.14","67.82","KUGLUKTUK CLIMATE","2300904","2021-02-28 00:00","2021","02","28","00:00","-35.8","","-40.1","","65","","0.0","","25","","29","","","","101.72","","","","-53","","NA"
"-115.14","67.82","KUGLUKTUK CLIMATE","2300904","2021-02-28 01:00","2021","02","28","01:00","-35.7","","-39.8","","66","","0.0","","24","","25","","","","101.70","","","","-52","","NA"
"-115.14","67.82","KUGLUKTUK CLIMATE","2300904","2021-02-28 02:00","2021","02","28","02:00","-35.8","","-40.1","","64","","0.0","","24","","19","","","","101.76","","","","-50","","NA"
"-115.14","67.82","KUGLUKTUK CLIMATE","2300904","2021-02-28 03:00","2021","02","28","03:00","-35.2","","-39.4","","65","","0.0","","24","","24","","","","101.75","","","","-51","","NA"
"-115.14","67.82","KUGLUKTUK CLIMATE","2300904","2021-02-28 04:00","2021","02","28","04:00","-35.5","","-39.7","","65","","0.0","","24","","19","","","","101.79","","","","-50","","NA"
"-115.14","67.82","KUGLUKTUK CLIMATE","2300904","2021-02-28 05:00","2021","02","28","05:00","-34.4","","-38.8","","64","","0.0","","25","","29","","","","101.78","","","","-51","","NA"
"-115.14","67.82","KUGLUKTUK CLIMATE","2300904","2021-02-28 06:00","2021","02","28","06:00","-34.3","","-39.0","","63","","0.0","","25","","29","","","","101.77","","","","-51","","NA"
"-115.14","67.82","KUGLUKTUK CLIMATE","2300904","2021-02-28 07:00","2021","02","28","07:00","-34.5","","-39.2","","62","","0.0","","24","","25","","","","101.78","","","","-50","","NA"
"-115.14","67.82","KUGLUKTUK CLIMATE","2300904","2021-02-28 08:00","2021","02","28","08:00","-33.0","","-37.7","","62","","0.0","","24","","28","","","","101.73","","","","-49","","NA"
"-115.14","67.82","KUGLUKTUK CLIMATE","2300904","2021-02-28 09:00","2021","02","28","09:00","-32.5","","-37.5","","61","","0.0","","23","","26","","","","101.71","","","","-48","","NA"
"-115.14","67.82","KUGLUKTUK CLIMATE","2300904","2021-02-28 10:00","2021","02","28","10:00","-31.1","","-36.2","","61","","0.0","","24","","31","","","","101.73","","","","-47","","NA"
"-115.14","67.82","KUGLUKTUK CLIMATE","2300904","2021-02-28 11:00","2021","02","28","11:00","-30.7","","-35.9","","61","","0.0","","25","","32","","","","101.74","","","","-47","","NA"
"-115.14","67.82","KUGLUKTUK CLIMATE","2300904","2021-02-28 12:00","2021","02","28","12:00","-30.0","","-35.5","","59","","0.0","","24","","30","","","","101.73","","","","-46","","NA"
"-115.14","67.82","KUGLUKTUK CLIMATE","2300904","2021-02-28 13:00","2021","02","28","13:00","-30.5","","-35.8","","60","","0.0","","25","","32","","","","101.70","","","","-47","","NA"
"-115.14","67.82","KUGLUKTUK CLIMATE","2300904","2021-02-28 14:00","2021","02","28","14:00","-30.3","","-35.8","","59","","0.0","","24","","29","","","","101.73","","","","-46","","NA"
"-115.14","67.82","KUGLUKTUK CLIMATE","2300904","2021-02-28 15:00","2021","02","28","15:00","-30.8","","-36.4","","58","","0.0","","24","","26","","","","101.70","","","","-46","","NA"
"-115.14","67.82","KUGLUKTUK CLIMATE","2300904","2021-02-28 16:00","2021","02","28","16:00","-31.0","","-36.5","","58","","0.0","","24","","28","","","","101.68","","","","-46","","NA"
"-115.14","67.82","KUGLUKTUK CLIMATE","2300904","2021-02-28 17:00","2021","02","28","17:00","-31.5","","-37.0","","58","","0.0","","23","","25","","","","101.69","","","","-46","","NA"
"-115.14","67.82","KUGLUKTUK CLIMATE","2300904","2021-02-28 18:00","2021","02","28","18:00","-32.4","","-37.6","","60","","0.0","","24","","26","","","","101.65","","","","-48","","NA"
"-115.14","67.82","KUGLUKTUK CLIMATE","2300904","2021-02-28 19:00","2021","02","28","19:00","-33.2","","-38.2","","61","","0.0","","23","","25","","","","101.65","","","","-49","","NA"
"-115.14","67.82","KUGLUKTUK CLIMATE","2300904","2021-02-28 20:00","2021","02","28","20:00","-33.0","","-38.2","","59","","0.0","","24","","28","","","","101.64","","","","-49","","NA"
"-115.14","67.82","KUGLUKTUK CLIMATE","2300904","2021-02-28 21:00","2021","02","28","21:00","-32.4","","-37.9","","58","","0.0","","24","","30","","","","101.66","","","","-49","","NA"
"-115.14","67.82","KUGLUKTUK CLIMATE","2300904","2021-02-28 22:00","2021","02","28","22:00","-31.9","","-36.9","","61","","0.0","","24","","23","","","","101.63","","","","-46","","NA"
"-115.14","67.82","KUGLUKTUK CLIMATE","2300904","2021-02-28 23:00","2021","02","28","23:00","-31.4","","-36.7","","60","","0.0","","25","","25","","","","101.59","","","","-46","","NA"
