"Longitude (x)","Latitude (y)","Station Name","Climate ID","Date/Time (LST)","Year","Month","Day","Time (LST)","Temp (°C)","Temp Flag","Dew Point Temp (°C)","Dew Point Temp Flag","Rel Hum (%)","Rel Hum Flag","Precip. Amount (mm)","Precip. Amount Flag","Wind Dir (10s deg)","Wind Dir Flag","Wind Spd (km/h)","Wind Spd Flag","Visibility (km)","Visibility Flag","Stn Press (kPa)","Stn Press Flag","Hmdx","Hmdx Flag","Wind Chill","Wind Chill Flag","Weather"
"-117.16","58.62","HIGH LEVEL A","3073140","2020-02-01 00:00","2020","02","01","00:00","-7.4","","-7.7","","98","","0.0","","33","","4","","16.1","","95.61","","","","-9","","NA"
"-117.16","58.62","HIGH LEVEL A","3073140","2020-02-01 01:00","2020","02","01","01:00","-7.6","","-8.1","","96","","0.0","","4","","5","","16.1","","95.56","","","","-10","","NA"
"-117.16","58.62","HIGH LEVEL A","3073140","2020-02-01 02:00","2020","02","01","02:00","-8.9","","-10.3","","90","","0.0","","16","","11","","16.1","","95.45","","","","-14","","NA"
"-117.16","58.62","HIGH LEVEL A","3073140","2020-02-01 03:00","2020","02","01","03:00","-9.7","","-11.9","","84","","0.0","","14","","8","","16.1","","95.40","","","","-14","","NA"
"-117.16","58.62","HIGH LEVEL A","3073140","2020-02-01 04:00","2020","02","01","04:00","-10.4","","-12.6","","84","","0.0","","9","","11","","16.1","","95.40","","","","-16","","NA"
"-117.16","58.62","HIGH LEVEL A","3073140","2020-02-01 05:00","2020","02","01","05:00","-10.7","","-13.4","","81","","0.0","","9","","5","","16.1","","95.35","","","","-14","","Snow"
"-117.16","58.62","HIGH LEVEL A","3073140","2020-02-01 06:00","2020","02","01","06:00","-10.6","","-12.2","","88","","0.0","","2","","5","","4.8","","95.27","","","","-14","","Snow"
"-117.16","58.62","HIGH LEVEL A","3073140","2020-02-01 07:00","2020","02","01","07:00","-10.4","","-11.6","","91","","0.0","","1","","9","","3.2","","95.26","","","","-15","","Snow"
"-117.16","58.62","HIGH LEVEL A","3073140","2020-02-01 08:00","2020","02","01","08:00","-11.5","","-12.8","","90","","0.0","","36","","21","","1.6","","95.16","","","","-20","","Snow"
"-117.16","58.62","HIGH LEVEL A","3073140","2020-02-01 09:00","2020","02","01","09:00","-14.6","","-16.3","","87","","0.0","","1","","24","","1.6","","95.16","","","","-24","","Snow"
"-117.16","58.62","HIGH LEVEL A","3073140","2020-02-01 10:00","2020","02","01","10:00","-16.0","","-17.9","","86","","0.0","","35","","30","","2.0","","95.19","","","","-27","","Snow"
"-117.16","58.62","HIGH LEVEL A","3073140","2020-02-01 11:00","2020","02","01","11:00","-16.6","","-18.7","","84","","0.0","","36","","34","","3.2","","95.25","","","","-29","","Snow"
"-117.16","58.62","HIGH LEVEL A","3073140","2020-02-01 12:00","2020","02","01","12:00","-17.5","","-19.5","","84","","0.0","","35","","35","","0.8","","95.34","","","","-30","","Moderate Snow"
"-117.16","58.62","HIGH LEVEL A","3073140","2020-02-01 13:00","2020","02","01","13:00","-18.3","","-20.5","","83","","0.0","","35","","32","","0.8","","95.40","","","","-31","","Moderate Snow"
"-117.16","58.62","HIGH LEVEL A","3073140","2020-02-01 14:00","2020","02","01","14:00","-18.3","","-20.7","","82","","0.0","","35","","37","","1.0","","95.48","","","","-31","","Snow"
"-117.16","58.62","HIGH LEVEL A","3073140","2020-02-01 15:00","2020","02","01","15:00","-18.4","","-20.8","","82","","0.0","","34","","30","","1.2","","95.66","","","","-30","","Snow"
"-117.16","58.62","HIGH LEVEL A","3073140","2020-02-01 16:00","2020","02","01","16:00","-18.5","","-20.9","","82","","0.0","","34","","26","","1.6","","95.79","","","","-30","","Snow"
"-117.16","58.62","HIGH LEVEL A","3073140","2020-02-01 17:00","2020","02","01","17:00","-18.3","","-20.7","","82","","0.0","","34","","30","","2.0","","95.96","","","","-30","","Snow"
"-117.16","58.62","HIGH LEVEL A","3073140","2020-02-01 18:00","2020","02","01","18:00","-18.5","","-21.0","","81","","0.0","","34","","35","","1.6","","96.11","","","","-31","","Snow"
"-117.16","58.62","HIGH LEVEL A","3073140","2020-02-01 19:00","2020","02","01","19:00","-18.6","","-21.2","","81","","0.0","","34","","30","","2.8","","96.22","","","","-31","","Snow"
"-117.16","58.62","HIGH LEVEL A","3073140","2020-02-01 20:00","2020","02","01","20:00","-19.2","","-21.8","","80","","0.0","","34","","28","","2.0","","96.39","","","","-31","","Snow"
"-117.16","58.62","HIGH LEVEL A","3073140","2020-02-01 21:00","2020","02","01","21:00","-19.4","","-22.0","","80","","0.0","","35","","34","","1.6","","96.50","","","","-32","","Snow"
"-117.16","58.62","HIGH LEVEL A","3073140","2020-02-01 22:00","2020","02","01","22:00","-19.4","","-22.0","","80","","0.0","","35","","26","","4.0","","96.63","","","","-31","","Snow"
"-117.16","58.62","HIGH LEVEL A","3073140","2020-02-01 23:00","2020","02","01","23:00","-19.2","","-22.0","","79","","0.0","","33","","22","","16.1","","96.77","","","","-30","","Snow"
"-117.16","58.62","HIGH LEVEL A","3073140","2020-02-02 00:00","2020","02","02","00:00","-19.7","","-22.3","","80","","0.0","","34","","21","","4.0","","96.86","","","","-30","","Snow"
"-117.16","58.62","HIGH LEVEL A","3073140","2020-02-02 01:00","2020","02","02","01:00","-19.9","","-22.9","","78","","0.0","","34","","21","","16.1","","96.97","","","","-31","","Snow"
"-117.16","58.62","HIGH LEVEL A","3073140","2020-02-02 02:00","2020","02","02","02:00","-20.5","","-23.3","","79","","0.0","","34","","11","","16.1","","97.05","","","","-28","","Snow"
"-117.16","58.62","HIGH LEVEL A","3073140","2020-02-02 03:00","2020","02","02","03:00","-21.5","","-23.9","","81","","0.0","","33","","13","","16.1","","97.14","","","","-30","","NA"
"-117.16","58.62","HIGH LEVEL A","3073140","2020-02-02 04:00","2020","02","02","04:00","-21.1","","-23.7","","80","","0.0","","31","","8","","16.1","","97.20","","","","-28","","NA"
"-117.16","58.62","HIGH LEVEL A","3073140","2020-02-02 05:00","2020","02","02","05:00","-22.8","","-25.1","","82","","0.0","","32","","9","","16.1","","97.30","","","","-30","","NA"
"-117.16","58.62","HIGH LEVEL A","3073140","2020-02-02 06:00","2020","02","02","06:00","-22.3","","-24.6","","82","","0.0","","35","","11","","16.1","","97.36","","","","-30","","NA"
"-117.16","58.62","HIGH LEVEL A","3073140","2020-02-02 07:00","2020","02","02","07:00","-23.7","","-26.0","","82","","0.0","","33","","11","","16.1","","97.42","","","","-32","","NA"
"-117.16","58.62","HIGH LEVEL A","3073140","2020-02-02 08:00","2020","02","02","08:00","-23.1","","-25.6","","81","","0.0","","32","","9","","16.1","","97.48","","","","-30","","NA"
"-117.16","58.62","HIGH LEVEL A","3073140","2020-02-02 09:00","2020","02","02","09:00","-23.0","","-25.2","","82","","0.0","","28","","8","","16.1","","97.53","","","","-30","","NA"
"-117.16","58.62","HIGH LEVEL A","3073140","2020-02-02 10:00","2020","02","02","10:00","-21.6","","-24.6","","77","","0.0","","29","","8","","16.1","","97.61","","","","-28","","NA"
"-117.16","58.62","HIGH LEVEL A","3073140","2020-02-02 11:00","2020","02","02","11:00","-20.9","","-24.1","","76","","0.0","","32","","8","","16.1","","97.66","","","","-27","","Snow"
"-117.16","58.62","HIGH LEVEL A","3073140","2020-02-02 12:00","2020","02","02","12:00","-20.2","","-23.7","","74","","0.0","","35","","11","","14.5","","97.68","","","","-28","","Snow"
"-117.16","58.62","HIGH LEVEL A","3073140","2020-02-02 13:00","2020","02","02","13:00","-20.2","","-23.7","","74","","0.0","","34","","15","","16.1","","97.70","","","","-29","","NA"
"-117.16","58.62","HIGH LEVEL A","3073140","2020-02-02 14:00","2020","02","02","14:00","-19.4","","-23.4","","71","","0.0","","32","","13","","16.1","","97.73","","","","-28","","NA"
"-117.16","58.62","HIGH LEVEL A","3073140","2020-02-02 15:00","2020","02","02","15:00","-19.2","","-23.2","","71","","0.0","","34","","17","","16.1","","97.76","","","","-29","","NA"
"-117.16","58.62","HIGH LEVEL A","3073140","2020-02-02 16:00","2020","02","02","16:00","-19.2","","-23.2","","71","","0.0","","33","","18","","16.1","","97.80","","","","-29","","NA"
"-117.16","58.62","HIGH LEVEL A","3073140","2020-02-02 17:00","2020","02","02","17:00","-20.1","","-23.3","","76","","0.0","","28","","8","","16.1","","97.87","","","","-26","","NA"
"-117.16","58.62","HIGH LEVEL A","3073140","2020-02-02 18:00","2020","02","02","18:00","-21.5","","-24.6","","77","","0.0","","31","","8","","16.1","","97.95","","","","-28","","NA"
"-117.16","58.62","HIGH LEVEL A","3073140","2020-02-02 19:00","2020","02","02","19:00","-21.9","","-24.2","","82","","0.0","","34","","8","","16.1","","97.99","","","","-28","","NA"
"-117.16","58.62","HIGH LEVEL A","3073140","2020-02-02 20:00","2020","02","02","20:00","-24.8","","-26.8","","84","","0.0","","23","","5","","16.1","","98.05","","","","-30","","NA"
"-117.16","58.62","HIGH LEVEL A","3073140","2020-02-02 21:00","2020","02","02","21:00","-26.3","","-28.7","","81","","0.0","","34","","9","","16.1","","98.08","","","","-34","","NA"
"-117.16","58.62","HIGH LEVEL A","3073140","2020-02-02 22:00","2020","02","02","22:00","-26.4","","-28.6","","82","","0.0","","33","","5","","16.1","","98.12","","","","-32","","NA"
"-117.16","58.62","HIGH LEVEL A","3073140","2020-02-02 23:00","2020","02","02","23:00","-28.6","","-31.1","","80","","0.0","","1","","5","","16.1","","98.14","","","","-34","","NA"
"-117.16","58.62","HIGH LEVEL A","3073140","2020-02-03 00:00","2020","02","03","00:00","-27.2","","-29.9","","78","","0.0","","34","","4","","16.1","","98.21","","","","-31","","NA"
"-117.16","58.62","HIGH LEVEL A","3073140","2020-02-03 01:00","2020","02","03","01:00","-27.3","","-29.7","","80","","0.0","","","","0","","16.1","","98.23","","","","","","NA"
"-117.16","58.62","HIGH LEVEL A","3073140","2020-02-03 02:00","2020","02","03","02:00","-29.0","","-31.7","","78","","0.0","","","M","4","","16.1","","98.24","","","","-33","","NA"
"-117.16","58.62","HIGH LEVEL A","3073140","2020-02-03 03:00","2020","02","03","03:00","-28.2","","-30.9","","78","","0.0","","","","0","","16.1","","98.22","","","","","","NA"
"-117.16","58.62","HIGH LEVEL A","3073140","2020-02-03 04:00","2020","02","03","04:00","-26.9","","-29.4","","80","","0.0","","","","0","","16.1","","98.27","","","","","","NA"
"-117.16","58.62","HIGH LEVEL A","3073140","2020-02-03 05:00","2020","02","03","05:00","-26.7","","-29.2","","80","","0.0","","","","0","","16.1","","98.25","","","","","","NA"
"-117.16","58.62","HIGH LEVEL A","3073140","2020-02-03 06:00","2020","02","03","06:00","-26.8","","-29.3","","80","","0.0","","15","","4","","16.1","","98.23","","","","-31","","NA"
"-117.16","58.62","HIGH LEVEL A","3073140","2020-02-03 07:00","2020","02","03","07:00","-27.8","","-30.3","","80","","0.0","","","","0","","16.1","","98.24","","","","","","NA"
"-117.16","58.62","HIGH LEVEL A","3073140","2020-02-03 08:00","2020","02","03","08:00","-30.4","","-33.4","","76","","0.0","","14","","5","","16.1","","98.20","","","","-36","","NA"
"-117.16","58.62","HIGH LEVEL A","3073140","2020-02-03 09:00","2020","02","03","09:00","-31.0","","-33.9","","76","","0.0","","23","","4","","16.1","","98.19","","","","-36","","NA"
"-117.16","58.62","HIGH LEVEL A","3073140","2020-02-03 10:00","2020","02","03","10:00","-31.0","","-33.9","","76","","0.0","","15","","4","","16.1","","98.12","","","","-36","","NA"
"-117.16","58.62","HIGH LEVEL A","3073140","2020-02-03 11:00","2020","02","03","11:00","-28.0","","-30.6","","79","","0.0","","","","0","","16.1","","98.07","","","","","","NA"
"-117.16","58.62","HIGH LEVEL A","3073140","2020-02-03 12:00","2020","02","03","12:00","-24.4","","-26.6","","82","","0.0","","14","","11","","16.1","","98.03","","","","-33","","NA"
"-117.16","58.62","HIGH LEVEL A","3073140","2020-02-03 13:00","2020","02","03","13:00","-23.0","","-25.3","","82","","0.0","","15","","11","","16.1","","97.94","","","","-31","","NA"
"-117.16","58.62","HIGH LEVEL A","3073140","2020-02-03 14:00","2020","02","03","14:00","-21.4","","-23.8","","81","","0.0","","16","","17","","16.1","","97.84","","","","-31","","NA"
"-117.16","58.62","HIGH LEVEL A","3073140","2020-02-03 15:00","2020","02","03","15:00","-20.6","","-24.1","","74","","0.0","","16","","13","","16.1","","97.74","","","","-29","","NA"
"-117.16","58.62","HIGH LEVEL A","3073140","2020-02-03 16:00","2020","02","03","16:00","-20.5","","-23.8","","75","","0.0","","15","","11","","16.1","","97.66","","","","-28","","NA"
"-117.16","58.62","HIGH LEVEL A","3073140","2020-02-03 17:00","2020","02","03","17:00","-21.1","","-24.3","","76","","0.0","","14","","11","","16.1","","97.59","","","","-29","","NA"
"-117.16","58.62","HIGH LEVEL A","3073140","2020-02-03 18:00","2020","02","03","18:00","-24.0","","-25.9","","85","","0.0","","19","","8","","16.1","","97.57","","","","-31","","NA"
"-117.16","58.62","HIGH LEVEL A","3073140","2020-02-03 19:00","2020","02","03","19:00","-24.7","","-26.9","","82","","0.0","","17","","11","","16.1","","97.46","","","","-33","","NA"
"-117.16","58.62","HIGH LEVEL A","3073140","2020-02-03 20:00","2020","02","03","20:00","-23.6","","-25.5","","85","","0.0","","16","","9","","16.1","","97.37","","","","-31","","NA"
"-117.16","58.62","HIGH LEVEL A","3073140","2020-02-03 21:00","2020","02","03","21:00","-26.7","","-29.0","","81","","0.0","","15","","5","","16.1","","97.26","","","","-32","","NA"
"-117.16","58.62","HIGH LEVEL A","3073140","2020-02-03 22:00","2020","02","03","22:00","-26.2","","-28.8","","79","","0.0","","","","0","","16.1","","97.16","","","","","","NA"
"-117.16","58.62","HIGH LEVEL A","3073140","2020-02-03 23:00","2020","02","03","23:00","-28.2","","-30.9","","78","","0.0","","36","","8","","16.1","","97.15","","","","-36","","NA"
"-117.16","58.62","HIGH LEVEL A","3073140","2020-02-04 00:00","2020","02","04","00:00","-28.1","","-30.7","","79","","0.0","","","","0","","16.1","","97.09","","","","","","NA"
"-117.16","58.62","HIGH LEVEL A","3073140","2020-02-04 01:00","2020","02","04","01:00","-28.5","","-31.1","","79","","0.0","","","","0","","16.1","","97.06","","","","","","NA"
"-117.16","58.62","HIGH LEVEL A","3073140","2020-02-04 02:00","2020","02","04","02:00","-28.5","","-31.2","","78","","0.0","","","","0","","16.1","","97.03","","","","","","NA"
"-117.16","58.62","HIGH LEVEL A","3073140","2020-02-04 03:00","2020","02","04","03:00","-27.3","","-29.9","","79","","0.0","","","","0","","16.1","","96.96","","","","","","NA"
"-117.16","58.62","HIGH LEVEL A","3073140","2020-02-04 04:00","2020","02","04","04:00","-25.8","","-28.3","","80","","0.0","","","","0","","16.1","","96.93","","","","","","NA"
"-117.16","58.62","HIGH LEVEL A","3073140","2020-02-04 05:00","2020","02","04","05:00","-24.8","","-27.2","","81","","0.0","","","","0","","16.1","","96.83","","","","","","NA"
"-117.16","58.62","HIGH LEVEL A","3073140","2020-02-04 06:00","2020","02","04","06:00","-25.8","","-28.3","","80","","0.0","","10","","4","","16.1","","96.78","","","","-30","","NA"
"-117.16","58.62","HIGH LEVEL A","3073140","2020-02-04 07:00","2020","02","04","07:00","-25.6","","-28.0","","81","","0.0","","12","","4","","16.1","","96.72","","","","-30","","NA"
"-117.16","58.62","HIGH LEVEL A","3073140","2020-02-04 08:00","2020","02","04","08:00","-25.4","","-27.8","","81","","0.0","","","","0","","16.1","","96.65","","","","","","NA"
"-117.16","58.62","HIGH LEVEL A","3073140","2020-02-04 09:00","2020","02","04","09:00","-25.4","","-27.8","","81","","0.0","","","","0","","16.1","","96.61","","","","","","NA"
"-117.16","58.62","HIGH LEVEL A","3073140","2020-02-04 10:00","2020","02","04","10:00","-25.0","","-27.2","","82","","0.0","","","","0","","16.1","","96.60","","","","","","NA"
"-117.16","58.62","HIGH LEVEL A","3073140","2020-02-04 11:00","2020","02","04","11:00","-22.6","","-24.6","","84","","0.0","","","","0","","16.1","","96.54","","","","","","NA"
"-117.16","58.62","HIGH LEVEL A","3073140","2020-02-04 12:00","2020","02","04","12:00","-18.3","","-20.2","","85","","0.0","","","M","4","","16.1","","96.52","","","","-22","","NA"
"-117.16","58.62","HIGH LEVEL A","3073140","2020-02-04 13:00","2020","02","04","13:00","-16.5","","-19.5","","78","","0.0","","23","","5","","16.1","","96.46","","","","-20","","NA"
"-117.16","58.62","HIGH LEVEL A","3073140","2020-02-04 14:00","2020","02","04","14:00","-15.0","","-18.5","","75","","0.0","","23","","5","","16.1","","96.42","","","","-19","","NA"
"-117.16","58.62","HIGH LEVEL A","3073140","2020-02-04 15:00","2020","02","04","15:00","-13.5","","-17.4","","73","","0.0","","22","","5","","16.1","","96.41","","","","-17","","NA"
"-117.16","58.62","HIGH LEVEL A","3073140","2020-02-04 16:00","2020","02","04","16:00","-14.7","","-17.6","","79","","0.0","","24","","4","","16.1","","96.44","","","","-18","","NA"
"-117.16","58.62","HIGH LEVEL A","3073140","2020-02-04 17:00","2020","02","04","17:00","-16.2","","-18.2","","85","","0.0","","26","","4","","16.1","","96.44","","","","-19","","NA"
"-117.16","58.62","HIGH LEVEL A","3073140","2020-02-04 18:00","2020","02","04","18:00","-17.7","","-19.2","","88","","0.0","","","","0","","16.1","","96.46","","","","","","NA"
"-117.16","58.62","HIGH LEVEL A","3073140","2020-02-04 19:00","2020","02","04","19:00","-19.8","","-21.1","","89","","0.0","","","","0","","16.1","","96.47","","","","","","NA"
"-117.16","58.62","HIGH LEVEL A","3073140","2020-02-04 20:00","2020","02","04","20:00","-16.3","","-18.2","","85","","0.0","","9","","5","","16.1","","96.44","","","","-20","","NA"
"-117.16","58.62","HIGH LEVEL A","3073140","2020-02-04 21:00","2020","02","04","21:00","-15.1","","-17.3","","83","","0.0","","18","","4","","16.1","","96.46","","","","-18","","NA"
"-117.16","58.62","HIGH LEVEL A","3073140","2020-02-04 22:00","2020","02","04","22:00","-14.9","","-17.6","","80","","0.0","","13","","8","","16.1","","96.51","","","","-20","","NA"
"-117.16","58.62","HIGH LEVEL A","3073140","2020-02-04 23:00","2020","02","04","23:00","-14.9","","-17.9","","78","","0.0","","14","","11","","16.1","","96.51","","","","-21","","NA"
"-117.16","58.62","HIGH LEVEL A","3073140","2020-02-05 00:00","2020","02","05","00:00","-15.0","","-18.6","","75","","0.0","","14","","13","","16.1","","96.50","","","","-22","","NA"
"-117.16","58.62","HIGH LEVEL A","3073140","2020-02-05 01:00","2020","02","05","01:00","-15.4","","-18.8","","76","","0.0","","15","","9","","16.1","","96.49","","","","-21","","NA"
"-117.16","58.62","HIGH LEVEL A","3073140","2020-02-05 02:00","2020","02","05","02:00","-15.8","","-19.3","","75","","0.0","","15","","11","","16.1","","96.46","","","","-23","","NA"
"-117.16","58.62","HIGH LEVEL A","3073140","2020-02-05 03:00","2020","02","05","03:00","-16.0","","-20.0","","72","","0.0","","15","","18","","16.1","","96.45","","","","-25","","NA"
"-117.16","58.62","HIGH LEVEL A","3073140","2020-02-05 04:00","2020","02","05","04:00","-16.3","","-20.2","","73","","0.0","","15","","21","","16.1","","96.44","","","","-26","","Snow"
"-117.16","58.62","HIGH LEVEL A","3073140","2020-02-05 05:00","2020","02","05","05:00","-16.6","","-19.7","","78","","0.0","","15","","13","","16.1","","96.40","","","","-24","","Snow"
"-117.16","58.62","HIGH LEVEL A","3073140","2020-02-05 06:00","2020","02","05","06:00","-17.0","","-19.7","","80","","0.0","","15","","15","","16.1","","96.32","","","","-25","","Snow"
"-117.16","58.62","HIGH LEVEL A","3073140","2020-02-05 07:00","2020","02","05","07:00","-17.2","","-19.4","","83","","0.0","","15","","18","","16.1","","96.27","","","","-26","","Snow"
"-117.16","58.62","HIGH LEVEL A","3073140","2020-02-05 08:00","2020","02","05","08:00","-17.6","","-19.8","","83","","0.0","","15","","21","","16.1","","96.22","","","","-28","","NA"
"-117.16","58.62","HIGH LEVEL A","3073140","2020-02-05 09:00","2020","02","05","09:00","-17.6","","-19.7","","84","","0.0","","15","","18","","16.1","","96.19","","","","-27","","NA"
"-117.16","58.62","HIGH LEVEL A","3073140","2020-02-05 10:00","2020","02","05","10:00","-17.4","","-19.5","","84","","0.0","","14","","15","","16.1","","96.16","","","","-26","","NA"
"-117.16","58.62","HIGH LEVEL A","3073140","2020-02-05 11:00","2020","02","05","11:00","-16.8","","-18.9","","84","","0.0","","14","","15","","3.2","","96.10","","","","-25","","Snow"
"-117.16","58.62","HIGH LEVEL A","3073140","2020-02-05 12:00","2020","02","05","12:00","-15.9","","-18.0","","84","","0.0","","16","","17","","16.1","","96.06","","","","-25","","NA"
"-117.16","58.62","HIGH LEVEL A","3073140","2020-02-05 13:00","2020","02","05","13:00","-15.1","","-17.2","","84","","0.0","","15","","15","","16.1","","95.95","","","","-23","","NA"
"-117.16","58.62","HIGH LEVEL A","3073140","2020-02-05 14:00","2020","02","05","14:00","-14.2","","-16.4","","84","","0.0","","20","","8","","16.1","","95.92","","","","-19","","NA"
"-117.16","58.62","HIGH LEVEL A","3073140","2020-02-05 15:00","2020","02","05","15:00","-13.7","","-16.0","","83","","0.0","","15","","13","","16.1","","95.88","","","","-21","","NA"
"-117.16","58.62","HIGH LEVEL A","3073140","2020-02-05 16:00","2020","02","05","16:00","-13.5","","-15.7","","84","","0.0","","15","","9","","16.1","","95.85","","","","-19","","NA"
"-117.16","58.62","HIGH LEVEL A","3073140","2020-02-05 17:00","2020","02","05","17:00","-13.5","","-15.5","","85","","0.0","","14","","9","","16.1","","95.87","","","","-19","","NA"
"-117.16","58.62","HIGH LEVEL A","3073140","2020-02-05 18:00","2020","02","05","18:00","-13.3","","-15.2","","86","","0.0","","19","","5","","16.1","","95.89","","","","-17","","NA"
"-117.16","58.62","HIGH LEVEL A","3073140","2020-02-05 19:00","2020","02","05","19:00","-13.2","","-15.0","","86","","0.0","","21","","5","","16.1","","95.91","","","","-17","","NA"
"-117.16","58.62","HIGH LEVEL A","3073140","2020-02-05 20:00","2020","02","05","20:00","-13.0","","-14.7","","87","","0.0","","","M","4","","16.1","","95.97","","","","-16","","NA"
"-117.16","58.62","HIGH LEVEL A","3073140","2020-02-05 21:00","2020","02","05","21:00","-12.9","","-14.6","","87","","0.0","","","","0","","16.1","","95.99","","","","","","NA"
"-117.16","58.62","HIGH LEVEL A","3073140","2020-02-05 22:00","2020","02","05","22:00","-13.1","","-14.6","","89","","0.0","","20","","4","","16.1","","96.01","","","","-16","","NA"
"-117.16","58.62","HIGH LEVEL A","3073140","2020-02-05 23:00","2020","02","05","23:00","-12.9","","-14.4","","89","","0.0","","20","","8","","6.4","","96.04","","","","-18","","Snow"
"-117.16","58.62","HIGH LEVEL A","3073140","2020-02-06 00:00","2020","02","06","00:00","-13.0","","-14.6","","88","","0.0","","17","","9","","8.1","","96.10","","","","-18","","Snow"
"-117.16","58.62","HIGH LEVEL A","3073140","2020-02-06 01:00","2020","02","06","01:00","-13.0","","-14.6","","88","","0.0","","14","","8","","16.1","","96.14","","","","-18","","Snow"
"-117.16","58.62","HIGH LEVEL A","3073140","2020-02-06 02:00","2020","02","06","02:00","-13.0","","-14.6","","88","","0.0","","14","","5","","16.1","","96.15","","","","-16","","Snow"
"-117.16","58.62","HIGH LEVEL A","3073140","2020-02-06 03:00","2020","02","06","03:00","-13.1","","-14.7","","88","","0.0","","16","","9","","9.7","","96.19","","","","-19","","Snow"
"-117.16","58.62","HIGH LEVEL A","3073140","2020-02-06 04:00","2020","02","06","04:00","-13.2","","-14.4","","91","","0.0","","16","","9","","4.0","","96.20","","","","-19","","Snow"
"-117.16","58.62","HIGH LEVEL A","3073140","2020-02-06 05:00","2020","02","06","05:00","-13.1","","-14.7","","88","","0.0","","14","","9","","16.1","","96.20","","","","-19","","NA"
"-117.16","58.62","HIGH LEVEL A","3073140","2020-02-06 06:00","2020","02","06","06:00","-12.9","","-14.5","","88","","0.0","","17","","9","","16.1","","96.22","","","","-18","","Snow"
"-117.16","58.62","HIGH LEVEL A","3073140","2020-02-06 07:00","2020","02","06","07:00","-12.7","","-14.0","","90","","0.0","","17","","4","","8.1","","96.22","","","","-15","","Snow"
"-117.16","58.62","HIGH LEVEL A","3073140","2020-02-06 08:00","2020","02","06","08:00","-12.7","","-14.2","","89","","0.0","","","","0","","16.1","","96.25","","","","","","Snow"
"-117.16","58.62","HIGH LEVEL A","3073140","2020-02-06 09:00","2020","02","06","09:00","-12.8","","-14.3","","89","","0.0","","","M","4","","16.1","","96.29","","","","-15","","Snow"
"-117.16","58.62","HIGH LEVEL A","3073140","2020-02-06 10:00","2020","02","06","10:00","-12.4","","-13.8","","89","","0.0","","35","","4","","3.2","","96.32","","","","-15","","Snow"
"-117.16","58.62","HIGH LEVEL A","3073140","2020-02-06 11:00","2020","02","06","11:00","-11.8","","-13.3","","89","","0.0","","35","","8","","2.8","","96.38","","","","-17","","Snow"
"-117.16","58.62","HIGH LEVEL A","3073140","2020-02-06 12:00","2020","02","06","12:00","-10.5","","-12.5","","86","","0.0","","1","","11","","12.9","","96.41","","","","-16","","Snow"
"-117.16","58.62","HIGH LEVEL A","3073140","2020-02-06 13:00","2020","02","06","13:00","-9.9","","-12.2","","84","","0.0","","35","","9","","16.1","","96.42","","","","-15","","NA"
"-117.16","58.62","HIGH LEVEL A","3073140","2020-02-06 14:00","2020","02","06","14:00","-9.4","","-11.8","","83","","0.0","","1","","17","","16.1","","96.43","","","","-16","","NA"
"-117.16","58.62","HIGH LEVEL A","3073140","2020-02-06 15:00","2020","02","06","15:00","-8.7","","-11.1","","83","","0.0","","36","","9","","16.1","","96.47","","","","-13","","NA"
"-117.16","58.62","HIGH LEVEL A","3073140","2020-02-06 16:00","2020","02","06","16:00","-8.6","","-10.7","","85","","0.0","","35","","9","","16.1","","96.50","","","","-13","","NA"
"-117.16","58.62","HIGH LEVEL A","3073140","2020-02-06 17:00","2020","02","06","17:00","-8.5","","-10.7","","85","","0.0","","1","","8","","16.1","","96.55","","","","-13","","NA"
"-117.16","58.62","HIGH LEVEL A","3073140","2020-02-06 18:00","2020","02","06","18:00","-10.7","","-12.0","","90","","0.0","","","","0","","16.1","","96.58","","","","","","NA"
"-117.16","58.62","HIGH LEVEL A","3073140","2020-02-06 19:00","2020","02","06","19:00","-11.6","","-12.8","","91","","0.0","","","","0","","16.1","","96.59","","","","","","NA"
"-117.16","58.62","HIGH LEVEL A","3073140","2020-02-06 20:00","2020","02","06","20:00","-11.7","","-12.5","","94","","0.0","","","","0","","16.1","","96.59","","","","","","NA"
"-117.16","58.62","HIGH LEVEL A","3073140","2020-02-06 21:00","2020","02","06","21:00","-10.9","","-12.0","","92","","0.0","","","","0","","16.1","","96.62","","","","","","NA"
"-117.16","58.62","HIGH LEVEL A","3073140","2020-02-06 22:00","2020","02","06","22:00","-10.5","","-11.6","","92","","0.0","","","","0","","16.1","","96.63","","","","","","Snow"
"-117.16","58.62","HIGH LEVEL A","3073140","2020-02-06 23:00","2020","02","06","23:00","-10.3","","-11.4","","92","","0.0","","10","","4","","16.1","","96.65","","","","-13","","NA"
"-117.16","58.62","HIGH LEVEL A","3073140","2020-02-07 00:00","2020","02","07","00:00","-10.4","","-11.7","","90","","0.0","","13","","8","","16.1","","96.72","","","","-15","","NA"
"-117.16","58.62","HIGH LEVEL A","3073140","2020-02-07 01:00","2020","02","07","01:00","-10.7","","-12.3","","88","","0.0","","16","","8","","16.1","","96.74","","","","-15","","Snow"
"-117.16","58.62","HIGH LEVEL A","3073140","2020-02-07 02:00","2020","02","07","02:00","-10.7","","-12.3","","88","","0.0","","17","","4","","16.1","","96.80","","","","-13","","NA"
"-117.16","58.62","HIGH LEVEL A","3073140","2020-02-07 03:00","2020","02","07","03:00","-11.0","","-12.8","","87","","0.0","","17","","8","","16.1","","96.81","","","","-16","","NA"
"-117.16","58.62","HIGH LEVEL A","3073140","2020-02-07 04:00","2020","02","07","04:00","-12.7","","-13.9","","91","","0.0","","","","0","","16.1","","96.85","","","","","","NA"
"-117.16","58.62","HIGH LEVEL A","3073140","2020-02-07 05:00","2020","02","07","05:00","-15.5","","-17.2","","87","","0.0","","","M","4","","16.1","","96.88","","","","-18","","NA"
"-117.16","58.62","HIGH LEVEL A","3073140","2020-02-07 06:00","2020","02","07","06:00","-17.4","","-18.7","","90","","0.0","","","","0","","16.1","","96.91","","","","","","NA"
"-117.16","58.62","HIGH LEVEL A","3073140","2020-02-07 07:00","2020","02","07","07:00","-17.4","","-18.5","","91","","0.0","","27","","4","","16.1","","96.92","","","","-21","","NA"
"-117.16","58.62","HIGH LEVEL A","3073140","2020-02-07 08:00","2020","02","07","08:00","-18.6","","-20.1","","88","","0.0","","","M","4","","16.1","","96.92","","","","-22","","NA"
"-117.16","58.62","HIGH LEVEL A","3073140","2020-02-07 09:00","2020","02","07","09:00","-18.7","","-20.1","","89","","0.0","","","","0","","16.1","","96.94","","","","","","NA"
"-117.16","58.62","HIGH LEVEL A","3073140","2020-02-07 10:00","2020","02","07","10:00","-18.8","","-20.4","","87","","0.0","","","M","4","","16.1","","96.98","","","","-22","","NA"
"-117.16","58.62","HIGH LEVEL A","3073140","2020-02-07 11:00","2020","02","07","11:00","-14.8","","-15.8","","92","","0.0","","","","0","","16.1","","96.99","","","","","","NA"
"-117.16","58.62","HIGH LEVEL A","3073140","2020-02-07 12:00","2020","02","07","12:00","-11.8","","-12.7","","93","","0.0","","","M","4","","16.1","","97.00","","","","-14","","NA"
"-117.16","58.62","HIGH LEVEL A","3073140","2020-02-07 13:00","2020","02","07","13:00","-10.4","","-12.3","","86","","0.0","","14","","8","","16.1","","97.00","","","","-15","","NA"
"-117.16","58.62","HIGH LEVEL A","3073140","2020-02-07 14:00","2020","02","07","14:00","-9.5","","-12.0","","82","","0.0","","15","","8","","16.1","","96.97","","","","-14","","NA"
"-117.16","58.62","HIGH LEVEL A","3073140","2020-02-07 15:00","2020","02","07","15:00","-8.9","","-11.4","","82","","0.0","","14","","8","","16.1","","96.95","","","","-13","","NA"
"-117.16","58.62","HIGH LEVEL A","3073140","2020-02-07 16:00","2020","02","07","16:00","-8.2","","-11.1","","80","","0.0","","12","","5","","16.1","","96.97","","","","-11","","NA"
"-117.16","58.62","HIGH LEVEL A","3073140","2020-02-07 17:00","2020","02","07","17:00","-8.5","","-11.1","","81","","0.0","","","","0","","16.1","","96.96","","","","","","NA"
"-117.16","58.62","HIGH LEVEL A","3073140","2020-02-07 18:00","2020","02","07","18:00","-9.4","","-11.5","","85","","0.0","","21","","4","","16.1","","96.96","","","","-12","","NA"
"-117.16","58.62","HIGH LEVEL A","3073140","2020-02-07 19:00","2020","02","07","19:00","-9.8","","-11.6","","87","","0.0","","15","","5","","16.1","","96.95","","","","-13","","NA"
"-117.16","58.62","HIGH LEVEL A","3073140","2020-02-07 20:00","2020","02","07","20:00","-11.2","","-12.2","","93","","0.0","","32","","5","","16.1","","96.95","","","","-14","","NA"
"-117.16","58.62","HIGH LEVEL A","3073140","2020-02-07 21:00","2020","02","07","21:00","-12.3","","-13.2","","93","","0.0","","34","","5","","16.1","","96.95","","","","-16","","NA"
"-117.16","58.62","HIGH LEVEL A","3073140","2020-02-07 22:00","2020","02","07","22:00","-11.7","","-12.5","","94","","0.0","","33","","9","","16.1","","96.99","","","","-17","","NA"
"-117.16","58.62","HIGH LEVEL A","3073140","2020-02-07 23:00","2020","02","07","23:00","-9.0","","-9.4","","97","","0.0","","35","","11","","12.9","","96.99","","","","-14","","NA"
"-117.16","58.62","HIGH LEVEL A","3073140","2020-02-08 00:00","2020","02","08","00:00","-9.1","","-9.5","","97","","0.0","","36","","11","","4.8","","97.03","","","","-15","","Fog"
"-117.16","58.62","HIGH LEVEL A","3073140","2020-02-08 01:00","2020","02","08","01:00","-9.5","","-10.0","","96","","0.0","","36","","13","","8.1","","97.08","","","","-16","","Fog"
"-117.16","58.62","HIGH LEVEL A","3073140","2020-02-08 02:00","2020","02","08","02:00","-9.7","","-10.2","","96","","0.0","","36","","9","","16.1","","97.10","","","","-15","","NA"
"-117.16","58.62","HIGH LEVEL A","3073140","2020-02-08 03:00","2020","02","08","03:00","-10.0","","-10.5","","96","","0.0","","35","","5","","16.1","","97.13","","","","-13","","NA"
"-117.16","58.62","HIGH LEVEL A","3073140","2020-02-08 04:00","2020","02","08","04:00","-10.2","","-10.7","","96","","0.0","","","M","4","","16.1","","97.19","","","","-13","","NA"
"-117.16","58.62","HIGH LEVEL A","3073140","2020-02-08 05:00","2020","02","08","05:00","-10.7","","-11.4","","95","","0.0","","","M","4","","2.0","","97.25","","","","-13","","Fog"
"-117.16","58.62","HIGH LEVEL A","3073140","2020-02-08 06:00","2020","02","08","06:00","-11.8","","-12.6","","94","","0.0","","23","","8","","1.6","","97.30","","","","-17","","Fog"
"-117.16","58.62","HIGH LEVEL A","3073140","2020-02-08 07:00","2020","02","08","07:00","-12.7","","-13.6","","93","","0.0","","23","","9","","16.1","","97.33","","","","-18","","NA"
"-117.16","58.62","HIGH LEVEL A","3073140","2020-02-08 08:00","2020","02","08","08:00","-12.7","","-13.6","","93","","0.0","","","","0","","16.1","","97.35","","","","","","NA"
"-117.16","58.62","HIGH LEVEL A","3073140","2020-02-08 09:00","2020","02","08","09:00","-12.8","","-13.7","","93","","0.0","","","M","4","","8.1","","97.41","","","","-15","","Fog"
"-117.16","58.62","HIGH LEVEL A","3073140","2020-02-08 10:00","2020","02","08","10:00","-13.0","","-13.9","","93","","0.0","","15","","5","","16.1","","97.43","","","","-16","","NA"
"-117.16","58.62","HIGH LEVEL A","3073140","2020-02-08 11:00","2020","02","08","11:00","-12.8","","-13.7","","93","","0.0","","16","","5","","16.1","","97.47","","","","-16","","NA"
"-117.16","58.62","HIGH LEVEL A","3073140","2020-02-08 12:00","2020","02","08","12:00","-11.6","","-12.4","","94","","0.0","","16","","5","","16.1","","97.50","","","","-15","","Snow"
"-117.16","58.62","HIGH LEVEL A","3073140","2020-02-08 13:00","2020","02","08","13:00","-11.3","","-12.1","","94","","0.0","","","M","4","","16.1","","97.47","","","","-14","","NA"
"-117.16","58.62","HIGH LEVEL A","3073140","2020-02-08 14:00","2020","02","08","14:00","-10.4","","-11.2","","94","","0.0","","14","","4","","16.1","","97.47","","","","-13","","NA"
"-117.16","58.62","HIGH LEVEL A","3073140","2020-02-08 15:00","2020","02","08","15:00","-9.8","","-10.5","","95","","0.0","","","","0","","16.1","","97.49","","","","","","NA"
"-117.16","58.62","HIGH LEVEL A","3073140","2020-02-08 16:00","2020","02","08","16:00","-9.9","","-10.6","","95","","0.0","","","M","4","","16.1","","97.44","","","","-12","","NA"
"-117.16","58.62","HIGH LEVEL A","3073140","2020-02-08 17:00","2020","02","08","17:00","-10.5","","-11.3","","94","","0.0","","18","","4","","16.1","","97.39","","","","-13","","NA"
"-117.16","58.62","HIGH LEVEL A","3073140","2020-02-08 18:00","2020","02","08","18:00","-12.1","","-13.2","","92","","0.0","","","","0","","16.1","","97.36","","","","","","NA"
"-117.16","58.62","HIGH LEVEL A","3073140","2020-02-08 19:00","2020","02","08","19:00","-14.7","","-15.8","","92","","0.0","","","","0","","16.1","","97.30","","","","","","NA"
"-117.16","58.62","HIGH LEVEL A","3073140","2020-02-08 20:00","2020","02","08","20:00","-15.9","","-16.9","","92","","0.0","","","","0","","16.1","","97.24","","","","","","NA"
"-117.16","58.62","HIGH LEVEL A","3073140","2020-02-08 21:00","2020","02","08","21:00","-17.1","","-18.5","","89","","0.0","","33","","5","","16.1","","97.20","","","","-21","","NA"
"-117.16","58.62","HIGH LEVEL A","3073140","2020-02-08 22:00","2020","02","08","22:00","-18.6","","-20.2","","88","","0.0","","","","0","","16.1","","97.11","","","","","","NA"
"-117.16","58.62","HIGH LEVEL A","3073140","2020-02-08 23:00","2020","02","08","23:00","-19.4","","-20.8","","89","","0.0","","","","0","","16.1","","97.06","","","","","","NA"
"-117.16","58.62","HIGH LEVEL A","3073140","2020-02-09 00:00","2020","02","09","00:00","-19.7","","-21.4","","87","","0.0","","7","","4","","16.1","","97.00","","","","-23","","NA"
"-117.16","58.62","HIGH LEVEL A","3073140","2020-02-09 01:00","2020","02","09","01:00","-18.7","","-20.2","","88","","0.0","","","","0","","16.1","","96.93","","","","","","NA"
"-117.16","58.62","HIGH LEVEL A","3073140","2020-02-09 02:00","2020","02","09","02:00","-17.4","","-18.9","","88","","0.0","","","M","4","","16.1","","96.88","","","","-21","","NA"
"-117.16","58.62","HIGH LEVEL A","3073140","2020-02-09 03:00","2020","02","09","03:00","-16.5","","-17.8","","90","","0.0","","","","0","","16.1","","96.79","","","","","","NA"
"-117.16","58.62","HIGH LEVEL A","3073140","2020-02-09 04:00","2020","02","09","04:00","-14.3","","-15.3","","92","","0.0","","14","","5","","16.1","","96.70","","","","-18","","NA"
"-117.16","58.62","HIGH LEVEL A","3073140","2020-02-09 05:00","2020","02","09","05:00","-13.4","","-14.4","","92","","0.0","","14","","9","","6.4","","96.57","","","","-19","","Snow"
"-117.16","58.62","HIGH LEVEL A","3073140","2020-02-09 06:00","2020","02","09","06:00","-13.2","","-14.1","","93","","0.0","","36","","4","","8.1","","96.57","","","","-16","","Snow"
"-117.16","58.62","HIGH LEVEL A","3073140","2020-02-09 07:00","2020","02","09","07:00","-12.3","","-13.2","","93","","0.0","","","M","4","","1.6","","96.51","","","","-15","","Snow"
"-117.16","58.62","HIGH LEVEL A","3073140","2020-02-09 08:00","2020","02","09","08:00","-11.9","","-12.7","","94","","0.0","","","","0","","1.2","","96.53","","","","","","Snow"
"-117.16","58.62","HIGH LEVEL A","3073140","2020-02-09 09:00","2020","02","09","09:00","-13.0","","-13.9","","93","","0.0","","","","0","","16.1","","96.59","","","","","","NA"
"-117.16","58.62","HIGH LEVEL A","3073140","2020-02-09 10:00","2020","02","09","10:00","-13.1","","-14.0","","93","","0.0","","34","","4","","12.9","","96.66","","","","-16","","NA"
"-117.16","58.62","HIGH LEVEL A","3073140","2020-02-09 11:00","2020","02","09","11:00","-8.4","","-8.7","","98","","0.0","","31","","13","","16.1","","96.75","","","","-14","","NA"
"-117.16","58.62","HIGH LEVEL A","3073140","2020-02-09 12:00","2020","02","09","12:00","-6.4","","-6.9","","96","","0.0","","31","","15","","16.1","","96.87","","","","-12","","NA"
"-117.16","58.62","HIGH LEVEL A","3073140","2020-02-09 13:00","2020","02","09","13:00","-2.7","","-6.5","","75","","0.0","","31","","11","","16.1","","96.94","","","","-7","","NA"
"-117.16","58.62","HIGH LEVEL A","3073140","2020-02-09 14:00","2020","02","09","14:00","-2.7","","-7.0","","72","","0.0","","34","","13","","16.1","","97.00","","","","-7","","NA"
"-117.16","58.62","HIGH LEVEL A","3073140","2020-02-09 15:00","2020","02","09","15:00","-2.1","","-6.5","","72","","0.0","","33","","11","","16.1","","97.05","","","","-6","","NA"
"-117.16","58.62","HIGH LEVEL A","3073140","2020-02-09 16:00","2020","02","09","16:00","-3.1","","-6.3","","79","","0.0","","","M","4","","16.1","","97.15","","","","-5","","NA"
"-117.16","58.62","HIGH LEVEL A","3073140","2020-02-09 17:00","2020","02","09","17:00","-3.1","","-5.6","","83","","0.0","","","","0","","16.1","","97.20","","","","","","NA"
"-117.16","58.62","HIGH LEVEL A","3073140","2020-02-09 18:00","2020","02","09","18:00","-3.2","","-6.1","","81","","0.0","","","M","4","","16.1","","97.26","","","","-5","","NA"
"-117.16","58.62","HIGH LEVEL A","3073140","2020-02-09 19:00","2020","02","09","19:00","-5.4","","-6.7","","91","","0.0","","36","","9","","16.1","","97.36","","","","-9","","NA"
"-117.16","58.62","HIGH LEVEL A","3073140","2020-02-09 20:00","2020","02","09","20:00","-4.3","","-5.8","","89","","0.0","","33","","11","","16.1","","97.43","","","","-9","","NA"
"-117.16","58.62","HIGH LEVEL A","3073140","2020-02-09 21:00","2020","02","09","21:00","-4.5","","-8.0","","76","","0.0","","32","","11","","16.1","","97.49","","","","-9","","NA"
"-117.16","58.62","HIGH LEVEL A","3073140","2020-02-09 22:00","2020","02","09","22:00","-3.7","","-7.4","","76","","0.0","","32","","8","","16.1","","97.52","","","","-7","","NA"
"-117.16","58.62","HIGH LEVEL A","3073140","2020-02-09 23:00","2020","02","09","23:00","-4.6","","-8.0","","77","","0.0","","26","","8","","16.1","","97.55","","","","-8","","NA"
"-117.16","58.62","HIGH LEVEL A","3073140","2020-02-10 00:00","2020","02","10","00:00","-5.2","","-8.2","","80","","0.0","","","M","4","","16.1","","97.59","","","","-7","","NA"
"-117.16","58.62","HIGH LEVEL A","3073140","2020-02-10 01:00","2020","02","10","01:00","-3.3","","-6.5","","79","","0.0","","28","","9","","16.1","","97.58","","","","-7","","NA"
"-117.16","58.62","HIGH LEVEL A","3073140","2020-02-10 02:00","2020","02","10","02:00","-2.5","","-5.1","","82","","0.0","","25","","9","","16.1","","97.57","","","","-6","","NA"
"-117.16","58.62","HIGH LEVEL A","3073140","2020-02-10 03:00","2020","02","10","03:00","-2.9","","-5.6","","82","","0.0","","15","","9","","16.1","","97.58","","","","-6","","NA"
"-117.16","58.62","HIGH LEVEL A","3073140","2020-02-10 04:00","2020","02","10","04:00","-2.0","","-6.2","","73","","0.0","","24","","8","","16.1","","97.58","","","","-5","","NA"
"-117.16","58.62","HIGH LEVEL A","3073140","2020-02-10 05:00","2020","02","10","05:00","-3.2","","-7.2","","74","","0.0","","29","","11","","16.1","","97.56","","","","-7","","NA"
"-117.16","58.62","HIGH LEVEL A","3073140","2020-02-10 06:00","2020","02","10","06:00","-3.3","","-7.4","","73","","0.0","","28","","9","","16.1","","97.53","","","","-7","","NA"
"-117.16","58.62","HIGH LEVEL A","3073140","2020-02-10 07:00","2020","02","10","07:00","-3.6","","-8.2","","71","","0.0","","31","","13","","16.1","","97.51","","","","-8","","NA"
"-117.16","58.62","HIGH LEVEL A","3073140","2020-02-10 08:00","2020","02","10","08:00","-7.2","","-8.6","","90","","0.0","","","M","5","","16.1","","97.55","","","","-10","","NA"
"-117.16","58.62","HIGH LEVEL A","3073140","2020-02-10 09:00","2020","02","10","09:00","-9.6","","-10.8","","91","","0.0","","15","","9","","16.1","","97.52","","","","-14","","NA"
"-117.16","58.62","HIGH LEVEL A","3073140","2020-02-10 10:00","2020","02","10","10:00","-7.5","","-9.8","","84","","0.0","","15","","8","","16.1","","97.49","","","","-12","","NA"
"-117.16","58.62","HIGH LEVEL A","3073140","2020-02-10 11:00","2020","02","10","11:00","-4.2","","-8.2","","74","","0.0","","19","","9","","16.1","","97.43","","","","-8","","NA"
"-117.16","58.62","HIGH LEVEL A","3073140","2020-02-10 12:00","2020","02","10","12:00","-2.4","","-7.4","","69","","0.0","","","","0","","16.1","","97.40","","","","","","NA"
"-117.16","58.62","HIGH LEVEL A","3073140","2020-02-10 13:00","2020","02","10","13:00","-0.9","","-6.9","","64","","0.0","","20","","5","","16.1","","97.34","","","","-3","","NA"
"-117.16","58.62","HIGH LEVEL A","3073140","2020-02-10 14:00","2020","02","10","14:00","-1.2","","-6.4","","68","","0.0","","","","0","","16.1","","97.27","","","","","","NA"
"-117.16","58.62","HIGH LEVEL A","3073140","2020-02-10 15:00","2020","02","10","15:00","-0.2","","-6.5","","63","","0.0","","31","","5","","16.1","","97.22","","","","-2","","NA"
"-117.16","58.62","HIGH LEVEL A","3073140","2020-02-10 16:00","2020","02","10","16:00","0.1","","-6.7","","60","","0.0","","","","0","","16.1","","97.12","","","","","","NA"
"-117.16","58.62","HIGH LEVEL A","3073140","2020-02-10 17:00","2020","02","10","17:00","-1.8","","-7.0","","68","","0.0","","","","0","","16.1","","97.07","","","","","","NA"
"-117.16","58.62","HIGH LEVEL A","3073140","2020-02-10 18:00","2020","02","10","18:00","-5.4","","-7.3","","86","","0.0","","","","0","","16.1","","97.01","","","","","","NA"
"-117.16","58.62","HIGH LEVEL A","3073140","2020-02-10 19:00","2020","02","10","19:00","-4.4","","-7.0","","82","","0.0","","","","0","","16.1","","96.92","","","","","","NA"
"-117.16","58.62","HIGH LEVEL A","3073140","2020-02-10 20:00","2020","02","10","20:00","-8.1","","-9.1","","93","","0.0","","2","","4","","16.1","","96.88","","","","-10","","NA"
"-117.16","58.62","HIGH LEVEL A","3073140","2020-02-10 21:00","2020","02","10","21:00","-10.2","","-10.9","","95","","0.0","","","","0","","16.1","","96.85","","","","","","NA"
"-117.16","58.62","HIGH LEVEL A","3073140","2020-02-10 22:00","2020","02","10","22:00","-10.3","","-11.0","","95","","0.0","","2","","5","","16.1","","96.81","","","","-13","","NA"
"-117.16","58.62","HIGH LEVEL A","3073140","2020-02-10 23:00","2020","02","10","23:00","-10.4","","-10.8","","97","","0.0","","","M","4","","16.1","","96.78","","","","-13","","NA"
"-117.16","58.62","HIGH LEVEL A","3073140","2020-02-11 00:00","2020","02","11","00:00","-11.2","","-12.5","","90","","0.0","","35","","8","","14.5","","96.76","","","","-16","","NA"
"-117.16","58.62","HIGH LEVEL A","3073140","2020-02-11 01:00","2020","02","11","01:00","-9.5","","-9.9","","97","","0.0","","36","","9","","16.1","","96.70","","","","-14","","NA"
"-117.16","58.62","HIGH LEVEL A","3073140","2020-02-11 02:00","2020","02","11","02:00","-8.7","","-9.4","","95","","0.0","","35","","17","","16.1","","96.68","","","","-16","","NA"
"-117.16","58.62","HIGH LEVEL A","3073140","2020-02-11 03:00","2020","02","11","03:00","-9.4","","-10.6","","91","","0.0","","36","","24","","16.1","","96.72","","","","-18","","NA"
"-117.16","58.62","HIGH LEVEL A","3073140","2020-02-11 04:00","2020","02","11","04:00","-9.3","","-10.4","","92","","0.0","","36","","21","","16.1","","96.81","","","","-17","","NA"
"-117.16","58.62","HIGH LEVEL A","3073140","2020-02-11 05:00","2020","02","11","05:00","-10.1","","-11.4","","90","","0.0","","1","","22","","16.1","","96.84","","","","-18","","NA"
"-117.16","58.62","HIGH LEVEL A","3073140","2020-02-11 06:00","2020","02","11","06:00","-11.7","","-13.5","","87","","0.0","","36","","24","","16.1","","96.92","","","","-21","","NA"
"-117.16","58.62","HIGH LEVEL A","3073140","2020-02-11 07:00","2020","02","11","07:00","-14.1","","-16.0","","86","","0.0","","36","","32","","16.1","","97.12","","","","-25","","NA"
"-117.16","58.62","HIGH LEVEL A","3073140","2020-02-11 08:00","2020","02","11","08:00","-15.3","","-17.4","","84","","0.0","","36","","28","","16.1","","97.36","","","","-26","","Snow"
"-117.16","58.62","HIGH LEVEL A","3073140","2020-02-11 09:00","2020","02","11","09:00","-16.2","","-18.5","","83","","0.0","","35","","28","","2.4","","97.57","","","","-27","","Snow"
"-117.16","58.62","HIGH LEVEL A","3073140","2020-02-11 10:00","2020","02","11","10:00","-16.6","","-19.7","","77","","0.0","","35","","24","","16.1","","97.76","","","","-27","","NA"
"-117.16","58.62","HIGH LEVEL A","3073140","2020-02-11 11:00","2020","02","11","11:00","-17.0","","-21.3","","70","","0.0","","35","","26","","16.1","","97.94","","","","-28","","NA"
"-117.16","58.62","HIGH LEVEL A","3073140","2020-02-11 12:00","2020","02","11","12:00","-18.4","","-22.9","","68","","0.0","","35","","32","","16.1","","98.16","","","","-31","","NA"
"-117.16","58.62","HIGH LEVEL A","3073140","2020-02-11 13:00","2020","02","11","13:00","-19.1","","-24.1","","65","","0.0","","36","","22","","16.1","","98.33","","","","-30","","NA"
"-117.16","58.62","HIGH LEVEL A","3073140","2020-02-11 14:00","2020","02","11","14:00","-18.7","","-24.5","","61","","0.0","","1","","24","","16.1","","98.48","","","","-30","","NA"
"-117.16","58.62","HIGH LEVEL A","3073140","2020-02-11 15:00","2020","02","11","15:00","-19.0","","-24.7","","61","","0.0","","34","","28","","16.1","","98.63","","","","-31","","Snow"
"-117.16","58.62","HIGH LEVEL A","3073140","2020-02-11 16:00","2020","02","11","16:00","-20.3","","-25.8","","62","","0.0","","35","","26","","16.1","","98.79","","","","-32","","Snow"
"-117.16","58.62","HIGH LEVEL A","3073140","2020-02-11 17:00","2020","02","11","17:00","-21.4","","-26.4","","65","","0.0","","34","","22","","16.1","","98.90","","","","-33","","NA"
"-117.16","58.62","HIGH LEVEL A","3073140","2020-02-11 18:00","2020","02","11","18:00","-22.4","","-27.0","","67","","0.0","","36","","21","","16.1","","98.99","","","","-34","","NA"
"-117.16","58.62","HIGH LEVEL A","3073140","2020-02-11 19:00","2020","02","11","19:00","-23.6","","-28.1","","67","","0.0","","35","","15","","16.1","","99.07","","","","-34","","NA"
"-117.16","58.62","HIGH LEVEL A","3073140","2020-02-11 20:00","2020","02","11","20:00","-24.4","","-28.7","","68","","0.0","","36","","17","","16.1","","99.13","","","","-35","","NA"
"-117.16","58.62","HIGH LEVEL A","3073140","2020-02-11 21:00","2020","02","11","21:00","-25.1","","-29.1","","70","","0.0","","36","","17","","16.1","","99.14","","","","-36","","NA"
"-117.16","58.62","HIGH LEVEL A","3073140","2020-02-11 22:00","2020","02","11","22:00","-26.0","","-29.5","","73","","0.0","","36","","15","","16.1","","99.15","","","","-36","","NA"
"-117.16","58.62","HIGH LEVEL A","3073140","2020-02-11 23:00","2020","02","11","23:00","-27.1","","-30.0","","77","","0.0","","36","","8","","16.1","","99.17","","","","-35","","NA"
"-117.16","58.62","HIGH LEVEL A","3073140","2020-02-12 00:00","2020","02","12","00:00","-28.6","","-31.2","","79","","0.0","","","","0","","16.1","","99.20","","","","","","NA"
"-117.16","58.62","HIGH LEVEL A","3073140","2020-02-12 01:00","2020","02","12","01:00","-30.6","","-33.2","","79","","0.0","","10","","4","","16.1","","99.19","","","","-35","","NA"
"-117.16","58.62","HIGH LEVEL A","3073140","2020-02-12 02:00","2020","02","12","02:00","-31.4","","-34.2","","77","","0.0","","","","0","","16.1","","99.14","","","","","","NA"
"-117.16","58.62","HIGH LEVEL A","3073140","2020-02-12 03:00","2020","02","12","03:00","-31.5","","-34.3","","77","","0.0","","","","0","","16.1","","99.11","","","","","","NA"
"-117.16","58.62","HIGH LEVEL A","3073140","2020-02-12 04:00","2020","02","12","04:00","-31.5","","-34.4","","76","","0.0","","29","","4","","16.1","","99.09","","","","-36","","NA"
"-117.16","58.62","HIGH LEVEL A","3073140","2020-02-12 05:00","2020","02","12","05:00","-33.4","","-36.6","","74","","0.0","","","","0","","16.1","","99.05","","","","","","NA"
"-117.16","58.62","HIGH LEVEL A","3073140","2020-02-12 06:00","2020","02","12","06:00","-32.8","","-36.0","","74","","0.0","","","","0","","16.1","","99.01","","","","","","NA"
"-117.16","58.62","HIGH LEVEL A","3073140","2020-02-12 07:00","2020","02","12","07:00","-32.4","","-35.3","","76","","0.0","","25","","4","","16.1","","98.92","","","","-37","","NA"
"-117.16","58.62","HIGH LEVEL A","3073140","2020-02-12 08:00","2020","02","12","08:00","-32.4","","-35.3","","76","","0.0","","23","","4","","16.1","","98.85","","","","-37","","NA"
"-117.16","58.62","HIGH LEVEL A","3073140","2020-02-12 09:00","2020","02","12","09:00","-31.0","","-34.0","","76","","0.0","","20","","8","","16.1","","98.80","","","","-39","","NA"
"-117.16","58.62","HIGH LEVEL A","3073140","2020-02-12 10:00","2020","02","12","10:00","-28.5","","-31.7","","75","","0.0","","19","","4","","16.1","","98.70","","","","-33","","NA"
"-117.16","58.62","HIGH LEVEL A","3073140","2020-02-12 11:00","2020","02","12","11:00","-26.3","","-30.1","","71","","0.0","","16","","11","","16.1","","98.61","","","","-35","","NA"
"-117.16","58.62","HIGH LEVEL A","3073140","2020-02-12 12:00","2020","02","12","12:00","-24.9","","-29.4","","67","","0.0","","17","","13","","16.1","","98.54","","","","-34","","NA"
"-117.16","58.62","HIGH LEVEL A","3073140","2020-02-12 13:00","2020","02","12","13:00","-23.2","","-28.4","","63","","0.0","","18","","11","","16.1","","98.39","","","","-31","","NA"
"-117.16","58.62","HIGH LEVEL A","3073140","2020-02-12 14:00","2020","02","12","14:00","-21.0","","-26.9","","60","","0.0","","17","","15","","16.1","","98.25","","","","-30","","NA"
"-117.16","58.62","HIGH LEVEL A","3073140","2020-02-12 15:00","2020","02","12","15:00","-20.1","","-26.4","","58","","0.0","","16","","18","","16.1","","98.14","","","","-30","","NA"
"-117.16","58.62","HIGH LEVEL A","3073140","2020-02-12 16:00","2020","02","12","16:00","-19.0","","-25.5","","57","","0.0","","15","","17","","16.1","","97.99","","","","-28","","NA"
"-117.16","58.62","HIGH LEVEL A","3073140","2020-02-12 17:00","2020","02","12","17:00","-18.9","","-25.1","","59","","0.0","","15","","21","","16.1","","97.87","","","","-29","","NA"
"-117.16","58.62","HIGH LEVEL A","3073140","2020-02-12 18:00","2020","02","12","18:00","-19.1","","-24.7","","62","","0.0","","14","","21","","16.1","","97.78","","","","-30","","NA"
"-117.16","58.62","HIGH LEVEL A","3073140","2020-02-12 19:00","2020","02","12","19:00","-18.5","","-23.6","","65","","0.0","","14","","17","","16.1","","97.64","","","","-28","","NA"
"-117.16","58.62","HIGH LEVEL A","3073140","2020-02-12 20:00","2020","02","12","20:00","-17.6","","-22.7","","65","","0.0","","14","","18","","16.1","","97.49","","","","-27","","NA"
"-117.16","58.62","HIGH LEVEL A","3073140","2020-02-12 21:00","2020","02","12","21:00","-17.6","","-22.7","","65","","0.0","","14","","22","","16.1","","97.34","","","","-28","","NA"
"-117.16","58.62","HIGH LEVEL A","3073140","2020-02-12 22:00","2020","02","12","22:00","-18.3","","-23.0","","67","","0.0","","14","","18","","16.1","","97.23","","","","-28","","NA"
"-117.16","58.62","HIGH LEVEL A","3073140","2020-02-12 23:00","2020","02","12","23:00","-18.0","","-22.5","","68","","0.0","","13","","21","","16.1","","97.02","","","","-28","","NA"
"-117.16","58.62","HIGH LEVEL A","3073140","2020-02-13 00:00","2020","02","13","00:00","-17.3","","-21.7","","69","","0.0","","13","","21","","16.1","","96.90","","","","-27","","NA"
"-117.16","58.62","HIGH LEVEL A","3073140","2020-02-13 01:00","2020","02","13","01:00","-16.9","","-21.1","","70","","0.0","","13","","22","","16.1","","96.75","","","","-27","","NA"
"-117.16","58.62","HIGH LEVEL A","3073140","2020-02-13 02:00","2020","02","13","02:00","-16.5","","-20.4","","72","","0.0","","14","","18","","16.1","","96.55","","","","-26","","NA"
"-117.16","58.62","HIGH LEVEL A","3073140","2020-02-13 03:00","2020","02","13","03:00","-16.1","","-19.7","","74","","0.0","","12","","18","","16.1","","96.41","","","","-25","","NA"
"-117.16","58.62","HIGH LEVEL A","3073140","2020-02-13 04:00","2020","02","13","04:00","-15.6","","-18.9","","76","","0.0","","13","","11","","16.1","","96.24","","","","-22","","NA"
"-117.16","58.62","HIGH LEVEL A","3073140","2020-02-13 05:00","2020","02","13","05:00","-15.6","","-17.7","","84","","0.0","","13","","17","","3.2","","96.07","","","","-24","","Snow"
"-117.16","58.62","HIGH LEVEL A","3073140","2020-02-13 06:00","2020","02","13","06:00","-15.3","","-17.3","","85","","0.0","","14","","15","","3.2","","95.91","","","","-23","","Snow"
"-117.16","58.62","HIGH LEVEL A","3073140","2020-02-13 07:00","2020","02","13","07:00","-14.9","","-16.9","","85","","0.0","","14","","18","","9.7","","95.77","","","","-24","","Snow"
"-117.16","58.62","HIGH LEVEL A","3073140","2020-02-13 08:00","2020","02","13","08:00","-14.6","","-16.5","","86","","0.0","","14","","17","","11.3","","95.59","","","","-23","","Snow"
"-117.16","58.62","HIGH LEVEL A","3073140","2020-02-13 09:00","2020","02","13","09:00","-14.2","","-15.9","","87","","0.0","","15","","9","","4.8","","95.54","","","","-20","","Snow"
"-117.16","58.62","HIGH LEVEL A","3073140","2020-02-13 10:00","2020","02","13","10:00","-13.8","","-15.7","","86","","0.0","","","M","4","","16.1","","95.49","","","","-17","","Snow"
"-117.16","58.62","HIGH LEVEL A","3073140","2020-02-13 11:00","2020","02","13","11:00","-13.6","","-15.3","","87","","0.0","","31","","5","","12.9","","95.45","","","","-17","","Snow"
"-117.16","58.62","HIGH LEVEL A","3073140","2020-02-13 12:00","2020","02","13","12:00","-13.6","","-15.3","","87","","0.0","","34","","5","","16.1","","95.43","","","","-17","","Snow"
"-117.16","58.62","HIGH LEVEL A","3073140","2020-02-13 13:00","2020","02","13","13:00","-12.9","","-14.8","","86","","0.0","","33","","13","","16.1","","95.43","","","","-20","","Snow"
"-117.16","58.62","HIGH LEVEL A","3073140","2020-02-13 14:00","2020","02","13","14:00","-11.7","","-14.2","","82","","0.0","","33","","17","","16.1","","95.43","","","","-19","","Snow"
"-117.16","58.62","HIGH LEVEL A","3073140","2020-02-13 15:00","2020","02","13","15:00","-10.9","","-14.2","","77","","0.0","","32","","17","","16.1","","95.53","","","","-18","","NA"
"-117.16","58.62","HIGH LEVEL A","3073140","2020-02-13 16:00","2020","02","13","16:00","-10.9","","-14.1","","78","","0.0","","33","","17","","16.1","","95.60","","","","-18","","NA"
"-117.16","58.62","HIGH LEVEL A","3073140","2020-02-13 17:00","2020","02","13","17:00","-11.3","","-14.3","","79","","0.0","","31","","15","","16.1","","95.66","","","","-18","","NA"
"-117.16","58.62","HIGH LEVEL A","3073140","2020-02-13 18:00","2020","02","13","18:00","-13.7","","-16.0","","83","","0.0","","32","","18","","11.3","","95.79","","","","-22","","Snow"
"-117.16","58.62","HIGH LEVEL A","3073140","2020-02-13 19:00","2020","02","13","19:00","-18.0","","-21.0","","78","","0.0","","32","","22","","12.9","","96.00","","","","-28","","NA"
"-117.16","58.62","HIGH LEVEL A","3073140","2020-02-13 20:00","2020","02","13","20:00","-19.3","","-22.7","","75","","0.0","","33","","24","","16.1","","96.13","","","","-31","","NA"
"-117.16","58.62","HIGH LEVEL A","3073140","2020-02-13 21:00","2020","02","13","21:00","-21.0","","-24.7","","73","","0.0","","33","","18","","16.1","","96.20","","","","-31","","NA"
"-117.16","58.62","HIGH LEVEL A","3073140","2020-02-13 22:00","2020","02","13","22:00","-22.3","","-26.4","","70","","0.0","","33","","22","","16.1","","96.30","","","","-34","","NA"
"-117.16","58.62","HIGH LEVEL A","3073140","2020-02-13 23:00","2020","02","13","23:00","-23.5","","-28.0","","67","","0.0","","32","","22","","16.1","","96.42","","","","-35","","NA"
"-117.16","58.62","HIGH LEVEL A","3073140","2020-02-14 00:00","2020","02","14","00:00","-24.3","","-29.0","","66","","0.0","","33","","18","","16.1","","96.49","","","","-35","","NA"
"-117.16","58.62","HIGH LEVEL A","3073140","2020-02-14 01:00","2020","02","14","01:00","-24.7","","-28.9","","69","","0.0","","32","","11","","16.1","","96.59","","","","-33","","NA"
"-117.16","58.62","HIGH LEVEL A","3073140","2020-02-14 02:00","2020","02","14","02:00","-24.8","","-29.3","","67","","0.0","","31","","17","","16.1","","96.70","","","","-36","","NA"
"-117.16","58.62","HIGH LEVEL A","3073140","2020-02-14 03:00","2020","02","14","03:00","-25.5","","-30.3","","65","","0.0","","32","","18","","16.1","","96.76","","","","-37","","NA"
"-117.16","58.62","HIGH LEVEL A","3073140","2020-02-14 04:00","2020","02","14","04:00","-25.6","","-30.9","","62","","0.0","","32","","24","","16.1","","96.86","","","","-39","","NA"
"-117.16","58.62","HIGH LEVEL A","3073140","2020-02-14 05:00","2020","02","14","05:00","-25.3","","-30.3","","64","","0.0","","32","","21","","14.5","","96.91","","","","-37","","NA"
"-117.16","58.62","HIGH LEVEL A","3073140","2020-02-14 06:00","2020","02","14","06:00","-25.5","","-30.5","","64","","0.0","","30","","18","","16.1","","96.98","","","","-37","","NA"
"-117.16","58.62","HIGH LEVEL A","3073140","2020-02-14 07:00","2020","02","14","07:00","-25.3","","-30.3","","64","","0.0","","31","","21","","12.9","","97.03","","","","-37","","Snow"
"-117.16","58.62","HIGH LEVEL A","3073140","2020-02-14 08:00","2020","02","14","08:00","-25.7","","-30.7","","64","","0.0","","31","","15","","16.1","","97.07","","","","-36","","NA"
"-117.16","58.62","HIGH LEVEL A","3073140","2020-02-14 09:00","2020","02","14","09:00","-25.7","","-30.5","","65","","0.0","","30","","11","","16.1","","97.16","","","","-34","","NA"
"-117.16","58.62","HIGH LEVEL A","3073140","2020-02-14 10:00","2020","02","14","10:00","-24.6","","-29.8","","63","","0.0","","32","","17","","16.1","","97.22","","","","-35","","NA"
"-117.16","58.62","HIGH LEVEL A","3073140","2020-02-14 11:00","2020","02","14","11:00","-23.9","","-29.4","","61","","0.0","","32","","18","","16.1","","97.30","","","","-35","","NA"
"-117.16","58.62","HIGH LEVEL A","3073140","2020-02-14 12:00","2020","02","14","12:00","-23.2","","-29.2","","59","","0.0","","33","","17","","16.1","","97.36","","","","-34","","NA"
"-117.16","58.62","HIGH LEVEL A","3073140","2020-02-14 13:00","2020","02","14","13:00","-22.4","","-28.2","","60","","0.0","","32","","15","","16.1","","97.42","","","","-32","","NA"
"-117.16","58.62","HIGH LEVEL A","3073140","2020-02-14 14:00","2020","02","14","14:00","-21.9","","-27.6","","61","","0.0","","34","","22","","16.1","","97.45","","","","-33","","NA"
"-117.16","58.62","HIGH LEVEL A","3073140","2020-02-14 15:00","2020","02","14","15:00","-21.7","","-27.5","","60","","0.0","","33","","18","","16.1","","97.49","","","","-32","","NA"
"-117.16","58.62","HIGH LEVEL A","3073140","2020-02-14 16:00","2020","02","14","16:00","-21.6","","-27.6","","59","","0.0","","32","","13","","16.1","","97.52","","","","-30","","NA"
"-117.16","58.62","HIGH LEVEL A","3073140","2020-02-14 17:00","2020","02","14","17:00","-21.9","","-27.4","","62","","0.0","","33","","9","","16.1","","97.56","","","","-29","","NA"
"-117.16","58.62","HIGH LEVEL A","3073140","2020-02-14 18:00","2020","02","14","18:00","-23.5","","-28.0","","68","","0.0","","31","","9","","16.1","","97.61","","","","-31","","NA"
"-117.16","58.62","HIGH LEVEL A","3073140","2020-02-14 19:00","2020","02","14","19:00","-25.0","","-29.0","","70","","0.0","","32","","5","","16.1","","97.63","","","","-30","","NA"
"-117.16","58.62","HIGH LEVEL A","3073140","2020-02-14 20:00","2020","02","14","20:00","-25.0","","-28.4","","74","","0.0","","33","","5","","16.1","","97.64","","","","-30","","NA"
"-117.16","58.62","HIGH LEVEL A","3073140","2020-02-14 21:00","2020","02","14","21:00","-27.7","","-30.7","","76","","0.0","","35","","9","","16.1","","97.62","","","","-36","","NA"
"-117.16","58.62","HIGH LEVEL A","3073140","2020-02-14 22:00","2020","02","14","22:00","-26.8","","-29.8","","76","","0.0","","33","","8","","16.1","","97.62","","","","-34","","NA"
"-117.16","58.62","HIGH LEVEL A","3073140","2020-02-14 23:00","2020","02","14","23:00","-30.2","","-32.9","","78","","0.0","","34","","4","","16.1","","97.60","","","","-35","","NA"
"-117.16","58.62","HIGH LEVEL A","3073140","2020-02-15 00:00","2020","02","15","00:00","-31.9","","-35.0","","75","","0.0","","2","","4","","16.1","","97.59","","","","-37","","NA"
"-117.16","58.62","HIGH LEVEL A","3073140","2020-02-15 01:00","2020","02","15","01:00","-29.4","","-32.4","","76","","0.0","","","M","4","","16.1","","97.56","","","","-34","","NA"
"-117.16","58.62","HIGH LEVEL A","3073140","2020-02-15 02:00","2020","02","15","02:00","-29.4","","-32.5","","75","","0.0","","36","","4","","16.1","","97.56","","","","-34","","NA"
"-117.16","58.62","HIGH LEVEL A","3073140","2020-02-15 03:00","2020","02","15","03:00","-27.7","","-30.9","","75","","0.0","","","","0","","16.1","","97.54","","","","","","NA"
"-117.16","58.62","HIGH LEVEL A","3073140","2020-02-15 04:00","2020","02","15","04:00","-26.6","","-29.7","","76","","0.0","","","","0","","16.1","","97.53","","","","","","Snow"
"-117.16","58.62","HIGH LEVEL A","3073140","2020-02-15 05:00","2020","02","15","05:00","-26.2","","-29.1","","77","","0.1","","","","0","","4.8","","97.48","","","","","","Snow"
"-117.16","58.62","HIGH LEVEL A","3073140","2020-02-15 06:00","2020","02","15","06:00","-26.4","","-29.0","","79","","0.0","","","M","4","","16.1","","97.44","","","","-31","","Snow"
"-117.16","58.62","HIGH LEVEL A","3073140","2020-02-15 07:00","2020","02","15","07:00","-26.1","","-28.9","","78","","0.2","","1","","4","","2.0","","97.41","","","","-30","","Snow"
"-117.16","58.62","HIGH LEVEL A","3073140","2020-02-15 08:00","2020","02","15","08:00","-26.0","","-28.8","","78","","0.1","","7","","4","","11.3","","97.37","","","","-30","","Snow"
"-117.16","58.62","HIGH LEVEL A","3073140","2020-02-15 09:00","2020","02","15","09:00","-25.7","","-28.6","","77","","0.0","","6","","4","","16.1","","97.32","","","","-30","","Snow"
"-117.16","58.62","HIGH LEVEL A","3073140","2020-02-15 10:00","2020","02","15","10:00","-25.0","","-28.1","","76","","0.0","","5","","5","","16.1","","97.28","","","","-30","","Snow"
"-117.16","58.62","HIGH LEVEL A","3073140","2020-02-15 11:00","2020","02","15","11:00","-24.3","","-27.6","","75","","0.0","","","","0","","16.1","","97.30","","","","","","Snow"
"-117.16","58.62","HIGH LEVEL A","3073140","2020-02-15 12:00","2020","02","15","12:00","-23.2","","-26.6","","74","","0.0","","","M","4","","16.1","","97.30","","","","-27","","Snow"
"-117.16","58.62","HIGH LEVEL A","3073140","2020-02-15 13:00","2020","02","15","13:00","-22.1","","-26.1","","70","","0.0","","4","","8","","16.1","","97.27","","","","-29","","Snow"
"-117.16","58.62","HIGH LEVEL A","3073140","2020-02-15 14:00","2020","02","15","14:00","-21.6","","-25.7","","70","","0.0","","3","","8","","16.1","","97.25","","","","-28","","NA"
"-117.16","58.62","HIGH LEVEL A","3073140","2020-02-15 15:00","2020","02","15","15:00","-21.1","","-25.3","","69","","0.0","","","M","4","","16.1","","97.24","","","","-25","","NA"
"-117.16","58.62","HIGH LEVEL A","3073140","2020-02-15 16:00","2020","02","15","16:00","-20.7","","-24.9","","70","","0.0","","9","","5","","16.1","","97.25","","","","-25","","NA"
"-117.16","58.62","HIGH LEVEL A","3073140","2020-02-15 17:00","2020","02","15","17:00","-20.6","","-24.9","","69","","0.0","","7","","4","","16.1","","97.25","","","","-24","","NA"
"-117.16","58.62","HIGH LEVEL A","3073140","2020-02-15 18:00","2020","02","15","18:00","-20.6","","-23.7","","77","","0.0","","34","","9","","12.9","","97.26","","","","-27","","Snow"
"-117.16","58.62","HIGH LEVEL A","3073140","2020-02-15 19:00","2020","02","15","19:00","-21.4","","-24.5","","77","","0.4","","36","","15","","9.7","","97.28","","","","-31","","Snow"
"-117.16","58.62","HIGH LEVEL A","3073140","2020-02-15 20:00","2020","02","15","20:00","-22.5","","-25.5","","77","","0.5","","35","","17","","4.8","","97.30","","","","-33","","Snow"
"-117.16","58.62","HIGH LEVEL A","3073140","2020-02-15 21:00","2020","02","15","21:00","-23.1","","-26.2","","76","","0.4","","35","","18","","3.2","","97.32","","","","-34","","Snow"
"-117.16","58.62","HIGH LEVEL A","3073140","2020-02-15 22:00","2020","02","15","22:00","-23.9","","-27.0","","76","","0.2","","36","","15","","16.1","","97.32","","","","-34","","Snow"
"-117.16","58.62","HIGH LEVEL A","3073140","2020-02-15 23:00","2020","02","15","23:00","-24.4","","-27.4","","77","","0.0","","35","","15","","16.1","","97.37","","","","-35","","Snow"
"-117.16","58.62","HIGH LEVEL A","3073140","2020-02-16 00:00","2020","02","16","00:00","-24.7","","-27.9","","75","","0.0","","36","","13","","16.1","","97.38","","","","-34","","Snow"
"-117.16","58.62","HIGH LEVEL A","3073140","2020-02-16 01:00","2020","02","16","01:00","-25.3","","-28.7","","74","","0.0","","35","","15","","11.3","","97.44","","","","-36","","Snow"
"-117.16","58.62","HIGH LEVEL A","3073140","2020-02-16 02:00","2020","02","16","02:00","-25.8","","-29.2","","74","","0.0","","35","","13","","8.1","","97.47","","","","-35","","Snow"
"-117.16","58.62","HIGH LEVEL A","3073140","2020-02-16 03:00","2020","02","16","03:00","-26.2","","-29.6","","74","","0.1","","35","","21","","6.4","","97.49","","","","-39","","Snow"
"-117.16","58.62","HIGH LEVEL A","3073140","2020-02-16 04:00","2020","02","16","04:00","-26.2","","-29.4","","75","","0.1","","35","","17","","1.6","","97.51","","","","-37","","Snow"
"-117.16","58.62","HIGH LEVEL A","3073140","2020-02-16 05:00","2020","02","16","05:00","-26.2","","-29.6","","74","","0.1","","34","","17","","2.8","","97.55","","","","-37","","Snow"
"-117.16","58.62","HIGH LEVEL A","3073140","2020-02-16 06:00","2020","02","16","06:00","-26.5","","-30.1","","72","","0.1","","35","","17","","4.8","","97.60","","","","-38","","Snow"
"-117.16","58.62","HIGH LEVEL A","3073140","2020-02-16 07:00","2020","02","16","07:00","-26.6","","-30.6","","70","","0.0","","35","","18","","6.4","","97.63","","","","-38","","Snow"
"-117.16","58.62","HIGH LEVEL A","3073140","2020-02-16 08:00","2020","02","16","08:00","-26.7","","-30.4","","72","","0.0","","35","","15","","4.0","","97.67","","","","-37","","Snow"
"-117.16","58.62","HIGH LEVEL A","3073140","2020-02-16 09:00","2020","02","16","09:00","-26.8","","-30.8","","70","","0.0","","34","","15","","4.0","","97.73","","","","-37","","Snow"
"-117.16","58.62","HIGH LEVEL A","3073140","2020-02-16 10:00","2020","02","16","10:00","-26.9","","-30.9","","70","","0.0","","34","","22","","8.1","","97.78","","","","-40","","Snow"
"-117.16","58.62","HIGH LEVEL A","3073140","2020-02-16 11:00","2020","02","16","11:00","-26.4","","-30.8","","67","","0.0","","35","","15","","16.1","","97.81","","","","-37","","NA"
"-117.16","58.62","HIGH LEVEL A","3073140","2020-02-16 12:00","2020","02","16","12:00","-25.5","","-30.2","","66","","0.0","","33","","15","","16.1","","97.87","","","","-36","","NA"
"-117.16","58.62","HIGH LEVEL A","3073140","2020-02-16 13:00","2020","02","16","13:00","-25.1","","-29.7","","66","","0.0","","33","","22","","16.1","","97.91","","","","-37","","NA"
"-117.16","58.62","HIGH LEVEL A","3073140","2020-02-16 14:00","2020","02","16","14:00","-25.1","","-29.6","","67","","0.0","","34","","15","","16.1","","97.91","","","","-35","","NA"
"-117.16","58.62","HIGH LEVEL A","3073140","2020-02-16 15:00","2020","02","16","15:00","-24.3","","-28.6","","68","","0.0","","35","","15","","6.4","","97.97","","","","-34","","Haze"
"-117.16","58.62","HIGH LEVEL A","3073140","2020-02-16 16:00","2020","02","16","16:00","-24.0","","-28.4","","68","","0.0","","32","","15","","16.1","","98.03","","","","-34","","NA"
"-117.16","58.62","HIGH LEVEL A","3073140","2020-02-16 17:00","2020","02","16","17:00","-23.8","","-27.8","","70","","0.0","","33","","15","","6.4","","98.10","","","","-34","","Snow"
"-117.16","58.62","HIGH LEVEL A","3073140","2020-02-16 18:00","2020","02","16","18:00","-24.0","","-27.7","","72","","0.0","","34","","11","","16.1","","98.13","","","","-32","","Snow"
"-117.16","58.62","HIGH LEVEL A","3073140","2020-02-16 19:00","2020","02","16","19:00","-24.7","","-28.2","","73","","0.0","","34","","9","","16.1","","98.20","","","","-32","","NA"
"-117.16","58.62","HIGH LEVEL A","3073140","2020-02-16 20:00","2020","02","16","20:00","-26.7","","-29.5","","78","","0.0","","31","","4","","16.1","","98.26","","","","-31","","NA"
"-117.16","58.62","HIGH LEVEL A","3073140","2020-02-16 21:00","2020","02","16","21:00","-26.9","","-29.4","","80","","0.0","","","","0","","16.1","","98.28","","","","","","NA"
"-117.16","58.62","HIGH LEVEL A","3073140","2020-02-16 22:00","2020","02","16","22:00","-30.8","","-33.3","","79","","0.0","","32","","8","","16.1","","98.35","","","","-39","","NA"
"-117.16","58.62","HIGH LEVEL A","3073140","2020-02-16 23:00","2020","02","16","23:00","-27.9","","-30.8","","77","","0.0","","33","","8","","16.1","","98.43","","","","-36","","NA"
"-117.16","58.62","HIGH LEVEL A","3073140","2020-02-17 00:00","2020","02","17","00:00","-27.8","","-30.7","","77","","0.0","","","M","4","","16.1","","98.52","","","","-32","","NA"
"-117.16","58.62","HIGH LEVEL A","3073140","2020-02-17 01:00","2020","02","17","01:00","-29.2","","-32.2","","76","","0.0","","33","","9","","16.1","","98.59","","","","-38","","NA"
"-117.16","58.62","HIGH LEVEL A","3073140","2020-02-17 02:00","2020","02","17","02:00","-29.4","","-32.5","","75","","0.0","","34","","9","","16.1","","98.66","","","","-38","","NA"
"-117.16","58.62","HIGH LEVEL A","3073140","2020-02-17 03:00","2020","02","17","03:00","-33.1","","-36.0","","76","","0.0","","22","","4","","16.1","","98.70","","","","-38","","NA"
"-117.16","58.62","HIGH LEVEL A","3073140","2020-02-17 04:00","2020","02","17","04:00","-34.4","","-37.7","","73","","0.0","","","","0","","16.1","","98.76","","","","","","NA"
"-117.16","58.62","HIGH LEVEL A","3073140","2020-02-17 05:00","2020","02","17","05:00","-35.3","","-38.8","","71","","0.0","","15","","4","","16.1","","98.82","","","","-40","","NA"
"-117.16","58.62","HIGH LEVEL A","3073140","2020-02-17 06:00","2020","02","17","06:00","-36.8","","-40.6","","69","","0.0","","","","0","","16.1","","98.85","","","","","","NA"
"-117.16","58.62","HIGH LEVEL A","3073140","2020-02-17 07:00","2020","02","17","07:00","-37.2","","-40.8","","70","","0.0","","","","0","","16.1","","98.88","","","","","","NA"
"-117.16","58.62","HIGH LEVEL A","3073140","2020-02-17 08:00","2020","02","17","08:00","-38.3","","-42.2","","68","","0.0","","","","0","","12.9","","98.93","","","","","","NA"
"-117.16","58.62","HIGH LEVEL A","3073140","2020-02-17 09:00","2020","02","17","09:00","-37.8","","-41.7","","68","","0.0","","21","","5","","16.1","","98.99","","","","-44","","NA"
"-117.16","58.62","HIGH LEVEL A","3073140","2020-02-17 10:00","2020","02","17","10:00","-35.2","","-38.7","","71","","0.0","","","","0","","14.5","","99.04","","","","","","NA"
"-117.16","58.62","HIGH LEVEL A","3073140","2020-02-17 11:00","2020","02","17","11:00","-31.5","","-34.9","","73","","0.0","","15","","5","","16.1","","99.05","","","","-37","","NA"
"-117.16","58.62","HIGH LEVEL A","3073140","2020-02-17 12:00","2020","02","17","12:00","-27.0","","-30.9","","70","","0.0","","15","","8","","16.1","","99.10","","","","-34","","NA"
"-117.16","58.62","HIGH LEVEL A","3073140","2020-02-17 13:00","2020","02","17","13:00","-23.9","","-29.5","","61","","0.0","","14","","5","","16.1","","99.11","","","","-29","","NA"
"-117.16","58.62","HIGH LEVEL A","3073140","2020-02-17 14:00","2020","02","17","14:00","-22.1","","-28.3","","58","","0.0","","14","","4","","16.1","","99.09","","","","-26","","NA"
"-117.16","58.62","HIGH LEVEL A","3073140","2020-02-17 15:00","2020","02","17","15:00","-20.9","","-27.4","","57","","0.0","","11","","5","","16.1","","99.07","","","","-25","","NA"
"-117.16","58.62","HIGH LEVEL A","3073140","2020-02-17 16:00","2020","02","17","16:00","-20.8","","-27.2","","57","","0.0","","15","","8","","16.1","","99.08","","","","-27","","NA"
"-117.16","58.62","HIGH LEVEL A","3073140","2020-02-17 17:00","2020","02","17","17:00","-19.7","","-26.6","","55","","0.0","","23","","5","","16.1","","99.08","","","","-24","","NA"
"-117.16","58.62","HIGH LEVEL A","3073140","2020-02-17 18:00","2020","02","17","18:00","-21.3","","-27.0","","61","","0.0","","15","","5","","16.1","","99.05","","","","-26","","NA"
"-117.16","58.62","HIGH LEVEL A","3073140","2020-02-17 19:00","2020","02","17","19:00","-25.6","","-28.8","","75","","0.0","","13","","4","","16.1","","99.08","","","","-30","","NA"
"-117.16","58.62","HIGH LEVEL A","3073140","2020-02-17 20:00","2020","02","17","20:00","-28.0","","-30.8","","78","","0.0","","","","0","","16.1","","99.09","","","","","","NA"
"-117.16","58.62","HIGH LEVEL A","3073140","2020-02-17 21:00","2020","02","17","21:00","-30.0","","-32.8","","77","","0.0","","","","0","","16.1","","99.07","","","","","","NA"
"-117.16","58.62","HIGH LEVEL A","3073140","2020-02-17 22:00","2020","02","17","22:00","-31.9","","-34.9","","75","","0.0","","","","0","","16.1","","99.05","","","","","","NA"
"-117.16","58.62","HIGH LEVEL A","3073140","2020-02-17 23:00","2020","02","17","23:00","-32.8","","-36.1","","73","","0.0","","11","","4","","16.1","","99.05","","","","-38","","NA"
"-117.16","58.62","HIGH LEVEL A","3073140","2020-02-18 00:00","2020","02","18","00:00","-33.7","","-37.0","","73","","0.0","","","","0","","16.1","","99.03","","","","","","NA"
"-117.16","58.62","HIGH LEVEL A","3073140","2020-02-18 01:00","2020","02","18","01:00","-34.6","","-38.2","","71","","0.0","","","","0","","16.1","","99.02","","","","","","NA"
"-117.16","58.62","HIGH LEVEL A","3073140","2020-02-18 02:00","2020","02","18","02:00","-35.2","","-38.9","","70","","0.0","","","","0","","16.1","","98.99","","","","","","NA"
"-117.16","58.62","HIGH LEVEL A","3073140","2020-02-18 03:00","2020","02","18","03:00","-35.3","","-38.8","","71","","0.0","","","M","4","","16.1","","98.96","","","","-40","","NA"
"-117.16","58.62","HIGH LEVEL A","3073140","2020-02-18 04:00","2020","02","18","04:00","-35.2","","-38.9","","70","","0.0","","","","0","","16.1","","98.92","","","","","","NA"
"-117.16","58.62","HIGH LEVEL A","3073140","2020-02-18 05:00","2020","02","18","05:00","-35.8","","-39.5","","70","","0.0","","22","","5","","16.1","","98.87","","","","-42","","NA"
"-117.16","58.62","HIGH LEVEL A","3073140","2020-02-18 06:00","2020","02","18","06:00","-35.4","","-39.2","","69","","0.0","","","M","4","","16.1","","98.86","","","","-40","","NA"
"-117.16","58.62","HIGH LEVEL A","3073140","2020-02-18 07:00","2020","02","18","07:00","-35.4","","-39.2","","69","","0.0","","19","","5","","16.1","","98.82","","","","-42","","NA"
"-117.16","58.62","HIGH LEVEL A","3073140","2020-02-18 08:00","2020","02","18","08:00","-34.7","","-38.3","","71","","0.0","","26","","4","","16.1","","98.75","","","","-40","","NA"
"-117.16","58.62","HIGH LEVEL A","3073140","2020-02-18 09:00","2020","02","18","09:00","-33.9","","-37.3","","72","","0.0","","21","","4","","16.1","","98.70","","","","-39","","NA"
"-117.16","58.62","HIGH LEVEL A","3073140","2020-02-18 10:00","2020","02","18","10:00","-30.8","","-34.0","","74","","0.0","","24","","5","","16.1","","98.66","","","","-37","","NA"
"-117.16","58.62","HIGH LEVEL A","3073140","2020-02-18 11:00","2020","02","18","11:00","-26.8","","-29.8","","76","","0.0","","22","","9","","16.1","","98.61","","","","-35","","NA"
"-117.16","58.62","HIGH LEVEL A","3073140","2020-02-18 12:00","2020","02","18","12:00","-23.3","","-27.2","","71","","0.0","","17","","9","","16.1","","98.55","","","","-31","","Snow"
"-117.16","58.62","HIGH LEVEL A","3073140","2020-02-18 13:00","2020","02","18","13:00","-21.3","","-25.9","","67","","0.0","","20","","9","","16.1","","98.48","","","","-28","","NA"
"-117.16","58.62","HIGH LEVEL A","3073140","2020-02-18 14:00","2020","02","18","14:00","-20.4","","-24.9","","68","","0.0","","18","","13","","16.1","","98.42","","","","-29","","NA"
"-117.16","58.62","HIGH LEVEL A","3073140","2020-02-18 15:00","2020","02","18","15:00","-19.8","","-24.3","","68","","0.0","","17","","18","","16.1","","98.37","","","","-30","","NA"
"-117.16","58.62","HIGH LEVEL A","3073140","2020-02-18 16:00","2020","02","18","16:00","-19.2","","-23.9","","67","","0.0","","16","","11","","16.1","","98.31","","","","-27","","NA"
"-117.16","58.62","HIGH LEVEL A","3073140","2020-02-18 17:00","2020","02","18","17:00","-19.7","","-23.9","","70","","0.0","","16","","13","","16.1","","98.27","","","","-28","","NA"
"-117.16","58.62","HIGH LEVEL A","3073140","2020-02-18 18:00","2020","02","18","18:00","-20.9","","-24.6","","72","","0.0","","20","","5","","16.1","","98.24","","","","-25","","NA"
"-117.16","58.62","HIGH LEVEL A","3073140","2020-02-18 19:00","2020","02","18","19:00","-22.1","","-24.8","","79","","0.0","","25","","4","","16.1","","98.21","","","","-26","","NA"
"-117.16","58.62","HIGH LEVEL A","3073140","2020-02-18 20:00","2020","02","18","20:00","-23.0","","-25.5","","81","","0.0","","","M","4","","16.1","","98.16","","","","-27","","NA"
"-117.16","58.62","HIGH LEVEL A","3073140","2020-02-18 21:00","2020","02","18","21:00","-23.6","","-25.9","","82","","0.0","","26","","5","","16.1","","98.13","","","","-28","","NA"
"-117.16","58.62","HIGH LEVEL A","3073140","2020-02-18 22:00","2020","02","18","22:00","-23.9","","-26.2","","82","","0.0","","","","0","","16.1","","98.08","","","","","","NA"
"-117.16","58.62","HIGH LEVEL A","3073140","2020-02-18 23:00","2020","02","18","23:00","-24.3","","-26.5","","82","","0.0","","","M","4","","16.1","","98.03","","","","-28","","NA"
"-117.16","58.62","HIGH LEVEL A","3073140","2020-02-19 00:00","2020","02","19","00:00","-24.7","","-27.1","","81","","0.0","","","","0","","16.1","","97.99","","","","","","NA"
"-117.16","58.62","HIGH LEVEL A","3073140","2020-02-19 01:00","2020","02","19","01:00","-25.3","","-27.7","","81","","0.0","","","","0","","16.1","","97.94","","","","","","NA"
"-117.16","58.62","HIGH LEVEL A","3073140","2020-02-19 02:00","2020","02","19","02:00","-25.1","","-27.6","","80","","0.0","","","","0","","16.1","","97.94","","","","","","NA"
"-117.16","58.62","HIGH LEVEL A","3073140","2020-02-19 03:00","2020","02","19","03:00","-25.2","","-27.6","","81","","0.0","","","","0","","16.1","","97.90","","","","","","NA"
"-117.16","58.62","HIGH LEVEL A","3073140","2020-02-19 04:00","2020","02","19","04:00","-25.3","","-27.8","","80","","0.0","","","M","4","","16.1","","97.86","","","","-29","","NA"
"-117.16","58.62","HIGH LEVEL A","3073140","2020-02-19 05:00","2020","02","19","05:00","-24.9","","-27.4","","80","","0.0","","","","0","","16.1","","97.81","","","","","","NA"
"-117.16","58.62","HIGH LEVEL A","3073140","2020-02-19 06:00","2020","02","19","06:00","-24.6","","-27.1","","80","","0.0","","14","","5","","16.1","","97.78","","","","-29","","NA"
"-117.16","58.62","HIGH LEVEL A","3073140","2020-02-19 07:00","2020","02","19","07:00","-24.8","","-27.3","","80","","0.0","","","","0","","16.1","","97.74","","","","","","NA"
"-117.16","58.62","HIGH LEVEL A","3073140","2020-02-19 08:00","2020","02","19","08:00","-24.4","","-26.9","","80","","0.0","","21","","5","","16.1","","97.68","","","","-29","","NA"
"-117.16","58.62","HIGH LEVEL A","3073140","2020-02-19 09:00","2020","02","19","09:00","-24.7","","-27.2","","80","","0.0","","16","","4","","16.1","","97.68","","","","-29","","NA"
"-117.16","58.62","HIGH LEVEL A","3073140","2020-02-19 10:00","2020","02","19","10:00","-22.0","","-24.4","","81","","0.0","","16","","8","","16.1","","97.65","","","","-29","","NA"
"-117.16","58.62","HIGH LEVEL A","3073140","2020-02-19 11:00","2020","02","19","11:00","-16.3","","-18.5","","83","","0.0","","15","","9","","16.1","","97.60","","","","-22","","NA"
"-117.16","58.62","HIGH LEVEL A","3073140","2020-02-19 12:00","2020","02","19","12:00","-14.2","","-17.4","","77","","0.0","","15","","8","","16.1","","97.54","","","","-19","","NA"
"-117.16","58.62","HIGH LEVEL A","3073140","2020-02-19 13:00","2020","02","19","13:00","-12.2","","-16.2","","73","","0.0","","13","","9","","16.1","","97.49","","","","-17","","NA"
"-117.16","58.62","HIGH LEVEL A","3073140","2020-02-19 14:00","2020","02","19","14:00","-9.8","","-15.0","","66","","0.0","","14","","8","","16.1","","97.44","","","","-14","","NA"
"-117.16","58.62","HIGH LEVEL A","3073140","2020-02-19 15:00","2020","02","19","15:00","-7.5","","-14.0","","60","","0.0","","14","","11","","16.1","","97.36","","","","-13","","NA"
"-117.16","58.62","HIGH LEVEL A","3073140","2020-02-19 16:00","2020","02","19","16:00","-6.3","","-13.3","","58","","0.0","","14","","11","","16.1","","97.28","","","","-11","","NA"
"-117.16","58.62","HIGH LEVEL A","3073140","2020-02-19 17:00","2020","02","19","17:00","-6.2","","-13.1","","58","","0.0","","14","","9","","16.1","","97.20","","","","-10","","NA"
"-117.16","58.62","HIGH LEVEL A","3073140","2020-02-19 18:00","2020","02","19","18:00","-10.4","","-13.4","","79","","0.0","","18","","5","","16.1","","97.17","","","","-13","","NA"
"-117.16","58.62","HIGH LEVEL A","3073140","2020-02-19 19:00","2020","02","19","19:00","-11.7","","-13.8","","85","","0.0","","17","","8","","16.1","","97.10","","","","-16","","NA"
"-117.16","58.62","HIGH LEVEL A","3073140","2020-02-19 20:00","2020","02","19","20:00","-12.0","","-13.7","","87","","0.0","","17","","5","","16.1","","97.01","","","","-15","","NA"
"-117.16","58.62","HIGH LEVEL A","3073140","2020-02-19 21:00","2020","02","19","21:00","-14.9","","-16.9","","85","","0.0","","14","","4","","16.1","","96.93","","","","-18","","NA"
"-117.16","58.62","HIGH LEVEL A","3073140","2020-02-19 22:00","2020","02","19","22:00","-16.9","","-18.4","","88","","0.0","","12","","4","","16.1","","96.88","","","","-20","","NA"
"-117.16","58.62","HIGH LEVEL A","3073140","2020-02-19 23:00","2020","02","19","23:00","-17.0","","-18.2","","90","","0.0","","","M","4","","16.1","","96.83","","","","-20","","NA"
"-117.16","58.62","HIGH LEVEL A","3073140","2020-02-20 00:00","2020","02","20","00:00","-17.1","","-18.6","","88","","0.0","","","M","4","","16.1","","96.77","","","","-20","","NA"
"-117.16","58.62","HIGH LEVEL A","3073140","2020-02-20 01:00","2020","02","20","01:00","-17.3","","-18.8","","89","","0.0","","13","","4","","16.1","","96.72","","","","-20","","NA"
"-117.16","58.62","HIGH LEVEL A","3073140","2020-02-20 02:00","2020","02","20","02:00","-16.8","","-18.3","","88","","0.0","","","M","4","","16.1","","96.70","","","","-20","","NA"
"-117.16","58.62","HIGH LEVEL A","3073140","2020-02-20 03:00","2020","02","20","03:00","-15.3","","-16.6","","90","","0.0","","","M","4","","16.1","","96.65","","","","-18","","NA"
"-117.16","58.62","HIGH LEVEL A","3073140","2020-02-20 04:00","2020","02","20","04:00","-14.1","","-15.4","","90","","0.0","","19","","9","","16.1","","96.62","","","","-20","","NA"
"-117.16","58.62","HIGH LEVEL A","3073140","2020-02-20 05:00","2020","02","20","05:00","-11.1","","-12.4","","90","","0.0","","16","","11","","16.1","","96.56","","","","-17","","NA"
"-117.16","58.62","HIGH LEVEL A","3073140","2020-02-20 06:00","2020","02","20","06:00","-9.4","","-10.6","","91","","0.0","","21","","9","","16.1","","96.52","","","","-14","","NA"
"-117.16","58.62","HIGH LEVEL A","3073140","2020-02-20 07:00","2020","02","20","07:00","-8.9","","-10.3","","90","","0.0","","20","","11","","16.1","","96.49","","","","-14","","NA"
"-117.16","58.62","HIGH LEVEL A","3073140","2020-02-20 08:00","2020","02","20","08:00","-5.7","","-9.1","","77","","0.0","","22","","8","","16.1","","96.48","","","","-9","","NA"
"-117.16","58.62","HIGH LEVEL A","3073140","2020-02-20 09:00","2020","02","20","09:00","-5.6","","-8.6","","79","","0.0","","21","","9","","16.1","","96.49","","","","-10","","NA"
"-117.16","58.62","HIGH LEVEL A","3073140","2020-02-20 10:00","2020","02","20","10:00","-3.4","","-8.6","","68","","0.0","","20","","11","","16.1","","96.49","","","","-8","","NA"
"-117.16","58.62","HIGH LEVEL A","3073140","2020-02-20 11:00","2020","02","20","11:00","0.6","","-7.7","","54","","0.0","","22","","11","","16.1","","96.47","","","","","","NA"
"-117.16","58.62","HIGH LEVEL A","3073140","2020-02-20 12:00","2020","02","20","12:00","3.0","","-8.6","","43","","0.0","","26","","17","","16.1","","96.46","","","","","","NA"
"-117.16","58.62","HIGH LEVEL A","3073140","2020-02-20 13:00","2020","02","20","13:00","4.7","","-10.4","","33","","0.5","","28","","17","","16.1","","96.45","","","","","","NA"
"-117.16","58.62","HIGH LEVEL A","3073140","2020-02-20 14:00","2020","02","20","14:00","4.7","","-10.3","","33","","0.8","","28","","21","","16.1","","96.42","","","","","","NA"
"-117.16","58.62","HIGH LEVEL A","3073140","2020-02-20 15:00","2020","02","20","15:00","4.6","","-11.1","","31","","0.5","","28","","22","","16.1","","96.42","","","","","","NA"
"-117.16","58.62","HIGH LEVEL A","3073140","2020-02-20 16:00","2020","02","20","16:00","4.4","","-11.0","","32","","0.5","","27","","26","","16.1","","96.41","","","","","","NA"
"-117.16","58.62","HIGH LEVEL A","3073140","2020-02-20 17:00","2020","02","20","17:00","4.0","","-11.1","","33","","0.8","","28","","17","","16.1","","96.41","","","","","","NA"
"-117.16","58.62","HIGH LEVEL A","3073140","2020-02-20 18:00","2020","02","20","18:00","2.9","","-11.2","","35","","0.8","","28","","9","","16.1","","96.38","","","","","","NA"
"-117.16","58.62","HIGH LEVEL A","3073140","2020-02-20 19:00","2020","02","20","19:00","-3.0","","-10.6","","56","","0.2","","22","","5","","16.1","","96.34","","","","-5","","NA"
"-117.16","58.62","HIGH LEVEL A","3073140","2020-02-20 20:00","2020","02","20","20:00","-2.3","","-11.1","","51","","0.0","","21","","5","","16.1","","96.28","","","","-4","","NA"
"-117.16","58.62","HIGH LEVEL A","3073140","2020-02-20 21:00","2020","02","20","21:00","-4.2","","-11.2","","59","","0.0","","20","","5","","16.1","","96.22","","","","-6","","NA"
"-117.16","58.62","HIGH LEVEL A","3073140","2020-02-20 22:00","2020","02","20","22:00","-1.3","","-11.8","","45","","0.0","","23","","8","","16.1","","96.16","","","","-4","","NA"
"-117.16","58.62","HIGH LEVEL A","3073140","2020-02-20 23:00","2020","02","20","23:00","-2.3","","-11.8","","48","","0.0","","20","","8","","16.1","","96.10","","","","-5","","NA"
"-117.16","58.62","HIGH LEVEL A","3073140","2020-02-21 00:00","2020","02","21","00:00","-4.3","","-12.4","","54","","0.0","","20","","8","","16.1","","96.02","","","","-8","","NA"
"-117.16","58.62","HIGH LEVEL A","3073140","2020-02-21 01:00","2020","02","21","01:00","-3.6","","-11.9","","53","","0.0","","18","","9","","16.1","","95.96","","","","-7","","NA"
"-117.16","58.62","HIGH LEVEL A","3073140","2020-02-21 02:00","2020","02","21","02:00","-6.6","","-11.9","","66","","0.0","","19","","8","","16.1","","95.92","","","","-10","","NA"
"-117.16","58.62","HIGH LEVEL A","3073140","2020-02-21 03:00","2020","02","21","03:00","-6.8","","-11.5","","70","","0.0","","19","","8","","16.1","","95.91","","","","-11","","NA"
"-117.16","58.62","HIGH LEVEL A","3073140","2020-02-21 04:00","2020","02","21","04:00","-6.0","","-11.0","","68","","0.0","","17","","13","","16.1","","95.83","","","","-11","","NA"
"-117.16","58.62","HIGH LEVEL A","3073140","2020-02-21 05:00","2020","02","21","05:00","-5.1","","-9.9","","69","","0.0","","18","","11","","16.1","","95.77","","","","-10","","NA"
"-117.16","58.62","HIGH LEVEL A","3073140","2020-02-21 06:00","2020","02","21","06:00","-5.0","","-9.9","","69","","0.0","","12","","5","","16.1","","95.75","","","","-7","","NA"
"-117.16","58.62","HIGH LEVEL A","3073140","2020-02-21 07:00","2020","02","21","07:00","-4.7","","-9.7","","68","","0.0","","13","","5","","16.1","","95.70","","","","-7","","NA"
"-117.16","58.62","HIGH LEVEL A","3073140","2020-02-21 08:00","2020","02","21","08:00","-6.3","","-10.2","","74","","0.0","","","","0","","16.1","","95.65","","","","","","NA"
"-117.16","58.62","HIGH LEVEL A","3073140","2020-02-21 09:00","2020","02","21","09:00","-7.5","","-10.3","","81","","0.0","","13","","8","","16.1","","95.63","","","","-12","","NA"
"-117.16","58.62","HIGH LEVEL A","3073140","2020-02-21 10:00","2020","02","21","10:00","-6.7","","-10.2","","76","","0.0","","17","","5","","16.1","","95.59","","","","-9","","NA"
"-117.16","58.62","HIGH LEVEL A","3073140","2020-02-21 11:00","2020","02","21","11:00","-3.3","","-8.8","","66","","0.0","","16","","5","","16.1","","95.52","","","","-5","","NA"
"-117.16","58.62","HIGH LEVEL A","3073140","2020-02-21 12:00","2020","02","21","12:00","1.1","","-6.7","","56","","0.0","","16","","8","","16.1","","95.49","","","","","","NA"
"-117.16","58.62","HIGH LEVEL A","3073140","2020-02-21 13:00","2020","02","21","13:00","4.9","","-5.2","","48","","1.0","","23","","5","","16.1","","95.48","","","","","","NA"
"-117.16","58.62","HIGH LEVEL A","3073140","2020-02-21 14:00","2020","02","21","14:00","6.0","","-5.0","","45","","3.2","","22","","8","","16.1","","95.44","","","","","","NA"
"-117.16","58.62","HIGH LEVEL A","3073140","2020-02-21 15:00","2020","02","21","15:00","7.7","","-5.8","","38","","5.0","","26","","22","","16.1","","95.42","","","","","","NA"
"-117.16","58.62","HIGH LEVEL A","3073140","2020-02-21 16:00","2020","02","21","16:00","7.6","","-6.2","","37","","4.2","","27","","15","","16.1","","95.44","","","","","","NA"
"-117.16","58.62","HIGH LEVEL A","3073140","2020-02-21 17:00","2020","02","21","17:00","7.2","","-5.9","","39","","2.8","","24","","9","","16.1","","95.44","","","","","","NA"
"-117.16","58.62","HIGH LEVEL A","3073140","2020-02-21 18:00","2020","02","21","18:00","6.2","","-6.1","","41","","1.2","","23","","8","","16.1","","95.43","","","","","","NA"
"-117.16","58.62","HIGH LEVEL A","3073140","2020-02-21 19:00","2020","02","21","19:00","4.8","","-6.9","","43","","0.8","","22","","9","","16.1","","95.47","","","","","","NA"
"-117.16","58.62","HIGH LEVEL A","3073140","2020-02-21 20:00","2020","02","21","20:00","3.4","","-5.1","","54","","0.0","","24","","8","","16.1","","95.51","","","","","","NA"
"-117.16","58.62","HIGH LEVEL A","3073140","2020-02-21 21:00","2020","02","21","21:00","4.6","","-4.4","","52","","0.0","","24","","15","","16.1","","95.53","","","","","","NA"
"-117.16","58.62","HIGH LEVEL A","3073140","2020-02-21 22:00","2020","02","21","22:00","5.1","","-5.2","","47","","0.0","","25","","13","","16.1","","95.54","","","","","","NA"
"-117.16","58.62","HIGH LEVEL A","3073140","2020-02-21 23:00","2020","02","21","23:00","3.4","","-5.1","","54","","0.0","","23","","15","","16.1","","95.57","","","","","","NA"
"-117.16","58.62","HIGH LEVEL A","3073140","2020-02-22 00:00","2020","02","22","00:00","1.9","","-4.8","","61","","0.0","","24","","11","","16.1","","95.59","","","","","","NA"
"-117.16","58.62","HIGH LEVEL A","3073140","2020-02-22 01:00","2020","02","22","01:00","1.0","","-5.7","","61","","0.0","","22","","13","","16.1","","95.61","","","","","","NA"
"-117.16","58.62","HIGH LEVEL A","3073140","2020-02-22 02:00","2020","02","22","02:00","0.6","","-6.3","","60","","0.0","","22","","15","","16.1","","95.64","","","","","","NA"
"-117.16","58.62","HIGH LEVEL A","3073140","2020-02-22 03:00","2020","02","22","03:00","0.6","","-6.7","","58","","0.0","","24","","15","","16.1","","95.62","","","","","","NA"
"-117.16","58.62","HIGH LEVEL A","3073140","2020-02-22 04:00","2020","02","22","04:00","-0.2","","-7.2","","59","","0.0","","23","","11","","16.1","","95.65","","","","-4","","NA"
"-117.16","58.62","HIGH LEVEL A","3073140","2020-02-22 05:00","2020","02","22","05:00","-0.6","","-7.7","","59","","0.0","","24","","9","","16.1","","95.68","","","","-4","","NA"
"-117.16","58.62","HIGH LEVEL A","3073140","2020-02-22 06:00","2020","02","22","06:00","-0.9","","-8.1","","58","","0.0","","23","","11","","16.1","","95.73","","","","-5","","NA"
"-117.16","58.62","HIGH LEVEL A","3073140","2020-02-22 07:00","2020","02","22","07:00","-0.9","","-8.9","","55","","0.0","","23","","11","","16.1","","95.77","","","","-5","","NA"
"-117.16","58.62","HIGH LEVEL A","3073140","2020-02-22 08:00","2020","02","22","08:00","-0.7","","-9.6","","51","","0.0","","23","","11","","16.1","","95.80","","","","-4","","NA"
"-117.16","58.62","HIGH LEVEL A","3073140","2020-02-22 09:00","2020","02","22","09:00","1.1","","-9.5","","45","","0.0","","28","","18","","16.1","","95.84","","","","","","NA"
"-117.16","58.62","HIGH LEVEL A","3073140","2020-02-22 10:00","2020","02","22","10:00","1.5","","-8.7","","47","","0.0","","29","","22","","16.1","","95.93","","","","","","NA"
"-117.16","58.62","HIGH LEVEL A","3073140","2020-02-22 11:00","2020","02","22","11:00","1.7","","-8.7","","46","","0.0","","30","","28","","16.1","","96.02","","","","","","NA"
"-117.16","58.62","HIGH LEVEL A","3073140","2020-02-22 12:00","2020","02","22","12:00","2.6","","-8.8","","43","","0.0","","31","","24","","16.1","","96.10","","","","","","NA"
"-117.16","58.62","HIGH LEVEL A","3073140","2020-02-22 13:00","2020","02","22","13:00","2.0","","-9.7","","42","","0.0","","29","","22","","16.1","","96.16","","","","","","NA"
"-117.16","58.62","HIGH LEVEL A","3073140","2020-02-22 14:00","2020","02","22","14:00","3.1","","-10.2","","37","","0.0","","28","","18","","16.1","","96.21","","","","","","NA"
"-117.16","58.62","HIGH LEVEL A","3073140","2020-02-22 15:00","2020","02","22","15:00","3.3","","-10.8","","35","","0.0","","29","","21","","16.1","","96.26","","","","","","NA"
"-117.16","58.62","HIGH LEVEL A","3073140","2020-02-22 16:00","2020","02","22","16:00","2.9","","-10.8","","36","","0.0","","29","","30","","16.1","","96.34","","","","","","NA"
"-117.16","58.62","HIGH LEVEL A","3073140","2020-02-22 17:00","2020","02","22","17:00","2.7","","-10.3","","38","","0.0","","29","","22","","16.1","","96.38","","","","","","NA"
"-117.16","58.62","HIGH LEVEL A","3073140","2020-02-22 18:00","2020","02","22","18:00","2.2","","-9.8","","41","","0.0","","30","","21","","16.1","","96.43","","","","","","NA"
"-117.16","58.62","HIGH LEVEL A","3073140","2020-02-22 19:00","2020","02","22","19:00","1.6","","-8.0","","49","","0.0","","31","","13","","16.1","","96.51","","","","","","NA"
"-117.16","58.62","HIGH LEVEL A","3073140","2020-02-22 20:00","2020","02","22","20:00","1.0","","-5.2","","63","","0.0","","31","","15","","16.1","","96.60","","","","","","NA"
"-117.16","58.62","HIGH LEVEL A","3073140","2020-02-22 21:00","2020","02","22","21:00","-1.4","","-4.3","","81","","0.0","","","M","4","","16.1","","96.63","","","","-3","","NA"
"-117.16","58.62","HIGH LEVEL A","3073140","2020-02-22 22:00","2020","02","22","22:00","-3.8","","-5.4","","89","","0.0","","","M","4","","16.1","","96.66","","","","-5","","NA"
"-117.16","58.62","HIGH LEVEL A","3073140","2020-02-22 23:00","2020","02","22","23:00","0.3","","-11.0","","43","","0.0","","30","","13","","16.1","","96.69","","","","","","NA"
"-117.16","58.62","HIGH LEVEL A","3073140","2020-02-23 00:00","2020","02","23","00:00","-2.2","","-10.8","","52","","0.0","","26","","8","","16.1","","96.75","","","","-5","","NA"
"-117.16","58.62","HIGH LEVEL A","3073140","2020-02-23 01:00","2020","02","23","01:00","-3.2","","-11.7","","52","","0.0","","","","0","","16.1","","96.77","","","","","","NA"
"-117.16","58.62","HIGH LEVEL A","3073140","2020-02-23 02:00","2020","02","23","02:00","-3.5","","-12.8","","49","","0.0","","","M","4","","16.1","","96.79","","","","-5","","NA"
"-117.16","58.62","HIGH LEVEL A","3073140","2020-02-23 03:00","2020","02","23","03:00","-4.9","","-13.1","","53","","0.0","","25","","8","","16.1","","96.85","","","","-8","","NA"
"-117.16","58.62","HIGH LEVEL A","3073140","2020-02-23 04:00","2020","02","23","04:00","-5.7","","-13.1","","56","","0.0","","27","","11","","16.1","","96.87","","","","-10","","NA"
"-117.16","58.62","HIGH LEVEL A","3073140","2020-02-23 05:00","2020","02","23","05:00","-7.4","","-13.5","","62","","0.0","","","M","4","","16.1","","96.88","","","","-9","","NA"
"-117.16","58.62","HIGH LEVEL A","3073140","2020-02-23 06:00","2020","02","23","06:00","-7.7","","-13.2","","65","","0.0","","26","","9","","16.1","","96.91","","","","-12","","NA"
"-117.16","58.62","HIGH LEVEL A","3073140","2020-02-23 07:00","2020","02","23","07:00","-9.0","","-13.4","","71","","0.0","","27","","5","","16.1","","96.90","","","","-12","","NA"
"-117.16","58.62","HIGH LEVEL A","3073140","2020-02-23 08:00","2020","02","23","08:00","-8.5","","-13.4","","68","","0.0","","23","","8","","16.1","","96.94","","","","-13","","NA"
"-117.16","58.62","HIGH LEVEL A","3073140","2020-02-23 09:00","2020","02","23","09:00","-8.1","","-13.6","","65","","0.0","","23","","5","","16.1","","96.95","","","","-11","","NA"
"-117.16","58.62","HIGH LEVEL A","3073140","2020-02-23 10:00","2020","02","23","10:00","-7.1","","-13.1","","63","","0.0","","22","","5","","16.1","","96.99","","","","-10","","NA"
"-117.16","58.62","HIGH LEVEL A","3073140","2020-02-23 11:00","2020","02","23","11:00","-3.6","","-11.8","","53","","0.0","","","M","4","","16.1","","97.01","","","","-5","","NA"
"-117.16","58.62","HIGH LEVEL A","3073140","2020-02-23 12:00","2020","02","23","12:00","-2.2","","-11.2","","50","","0.0","","1","","15","","16.1","","97.02","","","","-7","","NA"
"-117.16","58.62","HIGH LEVEL A","3073140","2020-02-23 13:00","2020","02","23","13:00","-0.6","","-11.3","","44","","0.0","","1","","15","","16.1","","97.04","","","","-5","","NA"
"-117.16","58.62","HIGH LEVEL A","3073140","2020-02-23 14:00","2020","02","23","14:00","-0.4","","-11.6","","43","","0.0","","33","","15","","16.1","","97.08","","","","-5","","NA"
"-117.16","58.62","HIGH LEVEL A","3073140","2020-02-23 15:00","2020","02","23","15:00","-0.9","","-10.7","","48","","0.0","","35","","17","","16.1","","97.15","","","","-6","","NA"
"-117.16","58.62","HIGH LEVEL A","3073140","2020-02-23 16:00","2020","02","23","16:00","-1.3","","-11.2","","47","","0.0","","35","","13","","16.1","","97.23","","","","-6","","NA"
"-117.16","58.62","HIGH LEVEL A","3073140","2020-02-23 17:00","2020","02","23","17:00","-2.1","","-10.4","","53","","0.0","","34","","13","","16.1","","97.31","","","","-7","","NA"
"-117.16","58.62","HIGH LEVEL A","3073140","2020-02-23 18:00","2020","02","23","18:00","-3.3","","-11.0","","56","","0.0","","2","","13","","16.1","","97.39","","","","-8","","NA"
"-117.16","58.62","HIGH LEVEL A","3073140","2020-02-23 19:00","2020","02","23","19:00","-5.3","","-10.9","","65","","0.0","","35","","17","","16.1","","97.51","","","","-11","","NA"
"-117.16","58.62","HIGH LEVEL A","3073140","2020-02-23 20:00","2020","02","23","20:00","-7.3","","-11.9","","70","","0.0","","36","","18","","16.1","","97.63","","","","-14","","NA"
"-117.16","58.62","HIGH LEVEL A","3073140","2020-02-23 21:00","2020","02","23","21:00","-9.5","","-13.3","","74","","0.0","","1","","18","","16.1","","97.72","","","","-17","","NA"
"-117.16","58.62","HIGH LEVEL A","3073140","2020-02-23 22:00","2020","02","23","22:00","-12.6","","-15.1","","82","","0.0","","32","","9","","16.1","","97.82","","","","-18","","NA"
"-117.16","58.62","HIGH LEVEL A","3073140","2020-02-23 23:00","2020","02","23","23:00","-14.1","","-16.2","","85","","0.0","","33","","8","","16.1","","97.92","","","","-19","","NA"
"-117.16","58.62","HIGH LEVEL A","3073140","2020-02-24 00:00","2020","02","24","00:00","-13.7","","-15.7","","85","","0.0","","34","","11","","16.1","","98.01","","","","-20","","NA"
"-117.16","58.62","HIGH LEVEL A","3073140","2020-02-24 01:00","2020","02","24","01:00","-13.6","","-15.3","","87","","0.0","","36","","18","","16.1","","98.07","","","","-22","","NA"
"-117.16","58.62","HIGH LEVEL A","3073140","2020-02-24 02:00","2020","02","24","02:00","-13.9","","-15.3","","89","","0.0","","35","","13","","16.1","","98.17","","","","-21","","NA"
"-117.16","58.62","HIGH LEVEL A","3073140","2020-02-24 03:00","2020","02","24","03:00","-14.7","","-16.0","","90","","0.0","","1","","15","","16.1","","98.24","","","","-23","","NA"
"-117.16","58.62","HIGH LEVEL A","3073140","2020-02-24 04:00","2020","02","24","04:00","-15.1","","-16.3","","90","","0.0","","36","","17","","16.1","","98.30","","","","-24","","NA"
"-117.16","58.62","HIGH LEVEL A","3073140","2020-02-24 05:00","2020","02","24","05:00","-15.5","","-16.8","","90","","0.0","","36","","15","","16.1","","98.36","","","","-24","","NA"
"-117.16","58.62","HIGH LEVEL A","3073140","2020-02-24 06:00","2020","02","24","06:00","-15.9","","-16.9","","92","","0.0","","36","","11","","16.1","","98.44","","","","-23","","NA"
"-117.16","58.62","HIGH LEVEL A","3073140","2020-02-24 07:00","2020","02","24","07:00","-16.2","","-17.4","","91","","0.0","","36","","15","","16.1","","98.51","","","","-24","","Snow"
"-117.16","58.62","HIGH LEVEL A","3073140","2020-02-24 08:00","2020","02","24","08:00","-15.8","","-17.1","","90","","0.0","","36","","15","","16.1","","98.61","","","","-24","","Snow"
"-117.16","58.62","HIGH LEVEL A","3073140","2020-02-24 09:00","2020","02","24","09:00","-15.6","","-17.0","","89","","0.0","","36","","17","","16.1","","98.67","","","","-24","","Snow"
"-117.16","58.62","HIGH LEVEL A","3073140","2020-02-24 10:00","2020","02","24","10:00","-15.0","","-16.8","","86","","0.0","","36","","11","","16.1","","98.75","","","","-22","","NA"
"-117.16","58.62","HIGH LEVEL A","3073140","2020-02-24 11:00","2020","02","24","11:00","-13.6","","-15.8","","84","","0.0","","35","","11","","16.1","","98.78","","","","-20","","Snow"
"-117.16","58.62","HIGH LEVEL A","3073140","2020-02-24 12:00","2020","02","24","12:00","-12.3","","-15.0","","80","","0.0","","33","","4","","16.1","","98.84","","","","-15","","Snow"
"-117.16","58.62","HIGH LEVEL A","3073140","2020-02-24 13:00","2020","02","24","13:00","-11.1","","-14.3","","78","","0.0","","","","0","","16.1","","98.86","","","","","","NA"
"-117.16","58.62","HIGH LEVEL A","3073140","2020-02-24 14:00","2020","02","24","14:00","-9.6","","-14.1","","70","","0.0","","","","0","","16.1","","98.87","","","","","","NA"
"-117.16","58.62","HIGH LEVEL A","3073140","2020-02-24 15:00","2020","02","24","15:00","-10.4","","-13.7","","77","","0.0","","17","","9","","16.1","","98.92","","","","-15","","NA"
"-117.16","58.62","HIGH LEVEL A","3073140","2020-02-24 16:00","2020","02","24","16:00","-10.0","","-13.7","","75","","0.0","","16","","11","","16.1","","98.94","","","","-16","","NA"
"-117.16","58.62","HIGH LEVEL A","3073140","2020-02-24 17:00","2020","02","24","17:00","-10.1","","-13.9","","74","","0.0","","16","","9","","16.1","","98.98","","","","-15","","NA"
"-117.16","58.62","HIGH LEVEL A","3073140","2020-02-24 18:00","2020","02","24","18:00","-11.1","","-14.4","","77","","0.0","","13","","11","","16.1","","98.98","","","","-17","","NA"
"-117.16","58.62","HIGH LEVEL A","3073140","2020-02-24 19:00","2020","02","24","19:00","-12.3","","-15.1","","80","","0.0","","","","0","","16.1","","99.04","","","","","","NA"
"-117.16","58.62","HIGH LEVEL A","3073140","2020-02-24 20:00","2020","02","24","20:00","-14.2","","-15.9","","87","","0.0","","","","0","","16.1","","99.07","","","","","","NA"
"-117.16","58.62","HIGH LEVEL A","3073140","2020-02-24 21:00","2020","02","24","21:00","-15.9","","-17.3","","89","","0.0","","","","0","","16.1","","99.04","","","","","","NA"
"-117.16","58.62","HIGH LEVEL A","3073140","2020-02-24 22:00","2020","02","24","22:00","-14.8","","-16.2","","90","","0.0","","11","","8","","16.1","","99.04","","","","-20","","NA"
"-117.16","58.62","HIGH LEVEL A","3073140","2020-02-24 23:00","2020","02","24","23:00","-15.2","","-16.4","","91","","0.0","","","","0","","16.1","","99.07","","","","","","NA"
"-117.16","58.62","HIGH LEVEL A","3073140","2020-02-25 00:00","2020","02","25","00:00","-14.1","","-16.0","","86","","0.0","","14","","5","","16.1","","99.02","","","","-18","","NA"
"-117.16","58.62","HIGH LEVEL A","3073140","2020-02-25 01:00","2020","02","25","01:00","-14.7","","-16.7","","85","","0.0","","14","","11","","16.1","","99.03","","","","-21","","NA"
"-117.16","58.62","HIGH LEVEL A","3073140","2020-02-25 02:00","2020","02","25","02:00","-15.4","","-17.4","","85","","0.0","","15","","9","","16.1","","99.01","","","","-21","","NA"
"-117.16","58.62","HIGH LEVEL A","3073140","2020-02-25 03:00","2020","02","25","03:00","-16.1","","-18.1","","85","","0.0","","15","","8","","16.1","","99.01","","","","-22","","NA"
"-117.16","58.62","HIGH LEVEL A","3073140","2020-02-25 04:00","2020","02","25","04:00","-19.5","","-20.9","","89","","0.0","","27","","5","","16.1","","98.99","","","","-24","","NA"
"-117.16","58.62","HIGH LEVEL A","3073140","2020-02-25 05:00","2020","02","25","05:00","-18.5","","-20.2","","87","","0.0","","","M","5","","16.1","","98.93","","","","-23","","NA"
"-117.16","58.62","HIGH LEVEL A","3073140","2020-02-25 06:00","2020","02","25","06:00","-18.9","","-20.6","","87","","0.0","","","M","4","","16.1","","98.93","","","","-22","","NA"
"-117.16","58.62","HIGH LEVEL A","3073140","2020-02-25 07:00","2020","02","25","07:00","-19.7","","-21.6","","86","","0.0","","","","0","","16.1","","98.88","","","","","","NA"
"-117.16","58.62","HIGH LEVEL A","3073140","2020-02-25 08:00","2020","02","25","08:00","-20.2","","-22.1","","85","","0.0","","","M","4","","16.1","","98.86","","","","-24","","NA"
"-117.16","58.62","HIGH LEVEL A","3073140","2020-02-25 09:00","2020","02","25","09:00","-18.3","","-20.1","","86","","0.0","","14","","5","","16.1","","98.81","","","","-22","","NA"
"-117.16","58.62","HIGH LEVEL A","3073140","2020-02-25 10:00","2020","02","25","10:00","-17.6","","-19.7","","84","","0.0","","16","","11","","16.1","","98.75","","","","-25","","NA"
"-117.16","58.62","HIGH LEVEL A","3073140","2020-02-25 11:00","2020","02","25","11:00","-16.7","","-19.2","","81","","0.0","","17","","8","","16.1","","98.70","","","","-22","","NA"
"-117.16","58.62","HIGH LEVEL A","3073140","2020-02-25 12:00","2020","02","25","12:00","-15.3","","-18.6","","76","","0.0","","15","","9","","16.1","","98.62","","","","-21","","NA"
"-117.16","58.62","HIGH LEVEL A","3073140","2020-02-25 13:00","2020","02","25","13:00","-14.9","","-18.1","","77","","0.0","","20","","8","","16.1","","98.57","","","","-20","","NA"
"-117.16","58.62","HIGH LEVEL A","3073140","2020-02-25 14:00","2020","02","25","14:00","-13.5","","-17.4","","73","","0.0","","16","","8","","16.1","","98.49","","","","-19","","NA"
"-117.16","58.62","HIGH LEVEL A","3073140","2020-02-25 15:00","2020","02","25","15:00","-13.4","","-17.2","","74","","0.0","","15","","9","","16.1","","98.38","","","","-19","","NA"
"-117.16","58.62","HIGH LEVEL A","3073140","2020-02-25 16:00","2020","02","25","16:00","-12.8","","-16.5","","74","","0.0","","20","","4","","16.1","","98.32","","","","-15","","NA"
"-117.16","58.62","HIGH LEVEL A","3073140","2020-02-25 17:00","2020","02","25","17:00","-11.9","","-16.1","","71","","0.0","","23","","8","","16.1","","98.25","","","","-17","","NA"
"-117.16","58.62","HIGH LEVEL A","3073140","2020-02-25 18:00","2020","02","25","18:00","-12.3","","-16.2","","73","","0.0","","15","","9","","16.1","","98.13","","","","-18","","Snow"
"-117.16","58.62","HIGH LEVEL A","3073140","2020-02-25 19:00","2020","02","25","19:00","-12.3","","-15.7","","76","","0.0","","15","","9","","16.1","","98.08","","","","-18","","Snow"
"-117.16","58.62","HIGH LEVEL A","3073140","2020-02-25 20:00","2020","02","25","20:00","-12.4","","-14.3","","86","","0.0","","","","0","","2.4","","97.99","","","","","","Snow"
"-117.16","58.62","HIGH LEVEL A","3073140","2020-02-25 21:00","2020","02","25","21:00","-13.1","","-14.3","","91","","0.0","","32","","4","","16.1","","97.93","","","","-16","","Snow"
"-117.16","58.62","HIGH LEVEL A","3073140","2020-02-25 22:00","2020","02","25","22:00","-12.4","","-13.9","","89","","0.0","","34","","4","","16.1","","97.86","","","","-15","","NA"
"-117.16","58.62","HIGH LEVEL A","3073140","2020-02-25 23:00","2020","02","25","23:00","-11.8","","-13.4","","88","","0.0","","30","","4","","16.1","","97.78","","","","-14","","NA"
"-117.16","58.62","HIGH LEVEL A","3073140","2020-02-26 00:00","2020","02","26","00:00","-11.7","","-13.3","","88","","0.0","","","","0","","16.1","","97.66","","","","","","NA"
"-117.16","58.62","HIGH LEVEL A","3073140","2020-02-26 01:00","2020","02","26","01:00","-11.3","","-12.8","","89","","0.0","","","M","4","","16.1","","97.66","","","","-14","","NA"
"-117.16","58.62","HIGH LEVEL A","3073140","2020-02-26 02:00","2020","02","26","02:00","-11.1","","-12.6","","89","","0.0","","35","","4","","16.1","","97.62","","","","-14","","NA"
"-117.16","58.62","HIGH LEVEL A","3073140","2020-02-26 03:00","2020","02","26","03:00","-10.9","","-12.4","","89","","0.0","","","","0","","16.1","","97.59","","","","","","NA"
"-117.16","58.62","HIGH LEVEL A","3073140","2020-02-26 04:00","2020","02","26","04:00","-10.8","","-12.1","","90","","0.0","","28","","4","","16.1","","97.60","","","","-13","","NA"
"-117.16","58.62","HIGH LEVEL A","3073140","2020-02-26 05:00","2020","02","26","05:00","-10.6","","-12.1","","89","","0.0","","29","","4","","16.1","","97.62","","","","-13","","NA"
"-117.16","58.62","HIGH LEVEL A","3073140","2020-02-26 06:00","2020","02","26","06:00","-10.6","","-12.2","","88","","0.0","","","M","4","","16.1","","97.58","","","","-13","","NA"
"-117.16","58.62","HIGH LEVEL A","3073140","2020-02-26 07:00","2020","02","26","07:00","-11.1","","-12.4","","90","","0.0","","20","","5","","16.1","","97.53","","","","-14","","NA"
"-117.16","58.62","HIGH LEVEL A","3073140","2020-02-26 08:00","2020","02","26","08:00","-11.2","","-12.5","","90","","0.0","","","","0","","16.1","","97.53","","","","","","NA"
"-117.16","58.62","HIGH LEVEL A","3073140","2020-02-26 09:00","2020","02","26","09:00","-10.9","","-12.4","","89","","0.0","","19","","5","","16.1","","97.53","","","","-14","","NA"
"-117.16","58.62","HIGH LEVEL A","3073140","2020-02-26 10:00","2020","02","26","10:00","-11.0","","-12.4","","90","","0.0","","","M","4","","16.1","","97.47","","","","-13","","NA"
"-117.16","58.62","HIGH LEVEL A","3073140","2020-02-26 11:00","2020","02","26","11:00","-10.1","","-11.9","","87","","0.0","","20","","13","","16.1","","97.46","","","","-16","","NA"
"-117.16","58.62","HIGH LEVEL A","3073140","2020-02-26 12:00","2020","02","26","12:00","-9.8","","-12.4","","81","","0.0","","15","","9","","16.1","","97.39","","","","-15","","NA"
"-117.16","58.62","HIGH LEVEL A","3073140","2020-02-26 13:00","2020","02","26","13:00","-8.8","","-11.7","","80","","0.0","","14","","13","","16.1","","97.36","","","","-15","","NA"
"-117.16","58.62","HIGH LEVEL A","3073140","2020-02-26 14:00","2020","02","26","14:00","-7.5","","-11.0","","76","","0.0","","16","","9","","16.1","","97.30","","","","-12","","NA"
"-117.16","58.62","HIGH LEVEL A","3073140","2020-02-26 15:00","2020","02","26","15:00","-7.2","","-11.1","","74","","0.0","","16","","13","","16.1","","97.24","","","","-13","","NA"
"-117.16","58.62","HIGH LEVEL A","3073140","2020-02-26 16:00","2020","02","26","16:00","-6.5","","-10.6","","73","","0.0","","17","","9","","16.1","","97.23","","","","-11","","NA"
"-117.16","58.62","HIGH LEVEL A","3073140","2020-02-26 17:00","2020","02","26","17:00","-6.2","","-11.0","","69","","0.0","","17","","11","","16.1","","97.20","","","","-11","","NA"
"-117.16","58.62","HIGH LEVEL A","3073140","2020-02-26 18:00","2020","02","26","18:00","-6.8","","-10.9","","73","","0.0","","16","","9","","16.1","","97.20","","","","-11","","NA"
"-117.16","58.62","HIGH LEVEL A","3073140","2020-02-26 19:00","2020","02","26","19:00","-8.6","","-11.5","","80","","0.0","","","","0","","16.1","","97.17","","","","","","NA"
"-117.16","58.62","HIGH LEVEL A","3073140","2020-02-26 20:00","2020","02","26","20:00","-10.5","","-11.9","","89","","0.0","","29","","4","","16.1","","97.13","","","","-13","","NA"
"-117.16","58.62","HIGH LEVEL A","3073140","2020-02-26 21:00","2020","02","26","21:00","-12.9","","-14.0","","92","","0.0","","","","0","","16.1","","97.09","","","","","","NA"
"-117.16","58.62","HIGH LEVEL A","3073140","2020-02-26 22:00","2020","02","26","22:00","-12.3","","-13.2","","93","","0.0","","","","0","","12.9","","97.07","","","","","","NA"
"-117.16","58.62","HIGH LEVEL A","3073140","2020-02-26 23:00","2020","02","26","23:00","-13.2","","-14.4","","91","","0.0","","","M","4","","16.1","","96.97","","","","-16","","NA"
"-117.16","58.62","HIGH LEVEL A","3073140","2020-02-27 00:00","2020","02","27","00:00","-13.9","","-14.8","","93","","0.0","","","","0","","16.1","","96.95","","","","","","NA"
"-117.16","58.62","HIGH LEVEL A","3073140","2020-02-27 01:00","2020","02","27","01:00","-13.4","","-14.2","","94","","0.0","","29","","4","","16.1","","96.89","","","","-16","","NA"
"-117.16","58.62","HIGH LEVEL A","3073140","2020-02-27 02:00","2020","02","27","02:00","-13.8","","-14.9","","91","","0.0","","","","0","","16.1","","96.86","","","","","","NA"
"-117.16","58.62","HIGH LEVEL A","3073140","2020-02-27 03:00","2020","02","27","03:00","-14.4","","-15.5","","92","","0.0","","","M","4","","16.1","","96.82","","","","-17","","NA"
"-117.16","58.62","HIGH LEVEL A","3073140","2020-02-27 04:00","2020","02","27","04:00","-14.7","","-16.1","","89","","0.0","","2","","5","","8.1","","96.79","","","","-18","","Fog"
"-117.16","58.62","HIGH LEVEL A","3073140","2020-02-27 05:00","2020","02","27","05:00","-16.0","","-17.2","","91","","0.0","","","M","4","","16.1","","96.76","","","","-19","","NA"
"-117.16","58.62","HIGH LEVEL A","3073140","2020-02-27 06:00","2020","02","27","06:00","-16.4","","-17.7","","90","","0.0","","","","0","","16.1","","96.77","","","","","","NA"
"-117.16","58.62","HIGH LEVEL A","3073140","2020-02-27 07:00","2020","02","27","07:00","-17.3","","-18.8","","88","","0.0","","35","","5","","9.7","","96.80","","","","-21","","Fog"
"-117.16","58.62","HIGH LEVEL A","3073140","2020-02-27 08:00","2020","02","27","08:00","-18.0","","-19.5","","88","","0.0","","25","","4","","14.5","","96.83","","","","-21","","NA"
"-117.16","58.62","HIGH LEVEL A","3073140","2020-02-27 09:00","2020","02","27","09:00","-16.6","","-17.9","","90","","0.0","","8","","5","","12.9","","96.82","","","","-20","","NA"
"-117.16","58.62","HIGH LEVEL A","3073140","2020-02-27 10:00","2020","02","27","10:00","-13.9","","-15.2","","90","","0.0","","","","0","","16.1","","96.84","","","","","","NA"
"-117.16","58.62","HIGH LEVEL A","3073140","2020-02-27 11:00","2020","02","27","11:00","-8.7","","-11.1","","83","","0.0","","","","0","","16.1","","96.87","","","","","","NA"
"-117.16","58.62","HIGH LEVEL A","3073140","2020-02-27 12:00","2020","02","27","12:00","-6.3","","-9.7","","77","","0.0","","14","","8","","16.1","","96.86","","","","-10","","NA"
"-117.16","58.62","HIGH LEVEL A","3073140","2020-02-27 13:00","2020","02","27","13:00","-4.1","","-8.5","","72","","0.0","","16","","8","","16.1","","96.79","","","","-8","","NA"
"-117.16","58.62","HIGH LEVEL A","3073140","2020-02-27 14:00","2020","02","27","14:00","-2.2","","-6.8","","71","","0.0","","16","","11","","16.1","","96.76","","","","-6","","NA"
"-117.16","58.62","HIGH LEVEL A","3073140","2020-02-27 15:00","2020","02","27","15:00","0.8","","-6.5","","58","","0.0","","14","","8","","16.1","","96.69","","","","","","NA"
"-117.16","58.62","HIGH LEVEL A","3073140","2020-02-27 16:00","2020","02","27","16:00","2.3","","-5.6","","56","","0.0","","14","","9","","16.1","","96.60","","","","","","NA"
"-117.16","58.62","HIGH LEVEL A","3073140","2020-02-27 17:00","2020","02","27","17:00","0.6","","-5.5","","64","","0.0","","","","0","","16.1","","96.51","","","","","","NA"
"-117.16","58.62","HIGH LEVEL A","3073140","2020-02-27 18:00","2020","02","27","18:00","0.9","","-5.2","","64","","0.0","","13","","9","","16.1","","96.40","","","","","","NA"
"-117.16","58.62","HIGH LEVEL A","3073140","2020-02-27 19:00","2020","02","27","19:00","0.6","","-4.5","","69","","0.0","","13","","13","","16.1","","96.27","","","","","","NA"
"-117.16","58.62","HIGH LEVEL A","3073140","2020-02-27 20:00","2020","02","27","20:00","1.2","","-4.1","","68","","0.0","","","","0","","16.1","","96.20","","","","","","NA"
"-117.16","58.62","HIGH LEVEL A","3073140","2020-02-27 21:00","2020","02","27","21:00","-0.8","","-4.1","","78","","0.0","","","","0","","16.1","","96.11","","","","","","Snow"
"-117.16","58.62","HIGH LEVEL A","3073140","2020-02-27 22:00","2020","02","27","22:00","-0.5","","-1.7","","92","","0.2","","","","0","","16.1","","96.02","","","","","","Snow"
"-117.16","58.62","HIGH LEVEL A","3073140","2020-02-27 23:00","2020","02","27","23:00","-0.1","","-0.4","","98","","0.8","","","","0","","8.1","","95.93","","","","","","Snow"
"-117.16","58.62","HIGH LEVEL A","3073140","2020-02-28 00:00","2020","02","28","00:00","0.0","","-0.1","","99","","1.0","","","M","4","","12.9","","95.91","","","","-1","","Snow"
"-117.16","58.62","HIGH LEVEL A","3073140","2020-02-28 01:00","2020","02","28","01:00","0.0","","0.0","","100","","0.0","","34","","5","","14.5","","95.90","","","","-2","","NA"
"-117.16","58.62","HIGH LEVEL A","3073140","2020-02-28 02:00","2020","02","28","02:00","0.1","","0.1","","100","","0.0","","35","","11","","16.1","","95.96","","","","","","NA"
"-117.16","58.62","HIGH LEVEL A","3073140","2020-02-28 03:00","2020","02","28","03:00","-0.1","","-0.1","","100","","0.2","","34","","22","","16.1","","96.07","","","","-6","","NA"
"-117.16","58.62","HIGH LEVEL A","3073140","2020-02-28 04:00","2020","02","28","04:00","-4.2","","-4.8","","96","","0.0","","35","","30","","16.1","","96.21","","","","-12","","Snow"
"-117.16","58.62","HIGH LEVEL A","3073140","2020-02-28 05:00","2020","02","28","05:00","-5.6","","-6.3","","95","","0.0","","34","","22","","16.1","","96.37","","","","-13","","NA"
"-117.16","58.62","HIGH LEVEL A","3073140","2020-02-28 06:00","2020","02","28","06:00","-7.5","","-8.9","","90","","0.0","","35","","17","","16.1","","96.51","","","","-14","","NA"
"-117.16","58.62","HIGH LEVEL A","3073140","2020-02-28 07:00","2020","02","28","07:00","-9.0","","-10.2","","91","","0.0","","36","","17","","16.1","","96.55","","","","-16","","Snow"
"-117.16","58.62","HIGH LEVEL A","3073140","2020-02-28 08:00","2020","02","28","08:00","-9.3","","-10.9","","89","","0.0","","31","","11","","16.1","","96.69","","","","-15","","NA"
"-117.16","58.62","HIGH LEVEL A","3073140","2020-02-28 09:00","2020","02","28","09:00","-8.8","","-10.4","","88","","0.0","","34","","17","","16.1","","96.77","","","","-16","","NA"
"-117.16","58.62","HIGH LEVEL A","3073140","2020-02-28 10:00","2020","02","28","10:00","-8.6","","-10.2","","88","","0.0","","36","","18","","16.1","","96.79","","","","-16","","NA"
"-117.16","58.62","HIGH LEVEL A","3073140","2020-02-28 11:00","2020","02","28","11:00","-7.9","","-9.7","","87","","0.0","","36","","21","","16.1","","96.80","","","","-15","","Snow"
"-117.16","58.62","HIGH LEVEL A","3073140","2020-02-28 12:00","2020","02","28","12:00","-7.5","","-9.6","","85","","0.0","","1","","17","","16.1","","96.85","","","","-14","","NA"
"-117.16","58.62","HIGH LEVEL A","3073140","2020-02-28 13:00","2020","02","28","13:00","-6.7","","-8.7","","86","","0.0","","35","","17","","16.1","","96.86","","","","-13","","NA"
"-117.16","58.62","HIGH LEVEL A","3073140","2020-02-28 14:00","2020","02","28","14:00","-5.9","","-8.5","","82","","0.0","","36","","21","","16.1","","96.83","","","","-13","","NA"
"-117.16","58.62","HIGH LEVEL A","3073140","2020-02-28 15:00","2020","02","28","15:00","-5.5","","-8.5","","79","","0.0","","1","","15","","16.1","","96.82","","","","-11","","NA"
"-117.16","58.62","HIGH LEVEL A","3073140","2020-02-28 16:00","2020","02","28","16:00","-5.8","","-9.0","","78","","0.0","","34","","17","","16.1","","96.84","","","","-12","","NA"
"-117.16","58.62","HIGH LEVEL A","3073140","2020-02-28 17:00","2020","02","28","17:00","-6.8","","-9.2","","83","","0.0","","1","","13","","16.1","","96.84","","","","-12","","NA"
"-117.16","58.62","HIGH LEVEL A","3073140","2020-02-28 18:00","2020","02","28","18:00","-7.6","","-9.4","","87","","0.0","","1","","15","","16.1","","96.84","","","","-14","","NA"
"-117.16","58.62","HIGH LEVEL A","3073140","2020-02-28 19:00","2020","02","28","19:00","-8.3","","-10.0","","88","","0.0","","1","","18","","16.1","","96.84","","","","-15","","NA"
"-117.16","58.62","HIGH LEVEL A","3073140","2020-02-28 20:00","2020","02","28","20:00","-9.0","","-10.8","","87","","0.0","","35","","11","","16.1","","96.85","","","","-14","","NA"
"-117.16","58.62","HIGH LEVEL A","3073140","2020-02-28 21:00","2020","02","28","21:00","-10.3","","-12.7","","83","","0.0","","35","","11","","16.1","","96.83","","","","-16","","NA"
"-117.16","58.62","HIGH LEVEL A","3073140","2020-02-28 22:00","2020","02","28","22:00","-11.0","","-13.2","","84","","0.0","","36","","18","","16.1","","96.77","","","","-19","","NA"
"-117.16","58.62","HIGH LEVEL A","3073140","2020-02-28 23:00","2020","02","28","23:00","-12.1","","-14.1","","85","","0.0","","1","","21","","16.1","","96.77","","","","-21","","NA"
"-117.16","58.62","HIGH LEVEL A","3073140","2020-02-29 00:00","2020","02","29","00:00","-12.6","","-14.6","","85","","0.0","","36","","21","","16.1","","96.78","","","","-21","","NA"
"-117.16","58.62","HIGH LEVEL A","3073140","2020-02-29 01:00","2020","02","29","01:00","-12.6","","-14.5","","86","","0.0","","35","","21","","16.1","","96.83","","","","-21","","NA"
"-117.16","58.62","HIGH LEVEL A","3073140","2020-02-29 02:00","2020","02","29","02:00","-12.8","","-14.7","","86","","0.0","","35","","22","","16.1","","96.86","","","","-22","","NA"
"-117.16","58.62","HIGH LEVEL A","3073140","2020-02-29 03:00","2020","02","29","03:00","-13.3","","-15.0","","87","","0.0","","34","","28","","16.1","","96.86","","","","-24","","NA"
"-117.16","58.62","HIGH LEVEL A","3073140","2020-02-29 04:00","2020","02","29","04:00","-14.1","","-15.5","","89","","0.0","","35","","30","","16.1","","96.97","","","","-25","","NA"
"-117.16","58.62","HIGH LEVEL A","3073140","2020-02-29 05:00","2020","02","29","05:00","-14.9","","-16.3","","89","","0.0","","35","","24","","16.1","","97.07","","","","-25","","NA"
"-117.16","58.62","HIGH LEVEL A","3073140","2020-02-29 06:00","2020","02","29","06:00","-14.9","","-16.6","","87","","0.0","","35","","24","","16.1","","97.13","","","","-25","","NA"
"-117.16","58.62","HIGH LEVEL A","3073140","2020-02-29 07:00","2020","02","29","07:00","-15.2","","-16.8","","88","","0.0","","35","","26","","16.1","","97.18","","","","-26","","Snow"
"-117.16","58.62","HIGH LEVEL A","3073140","2020-02-29 08:00","2020","02","29","08:00","-15.6","","-18.0","","82","","0.0","","35","","32","","16.1","","97.23","","","","-27","","Snow"
"-117.16","58.62","HIGH LEVEL A","3073140","2020-02-29 09:00","2020","02","29","09:00","-15.8","","-18.4","","81","","0.0","","33","","22","","9.7","","97.36","","","","-26","","Snow"
"-117.16","58.62","HIGH LEVEL A","3073140","2020-02-29 10:00","2020","02","29","10:00","-15.4","","-18.6","","77","","0.0","","35","","21","","16.1","","97.47","","","","-25","","Snow"
"-117.16","58.62","HIGH LEVEL A","3073140","2020-02-29 11:00","2020","02","29","11:00","-15.4","","-19.0","","74","","0.0","","34","","18","","16.1","","97.53","","","","-24","","Snow"
"-117.16","58.62","HIGH LEVEL A","3073140","2020-02-29 12:00","2020","02","29","12:00","-15.3","","-18.9","","74","","0.0","","36","","21","","16.1","","97.60","","","","-25","","Snow"
"-117.16","58.62","HIGH LEVEL A","3073140","2020-02-29 13:00","2020","02","29","13:00","-14.6","","-18.5","","73","","0.0","","34","","24","","16.1","","97.66","","","","-24","","NA"
"-117.16","58.62","HIGH LEVEL A","3073140","2020-02-29 14:00","2020","02","29","14:00","-13.8","","-17.8","","72","","0.0","","32","","9","","16.1","","97.69","","","","-19","","NA"
"-117.16","58.62","HIGH LEVEL A","3073140","2020-02-29 15:00","2020","02","29","15:00","-12.8","","-18.2","","64","","0.0","","33","","17","","16.1","","97.71","","","","-21","","NA"
"-117.16","58.62","HIGH LEVEL A","3073140","2020-02-29 16:00","2020","02","29","16:00","-13.1","","-19.3","","60","","0.0","","33","","17","","16.1","","97.79","","","","-21","","NA"
"-117.16","58.62","HIGH LEVEL A","3073140","2020-02-29 17:00","2020","02","29","17:00","-12.8","","-19.2","","59","","0.0","","30","","15","","16.1","","97.83","","","","-20","","NA"
"-117.16","58.62","HIGH LEVEL A","3073140","2020-02-29 18:00","2020","02","29","18:00","-14.1","","-19.8","","63","","0.0","","31","","8","","16.1","","97.85","","","","-19","","NA"
"-117.16","58.62","HIGH LEVEL A","3073140","2020-02-29 19:00","2020","02","29","19:00","-14.8","","-20.6","","62","","0.0","","31","","8","","16.1","","97.91","","","","-20","","NA"
"-117.16","58.62","HIGH LEVEL A","3073140","2020-02-29 20:00","2020","02","29","20:00","-16.5","","-21.0","","69","","0.0","","24","","5","","16.1","","97.90","","","","-20","","NA"
"-117.16","58.62","HIGH LEVEL A","3073140","2020-02-29 21:00","2020","02","29","21:00","-16.3","","-21.3","","66","","0.0","","32","","8","","16.1","","97.91","","","","-22","","NA"
"-117.16","58.62","HIGH LEVEL A","3073140","2020-02-29 22:00","2020","02","29","22:00","-19.6","","-22.6","","77","","0.0","","3","","8","","16.1","","97.91","","","","-26","","NA"
"-117.16","58.62","HIGH LEVEL A","3073140","2020-02-29 23:00","2020","02","29","23:00","-22.2","","-24.1","","85","","0.0","","22","","4","","16.1","","97.88","","","","-26","","NA"
