"Longitude (x)","Latitude (y)","Station Name","Climate ID","Date/Time (LST)","Year","Month","Day","Time (LST)","Temp (°C)","Temp Flag","Dew Point Temp (°C)","Dew Point Temp Flag","Rel Hum (%)","Rel Hum Flag","Precip. Amount (mm)","Precip. Amount Flag","Wind Dir (10s deg)","Wind Dir Flag","Wind Spd (km/h)","Wind Spd Flag","Visibility (km)","Visibility Flag","Stn Press (kPa)","Stn Press Flag","Hmdx","Hmdx Flag","Wind Chill","Wind Chill Flag","Weather"
"-115.14","67.82","KUGLUKTUK A","2300905","2021-03-01 00:00","2021","03","01","00:00","-31.0","","-36.5","","59","","","M","24","","30","","","M","101.74","","","","-47","","NA"
"-115.14","67.82","KUGLUKTUK A","2300905","2021-03-01 01:00","2021","03","01","01:00","-30.6","","-36.1","","60","","","M","24","","37","","","M","101.73","","","","-48","","NA"
"-115.14","67.82","KUGLUKTUK A","2300905","2021-03-01 02:00","2021","03","01","02:00","-30.2","","-35.4","","61","","","M","23","","34","","","M","101.72","","","","-47","","NA"
"-115.14","67.82","KUGLUKTUK A","2300905","2021-03-01 03:00","2021","03","01","03:00","-29.8","","-35.1","","61","","","M","23","","34","","","M","101.73","","","","-46","","NA"
"-115.14","67.82","KUGLUKTUK A","2300905","2021-03-01 04:00","2021","03","01","04:00","-29.4","","-35.1","","59","","","M","24","","32","","","M","101.73","","","","-45","","NA"
"-115.14","67.82","KUGLUKTUK A","2300905","2021-03-01 05:00","2021","03","01","05:00","-29.8","","-35.1","","61","","","M","24","","37","","","M","101.66","","","","-47","","NA"
"-115.14","67.82","KUGLUKTUK A","2300905","2021-03-01 06:00","2021","03","01","06:00","-30.2","","-35.3","","62","","","M","24","","35","","","M","101.64","","","","-47","","NA"
"-115.14","67.82","KUGLUKTUK A","2300905","2021-03-01 07:00","2021","03","01","07:00","-29.9","","-34.8","","64","","","M","23","","28","","","M","101.60","","","","-45","","NA"
"-115.14","67.82","KUGLUKTUK A","2300905","2021-03-01 08:00","2021","03","01","08:00","-29.6","","-34.3","","65","","","M","25","","34","","","M","101.55","","","","-46","","NA"
"-115.14","67.82","KUGLUKTUK A","2300905","2021-03-01 09:00","2021","03","01","09:00","-29.5","","-33.8","","67","","","M","23","","31","","","M","101.50","","","","-45","","NA"
"-115.14","67.82","KUGLUKTUK A","2300905","2021-03-01 10:00","2021","03","01","10:00","-28.7","","-32.5","","70","","","M","24","","31","","","M","101.49","","","","-44","","NA"
"-115.14","67.82","KUGLUKTUK A","2300905","2021-03-01 11:00","2021","03","01","11:00","-29.2","","-33.3","","68","","","M","24","","27","","","M","101.45","","","","-44","","NA"
"-115.14","67.82","KUGLUKTUK A","2300905","2021-03-01 12:00","2021","03","01","12:00","-28.8","","-32.5","","71","","","M","23","","25","","","M","101.43","","","","-43","","NA"
"-115.14","67.82","KUGLUKTUK A","2300905","2021-03-01 13:00","2021","03","01","13:00","-28.3","","-32.1","","71","","","M","23","","27","","","M","101.42","","","","-43","","NA"
"-115.14","67.82","KUGLUKTUK A","2300905","2021-03-01 14:00","2021","03","01","14:00","-27.6","","-31.5","","70","","","M","24","","27","","","M","101.38","","","","-42","","NA"
"-115.14","67.82","KUGLUKTUK A","2300905","2021-03-01 15:00","2021","03","01","15:00","-27.4","","-31.4","","70","","","M","24","","31","","","M","101.36","","","","-42","","NA"
"-115.14","67.82","KUGLUKTUK A","2300905","2021-03-01 16:00","2021","03","01","16:00","-27.5","","-31.1","","72","","","M","23","","22","","","M","101.35","","","","-40","","NA"
"-115.14","67.82","KUGLUKTUK A","2300905","2021-03-01 17:00","2021","03","01","17:00","-28.6","","-32.3","","71","","","M","24","","21","","","M","101.31","","","","-42","","NA"
"-115.14","67.82","KUGLUKTUK A","2300905","2021-03-01 18:00","2021","03","01","18:00","-29.3","","-32.9","","72","","","M","23","","20","","","M","101.27","","","","-42","","NA"
"-115.14","67.82","KUGLUKTUK A","2300905","2021-03-01 19:00","2021","03","01","19:00","-30.3","","-33.7","","73","","","M","23","","22","","","M","101.21","","","","-44","","NA"
"-115.14","67.82","KUGLUKTUK A","2300905","2021-03-01 20:00","2021","03","01","20:00","-29.7","","-33.1","","73","","","M","23","","22","","","M","101.18","","","","-43","","NA"
"-115.14","67.82","KUGLUKTUK A","2300905","2021-03-01 21:00","2021","03","01","21:00","-29.6","","-32.5","","76","","","M","22","","19","","","M","101.15","","","","-42","","NA"
"-115.14","67.82","KUGLUKTUK A","2300905","2021-03-01 22:00","2021","03","01","22:00","-29.4","","-32.3","","77","","","M","24","","8","","","M","101.14","","","","-37","","NA"
"-115.14","67.82","KUGLUKTUK A","2300905","2021-03-01 23:00","2021","03","01","23:00","-29.6","","-32.6","","76","","","M","28","","5","","","M","101.11","","","","-35","","NA"
"-115.14","67.82","KUGLUKTUK A","2300905","2021-03-02 00:00","2021","03","02","00:00","-30.4","","-33.6","","74","","","M","28","","4","","","M","101.08","","","","-35","","NA"
"-115.14","67.82","KUGLUKTUK A","2300905","2021-03-02 01:00","2021","03","02","01:00","-32.4","","-35.7","","73","","","M","22","","17","","","M","101.06","","","","-45","","NA"
"-115.14","67.82","KUGLUKTUK A","2300905","2021-03-02 02:00","2021","03","02","02:00","-33.5","","-37.0","","72","","","M","21","","19","","","M","101.04","","","","-47","","NA"
"-115.14","67.82","KUGLUKTUK A","2300905","2021-03-02 03:00","2021","03","02","03:00","-33.0","","-36.6","","71","","","M","21","","17","","","M","101.03","","","","-46","","NA"
"-115.14","67.82","KUGLUKTUK A","2300905","2021-03-02 04:00","2021","03","02","04:00","-33.1","","-36.7","","71","","","M","22","","16","","","M","100.97","","","","-46","","NA"
"-115.14","67.82","KUGLUKTUK A","2300905","2021-03-02 05:00","2021","03","02","05:00","-33.1","","-36.8","","71","","","M","31","","4","","","M","100.94","","","","-38","","NA"
"-115.14","67.82","KUGLUKTUK A","2300905","2021-03-02 06:00","2021","03","02","06:00","-34.0","","-37.2","","73","","","M","18","","4","","","M","100.87","","","","-39","","NA"
"-115.14","67.82","KUGLUKTUK A","2300905","2021-03-02 07:00","2021","03","02","07:00","-33.8","","-36.8","","75","","","M","22","","2","","","M","100.82","","","","-36","","NA"
"-115.14","67.82","KUGLUKTUK A","2300905","2021-03-02 08:00","2021","03","02","08:00","-34.0","","-37.2","","74","","","M","23","","5","","","M","100.83","","","","-40","","NA"
"-115.14","67.82","KUGLUKTUK A","2300905","2021-03-02 09:00","2021","03","02","09:00","-34.7","","-38.1","","72","","","M","24","","10","","","M","100.83","","","","-45","","NA"
"-115.14","67.82","KUGLUKTUK A","2300905","2021-03-02 10:00","2021","03","02","10:00","-33.7","","-37.1","","72","","","M","24","","5","","","M","100.83","","","","-40","","NA"
"-115.14","67.82","KUGLUKTUK A","2300905","2021-03-02 11:00","2021","03","02","11:00","-32.2","","-35.5","","73","","","M","12","","3","","","M","100.80","","","","-36","","NA"
"-115.14","67.82","KUGLUKTUK A","2300905","2021-03-02 12:00","2021","03","02","12:00","-31.8","","-35.1","","73","","","M","27","","10","","","M","100.81","","","","-41","","NA"
"-115.14","67.82","KUGLUKTUK A","2300905","2021-03-02 13:00","2021","03","02","13:00","-31.9","","-35.3","","73","","","M","30","","6","","","M","100.80","","","","-39","","NA"
"-115.14","67.82","KUGLUKTUK A","2300905","2021-03-02 14:00","2021","03","02","14:00","-31.1","","-34.4","","73","","","M","0","","1","","","M","100.75","","","","-32","","NA"
"-115.14","67.82","KUGLUKTUK A","2300905","2021-03-02 15:00","2021","03","02","15:00","-30.6","","-33.9","","74","","","M","34","","2","","","M","100.76","","","","-33","","NA"
"-115.14","67.82","KUGLUKTUK A","2300905","2021-03-02 16:00","2021","03","02","16:00","-31.1","","-34.5","","73","","","M","19","","4","","","M","100.80","","","","-36","","NA"
"-115.14","67.82","KUGLUKTUK A","2300905","2021-03-02 17:00","2021","03","02","17:00","-31.5","","-34.8","","73","","","M","29","","4","","","M","100.85","","","","-36","","NA"
"-115.14","67.82","KUGLUKTUK A","2300905","2021-03-02 18:00","2021","03","02","18:00","-32.5","","-35.8","","73","","","M","30","","7","","","M","100.84","","","","-40","","NA"
"-115.14","67.82","KUGLUKTUK A","2300905","2021-03-02 19:00","2021","03","02","19:00","-32.5","","-35.9","","73","","","M","1","","5","","","M","100.88","","","","-38","","NA"
"-115.14","67.82","KUGLUKTUK A","2300905","2021-03-02 20:00","2021","03","02","20:00","-32.1","","-35.5","","73","","","M","7","","11","","","M","100.95","","","","-42","","NA"
"-115.14","67.82","KUGLUKTUK A","2300905","2021-03-02 21:00","2021","03","02","21:00","-32.9","","-36.4","","72","","","M","6","","13","","","M","100.98","","","","-44","","NA"
"-115.14","67.82","KUGLUKTUK A","2300905","2021-03-02 22:00","2021","03","02","22:00","-33.6","","-37.1","","72","","","M","4","","15","","","M","101.01","","","","-46","","NA"
"-115.14","67.82","KUGLUKTUK A","2300905","2021-03-02 23:00","2021","03","02","23:00","-34.1","","-37.6","","72","","","M","5","","14","","","M","101.11","","","","-46","","NA"
"-115.14","67.82","KUGLUKTUK A","2300905","2021-03-03 00:00","2021","03","03","00:00","-34.7","","-38.3","","71","","","M","5","","12","","","M","101.17","","","","-46","","NA"
"-115.14","67.82","KUGLUKTUK A","2300905","2021-03-03 01:00","2021","03","03","01:00","-35.3","","-38.9","","71","","","M","4","","11","","","M","101.24","","","","-46","","NA"
"-115.14","67.82","KUGLUKTUK A","2300905","2021-03-03 02:00","2021","03","03","02:00","-35.9","","-39.5","","70","","","M","3","","10","","","M","101.32","","","","-46","","NA"
"-115.14","67.82","KUGLUKTUK A","2300905","2021-03-03 03:00","2021","03","03","03:00","-36.0","","-39.6","","70","","","M","4","","9","","","M","101.37","","","","-46","","NA"
"-115.14","67.82","KUGLUKTUK A","2300905","2021-03-03 04:00","2021","03","03","04:00","-36.5","","-40.1","","70","","","M","3","","10","","","M","101.47","","","","-47","","NA"
"-115.14","67.82","KUGLUKTUK A","2300905","2021-03-03 05:00","2021","03","03","05:00","-37.2","","-40.9","","70","","","M","32","","5","","","M","101.54","","","","-44","","NA"
"-115.14","67.82","KUGLUKTUK A","2300905","2021-03-03 06:00","2021","03","03","06:00","-37.1","","-40.8","","70","","","M","34","","3","","","M","101.64","","","","-41","","NA"
"-115.14","67.82","KUGLUKTUK A","2300905","2021-03-03 07:00","2021","03","03","07:00","-36.9","","-40.6","","70","","","M","35","","4","","","M","101.73","","","","-42","","NA"
"-115.14","67.82","KUGLUKTUK A","2300905","2021-03-03 08:00","2021","03","03","08:00","-37.8","","-41.5","","69","","","M","29","","7","","","M","101.83","","","","-46","","NA"
"-115.14","67.82","KUGLUKTUK A","2300905","2021-03-03 09:00","2021","03","03","09:00","-38.4","","-42.2","","69","","","M","28","","12","","","M","101.92","","","","-50","","NA"
"-115.14","67.82","KUGLUKTUK A","2300905","2021-03-03 10:00","2021","03","03","10:00","-37.8","","-41.5","","69","","","M","28","","12","","","M","102.01","","","","-50","","NA"
"-115.14","67.82","KUGLUKTUK A","2300905","2021-03-03 11:00","2021","03","03","11:00","-37.4","","-41.1","","69","","","M","27","","10","","","M","102.10","","","","-48","","NA"
"-115.14","67.82","KUGLUKTUK A","2300905","2021-03-03 12:00","2021","03","03","12:00","-37.6","","-41.4","","69","","","M","25","","8","","","M","102.19","","","","-47","","NA"
"-115.14","67.82","KUGLUKTUK A","2300905","2021-03-03 13:00","2021","03","03","13:00","-37.0","","-40.7","","69","","","M","23","","5","","","M","102.29","","","","-44","","NA"
"-115.14","67.82","KUGLUKTUK A","2300905","2021-03-03 14:00","2021","03","03","14:00","-36.5","","-40.2","","69","","","M","25","","3","","","M","102.40","","","","-40","","NA"
"-115.14","67.82","KUGLUKTUK A","2300905","2021-03-03 15:00","2021","03","03","15:00","-36.3","","-40.0","","69","","","M","25","","4","","","M","102.48","","","","-41","","NA"
"-115.14","67.82","KUGLUKTUK A","2300905","2021-03-03 16:00","2021","03","03","16:00","-36.4","","-40.1","","69","","","M","23","","4","","","M","102.61","","","","-42","","NA"
"-115.14","67.82","KUGLUKTUK A","2300905","2021-03-03 17:00","2021","03","03","17:00","-36.6","","-40.3","","69","","","M","35","","3","","","M","102.72","","","","-41","","NA"
"-115.14","67.82","KUGLUKTUK A","2300905","2021-03-03 18:00","2021","03","03","18:00","-36.5","","-40.2","","70","","","M","8","","1","","","M","102.80","","","","-38","","NA"
"-115.14","67.82","KUGLUKTUK A","2300905","2021-03-03 19:00","2021","03","03","19:00","-37.3","","-41.0","","69","","","M","13","","4","","","M","102.90","","","","-43","","NA"
"-115.14","67.82","KUGLUKTUK A","2300905","2021-03-03 20:00","2021","03","03","20:00","-38.1","","-41.9","","69","","","M","15","","4","","","M","102.97","","","","-43","","NA"
"-115.14","67.82","KUGLUKTUK A","2300905","2021-03-03 21:00","2021","03","03","21:00","-38.3","","-42.0","","69","","","M","36","","4","","","M","103.08","","","","-44","","NA"
"-115.14","67.82","KUGLUKTUK A","2300905","2021-03-03 22:00","2021","03","03","22:00","-38.9","","-42.7","","68","","","M","34","","5","","","M","103.14","","","","-46","","NA"
"-115.14","67.82","KUGLUKTUK A","2300905","2021-03-03 23:00","2021","03","03","23:00","-38.1","","-41.8","","69","","","M","36","","2","","","M","103.23","","","","-41","","NA"
"-115.14","67.82","KUGLUKTUK A","2300905","2021-03-04 00:00","2021","03","04","00:00","-38.2","","-42.0","","69","","","M","23","","2","","","M","103.30","","","","-41","","NA"
"-115.14","67.82","KUGLUKTUK A","2300905","2021-03-04 01:00","2021","03","04","01:00","-39.3","","-43.2","","68","","","M","22","","2","","","M","103.38","","","","-42","","NA"
"-115.14","67.82","KUGLUKTUK A","2300905","2021-03-04 02:00","2021","03","04","02:00","-38.9","","-42.6","","68","","","M","32","","1","","","M","103.43","","","","-40","","NA"
"-115.14","67.82","KUGLUKTUK A","2300905","2021-03-04 03:00","2021","03","04","03:00","-39.4","","-43.2","","68","","","M","31","","1","","","M","103.49","","","","-41","","NA"
"-115.14","67.82","KUGLUKTUK A","2300905","2021-03-04 04:00","2021","03","04","04:00","-38.4","","-42.2","","69","","","M","28","","3","","","M","103.56","","","","-42","","NA"
"-115.14","67.82","KUGLUKTUK A","2300905","2021-03-04 05:00","2021","03","04","05:00","-38.4","","-42.1","","69","","","M","34","","2","","","M","103.63","","","","-41","","NA"
"-115.14","67.82","KUGLUKTUK A","2300905","2021-03-04 06:00","2021","03","04","06:00","-39.5","","-43.3","","68","","","M","29","","6","","","M","103.66","","","","-47","","NA"
"-115.14","67.82","KUGLUKTUK A","2300905","2021-03-04 07:00","2021","03","04","07:00","-39.5","","-43.4","","68","","","M","30","","5","","","M","103.70","","","","-46","","NA"
"-115.14","67.82","KUGLUKTUK A","2300905","2021-03-04 08:00","2021","03","04","08:00","-40.1","","-43.9","","68","","","M","35","","1","","","M","103.73","","","","-41","","NA"
"-115.14","67.82","KUGLUKTUK A","2300905","2021-03-04 09:00","2021","03","04","09:00","-39.9","","-43.8","","67","","","M","36","","3","","","M","103.79","","","","-44","","NA"
"-115.14","67.82","KUGLUKTUK A","2300905","2021-03-04 10:00","2021","03","04","10:00","-38.6","","-42.5","","68","","","M","31","","3","","","M","103.81","","","","-43","","NA"
"-115.14","67.82","KUGLUKTUK A","2300905","2021-03-04 11:00","2021","03","04","11:00","-38.2","","-42.1","","68","","","M","0","","1","","","M","103.85","","","","-40","","NA"
"-115.14","67.82","KUGLUKTUK A","2300905","2021-03-04 12:00","2021","03","04","12:00","-38.0","","-41.8","","68","","","M","11","","1","","","M","103.84","","","","-39","","NA"
"-115.14","67.82","KUGLUKTUK A","2300905","2021-03-04 13:00","2021","03","04","13:00","-37.5","","-41.3","","69","","","M","2","","8","","","M","103.81","","","","-47","","NA"
"-115.14","67.82","KUGLUKTUK A","2300905","2021-03-04 14:00","2021","03","04","14:00","-36.0","","-39.8","","69","","","M","2","","8","","","M","103.76","","","","-45","","NA"
"-115.14","67.82","KUGLUKTUK A","2300905","2021-03-04 15:00","2021","03","04","15:00","-34.4","","-38.0","","71","","","M","2","","6","","","M","103.71","","","","-42","","NA"
"-115.14","67.82","KUGLUKTUK A","2300905","2021-03-04 16:00","2021","03","04","16:00","-35.7","","-39.4","","69","","","M","15","","1","","","M","103.66","","","","-37","","NA"
"-115.14","67.82","KUGLUKTUK A","2300905","2021-03-04 17:00","2021","03","04","17:00","-35.8","","-39.5","","70","","","M","13","","14","","","M","103.56","","","","-48","","NA"
"-115.14","67.82","KUGLUKTUK A","2300905","2021-03-04 18:00","2021","03","04","18:00","-27.3","","-30.3","","76","","","M","16","","24","","","M","103.49","","","","-41","","NA"
"-115.14","67.82","KUGLUKTUK A","2300905","2021-03-04 19:00","2021","03","04","19:00","-25.3","","-28.3","","77","","","M","15","","29","","","M","103.41","","","","-39","","NA"
"-115.14","67.82","KUGLUKTUK A","2300905","2021-03-04 20:00","2021","03","04","20:00","-26.9","","-30.2","","74","","","M","10","","23","","","M","103.31","","","","-40","","NA"
"-115.14","67.82","KUGLUKTUK A","2300905","2021-03-04 21:00","2021","03","04","21:00","-26.6","","-30.0","","73","","","M","11","","22","","","M","103.21","","","","-39","","NA"
"-115.14","67.82","KUGLUKTUK A","2300905","2021-03-04 22:00","2021","03","04","22:00","-26.4","","-30.9","","67","","","M","11","","14","","","M","103.10","","","","-37","","NA"
"-115.14","67.82","KUGLUKTUK A","2300905","2021-03-04 23:00","2021","03","04","23:00","-25.3","","-29.5","","69","","","M","19","","4","","","M","102.99","","","","-29","","NA"
"-115.14","67.82","KUGLUKTUK A","2300905","2021-03-05 00:00","2021","03","05","00:00","-21.7","","-26.1","","69","","","M","13","","37","","","M","102.80","","","","-36","","NA"
"-115.14","67.82","KUGLUKTUK A","2300905","2021-03-05 01:00","2021","03","05","01:00","-21.7","","-25.6","","71","","","M","8","","22","","","M","102.66","","","","-33","","NA"
"-115.14","67.82","KUGLUKTUK A","2300905","2021-03-05 02:00","2021","03","05","02:00","-18.7","","-22.7","","71","","","M","15","","48","","","M","102.40","","","","-33","","NA"
"-115.14","67.82","KUGLUKTUK A","2300905","2021-03-05 03:00","2021","03","05","03:00","-19.2","","-22.7","","75","","","M","6","","26","","","M","102.25","","","","-31","","NA"
"-115.14","67.82","KUGLUKTUK A","2300905","2021-03-05 04:00","2021","03","05","04:00","-16.8","","-19.3","","81","","","M","11","","28","","","M","102.09","","","","-28","","NA"
"-115.14","67.82","KUGLUKTUK A","2300905","2021-03-05 05:00","2021","03","05","05:00","-16.2","","-18.4","","84","","","M","13","","9","","","M","102.00","","","","-22","","NA"
"-115.14","67.82","KUGLUKTUK A","2300905","2021-03-05 06:00","2021","03","05","06:00","-16.8","","-19.3","","81","","","M","17","","34","","","M","101.86","","","","-29","","NA"
"-115.14","67.82","KUGLUKTUK A","2300905","2021-03-05 07:00","2021","03","05","07:00","-17.4","","-19.8","","82","","","M","16","","35","","","M","101.67","","","","-30","","NA"
"-115.14","67.82","KUGLUKTUK A","2300905","2021-03-05 08:00","2021","03","05","08:00","-17.4","","-19.8","","82","","","M","16","","25","","","M","101.50","","","","-28","","NA"
"-115.14","67.82","KUGLUKTUK A","2300905","2021-03-05 09:00","2021","03","05","09:00","-16.8","","-19.2","","82","","","M","17","","27","","","M","101.32","","","","-28","","NA"
"-115.14","67.82","KUGLUKTUK A","2300905","2021-03-05 10:00","2021","03","05","10:00","-16.4","","-18.9","","81","","","M","18","","28","","","M","101.20","","","","-28","","NA"
"-115.14","67.82","KUGLUKTUK A","2300905","2021-03-05 11:00","2021","03","05","11:00","-16.4","","-18.8","","82","","","M","19","","30","","","M","101.12","","","","-28","","NA"
"-115.14","67.82","KUGLUKTUK A","2300905","2021-03-05 12:00","2021","03","05","12:00","-15.8","","-18.5","","80","","","M","20","","22","","","M","100.99","","","","-26","","NA"
"-115.14","67.82","KUGLUKTUK A","2300905","2021-03-05 13:00","2021","03","05","13:00","-15.8","","-18.2","","82","","","M","19","","19","","","M","100.87","","","","-25","","NA"
"-115.14","67.82","KUGLUKTUK A","2300905","2021-03-05 14:00","2021","03","05","14:00","-15.4","","-18.0","","80","","","M","20","","16","","","M","100.77","","","","-24","","NA"
"-115.14","67.82","KUGLUKTUK A","2300905","2021-03-05 15:00","2021","03","05","15:00","-15.5","","-17.9","","82","","","M","20","","12","","","M","100.65","","","","-23","","NA"
"-115.14","67.82","KUGLUKTUK A","2300905","2021-03-05 16:00","2021","03","05","16:00","-15.7","","-17.9","","84","","","M","19","","7","","","M","100.50","","","","-21","","NA"
"-115.14","67.82","KUGLUKTUK A","2300905","2021-03-05 17:00","2021","03","05","17:00","-15.6","","-17.7","","84","","","M","11","","5","","","M","100.41","","","","-19","","NA"
"-115.14","67.82","KUGLUKTUK A","2300905","2021-03-05 18:00","2021","03","05","18:00","-15.5","","-17.9","","82","","","M","17","","4","","","M","100.30","","","","-18","","NA"
"-115.14","67.82","KUGLUKTUK A","2300905","2021-03-05 19:00","2021","03","05","19:00","-15.9","","-18.1","","84","","","M","29","","4","","","M","100.20","","","","-19","","NA"
"-115.14","67.82","KUGLUKTUK A","2300905","2021-03-05 20:00","2021","03","05","20:00","-15.8","","-17.8","","85","","","M","27","","6","","","M","100.10","","","","-20","","NA"
"-115.14","67.82","KUGLUKTUK A","2300905","2021-03-05 21:00","2021","03","05","21:00","-16.4","","-18.2","","86","","","M","36","","5","","","M","100.02","","","","-20","","NA"
"-115.14","67.82","KUGLUKTUK A","2300905","2021-03-05 22:00","2021","03","05","22:00","-16.5","","-18.3","","86","","","M","35","","4","","","M","99.92","","","","-20","","NA"
"-115.14","67.82","KUGLUKTUK A","2300905","2021-03-05 23:00","2021","03","05","23:00","-17.0","","-18.8","","86","","","M","33","","6","","","M","99.85","","","","-22","","NA"
"-115.14","67.82","KUGLUKTUK A","2300905","2021-03-06 00:00","2021","03","06","00:00","-17.2","","-19.1","","85","","","M","35","","6","","","M","99.76","","","","-22","","NA"
"-115.14","67.82","KUGLUKTUK A","2300905","2021-03-06 01:00","2021","03","06","01:00","-17.1","","-18.9","","86","","","M","31","","5","","","M","99.71","","","","-21","","NA"
"-115.14","67.82","KUGLUKTUK A","2300905","2021-03-06 02:00","2021","03","06","02:00","-17.1","","-19.0","","86","","","M","29","","2","","","M","99.68","","","","-19","","NA"
"-115.14","67.82","KUGLUKTUK A","2300905","2021-03-06 03:00","2021","03","06","03:00","-16.9","","-18.9","","85","","","M","23","","6","","","M","99.65","","","","-21","","NA"
"-115.14","67.82","KUGLUKTUK A","2300905","2021-03-06 04:00","2021","03","06","04:00","-16.6","","-18.6","","85","","","M","26","","12","","","M","99.61","","","","-24","","NA"
"-115.14","67.82","KUGLUKTUK A","2300905","2021-03-06 05:00","2021","03","06","05:00","-16.7","","-18.7","","84","","","M","26","","15","","","M","99.57","","","","-25","","NA"
"-115.14","67.82","KUGLUKTUK A","2300905","2021-03-06 06:00","2021","03","06","06:00","-16.4","","-18.5","","84","","","M","26","","14","","","M","99.56","","","","-24","","NA"
"-115.14","67.82","KUGLUKTUK A","2300905","2021-03-06 07:00","2021","03","06","07:00","-16.3","","-18.4","","84","","","M","25","","13","","","M","99.56","","","","-24","","NA"
"-115.14","67.82","KUGLUKTUK A","2300905","2021-03-06 08:00","2021","03","06","08:00","-16.1","","-18.2","","84","","","M","25","","12","","","M","99.55","","","","-23","","NA"
"-115.14","67.82","KUGLUKTUK A","2300905","2021-03-06 09:00","2021","03","06","09:00","-17.1","","-19.3","","84","","","M","27","","19","","","M","99.53","","","","-27","","NA"
"-115.14","67.82","KUGLUKTUK A","2300905","2021-03-06 10:00","2021","03","06","10:00","-19.4","","-22.4","","78","","","M","26","","26","","","M","99.55","","","","-31","","NA"
"-115.14","67.82","KUGLUKTUK A","2300905","2021-03-06 11:00","2021","03","06","11:00","-19.8","","-22.9","","77","","","M","26","","23","","","M","99.56","","","","-31","","NA"
"-115.14","67.82","KUGLUKTUK A","2300905","2021-03-06 12:00","2021","03","06","12:00","-20.9","","-24.1","","75","","","M","25","","21","","","M","99.58","","","","-32","","NA"
"-115.14","67.82","KUGLUKTUK A","2300905","2021-03-06 13:00","2021","03","06","13:00","-21.5","","-24.9","","75","","","M","23","","23","","","M","99.63","","","","-33","","NA"
"-115.14","67.82","KUGLUKTUK A","2300905","2021-03-06 14:00","2021","03","06","14:00","-19.8","","-22.6","","78","","","M","25","","14","","","M","99.62","","","","-29","","NA"
"-115.14","67.82","KUGLUKTUK A","2300905","2021-03-06 15:00","2021","03","06","15:00","-18.6","","-21.4","","79","","","M","26","","20","","","M","99.69","","","","-29","","NA"
"-115.14","67.82","KUGLUKTUK A","2300905","2021-03-06 16:00","2021","03","06","16:00","-18.1","","-20.7","","80","","","M","25","","16","","","M","99.74","","","","-27","","NA"
"-115.14","67.82","KUGLUKTUK A","2300905","2021-03-06 17:00","2021","03","06","17:00","-17.8","","-20.5","","80","","","M","26","","20","","","M","99.77","","","","-28","","NA"
"-115.14","67.82","KUGLUKTUK A","2300905","2021-03-06 18:00","2021","03","06","18:00","-18.0","","-20.6","","81","","","M","26","","21","","","M","99.79","","","","-28","","NA"
"-115.14","67.82","KUGLUKTUK A","2300905","2021-03-06 19:00","2021","03","06","19:00","-17.9","","-20.6","","80","","","M","26","","23","","","M","99.84","","","","-29","","NA"
"-115.14","67.82","KUGLUKTUK A","2300905","2021-03-06 20:00","2021","03","06","20:00","-18.4","","-21.0","","81","","","M","26","","21","","","M","99.87","","","","-29","","NA"
"-115.14","67.82","KUGLUKTUK A","2300905","2021-03-06 21:00","2021","03","06","21:00","-18.9","","-21.5","","80","","","M","27","","18","","","M","99.94","","","","-29","","NA"
"-115.14","67.82","KUGLUKTUK A","2300905","2021-03-06 22:00","2021","03","06","22:00","-19.2","","-22.2","","77","","","M","29","","16","","","M","99.95","","","","-28","","NA"
"-115.14","67.82","KUGLUKTUK A","2300905","2021-03-06 23:00","2021","03","06","23:00","-19.1","","-22.1","","78","","","M","28","","16","","","M","99.99","","","","-28","","NA"
"-115.14","67.82","KUGLUKTUK A","2300905","2021-03-07 00:00","2021","03","07","00:00","-19.2","","-22.3","","77","","","M","27","","15","","","M","100.06","","","","-28","","NA"
"-115.14","67.82","KUGLUKTUK A","2300905","2021-03-07 01:00","2021","03","07","01:00","-19.1","","-22.2","","77","","","M","27","","17","","","M","100.09","","","","-29","","NA"
"-115.14","67.82","KUGLUKTUK A","2300905","2021-03-07 02:00","2021","03","07","02:00","-18.7","","-21.6","","78","","","M","26","","14","","","M","100.15","","","","-27","","NA"
"-115.14","67.82","KUGLUKTUK A","2300905","2021-03-07 03:00","2021","03","07","03:00","-18.7","","-21.2","","81","","","M","26","","18","","","M","100.19","","","","-28","","NA"
"-115.14","67.82","KUGLUKTUK A","2300905","2021-03-07 04:00","2021","03","07","04:00","-18.8","","-21.2","","81","","","M","26","","20","","","M","100.21","","","","-29","","NA"
"-115.14","67.82","KUGLUKTUK A","2300905","2021-03-07 05:00","2021","03","07","05:00","-19.0","","-21.7","","80","","","M","27","","21","","","M","100.23","","","","-29","","NA"
"-115.14","67.82","KUGLUKTUK A","2300905","2021-03-07 06:00","2021","03","07","06:00","-19.0","","-21.9","","79","","","M","26","","21","","","M","100.25","","","","-29","","NA"
"-115.14","67.82","KUGLUKTUK A","2300905","2021-03-07 07:00","2021","03","07","07:00","-18.9","","-21.4","","80","","","M","26","","24","","","M","100.26","","","","-30","","NA"
"-115.14","67.82","KUGLUKTUK A","2300905","2021-03-07 08:00","2021","03","07","08:00","-19.0","","-21.5","","81","","","M","28","","19","","","M","100.29","","","","-29","","NA"
"-115.14","67.82","KUGLUKTUK A","2300905","2021-03-07 09:00","2021","03","07","09:00","-19.0","","-21.5","","81","","","M","28","","17","","","M","100.33","","","","-28","","NA"
"-115.14","67.82","KUGLUKTUK A","2300905","2021-03-07 10:00","2021","03","07","10:00","-19.2","","-21.8","","81","","","M","28","","12","","","M","100.36","","","","-27","","NA"
"-115.14","67.82","KUGLUKTUK A","2300905","2021-03-07 11:00","2021","03","07","11:00","-19.2","","-21.8","","80","","","M","28","","14","","","M","100.41","","","","-28","","NA"
"-115.14","67.82","KUGLUKTUK A","2300905","2021-03-07 12:00","2021","03","07","12:00","-19.0","","-21.9","","78","","","M","25","","14","","","M","100.46","","","","-28","","NA"
"-115.14","67.82","KUGLUKTUK A","2300905","2021-03-07 13:00","2021","03","07","13:00","-18.8","","-21.7","","78","","","M","28","","14","","","M","100.49","","","","-27","","NA"
"-115.14","67.82","KUGLUKTUK A","2300905","2021-03-07 14:00","2021","03","07","14:00","-18.9","","-21.8","","78","","","M","27","","13","","","M","100.53","","","","-27","","NA"
"-115.14","67.82","KUGLUKTUK A","2300905","2021-03-07 15:00","2021","03","07","15:00","-19.1","","-22.3","","76","","","M","29","","14","","","M","100.58","","","","-28","","NA"
"-115.14","67.82","KUGLUKTUK A","2300905","2021-03-07 16:00","2021","03","07","16:00","-19.6","","-23.0","","75","","","M","31","","19","","","M","100.64","","","","-30","","NA"
"-115.14","67.82","KUGLUKTUK A","2300905","2021-03-07 17:00","2021","03","07","17:00","-20.9","","-23.7","","79","","","M","27","","26","","","M","100.67","","","","-33","","NA"
"-115.14","67.82","KUGLUKTUK A","2300905","2021-03-07 18:00","2021","03","07","18:00","-22.7","","-25.5","","78","","","M","27","","39","","","M","100.71","","","","-38","","NA"
"-115.14","67.82","KUGLUKTUK A","2300905","2021-03-07 19:00","2021","03","07","19:00","-24.4","","-27.5","","76","","","M","26","","35","","","M","100.78","","","","-39","","NA"
"-115.14","67.82","KUGLUKTUK A","2300905","2021-03-07 20:00","2021","03","07","20:00","-25.4","","-28.6","","75","","","M","25","","39","","","M","100.83","","","","-41","","NA"
"-115.14","67.82","KUGLUKTUK A","2300905","2021-03-07 21:00","2021","03","07","21:00","-25.0","","-28.3","","75","","","M","25","","37","","","M","100.84","","","","-40","","NA"
"-115.14","67.82","KUGLUKTUK A","2300905","2021-03-07 22:00","2021","03","07","22:00","-24.7","","-27.8","","76","","","M","26","","35","","","M","100.86","","","","-40","","NA"
"-115.14","67.82","KUGLUKTUK A","2300905","2021-03-07 23:00","2021","03","07","23:00","-23.8","","-26.9","","77","","","M","27","","34","","","M","100.89","","","","-38","","NA"
"-115.14","67.82","KUGLUKTUK A","2300905","2021-03-08 00:00","2021","03","08","00:00","-23.5","","-26.5","","77","","","M","26","","26","","","M","100.92","","","","-36","","NA"
"-115.14","67.82","KUGLUKTUK A","2300905","2021-03-08 01:00","2021","03","08","01:00","-22.0","","-25.2","","76","","","M","28","","36","","","M","100.97","","","","-36","","NA"
"-115.14","67.82","KUGLUKTUK A","2300905","2021-03-08 02:00","2021","03","08","02:00","-22.4","","-25.6","","76","","","M","28","","33","","","M","101.03","","","","-36","","NA"
"-115.14","67.82","KUGLUKTUK A","2300905","2021-03-08 03:00","2021","03","08","03:00","-22.5","","-25.5","","77","","","M","29","","36","","","M","101.08","","","","-37","","NA"
"-115.14","67.82","KUGLUKTUK A","2300905","2021-03-08 04:00","2021","03","08","04:00","-22.6","","-25.8","","76","","","M","28","","38","","","M","101.13","","","","-37","","NA"
"-115.14","67.82","KUGLUKTUK A","2300905","2021-03-08 05:00","2021","03","08","05:00","-22.9","","-26.3","","74","","","M","28","","33","","","M","101.18","","","","-37","","NA"
"-115.14","67.82","KUGLUKTUK A","2300905","2021-03-08 06:00","2021","03","08","06:00","-23.4","","-26.9","","74","","","M","28","","32","","","M","101.19","","","","-37","","NA"
"-115.14","67.82","KUGLUKTUK A","2300905","2021-03-08 07:00","2021","03","08","07:00","-23.7","","-27.3","","73","","","M","27","","28","","","M","101.22","","","","-37","","NA"
"-115.14","67.82","KUGLUKTUK A","2300905","2021-03-08 08:00","2021","03","08","08:00","-24.0","","-27.4","","73","","","M","26","","27","","","M","101.27","","","","-37","","NA"
"-115.14","67.82","KUGLUKTUK A","2300905","2021-03-08 09:00","2021","03","08","09:00","-24.1","","-27.2","","76","","","M","27","","31","","","M","101.25","","","","-38","","NA"
"-115.14","67.82","KUGLUKTUK A","2300905","2021-03-08 10:00","2021","03","08","10:00","-23.4","","-26.6","","76","","","M","30","","25","","","M","101.32","","","","-36","","NA"
"-115.14","67.82","KUGLUKTUK A","2300905","2021-03-08 11:00","2021","03","08","11:00","-23.4","","-26.8","","74","","","M","30","","26","","","M","101.36","","","","-36","","NA"
"-115.14","67.82","KUGLUKTUK A","2300905","2021-03-08 12:00","2021","03","08","12:00","-23.4","","-26.8","","74","","","M","30","","27","","","M","101.39","","","","-36","","NA"
"-115.14","67.82","KUGLUKTUK A","2300905","2021-03-08 13:00","2021","03","08","13:00","-23.8","","-27.0","","75","","","M","30","","27","","","M","101.43","","","","-37","","NA"
"-115.14","67.82","KUGLUKTUK A","2300905","2021-03-08 14:00","2021","03","08","14:00","-24.1","","-27.5","","74","","","M","30","","16","","","M","101.49","","","","-34","","NA"
"-115.14","67.82","KUGLUKTUK A","2300905","2021-03-08 15:00","2021","03","08","15:00","-24.1","","-27.7","","73","","","M","31","","22","","","M","101.50","","","","-36","","NA"
"-115.14","67.82","KUGLUKTUK A","2300905","2021-03-08 16:00","2021","03","08","16:00","-24.3","","-27.8","","73","","","M","31","","21","","","M","101.55","","","","-36","","NA"
"-115.14","67.82","KUGLUKTUK A","2300905","2021-03-08 17:00","2021","03","08","17:00","-24.5","","-27.6","","76","","","M","31","","27","","","M","101.57","","","","-38","","NA"
"-115.14","67.82","KUGLUKTUK A","2300905","2021-03-08 18:00","2021","03","08","18:00","-24.4","","-27.5","","76","","","M","31","","17","","","M","101.60","","","","-35","","NA"
"-115.14","67.82","KUGLUKTUK A","2300905","2021-03-08 19:00","2021","03","08","19:00","-24.5","","-27.6","","76","","","M","29","","11","","","M","101.63","","","","-33","","NA"
"-115.14","67.82","KUGLUKTUK A","2300905","2021-03-08 20:00","2021","03","08","20:00","-24.8","","-27.9","","76","","","M","32","","21","","","M","101.63","","","","-37","","NA"
"-115.14","67.82","KUGLUKTUK A","2300905","2021-03-08 21:00","2021","03","08","21:00","-25.7","","-28.7","","76","","","M","29","","17","","","M","101.64","","","","-37","","NA"
"-115.14","67.82","KUGLUKTUK A","2300905","2021-03-08 22:00","2021","03","08","22:00","-25.7","","-28.7","","76","","","M","29","","12","","","M","101.64","","","","-35","","NA"
"-115.14","67.82","KUGLUKTUK A","2300905","2021-03-08 23:00","2021","03","08","23:00","-25.4","","-28.6","","75","","","M","30","","28","","","M","101.62","","","","-39","","NA"
"-115.14","67.82","KUGLUKTUK A","2300905","2021-03-09 00:00","2021","03","09","00:00","-25.5","","-28.9","","73","","","M","30","","22","","","M","101.64","","","","-38","","NA"
"-115.14","67.82","KUGLUKTUK A","2300905","2021-03-09 01:00","2021","03","09","01:00","-26.0","","-29.3","","74","","","M","31","","22","","","M","101.64","","","","-39","","NA"
"-115.14","67.82","KUGLUKTUK A","2300905","2021-03-09 02:00","2021","03","09","02:00","-26.6","","-29.7","","75","","","M","31","","23","","","M","101.70","","","","-40","","NA"
"-115.14","67.82","KUGLUKTUK A","2300905","2021-03-09 03:00","2021","03","09","03:00","-26.9","","-29.9","","76","","","M","29","","25","","","M","101.70","","","","-40","","NA"
"-115.14","67.82","KUGLUKTUK A","2300905","2021-03-09 04:00","2021","03","09","04:00","-27.4","","-30.5","","75","","","M","29","","25","","","M","101.76","","","","-41","","NA"
"-115.14","67.82","KUGLUKTUK A","2300905","2021-03-09 05:00","2021","03","09","05:00","-28.0","","-31.4","","73","","","M","27","","22","","","M","101.75","","","","-41","","NA"
"-115.14","67.82","KUGLUKTUK A","2300905","2021-03-09 06:00","2021","03","09","06:00","-28.4","","-32.0","","72","","","M","27","","27","","","M","101.75","","","","-43","","NA"
"-115.14","67.82","KUGLUKTUK A","2300905","2021-03-09 07:00","2021","03","09","07:00","-28.5","","-32.0","","72","","","M","27","","30","","","M","101.75","","","","-44","","NA"
"-115.14","67.82","KUGLUKTUK A","2300905","2021-03-09 08:00","2021","03","09","08:00","-28.9","","-32.3","","73","","","M","26","","29","","","M","101.76","","","","-44","","NA"
"-115.14","67.82","KUGLUKTUK A","2300905","2021-03-09 09:00","2021","03","09","09:00","-29.5","","-32.9","","73","","","M","26","","30","","","M","101.81","","","","-45","","NA"
"-115.14","67.82","KUGLUKTUK A","2300905","2021-03-09 10:00","2021","03","09","10:00","-28.7","","-32.3","","72","","","M","26","","25","","","M","101.85","","","","-43","","NA"
"-115.14","67.82","KUGLUKTUK A","2300905","2021-03-09 11:00","2021","03","09","11:00","-28.3","","-32.0","","71","","","M","25","","26","","","M","101.88","","","","-43","","NA"
"-115.14","67.82","KUGLUKTUK A","2300905","2021-03-09 12:00","2021","03","09","12:00","-27.8","","-31.5","","71","","","M","25","","22","","","M","101.92","","","","-41","","NA"
"-115.14","67.82","KUGLUKTUK A","2300905","2021-03-09 13:00","2021","03","09","13:00","-27.3","","-31.1","","71","","","M","25","","25","","","M","101.92","","","","-41","","NA"
"-115.14","67.82","KUGLUKTUK A","2300905","2021-03-09 14:00","2021","03","09","14:00","-26.9","","-30.7","","71","","","M","26","","30","","","M","101.97","","","","-42","","NA"
"-115.14","67.82","KUGLUKTUK A","2300905","2021-03-09 15:00","2021","03","09","15:00","-26.7","","-30.6","","70","","","M","26","","29","","","M","102.00","","","","-41","","NA"
"-115.14","67.82","KUGLUKTUK A","2300905","2021-03-09 16:00","2021","03","09","16:00","-27.0","","-30.9","","70","","","M","25","","28","","","M","101.99","","","","-41","","NA"
"-115.14","67.82","KUGLUKTUK A","2300905","2021-03-09 17:00","2021","03","09","17:00","-26.9","","-30.8","","71","","","M","26","","29","","","M","101.97","","","","-41","","NA"
"-115.14","67.82","KUGLUKTUK A","2300905","2021-03-09 18:00","2021","03","09","18:00","-27.5","","-31.2","","71","","","M","26","","29","","","M","101.98","","","","-42","","NA"
"-115.14","67.82","KUGLUKTUK A","2300905","2021-03-09 19:00","2021","03","09","19:00","-28.5","","-32.1","","72","","","M","25","","31","","","M","101.94","","","","-44","","NA"
"-115.14","67.82","KUGLUKTUK A","2300905","2021-03-09 20:00","2021","03","09","20:00","-29.8","","-33.4","","72","","","M","23","","25","","","M","101.92","","","","-44","","NA"
"-115.14","67.82","KUGLUKTUK A","2300905","2021-03-09 21:00","2021","03","09","21:00","-29.8","","-33.4","","71","","","M","23","","28","","","M","101.87","","","","-45","","NA"
"-115.14","67.82","KUGLUKTUK A","2300905","2021-03-09 22:00","2021","03","09","22:00","-30.1","","-33.7","","71","","","M","23","","34","","","M","101.82","","","","-47","","NA"
"-115.14","67.82","KUGLUKTUK A","2300905","2021-03-09 23:00","2021","03","09","23:00","-29.9","","-33.6","","71","","","M","23","","31","","","M","101.80","","","","-46","","NA"
"-115.14","67.82","KUGLUKTUK A","2300905","2021-03-10 00:00","2021","03","10","00:00","-30.0","","-33.7","","71","","","M","23","","35","","","M","101.76","","","","-47","","NA"
"-115.14","67.82","KUGLUKTUK A","2300905","2021-03-10 01:00","2021","03","10","01:00","-28.5","","-32.1","","72","","","M","24","","35","","","M","101.79","","","","-45","","NA"
"-115.14","67.82","KUGLUKTUK A","2300905","2021-03-10 02:00","2021","03","10","02:00","-28.8","","-32.2","","73","","","M","24","","34","","","M","101.77","","","","-45","","NA"
"-115.14","67.82","KUGLUKTUK A","2300905","2021-03-10 03:00","2021","03","10","03:00","-29.1","","-32.5","","73","","","M","24","","33","","","M","101.77","","","","-45","","NA"
"-115.14","67.82","KUGLUKTUK A","2300905","2021-03-10 04:00","2021","03","10","04:00","-28.3","","-31.7","","73","","","M","24","","40","","","M","101.75","","","","-45","","NA"
"-115.14","67.82","KUGLUKTUK A","2300905","2021-03-10 05:00","2021","03","10","05:00","-28.1","","-31.6","","73","","","M","24","","35","","","M","101.76","","","","-44","","NA"
"-115.14","67.82","KUGLUKTUK A","2300905","2021-03-10 06:00","2021","03","10","06:00","-26.7","","-29.9","","75","","","M","26","","37","","","M","101.74","","","","-43","","NA"
"-115.14","67.82","KUGLUKTUK A","2300905","2021-03-10 07:00","2021","03","10","07:00","-28.1","","-31.7","","72","","","M","25","","26","","","M","101.77","","","","-42","","NA"
"-115.14","67.82","KUGLUKTUK A","2300905","2021-03-10 08:00","2021","03","10","08:00","-27.2","","-30.7","","73","","","M","26","","28","","","M","101.79","","","","-42","","NA"
"-115.14","67.82","KUGLUKTUK A","2300905","2021-03-10 09:00","2021","03","10","09:00","-28.0","","-31.5","","72","","","M","24","","31","","","M","101.75","","","","-43","","NA"
"-115.14","67.82","KUGLUKTUK A","2300905","2021-03-10 10:00","2021","03","10","10:00","-27.2","","-31.1","","70","","","M","24","","27","","","M","101.75","","","","-41","","NA"
"-115.14","67.82","KUGLUKTUK A","2300905","2021-03-10 11:00","2021","03","10","11:00","-26.0","","-30.1","","70","","","M","23","","21","","","M","101.73","","","","-38","","NA"
"-115.14","67.82","KUGLUKTUK A","2300905","2021-03-10 12:00","2021","03","10","12:00","-25.8","","-29.9","","69","","","M","23","","29","","","M","101.68","","","","-40","","NA"
"-115.14","67.82","KUGLUKTUK A","2300905","2021-03-10 13:00","2021","03","10","13:00","-25.2","","-29.3","","69","","","M","22","","24","","","M","101.67","","","","-38","","NA"
"-115.14","67.82","KUGLUKTUK A","2300905","2021-03-10 14:00","2021","03","10","14:00","-24.4","","-28.5","","69","","","M","22","","23","","","M","101.67","","","","-37","","NA"
"-115.14","67.82","KUGLUKTUK A","2300905","2021-03-10 15:00","2021","03","10","15:00","-23.4","","-27.6","","69","","","M","24","","25","","","M","101.68","","","","-36","","NA"
"-115.14","67.82","KUGLUKTUK A","2300905","2021-03-10 16:00","2021","03","10","16:00","-24.9","","-28.9","","70","","","M","22","","18","","","M","101.65","","","","-36","","NA"
"-115.14","67.82","KUGLUKTUK A","2300905","2021-03-10 17:00","2021","03","10","17:00","-25.6","","-29.5","","70","","","M","22","","19","","","M","101.61","","","","-37","","NA"
"-115.14","67.82","KUGLUKTUK A","2300905","2021-03-10 18:00","2021","03","10","18:00","-25.0","","-28.9","","70","","","M","21","","25","","","M","101.53","","","","-38","","NA"
"-115.14","67.82","KUGLUKTUK A","2300905","2021-03-10 19:00","2021","03","10","19:00","-26.5","","-30.4","","70","","","M","22","","22","","","M","101.49","","","","-39","","NA"
"-115.14","67.82","KUGLUKTUK A","2300905","2021-03-10 20:00","2021","03","10","20:00","-26.7","","-30.3","","72","","","M","22","","25","","","M","101.46","","","","-40","","NA"
"-115.14","67.82","KUGLUKTUK A","2300905","2021-03-10 21:00","2021","03","10","21:00","-26.8","","-30.5","","71","","","M","22","","27","","","M","101.41","","","","-41","","NA"
"-115.14","67.82","KUGLUKTUK A","2300905","2021-03-10 22:00","2021","03","10","22:00","-26.7","","-30.4","","71","","","M","22","","27","","","M","101.35","","","","-41","","NA"
"-115.14","67.82","KUGLUKTUK A","2300905","2021-03-10 23:00","2021","03","10","23:00","-26.5","","-30.2","","71","","","M","23","","26","","","M","101.30","","","","-40","","NA"
"-115.14","67.82","KUGLUKTUK A","2300905","2021-03-11 00:00","2021","03","11","00:00","-25.7","","-29.7","","70","","","M","23","","23","","","M","101.25","","","","-38","","NA"
"-115.14","67.82","KUGLUKTUK A","2300905","2021-03-11 01:00","2021","03","11","01:00","-24.9","","-29.1","","69","","","M","23","","11","","","M","101.24","","","","-34","","NA"
"-115.14","67.82","KUGLUKTUK A","2300905","2021-03-11 02:00","2021","03","11","02:00","-24.0","","-28.0","","70","","","M","24","","19","","","M","101.25","","","","-35","","NA"
"-115.14","67.82","KUGLUKTUK A","2300905","2021-03-11 03:00","2021","03","11","03:00","-24.6","","-28.7","","70","","","M","23","","19","","","M","101.18","","","","-36","","NA"
"-115.14","67.82","KUGLUKTUK A","2300905","2021-03-11 04:00","2021","03","11","04:00","-24.4","","-28.5","","69","","","M","25","","12","","","M","101.13","","","","-33","","NA"
"-115.14","67.82","KUGLUKTUK A","2300905","2021-03-11 05:00","2021","03","11","05:00","-26.6","","-30.1","","73","","","M","31","","8","","","M","101.12","","","","-34","","NA"
"-115.14","67.82","KUGLUKTUK A","2300905","2021-03-11 06:00","2021","03","11","06:00","-23.5","","-28.0","","67","","","M","21","","7","","","M","101.07","","","","-30","","NA"
"-115.14","67.82","KUGLUKTUK A","2300905","2021-03-11 07:00","2021","03","11","07:00","-23.9","","-28.3","","68","","","M","24","","10","","","M","101.00","","","","-32","","NA"
"-115.14","67.82","KUGLUKTUK A","2300905","2021-03-11 08:00","2021","03","11","08:00","-22.8","","-27.5","","67","","","M","24","","10","","","M","100.92","","","","-31","","NA"
"-115.14","67.82","KUGLUKTUK A","2300905","2021-03-11 09:00","2021","03","11","09:00","-26.0","","-29.6","","72","","","M","34","","5","","","M","100.89","","","","-31","","NA"
"-115.14","67.82","KUGLUKTUK A","2300905","2021-03-11 10:00","2021","03","11","10:00","-25.2","","-29.1","","71","","","M","10","","4","","","M","100.84","","","","-29","","NA"
"-115.14","67.82","KUGLUKTUK A","2300905","2021-03-11 11:00","2021","03","11","11:00","-24.0","","-28.1","","69","","","M","36","","4","","","M","100.79","","","","-28","","NA"
"-115.14","67.82","KUGLUKTUK A","2300905","2021-03-11 12:00","2021","03","11","12:00","-24.5","","-28.3","","71","","","M","1","","6","","","M","100.74","","","","-30","","NA"
"-115.14","67.82","KUGLUKTUK A","2300905","2021-03-11 13:00","2021","03","11","13:00","-23.6","","-27.3","","73","","","M","35","","7","","","M","100.71","","","","-30","","NA"
"-115.14","67.82","KUGLUKTUK A","2300905","2021-03-11 14:00","2021","03","11","14:00","-21.9","","-25.3","","75","","","M","34","","9","","","M","100.73","","","","-29","","NA"
"-115.14","67.82","KUGLUKTUK A","2300905","2021-03-11 15:00","2021","03","11","15:00","-22.5","","-25.8","","75","","","M","36","","7","","","M","100.73","","","","-29","","NA"
"-115.14","67.82","KUGLUKTUK A","2300905","2021-03-11 16:00","2021","03","11","16:00","-22.6","","-25.9","","75","","","M","35","","4","","","M","100.68","","","","-26","","NA"
"-115.14","67.82","KUGLUKTUK A","2300905","2021-03-11 17:00","2021","03","11","17:00","-22.8","","-25.7","","78","","","M","31","","5","","","M","100.65","","","","-27","","NA"
"-115.14","67.82","KUGLUKTUK A","2300905","2021-03-11 18:00","2021","03","11","18:00","-22.4","","-25.2","","78","","","M","36","","6","","","M","100.60","","","","-28","","NA"
"-115.14","67.82","KUGLUKTUK A","2300905","2021-03-11 19:00","2021","03","11","19:00","-19.8","","-24.3","","68","","","M","11","","13","","","M","100.57","","","","-28","","NA"
"-115.14","67.82","KUGLUKTUK A","2300905","2021-03-11 20:00","2021","03","11","20:00","-19.9","","-24.2","","69","","","M","8","","18","","","M","100.58","","","","-30","","NA"
"-115.14","67.82","KUGLUKTUK A","2300905","2021-03-11 21:00","2021","03","11","21:00","-18.7","","-23.8","","65","","","M","8","","27","","","M","100.58","","","","-30","","NA"
"-115.14","67.82","KUGLUKTUK A","2300905","2021-03-11 22:00","2021","03","11","22:00","-19.2","","-23.7","","68","","","M","8","","24","","","M","100.62","","","","-30","","NA"
"-115.14","67.82","KUGLUKTUK A","2300905","2021-03-11 23:00","2021","03","11","23:00","-20.0","","-23.1","","77","","","M","4","","14","","","M","100.67","","","","-29","","NA"
"-115.14","67.82","KUGLUKTUK A","2300905","2021-03-12 00:00","2021","03","12","00:00","-21.1","","-24.1","","77","","","M","4","","19","","","M","100.73","","","","-32","","NA"
"-115.14","67.82","KUGLUKTUK A","2300905","2021-03-12 01:00","2021","03","12","01:00","-22.3","","-25.2","","77","","","M","4","","18","","","M","100.81","","","","-33","","NA"
"-115.14","67.82","KUGLUKTUK A","2300905","2021-03-12 02:00","2021","03","12","02:00","-22.9","","-25.8","","77","","","M","5","","15","","","M","100.88","","","","-33","","NA"
"-115.14","67.82","KUGLUKTUK A","2300905","2021-03-12 03:00","2021","03","12","03:00","-24.2","","-27.2","","77","","","M","4","","24","","","M","100.96","","","","-37","","NA"
"-115.14","67.82","KUGLUKTUK A","2300905","2021-03-12 04:00","2021","03","12","04:00","-24.9","","-28.0","","76","","","M","4","","22","","","M","101.05","","","","-37","","NA"
"-115.14","67.82","KUGLUKTUK A","2300905","2021-03-12 05:00","2021","03","12","05:00","-25.3","","-28.6","","75","","","M","4","","23","","","M","101.17","","","","-38","","NA"
"-115.14","67.82","KUGLUKTUK A","2300905","2021-03-12 06:00","2021","03","12","06:00","-25.5","","-28.8","","75","","","M","4","","16","","","M","101.24","","","","-36","","NA"
"-115.14","67.82","KUGLUKTUK A","2300905","2021-03-12 07:00","2021","03","12","07:00","-26.2","","-29.4","","76","","","M","3","","18","","","M","101.34","","","","-38","","NA"
"-115.14","67.82","KUGLUKTUK A","2300905","2021-03-12 08:00","2021","03","12","08:00","-26.4","","-29.7","","75","","","M","3","","20","","","M","101.46","","","","-39","","NA"
"-115.14","67.82","KUGLUKTUK A","2300905","2021-03-12 09:00","2021","03","12","09:00","-27.2","","-30.5","","74","","","M","3","","15","","","M","101.58","","","","-38","","NA"
"-115.14","67.82","KUGLUKTUK A","2300905","2021-03-12 10:00","2021","03","12","10:00","-27.3","","-30.7","","73","","","M","4","","16","","","M","101.70","","","","-38","","NA"
"-115.14","67.82","KUGLUKTUK A","2300905","2021-03-12 11:00","2021","03","12","11:00","-26.8","","-30.6","","71","","","M","6","","13","","","M","101.83","","","","-37","","NA"
"-115.14","67.82","KUGLUKTUK A","2300905","2021-03-12 12:00","2021","03","12","12:00","-26.8","","-30.8","","70","","","M","6","","11","","","M","101.96","","","","-36","","NA"
"-115.14","67.82","KUGLUKTUK A","2300905","2021-03-12 13:00","2021","03","12","13:00","-26.7","","-30.6","","70","","","M","5","","11","","","M","102.11","","","","-36","","NA"
"-115.14","67.82","KUGLUKTUK A","2300905","2021-03-12 14:00","2021","03","12","14:00","-26.5","","-30.5","","70","","","M","3","","7","","","M","102.25","","","","-33","","NA"
"-115.14","67.82","KUGLUKTUK A","2300905","2021-03-12 15:00","2021","03","12","15:00","-26.2","","-30.1","","71","","","M","","","0","","","M","102.38","","","","","","NA"
"-115.14","67.82","KUGLUKTUK A","2300905","2021-03-12 16:00","2021","03","12","16:00","-27.0","","-30.7","","72","","","M","20","","7","","","M","102.51","","","","-34","","NA"
"-115.14","67.82","KUGLUKTUK A","2300905","2021-03-12 17:00","2021","03","12","17:00","-26.5","","-30.4","","70","","","M","0","","1","","","M","102.63","","","","-28","","NA"
"-115.14","67.82","KUGLUKTUK A","2300905","2021-03-12 18:00","2021","03","12","18:00","-26.6","","-30.0","","74","","","M","6","","3","","","M","102.74","","","","-30","","NA"
"-115.14","67.82","KUGLUKTUK A","2300905","2021-03-12 19:00","2021","03","12","19:00","-27.2","","-30.2","","76","","","M","20","","1","","","M","102.83","","","","-28","","NA"
"-115.14","67.82","KUGLUKTUK A","2300905","2021-03-12 20:00","2021","03","12","20:00","-29.1","","-32.0","","77","","","M","29","","7","","","M","102.95","","","","-36","","NA"
"-115.14","67.82","KUGLUKTUK A","2300905","2021-03-12 21:00","2021","03","12","21:00","-28.9","","-31.6","","78","","","M","29","","8","","","M","103.05","","","","-37","","NA"
"-115.14","67.82","KUGLUKTUK A","2300905","2021-03-12 22:00","2021","03","12","22:00","-31.6","","-34.6","","76","","","M","23","","5","","","M","103.13","","","","-37","","NA"
"-115.14","67.82","KUGLUKTUK A","2300905","2021-03-12 23:00","2021","03","12","23:00","-29.4","","-32.2","","77","","","M","24","","4","","","M","103.19","","","","-34","","NA"
"-115.14","67.82","KUGLUKTUK A","2300905","2021-03-13 00:00","2021","03","13","00:00","-31.0","","-33.8","","77","","","M","25","","12","","","M","103.28","","","","-41","","NA"
"-115.14","67.82","KUGLUKTUK A","2300905","2021-03-13 01:00","2021","03","13","01:00","-30.4","","-33.2","","77","","","M","26","","12","","","M","103.37","","","","-41","","NA"
"-115.14","67.82","KUGLUKTUK A","2300905","2021-03-13 02:00","2021","03","13","02:00","-31.1","","-34.1","","75","","","M","22","","17","","","M","103.43","","","","-44","","NA"
"-115.14","67.82","KUGLUKTUK A","2300905","2021-03-13 03:00","2021","03","13","03:00","-30.9","","-34.0","","75","","","M","22","","18","","","M","103.47","","","","-44","","NA"
"-115.14","67.82","KUGLUKTUK A","2300905","2021-03-13 04:00","2021","03","13","04:00","-30.5","","-33.6","","75","","","M","21","","14","","","M","103.53","","","","-42","","NA"
"-115.14","67.82","KUGLUKTUK A","2300905","2021-03-13 05:00","2021","03","13","05:00","-31.3","","-34.5","","74","","","M","21","","13","","","M","103.57","","","","-42","","NA"
"-115.14","67.82","KUGLUKTUK A","2300905","2021-03-13 06:00","2021","03","13","06:00","-30.6","","-33.8","","74","","","M","22","","19","","","M","103.59","","","","-44","","NA"
"-115.14","67.82","KUGLUKTUK A","2300905","2021-03-13 07:00","2021","03","13","07:00","-30.6","","-33.8","","74","","","M","22","","17","","","M","103.59","","","","-43","","NA"
"-115.14","67.82","KUGLUKTUK A","2300905","2021-03-13 08:00","2021","03","13","08:00","-29.8","","-33.0","","74","","","M","24","","5","","","M","103.60","","","","-35","","NA"
"-115.14","67.82","KUGLUKTUK A","2300905","2021-03-13 09:00","2021","03","13","09:00","-30.6","","-33.8","","74","","","M","26","","4","","","M","103.65","","","","-35","","NA"
"-115.14","67.82","KUGLUKTUK A","2300905","2021-03-13 10:00","2021","03","13","10:00","-29.5","","-32.8","","74","","","M","20","","9","","","M","103.66","","","","-38","","NA"
"-115.14","67.82","KUGLUKTUK A","2300905","2021-03-13 11:00","2021","03","13","11:00","-29.2","","-32.6","","74","","","M","32","","5","","","M","103.66","","","","-35","","NA"
"-115.14","67.82","KUGLUKTUK A","2300905","2021-03-13 12:00","2021","03","13","12:00","-28.2","","-31.9","","71","","","M","34","","3","","","M","103.66","","","","-31","","NA"
"-115.14","67.82","KUGLUKTUK A","2300905","2021-03-13 13:00","2021","03","13","13:00","-27.6","","-31.6","","69","","","M","34","","3","","","M","103.67","","","","-31","","NA"
"-115.14","67.82","KUGLUKTUK A","2300905","2021-03-13 14:00","2021","03","13","14:00","-27.8","","-31.7","","70","","","M","1","","3","","","M","103.64","","","","-31","","NA"
"-115.14","67.82","KUGLUKTUK A","2300905","2021-03-13 15:00","2021","03","13","15:00","-27.4","","-31.0","","72","","","M","12","","4","","","M","103.58","","","","-32","","NA"
"-115.14","67.82","KUGLUKTUK A","2300905","2021-03-13 16:00","2021","03","13","16:00","-27.0","","-30.7","","71","","","M","33","","5","","","M","103.52","","","","-32","","NA"
"-115.14","67.82","KUGLUKTUK A","2300905","2021-03-13 17:00","2021","03","13","17:00","-26.6","","-30.3","","72","","","M","35","","5","","","M","103.50","","","","-32","","NA"
"-115.14","67.82","KUGLUKTUK A","2300905","2021-03-13 18:00","2021","03","13","18:00","-27.1","","-30.4","","74","","","M","36","","4","","","M","103.48","","","","-31","","NA"
"-115.14","67.82","KUGLUKTUK A","2300905","2021-03-13 19:00","2021","03","13","19:00","-28.4","","-31.5","","75","","","M","20","","5","","","M","103.44","","","","-34","","NA"
"-115.14","67.82","KUGLUKTUK A","2300905","2021-03-13 20:00","2021","03","13","20:00","-27.9","","-30.7","","77","","","M","20","","1","","","M","103.39","","","","-29","","NA"
"-115.14","67.82","KUGLUKTUK A","2300905","2021-03-13 21:00","2021","03","13","21:00","-29.3","","-32.1","","78","","","M","30","","5","","","M","103.35","","","","-35","","NA"
"-115.14","67.82","KUGLUKTUK A","2300905","2021-03-13 22:00","2021","03","13","22:00","-30.0","","-32.6","","78","","","M","0","","1","","","M","103.33","","","","-31","","NA"
"-115.14","67.82","KUGLUKTUK A","2300905","2021-03-13 23:00","2021","03","13","23:00","-29.9","","-32.7","","78","","","M","30","","9","","","M","103.30","","","","-38","","NA"
"-115.14","67.82","KUGLUKTUK A","2300905","2021-03-14 00:00","2021","03","14","00:00","-30.7","","-33.5","","77","","","M","32","","1","","","M","103.22","","","","-32","","NA"
"-115.14","67.82","KUGLUKTUK A","2300905","2021-03-14 01:00","2021","03","14","01:00","-31.1","","-33.7","","79","","","M","21","","9","","","M","103.17","","","","-40","","NA"
"-115.14","67.82","KUGLUKTUK A","2300905","2021-03-14 02:00","2021","03","14","02:00","-34.3","","-37.4","","74","","","M","34","","9","","","M","103.13","","","","-44","","NA"
"-115.14","67.82","KUGLUKTUK A","2300905","2021-03-14 03:00","2021","03","14","03:00","-32.8","","-35.6","","77","","","M","24","","5","","","M","103.11","","","","-39","","NA"
"-115.14","67.82","KUGLUKTUK A","2300905","2021-03-14 04:00","2021","03","14","04:00","-33.0","","-35.9","","76","","","M","16","","3","","","M","103.05","","","","-37","","NA"
"-115.14","67.82","KUGLUKTUK A","2300905","2021-03-14 05:00","2021","03","14","05:00","-31.0","","-33.9","","76","","","M","35","","3","","","M","103.02","","","","-34","","NA"
"-115.14","67.82","KUGLUKTUK A","2300905","2021-03-14 06:00","2021","03","14","06:00","-33.7","","-37.0","","73","","","M","33","","8","","","M","102.92","","","","-42","","NA"
"-115.14","67.82","KUGLUKTUK A","2300905","2021-03-14 07:00","2021","03","14","07:00","-32.1","","-35.1","","75","","","M","1","","4","","","M","102.89","","","","-37","","NA"
"-115.14","67.82","KUGLUKTUK A","2300905","2021-03-14 08:00","2021","03","14","08:00","-32.4","","-35.6","","74","","","M","4","","7","","","M","102.80","","","","-40","","NA"
"-115.14","67.82","KUGLUKTUK A","2300905","2021-03-14 09:00","2021","03","14","09:00","-31.4","","-34.6","","74","","","M","1","","5","","","M","102.76","","","","-37","","NA"
"-115.14","67.82","KUGLUKTUK A","2300905","2021-03-14 10:00","2021","03","14","10:00","-29.6","","-32.8","","74","","","M","4","","10","","","M","102.71","","","","-39","","NA"
"-115.14","67.82","KUGLUKTUK A","2300905","2021-03-14 11:00","2021","03","14","11:00","-29.1","","-32.3","","75","","","M","3","","15","","","M","102.59","","","","-40","","NA"
"-115.14","67.82","KUGLUKTUK A","2300905","2021-03-14 12:00","2021","03","14","12:00","-28.8","","-31.9","","75","","","M","5","","12","","","M","102.52","","","","-39","","NA"
"-115.14","67.82","KUGLUKTUK A","2300905","2021-03-14 13:00","2021","03","14","13:00","-27.1","","-30.1","","76","","","M","4","","14","","","M","102.43","","","","-37","","NA"
"-115.14","67.82","KUGLUKTUK A","2300905","2021-03-14 14:00","2021","03","14","14:00","-26.4","","-29.4","","76","","","M","5","","13","","","M","102.38","","","","-36","","NA"
"-115.14","67.82","KUGLUKTUK A","2300905","2021-03-14 15:00","2021","03","14","15:00","-25.3","","-28.2","","77","","","M","6","","10","","","M","102.26","","","","-34","","NA"
"-115.14","67.82","KUGLUKTUK A","2300905","2021-03-14 16:00","2021","03","14","16:00","-22.4","","-25.0","","80","","","M","7","","18","","","M","102.12","","","","-33","","NA"
"-115.14","67.82","KUGLUKTUK A","2300905","2021-03-14 17:00","2021","03","14","17:00","-21.3","","-23.8","","80","","","M","7","","30","","","M","102.04","","","","-34","","NA"
"-115.14","67.82","KUGLUKTUK A","2300905","2021-03-14 18:00","2021","03","14","18:00","-21.2","","-23.7","","81","","","M","7","","36","","","M","101.92","","","","-35","","NA"
"-115.14","67.82","KUGLUKTUK A","2300905","2021-03-14 19:00","2021","03","14","19:00","-20.9","","-23.3","","81","","","M","8","","44","","","M","101.82","","","","-36","","NA"
"-115.14","67.82","KUGLUKTUK A","2300905","2021-03-14 20:00","2021","03","14","20:00","-20.5","","-22.9","","81","","","M","8","","49","","","M","101.73","","","","-36","","NA"
"-115.14","67.82","KUGLUKTUK A","2300905","2021-03-14 21:00","2021","03","14","21:00","-20.2","","-22.6","","81","","","M","8","","48","","","M","101.69","","","","-35","","NA"
"-115.14","67.82","KUGLUKTUK A","2300905","2021-03-14 22:00","2021","03","14","22:00","-19.9","","-22.2","","82","","","M","8","","48","","","M","101.60","","","","-35","","NA"
"-115.14","67.82","KUGLUKTUK A","2300905","2021-03-14 23:00","2021","03","14","23:00","-19.9","","-22.2","","82","","","M","8","","57","","","M","101.52","","","","-36","","NA"
"-115.14","67.82","KUGLUKTUK A","2300905","2021-03-15 00:00","2021","03","15","00:00","-19.7","","-22.0","","82","","","M","9","","53","","","M","101.40","","","","-35","","NA"
"-115.14","67.82","KUGLUKTUK A","2300905","2021-03-15 01:00","2021","03","15","01:00","-19.6","","-21.9","","82","","","M","8","","54","","","M","101.28","","","","-35","","NA"
"-115.14","67.82","KUGLUKTUK A","2300905","2021-03-15 02:00","2021","03","15","02:00","-19.4","","-21.8","","82","","","M","8","","47","","","M","101.18","","","","-34","","NA"
"-115.14","67.82","KUGLUKTUK A","2300905","2021-03-15 03:00","2021","03","15","03:00","-19.5","","-21.9","","82","","","M","9","","52","","","M","101.07","","","","-35","","NA"
"-115.14","67.82","KUGLUKTUK A","2300905","2021-03-15 04:00","2021","03","15","04:00","-19.1","","-21.4","","82","","","M","9","","52","","","M","101.01","","","","-34","","NA"
"-115.14","67.82","KUGLUKTUK A","2300905","2021-03-15 05:00","2021","03","15","05:00","-18.6","","-20.9","","83","","","M","9","","59","","","M","100.89","","","","-34","","NA"
"-115.14","67.82","KUGLUKTUK A","2300905","2021-03-15 06:00","2021","03","15","06:00","-18.2","","-20.4","","83","","","M","9","","48","","","M","100.89","","","","-33","","NA"
"-115.14","67.82","KUGLUKTUK A","2300905","2021-03-15 07:00","2021","03","15","07:00","-18.1","","-20.2","","83","","","M","9","","45","","","M","100.82","","","","-32","","NA"
"-115.14","67.82","KUGLUKTUK A","2300905","2021-03-15 08:00","2021","03","15","08:00","-17.6","","-19.6","","84","","","M","9","","44","","","M","100.75","","","","-31","","NA"
"-115.14","67.82","KUGLUKTUK A","2300905","2021-03-15 09:00","2021","03","15","09:00","-16.9","","-19.0","","84","","","M","10","","35","","","M","100.71","","","","-29","","NA"
"-115.14","67.82","KUGLUKTUK A","2300905","2021-03-15 10:00","2021","03","15","10:00","-15.9","","-18.1","","83","","","M","11","","40","","","M","100.65","","","","-29","","NA"
"-115.14","67.82","KUGLUKTUK A","2300905","2021-03-15 11:00","2021","03","15","11:00","-15.8","","-18.1","","83","","","M","11","","31","","","M","100.60","","","","-27","","NA"
"-115.14","67.82","KUGLUKTUK A","2300905","2021-03-15 12:00","2021","03","15","12:00","-15.7","","-18.0","","83","","","M","11","","26","","","M","100.57","","","","-26","","NA"
"-115.14","67.82","KUGLUKTUK A","2300905","2021-03-15 13:00","2021","03","15","13:00","-15.6","","-17.9","","83","","","M","10","","26","","","M","100.52","","","","-26","","NA"
"-115.14","67.82","KUGLUKTUK A","2300905","2021-03-15 14:00","2021","03","15","14:00","-15.6","","-17.9","","83","","","M","10","","30","","","M","100.48","","","","-27","","NA"
"-115.14","67.82","KUGLUKTUK A","2300905","2021-03-15 15:00","2021","03","15","15:00","-15.6","","-17.9","","83","","","M","10","","23","","","M","100.45","","","","-26","","NA"
"-115.14","67.82","KUGLUKTUK A","2300905","2021-03-15 16:00","2021","03","15","16:00","-16.0","","-18.4","","82","","","M","8","","27","","","M","100.44","","","","-27","","NA"
"-115.14","67.82","KUGLUKTUK A","2300905","2021-03-15 17:00","2021","03","15","17:00","-17.2","","-19.3","","84","","","M","9","","28","","","M","100.46","","","","-29","","NA"
"-115.14","67.82","KUGLUKTUK A","2300905","2021-03-15 18:00","2021","03","15","18:00","-18.2","","-20.4","","83","","","M","9","","27","","","M","100.46","","","","-30","","NA"
"-115.14","67.82","KUGLUKTUK A","2300905","2021-03-15 19:00","2021","03","15","19:00","-18.8","","-21.1","","83","","","M","9","","26","","","M","100.47","","","","-30","","NA"
"-115.14","67.82","KUGLUKTUK A","2300905","2021-03-15 20:00","2021","03","15","20:00","-19.1","","-21.6","","81","","","M","9","","18","","","M","100.51","","","","-29","","NA"
"-115.14","67.82","KUGLUKTUK A","2300905","2021-03-15 21:00","2021","03","15","21:00","-19.5","","-21.9","","81","","","M","8","","21","","","M","100.52","","","","-30","","NA"
"-115.14","67.82","KUGLUKTUK A","2300905","2021-03-15 22:00","2021","03","15","22:00","-19.6","","-22.1","","81","","","M","8","","19","","","M","100.53","","","","-30","","NA"
"-115.14","67.82","KUGLUKTUK A","2300905","2021-03-15 23:00","2021","03","15","23:00","-19.8","","-22.2","","82","","","M","2","","21","","","M","100.61","","","","-30","","NA"
"-115.14","67.82","KUGLUKTUK A","2300905","2021-03-16 00:00","2021","03","16","00:00","-20.1","","-22.7","","81","","","M","3","","24","","","M","100.66","","","","-32","","NA"
"-115.14","67.82","KUGLUKTUK A","2300905","2021-03-16 01:00","2021","03","16","01:00","-21.0","","-23.5","","81","","","M","3","","19","","","M","100.72","","","","-31","","NA"
"-115.14","67.82","KUGLUKTUK A","2300905","2021-03-16 02:00","2021","03","16","02:00","-22.1","","-24.6","","80","","","M","36","","8","","","M","100.78","","","","-29","","NA"
"-115.14","67.82","KUGLUKTUK A","2300905","2021-03-16 03:00","2021","03","16","03:00","-23.1","","-25.5","","81","","","M","32","","15","","","M","100.85","","","","-33","","NA"
"-115.14","67.82","KUGLUKTUK A","2300905","2021-03-16 04:00","2021","03","16","04:00","-23.5","","-25.9","","82","","","M","29","","6","","","M","100.85","","","","-29","","NA"
"-115.14","67.82","KUGLUKTUK A","2300905","2021-03-16 05:00","2021","03","16","05:00","-24.9","","-27.3","","80","","","M","28","","11","","","M","100.92","","","","-34","","NA"
"-115.14","67.82","KUGLUKTUK A","2300905","2021-03-16 06:00","2021","03","16","06:00","-24.8","","-27.3","","80","","","M","29","","8","","","M","100.95","","","","-32","","NA"
"-115.14","67.82","KUGLUKTUK A","2300905","2021-03-16 07:00","2021","03","16","07:00","-25.8","","-28.4","","79","","","M","25","","11","","","M","101.01","","","","-35","","NA"
"-115.14","67.82","KUGLUKTUK A","2300905","2021-03-16 08:00","2021","03","16","08:00","-26.9","","-29.6","","78","","","M","23","","17","","","M","101.05","","","","-38","","NA"
"-115.14","67.82","KUGLUKTUK A","2300905","2021-03-16 09:00","2021","03","16","09:00","-27.5","","-30.4","","77","","","M","23","","25","","","M","101.11","","","","-41","","NA"
"-115.14","67.82","KUGLUKTUK A","2300905","2021-03-16 10:00","2021","03","16","10:00","-27.4","","-30.5","","76","","","M","23","","22","","","M","101.18","","","","-40","","NA"
"-115.14","67.82","KUGLUKTUK A","2300905","2021-03-16 11:00","2021","03","16","11:00","-26.6","","-29.8","","75","","","M","22","","21","","","M","101.22","","","","-39","","NA"
"-115.14","67.82","KUGLUKTUK A","2300905","2021-03-16 12:00","2021","03","16","12:00","-25.5","","-28.9","","73","","","M","22","","16","","","M","101.25","","","","-36","","NA"
"-115.14","67.82","KUGLUKTUK A","2300905","2021-03-16 13:00","2021","03","16","13:00","-24.4","","-27.9","","73","","","M","23","","23","","","M","101.23","","","","-37","","NA"
"-115.14","67.82","KUGLUKTUK A","2300905","2021-03-16 14:00","2021","03","16","14:00","-24.1","","-27.6","","74","","","M","23","","16","","","M","101.25","","","","-34","","NA"
"-115.14","67.82","KUGLUKTUK A","2300905","2021-03-16 15:00","2021","03","16","15:00","-24.3","","-27.7","","74","","","M","24","","23","","","M","101.26","","","","-37","","NA"
"-115.14","67.82","KUGLUKTUK A","2300905","2021-03-16 16:00","2021","03","16","16:00","-24.6","","-27.9","","75","","","M","24","","23","","","M","101.29","","","","-37","","NA"
"-115.14","67.82","KUGLUKTUK A","2300905","2021-03-16 17:00","2021","03","16","17:00","-25.6","","-28.9","","74","","","M","23","","19","","","M","101.30","","","","-37","","NA"
"-115.14","67.82","KUGLUKTUK A","2300905","2021-03-16 18:00","2021","03","16","18:00","-25.7","","-28.8","","76","","","M","23","","15","","","M","101.26","","","","-36","","NA"
"-115.14","67.82","KUGLUKTUK A","2300905","2021-03-16 19:00","2021","03","16","19:00","-26.5","","-29.6","","76","","","M","23","","14","","","M","101.27","","","","-37","","NA"
"-115.14","67.82","KUGLUKTUK A","2300905","2021-03-16 20:00","2021","03","16","20:00","-26.3","","-29.3","","76","","","M","24","","18","","","M","101.25","","","","-38","","NA"
"-115.14","67.82","KUGLUKTUK A","2300905","2021-03-16 21:00","2021","03","16","21:00","-26.7","","-29.7","","76","","","M","22","","21","","","M","101.23","","","","-39","","NA"
"-115.14","67.82","KUGLUKTUK A","2300905","2021-03-16 22:00","2021","03","16","22:00","-26.9","","-30.0","","75","","","M","22","","20","","","M","101.22","","","","-39","","NA"
"-115.14","67.82","KUGLUKTUK A","2300905","2021-03-16 23:00","2021","03","16","23:00","-27.3","","-30.5","","75","","","M","23","","20","","","M","101.20","","","","-40","","NA"
"-115.14","67.82","KUGLUKTUK A","2300905","2021-03-17 00:00","2021","03","17","00:00","-27.0","","-30.4","","73","","","M","23","","21","","","M","101.23","","","","-40","","NA"
"-115.14","67.82","KUGLUKTUK A","2300905","2021-03-17 01:00","2021","03","17","01:00","-28.2","","-31.5","","74","","","M","22","","21","","","M","101.20","","","","-41","","NA"
"-115.14","67.82","KUGLUKTUK A","2300905","2021-03-17 02:00","2021","03","17","02:00","-28.4","","-31.5","","75","","","M","23","","23","","","M","101.18","","","","-42","","NA"
"-115.14","67.82","KUGLUKTUK A","2300905","2021-03-17 03:00","2021","03","17","03:00","-28.2","","-31.6","","73","","","M","23","","28","","","M","101.18","","","","-43","","NA"
"-115.14","67.82","KUGLUKTUK A","2300905","2021-03-17 04:00","2021","03","17","04:00","-28.3","","-31.6","","74","","","M","23","","26","","","M","101.20","","","","-43","","NA"
"-115.14","67.82","KUGLUKTUK A","2300905","2021-03-17 05:00","2021","03","17","05:00","-28.5","","-32.0","","73","","","M","22","","20","","","M","101.20","","","","-41","","NA"
"-115.14","67.82","KUGLUKTUK A","2300905","2021-03-17 06:00","2021","03","17","06:00","-28.5","","-32.0","","73","","","M","22","","21","","","M","101.20","","","","-41","","NA"
"-115.14","67.82","KUGLUKTUK A","2300905","2021-03-17 07:00","2021","03","17","07:00","-29.2","","-32.6","","73","","","M","23","","24","","","M","101.16","","","","-43","","NA"
"-115.14","67.82","KUGLUKTUK A","2300905","2021-03-17 08:00","2021","03","17","08:00","-27.7","","-31.3","","72","","","M","23","","27","","","M","101.19","","","","-42","","NA"
"-115.14","67.82","KUGLUKTUK A","2300905","2021-03-17 09:00","2021","03","17","09:00","-26.5","","-30.3","","71","","","M","23","","29","","","M","101.17","","","","-41","","NA"
"-115.14","67.82","KUGLUKTUK A","2300905","2021-03-17 10:00","2021","03","17","10:00","-25.8","","-29.8","","70","","","M","23","","22","","","M","101.20","","","","-38","","NA"
"-115.14","67.82","KUGLUKTUK A","2300905","2021-03-17 11:00","2021","03","17","11:00","-25.1","","-29.1","","70","","","M","22","","16","","","M","101.20","","","","-36","","NA"
"-115.14","67.82","KUGLUKTUK A","2300905","2021-03-17 12:00","2021","03","17","12:00","-23.6","","-27.8","","69","","","M","24","","26","","","M","101.16","","","","-36","","NA"
"-115.14","67.82","KUGLUKTUK A","2300905","2021-03-17 13:00","2021","03","17","13:00","-23.5","","-27.6","","70","","","M","23","","18","","","M","101.14","","","","-34","","NA"
"-115.14","67.82","KUGLUKTUK A","2300905","2021-03-17 14:00","2021","03","17","14:00","-22.3","","-26.5","","70","","","M","24","","26","","","M","101.13","","","","-35","","NA"
"-115.14","67.82","KUGLUKTUK A","2300905","2021-03-17 15:00","2021","03","17","15:00","-22.3","","-26.5","","69","","","M","23","","23","","","M","101.10","","","","-34","","NA"
"-115.14","67.82","KUGLUKTUK A","2300905","2021-03-17 16:00","2021","03","17","16:00","-22.2","","-26.4","","69","","","M","23","","19","","","M","101.04","","","","-33","","NA"
"-115.14","67.82","KUGLUKTUK A","2300905","2021-03-17 17:00","2021","03","17","17:00","-22.8","","-27.0","","69","","","M","22","","24","","","M","100.99","","","","-35","","NA"
"-115.14","67.82","KUGLUKTUK A","2300905","2021-03-17 18:00","2021","03","17","18:00","-25.0","","-28.8","","72","","","M","22","","18","","","M","100.93","","","","-36","","NA"
"-115.14","67.82","KUGLUKTUK A","2300905","2021-03-17 19:00","2021","03","17","19:00","-25.3","","-28.9","","73","","","M","22","","24","","","M","100.83","","","","-38","","NA"
"-115.14","67.82","KUGLUKTUK A","2300905","2021-03-17 20:00","2021","03","17","20:00","-25.0","","-28.9","","70","","","M","23","","28","","","M","100.78","","","","-39","","NA"
"-115.14","67.82","KUGLUKTUK A","2300905","2021-03-17 21:00","2021","03","17","21:00","-25.7","","-29.2","","73","","","M","23","","20","","","M","100.71","","","","-38","","NA"
"-115.14","67.82","KUGLUKTUK A","2300905","2021-03-17 22:00","2021","03","17","22:00","-24.9","","-28.5","","72","","","M","24","","19","","","M","100.66","","","","-36","","NA"
"-115.14","67.82","KUGLUKTUK A","2300905","2021-03-17 23:00","2021","03","17","23:00","-24.3","","-28.7","","68","","","M","23","","21","","","M","100.57","","","","-36","","NA"
"-115.14","67.82","KUGLUKTUK A","2300905","2021-03-18 00:00","2021","03","18","00:00","-25.6","","-29.8","","69","","","M","24","","17","","","M","100.53","","","","-37","","NA"
"-115.14","67.82","KUGLUKTUK A","2300905","2021-03-18 01:00","2021","03","18","01:00","-25.9","","-29.2","","74","","","M","28","","12","","","M","100.49","","","","-35","","NA"
"-115.14","67.82","KUGLUKTUK A","2300905","2021-03-18 02:00","2021","03","18","02:00","-27.5","","-30.4","","77","","","M","18","","9","","","M","100.43","","","","-36","","NA"
"-115.14","67.82","KUGLUKTUK A","2300905","2021-03-18 03:00","2021","03","18","03:00","-27.1","","-30.3","","75","","","M","22","","15","","","M","100.37","","","","-38","","NA"
"-115.14","67.82","KUGLUKTUK A","2300905","2021-03-18 04:00","2021","03","18","04:00","-24.2","","-27.4","","75","","","M","30","","8","","","M","100.39","","","","-31","","NA"
"-115.14","67.82","KUGLUKTUK A","2300905","2021-03-18 05:00","2021","03","18","05:00","-25.9","","-28.9","","76","","","M","22","","5","","","M","100.38","","","","-31","","NA"
"-115.14","67.82","KUGLUKTUK A","2300905","2021-03-18 06:00","2021","03","18","06:00","-26.4","","-29.7","","74","","","M","24","","5","","","M","100.39","","","","-32","","NA"
"-115.14","67.82","KUGLUKTUK A","2300905","2021-03-18 07:00","2021","03","18","07:00","-29.4","","-32.3","","76","","","M","23","","24","","","M","100.37","","","","-43","","NA"
"-115.14","67.82","KUGLUKTUK A","2300905","2021-03-18 08:00","2021","03","18","08:00","-27.4","","-30.6","","75","","","M","24","","21","","","M","100.41","","","","-40","","NA"
"-115.14","67.82","KUGLUKTUK A","2300905","2021-03-18 09:00","2021","03","18","09:00","-27.4","","-30.9","","73","","","M","24","","9","","","M","100.48","","","","-36","","NA"
"-115.14","67.82","KUGLUKTUK A","2300905","2021-03-18 10:00","2021","03","18","10:00","-26.8","","-30.2","","73","","","M","23","","9","","","M","100.51","","","","-35","","NA"
"-115.14","67.82","KUGLUKTUK A","2300905","2021-03-18 11:00","2021","03","18","11:00","-26.9","","-30.7","","71","","","M","22","","14","","","M","100.54","","","","-37","","NA"
"-115.14","67.82","KUGLUKTUK A","2300905","2021-03-18 12:00","2021","03","18","12:00","-25.4","","-29.1","","72","","","M","21","","9","","","M","100.56","","","","-33","","NA"
"-115.14","67.82","KUGLUKTUK A","2300905","2021-03-18 13:00","2021","03","18","13:00","-24.4","","-28.5","","70","","","M","23","","19","","","M","100.59","","","","-36","","NA"
"-115.14","67.82","KUGLUKTUK A","2300905","2021-03-18 14:00","2021","03","18","14:00","-23.6","","-27.7","","70","","","M","23","","22","","","M","100.62","","","","-36","","NA"
"-115.14","67.82","KUGLUKTUK A","2300905","2021-03-18 15:00","2021","03","18","15:00","-22.7","","-26.8","","70","","","M","22","","19","","","M","100.67","","","","-34","","NA"
"-115.14","67.82","KUGLUKTUK A","2300905","2021-03-18 16:00","2021","03","18","16:00","-22.5","","-26.9","","68","","","M","27","","3","","","M","100.67","","","","-25","","NA"
"-115.14","67.82","KUGLUKTUK A","2300905","2021-03-18 17:00","2021","03","18","17:00","-23.8","","-27.4","","72","","","M","23","","3","","","M","100.73","","","","-27","","NA"
"-115.14","67.82","KUGLUKTUK A","2300905","2021-03-18 18:00","2021","03","18","18:00","-23.4","","-27.0","","73","","","M","22","","19","","","M","100.75","","","","-34","","NA"
"-115.14","67.82","KUGLUKTUK A","2300905","2021-03-18 19:00","2021","03","18","19:00","-23.0","","-27.0","","70","","","M","23","","17","","","M","100.80","","","","-33","","NA"
"-115.14","67.82","KUGLUKTUK A","2300905","2021-03-18 20:00","2021","03","18","20:00","-23.6","","-27.8","","69","","","M","26","","9","","","M","100.86","","","","-31","","NA"
"-115.14","67.82","KUGLUKTUK A","2300905","2021-03-18 21:00","2021","03","18","21:00","-25.2","","-28.6","","74","","","M","22","","14","","","M","100.85","","","","-35","","NA"
"-115.14","67.82","KUGLUKTUK A","2300905","2021-03-18 22:00","2021","03","18","22:00","-26.5","","-29.6","","76","","","M","25","","3","","","M","100.91","","","","-30","","NA"
"-115.14","67.82","KUGLUKTUK A","2300905","2021-03-18 23:00","2021","03","18","23:00","-27.2","","-30.3","","75","","","M","29","","5","","","M","100.95","","","","-32","","NA"
"-115.14","67.82","KUGLUKTUK A","2300905","2021-03-19 00:00","2021","03","19","00:00","-26.1","","-29.2","","76","","","M","23","","10","","","M","101.04","","","","-34","","NA"
"-115.14","67.82","KUGLUKTUK A","2300905","2021-03-19 01:00","2021","03","19","01:00","-28.6","","-31.8","","75","","","M","33","","3","","","M","101.08","","","","-32","","NA"
"-115.14","67.82","KUGLUKTUK A","2300905","2021-03-19 02:00","2021","03","19","02:00","-27.9","","-30.8","","77","","","M","28","","7","","","M","101.14","","","","-35","","NA"
"-115.14","67.82","KUGLUKTUK A","2300905","2021-03-19 03:00","2021","03","19","03:00","-29.6","","-32.4","","77","","","M","21","","9","","","M","101.18","","","","-38","","NA"
"-115.14","67.82","KUGLUKTUK A","2300905","2021-03-19 04:00","2021","03","19","04:00","-28.6","","-31.6","","76","","","M","19","","2","","","M","101.19","","","","-31","","NA"
"-115.14","67.82","KUGLUKTUK A","2300905","2021-03-19 05:00","2021","03","19","05:00","-29.4","","-32.3","","77","","","M","22","","3","","","M","101.22","","","","-33","","NA"
"-115.14","67.82","KUGLUKTUK A","2300905","2021-03-19 06:00","2021","03","19","06:00","-28.5","","-31.2","","78","","","M","23","","9","","","M","101.25","","","","-37","","NA"
"-115.14","67.82","KUGLUKTUK A","2300905","2021-03-19 07:00","2021","03","19","07:00","-31.0","","-34.1","","75","","","M","27","","3","","","M","101.28","","","","-34","","NA"
"-115.14","67.82","KUGLUKTUK A","2300905","2021-03-19 08:00","2021","03","19","08:00","-31.6","","-34.6","","76","","","M","34","","9","","","M","101.32","","","","-40","","NA"
"-115.14","67.82","KUGLUKTUK A","2300905","2021-03-19 09:00","2021","03","19","09:00","-29.9","","-32.8","","77","","","M","22","","9","","","M","101.40","","","","-38","","NA"
"-115.14","67.82","KUGLUKTUK A","2300905","2021-03-19 10:00","2021","03","19","10:00","-28.0","","-31.1","","76","","","M","22","","7","","","M","101.40","","","","-35","","NA"
"-115.14","67.82","KUGLUKTUK A","2300905","2021-03-19 11:00","2021","03","19","11:00","-28.1","","-31.3","","74","","","M","36","","4","","","M","101.40","","","","-32","","NA"
"-115.14","67.82","KUGLUKTUK A","2300905","2021-03-19 12:00","2021","03","19","12:00","-26.7","","-29.9","","75","","","M","33","","7","","","M","101.42","","","","-33","","NA"
"-115.14","67.82","KUGLUKTUK A","2300905","2021-03-19 13:00","2021","03","19","13:00","-26.5","","-30.1","","73","","","M","27","","8","","","M","101.41","","","","-34","","NA"
"-115.14","67.82","KUGLUKTUK A","2300905","2021-03-19 14:00","2021","03","19","14:00","-25.1","","-28.6","","73","","","M","22","","4","","","M","101.42","","","","-29","","NA"
"-115.14","67.82","KUGLUKTUK A","2300905","2021-03-19 15:00","2021","03","19","15:00","-25.4","","-29.3","","70","","","M","33","","3","","","M","101.40","","","","-28","","NA"
"-115.14","67.82","KUGLUKTUK A","2300905","2021-03-19 16:00","2021","03","19","16:00","-25.4","","-29.0","","73","","","M","2","","4","","","M","101.40","","","","-29","","NA"
"-115.14","67.82","KUGLUKTUK A","2300905","2021-03-19 17:00","2021","03","19","17:00","-26.8","","-30.0","","74","","","M","31","","6","","","M","101.45","","","","-33","","NA"
"-115.14","67.82","KUGLUKTUK A","2300905","2021-03-19 18:00","2021","03","19","18:00","-26.4","","-29.6","","75","","","M","31","","2","","","M","101.47","","","","-28","","NA"
"-115.14","67.82","KUGLUKTUK A","2300905","2021-03-19 19:00","2021","03","19","19:00","-28.0","","-31.1","","76","","","M","21","","5","","","M","101.47","","","","-33","","NA"
"-115.14","67.82","KUGLUKTUK A","2300905","2021-03-19 20:00","2021","03","19","20:00","-27.2","","-30.3","","76","","","M","23","","7","","","M","101.50","","","","-34","","NA"
"-115.14","67.82","KUGLUKTUK A","2300905","2021-03-19 21:00","2021","03","19","21:00","-28.1","","-31.3","","75","","","M","24","","7","","","M","101.49","","","","-35","","NA"
"-115.14","67.82","KUGLUKTUK A","2300905","2021-03-19 22:00","2021","03","19","22:00","-27.5","","-30.5","","76","","","M","26","","3","","","M","101.49","","","","-31","","NA"
"-115.14","67.82","KUGLUKTUK A","2300905","2021-03-19 23:00","2021","03","19","23:00","-27.0","","-30.1","","76","","","M","23","","7","","","M","101.46","","","","-34","","NA"
"-115.14","67.82","KUGLUKTUK A","2300905","2021-03-20 00:00","2021","03","20","00:00","-27.0","","-30.2","","75","","","M","29","","5","","","M","101.47","","","","-32","","NA"
"-115.14","67.82","KUGLUKTUK A","2300905","2021-03-20 01:00","2021","03","20","01:00","-28.0","","-31.1","","76","","","M","21","","4","","","M","101.45","","","","-32","","NA"
"-115.14","67.82","KUGLUKTUK A","2300905","2021-03-20 02:00","2021","03","20","02:00","-28.6","","-31.6","","77","","","M","23","","10","","","M","101.47","","","","-37","","NA"
"-115.14","67.82","KUGLUKTUK A","2300905","2021-03-20 03:00","2021","03","20","03:00","-28.4","","-31.2","","77","","","M","25","","5","","","M","101.46","","","","-34","","NA"
"-115.14","67.82","KUGLUKTUK A","2300905","2021-03-20 04:00","2021","03","20","04:00","-28.8","","-31.5","","78","","","M","23","","8","","","M","101.50","","","","-37","","NA"
"-115.14","67.82","KUGLUKTUK A","2300905","2021-03-20 05:00","2021","03","20","05:00","-29.4","","-32.3","","77","","","M","25","","10","","","M","101.49","","","","-38","","NA"
"-115.14","67.82","KUGLUKTUK A","2300905","2021-03-20 06:00","2021","03","20","06:00","-28.4","","-31.1","","78","","","M","19","","4","","","M","101.53","","","","-33","","NA"
"-115.14","67.82","KUGLUKTUK A","2300905","2021-03-20 07:00","2021","03","20","07:00","-28.0","","-30.8","","78","","","M","26","","4","","","M","101.55","","","","-32","","NA"
"-115.14","67.82","KUGLUKTUK A","2300905","2021-03-20 08:00","2021","03","20","08:00","-28.7","","-31.6","","77","","","M","28","","15","","","M","101.58","","","","-40","","NA"
"-115.14","67.82","KUGLUKTUK A","2300905","2021-03-20 09:00","2021","03","20","09:00","-26.3","","-29.2","","77","","","M","28","","9","","","M","101.60","","","","-34","","NA"
"-115.14","67.82","KUGLUKTUK A","2300905","2021-03-20 10:00","2021","03","20","10:00","-27.5","","-30.4","","77","","","M","25","","8","","","M","101.58","","","","-35","","NA"
"-115.14","67.82","KUGLUKTUK A","2300905","2021-03-20 11:00","2021","03","20","11:00","-25.7","","-29.0","","75","","","M","24","","12","","","M","101.59","","","","-35","","NA"
"-115.14","67.82","KUGLUKTUK A","2300905","2021-03-20 12:00","2021","03","20","12:00","-25.4","","-28.6","","75","","","M","24","","14","","","M","101.59","","","","-35","","NA"
"-115.14","67.82","KUGLUKTUK A","2300905","2021-03-20 13:00","2021","03","20","13:00","-25.4","","-28.8","","74","","","M","23","","12","","","M","101.57","","","","-35","","NA"
"-115.14","67.82","KUGLUKTUK A","2300905","2021-03-20 14:00","2021","03","20","14:00","-23.8","","-28.0","","69","","","M","29","","9","","","M","101.59","","","","-31","","NA"
"-115.14","67.82","KUGLUKTUK A","2300905","2021-03-20 15:00","2021","03","20","15:00","-23.9","","-27.8","","71","","","M","31","","7","","","M","101.62","","","","-30","","NA"
"-115.14","67.82","KUGLUKTUK A","2300905","2021-03-20 16:00","2021","03","20","16:00","-23.6","","-27.4","","71","","","M","33","","13","","","M","101.65","","","","-33","","NA"
"-115.14","67.82","KUGLUKTUK A","2300905","2021-03-20 17:00","2021","03","20","17:00","-23.8","","-27.1","","75","","","M","30","","15","","","M","101.68","","","","-34","","NA"
"-115.14","67.82","KUGLUKTUK A","2300905","2021-03-20 18:00","2021","03","20","18:00","-24.2","","-27.4","","75","","","M","28","","13","","","M","101.73","","","","-34","","NA"
"-115.14","67.82","KUGLUKTUK A","2300905","2021-03-20 19:00","2021","03","20","19:00","-24.4","","-27.7","","75","","","M","30","","9","","","M","101.77","","","","-32","","NA"
"-115.14","67.82","KUGLUKTUK A","2300905","2021-03-20 20:00","2021","03","20","20:00","-24.4","","-27.5","","77","","","M","32","","18","","","M","101.80","","","","-35","","NA"
"-115.14","67.82","KUGLUKTUK A","2300905","2021-03-20 21:00","2021","03","20","21:00","-25.7","","-28.6","","77","","","M","31","","12","","","M","101.81","","","","-35","","NA"
"-115.14","67.82","KUGLUKTUK A","2300905","2021-03-20 22:00","2021","03","20","22:00","-25.7","","-28.6","","77","","","M","32","","14","","","M","101.82","","","","-36","","NA"
"-115.14","67.82","KUGLUKTUK A","2300905","2021-03-20 23:00","2021","03","20","23:00","-25.2","","-28.0","","78","","","M","35","","11","","","M","101.85","","","","-34","","NA"
"-115.14","67.82","KUGLUKTUK A","2300905","2021-03-21 00:00","2021","03","21","00:00","-25.4","","-28.1","","78","","","M","2","","8","","","M","101.89","","","","-33","","NA"
"-115.14","67.82","KUGLUKTUK A","2300905","2021-03-21 01:00","2021","03","21","01:00","-25.8","","-28.6","","78","","","M","1","","10","","","M","101.92","","","","-34","","NA"
"-115.14","67.82","KUGLUKTUK A","2300905","2021-03-21 02:00","2021","03","21","02:00","-26.4","","-29.2","","78","","","M","4","","5","","","M","101.94","","","","-32","","NA"
"-115.14","67.82","KUGLUKTUK A","2300905","2021-03-21 03:00","2021","03","21","03:00","-26.4","","-28.9","","79","","","M","32","","5","","","M","101.96","","","","-32","","NA"
"-115.14","67.82","KUGLUKTUK A","2300905","2021-03-21 04:00","2021","03","21","04:00","-27.2","","-30.0","","78","","","M","4","","8","","","M","102.04","","","","-35","","NA"
"-115.14","67.82","KUGLUKTUK A","2300905","2021-03-21 05:00","2021","03","21","05:00","-28.2","","-31.1","","77","","","M","3","","8","","","M","102.10","","","","-36","","NA"
"-115.14","67.82","KUGLUKTUK A","2300905","2021-03-21 06:00","2021","03","21","06:00","-28.3","","-31.3","","76","","","M","1","","7","","","M","102.13","","","","-35","","NA"
"-115.14","67.82","KUGLUKTUK A","2300905","2021-03-21 07:00","2021","03","21","07:00","-28.1","","-31.0","","76","","","M","2","","13","","","M","102.17","","","","-38","","NA"
"-115.14","67.82","KUGLUKTUK A","2300905","2021-03-21 08:00","2021","03","21","08:00","-28.4","","-31.5","","75","","","M","3","","13","","","M","102.24","","","","-39","","NA"
"-115.14","67.82","KUGLUKTUK A","2300905","2021-03-21 09:00","2021","03","21","09:00","-29.4","","-32.6","","74","","","M","1","","14","","","M","102.29","","","","-40","","NA"
"-115.14","67.82","KUGLUKTUK A","2300905","2021-03-21 10:00","2021","03","21","10:00","-29.8","","-33.3","","72","","","M","2","","17","","","M","102.37","","","","-42","","NA"
"-115.14","67.82","KUGLUKTUK A","2300905","2021-03-21 11:00","2021","03","21","11:00","-29.6","","-33.5","","70","","","M","3","","13","","","M","102.44","","","","-40","","NA"
"-115.14","67.82","KUGLUKTUK A","2300905","2021-03-21 12:00","2021","03","21","12:00","-29.7","","-33.7","","69","","","M","2","","13","","","M","102.51","","","","-40","","NA"
"-115.14","67.82","KUGLUKTUK A","2300905","2021-03-21 13:00","2021","03","21","13:00","-29.7","","-33.8","","68","","","M","3","","12","","","M","102.56","","","","-40","","NA"
"-115.14","67.82","KUGLUKTUK A","2300905","2021-03-21 14:00","2021","03","21","14:00","-29.7","","-33.8","","68","","","M","3","","14","","","M","102.62","","","","-41","","NA"
"-115.14","67.82","KUGLUKTUK A","2300905","2021-03-21 15:00","2021","03","21","15:00","-30.0","","-34.1","","68","","","M","2","","10","","","M","102.67","","","","-39","","NA"
"-115.14","67.82","KUGLUKTUK A","2300905","2021-03-21 16:00","2021","03","21","16:00","-30.0","","-34.2","","68","","","M","3","","10","","","M","102.71","","","","-39","","NA"
"-115.14","67.82","KUGLUKTUK A","2300905","2021-03-21 17:00","2021","03","21","17:00","-30.6","","-34.6","","68","","","M","1","","9","","","M","102.74","","","","-39","","NA"
"-115.14","67.82","KUGLUKTUK A","2300905","2021-03-21 18:00","2021","03","21","18:00","-31.0","","-34.8","","70","","","M","3","","8","","","M","102.77","","","","-39","","NA"
"-115.14","67.82","KUGLUKTUK A","2300905","2021-03-21 19:00","2021","03","21","19:00","-32.3","","-35.9","","71","","","M","2","","10","","","M","102.81","","","","-42","","NA"
"-115.14","67.82","KUGLUKTUK A","2300905","2021-03-21 20:00","2021","03","21","20:00","-32.3","","-35.8","","72","","","M","3","","8","","","M","102.83","","","","-41","","NA"
"-115.14","67.82","KUGLUKTUK A","2300905","2021-03-21 21:00","2021","03","21","21:00","-32.7","","-36.0","","73","","","M","7","","2","","","M","102.88","","","","-35","","NA"
"-115.14","67.82","KUGLUKTUK A","2300905","2021-03-21 22:00","2021","03","21","22:00","-33.0","","-36.1","","74","","","M","32","","2","","","M","102.89","","","","-35","","NA"
"-115.14","67.82","KUGLUKTUK A","2300905","2021-03-21 23:00","2021","03","21","23:00","-34.1","","-37.2","","74","","","M","30","","4","","","M","102.94","","","","-39","","NA"
"-115.14","67.82","KUGLUKTUK A","2300905","2021-03-22 00:00","2021","03","22","00:00","-33.6","","-36.8","","74","","","M","30","","3","","","M","102.97","","","","-37","","NA"
"-115.14","67.82","KUGLUKTUK A","2300905","2021-03-22 01:00","2021","03","22","01:00","-35.5","","-38.6","","74","","","M","29","","3","","","M","103.03","","","","-39","","NA"
"-115.14","67.82","KUGLUKTUK A","2300905","2021-03-22 02:00","2021","03","22","02:00","-38.4","","-41.4","","74","","","M","23","","8","","","M","103.07","","","","-48","","NA"
"-115.14","67.82","KUGLUKTUK A","2300905","2021-03-22 03:00","2021","03","22","03:00","-37.3","","-40.5","","73","","","M","23","","7","","","M","103.10","","","","-46","","NA"
"-115.14","67.82","KUGLUKTUK A","2300905","2021-03-22 04:00","2021","03","22","04:00","-38.1","","-41.4","","72","","","M","22","","15","","","M","103.09","","","","-51","","NA"
"-115.14","67.82","KUGLUKTUK A","2300905","2021-03-22 05:00","2021","03","22","05:00","-37.7","","-41.0","","72","","","M","23","","14","","","M","103.12","","","","-50","","NA"
"-115.14","67.82","KUGLUKTUK A","2300905","2021-03-22 06:00","2021","03","22","06:00","-38.2","","-41.7","","71","","","M","23","","19","","","M","103.13","","","","-53","","NA"
"-115.14","67.82","KUGLUKTUK A","2300905","2021-03-22 07:00","2021","03","22","07:00","-38.4","","-42.0","","70","","","M","21","","15","","","M","103.15","","","","-52","","NA"
"-115.14","67.82","KUGLUKTUK A","2300905","2021-03-22 08:00","2021","03","22","08:00","-37.0","","-40.5","","71","","","M","22","","17","","","M","103.18","","","","-51","","NA"
"-115.14","67.82","KUGLUKTUK A","2300905","2021-03-22 09:00","2021","03","22","09:00","-37.1","","-40.8","","70","","","M","22","","19","","","M","103.21","","","","-52","","NA"
"-115.14","67.82","KUGLUKTUK A","2300905","2021-03-22 10:00","2021","03","22","10:00","-35.6","","-39.1","","71","","","M","22","","19","","","M","103.23","","","","-50","","NA"
"-115.14","67.82","KUGLUKTUK A","2300905","2021-03-22 11:00","2021","03","22","11:00","-34.4","","-38.0","","71","","","M","22","","14","","","M","103.27","","","","-46","","NA"
"-115.14","67.82","KUGLUKTUK A","2300905","2021-03-22 12:00","2021","03","22","12:00","-33.1","","-36.7","","71","","","M","24","","11","","","M","103.31","","","","-43","","NA"
"-115.14","67.82","KUGLUKTUK A","2300905","2021-03-22 13:00","2021","03","22","13:00","-32.3","","-35.9","","71","","","M","23","","17","","","M","103.35","","","","-45","","NA"
"-115.14","67.82","KUGLUKTUK A","2300905","2021-03-22 14:00","2021","03","22","14:00","-31.3","","-35.0","","71","","","M","23","","17","","","M","103.38","","","","-44","","NA"
"-115.14","67.82","KUGLUKTUK A","2300905","2021-03-22 15:00","2021","03","22","15:00","-30.5","","-34.5","","69","","","M","24","","13","","","M","103.38","","","","-41","","NA"
"-115.14","67.82","KUGLUKTUK A","2300905","2021-03-22 16:00","2021","03","22","16:00","-30.6","","-34.8","","68","","","M","22","","9","","","M","103.39","","","","-39","","NA"
"-115.14","67.82","KUGLUKTUK A","2300905","2021-03-22 17:00","2021","03","22","17:00","-31.3","","-35.5","","67","","","M","23","","13","","","M","103.39","","","","-42","","NA"
"-115.14","67.82","KUGLUKTUK A","2300905","2021-03-22 18:00","2021","03","22","18:00","-32.3","","-36.3","","68","","","M","24","","17","","","M","103.39","","","","-45","","NA"
"-115.14","67.82","KUGLUKTUK A","2300905","2021-03-22 19:00","2021","03","22","19:00","-33.7","","-37.4","","70","","","M","23","","17","","","M","103.41","","","","-47","","NA"
"-115.14","67.82","KUGLUKTUK A","2300905","2021-03-22 20:00","2021","03","22","20:00","-34.5","","-38.1","","71","","","M","22","","19","","","M","103.42","","","","-48","","NA"
"-115.14","67.82","KUGLUKTUK A","2300905","2021-03-22 21:00","2021","03","22","21:00","-34.5","","-38.0","","71","","","M","21","","15","","","M","103.45","","","","-47","","NA"
"-115.14","67.82","KUGLUKTUK A","2300905","2021-03-22 22:00","2021","03","22","22:00","-34.1","","-37.6","","72","","","M","22","","20","","","M","103.45","","","","-48","","NA"
"-115.14","67.82","KUGLUKTUK A","2300905","2021-03-22 23:00","2021","03","22","23:00","-34.3","","-37.7","","72","","","M","22","","18","","","M","103.45","","","","-48","","NA"
"-115.14","67.82","KUGLUKTUK A","2300905","2021-03-23 00:00","2021","03","23","00:00","-34.6","","-38.0","","72","","","M","22","","14","","","M","103.44","","","","-47","","NA"
"-115.14","67.82","KUGLUKTUK A","2300905","2021-03-23 01:00","2021","03","23","01:00","-34.4","","-37.8","","72","","","M","22","","20","","","M","103.45","","","","-49","","NA"
"-115.14","67.82","KUGLUKTUK A","2300905","2021-03-23 02:00","2021","03","23","02:00","-34.2","","-37.7","","72","","","M","21","","13","","","M","103.47","","","","-46","","NA"
"-115.14","67.82","KUGLUKTUK A","2300905","2021-03-23 03:00","2021","03","23","03:00","-32.8","","-36.2","","72","","","M","23","","23","","","M","103.47","","","","-48","","NA"
"-115.14","67.82","KUGLUKTUK A","2300905","2021-03-23 04:00","2021","03","23","04:00","-31.0","","-34.8","","70","","","M","25","","22","","","M","103.45","","","","-45","","NA"
"-115.14","67.82","KUGLUKTUK A","2300905","2021-03-23 05:00","2021","03","23","05:00","-34.7","","-38.5","","69","","","M","22","","14","","","M","103.44","","","","-47","","NA"
"-115.14","67.82","KUGLUKTUK A","2300905","2021-03-23 06:00","2021","03","23","06:00","-33.1","","-36.9","","70","","","M","23","","18","","","M","103.42","","","","-46","","NA"
"-115.14","67.82","KUGLUKTUK A","2300905","2021-03-23 07:00","2021","03","23","07:00","-33.1","","-37.1","","68","","","M","23","","21","","","M","103.40","","","","-47","","NA"
"-115.14","67.82","KUGLUKTUK A","2300905","2021-03-23 08:00","2021","03","23","08:00","-33.1","","-37.3","","67","","","M","22","","21","","","M","103.36","","","","-47","","NA"
"-115.14","67.82","KUGLUKTUK A","2300905","2021-03-23 09:00","2021","03","23","09:00","-31.9","","-37.0","","62","","","M","31","","7","","","M","103.35","","","","-39","","NA"
"-115.14","67.82","KUGLUKTUK A","2300905","2021-03-23 10:00","2021","03","23","10:00","-30.3","","-35.1","","64","","","M","23","","3","","","M","103.29","","","","-34","","NA"
"-115.14","67.82","KUGLUKTUK A","2300905","2021-03-23 11:00","2021","03","23","11:00","-30.3","","-35.1","","64","","","M","35","","4","","","M","103.26","","","","-35","","NA"
"-115.14","67.82","KUGLUKTUK A","2300905","2021-03-23 12:00","2021","03","23","12:00","-29.3","","-33.7","","67","","","M","9","","4","","","M","103.22","","","","-34","","NA"
"-115.14","67.82","KUGLUKTUK A","2300905","2021-03-23 13:00","2021","03","23","13:00","-28.2","","-32.8","","66","","","M","2","","1","","","M","103.19","","","","-29","","NA"
"-115.14","67.82","KUGLUKTUK A","2300905","2021-03-23 14:00","2021","03","23","14:00","-28.1","","-32.9","","65","","","M","10","","2","","","M","103.16","","","","-30","","NA"
"-115.14","67.82","KUGLUKTUK A","2300905","2021-03-23 15:00","2021","03","23","15:00","-27.1","","-31.3","","68","","","M","11","","5","","","M","103.12","","","","-32","","NA"
"-115.14","67.82","KUGLUKTUK A","2300905","2021-03-23 16:00","2021","03","23","16:00","-26.4","","-30.8","","67","","","M","36","","4","","","M","103.07","","","","-31","","NA"
"-115.14","67.82","KUGLUKTUK A","2300905","2021-03-23 17:00","2021","03","23","17:00","-29.1","","-33.2","","68","","","M","33","","5","","","M","102.99","","","","-35","","NA"
"-115.14","67.82","KUGLUKTUK A","2300905","2021-03-23 18:00","2021","03","23","18:00","-29.5","","-33.4","","70","","","M","33","","5","","","M","102.91","","","","-35","","NA"
"-115.14","67.82","KUGLUKTUK A","2300905","2021-03-23 19:00","2021","03","23","19:00","-29.3","","-32.8","","72","","","M","34","","2","","","M","102.83","","","","-32","","NA"
"-115.14","67.82","KUGLUKTUK A","2300905","2021-03-23 20:00","2021","03","23","20:00","-29.8","","-32.7","","76","","","M","32","","4","","","M","102.77","","","","-34","","NA"
"-115.14","67.82","KUGLUKTUK A","2300905","2021-03-23 21:00","2021","03","23","21:00","-30.7","","-33.6","","76","","","M","31","","5","","","M","102.71","","","","-36","","NA"
"-115.14","67.82","KUGLUKTUK A","2300905","2021-03-23 22:00","2021","03","23","22:00","-31.9","","-34.8","","76","","","M","31","","6","","","M","102.65","","","","-39","","NA"
"-115.14","67.82","KUGLUKTUK A","2300905","2021-03-23 23:00","2021","03","23","23:00","-31.4","","-34.3","","76","","","M","32","","6","","","M","102.58","","","","-38","","NA"
"-115.14","67.82","KUGLUKTUK A","2300905","2021-03-24 00:00","2021","03","24","00:00","-32.1","","-35.2","","74","","","M","34","","5","","","M","102.53","","","","-38","","NA"
"-115.14","67.82","KUGLUKTUK A","2300905","2021-03-24 01:00","2021","03","24","01:00","-31.8","","-35.1","","73","","","M","12","","5","","","M","102.48","","","","-38","","NA"
"-115.14","67.82","KUGLUKTUK A","2300905","2021-03-24 02:00","2021","03","24","02:00","-27.3","","-30.5","","75","","","M","22","","8","","","M","102.44","","","","-35","","NA"
"-115.14","67.82","KUGLUKTUK A","2300905","2021-03-24 03:00","2021","03","24","03:00","-24.1","","-28.7","","67","","","M","18","","17","","","M","102.36","","","","-35","","NA"
"-115.14","67.82","KUGLUKTUK A","2300905","2021-03-24 04:00","2021","03","24","04:00","-23.2","","-28.5","","63","","","M","21","","12","","","M","102.32","","","","-32","","NA"
"-115.14","67.82","KUGLUKTUK A","2300905","2021-03-24 05:00","2021","03","24","05:00","-23.2","","-28.6","","62","","","M","19","","15","","","M","102.24","","","","-33","","NA"
"-115.14","67.82","KUGLUKTUK A","2300905","2021-03-24 06:00","2021","03","24","06:00","-23.5","","-28.8","","62","","","M","19","","10","","","M","102.20","","","","-31","","NA"
"-115.14","67.82","KUGLUKTUK A","2300905","2021-03-24 07:00","2021","03","24","07:00","-24.9","","-29.6","","65","","","M","19","","26","","","M","102.12","","","","-38","","NA"
"-115.14","67.82","KUGLUKTUK A","2300905","2021-03-24 08:00","2021","03","24","08:00","-22.9","","-28.0","","64","","","M","21","","35","","","M","102.09","","","","-37","","NA"
"-115.14","67.82","KUGLUKTUK A","2300905","2021-03-24 09:00","2021","03","24","09:00","-22.9","","-27.8","","65","","","M","22","","21","","","M","102.05","","","","-34","","NA"
"-115.14","67.82","KUGLUKTUK A","2300905","2021-03-24 10:00","2021","03","24","10:00","-21.1","","-26.2","","64","","","M","21","","14","","","M","102.06","","","","-30","","NA"
"-115.14","67.82","KUGLUKTUK A","2300905","2021-03-24 11:00","2021","03","24","11:00","-19.7","","-25.8","","59","","","M","20","","21","","","M","101.97","","","","-30","","NA"
"-115.14","67.82","KUGLUKTUK A","2300905","2021-03-24 12:00","2021","03","24","12:00","-19.2","","-24.3","","65","","","M","21","","15","","","M","101.91","","","","-28","","NA"
"-115.14","67.82","KUGLUKTUK A","2300905","2021-03-24 13:00","2021","03","24","13:00","-18.5","","-23.5","","66","","","M","21","","27","","","M","101.88","","","","-30","","NA"
"-115.14","67.82","KUGLUKTUK A","2300905","2021-03-24 14:00","2021","03","24","14:00","-18.1","","-23.6","","63","","","M","19","","36","","","M","101.82","","","","-31","","NA"
"-115.14","67.82","KUGLUKTUK A","2300905","2021-03-24 15:00","2021","03","24","15:00","-18.3","","-22.9","","68","","","M","21","","32","","","M","101.76","","","","-31","","NA"
"-115.14","67.82","KUGLUKTUK A","2300905","2021-03-24 16:00","2021","03","24","16:00","-18.1","","-23.0","","66","","","M","20","","24","","","M","101.66","","","","-29","","NA"
"-115.14","67.82","KUGLUKTUK A","2300905","2021-03-24 17:00","2021","03","24","17:00","-17.7","","-22.6","","66","","","M","20","","22","","","M","101.61","","","","-28","","NA"
"-115.14","67.82","KUGLUKTUK A","2300905","2021-03-24 18:00","2021","03","24","18:00","-17.6","","-22.3","","67","","","M","17","","17","","","M","101.54","","","","-27","","NA"
"-115.14","67.82","KUGLUKTUK A","2300905","2021-03-24 19:00","2021","03","24","19:00","-17.7","","-22.1","","69","","","M","21","","25","","","M","101.48","","","","-29","","NA"
"-115.14","67.82","KUGLUKTUK A","2300905","2021-03-24 20:00","2021","03","24","20:00","-17.4","","-22.0","","68","","","M","21","","29","","","M","101.45","","","","-29","","NA"
"-115.14","67.82","KUGLUKTUK A","2300905","2021-03-24 21:00","2021","03","24","21:00","-18.1","","-23.0","","66","","","M","21","","29","","","M","101.43","","","","-30","","NA"
"-115.14","67.82","KUGLUKTUK A","2300905","2021-03-24 22:00","2021","03","24","22:00","-19.9","","-24.6","","67","","","M","31","","14","","","M","101.47","","","","-29","","NA"
"-115.14","67.82","KUGLUKTUK A","2300905","2021-03-24 23:00","2021","03","24","23:00","-18.4","","-22.9","","68","","","M","20","","14","","","M","101.39","","","","-27","","NA"
"-115.14","67.82","KUGLUKTUK A","2300905","2021-03-25 00:00","2021","03","25","00:00","-18.6","","-22.6","","71","","","M","20","","30","","","M","101.33","","","","-31","","NA"
"-115.14","67.82","KUGLUKTUK A","2300905","2021-03-25 01:00","2021","03","25","01:00","-18.6","","-23.5","","66","","","M","20","","26","","","M","101.32","","","","-30","","NA"
"-115.14","67.82","KUGLUKTUK A","2300905","2021-03-25 02:00","2021","03","25","02:00","-18.9","","-23.4","","68","","","M","21","","31","","","M","101.30","","","","-31","","NA"
"-115.14","67.82","KUGLUKTUK A","2300905","2021-03-25 03:00","2021","03","25","03:00","-18.5","","-22.9","","69","","","M","21","","34","","","M","101.30","","","","-31","","NA"
"-115.14","67.82","KUGLUKTUK A","2300905","2021-03-25 04:00","2021","03","25","04:00","-18.2","","-22.1","","72","","","M","20","","41","","","M","101.22","","","","-32","","NA"
"-115.14","67.82","KUGLUKTUK A","2300905","2021-03-25 05:00","2021","03","25","05:00","-18.0","","-21.0","","78","","","M","21","","28","","","M","101.19","","","","-30","","NA"
"-115.14","67.82","KUGLUKTUK A","2300905","2021-03-25 06:00","2021","03","25","06:00","-18.0","","-21.4","","75","","","M","21","","32","","","M","101.12","","","","-30","","NA"
"-115.14","67.82","KUGLUKTUK A","2300905","2021-03-25 07:00","2021","03","25","07:00","-17.9","","-21.6","","73","","","M","21","","35","","","M","101.09","","","","-31","","NA"
"-115.14","67.82","KUGLUKTUK A","2300905","2021-03-25 08:00","2021","03","25","08:00","-18.0","","-21.6","","74","","","M","21","","35","","","M","101.03","","","","-31","","NA"
"-115.14","67.82","KUGLUKTUK A","2300905","2021-03-25 09:00","2021","03","25","09:00","-17.5","","-21.6","","71","","","M","21","","37","","","M","101.00","","","","-30","","NA"
"-115.14","67.82","KUGLUKTUK A","2300905","2021-03-25 10:00","2021","03","25","10:00","-17.4","","-21.6","","70","","","M","21","","37","","","M","100.98","","","","-30","","NA"
"-115.14","67.82","KUGLUKTUK A","2300905","2021-03-25 11:00","2021","03","25","11:00","-16.9","","-21.8","","66","","","M","22","","30","","","M","100.97","","","","-29","","NA"
"-115.14","67.82","KUGLUKTUK A","2300905","2021-03-25 12:00","2021","03","25","12:00","-15.6","","-19.3","","74","","","M","22","","36","","","M","100.93","","","","-28","","NA"
"-115.14","67.82","KUGLUKTUK A","2300905","2021-03-25 13:00","2021","03","25","13:00","-15.2","","-19.1","","73","","","M","21","","38","","","M","100.88","","","","-27","","NA"
"-115.14","67.82","KUGLUKTUK A","2300905","2021-03-25 14:00","2021","03","25","14:00","-14.7","","-18.6","","73","","","M","20","","32","","","M","100.87","","","","-26","","NA"
"-115.14","67.82","KUGLUKTUK A","2300905","2021-03-25 15:00","2021","03","25","15:00","-14.9","","-18.7","","73","","","M","21","","34","","","M","100.83","","","","-27","","NA"
"-115.14","67.82","KUGLUKTUK A","2300905","2021-03-25 16:00","2021","03","25","16:00","-14.2","","-17.5","","76","","","M","22","","33","","","M","100.78","","","","-25","","NA"
"-115.14","67.82","KUGLUKTUK A","2300905","2021-03-25 17:00","2021","03","25","17:00","-14.3","","-18.0","","74","","","M","20","","27","","","M","100.76","","","","-25","","NA"
"-115.14","67.82","KUGLUKTUK A","2300905","2021-03-25 18:00","2021","03","25","18:00","-15.4","","-19.0","","74","","","M","22","","23","","","M","100.73","","","","-25","","NA"
"-115.14","67.82","KUGLUKTUK A","2300905","2021-03-25 19:00","2021","03","25","19:00","-15.1","","-18.1","","78","","","M","21","","28","","","M","100.71","","","","-26","","NA"
"-115.14","67.82","KUGLUKTUK A","2300905","2021-03-25 20:00","2021","03","25","20:00","-15.1","","-17.5","","82","","","M","21","","32","","","M","100.69","","","","-26","","NA"
"-115.14","67.82","KUGLUKTUK A","2300905","2021-03-25 21:00","2021","03","25","21:00","-15.9","","-18.7","","79","","","M","21","","31","","","M","100.65","","","","-27","","NA"
"-115.14","67.82","KUGLUKTUK A","2300905","2021-03-25 22:00","2021","03","25","22:00","-17.2","","-19.9","","80","","","M","22","","24","","","M","100.63","","","","-28","","NA"
"-115.14","67.82","KUGLUKTUK A","2300905","2021-03-25 23:00","2021","03","25","23:00","-16.3","","-19.5","","77","","","M","20","","23","","","M","100.62","","","","-26","","NA"
"-115.14","67.82","KUGLUKTUK A","2300905","2021-03-26 00:00","2021","03","26","00:00","-16.3","","-19.3","","78","","","M","21","","22","","","M","100.59","","","","-26","","NA"
"-115.14","67.82","KUGLUKTUK A","2300905","2021-03-26 01:00","2021","03","26","01:00","-16.8","","-19.6","","79","","","M","22","","16","","","M","100.59","","","","-25","","NA"
"-115.14","67.82","KUGLUKTUK A","2300905","2021-03-26 02:00","2021","03","26","02:00","-17.6","","-20.6","","77","","","M","22","","19","","","M","100.58","","","","-27","","NA"
"-115.14","67.82","KUGLUKTUK A","2300905","2021-03-26 03:00","2021","03","26","03:00","-16.7","","-19.7","","78","","","M","24","","14","","","M","100.57","","","","-25","","NA"
"-115.14","67.82","KUGLUKTUK A","2300905","2021-03-26 04:00","2021","03","26","04:00","-17.4","","-19.2","","86","","","M","26","","18","","","M","100.53","","","","-27","","NA"
"-115.14","67.82","KUGLUKTUK A","2300905","2021-03-26 05:00","2021","03","26","05:00","-18.6","","-20.8","","83","","","M","23","","19","","","M","100.54","","","","-28","","NA"
"-115.14","67.82","KUGLUKTUK A","2300905","2021-03-26 06:00","2021","03","26","06:00","-17.9","","-21.0","","77","","","M","25","","28","","","M","100.55","","","","-29","","NA"
"-115.14","67.82","KUGLUKTUK A","2300905","2021-03-26 07:00","2021","03","26","07:00","-19.9","","-22.9","","77","","","M","24","","24","","","M","100.58","","","","-31","","NA"
"-115.14","67.82","KUGLUKTUK A","2300905","2021-03-26 08:00","2021","03","26","08:00","-20.3","","-23.2","","78","","","M","25","","21","","","M","100.62","","","","-31","","NA"
"-115.14","67.82","KUGLUKTUK A","2300905","2021-03-26 09:00","2021","03","26","09:00","-20.4","","-23.5","","77","","","M","24","","23","","","M","100.66","","","","-32","","NA"
"-115.14","67.82","KUGLUKTUK A","2300905","2021-03-26 10:00","2021","03","26","10:00","-19.4","","-22.5","","76","","","M","23","","22","","","M","100.66","","","","-30","","NA"
"-115.14","67.82","KUGLUKTUK A","2300905","2021-03-26 11:00","2021","03","26","11:00","-19.0","","-22.6","","74","","","M","26","","27","","","M","100.70","","","","-31","","NA"
"-115.14","67.82","KUGLUKTUK A","2300905","2021-03-26 12:00","2021","03","26","12:00","-17.8","","-20.9","","77","","","M","25","","16","","","M","100.76","","","","-27","","NA"
"-115.14","67.82","KUGLUKTUK A","2300905","2021-03-26 13:00","2021","03","26","13:00","-17.0","","-20.3","","76","","","M","24","","16","","","M","100.83","","","","-26","","NA"
"-115.14","67.82","KUGLUKTUK A","2300905","2021-03-26 14:00","2021","03","26","14:00","-16.3","","-19.4","","77","","","M","25","","18","","","M","100.89","","","","-25","","NA"
"-115.14","67.82","KUGLUKTUK A","2300905","2021-03-26 15:00","2021","03","26","15:00","-15.9","","-18.8","","78","","","M","26","","18","","","M","100.93","","","","-25","","NA"
"-115.14","67.82","KUGLUKTUK A","2300905","2021-03-26 16:00","2021","03","26","16:00","-15.9","","-18.9","","78","","","M","27","","16","","","M","100.96","","","","-24","","NA"
"-115.14","67.82","KUGLUKTUK A","2300905","2021-03-26 17:00","2021","03","26","17:00","-17.4","","-20.0","","80","","","M","25","","19","","","M","101.01","","","","-27","","NA"
"-115.14","67.82","KUGLUKTUK A","2300905","2021-03-26 18:00","2021","03","26","18:00","-16.7","","-19.5","","79","","","M","27","","15","","","M","101.05","","","","-25","","NA"
"-115.14","67.82","KUGLUKTUK A","2300905","2021-03-26 19:00","2021","03","26","19:00","-20.6","","-23.3","","79","","","M","31","","7","","","M","101.14","","","","-26","","NA"
"-115.14","67.82","KUGLUKTUK A","2300905","2021-03-26 20:00","2021","03","26","20:00","-21.6","","-24.5","","77","","","M","22","","5","","","M","101.21","","","","-26","","NA"
"-115.14","67.82","KUGLUKTUK A","2300905","2021-03-26 21:00","2021","03","26","21:00","-21.9","","-24.4","","80","","","M","28","","16","","","M","101.25","","","","-32","","NA"
"-115.14","67.82","KUGLUKTUK A","2300905","2021-03-26 22:00","2021","03","26","22:00","-22.0","","-24.3","","82","","","M","28","","10","","","M","101.28","","","","-30","","NA"
"-115.14","67.82","KUGLUKTUK A","2300905","2021-03-26 23:00","2021","03","26","23:00","-25.1","","-27.8","","79","","","M","21","","9","","","M","101.33","","","","-33","","NA"
"-115.14","67.82","KUGLUKTUK A","2300905","2021-03-27 00:00","2021","03","27","00:00","-24.3","","-26.6","","82","","","M","24","","16","","","M","101.37","","","","-35","","NA"
"-115.14","67.82","KUGLUKTUK A","2300905","2021-03-27 01:00","2021","03","27","01:00","-25.1","","-27.6","","80","","","M","25","","16","","","M","101.41","","","","-36","","NA"
"-115.14","67.82","KUGLUKTUK A","2300905","2021-03-27 02:00","2021","03","27","02:00","-25.5","","-28.0","","80","","","M","22","","18","","","M","101.45","","","","-37","","NA"
"-115.14","67.82","KUGLUKTUK A","2300905","2021-03-27 03:00","2021","03","27","03:00","-26.3","","-28.9","","79","","","M","23","","18","","","M","101.50","","","","-38","","NA"
"-115.14","67.82","KUGLUKTUK A","2300905","2021-03-27 04:00","2021","03","27","04:00","-27.0","","-29.5","","80","","","M","24","","17","","","M","101.50","","","","-38","","NA"
"-115.14","67.82","KUGLUKTUK A","2300905","2021-03-27 05:00","2021","03","27","05:00","-28.0","","-30.7","","78","","","M","23","","16","","","M","101.54","","","","-39","","NA"
"-115.14","67.82","KUGLUKTUK A","2300905","2021-03-27 06:00","2021","03","27","06:00","-28.4","","-31.1","","78","","","M","22","","19","","","M","101.55","","","","-41","","NA"
"-115.14","67.82","KUGLUKTUK A","2300905","2021-03-27 07:00","2021","03","27","07:00","-28.5","","-31.2","","78","","","M","23","","16","","","M","101.57","","","","-40","","NA"
"-115.14","67.82","KUGLUKTUK A","2300905","2021-03-27 08:00","2021","03","27","08:00","-28.0","","-30.7","","78","","","M","22","","18","","","M","101.58","","","","-40","","NA"
"-115.14","67.82","KUGLUKTUK A","2300905","2021-03-27 09:00","2021","03","27","09:00","-27.4","","-30.2","","78","","","M","22","","17","","","M","101.58","","","","-39","","NA"
"-115.14","67.82","KUGLUKTUK A","2300905","2021-03-27 10:00","2021","03","27","10:00","-26.5","","-29.3","","78","","","M","23","","5","","","M","101.61","","","","-32","","NA"
"-115.14","67.82","KUGLUKTUK A","2300905","2021-03-27 11:00","2021","03","27","11:00","-26.2","","-29.0","","78","","","M","22","","12","","","M","101.60","","","","-36","","NA"
"-115.14","67.82","KUGLUKTUK A","2300905","2021-03-27 12:00","2021","03","27","12:00","-25.3","","-28.2","","77","","","M","22","","8","","","M","101.61","","","","-32","","NA"
"-115.14","67.82","KUGLUKTUK A","2300905","2021-03-27 13:00","2021","03","27","13:00","-24.6","","-27.5","","77","","","M","23","","9","","","M","101.59","","","","-32","","NA"
"-115.14","67.82","KUGLUKTUK A","2300905","2021-03-27 14:00","2021","03","27","14:00","-24.0","","-27.2","","76","","","M","35","","4","","","M","101.61","","","","-28","","NA"
"-115.14","67.82","KUGLUKTUK A","2300905","2021-03-27 15:00","2021","03","27","15:00","-24.1","","-27.4","","75","","","M","30","","7","","","M","101.63","","","","-30","","NA"
"-115.14","67.82","KUGLUKTUK A","2300905","2021-03-27 16:00","2021","03","27","16:00","-23.7","","-27.3","","73","","","M","31","","3","","","M","101.66","","","","-27","","NA"
"-115.14","67.82","KUGLUKTUK A","2300905","2021-03-27 17:00","2021","03","27","17:00","-24.9","","-28.0","","76","","","M","22","","7","","","M","101.66","","","","-31","","NA"
"-115.14","67.82","KUGLUKTUK A","2300905","2021-03-27 18:00","2021","03","27","18:00","-25.8","","-28.9","","76","","","M","24","","9","","","M","101.68","","","","-34","","NA"
"-115.14","67.82","KUGLUKTUK A","2300905","2021-03-27 19:00","2021","03","27","19:00","-26.3","","-29.3","","76","","","M","27","","11","","","M","101.69","","","","-35","","NA"
"-115.14","67.82","KUGLUKTUK A","2300905","2021-03-27 20:00","2021","03","27","20:00","-28.2","","-30.9","","79","","","M","26","","8","","","M","101.73","","","","-36","","NA"
"-115.14","67.82","KUGLUKTUK A","2300905","2021-03-27 21:00","2021","03","27","21:00","-29.5","","-32.1","","79","","","M","22","","9","","","M","101.74","","","","-38","","NA"
"-115.14","67.82","KUGLUKTUK A","2300905","2021-03-27 22:00","2021","03","27","22:00","-30.7","","-33.5","","77","","","M","23","","20","","","M","101.77","","","","-44","","NA"
"-115.14","67.82","KUGLUKTUK A","2300905","2021-03-27 23:00","2021","03","27","23:00","-29.4","","-32.2","","77","","","M","25","","6","","","M","101.80","","","","-36","","NA"
"-115.14","67.82","KUGLUKTUK A","2300905","2021-03-28 00:00","2021","03","28","00:00","-32.1","","-35.0","","76","","","M","22","","18","","","M","101.84","","","","-45","","NA"
"-115.14","67.82","KUGLUKTUK A","2300905","2021-03-28 01:00","2021","03","28","01:00","-32.4","","-35.5","","75","","","M","22","","22","","","M","101.87","","","","-47","","NA"
"-115.14","67.82","KUGLUKTUK A","2300905","2021-03-28 02:00","2021","03","28","02:00","-32.5","","-35.6","","75","","","M","22","","20","","","M","101.89","","","","-46","","NA"
"-115.14","67.82","KUGLUKTUK A","2300905","2021-03-28 03:00","2021","03","28","03:00","-33.2","","-36.4","","74","","","M","22","","22","","","M","101.92","","","","-48","","NA"
"-115.14","67.82","KUGLUKTUK A","2300905","2021-03-28 04:00","2021","03","28","04:00","-33.6","","-36.9","","73","","","M","22","","22","","","M","101.96","","","","-48","","NA"
"-115.14","67.82","KUGLUKTUK A","2300905","2021-03-28 05:00","2021","03","28","05:00","-33.5","","-36.7","","73","","","M","22","","22","","","M","101.98","","","","-48","","NA"
"-115.14","67.82","KUGLUKTUK A","2300905","2021-03-28 06:00","2021","03","28","06:00","-33.7","","-37.0","","73","","","M","22","","23","","","M","101.99","","","","-49","","NA"
"-115.14","67.82","KUGLUKTUK A","2300905","2021-03-28 07:00","2021","03","28","07:00","-33.4","","-36.7","","73","","","M","22","","23","","","M","102.03","","","","-48","","NA"
"-115.14","67.82","KUGLUKTUK A","2300905","2021-03-28 08:00","2021","03","28","08:00","-32.5","","-35.9","","73","","","M","23","","25","","","M","102.07","","","","-48","","NA"
"-115.14","67.82","KUGLUKTUK A","2300905","2021-03-28 09:00","2021","03","28","09:00","-31.8","","-35.1","","73","","","M","22","","21","","","M","102.10","","","","-46","","NA"
"-115.14","67.82","KUGLUKTUK A","2300905","2021-03-28 10:00","2021","03","28","10:00","-30.5","","-33.8","","74","","","M","22","","22","","","M","102.13","","","","-44","","NA"
"-115.14","67.82","KUGLUKTUK A","2300905","2021-03-28 11:00","2021","03","28","11:00","-28.9","","-32.1","","74","","","M","23","","21","","","M","102.16","","","","-42","","NA"
"-115.14","67.82","KUGLUKTUK A","2300905","2021-03-28 12:00","2021","03","28","12:00","-27.9","","-31.2","","75","","","M","22","","18","","","M","102.17","","","","-40","","NA"
"-115.14","67.82","KUGLUKTUK A","2300905","2021-03-28 13:00","2021","03","28","13:00","-26.4","","-29.6","","75","","","M","26","","23","","","M","102.22","","","","-39","","NA"
"-115.14","67.82","KUGLUKTUK A","2300905","2021-03-28 14:00","2021","03","28","14:00","-25.6","","-29.0","","73","","","M","26","","24","","","M","102.23","","","","-39","","NA"
"-115.14","67.82","KUGLUKTUK A","2300905","2021-03-28 15:00","2021","03","28","15:00","-25.0","","-28.9","","71","","","M","26","","20","","","M","102.25","","","","-37","","NA"
"-115.14","67.82","KUGLUKTUK A","2300905","2021-03-28 16:00","2021","03","28","16:00","-25.4","","-29.1","","72","","","M","23","","22","","","M","102.26","","","","-38","","NA"
"-115.14","67.82","KUGLUKTUK A","2300905","2021-03-28 17:00","2021","03","28","17:00","-26.1","","-29.7","","73","","","M","23","","22","","","M","102.26","","","","-39","","NA"
"-115.14","67.82","KUGLUKTUK A","2300905","2021-03-28 18:00","2021","03","28","18:00","-25.8","","-29.8","","70","","","M","23","","23","","","M","102.26","","","","-39","","NA"
"-115.14","67.82","KUGLUKTUK A","2300905","2021-03-28 19:00","2021","03","28","19:00","-26.8","","-30.7","","70","","","M","25","","21","","","M","102.30","","","","-39","","NA"
"-115.14","67.82","KUGLUKTUK A","2300905","2021-03-28 20:00","2021","03","28","20:00","-27.4","","-30.9","","73","","","M","25","","23","","","M","102.31","","","","-41","","NA"
"-115.14","67.82","KUGLUKTUK A","2300905","2021-03-28 21:00","2021","03","28","21:00","-27.0","","-30.8","","71","","","M","25","","22","","","M","102.32","","","","-40","","NA"
"-115.14","67.82","KUGLUKTUK A","2300905","2021-03-28 22:00","2021","03","28","22:00","-28.1","","-31.7","","72","","","M","27","","18","","","M","102.34","","","","-40","","NA"
"-115.14","67.82","KUGLUKTUK A","2300905","2021-03-28 23:00","2021","03","28","23:00","-29.1","","-32.4","","74","","","M","23","","18","","","M","102.35","","","","-41","","NA"
"-115.14","67.82","KUGLUKTUK A","2300905","2021-03-29 00:00","2021","03","29","00:00","-28.1","","-31.6","","73","","","M","26","","20","","","M","102.38","","","","-41","","NA"
"-115.14","67.82","KUGLUKTUK A","2300905","2021-03-29 01:00","2021","03","29","01:00","-29.1","","-32.5","","73","","","M","25","","18","","","M","102.39","","","","-41","","NA"
"-115.14","67.82","KUGLUKTUK A","2300905","2021-03-29 02:00","2021","03","29","02:00","-30.8","","-34.3","","72","","","M","22","","21","","","M","102.37","","","","-44","","NA"
"-115.14","67.82","KUGLUKTUK A","2300905","2021-03-29 03:00","2021","03","29","03:00","-30.4","","-33.5","","74","","","M","23","","25","","","M","102.34","","","","-45","","NA"
"-115.14","67.82","KUGLUKTUK A","2300905","2021-03-29 04:00","2021","03","29","04:00","-31.9","","-35.3","","72","","","M","22","","24","","","M","102.36","","","","-47","","NA"
"-115.14","67.82","KUGLUKTUK A","2300905","2021-03-29 05:00","2021","03","29","05:00","-31.3","","-34.7","","73","","","M","23","","21","","","M","102.34","","","","-45","","NA"
"-115.14","67.82","KUGLUKTUK A","2300905","2021-03-29 06:00","2021","03","29","06:00","-31.3","","-35.1","","70","","","M","23","","30","","","M","102.30","","","","-47","","NA"
"-115.14","67.82","KUGLUKTUK A","2300905","2021-03-29 07:00","2021","03","29","07:00","-31.3","","-35.5","","67","","","M","24","","7","","","M","102.31","","","","-39","","NA"
"-115.14","67.82","KUGLUKTUK A","2300905","2021-03-29 08:00","2021","03","29","08:00","-30.2","","-34.5","","67","","","M","24","","26","","","M","102.28","","","","-45","","NA"
"-115.14","67.82","KUGLUKTUK A","2300905","2021-03-29 09:00","2021","03","29","09:00","-30.5","","-34.6","","68","","","M","22","","23","","","M","102.28","","","","-45","","NA"
"-115.14","67.82","KUGLUKTUK A","2300905","2021-03-29 10:00","2021","03","29","10:00","-29.4","","-33.7","","67","","","M","23","","21","","","M","102.27","","","","-43","","NA"
"-115.14","67.82","KUGLUKTUK A","2300905","2021-03-29 11:00","2021","03","29","11:00","-27.5","","-32.3","","65","","","M","24","","27","","","M","102.24","","","","-42","","NA"
"-115.14","67.82","KUGLUKTUK A","2300905","2021-03-29 12:00","2021","03","29","12:00","-27.2","","-31.8","","66","","","M","23","","12","","","M","102.27","","","","-37","","NA"
"-115.14","67.82","KUGLUKTUK A","2300905","2021-03-29 13:00","2021","03","29","13:00","-26.2","","-30.7","","67","","","M","24","","14","","","M","102.25","","","","-36","","NA"
"-115.14","67.82","KUGLUKTUK A","2300905","2021-03-29 14:00","2021","03","29","14:00","-25.5","","-29.9","","67","","","M","23","","17","","","M","102.22","","","","-37","","NA"
"-115.14","67.82","KUGLUKTUK A","2300905","2021-03-29 15:00","2021","03","29","15:00","-25.0","","-29.8","","65","","","M","26","","20","","","M","102.20","","","","-37","","NA"
"-115.14","67.82","KUGLUKTUK A","2300905","2021-03-29 16:00","2021","03","29","16:00","-25.4","","-30.1","","66","","","M","24","","18","","","M","102.18","","","","-37","","NA"
"-115.14","67.82","KUGLUKTUK A","2300905","2021-03-29 17:00","2021","03","29","17:00","-26.0","","-30.7","","65","","","M","26","","16","","","M","102.18","","","","-37","","NA"
"-115.14","67.82","KUGLUKTUK A","2300905","2021-03-29 18:00","2021","03","29","18:00","-26.7","","-31.1","","68","","","M","24","","19","","","M","102.14","","","","-39","","NA"
"-115.14","67.82","KUGLUKTUK A","2300905","2021-03-29 19:00","2021","03","29","19:00","-28.9","","-32.9","","69","","","M","23","","16","","","M","102.14","","","","-40","","NA"
"-115.14","67.82","KUGLUKTUK A","2300905","2021-03-29 20:00","2021","03","29","20:00","-30.3","","-33.9","","72","","","M","23","","19","","","M","102.13","","","","-43","","NA"
"-115.14","67.82","KUGLUKTUK A","2300905","2021-03-29 21:00","2021","03","29","21:00","-30.5","","-34.0","","72","","","M","23","","17","","","M","102.10","","","","-43","","NA"
"-115.14","67.82","KUGLUKTUK A","2300905","2021-03-29 22:00","2021","03","29","22:00","-30.2","","-33.7","","72","","","M","23","","13","","","M","102.04","","","","-41","","NA"
"-115.14","67.82","KUGLUKTUK A","2300905","2021-03-29 23:00","2021","03","29","23:00","-30.5","","-34.0","","72","","","M","23","","8","","","M","102.02","","","","-39","","NA"
"-115.14","67.82","KUGLUKTUK A","2300905","2021-03-30 00:00","2021","03","30","00:00","-30.8","","-34.2","","73","","","M","22","","11","","","M","101.98","","","","-41","","NA"
"-115.14","67.82","KUGLUKTUK A","2300905","2021-03-30 01:00","2021","03","30","01:00","-31.0","","-34.4","","73","","","M","21","","9","","","M","101.94","","","","-40","","NA"
"-115.14","67.82","KUGLUKTUK A","2300905","2021-03-30 02:00","2021","03","30","02:00","-31.7","","-34.9","","75","","","M","23","","4","","","M","101.92","","","","-36","","NA"
"-115.14","67.82","KUGLUKTUK A","2300905","2021-03-30 03:00","2021","03","30","03:00","-33.2","","-36.3","","74","","","M","35","","4","","","M","101.89","","","","-38","","NA"
"-115.14","67.82","KUGLUKTUK A","2300905","2021-03-30 04:00","2021","03","30","04:00","-33.1","","-36.2","","74","","","M","0","","1","","","M","101.88","","","","-34","","NA"
"-115.14","67.82","KUGLUKTUK A","2300905","2021-03-30 05:00","2021","03","30","05:00","-33.7","","-36.8","","74","","","M","34","","3","","","M","101.83","","","","-37","","NA"
"-115.14","67.82","KUGLUKTUK A","2300905","2021-03-30 06:00","2021","03","30","06:00","-34.1","","-37.3","","73","","","M","32","","3","","","M","101.82","","","","-38","","NA"
"-115.14","67.82","KUGLUKTUK A","2300905","2021-03-30 07:00","2021","03","30","07:00","-33.5","","-36.5","","75","","","M","35","","2","","","M","101.78","","","","-36","","NA"
"-115.14","67.82","KUGLUKTUK A","2300905","2021-03-30 08:00","2021","03","30","08:00","-33.1","","-36.2","","75","","","M","3","","1","","","M","101.76","","","","-34","","NA"
"-115.14","67.82","KUGLUKTUK A","2300905","2021-03-30 09:00","2021","03","30","09:00","-34.2","","-37.5","","72","","","M","35","","5","","","M","101.70","","","","-40","","NA"
"-115.14","67.82","KUGLUKTUK A","2300905","2021-03-30 10:00","2021","03","30","10:00","-33.6","","-37.1","","71","","","M","36","","4","","","M","101.66","","","","-38","","NA"
"-115.14","67.82","KUGLUKTUK A","2300905","2021-03-30 11:00","2021","03","30","11:00","-32.1","","-35.4","","73","","","M","1","","5","","","M","101.62","","","","-38","","NA"
"-115.14","67.82","KUGLUKTUK A","2300905","2021-03-30 12:00","2021","03","30","12:00","-30.9","","-34.2","","74","","","M","1","","7","","","M","101.62","","","","-38","","NA"
"-115.14","67.82","KUGLUKTUK A","2300905","2021-03-30 13:00","2021","03","30","13:00","-30.0","","-33.3","","73","","","M","3","","4","","","M","101.61","","","","-35","","NA"
"-115.14","67.82","KUGLUKTUK A","2300905","2021-03-30 14:00","2021","03","30","14:00","-29.3","","-32.5","","75","","","M","3","","11","","","M","101.60","","","","-39","","NA"
"-115.14","67.82","KUGLUKTUK A","2300905","2021-03-30 15:00","2021","03","30","15:00","-28.9","","-32.0","","75","","","M","4","","13","","","M","101.61","","","","-39","","NA"
"-115.14","67.82","KUGLUKTUK A","2300905","2021-03-30 16:00","2021","03","30","16:00","-28.6","","-31.8","","75","","","M","3","","13","","","M","101.60","","","","-39","","NA"
"-115.14","67.82","KUGLUKTUK A","2300905","2021-03-30 17:00","2021","03","30","17:00","-28.8","","-32.1","","74","","","M","3","","11","","","M","101.64","","","","-38","","NA"
"-115.14","67.82","KUGLUKTUK A","2300905","2021-03-30 18:00","2021","03","30","18:00","-29.7","","-33.0","","74","","","M","1","","10","","","M","101.65","","","","-39","","NA"
"-115.14","67.82","KUGLUKTUK A","2300905","2021-03-30 19:00","2021","03","30","19:00","-30.5","","-33.7","","74","","","M","34","","4","","","M","101.66","","","","-35","","NA"
"-115.14","67.82","KUGLUKTUK A","2300905","2021-03-30 20:00","2021","03","30","20:00","-31.5","","-34.6","","74","","","M","35","","5","","","M","101.67","","","","-37","","NA"
"-115.14","67.82","KUGLUKTUK A","2300905","2021-03-30 21:00","2021","03","30","21:00","-32.2","","-35.4","","74","","","M","34","","3","","","M","101.66","","","","-36","","NA"
"-115.14","67.82","KUGLUKTUK A","2300905","2021-03-30 22:00","2021","03","30","22:00","-33.7","","-36.9","","74","","","M","29","","8","","","M","101.67","","","","-42","","NA"
"-115.14","67.82","KUGLUKTUK A","2300905","2021-03-30 23:00","2021","03","30","23:00","-33.9","","-37.1","","73","","","M","30","","7","","","M","101.67","","","","-42","","NA"
"-115.14","67.82","KUGLUKTUK A","2300905","2021-03-31 00:00","2021","03","31","00:00","-34.7","","-38.0","","73","","","M","30","","9","","","M","101.69","","","","-44","","NA"
"-115.14","67.82","KUGLUKTUK A","2300905","2021-03-31 01:00","2021","03","31","01:00","-37.0","","-40.4","","71","","","M","24","","5","","","M","101.72","","","","-44","","NA"
"-115.14","67.82","KUGLUKTUK A","2300905","2021-03-31 02:00","2021","03","31","02:00","-37.1","","-40.5","","71","","","M","23","","4","","","M","101.73","","","","-42","","NA"
"-115.14","67.82","KUGLUKTUK A","2300905","2021-03-31 03:00","2021","03","31","03:00","-35.9","","-39.3","","72","","","M","27","","7","","","M","101.73","","","","-44","","NA"
"-115.14","67.82","KUGLUKTUK A","2300905","2021-03-31 04:00","2021","03","31","04:00","-37.6","","-41.1","","71","","","M","24","","9","","","M","101.72","","","","-48","","NA"
"-115.14","67.82","KUGLUKTUK A","2300905","2021-03-31 05:00","2021","03","31","05:00","-36.5","","-39.9","","72","","","M","31","","2","","","M","101.73","","","","-39","","NA"
"-115.14","67.82","KUGLUKTUK A","2300905","2021-03-31 06:00","2021","03","31","06:00","-38.5","","-42.1","","70","","","M","23","","11","","","M","101.76","","","","-50","","NA"
"-115.14","67.82","KUGLUKTUK A","2300905","2021-03-31 07:00","2021","03","31","07:00","-37.5","","-41.1","","70","","","M","24","","4","","","M","101.78","","","","-43","","NA"
"-115.14","67.82","KUGLUKTUK A","2300905","2021-03-31 08:00","2021","03","31","08:00","-37.1","","-40.8","","70","","","M","23","","12","","","M","101.79","","","","-49","","NA"
"-115.14","67.82","KUGLUKTUK A","2300905","2021-03-31 09:00","2021","03","31","09:00","-36.2","","-39.8","","70","","","M","23","","4","","","M","101.81","","","","-41","","NA"
"-115.14","67.82","KUGLUKTUK A","2300905","2021-03-31 10:00","2021","03","31","10:00","-35.6","","-39.2","","70","","","M","9","","2","","","M","101.85","","","","-38","","NA"
"-115.14","67.82","KUGLUKTUK A","2300905","2021-03-31 11:00","2021","03","31","11:00","-35.0","","-38.6","","71","","","M","36","","4","","","M","101.84","","","","-40","","NA"
"-115.14","67.82","KUGLUKTUK A","2300905","2021-03-31 12:00","2021","03","31","12:00","-34.0","","-37.5","","71","","","M","20","","5","","","M","101.86","","","","-40","","NA"
"-115.14","67.82","KUGLUKTUK A","2300905","2021-03-31 13:00","2021","03","31","13:00","-33.6","","-37.1","","72","","","M","22","","3","","","M","101.88","","","","-37","","NA"
"-115.14","67.82","KUGLUKTUK A","2300905","2021-03-31 14:00","2021","03","31","14:00","-32.8","","-36.3","","72","","","M","33","","5","","","M","101.87","","","","-39","","NA"
"-115.14","67.82","KUGLUKTUK A","2300905","2021-03-31 15:00","2021","03","31","15:00","-32.7","","-36.2","","72","","","M","34","","5","","","M","101.87","","","","-39","","NA"
"-115.14","67.82","KUGLUKTUK A","2300905","2021-03-31 16:00","2021","03","31","16:00","-32.5","","-35.9","","72","","","M","2","","4","","","M","101.86","","","","-37","","NA"
"-115.14","67.82","KUGLUKTUK A","2300905","2021-03-31 17:00","2021","03","31","17:00","-31.7","","-35.1","","73","","","M","9","","5","","","M","101.86","","","","-38","","NA"
"-115.14","67.82","KUGLUKTUK A","2300905","2021-03-31 18:00","2021","03","31","18:00","-31.4","","-34.7","","73","","","M","1","","2","","","M","101.84","","","","-34","","NA"
"-115.14","67.82","KUGLUKTUK A","2300905","2021-03-31 19:00","2021","03","31","19:00","-32.2","","-35.6","","73","","","M","1","","3","","","M","101.84","","","","-36","","NA"
"-115.14","67.82","KUGLUKTUK A","2300905","2021-03-31 20:00","2021","03","31","20:00","-33.9","","-37.3","","72","","","M","32","","5","","","M","101.82","","","","-40","","NA"
"-115.14","67.82","KUGLUKTUK A","2300905","2021-03-31 21:00","2021","03","31","21:00","-35.0","","-38.5","","71","","","M","15","","5","","","M","101.82","","","","-41","","NA"
"-115.14","67.82","KUGLUKTUK A","2300905","2021-03-31 22:00","2021","03","31","22:00","-35.6","","-39.1","","71","","","M","36","","9","","","M","101.76","","","","-45","","NA"
"-115.14","67.82","KUGLUKTUK A","2300905","2021-03-31 23:00","2021","03","31","23:00","-35.5","","-39.0","","71","","","M","36","","5","","","M","101.72","","","","-42","","NA"
