"Longitude (x)","Latitude (y)","Station Name","Climate ID","Date/Time (LST)","Year","Month","Day","Time (LST)","Temp (°C)","Temp Flag","Dew Point Temp (°C)","Dew Point Temp Flag","Rel Hum (%)","Rel Hum Flag","Precip. Amount (mm)","Precip. Amount Flag","Wind Dir (10s deg)","Wind Dir Flag","Wind Spd (km/h)","Wind Spd Flag","Visibility (km)","Visibility Flag","Stn Press (kPa)","Stn Press Flag","Hmdx","Hmdx Flag","Wind Chill","Wind Chill Flag","Weather"
"-68.21","48.61","MONT JOLI A","7055121","2018-11-01 00:00","2018","11","01","00:00","1.8","","0.4","","90","","","","8","","8","","24.1","","100.27","","","","","","Snow"
"-68.21","48.61","MONT JOLI A","7055121","2018-11-01 01:00","2018","11","01","01:00","1.8","","0.6","","92","","","","11","","3","","16.1","","100.20","","","","","","Snow"
"-68.21","48.61","MONT JOLI A","7055121","2018-11-01 02:00","2018","11","01","02:00","2.0","","1.2","","95","","","","16","","5","","24.1","","100.20","","","","","","Snow"
"-68.21","48.61","MONT JOLI A","7055121","2018-11-01 03:00","2018","11","01","03:00","2.2","","1.4","","95","","","","20","","6","","16.1","","100.19","","","","","","Snow"
"-68.21","48.61","MONT JOLI A","7055121","2018-11-01 04:00","2018","11","01","04:00","2.6","","1.4","","92","","","","23","","5","","16.1","","100.20","","","","","","Cloudy"
"-68.21","48.61","MONT JOLI A","7055121","2018-11-01 05:00","2018","11","01","05:00","2.4","","1.5","","94","","","","26","","5","","16.1","","100.19","","","","","","NA"
"-68.21","48.61","MONT JOLI A","7055121","2018-11-01 06:00","2018","11","01","06:00","2.3","","1.6","","95","","","","26","","9","","16.1","","100.24","","","","","","NA"
"-68.21","48.61","MONT JOLI A","7055121","2018-11-01 07:00","2018","11","01","07:00","2.8","","1.7","","93","","","","24","","10","","24.1","","100.26","","","","","","Mostly Cloudy"
"-68.21","48.61","MONT JOLI A","7055121","2018-11-01 08:00","2018","11","01","08:00","3.9","","1.8","","86","","","","24","","21","","24.1","","100.30","","","","","","NA"
"-68.21","48.61","MONT JOLI A","7055121","2018-11-01 09:00","2018","11","01","09:00","4.6","","1.8","","82","","","","25","","26","","24.1","","100.34","","","","","","NA"
"-68.21","48.61","MONT JOLI A","7055121","2018-11-01 10:00","2018","11","01","10:00","5.1","","1.7","","79","","","","25","","36","","48.3","","100.35","","","","","","Mostly Cloudy"
"-68.21","48.61","MONT JOLI A","7055121","2018-11-01 11:00","2018","11","01","11:00","5.1","","1.2","","76","","","","25","","31","","24.1","","100.37","","","","","","NA"
"-68.21","48.61","MONT JOLI A","7055121","2018-11-01 12:00","2018","11","01","12:00","5.7","","1.1","","72","","","","25","","31","","24.1","","100.34","","","","","","NA"
"-68.21","48.61","MONT JOLI A","7055121","2018-11-01 13:00","2018","11","01","13:00","5.7","","1.3","","73","","","","25","","31","","24.1","","100.36","","","","","","Mostly Cloudy"
"-68.21","48.61","MONT JOLI A","7055121","2018-11-01 14:00","2018","11","01","14:00","5.7","","1.2","","73","","","","24","","23","","24.1","","100.38","","","","","","NA"
"-68.21","48.61","MONT JOLI A","7055121","2018-11-01 15:00","2018","11","01","15:00","5.6","","1.1","","72","","","","25","","23","","24.1","","100.41","","","","","","NA"
"-68.21","48.61","MONT JOLI A","7055121","2018-11-01 16:00","2018","11","01","16:00","5.4","","0.9","","73","","","","24","","22","","24.1","","100.47","","","","","","Mostly Cloudy"
"-68.21","48.61","MONT JOLI A","7055121","2018-11-01 17:00","2018","11","01","17:00","4.6","","0.9","","77","","","","24","","12","","48.3","","100.52","","","","","","NA"
"-68.21","48.61","MONT JOLI A","7055121","2018-11-01 18:00","2018","11","01","18:00","4.4","","1.2","","80","","","","24","","14","","48.3","","100.58","","","","","","NA"
"-68.21","48.61","MONT JOLI A","7055121","2018-11-01 19:00","2018","11","01","19:00","3.4","","1.0","","85","","","","22","","12","","24.1","","100.56","","","","","","Mostly Cloudy"
"-68.21","48.61","MONT JOLI A","7055121","2018-11-01 20:00","2018","11","01","20:00","3.9","","1.2","","83","","","","22","","14","","24.1","","100.58","","","","","","NA"
"-68.21","48.61","MONT JOLI A","7055121","2018-11-01 21:00","2018","11","01","21:00","4.2","","1.5","","82","","","","23","","15","","24.1","","100.62","","","","","","NA"
"-68.21","48.61","MONT JOLI A","7055121","2018-11-01 22:00","2018","11","01","22:00","3.6","","1.1","","84","","","","22","","11","","24.1","","100.61","","","","","","Mainly Clear"
"-68.21","48.61","MONT JOLI A","7055121","2018-11-01 23:00","2018","11","01","23:00","3.8","","1.2","","83","","","","23","","14","","24.1","","100.64","","","","","","NA"
"-68.21","48.61","MONT JOLI A","7055121","2018-11-02 00:00","2018","11","02","00:00","3.5","","0.9","","83","","","","22","","13","","24.1","","100.63","","","","","","NA"
"-68.21","48.61","MONT JOLI A","7055121","2018-11-02 01:00","2018","11","02","01:00","3.4","","0.7","","82","","","","22","","10","","48.3","","100.69","","","","","","Cloudy"
"-68.21","48.61","MONT JOLI A","7055121","2018-11-02 02:00","2018","11","02","02:00","3.0","","0.6","","84","","","","22","","8","","48.3","","100.68","","","","","","NA"
"-68.21","48.61","MONT JOLI A","7055121","2018-11-02 03:00","2018","11","02","03:00","3.4","","0.6","","82","","","","21","","10","","48.3","","100.61","","","","","","NA"
"-68.21","48.61","MONT JOLI A","7055121","2018-11-02 04:00","2018","11","02","04:00","3.3","","0.5","","82","","","","20","","9","","48.3","","100.66","","","","","","Mostly Cloudy"
"-68.21","48.61","MONT JOLI A","7055121","2018-11-02 05:00","2018","11","02","05:00","2.5","","0.4","","86","","","","18","","7","","48.3","","100.71","","","","","","NA"
"-68.21","48.61","MONT JOLI A","7055121","2018-11-02 06:00","2018","11","02","06:00","2.1","","0.3","","88","","","","16","","7","","48.3","","100.66","","","","","","NA"
"-68.21","48.61","MONT JOLI A","7055121","2018-11-02 07:00","2018","11","02","07:00","2.2","","0.5","","89","","","","14","","8","","48.3","","100.71","","","","","","Cloudy"
"-68.21","48.61","MONT JOLI A","7055121","2018-11-02 08:00","2018","11","02","08:00","2.4","","0.6","","88","","","","36","","3","","48.3","","100.75","","","","","","NA"
"-68.21","48.61","MONT JOLI A","7055121","2018-11-02 09:00","2018","11","02","09:00","3.4","","1.1","","85","","","","16","","7","","24.1","","100.74","","","","","","Rain"
"-68.21","48.61","MONT JOLI A","7055121","2018-11-02 10:00","2018","11","02","10:00","3.1","","1.5","","89","","","","16","","14","","24.1","","100.76","","","","","","Rain"
"-68.21","48.61","MONT JOLI A","7055121","2018-11-02 11:00","2018","11","02","11:00","3.1","","1.6","","90","","","","13","","9","","24.1","","100.64","","","","","","Rain"
"-68.21","48.61","MONT JOLI A","7055121","2018-11-02 12:00","2018","11","02","12:00","3.6","","2.1","","90","","","","4","","9","","24.1","","100.60","","","","","","Rain"
"-68.21","48.61","MONT JOLI A","7055121","2018-11-02 13:00","2018","11","02","13:00","3.1","","2.1","","93","","","","4","","9","","24.1","","100.66","","","","","","Rain"
"-68.21","48.61","MONT JOLI A","7055121","2018-11-02 14:00","2018","11","02","14:00","3.2","","2.3","","94","","","","2","","16","","16.1","","100.70","","","","","","NA"
"-68.21","48.61","MONT JOLI A","7055121","2018-11-02 15:00","2018","11","02","15:00","3.0","","2.1","","94","","","","4","","19","","16.1","","100.73","","","","","","Rain"
"-68.21","48.61","MONT JOLI A","7055121","2018-11-02 16:00","2018","11","02","16:00","2.7","","1.6","","92","","","","5","","17","","16.1","","100.77","","","","","","Rain"
"-68.21","48.61","MONT JOLI A","7055121","2018-11-02 17:00","2018","11","02","17:00","2.6","","1.5","","93","","","","7","","14","","16.1","","100.82","","","","","","Rain"
"-68.21","48.61","MONT JOLI A","7055121","2018-11-02 18:00","2018","11","02","18:00","2.6","","1.6","","93","","","","7","","14","","48.3","","100.81","","","","","","Rain"
"-68.21","48.61","MONT JOLI A","7055121","2018-11-02 19:00","2018","11","02","19:00","3.0","","1.4","","89","","","","7","","13","","48.3","","100.87","","","","","","Rain"
"-68.21","48.61","MONT JOLI A","7055121","2018-11-02 20:00","2018","11","02","20:00","3.0","","1.4","","89","","","","5","","14","","48.3","","100.87","","","","","","NA"
"-68.21","48.61","MONT JOLI A","7055121","2018-11-02 21:00","2018","11","02","21:00","3.0","","1.5","","90","","","","7","","13","","48.3","","100.90","","","","","","NA"
"-68.21","48.61","MONT JOLI A","7055121","2018-11-02 22:00","2018","11","02","22:00","3.1","","1.5","","89","","","","6","","21","","48.3","","100.84","","","","","","Cloudy"
"-68.21","48.61","MONT JOLI A","7055121","2018-11-02 23:00","2018","11","02","23:00","2.8","","1.7","","93","","","","7","","16","","48.3","","100.84","","","","","","Rain"
"-68.21","48.61","MONT JOLI A","7055121","2018-11-03 00:00","2018","11","03","00:00","2.7","","1.8","","94","","","","6","","20","","48.3","","100.79","","","","","","Rain"
"-68.21","48.61","MONT JOLI A","7055121","2018-11-03 01:00","2018","11","03","01:00","2.8","","1.6","","92","","","","7","","19","","48.3","","100.73","","","","","","Cloudy"
"-68.21","48.61","MONT JOLI A","7055121","2018-11-03 02:00","2018","11","03","02:00","2.7","","1.9","","94","","","","6","","14","","16.1","","100.68","","","","","","Rain"
"-68.21","48.61","MONT JOLI A","7055121","2018-11-03 03:00","2018","11","03","03:00","2.6","","1.8","","94","","","","6","","17","","16.1","","100.63","","","","","","Rain"
"-68.21","48.61","MONT JOLI A","7055121","2018-11-03 04:00","2018","11","03","04:00","2.6","","2.0","","96","","","","7","","17","","16.1","","100.63","","","","","","Rain"
"-68.21","48.61","MONT JOLI A","7055121","2018-11-03 05:00","2018","11","03","05:00","2.6","","2.1","","96","","","","7","","20","","16.1","","100.42","","","","","","Rain"
"-68.21","48.61","MONT JOLI A","7055121","2018-11-03 06:00","2018","11","03","06:00","2.7","","2.0","","95","","","","5","","19","","24.1","","100.35","","","","","","Rain"
"-68.21","48.61","MONT JOLI A","7055121","2018-11-03 07:00","2018","11","03","07:00","2.3","","1.8","","97","","","","4","","27","","16.1","","100.43","","","","","","Rain"
"-68.21","48.61","MONT JOLI A","7055121","2018-11-03 08:00","2018","11","03","08:00","2.5","","2.0","","96","","","","6","","30","","6.4","","100.36","","","","","","Rain,Fog"
"-68.21","48.61","MONT JOLI A","7055121","2018-11-03 09:00","2018","11","03","09:00","2.6","","2.1","","97","","","","6","","31","","4.8","","100.27","","","","","","Rain,Fog"
"-68.21","48.61","MONT JOLI A","7055121","2018-11-03 10:00","2018","11","03","10:00","2.5","","2.0","","97","","","","5","","33","","2.4","","100.22","","","","","","Rain,Fog"
"-68.21","48.61","MONT JOLI A","7055121","2018-11-03 11:00","2018","11","03","11:00","2.5","","2.1","","97","","","","6","","28","","2.4","","100.03","","","","","","Rain,Fog"
"-68.21","48.61","MONT JOLI A","7055121","2018-11-03 12:00","2018","11","03","12:00","2.6","","2.1","","97","","","","5","","31","","2.4","","99.96","","","","","","Rain,Fog"
"-68.21","48.61","MONT JOLI A","7055121","2018-11-03 13:00","2018","11","03","13:00","2.6","","2.2","","97","","","","5","","31","","2.4","","99.73","","","","","","Rain,Fog"
"-68.21","48.61","MONT JOLI A","7055121","2018-11-03 14:00","2018","11","03","14:00","2.7","","2.3","","97","","","","5","","26","","2.0","","99.58","","","","","","Drizzle,Fog"
"-68.21","48.61","MONT JOLI A","7055121","2018-11-03 15:00","2018","11","03","15:00","2.9","","2.5","","98","","","","6","","30","","2.0","","99.32","","","","","","Drizzle,Fog"
"-68.21","48.61","MONT JOLI A","7055121","2018-11-03 16:00","2018","11","03","16:00","2.9","","2.6","","97","","","","6","","32","","2.4","","99.09","","","","","","Rain,Fog"
"-68.21","48.61","MONT JOLI A","7055121","2018-11-03 17:00","2018","11","03","17:00","2.7","","2.4","","97","","","","5","","31","","3.2","","98.81","","","","","","Rain,Fog"
"-68.21","48.61","MONT JOLI A","7055121","2018-11-03 18:00","2018","11","03","18:00","2.4","","2.0","","97","","","","6","","46","","3.2","","98.49","","","","","","Rain,Fog"
"-68.21","48.61","MONT JOLI A","7055121","2018-11-03 19:00","2018","11","03","19:00","2.7","","2.3","","97","","","","5","","37","","3.2","","98.29","","","","","","Rain,Fog"
"-68.21","48.61","MONT JOLI A","7055121","2018-11-03 20:00","2018","11","03","20:00","2.6","","2.0","","96","","","","5","","32","","4.8","","98.28","","","","","","Rain,Fog"
"-68.21","48.61","MONT JOLI A","7055121","2018-11-03 21:00","2018","11","03","21:00","2.4","","2.0","","97","","","","4","","27","","4.8","","98.29","","","","","","Rain,Fog"
"-68.21","48.61","MONT JOLI A","7055121","2018-11-03 22:00","2018","11","03","22:00","0.9","","0.5","","97","","","","29","","33","","3.2","","98.72","","","","","","Rain,Fog"
"-68.21","48.61","MONT JOLI A","7055121","2018-11-03 23:00","2018","11","03","23:00","2.3","","1.7","","95","","","","26","","29","","9.7","","98.94","","","","","","Rain,Fog"
"-68.21","48.61","MONT JOLI A","7055121","2018-11-04 00:00","2018","11","04","00:00","2.1","","1.3","","94","","","","25","","49","","9.7","","99.13","","","","","","Rain,Fog"
"-68.21","48.61","MONT JOLI A","7055121","2018-11-04 01:00","2018","11","04","01:00","2.2","","1.0","","91","","","","24","","38","","9.7","","99.37","","","","","","Rain,Fog"
"-68.21","48.61","MONT JOLI A","7055121","2018-11-04 02:00","2018","11","04","02:00","2.7","","0.7","","87","","","","24","","40","","24.1","","99.59","","","","","","Rain"
"-68.21","48.61","MONT JOLI A","7055121","2018-11-04 03:00","2018","11","04","03:00","3.0","","0.1","","81","","","","25","","54","","48.3","","99.82","","","","","","Rain"
"-68.21","48.61","MONT JOLI A","7055121","2018-11-04 04:00","2018","11","04","04:00","2.8","","-0.4","","79","","","","25","","54","","48.3","","100.10","","","","","","Cloudy"
"-68.21","48.61","MONT JOLI A","7055121","2018-11-04 05:00","2018","11","04","05:00","2.6","","-0.6","","79","","","","25","","48","","48.3","","100.35","","","","","","NA"
"-68.21","48.61","MONT JOLI A","7055121","2018-11-04 06:00","2018","11","04","06:00","3.3","","-1.6","","70","","","","27","","45","","48.3","","100.56","","","","","","NA"
"-68.21","48.61","MONT JOLI A","7055121","2018-11-04 07:00","2018","11","04","07:00","3.0","","-1.6","","71","","","","27","","41","","48.3","","100.84","","","","","","Cloudy"
"-68.21","48.61","MONT JOLI A","7055121","2018-11-04 08:00","2018","11","04","08:00","3.0","","-2.0","","69","","","","27","","44","","48.3","","101.08","","","","","","NA"
"-68.21","48.61","MONT JOLI A","7055121","2018-11-04 09:00","2018","11","04","09:00","3.2","","-2.4","","67","","","","27","","49","","48.3","","101.30","","","","","","NA"
"-68.21","48.61","MONT JOLI A","7055121","2018-11-04 10:00","2018","11","04","10:00","3.5","","-1.6","","69","","","","27","","33","","48.3","","101.54","","","","","","Mostly Cloudy"
"-68.21","48.61","MONT JOLI A","7055121","2018-11-04 11:00","2018","11","04","11:00","3.5","","-1.1","","71","","","","27","","30","","48.3","","101.68","","","","","","NA"
"-68.21","48.61","MONT JOLI A","7055121","2018-11-04 12:00","2018","11","04","12:00","3.6","","-1.4","","70","","","","29","","31","","48.3","","101.78","","","","","","NA"
"-68.21","48.61","MONT JOLI A","7055121","2018-11-04 13:00","2018","11","04","13:00","3.6","","-1.8","","68","","","","28","","31","","48.3","","101.90","","","","","","Mostly Cloudy"
"-68.21","48.61","MONT JOLI A","7055121","2018-11-04 14:00","2018","11","04","14:00","3.3","","-2.2","","67","","","","29","","31","","48.3","","102.04","","","","","","NA"
"-68.21","48.61","MONT JOLI A","7055121","2018-11-04 15:00","2018","11","04","15:00","2.8","","-1.8","","72","","","","28","","26","","48.3","","102.19","","","","","","NA"
"-68.21","48.61","MONT JOLI A","7055121","2018-11-04 16:00","2018","11","04","16:00","2.7","","-2.2","","70","","","","28","","21","","48.3","","102.28","","","","","","Mostly Cloudy"
"-68.21","48.61","MONT JOLI A","7055121","2018-11-04 17:00","2018","11","04","17:00","2.8","","-2.1","","70","","","","28","","24","","48.3","","102.43","","","","","","NA"
"-68.21","48.61","MONT JOLI A","7055121","2018-11-04 18:00","2018","11","04","18:00","2.6","","-1.5","","74","","","","29","","14","","48.3","","102.57","","","","","","NA"
"-68.21","48.61","MONT JOLI A","7055121","2018-11-04 19:00","2018","11","04","19:00","2.8","","-3.3","","64","","","","30","","21","","48.3","","102.65","","","","","","Cloudy"
"-68.21","48.61","MONT JOLI A","7055121","2018-11-04 20:00","2018","11","04","20:00","2.4","","-2.0","","72","","","","28","","16","","48.3","","102.74","","","","","","NA"
"-68.21","48.61","MONT JOLI A","7055121","2018-11-04 21:00","2018","11","04","21:00","2.2","","-2.2","","73","","","","28","","15","","48.3","","102.83","","","","","","NA"
"-68.21","48.61","MONT JOLI A","7055121","2018-11-04 22:00","2018","11","04","22:00","1.3","","-1.6","","81","","","","29","","12","","48.3","","102.86","","","","","","Mainly Clear"
"-68.21","48.61","MONT JOLI A","7055121","2018-11-04 23:00","2018","11","04","23:00","-0.3","","-1.7","","90","","","","21","","9","","48.3","","102.94","","","","-3","","NA"
"-68.21","48.61","MONT JOLI A","7055121","2018-11-05 00:00","2018","11","05","00:00","-1.0","","-2.5","","90","","","","26","","3","","48.3","","102.94","","","","-2","","NA"
"-68.21","48.61","MONT JOLI A","7055121","2018-11-05 01:00","2018","11","05","01:00","-3.1","","-4.2","","93","","","","17","","5","","48.3","","102.99","","","","-5","","Clear"
"-68.21","48.61","MONT JOLI A","7055121","2018-11-05 02:00","2018","11","05","02:00","-2.8","","-3.8","","93","","","","16","","7","","48.3","","103.02","","","","-6","","NA"
"-68.21","48.61","MONT JOLI A","7055121","2018-11-05 03:00","2018","11","05","03:00","-3.0","","-3.8","","94","","","","16","","7","","48.3","","103.03","","","","-6","","NA"
"-68.21","48.61","MONT JOLI A","7055121","2018-11-05 04:00","2018","11","05","04:00","-3.2","","-4.2","","93","","","","15","","7","","48.3","","103.01","","","","-6","","Mainly Clear"
"-68.21","48.61","MONT JOLI A","7055121","2018-11-05 05:00","2018","11","05","05:00","-3.8","","-5.0","","91","","","","15","","7","","48.3","","103.02","","","","-7","","NA"
"-68.21","48.61","MONT JOLI A","7055121","2018-11-05 06:00","2018","11","05","06:00","-4.6","","-5.7","","92","","","","15","","9","","48.3","","103.03","","","","-8","","NA"
"-68.21","48.61","MONT JOLI A","7055121","2018-11-05 07:00","2018","11","05","07:00","-2.5","","-4.1","","88","","","","15","","10","","48.3","","103.12","","","","-6","","Mainly Clear"
"-68.21","48.61","MONT JOLI A","7055121","2018-11-05 08:00","2018","11","05","08:00","-0.9","","-2.6","","88","","","","17","","4","","48.3","","103.20","","","","-2","","NA"
"-68.21","48.61","MONT JOLI A","7055121","2018-11-05 09:00","2018","11","05","09:00","0.4","","-2.1","","83","","","","12","","11","","48.3","","103.04","","","","","","NA"
"-68.21","48.61","MONT JOLI A","7055121","2018-11-05 10:00","2018","11","05","10:00","1.0","","-2.9","","75","","","","10","","12","","48.3","","102.94","","","","","","Cloudy"
"-68.21","48.61","MONT JOLI A","7055121","2018-11-05 11:00","2018","11","05","11:00","1.1","","-3.2","","73","","","","12","","9","","48.3","","102.88","","","","","","NA"
"-68.21","48.61","MONT JOLI A","7055121","2018-11-05 12:00","2018","11","05","12:00","1.4","","-3.7","","69","","","","8","","5","","48.3","","102.85","","","","","","NA"
"-68.21","48.61","MONT JOLI A","7055121","2018-11-05 13:00","2018","11","05","13:00","1.6","","-3.1","","71","","","","8","","10","","48.3","","102.69","","","","","","Cloudy"
"-68.21","48.61","MONT JOLI A","7055121","2018-11-05 14:00","2018","11","05","14:00","2.0","","-3.3","","68","","","","9","","7","","48.3","","102.67","","","","","","NA"
"-68.21","48.61","MONT JOLI A","7055121","2018-11-05 15:00","2018","11","05","15:00","1.9","","-2.8","","71","","","","8","","8","","48.3","","102.65","","","","","","NA"
"-68.21","48.61","MONT JOLI A","7055121","2018-11-05 16:00","2018","11","05","16:00","1.9","","-2.8","","71","","","","12","","7","","48.3","","102.57","","","","","","Cloudy"
"-68.21","48.61","MONT JOLI A","7055121","2018-11-05 17:00","2018","11","05","17:00","1.6","","-2.7","","73","","","","9","","7","","48.3","","102.55","","","","","","NA"
"-68.21","48.61","MONT JOLI A","7055121","2018-11-05 18:00","2018","11","05","18:00","1.0","","-2.5","","77","","","","10","","10","","48.3","","102.46","","","","","","NA"
"-68.21","48.61","MONT JOLI A","7055121","2018-11-05 19:00","2018","11","05","19:00","1.9","","-2.5","","73","","","","15","","9","","48.3","","102.36","","","","","","Cloudy"
"-68.21","48.61","MONT JOLI A","7055121","2018-11-05 20:00","2018","11","05","20:00","2.7","","-1.4","","75","","","","16","","14","","48.3","","102.30","","","","","","NA"
"-68.21","48.61","MONT JOLI A","7055121","2018-11-05 21:00","2018","11","05","21:00","2.7","","-1.0","","76","","","","18","","11","","48.3","","102.27","","","","","","NA"
"-68.21","48.61","MONT JOLI A","7055121","2018-11-05 22:00","2018","11","05","22:00","2.7","","-0.5","","79","","","","17","","11","","48.3","","102.21","","","","","","Cloudy"
"-68.21","48.61","MONT JOLI A","7055121","2018-11-05 23:00","2018","11","05","23:00","2.8","","-0.3","","80","","","","17","","9","","48.3","","102.14","","","","","","NA"
"-68.21","48.61","MONT JOLI A","7055121","2018-11-06 00:00","2018","11","06","00:00","3.0","","-0.1","","80","","","","16","","11","","48.3","","102.10","","","","","","NA"
"-68.21","48.61","MONT JOLI A","7055121","2018-11-06 01:00","2018","11","06","01:00","3.0","","-0.2","","79","","","","16","","10","","48.3","","102.03","","","","","","Cloudy"
"-68.21","48.61","MONT JOLI A","7055121","2018-11-06 02:00","2018","11","06","02:00","3.3","","-0.2","","78","","","","19","","7","","48.3","","102.00","","","","","","NA"
"-68.21","48.61","MONT JOLI A","7055121","2018-11-06 03:00","2018","11","06","03:00","2.9","","-0.1","","80","","","","14","","15","","48.3","","101.89","","","","","","NA"
"-68.21","48.61","MONT JOLI A","7055121","2018-11-06 04:00","2018","11","06","04:00","3.0","","0.1","","81","","","","14","","10","","48.3","","101.87","","","","","","Cloudy"
"-68.21","48.61","MONT JOLI A","7055121","2018-11-06 05:00","2018","11","06","05:00","3.2","","0.6","","83","","","","14","","10","","48.3","","101.76","","","","","","NA"
"-68.21","48.61","MONT JOLI A","7055121","2018-11-06 06:00","2018","11","06","06:00","3.5","","0.9","","83","","","","17","","15","","48.3","","101.76","","","","","","NA"
"-68.21","48.61","MONT JOLI A","7055121","2018-11-06 07:00","2018","11","06","07:00","3.5","","1.0","","84","","","","14","","17","","24.1","","101.64","","","","","","Cloudy"
"-68.21","48.61","MONT JOLI A","7055121","2018-11-06 08:00","2018","11","06","08:00","3.8","","1.3","","83","","","","14","","18","","48.3","","101.59","","","","","","NA"
"-68.21","48.61","MONT JOLI A","7055121","2018-11-06 09:00","2018","11","06","09:00","4.4","","1.5","","81","","","","11","","11","","48.3","","101.51","","","","","","NA"
"-68.21","48.61","MONT JOLI A","7055121","2018-11-06 10:00","2018","11","06","10:00","5.0","","1.9","","80","","","","8","","13","","48.3","","101.44","","","","","","Mostly Cloudy"
"-68.21","48.61","MONT JOLI A","7055121","2018-11-06 11:00","2018","11","06","11:00","6.0","","2.5","","78","","","","10","","13","","48.3","","101.26","","","","","","NA"
"-68.21","48.61","MONT JOLI A","7055121","2018-11-06 12:00","2018","11","06","12:00","4.6","","2.6","","87","","","","8","","4","","24.1","","101.09","","","","","","Rain"
"-68.21","48.61","MONT JOLI A","7055121","2018-11-06 13:00","2018","11","06","13:00","4.8","","3.9","","94","","","","7","","14","","16.1","","100.91","","","","","","Rain"
"-68.21","48.61","MONT JOLI A","7055121","2018-11-06 14:00","2018","11","06","14:00","5.0","","3.7","","91","","","","7","","18","","9.7","","100.70","","","","","","Rain,Fog"
"-68.21","48.61","MONT JOLI A","7055121","2018-11-06 15:00","2018","11","06","15:00","4.1","","3.4","","95","","","","7","","27","","9.7","","100.48","","","","","","Rain,Fog"
"-68.21","48.61","MONT JOLI A","7055121","2018-11-06 16:00","2018","11","06","16:00","3.7","","3.1","","96","","","","8","","26","","9.7","","100.34","","","","","","Rain,Fog"
"-68.21","48.61","MONT JOLI A","7055121","2018-11-06 17:00","2018","11","06","17:00","3.6","","3.1","","97","","","","5","","20","","4.8","","100.22","","","","","","Moderate Rain,Fog"
"-68.21","48.61","MONT JOLI A","7055121","2018-11-06 18:00","2018","11","06","18:00","4.0","","3.6","","97","","","","5","","10","","9.7","","99.92","","","","","","Rain,Fog"
"-68.21","48.61","MONT JOLI A","7055121","2018-11-06 19:00","2018","11","06","19:00","6.2","","4.0","","85","","","","10","","9","","16.1","","99.77","","","","","","Cloudy"
"-68.21","48.61","MONT JOLI A","7055121","2018-11-06 20:00","2018","11","06","20:00","6.5","","3.8","","83","","","","15","","13","","24.1","","99.64","","","","","","NA"
"-68.21","48.61","MONT JOLI A","7055121","2018-11-06 21:00","2018","11","06","21:00","6.4","","4.1","","85","","","","36","","1","","16.1","","99.51","","","","","","Rain"
"-68.21","48.61","MONT JOLI A","7055121","2018-11-06 22:00","2018","11","06","22:00","6.2","","4.7","","90","","","","15","","10","","16.1","","99.38","","","","","","Rain"
"-68.21","48.61","MONT JOLI A","7055121","2018-11-06 23:00","2018","11","06","23:00","7.0","","4.9","","86","","","","17","","14","","24.1","","99.25","","","","","","NA"
"-68.21","48.61","MONT JOLI A","7055121","2018-11-07 00:00","2018","11","07","00:00","7.0","","5.3","","89","","","","20","","9","","24.1","","99.15","","","","","","NA"
"-68.21","48.61","MONT JOLI A","7055121","2018-11-07 01:00","2018","11","07","01:00","6.1","","4.9","","92","","","","36","","2","","24.1","","99.08","","","","","","Cloudy"
"-68.21","48.61","MONT JOLI A","7055121","2018-11-07 02:00","2018","11","07","02:00","9.1","","6.7","","85","","","","20","","18","","24.1","","98.97","","","","","","NA"
"-68.21","48.61","MONT JOLI A","7055121","2018-11-07 03:00","2018","11","07","03:00","9.6","","7.0","","84","","","","22","","18","","24.1","","98.93","","","","","","NA"
"-68.21","48.61","MONT JOLI A","7055121","2018-11-07 04:00","2018","11","07","04:00","7.5","","6.3","","92","","","","24","","8","","24.1","","98.90","","","","","","Cloudy"
"-68.21","48.61","MONT JOLI A","7055121","2018-11-07 05:00","2018","11","07","05:00","9.2","","6.7","","84","","","","22","","14","","24.1","","98.88","","","","","","Rain"
"-68.21","48.61","MONT JOLI A","7055121","2018-11-07 06:00","2018","11","07","06:00","9.0","","5.8","","81","","","","21","","22","","24.1","","98.84","","","","","","NA"
"-68.21","48.61","MONT JOLI A","7055121","2018-11-07 07:00","2018","11","07","07:00","9.4","","5.7","","77","","","","22","","29","","24.1","","98.83","","","","","","Cloudy"
"-68.21","48.61","MONT JOLI A","7055121","2018-11-07 08:00","2018","11","07","08:00","9.8","","5.8","","76","","","","21","","22","","48.3","","98.82","","","","","","NA"
"-68.21","48.61","MONT JOLI A","7055121","2018-11-07 09:00","2018","11","07","09:00","10.7","","5.7","","71","","","","23","","27","","48.3","","98.81","","","","","","NA"
"-68.21","48.61","MONT JOLI A","7055121","2018-11-07 10:00","2018","11","07","10:00","10.8","","5.7","","70","","","","22","","23","","48.3","","98.78","","","","","","Cloudy"
"-68.21","48.61","MONT JOLI A","7055121","2018-11-07 11:00","2018","11","07","11:00","11.2","","4.9","","65","","","","23","","39","","48.3","","98.75","","","","","","NA"
"-68.21","48.61","MONT JOLI A","7055121","2018-11-07 12:00","2018","11","07","12:00","10.5","","4.5","","66","","","","24","","40","","48.3","","98.77","","","","","","NA"
"-68.21","48.61","MONT JOLI A","7055121","2018-11-07 13:00","2018","11","07","13:00","8.4","","3.4","","71","","","","24","","37","","24.1","","98.92","","","","","","Cloudy"
"-68.21","48.61","MONT JOLI A","7055121","2018-11-07 14:00","2018","11","07","14:00","8.2","","3.1","","70","","","","24","","38","","48.3","","98.98","","","","","","NA"
"-68.21","48.61","MONT JOLI A","7055121","2018-11-07 15:00","2018","11","07","15:00","8.2","","2.6","","68","","","","25","","41","","48.3","","99.05","","","","","","NA"
"-68.21","48.61","MONT JOLI A","7055121","2018-11-07 16:00","2018","11","07","16:00","8.2","","2.1","","65","","","","24","","40","","48.3","","99.10","","","","","","Cloudy"
"-68.21","48.61","MONT JOLI A","7055121","2018-11-07 17:00","2018","11","07","17:00","8.4","","2.2","","65","","","","25","","43","","24.1","","99.17","","","","","","NA"
"-68.21","48.61","MONT JOLI A","7055121","2018-11-07 18:00","2018","11","07","18:00","8.0","","2.4","","68","","","","25","","42","","24.1","","99.21","","","","","","Rain"
"-68.21","48.61","MONT JOLI A","7055121","2018-11-07 19:00","2018","11","07","19:00","7.7","","1.9","","67","","","","24","","37","","24.1","","99.30","","","","","","Cloudy"
"-68.21","48.61","MONT JOLI A","7055121","2018-11-07 20:00","2018","11","07","20:00","7.1","","1.7","","69","","","","24","","46","","24.1","","99.33","","","","","","NA"
"-68.21","48.61","MONT JOLI A","7055121","2018-11-07 21:00","2018","11","07","21:00","6.7","","1.4","","69","","","","24","","37","","24.1","","99.34","","","","","","NA"
"-68.21","48.61","MONT JOLI A","7055121","2018-11-07 22:00","2018","11","07","22:00","6.5","","1.1","","69","","","","24","","42","","24.1","","99.35","","","","","","Cloudy"
"-68.21","48.61","MONT JOLI A","7055121","2018-11-07 23:00","2018","11","07","23:00","6.3","","1.0","","69","","","","24","","43","","24.1","","99.41","","","","","","NA"
"-68.21","48.61","MONT JOLI A","7055121","2018-11-08 00:00","2018","11","08","00:00","5.9","","1.1","","71","","","","25","","39","","24.1","","99.47","","","","","","NA"
"-68.21","48.61","MONT JOLI A","7055121","2018-11-08 01:00","2018","11","08","01:00","5.8","","1.1","","72","","","","25","","41","","24.1","","99.54","","","","","","Cloudy"
"-68.21","48.61","MONT JOLI A","7055121","2018-11-08 02:00","2018","11","08","02:00","5.9","","1.0","","71","","","","24","","34","","24.1","","99.62","","","","","","NA"
"-68.21","48.61","MONT JOLI A","7055121","2018-11-08 03:00","2018","11","08","03:00","5.6","","1.1","","72","","","","24","","43","","16.1","","99.71","","","","","","Rain"
"-68.21","48.61","MONT JOLI A","7055121","2018-11-08 04:00","2018","11","08","04:00","5.6","","0.8","","71","","","","24","","29","","24.1","","99.79","","","","","","Rain"
"-68.21","48.61","MONT JOLI A","7055121","2018-11-08 05:00","2018","11","08","05:00","5.2","","0.8","","73","","","","25","","35","","24.1","","99.89","","","","","","Rain"
"-68.21","48.61","MONT JOLI A","7055121","2018-11-08 06:00","2018","11","08","06:00","5.1","","0.7","","73","","","","25","","41","","24.1","","99.96","","","","","","NA"
"-68.21","48.61","MONT JOLI A","7055121","2018-11-08 07:00","2018","11","08","07:00","4.9","","0.6","","74","","","","25","","39","","24.1","","100.08","","","","","","Mostly Cloudy"
"-68.21","48.61","MONT JOLI A","7055121","2018-11-08 08:00","2018","11","08","08:00","5.1","","0.5","","72","","","","25","","45","","24.1","","100.19","","","","","","NA"
"-68.21","48.61","MONT JOLI A","7055121","2018-11-08 09:00","2018","11","08","09:00","5.2","","0.6","","72","","","","25","","35","","24.1","","100.26","","","","","","NA"
"-68.21","48.61","MONT JOLI A","7055121","2018-11-08 10:00","2018","11","08","10:00","5.5","","-0.1","","67","","","","24","","37","","24.1","","100.39","","","","","","Mostly Cloudy"
"-68.21","48.61","MONT JOLI A","7055121","2018-11-08 11:00","2018","11","08","11:00","5.5","","0.2","","69","","","","25","","33","","48.3","","100.44","","","","","","NA"
"-68.21","48.61","MONT JOLI A","7055121","2018-11-08 12:00","2018","11","08","12:00","6.5","","0.1","","64","","","","25","","33","","48.3","","100.49","","","","","","NA"
"-68.21","48.61","MONT JOLI A","7055121","2018-11-08 13:00","2018","11","08","13:00","5.9","","-0.3","","65","","","","25","","43","","48.3","","100.58","","","","","","Mostly Cloudy"
"-68.21","48.61","MONT JOLI A","7055121","2018-11-08 14:00","2018","11","08","14:00","5.4","","-0.3","","67","","","","24","","34","","48.3","","100.62","","","","","","NA"
"-68.21","48.61","MONT JOLI A","7055121","2018-11-08 15:00","2018","11","08","15:00","5.0","","-0.4","","68","","","","24","","32","","48.3","","100.71","","","","","","NA"
"-68.21","48.61","MONT JOLI A","7055121","2018-11-08 16:00","2018","11","08","16:00","4.6","","-0.4","","70","","","","25","","36","","48.3","","100.77","","","","","","Mostly Cloudy"
"-68.21","48.61","MONT JOLI A","7055121","2018-11-08 17:00","2018","11","08","17:00","4.5","","-0.4","","71","","","","25","","28","","48.3","","100.87","","","","","","NA"
"-68.21","48.61","MONT JOLI A","7055121","2018-11-08 18:00","2018","11","08","18:00","4.4","","-0.4","","71","","","","25","","28","","48.3","","100.98","","","","","","Rain"
"-68.21","48.61","MONT JOLI A","7055121","2018-11-08 19:00","2018","11","08","19:00","3.6","","0.1","","78","","","","26","","27","","24.1","","101.08","","","","","","Cloudy"
"-68.21","48.61","MONT JOLI A","7055121","2018-11-08 20:00","2018","11","08","20:00","3.5","","-1.0","","72","","","","25","","25","","24.1","","101.16","","","","","","NA"
"-68.21","48.61","MONT JOLI A","7055121","2018-11-08 21:00","2018","11","08","21:00","3.5","","-0.8","","74","","","","27","","23","","24.1","","101.22","","","","","","Rain"
"-68.21","48.61","MONT JOLI A","7055121","2018-11-08 22:00","2018","11","08","22:00","3.1","","-0.4","","78","","","","26","","25","","16.1","","101.28","","","","","","Rain"
"-68.21","48.61","MONT JOLI A","7055121","2018-11-08 23:00","2018","11","08","23:00","2.8","","-1.4","","74","","","","27","","22","","24.1","","101.32","","","","","","Rain"
"-68.21","48.61","MONT JOLI A","7055121","2018-11-09 00:00","2018","11","09","00:00","2.6","","-1.9","","72","","","","28","","23","","24.1","","101.41","","","","","","Rain"
"-68.21","48.61","MONT JOLI A","7055121","2018-11-09 01:00","2018","11","09","01:00","2.5","","-1.4","","75","","","","27","","20","","24.1","","101.48","","","","","","Cloudy"
"-68.21","48.61","MONT JOLI A","7055121","2018-11-09 02:00","2018","11","09","02:00","2.3","","-1.9","","74","","","","27","","20","","24.1","","101.57","","","","","","NA"
"-68.21","48.61","MONT JOLI A","7055121","2018-11-09 03:00","2018","11","09","03:00","2.1","","-2.9","","70","","","","27","","26","","24.1","","101.63","","","","","","NA"
"-68.21","48.61","MONT JOLI A","7055121","2018-11-09 04:00","2018","11","09","04:00","1.5","","-2.9","","73","","","","28","","21","","24.1","","101.69","","","","","","Mostly Cloudy"
"-68.21","48.61","MONT JOLI A","7055121","2018-11-09 05:00","2018","11","09","05:00","1.9","","-2.9","","70","","","","28","","19","","24.1","","101.80","","","","","","NA"
"-68.21","48.61","MONT JOLI A","7055121","2018-11-09 06:00","2018","11","09","06:00","1.3","","-3.4","","71","","","","27","","23","","24.1","","101.91","","","","","","NA"
"-68.21","48.61","MONT JOLI A","7055121","2018-11-09 07:00","2018","11","09","07:00","1.4","","-3.6","","69","","","","27","","23","","48.3","","102.00","","","","","","Mainly Clear"
"-68.21","48.61","MONT JOLI A","7055121","2018-11-09 08:00","2018","11","09","08:00","1.3","","-4.4","","66","","","","29","","25","","48.3","","102.05","","","","","","NA"
"-68.21","48.61","MONT JOLI A","7055121","2018-11-09 09:00","2018","11","09","09:00","2.0","","-4.3","","63","","","","28","","21","","48.3","","102.05","","","","","","NA"
"-68.21","48.61","MONT JOLI A","7055121","2018-11-09 10:00","2018","11","09","10:00","2.1","","-3.8","","65","","","","26","","23","","48.3","","102.06","","","","","","Mainly Clear"
"-68.21","48.61","MONT JOLI A","7055121","2018-11-09 11:00","2018","11","09","11:00","2.0","","-4.1","","64","","","","26","","27","","48.3","","102.10","","","","","","NA"
"-68.21","48.61","MONT JOLI A","7055121","2018-11-09 12:00","2018","11","09","12:00","2.7","","-4.3","","60","","","","26","","22","","48.3","","102.16","","","","","","NA"
"-68.21","48.61","MONT JOLI A","7055121","2018-11-09 13:00","2018","11","09","13:00","2.7","","-4.2","","61","","","","26","","19","","48.3","","102.17","","","","","","Mainly Clear"
"-68.21","48.61","MONT JOLI A","7055121","2018-11-09 14:00","2018","11","09","14:00","2.6","","-5.4","","56","","","","25","","17","","48.3","","102.11","","","","","","NA"
"-68.21","48.61","MONT JOLI A","7055121","2018-11-09 15:00","2018","11","09","15:00","1.9","","-5.5","","58","","","","25","","12","","48.3","","102.14","","","","","","NA"
"-68.21","48.61","MONT JOLI A","7055121","2018-11-09 16:00","2018","11","09","16:00","1.0","","-4.9","","65","","","","21","","10","","48.3","","102.19","","","","","","Mostly Cloudy"
"-68.21","48.61","MONT JOLI A","7055121","2018-11-09 17:00","2018","11","09","17:00","0.6","","-5.3","","64","","","","20","","8","","48.3","","102.20","","","","","","NA"
"-68.21","48.61","MONT JOLI A","7055121","2018-11-09 18:00","2018","11","09","18:00","0.0","","-4.8","","70","","","","18","","7","","48.3","","102.20","","","","-2","","NA"
"-68.21","48.61","MONT JOLI A","7055121","2018-11-09 19:00","2018","11","09","19:00","-0.3","","-5.3","","69","","","","15","","8","","24.1","","102.15","","","","-3","","Cloudy"
"-68.21","48.61","MONT JOLI A","7055121","2018-11-09 20:00","2018","11","09","20:00","-0.8","","-4.9","","74","","","","15","","9","","24.1","","102.10","","","","-4","","NA"
"-68.21","48.61","MONT JOLI A","7055121","2018-11-09 21:00","2018","11","09","21:00","-0.7","","-4.9","","73","","","","14","","6","","24.1","","102.11","","","","-3","","NA"
"-68.21","48.61","MONT JOLI A","7055121","2018-11-09 22:00","2018","11","09","22:00","-0.5","","-4.8","","73","","","","10","","8","","24.1","","101.97","","","","-3","","Cloudy"
"-68.21","48.61","MONT JOLI A","7055121","2018-11-09 23:00","2018","11","09","23:00","-0.1","","-4.7","","71","","","","11","","12","","24.1","","101.85","","","","-4","","NA"
"-68.21","48.61","MONT JOLI A","7055121","2018-11-10 00:00","2018","11","10","00:00","0.7","","-4.3","","69","","","","8","","17","","24.1","","101.67","","","","","","NA"
"-68.21","48.61","MONT JOLI A","7055121","2018-11-10 01:00","2018","11","10","01:00","0.7","","-4.8","","67","","","","5","","14","","24.1","","101.63","","","","","","Cloudy"
"-68.21","48.61","MONT JOLI A","7055121","2018-11-10 02:00","2018","11","10","02:00","0.7","","-4.5","","69","","","","7","","17","","24.1","","101.49","","","","","","NA"
"-68.21","48.61","MONT JOLI A","7055121","2018-11-10 03:00","2018","11","10","03:00","-0.2","","-2.4","","85","","","","6","","17","","9.7","","101.35","","","","-5","","Snow"
"-68.21","48.61","MONT JOLI A","7055121","2018-11-10 04:00","2018","11","10","04:00","0.0","","-1.6","","89","","","","6","","13","","6.4","","101.16","","","","-4","","Snow"
"-68.21","48.61","MONT JOLI A","7055121","2018-11-10 05:00","2018","11","10","05:00","0.4","","-1.2","","89","","","","5","","16","","6.4","","100.92","","","","","","Snow"
"-68.21","48.61","MONT JOLI A","7055121","2018-11-10 06:00","2018","11","10","06:00","0.3","","-0.6","","94","","","","5","","15","","4.0","","100.80","","","","","","Snow"
"-68.21","48.61","MONT JOLI A","7055121","2018-11-10 07:00","2018","11","10","07:00","0.4","","-0.4","","95","","","","7","","16","","3.2","","100.65","","","","","","Snow"
"-68.21","48.61","MONT JOLI A","7055121","2018-11-10 08:00","2018","11","10","08:00","1.2","","-0.4","","89","","","","9","","15","","9.7","","100.49","","","","","","Snow"
"-68.21","48.61","MONT JOLI A","7055121","2018-11-10 09:00","2018","11","10","09:00","2.1","","-0.4","","83","","","","9","","11","","16.1","","100.32","","","","","","Snow"
"-68.21","48.61","MONT JOLI A","7055121","2018-11-10 10:00","2018","11","10","10:00","2.2","","-0.1","","85","","","","5","","12","","16.1","","100.12","","","","","","Rain,Snow"
"-68.21","48.61","MONT JOLI A","7055121","2018-11-10 11:00","2018","11","10","11:00","2.7","","0.0","","82","","","","9","","25","","24.1","","99.80","","","","","","Rain,Snow"
"-68.21","48.61","MONT JOLI A","7055121","2018-11-10 12:00","2018","11","10","12:00","2.0","","0.6","","90","","","","6","","19","","24.1","","99.59","","","","","","Rain,Snow"
"-68.21","48.61","MONT JOLI A","7055121","2018-11-10 13:00","2018","11","10","13:00","2.0","","0.5","","90","","","","5","","21","","24.1","","99.38","","","","","","Rain"
"-68.21","48.61","MONT JOLI A","7055121","2018-11-10 14:00","2018","11","10","14:00","1.6","","0.5","","92","","","","4","","16","","12.9","","99.25","","","","","","Rain"
"-68.21","48.61","MONT JOLI A","7055121","2018-11-10 15:00","2018","11","10","15:00","0.6","","0.0","","96","","","","3","","8","","2.4","","99.14","","","","","","Rain,Fog"
"-68.21","48.61","MONT JOLI A","7055121","2018-11-10 16:00","2018","11","10","16:00","0.1","","-0.3","","97","","","","3","","8","","1.6","","99.03","","","","","","Snow,Fog"
"-68.21","48.61","MONT JOLI A","7055121","2018-11-10 17:00","2018","11","10","17:00","0.0","","-0.3","","97","","","","7","","7","","1.6","","98.84","","","","-2","","Snow,Fog"
"-68.21","48.61","MONT JOLI A","7055121","2018-11-10 18:00","2018","11","10","18:00","0.0","","-0.3","","98","","","","20","","6","","1.2","","98.70","","","","-2","","Snow,Fog"
"-68.21","48.61","MONT JOLI A","7055121","2018-11-10 19:00","2018","11","10","19:00","0.3","","-0.1","","97","","","","24","","30","","3.2","","98.59","","","","","","Snow"
"-68.21","48.61","MONT JOLI A","7055121","2018-11-10 20:00","2018","11","10","20:00","0.7","","-0.3","","93","","","","24","","36","","4.0","","98.50","","","","","","Snow,Blowing Snow"
"-68.21","48.61","MONT JOLI A","7055121","2018-11-10 21:00","2018","11","10","21:00","1.0","","-0.9","","87","","","","24","","42","","9.7","","98.52","","","","","","Snow,Blowing Snow"
"-68.21","48.61","MONT JOLI A","7055121","2018-11-10 22:00","2018","11","10","22:00","0.6","","-1.2","","88","","","","24","","33","","4.8","","98.50","","","","","","Snow,Blowing Snow"
"-68.21","48.61","MONT JOLI A","7055121","2018-11-10 23:00","2018","11","10","23:00","0.4","","-2.9","","79","","","","24","","44","","16.1","","98.56","","","","","","Snow"
"-68.21","48.61","MONT JOLI A","7055121","2018-11-11 00:00","2018","11","11","00:00","-0.8","","-4.8","","74","","","","24","","53","","16.1","","98.70","","","","-9","","NA"
"-68.21","48.61","MONT JOLI A","7055121","2018-11-11 01:00","2018","11","11","01:00","-1.6","","-5.9","","72","","","","24","","53","","16.1","","98.83","","","","-11","","Cloudy"
"-68.21","48.61","MONT JOLI A","7055121","2018-11-11 02:00","2018","11","11","02:00","-2.3","","-7.3","","68","","","","24","","57","","16.1","","98.95","","","","-12","","NA"
"-68.21","48.61","MONT JOLI A","7055121","2018-11-11 03:00","2018","11","11","03:00","-2.9","","-7.8","","69","","","","25","","56","","24.1","","99.09","","","","-13","","NA"
"-68.21","48.61","MONT JOLI A","7055121","2018-11-11 04:00","2018","11","11","04:00","-3.4","","-8.2","","69","","","","25","","52","","24.1","","99.22","","","","-13","","Cloudy"
"-68.21","48.61","MONT JOLI A","7055121","2018-11-11 05:00","2018","11","11","05:00","-3.5","","-8.1","","70","","","","25","","58","","24.1","","99.43","","","","-13","","NA"
"-68.21","48.61","MONT JOLI A","7055121","2018-11-11 06:00","2018","11","11","06:00","-3.4","","-8.6","","67","","","","25","","54","","16.1","","99.55","","","","-13","","NA"
"-68.21","48.61","MONT JOLI A","7055121","2018-11-11 07:00","2018","11","11","07:00","-3.7","","-9.7","","64","","","","26","","48","","16.1","","99.69","","","","-13","","Cloudy"
"-68.21","48.61","MONT JOLI A","7055121","2018-11-11 08:00","2018","11","11","08:00","-3.8","","-9.8","","63","","","","26","","49","","24.1","","99.77","","","","-13","","NA"
"-68.21","48.61","MONT JOLI A","7055121","2018-11-11 09:00","2018","11","11","09:00","-3.4","","-9.8","","62","","","","26","","55","","48.3","","99.85","","","","-13","","NA"
"-68.21","48.61","MONT JOLI A","7055121","2018-11-11 10:00","2018","11","11","10:00","-3.0","","-9.1","","63","","","","26","","53","","24.1","","99.96","","","","-12","","Cloudy"
"-68.21","48.61","MONT JOLI A","7055121","2018-11-11 11:00","2018","11","11","11:00","-3.0","","-9.7","","60","","","","26","","53","","48.3","","100.06","","","","-12","","NA"
"-68.21","48.61","MONT JOLI A","7055121","2018-11-11 12:00","2018","11","11","12:00","-2.9","","-9.7","","59","","","","27","","50","","48.3","","100.12","","","","-12","","NA"
"-68.21","48.61","MONT JOLI A","7055121","2018-11-11 13:00","2018","11","11","13:00","-2.7","","-10.3","","56","","","","27","","50","","48.3","","100.29","","","","-12","","Cloudy"
"-68.21","48.61","MONT JOLI A","7055121","2018-11-11 14:00","2018","11","11","14:00","-3.1","","-10.2","","58","","","","27","","52","","48.3","","100.38","","","","-13","","NA"
"-68.21","48.61","MONT JOLI A","7055121","2018-11-11 15:00","2018","11","11","15:00","-3.0","","-9.7","","60","","","","27","","50","","48.3","","100.48","","","","-12","","NA"
"-68.21","48.61","MONT JOLI A","7055121","2018-11-11 16:00","2018","11","11","16:00","-3.3","","-10.3","","59","","","","28","","49","","48.3","","100.59","","","","-13","","Cloudy"
"-68.21","48.61","MONT JOLI A","7055121","2018-11-11 17:00","2018","11","11","17:00","-3.4","","-10.1","","60","","","","27","","44","","24.1","","100.70","","","","-12","","NA"
"-68.21","48.61","MONT JOLI A","7055121","2018-11-11 18:00","2018","11","11","18:00","-3.6","","-10.3","","60","","","","28","","47","","24.1","","100.78","","","","-13","","NA"
"-68.21","48.61","MONT JOLI A","7055121","2018-11-11 19:00","2018","11","11","19:00","-3.6","","-10.3","","60","","","","28","","43","","24.1","","100.88","","","","-12","","Cloudy"
"-68.21","48.61","MONT JOLI A","7055121","2018-11-11 20:00","2018","11","11","20:00","-3.8","","-10.0","","62","","","","28","","36","","24.1","","100.98","","","","-12","","NA"
"-68.21","48.61","MONT JOLI A","7055121","2018-11-11 21:00","2018","11","11","21:00","-3.8","","-10.1","","62","","","","27","","34","","24.1","","101.03","","","","-12","","NA"
"-68.21","48.61","MONT JOLI A","7055121","2018-11-11 22:00","2018","11","11","22:00","-4.0","","-10.2","","62","","","","27","","38","","48.3","","101.07","","","","-13","","Cloudy"
"-68.21","48.61","MONT JOLI A","7055121","2018-11-11 23:00","2018","11","11","23:00","-4.2","","-9.9","","65","","","","28","","28","","48.3","","101.13","","","","-12","","NA"
"-68.21","48.61","MONT JOLI A","7055121","2018-11-12 00:00","2018","11","12","00:00","-4.4","","-10.5","","63","","","","28","","35","","48.3","","101.20","","","","-13","","NA"
"-68.21","48.61","MONT JOLI A","7055121","2018-11-12 01:00","2018","11","12","01:00","-4.5","","-10.2","","64","","","","27","","33","","48.3","","101.27","","","","-13","","Cloudy"
"-68.21","48.61","MONT JOLI A","7055121","2018-11-12 02:00","2018","11","12","02:00","-4.6","","-10.4","","64","","","","28","","32","","48.3","","101.34","","","","-13","","NA"
"-68.21","48.61","MONT JOLI A","7055121","2018-11-12 03:00","2018","11","12","03:00","-5.1","","-10.8","","65","","","","27","","29","","48.3","","101.40","","","","-13","","NA"
"-68.21","48.61","MONT JOLI A","7055121","2018-11-12 04:00","2018","11","12","04:00","-5.2","","-10.9","","64","","","","27","","27","","48.3","","101.45","","","","-13","","Cloudy"
"-68.21","48.61","MONT JOLI A","7055121","2018-11-12 05:00","2018","11","12","05:00","-5.3","","-10.8","","66","","","","27","","24","","48.3","","101.51","","","","-13","","NA"
"-68.21","48.61","MONT JOLI A","7055121","2018-11-12 06:00","2018","11","12","06:00","-5.6","","-11.1","","65","","","","26","","25","","48.3","","101.56","","","","-13","","NA"
"-68.21","48.61","MONT JOLI A","7055121","2018-11-12 07:00","2018","11","12","07:00","-5.5","","-10.9","","66","","","","27","","30","","48.3","","101.63","","","","-14","","Mostly Cloudy"
"-68.21","48.61","MONT JOLI A","7055121","2018-11-12 08:00","2018","11","12","08:00","-5.5","","-10.8","","66","","","","27","","26","","48.3","","101.69","","","","-13","","NA"
"-68.21","48.61","MONT JOLI A","7055121","2018-11-12 09:00","2018","11","12","09:00","-5.5","","-10.7","","67","","","","26","","27","","48.3","","101.73","","","","-13","","NA"
"-68.21","48.61","MONT JOLI A","7055121","2018-11-12 10:00","2018","11","12","10:00","-5.1","","-10.6","","65","","","","25","","25","","48.3","","101.76","","","","-12","","Mostly Cloudy"
"-68.21","48.61","MONT JOLI A","7055121","2018-11-12 11:00","2018","11","12","11:00","-4.9","","-10.4","","66","","","","25","","28","","48.3","","101.77","","","","-13","","NA"
"-68.21","48.61","MONT JOLI A","7055121","2018-11-12 12:00","2018","11","12","12:00","-4.3","","-10.6","","62","","","","26","","33","","48.3","","101.77","","","","-12","","NA"
"-68.21","48.61","MONT JOLI A","7055121","2018-11-12 13:00","2018","11","12","13:00","-3.9","","-9.6","","65","","","","25","","31","","48.3","","101.80","","","","-12","","Mostly Cloudy"
"-68.21","48.61","MONT JOLI A","7055121","2018-11-12 14:00","2018","11","12","14:00","-2.6","","-8.8","","63","","","","25","","27","","48.3","","101.81","","","","-10","","NA"
"-68.21","48.61","MONT JOLI A","7055121","2018-11-12 15:00","2018","11","12","15:00","-2.9","","-8.3","","67","","","","25","","25","","48.3","","101.85","","","","-10","","NA"
"-68.21","48.61","MONT JOLI A","7055121","2018-11-12 16:00","2018","11","12","16:00","-3.5","","-8.3","","70","","","","23","","18","","48.3","","101.93","","","","-9","","Mainly Clear"
"-68.21","48.61","MONT JOLI A","7055121","2018-11-12 17:00","2018","11","12","17:00","-4.3","","-8.5","","73","","","","23","","18","","48.3","","101.95","","","","-10","","NA"
"-68.21","48.61","MONT JOLI A","7055121","2018-11-12 18:00","2018","11","12","18:00","-3.0","","-9.6","","61","","","","29","","19","","48.3","","101.98","","","","-9","","NA"
"-68.21","48.61","MONT JOLI A","7055121","2018-11-12 19:00","2018","11","12","19:00","-3.6","","-9.3","","65","","","","29","","16","","24.1","","101.96","","","","-9","","Mainly Clear"
"-68.21","48.61","MONT JOLI A","7055121","2018-11-12 20:00","2018","11","12","20:00","-3.8","","-9.1","","67","","","","28","","15","","24.1","","102.05","","","","-9","","NA"
"-68.21","48.61","MONT JOLI A","7055121","2018-11-12 21:00","2018","11","12","21:00","-4.2","","-9.2","","69","","","","27","","17","","24.1","","102.08","","","","-10","","NA"
"-68.21","48.61","MONT JOLI A","7055121","2018-11-12 22:00","2018","11","12","22:00","-4.5","","-9.1","","71","","","","28","","14","","24.1","","102.07","","","","-10","","Mainly Clear"
"-68.21","48.61","MONT JOLI A","7055121","2018-11-12 23:00","2018","11","12","23:00","-6.5","","-9.8","","78","","","","22","","11","","24.1","","102.03","","","","-11","","NA"
"-68.21","48.61","MONT JOLI A","7055121","2018-11-13 00:00","2018","11","13","00:00","-7.4","","-10.2","","81","","","","20","","9","","24.1","","102.05","","","","-12","","NA"
"-68.21","48.61","MONT JOLI A","7055121","2018-11-13 01:00","2018","11","13","01:00","-7.4","","-9.9","","82","","","","17","","8","","24.1","","102.04","","","","-11","","Mostly Cloudy"
"-68.21","48.61","MONT JOLI A","7055121","2018-11-13 02:00","2018","11","13","02:00","-6.9","","-9.5","","82","","","","16","","13","","24.1","","102.03","","","","-12","","NA"
"-68.21","48.61","MONT JOLI A","7055121","2018-11-13 03:00","2018","11","13","03:00","-7.1","","-9.9","","80","","","","15","","9","","24.1","","101.99","","","","-11","","NA"
"-68.21","48.61","MONT JOLI A","7055121","2018-11-13 04:00","2018","11","13","04:00","-6.9","","-9.6","","81","","","","16","","15","","24.1","","101.95","","","","-13","","Cloudy"
"-68.21","48.61","MONT JOLI A","7055121","2018-11-13 05:00","2018","11","13","05:00","-6.3","","-9.5","","78","","","","15","","12","","24.1","","101.83","","","","-11","","NA"
"-68.21","48.61","MONT JOLI A","7055121","2018-11-13 06:00","2018","11","13","06:00","-6.1","","-9.6","","76","","","","14","","16","","24.1","","101.78","","","","-12","","NA"
"-68.21","48.61","MONT JOLI A","7055121","2018-11-13 07:00","2018","11","13","07:00","-5.4","","-9.0","","76","","","","14","","13","","48.3","","101.78","","","","-11","","Cloudy"
"-68.21","48.61","MONT JOLI A","7055121","2018-11-13 08:00","2018","11","13","08:00","-4.3","","-7.7","","78","","","","14","","15","","4.8","","101.69","","","","-10","","Snow"
"-68.21","48.61","MONT JOLI A","7055121","2018-11-13 09:00","2018","11","13","09:00","-3.8","","-6.1","","84","","","","15","","22","","3.2","","101.58","","","","-10","","Snow"
"-68.21","48.61","MONT JOLI A","7055121","2018-11-13 10:00","2018","11","13","10:00","-3.0","","-5.2","","85","","","","14","","12","","4.0","","101.45","","","","-7","","Snow"
"-68.21","48.61","MONT JOLI A","7055121","2018-11-13 11:00","2018","11","13","11:00","-1.8","","-4.0","","86","","","","15","","16","","4.0","","101.22","","","","-7","","Snow"
"-68.21","48.61","MONT JOLI A","7055121","2018-11-13 12:00","2018","11","13","12:00","-1.6","","-3.4","","87","","","","14","","17","","2.4","","101.11","","","","-7","","Snow"
"-68.21","48.61","MONT JOLI A","7055121","2018-11-13 13:00","2018","11","13","13:00","-1.5","","-3.2","","89","","","","14","","18","","2.4","","100.98","","","","-7","","Snow"
"-68.21","48.61","MONT JOLI A","7055121","2018-11-13 14:00","2018","11","13","14:00","-1.4","","-3.3","","87","","","","14","","19","","2.4","","100.77","","","","-7","","Snow"
"-68.21","48.61","MONT JOLI A","7055121","2018-11-13 15:00","2018","11","13","15:00","-1.3","","-2.9","","89","","","","14","","16","","1.2","","100.61","","","","-6","","Snow"
"-68.21","48.61","MONT JOLI A","7055121","2018-11-13 16:00","2018","11","13","16:00","-1.8","","-3.2","","90","","","","14","","18","","1.2","","100.47","","","","-7","","Snow"
"-68.21","48.61","MONT JOLI A","7055121","2018-11-13 17:00","2018","11","13","17:00","-1.8","","-3.2","","90","","","","15","","9","","2.0","","100.30","","","","-5","","Snow"
"-68.21","48.61","MONT JOLI A","7055121","2018-11-13 18:00","2018","11","13","18:00","-1.6","","-3.0","","90","","","","11","","7","","2.4","","100.15","","","","-4","","Snow"
"-68.21","48.61","MONT JOLI A","7055121","2018-11-13 19:00","2018","11","13","19:00","-2.0","","-3.0","","93","","","","6","","8","","4.8","","99.99","","","","-5","","Snow"
"-68.21","48.61","MONT JOLI A","7055121","2018-11-13 20:00","2018","11","13","20:00","-1.4","","-2.9","","89","","","","14","","17","","4.8","","99.81","","","","-7","","Snow"
"-68.21","48.61","MONT JOLI A","7055121","2018-11-13 21:00","2018","11","13","21:00","-1.3","","-3.2","","87","","","","15","","19","","3.2","","99.63","","","","-7","","Snow"
"-68.21","48.61","MONT JOLI A","7055121","2018-11-13 22:00","2018","11","13","22:00","-1.6","","-3.2","","89","","","","22","","7","","4.8","","99.48","","","","-4","","Snow"
"-68.21","48.61","MONT JOLI A","7055121","2018-11-13 23:00","2018","11","13","23:00","-2.1","","-2.8","","95","","","","22","","8","","2.4","","99.33","","","","-5","","Snow"
"-68.21","48.61","MONT JOLI A","7055121","2018-11-14 00:00","2018","11","14","00:00","-2.1","","-3.2","","92","","","","24","","38","","2.4","","99.27","","","","-10","","Snow"
"-68.21","48.61","MONT JOLI A","7055121","2018-11-14 01:00","2018","11","14","01:00","-4.4","","-5.5","","92","","","","24","","44","","0.8","","99.29","","","","-14","","Snow,Blowing Snow"
"-68.21","48.61","MONT JOLI A","7055121","2018-11-14 02:00","2018","11","14","02:00","-6.2","","-7.7","","89","","","","27","","52","","0.6","","99.48","","","","-17","","Snow,Blowing Snow"
"-68.21","48.61","MONT JOLI A","7055121","2018-11-14 03:00","2018","11","14","03:00","-8.4","","-10.2","","87","","","","26","","49","","0.4","","99.63","","","","-20","","Snow,Blowing Snow"
"-68.21","48.61","MONT JOLI A","7055121","2018-11-14 04:00","2018","11","14","04:00","-9.6","","-13.3","","74","","","","26","","48","","3.2","","99.80","","","","-21","","Snow,Blowing Snow"
"-68.21","48.61","MONT JOLI A","7055121","2018-11-14 05:00","2018","11","14","05:00","-10.7","","-14.8","","72","","","","27","","52","","3.2","","99.91","","","","-23","","Snow,Blowing Snow"
"-68.21","48.61","MONT JOLI A","7055121","2018-11-14 06:00","2018","11","14","06:00","-11.0","","-15.7","","69","","","","28","","53","","4.0","","100.01","","","","-23","","Snow,Blowing Snow"
"-68.21","48.61","MONT JOLI A","7055121","2018-11-14 07:00","2018","11","14","07:00","-11.0","","-16.1","","66","","","","28","","60","","4.8","","100.09","","","","-24","","Snow,Blowing Snow"
"-68.21","48.61","MONT JOLI A","7055121","2018-11-14 08:00","2018","11","14","08:00","-11.2","","-16.8","","64","","","","29","","54","","4.8","","100.18","","","","-24","","Blowing Snow"
"-68.21","48.61","MONT JOLI A","7055121","2018-11-14 09:00","2018","11","14","09:00","-11.1","","-16.5","","65","","","","27","","52","","4.8","","100.23","","","","-23","","Blowing Snow"
"-68.21","48.61","MONT JOLI A","7055121","2018-11-14 10:00","2018","11","14","10:00","-10.8","","-17.5","","58","","","","28","","50","","24.1","","100.31","","","","-23","","Mostly Cloudy"
"-68.21","48.61","MONT JOLI A","7055121","2018-11-14 11:00","2018","11","14","11:00","-10.2","","-16.9","","58","","","","28","","57","","24.1","","100.35","","","","-23","","Blowing Snow"
"-68.21","48.61","MONT JOLI A","7055121","2018-11-14 12:00","2018","11","14","12:00","-9.6","","-16.7","","57","","","","29","","47","","24.1","","100.46","","","","-21","","Blowing Snow"
"-68.21","48.61","MONT JOLI A","7055121","2018-11-14 13:00","2018","11","14","13:00","-9.2","","-16.7","","55","","","","28","","50","","24.1","","100.51","","","","-21","","Blowing Snow"
"-68.21","48.61","MONT JOLI A","7055121","2018-11-14 14:00","2018","11","14","14:00","-8.6","","-15.7","","57","","","","28","","41","","48.3","","100.67","","","","-19","","NA"
"-68.21","48.61","MONT JOLI A","7055121","2018-11-14 15:00","2018","11","14","15:00","-8.4","","-15.6","","57","","","","29","","42","","48.3","","100.85","","","","-19","","NA"
"-68.21","48.61","MONT JOLI A","7055121","2018-11-14 16:00","2018","11","14","16:00","-8.0","","-15.1","","57","","","","29","","43","","48.3","","101.00","","","","-18","","Mostly Cloudy"
"-68.21","48.61","MONT JOLI A","7055121","2018-11-14 17:00","2018","11","14","17:00","-7.5","","-13.9","","60","","","","30","","41","","48.3","","101.12","","","","-18","","NA"
"-68.21","48.61","MONT JOLI A","7055121","2018-11-14 18:00","2018","11","14","18:00","-7.1","","-13.4","","61","","","","28","","43","","24.1","","101.27","","","","-17","","NA"
"-68.21","48.61","MONT JOLI A","7055121","2018-11-14 19:00","2018","11","14","19:00","-6.7","","-13.3","","59","","","","29","","43","","48.3","","101.40","","","","-17","","Mostly Cloudy"
"-68.21","48.61","MONT JOLI A","7055121","2018-11-14 20:00","2018","11","14","20:00","-6.6","","-13.3","","59","","","","29","","49","","48.3","","101.53","","","","-17","","NA"
"-68.21","48.61","MONT JOLI A","7055121","2018-11-14 21:00","2018","11","14","21:00","-6.9","","-13.6","","59","","","","29","","48","","48.3","","101.66","","","","-17","","NA"
"-68.21","48.61","MONT JOLI A","7055121","2018-11-14 22:00","2018","11","14","22:00","-7.0","","-13.2","","62","","","","29","","43","","48.3","","101.77","","","","-17","","Mostly Cloudy"
"-68.21","48.61","MONT JOLI A","7055121","2018-11-14 23:00","2018","11","14","23:00","-7.3","","-13.0","","64","","","","28","","28","","48.3","","101.81","","","","-16","","NA"
"-68.21","48.61","MONT JOLI A","7055121","2018-11-15 00:00","2018","11","15","00:00","-7.2","","-13.1","","63","","","","30","","37","","48.3","","101.93","","","","-17","","NA"
"-68.21","48.61","MONT JOLI A","7055121","2018-11-15 01:00","2018","11","15","01:00","-7.5","","-13.2","","64","","","","28","","31","","48.3","","102.07","","","","-16","","Cloudy"
"-68.21","48.61","MONT JOLI A","7055121","2018-11-15 02:00","2018","11","15","02:00","-7.7","","-13.1","","65","","","","26","","32","","48.3","","102.20","","","","-17","","NA"
"-68.21","48.61","MONT JOLI A","7055121","2018-11-15 03:00","2018","11","15","03:00","-8.1","","-13.3","","67","","","","27","","28","","48.3","","102.28","","","","-17","","NA"
"-68.21","48.61","MONT JOLI A","7055121","2018-11-15 04:00","2018","11","15","04:00","-8.3","","-14.0","","63","","","","28","","37","","48.3","","102.37","","","","-18","","Cloudy"
"-68.21","48.61","MONT JOLI A","7055121","2018-11-15 05:00","2018","11","15","05:00","-8.4","","-14.5","","62","","","","29","","37","","48.3","","102.50","","","","-18","","NA"
"-68.21","48.61","MONT JOLI A","7055121","2018-11-15 06:00","2018","11","15","06:00","-8.8","","-14.7","","63","","","","29","","26","","48.3","","102.54","","","","-17","","NA"
"-68.21","48.61","MONT JOLI A","7055121","2018-11-15 07:00","2018","11","15","07:00","-8.5","","-13.9","","66","","","","30","","25","","48.3","","102.65","","","","-17","","Mostly Cloudy"
"-68.21","48.61","MONT JOLI A","7055121","2018-11-15 08:00","2018","11","15","08:00","-8.4","","-13.8","","65","","","","29","","23","","48.3","","102.70","","","","-16","","NA"
"-68.21","48.61","MONT JOLI A","7055121","2018-11-15 09:00","2018","11","15","09:00","-7.9","","-13.4","","65","","","","26","","19","","48.3","","102.65","","","","-15","","NA"
"-68.21","48.61","MONT JOLI A","7055121","2018-11-15 10:00","2018","11","15","10:00","-7.7","","-13.2","","65","","","","26","","18","","48.3","","102.59","","","","-15","","Mostly Cloudy"
"-68.21","48.61","MONT JOLI A","7055121","2018-11-15 11:00","2018","11","15","11:00","-7.0","","-13.0","","63","","","","25","","20","","48.3","","102.55","","","","-14","","NA"
"-68.21","48.61","MONT JOLI A","7055121","2018-11-15 12:00","2018","11","15","12:00","-6.1","","-13.3","","57","","","","25","","24","","48.3","","102.49","","","","-14","","NA"
"-68.21","48.61","MONT JOLI A","7055121","2018-11-15 13:00","2018","11","15","13:00","-5.4","","-12.6","","57","","","","25","","23","","48.3","","102.50","","","","-13","","Mainly Clear"
"-68.21","48.61","MONT JOLI A","7055121","2018-11-15 14:00","2018","11","15","14:00","-5.3","","-11.1","","64","","","","25","","19","","48.3","","102.43","","","","-12","","NA"
"-68.21","48.61","MONT JOLI A","7055121","2018-11-15 15:00","2018","11","15","15:00","-5.7","","-10.8","","67","","","","24","","18","","48.3","","102.38","","","","-12","","NA"
"-68.21","48.61","MONT JOLI A","7055121","2018-11-15 16:00","2018","11","15","16:00","-6.7","","-12.0","","66","","","","22","","18","","48.3","","102.36","","","","-13","","Mainly Clear"
"-68.21","48.61","MONT JOLI A","7055121","2018-11-15 17:00","2018","11","15","17:00","-7.2","","-12.8","","65","","","","22","","13","","48.3","","102.39","","","","-13","","NA"
"-68.21","48.61","MONT JOLI A","7055121","2018-11-15 18:00","2018","11","15","18:00","-7.6","","-13.0","","66","","","","20","","11","","48.3","","102.35","","","","-13","","NA"
"-68.21","48.61","MONT JOLI A","7055121","2018-11-15 19:00","2018","11","15","19:00","-7.8","","-13.4","","65","","","","20","","14","","48.3","","102.31","","","","-14","","Mainly Clear"
"-68.21","48.61","MONT JOLI A","7055121","2018-11-15 20:00","2018","11","15","20:00","-9.6","","-13.9","","71","","","","16","","13","","48.3","","102.29","","","","-16","","NA"
"-68.21","48.61","MONT JOLI A","7055121","2018-11-15 21:00","2018","11","15","21:00","-9.7","","-14.2","","70","","","","17","","12","","48.3","","102.21","","","","-16","","NA"
"-68.21","48.61","MONT JOLI A","7055121","2018-11-15 22:00","2018","11","15","22:00","-10.0","","-14.7","","69","","","","16","","11","","48.3","","102.13","","","","-16","","Mainly Clear"
"-68.21","48.61","MONT JOLI A","7055121","2018-11-15 23:00","2018","11","15","23:00","-9.6","","-14.4","","68","","","","15","","11","","48.3","","102.05","","","","-15","","NA"
"-68.21","48.61","MONT JOLI A","7055121","2018-11-16 00:00","2018","11","16","00:00","-9.3","","-13.9","","70","","","","12","","12","","48.3","","101.97","","","","-15","","NA"
"-68.21","48.61","MONT JOLI A","7055121","2018-11-16 01:00","2018","11","16","01:00","-8.4","","-14.0","","64","","","","13","","22","","48.3","","101.82","","","","-16","","Mostly Cloudy"
"-68.21","48.61","MONT JOLI A","7055121","2018-11-16 02:00","2018","11","16","02:00","-8.8","","-14.3","","64","","","","19","","9","","48.3","","101.70","","","","-13","","NA"
"-68.21","48.61","MONT JOLI A","7055121","2018-11-16 03:00","2018","11","16","03:00","-8.2","","-14.4","","62","","","","15","","7","","48.3","","101.65","","","","-12","","NA"
"-68.21","48.61","MONT JOLI A","7055121","2018-11-16 04:00","2018","11","16","04:00","-8.1","","-14.1","","62","","","","14","","17","","48.3","","101.50","","","","-15","","Cloudy"
"-68.21","48.61","MONT JOLI A","7055121","2018-11-16 05:00","2018","11","16","05:00","-7.0","","-13.8","","59","","","","15","","20","","48.3","","101.37","","","","-14","","NA"
"-68.21","48.61","MONT JOLI A","7055121","2018-11-16 06:00","2018","11","16","06:00","-7.1","","-13.2","","62","","","","14","","10","","48.3","","101.30","","","","-12","","NA"
"-68.21","48.61","MONT JOLI A","7055121","2018-11-16 07:00","2018","11","16","07:00","-7.0","","-13.1","","62","","","","11","","15","","48.3","","101.25","","","","-13","","Cloudy"
"-68.21","48.61","MONT JOLI A","7055121","2018-11-16 08:00","2018","11","16","08:00","-6.2","","-13.2","","58","","","","13","","10","","48.3","","101.18","","","","-11","","NA"
"-68.21","48.61","MONT JOLI A","7055121","2018-11-16 09:00","2018","11","16","09:00","-5.5","","-13.4","","54","","","","13","","13","","48.3","","101.04","","","","-11","","NA"
"-68.21","48.61","MONT JOLI A","7055121","2018-11-16 10:00","2018","11","16","10:00","-5.1","","-13.1","","54","","","","12","","15","","48.3","","100.92","","","","-11","","Cloudy"
"-68.21","48.61","MONT JOLI A","7055121","2018-11-16 11:00","2018","11","16","11:00","-4.9","","-12.6","","55","","","","11","","5","","48.3","","100.77","","","","-7","","NA"
"-68.21","48.61","MONT JOLI A","7055121","2018-11-16 12:00","2018","11","16","12:00","-4.6","","-12.7","","54","","","","16","","14","","48.3","","100.63","","","","-10","","NA"
"-68.21","48.61","MONT JOLI A","7055121","2018-11-16 13:00","2018","11","16","13:00","-6.0","","-9.4","","77","","","","17","","15","","6.4","","100.53","","","","-12","","Snow"
"-68.21","48.61","MONT JOLI A","7055121","2018-11-16 14:00","2018","11","16","14:00","-5.8","","-8.6","","80","","","","6","","12","","8.1","","100.39","","","","-11","","Snow"
"-68.21","48.61","MONT JOLI A","7055121","2018-11-16 15:00","2018","11","16","15:00","-6.0","","-7.7","","88","","","","6","","14","","2.4","","100.27","","","","-12","","Snow"
"-68.21","48.61","MONT JOLI A","7055121","2018-11-16 16:00","2018","11","16","16:00","-6.1","","-7.6","","89","","","","7","","19","","1.2","","100.16","","","","-13","","Snow"
"-68.21","48.61","MONT JOLI A","7055121","2018-11-16 17:00","2018","11","16","17:00","-5.8","","-7.0","","91","","","","8","","10","","1.6","","100.03","","","","-10","","Snow"
"-68.21","48.61","MONT JOLI A","7055121","2018-11-16 18:00","2018","11","16","18:00","-5.3","","-6.8","","90","","","","7","","15","","2.4","","99.93","","","","-11","","Snow"
"-68.21","48.61","MONT JOLI A","7055121","2018-11-16 19:00","2018","11","16","19:00","-5.0","","-6.4","","90","","","","7","","14","","2.4","","99.83","","","","-10","","Snow"
"-68.21","48.61","MONT JOLI A","7055121","2018-11-16 20:00","2018","11","16","20:00","-5.0","","-6.3","","90","","","","9","","9","","2.4","","99.73","","","","-9","","Snow"
"-68.21","48.61","MONT JOLI A","7055121","2018-11-16 21:00","2018","11","16","21:00","-4.9","","-6.1","","91","","","","11","","6","","4.8","","99.70","","","","-8","","Snow"
"-68.21","48.61","MONT JOLI A","7055121","2018-11-16 22:00","2018","11","16","22:00","-4.7","","-5.8","","92","","","","15","","4","","3.2","","99.66","","","","-6","","Snow"
"-68.21","48.61","MONT JOLI A","7055121","2018-11-16 23:00","2018","11","16","23:00","-4.5","","-5.6","","92","","","","19","","6","","2.4","","99.63","","","","-7","","Snow"
"-68.21","48.61","MONT JOLI A","7055121","2018-11-17 00:00","2018","11","17","00:00","-4.4","","-5.6","","92","","","","21","","4","","2.4","","99.63","","","","-6","","Snow"
"-68.21","48.61","MONT JOLI A","7055121","2018-11-17 01:00","2018","11","17","01:00","-4.8","","-5.7","","94","","","","19","","4","","2.4","","99.64","","","","-7","","Snow"
"-68.21","48.61","MONT JOLI A","7055121","2018-11-17 02:00","2018","11","17","02:00","-4.5","","-5.5","","93","","","","22","","8","","2.4","","99.68","","","","-8","","Snow"
"-68.21","48.61","MONT JOLI A","7055121","2018-11-17 03:00","2018","11","17","03:00","-4.4","","-5.4","","93","","","","24","","10","","1.2","","99.70","","","","-9","","Snow"
"-68.21","48.61","MONT JOLI A","7055121","2018-11-17 04:00","2018","11","17","04:00","-4.2","","-5.4","","92","","","","22","","15","","2.4","","99.72","","","","-10","","Snow"
"-68.21","48.61","MONT JOLI A","7055121","2018-11-17 05:00","2018","11","17","05:00","-3.3","","-4.0","","95","","","","28","","22","","0.8","","99.79","","","","-10","","Moderate Snow"
"-68.21","48.61","MONT JOLI A","7055121","2018-11-17 06:00","2018","11","17","06:00","-3.4","","-4.6","","91","","","","26","","16","","3.2","","99.84","","","","-9","","Snow"
"-68.21","48.61","MONT JOLI A","7055121","2018-11-17 07:00","2018","11","17","07:00","-3.7","","-5.2","","89","","","","22","","18","","1.6","","99.92","","","","-10","","Snow"
"-68.21","48.61","MONT JOLI A","7055121","2018-11-17 08:00","2018","11","17","08:00","-3.6","","-5.0","","90","","","","25","","23","","1.6","","100.00","","","","-10","","Snow"
"-68.21","48.61","MONT JOLI A","7055121","2018-11-17 09:00","2018","11","17","09:00","-3.0","","-5.5","","83","","","","26","","28","","6.4","","100.03","","","","-10","","Snow"
"-68.21","48.61","MONT JOLI A","7055121","2018-11-17 10:00","2018","11","17","10:00","-2.8","","-5.8","","80","","","","25","","28","","4.8","","100.09","","","","-10","","Snow"
"-68.21","48.61","MONT JOLI A","7055121","2018-11-17 11:00","2018","11","17","11:00","-2.5","","-5.7","","79","","","","24","","28","","9.7","","100.14","","","","-10","","Snow,Blowing Snow"
"-68.21","48.61","MONT JOLI A","7055121","2018-11-17 12:00","2018","11","17","12:00","-1.9","","-6.0","","73","","","","24","","29","","9.7","","100.13","","","","-9","","Snow,Blowing Snow"
"-68.21","48.61","MONT JOLI A","7055121","2018-11-17 13:00","2018","11","17","13:00","-0.9","","-5.7","","70","","","","24","","23","","16.1","","100.14","","","","-7","","Snow"
"-68.21","48.61","MONT JOLI A","7055121","2018-11-17 14:00","2018","11","17","14:00","-0.7","","-5.4","","71","","","","25","","28","","24.1","","100.19","","","","-7","","NA"
"-68.21","48.61","MONT JOLI A","7055121","2018-11-17 15:00","2018","11","17","15:00","-1.0","","-4.5","","77","","","","26","","30","","24.1","","100.24","","","","-8","","NA"
"-68.21","48.61","MONT JOLI A","7055121","2018-11-17 16:00","2018","11","17","16:00","-0.6","","-4.3","","76","","","","26","","31","","24.1","","100.32","","","","-7","","Mostly Cloudy"
"-68.21","48.61","MONT JOLI A","7055121","2018-11-17 17:00","2018","11","17","17:00","-0.5","","-3.9","","78","","","","25","","31","","24.1","","100.40","","","","-7","","Blowing Snow"
"-68.21","48.61","MONT JOLI A","7055121","2018-11-17 18:00","2018","11","17","18:00","-0.7","","-5.6","","70","","","","27","","23","","48.3","","100.51","","","","-7","","Blowing Snow"
"-68.21","48.61","MONT JOLI A","7055121","2018-11-17 19:00","2018","11","17","19:00","-1.3","","-7.2","","64","","","","29","","36","","24.1","","100.61","","","","-9","","Snow,Blowing Snow"
"-68.21","48.61","MONT JOLI A","7055121","2018-11-17 20:00","2018","11","17","20:00","-2.6","","-8.5","","64","","","","30","","32","","24.1","","100.76","","","","-10","","Snow,Blowing Snow"
"-68.21","48.61","MONT JOLI A","7055121","2018-11-17 21:00","2018","11","17","21:00","-3.3","","-9.5","","62","","","","30","","28","","24.1","","100.89","","","","-11","","NA"
"-68.21","48.61","MONT JOLI A","7055121","2018-11-17 22:00","2018","11","17","22:00","-3.7","","-10.1","","62","","","","30","","28","","24.1","","101.00","","","","-11","","Blowing Snow"
"-68.21","48.61","MONT JOLI A","7055121","2018-11-17 23:00","2018","11","17","23:00","-4.2","","-10.0","","64","","","","29","","27","","24.1","","101.07","","","","-12","","Blowing Snow"
"-68.21","48.61","MONT JOLI A","7055121","2018-11-18 00:00","2018","11","18","00:00","-4.3","","-9.8","","66","","","","30","","28","","24.1","","101.17","","","","-12","","Blowing Snow"
"-68.21","48.61","MONT JOLI A","7055121","2018-11-18 01:00","2018","11","18","01:00","-4.7","","-10.1","","66","","","","28","","32","","24.1","","101.24","","","","-13","","Blowing Snow"
"-68.21","48.61","MONT JOLI A","7055121","2018-11-18 02:00","2018","11","18","02:00","-5.1","","-10.9","","64","","","","29","","31","","24.1","","101.26","","","","-13","","Blowing Snow"
"-68.21","48.61","MONT JOLI A","7055121","2018-11-18 03:00","2018","11","18","03:00","-5.2","","-10.4","","67","","","","28","","28","","24.1","","101.33","","","","-13","","NA"
"-68.21","48.61","MONT JOLI A","7055121","2018-11-18 04:00","2018","11","18","04:00","-5.1","","-10.7","","65","","","","29","","23","","24.1","","101.39","","","","-12","","Mostly Cloudy"
"-68.21","48.61","MONT JOLI A","7055121","2018-11-18 05:00","2018","11","18","05:00","-5.6","","-11.2","","65","","","","27","","28","","24.1","","101.48","","","","-14","","Snow"
"-68.21","48.61","MONT JOLI A","7055121","2018-11-18 06:00","2018","11","18","06:00","-6.6","","-12.3","","64","","","","29","","28","","24.1","","101.58","","","","-15","","Snow"
"-68.21","48.61","MONT JOLI A","7055121","2018-11-18 07:00","2018","11","18","07:00","-7.1","","-12.6","","65","","","","28","","26","","48.3","","101.71","","","","-15","","Snow"
"-68.21","48.61","MONT JOLI A","7055121","2018-11-18 08:00","2018","11","18","08:00","-7.9","","-12.8","","68","","","","26","","28","","48.3","","101.81","","","","-17","","Snow"
"-68.21","48.61","MONT JOLI A","7055121","2018-11-18 09:00","2018","11","18","09:00","-8.2","","-14.0","","63","","","","26","","21","","48.3","","101.88","","","","-16","","NA"
"-68.21","48.61","MONT JOLI A","7055121","2018-11-18 10:00","2018","11","18","10:00","-8.3","","-14.8","","60","","","","25","","18","","48.3","","101.92","","","","-15","","Mostly Cloudy"
"-68.21","48.61","MONT JOLI A","7055121","2018-11-18 11:00","2018","11","18","11:00","-8.7","","-15.6","","58","","","","26","","29","","48.3","","101.91","","","","-18","","NA"
"-68.21","48.61","MONT JOLI A","7055121","2018-11-18 12:00","2018","11","18","12:00","-8.4","","-15.4","","58","","","","27","","21","","24.1","","101.87","","","","-16","","NA"
"-68.21","48.61","MONT JOLI A","7055121","2018-11-18 13:00","2018","11","18","13:00","-7.8","","-14.3","","60","","","","26","","19","","48.3","","101.83","","","","-15","","Mostly Cloudy"
"-68.21","48.61","MONT JOLI A","7055121","2018-11-18 14:00","2018","11","18","14:00","-7.2","","-14.1","","58","","","","25","","23","","48.3","","101.83","","","","-15","","NA"
"-68.21","48.61","MONT JOLI A","7055121","2018-11-18 15:00","2018","11","18","15:00","-7.2","","-14.5","","56","","","","23","","17","","48.3","","101.78","","","","-14","","NA"
"-68.21","48.61","MONT JOLI A","7055121","2018-11-18 16:00","2018","11","18","16:00","-8.5","","-14.5","","62","","","","20","","13","","48.3","","101.77","","","","-14","","Mainly Clear"
"-68.21","48.61","MONT JOLI A","7055121","2018-11-18 17:00","2018","11","18","17:00","-9.3","","-15.3","","62","","","","21","","11","","48.3","","101.76","","","","-15","","NA"
"-68.21","48.61","MONT JOLI A","7055121","2018-11-18 18:00","2018","11","18","18:00","-11.6","","-15.8","","72","","","","16","","10","","48.3","","101.77","","","","-17","","NA"
"-68.21","48.61","MONT JOLI A","7055121","2018-11-18 19:00","2018","11","18","19:00","-12.7","","-16.4","","74","","","","16","","8","","24.1","","101.73","","","","-18","","Mostly Cloudy"
"-68.21","48.61","MONT JOLI A","7055121","2018-11-18 20:00","2018","11","18","20:00","-9.3","","-14.5","","66","","","","18","","14","","24.1","","101.68","","","","-16","","NA"
"-68.21","48.61","MONT JOLI A","7055121","2018-11-18 21:00","2018","11","18","21:00","-11.0","","-15.2","","71","","","","17","","14","","24.1","","101.64","","","","-18","","NA"
"-68.21","48.61","MONT JOLI A","7055121","2018-11-18 22:00","2018","11","18","22:00","-9.1","","-14.3","","66","","","","21","","19","","24.1","","101.61","","","","-17","","Mainly Clear"
"-68.21","48.61","MONT JOLI A","7055121","2018-11-18 23:00","2018","11","18","23:00","-8.8","","-13.2","","71","","","","20","","19","","6.4","","101.57","","","","-16","","Snow"
"-68.21","48.61","MONT JOLI A","7055121","2018-11-19 00:00","2018","11","19","00:00","-8.9","","-13.3","","70","","","","20","","19","","24.1","","101.54","","","","-16","","Snow"
"-68.21","48.61","MONT JOLI A","7055121","2018-11-19 01:00","2018","11","19","01:00","-9.0","","-13.5","","70","","","","20","","21","","24.1","","101.50","","","","-17","","Snow"
"-68.21","48.61","MONT JOLI A","7055121","2018-11-19 02:00","2018","11","19","02:00","-8.7","","-13.1","","71","","","","20","","17","","24.1","","101.47","","","","-16","","NA"
"-68.21","48.61","MONT JOLI A","7055121","2018-11-19 03:00","2018","11","19","03:00","-8.5","","-12.9","","71","","","","19","","18","","24.1","","101.43","","","","-16","","NA"
"-68.21","48.61","MONT JOLI A","7055121","2018-11-19 04:00","2018","11","19","04:00","-8.6","","-13.2","","70","","","","16","","14","","24.1","","101.33","","","","-15","","Cloudy"
"-68.21","48.61","MONT JOLI A","7055121","2018-11-19 05:00","2018","11","19","05:00","-7.9","","-12.1","","72","","","","18","","14","","3.2","","101.32","","","","-14","","Snow"
"-68.21","48.61","MONT JOLI A","7055121","2018-11-19 06:00","2018","11","19","06:00","-6.5","","-11.6","","67","","","","19","","16","","24.1","","101.24","","","","-13","","NA"
"-68.21","48.61","MONT JOLI A","7055121","2018-11-19 07:00","2018","11","19","07:00","-6.2","","-11.9","","64","","","","20","","21","","24.1","","101.23","","","","-13","","Cloudy"
"-68.21","48.61","MONT JOLI A","7055121","2018-11-19 08:00","2018","11","19","08:00","-5.9","","-10.8","","69","","","","21","","19","","24.1","","101.21","","","","-13","","NA"
"-68.21","48.61","MONT JOLI A","7055121","2018-11-19 09:00","2018","11","19","09:00","-5.5","","-9.9","","71","","","","21","","17","","16.1","","101.20","","","","-12","","Snow"
"-68.21","48.61","MONT JOLI A","7055121","2018-11-19 10:00","2018","11","19","10:00","-4.6","","-9.0","","71","","","","21","","19","","9.7","","101.16","","","","-11","","Snow"
"-68.21","48.61","MONT JOLI A","7055121","2018-11-19 11:00","2018","11","19","11:00","-3.2","","-8.0","","70","","","","22","","17","","16.1","","101.13","","","","-9","","Snow"
"-68.21","48.61","MONT JOLI A","7055121","2018-11-19 12:00","2018","11","19","12:00","-3.2","","-6.8","","76","","","","24","","19","","8.1","","101.08","","","","-9","","Snow"
"-68.21","48.61","MONT JOLI A","7055121","2018-11-19 13:00","2018","11","19","13:00","-2.8","","-6.2","","77","","","","24","","14","","4.8","","101.05","","","","-8","","Snow"
"-68.21","48.61","MONT JOLI A","7055121","2018-11-19 14:00","2018","11","19","14:00","-3.0","","-5.4","","84","","","","21","","13","","3.2","","101.06","","","","-8","","Snow Showers"
"-68.21","48.61","MONT JOLI A","7055121","2018-11-19 15:00","2018","11","19","15:00","-3.7","","-5.1","","90","","","","29","","11","","2.0","","101.08","","","","-8","","Snow Showers"
"-68.21","48.61","MONT JOLI A","7055121","2018-11-19 16:00","2018","11","19","16:00","-4.2","","-5.5","","91","","","","34","","4","","2.4","","101.11","","","","-6","","Snow Showers"
"-68.21","48.61","MONT JOLI A","7055121","2018-11-19 17:00","2018","11","19","17:00","-4.6","","-5.6","","92","","","","9","","4","","2.4","","101.12","","","","-6","","Snow"
"-68.21","48.61","MONT JOLI A","7055121","2018-11-19 18:00","2018","11","19","18:00","-5.2","","-7.8","","82","","","","2","","27","","2.4","","101.17","","","","-13","","Snow"
"-68.21","48.61","MONT JOLI A","7055121","2018-11-19 19:00","2018","11","19","19:00","-5.7","","-9.4","","75","","","","2","","19","","4.8","","101.21","","","","-12","","Snow"
"-68.21","48.61","MONT JOLI A","7055121","2018-11-19 20:00","2018","11","19","20:00","-6.4","","-9.8","","77","","","","1","","21","","4.8","","101.26","","","","-13","","Snow"
"-68.21","48.61","MONT JOLI A","7055121","2018-11-19 21:00","2018","11","19","21:00","-6.7","","-10.2","","76","","","","1","","17","","4.8","","101.28","","","","-13","","Snow"
"-68.21","48.61","MONT JOLI A","7055121","2018-11-19 22:00","2018","11","19","22:00","-6.6","","-10.1","","76","","","","1","","15","","24.1","","101.27","","","","-13","","Snow"
"-68.21","48.61","MONT JOLI A","7055121","2018-11-19 23:00","2018","11","19","23:00","-6.8","","-10.0","","78","","","","1","","18","","4.8","","101.26","","","","-13","","Snow"
"-68.21","48.61","MONT JOLI A","7055121","2018-11-20 00:00","2018","11","20","00:00","-7.1","","-9.4","","84","","","","1","","17","","1.6","","101.25","","","","-14","","Snow"
"-68.21","48.61","MONT JOLI A","7055121","2018-11-20 01:00","2018","11","20","01:00","-7.5","","-9.8","","84","","","","2","","13","","1.2","","101.23","","","","-13","","Snow"
"-68.21","48.61","MONT JOLI A","7055121","2018-11-20 02:00","2018","11","20","02:00","-7.5","","-10.1","","82","","","","4","","12","","1.6","","101.23","","","","-13","","Snow"
"-68.21","48.61","MONT JOLI A","7055121","2018-11-20 03:00","2018","11","20","03:00","-7.5","","-9.8","","83","","","","5","","9","","1.6","","101.23","","","","-12","","Snow"
"-68.21","48.61","MONT JOLI A","7055121","2018-11-20 04:00","2018","11","20","04:00","-7.4","","-9.4","","86","","","","5","","8","","2.0","","101.21","","","","-11","","Snow"
"-68.21","48.61","MONT JOLI A","7055121","2018-11-20 05:00","2018","11","20","05:00","-7.6","","-9.2","","88","","","","14","","5","","1.6","","101.24","","","","-10","","Snow"
"-68.21","48.61","MONT JOLI A","7055121","2018-11-20 06:00","2018","11","20","06:00","-7.2","","-9.0","","87","","","","4","","14","","1.2","","101.26","","","","-13","","Snow"
"-68.21","48.61","MONT JOLI A","7055121","2018-11-20 07:00","2018","11","20","07:00","-7.2","","-9.2","","86","","","","4","","18","","1.6","","101.26","","","","-14","","Snow"
"-68.21","48.61","MONT JOLI A","7055121","2018-11-20 08:00","2018","11","20","08:00","-7.3","","-9.5","","85","","","","4","","16","","1.6","","101.28","","","","-14","","Snow"
"-68.21","48.61","MONT JOLI A","7055121","2018-11-20 09:00","2018","11","20","09:00","-7.4","","-10.0","","82","","","","4","","15","","3.2","","101.26","","","","-14","","Snow"
"-68.21","48.61","MONT JOLI A","7055121","2018-11-20 10:00","2018","11","20","10:00","-7.5","","-10.0","","82","","","","3","","19","","3.2","","101.26","","","","-15","","Snow"
"-68.21","48.61","MONT JOLI A","7055121","2018-11-20 11:00","2018","11","20","11:00","-7.8","","-10.3","","82","","","","2","","18","","3.2","","101.23","","","","-15","","Snow"
"-68.21","48.61","MONT JOLI A","7055121","2018-11-20 12:00","2018","11","20","12:00","-7.8","","-10.8","","80","","","","1","","18","","4.8","","101.16","","","","-15","","Snow"
"-68.21","48.61","MONT JOLI A","7055121","2018-11-20 13:00","2018","11","20","13:00","-8.0","","-11.0","","79","","","","1","","18","","4.0","","101.13","","","","-15","","Snow"
"-68.21","48.61","MONT JOLI A","7055121","2018-11-20 14:00","2018","11","20","14:00","-7.7","","-10.3","","82","","","","2","","17","","3.2","","101.12","","","","-14","","Snow"
"-68.21","48.61","MONT JOLI A","7055121","2018-11-20 15:00","2018","11","20","15:00","-7.5","","-9.9","","83","","","","4","","14","","4.0","","101.06","","","","-13","","Snow"
"-68.21","48.61","MONT JOLI A","7055121","2018-11-20 16:00","2018","11","20","16:00","-7.2","","-9.8","","82","","","","4","","14","","4.0","","101.02","","","","-13","","Snow"
"-68.21","48.61","MONT JOLI A","7055121","2018-11-20 17:00","2018","11","20","17:00","-7.1","","-9.3","","84","","","","4","","9","","4.8","","101.01","","","","-11","","Snow"
"-68.21","48.61","MONT JOLI A","7055121","2018-11-20 18:00","2018","11","20","18:00","-6.9","","-8.8","","87","","","","5","","13","","3.2","","100.98","","","","-12","","Snow"
"-68.21","48.61","MONT JOLI A","7055121","2018-11-20 19:00","2018","11","20","19:00","-6.7","","-8.6","","87","","","","3","","20","","4.0","","100.89","","","","-14","","Snow"
"-68.21","48.61","MONT JOLI A","7055121","2018-11-20 20:00","2018","11","20","20:00","-6.9","","-8.8","","86","","","","2","","22","","3.2","","100.83","","","","-14","","Snow"
"-68.21","48.61","MONT JOLI A","7055121","2018-11-20 21:00","2018","11","20","21:00","-6.5","","-8.6","","85","","","","1","","18","","4.0","","100.75","","","","-13","","Snow"
"-68.21","48.61","MONT JOLI A","7055121","2018-11-20 22:00","2018","11","20","22:00","-5.3","","-7.9","","82","","","","4","","16","","4.0","","100.61","","","","-11","","Snow"
"-68.21","48.61","MONT JOLI A","7055121","2018-11-20 23:00","2018","11","20","23:00","-6.7","","-8.1","","90","","","","15","","9","","8.1","","100.55","","","","-11","","Snow"
"-68.21","48.61","MONT JOLI A","7055121","2018-11-21 00:00","2018","11","21","00:00","-7.3","","-9.2","","87","","","","19","","6","","16.1","","100.50","","","","-10","","Snow"
"-68.21","48.61","MONT JOLI A","7055121","2018-11-21 01:00","2018","11","21","01:00","-7.0","","-8.9","","87","","","","12","","4","","12.9","","100.46","","","","-9","","Snow"
"-68.21","48.61","MONT JOLI A","7055121","2018-11-21 02:00","2018","11","21","02:00","-7.1","","-8.9","","87","","","","16","","7","","8.1","","100.42","","","","-11","","Snow"
"-68.21","48.61","MONT JOLI A","7055121","2018-11-21 03:00","2018","11","21","03:00","-7.5","","-9.0","","89","","","","12","","5","","4.8","","100.33","","","","-10","","Snow"
"-68.21","48.61","MONT JOLI A","7055121","2018-11-21 04:00","2018","11","21","04:00","-7.2","","-8.8","","88","","","","17","","8","","3.2","","100.26","","","","-11","","Snow"
"-68.21","48.61","MONT JOLI A","7055121","2018-11-21 05:00","2018","11","21","05:00","-7.1","","-8.8","","88","","","","17","","9","","1.6","","100.19","","","","-11","","Snow"
"-68.21","48.61","MONT JOLI A","7055121","2018-11-21 06:00","2018","11","21","06:00","-7.2","","-8.9","","88","","","","16","","12","","2.0","","100.14","","","","-13","","Snow"
"-68.21","48.61","MONT JOLI A","7055121","2018-11-21 07:00","2018","11","21","07:00","-7.1","","-9.0","","86","","","","18","","11","","3.6","","100.11","","","","-12","","Snow"
"-68.21","48.61","MONT JOLI A","7055121","2018-11-21 08:00","2018","11","21","08:00","-6.6","","-8.3","","88","","","","21","","18","","2.4","","100.08","","","","-13","","Snow"
"-68.21","48.61","MONT JOLI A","7055121","2018-11-21 09:00","2018","11","21","09:00","-5.9","","-7.7","","87","","","","24","","19","","2.4","","100.08","","","","-13","","Snow"
"-68.21","48.61","MONT JOLI A","7055121","2018-11-21 10:00","2018","11","21","10:00","-6.1","","-8.1","","85","","","","25","","21","","4.0","","100.06","","","","-13","","Snow"
"-68.21","48.61","MONT JOLI A","7055121","2018-11-21 11:00","2018","11","21","11:00","-6.0","","-8.6","","82","","","","23","","17","","4.8","","100.00","","","","-12","","Snow"
"-68.21","48.61","MONT JOLI A","7055121","2018-11-21 12:00","2018","11","21","12:00","-6.0","","-9.0","","80","","","","24","","30","","4.0","","99.98","","","","-14","","Snow Showers"
"-68.21","48.61","MONT JOLI A","7055121","2018-11-21 13:00","2018","11","21","13:00","-6.8","","-10.5","","75","","","","24","","26","","4.8","","99.97","","","","-15","","Snow Showers"
"-68.21","48.61","MONT JOLI A","7055121","2018-11-21 14:00","2018","11","21","14:00","-7.4","","-11.6","","72","","","","23","","18","","3.2","","99.94","","","","-14","","Snow"
"-68.21","48.61","MONT JOLI A","7055121","2018-11-21 15:00","2018","11","21","15:00","-8.2","","-11.5","","78","","","","22","","14","","3.2","","99.96","","","","-14","","Snow"
"-68.21","48.61","MONT JOLI A","7055121","2018-11-21 16:00","2018","11","21","16:00","-7.6","","-13.9","","61","","","","29","","24","","48.3","","99.99","","","","-16","","Snow"
"-68.21","48.61","MONT JOLI A","7055121","2018-11-21 17:00","2018","11","21","17:00","-7.9","","-14.6","","59","","","","30","","24","","48.3","","100.04","","","","-16","","NA"
"-68.21","48.61","MONT JOLI A","7055121","2018-11-21 18:00","2018","11","21","18:00","-8.8","","-15.0","","61","","","","30","","35","","24.1","","100.11","","","","-19","","Blowing Snow"
"-68.21","48.61","MONT JOLI A","7055121","2018-11-21 19:00","2018","11","21","19:00","-9.7","","-15.5","","63","","","","29","","31","","24.1","","100.18","","","","-19","","Blowing Snow"
"-68.21","48.61","MONT JOLI A","7055121","2018-11-21 20:00","2018","11","21","20:00","-10.6","","-16.3","","63","","","","29","","40","","16.1","","100.20","","","","-22","","Blowing Snow"
"-68.21","48.61","MONT JOLI A","7055121","2018-11-21 21:00","2018","11","21","21:00","-11.2","","-17.2","","62","","","","29","","41","","24.1","","100.17","","","","-22","","Blowing Snow"
"-68.21","48.61","MONT JOLI A","7055121","2018-11-21 22:00","2018","11","21","22:00","-11.5","","-17.1","","64","","","","27","","27","","16.1","","100.19","","","","-21","","Blowing Snow"
"-68.21","48.61","MONT JOLI A","7055121","2018-11-21 23:00","2018","11","21","23:00","-11.7","","-17.5","","62","","","","28","","36","","16.1","","100.16","","","","-23","","Blowing Snow"
"-68.21","48.61","MONT JOLI A","7055121","2018-11-22 00:00","2018","11","22","00:00","-12.0","","-17.8","","62","","","","30","","40","","16.1","","100.17","","","","-23","","Blowing Snow"
"-68.21","48.61","MONT JOLI A","7055121","2018-11-22 01:00","2018","11","22","01:00","-12.5","","-17.8","","65","","","","28","","41","","12.9","","100.14","","","","-24","","Blowing Snow"
"-68.21","48.61","MONT JOLI A","7055121","2018-11-22 02:00","2018","11","22","02:00","-12.8","","-17.3","","69","","","","30","","34","","9.7","","100.17","","","","-24","","Snow,Blowing Snow"
"-68.21","48.61","MONT JOLI A","7055121","2018-11-22 03:00","2018","11","22","03:00","-12.7","","-16.5","","73","","","","29","","35","","4.8","","100.17","","","","-24","","Snow,Blowing Snow"
"-68.21","48.61","MONT JOLI A","7055121","2018-11-22 04:00","2018","11","22","04:00","-12.9","","-17.0","","72","","","","31","","35","","3.2","","100.19","","","","-24","","Snow,Blowing Snow"
"-68.21","48.61","MONT JOLI A","7055121","2018-11-22 05:00","2018","11","22","05:00","-12.7","","-17.1","","70","","","","32","","45","","4.0","","100.23","","","","-25","","Snow,Blowing Snow"
"-68.21","48.61","MONT JOLI A","7055121","2018-11-22 06:00","2018","11","22","06:00","-12.8","","-16.7","","73","","","","32","","42","","2.4","","100.27","","","","-25","","Snow,Blowing Snow"
"-68.21","48.61","MONT JOLI A","7055121","2018-11-22 07:00","2018","11","22","07:00","-12.8","","-16.3","","75","","","","31","","46","","2.4","","100.36","","","","-25","","Snow,Blowing Snow"
"-68.21","48.61","MONT JOLI A","7055121","2018-11-22 08:00","2018","11","22","08:00","-12.1","","-15.5","","76","","","","32","","48","","2.4","","100.41","","","","-24","","Snow,Blowing Snow"
"-68.21","48.61","MONT JOLI A","7055121","2018-11-22 09:00","2018","11","22","09:00","-12.1","","-15.0","","79","","","","32","","43","","1.2","","100.50","","","","-24","","Snow,Blowing Snow"
"-68.21","48.61","MONT JOLI A","7055121","2018-11-22 10:00","2018","11","22","10:00","-11.7","","-15.1","","76","","","","33","","39","","2.0","","100.60","","","","-23","","Snow,Blowing Snow"
"-68.21","48.61","MONT JOLI A","7055121","2018-11-22 11:00","2018","11","22","11:00","-11.5","","-15.8","","71","","","","32","","37","","9.7","","100.70","","","","-22","","Snow,Blowing Snow"
"-68.21","48.61","MONT JOLI A","7055121","2018-11-22 12:00","2018","11","22","12:00","-11.5","","-16.9","","65","","","","32","","39","","9.7","","100.73","","","","-23","","Snow,Blowing Snow"
"-68.21","48.61","MONT JOLI A","7055121","2018-11-22 13:00","2018","11","22","13:00","-11.5","","-17.6","","61","","","","31","","39","","9.7","","100.82","","","","-23","","Snow,Blowing Snow"
"-68.21","48.61","MONT JOLI A","7055121","2018-11-22 14:00","2018","11","22","14:00","-11.5","","-17.5","","62","","","","33","","36","","9.7","","100.94","","","","-22","","Snow,Blowing Snow"
"-68.21","48.61","MONT JOLI A","7055121","2018-11-22 15:00","2018","11","22","15:00","-11.0","","-16.9","","63","","","","32","","40","","16.1","","101.02","","","","-22","","Blowing Snow"
"-68.21","48.61","MONT JOLI A","7055121","2018-11-22 16:00","2018","11","22","16:00","-11.1","","-18.2","","56","","","","32","","41","","16.1","","101.10","","","","-22","","Blowing Snow"
"-68.21","48.61","MONT JOLI A","7055121","2018-11-22 17:00","2018","11","22","17:00","-10.9","","-17.1","","61","","","","31","","46","","16.1","","101.19","","","","-23","","Blowing Snow"
"-68.21","48.61","MONT JOLI A","7055121","2018-11-22 18:00","2018","11","22","18:00","-11.1","","-17.0","","62","","","","33","","55","","9.7","","101.24","","","","-24","","Blowing Snow"
"-68.21","48.61","MONT JOLI A","7055121","2018-11-22 19:00","2018","11","22","19:00","-10.8","","-16.6","","63","","","","33","","52","","16.1","","101.30","","","","-23","","Blowing Snow"
"-68.21","48.61","MONT JOLI A","7055121","2018-11-22 20:00","2018","11","22","20:00","-10.4","","-16.2","","63","","","","33","","53","","16.1","","101.32","","","","-23","","Blowing Snow"
"-68.21","48.61","MONT JOLI A","7055121","2018-11-22 21:00","2018","11","22","21:00","-9.8","","-15.7","","63","","","","33","","55","","16.1","","101.37","","","","-22","","Blowing Snow"
"-68.21","48.61","MONT JOLI A","7055121","2018-11-22 22:00","2018","11","22","22:00","-9.6","","-16.6","","57","","","","32","","39","","16.1","","101.41","","","","-20","","Blowing Snow"
"-68.21","48.61","MONT JOLI A","7055121","2018-11-22 23:00","2018","11","22","23:00","-9.2","","-16.5","","56","","","","32","","46","","24.1","","101.39","","","","-20","","Blowing Snow"
"-68.21","48.61","MONT JOLI A","7055121","2018-11-23 00:00","2018","11","23","00:00","-9.0","","-15.7","","59","","","","32","","46","","24.1","","101.43","","","","-20","","Blowing Snow"
"-68.21","48.61","MONT JOLI A","7055121","2018-11-23 01:00","2018","11","23","01:00","-8.7","","-15.8","","57","","","","32","","45","","24.1","","101.47","","","","-20","","Blowing Snow"
"-68.21","48.61","MONT JOLI A","7055121","2018-11-23 02:00","2018","11","23","02:00","-8.3","","-15.4","","57","","","","31","","48","","24.1","","101.52","","","","-19","","Blowing Snow"
"-68.21","48.61","MONT JOLI A","7055121","2018-11-23 03:00","2018","11","23","03:00","-8.0","","-15.4","","56","","","","31","","49","","24.1","","101.51","","","","-19","","Blowing Snow"
"-68.21","48.61","MONT JOLI A","7055121","2018-11-23 04:00","2018","11","23","04:00","-7.9","","-14.8","","58","","","","32","","50","","24.1","","101.47","","","","-19","","Blowing Snow"
"-68.21","48.61","MONT JOLI A","7055121","2018-11-23 05:00","2018","11","23","05:00","-8.5","","-15.0","","60","","","","32","","57","","24.1","","101.52","","","","-20","","Blowing Snow"
"-68.21","48.61","MONT JOLI A","7055121","2018-11-23 06:00","2018","11","23","06:00","-8.3","","-14.6","","61","","","","30","","39","","24.1","","101.60","","","","-18","","Blowing Snow"
"-68.21","48.61","MONT JOLI A","7055121","2018-11-23 07:00","2018","11","23","07:00","-8.8","","-15.0","","61","","","","29","","43","","24.1","","101.60","","","","-19","","Blowing Snow"
"-68.21","48.61","MONT JOLI A","7055121","2018-11-23 08:00","2018","11","23","08:00","-9.7","","-18.9","","48","","","","29","","49","","24.1","","101.72","","","","-21","","Blowing Snow"
"-68.21","48.61","MONT JOLI A","7055121","2018-11-23 09:00","2018","11","23","09:00","-9.8","","-19.5","","46","","","","29","","29","","24.1","","101.79","","","","-19","","Blowing Snow"
"-68.21","48.61","MONT JOLI A","7055121","2018-11-23 10:00","2018","11","23","10:00","-9.5","","-19.5","","45","","","","27","","28","","24.1","","101.79","","","","-19","","Mainly Clear"
"-68.21","48.61","MONT JOLI A","7055121","2018-11-23 11:00","2018","11","23","11:00","-9.0","","-17.8","","49","","","","27","","28","","24.1","","101.68","","","","-18","","NA"
"-68.21","48.61","MONT JOLI A","7055121","2018-11-23 12:00","2018","11","23","12:00","-8.1","","-17.2","","48","","","","27","","32","","24.1","","101.60","","","","-17","","NA"
"-68.21","48.61","MONT JOLI A","7055121","2018-11-23 13:00","2018","11","23","13:00","-7.1","","-18.8","","39","","","","28","","36","","24.1","","101.53","","","","-16","","Mostly Cloudy"
"-68.21","48.61","MONT JOLI A","7055121","2018-11-23 14:00","2018","11","23","14:00","-6.6","","-18.1","","40","","","","27","","33","","24.1","","101.43","","","","-15","","NA"
"-68.21","48.61","MONT JOLI A","7055121","2018-11-23 15:00","2018","11","23","15:00","-6.0","","-17.9","","39","","","","27","","27","","24.1","","101.39","","","","-14","","NA"
"-68.21","48.61","MONT JOLI A","7055121","2018-11-23 16:00","2018","11","23","16:00","-6.8","","-14.7","","54","","","","23","","18","","24.1","","101.33","","","","-13","","Mostly Cloudy"
"-68.21","48.61","MONT JOLI A","7055121","2018-11-23 17:00","2018","11","23","17:00","-7.5","","-14.7","","57","","","","24","","18","","24.1","","101.31","","","","-14","","NA"
"-68.21","48.61","MONT JOLI A","7055121","2018-11-23 18:00","2018","11","23","18:00","-6.3","","-15.6","","48","","","","26","","32","","24.1","","101.27","","","","-15","","NA"
"-68.21","48.61","MONT JOLI A","7055121","2018-11-23 19:00","2018","11","23","19:00","-8.0","","-13.1","","67","","","","23","","18","","48.3","","101.20","","","","-15","","Mostly Cloudy"
"-68.21","48.61","MONT JOLI A","7055121","2018-11-23 20:00","2018","11","23","20:00","-7.8","","-12.7","","68","","","","21","","18","","48.3","","101.09","","","","-15","","NA"
"-68.21","48.61","MONT JOLI A","7055121","2018-11-23 21:00","2018","11","23","21:00","-7.2","","-12.3","","67","","","","21","","22","","48.3","","101.00","","","","-15","","NA"
"-68.21","48.61","MONT JOLI A","7055121","2018-11-23 22:00","2018","11","23","22:00","-6.9","","-10.4","","76","","","","22","","23","","9.7","","100.95","","","","-14","","Snow"
"-68.21","48.61","MONT JOLI A","7055121","2018-11-23 23:00","2018","11","23","23:00","-5.9","","-9.2","","78","","","","25","","28","","16.1","","100.90","","","","-14","","Snow"
"-68.21","48.61","MONT JOLI A","7055121","2018-11-24 00:00","2018","11","24","00:00","-6.5","","-12.6","","62","","","","23","","20","","48.3","","100.84","","","","-13","","NA"
"-68.21","48.61","MONT JOLI A","7055121","2018-11-24 01:00","2018","11","24","01:00","-6.3","","-12.2","","63","","","","23","","22","","48.3","","100.79","","","","-14","","Cloudy"
"-68.21","48.61","MONT JOLI A","7055121","2018-11-24 02:00","2018","11","24","02:00","-4.6","","-8.9","","72","","","","25","","30","","48.3","","100.81","","","","-12","","NA"
"-68.21","48.61","MONT JOLI A","7055121","2018-11-24 03:00","2018","11","24","03:00","-4.4","","-8.2","","75","","","","26","","27","","48.3","","100.77","","","","-12","","NA"
"-68.21","48.61","MONT JOLI A","7055121","2018-11-24 04:00","2018","11","24","04:00","-4.2","","-7.8","","76","","","","26","","24","","48.3","","100.79","","","","-11","","Cloudy"
"-68.21","48.61","MONT JOLI A","7055121","2018-11-24 05:00","2018","11","24","05:00","-3.9","","-7.7","","75","","","","25","","26","","48.3","","100.79","","","","-11","","NA"
"-68.21","48.61","MONT JOLI A","7055121","2018-11-24 06:00","2018","11","24","06:00","-3.8","","-7.5","","76","","","","25","","27","","48.3","","100.79","","","","-11","","NA"
"-68.21","48.61","MONT JOLI A","7055121","2018-11-24 07:00","2018","11","24","07:00","-3.6","","-6.8","","79","","","","25","","23","","24.1","","100.80","","","","-10","","Cloudy"
"-68.21","48.61","MONT JOLI A","7055121","2018-11-24 08:00","2018","11","24","08:00","-3.3","","-6.4","","79","","","","26","","26","","24.1","","100.81","","","","-10","","NA"
"-68.21","48.61","MONT JOLI A","7055121","2018-11-24 09:00","2018","11","24","09:00","-3.0","","-6.0","","80","","","","25","","27","","24.1","","100.81","","","","-10","","NA"
"-68.21","48.61","MONT JOLI A","7055121","2018-11-24 10:00","2018","11","24","10:00","-2.7","","-6.1","","77","","","","24","","25","","24.1","","100.82","","","","-9","","Cloudy"
"-68.21","48.61","MONT JOLI A","7055121","2018-11-24 11:00","2018","11","24","11:00","-2.0","","-5.8","","75","","","","25","","30","","24.1","","100.79","","","","-9","","NA"
"-68.21","48.61","MONT JOLI A","7055121","2018-11-24 12:00","2018","11","24","12:00","-1.5","","-5.3","","75","","","","25","","28","","24.1","","100.74","","","","-8","","NA"
"-68.21","48.61","MONT JOLI A","7055121","2018-11-24 13:00","2018","11","24","13:00","-1.6","","-5.9","","72","","","","25","","29","","24.1","","100.71","","","","-8","","Mostly Cloudy"
"-68.21","48.61","MONT JOLI A","7055121","2018-11-24 14:00","2018","11","24","14:00","-1.8","","-6.0","","73","","","","25","","17","","24.1","","100.74","","","","-7","","NA"
"-68.21","48.61","MONT JOLI A","7055121","2018-11-24 15:00","2018","11","24","15:00","-1.5","","-6.3","","70","","","","26","","11","","24.1","","100.78","","","","-5","","NA"
"-68.21","48.61","MONT JOLI A","7055121","2018-11-24 16:00","2018","11","24","16:00","-1.6","","-6.8","","68","","","","24","","4","","24.1","","100.79","","","","-3","","Mostly Cloudy"
"-68.21","48.61","MONT JOLI A","7055121","2018-11-24 17:00","2018","11","24","17:00","-3.3","","-7.8","","71","","","","20","","4","","24.1","","100.78","","","","-5","","NA"
"-68.21","48.61","MONT JOLI A","7055121","2018-11-24 18:00","2018","11","24","18:00","-6.7","","-10.1","","77","","","","14","","5","","24.1","","100.82","","","","-9","","NA"
"-68.21","48.61","MONT JOLI A","7055121","2018-11-24 19:00","2018","11","24","19:00","-6.6","","-9.0","","84","","","","17","","7","","24.1","","100.88","","","","-10","","Mainly Clear"
"-68.21","48.61","MONT JOLI A","7055121","2018-11-24 20:00","2018","11","24","20:00","-6.3","","-9.1","","81","","","","16","","11","","24.1","","100.89","","","","-11","","NA"
"-68.21","48.61","MONT JOLI A","7055121","2018-11-24 21:00","2018","11","24","21:00","-4.7","","-8.0","","78","","","","17","","10","","24.1","","100.92","","","","-9","","NA"
"-68.21","48.61","MONT JOLI A","7055121","2018-11-24 22:00","2018","11","24","22:00","-6.5","","-9.4","","80","","","","13","","11","","24.1","","100.79","","","","-11","","Mostly Cloudy"
"-68.21","48.61","MONT JOLI A","7055121","2018-11-24 23:00","2018","11","24","23:00","-5.2","","-8.6","","77","","","","17","","12","","24.1","","100.85","","","","-10","","NA"
"-68.21","48.61","MONT JOLI A","7055121","2018-11-25 00:00","2018","11","25","00:00","-7.0","","-9.4","","84","","","","15","","5","","16.1","","100.85","","","","-10","","NA"
"-68.21","48.61","MONT JOLI A","7055121","2018-11-25 01:00","2018","11","25","01:00","-6.5","","-8.8","","84","","","","15","","5","","16.1","","100.85","","","","-9","","Mostly Cloudy"
"-68.21","48.61","MONT JOLI A","7055121","2018-11-25 02:00","2018","11","25","02:00","-5.3","","-8.5","","79","","","","15","","10","","16.1","","100.87","","","","-10","","NA"
"-68.21","48.61","MONT JOLI A","7055121","2018-11-25 03:00","2018","11","25","03:00","-5.3","","-8.5","","78","","","","10","","14","","16.1","","100.83","","","","-11","","NA"
"-68.21","48.61","MONT JOLI A","7055121","2018-11-25 04:00","2018","11","25","04:00","-6.7","","-9.1","","84","","","","14","","9","","16.1","","100.84","","","","-11","","Mostly Cloudy"
"-68.21","48.61","MONT JOLI A","7055121","2018-11-25 05:00","2018","11","25","05:00","-6.3","","-8.9","","82","","","","15","","12","","16.1","","100.91","","","","-11","","NA"
"-68.21","48.61","MONT JOLI A","7055121","2018-11-25 06:00","2018","11","25","06:00","-6.1","","-8.9","","81","","","","11","","6","","16.1","","100.96","","","","-9","","NA"
"-68.21","48.61","MONT JOLI A","7055121","2018-11-25 07:00","2018","11","25","07:00","-6.3","","-8.6","","83","","","","11","","13","","16.1","","100.97","","","","-12","","Cloudy"
"-68.21","48.61","MONT JOLI A","7055121","2018-11-25 08:00","2018","11","25","08:00","-5.1","","-7.5","","83","","","","12","","14","","16.1","","100.97","","","","-10","","NA"
"-68.21","48.61","MONT JOLI A","7055121","2018-11-25 09:00","2018","11","25","09:00","-4.5","","-7.5","","80","","","","14","","13","","16.1","","100.94","","","","-10","","NA"
"-68.21","48.61","MONT JOLI A","7055121","2018-11-25 10:00","2018","11","25","10:00","-3.7","","-6.8","","79","","","","5","","9","","16.1","","100.94","","","","-7","","Cloudy"
"-68.21","48.61","MONT JOLI A","7055121","2018-11-25 11:00","2018","11","25","11:00","-2.9","","-5.9","","80","","","","6","","10","","16.1","","100.88","","","","-7","","NA"
"-68.21","48.61","MONT JOLI A","7055121","2018-11-25 12:00","2018","11","25","12:00","-1.0","","-4.2","","79","","","","6","","11","","16.1","","100.86","","","","-5","","NA"
"-68.21","48.61","MONT JOLI A","7055121","2018-11-25 13:00","2018","11","25","13:00","-1.0","","-4.0","","80","","","","6","","24","","16.1","","100.83","","","","-7","","Cloudy"
"-68.21","48.61","MONT JOLI A","7055121","2018-11-25 14:00","2018","11","25","14:00","-1.1","","-4.2","","80","","","","6","","25","","16.1","","100.86","","","","-7","","NA"
"-68.21","48.61","MONT JOLI A","7055121","2018-11-25 15:00","2018","11","25","15:00","-1.1","","-4.2","","80","","","","6","","22","","16.1","","100.90","","","","-7","","NA"
"-68.21","48.61","MONT JOLI A","7055121","2018-11-25 16:00","2018","11","25","16:00","-1.2","","-4.0","","81","","","","6","","13","","16.1","","101.01","","","","-5","","Cloudy"
"-68.21","48.61","MONT JOLI A","7055121","2018-11-25 17:00","2018","11","25","17:00","-1.2","","-3.6","","84","","","","6","","18","","48.3","","101.06","","","","-6","","NA"
"-68.21","48.61","MONT JOLI A","7055121","2018-11-25 18:00","2018","11","25","18:00","-1.3","","-3.8","","83","","","","6","","18","","48.3","","101.13","","","","-7","","NA"
"-68.21","48.61","MONT JOLI A","7055121","2018-11-25 19:00","2018","11","25","19:00","-1.4","","-3.9","","83","","","","7","","14","","24.1","","101.17","","","","-6","","Cloudy"
"-68.21","48.61","MONT JOLI A","7055121","2018-11-25 20:00","2018","11","25","20:00","-1.4","","-3.7","","84","","","","7","","14","","24.1","","101.17","","","","-6","","NA"
"-68.21","48.61","MONT JOLI A","7055121","2018-11-25 21:00","2018","11","25","21:00","-1.6","","-3.0","","90","","","","6","","16","","16.1","","101.13","","","","-7","","Snow"
"-68.21","48.61","MONT JOLI A","7055121","2018-11-25 22:00","2018","11","25","22:00","-2.1","","-3.0","","94","","","","7","","4","","16.1","","101.10","","","","-4","","Snow"
"-68.21","48.61","MONT JOLI A","7055121","2018-11-25 23:00","2018","11","25","23:00","-2.1","","-2.7","","95","","","","6","","14","","16.1","","101.10","","","","-7","","NA"
"-68.21","48.61","MONT JOLI A","7055121","2018-11-26 00:00","2018","11","26","00:00","-2.2","","-2.9","","95","","","","6","","12","","16.1","","101.13","","","","-6","","NA"
"-68.21","48.61","MONT JOLI A","7055121","2018-11-26 01:00","2018","11","26","01:00","-1.8","","-2.8","","93","","","","6","","12","","16.1","","101.14","","","","-6","","Cloudy"
"-68.21","48.61","MONT JOLI A","7055121","2018-11-26 02:00","2018","11","26","02:00","-1.8","","-3.5","","88","","","","6","","15","","16.1","","101.21","","","","-7","","NA"
"-68.21","48.61","MONT JOLI A","7055121","2018-11-26 03:00","2018","11","26","03:00","-1.9","","-3.4","","90","","","","9","","10","","16.1","","101.19","","","","-6","","Snow"
"-68.21","48.61","MONT JOLI A","7055121","2018-11-26 04:00","2018","11","26","04:00","-1.8","","-3.4","","89","","","","4","","5","","24.1","","101.24","","","","-4","","Cloudy"
"-68.21","48.61","MONT JOLI A","7055121","2018-11-26 05:00","2018","11","26","05:00","-2.0","","-3.9","","87","","","","8","","10","","24.1","","101.24","","","","-6","","NA"
"-68.21","48.61","MONT JOLI A","7055121","2018-11-26 06:00","2018","11","26","06:00","-2.9","","-4.5","","89","","","","7","","10","","24.1","","101.23","","","","-7","","NA"
"-68.21","48.61","MONT JOLI A","7055121","2018-11-26 07:00","2018","11","26","07:00","-2.9","","-4.5","","88","","","","7","","12","","24.1","","101.23","","","","-7","","Mostly Cloudy"
"-68.21","48.61","MONT JOLI A","7055121","2018-11-26 08:00","2018","11","26","08:00","-2.9","","-5.0","","85","","","","8","","9","","24.1","","101.27","","","","-6","","NA"
"-68.21","48.61","MONT JOLI A","7055121","2018-11-26 09:00","2018","11","26","09:00","-2.2","","-5.5","","79","","","","9","","13","","48.3","","101.27","","","","-7","","NA"
"-68.21","48.61","MONT JOLI A","7055121","2018-11-26 10:00","2018","11","26","10:00","-0.7","","-5.6","","69","","","","8","","14","","24.1","","101.26","","","","-5","","Mainly Clear"
"-68.21","48.61","MONT JOLI A","7055121","2018-11-26 11:00","2018","11","26","11:00","-0.1","","-5.5","","67","","","","6","","23","","48.3","","101.22","","","","-6","","NA"
"-68.21","48.61","MONT JOLI A","7055121","2018-11-26 12:00","2018","11","26","12:00","-0.5","","-3.4","","80","","","","6","","28","","48.3","","101.17","","","","-7","","NA"
"-68.21","48.61","MONT JOLI A","7055121","2018-11-26 13:00","2018","11","26","13:00","-0.5","","-3.2","","82","","","","6","","27","","48.3","","101.16","","","","-7","","Mainly Clear"
"-68.21","48.61","MONT JOLI A","7055121","2018-11-26 14:00","2018","11","26","14:00","-0.9","","-3.1","","85","","","","5","","22","","48.3","","101.14","","","","-7","","NA"
"-68.21","48.61","MONT JOLI A","7055121","2018-11-26 15:00","2018","11","26","15:00","-1.4","","-3.6","","85","","","","8","","13","","48.3","","101.20","","","","-6","","NA"
"-68.21","48.61","MONT JOLI A","7055121","2018-11-26 16:00","2018","11","26","16:00","-1.8","","-3.4","","89","","","","6","","22","","48.3","","101.16","","","","-8","","Mainly Clear"
"-68.21","48.61","MONT JOLI A","7055121","2018-11-26 17:00","2018","11","26","17:00","-2.6","","-3.6","","92","","","","6","","13","","24.1","","101.15","","","","-7","","NA"
"-68.21","48.61","MONT JOLI A","7055121","2018-11-26 18:00","2018","11","26","18:00","-1.1","","-2.5","","90","","","","7","","16","","24.1","","101.16","","","","-6","","NA"
"-68.21","48.61","MONT JOLI A","7055121","2018-11-26 19:00","2018","11","26","19:00","-0.8","","-2.2","","90","","","","7","","20","","24.1","","101.12","","","","-6","","Cloudy"
"-68.21","48.61","MONT JOLI A","7055121","2018-11-26 20:00","2018","11","26","20:00","-0.8","","-2.0","","91","","","","6","","22","","24.1","","101.07","","","","-7","","NA"
"-68.21","48.61","MONT JOLI A","7055121","2018-11-26 21:00","2018","11","26","21:00","-0.8","","-2.1","","91","","","","6","","12","","24.1","","101.08","","","","-5","","NA"
"-68.21","48.61","MONT JOLI A","7055121","2018-11-26 22:00","2018","11","26","22:00","-0.4","","-1.7","","91","","","","7","","21","","24.1","","101.01","","","","-6","","Cloudy"
"-68.21","48.61","MONT JOLI A","7055121","2018-11-26 23:00","2018","11","26","23:00","1.6","","-2.2","","76","","","","10","","21","","24.1","","100.97","","","","","","NA"
"-68.21","48.61","MONT JOLI A","7055121","2018-11-27 00:00","2018","11","27","00:00","1.8","","-2.5","","74","","","","10","","17","","24.1","","100.93","","","","","","NA"
"-68.21","48.61","MONT JOLI A","7055121","2018-11-27 01:00","2018","11","27","01:00","1.8","","-2.8","","71","","","","10","","23","","24.1","","100.89","","","","","","Cloudy"
"-68.21","48.61","MONT JOLI A","7055121","2018-11-27 02:00","2018","11","27","02:00","1.2","","-2.5","","76","","","","8","","18","","24.1","","100.86","","","","","","NA"
"-68.21","48.61","MONT JOLI A","7055121","2018-11-27 03:00","2018","11","27","03:00","0.2","","-2.5","","82","","","","6","","30","","24.1","","100.72","","","","","","NA"
"-68.21","48.61","MONT JOLI A","7055121","2018-11-27 04:00","2018","11","27","04:00","-0.2","","-2.7","","83","","","","6","","24","","48.3","","100.65","","","","-6","","Cloudy"
"-68.21","48.61","MONT JOLI A","7055121","2018-11-27 05:00","2018","11","27","05:00","-0.5","","-2.3","","87","","","","5","","20","","24.1","","100.61","","","","-6","","NA"
"-68.21","48.61","MONT JOLI A","7055121","2018-11-27 06:00","2018","11","27","06:00","-0.7","","-2.6","","87","","","","6","","19","","24.1","","100.58","","","","-6","","NA"
"-68.21","48.61","MONT JOLI A","7055121","2018-11-27 07:00","2018","11","27","07:00","-0.7","","-2.1","","91","","","","7","","26","","24.1","","100.55","","","","-7","","Cloudy"
"-68.21","48.61","MONT JOLI A","7055121","2018-11-27 08:00","2018","11","27","08:00","-0.3","","-2.4","","86","","","","7","","23","","24.1","","100.51","","","","-6","","NA"
"-68.21","48.61","MONT JOLI A","7055121","2018-11-27 09:00","2018","11","27","09:00","0.5","","-2.2","","82","","","","5","","26","","24.1","","100.43","","","","","","NA"
"-68.21","48.61","MONT JOLI A","7055121","2018-11-27 10:00","2018","11","27","10:00","0.6","","-1.9","","83","","","","6","","26","","24.1","","100.36","","","","","","Mostly Cloudy"
"-68.21","48.61","MONT JOLI A","7055121","2018-11-27 11:00","2018","11","27","11:00","0.7","","-1.4","","86","","","","6","","29","","24.1","","100.26","","","","","","NA"
"-68.21","48.61","MONT JOLI A","7055121","2018-11-27 12:00","2018","11","27","12:00","0.3","","-1.0","","91","","","","6","","34","","16.1","","100.18","","","","","","NA"
"-68.21","48.61","MONT JOLI A","7055121","2018-11-27 13:00","2018","11","27","13:00","0.1","","-1.0","","93","","","","6","","37","","9.7","","100.13","","","","","","Snow"
"-68.21","48.61","MONT JOLI A","7055121","2018-11-27 14:00","2018","11","27","14:00","-0.1","","-1.1","","93","","","","6","","43","","4.8","","100.07","","","","-8","","Snow"
"-68.21","48.61","MONT JOLI A","7055121","2018-11-27 15:00","2018","11","27","15:00","-0.2","","-0.9","","95","","","","6","","39","","1.2","","100.03","","","","-8","","Snow"
"-68.21","48.61","MONT JOLI A","7055121","2018-11-27 16:00","2018","11","27","16:00","-0.1","","-0.7","","96","","","","5","","41","","1.2","","99.94","","","","-8","","Snow,Blowing Snow"
"-68.21","48.61","MONT JOLI A","7055121","2018-11-27 17:00","2018","11","27","17:00","-0.1","","-0.7","","96","","","","6","","40","","2.4","","99.87","","","","-8","","Snow,Blowing Snow"
"-68.21","48.61","MONT JOLI A","7055121","2018-11-27 18:00","2018","11","27","18:00","0.0","","-0.7","","95","","","","5","","46","","2.8","","99.80","","","","-8","","Snow,Blowing Snow"
"-68.21","48.61","MONT JOLI A","7055121","2018-11-27 19:00","2018","11","27","19:00","0.1","","-0.7","","95","","","","6","","50","","4.0","","99.72","","","","","","Snow,Blowing Snow"
"-68.21","48.61","MONT JOLI A","7055121","2018-11-27 20:00","2018","11","27","20:00","0.1","","-0.7","","95","","","","6","","57","","4.8","","99.65","","","","","","Snow,Blowing Snow"
"-68.21","48.61","MONT JOLI A","7055121","2018-11-27 21:00","2018","11","27","21:00","0.1","","-0.8","","94","","","","6","","56","","4.8","","99.58","","","","","","Snow,Blowing Snow"
"-68.21","48.61","MONT JOLI A","7055121","2018-11-27 22:00","2018","11","27","22:00","0.1","","-0.7","","95","","","","6","","49","","1.6","","99.50","","","","","","Snow,Blowing Snow"
"-68.21","48.61","MONT JOLI A","7055121","2018-11-27 23:00","2018","11","27","23:00","0.1","","-0.6","","95","","","","6","","54","","4.8","","99.42","","","","","","Snow,Blowing Snow"
"-68.21","48.61","MONT JOLI A","7055121","2018-11-28 00:00","2018","11","28","00:00","0.3","","-0.6","","94","","","","6","","55","","12.9","","99.34","","","","","","Snow"
"-68.21","48.61","MONT JOLI A","7055121","2018-11-28 01:00","2018","11","28","01:00","0.3","","-0.5","","94","","","","6","","50","","3.2","","99.31","","","","","","Snow,Blowing Snow"
"-68.21","48.61","MONT JOLI A","7055121","2018-11-28 02:00","2018","11","28","02:00","0.4","","-0.4","","95","","","","6","","55","","3.2","","99.29","","","","","","Snow,Blowing Snow"
"-68.21","48.61","MONT JOLI A","7055121","2018-11-28 03:00","2018","11","28","03:00","0.5","","-0.4","","94","","","","6","","54","","3.2","","99.23","","","","","","Snow,Blowing Snow"
"-68.21","48.61","MONT JOLI A","7055121","2018-11-28 04:00","2018","11","28","04:00","0.6","","-0.5","","92","","","","6","","49","","4.0","","99.24","","","","","","Snow,Blowing Snow"
"-68.21","48.61","MONT JOLI A","7055121","2018-11-28 05:00","2018","11","28","05:00","0.5","","-0.5","","93","","","","6","","52","","8.1","","99.21","","","","","","Snow"
"-68.21","48.61","MONT JOLI A","7055121","2018-11-28 06:00","2018","11","28","06:00","0.6","","-0.4","","93","","","","6","","49","","8.1","","99.20","","","","","","Snow"
"-68.21","48.61","MONT JOLI A","7055121","2018-11-28 07:00","2018","11","28","07:00","0.6","","-0.4","","93","","","","6","","39","","8.1","","99.20","","","","","","Snow"
"-68.21","48.61","MONT JOLI A","7055121","2018-11-28 08:00","2018","11","28","08:00","0.4","","-0.5","","93","","","","5","","42","","3.2","","99.27","","","","","","Snow"
"-68.21","48.61","MONT JOLI A","7055121","2018-11-28 09:00","2018","11","28","09:00","0.5","","-0.7","","92","","","","6","","40","","4.8","","99.27","","","","","","Snow"
"-68.21","48.61","MONT JOLI A","7055121","2018-11-28 10:00","2018","11","28","10:00","0.5","","-0.9","","91","","","","6","","46","","6.4","","99.28","","","","","","Snow"
"-68.21","48.61","MONT JOLI A","7055121","2018-11-28 11:00","2018","11","28","11:00","0.3","","-1.0","","91","","","","6","","46","","9.7","","99.26","","","","","","Snow"
"-68.21","48.61","MONT JOLI A","7055121","2018-11-28 12:00","2018","11","28","12:00","0.1","","-1.2","","90","","","","6","","50","","9.7","","99.27","","","","","","Snow"
"-68.21","48.61","MONT JOLI A","7055121","2018-11-28 13:00","2018","11","28","13:00","0.0","","-1.3","","91","","","","6","","45","","4.8","","99.28","","","","-8","","Snow"
"-68.21","48.61","MONT JOLI A","7055121","2018-11-28 14:00","2018","11","28","14:00","0.0","","-1.4","","90","","","","5","","43","","4.0","","99.28","","","","-8","","Snow"
"-68.21","48.61","MONT JOLI A","7055121","2018-11-28 15:00","2018","11","28","15:00","0.0","","-1.7","","89","","","","6","","50","","9.7","","99.35","","","","-8","","Snow"
"-68.21","48.61","MONT JOLI A","7055121","2018-11-28 16:00","2018","11","28","16:00","-0.1","","-1.7","","89","","","","6","","54","","16.1","","99.35","","","","-9","","Snow"
"-68.21","48.61","MONT JOLI A","7055121","2018-11-28 17:00","2018","11","28","17:00","-0.2","","-2.0","","88","","","","6","","43","","16.1","","99.43","","","","-8","","Snow"
"-68.21","48.61","MONT JOLI A","7055121","2018-11-28 18:00","2018","11","28","18:00","-0.4","","-1.6","","92","","","","5","","43","","6.4","","99.52","","","","-8","","Snow"
"-68.21","48.61","MONT JOLI A","7055121","2018-11-28 19:00","2018","11","28","19:00","-0.5","","-1.7","","92","","","","5","","40","","3.2","","99.54","","","","-8","","Snow"
"-68.21","48.61","MONT JOLI A","7055121","2018-11-28 20:00","2018","11","28","20:00","-0.5","","-1.6","","92","","","","5","","40","","3.2","","99.56","","","","-8","","Snow"
"-68.21","48.61","MONT JOLI A","7055121","2018-11-28 21:00","2018","11","28","21:00","-0.4","","-1.5","","92","","","","5","","45","","2.0","","99.56","","","","-8","","Snow,Blowing Snow"
"-68.21","48.61","MONT JOLI A","7055121","2018-11-28 22:00","2018","11","28","22:00","-0.6","","-1.8","","92","","","","5","","47","","3.2","","99.60","","","","-9","","Snow,Blowing Snow"
"-68.21","48.61","MONT JOLI A","7055121","2018-11-28 23:00","2018","11","28","23:00","-0.6","","-1.5","","94","","","","6","","39","","3.2","","99.57","","","","-8","","Snow,Blowing Snow"
"-68.21","48.61","MONT JOLI A","7055121","2018-11-29 00:00","2018","11","29","00:00","-0.4","","-1.6","","92","","","","5","","39","","3.2","","99.60","","","","-8","","Snow,Blowing Snow"
"-68.21","48.61","MONT JOLI A","7055121","2018-11-29 01:00","2018","11","29","01:00","-0.5","","-1.7","","92","","","","5","","30","","4.8","","99.59","","","","-7","","Snow"
"-68.21","48.61","MONT JOLI A","7055121","2018-11-29 02:00","2018","11","29","02:00","-0.3","","-1.6","","90","","","","1","","35","","48.3","","99.64","","","","-7","","Snow"
"-68.21","48.61","MONT JOLI A","7055121","2018-11-29 03:00","2018","11","29","03:00","0.0","","-2.2","","85","","","","2","","29","","48.3","","99.67","","","","-6","","Snow"
"-68.21","48.61","MONT JOLI A","7055121","2018-11-29 04:00","2018","11","29","04:00","-0.2","","-2.2","","87","","","","36","","28","","48.3","","99.71","","","","-7","","Cloudy"
"-68.21","48.61","MONT JOLI A","7055121","2018-11-29 05:00","2018","11","29","05:00","-0.4","","-2.6","","85","","","","35","","30","","48.3","","99.72","","","","-7","","NA"
"-68.21","48.61","MONT JOLI A","7055121","2018-11-29 06:00","2018","11","29","06:00","-0.4","","-2.7","","84","","","","36","","26","","48.3","","99.76","","","","-7","","NA"
"-68.21","48.61","MONT JOLI A","7055121","2018-11-29 07:00","2018","11","29","07:00","-0.4","","-3.2","","81","","","","36","","26","","48.3","","99.80","","","","-7","","Mostly Cloudy"
"-68.21","48.61","MONT JOLI A","7055121","2018-11-29 08:00","2018","11","29","08:00","-0.6","","-4.2","","77","","","","36","","29","","48.3","","99.85","","","","-7","","NA"
"-68.21","48.61","MONT JOLI A","7055121","2018-11-29 09:00","2018","11","29","09:00","-0.6","","-4.1","","77","","","","36","","30","","48.3","","99.92","","","","-7","","NA"
"-68.21","48.61","MONT JOLI A","7055121","2018-11-29 10:00","2018","11","29","10:00","-0.2","","-4.2","","74","","","","36","","25","","48.3","","99.96","","","","-6","","Mostly Cloudy"
"-68.21","48.61","MONT JOLI A","7055121","2018-11-29 11:00","2018","11","29","11:00","-0.3","","-4.6","","73","","","","1","","29","","48.3","","99.97","","","","-7","","NA"
"-68.21","48.61","MONT JOLI A","7055121","2018-11-29 12:00","2018","11","29","12:00","-0.3","","-4.6","","73","","","","1","","25","","48.3","","100.02","","","","-6","","NA"
"-68.21","48.61","MONT JOLI A","7055121","2018-11-29 13:00","2018","11","29","13:00","-0.6","","-4.7","","74","","","","36","","28","","48.3","","100.03","","","","-7","","Mostly Cloudy"
"-68.21","48.61","MONT JOLI A","7055121","2018-11-29 14:00","2018","11","29","14:00","-0.7","","-4.9","","73","","","","36","","26","","48.3","","100.06","","","","-7","","NA"
"-68.21","48.61","MONT JOLI A","7055121","2018-11-29 15:00","2018","11","29","15:00","-0.7","","-4.6","","75","","","","35","","23","","48.3","","100.16","","","","-7","","NA"
"-68.21","48.61","MONT JOLI A","7055121","2018-11-29 16:00","2018","11","29","16:00","-1.2","","-4.0","","81","","","","34","","13","","48.3","","100.25","","","","-5","","Mostly Cloudy"
"-68.21","48.61","MONT JOLI A","7055121","2018-11-29 17:00","2018","11","29","17:00","-1.3","","-4.0","","81","","","","34","","15","","48.3","","100.31","","","","-6","","NA"
"-68.21","48.61","MONT JOLI A","7055121","2018-11-29 18:00","2018","11","29","18:00","-1.3","","-4.3","","80","","","","34","","17","","48.3","","100.29","","","","-6","","NA"
"-68.21","48.61","MONT JOLI A","7055121","2018-11-29 19:00","2018","11","29","19:00","-1.6","","-4.7","","79","","","","36","","15","","48.3","","100.35","","","","-6","","Clear"
"-68.21","48.61","MONT JOLI A","7055121","2018-11-29 20:00","2018","11","29","20:00","-1.6","","-5.0","","78","","","","1","","15","","48.3","","100.39","","","","-6","","NA"
"-68.21","48.61","MONT JOLI A","7055121","2018-11-29 21:00","2018","11","29","21:00","-1.9","","-4.5","","83","","","","36","","13","","48.3","","100.42","","","","-6","","NA"
"-68.21","48.61","MONT JOLI A","7055121","2018-11-29 22:00","2018","11","29","22:00","-4.8","","-6.4","","89","","","","3","","5","","48.3","","100.45","","","","-7","","Mainly Clear"
"-68.21","48.61","MONT JOLI A","7055121","2018-11-29 23:00","2018","11","29","23:00","-5.6","","-7.2","","88","","","","1","","7","","48.3","","100.47","","","","-9","","NA"
"-68.21","48.61","MONT JOLI A","7055121","2018-11-30 00:00","2018","11","30","00:00","-7.6","","-8.9","","90","","","","21","","3","","48.3","","100.52","","","","-9","","NA"
"-68.21","48.61","MONT JOLI A","7055121","2018-11-30 01:00","2018","11","30","01:00","-7.5","","-8.7","","91","","","","21","","3","","48.3","","100.56","","","","-9","","Clear"
"-68.21","48.61","MONT JOLI A","7055121","2018-11-30 02:00","2018","11","30","02:00","-7.2","","-8.4","","91","","","","21","","8","","48.3","","100.65","","","","-11","","NA"
"-68.21","48.61","MONT JOLI A","7055121","2018-11-30 03:00","2018","11","30","03:00","-6.9","","-7.9","","93","","","","21","","11","","48.3","","100.69","","","","-12","","NA"
"-68.21","48.61","MONT JOLI A","7055121","2018-11-30 04:00","2018","11","30","04:00","-4.9","","-6.5","","89","","","","21","","14","","48.3","","100.75","","","","-10","","Clear"
"-68.21","48.61","MONT JOLI A","7055121","2018-11-30 05:00","2018","11","30","05:00","-5.0","","-6.6","","89","","","","21","","16","","48.3","","100.79","","","","-11","","NA"
"-68.21","48.61","MONT JOLI A","7055121","2018-11-30 06:00","2018","11","30","06:00","-4.9","","-6.7","","87","","","","20","","14","","48.3","","100.83","","","","-10","","NA"
"-68.21","48.61","MONT JOLI A","7055121","2018-11-30 07:00","2018","11","30","07:00","-5.0","","-7.0","","86","","","","21","","13","","48.3","","100.87","","","","-10","","Mostly Cloudy"
"-68.21","48.61","MONT JOLI A","7055121","2018-11-30 08:00","2018","11","30","08:00","-5.0","","-6.9","","86","","","","21","","14","","48.3","","100.91","","","","-10","","NA"
"-68.21","48.61","MONT JOLI A","7055121","2018-11-30 09:00","2018","11","30","09:00","-4.0","","-6.4","","84","","","","21","","13","","48.3","","100.94","","","","-9","","NA"
"-68.21","48.61","MONT JOLI A","7055121","2018-11-30 10:00","2018","11","30","10:00","-3.2","","-5.8","","83","","","","22","","9","","48.3","","100.94","","","","-7","","Mostly Cloudy"
"-68.21","48.61","MONT JOLI A","7055121","2018-11-30 11:00","2018","11","30","11:00","-3.0","","-5.4","","84","","","","24","","11","","48.3","","100.92","","","","-7","","NA"
"-68.21","48.61","MONT JOLI A","7055121","2018-11-30 12:00","2018","11","30","12:00","-3.0","","-5.5","","83","","","","22","","9","","48.3","","100.92","","","","-7","","NA"
"-68.21","48.61","MONT JOLI A","7055121","2018-11-30 13:00","2018","11","30","13:00","-3.0","","-5.4","","83","","","","22","","13","","48.3","","100.93","","","","-8","","Mostly Cloudy"
"-68.21","48.61","MONT JOLI A","7055121","2018-11-30 14:00","2018","11","30","14:00","-2.9","","-5.5","","82","","","","22","","17","","48.3","","100.94","","","","-8","","NA"
"-68.21","48.61","MONT JOLI A","7055121","2018-11-30 15:00","2018","11","30","15:00","-2.9","","-5.7","","81","","","","22","","8","","48.3","","100.97","","","","-6","","NA"
"-68.21","48.61","MONT JOLI A","7055121","2018-11-30 16:00","2018","11","30","16:00","-3.5","","-6.1","","82","","","","22","","10","","48.3","","101.00","","","","-7","","Mostly Cloudy"
"-68.21","48.61","MONT JOLI A","7055121","2018-11-30 17:00","2018","11","30","17:00","-4.2","","-6.5","","84","","","","21","","11","","48.3","","101.04","","","","-9","","NA"
"-68.21","48.61","MONT JOLI A","7055121","2018-11-30 18:00","2018","11","30","18:00","-4.8","","-6.8","","86","","","","22","","13","","48.3","","101.03","","","","-10","","NA"
"-68.21","48.61","MONT JOLI A","7055121","2018-11-30 19:00","2018","11","30","19:00","-5.0","","-6.8","","87","","","","21","","12","","48.3","","101.04","","","","-10","","Mainly Clear"
"-68.21","48.61","MONT JOLI A","7055121","2018-11-30 20:00","2018","11","30","20:00","-4.9","","-6.7","","87","","","","21","","12","","48.3","","101.04","","","","-10","","NA"
"-68.21","48.61","MONT JOLI A","7055121","2018-11-30 21:00","2018","11","30","21:00","-4.6","","-6.5","","86","","","","21","","15","","48.3","","101.06","","","","-10","","NA"
"-68.21","48.61","MONT JOLI A","7055121","2018-11-30 22:00","2018","11","30","22:00","-4.8","","-6.9","","85","","","","21","","15","","48.3","","101.10","","","","-10","","Mostly Cloudy"
"-68.21","48.61","MONT JOLI A","7055121","2018-11-30 23:00","2018","11","30","23:00","-5.0","","-7.2","","85","","","","20","","18","","48.3","","101.11","","","","-11","","NA"
