"Longitude (x)","Latitude (y)","Station Name","Climate ID","Date/Time (LST)","Year","Month","Day","Time (LST)","Temp (°C)","Temp Flag","Dew Point Temp (°C)","Dew Point Temp Flag","Rel Hum (%)","Rel Hum Flag","Precip. Amount (mm)","Precip. Amount Flag","Wind Dir (10s deg)","Wind Dir Flag","Wind Spd (km/h)","Wind Spd Flag","Visibility (km)","Visibility Flag","Stn Press (kPa)","Stn Press Flag","Hmdx","Hmdx Flag","Wind Chill","Wind Chill Flag","Weather"
"-97.24","49.91","WINNIPEG INTL A","5023227","2023-04-01 00:00","2023","04","01","00:00","-10.2","","-15.1","","68","","","","33","","4","","24.1","","98.58","","","","-13","","Clear"
"-97.24","49.91","WINNIPEG INTL A","5023227","2023-04-01 01:00","2023","04","01","01:00","-8.9","","-13.8","","68","","","","11","","8","","24.1","","98.60","","","","-13","","NA"
"-97.24","49.91","WINNIPEG INTL A","5023227","2023-04-01 02:00","2023","04","01","02:00","-12.4","","-15.7","","76","","","","34","","5","","24.1","","98.59","","","","-16","","NA"
"-97.24","49.91","WINNIPEG INTL A","5023227","2023-04-01 03:00","2023","04","01","03:00","-12.6","","-16.1","","75","","","","31","","6","","24.1","","98.57","","","","-17","","Clear"
"-97.24","49.91","WINNIPEG INTL A","5023227","2023-04-01 04:00","2023","04","01","04:00","-14.8","","-17.0","","84","","","","30","","4","","24.1","","98.57","","","","-18","","NA"
"-97.24","49.91","WINNIPEG INTL A","5023227","2023-04-01 05:00","2023","04","01","05:00","-14.8","","-17.0","","84","","","","28","","4","","24.1","","98.57","","","","-18","","NA"
"-97.24","49.91","WINNIPEG INTL A","5023227","2023-04-01 06:00","2023","04","01","06:00","-14.8","","-17.4","","81","","","","27","","7","","24.1","","98.59","","","","-20","","Mainly Clear"
"-97.24","49.91","WINNIPEG INTL A","5023227","2023-04-01 07:00","2023","04","01","07:00","-13.8","","-16.0","","84","","","","26","","10","","24.1","","98.64","","","","-20","","NA"
"-97.24","49.91","WINNIPEG INTL A","5023227","2023-04-01 08:00","2023","04","01","08:00","-8.2","","-12.2","","73","","","","14","","7","","24.1","","98.64","","","","-12","","NA"
"-97.24","49.91","WINNIPEG INTL A","5023227","2023-04-01 09:00","2023","04","01","09:00","-3.5","","-11.8","","53","","","","18","","12","","24.1","","98.58","","","","-8","","Mainly Clear"
"-97.24","49.91","WINNIPEG INTL A","5023227","2023-04-01 10:00","2023","04","01","10:00","-2.0","","-12.2","","46","","","","19","","25","","24.1","","98.59","","","","-8","","NA"
"-97.24","49.91","WINNIPEG INTL A","5023227","2023-04-01 11:00","2023","04","01","11:00","-2.7","","-12.3","","48","","","","18","","29","","24.1","","98.54","","","","-10","","NA"
"-97.24","49.91","WINNIPEG INTL A","5023227","2023-04-01 12:00","2023","04","01","12:00","-2.2","","-10.8","","52","","","","18","","31","","24.1","","98.49","","","","-9","","Mainly Clear"
"-97.24","49.91","WINNIPEG INTL A","5023227","2023-04-01 13:00","2023","04","01","13:00","-1.5","","-9.8","","53","","","","18","","26","","24.1","","98.45","","","","-8","","NA"
"-97.24","49.91","WINNIPEG INTL A","5023227","2023-04-01 14:00","2023","04","01","14:00","-0.8","","-8.0","","58","","","","19","","25","","24.1","","98.38","","","","-7","","NA"
"-97.24","49.91","WINNIPEG INTL A","5023227","2023-04-01 15:00","2023","04","01","15:00","-1.5","","-8.4","","60","","","","18","","34","","24.1","","98.26","","","","-9","","Mostly Cloudy"
"-97.24","49.91","WINNIPEG INTL A","5023227","2023-04-01 16:00","2023","04","01","16:00","-0.6","","-8.2","","57","","","","17","","43","","24.1","","98.19","","","","-8","","NA"
"-97.24","49.91","WINNIPEG INTL A","5023227","2023-04-01 17:00","2023","04","01","17:00","-1.5","","-9.0","","57","","","","18","","40","","24.1","","98.14","","","","-9","","NA"
"-97.24","49.91","WINNIPEG INTL A","5023227","2023-04-01 18:00","2023","04","01","18:00","-1.5","","-8.3","","60","","","","16","","32","","24.1","","98.03","","","","-9","","Mostly Cloudy"
"-97.24","49.91","WINNIPEG INTL A","5023227","2023-04-01 19:00","2023","04","01","19:00","-1.9","","-8.6","","61","","","","17","","32","","24.1","","97.99","","","","-9","","NA"
"-97.24","49.91","WINNIPEG INTL A","5023227","2023-04-01 20:00","2023","04","01","20:00","-2.9","","-8.3","","66","","","","18","","27","","24.1","","97.93","","","","-10","","NA"
"-97.24","49.91","WINNIPEG INTL A","5023227","2023-04-01 21:00","2023","04","01","21:00","-3.0","","-7.5","","71","","","","17","","38","","24.1","","97.86","","","","-11","","Mostly Cloudy"
"-97.24","49.91","WINNIPEG INTL A","5023227","2023-04-01 22:00","2023","04","01","22:00","-3.5","","-7.7","","73","","","","18","","34","","24.1","","97.80","","","","-11","","NA"
"-97.24","49.91","WINNIPEG INTL A","5023227","2023-04-01 23:00","2023","04","01","23:00","-4.4","","-7.9","","77","","","","18","","28","","24.1","","97.76","","","","-12","","NA"
"-97.24","49.91","WINNIPEG INTL A","5023227","2023-04-02 00:00","2023","04","02","00:00","-5.0","","-8.1","","79","","","","18","","29","","24.1","","97.67","","","","-13","","Mainly Clear"
"-97.24","49.91","WINNIPEG INTL A","5023227","2023-04-02 01:00","2023","04","02","01:00","-5.2","","-8.4","","79","","","","18","","28","","24.1","","97.64","","","","-13","","NA"
"-97.24","49.91","WINNIPEG INTL A","5023227","2023-04-02 02:00","2023","04","02","02:00","-5.3","","-8.2","","80","","","","18","","28","","24.1","","97.56","","","","-13","","NA"
"-97.24","49.91","WINNIPEG INTL A","5023227","2023-04-02 03:00","2023","04","02","03:00","-5.2","","-7.8","","82","","","","18","","24","","24.1","","97.49","","","","-12","","Mostly Cloudy"
"-97.24","49.91","WINNIPEG INTL A","5023227","2023-04-02 04:00","2023","04","02","04:00","-5.7","","-8.0","","84","","","","17","","21","","24.1","","97.40","","","","-13","","NA"
"-97.24","49.91","WINNIPEG INTL A","5023227","2023-04-02 05:00","2023","04","02","05:00","-6.1","","-8.3","","85","","","","17","","19","","24.1","","97.35","","","","-13","","NA"
"-97.24","49.91","WINNIPEG INTL A","5023227","2023-04-02 06:00","2023","04","02","06:00","-6.0","","-8.4","","83","","","","16","","17","","24.1","","97.28","","","","-12","","Mostly Cloudy"
"-97.24","49.91","WINNIPEG INTL A","5023227","2023-04-02 07:00","2023","04","02","07:00","-4.7","","-7.5","","81","","","","16","","15","","24.1","","97.24","","","","-10","","NA"
"-97.24","49.91","WINNIPEG INTL A","5023227","2023-04-02 08:00","2023","04","02","08:00","-3.8","","-7.2","","78","","","","13","","15","","22.5","","97.21","","","","-9","","NA"
"-97.24","49.91","WINNIPEG INTL A","5023227","2023-04-02 09:00","2023","04","02","09:00","-2.6","","-6.4","","75","","","","14","","16","","24.1","","97.16","","","","-8","","Cloudy"
"-97.24","49.91","WINNIPEG INTL A","5023227","2023-04-02 10:00","2023","04","02","10:00","-1.2","","-5.7","","71","","","","15","","16","","24.1","","97.10","","","","-6","","NA"
"-97.24","49.91","WINNIPEG INTL A","5023227","2023-04-02 11:00","2023","04","02","11:00","-0.4","","-5.5","","68","","","","12","","14","","24.1","","97.02","","","","-5","","NA"
"-97.24","49.91","WINNIPEG INTL A","5023227","2023-04-02 12:00","2023","04","02","12:00","0.6","","-4.6","","68","","","","10","","18","","24.1","","96.98","","","","","","Mostly Cloudy"
"-97.24","49.91","WINNIPEG INTL A","5023227","2023-04-02 13:00","2023","04","02","13:00","1.4","","-4.3","","66","","","","10","","24","","24.1","","96.95","","","","","","NA"
"-97.24","49.91","WINNIPEG INTL A","5023227","2023-04-02 14:00","2023","04","02","14:00","1.9","","-4.2","","64","","","","10","","18","","24.1","","96.92","","","","","","NA"
"-97.24","49.91","WINNIPEG INTL A","5023227","2023-04-02 15:00","2023","04","02","15:00","2.5","","-4.2","","62","","","","6","","24","","24.1","","96.86","","","","","","Cloudy"
"-97.24","49.91","WINNIPEG INTL A","5023227","2023-04-02 16:00","2023","04","02","16:00","2.7","","-3.8","","62","","","","6","","27","","24.1","","96.77","","","","","","NA"
"-97.24","49.91","WINNIPEG INTL A","5023227","2023-04-02 17:00","2023","04","02","17:00","1.3","","-1.5","","82","","","","4","","28","","24.1","","96.81","","","","","","NA"
"-97.24","49.91","WINNIPEG INTL A","5023227","2023-04-02 18:00","2023","04","02","18:00","2.1","","-2.5","","72","","","","6","","34","","19.3","","96.89","","","","","","Cloudy"
"-97.24","49.91","WINNIPEG INTL A","5023227","2023-04-02 19:00","2023","04","02","19:00","0.7","","-0.4","","92","","","","6","","27","","3.2","","96.95","","","","","","Rain Showers,Snow Showers"
"-97.24","49.91","WINNIPEG INTL A","5023227","2023-04-02 20:00","2023","04","02","20:00","0.3","","-0.1","","97","","","","4","","28","","6.4","","97.01","","","","","","Rain,Snow Showers"
"-97.24","49.91","WINNIPEG INTL A","5023227","2023-04-02 21:00","2023","04","02","21:00","0.2","","-0.1","","98","","","","3","","27","","9.7","","97.08","","","","","","Rain,Snow Showers"
"-97.24","49.91","WINNIPEG INTL A","5023227","2023-04-02 22:00","2023","04","02","22:00","-0.6","","-1.0","","97","","","","3","","35","","14.5","","97.16","","","","-8","","Snow"
"-97.24","49.91","WINNIPEG INTL A","5023227","2023-04-02 23:00","2023","04","02","23:00","-1.5","","-2.2","","95","","","","2","","38","","12.9","","97.23","","","","-9","","Snow"
"-97.24","49.91","WINNIPEG INTL A","5023227","2023-04-03 00:00","2023","04","03","00:00","-2.6","","-3.4","","94","","","","2","","41","","16.1","","97.36","","","","-11","","Snow,Blowing Snow"
"-97.24","49.91","WINNIPEG INTL A","5023227","2023-04-03 01:00","2023","04","03","01:00","-3.7","","-4.6","","93","","","","2","","39","","24.1","","97.48","","","","-12","","Snow"
"-97.24","49.91","WINNIPEG INTL A","5023227","2023-04-03 02:00","2023","04","03","02:00","-4.9","","-6.7","","88","","","","3","","45","","24.1","","97.60","","","","-14","","Snow"
"-97.24","49.91","WINNIPEG INTL A","5023227","2023-04-03 03:00","2023","04","03","03:00","-5.9","","-7.3","","90","","","","2","","46","","24.1","","97.72","","","","-16","","Cloudy"
"-97.24","49.91","WINNIPEG INTL A","5023227","2023-04-03 04:00","2023","04","03","04:00","-7.0","","-8.8","","87","","","","2","","43","","24.1","","97.86","","","","-17","","Snow"
"-97.24","49.91","WINNIPEG INTL A","5023227","2023-04-03 05:00","2023","04","03","05:00","-7.6","","-10.2","","82","","","","2","","37","","24.1","","98.01","","","","-17","","NA"
"-97.24","49.91","WINNIPEG INTL A","5023227","2023-04-03 06:00","2023","04","03","06:00","-9.0","","-12.4","","76","","","","2","","37","","24.1","","98.13","","","","-19","","Mostly Cloudy"
"-97.24","49.91","WINNIPEG INTL A","5023227","2023-04-03 07:00","2023","04","03","07:00","-10.3","","-13.8","","76","","","","2","","32","","24.1","","98.21","","","","-20","","NA"
"-97.24","49.91","WINNIPEG INTL A","5023227","2023-04-03 08:00","2023","04","03","08:00","-10.6","","-14.3","","74","","","","2","","33","","24.1","","98.30","","","","-21","","NA"
"-97.24","49.91","WINNIPEG INTL A","5023227","2023-04-03 09:00","2023","04","03","09:00","-10.4","","-14.4","","72","","","","2","","32","","24.1","","98.40","","","","-20","","Mainly Clear"
"-97.24","49.91","WINNIPEG INTL A","5023227","2023-04-03 10:00","2023","04","03","10:00","-10.3","","-14.2","","74","","","","2","","32","","24.1","","98.52","","","","-20","","NA"
"-97.24","49.91","WINNIPEG INTL A","5023227","2023-04-03 11:00","2023","04","03","11:00","-10.0","","-13.8","","74","","","","1","","30","","24.1","","98.63","","","","-20","","NA"
"-97.24","49.91","WINNIPEG INTL A","5023227","2023-04-03 12:00","2023","04","03","12:00","-9.6","","-13.5","","73","","","","1","","32","","24.1","","98.63","","","","-19","","Mostly Cloudy"
"-97.24","49.91","WINNIPEG INTL A","5023227","2023-04-03 13:00","2023","04","03","13:00","-8.4","","-12.3","","73","","","","2","","26","","24.1","","98.69","","","","-17","","NA"
"-97.24","49.91","WINNIPEG INTL A","5023227","2023-04-03 14:00","2023","04","03","14:00","-7.2","","-11.7","","71","","","","1","","26","","24.1","","98.69","","","","-15","","NA"
"-97.24","49.91","WINNIPEG INTL A","5023227","2023-04-03 15:00","2023","04","03","15:00","-5.9","","-11.3","","66","","","","3","","26","","24.1","","98.69","","","","-14","","Mostly Cloudy"
"-97.24","49.91","WINNIPEG INTL A","5023227","2023-04-03 16:00","2023","04","03","16:00","-5.0","","-10.9","","63","","","","2","","27","","24.1","","98.72","","","","-13","","NA"
"-97.24","49.91","WINNIPEG INTL A","5023227","2023-04-03 17:00","2023","04","03","17:00","-4.5","","-10.3","","64","","","","2","","22","","24.1","","98.76","","","","-11","","NA"
"-97.24","49.91","WINNIPEG INTL A","5023227","2023-04-03 18:00","2023","04","03","18:00","-4.7","","-10.5","","64","","","","1","","21","","24.1","","98.80","","","","-11","","Mostly Cloudy"
"-97.24","49.91","WINNIPEG INTL A","5023227","2023-04-03 19:00","2023","04","03","19:00","-5.5","","-11.6","","62","","","","1","","25","","24.1","","98.84","","","","-13","","NA"
"-97.24","49.91","WINNIPEG INTL A","5023227","2023-04-03 20:00","2023","04","03","20:00","-6.6","","-12.3","","64","","","","1","","21","","24.1","","98.95","","","","-14","","NA"
"-97.24","49.91","WINNIPEG INTL A","5023227","2023-04-03 21:00","2023","04","03","21:00","-7.3","","-12.7","","66","","","","2","","21","","24.1","","99.01","","","","-15","","Mostly Cloudy"
"-97.24","49.91","WINNIPEG INTL A","5023227","2023-04-03 22:00","2023","04","03","22:00","-7.4","","-12.4","","68","","","","3","","20","","24.1","","99.07","","","","-15","","NA"
"-97.24","49.91","WINNIPEG INTL A","5023227","2023-04-03 23:00","2023","04","03","23:00","-7.5","","-11.7","","72","","","","3","","14","","24.1","","99.04","","","","-13","","NA"
"-97.24","49.91","WINNIPEG INTL A","5023227","2023-04-04 00:00","2023","04","04","00:00","-7.5","","-11.8","","72","","","","3","","15","","24.1","","99.06","","","","-14","","Cloudy"
"-97.24","49.91","WINNIPEG INTL A","5023227","2023-04-04 01:00","2023","04","04","01:00","-8.1","","-12.2","","72","","","","4","","15","","22.5","","99.04","","","","-14","","NA"
"-97.24","49.91","WINNIPEG INTL A","5023227","2023-04-04 02:00","2023","04","04","02:00","-8.0","","-11.9","","73","","","","3","","14","","24.1","","99.01","","","","-14","","NA"
"-97.24","49.91","WINNIPEG INTL A","5023227","2023-04-04 03:00","2023","04","04","03:00","-8.8","","-12.9","","72","","","","3","","17","","24.1","","99.00","","","","-16","","Cloudy"
"-97.24","49.91","WINNIPEG INTL A","5023227","2023-04-04 04:00","2023","04","04","04:00","-9.2","","-12.7","","76","","","","3","","8","","24.1","","99.12","","","","-14","","NA"
"-97.24","49.91","WINNIPEG INTL A","5023227","2023-04-04 05:00","2023","04","04","05:00","-9.4","","-12.8","","77","","","","2","","12","","24.1","","99.10","","","","-15","","NA"
"-97.24","49.91","WINNIPEG INTL A","5023227","2023-04-04 06:00","2023","04","04","06:00","-10.4","","-14.1","","75","","","","2","","15","","24.1","","99.18","","","","-17","","Mostly Cloudy"
"-97.24","49.91","WINNIPEG INTL A","5023227","2023-04-04 07:00","2023","04","04","07:00","-11.3","","-15.2","","73","","","","4","","17","","24.1","","99.24","","","","-19","","NA"
"-97.24","49.91","WINNIPEG INTL A","5023227","2023-04-04 08:00","2023","04","04","08:00","-10.7","","-14.3","","75","","","","5","","13","","24.1","","99.23","","","","-17","","NA"
"-97.24","49.91","WINNIPEG INTL A","5023227","2023-04-04 09:00","2023","04","04","09:00","-9.6","","-13.5","","73","","","","4","","17","","24.1","","99.19","","","","-17","","Mostly Cloudy"
"-97.24","49.91","WINNIPEG INTL A","5023227","2023-04-04 10:00","2023","04","04","10:00","-8.1","","-12.2","","73","","","","3","","20","","24.1","","99.13","","","","-15","","NA"
"-97.24","49.91","WINNIPEG INTL A","5023227","2023-04-04 11:00","2023","04","04","11:00","-5.8","","-10.7","","69","","","","3","","20","","24.1","","99.13","","","","-13","","NA"
"-97.24","49.91","WINNIPEG INTL A","5023227","2023-04-04 12:00","2023","04","04","12:00","-4.6","","-10.1","","65","","","","3","","24","","24.1","","99.12","","","","-12","","Mostly Cloudy"
"-97.24","49.91","WINNIPEG INTL A","5023227","2023-04-04 13:00","2023","04","04","13:00","-4.1","","-9.1","","68","","","","2","","26","","24.1","","99.05","","","","-11","","NA"
"-97.24","49.91","WINNIPEG INTL A","5023227","2023-04-04 14:00","2023","04","04","14:00","-2.7","","-8.6","","64","","","","5","","28","","24.1","","99.01","","","","-10","","NA"
"-97.24","49.91","WINNIPEG INTL A","5023227","2023-04-04 15:00","2023","04","04","15:00","-2.6","","-7.9","","67","","","","5","","26","","24.1","","98.96","","","","-9","","Cloudy"
"-97.24","49.91","WINNIPEG INTL A","5023227","2023-04-04 16:00","2023","04","04","16:00","-2.8","","-7.9","","68","","","","5","","25","","19.3","","98.90","","","","-10","","Snow"
"-97.24","49.91","WINNIPEG INTL A","5023227","2023-04-04 17:00","2023","04","04","17:00","-2.3","","-7.8","","66","","","","4","","27","","24.1","","98.85","","","","-9","","NA"
"-97.24","49.91","WINNIPEG INTL A","5023227","2023-04-04 18:00","2023","04","04","18:00","-2.1","","-9.1","","59","","","","5","","26","","24.1","","98.83","","","","-9","","Cloudy"
"-97.24","49.91","WINNIPEG INTL A","5023227","2023-04-04 19:00","2023","04","04","19:00","-2.2","","-9.5","","57","","","","6","","30","","24.1","","98.80","","","","-9","","NA"
"-97.24","49.91","WINNIPEG INTL A","5023227","2023-04-04 20:00","2023","04","04","20:00","-2.5","","-10.4","","55","","","","8","","25","","6.4","","98.86","","","","-9","","Snow"
"-97.24","49.91","WINNIPEG INTL A","5023227","2023-04-04 21:00","2023","04","04","21:00","-3.9","","-8.9","","68","","","","6","","26","","8.1","","98.87","","","","-11","","Snow,Blowing Snow"
"-97.24","49.91","WINNIPEG INTL A","5023227","2023-04-04 22:00","2023","04","04","22:00","-5.5","","-7.3","","87","","","","8","","24","","2.4","","98.83","","","","-13","","Snow,Blowing Snow"
"-97.24","49.91","WINNIPEG INTL A","5023227","2023-04-04 23:00","2023","04","04","23:00","-5.8","","-7.0","","91","","","","6","","28","","1.2","","98.70","","","","-14","","Snow,Blowing Snow"
"-97.24","49.91","WINNIPEG INTL A","5023227","2023-04-05 00:00","2023","04","05","00:00","-5.9","","-7.1","","92","","","","3","","24","","3.2","","98.50","","","","-13","","Snow,Blowing Snow"
"-97.24","49.91","WINNIPEG INTL A","5023227","2023-04-05 01:00","2023","04","05","01:00","-6.0","","-7.1","","91","","","","4","","26","","3.2","","98.38","","","","-14","","Snow,Blowing Snow"
"-97.24","49.91","WINNIPEG INTL A","5023227","2023-04-05 02:00","2023","04","05","02:00","-6.1","","-7.2","","92","","","","3","","28","","1.6","","98.31","","","","-14","","Snow,Blowing Snow"
"-97.24","49.91","WINNIPEG INTL A","5023227","2023-04-05 03:00","2023","04","05","03:00","-6.3","","-7.3","","93","","","","3","","29","","0.8","","98.17","","","","-15","","Moderate Snow,Blowing Snow"
"-97.24","49.91","WINNIPEG INTL A","5023227","2023-04-05 04:00","2023","04","05","04:00","-6.7","","-7.7","","93","","","","3","","30","","0.8","","98.08","","","","-15","","Snow,Blowing Snow"
"-97.24","49.91","WINNIPEG INTL A","5023227","2023-04-05 05:00","2023","04","05","05:00","-6.8","","-7.8","","93","","","","2","","26","","1.0","","97.99","","","","-15","","Snow,Blowing Snow"
"-97.24","49.91","WINNIPEG INTL A","5023227","2023-04-05 06:00","2023","04","05","06:00","-6.9","","-7.8","","93","","","","2","","27","","0.8","","97.88","","","","-15","","Snow,Blowing Snow"
"-97.24","49.91","WINNIPEG INTL A","5023227","2023-04-05 07:00","2023","04","05","07:00","-6.7","","-7.7","","93","","","","2","","28","","0.6","","97.76","","","","-15","","Snow,Blowing Snow"
"-97.24","49.91","WINNIPEG INTL A","5023227","2023-04-05 08:00","2023","04","05","08:00","-6.4","","-7.6","","91","","","","1","","36","","1.0","","97.63","","","","-16","","Snow Grains,Blowing Snow"
"-97.24","49.91","WINNIPEG INTL A","5023227","2023-04-05 09:00","2023","04","05","09:00","-6.1","","-7.5","","90","","","","1","","38","","1.2","","97.54","","","","-15","","Snow,Snow Grains,Blowing Snow"
"-97.24","49.91","WINNIPEG INTL A","5023227","2023-04-05 10:00","2023","04","05","10:00","-5.7","","-7.1","","90","","","","1","","41","","1.2","","97.46","","","","-15","","Snow,Snow Grains,Blowing Snow"
"-97.24","49.91","WINNIPEG INTL A","5023227","2023-04-05 11:00","2023","04","05","11:00","-5.3","","-7.0","","88","","","","2","","40","","6.4","","97.39","","","","-14","","Snow,Blowing Snow"
"-97.24","49.91","WINNIPEG INTL A","5023227","2023-04-05 12:00","2023","04","05","12:00","-4.8","","-7.0","","85","","","","2","","43","","1.6","","97.35","","","","-14","","Snow,Blowing Snow"
"-97.24","49.91","WINNIPEG INTL A","5023227","2023-04-05 13:00","2023","04","05","13:00","-5.4","","-7.4","","85","","","","1","","40","","4.8","","97.35","","","","-15","","Snow Showers,Blowing Snow"
"-97.24","49.91","WINNIPEG INTL A","5023227","2023-04-05 14:00","2023","04","05","14:00","-5.9","","-8.0","","85","","","","1","","41","","3.6","","97.37","","","","-15","","Snow Grains,Blowing Snow"
"-97.24","49.91","WINNIPEG INTL A","5023227","2023-04-05 15:00","2023","04","05","15:00","-5.6","","-7.6","","86","","","","36","","34","","6.4","","97.43","","","","-14","","Snow,Snow Grains,Blowing Snow"
"-97.24","49.91","WINNIPEG INTL A","5023227","2023-04-05 16:00","2023","04","05","16:00","-5.9","","-7.7","","87","","","","35","","31","","6.4","","97.49","","","","-14","","Snow,Blowing Snow"
"-97.24","49.91","WINNIPEG INTL A","5023227","2023-04-05 17:00","2023","04","05","17:00","-6.2","","-7.6","","90","","","","35","","31","","8.1","","97.58","","","","-15","","Snow Showers,Blowing Snow"
"-97.24","49.91","WINNIPEG INTL A","5023227","2023-04-05 18:00","2023","04","05","18:00","-6.5","","-8.2","","88","","","","36","","35","","2.4","","97.69","","","","-16","","Snow Showers,Blowing Snow"
"-97.24","49.91","WINNIPEG INTL A","5023227","2023-04-05 19:00","2023","04","05","19:00","-6.8","","-8.4","","89","","","","34","","31","","12.9","","97.80","","","","-15","","Snow Showers,Blowing Snow"
"-97.24","49.91","WINNIPEG INTL A","5023227","2023-04-05 20:00","2023","04","05","20:00","-6.9","","-8.9","","86","","","","35","","33","","16.1","","97.91","","","","-16","","Snow"
"-97.24","49.91","WINNIPEG INTL A","5023227","2023-04-05 21:00","2023","04","05","21:00","-6.9","","-8.3","","90","","","","34","","32","","2.4","","98.00","","","","-16","","Snow,Blowing Snow"
"-97.24","49.91","WINNIPEG INTL A","5023227","2023-04-05 22:00","2023","04","05","22:00","-7.3","","-8.9","","88","","","","34","","37","","16.1","","98.08","","","","-17","","Snow,Blowing Snow"
"-97.24","49.91","WINNIPEG INTL A","5023227","2023-04-05 23:00","2023","04","05","23:00","-7.7","","-9.4","","88","","","","34","","34","","6.4","","98.19","","","","-17","","Snow,Blowing Snow"
"-97.24","49.91","WINNIPEG INTL A","5023227","2023-04-06 00:00","2023","04","06","00:00","-7.7","","-9.5","","87","","","","33","","35","","6.4","","98.30","","","","-17","","Snow,Blowing Snow"
"-97.24","49.91","WINNIPEG INTL A","5023227","2023-04-06 01:00","2023","04","06","01:00","-8.0","","-9.9","","86","","","","34","","33","","6.4","","98.40","","","","-17","","Snow,Blowing Snow"
"-97.24","49.91","WINNIPEG INTL A","5023227","2023-04-06 02:00","2023","04","06","02:00","-8.1","","-9.7","","88","","","","32","","28","","16.1","","98.53","","","","-17","","Snow,Blowing Snow"
"-97.24","49.91","WINNIPEG INTL A","5023227","2023-04-06 03:00","2023","04","06","03:00","-8.6","","-10.1","","89","","","","32","","24","","16.1","","98.66","","","","-17","","Snow,Blowing Snow"
"-97.24","49.91","WINNIPEG INTL A","5023227","2023-04-06 04:00","2023","04","06","04:00","-9.2","","-10.8","","88","","","","31","","23","","16.1","","98.80","","","","-17","","Snow,Blowing Snow"
"-97.24","49.91","WINNIPEG INTL A","5023227","2023-04-06 05:00","2023","04","06","05:00","-8.7","","-10.7","","86","","","","31","","26","","16.1","","98.92","","","","-17","","Snow,Blowing Snow"
"-97.24","49.91","WINNIPEG INTL A","5023227","2023-04-06 06:00","2023","04","06","06:00","-9.0","","-10.8","","87","","","","31","","21","","24.1","","99.04","","","","-17","","Snow"
"-97.24","49.91","WINNIPEG INTL A","5023227","2023-04-06 07:00","2023","04","06","07:00","-8.0","","-10.1","","86","","","","32","","21","","24.1","","99.17","","","","-16","","Snow"
"-97.24","49.91","WINNIPEG INTL A","5023227","2023-04-06 08:00","2023","04","06","08:00","-7.8","","-10.6","","80","","","","33","","25","","24.1","","99.29","","","","-16","","NA"
"-97.24","49.91","WINNIPEG INTL A","5023227","2023-04-06 09:00","2023","04","06","09:00","-7.0","","-10.0","","79","","","","32","","17","","24.1","","99.40","","","","-13","","Mostly Cloudy"
"-97.24","49.91","WINNIPEG INTL A","5023227","2023-04-06 10:00","2023","04","06","10:00","-6.0","","-9.5","","76","","","","33","","14","","24.1","","99.50","","","","-12","","NA"
"-97.24","49.91","WINNIPEG INTL A","5023227","2023-04-06 11:00","2023","04","06","11:00","-5.0","","-9.3","","72","","","","32","","15","","24.1","","99.61","","","","-11","","NA"
"-97.24","49.91","WINNIPEG INTL A","5023227","2023-04-06 12:00","2023","04","06","12:00","-4.2","","-8.9","","70","","","","30","","15","","24.1","","99.69","","","","-10","","Mostly Cloudy"
"-97.24","49.91","WINNIPEG INTL A","5023227","2023-04-06 13:00","2023","04","06","13:00","-3.8","","-8.3","","71","","","","28","","17","","24.1","","99.78","","","","-10","","NA"
"-97.24","49.91","WINNIPEG INTL A","5023227","2023-04-06 14:00","2023","04","06","14:00","-3.2","","-8.2","","68","","","","29","","17","","24.1","","99.81","","","","-9","","NA"
"-97.24","49.91","WINNIPEG INTL A","5023227","2023-04-06 15:00","2023","04","06","15:00","-2.7","","-7.7","","69","","","","29","","12","","24.1","","99.90","","","","-7","","Mainly Clear"
"-97.24","49.91","WINNIPEG INTL A","5023227","2023-04-06 16:00","2023","04","06","16:00","-2.9","","-8.0","","68","","","","29","","14","","24.1","","99.94","","","","-8","","NA"
"-97.24","49.91","WINNIPEG INTL A","5023227","2023-04-06 17:00","2023","04","06","17:00","-3.4","","-8.3","","69","","","","28","","12","","24.1","","100.01","","","","-8","","NA"
"-97.24","49.91","WINNIPEG INTL A","5023227","2023-04-06 18:00","2023","04","06","18:00","-4.5","","-9.5","","68","","","","28","","9","","24.1","","100.03","","","","-8","","Mainly Clear"
"-97.24","49.91","WINNIPEG INTL A","5023227","2023-04-06 19:00","2023","04","06","19:00","-5.3","","-9.8","","71","","","","27","","10","","24.1","","100.03","","","","-10","","NA"
"-97.24","49.91","WINNIPEG INTL A","5023227","2023-04-06 20:00","2023","04","06","20:00","-6.0","","-10.5","","71","","","","26","","9","","24.1","","100.06","","","","-10","","NA"
"-97.24","49.91","WINNIPEG INTL A","5023227","2023-04-06 21:00","2023","04","06","21:00","-6.4","","-10.6","","72","","","","23","","7","","24.1","","100.12","","","","-10","","Mainly Clear"
"-97.24","49.91","WINNIPEG INTL A","5023227","2023-04-06 22:00","2023","04","06","22:00","-7.3","","-10.4","","79","","","","21","","7","","24.1","","100.16","","","","-11","","NA"
"-97.24","49.91","WINNIPEG INTL A","5023227","2023-04-06 23:00","2023","04","06","23:00","-9.1","","-11.6","","82","","","","20","","9","","24.1","","100.17","","","","-14","","NA"
"-97.24","49.91","WINNIPEG INTL A","5023227","2023-04-07 00:00","2023","04","07","00:00","-9.1","","-11.2","","85","","","","22","","8","","24.1","","100.20","","","","-13","","Clear"
"-97.24","49.91","WINNIPEG INTL A","5023227","2023-04-07 01:00","2023","04","07","01:00","-10.4","","-12.1","","88","","","","19","","7","","24.1","","100.23","","","","-14","","NA"
"-97.24","49.91","WINNIPEG INTL A","5023227","2023-04-07 02:00","2023","04","07","02:00","-11.3","","-12.5","","91","","","","18","","8","","24.1","","100.24","","","","-16","","NA"
"-97.24","49.91","WINNIPEG INTL A","5023227","2023-04-07 03:00","2023","04","07","03:00","-12.5","","-13.5","","92","","","","17","","10","","24.1","","100.24","","","","-18","","Clear"
"-97.24","49.91","WINNIPEG INTL A","5023227","2023-04-07 04:00","2023","04","07","04:00","-12.0","","-13.1","","91","","","","16","","10","","24.1","","100.25","","","","-18","","NA"
"-97.24","49.91","WINNIPEG INTL A","5023227","2023-04-07 05:00","2023","04","07","05:00","-12.3","","-13.5","","91","","","","16","","13","","24.1","","100.28","","","","-19","","NA"
"-97.24","49.91","WINNIPEG INTL A","5023227","2023-04-07 06:00","2023","04","07","06:00","-13.0","","-14.2","","91","","","","17","","13","","24.1","","100.31","","","","-20","","Mainly Clear"
"-97.24","49.91","WINNIPEG INTL A","5023227","2023-04-07 07:00","2023","04","07","07:00","-13.1","","-13.9","","93","","","","17","","13","","9.7","","100.36","","","","-20","","Fog"
"-97.24","49.91","WINNIPEG INTL A","5023227","2023-04-07 08:00","2023","04","07","08:00","-10.8","","-11.8","","93","","","","17","","14","","9.7","","100.36","","","","-17","","Fog"
"-97.24","49.91","WINNIPEG INTL A","5023227","2023-04-07 09:00","2023","04","07","09:00","-7.9","","-9.4","","89","","","","17","","13","","12.9","","100.34","","","","-14","","Clear"
"-97.24","49.91","WINNIPEG INTL A","5023227","2023-04-07 10:00","2023","04","07","10:00","-4.9","","-9.3","","71","","","","17","","16","","24.1","","100.35","","","","-11","","NA"
"-97.24","49.91","WINNIPEG INTL A","5023227","2023-04-07 11:00","2023","04","07","11:00","-3.5","","-8.6","","68","","","","18","","22","","24.1","","100.36","","","","-10","","NA"
"-97.24","49.91","WINNIPEG INTL A","5023227","2023-04-07 12:00","2023","04","07","12:00","-3.2","","-8.7","","66","","","","18","","18","","24.1","","100.33","","","","-9","","Clear"
"-97.24","49.91","WINNIPEG INTL A","5023227","2023-04-07 13:00","2023","04","07","13:00","-2.0","","-9.7","","56","","","","18","","18","","24.1","","100.28","","","","-7","","NA"
"-97.24","49.91","WINNIPEG INTL A","5023227","2023-04-07 14:00","2023","04","07","14:00","-1.0","","-9.2","","54","","","","19","","12","","24.1","","100.22","","","","-5","","NA"
"-97.24","49.91","WINNIPEG INTL A","5023227","2023-04-07 15:00","2023","04","07","15:00","-0.3","","-8.3","","55","","","","18","","12","","24.1","","100.16","","","","-4","","Clear"
"-97.24","49.91","WINNIPEG INTL A","5023227","2023-04-07 16:00","2023","04","07","16:00","0.2","","-7.7","","56","","","","18","","8","","24.1","","100.11","","","","","","NA"
"-97.24","49.91","WINNIPEG INTL A","5023227","2023-04-07 17:00","2023","04","07","17:00","0.2","","-8.8","","51","","","","15","","16","","24.1","","100.05","","","","","","NA"
"-97.24","49.91","WINNIPEG INTL A","5023227","2023-04-07 18:00","2023","04","07","18:00","0.2","","-8.2","","53","","","","18","","9","","24.1","","100.01","","","","","","Clear"
"-97.24","49.91","WINNIPEG INTL A","5023227","2023-04-07 19:00","2023","04","07","19:00","-5.5","","-8.6","","79","","","","2","","5","","24.1","","99.92","","","","-8","","NA"
"-97.24","49.91","WINNIPEG INTL A","5023227","2023-04-07 20:00","2023","04","07","20:00","-4.9","","-7.9","","79","","","","7","","5","","24.1","","99.90","","","","-7","","NA"
"-97.24","49.91","WINNIPEG INTL A","5023227","2023-04-07 21:00","2023","04","07","21:00","-5.4","","-8.4","","79","","","","15","","3","","24.1","","99.90","","","","-7","","Clear"
"-97.24","49.91","WINNIPEG INTL A","5023227","2023-04-07 22:00","2023","04","07","22:00","-5.7","","-8.9","","78","","","","12","","8","","24.1","","99.89","","","","-9","","NA"
"-97.24","49.91","WINNIPEG INTL A","5023227","2023-04-07 23:00","2023","04","07","23:00","-5.2","","-9.2","","73","","","","15","","12","","24.1","","99.83","","","","-10","","NA"
"-97.24","49.91","WINNIPEG INTL A","5023227","2023-04-08 00:00","2023","04","08","00:00","-5.4","","-8.9","","76","","","","13","","10","","24.1","","99.82","","","","-10","","Clear"
"-97.24","49.91","WINNIPEG INTL A","5023227","2023-04-08 01:00","2023","04","08","01:00","-4.7","","-8.6","","74","","","","14","","9","","24.1","","99.77","","","","-9","","NA"
"-97.24","49.91","WINNIPEG INTL A","5023227","2023-04-08 02:00","2023","04","08","02:00","-5.2","","-8.9","","75","","","","14","","13","","24.1","","99.74","","","","-10","","NA"
"-97.24","49.91","WINNIPEG INTL A","5023227","2023-04-08 03:00","2023","04","08","03:00","-5.8","","-9.7","","74","","","","14","","14","","24.1","","99.71","","","","-11","","Clear"
"-97.24","49.91","WINNIPEG INTL A","5023227","2023-04-08 04:00","2023","04","08","04:00","-6.1","","-9.7","","76","","","","15","","14","","24.1","","99.68","","","","-12","","NA"
"-97.24","49.91","WINNIPEG INTL A","5023227","2023-04-08 05:00","2023","04","08","05:00","-6.0","","-9.7","","75","","","","16","","12","","24.1","","99.66","","","","-11","","NA"
"-97.24","49.91","WINNIPEG INTL A","5023227","2023-04-08 06:00","2023","04","08","06:00","-7.1","","-10.5","","77","","","","16","","16","","24.1","","99.64","","","","-13","","Clear"
"-97.24","49.91","WINNIPEG INTL A","5023227","2023-04-08 07:00","2023","04","08","07:00","-4.6","","-9.5","","69","","","","16","","19","","24.1","","99.63","","","","-11","","NA"
"-97.24","49.91","WINNIPEG INTL A","5023227","2023-04-08 08:00","2023","04","08","08:00","-2.5","","-8.6","","63","","","","16","","18","","24.1","","99.58","","","","-8","","NA"
"-97.24","49.91","WINNIPEG INTL A","5023227","2023-04-08 09:00","2023","04","08","09:00","0.2","","-7.8","","55","","","","15","","22","","24.1","","99.50","","","","","","Clear"
"-97.24","49.91","WINNIPEG INTL A","5023227","2023-04-08 10:00","2023","04","08","10:00","2.4","","-6.3","","53","","","","15","","23","","24.1","","99.48","","","","","","NA"
"-97.24","49.91","WINNIPEG INTL A","5023227","2023-04-08 11:00","2023","04","08","11:00","3.6","","-6.1","","49","","","","15","","30","","24.1","","99.48","","","","","","NA"
"-97.24","49.91","WINNIPEG INTL A","5023227","2023-04-08 12:00","2023","04","08","12:00","4.9","","-5.0","","49","","","","15","","30","","24.1","","99.42","","","","","","Clear"
"-97.24","49.91","WINNIPEG INTL A","5023227","2023-04-08 13:00","2023","04","08","13:00","6.0","","-4.0","","48","","","","15","","24","","24.1","","99.36","","","","","","NA"
"-97.24","49.91","WINNIPEG INTL A","5023227","2023-04-08 14:00","2023","04","08","14:00","6.3","","-4.3","","47","","","","15","","27","","24.1","","99.28","","","","","","NA"
"-97.24","49.91","WINNIPEG INTL A","5023227","2023-04-08 15:00","2023","04","08","15:00","7.1","","-3.7","","46","","","","15","","19","","24.1","","99.18","","","","","","Mainly Clear"
"-97.24","49.91","WINNIPEG INTL A","5023227","2023-04-08 16:00","2023","04","08","16:00","7.6","","-4.2","","43","","","","12","","21","","24.1","","99.06","","","","","","NA"
"-97.24","49.91","WINNIPEG INTL A","5023227","2023-04-08 17:00","2023","04","08","17:00","7.9","","-4.0","","43","","","","14","","21","","24.1","","99.04","","","","","","NA"
"-97.24","49.91","WINNIPEG INTL A","5023227","2023-04-08 18:00","2023","04","08","18:00","6.2","","-2.9","","52","","","","15","","16","","24.1","","98.97","","","","","","Mostly Cloudy"
"-97.24","49.91","WINNIPEG INTL A","5023227","2023-04-08 19:00","2023","04","08","19:00","4.8","","-3.5","","55","","","","15","","9","","24.1","","98.92","","","","","","NA"
"-97.24","49.91","WINNIPEG INTL A","5023227","2023-04-08 20:00","2023","04","08","20:00","4.1","","-3.5","","58","","","","12","","15","","24.1","","98.87","","","","","","NA"
"-97.24","49.91","WINNIPEG INTL A","5023227","2023-04-08 21:00","2023","04","08","21:00","3.7","","-3.3","","60","","","","13","","13","","24.1","","98.81","","","","","","Mostly Cloudy"
"-97.24","49.91","WINNIPEG INTL A","5023227","2023-04-08 22:00","2023","04","08","22:00","4.3","","-3.8","","56","","","","13","","17","","24.1","","98.73","","","","","","NA"
"-97.24","49.91","WINNIPEG INTL A","5023227","2023-04-08 23:00","2023","04","08","23:00","2.5","","-3.3","","66","","","","15","","13","","24.1","","98.64","","","","","","NA"
"-97.24","49.91","WINNIPEG INTL A","5023227","2023-04-09 00:00","2023","04","09","00:00","2.0","","-2.7","","71","","","","15","","14","","24.1","","98.59","","","","","","Mostly Cloudy"
"-97.24","49.91","WINNIPEG INTL A","5023227","2023-04-09 01:00","2023","04","09","01:00","1.0","","-2.6","","77","","","","16","","13","","24.1","","98.53","","","","","","NA"
"-97.24","49.91","WINNIPEG INTL A","5023227","2023-04-09 02:00","2023","04","09","02:00","0.9","","-2.4","","79","","","","19","","11","","24.1","","98.47","","","","","","NA"
"-97.24","49.91","WINNIPEG INTL A","5023227","2023-04-09 03:00","2023","04","09","03:00","-0.8","","-2.5","","88","","","","18","","13","","24.1","","98.40","","","","-5","","Clear"
"-97.24","49.91","WINNIPEG INTL A","5023227","2023-04-09 04:00","2023","04","09","04:00","-0.9","","-2.4","","90","","","","22","","14","","24.1","","98.41","","","","-5","","NA"
"-97.24","49.91","WINNIPEG INTL A","5023227","2023-04-09 05:00","2023","04","09","05:00","-2.5","","-3.6","","92","","","","23","","15","","9.7","","98.42","","","","-7","","Fog"
"-97.24","49.91","WINNIPEG INTL A","5023227","2023-04-09 06:00","2023","04","09","06:00","-2.9","","-3.8","","93","","","","23","","13","","9.7","","98.46","","","","-8","","Fog"
"-97.24","49.91","WINNIPEG INTL A","5023227","2023-04-09 07:00","2023","04","09","07:00","-1.6","","-3.0","","91","","","","21","","12","","24.1","","98.48","","","","-6","","NA"
"-97.24","49.91","WINNIPEG INTL A","5023227","2023-04-09 08:00","2023","04","09","08:00","-0.6","","-2.6","","87","","","","19","","18","","24.1","","98.50","","","","-6","","NA"
"-97.24","49.91","WINNIPEG INTL A","5023227","2023-04-09 09:00","2023","04","09","09:00","0.8","","-2.1","","81","","","","19","","17","","24.1","","98.50","","","","","","Clear"
"-97.24","49.91","WINNIPEG INTL A","5023227","2023-04-09 10:00","2023","04","09","10:00","1.4","","-1.9","","79","","","","19","","26","","24.1","","98.52","","","","","","NA"
"-97.24","49.91","WINNIPEG INTL A","5023227","2023-04-09 11:00","2023","04","09","11:00","3.7","","-0.5","","74","","","","19","","25","","24.1","","98.55","","","","","","NA"
"-97.24","49.91","WINNIPEG INTL A","5023227","2023-04-09 12:00","2023","04","09","12:00","4.5","","-0.3","","71","","","","19","","30","","24.1","","98.57","","","","","","Clear"
"-97.24","49.91","WINNIPEG INTL A","5023227","2023-04-09 13:00","2023","04","09","13:00","5.7","","0.4","","69","","","","19","","24","","24.1","","98.61","","","","","","NA"
"-97.24","49.91","WINNIPEG INTL A","5023227","2023-04-09 14:00","2023","04","09","14:00","6.4","","0.8","","68","","","","19","","27","","24.1","","98.61","","","","","","NA"
"-97.24","49.91","WINNIPEG INTL A","5023227","2023-04-09 15:00","2023","04","09","15:00","7.9","","0.7","","60","","","","20","","29","","24.1","","98.64","","","","","","Clear"
"-97.24","49.91","WINNIPEG INTL A","5023227","2023-04-09 16:00","2023","04","09","16:00","7.1","","0.7","","64","","","","22","","24","","24.1","","98.64","","","","","","NA"
"-97.24","49.91","WINNIPEG INTL A","5023227","2023-04-09 17:00","2023","04","09","17:00","6.9","","0.9","","65","","","","22","","19","","24.1","","98.66","","","","","","NA"
"-97.24","49.91","WINNIPEG INTL A","5023227","2023-04-09 18:00","2023","04","09","18:00","6.3","","0.4","","66","","","","22","","17","","24.1","","98.68","","","","","","Clear"
"-97.24","49.91","WINNIPEG INTL A","5023227","2023-04-09 19:00","2023","04","09","19:00","4.4","","0.1","","73","","","","21","","15","","24.1","","98.65","","","","","","NA"
"-97.24","49.91","WINNIPEG INTL A","5023227","2023-04-09 20:00","2023","04","09","20:00","3.0","","-0.1","","80","","","","21","","14","","24.1","","98.70","","","","","","NA"
"-97.24","49.91","WINNIPEG INTL A","5023227","2023-04-09 21:00","2023","04","09","21:00","1.6","","-0.5","","86","","","","19","","15","","24.1","","98.75","","","","","","Clear"
"-97.24","49.91","WINNIPEG INTL A","5023227","2023-04-09 22:00","2023","04","09","22:00","2.2","","-0.5","","82","","","","20","","15","","24.1","","98.78","","","","","","NA"
"-97.24","49.91","WINNIPEG INTL A","5023227","2023-04-09 23:00","2023","04","09","23:00","1.6","","-0.7","","84","","","","20","","13","","24.1","","98.79","","","","","","NA"
"-97.24","49.91","WINNIPEG INTL A","5023227","2023-04-10 00:00","2023","04","10","00:00","0.1","","-1.4","","90","","","","19","","13","","24.1","","98.80","","","","","","Clear"
"-97.24","49.91","WINNIPEG INTL A","5023227","2023-04-10 01:00","2023","04","10","01:00","-0.2","","-1.6","","90","","","","19","","14","","24.1","","98.82","","","","-4","","NA"
"-97.24","49.91","WINNIPEG INTL A","5023227","2023-04-10 02:00","2023","04","10","02:00","0.0","","-1.8","","88","","","","19","","15","","24.1","","98.79","","","","-4","","NA"
"-97.24","49.91","WINNIPEG INTL A","5023227","2023-04-10 03:00","2023","04","10","03:00","-0.2","","-2.0","","88","","","","19","","15","","24.1","","98.74","","","","-5","","Clear"
"-97.24","49.91","WINNIPEG INTL A","5023227","2023-04-10 04:00","2023","04","10","04:00","0.5","","-1.7","","85","","","","20","","14","","24.1","","98.74","","","","","","NA"
"-97.24","49.91","WINNIPEG INTL A","5023227","2023-04-10 05:00","2023","04","10","05:00","-0.2","","-2.2","","86","","","","19","","15","","24.1","","98.74","","","","-5","","NA"
"-97.24","49.91","WINNIPEG INTL A","5023227","2023-04-10 06:00","2023","04","10","06:00","1.0","","-1.5","","84","","","","19","","18","","24.1","","98.77","","","","","","Mainly Clear"
"-97.24","49.91","WINNIPEG INTL A","5023227","2023-04-10 07:00","2023","04","10","07:00","1.3","","-1.3","","83","","","","19","","19","","24.1","","98.76","","","","","","NA"
"-97.24","49.91","WINNIPEG INTL A","5023227","2023-04-10 08:00","2023","04","10","08:00","3.0","","-0.6","","77","","","","19","","22","","24.1","","98.73","","","","","","NA"
"-97.24","49.91","WINNIPEG INTL A","5023227","2023-04-10 09:00","2023","04","10","09:00","4.2","","0.2","","75","","","","18","","22","","24.1","","98.65","","","","","","Mostly Cloudy"
"-97.24","49.91","WINNIPEG INTL A","5023227","2023-04-10 10:00","2023","04","10","10:00","5.0","","0.5","","73","","","","18","","27","","24.1","","98.55","","","","","","NA"
"-97.24","49.91","WINNIPEG INTL A","5023227","2023-04-10 11:00","2023","04","10","11:00","5.9","","0.7","","69","","","","18","","34","","24.1","","98.48","","","","","","NA"
"-97.24","49.91","WINNIPEG INTL A","5023227","2023-04-10 12:00","2023","04","10","12:00","5.9","","1.1","","72","","","","18","","30","","24.1","","98.44","","","","","","Mainly Clear"
"-97.24","49.91","WINNIPEG INTL A","5023227","2023-04-10 13:00","2023","04","10","13:00","6.7","","1.2","","68","","","","19","","39","","24.1","","98.39","","","","","","NA"
"-97.24","49.91","WINNIPEG INTL A","5023227","2023-04-10 14:00","2023","04","10","14:00","7.7","","1.7","","66","","","","20","","33","","24.1","","98.36","","","","","","NA"
"-97.24","49.91","WINNIPEG INTL A","5023227","2023-04-10 15:00","2023","04","10","15:00","8.4","","1.6","","62","","","","20","","25","","24.1","","98.37","","","","","","Mostly Cloudy"
"-97.24","49.91","WINNIPEG INTL A","5023227","2023-04-10 16:00","2023","04","10","16:00","8.0","","1.5","","63","","","","21","","24","","24.1","","98.38","","","","","","NA"
"-97.24","49.91","WINNIPEG INTL A","5023227","2023-04-10 17:00","2023","04","10","17:00","6.8","","1.4","","68","","","","20","","22","","24.1","","98.38","","","","","","NA"
"-97.24","49.91","WINNIPEG INTL A","5023227","2023-04-10 18:00","2023","04","10","18:00","6.2","","1.4","","71","","","","21","","14","","24.1","","98.44","","","","","","Mostly Cloudy"
"-97.24","49.91","WINNIPEG INTL A","5023227","2023-04-10 19:00","2023","04","10","19:00","5.2","","1.2","","75","","","","21","","17","","24.1","","98.40","","","","","","NA"
"-97.24","49.91","WINNIPEG INTL A","5023227","2023-04-10 20:00","2023","04","10","20:00","4.2","","0.9","","79","","","","22","","16","","24.1","","98.40","","","","","","NA"
"-97.24","49.91","WINNIPEG INTL A","5023227","2023-04-10 21:00","2023","04","10","21:00","3.6","","0.6","","81","","","","21","","9","","24.1","","98.46","","","","","","Mostly Cloudy"
"-97.24","49.91","WINNIPEG INTL A","5023227","2023-04-10 22:00","2023","04","10","22:00","3.0","","0.6","","84","","","","21","","9","","24.1","","98.46","","","","","","NA"
"-97.24","49.91","WINNIPEG INTL A","5023227","2023-04-10 23:00","2023","04","10","23:00","2.2","","0.3","","87","","","","20","","10","","24.1","","98.48","","","","","","NA"
"-97.24","49.91","WINNIPEG INTL A","5023227","2023-04-11 00:00","2023","04","11","00:00","1.8","","0.2","","89","","","","19","","13","","24.1","","98.51","","","","","","Mostly Cloudy"
"-97.24","49.91","WINNIPEG INTL A","5023227","2023-04-11 01:00","2023","04","11","01:00","0.5","","-0.3","","94","","","","19","","8","","24.1","","98.53","","","","","","NA"
"-97.24","49.91","WINNIPEG INTL A","5023227","2023-04-11 02:00","2023","04","11","02:00","0.7","","-0.2","","94","","","","20","","6","","24.1","","98.52","","","","","","NA"
"-97.24","49.91","WINNIPEG INTL A","5023227","2023-04-11 03:00","2023","04","11","03:00","0.7","","-0.2","","94","","","","17","","15","","24.1","","98.42","","","","","","Mostly Cloudy"
"-97.24","49.91","WINNIPEG INTL A","5023227","2023-04-11 04:00","2023","04","11","04:00","0.6","","-0.3","","94","","","","18","","11","","24.1","","98.43","","","","","","NA"
"-97.24","49.91","WINNIPEG INTL A","5023227","2023-04-11 05:00","2023","04","11","05:00","-0.3","","-0.8","","96","","","","18","","9","","24.1","","98.40","","","","-3","","NA"
"-97.24","49.91","WINNIPEG INTL A","5023227","2023-04-11 06:00","2023","04","11","06:00","-0.8","","-1.1","","98","","","","36","","3","","24.1","","98.42","","","","-2","","Mainly Clear"
"-97.24","49.91","WINNIPEG INTL A","5023227","2023-04-11 07:00","2023","04","11","07:00","2.0","","0.8","","92","","","","12","","5","","24.1","","98.33","","","","","","NA"
"-97.24","49.91","WINNIPEG INTL A","5023227","2023-04-11 08:00","2023","04","11","08:00","4.9","","1.7","","80","","","","15","","12","","24.1","","98.28","","","","","","NA"
"-97.24","49.91","WINNIPEG INTL A","5023227","2023-04-11 09:00","2023","04","11","09:00","6.1","","2.0","","75","","","","17","","15","","24.1","","98.20","","","","","","Mainly Clear"
"-97.24","49.91","WINNIPEG INTL A","5023227","2023-04-11 10:00","2023","04","11","10:00","9.3","","3.9","","69","","","","14","","17","","24.1","","98.10","","","","","","NA"
"-97.24","49.91","WINNIPEG INTL A","5023227","2023-04-11 11:00","2023","04","11","11:00","11.3","","4.2","","61","","","","14","","26","","24.1","","97.98","","","","","","NA"
"-97.24","49.91","WINNIPEG INTL A","5023227","2023-04-11 12:00","2023","04","11","12:00","12.5","","5.7","","63","","","","16","","26","","24.1","","97.90","","","","","","Mainly Clear"
"-97.24","49.91","WINNIPEG INTL A","5023227","2023-04-11 13:00","2023","04","11","13:00","13.2","","5.7","","60","","","","18","","21","","24.1","","97.74","","","","","","NA"
"-97.24","49.91","WINNIPEG INTL A","5023227","2023-04-11 14:00","2023","04","11","14:00","11.3","","4.5","","63","","","","18","","27","","24.1","","97.65","","","","","","NA"
"-97.24","49.91","WINNIPEG INTL A","5023227","2023-04-11 15:00","2023","04","11","15:00","9.6","","3.3","","65","","","","17","","28","","24.1","","97.55","","","","","","Clear"
"-97.24","49.91","WINNIPEG INTL A","5023227","2023-04-11 16:00","2023","04","11","16:00","12.8","","4.5","","57","","","","18","","25","","24.1","","97.40","","","","","","NA"
"-97.24","49.91","WINNIPEG INTL A","5023227","2023-04-11 17:00","2023","04","11","17:00","9.6","","2.8","","63","","","","17","","48","","24.1","","97.36","","","","","","NA"
"-97.24","49.91","WINNIPEG INTL A","5023227","2023-04-11 18:00","2023","04","11","18:00","9.3","","2.6","","63","","","","18","","36","","24.1","","97.32","","","","","","Clear"
"-97.24","49.91","WINNIPEG INTL A","5023227","2023-04-11 19:00","2023","04","11","19:00","6.5","","2.0","","73","","","","18","","30","","24.1","","97.28","","","","","","NA"
"-97.24","49.91","WINNIPEG INTL A","5023227","2023-04-11 20:00","2023","04","11","20:00","4.6","","1.5","","80","","","","19","","27","","24.1","","97.26","","","","","","NA"
"-97.24","49.91","WINNIPEG INTL A","5023227","2023-04-11 21:00","2023","04","11","21:00","3.5","","1.0","","84","","","","19","","21","","24.1","","97.23","","","","","","Clear"
"-97.24","49.91","WINNIPEG INTL A","5023227","2023-04-11 22:00","2023","04","11","22:00","2.3","","0.5","","88","","","","17","","14","","24.1","","97.18","","","","","","NA"
"-97.24","49.91","WINNIPEG INTL A","5023227","2023-04-11 23:00","2023","04","11","23:00","2.1","","0.6","","90","","","","20","","14","","24.1","","97.21","","","","","","NA"
"-97.24","49.91","WINNIPEG INTL A","5023227","2023-04-12 00:00","2023","04","12","00:00","2.4","","0.6","","88","","","","21","","15","","24.1","","97.18","","","","","","Clear"
"-97.24","49.91","WINNIPEG INTL A","5023227","2023-04-12 01:00","2023","04","12","01:00","2.1","","0.3","","88","","","","19","","10","","24.1","","97.18","","","","","","NA"
"-97.24","49.91","WINNIPEG INTL A","5023227","2023-04-12 02:00","2023","04","12","02:00","2.4","","0.8","","90","","","","23","","11","","24.1","","97.20","","","","","","NA"
"-97.24","49.91","WINNIPEG INTL A","5023227","2023-04-12 03:00","2023","04","12","03:00","1.5","","0.4","","92","","","","13","","3","","24.1","","97.19","","","","","","Mainly Clear"
"-97.24","49.91","WINNIPEG INTL A","5023227","2023-04-12 04:00","2023","04","12","04:00","1.9","","0.7","","92","","","","27","","9","","24.1","","97.34","","","","","","NA"
"-97.24","49.91","WINNIPEG INTL A","5023227","2023-04-12 05:00","2023","04","12","05:00","1.1","","0.5","","96","","","","26","","5","","24.1","","97.37","","","","","","NA"
"-97.24","49.91","WINNIPEG INTL A","5023227","2023-04-12 06:00","2023","04","12","06:00","1.0","","0.4","","96","","","","29","","8","","16.1","","97.43","","","","","","Mainly Clear"
"-97.24","49.91","WINNIPEG INTL A","5023227","2023-04-12 07:00","2023","04","12","07:00","4.0","","2.7","","91","","","","26","","10","","24.1","","97.48","","","","","","NA"
"-97.24","49.91","WINNIPEG INTL A","5023227","2023-04-12 08:00","2023","04","12","08:00","6.7","","3.8","","82","","","","27","","13","","24.1","","97.55","","","","","","NA"
"-97.24","49.91","WINNIPEG INTL A","5023227","2023-04-12 09:00","2023","04","12","09:00","9.3","","4.9","","74","","","","28","","14","","24.1","","97.56","","","","","","Mainly Clear"
"-97.24","49.91","WINNIPEG INTL A","5023227","2023-04-12 10:00","2023","04","12","10:00","12.8","","5.3","","60","","","","26","","10","","24.1","","97.56","","","","","","NA"
"-97.24","49.91","WINNIPEG INTL A","5023227","2023-04-12 11:00","2023","04","12","11:00","11.7","","4.7","","62","","","","27","","18","","24.1","","97.66","","","","","","NA"
"-97.24","49.91","WINNIPEG INTL A","5023227","2023-04-12 12:00","2023","04","12","12:00","12.4","","5.8","","64","","","","29","","20","","24.1","","97.68","","","","","","Mostly Cloudy"
"-97.24","49.91","WINNIPEG INTL A","5023227","2023-04-12 13:00","2023","04","12","13:00","12.6","","6.2","","65","","","","30","","24","","24.1","","97.69","","","","","","NA"
"-97.24","49.91","WINNIPEG INTL A","5023227","2023-04-12 14:00","2023","04","12","14:00","13.5","","5.9","","60","","","","32","","21","","24.1","","97.76","","","","","","NA"
"-97.24","49.91","WINNIPEG INTL A","5023227","2023-04-12 15:00","2023","04","12","15:00","13.0","","5.0","","58","","","","32","","23","","24.1","","97.78","","","","","","Cloudy"
"-97.24","49.91","WINNIPEG INTL A","5023227","2023-04-12 16:00","2023","04","12","16:00","12.0","","4.3","","59","","","","32","","24","","24.1","","97.81","","","","","","NA"
"-97.24","49.91","WINNIPEG INTL A","5023227","2023-04-12 17:00","2023","04","12","17:00","10.9","","4.2","","63","","","","30","","16","","24.1","","97.88","","","","","","NA"
"-97.24","49.91","WINNIPEG INTL A","5023227","2023-04-12 18:00","2023","04","12","18:00","9.1","","3.7","","69","","","","31","","14","","24.1","","97.92","","","","","","Cloudy"
"-97.24","49.91","WINNIPEG INTL A","5023227","2023-04-12 19:00","2023","04","12","19:00","7.8","","3.8","","76","","","","32","","15","","24.1","","97.95","","","","","","NA"
"-97.24","49.91","WINNIPEG INTL A","5023227","2023-04-12 20:00","2023","04","12","20:00","6.3","","3.2","","80","","","","31","","15","","24.1","","98.01","","","","","","NA"
"-97.24","49.91","WINNIPEG INTL A","5023227","2023-04-12 21:00","2023","04","12","21:00","5.9","","3.2","","83","","","","33","","14","","24.1","","98.05","","","","","","Mostly Cloudy"
"-97.24","49.91","WINNIPEG INTL A","5023227","2023-04-12 22:00","2023","04","12","22:00","5.1","","2.6","","84","","","","34","","13","","24.1","","98.10","","","","","","NA"
"-97.24","49.91","WINNIPEG INTL A","5023227","2023-04-12 23:00","2023","04","12","23:00","5.6","","2.2","","79","","","","36","","15","","24.1","","98.12","","","","","","NA"
"-97.24","49.91","WINNIPEG INTL A","5023227","2023-04-13 00:00","2023","04","13","00:00","5.1","","1.6","","78","","","","4","","11","","24.1","","98.26","","","","","","Mostly Cloudy"
"-97.24","49.91","WINNIPEG INTL A","5023227","2023-04-13 01:00","2023","04","13","01:00","4.3","","0.8","","78","","","","5","","14","","24.1","","98.21","","","","","","NA"
"-97.24","49.91","WINNIPEG INTL A","5023227","2023-04-13 02:00","2023","04","13","02:00","4.0","","0.8","","79","","","","3","","13","","24.1","","98.22","","","","","","NA"
"-97.24","49.91","WINNIPEG INTL A","5023227","2023-04-13 03:00","2023","04","13","03:00","3.5","","0.7","","82","","","","3","","16","","24.1","","98.22","","","","","","Mostly Cloudy"
"-97.24","49.91","WINNIPEG INTL A","5023227","2023-04-13 04:00","2023","04","13","04:00","2.9","","0.7","","86","","","","2","","14","","24.1","","98.26","","","","","","NA"
"-97.24","49.91","WINNIPEG INTL A","5023227","2023-04-13 05:00","2023","04","13","05:00","2.8","","0.7","","85","","","","3","","11","","24.1","","98.29","","","","","","NA"
"-97.24","49.91","WINNIPEG INTL A","5023227","2023-04-13 06:00","2023","04","13","06:00","2.9","","0.4","","84","","","","4","","9","","24.1","","98.32","","","","","","Mostly Cloudy"
"-97.24","49.91","WINNIPEG INTL A","5023227","2023-04-13 07:00","2023","04","13","07:00","3.0","","0.7","","85","","","","5","","9","","24.1","","98.33","","","","","","NA"
"-97.24","49.91","WINNIPEG INTL A","5023227","2023-04-13 08:00","2023","04","13","08:00","3.7","","0.7","","81","","","","5","","15","","24.1","","98.24","","","","","","NA"
"-97.24","49.91","WINNIPEG INTL A","5023227","2023-04-13 09:00","2023","04","13","09:00","5.0","","1.1","","76","","","","6","","24","","24.1","","98.16","","","","","","Cloudy"
"-97.24","49.91","WINNIPEG INTL A","5023227","2023-04-13 10:00","2023","04","13","10:00","6.0","","1.0","","70","","","","6","","24","","24.1","","98.20","","","","","","NA"
"-97.24","49.91","WINNIPEG INTL A","5023227","2023-04-13 11:00","2023","04","13","11:00","6.6","","0.8","","67","","","","6","","21","","24.1","","98.19","","","","","","NA"
"-97.24","49.91","WINNIPEG INTL A","5023227","2023-04-13 12:00","2023","04","13","12:00","7.5","","1.0","","64","","","","6","","28","","24.1","","98.10","","","","","","Cloudy"
"-97.24","49.91","WINNIPEG INTL A","5023227","2023-04-13 13:00","2023","04","13","13:00","7.3","","1.5","","67","","","","3","","28","","24.1","","98.06","","","","","","NA"
"-97.24","49.91","WINNIPEG INTL A","5023227","2023-04-13 14:00","2023","04","13","14:00","7.6","","0.9","","63","","","","3","","33","","24.1","","97.93","","","","","","NA"
"-97.24","49.91","WINNIPEG INTL A","5023227","2023-04-13 15:00","2023","04","13","15:00","7.9","","0.0","","57","","","","4","","30","","24.1","","97.90","","","","","","Cloudy"
"-97.24","49.91","WINNIPEG INTL A","5023227","2023-04-13 16:00","2023","04","13","16:00","8.0","","0.8","","60","","","","3","","25","","24.1","","97.85","","","","","","NA"
"-97.24","49.91","WINNIPEG INTL A","5023227","2023-04-13 17:00","2023","04","13","17:00","7.7","","0.4","","60","","","","5","","33","","24.1","","97.85","","","","","","NA"
"-97.24","49.91","WINNIPEG INTL A","5023227","2023-04-13 18:00","2023","04","13","18:00","6.8","","-0.2","","61","","","","5","","39","","24.1","","97.80","","","","","","Cloudy"
"-97.24","49.91","WINNIPEG INTL A","5023227","2023-04-13 19:00","2023","04","13","19:00","5.9","","0.4","","68","","","","6","","37","","24.1","","97.73","","","","","","Rain Showers"
"-97.24","49.91","WINNIPEG INTL A","5023227","2023-04-13 20:00","2023","04","13","20:00","4.6","","1.6","","80","","","","6","","31","","16.1","","97.72","","","","","","Rain"
"-97.24","49.91","WINNIPEG INTL A","5023227","2023-04-13 21:00","2023","04","13","21:00","4.7","","1.3","","79","","","","6","","37","","24.1","","97.62","","","","","","Rain Showers"
"-97.24","49.91","WINNIPEG INTL A","5023227","2023-04-13 22:00","2023","04","13","22:00","5.0","","0.8","","74","","","","5","","28","","24.1","","97.64","","","","","","NA"
"-97.24","49.91","WINNIPEG INTL A","5023227","2023-04-13 23:00","2023","04","13","23:00","4.9","","0.7","","74","","","","6","","31","","24.1","","97.60","","","","","","NA"
"-97.24","49.91","WINNIPEG INTL A","5023227","2023-04-14 00:00","2023","04","14","00:00","4.8","","0.8","","75","","","","4","","22","","24.1","","97.62","","","","","","Cloudy"
"-97.24","49.91","WINNIPEG INTL A","5023227","2023-04-14 01:00","2023","04","14","01:00","4.2","","0.8","","79","","","","3","","26","","24.1","","97.66","","","","","","NA"
"-97.24","49.91","WINNIPEG INTL A","5023227","2023-04-14 02:00","2023","04","14","02:00","3.6","","0.5","","80","","","","3","","22","","24.1","","97.59","","","","","","NA"
"-97.24","49.91","WINNIPEG INTL A","5023227","2023-04-14 03:00","2023","04","14","03:00","3.5","","0.5","","81","","","","3","","24","","24.1","","97.53","","","","","","Cloudy"
"-97.24","49.91","WINNIPEG INTL A","5023227","2023-04-14 04:00","2023","04","14","04:00","3.6","","0.4","","80","","","","3","","22","","24.1","","97.61","","","","","","NA"
"-97.24","49.91","WINNIPEG INTL A","5023227","2023-04-14 05:00","2023","04","14","05:00","3.1","","0.7","","84","","","","3","","21","","24.1","","97.57","","","","","","NA"
"-97.24","49.91","WINNIPEG INTL A","5023227","2023-04-14 06:00","2023","04","14","06:00","2.7","","0.5","","86","","","","3","","28","","24.1","","97.44","","","","","","Cloudy"
"-97.24","49.91","WINNIPEG INTL A","5023227","2023-04-14 07:00","2023","04","14","07:00","3.2","","0.8","","84","","","","6","","6","","24.1","","97.70","","","","","","NA"
"-97.24","49.91","WINNIPEG INTL A","5023227","2023-04-14 08:00","2023","04","14","08:00","3.1","","1.1","","87","","","","3","","13","","24.1","","97.61","","","","","","NA"
"-97.24","49.91","WINNIPEG INTL A","5023227","2023-04-14 09:00","2023","04","14","09:00","2.9","","1.5","","90","","","","1","","13","","14.5","","97.58","","","","","","Rain"
"-97.24","49.91","WINNIPEG INTL A","5023227","2023-04-14 10:00","2023","04","14","10:00","2.7","","1.8","","94","","","","1","","16","","14.5","","97.64","","","","","","Rain"
"-97.24","49.91","WINNIPEG INTL A","5023227","2023-04-14 11:00","2023","04","14","11:00","2.6","","1.8","","94","","","","1","","20","","22.5","","97.64","","","","","","Rain"
"-97.24","49.91","WINNIPEG INTL A","5023227","2023-04-14 12:00","2023","04","14","12:00","3.0","","1.9","","93","","","","1","","19","","24.1","","97.70","","","","","","Cloudy"
"-97.24","49.91","WINNIPEG INTL A","5023227","2023-04-14 13:00","2023","04","14","13:00","3.0","","2.5","","96","","","","36","","20","","4.8","","97.75","","","","","","Rain Showers,Fog"
"-97.24","49.91","WINNIPEG INTL A","5023227","2023-04-14 14:00","2023","04","14","14:00","3.0","","2.6","","97","","","","35","","21","","6.4","","97.81","","","","","","Rain,Fog"
"-97.24","49.91","WINNIPEG INTL A","5023227","2023-04-14 15:00","2023","04","14","15:00","3.0","","2.4","","96","","","","36","","20","","8.1","","97.90","","","","","","Drizzle,Fog"
"-97.24","49.91","WINNIPEG INTL A","5023227","2023-04-14 16:00","2023","04","14","16:00","3.0","","2.1","","94","","","","36","","21","","17.7","","97.95","","","","","","NA"
"-97.24","49.91","WINNIPEG INTL A","5023227","2023-04-14 17:00","2023","04","14","17:00","3.1","","2.1","","94","","","","34","","22","","17.7","","98.04","","","","","","NA"
"-97.24","49.91","WINNIPEG INTL A","5023227","2023-04-14 18:00","2023","04","14","18:00","3.0","","2.0","","93","","","","35","","24","","24.1","","98.08","","","","","","Cloudy"
"-97.24","49.91","WINNIPEG INTL A","5023227","2023-04-14 19:00","2023","04","14","19:00","2.7","","1.6","","93","","","","34","","18","","24.1","","98.15","","","","","","NA"
"-97.24","49.91","WINNIPEG INTL A","5023227","2023-04-14 20:00","2023","04","14","20:00","2.3","","1.0","","91","","","","34","","21","","24.1","","98.23","","","","","","NA"
"-97.24","49.91","WINNIPEG INTL A","5023227","2023-04-14 21:00","2023","04","14","21:00","2.0","","1.0","","93","","","","34","","17","","24.1","","98.33","","","","","","Cloudy"
"-97.24","49.91","WINNIPEG INTL A","5023227","2023-04-14 22:00","2023","04","14","22:00","1.8","","0.9","","94","","","","35","","19","","24.1","","98.36","","","","","","NA"
"-97.24","49.91","WINNIPEG INTL A","5023227","2023-04-14 23:00","2023","04","14","23:00","1.5","","0.9","","96","","","","34","","21","","24.1","","98.39","","","","","","NA"
"-97.24","49.91","WINNIPEG INTL A","5023227","2023-04-15 00:00","2023","04","15","00:00","1.3","","0.6","","95","","","","35","","20","","24.1","","98.43","","","","","","Cloudy"
"-97.24","49.91","WINNIPEG INTL A","5023227","2023-04-15 01:00","2023","04","15","01:00","0.8","","0.4","","97","","","","35","","21","","24.1","","98.46","","","","","","NA"
"-97.24","49.91","WINNIPEG INTL A","5023227","2023-04-15 02:00","2023","04","15","02:00","0.6","","0.1","","96","","","","35","","23","","24.1","","98.50","","","","","","NA"
"-97.24","49.91","WINNIPEG INTL A","5023227","2023-04-15 03:00","2023","04","15","03:00","0.3","","0.0","","98","","","","35","","23","","16.1","","98.55","","","","","","Drizzle"
"-97.24","49.91","WINNIPEG INTL A","5023227","2023-04-15 04:00","2023","04","15","04:00","0.2","","-0.4","","95","","","","36","","21","","24.1","","98.61","","","","","","NA"
"-97.24","49.91","WINNIPEG INTL A","5023227","2023-04-15 05:00","2023","04","15","05:00","0.0","","-0.8","","95","","","","36","","26","","24.1","","98.64","","","","-6","","Drizzle"
"-97.24","49.91","WINNIPEG INTL A","5023227","2023-04-15 06:00","2023","04","15","06:00","0.0","","-1.0","","93","","","","36","","23","","24.1","","98.74","","","","-6","","Drizzle"
"-97.24","49.91","WINNIPEG INTL A","5023227","2023-04-15 07:00","2023","04","15","07:00","0.0","","-1.3","","91","","","","36","","27","","24.1","","98.82","","","","-6","","NA"
"-97.24","49.91","WINNIPEG INTL A","5023227","2023-04-15 08:00","2023","04","15","08:00","-0.1","","-1.7","","89","","","","36","","28","","24.1","","98.86","","","","-6","","NA"
"-97.24","49.91","WINNIPEG INTL A","5023227","2023-04-15 09:00","2023","04","15","09:00","-0.2","","-2.4","","85","","","","1","","33","","24.1","","98.89","","","","-7","","Cloudy"
"-97.24","49.91","WINNIPEG INTL A","5023227","2023-04-15 10:00","2023","04","15","10:00","0.6","","-2.3","","81","","","","1","","30","","24.1","","98.93","","","","","","NA"
"-97.24","49.91","WINNIPEG INTL A","5023227","2023-04-15 11:00","2023","04","15","11:00","0.4","","-2.5","","81","","","","1","","33","","24.1","","98.91","","","","","","NA"
"-97.24","49.91","WINNIPEG INTL A","5023227","2023-04-15 12:00","2023","04","15","12:00","0.5","","-2.4","","81","","","","1","","33","","24.1","","98.99","","","","","","Cloudy"
"-97.24","49.91","WINNIPEG INTL A","5023227","2023-04-15 13:00","2023","04","15","13:00","-0.1","","-2.7","","83","","","","1","","28","","24.1","","99.01","","","","-6","","NA"
"-97.24","49.91","WINNIPEG INTL A","5023227","2023-04-15 14:00","2023","04","15","14:00","0.1","","-2.2","","85","","","","2","","30","","24.1","","99.03","","","","","","NA"
"-97.24","49.91","WINNIPEG INTL A","5023227","2023-04-15 15:00","2023","04","15","15:00","0.0","","-2.6","","82","","","","2","","27","","24.1","","99.06","","","","-6","","Cloudy"
"-97.24","49.91","WINNIPEG INTL A","5023227","2023-04-15 16:00","2023","04","15","16:00","0.5","","-3.3","","76","","","","3","","37","","24.1","","99.05","","","","","","NA"
"-97.24","49.91","WINNIPEG INTL A","5023227","2023-04-15 17:00","2023","04","15","17:00","0.8","","-3.2","","74","","","","3","","36","","24.1","","99.09","","","","","","NA"
"-97.24","49.91","WINNIPEG INTL A","5023227","2023-04-15 18:00","2023","04","15","18:00","0.6","","-3.2","","76","","","","2","","32","","24.1","","99.15","","","","","","Cloudy"
"-97.24","49.91","WINNIPEG INTL A","5023227","2023-04-15 19:00","2023","04","15","19:00","0.3","","-2.9","","79","","","","2","","25","","24.1","","99.16","","","","","","NA"
"-97.24","49.91","WINNIPEG INTL A","5023227","2023-04-15 20:00","2023","04","15","20:00","0.2","","-2.7","","81","","","","1","","24","","24.1","","99.20","","","","","","NA"
"-97.24","49.91","WINNIPEG INTL A","5023227","2023-04-15 21:00","2023","04","15","21:00","0.0","","-2.7","","82","","","","1","","25","","24.1","","99.22","","","","-6","","Cloudy"
"-97.24","49.91","WINNIPEG INTL A","5023227","2023-04-15 22:00","2023","04","15","22:00","0.0","","-2.8","","81","","","","1","","25","","24.1","","99.20","","","","-6","","NA"
"-97.24","49.91","WINNIPEG INTL A","5023227","2023-04-15 23:00","2023","04","15","23:00","-0.2","","-3.4","","79","","","","1","","26","","24.1","","99.19","","","","-6","","NA"
"-97.24","49.91","WINNIPEG INTL A","5023227","2023-04-16 00:00","2023","04","16","00:00","-0.2","","-4.5","","73","","","","1","","26","","24.1","","99.26","","","","-6","","Cloudy"
"-97.24","49.91","WINNIPEG INTL A","5023227","2023-04-16 01:00","2023","04","16","01:00","-0.4","","-5.0","","71","","","","36","","26","","24.1","","99.27","","","","-7","","NA"
"-97.24","49.91","WINNIPEG INTL A","5023227","2023-04-16 02:00","2023","04","16","02:00","-0.3","","-5.1","","70","","","","36","","22","","24.1","","99.26","","","","-6","","NA"
"-97.24","49.91","WINNIPEG INTL A","5023227","2023-04-16 03:00","2023","04","16","03:00","-0.5","","-4.7","","73","","","","35","","23","","24.1","","99.26","","","","-6","","Mostly Cloudy"
"-97.24","49.91","WINNIPEG INTL A","5023227","2023-04-16 04:00","2023","04","16","04:00","-0.6","","-4.5","","75","","","","35","","21","","24.1","","99.29","","","","-6","","NA"
"-97.24","49.91","WINNIPEG INTL A","5023227","2023-04-16 05:00","2023","04","16","05:00","-1.2","","-5.2","","75","","","","36","","19","","24.1","","99.32","","","","-7","","NA"
"-97.24","49.91","WINNIPEG INTL A","5023227","2023-04-16 06:00","2023","04","16","06:00","-1.2","","-6.4","","68","","","","36","","22","","24.1","","99.35","","","","-7","","Mainly Clear"
"-97.24","49.91","WINNIPEG INTL A","5023227","2023-04-16 07:00","2023","04","16","07:00","-0.2","","-6.8","","62","","","","36","","24","","24.1","","99.39","","","","-6","","NA"
"-97.24","49.91","WINNIPEG INTL A","5023227","2023-04-16 08:00","2023","04","16","08:00","0.5","","-6.8","","58","","","","1","","28","","24.1","","99.39","","","","","","NA"
"-97.24","49.91","WINNIPEG INTL A","5023227","2023-04-16 09:00","2023","04","16","09:00","1.6","","-6.5","","55","","","","1","","26","","24.1","","99.36","","","","","","Clear"
"-97.24","49.91","WINNIPEG INTL A","5023227","2023-04-16 10:00","2023","04","16","10:00","2.8","","-7.4","","47","","","","36","","31","","24.1","","99.32","","","","","","NA"
"-97.24","49.91","WINNIPEG INTL A","5023227","2023-04-16 11:00","2023","04","16","11:00","4.5","","-5.8","","47","","","","1","","29","","24.1","","99.27","","","","","","NA"
"-97.24","49.91","WINNIPEG INTL A","5023227","2023-04-16 12:00","2023","04","16","12:00","6.5","","-5.9","","41","","","","36","","32","","24.1","","99.25","","","","","","Clear"
"-97.24","49.91","WINNIPEG INTL A","5023227","2023-04-16 13:00","2023","04","16","13:00","7.5","","-5.3","","40","","","","36","","40","","24.1","","99.21","","","","","","NA"
"-97.24","49.91","WINNIPEG INTL A","5023227","2023-04-16 14:00","2023","04","16","14:00","8.4","","-4.4","","40","","","","35","","33","","24.1","","99.16","","","","","","NA"
"-97.24","49.91","WINNIPEG INTL A","5023227","2023-04-16 15:00","2023","04","16","15:00","8.7","","-5.8","","35","","","","35","","37","","24.1","","99.13","","","","","","Clear"
"-97.24","49.91","WINNIPEG INTL A","5023227","2023-04-16 16:00","2023","04","16","16:00","8.9","","-5.8","","35","","","","1","","34","","24.1","","99.08","","","","","","NA"
"-97.24","49.91","WINNIPEG INTL A","5023227","2023-04-16 17:00","2023","04","16","17:00","8.6","","-5.0","","38","","","","2","","30","","24.1","","99.05","","","","","","NA"
"-97.24","49.91","WINNIPEG INTL A","5023227","2023-04-16 18:00","2023","04","16","18:00","7.6","","-5.0","","40","","","","2","","31","","24.1","","99.07","","","","","","Clear"
"-97.24","49.91","WINNIPEG INTL A","5023227","2023-04-16 19:00","2023","04","16","19:00","5.7","","-2.5","","56","","","","3","","16","","24.1","","99.05","","","","","","NA"
"-97.24","49.91","WINNIPEG INTL A","5023227","2023-04-16 20:00","2023","04","16","20:00","2.5","","-2.9","","68","","","","1","","12","","24.1","","99.01","","","","","","NA"
"-97.24","49.91","WINNIPEG INTL A","5023227","2023-04-16 21:00","2023","04","16","21:00","1.7","","-4.0","","66","","","","1","","14","","24.1","","99.01","","","","","","Clear"
"-97.24","49.91","WINNIPEG INTL A","5023227","2023-04-16 22:00","2023","04","16","22:00","2.6","","-6.3","","52","","","","36","","18","","24.1","","98.96","","","","","","NA"
"-97.24","49.91","WINNIPEG INTL A","5023227","2023-04-16 23:00","2023","04","16","23:00","1.5","","-5.4","","60","","","","1","","19","","24.1","","98.91","","","","","","NA"
"-97.24","49.91","WINNIPEG INTL A","5023227","2023-04-17 00:00","2023","04","17","00:00","0.4","","-4.9","","68","","","","1","","17","","24.1","","98.89","","","","","","Clear"
"-97.24","49.91","WINNIPEG INTL A","5023227","2023-04-17 01:00","2023","04","17","01:00","-0.6","","-4.4","","76","","","","2","","14","","24.1","","98.88","","","","-5","","NA"
"-97.24","49.91","WINNIPEG INTL A","5023227","2023-04-17 02:00","2023","04","17","02:00","-1.0","","-4.8","","76","","","","1","","15","","24.1","","98.85","","","","-6","","NA"
"-97.24","49.91","WINNIPEG INTL A","5023227","2023-04-17 03:00","2023","04","17","03:00","-1.6","","-4.8","","79","","","","2","","13","","24.1","","98.82","","","","-6","","Clear"
"-97.24","49.91","WINNIPEG INTL A","5023227","2023-04-17 04:00","2023","04","17","04:00","-2.1","","-5.5","","78","","","","1","","12","","24.1","","98.84","","","","-6","","NA"
"-97.24","49.91","WINNIPEG INTL A","5023227","2023-04-17 05:00","2023","04","17","05:00","-2.4","","-5.9","","77","","","","36","","13","","24.1","","98.85","","","","-7","","NA"
"-97.24","49.91","WINNIPEG INTL A","5023227","2023-04-17 06:00","2023","04","17","06:00","-2.3","","-5.2","","81","","","","35","","13","","24.1","","98.90","","","","-7","","Mainly Clear"
"-97.24","49.91","WINNIPEG INTL A","5023227","2023-04-17 07:00","2023","04","17","07:00","-1.2","","-5.4","","73","","","","2","","16","","24.1","","98.93","","","","-6","","NA"
"-97.24","49.91","WINNIPEG INTL A","5023227","2023-04-17 08:00","2023","04","17","08:00","-0.1","","-5.7","","66","","","","2","","18","","24.1","","98.90","","","","-5","","NA"
"-97.24","49.91","WINNIPEG INTL A","5023227","2023-04-17 09:00","2023","04","17","09:00","1.1","","-6.1","","58","","","","3","","21","","24.1","","98.87","","","","","","Clear"
"-97.24","49.91","WINNIPEG INTL A","5023227","2023-04-17 10:00","2023","04","17","10:00","2.3","","-5.1","","58","","","","3","","19","","24.1","","98.83","","","","","","NA"
"-97.24","49.91","WINNIPEG INTL A","5023227","2023-04-17 11:00","2023","04","17","11:00","3.3","","-5.4","","53","","","","3","","19","","24.1","","98.79","","","","","","NA"
"-97.24","49.91","WINNIPEG INTL A","5023227","2023-04-17 12:00","2023","04","17","12:00","4.7","","-6.7","","44","","","","1","","26","","24.1","","98.79","","","","","","Clear"
"-97.24","49.91","WINNIPEG INTL A","5023227","2023-04-17 13:00","2023","04","17","13:00","6.0","","-6.0","","42","","","","1","","27","","24.1","","98.74","","","","","","NA"
"-97.24","49.91","WINNIPEG INTL A","5023227","2023-04-17 14:00","2023","04","17","14:00","6.8","","-5.5","","41","","","","36","","20","","24.1","","98.69","","","","","","NA"
"-97.24","49.91","WINNIPEG INTL A","5023227","2023-04-17 15:00","2023","04","17","15:00","7.2","","-5.8","","39","","","","4","","23","","24.1","","98.64","","","","","","Clear"
"-97.24","49.91","WINNIPEG INTL A","5023227","2023-04-17 16:00","2023","04","17","16:00","7.6","","-5.0","","40","","","","2","","22","","24.1","","98.62","","","","","","NA"
"-97.24","49.91","WINNIPEG INTL A","5023227","2023-04-17 17:00","2023","04","17","17:00","7.0","","-6.0","","39","","","","2","","19","","24.1","","98.63","","","","","","NA"
"-97.24","49.91","WINNIPEG INTL A","5023227","2023-04-17 18:00","2023","04","17","18:00","6.2","","-6.0","","41","","","","3","","17","","24.1","","98.61","","","","","","Clear"
"-97.24","49.91","WINNIPEG INTL A","5023227","2023-04-17 19:00","2023","04","17","19:00","4.2","","-5.0","","51","","","","4","","14","","24.1","","98.61","","","","","","NA"
"-97.24","49.91","WINNIPEG INTL A","5023227","2023-04-17 20:00","2023","04","17","20:00","2.0","","-4.9","","61","","","","5","","13","","24.1","","98.61","","","","","","NA"
"-97.24","49.91","WINNIPEG INTL A","5023227","2023-04-17 21:00","2023","04","17","21:00","1.0","","-4.9","","65","","","","5","","11","","24.1","","98.61","","","","","","Mainly Clear"
"-97.24","49.91","WINNIPEG INTL A","5023227","2023-04-17 22:00","2023","04","17","22:00","1.1","","-6.3","","58","","","","4","","13","","24.1","","98.62","","","","","","NA"
"-97.24","49.91","WINNIPEG INTL A","5023227","2023-04-17 23:00","2023","04","17","23:00","0.3","","-6.5","","60","","","","4","","14","","24.1","","98.61","","","","","","NA"
"-97.24","49.91","WINNIPEG INTL A","5023227","2023-04-18 00:00","2023","04","18","00:00","-0.5","","-5.7","","68","","","","4","","14","","24.1","","98.64","","","","-5","","Clear"
"-97.24","49.91","WINNIPEG INTL A","5023227","2023-04-18 01:00","2023","04","18","01:00","-2.2","","-5.3","","79","","","","4","","5","","24.1","","98.67","","","","-4","","NA"
"-97.24","49.91","WINNIPEG INTL A","5023227","2023-04-18 02:00","2023","04","18","02:00","-2.7","","-5.5","","81","","","","7","","3","","24.1","","98.65","","","","-4","","NA"
"-97.24","49.91","WINNIPEG INTL A","5023227","2023-04-18 03:00","2023","04","18","03:00","-2.9","","-5.0","","86","","","","5","","5","","24.1","","98.64","","","","-5","","Clear"
"-97.24","49.91","WINNIPEG INTL A","5023227","2023-04-18 04:00","2023","04","18","04:00","-3.4","","-5.3","","86","","","","6","","8","","24.1","","98.66","","","","-7","","NA"
"-97.24","49.91","WINNIPEG INTL A","5023227","2023-04-18 05:00","2023","04","18","05:00","-3.2","","-5.8","","82","","","","8","","4","","24.1","","98.70","","","","-5","","NA"
"-97.24","49.91","WINNIPEG INTL A","5023227","2023-04-18 06:00","2023","04","18","06:00","-2.6","","-6.1","","77","","","","4","","7","","24.1","","98.73","","","","-5","","Mainly Clear"
"-97.24","49.91","WINNIPEG INTL A","5023227","2023-04-18 07:00","2023","04","18","07:00","-1.1","","-6.3","","68","","","","8","","13","","24.1","","98.75","","","","-5","","NA"
"-97.24","49.91","WINNIPEG INTL A","5023227","2023-04-18 08:00","2023","04","18","08:00","1.8","","-7.3","","51","","","","11","","11","","24.1","","98.77","","","","","","NA"
"-97.24","49.91","WINNIPEG INTL A","5023227","2023-04-18 09:00","2023","04","18","09:00","2.8","","-8.8","","42","","","","12","","11","","24.1","","98.77","","","","","","Mostly Cloudy"
"-97.24","49.91","WINNIPEG INTL A","5023227","2023-04-18 10:00","2023","04","18","10:00","4.3","","-9.2","","37","","","","9","","13","","24.1","","98.78","","","","","","NA"
"-97.24","49.91","WINNIPEG INTL A","5023227","2023-04-18 11:00","2023","04","18","11:00","5.1","","-8.5","","37","","","","10","","19","","24.1","","98.73","","","","","","NA"
"-97.24","49.91","WINNIPEG INTL A","5023227","2023-04-18 12:00","2023","04","18","12:00","6.0","","-7.8","","37","","","","10","","22","","24.1","","98.69","","","","","","Mostly Cloudy"
"-97.24","49.91","WINNIPEG INTL A","5023227","2023-04-18 13:00","2023","04","18","13:00","7.2","","-5.8","","39","","","","8","","16","","24.1","","98.62","","","","","","NA"
"-97.24","49.91","WINNIPEG INTL A","5023227","2023-04-18 14:00","2023","04","18","14:00","8.6","","-5.5","","36","","","","10","","22","","24.1","","98.62","","","","","","NA"
"-97.24","49.91","WINNIPEG INTL A","5023227","2023-04-18 15:00","2023","04","18","15:00","8.3","","-6.5","","34","","","","8","","16","","24.1","","98.57","","","","","","Mostly Cloudy"
"-97.24","49.91","WINNIPEG INTL A","5023227","2023-04-18 16:00","2023","04","18","16:00","8.2","","-5.8","","37","","","","8","","16","","24.1","","98.53","","","","","","NA"
"-97.24","49.91","WINNIPEG INTL A","5023227","2023-04-18 17:00","2023","04","18","17:00","6.5","","-2.2","","54","","","","4","","18","","24.1","","98.56","","","","","","NA"
"-97.24","49.91","WINNIPEG INTL A","5023227","2023-04-18 18:00","2023","04","18","18:00","5.1","","-3.9","","52","","","","3","","23","","24.1","","98.59","","","","","","Cloudy"
"-97.24","49.91","WINNIPEG INTL A","5023227","2023-04-18 19:00","2023","04","18","19:00","4.7","","-3.1","","57","","","","3","","18","","24.1","","98.60","","","","","","NA"
"-97.24","49.91","WINNIPEG INTL A","5023227","2023-04-18 20:00","2023","04","18","20:00","5.8","","-2.7","","54","","","","5","","29","","24.1","","98.61","","","","","","NA"
"-97.24","49.91","WINNIPEG INTL A","5023227","2023-04-18 21:00","2023","04","18","21:00","6.0","","-4.2","","48","","","","8","","22","","24.1","","98.66","","","","","","Cloudy"
"-97.24","49.91","WINNIPEG INTL A","5023227","2023-04-18 22:00","2023","04","18","22:00","5.0","","-3.6","","54","","","","6","","28","","24.1","","98.73","","","","","","NA"
"-97.24","49.91","WINNIPEG INTL A","5023227","2023-04-18 23:00","2023","04","18","23:00","4.4","","-2.9","","59","","","","7","","27","","24.1","","98.70","","","","","","NA"
"-97.24","49.91","WINNIPEG INTL A","5023227","2023-04-19 00:00","2023","04","19","00:00","4.6","","-4.5","","52","","","","7","","29","","24.1","","98.69","","","","","","Cloudy"
"-97.24","49.91","WINNIPEG INTL A","5023227","2023-04-19 01:00","2023","04","19","01:00","3.5","","-3.8","","59","","","","7","","26","","24.1","","98.70","","","","","","NA"
"-97.24","49.91","WINNIPEG INTL A","5023227","2023-04-19 02:00","2023","04","19","02:00","3.1","","-4.5","","58","","","","7","","27","","24.1","","98.66","","","","","","NA"
"-97.24","49.91","WINNIPEG INTL A","5023227","2023-04-19 03:00","2023","04","19","03:00","2.4","","-4.8","","59","","","","7","","32","","24.1","","98.52","","","","","","Mostly Cloudy"
"-97.24","49.91","WINNIPEG INTL A","5023227","2023-04-19 04:00","2023","04","19","04:00","1.8","","-4.0","","65","","","","6","","28","","24.1","","98.58","","","","","","NA"
"-97.24","49.91","WINNIPEG INTL A","5023227","2023-04-19 05:00","2023","04","19","05:00","1.7","","-4.8","","62","","","","9","","24","","24.1","","98.76","","","","","","NA"
"-97.24","49.91","WINNIPEG INTL A","5023227","2023-04-19 06:00","2023","04","19","06:00","1.3","","-4.0","","68","","","","9","","28","","24.1","","98.68","","","","","","Cloudy"
"-97.24","49.91","WINNIPEG INTL A","5023227","2023-04-19 07:00","2023","04","19","07:00","1.4","","-5.1","","62","","","","8","","28","","24.1","","98.64","","","","","","NA"
"-97.24","49.91","WINNIPEG INTL A","5023227","2023-04-19 08:00","2023","04","19","08:00","1.3","","-6.6","","56","","","","8","","31","","24.1","","98.61","","","","","","NA"
"-97.24","49.91","WINNIPEG INTL A","5023227","2023-04-19 09:00","2023","04","19","09:00","1.4","","-9.1","","46","","","","9","","27","","24.1","","98.65","","","","","","Cloudy"
"-97.24","49.91","WINNIPEG INTL A","5023227","2023-04-19 10:00","2023","04","19","10:00","1.5","","-8.2","","49","","","","8","","32","","24.1","","98.59","","","","","","NA"
"-97.24","49.91","WINNIPEG INTL A","5023227","2023-04-19 11:00","2023","04","19","11:00","2.1","","-7.1","","51","","","","9","","41","","24.1","","98.56","","","","","","NA"
"-97.24","49.91","WINNIPEG INTL A","5023227","2023-04-19 12:00","2023","04","19","12:00","2.2","","-7.0","","51","","","","11","","44","","12.9","","98.54","","","","","","Snow"
"-97.24","49.91","WINNIPEG INTL A","5023227","2023-04-19 13:00","2023","04","19","13:00","0.0","","-2.9","","81","","","","10","","41","","2.4","","98.64","","","","-7","","Snow"
"-97.24","49.91","WINNIPEG INTL A","5023227","2023-04-19 14:00","2023","04","19","14:00","0.5","","-2.8","","79","","","","9","","37","","24.1","","98.61","","","","","","NA"
"-97.24","49.91","WINNIPEG INTL A","5023227","2023-04-19 15:00","2023","04","19","15:00","0.7","","-2.8","","77","","","","9","","37","","24.1","","98.61","","","","","","Cloudy"
"-97.24","49.91","WINNIPEG INTL A","5023227","2023-04-19 16:00","2023","04","19","16:00","0.8","","-2.8","","77","","","","8","","28","","24.1","","98.67","","","","","","NA"
"-97.24","49.91","WINNIPEG INTL A","5023227","2023-04-19 17:00","2023","04","19","17:00","1.0","","-2.9","","75","","","","8","","26","","24.1","","98.70","","","","","","NA"
"-97.24","49.91","WINNIPEG INTL A","5023227","2023-04-19 18:00","2023","04","19","18:00","0.8","","-3.4","","74","","","","8","","30","","24.1","","98.72","","","","","","Cloudy"
"-97.24","49.91","WINNIPEG INTL A","5023227","2023-04-19 19:00","2023","04","19","19:00","0.8","","-4.0","","70","","","","7","","28","","24.1","","98.74","","","","","","NA"
"-97.24","49.91","WINNIPEG INTL A","5023227","2023-04-19 20:00","2023","04","19","20:00","1.2","","-4.3","","67","","","","7","","26","","24.1","","98.76","","","","","","NA"
"-97.24","49.91","WINNIPEG INTL A","5023227","2023-04-19 21:00","2023","04","19","21:00","1.4","","-3.9","","68","","","","7","","24","","24.1","","98.76","","","","","","Cloudy"
"-97.24","49.91","WINNIPEG INTL A","5023227","2023-04-19 22:00","2023","04","19","22:00","1.8","","-3.9","","66","","","","7","","22","","24.1","","98.80","","","","","","NA"
"-97.24","49.91","WINNIPEG INTL A","5023227","2023-04-19 23:00","2023","04","19","23:00","2.2","","-4.4","","61","","","","7","","21","","24.1","","98.79","","","","","","NA"
"-97.24","49.91","WINNIPEG INTL A","5023227","2023-04-20 00:00","2023","04","20","00:00","2.2","","-4.6","","61","","","","7","","16","","24.1","","98.81","","","","","","Cloudy"
"-97.24","49.91","WINNIPEG INTL A","5023227","2023-04-20 01:00","2023","04","20","01:00","2.8","","-4.3","","59","","","","8","","16","","24.1","","98.81","","","","","","NA"
"-97.24","49.91","WINNIPEG INTL A","5023227","2023-04-20 02:00","2023","04","20","02:00","3.3","","-3.1","","63","","","","12","","24","","24.1","","98.81","","","","","","NA"
"-97.24","49.91","WINNIPEG INTL A","5023227","2023-04-20 03:00","2023","04","20","03:00","1.2","","-0.3","","90","","","","11","","24","","9.7","","98.85","","","","","","Snow"
"-97.24","49.91","WINNIPEG INTL A","5023227","2023-04-20 04:00","2023","04","20","04:00","0.2","","0.0","","98","","","","10","","19","","4.0","","98.79","","","","","","Snow,Blowing Snow"
"-97.24","49.91","WINNIPEG INTL A","5023227","2023-04-20 05:00","2023","04","20","05:00","0.3","","-0.1","","97","","","","6","","7","","24.1","","98.76","","","","","","NA"
"-97.24","49.91","WINNIPEG INTL A","5023227","2023-04-20 06:00","2023","04","20","06:00","0.3","","-0.5","","94","","","","4","","18","","24.1","","98.72","","","","","","Cloudy"
"-97.24","49.91","WINNIPEG INTL A","5023227","2023-04-20 07:00","2023","04","20","07:00","1.3","","-2.3","","77","","","","7","","22","","24.1","","98.77","","","","","","NA"
"-97.24","49.91","WINNIPEG INTL A","5023227","2023-04-20 08:00","2023","04","20","08:00","1.2","","-2.4","","77","","","","10","","17","","19.3","","98.79","","","","","","Snow Showers,Snow Pellets"
"-97.24","49.91","WINNIPEG INTL A","5023227","2023-04-20 09:00","2023","04","20","09:00","1.6","","-2.5","","74","","","","5","","16","","24.1","","98.79","","","","","","Cloudy"
"-97.24","49.91","WINNIPEG INTL A","5023227","2023-04-20 10:00","2023","04","20","10:00","3.0","","-2.7","","66","","","","5","","18","","24.1","","98.76","","","","","","NA"
"-97.24","49.91","WINNIPEG INTL A","5023227","2023-04-20 11:00","2023","04","20","11:00","3.2","","-3.1","","64","","","","6","","18","","9.7","","98.74","","","","","","Snow"
"-97.24","49.91","WINNIPEG INTL A","5023227","2023-04-20 12:00","2023","04","20","12:00","2.3","","-2.8","","69","","","","8","","33","","3.2","","98.75","","","","","","Snow"
"-97.24","49.91","WINNIPEG INTL A","5023227","2023-04-20 13:00","2023","04","20","13:00","1.8","","-1.1","","81","","","","7","","24","","2.4","","98.70","","","","","","Snow"
"-97.24","49.91","WINNIPEG INTL A","5023227","2023-04-20 14:00","2023","04","20","14:00","2.5","","-2.7","","69","","","","6","","31","","14.5","","98.66","","","","","","Snow"
"-97.24","49.91","WINNIPEG INTL A","5023227","2023-04-20 15:00","2023","04","20","15:00","2.6","","-2.8","","67","","","","6","","39","","14.5","","98.66","","","","","","Snow"
"-97.24","49.91","WINNIPEG INTL A","5023227","2023-04-20 16:00","2023","04","20","16:00","2.7","","-4.2","","60","","","","5","","33","","6.4","","98.63","","","","","","Snow"
"-97.24","49.91","WINNIPEG INTL A","5023227","2023-04-20 17:00","2023","04","20","17:00","2.0","","-4.1","","64","","","","6","","41","","6.4","","98.66","","","","","","Snow Showers"
"-97.24","49.91","WINNIPEG INTL A","5023227","2023-04-20 18:00","2023","04","20","18:00","0.0","","-1.4","","90","","","","5","","31","","2.4","","98.71","","","","-7","","Snow"
"-97.24","49.91","WINNIPEG INTL A","5023227","2023-04-20 19:00","2023","04","20","19:00","0.2","","-2.3","","83","","","","4","","33","","3.2","","98.70","","","","","","Snow"
"-97.24","49.91","WINNIPEG INTL A","5023227","2023-04-20 20:00","2023","04","20","20:00","0.3","","-2.8","","79","","","","4","","26","","6.4","","98.70","","","","","","Snow,Blowing Snow"
"-97.24","49.91","WINNIPEG INTL A","5023227","2023-04-20 21:00","2023","04","20","21:00","1.7","","-4.7","","63","","","","7","","36","","16.1","","98.68","","","","","","Snow"
"-97.24","49.91","WINNIPEG INTL A","5023227","2023-04-20 22:00","2023","04","20","22:00","1.5","","-5.0","","62","","","","7","","37","","24.1","","98.65","","","","","","NA"
"-97.24","49.91","WINNIPEG INTL A","5023227","2023-04-20 23:00","2023","04","20","23:00","1.5","","-5.5","","60","","","","6","","35","","24.1","","98.60","","","","","","NA"
"-97.24","49.91","WINNIPEG INTL A","5023227","2023-04-21 00:00","2023","04","21","00:00","0.2","","-3.2","","78","","","","4","","37","","4.8","","98.62","","","","","","Snow,Blowing Snow"
"-97.24","49.91","WINNIPEG INTL A","5023227","2023-04-21 01:00","2023","04","21","01:00","-0.4","","-2.1","","88","","","","3","","29","","4.8","","98.62","","","","-7","","Snow,Blowing Snow"
"-97.24","49.91","WINNIPEG INTL A","5023227","2023-04-21 02:00","2023","04","21","02:00","-0.6","","-2.5","","87","","","","3","","26","","4.8","","98.58","","","","-7","","Snow,Blowing Snow"
"-97.24","49.91","WINNIPEG INTL A","5023227","2023-04-21 03:00","2023","04","21","03:00","-0.3","","-4.0","","76","","","","3","","27","","4.8","","98.55","","","","-7","","Snow,Blowing Snow"
"-97.24","49.91","WINNIPEG INTL A","5023227","2023-04-21 04:00","2023","04","21","04:00","-0.2","","-5.2","","69","","","","3","","35","","3.2","","98.52","","","","-7","","Snow"
"-97.24","49.91","WINNIPEG INTL A","5023227","2023-04-21 05:00","2023","04","21","05:00","-1.0","","-3.4","","84","","","","3","","46","","4.8","","98.52","","","","-9","","Snow,Blowing Snow"
"-97.24","49.91","WINNIPEG INTL A","5023227","2023-04-21 06:00","2023","04","21","06:00","-1.1","","-3.8","","82","","","","2","","49","","4.0","","98.54","","","","-10","","Snow,Blowing Snow"
"-97.24","49.91","WINNIPEG INTL A","5023227","2023-04-21 07:00","2023","04","21","07:00","-1.4","","-3.1","","88","","","","2","","39","","4.0","","98.58","","","","-9","","Snow,Blowing Snow"
"-97.24","49.91","WINNIPEG INTL A","5023227","2023-04-21 08:00","2023","04","21","08:00","-0.8","","-4.9","","74","","","","2","","43","","8.1","","98.56","","","","-9","","Snow,Blowing Snow"
"-97.24","49.91","WINNIPEG INTL A","5023227","2023-04-21 09:00","2023","04","21","09:00","-0.8","","-4.4","","77","","","","2","","52","","3.2","","98.57","","","","-9","","Snow,Blowing Snow"
"-97.24","49.91","WINNIPEG INTL A","5023227","2023-04-21 10:00","2023","04","21","10:00","-0.3","","-3.3","","80","","","","2","","49","","3.2","","98.57","","","","-8","","Snow,Blowing Snow"
"-97.24","49.91","WINNIPEG INTL A","5023227","2023-04-21 11:00","2023","04","21","11:00","0.9","","-2.0","","81","","","","2","","46","","8.1","","98.56","","","","","","Blowing Snow"
"-97.24","49.91","WINNIPEG INTL A","5023227","2023-04-21 12:00","2023","04","21","12:00","2.6","","-3.5","","64","","","","2","","48","","24.1","","98.53","","","","","","Cloudy"
"-97.24","49.91","WINNIPEG INTL A","5023227","2023-04-21 13:00","2023","04","21","13:00","3.6","","-4.6","","55","","","","2","","45","","24.1","","98.55","","","","","","NA"
"-97.24","49.91","WINNIPEG INTL A","5023227","2023-04-21 14:00","2023","04","21","14:00","4.6","","-3.9","","54","","","","2","","46","","24.1","","98.55","","","","","","NA"
"-97.24","49.91","WINNIPEG INTL A","5023227","2023-04-21 15:00","2023","04","21","15:00","5.5","","-4.3","","49","","","","2","","46","","24.1","","98.57","","","","","","Mostly Cloudy"
"-97.24","49.91","WINNIPEG INTL A","5023227","2023-04-21 16:00","2023","04","21","16:00","5.7","","-4.3","","49","","","","2","","43","","24.1","","98.59","","","","","","NA"
"-97.24","49.91","WINNIPEG INTL A","5023227","2023-04-21 17:00","2023","04","21","17:00","5.6","","-3.6","","52","","","","2","","34","","24.1","","98.63","","","","","","NA"
"-97.24","49.91","WINNIPEG INTL A","5023227","2023-04-21 18:00","2023","04","21","18:00","5.6","","-4.6","","48","","","","3","","42","","24.1","","98.69","","","","","","Mostly Cloudy"
"-97.24","49.91","WINNIPEG INTL A","5023227","2023-04-21 19:00","2023","04","21","19:00","4.0","","-3.7","","57","","","","1","","24","","24.1","","98.75","","","","","","NA"
"-97.24","49.91","WINNIPEG INTL A","5023227","2023-04-21 20:00","2023","04","21","20:00","3.6","","-4.9","","54","","","","36","","29","","24.1","","98.83","","","","","","NA"
"-97.24","49.91","WINNIPEG INTL A","5023227","2023-04-21 21:00","2023","04","21","21:00","1.9","","-4.7","","62","","","","35","","27","","24.1","","98.90","","","","","","Mainly Clear"
"-97.24","49.91","WINNIPEG INTL A","5023227","2023-04-21 22:00","2023","04","21","22:00","1.0","","-5.3","","63","","","","36","","21","","24.1","","98.96","","","","","","NA"
"-97.24","49.91","WINNIPEG INTL A","5023227","2023-04-21 23:00","2023","04","21","23:00","0.2","","-5.2","","68","","","","36","","19","","24.1","","98.98","","","","","","NA"
"-97.24","49.91","WINNIPEG INTL A","5023227","2023-04-22 00:00","2023","04","22","00:00","-0.4","","-5.5","","69","","","","36","","18","","24.1","","99.03","","","","-5","","Clear"
"-97.24","49.91","WINNIPEG INTL A","5023227","2023-04-22 01:00","2023","04","22","01:00","-1.1","","-6.0","","69","","","","36","","19","","24.1","","99.04","","","","-6","","NA"
"-97.24","49.91","WINNIPEG INTL A","5023227","2023-04-22 02:00","2023","04","22","02:00","-1.8","","-5.7","","75","","","","36","","19","","24.1","","99.07","","","","-7","","NA"
"-97.24","49.91","WINNIPEG INTL A","5023227","2023-04-22 03:00","2023","04","22","03:00","-2.4","","-5.5","","79","","","","36","","18","","24.1","","99.08","","","","-8","","Clear"
"-97.24","49.91","WINNIPEG INTL A","5023227","2023-04-22 04:00","2023","04","22","04:00","-3.3","","-5.8","","83","","","","36","","16","","24.1","","99.12","","","","-9","","NA"
"-97.24","49.91","WINNIPEG INTL A","5023227","2023-04-22 05:00","2023","04","22","05:00","-3.7","","-5.8","","85","","","","35","","15","","24.1","","99.15","","","","-9","","NA"
"-97.24","49.91","WINNIPEG INTL A","5023227","2023-04-22 06:00","2023","04","22","06:00","-3.7","","-6.0","","84","","","","35","","18","","24.1","","99.20","","","","-10","","Mainly Clear"
"-97.24","49.91","WINNIPEG INTL A","5023227","2023-04-22 07:00","2023","04","22","07:00","-2.8","","-6.3","","77","","","","36","","24","","24.1","","99.23","","","","-9","","NA"
"-97.24","49.91","WINNIPEG INTL A","5023227","2023-04-22 08:00","2023","04","22","08:00","-2.4","","-6.3","","75","","","","1","","25","","24.1","","99.23","","","","-9","","NA"
"-97.24","49.91","WINNIPEG INTL A","5023227","2023-04-22 09:00","2023","04","22","09:00","-1.5","","-6.7","","68","","","","36","","22","","24.1","","99.21","","","","-7","","Mostly Cloudy"
"-97.24","49.91","WINNIPEG INTL A","5023227","2023-04-22 10:00","2023","04","22","10:00","-1.3","","-6.9","","66","","","","36","","16","","24.1","","99.22","","","","-6","","NA"
"-97.24","49.91","WINNIPEG INTL A","5023227","2023-04-22 11:00","2023","04","22","11:00","-0.7","","-6.7","","64","","","","34","","19","","24.1","","99.21","","","","-6","","NA"
"-97.24","49.91","WINNIPEG INTL A","5023227","2023-04-22 12:00","2023","04","22","12:00","1.4","","-4.9","","63","","","","36","","18","","24.1","","99.19","","","","","","Mostly Cloudy"
"-97.24","49.91","WINNIPEG INTL A","5023227","2023-04-22 13:00","2023","04","22","13:00","1.8","","-5.4","","59","","","","1","","18","","24.1","","99.15","","","","","","NA"
"-97.24","49.91","WINNIPEG INTL A","5023227","2023-04-22 14:00","2023","04","22","14:00","2.9","","-5.2","","56","","","","35","","14","","24.1","","99.13","","","","","","NA"
"-97.24","49.91","WINNIPEG INTL A","5023227","2023-04-22 15:00","2023","04","22","15:00","4.3","","-7.0","","44","","","","36","","26","","24.1","","99.11","","","","","","Mainly Clear"
"-97.24","49.91","WINNIPEG INTL A","5023227","2023-04-22 16:00","2023","04","22","16:00","3.7","","-3.8","","58","","","","4","","15","","24.1","","99.09","","","","","","NA"
"-97.24","49.91","WINNIPEG INTL A","5023227","2023-04-22 17:00","2023","04","22","17:00","3.2","","-4.4","","58","","","","4","","16","","24.1","","99.06","","","","","","NA"
"-97.24","49.91","WINNIPEG INTL A","5023227","2023-04-22 18:00","2023","04","22","18:00","2.4","","-4.5","","61","","","","4","","17","","24.1","","99.07","","","","","","Mainly Clear"
"-97.24","49.91","WINNIPEG INTL A","5023227","2023-04-22 19:00","2023","04","22","19:00","1.5","","-4.5","","65","","","","4","","10","","24.1","","99.06","","","","","","NA"
"-97.24","49.91","WINNIPEG INTL A","5023227","2023-04-22 20:00","2023","04","22","20:00","-1.2","","-5.7","","71","","","","8","","8","","24.1","","99.08","","","","-4","","NA"
"-97.24","49.91","WINNIPEG INTL A","5023227","2023-04-22 21:00","2023","04","22","21:00","-1.5","","-5.1","","77","","","","2","","3","","24.1","","99.10","","","","-3","","Clear"
"-97.24","49.91","WINNIPEG INTL A","5023227","2023-04-22 22:00","2023","04","22","22:00","-1.9","","-4.7","","81","","","","30","","5","","24.1","","99.08","","","","-4","","NA"
"-97.24","49.91","WINNIPEG INTL A","5023227","2023-04-22 23:00","2023","04","22","23:00","-2.1","","-4.3","","85","","","","32","","7","","24.1","","99.05","","","","-5","","NA"
"-97.24","49.91","WINNIPEG INTL A","5023227","2023-04-23 00:00","2023","04","23","00:00","-2.9","","-5.2","","84","","","","31","","7","","24.1","","99.02","","","","-6","","Mainly Clear"
"-97.24","49.91","WINNIPEG INTL A","5023227","2023-04-23 01:00","2023","04","23","01:00","-3.8","","-5.5","","88","","","","3","","7","","24.1","","99.00","","","","-7","","NA"
"-97.24","49.91","WINNIPEG INTL A","5023227","2023-04-23 02:00","2023","04","23","02:00","-4.2","","-5.3","","92","","","","34","","7","","24.1","","99.00","","","","-7","","NA"
"-97.24","49.91","WINNIPEG INTL A","5023227","2023-04-23 03:00","2023","04","23","03:00","-4.1","","-5.2","","92","","","","33","","8","","24.1","","98.99","","","","-8","","Clear"
"-97.24","49.91","WINNIPEG INTL A","5023227","2023-04-23 04:00","2023","04","23","04:00","-4.5","","-5.9","","90","","","","32","","7","","24.1","","98.99","","","","-8","","NA"
"-97.24","49.91","WINNIPEG INTL A","5023227","2023-04-23 05:00","2023","04","23","05:00","-4.3","","-5.5","","92","","","","29","","9","","24.1","","98.99","","","","-8","","NA"
"-97.24","49.91","WINNIPEG INTL A","5023227","2023-04-23 06:00","2023","04","23","06:00","-3.6","","-4.5","","93","","","","35","","8","","24.1","","98.99","","","","-7","","Mostly Cloudy"
"-97.24","49.91","WINNIPEG INTL A","5023227","2023-04-23 07:00","2023","04","23","07:00","-1.1","","-6.0","","69","","","","36","","15","","24.1","","99.04","","","","-6","","NA"
"-97.24","49.91","WINNIPEG INTL A","5023227","2023-04-23 08:00","2023","04","23","08:00","0.2","","-5.2","","67","","","","36","","14","","24.1","","99.05","","","","","","NA"
"-97.24","49.91","WINNIPEG INTL A","5023227","2023-04-23 09:00","2023","04","23","09:00","1.9","","-5.0","","60","","","","1","","10","","24.1","","99.04","","","","","","Mainly Clear"
"-97.24","49.91","WINNIPEG INTL A","5023227","2023-04-23 10:00","2023","04","23","10:00","2.4","","-5.2","","57","","","","33","","20","","24.1","","99.03","","","","","","NA"
"-97.24","49.91","WINNIPEG INTL A","5023227","2023-04-23 11:00","2023","04","23","11:00","2.8","","-5.1","","56","","","","2","","10","","24.1","","99.03","","","","","","NA"
"-97.24","49.91","WINNIPEG INTL A","5023227","2023-04-23 12:00","2023","04","23","12:00","1.6","","-2.9","","72","","","","34","","20","","24.1","","99.05","","","","","","Mostly Cloudy"
"-97.24","49.91","WINNIPEG INTL A","5023227","2023-04-23 13:00","2023","04","23","13:00","3.9","","-5.0","","52","","","","7","","5","","24.1","","99.01","","","","","","NA"
"-97.24","49.91","WINNIPEG INTL A","5023227","2023-04-23 14:00","2023","04","23","14:00","3.0","","-5.0","","56","","","","1","","15","","24.1","","99.02","","","","","","NA"
"-97.24","49.91","WINNIPEG INTL A","5023227","2023-04-23 15:00","2023","04","23","15:00","4.7","","-6.6","","44","","","","33","","7","","24.1","","99.02","","","","","","Cloudy"
"-97.24","49.91","WINNIPEG INTL A","5023227","2023-04-23 16:00","2023","04","23","16:00","3.5","","-5.2","","53","","","","4","","15","","24.1","","99.03","","","","","","NA"
"-97.24","49.91","WINNIPEG INTL A","5023227","2023-04-23 17:00","2023","04","23","17:00","3.7","","-5.7","","50","","","","35","","14","","24.1","","99.05","","","","","","NA"
"-97.24","49.91","WINNIPEG INTL A","5023227","2023-04-23 18:00","2023","04","23","18:00","3.2","","-5.6","","53","","","","35","","12","","24.1","","99.09","","","","","","Mostly Cloudy"
"-97.24","49.91","WINNIPEG INTL A","5023227","2023-04-23 19:00","2023","04","23","19:00","2.4","","-5.3","","57","","","","3","","16","","24.1","","99.10","","","","","","NA"
"-97.24","49.91","WINNIPEG INTL A","5023227","2023-04-23 20:00","2023","04","23","20:00","0.6","","-5.2","","65","","","","4","","14","","24.1","","99.14","","","","","","NA"
"-97.24","49.91","WINNIPEG INTL A","5023227","2023-04-23 21:00","2023","04","23","21:00","0.2","","-5.4","","66","","","","4","","10","","24.1","","99.18","","","","","","Mostly Cloudy"
"-97.24","49.91","WINNIPEG INTL A","5023227","2023-04-23 22:00","2023","04","23","22:00","0.2","","-5.4","","66","","","","5","","13","","24.1","","99.21","","","","","","NA"
"-97.24","49.91","WINNIPEG INTL A","5023227","2023-04-23 23:00","2023","04","23","23:00","-0.1","","-4.9","","70","","","","6","","9","","24.1","","99.22","","","","-3","","NA"
"-97.24","49.91","WINNIPEG INTL A","5023227","2023-04-24 00:00","2023","04","24","00:00","-0.1","","-4.4","","73","","","","3","","11","","24.1","","99.22","","","","-4","","Cloudy"
"-97.24","49.91","WINNIPEG INTL A","5023227","2023-04-24 01:00","2023","04","24","01:00","-0.4","","-3.7","","79","","","","3","","3","","24.1","","99.24","","","","-1","","NA"
"-97.24","49.91","WINNIPEG INTL A","5023227","2023-04-24 02:00","2023","04","24","02:00","-0.4","","-3.3","","81","","","","33","","10","","24.1","","99.26","","","","-4","","NA"
"-97.24","49.91","WINNIPEG INTL A","5023227","2023-04-24 03:00","2023","04","24","03:00","-0.5","","-4.1","","77","","","","35","","11","","24.1","","99.28","","","","-4","","Cloudy"
"-97.24","49.91","WINNIPEG INTL A","5023227","2023-04-24 04:00","2023","04","24","04:00","-0.7","","-3.8","","79","","","","32","","11","","24.1","","99.32","","","","-4","","NA"
"-97.24","49.91","WINNIPEG INTL A","5023227","2023-04-24 05:00","2023","04","24","05:00","-0.8","","-4.3","","78","","","","1","","10","","24.1","","99.33","","","","-4","","NA"
"-97.24","49.91","WINNIPEG INTL A","5023227","2023-04-24 06:00","2023","04","24","06:00","-0.6","","-4.5","","75","","","","1","","14","","24.1","","99.36","","","","-5","","Mostly Cloudy"
"-97.24","49.91","WINNIPEG INTL A","5023227","2023-04-24 07:00","2023","04","24","07:00","-0.2","","-4.5","","73","","","","3","","18","","24.1","","99.42","","","","-5","","NA"
"-97.24","49.91","WINNIPEG INTL A","5023227","2023-04-24 08:00","2023","04","24","08:00","1.2","","-4.7","","65","","","","1","","21","","24.1","","99.45","","","","","","NA"
"-97.24","49.91","WINNIPEG INTL A","5023227","2023-04-24 09:00","2023","04","24","09:00","2.0","","-5.6","","57","","","","2","","22","","24.1","","99.44","","","","","","Mainly Clear"
"-97.24","49.91","WINNIPEG INTL A","5023227","2023-04-24 10:00","2023","04","24","10:00","2.9","","-5.9","","52","","","","2","","23","","24.1","","99.46","","","","","","NA"
"-97.24","49.91","WINNIPEG INTL A","5023227","2023-04-24 11:00","2023","04","24","11:00","3.2","","-6.4","","49","","","","4","","16","","24.1","","99.47","","","","","","NA"
"-97.24","49.91","WINNIPEG INTL A","5023227","2023-04-24 12:00","2023","04","24","12:00","3.4","","-6.8","","47","","","","3","","9","","24.1","","99.46","","","","","","Mostly Cloudy"
"-97.24","49.91","WINNIPEG INTL A","5023227","2023-04-24 13:00","2023","04","24","13:00","4.8","","-5.5","","47","","","","3","","10","","24.1","","99.42","","","","","","NA"
"-97.24","49.91","WINNIPEG INTL A","5023227","2023-04-24 14:00","2023","04","24","14:00","4.7","","-6.4","","45","","","","4","","15","","24.1","","99.43","","","","","","NA"
"-97.24","49.91","WINNIPEG INTL A","5023227","2023-04-24 15:00","2023","04","24","15:00","6.0","","-6.6","","40","","","","31","","8","","24.1","","99.44","","","","","","Mostly Cloudy"
"-97.24","49.91","WINNIPEG INTL A","5023227","2023-04-24 16:00","2023","04","24","16:00","5.4","","-5.8","","44","","","","2","","12","","24.1","","99.43","","","","","","NA"
"-97.24","49.91","WINNIPEG INTL A","5023227","2023-04-24 17:00","2023","04","24","17:00","6.0","","-4.6","","47","","","","33","","14","","24.1","","99.44","","","","","","NA"
"-97.24","49.91","WINNIPEG INTL A","5023227","2023-04-24 18:00","2023","04","24","18:00","4.7","","-4.5","","51","","","","1","","16","","24.1","","99.47","","","","","","Mostly Cloudy"
"-97.24","49.91","WINNIPEG INTL A","5023227","2023-04-24 19:00","2023","04","24","19:00","3.9","","-4.8","","53","","","","36","","15","","24.1","","99.46","","","","","","NA"
"-97.24","49.91","WINNIPEG INTL A","5023227","2023-04-24 20:00","2023","04","24","20:00","1.0","","-4.3","","67","","","","3","","13","","24.1","","99.52","","","","","","NA"
"-97.24","49.91","WINNIPEG INTL A","5023227","2023-04-24 21:00","2023","04","24","21:00","0.4","","-5.1","","67","","","","3","","9","","24.1","","99.57","","","","","","Clear"
"-97.24","49.91","WINNIPEG INTL A","5023227","2023-04-24 22:00","2023","04","24","22:00","-2.5","","-4.7","","84","","","","31","","14","","24.1","","99.57","","","","-7","","NA"
"-97.24","49.91","WINNIPEG INTL A","5023227","2023-04-24 23:00","2023","04","24","23:00","-3.5","","-4.9","","90","","","","34","","10","","24.1","","99.56","","","","-7","","NA"
"-97.24","49.91","WINNIPEG INTL A","5023227","2023-04-25 00:00","2023","04","25","00:00","-2.2","","-4.8","","82","","","","32","","8","","24.1","","99.59","","","","-5","","Clear"
"-97.24","49.91","WINNIPEG INTL A","5023227","2023-04-25 01:00","2023","04","25","01:00","-4.0","","-5.4","","90","","","","36","","7","","24.1","","99.60","","","","-7","","NA"
"-97.24","49.91","WINNIPEG INTL A","5023227","2023-04-25 02:00","2023","04","25","02:00","-3.4","","-5.2","","87","","","","2","","9","","24.1","","99.60","","","","-7","","NA"
"-97.24","49.91","WINNIPEG INTL A","5023227","2023-04-25 03:00","2023","04","25","03:00","-3.6","","-5.2","","88","","","","2","","4","","24.1","","99.62","","","","-5","","Clear"
"-97.24","49.91","WINNIPEG INTL A","5023227","2023-04-25 04:00","2023","04","25","04:00","-4.2","","-5.5","","91","","","","3","","3","","24.1","","99.64","","","","-5","","NA"
"-97.24","49.91","WINNIPEG INTL A","5023227","2023-04-25 05:00","2023","04","25","05:00","-4.5","","-5.1","","96","","","","5","","3","","24.1","","99.68","","","","-6","","NA"
"-97.24","49.91","WINNIPEG INTL A","5023227","2023-04-25 06:00","2023","04","25","06:00","-4.1","","-5.4","","91","","","","4","","4","","24.1","","99.74","","","","-6","","Clear"
"-97.24","49.91","WINNIPEG INTL A","5023227","2023-04-25 07:00","2023","04","25","07:00","-1.0","","-3.7","","82","","","","36","","1","","24.1","","99.77","","","","-1","","NA"
"-97.24","49.91","WINNIPEG INTL A","5023227","2023-04-25 08:00","2023","04","25","08:00","2.2","","-3.8","","65","","","","36","","2","","24.1","","99.79","","","","","","NA"
"-97.24","49.91","WINNIPEG INTL A","5023227","2023-04-25 09:00","2023","04","25","09:00","4.8","","-4.2","","52","","","","36","","1","","24.1","","99.78","","","","","","Mainly Clear"
"-97.24","49.91","WINNIPEG INTL A","5023227","2023-04-25 10:00","2023","04","25","10:00","6.7","","-5.8","","41","","","","23","","8","","24.1","","99.79","","","","","","NA"
"-97.24","49.91","WINNIPEG INTL A","5023227","2023-04-25 11:00","2023","04","25","11:00","7.8","","-4.9","","40","","","","22","","7","","24.1","","99.78","","","","","","NA"
"-97.24","49.91","WINNIPEG INTL A","5023227","2023-04-25 12:00","2023","04","25","12:00","7.6","","-5.2","","40","","","","22","","18","","24.1","","99.75","","","","","","Mostly Cloudy"
"-97.24","49.91","WINNIPEG INTL A","5023227","2023-04-25 13:00","2023","04","25","13:00","8.3","","-4.9","","39","","","","25","","15","","24.1","","99.73","","","","","","NA"
"-97.24","49.91","WINNIPEG INTL A","5023227","2023-04-25 14:00","2023","04","25","14:00","9.6","","-5.5","","34","","","","23","","10","","24.1","","99.69","","","","","","NA"
"-97.24","49.91","WINNIPEG INTL A","5023227","2023-04-25 15:00","2023","04","25","15:00","9.4","","-4.5","","37","","","","23","","15","","24.1","","99.66","","","","","","Mostly Cloudy"
"-97.24","49.91","WINNIPEG INTL A","5023227","2023-04-25 16:00","2023","04","25","16:00","8.3","","-4.3","","40","","","","20","","14","","24.1","","99.64","","","","","","NA"
"-97.24","49.91","WINNIPEG INTL A","5023227","2023-04-25 17:00","2023","04","25","17:00","9.3","","-3.3","","41","","","","18","","13","","24.1","","99.58","","","","","","NA"
"-97.24","49.91","WINNIPEG INTL A","5023227","2023-04-25 18:00","2023","04","25","18:00","8.5","","-4.3","","40","","","","22","","16","","24.1","","99.57","","","","","","Mainly Clear"
"-97.24","49.91","WINNIPEG INTL A","5023227","2023-04-25 19:00","2023","04","25","19:00","6.8","","-3.6","","47","","","","21","","12","","24.1","","99.54","","","","","","NA"
"-97.24","49.91","WINNIPEG INTL A","5023227","2023-04-25 20:00","2023","04","25","20:00","5.9","","-3.1","","53","","","","23","","7","","24.1","","99.53","","","","","","NA"
"-97.24","49.91","WINNIPEG INTL A","5023227","2023-04-25 21:00","2023","04","25","21:00","5.2","","-2.5","","57","","","","22","","7","","24.1","","99.53","","","","","","Mainly Clear"
"-97.24","49.91","WINNIPEG INTL A","5023227","2023-04-25 22:00","2023","04","25","22:00","4.0","","-2.3","","64","","","","22","","8","","24.1","","99.53","","","","","","NA"
"-97.24","49.91","WINNIPEG INTL A","5023227","2023-04-25 23:00","2023","04","25","23:00","2.2","","-2.3","","72","","","","18","","6","","24.1","","99.48","","","","","","NA"
"-97.24","49.91","WINNIPEG INTL A","5023227","2023-04-26 00:00","2023","04","26","00:00","1.2","","-2.2","","78","","","","18","","10","","24.1","","99.46","","","","","","Mainly Clear"
"-97.24","49.91","WINNIPEG INTL A","5023227","2023-04-26 01:00","2023","04","26","01:00","1.0","","-2.4","","79","","","","18","","10","","24.1","","99.42","","","","","","NA"
"-97.24","49.91","WINNIPEG INTL A","5023227","2023-04-26 02:00","2023","04","26","02:00","0.2","","-2.7","","81","","","","16","","11","","24.1","","99.36","","","","","","NA"
"-97.24","49.91","WINNIPEG INTL A","5023227","2023-04-26 03:00","2023","04","26","03:00","-0.9","","-3.2","","84","","","","16","","16","","24.1","","99.31","","","","-6","","Clear"
"-97.24","49.91","WINNIPEG INTL A","5023227","2023-04-26 04:00","2023","04","26","04:00","-0.2","","-3.2","","80","","","","17","","15","","24.1","","99.30","","","","-5","","NA"
"-97.24","49.91","WINNIPEG INTL A","5023227","2023-04-26 05:00","2023","04","26","05:00","1.5","","-3.0","","72","","","","16","","20","","24.1","","99.21","","","","","","NA"
"-97.24","49.91","WINNIPEG INTL A","5023227","2023-04-26 06:00","2023","04","26","06:00","2.1","","-3.3","","68","","","","17","","24","","24.1","","99.11","","","","","","Mainly Clear"
"-97.24","49.91","WINNIPEG INTL A","5023227","2023-04-26 07:00","2023","04","26","07:00","4.5","","-3.0","","58","","","","18","","26","","24.1","","99.03","","","","","","NA"
"-97.24","49.91","WINNIPEG INTL A","5023227","2023-04-26 08:00","2023","04","26","08:00","5.0","","-2.4","","59","","","","18","","30","","24.1","","98.98","","","","","","NA"
"-97.24","49.91","WINNIPEG INTL A","5023227","2023-04-26 09:00","2023","04","26","09:00","7.3","","-2.0","","51","","","","17","","36","","24.1","","98.83","","","","","","Cloudy"
"-97.24","49.91","WINNIPEG INTL A","5023227","2023-04-26 10:00","2023","04","26","10:00","7.3","","-1.7","","53","","","","17","","36","","24.1","","98.70","","","","","","NA"
"-97.24","49.91","WINNIPEG INTL A","5023227","2023-04-26 11:00","2023","04","26","11:00","7.5","","-2.1","","50","","","","17","","42","","24.1","","98.55","","","","","","NA"
"-97.24","49.91","WINNIPEG INTL A","5023227","2023-04-26 12:00","2023","04","26","12:00","6.7","","-1.4","","56","","","","18","","40","","24.1","","98.52","","","","","","Cloudy"
"-97.24","49.91","WINNIPEG INTL A","5023227","2023-04-26 13:00","2023","04","26","13:00","4.5","","1.9","","83","","","","18","","54","","16.1","","98.43","","","","","","Rain Showers"
"-97.24","49.91","WINNIPEG INTL A","5023227","2023-04-26 14:00","2023","04","26","14:00","3.7","","2.5","","92","","","","18","","34","","4.8","","98.40","","","","","","Moderate Rain Showers,Fog"
"-97.24","49.91","WINNIPEG INTL A","5023227","2023-04-26 15:00","2023","04","26","15:00","4.1","","3.2","","94","","","","18","","31","","4.8","","98.33","","","","","","Moderate Rain Showers,Fog"
"-97.24","49.91","WINNIPEG INTL A","5023227","2023-04-26 16:00","2023","04","26","16:00","4.8","","4.0","","95","","","","22","","9","","9.7","","98.24","","","","","","Rain Showers,Fog"
"-97.24","49.91","WINNIPEG INTL A","5023227","2023-04-26 17:00","2023","04","26","17:00","6.0","","4.9","","93","","","","22","","16","","24.1","","98.18","","","","","","NA"
"-97.24","49.91","WINNIPEG INTL A","5023227","2023-04-26 18:00","2023","04","26","18:00","6.5","","4.5","","87","","","","24","","12","","24.1","","98.14","","","","","","Mostly Cloudy"
"-97.24","49.91","WINNIPEG INTL A","5023227","2023-04-26 19:00","2023","04","26","19:00","6.0","","3.7","","85","","","","25","","7","","24.1","","98.06","","","","","","NA"
"-97.24","49.91","WINNIPEG INTL A","5023227","2023-04-26 20:00","2023","04","26","20:00","3.2","","2.4","","95","","","","16","","11","","24.1","","98.05","","","","","","NA"
"-97.24","49.91","WINNIPEG INTL A","5023227","2023-04-26 21:00","2023","04","26","21:00","2.1","","1.8","","98","","","","15","","14","","24.1","","98.03","","","","","","Mainly Clear"
"-97.24","49.91","WINNIPEG INTL A","5023227","2023-04-26 22:00","2023","04","26","22:00","2.1","","1.9","","99","","","","16","","8","","24.1","","97.98","","","","","","NA"
"-97.24","49.91","WINNIPEG INTL A","5023227","2023-04-26 23:00","2023","04","26","23:00","2.3","","2.3","","100","","","","10","","10","","16.1","","97.94","","","","","","NA"
"-97.24","49.91","WINNIPEG INTL A","5023227","2023-04-27 00:00","2023","04","27","00:00","1.0","","1.0","","100","","","","16","","13","","0.4","","97.88","","","","","","Fog"
"-97.24","49.91","WINNIPEG INTL A","5023227","2023-04-27 01:00","2023","04","27","01:00","0.0","","0.0","","100","","","","16","","11","","0.8","","97.81","","","","-4","","Fog"
"-97.24","49.91","WINNIPEG INTL A","5023227","2023-04-27 02:00","2023","04","27","02:00","-0.3","","-0.3","","100","","","","18","","13","","3.2","","97.76","","","","-4","","Fog"
"-97.24","49.91","WINNIPEG INTL A","5023227","2023-04-27 03:00","2023","04","27","03:00","0.0","","0.0","","100","","","","20","","11","","24.1","","97.75","","","","-4","","Mainly Clear"
"-97.24","49.91","WINNIPEG INTL A","5023227","2023-04-27 04:00","2023","04","27","04:00","0.4","","0.1","","98","","","","28","","4","","24.1","","97.77","","","","","","NA"
"-97.24","49.91","WINNIPEG INTL A","5023227","2023-04-27 05:00","2023","04","27","05:00","-0.6","","-0.7","","100","","","","15","","4","","24.1","","97.76","","","","-2","","NA"
"-97.24","49.91","WINNIPEG INTL A","5023227","2023-04-27 06:00","2023","04","27","06:00","-0.3","","-0.3","","100","","","","1","","5","","16.1","","97.77","","","","-2","","Mostly Cloudy"
"-97.24","49.91","WINNIPEG INTL A","5023227","2023-04-27 07:00","2023","04","27","07:00","-0.2","","-0.2","","100","","","","2","","13","","0.6","","97.86","","","","-4","","Freezing Fog"
"-97.24","49.91","WINNIPEG INTL A","5023227","2023-04-27 08:00","2023","04","27","08:00","0.8","","0.8","","100","","","","2","","19","","0.4","","97.93","","","","","","Fog"
"-97.24","49.91","WINNIPEG INTL A","5023227","2023-04-27 09:00","2023","04","27","09:00","3.0","","3.0","","100","","","","3","","18","","0.8","","97.97","","","","","","Fog"
"-97.24","49.91","WINNIPEG INTL A","5023227","2023-04-27 10:00","2023","04","27","10:00","5.9","","5.0","","94","","","","6","","18","","9.7","","98.02","","","","","","Fog"
"-97.24","49.91","WINNIPEG INTL A","5023227","2023-04-27 11:00","2023","04","27","11:00","7.6","","4.2","","79","","","","3","","19","","24.1","","98.07","","","","","","NA"
"-97.24","49.91","WINNIPEG INTL A","5023227","2023-04-27 12:00","2023","04","27","12:00","9.7","","4.3","","69","","","","3","","19","","24.1","","98.13","","","","","","Mostly Cloudy"
"-97.24","49.91","WINNIPEG INTL A","5023227","2023-04-27 13:00","2023","04","27","13:00","10.2","","3.3","","62","","","","36","","16","","24.1","","98.17","","","","","","NA"
"-97.24","49.91","WINNIPEG INTL A","5023227","2023-04-27 14:00","2023","04","27","14:00","9.9","","2.4","","60","","","","2","","11","","24.1","","98.21","","","","","","NA"
"-97.24","49.91","WINNIPEG INTL A","5023227","2023-04-27 15:00","2023","04","27","15:00","9.8","","2.6","","61","","","","3","","15","","24.1","","98.25","","","","","","Mostly Cloudy"
"-97.24","49.91","WINNIPEG INTL A","5023227","2023-04-27 16:00","2023","04","27","16:00","9.9","","2.8","","61","","","","36","","19","","24.1","","98.28","","","","","","NA"
"-97.24","49.91","WINNIPEG INTL A","5023227","2023-04-27 17:00","2023","04","27","17:00","9.1","","2.9","","65","","","","36","","21","","24.1","","98.37","","","","","","NA"
"-97.24","49.91","WINNIPEG INTL A","5023227","2023-04-27 18:00","2023","04","27","18:00","9.0","","2.7","","65","","","","2","","16","","24.1","","98.42","","","","","","Cloudy"
"-97.24","49.91","WINNIPEG INTL A","5023227","2023-04-27 19:00","2023","04","27","19:00","8.2","","3.5","","72","","","","1","","17","","24.1","","98.49","","","","","","NA"
"-97.24","49.91","WINNIPEG INTL A","5023227","2023-04-27 20:00","2023","04","27","20:00","6.5","","3.3","","80","","","","2","","17","","24.1","","98.57","","","","","","NA"
"-97.24","49.91","WINNIPEG INTL A","5023227","2023-04-27 21:00","2023","04","27","21:00","4.8","","3.4","","91","","","","1","","14","","24.1","","98.65","","","","","","Mostly Cloudy"
"-97.24","49.91","WINNIPEG INTL A","5023227","2023-04-27 22:00","2023","04","27","22:00","4.4","","3.1","","91","","","","2","","14","","24.1","","98.65","","","","","","NA"
"-97.24","49.91","WINNIPEG INTL A","5023227","2023-04-27 23:00","2023","04","27","23:00","4.3","","2.8","","90","","","","34","","12","","24.1","","98.69","","","","","","NA"
"-97.24","49.91","WINNIPEG INTL A","5023227","2023-04-28 00:00","2023","04","28","00:00","3.6","","2.5","","92","","","","31","","9","","24.1","","98.72","","","","","","Cloudy"
"-97.24","49.91","WINNIPEG INTL A","5023227","2023-04-28 01:00","2023","04","28","01:00","3.2","","2.3","","94","","","","30","","8","","24.1","","98.75","","","","","","NA"
"-97.24","49.91","WINNIPEG INTL A","5023227","2023-04-28 02:00","2023","04","28","02:00","3.1","","2.4","","95","","","","32","","12","","24.1","","98.76","","","","","","NA"
"-97.24","49.91","WINNIPEG INTL A","5023227","2023-04-28 03:00","2023","04","28","03:00","2.6","","2.2","","97","","","","34","","7","","24.1","","98.77","","","","","","Rain"
"-97.24","49.91","WINNIPEG INTL A","5023227","2023-04-28 04:00","2023","04","28","04:00","2.2","","1.9","","98","","","","31","","8","","24.1","","98.81","","","","","","NA"
"-97.24","49.91","WINNIPEG INTL A","5023227","2023-04-28 05:00","2023","04","28","05:00","2.5","","2.1","","97","","","","34","","13","","24.1","","98.83","","","","","","NA"
"-97.24","49.91","WINNIPEG INTL A","5023227","2023-04-28 06:00","2023","04","28","06:00","3.0","","2.0","","93","","","","1","","17","","24.1","","98.86","","","","","","Mostly Cloudy"
"-97.24","49.91","WINNIPEG INTL A","5023227","2023-04-28 07:00","2023","04","28","07:00","3.3","","2.2","","93","","","","2","","11","","24.1","","98.92","","","","","","NA"
"-97.24","49.91","WINNIPEG INTL A","5023227","2023-04-28 08:00","2023","04","28","08:00","3.7","","2.6","","93","","","","1","","10","","24.1","","98.96","","","","","","NA"
"-97.24","49.91","WINNIPEG INTL A","5023227","2023-04-28 09:00","2023","04","28","09:00","4.8","","3.1","","89","","","","3","","10","","24.1","","98.96","","","","","","Mostly Cloudy"
"-97.24","49.91","WINNIPEG INTL A","5023227","2023-04-28 10:00","2023","04","28","10:00","6.7","","3.6","","81","","","","2","","5","","24.1","","98.95","","","","","","NA"
"-97.24","49.91","WINNIPEG INTL A","5023227","2023-04-28 11:00","2023","04","28","11:00","8.8","","2.7","","65","","","","35","","5","","24.1","","98.94","","","","","","NA"
"-97.24","49.91","WINNIPEG INTL A","5023227","2023-04-28 12:00","2023","04","28","12:00","10.7","","0.5","","49","","","","35","","5","","24.1","","98.87","","","","","","Mostly Cloudy"
"-97.24","49.91","WINNIPEG INTL A","5023227","2023-04-28 13:00","2023","04","28","13:00","10.1","","1.0","","53","","","","35","","11","","24.1","","98.81","","","","","","NA"
"-97.24","49.91","WINNIPEG INTL A","5023227","2023-04-28 14:00","2023","04","28","14:00","10.6","","1.9","","55","","","","33","","9","","24.1","","98.80","","","","","","NA"
"-97.24","49.91","WINNIPEG INTL A","5023227","2023-04-28 15:00","2023","04","28","15:00","10.3","","0.6","","51","","","","1","","7","","24.1","","98.74","","","","","","Mostly Cloudy"
"-97.24","49.91","WINNIPEG INTL A","5023227","2023-04-28 16:00","2023","04","28","16:00","10.8","","-1.0","","44","","","","31","","8","","24.1","","98.72","","","","","","NA"
"-97.24","49.91","WINNIPEG INTL A","5023227","2023-04-28 17:00","2023","04","28","17:00","10.1","","1.3","","54","","","","28","","17","","24.1","","98.70","","","","","","NA"
"-97.24","49.91","WINNIPEG INTL A","5023227","2023-04-28 18:00","2023","04","28","18:00","10.6","","1.0","","51","","","","36","","3","","24.1","","98.68","","","","","","Mostly Cloudy"
"-97.24","49.91","WINNIPEG INTL A","5023227","2023-04-28 19:00","2023","04","28","19:00","9.3","","2.1","","61","","","","7","","8","","24.1","","98.65","","","","","","NA"
"-97.24","49.91","WINNIPEG INTL A","5023227","2023-04-28 20:00","2023","04","28","20:00","7.4","","1.7","","67","","","","11","","7","","24.1","","98.63","","","","","","NA"
"-97.24","49.91","WINNIPEG INTL A","5023227","2023-04-28 21:00","2023","04","28","21:00","6.4","","2.0","","73","","","","14","","8","","24.1","","98.61","","","","","","Mostly Cloudy"
"-97.24","49.91","WINNIPEG INTL A","5023227","2023-04-28 22:00","2023","04","28","22:00","5.2","","1.8","","78","","","","15","","8","","24.1","","98.56","","","","","","NA"
"-97.24","49.91","WINNIPEG INTL A","5023227","2023-04-28 23:00","2023","04","28","23:00","5.3","","2.4","","81","","","","17","","9","","24.1","","98.52","","","","","","NA"
"-97.24","49.91","WINNIPEG INTL A","5023227","2023-04-29 00:00","2023","04","29","00:00","5.0","","2.5","","84","","","","17","","6","","24.1","","98.50","","","","","","Mostly Cloudy"
"-97.24","49.91","WINNIPEG INTL A","5023227","2023-04-29 01:00","2023","04","29","01:00","4.4","","2.3","","86","","","","18","","5","","24.1","","98.46","","","","","","NA"
"-97.24","49.91","WINNIPEG INTL A","5023227","2023-04-29 02:00","2023","04","29","02:00","3.6","","2.1","","90","","","","14","","4","","24.1","","98.41","","","","","","NA"
"-97.24","49.91","WINNIPEG INTL A","5023227","2023-04-29 03:00","2023","04","29","03:00","3.3","","2.2","","93","","","","8","","10","","24.1","","98.38","","","","","","Mostly Cloudy"
"-97.24","49.91","WINNIPEG INTL A","5023227","2023-04-29 04:00","2023","04","29","04:00","2.8","","2.0","","94","","","","36","","2","","24.1","","98.37","","","","","","NA"
"-97.24","49.91","WINNIPEG INTL A","5023227","2023-04-29 05:00","2023","04","29","05:00","3.5","","2.5","","93","","","","5","","9","","24.1","","98.34","","","","","","NA"
"-97.24","49.91","WINNIPEG INTL A","5023227","2023-04-29 06:00","2023","04","29","06:00","3.6","","2.7","","94","","","","5","","7","","24.1","","98.37","","","","","","Cloudy"
"-97.24","49.91","WINNIPEG INTL A","5023227","2023-04-29 07:00","2023","04","29","07:00","4.7","","3.4","","92","","","","4","","3","","24.1","","98.40","","","","","","NA"
"-97.24","49.91","WINNIPEG INTL A","5023227","2023-04-29 08:00","2023","04","29","08:00","6.3","","3.4","","82","","","","3","","14","","24.1","","98.42","","","","","","NA"
"-97.24","49.91","WINNIPEG INTL A","5023227","2023-04-29 09:00","2023","04","29","09:00","9.1","","3.3","","67","","","","4","","18","","24.1","","98.43","","","","","","Cloudy"
"-97.24","49.91","WINNIPEG INTL A","5023227","2023-04-29 10:00","2023","04","29","10:00","8.7","","1.3","","60","","","","1","","17","","24.1","","98.47","","","","","","NA"
"-97.24","49.91","WINNIPEG INTL A","5023227","2023-04-29 11:00","2023","04","29","11:00","9.8","","2.0","","58","","","","2","","22","","24.1","","98.48","","","","","","NA"
"-97.24","49.91","WINNIPEG INTL A","5023227","2023-04-29 12:00","2023","04","29","12:00","11.2","","0.5","","48","","","","1","","20","","24.1","","98.47","","","","","","Mainly Clear"
"-97.24","49.91","WINNIPEG INTL A","5023227","2023-04-29 13:00","2023","04","29","13:00","10.4","","0.2","","49","","","","3","","19","","22.5","","98.47","","","","","","NA"
"-97.24","49.91","WINNIPEG INTL A","5023227","2023-04-29 14:00","2023","04","29","14:00","10.1","","1.4","","55","","","","2","","24","","24.1","","98.48","","","","","","NA"
"-97.24","49.91","WINNIPEG INTL A","5023227","2023-04-29 15:00","2023","04","29","15:00","9.3","","3.5","","67","","","","32","","34","","24.1","","98.51","","","","","","Mostly Cloudy"
"-97.24","49.91","WINNIPEG INTL A","5023227","2023-04-29 16:00","2023","04","29","16:00","7.8","","3.7","","75","","","","31","","25","","24.1","","98.56","","","","","","NA"
"-97.24","49.91","WINNIPEG INTL A","5023227","2023-04-29 17:00","2023","04","29","17:00","10.0","","1.3","","55","","","","1","","30","","24.1","","98.59","","","","","","NA"
"-97.24","49.91","WINNIPEG INTL A","5023227","2023-04-29 18:00","2023","04","29","18:00","7.8","","3.4","","74","","","","34","","32","","24.1","","98.65","","","","","","Mostly Cloudy"
"-97.24","49.91","WINNIPEG INTL A","5023227","2023-04-29 19:00","2023","04","29","19:00","6.8","","2.8","","75","","","","34","","30","","24.1","","98.67","","","","","","NA"
"-97.24","49.91","WINNIPEG INTL A","5023227","2023-04-29 20:00","2023","04","29","20:00","3.8","","2.4","","90","","","","33","","13","","24.1","","98.73","","","","","","NA"
"-97.24","49.91","WINNIPEG INTL A","5023227","2023-04-29 21:00","2023","04","29","21:00","4.5","","0.4","","75","","","","1","","14","","24.1","","98.81","","","","","","Mainly Clear"
"-97.24","49.91","WINNIPEG INTL A","5023227","2023-04-29 22:00","2023","04","29","22:00","2.7","","-0.2","","81","","","","36","","14","","24.1","","98.83","","","","","","NA"
"-97.24","49.91","WINNIPEG INTL A","5023227","2023-04-29 23:00","2023","04","29","23:00","0.1","","-1.4","","89","","","","35","","10","","24.1","","98.85","","","","","","NA"
"-97.24","49.91","WINNIPEG INTL A","5023227","2023-04-30 00:00","2023","04","30","00:00","2.8","","-0.2","","81","","","","36","","19","","24.1","","98.84","","","","","","Mainly Clear"
"-97.24","49.91","WINNIPEG INTL A","5023227","2023-04-30 01:00","2023","04","30","01:00","2.3","","-0.2","","83","","","","36","","17","","24.1","","98.84","","","","","","NA"
"-97.24","49.91","WINNIPEG INTL A","5023227","2023-04-30 02:00","2023","04","30","02:00","2.1","","-0.2","","85","","","","36","","17","","24.1","","98.83","","","","","","NA"
"-97.24","49.91","WINNIPEG INTL A","5023227","2023-04-30 03:00","2023","04","30","03:00","0.0","","-0.9","","94","","","","34","","16","","24.1","","98.87","","","","-5","","Clear"
"-97.24","49.91","WINNIPEG INTL A","5023227","2023-04-30 04:00","2023","04","30","04:00","-1.0","","-1.6","","96","","","","33","","11","","24.1","","98.88","","","","-5","","NA"
"-97.24","49.91","WINNIPEG INTL A","5023227","2023-04-30 05:00","2023","04","30","05:00","-1.2","","-1.6","","97","","","","34","","12","","24.1","","98.90","","","","-5","","NA"
"-97.24","49.91","WINNIPEG INTL A","5023227","2023-04-30 06:00","2023","04","30","06:00","0.2","","-0.5","","95","","","","34","","16","","24.1","","98.94","","","","","","Clear"
"-97.24","49.91","WINNIPEG INTL A","5023227","2023-04-30 07:00","2023","04","30","07:00","2.2","","0.4","","88","","","","34","","20","","24.1","","98.96","","","","","","NA"
"-97.24","49.91","WINNIPEG INTL A","5023227","2023-04-30 08:00","2023","04","30","08:00","4.7","","1.6","","80","","","","34","","21","","24.1","","98.99","","","","","","NA"
"-97.24","49.91","WINNIPEG INTL A","5023227","2023-04-30 09:00","2023","04","30","09:00","8.0","","0.4","","59","","","","1","","32","","24.1","","98.97","","","","","","Clear"
"-97.24","49.91","WINNIPEG INTL A","5023227","2023-04-30 10:00","2023","04","30","10:00","10.0","","1.1","","54","","","","2","","35","","24.1","","98.96","","","","","","NA"
"-97.24","49.91","WINNIPEG INTL A","5023227","2023-04-30 11:00","2023","04","30","11:00","9.7","","0.1","","51","","","","1","","36","","24.1","","98.92","","","","","","NA"
"-97.24","49.91","WINNIPEG INTL A","5023227","2023-04-30 12:00","2023","04","30","12:00","11.0","","0.4","","48","","","","1","","36","","24.1","","98.89","","","","","","Mainly Clear"
"-97.24","49.91","WINNIPEG INTL A","5023227","2023-04-30 13:00","2023","04","30","13:00","11.6","","-1.0","","42","","","","2","","32","","24.1","","98.82","","","","","","NA"
"-97.24","49.91","WINNIPEG INTL A","5023227","2023-04-30 14:00","2023","04","30","14:00","11.4","","-2.0","","39","","","","35","","32","","24.1","","98.81","","","","","","NA"
"-97.24","49.91","WINNIPEG INTL A","5023227","2023-04-30 15:00","2023","04","30","15:00","12.9","","-1.2","","37","","","","1","","39","","24.1","","98.80","","","","","","Mainly Clear"
"-97.24","49.91","WINNIPEG INTL A","5023227","2023-04-30 16:00","2023","04","30","16:00","12.3","","-2.5","","35","","","","3","","40","","24.1","","98.80","","","","","","NA"
"-97.24","49.91","WINNIPEG INTL A","5023227","2023-04-30 17:00","2023","04","30","17:00","11.7","","-1.8","","39","","","","2","","30","","24.1","","98.83","","","","","","NA"
"-97.24","49.91","WINNIPEG INTL A","5023227","2023-04-30 18:00","2023","04","30","18:00","11.5","","-1.7","","40","","","","3","","36","","24.1","","98.82","","","","","","Mainly Clear"
"-97.24","49.91","WINNIPEG INTL A","5023227","2023-04-30 19:00","2023","04","30","19:00","9.7","","-2.4","","42","","","","2","","31","","24.1","","98.81","","","","","","NA"
"-97.24","49.91","WINNIPEG INTL A","5023227","2023-04-30 20:00","2023","04","30","20:00","7.4","","-1.9","","52","","","","36","","18","","24.1","","98.82","","","","","","NA"
"-97.24","49.91","WINNIPEG INTL A","5023227","2023-04-30 21:00","2023","04","30","21:00","6.3","","-2.1","","55","","","","35","","22","","24.1","","98.85","","","","","","Clear"
"-97.24","49.91","WINNIPEG INTL A","5023227","2023-04-30 22:00","2023","04","30","22:00","3.8","","-2.3","","64","","","","35","","18","","24.1","","98.83","","","","","","NA"
"-97.24","49.91","WINNIPEG INTL A","5023227","2023-04-30 23:00","2023","04","30","23:00","2.7","","-3.0","","66","","","","34","","18","","24.1","","98.82","","","","","","NA"
