"Longitude (x)","Latitude (y)","Station Name","Climate ID","Date/Time (LST)","Year","Month","Day","Time (LST)","Temp (°C)","Temp Flag","Dew Point Temp (°C)","Dew Point Temp Flag","Rel Hum (%)","Rel Hum Flag","Precip. Amount (mm)","Precip. Amount Flag","Wind Dir (10s deg)","Wind Dir Flag","Wind Spd (km/h)","Wind Spd Flag","Visibility (km)","Visibility Flag","Stn Press (kPa)","Stn Press Flag","Hmdx","Hmdx Flag","Wind Chill","Wind Chill Flag","Weather"
"-124.50","49.83","POWELL RIVER A","1046395","2021-03-01 00:00","2021","03","01","00:00"
"-124.50","49.83","POWELL RIVER A","1046395","2021-03-01 01:00","2021","03","01","01:00"
"-124.50","49.83","POWELL RIVER A","1046395","2021-03-01 02:00","2021","03","01","02:00"
"-124.50","49.83","POWELL RIVER A","1046395","2021-03-01 03:00","2021","03","01","03:00"
"-124.50","49.83","POWELL RIVER A","1046395","2021-03-01 04:00","2021","03","01","04:00"
"-124.50","49.83","POWELL RIVER A","1046395","2021-03-01 05:00","2021","03","01","05:00"
"-124.50","49.83","POWELL RIVER A","1046395","2021-03-01 06:00","2021","03","01","06:00"
"-124.50","49.83","POWELL RIVER A","1046395","2021-03-01 07:00","2021","03","01","07:00","6.9","","4.6","","85","","","","13","","26","","32.2","","100.03","","","","","","Cloudy"
"-124.50","49.83","POWELL RIVER A","1046395","2021-03-01 08:00","2021","03","01","08:00","6.8","","4.7","","86","","","","12","","22","","32.2","","100.08","","","","","","NA"
"-124.50","49.83","POWELL RIVER A","1046395","2021-03-01 09:00","2021","03","01","09:00","6.9","","4.6","","85","","","","12","","31","","32.2","","100.05","","","","","","NA"
"-124.50","49.83","POWELL RIVER A","1046395","2021-03-01 10:00","2021","03","01","10:00","7.1","","4.6","","84","","","","11","","34","","32.2","","100.07","","","","","","Mostly Cloudy"
"-124.50","49.83","POWELL RIVER A","1046395","2021-03-01 11:00","2021","03","01","11:00","7.6","","4.6","","81","","","","11","","32","","40.2","","100.09","","","","","","NA"
"-124.50","49.83","POWELL RIVER A","1046395","2021-03-01 12:00","2021","03","01","12:00","7.7","","4.7","","82","","","","11","","26","","40.2","","100.10","","","","","","NA"
"-124.50","49.83","POWELL RIVER A","1046395","2021-03-01 13:00","2021","03","01","13:00","7.8","","4.6","","80","","","","11","","27","","32.2","","100.10","","","","","","Cloudy"
"-124.50","49.83","POWELL RIVER A","1046395","2021-03-01 14:00","2021","03","01","14:00","8.1","","4.4","","77","","","","11","","19","","32.2","","100.11","","","","","","NA"
"-124.50","49.83","POWELL RIVER A","1046395","2021-03-01 15:00","2021","03","01","15:00","8.2","","4.2","","76","","","","11","","9","","32.2","","100.13","","","","","","Rain"
"-124.50","49.83","POWELL RIVER A","1046395","2021-03-01 16:00","2021","03","01","16:00","8.4","","5.6","","83","","","","10","","9","","32.2","","100.11","","","","","","Rain"
"-124.50","49.83","POWELL RIVER A","1046395","2021-03-01 17:00","2021","03","01","17:00","8.6","","4.5","","76","","","","9","","10","","32.2","","100.11","","","","","","NA"
"-124.50","49.83","POWELL RIVER A","1046395","2021-03-01 18:00","2021","03","01","18:00","7.4","","5.2","","86","","","","26","","8","","32.2","","100.14","","","","","","NA"
"-124.50","49.83","POWELL RIVER A","1046395","2021-03-01 19:00","2021","03","01","19:00","5.6","","4.0","","89","","","","29","","9","","32.2","","100.16","","","","","","Mostly Cloudy"
"-124.50","49.83","POWELL RIVER A","1046395","2021-03-01 20:00","2021","03","01","20:00"
"-124.50","49.83","POWELL RIVER A","1046395","2021-03-01 21:00","2021","03","01","21:00"
"-124.50","49.83","POWELL RIVER A","1046395","2021-03-01 22:00","2021","03","01","22:00"
"-124.50","49.83","POWELL RIVER A","1046395","2021-03-01 23:00","2021","03","01","23:00"
"-124.50","49.83","POWELL RIVER A","1046395","2021-03-02 00:00","2021","03","02","00:00"
"-124.50","49.83","POWELL RIVER A","1046395","2021-03-02 01:00","2021","03","02","01:00"
"-124.50","49.83","POWELL RIVER A","1046395","2021-03-02 02:00","2021","03","02","02:00"
"-124.50","49.83","POWELL RIVER A","1046395","2021-03-02 03:00","2021","03","02","03:00"
"-124.50","49.83","POWELL RIVER A","1046395","2021-03-02 04:00","2021","03","02","04:00"
"-124.50","49.83","POWELL RIVER A","1046395","2021-03-02 05:00","2021","03","02","05:00"
"-124.50","49.83","POWELL RIVER A","1046395","2021-03-02 06:00","2021","03","02","06:00"
"-124.50","49.83","POWELL RIVER A","1046395","2021-03-02 07:00","2021","03","02","07:00","1.3","","1.1","","99","","","","14","","3","","32.2","","100.17","","","","","","Cloudy"
"-124.50","49.83","POWELL RIVER A","1046395","2021-03-02 08:00","2021","03","02","08:00","2.2","","2.1","","99","","","","7","","4","","32.2","","100.16","","","","","","Rain"
"-124.50","49.83","POWELL RIVER A","1046395","2021-03-02 09:00","2021","03","02","09:00","3.9","","3.1","","95","","","","36","","1","","32.2","","100.19","","","","","","NA"
"-124.50","49.83","POWELL RIVER A","1046395","2021-03-02 10:00","2021","03","02","10:00","4.4","","1.4","","81","","","","36","","1","","32.2","","100.19","","","","","","Cloudy"
"-124.50","49.83","POWELL RIVER A","1046395","2021-03-02 11:00","2021","03","02","11:00","4.0","","3.1","","94","","","","3","","3","","32.2","","100.16","","","","","","Rain Showers"
"-124.50","49.83","POWELL RIVER A","1046395","2021-03-02 12:00","2021","03","02","12:00","5.4","","1.7","","77","","","","13","","10","","32.2","","100.16","","","","","","NA"
"-124.50","49.83","POWELL RIVER A","1046395","2021-03-02 13:00","2021","03","02","13:00","6.0","","0.5","","68","","","","12","","8","","32.2","","100.11","","","","","","Cloudy"
"-124.50","49.83","POWELL RIVER A","1046395","2021-03-02 14:00","2021","03","02","14:00","5.9","","0.1","","67","","","","10","","18","","32.2","","100.03","","","","","","NA"
"-124.50","49.83","POWELL RIVER A","1046395","2021-03-02 15:00","2021","03","02","15:00","5.9","","-0.6","","63","","","","11","","15","","32.2","","99.96","","","","","","NA"
"-124.50","49.83","POWELL RIVER A","1046395","2021-03-02 16:00","2021","03","02","16:00","5.8","","-0.7","","63","","","","11","","18","","32.2","","99.91","","","","","","Cloudy"
"-124.50","49.83","POWELL RIVER A","1046395","2021-03-02 17:00","2021","03","02","17:00","5.2","","-0.3","","67","","","","11","","14","","32.2","","99.87","","","","","","NA"
"-124.50","49.83","POWELL RIVER A","1046395","2021-03-02 18:00","2021","03","02","18:00","4.8","","0.5","","73","","","","8","","13","","32.2","","99.84","","","","","","NA"
"-124.50","49.83","POWELL RIVER A","1046395","2021-03-02 19:00","2021","03","02","19:00","4.5","","0.8","","77","","","","9","","11","","32.2","","99.78","","","","","","Mostly Cloudy"
"-124.50","49.83","POWELL RIVER A","1046395","2021-03-02 20:00","2021","03","02","20:00"
"-124.50","49.83","POWELL RIVER A","1046395","2021-03-02 21:00","2021","03","02","21:00"
"-124.50","49.83","POWELL RIVER A","1046395","2021-03-02 22:00","2021","03","02","22:00"
"-124.50","49.83","POWELL RIVER A","1046395","2021-03-02 23:00","2021","03","02","23:00"
"-124.50","49.83","POWELL RIVER A","1046395","2021-03-03 00:00","2021","03","03","00:00"
"-124.50","49.83","POWELL RIVER A","1046395","2021-03-03 01:00","2021","03","03","01:00"
"-124.50","49.83","POWELL RIVER A","1046395","2021-03-03 02:00","2021","03","03","02:00"
"-124.50","49.83","POWELL RIVER A","1046395","2021-03-03 03:00","2021","03","03","03:00"
"-124.50","49.83","POWELL RIVER A","1046395","2021-03-03 04:00","2021","03","03","04:00"
"-124.50","49.83","POWELL RIVER A","1046395","2021-03-03 05:00","2021","03","03","05:00"
"-124.50","49.83","POWELL RIVER A","1046395","2021-03-03 06:00","2021","03","03","06:00"
"-124.50","49.83","POWELL RIVER A","1046395","2021-03-03 07:00","2021","03","03","07:00","4.5","","-0.2","","72","","","","10","","14","","32.2","","99.44","","","","","","Cloudy"
"-124.50","49.83","POWELL RIVER A","1046395","2021-03-03 08:00","2021","03","03","08:00","4.6","","0.1","","73","","","","10","","14","","32.2","","99.43","","","","","","NA"
"-124.50","49.83","POWELL RIVER A","1046395","2021-03-03 09:00","2021","03","03","09:00","5.3","","-0.1","","68","","","","10","","16","","32.2","","99.44","","","","","","NA"
"-124.50","49.83","POWELL RIVER A","1046395","2021-03-03 10:00","2021","03","03","10:00","6.2","","0.7","","68","","","","11","","22","","32.2","","99.43","","","","","","Mostly Cloudy"
"-124.50","49.83","POWELL RIVER A","1046395","2021-03-03 11:00","2021","03","03","11:00","6.7","","1.8","","71","","","","12","","12","","32.2","","99.41","","","","","","NA"
"-124.50","49.83","POWELL RIVER A","1046395","2021-03-03 12:00","2021","03","03","12:00","6.8","","2.1","","72","","","","13","","20","","32.2","","99.42","","","","","","NA"
"-124.50","49.83","POWELL RIVER A","1046395","2021-03-03 13:00","2021","03","03","13:00","7.2","","1.9","","69","","","","12","","15","","32.2","","99.39","","","","","","Cloudy"
"-124.50","49.83","POWELL RIVER A","1046395","2021-03-03 14:00","2021","03","03","14:00","7.7","","2.1","","68","","","","10","","13","","32.2","","99.36","","","","","","NA"
"-124.50","49.83","POWELL RIVER A","1046395","2021-03-03 15:00","2021","03","03","15:00","7.3","","1.8","","68","","","","11","","14","","32.2","","99.37","","","","","","Rain"
"-124.50","49.83","POWELL RIVER A","1046395","2021-03-03 16:00","2021","03","03","16:00","7.8","","1.4","","64","","","","11","","11","","32.2","","99.34","","","","","","Mostly Cloudy"
"-124.50","49.83","POWELL RIVER A","1046395","2021-03-03 17:00","2021","03","03","17:00","7.0","","2.3","","72","","","","11","","11","","32.2","","99.33","","","","","","NA"
"-124.50","49.83","POWELL RIVER A","1046395","2021-03-03 18:00","2021","03","03","18:00","5.4","","1.8","","77","","","","16","","4","","32.2","","99.31","","","","","","NA"
"-124.50","49.83","POWELL RIVER A","1046395","2021-03-03 19:00","2021","03","03","19:00","4.2","","1.7","","84","","","","5","","5","","32.2","","99.35","","","","","","Mostly Cloudy"
"-124.50","49.83","POWELL RIVER A","1046395","2021-03-03 20:00","2021","03","03","20:00"
"-124.50","49.83","POWELL RIVER A","1046395","2021-03-03 21:00","2021","03","03","21:00"
"-124.50","49.83","POWELL RIVER A","1046395","2021-03-03 22:00","2021","03","03","22:00"
"-124.50","49.83","POWELL RIVER A","1046395","2021-03-03 23:00","2021","03","03","23:00"
"-124.50","49.83","POWELL RIVER A","1046395","2021-03-04 00:00","2021","03","04","00:00"
"-124.50","49.83","POWELL RIVER A","1046395","2021-03-04 01:00","2021","03","04","01:00"
"-124.50","49.83","POWELL RIVER A","1046395","2021-03-04 02:00","2021","03","04","02:00"
"-124.50","49.83","POWELL RIVER A","1046395","2021-03-04 03:00","2021","03","04","03:00"
"-124.50","49.83","POWELL RIVER A","1046395","2021-03-04 04:00","2021","03","04","04:00"
"-124.50","49.83","POWELL RIVER A","1046395","2021-03-04 05:00","2021","03","04","05:00"
"-124.50","49.83","POWELL RIVER A","1046395","2021-03-04 06:00","2021","03","04","06:00"
"-124.50","49.83","POWELL RIVER A","1046395","2021-03-04 07:00","2021","03","04","07:00","4.3","","1.5","","82","","","","10","","10","","32.2","","99.44","","","","","","Cloudy"
"-124.50","49.83","POWELL RIVER A","1046395","2021-03-04 08:00","2021","03","04","08:00","5.0","","1.6","","78","","","","10","","16","","32.2","","99.46","","","","","","NA"
"-124.50","49.83","POWELL RIVER A","1046395","2021-03-04 09:00","2021","03","04","09:00","6.0","","2.6","","79","","","","10","","25","","32.2","","99.50","","","","","","NA"
"-124.50","49.83","POWELL RIVER A","1046395","2021-03-04 10:00","2021","03","04","10:00","6.2","","3.5","","83","","","","11","","28","","32.2","","99.60","","","","","","Cloudy"
"-124.50","49.83","POWELL RIVER A","1046395","2021-03-04 11:00","2021","03","04","11:00","6.7","","3.8","","82","","","","11","","26","","32.2","","99.66","","","","","","NA"
"-124.50","49.83","POWELL RIVER A","1046395","2021-03-04 12:00","2021","03","04","12:00","6.9","","3.5","","79","","","","11","","34","","16.1","","99.56","","","","","","NA"
"-124.50","49.83","POWELL RIVER A","1046395","2021-03-04 13:00","2021","03","04","13:00","6.7","","4.5","","86","","","","10","","26","","16.1","","99.61","","","","","","Rain"
"-124.50","49.83","POWELL RIVER A","1046395","2021-03-04 14:00","2021","03","04","14:00","6.4","","5.2","","92","","","","9","","22","","11.3","","99.68","","","","","","Moderate Rain"
"-124.50","49.83","POWELL RIVER A","1046395","2021-03-04 15:00","2021","03","04","15:00","6.4","","5.5","","93","","","","9","","24","","12.9","","99.68","","","","","","Rain"
"-124.50","49.83","POWELL RIVER A","1046395","2021-03-04 16:00","2021","03","04","16:00","7.5","","5.3","","86","","","","10","","25","","16.1","","99.72","","","","","","Cloudy"
"-124.50","49.83","POWELL RIVER A","1046395","2021-03-04 17:00","2021","03","04","17:00","7.8","","5.4","","84","","","","11","","13","","16.1","","99.76","","","","","","NA"
"-124.50","49.83","POWELL RIVER A","1046395","2021-03-04 18:00","2021","03","04","18:00","8.2","","4.5","","77","","","","11","","27","","12.9","","99.89","","","","","","NA"
"-124.50","49.83","POWELL RIVER A","1046395","2021-03-04 19:00","2021","03","04","19:00","7.2","","5.4","","88","","","","11","","23","","24.1","","99.96","","","","","","Rain"
"-124.50","49.83","POWELL RIVER A","1046395","2021-03-04 20:00","2021","03","04","20:00"
"-124.50","49.83","POWELL RIVER A","1046395","2021-03-04 21:00","2021","03","04","21:00"
"-124.50","49.83","POWELL RIVER A","1046395","2021-03-04 22:00","2021","03","04","22:00"
"-124.50","49.83","POWELL RIVER A","1046395","2021-03-04 23:00","2021","03","04","23:00"
"-124.50","49.83","POWELL RIVER A","1046395","2021-03-05 00:00","2021","03","05","00:00"
"-124.50","49.83","POWELL RIVER A","1046395","2021-03-05 01:00","2021","03","05","01:00"
"-124.50","49.83","POWELL RIVER A","1046395","2021-03-05 02:00","2021","03","05","02:00"
"-124.50","49.83","POWELL RIVER A","1046395","2021-03-05 03:00","2021","03","05","03:00"
"-124.50","49.83","POWELL RIVER A","1046395","2021-03-05 04:00","2021","03","05","04:00"
"-124.50","49.83","POWELL RIVER A","1046395","2021-03-05 05:00","2021","03","05","05:00"
"-124.50","49.83","POWELL RIVER A","1046395","2021-03-05 06:00","2021","03","05","06:00"
"-124.50","49.83","POWELL RIVER A","1046395","2021-03-05 07:00","2021","03","05","07:00","6.3","","5.9","","97","","","","10","","21","","16.1","","98.97","","","","","","Rain"
"-124.50","49.83","POWELL RIVER A","1046395","2021-03-05 08:00","2021","03","05","08:00","7.0","","6.0","","93","","","","11","","21","","24.1","","98.93","","","","","","NA"
"-124.50","49.83","POWELL RIVER A","1046395","2021-03-05 09:00","2021","03","05","09:00","8.0","","5.7","","86","","","","12","","34","","11.3","","99.02","","","","","","Rain"
"-124.50","49.83","POWELL RIVER A","1046395","2021-03-05 10:00","2021","03","05","10:00","7.2","","6.4","","94","","","","12","","12","","24.1","","99.18","","","","","","Rain"
"-124.50","49.83","POWELL RIVER A","1046395","2021-03-05 11:00","2021","03","05","11:00","8.4","","6.9","","91","","","","11","","8","","32.2","","99.22","","","","","","NA"
"-124.50","49.83","POWELL RIVER A","1046395","2021-03-05 12:00","2021","03","05","12:00","10.3","","5.8","","74","","","","13","","13","","32.2","","99.31","","","","","","NA"
"-124.50","49.83","POWELL RIVER A","1046395","2021-03-05 13:00","2021","03","05","13:00","7.8","","2.8","","70","","","","11","","18","","32.2","","99.39","","","","","","Mostly Cloudy"
"-124.50","49.83","POWELL RIVER A","1046395","2021-03-05 14:00","2021","03","05","14:00","9.7","","1.8","","58","","","","13","","13","","40.2","","99.42","","","","","","NA"
"-124.50","49.83","POWELL RIVER A","1046395","2021-03-05 15:00","2021","03","05","15:00","8.1","","3.3","","71","","","","11","","29","","32.2","","99.49","","","","","","NA"
"-124.50","49.83","POWELL RIVER A","1046395","2021-03-05 16:00","2021","03","05","16:00","6.8","","2.1","","72","","","","12","","20","","32.2","","99.51","","","","","","Rain"
"-124.50","49.83","POWELL RIVER A","1046395","2021-03-05 17:00","2021","03","05","17:00","7.9","","1.7","","65","","","","12","","29","","24.1","","99.48","","","","","","NA"
"-124.50","49.83","POWELL RIVER A","1046395","2021-03-05 18:00","2021","03","05","18:00","5.5","","2.4","","81","","","","13","","10","","16.1","","99.56","","","","","","Rain Showers"
"-124.50","49.83","POWELL RIVER A","1046395","2021-03-05 19:00","2021","03","05","19:00","4.8","","2.6","","85","","","","9","","12","","24.1","","99.54","","","","","","Mostly Cloudy"
"-124.50","49.83","POWELL RIVER A","1046395","2021-03-05 20:00","2021","03","05","20:00"
"-124.50","49.83","POWELL RIVER A","1046395","2021-03-05 21:00","2021","03","05","21:00"
"-124.50","49.83","POWELL RIVER A","1046395","2021-03-05 22:00","2021","03","05","22:00"
"-124.50","49.83","POWELL RIVER A","1046395","2021-03-05 23:00","2021","03","05","23:00"
"-124.50","49.83","POWELL RIVER A","1046395","2021-03-06 00:00","2021","03","06","00:00"
"-124.50","49.83","POWELL RIVER A","1046395","2021-03-06 01:00","2021","03","06","01:00"
"-124.50","49.83","POWELL RIVER A","1046395","2021-03-06 02:00","2021","03","06","02:00"
"-124.50","49.83","POWELL RIVER A","1046395","2021-03-06 03:00","2021","03","06","03:00"
"-124.50","49.83","POWELL RIVER A","1046395","2021-03-06 04:00","2021","03","06","04:00"
"-124.50","49.83","POWELL RIVER A","1046395","2021-03-06 05:00","2021","03","06","05:00"
"-124.50","49.83","POWELL RIVER A","1046395","2021-03-06 06:00","2021","03","06","06:00"
"-124.50","49.83","POWELL RIVER A","1046395","2021-03-06 07:00","2021","03","06","07:00","5.4","","3.4","","87","","","","12","","18","","48.3","","99.55","","","","","","Mostly Cloudy"
"-124.50","49.83","POWELL RIVER A","1046395","2021-03-06 08:00","2021","03","06","08:00","5.9","","4.0","","87","","","","11","","18","","48.3","","99.63","","","","","","NA"
"-124.50","49.83","POWELL RIVER A","1046395","2021-03-06 09:00","2021","03","06","09:00","6.4","","4.5","","88","","","","11","","22","","48.3","","99.69","","","","","","NA"
"-124.50","49.83","POWELL RIVER A","1046395","2021-03-06 10:00","2021","03","06","10:00","6.5","","4.5","","87","","","","12","","21","","48.3","","99.76","","","","","","Mostly Cloudy"
"-124.50","49.83","POWELL RIVER A","1046395","2021-03-06 11:00","2021","03","06","11:00","6.9","","4.0","","82","","","","12","","19","","40.2","","99.81","","","","","","NA"
"-124.50","49.83","POWELL RIVER A","1046395","2021-03-06 12:00","2021","03","06","12:00","7.5","","4.3","","80","","","","11","","19","","40.2","","99.85","","","","","","NA"
"-124.50","49.83","POWELL RIVER A","1046395","2021-03-06 13:00","2021","03","06","13:00","8.0","","4.3","","78","","","","9","","17","","40.2","","99.82","","","","","","Mostly Cloudy"
"-124.50","49.83","POWELL RIVER A","1046395","2021-03-06 14:00","2021","03","06","14:00","8.3","","3.8","","73","","","","12","","15","","40.2","","99.81","","","","","","NA"
"-124.50","49.83","POWELL RIVER A","1046395","2021-03-06 15:00","2021","03","06","15:00","7.7","","3.3","","74","","","","11","","16","","40.2","","99.81","","","","","","NA"
"-124.50","49.83","POWELL RIVER A","1046395","2021-03-06 16:00","2021","03","06","16:00","7.0","","4.5","","84","","","","12","","10","","40.2","","99.81","","","","","","Rain"
"-124.50","49.83","POWELL RIVER A","1046395","2021-03-06 17:00","2021","03","06","17:00","7.1","","3.3","","77","","","","11","","14","","40.2","","99.77","","","","","","NA"
"-124.50","49.83","POWELL RIVER A","1046395","2021-03-06 18:00","2021","03","06","18:00","6.8","","3.6","","80","","","","10","","15","","48.3","","99.71","","","","","","NA"
"-124.50","49.83","POWELL RIVER A","1046395","2021-03-06 19:00","2021","03","06","19:00","6.5","","2.9","","78","","","","12","","20","","32.2","","99.70","","","","","","Cloudy"
"-124.50","49.83","POWELL RIVER A","1046395","2021-03-06 20:00","2021","03","06","20:00"
"-124.50","49.83","POWELL RIVER A","1046395","2021-03-06 21:00","2021","03","06","21:00"
"-124.50","49.83","POWELL RIVER A","1046395","2021-03-06 22:00","2021","03","06","22:00"
"-124.50","49.83","POWELL RIVER A","1046395","2021-03-06 23:00","2021","03","06","23:00"
"-124.50","49.83","POWELL RIVER A","1046395","2021-03-07 00:00","2021","03","07","00:00"
"-124.50","49.83","POWELL RIVER A","1046395","2021-03-07 01:00","2021","03","07","01:00"
"-124.50","49.83","POWELL RIVER A","1046395","2021-03-07 02:00","2021","03","07","02:00"
"-124.50","49.83","POWELL RIVER A","1046395","2021-03-07 03:00","2021","03","07","03:00"
"-124.50","49.83","POWELL RIVER A","1046395","2021-03-07 04:00","2021","03","07","04:00"
"-124.50","49.83","POWELL RIVER A","1046395","2021-03-07 05:00","2021","03","07","05:00"
"-124.50","49.83","POWELL RIVER A","1046395","2021-03-07 06:00","2021","03","07","06:00"
"-124.50","49.83","POWELL RIVER A","1046395","2021-03-07 07:00","2021","03","07","07:00","1.8","","1.2","","96","","","","14","","7","","48.3","","99.45","","","","","","Mostly Cloudy"
"-124.50","49.83","POWELL RIVER A","1046395","2021-03-07 08:00","2021","03","07","08:00","3.0","","2.5","","97","","","","10","","9","","48.3","","99.53","","","","","","NA"
"-124.50","49.83","POWELL RIVER A","1046395","2021-03-07 09:00","2021","03","07","09:00","4.0","","3.2","","94","","","","10","","12","","48.3","","99.64","","","","","","NA"
"-124.50","49.83","POWELL RIVER A","1046395","2021-03-07 10:00","2021","03","07","10:00","4.6","","3.5","","93","","","","10","","16","","48.3","","99.71","","","","","","Mostly Cloudy"
"-124.50","49.83","POWELL RIVER A","1046395","2021-03-07 11:00","2021","03","07","11:00","5.1","","2.3","","82","","","","11","","25","","32.2","","99.79","","","","","","Rain"
"-124.50","49.83","POWELL RIVER A","1046395","2021-03-07 12:00","2021","03","07","12:00","4.7","","3.1","","89","","","","12","","21","","32.2","","99.89","","","","","","Rain Showers"
"-124.50","49.83","POWELL RIVER A","1046395","2021-03-07 13:00","2021","03","07","13:00","6.2","","3.9","","85","","","","12","","28","","40.2","","99.95","","","","","","Mostly Cloudy"
"-124.50","49.83","POWELL RIVER A","1046395","2021-03-07 14:00","2021","03","07","14:00","5.9","","2.8","","80","","","","12","","23","","40.2","","100.05","","","","","","NA"
"-124.50","49.83","POWELL RIVER A","1046395","2021-03-07 15:00","2021","03","07","15:00","5.7","","2.6","","80","","","","11","","18","","40.2","","100.13","","","","","","NA"
"-124.50","49.83","POWELL RIVER A","1046395","2021-03-07 16:00","2021","03","07","16:00","5.3","","3.8","","90","","","","11","","16","","40.2","","100.16","","","","","","Rain Showers"
"-124.50","49.83","POWELL RIVER A","1046395","2021-03-07 17:00","2021","03","07","17:00","5.3","","2.6","","83","","","","12","","19","","40.2","","100.20","","","","","","NA"
"-124.50","49.83","POWELL RIVER A","1046395","2021-03-07 18:00","2021","03","07","18:00","4.8","","2.1","","82","","","","12","","16","","48.3","","100.26","","","","","","NA"
"-124.50","49.83","POWELL RIVER A","1046395","2021-03-07 19:00","2021","03","07","19:00","4.7","","1.3","","79","","","","9","","15","","32.2","","100.29","","","","","","Cloudy"
"-124.50","49.83","POWELL RIVER A","1046395","2021-03-07 20:00","2021","03","07","20:00"
"-124.50","49.83","POWELL RIVER A","1046395","2021-03-07 21:00","2021","03","07","21:00"
"-124.50","49.83","POWELL RIVER A","1046395","2021-03-07 22:00","2021","03","07","22:00"
"-124.50","49.83","POWELL RIVER A","1046395","2021-03-07 23:00","2021","03","07","23:00"
"-124.50","49.83","POWELL RIVER A","1046395","2021-03-08 00:00","2021","03","08","00:00"
"-124.50","49.83","POWELL RIVER A","1046395","2021-03-08 01:00","2021","03","08","01:00"
"-124.50","49.83","POWELL RIVER A","1046395","2021-03-08 02:00","2021","03","08","02:00"
"-124.50","49.83","POWELL RIVER A","1046395","2021-03-08 03:00","2021","03","08","03:00"
"-124.50","49.83","POWELL RIVER A","1046395","2021-03-08 04:00","2021","03","08","04:00"
"-124.50","49.83","POWELL RIVER A","1046395","2021-03-08 05:00","2021","03","08","05:00"
"-124.50","49.83","POWELL RIVER A","1046395","2021-03-08 06:00","2021","03","08","06:00"
"-124.50","49.83","POWELL RIVER A","1046395","2021-03-08 07:00","2021","03","08","07:00","2.3","","1.9","","97","","","","20","","4","","32.2","","100.21","","","","","","Cloudy"
"-124.50","49.83","POWELL RIVER A","1046395","2021-03-08 08:00","2021","03","08","08:00","2.3","","1.8","","97","","","","0","","1","","32.2","","100.17","","","","","","NA"
"-124.50","49.83","POWELL RIVER A","1046395","2021-03-08 09:00","2021","03","08","09:00","3.3","","2.2","","93","","","","36","","1","","32.2","","100.15","","","","","","NA"
"-124.50","49.83","POWELL RIVER A","1046395","2021-03-08 10:00","2021","03","08","10:00","5.0","","2.7","","85","","","","4","","3","","32.2","","100.12","","","","","","Mostly Cloudy"
"-124.50","49.83","POWELL RIVER A","1046395","2021-03-08 11:00","2021","03","08","11:00","6.2","","1.8","","74","","","","1","","3","","32.2","","100.08","","","","","","NA"
"-124.50","49.83","POWELL RIVER A","1046395","2021-03-08 12:00","2021","03","08","12:00","6.3","","2.3","","76","","","","25","","5","","32.2","","100.07","","","","","","NA"
"-124.50","49.83","POWELL RIVER A","1046395","2021-03-08 13:00","2021","03","08","13:00","6.4","","3.1","","79","","","","27","","5","","32.2","","100.03","","","","","","Mostly Cloudy"
"-124.50","49.83","POWELL RIVER A","1046395","2021-03-08 14:00","2021","03","08","14:00","7.0","","2.6","","74","","","","27","","9","","32.2","","99.96","","","","","","NA"
"-124.50","49.83","POWELL RIVER A","1046395","2021-03-08 15:00","2021","03","08","15:00","6.3","","1.1","","69","","","","25","","11","","32.2","","99.92","","","","","","NA"
"-124.50","49.83","POWELL RIVER A","1046395","2021-03-08 16:00","2021","03","08","16:00","6.0","","1.5","","73","","","","26","","6","","32.2","","99.88","","","","","","Mostly Cloudy"
"-124.50","49.83","POWELL RIVER A","1046395","2021-03-08 17:00","2021","03","08","17:00","5.8","","2.4","","79","","","","26","","6","","32.2","","99.86","","","","","","NA"
"-124.50","49.83","POWELL RIVER A","1046395","2021-03-08 18:00","2021","03","08","18:00","4.8","","2.8","","87","","","","26","","8","","32.2","","99.87","","","","","","NA"
"-124.50","49.83","POWELL RIVER A","1046395","2021-03-08 19:00","2021","03","08","19:00","3.0","","2.7","","98","","","","36","","2","","32.2","","99.87","","","","","","Mostly Cloudy"
"-124.50","49.83","POWELL RIVER A","1046395","2021-03-08 20:00","2021","03","08","20:00"
"-124.50","49.83","POWELL RIVER A","1046395","2021-03-08 21:00","2021","03","08","21:00"
"-124.50","49.83","POWELL RIVER A","1046395","2021-03-08 22:00","2021","03","08","22:00"
"-124.50","49.83","POWELL RIVER A","1046395","2021-03-08 23:00","2021","03","08","23:00"
"-124.50","49.83","POWELL RIVER A","1046395","2021-03-09 00:00","2021","03","09","00:00"
"-124.50","49.83","POWELL RIVER A","1046395","2021-03-09 01:00","2021","03","09","01:00"
"-124.50","49.83","POWELL RIVER A","1046395","2021-03-09 02:00","2021","03","09","02:00"
"-124.50","49.83","POWELL RIVER A","1046395","2021-03-09 03:00","2021","03","09","03:00"
"-124.50","49.83","POWELL RIVER A","1046395","2021-03-09 04:00","2021","03","09","04:00"
"-124.50","49.83","POWELL RIVER A","1046395","2021-03-09 05:00","2021","03","09","05:00"
"-124.50","49.83","POWELL RIVER A","1046395","2021-03-09 06:00","2021","03","09","06:00"
"-124.50","49.83","POWELL RIVER A","1046395","2021-03-09 07:00","2021","03","09","07:00","2.6","","1.9","","95","","","","16","","3","","32.2","","99.96","","","","","","Mostly Cloudy"
"-124.50","49.83","POWELL RIVER A","1046395","2021-03-09 08:00","2021","03","09","08:00","3.0","","2.5","","96","","","","6","","3","","32.2","","99.98","","","","","","NA"
"-124.50","49.83","POWELL RIVER A","1046395","2021-03-09 09:00","2021","03","09","09:00","5.2","","3.2","","87","","","","36","","3","","32.2","","100.02","","","","","","NA"
"-124.50","49.83","POWELL RIVER A","1046395","2021-03-09 10:00","2021","03","09","10:00","6.0","","2.7","","79","","","","28","","4","","32.2","","100.05","","","","","","Mostly Cloudy"
"-124.50","49.83","POWELL RIVER A","1046395","2021-03-09 11:00","2021","03","09","11:00","6.4","","2.6","","77","","","","30","","7","","32.2","","100.05","","","","","","NA"
"-124.50","49.83","POWELL RIVER A","1046395","2021-03-09 12:00","2021","03","09","12:00","6.8","","3.3","","78","","","","27","","8","","32.2","","100.05","","","","","","NA"
"-124.50","49.83","POWELL RIVER A","1046395","2021-03-09 13:00","2021","03","09","13:00","7.0","","2.8","","74","","","","27","","10","","32.2","","100.04","","","","","","Mostly Cloudy"
"-124.50","49.83","POWELL RIVER A","1046395","2021-03-09 14:00","2021","03","09","14:00","6.4","","3.4","","81","","","","25","","13","","32.2","","100.04","","","","","","NA"
"-124.50","49.83","POWELL RIVER A","1046395","2021-03-09 15:00","2021","03","09","15:00","7.4","","3.0","","73","","","","29","","10","","32.2","","100.02","","","","","","NA"
"-124.50","49.83","POWELL RIVER A","1046395","2021-03-09 16:00","2021","03","09","16:00","7.1","","2.0","","70","","","","27","","10","","32.2","","100.02","","","","","","Mostly Cloudy"
"-124.50","49.83","POWELL RIVER A","1046395","2021-03-09 17:00","2021","03","09","17:00","7.5","","2.5","","71","","","","7","","8","","32.2","","99.99","","","","","","NA"
"-124.50","49.83","POWELL RIVER A","1046395","2021-03-09 18:00","2021","03","09","18:00","4.8","","3.4","","91","","","","36","","1","","32.2","","99.98","","","","","","NA"
"-124.50","49.83","POWELL RIVER A","1046395","2021-03-09 19:00","2021","03","09","19:00","4.0","","2.3","","89","","","","36","","3","","32.2","","100.01","","","","","","Mostly Cloudy"
"-124.50","49.83","POWELL RIVER A","1046395","2021-03-09 20:00","2021","03","09","20:00"
"-124.50","49.83","POWELL RIVER A","1046395","2021-03-09 21:00","2021","03","09","21:00"
"-124.50","49.83","POWELL RIVER A","1046395","2021-03-09 22:00","2021","03","09","22:00"
"-124.50","49.83","POWELL RIVER A","1046395","2021-03-09 23:00","2021","03","09","23:00"
"-124.50","49.83","POWELL RIVER A","1046395","2021-03-10 00:00","2021","03","10","00:00"
"-124.50","49.83","POWELL RIVER A","1046395","2021-03-10 01:00","2021","03","10","01:00"
"-124.50","49.83","POWELL RIVER A","1046395","2021-03-10 02:00","2021","03","10","02:00"
"-124.50","49.83","POWELL RIVER A","1046395","2021-03-10 03:00","2021","03","10","03:00"
"-124.50","49.83","POWELL RIVER A","1046395","2021-03-10 04:00","2021","03","10","04:00"
"-124.50","49.83","POWELL RIVER A","1046395","2021-03-10 05:00","2021","03","10","05:00"
"-124.50","49.83","POWELL RIVER A","1046395","2021-03-10 06:00","2021","03","10","06:00"
"-124.50","49.83","POWELL RIVER A","1046395","2021-03-10 07:00","2021","03","10","07:00","-0.8","","-0.9","","99","","","","36","","1","","32.2","","99.93","","","","-1","","Mainly Clear"
"-124.50","49.83","POWELL RIVER A","1046395","2021-03-10 08:00","2021","03","10","08:00","2.3","","1.8","","96","","","","32","","5","","32.2","","99.94","","","","","","NA"
"-124.50","49.83","POWELL RIVER A","1046395","2021-03-10 09:00","2021","03","10","09:00","4.7","","2.4","","85","","","","28","","15","","40.2","","99.96","","","","","","NA"
"-124.50","49.83","POWELL RIVER A","1046395","2021-03-10 10:00","2021","03","10","10:00","5.8","","2.5","","79","","","","29","","13","","40.2","","99.99","","","","","","Mainly Clear"
"-124.50","49.83","POWELL RIVER A","1046395","2021-03-10 11:00","2021","03","10","11:00","6.5","","2.0","","73","","","","28","","21","","40.2","","100.02","","","","","","NA"
"-124.50","49.83","POWELL RIVER A","1046395","2021-03-10 12:00","2021","03","10","12:00","7.4","","2.2","","69","","","","29","","17","","40.2","","100.07","","","","","","Rain Showers"
"-124.50","49.83","POWELL RIVER A","1046395","2021-03-10 13:00","2021","03","10","13:00","7.9","","1.9","","66","","","","26","","14","","40.2","","100.08","","","","","","Mainly Clear"
"-124.50","49.83","POWELL RIVER A","1046395","2021-03-10 14:00","2021","03","10","14:00","8.1","","2.0","","65","","","","25","","13","","40.2","","100.08","","","","","","NA"
"-124.50","49.83","POWELL RIVER A","1046395","2021-03-10 15:00","2021","03","10","15:00","8.9","","1.2","","59","","","","27","","12","","40.2","","100.11","","","","","","NA"
"-124.50","49.83","POWELL RIVER A","1046395","2021-03-10 16:00","2021","03","10","16:00","8.8","","1.6","","60","","","","27","","10","","40.2","","100.12","","","","","","Mainly Clear"
"-124.50","49.83","POWELL RIVER A","1046395","2021-03-10 17:00","2021","03","10","17:00","8.3","","-1.2","","51","","","","26","","6","","40.2","","100.15","","","","","","NA"
"-124.50","49.83","POWELL RIVER A","1046395","2021-03-10 18:00","2021","03","10","18:00","5.2","","1.0","","74","","","","20","","3","","40.2","","100.20","","","","","","NA"
"-124.50","49.83","POWELL RIVER A","1046395","2021-03-10 19:00","2021","03","10","19:00","3.8","","1.1","","82","","","","36","","1","","40.2","","100.28","","","","","","Mainly Clear"
"-124.50","49.83","POWELL RIVER A","1046395","2021-03-10 20:00","2021","03","10","20:00"
"-124.50","49.83","POWELL RIVER A","1046395","2021-03-10 21:00","2021","03","10","21:00"
"-124.50","49.83","POWELL RIVER A","1046395","2021-03-10 22:00","2021","03","10","22:00"
"-124.50","49.83","POWELL RIVER A","1046395","2021-03-10 23:00","2021","03","10","23:00"
"-124.50","49.83","POWELL RIVER A","1046395","2021-03-11 00:00","2021","03","11","00:00"
"-124.50","49.83","POWELL RIVER A","1046395","2021-03-11 01:00","2021","03","11","01:00"
"-124.50","49.83","POWELL RIVER A","1046395","2021-03-11 02:00","2021","03","11","02:00"
"-124.50","49.83","POWELL RIVER A","1046395","2021-03-11 03:00","2021","03","11","03:00"
"-124.50","49.83","POWELL RIVER A","1046395","2021-03-11 04:00","2021","03","11","04:00"
"-124.50","49.83","POWELL RIVER A","1046395","2021-03-11 05:00","2021","03","11","05:00"
"-124.50","49.83","POWELL RIVER A","1046395","2021-03-11 06:00","2021","03","11","06:00"
"-124.50","49.83","POWELL RIVER A","1046395","2021-03-11 07:00","2021","03","11","07:00","-2.2","","-2.8","","96","","","","36","","2","","48.3","","100.90","","","","-3","","Mostly Cloudy"
"-124.50","49.83","POWELL RIVER A","1046395","2021-03-11 08:00","2021","03","11","08:00","-0.5","","-1.3","","94","","","","7","","3","","48.3","","100.98","","","","-1","","NA"
"-124.50","49.83","POWELL RIVER A","1046395","2021-03-11 09:00","2021","03","11","09:00","3.2","","-1.5","","72","","","","36","","2","","48.3","","101.01","","","","","","NA"
"-124.50","49.83","POWELL RIVER A","1046395","2021-03-11 10:00","2021","03","11","10:00","5.9","","-2.8","","54","","","","30","","3","","48.3","","100.98","","","","","","Mainly Clear"
"-124.50","49.83","POWELL RIVER A","1046395","2021-03-11 11:00","2021","03","11","11:00","6.2","","-0.4","","63","","","","27","","10","","48.3","","101.02","","","","","","NA"
"-124.50","49.83","POWELL RIVER A","1046395","2021-03-11 12:00","2021","03","11","12:00","7.0","","-0.4","","59","","","","28","","12","","48.3","","101.01","","","","","","NA"
"-124.50","49.83","POWELL RIVER A","1046395","2021-03-11 13:00","2021","03","11","13:00","7.3","","0.0","","59","","","","28","","9","","48.3","","101.03","","","","","","Mostly Cloudy"
"-124.50","49.83","POWELL RIVER A","1046395","2021-03-11 14:00","2021","03","11","14:00","8.6","","-0.3","","54","","","","28","","10","","48.3","","100.96","","","","","","NA"
"-124.50","49.83","POWELL RIVER A","1046395","2021-03-11 15:00","2021","03","11","15:00","9.4","","-0.6","","49","","","","27","","4","","48.3","","100.95","","","","","","NA"
"-124.50","49.83","POWELL RIVER A","1046395","2021-03-11 16:00","2021","03","11","16:00","8.9","","0.7","","56","","","","27","","5","","48.3","","100.93","","","","","","Mostly Cloudy"
"-124.50","49.83","POWELL RIVER A","1046395","2021-03-11 17:00","2021","03","11","17:00","7.7","","-0.1","","57","","","","13","","8","","48.3","","100.89","","","","","","NA"
"-124.50","49.83","POWELL RIVER A","1046395","2021-03-11 18:00","2021","03","11","18:00","5.8","","-0.2","","65","","","","13","","7","","48.3","","100.90","","","","","","NA"
"-124.50","49.83","POWELL RIVER A","1046395","2021-03-11 19:00","2021","03","11","19:00","4.3","","0.4","","75","","","","12","","8","","48.3","","100.94","","","","","","Mostly Cloudy"
"-124.50","49.83","POWELL RIVER A","1046395","2021-03-11 20:00","2021","03","11","20:00"
"-124.50","49.83","POWELL RIVER A","1046395","2021-03-11 21:00","2021","03","11","21:00"
"-124.50","49.83","POWELL RIVER A","1046395","2021-03-11 22:00","2021","03","11","22:00"
"-124.50","49.83","POWELL RIVER A","1046395","2021-03-11 23:00","2021","03","11","23:00"
"-124.50","49.83","POWELL RIVER A","1046395","2021-03-12 00:00","2021","03","12","00:00"
"-124.50","49.83","POWELL RIVER A","1046395","2021-03-12 01:00","2021","03","12","01:00"
"-124.50","49.83","POWELL RIVER A","1046395","2021-03-12 02:00","2021","03","12","02:00"
"-124.50","49.83","POWELL RIVER A","1046395","2021-03-12 03:00","2021","03","12","03:00"
"-124.50","49.83","POWELL RIVER A","1046395","2021-03-12 04:00","2021","03","12","04:00"
"-124.50","49.83","POWELL RIVER A","1046395","2021-03-12 05:00","2021","03","12","05:00"
"-124.50","49.83","POWELL RIVER A","1046395","2021-03-12 06:00","2021","03","12","06:00"
"-124.50","49.83","POWELL RIVER A","1046395","2021-03-12 07:00","2021","03","12","07:00","5.6","","-1.2","","61","","","","11","","10","","48.3","","101.06","","","","","","Cloudy"
"-124.50","49.83","POWELL RIVER A","1046395","2021-03-12 08:00","2021","03","12","08:00","5.4","","0.1","","68","","","","10","","6","","48.3","","101.14","","","","","","NA"
"-124.50","49.83","POWELL RIVER A","1046395","2021-03-12 09:00","2021","03","12","09:00","5.7","","0.7","","70","","","","8","","9","","48.3","","101.19","","","","","","NA"
"-124.50","49.83","POWELL RIVER A","1046395","2021-03-12 10:00","2021","03","12","10:00","6.0","","1.6","","74","","","","11","","14","","40.2","","101.21","","","","","","Cloudy"
"-124.50","49.83","POWELL RIVER A","1046395","2021-03-12 11:00","2021","03","12","11:00","6.3","","1.7","","72","","","","10","","10","","40.2","","101.23","","","","","","NA"
"-124.50","49.83","POWELL RIVER A","1046395","2021-03-12 12:00","2021","03","12","12:00","7.2","","0.1","","60","","","","13","","8","","32.2","","101.22","","","","","","NA"
"-124.50","49.83","POWELL RIVER A","1046395","2021-03-12 13:00","2021","03","12","13:00","7.3","","1.6","","67","","","","12","","6","","32.2","","101.20","","","","","","Cloudy"
"-124.50","49.83","POWELL RIVER A","1046395","2021-03-12 14:00","2021","03","12","14:00","7.6","","2.3","","69","","","","14","","7","","32.2","","101.15","","","","","","NA"
"-124.50","49.83","POWELL RIVER A","1046395","2021-03-12 15:00","2021","03","12","15:00","7.6","","2.2","","68","","","","36","","1","","40.2","","101.14","","","","","","NA"
"-124.50","49.83","POWELL RIVER A","1046395","2021-03-12 16:00","2021","03","12","16:00","7.9","","1.7","","65","","","","16","","5","","40.2","","101.08","","","","","","Cloudy"
"-124.50","49.83","POWELL RIVER A","1046395","2021-03-12 17:00","2021","03","12","17:00","7.8","","2.1","","67","","","","13","","8","","40.2","","101.04","","","","","","NA"
"-124.50","49.83","POWELL RIVER A","1046395","2021-03-12 18:00","2021","03","12","18:00","7.0","","1.6","","69","","","","13","","7","","40.2","","101.02","","","","","","NA"
"-124.50","49.83","POWELL RIVER A","1046395","2021-03-12 19:00","2021","03","12","19:00","6.3","","2.6","","77","","","","14","","8","","32.2","","101.03","","","","","","Cloudy"
"-124.50","49.83","POWELL RIVER A","1046395","2021-03-12 20:00","2021","03","12","20:00"
"-124.50","49.83","POWELL RIVER A","1046395","2021-03-12 21:00","2021","03","12","21:00"
"-124.50","49.83","POWELL RIVER A","1046395","2021-03-12 22:00","2021","03","12","22:00"
"-124.50","49.83","POWELL RIVER A","1046395","2021-03-12 23:00","2021","03","12","23:00"
"-124.50","49.83","POWELL RIVER A","1046395","2021-03-13 00:00","2021","03","13","00:00"
"-124.50","49.83","POWELL RIVER A","1046395","2021-03-13 01:00","2021","03","13","01:00"
"-124.50","49.83","POWELL RIVER A","1046395","2021-03-13 02:00","2021","03","13","02:00"
"-124.50","49.83","POWELL RIVER A","1046395","2021-03-13 03:00","2021","03","13","03:00"
"-124.50","49.83","POWELL RIVER A","1046395","2021-03-13 04:00","2021","03","13","04:00"
"-124.50","49.83","POWELL RIVER A","1046395","2021-03-13 05:00","2021","03","13","05:00"
"-124.50","49.83","POWELL RIVER A","1046395","2021-03-13 06:00","2021","03","13","06:00"
"-124.50","49.83","POWELL RIVER A","1046395","2021-03-13 07:00","2021","03","13","07:00","3.3","","1.8","","90","","","","9","","3","","40.2","","100.63","","","","","","Mostly Cloudy"
"-124.50","49.83","POWELL RIVER A","1046395","2021-03-13 08:00","2021","03","13","08:00","5.5","","2.5","","81","","","","10","","7","","40.2","","100.63","","","","","","NA"
"-124.50","49.83","POWELL RIVER A","1046395","2021-03-13 09:00","2021","03","13","09:00","7.9","","3.2","","72","","","","12","","15","","48.3","","100.64","","","","","","NA"
"-124.50","49.83","POWELL RIVER A","1046395","2021-03-13 10:00","2021","03","13","10:00","8.2","","2.5","","67","","","","11","","17","","48.3","","100.65","","","","","","Cloudy"
"-124.50","49.83","POWELL RIVER A","1046395","2021-03-13 11:00","2021","03","13","11:00","9.6","","2.7","","62","","","","12","","20","","48.3","","100.61","","","","","","NA"
"-124.50","49.83","POWELL RIVER A","1046395","2021-03-13 12:00","2021","03","13","12:00","9.4","","2.4","","61","","","","11","","23","","40.2","","100.59","","","","","","NA"
"-124.50","49.83","POWELL RIVER A","1046395","2021-03-13 13:00","2021","03","13","13:00","10.0","","1.5","","55","","","","12","","26","","48.3","","100.49","","","","","","Cloudy"
"-124.50","49.83","POWELL RIVER A","1046395","2021-03-13 14:00","2021","03","13","14:00","10.3","","2.7","","59","","","","9","","19","","40.2","","100.36","","","","","","NA"
"-124.50","49.83","POWELL RIVER A","1046395","2021-03-13 15:00","2021","03","13","15:00","10.6","","2.4","","57","","","","9","","18","","40.2","","100.30","","","","","","NA"
"-124.50","49.83","POWELL RIVER A","1046395","2021-03-13 16:00","2021","03","13","16:00","9.6","","2.6","","61","","","","10","","14","","48.3","","100.23","","","","","","Cloudy"
"-124.50","49.83","POWELL RIVER A","1046395","2021-03-13 17:00","2021","03","13","17:00","9.1","","1.4","","59","","","","10","","20","","48.3","","100.17","","","","","","NA"
"-124.50","49.83","POWELL RIVER A","1046395","2021-03-13 18:00","2021","03","13","18:00","8.7","","0.8","","57","","","","10","","21","","40.2","","100.11","","","","","","NA"
"-124.50","49.83","POWELL RIVER A","1046395","2021-03-13 19:00","2021","03","13","19:00","8.2","","1.3","","62","","","","10","","17","","32.2","","100.05","","","","","","Cloudy"
"-124.50","49.83","POWELL RIVER A","1046395","2021-03-13 20:00","2021","03","13","20:00"
"-124.50","49.83","POWELL RIVER A","1046395","2021-03-13 21:00","2021","03","13","21:00"
"-124.50","49.83","POWELL RIVER A","1046395","2021-03-13 22:00","2021","03","13","22:00"
"-124.50","49.83","POWELL RIVER A","1046395","2021-03-13 23:00","2021","03","13","23:00"
"-124.50","49.83","POWELL RIVER A","1046395","2021-03-14 00:00","2021","03","14","00:00"
"-124.50","49.83","POWELL RIVER A","1046395","2021-03-14 01:00","2021","03","14","01:00"
"-124.50","49.83","POWELL RIVER A","1046395","2021-03-14 02:00","2021","03","14","02:00"
"-124.50","49.83","POWELL RIVER A","1046395","2021-03-14 03:00","2021","03","14","03:00"
"-124.50","49.83","POWELL RIVER A","1046395","2021-03-14 04:00","2021","03","14","04:00"
"-124.50","49.83","POWELL RIVER A","1046395","2021-03-14 05:00","2021","03","14","05:00","8.4","","1.8","","63","","","","13","","16","","16.1","","99.42","","","","","","Rain"
"-124.50","49.83","POWELL RIVER A","1046395","2021-03-14 06:00","2021","03","14","06:00","7.7","","3.6","","76","","","","11","","28","","16.1","","99.34","","","","","","Rain"
"-124.50","49.83","POWELL RIVER A","1046395","2021-03-14 07:00","2021","03","14","07:00","7.5","","3.9","","78","","","","10","","33","","16.1","","99.26","","","","","","Rain"
"-124.50","49.83","POWELL RIVER A","1046395","2021-03-14 08:00","2021","03","14","08:00","7.1","","4.1","","81","","","","9","","32","","16.1","","99.23","","","","","","Rain"
"-124.50","49.83","POWELL RIVER A","1046395","2021-03-14 09:00","2021","03","14","09:00","7.0","","4.3","","83","","","","10","","25","","16.1","","99.21","","","","","","Rain"
"-124.50","49.83","POWELL RIVER A","1046395","2021-03-14 10:00","2021","03","14","10:00","7.3","","4.3","","81","","","","11","","34","","16.1","","99.18","","","","","","Rain"
"-124.50","49.83","POWELL RIVER A","1046395","2021-03-14 11:00","2021","03","14","11:00","7.3","","5.0","","85","","","","10","","17","","16.1","","99.29","","","","","","Rain"
"-124.50","49.83","POWELL RIVER A","1046395","2021-03-14 12:00","2021","03","14","12:00","7.1","","5.1","","87","","","","12","","21","","14.5","","99.38","","","","","","Rain"
"-124.50","49.83","POWELL RIVER A","1046395","2021-03-14 13:00","2021","03","14","13:00","0.4","","0.0","","98","","","","28","","21","","1.0","","99.52","","","","","","Snow"
"-124.50","49.83","POWELL RIVER A","1046395","2021-03-14 14:00","2021","03","14","14:00","2.7","","1.4","","91","","","","29","","23","","12.9","","99.58","","","","","","Rain"
"-124.50","49.83","POWELL RIVER A","1046395","2021-03-14 15:00","2021","03","14","15:00","3.5","","1.2","","85","","","","27","","27","","32.2","","99.66","","","","","","Rain"
"-124.50","49.83","POWELL RIVER A","1046395","2021-03-14 16:00","2021","03","14","16:00","3.7","","-0.8","","72","","","","31","","16","","40.2","","99.72","","","","","","Mostly Cloudy"
"-124.50","49.83","POWELL RIVER A","1046395","2021-03-14 17:00","2021","03","14","17:00","3.5","","-0.8","","73","","","","29","","19","","40.2","","99.80","","","","","","NA"
"-124.50","49.83","POWELL RIVER A","1046395","2021-03-14 18:00","2021","03","14","18:00","2.9","","-1.1","","75","","","","30","","17","","40.2","","99.87","","","","","","NA"
"-124.50","49.83","POWELL RIVER A","1046395","2021-03-14 19:00","2021","03","14","19:00"
"-124.50","49.83","POWELL RIVER A","1046395","2021-03-14 20:00","2021","03","14","20:00"
"-124.50","49.83","POWELL RIVER A","1046395","2021-03-14 21:00","2021","03","14","21:00"
"-124.50","49.83","POWELL RIVER A","1046395","2021-03-14 22:00","2021","03","14","22:00"
"-124.50","49.83","POWELL RIVER A","1046395","2021-03-14 23:00","2021","03","14","23:00"
"-124.50","49.83","POWELL RIVER A","1046395","2021-03-15 00:00","2021","03","15","00:00"
"-124.50","49.83","POWELL RIVER A","1046395","2021-03-15 01:00","2021","03","15","01:00"
"-124.50","49.83","POWELL RIVER A","1046395","2021-03-15 02:00","2021","03","15","02:00"
"-124.50","49.83","POWELL RIVER A","1046395","2021-03-15 03:00","2021","03","15","03:00"
"-124.50","49.83","POWELL RIVER A","1046395","2021-03-15 04:00","2021","03","15","04:00"
"-124.50","49.83","POWELL RIVER A","1046395","2021-03-15 05:00","2021","03","15","05:00","-2.4","","-3.1","","95","","","","36","","1","","32.2","","100.45","","","","-3","","NA"
"-124.50","49.83","POWELL RIVER A","1046395","2021-03-15 06:00","2021","03","15","06:00","-2.0","","-2.5","","96","","","","","","0","","40.2","","100.53","","","","","","NA"
"-124.50","49.83","POWELL RIVER A","1046395","2021-03-15 07:00","2021","03","15","07:00","-2.3","","-2.8","","97","","","","20","","3","","40.2","","100.59","","","","-3","","Clear"
"-124.50","49.83","POWELL RIVER A","1046395","2021-03-15 08:00","2021","03","15","08:00","0.5","","-1.0","","90","","","","26","","4","","40.2","","100.67","","","","","","NA"
"-124.50","49.83","POWELL RIVER A","1046395","2021-03-15 09:00","2021","03","15","09:00","2.5","","-0.8","","79","","","","28","","8","","40.2","","100.76","","","","","","NA"
"-124.50","49.83","POWELL RIVER A","1046395","2021-03-15 10:00","2021","03","15","10:00","3.5","","-0.4","","76","","","","26","","12","","40.2","","100.78","","","","","","Mainly Clear"
"-124.50","49.83","POWELL RIVER A","1046395","2021-03-15 11:00","2021","03","15","11:00","4.1","","-0.4","","72","","","","27","","13","","40.2","","100.80","","","","","","NA"
"-124.50","49.83","POWELL RIVER A","1046395","2021-03-15 12:00","2021","03","15","12:00","5.2","","0.0","","69","","","","28","","13","","40.2","","100.83","","","","","","NA"
"-124.50","49.83","POWELL RIVER A","1046395","2021-03-15 13:00","2021","03","15","13:00","5.6","","-1.1","","62","","","","27","","16","","40.2","","100.80","","","","","","Mainly Clear"
"-124.50","49.83","POWELL RIVER A","1046395","2021-03-15 14:00","2021","03","15","14:00","6.3","","-1.5","","57","","","","28","","16","","40.2","","100.78","","","","","","NA"
"-124.50","49.83","POWELL RIVER A","1046395","2021-03-15 15:00","2021","03","15","15:00","6.7","","-1.6","","56","","","","30","","14","","40.2","","100.77","","","","","","NA"
"-124.50","49.83","POWELL RIVER A","1046395","2021-03-15 16:00","2021","03","15","16:00","6.9","","-1.5","","55","","","","28","","12","","40.2","","100.76","","","","","","Mainly Clear"
"-124.50","49.83","POWELL RIVER A","1046395","2021-03-15 17:00","2021","03","15","17:00","6.9","","-1.5","","55","","","","29","","9","","40.2","","100.74","","","","","","NA"
"-124.50","49.83","POWELL RIVER A","1046395","2021-03-15 18:00","2021","03","15","18:00","5.5","","-1.0","","63","","","","27","","5","","40.2","","100.73","","","","","","NA"
"-124.50","49.83","POWELL RIVER A","1046395","2021-03-15 19:00","2021","03","15","19:00"
"-124.50","49.83","POWELL RIVER A","1046395","2021-03-15 20:00","2021","03","15","20:00"
"-124.50","49.83","POWELL RIVER A","1046395","2021-03-15 21:00","2021","03","15","21:00"
"-124.50","49.83","POWELL RIVER A","1046395","2021-03-15 22:00","2021","03","15","22:00"
"-124.50","49.83","POWELL RIVER A","1046395","2021-03-15 23:00","2021","03","15","23:00"
"-124.50","49.83","POWELL RIVER A","1046395","2021-03-16 00:00","2021","03","16","00:00"
"-124.50","49.83","POWELL RIVER A","1046395","2021-03-16 01:00","2021","03","16","01:00"
"-124.50","49.83","POWELL RIVER A","1046395","2021-03-16 02:00","2021","03","16","02:00"
"-124.50","49.83","POWELL RIVER A","1046395","2021-03-16 03:00","2021","03","16","03:00"
"-124.50","49.83","POWELL RIVER A","1046395","2021-03-16 04:00","2021","03","16","04:00"
"-124.50","49.83","POWELL RIVER A","1046395","2021-03-16 05:00","2021","03","16","05:00","-2.9","","-3.2","","98","","","","7","","4","","40.2","","100.77","","","","-4","","NA"
"-124.50","49.83","POWELL RIVER A","1046395","2021-03-16 06:00","2021","03","16","06:00","-2.1","","-2.3","","99","","","","6","","4","","40.2","","100.77","","","","-4","","NA"
"-124.50","49.83","POWELL RIVER A","1046395","2021-03-16 07:00","2021","03","16","07:00","-2.0","","-2.3","","98","","","","11","","3","","40.2","","100.76","","","","-3","","Mostly Cloudy"
"-124.50","49.83","POWELL RIVER A","1046395","2021-03-16 08:00","2021","03","16","08:00","-0.5","","-0.8","","98","","","","7","","4","","40.2","","100.75","","","","-2","","NA"
"-124.50","49.83","POWELL RIVER A","1046395","2021-03-16 09:00","2021","03","16","09:00","3.3","","0.9","","85","","","","36","","3","","40.2","","100.74","","","","","","NA"
"-124.50","49.83","POWELL RIVER A","1046395","2021-03-16 10:00","2021","03","16","10:00","4.4","","1.7","","83","","","","28","","9","","40.2","","100.71","","","","","","Mainly Clear"
"-124.50","49.83","POWELL RIVER A","1046395","2021-03-16 11:00","2021","03","16","11:00","5.6","","2.2","","79","","","","29","","10","","40.2","","100.66","","","","","","NA"
"-124.50","49.83","POWELL RIVER A","1046395","2021-03-16 12:00","2021","03","16","12:00","6.2","","2.0","","74","","","","28","","10","","40.2","","100.63","","","","","","NA"
"-124.50","49.83","POWELL RIVER A","1046395","2021-03-16 13:00","2021","03","16","13:00","7.2","","2.1","","70","","","","27","","8","","40.2","","100.55","","","","","","Mainly Clear"
"-124.50","49.83","POWELL RIVER A","1046395","2021-03-16 14:00","2021","03","16","14:00","8.9","","1.3","","59","","","","33","","3","","40.2","","100.47","","","","","","NA"
"-124.50","49.83","POWELL RIVER A","1046395","2021-03-16 15:00","2021","03","16","15:00","8.5","","1.8","","62","","","","30","","7","","40.2","","100.41","","","","","","NA"
"-124.50","49.83","POWELL RIVER A","1046395","2021-03-16 16:00","2021","03","16","16:00","8.4","","1.2","","61","","","","28","","7","","40.2","","100.38","","","","","","Mainly Clear"
"-124.50","49.83","POWELL RIVER A","1046395","2021-03-16 17:00","2021","03","16","17:00","6.9","","1.5","","68","","","","28","","8","","40.2","","100.36","","","","","","NA"
"-124.50","49.83","POWELL RIVER A","1046395","2021-03-16 18:00","2021","03","16","18:00","5.2","","0.1","","70","","","","12","","5","","40.2","","100.33","","","","","","NA"
"-124.50","49.83","POWELL RIVER A","1046395","2021-03-16 19:00","2021","03","16","19:00"
"-124.50","49.83","POWELL RIVER A","1046395","2021-03-16 20:00","2021","03","16","20:00"
"-124.50","49.83","POWELL RIVER A","1046395","2021-03-16 21:00","2021","03","16","21:00"
"-124.50","49.83","POWELL RIVER A","1046395","2021-03-16 22:00","2021","03","16","22:00"
"-124.50","49.83","POWELL RIVER A","1046395","2021-03-16 23:00","2021","03","16","23:00"
"-124.50","49.83","POWELL RIVER A","1046395","2021-03-17 00:00","2021","03","17","00:00"
"-124.50","49.83","POWELL RIVER A","1046395","2021-03-17 01:00","2021","03","17","01:00"
"-124.50","49.83","POWELL RIVER A","1046395","2021-03-17 02:00","2021","03","17","02:00"
"-124.50","49.83","POWELL RIVER A","1046395","2021-03-17 03:00","2021","03","17","03:00"
"-124.50","49.83","POWELL RIVER A","1046395","2021-03-17 04:00","2021","03","17","04:00"
"-124.50","49.83","POWELL RIVER A","1046395","2021-03-17 05:00","2021","03","17","05:00","4.2","","0.6","","77","","","","10","","7","","32.2","","100.25","","","","","","NA"
"-124.50","49.83","POWELL RIVER A","1046395","2021-03-17 06:00","2021","03","17","06:00","3.6","","0.9","","83","","","","9","","5","","24.1","","100.25","","","","","","NA"
"-124.50","49.83","POWELL RIVER A","1046395","2021-03-17 07:00","2021","03","17","07:00","3.1","","1.3","","88","","","","14","","3","","32.2","","100.25","","","","","","Cloudy"
"-124.50","49.83","POWELL RIVER A","1046395","2021-03-17 08:00","2021","03","17","08:00","4.7","","2.1","","83","","","","36","","3","","32.2","","100.24","","","","","","NA"
"-124.50","49.83","POWELL RIVER A","1046395","2021-03-17 09:00","2021","03","17","09:00","6.7","","1.7","","70","","","","8","","7","","40.2","","100.23","","","","","","NA"
"-124.50","49.83","POWELL RIVER A","1046395","2021-03-17 10:00","2021","03","17","10:00","7.4","","1.9","","68","","","","10","","11","","40.2","","100.20","","","","","","Mostly Cloudy"
"-124.50","49.83","POWELL RIVER A","1046395","2021-03-17 11:00","2021","03","17","11:00","9.7","","1.2","","55","","","","11","","16","","40.2","","100.14","","","","","","NA"
"-124.50","49.83","POWELL RIVER A","1046395","2021-03-17 12:00","2021","03","17","12:00","10.0","","0.9","","53","","","","11","","16","","40.2","","100.10","","","","","","NA"
"-124.50","49.83","POWELL RIVER A","1046395","2021-03-17 13:00","2021","03","17","13:00","9.7","","0.6","","53","","","","11","","13","","40.2","","100.05","","","","","","Mostly Cloudy"
"-124.50","49.83","POWELL RIVER A","1046395","2021-03-17 14:00","2021","03","17","14:00","9.7","","1.0","","54","","","","12","","13","","40.2","","99.98","","","","","","NA"
"-124.50","49.83","POWELL RIVER A","1046395","2021-03-17 15:00","2021","03","17","15:00","10.1","","0.5","","51","","","","11","","13","","32.2","","99.92","","","","","","NA"
"-124.50","49.83","POWELL RIVER A","1046395","2021-03-17 16:00","2021","03","17","16:00","10.5","","0.3","","49","","","","11","","11","","40.2","","99.85","","","","","","Mostly Cloudy"
"-124.50","49.83","POWELL RIVER A","1046395","2021-03-17 17:00","2021","03","17","17:00","8.8","","0.2","","54","","","","13","","9","","48.3","","99.75","","","","","","NA"
"-124.50","49.83","POWELL RIVER A","1046395","2021-03-17 18:00","2021","03","17","18:00","6.9","","1.4","","67","","","","13","","7","","48.3","","99.71","","","","","","NA"
"-124.50","49.83","POWELL RIVER A","1046395","2021-03-17 19:00","2021","03","17","19:00"
"-124.50","49.83","POWELL RIVER A","1046395","2021-03-17 20:00","2021","03","17","20:00"
"-124.50","49.83","POWELL RIVER A","1046395","2021-03-17 21:00","2021","03","17","21:00"
"-124.50","49.83","POWELL RIVER A","1046395","2021-03-17 22:00","2021","03","17","22:00"
"-124.50","49.83","POWELL RIVER A","1046395","2021-03-17 23:00","2021","03","17","23:00"
"-124.50","49.83","POWELL RIVER A","1046395","2021-03-18 00:00","2021","03","18","00:00"
"-124.50","49.83","POWELL RIVER A","1046395","2021-03-18 01:00","2021","03","18","01:00"
"-124.50","49.83","POWELL RIVER A","1046395","2021-03-18 02:00","2021","03","18","02:00"
"-124.50","49.83","POWELL RIVER A","1046395","2021-03-18 03:00","2021","03","18","03:00"
"-124.50","49.83","POWELL RIVER A","1046395","2021-03-18 04:00","2021","03","18","04:00"
"-124.50","49.83","POWELL RIVER A","1046395","2021-03-18 05:00","2021","03","18","05:00","2.9","","1.3","","89","","","","6","","5","","32.2","","99.21","","","","","","NA"
"-124.50","49.83","POWELL RIVER A","1046395","2021-03-18 06:00","2021","03","18","06:00","3.0","","1.8","","92","","","","9","","6","","24.1","","99.14","","","","","","NA"
"-124.50","49.83","POWELL RIVER A","1046395","2021-03-18 07:00","2021","03","18","07:00","6.2","","2.8","","79","","","","10","","8","","32.2","","99.15","","","","","","Cloudy"
"-124.50","49.83","POWELL RIVER A","1046395","2021-03-18 08:00","2021","03","18","08:00","7.1","","3.2","","76","","","","12","","9","","40.2","","99.14","","","","","","Rain"
"-124.50","49.83","POWELL RIVER A","1046395","2021-03-18 09:00","2021","03","18","09:00","7.2","","3.3","","76","","","","12","","4","","24.1","","99.18","","","","","","NA"
"-124.50","49.83","POWELL RIVER A","1046395","2021-03-18 10:00","2021","03","18","10:00","7.3","","3.5","","77","","","","8","","10","","24.1","","99.19","","","","","","Rain"
"-124.50","49.83","POWELL RIVER A","1046395","2021-03-18 11:00","2021","03","18","11:00","6.9","","4.4","","84","","","","8","","22","","12.9","","99.18","","","","","","Rain"
"-124.50","49.83","POWELL RIVER A","1046395","2021-03-18 12:00","2021","03","18","12:00","9.5","","5.7","","77","","","","11","","20","","24.1","","99.13","","","","","","NA"
"-124.50","49.83","POWELL RIVER A","1046395","2021-03-18 13:00","2021","03","18","13:00","9.1","","4.8","","75","","","","11","","24","","24.1","","99.15","","","","","","Cloudy"
"-124.50","49.83","POWELL RIVER A","1046395","2021-03-18 14:00","2021","03","18","14:00","9.7","","5.4","","75","","","","10","","28","","24.1","","99.19","","","","","","NA"
"-124.50","49.83","POWELL RIVER A","1046395","2021-03-18 15:00","2021","03","18","15:00","10.6","","5.5","","70","","","","12","","23","","32.2","","99.21","","","","","","NA"
"-124.50","49.83","POWELL RIVER A","1046395","2021-03-18 16:00","2021","03","18","16:00","9.8","","5.2","","73","","","","11","","15","","40.2","","99.21","","","","","","Cloudy"
"-124.50","49.83","POWELL RIVER A","1046395","2021-03-18 17:00","2021","03","18","17:00","8.7","","6.1","","84","","","","12","","11","","40.2","","99.21","","","","","","Rain"
"-124.50","49.83","POWELL RIVER A","1046395","2021-03-18 18:00","2021","03","18","18:00","8.4","","5.4","","81","","","","11","","13","","40.2","","99.18","","","","","","Rain"
"-124.50","49.83","POWELL RIVER A","1046395","2021-03-18 19:00","2021","03","18","19:00"
"-124.50","49.83","POWELL RIVER A","1046395","2021-03-18 20:00","2021","03","18","20:00"
"-124.50","49.83","POWELL RIVER A","1046395","2021-03-18 21:00","2021","03","18","21:00"
"-124.50","49.83","POWELL RIVER A","1046395","2021-03-18 22:00","2021","03","18","22:00"
"-124.50","49.83","POWELL RIVER A","1046395","2021-03-18 23:00","2021","03","18","23:00"
"-124.50","49.83","POWELL RIVER A","1046395","2021-03-19 00:00","2021","03","19","00:00"
"-124.50","49.83","POWELL RIVER A","1046395","2021-03-19 01:00","2021","03","19","01:00"
"-124.50","49.83","POWELL RIVER A","1046395","2021-03-19 02:00","2021","03","19","02:00"
"-124.50","49.83","POWELL RIVER A","1046395","2021-03-19 03:00","2021","03","19","03:00"
"-124.50","49.83","POWELL RIVER A","1046395","2021-03-19 04:00","2021","03","19","04:00"
"-124.50","49.83","POWELL RIVER A","1046395","2021-03-19 05:00","2021","03","19","05:00","6.6","","4.4","","86","","","","10","","26","","24.1","","99.50","","","","","","Rain"
"-124.50","49.83","POWELL RIVER A","1046395","2021-03-19 06:00","2021","03","19","06:00","6.0","","4.4","","89","","","","10","","26","","24.1","","99.52","","","","","","NA"
"-124.50","49.83","POWELL RIVER A","1046395","2021-03-19 07:00","2021","03","19","07:00","6.5","","4.3","","86","","","","10","","20","","32.2","","99.53","","","","","","Cloudy"
"-124.50","49.83","POWELL RIVER A","1046395","2021-03-19 08:00","2021","03","19","08:00","6.7","","4.2","","84","","","","10","","17","","24.1","","99.57","","","","","","Rain"
"-124.50","49.83","POWELL RIVER A","1046395","2021-03-19 09:00","2021","03","19","09:00","7.3","","4.4","","82","","","","11","","20","","24.1","","99.58","","","","","","NA"
"-124.50","49.83","POWELL RIVER A","1046395","2021-03-19 10:00","2021","03","19","10:00","6.6","","5.0","","89","","","","12","","28","","19.3","","99.64","","","","","","Rain"
"-124.50","49.83","POWELL RIVER A","1046395","2021-03-19 11:00","2021","03","19","11:00","7.5","","4.9","","84","","","","11","","27","","24.1","","99.64","","","","","","Rain"
"-124.50","49.83","POWELL RIVER A","1046395","2021-03-19 12:00","2021","03","19","12:00","7.8","","4.8","","82","","","","10","","23","","24.1","","99.66","","","","","","NA"
"-124.50","49.83","POWELL RIVER A","1046395","2021-03-19 13:00","2021","03","19","13:00","8.6","","4.4","","75","","","","11","","30","","32.2","","99.67","","","","","","Cloudy"
"-124.50","49.83","POWELL RIVER A","1046395","2021-03-19 14:00","2021","03","19","14:00","8.7","","4.8","","77","","","","12","","18","","32.2","","99.64","","","","","","NA"
"-124.50","49.83","POWELL RIVER A","1046395","2021-03-19 15:00","2021","03","19","15:00","8.2","","4.8","","79","","","","10","","17","","24.1","","99.68","","","","","","NA"
"-124.50","49.83","POWELL RIVER A","1046395","2021-03-19 16:00","2021","03","19","16:00","6.9","","5.8","","93","","","","12","","8","","16.1","","99.72","","","","","","Rain"
"-124.50","49.83","POWELL RIVER A","1046395","2021-03-19 17:00","2021","03","19","17:00","6.4","","5.3","","93","","","","9","","16","","32.2","","99.67","","","","","","Rain"
"-124.50","49.83","POWELL RIVER A","1046395","2021-03-19 18:00","2021","03","19","18:00","6.2","","4.6","","89","","","","9","","15","","32.2","","99.60","","","","","","NA"
"-124.50","49.83","POWELL RIVER A","1046395","2021-03-19 19:00","2021","03","19","19:00"
"-124.50","49.83","POWELL RIVER A","1046395","2021-03-19 20:00","2021","03","19","20:00"
"-124.50","49.83","POWELL RIVER A","1046395","2021-03-19 21:00","2021","03","19","21:00"
"-124.50","49.83","POWELL RIVER A","1046395","2021-03-19 22:00","2021","03","19","22:00"
"-124.50","49.83","POWELL RIVER A","1046395","2021-03-19 23:00","2021","03","19","23:00"
"-124.50","49.83","POWELL RIVER A","1046395","2021-03-20 00:00","2021","03","20","00:00"
"-124.50","49.83","POWELL RIVER A","1046395","2021-03-20 01:00","2021","03","20","01:00"
"-124.50","49.83","POWELL RIVER A","1046395","2021-03-20 02:00","2021","03","20","02:00"
"-124.50","49.83","POWELL RIVER A","1046395","2021-03-20 03:00","2021","03","20","03:00"
"-124.50","49.83","POWELL RIVER A","1046395","2021-03-20 04:00","2021","03","20","04:00"
"-124.50","49.83","POWELL RIVER A","1046395","2021-03-20 05:00","2021","03","20","05:00","4.5","","4.2","","98","","","","36","","1","","16.1","","99.93","","","","","","Rain"
"-124.50","49.83","POWELL RIVER A","1046395","2021-03-20 06:00","2021","03","20","06:00","4.6","","4.3","","98","","","","31","","7","","11.3","","100.01","","","","","","Rain"
"-124.50","49.83","POWELL RIVER A","1046395","2021-03-20 07:00","2021","03","20","07:00","4.6","","4.3","","98","","","","9","","3","","24.1","","100.07","","","","","","Rain"
"-124.50","49.83","POWELL RIVER A","1046395","2021-03-20 08:00","2021","03","20","08:00","5.1","","4.9","","98","","","","36","","1","","24.1","","100.11","","","","","","NA"
"-124.50","49.83","POWELL RIVER A","1046395","2021-03-20 09:00","2021","03","20","09:00","5.8","","5.1","","95","","","","28","","16","","32.2","","100.20","","","","","","NA"
"-124.50","49.83","POWELL RIVER A","1046395","2021-03-20 10:00","2021","03","20","10:00","6.9","","4.5","","84","","","","27","","21","","32.2","","100.30","","","","","","Mostly Cloudy"
"-124.50","49.83","POWELL RIVER A","1046395","2021-03-20 11:00","2021","03","20","11:00","6.6","","2.9","","77","","","","28","","28","","32.2","","100.35","","","","","","NA"
"-124.50","49.83","POWELL RIVER A","1046395","2021-03-20 12:00","2021","03","20","12:00","7.7","","2.7","","71","","","","28","","26","","32.2","","100.41","","","","","","NA"
"-124.50","49.83","POWELL RIVER A","1046395","2021-03-20 13:00","2021","03","20","13:00","7.7","","-0.1","","58","","","","29","","24","","32.2","","100.47","","","","","","Cloudy"
"-124.50","49.83","POWELL RIVER A","1046395","2021-03-20 14:00","2021","03","20","14:00","7.8","","-0.6","","55","","","","29","","22","","32.2","","100.49","","","","","","NA"
"-124.50","49.83","POWELL RIVER A","1046395","2021-03-20 15:00","2021","03","20","15:00","8.2","","-2.0","","48","","","","28","","25","","32.2","","100.53","","","","","","NA"
"-124.50","49.83","POWELL RIVER A","1046395","2021-03-20 16:00","2021","03","20","16:00","7.5","","-3.2","","46","","","","30","","14","","32.2","","100.56","","","","","","Cloudy"
"-124.50","49.83","POWELL RIVER A","1046395","2021-03-20 17:00","2021","03","20","17:00","6.8","","-0.6","","59","","","","28","","18","","32.2","","100.59","","","","","","NA"
"-124.50","49.83","POWELL RIVER A","1046395","2021-03-20 18:00","2021","03","20","18:00","6.2","","-0.4","","63","","","","29","","18","","32.2","","100.66","","","","","","NA"
"-124.50","49.83","POWELL RIVER A","1046395","2021-03-20 19:00","2021","03","20","19:00"
"-124.50","49.83","POWELL RIVER A","1046395","2021-03-20 20:00","2021","03","20","20:00"
"-124.50","49.83","POWELL RIVER A","1046395","2021-03-20 21:00","2021","03","20","21:00"
"-124.50","49.83","POWELL RIVER A","1046395","2021-03-20 22:00","2021","03","20","22:00"
"-124.50","49.83","POWELL RIVER A","1046395","2021-03-20 23:00","2021","03","20","23:00"
"-124.50","49.83","POWELL RIVER A","1046395","2021-03-21 00:00","2021","03","21","00:00"
"-124.50","49.83","POWELL RIVER A","1046395","2021-03-21 01:00","2021","03","21","01:00"
"-124.50","49.83","POWELL RIVER A","1046395","2021-03-21 02:00","2021","03","21","02:00"
"-124.50","49.83","POWELL RIVER A","1046395","2021-03-21 03:00","2021","03","21","03:00"
"-124.50","49.83","POWELL RIVER A","1046395","2021-03-21 04:00","2021","03","21","04:00"
"-124.50","49.83","POWELL RIVER A","1046395","2021-03-21 05:00","2021","03","21","05:00","2.5","","1.3","","92","","","","9","","7","","11.3","","100.88","","","","","","Rain"
"-124.50","49.83","POWELL RIVER A","1046395","2021-03-21 06:00","2021","03","21","06:00","2.5","","1.6","","94","","","","8","","14","","12.9","","100.82","","","","","","Rain"
"-124.50","49.83","POWELL RIVER A","1046395","2021-03-21 07:00","2021","03","21","07:00","2.3","","1.5","","95","","","","10","","14","","32.2","","100.80","","","","","","Rain"
"-124.50","49.83","POWELL RIVER A","1046395","2021-03-21 08:00","2021","03","21","08:00","2.1","","1.4","","95","","","","11","","18","","32.2","","100.74","","","","","","Rain"
"-124.50","49.83","POWELL RIVER A","1046395","2021-03-21 09:00","2021","03","21","09:00","2.8","","1.9","","94","","","","10","","16","","32.2","","100.71","","","","","","NA"
"-124.50","49.83","POWELL RIVER A","1046395","2021-03-21 10:00","2021","03","21","10:00","3.5","","2.2","","91","","","","11","","26","","32.2","","100.68","","","","","","Cloudy"
"-124.50","49.83","POWELL RIVER A","1046395","2021-03-21 11:00","2021","03","21","11:00","4.0","","2.4","","89","","","","10","","22","","32.2","","100.61","","","","","","NA"
"-124.50","49.83","POWELL RIVER A","1046395","2021-03-21 12:00","2021","03","21","12:00","4.4","","2.5","","87","","","","10","","28","","32.2","","100.52","","","","","","NA"
"-124.50","49.83","POWELL RIVER A","1046395","2021-03-21 13:00","2021","03","21","13:00","4.8","","2.8","","87","","","","10","","21","","32.2","","100.41","","","","","","Rain"
"-124.50","49.83","POWELL RIVER A","1046395","2021-03-21 14:00","2021","03","21","14:00","5.1","","3.0","","86","","","","10","","30","","24.1","","100.31","","","","","","Rain"
"-124.50","49.83","POWELL RIVER A","1046395","2021-03-21 15:00","2021","03","21","15:00","5.5","","3.4","","87","","","","11","","37","","24.1","","100.21","","","","","","Rain"
"-124.50","49.83","POWELL RIVER A","1046395","2021-03-21 16:00","2021","03","21","16:00","5.8","","3.4","","84","","","","11","","34","","24.1","","100.09","","","","","","Rain"
"-124.50","49.83","POWELL RIVER A","1046395","2021-03-21 17:00","2021","03","21","17:00","5.5","","3.2","","85","","","","11","","31","","24.1","","99.97","","","","","","Rain"
"-124.50","49.83","POWELL RIVER A","1046395","2021-03-21 18:00","2021","03","21","18:00","5.4","","3.4","","87","","","","11","","24","","24.1","","99.90","","","","","","NA"
"-124.50","49.83","POWELL RIVER A","1046395","2021-03-21 19:00","2021","03","21","19:00"
"-124.50","49.83","POWELL RIVER A","1046395","2021-03-21 20:00","2021","03","21","20:00"
"-124.50","49.83","POWELL RIVER A","1046395","2021-03-21 21:00","2021","03","21","21:00"
"-124.50","49.83","POWELL RIVER A","1046395","2021-03-21 22:00","2021","03","21","22:00"
"-124.50","49.83","POWELL RIVER A","1046395","2021-03-21 23:00","2021","03","21","23:00"
"-124.50","49.83","POWELL RIVER A","1046395","2021-03-22 00:00","2021","03","22","00:00"
"-124.50","49.83","POWELL RIVER A","1046395","2021-03-22 01:00","2021","03","22","01:00"
"-124.50","49.83","POWELL RIVER A","1046395","2021-03-22 02:00","2021","03","22","02:00"
"-124.50","49.83","POWELL RIVER A","1046395","2021-03-22 03:00","2021","03","22","03:00"
"-124.50","49.83","POWELL RIVER A","1046395","2021-03-22 04:00","2021","03","22","04:00"
"-124.50","49.83","POWELL RIVER A","1046395","2021-03-22 05:00","2021","03","22","05:00","-0.6","","-0.8","","99","","","","36","","2","","24.1","","100.03","","","","-1","","NA"
"-124.50","49.83","POWELL RIVER A","1046395","2021-03-22 06:00","2021","03","22","06:00","0.9","","0.8","","99","","","","26","","7","","32.2","","100.04","","","","","","NA"
"-124.50","49.83","POWELL RIVER A","1046395","2021-03-22 07:00","2021","03","22","07:00","-0.4","","-0.6","","99","","","","36","","2","","40.2","","100.09","","","","-1","","Mainly Clear"
"-124.50","49.83","POWELL RIVER A","1046395","2021-03-22 08:00","2021","03","22","08:00","2.1","","1.9","","99","","","","7","","3","","40.2","","100.14","","","","","","NA"
"-124.50","49.83","POWELL RIVER A","1046395","2021-03-22 09:00","2021","03","22","09:00","4.2","","2.6","","89","","","","28","","8","","40.2","","100.21","","","","","","NA"
"-124.50","49.83","POWELL RIVER A","1046395","2021-03-22 10:00","2021","03","22","10:00","4.8","","3.1","","88","","","","33","","7","","40.2","","100.29","","","","","","Mostly Cloudy"
"-124.50","49.83","POWELL RIVER A","1046395","2021-03-22 11:00","2021","03","22","11:00","5.8","","2.8","","81","","","","24","","13","","40.2","","100.34","","","","","","NA"
"-124.50","49.83","POWELL RIVER A","1046395","2021-03-22 12:00","2021","03","22","12:00","7.2","","3.6","","78","","","","27","","16","","40.2","","100.40","","","","","","NA"
"-124.50","49.83","POWELL RIVER A","1046395","2021-03-22 13:00","2021","03","22","13:00","8.2","","3.2","","71","","","","28","","22","","40.2","","100.43","","","","","","Mainly Clear"
"-124.50","49.83","POWELL RIVER A","1046395","2021-03-22 14:00","2021","03","22","14:00","9.4","","2.4","","61","","","","28","","23","","40.2","","100.44","","","","","","NA"
"-124.50","49.83","POWELL RIVER A","1046395","2021-03-22 15:00","2021","03","22","15:00","9.5","","1.1","","56","","","","29","","23","","40.2","","100.48","","","","","","NA"
"-124.50","49.83","POWELL RIVER A","1046395","2021-03-22 16:00","2021","03","22","16:00","10.2","","1.5","","55","","","","29","","23","","40.2","","100.50","","","","","","Mainly Clear"
"-124.50","49.83","POWELL RIVER A","1046395","2021-03-22 17:00","2021","03","22","17:00","9.4","","2.0","","60","","","","29","","20","","40.2","","100.54","","","","","","NA"
"-124.50","49.83","POWELL RIVER A","1046395","2021-03-22 18:00","2021","03","22","18:00","8.1","","3.2","","71","","","","28","","20","","40.2","","100.64","","","","","","NA"
"-124.50","49.83","POWELL RIVER A","1046395","2021-03-22 19:00","2021","03","22","19:00"
"-124.50","49.83","POWELL RIVER A","1046395","2021-03-22 20:00","2021","03","22","20:00"
"-124.50","49.83","POWELL RIVER A","1046395","2021-03-22 21:00","2021","03","22","21:00"
"-124.50","49.83","POWELL RIVER A","1046395","2021-03-22 22:00","2021","03","22","22:00"
"-124.50","49.83","POWELL RIVER A","1046395","2021-03-22 23:00","2021","03","22","23:00"
"-124.50","49.83","POWELL RIVER A","1046395","2021-03-23 00:00","2021","03","23","00:00"
"-124.50","49.83","POWELL RIVER A","1046395","2021-03-23 01:00","2021","03","23","01:00"
"-124.50","49.83","POWELL RIVER A","1046395","2021-03-23 02:00","2021","03","23","02:00"
"-124.50","49.83","POWELL RIVER A","1046395","2021-03-23 03:00","2021","03","23","03:00"
"-124.50","49.83","POWELL RIVER A","1046395","2021-03-23 04:00","2021","03","23","04:00"
"-124.50","49.83","POWELL RIVER A","1046395","2021-03-23 05:00","2021","03","23","05:00","-2.0","","-2.2","","98","","","","6","","5","","32.2","","101.44","","","","-4","","NA"
"-124.50","49.83","POWELL RIVER A","1046395","2021-03-23 06:00","2021","03","23","06:00","-1.0","","-1.2","","98","","","","36","","2","","40.2","","101.52","","","","-2","","NA"
"-124.50","49.83","POWELL RIVER A","1046395","2021-03-23 07:00","2021","03","23","07:00","-1.3","","-1.5","","99","","","","6","","5","","32.2","","101.57","","","","-3","","Mostly Cloudy"
"-124.50","49.83","POWELL RIVER A","1046395","2021-03-23 08:00","2021","03","23","08:00","2.7","","2.2","","97","","","","36","","3","","40.2","","101.60","","","","","","NA"
"-124.50","49.83","POWELL RIVER A","1046395","2021-03-23 09:00","2021","03","23","09:00","4.7","","3.2","","90","","","","11","","5","","40.2","","101.64","","","","","","NA"
"-124.50","49.83","POWELL RIVER A","1046395","2021-03-23 10:00","2021","03","23","10:00","5.7","","3.5","","86","","","","36","","2","","40.2","","101.67","","","","","","Cloudy"
"-124.50","49.83","POWELL RIVER A","1046395","2021-03-23 11:00","2021","03","23","11:00","6.6","","3.1","","78","","","","12","","8","","48.3","","101.65","","","","","","NA"
"-124.50","49.83","POWELL RIVER A","1046395","2021-03-23 12:00","2021","03","23","12:00","7.9","","3.2","","72","","","","24","","7","","40.2","","101.66","","","","","","NA"
"-124.50","49.83","POWELL RIVER A","1046395","2021-03-23 13:00","2021","03","23","13:00","8.8","","3.8","","71","","","","28","","12","","40.2","","101.63","","","","","","Mostly Cloudy"
"-124.50","49.83","POWELL RIVER A","1046395","2021-03-23 14:00","2021","03","23","14:00","9.5","","3.0","","64","","","","36","","2","","40.2","","101.53","","","","","","NA"
"-124.50","49.83","POWELL RIVER A","1046395","2021-03-23 15:00","2021","03","23","15:00","7.8","","3.4","","74","","","","29","","13","","32.2","","101.56","","","","","","NA"
"-124.50","49.83","POWELL RIVER A","1046395","2021-03-23 16:00","2021","03","23","16:00","6.9","","3.6","","80","","","","36","","1","","32.2","","101.49","","","","","","Rain"
"-124.50","49.83","POWELL RIVER A","1046395","2021-03-23 17:00","2021","03","23","17:00","7.0","","3.7","","80","","","","13","","3","","32.2","","101.41","","","","","","Rain"
"-124.50","49.83","POWELL RIVER A","1046395","2021-03-23 18:00","2021","03","23","18:00","6.7","","3.3","","79","","","","10","","13","","32.2","","101.29","","","","","","NA"
"-124.50","49.83","POWELL RIVER A","1046395","2021-03-23 19:00","2021","03","23","19:00"
"-124.50","49.83","POWELL RIVER A","1046395","2021-03-23 20:00","2021","03","23","20:00"
"-124.50","49.83","POWELL RIVER A","1046395","2021-03-23 21:00","2021","03","23","21:00"
"-124.50","49.83","POWELL RIVER A","1046395","2021-03-23 22:00","2021","03","23","22:00"
"-124.50","49.83","POWELL RIVER A","1046395","2021-03-23 23:00","2021","03","23","23:00"
"-124.50","49.83","POWELL RIVER A","1046395","2021-03-24 00:00","2021","03","24","00:00"
"-124.50","49.83","POWELL RIVER A","1046395","2021-03-24 01:00","2021","03","24","01:00"
"-124.50","49.83","POWELL RIVER A","1046395","2021-03-24 02:00","2021","03","24","02:00"
"-124.50","49.83","POWELL RIVER A","1046395","2021-03-24 03:00","2021","03","24","03:00"
"-124.50","49.83","POWELL RIVER A","1046395","2021-03-24 04:00","2021","03","24","04:00"
"-124.50","49.83","POWELL RIVER A","1046395","2021-03-24 05:00","2021","03","24","05:00","4.5","","3.6","","94","","","","10","","17","","24.1","","99.76","","","","","","Rain"
"-124.50","49.83","POWELL RIVER A","1046395","2021-03-24 06:00","2021","03","24","06:00","4.3","","3.2","","93","","","","10","","14","","32.2","","99.63","","","","","","Rain"
"-124.50","49.83","POWELL RIVER A","1046395","2021-03-24 07:00","2021","03","24","07:00","4.7","","3.5","","92","","","","7","","9","","40.2","","99.61","","","","","","Rain"
"-124.50","49.83","POWELL RIVER A","1046395","2021-03-24 08:00","2021","03","24","08:00","4.9","","4.0","","93","","","","6","","6","","24.1","","99.63","","","","","","Rain"
"-124.50","49.83","POWELL RIVER A","1046395","2021-03-24 09:00","2021","03","24","09:00","4.8","","3.9","","94","","","","6","","9","","19.3","","99.63","","","","","","Rain"
"-124.50","49.83","POWELL RIVER A","1046395","2021-03-24 10:00","2021","03","24","10:00","5.5","","4.7","","94","","","","10","","5","","11.3","","99.62","","","","","","Rain"
"-124.50","49.83","POWELL RIVER A","1046395","2021-03-24 11:00","2021","03","24","11:00","5.6","","4.8","","94","","","","31","","6","","9.7","","99.64","","","","","","Rain,Fog"
"-124.50","49.83","POWELL RIVER A","1046395","2021-03-24 12:00","2021","03","24","12:00","5.7","","5.2","","97","","","","26","","5","","11.3","","99.61","","","","","","Rain"
"-124.50","49.83","POWELL RIVER A","1046395","2021-03-24 13:00","2021","03","24","13:00","5.9","","4.8","","92","","","","25","","9","","32.2","","99.53","","","","","","Cloudy"
"-124.50","49.83","POWELL RIVER A","1046395","2021-03-24 14:00","2021","03","24","14:00","6.6","","5.0","","89","","","","25","","11","","40.2","","99.49","","","","","","NA"
"-124.50","49.83","POWELL RIVER A","1046395","2021-03-24 15:00","2021","03","24","15:00","7.1","","5.2","","88","","","","23","","9","","32.2","","99.44","","","","","","NA"
"-124.50","49.83","POWELL RIVER A","1046395","2021-03-24 16:00","2021","03","24","16:00","7.0","","4.6","","85","","","","28","","7","","32.2","","99.33","","","","","","Mostly Cloudy"
"-124.50","49.83","POWELL RIVER A","1046395","2021-03-24 17:00","2021","03","24","17:00","7.2","","4.7","","84","","","","27","","14","","40.2","","99.32","","","","","","NA"
"-124.50","49.83","POWELL RIVER A","1046395","2021-03-24 18:00","2021","03","24","18:00","6.5","","4.9","","89","","","","28","","9","","40.2","","99.28","","","","","","NA"
"-124.50","49.83","POWELL RIVER A","1046395","2021-03-24 19:00","2021","03","24","19:00"
"-124.50","49.83","POWELL RIVER A","1046395","2021-03-24 20:00","2021","03","24","20:00"
"-124.50","49.83","POWELL RIVER A","1046395","2021-03-24 21:00","2021","03","24","21:00"
"-124.50","49.83","POWELL RIVER A","1046395","2021-03-24 22:00","2021","03","24","22:00"
"-124.50","49.83","POWELL RIVER A","1046395","2021-03-24 23:00","2021","03","24","23:00"
"-124.50","49.83","POWELL RIVER A","1046395","2021-03-25 00:00","2021","03","25","00:00"
"-124.50","49.83","POWELL RIVER A","1046395","2021-03-25 01:00","2021","03","25","01:00"
"-124.50","49.83","POWELL RIVER A","1046395","2021-03-25 02:00","2021","03","25","02:00"
"-124.50","49.83","POWELL RIVER A","1046395","2021-03-25 03:00","2021","03","25","03:00"
"-124.50","49.83","POWELL RIVER A","1046395","2021-03-25 04:00","2021","03","25","04:00"
"-124.50","49.83","POWELL RIVER A","1046395","2021-03-25 05:00","2021","03","25","05:00","4.3","","1.1","","80","","","","29","","16","","32.2","","99.45","","","","","","NA"
"-124.50","49.83","POWELL RIVER A","1046395","2021-03-25 06:00","2021","03","25","06:00","4.4","","1.1","","79","","","","28","","10","","32.2","","99.51","","","","","","NA"
"-124.50","49.83","POWELL RIVER A","1046395","2021-03-25 07:00","2021","03","25","07:00","4.4","","1.3","","80","","","","30","","10","","48.3","","99.60","","","","","","Mostly Cloudy"
"-124.50","49.83","POWELL RIVER A","1046395","2021-03-25 08:00","2021","03","25","08:00","5.2","","1.8","","79","","","","30","","12","","48.3","","99.67","","","","","","NA"
"-124.50","49.83","POWELL RIVER A","1046395","2021-03-25 09:00","2021","03","25","09:00","6.0","","2.0","","75","","","","29","","13","","48.3","","99.76","","","","","","NA"
"-124.50","49.83","POWELL RIVER A","1046395","2021-03-25 10:00","2021","03","25","10:00","6.7","","2.4","","74","","","","29","","7","","48.3","","99.84","","","","","","Mostly Cloudy"
"-124.50","49.83","POWELL RIVER A","1046395","2021-03-25 11:00","2021","03","25","11:00","7.7","","2.5","","70","","","","28","","17","","48.3","","99.88","","","","","","NA"
"-124.50","49.83","POWELL RIVER A","1046395","2021-03-25 12:00","2021","03","25","12:00","8.3","","2.4","","66","","","","28","","20","","48.3","","99.94","","","","","","NA"
"-124.50","49.83","POWELL RIVER A","1046395","2021-03-25 13:00","2021","03","25","13:00","9.1","","2.5","","63","","","","28","","18","","48.3","","99.95","","","","","","Clear"
"-124.50","49.83","POWELL RIVER A","1046395","2021-03-25 14:00","2021","03","25","14:00","9.7","","2.5","","61","","","","28","","21","","48.3","","99.94","","","","","","NA"
"-124.50","49.83","POWELL RIVER A","1046395","2021-03-25 15:00","2021","03","25","15:00","10.5","","2.3","","57","","","","29","","17","","48.3","","99.95","","","","","","NA"
"-124.50","49.83","POWELL RIVER A","1046395","2021-03-25 16:00","2021","03","25","16:00","11.0","","2.9","","57","","","","28","","18","","48.3","","99.98","","","","","","Clear"
"-124.50","49.83","POWELL RIVER A","1046395","2021-03-25 17:00","2021","03","25","17:00","10.4","","2.6","","58","","","","28","","14","","48.3","","99.99","","","","","","NA"
"-124.50","49.83","POWELL RIVER A","1046395","2021-03-25 18:00","2021","03","25","18:00","9.5","","2.9","","63","","","","27","","14","","48.3","","99.99","","","","","","NA"
"-124.50","49.83","POWELL RIVER A","1046395","2021-03-25 19:00","2021","03","25","19:00"
"-124.50","49.83","POWELL RIVER A","1046395","2021-03-25 20:00","2021","03","25","20:00"
"-124.50","49.83","POWELL RIVER A","1046395","2021-03-25 21:00","2021","03","25","21:00"
"-124.50","49.83","POWELL RIVER A","1046395","2021-03-25 22:00","2021","03","25","22:00"
"-124.50","49.83","POWELL RIVER A","1046395","2021-03-25 23:00","2021","03","25","23:00"
"-124.50","49.83","POWELL RIVER A","1046395","2021-03-26 00:00","2021","03","26","00:00"
"-124.50","49.83","POWELL RIVER A","1046395","2021-03-26 01:00","2021","03","26","01:00"
"-124.50","49.83","POWELL RIVER A","1046395","2021-03-26 02:00","2021","03","26","02:00"
"-124.50","49.83","POWELL RIVER A","1046395","2021-03-26 03:00","2021","03","26","03:00"
"-124.50","49.83","POWELL RIVER A","1046395","2021-03-26 04:00","2021","03","26","04:00"
"-124.50","49.83","POWELL RIVER A","1046395","2021-03-26 05:00","2021","03","26","05:00","0.2","","-0.1","","98","","","","36","","2","","40.2","","100.47","","","","","","NA"
"-124.50","49.83","POWELL RIVER A","1046395","2021-03-26 06:00","2021","03","26","06:00","-0.3","","-0.5","","98","","","","6","","3","","32.2","","100.53","","","","-1","","NA"
"-124.50","49.83","POWELL RIVER A","1046395","2021-03-26 07:00","2021","03","26","07:00","0.4","","0.1","","98","","","","10","","4","","40.2","","100.58","","","","","","Mainly Clear"
"-124.50","49.83","POWELL RIVER A","1046395","2021-03-26 08:00","2021","03","26","08:00","4.2","","3.6","","96","","","","36","","2","","40.2","","100.65","","","","","","NA"
"-124.50","49.83","POWELL RIVER A","1046395","2021-03-26 09:00","2021","03","26","09:00","7.2","","4.0","","80","","","","36","","2","","40.2","","100.73","","","","","","NA"
"-124.50","49.83","POWELL RIVER A","1046395","2021-03-26 10:00","2021","03","26","10:00","6.9","","2.7","","74","","","","28","","10","","40.2","","100.76","","","","","","Mostly Cloudy"
"-124.50","49.83","POWELL RIVER A","1046395","2021-03-26 11:00","2021","03","26","11:00","8.2","","3.0","","70","","","","26","","10","","40.2","","100.76","","","","","","NA"
"-124.50","49.83","POWELL RIVER A","1046395","2021-03-26 12:00","2021","03","26","12:00","8.8","","2.6","","65","","","","28","","11","","40.2","","100.78","","","","","","NA"
"-124.50","49.83","POWELL RIVER A","1046395","2021-03-26 13:00","2021","03","26","13:00","9.8","","2.9","","62","","","","28","","13","","40.2","","100.81","","","","","","Mostly Cloudy"
"-124.50","49.83","POWELL RIVER A","1046395","2021-03-26 14:00","2021","03","26","14:00","10.1","","2.5","","59","","","","26","","14","","40.2","","100.83","","","","","","NA"
"-124.50","49.83","POWELL RIVER A","1046395","2021-03-26 15:00","2021","03","26","15:00","10.4","","2.8","","59","","","","27","","12","","40.2","","100.85","","","","","","NA"
"-124.50","49.83","POWELL RIVER A","1046395","2021-03-26 16:00","2021","03","26","16:00","10.4","","2.6","","58","","","","27","","8","","40.2","","100.86","","","","","","Mostly Cloudy"
"-124.50","49.83","POWELL RIVER A","1046395","2021-03-26 17:00","2021","03","26","17:00","10.1","","2.3","","58","","","","27","","8","","40.2","","100.85","","","","","","NA"
"-124.50","49.83","POWELL RIVER A","1046395","2021-03-26 18:00","2021","03","26","18:00","8.7","","3.3","","69","","","","11","","12","","40.2","","100.92","","","","","","NA"
"-124.50","49.83","POWELL RIVER A","1046395","2021-03-26 19:00","2021","03","26","19:00"
"-124.50","49.83","POWELL RIVER A","1046395","2021-03-26 20:00","2021","03","26","20:00"
"-124.50","49.83","POWELL RIVER A","1046395","2021-03-26 21:00","2021","03","26","21:00"
"-124.50","49.83","POWELL RIVER A","1046395","2021-03-26 22:00","2021","03","26","22:00"
"-124.50","49.83","POWELL RIVER A","1046395","2021-03-26 23:00","2021","03","26","23:00"
"-124.50","49.83","POWELL RIVER A","1046395","2021-03-27 00:00","2021","03","27","00:00"
"-124.50","49.83","POWELL RIVER A","1046395","2021-03-27 01:00","2021","03","27","01:00"
"-124.50","49.83","POWELL RIVER A","1046395","2021-03-27 02:00","2021","03","27","02:00"
"-124.50","49.83","POWELL RIVER A","1046395","2021-03-27 03:00","2021","03","27","03:00"
"-124.50","49.83","POWELL RIVER A","1046395","2021-03-27 04:00","2021","03","27","04:00"
"-124.50","49.83","POWELL RIVER A","1046395","2021-03-27 05:00","2021","03","27","05:00","1.6","","1.3","","98","","","","7","","4","","32.2","","101.23","","","","","","NA"
"-124.50","49.83","POWELL RIVER A","1046395","2021-03-27 06:00","2021","03","27","06:00","1.5","","1.3","","98","","","","36","","3","","32.2","","101.22","","","","","","NA"
"-124.50","49.83","POWELL RIVER A","1046395","2021-03-27 07:00","2021","03","27","07:00","2.7","","2.5","","98","","","","8","","5","","32.2","","101.25","","","","","","Cloudy"
"-124.50","49.83","POWELL RIVER A","1046395","2021-03-27 08:00","2021","03","27","08:00","6.2","","5.3","","94","","","","10","","8","","32.2","","101.27","","","","","","NA"
"-124.50","49.83","POWELL RIVER A","1046395","2021-03-27 09:00","2021","03","27","09:00","7.6","","5.4","","86","","","","12","","13","","32.2","","101.25","","","","","","NA"
"-124.50","49.83","POWELL RIVER A","1046395","2021-03-27 10:00","2021","03","27","10:00","7.4","","5.5","","88","","","","10","","17","","24.1","","101.22","","","","","","Cloudy"
"-124.50","49.83","POWELL RIVER A","1046395","2021-03-27 11:00","2021","03","27","11:00","8.0","","5.6","","85","","","","11","","22","","24.1","","101.20","","","","","","NA"
"-124.50","49.83","POWELL RIVER A","1046395","2021-03-27 12:00","2021","03","27","12:00","8.2","","5.4","","83","","","","11","","22","","24.1","","101.12","","","","","","Rain"
"-124.50","49.83","POWELL RIVER A","1046395","2021-03-27 13:00","2021","03","27","13:00","7.7","","5.4","","85","","","","11","","26","","24.1","","101.11","","","","","","Rain"
"-124.50","49.83","POWELL RIVER A","1046395","2021-03-27 14:00","2021","03","27","14:00","7.0","","5.0","","87","","","","11","","25","","24.1","","101.06","","","","","","Rain"
"-124.50","49.83","POWELL RIVER A","1046395","2021-03-27 15:00","2021","03","27","15:00","7.0","","4.8","","86","","","","10","","23","","32.2","","100.99","","","","","","NA"
"-124.50","49.83","POWELL RIVER A","1046395","2021-03-27 16:00","2021","03","27","16:00","7.3","","4.6","","83","","","","11","","30","","32.2","","100.94","","","","","","Cloudy"
"-124.50","49.83","POWELL RIVER A","1046395","2021-03-27 17:00","2021","03","27","17:00","7.3","","5.2","","86","","","","11","","22","","19.3","","100.84","","","","","","NA"
"-124.50","49.83","POWELL RIVER A","1046395","2021-03-27 18:00","2021","03","27","18:00","7.4","","5.1","","85","","","","11","","28","","32.2","","100.74","","","","","","NA"
"-124.50","49.83","POWELL RIVER A","1046395","2021-03-27 19:00","2021","03","27","19:00"
"-124.50","49.83","POWELL RIVER A","1046395","2021-03-27 20:00","2021","03","27","20:00"
"-124.50","49.83","POWELL RIVER A","1046395","2021-03-27 21:00","2021","03","27","21:00"
"-124.50","49.83","POWELL RIVER A","1046395","2021-03-27 22:00","2021","03","27","22:00"
"-124.50","49.83","POWELL RIVER A","1046395","2021-03-27 23:00","2021","03","27","23:00"
"-124.50","49.83","POWELL RIVER A","1046395","2021-03-28 00:00","2021","03","28","00:00"
"-124.50","49.83","POWELL RIVER A","1046395","2021-03-28 01:00","2021","03","28","01:00"
"-124.50","49.83","POWELL RIVER A","1046395","2021-03-28 02:00","2021","03","28","02:00"
"-124.50","49.83","POWELL RIVER A","1046395","2021-03-28 03:00","2021","03","28","03:00"
"-124.50","49.83","POWELL RIVER A","1046395","2021-03-28 04:00","2021","03","28","04:00"
"-124.50","49.83","POWELL RIVER A","1046395","2021-03-28 05:00","2021","03","28","05:00","7.2","","4.8","","85","","","","11","","21","","32.2","","99.60","","","","","","NA"
"-124.50","49.83","POWELL RIVER A","1046395","2021-03-28 06:00","2021","03","28","06:00","7.0","","4.8","","86","","","","10","","26","","32.2","","99.40","","","","","","NA"
"-124.50","49.83","POWELL RIVER A","1046395","2021-03-28 07:00","2021","03","28","07:00","7.0","","4.8","","86","","","","11","","18","","32.2","","99.29","","","","","","Rain"
"-124.50","49.83","POWELL RIVER A","1046395","2021-03-28 08:00","2021","03","28","08:00","6.5","","5.3","","92","","","","11","","23","","32.2","","99.09","","","","","","Rain"
"-124.50","49.83","POWELL RIVER A","1046395","2021-03-28 09:00","2021","03","28","09:00","6.7","","4.7","","87","","","","12","","28","","32.2","","99.03","","","","","","Rain"
"-124.50","49.83","POWELL RIVER A","1046395","2021-03-28 10:00","2021","03","28","10:00","6.7","","5.1","","90","","","","18","","11","","11.3","","99.00","","","","","","Rain"
"-124.50","49.83","POWELL RIVER A","1046395","2021-03-28 11:00","2021","03","28","11:00","4.8","","2.7","","86","","","","32","","11","","32.2","","99.05","","","","","","NA"
"-124.50","49.83","POWELL RIVER A","1046395","2021-03-28 12:00","2021","03","28","12:00","6.7","","2.4","","74","","","","31","","10","","24.1","","99.01","","","","","","Rain"
"-124.50","49.83","POWELL RIVER A","1046395","2021-03-28 13:00","2021","03","28","13:00","3.7","","0.5","","80","","","","28","","43","","12.9","","99.12","","","","","","Rain Showers"
"-124.50","49.83","POWELL RIVER A","1046395","2021-03-28 14:00","2021","03","28","14:00","5.9","","1.0","","71","","","","28","","31","","40.2","","99.11","","","","","","NA"
"-124.50","49.83","POWELL RIVER A","1046395","2021-03-28 15:00","2021","03","28","15:00","6.7","","-0.7","","59","","","","29","","34","","40.2","","99.16","","","","","","NA"
"-124.50","49.83","POWELL RIVER A","1046395","2021-03-28 16:00","2021","03","28","16:00","6.8","","-2.5","","51","","","","29","","52","","40.2","","99.23","","","","","","Mostly Cloudy"
"-124.50","49.83","POWELL RIVER A","1046395","2021-03-28 17:00","2021","03","28","17:00","4.4","","-2.3","","62","","","","30","","32","","40.2","","99.41","","","","","","NA"
"-124.50","49.83","POWELL RIVER A","1046395","2021-03-28 18:00","2021","03","28","18:00","6.3","","-3.4","","50","","","","29","","37","","40.2","","99.52","","","","","","NA"
"-124.50","49.83","POWELL RIVER A","1046395","2021-03-28 19:00","2021","03","28","19:00"
"-124.50","49.83","POWELL RIVER A","1046395","2021-03-28 20:00","2021","03","28","20:00"
"-124.50","49.83","POWELL RIVER A","1046395","2021-03-28 21:00","2021","03","28","21:00"
"-124.50","49.83","POWELL RIVER A","1046395","2021-03-28 22:00","2021","03","28","22:00"
"-124.50","49.83","POWELL RIVER A","1046395","2021-03-28 23:00","2021","03","28","23:00"
"-124.50","49.83","POWELL RIVER A","1046395","2021-03-29 00:00","2021","03","29","00:00"
"-124.50","49.83","POWELL RIVER A","1046395","2021-03-29 01:00","2021","03","29","01:00"
"-124.50","49.83","POWELL RIVER A","1046395","2021-03-29 02:00","2021","03","29","02:00"
"-124.50","49.83","POWELL RIVER A","1046395","2021-03-29 03:00","2021","03","29","03:00"
"-124.50","49.83","POWELL RIVER A","1046395","2021-03-29 04:00","2021","03","29","04:00"
"-124.50","49.83","POWELL RIVER A","1046395","2021-03-29 05:00","2021","03","29","05:00","2.6","","-2.9","","67","","","","30","","15","","32.2","","100.86","","","","","","NA"
"-124.50","49.83","POWELL RIVER A","1046395","2021-03-29 06:00","2021","03","29","06:00","2.6","","-2.6","","68","","","","30","","14","","48.3","","100.92","","","","","","NA"
"-124.50","49.83","POWELL RIVER A","1046395","2021-03-29 07:00","2021","03","29","07:00","3.0","","-2.6","","66","","","","29","","17","","48.3","","100.96","","","","","","Clear"
"-124.50","49.83","POWELL RIVER A","1046395","2021-03-29 08:00","2021","03","29","08:00","4.1","","-2.3","","63","","","","29","","18","","48.3","","101.06","","","","","","NA"
"-124.50","49.83","POWELL RIVER A","1046395","2021-03-29 09:00","2021","03","29","09:00","5.2","","-1.9","","60","","","","29","","14","","48.3","","101.11","","","","","","NA"
"-124.50","49.83","POWELL RIVER A","1046395","2021-03-29 10:00","2021","03","29","10:00","6.6","","-2.2","","53","","","","29","","21","","48.3","","101.18","","","","","","Clear"
"-124.50","49.83","POWELL RIVER A","1046395","2021-03-29 11:00","2021","03","29","11:00","7.1","","-1.2","","55","","","","29","","25","","48.3","","101.20","","","","","","NA"
"-124.50","49.83","POWELL RIVER A","1046395","2021-03-29 12:00","2021","03","29","12:00","8.1","","-1.8","","50","","","","28","","28","","48.3","","101.23","","","","","","NA"
"-124.50","49.83","POWELL RIVER A","1046395","2021-03-29 13:00","2021","03","29","13:00","8.6","","-2.4","","46","","","","27","","25","","48.3","","101.24","","","","","","Clear"
"-124.50","49.83","POWELL RIVER A","1046395","2021-03-29 14:00","2021","03","29","14:00","9.2","","-2.0","","45","","","","28","","26","","48.3","","101.24","","","","","","NA"
"-124.50","49.83","POWELL RIVER A","1046395","2021-03-29 15:00","2021","03","29","15:00","9.0","","-1.8","","47","","","","28","","25","","48.3","","101.19","","","","","","NA"
"-124.50","49.83","POWELL RIVER A","1046395","2021-03-29 16:00","2021","03","29","16:00","8.9","","-1.4","","49","","","","29","","26","","48.3","","101.19","","","","","","Clear"
"-124.50","49.83","POWELL RIVER A","1046395","2021-03-29 17:00","2021","03","29","17:00","8.2","","-2.0","","48","","","","30","","28","","48.3","","101.17","","","","","","NA"
"-124.50","49.83","POWELL RIVER A","1046395","2021-03-29 18:00","2021","03","29","18:00","7.0","","-0.9","","57","","","","28","","24","","48.3","","101.18","","","","","","NA"
"-124.50","49.83","POWELL RIVER A","1046395","2021-03-29 19:00","2021","03","29","19:00"
"-124.50","49.83","POWELL RIVER A","1046395","2021-03-29 20:00","2021","03","29","20:00"
"-124.50","49.83","POWELL RIVER A","1046395","2021-03-29 21:00","2021","03","29","21:00"
"-124.50","49.83","POWELL RIVER A","1046395","2021-03-29 22:00","2021","03","29","22:00"
"-124.50","49.83","POWELL RIVER A","1046395","2021-03-29 23:00","2021","03","29","23:00"
"-124.50","49.83","POWELL RIVER A","1046395","2021-03-30 00:00","2021","03","30","00:00"
"-124.50","49.83","POWELL RIVER A","1046395","2021-03-30 01:00","2021","03","30","01:00"
"-124.50","49.83","POWELL RIVER A","1046395","2021-03-30 02:00","2021","03","30","02:00"
"-124.50","49.83","POWELL RIVER A","1046395","2021-03-30 03:00","2021","03","30","03:00"
"-124.50","49.83","POWELL RIVER A","1046395","2021-03-30 04:00","2021","03","30","04:00"
"-124.50","49.83","POWELL RIVER A","1046395","2021-03-30 05:00","2021","03","30","05:00","-1.3","","-1.8","","96","","","","7","","4","","32.2","","101.37","","","","-3","","NA"
"-124.50","49.83","POWELL RIVER A","1046395","2021-03-30 06:00","2021","03","30","06:00","-1.6","","-2.2","","96","","","","36","","3","","32.2","","101.42","","","","-3","","NA"
"-124.50","49.83","POWELL RIVER A","1046395","2021-03-30 07:00","2021","03","30","07:00","-1.4","","-1.9","","96","","","","10","","4","","40.2","","101.46","","","","-3","","Mainly Clear"
"-124.50","49.83","POWELL RIVER A","1046395","2021-03-30 08:00","2021","03","30","08:00","3.6","","0.6","","81","","","","8","","5","","40.2","","101.52","","","","","","NA"
"-124.50","49.83","POWELL RIVER A","1046395","2021-03-30 09:00","2021","03","30","09:00","5.2","","0.6","","72","","","","28","","7","","40.2","","101.57","","","","","","NA"
"-124.50","49.83","POWELL RIVER A","1046395","2021-03-30 10:00","2021","03","30","10:00","7.3","","0.2","","61","","","","7","","9","","40.2","","101.58","","","","","","Mainly Clear"
"-124.50","49.83","POWELL RIVER A","1046395","2021-03-30 11:00","2021","03","30","11:00","7.7","","0.8","","62","","","","31","","4","","40.2","","101.58","","","","","","NA"
"-124.50","49.83","POWELL RIVER A","1046395","2021-03-30 12:00","2021","03","30","12:00","7.2","","1.0","","65","","","","29","","16","","40.2","","101.62","","","","","","NA"
"-124.50","49.83","POWELL RIVER A","1046395","2021-03-30 13:00","2021","03","30","13:00","8.8","","0.5","","56","","","","27","","12","","40.2","","101.62","","","","","","Mostly Cloudy"
"-124.50","49.83","POWELL RIVER A","1046395","2021-03-30 14:00","2021","03","30","14:00","9.0","","0.6","","56","","","","28","","14","","40.2","","101.63","","","","","","NA"
"-124.50","49.83","POWELL RIVER A","1046395","2021-03-30 15:00","2021","03","30","15:00","9.5","","1.2","","56","","","","30","","5","","40.2","","101.65","","","","","","NA"
"-124.50","49.83","POWELL RIVER A","1046395","2021-03-30 16:00","2021","03","30","16:00","9.4","","0.2","","52","","","","12","","10","","40.2","","101.62","","","","","","Mainly Clear"
"-124.50","49.83","POWELL RIVER A","1046395","2021-03-30 17:00","2021","03","30","17:00","8.7","","-0.1","","54","","","","14","","9","","40.2","","101.62","","","","","","NA"
"-124.50","49.83","POWELL RIVER A","1046395","2021-03-30 18:00","2021","03","30","18:00","7.3","","-0.7","","57","","","","13","","8","","40.2","","101.59","","","","","","NA"
"-124.50","49.83","POWELL RIVER A","1046395","2021-03-30 19:00","2021","03","30","19:00"
"-124.50","49.83","POWELL RIVER A","1046395","2021-03-30 20:00","2021","03","30","20:00"
"-124.50","49.83","POWELL RIVER A","1046395","2021-03-30 21:00","2021","03","30","21:00"
"-124.50","49.83","POWELL RIVER A","1046395","2021-03-30 22:00","2021","03","30","22:00"
"-124.50","49.83","POWELL RIVER A","1046395","2021-03-30 23:00","2021","03","30","23:00"
"-124.50","49.83","POWELL RIVER A","1046395","2021-03-31 00:00","2021","03","31","00:00"
"-124.50","49.83","POWELL RIVER A","1046395","2021-03-31 01:00","2021","03","31","01:00"
"-124.50","49.83","POWELL RIVER A","1046395","2021-03-31 02:00","2021","03","31","02:00"
"-124.50","49.83","POWELL RIVER A","1046395","2021-03-31 03:00","2021","03","31","03:00"
"-124.50","49.83","POWELL RIVER A","1046395","2021-03-31 04:00","2021","03","31","04:00"
"-124.50","49.83","POWELL RIVER A","1046395","2021-03-31 05:00","2021","03","31","05:00","4.1","","2.0","","86","","","","36","","3","","32.2","","101.46","","","","","","NA"
"-124.50","49.83","POWELL RIVER A","1046395","2021-03-31 06:00","2021","03","31","06:00","3.4","","1.8","","89","","","","5","","3","","32.2","","101.42","","","","","","NA"
"-124.50","49.83","POWELL RIVER A","1046395","2021-03-31 07:00","2021","03","31","07:00","5.1","","2.3","","82","","","","3","","3","","40.2","","101.43","","","","","","Mostly Cloudy"
"-124.50","49.83","POWELL RIVER A","1046395","2021-03-31 08:00","2021","03","31","08:00","7.0","","1.5","","68","","","","12","","4","","40.2","","101.38","","","","","","NA"
"-124.50","49.83","POWELL RIVER A","1046395","2021-03-31 09:00","2021","03","31","09:00","7.9","","1.6","","64","","","","36","","2","","40.2","","101.35","","","","","","NA"
"-124.50","49.83","POWELL RIVER A","1046395","2021-03-31 10:00","2021","03","31","10:00","9.1","","1.9","","60","","","","13","","10","","32.2","","101.27","","","","","","Clear"
"-124.50","49.83","POWELL RIVER A","1046395","2021-03-31 11:00","2021","03","31","11:00","9.5","","1.0","","55","","","","14","","8","","32.2","","101.19","","","","","","NA"
"-124.50","49.83","POWELL RIVER A","1046395","2021-03-31 12:00","2021","03","31","12:00","8.3","","3.1","","69","","","","29","","16","","40.2","","101.11","","","","","","NA"
"-124.50","49.83","POWELL RIVER A","1046395","2021-03-31 13:00","2021","03","31","13:00","9.2","","4.1","","70","","","","27","","10","","40.2","","101.03","","","","","","Mostly Cloudy"
"-124.50","49.83","POWELL RIVER A","1046395","2021-03-31 14:00","2021","03","31","14:00","10.0","","4.4","","68","","","","29","","12","","40.2","","100.88","","","","","","NA"
"-124.50","49.83","POWELL RIVER A","1046395","2021-03-31 15:00","2021","03","31","15:00","9.7","","4.5","","70","","","","28","","10","","40.2","","100.76","","","","","","NA"
"-124.50","49.83","POWELL RIVER A","1046395","2021-03-31 16:00","2021","03","31","16:00","9.2","","3.6","","68","","","","27","","9","","40.2","","100.64","","","","","","Cloudy"
"-124.50","49.83","POWELL RIVER A","1046395","2021-03-31 17:00","2021","03","31","17:00","8.8","","3.7","","71","","","","36","","2","","48.3","","100.52","","","","","","NA"
"-124.50","49.83","POWELL RIVER A","1046395","2021-03-31 18:00","2021","03","31","18:00","8.0","","4.0","","76","","","","28","","9","","48.3","","100.40","","","","","","NA"
"-124.50","49.83","POWELL RIVER A","1046395","2021-03-31 19:00","2021","03","31","19:00"
"-124.50","49.83","POWELL RIVER A","1046395","2021-03-31 20:00","2021","03","31","20:00"
"-124.50","49.83","POWELL RIVER A","1046395","2021-03-31 21:00","2021","03","31","21:00"
"-124.50","49.83","POWELL RIVER A","1046395","2021-03-31 22:00","2021","03","31","22:00"
"-124.50","49.83","POWELL RIVER A","1046395","2021-03-31 23:00","2021","03","31","23:00"
