"Longitude (x)","Latitude (y)","Station Name","Climate ID","Date/Time (LST)","Year","Month","Day","Time (LST)","Temp (°C)","Temp Flag","Dew Point Temp (°C)","Dew Point Temp Flag","Rel Hum (%)","Rel Hum Flag","Precip. Amount (mm)","Precip. Amount Flag","Wind Dir (10s deg)","Wind Dir Flag","Wind Spd (km/h)","Wind Spd Flag","Visibility (km)","Visibility Flag","Stn Press (kPa)","Stn Press Flag","Hmdx","Hmdx Flag","Wind Chill","Wind Chill Flag","Weather"
"-98.27","49.90","PORTAGE SOUTHPORT A","5012320","2019-10-01 00:00","2019","10","01","00:00"
"-98.27","49.90","PORTAGE SOUTHPORT A","5012320","2019-10-01 01:00","2019","10","01","01:00"
"-98.27","49.90","PORTAGE SOUTHPORT A","5012320","2019-10-01 02:00","2019","10","01","02:00"
"-98.27","49.90","PORTAGE SOUTHPORT A","5012320","2019-10-01 03:00","2019","10","01","03:00"
"-98.27","49.90","PORTAGE SOUTHPORT A","5012320","2019-10-01 04:00","2019","10","01","04:00"
"-98.27","49.90","PORTAGE SOUTHPORT A","5012320","2019-10-01 05:00","2019","10","01","05:00","0.8","","0.5","","98","","","","28","","17","","4.8","","98.87","","","","","","Drizzle,Fog"
"-98.27","49.90","PORTAGE SOUTHPORT A","5012320","2019-10-01 06:00","2019","10","01","06:00","1.1","","0.9","","99","","","","29","","21","","4.8","","98.89","","","","","","Drizzle,Fog"
"-98.27","49.90","PORTAGE SOUTHPORT A","5012320","2019-10-01 07:00","2019","10","01","07:00","1.1","","1.0","","99","","","","29","","26","","1.6","","98.95","","","","","","Drizzle,Fog"
"-98.27","49.90","PORTAGE SOUTHPORT A","5012320","2019-10-01 08:00","2019","10","01","08:00","1.6","","1.2","","97","","","","29","","22","","9.7","","99.00","","","","","","Fog"
"-98.27","49.90","PORTAGE SOUTHPORT A","5012320","2019-10-01 09:00","2019","10","01","09:00","2.4","","1.5","","94","","","","31","","26","","12.9","","99.05","","","","","","Cloudy"
"-98.27","49.90","PORTAGE SOUTHPORT A","5012320","2019-10-01 10:00","2019","10","01","10:00","3.7","","2.1","","89","","","","30","","26","","19.3","","99.11","","","","","","Cloudy"
"-98.27","49.90","PORTAGE SOUTHPORT A","5012320","2019-10-01 11:00","2019","10","01","11:00","4.3","","2.0","","85","","","","31","","22","","19.3","","99.11","","","","","","Cloudy"
"-98.27","49.90","PORTAGE SOUTHPORT A","5012320","2019-10-01 12:00","2019","10","01","12:00","5.2","","3.0","","86","","","","31","","24","","6.4","","99.15","","","","","","Drizzle,Fog"
"-98.27","49.90","PORTAGE SOUTHPORT A","5012320","2019-10-01 13:00","2019","10","01","13:00","5.6","","3.2","","85","","","","33","","18","","9.7","","99.12","","","","","","Drizzle,Fog"
"-98.27","49.90","PORTAGE SOUTHPORT A","5012320","2019-10-01 14:00","2019","10","01","14:00","6.2","","2.9","","79","","","","33","","22","","9.7","","99.13","","","","","","Drizzle,Fog"
"-98.27","49.90","PORTAGE SOUTHPORT A","5012320","2019-10-01 15:00","2019","10","01","15:00","7.1","","2.1","","70","","","","33","","28","","19.3","","99.14","","","","","","Mostly Cloudy"
"-98.27","49.90","PORTAGE SOUTHPORT A","5012320","2019-10-01 16:00","2019","10","01","16:00","6.5","","1.9","","72","","","","34","","18","","24.1","","99.14","","","","","","Cloudy"
"-98.27","49.90","PORTAGE SOUTHPORT A","5012320","2019-10-01 17:00","2019","10","01","17:00"
"-98.27","49.90","PORTAGE SOUTHPORT A","5012320","2019-10-01 18:00","2019","10","01","18:00"
"-98.27","49.90","PORTAGE SOUTHPORT A","5012320","2019-10-01 19:00","2019","10","01","19:00"
"-98.27","49.90","PORTAGE SOUTHPORT A","5012320","2019-10-01 20:00","2019","10","01","20:00"
"-98.27","49.90","PORTAGE SOUTHPORT A","5012320","2019-10-01 21:00","2019","10","01","21:00"
"-98.27","49.90","PORTAGE SOUTHPORT A","5012320","2019-10-01 22:00","2019","10","01","22:00"
"-98.27","49.90","PORTAGE SOUTHPORT A","5012320","2019-10-01 23:00","2019","10","01","23:00"
"-98.27","49.90","PORTAGE SOUTHPORT A","5012320","2019-10-02 00:00","2019","10","02","00:00"
"-98.27","49.90","PORTAGE SOUTHPORT A","5012320","2019-10-02 01:00","2019","10","02","01:00"
"-98.27","49.90","PORTAGE SOUTHPORT A","5012320","2019-10-02 02:00","2019","10","02","02:00"
"-98.27","49.90","PORTAGE SOUTHPORT A","5012320","2019-10-02 03:00","2019","10","02","03:00"
"-98.27","49.90","PORTAGE SOUTHPORT A","5012320","2019-10-02 04:00","2019","10","02","04:00"
"-98.27","49.90","PORTAGE SOUTHPORT A","5012320","2019-10-02 05:00","2019","10","02","05:00","3.4","","0.5","","81","","","","7","","8","","24.1","","99.44","","","","","","Cloudy"
"-98.27","49.90","PORTAGE SOUTHPORT A","5012320","2019-10-02 06:00","2019","10","02","06:00","2.7","","0.5","","85","","","","6","","8","","24.1","","99.43","","","","","","Mostly Cloudy"
"-98.27","49.90","PORTAGE SOUTHPORT A","5012320","2019-10-02 07:00","2019","10","02","07:00","2.9","","0.5","","84","","","","7","","8","","24.1","","99.44","","","","","","Mostly Cloudy"
"-98.27","49.90","PORTAGE SOUTHPORT A","5012320","2019-10-02 08:00","2019","10","02","08:00","3.4","","0.8","","83","","","","8","","9","","24.1","","99.46","","","","","","Cloudy"
"-98.27","49.90","PORTAGE SOUTHPORT A","5012320","2019-10-02 09:00","2019","10","02","09:00","3.4","","1.0","","84","","","","7","","8","","24.1","","99.47","","","","","","Cloudy"
"-98.27","49.90","PORTAGE SOUTHPORT A","5012320","2019-10-02 10:00","2019","10","02","10:00","4.0","","1.4","","83","","","","10","","13","","24.1","","99.47","","","","","","Cloudy"
"-98.27","49.90","PORTAGE SOUTHPORT A","5012320","2019-10-02 11:00","2019","10","02","11:00","4.0","","1.3","","83","","","","8","","11","","24.1","","99.41","","","","","","Mostly Cloudy"
"-98.27","49.90","PORTAGE SOUTHPORT A","5012320","2019-10-02 12:00","2019","10","02","12:00","4.6","","1.8","","82","","","","1","","8","","24.1","","99.36","","","","","","Mostly Cloudy"
"-98.27","49.90","PORTAGE SOUTHPORT A","5012320","2019-10-02 13:00","2019","10","02","13:00","5.2","","1.5","","77","","","","6","","9","","24.1","","99.32","","","","","","Mostly Cloudy"
"-98.27","49.90","PORTAGE SOUTHPORT A","5012320","2019-10-02 14:00","2019","10","02","14:00","5.8","","2.2","","78","","","","6","","9","","24.1","","99.28","","","","","","Mostly Cloudy"
"-98.27","49.90","PORTAGE SOUTHPORT A","5012320","2019-10-02 15:00","2019","10","02","15:00","5.6","","1.9","","77","","","","9","","11","","24.1","","99.24","","","","","","Cloudy"
"-98.27","49.90","PORTAGE SOUTHPORT A","5012320","2019-10-02 16:00","2019","10","02","16:00","5.4","","1.6","","76","","","","","","0","","24.1","","99.21","","","","","","Cloudy"
"-98.27","49.90","PORTAGE SOUTHPORT A","5012320","2019-10-02 17:00","2019","10","02","17:00"
"-98.27","49.90","PORTAGE SOUTHPORT A","5012320","2019-10-02 18:00","2019","10","02","18:00"
"-98.27","49.90","PORTAGE SOUTHPORT A","5012320","2019-10-02 19:00","2019","10","02","19:00"
"-98.27","49.90","PORTAGE SOUTHPORT A","5012320","2019-10-02 20:00","2019","10","02","20:00"
"-98.27","49.90","PORTAGE SOUTHPORT A","5012320","2019-10-02 21:00","2019","10","02","21:00"
"-98.27","49.90","PORTAGE SOUTHPORT A","5012320","2019-10-02 22:00","2019","10","02","22:00"
"-98.27","49.90","PORTAGE SOUTHPORT A","5012320","2019-10-02 23:00","2019","10","02","23:00"
"-98.27","49.90","PORTAGE SOUTHPORT A","5012320","2019-10-03 00:00","2019","10","03","00:00"
"-98.27","49.90","PORTAGE SOUTHPORT A","5012320","2019-10-03 01:00","2019","10","03","01:00"
"-98.27","49.90","PORTAGE SOUTHPORT A","5012320","2019-10-03 02:00","2019","10","03","02:00"
"-98.27","49.90","PORTAGE SOUTHPORT A","5012320","2019-10-03 03:00","2019","10","03","03:00"
"-98.27","49.90","PORTAGE SOUTHPORT A","5012320","2019-10-03 04:00","2019","10","03","04:00"
"-98.27","49.90","PORTAGE SOUTHPORT A","5012320","2019-10-03 05:00","2019","10","03","05:00","4.5","","2.6","","87","","","","32","","13","","24.1","","99.09","","","","","","Cloudy"
"-98.27","49.90","PORTAGE SOUTHPORT A","5012320","2019-10-03 06:00","2019","10","03","06:00","4.6","","2.8","","88","","","","34","","8","","24.1","","99.12","","","","","","Cloudy"
"-98.27","49.90","PORTAGE SOUTHPORT A","5012320","2019-10-03 07:00","2019","10","03","07:00","4.8","","2.5","","85","","","","34","","8","","24.1","","99.18","","","","","","Cloudy"
"-98.27","49.90","PORTAGE SOUTHPORT A","5012320","2019-10-03 08:00","2019","10","03","08:00","5.1","","2.6","","84","","","","35","","4","","24.1","","99.21","","","","","","Cloudy"
"-98.27","49.90","PORTAGE SOUTHPORT A","5012320","2019-10-03 09:00","2019","10","03","09:00","5.8","","2.3","","78","","","","34","","8","","24.1","","99.23","","","","","","Cloudy"
"-98.27","49.90","PORTAGE SOUTHPORT A","5012320","2019-10-03 10:00","2019","10","03","10:00","6.5","","2.2","","74","","","","33","","9","","24.1","","99.31","","","","","","Cloudy"
"-98.27","49.90","PORTAGE SOUTHPORT A","5012320","2019-10-03 11:00","2019","10","03","11:00","6.4","","3.2","","80","","","","28","","15","","24.1","","99.35","","","","","","Cloudy"
"-98.27","49.90","PORTAGE SOUTHPORT A","5012320","2019-10-03 12:00","2019","10","03","12:00","7.1","","3.1","","76","","","","29","","13","","24.1","","99.38","","","","","","Cloudy"
"-98.27","49.90","PORTAGE SOUTHPORT A","5012320","2019-10-03 13:00","2019","10","03","13:00","7.1","","2.1","","70","","","","33","","11","","24.1","","99.39","","","","","","Cloudy"
"-98.27","49.90","PORTAGE SOUTHPORT A","5012320","2019-10-03 14:00","2019","10","03","14:00","7.1","","1.8","","69","","","","35","","9","","24.1","","99.38","","","","","","Mostly Cloudy"
"-98.27","49.90","PORTAGE SOUTHPORT A","5012320","2019-10-03 15:00","2019","10","03","15:00","7.2","","1.1","","65","","","","35","","8","","24.1","","99.40","","","","","","Mostly Cloudy"
"-98.27","49.90","PORTAGE SOUTHPORT A","5012320","2019-10-03 16:00","2019","10","03","16:00","7.5","","0.9","","63","","","","24","","5","","24.1","","99.42","","","","","","Mostly Cloudy"
"-98.27","49.90","PORTAGE SOUTHPORT A","5012320","2019-10-03 17:00","2019","10","03","17:00"
"-98.27","49.90","PORTAGE SOUTHPORT A","5012320","2019-10-03 18:00","2019","10","03","18:00"
"-98.27","49.90","PORTAGE SOUTHPORT A","5012320","2019-10-03 19:00","2019","10","03","19:00"
"-98.27","49.90","PORTAGE SOUTHPORT A","5012320","2019-10-03 20:00","2019","10","03","20:00"
"-98.27","49.90","PORTAGE SOUTHPORT A","5012320","2019-10-03 21:00","2019","10","03","21:00"
"-98.27","49.90","PORTAGE SOUTHPORT A","5012320","2019-10-03 22:00","2019","10","03","22:00"
"-98.27","49.90","PORTAGE SOUTHPORT A","5012320","2019-10-03 23:00","2019","10","03","23:00"
"-98.27","49.90","PORTAGE SOUTHPORT A","5012320","2019-10-04 00:00","2019","10","04","00:00"
"-98.27","49.90","PORTAGE SOUTHPORT A","5012320","2019-10-04 01:00","2019","10","04","01:00"
"-98.27","49.90","PORTAGE SOUTHPORT A","5012320","2019-10-04 02:00","2019","10","04","02:00"
"-98.27","49.90","PORTAGE SOUTHPORT A","5012320","2019-10-04 03:00","2019","10","04","03:00"
"-98.27","49.90","PORTAGE SOUTHPORT A","5012320","2019-10-04 04:00","2019","10","04","04:00"
"-98.27","49.90","PORTAGE SOUTHPORT A","5012320","2019-10-04 05:00","2019","10","04","05:00","4.5","","2.5","","87","","","","16","","13","","24.1","","99.51","","","","","","Cloudy"
"-98.27","49.90","PORTAGE SOUTHPORT A","5012320","2019-10-04 06:00","2019","10","04","06:00","4.6","","2.7","","87","","","","16","","11","","24.1","","99.47","","","","","","Cloudy"
"-98.27","49.90","PORTAGE SOUTHPORT A","5012320","2019-10-04 07:00","2019","10","04","07:00","5.2","","2.9","","85","","","","14","","17","","24.1","","99.42","","","","","","Cloudy"
"-98.27","49.90","PORTAGE SOUTHPORT A","5012320","2019-10-04 08:00","2019","10","04","08:00","6.3","","2.9","","79","","","","16","","24","","24.1","","99.38","","","","","","Cloudy"
"-98.27","49.90","PORTAGE SOUTHPORT A","5012320","2019-10-04 09:00","2019","10","04","09:00","6.7","","3.3","","79","","","","15","","30","","24.1","","99.35","","","","","","Cloudy"
"-98.27","49.90","PORTAGE SOUTHPORT A","5012320","2019-10-04 10:00","2019","10","04","10:00","6.8","","3.1","","77","","","","15","","35","","24.1","","99.33","","","","","","Cloudy"
"-98.27","49.90","PORTAGE SOUTHPORT A","5012320","2019-10-04 11:00","2019","10","04","11:00","6.7","","3.5","","80","","","","16","","31","","24.1","","99.28","","","","","","Cloudy"
"-98.27","49.90","PORTAGE SOUTHPORT A","5012320","2019-10-04 12:00","2019","10","04","12:00","7.0","","3.5","","78","","","","15","","30","","24.1","","99.21","","","","","","Cloudy"
"-98.27","49.90","PORTAGE SOUTHPORT A","5012320","2019-10-04 13:00","2019","10","04","13:00","7.1","","3.8","","80","","","","14","","34","","24.1","","99.15","","","","","","Cloudy"
"-98.27","49.90","PORTAGE SOUTHPORT A","5012320","2019-10-04 14:00","2019","10","04","14:00","7.4","","3.6","","77","","","","14","","30","","24.1","","99.04","","","","","","Cloudy"
"-98.27","49.90","PORTAGE SOUTHPORT A","5012320","2019-10-04 15:00","2019","10","04","15:00","8.0","","3.7","","74","","","","14","","31","","24.1","","98.96","","","","","","Mostly Cloudy"
"-98.27","49.90","PORTAGE SOUTHPORT A","5012320","2019-10-04 16:00","2019","10","04","16:00","7.9","","3.7","","75","","","","15","","31","","24.1","","98.87","","","","","","Mostly Cloudy"
"-98.27","49.90","PORTAGE SOUTHPORT A","5012320","2019-10-04 17:00","2019","10","04","17:00"
"-98.27","49.90","PORTAGE SOUTHPORT A","5012320","2019-10-04 18:00","2019","10","04","18:00"
"-98.27","49.90","PORTAGE SOUTHPORT A","5012320","2019-10-04 19:00","2019","10","04","19:00"
"-98.27","49.90","PORTAGE SOUTHPORT A","5012320","2019-10-04 20:00","2019","10","04","20:00"
"-98.27","49.90","PORTAGE SOUTHPORT A","5012320","2019-10-04 21:00","2019","10","04","21:00"
"-98.27","49.90","PORTAGE SOUTHPORT A","5012320","2019-10-04 22:00","2019","10","04","22:00"
"-98.27","49.90","PORTAGE SOUTHPORT A","5012320","2019-10-04 23:00","2019","10","04","23:00"
"-98.27","49.90","PORTAGE SOUTHPORT A","5012320","2019-10-05 00:00","2019","10","05","00:00"
"-98.27","49.90","PORTAGE SOUTHPORT A","5012320","2019-10-05 01:00","2019","10","05","01:00"
"-98.27","49.90","PORTAGE SOUTHPORT A","5012320","2019-10-05 02:00","2019","10","05","02:00"
"-98.27","49.90","PORTAGE SOUTHPORT A","5012320","2019-10-05 03:00","2019","10","05","03:00"
"-98.27","49.90","PORTAGE SOUTHPORT A","5012320","2019-10-05 04:00","2019","10","05","04:00"
"-98.27","49.90","PORTAGE SOUTHPORT A","5012320","2019-10-05 05:00","2019","10","05","05:00"
"-98.27","49.90","PORTAGE SOUTHPORT A","5012320","2019-10-05 06:00","2019","10","05","06:00"
"-98.27","49.90","PORTAGE SOUTHPORT A","5012320","2019-10-05 07:00","2019","10","05","07:00"
"-98.27","49.90","PORTAGE SOUTHPORT A","5012320","2019-10-05 08:00","2019","10","05","08:00"
"-98.27","49.90","PORTAGE SOUTHPORT A","5012320","2019-10-05 09:00","2019","10","05","09:00"
"-98.27","49.90","PORTAGE SOUTHPORT A","5012320","2019-10-05 10:00","2019","10","05","10:00"
"-98.27","49.90","PORTAGE SOUTHPORT A","5012320","2019-10-05 11:00","2019","10","05","11:00"
"-98.27","49.90","PORTAGE SOUTHPORT A","5012320","2019-10-05 12:00","2019","10","05","12:00"
"-98.27","49.90","PORTAGE SOUTHPORT A","5012320","2019-10-05 13:00","2019","10","05","13:00"
"-98.27","49.90","PORTAGE SOUTHPORT A","5012320","2019-10-05 14:00","2019","10","05","14:00"
"-98.27","49.90","PORTAGE SOUTHPORT A","5012320","2019-10-05 15:00","2019","10","05","15:00"
"-98.27","49.90","PORTAGE SOUTHPORT A","5012320","2019-10-05 16:00","2019","10","05","16:00"
"-98.27","49.90","PORTAGE SOUTHPORT A","5012320","2019-10-05 17:00","2019","10","05","17:00"
"-98.27","49.90","PORTAGE SOUTHPORT A","5012320","2019-10-05 18:00","2019","10","05","18:00"
"-98.27","49.90","PORTAGE SOUTHPORT A","5012320","2019-10-05 19:00","2019","10","05","19:00"
"-98.27","49.90","PORTAGE SOUTHPORT A","5012320","2019-10-05 20:00","2019","10","05","20:00"
"-98.27","49.90","PORTAGE SOUTHPORT A","5012320","2019-10-05 21:00","2019","10","05","21:00"
"-98.27","49.90","PORTAGE SOUTHPORT A","5012320","2019-10-05 22:00","2019","10","05","22:00"
"-98.27","49.90","PORTAGE SOUTHPORT A","5012320","2019-10-05 23:00","2019","10","05","23:00"
"-98.27","49.90","PORTAGE SOUTHPORT A","5012320","2019-10-06 00:00","2019","10","06","00:00"
"-98.27","49.90","PORTAGE SOUTHPORT A","5012320","2019-10-06 01:00","2019","10","06","01:00"
"-98.27","49.90","PORTAGE SOUTHPORT A","5012320","2019-10-06 02:00","2019","10","06","02:00"
"-98.27","49.90","PORTAGE SOUTHPORT A","5012320","2019-10-06 03:00","2019","10","06","03:00"
"-98.27","49.90","PORTAGE SOUTHPORT A","5012320","2019-10-06 04:00","2019","10","06","04:00"
"-98.27","49.90","PORTAGE SOUTHPORT A","5012320","2019-10-06 05:00","2019","10","06","05:00"
"-98.27","49.90","PORTAGE SOUTHPORT A","5012320","2019-10-06 06:00","2019","10","06","06:00"
"-98.27","49.90","PORTAGE SOUTHPORT A","5012320","2019-10-06 07:00","2019","10","06","07:00"
"-98.27","49.90","PORTAGE SOUTHPORT A","5012320","2019-10-06 08:00","2019","10","06","08:00"
"-98.27","49.90","PORTAGE SOUTHPORT A","5012320","2019-10-06 09:00","2019","10","06","09:00"
"-98.27","49.90","PORTAGE SOUTHPORT A","5012320","2019-10-06 10:00","2019","10","06","10:00"
"-98.27","49.90","PORTAGE SOUTHPORT A","5012320","2019-10-06 11:00","2019","10","06","11:00"
"-98.27","49.90","PORTAGE SOUTHPORT A","5012320","2019-10-06 12:00","2019","10","06","12:00"
"-98.27","49.90","PORTAGE SOUTHPORT A","5012320","2019-10-06 13:00","2019","10","06","13:00"
"-98.27","49.90","PORTAGE SOUTHPORT A","5012320","2019-10-06 14:00","2019","10","06","14:00"
"-98.27","49.90","PORTAGE SOUTHPORT A","5012320","2019-10-06 15:00","2019","10","06","15:00"
"-98.27","49.90","PORTAGE SOUTHPORT A","5012320","2019-10-06 16:00","2019","10","06","16:00"
"-98.27","49.90","PORTAGE SOUTHPORT A","5012320","2019-10-06 17:00","2019","10","06","17:00"
"-98.27","49.90","PORTAGE SOUTHPORT A","5012320","2019-10-06 18:00","2019","10","06","18:00"
"-98.27","49.90","PORTAGE SOUTHPORT A","5012320","2019-10-06 19:00","2019","10","06","19:00"
"-98.27","49.90","PORTAGE SOUTHPORT A","5012320","2019-10-06 20:00","2019","10","06","20:00"
"-98.27","49.90","PORTAGE SOUTHPORT A","5012320","2019-10-06 21:00","2019","10","06","21:00"
"-98.27","49.90","PORTAGE SOUTHPORT A","5012320","2019-10-06 22:00","2019","10","06","22:00"
"-98.27","49.90","PORTAGE SOUTHPORT A","5012320","2019-10-06 23:00","2019","10","06","23:00"
"-98.27","49.90","PORTAGE SOUTHPORT A","5012320","2019-10-07 00:00","2019","10","07","00:00"
"-98.27","49.90","PORTAGE SOUTHPORT A","5012320","2019-10-07 01:00","2019","10","07","01:00"
"-98.27","49.90","PORTAGE SOUTHPORT A","5012320","2019-10-07 02:00","2019","10","07","02:00"
"-98.27","49.90","PORTAGE SOUTHPORT A","5012320","2019-10-07 03:00","2019","10","07","03:00"
"-98.27","49.90","PORTAGE SOUTHPORT A","5012320","2019-10-07 04:00","2019","10","07","04:00"
"-98.27","49.90","PORTAGE SOUTHPORT A","5012320","2019-10-07 05:00","2019","10","07","05:00","2.8","","0.9","","87","","","","22","","15","","24.1","","98.28","","","","","","Mostly Cloudy"
"-98.27","49.90","PORTAGE SOUTHPORT A","5012320","2019-10-07 06:00","2019","10","07","06:00","3.6","","1.1","","84","","","","22","","18","","24.1","","98.26","","","","","","Mainly Clear"
"-98.27","49.90","PORTAGE SOUTHPORT A","5012320","2019-10-07 07:00","2019","10","07","07:00","4.5","","1.3","","80","","","","22","","21","","24.1","","98.22","","","","","","Mainly Clear"
"-98.27","49.90","PORTAGE SOUTHPORT A","5012320","2019-10-07 08:00","2019","10","07","08:00","5.5","","1.9","","78","","","","21","","15","","24.1","","98.19","","","","","","Mainly Clear"
"-98.27","49.90","PORTAGE SOUTHPORT A","5012320","2019-10-07 09:00","2019","10","07","09:00","8.2","","2.7","","68","","","","22","","22","","24.1","","98.19","","","","","","Mainly Clear"
"-98.27","49.90","PORTAGE SOUTHPORT A","5012320","2019-10-07 10:00","2019","10","07","10:00","11.7","","3.7","","58","","","","21","","22","","24.1","","98.13","","","","","","Mainly Clear"
"-98.27","49.90","PORTAGE SOUTHPORT A","5012320","2019-10-07 11:00","2019","10","07","11:00","14.6","","3.9","","49","","","","21","","24","","24.1","","98.08","","","","","","Mainly Clear"
"-98.27","49.90","PORTAGE SOUTHPORT A","5012320","2019-10-07 12:00","2019","10","07","12:00","16.8","","3.7","","42","","","","21","","21","","24.1","","98.00","","","","","","Mainly Clear"
"-98.27","49.90","PORTAGE SOUTHPORT A","5012320","2019-10-07 13:00","2019","10","07","13:00","18.2","","4.1","","39","","","","22","","24","","24.1","","97.88","","","","","","Mainly Clear"
"-98.27","49.90","PORTAGE SOUTHPORT A","5012320","2019-10-07 14:00","2019","10","07","14:00","19.1","","2.7","","34","","","","22","","26","","24.1","","97.78","","","","","","Mainly Clear"
"-98.27","49.90","PORTAGE SOUTHPORT A","5012320","2019-10-07 15:00","2019","10","07","15:00","19.5","","2.8","","33","","","","22","","28","","24.1","","97.74","","","","","","Mainly Clear"
"-98.27","49.90","PORTAGE SOUTHPORT A","5012320","2019-10-07 16:00","2019","10","07","16:00","18.9","","3.3","","35","","","","20","","24","","24.1","","97.67","","","","","","Mainly Clear"
"-98.27","49.90","PORTAGE SOUTHPORT A","5012320","2019-10-07 17:00","2019","10","07","17:00"
"-98.27","49.90","PORTAGE SOUTHPORT A","5012320","2019-10-07 18:00","2019","10","07","18:00"
"-98.27","49.90","PORTAGE SOUTHPORT A","5012320","2019-10-07 19:00","2019","10","07","19:00"
"-98.27","49.90","PORTAGE SOUTHPORT A","5012320","2019-10-07 20:00","2019","10","07","20:00"
"-98.27","49.90","PORTAGE SOUTHPORT A","5012320","2019-10-07 21:00","2019","10","07","21:00"
"-98.27","49.90","PORTAGE SOUTHPORT A","5012320","2019-10-07 22:00","2019","10","07","22:00"
"-98.27","49.90","PORTAGE SOUTHPORT A","5012320","2019-10-07 23:00","2019","10","07","23:00"
"-98.27","49.90","PORTAGE SOUTHPORT A","5012320","2019-10-08 00:00","2019","10","08","00:00"
"-98.27","49.90","PORTAGE SOUTHPORT A","5012320","2019-10-08 01:00","2019","10","08","01:00"
"-98.27","49.90","PORTAGE SOUTHPORT A","5012320","2019-10-08 02:00","2019","10","08","02:00"
"-98.27","49.90","PORTAGE SOUTHPORT A","5012320","2019-10-08 03:00","2019","10","08","03:00"
"-98.27","49.90","PORTAGE SOUTHPORT A","5012320","2019-10-08 04:00","2019","10","08","04:00"
"-98.27","49.90","PORTAGE SOUTHPORT A","5012320","2019-10-08 05:00","2019","10","08","05:00","11.1","","3.9","","61","","","","19","","22","","24.1","","96.77","","","","","","Mainly Clear"
"-98.27","49.90","PORTAGE SOUTHPORT A","5012320","2019-10-08 06:00","2019","10","08","06:00","9.6","","4.0","","68","","","","19","","17","","24.1","","96.76","","","","","","Mainly Clear"
"-98.27","49.90","PORTAGE SOUTHPORT A","5012320","2019-10-08 07:00","2019","10","08","07:00","9.3","","4.2","","70","","","","20","","21","","24.1","","96.76","","","","","","Mostly Cloudy"
"-98.27","49.90","PORTAGE SOUTHPORT A","5012320","2019-10-08 08:00","2019","10","08","08:00","11.3","","4.3","","62","","","","20","","24","","24.1","","96.73","","","","","","Mainly Clear"
"-98.27","49.90","PORTAGE SOUTHPORT A","5012320","2019-10-08 09:00","2019","10","08","09:00","13.9","","4.8","","54","","","","21","","26","","24.1","","96.77","","","","","","Mostly Cloudy"
"-98.27","49.90","PORTAGE SOUTHPORT A","5012320","2019-10-08 10:00","2019","10","08","10:00","16.6","","5.0","","46","","","","21","","24","","24.1","","96.80","","","","","","Mostly Cloudy"
"-98.27","49.90","PORTAGE SOUTHPORT A","5012320","2019-10-08 11:00","2019","10","08","11:00","19.2","","6.4","","43","","","","20","","17","","24.1","","96.79","","","","","","Mostly Cloudy"
"-98.27","49.90","PORTAGE SOUTHPORT A","5012320","2019-10-08 12:00","2019","10","08","12:00","20.7","","7.5","","42","","","","20","","22","","24.1","","96.78","","","","","","Mostly Cloudy"
"-98.27","49.90","PORTAGE SOUTHPORT A","5012320","2019-10-08 13:00","2019","10","08","13:00","21.4","","6.9","","39","","","","20","","21","","24.1","","96.78","","","","","","Mostly Cloudy"
"-98.27","49.90","PORTAGE SOUTHPORT A","5012320","2019-10-08 14:00","2019","10","08","14:00","21.5","","7.6","","41","","","","19","","18","","24.1","","96.80","","","","","","Mostly Cloudy"
"-98.27","49.90","PORTAGE SOUTHPORT A","5012320","2019-10-08 15:00","2019","10","08","15:00","20.7","","11.5","","56","","","","17","","5","","24.1","","96.84","","","","","","Mostly Cloudy"
"-98.27","49.90","PORTAGE SOUTHPORT A","5012320","2019-10-08 16:00","2019","10","08","16:00","20.3","","11.1","","55","","","","14","","15","","24.1","","96.86","","","","","","Mostly Cloudy"
"-98.27","49.90","PORTAGE SOUTHPORT A","5012320","2019-10-08 17:00","2019","10","08","17:00","18.7","","11.2","","62","","","","35","","4","","24.1","","96.96","","","","","","Mostly Cloudy"
"-98.27","49.90","PORTAGE SOUTHPORT A","5012320","2019-10-08 18:00","2019","10","08","18:00","17.4","","11.4","","68","","","","35","","13","","24.1","","97.04","","","","","","Mostly Cloudy"
"-98.27","49.90","PORTAGE SOUTHPORT A","5012320","2019-10-08 19:00","2019","10","08","19:00","16.8","","7.6","","55","","","","33","","15","","24.1","","97.11","","","","","","Mostly Cloudy"
"-98.27","49.90","PORTAGE SOUTHPORT A","5012320","2019-10-08 20:00","2019","10","08","20:00","13.2","","7.6","","69","","","","34","","22","","24.1","","97.22","","","","","","Mostly Cloudy"
"-98.27","49.90","PORTAGE SOUTHPORT A","5012320","2019-10-08 21:00","2019","10","08","21:00","10.9","","7.3","","78","","","","34","","24","","24.1","","97.32","","","","","","Mostly Cloudy"
"-98.27","49.90","PORTAGE SOUTHPORT A","5012320","2019-10-08 22:00","2019","10","08","22:00","9.8","","6.8","","82","","","","35","","24","","24.1","","97.39","","","","","","Mostly Cloudy"
"-98.27","49.90","PORTAGE SOUTHPORT A","5012320","2019-10-08 23:00","2019","10","08","23:00"
"-98.27","49.90","PORTAGE SOUTHPORT A","5012320","2019-10-09 00:00","2019","10","09","00:00"
"-98.27","49.90","PORTAGE SOUTHPORT A","5012320","2019-10-09 01:00","2019","10","09","01:00"
"-98.27","49.90","PORTAGE SOUTHPORT A","5012320","2019-10-09 02:00","2019","10","09","02:00"
"-98.27","49.90","PORTAGE SOUTHPORT A","5012320","2019-10-09 03:00","2019","10","09","03:00"
"-98.27","49.90","PORTAGE SOUTHPORT A","5012320","2019-10-09 04:00","2019","10","09","04:00"
"-98.27","49.90","PORTAGE SOUTHPORT A","5012320","2019-10-09 05:00","2019","10","09","05:00","5.5","","3.8","","89","","","","35","","28","","9.7","","97.81","","","","","","Drizzle,Fog"
"-98.27","49.90","PORTAGE SOUTHPORT A","5012320","2019-10-09 06:00","2019","10","09","06:00","5.3","","3.6","","89","","","","36","","30","","11.3","","97.89","","","","","","Drizzle"
"-98.27","49.90","PORTAGE SOUTHPORT A","5012320","2019-10-09 07:00","2019","10","09","07:00","5.0","","3.0","","87","","","","35","","31","","19.3","","97.95","","","","","","Cloudy"
"-98.27","49.90","PORTAGE SOUTHPORT A","5012320","2019-10-09 08:00","2019","10","09","08:00","5.0","","2.8","","86","","","","35","","31","","16.1","","98.03","","","","","","Drizzle"
"-98.27","49.90","PORTAGE SOUTHPORT A","5012320","2019-10-09 09:00","2019","10","09","09:00","4.7","","2.4","","85","","","","35","","39","","19.3","","97.96","","","","","","Cloudy"
"-98.27","49.90","PORTAGE SOUTHPORT A","5012320","2019-10-09 10:00","2019","10","09","10:00","4.8","","1.8","","81","","","","35","","34","","19.3","","98.00","","","","","","Cloudy"
"-98.27","49.90","PORTAGE SOUTHPORT A","5012320","2019-10-09 11:00","2019","10","09","11:00","4.7","","1.5","","80","","","","36","","39","","24.1","","97.99","","","","","","Cloudy"
"-98.27","49.90","PORTAGE SOUTHPORT A","5012320","2019-10-09 12:00","2019","10","09","12:00","4.9","","1.0","","76","","","","35","","39","","24.1","","98.08","","","","","","Cloudy"
"-98.27","49.90","PORTAGE SOUTHPORT A","5012320","2019-10-09 13:00","2019","10","09","13:00","4.5","","1.3","","80","","","","35","","37","","24.1","","98.12","","","","","","Cloudy"
"-98.27","49.90","PORTAGE SOUTHPORT A","5012320","2019-10-09 14:00","2019","10","09","14:00","3.6","","2.3","","91","","","","35","","30","","4.8","","98.18","","","","","","Drizzle,Fog"
"-98.27","49.90","PORTAGE SOUTHPORT A","5012320","2019-10-09 15:00","2019","10","09","15:00","3.3","","2.1","","92","","","","36","","34","","4.8","","98.28","","","","","","Drizzle,Fog"
"-98.27","49.90","PORTAGE SOUTHPORT A","5012320","2019-10-09 16:00","2019","10","09","16:00","3.2","","1.6","","89","","","","36","","39","","4.8","","98.35","","","","","","Drizzle,Fog"
"-98.27","49.90","PORTAGE SOUTHPORT A","5012320","2019-10-09 17:00","2019","10","09","17:00"
"-98.27","49.90","PORTAGE SOUTHPORT A","5012320","2019-10-09 18:00","2019","10","09","18:00"
"-98.27","49.90","PORTAGE SOUTHPORT A","5012320","2019-10-09 19:00","2019","10","09","19:00"
"-98.27","49.90","PORTAGE SOUTHPORT A","5012320","2019-10-09 20:00","2019","10","09","20:00"
"-98.27","49.90","PORTAGE SOUTHPORT A","5012320","2019-10-09 21:00","2019","10","09","21:00"
"-98.27","49.90","PORTAGE SOUTHPORT A","5012320","2019-10-09 22:00","2019","10","09","22:00"
"-98.27","49.90","PORTAGE SOUTHPORT A","5012320","2019-10-09 23:00","2019","10","09","23:00"
"-98.27","49.90","PORTAGE SOUTHPORT A","5012320","2019-10-10 00:00","2019","10","10","00:00"
"-98.27","49.90","PORTAGE SOUTHPORT A","5012320","2019-10-10 01:00","2019","10","10","01:00"
"-98.27","49.90","PORTAGE SOUTHPORT A","5012320","2019-10-10 02:00","2019","10","10","02:00"
"-98.27","49.90","PORTAGE SOUTHPORT A","5012320","2019-10-10 03:00","2019","10","10","03:00"
"-98.27","49.90","PORTAGE SOUTHPORT A","5012320","2019-10-10 04:00","2019","10","10","04:00"
"-98.27","49.90","PORTAGE SOUTHPORT A","5012320","2019-10-10 05:00","2019","10","10","05:00","1.7","","-1.8","","78","","","","1","","26","","24.1","","99.03","","","","","","Cloudy"
"-98.27","49.90","PORTAGE SOUTHPORT A","5012320","2019-10-10 06:00","2019","10","10","06:00","1.7","","-1.5","","79","","","","36","","30","","24.1","","98.96","","","","","","Cloudy"
"-98.27","49.90","PORTAGE SOUTHPORT A","5012320","2019-10-10 07:00","2019","10","10","07:00","1.7","","-1.2","","81","","","","36","","26","","12.9","","98.98","","","","","","Snow"
"-98.27","49.90","PORTAGE SOUTHPORT A","5012320","2019-10-10 08:00","2019","10","10","08:00","1.2","","-0.9","","86","","","","36","","28","","6.4","","98.99","","","","","","Snow"
"-98.27","49.90","PORTAGE SOUTHPORT A","5012320","2019-10-10 09:00","2019","10","10","09:00","0.3","","-0.5","","94","","","","36","","34","","0.8","","99.11","","","","","","Moderate Snow"
"-98.27","49.90","PORTAGE SOUTHPORT A","5012320","2019-10-10 10:00","2019","10","10","10:00","0.1","","-0.3","","97","","","","36","","35","","0.6","","98.99","","","","","","Moderate Snow"
"-98.27","49.90","PORTAGE SOUTHPORT A","5012320","2019-10-10 11:00","2019","10","10","11:00","0.2","","-0.3","","96","","","","36","","37","","1.2","","99.01","","","","","","Snow"
"-98.27","49.90","PORTAGE SOUTHPORT A","5012320","2019-10-10 12:00","2019","10","10","12:00","0.1","","-0.2","","98","","","","36","","34","","1.2","","98.88","","","","","","Snow"
"-98.27","49.90","PORTAGE SOUTHPORT A","5012320","2019-10-10 13:00","2019","10","10","13:00","0.2","","-0.2","","97","","","","35","","46","","0.6","","98.87","","","","","","Moderate Snow"
"-98.27","49.90","PORTAGE SOUTHPORT A","5012320","2019-10-10 14:00","2019","10","10","14:00","0.1","","-0.4","","96","","","","34","","35","","0.6","","98.84","","","","","","Moderate Snow"
"-98.27","49.90","PORTAGE SOUTHPORT A","5012320","2019-10-10 15:00","2019","10","10","15:00","0.2","","-1.0","","92","","","","35","","54","","1.6","","98.79","","","","","","Snow"
"-98.27","49.90","PORTAGE SOUTHPORT A","5012320","2019-10-10 16:00","2019","10","10","16:00","0.3","","-1.1","","90","","","","34","","46","","1.6","","98.74","","","","","","Snow"
"-98.27","49.90","PORTAGE SOUTHPORT A","5012320","2019-10-10 17:00","2019","10","10","17:00"
"-98.27","49.90","PORTAGE SOUTHPORT A","5012320","2019-10-10 18:00","2019","10","10","18:00"
"-98.27","49.90","PORTAGE SOUTHPORT A","5012320","2019-10-10 19:00","2019","10","10","19:00"
"-98.27","49.90","PORTAGE SOUTHPORT A","5012320","2019-10-10 20:00","2019","10","10","20:00"
"-98.27","49.90","PORTAGE SOUTHPORT A","5012320","2019-10-10 21:00","2019","10","10","21:00"
"-98.27","49.90","PORTAGE SOUTHPORT A","5012320","2019-10-10 22:00","2019","10","10","22:00"
"-98.27","49.90","PORTAGE SOUTHPORT A","5012320","2019-10-10 23:00","2019","10","10","23:00"
"-98.27","49.90","PORTAGE SOUTHPORT A","5012320","2019-10-11 00:00","2019","10","11","00:00"
"-98.27","49.90","PORTAGE SOUTHPORT A","5012320","2019-10-11 01:00","2019","10","11","01:00"
"-98.27","49.90","PORTAGE SOUTHPORT A","5012320","2019-10-11 02:00","2019","10","11","02:00"
"-98.27","49.90","PORTAGE SOUTHPORT A","5012320","2019-10-11 03:00","2019","10","11","03:00"
"-98.27","49.90","PORTAGE SOUTHPORT A","5012320","2019-10-11 04:00","2019","10","11","04:00"
"-98.27","49.90","PORTAGE SOUTHPORT A","5012320","2019-10-11 05:00","2019","10","11","05:00","0.5","","-0.5","","93","","","","35","","48","","2.4","","97.87","","","","","","Snow,Blowing Snow"
"-98.27","49.90","PORTAGE SOUTHPORT A","5012320","2019-10-11 06:00","2019","10","11","06:00","0.4","","-0.3","","95","","","","35","","57","","1.6","","97.71","","","","","","Snow,Blowing Snow"
"-98.27","49.90","PORTAGE SOUTHPORT A","5012320","2019-10-11 07:00","2019","10","11","07:00","0.3","","-0.2","","96","","","","35","","54","","1.2","","97.52","","","","","","Snow,Blowing Snow"
"-98.27","49.90","PORTAGE SOUTHPORT A","5012320","2019-10-11 08:00","2019","10","11","08:00","0.5","","-0.3","","94","","","","34","","48","","2.4","","97.56","","","","","","Snow,Blowing Snow"
"-98.27","49.90","PORTAGE SOUTHPORT A","5012320","2019-10-11 09:00","2019","10","11","09:00"
"-98.27","49.90","PORTAGE SOUTHPORT A","5012320","2019-10-11 10:00","2019","10","11","10:00"
"-98.27","49.90","PORTAGE SOUTHPORT A","5012320","2019-10-11 11:00","2019","10","11","11:00"
"-98.27","49.90","PORTAGE SOUTHPORT A","5012320","2019-10-11 12:00","2019","10","11","12:00"
"-98.27","49.90","PORTAGE SOUTHPORT A","5012320","2019-10-11 13:00","2019","10","11","13:00"
"-98.27","49.90","PORTAGE SOUTHPORT A","5012320","2019-10-11 14:00","2019","10","11","14:00"
"-98.27","49.90","PORTAGE SOUTHPORT A","5012320","2019-10-11 15:00","2019","10","11","15:00"
"-98.27","49.90","PORTAGE SOUTHPORT A","5012320","2019-10-11 16:00","2019","10","11","16:00"
"-98.27","49.90","PORTAGE SOUTHPORT A","5012320","2019-10-11 17:00","2019","10","11","17:00"
"-98.27","49.90","PORTAGE SOUTHPORT A","5012320","2019-10-11 18:00","2019","10","11","18:00"
"-98.27","49.90","PORTAGE SOUTHPORT A","5012320","2019-10-11 19:00","2019","10","11","19:00"
"-98.27","49.90","PORTAGE SOUTHPORT A","5012320","2019-10-11 20:00","2019","10","11","20:00"
"-98.27","49.90","PORTAGE SOUTHPORT A","5012320","2019-10-11 21:00","2019","10","11","21:00"
"-98.27","49.90","PORTAGE SOUTHPORT A","5012320","2019-10-11 22:00","2019","10","11","22:00"
"-98.27","49.90","PORTAGE SOUTHPORT A","5012320","2019-10-11 23:00","2019","10","11","23:00"
"-98.27","49.90","PORTAGE SOUTHPORT A","5012320","2019-10-12 00:00","2019","10","12","00:00"
"-98.27","49.90","PORTAGE SOUTHPORT A","5012320","2019-10-12 01:00","2019","10","12","01:00"
"-98.27","49.90","PORTAGE SOUTHPORT A","5012320","2019-10-12 02:00","2019","10","12","02:00"
"-98.27","49.90","PORTAGE SOUTHPORT A","5012320","2019-10-12 03:00","2019","10","12","03:00"
"-98.27","49.90","PORTAGE SOUTHPORT A","5012320","2019-10-12 04:00","2019","10","12","04:00"
"-98.27","49.90","PORTAGE SOUTHPORT A","5012320","2019-10-12 05:00","2019","10","12","05:00"
"-98.27","49.90","PORTAGE SOUTHPORT A","5012320","2019-10-12 06:00","2019","10","12","06:00"
"-98.27","49.90","PORTAGE SOUTHPORT A","5012320","2019-10-12 07:00","2019","10","12","07:00"
"-98.27","49.90","PORTAGE SOUTHPORT A","5012320","2019-10-12 08:00","2019","10","12","08:00"
"-98.27","49.90","PORTAGE SOUTHPORT A","5012320","2019-10-12 09:00","2019","10","12","09:00"
"-98.27","49.90","PORTAGE SOUTHPORT A","5012320","2019-10-12 10:00","2019","10","12","10:00"
"-98.27","49.90","PORTAGE SOUTHPORT A","5012320","2019-10-12 11:00","2019","10","12","11:00"
"-98.27","49.90","PORTAGE SOUTHPORT A","5012320","2019-10-12 12:00","2019","10","12","12:00"
"-98.27","49.90","PORTAGE SOUTHPORT A","5012320","2019-10-12 13:00","2019","10","12","13:00"
"-98.27","49.90","PORTAGE SOUTHPORT A","5012320","2019-10-12 14:00","2019","10","12","14:00"
"-98.27","49.90","PORTAGE SOUTHPORT A","5012320","2019-10-12 15:00","2019","10","12","15:00"
"-98.27","49.90","PORTAGE SOUTHPORT A","5012320","2019-10-12 16:00","2019","10","12","16:00"
"-98.27","49.90","PORTAGE SOUTHPORT A","5012320","2019-10-12 17:00","2019","10","12","17:00"
"-98.27","49.90","PORTAGE SOUTHPORT A","5012320","2019-10-12 18:00","2019","10","12","18:00"
"-98.27","49.90","PORTAGE SOUTHPORT A","5012320","2019-10-12 19:00","2019","10","12","19:00"
"-98.27","49.90","PORTAGE SOUTHPORT A","5012320","2019-10-12 20:00","2019","10","12","20:00"
"-98.27","49.90","PORTAGE SOUTHPORT A","5012320","2019-10-12 21:00","2019","10","12","21:00"
"-98.27","49.90","PORTAGE SOUTHPORT A","5012320","2019-10-12 22:00","2019","10","12","22:00"
"-98.27","49.90","PORTAGE SOUTHPORT A","5012320","2019-10-12 23:00","2019","10","12","23:00"
"-98.27","49.90","PORTAGE SOUTHPORT A","5012320","2019-10-13 00:00","2019","10","13","00:00"
"-98.27","49.90","PORTAGE SOUTHPORT A","5012320","2019-10-13 01:00","2019","10","13","01:00"
"-98.27","49.90","PORTAGE SOUTHPORT A","5012320","2019-10-13 02:00","2019","10","13","02:00"
"-98.27","49.90","PORTAGE SOUTHPORT A","5012320","2019-10-13 03:00","2019","10","13","03:00"
"-98.27","49.90","PORTAGE SOUTHPORT A","5012320","2019-10-13 04:00","2019","10","13","04:00"
"-98.27","49.90","PORTAGE SOUTHPORT A","5012320","2019-10-13 05:00","2019","10","13","05:00"
"-98.27","49.90","PORTAGE SOUTHPORT A","5012320","2019-10-13 06:00","2019","10","13","06:00"
"-98.27","49.90","PORTAGE SOUTHPORT A","5012320","2019-10-13 07:00","2019","10","13","07:00"
"-98.27","49.90","PORTAGE SOUTHPORT A","5012320","2019-10-13 08:00","2019","10","13","08:00"
"-98.27","49.90","PORTAGE SOUTHPORT A","5012320","2019-10-13 09:00","2019","10","13","09:00"
"-98.27","49.90","PORTAGE SOUTHPORT A","5012320","2019-10-13 10:00","2019","10","13","10:00"
"-98.27","49.90","PORTAGE SOUTHPORT A","5012320","2019-10-13 11:00","2019","10","13","11:00"
"-98.27","49.90","PORTAGE SOUTHPORT A","5012320","2019-10-13 12:00","2019","10","13","12:00"
"-98.27","49.90","PORTAGE SOUTHPORT A","5012320","2019-10-13 13:00","2019","10","13","13:00"
"-98.27","49.90","PORTAGE SOUTHPORT A","5012320","2019-10-13 14:00","2019","10","13","14:00"
"-98.27","49.90","PORTAGE SOUTHPORT A","5012320","2019-10-13 15:00","2019","10","13","15:00"
"-98.27","49.90","PORTAGE SOUTHPORT A","5012320","2019-10-13 16:00","2019","10","13","16:00"
"-98.27","49.90","PORTAGE SOUTHPORT A","5012320","2019-10-13 17:00","2019","10","13","17:00"
"-98.27","49.90","PORTAGE SOUTHPORT A","5012320","2019-10-13 18:00","2019","10","13","18:00"
"-98.27","49.90","PORTAGE SOUTHPORT A","5012320","2019-10-13 19:00","2019","10","13","19:00"
"-98.27","49.90","PORTAGE SOUTHPORT A","5012320","2019-10-13 20:00","2019","10","13","20:00"
"-98.27","49.90","PORTAGE SOUTHPORT A","5012320","2019-10-13 21:00","2019","10","13","21:00"
"-98.27","49.90","PORTAGE SOUTHPORT A","5012320","2019-10-13 22:00","2019","10","13","22:00"
"-98.27","49.90","PORTAGE SOUTHPORT A","5012320","2019-10-13 23:00","2019","10","13","23:00"
"-98.27","49.90","PORTAGE SOUTHPORT A","5012320","2019-10-14 00:00","2019","10","14","00:00"
"-98.27","49.90","PORTAGE SOUTHPORT A","5012320","2019-10-14 01:00","2019","10","14","01:00"
"-98.27","49.90","PORTAGE SOUTHPORT A","5012320","2019-10-14 02:00","2019","10","14","02:00"
"-98.27","49.90","PORTAGE SOUTHPORT A","5012320","2019-10-14 03:00","2019","10","14","03:00"
"-98.27","49.90","PORTAGE SOUTHPORT A","5012320","2019-10-14 04:00","2019","10","14","04:00"
"-98.27","49.90","PORTAGE SOUTHPORT A","5012320","2019-10-14 05:00","2019","10","14","05:00"
"-98.27","49.90","PORTAGE SOUTHPORT A","5012320","2019-10-14 06:00","2019","10","14","06:00"
"-98.27","49.90","PORTAGE SOUTHPORT A","5012320","2019-10-14 07:00","2019","10","14","07:00"
"-98.27","49.90","PORTAGE SOUTHPORT A","5012320","2019-10-14 08:00","2019","10","14","08:00"
"-98.27","49.90","PORTAGE SOUTHPORT A","5012320","2019-10-14 09:00","2019","10","14","09:00"
"-98.27","49.90","PORTAGE SOUTHPORT A","5012320","2019-10-14 10:00","2019","10","14","10:00"
"-98.27","49.90","PORTAGE SOUTHPORT A","5012320","2019-10-14 11:00","2019","10","14","11:00"
"-98.27","49.90","PORTAGE SOUTHPORT A","5012320","2019-10-14 12:00","2019","10","14","12:00"
"-98.27","49.90","PORTAGE SOUTHPORT A","5012320","2019-10-14 13:00","2019","10","14","13:00"
"-98.27","49.90","PORTAGE SOUTHPORT A","5012320","2019-10-14 14:00","2019","10","14","14:00"
"-98.27","49.90","PORTAGE SOUTHPORT A","5012320","2019-10-14 15:00","2019","10","14","15:00"
"-98.27","49.90","PORTAGE SOUTHPORT A","5012320","2019-10-14 16:00","2019","10","14","16:00"
"-98.27","49.90","PORTAGE SOUTHPORT A","5012320","2019-10-14 17:00","2019","10","14","17:00"
"-98.27","49.90","PORTAGE SOUTHPORT A","5012320","2019-10-14 18:00","2019","10","14","18:00"
"-98.27","49.90","PORTAGE SOUTHPORT A","5012320","2019-10-14 19:00","2019","10","14","19:00"
"-98.27","49.90","PORTAGE SOUTHPORT A","5012320","2019-10-14 20:00","2019","10","14","20:00"
"-98.27","49.90","PORTAGE SOUTHPORT A","5012320","2019-10-14 21:00","2019","10","14","21:00"
"-98.27","49.90","PORTAGE SOUTHPORT A","5012320","2019-10-14 22:00","2019","10","14","22:00"
"-98.27","49.90","PORTAGE SOUTHPORT A","5012320","2019-10-14 23:00","2019","10","14","23:00"
"-98.27","49.90","PORTAGE SOUTHPORT A","5012320","2019-10-15 00:00","2019","10","15","00:00"
"-98.27","49.90","PORTAGE SOUTHPORT A","5012320","2019-10-15 01:00","2019","10","15","01:00"
"-98.27","49.90","PORTAGE SOUTHPORT A","5012320","2019-10-15 02:00","2019","10","15","02:00"
"-98.27","49.90","PORTAGE SOUTHPORT A","5012320","2019-10-15 03:00","2019","10","15","03:00"
"-98.27","49.90","PORTAGE SOUTHPORT A","5012320","2019-10-15 04:00","2019","10","15","04:00"
"-98.27","49.90","PORTAGE SOUTHPORT A","5012320","2019-10-15 05:00","2019","10","15","05:00","1.5","","0.8","","95","","","","32","","11","","19.3","","98.25","","","","","","Cloudy"
"-98.27","49.90","PORTAGE SOUTHPORT A","5012320","2019-10-15 06:00","2019","10","15","06:00","1.3","","0.8","","96","","","","30","","13","","19.3","","98.31","","","","","","Mostly Cloudy"
"-98.27","49.90","PORTAGE SOUTHPORT A","5012320","2019-10-15 07:00","2019","10","15","07:00","1.2","","0.9","","98","","","","30","","15","","19.3","","98.38","","","","","","Cloudy"
"-98.27","49.90","PORTAGE SOUTHPORT A","5012320","2019-10-15 08:00","2019","10","15","08:00","1.4","","0.9","","96","","","","32","","15","","19.3","","98.45","","","","","","Drizzle"
"-98.27","49.90","PORTAGE SOUTHPORT A","5012320","2019-10-15 09:00","2019","10","15","09:00","1.6","","0.7","","94","","","","32","","18","","19.3","","98.52","","","","","","Rain Showers"
"-98.27","49.90","PORTAGE SOUTHPORT A","5012320","2019-10-15 10:00","2019","10","15","10:00","1.5","","1.0","","96","","","","30","","18","","16.1","","98.60","","","","","","Rain Showers"
"-98.27","49.90","PORTAGE SOUTHPORT A","5012320","2019-10-15 11:00","2019","10","15","11:00","1.8","","1.1","","95","","","","30","","22","","19.3","","98.65","","","","","","Cloudy"
"-98.27","49.90","PORTAGE SOUTHPORT A","5012320","2019-10-15 12:00","2019","10","15","12:00","2.0","","0.8","","92","","","","30","","24","","24.1","","98.70","","","","","","Cloudy"
"-98.27","49.90","PORTAGE SOUTHPORT A","5012320","2019-10-15 13:00","2019","10","15","13:00","2.0","","0.7","","91","","","","30","","21","","24.1","","98.72","","","","","","Cloudy"
"-98.27","49.90","PORTAGE SOUTHPORT A","5012320","2019-10-15 14:00","2019","10","15","14:00","2.2","","1.0","","92","","","","31","","22","","19.3","","98.76","","","","","","Cloudy"
"-98.27","49.90","PORTAGE SOUTHPORT A","5012320","2019-10-15 15:00","2019","10","15","15:00","2.0","","1.8","","99","","","","31","","21","","2.4","","98.81","","","","","","Drizzle,Fog"
"-98.27","49.90","PORTAGE SOUTHPORT A","5012320","2019-10-15 16:00","2019","10","15","16:00","2.1","","1.5","","96","","","","31","","22","","9.7","","98.86","","","","","","Fog"
"-98.27","49.90","PORTAGE SOUTHPORT A","5012320","2019-10-15 17:00","2019","10","15","17:00","2.3","","1.0","","91","","","","30","","17","","19.3","","98.90","","","","","","Rain Showers"
"-98.27","49.90","PORTAGE SOUTHPORT A","5012320","2019-10-15 18:00","2019","10","15","18:00","2.1","","0.8","","91","","","","31","","21","","19.3","","98.93","","","","","","Mostly Cloudy"
"-98.27","49.90","PORTAGE SOUTHPORT A","5012320","2019-10-15 19:00","2019","10","15","19:00","1.8","","0.6","","92","","","","31","","17","","19.3","","98.95","","","","","","Cloudy"
"-98.27","49.90","PORTAGE SOUTHPORT A","5012320","2019-10-15 20:00","2019","10","15","20:00","1.5","","0.5","","93","","","","30","","15","","24.1","","99.00","","","","","","Cloudy"
"-98.27","49.90","PORTAGE SOUTHPORT A","5012320","2019-10-15 21:00","2019","10","15","21:00"
"-98.27","49.90","PORTAGE SOUTHPORT A","5012320","2019-10-15 22:00","2019","10","15","22:00"
"-98.27","49.90","PORTAGE SOUTHPORT A","5012320","2019-10-15 23:00","2019","10","15","23:00"
"-98.27","49.90","PORTAGE SOUTHPORT A","5012320","2019-10-16 00:00","2019","10","16","00:00"
"-98.27","49.90","PORTAGE SOUTHPORT A","5012320","2019-10-16 01:00","2019","10","16","01:00"
"-98.27","49.90","PORTAGE SOUTHPORT A","5012320","2019-10-16 02:00","2019","10","16","02:00"
"-98.27","49.90","PORTAGE SOUTHPORT A","5012320","2019-10-16 03:00","2019","10","16","03:00"
"-98.27","49.90","PORTAGE SOUTHPORT A","5012320","2019-10-16 04:00","2019","10","16","04:00"
"-98.27","49.90","PORTAGE SOUTHPORT A","5012320","2019-10-16 05:00","2019","10","16","05:00","0.9","","0.9","","100","","","","26","","4","","0.8","","98.86","","","","","","Fog"
"-98.27","49.90","PORTAGE SOUTHPORT A","5012320","2019-10-16 06:00","2019","10","16","06:00","0.9","","0.9","","100","","","","23","","8","","0.8","","98.83","","","","","","Fog"
"-98.27","49.90","PORTAGE SOUTHPORT A","5012320","2019-10-16 07:00","2019","10","16","07:00","1.0","","1.0","","100","","","","24","","5","","0.8","","98.83","","","","","","Fog"
"-98.27","49.90","PORTAGE SOUTHPORT A","5012320","2019-10-16 08:00","2019","10","16","08:00","0.7","","0.7","","100","","","","20","","5","","0.8","","98.76","","","","","","Fog"
"-98.27","49.90","PORTAGE SOUTHPORT A","5012320","2019-10-16 09:00","2019","10","16","09:00","1.1","","1.1","","100","","","","22","","5","","6.4","","98.80","","","","","","Fog"
"-98.27","49.90","PORTAGE SOUTHPORT A","5012320","2019-10-16 10:00","2019","10","16","10:00","1.1","","1.1","","100","","","","18","","4","","19.3","","98.77","","","","","","Cloudy"
"-98.27","49.90","PORTAGE SOUTHPORT A","5012320","2019-10-16 11:00","2019","10","16","11:00","1.4","","1.4","","100","","","","12","","9","","24.1","","98.69","","","","","","Cloudy"
"-98.27","49.90","PORTAGE SOUTHPORT A","5012320","2019-10-16 12:00","2019","10","16","12:00","2.0","","1.1","","94","","","","15","","11","","24.1","","98.59","","","","","","Cloudy"
"-98.27","49.90","PORTAGE SOUTHPORT A","5012320","2019-10-16 13:00","2019","10","16","13:00","2.6","","0.6","","87","","","","15","","13","","24.1","","98.55","","","","","","Cloudy"
"-98.27","49.90","PORTAGE SOUTHPORT A","5012320","2019-10-16 14:00","2019","10","16","14:00","2.9","","0.3","","83","","","","14","","15","","24.1","","98.43","","","","","","Cloudy"
"-98.27","49.90","PORTAGE SOUTHPORT A","5012320","2019-10-16 15:00","2019","10","16","15:00","2.8","","0.7","","86","","","","16","","13","","24.1","","98.43","","","","","","Cloudy"
"-98.27","49.90","PORTAGE SOUTHPORT A","5012320","2019-10-16 16:00","2019","10","16","16:00","2.8","","0.5","","85","","","","13","","11","","24.1","","98.40","","","","","","Cloudy"
"-98.27","49.90","PORTAGE SOUTHPORT A","5012320","2019-10-16 17:00","2019","10","16","17:00","2.5","","1.2","","91","","","","12","","17","","24.1","","98.34","","","","","","Mostly Cloudy"
"-98.27","49.90","PORTAGE SOUTHPORT A","5012320","2019-10-16 18:00","2019","10","16","18:00","2.2","","1.3","","94","","","","11","","18","","24.1","","98.30","","","","","","Mostly Cloudy"
"-98.27","49.90","PORTAGE SOUTHPORT A","5012320","2019-10-16 19:00","2019","10","16","19:00","2.1","","1.4","","95","","","","12","","18","","24.1","","98.26","","","","","","Mainly Clear"
"-98.27","49.90","PORTAGE SOUTHPORT A","5012320","2019-10-16 20:00","2019","10","16","20:00"
"-98.27","49.90","PORTAGE SOUTHPORT A","5012320","2019-10-16 21:00","2019","10","16","21:00"
"-98.27","49.90","PORTAGE SOUTHPORT A","5012320","2019-10-16 22:00","2019","10","16","22:00"
"-98.27","49.90","PORTAGE SOUTHPORT A","5012320","2019-10-16 23:00","2019","10","16","23:00"
"-98.27","49.90","PORTAGE SOUTHPORT A","5012320","2019-10-17 00:00","2019","10","17","00:00"
"-98.27","49.90","PORTAGE SOUTHPORT A","5012320","2019-10-17 01:00","2019","10","17","01:00"
"-98.27","49.90","PORTAGE SOUTHPORT A","5012320","2019-10-17 02:00","2019","10","17","02:00"
"-98.27","49.90","PORTAGE SOUTHPORT A","5012320","2019-10-17 03:00","2019","10","17","03:00"
"-98.27","49.90","PORTAGE SOUTHPORT A","5012320","2019-10-17 04:00","2019","10","17","04:00"
"-98.27","49.90","PORTAGE SOUTHPORT A","5012320","2019-10-17 05:00","2019","10","17","05:00","0.8","","0.8","","100","","","","13","","13","","1.2","","97.96","","","","","","Fog"
"-98.27","49.90","PORTAGE SOUTHPORT A","5012320","2019-10-17 06:00","2019","10","17","06:00","0.7","","0.7","","100","","","","13","","18","","1.2","","97.93","","","","","","Fog"
"-98.27","49.90","PORTAGE SOUTHPORT A","5012320","2019-10-17 07:00","2019","10","17","07:00","0.6","","0.6","","100","","","","13","","18","","1.2","","97.89","","","","","","Fog"
"-98.27","49.90","PORTAGE SOUTHPORT A","5012320","2019-10-17 08:00","2019","10","17","08:00","0.7","","0.7","","100","","","","14","","22","","1.2","","97.87","","","","","","Fog"
"-98.27","49.90","PORTAGE SOUTHPORT A","5012320","2019-10-17 09:00","2019","10","17","09:00","1.3","","1.1","","99","","","","15","","18","","3.2","","97.88","","","","","","Fog"
"-98.27","49.90","PORTAGE SOUTHPORT A","5012320","2019-10-17 10:00","2019","10","17","10:00","1.6","","1.2","","97","","","","14","","21","","4.8","","97.88","","","","","","Fog"
"-98.27","49.90","PORTAGE SOUTHPORT A","5012320","2019-10-17 11:00","2019","10","17","11:00","2.6","","1.6","","93","","","","14","","22","","6.4","","97.80","","","","","","Fog"
"-98.27","49.90","PORTAGE SOUTHPORT A","5012320","2019-10-17 12:00","2019","10","17","12:00","4.9","","2.4","","84","","","","14","","21","","19.3","","97.73","","","","","","Mostly Cloudy"
"-98.27","49.90","PORTAGE SOUTHPORT A","5012320","2019-10-17 13:00","2019","10","17","13:00","7.0","","3.0","","76","","","","14","","31","","19.3","","97.67","","","","","","Mostly Cloudy"
"-98.27","49.90","PORTAGE SOUTHPORT A","5012320","2019-10-17 14:00","2019","10","17","14:00","7.7","","3.6","","75","","","","15","","31","","24.1","","97.58","","","","","","Mostly Cloudy"
"-98.27","49.90","PORTAGE SOUTHPORT A","5012320","2019-10-17 15:00","2019","10","17","15:00","8.9","","4.3","","73","","","","15","","31","","24.1","","97.50","","","","","","Mostly Cloudy"
"-98.27","49.90","PORTAGE SOUTHPORT A","5012320","2019-10-17 16:00","2019","10","17","16:00","8.6","","4.5","","75","","","","14","","28","","24.1","","97.42","","","","","","Mostly Cloudy"
"-98.27","49.90","PORTAGE SOUTHPORT A","5012320","2019-10-17 17:00","2019","10","17","17:00","8.4","","4.5","","76","","","","14","","31","","24.1","","97.35","","","","","","Mostly Cloudy"
"-98.27","49.90","PORTAGE SOUTHPORT A","5012320","2019-10-17 18:00","2019","10","17","18:00","7.8","","4.8","","81","","","","14","","26","","24.1","","97.31","","","","","","Mostly Cloudy"
"-98.27","49.90","PORTAGE SOUTHPORT A","5012320","2019-10-17 19:00","2019","10","17","19:00","6.6","","5.0","","90","","","","12","","18","","24.1","","97.28","","","","","","Mostly Cloudy"
"-98.27","49.90","PORTAGE SOUTHPORT A","5012320","2019-10-17 20:00","2019","10","17","20:00","6.1","","4.4","","89","","","","12","","24","","24.1","","97.18","","","","","","Mostly Cloudy"
"-98.27","49.90","PORTAGE SOUTHPORT A","5012320","2019-10-17 21:00","2019","10","17","21:00"
"-98.27","49.90","PORTAGE SOUTHPORT A","5012320","2019-10-17 22:00","2019","10","17","22:00"
"-98.27","49.90","PORTAGE SOUTHPORT A","5012320","2019-10-17 23:00","2019","10","17","23:00"
"-98.27","49.90","PORTAGE SOUTHPORT A","5012320","2019-10-18 00:00","2019","10","18","00:00"
"-98.27","49.90","PORTAGE SOUTHPORT A","5012320","2019-10-18 01:00","2019","10","18","01:00"
"-98.27","49.90","PORTAGE SOUTHPORT A","5012320","2019-10-18 02:00","2019","10","18","02:00"
"-98.27","49.90","PORTAGE SOUTHPORT A","5012320","2019-10-18 03:00","2019","10","18","03:00"
"-98.27","49.90","PORTAGE SOUTHPORT A","5012320","2019-10-18 04:00","2019","10","18","04:00"
"-98.27","49.90","PORTAGE SOUTHPORT A","5012320","2019-10-18 05:00","2019","10","18","05:00","4.3","","3.2","","93","","","","11","","17","","24.1","","96.58","","","","","","Mostly Cloudy"
"-98.27","49.90","PORTAGE SOUTHPORT A","5012320","2019-10-18 06:00","2019","10","18","06:00","4.0","","3.1","","94","","","","12","","17","","24.1","","96.49","","","","","","Mostly Cloudy"
"-98.27","49.90","PORTAGE SOUTHPORT A","5012320","2019-10-18 07:00","2019","10","18","07:00","4.7","","3.3","","91","","","","13","","18","","24.1","","96.47","","","","","","Mostly Cloudy"
"-98.27","49.90","PORTAGE SOUTHPORT A","5012320","2019-10-18 08:00","2019","10","18","08:00","4.4","","3.5","","94","","","","13","","13","","24.1","","96.43","","","","","","Mostly Cloudy"
"-98.27","49.90","PORTAGE SOUTHPORT A","5012320","2019-10-18 09:00","2019","10","18","09:00","6.6","","4.7","","88","","","","15","","18","","19.3","","96.42","","","","","","Mostly Cloudy"
"-98.27","49.90","PORTAGE SOUTHPORT A","5012320","2019-10-18 10:00","2019","10","18","10:00","8.3","","5.2","","81","","","","17","","18","","19.3","","96.40","","","","","","Mostly Cloudy"
"-98.27","49.90","PORTAGE SOUTHPORT A","5012320","2019-10-18 11:00","2019","10","18","11:00","9.3","","5.4","","77","","","","18","","17","","24.1","","96.31","","","","","","Mostly Cloudy"
"-98.27","49.90","PORTAGE SOUTHPORT A","5012320","2019-10-18 12:00","2019","10","18","12:00","9.4","","5.1","","74","","","","21","","15","","24.1","","96.32","","","","","","Mostly Cloudy"
"-98.27","49.90","PORTAGE SOUTHPORT A","5012320","2019-10-18 13:00","2019","10","18","13:00","9.9","","5.2","","73","","","","18","","11","","24.1","","96.31","","","","","","Mostly Cloudy"
"-98.27","49.90","PORTAGE SOUTHPORT A","5012320","2019-10-18 14:00","2019","10","18","14:00","10.7","","5.4","","70","","","","19","","11","","24.1","","96.26","","","","","","Mostly Cloudy"
"-98.27","49.90","PORTAGE SOUTHPORT A","5012320","2019-10-18 15:00","2019","10","18","15:00","10.7","","5.4","","70","","","","21","","15","","24.1","","96.29","","","","","","Mostly Cloudy"
"-98.27","49.90","PORTAGE SOUTHPORT A","5012320","2019-10-18 16:00","2019","10","18","16:00","10.4","","5.9","","74","","","","21","","17","","24.1","","96.33","","","","","","Mostly Cloudy"
"-98.27","49.90","PORTAGE SOUTHPORT A","5012320","2019-10-18 17:00","2019","10","18","17:00"
"-98.27","49.90","PORTAGE SOUTHPORT A","5012320","2019-10-18 18:00","2019","10","18","18:00"
"-98.27","49.90","PORTAGE SOUTHPORT A","5012320","2019-10-18 19:00","2019","10","18","19:00"
"-98.27","49.90","PORTAGE SOUTHPORT A","5012320","2019-10-18 20:00","2019","10","18","20:00"
"-98.27","49.90","PORTAGE SOUTHPORT A","5012320","2019-10-18 21:00","2019","10","18","21:00"
"-98.27","49.90","PORTAGE SOUTHPORT A","5012320","2019-10-18 22:00","2019","10","18","22:00"
"-98.27","49.90","PORTAGE SOUTHPORT A","5012320","2019-10-18 23:00","2019","10","18","23:00"
"-98.27","49.90","PORTAGE SOUTHPORT A","5012320","2019-10-19 00:00","2019","10","19","00:00"
"-98.27","49.90","PORTAGE SOUTHPORT A","5012320","2019-10-19 01:00","2019","10","19","01:00"
"-98.27","49.90","PORTAGE SOUTHPORT A","5012320","2019-10-19 02:00","2019","10","19","02:00"
"-98.27","49.90","PORTAGE SOUTHPORT A","5012320","2019-10-19 03:00","2019","10","19","03:00"
"-98.27","49.90","PORTAGE SOUTHPORT A","5012320","2019-10-19 04:00","2019","10","19","04:00"
"-98.27","49.90","PORTAGE SOUTHPORT A","5012320","2019-10-19 05:00","2019","10","19","05:00"
"-98.27","49.90","PORTAGE SOUTHPORT A","5012320","2019-10-19 06:00","2019","10","19","06:00"
"-98.27","49.90","PORTAGE SOUTHPORT A","5012320","2019-10-19 07:00","2019","10","19","07:00"
"-98.27","49.90","PORTAGE SOUTHPORT A","5012320","2019-10-19 08:00","2019","10","19","08:00"
"-98.27","49.90","PORTAGE SOUTHPORT A","5012320","2019-10-19 09:00","2019","10","19","09:00"
"-98.27","49.90","PORTAGE SOUTHPORT A","5012320","2019-10-19 10:00","2019","10","19","10:00"
"-98.27","49.90","PORTAGE SOUTHPORT A","5012320","2019-10-19 11:00","2019","10","19","11:00"
"-98.27","49.90","PORTAGE SOUTHPORT A","5012320","2019-10-19 12:00","2019","10","19","12:00"
"-98.27","49.90","PORTAGE SOUTHPORT A","5012320","2019-10-19 13:00","2019","10","19","13:00"
"-98.27","49.90","PORTAGE SOUTHPORT A","5012320","2019-10-19 14:00","2019","10","19","14:00"
"-98.27","49.90","PORTAGE SOUTHPORT A","5012320","2019-10-19 15:00","2019","10","19","15:00"
"-98.27","49.90","PORTAGE SOUTHPORT A","5012320","2019-10-19 16:00","2019","10","19","16:00"
"-98.27","49.90","PORTAGE SOUTHPORT A","5012320","2019-10-19 17:00","2019","10","19","17:00"
"-98.27","49.90","PORTAGE SOUTHPORT A","5012320","2019-10-19 18:00","2019","10","19","18:00"
"-98.27","49.90","PORTAGE SOUTHPORT A","5012320","2019-10-19 19:00","2019","10","19","19:00"
"-98.27","49.90","PORTAGE SOUTHPORT A","5012320","2019-10-19 20:00","2019","10","19","20:00"
"-98.27","49.90","PORTAGE SOUTHPORT A","5012320","2019-10-19 21:00","2019","10","19","21:00"
"-98.27","49.90","PORTAGE SOUTHPORT A","5012320","2019-10-19 22:00","2019","10","19","22:00"
"-98.27","49.90","PORTAGE SOUTHPORT A","5012320","2019-10-19 23:00","2019","10","19","23:00"
"-98.27","49.90","PORTAGE SOUTHPORT A","5012320","2019-10-20 00:00","2019","10","20","00:00"
"-98.27","49.90","PORTAGE SOUTHPORT A","5012320","2019-10-20 01:00","2019","10","20","01:00"
"-98.27","49.90","PORTAGE SOUTHPORT A","5012320","2019-10-20 02:00","2019","10","20","02:00"
"-98.27","49.90","PORTAGE SOUTHPORT A","5012320","2019-10-20 03:00","2019","10","20","03:00"
"-98.27","49.90","PORTAGE SOUTHPORT A","5012320","2019-10-20 04:00","2019","10","20","04:00"
"-98.27","49.90","PORTAGE SOUTHPORT A","5012320","2019-10-20 05:00","2019","10","20","05:00"
"-98.27","49.90","PORTAGE SOUTHPORT A","5012320","2019-10-20 06:00","2019","10","20","06:00"
"-98.27","49.90","PORTAGE SOUTHPORT A","5012320","2019-10-20 07:00","2019","10","20","07:00"
"-98.27","49.90","PORTAGE SOUTHPORT A","5012320","2019-10-20 08:00","2019","10","20","08:00"
"-98.27","49.90","PORTAGE SOUTHPORT A","5012320","2019-10-20 09:00","2019","10","20","09:00"
"-98.27","49.90","PORTAGE SOUTHPORT A","5012320","2019-10-20 10:00","2019","10","20","10:00"
"-98.27","49.90","PORTAGE SOUTHPORT A","5012320","2019-10-20 11:00","2019","10","20","11:00"
"-98.27","49.90","PORTAGE SOUTHPORT A","5012320","2019-10-20 12:00","2019","10","20","12:00"
"-98.27","49.90","PORTAGE SOUTHPORT A","5012320","2019-10-20 13:00","2019","10","20","13:00"
"-98.27","49.90","PORTAGE SOUTHPORT A","5012320","2019-10-20 14:00","2019","10","20","14:00"
"-98.27","49.90","PORTAGE SOUTHPORT A","5012320","2019-10-20 15:00","2019","10","20","15:00"
"-98.27","49.90","PORTAGE SOUTHPORT A","5012320","2019-10-20 16:00","2019","10","20","16:00"
"-98.27","49.90","PORTAGE SOUTHPORT A","5012320","2019-10-20 17:00","2019","10","20","17:00"
"-98.27","49.90","PORTAGE SOUTHPORT A","5012320","2019-10-20 18:00","2019","10","20","18:00"
"-98.27","49.90","PORTAGE SOUTHPORT A","5012320","2019-10-20 19:00","2019","10","20","19:00"
"-98.27","49.90","PORTAGE SOUTHPORT A","5012320","2019-10-20 20:00","2019","10","20","20:00"
"-98.27","49.90","PORTAGE SOUTHPORT A","5012320","2019-10-20 21:00","2019","10","20","21:00"
"-98.27","49.90","PORTAGE SOUTHPORT A","5012320","2019-10-20 22:00","2019","10","20","22:00"
"-98.27","49.90","PORTAGE SOUTHPORT A","5012320","2019-10-20 23:00","2019","10","20","23:00"
"-98.27","49.90","PORTAGE SOUTHPORT A","5012320","2019-10-21 00:00","2019","10","21","00:00"
"-98.27","49.90","PORTAGE SOUTHPORT A","5012320","2019-10-21 01:00","2019","10","21","01:00"
"-98.27","49.90","PORTAGE SOUTHPORT A","5012320","2019-10-21 02:00","2019","10","21","02:00"
"-98.27","49.90","PORTAGE SOUTHPORT A","5012320","2019-10-21 03:00","2019","10","21","03:00"
"-98.27","49.90","PORTAGE SOUTHPORT A","5012320","2019-10-21 04:00","2019","10","21","04:00"
"-98.27","49.90","PORTAGE SOUTHPORT A","5012320","2019-10-21 05:00","2019","10","21","05:00","4.8","","2.9","","87","","","","35","","9","","24.1","","98.06","","","","","","Mostly Cloudy"
"-98.27","49.90","PORTAGE SOUTHPORT A","5012320","2019-10-21 06:00","2019","10","21","06:00","4.6","","3.0","","89","","","","34","","8","","24.1","","98.09","","","","","","Mostly Cloudy"
"-98.27","49.90","PORTAGE SOUTHPORT A","5012320","2019-10-21 07:00","2019","10","21","07:00","4.3","","2.7","","89","","","","33","","22","","24.1","","98.11","","","","","","Cloudy"
"-98.27","49.90","PORTAGE SOUTHPORT A","5012320","2019-10-21 08:00","2019","10","21","08:00","4.7","","2.4","","85","","","","36","","22","","24.1","","98.12","","","","","","Cloudy"
"-98.27","49.90","PORTAGE SOUTHPORT A","5012320","2019-10-21 09:00","2019","10","21","09:00","4.7","","2.6","","86","","","","1","","21","","19.3","","98.16","","","","","","Mostly Cloudy"
"-98.27","49.90","PORTAGE SOUTHPORT A","5012320","2019-10-21 10:00","2019","10","21","10:00","4.9","","2.9","","87","","","","35","","21","","19.3","","98.15","","","","","","Cloudy"
"-98.27","49.90","PORTAGE SOUTHPORT A","5012320","2019-10-21 11:00","2019","10","21","11:00","5.4","","3.1","","85","","","","36","","26","","24.1","","98.14","","","","","","Mostly Cloudy"
"-98.27","49.90","PORTAGE SOUTHPORT A","5012320","2019-10-21 12:00","2019","10","21","12:00","5.6","","2.4","","80","","","","35","","26","","24.1","","98.10","","","","","","Mostly Cloudy"
"-98.27","49.90","PORTAGE SOUTHPORT A","5012320","2019-10-21 13:00","2019","10","21","13:00","5.5","","2.2","","79","","","","34","","26","","24.1","","98.07","","","","","","Mostly Cloudy"
"-98.27","49.90","PORTAGE SOUTHPORT A","5012320","2019-10-21 14:00","2019","10","21","14:00","6.0","","2.4","","78","","","","35","","35","","24.1","","98.02","","","","","","Mostly Cloudy"
"-98.27","49.90","PORTAGE SOUTHPORT A","5012320","2019-10-21 15:00","2019","10","21","15:00","6.1","","2.1","","75","","","","34","","31","","24.1","","98.00","","","","","","Mostly Cloudy"
"-98.27","49.90","PORTAGE SOUTHPORT A","5012320","2019-10-21 16:00","2019","10","21","16:00","5.7","","1.6","","75","","","","33","","31","","24.1","","98.03","","","","","","Mostly Cloudy"
"-98.27","49.90","PORTAGE SOUTHPORT A","5012320","2019-10-21 17:00","2019","10","21","17:00","5.3","","1.5","","76","","","","33","","35","","24.1","","98.03","","","","","","Mostly Cloudy"
"-98.27","49.90","PORTAGE SOUTHPORT A","5012320","2019-10-21 18:00","2019","10","21","18:00","4.7","","0.9","","76","","","","33","","37","","24.1","","98.04","","","","","","Mostly Cloudy"
"-98.27","49.90","PORTAGE SOUTHPORT A","5012320","2019-10-21 19:00","2019","10","21","19:00","4.7","","1.0","","77","","","","34","","35","","24.1","","98.03","","","","","","Mostly Cloudy"
"-98.27","49.90","PORTAGE SOUTHPORT A","5012320","2019-10-21 20:00","2019","10","21","20:00"
"-98.27","49.90","PORTAGE SOUTHPORT A","5012320","2019-10-21 21:00","2019","10","21","21:00"
"-98.27","49.90","PORTAGE SOUTHPORT A","5012320","2019-10-21 22:00","2019","10","21","22:00"
"-98.27","49.90","PORTAGE SOUTHPORT A","5012320","2019-10-21 23:00","2019","10","21","23:00"
"-98.27","49.90","PORTAGE SOUTHPORT A","5012320","2019-10-22 00:00","2019","10","22","00:00"
"-98.27","49.90","PORTAGE SOUTHPORT A","5012320","2019-10-22 01:00","2019","10","22","01:00"
"-98.27","49.90","PORTAGE SOUTHPORT A","5012320","2019-10-22 02:00","2019","10","22","02:00"
"-98.27","49.90","PORTAGE SOUTHPORT A","5012320","2019-10-22 03:00","2019","10","22","03:00"
"-98.27","49.90","PORTAGE SOUTHPORT A","5012320","2019-10-22 04:00","2019","10","22","04:00"
"-98.27","49.90","PORTAGE SOUTHPORT A","5012320","2019-10-22 05:00","2019","10","22","05:00","1.8","","0.9","","94","","","","33","","37","","24.1","","97.60","","","","","","Cloudy"
"-98.27","49.90","PORTAGE SOUTHPORT A","5012320","2019-10-22 06:00","2019","10","22","06:00","1.7","","-1.2","","81","","","","32","","39","","24.1","","97.58","","","","","","Mostly Cloudy"
"-98.27","49.90","PORTAGE SOUTHPORT A","5012320","2019-10-22 07:00","2019","10","22","07:00","1.5","","-1.3","","82","","","","32","","34","","24.1","","97.55","","","","","","Mostly Cloudy"
"-98.27","49.90","PORTAGE SOUTHPORT A","5012320","2019-10-22 08:00","2019","10","22","08:00","1.1","","-1.6","","82","","","","31","","37","","24.1","","97.54","","","","","","Mostly Cloudy"
"-98.27","49.90","PORTAGE SOUTHPORT A","5012320","2019-10-22 09:00","2019","10","22","09:00","1.4","","-1.6","","80","","","","31","","35","","12.9","","97.53","","","","","","Snow"
"-98.27","49.90","PORTAGE SOUTHPORT A","5012320","2019-10-22 10:00","2019","10","22","10:00","1.7","","-1.4","","80","","","","32","","37","","12.9","","97.50","","","","","","Snow"
"-98.27","49.90","PORTAGE SOUTHPORT A","5012320","2019-10-22 11:00","2019","10","22","11:00","2.6","","-1.2","","76","","","","32","","39","","24.1","","97.48","","","","","","Snow"
"-98.27","49.90","PORTAGE SOUTHPORT A","5012320","2019-10-22 12:00","2019","10","22","12:00","3.5","","-1.2","","71","","","","33","","48","","24.1","","97.46","","","","","","Mostly Cloudy"
"-98.27","49.90","PORTAGE SOUTHPORT A","5012320","2019-10-22 13:00","2019","10","22","13:00","3.6","","-1.5","","69","","","","33","","46","","24.1","","97.43","","","","","","Mostly Cloudy"
"-98.27","49.90","PORTAGE SOUTHPORT A","5012320","2019-10-22 14:00","2019","10","22","14:00","4.2","","-1.5","","66","","","","32","","41","","24.1","","97.43","","","","","","Mostly Cloudy"
"-98.27","49.90","PORTAGE SOUTHPORT A","5012320","2019-10-22 15:00","2019","10","22","15:00","4.2","","-1.9","","64","","","","32","","44","","24.1","","97.46","","","","","","Mostly Cloudy"
"-98.27","49.90","PORTAGE SOUTHPORT A","5012320","2019-10-22 16:00","2019","10","22","16:00","4.3","","-2.1","","63","","","","32","","39","","24.1","","97.49","","","","","","Mostly Cloudy"
"-98.27","49.90","PORTAGE SOUTHPORT A","5012320","2019-10-22 17:00","2019","10","22","17:00","3.9","","-3.0","","61","","","","32","","39","","24.1","","97.51","","","","","","Mostly Cloudy"
"-98.27","49.90","PORTAGE SOUTHPORT A","5012320","2019-10-22 18:00","2019","10","22","18:00","3.9","","-3.1","","60","","","","32","","37","","24.1","","97.53","","","","","","Mostly Cloudy"
"-98.27","49.90","PORTAGE SOUTHPORT A","5012320","2019-10-22 19:00","2019","10","22","19:00","3.3","","-3.4","","61","","","","32","","30","","24.1","","97.53","","","","","","Mostly Cloudy"
"-98.27","49.90","PORTAGE SOUTHPORT A","5012320","2019-10-22 20:00","2019","10","22","20:00"
"-98.27","49.90","PORTAGE SOUTHPORT A","5012320","2019-10-22 21:00","2019","10","22","21:00"
"-98.27","49.90","PORTAGE SOUTHPORT A","5012320","2019-10-22 22:00","2019","10","22","22:00"
"-98.27","49.90","PORTAGE SOUTHPORT A","5012320","2019-10-22 23:00","2019","10","22","23:00"
"-98.27","49.90","PORTAGE SOUTHPORT A","5012320","2019-10-23 00:00","2019","10","23","00:00"
"-98.27","49.90","PORTAGE SOUTHPORT A","5012320","2019-10-23 01:00","2019","10","23","01:00"
"-98.27","49.90","PORTAGE SOUTHPORT A","5012320","2019-10-23 02:00","2019","10","23","02:00"
"-98.27","49.90","PORTAGE SOUTHPORT A","5012320","2019-10-23 03:00","2019","10","23","03:00"
"-98.27","49.90","PORTAGE SOUTHPORT A","5012320","2019-10-23 04:00","2019","10","23","04:00"
"-98.27","49.90","PORTAGE SOUTHPORT A","5012320","2019-10-23 05:00","2019","10","23","05:00","0.7","","-3.6","","73","","","","31","","18","","24.1","","97.93","","","","","","Mostly Cloudy"
"-98.27","49.90","PORTAGE SOUTHPORT A","5012320","2019-10-23 06:00","2019","10","23","06:00","0.6","","-3.8","","72","","","","31","","21","","24.1","","98.01","","","","","","Mostly Cloudy"
"-98.27","49.90","PORTAGE SOUTHPORT A","5012320","2019-10-23 07:00","2019","10","23","07:00","-0.6","","-4.0","","78","","","","30","","21","","24.1","","98.07","","","","-6","","Mainly Clear"
"-98.27","49.90","PORTAGE SOUTHPORT A","5012320","2019-10-23 08:00","2019","10","23","08:00","-0.1","","-4.2","","74","","","","31","","31","","24.1","","98.14","","","","-7","","Mostly Cloudy"
"-98.27","49.90","PORTAGE SOUTHPORT A","5012320","2019-10-23 09:00","2019","10","23","09:00","0.2","","-3.9","","74","","","","31","","22","","24.1","","98.24","","","","","","Mostly Cloudy"
"-98.27","49.90","PORTAGE SOUTHPORT A","5012320","2019-10-23 10:00","2019","10","23","10:00","1.6","","-3.2","","70","","","","33","","37","","24.1","","98.32","","","","","","Mostly Cloudy"
"-98.27","49.90","PORTAGE SOUTHPORT A","5012320","2019-10-23 11:00","2019","10","23","11:00","2.1","","-3.6","","66","","","","34","","34","","24.1","","98.40","","","","","","Mainly Clear"
"-98.27","49.90","PORTAGE SOUTHPORT A","5012320","2019-10-23 12:00","2019","10","23","12:00"
"-98.27","49.90","PORTAGE SOUTHPORT A","5012320","2019-10-23 13:00","2019","10","23","13:00"
"-98.27","49.90","PORTAGE SOUTHPORT A","5012320","2019-10-23 14:00","2019","10","23","14:00"
"-98.27","49.90","PORTAGE SOUTHPORT A","5012320","2019-10-23 15:00","2019","10","23","15:00"
"-98.27","49.90","PORTAGE SOUTHPORT A","5012320","2019-10-23 16:00","2019","10","23","16:00"
"-98.27","49.90","PORTAGE SOUTHPORT A","5012320","2019-10-23 17:00","2019","10","23","17:00","2.1","","-3.4","","67","","","","34","","22","","24.1","","98.74","","","","","","Mostly Cloudy"
"-98.27","49.90","PORTAGE SOUTHPORT A","5012320","2019-10-23 18:00","2019","10","23","18:00","2.0","","-3.0","","69","","","","33","","15","","24.1","","98.82","","","","","","Mostly Cloudy"
"-98.27","49.90","PORTAGE SOUTHPORT A","5012320","2019-10-23 19:00","2019","10","23","19:00","0.9","","-3.5","","72","","","","32","","13","","24.1","","98.90","","","","","","Mainly Clear"
"-98.27","49.90","PORTAGE SOUTHPORT A","5012320","2019-10-23 20:00","2019","10","23","20:00","0.0","","-3.5","","77","","","","28","","15","","24.1","","98.96","","","","-4","","Mainly Clear"
"-98.27","49.90","PORTAGE SOUTHPORT A","5012320","2019-10-23 21:00","2019","10","23","21:00","-0.7","","-4.0","","78","","","","29","","13","","24.1","","98.98","","","","-5","","Mainly Clear"
"-98.27","49.90","PORTAGE SOUTHPORT A","5012320","2019-10-23 22:00","2019","10","23","22:00"
"-98.27","49.90","PORTAGE SOUTHPORT A","5012320","2019-10-23 23:00","2019","10","23","23:00"
"-98.27","49.90","PORTAGE SOUTHPORT A","5012320","2019-10-24 00:00","2019","10","24","00:00"
"-98.27","49.90","PORTAGE SOUTHPORT A","5012320","2019-10-24 01:00","2019","10","24","01:00"
"-98.27","49.90","PORTAGE SOUTHPORT A","5012320","2019-10-24 02:00","2019","10","24","02:00"
"-98.27","49.90","PORTAGE SOUTHPORT A","5012320","2019-10-24 03:00","2019","10","24","03:00"
"-98.27","49.90","PORTAGE SOUTHPORT A","5012320","2019-10-24 04:00","2019","10","24","04:00"
"-98.27","49.90","PORTAGE SOUTHPORT A","5012320","2019-10-24 05:00","2019","10","24","05:00","-3.2","","-6.5","","78","","","","25","","13","","24.1","","99.23","","","","-8","","Mainly Clear"
"-98.27","49.90","PORTAGE SOUTHPORT A","5012320","2019-10-24 06:00","2019","10","24","06:00","-3.3","","-6.6","","78","","","","25","","18","","24.1","","99.26","","","","-9","","Clear"
"-98.27","49.90","PORTAGE SOUTHPORT A","5012320","2019-10-24 07:00","2019","10","24","07:00","-3.2","","-6.8","","76","","","","25","","15","","24.1","","99.27","","","","-8","","Clear"
"-98.27","49.90","PORTAGE SOUTHPORT A","5012320","2019-10-24 08:00","2019","10","24","08:00","-2.5","","-6.2","","76","","","","26","","11","","24.1","","99.28","","","","-7","","Clear"
"-98.27","49.90","PORTAGE SOUTHPORT A","5012320","2019-10-24 09:00","2019","10","24","09:00","-0.7","","-5.1","","72","","","","26","","15","","24.1","","99.32","","","","-5","","Clear"
"-98.27","49.90","PORTAGE SOUTHPORT A","5012320","2019-10-24 10:00","2019","10","24","10:00","1.4","","-4.6","","64","","","","28","","13","","24.1","","99.31","","","","","","Clear"
"-98.27","49.90","PORTAGE SOUTHPORT A","5012320","2019-10-24 11:00","2019","10","24","11:00","3.1","","-5.2","","54","","","","26","","8","","24.1","","99.29","","","","","","Clear"
"-98.27","49.90","PORTAGE SOUTHPORT A","5012320","2019-10-24 12:00","2019","10","24","12:00","3.9","","-5.2","","51","","","","21","","8","","24.1","","99.22","","","","","","Clear"
"-98.27","49.90","PORTAGE SOUTHPORT A","5012320","2019-10-24 13:00","2019","10","24","13:00","4.5","","-5.7","","47","","","","23","","13","","24.1","","99.18","","","","","","Clear"
"-98.27","49.90","PORTAGE SOUTHPORT A","5012320","2019-10-24 14:00","2019","10","24","14:00","5.3","","-5.3","","46","","","","23","","9","","24.1","","99.11","","","","","","Mainly Clear"
"-98.27","49.90","PORTAGE SOUTHPORT A","5012320","2019-10-24 15:00","2019","10","24","15:00","5.4","","-5.3","","46","","","","19","","11","","24.1","","99.03","","","","","","Mainly Clear"
"-98.27","49.90","PORTAGE SOUTHPORT A","5012320","2019-10-24 16:00","2019","10","24","16:00","4.8","","-5.0","","49","","","","19","","11","","24.1","","98.98","","","","","","Mostly Cloudy"
"-98.27","49.90","PORTAGE SOUTHPORT A","5012320","2019-10-24 17:00","2019","10","24","17:00"
"-98.27","49.90","PORTAGE SOUTHPORT A","5012320","2019-10-24 18:00","2019","10","24","18:00"
"-98.27","49.90","PORTAGE SOUTHPORT A","5012320","2019-10-24 19:00","2019","10","24","19:00"
"-98.27","49.90","PORTAGE SOUTHPORT A","5012320","2019-10-24 20:00","2019","10","24","20:00"
"-98.27","49.90","PORTAGE SOUTHPORT A","5012320","2019-10-24 21:00","2019","10","24","21:00"
"-98.27","49.90","PORTAGE SOUTHPORT A","5012320","2019-10-24 22:00","2019","10","24","22:00"
"-98.27","49.90","PORTAGE SOUTHPORT A","5012320","2019-10-24 23:00","2019","10","24","23:00"
"-98.27","49.90","PORTAGE SOUTHPORT A","5012320","2019-10-25 00:00","2019","10","25","00:00"
"-98.27","49.90","PORTAGE SOUTHPORT A","5012320","2019-10-25 01:00","2019","10","25","01:00"
"-98.27","49.90","PORTAGE SOUTHPORT A","5012320","2019-10-25 02:00","2019","10","25","02:00"
"-98.27","49.90","PORTAGE SOUTHPORT A","5012320","2019-10-25 03:00","2019","10","25","03:00"
"-98.27","49.90","PORTAGE SOUTHPORT A","5012320","2019-10-25 04:00","2019","10","25","04:00"
"-98.27","49.90","PORTAGE SOUTHPORT A","5012320","2019-10-25 05:00","2019","10","25","05:00","2.9","","-2.0","","70","","","","19","","18","","24.1","","98.02","","","","","","Cloudy"
"-98.27","49.90","PORTAGE SOUTHPORT A","5012320","2019-10-25 06:00","2019","10","25","06:00","2.6","","-2.1","","71","","","","19","","22","","24.1","","97.92","","","","","","Mostly Cloudy"
"-98.27","49.90","PORTAGE SOUTHPORT A","5012320","2019-10-25 07:00","2019","10","25","07:00","2.7","","-2.3","","70","","","","4","","4","","24.1","","97.93","","","","","","Mostly Cloudy"
"-98.27","49.90","PORTAGE SOUTHPORT A","5012320","2019-10-25 08:00","2019","10","25","08:00","3.1","","-2.2","","68","","","","22","","18","","24.1","","97.86","","","","","","Mainly Clear"
"-98.27","49.90","PORTAGE SOUTHPORT A","5012320","2019-10-25 09:00","2019","10","25","09:00","4.4","","-1.5","","65","","","","23","","21","","24.1","","97.83","","","","","","Mostly Cloudy"
"-98.27","49.90","PORTAGE SOUTHPORT A","5012320","2019-10-25 10:00","2019","10","25","10:00","6.7","","0.0","","62","","","","25","","13","","24.1","","97.78","","","","","","Mostly Cloudy"
"-98.27","49.90","PORTAGE SOUTHPORT A","5012320","2019-10-25 11:00","2019","10","25","11:00","8.5","","0.4","","57","","","","26","","24","","24.1","","97.74","","","","","","Mostly Cloudy"
"-98.27","49.90","PORTAGE SOUTHPORT A","5012320","2019-10-25 12:00","2019","10","25","12:00","10.9","","1.4","","52","","","","25","","24","","24.1","","97.70","","","","","","Mostly Cloudy"
"-98.27","49.90","PORTAGE SOUTHPORT A","5012320","2019-10-25 13:00","2019","10","25","13:00","10.3","","1.1","","53","","","","19","","9","","24.1","","97.64","","","","","","Mostly Cloudy"
"-98.27","49.90","PORTAGE SOUTHPORT A","5012320","2019-10-25 14:00","2019","10","25","14:00","11.4","","2.1","","53","","","","21","","22","","24.1","","97.50","","","","","","Mostly Cloudy"
"-98.27","49.90","PORTAGE SOUTHPORT A","5012320","2019-10-25 15:00","2019","10","25","15:00","12.7","","2.8","","51","","","","19","","18","","24.1","","97.41","","","","","","Mostly Cloudy"
"-98.27","49.90","PORTAGE SOUTHPORT A","5012320","2019-10-25 16:00","2019","10","25","16:00","12.3","","3.7","","56","","","","17","","17","","24.1","","97.33","","","","","","Mostly Cloudy"
"-98.27","49.90","PORTAGE SOUTHPORT A","5012320","2019-10-25 17:00","2019","10","25","17:00"
"-98.27","49.90","PORTAGE SOUTHPORT A","5012320","2019-10-25 18:00","2019","10","25","18:00"
"-98.27","49.90","PORTAGE SOUTHPORT A","5012320","2019-10-25 19:00","2019","10","25","19:00"
"-98.27","49.90","PORTAGE SOUTHPORT A","5012320","2019-10-25 20:00","2019","10","25","20:00"
"-98.27","49.90","PORTAGE SOUTHPORT A","5012320","2019-10-25 21:00","2019","10","25","21:00"
"-98.27","49.90","PORTAGE SOUTHPORT A","5012320","2019-10-25 22:00","2019","10","25","22:00"
"-98.27","49.90","PORTAGE SOUTHPORT A","5012320","2019-10-25 23:00","2019","10","25","23:00"
"-98.27","49.90","PORTAGE SOUTHPORT A","5012320","2019-10-26 00:00","2019","10","26","00:00"
"-98.27","49.90","PORTAGE SOUTHPORT A","5012320","2019-10-26 01:00","2019","10","26","01:00"
"-98.27","49.90","PORTAGE SOUTHPORT A","5012320","2019-10-26 02:00","2019","10","26","02:00"
"-98.27","49.90","PORTAGE SOUTHPORT A","5012320","2019-10-26 03:00","2019","10","26","03:00"
"-98.27","49.90","PORTAGE SOUTHPORT A","5012320","2019-10-26 04:00","2019","10","26","04:00"
"-98.27","49.90","PORTAGE SOUTHPORT A","5012320","2019-10-26 05:00","2019","10","26","05:00"
"-98.27","49.90","PORTAGE SOUTHPORT A","5012320","2019-10-26 06:00","2019","10","26","06:00"
"-98.27","49.90","PORTAGE SOUTHPORT A","5012320","2019-10-26 07:00","2019","10","26","07:00"
"-98.27","49.90","PORTAGE SOUTHPORT A","5012320","2019-10-26 08:00","2019","10","26","08:00"
"-98.27","49.90","PORTAGE SOUTHPORT A","5012320","2019-10-26 09:00","2019","10","26","09:00"
"-98.27","49.90","PORTAGE SOUTHPORT A","5012320","2019-10-26 10:00","2019","10","26","10:00"
"-98.27","49.90","PORTAGE SOUTHPORT A","5012320","2019-10-26 11:00","2019","10","26","11:00"
"-98.27","49.90","PORTAGE SOUTHPORT A","5012320","2019-10-26 12:00","2019","10","26","12:00"
"-98.27","49.90","PORTAGE SOUTHPORT A","5012320","2019-10-26 13:00","2019","10","26","13:00"
"-98.27","49.90","PORTAGE SOUTHPORT A","5012320","2019-10-26 14:00","2019","10","26","14:00"
"-98.27","49.90","PORTAGE SOUTHPORT A","5012320","2019-10-26 15:00","2019","10","26","15:00"
"-98.27","49.90","PORTAGE SOUTHPORT A","5012320","2019-10-26 16:00","2019","10","26","16:00"
"-98.27","49.90","PORTAGE SOUTHPORT A","5012320","2019-10-26 17:00","2019","10","26","17:00"
"-98.27","49.90","PORTAGE SOUTHPORT A","5012320","2019-10-26 18:00","2019","10","26","18:00"
"-98.27","49.90","PORTAGE SOUTHPORT A","5012320","2019-10-26 19:00","2019","10","26","19:00"
"-98.27","49.90","PORTAGE SOUTHPORT A","5012320","2019-10-26 20:00","2019","10","26","20:00"
"-98.27","49.90","PORTAGE SOUTHPORT A","5012320","2019-10-26 21:00","2019","10","26","21:00"
"-98.27","49.90","PORTAGE SOUTHPORT A","5012320","2019-10-26 22:00","2019","10","26","22:00"
"-98.27","49.90","PORTAGE SOUTHPORT A","5012320","2019-10-26 23:00","2019","10","26","23:00"
"-98.27","49.90","PORTAGE SOUTHPORT A","5012320","2019-10-27 00:00","2019","10","27","00:00"
"-98.27","49.90","PORTAGE SOUTHPORT A","5012320","2019-10-27 01:00","2019","10","27","01:00"
"-98.27","49.90","PORTAGE SOUTHPORT A","5012320","2019-10-27 02:00","2019","10","27","02:00"
"-98.27","49.90","PORTAGE SOUTHPORT A","5012320","2019-10-27 03:00","2019","10","27","03:00"
"-98.27","49.90","PORTAGE SOUTHPORT A","5012320","2019-10-27 04:00","2019","10","27","04:00"
"-98.27","49.90","PORTAGE SOUTHPORT A","5012320","2019-10-27 05:00","2019","10","27","05:00"
"-98.27","49.90","PORTAGE SOUTHPORT A","5012320","2019-10-27 06:00","2019","10","27","06:00"
"-98.27","49.90","PORTAGE SOUTHPORT A","5012320","2019-10-27 07:00","2019","10","27","07:00"
"-98.27","49.90","PORTAGE SOUTHPORT A","5012320","2019-10-27 08:00","2019","10","27","08:00"
"-98.27","49.90","PORTAGE SOUTHPORT A","5012320","2019-10-27 09:00","2019","10","27","09:00"
"-98.27","49.90","PORTAGE SOUTHPORT A","5012320","2019-10-27 10:00","2019","10","27","10:00"
"-98.27","49.90","PORTAGE SOUTHPORT A","5012320","2019-10-27 11:00","2019","10","27","11:00"
"-98.27","49.90","PORTAGE SOUTHPORT A","5012320","2019-10-27 12:00","2019","10","27","12:00"
"-98.27","49.90","PORTAGE SOUTHPORT A","5012320","2019-10-27 13:00","2019","10","27","13:00"
"-98.27","49.90","PORTAGE SOUTHPORT A","5012320","2019-10-27 14:00","2019","10","27","14:00"
"-98.27","49.90","PORTAGE SOUTHPORT A","5012320","2019-10-27 15:00","2019","10","27","15:00"
"-98.27","49.90","PORTAGE SOUTHPORT A","5012320","2019-10-27 16:00","2019","10","27","16:00"
"-98.27","49.90","PORTAGE SOUTHPORT A","5012320","2019-10-27 17:00","2019","10","27","17:00"
"-98.27","49.90","PORTAGE SOUTHPORT A","5012320","2019-10-27 18:00","2019","10","27","18:00"
"-98.27","49.90","PORTAGE SOUTHPORT A","5012320","2019-10-27 19:00","2019","10","27","19:00"
"-98.27","49.90","PORTAGE SOUTHPORT A","5012320","2019-10-27 20:00","2019","10","27","20:00"
"-98.27","49.90","PORTAGE SOUTHPORT A","5012320","2019-10-27 21:00","2019","10","27","21:00"
"-98.27","49.90","PORTAGE SOUTHPORT A","5012320","2019-10-27 22:00","2019","10","27","22:00"
"-98.27","49.90","PORTAGE SOUTHPORT A","5012320","2019-10-27 23:00","2019","10","27","23:00"
"-98.27","49.90","PORTAGE SOUTHPORT A","5012320","2019-10-28 00:00","2019","10","28","00:00"
"-98.27","49.90","PORTAGE SOUTHPORT A","5012320","2019-10-28 01:00","2019","10","28","01:00"
"-98.27","49.90","PORTAGE SOUTHPORT A","5012320","2019-10-28 02:00","2019","10","28","02:00"
"-98.27","49.90","PORTAGE SOUTHPORT A","5012320","2019-10-28 03:00","2019","10","28","03:00"
"-98.27","49.90","PORTAGE SOUTHPORT A","5012320","2019-10-28 04:00","2019","10","28","04:00"
"-98.27","49.90","PORTAGE SOUTHPORT A","5012320","2019-10-28 05:00","2019","10","28","05:00","-4.7","","-8.0","","78","","","","23","","11","","16.1","","98.11","","","","-9","","Snow"
"-98.27","49.90","PORTAGE SOUTHPORT A","5012320","2019-10-28 06:00","2019","10","28","06:00","-4.5","","-10.9","","61","","","","24","","28","","19.3","","98.09","","","","-12","","Snow"
"-98.27","49.90","PORTAGE SOUTHPORT A","5012320","2019-10-28 07:00","2019","10","28","07:00","-4.5","","-10.9","","61","","","","23","","9","","19.3","","98.09","","","","-8","","Snow"
"-98.27","49.90","PORTAGE SOUTHPORT A","5012320","2019-10-28 08:00","2019","10","28","08:00","-4.4","","-10.6","","62","","","","19","","11","","19.3","","98.09","","","","-9","","Snow"
"-98.27","49.90","PORTAGE SOUTHPORT A","5012320","2019-10-28 09:00","2019","10","28","09:00","-3.5","","-10.9","","56","","","","17","","13","","19.3","","98.08","","","","-8","","Mainly Clear"
"-98.27","49.90","PORTAGE SOUTHPORT A","5012320","2019-10-28 10:00","2019","10","28","10:00","-2.4","","-9.7","","57","","","","20","","22","","24.1","","98.05","","","","-9","","Mainly Clear"
"-98.27","49.90","PORTAGE SOUTHPORT A","5012320","2019-10-28 11:00","2019","10","28","11:00","-1.3","","-9.5","","54","","","","20","","18","","24.1","","98.04","","","","-7","","Mainly Clear"
"-98.27","49.90","PORTAGE SOUTHPORT A","5012320","2019-10-28 12:00","2019","10","28","12:00","-0.4","","-9.7","","49","","","","20","","24","","24.1","","98.02","","","","-6","","Mainly Clear"
"-98.27","49.90","PORTAGE SOUTHPORT A","5012320","2019-10-28 13:00","2019","10","28","13:00","-0.1","","-9.3","","50","","","","20","","17","","24.1","","97.98","","","","-5","","Mainly Clear"
"-98.27","49.90","PORTAGE SOUTHPORT A","5012320","2019-10-28 14:00","2019","10","28","14:00","0.1","","-8.8","","51","","","","18","","18","","24.1","","97.98","","","","","","Mostly Cloudy"
"-98.27","49.90","PORTAGE SOUTHPORT A","5012320","2019-10-28 15:00","2019","10","28","15:00","0.0","","-7.2","","58","","","","21","","15","","19.3","","97.99","","","","-4","","Snow"
"-98.27","49.90","PORTAGE SOUTHPORT A","5012320","2019-10-28 16:00","2019","10","28","16:00","-0.8","","-6.0","","68","","","","21","","9","","19.3","","98.04","","","","-4","","Snow"
"-98.27","49.90","PORTAGE SOUTHPORT A","5012320","2019-10-28 17:00","2019","10","28","17:00"
"-98.27","49.90","PORTAGE SOUTHPORT A","5012320","2019-10-28 18:00","2019","10","28","18:00"
"-98.27","49.90","PORTAGE SOUTHPORT A","5012320","2019-10-28 19:00","2019","10","28","19:00"
"-98.27","49.90","PORTAGE SOUTHPORT A","5012320","2019-10-28 20:00","2019","10","28","20:00"
"-98.27","49.90","PORTAGE SOUTHPORT A","5012320","2019-10-28 21:00","2019","10","28","21:00"
"-98.27","49.90","PORTAGE SOUTHPORT A","5012320","2019-10-28 22:00","2019","10","28","22:00"
"-98.27","49.90","PORTAGE SOUTHPORT A","5012320","2019-10-28 23:00","2019","10","28","23:00"
"-98.27","49.90","PORTAGE SOUTHPORT A","5012320","2019-10-29 00:00","2019","10","29","00:00"
"-98.27","49.90","PORTAGE SOUTHPORT A","5012320","2019-10-29 01:00","2019","10","29","01:00"
"-98.27","49.90","PORTAGE SOUTHPORT A","5012320","2019-10-29 02:00","2019","10","29","02:00"
"-98.27","49.90","PORTAGE SOUTHPORT A","5012320","2019-10-29 03:00","2019","10","29","03:00"
"-98.27","49.90","PORTAGE SOUTHPORT A","5012320","2019-10-29 04:00","2019","10","29","04:00"
"-98.27","49.90","PORTAGE SOUTHPORT A","5012320","2019-10-29 05:00","2019","10","29","05:00","-4.8","","-7.1","","84","","","","26","","21","","19.3","","98.44","","","","-11","","Snow"
"-98.27","49.90","PORTAGE SOUTHPORT A","5012320","2019-10-29 06:00","2019","10","29","06:00","-5.7","","-8.7","","79","","","","25","","22","","19.3","","98.46","","","","-13","","Mostly Cloudy"
"-98.27","49.90","PORTAGE SOUTHPORT A","5012320","2019-10-29 07:00","2019","10","29","07:00","-6.3","","-10.7","","71","","","","26","","24","","24.1","","98.51","","","","-14","","Mainly Clear"
"-98.27","49.90","PORTAGE SOUTHPORT A","5012320","2019-10-29 08:00","2019","10","29","08:00","-7.4","","-11.0","","75","","","","26","","26","","24.1","","98.55","","","","-16","","Mainly Clear"
"-98.27","49.90","PORTAGE SOUTHPORT A","5012320","2019-10-29 09:00","2019","10","29","09:00","-6.8","","-11.0","","72","","","","26","","26","","24.1","","98.55","","","","-15","","Mostly Cloudy"
"-98.27","49.90","PORTAGE SOUTHPORT A","5012320","2019-10-29 10:00","2019","10","29","10:00","-5.6","","-10.6","","68","","","","27","","28","","24.1","","98.56","","","","-14","","Mostly Cloudy"
"-98.27","49.90","PORTAGE SOUTHPORT A","5012320","2019-10-29 11:00","2019","10","29","11:00","-5.2","","-10.4","","67","","","","27","","31","","24.1","","98.58","","","","-13","","Mostly Cloudy"
"-98.27","49.90","PORTAGE SOUTHPORT A","5012320","2019-10-29 12:00","2019","10","29","12:00","-4.5","","-10.2","","64","","","","26","","31","","24.1","","98.59","","","","-12","","Mostly Cloudy"
"-98.27","49.90","PORTAGE SOUTHPORT A","5012320","2019-10-29 13:00","2019","10","29","13:00","-4.3","","-9.7","","66","","","","27","","31","","24.1","","98.56","","","","-12","","Mostly Cloudy"
"-98.27","49.90","PORTAGE SOUTHPORT A","5012320","2019-10-29 14:00","2019","10","29","14:00","-4.4","","-7.4","","80","","","","26","","24","","16.1","","98.53","","","","-11","","Snow"
"-98.27","49.90","PORTAGE SOUTHPORT A","5012320","2019-10-29 15:00","2019","10","29","15:00","-4.7","","-9.0","","72","","","","26","","21","","12.9","","98.56","","","","-11","","Snow"
"-98.27","49.90","PORTAGE SOUTHPORT A","5012320","2019-10-29 16:00","2019","10","29","16:00","-4.5","","-8.8","","72","","","","25","","22","","24.1","","98.57","","","","-11","","Mostly Cloudy"
"-98.27","49.90","PORTAGE SOUTHPORT A","5012320","2019-10-29 17:00","2019","10","29","17:00"
"-98.27","49.90","PORTAGE SOUTHPORT A","5012320","2019-10-29 18:00","2019","10","29","18:00"
"-98.27","49.90","PORTAGE SOUTHPORT A","5012320","2019-10-29 19:00","2019","10","29","19:00"
"-98.27","49.90","PORTAGE SOUTHPORT A","5012320","2019-10-29 20:00","2019","10","29","20:00"
"-98.27","49.90","PORTAGE SOUTHPORT A","5012320","2019-10-29 21:00","2019","10","29","21:00"
"-98.27","49.90","PORTAGE SOUTHPORT A","5012320","2019-10-29 22:00","2019","10","29","22:00"
"-98.27","49.90","PORTAGE SOUTHPORT A","5012320","2019-10-29 23:00","2019","10","29","23:00"
"-98.27","49.90","PORTAGE SOUTHPORT A","5012320","2019-10-30 00:00","2019","10","30","00:00"
"-98.27","49.90","PORTAGE SOUTHPORT A","5012320","2019-10-30 01:00","2019","10","30","01:00"
"-98.27","49.90","PORTAGE SOUTHPORT A","5012320","2019-10-30 02:00","2019","10","30","02:00"
"-98.27","49.90","PORTAGE SOUTHPORT A","5012320","2019-10-30 03:00","2019","10","30","03:00"
"-98.27","49.90","PORTAGE SOUTHPORT A","5012320","2019-10-30 04:00","2019","10","30","04:00"
"-98.27","49.90","PORTAGE SOUTHPORT A","5012320","2019-10-30 05:00","2019","10","30","05:00","-7.3","","-10.2","","80","","","","26","","15","","24.1","","98.95","","","","-13","","Snow"
"-98.27","49.90","PORTAGE SOUTHPORT A","5012320","2019-10-30 06:00","2019","10","30","06:00","-7.9","","-10.6","","81","","","","26","","17","","24.1","","98.97","","","","-15","","Mainly Clear"
"-98.27","49.90","PORTAGE SOUTHPORT A","5012320","2019-10-30 07:00","2019","10","30","07:00","-8.7","","-11.1","","83","","","","24","","9","","24.1","","98.96","","","","-13","","Mainly Clear"
"-98.27","49.90","PORTAGE SOUTHPORT A","5012320","2019-10-30 08:00","2019","10","30","08:00","-8.2","","-10.6","","83","","","","26","","9","","24.1","","99.01","","","","-13","","Mostly Cloudy"
"-98.27","49.90","PORTAGE SOUTHPORT A","5012320","2019-10-30 09:00","2019","10","30","09:00","-6.4","","-9.6","","78","","","","26","","13","","24.1","","99.05","","","","-12","","Mostly Cloudy"
"-98.27","49.90","PORTAGE SOUTHPORT A","5012320","2019-10-30 10:00","2019","10","30","10:00","-5.2","","-8.9","","75","","","","26","","15","","24.1","","99.06","","","","-11","","Mostly Cloudy"
"-98.27","49.90","PORTAGE SOUTHPORT A","5012320","2019-10-30 11:00","2019","10","30","11:00","-4.6","","-9.2","","70","","","","25","","9","","24.1","","99.06","","","","-8","","Mainly Clear"
"-98.27","49.90","PORTAGE SOUTHPORT A","5012320","2019-10-30 12:00","2019","10","30","12:00","-3.4","","-8.7","","67","","","","26","","13","","24.1","","99.06","","","","-8","","Mainly Clear"
"-98.27","49.90","PORTAGE SOUTHPORT A","5012320","2019-10-30 13:00","2019","10","30","13:00","-2.3","","-8.0","","65","","","","24","","15","","24.1","","99.00","","","","-7","","Mostly Cloudy"
"-98.27","49.90","PORTAGE SOUTHPORT A","5012320","2019-10-30 14:00","2019","10","30","14:00","-2.4","","-8.6","","62","","","","26","","11","","24.1","","98.96","","","","-6","","Mostly Cloudy"
"-98.27","49.90","PORTAGE SOUTHPORT A","5012320","2019-10-30 15:00","2019","10","30","15:00","-2.4","","-8.3","","64","","","","26","","18","","24.1","","98.95","","","","-8","","Mostly Cloudy"
"-98.27","49.90","PORTAGE SOUTHPORT A","5012320","2019-10-30 16:00","2019","10","30","16:00","-2.6","","-7.8","","67","","","","26","","13","","24.1","","98.93","","","","-7","","Mostly Cloudy"
"-98.27","49.90","PORTAGE SOUTHPORT A","5012320","2019-10-30 17:00","2019","10","30","17:00"
"-98.27","49.90","PORTAGE SOUTHPORT A","5012320","2019-10-30 18:00","2019","10","30","18:00"
"-98.27","49.90","PORTAGE SOUTHPORT A","5012320","2019-10-30 19:00","2019","10","30","19:00"
"-98.27","49.90","PORTAGE SOUTHPORT A","5012320","2019-10-30 20:00","2019","10","30","20:00"
"-98.27","49.90","PORTAGE SOUTHPORT A","5012320","2019-10-30 21:00","2019","10","30","21:00"
"-98.27","49.90","PORTAGE SOUTHPORT A","5012320","2019-10-30 22:00","2019","10","30","22:00"
"-98.27","49.90","PORTAGE SOUTHPORT A","5012320","2019-10-30 23:00","2019","10","30","23:00"
"-98.27","49.90","PORTAGE SOUTHPORT A","5012320","2019-10-31 00:00","2019","10","31","00:00"
"-98.27","49.90","PORTAGE SOUTHPORT A","5012320","2019-10-31 01:00","2019","10","31","01:00"
"-98.27","49.90","PORTAGE SOUTHPORT A","5012320","2019-10-31 02:00","2019","10","31","02:00"
"-98.27","49.90","PORTAGE SOUTHPORT A","5012320","2019-10-31 03:00","2019","10","31","03:00"
"-98.27","49.90","PORTAGE SOUTHPORT A","5012320","2019-10-31 04:00","2019","10","31","04:00"
"-98.27","49.90","PORTAGE SOUTHPORT A","5012320","2019-10-31 05:00","2019","10","31","05:00","-8.1","","-10.4","","83","","","","12","","8","","24.1","","98.23","","","","-12","","Mostly Cloudy"
"-98.27","49.90","PORTAGE SOUTHPORT A","5012320","2019-10-31 06:00","2019","10","31","06:00","-7.4","","-10.3","","80","","","","16","","5","","24.1","","98.12","","","","-10","","Mostly Cloudy"
"-98.27","49.90","PORTAGE SOUTHPORT A","5012320","2019-10-31 07:00","2019","10","31","07:00","-7.8","","-10.8","","79","","","","17","","5","","24.1","","98.07","","","","-10","","Mostly Cloudy"
"-98.27","49.90","PORTAGE SOUTHPORT A","5012320","2019-10-31 08:00","2019","10","31","08:00","-4.5","","-8.3","","75","","","","19","","15","","24.1","","97.99","","","","-10","","Mostly Cloudy"
"-98.27","49.90","PORTAGE SOUTHPORT A","5012320","2019-10-31 09:00","2019","10","31","09:00","-2.7","","-8.5","","64","","","","21","","15","","24.1","","97.92","","","","-8","","Mostly Cloudy"
"-98.27","49.90","PORTAGE SOUTHPORT A","5012320","2019-10-31 10:00","2019","10","31","10:00","-0.7","","-7.7","","59","","","","22","","17","","24.1","","97.87","","","","-6","","Mostly Cloudy"
"-98.27","49.90","PORTAGE SOUTHPORT A","5012320","2019-10-31 11:00","2019","10","31","11:00","0.7","","-8.3","","51","","","","22","","22","","24.1","","97.80","","","","","","Cloudy"
"-98.27","49.90","PORTAGE SOUTHPORT A","5012320","2019-10-31 12:00","2019","10","31","12:00","1.1","","-7.7","","52","","","","21","","18","","24.1","","97.73","","","","","","Cloudy"
"-98.27","49.90","PORTAGE SOUTHPORT A","5012320","2019-10-31 13:00","2019","10","31","13:00","-0.4","","-2.8","","84","","","","21","","11","","1.6","","97.68","","","","-4","","Snow"
"-98.27","49.90","PORTAGE SOUTHPORT A","5012320","2019-10-31 14:00","2019","10","31","14:00","-0.4","","-2.5","","86","","","","19","","11","","24.1","","97.63","","","","-4","","Cloudy"
"-98.27","49.90","PORTAGE SOUTHPORT A","5012320","2019-10-31 15:00","2019","10","31","15:00","1.3","","-4.2","","67","","","","24","","9","","24.1","","97.62","","","","","","Cloudy"
"-98.27","49.90","PORTAGE SOUTHPORT A","5012320","2019-10-31 16:00","2019","10","31","16:00","1.4","","-3.9","","68","","","","26","","13","","24.1","","97.65","","","","","","Cloudy"
"-98.27","49.90","PORTAGE SOUTHPORT A","5012320","2019-10-31 17:00","2019","10","31","17:00"
"-98.27","49.90","PORTAGE SOUTHPORT A","5012320","2019-10-31 18:00","2019","10","31","18:00"
"-98.27","49.90","PORTAGE SOUTHPORT A","5012320","2019-10-31 19:00","2019","10","31","19:00"
"-98.27","49.90","PORTAGE SOUTHPORT A","5012320","2019-10-31 20:00","2019","10","31","20:00"
"-98.27","49.90","PORTAGE SOUTHPORT A","5012320","2019-10-31 21:00","2019","10","31","21:00"
"-98.27","49.90","PORTAGE SOUTHPORT A","5012320","2019-10-31 22:00","2019","10","31","22:00"
"-98.27","49.90","PORTAGE SOUTHPORT A","5012320","2019-10-31 23:00","2019","10","31","23:00"
