"Longitude (x)","Latitude (y)","Station Name","Climate ID","Date/Time (LST)","Year","Month","Day","Time (LST)","Temp (°C)","Temp Flag","Dew Point Temp (°C)","Dew Point Temp Flag","Rel Hum (%)","Rel Hum Flag","Precip. Amount (mm)","Precip. Amount Flag","Wind Dir (10s deg)","Wind Dir Flag","Wind Spd (km/h)","Wind Spd Flag","Visibility (km)","Visibility Flag","Stn Press (kPa)","Stn Press Flag","Hmdx","Hmdx Flag","Wind Chill","Wind Chill Flag","Weather"
"-111.96","60.02","FORT SMITH A","2202201","2020-10-01 00:00","2020","10","01","00:00","4.4","","1.6","","82","","","","15","","10","","24.1","","100.41","","","","","","NA"
"-111.96","60.02","FORT SMITH A","2202201","2020-10-01 01:00","2020","10","01","01:00","4.5","","1.9","","83","","","","15","","9","","24.1","","100.38","","","","","","NA"
"-111.96","60.02","FORT SMITH A","2202201","2020-10-01 02:00","2020","10","01","02:00","4.4","","2.0","","84","","","","15","","9","","24.1","","100.36","","","","","","Cloudy"
"-111.96","60.02","FORT SMITH A","2202201","2020-10-01 03:00","2020","10","01","03:00","4.5","","2.0","","84","","","","15","","9","","24.1","","100.26","","","","","","NA"
"-111.96","60.02","FORT SMITH A","2202201","2020-10-01 04:00","2020","10","01","04:00","4.6","","2.0","","83","","","","15","","10","","24.1","","100.18","","","","","","NA"
"-111.96","60.02","FORT SMITH A","2202201","2020-10-01 05:00","2020","10","01","05:00","4.7","","2.1","","83","","","","14","","10","","24.1","","100.11","","","","","","Mostly Cloudy"
"-111.96","60.02","FORT SMITH A","2202201","2020-10-01 06:00","2020","10","01","06:00","4.5","","2.0","","84","","","","14","","12","","24.1","","100.04","","","","","","NA"
"-111.96","60.02","FORT SMITH A","2202201","2020-10-01 07:00","2020","10","01","07:00","4.0","","1.7","","85","","","","14","","10","","24.1","","99.96","","","","","","NA"
"-111.96","60.02","FORT SMITH A","2202201","2020-10-01 08:00","2020","10","01","08:00","4.7","","1.6","","81","","","","13","","11","","24.1","","99.85","","","","","","Cloudy"
"-111.96","60.02","FORT SMITH A","2202201","2020-10-01 09:00","2020","10","01","09:00","5.5","","1.9","","78","","","","15","","16","","24.1","","99.78","","","","","","NA"
"-111.96","60.02","FORT SMITH A","2202201","2020-10-01 10:00","2020","10","01","10:00","6.0","","2.0","","76","","","","14","","12","","24.1","","99.69","","","","","","NA"
"-111.96","60.02","FORT SMITH A","2202201","2020-10-01 11:00","2020","10","01","11:00","6.6","","2.2","","73","","","","13","","12","","24.1","","99.61","","","","","","Cloudy"
"-111.96","60.02","FORT SMITH A","2202201","2020-10-01 12:00","2020","10","01","12:00","7.7","","2.6","","70","","","","13","","13","","24.1","","99.54","","","","","","NA"
"-111.96","60.02","FORT SMITH A","2202201","2020-10-01 13:00","2020","10","01","13:00","8.6","","3.0","","68","","","","15","","16","","24.1","","99.42","","","","","","NA"
"-111.96","60.02","FORT SMITH A","2202201","2020-10-01 14:00","2020","10","01","14:00","9.0","","2.9","","65","","","","12","","13","","24.1","","99.35","","","","","","Mostly Cloudy"
"-111.96","60.02","FORT SMITH A","2202201","2020-10-01 15:00","2020","10","01","15:00","9.0","","3.2","","67","","","","12","","10","","24.1","","99.27","","","","","","NA"
"-111.96","60.02","FORT SMITH A","2202201","2020-10-01 16:00","2020","10","01","16:00","9.1","","3.1","","66","","","","14","","17","","24.1","","99.24","","","","","","NA"
"-111.96","60.02","FORT SMITH A","2202201","2020-10-01 17:00","2020","10","01","17:00","8.9","","3.4","","68","","","","14","","8","","24.1","","99.24","","","","","","Cloudy"
"-111.96","60.02","FORT SMITH A","2202201","2020-10-01 18:00","2020","10","01","18:00","8.5","","3.5","","71","","","","12","","7","","24.1","","99.24","","","","","","NA"
"-111.96","60.02","FORT SMITH A","2202201","2020-10-01 19:00","2020","10","01","19:00","8.4","","3.4","","71","","","","14","","7","","24.1","","99.23","","","","","","NA"
"-111.96","60.02","FORT SMITH A","2202201","2020-10-01 20:00","2020","10","01","20:00","7.4","","3.4","","76","","","","11","","3","","24.1","","99.20","","","","","","Cloudy"
"-111.96","60.02","FORT SMITH A","2202201","2020-10-01 21:00","2020","10","01","21:00","6.9","","3.5","","79","","","","5","","4","","24.1","","99.18","","","","","","NA"
"-111.96","60.02","FORT SMITH A","2202201","2020-10-01 22:00","2020","10","01","22:00","6.3","","3.9","","84","","","","6","","3","","24.1","","99.17","","","","","","NA"
"-111.96","60.02","FORT SMITH A","2202201","2020-10-01 23:00","2020","10","01","23:00","4.3","","3.3","","93","","","","8","","4","","24.1","","99.20","","","","","","Mostly Cloudy"
"-111.96","60.02","FORT SMITH A","2202201","2020-10-02 00:00","2020","10","02","00:00","2.5","","1.6","","94","","","","36","","3","","24.1","","99.25","","","","","","NA"
"-111.96","60.02","FORT SMITH A","2202201","2020-10-02 01:00","2020","10","02","01:00","3.1","","2.4","","95","","","","36","","2","","24.1","","99.24","","","","","","NA"
"-111.96","60.02","FORT SMITH A","2202201","2020-10-02 02:00","2020","10","02","02:00","3.4","","2.5","","94","","","","16","","4","","24.1","","99.30","","","","","","Mostly Cloudy"
"-111.96","60.02","FORT SMITH A","2202201","2020-10-02 03:00","2020","10","02","03:00","3.2","","2.5","","95","","","","36","","2","","24.1","","99.32","","","","","","NA"
"-111.96","60.02","FORT SMITH A","2202201","2020-10-02 04:00","2020","10","02","04:00","2.7","","1.7","","93","","","","13","","3","","24.1","","99.35","","","","","","NA"
"-111.96","60.02","FORT SMITH A","2202201","2020-10-02 05:00","2020","10","02","05:00","2.1","","1.3","","94","","","","36","","1","","24.1","","99.40","","","","","","Mostly Cloudy"
"-111.96","60.02","FORT SMITH A","2202201","2020-10-02 06:00","2020","10","02","06:00","2.2","","1.4","","95","","","","0","","1","","24.1","","99.46","","","","","","NA"
"-111.96","60.02","FORT SMITH A","2202201","2020-10-02 07:00","2020","10","02","07:00","2.3","","1.6","","95","","","","36","","2","","24.1","","99.49","","","","","","NA"
"-111.96","60.02","FORT SMITH A","2202201","2020-10-02 08:00","2020","10","02","08:00","3.5","","3.1","","97","","","","36","","1","","24.1","","99.53","","","","","","Mostly Cloudy"
"-111.96","60.02","FORT SMITH A","2202201","2020-10-02 09:00","2020","10","02","09:00","4.5","","3.8","","95","","","","26","","4","","24.1","","99.58","","","","","","NA"
"-111.96","60.02","FORT SMITH A","2202201","2020-10-02 10:00","2020","10","02","10:00","5.6","","4.5","","92","","","","6","","5","","24.1","","99.62","","","","","","NA"
"-111.96","60.02","FORT SMITH A","2202201","2020-10-02 11:00","2020","10","02","11:00","6.8","","5.0","","88","","","","12","","4","","24.1","","99.68","","","","","","Mostly Cloudy"
"-111.96","60.02","FORT SMITH A","2202201","2020-10-02 12:00","2020","10","02","12:00","8.1","","5.2","","82","","","","17","","4","","24.1","","99.69","","","","","","NA"
"-111.96","60.02","FORT SMITH A","2202201","2020-10-02 13:00","2020","10","02","13:00","8.9","","5.4","","78","","","","12","","4","","20.9","","99.73","","","","","","NA"
"-111.96","60.02","FORT SMITH A","2202201","2020-10-02 14:00","2020","10","02","14:00","9.7","","4.9","","72","","","","2","","3","","24.1","","99.77","","","","","","Mostly Cloudy"
"-111.96","60.02","FORT SMITH A","2202201","2020-10-02 15:00","2020","10","02","15:00","10.5","","4.8","","67","","","","3","","5","","24.1","","99.75","","","","","","NA"
"-111.96","60.02","FORT SMITH A","2202201","2020-10-02 16:00","2020","10","02","16:00","10.9","","5.0","","67","","","","22","","3","","24.1","","99.75","","","","","","NA"
"-111.96","60.02","FORT SMITH A","2202201","2020-10-02 17:00","2020","10","02","17:00","10.3","","4.5","","67","","","","17","","6","","24.1","","99.72","","","","","","Clear"
"-111.96","60.02","FORT SMITH A","2202201","2020-10-02 18:00","2020","10","02","18:00","6.5","","4.4","","86","","","","13","","3","","24.1","","99.71","","","","","","NA"
"-111.96","60.02","FORT SMITH A","2202201","2020-10-02 19:00","2020","10","02","19:00","3.7","","2.6","","93","","","","36","","2","","24.1","","99.72","","","","","","NA"
"-111.96","60.02","FORT SMITH A","2202201","2020-10-02 20:00","2020","10","02","20:00","3.0","","1.8","","92","","","","15","","5","","24.1","","99.70","","","","","","Mainly Clear"
"-111.96","60.02","FORT SMITH A","2202201","2020-10-02 21:00","2020","10","02","21:00","4.6","","2.6","","87","","","","14","","7","","24.1","","99.63","","","","","","NA"
"-111.96","60.02","FORT SMITH A","2202201","2020-10-02 22:00","2020","10","02","22:00","3.4","","2.1","","91","","","","15","","8","","24.1","","99.63","","","","","","NA"
"-111.96","60.02","FORT SMITH A","2202201","2020-10-02 23:00","2020","10","02","23:00","3.2","","2.3","","94","","","","14","","8","","24.1","","99.60","","","","","","Mainly Clear"
"-111.96","60.02","FORT SMITH A","2202201","2020-10-03 00:00","2020","10","03","00:00","3.5","","2.6","","94","","","","15","","11","","24.1","","99.59","","","","","","NA"
"-111.96","60.02","FORT SMITH A","2202201","2020-10-03 01:00","2020","10","03","01:00","4.0","","3.2","","95","","","","15","","9","","24.1","","99.56","","","","","","NA"
"-111.96","60.02","FORT SMITH A","2202201","2020-10-03 02:00","2020","10","03","02:00","4.2","","3.5","","95","","","","15","","10","","24.1","","99.52","","","","","","Mostly Cloudy"
"-111.96","60.02","FORT SMITH A","2202201","2020-10-03 03:00","2020","10","03","03:00","4.2","","3.7","","97","","","","15","","10","","24.1","","99.43","","","","","","NA"
"-111.96","60.02","FORT SMITH A","2202201","2020-10-03 04:00","2020","10","03","04:00","5.0","","4.5","","97","","","","14","","10","","24.1","","99.40","","","","","","NA"
"-111.96","60.02","FORT SMITH A","2202201","2020-10-03 05:00","2020","10","03","05:00","5.5","","5.1","","97","","","","15","","15","","19.3","","99.33","","","","","","Cloudy"
"-111.96","60.02","FORT SMITH A","2202201","2020-10-03 06:00","2020","10","03","06:00","5.8","","5.2","","96","","","","15","","14","","24.1","","99.24","","","","","","NA"
"-111.96","60.02","FORT SMITH A","2202201","2020-10-03 07:00","2020","10","03","07:00","5.8","","5.1","","95","","","","14","","13","","19.3","","99.18","","","","","","NA"
"-111.96","60.02","FORT SMITH A","2202201","2020-10-03 08:00","2020","10","03","08:00","6.5","","5.3","","93","","","","14","","14","","24.1","","99.08","","","","","","Cloudy"
"-111.96","60.02","FORT SMITH A","2202201","2020-10-03 09:00","2020","10","03","09:00","7.4","","5.7","","89","","","","14","","18","","24.1","","98.98","","","","","","NA"
"-111.96","60.02","FORT SMITH A","2202201","2020-10-03 10:00","2020","10","03","10:00","8.5","","6.2","","85","","","","14","","16","","24.1","","98.93","","","","","","NA"
"-111.96","60.02","FORT SMITH A","2202201","2020-10-03 11:00","2020","10","03","11:00","9.6","","6.4","","80","","","","15","","19","","24.1","","98.77","","","","","","Cloudy"
"-111.96","60.02","FORT SMITH A","2202201","2020-10-03 12:00","2020","10","03","12:00","10.8","","6.2","","73","","","","14","","18","","24.1","","98.67","","","","","","NA"
"-111.96","60.02","FORT SMITH A","2202201","2020-10-03 13:00","2020","10","03","13:00","11.6","","6.4","","70","","","","13","","22","","24.1","","98.52","","","","","","NA"
"-111.96","60.02","FORT SMITH A","2202201","2020-10-03 14:00","2020","10","03","14:00","12.5","","6.7","","68","","","","15","","20","","24.1","","98.38","","","","","","Cloudy"
"-111.96","60.02","FORT SMITH A","2202201","2020-10-03 15:00","2020","10","03","15:00","12.9","","7.0","","67","","","","15","","22","","24.1","","98.28","","","","","","NA"
"-111.96","60.02","FORT SMITH A","2202201","2020-10-03 16:00","2020","10","03","16:00","12.7","","7.0","","68","","","","15","","17","","24.1","","98.18","","","","","","NA"
"-111.96","60.02","FORT SMITH A","2202201","2020-10-03 17:00","2020","10","03","17:00","12.1","","6.6","","69","","","","15","","23","","24.1","","98.09","","","","","","Cloudy"
"-111.96","60.02","FORT SMITH A","2202201","2020-10-03 18:00","2020","10","03","18:00","11.4","","6.9","","73","","","","15","","14","","24.1","","97.98","","","","","","NA"
"-111.96","60.02","FORT SMITH A","2202201","2020-10-03 19:00","2020","10","03","19:00","11.0","","7.4","","79","","","","15","","16","","24.1","","97.82","","","","","","NA"
"-111.96","60.02","FORT SMITH A","2202201","2020-10-03 20:00","2020","10","03","20:00","10.8","","7.3","","79","","","","17","","10","","24.1","","97.75","","","","","","Cloudy"
"-111.96","60.02","FORT SMITH A","2202201","2020-10-03 21:00","2020","10","03","21:00","10.5","","7.2","","80","","","","16","","9","","24.1","","97.62","","","","","","NA"
"-111.96","60.02","FORT SMITH A","2202201","2020-10-03 22:00","2020","10","03","22:00","10.4","","7.2","","80","","","","17","","5","","24.1","","97.56","","","","","","NA"
"-111.96","60.02","FORT SMITH A","2202201","2020-10-03 23:00","2020","10","03","23:00","10.4","","7.5","","82","","","","18","","5","","24.1","","97.49","","","","","","Cloudy"
"-111.96","60.02","FORT SMITH A","2202201","2020-10-04 00:00","2020","10","04","00:00","10.9","","7.8","","81","","","","21","","14","","24.1","","97.40","","","","","","Rain"
"-111.96","60.02","FORT SMITH A","2202201","2020-10-04 01:00","2020","10","04","01:00","11.0","","7.7","","80","","","","22","","10","","24.1","","97.33","","","","","","Rain"
"-111.96","60.02","FORT SMITH A","2202201","2020-10-04 02:00","2020","10","04","02:00","10.8","","7.5","","80","","","","23","","14","","24.1","","97.30","","","","","","Mostly Cloudy"
"-111.96","60.02","FORT SMITH A","2202201","2020-10-04 03:00","2020","10","04","03:00","12.6","","6.5","","66","","","","25","","14","","24.1","","97.27","","","","","","NA"
"-111.96","60.02","FORT SMITH A","2202201","2020-10-04 04:00","2020","10","04","04:00","11.0","","5.7","","70","","","","25","","15","","24.1","","97.23","","","","","","NA"
"-111.96","60.02","FORT SMITH A","2202201","2020-10-04 05:00","2020","10","04","05:00","11.0","","5.1","","67","","","","25","","15","","24.1","","97.23","","","","","","Mainly Clear"
"-111.96","60.02","FORT SMITH A","2202201","2020-10-04 06:00","2020","10","04","06:00","10.6","","4.3","","65","","","","25","","16","","24.1","","97.23","","","","","","NA"
"-111.96","60.02","FORT SMITH A","2202201","2020-10-04 07:00","2020","10","04","07:00","10.4","","3.6","","63","","","","26","","16","","24.1","","97.18","","","","","","NA"
"-111.96","60.02","FORT SMITH A","2202201","2020-10-04 08:00","2020","10","04","08:00","10.9","","3.3","","59","","","","27","","17","","24.1","","97.16","","","","","","Cloudy"
"-111.96","60.02","FORT SMITH A","2202201","2020-10-04 09:00","2020","10","04","09:00","11.2","","3.5","","59","","","","28","","18","","24.1","","97.20","","","","","","NA"
"-111.96","60.02","FORT SMITH A","2202201","2020-10-04 10:00","2020","10","04","10:00","12.4","","3.6","","55","","","","27","","20","","24.1","","97.22","","","","","","NA"
"-111.96","60.02","FORT SMITH A","2202201","2020-10-04 11:00","2020","10","04","11:00","14.3","","4.2","","51","","","","28","","23","","24.1","","97.21","","","","","","Mostly Cloudy"
"-111.96","60.02","FORT SMITH A","2202201","2020-10-04 12:00","2020","10","04","12:00","14.8","","4.3","","49","","","","28","","22","","24.1","","97.22","","","","","","NA"
"-111.96","60.02","FORT SMITH A","2202201","2020-10-04 13:00","2020","10","04","13:00","14.3","","4.2","","50","","","","28","","26","","24.1","","97.25","","","","","","NA"
"-111.96","60.02","FORT SMITH A","2202201","2020-10-04 14:00","2020","10","04","14:00","14.5","","4.9","","52","","","","30","","21","","24.1","","97.27","","","","","","Cloudy"
"-111.96","60.02","FORT SMITH A","2202201","2020-10-04 15:00","2020","10","04","15:00","12.5","","5.1","","60","","","","29","","19","","24.1","","97.33","","","","","","Rain Showers"
"-111.96","60.02","FORT SMITH A","2202201","2020-10-04 16:00","2020","10","04","16:00","12.7","","4.2","","56","","","","29","","25","","24.1","","97.36","","","","","","NA"
"-111.96","60.02","FORT SMITH A","2202201","2020-10-04 17:00","2020","10","04","17:00","12.1","","4.1","","58","","","","28","","14","","24.1","","97.41","","","","","","Mostly Cloudy"
"-111.96","60.02","FORT SMITH A","2202201","2020-10-04 18:00","2020","10","04","18:00","11.2","","4.6","","64","","","","28","","10","","24.1","","97.46","","","","","","NA"
"-111.96","60.02","FORT SMITH A","2202201","2020-10-04 19:00","2020","10","04","19:00","8.9","","4.1","","72","","","","24","","8","","24.1","","97.50","","","","","","NA"
"-111.96","60.02","FORT SMITH A","2202201","2020-10-04 20:00","2020","10","04","20:00","9.4","","4.4","","71","","","","28","","8","","24.1","","97.51","","","","","","Mostly Cloudy"
"-111.96","60.02","FORT SMITH A","2202201","2020-10-04 21:00","2020","10","04","21:00","10.4","","5.0","","69","","","","29","","16","","24.1","","97.50","","","","","","NA"
"-111.96","60.02","FORT SMITH A","2202201","2020-10-04 22:00","2020","10","04","22:00","10.3","","5.2","","71","","","","29","","18","","24.1","","97.55","","","","","","NA"
"-111.96","60.02","FORT SMITH A","2202201","2020-10-04 23:00","2020","10","04","23:00","10.4","","5.5","","72","","","","30","","25","","24.1","","97.57","","","","","","Cloudy"
"-111.96","60.02","FORT SMITH A","2202201","2020-10-05 00:00","2020","10","05","00:00","9.8","","6.4","","79","","","","30","","18","","24.1","","97.63","","","","","","NA"
"-111.96","60.02","FORT SMITH A","2202201","2020-10-05 01:00","2020","10","05","01:00","9.4","","6.1","","80","","","","29","","16","","24.1","","97.65","","","","","","Rain Showers"
"-111.96","60.02","FORT SMITH A","2202201","2020-10-05 02:00","2020","10","05","02:00","8.8","","7.0","","88","","","","31","","13","","24.1","","97.72","","","","","","Rain Showers"
"-111.96","60.02","FORT SMITH A","2202201","2020-10-05 03:00","2020","10","05","03:00","8.5","","5.9","","84","","","","32","","12","","24.1","","97.76","","","","","","NA"
"-111.96","60.02","FORT SMITH A","2202201","2020-10-05 04:00","2020","10","05","04:00","8.3","","4.9","","79","","","","31","","16","","24.1","","97.79","","","","","","NA"
"-111.96","60.02","FORT SMITH A","2202201","2020-10-05 05:00","2020","10","05","05:00","7.9","","4.3","","78","","","","31","","16","","24.1","","97.85","","","","","","Cloudy"
"-111.96","60.02","FORT SMITH A","2202201","2020-10-05 06:00","2020","10","05","06:00","6.2","","5.1","","92","","","","36","","15","","19.3","","97.92","","","","","","Drizzle"
"-111.96","60.02","FORT SMITH A","2202201","2020-10-05 07:00","2020","10","05","07:00","5.7","","4.8","","94","","","","34","","11","","4.0","","97.95","","","","","","Drizzle,Fog"
"-111.96","60.02","FORT SMITH A","2202201","2020-10-05 08:00","2020","10","05","08:00","5.2","","4.3","","94","","","","34","","7","","4.0","","97.98","","","","","","Drizzle,Fog"
"-111.96","60.02","FORT SMITH A","2202201","2020-10-05 09:00","2020","10","05","09:00","5.2","","3.4","","88","","","","34","","8","","24.1","","97.97","","","","","","NA"
"-111.96","60.02","FORT SMITH A","2202201","2020-10-05 10:00","2020","10","05","10:00","5.6","","3.6","","87","","","","35","","7","","24.1","","97.98","","","","","","NA"
"-111.96","60.02","FORT SMITH A","2202201","2020-10-05 11:00","2020","10","05","11:00","6.1","","3.2","","81","","","","1","","7","","24.1","","97.98","","","","","","Mostly Cloudy"
"-111.96","60.02","FORT SMITH A","2202201","2020-10-05 12:00","2020","10","05","12:00","6.6","","3.1","","78","","","","6","","5","","24.1","","97.96","","","","","","NA"
"-111.96","60.02","FORT SMITH A","2202201","2020-10-05 13:00","2020","10","05","13:00","7.4","","3.3","","75","","","","27","","7","","24.1","","97.92","","","","","","NA"
"-111.96","60.02","FORT SMITH A","2202201","2020-10-05 14:00","2020","10","05","14:00","8.2","","3.1","","70","","","","23","","3","","24.1","","97.88","","","","","","Mostly Cloudy"
"-111.96","60.02","FORT SMITH A","2202201","2020-10-05 15:00","2020","10","05","15:00","8.2","","3.5","","72","","","","20","","3","","24.1","","97.86","","","","","","NA"
"-111.96","60.02","FORT SMITH A","2202201","2020-10-05 16:00","2020","10","05","16:00","8.3","","3.5","","72","","","","36","","3","","24.1","","97.84","","","","","","NA"
"-111.96","60.02","FORT SMITH A","2202201","2020-10-05 17:00","2020","10","05","17:00","8.1","","3.6","","73","","","","9","","3","","24.1","","97.82","","","","","","Cloudy"
"-111.96","60.02","FORT SMITH A","2202201","2020-10-05 18:00","2020","10","05","18:00","7.6","","3.5","","75","","","","6","","5","","24.1","","97.81","","","","","","NA"
"-111.96","60.02","FORT SMITH A","2202201","2020-10-05 19:00","2020","10","05","19:00","7.3","","2.1","","70","","","","11","","4","","24.1","","97.80","","","","","","NA"
"-111.96","60.02","FORT SMITH A","2202201","2020-10-05 20:00","2020","10","05","20:00","6.8","","2.2","","73","","","","12","","4","","24.1","","97.78","","","","","","Rain Showers"
"-111.96","60.02","FORT SMITH A","2202201","2020-10-05 21:00","2020","10","05","21:00","6.6","","2.5","","75","","","","8","","5","","24.1","","97.76","","","","","","NA"
"-111.96","60.02","FORT SMITH A","2202201","2020-10-05 22:00","2020","10","05","22:00","5.5","","3.6","","88","","","","12","","5","","24.1","","97.74","","","","","","Rain Showers"
"-111.96","60.02","FORT SMITH A","2202201","2020-10-05 23:00","2020","10","05","23:00","5.7","","4.3","","91","","","","14","","8","","24.1","","97.75","","","","","","Rain Showers"
"-111.96","60.02","FORT SMITH A","2202201","2020-10-06 00:00","2020","10","06","00:00","5.7","","4.1","","90","","","","13","","6","","24.1","","97.73","","","","","","Rain Showers"
"-111.96","60.02","FORT SMITH A","2202201","2020-10-06 01:00","2020","10","06","01:00","5.0","","3.5","","90","","","","14","","11","","24.1","","97.71","","","","","","NA"
"-111.96","60.02","FORT SMITH A","2202201","2020-10-06 02:00","2020","10","06","02:00","4.9","","3.5","","91","","","","14","","8","","24.1","","97.69","","","","","","Mostly Cloudy"
"-111.96","60.02","FORT SMITH A","2202201","2020-10-06 03:00","2020","10","06","03:00","4.5","","3.4","","93","","","","14","","7","","24.1","","97.67","","","","","","Rain Showers"
"-111.96","60.02","FORT SMITH A","2202201","2020-10-06 04:00","2020","10","06","04:00","4.2","","3.5","","95","","","","14","","5","","24.1","","97.67","","","","","","NA"
"-111.96","60.02","FORT SMITH A","2202201","2020-10-06 05:00","2020","10","06","05:00","4.6","","3.8","","95","","","","15","","6","","24.1","","97.69","","","","","","Rain Showers"
"-111.96","60.02","FORT SMITH A","2202201","2020-10-06 06:00","2020","10","06","06:00","4.4","","3.8","","96","","","","18","","3","","24.1","","97.71","","","","","","Rain Showers"
"-111.96","60.02","FORT SMITH A","2202201","2020-10-06 07:00","2020","10","06","07:00","4.2","","3.8","","97","","","","2","","5","","24.1","","97.77","","","","","","Rain"
"-111.96","60.02","FORT SMITH A","2202201","2020-10-06 08:00","2020","10","06","08:00","5.0","","4.5","","97","","","","36","","4","","19.3","","97.82","","","","","","Rain"
"-111.96","60.02","FORT SMITH A","2202201","2020-10-06 09:00","2020","10","06","09:00","5.2","","4.8","","97","","","","36","","6","","1.0","","97.88","","","","","","Fog"
"-111.96","60.02","FORT SMITH A","2202201","2020-10-06 10:00","2020","10","06","10:00","5.4","","5.0","","97","","","","32","","9","","6.4","","97.96","","","","","","Fog"
"-111.96","60.02","FORT SMITH A","2202201","2020-10-06 11:00","2020","10","06","11:00","5.9","","5.5","","97","","","","32","","13","","1.2","","98.04","","","","","","Drizzle,Fog"
"-111.96","60.02","FORT SMITH A","2202201","2020-10-06 12:00","2020","10","06","12:00","6.8","","5.6","","92","","","","32","","11","","24.1","","98.11","","","","","","NA"
"-111.96","60.02","FORT SMITH A","2202201","2020-10-06 13:00","2020","10","06","13:00","8.2","","4.8","","79","","","","32","","12","","24.1","","98.18","","","","","","NA"
"-111.96","60.02","FORT SMITH A","2202201","2020-10-06 14:00","2020","10","06","14:00","8.1","","5.5","","83","","","","27","","16","","19.3","","98.25","","","","","","Rain Showers"
"-111.96","60.02","FORT SMITH A","2202201","2020-10-06 15:00","2020","10","06","15:00","9.2","","5.8","","79","","","","30","","22","","24.1","","98.28","","","","","","NA"
"-111.96","60.02","FORT SMITH A","2202201","2020-10-06 16:00","2020","10","06","16:00","9.6","","6.2","","80","","","","28","","11","","24.1","","98.32","","","","","","NA"
"-111.96","60.02","FORT SMITH A","2202201","2020-10-06 17:00","2020","10","06","17:00","9.6","","5.7","","77","","","","31","","17","","24.1","","98.38","","","","","","Cloudy"
"-111.96","60.02","FORT SMITH A","2202201","2020-10-06 18:00","2020","10","06","18:00","8.2","","4.2","","76","","","","31","","21","","24.1","","98.49","","","","","","Rain Showers"
"-111.96","60.02","FORT SMITH A","2202201","2020-10-06 19:00","2020","10","06","19:00","7.9","","3.7","","74","","","","32","","17","","24.1","","98.56","","","","","","NA"
"-111.96","60.02","FORT SMITH A","2202201","2020-10-06 20:00","2020","10","06","20:00","6.9","","3.0","","76","","","","32","","12","","24.1","","98.62","","","","","","Mainly Clear"
"-111.96","60.02","FORT SMITH A","2202201","2020-10-06 21:00","2020","10","06","21:00","6.7","","3.6","","81","","","","32","","10","","24.1","","98.71","","","","","","NA"
"-111.96","60.02","FORT SMITH A","2202201","2020-10-06 22:00","2020","10","06","22:00","6.1","","3.7","","85","","","","34","","10","","24.1","","98.80","","","","","","NA"
"-111.96","60.02","FORT SMITH A","2202201","2020-10-06 23:00","2020","10","06","23:00","5.3","","3.1","","86","","","","31","","14","","24.1","","98.87","","","","","","Mostly Cloudy"
"-111.96","60.02","FORT SMITH A","2202201","2020-10-07 00:00","2020","10","07","00:00","4.5","","2.2","","85","","","","34","","9","","24.1","","98.96","","","","","","NA"
"-111.96","60.02","FORT SMITH A","2202201","2020-10-07 01:00","2020","10","07","01:00","4.1","","1.7","","84","","","","34","","8","","24.1","","99.03","","","","","","NA"
"-111.96","60.02","FORT SMITH A","2202201","2020-10-07 02:00","2020","10","07","02:00","3.1","","0.3","","82","","","","35","","6","","24.1","","99.10","","","","","","Mostly Cloudy"
"-111.96","60.02","FORT SMITH A","2202201","2020-10-07 03:00","2020","10","07","03:00","2.4","","-0.2","","83","","","","1","","7","","24.1","","99.15","","","","","","NA"
"-111.96","60.02","FORT SMITH A","2202201","2020-10-07 04:00","2020","10","07","04:00","2.5","","-0.9","","78","","","","35","","5","","24.1","","99.21","","","","","","NA"
"-111.96","60.02","FORT SMITH A","2202201","2020-10-07 05:00","2020","10","07","05:00","2.0","","-1.0","","80","","","","4","","7","","24.1","","99.27","","","","","","Rain"
"-111.96","60.02","FORT SMITH A","2202201","2020-10-07 06:00","2020","10","07","06:00","1.9","","-1.3","","80","","","","6","","4","","24.1","","99.31","","","","","","Snow"
"-111.96","60.02","FORT SMITH A","2202201","2020-10-07 07:00","2020","10","07","07:00","1.6","","-1.3","","81","","","","8","","4","","24.1","","99.34","","","","","","NA"
"-111.96","60.02","FORT SMITH A","2202201","2020-10-07 08:00","2020","10","07","08:00","1.8","","-1.0","","82","","","","13","","4","","24.1","","99.37","","","","","","Snow"
"-111.96","60.02","FORT SMITH A","2202201","2020-10-07 09:00","2020","10","07","09:00","1.8","","-0.2","","87","","","","13","","8","","4.8","","99.40","","","","","","Rain,Snow"
"-111.96","60.02","FORT SMITH A","2202201","2020-10-07 10:00","2020","10","07","10:00","2.0","","-0.1","","86","","","","12","","10","","24.1","","99.41","","","","","","NA"
"-111.96","60.02","FORT SMITH A","2202201","2020-10-07 11:00","2020","10","07","11:00","2.3","","-0.4","","82","","","","14","","10","","24.1","","99.39","","","","","","Cloudy"
"-111.96","60.02","FORT SMITH A","2202201","2020-10-07 12:00","2020","10","07","12:00","2.8","","0.2","","83","","","","15","","12","","24.1","","99.40","","","","","","NA"
"-111.96","60.02","FORT SMITH A","2202201","2020-10-07 13:00","2020","10","07","13:00","3.0","","0.1","","81","","","","13","","12","","24.1","","99.39","","","","","","NA"
"-111.96","60.02","FORT SMITH A","2202201","2020-10-07 14:00","2020","10","07","14:00","3.4","","0.4","","81","","","","13","","10","","24.1","","99.36","","","","","","Cloudy"
"-111.96","60.02","FORT SMITH A","2202201","2020-10-07 15:00","2020","10","07","15:00","3.9","","1.5","","85","","","","16","","8","","24.1","","99.33","","","","","","NA"
"-111.96","60.02","FORT SMITH A","2202201","2020-10-07 16:00","2020","10","07","16:00","3.6","","2.0","","89","","","","","","0","","19.3","","99.30","","","","","","Drizzle"
"-111.96","60.02","FORT SMITH A","2202201","2020-10-07 17:00","2020","10","07","17:00","3.7","","2.0","","88","","","","9","","4","","24.1","","99.26","","","","","","Drizzle"
"-111.96","60.02","FORT SMITH A","2202201","2020-10-07 18:00","2020","10","07","18:00","3.4","","2.0","","90","","","","14","","4","","19.3","","99.24","","","","","","NA"
"-111.96","60.02","FORT SMITH A","2202201","2020-10-07 19:00","2020","10","07","19:00","2.9","","1.7","","91","","","","14","","10","","24.1","","99.20","","","","","","NA"
"-111.96","60.02","FORT SMITH A","2202201","2020-10-07 20:00","2020","10","07","20:00","2.8","","1.6","","92","","","","15","","14","","24.1","","99.17","","","","","","Cloudy"
"-111.96","60.02","FORT SMITH A","2202201","2020-10-07 21:00","2020","10","07","21:00","2.8","","1.7","","92","","","","13","","13","","24.1","","99.11","","","","","","NA"
"-111.96","60.02","FORT SMITH A","2202201","2020-10-07 22:00","2020","10","07","22:00","2.4","","1.8","","96","","","","15","","11","","24.1","","99.08","","","","","","NA"
"-111.96","60.02","FORT SMITH A","2202201","2020-10-07 23:00","2020","10","07","23:00","2.4","","2.0","","97","","","","16","","6","","24.1","","99.04","","","","","","Cloudy"
"-111.96","60.02","FORT SMITH A","2202201","2020-10-08 00:00","2020","10","08","00:00","2.6","","1.8","","94","","","","15","","12","","19.3","","98.97","","","","","","NA"
"-111.96","60.02","FORT SMITH A","2202201","2020-10-08 01:00","2020","10","08","01:00","2.1","","1.4","","95","","","","13","","9","","24.1","","98.91","","","","","","NA"
"-111.96","60.02","FORT SMITH A","2202201","2020-10-08 02:00","2020","10","08","02:00","1.9","","1.4","","97","","","","12","","7","","24.1","","98.83","","","","","","Cloudy"
"-111.96","60.02","FORT SMITH A","2202201","2020-10-08 03:00","2020","10","08","03:00","2.2","","1.7","","97","","","","11","","4","","24.1","","98.75","","","","","","NA"
"-111.96","60.02","FORT SMITH A","2202201","2020-10-08 04:00","2020","10","08","04:00","1.9","","1.3","","95","","","","9","","8","","24.1","","98.68","","","","","","NA"
"-111.96","60.02","FORT SMITH A","2202201","2020-10-08 05:00","2020","10","08","05:00","2.0","","1.0","","93","","","","10","","5","","24.1","","98.61","","","","","","Mainly Clear"
"-111.96","60.02","FORT SMITH A","2202201","2020-10-08 06:00","2020","10","08","06:00","2.3","","1.3","","93","","","","11","","8","","24.1","","98.53","","","","","","NA"
"-111.96","60.02","FORT SMITH A","2202201","2020-10-08 07:00","2020","10","08","07:00","2.5","","1.6","","94","","","","8","","9","","24.1","","98.48","","","","","","NA"
"-111.96","60.02","FORT SMITH A","2202201","2020-10-08 08:00","2020","10","08","08:00","2.8","","1.9","","94","","","","7","","11","","24.1","","98.42","","","","","","Cloudy"
"-111.96","60.02","FORT SMITH A","2202201","2020-10-08 09:00","2020","10","08","09:00","3.4","","2.4","","93","","","","9","","8","","24.1","","98.39","","","","","","NA"
"-111.96","60.02","FORT SMITH A","2202201","2020-10-08 10:00","2020","10","08","10:00","4.5","","3.1","","91","","","","11","","3","","24.1","","98.34","","","","","","NA"
"-111.96","60.02","FORT SMITH A","2202201","2020-10-08 11:00","2020","10","08","11:00","5.2","","3.1","","87","","","","8","","8","","24.1","","98.29","","","","","","Cloudy"
"-111.96","60.02","FORT SMITH A","2202201","2020-10-08 12:00","2020","10","08","12:00","5.5","","2.8","","83","","","","7","","9","","24.1","","98.26","","","","","","NA"
"-111.96","60.02","FORT SMITH A","2202201","2020-10-08 13:00","2020","10","08","13:00","5.6","","3.5","","86","","","","11","","9","","19.3","","98.26","","","","","","Rain"
"-111.96","60.02","FORT SMITH A","2202201","2020-10-08 14:00","2020","10","08","14:00","5.5","","2.9","","84","","","","10","","10","","19.3","","98.26","","","","","","Rain"
"-111.96","60.02","FORT SMITH A","2202201","2020-10-08 15:00","2020","10","08","15:00","5.5","","3.6","","88","","","","8","","4","","24.1","","98.26","","","","","","Rain"
"-111.96","60.02","FORT SMITH A","2202201","2020-10-08 16:00","2020","10","08","16:00","5.0","","3.7","","91","","","","8","","7","","6.4","","98.28","","","","","","Rain,Fog"
"-111.96","60.02","FORT SMITH A","2202201","2020-10-08 17:00","2020","10","08","17:00","4.7","","3.6","","92","","","","7","","5","","16.1","","98.31","","","","","","Rain"
"-111.96","60.02","FORT SMITH A","2202201","2020-10-08 18:00","2020","10","08","18:00","4.3","","3.1","","92","","","","9","","5","","24.1","","98.34","","","","","","Rain"
"-111.96","60.02","FORT SMITH A","2202201","2020-10-08 19:00","2020","10","08","19:00","3.9","","2.9","","93","","","","7","","8","","16.1","","98.35","","","","","","Rain"
"-111.96","60.02","FORT SMITH A","2202201","2020-10-08 20:00","2020","10","08","20:00","3.7","","2.7","","93","","","","6","","5","","19.3","","98.36","","","","","","Rain"
"-111.96","60.02","FORT SMITH A","2202201","2020-10-08 21:00","2020","10","08","21:00","3.6","","2.6","","93","","","","8","","9","","19.3","","98.39","","","","","","Rain"
"-111.96","60.02","FORT SMITH A","2202201","2020-10-08 22:00","2020","10","08","22:00","3.4","","2.5","","94","","","","8","","7","","16.1","","98.42","","","","","","Rain"
"-111.96","60.02","FORT SMITH A","2202201","2020-10-08 23:00","2020","10","08","23:00","3.1","","2.1","","93","","","","10","","7","","16.1","","98.45","","","","","","Rain"
"-111.96","60.02","FORT SMITH A","2202201","2020-10-09 00:00","2020","10","09","00:00","2.9","","2.1","","95","","","","13","","7","","16.1","","98.45","","","","","","Rain"
"-111.96","60.02","FORT SMITH A","2202201","2020-10-09 01:00","2020","10","09","01:00","2.8","","2.1","","95","","","","13","","10","","19.3","","98.46","","","","","","Rain"
"-111.96","60.02","FORT SMITH A","2202201","2020-10-09 02:00","2020","10","09","02:00","2.7","","1.9","","94","","","","13","","10","","24.1","","98.46","","","","","","Rain"
"-111.96","60.02","FORT SMITH A","2202201","2020-10-09 03:00","2020","10","09","03:00","2.7","","2.1","","96","","","","14","","8","","9.7","","98.49","","","","","","Rain"
"-111.96","60.02","FORT SMITH A","2202201","2020-10-09 04:00","2020","10","09","04:00","2.8","","2.4","","97","","","","15","","11","","9.7","","98.50","","","","","","Drizzle"
"-111.96","60.02","FORT SMITH A","2202201","2020-10-09 05:00","2020","10","09","05:00","2.9","","2.2","","95","","","","15","","12","","24.1","","98.48","","","","","","Cloudy"
"-111.96","60.02","FORT SMITH A","2202201","2020-10-09 06:00","2020","10","09","06:00","2.9","","2.3","","96","","","","15","","13","","24.1","","98.48","","","","","","NA"
"-111.96","60.02","FORT SMITH A","2202201","2020-10-09 07:00","2020","10","09","07:00","2.9","","2.3","","96","","","","15","","12","","24.1","","98.48","","","","","","NA"
"-111.96","60.02","FORT SMITH A","2202201","2020-10-09 08:00","2020","10","09","08:00","3.0","","2.5","","97","","","","16","","13","","4.8","","98.50","","","","","","Fog"
"-111.96","60.02","FORT SMITH A","2202201","2020-10-09 09:00","2020","10","09","09:00","3.5","","3.0","","96","","","","17","","14","","24.1","","98.52","","","","","","NA"
"-111.96","60.02","FORT SMITH A","2202201","2020-10-09 10:00","2020","10","09","10:00","3.9","","2.8","","93","","","","17","","16","","19.3","","98.48","","","","","","Drizzle"
"-111.96","60.02","FORT SMITH A","2202201","2020-10-09 11:00","2020","10","09","11:00","4.7","","2.8","","87","","","","16","","19","","24.1","","98.45","","","","","","Mostly Cloudy"
"-111.96","60.02","FORT SMITH A","2202201","2020-10-09 12:00","2020","10","09","12:00","5.1","","3.0","","87","","","","16","","16","","24.1","","98.41","","","","","","NA"
"-111.96","60.02","FORT SMITH A","2202201","2020-10-09 13:00","2020","10","09","13:00","5.2","","3.2","","87","","","","18","","17","","24.1","","98.41","","","","","","Rain"
"-111.96","60.02","FORT SMITH A","2202201","2020-10-09 14:00","2020","10","09","14:00","5.7","","3.7","","87","","","","16","","14","","24.1","","98.41","","","","","","Rain"
"-111.96","60.02","FORT SMITH A","2202201","2020-10-09 15:00","2020","10","09","15:00","6.2","","3.3","","82","","","","17","","18","","24.1","","98.33","","","","","","NA"
"-111.96","60.02","FORT SMITH A","2202201","2020-10-09 16:00","2020","10","09","16:00","5.6","","3.5","","86","","","","15","","17","","24.1","","98.29","","","","","","NA"
"-111.96","60.02","FORT SMITH A","2202201","2020-10-09 17:00","2020","10","09","17:00","5.2","","3.6","","89","","","","14","","14","","24.1","","98.27","","","","","","Rain"
"-111.96","60.02","FORT SMITH A","2202201","2020-10-09 18:00","2020","10","09","18:00","5.0","","3.4","","89","","","","14","","12","","24.1","","98.21","","","","","","NA"
"-111.96","60.02","FORT SMITH A","2202201","2020-10-09 19:00","2020","10","09","19:00","4.7","","3.2","","90","","","","14","","13","","24.1","","98.16","","","","","","NA"
"-111.96","60.02","FORT SMITH A","2202201","2020-10-09 20:00","2020","10","09","20:00","4.7","","3.3","","91","","","","15","","16","","24.1","","98.14","","","","","","Cloudy"
"-111.96","60.02","FORT SMITH A","2202201","2020-10-09 21:00","2020","10","09","21:00","3.9","","2.5","","90","","","","14","","16","","24.1","","98.07","","","","","","NA"
"-111.96","60.02","FORT SMITH A","2202201","2020-10-09 22:00","2020","10","09","22:00","4.1","","2.5","","89","","","","14","","16","","24.1","","98.04","","","","","","NA"
"-111.96","60.02","FORT SMITH A","2202201","2020-10-09 23:00","2020","10","09","23:00","4.0","","2.1","","88","","","","14","","14","","24.1","","97.99","","","","","","Cloudy"
"-111.96","60.02","FORT SMITH A","2202201","2020-10-10 00:00","2020","10","10","00:00","4.0","","1.7","","85","","","","14","","13","","24.1","","97.90","","","","","","NA"
"-111.96","60.02","FORT SMITH A","2202201","2020-10-10 01:00","2020","10","10","01:00","3.8","","1.0","","82","","","","14","","17","","24.1","","97.82","","","","","","NA"
"-111.96","60.02","FORT SMITH A","2202201","2020-10-10 02:00","2020","10","10","02:00","3.9","","1.2","","83","","","","13","","16","","24.1","","97.75","","","","","","Cloudy"
"-111.96","60.02","FORT SMITH A","2202201","2020-10-10 03:00","2020","10","10","03:00","3.8","","1.3","","84","","","","13","","13","","24.1","","97.60","","","","","","NA"
"-111.96","60.02","FORT SMITH A","2202201","2020-10-10 04:00","2020","10","10","04:00","3.9","","1.3","","83","","","","13","","13","","24.1","","97.50","","","","","","NA"
"-111.96","60.02","FORT SMITH A","2202201","2020-10-10 05:00","2020","10","10","05:00","3.6","","1.8","","88","","","","12","","11","","24.1","","97.44","","","","","","Cloudy"
"-111.96","60.02","FORT SMITH A","2202201","2020-10-10 06:00","2020","10","10","06:00","3.0","","1.9","","93","","","","13","","14","","19.3","","97.35","","","","","","Rain"
"-111.96","60.02","FORT SMITH A","2202201","2020-10-10 07:00","2020","10","10","07:00","2.7","","1.8","","94","","","","12","","10","","12.9","","97.22","","","","","","Rain"
"-111.96","60.02","FORT SMITH A","2202201","2020-10-10 08:00","2020","10","10","08:00","2.7","","1.9","","94","","","","13","","10","","4.0","","97.16","","","","","","Rain,Fog"
"-111.96","60.02","FORT SMITH A","2202201","2020-10-10 09:00","2020","10","10","09:00","3.0","","2.1","","94","","","","12","","12","","4.0","","97.06","","","","","","Rain,Fog"
"-111.96","60.02","FORT SMITH A","2202201","2020-10-10 10:00","2020","10","10","10:00","3.6","","3.0","","96","","","","12","","8","","3.2","","96.98","","","","","","Drizzle,Fog"
"-111.96","60.02","FORT SMITH A","2202201","2020-10-10 11:00","2020","10","10","11:00","4.0","","3.5","","96","","","","13","","11","","3.2","","96.93","","","","","","Drizzle,Fog"
"-111.96","60.02","FORT SMITH A","2202201","2020-10-10 12:00","2020","10","10","12:00","4.5","","4.0","","96","","","","14","","8","","3.2","","96.93","","","","","","Drizzle,Fog"
"-111.96","60.02","FORT SMITH A","2202201","2020-10-10 13:00","2020","10","10","13:00","4.9","","4.3","","96","","","","15","","8","","4.0","","96.91","","","","","","Drizzle,Fog"
"-111.96","60.02","FORT SMITH A","2202201","2020-10-10 14:00","2020","10","10","14:00","5.0","","4.4","","96","","","","16","","8","","3.6","","96.91","","","","","","Drizzle,Fog"
"-111.96","60.02","FORT SMITH A","2202201","2020-10-10 15:00","2020","10","10","15:00","5.4","","4.9","","97","","","","12","","4","","3.6","","96.86","","","","","","Drizzle,Fog"
"-111.96","60.02","FORT SMITH A","2202201","2020-10-10 16:00","2020","10","10","16:00","5.3","","4.8","","96","","","","36","","3","","4.8","","96.88","","","","","","Drizzle,Fog"
"-111.96","60.02","FORT SMITH A","2202201","2020-10-10 17:00","2020","10","10","17:00","5.4","","4.8","","96","","","","36","","1","","4.8","","96.90","","","","","","Rain,Fog"
"-111.96","60.02","FORT SMITH A","2202201","2020-10-10 18:00","2020","10","10","18:00","5.1","","4.7","","98","","","","36","","3","","9.7","","96.95","","","","","","Fog"
"-111.96","60.02","FORT SMITH A","2202201","2020-10-10 19:00","2020","10","10","19:00","5.1","","4.8","","98","","","","35","","7","","24.1","","96.96","","","","","","Fog"
"-111.96","60.02","FORT SMITH A","2202201","2020-10-10 20:00","2020","10","10","20:00","4.9","","4.5","","97","","","","34","","9","","24.1","","96.94","","","","","","Rain"
"-111.96","60.02","FORT SMITH A","2202201","2020-10-10 21:00","2020","10","10","21:00","4.7","","4.4","","97","","","","33","","8","","9.7","","96.98","","","","","","Rain"
"-111.96","60.02","FORT SMITH A","2202201","2020-10-10 22:00","2020","10","10","22:00","4.7","","4.4","","98","","","","34","","8","","19.3","","96.99","","","","","","Rain"
"-111.96","60.02","FORT SMITH A","2202201","2020-10-10 23:00","2020","10","10","23:00","4.6","","4.3","","98","","","","34","","8","","0.8","","97.01","","","","","","Fog"
"-111.96","60.02","FORT SMITH A","2202201","2020-10-11 00:00","2020","10","11","00:00","4.2","","3.9","","98","","","","35","","12","","0.8","","96.97","","","","","","Fog"
"-111.96","60.02","FORT SMITH A","2202201","2020-10-11 01:00","2020","10","11","01:00","3.7","","3.4","","98","","","","32","","12","","0.8","","97.02","","","","","","Fog"
"-111.96","60.02","FORT SMITH A","2202201","2020-10-11 02:00","2020","10","11","02:00","3.2","","2.9","","98","","","","34","","13","","9.7","","97.01","","","","","","Rain,Fog"
"-111.96","60.02","FORT SMITH A","2202201","2020-10-11 03:00","2020","10","11","03:00","2.8","","2.5","","98","","","","34","","10","","6.4","","97.06","","","","","","Rain,Fog"
"-111.96","60.02","FORT SMITH A","2202201","2020-10-11 04:00","2020","10","11","04:00","2.2","","1.9","","98","","","","34","","9","","4.8","","97.06","","","","","","Rain,Fog"
"-111.96","60.02","FORT SMITH A","2202201","2020-10-11 05:00","2020","10","11","05:00","1.8","","1.5","","98","","","","32","","12","","2.4","","97.10","","","","","","Rain,Fog"
"-111.96","60.02","FORT SMITH A","2202201","2020-10-11 06:00","2020","10","11","06:00","1.7","","1.4","","98","","","","33","","11","","0.8","","97.14","","","","","","Fog"
"-111.96","60.02","FORT SMITH A","2202201","2020-10-11 07:00","2020","10","11","07:00","1.9","","1.6","","98","","","","34","","14","","2.0","","97.13","","","","","","Rain,Fog"
"-111.96","60.02","FORT SMITH A","2202201","2020-10-11 08:00","2020","10","11","08:00","2.2","","1.9","","98","","","","33","","17","","1.6","","97.17","","","","","","Drizzle,Fog"
"-111.96","60.02","FORT SMITH A","2202201","2020-10-11 09:00","2020","10","11","09:00","2.4","","2.0","","98","","","","34","","15","","2.0","","97.20","","","","","","Rain,Fog"
"-111.96","60.02","FORT SMITH A","2202201","2020-10-11 10:00","2020","10","11","10:00","2.3","","1.9","","97","","","","34","","13","","2.0","","97.23","","","","","","Rain,Fog"
"-111.96","60.02","FORT SMITH A","2202201","2020-10-11 11:00","2020","10","11","11:00","2.0","","1.4","","96","","","","32","","17","","6.4","","97.24","","","","","","Rain,Fog"
"-111.96","60.02","FORT SMITH A","2202201","2020-10-11 12:00","2020","10","11","12:00","1.9","","1.3","","95","","","","33","","14","","4.8","","97.26","","","","","","Rain,Fog"
"-111.96","60.02","FORT SMITH A","2202201","2020-10-11 13:00","2020","10","11","13:00","2.2","","1.5","","95","","","","34","","16","","4.8","","97.28","","","","","","Rain,Fog"
"-111.96","60.02","FORT SMITH A","2202201","2020-10-11 14:00","2020","10","11","14:00","2.3","","1.7","","96","","","","33","","14","","6.4","","97.31","","","","","","Rain,Fog"
"-111.96","60.02","FORT SMITH A","2202201","2020-10-11 15:00","2020","10","11","15:00","2.4","","1.2","","92","","","","34","","13","","24.1","","97.34","","","","","","Rain"
"-111.96","60.02","FORT SMITH A","2202201","2020-10-11 16:00","2020","10","11","16:00","2.8","","1.5","","91","","","","33","","14","","24.1","","97.37","","","","","","NA"
"-111.96","60.02","FORT SMITH A","2202201","2020-10-11 17:00","2020","10","11","17:00","2.8","","1.3","","89","","","","32","","17","","24.1","","97.37","","","","","","Mostly Cloudy"
"-111.96","60.02","FORT SMITH A","2202201","2020-10-11 18:00","2020","10","11","18:00","2.8","","1.2","","89","","","","33","","14","","24.1","","97.38","","","","","","NA"
"-111.96","60.02","FORT SMITH A","2202201","2020-10-11 19:00","2020","10","11","19:00","2.6","","1.2","","91","","","","32","","16","","24.1","","97.39","","","","","","NA"
"-111.96","60.02","FORT SMITH A","2202201","2020-10-11 20:00","2020","10","11","20:00","2.4","","1.3","","93","","","","31","","18","","16.1","","97.37","","","","","","Rain"
"-111.96","60.02","FORT SMITH A","2202201","2020-10-11 21:00","2020","10","11","21:00","2.3","","1.2","","92","","","","31","","22","","24.1","","97.33","","","","","","Rain"
"-111.96","60.02","FORT SMITH A","2202201","2020-10-11 22:00","2020","10","11","22:00","2.2","","1.0","","92","","","","31","","21","","24.1","","97.26","","","","","","Rain"
"-111.96","60.02","FORT SMITH A","2202201","2020-10-11 23:00","2020","10","11","23:00","2.1","","0.8","","91","","","","31","","18","","24.1","","97.23","","","","","","Rain"
"-111.96","60.02","FORT SMITH A","2202201","2020-10-12 00:00","2020","10","12","00:00","2.3","","0.8","","90","","","","31","","16","","19.3","","97.19","","","","","","Rain"
"-111.96","60.02","FORT SMITH A","2202201","2020-10-12 01:00","2020","10","12","01:00","2.4","","0.5","","87","","","","32","","21","","19.3","","97.16","","","","","","Rain"
"-111.96","60.02","FORT SMITH A","2202201","2020-10-12 02:00","2020","10","12","02:00","2.5","","0.3","","85","","","","31","","20","","24.1","","97.14","","","","","","Cloudy"
"-111.96","60.02","FORT SMITH A","2202201","2020-10-12 03:00","2020","10","12","03:00","2.3","","0.2","","86","","","","31","","15","","24.1","","97.13","","","","","","NA"
"-111.96","60.02","FORT SMITH A","2202201","2020-10-12 04:00","2020","10","12","04:00","2.2","","0.0","","85","","","","31","","18","","24.1","","97.13","","","","","","NA"
"-111.96","60.02","FORT SMITH A","2202201","2020-10-12 05:00","2020","10","12","05:00","2.2","","-0.1","","85","","","","31","","19","","24.1","","97.12","","","","","","Cloudy"
"-111.96","60.02","FORT SMITH A","2202201","2020-10-12 06:00","2020","10","12","06:00","1.9","","-0.2","","86","","","","32","","27","","16.1","","97.10","","","","","","Rain,Snow"
"-111.96","60.02","FORT SMITH A","2202201","2020-10-12 07:00","2020","10","12","07:00","1.6","","0.0","","89","","","","31","","26","","19.3","","97.09","","","","","","Rain Showers"
"-111.96","60.02","FORT SMITH A","2202201","2020-10-12 08:00","2020","10","12","08:00","1.3","","0.2","","92","","","","31","","21","","8.1","","97.05","","","","","","Rain Showers,Snow Showers"
"-111.96","60.02","FORT SMITH A","2202201","2020-10-12 09:00","2020","10","12","09:00","1.1","","-0.1","","92","","","","32","","22","","2.4","","97.04","","","","","","Rain,Snow"
"-111.96","60.02","FORT SMITH A","2202201","2020-10-12 10:00","2020","10","12","10:00","1.1","","0.0","","93","","","","31","","26","","3.2","","97.05","","","","","","Rain,Snow"
"-111.96","60.02","FORT SMITH A","2202201","2020-10-12 11:00","2020","10","12","11:00","0.9","","0.0","","94","","","","32","","23","","2.4","","97.07","","","","","","Rain,Snow"
"-111.96","60.02","FORT SMITH A","2202201","2020-10-12 12:00","2020","10","12","12:00","0.8","","-0.1","","94","","","","31","","19","","1.6","","97.12","","","","","","Snow"
"-111.96","60.02","FORT SMITH A","2202201","2020-10-12 13:00","2020","10","12","13:00","0.6","","-0.2","","94","","","","30","","31","","1.2","","97.17","","","","","","Snow"
"-111.96","60.02","FORT SMITH A","2202201","2020-10-12 14:00","2020","10","12","14:00","0.6","","-0.2","","94","","","","31","","27","","1.2","","97.23","","","","","","Snow"
"-111.96","60.02","FORT SMITH A","2202201","2020-10-12 15:00","2020","10","12","15:00","0.5","","-0.2","","95","","","","31","","23","","1.2","","97.32","","","","","","Snow"
"-111.96","60.02","FORT SMITH A","2202201","2020-10-12 16:00","2020","10","12","16:00","0.6","","-0.2","","95","","","","30","","27","","1.2","","97.39","","","","","","Snow"
"-111.96","60.02","FORT SMITH A","2202201","2020-10-12 17:00","2020","10","12","17:00","0.6","","-0.2","","94","","","","31","","24","","2.4","","97.45","","","","","","Snow"
"-111.96","60.02","FORT SMITH A","2202201","2020-10-12 18:00","2020","10","12","18:00","1.1","","-0.4","","90","","","","32","","30","","9.7","","97.50","","","","","","Snow"
"-111.96","60.02","FORT SMITH A","2202201","2020-10-12 19:00","2020","10","12","19:00","1.1","","-0.7","","87","","","","32","","30","","24.1","","97.54","","","","","","Snow"
"-111.96","60.02","FORT SMITH A","2202201","2020-10-12 20:00","2020","10","12","20:00","1.0","","-0.8","","88","","","","31","","27","","19.3","","97.61","","","","","","Snow"
"-111.96","60.02","FORT SMITH A","2202201","2020-10-12 21:00","2020","10","12","21:00","0.9","","-1.2","","86","","","","31","","24","","19.3","","97.64","","","","","","Snow"
"-111.96","60.02","FORT SMITH A","2202201","2020-10-12 22:00","2020","10","12","22:00","1.3","","-2.1","","78","","","","31","","27","","19.3","","97.68","","","","","","Snow"
"-111.96","60.02","FORT SMITH A","2202201","2020-10-12 23:00","2020","10","12","23:00","1.1","","-2.6","","77","","","","31","","26","","24.1","","97.72","","","","","","Cloudy"
"-111.96","60.02","FORT SMITH A","2202201","2020-10-13 00:00","2020","10","13","00:00","0.9","","-3.9","","70","","","","31","","30","","24.1","","97.76","","","","","","NA"
"-111.96","60.02","FORT SMITH A","2202201","2020-10-13 01:00","2020","10","13","01:00","0.4","","-2.9","","79","","","","31","","22","","24.1","","97.81","","","","","","NA"
"-111.96","60.02","FORT SMITH A","2202201","2020-10-13 02:00","2020","10","13","02:00","-0.2","","-2.0","","88","","","","30","","35","","9.7","","97.84","","","","-7","","Snow"
"-111.96","60.02","FORT SMITH A","2202201","2020-10-13 03:00","2020","10","13","03:00","-0.5","","-3.1","","83","","","","31","","32","","16.1","","97.89","","","","-7","","Snow"
"-111.96","60.02","FORT SMITH A","2202201","2020-10-13 04:00","2020","10","13","04:00","-1.0","","-2.6","","89","","","","30","","28","","9.7","","97.91","","","","-8","","Snow"
"-111.96","60.02","FORT SMITH A","2202201","2020-10-13 05:00","2020","10","13","05:00","-0.9","","-3.7","","81","","","","32","","19","","19.3","","97.94","","","","-6","","Snow"
"-111.96","60.02","FORT SMITH A","2202201","2020-10-13 06:00","2020","10","13","06:00","-1.0","","-3.6","","83","","","","31","","31","","24.1","","97.96","","","","-8","","Snow"
"-111.96","60.02","FORT SMITH A","2202201","2020-10-13 07:00","2020","10","13","07:00","-1.0","","-5.5","","72","","","","34","","21","","24.1","","97.99","","","","-7","","Snow"
"-111.96","60.02","FORT SMITH A","2202201","2020-10-13 08:00","2020","10","13","08:00","-1.3","","-5.0","","76","","","","31","","20","","24.1","","98.02","","","","-7","","Snow"
"-111.96","60.02","FORT SMITH A","2202201","2020-10-13 09:00","2020","10","13","09:00","-1.4","","-7.1","","65","","","","31","","26","","24.1","","98.02","","","","-8","","NA"
"-111.96","60.02","FORT SMITH A","2202201","2020-10-13 10:00","2020","10","13","10:00","-1.0","","-7.6","","61","","","","31","","27","","24.1","","98.03","","","","-7","","NA"
"-111.96","60.02","FORT SMITH A","2202201","2020-10-13 11:00","2020","10","13","11:00","-1.0","","-8.5","","57","","","","32","","36","","24.1","","98.02","","","","-8","","Mostly Cloudy"
"-111.96","60.02","FORT SMITH A","2202201","2020-10-13 12:00","2020","10","13","12:00","-0.9","","-7.4","","62","","","","31","","23","","24.1","","98.03","","","","-7","","NA"
"-111.96","60.02","FORT SMITH A","2202201","2020-10-13 13:00","2020","10","13","13:00","-1.0","","-8.1","","59","","","","30","","34","","24.1","","98.04","","","","-8","","NA"
"-111.96","60.02","FORT SMITH A","2202201","2020-10-13 14:00","2020","10","13","14:00","-1.2","","-8.4","","58","","","","32","","28","","24.1","","98.07","","","","-8","","Mostly Cloudy"
"-111.96","60.02","FORT SMITH A","2202201","2020-10-13 15:00","2020","10","13","15:00","-1.1","","-8.4","","57","","","","32","","21","","24.1","","98.06","","","","-7","","NA"
"-111.96","60.02","FORT SMITH A","2202201","2020-10-13 16:00","2020","10","13","16:00","-1.6","","-6.9","","67","","","","30","","26","","24.1","","98.08","","","","-8","","Snow"
"-111.96","60.02","FORT SMITH A","2202201","2020-10-13 17:00","2020","10","13","17:00","-1.8","","-7.8","","64","","","","31","","25","","24.1","","98.09","","","","-8","","Snow"
"-111.96","60.02","FORT SMITH A","2202201","2020-10-13 18:00","2020","10","13","18:00","-1.9","","-8.1","","63","","","","31","","27","","24.1","","98.11","","","","-9","","Snow"
"-111.96","60.02","FORT SMITH A","2202201","2020-10-13 19:00","2020","10","13","19:00","-2.1","","-8.0","","64","","","","30","","20","","24.1","","98.14","","","","-8","","Snow"
"-111.96","60.02","FORT SMITH A","2202201","2020-10-13 20:00","2020","10","13","20:00","-2.1","","-8.0","","64","","","","30","","23","","24.1","","98.17","","","","-8","","Snow"
"-111.96","60.02","FORT SMITH A","2202201","2020-10-13 21:00","2020","10","13","21:00","-2.7","","-7.7","","68","","","","31","","32","","19.3","","98.20","","","","-10","","Snow"
"-111.96","60.02","FORT SMITH A","2202201","2020-10-13 22:00","2020","10","13","22:00","-2.7","","-8.0","","67","","","","31","","28","","24.1","","98.21","","","","-10","","Snow"
"-111.96","60.02","FORT SMITH A","2202201","2020-10-13 23:00","2020","10","13","23:00","-2.8","","-8.3","","66","","","","30","","34","","24.1","","98.24","","","","-11","","Snow"
"-111.96","60.02","FORT SMITH A","2202201","2020-10-14 00:00","2020","10","14","00:00","-3.1","","-8.3","","67","","","","30","","36","","24.1","","98.25","","","","-11","","Snow"
"-111.96","60.02","FORT SMITH A","2202201","2020-10-14 01:00","2020","10","14","01:00","-3.3","","-8.2","","69","","","","29","","30","","24.1","","98.28","","","","-11","","Snow"
"-111.96","60.02","FORT SMITH A","2202201","2020-10-14 02:00","2020","10","14","02:00","-3.3","","-7.9","","71","","","","29","","27","","24.1","","98.29","","","","-10","","Cloudy"
"-111.96","60.02","FORT SMITH A","2202201","2020-10-14 03:00","2020","10","14","03:00","-3.5","","-7.2","","75","","","","29","","22","","24.1","","98.33","","","","-10","","NA"
"-111.96","60.02","FORT SMITH A","2202201","2020-10-14 04:00","2020","10","14","04:00","-3.2","","-8.1","","69","","","","29","","46","","16.1","","98.36","","","","-12","","Snow"
"-111.96","60.02","FORT SMITH A","2202201","2020-10-14 05:00","2020","10","14","05:00","-3.4","","-6.5","","80","","","","29","","22","","16.1","","98.40","","","","-10","","Snow"
"-111.96","60.02","FORT SMITH A","2202201","2020-10-14 06:00","2020","10","14","06:00","-4.0","","-6.4","","83","","","","28","","26","","16.1","","98.42","","","","-11","","Snow,Blowing Snow"
"-111.96","60.02","FORT SMITH A","2202201","2020-10-14 07:00","2020","10","14","07:00","-4.3","","-7.6","","78","","","","28","","31","","4.8","","98.43","","","","-12","","Snow,Blowing Snow"
"-111.96","60.02","FORT SMITH A","2202201","2020-10-14 08:00","2020","10","14","08:00","-4.8","","-8.2","","77","","","","28","","32","","24.1","","98.45","","","","-13","","Snow"
"-111.96","60.02","FORT SMITH A","2202201","2020-10-14 09:00","2020","10","14","09:00","-4.3","","-7.9","","76","","","","28","","34","","24.1","","98.48","","","","-13","","Snow Showers"
"-111.96","60.02","FORT SMITH A","2202201","2020-10-14 10:00","2020","10","14","10:00","-4.3","","-7.8","","76","","","","28","","35","","16.1","","98.52","","","","-13","","Snow Showers,Blowing Snow"
"-111.96","60.02","FORT SMITH A","2202201","2020-10-14 11:00","2020","10","14","11:00","-4.0","","-7.5","","76","","","","28","","31","","4.8","","98.54","","","","-12","","Snow Showers,Blowing Snow"
"-111.96","60.02","FORT SMITH A","2202201","2020-10-14 12:00","2020","10","14","12:00","-3.7","","-7.6","","74","","","","29","","38","","4.8","","98.60","","","","-12","","Snow Showers,Blowing Snow"
"-111.96","60.02","FORT SMITH A","2202201","2020-10-14 13:00","2020","10","14","13:00","-3.6","","-7.3","","76","","","","29","","30","","2.4","","98.66","","","","-11","","Snow Showers,Blowing Snow"
"-111.96","60.02","FORT SMITH A","2202201","2020-10-14 14:00","2020","10","14","14:00","-3.6","","-7.8","","73","","","","29","","38","","9.7","","98.71","","","","-12","","Snow Showers,Blowing Snow"
"-111.96","60.02","FORT SMITH A","2202201","2020-10-14 15:00","2020","10","14","15:00","-3.3","","-8.5","","68","","","","29","","38","","19.3","","98.77","","","","-12","","Snow Showers,Blowing Snow"
"-111.96","60.02","FORT SMITH A","2202201","2020-10-14 16:00","2020","10","14","16:00","-4.0","","-7.6","","76","","","","28","","23","","12.9","","98.82","","","","-11","","Snow Showers,Blowing Snow"
"-111.96","60.02","FORT SMITH A","2202201","2020-10-14 17:00","2020","10","14","17:00","-4.2","","-7.9","","75","","","","28","","30","","19.3","","98.87","","","","-12","","Snow Showers,Blowing Snow"
"-111.96","60.02","FORT SMITH A","2202201","2020-10-14 18:00","2020","10","14","18:00","-4.4","","-7.5","","79","","","","28","","28","","19.3","","98.90","","","","-12","","Snow Showers,Blowing Snow"
"-111.96","60.02","FORT SMITH A","2202201","2020-10-14 19:00","2020","10","14","19:00","-4.5","","-7.6","","79","","","","27","","22","","16.1","","98.92","","","","-11","","Snow Showers,Blowing Snow"
"-111.96","60.02","FORT SMITH A","2202201","2020-10-14 20:00","2020","10","14","20:00","-4.1","","-8.9","","69","","","","29","","36","","19.3","","98.94","","","","-12","","Snow,Blowing Snow"
"-111.96","60.02","FORT SMITH A","2202201","2020-10-14 21:00","2020","10","14","21:00","-4.4","","-8.7","","72","","","","29","","25","","24.1","","98.96","","","","-12","","Snow,Blowing Snow"
"-111.96","60.02","FORT SMITH A","2202201","2020-10-14 22:00","2020","10","14","22:00","-4.5","","-9.4","","69","","","","28","","35","","24.1","","98.98","","","","-13","","Snow,Blowing Snow"
"-111.96","60.02","FORT SMITH A","2202201","2020-10-14 23:00","2020","10","14","23:00","-4.8","","-8.9","","73","","","","27","","28","","24.1","","99.01","","","","-12","","Snow,Blowing Snow"
"-111.96","60.02","FORT SMITH A","2202201","2020-10-15 00:00","2020","10","15","00:00","-4.8","","-9.0","","72","","","","28","","28","","19.3","","99.02","","","","-12","","Snow"
"-111.96","60.02","FORT SMITH A","2202201","2020-10-15 01:00","2020","10","15","01:00","-4.7","","-8.8","","73","","","","29","","35","","19.3","","99.04","","","","-13","","Snow,Blowing Snow"
"-111.96","60.02","FORT SMITH A","2202201","2020-10-15 02:00","2020","10","15","02:00","-5.4","","-8.3","","80","","","","27","","29","","19.3","","99.07","","","","-13","","Snow,Blowing Snow"
"-111.96","60.02","FORT SMITH A","2202201","2020-10-15 03:00","2020","10","15","03:00","-5.6","","-8.1","","83","","","","27","","31","","12.9","","99.10","","","","-14","","Snow,Blowing Snow"
"-111.96","60.02","FORT SMITH A","2202201","2020-10-15 04:00","2020","10","15","04:00","-5.8","","-9.0","","78","","","","27","","39","","9.7","","99.10","","","","-15","","Snow,Blowing Snow"
"-111.96","60.02","FORT SMITH A","2202201","2020-10-15 05:00","2020","10","15","05:00","-6.0","","-9.2","","78","","","","28","","35","","9.7","","99.12","","","","-15","","Snow,Blowing Snow"
"-111.96","60.02","FORT SMITH A","2202201","2020-10-15 06:00","2020","10","15","06:00","-6.2","","-8.9","","82","","","","27","","31","","4.0","","99.12","","","","-15","","Snow,Blowing Snow"
"-111.96","60.02","FORT SMITH A","2202201","2020-10-15 07:00","2020","10","15","07:00","-6.2","","-9.0","","81","","","","28","","33","","3.2","","99.14","","","","-15","","Snow,Blowing Snow"
"-111.96","60.02","FORT SMITH A","2202201","2020-10-15 08:00","2020","10","15","08:00","-6.1","","-8.9","","80","","","","28","","31","","4.0","","99.15","","","","-15","","Snow,Blowing Snow"
"-111.96","60.02","FORT SMITH A","2202201","2020-10-15 09:00","2020","10","15","09:00","-5.7","","-8.7","","79","","","","27","","36","","3.2","","99.17","","","","-15","","Snow,Blowing Snow"
"-111.96","60.02","FORT SMITH A","2202201","2020-10-15 10:00","2020","10","15","10:00","-5.3","","-8.5","","78","","","","28","","32","","4.0","","99.19","","","","-14","","Snow,Blowing Snow"
"-111.96","60.02","FORT SMITH A","2202201","2020-10-15 11:00","2020","10","15","11:00","-4.2","","-8.3","","73","","","","28","","43","","9.7","","99.22","","","","-13","","Snow,Blowing Snow"
"-111.96","60.02","FORT SMITH A","2202201","2020-10-15 12:00","2020","10","15","12:00","-4.1","","-8.2","","73","","","","29","","39","","16.1","","99.25","","","","-13","","Snow,Blowing Snow"
"-111.96","60.02","FORT SMITH A","2202201","2020-10-15 13:00","2020","10","15","13:00","-3.5","","-8.0","","71","","","","28","","35","","19.3","","99.30","","","","-12","","Snow"
"-111.96","60.02","FORT SMITH A","2202201","2020-10-15 14:00","2020","10","15","14:00","-3.8","","-7.8","","74","","","","28","","39","","12.9","","99.32","","","","-12","","Snow,Blowing Snow"
"-111.96","60.02","FORT SMITH A","2202201","2020-10-15 15:00","2020","10","15","15:00","-3.6","","-7.5","","75","","","","28","","31","","16.1","","99.35","","","","-11","","Snow,Blowing Snow"
"-111.96","60.02","FORT SMITH A","2202201","2020-10-15 16:00","2020","10","15","16:00","-3.8","","-7.8","","74","","","","28","","42","","16.1","","99.35","","","","-13","","Snow,Blowing Snow"
"-111.96","60.02","FORT SMITH A","2202201","2020-10-15 17:00","2020","10","15","17:00","-3.9","","-7.5","","76","","","","29","","30","","19.3","","99.34","","","","-12","","Snow,Blowing Snow"
"-111.96","60.02","FORT SMITH A","2202201","2020-10-15 18:00","2020","10","15","18:00","-4.3","","-7.3","","80","","","","28","","31","","24.1","","99.31","","","","-12","","Snow"
"-111.96","60.02","FORT SMITH A","2202201","2020-10-15 19:00","2020","10","15","19:00","-4.3","","-7.5","","78","","","","29","","24","","24.1","","99.26","","","","-11","","Snow"
"-111.96","60.02","FORT SMITH A","2202201","2020-10-15 20:00","2020","10","15","20:00","-4.1","","-7.3","","78","","","","29","","27","","16.1","","99.21","","","","-11","","Snow"
"-111.96","60.02","FORT SMITH A","2202201","2020-10-15 21:00","2020","10","15","21:00","-4.3","","-7.6","","78","","","","29","","27","","19.3","","99.17","","","","-12","","Snow"
"-111.96","60.02","FORT SMITH A","2202201","2020-10-15 22:00","2020","10","15","22:00","-4.4","","-8.2","","75","","","","29","","30","","24.1","","99.14","","","","-12","","Snow"
"-111.96","60.02","FORT SMITH A","2202201","2020-10-15 23:00","2020","10","15","23:00","-4.8","","-8.2","","77","","","","28","","23","","24.1","","99.08","","","","-12","","Snow"
"-111.96","60.02","FORT SMITH A","2202201","2020-10-16 00:00","2020","10","16","00:00","-5.3","","-8.3","","79","","","","28","","20","","24.1","","99.03","","","","-12","","Snow"
"-111.96","60.02","FORT SMITH A","2202201","2020-10-16 01:00","2020","10","16","01:00","-4.8","","-7.5","","81","","","","28","","25","","24.1","","98.99","","","","-12","","Snow"
"-111.96","60.02","FORT SMITH A","2202201","2020-10-16 02:00","2020","10","16","02:00","-4.7","","-7.4","","82","","","","29","","25","","24.1","","98.95","","","","-12","","Snow"
"-111.96","60.02","FORT SMITH A","2202201","2020-10-16 03:00","2020","10","16","03:00","-4.5","","-7.5","","79","","","","28","","30","","24.1","","98.90","","","","-12","","Snow"
"-111.96","60.02","FORT SMITH A","2202201","2020-10-16 04:00","2020","10","16","04:00","-4.6","","-7.5","","80","","","","28","","22","","24.1","","98.85","","","","-11","","Snow"
"-111.96","60.02","FORT SMITH A","2202201","2020-10-16 05:00","2020","10","16","05:00","-4.9","","-7.7","","81","","","","29","","28","","24.1","","98.83","","","","-13","","Snow"
"-111.96","60.02","FORT SMITH A","2202201","2020-10-16 06:00","2020","10","16","06:00","-5.3","","-7.3","","86","","","","28","","20","","24.1","","98.83","","","","-12","","Snow"
"-111.96","60.02","FORT SMITH A","2202201","2020-10-16 07:00","2020","10","16","07:00","-5.3","","-6.7","","90","","","","29","","24","","3.2","","98.79","","","","-13","","Freezing Drizzle,Snow,Blowing Snow"
"-111.96","60.02","FORT SMITH A","2202201","2020-10-16 08:00","2020","10","16","08:00","-5.0","","-6.2","","91","","","","28","","32","","4.0","","98.76","","","","-13","","Freezing Drizzle,Snow,Blowing Snow"
"-111.96","60.02","FORT SMITH A","2202201","2020-10-16 09:00","2020","10","16","09:00","-4.6","","-5.9","","91","","","","29","","26","","4.0","","98.73","","","","-12","","Freezing Drizzle,Snow,Blowing Snow"
"-111.96","60.02","FORT SMITH A","2202201","2020-10-16 10:00","2020","10","16","10:00","-4.0","","-5.7","","88","","","","29","","29","","6.4","","98.72","","","","-12","","Snow,Blowing Snow"
"-111.96","60.02","FORT SMITH A","2202201","2020-10-16 11:00","2020","10","16","11:00","-2.9","","-5.0","","86","","","","29","","21","","9.7","","98.72","","","","-9","","Snow,Blowing Snow"
"-111.96","60.02","FORT SMITH A","2202201","2020-10-16 12:00","2020","10","16","12:00","-2.4","","-4.7","","84","","","","29","","28","","2.4","","98.74","","","","-9","","Snow,Blowing Snow"
"-111.96","60.02","FORT SMITH A","2202201","2020-10-16 13:00","2020","10","16","13:00","-1.9","","-3.5","","88","","","","29","","23","","1.0","","98.74","","","","-8","","Snow,Blowing Snow"
"-111.96","60.02","FORT SMITH A","2202201","2020-10-16 14:00","2020","10","16","14:00","-1.9","","-3.7","","88","","","","29","","32","","1.6","","98.80","","","","-9","","Snow,Blowing Snow"
"-111.96","60.02","FORT SMITH A","2202201","2020-10-16 15:00","2020","10","16","15:00","-2.5","","-3.6","","92","","","","31","","20","","0.8","","98.87","","","","-8","","Snow Showers,Blowing Snow"
"-111.96","60.02","FORT SMITH A","2202201","2020-10-16 16:00","2020","10","16","16:00","-2.4","","-4.4","","86","","","","30","","25","","3.2","","98.91","","","","-9","","Snow Showers,Blowing Snow"
"-111.96","60.02","FORT SMITH A","2202201","2020-10-16 17:00","2020","10","16","17:00","-2.7","","-4.5","","87","","","","30","","30","","2.4","","98.97","","","","-10","","Snow Showers,Blowing Snow"
"-111.96","60.02","FORT SMITH A","2202201","2020-10-16 18:00","2020","10","16","18:00","-2.9","","-4.6","","88","","","","30","","26","","1.2","","99.00","","","","-10","","Snow Showers,Blowing Snow"
"-111.96","60.02","FORT SMITH A","2202201","2020-10-16 19:00","2020","10","16","19:00","-3.0","","-4.6","","89","","","","30","","21","","1.2","","99.03","","","","-9","","Snow Showers,Blowing Snow"
"-111.96","60.02","FORT SMITH A","2202201","2020-10-16 20:00","2020","10","16","20:00","-3.2","","-4.4","","92","","","","32","","10","","0.6","","99.07","","","","-7","","Moderate Snow Showers,Blowing Snow"
"-111.96","60.02","FORT SMITH A","2202201","2020-10-16 21:00","2020","10","16","21:00","-3.2","","-4.5","","90","","","","31","","19","","3.6","","99.07","","","","-9","","Snow Showers"
"-111.96","60.02","FORT SMITH A","2202201","2020-10-16 22:00","2020","10","16","22:00","-3.2","","-4.6","","90","","","","30","","14","","2.0","","99.09","","","","-8","","Snow Showers"
"-111.96","60.02","FORT SMITH A","2202201","2020-10-16 23:00","2020","10","16","23:00","-3.4","","-5.2","","88","","","","31","","14","","8.1","","99.12","","","","-8","","Snow,Blowing Snow"
"-111.96","60.02","FORT SMITH A","2202201","2020-10-17 00:00","2020","10","17","00:00","-3.4","","-5.2","","88","","","","32","","19","","9.7","","99.15","","","","-9","","Snow"
"-111.96","60.02","FORT SMITH A","2202201","2020-10-17 01:00","2020","10","17","01:00","-3.5","","-5.4","","87","","","","32","","15","","9.7","","99.20","","","","-9","","Snow"
"-111.96","60.02","FORT SMITH A","2202201","2020-10-17 02:00","2020","10","17","02:00","-3.5","","-5.1","","89","","","","30","","18","","6.4","","99.25","","","","-9","","Snow"
"-111.96","60.02","FORT SMITH A","2202201","2020-10-17 03:00","2020","10","17","03:00","-3.6","","-5.2","","89","","","","31","","17","","8.1","","99.30","","","","-9","","Snow"
"-111.96","60.02","FORT SMITH A","2202201","2020-10-17 04:00","2020","10","17","04:00","-3.7","","-5.3","","89","","","","31","","16","","8.1","","99.31","","","","-9","","Snow"
"-111.96","60.02","FORT SMITH A","2202201","2020-10-17 05:00","2020","10","17","05:00","-3.8","","-5.4","","89","","","","31","","16","","8.1","","99.36","","","","-9","","Snow"
"-111.96","60.02","FORT SMITH A","2202201","2020-10-17 06:00","2020","10","17","06:00","-3.8","","-5.3","","89","","","","30","","18","","8.1","","99.39","","","","-10","","Snow"
"-111.96","60.02","FORT SMITH A","2202201","2020-10-17 07:00","2020","10","17","07:00","-3.7","","-5.0","","91","","","","30","","15","","1.0","","99.41","","","","-9","","Snow"
"-111.96","60.02","FORT SMITH A","2202201","2020-10-17 08:00","2020","10","17","08:00","-3.7","","-5.3","","89","","","","31","","16","","1.2","","99.45","","","","-9","","Snow"
"-111.96","60.02","FORT SMITH A","2202201","2020-10-17 09:00","2020","10","17","09:00","-3.5","","-5.3","","87","","","","30","","18","","3.2","","99.48","","","","-9","","Snow"
"-111.96","60.02","FORT SMITH A","2202201","2020-10-17 10:00","2020","10","17","10:00","-3.2","","-5.3","","85","","","","32","","18","","3.2","","99.53","","","","-9","","Snow"
"-111.96","60.02","FORT SMITH A","2202201","2020-10-17 11:00","2020","10","17","11:00","-2.9","","-4.8","","87","","","","33","","12","","1.6","","99.58","","","","-7","","Snow"
"-111.96","60.02","FORT SMITH A","2202201","2020-10-17 12:00","2020","10","17","12:00","-2.7","","-4.8","","85","","","","31","","10","","3.2","","99.63","","","","-7","","Snow"
"-111.96","60.02","FORT SMITH A","2202201","2020-10-17 13:00","2020","10","17","13:00","-2.7","","-5.4","","81","","","","32","","20","","4.0","","99.67","","","","-9","","Snow"
"-111.96","60.02","FORT SMITH A","2202201","2020-10-17 14:00","2020","10","17","14:00","-2.5","","-4.8","","84","","","","30","","13","","3.2","","99.70","","","","-7","","Snow"
"-111.96","60.02","FORT SMITH A","2202201","2020-10-17 15:00","2020","10","17","15:00","-2.7","","-4.0","","91","","","","32","","11","","1.0","","99.73","","","","-7","","Snow"
"-111.96","60.02","FORT SMITH A","2202201","2020-10-17 16:00","2020","10","17","16:00","-2.5","","-3.8","","91","","","","33","","10","","1.0","","99.77","","","","-6","","Snow"
"-111.96","60.02","FORT SMITH A","2202201","2020-10-17 17:00","2020","10","17","17:00","-2.7","","-3.9","","91","","","","33","","9","","1.0","","99.80","","","","-6","","Snow"
"-111.96","60.02","FORT SMITH A","2202201","2020-10-17 18:00","2020","10","17","18:00","-2.6","","-3.7","","92","","","","32","","10","","0.8","","99.83","","","","-6","","Moderate Snow"
"-111.96","60.02","FORT SMITH A","2202201","2020-10-17 19:00","2020","10","17","19:00","-3.0","","-3.9","","93","","","","29","","12","","3.2","","99.83","","","","-7","","Snow"
"-111.96","60.02","FORT SMITH A","2202201","2020-10-17 20:00","2020","10","17","20:00","-3.4","","-4.5","","92","","","","29","","17","","2.4","","99.84","","","","-9","","Snow"
"-111.96","60.02","FORT SMITH A","2202201","2020-10-17 21:00","2020","10","17","21:00","-3.6","","-4.7","","93","","","","28","","16","","1.2","","99.84","","","","-9","","Snow"
"-111.96","60.02","FORT SMITH A","2202201","2020-10-17 22:00","2020","10","17","22:00","-3.8","","-4.8","","92","","","","28","","14","","4.8","","99.84","","","","-9","","Snow"
"-111.96","60.02","FORT SMITH A","2202201","2020-10-17 23:00","2020","10","17","23:00","-3.8","","-4.8","","93","","","","28","","14","","0.8","","99.86","","","","-9","","Moderate Snow"
"-111.96","60.02","FORT SMITH A","2202201","2020-10-18 00:00","2020","10","18","00:00","-3.7","","-4.7","","92","","","","29","","16","","2.4","","99.85","","","","-9","","Snow"
"-111.96","60.02","FORT SMITH A","2202201","2020-10-18 01:00","2020","10","18","01:00","-3.6","","-4.6","","93","","","","29","","13","","4.8","","99.84","","","","-8","","Snow"
"-111.96","60.02","FORT SMITH A","2202201","2020-10-18 02:00","2020","10","18","02:00","-3.4","","-4.3","","93","","","","29","","14","","8.1","","99.85","","","","-8","","Snow"
"-111.96","60.02","FORT SMITH A","2202201","2020-10-18 03:00","2020","10","18","03:00","-3.2","","-4.2","","93","","","","30","","13","","8.1","","99.85","","","","-8","","Snow"
"-111.96","60.02","FORT SMITH A","2202201","2020-10-18 04:00","2020","10","18","04:00","-3.4","","-4.2","","94","","","","29","","13","","4.8","","99.84","","","","-8","","Snow"
"-111.96","60.02","FORT SMITH A","2202201","2020-10-18 05:00","2020","10","18","05:00","-3.2","","-4.1","","93","","","","29","","15","","4.0","","99.82","","","","-8","","Snow"
"-111.96","60.02","FORT SMITH A","2202201","2020-10-18 06:00","2020","10","18","06:00","-3.4","","-4.5","","93","","","","29","","14","","6.4","","99.82","","","","-8","","Snow"
"-111.96","60.02","FORT SMITH A","2202201","2020-10-18 07:00","2020","10","18","07:00","-3.6","","-4.6","","92","","","","29","","13","","4.8","","99.82","","","","-8","","Snow"
"-111.96","60.02","FORT SMITH A","2202201","2020-10-18 08:00","2020","10","18","08:00","-3.4","","-4.6","","92","","","","30","","16","","4.8","","99.81","","","","-9","","Snow"
"-111.96","60.02","FORT SMITH A","2202201","2020-10-18 09:00","2020","10","18","09:00","-3.5","","-4.8","","91","","","","29","","19","","4.8","","99.82","","","","-9","","Snow"
"-111.96","60.02","FORT SMITH A","2202201","2020-10-18 10:00","2020","10","18","10:00","-3.3","","-4.7","","90","","","","29","","17","","3.2","","99.82","","","","-9","","Snow"
"-111.96","60.02","FORT SMITH A","2202201","2020-10-18 11:00","2020","10","18","11:00","-3.2","","-4.8","","89","","","","29","","15","","0.8","","99.79","","","","-8","","Moderate Snow"
"-111.96","60.02","FORT SMITH A","2202201","2020-10-18 12:00","2020","10","18","12:00","-3.0","","-4.6","","88","","","","29","","18","","3.2","","99.79","","","","-9","","Snow"
"-111.96","60.02","FORT SMITH A","2202201","2020-10-18 13:00","2020","10","18","13:00","-2.7","","-4.6","","87","","","","30","","15","","3.2","","99.77","","","","-8","","Snow"
"-111.96","60.02","FORT SMITH A","2202201","2020-10-18 14:00","2020","10","18","14:00","-2.7","","-4.1","","90","","","","30","","14","","3.2","","99.74","","","","-8","","Snow"
"-111.96","60.02","FORT SMITH A","2202201","2020-10-18 15:00","2020","10","18","15:00","-2.7","","-3.9","","92","","","","29","","14","","1.6","","99.72","","","","-8","","Snow"
"-111.96","60.02","FORT SMITH A","2202201","2020-10-18 16:00","2020","10","18","16:00","-2.7","","-3.9","","91","","","","29","","17","","4.8","","99.70","","","","-8","","Snow"
"-111.96","60.02","FORT SMITH A","2202201","2020-10-18 17:00","2020","10","18","17:00","-3.2","","-4.2","","93","","","","28","","16","","3.2","","99.70","","","","-9","","Snow,Fog"
"-111.96","60.02","FORT SMITH A","2202201","2020-10-18 18:00","2020","10","18","18:00","-3.6","","-5.0","","90","","","","28","","12","","12.9","","99.65","","","","-8","","Snow"
"-111.96","60.02","FORT SMITH A","2202201","2020-10-18 19:00","2020","10","18","19:00","-3.6","","-5.0","","91","","","","29","","9","","24.1","","99.63","","","","-7","","Snow"
"-111.96","60.02","FORT SMITH A","2202201","2020-10-18 20:00","2020","10","18","20:00","-3.8","","-5.7","","87","","","","28","","9","","24.1","","99.60","","","","-8","","Snow"
"-111.96","60.02","FORT SMITH A","2202201","2020-10-18 21:00","2020","10","18","21:00","-4.3","","-5.6","","91","","","","25","","7","","24.1","","99.58","","","","-7","","NA"
"-111.96","60.02","FORT SMITH A","2202201","2020-10-18 22:00","2020","10","18","22:00","-5.4","","-6.5","","91","","","","23","","5","","24.1","","99.54","","","","-8","","NA"
"-111.96","60.02","FORT SMITH A","2202201","2020-10-18 23:00","2020","10","18","23:00","-5.5","","-6.6","","92","","","","18","","4","","24.1","","99.52","","","","-7","","Cloudy"
"-111.96","60.02","FORT SMITH A","2202201","2020-10-19 00:00","2020","10","19","00:00","-5.8","","-7.2","","90","","","","19","","4","","24.1","","99.49","","","","-8","","NA"
"-111.96","60.02","FORT SMITH A","2202201","2020-10-19 01:00","2020","10","19","01:00","-6.4","","-7.6","","91","","","","16","","4","","24.1","","99.47","","","","-8","","NA"
"-111.96","60.02","FORT SMITH A","2202201","2020-10-19 02:00","2020","10","19","02:00","-7.0","","-7.9","","93","","","","15","","5","","24.1","","99.44","","","","-10","","Cloudy"
"-111.96","60.02","FORT SMITH A","2202201","2020-10-19 03:00","2020","10","19","03:00","-6.9","","-8.1","","91","","","","36","","2","","24.1","","99.41","","","","-8","","NA"
"-111.96","60.02","FORT SMITH A","2202201","2020-10-19 04:00","2020","10","19","04:00","-7.3","","-8.6","","91","","","","16","","9","","24.1","","99.35","","","","-12","","NA"
"-111.96","60.02","FORT SMITH A","2202201","2020-10-19 05:00","2020","10","19","05:00","-7.4","","-9.2","","87","","","","15","","8","","24.1","","99.32","","","","-11","","Cloudy"
"-111.96","60.02","FORT SMITH A","2202201","2020-10-19 06:00","2020","10","19","06:00","-7.6","","-9.6","","86","","","","16","","7","","24.1","","99.28","","","","-11","","NA"
"-111.96","60.02","FORT SMITH A","2202201","2020-10-19 07:00","2020","10","19","07:00","-8.6","","-9.7","","92","","","","21","","4","","24.1","","99.27","","","","-11","","NA"
"-111.96","60.02","FORT SMITH A","2202201","2020-10-19 08:00","2020","10","19","08:00","-11.3","","-12.6","","91","","","","15","","9","","24.1","","99.24","","","","-16","","Mostly Cloudy"
"-111.96","60.02","FORT SMITH A","2202201","2020-10-19 09:00","2020","10","19","09:00","-9.0","","-10.3","","90","","","","15","","4","","24.1","","99.23","","","","-11","","NA"
"-111.96","60.02","FORT SMITH A","2202201","2020-10-19 10:00","2020","10","19","10:00","-6.5","","-8.2","","88","","","","15","","8","","24.1","","99.22","","","","-10","","NA"
"-111.96","60.02","FORT SMITH A","2202201","2020-10-19 11:00","2020","10","19","11:00","-5.1","","-7.8","","81","","","","17","","8","","24.1","","99.20","","","","-9","","Mostly Cloudy"
"-111.96","60.02","FORT SMITH A","2202201","2020-10-19 12:00","2020","10","19","12:00","-4.4","","-8.4","","74","","","","15","","11","","24.1","","99.15","","","","-9","","NA"
"-111.96","60.02","FORT SMITH A","2202201","2020-10-19 13:00","2020","10","19","13:00","-3.6","","-7.8","","73","","","","15","","10","","24.1","","99.11","","","","-8","","NA"
"-111.96","60.02","FORT SMITH A","2202201","2020-10-19 14:00","2020","10","19","14:00","-3.0","","-7.3","","72","","","","14","","11","","24.1","","99.08","","","","-7","","Mainly Clear"
"-111.96","60.02","FORT SMITH A","2202201","2020-10-19 15:00","2020","10","19","15:00","-3.0","","-8.5","","66","","","","15","","14","","24.1","","99.07","","","","-8","","NA"
"-111.96","60.02","FORT SMITH A","2202201","2020-10-19 16:00","2020","10","19","16:00","-3.3","","-7.5","","73","","","","14","","13","","24.1","","99.07","","","","-8","","NA"
"-111.96","60.02","FORT SMITH A","2202201","2020-10-19 17:00","2020","10","19","17:00","-4.3","","-7.4","","79","","","","12","","8","","24.1","","99.06","","","","-8","","Mainly Clear"
"-111.96","60.02","FORT SMITH A","2202201","2020-10-19 18:00","2020","10","19","18:00","-5.2","","-8.4","","79","","","","14","","11","","24.1","","99.07","","","","-10","","NA"
"-111.96","60.02","FORT SMITH A","2202201","2020-10-19 19:00","2020","10","19","19:00","-7.2","","-9.2","","86","","","","15","","10","","24.1","","99.08","","","","-12","","NA"
"-111.96","60.02","FORT SMITH A","2202201","2020-10-19 20:00","2020","10","19","20:00","-7.3","","-8.9","","88","","","","16","","12","","24.1","","99.09","","","","-13","","Clear"
"-111.96","60.02","FORT SMITH A","2202201","2020-10-19 21:00","2020","10","19","21:00","-10.2","","-11.7","","89","","","","15","","6","","24.1","","99.10","","","","-14","","NA"
"-111.96","60.02","FORT SMITH A","2202201","2020-10-19 22:00","2020","10","19","22:00","-11.5","","-12.6","","91","","","","16","","4","","24.1","","99.10","","","","-14","","NA"
"-111.96","60.02","FORT SMITH A","2202201","2020-10-19 23:00","2020","10","19","23:00","-12.6","","-14.1","","89","","","","15","","4","","24.1","","99.11","","","","-15","","Clear"
"-111.96","60.02","FORT SMITH A","2202201","2020-10-20 00:00","2020","10","20","00:00","-13.1","","-14.8","","87","","","","36","","1","","24.1","","99.10","","","","-14","","NA"
"-111.96","60.02","FORT SMITH A","2202201","2020-10-20 01:00","2020","10","20","01:00","-14.3","","-16.2","","86","","","","36","","3","","24.1","","99.11","","","","-16","","NA"
"-111.96","60.02","FORT SMITH A","2202201","2020-10-20 02:00","2020","10","20","02:00","-15.4","","-17.4","","85","","","","15","","7","","24.1","","99.12","","","","-20","","Clear"
"-111.96","60.02","FORT SMITH A","2202201","2020-10-20 03:00","2020","10","20","03:00","-14.7","","-16.5","","86","","","","15","","4","","24.1","","99.13","","","","-18","","NA"
"-111.96","60.02","FORT SMITH A","2202201","2020-10-20 04:00","2020","10","20","04:00","-14.9","","-16.8","","85","","","","15","","5","","24.1","","99.13","","","","-18","","NA"
"-111.96","60.02","FORT SMITH A","2202201","2020-10-20 05:00","2020","10","20","05:00","-11.4","","-13.0","","88","","","","16","","4","","24.1","","99.15","","","","-14","","Cloudy"
"-111.96","60.02","FORT SMITH A","2202201","2020-10-20 06:00","2020","10","20","06:00","-11.0","","-12.7","","88","","","","15","","7","","24.1","","99.15","","","","-15","","NA"
"-111.96","60.02","FORT SMITH A","2202201","2020-10-20 07:00","2020","10","20","07:00","-10.4","","-11.9","","88","","","","36","","3","","24.1","","99.16","","","","-12","","NA"
"-111.96","60.02","FORT SMITH A","2202201","2020-10-20 08:00","2020","10","20","08:00","-10.1","","-11.7","","88","","","","15","","3","","24.1","","99.19","","","","-12","","Mostly Cloudy"
"-111.96","60.02","FORT SMITH A","2202201","2020-10-20 09:00","2020","10","20","09:00","-9.2","","-10.9","","87","","","","36","","2","","24.1","","99.17","","","","-10","","Snow"
"-111.96","60.02","FORT SMITH A","2202201","2020-10-20 10:00","2020","10","20","10:00","-7.7","","-10.2","","82","","","","14","","5","","24.1","","99.16","","","","-10","","Snow"
"-111.96","60.02","FORT SMITH A","2202201","2020-10-20 11:00","2020","10","20","11:00","-6.3","","-8.8","","83","","","","30","","7","","24.1","","99.17","","","","-10","","Snow"
"-111.96","60.02","FORT SMITH A","2202201","2020-10-20 12:00","2020","10","20","12:00","-5.1","","-8.4","","78","","","","16","","3","","24.1","","99.20","","","","-6","","NA"
"-111.96","60.02","FORT SMITH A","2202201","2020-10-20 13:00","2020","10","20","13:00","-4.3","","-8.3","","74","","","","18","","7","","24.1","","99.21","","","","-7","","NA"
"-111.96","60.02","FORT SMITH A","2202201","2020-10-20 14:00","2020","10","20","14:00","-3.8","","-8.2","","71","","","","36","","1","","24.1","","99.22","","","","-4","","Cloudy"
"-111.96","60.02","FORT SMITH A","2202201","2020-10-20 15:00","2020","10","20","15:00","-3.7","","-8.3","","71","","","","17","","3","","24.1","","99.24","","","","-5","","NA"
"-111.96","60.02","FORT SMITH A","2202201","2020-10-20 16:00","2020","10","20","16:00","-4.1","","-7.9","","75","","","","15","","5","","24.1","","99.24","","","","-6","","NA"
"-111.96","60.02","FORT SMITH A","2202201","2020-10-20 17:00","2020","10","20","17:00","-4.5","","-6.9","","83","","","","16","","4","","24.1","","99.27","","","","-6","","Cloudy"
"-111.96","60.02","FORT SMITH A","2202201","2020-10-20 18:00","2020","10","20","18:00","-4.8","","-7.3","","83","","","","17","","8","","24.1","","99.29","","","","-8","","NA"
"-111.96","60.02","FORT SMITH A","2202201","2020-10-20 19:00","2020","10","20","19:00","-5.7","","-7.4","","87","","","","22","","7","","24.1","","99.32","","","","-9","","NA"
"-111.96","60.02","FORT SMITH A","2202201","2020-10-20 20:00","2020","10","20","20:00","-5.8","","-7.6","","87","","","","36","","3","","24.1","","99.35","","","","-7","","Cloudy"
"-111.96","60.02","FORT SMITH A","2202201","2020-10-20 21:00","2020","10","20","21:00","-6.3","","-7.7","","90","","","","16","","3","","24.1","","99.37","","","","-8","","NA"
"-111.96","60.02","FORT SMITH A","2202201","2020-10-20 22:00","2020","10","20","22:00","-6.6","","-7.8","","91","","","","18","","3","","24.1","","99.38","","","","-8","","NA"
"-111.96","60.02","FORT SMITH A","2202201","2020-10-20 23:00","2020","10","20","23:00","-6.4","","-7.7","","91","","","","36","","1","","24.1","","99.42","","","","-7","","Snow"
"-111.96","60.02","FORT SMITH A","2202201","2020-10-21 00:00","2020","10","21","00:00","-7.1","","-8.2","","92","","","","36","","1","","24.1","","99.46","","","","-8","","Snow"
"-111.96","60.02","FORT SMITH A","2202201","2020-10-21 01:00","2020","10","21","01:00","-7.5","","-8.6","","92","","","","36","","1","","24.1","","99.50","","","","-8","","Snow"
"-111.96","60.02","FORT SMITH A","2202201","2020-10-21 02:00","2020","10","21","02:00","-5.7","","-7.0","","90","","","","30","","8","","24.1","","99.54","","","","-9","","Snow"
"-111.96","60.02","FORT SMITH A","2202201","2020-10-21 03:00","2020","10","21","03:00","-5.4","","-7.0","","89","","","","31","","5","","24.1","","99.58","","","","-8","","Snow"
"-111.96","60.02","FORT SMITH A","2202201","2020-10-21 04:00","2020","10","21","04:00","-5.9","","-7.1","","91","","","","30","","8","","24.1","","99.62","","","","-10","","Snow"
"-111.96","60.02","FORT SMITH A","2202201","2020-10-21 05:00","2020","10","21","05:00","-5.2","","-6.2","","93","","","","28","","10","","19.3","","99.64","","","","-10","","Snow"
"-111.96","60.02","FORT SMITH A","2202201","2020-10-21 06:00","2020","10","21","06:00","-4.6","","-5.8","","92","","","","30","","11","","9.7","","99.68","","","","-9","","Snow"
"-111.96","60.02","FORT SMITH A","2202201","2020-10-21 07:00","2020","10","21","07:00","-4.5","","-5.8","","91","","","","30","","16","","19.3","","99.73","","","","-10","","Snow"
"-111.96","60.02","FORT SMITH A","2202201","2020-10-21 08:00","2020","10","21","08:00","-4.7","","-6.2","","89","","","","29","","15","","19.3","","99.78","","","","-10","","Snow"
"-111.96","60.02","FORT SMITH A","2202201","2020-10-21 09:00","2020","10","21","09:00","-4.7","","-6.7","","86","","","","29","","16","","9.7","","99.83","","","","-10","","Snow"
"-111.96","60.02","FORT SMITH A","2202201","2020-10-21 10:00","2020","10","21","10:00","-4.6","","-6.4","","87","","","","30","","20","","4.0","","99.86","","","","-11","","Snow,Blowing Snow"
"-111.96","60.02","FORT SMITH A","2202201","2020-10-21 11:00","2020","10","21","11:00","-4.0","","-6.3","","84","","","","34","","13","","4.0","","99.92","","","","-9","","Snow,Blowing Snow"
"-111.96","60.02","FORT SMITH A","2202201","2020-10-21 12:00","2020","10","21","12:00","-3.8","","-7.6","","75","","","","33","","15","","24.1","","99.96","","","","-9","","NA"
"-111.96","60.02","FORT SMITH A","2202201","2020-10-21 13:00","2020","10","21","13:00","-3.3","","-6.1","","81","","","","30","","14","","6.4","","99.97","","","","-8","","Snow Showers"
"-111.96","60.02","FORT SMITH A","2202201","2020-10-21 14:00","2020","10","21","14:00","-3.1","","-6.7","","76","","","","31","","12","","24.1","","100.01","","","","-8","","Mostly Cloudy"
"-111.96","60.02","FORT SMITH A","2202201","2020-10-21 15:00","2020","10","21","15:00","-3.5","","-5.5","","86","","","","30","","18","","4.8","","100.06","","","","-9","","Snow Showers,Blowing Snow"
"-111.96","60.02","FORT SMITH A","2202201","2020-10-21 16:00","2020","10","21","16:00","-3.3","","-5.3","","86","","","","30","","14","","9.7","","100.11","","","","-8","","Snow,Blowing Snow"
"-111.96","60.02","FORT SMITH A","2202201","2020-10-21 17:00","2020","10","21","17:00","-3.5","","-5.5","","86","","","","30","","15","","24.1","","100.15","","","","-9","","Snow"
"-111.96","60.02","FORT SMITH A","2202201","2020-10-21 18:00","2020","10","21","18:00","-3.5","","-5.4","","87","","","","30","","14","","24.1","","100.19","","","","-9","","Snow"
"-111.96","60.02","FORT SMITH A","2202201","2020-10-21 19:00","2020","10","21","19:00","-3.6","","-5.3","","88","","","","30","","19","","3.6","","100.21","","","","-10","","Snow Showers"
"-111.96","60.02","FORT SMITH A","2202201","2020-10-21 20:00","2020","10","21","20:00","-4.3","","-6.1","","87","","","","30","","25","","9.7","","100.22","","","","-11","","Snow Showers"
"-111.96","60.02","FORT SMITH A","2202201","2020-10-21 21:00","2020","10","21","21:00","-4.4","","-5.9","","89","","","","30","","18","","4.8","","100.26","","","","-10","","Snow Showers,Blowing Snow"
"-111.96","60.02","FORT SMITH A","2202201","2020-10-21 22:00","2020","10","21","22:00","-4.6","","-6.0","","90","","","","29","","17","","9.7","","100.29","","","","-10","","Snow Showers"
"-111.96","60.02","FORT SMITH A","2202201","2020-10-21 23:00","2020","10","21","23:00","-4.4","","-5.8","","90","","","","30","","17","","9.7","","100.31","","","","-10","","Snow"
"-111.96","60.02","FORT SMITH A","2202201","2020-10-22 00:00","2020","10","22","00:00","-4.5","","-6.0","","89","","","","29","","18","","6.4","","100.32","","","","-11","","Snow"
"-111.96","60.02","FORT SMITH A","2202201","2020-10-22 01:00","2020","10","22","01:00","-4.8","","-6.3","","89","","","","29","","21","","4.8","","100.35","","","","-11","","Snow,Blowing Snow"
"-111.96","60.02","FORT SMITH A","2202201","2020-10-22 02:00","2020","10","22","02:00","-4.8","","-6.4","","89","","","","29","","23","","3.2","","100.39","","","","-12","","Snow,Blowing Snow"
"-111.96","60.02","FORT SMITH A","2202201","2020-10-22 03:00","2020","10","22","03:00","-5.0","","-6.6","","88","","","","29","","23","","8.1","","100.42","","","","-12","","Snow,Blowing Snow"
"-111.96","60.02","FORT SMITH A","2202201","2020-10-22 04:00","2020","10","22","04:00","-5.4","","-7.0","","89","","","","28","","22","","6.4","","100.43","","","","-12","","Snow,Blowing Snow"
"-111.96","60.02","FORT SMITH A","2202201","2020-10-22 05:00","2020","10","22","05:00","-5.7","","-7.1","","90","","","","28","","26","","3.2","","100.46","","","","-13","","Fog"
"-111.96","60.02","FORT SMITH A","2202201","2020-10-22 06:00","2020","10","22","06:00","-5.8","","-7.2","","89","","","","28","","18","","19.3","","100.48","","","","-12","","Snow"
"-111.96","60.02","FORT SMITH A","2202201","2020-10-22 07:00","2020","10","22","07:00","-5.8","","-7.2","","90","","","","28","","19","","24.1","","100.50","","","","-12","","Snow"
"-111.96","60.02","FORT SMITH A","2202201","2020-10-22 08:00","2020","10","22","08:00","-5.9","","-7.2","","91","","","","28","","22","","24.1","","100.52","","","","-13","","Snow"
"-111.96","60.02","FORT SMITH A","2202201","2020-10-22 09:00","2020","10","22","09:00","-6.2","","-7.8","","88","","","","28","","22","","24.1","","100.56","","","","-13","","NA"
"-111.96","60.02","FORT SMITH A","2202201","2020-10-22 10:00","2020","10","22","10:00","-5.9","","-7.5","","88","","","","28","","21","","24.1","","100.59","","","","-13","","NA"
"-111.96","60.02","FORT SMITH A","2202201","2020-10-22 11:00","2020","10","22","11:00","-5.3","","-7.0","","88","","","","29","","19","","4.0","","100.63","","","","-12","","Freezing Drizzle,Blowing Snow"
"-111.96","60.02","FORT SMITH A","2202201","2020-10-22 12:00","2020","10","22","12:00","-4.8","","-6.1","","91","","","","28","","19","","3.2","","100.65","","","","-11","","Freezing Drizzle"
"-111.96","60.02","FORT SMITH A","2202201","2020-10-22 13:00","2020","10","22","13:00","-4.4","","-5.7","","91","","","","29","","18","","2.0","","100.67","","","","-10","","Freezing Drizzle"
"-111.96","60.02","FORT SMITH A","2202201","2020-10-22 14:00","2020","10","22","14:00","-3.9","","-5.0","","93","","","","29","","14","","2.4","","100.69","","","","-9","","Freezing Drizzle,Fog"
"-111.96","60.02","FORT SMITH A","2202201","2020-10-22 15:00","2020","10","22","15:00","-3.9","","-5.2","","90","","","","27","","13","","4.8","","100.70","","","","-9","","Freezing Drizzle,Snow Grains,Fog"
"-111.96","60.02","FORT SMITH A","2202201","2020-10-22 16:00","2020","10","22","16:00","-3.9","","-4.9","","92","","","","27","","18","","4.8","","100.71","","","","-10","","Freezing Drizzle"
"-111.96","60.02","FORT SMITH A","2202201","2020-10-22 17:00","2020","10","22","17:00","-4.3","","-5.8","","89","","","","26","","14","","24.1","","100.70","","","","-9","","Cloudy"
"-111.96","60.02","FORT SMITH A","2202201","2020-10-22 18:00","2020","10","22","18:00","-4.3","","-5.4","","92","","","","25","","12","","9.7","","100.70","","","","-9","","Snow"
"-111.96","60.02","FORT SMITH A","2202201","2020-10-22 19:00","2020","10","22","19:00","-4.2","","-5.6","","90","","","","26","","12","","3.2","","100.72","","","","-9","","Snow"
"-111.96","60.02","FORT SMITH A","2202201","2020-10-22 20:00","2020","10","22","20:00","-4.2","","-5.8","","89","","","","28","","16","","9.7","","100.72","","","","-10","","Snow"
"-111.96","60.02","FORT SMITH A","2202201","2020-10-22 21:00","2020","10","22","21:00","-4.6","","-5.8","","92","","","","35","","6","","16.1","","100.74","","","","-7","","Snow"
"-111.96","60.02","FORT SMITH A","2202201","2020-10-22 22:00","2020","10","22","22:00","-4.8","","-6.2","","90","","","","35","","7","","19.3","","100.76","","","","-8","","Snow"
"-111.96","60.02","FORT SMITH A","2202201","2020-10-22 23:00","2020","10","22","23:00","-8.2","","-9.2","","93","","","","0","","1","","24.1","","100.76","","","","-9","","Mostly Cloudy"
"-111.96","60.02","FORT SMITH A","2202201","2020-10-23 00:00","2020","10","23","00:00","-11.0","","-12.5","","89","","","","36","","3","","24.1","","100.76","","","","-13","","NA"
"-111.96","60.02","FORT SMITH A","2202201","2020-10-23 01:00","2020","10","23","01:00","-11.9","","-13.4","","89","","","","28","","4","","24.1","","100.78","","","","-14","","NA"
"-111.96","60.02","FORT SMITH A","2202201","2020-10-23 02:00","2020","10","23","02:00","-11.1","","-12.6","","89","","","","28","","4","","24.1","","100.78","","","","-14","","Clear"
"-111.96","60.02","FORT SMITH A","2202201","2020-10-23 03:00","2020","10","23","03:00","-10.3","","-11.7","","90","","","","27","","5","","24.1","","100.77","","","","-13","","NA"
"-111.96","60.02","FORT SMITH A","2202201","2020-10-23 04:00","2020","10","23","04:00","-13.7","","-15.6","","86","","","","17","","7","","24.1","","100.75","","","","-18","","NA"
"-111.96","60.02","FORT SMITH A","2202201","2020-10-23 05:00","2020","10","23","05:00","-12.8","","-14.5","","87","","","","20","","7","","24.1","","100.73","","","","-17","","Mainly Clear"
"-111.96","60.02","FORT SMITH A","2202201","2020-10-23 06:00","2020","10","23","06:00","-12.1","","-13.8","","88","","","","18","","5","","24.1","","100.74","","","","-15","","NA"
"-111.96","60.02","FORT SMITH A","2202201","2020-10-23 07:00","2020","10","23","07:00","-12.3","","-14.0","","88","","","","16","","7","","24.1","","100.72","","","","-17","","NA"
"-111.96","60.02","FORT SMITH A","2202201","2020-10-23 08:00","2020","10","23","08:00","-11.5","","-13.1","","88","","","","20","","4","","24.1","","100.73","","","","-14","","Mostly Cloudy"
"-111.96","60.02","FORT SMITH A","2202201","2020-10-23 09:00","2020","10","23","09:00","-9.3","","-10.6","","90","","","","22","","7","","24.1","","100.73","","","","-13","","Snow"
"-111.96","60.02","FORT SMITH A","2202201","2020-10-23 10:00","2020","10","23","10:00","-8.3","","-9.5","","91","","","","22","","8","","24.1","","100.73","","","","-12","","Snow"
"-111.96","60.02","FORT SMITH A","2202201","2020-10-23 11:00","2020","10","23","11:00","-7.7","","-8.9","","91","","","","24","","5","","24.1","","100.74","","","","-10","","Mostly Cloudy"
"-111.96","60.02","FORT SMITH A","2202201","2020-10-23 12:00","2020","10","23","12:00","-6.0","","-7.0","","93","","","","26","","9","","24.1","","100.75","","","","-10","","NA"
"-111.96","60.02","FORT SMITH A","2202201","2020-10-23 13:00","2020","10","23","13:00","-5.8","","-6.8","","93","","","","36","","3","","24.1","","100.75","","","","-7","","NA"
"-111.96","60.02","FORT SMITH A","2202201","2020-10-23 14:00","2020","10","23","14:00","-5.8","","-6.7","","93","","","","36","","1","","24.1","","100.74","","","","-6","","Cloudy"
"-111.96","60.02","FORT SMITH A","2202201","2020-10-23 15:00","2020","10","23","15:00","-5.4","","-6.3","","93","","","","23","","5","","24.1","","100.72","","","","-8","","NA"
"-111.96","60.02","FORT SMITH A","2202201","2020-10-23 16:00","2020","10","23","16:00","-5.4","","-6.3","","93","","","","36","","3","","24.1","","100.70","","","","-7","","NA"
"-111.96","60.02","FORT SMITH A","2202201","2020-10-23 17:00","2020","10","23","17:00","-6.8","","-7.9","","92","","","","36","","2","","24.1","","100.69","","","","-8","","Mainly Clear"
"-111.96","60.02","FORT SMITH A","2202201","2020-10-23 18:00","2020","10","23","18:00","-7.5","","-8.6","","92","","","","36","","2","","24.1","","100.67","","","","-9","","NA"
"-111.96","60.02","FORT SMITH A","2202201","2020-10-23 19:00","2020","10","23","19:00","-7.5","","-8.7","","92","","","","36","","2","","24.1","","100.68","","","","-9","","NA"
"-111.96","60.02","FORT SMITH A","2202201","2020-10-23 20:00","2020","10","23","20:00","-6.8","","-7.8","","92","","","","22","","8","","24.1","","100.68","","","","-11","","Cloudy"
"-111.96","60.02","FORT SMITH A","2202201","2020-10-23 21:00","2020","10","23","21:00","-5.0","","-5.9","","94","","","","27","","12","","16.1","","100.67","","","","-10","","Snow"
"-111.96","60.02","FORT SMITH A","2202201","2020-10-23 22:00","2020","10","23","22:00","-5.3","","-6.2","","93","","","","28","","14","","19.3","","100.68","","","","-11","","Snow"
"-111.96","60.02","FORT SMITH A","2202201","2020-10-23 23:00","2020","10","23","23:00","-5.8","","-6.9","","92","","","","28","","15","","16.1","","100.69","","","","-12","","Snow"
"-111.96","60.02","FORT SMITH A","2202201","2020-10-24 00:00","2020","10","24","00:00","-5.6","","-8.1","","83","","","","28","","17","","19.3","","100.68","","","","-12","","Snow"
"-111.96","60.02","FORT SMITH A","2202201","2020-10-24 01:00","2020","10","24","01:00","-7.3","","-9.4","","85","","","","25","","9","","24.1","","100.65","","","","-12","","Snow"
"-111.96","60.02","FORT SMITH A","2202201","2020-10-24 02:00","2020","10","24","02:00","-8.9","","-11.2","","83","","","","26","","12","","24.1","","100.64","","","","-15","","Snow"
"-111.96","60.02","FORT SMITH A","2202201","2020-10-24 03:00","2020","10","24","03:00","-11.1","","-13.0","","86","","","","23","","10","","24.1","","100.61","","","","-17","","Snow"
"-111.96","60.02","FORT SMITH A","2202201","2020-10-24 04:00","2020","10","24","04:00","-11.2","","-13.0","","87","","","","23","","12","","24.1","","100.57","","","","-17","","Snow"
"-111.96","60.02","FORT SMITH A","2202201","2020-10-24 05:00","2020","10","24","05:00","-9.9","","-12.2","","83","","","","25","","12","","24.1","","100.53","","","","-16","","Mostly Cloudy"
"-111.96","60.02","FORT SMITH A","2202201","2020-10-24 06:00","2020","10","24","06:00","-9.5","","-11.8","","84","","","","24","","12","","24.1","","100.48","","","","-15","","NA"
"-111.96","60.02","FORT SMITH A","2202201","2020-10-24 07:00","2020","10","24","07:00","-8.9","","-10.7","","87","","","","25","","13","","2.4","","100.49","","","","-15","","Snow Showers"
"-111.96","60.02","FORT SMITH A","2202201","2020-10-24 08:00","2020","10","24","08:00","-8.0","","-9.4","","90","","","","24","","10","","4.8","","100.50","","","","-13","","Snow,Snow Grains,Fog"
"-111.96","60.02","FORT SMITH A","2202201","2020-10-24 09:00","2020","10","24","09:00","-6.5","","-8.0","","89","","","","27","","14","","8.1","","100.49","","","","-12","","Snow,Fog"
"-111.96","60.02","FORT SMITH A","2202201","2020-10-24 10:00","2020","10","24","10:00","-5.7","","-7.2","","89","","","","26","","18","","24.1","","100.46","","","","-12","","NA"
"-111.96","60.02","FORT SMITH A","2202201","2020-10-24 11:00","2020","10","24","11:00","-4.4","","-6.5","","85","","","","27","","21","","24.1","","100.46","","","","-11","","Mostly Cloudy"
"-111.96","60.02","FORT SMITH A","2202201","2020-10-24 12:00","2020","10","24","12:00","-4.2","","-6.4","","84","","","","27","","21","","24.1","","100.44","","","","-11","","Snow"
"-111.96","60.02","FORT SMITH A","2202201","2020-10-24 13:00","2020","10","24","13:00","-3.7","","-6.2","","82","","","","28","","18","","24.1","","100.44","","","","-10","","Snow"
"-111.96","60.02","FORT SMITH A","2202201","2020-10-24 14:00","2020","10","24","14:00","-3.2","","-5.9","","82","","","","27","","19","","24.1","","100.43","","","","-9","","Snow"
"-111.96","60.02","FORT SMITH A","2202201","2020-10-24 15:00","2020","10","24","15:00","-3.1","","-5.7","","82","","","","27","","16","","9.7","","100.42","","","","-8","","Snow"
"-111.96","60.02","FORT SMITH A","2202201","2020-10-24 16:00","2020","10","24","16:00","-3.3","","-5.0","","87","","","","27","","19","","16.1","","100.43","","","","-9","","Snow"
"-111.96","60.02","FORT SMITH A","2202201","2020-10-24 17:00","2020","10","24","17:00","-3.1","","-5.0","","87","","","","28","","16","","24.1","","100.43","","","","-8","","Snow"
"-111.96","60.02","FORT SMITH A","2202201","2020-10-24 18:00","2020","10","24","18:00","-3.5","","-5.1","","88","","","","27","","15","","16.1","","100.42","","","","-9","","Snow"
"-111.96","60.02","FORT SMITH A","2202201","2020-10-24 19:00","2020","10","24","19:00","-3.9","","-5.4","","89","","","","27","","9","","19.3","","100.42","","","","-8","","Snow"
"-111.96","60.02","FORT SMITH A","2202201","2020-10-24 20:00","2020","10","24","20:00","-3.8","","-5.7","","86","","","","26","","12","","16.1","","100.39","","","","-8","","Snow"
"-111.96","60.02","FORT SMITH A","2202201","2020-10-24 21:00","2020","10","24","21:00","-3.9","","-5.9","","86","","","","24","","8","","16.1","","100.37","","","","-7","","Snow"
"-111.96","60.02","FORT SMITH A","2202201","2020-10-24 22:00","2020","10","24","22:00","-4.1","","-6.0","","87","","","","22","","7","","24.1","","100.35","","","","-7","","Snow"
"-111.96","60.02","FORT SMITH A","2202201","2020-10-24 23:00","2020","10","24","23:00","-4.1","","-6.2","","85","","","","25","","4","","24.1","","100.27","","","","-6","","Snow"
"-111.96","60.02","FORT SMITH A","2202201","2020-10-25 00:00","2020","10","25","00:00","-4.3","","-6.0","","88","","","","23","","10","","24.1","","100.20","","","","-8","","Snow"
"-111.96","60.02","FORT SMITH A","2202201","2020-10-25 01:00","2020","10","25","01:00","-5.2","","-6.9","","88","","","","21","","6","","19.3","","100.14","","","","-8","","Snow"
"-111.96","60.02","FORT SMITH A","2202201","2020-10-25 02:00","2020","10","25","02:00","-4.7","","-6.7","","86","","","","21","","7","","24.1","","100.09","","","","-8","","Cloudy"
"-111.96","60.02","FORT SMITH A","2202201","2020-10-25 03:00","2020","10","25","03:00","-6.5","","-7.8","","91","","","","16","","9","","24.1","","100.02","","","","-11","","NA"
"-111.96","60.02","FORT SMITH A","2202201","2020-10-25 04:00","2020","10","25","04:00","-8.1","","-9.4","","90","","","","17","","10","","24.1","","99.93","","","","-13","","NA"
"-111.96","60.02","FORT SMITH A","2202201","2020-10-25 05:00","2020","10","25","05:00","-9.1","","-10.3","","91","","","","16","","10","","24.1","","99.85","","","","-14","","Mainly Clear"
"-111.96","60.02","FORT SMITH A","2202201","2020-10-25 06:00","2020","10","25","06:00","-9.6","","-11.0","","90","","","","14","","9","","24.1","","99.72","","","","-14","","NA"
"-111.96","60.02","FORT SMITH A","2202201","2020-10-25 07:00","2020","10","25","07:00","-10.2","","-11.6","","89","","","","15","","14","","24.1","","99.63","","","","-17","","NA"
"-111.96","60.02","FORT SMITH A","2202201","2020-10-25 08:00","2020","10","25","08:00","-10.9","","-12.6","","88","","","","14","","14","","24.1","","99.50","","","","-18","","Mainly Clear"
"-111.96","60.02","FORT SMITH A","2202201","2020-10-25 09:00","2020","10","25","09:00","-10.5","","-12.3","","86","","","","14","","14","","24.1","","99.41","","","","-17","","NA"
"-111.96","60.02","FORT SMITH A","2202201","2020-10-25 10:00","2020","10","25","10:00","-9.3","","-11.8","","82","","","","15","","13","","24.1","","99.33","","","","-15","","NA"
"-111.96","60.02","FORT SMITH A","2202201","2020-10-25 11:00","2020","10","25","11:00","-7.8","","-11.1","","77","","","","14","","10","","24.1","","99.25","","","","-13","","Clear"
"-111.96","60.02","FORT SMITH A","2202201","2020-10-25 12:00","2020","10","25","12:00","-6.5","","-10.4","","73","","","","15","","9","","24.1","","99.20","","","","-11","","NA"
"-111.96","60.02","FORT SMITH A","2202201","2020-10-25 13:00","2020","10","25","13:00","-5.2","","-9.8","","70","","","","19","","4","","24.1","","99.13","","","","-7","","NA"
"-111.96","60.02","FORT SMITH A","2202201","2020-10-25 14:00","2020","10","25","14:00","-4.1","","-9.6","","66","","","","15","","3","","24.1","","99.08","","","","-5","","Mainly Clear"
"-111.96","60.02","FORT SMITH A","2202201","2020-10-25 15:00","2020","10","25","15:00","-3.8","","-9.3","","66","","","","36","","1","","24.1","","99.04","","","","-4","","NA"
"-111.96","60.02","FORT SMITH A","2202201","2020-10-25 16:00","2020","10","25","16:00","-5.6","","-9.7","","73","","","","36","","2","","24.1","","99.00","","","","-7","","NA"
"-111.96","60.02","FORT SMITH A","2202201","2020-10-25 17:00","2020","10","25","17:00","-6.8","","-9.2","","84","","","","","","0","","24.1","","99.01","","","","","","Mostly Cloudy"
"-111.96","60.02","FORT SMITH A","2202201","2020-10-25 18:00","2020","10","25","18:00","-7.8","","-9.0","","91","","","","36","","1","","24.1","","98.98","","","","-8","","NA"
"-111.96","60.02","FORT SMITH A","2202201","2020-10-25 19:00","2020","10","25","19:00","-8.5","","-9.9","","90","","","","22","","3","","24.1","","98.99","","","","-10","","NA"
"-111.96","60.02","FORT SMITH A","2202201","2020-10-25 20:00","2020","10","25","20:00","-9.0","","-10.3","","90","","","","27","","3","","24.1","","98.97","","","","-11","","Cloudy"
"-111.96","60.02","FORT SMITH A","2202201","2020-10-25 21:00","2020","10","25","21:00","-5.8","","-8.7","","80","","","","31","","5","","24.1","","98.97","","","","-8","","NA"
"-111.96","60.02","FORT SMITH A","2202201","2020-10-25 22:00","2020","10","25","22:00","-5.9","","-8.7","","81","","","","31","","7","","24.1","","98.95","","","","-9","","NA"
"-111.96","60.02","FORT SMITH A","2202201","2020-10-25 23:00","2020","10","25","23:00","-7.8","","-9.9","","85","","","","29","","5","","24.1","","98.93","","","","-10","","Mainly Clear"
"-111.96","60.02","FORT SMITH A","2202201","2020-10-26 00:00","2020","10","26","00:00","-7.2","","-8.9","","87","","","","30","","13","","24.1","","98.96","","","","-13","","NA"
"-111.96","60.02","FORT SMITH A","2202201","2020-10-26 01:00","2020","10","26","01:00","-7.0","","-8.8","","87","","","","30","","7","","24.1","","98.93","","","","-11","","NA"
"-111.96","60.02","FORT SMITH A","2202201","2020-10-26 02:00","2020","10","26","02:00","-8.4","","-9.8","","90","","","","29","","14","","24.1","","98.96","","","","-15","","Mainly Clear"
"-111.96","60.02","FORT SMITH A","2202201","2020-10-26 03:00","2020","10","26","03:00","-7.4","","-8.8","","90","","","","22","","8","","24.1","","98.99","","","","-11","","NA"
"-111.96","60.02","FORT SMITH A","2202201","2020-10-26 04:00","2020","10","26","04:00","-6.2","","-8.0","","87","","","","29","","12","","24.1","","98.94","","","","-11","","NA"
"-111.96","60.02","FORT SMITH A","2202201","2020-10-26 05:00","2020","10","26","05:00","-5.7","","-7.7","","86","","","","26","","12","","24.1","","98.90","","","","-11","","Cloudy"
"-111.96","60.02","FORT SMITH A","2202201","2020-10-26 06:00","2020","10","26","06:00","-6.2","","-8.3","","85","","","","27","","14","","24.1","","98.92","","","","-12","","NA"
"-111.96","60.02","FORT SMITH A","2202201","2020-10-26 07:00","2020","10","26","07:00","-5.6","","-7.7","","85","","","","27","","15","","24.1","","98.90","","","","-11","","NA"
"-111.96","60.02","FORT SMITH A","2202201","2020-10-26 08:00","2020","10","26","08:00","-5.3","","-7.6","","84","","","","27","","16","","24.1","","98.90","","","","-11","","Cloudy"
"-111.96","60.02","FORT SMITH A","2202201","2020-10-26 09:00","2020","10","26","09:00","-4.8","","-7.2","","83","","","","27","","15","","24.1","","98.90","","","","-10","","NA"
"-111.96","60.02","FORT SMITH A","2202201","2020-10-26 10:00","2020","10","26","10:00","-4.0","","-6.8","","81","","","","28","","16","","24.1","","98.86","","","","-10","","NA"
"-111.96","60.02","FORT SMITH A","2202201","2020-10-26 11:00","2020","10","26","11:00","-3.4","","-6.5","","79","","","","28","","17","","24.1","","98.83","","","","-9","","Snow"
"-111.96","60.02","FORT SMITH A","2202201","2020-10-26 12:00","2020","10","26","12:00","-2.7","","-6.2","","77","","","","29","","9","","24.1","","98.77","","","","-6","","NA"
"-111.96","60.02","FORT SMITH A","2202201","2020-10-26 13:00","2020","10","26","13:00","-1.9","","-5.9","","74","","","","30","","10","","24.1","","98.70","","","","-6","","NA"
"-111.96","60.02","FORT SMITH A","2202201","2020-10-26 14:00","2020","10","26","14:00","-2.5","","-6.0","","77","","","","27","","9","","24.1","","98.64","","","","-6","","Mostly Cloudy"
"-111.96","60.02","FORT SMITH A","2202201","2020-10-26 15:00","2020","10","26","15:00","-2.5","","-6.0","","77","","","","19","","4","","24.1","","98.48","","","","-4","","NA"
"-111.96","60.02","FORT SMITH A","2202201","2020-10-26 16:00","2020","10","26","16:00","-2.8","","-5.6","","81","","","","21","","5","","24.1","","98.42","","","","-5","","NA"
"-111.96","60.02","FORT SMITH A","2202201","2020-10-26 17:00","2020","10","26","17:00","-3.5","","-5.9","","83","","","","14","","4","","24.1","","98.24","","","","-5","","Mostly Cloudy"
"-111.96","60.02","FORT SMITH A","2202201","2020-10-26 18:00","2020","10","26","18:00","-3.7","","-5.8","","85","","","","14","","4","","24.1","","98.14","","","","-5","","NA"
"-111.96","60.02","FORT SMITH A","2202201","2020-10-26 19:00","2020","10","26","19:00","-3.4","","-6.0","","82","","","","11","","3","","24.1","","98.08","","","","-5","","NA"
"-111.96","60.02","FORT SMITH A","2202201","2020-10-26 20:00","2020","10","26","20:00","-3.7","","-4.9","","91","","","","14","","8","","4.8","","97.93","","","","-7","","Snow"
"-111.96","60.02","FORT SMITH A","2202201","2020-10-26 21:00","2020","10","26","21:00","-3.1","","-4.7","","88","","","","","","0","","4.8","","97.81","","","","","","Snow"
"-111.96","60.02","FORT SMITH A","2202201","2020-10-26 22:00","2020","10","26","22:00","-3.8","","-4.9","","92","","","","9","","6","","3.2","","97.64","","","","-6","","Snow"
"-111.96","60.02","FORT SMITH A","2202201","2020-10-26 23:00","2020","10","26","23:00","-3.9","","-5.2","","91","","","","12","","9","","4.8","","97.55","","","","-8","","Snow"
"-111.96","60.02","FORT SMITH A","2202201","2020-10-27 00:00","2020","10","27","00:00","-3.9","","-5.1","","91","","","","9","","10","","6.4","","97.48","","","","-8","","Snow"
"-111.96","60.02","FORT SMITH A","2202201","2020-10-27 01:00","2020","10","27","01:00","-4.1","","-5.3","","92","","","","8","","9","","4.8","","97.46","","","","-8","","Snow"
"-111.96","60.02","FORT SMITH A","2202201","2020-10-27 02:00","2020","10","27","02:00","-4.2","","-5.5","","91","","","","7","","8","","3.2","","97.44","","","","-8","","Snow"
"-111.96","60.02","FORT SMITH A","2202201","2020-10-27 03:00","2020","10","27","03:00","-4.2","","-5.6","","90","","","","7","","9","","3.2","","97.47","","","","-8","","Snow"
"-111.96","60.02","FORT SMITH A","2202201","2020-10-27 04:00","2020","10","27","04:00","-4.4","","-5.7","","90","","","","6","","13","","3.2","","97.51","","","","-9","","Snow"
"-111.96","60.02","FORT SMITH A","2202201","2020-10-27 05:00","2020","10","27","05:00","-5.0","","-6.6","","89","","","","5","","12","","9.7","","97.54","","","","-10","","Snow"
"-111.96","60.02","FORT SMITH A","2202201","2020-10-27 06:00","2020","10","27","06:00","-5.1","","-6.8","","88","","","","5","","15","","9.7","","97.64","","","","-11","","Snow"
"-111.96","60.02","FORT SMITH A","2202201","2020-10-27 07:00","2020","10","27","07:00","-5.6","","-7.5","","87","","","","7","","15","","4.8","","97.75","","","","-11","","Snow"
"-111.96","60.02","FORT SMITH A","2202201","2020-10-27 08:00","2020","10","27","08:00","-6.4","","-8.4","","86","","","","6","","10","","19.3","","97.83","","","","-11","","Snow,Blowing Snow"
"-111.96","60.02","FORT SMITH A","2202201","2020-10-27 09:00","2020","10","27","09:00","-7.1","","-9.5","","83","","","","5","","14","","9.7","","97.95","","","","-13","","Snow,Blowing Snow"
"-111.96","60.02","FORT SMITH A","2202201","2020-10-27 10:00","2020","10","27","10:00","-7.3","","-10.7","","77","","","","7","","13","","24.1","","98.06","","","","-13","","NA"
"-111.96","60.02","FORT SMITH A","2202201","2020-10-27 11:00","2020","10","27","11:00","-7.1","","-10.9","","75","","","","6","","16","","24.1","","98.17","","","","-13","","Mostly Cloudy"
"-111.96","60.02","FORT SMITH A","2202201","2020-10-27 12:00","2020","10","27","12:00","-7.0","","-10.9","","74","","","","4","","18","","24.1","","98.27","","","","-14","","NA"
"-111.96","60.02","FORT SMITH A","2202201","2020-10-27 13:00","2020","10","27","13:00","-6.9","","-11.5","","70","","","","4","","15","","24.1","","98.38","","","","-13","","NA"
"-111.96","60.02","FORT SMITH A","2202201","2020-10-27 14:00","2020","10","27","14:00","-6.6","","-11.8","","67","","","","5","","8","","24.1","","98.49","","","","-10","","Mostly Cloudy"
"-111.96","60.02","FORT SMITH A","2202201","2020-10-27 15:00","2020","10","27","15:00","-6.9","","-12.2","","66","","","","5","","10","","24.1","","98.59","","","","-12","","NA"
"-111.96","60.02","FORT SMITH A","2202201","2020-10-27 16:00","2020","10","27","16:00","-8.6","","-13.1","","70","","","","3","","11","","24.1","","98.70","","","","-14","","NA"
"-111.96","60.02","FORT SMITH A","2202201","2020-10-27 17:00","2020","10","27","17:00","-9.2","","-13.2","","73","","","","4","","8","","24.1","","98.79","","","","-14","","Mostly Cloudy"
"-111.96","60.02","FORT SMITH A","2202201","2020-10-27 18:00","2020","10","27","18:00","-11.0","","-14.5","","76","","","","1","","3","","24.1","","98.89","","","","-13","","NA"
"-111.96","60.02","FORT SMITH A","2202201","2020-10-27 19:00","2020","10","27","19:00","-13.7","","-16.3","","81","","","","4","","6","","24.1","","98.96","","","","-18","","NA"
"-111.96","60.02","FORT SMITH A","2202201","2020-10-27 20:00","2020","10","27","20:00","-14.8","","-16.3","","88","","","","6","","4","","24.1","","99.03","","","","-18","","Mainly Clear"
"-111.96","60.02","FORT SMITH A","2202201","2020-10-27 21:00","2020","10","27","21:00","-16.6","","-18.1","","88","","","","3","","5","","24.1","","99.10","","","","-20","","NA"
"-111.96","60.02","FORT SMITH A","2202201","2020-10-27 22:00","2020","10","27","22:00","-16.2","","-18.1","","85","","","","5","","4","","24.1","","99.18","","","","-19","","NA"
"-111.96","60.02","FORT SMITH A","2202201","2020-10-27 23:00","2020","10","27","23:00","-17.4","","-19.3","","85","","","","36","","1","","24.1","","99.23","","","","-18","","Mostly Cloudy"
"-111.96","60.02","FORT SMITH A","2202201","2020-10-28 00:00","2020","10","28","00:00","-16.7","","-18.8","","84","","","","15","","3","","24.1","","99.23","","","","-19","","NA"
"-111.96","60.02","FORT SMITH A","2202201","2020-10-28 01:00","2020","10","28","01:00","-17.5","","-19.8","","83","","","","36","","3","","24.1","","99.25","","","","-20","","NA"
"-111.96","60.02","FORT SMITH A","2202201","2020-10-28 02:00","2020","10","28","02:00","-16.2","","-18.6","","82","","","","17","","4","","24.1","","99.25","","","","-19","","Mostly Cloudy"
"-111.96","60.02","FORT SMITH A","2202201","2020-10-28 03:00","2020","10","28","03:00","-15.6","","-17.8","","84","","","","15","","7","","24.1","","99.24","","","","-21","","NA"
"-111.96","60.02","FORT SMITH A","2202201","2020-10-28 04:00","2020","10","28","04:00","-15.3","","-17.4","","84","","","","17","","5","","24.1","","99.26","","","","-19","","NA"
"-111.96","60.02","FORT SMITH A","2202201","2020-10-28 05:00","2020","10","28","05:00","-14.4","","-16.5","","85","","","","16","","5","","24.1","","99.25","","","","-18","","Cloudy"
"-111.96","60.02","FORT SMITH A","2202201","2020-10-28 06:00","2020","10","28","06:00","-13.9","","-15.9","","85","","","","15","","7","","24.1","","99.23","","","","-19","","NA"
"-111.96","60.02","FORT SMITH A","2202201","2020-10-28 07:00","2020","10","28","07:00","-13.0","","-15.1","","85","","","","15","","9","","24.1","","99.20","","","","-18","","NA"
"-111.96","60.02","FORT SMITH A","2202201","2020-10-28 08:00","2020","10","28","08:00","-12.0","","-14.3","","84","","","","14","","9","","24.1","","99.16","","","","-17","","Mostly Cloudy"
"-111.96","60.02","FORT SMITH A","2202201","2020-10-28 09:00","2020","10","28","09:00","-11.8","","-14.1","","84","","","","15","","12","","24.1","","99.15","","","","-18","","NA"
"-111.96","60.02","FORT SMITH A","2202201","2020-10-28 10:00","2020","10","28","10:00","-10.3","","-12.5","","84","","","","15","","9","","24.1","","99.11","","","","-15","","Snow"
"-111.96","60.02","FORT SMITH A","2202201","2020-10-28 11:00","2020","10","28","11:00","-8.4","","-10.7","","84","","","","14","","12","","6.4","","99.08","","","","-14","","Snow"
"-111.96","60.02","FORT SMITH A","2202201","2020-10-28 12:00","2020","10","28","12:00","-6.9","","-9.5","","82","","","","17","","12","","9.7","","99.06","","","","-12","","Snow"
"-111.96","60.02","FORT SMITH A","2202201","2020-10-28 13:00","2020","10","28","13:00","-6.3","","-8.9","","82","","","","17","","17","","24.1","","99.01","","","","-13","","Snow"
"-111.96","60.02","FORT SMITH A","2202201","2020-10-28 14:00","2020","10","28","14:00","-5.8","","-8.3","","83","","","","16","","15","","24.1","","98.98","","","","-12","","Snow"
"-111.96","60.02","FORT SMITH A","2202201","2020-10-28 15:00","2020","10","28","15:00","-5.7","","-8.0","","83","","","","16","","11","","24.1","","98.94","","","","-10","","Snow"
"-111.96","60.02","FORT SMITH A","2202201","2020-10-28 16:00","2020","10","28","16:00","-6.0","","-8.2","","84","","","","16","","14","","24.1","","98.92","","","","-12","","NA"
"-111.96","60.02","FORT SMITH A","2202201","2020-10-28 17:00","2020","10","28","17:00","-6.5","","-8.5","","86","","","","15","","7","","24.1","","98.93","","","","-10","","Snow"
"-111.96","60.02","FORT SMITH A","2202201","2020-10-28 18:00","2020","10","28","18:00","-6.5","","-8.4","","86","","","","13","","6","","19.3","","98.91","","","","-9","","Snow"
"-111.96","60.02","FORT SMITH A","2202201","2020-10-28 19:00","2020","10","28","19:00","-6.5","","-8.3","","87","","","","16","","8","","19.3","","98.87","","","","-10","","Snow"
"-111.96","60.02","FORT SMITH A","2202201","2020-10-28 20:00","2020","10","28","20:00","-6.5","","-8.1","","88","","","","16","","6","","19.3","","98.85","","","","-9","","Snow"
"-111.96","60.02","FORT SMITH A","2202201","2020-10-28 21:00","2020","10","28","21:00","-6.4","","-8.0","","88","","","","19","","7","","24.1","","98.83","","","","-10","","Snow"
"-111.96","60.02","FORT SMITH A","2202201","2020-10-28 22:00","2020","10","28","22:00","-6.3","","-7.8","","89","","","","20","","4","","19.3","","98.82","","","","-8","","Snow"
"-111.96","60.02","FORT SMITH A","2202201","2020-10-28 23:00","2020","10","28","23:00","-6.2","","-7.6","","90","","","","30","","17","","16.1","","98.84","","","","-12","","Snow"
"-111.96","60.02","FORT SMITH A","2202201","2020-10-29 00:00","2020","10","29","00:00","-7.1","","-9.3","","84","","","","29","","15","","24.1","","98.85","","","","-13","","Snow"
"-111.96","60.02","FORT SMITH A","2202201","2020-10-29 01:00","2020","10","29","01:00","-7.8","","-10.0","","85","","","","30","","16","","19.3","","98.89","","","","-14","","Snow"
"-111.96","60.02","FORT SMITH A","2202201","2020-10-29 02:00","2020","10","29","02:00","-7.9","","-9.7","","87","","","","28","","12","","19.3","","98.92","","","","-13","","Snow"
"-111.96","60.02","FORT SMITH A","2202201","2020-10-29 03:00","2020","10","29","03:00","-7.6","","-9.3","","87","","","","27","","8","","19.3","","98.94","","","","-12","","Snow"
"-111.96","60.02","FORT SMITH A","2202201","2020-10-29 04:00","2020","10","29","04:00","-7.2","","-8.9","","88","","","","27","","8","","19.3","","98.94","","","","-11","","Snow"
"-111.96","60.02","FORT SMITH A","2202201","2020-10-29 05:00","2020","10","29","05:00","-6.4","","-8.3","","87","","","","28","","13","","24.1","","98.98","","","","-12","","Snow"
"-111.96","60.02","FORT SMITH A","2202201","2020-10-29 06:00","2020","10","29","06:00","-6.1","","-7.9","","87","","","","29","","13","","19.3","","99.03","","","","-11","","Snow"
"-111.96","60.02","FORT SMITH A","2202201","2020-10-29 07:00","2020","10","29","07:00","-5.8","","-7.4","","88","","","","30","","12","","9.7","","99.08","","","","-11","","Snow"
"-111.96","60.02","FORT SMITH A","2202201","2020-10-29 08:00","2020","10","29","08:00","-5.6","","-7.5","","87","","","","33","","7","","4.8","","99.15","","","","-9","","Snow"
"-111.96","60.02","FORT SMITH A","2202201","2020-10-29 09:00","2020","10","29","09:00","-5.8","","-7.6","","87","","","","32","","9","","16.1","","99.22","","","","-10","","Snow"
"-111.96","60.02","FORT SMITH A","2202201","2020-10-29 10:00","2020","10","29","10:00","-5.3","","-7.5","","85","","","","33","","7","","6.4","","99.27","","","","-9","","Snow"
"-111.96","60.02","FORT SMITH A","2202201","2020-10-29 11:00","2020","10","29","11:00","-5.0","","-6.9","","86","","","","30","","8","","4.8","","99.32","","","","-9","","Snow"
"-111.96","60.02","FORT SMITH A","2202201","2020-10-29 12:00","2020","10","29","12:00","-4.4","","-7.0","","82","","","","30","","9","","6.4","","99.36","","","","-8","","Snow"
"-111.96","60.02","FORT SMITH A","2202201","2020-10-29 13:00","2020","10","29","13:00","-4.3","","-6.8","","83","","","","30","","11","","6.4","","99.38","","","","-9","","Snow"
"-111.96","60.02","FORT SMITH A","2202201","2020-10-29 14:00","2020","10","29","14:00","-4.2","","-7.0","","81","","","","30","","15","","4.8","","99.40","","","","-10","","Snow Showers"
"-111.96","60.02","FORT SMITH A","2202201","2020-10-29 15:00","2020","10","29","15:00","-3.9","","-7.4","","77","","","","30","","8","","24.1","","99.41","","","","-7","","Snow Showers"
"-111.96","60.02","FORT SMITH A","2202201","2020-10-29 16:00","2020","10","29","16:00","-4.5","","-7.0","","83","","","","34","","10","","19.3","","99.43","","","","-9","","Snow Showers"
"-111.96","60.02","FORT SMITH A","2202201","2020-10-29 17:00","2020","10","29","17:00","-5.0","","-9.0","","74","","","","28","","9","","24.1","","99.45","","","","-9","","Snow Showers"
"-111.96","60.02","FORT SMITH A","2202201","2020-10-29 18:00","2020","10","29","18:00","-6.6","","-9.2","","81","","","","36","","2","","24.1","","99.46","","","","-8","","Snow"
"-111.96","60.02","FORT SMITH A","2202201","2020-10-29 19:00","2020","10","29","19:00","-6.3","","-9.2","","80","","","","17","","3","","24.1","","99.44","","","","-8","","Snow"
"-111.96","60.02","FORT SMITH A","2202201","2020-10-29 20:00","2020","10","29","20:00","-7.0","","-9.1","","85","","","","19","","4","","24.1","","99.41","","","","-9","","Snow"
"-111.96","60.02","FORT SMITH A","2202201","2020-10-29 21:00","2020","10","29","21:00","-6.9","","-9.6","","81","","","","15","","3","","24.1","","99.38","","","","-8","","Snow"
"-111.96","60.02","FORT SMITH A","2202201","2020-10-29 22:00","2020","10","29","22:00","-7.5","","-10.0","","82","","","","36","","1","","24.1","","99.34","","","","-8","","NA"
"-111.96","60.02","FORT SMITH A","2202201","2020-10-29 23:00","2020","10","29","23:00","-8.0","","-10.3","","84","","","","15","","5","","24.1","","99.30","","","","-11","","Cloudy"
"-111.96","60.02","FORT SMITH A","2202201","2020-10-30 00:00","2020","10","30","00:00","-8.0","","-10.4","","83","","","","14","","7","","24.1","","99.26","","","","-12","","NA"
"-111.96","60.02","FORT SMITH A","2202201","2020-10-30 01:00","2020","10","30","01:00","-7.9","","-10.4","","82","","","","15","","11","","24.1","","99.17","","","","-13","","Snow"
"-111.96","60.02","FORT SMITH A","2202201","2020-10-30 02:00","2020","10","30","02:00","-7.3","","-10.2","","80","","","","14","","9","","24.1","","99.07","","","","-12","","Snow"
"-111.96","60.02","FORT SMITH A","2202201","2020-10-30 03:00","2020","10","30","03:00","-7.0","","-9.5","","83","","","","12","","10","","24.1","","99.01","","","","-12","","Snow"
"-111.96","60.02","FORT SMITH A","2202201","2020-10-30 04:00","2020","10","30","04:00","-6.9","","-9.8","","80","","","","13","","14","","24.1","","98.91","","","","-13","","Snow"
"-111.96","60.02","FORT SMITH A","2202201","2020-10-30 05:00","2020","10","30","05:00","-6.8","","-9.8","","80","","","","13","","15","","24.1","","98.79","","","","-13","","Cloudy"
"-111.96","60.02","FORT SMITH A","2202201","2020-10-30 06:00","2020","10","30","06:00","-6.6","","-9.7","","79","","","","13","","14","","24.1","","98.72","","","","-12","","NA"
"-111.96","60.02","FORT SMITH A","2202201","2020-10-30 07:00","2020","10","30","07:00","-6.8","","-9.5","","81","","","","13","","13","","24.1","","98.65","","","","-12","","NA"
"-111.96","60.02","FORT SMITH A","2202201","2020-10-30 08:00","2020","10","30","08:00","-6.5","","-9.3","","81","","","","13","","13","","24.1","","98.60","","","","-12","","Cloudy"
"-111.96","60.02","FORT SMITH A","2202201","2020-10-30 09:00","2020","10","30","09:00","-6.3","","-9.3","","79","","","","13","","11","","19.3","","98.57","","","","-11","","Snow,Blowing Snow"
"-111.96","60.02","FORT SMITH A","2202201","2020-10-30 10:00","2020","10","30","10:00","-6.0","","-9.4","","77","","","","13","","13","","19.3","","98.52","","","","-11","","Snow"
"-111.96","60.02","FORT SMITH A","2202201","2020-10-30 11:00","2020","10","30","11:00","-5.8","","-9.4","","76","","","","13","","14","","24.1","","98.46","","","","-11","","Snow,Blowing Snow"
"-111.96","60.02","FORT SMITH A","2202201","2020-10-30 12:00","2020","10","30","12:00","-5.5","","-9.7","","73","","","","14","","20","","24.1","","98.43","","","","-12","","Snow,Blowing Snow"
"-111.96","60.02","FORT SMITH A","2202201","2020-10-30 13:00","2020","10","30","13:00","-5.4","","-9.8","","71","","","","14","","14","","24.1","","98.42","","","","-11","","Snow"
"-111.96","60.02","FORT SMITH A","2202201","2020-10-30 14:00","2020","10","30","14:00","-5.3","","-9.7","","71","","","","13","","8","","24.1","","98.39","","","","-9","","Cloudy"
"-111.96","60.02","FORT SMITH A","2202201","2020-10-30 15:00","2020","10","30","15:00","-5.1","","-9.8","","70","","","","12","","9","","24.1","","98.39","","","","-9","","NA"
"-111.96","60.02","FORT SMITH A","2202201","2020-10-30 16:00","2020","10","30","16:00","-5.3","","-9.7","","71","","","","11","","8","","16.1","","98.41","","","","-9","","Snow"
"-111.96","60.02","FORT SMITH A","2202201","2020-10-30 17:00","2020","10","30","17:00","-5.5","","-9.7","","72","","","","12","","7","","19.3","","98.42","","","","-9","","Snow"
"-111.96","60.02","FORT SMITH A","2202201","2020-10-30 18:00","2020","10","30","18:00","-5.6","","-9.1","","76","","","","7","","4","","19.3","","98.46","","","","-7","","Snow"
"-111.96","60.02","FORT SMITH A","2202201","2020-10-30 19:00","2020","10","30","19:00","-6.1","","-8.3","","85","","","","6","","3","","16.1","","98.52","","","","-8","","Snow"
"-111.96","60.02","FORT SMITH A","2202201","2020-10-30 20:00","2020","10","30","20:00","-6.2","","-7.8","","88","","","","7","","3","","19.3","","98.55","","","","-8","","Snow"
"-111.96","60.02","FORT SMITH A","2202201","2020-10-30 21:00","2020","10","30","21:00","-6.5","","-7.9","","89","","","","36","","2","","16.1","","98.61","","","","-7","","Snow"
"-111.96","60.02","FORT SMITH A","2202201","2020-10-30 22:00","2020","10","30","22:00","-6.6","","-8.0","","90","","","","8","","4","","16.1","","98.65","","","","-9","","Snow"
"-111.96","60.02","FORT SMITH A","2202201","2020-10-30 23:00","2020","10","30","23:00","-6.5","","-8.0","","89","","","","9","","5","","19.3","","98.69","","","","-9","","Snow"
"-111.96","60.02","FORT SMITH A","2202201","2020-10-31 00:00","2020","10","31","00:00","-6.7","","-8.0","","91","","","","9","","4","","16.1","","98.74","","","","-9","","Snow"
"-111.96","60.02","FORT SMITH A","2202201","2020-10-31 01:00","2020","10","31","01:00","-7.2","","-8.2","","92","","","","36","","3","","16.1","","98.79","","","","-9","","Snow"
"-111.96","60.02","FORT SMITH A","2202201","2020-10-31 02:00","2020","10","31","02:00","-8.5","","-9.6","","91","","","","36","","3","","19.3","","98.83","","","","-10","","Snow"
"-111.96","60.02","FORT SMITH A","2202201","2020-10-31 03:00","2020","10","31","03:00","-9.6","","-10.8","","91","","","","11","","4","","24.1","","98.87","","","","-12","","Snow"
"-111.96","60.02","FORT SMITH A","2202201","2020-10-31 04:00","2020","10","31","04:00","-7.9","","-9.2","","91","","","","14","","7","","16.1","","98.88","","","","-12","","Snow"
"-111.96","60.02","FORT SMITH A","2202201","2020-10-31 05:00","2020","10","31","05:00","-8.3","","-9.6","","90","","","","14","","7","","16.1","","98.91","","","","-12","","Snow"
"-111.96","60.02","FORT SMITH A","2202201","2020-10-31 06:00","2020","10","31","06:00","-9.0","","-10.3","","90","","","","17","","9","","19.3","","98.93","","","","-14","","Snow"
"-111.96","60.02","FORT SMITH A","2202201","2020-10-31 07:00","2020","10","31","07:00","-9.1","","-10.4","","90","","","","16","","8","","24.1","","98.96","","","","-13","","Snow"
"-111.96","60.02","FORT SMITH A","2202201","2020-10-31 08:00","2020","10","31","08:00","-9.8","","-11.2","","90","","","","14","","6","","24.1","","98.96","","","","-13","","Snow"
"-111.96","60.02","FORT SMITH A","2202201","2020-10-31 09:00","2020","10","31","09:00","-9.2","","-10.5","","90","","","","15","","11","","24.1","","98.95","","","","-15","","NA"
"-111.96","60.02","FORT SMITH A","2202201","2020-10-31 10:00","2020","10","31","10:00","-7.3","","-8.7","","90","","","","17","","13","","24.1","","98.95","","","","-13","","NA"
"-111.96","60.02","FORT SMITH A","2202201","2020-10-31 11:00","2020","10","31","11:00","-7.4","","-8.9","","89","","","","17","","17","","24.1","","98.93","","","","-14","","Mostly Cloudy"
"-111.96","60.02","FORT SMITH A","2202201","2020-10-31 12:00","2020","10","31","12:00","-5.8","","-8.4","","82","","","","16","","15","","24.1","","98.87","","","","-12","","NA"
"-111.96","60.02","FORT SMITH A","2202201","2020-10-31 13:00","2020","10","31","13:00","-5.7","","-8.4","","81","","","","15","","21","","24.1","","98.80","","","","-13","","NA"
"-111.96","60.02","FORT SMITH A","2202201","2020-10-31 14:00","2020","10","31","14:00","-6.0","","-8.1","","85","","","","18","","16","","24.1","","98.77","","","","-12","","Mostly Cloudy"
"-111.96","60.02","FORT SMITH A","2202201","2020-10-31 15:00","2020","10","31","15:00","-5.1","","-7.1","","86","","","","17","","13","","24.1","","98.75","","","","-10","","NA"
"-111.96","60.02","FORT SMITH A","2202201","2020-10-31 16:00","2020","10","31","16:00","-5.1","","-6.9","","87","","","","15","","11","","24.1","","98.68","","","","-10","","NA"
"-111.96","60.02","FORT SMITH A","2202201","2020-10-31 17:00","2020","10","31","17:00","-4.5","","-6.1","","89","","","","14","","13","","24.1","","98.62","","","","-10","","Cloudy"
"-111.96","60.02","FORT SMITH A","2202201","2020-10-31 18:00","2020","10","31","18:00","-4.1","","-5.9","","87","","","","16","","14","","24.1","","98.57","","","","-9","","NA"
"-111.96","60.02","FORT SMITH A","2202201","2020-10-31 19:00","2020","10","31","19:00","-4.0","","-5.8","","87","","","","15","","13","","24.1","","98.47","","","","-9","","NA"
"-111.96","60.02","FORT SMITH A","2202201","2020-10-31 20:00","2020","10","31","20:00","-3.7","","-5.6","","87","","","","15","","13","","24.1","","98.37","","","","-9","","Mostly Cloudy"
"-111.96","60.02","FORT SMITH A","2202201","2020-10-31 21:00","2020","10","31","21:00","-4.0","","-5.8","","87","","","","14","","10","","24.1","","98.29","","","","-8","","NA"
"-111.96","60.02","FORT SMITH A","2202201","2020-10-31 22:00","2020","10","31","22:00","-3.7","","-5.6","","87","","","","14","","7","","24.1","","98.18","","","","-7","","NA"
"-111.96","60.02","FORT SMITH A","2202201","2020-10-31 23:00","2020","10","31","23:00","-3.6","","-5.3","","88","","","","15","","11","","24.1","","98.11","","","","-8","","Snow"
