"Longitude (x)","Latitude (y)","Station Name","Climate ID","Date/Time (LST)","Year","Month","Day","Time (LST)","Temp (°C)","Temp Flag","Dew Point Temp (°C)","Dew Point Temp Flag","Rel Hum (%)","Rel Hum Flag","Precip. Amount (mm)","Precip. Amount Flag","Wind Dir (10s deg)","Wind Dir Flag","Wind Spd (km/h)","Wind Spd Flag","Visibility (km)","Visibility Flag","Stn Press (kPa)","Stn Press Flag","Hmdx","Hmdx Flag","Wind Chill","Wind Chill Flag","Weather"
"-111.96","60.02","FORT SMITH A","2202201","2020-11-01 00:00","2020","11","01","00:00","-3.9","","-5.4","","89","","","","14","","6","","24.1","","97.97","","","","-7","","Snow"
"-111.96","60.02","FORT SMITH A","2202201","2020-11-01 01:00","2020","11","01","01:00","-3.7","","-5.1","","90","","","","14","","13","","24.1","","97.86","","","","-9","","Snow"
"-111.96","60.02","FORT SMITH A","2202201","2020-11-01 02:00","2020","11","01","02:00","-3.1","","-4.5","","90","","","","16","","11","","24.1","","97.80","","","","-7","","Snow"
"-111.96","60.02","FORT SMITH A","2202201","2020-11-01 03:00","2020","11","01","03:00","-2.4","","-3.7","","91","","","","15","","16","","24.1","","97.66","","","","-8","","Freezing Rain,Snow"
"-111.96","60.02","FORT SMITH A","2202201","2020-11-01 04:00","2020","11","01","04:00","-2.5","","-3.9","","90","","","","18","","10","","24.1","","97.65","","","","-6","","NA"
"-111.96","60.02","FORT SMITH A","2202201","2020-11-01 05:00","2020","11","01","05:00","-2.4","","-3.7","","90","","","","19","","7","","24.1","","97.67","","","","-5","","Cloudy"
"-111.96","60.02","FORT SMITH A","2202201","2020-11-01 06:00","2020","11","01","06:00","-1.4","","-3.2","","88","","","","21","","13","","24.1","","97.61","","","","-6","","NA"
"-111.96","60.02","FORT SMITH A","2202201","2020-11-01 07:00","2020","11","01","07:00","-2.2","","-3.9","","88","","","","24","","10","","24.1","","97.64","","","","-6","","NA"
"-111.96","60.02","FORT SMITH A","2202201","2020-11-01 08:00","2020","11","01","08:00","0.7","","-1.5","","85","","","","30","","23","","24.1","","97.74","","","","","","Cloudy"
"-111.96","60.02","FORT SMITH A","2202201","2020-11-01 09:00","2020","11","01","09:00","-0.7","","-2.7","","86","","","","28","","18","","24.1","","97.84","","","","-6","","NA"
"-111.96","60.02","FORT SMITH A","2202201","2020-11-01 10:00","2020","11","01","10:00","-1.6","","-3.8","","85","","","","30","","23","","24.1","","97.94","","","","-8","","NA"
"-111.96","60.02","FORT SMITH A","2202201","2020-11-01 11:00","2020","11","01","11:00","-2.0","","-4.3","","85","","","","29","","26","","24.1","","98.07","","","","-9","","Cloudy"
"-111.96","60.02","FORT SMITH A","2202201","2020-11-01 12:00","2020","11","01","12:00","-2.1","","-4.3","","85","","","","29","","22","","24.1","","98.18","","","","-8","","NA"
"-111.96","60.02","FORT SMITH A","2202201","2020-11-01 13:00","2020","11","01","13:00","-2.6","","-4.6","","86","","","","29","","23","","24.1","","98.30","","","","-9","","NA"
"-111.96","60.02","FORT SMITH A","2202201","2020-11-01 14:00","2020","11","01","14:00","-2.6","","-4.7","","85","","","","28","","16","","24.1","","98.35","","","","-8","","Cloudy"
"-111.96","60.02","FORT SMITH A","2202201","2020-11-01 15:00","2020","11","01","15:00","-2.8","","-4.8","","86","","","","30","","21","","24.1","","98.42","","","","-9","","NA"
"-111.96","60.02","FORT SMITH A","2202201","2020-11-01 16:00","2020","11","01","16:00","-3.2","","-5.0","","88","","","","29","","20","","24.1","","98.52","","","","-9","","NA"
"-111.96","60.02","FORT SMITH A","2202201","2020-11-01 17:00","2020","11","01","17:00","-3.7","","-5.1","","90","","","","30","","17","","6.4","","98.59","","","","-9","","Freezing Drizzle,Snow Grains"
"-111.96","60.02","FORT SMITH A","2202201","2020-11-01 18:00","2020","11","01","18:00","-4.2","","-5.4","","91","","","","29","","12","","9.7","","98.58","","","","-9","","Freezing Drizzle,Snow"
"-111.96","60.02","FORT SMITH A","2202201","2020-11-01 19:00","2020","11","01","19:00","-4.6","","-5.6","","93","","","","28","","12","","16.1","","98.65","","","","-9","","Freezing Drizzle,Snow"
"-111.96","60.02","FORT SMITH A","2202201","2020-11-01 20:00","2020","11","01","20:00","-4.8","","-5.7","","94","","","","28","","14","","9.7","","98.76","","","","-10","","Freezing Drizzle,Snow"
"-111.96","60.02","FORT SMITH A","2202201","2020-11-01 21:00","2020","11","01","21:00","-5.0","","-5.7","","94","","","","29","","15","","9.7","","98.81","","","","-11","","Freezing Drizzle,Snow"
"-111.96","60.02","FORT SMITH A","2202201","2020-11-01 22:00","2020","11","01","22:00","-4.8","","-5.8","","93","","","","30","","10","","6.4","","98.75","","","","-9","","Snow"
"-111.96","60.02","FORT SMITH A","2202201","2020-11-01 23:00","2020","11","01","23:00","-4.7","","-5.8","","92","","","","32","","3","","9.7","","98.68","","","","-6","","Snow"
"-111.96","60.02","FORT SMITH A","2202201","2020-11-02 00:00","2020","11","02","00:00","-4.5","","-5.8","","91","","","","36","","14","","6.4","","98.78","","","","-10","","Snow"
"-111.96","60.02","FORT SMITH A","2202201","2020-11-02 01:00","2020","11","02","01:00","-5.3","","-7.1","","87","","","","1","","12","","4.8","","98.68","","","","-10","","Snow"
"-111.96","60.02","FORT SMITH A","2202201","2020-11-02 02:00","2020","11","02","02:00","-5.9","","-7.8","","87","","","","36","","14","","4.8","","98.73","","","","-11","","Snow"
"-111.96","60.02","FORT SMITH A","2202201","2020-11-02 03:00","2020","11","02","03:00","-6.3","","-7.8","","89","","","","36","","9","","4.8","","98.73","","","","-11","","Snow"
"-111.96","60.02","FORT SMITH A","2202201","2020-11-02 04:00","2020","11","02","04:00","-6.5","","-7.9","","90","","","","2","","10","","9.7","","98.72","","","","-11","","Snow"
"-111.96","60.02","FORT SMITH A","2202201","2020-11-02 05:00","2020","11","02","05:00","-6.8","","-8.2","","90","","","","2","","15","","24.1","","98.64","","","","-13","","Snow"
"-111.96","60.02","FORT SMITH A","2202201","2020-11-02 06:00","2020","11","02","06:00","-7.0","","-8.6","","88","","","","3","","14","","3.2","","98.58","","","","-13","","Snow"
"-111.96","60.02","FORT SMITH A","2202201","2020-11-02 07:00","2020","11","02","07:00","-7.3","","-8.8","","89","","","","2","","13","","4.8","","98.55","","","","-13","","Snow"
"-111.96","60.02","FORT SMITH A","2202201","2020-11-02 08:00","2020","11","02","08:00","-7.6","","-9.2","","88","","","","5","","10","","2.0","","98.44","","","","-12","","Snow"
"-111.96","60.02","FORT SMITH A","2202201","2020-11-02 09:00","2020","11","02","09:00","-7.3","","-8.9","","89","","","","5","","9","","4.0","","98.38","","","","-12","","Snow,Fog"
"-111.96","60.02","FORT SMITH A","2202201","2020-11-02 10:00","2020","11","02","10:00","-6.7","","-8.2","","89","","","","3","","14","","4.0","","98.38","","","","-12","","Snow"
"-111.96","60.02","FORT SMITH A","2202201","2020-11-02 11:00","2020","11","02","11:00","-6.2","","-7.7","","89","","","","3","","15","","19.3","","98.24","","","","-12","","Snow"
"-111.96","60.02","FORT SMITH A","2202201","2020-11-02 12:00","2020","11","02","12:00","-5.6","","-7.4","","87","","","","5","","10","","24.1","","98.18","","","","-10","","Snow"
"-111.96","60.02","FORT SMITH A","2202201","2020-11-02 13:00","2020","11","02","13:00","-5.3","","-7.3","","86","","","","5","","10","","24.1","","98.10","","","","-10","","NA"
"-111.96","60.02","FORT SMITH A","2202201","2020-11-02 14:00","2020","11","02","14:00","-5.2","","-7.3","","86","","","","7","","8","","19.3","","97.90","","","","-9","","Snow"
"-111.96","60.02","FORT SMITH A","2202201","2020-11-02 15:00","2020","11","02","15:00","-5.1","","-7.2","","85","","","","7","","8","","24.1","","97.86","","","","-9","","Snow"
"-111.96","60.02","FORT SMITH A","2202201","2020-11-02 16:00","2020","11","02","16:00","-5.1","","-7.0","","87","","","","5","","8","","19.3","","97.88","","","","-9","","Snow"
"-111.96","60.02","FORT SMITH A","2202201","2020-11-02 17:00","2020","11","02","17:00","-5.5","","-7.2","","88","","","","5","","11","","4.8","","97.78","","","","-10","","Snow"
"-111.96","60.02","FORT SMITH A","2202201","2020-11-02 18:00","2020","11","02","18:00","-5.7","","-7.3","","89","","","","5","","10","","2.0","","97.74","","","","-10","","Snow"
"-111.96","60.02","FORT SMITH A","2202201","2020-11-02 19:00","2020","11","02","19:00","-6.0","","-7.5","","89","","","","6","","9","","1.2","","97.60","","","","-10","","Snow"
"-111.96","60.02","FORT SMITH A","2202201","2020-11-02 20:00","2020","11","02","20:00","-6.4","","-8.1","","88","","","","8","","9","","16.1","","97.57","","","","-11","","Snow"
"-111.96","60.02","FORT SMITH A","2202201","2020-11-02 21:00","2020","11","02","21:00","-6.3","","-8.2","","87","","","","6","","8","","16.1","","97.62","","","","-10","","Snow"
"-111.96","60.02","FORT SMITH A","2202201","2020-11-02 22:00","2020","11","02","22:00","-6.7","","-8.3","","89","","","","6","","10","","9.7","","97.58","","","","-11","","Snow"
"-111.96","60.02","FORT SMITH A","2202201","2020-11-02 23:00","2020","11","02","23:00","-7.1","","-8.6","","89","","","","9","","3","","9.7","","97.53","","","","-9","","Snow"
"-111.96","60.02","FORT SMITH A","2202201","2020-11-03 00:00","2020","11","03","00:00","-7.4","","-8.9","","89","","","","5","","3","","16.1","","97.58","","","","-9","","Snow"
"-111.96","60.02","FORT SMITH A","2202201","2020-11-03 01:00","2020","11","03","01:00","-7.4","","-9.1","","87","","","","8","","5","","19.3","","97.56","","","","-10","","Snow"
"-111.96","60.02","FORT SMITH A","2202201","2020-11-03 02:00","2020","11","03","02:00","-7.4","","-9.0","","88","","","","3","","4","","19.3","","97.58","","","","-9","","Snow"
"-111.96","60.02","FORT SMITH A","2202201","2020-11-03 03:00","2020","11","03","03:00","-7.3","","-8.9","","88","","","","36","","2","","24.1","","97.63","","","","-8","","Snow"
"-111.96","60.02","FORT SMITH A","2202201","2020-11-03 04:00","2020","11","03","04:00","-7.1","","-8.7","","89","","","","17","","3","","24.1","","97.63","","","","-9","","Snow"
"-111.96","60.02","FORT SMITH A","2202201","2020-11-03 05:00","2020","11","03","05:00","-7.2","","-8.7","","89","","","","","","0","","24.1","","97.60","","","","","","Cloudy"
"-111.96","60.02","FORT SMITH A","2202201","2020-11-03 06:00","2020","11","03","06:00","-7.1","","-8.5","","90","","","","36","","2","","24.1","","97.63","","","","-8","","NA"
"-111.96","60.02","FORT SMITH A","2202201","2020-11-03 07:00","2020","11","03","07:00","-6.9","","-8.1","","91","","","","24","","6","","19.3","","97.65","","","","-10","","Snow"
"-111.96","60.02","FORT SMITH A","2202201","2020-11-03 08:00","2020","11","03","08:00","-7.0","","-8.5","","89","","","","30","","15","","19.3","","97.75","","","","-13","","Snow"
"-111.96","60.02","FORT SMITH A","2202201","2020-11-03 09:00","2020","11","03","09:00","-7.4","","-8.8","","90","","","","31","","15","","24.1","","97.78","","","","-14","","Snow"
"-111.96","60.02","FORT SMITH A","2202201","2020-11-03 10:00","2020","11","03","10:00","-7.2","","-8.8","","88","","","","30","","14","","2.4","","97.90","","","","-13","","Snow,Blowing Snow"
"-111.96","60.02","FORT SMITH A","2202201","2020-11-03 11:00","2020","11","03","11:00","-7.1","","-8.7","","88","","","","30","","9","","0.8","","97.87","","","","-11","","Moderate Snow"
"-111.96","60.02","FORT SMITH A","2202201","2020-11-03 12:00","2020","11","03","12:00","-6.7","","-8.9","","84","","","","30","","16","","24.1","","97.96","","","","-13","","Snow"
"-111.96","60.02","FORT SMITH A","2202201","2020-11-03 13:00","2020","11","03","13:00","-6.4","","-8.7","","83","","","","29","","11","","24.1","","98.04","","","","-11","","Snow"
"-111.96","60.02","FORT SMITH A","2202201","2020-11-03 14:00","2020","11","03","14:00","-6.0","","-8.6","","82","","","","32","","11","","24.1","","98.10","","","","-11","","Cloudy"
"-111.96","60.02","FORT SMITH A","2202201","2020-11-03 15:00","2020","11","03","15:00","-6.2","","-8.1","","86","","","","29","","14","","24.1","","98.17","","","","-12","","Snow"
"-111.96","60.02","FORT SMITH A","2202201","2020-11-03 16:00","2020","11","03","16:00","-6.7","","-8.7","","86","","","","30","","13","","24.1","","98.17","","","","-12","","Snow"
"-111.96","60.02","FORT SMITH A","2202201","2020-11-03 17:00","2020","11","03","17:00","-7.0","","-8.7","","87","","","","28","","10","","24.1","","98.26","","","","-12","","Snow"
"-111.96","60.02","FORT SMITH A","2202201","2020-11-03 18:00","2020","11","03","18:00","-7.3","","-8.9","","88","","","","29","","9","","19.3","","98.29","","","","-12","","Snow"
"-111.96","60.02","FORT SMITH A","2202201","2020-11-03 19:00","2020","11","03","19:00","-7.4","","-8.9","","89","","","","29","","8","","19.3","","98.30","","","","-11","","Snow"
"-111.96","60.02","FORT SMITH A","2202201","2020-11-03 20:00","2020","11","03","20:00","-7.4","","-9.2","","87","","","","35","","9","","19.3","","98.35","","","","-12","","Snow"
"-111.96","60.02","FORT SMITH A","2202201","2020-11-03 21:00","2020","11","03","21:00","-8.0","","-10.6","","82","","","","35","","12","","19.3","","98.38","","","","-13","","Snow"
"-111.96","60.02","FORT SMITH A","2202201","2020-11-03 22:00","2020","11","03","22:00","-8.4","","-11.1","","81","","","","1","","14","","24.1","","98.39","","","","-15","","Snow"
"-111.96","60.02","FORT SMITH A","2202201","2020-11-03 23:00","2020","11","03","23:00","-8.8","","-11.2","","83","","","","2","","13","","24.1","","98.40","","","","-15","","Cloudy"
"-111.96","60.02","FORT SMITH A","2202201","2020-11-04 00:00","2020","11","04","00:00","-9.3","","-11.6","","83","","","","2","","17","","9.7","","98.37","","","","-16","","Snow"
"-111.96","60.02","FORT SMITH A","2202201","2020-11-04 01:00","2020","11","04","01:00","-9.7","","-11.6","","86","","","","1","","11","","1.6","","98.35","","","","-15","","Snow"
"-111.96","60.02","FORT SMITH A","2202201","2020-11-04 02:00","2020","11","04","02:00","-10.2","","-12.3","","85","","","","2","","17","","1.2","","98.32","","","","-17","","Snow"
"-111.96","60.02","FORT SMITH A","2202201","2020-11-04 03:00","2020","11","04","03:00","-10.7","","-12.7","","86","","","","4","","7","","1.2","","98.36","","","","-15","","Snow"
"-111.96","60.02","FORT SMITH A","2202201","2020-11-04 04:00","2020","11","04","04:00","-11.5","","-13.8","","83","","","","36","","14","","1.2","","98.40","","","","-18","","Snow"
"-111.96","60.02","FORT SMITH A","2202201","2020-11-04 05:00","2020","11","04","05:00","-12.0","","-14.0","","85","","","","36","","12","","0.4","","98.46","","","","-18","","Heavy Snow"
"-111.96","60.02","FORT SMITH A","2202201","2020-11-04 06:00","2020","11","04","06:00","-12.1","","-14.3","","84","","","","33","","11","","1.2","","98.58","","","","-18","","Snow"
"-111.96","60.02","FORT SMITH A","2202201","2020-11-04 07:00","2020","11","04","07:00","-12.2","","-14.3","","84","","","","34","","10","","1.2","","98.65","","","","-18","","Snow"
"-111.96","60.02","FORT SMITH A","2202201","2020-11-04 08:00","2020","11","04","08:00","-12.6","","-14.9","","83","","","","32","","13","","2.0","","98.77","","","","-19","","Snow"
"-111.96","60.02","FORT SMITH A","2202201","2020-11-04 09:00","2020","11","04","09:00","-13.0","","-15.5","","82","","","","33","","13","","2.0","","98.92","","","","-20","","Snow"
"-111.96","60.02","FORT SMITH A","2202201","2020-11-04 10:00","2020","11","04","10:00","-12.6","","-15.4","","79","","","","35","","13","","6.4","","99.06","","","","-19","","Snow"
"-111.96","60.02","FORT SMITH A","2202201","2020-11-04 11:00","2020","11","04","11:00","-12.5","","-15.7","","77","","","","32","","18","","24.1","","99.14","","","","-21","","Mostly Cloudy"
"-111.96","60.02","FORT SMITH A","2202201","2020-11-04 12:00","2020","11","04","12:00","-12.1","","-15.7","","75","","","","32","","9","","24.1","","99.28","","","","-17","","NA"
"-111.96","60.02","FORT SMITH A","2202201","2020-11-04 13:00","2020","11","04","13:00","-12.0","","-15.6","","75","","","","33","","9","","24.1","","99.39","","","","-17","","NA"
"-111.96","60.02","FORT SMITH A","2202201","2020-11-04 14:00","2020","11","04","14:00","-12.1","","-15.8","","74","","","","36","","2","","24.1","","99.49","","","","-13","","Snow"
"-111.96","60.02","FORT SMITH A","2202201","2020-11-04 15:00","2020","11","04","15:00","-11.7","","-15.3","","75","","","","34","","7","","24.1","","99.59","","","","-16","","NA"
"-111.96","60.02","FORT SMITH A","2202201","2020-11-04 16:00","2020","11","04","16:00","-13.8","","-16.4","","81","","","","5","","7","","24.1","","99.57","","","","-18","","NA"
"-111.96","60.02","FORT SMITH A","2202201","2020-11-04 17:00","2020","11","04","17:00","-17.0","","-18.6","","87","","","","36","","1","","24.1","","99.57","","","","-18","","Clear"
"-111.96","60.02","FORT SMITH A","2202201","2020-11-04 18:00","2020","11","04","18:00","-17.6","","-19.3","","87","","","","17","","5","","24.1","","99.59","","","","-22","","NA"
"-111.96","60.02","FORT SMITH A","2202201","2020-11-04 19:00","2020","11","04","19:00","-18.8","","-20.8","","84","","","","16","","7","","24.1","","99.63","","","","-24","","NA"
"-111.96","60.02","FORT SMITH A","2202201","2020-11-04 20:00","2020","11","04","20:00","-19.3","","-21.6","","82","","","","15","","8","","24.1","","99.61","","","","-25","","Clear"
"-111.96","60.02","FORT SMITH A","2202201","2020-11-04 21:00","2020","11","04","21:00","-17.5","","-19.5","","85","","","","15","","10","","24.1","","99.64","","","","-24","","NA"
"-111.96","60.02","FORT SMITH A","2202201","2020-11-04 22:00","2020","11","04","22:00","-16.1","","-18.1","","85","","","","10","","6","","24.1","","99.56","","","","-21","","NA"
"-111.96","60.02","FORT SMITH A","2202201","2020-11-04 23:00","2020","11","04","23:00","-15.8","","-17.7","","85","","","","12","","3","","24.1","","99.54","","","","-18","","Mainly Clear"
"-111.96","60.02","FORT SMITH A","2202201","2020-11-05 00:00","2020","11","05","00:00","-17.8","","-20.0","","83","","","","9","","4","","24.1","","99.52","","","","-21","","NA"
"-111.96","60.02","FORT SMITH A","2202201","2020-11-05 01:00","2020","11","05","01:00","-15.7","","-17.8","","84","","","","10","","8","","24.1","","99.46","","","","-21","","NA"
"-111.96","60.02","FORT SMITH A","2202201","2020-11-05 02:00","2020","11","05","02:00","-15.2","","-17.3","","85","","","","9","","7","","24.1","","99.41","","","","-20","","Mostly Cloudy"
"-111.96","60.02","FORT SMITH A","2202201","2020-11-05 03:00","2020","11","05","03:00","-15.4","","-17.4","","85","","","","8","","8","","19.3","","99.36","","","","-21","","Snow"
"-111.96","60.02","FORT SMITH A","2202201","2020-11-05 04:00","2020","11","05","04:00","-14.4","","-16.3","","85","","","","9","","14","","24.1","","99.26","","","","-22","","Snow"
"-111.96","60.02","FORT SMITH A","2202201","2020-11-05 05:00","2020","11","05","05:00","-13.4","","-15.3","","86","","","","8","","15","","24.1","","99.11","","","","-21","","Snow"
"-111.96","60.02","FORT SMITH A","2202201","2020-11-05 06:00","2020","11","05","06:00","-12.9","","-14.7","","86","","","","9","","13","","24.1","","99.07","","","","-20","","NA"
"-111.96","60.02","FORT SMITH A","2202201","2020-11-05 07:00","2020","11","05","07:00","-12.8","","-14.7","","86","","","","9","","8","","24.1","","99.02","","","","-18","","Snow"
"-111.96","60.02","FORT SMITH A","2202201","2020-11-05 08:00","2020","11","05","08:00","-12.6","","-14.5","","86","","","","8","","14","","24.1","","98.96","","","","-20","","Snow"
"-111.96","60.02","FORT SMITH A","2202201","2020-11-05 09:00","2020","11","05","09:00","-12.7","","-14.7","","85","","","","7","","11","","24.1","","98.96","","","","-19","","Snow"
"-111.96","60.02","FORT SMITH A","2202201","2020-11-05 10:00","2020","11","05","10:00","-13.0","","-15.3","","83","","","","6","","10","","24.1","","98.99","","","","-19","","NA"
"-111.96","60.02","FORT SMITH A","2202201","2020-11-05 11:00","2020","11","05","11:00","-12.8","","-15.6","","80","","","","7","","13","","24.1","","98.94","","","","-20","","Cloudy"
"-111.96","60.02","FORT SMITH A","2202201","2020-11-05 12:00","2020","11","05","12:00","-12.5","","-15.3","","79","","","","7","","18","","24.1","","98.89","","","","-21","","NA"
"-111.96","60.02","FORT SMITH A","2202201","2020-11-05 13:00","2020","11","05","13:00","-12.3","","-15.5","","77","","","","8","","18","","24.1","","98.84","","","","-20","","NA"
"-111.96","60.02","FORT SMITH A","2202201","2020-11-05 14:00","2020","11","05","14:00","-11.8","","-15.1","","77","","","","7","","14","","24.1","","98.80","","","","-19","","Snow"
"-111.96","60.02","FORT SMITH A","2202201","2020-11-05 15:00","2020","11","05","15:00","-11.9","","-15.0","","78","","","","8","","18","","3.2","","98.73","","","","-20","","Snow,Blowing Snow"
"-111.96","60.02","FORT SMITH A","2202201","2020-11-05 16:00","2020","11","05","16:00","-11.8","","-14.5","","81","","","","8","","13","","2.0","","98.77","","","","-18","","Snow,Blowing Snow"
"-111.96","60.02","FORT SMITH A","2202201","2020-11-05 17:00","2020","11","05","17:00","-11.5","","-14.2","","81","","","","7","","13","","1.6","","98.80","","","","-18","","Snow,Blowing Snow"
"-111.96","60.02","FORT SMITH A","2202201","2020-11-05 18:00","2020","11","05","18:00","-11.3","","-13.9","","81","","","","8","","14","","1.2","","98.79","","","","-18","","Snow"
"-111.96","60.02","FORT SMITH A","2202201","2020-11-05 19:00","2020","11","05","19:00","-11.4","","-13.6","","84","","","","7","","13","","1.2","","98.79","","","","-18","","Snow"
"-111.96","60.02","FORT SMITH A","2202201","2020-11-05 20:00","2020","11","05","20:00","-11.4","","-13.6","","84","","","","7","","11","","1.2","","98.81","","","","-17","","Snow"
"-111.96","60.02","FORT SMITH A","2202201","2020-11-05 21:00","2020","11","05","21:00","-11.3","","-13.7","","83","","","","8","","7","","1.2","","98.81","","","","-16","","Snow"
"-111.96","60.02","FORT SMITH A","2202201","2020-11-05 22:00","2020","11","05","22:00","-11.2","","-13.5","","84","","","","7","","12","","1.6","","98.84","","","","-17","","Snow"
"-111.96","60.02","FORT SMITH A","2202201","2020-11-05 23:00","2020","11","05","23:00","-11.2","","-13.4","","83","","","","5","","8","","3.2","","98.84","","","","-16","","Snow"
"-111.96","60.02","FORT SMITH A","2202201","2020-11-06 00:00","2020","11","06","00:00","-11.4","","-13.5","","85","","","","5","","12","","1.6","","98.81","","","","-18","","Snow"
"-111.96","60.02","FORT SMITH A","2202201","2020-11-06 01:00","2020","11","06","01:00","-11.7","","-13.8","","85","","","","6","","11","","1.2","","98.79","","","","-18","","Snow"
"-111.96","60.02","FORT SMITH A","2202201","2020-11-06 02:00","2020","11","06","02:00","-11.6","","-13.8","","84","","","","6","","9","","4.8","","98.82","","","","-17","","Snow"
"-111.96","60.02","FORT SMITH A","2202201","2020-11-06 03:00","2020","11","06","03:00","-11.5","","-13.7","","84","","","","6","","8","","4.8","","98.80","","","","-16","","Snow"
"-111.96","60.02","FORT SMITH A","2202201","2020-11-06 04:00","2020","11","06","04:00","-11.8","","-14.0","","83","","","","6","","5","","9.7","","98.80","","","","-15","","Snow"
"-111.96","60.02","FORT SMITH A","2202201","2020-11-06 05:00","2020","11","06","05:00","-13.2","","-15.0","","87","","","","3","","5","","16.1","","98.78","","","","-17","","Snow"
"-111.96","60.02","FORT SMITH A","2202201","2020-11-06 06:00","2020","11","06","06:00","-13.8","","-15.5","","87","","","","31","","6","","16.1","","98.79","","","","-18","","Snow"
"-111.96","60.02","FORT SMITH A","2202201","2020-11-06 07:00","2020","11","06","07:00","-12.8","","-14.6","","86","","","","34","","5","","3.2","","98.79","","","","-16","","Snow"
"-111.96","60.02","FORT SMITH A","2202201","2020-11-06 08:00","2020","11","06","08:00","-13.8","","-15.6","","86","","","","30","","9","","4.8","","98.82","","","","-19","","Snow"
"-111.96","60.02","FORT SMITH A","2202201","2020-11-06 09:00","2020","11","06","09:00","-14.9","","-16.9","","85","","","","28","","7","","9.7","","98.82","","","","-20","","Snow"
"-111.96","60.02","FORT SMITH A","2202201","2020-11-06 10:00","2020","11","06","10:00","-14.5","","-16.4","","86","","","","26","","8","","8.1","","98.80","","","","-20","","Snow"
"-111.96","60.02","FORT SMITH A","2202201","2020-11-06 11:00","2020","11","06","11:00","-13.9","","-16.0","","84","","","","26","","11","","16.1","","98.81","","","","-20","","Snow"
"-111.96","60.02","FORT SMITH A","2202201","2020-11-06 12:00","2020","11","06","12:00","-13.5","","-16.0","","82","","","","26","","14","","24.1","","98.80","","","","-21","","Snow"
"-111.96","60.02","FORT SMITH A","2202201","2020-11-06 13:00","2020","11","06","13:00","-13.3","","-16.1","","80","","","","29","","14","","24.1","","98.82","","","","-21","","Snow"
"-111.96","60.02","FORT SMITH A","2202201","2020-11-06 14:00","2020","11","06","14:00","-12.6","","-15.6","","78","","","","25","","10","","24.1","","98.81","","","","-18","","Snow"
"-111.96","60.02","FORT SMITH A","2202201","2020-11-06 15:00","2020","11","06","15:00","-12.6","","-15.5","","79","","","","22","","14","","16.1","","98.84","","","","-20","","Snow"
"-111.96","60.02","FORT SMITH A","2202201","2020-11-06 16:00","2020","11","06","16:00","-12.0","","-14.6","","82","","","","24","","11","","16.1","","98.84","","","","-18","","Snow"
"-111.96","60.02","FORT SMITH A","2202201","2020-11-06 17:00","2020","11","06","17:00","-12.1","","-14.2","","84","","","","21","","6","","4.8","","98.84","","","","-16","","Snow"
"-111.96","60.02","FORT SMITH A","2202201","2020-11-06 18:00","2020","11","06","18:00","-12.1","","-14.1","","85","","","","20","","9","","4.8","","98.87","","","","-17","","Snow"
"-111.96","60.02","FORT SMITH A","2202201","2020-11-06 19:00","2020","11","06","19:00","-11.9","","-14.1","","84","","","","24","","9","","4.8","","98.87","","","","-17","","Snow"
"-111.96","60.02","FORT SMITH A","2202201","2020-11-06 20:00","2020","11","06","20:00","-12.2","","-14.2","","85","","","","23","","8","","9.7","","98.85","","","","-17","","Snow"
"-111.96","60.02","FORT SMITH A","2202201","2020-11-06 21:00","2020","11","06","21:00","-12.1","","-14.0","","85","","","","21","","7","","16.1","","98.84","","","","-16","","NA"
"-111.96","60.02","FORT SMITH A","2202201","2020-11-06 22:00","2020","11","06","22:00","-12.2","","-14.3","","85","","","","15","","3","","9.7","","98.88","","","","-14","","Snow"
"-111.96","60.02","FORT SMITH A","2202201","2020-11-06 23:00","2020","11","06","23:00","-12.0","","-14.0","","85","","","","21","","4","","16.1","","98.85","","","","-15","","Snow"
"-111.96","60.02","FORT SMITH A","2202201","2020-11-07 00:00","2020","11","07","00:00","-12.0","","-14.0","","85","","","","19","","7","","19.3","","98.84","","","","-16","","Snow"
"-111.96","60.02","FORT SMITH A","2202201","2020-11-07 01:00","2020","11","07","01:00","-12.3","","-14.3","","86","","","","14","","6","","19.3","","98.85","","","","-16","","Snow"
"-111.96","60.02","FORT SMITH A","2202201","2020-11-07 02:00","2020","11","07","02:00","-12.2","","-14.3","","85","","","","14","","3","","19.3","","98.85","","","","-14","","Snow"
"-111.96","60.02","FORT SMITH A","2202201","2020-11-07 03:00","2020","11","07","03:00","-12.2","","-14.3","","84","","","","15","","7","","24.1","","98.86","","","","-17","","Snow"
"-111.96","60.02","FORT SMITH A","2202201","2020-11-07 04:00","2020","11","07","04:00","-12.6","","-14.6","","85","","","","14","","5","","24.1","","98.84","","","","-16","","Snow"
"-111.96","60.02","FORT SMITH A","2202201","2020-11-07 05:00","2020","11","07","05:00","-12.2","","-14.2","","85","","","","13","","5","","24.1","","98.84","","","","-15","","Snow"
"-111.96","60.02","FORT SMITH A","2202201","2020-11-07 06:00","2020","11","07","06:00","-12.2","","-14.3","","85","","","","14","","8","","24.1","","98.88","","","","-17","","Snow"
"-111.96","60.02","FORT SMITH A","2202201","2020-11-07 07:00","2020","11","07","07:00","-12.3","","-14.3","","85","","","","12","","5","","24.1","","98.91","","","","-16","","Snow"
"-111.96","60.02","FORT SMITH A","2202201","2020-11-07 08:00","2020","11","07","08:00","-12.7","","-14.7","","85","","","","16","","9","","24.1","","98.96","","","","-18","","Snow"
"-111.96","60.02","FORT SMITH A","2202201","2020-11-07 09:00","2020","11","07","09:00","-12.9","","-15.0","","85","","","","36","","2","","24.1","","99.03","","","","-14","","Snow"
"-111.96","60.02","FORT SMITH A","2202201","2020-11-07 10:00","2020","11","07","10:00","-13.4","","-15.8","","82","","","","16","","5","","24.1","","99.07","","","","-17","","NA"
"-111.96","60.02","FORT SMITH A","2202201","2020-11-07 11:00","2020","11","07","11:00","-13.0","","-15.4","","82","","","","15","","4","","24.1","","99.10","","","","-16","","Mostly Cloudy"
"-111.96","60.02","FORT SMITH A","2202201","2020-11-07 12:00","2020","11","07","12:00","-12.9","","-15.7","","79","","","","23","","3","","24.1","","99.15","","","","-15","","NA"
"-111.96","60.02","FORT SMITH A","2202201","2020-11-07 13:00","2020","11","07","13:00","-11.4","","-14.7","","77","","","","36","","3","","24.1","","99.17","","","","-13","","NA"
"-111.96","60.02","FORT SMITH A","2202201","2020-11-07 14:00","2020","11","07","14:00","-11.5","","-14.5","","79","","","","23","","3","","24.1","","99.21","","","","-13","","Mostly Cloudy"
"-111.96","60.02","FORT SMITH A","2202201","2020-11-07 15:00","2020","11","07","15:00","-12.1","","-14.6","","82","","","","24","","4","","24.1","","99.27","","","","-15","","NA"
"-111.96","60.02","FORT SMITH A","2202201","2020-11-07 16:00","2020","11","07","16:00","-14.4","","-16.4","","85","","","","28","","9","","24.1","","99.36","","","","-20","","NA"
"-111.96","60.02","FORT SMITH A","2202201","2020-11-07 17:00","2020","11","07","17:00","-13.6","","-15.6","","85","","","","25","","8","","24.1","","99.43","","","","-19","","Snow"
"-111.96","60.02","FORT SMITH A","2202201","2020-11-07 18:00","2020","11","07","18:00","-16.4","","-17.7","","89","","","","23","","3","","24.1","","99.50","","","","-19","","Snow"
"-111.96","60.02","FORT SMITH A","2202201","2020-11-07 19:00","2020","11","07","19:00","-17.9","","-19.8","","86","","","","21","","5","","24.1","","99.58","","","","-22","","Snow"
"-111.96","60.02","FORT SMITH A","2202201","2020-11-07 20:00","2020","11","07","20:00","-21.1","","-23.7","","80","","","","36","","3","","24.1","","99.62","","","","-24","","Mainly Clear"
"-111.96","60.02","FORT SMITH A","2202201","2020-11-07 21:00","2020","11","07","21:00","-21.3","","-23.9","","80","","","","15","","4","","24.1","","99.71","","","","-25","","NA"
"-111.96","60.02","FORT SMITH A","2202201","2020-11-07 22:00","2020","11","07","22:00","-21.4","","-23.9","","81","","","","15","","8","","24.1","","99.73","","","","-28","","NA"
"-111.96","60.02","FORT SMITH A","2202201","2020-11-07 23:00","2020","11","07","23:00","-21.9","","-24.4","","81","","","","36","","1","","24.1","","99.78","","","","-23","","Clear"
"-111.96","60.02","FORT SMITH A","2202201","2020-11-08 00:00","2020","11","08","00:00","-18.6","","-20.9","","82","","","","16","","8","","24.1","","99.83","","","","-25","","NA"
"-111.96","60.02","FORT SMITH A","2202201","2020-11-08 01:00","2020","11","08","01:00","-17.9","","-20.2","","82","","","","16","","12","","24.1","","99.85","","","","-25","","NA"
"-111.96","60.02","FORT SMITH A","2202201","2020-11-08 02:00","2020","11","08","02:00","-17.1","","-19.4","","83","","","","16","","6","","24.1","","99.88","","","","-22","","Cloudy"
"-111.96","60.02","FORT SMITH A","2202201","2020-11-08 03:00","2020","11","08","03:00","-16.9","","-19.2","","83","","","","16","","8","","24.1","","99.91","","","","-23","","NA"
"-111.96","60.02","FORT SMITH A","2202201","2020-11-08 04:00","2020","11","08","04:00","-15.9","","-18.1","","84","","","","17","","9","","19.3","","99.91","","","","-22","","Snow"
"-111.96","60.02","FORT SMITH A","2202201","2020-11-08 05:00","2020","11","08","05:00","-15.0","","-17.1","","84","","","","17","","8","","19.3","","99.91","","","","-20","","Snow"
"-111.96","60.02","FORT SMITH A","2202201","2020-11-08 06:00","2020","11","08","06:00","-14.3","","-16.3","","85","","","","17","","5","","19.3","","99.94","","","","-18","","Snow"
"-111.96","60.02","FORT SMITH A","2202201","2020-11-08 07:00","2020","11","08","07:00","-13.6","","-15.6","","85","","","","15","","5","","24.1","","99.97","","","","-17","","Snow"
"-111.96","60.02","FORT SMITH A","2202201","2020-11-08 08:00","2020","11","08","08:00","-13.3","","-15.2","","86","","","","15","","10","","24.1","","99.96","","","","-19","","Snow"
"-111.96","60.02","FORT SMITH A","2202201","2020-11-08 09:00","2020","11","08","09:00","-12.3","","-14.1","","87","","","","14","","8","","24.1","","99.95","","","","-17","","Snow"
"-111.96","60.02","FORT SMITH A","2202201","2020-11-08 10:00","2020","11","08","10:00","-11.2","","-13.0","","87","","","","16","","7","","24.1","","99.97","","","","-15","","Snow"
"-111.96","60.02","FORT SMITH A","2202201","2020-11-08 11:00","2020","11","08","11:00","-10.3","","-12.2","","86","","","","14","","8","","24.1","","99.92","","","","-15","","Mostly Cloudy"
"-111.96","60.02","FORT SMITH A","2202201","2020-11-08 12:00","2020","11","08","12:00","-8.9","","-11.2","","83","","","","17","","4","","24.1","","99.87","","","","-11","","NA"
"-111.96","60.02","FORT SMITH A","2202201","2020-11-08 13:00","2020","11","08","13:00","-7.3","","-9.8","","82","","","","17","","9","","24.1","","99.81","","","","-12","","NA"
"-111.96","60.02","FORT SMITH A","2202201","2020-11-08 14:00","2020","11","08","14:00","-6.2","","-8.9","","81","","","","17","","11","","24.1","","99.75","","","","-11","","Clear"
"-111.96","60.02","FORT SMITH A","2202201","2020-11-08 15:00","2020","11","08","15:00","-6.6","","-8.7","","85","","","","14","","13","","24.1","","99.69","","","","-12","","NA"
"-111.96","60.02","FORT SMITH A","2202201","2020-11-08 16:00","2020","11","08","16:00","-7.9","","-9.9","","85","","","","16","","19","","24.1","","99.60","","","","-15","","NA"
"-111.96","60.02","FORT SMITH A","2202201","2020-11-08 17:00","2020","11","08","17:00","-10.0","","-12.0","","85","","","","16","","17","","24.1","","99.56","","","","-17","","Clear"
"-111.96","60.02","FORT SMITH A","2202201","2020-11-08 18:00","2020","11","08","18:00","-11.2","","-13.2","","86","","","","16","","17","","24.1","","99.47","","","","-19","","NA"
"-111.96","60.02","FORT SMITH A","2202201","2020-11-08 19:00","2020","11","08","19:00","-11.9","","-13.7","","86","","","","15","","18","","24.1","","99.30","","","","-20","","NA"
"-111.96","60.02","FORT SMITH A","2202201","2020-11-08 20:00","2020","11","08","20:00","-12.0","","-13.6","","88","","","","16","","17","","24.1","","99.19","","","","-20","","Clear"
"-111.96","60.02","FORT SMITH A","2202201","2020-11-08 21:00","2020","11","08","21:00","-10.8","","-12.2","","89","","","","16","","18","","24.1","","99.05","","","","-18","","NA"
"-111.96","60.02","FORT SMITH A","2202201","2020-11-08 22:00","2020","11","08","22:00","-10.4","","-11.9","","89","","","","16","","17","","24.1","","98.95","","","","-18","","NA"
"-111.96","60.02","FORT SMITH A","2202201","2020-11-08 23:00","2020","11","08","23:00","-9.1","","-10.3","","91","","","","16","","21","","24.1","","98.81","","","","-17","","Mostly Cloudy"
"-111.96","60.02","FORT SMITH A","2202201","2020-11-09 00:00","2020","11","09","00:00","-10.7","","-12.5","","87","","","","16","","21","","24.1","","98.67","","","","-19","","NA"
"-111.96","60.02","FORT SMITH A","2202201","2020-11-09 01:00","2020","11","09","01:00","-11.2","","-13.1","","86","","","","16","","23","","24.1","","98.55","","","","-20","","NA"
"-111.96","60.02","FORT SMITH A","2202201","2020-11-09 02:00","2020","11","09","02:00","-11.6","","-13.6","","85","","","","16","","21","","24.1","","98.41","","","","-20","","Clear"
"-111.96","60.02","FORT SMITH A","2202201","2020-11-09 03:00","2020","11","09","03:00","-10.8","","-12.9","","85","","","","16","","23","","24.1","","98.30","","","","-19","","Blowing Snow"
"-111.96","60.02","FORT SMITH A","2202201","2020-11-09 04:00","2020","11","09","04:00","-9.9","","-12.2","","84","","","","16","","26","","24.1","","98.13","","","","-19","","Blowing Snow"
"-111.96","60.02","FORT SMITH A","2202201","2020-11-09 05:00","2020","11","09","05:00","-9.9","","-12.3","","83","","","","15","","18","","24.1","","98.02","","","","-17","","Mostly Cloudy"
"-111.96","60.02","FORT SMITH A","2202201","2020-11-09 06:00","2020","11","09","06:00","-8.8","","-11.5","","81","","","","16","","26","","24.1","","97.88","","","","-17","","Blowing Snow"
"-111.96","60.02","FORT SMITH A","2202201","2020-11-09 07:00","2020","11","09","07:00","-8.6","","-11.3","","81","","","","16","","19","","24.1","","97.79","","","","-16","","NA"
"-111.96","60.02","FORT SMITH A","2202201","2020-11-09 08:00","2020","11","09","08:00","-8.6","","-11.1","","83","","","","15","","21","","24.1","","97.69","","","","-16","","Mostly Cloudy"
"-111.96","60.02","FORT SMITH A","2202201","2020-11-09 09:00","2020","11","09","09:00","-8.6","","-11.0","","83","","","","16","","14","","24.1","","97.60","","","","-15","","NA"
"-111.96","60.02","FORT SMITH A","2202201","2020-11-09 10:00","2020","11","09","10:00","-6.9","","-9.7","","81","","","","15","","24","","24.1","","97.49","","","","-15","","NA"
"-111.96","60.02","FORT SMITH A","2202201","2020-11-09 11:00","2020","11","09","11:00","-6.2","","-9.1","","80","","","","17","","24","","24.1","","97.43","","","","-14","","Cloudy"
"-111.96","60.02","FORT SMITH A","2202201","2020-11-09 12:00","2020","11","09","12:00","-5.5","","-8.3","","81","","","","16","","20","","24.1","","97.34","","","","-12","","NA"
"-111.96","60.02","FORT SMITH A","2202201","2020-11-09 13:00","2020","11","09","13:00","-4.8","","-7.6","","81","","","","16","","17","","24.1","","97.28","","","","-11","","NA"
"-111.96","60.02","FORT SMITH A","2202201","2020-11-09 14:00","2020","11","09","14:00","-4.5","","-7.2","","82","","","","17","","12","","24.1","","97.29","","","","-9","","Snow"
"-111.96","60.02","FORT SMITH A","2202201","2020-11-09 15:00","2020","11","09","15:00","-4.1","","-6.6","","83","","","","15","","18","","24.1","","97.25","","","","-10","","NA"
"-111.96","60.02","FORT SMITH A","2202201","2020-11-09 16:00","2020","11","09","16:00","-4.0","","-6.6","","82","","","","17","","10","","24.1","","97.28","","","","-8","","Snow"
"-111.96","60.02","FORT SMITH A","2202201","2020-11-09 17:00","2020","11","09","17:00","-4.2","","-6.3","","86","","","","15","","9","","24.1","","97.28","","","","-8","","Snow"
"-111.96","60.02","FORT SMITH A","2202201","2020-11-09 18:00","2020","11","09","18:00","-4.2","","-6.2","","86","","","","17","","9","","24.1","","97.28","","","","-8","","Snow"
"-111.96","60.02","FORT SMITH A","2202201","2020-11-09 19:00","2020","11","09","19:00","-4.2","","-6.0","","87","","","","18","","7","","19.3","","97.31","","","","-7","","Snow"
"-111.96","60.02","FORT SMITH A","2202201","2020-11-09 20:00","2020","11","09","20:00","-4.2","","-6.1","","87","","","","21","","4","","19.3","","97.32","","","","-6","","Snow"
"-111.96","60.02","FORT SMITH A","2202201","2020-11-09 21:00","2020","11","09","21:00","-4.2","","-6.2","","86","","","","25","","9","","24.1","","97.38","","","","-8","","Snow"
"-111.96","60.02","FORT SMITH A","2202201","2020-11-09 22:00","2020","11","09","22:00","-4.1","","-6.0","","87","","","","26","","9","","19.3","","97.45","","","","-8","","Snow"
"-111.96","60.02","FORT SMITH A","2202201","2020-11-09 23:00","2020","11","09","23:00","-4.0","","-5.9","","87","","","","30","","17","","19.3","","97.50","","","","-10","","Snow"
"-111.96","60.02","FORT SMITH A","2202201","2020-11-10 00:00","2020","11","10","00:00","-4.2","","-5.9","","88","","","","30","","14","","24.1","","97.55","","","","-9","","NA"
"-111.96","60.02","FORT SMITH A","2202201","2020-11-10 01:00","2020","11","10","01:00","-4.1","","-5.7","","89","","","","30","","17","","24.1","","97.64","","","","-10","","Snow"
"-111.96","60.02","FORT SMITH A","2202201","2020-11-10 02:00","2020","11","10","02:00","-3.9","","-5.4","","89","","","","29","","23","","24.1","","97.77","","","","-11","","Cloudy"
"-111.96","60.02","FORT SMITH A","2202201","2020-11-10 03:00","2020","11","10","03:00","-3.9","","-5.2","","91","","","","31","","16","","19.3","","97.86","","","","-9","","Snow"
"-111.96","60.02","FORT SMITH A","2202201","2020-11-10 04:00","2020","11","10","04:00","-3.9","","-5.5","","89","","","","33","","12","","16.1","","97.96","","","","-9","","Snow"
"-111.96","60.02","FORT SMITH A","2202201","2020-11-10 05:00","2020","11","10","05:00","-4.3","","-6.8","","82","","","","34","","21","","19.3","","98.05","","","","-11","","Snow"
"-111.96","60.02","FORT SMITH A","2202201","2020-11-10 06:00","2020","11","10","06:00","-5.0","","-7.5","","83","","","","34","","18","","12.9","","98.16","","","","-11","","Snow"
"-111.96","60.02","FORT SMITH A","2202201","2020-11-10 07:00","2020","11","10","07:00","-5.9","","-8.3","","83","","","","34","","21","","9.7","","98.28","","","","-13","","Snow,Blowing Snow"
"-111.96","60.02","FORT SMITH A","2202201","2020-11-10 08:00","2020","11","10","08:00","-7.9","","-10.6","","81","","","","34","","23","","19.3","","98.51","","","","-16","","Snow,Blowing Snow"
"-111.96","60.02","FORT SMITH A","2202201","2020-11-10 09:00","2020","11","10","09:00","-9.3","","-12.2","","80","","","","33","","23","","6.4","","98.69","","","","-18","","Snow,Blowing Snow"
"-111.96","60.02","FORT SMITH A","2202201","2020-11-10 10:00","2020","11","10","10:00","-10.3","","-13.4","","78","","","","32","","19","","9.7","","98.82","","","","-18","","Snow"
"-111.96","60.02","FORT SMITH A","2202201","2020-11-10 11:00","2020","11","10","11:00","-10.8","","-14.1","","77","","","","34","","15","","16.1","","98.95","","","","-18","","Snow,Blowing Snow"
"-111.96","60.02","FORT SMITH A","2202201","2020-11-10 12:00","2020","11","10","12:00","-11.5","","-15.0","","76","","","","35","","24","","16.1","","99.05","","","","-21","","Snow,Blowing Snow"
"-111.96","60.02","FORT SMITH A","2202201","2020-11-10 13:00","2020","11","10","13:00","-12.0","","-15.9","","73","","","","34","","24","","4.8","","99.15","","","","-21","","Snow,Blowing Snow"
"-111.96","60.02","FORT SMITH A","2202201","2020-11-10 14:00","2020","11","10","14:00","-12.5","","-16.2","","75","","","","34","","22","","8.1","","99.25","","","","-21","","Snow,Blowing Snow"
"-111.96","60.02","FORT SMITH A","2202201","2020-11-10 15:00","2020","11","10","15:00","-13.4","","-17.5","","71","","","","34","","23","","19.3","","99.35","","","","-23","","Snow,Blowing Snow"
"-111.96","60.02","FORT SMITH A","2202201","2020-11-10 16:00","2020","11","10","16:00","-14.6","","-18.0","","76","","","","34","","18","","24.1","","99.47","","","","-23","","Blowing Snow"
"-111.96","60.02","FORT SMITH A","2202201","2020-11-10 17:00","2020","11","10","17:00","-15.9","","-19.1","","77","","","","33","","9","","24.1","","99.54","","","","-22","","Mainly Clear"
"-111.96","60.02","FORT SMITH A","2202201","2020-11-10 18:00","2020","11","10","18:00","-16.0","","-19.2","","77","","","","34","","14","","24.1","","99.62","","","","-24","","Snow"
"-111.96","60.02","FORT SMITH A","2202201","2020-11-10 19:00","2020","11","10","19:00","-16.6","","-19.4","","80","","","","33","","8","","24.1","","99.65","","","","-22","","Snow"
"-111.96","60.02","FORT SMITH A","2202201","2020-11-10 20:00","2020","11","10","20:00","-15.9","","-18.9","","78","","","","32","","10","","24.1","","99.66","","","","-22","","Snow"
"-111.96","60.02","FORT SMITH A","2202201","2020-11-10 21:00","2020","11","10","21:00","-15.9","","-18.9","","78","","","","34","","6","","24.1","","99.66","","","","-20","","Snow"
"-111.96","60.02","FORT SMITH A","2202201","2020-11-10 22:00","2020","11","10","22:00","-16.0","","-18.9","","78","","","","1","","8","","24.1","","99.67","","","","-22","","Snow"
"-111.96","60.02","FORT SMITH A","2202201","2020-11-10 23:00","2020","11","10","23:00","-15.8","","-18.6","","79","","","","36","","2","","19.3","","99.66","","","","-17","","Snow"
"-111.96","60.02","FORT SMITH A","2202201","2020-11-11 00:00","2020","11","11","00:00","-15.8","","-18.4","","80","","","","23","","5","","24.1","","99.66","","","","-20","","Snow"
"-111.96","60.02","FORT SMITH A","2202201","2020-11-11 01:00","2020","11","11","01:00","-15.7","","-18.4","","80","","","","19","","6","","24.1","","99.66","","","","-20","","Snow"
"-111.96","60.02","FORT SMITH A","2202201","2020-11-11 02:00","2020","11","11","02:00","-15.3","","-17.8","","81","","","","21","","8","","24.1","","99.66","","","","-21","","Snow"
"-111.96","60.02","FORT SMITH A","2202201","2020-11-11 03:00","2020","11","11","03:00","-14.9","","-17.7","","80","","","","24","","8","","19.3","","99.66","","","","-20","","Snow"
"-111.96","60.02","FORT SMITH A","2202201","2020-11-11 04:00","2020","11","11","04:00","-15.2","","-18.4","","77","","","","25","","12","","24.1","","99.67","","","","-22","","Snow"
"-111.96","60.02","FORT SMITH A","2202201","2020-11-11 05:00","2020","11","11","05:00","-15.5","","-18.6","","78","","","","26","","12","","24.1","","99.65","","","","-23","","Snow"
"-111.96","60.02","FORT SMITH A","2202201","2020-11-11 06:00","2020","11","11","06:00","-15.7","","-18.7","","78","","","","24","","13","","19.3","","99.65","","","","-23","","Snow"
"-111.96","60.02","FORT SMITH A","2202201","2020-11-11 07:00","2020","11","11","07:00","-15.9","","-19.1","","76","","","","23","","9","","24.1","","99.60","","","","-22","","Snow"
"-111.96","60.02","FORT SMITH A","2202201","2020-11-11 08:00","2020","11","11","08:00","-16.1","","-19.2","","77","","","","24","","10","","24.1","","99.59","","","","-23","","Snow"
"-111.96","60.02","FORT SMITH A","2202201","2020-11-11 09:00","2020","11","11","09:00","-16.2","","-19.2","","78","","","","22","","10","","24.1","","99.57","","","","-23","","Snow"
"-111.96","60.02","FORT SMITH A","2202201","2020-11-11 10:00","2020","11","11","10:00","-16.0","","-19.2","","77","","","","21","","10","","24.1","","99.57","","","","-22","","Snow"
"-111.96","60.02","FORT SMITH A","2202201","2020-11-11 11:00","2020","11","11","11:00","-16.0","","-19.5","","75","","","","20","","12","","24.1","","99.53","","","","-23","","Snow"
"-111.96","60.02","FORT SMITH A","2202201","2020-11-11 12:00","2020","11","11","12:00","-16.5","","-20.2","","73","","","","18","","14","","24.1","","99.48","","","","-24","","Snow"
"-111.96","60.02","FORT SMITH A","2202201","2020-11-11 13:00","2020","11","11","13:00","-16.5","","-19.9","","75","","","","18","","9","","24.1","","99.43","","","","-23","","Snow"
"-111.96","60.02","FORT SMITH A","2202201","2020-11-11 14:00","2020","11","11","14:00","-16.3","","-19.9","","74","","","","16","","13","","24.1","","99.37","","","","-24","","Snow"
"-111.96","60.02","FORT SMITH A","2202201","2020-11-11 15:00","2020","11","11","15:00","-16.8","","-20.1","","76","","","","14","","8","","24.1","","99.33","","","","-22","","Snow"
"-111.96","60.02","FORT SMITH A","2202201","2020-11-11 16:00","2020","11","11","16:00","-17.5","","-20.4","","78","","","","13","","9","","24.1","","99.28","","","","-24","","NA"
"-111.96","60.02","FORT SMITH A","2202201","2020-11-11 17:00","2020","11","11","17:00","-18.2","","-20.8","","80","","","","14","","11","","24.1","","99.22","","","","-25","","Clear"
"-111.96","60.02","FORT SMITH A","2202201","2020-11-11 18:00","2020","11","11","18:00","-19.1","","-21.8","","80","","","","15","","14","","24.1","","99.14","","","","-28","","NA"
"-111.96","60.02","FORT SMITH A","2202201","2020-11-11 19:00","2020","11","11","19:00","-19.5","","-22.1","","80","","","","14","","14","","24.1","","99.05","","","","-28","","NA"
"-111.96","60.02","FORT SMITH A","2202201","2020-11-11 20:00","2020","11","11","20:00","-18.9","","-21.4","","81","","","","14","","14","","24.1","","98.97","","","","-27","","Clear"
"-111.96","60.02","FORT SMITH A","2202201","2020-11-11 21:00","2020","11","11","21:00","-19.1","","-21.7","","80","","","","14","","14","","24.1","","98.89","","","","-28","","NA"
"-111.96","60.02","FORT SMITH A","2202201","2020-11-11 22:00","2020","11","11","22:00","-19.4","","-22.0","","80","","","","14","","12","","24.1","","98.81","","","","-27","","NA"
"-111.96","60.02","FORT SMITH A","2202201","2020-11-11 23:00","2020","11","11","23:00","-19.8","","-22.5","","80","","","","14","","13","","24.1","","98.72","","","","-28","","Clear"
"-111.96","60.02","FORT SMITH A","2202201","2020-11-12 00:00","2020","11","12","00:00","-19.8","","-22.4","","80","","","","14","","13","","24.1","","98.58","","","","-28","","NA"
"-111.96","60.02","FORT SMITH A","2202201","2020-11-12 01:00","2020","11","12","01:00","-19.5","","-22.1","","80","","","","14","","14","","24.1","","98.48","","","","-28","","NA"
"-111.96","60.02","FORT SMITH A","2202201","2020-11-12 02:00","2020","11","12","02:00","-19.8","","-22.5","","79","","","","14","","16","","24.1","","98.39","","","","-29","","Clear"
"-111.96","60.02","FORT SMITH A","2202201","2020-11-12 03:00","2020","11","12","03:00","-19.7","","-22.5","","79","","","","13","","16","","24.1","","98.25","","","","-29","","NA"
"-111.96","60.02","FORT SMITH A","2202201","2020-11-12 04:00","2020","11","12","04:00","-19.5","","-22.3","","79","","","","14","","17","","24.1","","98.14","","","","-29","","NA"
"-111.96","60.02","FORT SMITH A","2202201","2020-11-12 05:00","2020","11","12","05:00","-19.3","","-22.1","","79","","","","14","","18","","24.1","","98.00","","","","-29","","Clear"
"-111.96","60.02","FORT SMITH A","2202201","2020-11-12 06:00","2020","11","12","06:00","-18.8","","-21.7","","78","","","","15","","17","","24.1","","97.88","","","","-28","","NA"
"-111.96","60.02","FORT SMITH A","2202201","2020-11-12 07:00","2020","11","12","07:00","-17.8","","-20.8","","78","","","","14","","20","","24.1","","97.73","","","","-28","","NA"
"-111.96","60.02","FORT SMITH A","2202201","2020-11-12 08:00","2020","11","12","08:00","-16.9","","-20.0","","78","","","","14","","19","","24.1","","97.60","","","","-26","","Blowing Snow"
"-111.96","60.02","FORT SMITH A","2202201","2020-11-12 09:00","2020","11","12","09:00","-16.5","","-19.5","","78","","","","15","","25","","24.1","","97.50","","","","-27","","Blowing Snow"
"-111.96","60.02","FORT SMITH A","2202201","2020-11-12 10:00","2020","11","12","10:00","-15.6","","-18.7","","78","","","","15","","25","","24.1","","97.39","","","","-26","","Blowing Snow"
"-111.96","60.02","FORT SMITH A","2202201","2020-11-12 11:00","2020","11","12","11:00","-14.8","","-18.0","","77","","","","15","","28","","24.1","","97.30","","","","-25","","Blowing Snow"
"-111.96","60.02","FORT SMITH A","2202201","2020-11-12 12:00","2020","11","12","12:00","-14.1","","-17.3","","77","","","","15","","26","","24.1","","97.17","","","","-24","","Blowing Snow"
"-111.96","60.02","FORT SMITH A","2202201","2020-11-12 13:00","2020","11","12","13:00","-12.7","","-16.0","","76","","","","15","","23","","24.1","","97.04","","","","-22","","Blowing Snow"
"-111.96","60.02","FORT SMITH A","2202201","2020-11-12 14:00","2020","11","12","14:00","-12.1","","-15.5","","76","","","","16","","25","","24.1","","96.98","","","","-21","","Blowing Snow"
"-111.96","60.02","FORT SMITH A","2202201","2020-11-12 15:00","2020","11","12","15:00","-11.9","","-15.3","","76","","","","16","","19","","24.1","","96.93","","","","-20","","Blowing Snow"
"-111.96","60.02","FORT SMITH A","2202201","2020-11-12 16:00","2020","11","12","16:00","-12.0","","-15.3","","77","","","","16","","22","","24.1","","96.83","","","","-21","","Blowing Snow"
"-111.96","60.02","FORT SMITH A","2202201","2020-11-12 17:00","2020","11","12","17:00","-12.3","","-15.4","","78","","","","16","","16","","24.1","","96.79","","","","-20","","Blowing Snow"
"-111.96","60.02","FORT SMITH A","2202201","2020-11-12 18:00","2020","11","12","18:00","-12.7","","-15.5","","80","","","","15","","19","","24.1","","96.71","","","","-21","","NA"
"-111.96","60.02","FORT SMITH A","2202201","2020-11-12 19:00","2020","11","12","19:00","-12.9","","-15.7","","80","","","","16","","18","","24.1","","96.63","","","","-21","","NA"
"-111.96","60.02","FORT SMITH A","2202201","2020-11-12 20:00","2020","11","12","20:00","-13.4","","-16.0","","81","","","","16","","17","","24.1","","96.57","","","","-21","","Clear"
"-111.96","60.02","FORT SMITH A","2202201","2020-11-12 21:00","2020","11","12","21:00","-12.8","","-15.4","","81","","","","16","","18","","24.1","","96.50","","","","-21","","NA"
"-111.96","60.02","FORT SMITH A","2202201","2020-11-12 22:00","2020","11","12","22:00","-12.1","","-14.6","","82","","","","16","","14","","24.1","","96.43","","","","-19","","NA"
"-111.96","60.02","FORT SMITH A","2202201","2020-11-12 23:00","2020","11","12","23:00","-11.6","","-14.1","","82","","","","15","","11","","24.1","","96.40","","","","-18","","Cloudy"
"-111.96","60.02","FORT SMITH A","2202201","2020-11-13 00:00","2020","11","13","00:00","-11.5","","-14.0","","82","","","","16","","13","","24.1","","96.41","","","","-18","","NA"
"-111.96","60.02","FORT SMITH A","2202201","2020-11-13 01:00","2020","11","13","01:00","-11.2","","-13.6","","83","","","","16","","11","","24.1","","96.37","","","","-17","","NA"
"-111.96","60.02","FORT SMITH A","2202201","2020-11-13 02:00","2020","11","13","02:00","-11.0","","-13.2","","84","","","","15","","10","","24.1","","96.34","","","","-16","","Cloudy"
"-111.96","60.02","FORT SMITH A","2202201","2020-11-13 03:00","2020","11","13","03:00","-10.4","","-12.5","","84","","","","15","","9","","16.1","","96.33","","","","-15","","Snow"
"-111.96","60.02","FORT SMITH A","2202201","2020-11-13 04:00","2020","11","13","04:00","-9.8","","-11.9","","85","","","","16","","10","","24.1","","96.29","","","","-15","","Snow"
"-111.96","60.02","FORT SMITH A","2202201","2020-11-13 05:00","2020","11","13","05:00","-9.6","","-11.7","","85","","","","21","","5","","24.1","","96.33","","","","-12","","Snow"
"-111.96","60.02","FORT SMITH A","2202201","2020-11-13 06:00","2020","11","13","06:00","-11.1","","-12.8","","87","","","","18","","4","","24.1","","96.31","","","","-14","","NA"
"-111.96","60.02","FORT SMITH A","2202201","2020-11-13 07:00","2020","11","13","07:00","-13.9","","-15.5","","88","","","","15","","4","","24.1","","96.30","","","","-17","","NA"
"-111.96","60.02","FORT SMITH A","2202201","2020-11-13 08:00","2020","11","13","08:00","-15.0","","-16.7","","87","","","","36","","1","","24.1","","96.31","","","","-16","","Clear"
"-111.96","60.02","FORT SMITH A","2202201","2020-11-13 09:00","2020","11","13","09:00","-15.4","","-17.3","","86","","","","21","","5","","24.1","","96.36","","","","-19","","NA"
"-111.96","60.02","FORT SMITH A","2202201","2020-11-13 10:00","2020","11","13","10:00","-14.4","","-16.2","","86","","","","20","","4","","16.1","","96.41","","","","-17","","NA"
"-111.96","60.02","FORT SMITH A","2202201","2020-11-13 11:00","2020","11","13","11:00","-10.1","","-11.6","","89","","","","1","","7","","24.1","","96.42","","","","-14","","Mostly Cloudy"
"-111.96","60.02","FORT SMITH A","2202201","2020-11-13 12:00","2020","11","13","12:00","-10.4","","-11.8","","89","","","","36","","6","","3.2","","96.47","","","","-14","","Fog"
"-111.96","60.02","FORT SMITH A","2202201","2020-11-13 13:00","2020","11","13","13:00","-10.1","","-11.6","","89","","","","1","","13","","24.1","","96.50","","","","-16","","NA"
"-111.96","60.02","FORT SMITH A","2202201","2020-11-13 14:00","2020","11","13","14:00","-8.8","","-10.1","","90","","","","2","","6","","4.8","","96.55","","","","-12","","Fog"
"-111.96","60.02","FORT SMITH A","2202201","2020-11-13 15:00","2020","11","13","15:00","-8.3","","-9.6","","91","","","","28","","4","","4.8","","96.61","","","","-10","","Fog"
"-111.96","60.02","FORT SMITH A","2202201","2020-11-13 16:00","2020","11","13","16:00","-7.9","","-9.1","","91","","","","33","","10","","6.4","","96.69","","","","-13","","Snow,Fog"
"-111.96","60.02","FORT SMITH A","2202201","2020-11-13 17:00","2020","11","13","17:00","-7.9","","-9.1","","91","","","","35","","12","","24.1","","96.76","","","","-13","","Snow"
"-111.96","60.02","FORT SMITH A","2202201","2020-11-13 18:00","2020","11","13","18:00","-8.2","","-9.4","","91","","","","33","","9","","24.1","","96.83","","","","-13","","Snow"
"-111.96","60.02","FORT SMITH A","2202201","2020-11-13 19:00","2020","11","13","19:00","-8.4","","-9.7","","91","","","","33","","14","","24.1","","96.89","","","","-15","","Snow"
"-111.96","60.02","FORT SMITH A","2202201","2020-11-13 20:00","2020","11","13","20:00","-8.6","","-9.9","","90","","","","34","","12","","24.1","","96.95","","","","-14","","Snow"
"-111.96","60.02","FORT SMITH A","2202201","2020-11-13 21:00","2020","11","13","21:00","-8.6","","-9.9","","90","","","","34","","10","","24.1","","97.05","","","","-14","","Snow"
"-111.96","60.02","FORT SMITH A","2202201","2020-11-13 22:00","2020","11","13","22:00","-8.9","","-10.2","","90","","","","34","","10","","24.1","","97.13","","","","-14","","Snow"
"-111.96","60.02","FORT SMITH A","2202201","2020-11-13 23:00","2020","11","13","23:00","-8.8","","-10.1","","90","","","","34","","8","","24.1","","97.21","","","","-13","","Cloudy"
"-111.96","60.02","FORT SMITH A","2202201","2020-11-14 00:00","2020","11","14","00:00","-8.4","","-9.7","","91","","","","32","","8","","24.1","","97.29","","","","-13","","Snow"
"-111.96","60.02","FORT SMITH A","2202201","2020-11-14 01:00","2020","11","14","01:00","-8.3","","-9.6","","91","","","","33","","9","","24.1","","97.37","","","","-13","","Snow"
"-111.96","60.02","FORT SMITH A","2202201","2020-11-14 02:00","2020","11","14","02:00","-8.4","","-9.7","","91","","","","32","","11","","19.3","","97.47","","","","-14","","Snow"
"-111.96","60.02","FORT SMITH A","2202201","2020-11-14 03:00","2020","11","14","03:00","-8.4","","-9.7","","91","","","","33","","9","","19.3","","97.55","","","","-13","","Snow"
"-111.96","60.02","FORT SMITH A","2202201","2020-11-14 04:00","2020","11","14","04:00","-8.7","","-10.0","","90","","","","32","","5","","16.1","","97.64","","","","-11","","Snow"
"-111.96","60.02","FORT SMITH A","2202201","2020-11-14 05:00","2020","11","14","05:00","-9.2","","-10.6","","90","","","","33","","16","","19.3","","97.71","","","","-16","","Snow"
"-111.96","60.02","FORT SMITH A","2202201","2020-11-14 06:00","2020","11","14","06:00","-10.2","","-11.7","","89","","","","31","","6","","19.3","","97.79","","","","-14","","Snow"
"-111.96","60.02","FORT SMITH A","2202201","2020-11-14 07:00","2020","11","14","07:00","-10.9","","-12.5","","88","","","","33","","14","","24.1","","97.88","","","","-18","","Snow"
"-111.96","60.02","FORT SMITH A","2202201","2020-11-14 08:00","2020","11","14","08:00","-11.6","","-13.3","","87","","","","34","","9","","24.1","","97.96","","","","-17","","Snow"
"-111.96","60.02","FORT SMITH A","2202201","2020-11-14 09:00","2020","11","14","09:00","-12.2","","-14.0","","87","","","","31","","7","","24.1","","98.05","","","","-17","","Snow"
"-111.96","60.02","FORT SMITH A","2202201","2020-11-14 10:00","2020","11","14","10:00","-13.4","","-15.2","","86","","","","28","","9","","24.1","","98.13","","","","-19","","Snow"
"-111.96","60.02","FORT SMITH A","2202201","2020-11-14 11:00","2020","11","14","11:00","-11.3","","-13.1","","87","","","","30","","11","","24.1","","98.20","","","","-17","","Snow"
"-111.96","60.02","FORT SMITH A","2202201","2020-11-14 12:00","2020","11","14","12:00","-10.9","","-13.7","","80","","","","29","","19","","16.1","","98.28","","","","-19","","Snow"
"-111.96","60.02","FORT SMITH A","2202201","2020-11-14 13:00","2020","11","14","13:00","-10.7","","-13.8","","78","","","","29","","9","","24.1","","98.31","","","","-16","","Snow"
"-111.96","60.02","FORT SMITH A","2202201","2020-11-14 14:00","2020","11","14","14:00","-10.4","","-13.1","","81","","","","34","","9","","19.3","","98.35","","","","-15","","Snow"
"-111.96","60.02","FORT SMITH A","2202201","2020-11-14 15:00","2020","11","14","15:00","-10.3","","-12.8","","82","","","","33","","5","","24.1","","98.39","","","","-13","","Snow"
"-111.96","60.02","FORT SMITH A","2202201","2020-11-14 16:00","2020","11","14","16:00","-10.7","","-12.8","","85","","","","4","","4","","19.3","","98.43","","","","-13","","Snow"
"-111.96","60.02","FORT SMITH A","2202201","2020-11-14 17:00","2020","11","14","17:00","-11.2","","-13.2","","86","","","","2","","4","","19.3","","98.49","","","","-14","","Snow"
"-111.96","60.02","FORT SMITH A","2202201","2020-11-14 18:00","2020","11","14","18:00","-10.9","","-12.9","","86","","","","0","","1","","19.3","","98.51","","","","-12","","Snow"
"-111.96","60.02","FORT SMITH A","2202201","2020-11-14 19:00","2020","11","14","19:00","-11.4","","-13.2","","86","","","","17","","3","","19.3","","98.48","","","","-13","","Snow"
"-111.96","60.02","FORT SMITH A","2202201","2020-11-14 20:00","2020","11","14","20:00","-11.7","","-13.6","","86","","","","25","","4","","24.1","","98.50","","","","-14","","Snow"
"-111.96","60.02","FORT SMITH A","2202201","2020-11-14 21:00","2020","11","14","21:00","-11.4","","-13.2","","87","","","","14","","4","","19.3","","98.47","","","","-14","","Snow"
"-111.96","60.02","FORT SMITH A","2202201","2020-11-14 22:00","2020","11","14","22:00","-11.4","","-13.3","","86","","","","11","","3","","19.3","","98.46","","","","-13","","Snow"
"-111.96","60.02","FORT SMITH A","2202201","2020-11-14 23:00","2020","11","14","23:00","-11.4","","-13.3","","86","","","","15","","4","","19.3","","98.47","","","","-14","","Snow"
"-111.96","60.02","FORT SMITH A","2202201","2020-11-15 00:00","2020","11","15","00:00","-11.5","","-13.4","","86","","","","14","","5","","19.3","","98.47","","","","-15","","Snow"
"-111.96","60.02","FORT SMITH A","2202201","2020-11-15 01:00","2020","11","15","01:00","-11.4","","-13.4","","85","","","","14","","5","","19.3","","98.47","","","","-15","","Snow"
"-111.96","60.02","FORT SMITH A","2202201","2020-11-15 02:00","2020","11","15","02:00","-11.4","","-13.4","","85","","","","12","","4","","19.3","","98.45","","","","-14","","Snow"
"-111.96","60.02","FORT SMITH A","2202201","2020-11-15 03:00","2020","11","15","03:00","-11.6","","-13.4","","87","","","","36","","2","","24.1","","98.46","","","","-13","","Snow"
"-111.96","60.02","FORT SMITH A","2202201","2020-11-15 04:00","2020","11","15","04:00","-11.8","","-13.8","","86","","","","10","","5","","24.1","","98.44","","","","-15","","Snow"
"-111.96","60.02","FORT SMITH A","2202201","2020-11-15 05:00","2020","11","15","05:00","-12.0","","-14.0","","85","","","","10","","3","","19.3","","98.47","","","","-14","","Snow"
"-111.96","60.02","FORT SMITH A","2202201","2020-11-15 06:00","2020","11","15","06:00","-12.4","","-14.7","","84","","","","11","","3","","16.1","","98.48","","","","-14","","Snow"
"-111.96","60.02","FORT SMITH A","2202201","2020-11-15 07:00","2020","11","15","07:00","-12.7","","-14.8","","84","","","","7","","7","","16.1","","98.51","","","","-17","","Snow"
"-111.96","60.02","FORT SMITH A","2202201","2020-11-15 08:00","2020","11","15","08:00","-12.8","","-15.0","","84","","","","36","","2","","9.7","","98.54","","","","-14","","Snow"
"-111.96","60.02","FORT SMITH A","2202201","2020-11-15 09:00","2020","11","15","09:00","-12.9","","-15.1","","84","","","","36","","2","","12.9","","98.56","","","","-14","","Snow"
"-111.96","60.02","FORT SMITH A","2202201","2020-11-15 10:00","2020","11","15","10:00","-12.7","","-15.2","","82","","","","36","","2","","9.7","","98.62","","","","-14","","Snow"
"-111.96","60.02","FORT SMITH A","2202201","2020-11-15 11:00","2020","11","15","11:00","-12.5","","-15.1","","81","","","","36","","3","","9.7","","98.66","","","","-14","","Snow"
"-111.96","60.02","FORT SMITH A","2202201","2020-11-15 12:00","2020","11","15","12:00","-12.2","","-15.0","","80","","","","36","","2","","19.3","","98.70","","","","-13","","Snow"
"-111.96","60.02","FORT SMITH A","2202201","2020-11-15 13:00","2020","11","15","13:00","-11.9","","-14.6","","80","","","","36","","2","","24.1","","98.74","","","","-13","","Snow"
"-111.96","60.02","FORT SMITH A","2202201","2020-11-15 14:00","2020","11","15","14:00","-11.3","","-13.6","","83","","","","26","","7","","4.0","","98.80","","","","-16","","Snow"
"-111.96","60.02","FORT SMITH A","2202201","2020-11-15 15:00","2020","11","15","15:00","-11.3","","-13.7","","82","","","","27","","8","","4.8","","98.86","","","","-16","","Snow"
"-111.96","60.02","FORT SMITH A","2202201","2020-11-15 16:00","2020","11","15","16:00","-11.2","","-13.3","","85","","","","29","","11","","4.8","","98.91","","","","-17","","Snow"
"-111.96","60.02","FORT SMITH A","2202201","2020-11-15 17:00","2020","11","15","17:00","-12.7","","-15.2","","82","","","","30","","19","","19.3","","98.99","","","","-21","","Snow"
"-111.96","60.02","FORT SMITH A","2202201","2020-11-15 18:00","2020","11","15","18:00","-13.0","","-15.5","","82","","","","29","","18","","19.3","","99.07","","","","-21","","Snow"
"-111.96","60.02","FORT SMITH A","2202201","2020-11-15 19:00","2020","11","15","19:00","-13.0","","-15.4","","82","","","","29","","18","","9.7","","99.13","","","","-21","","Snow"
"-111.96","60.02","FORT SMITH A","2202201","2020-11-15 20:00","2020","11","15","20:00","-12.8","","-15.1","","83","","","","29","","16","","9.7","","99.21","","","","-20","","Snow"
"-111.96","60.02","FORT SMITH A","2202201","2020-11-15 21:00","2020","11","15","21:00","-12.9","","-15.2","","83","","","","29","","19","","16.1","","99.28","","","","-21","","NA"
"-111.96","60.02","FORT SMITH A","2202201","2020-11-15 22:00","2020","11","15","22:00","-13.4","","-15.8","","82","","","","31","","12","","19.3","","99.37","","","","-20","","Snow"
"-111.96","60.02","FORT SMITH A","2202201","2020-11-15 23:00","2020","11","15","23:00","-13.7","","-16.1","","82","","","","30","","17","","19.3","","99.44","","","","-22","","Snow"
"-111.96","60.02","FORT SMITH A","2202201","2020-11-16 00:00","2020","11","16","00:00","-14.2","","-16.5","","83","","","","29","","18","","19.3","","99.53","","","","-23","","Snow"
"-111.96","60.02","FORT SMITH A","2202201","2020-11-16 01:00","2020","11","16","01:00","-14.7","","-16.9","","84","","","","29","","18","","19.3","","99.61","","","","-23","","Snow"
"-111.96","60.02","FORT SMITH A","2202201","2020-11-16 02:00","2020","11","16","02:00","-15.2","","-17.3","","84","","","","28","","18","","19.3","","99.71","","","","-24","","Snow"
"-111.96","60.02","FORT SMITH A","2202201","2020-11-16 03:00","2020","11","16","03:00","-15.8","","-17.8","","85","","","","27","","16","","19.3","","99.77","","","","-24","","Snow"
"-111.96","60.02","FORT SMITH A","2202201","2020-11-16 04:00","2020","11","16","04:00","-15.9","","-18.1","","83","","","","27","","16","","19.3","","99.83","","","","-24","","Snow"
"-111.96","60.02","FORT SMITH A","2202201","2020-11-16 05:00","2020","11","16","05:00","-16.0","","-18.2","","83","","","","24","","12","","19.3","","99.87","","","","-23","","Snow"
"-111.96","60.02","FORT SMITH A","2202201","2020-11-16 06:00","2020","11","16","06:00","-16.0","","-18.4","","82","","","","24","","9","","19.3","","99.93","","","","-22","","Snow"
"-111.96","60.02","FORT SMITH A","2202201","2020-11-16 07:00","2020","11","16","07:00","-15.3","","-17.5","","84","","","","25","","7","","19.3","","99.97","","","","-20","","Snow"
"-111.96","60.02","FORT SMITH A","2202201","2020-11-16 08:00","2020","11","16","08:00","-14.7","","-16.8","","84","","","","24","","8","","16.1","","100.04","","","","-20","","Snow"
"-111.96","60.02","FORT SMITH A","2202201","2020-11-16 09:00","2020","11","16","09:00","-14.5","","-16.6","","84","","","","23","","8","","19.3","","100.06","","","","-20","","Snow"
"-111.96","60.02","FORT SMITH A","2202201","2020-11-16 10:00","2020","11","16","10:00","-13.7","","-15.8","","84","","","","27","","13","","19.3","","100.12","","","","-21","","Snow"
"-111.96","60.02","FORT SMITH A","2202201","2020-11-16 11:00","2020","11","16","11:00","-13.0","","-15.1","","84","","","","28","","10","","19.3","","100.15","","","","-19","","Snow"
"-111.96","60.02","FORT SMITH A","2202201","2020-11-16 12:00","2020","11","16","12:00","-12.5","","-14.3","","87","","","","26","","12","","4.8","","100.19","","","","-19","","Snow"
"-111.96","60.02","FORT SMITH A","2202201","2020-11-16 13:00","2020","11","16","13:00","-12.7","","-14.6","","86","","","","25","","16","","4.8","","100.23","","","","-20","","Snow"
"-111.96","60.02","FORT SMITH A","2202201","2020-11-16 14:00","2020","11","16","14:00","-12.9","","-15.6","","80","","","","24","","14","","24.1","","100.26","","","","-20","","Snow"
"-111.96","60.02","FORT SMITH A","2202201","2020-11-16 15:00","2020","11","16","15:00","-13.1","","-16.1","","79","","","","25","","13","","24.1","","100.29","","","","-20","","NA"
"-111.96","60.02","FORT SMITH A","2202201","2020-11-16 16:00","2020","11","16","16:00","-15.2","","-17.1","","86","","","","23","","6","","24.1","","100.31","","","","-19","","NA"
"-111.96","60.02","FORT SMITH A","2202201","2020-11-16 17:00","2020","11","16","17:00","-15.9","","-17.6","","87","","","","21","","5","","24.1","","100.29","","","","-20","","Clear"
"-111.96","60.02","FORT SMITH A","2202201","2020-11-16 18:00","2020","11","16","18:00","-18.0","","-19.8","","86","","","","19","","5","","24.1","","100.28","","","","-22","","NA"
"-111.96","60.02","FORT SMITH A","2202201","2020-11-16 19:00","2020","11","16","19:00","-18.5","","-20.4","","85","","","","18","","7","","24.1","","100.26","","","","-24","","NA"
"-111.96","60.02","FORT SMITH A","2202201","2020-11-16 20:00","2020","11","16","20:00","-19.3","","-21.5","","83","","","","20","","7","","24.1","","100.25","","","","-25","","Clear"
"-111.96","60.02","FORT SMITH A","2202201","2020-11-16 21:00","2020","11","16","21:00","-19.5","","-21.8","","83","","","","14","","6","","24.1","","100.23","","","","-24","","NA"
"-111.96","60.02","FORT SMITH A","2202201","2020-11-16 22:00","2020","11","16","22:00","-20.1","","-22.5","","81","","","","14","","7","","24.1","","100.24","","","","-26","","NA"
"-111.96","60.02","FORT SMITH A","2202201","2020-11-16 23:00","2020","11","16","23:00","-19.9","","-22.3","","82","","","","14","","7","","24.1","","100.23","","","","-26","","Clear"
"-111.96","60.02","FORT SMITH A","2202201","2020-11-17 00:00","2020","11","17","00:00","-19.9","","-22.3","","82","","","","12","","4","","24.1","","100.24","","","","-23","","NA"
"-111.96","60.02","FORT SMITH A","2202201","2020-11-17 01:00","2020","11","17","01:00","-20.9","","-23.5","","80","","","","13","","4","","24.1","","100.18","","","","-24","","NA"
"-111.96","60.02","FORT SMITH A","2202201","2020-11-17 02:00","2020","11","17","02:00","-20.6","","-23.1","","81","","","","14","","8","","24.1","","100.12","","","","-27","","Mainly Clear"
"-111.96","60.02","FORT SMITH A","2202201","2020-11-17 03:00","2020","11","17","03:00","-20.9","","-23.3","","81","","","","15","","9","","24.1","","100.09","","","","-28","","NA"
"-111.96","60.02","FORT SMITH A","2202201","2020-11-17 04:00","2020","11","17","04:00","-20.6","","-22.9","","82","","","","13","","7","","24.1","","100.00","","","","-26","","NA"
"-111.96","60.02","FORT SMITH A","2202201","2020-11-17 05:00","2020","11","17","05:00","-19.4","","-21.9","","81","","","","13","","8","","24.1","","99.91","","","","-26","","Mainly Clear"
"-111.96","60.02","FORT SMITH A","2202201","2020-11-17 06:00","2020","11","17","06:00","-18.5","","-20.9","","82","","","","13","","8","","24.1","","99.82","","","","-24","","NA"
"-111.96","60.02","FORT SMITH A","2202201","2020-11-17 07:00","2020","11","17","07:00","-17.9","","-20.3","","82","","","","13","","12","","24.1","","99.73","","","","-25","","NA"
"-111.96","60.02","FORT SMITH A","2202201","2020-11-17 08:00","2020","11","17","08:00","-17.9","","-20.3","","82","","","","13","","11","","24.1","","99.63","","","","-25","","Mostly Cloudy"
"-111.96","60.02","FORT SMITH A","2202201","2020-11-17 09:00","2020","11","17","09:00","-17.4","","-19.8","","82","","","","14","","13","","24.1","","99.57","","","","-25","","NA"
"-111.96","60.02","FORT SMITH A","2202201","2020-11-17 10:00","2020","11","17","10:00","-16.7","","-19.1","","83","","","","12","","9","","24.1","","99.49","","","","-23","","NA"
"-111.96","60.02","FORT SMITH A","2202201","2020-11-17 11:00","2020","11","17","11:00","-15.3","","-17.5","","84","","","","14","","12","","24.1","","99.42","","","","-22","","Cloudy"
"-111.96","60.02","FORT SMITH A","2202201","2020-11-17 12:00","2020","11","17","12:00","-13.5","","-15.6","","85","","","","14","","9","","24.1","","99.33","","","","-19","","Snow"
"-111.96","60.02","FORT SMITH A","2202201","2020-11-17 13:00","2020","11","17","13:00","-12.3","","-14.2","","86","","","","13","","9","","24.1","","99.23","","","","-18","","Snow"
"-111.96","60.02","FORT SMITH A","2202201","2020-11-17 14:00","2020","11","17","14:00","-11.5","","-13.3","","87","","","","36","","2","","24.1","","99.10","","","","-13","","Snow"
"-111.96","60.02","FORT SMITH A","2202201","2020-11-17 15:00","2020","11","17","15:00","-11.1","","-12.8","","87","","","","11","","6","","24.1","","99.01","","","","-15","","Snow"
"-111.96","60.02","FORT SMITH A","2202201","2020-11-17 16:00","2020","11","17","16:00","-10.6","","-12.5","","86","","","","10","","7","","24.1","","98.85","","","","-15","","Snow"
"-111.96","60.02","FORT SMITH A","2202201","2020-11-17 17:00","2020","11","17","17:00","-10.4","","-12.4","","86","","","","8","","9","","24.1","","98.75","","","","-15","","Snow"
"-111.96","60.02","FORT SMITH A","2202201","2020-11-17 18:00","2020","11","17","18:00","-10.2","","-12.2","","86","","","","7","","7","","16.1","","98.70","","","","-14","","Snow"
"-111.96","60.02","FORT SMITH A","2202201","2020-11-17 19:00","2020","11","17","19:00","-10.0","","-11.8","","87","","","","7","","5","","9.7","","98.55","","","","-13","","Snow"
"-111.96","60.02","FORT SMITH A","2202201","2020-11-17 20:00","2020","11","17","20:00","-9.6","","-11.4","","87","","","","7","","6","","9.7","","98.46","","","","-13","","Snow"
"-111.96","60.02","FORT SMITH A","2202201","2020-11-17 21:00","2020","11","17","21:00","-9.7","","-11.5","","87","","","","6","","7","","9.7","","98.38","","","","-14","","Snow"
"-111.96","60.02","FORT SMITH A","2202201","2020-11-17 22:00","2020","11","17","22:00","-9.8","","-11.6","","86","","","","5","","11","","9.7","","98.29","","","","-15","","Snow"
"-111.96","60.02","FORT SMITH A","2202201","2020-11-17 23:00","2020","11","17","23:00","-10.2","","-12.2","","85","","","","5","","11","","4.8","","98.18","","","","-16","","Snow"
"-111.96","60.02","FORT SMITH A","2202201","2020-11-18 00:00","2020","11","18","00:00","-10.2","","-12.1","","86","","","","4","","11","","4.8","","98.12","","","","-16","","Snow"
"-111.96","60.02","FORT SMITH A","2202201","2020-11-18 01:00","2020","11","18","01:00","-10.3","","-12.2","","86","","","","4","","14","","3.2","","98.06","","","","-17","","Snow"
"-111.96","60.02","FORT SMITH A","2202201","2020-11-18 02:00","2020","11","18","02:00"
"-111.96","60.02","FORT SMITH A","2202201","2020-11-18 03:00","2020","11","18","03:00","-10.2","","-12.1","","86","","","","4","","16","","3.2","","97.96","","","","-17","","Snow"
"-111.96","60.02","FORT SMITH A","2202201","2020-11-18 04:00","2020","11","18","04:00","-10.2","","-12.2","","86","","","","2","","15","","3.2","","97.93","","","","-17","","Snow"
"-111.96","60.02","FORT SMITH A","2202201","2020-11-18 05:00","2020","11","18","05:00","-10.2","","-12.1","","86","","","","2","","13","","3.2","","97.91","","","","-16","","Snow"
"-111.96","60.02","FORT SMITH A","2202201","2020-11-18 06:00","2020","11","18","06:00","-10.0","","-11.9","","86","","","","3","","17","","3.2","","97.87","","","","-17","","Snow"
"-111.96","60.02","FORT SMITH A","2202201","2020-11-18 07:00","2020","11","18","07:00","-10.0","","-11.8","","87","","","","3","","13","","3.2","","97.87","","","","-16","","Snow"
"-111.96","60.02","FORT SMITH A","2202201","2020-11-18 08:00","2020","11","18","08:00","-9.8","","-11.6","","87","","","","1","","10","","2.4","","97.87","","","","-15","","Snow,Blowing Snow"
"-111.96","60.02","FORT SMITH A","2202201","2020-11-18 09:00","2020","11","18","09:00","-9.7","","-11.6","","86","","","","2","","14","","3.2","","97.89","","","","-16","","Snow"
"-111.96","60.02","FORT SMITH A","2202201","2020-11-18 10:00","2020","11","18","10:00","-9.4","","-11.3","","86","","","","35","","10","","2.4","","97.94","","","","-15","","Snow"
"-111.96","60.02","FORT SMITH A","2202201","2020-11-18 11:00","2020","11","18","11:00","-9.2","","-11.1","","86","","","","33","","8","","3.2","","98.00","","","","-14","","Snow"
"-111.96","60.02","FORT SMITH A","2202201","2020-11-18 12:00","2020","11","18","12:00","-9.2","","-11.2","","85","","","","33","","13","","3.2","","98.01","","","","-15","","Snow"
"-111.96","60.02","FORT SMITH A","2202201","2020-11-18 13:00","2020","11","18","13:00","-9.2","","-11.2","","85","","","","33","","11","","3.2","","98.03","","","","-15","","Snow"
"-111.96","60.02","FORT SMITH A","2202201","2020-11-18 14:00","2020","11","18","14:00","-9.5","","-11.6","","85","","","","33","","13","","3.2","","98.09","","","","-16","","Snow"
"-111.96","60.02","FORT SMITH A","2202201","2020-11-18 15:00","2020","11","18","15:00","-9.5","","-11.7","","84","","","","32","","15","","4.8","","98.17","","","","-16","","Snow"
"-111.96","60.02","FORT SMITH A","2202201","2020-11-18 16:00","2020","11","18","16:00","-10.0","","-12.1","","84","","","","33","","16","","1.2","","98.28","","","","-17","","Snow"
"-111.96","60.02","FORT SMITH A","2202201","2020-11-18 17:00","2020","11","18","17:00","-10.2","","-12.3","","85","","","","33","","16","","1.6","","98.37","","","","-17","","Snow,Blowing Snow"
"-111.96","60.02","FORT SMITH A","2202201","2020-11-18 18:00","2020","11","18","18:00","-10.2","","-12.2","","85","","","","34","","16","","1.0","","98.45","","","","-17","","Snow"
"-111.96","60.02","FORT SMITH A","2202201","2020-11-18 19:00","2020","11","18","19:00","-10.1","","-12.3","","84","","","","33","","18","","4.8","","98.52","","","","-18","","Snow"
"-111.96","60.02","FORT SMITH A","2202201","2020-11-18 20:00","2020","11","18","20:00","-10.2","","-12.4","","84","","","","34","","20","","8.1","","98.62","","","","-18","","Snow,Blowing Snow"
"-111.96","60.02","FORT SMITH A","2202201","2020-11-18 21:00","2020","11","18","21:00","-9.9","","-12.1","","84","","","","35","","17","","16.1","","98.71","","","","-17","","Snow,Blowing Snow"
"-111.96","60.02","FORT SMITH A","2202201","2020-11-18 22:00","2020","11","18","22:00","-9.6","","-11.4","","86","","","","34","","20","","8.1","","98.80","","","","-17","","Snow"
"-111.96","60.02","FORT SMITH A","2202201","2020-11-18 23:00","2020","11","18","23:00","-10.0","","-12.1","","85","","","","34","","15","","12.9","","98.88","","","","-17","","Snow,Blowing Snow"
"-111.96","60.02","FORT SMITH A","2202201","2020-11-19 00:00","2020","11","19","00:00","-10.4","","-12.6","","84","","","","35","","13","","9.7","","98.98","","","","-17","","Snow,Blowing Snow"
"-111.96","60.02","FORT SMITH A","2202201","2020-11-19 01:00","2020","11","19","01:00","-10.6","","-12.8","","83","","","","34","","10","","9.7","","99.08","","","","-16","","Snow,Blowing Snow"
"-111.96","60.02","FORT SMITH A","2202201","2020-11-19 02:00","2020","11","19","02:00","-10.9","","-13.3","","82","","","","34","","16","","4.8","","99.18","","","","-18","","Snow"
"-111.96","60.02","FORT SMITH A","2202201","2020-11-19 03:00","2020","11","19","03:00","-11.2","","-13.4","","84","","","","34","","8","","4.8","","99.27","","","","-16","","Snow"
"-111.96","60.02","FORT SMITH A","2202201","2020-11-19 04:00","2020","11","19","04:00","-11.5","","-14.0","","82","","","","33","","12","","8.1","","99.34","","","","-18","","Snow"
"-111.96","60.02","FORT SMITH A","2202201","2020-11-19 05:00","2020","11","19","05:00","-11.7","","-13.8","","84","","","","31","","10","","4.8","","99.41","","","","-17","","Snow"
"-111.96","60.02","FORT SMITH A","2202201","2020-11-19 06:00","2020","11","19","06:00","-12.0","","-14.2","","84","","","","34","","9","","8.1","","99.48","","","","-17","","Snow"
"-111.96","60.02","FORT SMITH A","2202201","2020-11-19 07:00","2020","11","19","07:00","-12.3","","-14.4","","84","","","","33","","9","","19.3","","99.52","","","","-18","","Snow"
"-111.96","60.02","FORT SMITH A","2202201","2020-11-19 08:00","2020","11","19","08:00","-12.6","","-14.8","","84","","","","32","","8","","4.8","","99.55","","","","-18","","Snow"
"-111.96","60.02","FORT SMITH A","2202201","2020-11-19 09:00","2020","11","19","09:00","-13.5","","-15.9","","83","","","","30","","14","","6.4","","99.62","","","","-21","","Snow"
"-111.96","60.02","FORT SMITH A","2202201","2020-11-19 10:00","2020","11","19","10:00","-14.2","","-16.4","","83","","","","30","","8","","16.1","","99.67","","","","-19","","Snow"
"-111.96","60.02","FORT SMITH A","2202201","2020-11-19 11:00","2020","11","19","11:00","-14.5","","-16.9","","82","","","","30","","10","","19.3","","99.75","","","","-21","","Snow"
"-111.96","60.02","FORT SMITH A","2202201","2020-11-19 12:00","2020","11","19","12:00","-14.9","","-17.3","","82","","","","30","","10","","19.3","","99.81","","","","-21","","Snow"
"-111.96","60.02","FORT SMITH A","2202201","2020-11-19 13:00","2020","11","19","13:00","-14.2","","-16.8","","80","","","","31","","8","","16.1","","99.86","","","","-19","","Snow"
"-111.96","60.02","FORT SMITH A","2202201","2020-11-19 14:00","2020","11","19","14:00","-13.6","","-16.4","","80","","","","32","","11","","12.9","","99.91","","","","-20","","Snow"
"-111.96","60.02","FORT SMITH A","2202201","2020-11-19 15:00","2020","11","19","15:00","-13.2","","-16.1","","79","","","","24","","5","","19.3","","99.92","","","","-17","","Snow"
"-111.96","60.02","FORT SMITH A","2202201","2020-11-19 16:00","2020","11","19","16:00","-13.2","","-16.0","","79","","","","31","","3","","19.3","","99.91","","","","-15","","Snow"
"-111.96","60.02","FORT SMITH A","2202201","2020-11-19 17:00","2020","11","19","17:00","-13.4","","-15.9","","82","","","","24","","7","","19.3","","99.92","","","","-18","","Snow"
"-111.96","60.02","FORT SMITH A","2202201","2020-11-19 18:00","2020","11","19","18:00","-13.7","","-16.0","","83","","","","22","","8","","19.3","","99.94","","","","-19","","Snow"
"-111.96","60.02","FORT SMITH A","2202201","2020-11-19 19:00","2020","11","19","19:00","-13.7","","-16.0","","82","","","","21","","8","","19.3","","99.95","","","","-19","","Snow"
"-111.96","60.02","FORT SMITH A","2202201","2020-11-19 20:00","2020","11","19","20:00","-13.8","","-16.6","","80","","","","23","","6","","24.1","","99.94","","","","-18","","Snow"
"-111.96","60.02","FORT SMITH A","2202201","2020-11-19 21:00","2020","11","19","21:00","-14.2","","-16.9","","80","","","","20","","7","","24.1","","99.91","","","","-19","","Snow"
"-111.96","60.02","FORT SMITH A","2202201","2020-11-19 22:00","2020","11","19","22:00","-14.8","","-17.1","","82","","","","14","","4","","24.1","","99.90","","","","-18","","Snow"
"-111.96","60.02","FORT SMITH A","2202201","2020-11-19 23:00","2020","11","19","23:00","-14.4","","-17.0","","81","","","","16","","11","","24.1","","99.90","","","","-21","","Snow"
"-111.96","60.02","FORT SMITH A","2202201","2020-11-20 00:00","2020","11","20","00:00","-14.2","","-16.8","","81","","","","16","","13","","24.1","","99.86","","","","-21","","Snow"
"-111.96","60.02","FORT SMITH A","2202201","2020-11-20 01:00","2020","11","20","01:00","-14.1","","-16.7","","81","","","","16","","14","","24.1","","99.83","","","","-22","","Snow"
"-111.96","60.02","FORT SMITH A","2202201","2020-11-20 02:00","2020","11","20","02:00","-15.4","","-17.8","","82","","","","16","","13","","24.1","","99.77","","","","-23","","Snow"
"-111.96","60.02","FORT SMITH A","2202201","2020-11-20 03:00","2020","11","20","03:00","-16.2","","-18.2","","85","","","","15","","12","","24.1","","99.72","","","","-23","","NA"
"-111.96","60.02","FORT SMITH A","2202201","2020-11-20 04:00","2020","11","20","04:00","-16.8","","-18.9","","84","","","","16","","12","","24.1","","99.67","","","","-24","","NA"
"-111.96","60.02","FORT SMITH A","2202201","2020-11-20 05:00","2020","11","20","05:00","-17.5","","-19.6","","84","","","","16","","13","","24.1","","99.63","","","","-25","","Clear"
"-111.96","60.02","FORT SMITH A","2202201","2020-11-20 06:00","2020","11","20","06:00","-18.0","","-20.3","","83","","","","16","","10","","24.1","","99.60","","","","-25","","NA"
"-111.96","60.02","FORT SMITH A","2202201","2020-11-20 07:00","2020","11","20","07:00","-17.8","","-20.1","","82","","","","14","","9","","24.1","","99.56","","","","-24","","NA"
"-111.96","60.02","FORT SMITH A","2202201","2020-11-20 08:00","2020","11","20","08:00","-16.7","","-19.2","","82","","","","15","","14","","24.1","","99.51","","","","-25","","Mostly Cloudy"
"-111.96","60.02","FORT SMITH A","2202201","2020-11-20 09:00","2020","11","20","09:00","-15.9","","-18.2","","83","","","","15","","11","","24.1","","99.46","","","","-23","","NA"
"-111.96","60.02","FORT SMITH A","2202201","2020-11-20 10:00","2020","11","20","10:00","-14.8","","-17.1","","83","","","","15","","10","","24.1","","99.43","","","","-21","","NA"
"-111.96","60.02","FORT SMITH A","2202201","2020-11-20 11:00","2020","11","20","11:00","-14.2","","-16.8","","81","","","","15","","14","","24.1","","99.39","","","","-22","","Snow"
"-111.96","60.02","FORT SMITH A","2202201","2020-11-20 12:00","2020","11","20","12:00","-13.2","","-16.4","","78","","","","14","","12","","24.1","","99.30","","","","-20","","Snow"
"-111.96","60.02","FORT SMITH A","2202201","2020-11-20 13:00","2020","11","20","13:00","-13.2","","-16.4","","77","","","","15","","16","","24.1","","99.25","","","","-21","","NA"
"-111.96","60.02","FORT SMITH A","2202201","2020-11-20 14:00","2020","11","20","14:00","-13.2","","-16.2","","79","","","","16","","9","","24.1","","99.21","","","","-19","","Snow"
"-111.96","60.02","FORT SMITH A","2202201","2020-11-20 15:00","2020","11","20","15:00","-13.0","","-15.9","","79","","","","16","","7","","24.1","","99.20","","","","-18","","Snow"
"-111.96","60.02","FORT SMITH A","2202201","2020-11-20 16:00","2020","11","20","16:00","-13.0","","-15.9","","79","","","","18","","7","","24.1","","99.18","","","","-18","","Snow"
"-111.96","60.02","FORT SMITH A","2202201","2020-11-20 17:00","2020","11","20","17:00","-13.2","","-15.9","","80","","","","19","","6","","24.1","","99.16","","","","-17","","Snow"
"-111.96","60.02","FORT SMITH A","2202201","2020-11-20 18:00","2020","11","20","18:00","-15.8","","-17.6","","86","","","","36","","1","","24.1","","99.14","","","","-17","","Snow"
"-111.96","60.02","FORT SMITH A","2202201","2020-11-20 19:00","2020","11","20","19:00","-19.0","","-20.6","","87","","","","36","","3","","24.1","","99.14","","","","-21","","NA"
"-111.96","60.02","FORT SMITH A","2202201","2020-11-20 20:00","2020","11","20","20:00","-20.0","","-22.1","","84","","","","24","","5","","24.1","","99.14","","","","-24","","Clear"
"-111.96","60.02","FORT SMITH A","2202201","2020-11-20 21:00","2020","11","20","21:00","-19.9","","-22.2","","82","","","","21","","3","","24.1","","99.13","","","","-22","","NA"
"-111.96","60.02","FORT SMITH A","2202201","2020-11-20 22:00","2020","11","20","22:00","-22.5","","-25.2","","79","","","","16","","3","","24.1","","99.15","","","","-25","","NA"
"-111.96","60.02","FORT SMITH A","2202201","2020-11-20 23:00","2020","11","20","23:00","-22.6","","-25.2","","80","","","","17","","4","","24.1","","99.15","","","","-26","","Clear"
"-111.96","60.02","FORT SMITH A","2202201","2020-11-21 00:00","2020","11","21","00:00","-22.2","","-24.7","","80","","","","19","","4","","24.1","","99.16","","","","-26","","NA"
"-111.96","60.02","FORT SMITH A","2202201","2020-11-21 01:00","2020","11","21","01:00","-23.5","","-26.4","","78","","","","17","","5","","24.1","","99.18","","","","-28","","NA"
"-111.96","60.02","FORT SMITH A","2202201","2020-11-21 02:00","2020","11","21","02:00","-24.7","","-27.6","","77","","","","21","","3","","24.1","","99.23","","","","-28","","Clear"
"-111.96","60.02","FORT SMITH A","2202201","2020-11-21 03:00","2020","11","21","03:00","-24.0","","-26.8","","78","","","","17","","4","","24.1","","99.26","","","","-28","","NA"
"-111.96","60.02","FORT SMITH A","2202201","2020-11-21 04:00","2020","11","21","04:00","-24.2","","-27.0","","78","","","","23","","5","","24.1","","99.29","","","","-29","","NA"
"-111.96","60.02","FORT SMITH A","2202201","2020-11-21 05:00","2020","11","21","05:00","-25.8","","-28.9","","76","","","","22","","4","","24.1","","99.32","","","","-30","","Clear"
"-111.96","60.02","FORT SMITH A","2202201","2020-11-21 06:00","2020","11","21","06:00","-24.2","","-27.1","","78","","","","23","","4","","24.1","","99.34","","","","-28","","NA"
"-111.96","60.02","FORT SMITH A","2202201","2020-11-21 07:00","2020","11","21","07:00","-20.8","","-23.3","","81","","","","28","","10","","24.1","","99.39","","","","-28","","NA"
"-111.96","60.02","FORT SMITH A","2202201","2020-11-21 08:00","2020","11","21","08:00","-20.9","","-23.4","","80","","","","20","","7","","24.1","","99.41","","","","-27","","Cloudy"
"-111.96","60.02","FORT SMITH A","2202201","2020-11-21 09:00","2020","11","21","09:00","-20.5","","-23.1","","80","","","","23","","9","","24.1","","99.49","","","","-27","","NA"
"-111.96","60.02","FORT SMITH A","2202201","2020-11-21 10:00","2020","11","21","10:00","-19.7","","-22.2","","81","","","","26","","9","","19.3","","99.56","","","","-26","","Snow"
"-111.96","60.02","FORT SMITH A","2202201","2020-11-21 11:00","2020","11","21","11:00","-18.5","","-20.9","","81","","","","27","","9","","24.1","","99.62","","","","-25","","Snow"
"-111.96","60.02","FORT SMITH A","2202201","2020-11-21 12:00","2020","11","21","12:00","-16.7","","-19.0","","83","","","","27","","12","","9.7","","99.66","","","","-24","","Snow"
"-111.96","60.02","FORT SMITH A","2202201","2020-11-21 13:00","2020","11","21","13:00","-15.8","","-18.0","","84","","","","29","","13","","19.3","","99.72","","","","-23","","Snow"
"-111.96","60.02","FORT SMITH A","2202201","2020-11-21 14:00","2020","11","21","14:00","-15.5","","-17.6","","84","","","","28","","14","","24.1","","99.82","","","","-23","","Snow"
"-111.96","60.02","FORT SMITH A","2202201","2020-11-21 15:00","2020","11","21","15:00","-15.1","","-17.2","","84","","","","29","","17","","19.3","","99.89","","","","-24","","Snow"
"-111.96","60.02","FORT SMITH A","2202201","2020-11-21 16:00","2020","11","21","16:00","-15.1","","-17.2","","84","","","","30","","15","","19.3","","99.98","","","","-23","","Snow"
"-111.96","60.02","FORT SMITH A","2202201","2020-11-21 17:00","2020","11","21","17:00","-14.9","","-17.1","","84","","","","30","","16","","19.3","","100.02","","","","-23","","Snow"
"-111.96","60.02","FORT SMITH A","2202201","2020-11-21 18:00","2020","11","21","18:00","-14.5","","-16.6","","85","","","","29","","17","","16.1","","100.07","","","","-23","","Snow"
"-111.96","60.02","FORT SMITH A","2202201","2020-11-21 19:00","2020","11","21","19:00","-14.9","","-17.0","","84","","","","27","","12","","16.1","","100.10","","","","-22","","Snow"
"-111.96","60.02","FORT SMITH A","2202201","2020-11-21 20:00","2020","11","21","20:00","-14.8","","-16.9","","85","","","","28","","12","","16.1","","100.08","","","","-22","","Snow"
"-111.96","60.02","FORT SMITH A","2202201","2020-11-21 21:00","2020","11","21","21:00","-14.4","","-16.4","","85","","","","29","","14","","16.1","","100.13","","","","-22","","Snow"
"-111.96","60.02","FORT SMITH A","2202201","2020-11-21 22:00","2020","11","21","22:00","-14.2","","-16.2","","85","","","","30","","13","","16.1","","100.15","","","","-21","","Snow"
"-111.96","60.02","FORT SMITH A","2202201","2020-11-21 23:00","2020","11","21","23:00","-14.1","","-16.0","","85","","","","29","","10","","16.1","","100.18","","","","-20","","Snow"
"-111.96","60.02","FORT SMITH A","2202201","2020-11-22 00:00","2020","11","22","00:00","-14.0","","-15.9","","85","","","","36","","5","","19.3","","100.17","","","","-17","","Snow"
"-111.96","60.02","FORT SMITH A","2202201","2020-11-22 01:00","2020","11","22","01:00","-13.9","","-15.8","","86","","","","36","","2","","19.3","","100.19","","","","-15","","Snow"
"-111.96","60.02","FORT SMITH A","2202201","2020-11-22 02:00","2020","11","22","02:00","-14.0","","-15.9","","85","","","","25","","9","","16.1","","100.21","","","","-20","","Snow"
"-111.96","60.02","FORT SMITH A","2202201","2020-11-22 03:00","2020","11","22","03:00","-14.4","","-16.3","","86","","","","22","","9","","16.1","","100.20","","","","-20","","Snow"
"-111.96","60.02","FORT SMITH A","2202201","2020-11-22 04:00","2020","11","22","04:00","-14.8","","-16.7","","85","","","","17","","3","","19.3","","100.16","","","","-17","","Snow"
"-111.96","60.02","FORT SMITH A","2202201","2020-11-22 05:00","2020","11","22","05:00","-15.1","","-17.1","","85","","","","18","","9","","16.1","","100.09","","","","-21","","Snow"
"-111.96","60.02","FORT SMITH A","2202201","2020-11-22 06:00","2020","11","22","06:00","-15.3","","-17.3","","85","","","","15","","8","","16.1","","100.05","","","","-21","","Snow"
"-111.96","60.02","FORT SMITH A","2202201","2020-11-22 07:00","2020","11","22","07:00","-15.6","","-17.7","","84","","","","17","","14","","16.1","","99.97","","","","-23","","Snow"
"-111.96","60.02","FORT SMITH A","2202201","2020-11-22 08:00","2020","11","22","08:00","-15.7","","-17.8","","84","","","","16","","14","","16.1","","99.95","","","","-23","","Snow"
"-111.96","60.02","FORT SMITH A","2202201","2020-11-22 09:00","2020","11","22","09:00","-15.8","","-17.9","","84","","","","16","","17","","24.1","","99.92","","","","-24","","Snow"
"-111.96","60.02","FORT SMITH A","2202201","2020-11-22 10:00","2020","11","22","10:00","-16.2","","-18.4","","84","","","","14","","13","","24.1","","99.82","","","","-24","","Snow"
"-111.96","60.02","FORT SMITH A","2202201","2020-11-22 11:00","2020","11","22","11:00","-16.3","","-18.5","","84","","","","15","","14","","24.1","","99.76","","","","-24","","Snow"
"-111.96","60.02","FORT SMITH A","2202201","2020-11-22 12:00","2020","11","22","12:00","-16.5","","-18.7","","83","","","","13","","14","","19.3","","99.70","","","","-24","","Snow,Blowing Snow"
"-111.96","60.02","FORT SMITH A","2202201","2020-11-22 13:00","2020","11","22","13:00","-17.1","","-19.3","","83","","","","13","","13","","24.1","","99.66","","","","-25","","Snow"
"-111.96","60.02","FORT SMITH A","2202201","2020-11-22 14:00","2020","11","22","14:00","-17.4","","-19.7","","83","","","","14","","11","","24.1","","99.57","","","","-25","","Snow"
"-111.96","60.02","FORT SMITH A","2202201","2020-11-22 15:00","2020","11","22","15:00","-17.3","","-19.6","","83","","","","11","","8","","24.1","","99.49","","","","-23","","NA"
"-111.96","60.02","FORT SMITH A","2202201","2020-11-22 16:00","2020","11","22","16:00","-17.1","","-19.4","","83","","","","13","","14","","24.1","","99.41","","","","-25","","NA"
"-111.96","60.02","FORT SMITH A","2202201","2020-11-22 17:00","2020","11","22","17:00","-16.5","","-18.7","","83","","","","13","","13","","24.1","","99.29","","","","-24","","Cloudy"
"-111.96","60.02","FORT SMITH A","2202201","2020-11-22 18:00","2020","11","22","18:00","-15.7","","-17.8","","84","","","","13","","13","","24.1","","99.20","","","","-23","","NA"
"-111.96","60.02","FORT SMITH A","2202201","2020-11-22 19:00","2020","11","22","19:00","-16.0","","-18.1","","84","","","","12","","11","","24.1","","99.14","","","","-23","","Ice Crystals"
"-111.96","60.02","FORT SMITH A","2202201","2020-11-22 20:00","2020","11","22","20:00","-16.0","","-18.1","","84","","","","14","","14","","24.1","","99.07","","","","-24","","Ice Crystals"
"-111.96","60.02","FORT SMITH A","2202201","2020-11-22 21:00","2020","11","22","21:00","-14.2","","-16.2","","85","","","","14","","16","","24.1","","99.01","","","","-22","","Snow"
"-111.96","60.02","FORT SMITH A","2202201","2020-11-22 22:00","2020","11","22","22:00","-13.4","","-15.4","","85","","","","13","","13","","24.1","","98.95","","","","-20","","Snow"
"-111.96","60.02","FORT SMITH A","2202201","2020-11-22 23:00","2020","11","22","23:00","-12.7","","-14.7","","85","","","","12","","13","","19.3","","98.88","","","","-20","","Snow"
"-111.96","60.02","FORT SMITH A","2202201","2020-11-23 00:00","2020","11","23","00:00","-12.2","","-14.2","","85","","","","13","","9","","16.1","","98.82","","","","-17","","Snow"
"-111.96","60.02","FORT SMITH A","2202201","2020-11-23 01:00","2020","11","23","01:00","-11.6","","-13.6","","85","","","","12","","9","","4.8","","98.78","","","","-17","","Snow"
"-111.96","60.02","FORT SMITH A","2202201","2020-11-23 02:00","2020","11","23","02:00","-11.1","","-13.4","","84","","","","13","","12","","9.7","","98.75","","","","-17","","Snow"
"-111.96","60.02","FORT SMITH A","2202201","2020-11-23 03:00","2020","11","23","03:00","-11.1","","-13.4","","83","","","","14","","11","","9.7","","98.72","","","","-17","","Snow"
"-111.96","60.02","FORT SMITH A","2202201","2020-11-23 04:00","2020","11","23","04:00","-11.1","","-13.2","","85","","","","13","","6","","4.8","","98.67","","","","-15","","Snow"
"-111.96","60.02","FORT SMITH A","2202201","2020-11-23 05:00","2020","11","23","05:00","-11.0","","-13.2","","84","","","","13","","8","","4.8","","98.65","","","","-16","","Snow"
"-111.96","60.02","FORT SMITH A","2202201","2020-11-23 06:00","2020","11","23","06:00","-11.1","","-13.4","","83","","","","14","","9","","4.8","","98.65","","","","-16","","Snow"
"-111.96","60.02","FORT SMITH A","2202201","2020-11-23 07:00","2020","11","23","07:00","-11.0","","-13.3","","83","","","","14","","10","","4.8","","98.65","","","","-16","","Snow"
"-111.96","60.02","FORT SMITH A","2202201","2020-11-23 08:00","2020","11","23","08:00","-10.9","","-13.0","","85","","","","15","","8","","1.0","","98.65","","","","-16","","Snow"
"-111.96","60.02","FORT SMITH A","2202201","2020-11-23 09:00","2020","11","23","09:00","-10.9","","-12.8","","86","","","","15","","5","","1.2","","98.67","","","","-14","","Snow"
"-111.96","60.02","FORT SMITH A","2202201","2020-11-23 10:00","2020","11","23","10:00","-10.8","","-12.7","","86","","","","14","","4","","1.6","","98.68","","","","-13","","Snow"
"-111.96","60.02","FORT SMITH A","2202201","2020-11-23 11:00","2020","11","23","11:00","-10.7","","-13.0","","84","","","","15","","8","","24.1","","98.66","","","","-15","","Snow"
"-111.96","60.02","FORT SMITH A","2202201","2020-11-23 12:00","2020","11","23","12:00","-10.3","","-12.9","","81","","","","17","","12","","24.1","","98.65","","","","-16","","Snow"
"-111.96","60.02","FORT SMITH A","2202201","2020-11-23 13:00","2020","11","23","13:00","-10.2","","-12.8","","81","","","","17","","12","","19.3","","98.65","","","","-16","","Snow"
"-111.96","60.02","FORT SMITH A","2202201","2020-11-23 14:00","2020","11","23","14:00","-10.2","","-12.8","","82","","","","17","","10","","24.1","","98.64","","","","-15","","Snow"
"-111.96","60.02","FORT SMITH A","2202201","2020-11-23 15:00","2020","11","23","15:00","-10.2","","-12.6","","83","","","","18","","7","","24.1","","98.66","","","","-14","","Snow"
"-111.96","60.02","FORT SMITH A","2202201","2020-11-23 16:00","2020","11","23","16:00","-10.3","","-12.4","","85","","","","19","","5","","24.1","","98.65","","","","-13","","Snow"
"-111.96","60.02","FORT SMITH A","2202201","2020-11-23 17:00","2020","11","23","17:00","-10.3","","-12.3","","86","","","","18","","4","","24.1","","98.64","","","","-13","","Snow"
"-111.96","60.02","FORT SMITH A","2202201","2020-11-23 18:00","2020","11","23","18:00","-10.3","","-12.2","","86","","","","16","","10","","24.1","","98.60","","","","-16","","Snow"
"-111.96","60.02","FORT SMITH A","2202201","2020-11-23 19:00","2020","11","23","19:00","-10.3","","-12.2","","86","","","","15","","13","","24.1","","98.53","","","","-17","","Snow"
"-111.96","60.02","FORT SMITH A","2202201","2020-11-23 20:00","2020","11","23","20:00","-10.3","","-12.1","","87","","","","15","","9","","24.1","","98.53","","","","-15","","Snow"
"-111.96","60.02","FORT SMITH A","2202201","2020-11-23 21:00","2020","11","23","21:00","-10.8","","-12.6","","87","","","","14","","12","","24.1","","98.45","","","","-17","","Snow"
"-111.96","60.02","FORT SMITH A","2202201","2020-11-23 22:00","2020","11","23","22:00","-11.1","","-12.7","","88","","","","14","","14","","24.1","","98.44","","","","-18","","NA"
"-111.96","60.02","FORT SMITH A","2202201","2020-11-23 23:00","2020","11","23","23:00","-11.6","","-13.6","","86","","","","15","","15","","24.1","","98.37","","","","-19","","Cloudy"
"-111.96","60.02","FORT SMITH A","2202201","2020-11-24 00:00","2020","11","24","00:00","-11.5","","-13.2","","87","","","","14","","12","","24.1","","98.31","","","","-18","","NA"
"-111.96","60.02","FORT SMITH A","2202201","2020-11-24 01:00","2020","11","24","01:00","-10.8","","-12.3","","89","","","","13","","13","","24.1","","98.17","","","","-17","","NA"
"-111.96","60.02","FORT SMITH A","2202201","2020-11-24 02:00","2020","11","24","02:00","-10.1","","-11.6","","89","","","","14","","13","","24.1","","98.14","","","","-16","","Cloudy"
"-111.96","60.02","FORT SMITH A","2202201","2020-11-24 03:00","2020","11","24","03:00","-9.6","","-11.3","","88","","","","14","","18","","16.1","","98.05","","","","-17","","Snow"
"-111.96","60.02","FORT SMITH A","2202201","2020-11-24 04:00","2020","11","24","04:00","-9.1","","-10.7","","88","","","","15","","22","","19.3","","98.00","","","","-17","","Snow,Blowing Snow"
"-111.96","60.02","FORT SMITH A","2202201","2020-11-24 05:00","2020","11","24","05:00","-8.9","","-10.5","","88","","","","14","","22","","19.3","","97.89","","","","-17","","Snow,Blowing Snow"
"-111.96","60.02","FORT SMITH A","2202201","2020-11-24 06:00","2020","11","24","06:00","-8.6","","-10.3","","88","","","","14","","17","","24.1","","97.79","","","","-15","","Snow,Blowing Snow"
"-111.96","60.02","FORT SMITH A","2202201","2020-11-24 07:00","2020","11","24","07:00","-8.3","","-10.0","","88","","","","13","","18","","24.1","","97.70","","","","-15","","Blowing Snow"
"-111.96","60.02","FORT SMITH A","2202201","2020-11-24 08:00","2020","11","24","08:00","-8.2","","-10.2","","86","","","","14","","21","","24.1","","97.63","","","","-16","","Blowing Snow"
"-111.96","60.02","FORT SMITH A","2202201","2020-11-24 09:00","2020","11","24","09:00","-8.5","","-10.4","","86","","","","13","","17","","24.1","","97.54","","","","-15","","NA"
"-111.96","60.02","FORT SMITH A","2202201","2020-11-24 10:00","2020","11","24","10:00","-8.4","","-10.4","","86","","","","14","","17","","6.4","","97.49","","","","-15","","Snow,Blowing Snow"
"-111.96","60.02","FORT SMITH A","2202201","2020-11-24 11:00","2020","11","24","11:00","-8.2","","-10.1","","86","","","","13","","14","","1.0","","97.39","","","","-14","","Snow,Blowing Snow"
"-111.96","60.02","FORT SMITH A","2202201","2020-11-24 12:00","2020","11","24","12:00","-7.9","","-9.9","","86","","","","14","","15","","0.8","","97.31","","","","-14","","Moderate Snow,Blowing Snow"
"-111.96","60.02","FORT SMITH A","2202201","2020-11-24 13:00","2020","11","24","13:00","-7.4","","-9.3","","86","","","","13","","14","","1.0","","97.23","","","","-13","","Snow,Blowing Snow"
"-111.96","60.02","FORT SMITH A","2202201","2020-11-24 14:00","2020","11","24","14:00","-7.0","","-8.9","","87","","","","13","","10","","2.4","","97.18","","","","-12","","Snow"
"-111.96","60.02","FORT SMITH A","2202201","2020-11-24 15:00","2020","11","24","15:00","-6.7","","-8.6","","86","","","","12","","10","","4.0","","97.08","","","","-11","","Snow"
"-111.96","60.02","FORT SMITH A","2202201","2020-11-24 16:00","2020","11","24","16:00","-6.6","","-8.3","","88","","","","13","","6","","3.2","","97.04","","","","-10","","Snow"
"-111.96","60.02","FORT SMITH A","2202201","2020-11-24 17:00","2020","11","24","17:00","-6.5","","-8.1","","88","","","","15","","4","","9.7","","97.03","","","","-8","","Snow"
"-111.96","60.02","FORT SMITH A","2202201","2020-11-24 18:00","2020","11","24","18:00","-6.4","","-8.0","","88","","","","36","","1","","4.8","","97.01","","","","-7","","Snow"
"-111.96","60.02","FORT SMITH A","2202201","2020-11-24 19:00","2020","11","24","19:00","-7.0","","-8.2","","91","","","","23","","5","","4.8","","96.99","","","","-10","","Snow"
"-111.96","60.02","FORT SMITH A","2202201","2020-11-24 20:00","2020","11","24","20:00","-6.9","","-8.3","","90","","","","24","","9","","9.7","","96.99","","","","-11","","Snow"
"-111.96","60.02","FORT SMITH A","2202201","2020-11-24 21:00","2020","11","24","21:00","-7.1","","-8.7","","89","","","","27","","13","","24.1","","96.99","","","","-13","","Snow"
"-111.96","60.02","FORT SMITH A","2202201","2020-11-24 22:00","2020","11","24","22:00","-7.6","","-9.5","","86","","","","29","","18","","16.1","","97.03","","","","-14","","Snow"
"-111.96","60.02","FORT SMITH A","2202201","2020-11-24 23:00","2020","11","24","23:00","-8.3","","-10.2","","87","","","","27","","16","","12.9","","97.07","","","","-15","","Snow"
"-111.96","60.02","FORT SMITH A","2202201","2020-11-25 00:00","2020","11","25","00:00","-8.7","","-10.8","","85","","","","28","","19","","9.7","","97.10","","","","-16","","Snow"
"-111.96","60.02","FORT SMITH A","2202201","2020-11-25 01:00","2020","11","25","01:00","-9.4","","-11.3","","86","","","","27","","15","","9.7","","97.15","","","","-16","","Snow"
"-111.96","60.02","FORT SMITH A","2202201","2020-11-25 02:00","2020","11","25","02:00","-10.3","","-12.5","","84","","","","27","","18","","16.1","","97.22","","","","-18","","Snow"
"-111.96","60.02","FORT SMITH A","2202201","2020-11-25 03:00","2020","11","25","03:00","-11.0","","-13.2","","84","","","","28","","18","","16.1","","97.25","","","","-19","","Snow"
"-111.96","60.02","FORT SMITH A","2202201","2020-11-25 04:00","2020","11","25","04:00","-11.0","","-13.1","","85","","","","27","","19","","16.1","","97.28","","","","-19","","Snow"
"-111.96","60.02","FORT SMITH A","2202201","2020-11-25 05:00","2020","11","25","05:00","-10.7","","-12.7","","85","","","","27","","17","","16.1","","97.31","","","","-18","","Snow"
"-111.96","60.02","FORT SMITH A","2202201","2020-11-25 06:00","2020","11","25","06:00","-10.0","","-11.8","","87","","","","27","","13","","16.1","","97.31","","","","-16","","Snow"
"-111.96","60.02","FORT SMITH A","2202201","2020-11-25 07:00","2020","11","25","07:00","-9.2","","-11.1","","86","","","","27","","17","","16.1","","97.35","","","","-16","","Snow"
"-111.96","60.02","FORT SMITH A","2202201","2020-11-25 08:00","2020","11","25","08:00","-9.1","","-11.6","","83","","","","29","","27","","16.1","","97.40","","","","-18","","Snow"
"-111.96","60.02","FORT SMITH A","2202201","2020-11-25 09:00","2020","11","25","09:00","-9.7","","-12.1","","83","","","","29","","23","","4.8","","97.45","","","","-18","","Snow,Blowing Snow"
"-111.96","60.02","FORT SMITH A","2202201","2020-11-25 10:00","2020","11","25","10:00","-10.3","","-12.7","","83","","","","27","","21","","2.0","","97.50","","","","-18","","Snow,Blowing Snow"
"-111.96","60.02","FORT SMITH A","2202201","2020-11-25 11:00","2020","11","25","11:00","-10.4","","-12.8","","83","","","","28","","20","","2.0","","97.52","","","","-18","","Snow,Blowing Snow"
"-111.96","60.02","FORT SMITH A","2202201","2020-11-25 12:00","2020","11","25","12:00","-10.7","","-13.4","","80","","","","29","","28","","2.4","","97.56","","","","-20","","Snow"
"-111.96","60.02","FORT SMITH A","2202201","2020-11-25 13:00","2020","11","25","13:00","-10.9","","-13.9","","79","","","","29","","23","","3.2","","97.60","","","","-20","","Snow,Blowing Snow"
"-111.96","60.02","FORT SMITH A","2202201","2020-11-25 14:00","2020","11","25","14:00","-10.9","","-13.6","","80","","","","28","","24","","4.8","","97.64","","","","-20","","Snow,Blowing Snow"
"-111.96","60.02","FORT SMITH A","2202201","2020-11-25 15:00","2020","11","25","15:00","-11.2","","-13.9","","81","","","","29","","21","","3.2","","97.68","","","","-20","","Snow,Blowing Snow"
"-111.96","60.02","FORT SMITH A","2202201","2020-11-25 16:00","2020","11","25","16:00","-11.6","","-14.4","","80","","","","29","","24","","4.8","","97.69","","","","-21","","Snow,Blowing Snow"
"-111.96","60.02","FORT SMITH A","2202201","2020-11-25 17:00","2020","11","25","17:00","-11.8","","-14.6","","80","","","","29","","25","","4.8","","97.72","","","","-21","","Snow,Blowing Snow"
"-111.96","60.02","FORT SMITH A","2202201","2020-11-25 18:00","2020","11","25","18:00","-12.1","","-14.9","","79","","","","28","","22","","8.1","","97.77","","","","-21","","Snow,Blowing Snow"
"-111.96","60.02","FORT SMITH A","2202201","2020-11-25 19:00","2020","11","25","19:00","-12.4","","-15.2","","80","","","","28","","25","","8.1","","97.82","","","","-22","","Snow,Blowing Snow"
"-111.96","60.02","FORT SMITH A","2202201","2020-11-25 20:00","2020","11","25","20:00","-12.5","","-15.2","","81","","","","28","","24","","4.8","","97.86","","","","-22","","Snow,Blowing Snow"
"-111.96","60.02","FORT SMITH A","2202201","2020-11-25 21:00","2020","11","25","21:00","-12.4","","-14.9","","82","","","","29","","21","","4.8","","97.90","","","","-21","","Snow,Blowing Snow"
"-111.96","60.02","FORT SMITH A","2202201","2020-11-25 22:00","2020","11","25","22:00","-12.4","","-14.9","","82","","","","30","","23","","6.4","","97.98","","","","-21","","Snow"
"-111.96","60.02","FORT SMITH A","2202201","2020-11-25 23:00","2020","11","25","23:00","-12.7","","-15.1","","82","","","","29","","21","","3.6","","98.05","","","","-21","","Snow"
"-111.96","60.02","FORT SMITH A","2202201","2020-11-26 00:00","2020","11","26","00:00","-12.5","","-14.9","","83","","","","29","","18","","4.0","","98.12","","","","-21","","Snow"
"-111.96","60.02","FORT SMITH A","2202201","2020-11-26 01:00","2020","11","26","01:00","-12.4","","-14.8","","82","","","","29","","17","","8.1","","98.21","","","","-20","","Snow,Blowing Snow"
"-111.96","60.02","FORT SMITH A","2202201","2020-11-26 02:00","2020","11","26","02:00","-12.9","","-15.2","","83","","","","30","","13","","9.7","","98.23","","","","-20","","Snow"
"-111.96","60.02","FORT SMITH A","2202201","2020-11-26 03:00","2020","11","26","03:00","-14.5","","-16.6","","84","","","","28","","16","","24.1","","98.28","","","","-23","","Snow"
"-111.96","60.02","FORT SMITH A","2202201","2020-11-26 04:00","2020","11","26","04:00","-15.3","","-17.3","","84","","","","28","","12","","19.3","","98.32","","","","-22","","Snow"
"-111.96","60.02","FORT SMITH A","2202201","2020-11-26 05:00","2020","11","26","05:00","-14.4","","-16.7","","83","","","","28","","15","","9.7","","98.36","","","","-22","","Snow"
"-111.96","60.02","FORT SMITH A","2202201","2020-11-26 06:00","2020","11","26","06:00","-14.6","","-16.8","","83","","","","26","","11","","4.8","","98.35","","","","-21","","Snow"
"-111.96","60.02","FORT SMITH A","2202201","2020-11-26 07:00","2020","11","26","07:00","-14.8","","-17.0","","83","","","","23","","9","","4.8","","98.34","","","","-21","","Snow"
"-111.96","60.02","FORT SMITH A","2202201","2020-11-26 08:00","2020","11","26","08:00","-15.2","","-17.4","","84","","","","21","","6","","16.1","","98.33","","","","-19","","Snow"
"-111.96","60.02","FORT SMITH A","2202201","2020-11-26 09:00","2020","11","26","09:00","-16.1","","-18.3","","83","","","","19","","10","","24.1","","98.35","","","","-23","","Snow"
"-111.96","60.02","FORT SMITH A","2202201","2020-11-26 10:00","2020","11","26","10:00","-17.7","","-19.9","","83","","","","15","","10","","24.1","","98.25","","","","-24","","NA"
"-111.96","60.02","FORT SMITH A","2202201","2020-11-26 11:00","2020","11","26","11:00","-16.8","","-19.0","","83","","","","14","","10","","24.1","","98.19","","","","-23","","Mainly Clear"
"-111.96","60.02","FORT SMITH A","2202201","2020-11-26 12:00","2020","11","26","12:00","-15.6","","-18.2","","81","","","","14","","11","","24.1","","98.11","","","","-22","","Snow"
"-111.96","60.02","FORT SMITH A","2202201","2020-11-26 13:00","2020","11","26","13:00","-15.1","","-17.6","","81","","","","15","","17","","24.1","","97.98","","","","-24","","NA"
"-111.96","60.02","FORT SMITH A","2202201","2020-11-26 14:00","2020","11","26","14:00","-15.0","","-17.5","","82","","","","13","","12","","24.1","","97.85","","","","-22","","Mostly Cloudy"
"-111.96","60.02","FORT SMITH A","2202201","2020-11-26 15:00","2020","11","26","15:00","-14.5","","-16.9","","82","","","","15","","17","","24.1","","97.72","","","","-23","","NA"
"-111.96","60.02","FORT SMITH A","2202201","2020-11-26 16:00","2020","11","26","16:00","-13.7","","-16.1","","82","","","","15","","20","","24.1","","97.57","","","","-23","","Snow"
"-111.96","60.02","FORT SMITH A","2202201","2020-11-26 17:00","2020","11","26","17:00","-12.9","","-15.3","","82","","","","15","","19","","24.1","","97.46","","","","-21","","Blowing Snow"
"-111.96","60.02","FORT SMITH A","2202201","2020-11-26 18:00","2020","11","26","18:00","-12.6","","-15.0","","83","","","","14","","17","","24.1","","97.27","","","","-20","","Snow,Blowing Snow"
"-111.96","60.02","FORT SMITH A","2202201","2020-11-26 19:00","2020","11","26","19:00","-12.3","","-14.6","","83","","","","14","","17","","2.4","","97.13","","","","-20","","Snow"
"-111.96","60.02","FORT SMITH A","2202201","2020-11-26 20:00","2020","11","26","20:00","-11.7","","-14.0","","83","","","","14","","22","","1.6","","96.93","","","","-20","","Snow,Blowing Snow"
"-111.96","60.02","FORT SMITH A","2202201","2020-11-26 21:00","2020","11","26","21:00","-10.8","","-12.8","","85","","","","15","","24","","0.6","","96.85","","","","-20","","Moderate Snow,Blowing Snow"
"-111.96","60.02","FORT SMITH A","2202201","2020-11-26 22:00","2020","11","26","22:00","-9.8","","-11.9","","85","","","","16","","19","","8.1","","96.78","","","","-17","","Snow,Blowing Snow"
"-111.96","60.02","FORT SMITH A","2202201","2020-11-26 23:00","2020","11","26","23:00","-9.4","","-11.3","","86","","","","16","","18","","24.1","","96.70","","","","-17","","Mostly Cloudy"
"-111.96","60.02","FORT SMITH A","2202201","2020-11-27 00:00","2020","11","27","00:00","-8.9","","-10.8","","87","","","","16","","15","","24.1","","96.66","","","","-15","","NA"
"-111.96","60.02","FORT SMITH A","2202201","2020-11-27 01:00","2020","11","27","01:00","-9.1","","-10.7","","88","","","","16","","12","","24.1","","96.61","","","","-15","","NA"
"-111.96","60.02","FORT SMITH A","2202201","2020-11-27 02:00","2020","11","27","02:00","-10.3","","-11.8","","88","","","","15","","12","","24.1","","96.58","","","","-16","","Clear"
"-111.96","60.02","FORT SMITH A","2202201","2020-11-27 03:00","2020","11","27","03:00","-10.5","","-11.9","","90","","","","15","","5","","24.1","","96.56","","","","-14","","NA"
"-111.96","60.02","FORT SMITH A","2202201","2020-11-27 04:00","2020","11","27","04:00","-12.2","","-13.7","","89","","","","15","","8","","24.1","","96.55","","","","-17","","NA"
"-111.96","60.02","FORT SMITH A","2202201","2020-11-27 05:00","2020","11","27","05:00","-11.3","","-12.9","","88","","","","18","","10","","24.1","","96.54","","","","-17","","Mainly Clear"
"-111.96","60.02","FORT SMITH A","2202201","2020-11-27 06:00","2020","11","27","06:00","-10.8","","-13.1","","84","","","","19","","5","","24.1","","96.58","","","","-14","","NA"
"-111.96","60.02","FORT SMITH A","2202201","2020-11-27 07:00","2020","11","27","07:00","-12.8","","-14.4","","88","","","","19","","3","","24.1","","96.62","","","","-15","","NA"
"-111.96","60.02","FORT SMITH A","2202201","2020-11-27 08:00","2020","11","27","08:00","-4.9","","-7.0","","85","","","","28","","20","","24.1","","96.74","","","","-11","","Cloudy"
"-111.96","60.02","FORT SMITH A","2202201","2020-11-27 09:00","2020","11","27","09:00","-5.1","","-7.4","","84","","","","30","","30","","24.1","","96.90","","","","-13","","Blowing Snow"
"-111.96","60.02","FORT SMITH A","2202201","2020-11-27 10:00","2020","11","27","10:00","-7.5","","-10.3","","81","","","","29","","26","","24.1","","97.08","","","","-16","","Blowing Snow"
"-111.96","60.02","FORT SMITH A","2202201","2020-11-27 11:00","2020","11","27","11:00","-8.2","","-11.3","","78","","","","29","","27","","6.4","","97.22","","","","-17","","Snow,Blowing Snow"
"-111.96","60.02","FORT SMITH A","2202201","2020-11-27 12:00","2020","11","27","12:00","-9.2","","-12.9","","74","","","","29","","33","","24.1","","97.32","","","","-19","","Snow,Blowing Snow"
"-111.96","60.02","FORT SMITH A","2202201","2020-11-27 13:00","2020","11","27","13:00","-9.7","","-13.8","","72","","","","29","","38","","24.1","","97.43","","","","-20","","Blowing Snow"
"-111.96","60.02","FORT SMITH A","2202201","2020-11-27 14:00","2020","11","27","14:00","-9.6","","-13.7","","72","","","","30","","25","","24.1","","97.59","","","","-18","","Blowing Snow"
"-111.96","60.02","FORT SMITH A","2202201","2020-11-27 15:00","2020","11","27","15:00","-10.0","","-14.1","","72","","","","29","","22","","24.1","","97.62","","","","-18","","Blowing Snow"
"-111.96","60.02","FORT SMITH A","2202201","2020-11-27 16:00","2020","11","27","16:00","-10.1","","-14.0","","73","","","","28","","28","","24.1","","97.70","","","","-19","","Blowing Snow"
"-111.96","60.02","FORT SMITH A","2202201","2020-11-27 17:00","2020","11","27","17:00","-10.5","","-14.5","","73","","","","28","","23","","24.1","","97.74","","","","-19","","Blowing Snow"
"-111.96","60.02","FORT SMITH A","2202201","2020-11-27 18:00","2020","11","27","18:00","-10.8","","-14.3","","75","","","","28","","19","","24.1","","97.79","","","","-19","","Snow,Blowing Snow"
"-111.96","60.02","FORT SMITH A","2202201","2020-11-27 19:00","2020","11","27","19:00","-10.9","","-14.9","","73","","","","28","","19","","19.3","","97.83","","","","-19","","Snow,Blowing Snow"
"-111.96","60.02","FORT SMITH A","2202201","2020-11-27 20:00","2020","11","27","20:00","-10.9","","-14.3","","76","","","","28","","16","","19.3","","97.84","","","","-18","","Snow,Blowing Snow"
"-111.96","60.02","FORT SMITH A","2202201","2020-11-27 21:00","2020","11","27","21:00","-10.8","","-14.4","","75","","","","27","","20","","19.3","","97.89","","","","-19","","Snow,Blowing Snow"
"-111.96","60.02","FORT SMITH A","2202201","2020-11-27 22:00","2020","11","27","22:00","-11.2","","-14.3","","78","","","","29","","21","","19.3","","97.96","","","","-20","","Snow,Blowing Snow"
"-111.96","60.02","FORT SMITH A","2202201","2020-11-27 23:00","2020","11","27","23:00","-11.5","","-15.3","","74","","","","30","","22","","19.3","","98.00","","","","-20","","Snow"
"-111.96","60.02","FORT SMITH A","2202201","2020-11-28 00:00","2020","11","28","00:00","-12.0","","-15.2","","77","","","","30","","19","","19.3","","98.04","","","","-20","","Snow,Blowing Snow"
"-111.96","60.02","FORT SMITH A","2202201","2020-11-28 01:00","2020","11","28","01:00","-12.4","","-15.4","","79","","","","30","","18","","24.1","","98.12","","","","-20","","Snow,Blowing Snow"
"-111.96","60.02","FORT SMITH A","2202201","2020-11-28 02:00","2020","11","28","02:00","-13.2","","-16.4","","77","","","","29","","18","","19.3","","98.18","","","","-21","","Snow,Blowing Snow"
"-111.96","60.02","FORT SMITH A","2202201","2020-11-28 03:00","2020","11","28","03:00","-13.6","","-16.7","","78","","","","30","","19","","24.1","","98.26","","","","-22","","Snow,Blowing Snow"
"-111.96","60.02","FORT SMITH A","2202201","2020-11-28 04:00","2020","11","28","04:00","-13.8","","-17.1","","76","","","","29","","20","","24.1","","98.33","","","","-23","","Snow,Blowing Snow"
"-111.96","60.02","FORT SMITH A","2202201","2020-11-28 05:00","2020","11","28","05:00","-13.9","","-17.0","","78","","","","29","","26","","24.1","","98.40","","","","-24","","Snow,Blowing Snow"
"-111.96","60.02","FORT SMITH A","2202201","2020-11-28 06:00","2020","11","28","06:00","-13.9","","-17.0","","78","","","","29","","22","","19.3","","98.45","","","","-23","","Snow"
"-111.96","60.02","FORT SMITH A","2202201","2020-11-28 07:00","2020","11","28","07:00","-13.8","","-16.8","","79","","","","29","","17","","19.3","","98.51","","","","-22","","Snow,Blowing Snow"
"-111.96","60.02","FORT SMITH A","2202201","2020-11-28 08:00","2020","11","28","08:00","-13.9","","-16.7","","80","","","","29","","17","","19.3","","98.58","","","","-22","","Snow,Blowing Snow"
"-111.96","60.02","FORT SMITH A","2202201","2020-11-28 09:00","2020","11","28","09:00","-14.2","","-16.9","","81","","","","29","","16","","6.4","","98.67","","","","-22","","Snow"
"-111.96","60.02","FORT SMITH A","2202201","2020-11-28 10:00","2020","11","28","10:00","-14.6","","-17.1","","81","","","","28","","16","","4.8","","98.75","","","","-23","","Snow,Blowing Snow"
"-111.96","60.02","FORT SMITH A","2202201","2020-11-28 11:00","2020","11","28","11:00","-14.5","","-17.2","","80","","","","26","","12","","9.7","","98.83","","","","-21","","Snow"
"-111.96","60.02","FORT SMITH A","2202201","2020-11-28 12:00","2020","11","28","12:00","-14.6","","-17.3","","81","","","","30","","12","","24.1","","98.91","","","","-21","","Snow"
"-111.96","60.02","FORT SMITH A","2202201","2020-11-28 13:00","2020","11","28","13:00","-14.2","","-17.1","","79","","","","23","","4","","24.1","","98.94","","","","-17","","NA"
"-111.96","60.02","FORT SMITH A","2202201","2020-11-28 14:00","2020","11","28","14:00","-14.0","","-17.2","","77","","","","20","","8","","24.1","","98.95","","","","-19","","Clear"
"-111.96","60.02","FORT SMITH A","2202201","2020-11-28 15:00","2020","11","28","15:00","-15.1","","-18.1","","78","","","","16","","7","","24.1","","98.97","","","","-20","","NA"
"-111.96","60.02","FORT SMITH A","2202201","2020-11-28 16:00","2020","11","28","16:00","-16.5","","-18.7","","83","","","","13","","8","","24.1","","98.96","","","","-22","","NA"
"-111.96","60.02","FORT SMITH A","2202201","2020-11-28 17:00","2020","11","28","17:00","-16.8","","-19.3","","82","","","","16","","11","","24.1","","98.95","","","","-24","","Clear"
"-111.96","60.02","FORT SMITH A","2202201","2020-11-28 18:00","2020","11","28","18:00","-16.2","","-18.6","","82","","","","16","","15","","24.1","","98.87","","","","-24","","NA"
"-111.96","60.02","FORT SMITH A","2202201","2020-11-28 19:00","2020","11","28","19:00","-15.8","","-18.3","","82","","","","15","","18","","24.1","","98.76","","","","-25","","NA"
"-111.96","60.02","FORT SMITH A","2202201","2020-11-28 20:00","2020","11","28","20:00","-16.3","","-18.6","","83","","","","15","","15","","24.1","","98.72","","","","-25","","Clear"
"-111.96","60.02","FORT SMITH A","2202201","2020-11-28 21:00","2020","11","28","21:00","-16.4","","-18.5","","84","","","","14","","11","","24.1","","98.63","","","","-23","","NA"
"-111.96","60.02","FORT SMITH A","2202201","2020-11-28 22:00","2020","11","28","22:00","-16.2","","-18.5","","83","","","","15","","14","","24.1","","98.57","","","","-24","","NA"
"-111.96","60.02","FORT SMITH A","2202201","2020-11-28 23:00","2020","11","28","23:00","-16.3","","-18.6","","83","","","","14","","9","","24.1","","98.54","","","","-22","","Clear"
"-111.96","60.02","FORT SMITH A","2202201","2020-11-29 00:00","2020","11","29","00:00","-16.6","","-18.9","","82","","","","14","","12","","24.1","","98.50","","","","-24","","NA"
"-111.96","60.02","FORT SMITH A","2202201","2020-11-29 01:00","2020","11","29","01:00","-15.4","","-17.6","","83","","","","14","","10","","24.1","","98.40","","","","-22","","NA"
"-111.96","60.02","FORT SMITH A","2202201","2020-11-29 02:00","2020","11","29","02:00","-15.0","","-17.2","","83","","","","14","","7","","24.1","","98.37","","","","-20","","Clear"
"-111.96","60.02","FORT SMITH A","2202201","2020-11-29 03:00","2020","11","29","03:00","-14.0","","-16.2","","84","","","","14","","13","","24.1","","98.29","","","","-21","","NA"
"-111.96","60.02","FORT SMITH A","2202201","2020-11-29 04:00","2020","11","29","04:00","-12.8","","-14.9","","84","","","","14","","10","","24.1","","98.23","","","","-19","","NA"
"-111.96","60.02","FORT SMITH A","2202201","2020-11-29 05:00","2020","11","29","05:00","-12.2","","-14.4","","84","","","","15","","17","","24.1","","98.13","","","","-20","","Cloudy"
"-111.96","60.02","FORT SMITH A","2202201","2020-11-29 06:00","2020","11","29","06:00","-11.2","","-13.4","","84","","","","14","","15","","24.1","","98.08","","","","-18","","NA"
"-111.96","60.02","FORT SMITH A","2202201","2020-11-29 07:00","2020","11","29","07:00","-11.1","","-13.2","","85","","","","14","","16","","24.1","","97.96","","","","-18","","NA"
"-111.96","60.02","FORT SMITH A","2202201","2020-11-29 08:00","2020","11","29","08:00","-9.7","","-11.8","","85","","","","16","","15","","24.1","","97.92","","","","-16","","Mostly Cloudy"
"-111.96","60.02","FORT SMITH A","2202201","2020-11-29 09:00","2020","11","29","09:00","-10.0","","-12.0","","86","","","","14","","14","","24.1","","97.81","","","","-16","","NA"
"-111.96","60.02","FORT SMITH A","2202201","2020-11-29 10:00","2020","11","29","10:00","-9.4","","-11.5","","85","","","","15","","15","","24.1","","97.81","","","","-16","","NA"
"-111.96","60.02","FORT SMITH A","2202201","2020-11-29 11:00","2020","11","29","11:00","-8.1","","-10.4","","83","","","","15","","12","","24.1","","97.75","","","","-14","","Mainly Clear"
"-111.96","60.02","FORT SMITH A","2202201","2020-11-29 12:00","2020","11","29","12:00","-5.8","","-8.7","","80","","","","16","","15","","24.1","","97.70","","","","-12","","NA"
"-111.96","60.02","FORT SMITH A","2202201","2020-11-29 13:00","2020","11","29","13:00","-4.7","","-7.7","","80","","","","17","","12","","24.1","","97.66","","","","-9","","NA"
"-111.96","60.02","FORT SMITH A","2202201","2020-11-29 14:00","2020","11","29","14:00","-4.9","","-7.7","","81","","","","16","","9","","24.1","","97.65","","","","-9","","Mostly Cloudy"
"-111.96","60.02","FORT SMITH A","2202201","2020-11-29 15:00","2020","11","29","15:00","-4.5","","-7.3","","81","","","","16","","10","","24.1","","97.64","","","","-9","","NA"
"-111.96","60.02","FORT SMITH A","2202201","2020-11-29 16:00","2020","11","29","16:00","-5.5","","-7.6","","85","","","","16","","8","","24.1","","97.63","","","","-9","","NA"
"-111.96","60.02","FORT SMITH A","2202201","2020-11-29 17:00","2020","11","29","17:00","-6.2","","-8.0","","87","","","","16","","11","","24.1","","97.62","","","","-11","","Mainly Clear"
"-111.96","60.02","FORT SMITH A","2202201","2020-11-29 18:00","2020","11","29","18:00","-6.5","","-8.1","","88","","","","16","","9","","24.1","","97.59","","","","-11","","NA"
"-111.96","60.02","FORT SMITH A","2202201","2020-11-29 19:00","2020","11","29","19:00","-7.1","","-8.5","","90","","","","18","","7","","24.1","","97.60","","","","-11","","NA"
"-111.96","60.02","FORT SMITH A","2202201","2020-11-29 20:00","2020","11","29","20:00","-9.0","","-10.0","","93","","","","17","","5","","24.1","","97.60","","","","-12","","Clear"
"-111.96","60.02","FORT SMITH A","2202201","2020-11-29 21:00","2020","11","29","21:00","-7.7","","-8.8","","92","","","","15","","9","","24.1","","97.54","","","","-12","","NA"
"-111.96","60.02","FORT SMITH A","2202201","2020-11-29 22:00","2020","11","29","22:00","-7.1","","-8.5","","90","","","","15","","5","","24.1","","97.58","","","","-10","","NA"
"-111.96","60.02","FORT SMITH A","2202201","2020-11-29 23:00","2020","11","29","23:00","-10.0","","-11.3","","90","","","","14","","4","","24.1","","97.57","","","","-12","","Clear"
"-111.96","60.02","FORT SMITH A","2202201","2020-11-30 00:00","2020","11","30","00:00","-8.4","","-9.6","","91","","","","14","","9","","24.1","","97.55","","","","-13","","NA"
"-111.96","60.02","FORT SMITH A","2202201","2020-11-30 01:00","2020","11","30","01:00","-8.4","","-9.7","","91","","","","16","","10","","24.1","","97.54","","","","-13","","NA"
"-111.96","60.02","FORT SMITH A","2202201","2020-11-30 02:00","2020","11","30","02:00","-8.4","","-9.8","","90","","","","15","","10","","24.1","","97.51","","","","-13","","Mainly Clear"
"-111.96","60.02","FORT SMITH A","2202201","2020-11-30 03:00","2020","11","30","03:00","-9.1","","-10.4","","90","","","","10","","5","","24.1","","97.49","","","","-12","","NA"
"-111.96","60.02","FORT SMITH A","2202201","2020-11-30 04:00","2020","11","30","04:00","-8.4","","-9.9","","89","","","","10","","4","","24.1","","97.44","","","","-11","","NA"
"-111.96","60.02","FORT SMITH A","2202201","2020-11-30 05:00","2020","11","30","05:00","-8.9","","-10.3","","90","","","","14","","9","","24.1","","97.36","","","","-14","","Mostly Cloudy"
"-111.96","60.02","FORT SMITH A","2202201","2020-11-30 06:00","2020","11","30","06:00","-9.1","","-10.6","","89","","","","14","","7","","24.1","","97.30","","","","-13","","NA"
"-111.96","60.02","FORT SMITH A","2202201","2020-11-30 07:00","2020","11","30","07:00","-9.1","","-10.7","","88","","","","13","","7","","24.1","","97.21","","","","-13","","NA"
"-111.96","60.02","FORT SMITH A","2202201","2020-11-30 08:00","2020","11","30","08:00","-8.8","","-10.5","","88","","","","14","","8","","24.1","","97.09","","","","-13","","Mostly Cloudy"
"-111.96","60.02","FORT SMITH A","2202201","2020-11-30 09:00","2020","11","30","09:00","-7.8","","-9.7","","87","","","","14","","13","","24.1","","97.05","","","","-14","","NA"
"-111.96","60.02","FORT SMITH A","2202201","2020-11-30 10:00","2020","11","30","10:00","-6.4","","-8.4","","86","","","","15","","15","","24.1","","96.96","","","","-12","","NA"
"-111.96","60.02","FORT SMITH A","2202201","2020-11-30 11:00","2020","11","30","11:00","-5.5","","-7.3","","87","","","","15","","12","","24.1","","96.92","","","","-10","","Mostly Cloudy"
"-111.96","60.02","FORT SMITH A","2202201","2020-11-30 12:00","2020","11","30","12:00","-4.4","","-6.7","","84","","","","14","","15","","24.1","","96.86","","","","-10","","NA"
"-111.96","60.02","FORT SMITH A","2202201","2020-11-30 13:00","2020","11","30","13:00","-4.6","","-7.1","","83","","","","14","","17","","24.1","","96.82","","","","-10","","NA"
"-111.96","60.02","FORT SMITH A","2202201","2020-11-30 14:00","2020","11","30","14:00","-4.5","","-6.9","","83","","","","13","","12","","24.1","","96.74","","","","-9","","Cloudy"
"-111.96","60.02","FORT SMITH A","2202201","2020-11-30 15:00","2020","11","30","15:00","-4.0","","-6.5","","83","","","","14","","13","","24.1","","96.69","","","","-9","","Freezing Rain"
"-111.96","60.02","FORT SMITH A","2202201","2020-11-30 16:00","2020","11","30","16:00","-3.7","","-6.4","","82","","","","14","","9","","24.1","","96.67","","","","-7","","NA"
"-111.96","60.02","FORT SMITH A","2202201","2020-11-30 17:00","2020","11","30","17:00","-3.3","","-6.2","","80","","","","14","","13","","24.1","","96.66","","","","-8","","Cloudy"
"-111.96","60.02","FORT SMITH A","2202201","2020-11-30 18:00","2020","11","30","18:00","-3.4","","-6.0","","82","","","","17","","15","","24.1","","96.74","","","","-9","","NA"
"-111.96","60.02","FORT SMITH A","2202201","2020-11-30 19:00","2020","11","30","19:00","-3.7","","-6.1","","84","","","","17","","7","","24.1","","96.80","","","","-7","","NA"
"-111.96","60.02","FORT SMITH A","2202201","2020-11-30 20:00","2020","11","30","20:00","-3.8","","-5.6","","87","","","","17","","9","","0.8","","96.87","","","","-8","","Moderate Snow"
"-111.96","60.02","FORT SMITH A","2202201","2020-11-30 21:00","2020","11","30","21:00","-3.5","","-4.7","","92","","","","24","","8","","2.4","","96.99","","","","-7","","Snow"
"-111.96","60.02","FORT SMITH A","2202201","2020-11-30 22:00","2020","11","30","22:00","-1.5","","-2.4","","94","","","","28","","19","","1.2","","97.15","","","","-7","","Snow"
"-111.96","60.02","FORT SMITH A","2202201","2020-11-30 23:00","2020","11","30","23:00","-2.1","","-4.1","","86","","","","29","","37","","16.1","","97.39","","","","-10","","Snow,Blowing Snow"
