"Longitude (x)","Latitude (y)","Station Name","Climate ID","Date/Time (LST)","Year","Month","Day","Time (LST)","Temp (°C)","Temp Flag","Dew Point Temp (°C)","Dew Point Temp Flag","Rel Hum (%)","Rel Hum Flag","Precip. Amount (mm)","Precip. Amount Flag","Wind Dir (10s deg)","Wind Dir Flag","Wind Spd (km/h)","Wind Spd Flag","Visibility (km)","Visibility Flag","Stn Press (kPa)","Stn Press Flag","Hmdx","Hmdx Flag","Wind Chill","Wind Chill Flag","Weather"
"-111.96","60.02","FORT SMITH A","2202201","2020-01-01 00:00","2020","01","01","00:00","-15.2","","-16.9","","87","","","","34","","7","","0.8","","96.67","","","","-20","","Snow,Freezing Fog"
"-111.96","60.02","FORT SMITH A","2202201","2020-01-01 01:00","2020","01","01","01:00","-15.1","","-16.8","","87","","","","32","","7","","0.8","","96.68","","","","-20","","Snow,Freezing Fog"
"-111.96","60.02","FORT SMITH A","2202201","2020-01-01 02:00","2020","01","01","02:00","-15.0","","-16.7","","87","","","","31","","6","","24.1","","96.73","","","","-19","","Snow"
"-111.96","60.02","FORT SMITH A","2202201","2020-01-01 03:00","2020","01","01","03:00","-14.9","","-16.6","","87","","","","30","","8","","19.3","","96.76","","","","-20","","Snow"
"-111.96","60.02","FORT SMITH A","2202201","2020-01-01 04:00","2020","01","01","04:00","-14.7","","-16.4","","87","","","","30","","7","","1.6","","96.80","","","","-19","","Snow,Fog"
"-111.96","60.02","FORT SMITH A","2202201","2020-01-01 05:00","2020","01","01","05:00","-14.7","","-16.3","","87","","","","30","","8","","24.1","","96.80","","","","-20","","Cloudy"
"-111.96","60.02","FORT SMITH A","2202201","2020-01-01 06:00","2020","01","01","06:00","-14.7","","-16.4","","87","","","","30","","11","","2.0","","96.82","","","","-21","","Snow,Fog"
"-111.96","60.02","FORT SMITH A","2202201","2020-01-01 07:00","2020","01","01","07:00","-14.6","","-16.2","","87","","","","29","","12","","4.0","","96.88","","","","-21","","Snow,Fog"
"-111.96","60.02","FORT SMITH A","2202201","2020-01-01 08:00","2020","01","01","08:00","-14.4","","-16.1","","88","","","","31","","7","","19.3","","96.91","","","","-19","","Snow"
"-111.96","60.02","FORT SMITH A","2202201","2020-01-01 09:00","2020","01","01","09:00","-14.4","","-16.1","","88","","","","30","","5","","24.1","","96.94","","","","-18","","Snow"
"-111.96","60.02","FORT SMITH A","2202201","2020-01-01 10:00","2020","01","01","10:00","-14.2","","-15.8","","88","","","","26","","5","","4.8","","96.97","","","","-18","","Snow"
"-111.96","60.02","FORT SMITH A","2202201","2020-01-01 11:00","2020","01","01","11:00","-13.8","","-15.4","","88","","","","27","","3","","3.2","","96.98","","","","-16","","Snow,Fog"
"-111.96","60.02","FORT SMITH A","2202201","2020-01-01 12:00","2020","01","01","12:00","-13.1","","-14.6","","89","","","","28","","5","","16.1","","97.02","","","","-16","","Snow"
"-111.96","60.02","FORT SMITH A","2202201","2020-01-01 13:00","2020","01","01","13:00","-12.6","","-14.1","","89","","","","28","","5","","19.3","","97.03","","","","-16","","Snow"
"-111.96","60.02","FORT SMITH A","2202201","2020-01-01 14:00","2020","01","01","14:00","-12.1","","-13.5","","89","","","","28","","5","","24.1","","97.07","","","","-15","","Snow"
"-111.96","60.02","FORT SMITH A","2202201","2020-01-01 15:00","2020","01","01","15:00","-11.7","","-13.0","","90","","","","29","","6","","24.1","","97.11","","","","-15","","Snow"
"-111.96","60.02","FORT SMITH A","2202201","2020-01-01 16:00","2020","01","01","16:00","-11.5","","-12.8","","90","","","","27","","4","","9.7","","97.16","","","","-14","","Snow"
"-111.96","60.02","FORT SMITH A","2202201","2020-01-01 17:00","2020","01","01","17:00","-11.4","","-12.7","","90","","","","28","","7","","24.1","","97.17","","","","-16","","Snow"
"-111.96","60.02","FORT SMITH A","2202201","2020-01-01 18:00","2020","01","01","18:00","-11.5","","-12.8","","90","","","","27","","8","","24.1","","97.19","","","","-16","","Snow"
"-111.96","60.02","FORT SMITH A","2202201","2020-01-01 19:00","2020","01","01","19:00","-11.6","","-12.9","","90","","","","28","","7","","19.3","","97.16","","","","-16","","Snow"
"-111.96","60.02","FORT SMITH A","2202201","2020-01-01 20:00","2020","01","01","20:00","-11.7","","-13.0","","90","","","","28","","9","","16.1","","97.15","","","","-17","","Snow"
"-111.96","60.02","FORT SMITH A","2202201","2020-01-01 21:00","2020","01","01","21:00","-11.8","","-13.1","","90","","","","28","","5","","4.8","","97.17","","","","-15","","Snow"
"-111.96","60.02","FORT SMITH A","2202201","2020-01-01 22:00","2020","01","01","22:00","-11.9","","-13.2","","90","","","","27","","6","","19.3","","97.19","","","","-16","","Snow"
"-111.96","60.02","FORT SMITH A","2202201","2020-01-01 23:00","2020","01","01","23:00","-11.9","","-13.3","","90","","","","27","","4","","19.3","","97.22","","","","-14","","Snow"
"-111.96","60.02","FORT SMITH A","2202201","2020-01-02 00:00","2020","01","02","00:00","-11.9","","-13.2","","90","","","","31","","8","","19.3","","97.25","","","","-17","","Snow"
"-111.96","60.02","FORT SMITH A","2202201","2020-01-02 01:00","2020","01","02","01:00","-11.8","","-13.1","","90","","","","30","","5","","19.3","","97.28","","","","-15","","Snow"
"-111.96","60.02","FORT SMITH A","2202201","2020-01-02 02:00","2020","01","02","02:00","-11.6","","-13.0","","90","","","","31","","4","","19.3","","97.31","","","","-14","","Snow"
"-111.96","60.02","FORT SMITH A","2202201","2020-01-02 03:00","2020","01","02","03:00","-11.3","","-12.6","","90","","","","34","","5","","19.3","","97.35","","","","-14","","Snow"
"-111.96","60.02","FORT SMITH A","2202201","2020-01-02 04:00","2020","01","02","04:00","-11.2","","-12.4","","90","","","","33","","4","","19.3","","97.35","","","","-14","","Snow"
"-111.96","60.02","FORT SMITH A","2202201","2020-01-02 05:00","2020","01","02","05:00","-11.5","","-12.8","","90","","","","34","","8","","19.3","","97.38","","","","-16","","Snow,Fog"
"-111.96","60.02","FORT SMITH A","2202201","2020-01-02 06:00","2020","01","02","06:00","-12.0","","-13.4","","90","","","","33","","9","","24.1","","97.42","","","","-17","","Snow"
"-111.96","60.02","FORT SMITH A","2202201","2020-01-02 07:00","2020","01","02","07:00","-12.3","","-13.7","","89","","","","34","","10","","19.3","","97.44","","","","-18","","Snow"
"-111.96","60.02","FORT SMITH A","2202201","2020-01-02 08:00","2020","01","02","08:00","-12.2","","-13.6","","89","","","","33","","13","","12.9","","97.50","","","","-19","","Freezing Drizzle,Snow"
"-111.96","60.02","FORT SMITH A","2202201","2020-01-02 09:00","2020","01","02","09:00","-12.2","","-13.6","","90","","","","32","","11","","4.8","","97.57","","","","-18","","Freezing Drizzle,Snow"
"-111.96","60.02","FORT SMITH A","2202201","2020-01-02 10:00","2020","01","02","10:00","-12.1","","-13.4","","90","","","","32","","12","","24.1","","97.66","","","","-18","","Snow"
"-111.96","60.02","FORT SMITH A","2202201","2020-01-02 11:00","2020","01","02","11:00","-12.1","","-13.5","","90","","","","32","","10","","19.3","","97.74","","","","-18","","Snow"
"-111.96","60.02","FORT SMITH A","2202201","2020-01-02 12:00","2020","01","02","12:00","-12.0","","-13.4","","90","","","","32","","9","","1.2","","97.80","","","","-17","","Snow"
"-111.96","60.02","FORT SMITH A","2202201","2020-01-02 13:00","2020","01","02","13:00","-12.1","","-13.5","","89","","","","32","","10","","24.1","","97.84","","","","-18","","Snow"
"-111.96","60.02","FORT SMITH A","2202201","2020-01-02 14:00","2020","01","02","14:00","-12.0","","-13.4","","90","","","","33","","12","","4.8","","97.95","","","","-18","","Snow"
"-111.96","60.02","FORT SMITH A","2202201","2020-01-02 15:00","2020","01","02","15:00","-12.0","","-13.3","","90","","","","31","","8","","19.3","","98.04","","","","-17","","Snow"
"-111.96","60.02","FORT SMITH A","2202201","2020-01-02 16:00","2020","01","02","16:00","-12.1","","-13.5","","90","","","","31","","12","","12.9","","98.13","","","","-18","","Snow"
"-111.96","60.02","FORT SMITH A","2202201","2020-01-02 17:00","2020","01","02","17:00","-12.2","","-13.6","","89","","","","31","","8","","16.1","","98.22","","","","-17","","Snow"
"-111.96","60.02","FORT SMITH A","2202201","2020-01-02 18:00","2020","01","02","18:00","-12.1","","-13.5","","90","","","","30","","12","","19.3","","98.31","","","","-18","","Snow"
"-111.96","60.02","FORT SMITH A","2202201","2020-01-02 19:00","2020","01","02","19:00","-12.2","","-13.7","","89","","","","31","","13","","19.3","","98.35","","","","-19","","Snow"
"-111.96","60.02","FORT SMITH A","2202201","2020-01-02 20:00","2020","01","02","20:00","-12.6","","-14.1","","89","","","","30","","18","","16.1","","98.39","","","","-21","","Snow"
"-111.96","60.02","FORT SMITH A","2202201","2020-01-02 21:00","2020","01","02","21:00","-13.0","","-14.5","","89","","","","30","","16","","16.1","","98.48","","","","-21","","Snow"
"-111.96","60.02","FORT SMITH A","2202201","2020-01-02 22:00","2020","01","02","22:00","-13.3","","-14.9","","88","","","","30","","13","","12.9","","98.55","","","","-20","","Snow"
"-111.96","60.02","FORT SMITH A","2202201","2020-01-02 23:00","2020","01","02","23:00","-13.4","","-14.9","","88","","","","30","","7","","6.4","","98.54","","","","-18","","Snow"
"-111.96","60.02","FORT SMITH A","2202201","2020-01-03 00:00","2020","01","03","00:00","-13.7","","-15.3","","88","","","","29","","12","","6.4","","98.57","","","","-20","","Snow"
"-111.96","60.02","FORT SMITH A","2202201","2020-01-03 01:00","2020","01","03","01:00","-13.9","","-15.5","","88","","","","29","","10","","16.1","","98.62","","","","-20","","Snow"
"-111.96","60.02","FORT SMITH A","2202201","2020-01-03 02:00","2020","01","03","02:00","-13.9","","-15.5","","88","","","","30","","7","","19.3","","98.65","","","","-19","","Snow"
"-111.96","60.02","FORT SMITH A","2202201","2020-01-03 03:00","2020","01","03","03:00","-14.0","","-15.6","","88","","","","29","","7","","6.4","","98.69","","","","-19","","Snow"
"-111.96","60.02","FORT SMITH A","2202201","2020-01-03 04:00","2020","01","03","04:00","-14.0","","-15.6","","88","","","","28","","7","","9.7","","98.72","","","","-19","","Snow"
"-111.96","60.02","FORT SMITH A","2202201","2020-01-03 05:00","2020","01","03","05:00","-14.1","","-15.7","","88","","","","35","","4","","6.4","","98.68","","","","-17","","Snow"
"-111.96","60.02","FORT SMITH A","2202201","2020-01-03 06:00","2020","01","03","06:00","-14.2","","-15.9","","88","","","","26","","4","","16.1","","98.71","","","","-17","","Snow"
"-111.96","60.02","FORT SMITH A","2202201","2020-01-03 07:00","2020","01","03","07:00","-14.3","","-16.0","","87","","","","25","","5","","24.1","","98.74","","","","-18","","Snow"
"-111.96","60.02","FORT SMITH A","2202201","2020-01-03 08:00","2020","01","03","08:00","-14.4","","-16.1","","87","","","","36","","2","","19.3","","98.75","","","","-16","","Snow"
"-111.96","60.02","FORT SMITH A","2202201","2020-01-03 09:00","2020","01","03","09:00","-14.4","","-16.1","","87","","","","32","","4","","19.3","","98.83","","","","-17","","Snow"
"-111.96","60.02","FORT SMITH A","2202201","2020-01-03 10:00","2020","01","03","10:00","-14.6","","-16.3","","87","","","","36","","2","","24.1","","98.87","","","","-16","","Snow"
"-111.96","60.02","FORT SMITH A","2202201","2020-01-03 11:00","2020","01","03","11:00","-16.9","","-18.8","","85","","","","23","","5","","24.1","","98.91","","","","-21","","Snow"
"-111.96","60.02","FORT SMITH A","2202201","2020-01-03 12:00","2020","01","03","12:00","-16.7","","-18.6","","86","","","","23","","4","","24.1","","98.86","","","","-20","","NA"
"-111.96","60.02","FORT SMITH A","2202201","2020-01-03 13:00","2020","01","03","13:00","-16.8","","-18.8","","85","","","","30","","4","","24.1","","98.83","","","","-20","","NA"
"-111.96","60.02","FORT SMITH A","2202201","2020-01-03 14:00","2020","01","03","14:00","-17.0","","-18.9","","85","","","","36","","3","","24.1","","98.90","","","","-19","","Clear"
"-111.96","60.02","FORT SMITH A","2202201","2020-01-03 15:00","2020","01","03","15:00","-18.9","","-21.1","","83","","","","36","","2","","24.1","","98.95","","","","-21","","NA"
"-111.96","60.02","FORT SMITH A","2202201","2020-01-03 16:00","2020","01","03","16:00","-21.7","","-24.1","","82","","","","0","","1","","24.1","","98.95","","","","-23","","NA"
"-111.96","60.02","FORT SMITH A","2202201","2020-01-03 17:00","2020","01","03","17:00","-21.7","","-24.0","","82","","","","36","","2","","24.1","","98.94","","","","-24","","Mainly Clear"
"-111.96","60.02","FORT SMITH A","2202201","2020-01-03 18:00","2020","01","03","18:00","-23.6","","-26.1","","80","","","","36","","1","","24.1","","98.92","","","","-25","","NA"
"-111.96","60.02","FORT SMITH A","2202201","2020-01-03 19:00","2020","01","03","19:00","-23.7","","-26.2","","80","","","","36","","1","","24.1","","98.84","","","","-25","","NA"
"-111.96","60.02","FORT SMITH A","2202201","2020-01-03 20:00","2020","01","03","20:00","-23.7","","-26.3","","80","","","","36","","2","","24.1","","98.82","","","","-26","","Mainly Clear"
"-111.96","60.02","FORT SMITH A","2202201","2020-01-03 21:00","2020","01","03","21:00","-22.7","","-25.1","","81","","","","36","","2","","24.1","","98.75","","","","-25","","Snow"
"-111.96","60.02","FORT SMITH A","2202201","2020-01-03 22:00","2020","01","03","22:00","-20.4","","-22.6","","82","","","","36","","3","","24.1","","98.69","","","","-23","","Snow"
"-111.96","60.02","FORT SMITH A","2202201","2020-01-03 23:00","2020","01","03","23:00","-18.6","","-20.7","","84","","","","8","","4","","19.3","","98.57","","","","-22","","Snow"
"-111.96","60.02","FORT SMITH A","2202201","2020-01-04 00:00","2020","01","04","00:00","-16.2","","-18.1","","86","","","","5","","8","","19.3","","98.47","","","","-22","","Snow"
"-111.96","60.02","FORT SMITH A","2202201","2020-01-04 01:00","2020","01","04","01:00","-15.7","","-17.4","","86","","","","9","","10","","24.1","","98.37","","","","-22","","Snow"
"-111.96","60.02","FORT SMITH A","2202201","2020-01-04 02:00","2020","01","04","02:00","-14.8","","-16.5","","87","","","","9","","7","","24.1","","98.22","","","","-20","","Snow"
"-111.96","60.02","FORT SMITH A","2202201","2020-01-04 03:00","2020","01","04","03:00","-14.5","","-16.1","","87","","","","9","","7","","24.1","","98.17","","","","-19","","Snow"
"-111.96","60.02","FORT SMITH A","2202201","2020-01-04 04:00","2020","01","04","04:00","-14.2","","-15.9","","88","","","","10","","10","","24.1","","97.98","","","","-20","","NA"
"-111.96","60.02","FORT SMITH A","2202201","2020-01-04 05:00","2020","01","04","05:00","-13.5","","-15.0","","88","","","","8","","10","","16.1","","97.82","","","","-19","","Snow"
"-111.96","60.02","FORT SMITH A","2202201","2020-01-04 06:00","2020","01","04","06:00","-12.6","","-14.1","","89","","","","8","","12","","1.2","","97.68","","","","-19","","Snow"
"-111.96","60.02","FORT SMITH A","2202201","2020-01-04 07:00","2020","01","04","07:00","-11.7","","-13.0","","90","","","","8","","11","","1.6","","97.55","","","","-18","","Snow,Blowing Snow"
"-111.96","60.02","FORT SMITH A","2202201","2020-01-04 08:00","2020","01","04","08:00","-11.4","","-12.7","","90","","","","9","","15","","1.0","","97.46","","","","-18","","Snow"
"-111.96","60.02","FORT SMITH A","2202201","2020-01-04 09:00","2020","01","04","09:00","-11.7","","-13.1","","90","","","","10","","11","","0.8","","97.42","","","","-18","","Moderate Snow"
"-111.96","60.02","FORT SMITH A","2202201","2020-01-04 10:00","2020","01","04","10:00","-12.0","","-13.4","","90","","","","11","","8","","1.0","","97.44","","","","-17","","Snow"
"-111.96","60.02","FORT SMITH A","2202201","2020-01-04 11:00","2020","01","04","11:00","-12.3","","-13.8","","89","","","","10","","8","","1.6","","97.39","","","","-17","","Snow"
"-111.96","60.02","FORT SMITH A","2202201","2020-01-04 12:00","2020","01","04","12:00","-12.8","","-14.3","","89","","","","11","","11","","1.0","","97.31","","","","-19","","Snow,Blowing Snow"
"-111.96","60.02","FORT SMITH A","2202201","2020-01-04 13:00","2020","01","04","13:00","-12.9","","-14.4","","89","","","","11","","6","","0.8","","97.29","","","","-17","","Moderate Snow"
"-111.96","60.02","FORT SMITH A","2202201","2020-01-04 14:00","2020","01","04","14:00","-13.2","","-14.7","","88","","","","13","","8","","2.4","","97.34","","","","-18","","Snow"
"-111.96","60.02","FORT SMITH A","2202201","2020-01-04 15:00","2020","01","04","15:00","-13.2","","-14.9","","88","","","","10","","3","","2.8","","97.37","","","","-15","","Snow"
"-111.96","60.02","FORT SMITH A","2202201","2020-01-04 16:00","2020","01","04","16:00","-13.3","","-15.0","","87","","","","36","","1","","6.4","","97.46","","","","-14","","Snow"
"-111.96","60.02","FORT SMITH A","2202201","2020-01-04 17:00","2020","01","04","17:00","-13.6","","-15.3","","87","","","","21","","7","","4.8","","97.58","","","","-18","","Snow"
"-111.96","60.02","FORT SMITH A","2202201","2020-01-04 18:00","2020","01","04","18:00","-13.7","","-15.5","","86","","","","25","","7","","8.1","","97.63","","","","-18","","Snow"
"-111.96","60.02","FORT SMITH A","2202201","2020-01-04 19:00","2020","01","04","19:00","-13.6","","-15.4","","86","","","","27","","12","","8.1","","97.71","","","","-20","","Snow"
"-111.96","60.02","FORT SMITH A","2202201","2020-01-04 20:00","2020","01","04","20:00","-13.3","","-15.1","","86","","","","26","","13","","9.7","","97.78","","","","-20","","Snow"
"-111.96","60.02","FORT SMITH A","2202201","2020-01-04 21:00","2020","01","04","21:00","-14.1","","-16.4","","83","","","","27","","27","","4.8","","97.87","","","","-24","","Snow,Blowing Snow"
"-111.96","60.02","FORT SMITH A","2202201","2020-01-04 22:00","2020","01","04","22:00","-14.4","","-16.5","","84","","","","26","","20","","8.1","","97.98","","","","-23","","Snow,Blowing Snow"
"-111.96","60.02","FORT SMITH A","2202201","2020-01-04 23:00","2020","01","04","23:00","-14.2","","-16.7","","82","","","","28","","31","","4.8","","98.14","","","","-25","","Snow,Blowing Snow"
"-111.96","60.02","FORT SMITH A","2202201","2020-01-05 00:00","2020","01","05","00:00","-15.1","","-17.9","","79","","","","29","","31","","3.2","","98.29","","","","-26","","Snow,Blowing Snow"
"-111.96","60.02","FORT SMITH A","2202201","2020-01-05 01:00","2020","01","05","01:00","-15.9","","-18.6","","80","","","","28","","24","","3.2","","98.39","","","","-26","","Snow,Blowing Snow"
"-111.96","60.02","FORT SMITH A","2202201","2020-01-05 02:00","2020","01","05","02:00","-17.0","","-19.8","","79","","","","28","","30","","4.0","","98.49","","","","-29","","Snow,Blowing Snow"
"-111.96","60.02","FORT SMITH A","2202201","2020-01-05 03:00","2020","01","05","03:00","-17.9","","-20.9","","78","","","","28","","30","","4.8","","98.58","","","","-30","","Snow,Blowing Snow"
"-111.96","60.02","FORT SMITH A","2202201","2020-01-05 04:00","2020","01","05","04:00","-18.8","","-21.4","","80","","","","27","","21","","9.7","","98.63","","","","-29","","Snow,Blowing Snow"
"-111.96","60.02","FORT SMITH A","2202201","2020-01-05 05:00","2020","01","05","05:00","-20.4","","-23.1","","79","","","","27","","23","","12.9","","98.69","","","","-32","","Snow,Blowing Snow"
"-111.96","60.02","FORT SMITH A","2202201","2020-01-05 06:00","2020","01","05","06:00","-21.4","","-24.1","","79","","","","27","","22","","12.9","","98.71","","","","-33","","Snow,Blowing Snow"
"-111.96","60.02","FORT SMITH A","2202201","2020-01-05 07:00","2020","01","05","07:00","-23.1","","-25.9","","78","","","","27","","14","","19.3","","98.71","","","","-33","","Snow"
"-111.96","60.02","FORT SMITH A","2202201","2020-01-05 08:00","2020","01","05","08:00","-23.8","","-26.6","","78","","","","28","","16","","24.1","","98.72","","","","-34","","Mainly Clear"
"-111.96","60.02","FORT SMITH A","2202201","2020-01-05 09:00","2020","01","05","09:00","-24.4","","-27.1","","79","","","","27","","14","","24.1","","98.74","","","","-34","","NA"
"-111.96","60.02","FORT SMITH A","2202201","2020-01-05 10:00","2020","01","05","10:00","-25.3","","-28.1","","78","","","","28","","9","","24.1","","98.73","","","","-33","","NA"
"-111.96","60.02","FORT SMITH A","2202201","2020-01-05 11:00","2020","01","05","11:00","-25.2","","-28.0","","77","","","","28","","9","","24.1","","98.72","","","","-33","","Mainly Clear"
"-111.96","60.02","FORT SMITH A","2202201","2020-01-05 12:00","2020","01","05","12:00","-25.4","","-28.2","","77","","","","29","","8","","24.1","","98.66","","","","-33","","NA"
"-111.96","60.02","FORT SMITH A","2202201","2020-01-05 13:00","2020","01","05","13:00","-25.8","","-28.4","","80","","","","24","","9","","24.1","","98.63","","","","-34","","NA"
"-111.96","60.02","FORT SMITH A","2202201","2020-01-05 14:00","2020","01","05","14:00","-25.8","","-28.4","","79","","","","25","","4","","24.1","","98.57","","","","-30","","Mostly Cloudy"
"-111.96","60.02","FORT SMITH A","2202201","2020-01-05 15:00","2020","01","05","15:00","-28.0","","-30.8","","77","","","","36","","2","","24.1","","98.52","","","","-30","","NA"
"-111.96","60.02","FORT SMITH A","2202201","2020-01-05 16:00","2020","01","05","16:00","-26.9","","-29.4","","80","","","","21","","3","","24.1","","98.46","","","","-30","","NA"
"-111.96","60.02","FORT SMITH A","2202201","2020-01-05 17:00","2020","01","05","17:00","-28.0","","-30.9","","77","","","","2","","4","","24.1","","98.40","","","","-32","","Mostly Cloudy"
"-111.96","60.02","FORT SMITH A","2202201","2020-01-05 18:00","2020","01","05","18:00","-26.8","","-29.6","","78","","","","2","","3","","24.1","","98.34","","","","-30","","NA"
"-111.96","60.02","FORT SMITH A","2202201","2020-01-05 19:00","2020","01","05","19:00","-26.8","","-29.6","","78","","","","36","","4","","24.1","","98.36","","","","-31","","NA"
"-111.96","60.02","FORT SMITH A","2202201","2020-01-05 20:00","2020","01","05","20:00","-25.9","","-28.6","","78","","","","2","","7","","24.1","","98.35","","","","-33","","Cloudy"
"-111.96","60.02","FORT SMITH A","2202201","2020-01-05 21:00","2020","01","05","21:00","-25.9","","-28.6","","78","","","","1","","11","","24.1","","98.39","","","","-35","","NA"
"-111.96","60.02","FORT SMITH A","2202201","2020-01-05 22:00","2020","01","05","22:00","-25.9","","-28.7","","78","","","","2","","18","","24.1","","98.40","","","","-37","","NA"
"-111.96","60.02","FORT SMITH A","2202201","2020-01-05 23:00","2020","01","05","23:00","-26.1","","-28.9","","78","","","","35","","8","","24.1","","98.46","","","","-33","","Cloudy"
"-111.96","60.02","FORT SMITH A","2202201","2020-01-06 00:00","2020","01","06","00:00","-26.5","","-29.4","","77","","","","34","","9","","19.3","","98.53","","","","-34","","Snow"
"-111.96","60.02","FORT SMITH A","2202201","2020-01-06 01:00","2020","01","06","01:00","-26.8","","-29.6","","77","","","","30","","11","","24.1","","98.61","","","","-36","","Snow"
"-111.96","60.02","FORT SMITH A","2202201","2020-01-06 02:00","2020","01","06","02:00","-26.4","","-29.2","","77","","","","30","","11","","24.1","","98.68","","","","-35","","Cloudy"
"-111.96","60.02","FORT SMITH A","2202201","2020-01-06 03:00","2020","01","06","03:00","-25.8","","-28.7","","77","","","","30","","14","","19.3","","98.75","","","","-36","","Snow"
"-111.96","60.02","FORT SMITH A","2202201","2020-01-06 04:00","2020","01","06","04:00","-24.9","","-27.8","","78","","","","29","","21","","19.3","","98.85","","","","-37","","Snow"
"-111.96","60.02","FORT SMITH A","2202201","2020-01-06 05:00","2020","01","06","05:00","-24.9","","-27.8","","77","","","","30","","20","","19.3","","98.96","","","","-37","","Snow"
"-111.96","60.02","FORT SMITH A","2202201","2020-01-06 06:00","2020","01","06","06:00","-25.3","","-28.4","","76","","","","30","","21","","19.3","","99.04","","","","-37","","Snow,Blowing Snow"
"-111.96","60.02","FORT SMITH A","2202201","2020-01-06 07:00","2020","01","06","07:00","-26.0","","-29.2","","75","","","","30","","22","","19.3","","99.13","","","","-39","","Snow,Blowing Snow"
"-111.96","60.02","FORT SMITH A","2202201","2020-01-06 08:00","2020","01","06","08:00","-26.6","","-29.9","","75","","","","30","","20","","24.1","","99.21","","","","-39","","Snow,Blowing Snow"
"-111.96","60.02","FORT SMITH A","2202201","2020-01-06 09:00","2020","01","06","09:00","-26.9","","-30.1","","75","","","","31","","17","","19.3","","99.28","","","","-38","","Snow,Blowing Snow"
"-111.96","60.02","FORT SMITH A","2202201","2020-01-06 10:00","2020","01","06","10:00","-26.9","","-30.1","","75","","","","30","","17","","19.3","","99.35","","","","-38","","Snow,Blowing Snow"
"-111.96","60.02","FORT SMITH A","2202201","2020-01-06 11:00","2020","01","06","11:00","-27.5","","-30.7","","75","","","","30","","14","","19.3","","99.40","","","","-38","","Snow,Blowing Snow"
"-111.96","60.02","FORT SMITH A","2202201","2020-01-06 12:00","2020","01","06","12:00","-27.2","","-30.6","","74","","","","30","","17","","24.1","","99.44","","","","-39","","Snow,Blowing Snow"
"-111.96","60.02","FORT SMITH A","2202201","2020-01-06 13:00","2020","01","06","13:00","-27.0","","-30.4","","74","","","","30","","17","","24.1","","99.49","","","","-38","","Snow"
"-111.96","60.02","FORT SMITH A","2202201","2020-01-06 14:00","2020","01","06","14:00","-27.0","","-30.2","","75","","","","30","","13","","24.1","","99.53","","","","-37","","Mostly Cloudy"
"-111.96","60.02","FORT SMITH A","2202201","2020-01-06 15:00","2020","01","06","15:00","-26.8","","-29.9","","76","","","","30","","8","","24.1","","99.62","","","","-34","","NA"
"-111.96","60.02","FORT SMITH A","2202201","2020-01-06 16:00","2020","01","06","16:00","-27.9","","-30.9","","76","","","","29","","11","","24.1","","99.68","","","","-37","","NA"
"-111.96","60.02","FORT SMITH A","2202201","2020-01-06 17:00","2020","01","06","17:00","-27.6","","-30.6","","77","","","","31","","5","","24.1","","99.73","","","","-33","","Mostly Cloudy"
"-111.96","60.02","FORT SMITH A","2202201","2020-01-06 18:00","2020","01","06","18:00","-28.8","","-31.7","","77","","","","36","","1","","24.1","","99.75","","","","-30","","Snow"
"-111.96","60.02","FORT SMITH A","2202201","2020-01-06 19:00","2020","01","06","19:00","-28.2","","-31.2","","76","","","","36","","1","","19.3","","99.78","","","","-29","","Snow"
"-111.96","60.02","FORT SMITH A","2202201","2020-01-06 20:00","2020","01","06","20:00","-26.8","","-29.8","","77","","","","29","","6","","19.3","","99.81","","","","-33","","Snow"
"-111.96","60.02","FORT SMITH A","2202201","2020-01-06 21:00","2020","01","06","21:00","-25.9","","-29.0","","76","","","","31","","7","","24.1","","99.82","","","","-33","","Snow"
"-111.96","60.02","FORT SMITH A","2202201","2020-01-06 22:00","2020","01","06","22:00","-25.9","","-28.9","","77","","","","31","","7","","19.3","","99.86","","","","-33","","Snow"
"-111.96","60.02","FORT SMITH A","2202201","2020-01-06 23:00","2020","01","06","23:00","-25.6","","-28.6","","77","","","","27","","10","","19.3","","99.92","","","","-34","","Snow"
"-111.96","60.02","FORT SMITH A","2202201","2020-01-07 00:00","2020","01","07","00:00","-25.6","","-28.6","","77","","","","28","","8","","19.3","","99.96","","","","-33","","Snow"
"-111.96","60.02","FORT SMITH A","2202201","2020-01-07 01:00","2020","01","07","01:00","-25.6","","-28.7","","76","","","","28","","9","","19.3","","99.99","","","","-33","","Snow"
"-111.96","60.02","FORT SMITH A","2202201","2020-01-07 02:00","2020","01","07","02:00","-26.0","","-29.1","","76","","","","30","","7","","19.3","","100.02","","","","-33","","Snow"
"-111.96","60.02","FORT SMITH A","2202201","2020-01-07 03:00","2020","01","07","03:00","-27.1","","-29.8","","78","","","","25","","5","","24.1","","100.06","","","","-32","","Snow"
"-111.96","60.02","FORT SMITH A","2202201","2020-01-07 04:00","2020","01","07","04:00","-27.6","","-30.5","","77","","","","27","","9","","24.1","","100.10","","","","-36","","NA"
"-111.96","60.02","FORT SMITH A","2202201","2020-01-07 05:00","2020","01","07","05:00","-28.4","","-31.3","","77","","","","27","","7","","24.1","","100.13","","","","-35","","Mainly Clear"
"-111.96","60.02","FORT SMITH A","2202201","2020-01-07 06:00","2020","01","07","06:00","-29.0","","-31.9","","77","","","","24","","3","","24.1","","100.14","","","","-32","","NA"
"-111.96","60.02","FORT SMITH A","2202201","2020-01-07 07:00","2020","01","07","07:00","-31.8","","-34.9","","75","","","","22","","3","","24.1","","100.14","","","","-35","","NA"
"-111.96","60.02","FORT SMITH A","2202201","2020-01-07 08:00","2020","01","07","08:00","-32.6","","-35.8","","74","","","","22","","10","","24.1","","100.12","","","","-42","","Clear"
"-111.96","60.02","FORT SMITH A","2202201","2020-01-07 09:00","2020","01","07","09:00","-32.4","","-35.7","","73","","","","22","","6","","24.1","","100.16","","","","-39","","NA"
"-111.96","60.02","FORT SMITH A","2202201","2020-01-07 10:00","2020","01","07","10:00","-33.4","","-36.7","","73","","","","18","","3","","24.1","","100.17","","","","-37","","NA"
"-111.96","60.02","FORT SMITH A","2202201","2020-01-07 11:00","2020","01","07","11:00","-32.3","","-35.7","","73","","","","15","","5","","24.1","","100.14","","","","-38","","Mainly Clear"
"-111.96","60.02","FORT SMITH A","2202201","2020-01-07 12:00","2020","01","07","12:00","-31.8","","-35.1","","74","","","","15","","4","","24.1","","100.10","","","","-36","","NA"
"-111.96","60.02","FORT SMITH A","2202201","2020-01-07 13:00","2020","01","07","13:00","-30.4","","-33.6","","74","","","","16","","7","","24.1","","100.04","","","","-38","","NA"
"-111.96","60.02","FORT SMITH A","2202201","2020-01-07 14:00","2020","01","07","14:00","-29.8","","-33.0","","74","","","","12","","4","","24.1","","100.03","","","","-34","","Cloudy"
"-111.96","60.02","FORT SMITH A","2202201","2020-01-07 15:00","2020","01","07","15:00","-28.9","","-32.0","","75","","","","4","","4","","19.3","","100.02","","","","-33","","Snow"
"-111.96","60.02","FORT SMITH A","2202201","2020-01-07 16:00","2020","01","07","16:00","-28.1","","-31.2","","76","","","","7","","4","","8.1","","99.98","","","","-32","","Snow"
"-111.96","60.02","FORT SMITH A","2202201","2020-01-07 17:00","2020","01","07","17:00","-27.4","","-30.4","","76","","","","13","","4","","16.1","","99.94","","","","-32","","Snow"
"-111.96","60.02","FORT SMITH A","2202201","2020-01-07 18:00","2020","01","07","18:00","-26.8","","-29.8","","76","","","","15","","6","","24.1","","99.86","","","","-33","","Snow"
"-111.96","60.02","FORT SMITH A","2202201","2020-01-07 19:00","2020","01","07","19:00","-26.5","","-29.5","","76","","","","15","","3","","19.3","","99.81","","","","-30","","Snow"
"-111.96","60.02","FORT SMITH A","2202201","2020-01-07 20:00","2020","01","07","20:00","-26.3","","-29.4","","76","","","","14","","7","","19.3","","99.79","","","","-33","","Snow"
"-111.96","60.02","FORT SMITH A","2202201","2020-01-07 21:00","2020","01","07","21:00","-26.1","","-29.2","","76","","","","15","","4","","24.1","","99.75","","","","-30","","Snow"
"-111.96","60.02","FORT SMITH A","2202201","2020-01-07 22:00","2020","01","07","22:00","-25.6","","-28.8","","76","","","","36","","2","","19.3","","99.72","","","","-28","","Snow"
"-111.96","60.02","FORT SMITH A","2202201","2020-01-07 23:00","2020","01","07","23:00","-25.5","","-28.5","","76","","","","9","","4","","19.3","","99.69","","","","-30","","Snow"
"-111.96","60.02","FORT SMITH A","2202201","2020-01-08 00:00","2020","01","08","00:00","-25.4","","-28.3","","77","","","","6","","7","","19.3","","99.62","","","","-32","","Snow"
"-111.96","60.02","FORT SMITH A","2202201","2020-01-08 01:00","2020","01","08","01:00","-25.2","","-28.2","","77","","","","9","","5","","19.3","","99.58","","","","-30","","Snow"
"-111.96","60.02","FORT SMITH A","2202201","2020-01-08 02:00","2020","01","08","02:00","-24.9","","-27.9","","76","","","","6","","5","","19.3","","99.55","","","","-30","","Snow"
"-111.96","60.02","FORT SMITH A","2202201","2020-01-08 03:00","2020","01","08","03:00","-24.7","","-27.7","","76","","","","9","","4","","19.3","","99.50","","","","-29","","Snow"
"-111.96","60.02","FORT SMITH A","2202201","2020-01-08 04:00","2020","01","08","04:00","-24.5","","-27.6","","76","","","","9","","4","","19.3","","99.52","","","","-28","","Snow"
"-111.96","60.02","FORT SMITH A","2202201","2020-01-08 05:00","2020","01","08","05:00","-24.4","","-27.4","","76","","","","1","","4","","19.3","","99.51","","","","-28","","Cloudy"
"-111.96","60.02","FORT SMITH A","2202201","2020-01-08 06:00","2020","01","08","06:00","-24.2","","-27.3","","76","","","","2","","8","","19.3","","99.49","","","","-31","","Snow"
"-111.96","60.02","FORT SMITH A","2202201","2020-01-08 07:00","2020","01","08","07:00","-24.2","","-27.2","","76","","","","5","","9","","19.3","","99.46","","","","-32","","Snow"
"-111.96","60.02","FORT SMITH A","2202201","2020-01-08 08:00","2020","01","08","08:00","-24.0","","-27.0","","77","","","","4","","7","","24.1","","99.47","","","","-30","","Snow"
"-111.96","60.02","FORT SMITH A","2202201","2020-01-08 09:00","2020","01","08","09:00","-23.8","","-26.8","","77","","","","6","","6","","24.1","","99.47","","","","-29","","Snow"
"-111.96","60.02","FORT SMITH A","2202201","2020-01-08 10:00","2020","01","08","10:00","-23.6","","-26.7","","76","","","","4","","6","","24.1","","99.52","","","","-29","","Snow"
"-111.96","60.02","FORT SMITH A","2202201","2020-01-08 11:00","2020","01","08","11:00","-23.4","","-26.5","","76","","","","1","","6","","24.1","","99.51","","","","-29","","Snow"
"-111.96","60.02","FORT SMITH A","2202201","2020-01-08 12:00","2020","01","08","12:00","-23.2","","-26.3","","76","","","","2","","9","","24.1","","99.50","","","","-31","","Snow"
"-111.96","60.02","FORT SMITH A","2202201","2020-01-08 13:00","2020","01","08","13:00","-22.8","","-26.0","","76","","","","3","","8","","16.1","","99.50","","","","-30","","Snow"
"-111.96","60.02","FORT SMITH A","2202201","2020-01-08 14:00","2020","01","08","14:00","-22.6","","-25.7","","76","","","","2","","8","","19.3","","99.52","","","","-29","","Snow"
"-111.96","60.02","FORT SMITH A","2202201","2020-01-08 15:00","2020","01","08","15:00","-22.4","","-25.6","","76","","","","1","","6","","24.1","","99.56","","","","-28","","Snow"
"-111.96","60.02","FORT SMITH A","2202201","2020-01-08 16:00","2020","01","08","16:00","-22.4","","-25.4","","77","","","","35","","5","","24.1","","99.63","","","","-27","","Snow"
"-111.96","60.02","FORT SMITH A","2202201","2020-01-08 17:00","2020","01","08","17:00","-22.3","","-25.2","","78","","","","2","","5","","24.1","","99.63","","","","-27","","Snow"
"-111.96","60.02","FORT SMITH A","2202201","2020-01-08 18:00","2020","01","08","18:00","-22.4","","-25.2","","78","","","","33","","8","","24.1","","99.69","","","","-29","","Snow"
"-111.96","60.02","FORT SMITH A","2202201","2020-01-08 19:00","2020","01","08","19:00","-22.6","","-25.4","","78","","","","33","","8","","19.3","","99.71","","","","-29","","Snow"
"-111.96","60.02","FORT SMITH A","2202201","2020-01-08 20:00","2020","01","08","20:00","-23.0","","-25.8","","78","","","","33","","6","","19.3","","99.77","","","","-28","","Snow"
"-111.96","60.02","FORT SMITH A","2202201","2020-01-08 21:00","2020","01","08","21:00","-23.7","","-26.7","","77","","","","34","","10","","19.3","","99.79","","","","-32","","Snow"
"-111.96","60.02","FORT SMITH A","2202201","2020-01-08 22:00","2020","01","08","22:00","-24.4","","-27.4","","77","","","","34","","8","","20.9","","99.83","","","","-31","","Snow"
"-111.96","60.02","FORT SMITH A","2202201","2020-01-08 23:00","2020","01","08","23:00","-25.1","","-28.1","","77","","","","33","","9","","20.9","","99.89","","","","-33","","Snow"
"-111.96","60.02","FORT SMITH A","2202201","2020-01-09 00:00","2020","01","09","00:00","-25.9","","-28.8","","77","","","","32","","7","","24.1","","99.96","","","","-33","","Snow"
"-111.96","60.02","FORT SMITH A","2202201","2020-01-09 01:00","2020","01","09","01:00","-27.3","","-30.3","","76","","","","34","","15","","24.1","","100.00","","","","-38","","Snow"
"-111.96","60.02","FORT SMITH A","2202201","2020-01-09 02:00","2020","01","09","02:00","-28.7","","-31.7","","76","","","","34","","10","","24.1","","100.05","","","","-38","","Clear"
"-111.96","60.02","FORT SMITH A","2202201","2020-01-09 03:00","2020","01","09","03:00","-29.9","","-32.9","","76","","","","35","","9","","24.1","","100.08","","","","-38","","NA"
"-111.96","60.02","FORT SMITH A","2202201","2020-01-09 04:00","2020","01","09","04:00","-31.1","","-34.1","","75","","","","31","","8","","24.1","","100.14","","","","-39","","NA"
"-111.96","60.02","FORT SMITH A","2202201","2020-01-09 05:00","2020","01","09","05:00","-31.5","","-34.5","","75","","","","34","","8","","24.1","","100.15","","","","-40","","Clear"
"-111.96","60.02","FORT SMITH A","2202201","2020-01-09 06:00","2020","01","09","06:00","-32.3","","-35.3","","75","","","","31","","7","","24.1","","100.18","","","","-40","","NA"
"-111.96","60.02","FORT SMITH A","2202201","2020-01-09 07:00","2020","01","09","07:00","-32.7","","-35.8","","74","","","","31","","9","","24.1","","100.23","","","","-42","","Snow Grains"
"-111.96","60.02","FORT SMITH A","2202201","2020-01-09 08:00","2020","01","09","08:00","-33.5","","-36.7","","74","","","","31","","8","","24.1","","100.29","","","","-42","","Snow Grains"
"-111.96","60.02","FORT SMITH A","2202201","2020-01-09 09:00","2020","01","09","09:00","-34.0","","-37.3","","73","","","","30","","9","","24.1","","100.33","","","","-43","","Snow Grains"
"-111.96","60.02","FORT SMITH A","2202201","2020-01-09 10:00","2020","01","09","10:00","-34.3","","-37.6","","73","","","","31","","10","","24.1","","100.36","","","","-44","","NA"
"-111.96","60.02","FORT SMITH A","2202201","2020-01-09 11:00","2020","01","09","11:00","-34.0","","-37.3","","73","","","","30","","11","","24.1","","100.35","","","","-44","","Mostly Cloudy"
"-111.96","60.02","FORT SMITH A","2202201","2020-01-09 12:00","2020","01","09","12:00","-33.5","","-36.7","","73","","","","29","","9","","24.1","","100.32","","","","-43","","NA"
"-111.96","60.02","FORT SMITH A","2202201","2020-01-09 13:00","2020","01","09","13:00","-32.6","","-35.9","","73","","","","28","","7","","24.1","","100.30","","","","-40","","NA"
"-111.96","60.02","FORT SMITH A","2202201","2020-01-09 14:00","2020","01","09","14:00","-31.6","","-34.9","","73","","","","27","","5","","24.1","","100.30","","","","-37","","Mostly Cloudy"
"-111.96","60.02","FORT SMITH A","2202201","2020-01-09 15:00","2020","01","09","15:00","-31.5","","-34.8","","74","","","","25","","4","","24.1","","100.34","","","","-36","","NA"
"-111.96","60.02","FORT SMITH A","2202201","2020-01-09 16:00","2020","01","09","16:00","-32.0","","-35.2","","74","","","","23","","7","","24.1","","100.37","","","","-40","","NA"
"-111.96","60.02","FORT SMITH A","2202201","2020-01-09 17:00","2020","01","09","17:00","-32.8","","-35.9","","74","","","","36","","2","","24.1","","100.38","","","","-35","","Snow"
"-111.96","60.02","FORT SMITH A","2202201","2020-01-09 18:00","2020","01","09","18:00","-33.1","","-36.4","","73","","","","36","","1","","19.3","","100.38","","","","-34","","Snow"
"-111.96","60.02","FORT SMITH A","2202201","2020-01-09 19:00","2020","01","09","19:00","-33.4","","-36.8","","72","","","","36","","2","","16.1","","100.33","","","","-36","","Snow"
"-111.96","60.02","FORT SMITH A","2202201","2020-01-09 20:00","2020","01","09","20:00","-33.8","","-37.2","","72","","","","36","","3","","19.3","","100.31","","","","-37","","Snow"
"-111.96","60.02","FORT SMITH A","2202201","2020-01-09 21:00","2020","01","09","21:00","-34.4","","-37.9","","72","","","","","","0","","19.3","","100.28","","","","","","Snow"
"-111.96","60.02","FORT SMITH A","2202201","2020-01-09 22:00","2020","01","09","22:00","-34.7","","-38.2","","72","","","","36","","2","","24.1","","100.26","","","","-37","","Snow"
"-111.96","60.02","FORT SMITH A","2202201","2020-01-09 23:00","2020","01","09","23:00","-34.2","","-37.7","","71","","","","36","","2","","19.3","","100.25","","","","-37","","Snow"
"-111.96","60.02","FORT SMITH A","2202201","2020-01-10 00:00","2020","01","10","00:00","-34.1","","-37.6","","72","","","","14","","3","","19.3","","100.24","","","","-38","","Snow"
"-111.96","60.02","FORT SMITH A","2202201","2020-01-10 01:00","2020","01","10","01:00","-33.8","","-37.3","","72","","","","36","","1","","19.3","","100.19","","","","-35","","Snow"
"-111.96","60.02","FORT SMITH A","2202201","2020-01-10 02:00","2020","01","10","02:00","-32.5","","-35.9","","72","","","","36","","1","","19.3","","100.20","","","","-34","","Snow"
"-111.96","60.02","FORT SMITH A","2202201","2020-01-10 03:00","2020","01","10","03:00","-32.1","","-35.5","","72","","","","36","","2","","19.3","","100.15","","","","-34","","Snow"
"-111.96","60.02","FORT SMITH A","2202201","2020-01-10 04:00","2020","01","10","04:00","-31.5","","-34.9","","73","","","","15","","3","","19.3","","100.12","","","","-35","","Snow"
"-111.96","60.02","FORT SMITH A","2202201","2020-01-10 05:00","2020","01","10","05:00","-31.3","","-34.7","","73","","","","15","","3","","16.1","","100.12","","","","-35","","Snow"
"-111.96","60.02","FORT SMITH A","2202201","2020-01-10 06:00","2020","01","10","06:00","-31.5","","-34.9","","73","","","","36","","3","","16.1","","100.07","","","","-35","","Snow"
"-111.96","60.02","FORT SMITH A","2202201","2020-01-10 07:00","2020","01","10","07:00","-31.4","","-34.7","","73","","","","36","","2","","16.1","","100.04","","","","-34","","Snow"
"-111.96","60.02","FORT SMITH A","2202201","2020-01-10 08:00","2020","01","10","08:00","-31.2","","-34.6","","73","","","","36","","1","","16.1","","100.02","","","","-32","","Snow"
"-111.96","60.02","FORT SMITH A","2202201","2020-01-10 09:00","2020","01","10","09:00","-31.8","","-35.1","","73","","","","36","","3","","6.4","","99.97","","","","-35","","Snow"
"-111.96","60.02","FORT SMITH A","2202201","2020-01-10 10:00","2020","01","10","10:00","-32.6","","-35.9","","73","","","","7","","3","","16.1","","99.96","","","","-36","","Snow"
"-111.96","60.02","FORT SMITH A","2202201","2020-01-10 11:00","2020","01","10","11:00","-32.9","","-36.3","","73","","","","0","","1","","6.4","","99.95","","","","-34","","Snow"
"-111.96","60.02","FORT SMITH A","2202201","2020-01-10 12:00","2020","01","10","12:00","-31.5","","-34.8","","73","","","","36","","1","","6.4","","99.95","","","","-33","","Snow"
"-111.96","60.02","FORT SMITH A","2202201","2020-01-10 13:00","2020","01","10","13:00","-30.8","","-34.1","","74","","","","4","","5","","19.3","","99.91","","","","-37","","Snow"
"-111.96","60.02","FORT SMITH A","2202201","2020-01-10 14:00","2020","01","10","14:00","-30.9","","-34.2","","73","","","","35","","4","","24.1","","99.88","","","","-35","","Mainly Clear"
"-111.96","60.02","FORT SMITH A","2202201","2020-01-10 15:00","2020","01","10","15:00","-31.4","","-34.6","","74","","","","35","","3","","24.1","","99.88","","","","-35","","NA"
"-111.96","60.02","FORT SMITH A","2202201","2020-01-10 16:00","2020","01","10","16:00","-32.8","","-35.9","","75","","","","34","","4","","24.1","","99.90","","","","-38","","NA"
"-111.96","60.02","FORT SMITH A","2202201","2020-01-10 17:00","2020","01","10","17:00","-33.7","","-36.9","","74","","","","35","","5","","24.1","","99.92","","","","-40","","Mainly Clear"
"-111.96","60.02","FORT SMITH A","2202201","2020-01-10 18:00","2020","01","10","18:00","-35.1","","-38.4","","73","","","","36","","1","","24.1","","99.90","","","","-36","","NA"
"-111.96","60.02","FORT SMITH A","2202201","2020-01-10 19:00","2020","01","10","19:00","-37.4","","-41.0","","71","","","","36","","1","","24.1","","99.89","","","","-39","","NA"
"-111.96","60.02","FORT SMITH A","2202201","2020-01-10 20:00","2020","01","10","20:00","-37.0","","-40.4","","71","","","","28","","3","","24.1","","99.90","","","","-41","","Clear"
"-111.96","60.02","FORT SMITH A","2202201","2020-01-10 21:00","2020","01","10","21:00","-38.1","","-41.6","","70","","","","30","","3","","24.1","","99.91","","","","-42","","NA"
"-111.96","60.02","FORT SMITH A","2202201","2020-01-10 22:00","2020","01","10","22:00","-37.4","","-40.9","","70","","","","36","","1","","24.1","","99.93","","","","-39","","NA"
"-111.96","60.02","FORT SMITH A","2202201","2020-01-10 23:00","2020","01","10","23:00","-37.0","","-40.5","","71","","","","36","","1","","24.1","","99.96","","","","-38","","Clear"
"-111.96","60.02","FORT SMITH A","2202201","2020-01-11 00:00","2020","01","11","00:00","-38.5","","-42.1","","70","","","","4","","3","","24.1","","99.97","","","","-43","","NA"
"-111.96","60.02","FORT SMITH A","2202201","2020-01-11 01:00","2020","01","11","01:00","-38.6","","-42.2","","69","","","","36","","3","","24.1","","99.97","","","","-43","","NA"
"-111.96","60.02","FORT SMITH A","2202201","2020-01-11 02:00","2020","01","11","02:00","-38.0","","-41.6","","70","","","","2","","6","","24.1","","99.97","","","","-46","","Clear"
"-111.96","60.02","FORT SMITH A","2202201","2020-01-11 03:00","2020","01","11","03:00","-38.6","","-42.2","","69","","","","30","","4","","24.1","","100.03","","","","-44","","NA"
"-111.96","60.02","FORT SMITH A","2202201","2020-01-11 04:00","2020","01","11","04:00","-38.4","","-42.1","","69","","","","36","","5","","24.1","","100.01","","","","-45","","NA"
"-111.96","60.02","FORT SMITH A","2202201","2020-01-11 05:00","2020","01","11","05:00","-39.0","","-42.8","","68","","","","35","","5","","24.1","","100.00","","","","-46","","Clear"
"-111.96","60.02","FORT SMITH A","2202201","2020-01-11 06:00","2020","01","11","06:00","-40.1","","-43.9","","68","","","","27","","4","","24.1","","100.03","","","","-46","","NA"
"-111.96","60.02","FORT SMITH A","2202201","2020-01-11 07:00","2020","01","11","07:00","-38.2","","-41.9","","69","","","","2","","6","","24.1","","100.03","","","","-46","","NA"
"-111.96","60.02","FORT SMITH A","2202201","2020-01-11 08:00","2020","01","11","08:00","-39.1","","-42.9","","68","","","","36","","3","","24.1","","100.05","","","","-43","","Mainly Clear"
"-111.96","60.02","FORT SMITH A","2202201","2020-01-11 09:00","2020","01","11","09:00","-38.4","","-42.1","","69","","","","35","","5","","24.1","","100.09","","","","-45","","NA"
"-111.96","60.02","FORT SMITH A","2202201","2020-01-11 10:00","2020","01","11","10:00","-38.7","","-42.4","","69","","","","29","","7","","24.1","","100.16","","","","-47","","NA"
"-111.96","60.02","FORT SMITH A","2202201","2020-01-11 11:00","2020","01","11","11:00","-37.9","","-41.6","","69","","","","36","","5","","24.1","","100.14","","","","-45","","Mostly Cloudy"
"-111.96","60.02","FORT SMITH A","2202201","2020-01-11 12:00","2020","01","11","12:00","-37.3","","-41.0","","69","","","","4","","3","","24.1","","100.11","","","","-41","","NA"
"-111.96","60.02","FORT SMITH A","2202201","2020-01-11 13:00","2020","01","11","13:00","-36.1","","-39.8","","70","","","","36","","2","","24.1","","100.11","","","","-39","","NA"
"-111.96","60.02","FORT SMITH A","2202201","2020-01-11 14:00","2020","01","11","14:00","-33.2","","-36.7","","72","","","","36","","4","","24.1","","100.12","","","","-38","","Cloudy"
"-111.96","60.02","FORT SMITH A","2202201","2020-01-11 15:00","2020","01","11","15:00","-32.9","","-36.3","","72","","","","30","","5","","24.1","","100.10","","","","-39","","NA"
"-111.96","60.02","FORT SMITH A","2202201","2020-01-11 16:00","2020","01","11","16:00","-32.1","","-35.5","","73","","","","33","","4","","24.1","","100.09","","","","-37","","NA"
"-111.96","60.02","FORT SMITH A","2202201","2020-01-11 17:00","2020","01","11","17:00","-32.1","","-35.5","","73","","","","33","","8","","16.1","","100.11","","","","-40","","Snow"
"-111.96","60.02","FORT SMITH A","2202201","2020-01-11 18:00","2020","01","11","18:00","-32.2","","-35.6","","72","","","","33","","7","","16.1","","100.12","","","","-40","","Snow"
"-111.96","60.02","FORT SMITH A","2202201","2020-01-11 19:00","2020","01","11","19:00","-32.0","","-35.4","","72","","","","33","","6","","19.3","","100.10","","","","-39","","Snow"
"-111.96","60.02","FORT SMITH A","2202201","2020-01-11 20:00","2020","01","11","20:00","-32.0","","-35.4","","72","","","","31","","7","","16.1","","100.14","","","","-40","","Snow"
"-111.96","60.02","FORT SMITH A","2202201","2020-01-11 21:00","2020","01","11","21:00","-32.0","","-35.4","","72","","","","32","","6","","16.1","","100.15","","","","-39","","Snow"
"-111.96","60.02","FORT SMITH A","2202201","2020-01-11 22:00","2020","01","11","22:00","-32.0","","-35.4","","72","","","","33","","7","","19.3","","100.14","","","","-40","","Snow"
"-111.96","60.02","FORT SMITH A","2202201","2020-01-11 23:00","2020","01","11","23:00","-31.9","","-35.4","","72","","","","33","","7","","19.3","","100.14","","","","-39","","Snow"
"-111.96","60.02","FORT SMITH A","2202201","2020-01-12 00:00","2020","01","12","00:00","-31.9","","-35.3","","72","","","","31","","7","","19.3","","100.16","","","","-39","","Snow"
"-111.96","60.02","FORT SMITH A","2202201","2020-01-12 01:00","2020","01","12","01:00","-32.1","","-35.5","","72","","","","32","","8","","19.3","","100.15","","","","-40","","Snow"
"-111.96","60.02","FORT SMITH A","2202201","2020-01-12 02:00","2020","01","12","02:00","-32.2","","-35.6","","72","","","","33","","8","","19.3","","100.13","","","","-41","","Snow"
"-111.96","60.02","FORT SMITH A","2202201","2020-01-12 03:00","2020","01","12","03:00","-32.1","","-35.5","","72","","","","32","","10","","19.3","","100.14","","","","-42","","Snow"
"-111.96","60.02","FORT SMITH A","2202201","2020-01-12 04:00","2020","01","12","04:00","-32.0","","-35.4","","72","","","","33","","9","","19.3","","100.15","","","","-41","","Snow"
"-111.96","60.02","FORT SMITH A","2202201","2020-01-12 05:00","2020","01","12","05:00","-31.8","","-35.2","","72","","","","31","","14","","16.1","","100.13","","","","-43","","Snow"
"-111.96","60.02","FORT SMITH A","2202201","2020-01-12 06:00","2020","01","12","06:00","-32.0","","-35.5","","72","","","","32","","10","","9.7","","100.11","","","","-42","","Snow"
"-111.96","60.02","FORT SMITH A","2202201","2020-01-12 07:00","2020","01","12","07:00","-32.1","","-35.5","","72","","","","33","","10","","9.7","","100.13","","","","-42","","Snow"
"-111.96","60.02","FORT SMITH A","2202201","2020-01-12 08:00","2020","01","12","08:00","-32.3","","-35.8","","72","","","","34","","12","","9.7","","100.11","","","","-43","","Snow"
"-111.96","60.02","FORT SMITH A","2202201","2020-01-12 09:00","2020","01","12","09:00","-32.5","","-36.0","","72","","","","34","","13","","9.7","","100.15","","","","-44","","Snow"
"-111.96","60.02","FORT SMITH A","2202201","2020-01-12 10:00","2020","01","12","10:00","-32.9","","-36.4","","72","","","","34","","11","","6.4","","100.19","","","","-43","","Snow,Blowing Snow"
"-111.96","60.02","FORT SMITH A","2202201","2020-01-12 11:00","2020","01","12","11:00","-33.0","","-36.5","","71","","","","31","","11","","4.8","","100.17","","","","-43","","Snow,Blowing Snow"
"-111.96","60.02","FORT SMITH A","2202201","2020-01-12 12:00","2020","01","12","12:00","-33.6","","-37.2","","71","","","","33","","16","","3.2","","100.14","","","","-46","","Snow,Blowing Snow"
"-111.96","60.02","FORT SMITH A","2202201","2020-01-12 13:00","2020","01","12","13:00","-33.7","","-37.3","","71","","","","33","","16","","4.8","","100.10","","","","-46","","Snow,Blowing Snow"
"-111.96","60.02","FORT SMITH A","2202201","2020-01-12 14:00","2020","01","12","14:00","-33.5","","-37.1","","71","","","","33","","12","","4.8","","100.08","","","","-44","","Snow,Blowing Snow"
"-111.96","60.02","FORT SMITH A","2202201","2020-01-12 15:00","2020","01","12","15:00","-33.4","","-37.0","","71","","","","33","","12","","4.8","","100.09","","","","-44","","Snow,Blowing Snow"
"-111.96","60.02","FORT SMITH A","2202201","2020-01-12 16:00","2020","01","12","16:00","-33.4","","-36.9","","71","","","","34","","12","","4.8","","100.13","","","","-44","","Snow,Blowing Snow"
"-111.96","60.02","FORT SMITH A","2202201","2020-01-12 17:00","2020","01","12","17:00","-33.2","","-36.7","","71","","","","33","","13","","9.7","","100.13","","","","-44","","Snow,Blowing Snow"
"-111.96","60.02","FORT SMITH A","2202201","2020-01-12 18:00","2020","01","12","18:00","-32.6","","-36.1","","72","","","","33","","14","","9.7","","100.12","","","","-44","","Snow,Blowing Snow"
"-111.96","60.02","FORT SMITH A","2202201","2020-01-12 19:00","2020","01","12","19:00","-32.2","","-35.7","","72","","","","34","","19","","9.7","","100.11","","","","-46","","Snow,Blowing Snow"
"-111.96","60.02","FORT SMITH A","2202201","2020-01-12 20:00","2020","01","12","20:00","-31.8","","-35.3","","72","","","","34","","18","","8.1","","100.11","","","","-45","","Snow,Blowing Snow"
"-111.96","60.02","FORT SMITH A","2202201","2020-01-12 21:00","2020","01","12","21:00","-31.4","","-34.9","","72","","","","34","","18","","12.9","","100.12","","","","-44","","Snow,Blowing Snow"
"-111.96","60.02","FORT SMITH A","2202201","2020-01-12 22:00","2020","01","12","22:00","-31.0","","-34.5","","72","","","","34","","17","","12.9","","100.12","","","","-43","","Snow,Blowing Snow"
"-111.96","60.02","FORT SMITH A","2202201","2020-01-12 23:00","2020","01","12","23:00","-31.3","","-34.7","","72","","","","34","","18","","12.9","","100.14","","","","-44","","Snow,Blowing Snow"
"-111.96","60.02","FORT SMITH A","2202201","2020-01-13 00:00","2020","01","13","00:00","-31.6","","-35.1","","72","","","","34","","19","","12.9","","100.17","","","","-45","","Snow,Blowing Snow"
"-111.96","60.02","FORT SMITH A","2202201","2020-01-13 01:00","2020","01","13","01:00","-31.9","","-35.4","","72","","","","34","","16","","19.3","","100.18","","","","-44","","Snow,Blowing Snow"
"-111.96","60.02","FORT SMITH A","2202201","2020-01-13 02:00","2020","01","13","02:00","-32.0","","-35.6","","71","","","","33","","17","","24.1","","100.22","","","","-45","","Snow,Blowing Snow"
"-111.96","60.02","FORT SMITH A","2202201","2020-01-13 03:00","2020","01","13","03:00","-32.1","","-35.8","","71","","","","34","","19","","19.3","","100.27","","","","-45","","Snow,Blowing Snow"
"-111.96","60.02","FORT SMITH A","2202201","2020-01-13 04:00","2020","01","13","04:00","-31.9","","-35.6","","71","","","","33","","16","","24.1","","100.31","","","","-44","","Snow,Blowing Snow"
"-111.96","60.02","FORT SMITH A","2202201","2020-01-13 05:00","2020","01","13","05:00","-32.3","","-35.9","","71","","","","33","","14","","24.1","","100.33","","","","-44","","Snow,Blowing Snow"
"-111.96","60.02","FORT SMITH A","2202201","2020-01-13 06:00","2020","01","13","06:00","-32.8","","-36.4","","71","","","","34","","13","","24.1","","100.38","","","","-44","","Ice Crystals,Blowing Snow"
"-111.96","60.02","FORT SMITH A","2202201","2020-01-13 07:00","2020","01","13","07:00","-32.9","","-36.4","","72","","","","33","","14","","24.1","","100.41","","","","-45","","Ice Crystals"
"-111.96","60.02","FORT SMITH A","2202201","2020-01-13 08:00","2020","01","13","08:00","-33.3","","-36.8","","72","","","","33","","12","","24.1","","100.42","","","","-44","","Mostly Cloudy"
"-111.96","60.02","FORT SMITH A","2202201","2020-01-13 09:00","2020","01","13","09:00","-33.6","","-37.1","","72","","","","32","","12","","24.1","","100.47","","","","-45","","Blowing Snow"
"-111.96","60.02","FORT SMITH A","2202201","2020-01-13 10:00","2020","01","13","10:00","-34.0","","-37.5","","71","","","","31","","11","","24.1","","100.51","","","","-44","","NA"
"-111.96","60.02","FORT SMITH A","2202201","2020-01-13 11:00","2020","01","13","11:00","-33.6","","-37.2","","71","","","","33","","8","","24.1","","100.56","","","","-42","","Cloudy"
"-111.96","60.02","FORT SMITH A","2202201","2020-01-13 12:00","2020","01","13","12:00","-32.9","","-36.4","","72","","","","34","","14","","24.1","","100.56","","","","-45","","Blowing Snow"
"-111.96","60.02","FORT SMITH A","2202201","2020-01-13 13:00","2020","01","13","13:00","-32.7","","-36.2","","72","","","","34","","8","","24.1","","100.56","","","","-41","","NA"
"-111.96","60.02","FORT SMITH A","2202201","2020-01-13 14:00","2020","01","13","14:00","-32.3","","-35.9","","71","","","","33","","9","","24.1","","100.54","","","","-41","","Mostly Cloudy"
"-111.96","60.02","FORT SMITH A","2202201","2020-01-13 15:00","2020","01","13","15:00","-32.4","","-36.0","","71","","","","33","","12","","24.1","","100.54","","","","-43","","NA"
"-111.96","60.02","FORT SMITH A","2202201","2020-01-13 16:00","2020","01","13","16:00","-33.4","","-36.8","","72","","","","34","","10","","24.1","","100.58","","","","-43","","NA"
"-111.96","60.02","FORT SMITH A","2202201","2020-01-13 17:00","2020","01","13","17:00","-34.0","","-37.4","","72","","","","33","","8","","24.1","","100.63","","","","-43","","Mainly Clear"
"-111.96","60.02","FORT SMITH A","2202201","2020-01-13 18:00","2020","01","13","18:00","-34.7","","-38.1","","72","","","","34","","7","","24.1","","100.66","","","","-43","","NA"
"-111.96","60.02","FORT SMITH A","2202201","2020-01-13 19:00","2020","01","13","19:00","-34.9","","-38.4","","72","","","","32","","8","","24.1","","100.67","","","","-44","","NA"
"-111.96","60.02","FORT SMITH A","2202201","2020-01-13 20:00","2020","01","13","20:00","-35.4","","-38.8","","71","","","","31","","7","","24.1","","100.65","","","","-44","","Clear"
"-111.96","60.02","FORT SMITH A","2202201","2020-01-13 21:00","2020","01","13","21:00","-35.5","","-39.0","","71","","","","32","","8","","24.1","","100.67","","","","-44","","NA"
"-111.96","60.02","FORT SMITH A","2202201","2020-01-13 22:00","2020","01","13","22:00","-36.1","","-39.7","","71","","","","33","","8","","24.1","","100.64","","","","-45","","NA"
"-111.96","60.02","FORT SMITH A","2202201","2020-01-13 23:00","2020","01","13","23:00","-36.8","","-40.4","","70","","","","32","","7","","24.1","","100.63","","","","-45","","Snow"
"-111.96","60.02","FORT SMITH A","2202201","2020-01-14 00:00","2020","01","14","00:00","-37.1","","-40.8","","69","","","","31","","7","","24.1","","100.64","","","","-46","","Snow"
"-111.96","60.02","FORT SMITH A","2202201","2020-01-14 01:00","2020","01","14","01:00","-37.2","","-41.0","","69","","","","31","","7","","24.1","","100.65","","","","-46","","Snow"
"-111.96","60.02","FORT SMITH A","2202201","2020-01-14 02:00","2020","01","14","02:00","-37.4","","-41.1","","69","","","","32","","6","","24.1","","100.64","","","","-45","","Snow"
"-111.96","60.02","FORT SMITH A","2202201","2020-01-14 03:00","2020","01","14","03:00","-37.5","","-41.3","","69","","","","31","","7","","24.1","","100.64","","","","-46","","Snow"
"-111.96","60.02","FORT SMITH A","2202201","2020-01-14 04:00","2020","01","14","04:00","-37.5","","-41.2","","69","","","","31","","8","","19.3","","100.66","","","","-47","","Snow"
"-111.96","60.02","FORT SMITH A","2202201","2020-01-14 05:00","2020","01","14","05:00","-37.0","","-40.8","","69","","","","32","","5","","19.3","","100.65","","","","-44","","Snow Grains"
"-111.96","60.02","FORT SMITH A","2202201","2020-01-14 06:00","2020","01","14","06:00","-36.2","","-40.0","","69","","","","30","","7","","16.1","","100.64","","","","-44","","Snow"
"-111.96","60.02","FORT SMITH A","2202201","2020-01-14 07:00","2020","01","14","07:00","-35.6","","-39.4","","69","","","","33","","7","","16.1","","100.62","","","","-44","","Snow"
"-111.96","60.02","FORT SMITH A","2202201","2020-01-14 08:00","2020","01","14","08:00","-35.4","","-39.2","","69","","","","32","","8","","16.1","","100.64","","","","-44","","Snow"
"-111.96","60.02","FORT SMITH A","2202201","2020-01-14 09:00","2020","01","14","09:00","-35.3","","-39.1","","69","","","","30","","5","","8.1","","100.68","","","","-42","","Snow"
"-111.96","60.02","FORT SMITH A","2202201","2020-01-14 10:00","2020","01","14","10:00","-35.1","","-38.8","","70","","","","31","","4","","9.7","","100.69","","","","-40","","Snow"
"-111.96","60.02","FORT SMITH A","2202201","2020-01-14 11:00","2020","01","14","11:00","-34.8","","-38.6","","70","","","","33","","5","","24.1","","100.71","","","","-41","","Mainly Clear"
"-111.96","60.02","FORT SMITH A","2202201","2020-01-14 12:00","2020","01","14","12:00","-34.4","","-38.1","","69","","","","32","","6","","6.4","","100.71","","","","-42","","Snow Grains"
"-111.96","60.02","FORT SMITH A","2202201","2020-01-14 13:00","2020","01","14","13:00","-33.7","","-37.5","","69","","","","33","","7","","24.1","","100.72","","","","-42","","NA"
"-111.96","60.02","FORT SMITH A","2202201","2020-01-14 14:00","2020","01","14","14:00","-33.6","","-37.4","","70","","","","31","","8","","24.1","","100.74","","","","-42","","Mainly Clear"
"-111.96","60.02","FORT SMITH A","2202201","2020-01-14 15:00","2020","01","14","15:00","-34.4","","-38.1","","70","","","","30","","8","","24.1","","100.74","","","","-43","","NA"
"-111.96","60.02","FORT SMITH A","2202201","2020-01-14 16:00","2020","01","14","16:00","-34.4","","-38.0","","70","","","","31","","6","","19.3","","100.78","","","","-42","","Snow Grains"
"-111.96","60.02","FORT SMITH A","2202201","2020-01-14 17:00","2020","01","14","17:00","-35.6","","-39.2","","70","","","","30","","8","","24.1","","100.81","","","","-45","","Snow"
"-111.96","60.02","FORT SMITH A","2202201","2020-01-14 18:00","2020","01","14","18:00","-35.3","","-38.9","","70","","","","31","","8","","24.1","","100.82","","","","-44","","Snow"
"-111.96","60.02","FORT SMITH A","2202201","2020-01-14 19:00","2020","01","14","19:00","-35.8","","-39.5","","70","","","","33","","10","","24.1","","100.85","","","","-46","","Ice Crystals"
"-111.96","60.02","FORT SMITH A","2202201","2020-01-14 20:00","2020","01","14","20:00","-35.9","","-39.6","","70","","","","32","","8","","24.1","","100.86","","","","-45","","Snow Grains"
"-111.96","60.02","FORT SMITH A","2202201","2020-01-14 21:00","2020","01","14","21:00","-36.1","","-39.8","","70","","","","32","","9","","24.1","","100.88","","","","-46","","NA"
"-111.96","60.02","FORT SMITH A","2202201","2020-01-14 22:00","2020","01","14","22:00","-36.6","","-40.3","","70","","","","29","","9","","24.1","","100.91","","","","-46","","Snow"
"-111.96","60.02","FORT SMITH A","2202201","2020-01-14 23:00","2020","01","14","23:00","-36.8","","-40.4","","70","","","","30","","9","","24.1","","100.92","","","","-47","","Snow"
"-111.96","60.02","FORT SMITH A","2202201","2020-01-15 00:00","2020","01","15","00:00","-35.9","","-39.6","","70","","","","31","","5","","24.1","","100.96","","","","-42","","Snow"
"-111.96","60.02","FORT SMITH A","2202201","2020-01-15 01:00","2020","01","15","01:00","-36.1","","-39.8","","70","","","","30","","10","","24.1","","100.97","","","","-46","","Snow"
"-111.96","60.02","FORT SMITH A","2202201","2020-01-15 02:00","2020","01","15","02:00","-35.3","","-39.0","","70","","","","34","","10","","19.3","","100.98","","","","-45","","Snow"
"-111.96","60.02","FORT SMITH A","2202201","2020-01-15 03:00","2020","01","15","03:00","-35.4","","-39.0","","70","","","","30","","5","","19.3","","101.01","","","","-42","","Snow"
"-111.96","60.02","FORT SMITH A","2202201","2020-01-15 04:00","2020","01","15","04:00","-35.2","","-39.0","","70","","","","31","","5","","19.3","","101.03","","","","-42","","Snow"
"-111.96","60.02","FORT SMITH A","2202201","2020-01-15 05:00","2020","01","15","05:00","-35.2","","-38.9","","70","","","","33","","7","","19.3","","101.07","","","","-43","","Snow"
"-111.96","60.02","FORT SMITH A","2202201","2020-01-15 06:00","2020","01","15","06:00","-34.8","","-38.5","","70","","","","32","","4","","19.3","","101.06","","","","-40","","Snow Grains"
"-111.96","60.02","FORT SMITH A","2202201","2020-01-15 07:00","2020","01","15","07:00","-35.7","","-39.4","","70","","","","30","","5","","24.1","","101.07","","","","-42","","Snow Grains"
"-111.96","60.02","FORT SMITH A","2202201","2020-01-15 08:00","2020","01","15","08:00","-35.6","","-39.2","","70","","","","29","","5","","24.1","","101.09","","","","-42","","Snow Grains"
"-111.96","60.02","FORT SMITH A","2202201","2020-01-15 09:00","2020","01","15","09:00","-35.4","","-39.1","","70","","","","28","","5","","24.1","","101.13","","","","-42","","Snow Grains"
"-111.96","60.02","FORT SMITH A","2202201","2020-01-15 10:00","2020","01","15","10:00","-35.2","","-38.9","","70","","","","30","","5","","12.9","","101.19","","","","-42","","Snow Grains"
"-111.96","60.02","FORT SMITH A","2202201","2020-01-15 11:00","2020","01","15","11:00","-34.8","","-38.4","","70","","","","29","","4","","16.1","","101.24","","","","-40","","Snow Grains"
"-111.96","60.02","FORT SMITH A","2202201","2020-01-15 12:00","2020","01","15","12:00","-33.8","","-37.5","","70","","","","28","","6","","19.3","","101.22","","","","-41","","Snow Grains"
"-111.96","60.02","FORT SMITH A","2202201","2020-01-15 13:00","2020","01","15","13:00","-33.0","","-36.8","","70","","","","29","","5","","19.3","","101.23","","","","-39","","Snow Grains"
"-111.96","60.02","FORT SMITH A","2202201","2020-01-15 14:00","2020","01","15","14:00","-32.5","","-36.2","","71","","","","27","","4","","12.9","","101.26","","","","-37","","Snow Grains"
"-111.96","60.02","FORT SMITH A","2202201","2020-01-15 15:00","2020","01","15","15:00","-32.7","","-36.3","","71","","","","27","","5","","19.3","","101.27","","","","-39","","Snow Grains"
"-111.96","60.02","FORT SMITH A","2202201","2020-01-15 16:00","2020","01","15","16:00","-32.6","","-36.1","","71","","","","25","","5","","19.3","","101.31","","","","-39","","Snow Grains"
"-111.96","60.02","FORT SMITH A","2202201","2020-01-15 17:00","2020","01","15","17:00","-32.5","","-36.0","","72","","","","36","","2","","19.3","","101.35","","","","-35","","Snow Grains"
"-111.96","60.02","FORT SMITH A","2202201","2020-01-15 18:00","2020","01","15","18:00","-33.3","","-36.8","","72","","","","36","","2","","24.1","","101.36","","","","-36","","Snow Grains"
"-111.96","60.02","FORT SMITH A","2202201","2020-01-15 19:00","2020","01","15","19:00","-33.7","","-37.1","","72","","","","36","","2","","24.1","","101.35","","","","-36","","Snow Grains"
"-111.96","60.02","FORT SMITH A","2202201","2020-01-15 20:00","2020","01","15","20:00","-33.7","","-37.2","","72","","","","21","","3","","24.1","","101.36","","","","-37","","Snow Grains"
"-111.96","60.02","FORT SMITH A","2202201","2020-01-15 21:00","2020","01","15","21:00","-34.0","","-37.5","","72","","","","20","","3","","24.1","","101.37","","","","-38","","Snow Grains"
"-111.96","60.02","FORT SMITH A","2202201","2020-01-15 22:00","2020","01","15","22:00","-34.7","","-38.2","","71","","","","17","","4","","24.1","","101.38","","","","-40","","Snow Grains"
"-111.96","60.02","FORT SMITH A","2202201","2020-01-15 23:00","2020","01","15","23:00","-35.0","","-38.6","","71","","","","36","","1","","24.1","","101.35","","","","-36","","Snow Grains"
"-111.96","60.02","FORT SMITH A","2202201","2020-01-16 00:00","2020","01","16","00:00","-35.1","","-38.7","","71","","","","16","","4","","24.1","","101.37","","","","-40","","Snow Grains"
"-111.96","60.02","FORT SMITH A","2202201","2020-01-16 01:00","2020","01","16","01:00","-35.0","","-38.6","","71","","","","36","","2","","24.1","","101.35","","","","-38","","Snow Grains"
"-111.96","60.02","FORT SMITH A","2202201","2020-01-16 02:00","2020","01","16","02:00","-35.3","","-38.9","","71","","","","20","","5","","24.1","","101.36","","","","-42","","Snow Grains"
"-111.96","60.02","FORT SMITH A","2202201","2020-01-16 03:00","2020","01","16","03:00","-34.5","","-38.1","","71","","","","17","","4","","24.1","","101.38","","","","-39","","Snow Grains"
"-111.96","60.02","FORT SMITH A","2202201","2020-01-16 04:00","2020","01","16","04:00","-34.8","","-38.4","","70","","","","18","","5","","24.1","","101.37","","","","-41","","Snow Grains"
"-111.96","60.02","FORT SMITH A","2202201","2020-01-16 05:00","2020","01","16","05:00","-35.2","","-39.0","","70","","","","36","","2","","24.1","","101.33","","","","-38","","Snow Grains"
"-111.96","60.02","FORT SMITH A","2202201","2020-01-16 06:00","2020","01","16","06:00","-34.8","","-38.4","","71","","","","7","","3","","24.1","","101.27","","","","-39","","Snow Grains"
"-111.96","60.02","FORT SMITH A","2202201","2020-01-16 07:00","2020","01","16","07:00","-34.9","","-38.5","","70","","","","16","","5","","24.1","","101.26","","","","-41","","Snow Grains"
"-111.96","60.02","FORT SMITH A","2202201","2020-01-16 08:00","2020","01","16","08:00","-34.3","","-37.8","","71","","","","18","","7","","19.3","","101.31","","","","-42","","Snow Grains"
"-111.96","60.02","FORT SMITH A","2202201","2020-01-16 09:00","2020","01","16","09:00","-34.6","","-38.3","","71","","","","7","","3","","19.3","","101.24","","","","-38","","Snow Grains"
"-111.96","60.02","FORT SMITH A","2202201","2020-01-16 10:00","2020","01","16","10:00","-35.0","","-38.6","","70","","","","36","","1","","16.1","","101.17","","","","-36","","Snow Grains"
"-111.96","60.02","FORT SMITH A","2202201","2020-01-16 11:00","2020","01","16","11:00","-35.1","","-38.7","","70","","","","36","","3","","9.7","","101.11","","","","-39","","Snow Grains"
"-111.96","60.02","FORT SMITH A","2202201","2020-01-16 12:00","2020","01","16","12:00","-33.8","","-37.2","","72","","","","36","","3","","9.7","","101.20","","","","-37","","Snow Grains"
"-111.96","60.02","FORT SMITH A","2202201","2020-01-16 13:00","2020","01","16","13:00","-32.0","","-35.5","","72","","","","16","","5","","19.3","","101.17","","","","-38","","Snow Grains"
"-111.96","60.02","FORT SMITH A","2202201","2020-01-16 14:00","2020","01","16","14:00","-31.4","","-34.8","","72","","","","7","","3","","12.9","","101.11","","","","-35","","Snow Grains"
"-111.96","60.02","FORT SMITH A","2202201","2020-01-16 15:00","2020","01","16","15:00","-31.6","","-35.1","","72","","","","6","","4","","16.1","","101.05","","","","-36","","Snow Grains"
"-111.96","60.02","FORT SMITH A","2202201","2020-01-16 16:00","2020","01","16","16:00","-31.9","","-35.3","","73","","","","8","","5","","16.1","","100.94","","","","-38","","Snow Grains"
"-111.96","60.02","FORT SMITH A","2202201","2020-01-16 17:00","2020","01","16","17:00","-32.1","","-35.6","","72","","","","36","","1","","24.1","","100.89","","","","-33","","Snow Grains"
"-111.96","60.02","FORT SMITH A","2202201","2020-01-16 18:00","2020","01","16","18:00","-32.8","","-36.3","","72","","","","14","","5","","24.1","","100.92","","","","-39","","Snow Grains"
"-111.96","60.02","FORT SMITH A","2202201","2020-01-16 19:00","2020","01","16","19:00","-32.8","","-36.1","","73","","","","16","","4","","24.1","","100.89","","","","-38","","Snow Grains"
"-111.96","60.02","FORT SMITH A","2202201","2020-01-16 20:00","2020","01","16","20:00","-32.8","","-36.3","","72","","","","14","","4","","24.1","","100.88","","","","-38","","Snow Grains"
"-111.96","60.02","FORT SMITH A","2202201","2020-01-16 21:00","2020","01","16","21:00","-32.2","","-35.6","","72","","","","36","","2","","24.1","","100.81","","","","-35","","Snow Grains"
"-111.96","60.02","FORT SMITH A","2202201","2020-01-16 22:00","2020","01","16","22:00","-32.4","","-35.8","","72","","","","4","","7","","24.1","","100.77","","","","-40","","Snow Grains"
"-111.96","60.02","FORT SMITH A","2202201","2020-01-16 23:00","2020","01","16","23:00","-32.4","","-35.8","","72","","","","3","","5","","24.1","","100.76","","","","-38","","Snow Grains"
"-111.96","60.02","FORT SMITH A","2202201","2020-01-17 00:00","2020","01","17","00:00","-33.1","","-36.5","","72","","","","2","","6","","24.1","","100.75","","","","-40","","NA"
"-111.96","60.02","FORT SMITH A","2202201","2020-01-17 01:00","2020","01","17","01:00","-33.0","","-36.4","","72","","","","36","","2","","24.1","","100.71","","","","-35","","NA"
"-111.96","60.02","FORT SMITH A","2202201","2020-01-17 02:00","2020","01","17","02:00","-32.2","","-35.6","","72","","","","36","","1","","24.1","","100.69","","","","-33","","Mostly Cloudy"
"-111.96","60.02","FORT SMITH A","2202201","2020-01-17 03:00","2020","01","17","03:00","-31.9","","-35.4","","72","","","","","","0","","24.1","","100.70","","","","","","NA"
"-111.96","60.02","FORT SMITH A","2202201","2020-01-17 04:00","2020","01","17","04:00","-32.4","","-35.8","","72","","","","1","","4","","24.1","","100.68","","","","-37","","NA"
"-111.96","60.02","FORT SMITH A","2202201","2020-01-17 05:00","2020","01","17","05:00","-32.3","","-35.8","","72","","","","35","","5","","24.1","","100.63","","","","-38","","Cloudy"
"-111.96","60.02","FORT SMITH A","2202201","2020-01-17 06:00","2020","01","17","06:00","-31.9","","-35.3","","72","","","","33","","4","","24.1","","100.67","","","","-37","","Snow Grains"
"-111.96","60.02","FORT SMITH A","2202201","2020-01-17 07:00","2020","01","17","07:00","-31.9","","-35.4","","72","","","","32","","5","","24.1","","100.69","","","","-38","","NA"
"-111.96","60.02","FORT SMITH A","2202201","2020-01-17 08:00","2020","01","17","08:00","-32.0","","-35.5","","72","","","","33","","7","","24.1","","100.73","","","","-40","","Cloudy"
"-111.96","60.02","FORT SMITH A","2202201","2020-01-17 09:00","2020","01","17","09:00","-32.2","","-35.7","","72","","","","31","","8","","24.1","","100.78","","","","-41","","NA"
"-111.96","60.02","FORT SMITH A","2202201","2020-01-17 10:00","2020","01","17","10:00","-31.8","","-35.3","","72","","","","32","","8","","24.1","","100.79","","","","-40","","NA"
"-111.96","60.02","FORT SMITH A","2202201","2020-01-17 11:00","2020","01","17","11:00","-31.0","","-34.4","","73","","","","31","","9","","24.1","","100.83","","","","-40","","Cloudy"
"-111.96","60.02","FORT SMITH A","2202201","2020-01-17 12:00","2020","01","17","12:00","-30.7","","-34.2","","72","","","","33","","7","","24.1","","100.88","","","","-38","","NA"
"-111.96","60.02","FORT SMITH A","2202201","2020-01-17 13:00","2020","01","17","13:00","-30.6","","-34.1","","72","","","","31","","8","","24.1","","100.90","","","","-39","","NA"
"-111.96","60.02","FORT SMITH A","2202201","2020-01-17 14:00","2020","01","17","14:00","-30.5","","-34.1","","72","","","","32","","12","","24.1","","100.93","","","","-41","","Mainly Clear"
"-111.96","60.02","FORT SMITH A","2202201","2020-01-17 15:00","2020","01","17","15:00","-30.9","","-34.4","","72","","","","32","","10","","24.1","","101.00","","","","-40","","NA"
"-111.96","60.02","FORT SMITH A","2202201","2020-01-17 16:00","2020","01","17","16:00","-31.5","","-34.9","","72","","","","32","","9","","24.1","","101.07","","","","-40","","NA"
"-111.96","60.02","FORT SMITH A","2202201","2020-01-17 17:00","2020","01","17","17:00","-31.6","","-35.0","","73","","","","32","","9","","24.1","","101.16","","","","-40","","Mainly Clear"
"-111.96","60.02","FORT SMITH A","2202201","2020-01-17 18:00","2020","01","17","18:00","-31.9","","-35.3","","73","","","","32","","9","","24.1","","101.22","","","","-41","","NA"
"-111.96","60.02","FORT SMITH A","2202201","2020-01-17 19:00","2020","01","17","19:00","-32.1","","-35.4","","73","","","","32","","8","","24.1","","101.26","","","","-40","","Snow Grains"
"-111.96","60.02","FORT SMITH A","2202201","2020-01-17 20:00","2020","01","17","20:00","-32.2","","-35.4","","74","","","","32","","7","","24.1","","101.28","","","","-40","","Snow Grains"
"-111.96","60.02","FORT SMITH A","2202201","2020-01-17 21:00","2020","01","17","21:00","-32.4","","-35.6","","73","","","","30","","10","","24.1","","101.32","","","","-42","","Snow Grains"
"-111.96","60.02","FORT SMITH A","2202201","2020-01-17 22:00","2020","01","17","22:00","-31.8","","-35.0","","74","","","","31","","8","","24.1","","101.37","","","","-40","","Snow Grains"
"-111.96","60.02","FORT SMITH A","2202201","2020-01-17 23:00","2020","01","17","23:00","-31.8","","-35.0","","74","","","","33","","7","","24.1","","101.41","","","","-39","","Snow Grains"
"-111.96","60.02","FORT SMITH A","2202201","2020-01-18 00:00","2020","01","18","00:00","-31.5","","-34.7","","74","","","","32","","9","","24.1","","101.44","","","","-40","","Snow Grains"
"-111.96","60.02","FORT SMITH A","2202201","2020-01-18 01:00","2020","01","18","01:00","-31.9","","-35.1","","74","","","","31","","5","","24.1","","101.48","","","","-38","","Snow Grains"
"-111.96","60.02","FORT SMITH A","2202201","2020-01-18 02:00","2020","01","18","02:00","-31.6","","-34.8","","74","","","","35","","10","","24.1","","101.49","","","","-41","","Snow Grains"
"-111.96","60.02","FORT SMITH A","2202201","2020-01-18 03:00","2020","01","18","03:00","-32.0","","-35.2","","74","","","","32","","5","","24.1","","101.55","","","","-38","","Snow Grains"
"-111.96","60.02","FORT SMITH A","2202201","2020-01-18 04:00","2020","01","18","04:00","-31.0","","-34.0","","75","","","","34","","6","","24.1","","101.56","","","","-38","","Snow Grains"
"-111.96","60.02","FORT SMITH A","2202201","2020-01-18 05:00","2020","01","18","05:00","-30.3","","-33.5","","75","","","","34","","5","","19.3","","101.59","","","","-36","","Snow Grains"
"-111.96","60.02","FORT SMITH A","2202201","2020-01-18 06:00","2020","01","18","06:00","-30.7","","-34.0","","73","","","","36","","1","","24.1","","101.62","","","","-32","","Snow Grains"
"-111.96","60.02","FORT SMITH A","2202201","2020-01-18 07:00","2020","01","18","07:00","-31.4","","-34.7","","73","","","","36","","2","","24.1","","101.67","","","","-34","","Snow Grains"
"-111.96","60.02","FORT SMITH A","2202201","2020-01-18 08:00","2020","01","18","08:00","-31.8","","-35.1","","73","","","","3","","6","","24.1","","101.65","","","","-39","","Snow Grains"
"-111.96","60.02","FORT SMITH A","2202201","2020-01-18 09:00","2020","01","18","09:00","-32.5","","-35.9","","72","","","","18","","3","","24.1","","101.62","","","","-36","","Snow Grains"
"-111.96","60.02","FORT SMITH A","2202201","2020-01-18 10:00","2020","01","18","10:00","-32.6","","-36.1","","72","","","","36","","1","","24.1","","101.62","","","","-34","","Snow Grains"
"-111.96","60.02","FORT SMITH A","2202201","2020-01-18 11:00","2020","01","18","11:00","-32.2","","-35.6","","72","","","","18","","5","","24.1","","101.65","","","","-38","","Snow Grains"
"-111.96","60.02","FORT SMITH A","2202201","2020-01-18 12:00","2020","01","18","12:00","-30.9","","-34.2","","74","","","","36","","3","","24.1","","101.66","","","","-34","","Snow Grains"
"-111.96","60.02","FORT SMITH A","2202201","2020-01-18 13:00","2020","01","18","13:00","-30.5","","-33.7","","74","","","","3","","3","","24.1","","101.62","","","","-34","","Snow Grains"
"-111.96","60.02","FORT SMITH A","2202201","2020-01-18 14:00","2020","01","18","14:00","-29.4","","-32.6","","74","","","","36","","3","","24.1","","101.56","","","","-33","","Mainly Clear"
"-111.96","60.02","FORT SMITH A","2202201","2020-01-18 15:00","2020","01","18","15:00","-29.1","","-32.2","","75","","","","36","","3","","24.1","","101.54","","","","-32","","NA"
"-111.96","60.02","FORT SMITH A","2202201","2020-01-18 16:00","2020","01","18","16:00","-30.9","","-34.2","","73","","","","36","","2","","24.1","","101.54","","","","-33","","NA"
"-111.96","60.02","FORT SMITH A","2202201","2020-01-18 17:00","2020","01","18","17:00","-32.5","","-35.9","","72","","","","36","","2","","24.1","","101.53","","","","-35","","Clear"
"-111.96","60.02","FORT SMITH A","2202201","2020-01-18 18:00","2020","01","18","18:00","-33.5","","-37.0","","72","","","","16","","3","","24.1","","101.49","","","","-37","","NA"
"-111.96","60.02","FORT SMITH A","2202201","2020-01-18 19:00","2020","01","18","19:00","-32.1","","-35.4","","73","","","","13","","7","","24.1","","101.42","","","","-40","","NA"
"-111.96","60.02","FORT SMITH A","2202201","2020-01-18 20:00","2020","01","18","20:00","-31.4","","-34.8","","73","","","","15","","11","","24.1","","101.37","","","","-41","","Clear"
"-111.96","60.02","FORT SMITH A","2202201","2020-01-18 21:00","2020","01","18","21:00","-32.0","","-35.4","","73","","","","14","","8","","24.1","","101.32","","","","-40","","NA"
"-111.96","60.02","FORT SMITH A","2202201","2020-01-18 22:00","2020","01","18","22:00","-32.1","","-35.5","","73","","","","15","","9","","24.1","","101.32","","","","-41","","NA"
"-111.96","60.02","FORT SMITH A","2202201","2020-01-18 23:00","2020","01","18","23:00","-32.5","","-35.9","","73","","","","14","","10","","24.1","","101.23","","","","-42","","Clear"
"-111.96","60.02","FORT SMITH A","2202201","2020-01-19 00:00","2020","01","19","00:00","-32.2","","-35.6","","73","","","","15","","13","","24.1","","101.18","","","","-43","","NA"
"-111.96","60.02","FORT SMITH A","2202201","2020-01-19 01:00","2020","01","19","01:00","-32.3","","-35.7","","73","","","","14","","9","","24.1","","101.12","","","","-41","","NA"
"-111.96","60.02","FORT SMITH A","2202201","2020-01-19 02:00","2020","01","19","02:00","-32.3","","-35.7","","72","","","","14","","10","","24.1","","101.05","","","","-42","","Clear"
"-111.96","60.02","FORT SMITH A","2202201","2020-01-19 03:00","2020","01","19","03:00","-32.2","","-35.6","","72","","","","13","","10","","24.1","","100.96","","","","-42","","NA"
"-111.96","60.02","FORT SMITH A","2202201","2020-01-19 04:00","2020","01","19","04:00","-32.3","","-35.7","","72","","","","14","","10","","24.1","","100.87","","","","-42","","NA"
"-111.96","60.02","FORT SMITH A","2202201","2020-01-19 05:00","2020","01","19","05:00","-31.9","","-35.3","","72","","","","14","","9","","24.1","","100.80","","","","-41","","Clear"
"-111.96","60.02","FORT SMITH A","2202201","2020-01-19 06:00","2020","01","19","06:00","-31.1","","-34.5","","73","","","","14","","10","","24.1","","100.71","","","","-40","","NA"
"-111.96","60.02","FORT SMITH A","2202201","2020-01-19 07:00","2020","01","19","07:00","-30.4","","-33.7","","74","","","","14","","14","","24.1","","100.50","","","","-42","","NA"
"-111.96","60.02","FORT SMITH A","2202201","2020-01-19 08:00","2020","01","19","08:00","-30.0","","-33.3","","74","","","","13","","12","","24.1","","100.41","","","","-40","","Clear"
"-111.96","60.02","FORT SMITH A","2202201","2020-01-19 09:00","2020","01","19","09:00","-29.7","","-33.0","","74","","","","14","","10","","24.1","","100.31","","","","-39","","NA"
"-111.96","60.02","FORT SMITH A","2202201","2020-01-19 10:00","2020","01","19","10:00","-28.7","","-31.8","","75","","","","13","","11","","24.1","","100.21","","","","-38","","NA"
"-111.96","60.02","FORT SMITH A","2202201","2020-01-19 11:00","2020","01","19","11:00","-26.8","","-29.8","","76","","","","14","","17","","24.1","","100.09","","","","-38","","Blowing Snow"
"-111.96","60.02","FORT SMITH A","2202201","2020-01-19 12:00","2020","01","19","12:00","-24.9","","-27.8","","77","","","","14","","13","","24.1","","99.96","","","","-34","","Blowing Snow"
"-111.96","60.02","FORT SMITH A","2202201","2020-01-19 13:00","2020","01","19","13:00","-23.1","","-25.9","","78","","","","14","","22","","24.1","","99.78","","","","-35","","Blowing Snow"
"-111.96","60.02","FORT SMITH A","2202201","2020-01-19 14:00","2020","01","19","14:00","-21.9","","-24.6","","79","","","","14","","22","","24.1","","99.62","","","","-33","","Blowing Snow"
"-111.96","60.02","FORT SMITH A","2202201","2020-01-19 15:00","2020","01","19","15:00","-20.9","","-23.6","","80","","","","15","","22","","24.1","","99.51","","","","-32","","Blowing Snow"
"-111.96","60.02","FORT SMITH A","2202201","2020-01-19 16:00","2020","01","19","16:00","-20.6","","-23.2","","80","","","","15","","17","","24.1","","99.39","","","","-30","","Blowing Snow"
"-111.96","60.02","FORT SMITH A","2202201","2020-01-19 17:00","2020","01","19","17:00","-19.6","","-22.2","","80","","","","16","","18","","24.1","","99.22","","","","-29","","Blowing Snow"
"-111.96","60.02","FORT SMITH A","2202201","2020-01-19 18:00","2020","01","19","18:00","-18.4","","-21.1","","80","","","","15","","24","","24.1","","99.13","","","","-29","","Blowing Snow"
"-111.96","60.02","FORT SMITH A","2202201","2020-01-19 19:00","2020","01","19","19:00","-17.7","","-20.7","","78","","","","15","","21","","24.1","","98.97","","","","-28","","Blowing Snow"
"-111.96","60.02","FORT SMITH A","2202201","2020-01-19 20:00","2020","01","19","20:00","-17.6","","-20.6","","78","","","","17","","19","","24.1","","98.87","","","","-27","","Blowing Snow"
"-111.96","60.02","FORT SMITH A","2202201","2020-01-19 21:00","2020","01","19","21:00","-17.1","","-19.9","","79","","","","18","","12","","24.1","","98.84","","","","-25","","NA"
"-111.96","60.02","FORT SMITH A","2202201","2020-01-19 22:00","2020","01","19","22:00","-17.7","","-20.3","","80","","","","16","","10","","24.1","","98.77","","","","-24","","NA"
"-111.96","60.02","FORT SMITH A","2202201","2020-01-19 23:00","2020","01","19","23:00","-17.7","","-20.2","","81","","","","14","","8","","24.1","","98.78","","","","-24","","Mainly Clear"
"-111.96","60.02","FORT SMITH A","2202201","2020-01-20 00:00","2020","01","20","00:00","-17.4","","-20.0","","80","","","","15","","10","","24.1","","98.74","","","","-24","","NA"
"-111.96","60.02","FORT SMITH A","2202201","2020-01-20 01:00","2020","01","20","01:00","-18.1","","-20.7","","81","","","","16","","9","","24.1","","98.72","","","","-24","","Snow"
"-111.96","60.02","FORT SMITH A","2202201","2020-01-20 02:00","2020","01","20","02:00","-19.1","","-21.4","","82","","","","15","","10","","24.1","","98.68","","","","-26","","Clear"
"-111.96","60.02","FORT SMITH A","2202201","2020-01-20 03:00","2020","01","20","03:00","-19.8","","-22.3","","81","","","","13","","6","","24.1","","98.71","","","","-25","","NA"
"-111.96","60.02","FORT SMITH A","2202201","2020-01-20 04:00","2020","01","20","04:00","-20.1","","-22.4","","82","","","","16","","8","","24.1","","98.66","","","","-26","","NA"
"-111.96","60.02","FORT SMITH A","2202201","2020-01-20 05:00","2020","01","20","05:00","-20.3","","-22.6","","82","","","","16","","9","","24.1","","98.65","","","","-27","","Clear"
"-111.96","60.02","FORT SMITH A","2202201","2020-01-20 06:00","2020","01","20","06:00","-20.8","","-23.2","","81","","","","14","","9","","24.1","","98.58","","","","-28","","NA"
"-111.96","60.02","FORT SMITH A","2202201","2020-01-20 07:00","2020","01","20","07:00","-20.7","","-23.1","","81","","","","14","","13","","24.1","","98.52","","","","-29","","NA"
"-111.96","60.02","FORT SMITH A","2202201","2020-01-20 08:00","2020","01","20","08:00","-20.4","","-22.7","","82","","","","14","","7","","24.1","","98.46","","","","-26","","Mainly Clear"
"-111.96","60.02","FORT SMITH A","2202201","2020-01-20 09:00","2020","01","20","09:00","-20.0","","-22.3","","82","","","","14","","5","","24.1","","98.45","","","","-24","","NA"
"-111.96","60.02","FORT SMITH A","2202201","2020-01-20 10:00","2020","01","20","10:00","-19.9","","-22.3","","82","","","","13","","7","","24.1","","98.39","","","","-26","","NA"
"-111.96","60.02","FORT SMITH A","2202201","2020-01-20 11:00","2020","01","20","11:00","-19.0","","-21.4","","82","","","","14","","10","","24.1","","98.40","","","","-26","","Mostly Cloudy"
"-111.96","60.02","FORT SMITH A","2202201","2020-01-20 12:00","2020","01","20","12:00","-18.3","","-20.6","","82","","","","14","","9","","24.1","","98.37","","","","-25","","NA"
"-111.96","60.02","FORT SMITH A","2202201","2020-01-20 13:00","2020","01","20","13:00","-16.9","","-19.4","","82","","","","15","","8","","24.1","","98.26","","","","-23","","NA"
"-111.96","60.02","FORT SMITH A","2202201","2020-01-20 14:00","2020","01","20","14:00","-15.9","","-18.2","","83","","","","13","","7","","24.1","","98.18","","","","-21","","Cloudy"
"-111.96","60.02","FORT SMITH A","2202201","2020-01-20 15:00","2020","01","20","15:00","-15.4","","-17.6","","83","","","","14","","5","","24.1","","98.16","","","","-19","","NA"
"-111.96","60.02","FORT SMITH A","2202201","2020-01-20 16:00","2020","01","20","16:00","-14.9","","-17.1","","84","","","","12","","7","","24.1","","98.11","","","","-20","","NA"
"-111.96","60.02","FORT SMITH A","2202201","2020-01-20 17:00","2020","01","20","17:00","-14.0","","-15.9","","86","","","","13","","4","","24.1","","98.03","","","","-17","","Cloudy"
"-111.96","60.02","FORT SMITH A","2202201","2020-01-20 18:00","2020","01","20","18:00","-13.0","","-14.9","","86","","","","13","","6","","24.1","","97.98","","","","-17","","NA"
"-111.96","60.02","FORT SMITH A","2202201","2020-01-20 19:00","2020","01","20","19:00","-12.2","","-14.1","","86","","","","13","","11","","24.1","","97.80","","","","-18","","NA"
"-111.96","60.02","FORT SMITH A","2202201","2020-01-20 20:00","2020","01","20","20:00","-11.8","","-13.6","","87","","","","9","","8","","24.1","","97.63","","","","-17","","Snow"
"-111.96","60.02","FORT SMITH A","2202201","2020-01-20 21:00","2020","01","20","21:00","-11.7","","-13.6","","86","","","","12","","9","","8.1","","97.53","","","","-17","","Snow"
"-111.96","60.02","FORT SMITH A","2202201","2020-01-20 22:00","2020","01","20","22:00","-11.5","","-13.2","","88","","","","7","","7","","8.1","","97.43","","","","-16","","Snow,Snow Pellets"
"-111.96","60.02","FORT SMITH A","2202201","2020-01-20 23:00","2020","01","20","23:00","-11.4","","-13.1","","88","","","","8","","4","","4.0","","97.36","","","","-14","","Snow"
"-111.96","60.02","FORT SMITH A","2202201","2020-01-21 00:00","2020","01","21","00:00","-11.3","","-12.8","","89","","","","3","","7","","0.8","","97.27","","","","-16","","Moderate Snow"
"-111.96","60.02","FORT SMITH A","2202201","2020-01-21 01:00","2020","01","21","01:00","-10.8","","-12.2","","89","","","","4","","9","","0.6","","97.09","","","","-16","","Moderate Snow"
"-111.96","60.02","FORT SMITH A","2202201","2020-01-21 02:00","2020","01","21","02:00","-10.1","","-11.4","","90","","","","5","","9","","0.4","","96.95","","","","-15","","Heavy Snow"
"-111.96","60.02","FORT SMITH A","2202201","2020-01-21 03:00","2020","01","21","03:00","-10.0","","-11.4","","90","","","","36","","5","","0.6","","96.99","","","","-13","","Moderate Snow"
"-111.96","60.02","FORT SMITH A","2202201","2020-01-21 04:00","2020","01","21","04:00","-10.0","","-11.3","","90","","","","32","","7","","0.6","","96.95","","","","-14","","Moderate Snow"
"-111.96","60.02","FORT SMITH A","2202201","2020-01-21 05:00","2020","01","21","05:00","-9.9","","-11.3","","90","","","","30","","14","","2.0","","96.95","","","","-16","","Snow"
"-111.96","60.02","FORT SMITH A","2202201","2020-01-21 06:00","2020","01","21","06:00","-10.1","","-11.8","","88","","","","31","","17","","2.0","","96.99","","","","-17","","Snow,Blowing Snow"
"-111.96","60.02","FORT SMITH A","2202201","2020-01-21 07:00","2020","01","21","07:00","-10.8","","-12.5","","87","","","","30","","23","","1.6","","97.10","","","","-19","","Snow,Blowing Snow"
"-111.96","60.02","FORT SMITH A","2202201","2020-01-21 08:00","2020","01","21","08:00","-12.2","","-14.2","","85","","","","31","","28","","1.0","","97.25","","","","-22","","Snow,Blowing Snow"
"-111.96","60.02","FORT SMITH A","2202201","2020-01-21 09:00","2020","01","21","09:00","-13.2","","-15.4","","84","","","","30","","26","","1.0","","97.37","","","","-23","","Snow,Blowing Snow"
"-111.96","60.02","FORT SMITH A","2202201","2020-01-21 10:00","2020","01","21","10:00","-14.2","","-16.6","","82","","","","31","","26","","1.2","","97.52","","","","-24","","Snow,Blowing Snow"
"-111.96","60.02","FORT SMITH A","2202201","2020-01-21 11:00","2020","01","21","11:00","-14.3","","-16.7","","82","","","","31","","23","","1.0","","97.64","","","","-24","","Snow,Blowing Snow"
"-111.96","60.02","FORT SMITH A","2202201","2020-01-21 12:00","2020","01","21","12:00","-14.3","","-16.7","","82","","","","32","","25","","19.3","","97.75","","","","-24","","Snow,Blowing Snow"
"-111.96","60.02","FORT SMITH A","2202201","2020-01-21 13:00","2020","01","21","13:00","-14.3","","-16.6","","82","","","","29","","23","","24.1","","97.83","","","","-24","","Blowing Snow"
"-111.96","60.02","FORT SMITH A","2202201","2020-01-21 14:00","2020","01","21","14:00","-14.6","","-16.9","","83","","","","30","","15","","24.1","","97.90","","","","-22","","Blowing Snow"
"-111.96","60.02","FORT SMITH A","2202201","2020-01-21 15:00","2020","01","21","15:00","-14.4","","-16.6","","83","","","","31","","9","","24.1","","97.93","","","","-20","","NA"
"-111.96","60.02","FORT SMITH A","2202201","2020-01-21 16:00","2020","01","21","16:00","-14.8","","-16.9","","84","","","","30","","13","","24.1","","98.01","","","","-22","","NA"
"-111.96","60.02","FORT SMITH A","2202201","2020-01-21 17:00","2020","01","21","17:00","-15.7","","-17.6","","86","","","","31","","8","","24.1","","98.09","","","","-21","","Mainly Clear"
"-111.96","60.02","FORT SMITH A","2202201","2020-01-21 18:00","2020","01","21","18:00","-16.8","","-18.5","","87","","","","30","","7","","24.1","","98.10","","","","-22","","NA"
"-111.96","60.02","FORT SMITH A","2202201","2020-01-21 19:00","2020","01","21","19:00","-17.7","","-19.4","","86","","","","30","","9","","24.1","","98.16","","","","-24","","NA"
"-111.96","60.02","FORT SMITH A","2202201","2020-01-21 20:00","2020","01","21","20:00","-18.2","","-19.9","","86","","","","32","","4","","24.1","","98.16","","","","-21","","Mainly Clear"
"-111.96","60.02","FORT SMITH A","2202201","2020-01-21 21:00","2020","01","21","21:00","-20.0","","-21.8","","86","","","","36","","1","","24.1","","98.18","","","","-21","","NA"
"-111.96","60.02","FORT SMITH A","2202201","2020-01-21 22:00","2020","01","21","22:00","-22.6","","-24.8","","83","","","","36","","1","","24.1","","98.21","","","","-24","","NA"
"-111.96","60.02","FORT SMITH A","2202201","2020-01-21 23:00","2020","01","21","23:00","-23.4","","-25.9","","81","","","","20","","3","","24.1","","98.23","","","","-26","","Ice Crystals"
"-111.96","60.02","FORT SMITH A","2202201","2020-01-22 00:00","2020","01","22","00:00","-23.9","","-26.3","","81","","","","6","","3","","24.1","","98.27","","","","-27","","Ice Crystals"
"-111.96","60.02","FORT SMITH A","2202201","2020-01-22 01:00","2020","01","22","01:00","-24.1","","-26.6","","80","","","","16","","4","","24.1","","98.30","","","","-28","","Ice Crystals"
"-111.96","60.02","FORT SMITH A","2202201","2020-01-22 02:00","2020","01","22","02:00","-24.6","","-27.2","","80","","","","36","","3","","24.1","","98.35","","","","-28","","Clear"
"-111.96","60.02","FORT SMITH A","2202201","2020-01-22 03:00","2020","01","22","03:00","-25.2","","-27.7","","80","","","","14","","3","","24.1","","98.37","","","","-28","","NA"
"-111.96","60.02","FORT SMITH A","2202201","2020-01-22 04:00","2020","01","22","04:00","-24.6","","-27.2","","80","","","","36","","2","","24.1","","98.38","","","","-27","","NA"
"-111.96","60.02","FORT SMITH A","2202201","2020-01-22 05:00","2020","01","22","05:00","-24.6","","-27.0","","81","","","","13","","4","","24.1","","98.36","","","","-29","","Clear"
"-111.96","60.02","FORT SMITH A","2202201","2020-01-22 06:00","2020","01","22","06:00","-24.1","","-26.6","","81","","","","10","","3","","24.1","","98.37","","","","-27","","Ice Crystals"
"-111.96","60.02","FORT SMITH A","2202201","2020-01-22 07:00","2020","01","22","07:00","-22.3","","-24.7","","81","","","","16","","4","","24.1","","98.37","","","","-26","","Ice Crystals"
"-111.96","60.02","FORT SMITH A","2202201","2020-01-22 08:00","2020","01","22","08:00","-21.8","","-24.2","","81","","","","15","","10","","24.1","","98.35","","","","-29","","Mainly Clear"
"-111.96","60.02","FORT SMITH A","2202201","2020-01-22 09:00","2020","01","22","09:00","-21.3","","-23.6","","82","","","","15","","9","","24.1","","98.37","","","","-28","","NA"
"-111.96","60.02","FORT SMITH A","2202201","2020-01-22 10:00","2020","01","22","10:00","-20.1","","-22.2","","84","","","","12","","9","","12.9","","98.36","","","","-27","","NA"
"-111.96","60.02","FORT SMITH A","2202201","2020-01-22 11:00","2020","01","22","11:00","-18.4","","-20.4","","85","","","","14","","14","","12.9","","98.36","","","","-27","","Cloudy"
"-111.96","60.02","FORT SMITH A","2202201","2020-01-22 12:00","2020","01","22","12:00","-17.1","","-18.9","","85","","","","14","","17","","12.9","","98.34","","","","-26","","NA"
"-111.96","60.02","FORT SMITH A","2202201","2020-01-22 13:00","2020","01","22","13:00","-15.1","","-16.8","","87","","","","15","","18","","2.8","","98.27","","","","-24","","Snow,Blowing Snow"
"-111.96","60.02","FORT SMITH A","2202201","2020-01-22 14:00","2020","01","22","14:00","-12.8","","-14.3","","89","","","","15","","19","","1.0","","98.23","","","","-21","","Snow,Fog,Blowing Snow"
"-111.96","60.02","FORT SMITH A","2202201","2020-01-22 15:00","2020","01","22","15:00","-11.6","","-12.9","","90","","","","14","","20","","1.0","","98.18","","","","-20","","Snow,Fog,Blowing Snow"
"-111.96","60.02","FORT SMITH A","2202201","2020-01-22 16:00","2020","01","22","16:00","-10.9","","-12.1","","90","","","","15","","21","","1.0","","98.15","","","","-19","","Snow,Fog,Blowing Snow"
"-111.96","60.02","FORT SMITH A","2202201","2020-01-22 17:00","2020","01","22","17:00","-11.1","","-12.4","","90","","","","15","","25","","1.2","","98.17","","","","-20","","Snow,Fog,Blowing Snow"
"-111.96","60.02","FORT SMITH A","2202201","2020-01-22 18:00","2020","01","22","18:00","-10.9","","-12.1","","90","","","","15","","17","","3.2","","98.15","","","","-18","","Snow Grains,Blowing Snow"
"-111.96","60.02","FORT SMITH A","2202201","2020-01-22 19:00","2020","01","22","19:00","-10.5","","-11.7","","91","","","","15","","18","","19.3","","98.14","","","","-18","","Snow,Blowing Snow"
"-111.96","60.02","FORT SMITH A","2202201","2020-01-22 20:00","2020","01","22","20:00","-11.5","","-12.8","","90","","","","15","","10","","24.1","","98.17","","","","-17","","Snow"
"-111.96","60.02","FORT SMITH A","2202201","2020-01-22 21:00","2020","01","22","21:00","-11.3","","-12.6","","90","","","","16","","8","","24.1","","98.19","","","","-16","","Snow"
"-111.96","60.02","FORT SMITH A","2202201","2020-01-22 22:00","2020","01","22","22:00","-12.2","","-13.6","","90","","","","16","","7","","24.1","","98.24","","","","-17","","Snow"
"-111.96","60.02","FORT SMITH A","2202201","2020-01-22 23:00","2020","01","22","23:00","-12.1","","-13.4","","90","","","","19","","7","","24.1","","98.32","","","","-16","","Mostly Cloudy"
"-111.96","60.02","FORT SMITH A","2202201","2020-01-23 00:00","2020","01","23","00:00","-11.5","","-12.8","","90","","","","17","","7","","24.1","","98.39","","","","-16","","NA"
"-111.96","60.02","FORT SMITH A","2202201","2020-01-23 01:00","2020","01","23","01:00","-10.5","","-11.7","","91","","","","36","","3","","24.1","","98.44","","","","-12","","NA"
"-111.96","60.02","FORT SMITH A","2202201","2020-01-23 02:00","2020","01","23","02:00","-10.0","","-11.1","","91","","","","18","","6","","24.1","","98.49","","","","-14","","Cloudy"
"-111.96","60.02","FORT SMITH A","2202201","2020-01-23 03:00","2020","01","23","03:00","-9.9","","-11.1","","91","","","","15","","5","","24.1","","98.54","","","","-13","","NA"
"-111.96","60.02","FORT SMITH A","2202201","2020-01-23 04:00","2020","01","23","04:00","-10.0","","-11.2","","92","","","","36","","3","","24.1","","98.59","","","","-12","","NA"
"-111.96","60.02","FORT SMITH A","2202201","2020-01-23 05:00","2020","01","23","05:00","-10.2","","-11.3","","91","","","","36","","1","","24.1","","98.64","","","","-11","","Cloudy"
"-111.96","60.02","FORT SMITH A","2202201","2020-01-23 06:00","2020","01","23","06:00","-9.1","","-10.1","","92","","","","27","","7","","24.1","","98.68","","","","-13","","NA"
"-111.96","60.02","FORT SMITH A","2202201","2020-01-23 07:00","2020","01","23","07:00","-9.4","","-10.5","","92","","","","22","","6","","24.1","","98.70","","","","-13","","NA"
"-111.96","60.02","FORT SMITH A","2202201","2020-01-23 08:00","2020","01","23","08:00","-9.2","","-10.2","","92","","","","36","","3","","24.1","","98.70","","","","-11","","Cloudy"
"-111.96","60.02","FORT SMITH A","2202201","2020-01-23 09:00","2020","01","23","09:00","-9.9","","-11.0","","92","","","","14","","4","","4.0","","98.70","","","","-12","","Snow Grains,Fog"
"-111.96","60.02","FORT SMITH A","2202201","2020-01-23 10:00","2020","01","23","10:00","-9.8","","-10.9","","92","","","","36","","2","","0.8","","98.72","","","","-11","","Snow Grains,Freezing Fog"
"-111.96","60.02","FORT SMITH A","2202201","2020-01-23 11:00","2020","01","23","11:00","-9.3","","-10.4","","92","","","","13","","5","","4.0","","98.67","","","","-12","","Fog"
"-111.96","60.02","FORT SMITH A","2202201","2020-01-23 12:00","2020","01","23","12:00","-9.2","","-10.2","","92","","","","12","","3","","4.0","","98.61","","","","-11","","Fog"
"-111.96","60.02","FORT SMITH A","2202201","2020-01-23 13:00","2020","01","23","13:00","-9.5","","-10.6","","92","","","","10","","8","","8.1","","98.61","","","","-14","","Fog"
"-111.96","60.02","FORT SMITH A","2202201","2020-01-23 14:00","2020","01","23","14:00","-9.5","","-10.6","","92","","","","11","","4","","9.7","","98.56","","","","-12","","Fog"
"-111.96","60.02","FORT SMITH A","2202201","2020-01-23 15:00","2020","01","23","15:00","-9.3","","-10.4","","92","","","","10","","7","","19.3","","98.53","","","","-13","","NA"
"-111.96","60.02","FORT SMITH A","2202201","2020-01-23 16:00","2020","01","23","16:00","-9.1","","-10.2","","92","","","","8","","7","","2.8","","98.44","","","","-13","","Fog"
"-111.96","60.02","FORT SMITH A","2202201","2020-01-23 17:00","2020","01","23","17:00","-8.8","","-9.8","","93","","","","9","","9","","3.6","","98.35","","","","-13","","Fog"
"-111.96","60.02","FORT SMITH A","2202201","2020-01-23 18:00","2020","01","23","18:00","-8.2","","-9.1","","93","","","","8","","8","","8.1","","98.23","","","","-12","","Fog"
"-111.96","60.02","FORT SMITH A","2202201","2020-01-23 19:00","2020","01","23","19:00","-7.1","","-7.9","","94","","","","11","","9","","24.1","","98.10","","","","-11","","NA"
"-111.96","60.02","FORT SMITH A","2202201","2020-01-23 20:00","2020","01","23","20:00","-6.2","","-6.9","","95","","","","12","","12","","24.1","","97.98","","","","-11","","Cloudy"
"-111.96","60.02","FORT SMITH A","2202201","2020-01-23 21:00","2020","01","23","21:00","-5.9","","-6.5","","95","","","","10","","10","","24.1","","97.84","","","","-10","","NA"
"-111.96","60.02","FORT SMITH A","2202201","2020-01-23 22:00","2020","01","23","22:00","-5.7","","-6.3","","95","","","","12","","14","","24.1","","97.84","","","","-11","","NA"
"-111.96","60.02","FORT SMITH A","2202201","2020-01-23 23:00","2020","01","23","23:00","-5.4","","-6.0","","96","","","","12","","6","","24.1","","97.77","","","","-8","","Cloudy"
"-111.96","60.02","FORT SMITH A","2202201","2020-01-24 00:00","2020","01","24","00:00","-5.1","","-5.7","","96","","","","11","","5","","2.8","","97.70","","","","-7","","Snow"
"-111.96","60.02","FORT SMITH A","2202201","2020-01-24 01:00","2020","01","24","01:00","-4.9","","-5.4","","96","","","","13","","8","","2.8","","97.67","","","","-8","","Snow"
"-111.96","60.02","FORT SMITH A","2202201","2020-01-24 02:00","2020","01","24","02:00","-4.8","","-5.3","","96","","","","13","","12","","4.8","","97.63","","","","-10","","Snow"
"-111.96","60.02","FORT SMITH A","2202201","2020-01-24 03:00","2020","01","24","03:00","-4.8","","-5.3","","96","","","","14","","8","","4.8","","97.65","","","","-8","","Snow"
"-111.96","60.02","FORT SMITH A","2202201","2020-01-24 04:00","2020","01","24","04:00","-4.8","","-5.3","","96","","","","14","","7","","16.1","","97.65","","","","-8","","Snow"
"-111.96","60.02","FORT SMITH A","2202201","2020-01-24 05:00","2020","01","24","05:00","-5.0","","-5.5","","96","","","","18","","5","","24.1","","97.69","","","","-7","","Cloudy"
"-111.96","60.02","FORT SMITH A","2202201","2020-01-24 06:00","2020","01","24","06:00","-5.0","","-5.5","","96","","","","25","","4","","24.1","","97.69","","","","-7","","Snow"
"-111.96","60.02","FORT SMITH A","2202201","2020-01-24 07:00","2020","01","24","07:00","-4.8","","-5.3","","96","","","","27","","18","","24.1","","97.73","","","","-11","","Snow"
"-111.96","60.02","FORT SMITH A","2202201","2020-01-24 08:00","2020","01","24","08:00","-5.7","","-6.3","","96","","","","29","","23","","24.1","","97.80","","","","-13","","Cloudy"
"-111.96","60.02","FORT SMITH A","2202201","2020-01-24 09:00","2020","01","24","09:00","-6.6","","-7.3","","95","","","","29","","21","","24.1","","97.87","","","","-14","","NA"
"-111.96","60.02","FORT SMITH A","2202201","2020-01-24 10:00","2020","01","24","10:00","-7.6","","-8.4","","94","","","","28","","18","","24.1","","97.98","","","","-14","","NA"
"-111.96","60.02","FORT SMITH A","2202201","2020-01-24 11:00","2020","01","24","11:00","-8.2","","-9.0","","93","","","","31","","15","","24.1","","98.08","","","","-15","","Cloudy"
"-111.96","60.02","FORT SMITH A","2202201","2020-01-24 12:00","2020","01","24","12:00","-8.2","","-9.1","","93","","","","31","","14","","24.1","","98.11","","","","-14","","NA"
"-111.96","60.02","FORT SMITH A","2202201","2020-01-24 13:00","2020","01","24","13:00","-9.1","","-10.1","","92","","","","30","","18","","24.1","","98.12","","","","-16","","NA"
"-111.96","60.02","FORT SMITH A","2202201","2020-01-24 14:00","2020","01","24","14:00","-10.0","","-11.1","","92","","","","29","","20","","24.1","","98.19","","","","-18","","Cloudy"
"-111.96","60.02","FORT SMITH A","2202201","2020-01-24 15:00","2020","01","24","15:00","-10.4","","-11.6","","91","","","","28","","17","","24.1","","98.26","","","","-18","","NA"
"-111.96","60.02","FORT SMITH A","2202201","2020-01-24 16:00","2020","01","24","16:00","-10.7","","-11.9","","91","","","","31","","11","","24.1","","98.32","","","","-16","","NA"
"-111.96","60.02","FORT SMITH A","2202201","2020-01-24 17:00","2020","01","24","17:00","-11.0","","-12.2","","91","","","","28","","9","","24.1","","98.39","","","","-16","","Cloudy"
"-111.96","60.02","FORT SMITH A","2202201","2020-01-24 18:00","2020","01","24","18:00","-11.2","","-12.4","","90","","","","27","","8","","24.1","","98.45","","","","-16","","Snow"
"-111.96","60.02","FORT SMITH A","2202201","2020-01-24 19:00","2020","01","24","19:00","-11.5","","-12.8","","90","","","","27","","11","","8.1","","98.49","","","","-17","","Snow"
"-111.96","60.02","FORT SMITH A","2202201","2020-01-24 20:00","2020","01","24","20:00","-11.5","","-12.8","","90","","","","35","","6","","24.1","","98.47","","","","-15","","Snow"
"-111.96","60.02","FORT SMITH A","2202201","2020-01-24 21:00","2020","01","24","21:00","-11.7","","-13.0","","90","","","","36","","5","","24.1","","98.46","","","","-15","","NA"
"-111.96","60.02","FORT SMITH A","2202201","2020-01-24 22:00","2020","01","24","22:00","-11.7","","-13.0","","90","","","","4","","5","","24.1","","98.44","","","","-15","","NA"
"-111.96","60.02","FORT SMITH A","2202201","2020-01-24 23:00","2020","01","24","23:00","-11.7","","-13.0","","90","","","","36","","2","","24.1","","98.47","","","","-13","","Cloudy"
"-111.96","60.02","FORT SMITH A","2202201","2020-01-25 00:00","2020","01","25","00:00","-11.4","","-12.7","","90","","","","15","","3","","24.1","","98.52","","","","-13","","NA"
"-111.96","60.02","FORT SMITH A","2202201","2020-01-25 01:00","2020","01","25","01:00","-11.2","","-12.5","","90","","","","13","","4","","24.1","","98.49","","","","-14","","NA"
"-111.96","60.02","FORT SMITH A","2202201","2020-01-25 02:00","2020","01","25","02:00","-10.9","","-12.2","","90","","","","13","","4","","24.1","","98.51","","","","-13","","Cloudy"
"-111.96","60.02","FORT SMITH A","2202201","2020-01-25 03:00","2020","01","25","03:00","-10.6","","-11.8","","91","","","","11","","4","","24.1","","98.52","","","","-13","","Snow Grains"
"-111.96","60.02","FORT SMITH A","2202201","2020-01-25 04:00","2020","01","25","04:00","-10.2","","-11.3","","91","","","","11","","3","","24.1","","98.49","","","","-12","","Snow Grains"
"-111.96","60.02","FORT SMITH A","2202201","2020-01-25 05:00","2020","01","25","05:00","-9.6","","-10.8","","91","","","","12","","4","","24.1","","98.49","","","","-12","","Cloudy"
"-111.96","60.02","FORT SMITH A","2202201","2020-01-25 06:00","2020","01","25","06:00","-9.2","","-10.3","","92","","","","15","","5","","24.1","","98.47","","","","-12","","NA"
"-111.96","60.02","FORT SMITH A","2202201","2020-01-25 07:00","2020","01","25","07:00","-8.1","","-9.0","","93","","","","13","","10","","19.3","","98.43","","","","-13","","Snow Grains"
"-111.96","60.02","FORT SMITH A","2202201","2020-01-25 08:00","2020","01","25","08:00","-7.5","","-8.3","","94","","","","14","","14","","24.1","","98.41","","","","-13","","Snow"
"-111.96","60.02","FORT SMITH A","2202201","2020-01-25 09:00","2020","01","25","09:00","-6.9","","-7.7","","94","","","","14","","14","","6.4","","98.42","","","","-13","","Snow Grains"
"-111.96","60.02","FORT SMITH A","2202201","2020-01-25 10:00","2020","01","25","10:00","-6.5","","-7.3","","94","","","","14","","16","","24.1","","98.42","","","","-13","","NA"
"-111.96","60.02","FORT SMITH A","2202201","2020-01-25 11:00","2020","01","25","11:00","-6.0","","-6.8","","94","","","","15","","16","","24.1","","98.49","","","","-12","","Cloudy"
"-111.96","60.02","FORT SMITH A","2202201","2020-01-25 12:00","2020","01","25","12:00","-5.5","","-6.3","","94","","","","14","","13","","24.1","","98.47","","","","-11","","NA"
"-111.96","60.02","FORT SMITH A","2202201","2020-01-25 13:00","2020","01","25","13:00","-5.1","","-5.9","","94","","","","15","","8","","24.1","","98.51","","","","-9","","NA"
"-111.96","60.02","FORT SMITH A","2202201","2020-01-25 14:00","2020","01","25","14:00","-4.8","","-5.6","","94","","","","16","","7","","24.1","","98.54","","","","-8","","Cloudy"
"-111.96","60.02","FORT SMITH A","2202201","2020-01-25 15:00","2020","01","25","15:00","-4.5","","-5.2","","95","","","","14","","7","","24.1","","98.55","","","","-8","","NA"
"-111.96","60.02","FORT SMITH A","2202201","2020-01-25 16:00","2020","01","25","16:00","-4.4","","-4.9","","96","","","","36","","1","","4.8","","98.60","","","","-5","","Fog"
"-111.96","60.02","FORT SMITH A","2202201","2020-01-25 17:00","2020","01","25","17:00","-4.5","","-4.9","","97","","","","17","","6","","1.6","","98.63","","","","-7","","Freezing Drizzle,Snow"
"-111.96","60.02","FORT SMITH A","2202201","2020-01-25 18:00","2020","01","25","18:00","-4.3","","-4.8","","97","","","","16","","5","","3.2","","98.66","","","","-6","","Freezing Drizzle,Snow Grains"
"-111.96","60.02","FORT SMITH A","2202201","2020-01-25 19:00","2020","01","25","19:00","-4.4","","-4.8","","97","","","","16","","7","","3.2","","98.68","","","","-8","","Freezing Drizzle,Snow Grains"
"-111.96","60.02","FORT SMITH A","2202201","2020-01-25 20:00","2020","01","25","20:00","-4.2","","-4.7","","97","","","","14","","6","","8.1","","98.67","","","","-7","","Freezing Drizzle,Snow Grains"
"-111.96","60.02","FORT SMITH A","2202201","2020-01-25 21:00","2020","01","25","21:00","-4.1","","-4.5","","97","","","","17","","8","","4.8","","98.67","","","","-8","","Freezing Drizzle,Snow Grains"
"-111.96","60.02","FORT SMITH A","2202201","2020-01-25 22:00","2020","01","25","22:00","-4.0","","-4.4","","97","","","","15","","7","","24.1","","98.70","","","","-7","","Snow Grains"
"-111.96","60.02","FORT SMITH A","2202201","2020-01-25 23:00","2020","01","25","23:00","-3.8","","-4.3","","97","","","","15","","11","","24.1","","98.68","","","","-8","","Snow Grains"
"-111.96","60.02","FORT SMITH A","2202201","2020-01-26 00:00","2020","01","26","00:00","-4.0","","-4.4","","97","","","","14","","9","","24.1","","98.69","","","","-8","","NA"
"-111.96","60.02","FORT SMITH A","2202201","2020-01-26 01:00","2020","01","26","01:00","-4.3","","-4.8","","97","","","","14","","14","","24.1","","98.65","","","","-9","","Snow Grains"
"-111.96","60.02","FORT SMITH A","2202201","2020-01-26 02:00","2020","01","26","02:00","-4.7","","-5.2","","96","","","","15","","12","","24.1","","98.64","","","","-9","","Snow Grains"
"-111.96","60.02","FORT SMITH A","2202201","2020-01-26 03:00","2020","01","26","03:00","-5.2","","-5.6","","97","","","","16","","10","","24.1","","98.64","","","","-10","","NA"
"-111.96","60.02","FORT SMITH A","2202201","2020-01-26 04:00","2020","01","26","04:00","-5.3","","-5.7","","97","","","","15","","16","","24.1","","98.59","","","","-11","","NA"
"-111.96","60.02","FORT SMITH A","2202201","2020-01-26 05:00","2020","01","26","05:00","-5.2","","-5.7","","97","","","","15","","15","","24.1","","98.55","","","","-11","","Cloudy"
"-111.96","60.02","FORT SMITH A","2202201","2020-01-26 06:00","2020","01","26","06:00","-5.7","","-6.3","","96","","","","16","","18","","9.7","","98.53","","","","-12","","Ice Crystals,Fog"
"-111.96","60.02","FORT SMITH A","2202201","2020-01-26 07:00","2020","01","26","07:00","-6.5","","-7.1","","95","","","","17","","9","","24.1","","98.58","","","","-11","","Snow Grains"
"-111.96","60.02","FORT SMITH A","2202201","2020-01-26 08:00","2020","01","26","08:00","-7.1","","-7.8","","95","","","","15","","13","","24.1","","98.59","","","","-13","","Snow Grains"
"-111.96","60.02","FORT SMITH A","2202201","2020-01-26 09:00","2020","01","26","09:00","-7.7","","-8.4","","95","","","","18","","7","","4.0","","98.67","","","","-11","","Snow Grains,Fog"
"-111.96","60.02","FORT SMITH A","2202201","2020-01-26 10:00","2020","01","26","10:00","-7.7","","-8.5","","94","","","","15","","3","","4.8","","98.69","","","","-9","","Snow Grains,Fog"
"-111.96","60.02","FORT SMITH A","2202201","2020-01-26 11:00","2020","01","26","11:00","-7.5","","-8.2","","94","","","","22","","3","","8.1","","98.78","","","","-9","","Snow Grains,Fog"
"-111.96","60.02","FORT SMITH A","2202201","2020-01-26 12:00","2020","01","26","12:00","-6.1","","-6.7","","95","","","","28","","11","","1.2","","98.79","","","","-11","","Snow Grains,Fog"
"-111.96","60.02","FORT SMITH A","2202201","2020-01-26 13:00","2020","01","26","13:00","-6.3","","-6.9","","95","","","","28","","12","","1.2","","98.84","","","","-11","","Snow Grains,Fog"
"-111.96","60.02","FORT SMITH A","2202201","2020-01-26 14:00","2020","01","26","14:00","-6.3","","-6.9","","95","","","","29","","16","","1.6","","98.86","","","","-12","","Snow Grains,Fog"
"-111.96","60.02","FORT SMITH A","2202201","2020-01-26 15:00","2020","01","26","15:00","-7.0","","-7.8","","94","","","","30","","10","","12.9","","98.90","","","","-12","","Snow Grains"
"-111.96","60.02","FORT SMITH A","2202201","2020-01-26 16:00","2020","01","26","16:00","-7.4","","-8.2","","94","","","","34","","8","","24.1","","98.90","","","","-11","","Snow Grains"
"-111.96","60.02","FORT SMITH A","2202201","2020-01-26 17:00","2020","01","26","17:00","-7.7","","-8.5","","94","","","","31","","7","","24.1","","98.95","","","","-11","","Snow Grains"
"-111.96","60.02","FORT SMITH A","2202201","2020-01-26 18:00","2020","01","26","18:00","-7.8","","-8.6","","94","","","","32","","3","","24.1","","98.96","","","","-9","","Snow Grains"
"-111.96","60.02","FORT SMITH A","2202201","2020-01-26 19:00","2020","01","26","19:00","-7.9","","-8.7","","94","","","","3","","6","","24.1","","98.94","","","","-11","","Snow"
"-111.96","60.02","FORT SMITH A","2202201","2020-01-26 20:00","2020","01","26","20:00","-7.9","","-8.7","","94","","","","20","","3","","16.1","","98.96","","","","-9","","Snow Grains"
"-111.96","60.02","FORT SMITH A","2202201","2020-01-26 21:00","2020","01","26","21:00","-8.0","","-8.9","","94","","","","14","","6","","24.1","","98.93","","","","-11","","Snow,Snow Grains"
"-111.96","60.02","FORT SMITH A","2202201","2020-01-26 22:00","2020","01","26","22:00","-8.0","","-8.9","","94","","","","13","","6","","24.1","","98.85","","","","-11","","Snow Grains"
"-111.96","60.02","FORT SMITH A","2202201","2020-01-26 23:00","2020","01","26","23:00","-7.7","","-8.5","","94","","","","15","","8","","1.6","","98.82","","","","-12","","Snow Grains,Fog"
"-111.96","60.02","FORT SMITH A","2202201","2020-01-27 00:00","2020","01","27","00:00","-7.2","","-8.0","","94","","","","14","","7","","2.0","","98.76","","","","-11","","Snow Grains,Fog"
"-111.96","60.02","FORT SMITH A","2202201","2020-01-27 01:00","2020","01","27","01:00","-7.1","","-7.9","","94","","","","13","","9","","19.3","","98.70","","","","-11","","Snow Grains"
"-111.96","60.02","FORT SMITH A","2202201","2020-01-27 02:00","2020","01","27","02:00","-7.1","","-7.9","","94","","","","12","","10","","24.1","","98.68","","","","-12","","Snow Grains"
"-111.96","60.02","FORT SMITH A","2202201","2020-01-27 03:00","2020","01","27","03:00","-7.4","","-8.2","","94","","","","13","","9","","24.1","","98.63","","","","-12","","Snow Grains"
"-111.96","60.02","FORT SMITH A","2202201","2020-01-27 04:00","2020","01","27","04:00","-7.6","","-8.4","","94","","","","14","","13","","24.1","","98.60","","","","-13","","Snow"
"-111.96","60.02","FORT SMITH A","2202201","2020-01-27 05:00","2020","01","27","05:00","-7.7","","-8.5","","94","","","","14","","11","","24.1","","98.56","","","","-13","","Snow"
"-111.96","60.02","FORT SMITH A","2202201","2020-01-27 06:00","2020","01","27","06:00","-7.7","","-8.5","","94","","","","13","","14","","24.1","","98.50","","","","-14","","NA"
"-111.96","60.02","FORT SMITH A","2202201","2020-01-27 07:00","2020","01","27","07:00","-7.3","","-8.1","","94","","","","14","","16","","24.1","","98.49","","","","-14","","NA"
"-111.96","60.02","FORT SMITH A","2202201","2020-01-27 08:00","2020","01","27","08:00","-7.3","","-8.1","","94","","","","15","","21","","24.1","","98.44","","","","-15","","Cloudy"
"-111.96","60.02","FORT SMITH A","2202201","2020-01-27 09:00","2020","01","27","09:00","-7.8","","-8.6","","94","","","","15","","24","","24.1","","98.44","","","","-16","","NA"
"-111.96","60.02","FORT SMITH A","2202201","2020-01-27 10:00","2020","01","27","10:00","-7.2","","-8.0","","94","","","","15","","18","","2.4","","98.42","","","","-14","","Snow,Fog"
"-111.96","60.02","FORT SMITH A","2202201","2020-01-27 11:00","2020","01","27","11:00","-6.2","","-6.9","","95","","","","15","","21","","3.2","","98.40","","","","-13","","Snow,Fog"
"-111.96","60.02","FORT SMITH A","2202201","2020-01-27 12:00","2020","01","27","12:00","-4.8","","-5.3","","96","","","","16","","23","","4.8","","98.36","","","","-12","","Snow,Fog"
"-111.96","60.02","FORT SMITH A","2202201","2020-01-27 13:00","2020","01","27","13:00","-4.2","","-4.7","","97","","","","16","","23","","12.9","","98.34","","","","-11","","Snow"
"-111.96","60.02","FORT SMITH A","2202201","2020-01-27 14:00","2020","01","27","14:00","-3.7","","-4.0","","97","","","","16","","22","","19.3","","98.32","","","","-10","","Snow"
"-111.96","60.02","FORT SMITH A","2202201","2020-01-27 15:00","2020","01","27","15:00","-3.2","","-3.5","","98","","","","15","","21","","19.3","","98.31","","","","-9","","Snow"
"-111.96","60.02","FORT SMITH A","2202201","2020-01-27 16:00","2020","01","27","16:00","-2.9","","-3.2","","98","","","","16","","18","","19.3","","98.32","","","","-9","","Snow"
"-111.96","60.02","FORT SMITH A","2202201","2020-01-27 17:00","2020","01","27","17:00","-2.7","","-3.0","","98","","","","16","","15","","24.1","","98.37","","","","-8","","Cloudy"
"-111.96","60.02","FORT SMITH A","2202201","2020-01-27 18:00","2020","01","27","18:00","-2.6","","-2.9","","98","","","","16","","14","","24.1","","98.35","","","","-7","","NA"
"-111.96","60.02","FORT SMITH A","2202201","2020-01-27 19:00","2020","01","27","19:00","-2.5","","-2.8","","98","","","","16","","16","","24.1","","98.32","","","","-8","","NA"
"-111.96","60.02","FORT SMITH A","2202201","2020-01-27 20:00","2020","01","27","20:00","-2.5","","-2.8","","98","","","","16","","17","","24.1","","98.27","","","","-8","","Snow"
"-111.96","60.02","FORT SMITH A","2202201","2020-01-27 21:00","2020","01","27","21:00","-2.8","","-3.1","","98","","","","15","","14","","24.1","","98.28","","","","-8","","Snow"
"-111.96","60.02","FORT SMITH A","2202201","2020-01-27 22:00","2020","01","27","22:00","-3.8","","-4.1","","97","","","","15","","14","","24.1","","98.24","","","","-9","","Snow"
"-111.96","60.02","FORT SMITH A","2202201","2020-01-27 23:00","2020","01","27","23:00","-5.0","","-5.4","","96","","","","14","","11","","24.1","","98.23","","","","-10","","Mostly Cloudy"
"-111.96","60.02","FORT SMITH A","2202201","2020-01-28 00:00","2020","01","28","00:00","-5.9","","-6.5","","96","","","","15","","8","","24.1","","98.22","","","","-10","","NA"
"-111.96","60.02","FORT SMITH A","2202201","2020-01-28 01:00","2020","01","28","01:00","-6.5","","-7.2","","95","","","","14","","7","","24.1","","98.22","","","","-10","","NA"
"-111.96","60.02","FORT SMITH A","2202201","2020-01-28 02:00","2020","01","28","02:00","-7.3","","-8.0","","94","","","","14","","8","","24.1","","98.20","","","","-11","","Clear"
"-111.96","60.02","FORT SMITH A","2202201","2020-01-28 03:00","2020","01","28","03:00","-7.2","","-8.0","","95","","","","14","","9","","24.1","","98.20","","","","-12","","NA"
"-111.96","60.02","FORT SMITH A","2202201","2020-01-28 04:00","2020","01","28","04:00","-8.0","","-8.8","","94","","","","14","","6","","24.1","","98.17","","","","-11","","NA"
"-111.96","60.02","FORT SMITH A","2202201","2020-01-28 05:00","2020","01","28","05:00","-11.1","","-12.3","","91","","","","23","","11","","24.1","","98.24","","","","-17","","Clear"
"-111.96","60.02","FORT SMITH A","2202201","2020-01-28 06:00","2020","01","28","06:00","-9.7","","-10.7","","92","","","","30","","8","","24.1","","98.28","","","","-14","","NA"
"-111.96","60.02","FORT SMITH A","2202201","2020-01-28 07:00","2020","01","28","07:00","-9.4","","-10.4","","93","","","","25","","5","","2.4","","98.31","","","","-12","","Fog"
"-111.96","60.02","FORT SMITH A","2202201","2020-01-28 08:00","2020","01","28","08:00","-10.6","","-11.8","","91","","","","24","","10","","0.8","","98.39","","","","-16","","Freezing Fog"
"-111.96","60.02","FORT SMITH A","2202201","2020-01-28 09:00","2020","01","28","09:00","-10.2","","-11.2","","92","","","","26","","7","","0.8","","98.45","","","","-14","","Freezing Fog"
"-111.96","60.02","FORT SMITH A","2202201","2020-01-28 10:00","2020","01","28","10:00","-9.9","","-11.0","","92","","","","23","","5","","8.1","","98.50","","","","-13","","Fog"
"-111.96","60.02","FORT SMITH A","2202201","2020-01-28 11:00","2020","01","28","11:00","-9.5","","-10.5","","92","","","","29","","7","","24.1","","98.56","","","","-13","","Cloudy"
"-111.96","60.02","FORT SMITH A","2202201","2020-01-28 12:00","2020","01","28","12:00","-9.5","","-10.5","","92","","","","30","","13","","24.1","","98.62","","","","-16","","NA"
"-111.96","60.02","FORT SMITH A","2202201","2020-01-28 13:00","2020","01","28","13:00","-9.5","","-10.6","","92","","","","27","","6","","24.1","","98.67","","","","-13","","NA"
"-111.96","60.02","FORT SMITH A","2202201","2020-01-28 14:00","2020","01","28","14:00","-9.6","","-10.7","","92","","","","30","","7","","24.1","","98.69","","","","-14","","Mostly Cloudy"
"-111.96","60.02","FORT SMITH A","2202201","2020-01-28 15:00","2020","01","28","15:00","-10.1","","-11.2","","91","","","","29","","5","","24.1","","98.75","","","","-13","","NA"
"-111.96","60.02","FORT SMITH A","2202201","2020-01-28 16:00","2020","01","28","16:00","-11.2","","-12.5","","90","","","","33","","3","","24.1","","98.79","","","","-13","","NA"
"-111.96","60.02","FORT SMITH A","2202201","2020-01-28 17:00","2020","01","28","17:00","-13.2","","-14.6","","89","","","","36","","3","","24.1","","98.85","","","","-15","","Mainly Clear"
"-111.96","60.02","FORT SMITH A","2202201","2020-01-28 18:00","2020","01","28","18:00","-12.8","","-14.2","","90","","","","13","","3","","24.1","","98.85","","","","-15","","NA"
"-111.96","60.02","FORT SMITH A","2202201","2020-01-28 19:00","2020","01","28","19:00","-12.1","","-13.4","","90","","","","36","","2","","24.1","","98.87","","","","-13","","NA"
"-111.96","60.02","FORT SMITH A","2202201","2020-01-28 20:00","2020","01","28","20:00","-11.7","","-13.0","","90","","","","15","","7","","24.1","","98.85","","","","-16","","Cloudy"
"-111.96","60.02","FORT SMITH A","2202201","2020-01-28 21:00","2020","01","28","21:00","-10.5","","-11.6","","91","","","","14","","10","","2.4","","98.83","","","","-16","","Fog"
"-111.96","60.02","FORT SMITH A","2202201","2020-01-28 22:00","2020","01","28","22:00","-10.8","","-12.0","","91","","","","14","","7","","2.8","","98.82","","","","-15","","Fog"
"-111.96","60.02","FORT SMITH A","2202201","2020-01-28 23:00","2020","01","28","23:00","-12.5","","-13.9","","89","","","","36","","3","","24.1","","98.83","","","","-14","","Mainly Clear"
"-111.96","60.02","FORT SMITH A","2202201","2020-01-29 00:00","2020","01","29","00:00","-11.2","","-12.4","","91","","","","13","","5","","24.1","","98.80","","","","-14","","NA"
"-111.96","60.02","FORT SMITH A","2202201","2020-01-29 01:00","2020","01","29","01:00","-11.5","","-12.8","","90","","","","14","","7","","24.1","","98.77","","","","-16","","NA"
"-111.96","60.02","FORT SMITH A","2202201","2020-01-29 02:00","2020","01","29","02:00","-12.4","","-13.7","","90","","","","10","","3","","24.1","","98.73","","","","-14","","Cloudy"
"-111.96","60.02","FORT SMITH A","2202201","2020-01-29 03:00","2020","01","29","03:00","-12.5","","-13.9","","90","","","","13","","6","","9.7","","98.69","","","","-16","","Fog"
"-111.96","60.02","FORT SMITH A","2202201","2020-01-29 04:00","2020","01","29","04:00","-13.9","","-15.5","","88","","","","12","","5","","24.1","","98.64","","","","-17","","NA"
"-111.96","60.02","FORT SMITH A","2202201","2020-01-29 05:00","2020","01","29","05:00","-12.7","","-14.0","","90","","","","13","","8","","24.1","","98.58","","","","-18","","Mainly Clear"
"-111.96","60.02","FORT SMITH A","2202201","2020-01-29 06:00","2020","01","29","06:00","-12.7","","-14.1","","89","","","","13","","10","","24.1","","98.52","","","","-18","","NA"
"-111.96","60.02","FORT SMITH A","2202201","2020-01-29 07:00","2020","01","29","07:00","-13.1","","-14.6","","89","","","","14","","10","","24.1","","98.40","","","","-19","","NA"
"-111.96","60.02","FORT SMITH A","2202201","2020-01-29 08:00","2020","01","29","08:00","-13.4","","-14.9","","88","","","","13","","13","","24.1","","98.27","","","","-20","","Clear"
"-111.96","60.02","FORT SMITH A","2202201","2020-01-29 09:00","2020","01","29","09:00","-12.6","","-14.0","","89","","","","14","","13","","24.1","","98.17","","","","-19","","NA"
"-111.96","60.02","FORT SMITH A","2202201","2020-01-29 10:00","2020","01","29","10:00","-11.7","","-13.0","","90","","","","14","","17","","24.1","","98.10","","","","-19","","NA"
"-111.96","60.02","FORT SMITH A","2202201","2020-01-29 11:00","2020","01","29","11:00","-10.5","","-11.6","","91","","","","14","","19","","24.1","","97.96","","","","-18","","Mostly Cloudy"
"-111.96","60.02","FORT SMITH A","2202201","2020-01-29 12:00","2020","01","29","12:00","-9.2","","-10.2","","92","","","","14","","17","","24.1","","97.82","","","","-16","","NA"
"-111.96","60.02","FORT SMITH A","2202201","2020-01-29 13:00","2020","01","29","13:00","-8.0","","-8.9","","93","","","","14","","18","","24.1","","97.67","","","","-15","","NA"
"-111.96","60.02","FORT SMITH A","2202201","2020-01-29 14:00","2020","01","29","14:00","-6.9","","-7.6","","94","","","","14","","19","","24.1","","97.47","","","","-14","","Cloudy"
"-111.96","60.02","FORT SMITH A","2202201","2020-01-29 15:00","2020","01","29","15:00","-5.6","","-6.2","","95","","","","14","","16","","24.1","","97.28","","","","-12","","NA"
"-111.96","60.02","FORT SMITH A","2202201","2020-01-29 16:00","2020","01","29","16:00","-4.7","","-5.2","","96","","","","14","","25","","24.1","","97.15","","","","-12","","NA"
"-111.96","60.02","FORT SMITH A","2202201","2020-01-29 17:00","2020","01","29","17:00","-4.5","","-5.0","","96","","","","15","","22","","24.1","","97.01","","","","-11","","Cloudy"
"-111.96","60.02","FORT SMITH A","2202201","2020-01-29 18:00","2020","01","29","18:00","-4.2","","-4.7","","97","","","","16","","21","","19.3","","96.97","","","","-11","","Snow"
"-111.96","60.02","FORT SMITH A","2202201","2020-01-29 19:00","2020","01","29","19:00","-3.9","","-4.4","","97","","","","17","","18","","9.7","","96.95","","","","-10","","Snow,Blowing Snow"
"-111.96","60.02","FORT SMITH A","2202201","2020-01-29 20:00","2020","01","29","20:00","-3.6","","-4.0","","97","","","","16","","14","","9.7","","96.84","","","","-9","","Snow,Blowing Snow"
"-111.96","60.02","FORT SMITH A","2202201","2020-01-29 21:00","2020","01","29","21:00","-3.3","","-3.7","","97","","","","18","","18","","19.3","","96.83","","","","-9","","Snow,Blowing Snow"
"-111.96","60.02","FORT SMITH A","2202201","2020-01-29 22:00","2020","01","29","22:00","-3.2","","-3.6","","97","","","","16","","16","","24.1","","96.77","","","","-9","","Snow"
"-111.96","60.02","FORT SMITH A","2202201","2020-01-29 23:00","2020","01","29","23:00","-3.8","","-4.2","","97","","","","15","","9","","24.1","","96.76","","","","-8","","Mostly Cloudy"
"-111.96","60.02","FORT SMITH A","2202201","2020-01-30 00:00","2020","01","30","00:00","-4.2","","-4.6","","97","","","","16","","10","","24.1","","96.79","","","","-8","","NA"
"-111.96","60.02","FORT SMITH A","2202201","2020-01-30 01:00","2020","01","30","01:00","-4.9","","-5.4","","96","","","","16","","7","","24.1","","96.86","","","","-8","","NA"
"-111.96","60.02","FORT SMITH A","2202201","2020-01-30 02:00","2020","01","30","02:00","-4.8","","-5.3","","96","","","","16","","7","","24.1","","96.90","","","","-8","","Mostly Cloudy"
"-111.96","60.02","FORT SMITH A","2202201","2020-01-30 03:00","2020","01","30","03:00","-5.4","","-5.8","","96","","","","22","","5","","24.1","","96.96","","","","-8","","NA"
"-111.96","60.02","FORT SMITH A","2202201","2020-01-30 04:00","2020","01","30","04:00","-7.5","","-8.3","","94","","","","28","","6","","24.1","","97.06","","","","-11","","NA"
"-111.96","60.02","FORT SMITH A","2202201","2020-01-30 05:00","2020","01","30","05:00","-6.2","","-6.9","","95","","","","36","","1","","24.1","","97.15","","","","-7","","Clear"
"-111.96","60.02","FORT SMITH A","2202201","2020-01-30 06:00","2020","01","30","06:00","-9.7","","-10.6","","93","","","","36","","3","","19.3","","97.25","","","","-11","","NA"
"-111.96","60.02","FORT SMITH A","2202201","2020-01-30 07:00","2020","01","30","07:00","-10.0","","-11.1","","92","","","","18","","6","","0.6","","97.37","","","","-14","","Freezing Fog"
"-111.96","60.02","FORT SMITH A","2202201","2020-01-30 08:00","2020","01","30","08:00","-11.1","","-12.3","","91","","","","36","","2","","0.8","","97.43","","","","-12","","Freezing Fog"
"-111.96","60.02","FORT SMITH A","2202201","2020-01-30 09:00","2020","01","30","09:00","-11.4","","-12.6","","91","","","","36","","2","","24.1","","97.48","","","","-13","","NA"
"-111.96","60.02","FORT SMITH A","2202201","2020-01-30 10:00","2020","01","30","10:00","-11.6","","-12.7","","91","","","","17","","5","","24.1","","97.51","","","","-15","","NA"
"-111.96","60.02","FORT SMITH A","2202201","2020-01-30 11:00","2020","01","30","11:00","-8.6","","-9.5","","93","","","","17","","5","","24.1","","97.57","","","","-11","","Clear"
"-111.96","60.02","FORT SMITH A","2202201","2020-01-30 12:00","2020","01","30","12:00","-6.0","","-6.7","","95","","","","20","","10","","24.1","","97.61","","","","-10","","NA"
"-111.96","60.02","FORT SMITH A","2202201","2020-01-30 13:00","2020","01","30","13:00","-4.3","","-4.8","","96","","","","22","","15","","24.1","","97.61","","","","-10","","NA"
"-111.96","60.02","FORT SMITH A","2202201","2020-01-30 14:00","2020","01","30","14:00","-4.4","","-4.9","","96","","","","23","","15","","24.1","","97.63","","","","-10","","Clear"
"-111.96","60.02","FORT SMITH A","2202201","2020-01-30 15:00","2020","01","30","15:00","-2.6","","-4.1","","89","","","","21","","12","","24.1","","97.60","","","","-7","","NA"
"-111.96","60.02","FORT SMITH A","2202201","2020-01-30 16:00","2020","01","30","16:00","-3.0","","-6.0","","80","","","","19","","12","","24.1","","97.60","","","","-7","","NA"
"-111.96","60.02","FORT SMITH A","2202201","2020-01-30 17:00","2020","01","30","17:00","-6.1","","-7.5","","90","","","","16","","9","","24.1","","97.46","","","","-10","","Mainly Clear"
"-111.96","60.02","FORT SMITH A","2202201","2020-01-30 18:00","2020","01","30","18:00","-6.1","","-7.1","","92","","","","18","","12","","24.1","","97.45","","","","-11","","NA"
"-111.96","60.02","FORT SMITH A","2202201","2020-01-30 19:00","2020","01","30","19:00","-5.4","","-6.3","","93","","","","15","","11","","24.1","","97.30","","","","-10","","NA"
"-111.96","60.02","FORT SMITH A","2202201","2020-01-30 20:00","2020","01","30","20:00","-5.6","","-6.7","","92","","","","14","","9","","24.1","","97.13","","","","-10","","Mostly Cloudy"
"-111.96","60.02","FORT SMITH A","2202201","2020-01-30 21:00","2020","01","30","21:00","-4.8","","-6.3","","89","","","","13","","10","","24.1","","97.01","","","","-9","","NA"
"-111.96","60.02","FORT SMITH A","2202201","2020-01-30 22:00","2020","01","30","22:00","-5.1","","-6.8","","88","","","","14","","12","","24.1","","96.92","","","","-10","","NA"
"-111.96","60.02","FORT SMITH A","2202201","2020-01-30 23:00","2020","01","30","23:00","-4.2","","-6.3","","85","","","","15","","17","","19.3","","96.83","","","","-10","","Snow"
"-111.96","60.02","FORT SMITH A","2202201","2020-01-31 00:00","2020","01","31","00:00","-3.5","","-5.7","","85","","","","15","","10","","19.3","","96.67","","","","-7","","Snow"
"-111.96","60.02","FORT SMITH A","2202201","2020-01-31 01:00","2020","01","31","01:00","-2.8","","-3.6","","94","","","","14","","13","","6.4","","96.45","","","","-7","","Snow"
"-111.96","60.02","FORT SMITH A","2202201","2020-01-31 02:00","2020","01","31","02:00","-2.1","","-2.5","","97","","","","16","","10","","2.0","","96.36","","","","-6","","Snow"
"-111.96","60.02","FORT SMITH A","2202201","2020-01-31 03:00","2020","01","31","03:00","-1.7","","-2.1","","97","","","","16","","11","","2.4","","96.29","","","","-6","","Snow"
"-111.96","60.02","FORT SMITH A","2202201","2020-01-31 04:00","2020","01","31","04:00","-1.5","","-1.9","","97","","","","15","","11","","4.8","","96.24","","","","-5","","Snow"
"-111.96","60.02","FORT SMITH A","2202201","2020-01-31 05:00","2020","01","31","05:00","-1.5","","-1.8","","97","","","","20","","7","","9.7","","96.23","","","","-4","","Snow"
"-111.96","60.02","FORT SMITH A","2202201","2020-01-31 06:00","2020","01","31","06:00","-0.7","","-1.0","","98","","","","25","","14","","4.8","","96.28","","","","-5","","Snow,Snow Grains"
"-111.96","60.02","FORT SMITH A","2202201","2020-01-31 07:00","2020","01","31","07:00","-6.6","","-8.3","","87","","","","29","","39","","4.8","","96.52","","","","-16","","Snow,Blowing Snow"
"-111.96","60.02","FORT SMITH A","2202201","2020-01-31 08:00","2020","01","31","08:00","-12.6","","-14.9","","83","","","","29","","40","","3.2","","96.82","","","","-24","","Snow,Blowing Snow"
"-111.96","60.02","FORT SMITH A","2202201","2020-01-31 09:00","2020","01","31","09:00","-15.3","","-18.2","","79","","","","28","","43","","16.1","","97.02","","","","-28","","Snow,Blowing Snow"
"-111.96","60.02","FORT SMITH A","2202201","2020-01-31 10:00","2020","01","31","10:00","-15.8","","-18.6","","79","","","","28","","26","","24.1","","97.21","","","","-26","","Blowing Snow"
"-111.96","60.02","FORT SMITH A","2202201","2020-01-31 11:00","2020","01","31","11:00","-16.4","","-19.7","","76","","","","30","","36","","24.1","","97.35","","","","-29","","Blowing Snow"
"-111.96","60.02","FORT SMITH A","2202201","2020-01-31 12:00","2020","01","31","12:00","-16.8","","-20.1","","76","","","","30","","34","","24.1","","97.49","","","","-29","","Blowing Snow"
"-111.96","60.02","FORT SMITH A","2202201","2020-01-31 13:00","2020","01","31","13:00","-16.4","","-19.5","","77","","","","30","","30","","24.1","","97.55","","","","-28","","Snow,Blowing Snow"
"-111.96","60.02","FORT SMITH A","2202201","2020-01-31 14:00","2020","01","31","14:00","-15.6","","-18.9","","76","","","","29","","23","","8.1","","97.62","","","","-26","","Snow,Blowing Snow"
"-111.96","60.02","FORT SMITH A","2202201","2020-01-31 15:00","2020","01","31","15:00","-15.3","","-18.8","","75","","","","30","","17","","24.1","","97.72","","","","-24","","Blowing Snow"
"-111.96","60.02","FORT SMITH A","2202201","2020-01-31 16:00","2020","01","31","16:00","-16.1","","-19.2","","77","","","","29","","18","","24.1","","97.82","","","","-25","","Blowing Snow"
"-111.96","60.02","FORT SMITH A","2202201","2020-01-31 17:00","2020","01","31","17:00","-17.1","","-19.9","","79","","","","28","","15","","24.1","","97.85","","","","-26","","Clear"
"-111.96","60.02","FORT SMITH A","2202201","2020-01-31 18:00","2020","01","31","18:00","-18.1","","-20.5","","82","","","","30","","8","","24.1","","97.86","","","","-24","","NA"
"-111.96","60.02","FORT SMITH A","2202201","2020-01-31 19:00","2020","01","31","19:00","-19.9","","-21.8","","85","","","","29","","5","","24.1","","97.89","","","","-24","","NA"
"-111.96","60.02","FORT SMITH A","2202201","2020-01-31 20:00","2020","01","31","20:00","-19.7","","-21.6","","85","","","","33","","5","","24.1","","97.86","","","","-24","","Clear"
"-111.96","60.02","FORT SMITH A","2202201","2020-01-31 21:00","2020","01","31","21:00","-22.9","","-24.7","","85","","","","35","","4","","24.1","","97.82","","","","-27","","NA"
"-111.96","60.02","FORT SMITH A","2202201","2020-01-31 22:00","2020","01","31","22:00","-22.1","","-24.1","","84","","","","30","","4","","24.1","","97.84","","","","-26","","NA"
"-111.96","60.02","FORT SMITH A","2202201","2020-01-31 23:00","2020","01","31","23:00","-24.6","","-26.9","","82","","","","","","0","","24.1","","97.80","","","","","","Clear"
