"Longitude (x)","Latitude (y)","Station Name","Climate ID","Date/Time (LST)","Year","Month","Day","Time (LST)","Temp (°C)","Temp Flag","Dew Point Temp (°C)","Dew Point Temp Flag","Rel Hum (%)","Rel Hum Flag","Precip. Amount (mm)","Precip. Amount Flag","Wind Dir (10s deg)","Wind Dir Flag","Wind Spd (km/h)","Wind Spd Flag","Visibility (km)","Visibility Flag","Stn Press (kPa)","Stn Press Flag","Hmdx","Hmdx Flag","Wind Chill","Wind Chill Flag","Weather"
"-111.96","60.02","FORT SMITH A","2202201","2020-04-01 00:00","2020","04","01","00:00","-17.6","","-26.6","","46","","","","5","","7","","24.1","","101.27","","","","-23","","NA"
"-111.96","60.02","FORT SMITH A","2202201","2020-04-01 01:00","2020","04","01","01:00","-19.0","","-26.9","","50","","","","4","","14","","24.1","","101.27","","","","-28","","NA"
"-111.96","60.02","FORT SMITH A","2202201","2020-04-01 02:00","2020","04","01","02:00","-20.2","","-28.1","","50","","","","2","","9","","24.1","","101.32","","","","-27","","Cloudy"
"-111.96","60.02","FORT SMITH A","2202201","2020-04-01 03:00","2020","04","01","03:00","-20.8","","-28.2","","52","","","","3","","14","","24.1","","101.29","","","","-30","","NA"
"-111.96","60.02","FORT SMITH A","2202201","2020-04-01 04:00","2020","04","01","04:00","-20.3","","-29.1","","46","","","","4","","20","","24.1","","101.26","","","","-31","","NA"
"-111.96","60.02","FORT SMITH A","2202201","2020-04-01 05:00","2020","04","01","05:00","-20.5","","-29.1","","47","","","","4","","21","","24.1","","101.28","","","","-31","","Mostly Cloudy"
"-111.96","60.02","FORT SMITH A","2202201","2020-04-01 06:00","2020","04","01","06:00","-21.2","","-28.4","","53","","","","3","","22","","24.1","","101.30","","","","-32","","NA"
"-111.96","60.02","FORT SMITH A","2202201","2020-04-01 07:00","2020","04","01","07:00","-20.8","","-27.9","","54","","","","3","","16","","24.1","","101.32","","","","-30","","NA"
"-111.96","60.02","FORT SMITH A","2202201","2020-04-01 08:00","2020","04","01","08:00","-19.6","","-27.4","","51","","","","4","","16","","24.1","","101.31","","","","-29","","Mostly Cloudy"
"-111.96","60.02","FORT SMITH A","2202201","2020-04-01 09:00","2020","04","01","09:00","-18.5","","-27.2","","47","","","","4","","20","","24.1","","101.28","","","","-29","","NA"
"-111.96","60.02","FORT SMITH A","2202201","2020-04-01 10:00","2020","04","01","10:00","-17.9","","-26.6","","47","","","","2","","22","","24.1","","101.23","","","","-28","","NA"
"-111.96","60.02","FORT SMITH A","2202201","2020-04-01 11:00","2020","04","01","11:00","-17.3","","-26.2","","47","","","","3","","22","","24.1","","101.20","","","","-28","","Cloudy"
"-111.96","60.02","FORT SMITH A","2202201","2020-04-01 12:00","2020","04","01","12:00","-17.3","","-23.0","","62","","","","2","","25","","2.4","","101.20","","","","-28","","Snow Showers,Blowing Snow"
"-111.96","60.02","FORT SMITH A","2202201","2020-04-01 13:00","2020","04","01","13:00","-16.9","","-21.3","","69","","","","1","","18","","2.0","","101.17","","","","-26","","Snow,Blowing Snow"
"-111.96","60.02","FORT SMITH A","2202201","2020-04-01 14:00","2020","04","01","14:00","-17.1","","-21.4","","70","","","","1","","21","","2.0","","101.19","","","","-27","","Snow,Blowing Snow"
"-111.96","60.02","FORT SMITH A","2202201","2020-04-01 15:00","2020","04","01","15:00","-16.6","","-20.7","","71","","","","36","","14","","1.6","","101.16","","","","-25","","Snow,Blowing Snow"
"-111.96","60.02","FORT SMITH A","2202201","2020-04-01 16:00","2020","04","01","16:00","-16.4","","-20.5","","71","","","","1","","21","","2.0","","101.12","","","","-26","","Snow,Blowing Snow"
"-111.96","60.02","FORT SMITH A","2202201","2020-04-01 17:00","2020","04","01","17:00","-16.5","","-20.8","","70","","","","1","","23","","2.0","","101.15","","","","-27","","Snow,Blowing Snow"
"-111.96","60.02","FORT SMITH A","2202201","2020-04-01 18:00","2020","04","01","18:00","-16.8","","-21.1","","70","","","","1","","22","","4.8","","101.11","","","","-27","","Snow,Blowing Snow"
"-111.96","60.02","FORT SMITH A","2202201","2020-04-01 19:00","2020","04","01","19:00","-17.4","","-21.7","","69","","","","1","","24","","9.7","","101.05","","","","-28","","Snow,Blowing Snow"
"-111.96","60.02","FORT SMITH A","2202201","2020-04-01 20:00","2020","04","01","20:00","-17.8","","-21.2","","75","","","","1","","19","","24.1","","101.09","","","","-27","","Cloudy"
"-111.96","60.02","FORT SMITH A","2202201","2020-04-01 21:00","2020","04","01","21:00","-19.0","","-22.8","","72","","","","3","","25","","4.8","","101.07","","","","-30","","Snow,Blowing Snow"
"-111.96","60.02","FORT SMITH A","2202201","2020-04-01 22:00","2020","04","01","22:00","-19.6","","-23.3","","73","","","","3","","19","","4.8","","101.06","","","","-30","","Snow,Blowing Snow"
"-111.96","60.02","FORT SMITH A","2202201","2020-04-01 23:00","2020","04","01","23:00","-20.1","","-23.8","","73","","","","2","","19","","9.7","","100.98","","","","-30","","Snow,Blowing Snow"
"-111.96","60.02","FORT SMITH A","2202201","2020-04-02 00:00","2020","04","02","00:00","-20.4","","-24.3","","72","","","","5","","14","","9.7","","101.00","","","","-29","","Snow"
"-111.96","60.02","FORT SMITH A","2202201","2020-04-02 01:00","2020","04","02","01:00","-20.9","","-25.5","","67","","","","5","","8","","9.7","","101.00","","","","-27","","Snow,Blowing Snow"
"-111.96","60.02","FORT SMITH A","2202201","2020-04-02 02:00","2020","04","02","02:00","-22.0","","-26.4","","68","","","","3","","10","","19.3","","100.96","","","","-30","","Snow,Blowing Snow"
"-111.96","60.02","FORT SMITH A","2202201","2020-04-02 03:00","2020","04","02","03:00","-23.0","","-27.1","","70","","","","1","","7","","24.1","","100.93","","","","-29","","NA"
"-111.96","60.02","FORT SMITH A","2202201","2020-04-02 04:00","2020","04","02","04:00","-22.8","","-26.5","","72","","","","2","","10","","24.1","","100.91","","","","-31","","NA"
"-111.96","60.02","FORT SMITH A","2202201","2020-04-02 05:00","2020","04","02","05:00","-22.8","","-26.2","","74","","","","36","","7","","24.1","","100.92","","","","-29","","Cloudy"
"-111.96","60.02","FORT SMITH A","2202201","2020-04-02 06:00","2020","04","02","06:00","-23.6","","-26.5","","78","","","","34","","8","","24.1","","100.89","","","","-30","","NA"
"-111.96","60.02","FORT SMITH A","2202201","2020-04-02 07:00","2020","04","02","07:00","-23.7","","-26.5","","78","","","","34","","10","","24.1","","100.85","","","","-32","","NA"
"-111.96","60.02","FORT SMITH A","2202201","2020-04-02 08:00","2020","04","02","08:00","-22.8","","-26.4","","73","","","","35","","9","","24.1","","100.80","","","","-30","","Mostly Cloudy"
"-111.96","60.02","FORT SMITH A","2202201","2020-04-02 09:00","2020","04","02","09:00","-21.9","","-26.1","","70","","","","32","","15","","24.1","","100.71","","","","-31","","NA"
"-111.96","60.02","FORT SMITH A","2202201","2020-04-02 10:00","2020","04","02","10:00","-21.1","","-25.6","","68","","","","35","","14","","6.4","","100.66","","","","-30","","Snow"
"-111.96","60.02","FORT SMITH A","2202201","2020-04-02 11:00","2020","04","02","11:00","-21.0","","-25.2","","69","","","","32","","17","","1.2","","100.58","","","","-31","","Snow,Blowing Snow"
"-111.96","60.02","FORT SMITH A","2202201","2020-04-02 12:00","2020","04","02","12:00","-20.3","","-24.5","","70","","","","33","","19","","1.2","","100.49","","","","-31","","Snow,Blowing Snow"
"-111.96","60.02","FORT SMITH A","2202201","2020-04-02 13:00","2020","04","02","13:00","-20.0","","-24.7","","66","","","","33","","21","","1.6","","100.42","","","","-31","","Snow,Blowing Snow"
"-111.96","60.02","FORT SMITH A","2202201","2020-04-02 14:00","2020","04","02","14:00","-19.1","","-23.5","","69","","","","31","","19","","1.6","","100.31","","","","-29","","Snow,Blowing Snow"
"-111.96","60.02","FORT SMITH A","2202201","2020-04-02 15:00","2020","04","02","15:00","-18.7","","-23.6","","66","","","","32","","18","","1.6","","100.24","","","","-28","","Snow,Blowing Snow"
"-111.96","60.02","FORT SMITH A","2202201","2020-04-02 16:00","2020","04","02","16:00","-18.5","","-22.4","","72","","","","30","","20","","1.6","","100.18","","","","-29","","Snow,Blowing Snow"
"-111.96","60.02","FORT SMITH A","2202201","2020-04-02 17:00","2020","04","02","17:00","-18.5","","-22.3","","73","","","","31","","17","","1.6","","100.09","","","","-28","","Snow,Blowing Snow"
"-111.96","60.02","FORT SMITH A","2202201","2020-04-02 18:00","2020","04","02","18:00","-19.2","","-22.3","","77","","","","29","","21","","0.8","","100.09","","","","-30","","Moderate Snow"
"-111.96","60.02","FORT SMITH A","2202201","2020-04-02 19:00","2020","04","02","19:00","-19.4","","-22.5","","77","","","","29","","17","","1.2","","100.06","","","","-29","","Snow,Blowing Snow"
"-111.96","60.02","FORT SMITH A","2202201","2020-04-02 20:00","2020","04","02","20:00","-20.2","","-23.4","","76","","","","29","","18","","3.2","","100.03","","","","-30","","Snow,Blowing Snow"
"-111.96","60.02","FORT SMITH A","2202201","2020-04-02 21:00","2020","04","02","21:00","-20.7","","-24.0","","75","","","","28","","17","","4.0","","100.01","","","","-31","","Snow,Blowing Snow"
"-111.96","60.02","FORT SMITH A","2202201","2020-04-02 22:00","2020","04","02","22:00","-21.1","","-24.4","","76","","","","26","","13","","16.1","","99.98","","","","-30","","Snow,Blowing Snow"
"-111.96","60.02","FORT SMITH A","2202201","2020-04-02 23:00","2020","04","02","23:00","-22.0","","-25.1","","76","","","","24","","13","","19.3","","99.97","","","","-31","","Snow"
"-111.96","60.02","FORT SMITH A","2202201","2020-04-03 00:00","2020","04","03","00:00","-22.9","","-25.8","","77","","","","22","","10","","16.1","","99.99","","","","-31","","Snow"
"-111.96","60.02","FORT SMITH A","2202201","2020-04-03 01:00","2020","04","03","01:00","-22.8","","-25.8","","77","","","","22","","9","","16.1","","100.00","","","","-30","","Snow"
"-111.96","60.02","FORT SMITH A","2202201","2020-04-03 02:00","2020","04","03","02:00","-22.9","","-25.9","","76","","","","22","","9","","19.3","","99.95","","","","-30","","Snow"
"-111.96","60.02","FORT SMITH A","2202201","2020-04-03 03:00","2020","04","03","03:00","-24.6","","-27.4","","78","","","","16","","8","","19.3","","99.96","","","","-32","","Snow"
"-111.96","60.02","FORT SMITH A","2202201","2020-04-03 04:00","2020","04","03","04:00","-25.7","","-28.4","","78","","","","15","","9","","19.3","","99.96","","","","-33","","Snow"
"-111.96","60.02","FORT SMITH A","2202201","2020-04-03 05:00","2020","04","03","05:00","-26.9","","-29.8","","77","","","","15","","7","","24.1","","99.97","","","","-34","","Mainly Clear"
"-111.96","60.02","FORT SMITH A","2202201","2020-04-03 06:00","2020","04","03","06:00","-27.5","","-30.4","","76","","","","15","","8","","24.1","","99.97","","","","-35","","Ice Crystals"
"-111.96","60.02","FORT SMITH A","2202201","2020-04-03 07:00","2020","04","03","07:00","-26.8","","-29.9","","75","","","","14","","8","","24.1","","99.97","","","","-34","","Ice Crystals"
"-111.96","60.02","FORT SMITH A","2202201","2020-04-03 08:00","2020","04","03","08:00","-24.1","","-27.6","","74","","","","13","","8","","24.1","","99.95","","","","-31","","Ice Crystals"
"-111.96","60.02","FORT SMITH A","2202201","2020-04-03 09:00","2020","04","03","09:00","-20.6","","-25.0","","68","","","","16","","15","","24.1","","99.93","","","","-30","","Ice Crystals"
"-111.96","60.02","FORT SMITH A","2202201","2020-04-03 10:00","2020","04","03","10:00","-19.5","","-24.9","","63","","","","17","","15","","24.1","","99.93","","","","-28","","NA"
"-111.96","60.02","FORT SMITH A","2202201","2020-04-03 11:00","2020","04","03","11:00","-18.0","","-24.6","","57","","","","17","","15","","24.1","","99.86","","","","-27","","Mainly Clear"
"-111.96","60.02","FORT SMITH A","2202201","2020-04-03 12:00","2020","04","03","12:00","-17.0","","-23.5","","58","","","","17","","11","","24.1","","99.85","","","","-24","","NA"
"-111.96","60.02","FORT SMITH A","2202201","2020-04-03 13:00","2020","04","03","13:00","-15.6","","-22.7","","55","","","","18","","21","","24.1","","99.82","","","","-25","","Blowing Snow"
"-111.96","60.02","FORT SMITH A","2202201","2020-04-03 14:00","2020","04","03","14:00","-14.5","","-22.2","","53","","","","15","","16","","24.1","","99.80","","","","-23","","Mainly Clear"
"-111.96","60.02","FORT SMITH A","2202201","2020-04-03 15:00","2020","04","03","15:00","-13.4","","-21.6","","51","","","","17","","11","","24.1","","99.79","","","","-20","","NA"
"-111.96","60.02","FORT SMITH A","2202201","2020-04-03 16:00","2020","04","03","16:00","-12.9","","-21.2","","51","","","","18","","17","","24.1","","99.77","","","","-21","","NA"
"-111.96","60.02","FORT SMITH A","2202201","2020-04-03 17:00","2020","04","03","17:00","-12.2","","-20.6","","50","","","","15","","13","","24.1","","99.75","","","","-19","","Mainly Clear"
"-111.96","60.02","FORT SMITH A","2202201","2020-04-03 18:00","2020","04","03","18:00","-12.4","","-20.0","","54","","","","15","","15","","24.1","","99.75","","","","-20","","NA"
"-111.96","60.02","FORT SMITH A","2202201","2020-04-03 19:00","2020","04","03","19:00","-13.3","","-19.2","","62","","","","12","","12","","24.1","","99.73","","","","-20","","NA"
"-111.96","60.02","FORT SMITH A","2202201","2020-04-03 20:00","2020","04","03","20:00","-14.6","","-19.8","","65","","","","12","","8","","24.1","","99.74","","","","-20","","Mainly Clear"
"-111.96","60.02","FORT SMITH A","2202201","2020-04-03 21:00","2020","04","03","21:00","-15.7","","-20.4","","67","","","","13","","6","","24.1","","99.73","","","","-20","","NA"
"-111.96","60.02","FORT SMITH A","2202201","2020-04-03 22:00","2020","04","03","22:00","-16.5","","-20.9","","69","","","","12","","7","","24.1","","99.71","","","","-22","","NA"
"-111.96","60.02","FORT SMITH A","2202201","2020-04-03 23:00","2020","04","03","23:00","-17.2","","-21.9","","68","","","","13","","7","","24.1","","99.69","","","","-22","","Clear"
"-111.96","60.02","FORT SMITH A","2202201","2020-04-04 00:00","2020","04","04","00:00","-18.5","","-22.5","","71","","","","13","","5","","24.1","","99.65","","","","-23","","NA"
"-111.96","60.02","FORT SMITH A","2202201","2020-04-04 01:00","2020","04","04","01:00","-20.1","","-23.3","","76","","","","14","","5","","24.1","","99.65","","","","-24","","NA"
"-111.96","60.02","FORT SMITH A","2202201","2020-04-04 02:00","2020","04","04","02:00","-21.0","","-23.6","","80","","","","36","","2","","24.1","","99.65","","","","-23","","Clear"
"-111.96","60.02","FORT SMITH A","2202201","2020-04-04 03:00","2020","04","04","03:00","-24.1","","-26.3","","83","","","","36","","1","","24.1","","99.59","","","","-25","","NA"
"-111.96","60.02","FORT SMITH A","2202201","2020-04-04 04:00","2020","04","04","04:00","-25.5","","-28.1","","79","","","","36","","3","","24.1","","99.56","","","","-29","","NA"
"-111.96","60.02","FORT SMITH A","2202201","2020-04-04 05:00","2020","04","04","05:00","-25.2","","-28.0","","78","","","","36","","2","","24.1","","99.55","","","","-27","","Mainly Clear"
"-111.96","60.02","FORT SMITH A","2202201","2020-04-04 06:00","2020","04","04","06:00","-25.6","","-28.3","","79","","","","0","","1","","24.1","","99.54","","","","-27","","NA"
"-111.96","60.02","FORT SMITH A","2202201","2020-04-04 07:00","2020","04","04","07:00","-23.2","","-25.7","","80","","","","12","","4","","24.1","","99.53","","","","-27","","NA"
"-111.96","60.02","FORT SMITH A","2202201","2020-04-04 08:00","2020","04","04","08:00","-16.8","","-21.3","","69","","","","14","","13","","24.1","","99.52","","","","-25","","Clear"
"-111.96","60.02","FORT SMITH A","2202201","2020-04-04 09:00","2020","04","04","09:00","-15.5","","-20.7","","65","","","","2","","5","","24.1","","99.52","","","","-19","","NA"
"-111.96","60.02","FORT SMITH A","2202201","2020-04-04 10:00","2020","04","04","10:00","-10.5","","-18.6","","52","","","","9","","6","","24.1","","99.48","","","","-14","","NA"
"-111.96","60.02","FORT SMITH A","2202201","2020-04-04 11:00","2020","04","04","11:00","-7.3","","-17.1","","46","","","","12","","10","","24.1","","99.45","","","","-12","","Clear"
"-111.96","60.02","FORT SMITH A","2202201","2020-04-04 12:00","2020","04","04","12:00","-5.4","","-16.2","","43","","","","11","","11","","24.1","","99.40","","","","-10","","NA"
"-111.96","60.02","FORT SMITH A","2202201","2020-04-04 13:00","2020","04","04","13:00","-4.6","","-15.7","","42","","","","16","","10","","24.1","","99.39","","","","-9","","NA"
"-111.96","60.02","FORT SMITH A","2202201","2020-04-04 14:00","2020","04","04","14:00","-3.9","","-16.9","","36","","","","15","","14","","24.1","","99.38","","","","-9","","Mainly Clear"
"-111.96","60.02","FORT SMITH A","2202201","2020-04-04 15:00","2020","04","04","15:00","-3.6","","-15.6","","39","","","","17","","14","","24.1","","99.34","","","","-9","","NA"
"-111.96","60.02","FORT SMITH A","2202201","2020-04-04 16:00","2020","04","04","16:00","-3.3","","-15.9","","37","","","","18","","13","","24.1","","99.32","","","","-8","","NA"
"-111.96","60.02","FORT SMITH A","2202201","2020-04-04 17:00","2020","04","04","17:00","-3.2","","-14.8","","41","","","","16","","7","","24.1","","99.32","","","","-6","","Mainly Clear"
"-111.96","60.02","FORT SMITH A","2202201","2020-04-04 18:00","2020","04","04","18:00","-4.3","","-15.0","","44","","","","13","","5","","24.1","","99.31","","","","-6","","NA"
"-111.96","60.02","FORT SMITH A","2202201","2020-04-04 19:00","2020","04","04","19:00","-4.0","","-14.8","","43","","","","12","","8","","24.1","","99.33","","","","-7","","NA"
"-111.96","60.02","FORT SMITH A","2202201","2020-04-04 20:00","2020","04","04","20:00","-5.1","","-15.1","","46","","","","9","","7","","24.1","","99.36","","","","-8","","Mostly Cloudy"
"-111.96","60.02","FORT SMITH A","2202201","2020-04-04 21:00","2020","04","04","21:00","-7.0","","-15.7","","51","","","","13","","5","","24.1","","99.35","","","","-10","","NA"
"-111.96","60.02","FORT SMITH A","2202201","2020-04-04 22:00","2020","04","04","22:00","-9.3","","-16.5","","57","","","","12","","4","","24.1","","99.36","","","","-12","","NA"
"-111.96","60.02","FORT SMITH A","2202201","2020-04-04 23:00","2020","04","04","23:00","-11.0","","-16.8","","63","","","","12","","7","","24.1","","99.35","","","","-15","","Mainly Clear"
"-111.96","60.02","FORT SMITH A","2202201","2020-04-05 00:00","2020","04","05","00:00","-11.6","","-17.2","","63","","","","8","","6","","24.1","","99.36","","","","-15","","NA"
"-111.96","60.02","FORT SMITH A","2202201","2020-04-05 01:00","2020","04","05","01:00","-11.3","","-17.3","","62","","","","11","","5","","24.1","","99.33","","","","-14","","NA"
"-111.96","60.02","FORT SMITH A","2202201","2020-04-05 02:00","2020","04","05","02:00","-12.6","","-17.7","","66","","","","36","","3","","24.1","","99.32","","","","-15","","Mostly Cloudy"
"-111.96","60.02","FORT SMITH A","2202201","2020-04-05 03:00","2020","04","05","03:00","-12.1","","-17.9","","63","","","","8","","4","","24.1","","99.30","","","","-15","","NA"
"-111.96","60.02","FORT SMITH A","2202201","2020-04-05 04:00","2020","04","05","04:00","-12.8","","-18.5","","63","","","","7","","4","","24.1","","99.29","","","","-15","","NA"
"-111.96","60.02","FORT SMITH A","2202201","2020-04-05 05:00","2020","04","05","05:00","-13.9","","-18.7","","68","","","","7","","4","","24.1","","99.27","","","","-17","","Mostly Cloudy"
"-111.96","60.02","FORT SMITH A","2202201","2020-04-05 06:00","2020","04","05","06:00","-14.2","","-18.9","","68","","","","10","","3","","24.1","","99.26","","","","-16","","NA"
"-111.96","60.02","FORT SMITH A","2202201","2020-04-05 07:00","2020","04","05","07:00","-12.8","","-18.6","","62","","","","8","","5","","24.1","","99.25","","","","-16","","NA"
"-111.96","60.02","FORT SMITH A","2202201","2020-04-05 08:00","2020","04","05","08:00","-11.2","","-18.0","","57","","","","9","","8","","24.1","","99.25","","","","-16","","Cloudy"
"-111.96","60.02","FORT SMITH A","2202201","2020-04-05 09:00","2020","04","05","09:00","-9.2","","-17.4","","52","","","","11","","6","","24.1","","99.23","","","","-13","","NA"
"-111.96","60.02","FORT SMITH A","2202201","2020-04-05 10:00","2020","04","05","10:00","-7.1","","-16.7","","47","","","","9","","8","","24.1","","99.21","","","","-11","","NA"
"-111.96","60.02","FORT SMITH A","2202201","2020-04-05 11:00","2020","04","05","11:00","-4.7","","-15.4","","43","","","","15","","5","","24.1","","99.18","","","","-7","","Mainly Clear"
"-111.96","60.02","FORT SMITH A","2202201","2020-04-05 12:00","2020","04","05","12:00","-2.8","","-15.3","","38","","","","10","","9","","24.1","","99.14","","","","-6","","NA"
"-111.96","60.02","FORT SMITH A","2202201","2020-04-05 13:00","2020","04","05","13:00","-1.1","","-12.7","","41","","","","15","","11","","24.1","","99.08","","","","-5","","NA"
"-111.96","60.02","FORT SMITH A","2202201","2020-04-05 14:00","2020","04","05","14:00","-0.2","","-12.6","","39","","","","18","","12","","24.1","","99.05","","","","-4","","Mainly Clear"
"-111.96","60.02","FORT SMITH A","2202201","2020-04-05 15:00","2020","04","05","15:00","0.0","","-12.9","","37","","","","17","","13","","24.1","","99.01","","","","-4","","NA"
"-111.96","60.02","FORT SMITH A","2202201","2020-04-05 16:00","2020","04","05","16:00","-0.3","","-12.8","","39","","","","20","","12","","24.1","","98.98","","","","-4","","NA"
"-111.96","60.02","FORT SMITH A","2202201","2020-04-05 17:00","2020","04","05","17:00","-0.2","","-12.8","","38","","","","13","","10","","24.1","","98.96","","","","-4","","Mostly Cloudy"
"-111.96","60.02","FORT SMITH A","2202201","2020-04-05 18:00","2020","04","05","18:00","-1.1","","-11.4","","46","","","","13","","5","","24.1","","98.94","","","","-3","","NA"
"-111.96","60.02","FORT SMITH A","2202201","2020-04-05 19:00","2020","04","05","19:00","-1.2","","-12.3","","43","","","","12","","8","","24.1","","98.93","","","","-4","","NA"
"-111.96","60.02","FORT SMITH A","2202201","2020-04-05 20:00","2020","04","05","20:00","-2.2","","-12.0","","47","","","","12","","8","","24.1","","98.94","","","","-5","","Mostly Cloudy"
"-111.96","60.02","FORT SMITH A","2202201","2020-04-05 21:00","2020","04","05","21:00","-3.0","","-12.2","","49","","","","12","","8","","24.1","","98.96","","","","-6","","NA"
"-111.96","60.02","FORT SMITH A","2202201","2020-04-05 22:00","2020","04","05","22:00","-3.9","","-12.1","","53","","","","14","","9","","24.1","","98.94","","","","-8","","NA"
"-111.96","60.02","FORT SMITH A","2202201","2020-04-05 23:00","2020","04","05","23:00","-4.9","","-12.2","","57","","","","11","","7","","24.1","","98.90","","","","-8","","Mainly Clear"
"-111.96","60.02","FORT SMITH A","2202201","2020-04-06 00:00","2020","04","06","00:00","-5.6","","-12.2","","60","","","","11","","6","","24.1","","98.87","","","","-8","","NA"
"-111.96","60.02","FORT SMITH A","2202201","2020-04-06 01:00","2020","04","06","01:00","-5.3","","-12.9","","55","","","","12","","13","","24.1","","98.83","","","","-10","","NA"
"-111.96","60.02","FORT SMITH A","2202201","2020-04-06 02:00","2020","04","06","02:00","-6.2","","-13.7","","56","","","","13","","9","","24.1","","98.81","","","","-10","","Mainly Clear"
"-111.96","60.02","FORT SMITH A","2202201","2020-04-06 03:00","2020","04","06","03:00","-6.2","","-14.1","","54","","","","13","","13","","24.1","","98.76","","","","-12","","NA"
"-111.96","60.02","FORT SMITH A","2202201","2020-04-06 04:00","2020","04","06","04:00","-7.5","","-14.4","","58","","","","12","","11","","24.1","","98.73","","","","-13","","NA"
"-111.96","60.02","FORT SMITH A","2202201","2020-04-06 05:00","2020","04","06","05:00","-7.8","","-14.2","","60","","","","13","","10","","24.1","","98.68","","","","-13","","Mainly Clear"
"-111.96","60.02","FORT SMITH A","2202201","2020-04-06 06:00","2020","04","06","06:00","-7.1","","-11.2","","73","","","","13","","10","","16.1","","98.65","","","","-12","","Snow"
"-111.96","60.02","FORT SMITH A","2202201","2020-04-06 07:00","2020","04","06","07:00","-7.4","","-11.3","","74","","","","12","","12","","24.1","","98.64","","","","-13","","Snow"
"-111.96","60.02","FORT SMITH A","2202201","2020-04-06 08:00","2020","04","06","08:00","-6.5","","-10.8","","72","","","","14","","13","","9.7","","98.58","","","","-12","","Snow"
"-111.96","60.02","FORT SMITH A","2202201","2020-04-06 09:00","2020","04","06","09:00","-5.3","","-9.1","","75","","","","14","","19","","6.4","","98.50","","","","-12","","Snow,Blowing Snow"
"-111.96","60.02","FORT SMITH A","2202201","2020-04-06 10:00","2020","04","06","10:00","-3.8","","-8.7","","69","","","","13","","17","","19.3","","98.40","","","","-10","","Snow,Blowing Snow"
"-111.96","60.02","FORT SMITH A","2202201","2020-04-06 11:00","2020","04","06","11:00","-3.1","","-9.0","","64","","","","11","","11","","24.1","","98.31","","","","-7","","Snow"
"-111.96","60.02","FORT SMITH A","2202201","2020-04-06 12:00","2020","04","06","12:00","-2.4","","-9.1","","60","","","","15","","20","","24.1","","98.24","","","","-8","","NA"
"-111.96","60.02","FORT SMITH A","2202201","2020-04-06 13:00","2020","04","06","13:00","-2.3","","-9.3","","59","","","","12","","18","","24.1","","98.14","","","","-8","","Snow Showers"
"-111.96","60.02","FORT SMITH A","2202201","2020-04-06 14:00","2020","04","06","14:00","-2.5","","-9.9","","57","","","","12","","19","","24.1","","98.06","","","","-8","","Snow Showers,Blowing Snow"
"-111.96","60.02","FORT SMITH A","2202201","2020-04-06 15:00","2020","04","06","15:00","-2.4","","-9.2","","59","","","","13","","18","","24.1","","97.98","","","","-8","","Snow Showers,Blowing Snow"
"-111.96","60.02","FORT SMITH A","2202201","2020-04-06 16:00","2020","04","06","16:00","-2.5","","-8.0","","66","","","","11","","12","","19.3","","97.94","","","","-7","","Snow Showers,Blowing Snow"
"-111.96","60.02","FORT SMITH A","2202201","2020-04-06 17:00","2020","04","06","17:00","-2.7","","-7.3","","71","","","","14","","14","","12.9","","97.92","","","","-8","","Snow Showers,Blowing Snow"
"-111.96","60.02","FORT SMITH A","2202201","2020-04-06 18:00","2020","04","06","18:00","-3.9","","-6.9","","80","","","","12","","14","","4.8","","97.89","","","","-9","","Snow Showers,Blowing Snow"
"-111.96","60.02","FORT SMITH A","2202201","2020-04-06 19:00","2020","04","06","19:00","-4.4","","-7.8","","77","","","","12","","11","","24.1","","97.89","","","","-9","","Snow"
"-111.96","60.02","FORT SMITH A","2202201","2020-04-06 20:00","2020","04","06","20:00","-5.1","","-8.1","","80","","","","12","","8","","19.3","","97.88","","","","-9","","Snow"
"-111.96","60.02","FORT SMITH A","2202201","2020-04-06 21:00","2020","04","06","21:00","-5.3","","-8.0","","81","","","","11","","9","","19.3","","97.85","","","","-9","","Snow"
"-111.96","60.02","FORT SMITH A","2202201","2020-04-06 22:00","2020","04","06","22:00","-5.5","","-8.1","","82","","","","10","","7","","19.3","","97.81","","","","-9","","Snow"
"-111.96","60.02","FORT SMITH A","2202201","2020-04-06 23:00","2020","04","06","23:00","-5.6","","-7.9","","84","","","","11","","7","","19.3","","97.78","","","","-9","","Snow"
"-111.96","60.02","FORT SMITH A","2202201","2020-04-07 00:00","2020","04","07","00:00","-5.8","","-7.8","","86","","","","9","","7","","19.3","","97.75","","","","-9","","Snow Showers"
"-111.96","60.02","FORT SMITH A","2202201","2020-04-07 01:00","2020","04","07","01:00","-6.0","","-7.4","","90","","","","10","","3","","2.0","","97.74","","","","-7","","Snow Showers"
"-111.96","60.02","FORT SMITH A","2202201","2020-04-07 02:00","2020","04","07","02:00","-6.3","","-7.9","","88","","","","9","","4","","19.3","","97.74","","","","-8","","Snow Showers"
"-111.96","60.02","FORT SMITH A","2202201","2020-04-07 03:00","2020","04","07","03:00","-6.6","","-8.0","","90","","","","7","","5","","19.3","","97.75","","","","-9","","Snow"
"-111.96","60.02","FORT SMITH A","2202201","2020-04-07 04:00","2020","04","07","04:00","-7.0","","-8.3","","90","","","","5","","3","","19.3","","97.78","","","","-9","","Snow"
"-111.96","60.02","FORT SMITH A","2202201","2020-04-07 05:00","2020","04","07","05:00","-7.5","","-8.9","","90","","","","5","","4","","24.1","","97.81","","","","-10","","Snow"
"-111.96","60.02","FORT SMITH A","2202201","2020-04-07 06:00","2020","04","07","06:00","-8.2","","-9.5","","90","","","","4","","5","","24.1","","97.84","","","","-11","","NA"
"-111.96","60.02","FORT SMITH A","2202201","2020-04-07 07:00","2020","04","07","07:00","-8.4","","-10.0","","89","","","","2","","5","","24.1","","97.91","","","","-11","","NA"
"-111.96","60.02","FORT SMITH A","2202201","2020-04-07 08:00","2020","04","07","08:00","-7.6","","-9.6","","86","","","","2","","6","","24.1","","97.93","","","","-11","","Cloudy"
"-111.96","60.02","FORT SMITH A","2202201","2020-04-07 09:00","2020","04","07","09:00","-5.9","","-8.6","","82","","","","35","","9","","24.1","","97.97","","","","-10","","NA"
"-111.96","60.02","FORT SMITH A","2202201","2020-04-07 10:00","2020","04","07","10:00","-4.8","","-8.0","","78","","","","36","","13","","24.1","","98.01","","","","-10","","NA"
"-111.96","60.02","FORT SMITH A","2202201","2020-04-07 11:00","2020","04","07","11:00","-3.8","","-8.3","","71","","","","34","","12","","24.1","","98.08","","","","-8","","Cloudy"
"-111.96","60.02","FORT SMITH A","2202201","2020-04-07 12:00","2020","04","07","12:00","-2.6","","-8.4","","65","","","","32","","9","","24.1","","98.08","","","","-6","","NA"
"-111.96","60.02","FORT SMITH A","2202201","2020-04-07 13:00","2020","04","07","13:00","-1.0","","-8.6","","57","","","","30","","21","","24.1","","98.12","","","","-7","","NA"
"-111.96","60.02","FORT SMITH A","2202201","2020-04-07 14:00","2020","04","07","14:00","-0.6","","-9.5","","51","","","","33","","21","","24.1","","98.20","","","","-6","","Mostly Cloudy"
"-111.96","60.02","FORT SMITH A","2202201","2020-04-07 15:00","2020","04","07","15:00","-1.1","","-9.6","","53","","","","32","","23","","24.1","","98.26","","","","-7","","Blowing Snow"
"-111.96","60.02","FORT SMITH A","2202201","2020-04-07 16:00","2020","04","07","16:00","-1.5","","-8.6","","58","","","","34","","23","","24.1","","98.35","","","","-8","","Snow Showers,Blowing Snow"
"-111.96","60.02","FORT SMITH A","2202201","2020-04-07 17:00","2020","04","07","17:00","-2.1","","-9.0","","60","","","","34","","28","","19.3","","98.45","","","","-9","","Snow Showers,Blowing Snow"
"-111.96","60.02","FORT SMITH A","2202201","2020-04-07 18:00","2020","04","07","18:00","-3.1","","-8.7","","65","","","","32","","26","","19.3","","98.55","","","","-10","","Snow Showers,Blowing Snow"
"-111.96","60.02","FORT SMITH A","2202201","2020-04-07 19:00","2020","04","07","19:00","-4.0","","-7.0","","80","","","","32","","26","","4.8","","98.66","","","","-11","","Snow Showers,Blowing Snow"
"-111.96","60.02","FORT SMITH A","2202201","2020-04-07 20:00","2020","04","07","20:00","-4.5","","-6.6","","85","","","","31","","20","","4.8","","98.74","","","","-11","","Snow Showers,Blowing Snow"
"-111.96","60.02","FORT SMITH A","2202201","2020-04-07 21:00","2020","04","07","21:00","-4.7","","-6.6","","87","","","","32","","20","","4.8","","98.79","","","","-11","","Snow,Blowing Snow"
"-111.96","60.02","FORT SMITH A","2202201","2020-04-07 22:00","2020","04","07","22:00","-4.6","","-6.5","","87","","","","31","","17","","4.0","","98.84","","","","-10","","Snow,Blowing Snow"
"-111.96","60.02","FORT SMITH A","2202201","2020-04-07 23:00","2020","04","07","23:00","-4.7","","-6.9","","85","","","","33","","19","","16.1","","98.90","","","","-11","","Snow,Blowing Snow"
"-111.96","60.02","FORT SMITH A","2202201","2020-04-08 00:00","2020","04","08","00:00","-5.0","","-6.7","","88","","","","32","","17","","9.7","","98.95","","","","-11","","Snow,Blowing Snow"
"-111.96","60.02","FORT SMITH A","2202201","2020-04-08 01:00","2020","04","08","01:00","-5.3","","-7.6","","84","","","","32","","30","","19.3","","99.02","","","","-13","","Snow,Blowing Snow"
"-111.96","60.02","FORT SMITH A","2202201","2020-04-08 02:00","2020","04","08","02:00","-5.6","","-8.1","","83","","","","32","","28","","19.3","","99.09","","","","-14","","Snow,Blowing Snow"
"-111.96","60.02","FORT SMITH A","2202201","2020-04-08 03:00","2020","04","08","03:00","-5.4","","-8.6","","78","","","","32","","20","","16.1","","99.16","","","","-12","","Snow,Blowing Snow"
"-111.96","60.02","FORT SMITH A","2202201","2020-04-08 04:00","2020","04","08","04:00","-5.4","","-8.9","","76","","","","33","","23","","16.1","","99.27","","","","-13","","Snow,Blowing Snow"
"-111.96","60.02","FORT SMITH A","2202201","2020-04-08 05:00","2020","04","08","05:00","-6.0","","-9.3","","78","","","","33","","24","","19.3","","99.41","","","","-13","","Snow,Blowing Snow"
"-111.96","60.02","FORT SMITH A","2202201","2020-04-08 06:00","2020","04","08","06:00","-6.6","","-9.4","","80","","","","35","","17","","19.3","","99.54","","","","-13","","Snow,Blowing Snow"
"-111.96","60.02","FORT SMITH A","2202201","2020-04-08 07:00","2020","04","08","07:00","-7.0","","-9.9","","80","","","","34","","17","","24.1","","99.64","","","","-13","","Blowing Snow"
"-111.96","60.02","FORT SMITH A","2202201","2020-04-08 08:00","2020","04","08","08:00","-6.8","","-10.2","","77","","","","32","","16","","24.1","","99.73","","","","-13","","Snow,Blowing Snow"
"-111.96","60.02","FORT SMITH A","2202201","2020-04-08 09:00","2020","04","08","09:00","-6.4","","-10.5","","73","","","","34","","20","","24.1","","99.83","","","","-13","","Snow,Blowing Snow"
"-111.96","60.02","FORT SMITH A","2202201","2020-04-08 10:00","2020","04","08","10:00","-5.0","","-10.5","","66","","","","33","","20","","24.1","","99.91","","","","-12","","Snow,Blowing Snow"
"-111.96","60.02","FORT SMITH A","2202201","2020-04-08 11:00","2020","04","08","11:00","-4.1","","-10.3","","62","","","","33","","17","","24.1","","99.96","","","","-10","","Mainly Clear"
"-111.96","60.02","FORT SMITH A","2202201","2020-04-08 12:00","2020","04","08","12:00","-2.7","","-10.3","","56","","","","33","","19","","24.1","","100.01","","","","-8","","NA"
"-111.96","60.02","FORT SMITH A","2202201","2020-04-08 13:00","2020","04","08","13:00","-1.6","","-11.0","","49","","","","34","","20","","24.1","","99.99","","","","-7","","NA"
"-111.96","60.02","FORT SMITH A","2202201","2020-04-08 14:00","2020","04","08","14:00","-0.9","","-10.9","","47","","","","31","","18","","24.1","","99.98","","","","-6","","Mainly Clear"
"-111.96","60.02","FORT SMITH A","2202201","2020-04-08 15:00","2020","04","08","15:00","-0.8","","-10.1","","49","","","","32","","9","","24.1","","99.96","","","","-4","","NA"
"-111.96","60.02","FORT SMITH A","2202201","2020-04-08 16:00","2020","04","08","16:00","-1.0","","-10.2","","50","","","","1","","14","","24.1","","99.96","","","","-5","","NA"
"-111.96","60.02","FORT SMITH A","2202201","2020-04-08 17:00","2020","04","08","17:00","-1.0","","-10.6","","48","","","","2","","11","","24.1","","99.96","","","","-5","","Mostly Cloudy"
"-111.96","60.02","FORT SMITH A","2202201","2020-04-08 18:00","2020","04","08","18:00","-3.4","","-10.0","","60","","","","36","","6","","24.1","","99.93","","","","-6","","NA"
"-111.96","60.02","FORT SMITH A","2202201","2020-04-08 19:00","2020","04","08","19:00","-2.9","","-11.3","","53","","","","3","","4","","24.1","","99.86","","","","-4","","NA"
"-111.96","60.02","FORT SMITH A","2202201","2020-04-08 20:00","2020","04","08","20:00","-6.8","","-10.9","","73","","","","16","","3","","24.1","","99.83","","","","-8","","Mainly Clear"
"-111.96","60.02","FORT SMITH A","2202201","2020-04-08 21:00","2020","04","08","21:00","-9.2","","-12.1","","79","","","","36","","2","","24.1","","99.79","","","","-10","","NA"
"-111.96","60.02","FORT SMITH A","2202201","2020-04-08 22:00","2020","04","08","22:00","-7.4","","-11.4","","73","","","","10","","9","","24.1","","99.68","","","","-12","","NA"
"-111.96","60.02","FORT SMITH A","2202201","2020-04-08 23:00","2020","04","08","23:00","-8.2","","-13.0","","69","","","","13","","7","","24.1","","99.59","","","","-12","","Clear"
"-111.96","60.02","FORT SMITH A","2202201","2020-04-09 00:00","2020","04","09","00:00","-6.3","","-11.8","","65","","","","14","","13","","24.1","","99.53","","","","-12","","NA"
"-111.96","60.02","FORT SMITH A","2202201","2020-04-09 01:00","2020","04","09","01:00","-6.7","","-11.9","","67","","","","13","","12","","24.1","","99.43","","","","-12","","NA"
"-111.96","60.02","FORT SMITH A","2202201","2020-04-09 02:00","2020","04","09","02:00","-7.6","","-12.1","","71","","","","14","","13","","24.1","","99.30","","","","-13","","Mainly Clear"
"-111.96","60.02","FORT SMITH A","2202201","2020-04-09 03:00","2020","04","09","03:00","-7.3","","-11.6","","72","","","","14","","17","","24.1","","99.18","","","","-14","","NA"
"-111.96","60.02","FORT SMITH A","2202201","2020-04-09 04:00","2020","04","09","04:00","-6.5","","-11.0","","71","","","","14","","19","","24.1","","99.06","","","","-13","","NA"
"-111.96","60.02","FORT SMITH A","2202201","2020-04-09 05:00","2020","04","09","05:00","-5.5","","-10.8","","66","","","","14","","16","","24.1","","98.86","","","","-11","","Cloudy"
"-111.96","60.02","FORT SMITH A","2202201","2020-04-09 06:00","2020","04","09","06:00","-5.3","","-10.7","","66","","","","14","","14","","24.1","","98.77","","","","-11","","NA"
"-111.96","60.02","FORT SMITH A","2202201","2020-04-09 07:00","2020","04","09","07:00","-4.6","","-10.5","","64","","","","15","","19","","24.1","","98.70","","","","-11","","NA"
"-111.96","60.02","FORT SMITH A","2202201","2020-04-09 08:00","2020","04","09","08:00","-4.2","","-10.6","","61","","","","14","","17","","24.1","","98.59","","","","-10","","Cloudy"
"-111.96","60.02","FORT SMITH A","2202201","2020-04-09 09:00","2020","04","09","09:00","-3.1","","-10.2","","58","","","","14","","18","","24.1","","98.44","","","","-9","","NA"
"-111.96","60.02","FORT SMITH A","2202201","2020-04-09 10:00","2020","04","09","10:00","-2.3","","-9.6","","58","","","","15","","20","","24.1","","98.31","","","","-8","","NA"
"-111.96","60.02","FORT SMITH A","2202201","2020-04-09 11:00","2020","04","09","11:00","-0.8","","-9.1","","53","","","","14","","13","","24.1","","98.29","","","","-5","","Mostly Cloudy"
"-111.96","60.02","FORT SMITH A","2202201","2020-04-09 12:00","2020","04","09","12:00","0.4","","-7.8","","55","","","","16","","13","","24.1","","98.26","","","","","","NA"
"-111.96","60.02","FORT SMITH A","2202201","2020-04-09 13:00","2020","04","09","13:00","1.8","","-6.9","","53","","","","15","","12","","24.1","","98.19","","","","","","NA"
"-111.96","60.02","FORT SMITH A","2202201","2020-04-09 14:00","2020","04","09","14:00","3.5","","-7.1","","46","","","","16","","7","","24.1","","98.19","","","","","","Mostly Cloudy"
"-111.96","60.02","FORT SMITH A","2202201","2020-04-09 15:00","2020","04","09","15:00","4.0","","-7.0","","44","","","","21","","4","","24.1","","98.17","","","","","","NA"
"-111.96","60.02","FORT SMITH A","2202201","2020-04-09 16:00","2020","04","09","16:00","5.4","","-6.5","","42","","","","23","","6","","24.1","","98.15","","","","","","NA"
"-111.96","60.02","FORT SMITH A","2202201","2020-04-09 17:00","2020","04","09","17:00","2.4","","-3.4","","66","","","","34","","14","","24.1","","98.28","","","","","","Snow Showers"
"-111.96","60.02","FORT SMITH A","2202201","2020-04-09 18:00","2020","04","09","18:00","0.4","","-1.3","","88","","","","32","","14","","2.0","","98.38","","","","","","Snow Showers"
"-111.96","60.02","FORT SMITH A","2202201","2020-04-09 19:00","2020","04","09","19:00","-1.6","","-4.3","","82","","","","30","","32","","24.1","","98.51","","","","-9","","NA"
"-111.96","60.02","FORT SMITH A","2202201","2020-04-09 20:00","2020","04","09","20:00","-2.7","","-6.2","","77","","","","29","","36","","19.3","","98.61","","","","-11","","Snow,Blowing Snow"
"-111.96","60.02","FORT SMITH A","2202201","2020-04-09 21:00","2020","04","09","21:00","-3.3","","-6.9","","76","","","","29","","27","","19.3","","98.65","","","","-10","","Snow,Blowing Snow"
"-111.96","60.02","FORT SMITH A","2202201","2020-04-09 22:00","2020","04","09","22:00","-4.0","","-7.2","","79","","","","30","","35","","19.3","","98.71","","","","-12","","Snow,Blowing Snow"
"-111.96","60.02","FORT SMITH A","2202201","2020-04-09 23:00","2020","04","09","23:00","-4.5","","-7.8","","78","","","","30","","25","","16.1","","98.73","","","","-12","","Snow,Blowing Snow"
"-111.96","60.02","FORT SMITH A","2202201","2020-04-10 00:00","2020","04","10","00:00","-4.4","","-7.9","","77","","","","31","","22","","19.3","","98.76","","","","-11","","Snow,Blowing Snow"
"-111.96","60.02","FORT SMITH A","2202201","2020-04-10 01:00","2020","04","10","01:00","-4.8","","-7.8","","80","","","","31","","26","","4.8","","98.78","","","","-12","","Snow Showers,Blowing Snow"
"-111.96","60.02","FORT SMITH A","2202201","2020-04-10 02:00","2020","04","10","02:00","-5.0","","-7.9","","80","","","","30","","23","","2.4","","98.84","","","","-12","","Snow Showers,Blowing Snow"
"-111.96","60.02","FORT SMITH A","2202201","2020-04-10 03:00","2020","04","10","03:00","-5.1","","-7.8","","82","","","","30","","22","","2.4","","98.90","","","","-12","","Snow Showers,Blowing Snow"
"-111.96","60.02","FORT SMITH A","2202201","2020-04-10 04:00","2020","04","10","04:00","-5.4","","-7.7","","84","","","","31","","21","","1.6","","98.97","","","","-12","","Snow Showers,Blowing Snow"
"-111.96","60.02","FORT SMITH A","2202201","2020-04-10 05:00","2020","04","10","05:00","-6.0","","-8.2","","84","","","","31","","17","","2.4","","99.03","","","","-12","","Snow Showers,Blowing Snow"
"-111.96","60.02","FORT SMITH A","2202201","2020-04-10 06:00","2020","04","10","06:00","-6.7","","-9.3","","82","","","","30","","25","","24.1","","99.11","","","","-15","","Blowing Snow"
"-111.96","60.02","FORT SMITH A","2202201","2020-04-10 07:00","2020","04","10","07:00","-8.1","","-10.9","","81","","","","31","","18","","19.3","","99.20","","","","-15","","Snow Showers,Blowing Snow"
"-111.96","60.02","FORT SMITH A","2202201","2020-04-10 08:00","2020","04","10","08:00","-8.2","","-11.2","","80","","","","30","","25","","12.9","","99.24","","","","-16","","Snow Showers,Blowing Snow"
"-111.96","60.02","FORT SMITH A","2202201","2020-04-10 09:00","2020","04","10","09:00","-8.3","","-11.8","","76","","","","32","","23","","9.7","","99.31","","","","-16","","Snow Showers,Blowing Snow"
"-111.96","60.02","FORT SMITH A","2202201","2020-04-10 10:00","2020","04","10","10:00","-7.5","","-12.0","","70","","","","31","","22","","19.3","","99.35","","","","-15","","Snow Showers,Blowing Snow"
"-111.96","60.02","FORT SMITH A","2202201","2020-04-10 11:00","2020","04","10","11:00","-6.7","","-12.3","","65","","","","30","","23","","24.1","","99.40","","","","-14","","Snow Showers,Blowing Snow"
"-111.96","60.02","FORT SMITH A","2202201","2020-04-10 12:00","2020","04","10","12:00","-6.8","","-12.3","","65","","","","31","","20","","24.1","","99.43","","","","-14","","Snow Showers,Blowing Snow"
"-111.96","60.02","FORT SMITH A","2202201","2020-04-10 13:00","2020","04","10","13:00","-6.9","","-12.2","","66","","","","30","","27","","4.8","","99.50","","","","-15","","Snow Showers,Blowing Snow"
"-111.96","60.02","FORT SMITH A","2202201","2020-04-10 14:00","2020","04","10","14:00","-7.4","","-12.6","","67","","","","30","","33","","4.8","","99.56","","","","-17","","Snow Showers,Blowing Snow"
"-111.96","60.02","FORT SMITH A","2202201","2020-04-10 15:00","2020","04","10","15:00","-7.6","","-13.3","","64","","","","30","","31","","19.3","","99.61","","","","-17","","Snow Showers,Blowing Snow"
"-111.96","60.02","FORT SMITH A","2202201","2020-04-10 16:00","2020","04","10","16:00","-7.3","","-13.6","","61","","","","30","","27","","19.3","","99.65","","","","-16","","Snow Showers,Blowing Snow"
"-111.96","60.02","FORT SMITH A","2202201","2020-04-10 17:00","2020","04","10","17:00","-7.5","","-13.1","","65","","","","33","","21","","9.7","","99.70","","","","-15","","Snow Showers,Blowing Snow"
"-111.96","60.02","FORT SMITH A","2202201","2020-04-10 18:00","2020","04","10","18:00","-7.3","","-13.2","","63","","","","31","","19","","9.7","","99.72","","","","-14","","Snow Showers,Blowing Snow"
"-111.96","60.02","FORT SMITH A","2202201","2020-04-10 19:00","2020","04","10","19:00","-7.8","","-14.5","","59","","","","32","","13","","24.1","","99.75","","","","-14","","Blowing Snow"
"-111.96","60.02","FORT SMITH A","2202201","2020-04-10 20:00","2020","04","10","20:00","-8.6","","-14.6","","62","","","","33","","14","","24.1","","99.79","","","","-15","","Snow,Blowing Snow"
"-111.96","60.02","FORT SMITH A","2202201","2020-04-10 21:00","2020","04","10","21:00","-9.7","","-14.9","","66","","","","33","","8","","24.1","","99.85","","","","-14","","Snow,Blowing Snow"
"-111.96","60.02","FORT SMITH A","2202201","2020-04-10 22:00","2020","04","10","22:00","-10.1","","-14.8","","69","","","","31","","8","","24.1","","99.88","","","","-15","","Snow"
"-111.96","60.02","FORT SMITH A","2202201","2020-04-10 23:00","2020","04","10","23:00","-11.4","","-14.3","","80","","","","30","","9","","19.3","","99.87","","","","-17","","Snow"
"-111.96","60.02","FORT SMITH A","2202201","2020-04-11 00:00","2020","04","11","00:00","-12.4","","-14.3","","86","","","","29","","10","","24.1","","99.86","","","","-18","","Snow"
"-111.96","60.02","FORT SMITH A","2202201","2020-04-11 01:00","2020","04","11","01:00","-12.4","","-13.9","","88","","","","29","","10","","19.3","","99.86","","","","-18","","Snow"
"-111.96","60.02","FORT SMITH A","2202201","2020-04-11 02:00","2020","04","11","02:00","-12.4","","-13.8","","89","","","","29","","9","","24.1","","99.87","","","","-18","","Snow"
"-111.96","60.02","FORT SMITH A","2202201","2020-04-11 03:00","2020","04","11","03:00","-11.1","","-12.9","","87","","","","30","","14","","19.3","","99.86","","","","-18","","Snow"
"-111.96","60.02","FORT SMITH A","2202201","2020-04-11 04:00","2020","04","11","04:00","-11.2","","-13.2","","86","","","","30","","12","","12.9","","99.86","","","","-17","","Snow Showers"
"-111.96","60.02","FORT SMITH A","2202201","2020-04-11 05:00","2020","04","11","05:00","-11.3","","-13.2","","86","","","","30","","15","","6.4","","99.88","","","","-18","","Snow Showers"
"-111.96","60.02","FORT SMITH A","2202201","2020-04-11 06:00","2020","04","11","06:00","-11.3","","-13.7","","83","","","","31","","13","","4.8","","99.92","","","","-18","","Snow Showers"
"-111.96","60.02","FORT SMITH A","2202201","2020-04-11 07:00","2020","04","11","07:00","-11.2","","-13.5","","83","","","","30","","16","","2.4","","99.93","","","","-18","","Snow"
"-111.96","60.02","FORT SMITH A","2202201","2020-04-11 08:00","2020","04","11","08:00","-10.7","","-14.3","","75","","","","33","","17","","24.1","","99.95","","","","-18","","Cloudy"
"-111.96","60.02","FORT SMITH A","2202201","2020-04-11 09:00","2020","04","11","09:00","-10.4","","-15.7","","66","","","","32","","22","","24.1","","99.97","","","","-19","","Blowing Snow"
"-111.96","60.02","FORT SMITH A","2202201","2020-04-11 10:00","2020","04","11","10:00","-9.8","","-17.1","","55","","","","34","","27","","24.1","","100.00","","","","-19","","Blowing Snow"
"-111.96","60.02","FORT SMITH A","2202201","2020-04-11 11:00","2020","04","11","11:00","-9.0","","-17.4","","51","","","","35","","22","","24.1","","100.03","","","","-17","","Blowing Snow"
"-111.96","60.02","FORT SMITH A","2202201","2020-04-11 12:00","2020","04","11","12:00","-8.6","","-17.1","","51","","","","35","","21","","24.1","","100.07","","","","-16","","Blowing Snow"
"-111.96","60.02","FORT SMITH A","2202201","2020-04-11 13:00","2020","04","11","13:00","-7.9","","-17.7","","46","","","","31","","25","","24.1","","100.11","","","","-16","","Blowing Snow"
"-111.96","60.02","FORT SMITH A","2202201","2020-04-11 14:00","2020","04","11","14:00","-7.9","","-18.7","","42","","","","35","","30","","24.1","","100.12","","","","-17","","Blowing Snow"
"-111.96","60.02","FORT SMITH A","2202201","2020-04-11 15:00","2020","04","11","15:00","-7.0","","-18.2","","41","","","","35","","21","","24.1","","100.15","","","","-14","","Blowing Snow"
"-111.96","60.02","FORT SMITH A","2202201","2020-04-11 16:00","2020","04","11","16:00","-6.7","","-18.3","","40","","","","33","","17","","24.1","","100.17","","","","-13","","NA"
"-111.96","60.02","FORT SMITH A","2202201","2020-04-11 17:00","2020","04","11","17:00","-6.8","","-17.4","","43","","","","30","","19","","24.1","","100.18","","","","-14","","Mainly Clear"
"-111.96","60.02","FORT SMITH A","2202201","2020-04-11 18:00","2020","04","11","18:00","-7.4","","-18.1","","42","","","","31","","14","","24.1","","100.22","","","","-13","","Blowing Snow"
"-111.96","60.02","FORT SMITH A","2202201","2020-04-11 19:00","2020","04","11","19:00","-8.7","","-18.6","","45","","","","31","","13","","24.1","","100.25","","","","-15","","Blowing Snow"
"-111.96","60.02","FORT SMITH A","2202201","2020-04-11 20:00","2020","04","11","20:00","-10.0","","-17.6","","54","","","","31","","12","","24.1","","100.28","","","","-16","","Blowing Snow"
"-111.96","60.02","FORT SMITH A","2202201","2020-04-11 21:00","2020","04","11","21:00","-11.2","","-17.3","","61","","","","30","","11","","24.1","","100.28","","","","-17","","NA"
"-111.96","60.02","FORT SMITH A","2202201","2020-04-11 22:00","2020","04","11","22:00","-12.4","","-17.4","","67","","","","30","","13","","24.1","","100.27","","","","-19","","NA"
"-111.96","60.02","FORT SMITH A","2202201","2020-04-11 23:00","2020","04","11","23:00","-12.1","","-16.6","","69","","","","31","","15","","24.1","","100.27","","","","-19","","Mainly Clear"
"-111.96","60.02","FORT SMITH A","2202201","2020-04-12 00:00","2020","04","12","00:00","-12.8","","-16.8","","72","","","","32","","12","","24.1","","100.30","","","","-19","","NA"
"-111.96","60.02","FORT SMITH A","2202201","2020-04-12 01:00","2020","04","12","01:00","-13.9","","-17.7","","74","","","","34","","9","","24.1","","100.33","","","","-20","","NA"
"-111.96","60.02","FORT SMITH A","2202201","2020-04-12 02:00","2020","04","12","02:00","-14.6","","-18.1","","75","","","","33","","10","","24.1","","100.38","","","","-21","","Clear"
"-111.96","60.02","FORT SMITH A","2202201","2020-04-12 03:00","2020","04","12","03:00","-15.2","","-18.9","","74","","","","32","","11","","24.1","","100.41","","","","-22","","NA"
"-111.96","60.02","FORT SMITH A","2202201","2020-04-12 04:00","2020","04","12","04:00","-16.4","","-19.4","","78","","","","32","","9","","24.1","","100.43","","","","-22","","NA"
"-111.96","60.02","FORT SMITH A","2202201","2020-04-12 05:00","2020","04","12","05:00","-18.2","","-20.6","","82","","","","30","","12","","24.1","","100.48","","","","-26","","Clear"
"-111.96","60.02","FORT SMITH A","2202201","2020-04-12 06:00","2020","04","12","06:00","-18.5","","-20.6","","84","","","","30","","14","","24.1","","100.52","","","","-27","","NA"
"-111.96","60.02","FORT SMITH A","2202201","2020-04-12 07:00","2020","04","12","07:00","-16.6","","-20.2","","74","","","","31","","9","","24.1","","100.54","","","","-23","","NA"
"-111.96","60.02","FORT SMITH A","2202201","2020-04-12 08:00","2020","04","12","08:00","-14.7","","-20.0","","64","","","","33","","18","","24.1","","100.55","","","","-23","","Clear"
"-111.96","60.02","FORT SMITH A","2202201","2020-04-12 09:00","2020","04","12","09:00","-13.5","","-19.8","","59","","","","34","","15","","24.1","","100.58","","","","-21","","NA"
"-111.96","60.02","FORT SMITH A","2202201","2020-04-12 10:00","2020","04","12","10:00","-11.6","","-18.9","","56","","","","36","","15","","24.1","","100.58","","","","-19","","NA"
"-111.96","60.02","FORT SMITH A","2202201","2020-04-12 11:00","2020","04","12","11:00","-10.2","","-18.8","","50","","","","32","","18","","24.1","","100.59","","","","-18","","Clear"
"-111.96","60.02","FORT SMITH A","2202201","2020-04-12 12:00","2020","04","12","12:00","-9.2","","-18.1","","49","","","","35","","22","","24.1","","100.59","","","","-17","","NA"
"-111.96","60.02","FORT SMITH A","2202201","2020-04-12 13:00","2020","04","12","13:00","-8.1","","-18.4","","44","","","","32","","13","","24.1","","100.59","","","","-14","","NA"
"-111.96","60.02","FORT SMITH A","2202201","2020-04-12 14:00","2020","04","12","14:00","-7.7","","-18.0","","44","","","","35","","19","","24.1","","100.57","","","","-15","","Clear"
"-111.96","60.02","FORT SMITH A","2202201","2020-04-12 15:00","2020","04","12","15:00","-7.2","","-18.6","","40","","","","1","","16","","24.1","","100.57","","","","-14","","NA"
"-111.96","60.02","FORT SMITH A","2202201","2020-04-12 16:00","2020","04","12","16:00","-6.8","","-18.1","","41","","","","1","","14","","24.1","","100.56","","","","-13","","NA"
"-111.96","60.02","FORT SMITH A","2202201","2020-04-12 17:00","2020","04","12","17:00","-6.6","","-18.7","","38","","","","1","","19","","24.1","","100.57","","","","-13","","Clear"
"-111.96","60.02","FORT SMITH A","2202201","2020-04-12 18:00","2020","04","12","18:00","-6.9","","-18.9","","38","","","","36","","13","","24.1","","100.53","","","","-12","","NA"
"-111.96","60.02","FORT SMITH A","2202201","2020-04-12 19:00","2020","04","12","19:00","-8.1","","-19.3","","41","","","","1","","7","","24.1","","100.50","","","","-12","","NA"
"-111.96","60.02","FORT SMITH A","2202201","2020-04-12 20:00","2020","04","12","20:00","-12.4","","-20.5","","51","","","","6","","4","","24.1","","100.48","","","","-15","","Mainly Clear"
"-111.96","60.02","FORT SMITH A","2202201","2020-04-12 21:00","2020","04","12","21:00","-13.3","","-19.7","","59","","","","15","","4","","24.1","","100.45","","","","-16","","NA"
"-111.96","60.02","FORT SMITH A","2202201","2020-04-12 22:00","2020","04","12","22:00","-15.2","","-20.7","","63","","","","36","","2","","24.1","","100.42","","","","-17","","NA"
"-111.96","60.02","FORT SMITH A","2202201","2020-04-12 23:00","2020","04","12","23:00","-17.0","","-21.3","","70","","","","36","","3","","24.1","","100.37","","","","-19","","Clear"
"-111.96","60.02","FORT SMITH A","2202201","2020-04-13 00:00","2020","04","13","00:00","-19.0","","-23.4","","69","","","","36","","1","","24.1","","100.32","","","","-20","","NA"
"-111.96","60.02","FORT SMITH A","2202201","2020-04-13 01:00","2020","04","13","01:00","-19.4","","-23.1","","73","","","","36","","3","","24.1","","100.29","","","","-22","","NA"
"-111.96","60.02","FORT SMITH A","2202201","2020-04-13 02:00","2020","04","13","02:00","-19.0","","-22.4","","75","","","","15","","5","","24.1","","100.23","","","","-23","","Mainly Clear"
"-111.96","60.02","FORT SMITH A","2202201","2020-04-13 03:00","2020","04","13","03:00","-17.6","","-21.8","","71","","","","14","","4","","24.1","","100.18","","","","-21","","NA"
"-111.96","60.02","FORT SMITH A","2202201","2020-04-13 04:00","2020","04","13","04:00","-17.4","","-21.7","","69","","","","14","","9","","24.1","","100.15","","","","-24","","NA"
"-111.96","60.02","FORT SMITH A","2202201","2020-04-13 05:00","2020","04","13","05:00","-18.3","","-22.6","","69","","","","13","","5","","24.1","","100.10","","","","-22","","Clear"
"-111.96","60.02","FORT SMITH A","2202201","2020-04-13 06:00","2020","04","13","06:00","-17.4","","-22.1","","68","","","","14","","4","","24.1","","100.06","","","","-21","","NA"
"-111.96","60.02","FORT SMITH A","2202201","2020-04-13 07:00","2020","04","13","07:00","-15.7","","-21.2","","63","","","","14","","8","","24.1","","99.99","","","","-21","","NA"
"-111.96","60.02","FORT SMITH A","2202201","2020-04-13 08:00","2020","04","13","08:00","-11.2","","-19.2","","52","","","","13","","10","","24.1","","99.91","","","","-17","","Mainly Clear"
"-111.96","60.02","FORT SMITH A","2202201","2020-04-13 09:00","2020","04","13","09:00","-6.9","","-16.7","","46","","","","17","","16","","24.1","","99.83","","","","-13","","NA"
"-111.96","60.02","FORT SMITH A","2202201","2020-04-13 10:00","2020","04","13","10:00","-5.5","","-16.1","","44","","","","17","","14","","24.1","","99.76","","","","-11","","NA"
"-111.96","60.02","FORT SMITH A","2202201","2020-04-13 11:00","2020","04","13","11:00","-3.7","","-15.0","","41","","","","16","","6","","24.1","","99.68","","","","-6","","Mostly Cloudy"
"-111.96","60.02","FORT SMITH A","2202201","2020-04-13 12:00","2020","04","13","12:00","-2.1","","-14.7","","38","","","","15","","11","","24.1","","99.60","","","","-6","","NA"
"-111.96","60.02","FORT SMITH A","2202201","2020-04-13 13:00","2020","04","13","13:00","-0.6","","-14.3","","35","","","","13","","8","","24.1","","99.53","","","","-3","","NA"
"-111.96","60.02","FORT SMITH A","2202201","2020-04-13 14:00","2020","04","13","14:00","0.5","","-14.1","","33","","","","13","","6","","24.1","","99.48","","","","","","Mostly Cloudy"
"-111.96","60.02","FORT SMITH A","2202201","2020-04-13 15:00","2020","04","13","15:00","1.2","","-12.8","","35","","","","36","","1","","24.1","","99.43","","","","","","NA"
"-111.96","60.02","FORT SMITH A","2202201","2020-04-13 16:00","2020","04","13","16:00","1.9","","-13.4","","31","","","","2","","8","","24.1","","99.36","","","","","","NA"
"-111.96","60.02","FORT SMITH A","2202201","2020-04-13 17:00","2020","04","13","17:00","2.5","","-13.5","","30","","","","6","","5","","24.1","","99.30","","","","","","Clear"
"-111.96","60.02","FORT SMITH A","2202201","2020-04-13 18:00","2020","04","13","18:00","2.2","","-13.0","","32","","","","12","","8","","24.1","","99.28","","","","","","NA"
"-111.96","60.02","FORT SMITH A","2202201","2020-04-13 19:00","2020","04","13","19:00","1.0","","-12.8","","35","","","","36","","3","","24.1","","99.25","","","","","","NA"
"-111.96","60.02","FORT SMITH A","2202201","2020-04-13 20:00","2020","04","13","20:00","-1.8","","-13.2","","42","","","","10","","7","","24.1","","99.26","","","","-4","","Clear"
"-111.96","60.02","FORT SMITH A","2202201","2020-04-13 21:00","2020","04","13","21:00","-3.3","","-13.1","","47","","","","12","","7","","24.1","","99.29","","","","-6","","NA"
"-111.96","60.02","FORT SMITH A","2202201","2020-04-13 22:00","2020","04","13","22:00","-4.8","","-13.7","","50","","","","12","","7","","24.1","","99.29","","","","-8","","NA"
"-111.96","60.02","FORT SMITH A","2202201","2020-04-13 23:00","2020","04","13","23:00","-7.1","","-14.8","","55","","","","10","","5","","24.1","","99.31","","","","-10","","Clear"
"-111.96","60.02","FORT SMITH A","2202201","2020-04-14 00:00","2020","04","14","00:00","-8.6","","-15.6","","57","","","","12","","5","","24.1","","99.31","","","","-11","","NA"
"-111.96","60.02","FORT SMITH A","2202201","2020-04-14 01:00","2020","04","14","01:00","-9.6","","-16.4","","58","","","","12","","7","","24.1","","99.30","","","","-14","","NA"
"-111.96","60.02","FORT SMITH A","2202201","2020-04-14 02:00","2020","04","14","02:00","-10.3","","-17.3","","57","","","","14","","7","","24.1","","99.30","","","","-14","","Clear"
"-111.96","60.02","FORT SMITH A","2202201","2020-04-14 03:00","2020","04","14","03:00","-12.6","","-17.8","","65","","","","12","","4","","24.1","","99.29","","","","-15","","NA"
"-111.96","60.02","FORT SMITH A","2202201","2020-04-14 04:00","2020","04","14","04:00","-13.9","","-18.3","","70","","","","10","","5","","24.1","","99.29","","","","-17","","NA"
"-111.96","60.02","FORT SMITH A","2202201","2020-04-14 05:00","2020","04","14","05:00","-12.8","","-18.2","","64","","","","15","","5","","24.1","","99.26","","","","-16","","Mainly Clear"
"-111.96","60.02","FORT SMITH A","2202201","2020-04-14 06:00","2020","04","14","06:00","-13.8","","-18.4","","68","","","","15","","6","","24.1","","99.31","","","","-18","","NA"
"-111.96","60.02","FORT SMITH A","2202201","2020-04-14 07:00","2020","04","14","07:00","-10.9","","-18.5","","54","","","","14","","7","","24.1","","99.36","","","","-15","","NA"
"-111.96","60.02","FORT SMITH A","2202201","2020-04-14 08:00","2020","04","14","08:00","-8.0","","-17.4","","47","","","","15","","9","","24.1","","99.38","","","","-13","","Mostly Cloudy"
"-111.96","60.02","FORT SMITH A","2202201","2020-04-14 09:00","2020","04","14","09:00","-5.0","","-16.7","","40","","","","14","","9","","24.1","","99.40","","","","-9","","NA"
"-111.96","60.02","FORT SMITH A","2202201","2020-04-14 10:00","2020","04","14","10:00","-3.4","","-15.3","","40","","","","36","","1","","24.1","","99.43","","","","-4","","NA"
"-111.96","60.02","FORT SMITH A","2202201","2020-04-14 11:00","2020","04","14","11:00","-1.6","","-14.6","","37","","","","20","","4","","24.1","","99.45","","","","-3","","Cloudy"
"-111.96","60.02","FORT SMITH A","2202201","2020-04-14 12:00","2020","04","14","12:00","-0.2","","-14.3","","34","","","","34","","3","","24.1","","99.47","","","","-1","","NA"
"-111.96","60.02","FORT SMITH A","2202201","2020-04-14 13:00","2020","04","14","13:00","1.0","","-14.4","","31","","","","","","0","","24.1","","99.51","","","","","","NA"
"-111.96","60.02","FORT SMITH A","2202201","2020-04-14 14:00","2020","04","14","14:00","1.9","","-13.3","","32","","","","36","","3","","24.1","","99.56","","","","","","Cloudy"
"-111.96","60.02","FORT SMITH A","2202201","2020-04-14 15:00","2020","04","14","15:00","2.5","","-11.6","","35","","","","29","","12","","24.1","","99.59","","","","","","NA"
"-111.96","60.02","FORT SMITH A","2202201","2020-04-14 16:00","2020","04","14","16:00","2.6","","-11.8","","34","","","","36","","2","","24.1","","99.63","","","","","","NA"
"-111.96","60.02","FORT SMITH A","2202201","2020-04-14 17:00","2020","04","14","17:00","2.5","","-11.8","","34","","","","2","","13","","24.1","","99.67","","","","","","Cloudy"
"-111.96","60.02","FORT SMITH A","2202201","2020-04-14 18:00","2020","04","14","18:00","2.2","","-11.1","","37","","","","2","","11","","24.1","","99.74","","","","","","NA"
"-111.96","60.02","FORT SMITH A","2202201","2020-04-14 19:00","2020","04","14","19:00","1.5","","-11.3","","38","","","","36","","8","","24.1","","99.80","","","","","","NA"
"-111.96","60.02","FORT SMITH A","2202201","2020-04-14 20:00","2020","04","14","20:00","-0.8","","-8.7","","56","","","","30","","4","","24.1","","99.85","","","","-2","","Cloudy"
"-111.96","60.02","FORT SMITH A","2202201","2020-04-14 21:00","2020","04","14","21:00","-0.9","","-9.7","","51","","","","28","","4","","24.1","","99.89","","","","-2","","NA"
"-111.96","60.02","FORT SMITH A","2202201","2020-04-14 22:00","2020","04","14","22:00","0.1","","-8.8","","52","","","","34","","10","","24.1","","99.96","","","","","","NA"
"-111.96","60.02","FORT SMITH A","2202201","2020-04-14 23:00","2020","04","14","23:00","-1.0","","-3.1","","86","","","","31","","5","","9.7","","100.01","","","","-3","","Snow Showers"
"-111.96","60.02","FORT SMITH A","2202201","2020-04-15 00:00","2020","04","15","00:00","-1.3","","-2.2","","94","","","","34","","13","","1.6","","100.05","","","","-6","","Snow Showers"
"-111.96","60.02","FORT SMITH A","2202201","2020-04-15 01:00","2020","04","15","01:00","-1.8","","-2.7","","93","","","","35","","10","","9.7","","100.10","","","","-5","","Snow Showers"
"-111.96","60.02","FORT SMITH A","2202201","2020-04-15 02:00","2020","04","15","02:00","-2.1","","-3.1","","93","","","","35","","10","","6.4","","100.16","","","","-6","","Snow Showers,Snow Pellets"
"-111.96","60.02","FORT SMITH A","2202201","2020-04-15 03:00","2020","04","15","03:00","-2.8","","-3.8","","93","","","","34","","13","","4.0","","100.23","","","","-7","","Snow Showers"
"-111.96","60.02","FORT SMITH A","2202201","2020-04-15 04:00","2020","04","15","04:00","-3.1","","-4.1","","92","","","","33","","12","","4.8","","100.31","","","","-8","","Snow Showers"
"-111.96","60.02","FORT SMITH A","2202201","2020-04-15 05:00","2020","04","15","05:00","-3.2","","-4.4","","92","","","","33","","9","","24.1","","100.37","","","","-7","","Snow"
"-111.96","60.02","FORT SMITH A","2202201","2020-04-15 06:00","2020","04","15","06:00","-3.1","","-4.2","","93","","","","34","","11","","9.7","","100.43","","","","-7","","Snow Grains"
"-111.96","60.02","FORT SMITH A","2202201","2020-04-15 07:00","2020","04","15","07:00","-4.3","","-6.2","","87","","","","33","","14","","24.1","","100.53","","","","-9","","NA"
"-111.96","60.02","FORT SMITH A","2202201","2020-04-15 08:00","2020","04","15","08:00","-5.0","","-7.4","","83","","","","30","","16","","24.1","","100.58","","","","-11","","Mostly Cloudy"
"-111.96","60.02","FORT SMITH A","2202201","2020-04-15 09:00","2020","04","15","09:00","-4.2","","-7.5","","78","","","","31","","13","","24.1","","100.62","","","","-9","","NA"
"-111.96","60.02","FORT SMITH A","2202201","2020-04-15 10:00","2020","04","15","10:00","-3.5","","-9.7","","62","","","","33","","12","","24.1","","100.64","","","","-8","","NA"
"-111.96","60.02","FORT SMITH A","2202201","2020-04-15 11:00","2020","04","15","11:00","-2.1","","-10.9","","51","","","","33","","13","","24.1","","100.65","","","","-7","","Clear"
"-111.96","60.02","FORT SMITH A","2202201","2020-04-15 12:00","2020","04","15","12:00","-0.6","","-12.4","","41","","","","35","","14","","24.1","","100.61","","","","-5","","NA"
"-111.96","60.02","FORT SMITH A","2202201","2020-04-15 13:00","2020","04","15","13:00","0.3","","-10.4","","44","","","","29","","11","","24.1","","100.56","","","","","","NA"
"-111.96","60.02","FORT SMITH A","2202201","2020-04-15 14:00","2020","04","15","14:00","1.2","","-10.2","","42","","","","29","","14","","24.1","","100.49","","","","","","Clear"
"-111.96","60.02","FORT SMITH A","2202201","2020-04-15 15:00","2020","04","15","15:00","2.0","","-12.4","","34","","","","32","","19","","24.1","","100.44","","","","","","NA"
"-111.96","60.02","FORT SMITH A","2202201","2020-04-15 16:00","2020","04","15","16:00","1.7","","-10.5","","40","","","","28","","17","","24.1","","100.37","","","","","","NA"
"-111.96","60.02","FORT SMITH A","2202201","2020-04-15 17:00","2020","04","15","17:00","1.9","","-10.7","","39","","","","30","","16","","24.1","","100.31","","","","","","Clear"
"-111.96","60.02","FORT SMITH A","2202201","2020-04-15 18:00","2020","04","15","18:00","1.7","","-9.4","","44","","","","30","","17","","24.1","","100.25","","","","","","NA"
"-111.96","60.02","FORT SMITH A","2202201","2020-04-15 19:00","2020","04","15","19:00","1.1","","-8.9","","48","","","","32","","9","","24.1","","100.19","","","","","","NA"
"-111.96","60.02","FORT SMITH A","2202201","2020-04-15 20:00","2020","04","15","20:00","-2.9","","-9.6","","60","","","","2","","3","","24.1","","100.12","","","","-4","","Mostly Cloudy"
"-111.96","60.02","FORT SMITH A","2202201","2020-04-15 21:00","2020","04","15","21:00","-3.8","","-8.0","","72","","","","36","","1","","24.1","","100.05","","","","-4","","NA"
"-111.96","60.02","FORT SMITH A","2202201","2020-04-15 22:00","2020","04","15","22:00","-4.6","","-9.3","","70","","","","14","","3","","24.1","","99.96","","","","-6","","NA"
"-111.96","60.02","FORT SMITH A","2202201","2020-04-15 23:00","2020","04","15","23:00","-6.2","","-9.7","","76","","","","36","","3","","24.1","","99.89","","","","-8","","Mostly Cloudy"
"-111.96","60.02","FORT SMITH A","2202201","2020-04-16 00:00","2020","04","16","00:00","-7.8","","-10.0","","84","","","","14","","3","","24.1","","99.81","","","","-9","","NA"
"-111.96","60.02","FORT SMITH A","2202201","2020-04-16 01:00","2020","04","16","01:00","-5.8","","-10.4","","70","","","","14","","5","","24.1","","99.72","","","","-8","","NA"
"-111.96","60.02","FORT SMITH A","2202201","2020-04-16 02:00","2020","04","16","02:00","-4.7","","-10.7","","63","","","","14","","9","","24.1","","99.62","","","","-9","","Mainly Clear"
"-111.96","60.02","FORT SMITH A","2202201","2020-04-16 03:00","2020","04","16","03:00","-4.9","","-11.0","","63","","","","14","","7","","24.1","","99.49","","","","-8","","NA"
"-111.96","60.02","FORT SMITH A","2202201","2020-04-16 04:00","2020","04","16","04:00","-6.1","","-11.5","","66","","","","18","","3","","24.1","","99.42","","","","-8","","NA"
"-111.96","60.02","FORT SMITH A","2202201","2020-04-16 05:00","2020","04","16","05:00","-6.2","","-12.1","","63","","","","14","","10","","24.1","","99.34","","","","-11","","Mainly Clear"
"-111.96","60.02","FORT SMITH A","2202201","2020-04-16 06:00","2020","04","16","06:00","-6.8","","-12.4","","65","","","","14","","8","","24.1","","99.27","","","","-11","","NA"
"-111.96","60.02","FORT SMITH A","2202201","2020-04-16 07:00","2020","04","16","07:00","-5.3","","-11.8","","61","","","","14","","7","","24.1","","99.19","","","","-9","","NA"
"-111.96","60.02","FORT SMITH A","2202201","2020-04-16 08:00","2020","04","16","08:00","-2.8","","-10.4","","56","","","","14","","9","","24.1","","99.09","","","","-6","","Mostly Cloudy"
"-111.96","60.02","FORT SMITH A","2202201","2020-04-16 09:00","2020","04","16","09:00","-0.1","","-8.6","","53","","","","15","","11","","24.1","","98.95","","","","-4","","NA"
"-111.96","60.02","FORT SMITH A","2202201","2020-04-16 10:00","2020","04","16","10:00","2.7","","-7.7","","46","","","","14","","9","","24.1","","98.84","","","","","","NA"
"-111.96","60.02","FORT SMITH A","2202201","2020-04-16 11:00","2020","04","16","11:00","5.6","","-6.5","","41","","","","16","","13","","24.1","","98.72","","","","","","Mostly Cloudy"
"-111.96","60.02","FORT SMITH A","2202201","2020-04-16 12:00","2020","04","16","12:00","5.7","","-6.2","","42","","","","16","","21","","24.1","","98.61","","","","","","NA"
"-111.96","60.02","FORT SMITH A","2202201","2020-04-16 13:00","2020","04","16","13:00","7.4","","-5.7","","39","","","","15","","18","","24.1","","98.48","","","","","","NA"
"-111.96","60.02","FORT SMITH A","2202201","2020-04-16 14:00","2020","04","16","14:00","8.4","","-4.8","","39","","","","16","","16","","24.1","","98.35","","","","","","Mostly Cloudy"
"-111.96","60.02","FORT SMITH A","2202201","2020-04-16 15:00","2020","04","16","15:00","9.4","","-5.1","","36","","","","18","","15","","24.1","","98.25","","","","","","NA"
"-111.96","60.02","FORT SMITH A","2202201","2020-04-16 16:00","2020","04","16","16:00","8.6","","-4.5","","39","","","","23","","13","","24.1","","98.16","","","","","","NA"
"-111.96","60.02","FORT SMITH A","2202201","2020-04-16 17:00","2020","04","16","17:00","9.2","","-4.8","","37","","","","22","","7","","24.1","","98.09","","","","","","Cloudy"
"-111.96","60.02","FORT SMITH A","2202201","2020-04-16 18:00","2020","04","16","18:00","7.6","","-4.0","","44","","","","23","","9","","24.1","","98.01","","","","","","NA"
"-111.96","60.02","FORT SMITH A","2202201","2020-04-16 19:00","2020","04","16","19:00","7.1","","-4.1","","45","","","","22","","5","","24.1","","97.94","","","","","","NA"
"-111.96","60.02","FORT SMITH A","2202201","2020-04-16 20:00","2020","04","16","20:00","4.7","","-3.0","","57","","","","20","","6","","24.1","","97.86","","","","","","Mostly Cloudy"
"-111.96","60.02","FORT SMITH A","2202201","2020-04-16 21:00","2020","04","16","21:00","2.2","","-3.5","","66","","","","15","","5","","24.1","","97.79","","","","","","NA"
"-111.96","60.02","FORT SMITH A","2202201","2020-04-16 22:00","2020","04","16","22:00","2.0","","-3.0","","70","","","","24","","4","","24.1","","97.74","","","","","","NA"
"-111.96","60.02","FORT SMITH A","2202201","2020-04-16 23:00","2020","04","16","23:00","4.8","","-5.0","","49","","","","33","","7","","24.1","","97.68","","","","","","Mainly Clear"
"-111.96","60.02","FORT SMITH A","2202201","2020-04-17 00:00","2020","04","17","00:00","3.3","","-4.2","","58","","","","8","","4","","24.1","","97.60","","","","","","NA"
"-111.96","60.02","FORT SMITH A","2202201","2020-04-17 01:00","2020","04","17","01:00","2.9","","-4.3","","59","","","","30","","9","","24.1","","97.60","","","","","","NA"
"-111.96","60.02","FORT SMITH A","2202201","2020-04-17 02:00","2020","04","17","02:00","0.6","","-3.5","","74","","","","36","","1","","24.1","","97.56","","","","","","Mostly Cloudy"
"-111.96","60.02","FORT SMITH A","2202201","2020-04-17 03:00","2020","04","17","03:00","0.0","","-4.3","","73","","","","21","","4","","24.1","","97.52","","","","-1","","NA"
"-111.96","60.02","FORT SMITH A","2202201","2020-04-17 04:00","2020","04","17","04:00","2.7","","-3.6","","63","","","","30","","18","","24.1","","97.51","","","","","","NA"
"-111.96","60.02","FORT SMITH A","2202201","2020-04-17 05:00","2020","04","17","05:00","3.1","","-1.4","","72","","","","31","","14","","24.1","","97.55","","","","","","Cloudy"
"-111.96","60.02","FORT SMITH A","2202201","2020-04-17 06:00","2020","04","17","06:00","3.2","","0.4","","82","","","","31","","19","","24.1","","97.59","","","","","","NA"
"-111.96","60.02","FORT SMITH A","2202201","2020-04-17 07:00","2020","04","17","07:00","2.8","","0.2","","83","","","","32","","17","","24.1","","97.69","","","","","","NA"
"-111.96","60.02","FORT SMITH A","2202201","2020-04-17 08:00","2020","04","17","08:00","2.8","","0.0","","81","","","","31","","15","","24.1","","97.75","","","","","","Rain Showers"
"-111.96","60.02","FORT SMITH A","2202201","2020-04-17 09:00","2020","04","17","09:00","1.9","","0.6","","91","","","","33","","19","","6.4","","97.84","","","","","","Rain Showers"
"-111.96","60.02","FORT SMITH A","2202201","2020-04-17 10:00","2020","04","17","10:00","2.1","","-1.2","","78","","","","31","","19","","24.1","","97.91","","","","","","NA"
"-111.96","60.02","FORT SMITH A","2202201","2020-04-17 11:00","2020","04","17","11:00","2.6","","-1.9","","72","","","","33","","22","","19.3","","98.01","","","","","","Rain Showers,Snow Showers"
"-111.96","60.02","FORT SMITH A","2202201","2020-04-17 12:00","2020","04","17","12:00","1.9","","-1.9","","76","","","","34","","24","","9.7","","98.15","","","","","","Snow Showers"
"-111.96","60.02","FORT SMITH A","2202201","2020-04-17 13:00","2020","04","17","13:00","1.9","","-3.9","","66","","","","34","","27","","24.1","","98.29","","","","","","NA"
"-111.96","60.02","FORT SMITH A","2202201","2020-04-17 14:00","2020","04","17","14:00","1.6","","-4.5","","64","","","","34","","27","","24.1","","98.40","","","","","","Mostly Cloudy"
"-111.96","60.02","FORT SMITH A","2202201","2020-04-17 15:00","2020","04","17","15:00","1.4","","-5.0","","63","","","","33","","22","","24.1","","98.52","","","","","","NA"
"-111.96","60.02","FORT SMITH A","2202201","2020-04-17 16:00","2020","04","17","16:00","1.2","","-6.7","","56","","","","34","","23","","24.1","","98.62","","","","","","NA"
"-111.96","60.02","FORT SMITH A","2202201","2020-04-17 17:00","2020","04","17","17:00","0.3","","-7.3","","57","","","","34","","25","","24.1","","98.72","","","","","","Mostly Cloudy"
"-111.96","60.02","FORT SMITH A","2202201","2020-04-17 18:00","2020","04","17","18:00","-0.8","","-8.4","","57","","","","35","","24","","24.1","","98.80","","","","-7","","NA"
"-111.96","60.02","FORT SMITH A","2202201","2020-04-17 19:00","2020","04","17","19:00","-2.3","","-9.8","","57","","","","34","","17","","24.1","","98.89","","","","-8","","NA"
"-111.96","60.02","FORT SMITH A","2202201","2020-04-17 20:00","2020","04","17","20:00","-3.5","","-11.7","","54","","","","34","","14","","24.1","","98.93","","","","-9","","Mostly Cloudy"
"-111.96","60.02","FORT SMITH A","2202201","2020-04-17 21:00","2020","04","17","21:00","-4.4","","-13.2","","51","","","","34","","14","","24.1","","98.97","","","","-10","","NA"
"-111.96","60.02","FORT SMITH A","2202201","2020-04-17 22:00","2020","04","17","22:00","-5.4","","-14.8","","48","","","","33","","10","","24.1","","99.01","","","","-10","","NA"
"-111.96","60.02","FORT SMITH A","2202201","2020-04-17 23:00","2020","04","17","23:00","-6.5","","-14.3","","54","","","","34","","7","","24.1","","99.02","","","","-10","","Mainly Clear"
"-111.96","60.02","FORT SMITH A","2202201","2020-04-18 00:00","2020","04","18","00:00","-7.5","","-16.1","","51","","","","1","","8","","24.1","","99.02","","","","-12","","NA"
"-111.96","60.02","FORT SMITH A","2202201","2020-04-18 01:00","2020","04","18","01:00","-7.1","","-17.4","","44","","","","35","","4","","24.1","","99.03","","","","-9","","Snow"
"-111.96","60.02","FORT SMITH A","2202201","2020-04-18 02:00","2020","04","18","02:00","-7.2","","-17.1","","45","","","","34","","6","","24.1","","99.01","","","","-10","","Snow"
"-111.96","60.02","FORT SMITH A","2202201","2020-04-18 03:00","2020","04","18","03:00","-7.3","","-16.7","","47","","","","3","","4","","24.1","","99.01","","","","-9","","Snow"
"-111.96","60.02","FORT SMITH A","2202201","2020-04-18 04:00","2020","04","18","04:00","-7.7","","-15.5","","54","","","","36","","2","","2.4","","99.01","","","","-9","","Snow Showers"
"-111.96","60.02","FORT SMITH A","2202201","2020-04-18 05:00","2020","04","18","05:00","-8.6","","-12.1","","76","","","","36","","1","","4.0","","98.98","","","","-9","","Snow Showers"
"-111.96","60.02","FORT SMITH A","2202201","2020-04-18 06:00","2020","04","18","06:00","-8.5","","-11.5","","79","","","","36","","1","","19.3","","98.95","","","","-9","","Snow Showers"
"-111.96","60.02","FORT SMITH A","2202201","2020-04-18 07:00","2020","04","18","07:00","-8.2","","-10.6","","83","","","","36","","2","","4.8","","98.94","","","","-9","","Snow Showers"
"-111.96","60.02","FORT SMITH A","2202201","2020-04-18 08:00","2020","04","18","08:00","-7.5","","-10.7","","78","","","","36","","3","","19.3","","98.90","","","","-9","","Snow Showers"
"-111.96","60.02","FORT SMITH A","2202201","2020-04-18 09:00","2020","04","18","09:00","-6.5","","-10.1","","76","","","","36","","3","","24.1","","98.86","","","","-8","","Snow"
"-111.96","60.02","FORT SMITH A","2202201","2020-04-18 10:00","2020","04","18","10:00","-5.2","","-9.2","","73","","","","15","","6","","24.1","","98.79","","","","-8","","Snow"
"-111.96","60.02","FORT SMITH A","2202201","2020-04-18 11:00","2020","04","18","11:00","-4.0","","-8.1","","74","","","","16","","10","","19.3","","98.71","","","","-8","","Snow"
"-111.96","60.02","FORT SMITH A","2202201","2020-04-18 12:00","2020","04","18","12:00","-2.6","","-7.5","","69","","","","17","","6","","24.1","","98.64","","","","-5","","Snow"
"-111.96","60.02","FORT SMITH A","2202201","2020-04-18 13:00","2020","04","18","13:00","-1.6","","-7.2","","65","","","","19","","5","","19.3","","98.53","","","","-3","","Snow"
"-111.96","60.02","FORT SMITH A","2202201","2020-04-18 14:00","2020","04","18","14:00","-0.9","","-6.3","","67","","","","20","","14","","6.4","","98.42","","","","-5","","Snow"
"-111.96","60.02","FORT SMITH A","2202201","2020-04-18 15:00","2020","04","18","15:00","-0.6","","-5.3","","71","","","","14","","9","","24.1","","98.34","","","","-4","","Snow"
"-111.96","60.02","FORT SMITH A","2202201","2020-04-18 16:00","2020","04","18","16:00","0.5","","-4.5","","69","","","","19","","12","","24.1","","98.24","","","","","","Snow"
"-111.96","60.02","FORT SMITH A","2202201","2020-04-18 17:00","2020","04","18","17:00","1.1","","-3.7","","70","","","","17","","13","","24.1","","98.12","","","","","","Mostly Cloudy"
"-111.96","60.02","FORT SMITH A","2202201","2020-04-18 18:00","2020","04","18","18:00","1.4","","-3.2","","72","","","","17","","10","","24.1","","98.01","","","","","","NA"
"-111.96","60.02","FORT SMITH A","2202201","2020-04-18 19:00","2020","04","18","19:00","1.7","","-2.9","","72","","","","17","","16","","24.1","","97.86","","","","","","NA"
"-111.96","60.02","FORT SMITH A","2202201","2020-04-18 20:00","2020","04","18","20:00","1.1","","-2.4","","77","","","","17","","11","","24.1","","97.77","","","","","","Cloudy"
"-111.96","60.02","FORT SMITH A","2202201","2020-04-18 21:00","2020","04","18","21:00","1.1","","-2.2","","79","","","","23","","5","","24.1","","97.69","","","","","","NA"
"-111.96","60.02","FORT SMITH A","2202201","2020-04-18 22:00","2020","04","18","22:00","1.4","","-2.2","","77","","","","22","","6","","24.1","","97.58","","","","","","NA"
"-111.96","60.02","FORT SMITH A","2202201","2020-04-18 23:00","2020","04","18","23:00","3.4","","-1.4","","71","","","","30","","13","","24.1","","97.52","","","","","","Cloudy"
"-111.96","60.02","FORT SMITH A","2202201","2020-04-19 00:00","2020","04","19","00:00","3.5","","-1.9","","68","","","","31","","16","","24.1","","97.55","","","","","","NA"
"-111.96","60.02","FORT SMITH A","2202201","2020-04-19 01:00","2020","04","19","01:00","2.6","","-2.8","","68","","","","32","","23","","24.1","","97.59","","","","","","NA"
"-111.96","60.02","FORT SMITH A","2202201","2020-04-19 02:00","2020","04","19","02:00","1.5","","-3.0","","72","","","","30","","32","","24.1","","97.66","","","","","","Cloudy"
"-111.96","60.02","FORT SMITH A","2202201","2020-04-19 03:00","2020","04","19","03:00","0.5","","-3.5","","74","","","","31","","18","","24.1","","97.72","","","","","","NA"
"-111.96","60.02","FORT SMITH A","2202201","2020-04-19 04:00","2020","04","19","04:00","-0.2","","-4.6","","72","","","","32","","16","","19.3","","97.80","","","","-5","","Snow"
"-111.96","60.02","FORT SMITH A","2202201","2020-04-19 05:00","2020","04","19","05:00","-1.0","","-5.4","","72","","","","33","","10","","24.1","","97.86","","","","-5","","Snow"
"-111.96","60.02","FORT SMITH A","2202201","2020-04-19 06:00","2020","04","19","06:00","-1.5","","-5.7","","73","","","","31","","21","","24.1","","97.93","","","","-7","","NA"
"-111.96","60.02","FORT SMITH A","2202201","2020-04-19 07:00","2020","04","19","07:00","-1.9","","-6.1","","73","","","","32","","15","","24.1","","97.99","","","","-7","","NA"
"-111.96","60.02","FORT SMITH A","2202201","2020-04-19 08:00","2020","04","19","08:00","-1.3","","-8.5","","59","","","","31","","21","","24.1","","98.05","","","","-7","","Mostly Cloudy"
"-111.96","60.02","FORT SMITH A","2202201","2020-04-19 09:00","2020","04","19","09:00","-1.0","","-8.4","","58","","","","30","","16","","24.1","","98.08","","","","-6","","NA"
"-111.96","60.02","FORT SMITH A","2202201","2020-04-19 10:00","2020","04","19","10:00","-0.8","","-9.3","","53","","","","36","","19","","24.1","","98.06","","","","-6","","NA"
"-111.96","60.02","FORT SMITH A","2202201","2020-04-19 11:00","2020","04","19","11:00","-0.2","","-9.8","","48","","","","30","","16","","24.1","","98.12","","","","-5","","Mostly Cloudy"
"-111.96","60.02","FORT SMITH A","2202201","2020-04-19 12:00","2020","04","19","12:00","0.1","","-10.9","","43","","","","33","","18","","24.1","","98.15","","","","","","NA"
"-111.96","60.02","FORT SMITH A","2202201","2020-04-19 13:00","2020","04","19","13:00","1.1","","-10.7","","41","","","","30","","22","","24.1","","98.14","","","","","","NA"
"-111.96","60.02","FORT SMITH A","2202201","2020-04-19 14:00","2020","04","19","14:00","1.4","","-9.6","","44","","","","30","","21","","24.1","","98.15","","","","","","Mostly Cloudy"
"-111.96","60.02","FORT SMITH A","2202201","2020-04-19 15:00","2020","04","19","15:00","0.5","","-8.5","","51","","","","29","","28","","24.1","","98.21","","","","","","NA"
"-111.96","60.02","FORT SMITH A","2202201","2020-04-19 16:00","2020","04","19","16:00","1.0","","-9.7","","45","","","","32","","27","","24.1","","98.27","","","","","","NA"
"-111.96","60.02","FORT SMITH A","2202201","2020-04-19 17:00","2020","04","19","17:00","0.4","","-9.9","","46","","","","31","","24","","24.1","","98.33","","","","","","Mainly Clear"
"-111.96","60.02","FORT SMITH A","2202201","2020-04-19 18:00","2020","04","19","18:00","-0.2","","-9.6","","49","","","","33","","17","","24.1","","98.42","","","","-5","","NA"
"-111.96","60.02","FORT SMITH A","2202201","2020-04-19 19:00","2020","04","19","19:00","-1.6","","-10.7","","50","","","","35","","19","","24.1","","98.46","","","","-7","","NA"
"-111.96","60.02","FORT SMITH A","2202201","2020-04-19 20:00","2020","04","19","20:00","-2.5","","-10.8","","53","","","","34","","14","","24.1","","98.52","","","","-7","","Mainly Clear"
"-111.96","60.02","FORT SMITH A","2202201","2020-04-19 21:00","2020","04","19","21:00","-3.4","","-12.8","","48","","","","36","","12","","24.1","","98.58","","","","-8","","NA"
"-111.96","60.02","FORT SMITH A","2202201","2020-04-19 22:00","2020","04","19","22:00","-4.5","","-12.7","","53","","","","36","","8","","24.1","","98.63","","","","-8","","NA"
"-111.96","60.02","FORT SMITH A","2202201","2020-04-19 23:00","2020","04","19","23:00","-5.4","","-13.2","","55","","","","36","","7","","24.1","","98.66","","","","-9","","Clear"
"-111.96","60.02","FORT SMITH A","2202201","2020-04-20 00:00","2020","04","20","00:00","-6.7","","-13.6","","58","","","","4","","4","","24.1","","98.72","","","","-9","","NA"
"-111.96","60.02","FORT SMITH A","2202201","2020-04-20 01:00","2020","04","20","01:00","-7.4","","-14.3","","58","","","","4","","8","","24.1","","98.76","","","","-11","","NA"
"-111.96","60.02","FORT SMITH A","2202201","2020-04-20 02:00","2020","04","20","02:00","-8.7","","-13.9","","66","","","","6","","9","","24.1","","98.81","","","","-13","","Clear"
"-111.96","60.02","FORT SMITH A","2202201","2020-04-20 03:00","2020","04","20","03:00","-10.0","","-14.1","","72","","","","5","","6","","24.1","","98.85","","","","-14","","NA"
"-111.96","60.02","FORT SMITH A","2202201","2020-04-20 04:00","2020","04","20","04:00","-10.6","","-14.0","","76","","","","5","","4","","24.1","","98.88","","","","-13","","NA"
"-111.96","60.02","FORT SMITH A","2202201","2020-04-20 05:00","2020","04","20","05:00","-10.4","","-14.0","","76","","","","5","","7","","24.1","","98.91","","","","-14","","Mostly Cloudy"
"-111.96","60.02","FORT SMITH A","2202201","2020-04-20 06:00","2020","04","20","06:00","-10.1","","-13.9","","73","","","","8","","8","","24.1","","98.90","","","","-15","","NA"
"-111.96","60.02","FORT SMITH A","2202201","2020-04-20 07:00","2020","04","20","07:00","-9.2","","-13.8","","69","","","","9","","7","","24.1","","98.89","","","","-13","","NA"
"-111.96","60.02","FORT SMITH A","2202201","2020-04-20 08:00","2020","04","20","08:00","-7.5","","-13.7","","62","","","","8","","4","","24.1","","98.88","","","","-10","","Cloudy"
"-111.96","60.02","FORT SMITH A","2202201","2020-04-20 09:00","2020","04","20","09:00","-5.6","","-12.1","","60","","","","16","","7","","24.1","","98.82","","","","-9","","NA"
"-111.96","60.02","FORT SMITH A","2202201","2020-04-20 10:00","2020","04","20","10:00","-4.0","","-11.2","","57","","","","14","","8","","24.1","","98.77","","","","-7","","NA"
"-111.96","60.02","FORT SMITH A","2202201","2020-04-20 11:00","2020","04","20","11:00","-2.4","","-11.9","","48","","","","14","","6","","24.1","","98.71","","","","-5","","Mostly Cloudy"
"-111.96","60.02","FORT SMITH A","2202201","2020-04-20 12:00","2020","04","20","12:00","-0.7","","-13.0","","39","","","","14","","7","","24.1","","98.66","","","","-3","","NA"
"-111.96","60.02","FORT SMITH A","2202201","2020-04-20 13:00","2020","04","20","13:00","-0.2","","-12.7","","38","","","","25","","7","","24.1","","98.61","","","","-3","","NA"
"-111.96","60.02","FORT SMITH A","2202201","2020-04-20 14:00","2020","04","20","14:00","0.4","","-12.8","","37","","","","16","","9","","24.1","","98.57","","","","","","Cloudy"
"-111.96","60.02","FORT SMITH A","2202201","2020-04-20 15:00","2020","04","20","15:00","0.8","","-13.3","","34","","","","14","","7","","24.1","","98.51","","","","","","NA"
"-111.96","60.02","FORT SMITH A","2202201","2020-04-20 16:00","2020","04","20","16:00","1.1","","-11.3","","39","","","","14","","8","","24.1","","98.43","","","","","","NA"
"-111.96","60.02","FORT SMITH A","2202201","2020-04-20 17:00","2020","04","20","17:00","1.3","","-11.4","","39","","","","13","","11","","24.1","","98.38","","","","","","Mostly Cloudy"
"-111.96","60.02","FORT SMITH A","2202201","2020-04-20 18:00","2020","04","20","18:00","1.2","","-10.4","","42","","","","15","","10","","24.1","","98.35","","","","","","NA"
"-111.96","60.02","FORT SMITH A","2202201","2020-04-20 19:00","2020","04","20","19:00","1.0","","-9.6","","45","","","","17","","10","","24.1","","98.30","","","","","","NA"
"-111.96","60.02","FORT SMITH A","2202201","2020-04-20 20:00","2020","04","20","20:00","-0.2","","-8.9","","52","","","","12","","9","","24.1","","98.30","","","","-3","","Cloudy"
"-111.96","60.02","FORT SMITH A","2202201","2020-04-20 21:00","2020","04","20","21:00","-0.9","","-8.5","","56","","","","12","","9","","24.1","","98.29","","","","-4","","NA"
"-111.96","60.02","FORT SMITH A","2202201","2020-04-20 22:00","2020","04","20","22:00","-2.2","","-6.8","","71","","","","14","","16","","24.1","","98.31","","","","-7","","Snow"
"-111.96","60.02","FORT SMITH A","2202201","2020-04-20 23:00","2020","04","20","23:00","-3.4","","-5.4","","86","","","","13","","7","","9.7","","98.27","","","","-6","","Snow"
"-111.96","60.02","FORT SMITH A","2202201","2020-04-21 00:00","2020","04","21","00:00","-4.2","","-6.3","","85","","","","13","","10","","16.1","","98.20","","","","-8","","Snow"
"-111.96","60.02","FORT SMITH A","2202201","2020-04-21 01:00","2020","04","21","01:00","-4.5","","-6.5","","86","","","","13","","8","","19.3","","98.17","","","","-8","","NA"
"-111.96","60.02","FORT SMITH A","2202201","2020-04-21 02:00","2020","04","21","02:00","-4.7","","-6.4","","88","","","","11","","7","","19.3","","98.15","","","","-8","","Snow"
"-111.96","60.02","FORT SMITH A","2202201","2020-04-21 03:00","2020","04","21","03:00","-4.7","","-6.3","","88","","","","10","","8","","19.3","","98.09","","","","-8","","Snow"
"-111.96","60.02","FORT SMITH A","2202201","2020-04-21 04:00","2020","04","21","04:00","-4.9","","-7.1","","84","","","","7","","10","","19.3","","98.09","","","","-9","","Snow"
"-111.96","60.02","FORT SMITH A","2202201","2020-04-21 05:00","2020","04","21","05:00","-4.8","","-8.1","","78","","","","14","","9","","19.3","","98.05","","","","-9","","Snow"
"-111.96","60.02","FORT SMITH A","2202201","2020-04-21 06:00","2020","04","21","06:00","-4.3","","-8.6","","72","","","","8","","9","","24.1","","98.05","","","","-8","","NA"
"-111.96","60.02","FORT SMITH A","2202201","2020-04-21 07:00","2020","04","21","07:00","-3.4","","-9.4","","64","","","","9","","8","","24.1","","98.06","","","","-7","","NA"
"-111.96","60.02","FORT SMITH A","2202201","2020-04-21 08:00","2020","04","21","08:00","-3.0","","-9.2","","63","","","","13","","9","","24.1","","98.07","","","","-7","","Cloudy"
"-111.96","60.02","FORT SMITH A","2202201","2020-04-21 09:00","2020","04","21","09:00","-2.9","","-7.3","","72","","","","12","","10","","4.8","","98.05","","","","-7","","Snow Showers"
"-111.96","60.02","FORT SMITH A","2202201","2020-04-21 10:00","2020","04","21","10:00","-2.0","","-5.3","","78","","","","12","","13","","4.8","","98.04","","","","-6","","Snow Showers"
"-111.96","60.02","FORT SMITH A","2202201","2020-04-21 11:00","2020","04","21","11:00","-0.2","","-4.4","","73","","","","9","","12","","9.7","","98.03","","","","-4","","Snow Showers"
"-111.96","60.02","FORT SMITH A","2202201","2020-04-21 12:00","2020","04","21","12:00","1.5","","-4.1","","66","","","","11","","7","","24.1","","98.04","","","","","","NA"
"-111.96","60.02","FORT SMITH A","2202201","2020-04-21 13:00","2020","04","21","13:00","2.6","","-4.1","","61","","","","8","","5","","24.1","","98.04","","","","","","NA"
"-111.96","60.02","FORT SMITH A","2202201","2020-04-21 14:00","2020","04","21","14:00","3.0","","-3.2","","64","","","","16","","9","","24.1","","98.03","","","","","","Clear"
"-111.96","60.02","FORT SMITH A","2202201","2020-04-21 15:00","2020","04","21","15:00","3.5","","-3.2","","62","","","","23","","8","","24.1","","98.06","","","","","","NA"
"-111.96","60.02","FORT SMITH A","2202201","2020-04-21 16:00","2020","04","21","16:00","3.5","","-3.1","","62","","","","23","","4","","24.1","","98.08","","","","","","NA"
"-111.96","60.02","FORT SMITH A","2202201","2020-04-21 17:00","2020","04","21","17:00","2.7","","-1.9","","72","","","","25","","8","","24.1","","98.11","","","","","","Cloudy"
"-111.96","60.02","FORT SMITH A","2202201","2020-04-21 18:00","2020","04","21","18:00","2.4","","-1.9","","73","","","","26","","9","","24.1","","98.13","","","","","","NA"
"-111.96","60.02","FORT SMITH A","2202201","2020-04-21 19:00","2020","04","21","19:00","2.2","","-1.9","","74","","","","27","","8","","24.1","","98.14","","","","","","NA"
"-111.96","60.02","FORT SMITH A","2202201","2020-04-21 20:00","2020","04","21","20:00","1.7","","-2.0","","76","","","","30","","5","","24.1","","98.13","","","","","","Cloudy"
"-111.96","60.02","FORT SMITH A","2202201","2020-04-21 21:00","2020","04","21","21:00","1.3","","-1.6","","81","","","","32","","5","","24.1","","98.14","","","","","","NA"
"-111.96","60.02","FORT SMITH A","2202201","2020-04-21 22:00","2020","04","21","22:00","0.8","","-1.4","","85","","","","27","","5","","24.1","","98.13","","","","","","Snow"
"-111.96","60.02","FORT SMITH A","2202201","2020-04-21 23:00","2020","04","21","23:00","0.8","","-2.0","","82","","","","28","","7","","24.1","","98.11","","","","","","Cloudy"
"-111.96","60.02","FORT SMITH A","2202201","2020-04-22 00:00","2020","04","22","00:00","0.4","","-1.8","","85","","","","28","","7","","24.1","","98.11","","","","","","NA"
"-111.96","60.02","FORT SMITH A","2202201","2020-04-22 01:00","2020","04","22","01:00","0.3","","-2.0","","84","","","","30","","7","","24.1","","98.10","","","","","","NA"
"-111.96","60.02","FORT SMITH A","2202201","2020-04-22 02:00","2020","04","22","02:00","0.1","","-2.3","","84","","","","31","","8","","24.1","","98.10","","","","","","Cloudy"
"-111.96","60.02","FORT SMITH A","2202201","2020-04-22 03:00","2020","04","22","03:00","-0.5","","-2.3","","88","","","","32","","8","","24.1","","98.13","","","","-3","","NA"
"-111.96","60.02","FORT SMITH A","2202201","2020-04-22 04:00","2020","04","22","04:00","-0.9","","-2.6","","89","","","","32","","7","","19.3","","98.14","","","","-3","","Snow"
"-111.96","60.02","FORT SMITH A","2202201","2020-04-22 05:00","2020","04","22","05:00","-1.4","","-2.6","","91","","","","32","","5","","19.3","","98.12","","","","-3","","Snow"
"-111.96","60.02","FORT SMITH A","2202201","2020-04-22 06:00","2020","04","22","06:00","-1.9","","-2.7","","94","","","","33","","3","","16.1","","98.10","","","","-3","","Snow"
"-111.96","60.02","FORT SMITH A","2202201","2020-04-22 07:00","2020","04","22","07:00","-1.5","","-2.6","","92","","","","36","","7","","24.1","","98.11","","","","-4","","NA"
"-111.96","60.02","FORT SMITH A","2202201","2020-04-22 08:00","2020","04","22","08:00","-1.0","","-2.7","","88","","","","36","","1","","24.1","","98.11","","","","-1","","Cloudy"
"-111.96","60.02","FORT SMITH A","2202201","2020-04-22 09:00","2020","04","22","09:00","-0.3","","-2.6","","85","","","","21","","3","","24.1","","98.05","","","","-1","","NA"
"-111.96","60.02","FORT SMITH A","2202201","2020-04-22 10:00","2020","04","22","10:00","0.7","","-2.4","","80","","","","36","","1","","24.1","","98.00","","","","","","NA"
"-111.96","60.02","FORT SMITH A","2202201","2020-04-22 11:00","2020","04","22","11:00","1.5","","-2.1","","77","","","","24","","5","","24.1","","97.97","","","","","","Snow"
"-111.96","60.02","FORT SMITH A","2202201","2020-04-22 12:00","2020","04","22","12:00","0.9","","-0.6","","90","","","","24","","4","","2.4","","97.93","","","","","","Rain Showers,Snow Showers"
"-111.96","60.02","FORT SMITH A","2202201","2020-04-22 13:00","2020","04","22","13:00","0.8","","-0.2","","93","","","","36","","2","","2.4","","97.88","","","","","","Snow Showers"
"-111.96","60.02","FORT SMITH A","2202201","2020-04-22 14:00","2020","04","22","14:00","1.1","","0.2","","93","","","","36","","2","","2.8","","97.85","","","","","","Rain Showers,Snow Showers"
"-111.96","60.02","FORT SMITH A","2202201","2020-04-22 15:00","2020","04","22","15:00","0.4","","0.0","","97","","","","3","","4","","2.0","","97.86","","","","","","Rain Showers,Snow Showers"
"-111.96","60.02","FORT SMITH A","2202201","2020-04-22 16:00","2020","04","22","16:00","1.3","","0.6","","95","","","","36","","1","","4.8","","97.86","","","","","","Rain Showers,Snow Showers"
"-111.96","60.02","FORT SMITH A","2202201","2020-04-22 17:00","2020","04","22","17:00","1.1","","0.6","","97","","","","1","","9","","4.8","","97.87","","","","","","Drizzle"
"-111.96","60.02","FORT SMITH A","2202201","2020-04-22 18:00","2020","04","22","18:00","0.8","","0.2","","96","","","","34","","12","","4.8","","97.93","","","","","","Drizzle"
"-111.96","60.02","FORT SMITH A","2202201","2020-04-22 19:00","2020","04","22","19:00","0.4","","-0.4","","95","","","","36","","14","","19.3","","97.96","","","","","","Drizzle"
"-111.96","60.02","FORT SMITH A","2202201","2020-04-22 20:00","2020","04","22","20:00","-0.2","","-1.3","","93","","","","33","","10","","24.1","","98.00","","","","-4","","Cloudy"
"-111.96","60.02","FORT SMITH A","2202201","2020-04-22 21:00","2020","04","22","21:00","-1.1","","-2.0","","94","","","","34","","13","","4.0","","98.05","","","","-5","","Snow"
"-111.96","60.02","FORT SMITH A","2202201","2020-04-22 22:00","2020","04","22","22:00","-1.6","","-2.8","","92","","","","34","","12","","24.1","","98.11","","","","-6","","Snow"
"-111.96","60.02","FORT SMITH A","2202201","2020-04-22 23:00","2020","04","22","23:00","-2.4","","-3.7","","91","","","","33","","10","","24.1","","98.17","","","","-6","","Snow"
"-111.96","60.02","FORT SMITH A","2202201","2020-04-23 00:00","2020","04","23","00:00","-2.5","","-4.4","","87","","","","36","","10","","24.1","","98.21","","","","-6","","NA"
"-111.96","60.02","FORT SMITH A","2202201","2020-04-23 01:00","2020","04","23","01:00","-2.6","","-5.3","","82","","","","35","","8","","24.1","","98.25","","","","-6","","NA"
"-111.96","60.02","FORT SMITH A","2202201","2020-04-23 02:00","2020","04","23","02:00","-3.8","","-5.8","","86","","","","34","","12","","24.1","","98.29","","","","-8","","Mostly Cloudy"
"-111.96","60.02","FORT SMITH A","2202201","2020-04-23 03:00","2020","04","23","03:00","-4.6","","-6.7","","85","","","","1","","8","","24.1","","98.32","","","","-8","","NA"
"-111.96","60.02","FORT SMITH A","2202201","2020-04-23 04:00","2020","04","23","04:00","-5.1","","-7.2","","85","","","","34","","5","","24.1","","98.36","","","","-7","","NA"
"-111.96","60.02","FORT SMITH A","2202201","2020-04-23 05:00","2020","04","23","05:00","-6.2","","-8.7","","83","","","","2","","7","","24.1","","98.41","","","","-10","","Mostly Cloudy"
"-111.96","60.02","FORT SMITH A","2202201","2020-04-23 06:00","2020","04","23","06:00","-6.2","","-8.4","","84","","","","36","","6","","24.1","","98.48","","","","-9","","NA"
"-111.96","60.02","FORT SMITH A","2202201","2020-04-23 07:00","2020","04","23","07:00","-5.1","","-7.9","","81","","","","35","","5","","24.1","","98.55","","","","-7","","NA"
"-111.96","60.02","FORT SMITH A","2202201","2020-04-23 08:00","2020","04","23","08:00","-3.7","","-7.9","","73","","","","36","","10","","24.1","","98.58","","","","-8","","Mainly Clear"
"-111.96","60.02","FORT SMITH A","2202201","2020-04-23 09:00","2020","04","23","09:00","-2.8","","-7.8","","69","","","","36","","6","","24.1","","98.59","","","","-5","","NA"
"-111.96","60.02","FORT SMITH A","2202201","2020-04-23 10:00","2020","04","23","10:00","-1.5","","-7.9","","62","","","","36","","10","","24.1","","98.63","","","","-5","","NA"
"-111.96","60.02","FORT SMITH A","2202201","2020-04-23 11:00","2020","04","23","11:00","-1.0","","-9.2","","54","","","","2","","16","","24.1","","98.67","","","","-6","","Mainly Clear"
"-111.96","60.02","FORT SMITH A","2202201","2020-04-23 12:00","2020","04","23","12:00","-0.2","","-9.3","","51","","","","36","","11","","24.1","","98.71","","","","-4","","NA"
"-111.96","60.02","FORT SMITH A","2202201","2020-04-23 13:00","2020","04","23","13:00","0.7","","-9.0","","48","","","","32","","4","","24.1","","98.73","","","","","","NA"
"-111.96","60.02","FORT SMITH A","2202201","2020-04-23 14:00","2020","04","23","14:00","1.7","","-9.8","","42","","","","34","","4","","24.1","","98.74","","","","","","Mostly Cloudy"
"-111.96","60.02","FORT SMITH A","2202201","2020-04-23 15:00","2020","04","23","15:00","1.5","","-9.0","","46","","","","1","","10","","24.1","","98.78","","","","","","NA"
"-111.96","60.02","FORT SMITH A","2202201","2020-04-23 16:00","2020","04","23","16:00","2.1","","-9.1","","44","","","","4","","8","","24.1","","98.82","","","","","","NA"
"-111.96","60.02","FORT SMITH A","2202201","2020-04-23 17:00","2020","04","23","17:00","2.2","","-8.6","","45","","","","1","","9","","24.1","","98.84","","","","","","Mostly Cloudy"
"-111.96","60.02","FORT SMITH A","2202201","2020-04-23 18:00","2020","04","23","18:00","1.9","","-8.2","","48","","","","2","","8","","24.1","","98.87","","","","","","NA"
"-111.96","60.02","FORT SMITH A","2202201","2020-04-23 19:00","2020","04","23","19:00","1.4","","-7.5","","52","","","","3","","8","","24.1","","98.87","","","","","","NA"
"-111.96","60.02","FORT SMITH A","2202201","2020-04-23 20:00","2020","04","23","20:00","1.4","","-8.9","","46","","","","5","","4","","24.1","","98.90","","","","","","Cloudy"
"-111.96","60.02","FORT SMITH A","2202201","2020-04-23 21:00","2020","04","23","21:00","1.0","","-8.8","","48","","","","9","","3","","24.1","","98.92","","","","","","NA"
"-111.96","60.02","FORT SMITH A","2202201","2020-04-23 22:00","2020","04","23","22:00","0.3","","-6.6","","60","","","","33","","4","","24.1","","98.96","","","","","","NA"
"-111.96","60.02","FORT SMITH A","2202201","2020-04-23 23:00","2020","04","23","23:00","-0.3","","-5.7","","67","","","","3","","11","","24.1","","98.97","","","","-4","","Cloudy"
"-111.96","60.02","FORT SMITH A","2202201","2020-04-24 00:00","2020","04","24","00:00","0.2","","-8.1","","54","","","","4","","10","","24.1","","98.99","","","","","","NA"
"-111.96","60.02","FORT SMITH A","2202201","2020-04-24 01:00","2020","04","24","01:00","0.1","","-8.1","","54","","","","6","","8","","24.1","","99.01","","","","","","NA"
"-111.96","60.02","FORT SMITH A","2202201","2020-04-24 02:00","2020","04","24","02:00","-0.1","","-8.2","","54","","","","6","","12","","24.1","","99.04","","","","-4","","Cloudy"
"-111.96","60.02","FORT SMITH A","2202201","2020-04-24 03:00","2020","04","24","03:00","-0.6","","-6.3","","65","","","","5","","9","","24.1","","99.04","","","","-4","","NA"
"-111.96","60.02","FORT SMITH A","2202201","2020-04-24 04:00","2020","04","24","04:00","-0.9","","-6.2","","68","","","","6","","8","","19.3","","99.07","","","","-4","","Snow"
"-111.96","60.02","FORT SMITH A","2202201","2020-04-24 05:00","2020","04","24","05:00","-1.6","","-5.2","","77","","","","7","","10","","24.1","","99.07","","","","-5","","Snow"
"-111.96","60.02","FORT SMITH A","2202201","2020-04-24 06:00","2020","04","24","06:00","-1.4","","-4.5","","79","","","","7","","6","","24.1","","99.05","","","","-4","","NA"
"-111.96","60.02","FORT SMITH A","2202201","2020-04-24 07:00","2020","04","24","07:00","-1.2","","-3.4","","85","","","","9","","4","","4.8","","99.06","","","","-3","","Snow"
"-111.96","60.02","FORT SMITH A","2202201","2020-04-24 08:00","2020","04","24","08:00","-0.9","","-2.4","","90","","","","11","","5","","4.0","","99.08","","","","-3","","Snow"
"-111.96","60.02","FORT SMITH A","2202201","2020-04-24 09:00","2020","04","24","09:00","-0.5","","-1.9","","90","","","","11","","5","","4.0","","99.09","","","","-2","","Snow"
"-111.96","60.02","FORT SMITH A","2202201","2020-04-24 10:00","2020","04","24","10:00","0.1","","-1.7","","87","","","","11","","5","","4.0","","99.06","","","","","","Snow"
"-111.96","60.02","FORT SMITH A","2202201","2020-04-24 11:00","2020","04","24","11:00","1.2","","-1.8","","80","","","","12","","7","","24.1","","99.04","","","","","","Snow"
"-111.96","60.02","FORT SMITH A","2202201","2020-04-24 12:00","2020","04","24","12:00","2.5","","-2.0","","72","","","","36","","2","","24.1","","99.02","","","","","","Snow"
"-111.96","60.02","FORT SMITH A","2202201","2020-04-24 13:00","2020","04","24","13:00","3.4","","-1.9","","68","","","","14","","5","","24.1","","99.01","","","","","","NA"
"-111.96","60.02","FORT SMITH A","2202201","2020-04-24 14:00","2020","04","24","14:00","3.5","","-1.6","","69","","","","15","","10","","24.1","","99.01","","","","","","Cloudy"
"-111.96","60.02","FORT SMITH A","2202201","2020-04-24 15:00","2020","04","24","15:00","4.4","","-1.6","","65","","","","20","","13","","24.1","","99.00","","","","","","NA"
"-111.96","60.02","FORT SMITH A","2202201","2020-04-24 16:00","2020","04","24","16:00","4.2","","-1.0","","69","","","","22","","12","","24.1","","98.99","","","","","","NA"
"-111.96","60.02","FORT SMITH A","2202201","2020-04-24 17:00","2020","04","24","17:00","4.0","","-1.3","","68","","","","36","","1","","24.1","","98.98","","","","","","Cloudy"
"-111.96","60.02","FORT SMITH A","2202201","2020-04-24 18:00","2020","04","24","18:00","4.5","","-1.2","","66","","","","11","","3","","24.1","","98.93","","","","","","NA"
"-111.96","60.02","FORT SMITH A","2202201","2020-04-24 19:00","2020","04","24","19:00","3.2","","0.0","","80","","","","33","","6","","16.1","","98.98","","","","","","Rain"
"-111.96","60.02","FORT SMITH A","2202201","2020-04-24 20:00","2020","04","24","20:00","2.0","","0.9","","92","","","","35","","7","","16.1","","99.01","","","","","","Rain"
"-111.96","60.02","FORT SMITH A","2202201","2020-04-24 21:00","2020","04","24","21:00","1.1","","0.4","","95","","","","1","","9","","24.1","","99.03","","","","","","Rain"
"-111.96","60.02","FORT SMITH A","2202201","2020-04-24 22:00","2020","04","24","22:00","0.1","","-0.3","","97","","","","1","","3","","24.1","","99.01","","","","","","NA"
"-111.96","60.02","FORT SMITH A","2202201","2020-04-24 23:00","2020","04","24","23:00","0.4","","0.2","","99","","","","31","","6","","24.1","","99.00","","","","","","Cloudy"
"-111.96","60.02","FORT SMITH A","2202201","2020-04-25 00:00","2020","04","25","00:00","0.4","","0.2","","99","","","","36","","2","","24.1","","98.96","","","","","","NA"
"-111.96","60.02","FORT SMITH A","2202201","2020-04-25 01:00","2020","04","25","01:00","0.3","","0.2","","99","","","","4","","3","","4.8","","98.93","","","","","","Fog"
"-111.96","60.02","FORT SMITH A","2202201","2020-04-25 02:00","2020","04","25","02:00","0.0","","-0.1","","99","","","","3","","5","","4.8","","98.87","","","","-2","","Fog"
"-111.96","60.02","FORT SMITH A","2202201","2020-04-25 03:00","2020","04","25","03:00","-0.2","","-0.2","","99","","","","1","","8","","0.8","","98.86","","","","-3","","Freezing Fog"
"-111.96","60.02","FORT SMITH A","2202201","2020-04-25 04:00","2020","04","25","04:00","-0.4","","-0.4","","100","","","","2","","10","","0.8","","98.77","","","","-4","","Freezing Fog"
"-111.96","60.02","FORT SMITH A","2202201","2020-04-25 05:00","2020","04","25","05:00","-0.4","","-0.5","","100","","","","11","","4","","0.6","","98.74","","","","-2","","Freezing Fog"
"-111.96","60.02","FORT SMITH A","2202201","2020-04-25 06:00","2020","04","25","06:00","-0.5","","-0.5","","100","","","","3","","9","","9.7","","98.65","","","","-4","","Fog"
"-111.96","60.02","FORT SMITH A","2202201","2020-04-25 07:00","2020","04","25","07:00","-0.1","","-0.2","","100","","","","7","","7","","19.3","","98.54","","","","-3","","Rain Showers"
"-111.96","60.02","FORT SMITH A","2202201","2020-04-25 08:00","2020","04","25","08:00","0.8","","0.3","","97","","","","7","","4","","24.1","","98.43","","","","","","Cloudy"
"-111.96","60.02","FORT SMITH A","2202201","2020-04-25 09:00","2020","04","25","09:00","1.7","","0.5","","92","","","","2","","5","","24.1","","98.34","","","","","","NA"
"-111.96","60.02","FORT SMITH A","2202201","2020-04-25 10:00","2020","04","25","10:00","2.9","","0.9","","87","","","","1","","8","","24.1","","98.26","","","","","","NA"
"-111.96","60.02","FORT SMITH A","2202201","2020-04-25 11:00","2020","04","25","11:00","4.3","","1.1","","79","","","","1","","7","","24.1","","98.19","","","","","","Mostly Cloudy"
"-111.96","60.02","FORT SMITH A","2202201","2020-04-25 12:00","2020","04","25","12:00","4.9","","0.8","","75","","","","33","","8","","24.1","","98.13","","","","","","NA"
"-111.96","60.02","FORT SMITH A","2202201","2020-04-25 13:00","2020","04","25","13:00","3.5","","-1.7","","68","","","","35","","16","","24.1","","98.08","","","","","","NA"
"-111.96","60.02","FORT SMITH A","2202201","2020-04-25 14:00","2020","04","25","14:00","2.1","","-3.3","","67","","","","34","","18","","24.1","","98.11","","","","","","Cloudy"
"-111.96","60.02","FORT SMITH A","2202201","2020-04-25 15:00","2020","04","25","15:00","-0.4","","-4.4","","74","","","","32","","21","","24.1","","98.13","","","","-6","","NA"
"-111.96","60.02","FORT SMITH A","2202201","2020-04-25 16:00","2020","04","25","16:00","-1.2","","-4.7","","77","","","","34","","16","","24.1","","98.16","","","","-6","","NA"
"-111.96","60.02","FORT SMITH A","2202201","2020-04-25 17:00","2020","04","25","17:00","-2.0","","-5.4","","78","","","","34","","21","","24.1","","98.17","","","","-8","","Cloudy"
"-111.96","60.02","FORT SMITH A","2202201","2020-04-25 18:00","2020","04","25","18:00","-2.6","","-5.5","","81","","","","34","","16","","24.1","","98.17","","","","-8","","NA"
"-111.96","60.02","FORT SMITH A","2202201","2020-04-25 19:00","2020","04","25","19:00","-3.3","","-5.6","","84","","","","35","","18","","24.1","","98.17","","","","-9","","NA"
"-111.96","60.02","FORT SMITH A","2202201","2020-04-25 20:00","2020","04","25","20:00","-3.9","","-6.1","","85","","","","35","","21","","24.1","","98.14","","","","-10","","Cloudy"
"-111.96","60.02","FORT SMITH A","2202201","2020-04-25 21:00","2020","04","25","21:00","-4.4","","-6.4","","86","","","","36","","21","","24.1","","98.08","","","","-11","","NA"
"-111.96","60.02","FORT SMITH A","2202201","2020-04-25 22:00","2020","04","25","22:00","-4.8","","-7.4","","83","","","","1","","17","","24.1","","98.13","","","","-11","","Snow"
"-111.96","60.02","FORT SMITH A","2202201","2020-04-25 23:00","2020","04","25","23:00","-5.2","","-8.2","","80","","","","36","","21","","9.7","","98.13","","","","-12","","Snow Showers"
"-111.96","60.02","FORT SMITH A","2202201","2020-04-26 00:00","2020","04","26","00:00","-5.8","","-8.9","","79","","","","35","","21","","24.1","","98.08","","","","-13","","Snow"
"-111.96","60.02","FORT SMITH A","2202201","2020-04-26 01:00","2020","04","26","01:00","-6.3","","-9.6","","78","","","","35","","15","","24.1","","98.13","","","","-12","","Snow"
"-111.96","60.02","FORT SMITH A","2202201","2020-04-26 02:00","2020","04","26","02:00","-7.3","","-10.2","","80","","","","35","","26","","4.8","","98.07","","","","-15","","Snow Showers,Blowing Snow"
"-111.96","60.02","FORT SMITH A","2202201","2020-04-26 03:00","2020","04","26","03:00","-7.9","","-11.1","","78","","","","34","","23","","4.8","","98.11","","","","-16","","Snow Showers,Blowing Snow"
"-111.96","60.02","FORT SMITH A","2202201","2020-04-26 04:00","2020","04","26","04:00","-8.7","","-11.6","","80","","","","35","","22","","2.0","","98.15","","","","-17","","Snow Showers,Blowing Snow"
"-111.96","60.02","FORT SMITH A","2202201","2020-04-26 05:00","2020","04","26","05:00","-9.2","","-11.8","","82","","","","33","","15","","2.4","","98.21","","","","-16","","Snow Showers,Blowing Snow"
"-111.96","60.02","FORT SMITH A","2202201","2020-04-26 06:00","2020","04","26","06:00","-9.8","","-13.1","","77","","","","34","","25","","4.8","","98.27","","","","-19","","Snow Showers,Blowing Snow"
"-111.96","60.02","FORT SMITH A","2202201","2020-04-26 07:00","2020","04","26","07:00","-10.1","","-13.5","","76","","","","33","","25","","4.8","","98.30","","","","-19","","Snow,Blowing Snow"
"-111.96","60.02","FORT SMITH A","2202201","2020-04-26 08:00","2020","04","26","08:00","-9.8","","-13.9","","73","","","","33","","21","","19.3","","98.32","","","","-18","","Snow,Blowing Snow"
"-111.96","60.02","FORT SMITH A","2202201","2020-04-26 09:00","2020","04","26","09:00","-10.3","","-14.1","","74","","","","34","","22","","19.3","","98.36","","","","-19","","Snow,Blowing Snow"
"-111.96","60.02","FORT SMITH A","2202201","2020-04-26 10:00","2020","04","26","10:00","-9.8","","-14.2","","71","","","","33","","20","","24.1","","98.44","","","","-18","","Snow"
"-111.96","60.02","FORT SMITH A","2202201","2020-04-26 11:00","2020","04","26","11:00","-8.9","","-13.9","","67","","","","35","","20","","24.1","","98.49","","","","-16","","Cloudy"
"-111.96","60.02","FORT SMITH A","2202201","2020-04-26 12:00","2020","04","26","12:00","-8.3","","-13.5","","67","","","","31","","20","","24.1","","98.56","","","","-16","","NA"
"-111.96","60.02","FORT SMITH A","2202201","2020-04-26 13:00","2020","04","26","13:00","-7.9","","-13.2","","66","","","","34","","25","","24.1","","98.64","","","","-16","","NA"
"-111.96","60.02","FORT SMITH A","2202201","2020-04-26 14:00","2020","04","26","14:00","-6.8","","-12.2","","65","","","","32","","18","","24.1","","98.69","","","","-13","","Cloudy"
"-111.96","60.02","FORT SMITH A","2202201","2020-04-26 15:00","2020","04","26","15:00","-5.7","","-11.8","","62","","","","32","","17","","24.1","","98.73","","","","-12","","NA"
"-111.96","60.02","FORT SMITH A","2202201","2020-04-26 16:00","2020","04","26","16:00","-5.0","","-11.1","","63","","","","34","","14","","24.1","","98.76","","","","-10","","NA"
"-111.96","60.02","FORT SMITH A","2202201","2020-04-26 17:00","2020","04","26","17:00","-4.7","","-11.2","","60","","","","36","","18","","24.1","","98.78","","","","-11","","Cloudy"
"-111.96","60.02","FORT SMITH A","2202201","2020-04-26 18:00","2020","04","26","18:00","-4.0","","-10.9","","59","","","","33","","11","","24.1","","98.79","","","","-8","","NA"
"-111.96","60.02","FORT SMITH A","2202201","2020-04-26 19:00","2020","04","26","19:00","-3.9","","-10.8","","59","","","","36","","13","","24.1","","98.78","","","","-9","","NA"
"-111.96","60.02","FORT SMITH A","2202201","2020-04-26 20:00","2020","04","26","20:00","-4.1","","-10.3","","62","","","","33","","5","","24.1","","98.79","","","","-6","","Cloudy"
"-111.96","60.02","FORT SMITH A","2202201","2020-04-26 21:00","2020","04","26","21:00","-4.3","","-10.3","","63","","","","35","","5","","24.1","","98.78","","","","-6","","NA"
"-111.96","60.02","FORT SMITH A","2202201","2020-04-26 22:00","2020","04","26","22:00","-4.6","","-10.4","","64","","","","35","","4","","24.1","","98.76","","","","-6","","NA"
"-111.96","60.02","FORT SMITH A","2202201","2020-04-26 23:00","2020","04","26","23:00","-5.9","","-10.7","","69","","","","36","","3","","24.1","","98.72","","","","-7","","Mostly Cloudy"
"-111.96","60.02","FORT SMITH A","2202201","2020-04-27 00:00","2020","04","27","00:00","-7.3","","-10.4","","79","","","","16","","4","","24.1","","98.70","","","","-9","","NA"
"-111.96","60.02","FORT SMITH A","2202201","2020-04-27 01:00","2020","04","27","01:00","-8.8","","-11.2","","83","","","","14","","3","","24.1","","98.67","","","","-10","","NA"
"-111.96","60.02","FORT SMITH A","2202201","2020-04-27 02:00","2020","04","27","02:00","-7.9","","-11.3","","77","","","","10","","3","","24.1","","98.63","","","","-9","","Mostly Cloudy"
"-111.96","60.02","FORT SMITH A","2202201","2020-04-27 03:00","2020","04","27","03:00","-7.4","","-11.1","","75","","","","11","","5","","24.1","","98.61","","","","-10","","NA"
"-111.96","60.02","FORT SMITH A","2202201","2020-04-27 04:00","2020","04","27","04:00","-7.7","","-11.2","","76","","","","12","","8","","24.1","","98.61","","","","-12","","NA"
"-111.96","60.02","FORT SMITH A","2202201","2020-04-27 05:00","2020","04","27","05:00","-7.8","","-11.3","","76","","","","13","","9","","24.1","","98.58","","","","-12","","Mainly Clear"
"-111.96","60.02","FORT SMITH A","2202201","2020-04-27 06:00","2020","04","27","06:00","-6.9","","-10.9","","73","","","","14","","12","","24.1","","98.55","","","","-12","","NA"
"-111.96","60.02","FORT SMITH A","2202201","2020-04-27 07:00","2020","04","27","07:00","-5.5","","-10.3","","69","","","","14","","17","","24.1","","98.51","","","","-12","","NA"
"-111.96","60.02","FORT SMITH A","2202201","2020-04-27 08:00","2020","04","27","08:00","-3.9","","-9.4","","65","","","","15","","18","","24.1","","98.45","","","","-10","","Clear"
"-111.96","60.02","FORT SMITH A","2202201","2020-04-27 09:00","2020","04","27","09:00","-2.1","","-8.8","","60","","","","13","","16","","24.1","","98.39","","","","-7","","NA"
"-111.96","60.02","FORT SMITH A","2202201","2020-04-27 10:00","2020","04","27","10:00","-1.0","","-8.6","","57","","","","15","","25","","24.1","","98.31","","","","-7","","NA"
"-111.96","60.02","FORT SMITH A","2202201","2020-04-27 11:00","2020","04","27","11:00","0.8","","-8.3","","51","","","","13","","13","","24.1","","98.26","","","","","","Clear"
"-111.96","60.02","FORT SMITH A","2202201","2020-04-27 12:00","2020","04","27","12:00","2.0","","-7.3","","51","","","","14","","21","","24.1","","98.22","","","","","","NA"
"-111.96","60.02","FORT SMITH A","2202201","2020-04-27 13:00","2020","04","27","13:00","2.9","","-7.0","","48","","","","14","","21","","24.1","","98.17","","","","","","NA"
"-111.96","60.02","FORT SMITH A","2202201","2020-04-27 14:00","2020","04","27","14:00","3.8","","-6.6","","47","","","","13","","16","","24.1","","98.14","","","","","","Mostly Cloudy"
"-111.96","60.02","FORT SMITH A","2202201","2020-04-27 15:00","2020","04","27","15:00","3.8","","-5.9","","49","","","","14","","17","","24.1","","98.13","","","","","","NA"
"-111.96","60.02","FORT SMITH A","2202201","2020-04-27 16:00","2020","04","27","16:00","4.4","","-5.6","","49","","","","14","","17","","24.1","","98.10","","","","","","NA"
"-111.96","60.02","FORT SMITH A","2202201","2020-04-27 17:00","2020","04","27","17:00","4.6","","-5.2","","49","","","","14","","21","","24.1","","98.08","","","","","","Mostly Cloudy"
"-111.96","60.02","FORT SMITH A","2202201","2020-04-27 18:00","2020","04","27","18:00","3.8","","-4.9","","53","","","","14","","21","","24.1","","98.09","","","","","","NA"
"-111.96","60.02","FORT SMITH A","2202201","2020-04-27 19:00","2020","04","27","19:00","3.4","","-4.6","","56","","","","14","","13","","24.1","","98.08","","","","","","NA"
"-111.96","60.02","FORT SMITH A","2202201","2020-04-27 20:00","2020","04","27","20:00","2.3","","-3.6","","65","","","","13","","16","","24.1","","98.10","","","","","","Cloudy"
"-111.96","60.02","FORT SMITH A","2202201","2020-04-27 21:00","2020","04","27","21:00","1.8","","-3.5","","68","","","","13","","10","","24.1","","98.10","","","","","","NA"
"-111.96","60.02","FORT SMITH A","2202201","2020-04-27 22:00","2020","04","27","22:00","1.4","","-3.3","","71","","","","14","","14","","24.1","","98.08","","","","","","NA"
"-111.96","60.02","FORT SMITH A","2202201","2020-04-27 23:00","2020","04","27","23:00","1.3","","-2.9","","74","","","","14","","13","","24.1","","98.06","","","","","","Mostly Cloudy"
"-111.96","60.02","FORT SMITH A","2202201","2020-04-28 00:00","2020","04","28","00:00","1.2","","-2.8","","75","","","","14","","12","","24.1","","98.05","","","","","","NA"
"-111.96","60.02","FORT SMITH A","2202201","2020-04-28 01:00","2020","04","28","01:00","1.5","","-2.4","","75","","","","14","","13","","24.1","","98.05","","","","","","Rain Showers"
"-111.96","60.02","FORT SMITH A","2202201","2020-04-28 02:00","2020","04","28","02:00","1.7","","-1.7","","78","","","","15","","15","","24.1","","98.05","","","","","","Mostly Cloudy"
"-111.96","60.02","FORT SMITH A","2202201","2020-04-28 03:00","2020","04","28","03:00","1.1","","-1.3","","84","","","","14","","8","","24.1","","98.05","","","","","","NA"
"-111.96","60.02","FORT SMITH A","2202201","2020-04-28 04:00","2020","04","28","04:00","0.9","","-0.9","","88","","","","15","","10","","24.1","","98.07","","","","","","NA"
"-111.96","60.02","FORT SMITH A","2202201","2020-04-28 05:00","2020","04","28","05:00","1.2","","-0.4","","89","","","","14","","12","","24.1","","98.07","","","","","","Mostly Cloudy"
"-111.96","60.02","FORT SMITH A","2202201","2020-04-28 06:00","2020","04","28","06:00","1.6","","-0.1","","88","","","","14","","10","","24.1","","98.09","","","","","","NA"
"-111.96","60.02","FORT SMITH A","2202201","2020-04-28 07:00","2020","04","28","07:00","3.2","","0.3","","81","","","","16","","14","","24.1","","98.09","","","","","","NA"
"-111.96","60.02","FORT SMITH A","2202201","2020-04-28 08:00","2020","04","28","08:00","5.1","","0.7","","73","","","","16","","14","","24.1","","98.11","","","","","","Mainly Clear"
"-111.96","60.02","FORT SMITH A","2202201","2020-04-28 09:00","2020","04","28","09:00","7.4","","1.2","","65","","","","18","","9","","24.1","","98.12","","","","","","NA"
"-111.96","60.02","FORT SMITH A","2202201","2020-04-28 10:00","2020","04","28","10:00","9.4","","1.4","","57","","","","17","","14","","24.1","","98.12","","","","","","NA"
"-111.96","60.02","FORT SMITH A","2202201","2020-04-28 11:00","2020","04","28","11:00","11.7","","2.0","","51","","","","18","","7","","24.1","","98.11","","","","","","Clear"
"-111.96","60.02","FORT SMITH A","2202201","2020-04-28 12:00","2020","04","28","12:00","13.3","","1.5","","44","","","","19","","18","","24.1","","98.10","","","","","","NA"
"-111.96","60.02","FORT SMITH A","2202201","2020-04-28 13:00","2020","04","28","13:00","13.3","","-0.6","","38","","","","22","","26","","24.1","","98.11","","","","","","NA"
"-111.96","60.02","FORT SMITH A","2202201","2020-04-28 14:00","2020","04","28","14:00","11.0","","-0.1","","46","","","","27","","20","","24.1","","98.17","","","","","","Mostly Cloudy"
"-111.96","60.02","FORT SMITH A","2202201","2020-04-28 15:00","2020","04","28","15:00","11.2","","-0.4","","45","","","","10","","11","","24.1","","98.21","","","","","","Rain Showers"
"-111.96","60.02","FORT SMITH A","2202201","2020-04-28 16:00","2020","04","28","16:00","12.4","","1.9","","49","","","","17","","12","","24.1","","98.20","","","","","","NA"
"-111.96","60.02","FORT SMITH A","2202201","2020-04-28 17:00","2020","04","28","17:00","12.7","","1.6","","47","","","","17","","13","","24.1","","98.20","","","","","","Mainly Clear"
"-111.96","60.02","FORT SMITH A","2202201","2020-04-28 18:00","2020","04","28","18:00","12.8","","1.4","","46","","","","17","","15","","24.1","","98.19","","","","","","NA"
"-111.96","60.02","FORT SMITH A","2202201","2020-04-28 19:00","2020","04","28","19:00","12.7","","1.0","","45","","","","16","","9","","24.1","","98.18","","","","","","NA"
"-111.96","60.02","FORT SMITH A","2202201","2020-04-28 20:00","2020","04","28","20:00","10.3","","-2.2","","41","","","","16","","9","","24.1","","98.17","","","","","","Mainly Clear"
"-111.96","60.02","FORT SMITH A","2202201","2020-04-28 21:00","2020","04","28","21:00","8.1","","-3.0","","45","","","","15","","12","","24.1","","98.15","","","","","","NA"
"-111.96","60.02","FORT SMITH A","2202201","2020-04-28 22:00","2020","04","28","22:00","6.8","","0.1","","62","","","","14","","15","","24.1","","98.11","","","","","","NA"
"-111.96","60.02","FORT SMITH A","2202201","2020-04-28 23:00","2020","04","28","23:00","5.1","","0.2","","71","","","","15","","11","","24.1","","98.06","","","","","","Mainly Clear"
"-111.96","60.02","FORT SMITH A","2202201","2020-04-29 00:00","2020","04","29","00:00","5.2","","-0.2","","69","","","","15","","13","","24.1","","98.01","","","","","","NA"
"-111.96","60.02","FORT SMITH A","2202201","2020-04-29 01:00","2020","04","29","01:00","5.4","","-0.7","","65","","","","17","","14","","24.1","","97.94","","","","","","NA"
"-111.96","60.02","FORT SMITH A","2202201","2020-04-29 02:00","2020","04","29","02:00","5.9","","-1.2","","60","","","","16","","16","","24.1","","97.92","","","","","","Cloudy"
"-111.96","60.02","FORT SMITH A","2202201","2020-04-29 03:00","2020","04","29","03:00","7.1","","-1.6","","54","","","","20","","9","","24.1","","97.93","","","","","","NA"
"-111.96","60.02","FORT SMITH A","2202201","2020-04-29 04:00","2020","04","29","04:00","5.8","","0.5","","68","","","","22","","12","","19.3","","97.92","","","","","","Rain Showers"
"-111.96","60.02","FORT SMITH A","2202201","2020-04-29 05:00","2020","04","29","05:00","7.0","","0.7","","64","","","","20","","12","","24.1","","97.89","","","","","","Rain Showers"
"-111.96","60.02","FORT SMITH A","2202201","2020-04-29 06:00","2020","04","29","06:00","6.4","","2.0","","73","","","","20","","7","","24.1","","97.88","","","","","","NA"
"-111.96","60.02","FORT SMITH A","2202201","2020-04-29 07:00","2020","04","29","07:00","5.2","","2.0","","80","","","","17","","5","","24.1","","97.85","","","","","","Rain Showers"
"-111.96","60.02","FORT SMITH A","2202201","2020-04-29 08:00","2020","04","29","08:00","7.1","","2.6","","73","","","","21","","9","","24.1","","97.85","","","","","","Mostly Cloudy"
"-111.96","60.02","FORT SMITH A","2202201","2020-04-29 09:00","2020","04","29","09:00","10.0","","1.6","","56","","","","22","","10","","24.1","","97.83","","","","","","NA"
"-111.96","60.02","FORT SMITH A","2202201","2020-04-29 10:00","2020","04","29","10:00","10.4","","-0.8","","46","","","","26","","18","","24.1","","97.85","","","","","","NA"
"-111.96","60.02","FORT SMITH A","2202201","2020-04-29 11:00","2020","04","29","11:00","10.1","","-0.4","","48","","","","26","","16","","24.1","","97.88","","","","","","Mostly Cloudy"
"-111.96","60.02","FORT SMITH A","2202201","2020-04-29 12:00","2020","04","29","12:00","10.7","","-1.6","","42","","","","29","","17","","24.1","","97.90","","","","","","NA"
"-111.96","60.02","FORT SMITH A","2202201","2020-04-29 13:00","2020","04","29","13:00","12.0","","-1.9","","38","","","","28","","19","","24.1","","97.96","","","","","","NA"
"-111.96","60.02","FORT SMITH A","2202201","2020-04-29 14:00","2020","04","29","14:00","12.4","","-1.3","","38","","","","26","","10","","24.1","","97.99","","","","","","Mostly Cloudy"
"-111.96","60.02","FORT SMITH A","2202201","2020-04-29 15:00","2020","04","29","15:00","11.0","","-2.1","","40","","","","29","","17","","24.1","","98.06","","","","","","NA"
"-111.96","60.02","FORT SMITH A","2202201","2020-04-29 16:00","2020","04","29","16:00","11.6","","-1.6","","40","","","","27","","11","","24.1","","98.08","","","","","","NA"
"-111.96","60.02","FORT SMITH A","2202201","2020-04-29 17:00","2020","04","29","17:00","11.6","","-1.4","","40","","","","29","","16","","24.1","","98.14","","","","","","Mainly Clear"
"-111.96","60.02","FORT SMITH A","2202201","2020-04-29 18:00","2020","04","29","18:00","12.5","","-2.7","","35","","","","31","","15","","24.1","","98.17","","","","","","NA"
"-111.96","60.02","FORT SMITH A","2202201","2020-04-29 19:00","2020","04","29","19:00","12.9","","-2.8","","34","","","","31","","7","","24.1","","98.19","","","","","","NA"
"-111.96","60.02","FORT SMITH A","2202201","2020-04-29 20:00","2020","04","29","20:00","8.0","","-0.6","","55","","","","36","","2","","24.1","","98.21","","","","","","Mainly Clear"
"-111.96","60.02","FORT SMITH A","2202201","2020-04-29 21:00","2020","04","29","21:00","5.2","","-1.1","","64","","","","36","","3","","24.1","","98.27","","","","","","NA"
"-111.96","60.02","FORT SMITH A","2202201","2020-04-29 22:00","2020","04","29","22:00","3.2","","-2.5","","66","","","","36","","1","","24.1","","98.31","","","","","","NA"
"-111.96","60.02","FORT SMITH A","2202201","2020-04-29 23:00","2020","04","29","23:00","2.4","","-2.2","","72","","","","36","","2","","24.1","","98.32","","","","","","Clear"
"-111.96","60.02","FORT SMITH A","2202201","2020-04-30 00:00","2020","04","30","00:00","1.1","","-2.6","","76","","","","36","","1","","24.1","","98.33","","","","","","NA"
"-111.96","60.02","FORT SMITH A","2202201","2020-04-30 01:00","2020","04","30","01:00","0.9","","-3.2","","74","","","","36","","1","","24.1","","98.33","","","","","","NA"
"-111.96","60.02","FORT SMITH A","2202201","2020-04-30 02:00","2020","04","30","02:00","0.7","","-2.8","","77","","","","36","","2","","24.1","","98.35","","","","","","Mainly Clear"
"-111.96","60.02","FORT SMITH A","2202201","2020-04-30 03:00","2020","04","30","03:00","0.1","","-3.5","","77","","","","36","","3","","24.1","","98.36","","","","","","NA"
"-111.96","60.02","FORT SMITH A","2202201","2020-04-30 04:00","2020","04","30","04:00","-0.3","","-3.5","","79","","","","36","","1","","24.1","","98.38","","","","-1","","NA"
"-111.96","60.02","FORT SMITH A","2202201","2020-04-30 05:00","2020","04","30","05:00","0.3","","-2.6","","81","","","","14","","5","","24.1","","98.43","","","","","","Mostly Cloudy"
"-111.96","60.02","FORT SMITH A","2202201","2020-04-30 06:00","2020","04","30","06:00","3.1","","-1.4","","72","","","","13","","5","","24.1","","98.44","","","","","","NA"
"-111.96","60.02","FORT SMITH A","2202201","2020-04-30 07:00","2020","04","30","07:00","6.8","","-0.4","","60","","","","14","","6","","24.1","","98.46","","","","","","NA"
"-111.96","60.02","FORT SMITH A","2202201","2020-04-30 08:00","2020","04","30","08:00","9.3","","-0.4","","51","","","","10","","7","","24.1","","98.47","","","","","","Mostly Cloudy"
"-111.96","60.02","FORT SMITH A","2202201","2020-04-30 09:00","2020","04","30","09:00","10.7","","-0.6","","45","","","","11","","10","","24.1","","98.47","","","","","","NA"
"-111.96","60.02","FORT SMITH A","2202201","2020-04-30 10:00","2020","04","30","10:00","12.1","","-1.0","","40","","","","11","","10","","24.1","","98.46","","","","","","NA"
"-111.96","60.02","FORT SMITH A","2202201","2020-04-30 11:00","2020","04","30","11:00","12.2","","-1.4","","39","","","","12","","10","","24.1","","98.48","","","","","","Mostly Cloudy"
"-111.96","60.02","FORT SMITH A","2202201","2020-04-30 12:00","2020","04","30","12:00","12.9","","-1.7","","36","","","","11","","9","","24.1","","98.48","","","","","","NA"
"-111.96","60.02","FORT SMITH A","2202201","2020-04-30 13:00","2020","04","30","13:00","13.1","","-2.1","","34","","","","11","","12","","24.1","","98.46","","","","","","NA"
"-111.96","60.02","FORT SMITH A","2202201","2020-04-30 14:00","2020","04","30","14:00","13.7","","-2.9","","32","","","","13","","13","","24.1","","98.45","","","","","","Mostly Cloudy"
"-111.96","60.02","FORT SMITH A","2202201","2020-04-30 15:00","2020","04","30","15:00","13.2","","-2.7","","33","","","","9","","12","","24.1","","98.48","","","","","","NA"
"-111.96","60.02","FORT SMITH A","2202201","2020-04-30 16:00","2020","04","30","16:00","12.6","","-1.6","","37","","","","9","","12","","24.1","","98.48","","","","","","NA"
"-111.96","60.02","FORT SMITH A","2202201","2020-04-30 17:00","2020","04","30","17:00","12.2","","-0.4","","42","","","","8","","9","","24.1","","98.49","","","","","","Cloudy"
"-111.96","60.02","FORT SMITH A","2202201","2020-04-30 18:00","2020","04","30","18:00","11.9","","-0.2","","43","","","","7","","10","","24.1","","98.52","","","","","","NA"
"-111.96","60.02","FORT SMITH A","2202201","2020-04-30 19:00","2020","04","30","19:00","9.3","","-0.2","","52","","","","5","","9","","24.1","","98.57","","","","","","NA"
"-111.96","60.02","FORT SMITH A","2202201","2020-04-30 20:00","2020","04","30","20:00","7.5","","-0.5","","57","","","","5","","12","","24.1","","98.63","","","","","","Cloudy"
"-111.96","60.02","FORT SMITH A","2202201","2020-04-30 21:00","2020","04","30","21:00","6.4","","-0.6","","61","","","","6","","10","","24.1","","98.68","","","","","","NA"
"-111.96","60.02","FORT SMITH A","2202201","2020-04-30 22:00","2020","04","30","22:00","5.7","","-0.7","","64","","","","7","","9","","24.1","","98.74","","","","","","NA"
"-111.96","60.02","FORT SMITH A","2202201","2020-04-30 23:00","2020","04","30","23:00","5.1","","-0.5","","67","","","","9","","8","","24.1","","98.79","","","","","","Cloudy"
