"Longitude (x)","Latitude (y)","Station Name","Climate ID","Date/Time (LST)","Year","Month","Day","Time (LST)","Temp (°C)","Temp Flag","Dew Point Temp (°C)","Dew Point Temp Flag","Rel Hum (%)","Rel Hum Flag","Precip. Amount (mm)","Precip. Amount Flag","Wind Dir (10s deg)","Wind Dir Flag","Wind Spd (km/h)","Wind Spd Flag","Visibility (km)","Visibility Flag","Stn Press (kPa)","Stn Press Flag","Hmdx","Hmdx Flag","Wind Chill","Wind Chill Flag","Weather"
"-75.56","45.52","OTTAWA GATINEAU A","7032682","2021-01-01 00:00","2021","01","01","00:00"
"-75.56","45.52","OTTAWA GATINEAU A","7032682","2021-01-01 01:00","2021","01","01","01:00"
"-75.56","45.52","OTTAWA GATINEAU A","7032682","2021-01-01 02:00","2021","01","01","02:00"
"-75.56","45.52","OTTAWA GATINEAU A","7032682","2021-01-01 03:00","2021","01","01","03:00"
"-75.56","45.52","OTTAWA GATINEAU A","7032682","2021-01-01 04:00","2021","01","01","04:00"
"-75.56","45.52","OTTAWA GATINEAU A","7032682","2021-01-01 05:00","2021","01","01","05:00"
"-75.56","45.52","OTTAWA GATINEAU A","7032682","2021-01-01 06:00","2021","01","01","06:00"
"-75.56","45.52","OTTAWA GATINEAU A","7032682","2021-01-01 07:00","2021","01","01","07:00","-5.6","","-7.3","","87","","","","4","","5","","24.1","","102.49","","","","-8","","Cloudy"
"-75.56","45.52","OTTAWA GATINEAU A","7032682","2021-01-01 08:00","2021","01","01","08:00","-5.3","","-7.0","","88","","","","7","","4","","24.1","","102.49","","","","-7","","NA"
"-75.56","45.52","OTTAWA GATINEAU A","7032682","2021-01-01 09:00","2021","01","01","09:00","-4.7","","-7.2","","83","","","","7","","5","","24.1","","102.50","","","","-7","","NA"
"-75.56","45.52","OTTAWA GATINEAU A","7032682","2021-01-01 10:00","2021","01","01","10:00","-4.2","","-7.2","","80","","","","8","","9","","24.1","","102.53","","","","-8","","Cloudy"
"-75.56","45.52","OTTAWA GATINEAU A","7032682","2021-01-01 11:00","2021","01","01","11:00","-3.3","","-6.5","","79","","","","8","","9","","24.1","","102.41","","","","-7","","NA"
"-75.56","45.52","OTTAWA GATINEAU A","7032682","2021-01-01 12:00","2021","01","01","12:00","-2.8","","-6.1","","78","","","","8","","11","","24.1","","102.29","","","","-7","","NA"
"-75.56","45.52","OTTAWA GATINEAU A","7032682","2021-01-01 13:00","2021","01","01","13:00","-2.5","","-6.2","","76","","","","8","","7","","24.1","","102.24","","","","-5","","Cloudy"
"-75.56","45.52","OTTAWA GATINEAU A","7032682","2021-01-01 14:00","2021","01","01","14:00","-2.0","","-5.9","","75","","","","7","","12","","19.3","","102.14","","","","-6","","NA"
"-75.56","45.52","OTTAWA GATINEAU A","7032682","2021-01-01 15:00","2021","01","01","15:00","-2.1","","-5.9","","75","","","","8","","15","","24.1","","102.03","","","","-7","","NA"
"-75.56","45.52","OTTAWA GATINEAU A","7032682","2021-01-01 16:00","2021","01","01","16:00","-2.6","","-6.1","","77","","","","8","","15","","24.1","","101.89","","","","-8","","Cloudy"
"-75.56","45.52","OTTAWA GATINEAU A","7032682","2021-01-01 17:00","2021","01","01","17:00","-3.1","","-6.1","","80","","","","7","","12","","24.1","","101.85","","","","-8","","NA"
"-75.56","45.52","OTTAWA GATINEAU A","7032682","2021-01-01 18:00","2021","01","01","18:00","-2.8","","-6.0","","79","","","","6","","13","","24.1","","101.78","","","","-7","","NA"
"-75.56","45.52","OTTAWA GATINEAU A","7032682","2021-01-01 19:00","2021","01","01","19:00","-2.9","","-6.0","","80","","","","7","","18","","24.1","","101.67","","","","-9","","Cloudy"
"-75.56","45.52","OTTAWA GATINEAU A","7032682","2021-01-01 20:00","2021","01","01","20:00","-3.2","","-6.3","","79","","","","8","","18","","24.1","","101.47","","","","-9","","NA"
"-75.56","45.52","OTTAWA GATINEAU A","7032682","2021-01-01 21:00","2021","01","01","21:00","-3.0","","-6.4","","77","","","","7","","16","","24.1","","101.38","","","","-8","","NA"
"-75.56","45.52","OTTAWA GATINEAU A","7032682","2021-01-01 22:00","2021","01","01","22:00"
"-75.56","45.52","OTTAWA GATINEAU A","7032682","2021-01-01 23:00","2021","01","01","23:00"
"-75.56","45.52","OTTAWA GATINEAU A","7032682","2021-01-02 00:00","2021","01","02","00:00"
"-75.56","45.52","OTTAWA GATINEAU A","7032682","2021-01-02 01:00","2021","01","02","01:00"
"-75.56","45.52","OTTAWA GATINEAU A","7032682","2021-01-02 02:00","2021","01","02","02:00"
"-75.56","45.52","OTTAWA GATINEAU A","7032682","2021-01-02 03:00","2021","01","02","03:00"
"-75.56","45.52","OTTAWA GATINEAU A","7032682","2021-01-02 04:00","2021","01","02","04:00"
"-75.56","45.52","OTTAWA GATINEAU A","7032682","2021-01-02 05:00","2021","01","02","05:00"
"-75.56","45.52","OTTAWA GATINEAU A","7032682","2021-01-02 06:00","2021","01","02","06:00"
"-75.56","45.52","OTTAWA GATINEAU A","7032682","2021-01-02 07:00","2021","01","02","07:00","-3.6","","-4.9","","91","","","","35","","15","","2.0","","100.13","","","","-9","","Snow"
"-75.56","45.52","OTTAWA GATINEAU A","7032682","2021-01-02 08:00","2021","01","02","08:00","-3.6","","-5.4","","87","","","","33","","14","","4.0","","100.19","","","","-9","","Snow"
"-75.56","45.52","OTTAWA GATINEAU A","7032682","2021-01-02 09:00","2021","01","02","09:00","-3.1","","-6.0","","81","","","","34","","15","","24.1","","100.32","","","","-8","","NA"
"-75.56","45.52","OTTAWA GATINEAU A","7032682","2021-01-02 10:00","2021","01","02","10:00","-2.6","","-6.0","","78","","","","33","","15","","24.1","","100.40","","","","-8","","Mostly Cloudy"
"-75.56","45.52","OTTAWA GATINEAU A","7032682","2021-01-02 11:00","2021","01","02","11:00","-1.5","","-5.5","","75","","","","32","","16","","24.1","","100.47","","","","-6","","NA"
"-75.56","45.52","OTTAWA GATINEAU A","7032682","2021-01-02 12:00","2021","01","02","12:00","-0.1","","-4.9","","70","","","","29","","9","","24.1","","100.48","","","","-3","","NA"
"-75.56","45.52","OTTAWA GATINEAU A","7032682","2021-01-02 13:00","2021","01","02","13:00","-0.7","","-4.7","","74","","","","27","","19","","24.1","","100.57","","","","-6","","Mainly Clear"
"-75.56","45.52","OTTAWA GATINEAU A","7032682","2021-01-02 14:00","2021","01","02","14:00","0.0","","-4.7","","71","","","","29","","18","","24.1","","100.69","","","","-5","","NA"
"-75.56","45.52","OTTAWA GATINEAU A","7032682","2021-01-02 15:00","2021","01","02","15:00","-0.7","","-5.3","","71","","","","30","","14","","24.1","","100.84","","","","-5","","NA"
"-75.56","45.52","OTTAWA GATINEAU A","7032682","2021-01-02 16:00","2021","01","02","16:00","-0.9","","-5.2","","72","","","","33","","6","","24.1","","100.94","","","","-3","","Mostly Cloudy"
"-75.56","45.52","OTTAWA GATINEAU A","7032682","2021-01-02 17:00","2021","01","02","17:00","-2.3","","-5.4","","79","","","","33","","4","","24.1","","101.02","","","","-4","","NA"
"-75.56","45.52","OTTAWA GATINEAU A","7032682","2021-01-02 18:00","2021","01","02","18:00","-1.8","","-5.6","","75","","","","31","","10","","24.1","","101.13","","","","-5","","NA"
"-75.56","45.52","OTTAWA GATINEAU A","7032682","2021-01-02 19:00","2021","01","02","19:00","-1.3","","-5.9","","71","","","","31","","9","","24.1","","101.19","","","","-5","","Mostly Cloudy"
"-75.56","45.52","OTTAWA GATINEAU A","7032682","2021-01-02 20:00","2021","01","02","20:00","-3.4","","-6.7","","78","","","","31","","4","","24.1","","101.26","","","","-5","","NA"
"-75.56","45.52","OTTAWA GATINEAU A","7032682","2021-01-02 21:00","2021","01","02","21:00","-7.0","","-8.4","","90","","","","35","","5","","24.1","","101.29","","","","-10","","NA"
"-75.56","45.52","OTTAWA GATINEAU A","7032682","2021-01-02 22:00","2021","01","02","22:00"
"-75.56","45.52","OTTAWA GATINEAU A","7032682","2021-01-02 23:00","2021","01","02","23:00"
"-75.56","45.52","OTTAWA GATINEAU A","7032682","2021-01-03 00:00","2021","01","03","00:00"
"-75.56","45.52","OTTAWA GATINEAU A","7032682","2021-01-03 01:00","2021","01","03","01:00"
"-75.56","45.52","OTTAWA GATINEAU A","7032682","2021-01-03 02:00","2021","01","03","02:00"
"-75.56","45.52","OTTAWA GATINEAU A","7032682","2021-01-03 03:00","2021","01","03","03:00"
"-75.56","45.52","OTTAWA GATINEAU A","7032682","2021-01-03 04:00","2021","01","03","04:00"
"-75.56","45.52","OTTAWA GATINEAU A","7032682","2021-01-03 05:00","2021","01","03","05:00"
"-75.56","45.52","OTTAWA GATINEAU A","7032682","2021-01-03 06:00","2021","01","03","06:00"
"-75.56","45.52","OTTAWA GATINEAU A","7032682","2021-01-03 07:00","2021","01","03","07:00","-6.6","","-7.8","","91","","","","8","","3","","24.1","","101.21","","","","-8","","Mostly Cloudy"
"-75.56","45.52","OTTAWA GATINEAU A","7032682","2021-01-03 08:00","2021","01","03","08:00","-6.7","","-8.1","","90","","","","7","","4","","24.1","","101.21","","","","-9","","NA"
"-75.56","45.52","OTTAWA GATINEAU A","7032682","2021-01-03 09:00","2021","01","03","09:00","-6.9","","-8.3","","90","","","","10","","7","","24.1","","101.19","","","","-10","","NA"
"-75.56","45.52","OTTAWA GATINEAU A","7032682","2021-01-03 10:00","2021","01","03","10:00","-5.9","","-8.0","","85","","","","9","","10","","24.1","","101.20","","","","-10","","Mostly Cloudy"
"-75.56","45.52","OTTAWA GATINEAU A","7032682","2021-01-03 11:00","2021","01","03","11:00","-4.8","","-7.2","","83","","","","9","","11","","24.1","","101.11","","","","-9","","NA"
"-75.56","45.52","OTTAWA GATINEAU A","7032682","2021-01-03 12:00","2021","01","03","12:00","-4.1","","-6.6","","83","","","","9","","8","","24.1","","100.97","","","","-8","","NA"
"-75.56","45.52","OTTAWA GATINEAU A","7032682","2021-01-03 13:00","2021","01","03","13:00","-2.5","","-6.0","","77","","","","9","","14","","24.1","","100.77","","","","-7","","Cloudy"
"-75.56","45.52","OTTAWA GATINEAU A","7032682","2021-01-03 14:00","2021","01","03","14:00","-2.6","","-6.0","","77","","","","9","","12","","24.1","","100.82","","","","-7","","NA"
"-75.56","45.52","OTTAWA GATINEAU A","7032682","2021-01-03 15:00","2021","01","03","15:00","-2.5","","-5.9","","78","","","","8","","8","","24.1","","100.81","","","","-6","","NA"
"-75.56","45.52","OTTAWA GATINEAU A","7032682","2021-01-03 16:00","2021","01","03","16:00","-2.6","","-5.7","","80","","","","7","","10","","24.1","","100.84","","","","-6","","Cloudy"
"-75.56","45.52","OTTAWA GATINEAU A","7032682","2021-01-03 17:00","2021","01","03","17:00","-2.5","","-5.3","","81","","","","6","","9","","24.1","","100.81","","","","-6","","NA"
"-75.56","45.52","OTTAWA GATINEAU A","7032682","2021-01-03 18:00","2021","01","03","18:00","-2.6","","-5.2","","82","","","","7","","14","","24.1","","100.83","","","","-7","","NA"
"-75.56","45.52","OTTAWA GATINEAU A","7032682","2021-01-03 19:00","2021","01","03","19:00","-2.7","","-5.2","","83","","","","7","","14","","24.1","","100.85","","","","-8","","Cloudy"
"-75.56","45.52","OTTAWA GATINEAU A","7032682","2021-01-03 20:00","2021","01","03","20:00","-2.8","","-5.2","","83","","","","8","","12","","24.1","","100.85","","","","-7","","NA"
"-75.56","45.52","OTTAWA GATINEAU A","7032682","2021-01-03 21:00","2021","01","03","21:00","-2.9","","-5.2","","84","","","","6","","10","","24.1","","100.85","","","","-7","","Snow"
"-75.56","45.52","OTTAWA GATINEAU A","7032682","2021-01-03 22:00","2021","01","03","22:00"
"-75.56","45.52","OTTAWA GATINEAU A","7032682","2021-01-03 23:00","2021","01","03","23:00"
"-75.56","45.52","OTTAWA GATINEAU A","7032682","2021-01-04 00:00","2021","01","04","00:00"
"-75.56","45.52","OTTAWA GATINEAU A","7032682","2021-01-04 01:00","2021","01","04","01:00"
"-75.56","45.52","OTTAWA GATINEAU A","7032682","2021-01-04 02:00","2021","01","04","02:00"
"-75.56","45.52","OTTAWA GATINEAU A","7032682","2021-01-04 03:00","2021","01","04","03:00"
"-75.56","45.52","OTTAWA GATINEAU A","7032682","2021-01-04 04:00","2021","01","04","04:00"
"-75.56","45.52","OTTAWA GATINEAU A","7032682","2021-01-04 05:00","2021","01","04","05:00"
"-75.56","45.52","OTTAWA GATINEAU A","7032682","2021-01-04 06:00","2021","01","04","06:00"
"-75.56","45.52","OTTAWA GATINEAU A","7032682","2021-01-04 07:00","2021","01","04","07:00","-3.1","","-4.5","","90","","","","33","","6","","19.3","","100.96","","","","-6","","Snow"
"-75.56","45.52","OTTAWA GATINEAU A","7032682","2021-01-04 08:00","2021","01","04","08:00","-2.9","","-4.4","","89","","","","36","","4","","16.1","","101.01","","","","-4","","NA"
"-75.56","45.52","OTTAWA GATINEAU A","7032682","2021-01-04 09:00","2021","01","04","09:00","-2.5","","-4.3","","88","","","","1","","7","","16.1","","101.06","","","","-5","","NA"
"-75.56","45.52","OTTAWA GATINEAU A","7032682","2021-01-04 10:00","2021","01","04","10:00","-2.2","","-3.7","","89","","","","36","","1","","4.8","","101.08","","","","-3","","Snow"
"-75.56","45.52","OTTAWA GATINEAU A","7032682","2021-01-04 11:00","2021","01","04","11:00","-1.7","","-3.9","","85","","","","36","","3","","16.1","","101.03","","","","-3","","Snow"
"-75.56","45.52","OTTAWA GATINEAU A","7032682","2021-01-04 12:00","2021","01","04","12:00","-1.3","","-3.9","","82","","","","9","","7","","16.1","","100.92","","","","-4","","Snow"
"-75.56","45.52","OTTAWA GATINEAU A","7032682","2021-01-04 13:00","2021","01","04","13:00","-1.2","","-3.8","","82","","","","11","","6","","16.1","","100.89","","","","-3","","Cloudy"
"-75.56","45.52","OTTAWA GATINEAU A","7032682","2021-01-04 14:00","2021","01","04","14:00","-0.9","","-3.6","","82","","","","7","","4","","16.1","","100.86","","","","-2","","NA"
"-75.56","45.52","OTTAWA GATINEAU A","7032682","2021-01-04 15:00","2021","01","04","15:00","-0.8","","-3.5","","82","","","","8","","4","","16.1","","100.86","","","","-2","","NA"
"-75.56","45.52","OTTAWA GATINEAU A","7032682","2021-01-04 16:00","2021","01","04","16:00","-0.7","","-3.5","","81","","","","12","","5","","19.3","","100.89","","","","-2","","Cloudy"
"-75.56","45.52","OTTAWA GATINEAU A","7032682","2021-01-04 17:00","2021","01","04","17:00","-1.0","","-3.4","","84","","","","8","","7","","19.3","","100.89","","","","-4","","NA"
"-75.56","45.52","OTTAWA GATINEAU A","7032682","2021-01-04 18:00","2021","01","04","18:00","-1.0","","-3.3","","85","","","","0","","1","","19.3","","100.91","","","","-1","","NA"
"-75.56","45.52","OTTAWA GATINEAU A","7032682","2021-01-04 19:00","2021","01","04","19:00","-1.2","","-3.0","","87","","","","36","","3","","12.9","","100.92","","","","-2","","Snow"
"-75.56","45.52","OTTAWA GATINEAU A","7032682","2021-01-04 20:00","2021","01","04","20:00","-1.5","","-2.8","","91","","","","36","","3","","12.9","","100.90","","","","-3","","Snow"
"-75.56","45.52","OTTAWA GATINEAU A","7032682","2021-01-04 21:00","2021","01","04","21:00","-1.6","","-2.7","","92","","","","2","","4","","8.1","","100.88","","","","-3","","Snow"
"-75.56","45.52","OTTAWA GATINEAU A","7032682","2021-01-04 22:00","2021","01","04","22:00"
"-75.56","45.52","OTTAWA GATINEAU A","7032682","2021-01-04 23:00","2021","01","04","23:00"
"-75.56","45.52","OTTAWA GATINEAU A","7032682","2021-01-05 00:00","2021","01","05","00:00"
"-75.56","45.52","OTTAWA GATINEAU A","7032682","2021-01-05 01:00","2021","01","05","01:00"
"-75.56","45.52","OTTAWA GATINEAU A","7032682","2021-01-05 02:00","2021","01","05","02:00"
"-75.56","45.52","OTTAWA GATINEAU A","7032682","2021-01-05 03:00","2021","01","05","03:00"
"-75.56","45.52","OTTAWA GATINEAU A","7032682","2021-01-05 04:00","2021","01","05","04:00"
"-75.56","45.52","OTTAWA GATINEAU A","7032682","2021-01-05 05:00","2021","01","05","05:00"
"-75.56","45.52","OTTAWA GATINEAU A","7032682","2021-01-05 06:00","2021","01","05","06:00"
"-75.56","45.52","OTTAWA GATINEAU A","7032682","2021-01-05 07:00","2021","01","05","07:00","-2.4","","-3.6","","91","","","","8","","8","","16.1","","100.85","","","","-6","","Cloudy"
"-75.56","45.52","OTTAWA GATINEAU A","7032682","2021-01-05 08:00","2021","01","05","08:00","-2.4","","-3.7","","91","","","","9","","8","","4.8","","100.91","","","","-6","","Fog"
"-75.56","45.52","OTTAWA GATINEAU A","7032682","2021-01-05 09:00","2021","01","05","09:00","-2.7","","-3.7","","93","","","","13","","10","","4.8","","100.95","","","","-7","","Snow,Fog"
"-75.56","45.52","OTTAWA GATINEAU A","7032682","2021-01-05 10:00","2021","01","05","10:00","-3.0","","-4.0","","93","","","","10","","11","","8.1","","100.97","","","","-7","","Snow,Fog"
"-75.56","45.52","OTTAWA GATINEAU A","7032682","2021-01-05 11:00","2021","01","05","11:00","-2.9","","-3.8","","93","","","","9","","13","","4.8","","100.93","","","","-8","","Snow,Fog"
"-75.56","45.52","OTTAWA GATINEAU A","7032682","2021-01-05 12:00","2021","01","05","12:00","-2.5","","-4.4","","87","","","","9","","6","","4.0","","100.86","","","","-5","","Snow,Fog"
"-75.56","45.52","OTTAWA GATINEAU A","7032682","2021-01-05 13:00","2021","01","05","13:00","-2.0","","-4.4","","84","","","","10","","7","","16.1","","100.82","","","","-5","","Cloudy"
"-75.56","45.52","OTTAWA GATINEAU A","7032682","2021-01-05 14:00","2021","01","05","14:00","-2.0","","-4.4","","83","","","","8","","5","","19.3","","100.82","","","","-4","","NA"
"-75.56","45.52","OTTAWA GATINEAU A","7032682","2021-01-05 15:00","2021","01","05","15:00","-1.6","","-4.3","","82","","","","36","","1","","19.3","","100.86","","","","-2","","NA"
"-75.56","45.52","OTTAWA GATINEAU A","7032682","2021-01-05 16:00","2021","01","05","16:00","-1.4","","-4.2","","82","","","","36","","3","","24.1","","100.94","","","","-2","","Cloudy"
"-75.56","45.52","OTTAWA GATINEAU A","7032682","2021-01-05 17:00","2021","01","05","17:00","-1.8","","-3.9","","86","","","","7","","4","","24.1","","100.99","","","","-3","","NA"
"-75.56","45.52","OTTAWA GATINEAU A","7032682","2021-01-05 18:00","2021","01","05","18:00","-2.1","","-4.0","","87","","","","8","","4","","24.1","","101.03","","","","-4","","NA"
"-75.56","45.52","OTTAWA GATINEAU A","7032682","2021-01-05 19:00","2021","01","05","19:00","-1.9","","-4.0","","86","","","","0","","1","","24.1","","101.05","","","","-2","","Cloudy"
"-75.56","45.52","OTTAWA GATINEAU A","7032682","2021-01-05 20:00","2021","01","05","20:00","-2.0","","-3.9","","87","","","","30","","4","","24.1","","101.06","","","","-3","","NA"
"-75.56","45.52","OTTAWA GATINEAU A","7032682","2021-01-05 21:00","2021","01","05","21:00","-2.5","","-3.8","","91","","","","7","","4","","24.1","","101.07","","","","-4","","NA"
"-75.56","45.52","OTTAWA GATINEAU A","7032682","2021-01-05 22:00","2021","01","05","22:00"
"-75.56","45.52","OTTAWA GATINEAU A","7032682","2021-01-05 23:00","2021","01","05","23:00"
"-75.56","45.52","OTTAWA GATINEAU A","7032682","2021-01-06 00:00","2021","01","06","00:00"
"-75.56","45.52","OTTAWA GATINEAU A","7032682","2021-01-06 01:00","2021","01","06","01:00"
"-75.56","45.52","OTTAWA GATINEAU A","7032682","2021-01-06 02:00","2021","01","06","02:00"
"-75.56","45.52","OTTAWA GATINEAU A","7032682","2021-01-06 03:00","2021","01","06","03:00"
"-75.56","45.52","OTTAWA GATINEAU A","7032682","2021-01-06 04:00","2021","01","06","04:00"
"-75.56","45.52","OTTAWA GATINEAU A","7032682","2021-01-06 05:00","2021","01","06","05:00"
"-75.56","45.52","OTTAWA GATINEAU A","7032682","2021-01-06 06:00","2021","01","06","06:00"
"-75.56","45.52","OTTAWA GATINEAU A","7032682","2021-01-06 07:00","2021","01","06","07:00","-2.7","","-5.3","","83","","","","1","","8","","24.1","","101.21","","","","-6","","Cloudy"
"-75.56","45.52","OTTAWA GATINEAU A","7032682","2021-01-06 08:00","2021","01","06","08:00","-2.9","","-5.2","","84","","","","2","","10","","24.1","","101.26","","","","-7","","NA"
"-75.56","45.52","OTTAWA GATINEAU A","7032682","2021-01-06 09:00","2021","01","06","09:00","-3.2","","-5.8","","82","","","","1","","10","","24.1","","101.35","","","","-7","","NA"
"-75.56","45.52","OTTAWA GATINEAU A","7032682","2021-01-06 10:00","2021","01","06","10:00","-3.2","","-6.1","","80","","","","33","","10","","24.1","","101.34","","","","-7","","Cloudy"
"-75.56","45.52","OTTAWA GATINEAU A","7032682","2021-01-06 11:00","2021","01","06","11:00","-3.2","","-6.1","","80","","","","31","","14","","24.1","","101.32","","","","-8","","NA"
"-75.56","45.52","OTTAWA GATINEAU A","7032682","2021-01-06 12:00","2021","01","06","12:00","-2.5","","-6.4","","75","","","","33","","10","","24.1","","101.29","","","","-6","","NA"
"-75.56","45.52","OTTAWA GATINEAU A","7032682","2021-01-06 13:00","2021","01","06","13:00","-2.7","","-6.9","","73","","","","31","","21","","24.1","","101.28","","","","-9","","Mostly Cloudy"
"-75.56","45.52","OTTAWA GATINEAU A","7032682","2021-01-06 14:00","2021","01","06","14:00","-2.5","","-7.3","","69","","","","33","","19","","24.1","","101.27","","","","-8","","NA"
"-75.56","45.52","OTTAWA GATINEAU A","7032682","2021-01-06 15:00","2021","01","06","15:00","-2.0","","-7.1","","68","","","","31","","21","","24.1","","101.32","","","","-8","","NA"
"-75.56","45.52","OTTAWA GATINEAU A","7032682","2021-01-06 16:00","2021","01","06","16:00","-2.4","","-7.4","","69","","","","32","","18","","24.1","","101.39","","","","-8","","Mostly Cloudy"
"-75.56","45.52","OTTAWA GATINEAU A","7032682","2021-01-06 17:00","2021","01","06","17:00","-3.2","","-7.6","","72","","","","34","","16","","24.1","","101.44","","","","-9","","NA"
"-75.56","45.52","OTTAWA GATINEAU A","7032682","2021-01-06 18:00","2021","01","06","18:00","-4.0","","-7.8","","75","","","","31","","9","","24.1","","101.50","","","","-8","","NA"
"-75.56","45.52","OTTAWA GATINEAU A","7032682","2021-01-06 19:00","2021","01","06","19:00","-4.4","","-8.1","","76","","","","31","","9","","24.1","","101.52","","","","-8","","Mostly Cloudy"
"-75.56","45.52","OTTAWA GATINEAU A","7032682","2021-01-06 20:00","2021","01","06","20:00","-4.1","","-7.5","","77","","","","32","","12","","24.1","","101.52","","","","-9","","NA"
"-75.56","45.52","OTTAWA GATINEAU A","7032682","2021-01-06 21:00","2021","01","06","21:00","-4.8","","-8.1","","78","","","","32","","9","","24.1","","101.53","","","","-9","","NA"
"-75.56","45.52","OTTAWA GATINEAU A","7032682","2021-01-06 22:00","2021","01","06","22:00"
"-75.56","45.52","OTTAWA GATINEAU A","7032682","2021-01-06 23:00","2021","01","06","23:00"
"-75.56","45.52","OTTAWA GATINEAU A","7032682","2021-01-07 00:00","2021","01","07","00:00"
"-75.56","45.52","OTTAWA GATINEAU A","7032682","2021-01-07 01:00","2021","01","07","01:00"
"-75.56","45.52","OTTAWA GATINEAU A","7032682","2021-01-07 02:00","2021","01","07","02:00"
"-75.56","45.52","OTTAWA GATINEAU A","7032682","2021-01-07 03:00","2021","01","07","03:00"
"-75.56","45.52","OTTAWA GATINEAU A","7032682","2021-01-07 04:00","2021","01","07","04:00"
"-75.56","45.52","OTTAWA GATINEAU A","7032682","2021-01-07 05:00","2021","01","07","05:00"
"-75.56","45.52","OTTAWA GATINEAU A","7032682","2021-01-07 06:00","2021","01","07","06:00"
"-75.56","45.52","OTTAWA GATINEAU A","7032682","2021-01-07 07:00","2021","01","07","07:00","-3.3","","-6.8","","77","","","","34","","13","","24.1","","101.74","","","","-8","","Cloudy"
"-75.56","45.52","OTTAWA GATINEAU A","7032682","2021-01-07 08:00","2021","01","07","08:00","-3.8","","-7.0","","78","","","","34","","16","","24.1","","101.79","","","","-9","","NA"
"-75.56","45.52","OTTAWA GATINEAU A","7032682","2021-01-07 09:00","2021","01","07","09:00","-4.0","","-7.5","","77","","","","35","","12","","24.1","","101.84","","","","-9","","NA"
"-75.56","45.52","OTTAWA GATINEAU A","7032682","2021-01-07 10:00","2021","01","07","10:00","-4.0","","-7.4","","77","","","","33","","18","","24.1","","101.84","","","","-10","","Cloudy"
"-75.56","45.52","OTTAWA GATINEAU A","7032682","2021-01-07 11:00","2021","01","07","11:00","-4.3","","-7.7","","77","","","","32","","10","","24.1","","101.80","","","","-8","","NA"
"-75.56","45.52","OTTAWA GATINEAU A","7032682","2021-01-07 12:00","2021","01","07","12:00","-4.4","","-8.2","","75","","","","31","","16","","24.1","","101.73","","","","-10","","NA"
"-75.56","45.52","OTTAWA GATINEAU A","7032682","2021-01-07 13:00","2021","01","07","13:00","-4.3","","-8.8","","72","","","","31","","18","","24.1","","101.69","","","","-10","","Mostly Cloudy"
"-75.56","45.52","OTTAWA GATINEAU A","7032682","2021-01-07 14:00","2021","01","07","14:00","-4.4","","-9.2","","69","","","","31","","20","","24.1","","101.70","","","","-11","","NA"
"-75.56","45.52","OTTAWA GATINEAU A","7032682","2021-01-07 15:00","2021","01","07","15:00","-4.9","","-9.6","","70","","","","32","","16","","24.1","","101.73","","","","-11","","NA"
"-75.56","45.52","OTTAWA GATINEAU A","7032682","2021-01-07 16:00","2021","01","07","16:00","-5.1","","-9.8","","70","","","","30","","17","","24.1","","101.74","","","","-11","","Mostly Cloudy"
"-75.56","45.52","OTTAWA GATINEAU A","7032682","2021-01-07 17:00","2021","01","07","17:00","-5.6","","-10.1","","71","","","","31","","15","","24.1","","101.76","","","","-11","","NA"
"-75.56","45.52","OTTAWA GATINEAU A","7032682","2021-01-07 18:00","2021","01","07","18:00","-5.7","","-9.9","","72","","","","31","","17","","24.1","","101.80","","","","-12","","NA"
"-75.56","45.52","OTTAWA GATINEAU A","7032682","2021-01-07 19:00","2021","01","07","19:00","-5.7","","-9.7","","74","","","","31","","9","","24.1","","101.83","","","","-10","","Mostly Cloudy"
"-75.56","45.52","OTTAWA GATINEAU A","7032682","2021-01-07 20:00","2021","01","07","20:00","-5.7","","-9.6","","74","","","","32","","8","","24.1","","101.80","","","","-9","","NA"
"-75.56","45.52","OTTAWA GATINEAU A","7032682","2021-01-07 21:00","2021","01","07","21:00","-5.7","","-9.3","","76","","","","31","","10","","24.1","","101.78","","","","-10","","NA"
"-75.56","45.52","OTTAWA GATINEAU A","7032682","2021-01-07 22:00","2021","01","07","22:00"
"-75.56","45.52","OTTAWA GATINEAU A","7032682","2021-01-07 23:00","2021","01","07","23:00"
"-75.56","45.52","OTTAWA GATINEAU A","7032682","2021-01-08 00:00","2021","01","08","00:00"
"-75.56","45.52","OTTAWA GATINEAU A","7032682","2021-01-08 01:00","2021","01","08","01:00"
"-75.56","45.52","OTTAWA GATINEAU A","7032682","2021-01-08 02:00","2021","01","08","02:00"
"-75.56","45.52","OTTAWA GATINEAU A","7032682","2021-01-08 03:00","2021","01","08","03:00"
"-75.56","45.52","OTTAWA GATINEAU A","7032682","2021-01-08 04:00","2021","01","08","04:00"
"-75.56","45.52","OTTAWA GATINEAU A","7032682","2021-01-08 05:00","2021","01","08","05:00"
"-75.56","45.52","OTTAWA GATINEAU A","7032682","2021-01-08 06:00","2021","01","08","06:00"
"-75.56","45.52","OTTAWA GATINEAU A","7032682","2021-01-08 07:00","2021","01","08","07:00","-11.2","","-13.7","","82","","","","29","","7","","24.1","","101.61","","","","-15","","Mainly Clear"
"-75.56","45.52","OTTAWA GATINEAU A","7032682","2021-01-08 08:00","2021","01","08","08:00","-12.4","","-14.6","","84","","","","27","","8","","24.1","","101.59","","","","-17","","NA"
"-75.56","45.52","OTTAWA GATINEAU A","7032682","2021-01-08 09:00","2021","01","08","09:00","-10.3","","-13.8","","76","","","","29","","11","","24.1","","101.58","","","","-16","","NA"
"-75.56","45.52","OTTAWA GATINEAU A","7032682","2021-01-08 10:00","2021","01","08","10:00","-8.3","","-13.6","","66","","","","33","","8","","24.1","","101.54","","","","-12","","Clear"
"-75.56","45.52","OTTAWA GATINEAU A","7032682","2021-01-08 11:00","2021","01","08","11:00","-6.6","","-13.4","","59","","","","30","","12","","24.1","","101.45","","","","-12","","NA"
"-75.56","45.52","OTTAWA GATINEAU A","7032682","2021-01-08 12:00","2021","01","08","12:00","-5.1","","-13.9","","51","","","","31","","16","","24.1","","101.34","","","","-11","","NA"
"-75.56","45.52","OTTAWA GATINEAU A","7032682","2021-01-08 13:00","2021","01","08","13:00","-4.5","","-14.1","","47","","","","33","","15","","24.1","","101.23","","","","-10","","Clear"
"-75.56","45.52","OTTAWA GATINEAU A","7032682","2021-01-08 14:00","2021","01","08","14:00","-3.3","","-14.6","","42","","","","33","","13","","24.1","","101.20","","","","-8","","NA"
"-75.56","45.52","OTTAWA GATINEAU A","7032682","2021-01-08 15:00","2021","01","08","15:00","-3.4","","-14.4","","43","","","","32","","13","","24.1","","101.19","","","","-8","","NA"
"-75.56","45.52","OTTAWA GATINEAU A","7032682","2021-01-08 16:00","2021","01","08","16:00","-4.1","","-14.5","","44","","","","33","","10","","24.1","","101.18","","","","-8","","Clear"
"-75.56","45.52","OTTAWA GATINEAU A","7032682","2021-01-08 17:00","2021","01","08","17:00","-5.8","","-15.1","","48","","","","32","","7","","24.1","","101.22","","","","-9","","NA"
"-75.56","45.52","OTTAWA GATINEAU A","7032682","2021-01-08 18:00","2021","01","08","18:00","-6.8","","-15.2","","51","","","","31","","7","","24.1","","101.23","","","","-10","","NA"
"-75.56","45.52","OTTAWA GATINEAU A","7032682","2021-01-08 19:00","2021","01","08","19:00","-9.6","","-15.7","","62","","","","24","","4","","24.1","","101.22","","","","-12","","Clear"
"-75.56","45.52","OTTAWA GATINEAU A","7032682","2021-01-08 20:00","2021","01","08","20:00","-10.1","","-15.1","","67","","","","28","","8","","24.1","","101.19","","","","-15","","NA"
"-75.56","45.52","OTTAWA GATINEAU A","7032682","2021-01-08 21:00","2021","01","08","21:00","-12.2","","-16.6","","70","","","","27","","8","","24.1","","101.20","","","","-17","","NA"
"-75.56","45.52","OTTAWA GATINEAU A","7032682","2021-01-08 22:00","2021","01","08","22:00"
"-75.56","45.52","OTTAWA GATINEAU A","7032682","2021-01-08 23:00","2021","01","08","23:00"
"-75.56","45.52","OTTAWA GATINEAU A","7032682","2021-01-09 00:00","2021","01","09","00:00"
"-75.56","45.52","OTTAWA GATINEAU A","7032682","2021-01-09 01:00","2021","01","09","01:00"
"-75.56","45.52","OTTAWA GATINEAU A","7032682","2021-01-09 02:00","2021","01","09","02:00"
"-75.56","45.52","OTTAWA GATINEAU A","7032682","2021-01-09 03:00","2021","01","09","03:00"
"-75.56","45.52","OTTAWA GATINEAU A","7032682","2021-01-09 04:00","2021","01","09","04:00"
"-75.56","45.52","OTTAWA GATINEAU A","7032682","2021-01-09 05:00","2021","01","09","05:00"
"-75.56","45.52","OTTAWA GATINEAU A","7032682","2021-01-09 06:00","2021","01","09","06:00"
"-75.56","45.52","OTTAWA GATINEAU A","7032682","2021-01-09 07:00","2021","01","09","07:00","-9.5","","-13.9","","71","","","","28","","10","","24.1","","101.16","","","","-15","","Mostly Cloudy"
"-75.56","45.52","OTTAWA GATINEAU A","7032682","2021-01-09 08:00","2021","01","09","08:00","-9.7","","-14.0","","71","","","","26","","12","","24.1","","101.19","","","","-16","","NA"
"-75.56","45.52","OTTAWA GATINEAU A","7032682","2021-01-09 09:00","2021","01","09","09:00","-9.7","","-14.4","","69","","","","27","","12","","24.1","","101.24","","","","-16","","NA"
"-75.56","45.52","OTTAWA GATINEAU A","7032682","2021-01-09 10:00","2021","01","09","10:00","-8.0","","-13.7","","64","","","","27","","17","","24.1","","101.23","","","","-15","","Mainly Clear"
"-75.56","45.52","OTTAWA GATINEAU A","7032682","2021-01-09 11:00","2021","01","09","11:00","-3.2","","-12.8","","48","","","","31","","16","","24.1","","101.13","","","","-9","","NA"
"-75.56","45.52","OTTAWA GATINEAU A","7032682","2021-01-09 12:00","2021","01","09","12:00","-1.5","","-12.7","","42","","","","32","","19","","24.1","","101.04","","","","-7","","NA"
"-75.56","45.52","OTTAWA GATINEAU A","7032682","2021-01-09 13:00","2021","01","09","13:00","-1.1","","-11.3","","46","","","","30","","14","","24.1","","101.00","","","","-6","","Mostly Cloudy"
"-75.56","45.52","OTTAWA GATINEAU A","7032682","2021-01-09 14:00","2021","01","09","14:00","-0.8","","-10.0","","50","","","","1","","13","","24.1","","101.01","","","","-5","","NA"
"-75.56","45.52","OTTAWA GATINEAU A","7032682","2021-01-09 15:00","2021","01","09","15:00","-1.5","","-9.4","","55","","","","35","","18","","24.1","","101.07","","","","-7","","NA"
"-75.56","45.52","OTTAWA GATINEAU A","7032682","2021-01-09 16:00","2021","01","09","16:00","-2.9","","-9.3","","61","","","","33","","18","","24.1","","101.14","","","","-9","","Mostly Cloudy"
"-75.56","45.52","OTTAWA GATINEAU A","7032682","2021-01-09 17:00","2021","01","09","17:00","-3.8","","-8.8","","68","","","","32","","17","","24.1","","101.22","","","","-10","","NA"
"-75.56","45.52","OTTAWA GATINEAU A","7032682","2021-01-09 18:00","2021","01","09","18:00","-4.7","","-8.7","","73","","","","34","","11","","24.1","","101.27","","","","-9","","NA"
"-75.56","45.52","OTTAWA GATINEAU A","7032682","2021-01-09 19:00","2021","01","09","19:00","-5.2","","-8.9","","76","","","","34","","8","","24.1","","101.30","","","","-9","","Mostly Cloudy"
"-75.56","45.52","OTTAWA GATINEAU A","7032682","2021-01-09 20:00","2021","01","09","20:00","-5.7","","-8.9","","78","","","","33","","7","","24.1","","101.32","","","","-9","","NA"
"-75.56","45.52","OTTAWA GATINEAU A","7032682","2021-01-09 21:00","2021","01","09","21:00","-6.1","","-9.2","","78","","","","30","","8","","24.1","","101.34","","","","-10","","NA"
"-75.56","45.52","OTTAWA GATINEAU A","7032682","2021-01-09 22:00","2021","01","09","22:00"
"-75.56","45.52","OTTAWA GATINEAU A","7032682","2021-01-09 23:00","2021","01","09","23:00"
"-75.56","45.52","OTTAWA GATINEAU A","7032682","2021-01-10 00:00","2021","01","10","00:00"
"-75.56","45.52","OTTAWA GATINEAU A","7032682","2021-01-10 01:00","2021","01","10","01:00"
"-75.56","45.52","OTTAWA GATINEAU A","7032682","2021-01-10 02:00","2021","01","10","02:00"
"-75.56","45.52","OTTAWA GATINEAU A","7032682","2021-01-10 03:00","2021","01","10","03:00"
"-75.56","45.52","OTTAWA GATINEAU A","7032682","2021-01-10 04:00","2021","01","10","04:00"
"-75.56","45.52","OTTAWA GATINEAU A","7032682","2021-01-10 05:00","2021","01","10","05:00"
"-75.56","45.52","OTTAWA GATINEAU A","7032682","2021-01-10 06:00","2021","01","10","06:00"
"-75.56","45.52","OTTAWA GATINEAU A","7032682","2021-01-10 07:00","2021","01","10","07:00","-7.4","","-9.6","","84","","","","31","","4","","16.1","","101.69","","","","-9","","Mostly Cloudy"
"-75.56","45.52","OTTAWA GATINEAU A","7032682","2021-01-10 08:00","2021","01","10","08:00","-7.8","","-9.9","","85","","","","28","","9","","16.1","","101.73","","","","-12","","NA"
"-75.56","45.52","OTTAWA GATINEAU A","7032682","2021-01-10 09:00","2021","01","10","09:00","-7.8","","-10.0","","85","","","","24","","6","","16.1","","101.81","","","","-11","","NA"
"-75.56","45.52","OTTAWA GATINEAU A","7032682","2021-01-10 10:00","2021","01","10","10:00","-7.7","","-10.1","","83","","","","26","","10","","19.3","","101.87","","","","-13","","Mostly Cloudy"
"-75.56","45.52","OTTAWA GATINEAU A","7032682","2021-01-10 11:00","2021","01","10","11:00","-7.3","","-10.6","","78","","","","23","","4","","16.1","","101.85","","","","-9","","NA"
"-75.56","45.52","OTTAWA GATINEAU A","7032682","2021-01-10 12:00","2021","01","10","12:00","-6.5","","-10.6","","73","","","","29","","4","","19.3","","101.78","","","","-8","","NA"
"-75.56","45.52","OTTAWA GATINEAU A","7032682","2021-01-10 13:00","2021","01","10","13:00","-6.8","","-10.3","","76","","","","20","","14","","19.3","","101.72","","","","-13","","Mostly Cloudy"
"-75.56","45.52","OTTAWA GATINEAU A","7032682","2021-01-10 14:00","2021","01","10","14:00","-7.2","","-10.2","","79","","","","21","","13","","24.1","","101.73","","","","-13","","NA"
"-75.56","45.52","OTTAWA GATINEAU A","7032682","2021-01-10 15:00","2021","01","10","15:00","-7.4","","-10.4","","79","","","","24","","9","","24.1","","101.75","","","","-12","","NA"
"-75.56","45.52","OTTAWA GATINEAU A","7032682","2021-01-10 16:00","2021","01","10","16:00","-7.3","","-10.3","","79","","","","23","","8","","24.1","","101.78","","","","-11","","Mostly Cloudy"
"-75.56","45.52","OTTAWA GATINEAU A","7032682","2021-01-10 17:00","2021","01","10","17:00","-8.0","","-10.7","","81","","","","24","","7","","24.1","","101.81","","","","-12","","NA"
"-75.56","45.52","OTTAWA GATINEAU A","7032682","2021-01-10 18:00","2021","01","10","18:00","-8.8","","-10.8","","86","","","","0","","1","","24.1","","101.80","","","","-9","","NA"
"-75.56","45.52","OTTAWA GATINEAU A","7032682","2021-01-10 19:00","2021","01","10","19:00","-10.8","","-12.6","","86","","","","36","","3","","24.1","","101.85","","","","-13","","Mostly Cloudy"
"-75.56","45.52","OTTAWA GATINEAU A","7032682","2021-01-10 20:00","2021","01","10","20:00","-10.7","","-12.4","","87","","","","2","","4","","24.1","","101.83","","","","-13","","NA"
"-75.56","45.52","OTTAWA GATINEAU A","7032682","2021-01-10 21:00","2021","01","10","21:00","-10.6","","-12.1","","89","","","","36","","2","","24.1","","101.82","","","","-12","","NA"
"-75.56","45.52","OTTAWA GATINEAU A","7032682","2021-01-10 22:00","2021","01","10","22:00"
"-75.56","45.52","OTTAWA GATINEAU A","7032682","2021-01-10 23:00","2021","01","10","23:00"
"-75.56","45.52","OTTAWA GATINEAU A","7032682","2021-01-11 00:00","2021","01","11","00:00"
"-75.56","45.52","OTTAWA GATINEAU A","7032682","2021-01-11 01:00","2021","01","11","01:00"
"-75.56","45.52","OTTAWA GATINEAU A","7032682","2021-01-11 02:00","2021","01","11","02:00"
"-75.56","45.52","OTTAWA GATINEAU A","7032682","2021-01-11 03:00","2021","01","11","03:00"
"-75.56","45.52","OTTAWA GATINEAU A","7032682","2021-01-11 04:00","2021","01","11","04:00"
"-75.56","45.52","OTTAWA GATINEAU A","7032682","2021-01-11 05:00","2021","01","11","05:00"
"-75.56","45.52","OTTAWA GATINEAU A","7032682","2021-01-11 06:00","2021","01","11","06:00"
"-75.56","45.52","OTTAWA GATINEAU A","7032682","2021-01-11 07:00","2021","01","11","07:00","-6.7","","-8.2","","89","","","","7","","8","","24.1","","101.65","","","","-11","","Cloudy"
"-75.56","45.52","OTTAWA GATINEAU A","7032682","2021-01-11 08:00","2021","01","11","08:00","-6.5","","-8.2","","88","","","","8","","10","","24.1","","101.61","","","","-11","","NA"
"-75.56","45.52","OTTAWA GATINEAU A","7032682","2021-01-11 09:00","2021","01","11","09:00","-6.1","","-8.1","","86","","","","8","","8","","24.1","","101.63","","","","-10","","NA"
"-75.56","45.52","OTTAWA GATINEAU A","7032682","2021-01-11 10:00","2021","01","11","10:00","-5.4","","-7.7","","84","","","","8","","7","","24.1","","101.59","","","","-9","","Cloudy"
"-75.56","45.52","OTTAWA GATINEAU A","7032682","2021-01-11 11:00","2021","01","11","11:00","-5.0","","-7.2","","84","","","","10","","8","","24.1","","101.51","","","","-9","","NA"
"-75.56","45.52","OTTAWA GATINEAU A","7032682","2021-01-11 12:00","2021","01","11","12:00","-4.0","","-6.4","","83","","","","9","","5","","24.1","","101.39","","","","-6","","NA"
"-75.56","45.52","OTTAWA GATINEAU A","7032682","2021-01-11 13:00","2021","01","11","13:00","-3.2","","-5.9","","82","","","","8","","8","","24.1","","101.26","","","","-6","","Mostly Cloudy"
"-75.56","45.52","OTTAWA GATINEAU A","7032682","2021-01-11 14:00","2021","01","11","14:00","-2.3","","-5.3","","80","","","","8","","9","","24.1","","101.21","","","","-6","","NA"
"-75.56","45.52","OTTAWA GATINEAU A","7032682","2021-01-11 15:00","2021","01","11","15:00","-1.8","","-4.9","","80","","","","8","","10","","12.9","","101.17","","","","-5","","Snow"
"-75.56","45.52","OTTAWA GATINEAU A","7032682","2021-01-11 16:00","2021","01","11","16:00","-1.9","","-3.8","","87","","","","8","","9","","4.8","","101.16","","","","-5","","Snow"
"-75.56","45.52","OTTAWA GATINEAU A","7032682","2021-01-11 17:00","2021","01","11","17:00","-1.9","","-3.2","","91","","","","8","","9","","12.9","","101.11","","","","-5","","Snow"
"-75.56","45.52","OTTAWA GATINEAU A","7032682","2021-01-11 18:00","2021","01","11","18:00","-1.3","","-2.4","","93","","","","7","","10","","24.1","","101.07","","","","-5","","Snow"
"-75.56","45.52","OTTAWA GATINEAU A","7032682","2021-01-11 19:00","2021","01","11","19:00","-1.2","","-1.9","","94","","","","8","","9","","12.9","","101.05","","","","-4","","Snow"
"-75.56","45.52","OTTAWA GATINEAU A","7032682","2021-01-11 20:00","2021","01","11","20:00","-0.8","","-1.5","","95","","","","8","","5","","24.1","","100.99","","","","-2","","Snow"
"-75.56","45.52","OTTAWA GATINEAU A","7032682","2021-01-11 21:00","2021","01","11","21:00","-0.7","","-1.4","","95","","","","36","","1","","24.1","","100.95","","","","-1","","Snow"
"-75.56","45.52","OTTAWA GATINEAU A","7032682","2021-01-11 22:00","2021","01","11","22:00"
"-75.56","45.52","OTTAWA GATINEAU A","7032682","2021-01-11 23:00","2021","01","11","23:00"
"-75.56","45.52","OTTAWA GATINEAU A","7032682","2021-01-12 00:00","2021","01","12","00:00"
"-75.56","45.52","OTTAWA GATINEAU A","7032682","2021-01-12 01:00","2021","01","12","01:00"
"-75.56","45.52","OTTAWA GATINEAU A","7032682","2021-01-12 02:00","2021","01","12","02:00"
"-75.56","45.52","OTTAWA GATINEAU A","7032682","2021-01-12 03:00","2021","01","12","03:00"
"-75.56","45.52","OTTAWA GATINEAU A","7032682","2021-01-12 04:00","2021","01","12","04:00"
"-75.56","45.52","OTTAWA GATINEAU A","7032682","2021-01-12 05:00","2021","01","12","05:00"
"-75.56","45.52","OTTAWA GATINEAU A","7032682","2021-01-12 06:00","2021","01","12","06:00"
"-75.56","45.52","OTTAWA GATINEAU A","7032682","2021-01-12 07:00","2021","01","12","07:00","-2.1","","-3.9","","88","","","","25","","4","","19.3","","100.97","","","","-4","","Snow"
"-75.56","45.52","OTTAWA GATINEAU A","7032682","2021-01-12 08:00","2021","01","12","08:00","-2.2","","-4.0","","87","","","","27","","3","","16.1","","101.00","","","","-3","","Snow"
"-75.56","45.52","OTTAWA GATINEAU A","7032682","2021-01-12 09:00","2021","01","12","09:00","-2.3","","-3.6","","91","","","","36","","2","","16.1","","101.04","","","","-3","","NA"
"-75.56","45.52","OTTAWA GATINEAU A","7032682","2021-01-12 10:00","2021","01","12","10:00","-0.7","","-3.6","","81","","","","24","","8","","19.3","","101.05","","","","-4","","Cloudy"
"-75.56","45.52","OTTAWA GATINEAU A","7032682","2021-01-12 11:00","2021","01","12","11:00","-0.2","","-3.6","","78","","","","25","","16","","16.1","","101.02","","","","-5","","NA"
"-75.56","45.52","OTTAWA GATINEAU A","7032682","2021-01-12 12:00","2021","01","12","12:00","0.2","","-3.5","","77","","","","25","","13","","16.1","","100.96","","","","","","NA"
"-75.56","45.52","OTTAWA GATINEAU A","7032682","2021-01-12 13:00","2021","01","12","13:00","0.3","","-3.7","","74","","","","25","","14","","24.1","","100.92","","","","","","Cloudy"
"-75.56","45.52","OTTAWA GATINEAU A","7032682","2021-01-12 14:00","2021","01","12","14:00","0.2","","-4.0","","74","","","","26","","11","","24.1","","100.91","","","","","","NA"
"-75.56","45.52","OTTAWA GATINEAU A","7032682","2021-01-12 15:00","2021","01","12","15:00","0.3","","-4.2","","72","","","","26","","8","","24.1","","100.91","","","","","","NA"
"-75.56","45.52","OTTAWA GATINEAU A","7032682","2021-01-12 16:00","2021","01","12","16:00","-0.3","","-4.2","","75","","","","24","","3","","24.1","","100.89","","","","-1","","Cloudy"
"-75.56","45.52","OTTAWA GATINEAU A","7032682","2021-01-12 17:00","2021","01","12","17:00","-1.2","","-4.1","","81","","","","6","","4","","24.1","","100.89","","","","-3","","NA"
"-75.56","45.52","OTTAWA GATINEAU A","7032682","2021-01-12 18:00","2021","01","12","18:00","-1.0","","-3.8","","81","","","","36","","2","","24.1","","100.89","","","","-2","","NA"
"-75.56","45.52","OTTAWA GATINEAU A","7032682","2021-01-12 19:00","2021","01","12","19:00","-0.9","","-4.7","","76","","","","24","","4","","24.1","","100.88","","","","-2","","Cloudy"
"-75.56","45.52","OTTAWA GATINEAU A","7032682","2021-01-12 20:00","2021","01","12","20:00","-0.9","","-5.1","","73","","","","26","","5","","24.1","","100.90","","","","-3","","NA"
"-75.56","45.52","OTTAWA GATINEAU A","7032682","2021-01-12 21:00","2021","01","12","21:00","-0.3","","-4.4","","74","","","","29","","8","","24.1","","100.91","","","","-3","","NA"
"-75.56","45.52","OTTAWA GATINEAU A","7032682","2021-01-12 22:00","2021","01","12","22:00"
"-75.56","45.52","OTTAWA GATINEAU A","7032682","2021-01-12 23:00","2021","01","12","23:00"
"-75.56","45.52","OTTAWA GATINEAU A","7032682","2021-01-13 00:00","2021","01","13","00:00"
"-75.56","45.52","OTTAWA GATINEAU A","7032682","2021-01-13 01:00","2021","01","13","01:00"
"-75.56","45.52","OTTAWA GATINEAU A","7032682","2021-01-13 02:00","2021","01","13","02:00"
"-75.56","45.52","OTTAWA GATINEAU A","7032682","2021-01-13 03:00","2021","01","13","03:00"
"-75.56","45.52","OTTAWA GATINEAU A","7032682","2021-01-13 04:00","2021","01","13","04:00"
"-75.56","45.52","OTTAWA GATINEAU A","7032682","2021-01-13 05:00","2021","01","13","05:00"
"-75.56","45.52","OTTAWA GATINEAU A","7032682","2021-01-13 06:00","2021","01","13","06:00"
"-75.56","45.52","OTTAWA GATINEAU A","7032682","2021-01-13 07:00","2021","01","13","07:00","-1.9","","-3.5","","89","","","","18","","7","","8.1","","100.59","","","","-5","","Fog"
"-75.56","45.52","OTTAWA GATINEAU A","7032682","2021-01-13 08:00","2021","01","13","08:00","-1.9","","-3.5","","89","","","","14","","6","","4.8","","100.52","","","","-4","","Fog"
"-75.56","45.52","OTTAWA GATINEAU A","7032682","2021-01-13 09:00","2021","01","13","09:00","-1.6","","-3.4","","87","","","","15","","4","","6.4","","100.47","","","","-3","","Fog"
"-75.56","45.52","OTTAWA GATINEAU A","7032682","2021-01-13 10:00","2021","01","13","10:00","-0.9","","-3.4","","83","","","","19","","3","","9.7","","100.47","","","","-2","","Fog"
"-75.56","45.52","OTTAWA GATINEAU A","7032682","2021-01-13 11:00","2021","01","13","11:00","-0.3","","-2.6","","84","","","","20","","9","","6.4","","100.36","","","","-3","","Snow,Fog"
"-75.56","45.52","OTTAWA GATINEAU A","7032682","2021-01-13 12:00","2021","01","13","12:00","0.2","","-2.1","","85","","","","20","","11","","6.4","","100.25","","","","","","Snow,Fog"
"-75.56","45.52","OTTAWA GATINEAU A","7032682","2021-01-13 13:00","2021","01","13","13:00","0.2","","-0.9","","93","","","","18","","9","","4.0","","100.14","","","","","","Rain,Drizzle,Fog"
"-75.56","45.52","OTTAWA GATINEAU A","7032682","2021-01-13 14:00","2021","01","13","14:00","0.0","","-0.6","","95","","","","28","","5","","4.0","","100.11","","","","-2","","Rain,Fog"
"-75.56","45.52","OTTAWA GATINEAU A","7032682","2021-01-13 15:00","2021","01","13","15:00","0.0","","-0.5","","97","","","","26","","5","","3.2","","100.08","","","","-2","","Snow,Fog"
"-75.56","45.52","OTTAWA GATINEAU A","7032682","2021-01-13 16:00","2021","01","13","16:00","-0.2","","-0.6","","97","","","","25","","5","","2.4","","100.08","","","","-2","","Snow,Fog"
"-75.56","45.52","OTTAWA GATINEAU A","7032682","2021-01-13 17:00","2021","01","13","17:00","-0.1","","-0.5","","97","","","","21","","3","","1.6","","100.05","","","","-1","","Snow,Fog"
"-75.56","45.52","OTTAWA GATINEAU A","7032682","2021-01-13 18:00","2021","01","13","18:00","0.0","","-0.4","","97","","","","18","","10","","4.8","","100.01","","","","-3","","Snow,Fog"
"-75.56","45.52","OTTAWA GATINEAU A","7032682","2021-01-13 19:00","2021","01","13","19:00","0.0","","-0.5","","96","","","","20","","9","","6.4","","100.00","","","","-3","","Snow,Fog"
"-75.56","45.52","OTTAWA GATINEAU A","7032682","2021-01-13 20:00","2021","01","13","20:00","0.0","","-0.6","","96","","","","23","","5","","4.8","","99.98","","","","-2","","Snow,Fog"
"-75.56","45.52","OTTAWA GATINEAU A","7032682","2021-01-13 21:00","2021","01","13","21:00","0.1","","-0.4","","96","","","","23","","9","","4.8","","99.97","","","","","","Snow,Fog"
"-75.56","45.52","OTTAWA GATINEAU A","7032682","2021-01-13 22:00","2021","01","13","22:00"
"-75.56","45.52","OTTAWA GATINEAU A","7032682","2021-01-13 23:00","2021","01","13","23:00"
"-75.56","45.52","OTTAWA GATINEAU A","7032682","2021-01-14 00:00","2021","01","14","00:00"
"-75.56","45.52","OTTAWA GATINEAU A","7032682","2021-01-14 01:00","2021","01","14","01:00"
"-75.56","45.52","OTTAWA GATINEAU A","7032682","2021-01-14 02:00","2021","01","14","02:00"
"-75.56","45.52","OTTAWA GATINEAU A","7032682","2021-01-14 03:00","2021","01","14","03:00"
"-75.56","45.52","OTTAWA GATINEAU A","7032682","2021-01-14 04:00","2021","01","14","04:00"
"-75.56","45.52","OTTAWA GATINEAU A","7032682","2021-01-14 05:00","2021","01","14","05:00"
"-75.56","45.52","OTTAWA GATINEAU A","7032682","2021-01-14 06:00","2021","01","14","06:00"
"-75.56","45.52","OTTAWA GATINEAU A","7032682","2021-01-14 07:00","2021","01","14","07:00","-0.3","","-0.8","","96","","","","9","","6","","6.4","","100.05","","","","-2","","Fog"
"-75.56","45.52","OTTAWA GATINEAU A","7032682","2021-01-14 08:00","2021","01","14","08:00","-0.3","","-0.8","","96","","","","5","","6","","3.2","","100.12","","","","-2","","Fog"
"-75.56","45.52","OTTAWA GATINEAU A","7032682","2021-01-14 09:00","2021","01","14","09:00","-0.2","","-0.8","","95","","","","7","","7","","3.2","","100.18","","","","-3","","Fog"
"-75.56","45.52","OTTAWA GATINEAU A","7032682","2021-01-14 10:00","2021","01","14","10:00","-0.1","","-0.8","","95","","","","9","","6","","4.0","","100.22","","","","-2","","Fog"
"-75.56","45.52","OTTAWA GATINEAU A","7032682","2021-01-14 11:00","2021","01","14","11:00","0.0","","-0.7","","95","","","","9","","7","","4.0","","100.22","","","","-2","","Fog"
"-75.56","45.52","OTTAWA GATINEAU A","7032682","2021-01-14 12:00","2021","01","14","12:00","0.3","","-0.6","","94","","","","8","","7","","4.0","","100.17","","","","","","Fog"
"-75.56","45.52","OTTAWA GATINEAU A","7032682","2021-01-14 13:00","2021","01","14","13:00","0.5","","-0.6","","92","","","","11","","4","","4.0","","100.14","","","","","","Fog"
"-75.56","45.52","OTTAWA GATINEAU A","7032682","2021-01-14 14:00","2021","01","14","14:00","0.7","","-0.6","","91","","","","13","","3","","4.8","","100.15","","","","","","Fog"
"-75.56","45.52","OTTAWA GATINEAU A","7032682","2021-01-14 15:00","2021","01","14","15:00","0.7","","-0.4","","92","","","","8","","4","","4.8","","100.20","","","","","","Fog"
"-75.56","45.52","OTTAWA GATINEAU A","7032682","2021-01-14 16:00","2021","01","14","16:00","0.7","","-0.4","","92","","","","36","","3","","4.8","","100.28","","","","","","Fog"
"-75.56","45.52","OTTAWA GATINEAU A","7032682","2021-01-14 17:00","2021","01","14","17:00","0.3","","-0.4","","95","","","","36","","2","","4.8","","100.33","","","","","","Fog"
"-75.56","45.52","OTTAWA GATINEAU A","7032682","2021-01-14 18:00","2021","01","14","18:00","0.0","","-0.5","","97","","","","8","","4","","16.1","","100.37","","","","-1","","NA"
"-75.56","45.52","OTTAWA GATINEAU A","7032682","2021-01-14 19:00","2021","01","14","19:00","0.0","","-0.4","","97","","","","36","","3","","16.1","","100.48","","","","-1","","Cloudy"
"-75.56","45.52","OTTAWA GATINEAU A","7032682","2021-01-14 20:00","2021","01","14","20:00","-0.1","","-0.5","","97","","","","36","","2","","16.1","","100.55","","","","-1","","NA"
"-75.56","45.52","OTTAWA GATINEAU A","7032682","2021-01-14 21:00","2021","01","14","21:00","-0.1","","-0.4","","98","","","","4","","4","","16.1","","100.58","","","","-1","","NA"
"-75.56","45.52","OTTAWA GATINEAU A","7032682","2021-01-14 22:00","2021","01","14","22:00"
"-75.56","45.52","OTTAWA GATINEAU A","7032682","2021-01-14 23:00","2021","01","14","23:00"
"-75.56","45.52","OTTAWA GATINEAU A","7032682","2021-01-15 00:00","2021","01","15","00:00"
"-75.56","45.52","OTTAWA GATINEAU A","7032682","2021-01-15 01:00","2021","01","15","01:00"
"-75.56","45.52","OTTAWA GATINEAU A","7032682","2021-01-15 02:00","2021","01","15","02:00"
"-75.56","45.52","OTTAWA GATINEAU A","7032682","2021-01-15 03:00","2021","01","15","03:00"
"-75.56","45.52","OTTAWA GATINEAU A","7032682","2021-01-15 04:00","2021","01","15","04:00"
"-75.56","45.52","OTTAWA GATINEAU A","7032682","2021-01-15 05:00","2021","01","15","05:00"
"-75.56","45.52","OTTAWA GATINEAU A","7032682","2021-01-15 06:00","2021","01","15","06:00"
"-75.56","45.52","OTTAWA GATINEAU A","7032682","2021-01-15 07:00","2021","01","15","07:00","-1.0","","-1.9","","94","","","","8","","13","","6.4","","100.81","","","","-5","","Fog"
"-75.56","45.52","OTTAWA GATINEAU A","7032682","2021-01-15 08:00","2021","01","15","08:00","-1.3","","-2.1","","95","","","","8","","15","","3.2","","100.86","","","","-6","","Fog"
"-75.56","45.52","OTTAWA GATINEAU A","7032682","2021-01-15 09:00","2021","01","15","09:00","-1.6","","-2.2","","96","","","","9","","18","","1.6","","100.90","","","","-7","","Fog"
"-75.56","45.52","OTTAWA GATINEAU A","7032682","2021-01-15 10:00","2021","01","15","10:00","-1.5","","-2.1","","96","","","","8","","21","","1.6","","100.87","","","","-7","","Fog"
"-75.56","45.52","OTTAWA GATINEAU A","7032682","2021-01-15 11:00","2021","01","15","11:00","-1.2","","-1.9","","95","","","","7","","20","","3.2","","100.83","","","","-7","","Fog"
"-75.56","45.52","OTTAWA GATINEAU A","7032682","2021-01-15 12:00","2021","01","15","12:00","-0.4","","-1.8","","90","","","","8","","19","","6.4","","100.74","","","","-6","","Fog"
"-75.56","45.52","OTTAWA GATINEAU A","7032682","2021-01-15 13:00","2021","01","15","13:00","0.3","","-1.8","","86","","","","8","","16","","8.1","","100.68","","","","","","Fog"
"-75.56","45.52","OTTAWA GATINEAU A","7032682","2021-01-15 14:00","2021","01","15","14:00","1.1","","-1.8","","81","","","","8","","22","","24.1","","100.57","","","","","","NA"
"-75.56","45.52","OTTAWA GATINEAU A","7032682","2021-01-15 15:00","2021","01","15","15:00","1.1","","-2.1","","80","","","","8","","15","","24.1","","100.59","","","","","","NA"
"-75.56","45.52","OTTAWA GATINEAU A","7032682","2021-01-15 16:00","2021","01","15","16:00","0.7","","-2.6","","79","","","","9","","19","","16.1","","100.59","","","","","","Cloudy"
"-75.56","45.52","OTTAWA GATINEAU A","7032682","2021-01-15 17:00","2021","01","15","17:00","0.4","","-2.5","","80","","","","8","","20","","16.1","","100.54","","","","","","NA"
"-75.56","45.52","OTTAWA GATINEAU A","7032682","2021-01-15 18:00","2021","01","15","18:00","0.5","","-2.4","","81","","","","8","","21","","24.1","","100.57","","","","","","NA"
"-75.56","45.52","OTTAWA GATINEAU A","7032682","2021-01-15 19:00","2021","01","15","19:00","0.4","","-2.7","","80","","","","9","","23","","24.1","","100.54","","","","","","Cloudy"
"-75.56","45.52","OTTAWA GATINEAU A","7032682","2021-01-15 20:00","2021","01","15","20:00","0.2","","-2.9","","80","","","","8","","19","","24.1","","100.48","","","","","","NA"
"-75.56","45.52","OTTAWA GATINEAU A","7032682","2021-01-15 21:00","2021","01","15","21:00","0.4","","-2.7","","80","","","","8","","22","","24.1","","100.46","","","","","","NA"
"-75.56","45.52","OTTAWA GATINEAU A","7032682","2021-01-15 22:00","2021","01","15","22:00"
"-75.56","45.52","OTTAWA GATINEAU A","7032682","2021-01-15 23:00","2021","01","15","23:00"
"-75.56","45.52","OTTAWA GATINEAU A","7032682","2021-01-16 00:00","2021","01","16","00:00"
"-75.56","45.52","OTTAWA GATINEAU A","7032682","2021-01-16 01:00","2021","01","16","01:00"
"-75.56","45.52","OTTAWA GATINEAU A","7032682","2021-01-16 02:00","2021","01","16","02:00"
"-75.56","45.52","OTTAWA GATINEAU A","7032682","2021-01-16 03:00","2021","01","16","03:00"
"-75.56","45.52","OTTAWA GATINEAU A","7032682","2021-01-16 04:00","2021","01","16","04:00"
"-75.56","45.52","OTTAWA GATINEAU A","7032682","2021-01-16 05:00","2021","01","16","05:00"
"-75.56","45.52","OTTAWA GATINEAU A","7032682","2021-01-16 06:00","2021","01","16","06:00"
"-75.56","45.52","OTTAWA GATINEAU A","7032682","2021-01-16 07:00","2021","01","16","07:00","-0.1","","-0.7","","96","","","","8","","23","","1.2","","99.65","","","","-6","","Snow"
"-75.56","45.52","OTTAWA GATINEAU A","7032682","2021-01-16 08:00","2021","01","16","08:00","-0.1","","-0.6","","96","","","","7","","21","","1.6","","99.55","","","","-6","","Snow"
"-75.56","45.52","OTTAWA GATINEAU A","7032682","2021-01-16 09:00","2021","01","16","09:00","-0.1","","-0.7","","96","","","","7","","20","","1.6","","99.43","","","","-5","","Snow"
"-75.56","45.52","OTTAWA GATINEAU A","7032682","2021-01-16 10:00","2021","01","16","10:00","0.0","","-0.6","","96","","","","8","","18","","1.6","","99.33","","","","-5","","Snow"
"-75.56","45.52","OTTAWA GATINEAU A","7032682","2021-01-16 11:00","2021","01","16","11:00","0.3","","-0.2","","97","","","","8","","23","","1.6","","99.18","","","","","","Snow"
"-75.56","45.52","OTTAWA GATINEAU A","7032682","2021-01-16 12:00","2021","01","16","12:00","0.2","","-0.2","","97","","","","8","","23","","1.6","","98.98","","","","","","Snow"
"-75.56","45.52","OTTAWA GATINEAU A","7032682","2021-01-16 13:00","2021","01","16","13:00","0.6","","-0.1","","95","","","","8","","15","","4.0","","98.80","","","","","","Snow"
"-75.56","45.52","OTTAWA GATINEAU A","7032682","2021-01-16 14:00","2021","01","16","14:00","0.5","","-0.2","","95","","","","9","","12","","2.4","","98.68","","","","","","Snow"
"-75.56","45.52","OTTAWA GATINEAU A","7032682","2021-01-16 15:00","2021","01","16","15:00","0.2","","-0.2","","97","","","","9","","7","","1.6","","98.63","","","","","","Snow"
"-75.56","45.52","OTTAWA GATINEAU A","7032682","2021-01-16 16:00","2021","01","16","16:00","0.0","","-0.3","","98","","","","36","","2","","1.6","","98.63","","","","-1","","Snow"
"-75.56","45.52","OTTAWA GATINEAU A","7032682","2021-01-16 17:00","2021","01","16","17:00","0.0","","-0.3","","98","","","","28","","4","","1.6","","98.61","","","","-1","","Snow"
"-75.56","45.52","OTTAWA GATINEAU A","7032682","2021-01-16 18:00","2021","01","16","18:00","-0.1","","-0.3","","98","","","","36","","2","","4.8","","98.55","","","","-1","","Snow"
"-75.56","45.52","OTTAWA GATINEAU A","7032682","2021-01-16 19:00","2021","01","16","19:00","-0.3","","-0.6","","98","","","","36","","1","","6.4","","98.48","","","","-1","","Snow"
"-75.56","45.52","OTTAWA GATINEAU A","7032682","2021-01-16 20:00","2021","01","16","20:00","-0.6","","-0.8","","98","","","","26","","3","","4.8","","98.41","","","","-2","","Snow"
"-75.56","45.52","OTTAWA GATINEAU A","7032682","2021-01-16 21:00","2021","01","16","21:00","-0.7","","-0.9","","99","","","","36","","3","","2.4","","98.35","","","","-2","","Snow"
"-75.56","45.52","OTTAWA GATINEAU A","7032682","2021-01-16 22:00","2021","01","16","22:00"
"-75.56","45.52","OTTAWA GATINEAU A","7032682","2021-01-16 23:00","2021","01","16","23:00"
"-75.56","45.52","OTTAWA GATINEAU A","7032682","2021-01-17 00:00","2021","01","17","00:00"
"-75.56","45.52","OTTAWA GATINEAU A","7032682","2021-01-17 01:00","2021","01","17","01:00"
"-75.56","45.52","OTTAWA GATINEAU A","7032682","2021-01-17 02:00","2021","01","17","02:00"
"-75.56","45.52","OTTAWA GATINEAU A","7032682","2021-01-17 03:00","2021","01","17","03:00"
"-75.56","45.52","OTTAWA GATINEAU A","7032682","2021-01-17 04:00","2021","01","17","04:00"
"-75.56","45.52","OTTAWA GATINEAU A","7032682","2021-01-17 05:00","2021","01","17","05:00"
"-75.56","45.52","OTTAWA GATINEAU A","7032682","2021-01-17 06:00","2021","01","17","06:00"
"-75.56","45.52","OTTAWA GATINEAU A","7032682","2021-01-17 07:00","2021","01","17","07:00","-0.3","","-1.4","","92","","","","27","","16","","24.1","","98.37","","","","-5","","Snow"
"-75.56","45.52","OTTAWA GATINEAU A","7032682","2021-01-17 08:00","2021","01","17","08:00","-0.8","","-2.0","","92","","","","27","","17","","16.1","","98.47","","","","-6","","Snow"
"-75.56","45.52","OTTAWA GATINEAU A","7032682","2021-01-17 09:00","2021","01","17","09:00","-0.5","","-2.2","","89","","","","28","","19","","16.1","","98.54","","","","-6","","Snow"
"-75.56","45.52","OTTAWA GATINEAU A","7032682","2021-01-17 10:00","2021","01","17","10:00","-0.7","","-2.3","","89","","","","27","","18","","16.1","","98.64","","","","-6","","Snow"
"-75.56","45.52","OTTAWA GATINEAU A","7032682","2021-01-17 11:00","2021","01","17","11:00","-0.8","","-3.2","","84","","","","28","","25","","16.1","","98.71","","","","-7","","Snow"
"-75.56","45.52","OTTAWA GATINEAU A","7032682","2021-01-17 12:00","2021","01","17","12:00","-1.3","","-3.8","","83","","","","28","","22","","16.1","","98.78","","","","-7","","Snow"
"-75.56","45.52","OTTAWA GATINEAU A","7032682","2021-01-17 13:00","2021","01","17","13:00","-1.4","","-4.7","","79","","","","28","","26","","19.3","","98.80","","","","-8","","Snow"
"-75.56","45.52","OTTAWA GATINEAU A","7032682","2021-01-17 14:00","2021","01","17","14:00","-1.8","","-4.4","","83","","","","27","","23","","16.1","","98.87","","","","-8","","NA"
"-75.56","45.52","OTTAWA GATINEAU A","7032682","2021-01-17 15:00","2021","01","17","15:00","-2.8","","-5.7","","81","","","","26","","22","","19.3","","98.98","","","","-9","","NA"
"-75.56","45.52","OTTAWA GATINEAU A","7032682","2021-01-17 16:00","2021","01","17","16:00","-3.3","","-6.0","","82","","","","26","","27","","19.3","","99.09","","","","-10","","Cloudy"
"-75.56","45.52","OTTAWA GATINEAU A","7032682","2021-01-17 17:00","2021","01","17","17:00","-3.7","","-6.2","","83","","","","26","","18","","24.1","","99.21","","","","-10","","NA"
"-75.56","45.52","OTTAWA GATINEAU A","7032682","2021-01-17 18:00","2021","01","17","18:00","-4.0","","-6.4","","83","","","","28","","14","","16.1","","99.29","","","","-9","","Snow"
"-75.56","45.52","OTTAWA GATINEAU A","7032682","2021-01-17 19:00","2021","01","17","19:00","-4.8","","-7.0","","85","","","","26","","18","","16.1","","99.34","","","","-11","","Snow"
"-75.56","45.52","OTTAWA GATINEAU A","7032682","2021-01-17 20:00","2021","01","17","20:00","-6.3","","-8.2","","86","","","","28","","10","","19.3","","99.39","","","","-11","","NA"
"-75.56","45.52","OTTAWA GATINEAU A","7032682","2021-01-17 21:00","2021","01","17","21:00","-5.2","","-7.7","","83","","","","27","","14","","19.3","","99.40","","","","-11","","NA"
"-75.56","45.52","OTTAWA GATINEAU A","7032682","2021-01-17 22:00","2021","01","17","22:00"
"-75.56","45.52","OTTAWA GATINEAU A","7032682","2021-01-17 23:00","2021","01","17","23:00"
"-75.56","45.52","OTTAWA GATINEAU A","7032682","2021-01-18 00:00","2021","01","18","00:00"
"-75.56","45.52","OTTAWA GATINEAU A","7032682","2021-01-18 01:00","2021","01","18","01:00"
"-75.56","45.52","OTTAWA GATINEAU A","7032682","2021-01-18 02:00","2021","01","18","02:00"
"-75.56","45.52","OTTAWA GATINEAU A","7032682","2021-01-18 03:00","2021","01","18","03:00"
"-75.56","45.52","OTTAWA GATINEAU A","7032682","2021-01-18 04:00","2021","01","18","04:00"
"-75.56","45.52","OTTAWA GATINEAU A","7032682","2021-01-18 05:00","2021","01","18","05:00"
"-75.56","45.52","OTTAWA GATINEAU A","7032682","2021-01-18 06:00","2021","01","18","06:00"
"-75.56","45.52","OTTAWA GATINEAU A","7032682","2021-01-18 07:00","2021","01","18","07:00","-10.3","","-12.7","","83","","","","26","","15","","19.3","","99.68","","","","-17","","Snow"
"-75.56","45.52","OTTAWA GATINEAU A","7032682","2021-01-18 08:00","2021","01","18","08:00","-10.2","","-12.5","","83","","","","28","","14","","24.1","","99.73","","","","-17","","Snow"
"-75.56","45.52","OTTAWA GATINEAU A","7032682","2021-01-18 09:00","2021","01","18","09:00","-10.1","","-13.2","","78","","","","29","","14","","24.1","","99.82","","","","-17","","NA"
"-75.56","45.52","OTTAWA GATINEAU A","7032682","2021-01-18 10:00","2021","01","18","10:00","-9.0","","-13.4","","71","","","","29","","13","","24.1","","99.89","","","","-15","","Mostly Cloudy"
"-75.56","45.52","OTTAWA GATINEAU A","7032682","2021-01-18 11:00","2021","01","18","11:00","-8.5","","-13.5","","68","","","","31","","18","","24.1","","99.91","","","","-16","","NA"
"-75.56","45.52","OTTAWA GATINEAU A","7032682","2021-01-18 12:00","2021","01","18","12:00","-8.4","","-13.3","","68","","","","30","","16","","24.1","","99.93","","","","-15","","NA"
"-75.56","45.52","OTTAWA GATINEAU A","7032682","2021-01-18 13:00","2021","01","18","13:00","-8.8","","-13.2","","71","","","","27","","19","","24.1","","99.93","","","","-16","","Mostly Cloudy"
"-75.56","45.52","OTTAWA GATINEAU A","7032682","2021-01-18 14:00","2021","01","18","14:00","-8.1","","-12.9","","68","","","","28","","18","","24.1","","99.98","","","","-15","","NA"
"-75.56","45.52","OTTAWA GATINEAU A","7032682","2021-01-18 15:00","2021","01","18","15:00","-7.2","","-12.6","","65","","","","31","","10","","24.1","","100.06","","","","-12","","NA"
"-75.56","45.52","OTTAWA GATINEAU A","7032682","2021-01-18 16:00","2021","01","18","16:00","-7.7","","-13.0","","66","","","","31","","9","","24.1","","100.18","","","","-12","","Mainly Clear"
"-75.56","45.52","OTTAWA GATINEAU A","7032682","2021-01-18 17:00","2021","01","18","17:00","-9.4","","-13.2","","74","","","","29","","12","","24.1","","100.27","","","","-15","","NA"
"-75.56","45.52","OTTAWA GATINEAU A","7032682","2021-01-18 18:00","2021","01","18","18:00","-11.0","","-13.2","","84","","","","29","","9","","24.1","","100.35","","","","-16","","NA"
"-75.56","45.52","OTTAWA GATINEAU A","7032682","2021-01-18 19:00","2021","01","18","19:00","-14.2","","-15.9","","87","","","","28","","5","","24.1","","100.42","","","","-18","","Clear"
"-75.56","45.52","OTTAWA GATINEAU A","7032682","2021-01-18 20:00","2021","01","18","20:00","-14.0","","-15.6","","88","","","","28","","4","","24.1","","100.48","","","","-17","","NA"
"-75.56","45.52","OTTAWA GATINEAU A","7032682","2021-01-18 21:00","2021","01","18","21:00","-16.2","","-18.2","","85","","","","36","","2","","24.1","","100.51","","","","-18","","NA"
"-75.56","45.52","OTTAWA GATINEAU A","7032682","2021-01-18 22:00","2021","01","18","22:00"
"-75.56","45.52","OTTAWA GATINEAU A","7032682","2021-01-18 23:00","2021","01","18","23:00"
"-75.56","45.52","OTTAWA GATINEAU A","7032682","2021-01-19 00:00","2021","01","19","00:00"
"-75.56","45.52","OTTAWA GATINEAU A","7032682","2021-01-19 01:00","2021","01","19","01:00"
"-75.56","45.52","OTTAWA GATINEAU A","7032682","2021-01-19 02:00","2021","01","19","02:00"
"-75.56","45.52","OTTAWA GATINEAU A","7032682","2021-01-19 03:00","2021","01","19","03:00"
"-75.56","45.52","OTTAWA GATINEAU A","7032682","2021-01-19 04:00","2021","01","19","04:00"
"-75.56","45.52","OTTAWA GATINEAU A","7032682","2021-01-19 05:00","2021","01","19","05:00"
"-75.56","45.52","OTTAWA GATINEAU A","7032682","2021-01-19 06:00","2021","01","19","06:00"
"-75.56","45.52","OTTAWA GATINEAU A","7032682","2021-01-19 07:00","2021","01","19","07:00","-16.1","","-18.2","","83","","","","33","","4","","24.1","","100.80","","","","-19","","Mostly Cloudy"
"-75.56","45.52","OTTAWA GATINEAU A","7032682","2021-01-19 08:00","2021","01","19","08:00","-14.8","","-17.0","","84","","","","7","","4","","24.1","","100.83","","","","-18","","NA"
"-75.56","45.52","OTTAWA GATINEAU A","7032682","2021-01-19 09:00","2021","01","19","09:00","-13.0","","-15.2","","84","","","","3","","7","","24.1","","100.83","","","","-18","","NA"
"-75.56","45.52","OTTAWA GATINEAU A","7032682","2021-01-19 10:00","2021","01","19","10:00","-11.9","","-14.0","","84","","","","8","","4","","24.1","","100.82","","","","-14","","Mostly Cloudy"
"-75.56","45.52","OTTAWA GATINEAU A","7032682","2021-01-19 11:00","2021","01","19","11:00","-10.8","","-13.4","","81","","","","8","","5","","24.1","","100.79","","","","-14","","NA"
"-75.56","45.52","OTTAWA GATINEAU A","7032682","2021-01-19 12:00","2021","01","19","12:00","-9.5","","-13.5","","73","","","","7","","9","","19.3","","100.69","","","","-14","","NA"
"-75.56","45.52","OTTAWA GATINEAU A","7032682","2021-01-19 13:00","2021","01","19","13:00","-8.8","","-12.8","","73","","","","9","","8","","16.1","","100.60","","","","-13","","Snow"
"-75.56","45.52","OTTAWA GATINEAU A","7032682","2021-01-19 14:00","2021","01","19","14:00","-8.1","","-12.2","","73","","","","10","","8","","9.7","","100.56","","","","-12","","Snow"
"-75.56","45.52","OTTAWA GATINEAU A","7032682","2021-01-19 15:00","2021","01","19","15:00","-7.8","","-11.3","","76","","","","10","","10","","6.4","","100.57","","","","-13","","Snow"
"-75.56","45.52","OTTAWA GATINEAU A","7032682","2021-01-19 16:00","2021","01","19","16:00","-8.0","","-9.9","","86","","","","10","","6","","3.2","","100.61","","","","-11","","Snow"
"-75.56","45.52","OTTAWA GATINEAU A","7032682","2021-01-19 17:00","2021","01","19","17:00","-8.3","","-9.9","","88","","","","8","","9","","6.4","","100.61","","","","-13","","Snow"
"-75.56","45.52","OTTAWA GATINEAU A","7032682","2021-01-19 18:00","2021","01","19","18:00","-8.5","","-10.3","","87","","","","7","","10","","24.1","","100.65","","","","-13","","NA"
"-75.56","45.52","OTTAWA GATINEAU A","7032682","2021-01-19 19:00","2021","01","19","19:00","-8.6","","-10.4","","87","","","","8","","9","","24.1","","100.63","","","","-13","","Cloudy"
"-75.56","45.52","OTTAWA GATINEAU A","7032682","2021-01-19 20:00","2021","01","19","20:00","-9.6","","-11.1","","88","","","","5","","8","","24.1","","100.59","","","","-14","","Snow"
"-75.56","45.52","OTTAWA GATINEAU A","7032682","2021-01-19 21:00","2021","01","19","21:00","-13.2","","-14.3","","91","","","","36","","2","","24.1","","100.58","","","","-15","","NA"
"-75.56","45.52","OTTAWA GATINEAU A","7032682","2021-01-19 22:00","2021","01","19","22:00"
"-75.56","45.52","OTTAWA GATINEAU A","7032682","2021-01-19 23:00","2021","01","19","23:00"
"-75.56","45.52","OTTAWA GATINEAU A","7032682","2021-01-20 00:00","2021","01","20","00:00"
"-75.56","45.52","OTTAWA GATINEAU A","7032682","2021-01-20 01:00","2021","01","20","01:00"
"-75.56","45.52","OTTAWA GATINEAU A","7032682","2021-01-20 02:00","2021","01","20","02:00"
"-75.56","45.52","OTTAWA GATINEAU A","7032682","2021-01-20 03:00","2021","01","20","03:00"
"-75.56","45.52","OTTAWA GATINEAU A","7032682","2021-01-20 04:00","2021","01","20","04:00"
"-75.56","45.52","OTTAWA GATINEAU A","7032682","2021-01-20 05:00","2021","01","20","05:00"
"-75.56","45.52","OTTAWA GATINEAU A","7032682","2021-01-20 06:00","2021","01","20","06:00"
"-75.56","45.52","OTTAWA GATINEAU A","7032682","2021-01-20 07:00","2021","01","20","07:00"
"-75.56","45.52","OTTAWA GATINEAU A","7032682","2021-01-20 08:00","2021","01","20","08:00","-11.2","","-13.0","","86","","","","25","","6","","24.1","","100.58","","","","-15","","Snow"
"-75.56","45.52","OTTAWA GATINEAU A","7032682","2021-01-20 09:00","2021","01","20","09:00","-9.7","","-13.2","","76","","","","29","","14","","24.1","","100.65","","","","-16","","NA"
"-75.56","45.52","OTTAWA GATINEAU A","7032682","2021-01-20 10:00","2021","01","20","10:00","-9.6","","-14.1","","70","","","","32","","13","","24.1","","100.71","","","","-16","","Mostly Cloudy"
"-75.56","45.52","OTTAWA GATINEAU A","7032682","2021-01-20 11:00","2021","01","20","11:00","-10.0","","-15.4","","65","","","","31","","17","","24.1","","100.73","","","","-17","","NA"
"-75.56","45.52","OTTAWA GATINEAU A","7032682","2021-01-20 12:00","2021","01","20","12:00","-9.6","","-15.0","","65","","","","30","","12","","24.1","","100.75","","","","-15","","NA"
"-75.56","45.52","OTTAWA GATINEAU A","7032682","2021-01-20 13:00","2021","01","20","13:00","-9.7","","-15.3","","64","","","","29","","19","","24.1","","100.81","","","","-17","","Mainly Clear"
"-75.56","45.52","OTTAWA GATINEAU A","7032682","2021-01-20 14:00","2021","01","20","14:00","-9.2","","-15.8","","59","","","","30","","15","","24.1","","100.87","","","","-16","","NA"
"-75.56","45.52","OTTAWA GATINEAU A","7032682","2021-01-20 15:00","2021","01","20","15:00","-9.6","","-15.7","","62","","","","29","","12","","24.1","","100.94","","","","-15","","NA"
"-75.56","45.52","OTTAWA GATINEAU A","7032682","2021-01-20 16:00","2021","01","20","16:00","-10.4","","-16.3","","63","","","","28","","16","","24.1","","100.94","","","","-17","","Mainly Clear"
"-75.56","45.52","OTTAWA GATINEAU A","7032682","2021-01-20 17:00","2021","01","20","17:00","-13.7","","-18.2","","69","","","","26","","10","","24.1","","100.99","","","","-20","","NA"
"-75.56","45.52","OTTAWA GATINEAU A","7032682","2021-01-20 18:00","2021","01","20","18:00","-14.5","","-18.5","","72","","","","27","","16","","24.1","","101.02","","","","-23","","NA"
"-75.56","45.52","OTTAWA GATINEAU A","7032682","2021-01-20 19:00","2021","01","20","19:00","-14.4","","-18.3","","73","","","","30","","12","","24.1","","100.97","","","","-21","","Mostly Cloudy"
"-75.56","45.52","OTTAWA GATINEAU A","7032682","2021-01-20 20:00","2021","01","20","20:00","-15.3","","-18.4","","77","","","","24","","5","","24.1","","100.91","","","","-19","","NA"
"-75.56","45.52","OTTAWA GATINEAU A","7032682","2021-01-20 21:00","2021","01","20","21:00","-16.8","","-19.4","","80","","","","11","","4","","24.1","","100.82","","","","-20","","NA"
"-75.56","45.52","OTTAWA GATINEAU A","7032682","2021-01-20 22:00","2021","01","20","22:00"
"-75.56","45.52","OTTAWA GATINEAU A","7032682","2021-01-20 23:00","2021","01","20","23:00"
"-75.56","45.52","OTTAWA GATINEAU A","7032682","2021-01-21 00:00","2021","01","21","00:00"
"-75.56","45.52","OTTAWA GATINEAU A","7032682","2021-01-21 01:00","2021","01","21","01:00"
"-75.56","45.52","OTTAWA GATINEAU A","7032682","2021-01-21 02:00","2021","01","21","02:00"
"-75.56","45.52","OTTAWA GATINEAU A","7032682","2021-01-21 03:00","2021","01","21","03:00"
"-75.56","45.52","OTTAWA GATINEAU A","7032682","2021-01-21 04:00","2021","01","21","04:00"
"-75.56","45.52","OTTAWA GATINEAU A","7032682","2021-01-21 05:00","2021","01","21","05:00"
"-75.56","45.52","OTTAWA GATINEAU A","7032682","2021-01-21 06:00","2021","01","21","06:00"
"-75.56","45.52","OTTAWA GATINEAU A","7032682","2021-01-21 07:00","2021","01","21","07:00","-13.7","","-15.8","","85","","","","7","","17","","1.6","","99.60","","","","-22","","Snow"
"-75.56","45.52","OTTAWA GATINEAU A","7032682","2021-01-21 08:00","2021","01","21","08:00","-13.4","","-15.6","","84","","","","8","","19","","1.2","","99.50","","","","-22","","Snow"
"-75.56","45.52","OTTAWA GATINEAU A","7032682","2021-01-21 09:00","2021","01","21","09:00","-12.8","","-14.8","","85","","","","8","","18","","2.4","","99.42","","","","-21","","Snow"
"-75.56","45.52","OTTAWA GATINEAU A","7032682","2021-01-21 10:00","2021","01","21","10:00","-12.2","","-14.3","","84","","","","8","","19","","2.4","","99.36","","","","-20","","Snow"
"-75.56","45.52","OTTAWA GATINEAU A","7032682","2021-01-21 11:00","2021","01","21","11:00","-11.5","","-13.7","","84","","","","9","","17","","12.9","","99.27","","","","-19","","Snow"
"-75.56","45.52","OTTAWA GATINEAU A","7032682","2021-01-21 12:00","2021","01","21","12:00","-11.2","","-13.4","","84","","","","8","","17","","8.1","","99.12","","","","-19","","Snow"
"-75.56","45.52","OTTAWA GATINEAU A","7032682","2021-01-21 13:00","2021","01","21","13:00","-10.5","","-12.5","","86","","","","7","","18","","1.2","","99.01","","","","-18","","Snow"
"-75.56","45.52","OTTAWA GATINEAU A","7032682","2021-01-21 14:00","2021","01","21","14:00","-9.7","","-11.8","","85","","","","8","","17","","6.4","","98.91","","","","-17","","Snow"
"-75.56","45.52","OTTAWA GATINEAU A","7032682","2021-01-21 15:00","2021","01","21","15:00","-9.5","","-11.4","","86","","","","8","","16","","4.8","","98.89","","","","-16","","Snow"
"-75.56","45.52","OTTAWA GATINEAU A","7032682","2021-01-21 16:00","2021","01","21","16:00","-9.4","","-11.2","","87","","","","8","","17","","4.0","","98.86","","","","-16","","Snow"
"-75.56","45.52","OTTAWA GATINEAU A","7032682","2021-01-21 17:00","2021","01","21","17:00","-9.2","","-10.9","","88","","","","7","","16","","4.0","","98.85","","","","-16","","Snow"
"-75.56","45.52","OTTAWA GATINEAU A","7032682","2021-01-21 18:00","2021","01","21","18:00","-9.0","","-10.8","","87","","","","8","","16","","16.1","","98.83","","","","-16","","Snow"
"-75.56","45.52","OTTAWA GATINEAU A","7032682","2021-01-21 19:00","2021","01","21","19:00","-8.8","","-10.3","","89","","","","7","","11","","12.9","","98.81","","","","-14","","Cloudy"
"-75.56","45.52","OTTAWA GATINEAU A","7032682","2021-01-21 20:00","2021","01","21","20:00","-8.3","","-10.0","","87","","","","8","","7","","24.1","","98.80","","","","-12","","Snow"
"-75.56","45.52","OTTAWA GATINEAU A","7032682","2021-01-21 21:00","2021","01","21","21:00","-8.4","","-10.1","","88","","","","9","","4","","24.1","","98.80","","","","-11","","Snow"
"-75.56","45.52","OTTAWA GATINEAU A","7032682","2021-01-21 22:00","2021","01","21","22:00"
"-75.56","45.52","OTTAWA GATINEAU A","7032682","2021-01-21 23:00","2021","01","21","23:00"
"-75.56","45.52","OTTAWA GATINEAU A","7032682","2021-01-22 00:00","2021","01","22","00:00"
"-75.56","45.52","OTTAWA GATINEAU A","7032682","2021-01-22 01:00","2021","01","22","01:00"
"-75.56","45.52","OTTAWA GATINEAU A","7032682","2021-01-22 02:00","2021","01","22","02:00"
"-75.56","45.52","OTTAWA GATINEAU A","7032682","2021-01-22 03:00","2021","01","22","03:00"
"-75.56","45.52","OTTAWA GATINEAU A","7032682","2021-01-22 04:00","2021","01","22","04:00"
"-75.56","45.52","OTTAWA GATINEAU A","7032682","2021-01-22 05:00","2021","01","22","05:00"
"-75.56","45.52","OTTAWA GATINEAU A","7032682","2021-01-22 06:00","2021","01","22","06:00"
"-75.56","45.52","OTTAWA GATINEAU A","7032682","2021-01-22 07:00","2021","01","22","07:00","-8.0","","-9.3","","90","","","","28","","14","","24.1","","99.29","","","","-14","","Mostly Cloudy"
"-75.56","45.52","OTTAWA GATINEAU A","7032682","2021-01-22 08:00","2021","01","22","08:00","-6.1","","-8.8","","81","","","","29","","9","","24.1","","99.40","","","","-10","","NA"
"-75.56","45.52","OTTAWA GATINEAU A","7032682","2021-01-22 09:00","2021","01","22","09:00","-5.9","","-9.5","","76","","","","29","","15","","24.1","","99.54","","","","-12","","NA"
"-75.56","45.52","OTTAWA GATINEAU A","7032682","2021-01-22 10:00","2021","01","22","10:00","-6.0","","-9.6","","76","","","","29","","16","","24.1","","99.65","","","","-12","","Mostly Cloudy"
"-75.56","45.52","OTTAWA GATINEAU A","7032682","2021-01-22 11:00","2021","01","22","11:00","-6.2","","-10.8","","70","","","","29","","16","","24.1","","99.73","","","","-12","","NA"
"-75.56","45.52","OTTAWA GATINEAU A","7032682","2021-01-22 12:00","2021","01","22","12:00","-6.0","","-10.7","","70","","","","28","","13","","24.1","","99.71","","","","-11","","NA"
"-75.56","45.52","OTTAWA GATINEAU A","7032682","2021-01-22 13:00","2021","01","22","13:00","-5.6","","-11.6","","63","","","","30","","18","","24.1","","99.74","","","","-12","","Mainly Clear"
"-75.56","45.52","OTTAWA GATINEAU A","7032682","2021-01-22 14:00","2021","01","22","14:00","-5.3","","-11.5","","62","","","","27","","23","","24.1","","99.80","","","","-12","","NA"
"-75.56","45.52","OTTAWA GATINEAU A","7032682","2021-01-22 15:00","2021","01","22","15:00","-5.5","","-11.4","","64","","","","29","","16","","24.1","","99.89","","","","-11","","NA"
"-75.56","45.52","OTTAWA GATINEAU A","7032682","2021-01-22 16:00","2021","01","22","16:00","-6.2","","-11.3","","67","","","","28","","15","","24.1","","100.01","","","","-12","","Cloudy"
"-75.56","45.52","OTTAWA GATINEAU A","7032682","2021-01-22 17:00","2021","01","22","17:00","-7.0","","-12.0","","68","","","","29","","18","","24.1","","100.14","","","","-14","","NA"
"-75.56","45.52","OTTAWA GATINEAU A","7032682","2021-01-22 18:00","2021","01","22","18:00","-7.8","","-12.1","","71","","","","27","","13","","24.1","","100.26","","","","-14","","NA"
"-75.56","45.52","OTTAWA GATINEAU A","7032682","2021-01-22 19:00","2021","01","22","19:00","-8.0","","-11.1","","78","","","","27","","13","","24.1","","100.32","","","","-14","","Cloudy"
"-75.56","45.52","OTTAWA GATINEAU A","7032682","2021-01-22 20:00","2021","01","22","20:00","-8.3","","-10.7","","83","","","","29","","8","","6.4","","100.37","","","","-12","","Snow"
"-75.56","45.52","OTTAWA GATINEAU A","7032682","2021-01-22 21:00","2021","01","22","21:00","-8.8","","-12.4","","75","","","","33","","16","","19.3","","100.43","","","","-16","","Snow"
"-75.56","45.52","OTTAWA GATINEAU A","7032682","2021-01-22 22:00","2021","01","22","22:00"
"-75.56","45.52","OTTAWA GATINEAU A","7032682","2021-01-22 23:00","2021","01","22","23:00"
"-75.56","45.52","OTTAWA GATINEAU A","7032682","2021-01-23 00:00","2021","01","23","00:00"
"-75.56","45.52","OTTAWA GATINEAU A","7032682","2021-01-23 01:00","2021","01","23","01:00"
"-75.56","45.52","OTTAWA GATINEAU A","7032682","2021-01-23 02:00","2021","01","23","02:00"
"-75.56","45.52","OTTAWA GATINEAU A","7032682","2021-01-23 03:00","2021","01","23","03:00"
"-75.56","45.52","OTTAWA GATINEAU A","7032682","2021-01-23 04:00","2021","01","23","04:00"
"-75.56","45.52","OTTAWA GATINEAU A","7032682","2021-01-23 05:00","2021","01","23","05:00"
"-75.56","45.52","OTTAWA GATINEAU A","7032682","2021-01-23 06:00","2021","01","23","06:00"
"-75.56","45.52","OTTAWA GATINEAU A","7032682","2021-01-23 07:00","2021","01","23","07:00","-16.7","","-20.8","","71","","","","29","","21","","24.1","","101.08","","","","-27","","Mainly Clear"
"-75.56","45.52","OTTAWA GATINEAU A","7032682","2021-01-23 08:00","2021","01","23","08:00","-17.5","","-21.4","","72","","","","28","","16","","24.1","","101.17","","","","-26","","NA"
"-75.56","45.52","OTTAWA GATINEAU A","7032682","2021-01-23 09:00","2021","01","23","09:00","-16.8","","-21.6","","67","","","","30","","14","","24.1","","101.25","","","","-25","","NA"
"-75.56","45.52","OTTAWA GATINEAU A","7032682","2021-01-23 10:00","2021","01","23","10:00","-16.0","","-21.5","","63","","","","31","","18","","24.1","","101.34","","","","-25","","Mainly Clear"
"-75.56","45.52","OTTAWA GATINEAU A","7032682","2021-01-23 11:00","2021","01","23","11:00","-15.1","","-21.1","","61","","","","30","","16","","24.1","","101.35","","","","-23","","NA"
"-75.56","45.52","OTTAWA GATINEAU A","7032682","2021-01-23 12:00","2021","01","23","12:00","-14.4","","-20.7","","59","","","","28","","26","","24.1","","101.33","","","","-25","","NA"
"-75.56","45.52","OTTAWA GATINEAU A","7032682","2021-01-23 13:00","2021","01","23","13:00","-13.6","","-20.4","","57","","","","29","","23","","24.1","","101.33","","","","-23","","Clear"
"-75.56","45.52","OTTAWA GATINEAU A","7032682","2021-01-23 14:00","2021","01","23","14:00","-12.4","","-19.6","","56","","","","30","","23","","24.1","","101.31","","","","-21","","NA"
"-75.56","45.52","OTTAWA GATINEAU A","7032682","2021-01-23 15:00","2021","01","23","15:00","-11.7","","-18.9","","55","","","","30","","25","","24.1","","101.36","","","","-21","","NA"
"-75.56","45.52","OTTAWA GATINEAU A","7032682","2021-01-23 16:00","2021","01","23","16:00","-12.4","","-18.6","","60","","","","28","","20","","24.1","","101.41","","","","-21","","Mainly Clear"
"-75.56","45.52","OTTAWA GATINEAU A","7032682","2021-01-23 17:00","2021","01","23","17:00","-13.4","","-18.8","","65","","","","29","","20","","24.1","","101.48","","","","-22","","NA"
"-75.56","45.52","OTTAWA GATINEAU A","7032682","2021-01-23 18:00","2021","01","23","18:00","-14.7","","-19.4","","68","","","","28","","13","","24.1","","101.56","","","","-22","","NA"
"-75.56","45.52","OTTAWA GATINEAU A","7032682","2021-01-23 19:00","2021","01","23","19:00","-14.5","","-19.3","","67","","","","29","","15","","24.1","","101.57","","","","-22","","Clear"
"-75.56","45.52","OTTAWA GATINEAU A","7032682","2021-01-23 20:00","2021","01","23","20:00","-14.4","","-19.2","","68","","","","30","","14","","24.1","","101.59","","","","-22","","NA"
"-75.56","45.52","OTTAWA GATINEAU A","7032682","2021-01-23 21:00","2021","01","23","21:00","-14.9","","-19.3","","70","","","","29","","18","","24.1","","101.61","","","","-24","","NA"
"-75.56","45.52","OTTAWA GATINEAU A","7032682","2021-01-23 22:00","2021","01","23","22:00"
"-75.56","45.52","OTTAWA GATINEAU A","7032682","2021-01-23 23:00","2021","01","23","23:00"
"-75.56","45.52","OTTAWA GATINEAU A","7032682","2021-01-24 00:00","2021","01","24","00:00"
"-75.56","45.52","OTTAWA GATINEAU A","7032682","2021-01-24 01:00","2021","01","24","01:00"
"-75.56","45.52","OTTAWA GATINEAU A","7032682","2021-01-24 02:00","2021","01","24","02:00"
"-75.56","45.52","OTTAWA GATINEAU A","7032682","2021-01-24 03:00","2021","01","24","03:00"
"-75.56","45.52","OTTAWA GATINEAU A","7032682","2021-01-24 04:00","2021","01","24","04:00"
"-75.56","45.52","OTTAWA GATINEAU A","7032682","2021-01-24 05:00","2021","01","24","05:00"
"-75.56","45.52","OTTAWA GATINEAU A","7032682","2021-01-24 06:00","2021","01","24","06:00"
"-75.56","45.52","OTTAWA GATINEAU A","7032682","2021-01-24 07:00","2021","01","24","07:00","-19.9","","-23.3","","75","","","","27","","24","","24.1","","101.71","","","","-31","","Clear"
"-75.56","45.52","OTTAWA GATINEAU A","7032682","2021-01-24 08:00","2021","01","24","08:00","-19.5","","-23.3","","72","","","","27","","18","","24.1","","101.73","","","","-29","","NA"
"-75.56","45.52","OTTAWA GATINEAU A","7032682","2021-01-24 09:00","2021","01","24","09:00","-18.2","","-22.9","","67","","","","27","","17","","24.1","","101.76","","","","-27","","NA"
"-75.56","45.52","OTTAWA GATINEAU A","7032682","2021-01-24 10:00","2021","01","24","10:00","-15.8","","-21.9","","60","","","","27","","13","","24.1","","101.74","","","","-23","","Clear"
"-75.56","45.52","OTTAWA GATINEAU A","7032682","2021-01-24 11:00","2021","01","24","11:00","-14.4","","-20.7","","59","","","","25","","13","","24.1","","101.67","","","","-22","","NA"
"-75.56","45.52","OTTAWA GATINEAU A","7032682","2021-01-24 12:00","2021","01","24","12:00","-13.0","","-19.4","","60","","","","26","","17","","24.1","","101.58","","","","-21","","NA"
"-75.56","45.52","OTTAWA GATINEAU A","7032682","2021-01-24 13:00","2021","01","24","13:00","-11.5","","-19.2","","53","","","","28","","23","","24.1","","101.48","","","","-20","","Mainly Clear"
"-75.56","45.52","OTTAWA GATINEAU A","7032682","2021-01-24 14:00","2021","01","24","14:00","-10.1","","-18.4","","51","","","","27","","19","","24.1","","101.42","","","","-18","","NA"
"-75.56","45.52","OTTAWA GATINEAU A","7032682","2021-01-24 15:00","2021","01","24","15:00","-9.3","","-17.7","","51","","","","29","","17","","24.1","","101.40","","","","-16","","NA"
"-75.56","45.52","OTTAWA GATINEAU A","7032682","2021-01-24 16:00","2021","01","24","16:00","-9.4","","-17.0","","54","","","","29","","17","","24.1","","101.40","","","","-16","","Clear"
"-75.56","45.52","OTTAWA GATINEAU A","7032682","2021-01-24 17:00","2021","01","24","17:00","-11.7","","-18.3","","59","","","","28","","8","","24.1","","101.44","","","","-16","","NA"
"-75.56","45.52","OTTAWA GATINEAU A","7032682","2021-01-24 18:00","2021","01","24","18:00","-14.8","","-18.2","","76","","","","28","","8","","24.1","","101.43","","","","-20","","NA"
"-75.56","45.52","OTTAWA GATINEAU A","7032682","2021-01-24 19:00","2021","01","24","19:00","-15.8","","-19.3","","75","","","","27","","13","","24.1","","101.43","","","","-23","","Clear"
"-75.56","45.52","OTTAWA GATINEAU A","7032682","2021-01-24 20:00","2021","01","24","20:00","-18.6","","-21.4","","79","","","","27","","10","","24.1","","101.43","","","","-26","","NA"
"-75.56","45.52","OTTAWA GATINEAU A","7032682","2021-01-24 21:00","2021","01","24","21:00","-16.8","","-19.2","","82","","","","36","","3","","24.1","","101.41","","","","-19","","NA"
"-75.56","45.52","OTTAWA GATINEAU A","7032682","2021-01-24 22:00","2021","01","24","22:00"
"-75.56","45.52","OTTAWA GATINEAU A","7032682","2021-01-24 23:00","2021","01","24","23:00"
"-75.56","45.52","OTTAWA GATINEAU A","7032682","2021-01-25 00:00","2021","01","25","00:00"
"-75.56","45.52","OTTAWA GATINEAU A","7032682","2021-01-25 01:00","2021","01","25","01:00"
"-75.56","45.52","OTTAWA GATINEAU A","7032682","2021-01-25 02:00","2021","01","25","02:00"
"-75.56","45.52","OTTAWA GATINEAU A","7032682","2021-01-25 03:00","2021","01","25","03:00"
"-75.56","45.52","OTTAWA GATINEAU A","7032682","2021-01-25 04:00","2021","01","25","04:00"
"-75.56","45.52","OTTAWA GATINEAU A","7032682","2021-01-25 05:00","2021","01","25","05:00"
"-75.56","45.52","OTTAWA GATINEAU A","7032682","2021-01-25 06:00","2021","01","25","06:00"
"-75.56","45.52","OTTAWA GATINEAU A","7032682","2021-01-25 07:00","2021","01","25","07:00","-20.0","","-22.2","","83","","","","35","","4","","24.1","","101.43","","","","-23","","Mostly Cloudy"
"-75.56","45.52","OTTAWA GATINEAU A","7032682","2021-01-25 08:00","2021","01","25","08:00","-17.1","","-19.5","","82","","","","36","","2","","24.1","","101.41","","","","-19","","NA"
"-75.56","45.52","OTTAWA GATINEAU A","7032682","2021-01-25 09:00","2021","01","25","09:00","-15.0","","-17.6","","81","","","","36","","2","","24.1","","101.39","","","","-16","","NA"
"-75.56","45.52","OTTAWA GATINEAU A","7032682","2021-01-25 10:00","2021","01","25","10:00","-13.4","","-16.4","","79","","","","36","","2","","16.1","","101.39","","","","-15","","Snow"
"-75.56","45.52","OTTAWA GATINEAU A","7032682","2021-01-25 11:00","2021","01","25","11:00","-11.9","","-15.6","","74","","","","36","","1","","16.1","","101.43","","","","-13","","Snow"
"-75.56","45.52","OTTAWA GATINEAU A","7032682","2021-01-25 12:00","2021","01","25","12:00","-11.0","","-14.7","","74","","","","9","","3","","16.1","","101.34","","","","-13","","Snow"
"-75.56","45.52","OTTAWA GATINEAU A","7032682","2021-01-25 13:00","2021","01","25","13:00","-10.2","","-13.8","","75","","","","8","","8","","19.3","","101.25","","","","-15","","Snow"
"-75.56","45.52","OTTAWA GATINEAU A","7032682","2021-01-25 14:00","2021","01","25","14:00","-9.4","","-13.2","","74","","","","7","","4","","24.1","","101.22","","","","-12","","NA"
"-75.56","45.52","OTTAWA GATINEAU A","7032682","2021-01-25 15:00","2021","01","25","15:00","-8.9","","-12.7","","74","","","","8","","3","","12.9","","101.23","","","","-11","","Snow"
"-75.56","45.52","OTTAWA GATINEAU A","7032682","2021-01-25 16:00","2021","01","25","16:00","-8.5","","-12.0","","76","","","","9","","7","","24.1","","101.15","","","","-12","","Cloudy"
"-75.56","45.52","OTTAWA GATINEAU A","7032682","2021-01-25 17:00","2021","01","25","17:00","-8.3","","-11.6","","77","","","","8","","6","","24.1","","101.16","","","","-12","","NA"
"-75.56","45.52","OTTAWA GATINEAU A","7032682","2021-01-25 18:00","2021","01","25","18:00","-8.0","","-11.3","","78","","","","36","","2","","24.1","","101.24","","","","-9","","Snow"
"-75.56","45.52","OTTAWA GATINEAU A","7032682","2021-01-25 19:00","2021","01","25","19:00","-7.6","","-10.5","","80","","","","0","","1","","19.3","","101.27","","","","-8","","Snow"
"-75.56","45.52","OTTAWA GATINEAU A","7032682","2021-01-25 20:00","2021","01","25","20:00","-8.1","","-10.4","","83","","","","8","","6","","19.3","","101.25","","","","-11","","Snow"
"-75.56","45.52","OTTAWA GATINEAU A","7032682","2021-01-25 21:00","2021","01","25","21:00","-8.0","","-10.4","","83","","","","36","","1","","19.3","","101.22","","","","-9","","Snow"
"-75.56","45.52","OTTAWA GATINEAU A","7032682","2021-01-25 22:00","2021","01","25","22:00"
"-75.56","45.52","OTTAWA GATINEAU A","7032682","2021-01-25 23:00","2021","01","25","23:00"
"-75.56","45.52","OTTAWA GATINEAU A","7032682","2021-01-26 00:00","2021","01","26","00:00"
"-75.56","45.52","OTTAWA GATINEAU A","7032682","2021-01-26 01:00","2021","01","26","01:00"
"-75.56","45.52","OTTAWA GATINEAU A","7032682","2021-01-26 02:00","2021","01","26","02:00"
"-75.56","45.52","OTTAWA GATINEAU A","7032682","2021-01-26 03:00","2021","01","26","03:00"
"-75.56","45.52","OTTAWA GATINEAU A","7032682","2021-01-26 04:00","2021","01","26","04:00"
"-75.56","45.52","OTTAWA GATINEAU A","7032682","2021-01-26 05:00","2021","01","26","05:00"
"-75.56","45.52","OTTAWA GATINEAU A","7032682","2021-01-26 06:00","2021","01","26","06:00"
"-75.56","45.52","OTTAWA GATINEAU A","7032682","2021-01-26 07:00","2021","01","26","07:00","-7.4","","-8.7","","91","","","","36","","2","","16.1","","101.12","","","","-8","","Snow"
"-75.56","45.52","OTTAWA GATINEAU A","7032682","2021-01-26 08:00","2021","01","26","08:00","-7.0","","-8.4","","90","","","","36","","2","","19.3","","101.13","","","","-8","","Snow"
"-75.56","45.52","OTTAWA GATINEAU A","7032682","2021-01-26 09:00","2021","01","26","09:00","-6.1","","-8.8","","82","","","","6","","10","","19.3","","101.12","","","","-11","","Snow"
"-75.56","45.52","OTTAWA GATINEAU A","7032682","2021-01-26 10:00","2021","01","26","10:00","-5.6","","-8.7","","79","","","","7","","11","","24.1","","101.05","","","","-10","","Snow"
"-75.56","45.52","OTTAWA GATINEAU A","7032682","2021-01-26 11:00","2021","01","26","11:00","-5.2","","-8.4","","78","","","","9","","12","","24.1","","101.01","","","","-10","","NA"
"-75.56","45.52","OTTAWA GATINEAU A","7032682","2021-01-26 12:00","2021","01","26","12:00","-5.0","","-8.7","","76","","","","8","","20","","24.1","","100.84","","","","-12","","NA"
"-75.56","45.52","OTTAWA GATINEAU A","7032682","2021-01-26 13:00","2021","01","26","13:00","-4.0","","-7.8","","75","","","","8","","16","","24.1","","100.74","","","","-10","","Cloudy"
"-75.56","45.52","OTTAWA GATINEAU A","7032682","2021-01-26 14:00","2021","01","26","14:00","-4.1","","-7.9","","75","","","","8","","16","","24.1","","100.73","","","","-10","","NA"
"-75.56","45.52","OTTAWA GATINEAU A","7032682","2021-01-26 15:00","2021","01","26","15:00","-3.9","","-8.0","","73","","","","7","","21","","24.1","","100.65","","","","-10","","NA"
"-75.56","45.52","OTTAWA GATINEAU A","7032682","2021-01-26 16:00","2021","01","26","16:00","-3.6","","-7.9","","73","","","","6","","21","","24.1","","100.54","","","","-10","","Cloudy"
"-75.56","45.52","OTTAWA GATINEAU A","7032682","2021-01-26 17:00","2021","01","26","17:00","-4.0","","-7.9","","74","","","","9","","17","","4.8","","100.60","","","","-10","","Snow"
"-75.56","45.52","OTTAWA GATINEAU A","7032682","2021-01-26 18:00","2021","01","26","18:00","-4.8","","-6.2","","90","","","","6","","18","","2.4","","100.66","","","","-11","","Snow"
"-75.56","45.52","OTTAWA GATINEAU A","7032682","2021-01-26 19:00","2021","01","26","19:00","-5.0","","-6.4","","90","","","","7","","19","","1.6","","100.63","","","","-11","","Snow"
"-75.56","45.52","OTTAWA GATINEAU A","7032682","2021-01-26 20:00","2021","01","26","20:00","-4.9","","-6.1","","91","","","","5","","13","","2.4","","100.61","","","","-10","","Snow"
"-75.56","45.52","OTTAWA GATINEAU A","7032682","2021-01-26 21:00","2021","01","26","21:00","-4.8","","-6.4","","88","","","","4","","14","","4.0","","100.59","","","","-10","","Snow"
"-75.56","45.52","OTTAWA GATINEAU A","7032682","2021-01-26 22:00","2021","01","26","22:00"
"-75.56","45.52","OTTAWA GATINEAU A","7032682","2021-01-26 23:00","2021","01","26","23:00"
"-75.56","45.52","OTTAWA GATINEAU A","7032682","2021-01-27 00:00","2021","01","27","00:00"
"-75.56","45.52","OTTAWA GATINEAU A","7032682","2021-01-27 01:00","2021","01","27","01:00"
"-75.56","45.52","OTTAWA GATINEAU A","7032682","2021-01-27 02:00","2021","01","27","02:00"
"-75.56","45.52","OTTAWA GATINEAU A","7032682","2021-01-27 03:00","2021","01","27","03:00"
"-75.56","45.52","OTTAWA GATINEAU A","7032682","2021-01-27 04:00","2021","01","27","04:00"
"-75.56","45.52","OTTAWA GATINEAU A","7032682","2021-01-27 05:00","2021","01","27","05:00"
"-75.56","45.52","OTTAWA GATINEAU A","7032682","2021-01-27 06:00","2021","01","27","06:00"
"-75.56","45.52","OTTAWA GATINEAU A","7032682","2021-01-27 07:00","2021","01","27","07:00","-8.6","","-9.9","","90","","","","24","","4","","24.1","","101.02","","","","-11","","Mostly Cloudy"
"-75.56","45.52","OTTAWA GATINEAU A","7032682","2021-01-27 08:00","2021","01","27","08:00","-5.8","","-8.6","","81","","","","32","","9","","24.1","","101.09","","","","-10","","NA"
"-75.56","45.52","OTTAWA GATINEAU A","7032682","2021-01-27 09:00","2021","01","27","09:00","-5.5","","-8.5","","79","","","","30","","8","","24.1","","101.17","","","","-9","","NA"
"-75.56","45.52","OTTAWA GATINEAU A","7032682","2021-01-27 10:00","2021","01","27","10:00","-5.3","","-8.9","","76","","","","33","","9","","24.1","","101.23","","","","-9","","Cloudy"
"-75.56","45.52","OTTAWA GATINEAU A","7032682","2021-01-27 11:00","2021","01","27","11:00","-5.0","","-8.9","","74","","","","33","","14","","24.1","","101.25","","","","-10","","NA"
"-75.56","45.52","OTTAWA GATINEAU A","7032682","2021-01-27 12:00","2021","01","27","12:00","-4.1","","-8.8","","70","","","","30","","12","","24.1","","101.22","","","","-9","","NA"
"-75.56","45.52","OTTAWA GATINEAU A","7032682","2021-01-27 13:00","2021","01","27","13:00","-3.5","","-8.6","","68","","","","31","","13","","24.1","","101.20","","","","-8","","Mostly Cloudy"
"-75.56","45.52","OTTAWA GATINEAU A","7032682","2021-01-27 14:00","2021","01","27","14:00","-3.1","","-8.7","","66","","","","33","","7","","24.1","","101.21","","","","-6","","NA"
"-75.56","45.52","OTTAWA GATINEAU A","7032682","2021-01-27 15:00","2021","01","27","15:00","-3.3","","-8.3","","69","","","","29","","10","","24.1","","101.25","","","","-7","","NA"
"-75.56","45.52","OTTAWA GATINEAU A","7032682","2021-01-27 16:00","2021","01","27","16:00","-3.7","","-8.6","","69","","","","29","","17","","24.1","","101.28","","","","-9","","Cloudy"
"-75.56","45.52","OTTAWA GATINEAU A","7032682","2021-01-27 17:00","2021","01","27","17:00","-3.9","","-9.1","","67","","","","30","","8","","24.1","","101.30","","","","-7","","NA"
"-75.56","45.52","OTTAWA GATINEAU A","7032682","2021-01-27 18:00","2021","01","27","18:00","-5.5","","-8.4","","80","","","","27","","10","","24.1","","101.35","","","","-10","","NA"
"-75.56","45.52","OTTAWA GATINEAU A","7032682","2021-01-27 19:00","2021","01","27","19:00","-6.4","","-8.8","","83","","","","27","","13","","24.1","","101.37","","","","-12","","Mostly Cloudy"
"-75.56","45.52","OTTAWA GATINEAU A","7032682","2021-01-27 20:00","2021","01","27","20:00","-5.9","","-8.2","","84","","","","27","","11","","19.3","","101.38","","","","-11","","Snow"
"-75.56","45.52","OTTAWA GATINEAU A","7032682","2021-01-27 21:00","2021","01","27","21:00","-5.4","","-7.9","","83","","","","31","","6","","19.3","","101.40","","","","-8","","Snow"
"-75.56","45.52","OTTAWA GATINEAU A","7032682","2021-01-27 22:00","2021","01","27","22:00"
"-75.56","45.52","OTTAWA GATINEAU A","7032682","2021-01-27 23:00","2021","01","27","23:00"
"-75.56","45.52","OTTAWA GATINEAU A","7032682","2021-01-28 00:00","2021","01","28","00:00"
"-75.56","45.52","OTTAWA GATINEAU A","7032682","2021-01-28 01:00","2021","01","28","01:00"
"-75.56","45.52","OTTAWA GATINEAU A","7032682","2021-01-28 02:00","2021","01","28","02:00"
"-75.56","45.52","OTTAWA GATINEAU A","7032682","2021-01-28 03:00","2021","01","28","03:00"
"-75.56","45.52","OTTAWA GATINEAU A","7032682","2021-01-28 04:00","2021","01","28","04:00"
"-75.56","45.52","OTTAWA GATINEAU A","7032682","2021-01-28 05:00","2021","01","28","05:00"
"-75.56","45.52","OTTAWA GATINEAU A","7032682","2021-01-28 06:00","2021","01","28","06:00"
"-75.56","45.52","OTTAWA GATINEAU A","7032682","2021-01-28 07:00","2021","01","28","07:00","-9.9","","-13.6","","75","","","","30","","23","","24.1","","101.49","","","","-18","","Mostly Cloudy"
"-75.56","45.52","OTTAWA GATINEAU A","7032682","2021-01-28 08:00","2021","01","28","08:00","-10.0","","-13.7","","74","","","","31","","14","","24.1","","101.56","","","","-16","","NA"
"-75.56","45.52","OTTAWA GATINEAU A","7032682","2021-01-28 09:00","2021","01","28","09:00","-10.1","","-14.5","","70","","","","31","","21","","16.1","","101.57","","","","-18","","NA"
"-75.56","45.52","OTTAWA GATINEAU A","7032682","2021-01-28 10:00","2021","01","28","10:00","-10.2","","-15.1","","67","","","","31","","22","","24.1","","101.58","","","","-18","","Cloudy"
"-75.56","45.52","OTTAWA GATINEAU A","7032682","2021-01-28 11:00","2021","01","28","11:00","-10.2","","-15.2","","67","","","","30","","21","","24.1","","101.61","","","","-18","","NA"
"-75.56","45.52","OTTAWA GATINEAU A","7032682","2021-01-28 12:00","2021","01","28","12:00","-10.2","","-15.8","","64","","","","30","","23","","24.1","","101.56","","","","-19","","NA"
"-75.56","45.52","OTTAWA GATINEAU A","7032682","2021-01-28 13:00","2021","01","28","13:00","-10.2","","-15.8","","64","","","","29","","19","","24.1","","101.53","","","","-18","","Mostly Cloudy"
"-75.56","45.52","OTTAWA GATINEAU A","7032682","2021-01-28 14:00","2021","01","28","14:00","-10.1","","-16.5","","60","","","","28","","21","","24.1","","101.49","","","","-18","","NA"
"-75.56","45.52","OTTAWA GATINEAU A","7032682","2021-01-28 15:00","2021","01","28","15:00","-10.9","","-17.4","","59","","","","28","","25","","24.1","","101.50","","","","-20","","NA"
"-75.56","45.52","OTTAWA GATINEAU A","7032682","2021-01-28 16:00","2021","01","28","16:00","-11.3","","-17.8","","59","","","","29","","19","","24.1","","101.57","","","","-19","","Mostly Cloudy"
"-75.56","45.52","OTTAWA GATINEAU A","7032682","2021-01-28 17:00","2021","01","28","17:00","-12.4","","-18.1","","63","","","","29","","26","","24.1","","101.61","","","","-22","","NA"
"-75.56","45.52","OTTAWA GATINEAU A","7032682","2021-01-28 18:00","2021","01","28","18:00","-13.8","","-19.7","","62","","","","30","","20","","24.1","","101.65","","","","-23","","NA"
"-75.56","45.52","OTTAWA GATINEAU A","7032682","2021-01-28 19:00","2021","01","28","19:00","-14.7","","-20.0","","65","","","","29","","18","","24.1","","101.69","","","","-23","","Mainly Clear"
"-75.56","45.52","OTTAWA GATINEAU A","7032682","2021-01-28 20:00","2021","01","28","20:00","-15.3","","-20.3","","66","","","","30","","17","","24.1","","101.70","","","","-24","","NA"
"-75.56","45.52","OTTAWA GATINEAU A","7032682","2021-01-28 21:00","2021","01","28","21:00","-16.1","","-20.7","","68","","","","29","","14","","24.1","","101.68","","","","-24","","NA"
"-75.56","45.52","OTTAWA GATINEAU A","7032682","2021-01-28 22:00","2021","01","28","22:00"
"-75.56","45.52","OTTAWA GATINEAU A","7032682","2021-01-28 23:00","2021","01","28","23:00"
"-75.56","45.52","OTTAWA GATINEAU A","7032682","2021-01-29 00:00","2021","01","29","00:00"
"-75.56","45.52","OTTAWA GATINEAU A","7032682","2021-01-29 01:00","2021","01","29","01:00"
"-75.56","45.52","OTTAWA GATINEAU A","7032682","2021-01-29 02:00","2021","01","29","02:00"
"-75.56","45.52","OTTAWA GATINEAU A","7032682","2021-01-29 03:00","2021","01","29","03:00"
"-75.56","45.52","OTTAWA GATINEAU A","7032682","2021-01-29 04:00","2021","01","29","04:00"
"-75.56","45.52","OTTAWA GATINEAU A","7032682","2021-01-29 05:00","2021","01","29","05:00"
"-75.56","45.52","OTTAWA GATINEAU A","7032682","2021-01-29 06:00","2021","01","29","06:00"
"-75.56","45.52","OTTAWA GATINEAU A","7032682","2021-01-29 07:00","2021","01","29","07:00","-19.5","","-23.4","","72","","","","28","","12","","24.1","","101.61","","","","-27","","Mainly Clear"
"-75.56","45.52","OTTAWA GATINEAU A","7032682","2021-01-29 08:00","2021","01","29","08:00","-20.1","","-24.0","","72","","","","26","","11","","24.1","","101.66","","","","-28","","NA"
"-75.56","45.52","OTTAWA GATINEAU A","7032682","2021-01-29 09:00","2021","01","29","09:00","-17.4","","-22.6","","65","","","","31","","13","","24.1","","101.64","","","","-25","","NA"
"-75.56","45.52","OTTAWA GATINEAU A","7032682","2021-01-29 10:00","2021","01","29","10:00","-16.3","","-22.1","","62","","","","30","","14","","24.1","","101.65","","","","-24","","Mainly Clear"
"-75.56","45.52","OTTAWA GATINEAU A","7032682","2021-01-29 11:00","2021","01","29","11:00","-14.7","","-21.2","","58","","","","31","","20","","24.1","","101.64","","","","-24","","NA"
"-75.56","45.52","OTTAWA GATINEAU A","7032682","2021-01-29 12:00","2021","01","29","12:00","-13.4","","-20.8","","54","","","","33","","23","","24.1","","101.57","","","","-23","","NA"
"-75.56","45.52","OTTAWA GATINEAU A","7032682","2021-01-29 13:00","2021","01","29","13:00","-12.5","","-20.1","","54","","","","32","","20","","24.1","","101.53","","","","-21","","Clear"
"-75.56","45.52","OTTAWA GATINEAU A","7032682","2021-01-29 14:00","2021","01","29","14:00","-11.7","","-20.0","","50","","","","31","","14","","24.1","","101.53","","","","-19","","NA"
"-75.56","45.52","OTTAWA GATINEAU A","7032682","2021-01-29 15:00","2021","01","29","15:00","-11.5","","-19.9","","50","","","","33","","14","","24.1","","101.58","","","","-18","","NA"
"-75.56","45.52","OTTAWA GATINEAU A","7032682","2021-01-29 16:00","2021","01","29","16:00","-11.4","","-19.4","","52","","","","32","","16","","24.1","","101.61","","","","-19","","Mostly Cloudy"
"-75.56","45.52","OTTAWA GATINEAU A","7032682","2021-01-29 17:00","2021","01","29","17:00","-11.7","","-19.1","","55","","","","31","","17","","24.1","","101.66","","","","-19","","NA"
"-75.56","45.52","OTTAWA GATINEAU A","7032682","2021-01-29 18:00","2021","01","29","18:00","-11.9","","-19.0","","56","","","","32","","14","","24.1","","101.73","","","","-19","","NA"
"-75.56","45.52","OTTAWA GATINEAU A","7032682","2021-01-29 19:00","2021","01","29","19:00","-13.1","","-19.4","","59","","","","30","","10","","24.1","","101.77","","","","-19","","Mostly Cloudy"
"-75.56","45.52","OTTAWA GATINEAU A","7032682","2021-01-29 20:00","2021","01","29","20:00","-15.8","","-19.8","","71","","","","28","","9","","24.1","","101.78","","","","-22","","NA"
"-75.56","45.52","OTTAWA GATINEAU A","7032682","2021-01-29 21:00","2021","01","29","21:00","-16.4","","-20.7","","70","","","","29","","9","","24.1","","101.80","","","","-22","","NA"
"-75.56","45.52","OTTAWA GATINEAU A","7032682","2021-01-29 22:00","2021","01","29","22:00"
"-75.56","45.52","OTTAWA GATINEAU A","7032682","2021-01-29 23:00","2021","01","29","23:00"
"-75.56","45.52","OTTAWA GATINEAU A","7032682","2021-01-30 00:00","2021","01","30","00:00"
"-75.56","45.52","OTTAWA GATINEAU A","7032682","2021-01-30 01:00","2021","01","30","01:00"
"-75.56","45.52","OTTAWA GATINEAU A","7032682","2021-01-30 02:00","2021","01","30","02:00"
"-75.56","45.52","OTTAWA GATINEAU A","7032682","2021-01-30 03:00","2021","01","30","03:00"
"-75.56","45.52","OTTAWA GATINEAU A","7032682","2021-01-30 04:00","2021","01","30","04:00"
"-75.56","45.52","OTTAWA GATINEAU A","7032682","2021-01-30 05:00","2021","01","30","05:00"
"-75.56","45.52","OTTAWA GATINEAU A","7032682","2021-01-30 06:00","2021","01","30","06:00"
"-75.56","45.52","OTTAWA GATINEAU A","7032682","2021-01-30 07:00","2021","01","30","07:00","-18.2","","-20.7","","81","","","","26","","9","","24.1","","101.93","","","","-25","","Mostly Cloudy"
"-75.56","45.52","OTTAWA GATINEAU A","7032682","2021-01-30 08:00","2021","01","30","08:00","-17.1","","-19.8","","80","","","","27","","13","","24.1","","101.98","","","","-25","","NA"
"-75.56","45.52","OTTAWA GATINEAU A","7032682","2021-01-30 09:00","2021","01","30","09:00","-16.4","","-19.3","","78","","","","28","","15","","24.1","","102.00","","","","-25","","NA"
"-75.56","45.52","OTTAWA GATINEAU A","7032682","2021-01-30 10:00","2021","01","30","10:00","-15.2","","-18.9","","74","","","","27","","12","","24.1","","102.00","","","","-22","","Mostly Cloudy"
"-75.56","45.52","OTTAWA GATINEAU A","7032682","2021-01-30 11:00","2021","01","30","11:00","-13.6","","-18.5","","67","","","","30","","9","","24.1","","102.03","","","","-19","","NA"
"-75.56","45.52","OTTAWA GATINEAU A","7032682","2021-01-30 12:00","2021","01","30","12:00","-12.8","","-18.5","","63","","","","27","","16","","24.1","","102.00","","","","-20","","NA"
"-75.56","45.52","OTTAWA GATINEAU A","7032682","2021-01-30 13:00","2021","01","30","13:00","-12.1","","-18.7","","59","","","","25","","17","","24.1","","101.96","","","","-20","","Mainly Clear"
"-75.56","45.52","OTTAWA GATINEAU A","7032682","2021-01-30 14:00","2021","01","30","14:00","-10.5","","-18.2","","54","","","","31","","15","","24.1","","101.90","","","","-17","","NA"
"-75.56","45.52","OTTAWA GATINEAU A","7032682","2021-01-30 15:00","2021","01","30","15:00","-9.9","","-18.1","","51","","","","30","","10","","24.1","","101.90","","","","-15","","NA"
"-75.56","45.52","OTTAWA GATINEAU A","7032682","2021-01-30 16:00","2021","01","30","16:00","-10.6","","-18.2","","54","","","","28","","10","","24.1","","101.95","","","","-16","","Clear"
"-75.56","45.52","OTTAWA GATINEAU A","7032682","2021-01-30 17:00","2021","01","30","17:00","-12.0","","-18.9","","57","","","","25","","9","","24.1","","101.95","","","","-17","","NA"
"-75.56","45.52","OTTAWA GATINEAU A","7032682","2021-01-30 18:00","2021","01","30","18:00","-15.3","","-19.8","","69","","","","26","","7","","24.1","","102.03","","","","-20","","NA"
"-75.56","45.52","OTTAWA GATINEAU A","7032682","2021-01-30 19:00","2021","01","30","19:00","-15.9","","-19.9","","72","","","","29","","4","","24.1","","102.07","","","","-19","","Clear"
"-75.56","45.52","OTTAWA GATINEAU A","7032682","2021-01-30 20:00","2021","01","30","20:00","-18.5","","-21.8","","75","","","","0","","1","","24.1","","102.10","","","","-19","","NA"
"-75.56","45.52","OTTAWA GATINEAU A","7032682","2021-01-30 21:00","2021","01","30","21:00","-19.0","","-21.5","","80","","","","9","","4","","24.1","","102.07","","","","-22","","NA"
"-75.56","45.52","OTTAWA GATINEAU A","7032682","2021-01-30 22:00","2021","01","30","22:00"
"-75.56","45.52","OTTAWA GATINEAU A","7032682","2021-01-30 23:00","2021","01","30","23:00"
"-75.56","45.52","OTTAWA GATINEAU A","7032682","2021-01-31 00:00","2021","01","31","00:00"
"-75.56","45.52","OTTAWA GATINEAU A","7032682","2021-01-31 01:00","2021","01","31","01:00"
"-75.56","45.52","OTTAWA GATINEAU A","7032682","2021-01-31 02:00","2021","01","31","02:00"
"-75.56","45.52","OTTAWA GATINEAU A","7032682","2021-01-31 03:00","2021","01","31","03:00"
"-75.56","45.52","OTTAWA GATINEAU A","7032682","2021-01-31 04:00","2021","01","31","04:00"
"-75.56","45.52","OTTAWA GATINEAU A","7032682","2021-01-31 05:00","2021","01","31","05:00"
"-75.56","45.52","OTTAWA GATINEAU A","7032682","2021-01-31 06:00","2021","01","31","06:00"
"-75.56","45.52","OTTAWA GATINEAU A","7032682","2021-01-31 07:00","2021","01","31","07:00","-23.8","","-26.3","","80","","","","36","","2","","24.1","","102.19","","","","-26","","Clear"
"-75.56","45.52","OTTAWA GATINEAU A","7032682","2021-01-31 08:00","2021","01","31","08:00","-23.9","","-26.4","","81","","","","34","","3","","24.1","","102.20","","","","-27","","NA"
"-75.56","45.52","OTTAWA GATINEAU A","7032682","2021-01-31 09:00","2021","01","31","09:00","-21.1","","-23.8","","79","","","","36","","2","","24.1","","102.23","","","","-23","","NA"
"-75.56","45.52","OTTAWA GATINEAU A","7032682","2021-01-31 10:00","2021","01","31","10:00","-18.6","","-22.0","","75","","","","11","","3","","24.1","","102.23","","","","-21","","Mainly Clear"
"-75.56","45.52","OTTAWA GATINEAU A","7032682","2021-01-31 11:00","2021","01","31","11:00","-16.2","","-21.3","","65","","","","14","","5","","24.1","","102.22","","","","-20","","NA"
"-75.56","45.52","OTTAWA GATINEAU A","7032682","2021-01-31 12:00","2021","01","31","12:00","-14.9","","-20.5","","63","","","","10","","10","","24.1","","102.12","","","","-21","","NA"
"-75.56","45.52","OTTAWA GATINEAU A","7032682","2021-01-31 13:00","2021","01","31","13:00","-14.2","","-20.3","","61","","","","9","","8","","24.1","","102.03","","","","-19","","Mainly Clear"
"-75.56","45.52","OTTAWA GATINEAU A","7032682","2021-01-31 14:00","2021","01","31","14:00","-13.4","","-20.1","","58","","","","10","","9","","24.1","","101.95","","","","-19","","NA"
"-75.56","45.52","OTTAWA GATINEAU A","7032682","2021-01-31 15:00","2021","01","31","15:00","-12.9","","-19.7","","57","","","","11","","9","","24.1","","101.93","","","","-18","","NA"
"-75.56","45.52","OTTAWA GATINEAU A","7032682","2021-01-31 16:00","2021","01","31","16:00","-12.8","","-19.6","","57","","","","14","","3","","24.1","","101.90","","","","-15","","Mainly Clear"
"-75.56","45.52","OTTAWA GATINEAU A","7032682","2021-01-31 17:00","2021","01","31","17:00","-14.1","","-20.0","","62","","","","9","","4","","24.1","","101.90","","","","-17","","NA"
"-75.56","45.52","OTTAWA GATINEAU A","7032682","2021-01-31 18:00","2021","01","31","18:00","-18.7","","-22.7","","71","","","","36","","3","","24.1","","101.94","","","","-21","","NA"
"-75.56","45.52","OTTAWA GATINEAU A","7032682","2021-01-31 19:00","2021","01","31","19:00","-20.4","","-23.8","","74","","","","3","","3","","24.1","","101.97","","","","-23","","Clear"
"-75.56","45.52","OTTAWA GATINEAU A","7032682","2021-01-31 20:00","2021","01","31","20:00","-21.0","","-23.9","","78","","","","36","","1","","24.1","","101.94","","","","-22","","NA"
"-75.56","45.52","OTTAWA GATINEAU A","7032682","2021-01-31 21:00","2021","01","31","21:00","-21.3","","-24.1","","78","","","","36","","1","","24.1","","101.91","","","","-22","","NA"
"-75.56","45.52","OTTAWA GATINEAU A","7032682","2021-01-31 22:00","2021","01","31","22:00"
"-75.56","45.52","OTTAWA GATINEAU A","7032682","2021-01-31 23:00","2021","01","31","23:00"
