"Longitude (x)","Latitude (y)","Station Name","Climate ID","Date/Time (LST)","Year","Month","Day","Time (LST)","Temp (°C)","Temp Flag","Dew Point Temp (°C)","Dew Point Temp Flag","Rel Hum (%)","Rel Hum Flag","Precip. Amount (mm)","Precip. Amount Flag","Wind Dir (10s deg)","Wind Dir Flag","Wind Spd (km/h)","Wind Spd Flag","Visibility (km)","Visibility Flag","Stn Press (kPa)","Stn Press Flag","Hmdx","Hmdx Flag","Wind Chill","Wind Chill Flag","Weather"
"-94.36","49.79","KENORA A","6034076","2022-11-01 00:00","2022","11","01","00:00","7.3","","2.2","","70","","","","32","","8","","32.2","","95.99","","","","","","Cloudy"
"-94.36","49.79","KENORA A","6034076","2022-11-01 01:00","2022","11","01","01:00","7.1","","2.1","","70","","","","31","","7","","32.2","","96.07","","","","","","NA"
"-94.36","49.79","KENORA A","6034076","2022-11-01 02:00","2022","11","01","02:00","6.4","","2.0","","74","","","","35","","8","","32.2","","96.10","","","","","","NA"
"-94.36","49.79","KENORA A","6034076","2022-11-01 03:00","2022","11","01","03:00","6.0","","2.1","","76","","","","1","","8","","32.2","","96.13","","","","","","Cloudy"
"-94.36","49.79","KENORA A","6034076","2022-11-01 04:00","2022","11","01","04:00","4.2","","1.9","","85","","","","14","","4","","32.2","","96.16","","","","","","NA"
"-94.36","49.79","KENORA A","6034076","2022-11-01 05:00","2022","11","01","05:00","3.9","","2.3","","89","","","","19","","6","","32.2","","96.23","","","","","","NA"
"-94.36","49.79","KENORA A","6034076","2022-11-01 06:00","2022","11","01","06:00","5.6","","2.5","","80","","","","20","","10","","32.2","","96.33","","","","","","Mostly Cloudy"
"-94.36","49.79","KENORA A","6034076","2022-11-01 07:00","2022","11","01","07:00","4.5","","3.2","","91","","","","23","","5","","32.2","","96.42","","","","","","NA"
"-94.36","49.79","KENORA A","6034076","2022-11-01 08:00","2022","11","01","08:00","5.2","","3.9","","91","","","","19","","3","","32.2","","96.50","","","","","","NA"
"-94.36","49.79","KENORA A","6034076","2022-11-01 09:00","2022","11","01","09:00","7.2","","4.4","","82","","","","28","","3","","32.2","","96.59","","","","","","Mostly Cloudy"
"-94.36","49.79","KENORA A","6034076","2022-11-01 10:00","2022","11","01","10:00","9.3","","3.4","","66","","","","15","","8","","32.2","","96.61","","","","","","NA"
"-94.36","49.79","KENORA A","6034076","2022-11-01 11:00","2022","11","01","11:00","10.2","","1.1","","53","","","","14","","12","","32.2","","96.67","","","","","","NA"
"-94.36","49.79","KENORA A","6034076","2022-11-01 12:00","2022","11","01","12:00","11.7","","0.9","","47","","","","11","","12","","32.2","","96.67","","","","","","Mainly Clear"
"-94.36","49.79","KENORA A","6034076","2022-11-01 13:00","2022","11","01","13:00","12.9","","-0.9","","38","","","","13","","12","","32.2","","96.63","","","","","","NA"
"-94.36","49.79","KENORA A","6034076","2022-11-01 14:00","2022","11","01","14:00","12.3","","-0.2","","42","","","","10","","15","","32.2","","96.61","","","","","","NA"
"-94.36","49.79","KENORA A","6034076","2022-11-01 15:00","2022","11","01","15:00","12.5","","-0.1","","42","","","","11","","12","","32.2","","96.63","","","","","","Mostly Cloudy"
"-94.36","49.79","KENORA A","6034076","2022-11-01 16:00","2022","11","01","16:00","12.2","","0.1","","43","","","","13","","11","","32.2","","96.63","","","","","","NA"
"-94.36","49.79","KENORA A","6034076","2022-11-01 17:00","2022","11","01","17:00","10.9","","0.7","","49","","","","9","","9","","32.2","","96.64","","","","","","NA"
"-94.36","49.79","KENORA A","6034076","2022-11-01 18:00","2022","11","01","18:00","10.5","","1.8","","55","","","","11","","17","","32.2","","96.60","","","","","","Mostly Cloudy"
"-94.36","49.79","KENORA A","6034076","2022-11-01 19:00","2022","11","01","19:00","10.4","","0.7","","51","","","","13","","16","","32.2","","96.58","","","","","","NA"
"-94.36","49.79","KENORA A","6034076","2022-11-01 20:00","2022","11","01","20:00","10.3","","1.0","","52","","","","12","","13","","32.2","","96.57","","","","","","NA"
"-94.36","49.79","KENORA A","6034076","2022-11-01 21:00","2022","11","01","21:00","11.1","","1.7","","52","","","","13","","21","","32.2","","96.54","","","","","","Cloudy"
"-94.36","49.79","KENORA A","6034076","2022-11-01 22:00","2022","11","01","22:00","11.2","","2.3","","54","","","","14","","16","","32.2","","96.53","","","","","","NA"
"-94.36","49.79","KENORA A","6034076","2022-11-01 23:00","2022","11","01","23:00","11.7","","2.4","","53","","","","15","","25","","32.2","","96.47","","","","","","NA"
"-94.36","49.79","KENORA A","6034076","2022-11-02 00:00","2022","11","02","00:00","11.1","","2.5","","55","","","","15","","20","","32.2","","96.43","","","","","","Cloudy"
"-94.36","49.79","KENORA A","6034076","2022-11-02 01:00","2022","11","02","01:00","11.0","","2.4","","55","","","","16","","21","","32.2","","96.38","","","","","","NA"
"-94.36","49.79","KENORA A","6034076","2022-11-02 02:00","2022","11","02","02:00","10.5","","2.1","","56","","","","14","","23","","32.2","","96.27","","","","","","NA"
"-94.36","49.79","KENORA A","6034076","2022-11-02 03:00","2022","11","02","03:00","10.0","","2.2","","58","","","","15","","21","","32.2","","96.18","","","","","","Mostly Cloudy"
"-94.36","49.79","KENORA A","6034076","2022-11-02 04:00","2022","11","02","04:00","9.1","","2.0","","61","","","","15","","23","","32.2","","96.09","","","","","","NA"
"-94.36","49.79","KENORA A","6034076","2022-11-02 05:00","2022","11","02","05:00","8.6","","1.9","","63","","","","15","","21","","32.2","","96.03","","","","","","NA"
"-94.36","49.79","KENORA A","6034076","2022-11-02 06:00","2022","11","02","06:00","8.4","","2.0","","64","","","","15","","21","","32.2","","95.98","","","","","","Mainly Clear"
"-94.36","49.79","KENORA A","6034076","2022-11-02 07:00","2022","11","02","07:00","8.1","","2.3","","66","","","","15","","14","","32.2","","95.92","","","","","","NA"
"-94.36","49.79","KENORA A","6034076","2022-11-02 08:00","2022","11","02","08:00","8.9","","2.9","","66","","","","16","","20","","32.2","","95.85","","","","","","NA"
"-94.36","49.79","KENORA A","6034076","2022-11-02 09:00","2022","11","02","09:00","10.7","","3.9","","62","","","","16","","19","","24.1","","95.83","","","","","","Mostly Cloudy"
"-94.36","49.79","KENORA A","6034076","2022-11-02 10:00","2022","11","02","10:00","13.5","","4.9","","56","","","","17","","26","","32.2","","95.73","","","","","","NA"
"-94.36","49.79","KENORA A","6034076","2022-11-02 11:00","2022","11","02","11:00","15.2","","5.5","","52","","","","18","","36","","32.2","","95.67","","","","","","NA"
"-94.36","49.79","KENORA A","6034076","2022-11-02 12:00","2022","11","02","12:00","15.5","","6.2","","54","","","","18","","28","","32.2","","95.61","","","","","","Mostly Cloudy"
"-94.36","49.79","KENORA A","6034076","2022-11-02 13:00","2022","11","02","13:00","16.9","","6.9","","52","","","","18","","22","","24.1","","95.50","","","","","","NA"
"-94.36","49.79","KENORA A","6034076","2022-11-02 14:00","2022","11","02","14:00","18.8","","7.7","","48","","","","19","","26","","32.2","","95.42","","","","","","NA"
"-94.36","49.79","KENORA A","6034076","2022-11-02 15:00","2022","11","02","15:00","18.8","","8.1","","49","","","","19","","29","","32.2","","95.38","","","","","","Mostly Cloudy"
"-94.36","49.79","KENORA A","6034076","2022-11-02 16:00","2022","11","02","16:00","19.0","","8.5","","50","","","","18","","30","","24.1","","95.37","","","","","","NA"
"-94.36","49.79","KENORA A","6034076","2022-11-02 17:00","2022","11","02","17:00","18.7","","8.6","","51","","","","19","","29","","24.1","","95.36","","","","","","NA"
"-94.36","49.79","KENORA A","6034076","2022-11-02 18:00","2022","11","02","18:00","17.1","","8.6","","57","","","","20","","19","","32.2","","95.43","","","","","","Mostly Cloudy"
"-94.36","49.79","KENORA A","6034076","2022-11-02 19:00","2022","11","02","19:00","16.4","","8.6","","60","","","","19","","18","","32.2","","95.41","","","","","","NA"
"-94.36","49.79","KENORA A","6034076","2022-11-02 20:00","2022","11","02","20:00","14.8","","8.3","","65","","","","20","","16","","32.2","","95.47","","","","","","NA"
"-94.36","49.79","KENORA A","6034076","2022-11-02 21:00","2022","11","02","21:00","14.3","","8.2","","66","","","","20","","18","","32.2","","95.47","","","","","","Mainly Clear"
"-94.36","49.79","KENORA A","6034076","2022-11-02 22:00","2022","11","02","22:00","14.2","","8.2","","67","","","","20","","17","","32.2","","95.48","","","","","","NA"
"-94.36","49.79","KENORA A","6034076","2022-11-02 23:00","2022","11","02","23:00","13.6","","8.1","","69","","","","20","","16","","32.2","","95.50","","","","","","NA"
"-94.36","49.79","KENORA A","6034076","2022-11-03 00:00","2022","11","03","00:00","12.8","","8.0","","72","","","","21","","17","","32.2","","95.53","","","","","","Mainly Clear"
"-94.36","49.79","KENORA A","6034076","2022-11-03 01:00","2022","11","03","01:00","12.0","","7.9","","76","","","","21","","14","","32.2","","95.58","","","","","","NA"
"-94.36","49.79","KENORA A","6034076","2022-11-03 02:00","2022","11","03","02:00","10.4","","7.5","","82","","","","22","","10","","32.2","","95.65","","","","","","NA"
"-94.36","49.79","KENORA A","6034076","2022-11-03 03:00","2022","11","03","03:00","10.3","","7.5","","83","","","","26","","9","","32.2","","95.68","","","","","","Mainly Clear"
"-94.36","49.79","KENORA A","6034076","2022-11-03 04:00","2022","11","03","04:00","8.9","","6.8","","87","","","","27","","9","","32.2","","95.75","","","","","","NA"
"-94.36","49.79","KENORA A","6034076","2022-11-03 05:00","2022","11","03","05:00","7.6","","5.2","","84","","","","29","","9","","32.2","","95.78","","","","","","NA"
"-94.36","49.79","KENORA A","6034076","2022-11-03 06:00","2022","11","03","06:00","5.7","","3.7","","87","","","","28","","12","","32.2","","95.86","","","","","","Mainly Clear"
"-94.36","49.79","KENORA A","6034076","2022-11-03 07:00","2022","11","03","07:00","4.3","","3.0","","91","","","","31","","13","","32.2","","95.90","","","","","","NA"
"-94.36","49.79","KENORA A","6034076","2022-11-03 08:00","2022","11","03","08:00","3.6","","2.7","","94","","","","31","","12","","24.1","","95.95","","","","","","NA"
"-94.36","49.79","KENORA A","6034076","2022-11-03 09:00","2022","11","03","09:00","2.8","","2.4","","97","","","","32","","9","","6.4","","96.00","","","","","","Fog"
"-94.36","49.79","KENORA A","6034076","2022-11-03 10:00","2022","11","03","10:00","2.5","","1.9","","96","","","","31","","16","","8.1","","96.04","","","","","","Fog"
"-94.36","49.79","KENORA A","6034076","2022-11-03 11:00","2022","11","03","11:00","2.8","","1.4","","90","","","","33","","13","","32.2","","96.02","","","","","","NA"
"-94.36","49.79","KENORA A","6034076","2022-11-03 12:00","2022","11","03","12:00","3.2","","1.0","","86","","","","31","","11","","32.2","","96.05","","","","","","Mostly Cloudy"
"-94.36","49.79","KENORA A","6034076","2022-11-03 13:00","2022","11","03","13:00","3.0","","-0.3","","79","","","","31","","14","","24.1","","96.00","","","","","","NA"
"-94.36","49.79","KENORA A","6034076","2022-11-03 14:00","2022","11","03","14:00","3.4","","-0.5","","76","","","","30","","14","","24.1","","96.04","","","","","","NA"
"-94.36","49.79","KENORA A","6034076","2022-11-03 15:00","2022","11","03","15:00","3.3","","-0.9","","74","","","","33","","15","","32.2","","96.04","","","","","","Cloudy"
"-94.36","49.79","KENORA A","6034076","2022-11-03 16:00","2022","11","03","16:00","2.9","","-1.4","","73","","","","35","","10","","32.2","","96.02","","","","","","NA"
"-94.36","49.79","KENORA A","6034076","2022-11-03 17:00","2022","11","03","17:00","2.9","","-1.4","","74","","","","33","","5","","24.1","","96.00","","","","","","NA"
"-94.36","49.79","KENORA A","6034076","2022-11-03 18:00","2022","11","03","18:00","3.1","","-1.7","","71","","","","30","","11","","24.1","","96.05","","","","","","Cloudy"
"-94.36","49.79","KENORA A","6034076","2022-11-03 19:00","2022","11","03","19:00","2.8","","-1.5","","73","","","","31","","9","","24.1","","95.99","","","","","","NA"
"-94.36","49.79","KENORA A","6034076","2022-11-03 20:00","2022","11","03","20:00","2.7","","-1.5","","74","","","","27","","6","","24.1","","96.03","","","","","","NA"
"-94.36","49.79","KENORA A","6034076","2022-11-03 21:00","2022","11","03","21:00","1.4","","-0.2","","89","","","","29","","15","","4.8","","96.04","","","","","","Snow"
"-94.36","49.79","KENORA A","6034076","2022-11-03 22:00","2022","11","03","22:00","0.2","","-0.2","","97","","","","30","","11","","12.9","","96.03","","","","","","Snow"
"-94.36","49.79","KENORA A","6034076","2022-11-03 23:00","2022","11","03","23:00","-0.2","","-2.2","","86","","","","29","","9","","24.1","","96.05","","","","-3","","NA"
"-94.36","49.79","KENORA A","6034076","2022-11-04 00:00","2022","11","04","00:00","-1.0","","-3.5","","83","","","","30","","13","","32.2","","96.03","","","","-5","","Mainly Clear"
"-94.36","49.79","KENORA A","6034076","2022-11-04 01:00","2022","11","04","01:00","-1.6","","-4.5","","81","","","","29","","14","","24.1","","96.02","","","","-6","","NA"
"-94.36","49.79","KENORA A","6034076","2022-11-04 02:00","2022","11","04","02:00","-1.8","","-4.7","","81","","","","28","","12","","24.1","","96.07","","","","-6","","NA"
"-94.36","49.79","KENORA A","6034076","2022-11-04 03:00","2022","11","04","03:00","-1.7","","-6.2","","72","","","","31","","16","","24.1","","96.04","","","","-7","","Mostly Cloudy"
"-94.36","49.79","KENORA A","6034076","2022-11-04 04:00","2022","11","04","04:00","-3.2","","-7.9","","70","","","","32","","18","","24.1","","96.09","","","","-9","","NA"
"-94.36","49.79","KENORA A","6034076","2022-11-04 05:00","2022","11","04","05:00","-3.5","","-8.4","","69","","","","32","","19","","24.1","","96.13","","","","-9","","NA"
"-94.36","49.79","KENORA A","6034076","2022-11-04 06:00","2022","11","04","06:00","-3.7","","-8.3","","70","","","","30","","11","","32.2","","96.21","","","","-8","","Mostly Cloudy"
"-94.36","49.79","KENORA A","6034076","2022-11-04 07:00","2022","11","04","07:00","-3.7","","-8.4","","70","","","","31","","9","","32.2","","96.25","","","","-7","","NA"
"-94.36","49.79","KENORA A","6034076","2022-11-04 08:00","2022","11","04","08:00","-3.6","","-8.1","","71","","","","31","","6","","32.2","","96.29","","","","-6","","NA"
"-94.36","49.79","KENORA A","6034076","2022-11-04 09:00","2022","11","04","09:00","-3.2","","-7.2","","74","","","","27","","10","","24.1","","96.32","","","","-7","","Mostly Cloudy"
"-94.36","49.79","KENORA A","6034076","2022-11-04 10:00","2022","11","04","10:00","-2.9","","-7.7","","69","","","","28","","9","","32.2","","96.37","","","","-6","","NA"
"-94.36","49.79","KENORA A","6034076","2022-11-04 11:00","2022","11","04","11:00","-1.9","","-7.6","","66","","","","29","","13","","32.2","","96.40","","","","-6","","NA"
"-94.36","49.79","KENORA A","6034076","2022-11-04 12:00","2022","11","04","12:00","-1.4","","-7.2","","65","","","","23","","17","","32.2","","96.40","","","","-7","","Mainly Clear"
"-94.36","49.79","KENORA A","6034076","2022-11-04 13:00","2022","11","04","13:00","-0.7","","-8.2","","57","","","","30","","17","","24.1","","96.32","","","","-6","","NA"
"-94.36","49.79","KENORA A","6034076","2022-11-04 14:00","2022","11","04","14:00","0.1","","-8.4","","53","","","","29","","13","","32.2","","96.31","","","","","","NA"
"-94.36","49.79","KENORA A","6034076","2022-11-04 15:00","2022","11","04","15:00","0.3","","-8.2","","53","","","","26","","9","","32.2","","96.30","","","","","","Mainly Clear"
"-94.36","49.79","KENORA A","6034076","2022-11-04 16:00","2022","11","04","16:00","0.0","","-8.1","","55","","","","23","","9","","32.2","","96.29","","","","-3","","NA"
"-94.36","49.79","KENORA A","6034076","2022-11-04 17:00","2022","11","04","17:00","-1.0","","-8.2","","58","","","","21","","7","","24.1","","96.28","","","","-4","","NA"
"-94.36","49.79","KENORA A","6034076","2022-11-04 18:00","2022","11","04","18:00","-1.9","","-7.8","","64","","","","17","","7","","32.2","","96.25","","","","-5","","Mainly Clear"
"-94.36","49.79","KENORA A","6034076","2022-11-04 19:00","2022","11","04","19:00","-2.2","","-6.8","","70","","","","16","","10","","32.2","","96.24","","","","-6","","NA"
"-94.36","49.79","KENORA A","6034076","2022-11-04 20:00","2022","11","04","20:00","-2.7","","-6.1","","78","","","","16","","9","","32.2","","96.21","","","","-6","","NA"
"-94.36","49.79","KENORA A","6034076","2022-11-04 21:00","2022","11","04","21:00","-2.7","","-6.0","","78","","","","16","","13","","32.2","","96.17","","","","-7","","Clear"
"-94.36","49.79","KENORA A","6034076","2022-11-04 22:00","2022","11","04","22:00","-2.7","","-5.3","","82","","","","16","","14","","32.2","","96.16","","","","-8","","NA"
"-94.36","49.79","KENORA A","6034076","2022-11-04 23:00","2022","11","04","23:00","-2.8","","-4.7","","87","","","","17","","14","","32.2","","96.11","","","","-8","","NA"
"-94.36","49.79","KENORA A","6034076","2022-11-05 00:00","2022","11","05","00:00","-2.6","","-4.7","","85","","","","17","","14","","32.2","","96.09","","","","-7","","Clear"
"-94.36","49.79","KENORA A","6034076","2022-11-05 01:00","2022","11","05","01:00","-2.5","","-4.9","","84","","","","17","","14","","32.2","","95.99","","","","-7","","NA"
"-94.36","49.79","KENORA A","6034076","2022-11-05 02:00","2022","11","05","02:00","-3.6","","-5.1","","89","","","","16","","14","","32.2","","95.89","","","","-9","","NA"
"-94.36","49.79","KENORA A","6034076","2022-11-05 03:00","2022","11","05","03:00","-3.4","","-5.1","","88","","","","17","","17","","32.2","","95.84","","","","-9","","Clear"
"-94.36","49.79","KENORA A","6034076","2022-11-05 04:00","2022","11","05","04:00","-3.5","","-5.2","","88","","","","17","","14","","32.2","","95.76","","","","-9","","NA"
"-94.36","49.79","KENORA A","6034076","2022-11-05 05:00","2022","11","05","05:00","-3.9","","-5.4","","89","","","","17","","14","","32.2","","95.73","","","","-9","","NA"
"-94.36","49.79","KENORA A","6034076","2022-11-05 06:00","2022","11","05","06:00","-4.3","","-5.7","","90","","","","17","","12","","32.2","","95.64","","","","-9","","Clear"
"-94.36","49.79","KENORA A","6034076","2022-11-05 07:00","2022","11","05","07:00","-4.6","","-6.0","","90","","","","15","","12","","32.2","","95.59","","","","-9","","NA"
"-94.36","49.79","KENORA A","6034076","2022-11-05 08:00","2022","11","05","08:00","-3.7","","-5.3","","89","","","","15","","12","","24.1","","95.53","","","","-8","","NA"
"-94.36","49.79","KENORA A","6034076","2022-11-05 09:00","2022","11","05","09:00","-2.2","","-4.8","","83","","","","15","","17","","24.1","","95.44","","","","-8","","Mainly Clear"
"-94.36","49.79","KENORA A","6034076","2022-11-05 10:00","2022","11","05","10:00","-2.0","","-3.7","","88","","","","16","","16","","32.2","","95.36","","","","-7","","NA"
"-94.36","49.79","KENORA A","6034076","2022-11-05 11:00","2022","11","05","11:00","0.5","","-3.5","","74","","","","15","","13","","32.2","","95.22","","","","","","NA"
"-94.36","49.79","KENORA A","6034076","2022-11-05 12:00","2022","11","05","12:00","2.4","","-4.7","","60","","","","14","","12","","32.2","","95.06","","","","","","Mainly Clear"
"-94.36","49.79","KENORA A","6034076","2022-11-05 13:00","2022","11","05","13:00","3.5","","-7.2","","46","","","","16","","20","","24.1","","94.94","","","","","","NA"
"-94.36","49.79","KENORA A","6034076","2022-11-05 14:00","2022","11","05","14:00","4.4","","-8.3","","39","","","","12","","19","","24.1","","94.88","","","","","","NA"
"-94.36","49.79","KENORA A","6034076","2022-11-05 15:00","2022","11","05","15:00","4.2","","-8.2","","40","","","","12","","16","","32.2","","94.82","","","","","","Mainly Clear"
"-94.36","49.79","KENORA A","6034076","2022-11-05 16:00","2022","11","05","16:00","3.5","","-6.8","","47","","","","12","","13","","24.1","","94.77","","","","","","NA"
"-94.36","49.79","KENORA A","6034076","2022-11-05 17:00","2022","11","05","17:00","1.4","","-7.2","","53","","","","12","","12","","24.1","","94.71","","","","","","NA"
"-94.36","49.79","KENORA A","6034076","2022-11-05 18:00","2022","11","05","18:00","0.2","","-5.5","","66","","","","11","","18","","32.2","","94.66","","","","","","Mainly Clear"
"-94.36","49.79","KENORA A","6034076","2022-11-05 19:00","2022","11","05","19:00","-0.5","","-5.9","","67","","","","12","","13","","24.1","","94.64","","","","-5","","NA"
"-94.36","49.79","KENORA A","6034076","2022-11-05 20:00","2022","11","05","20:00","-1.0","","-5.9","","69","","","","13","","12","","32.2","","94.67","","","","-5","","NA"
"-94.36","49.79","KENORA A","6034076","2022-11-05 21:00","2022","11","05","21:00","-1.1","","-5.3","","73","","","","14","","14","","32.2","","94.64","","","","-6","","Mainly Clear"
"-94.36","49.79","KENORA A","6034076","2022-11-05 22:00","2022","11","05","22:00","-1.5","","-4.8","","78","","","","14","","15","","24.1","","94.66","","","","-6","","NA"
"-94.36","49.79","KENORA A","6034076","2022-11-05 23:00","2022","11","05","23:00","-1.1","","-4.5","","78","","","","14","","16","","24.1","","94.62","","","","-6","","NA"
"-94.36","49.79","KENORA A","6034076","2022-11-06 00:00","2022","11","06","00:00","-0.6","","-4.3","","76","","","","15","","18","","24.1","","94.60","","","","-6","","Mostly Cloudy"
"-94.36","49.79","KENORA A","6034076","2022-11-06 01:00","2022","11","06","01:00","-0.3","","-3.9","","77","","","","14","","13","","24.1","","94.54","","","","-4","","NA"
"-94.36","49.79","KENORA A","6034076","2022-11-06 02:00","2022","11","06","02:00","0.0","","-3.9","","75","","","","14","","17","","24.1","","94.48","","","","-5","","NA"
"-94.36","49.79","KENORA A","6034076","2022-11-06 03:00","2022","11","06","03:00","0.4","","-3.6","","75","","","","14","","13","","24.1","","94.45","","","","","","Mostly Cloudy"
"-94.36","49.79","KENORA A","6034076","2022-11-06 04:00","2022","11","06","04:00","0.6","","-3.2","","75","","","","14","","15","","24.1","","94.40","","","","","","NA"
"-94.36","49.79","KENORA A","6034076","2022-11-06 05:00","2022","11","06","05:00","0.9","","-2.5","","78","","","","16","","14","","24.1","","94.44","","","","","","Snow"
"-94.36","49.79","KENORA A","6034076","2022-11-06 06:00","2022","11","06","06:00","0.4","","-0.7","","92","","","","15","","16","","16.1","","94.42","","","","","","Snow"
"-94.36","49.79","KENORA A","6034076","2022-11-06 07:00","2022","11","06","07:00","0.8","","-0.2","","93","","","","16","","16","","32.2","","94.42","","","","","","Snow"
"-94.36","49.79","KENORA A","6034076","2022-11-06 08:00","2022","11","06","08:00","1.4","","0.5","","94","","","","17","","16","","32.2","","94.44","","","","","","NA"
"-94.36","49.79","KENORA A","6034076","2022-11-06 09:00","2022","11","06","09:00","2.8","","0.5","","84","","","","19","","13","","32.2","","94.46","","","","","","Cloudy"
"-94.36","49.79","KENORA A","6034076","2022-11-06 10:00","2022","11","06","10:00","3.4","","-3.1","","62","","","","22","","22","","32.2","","94.47","","","","","","NA"
"-94.36","49.79","KENORA A","6034076","2022-11-06 11:00","2022","11","06","11:00","3.2","","-4.0","","59","","","","22","","31","","32.2","","94.50","","","","","","NA"
"-94.36","49.79","KENORA A","6034076","2022-11-06 12:00","2022","11","06","12:00","2.6","","-3.4","","65","","","","23","","22","","32.2","","94.54","","","","","","Cloudy"
"-94.36","49.79","KENORA A","6034076","2022-11-06 13:00","2022","11","06","13:00","2.0","","-4.5","","62","","","","22","","18","","32.2","","94.62","","","","","","NA"
"-94.36","49.79","KENORA A","6034076","2022-11-06 14:00","2022","11","06","14:00","1.3","","-5.6","","60","","","","21","","32","","24.1","","94.71","","","","","","Snow,Blowing Snow"
"-94.36","49.79","KENORA A","6034076","2022-11-06 15:00","2022","11","06","15:00","-0.3","","-3.3","","80","","","","23","","24","","16.1","","94.82","","","","-6","","Freezing Drizzle,Snow,Blowing Snow"
"-94.36","49.79","KENORA A","6034076","2022-11-06 16:00","2022","11","06","16:00","-0.6","","-2.7","","86","","","","21","","25","","16.1","","94.92","","","","-7","","Freezing Drizzle,Snow,Blowing Snow"
"-94.36","49.79","KENORA A","6034076","2022-11-06 17:00","2022","11","06","17:00","-0.6","","-1.1","","96","","","","21","","13","","3.2","","94.98","","","","-5","","Freezing Drizzle,Snow"
"-94.36","49.79","KENORA A","6034076","2022-11-06 18:00","2022","11","06","18:00","-0.3","","-0.6","","98","","","","23","","7","","8.1","","95.04","","","","-3","","Freezing Drizzle,Snow"
"-94.36","49.79","KENORA A","6034076","2022-11-06 19:00","2022","11","06","19:00","-0.3","","-0.7","","97","","","","35","","6","","3.2","","95.18","","","","-2","","Snow"
"-94.36","49.79","KENORA A","6034076","2022-11-06 20:00","2022","11","06","20:00","-0.8","","-1.0","","98","","","","34","","13","","3.2","","95.37","","","","-5","","Snow"
"-94.36","49.79","KENORA A","6034076","2022-11-06 21:00","2022","11","06","21:00","-0.7","","-1.3","","96","","","","31","","13","","24.1","","95.63","","","","-5","","Snow"
"-94.36","49.79","KENORA A","6034076","2022-11-06 22:00","2022","11","06","22:00","-0.6","","-1.3","","95","","","","29","","11","","32.2","","95.82","","","","-4","","NA"
"-94.36","49.79","KENORA A","6034076","2022-11-06 23:00","2022","11","06","23:00","0.1","","-0.3","","97","","","","29","","16","","6.4","","96.02","","","","","","Snow"
"-94.36","49.79","KENORA A","6034076","2022-11-07 00:00","2022","11","07","00:00","-0.7","","-1.5","","94","","","","31","","19","","12.9","","96.33","","","","-6","","Snow"
"-94.36","49.79","KENORA A","6034076","2022-11-07 01:00","2022","11","07","01:00","-1.6","","-2.5","","94","","","","31","","22","","8.1","","96.54","","","","-8","","Snow"
"-94.36","49.79","KENORA A","6034076","2022-11-07 02:00","2022","11","07","02:00","-2.3","","-4.1","","87","","","","31","","21","","32.2","","96.79","","","","-8","","NA"
"-94.36","49.79","KENORA A","6034076","2022-11-07 03:00","2022","11","07","03:00","-2.5","","-4.0","","90","","","","30","","17","","32.2","","97.10","","","","-8","","Cloudy"
"-94.36","49.79","KENORA A","6034076","2022-11-07 04:00","2022","11","07","04:00","-2.4","","-3.7","","91","","","","31","","15","","24.1","","97.31","","","","-7","","Snow"
"-94.36","49.79","KENORA A","6034076","2022-11-07 05:00","2022","11","07","05:00","-2.1","","-4.3","","85","","","","32","","20","","32.2","","97.53","","","","-8","","Snow"
"-94.36","49.79","KENORA A","6034076","2022-11-07 06:00","2022","11","07","06:00","-2.3","","-4.3","","86","","","","30","","13","","32.2","","97.75","","","","-7","","Cloudy"
"-94.36","49.79","KENORA A","6034076","2022-11-07 07:00","2022","11","07","07:00","-2.8","","-4.8","","86","","","","31","","14","","32.2","","97.93","","","","-8","","NA"
"-94.36","49.79","KENORA A","6034076","2022-11-07 08:00","2022","11","07","08:00","-2.6","","-4.9","","84","","","","33","","16","","32.2","","98.02","","","","-8","","NA"
"-94.36","49.79","KENORA A","6034076","2022-11-07 09:00","2022","11","07","09:00","-2.5","","-4.9","","84","","","","33","","14","","32.2","","98.15","","","","-7","","Mostly Cloudy"
"-94.36","49.79","KENORA A","6034076","2022-11-07 10:00","2022","11","07","10:00","-2.1","","-5.1","","80","","","","33","","17","","32.2","","98.28","","","","-7","","NA"
"-94.36","49.79","KENORA A","6034076","2022-11-07 11:00","2022","11","07","11:00","-2.0","","-4.9","","80","","","","26","","12","","32.2","","98.43","","","","-6","","NA"
"-94.36","49.79","KENORA A","6034076","2022-11-07 12:00","2022","11","07","12:00","-2.1","","-5.1","","80","","","","29","","7","","32.2","","98.54","","","","-5","","Cloudy"
"-94.36","49.79","KENORA A","6034076","2022-11-07 13:00","2022","11","07","13:00","-1.9","","-5.1","","79","","","","36","","9","","32.2","","98.50","","","","-5","","NA"
"-94.36","49.79","KENORA A","6034076","2022-11-07 14:00","2022","11","07","14:00","-1.7","","-5.4","","76","","","","36","","3","","32.2","","98.52","","","","-3","","NA"
"-94.36","49.79","KENORA A","6034076","2022-11-07 15:00","2022","11","07","15:00","-1.8","","-5.4","","76","","","","22","","9","","32.2","","98.62","","","","-5","","Cloudy"
"-94.36","49.79","KENORA A","6034076","2022-11-07 16:00","2022","11","07","16:00","-1.7","","-4.9","","79","","","","22","","3","","32.2","","98.66","","","","-3","","NA"
"-94.36","49.79","KENORA A","6034076","2022-11-07 17:00","2022","11","07","17:00","-1.6","","-4.6","","80","","","","36","","6","","32.2","","98.65","","","","-4","","NA"
"-94.36","49.79","KENORA A","6034076","2022-11-07 18:00","2022","11","07","18:00","-1.7","","-4.4","","82","","","","9","","8","","32.2","","98.67","","","","-5","","Cloudy"
"-94.36","49.79","KENORA A","6034076","2022-11-07 19:00","2022","11","07","19:00","-1.7","","-4.3","","82","","","","10","","8","","32.2","","98.72","","","","-5","","NA"
"-94.36","49.79","KENORA A","6034076","2022-11-07 20:00","2022","11","07","20:00","-1.9","","-4.0","","86","","","","9","","9","","32.2","","98.70","","","","-5","","NA"
"-94.36","49.79","KENORA A","6034076","2022-11-07 21:00","2022","11","07","21:00","-1.9","","-4.1","","85","","","","10","","12","","32.2","","98.75","","","","-6","","Cloudy"
"-94.36","49.79","KENORA A","6034076","2022-11-07 22:00","2022","11","07","22:00","-1.9","","-3.9","","86","","","","8","","8","","32.2","","98.77","","","","-5","","NA"
"-94.36","49.79","KENORA A","6034076","2022-11-07 23:00","2022","11","07","23:00","-1.6","","-3.7","","86","","","","10","","17","","32.2","","98.73","","","","-7","","NA"
"-94.36","49.79","KENORA A","6034076","2022-11-08 00:00","2022","11","08","00:00","-1.4","","-3.5","","86","","","","11","","18","","32.2","","98.68","","","","-7","","Cloudy"
"-94.36","49.79","KENORA A","6034076","2022-11-08 01:00","2022","11","08","01:00","-1.0","","-3.5","","83","","","","13","","17","","32.2","","98.69","","","","-6","","NA"
"-94.36","49.79","KENORA A","6034076","2022-11-08 02:00","2022","11","08","02:00","-1.0","","-3.2","","85","","","","13","","13","","32.2","","98.68","","","","-5","","NA"
"-94.36","49.79","KENORA A","6034076","2022-11-08 03:00","2022","11","08","03:00","-0.9","","-3.0","","86","","","","13","","14","","32.2","","98.58","","","","-5","","Cloudy"
"-94.36","49.79","KENORA A","6034076","2022-11-08 04:00","2022","11","08","04:00","-0.8","","-3.2","","84","","","","14","","14","","32.2","","98.54","","","","-5","","NA"
"-94.36","49.79","KENORA A","6034076","2022-11-08 05:00","2022","11","08","05:00","-0.7","","-2.9","","85","","","","12","","14","","32.2","","98.43","","","","-5","","NA"
"-94.36","49.79","KENORA A","6034076","2022-11-08 06:00","2022","11","08","06:00","-0.2","","-2.6","","84","","","","13","","19","","32.2","","98.33","","","","-5","","Cloudy"
"-94.36","49.79","KENORA A","6034076","2022-11-08 07:00","2022","11","08","07:00","0.2","","-2.4","","83","","","","14","","24","","32.2","","98.25","","","","","","NA"
"-94.36","49.79","KENORA A","6034076","2022-11-08 08:00","2022","11","08","08:00","0.4","","-2.1","","83","","","","14","","22","","32.2","","98.16","","","","","","NA"
"-94.36","49.79","KENORA A","6034076","2022-11-08 09:00","2022","11","08","09:00","0.9","","-1.7","","83","","","","15","","23","","32.2","","98.06","","","","","","Cloudy"
"-94.36","49.79","KENORA A","6034076","2022-11-08 10:00","2022","11","08","10:00","1.3","","-1.3","","83","","","","15","","22","","32.2","","97.95","","","","","","NA"
"-94.36","49.79","KENORA A","6034076","2022-11-08 11:00","2022","11","08","11:00","2.0","","-1.1","","80","","","","16","","19","","32.2","","97.87","","","","","","NA"
"-94.36","49.79","KENORA A","6034076","2022-11-08 12:00","2022","11","08","12:00","2.6","","-1.3","","76","","","","16","","25","","32.2","","97.75","","","","","","Cloudy"
"-94.36","49.79","KENORA A","6034076","2022-11-08 13:00","2022","11","08","13:00","3.1","","-1.4","","72","","","","16","","23","","32.2","","97.58","","","","","","NA"
"-94.36","49.79","KENORA A","6034076","2022-11-08 14:00","2022","11","08","14:00","3.1","","-1.2","","73","","","","15","","27","","24.1","","97.45","","","","","","NA"
"-94.36","49.79","KENORA A","6034076","2022-11-08 15:00","2022","11","08","15:00","3.0","","-0.9","","75","","","","16","","25","","9.7","","97.34","","","","","","Rain"
"-94.36","49.79","KENORA A","6034076","2022-11-08 16:00","2022","11","08","16:00","1.7","","1.1","","96","","","","16","","18","","4.8","","97.23","","","","","","Rain,Fog"
"-94.36","49.79","KENORA A","6034076","2022-11-08 17:00","2022","11","08","17:00","1.6","","1.2","","97","","","","16","","17","","24.1","","97.18","","","","","","Rain,Snow"
"-94.36","49.79","KENORA A","6034076","2022-11-08 18:00","2022","11","08","18:00","2.0","","1.4","","96","","","","17","","21","","12.9","","97.14","","","","","","Drizzle"
"-94.36","49.79","KENORA A","6034076","2022-11-08 19:00","2022","11","08","19:00","2.1","","1.8","","98","","","","18","","23","","6.4","","97.06","","","","","","Drizzle,Fog"
"-94.36","49.79","KENORA A","6034076","2022-11-08 20:00","2022","11","08","20:00","2.2","","1.9","","98","","","","17","","19","","4.0","","96.99","","","","","","Drizzle,Fog"
"-94.36","49.79","KENORA A","6034076","2022-11-08 21:00","2022","11","08","21:00","2.5","","2.2","","98","","","","18","","20","","4.0","","96.91","","","","","","Drizzle,Fog"
"-94.36","49.79","KENORA A","6034076","2022-11-08 22:00","2022","11","08","22:00","2.7","","2.5","","99","","","","19","","19","","3.2","","96.85","","","","","","Drizzle,Fog"
"-94.36","49.79","KENORA A","6034076","2022-11-08 23:00","2022","11","08","23:00","3.0","","2.8","","99","","","","20","","15","","32.2","","96.83","","","","","","NA"
"-94.36","49.79","KENORA A","6034076","2022-11-09 00:00","2022","11","09","00:00","3.2","","3.0","","99","","","","21","","15","","4.0","","96.78","","","","","","Drizzle,Fog"
"-94.36","49.79","KENORA A","6034076","2022-11-09 01:00","2022","11","09","01:00","3.3","","3.2","","99","","","","24","","14","","4.8","","96.77","","","","","","Fog"
"-94.36","49.79","KENORA A","6034076","2022-11-09 02:00","2022","11","09","02:00","3.2","","2.9","","98","","","","26","","13","","8.1","","96.75","","","","","","Fog"
"-94.36","49.79","KENORA A","6034076","2022-11-09 03:00","2022","11","09","03:00","2.8","","2.5","","98","","","","26","","12","","8.1","","96.81","","","","","","Fog"
"-94.36","49.79","KENORA A","6034076","2022-11-09 04:00","2022","11","09","04:00","2.4","","2.0","","97","","","","27","","10","","9.7","","96.82","","","","","","Fog"
"-94.36","49.79","KENORA A","6034076","2022-11-09 05:00","2022","11","09","05:00","1.9","","1.5","","97","","","","26","","5","","12.9","","96.77","","","","","","NA"
"-94.36","49.79","KENORA A","6034076","2022-11-09 06:00","2022","11","09","06:00","1.3","","0.7","","95","","","","30","","10","","16.1","","96.79","","","","","","Cloudy"
"-94.36","49.79","KENORA A","6034076","2022-11-09 07:00","2022","11","09","07:00","1.0","","0.4","","96","","","","30","","10","","16.1","","96.84","","","","","","NA"
"-94.36","49.79","KENORA A","6034076","2022-11-09 08:00","2022","11","09","08:00","0.8","","0.1","","95","","","","31","","6","","32.2","","96.86","","","","","","NA"
"-94.36","49.79","KENORA A","6034076","2022-11-09 09:00","2022","11","09","09:00","0.6","","-0.3","","94","","","","31","","8","","19.3","","96.91","","","","","","Cloudy"
"-94.36","49.79","KENORA A","6034076","2022-11-09 10:00","2022","11","09","10:00","0.4","","-0.6","","94","","","","35","","9","","24.1","","96.86","","","","","","NA"
"-94.36","49.79","KENORA A","6034076","2022-11-09 11:00","2022","11","09","11:00","0.5","","-0.8","","91","","","","34","","13","","24.1","","96.88","","","","","","NA"
"-94.36","49.79","KENORA A","6034076","2022-11-09 12:00","2022","11","09","12:00","1.0","","-0.4","","90","","","","32","","6","","32.2","","96.90","","","","","","Cloudy"
"-94.36","49.79","KENORA A","6034076","2022-11-09 13:00","2022","11","09","13:00","1.3","","-0.2","","90","","","","35","","13","","32.2","","96.82","","","","","","NA"
"-94.36","49.79","KENORA A","6034076","2022-11-09 14:00","2022","11","09","14:00","0.2","","-1.8","","87","","","","36","","13","","32.2","","96.85","","","","","","NA"
"-94.36","49.79","KENORA A","6034076","2022-11-09 15:00","2022","11","09","15:00","-0.1","","-2.8","","82","","","","34","","14","","32.2","","96.86","","","","-4","","Cloudy"
"-94.36","49.79","KENORA A","6034076","2022-11-09 16:00","2022","11","09","16:00","-0.4","","-2.5","","86","","","","35","","14","","32.2","","96.84","","","","-5","","NA"
"-94.36","49.79","KENORA A","6034076","2022-11-09 17:00","2022","11","09","17:00","-1.0","","-3.0","","86","","","","36","","13","","32.2","","96.92","","","","-5","","NA"
"-94.36","49.79","KENORA A","6034076","2022-11-09 18:00","2022","11","09","18:00","-1.5","","-3.2","","88","","","","36","","17","","32.2","","96.94","","","","-7","","Cloudy"
"-94.36","49.79","KENORA A","6034076","2022-11-09 19:00","2022","11","09","19:00","-1.9","","-3.5","","89","","","","34","","14","","32.2","","96.98","","","","-7","","NA"
"-94.36","49.79","KENORA A","6034076","2022-11-09 20:00","2022","11","09","20:00","-2.0","","-3.7","","89","","","","36","","22","","32.2","","96.99","","","","-8","","NA"
"-94.36","49.79","KENORA A","6034076","2022-11-09 21:00","2022","11","09","21:00","-2.4","","-4.6","","85","","","","1","","18","","32.2","","97.04","","","","-8","","Mostly Cloudy"
"-94.36","49.79","KENORA A","6034076","2022-11-09 22:00","2022","11","09","22:00","-3.0","","-5.7","","81","","","","36","","20","","32.2","","97.04","","","","-9","","NA"
"-94.36","49.79","KENORA A","6034076","2022-11-09 23:00","2022","11","09","23:00","-3.5","","-6.2","","82","","","","1","","18","","32.2","","97.09","","","","-9","","NA"
"-94.36","49.79","KENORA A","6034076","2022-11-10 00:00","2022","11","10","00:00","-4.4","","-7.4","","80","","","","1","","20","","32.2","","97.06","","","","-11","","Cloudy"
"-94.36","49.79","KENORA A","6034076","2022-11-10 01:00","2022","11","10","01:00","-5.1","","-8.2","","79","","","","3","","20","","32.2","","97.08","","","","-12","","NA"
"-94.36","49.79","KENORA A","6034076","2022-11-10 02:00","2022","11","10","02:00","-5.5","","-8.0","","82","","","","2","","15","","32.2","","97.04","","","","-11","","NA"
"-94.36","49.79","KENORA A","6034076","2022-11-10 03:00","2022","11","10","03:00","-5.8","","-9.0","","78","","","","4","","24","","32.2","","97.07","","","","-13","","Cloudy"
"-94.36","49.79","KENORA A","6034076","2022-11-10 04:00","2022","11","10","04:00","-6.1","","-8.4","","84","","","","1","","15","","32.2","","97.06","","","","-12","","NA"
"-94.36","49.79","KENORA A","6034076","2022-11-10 05:00","2022","11","10","05:00","-6.4","","-8.8","","83","","","","3","","23","","32.2","","97.07","","","","-14","","NA"
"-94.36","49.79","KENORA A","6034076","2022-11-10 06:00","2022","11","10","06:00","-6.8","","-9.1","","83","","","","3","","25","","32.2","","97.06","","","","-15","","Cloudy"
"-94.36","49.79","KENORA A","6034076","2022-11-10 07:00","2022","11","10","07:00","-7.0","","-9.4","","83","","","","3","","21","","32.2","","97.03","","","","-14","","NA"
"-94.36","49.79","KENORA A","6034076","2022-11-10 08:00","2022","11","10","08:00","-7.0","","-10.0","","79","","","","4","","22","","32.2","","97.02","","","","-14","","NA"
"-94.36","49.79","KENORA A","6034076","2022-11-10 09:00","2022","11","10","09:00","-7.1","","-10.2","","79","","","","4","","26","","32.2","","96.98","","","","-15","","Cloudy"
"-94.36","49.79","KENORA A","6034076","2022-11-10 10:00","2022","11","10","10:00","-6.7","","-9.8","","79","","","","5","","24","","32.2","","96.91","","","","-14","","NA"
"-94.36","49.79","KENORA A","6034076","2022-11-10 11:00","2022","11","10","11:00","-6.5","","-10.2","","75","","","","6","","23","","32.2","","96.96","","","","-14","","NA"
"-94.36","49.79","KENORA A","6034076","2022-11-10 12:00","2022","11","10","12:00","-5.7","","-9.4","","75","","","","4","","22","","32.2","","96.83","","","","-13","","Mostly Cloudy"
"-94.36","49.79","KENORA A","6034076","2022-11-10 13:00","2022","11","10","13:00","-5.0","","-9.3","","72","","","","6","","22","","32.2","","96.73","","","","-12","","NA"
"-94.36","49.79","KENORA A","6034076","2022-11-10 14:00","2022","11","10","14:00","-4.8","","-8.7","","74","","","","4","","29","","32.2","","96.64","","","","-13","","NA"
"-94.36","49.79","KENORA A","6034076","2022-11-10 15:00","2022","11","10","15:00","-4.5","","-8.4","","74","","","","4","","34","","32.2","","96.56","","","","-13","","Snow Showers"
"-94.36","49.79","KENORA A","6034076","2022-11-10 16:00","2022","11","10","16:00","-4.5","","-7.6","","79","","","","5","","26","","2.4","","96.61","","","","-12","","Snow Showers,Blowing Snow"
"-94.36","49.79","KENORA A","6034076","2022-11-10 17:00","2022","11","10","17:00","-5.2","","-6.1","","93","","","","3","","23","","0.8","","96.62","","","","-12","","Moderate Snow"
"-94.36","49.79","KENORA A","6034076","2022-11-10 18:00","2022","11","10","18:00","-5.3","","-6.3","","92","","","","4","","26","","1.2","","96.59","","","","-13","","Snow"
"-94.36","49.79","KENORA A","6034076","2022-11-10 19:00","2022","11","10","19:00","-5.1","","-6.5","","90","","","","4","","32","","1.6","","96.53","","","","-13","","Snow,Blowing Snow"
"-94.36","49.79","KENORA A","6034076","2022-11-10 20:00","2022","11","10","20:00","-4.9","","-6.5","","89","","","","4","","23","","3.2","","96.58","","","","-12","","Snow,Blowing Snow"
"-94.36","49.79","KENORA A","6034076","2022-11-10 21:00","2022","11","10","21:00","-5.1","","-6.4","","91","","","","3","","20","","2.4","","96.62","","","","-12","","Snow,Blowing Snow"
"-94.36","49.79","KENORA A","6034076","2022-11-10 22:00","2022","11","10","22:00","-5.2","","-6.4","","91","","","","4","","25","","1.6","","96.52","","","","-13","","Snow,Blowing Snow"
"-94.36","49.79","KENORA A","6034076","2022-11-10 23:00","2022","11","10","23:00","-5.2","","-7.0","","87","","","","4","","23","","4.8","","96.53","","","","-12","","Snow,Blowing Snow"
"-94.36","49.79","KENORA A","6034076","2022-11-11 00:00","2022","11","11","00:00","-5.6","","-7.4","","87","","","","3","","26","","4.8","","96.56","","","","-13","","Snow,Blowing Snow"
"-94.36","49.79","KENORA A","6034076","2022-11-11 01:00","2022","11","11","01:00","-6.1","","-7.7","","88","","","","4","","28","","4.8","","96.56","","","","-14","","Snow,Blowing Snow"
"-94.36","49.79","KENORA A","6034076","2022-11-11 02:00","2022","11","11","02:00","-6.5","","-8.5","","86","","","","2","","28","","4.8","","96.61","","","","-15","","Snow,Blowing Snow"
"-94.36","49.79","KENORA A","6034076","2022-11-11 03:00","2022","11","11","03:00","-6.7","","-8.6","","87","","","","3","","21","","4.8","","96.65","","","","-14","","Snow,Fog"
"-94.36","49.79","KENORA A","6034076","2022-11-11 04:00","2022","11","11","04:00","-7.0","","-8.7","","87","","","","2","","22","","4.0","","96.68","","","","-14","","Snow,Blowing Snow"
"-94.36","49.79","KENORA A","6034076","2022-11-11 05:00","2022","11","11","05:00","-7.1","","-8.9","","87","","","","2","","20","","4.0","","96.74","","","","-14","","Snow,Blowing Snow"
"-94.36","49.79","KENORA A","6034076","2022-11-11 06:00","2022","11","11","06:00","-7.0","","-9.3","","84","","","","3","","22","","16.1","","96.75","","","","-14","","Snow,Blowing Snow"
"-94.36","49.79","KENORA A","6034076","2022-11-11 07:00","2022","11","11","07:00","-7.4","","-9.5","","85","","","","2","","18","","12.9","","96.82","","","","-14","","Snow,Blowing Snow"
"-94.36","49.79","KENORA A","6034076","2022-11-11 08:00","2022","11","11","08:00","-7.5","","-9.8","","84","","","","2","","21","","9.7","","96.89","","","","-15","","Snow,Blowing Snow"
"-94.36","49.79","KENORA A","6034076","2022-11-11 09:00","2022","11","11","09:00","-7.3","","-9.7","","83","","","","2","","21","","4.0","","96.93","","","","-15","","Snow,Blowing Snow"
"-94.36","49.79","KENORA A","6034076","2022-11-11 10:00","2022","11","11","10:00","-6.7","","-9.6","","80","","","","2","","22","","16.1","","96.96","","","","-14","","Snow,Blowing Snow"
"-94.36","49.79","KENORA A","6034076","2022-11-11 11:00","2022","11","11","11:00","-6.6","","-9.6","","79","","","","2","","24","","19.3","","97.03","","","","-14","","Snow,Blowing Snow"
"-94.36","49.79","KENORA A","6034076","2022-11-11 12:00","2022","11","11","12:00","-5.8","","-8.8","","79","","","","2","","19","","24.1","","97.05","","","","-12","","Snow,Blowing Snow"
"-94.36","49.79","KENORA A","6034076","2022-11-11 13:00","2022","11","11","13:00","-5.2","","-8.9","","75","","","","2","","21","","12.9","","97.06","","","","-12","","Snow,Blowing Snow"
"-94.36","49.79","KENORA A","6034076","2022-11-11 14:00","2022","11","11","14:00","-5.3","","-8.5","","79","","","","36","","22","","19.3","","97.10","","","","-12","","Snow,Blowing Snow"
"-94.36","49.79","KENORA A","6034076","2022-11-11 15:00","2022","11","11","15:00","-5.4","","-8.5","","79","","","","36","","22","","24.1","","97.15","","","","-12","","Snow,Blowing Snow"
"-94.36","49.79","KENORA A","6034076","2022-11-11 16:00","2022","11","11","16:00","-5.9","","-8.6","","81","","","","1","","16","","32.2","","97.19","","","","-12","","Blowing Snow"
"-94.36","49.79","KENORA A","6034076","2022-11-11 17:00","2022","11","11","17:00","-6.2","","-8.7","","83","","","","1","","18","","32.2","","97.23","","","","-13","","Blowing Snow"
"-94.36","49.79","KENORA A","6034076","2022-11-11 18:00","2022","11","11","18:00","-6.8","","-9.2","","83","","","","1","","20","","32.2","","97.30","","","","-14","","Blowing Snow"
"-94.36","49.79","KENORA A","6034076","2022-11-11 19:00","2022","11","11","19:00","-6.9","","-9.8","","80","","","","4","","23","","32.2","","97.36","","","","-14","","Snow"
"-94.36","49.79","KENORA A","6034076","2022-11-11 20:00","2022","11","11","20:00","-7.0","","-10.5","","76","","","","5","","21","","19.3","","97.39","","","","-14","","Snow,Blowing Snow"
"-94.36","49.79","KENORA A","6034076","2022-11-11 21:00","2022","11","11","21:00","-7.1","","-10.1","","80","","","","4","","14","","16.1","","97.44","","","","-13","","Snow,Blowing Snow"
"-94.36","49.79","KENORA A","6034076","2022-11-11 22:00","2022","11","11","22:00","-7.3","","-9.9","","82","","","","3","","14","","9.7","","97.46","","","","-13","","Snow,Blowing Snow"
"-94.36","49.79","KENORA A","6034076","2022-11-11 23:00","2022","11","11","23:00","-7.6","","-9.9","","84","","","","2","","16","","9.7","","97.48","","","","-14","","Snow,Blowing Snow"
"-94.36","49.79","KENORA A","6034076","2022-11-12 00:00","2022","11","12","00:00","-8.0","","-10.3","","84","","","","2","","13","","12.9","","97.50","","","","-14","","Snow,Blowing Snow"
"-94.36","49.79","KENORA A","6034076","2022-11-12 01:00","2022","11","12","01:00","-8.3","","-10.2","","86","","","","1","","10","","9.7","","97.51","","","","-13","","Snow,Blowing Snow"
"-94.36","49.79","KENORA A","6034076","2022-11-12 02:00","2022","11","12","02:00","-8.2","","-10.2","","86","","","","2","","12","","12.9","","97.51","","","","-14","","Snow,Blowing Snow"
"-94.36","49.79","KENORA A","6034076","2022-11-12 03:00","2022","11","12","03:00","-8.2","","-10.2","","86","","","","3","","9","","16.1","","97.53","","","","-13","","Snow,Blowing Snow"
"-94.36","49.79","KENORA A","6034076","2022-11-12 04:00","2022","11","12","04:00","-8.2","","-10.2","","86","","","","3","","10","","19.3","","97.55","","","","-13","","Snow,Blowing Snow"
"-94.36","49.79","KENORA A","6034076","2022-11-12 05:00","2022","11","12","05:00","-8.5","","-10.4","","86","","","","3","","12","","19.3","","97.58","","","","-14","","Snow,Blowing Snow"
"-94.36","49.79","KENORA A","6034076","2022-11-12 06:00","2022","11","12","06:00","-8.9","","-10.6","","88","","","","3","","10","","19.3","","97.60","","","","-14","","Snow,Blowing Snow"
"-94.36","49.79","KENORA A","6034076","2022-11-12 07:00","2022","11","12","07:00","-9.0","","-10.4","","90","","","","36","","10","","32.2","","97.61","","","","-14","","Snow"
"-94.36","49.79","KENORA A","6034076","2022-11-12 08:00","2022","11","12","08:00","-8.6","","-10.2","","88","","","","2","","11","","32.2","","97.65","","","","-14","","Snow"
"-94.36","49.79","KENORA A","6034076","2022-11-12 09:00","2022","11","12","09:00","-8.4","","-10.2","","87","","","","2","","12","","32.2","","97.67","","","","-14","","Snow"
"-94.36","49.79","KENORA A","6034076","2022-11-12 10:00","2022","11","12","10:00","-7.9","","-9.8","","86","","","","6","","9","","32.2","","97.68","","","","-12","","Snow"
"-94.36","49.79","KENORA A","6034076","2022-11-12 11:00","2022","11","12","11:00","-7.2","","-9.8","","81","","","","4","","10","","32.2","","97.68","","","","-12","","Snow"
"-94.36","49.79","KENORA A","6034076","2022-11-12 12:00","2022","11","12","12:00","-6.7","","-9.8","","78","","","","6","","9","","32.2","","97.64","","","","-11","","Snow"
"-94.36","49.79","KENORA A","6034076","2022-11-12 13:00","2022","11","12","13:00","-6.3","","-9.9","","76","","","","5","","9","","32.2","","97.61","","","","-11","","Snow"
"-94.36","49.79","KENORA A","6034076","2022-11-12 14:00","2022","11","12","14:00","-6.3","","-10.9","","70","","","","3","","8","","32.2","","97.61","","","","-10","","NA"
"-94.36","49.79","KENORA A","6034076","2022-11-12 15:00","2022","11","12","15:00","-5.5","","-10.4","","69","","","","3","","11","","32.2","","97.62","","","","-10","","Mostly Cloudy"
"-94.36","49.79","KENORA A","6034076","2022-11-12 16:00","2022","11","12","16:00","-6.1","","-10.9","","69","","","","4","","10","","32.2","","97.65","","","","-11","","Snow"
"-94.36","49.79","KENORA A","6034076","2022-11-12 17:00","2022","11","12","17:00","-6.6","","-11.2","","70","","","","7","","7","","32.2","","97.68","","","","-10","","Snow"
"-94.36","49.79","KENORA A","6034076","2022-11-12 18:00","2022","11","12","18:00","-6.6","","-12.8","","62","","","","7","","9","","32.2","","97.70","","","","-11","","Snow"
"-94.36","49.79","KENORA A","6034076","2022-11-12 19:00","2022","11","12","19:00","-7.0","","-11.3","","71","","","","8","","7","","24.1","","97.71","","","","-11","","Snow"
"-94.36","49.79","KENORA A","6034076","2022-11-12 20:00","2022","11","12","20:00","-6.9","","-12.4","","65","","","","9","","9","","24.1","","97.71","","","","-11","","Snow"
"-94.36","49.79","KENORA A","6034076","2022-11-12 21:00","2022","11","12","21:00","-7.2","","-10.8","","76","","","","1","","5","","24.1","","97.69","","","","-10","","Snow"
"-94.36","49.79","KENORA A","6034076","2022-11-12 22:00","2022","11","12","22:00","-7.2","","-10.0","","80","","","","7","","9","","24.1","","97.70","","","","-12","","Snow"
"-94.36","49.79","KENORA A","6034076","2022-11-12 23:00","2022","11","12","23:00","-7.5","","-9.7","","85","","","","4","","5","","24.1","","97.71","","","","-10","","Snow"
"-94.36","49.79","KENORA A","6034076","2022-11-13 00:00","2022","11","13","00:00","-7.5","","-9.4","","86","","","","6","","7","","24.1","","97.72","","","","-11","","Snow"
"-94.36","49.79","KENORA A","6034076","2022-11-13 01:00","2022","11","13","01:00","-7.4","","-10.2","","81","","","","7","","7","","24.1","","97.72","","","","-11","","Snow"
"-94.36","49.79","KENORA A","6034076","2022-11-13 02:00","2022","11","13","02:00","-7.8","","-10.2","","83","","","","9","","3","","24.1","","97.77","","","","-9","","Snow"
"-94.36","49.79","KENORA A","6034076","2022-11-13 03:00","2022","11","13","03:00","-7.4","","-10.3","","80","","","","7","","11","","24.1","","97.78","","","","-12","","Snow"
"-94.36","49.79","KENORA A","6034076","2022-11-13 04:00","2022","11","13","04:00","-7.2","","-9.9","","81","","","","8","","12","","24.1","","97.77","","","","-13","","Snow"
"-94.36","49.79","KENORA A","6034076","2022-11-13 05:00","2022","11","13","05:00","-7.3","","-9.5","","84","","","","7","","8","","24.1","","97.76","","","","-11","","Snow"
"-94.36","49.79","KENORA A","6034076","2022-11-13 06:00","2022","11","13","06:00","-7.2","","-9.3","","85","","","","7","","6","","24.1","","97.76","","","","-10","","Snow"
"-94.36","49.79","KENORA A","6034076","2022-11-13 07:00","2022","11","13","07:00","-7.5","","-9.5","","86","","","","3","","7","","32.2","","97.77","","","","-11","","Snow"
"-94.36","49.79","KENORA A","6034076","2022-11-13 08:00","2022","11","13","08:00","-7.4","","-9.9","","82","","","","5","","4","","32.2","","97.80","","","","-9","","NA"
"-94.36","49.79","KENORA A","6034076","2022-11-13 09:00","2022","11","13","09:00","-7.0","","-10.2","","77","","","","12","","4","","32.2","","97.82","","","","-9","","Cloudy"
"-94.36","49.79","KENORA A","6034076","2022-11-13 10:00","2022","11","13","10:00","-6.5","","-10.7","","72","","","","10","","9","","32.2","","97.82","","","","-11","","NA"
"-94.36","49.79","KENORA A","6034076","2022-11-13 11:00","2022","11","13","11:00","-6.3","","-12.4","","62","","","","7","","9","","32.2","","97.81","","","","-11","","NA"
"-94.36","49.79","KENORA A","6034076","2022-11-13 12:00","2022","11","13","12:00","-6.0","","-10.6","","70","","","","7","","10","","32.2","","97.77","","","","-10","","Mostly Cloudy"
"-94.36","49.79","KENORA A","6034076","2022-11-13 13:00","2022","11","13","13:00","-5.9","","-10.9","","68","","","","13","","4","","24.1","","97.75","","","","-8","","Snow"
"-94.36","49.79","KENORA A","6034076","2022-11-13 14:00","2022","11","13","14:00","-6.1","","-11.7","","65","","","","14","","9","","24.1","","97.75","","","","-10","","Snow"
"-94.36","49.79","KENORA A","6034076","2022-11-13 15:00","2022","11","13","15:00","-6.3","","-10.3","","74","","","","10","","11","","24.1","","97.73","","","","-11","","Snow"
"-94.36","49.79","KENORA A","6034076","2022-11-13 16:00","2022","11","13","16:00","-6.4","","-11.3","","68","","","","11","","4","","32.2","","97.75","","","","-8","","Snow"
"-94.36","49.79","KENORA A","6034076","2022-11-13 17:00","2022","11","13","17:00","-6.6","","-10.5","","74","","","","7","","6","","32.2","","97.73","","","","-10","","NA"
"-94.36","49.79","KENORA A","6034076","2022-11-13 18:00","2022","11","13","18:00","-6.5","","-11.6","","67","","","","8","","9","","32.2","","97.72","","","","-11","","Cloudy"
"-94.36","49.79","KENORA A","6034076","2022-11-13 19:00","2022","11","13","19:00","-6.6","","-11.4","","69","","","","10","","8","","24.1","","97.70","","","","-10","","NA"
"-94.36","49.79","KENORA A","6034076","2022-11-13 20:00","2022","11","13","20:00","-6.6","","-10.9","","72","","","","11","","7","","24.1","","97.69","","","","-10","","NA"
"-94.36","49.79","KENORA A","6034076","2022-11-13 21:00","2022","11","13","21:00","-6.7","","-10.7","","74","","","","8","","5","","24.1","","97.69","","","","-9","","Snow"
"-94.36","49.79","KENORA A","6034076","2022-11-13 22:00","2022","11","13","22:00","-6.7","","-10.9","","72","","","","8","","8","","24.1","","97.69","","","","-11","","Snow"
"-94.36","49.79","KENORA A","6034076","2022-11-13 23:00","2022","11","13","23:00","-6.9","","-10.2","","77","","","","9","","7","","24.1","","97.71","","","","-10","","NA"
"-94.36","49.79","KENORA A","6034076","2022-11-14 00:00","2022","11","14","00:00","-6.6","","-10.3","","76","","","","12","","8","","24.1","","97.72","","","","-10","","Snow"
"-94.36","49.79","KENORA A","6034076","2022-11-14 01:00","2022","11","14","01:00","-7.0","","-9.7","","81","","","","15","","7","","19.3","","97.72","","","","-11","","Snow"
"-94.36","49.79","KENORA A","6034076","2022-11-14 02:00","2022","11","14","02:00","-7.0","","-9.6","","82","","","","12","","9","","16.1","","97.71","","","","-11","","Snow"
"-94.36","49.79","KENORA A","6034076","2022-11-14 03:00","2022","11","14","03:00","-8.0","","-9.6","","88","","","","9","","9","","12.9","","97.70","","","","-13","","Snow"
"-94.36","49.79","KENORA A","6034076","2022-11-14 04:00","2022","11","14","04:00","-8.1","","-9.4","","90","","","","10","","10","","19.3","","97.67","","","","-13","","Snow"
"-94.36","49.79","KENORA A","6034076","2022-11-14 05:00","2022","11","14","05:00","-7.8","","-9.6","","87","","","","9","","13","","19.3","","97.65","","","","-14","","Snow"
"-94.36","49.79","KENORA A","6034076","2022-11-14 06:00","2022","11","14","06:00","-7.8","","-10.1","","84","","","","11","","12","","24.1","","97.66","","","","-13","","Snow"
"-94.36","49.79","KENORA A","6034076","2022-11-14 07:00","2022","11","14","07:00","-7.7","","-10.4","","81","","","","11","","14","","24.1","","97.65","","","","-14","","Snow"
"-94.36","49.79","KENORA A","6034076","2022-11-14 08:00","2022","11","14","08:00","-7.4","","-9.7","","84","","","","9","","13","","24.1","","97.64","","","","-13","","Snow"
"-94.36","49.79","KENORA A","6034076","2022-11-14 09:00","2022","11","14","09:00","-7.3","","-9.4","","85","","","","8","","11","","24.1","","97.66","","","","-12","","Snow"
"-94.36","49.79","KENORA A","6034076","2022-11-14 10:00","2022","11","14","10:00","-6.7","","-8.6","","87","","","","9","","10","","9.7","","97.66","","","","-11","","Snow"
"-94.36","49.79","KENORA A","6034076","2022-11-14 11:00","2022","11","14","11:00","-5.6","","-7.9","","84","","","","10","","19","","3.2","","97.66","","","","-12","","Snow Showers"
"-94.36","49.79","KENORA A","6034076","2022-11-14 12:00","2022","11","14","12:00","-5.1","","-7.7","","82","","","","11","","19","","4.0","","97.65","","","","-12","","Snow Showers"
"-94.36","49.79","KENORA A","6034076","2022-11-14 13:00","2022","11","14","13:00","-4.5","","-7.3","","81","","","","10","","12","","6.4","","97.63","","","","-9","","Snow Showers"
"-94.36","49.79","KENORA A","6034076","2022-11-14 14:00","2022","11","14","14:00","-4.3","","-8.0","","75","","","","9","","17","","9.7","","97.62","","","","-10","","Snow Showers"
"-94.36","49.79","KENORA A","6034076","2022-11-14 15:00","2022","11","14","15:00","-4.3","","-7.1","","81","","","","8","","17","","9.7","","97.62","","","","-10","","Snow Showers"
"-94.36","49.79","KENORA A","6034076","2022-11-14 16:00","2022","11","14","16:00","-4.9","","-7.1","","85","","","","8","","14","","4.8","","97.66","","","","-10","","Snow Showers"
"-94.36","49.79","KENORA A","6034076","2022-11-14 17:00","2022","11","14","17:00","-5.6","","-7.1","","89","","","","7","","13","","6.4","","97.70","","","","-11","","Snow Showers"
"-94.36","49.79","KENORA A","6034076","2022-11-14 18:00","2022","11","14","18:00","-6.2","","-7.8","","88","","","","7","","15","","16.1","","97.73","","","","-12","","Snow Showers"
"-94.36","49.79","KENORA A","6034076","2022-11-14 19:00","2022","11","14","19:00","-6.5","","-7.9","","90","","","","7","","13","","24.1","","97.75","","","","-12","","Snow Showers"
"-94.36","49.79","KENORA A","6034076","2022-11-14 20:00","2022","11","14","20:00","-6.3","","-7.9","","89","","","","8","","13","","24.1","","97.75","","","","-12","","Snow Showers"
"-94.36","49.79","KENORA A","6034076","2022-11-14 21:00","2022","11","14","21:00","-6.3","","-7.8","","90","","","","6","","14","","19.3","","97.79","","","","-12","","Snow Showers"
"-94.36","49.79","KENORA A","6034076","2022-11-14 22:00","2022","11","14","22:00","-6.3","","-7.6","","90","","","","6","","13","","24.1","","97.83","","","","-12","","Snow Showers"
"-94.36","49.79","KENORA A","6034076","2022-11-14 23:00","2022","11","14","23:00","-6.2","","-7.4","","91","","","","7","","9","","19.3","","97.88","","","","-10","","Snow Showers"
"-94.36","49.79","KENORA A","6034076","2022-11-15 00:00","2022","11","15","00:00","-6.2","","-7.4","","91","","","","7","","9","","24.1","","97.89","","","","-10","","Snow Showers"
"-94.36","49.79","KENORA A","6034076","2022-11-15 01:00","2022","11","15","01:00","-6.4","","-7.6","","91","","","","7","","9","","19.3","","97.90","","","","-11","","Snow Showers"
"-94.36","49.79","KENORA A","6034076","2022-11-15 02:00","2022","11","15","02:00","-6.4","","-7.6","","91","","","","5","","9","","16.1","","97.90","","","","-11","","Snow Showers"
"-94.36","49.79","KENORA A","6034076","2022-11-15 03:00","2022","11","15","03:00","-6.4","","-7.7","","90","","","","5","","8","","19.3","","97.90","","","","-10","","Snow Showers"
"-94.36","49.79","KENORA A","6034076","2022-11-15 04:00","2022","11","15","04:00","-6.3","","-7.6","","91","","","","6","","13","","16.1","","97.88","","","","-12","","Snow Showers"
"-94.36","49.79","KENORA A","6034076","2022-11-15 05:00","2022","11","15","05:00","-6.8","","-7.9","","92","","","","5","","14","","19.3","","97.88","","","","-13","","Snow Showers"
"-94.36","49.79","KENORA A","6034076","2022-11-15 06:00","2022","11","15","06:00","-7.1","","-8.3","","91","","","","6","","13","","24.1","","97.91","","","","-13","","Snow Showers"
"-94.36","49.79","KENORA A","6034076","2022-11-15 07:00","2022","11","15","07:00","-7.5","","-8.6","","92","","","","5","","12","","24.1","","97.91","","","","-13","","Snow"
"-94.36","49.79","KENORA A","6034076","2022-11-15 08:00","2022","11","15","08:00","-7.0","","-8.1","","91","","","","4","","13","","24.1","","97.93","","","","-13","","Snow"
"-94.36","49.79","KENORA A","6034076","2022-11-15 09:00","2022","11","15","09:00","-6.0","","-7.5","","89","","","","5","","13","","9.7","","97.93","","","","-11","","Snow"
"-94.36","49.79","KENORA A","6034076","2022-11-15 10:00","2022","11","15","10:00","-5.4","","-7.2","","87","","","","6","","15","","2.4","","97.89","","","","-11","","Snow"
"-94.36","49.79","KENORA A","6034076","2022-11-15 11:00","2022","11","15","11:00","-5.0","","-6.8","","87","","","","7","","15","","6.4","","97.87","","","","-11","","Snow"
"-94.36","49.79","KENORA A","6034076","2022-11-15 12:00","2022","11","15","12:00","-4.0","","-6.5","","83","","","","7","","16","","16.1","","97.82","","","","-10","","Snow"
"-94.36","49.79","KENORA A","6034076","2022-11-15 13:00","2022","11","15","13:00","-3.6","","-6.3","","82","","","","6","","14","","16.1","","97.79","","","","-9","","Snow"
"-94.36","49.79","KENORA A","6034076","2022-11-15 14:00","2022","11","15","14:00","-3.2","","-5.7","","82","","","","4","","13","","6.4","","97.78","","","","-8","","Snow"
"-94.36","49.79","KENORA A","6034076","2022-11-15 15:00","2022","11","15","15:00","-3.4","","-5.5","","85","","","","6","","16","","4.0","","97.78","","","","-9","","Snow"
"-94.36","49.79","KENORA A","6034076","2022-11-15 16:00","2022","11","15","16:00","-3.6","","-5.2","","88","","","","6","","12","","4.0","","97.78","","","","-8","","Snow"
"-94.36","49.79","KENORA A","6034076","2022-11-15 17:00","2022","11","15","17:00","-3.9","","-5.8","","87","","","","6","","13","","9.7","","97.80","","","","-9","","Snow"
"-94.36","49.79","KENORA A","6034076","2022-11-15 18:00","2022","11","15","18:00","-4.0","","-5.7","","88","","","","5","","10","","16.1","","97.79","","","","-8","","Snow"
"-94.36","49.79","KENORA A","6034076","2022-11-15 19:00","2022","11","15","19:00","-4.3","","-5.8","","89","","","","6","","9","","16.1","","97.77","","","","-8","","Snow"
"-94.36","49.79","KENORA A","6034076","2022-11-15 20:00","2022","11","15","20:00","-4.3","","-5.9","","89","","","","6","","10","","32.2","","97.76","","","","-8","","Snow"
"-94.36","49.79","KENORA A","6034076","2022-11-15 21:00","2022","11","15","21:00","-4.2","","-5.9","","88","","","","5","","10","","32.2","","97.75","","","","-8","","Snow"
"-94.36","49.79","KENORA A","6034076","2022-11-15 22:00","2022","11","15","22:00","-4.3","","-5.9","","89","","","","5","","7","","32.2","","97.75","","","","-7","","Snow"
"-94.36","49.79","KENORA A","6034076","2022-11-15 23:00","2022","11","15","23:00","-4.3","","-6.0","","89","","","","9","","7","","32.2","","97.74","","","","-7","","Snow"
"-94.36","49.79","KENORA A","6034076","2022-11-16 00:00","2022","11","16","00:00","-4.6","","-5.8","","91","","","","6","","5","","24.1","","97.71","","","","-7","","Snow"
"-94.36","49.79","KENORA A","6034076","2022-11-16 01:00","2022","11","16","01:00","-4.8","","-5.7","","94","","","","3","","5","","24.1","","97.69","","","","-7","","Snow"
"-94.36","49.79","KENORA A","6034076","2022-11-16 02:00","2022","11","16","02:00","-5.1","","-6.2","","92","","","","7","","8","","24.1","","97.62","","","","-9","","Snow"
"-94.36","49.79","KENORA A","6034076","2022-11-16 03:00","2022","11","16","03:00","-5.1","","-6.1","","93","","","","5","","4","","32.2","","97.59","","","","-7","","Snow"
"-94.36","49.79","KENORA A","6034076","2022-11-16 04:00","2022","11","16","04:00","-5.3","","-6.0","","95","","","","35","","7","","32.2","","97.55","","","","-9","","Snow"
"-94.36","49.79","KENORA A","6034076","2022-11-16 05:00","2022","11","16","05:00","-5.2","","-6.2","","93","","","","10","","4","","32.2","","97.50","","","","-7","","Snow"
"-94.36","49.79","KENORA A","6034076","2022-11-16 06:00","2022","11","16","06:00","-5.4","","-6.2","","94","","","","16","","4","","32.2","","97.47","","","","-7","","Snow"
"-94.36","49.79","KENORA A","6034076","2022-11-16 07:00","2022","11","16","07:00","-5.3","","-6.4","","92","","","","36","","3","","32.2","","97.42","","","","-7","","NA"
"-94.36","49.79","KENORA A","6034076","2022-11-16 08:00","2022","11","16","08:00","-5.2","","-6.1","","93","","","","29","","4","","32.2","","97.36","","","","-7","","NA"
"-94.36","49.79","KENORA A","6034076","2022-11-16 09:00","2022","11","16","09:00","-5.4","","-7.0","","88","","","","26","","9","","32.2","","97.30","","","","-9","","Snow"
"-94.36","49.79","KENORA A","6034076","2022-11-16 10:00","2022","11","16","10:00","-5.1","","-8.1","","80","","","","27","","7","","32.2","","97.24","","","","-8","","Snow"
"-94.36","49.79","KENORA A","6034076","2022-11-16 11:00","2022","11","16","11:00","-4.7","","-8.1","","77","","","","27","","8","","24.1","","97.18","","","","-8","","Snow"
"-94.36","49.79","KENORA A","6034076","2022-11-16 12:00","2022","11","16","12:00","-5.2","","-8.6","","78","","","","25","","12","","24.1","","97.10","","","","-10","","Snow"
"-94.36","49.79","KENORA A","6034076","2022-11-16 13:00","2022","11","16","13:00","-5.1","","-9.2","","73","","","","22","","16","","32.2","","96.99","","","","-11","","Snow"
"-94.36","49.79","KENORA A","6034076","2022-11-16 14:00","2022","11","16","14:00","-5.2","","-9.6","","72","","","","23","","12","","32.2","","96.94","","","","-10","","Snow"
"-94.36","49.79","KENORA A","6034076","2022-11-16 15:00","2022","11","16","15:00","-5.4","","-9.8","","71","","","","26","","12","","32.2","","96.88","","","","-10","","Snow"
"-94.36","49.79","KENORA A","6034076","2022-11-16 16:00","2022","11","16","16:00","-5.7","","-10.0","","72","","","","27","","11","","32.2","","96.85","","","","-10","","Snow"
"-94.36","49.79","KENORA A","6034076","2022-11-16 17:00","2022","11","16","17:00","-6.1","","-10.1","","74","","","","26","","7","","32.2","","96.82","","","","-9","","Snow"
"-94.36","49.79","KENORA A","6034076","2022-11-16 18:00","2022","11","16","18:00","-6.4","","-10.4","","73","","","","30","","4","","32.2","","96.78","","","","-8","","Snow"
"-94.36","49.79","KENORA A","6034076","2022-11-16 19:00","2022","11","16","19:00","-6.7","","-10.2","","76","","","","28","","7","","32.2","","96.76","","","","-10","","Snow"
"-94.36","49.79","KENORA A","6034076","2022-11-16 20:00","2022","11","16","20:00","-7.5","","-9.3","","87","","","","24","","6","","16.1","","96.73","","","","-11","","Snow"
"-94.36","49.79","KENORA A","6034076","2022-11-16 21:00","2022","11","16","21:00","-8.1","","-10.0","","87","","","","26","","7","","12.9","","96.71","","","","-12","","Snow"
"-94.36","49.79","KENORA A","6034076","2022-11-16 22:00","2022","11","16","22:00","-8.3","","-9.8","","89","","","","29","","4","","24.1","","96.68","","","","-10","","Snow"
"-94.36","49.79","KENORA A","6034076","2022-11-16 23:00","2022","11","16","23:00","-8.3","","-9.8","","89","","","","31","","9","","4.8","","96.66","","","","-13","","Snow"
"-94.36","49.79","KENORA A","6034076","2022-11-17 00:00","2022","11","17","00:00","-8.6","","-9.9","","90","","","","33","","7","","8.1","","96.64","","","","-12","","Snow"
"-94.36","49.79","KENORA A","6034076","2022-11-17 01:00","2022","11","17","01:00","-9.1","","-10.3","","91","","","","1","","7","","19.3","","96.65","","","","-13","","Snow"
"-94.36","49.79","KENORA A","6034076","2022-11-17 02:00","2022","11","17","02:00","-9.2","","-10.3","","92","","","","35","","8","","19.3","","96.65","","","","-14","","Snow"
"-94.36","49.79","KENORA A","6034076","2022-11-17 03:00","2022","11","17","03:00","-9.1","","-10.3","","91","","","","34","","8","","19.3","","96.67","","","","-13","","Snow"
"-94.36","49.79","KENORA A","6034076","2022-11-17 04:00","2022","11","17","04:00","-9.3","","-10.5","","92","","","","36","","7","","19.3","","96.65","","","","-13","","Snow"
"-94.36","49.79","KENORA A","6034076","2022-11-17 05:00","2022","11","17","05:00","-9.5","","-10.7","","91","","","","35","","8","","19.3","","96.67","","","","-14","","Snow"
"-94.36","49.79","KENORA A","6034076","2022-11-17 06:00","2022","11","17","06:00","-9.3","","-10.5","","91","","","","35","","9","","19.3","","96.70","","","","-14","","Snow"
"-94.36","49.79","KENORA A","6034076","2022-11-17 07:00","2022","11","17","07:00","-9.3","","-10.5","","91","","","","36","","7","","9.7","","96.73","","","","-13","","Snow"
"-94.36","49.79","KENORA A","6034076","2022-11-17 08:00","2022","11","17","08:00","-9.1","","-10.3","","91","","","","36","","6","","8.1","","96.76","","","","-12","","Snow"
"-94.36","49.79","KENORA A","6034076","2022-11-17 09:00","2022","11","17","09:00","-8.6","","-9.8","","91","","","","35","","10","","9.7","","96.78","","","","-14","","Snow"
"-94.36","49.79","KENORA A","6034076","2022-11-17 10:00","2022","11","17","10:00","-7.7","","-9.3","","88","","","","36","","11","","9.7","","96.81","","","","-13","","Snow"
"-94.36","49.79","KENORA A","6034076","2022-11-17 11:00","2022","11","17","11:00","-6.5","","-9.6","","79","","","","34","","14","","24.1","","96.85","","","","-12","","Snow"
"-94.36","49.79","KENORA A","6034076","2022-11-17 12:00","2022","11","17","12:00","-6.6","","-10.8","","72","","","","36","","21","","24.1","","96.85","","","","-14","","Snow"
"-94.36","49.79","KENORA A","6034076","2022-11-17 13:00","2022","11","17","13:00","-6.8","","-9.4","","82","","","","36","","14","","4.8","","96.86","","","","-13","","Snow Showers"
"-94.36","49.79","KENORA A","6034076","2022-11-17 14:00","2022","11","17","14:00","-6.7","","-8.9","","85","","","","34","","12","","4.8","","96.89","","","","-12","","Snow Showers"
"-94.36","49.79","KENORA A","6034076","2022-11-17 15:00","2022","11","17","15:00","-6.6","","-9.1","","82","","","","33","","12","","12.9","","96.90","","","","-12","","Snow Showers"
"-94.36","49.79","KENORA A","6034076","2022-11-17 16:00","2022","11","17","16:00","-7.2","","-10.5","","77","","","","35","","17","","24.1","","96.95","","","","-14","","Snow"
"-94.36","49.79","KENORA A","6034076","2022-11-17 17:00","2022","11","17","17:00","-7.9","","-11.0","","79","","","","36","","21","","9.7","","96.98","","","","-15","","Snow Showers"
"-94.36","49.79","KENORA A","6034076","2022-11-17 18:00","2022","11","17","18:00","-8.1","","-10.5","","83","","","","34","","10","","16.1","","97.02","","","","-13","","Snow Showers"
"-94.36","49.79","KENORA A","6034076","2022-11-17 19:00","2022","11","17","19:00","-8.3","","-12.0","","75","","","","36","","13","","32.2","","97.03","","","","-14","","Snow Showers"
"-94.36","49.79","KENORA A","6034076","2022-11-17 20:00","2022","11","17","20:00","-8.7","","-11.8","","78","","","","34","","16","","24.1","","97.05","","","","-15","","Snow Showers"
"-94.36","49.79","KENORA A","6034076","2022-11-17 21:00","2022","11","17","21:00","-9.2","","-13.0","","74","","","","35","","14","","32.2","","97.06","","","","-16","","Snow Showers"
"-94.36","49.79","KENORA A","6034076","2022-11-17 22:00","2022","11","17","22:00","-9.6","","-14.3","","69","","","","35","","14","","32.2","","97.04","","","","-16","","Snow"
"-94.36","49.79","KENORA A","6034076","2022-11-17 23:00","2022","11","17","23:00","-9.5","","-13.9","","70","","","","34","","14","","32.2","","97.03","","","","-16","","Snow"
"-94.36","49.79","KENORA A","6034076","2022-11-18 00:00","2022","11","18","00:00","-9.6","","-13.1","","76","","","","28","","7","","32.2","","96.97","","","","-14","","Snow"
"-94.36","49.79","KENORA A","6034076","2022-11-18 01:00","2022","11","18","01:00","-9.9","","-12.5","","82","","","","29","","10","","24.1","","96.93","","","","-15","","Snow"
"-94.36","49.79","KENORA A","6034076","2022-11-18 02:00","2022","11","18","02:00","-10.3","","-13.2","","79","","","","29","","13","","24.1","","96.90","","","","-17","","Snow"
"-94.36","49.79","KENORA A","6034076","2022-11-18 03:00","2022","11","18","03:00","-11.7","","-14.9","","78","","","","31","","15","","32.2","","96.91","","","","-19","","Snow"
"-94.36","49.79","KENORA A","6034076","2022-11-18 04:00","2022","11","18","04:00","-12.6","","-14.8","","84","","","","30","","9","","32.2","","96.83","","","","-18","","Snow"
"-94.36","49.79","KENORA A","6034076","2022-11-18 05:00","2022","11","18","05:00","-11.8","","-14.2","","83","","","","26","","11","","24.1","","96.73","","","","-18","","Snow"
"-94.36","49.79","KENORA A","6034076","2022-11-18 06:00","2022","11","18","06:00","-11.8","","-14.3","","82","","","","26","","11","","32.2","","96.63","","","","-18","","Snow"
"-94.36","49.79","KENORA A","6034076","2022-11-18 07:00","2022","11","18","07:00","-13.3","","-16.6","","77","","","","24","","18","","32.2","","96.52","","","","-22","","Snow"
"-94.36","49.79","KENORA A","6034076","2022-11-18 08:00","2022","11","18","08:00","-13.9","","-16.6","","81","","","","22","","17","","32.2","","96.39","","","","-22","","NA"
"-94.36","49.79","KENORA A","6034076","2022-11-18 09:00","2022","11","18","09:00","-12.8","","-17.2","","70","","","","22","","26","","32.2","","96.20","","","","-23","","Mostly Cloudy"
"-94.36","49.79","KENORA A","6034076","2022-11-18 10:00","2022","11","18","10:00","-13.0","","-16.4","","76","","","","23","","23","","32.2","","96.08","","","","-22","","Blowing Snow"
"-94.36","49.79","KENORA A","6034076","2022-11-18 11:00","2022","11","18","11:00","-12.8","","-16.6","","74","","","","21","","24","","24.1","","95.94","","","","-22","","Snow,Blowing Snow"
"-94.36","49.79","KENORA A","6034076","2022-11-18 12:00","2022","11","18","12:00","-12.7","","-15.7","","79","","","","23","","26","","1.6","","95.82","","","","-22","","Snow,Blowing Snow"
"-94.36","49.79","KENORA A","6034076","2022-11-18 13:00","2022","11","18","13:00","-12.6","","-15.0","","83","","","","22","","18","","1.2","","95.66","","","","-21","","Snow"
"-94.36","49.79","KENORA A","6034076","2022-11-18 14:00","2022","11","18","14:00","-12.6","","-15.3","","80","","","","22","","21","","4.0","","95.57","","","","-21","","Snow,Blowing Snow"
"-94.36","49.79","KENORA A","6034076","2022-11-18 15:00","2022","11","18","15:00","-12.4","","-15.0","","81","","","","22","","26","","1.6","","95.50","","","","-22","","Snow,Blowing Snow"
"-94.36","49.79","KENORA A","6034076","2022-11-18 16:00","2022","11","18","16:00","-12.0","","-14.1","","84","","","","22","","19","","1.2","","95.47","","","","-20","","Snow,Blowing Snow"
"-94.36","49.79","KENORA A","6034076","2022-11-18 17:00","2022","11","18","17:00","-11.6","","-13.4","","87","","","","22","","13","","1.2","","95.43","","","","-18","","Snow,Blowing Snow"
"-94.36","49.79","KENORA A","6034076","2022-11-18 18:00","2022","11","18","18:00","-11.0","","-12.6","","88","","","","24","","13","","4.8","","95.43","","","","-17","","Snow,Blowing Snow"
"-94.36","49.79","KENORA A","6034076","2022-11-18 19:00","2022","11","18","19:00","-10.1","","-12.0","","86","","","","27","","11","","8.1","","95.43","","","","-16","","Snow"
"-94.36","49.79","KENORA A","6034076","2022-11-18 20:00","2022","11","18","20:00","-10.0","","-11.7","","87","","","","27","","9","","4.8","","95.43","","","","-15","","Snow"
"-94.36","49.79","KENORA A","6034076","2022-11-18 21:00","2022","11","18","21:00","-9.7","","-11.7","","85","","","","34","","23","","3.2","","95.49","","","","-18","","Snow"
"-94.36","49.79","KENORA A","6034076","2022-11-18 22:00","2022","11","18","22:00","-10.3","","-12.2","","86","","","","34","","17","","1.6","","95.58","","","","-18","","Snow Showers"
"-94.36","49.79","KENORA A","6034076","2022-11-18 23:00","2022","11","18","23:00","-11.5","","-14.7","","77","","","","34","","25","","19.3","","95.71","","","","-21","","Snow Showers,Blowing Snow"
"-94.36","49.79","KENORA A","6034076","2022-11-19 00:00","2022","11","19","00:00","-12.8","","-16.1","","76","","","","34","","22","","24.1","","95.83","","","","-22","","Snow,Blowing Snow"
"-94.36","49.79","KENORA A","6034076","2022-11-19 01:00","2022","11","19","01:00","-13.4","","-17.3","","73","","","","34","","17","","32.2","","95.95","","","","-21","","Snow"
"-94.36","49.79","KENORA A","6034076","2022-11-19 02:00","2022","11","19","02:00","-13.1","","-16.3","","77","","","","33","","13","","19.3","","95.99","","","","-20","","Snow"
"-94.36","49.79","KENORA A","6034076","2022-11-19 03:00","2022","11","19","03:00","-12.8","","-16.3","","76","","","","34","","23","","24.1","","96.09","","","","-22","","Snow"
"-94.36","49.79","KENORA A","6034076","2022-11-19 04:00","2022","11","19","04:00","-13.0","","-15.8","","79","","","","34","","22","","4.8","","96.15","","","","-22","","Snow"
"-94.36","49.79","KENORA A","6034076","2022-11-19 05:00","2022","11","19","05:00","-13.8","","-16.5","","80","","","","33","","29","","4.8","","96.25","","","","-24","","Snow,Blowing Snow"
"-94.36","49.79","KENORA A","6034076","2022-11-19 06:00","2022","11","19","06:00","-14.8","","-18.3","","75","","","","34","","23","","24.1","","96.36","","","","-25","","Snow,Blowing Snow"
"-94.36","49.79","KENORA A","6034076","2022-11-19 07:00","2022","11","19","07:00","-15.6","","-19.2","","74","","","","35","","25","","24.1","","96.45","","","","-26","","Snow,Blowing Snow"
"-94.36","49.79","KENORA A","6034076","2022-11-19 08:00","2022","11","19","08:00","-15.7","","-18.4","","80","","","","33","","13","","32.2","","96.52","","","","-23","","Blowing Snow"
"-94.36","49.79","KENORA A","6034076","2022-11-19 09:00","2022","11","19","09:00","-15.2","","-17.8","","81","","","","30","","14","","16.1","","96.59","","","","-23","","Mostly Cloudy"
"-94.36","49.79","KENORA A","6034076","2022-11-19 10:00","2022","11","19","10:00","-16.0","","-18.6","","81","","","","31","","22","","9.7","","96.65","","","","-26","","Snow,Blowing Snow"
"-94.36","49.79","KENORA A","6034076","2022-11-19 11:00","2022","11","19","11:00","-16.1","","-19.9","","73","","","","30","","22","","16.1","","96.69","","","","-26","","Snow,Blowing Snow"
"-94.36","49.79","KENORA A","6034076","2022-11-19 12:00","2022","11","19","12:00","-15.6","","-19.2","","74","","","","32","","16","","11.3","","96.71","","","","-24","","Snow,Blowing Snow"
"-94.36","49.79","KENORA A","6034076","2022-11-19 13:00","2022","11","19","13:00","-15.0","","-19.2","","71","","","","32","","16","","19.3","","96.73","","","","-23","","Snow,Blowing Snow"
"-94.36","49.79","KENORA A","6034076","2022-11-19 14:00","2022","11","19","14:00","-14.1","","-19.4","","65","","","","32","","18","","32.2","","96.74","","","","-23","","Blowing Snow"
"-94.36","49.79","KENORA A","6034076","2022-11-19 15:00","2022","11","19","15:00","-14.4","","-21.0","","58","","","","31","","17","","32.2","","96.78","","","","-23","","Blowing Snow"
"-94.36","49.79","KENORA A","6034076","2022-11-19 16:00","2022","11","19","16:00","-15.3","","-21.3","","60","","","","29","","13","","32.2","","96.83","","","","-23","","NA"
"-94.36","49.79","KENORA A","6034076","2022-11-19 17:00","2022","11","19","17:00","-16.3","","-20.5","","70","","","","29","","14","","32.2","","96.86","","","","-24","","NA"
"-94.36","49.79","KENORA A","6034076","2022-11-19 18:00","2022","11","19","18:00","-16.8","","-20.4","","74","","","","29","","8","","32.2","","96.87","","","","-22","","Mostly Cloudy"
"-94.36","49.79","KENORA A","6034076","2022-11-19 19:00","2022","11","19","19:00","-16.8","","-20.3","","74","","","","27","","5","","24.1","","96.83","","","","-21","","Snow"
"-94.36","49.79","KENORA A","6034076","2022-11-19 20:00","2022","11","19","20:00","-17.0","","-20.1","","77","","","","26","","6","","24.1","","96.80","","","","-22","","NA"
"-94.36","49.79","KENORA A","6034076","2022-11-19 21:00","2022","11","19","21:00","-17.5","","-20.3","","80","","","","26","","7","","24.1","","96.75","","","","-23","","Mainly Clear"
"-94.36","49.79","KENORA A","6034076","2022-11-19 22:00","2022","11","19","22:00","-17.6","","-20.2","","80","","","","23","","6","","24.1","","96.68","","","","-22","","NA"
"-94.36","49.79","KENORA A","6034076","2022-11-19 23:00","2022","11","19","23:00","-16.4","","-18.9","","81","","","","21","","8","","24.1","","96.64","","","","-22","","NA"
"-94.36","49.79","KENORA A","6034076","2022-11-20 00:00","2022","11","20","00:00","-14.8","","-17.0","","84","","","","22","","11","","24.1","","96.60","","","","-21","","Mostly Cloudy"
"-94.36","49.79","KENORA A","6034076","2022-11-20 01:00","2022","11","20","01:00","-13.4","","-16.1","","81","","","","20","","12","","24.1","","96.55","","","","-20","","Snow"
"-94.36","49.79","KENORA A","6034076","2022-11-20 02:00","2022","11","20","02:00","-11.8","","-13.8","","85","","","","21","","14","","19.3","","96.48","","","","-19","","Snow"
"-94.36","49.79","KENORA A","6034076","2022-11-20 03:00","2022","11","20","03:00","-11.1","","-12.5","","89","","","","18","","10","","19.3","","96.41","","","","-17","","Snow"
"-94.36","49.79","KENORA A","6034076","2022-11-20 04:00","2022","11","20","04:00","-11.6","","-12.8","","91","","","","19","","12","","19.3","","96.35","","","","-18","","Snow"
"-94.36","49.79","KENORA A","6034076","2022-11-20 05:00","2022","11","20","05:00","-10.6","","-11.7","","91","","","","19","","15","","19.3","","96.31","","","","-17","","Snow"
"-94.36","49.79","KENORA A","6034076","2022-11-20 06:00","2022","11","20","06:00","-10.4","","-11.6","","91","","","","19","","16","","12.9","","96.29","","","","-17","","Snow"
"-94.36","49.79","KENORA A","6034076","2022-11-20 07:00","2022","11","20","07:00","-10.0","","-11.1","","91","","","","20","","17","","16.1","","96.28","","","","-17","","Snow"
"-94.36","49.79","KENORA A","6034076","2022-11-20 08:00","2022","11","20","08:00","-9.4","","-10.6","","91","","","","19","","18","","19.3","","96.24","","","","-17","","Snow"
"-94.36","49.79","KENORA A","6034076","2022-11-20 09:00","2022","11","20","09:00","-9.3","","-10.4","","91","","","","20","","14","","24.1","","96.23","","","","-16","","Snow"
"-94.36","49.79","KENORA A","6034076","2022-11-20 10:00","2022","11","20","10:00","-8.2","","-9.3","","92","","","","20","","15","","19.3","","96.20","","","","-15","","Snow"
"-94.36","49.79","KENORA A","6034076","2022-11-20 11:00","2022","11","20","11:00","-6.8","","-7.9","","92","","","","20","","17","","32.2","","96.13","","","","-13","","NA"
"-94.36","49.79","KENORA A","6034076","2022-11-20 12:00","2022","11","20","12:00","-6.1","","-7.9","","87","","","","21","","21","","32.2","","96.04","","","","-13","","Mostly Cloudy"
"-94.36","49.79","KENORA A","6034076","2022-11-20 13:00","2022","11","20","13:00","-5.0","","-8.3","","78","","","","21","","23","","32.2","","95.99","","","","-12","","Blowing Snow"
"-94.36","49.79","KENORA A","6034076","2022-11-20 14:00","2022","11","20","14:00","-4.4","","-8.3","","74","","","","20","","18","","32.2","","95.91","","","","-10","","NA"
"-94.36","49.79","KENORA A","6034076","2022-11-20 15:00","2022","11","20","15:00","-4.8","","-8.8","","73","","","","20","","19","","32.2","","95.83","","","","-11","","Mostly Cloudy"
"-94.36","49.79","KENORA A","6034076","2022-11-20 16:00","2022","11","20","16:00","-4.5","","-8.6","","74","","","","21","","22","","32.2","","95.78","","","","-11","","NA"
"-94.36","49.79","KENORA A","6034076","2022-11-20 17:00","2022","11","20","17:00","-4.5","","-9.0","","71","","","","22","","18","","32.2","","95.81","","","","-11","","NA"
"-94.36","49.79","KENORA A","6034076","2022-11-20 18:00","2022","11","20","18:00","-4.7","","-9.2","","71","","","","22","","22","","32.2","","95.71","","","","-12","","Mostly Cloudy"
"-94.36","49.79","KENORA A","6034076","2022-11-20 19:00","2022","11","20","19:00","-4.9","","-9.2","","72","","","","24","","14","","24.1","","95.73","","","","-10","","NA"
"-94.36","49.79","KENORA A","6034076","2022-11-20 20:00","2022","11","20","20:00","-5.5","","-9.3","","75","","","","26","","12","","24.1","","95.68","","","","-10","","NA"
"-94.36","49.79","KENORA A","6034076","2022-11-20 21:00","2022","11","20","21:00","-6.4","","-10.0","","76","","","","26","","18","","24.1","","95.69","","","","-13","","Mostly Cloudy"
"-94.36","49.79","KENORA A","6034076","2022-11-20 22:00","2022","11","20","22:00","-7.3","","-11.2","","74","","","","27","","15","","24.1","","95.68","","","","-13","","NA"
"-94.36","49.79","KENORA A","6034076","2022-11-20 23:00","2022","11","20","23:00","-7.8","","-11.6","","74","","","","29","","9","","24.1","","95.75","","","","-12","","NA"
"-94.36","49.79","KENORA A","6034076","2022-11-21 00:00","2022","11","21","00:00","-7.5","","-11.5","","73","","","","29","","8","","24.1","","95.77","","","","-12","","Mainly Clear"
"-94.36","49.79","KENORA A","6034076","2022-11-21 01:00","2022","11","21","01:00","-7.6","","-11.3","","75","","","","29","","11","","24.1","","95.84","","","","-13","","NA"
"-94.36","49.79","KENORA A","6034076","2022-11-21 02:00","2022","11","21","02:00","-7.5","","-10.9","","77","","","","30","","13","","24.1","","95.93","","","","-13","","NA"
"-94.36","49.79","KENORA A","6034076","2022-11-21 03:00","2022","11","21","03:00","-7.2","","-10.0","","81","","","","32","","16","","24.1","","96.02","","","","-14","","Cloudy"
"-94.36","49.79","KENORA A","6034076","2022-11-21 04:00","2022","11","21","04:00","-6.3","","-8.5","","85","","","","36","","19","","24.1","","96.19","","","","-13","","Snow"
"-94.36","49.79","KENORA A","6034076","2022-11-21 05:00","2022","11","21","05:00","-5.9","","-7.9","","86","","","","35","","17","","24.1","","96.32","","","","-12","","NA"
"-94.36","49.79","KENORA A","6034076","2022-11-21 06:00","2022","11","21","06:00","-5.6","","-8.1","","83","","","","33","","21","","24.1","","96.50","","","","-12","","Cloudy"
"-94.36","49.79","KENORA A","6034076","2022-11-21 07:00","2022","11","21","07:00","-6.0","","-9.2","","78","","","","35","","19","","24.1","","96.63","","","","-13","","Snow"
"-94.36","49.79","KENORA A","6034076","2022-11-21 08:00","2022","11","21","08:00","-6.1","","-9.5","","77","","","","33","","21","","24.1","","96.79","","","","-13","","Snow"
"-94.36","49.79","KENORA A","6034076","2022-11-21 09:00","2022","11","21","09:00","-6.1","","-9.8","","75","","","","35","","15","","32.2","","96.94","","","","-12","","Snow,Blowing Snow"
"-94.36","49.79","KENORA A","6034076","2022-11-21 10:00","2022","11","21","10:00","-5.8","","-9.8","","74","","","","36","","15","","32.2","","97.04","","","","-12","","Snow,Blowing Snow"
"-94.36","49.79","KENORA A","6034076","2022-11-21 11:00","2022","11","21","11:00","-5.2","","-10.6","","66","","","","32","","12","","32.2","","97.13","","","","-10","","Snow,Blowing Snow"
"-94.36","49.79","KENORA A","6034076","2022-11-21 12:00","2022","11","21","12:00","-4.8","","-10.2","","66","","","","33","","13","","32.2","","97.15","","","","-10","","Snow"
"-94.36","49.79","KENORA A","6034076","2022-11-21 13:00","2022","11","21","13:00","-4.5","","-10.1","","65","","","","29","","14","","32.2","","97.18","","","","-10","","Snow"
"-94.36","49.79","KENORA A","6034076","2022-11-21 14:00","2022","11","21","14:00","-4.7","","-10.3","","65","","","","31","","11","","32.2","","97.22","","","","-9","","NA"
"-94.36","49.79","KENORA A","6034076","2022-11-21 15:00","2022","11","21","15:00","-4.8","","-10.6","","64","","","","27","","13","","32.2","","97.22","","","","-10","","Mostly Cloudy"
"-94.36","49.79","KENORA A","6034076","2022-11-21 16:00","2022","11","21","16:00","-5.2","","-10.4","","67","","","","27","","12","","32.2","","97.21","","","","-10","","NA"
"-94.36","49.79","KENORA A","6034076","2022-11-21 17:00","2022","11","21","17:00","-6.4","","-10.5","","73","","","","26","","5","","32.2","","97.20","","","","-9","","NA"
"-94.36","49.79","KENORA A","6034076","2022-11-21 18:00","2022","11","21","18:00","-7.8","","-10.8","","79","","","","25","","8","","32.2","","97.17","","","","-12","","Mostly Cloudy"
"-94.36","49.79","KENORA A","6034076","2022-11-21 19:00","2022","11","21","19:00","-8.1","","-10.6","","82","","","","25","","8","","32.2","","97.13","","","","-12","","NA"
"-94.36","49.79","KENORA A","6034076","2022-11-21 20:00","2022","11","21","20:00","-7.6","","-9.9","","84","","","","23","","9","","24.1","","97.05","","","","-12","","NA"
"-94.36","49.79","KENORA A","6034076","2022-11-21 21:00","2022","11","21","21:00","-7.2","","-9.8","","82","","","","23","","17","","24.1","","97.00","","","","-14","","Mainly Clear"
"-94.36","49.79","KENORA A","6034076","2022-11-21 22:00","2022","11","21","22:00","-6.8","","-9.5","","82","","","","23","","18","","24.1","","96.94","","","","-13","","NA"
"-94.36","49.79","KENORA A","6034076","2022-11-21 23:00","2022","11","21","23:00","-6.5","","-9.0","","83","","","","22","","17","","24.1","","96.86","","","","-13","","NA"
"-94.36","49.79","KENORA A","6034076","2022-11-22 00:00","2022","11","22","00:00","-6.3","","-9.2","","80","","","","22","","25","","24.1","","96.80","","","","-14","","Mostly Cloudy"
"-94.36","49.79","KENORA A","6034076","2022-11-22 01:00","2022","11","22","01:00","-6.3","","-8.6","","84","","","","22","","27","","16.1","","96.72","","","","-14","","Snow"
"-94.36","49.79","KENORA A","6034076","2022-11-22 02:00","2022","11","22","02:00","-6.1","","-8.4","","84","","","","23","","27","","19.3","","96.68","","","","-14","","Snow"
"-94.36","49.79","KENORA A","6034076","2022-11-22 03:00","2022","11","22","03:00","-5.8","","-7.8","","86","","","","22","","21","","19.3","","96.62","","","","-13","","Snow"
"-94.36","49.79","KENORA A","6034076","2022-11-22 04:00","2022","11","22","04:00","-5.7","","-7.5","","87","","","","22","","21","","16.1","","96.54","","","","-13","","Snow"
"-94.36","49.79","KENORA A","6034076","2022-11-22 05:00","2022","11","22","05:00","-5.6","","-7.2","","88","","","","21","","22","","8.1","","96.46","","","","-13","","Snow,Blowing Snow"
"-94.36","49.79","KENORA A","6034076","2022-11-22 06:00","2022","11","22","06:00","-5.5","","-7.1","","88","","","","22","","21","","8.1","","96.41","","","","-12","","Snow,Blowing Snow"
"-94.36","49.79","KENORA A","6034076","2022-11-22 07:00","2022","11","22","07:00","-5.3","","-7.0","","88","","","","22","","16","","16.1","","96.41","","","","-11","","Snow,Blowing Snow"
"-94.36","49.79","KENORA A","6034076","2022-11-22 08:00","2022","11","22","08:00","-5.0","","-6.4","","90","","","","22","","15","","16.1","","96.38","","","","-11","","Snow"
"-94.36","49.79","KENORA A","6034076","2022-11-22 09:00","2022","11","22","09:00","-4.7","","-6.0","","90","","","","22","","20","","16.1","","96.38","","","","-11","","Snow"
"-94.36","49.79","KENORA A","6034076","2022-11-22 10:00","2022","11","22","10:00","-4.2","","-5.8","","89","","","","22","","19","","19.3","","96.40","","","","-10","","Snow"
"-94.36","49.79","KENORA A","6034076","2022-11-22 11:00","2022","11","22","11:00","-3.9","","-5.8","","86","","","","22","","17","","24.1","","96.38","","","","-10","","Snow"
"-94.36","49.79","KENORA A","6034076","2022-11-22 12:00","2022","11","22","12:00","-3.3","","-5.6","","84","","","","22","","15","","24.1","","96.35","","","","-8","","Snow"
"-94.36","49.79","KENORA A","6034076","2022-11-22 13:00","2022","11","22","13:00","-3.1","","-5.4","","84","","","","23","","16","","24.1","","96.34","","","","-8","","Snow"
"-94.36","49.79","KENORA A","6034076","2022-11-22 14:00","2022","11","22","14:00","-3.3","","-5.6","","84","","","","21","","20","","32.2","","96.35","","","","-9","","Snow"
"-94.36","49.79","KENORA A","6034076","2022-11-22 15:00","2022","11","22","15:00","-2.6","","-5.2","","83","","","","22","","10","","24.1","","96.36","","","","-6","","Snow"
"-94.36","49.79","KENORA A","6034076","2022-11-22 16:00","2022","11","22","16:00","-2.6","","-5.1","","83","","","","20","","11","","24.1","","96.39","","","","-7","","Snow"
"-94.36","49.79","KENORA A","6034076","2022-11-22 17:00","2022","11","22","17:00","-3.1","","-5.2","","85","","","","19","","14","","24.1","","96.39","","","","-8","","Snow"
"-94.36","49.79","KENORA A","6034076","2022-11-22 18:00","2022","11","22","18:00","-4.0","","-5.5","","89","","","","18","","8","","32.2","","96.38","","","","-7","","Mainly Clear"
"-94.36","49.79","KENORA A","6034076","2022-11-22 19:00","2022","11","22","19:00","-4.2","","-5.5","","91","","","","19","","9","","32.2","","96.38","","","","-8","","NA"
"-94.36","49.79","KENORA A","6034076","2022-11-22 20:00","2022","11","22","20:00","-4.6","","-5.6","","93","","","","19","","10","","24.1","","96.37","","","","-9","","NA"
"-94.36","49.79","KENORA A","6034076","2022-11-22 21:00","2022","11","22","21:00","-5.3","","-6.4","","92","","","","19","","10","","24.1","","96.36","","","","-10","","Clear"
"-94.36","49.79","KENORA A","6034076","2022-11-22 22:00","2022","11","22","22:00","-5.1","","-6.4","","91","","","","20","","11","","24.1","","96.31","","","","-10","","NA"
"-94.36","49.79","KENORA A","6034076","2022-11-22 23:00","2022","11","22","23:00","-5.0","","-6.6","","89","","","","20","","14","","24.1","","96.33","","","","-10","","NA"
"-94.36","49.79","KENORA A","6034076","2022-11-23 00:00","2022","11","23","00:00","-6.7","","-7.5","","94","","","","17","","13","","24.1","","96.33","","","","-12","","Clear"
"-94.36","49.79","KENORA A","6034076","2022-11-23 01:00","2022","11","23","01:00","-7.3","","-8.0","","95","","","","17","","11","","24.1","","96.30","","","","-12","","NA"
"-94.36","49.79","KENORA A","6034076","2022-11-23 02:00","2022","11","23","02:00","-7.3","","-8.0","","94","","","","16","","11","","24.1","","96.27","","","","-12","","NA"
"-94.36","49.79","KENORA A","6034076","2022-11-23 03:00","2022","11","23","03:00","-7.4","","-8.3","","93","","","","16","","13","","24.1","","96.25","","","","-13","","Clear"
"-94.36","49.79","KENORA A","6034076","2022-11-23 04:00","2022","11","23","04:00","-7.3","","-8.2","","93","","","","16","","16","","24.1","","96.22","","","","-14","","NA"
"-94.36","49.79","KENORA A","6034076","2022-11-23 05:00","2022","11","23","05:00","-7.2","","-8.0","","94","","","","16","","16","","24.1","","96.22","","","","-14","","NA"
"-94.36","49.79","KENORA A","6034076","2022-11-23 06:00","2022","11","23","06:00","-7.4","","-8.3","","93","","","","16","","15","","24.1","","96.21","","","","-14","","Clear"
"-94.36","49.79","KENORA A","6034076","2022-11-23 07:00","2022","11","23","07:00","-7.2","","-8.1","","94","","","","17","","18","","16.1","","96.19","","","","-14","","NA"
"-94.36","49.79","KENORA A","6034076","2022-11-23 08:00","2022","11","23","08:00","-6.8","","-7.7","","94","","","","16","","18","","16.1","","96.17","","","","-13","","NA"
"-94.36","49.79","KENORA A","6034076","2022-11-23 09:00","2022","11","23","09:00","-5.5","","-6.4","","94","","","","16","","17","","16.1","","96.17","","","","-12","","Mostly Cloudy"
"-94.36","49.79","KENORA A","6034076","2022-11-23 10:00","2022","11","23","10:00","-4.0","","-4.9","","93","","","","17","","18","","16.1","","96.20","","","","-10","","NA"
"-94.36","49.79","KENORA A","6034076","2022-11-23 11:00","2022","11","23","11:00","-1.6","","-3.7","","86","","","","17","","17","","24.1","","96.17","","","","-7","","NA"
"-94.36","49.79","KENORA A","6034076","2022-11-23 12:00","2022","11","23","12:00","0.4","","-3.9","","73","","","","19","","14","","32.2","","96.13","","","","","","Mostly Cloudy"
"-94.36","49.79","KENORA A","6034076","2022-11-23 13:00","2022","11","23","13:00","1.5","","-3.5","","69","","","","19","","19","","32.2","","96.09","","","","","","NA"
"-94.36","49.79","KENORA A","6034076","2022-11-23 14:00","2022","11","23","14:00","3.0","","-3.0","","65","","","","18","","20","","32.2","","96.06","","","","","","NA"
"-94.36","49.79","KENORA A","6034076","2022-11-23 15:00","2022","11","23","15:00","3.5","","-2.8","","64","","","","19","","16","","32.2","","96.06","","","","","","Mainly Clear"
"-94.36","49.79","KENORA A","6034076","2022-11-23 16:00","2022","11","23","16:00","3.6","","-2.5","","64","","","","18","","17","","32.2","","96.07","","","","","","NA"
"-94.36","49.79","KENORA A","6034076","2022-11-23 17:00","2022","11","23","17:00","2.8","","-2.4","","68","","","","19","","17","","32.2","","96.11","","","","","","NA"
"-94.36","49.79","KENORA A","6034076","2022-11-23 18:00","2022","11","23","18:00","2.5","","-2.5","","69","","","","19","","18","","32.2","","96.13","","","","","","Mainly Clear"
"-94.36","49.79","KENORA A","6034076","2022-11-23 19:00","2022","11","23","19:00","1.9","","-2.6","","72","","","","20","","13","","32.2","","96.18","","","","","","NA"
"-94.36","49.79","KENORA A","6034076","2022-11-23 20:00","2022","11","23","20:00","1.9","","-2.6","","72","","","","20","","14","","32.2","","96.20","","","","","","NA"
"-94.36","49.79","KENORA A","6034076","2022-11-23 21:00","2022","11","23","21:00","1.6","","-2.7","","73","","","","21","","16","","32.2","","96.23","","","","","","Mainly Clear"
"-94.36","49.79","KENORA A","6034076","2022-11-23 22:00","2022","11","23","22:00","0.3","","-3.4","","76","","","","23","","13","","32.2","","96.28","","","","","","NA"
"-94.36","49.79","KENORA A","6034076","2022-11-23 23:00","2022","11","23","23:00","-1.2","","-4.2","","80","","","","23","","12","","32.2","","96.32","","","","-5","","NA"
"-94.36","49.79","KENORA A","6034076","2022-11-24 00:00","2022","11","24","00:00","-2.5","","-4.9","","83","","","","24","","10","","32.2","","96.33","","","","-6","","Clear"
"-94.36","49.79","KENORA A","6034076","2022-11-24 01:00","2022","11","24","01:00","-1.6","","-4.0","","84","","","","26","","12","","32.2","","96.40","","","","-6","","NA"
"-94.36","49.79","KENORA A","6034076","2022-11-24 02:00","2022","11","24","02:00","-1.4","","-4.0","","82","","","","31","","8","","32.2","","96.42","","","","-4","","NA"
"-94.36","49.79","KENORA A","6034076","2022-11-24 03:00","2022","11","24","03:00","-1.5","","-3.9","","84","","","","32","","6","","32.2","","96.43","","","","-4","","Cloudy"
"-94.36","49.79","KENORA A","6034076","2022-11-24 04:00","2022","11","24","04:00","-1.7","","-3.7","","86","","","","28","","9","","32.2","","96.49","","","","-5","","NA"
"-94.36","49.79","KENORA A","6034076","2022-11-24 05:00","2022","11","24","05:00","-1.6","","-3.6","","86","","","","30","","10","","32.2","","96.56","","","","-5","","NA"
"-94.36","49.79","KENORA A","6034076","2022-11-24 06:00","2022","11","24","06:00","-1.9","","-3.6","","88","","","","30","","13","","32.2","","96.59","","","","-6","","Mostly Cloudy"
"-94.36","49.79","KENORA A","6034076","2022-11-24 07:00","2022","11","24","07:00","-2.1","","-3.7","","89","","","","30","","13","","32.2","","96.64","","","","-7","","NA"
"-94.36","49.79","KENORA A","6034076","2022-11-24 08:00","2022","11","24","08:00","-2.4","","-3.6","","91","","","","30","","13","","24.1","","96.70","","","","-7","","NA"
"-94.36","49.79","KENORA A","6034076","2022-11-24 09:00","2022","11","24","09:00","-2.4","","-3.5","","92","","","","30","","11","","32.2","","96.75","","","","-6","","Cloudy"
"-94.36","49.79","KENORA A","6034076","2022-11-24 10:00","2022","11","24","10:00","-1.4","","-3.4","","86","","","","29","","16","","32.2","","96.77","","","","-6","","NA"
"-94.36","49.79","KENORA A","6034076","2022-11-24 11:00","2022","11","24","11:00","0.5","","-3.3","","76","","","","29","","15","","32.2","","96.80","","","","","","NA"
"-94.36","49.79","KENORA A","6034076","2022-11-24 12:00","2022","11","24","12:00","2.3","","-3.2","","67","","","","31","","11","","32.2","","96.79","","","","","","Clear"
"-94.36","49.79","KENORA A","6034076","2022-11-24 13:00","2022","11","24","13:00","3.7","","-3.5","","59","","","","31","","13","","32.2","","96.77","","","","","","NA"
"-94.36","49.79","KENORA A","6034076","2022-11-24 14:00","2022","11","24","14:00","5.3","","-3.8","","52","","","","27","","18","","32.2","","96.80","","","","","","NA"
"-94.36","49.79","KENORA A","6034076","2022-11-24 15:00","2022","11","24","15:00","4.1","","-4.0","","56","","","","29","","15","","32.2","","96.77","","","","","","Mainly Clear"
"-94.36","49.79","KENORA A","6034076","2022-11-24 16:00","2022","11","24","16:00","2.4","","-4.1","","62","","","","28","","11","","32.2","","96.77","","","","","","NA"
"-94.36","49.79","KENORA A","6034076","2022-11-24 17:00","2022","11","24","17:00","1.5","","-4.2","","66","","","","28","","12","","32.2","","96.80","","","","","","NA"
"-94.36","49.79","KENORA A","6034076","2022-11-24 18:00","2022","11","24","18:00","0.7","","-4.2","","70","","","","28","","12","","32.2","","96.81","","","","","","Mostly Cloudy"
"-94.36","49.79","KENORA A","6034076","2022-11-24 19:00","2022","11","24","19:00","-0.2","","-4.3","","74","","","","28","","9","","32.2","","96.78","","","","-3","","NA"
"-94.36","49.79","KENORA A","6034076","2022-11-24 20:00","2022","11","24","20:00","-1.1","","-4.6","","77","","","","28","","12","","32.2","","96.75","","","","-5","","NA"
"-94.36","49.79","KENORA A","6034076","2022-11-24 21:00","2022","11","24","21:00","-2.3","","-5.0","","82","","","","27","","12","","32.2","","96.79","","","","-7","","Mostly Cloudy"
"-94.36","49.79","KENORA A","6034076","2022-11-24 22:00","2022","11","24","22:00","-3.2","","-5.5","","84","","","","26","","12","","32.2","","96.78","","","","-8","","NA"
"-94.36","49.79","KENORA A","6034076","2022-11-24 23:00","2022","11","24","23:00","-4.2","","-5.9","","88","","","","26","","11","","32.2","","96.77","","","","-9","","NA"
"-94.36","49.79","KENORA A","6034076","2022-11-25 00:00","2022","11","25","00:00","-4.6","","-5.6","","93","","","","24","","10","","32.2","","96.81","","","","-9","","Mainly Clear"
"-94.36","49.79","KENORA A","6034076","2022-11-25 01:00","2022","11","25","01:00","-5.3","","-6.1","","95","","","","24","","11","","32.2","","96.81","","","","-10","","NA"
"-94.36","49.79","KENORA A","6034076","2022-11-25 02:00","2022","11","25","02:00","-4.5","","-5.3","","95","","","","23","","13","","32.2","","96.73","","","","-10","","NA"
"-94.36","49.79","KENORA A","6034076","2022-11-25 03:00","2022","11","25","03:00","-4.2","","-4.8","","95","","","","22","","11","","32.2","","96.68","","","","-9","","Mainly Clear"
"-94.36","49.79","KENORA A","6034076","2022-11-25 04:00","2022","11","25","04:00","-4.0","","-4.9","","94","","","","22","","13","","40.2","","96.66","","","","-9","","NA"
"-94.36","49.79","KENORA A","6034076","2022-11-25 05:00","2022","11","25","05:00","-4.1","","-4.7","","96","","","","22","","15","","32.2","","96.61","","","","-9","","NA"
"-94.36","49.79","KENORA A","6034076","2022-11-25 06:00","2022","11","25","06:00","-3.9","","-4.4","","96","","","","19","","14","","32.2","","96.63","","","","-9","","Mainly Clear"
"-94.36","49.79","KENORA A","6034076","2022-11-25 07:00","2022","11","25","07:00","-3.7","","-4.3","","96","","","","19","","16","","32.2","","96.61","","","","-9","","NA"
"-94.36","49.79","KENORA A","6034076","2022-11-25 08:00","2022","11","25","08:00","-3.8","","-4.2","","97","","","","19","","16","","16.1","","96.53","","","","-9","","NA"
"-94.36","49.79","KENORA A","6034076","2022-11-25 09:00","2022","11","25","09:00","-3.2","","-3.8","","95","","","","20","","18","","16.1","","96.47","","","","-9","","Mainly Clear"
"-94.36","49.79","KENORA A","6034076","2022-11-25 10:00","2022","11","25","10:00","-2.0","","-3.5","","90","","","","21","","19","","32.2","","96.35","","","","-8","","NA"
"-94.36","49.79","KENORA A","6034076","2022-11-25 11:00","2022","11","25","11:00","-0.4","","-3.6","","79","","","","19","","20","","32.2","","96.25","","","","-6","","NA"
"-94.36","49.79","KENORA A","6034076","2022-11-25 12:00","2022","11","25","12:00","0.9","","-3.6","","72","","","","20","","26","","32.2","","96.10","","","","","","Mainly Clear"
"-94.36","49.79","KENORA A","6034076","2022-11-25 13:00","2022","11","25","13:00","1.3","","-3.5","","71","","","","20","","27","","32.2","","95.96","","","","","","NA"
"-94.36","49.79","KENORA A","6034076","2022-11-25 14:00","2022","11","25","14:00","2.5","","-2.8","","68","","","","19","","28","","32.2","","95.83","","","","","","NA"
"-94.36","49.79","KENORA A","6034076","2022-11-25 15:00","2022","11","25","15:00","3.9","","-2.3","","64","","","","21","","26","","32.2","","95.69","","","","","","Mostly Cloudy"
"-94.36","49.79","KENORA A","6034076","2022-11-25 16:00","2022","11","25","16:00","3.6","","-2.2","","66","","","","20","","30","","32.2","","95.58","","","","","","NA"
"-94.36","49.79","KENORA A","6034076","2022-11-25 17:00","2022","11","25","17:00","2.3","","-2.1","","73","","","","21","","24","","32.2","","95.57","","","","","","NA"
"-94.36","49.79","KENORA A","6034076","2022-11-25 18:00","2022","11","25","18:00","1.8","","-2.2","","75","","","","21","","27","","32.2","","95.49","","","","","","Mostly Cloudy"
"-94.36","49.79","KENORA A","6034076","2022-11-25 19:00","2022","11","25","19:00","1.4","","-2.1","","77","","","","22","","29","","32.2","","95.43","","","","","","NA"
"-94.36","49.79","KENORA A","6034076","2022-11-25 20:00","2022","11","25","20:00","0.9","","-2.2","","80","","","","21","","19","","32.2","","95.43","","","","","","NA"
"-94.36","49.79","KENORA A","6034076","2022-11-25 21:00","2022","11","25","21:00","0.5","","-2.0","","83","","","","20","","18","","32.2","","95.36","","","","","","Mainly Clear"
"-94.36","49.79","KENORA A","6034076","2022-11-25 22:00","2022","11","25","22:00","0.5","","-1.7","","86","","","","21","","20","","32.2","","95.34","","","","","","NA"
"-94.36","49.79","KENORA A","6034076","2022-11-25 23:00","2022","11","25","23:00","0.8","","-1.4","","85","","","","21","","21","","32.2","","95.29","","","","","","NA"
"-94.36","49.79","KENORA A","6034076","2022-11-26 00:00","2022","11","26","00:00","0.8","","-1.4","","85","","","","20","","16","","32.2","","95.23","","","","","","Mainly Clear"
"-94.36","49.79","KENORA A","6034076","2022-11-26 01:00","2022","11","26","01:00","0.8","","-1.3","","86","","","","21","","14","","32.2","","95.21","","","","","","NA"
"-94.36","49.79","KENORA A","6034076","2022-11-26 02:00","2022","11","26","02:00","0.7","","-1.5","","85","","","","21","","14","","32.2","","95.17","","","","","","NA"
"-94.36","49.79","KENORA A","6034076","2022-11-26 03:00","2022","11","26","03:00","0.5","","-1.5","","86","","","","22","","14","","32.2","","95.18","","","","","","Mainly Clear"
"-94.36","49.79","KENORA A","6034076","2022-11-26 04:00","2022","11","26","04:00","0.5","","-1.6","","86","","","","23","","13","","32.2","","95.17","","","","","","NA"
"-94.36","49.79","KENORA A","6034076","2022-11-26 05:00","2022","11","26","05:00","-0.3","","-2.0","","88","","","","24","","10","","32.2","","95.16","","","","-4","","NA"
"-94.36","49.79","KENORA A","6034076","2022-11-26 06:00","2022","11","26","06:00","-0.1","","-1.6","","89","","","","25","","11","","32.2","","95.19","","","","-4","","Mainly Clear"
"-94.36","49.79","KENORA A","6034076","2022-11-26 07:00","2022","11","26","07:00","0.4","","-1.6","","87","","","","26","","11","","32.2","","95.24","","","","","","NA"
"-94.36","49.79","KENORA A","6034076","2022-11-26 08:00","2022","11","26","08:00","0.9","","-1.3","","85","","","","27","","12","","32.2","","95.27","","","","","","NA"
"-94.36","49.79","KENORA A","6034076","2022-11-26 09:00","2022","11","26","09:00","1.3","","-1.2","","84","","","","30","","16","","32.2","","95.35","","","","","","Cloudy"
"-94.36","49.79","KENORA A","6034076","2022-11-26 10:00","2022","11","26","10:00","1.6","","-1.1","","82","","","","31","","16","","32.2","","95.43","","","","","","NA"
"-94.36","49.79","KENORA A","6034076","2022-11-26 11:00","2022","11","26","11:00","1.8","","-1.1","","81","","","","32","","14","","32.2","","95.49","","","","","","NA"
"-94.36","49.79","KENORA A","6034076","2022-11-26 12:00","2022","11","26","12:00","2.5","","-1.3","","76","","","","32","","13","","32.2","","95.51","","","","","","Mostly Cloudy"
"-94.36","49.79","KENORA A","6034076","2022-11-26 13:00","2022","11","26","13:00","2.6","","-1.8","","73","","","","32","","17","","32.2","","95.60","","","","","","NA"
"-94.36","49.79","KENORA A","6034076","2022-11-26 14:00","2022","11","26","14:00","2.6","","-1.6","","74","","","","31","","17","","32.2","","95.67","","","","","","NA"
"-94.36","49.79","KENORA A","6034076","2022-11-26 15:00","2022","11","26","15:00","2.2","","-1.6","","76","","","","29","","12","","32.2","","95.71","","","","","","Mostly Cloudy"
"-94.36","49.79","KENORA A","6034076","2022-11-26 16:00","2022","11","26","16:00","1.6","","-1.8","","78","","","","30","","9","","32.2","","95.78","","","","","","NA"
"-94.36","49.79","KENORA A","6034076","2022-11-26 17:00","2022","11","26","17:00","1.0","","-2.6","","77","","","","29","","10","","32.2","","95.87","","","","","","NA"
"-94.36","49.79","KENORA A","6034076","2022-11-26 18:00","2022","11","26","18:00","0.2","","-3.6","","76","","","","28","","9","","32.2","","95.95","","","","","","Mainly Clear"
"-94.36","49.79","KENORA A","6034076","2022-11-26 19:00","2022","11","26","19:00","-0.1","","-2.8","","82","","","","29","","12","","32.2","","95.97","","","","-4","","NA"
"-94.36","49.79","KENORA A","6034076","2022-11-26 20:00","2022","11","26","20:00","-0.9","","-2.9","","86","","","","29","","9","","32.2","","95.99","","","","-4","","NA"
"-94.36","49.79","KENORA A","6034076","2022-11-26 21:00","2022","11","26","21:00","-1.3","","-3.2","","86","","","","29","","9","","32.2","","95.99","","","","-5","","Clear"
"-94.36","49.79","KENORA A","6034076","2022-11-26 22:00","2022","11","26","22:00","-1.6","","-3.8","","85","","","","30","","12","","32.2","","96.04","","","","-6","","NA"
"-94.36","49.79","KENORA A","6034076","2022-11-26 23:00","2022","11","26","23:00","-1.2","","-4.2","","80","","","","30","","12","","32.2","","96.06","","","","-5","","NA"
"-94.36","49.79","KENORA A","6034076","2022-11-27 00:00","2022","11","27","00:00","-1.4","","-4.3","","81","","","","29","","8","","32.2","","96.08","","","","-4","","Mostly Cloudy"
"-94.36","49.79","KENORA A","6034076","2022-11-27 01:00","2022","11","27","01:00","-1.3","","-4.5","","79","","","","29","","11","","32.2","","96.09","","","","-5","","NA"
"-94.36","49.79","KENORA A","6034076","2022-11-27 02:00","2022","11","27","02:00","-1.4","","-4.9","","77","","","","29","","11","","32.2","","96.11","","","","-5","","NA"
"-94.36","49.79","KENORA A","6034076","2022-11-27 03:00","2022","11","27","03:00","-1.5","","-5.3","","75","","","","29","","10","","32.2","","96.12","","","","-5","","Mostly Cloudy"
"-94.36","49.79","KENORA A","6034076","2022-11-27 04:00","2022","11","27","04:00","-1.7","","-6.0","","73","","","","28","","7","","32.2","","96.13","","","","-4","","NA"
"-94.36","49.79","KENORA A","6034076","2022-11-27 05:00","2022","11","27","05:00","-2.0","","-6.3","","72","","","","30","","10","","32.2","","96.13","","","","-6","","NA"
"-94.36","49.79","KENORA A","6034076","2022-11-27 06:00","2022","11","27","06:00","-2.2","","-6.2","","75","","","","31","","13","","32.2","","96.16","","","","-7","","Mostly Cloudy"
"-94.36","49.79","KENORA A","6034076","2022-11-27 07:00","2022","11","27","07:00","-2.6","","-4.6","","86","","","","35","","12","","12.9","","96.13","","","","-7","","Snow"
"-94.36","49.79","KENORA A","6034076","2022-11-27 08:00","2022","11","27","08:00","-2.8","","-4.2","","90","","","","35","","5","","32.2","","96.15","","","","-5","","NA"
"-94.36","49.79","KENORA A","6034076","2022-11-27 09:00","2022","11","27","09:00","-2.6","","-4.2","","89","","","","35","","7","","32.2","","96.16","","","","-5","","Mostly Cloudy"
"-94.36","49.79","KENORA A","6034076","2022-11-27 10:00","2022","11","27","10:00","-2.3","","-4.6","","84","","","","3","","6","","32.2","","96.18","","","","-5","","NA"
"-94.36","49.79","KENORA A","6034076","2022-11-27 11:00","2022","11","27","11:00","-2.0","","-5.2","","79","","","","4","","9","","32.2","","96.15","","","","-5","","NA"
"-94.36","49.79","KENORA A","6034076","2022-11-27 12:00","2022","11","27","12:00","-1.7","","-5.6","","75","","","","15","","3","","32.2","","96.14","","","","-3","","Mostly Cloudy"
"-94.36","49.79","KENORA A","6034076","2022-11-27 13:00","2022","11","27","13:00","-1.5","","-7.0","","66","","","","10","","7","","32.2","","96.07","","","","-4","","NA"
"-94.36","49.79","KENORA A","6034076","2022-11-27 14:00","2022","11","27","14:00","-1.3","","-7.8","","61","","","","22","","7","","32.2","","96.09","","","","-4","","NA"
"-94.36","49.79","KENORA A","6034076","2022-11-27 15:00","2022","11","27","15:00","-1.2","","-7.5","","62","","","","17","","7","","32.2","","96.03","","","","-4","","Cloudy"
"-94.36","49.79","KENORA A","6034076","2022-11-27 16:00","2022","11","27","16:00","-1.4","","-6.2","","70","","","","17","","6","","32.2","","96.03","","","","-4","","NA"
"-94.36","49.79","KENORA A","6034076","2022-11-27 17:00","2022","11","27","17:00","-1.9","","-6.5","","71","","","","14","","7","","32.2","","96.00","","","","-5","","NA"
"-94.36","49.79","KENORA A","6034076","2022-11-27 18:00","2022","11","27","18:00","-2.1","","-6.6","","71","","","","15","","7","","32.2","","95.97","","","","-5","","Cloudy"
"-94.36","49.79","KENORA A","6034076","2022-11-27 19:00","2022","11","27","19:00","-2.2","","-6.3","","74","","","","16","","9","","32.2","","95.93","","","","-6","","NA"
"-94.36","49.79","KENORA A","6034076","2022-11-27 20:00","2022","11","27","20:00","-2.5","","-6.1","","76","","","","15","","7","","32.2","","95.91","","","","-5","","NA"
"-94.36","49.79","KENORA A","6034076","2022-11-27 21:00","2022","11","27","21:00","-2.4","","-6.2","","75","","","","15","","12","","32.2","","95.87","","","","-7","","Cloudy"
"-94.36","49.79","KENORA A","6034076","2022-11-27 22:00","2022","11","27","22:00","-2.2","","-6.2","","74","","","","15","","14","","32.2","","95.85","","","","-7","","NA"
"-94.36","49.79","KENORA A","6034076","2022-11-27 23:00","2022","11","27","23:00","-2.2","","-6.3","","73","","","","14","","13","","32.2","","95.83","","","","-7","","NA"
"-94.36","49.79","KENORA A","6034076","2022-11-28 00:00","2022","11","28","00:00","-2.1","","-6.3","","73","","","","15","","15","","32.2","","95.80","","","","-7","","Cloudy"
"-94.36","49.79","KENORA A","6034076","2022-11-28 01:00","2022","11","28","01:00","-2.1","","-6.5","","72","","","","15","","14","","32.2","","95.77","","","","-7","","NA"
"-94.36","49.79","KENORA A","6034076","2022-11-28 02:00","2022","11","28","02:00","-2.4","","-5.9","","77","","","","16","","16","","32.2","","95.74","","","","-8","","Snow"
"-94.36","49.79","KENORA A","6034076","2022-11-28 03:00","2022","11","28","03:00","-2.7","","-5.5","","81","","","","16","","20","","24.1","","95.69","","","","-9","","Snow"
"-94.36","49.79","KENORA A","6034076","2022-11-28 04:00","2022","11","28","04:00","-3.2","","-4.5","","91","","","","15","","17","","16.1","","95.66","","","","-9","","Snow,Blowing Snow"
"-94.36","49.79","KENORA A","6034076","2022-11-28 05:00","2022","11","28","05:00","-3.3","","-4.4","","93","","","","15","","22","","2.0","","95.59","","","","-10","","Snow,Blowing Snow"
"-94.36","49.79","KENORA A","6034076","2022-11-28 06:00","2022","11","28","06:00","-3.3","","-4.2","","94","","","","15","","21","","1.6","","95.52","","","","-10","","Snow,Blowing Snow"
"-94.36","49.79","KENORA A","6034076","2022-11-28 07:00","2022","11","28","07:00","-3.2","","-4.1","","94","","","","15","","21","","1.2","","95.46","","","","-9","","Snow,Blowing Snow"
"-94.36","49.79","KENORA A","6034076","2022-11-28 08:00","2022","11","28","08:00","-3.2","","-3.9","","95","","","","15","","18","","1.2","","95.42","","","","-9","","Snow,Blowing Snow"
"-94.36","49.79","KENORA A","6034076","2022-11-28 09:00","2022","11","28","09:00","-3.0","","-3.8","","94","","","","15","","18","","1.2","","95.38","","","","-9","","Snow,Blowing Snow"
"-94.36","49.79","KENORA A","6034076","2022-11-28 10:00","2022","11","28","10:00","-2.2","","-4.3","","86","","","","15","","18","","6.4","","95.34","","","","-8","","Snow,Blowing Snow"
"-94.36","49.79","KENORA A","6034076","2022-11-28 11:00","2022","11","28","11:00","-1.6","","-4.3","","82","","","","15","","21","","12.9","","95.28","","","","-7","","Snow,Blowing Snow"
"-94.36","49.79","KENORA A","6034076","2022-11-28 12:00","2022","11","28","12:00","-1.4","","-4.2","","82","","","","16","","20","","4.0","","95.18","","","","-7","","Snow,Blowing Snow"
"-94.36","49.79","KENORA A","6034076","2022-11-28 13:00","2022","11","28","13:00","-1.3","","-3.8","","83","","","","15","","20","","16.1","","95.11","","","","-7","","Snow,Blowing Snow"
"-94.36","49.79","KENORA A","6034076","2022-11-28 14:00","2022","11","28","14:00","-1.8","","-2.6","","95","","","","16","","21","","1.2","","95.17","","","","-8","","Snow,Blowing Snow"
"-94.36","49.79","KENORA A","6034076","2022-11-28 15:00","2022","11","28","15:00","-1.8","","-2.5","","94","","","","17","","19","","4.8","","95.15","","","","-7","","Snow,Blowing Snow"
"-94.36","49.79","KENORA A","6034076","2022-11-28 16:00","2022","11","28","16:00","-1.7","","-2.4","","95","","","","15","","24","","9.7","","95.11","","","","-8","","Snow,Blowing Snow"
"-94.36","49.79","KENORA A","6034076","2022-11-28 17:00","2022","11","28","17:00","-1.6","","-2.5","","93","","","","16","","22","","6.4","","95.11","","","","-8","","Snow,Blowing Snow"
"-94.36","49.79","KENORA A","6034076","2022-11-28 18:00","2022","11","28","18:00","-1.4","","-2.4","","93","","","","17","","24","","4.8","","95.11","","","","-8","","Snow,Blowing Snow"
"-94.36","49.79","KENORA A","6034076","2022-11-28 19:00","2022","11","28","19:00","-1.6","","-2.1","","97","","","","17","","22","","1.6","","95.12","","","","-8","","Snow,Blowing Snow"
"-94.36","49.79","KENORA A","6034076","2022-11-28 20:00","2022","11","28","20:00","-1.4","","-2.2","","95","","","","18","","19","","8.1","","95.12","","","","-7","","Snow,Blowing Snow"
"-94.36","49.79","KENORA A","6034076","2022-11-28 21:00","2022","11","28","21:00","-1.4","","-2.1","","95","","","","19","","22","","8.1","","95.08","","","","-7","","Snow,Blowing Snow"
"-94.36","49.79","KENORA A","6034076","2022-11-28 22:00","2022","11","28","22:00","-3.2","","-5.8","","82","","","","21","","26","","16.1","","95.15","","","","-10","","Snow,Blowing Snow"
"-94.36","49.79","KENORA A","6034076","2022-11-28 23:00","2022","11","28","23:00","-4.3","","-7.9","","76","","","","20","","24","","32.2","","95.18","","","","-11","","Snow,Blowing Snow"
"-94.36","49.79","KENORA A","6034076","2022-11-29 00:00","2022","11","29","00:00","-5.4","","-9.6","","73","","","","21","","25","","32.2","","95.25","","","","-13","","Blowing Snow"
"-94.36","49.79","KENORA A","6034076","2022-11-29 01:00","2022","11","29","01:00","-6.5","","-9.6","","79","","","","21","","23","","32.2","","95.28","","","","-14","","Blowing Snow"
"-94.36","49.79","KENORA A","6034076","2022-11-29 02:00","2022","11","29","02:00","-6.9","","-9.8","","80","","","","21","","19","","32.2","","95.29","","","","-14","","Blowing Snow"
"-94.36","49.79","KENORA A","6034076","2022-11-29 03:00","2022","11","29","03:00","-7.4","","-10.4","","79","","","","21","","18","","32.2","","95.32","","","","-14","","Blowing Snow"
"-94.36","49.79","KENORA A","6034076","2022-11-29 04:00","2022","11","29","04:00","-7.6","","-11.0","","77","","","","21","","31","","32.2","","95.30","","","","-17","","Blowing Snow"
"-94.36","49.79","KENORA A","6034076","2022-11-29 05:00","2022","11","29","05:00","-8.1","","-11.2","","78","","","","21","","28","","32.2","","95.32","","","","-17","","Blowing Snow"
"-94.36","49.79","KENORA A","6034076","2022-11-29 06:00","2022","11","29","06:00","-8.6","","-11.5","","80","","","","22","","17","","32.2","","95.29","","","","-15","","Blowing Snow"
"-94.36","49.79","KENORA A","6034076","2022-11-29 07:00","2022","11","29","07:00","-8.7","","-11.7","","79","","","","21","","20","","24.1","","95.34","","","","-16","","Blowing Snow"
"-94.36","49.79","KENORA A","6034076","2022-11-29 08:00","2022","11","29","08:00","-8.8","","-11.8","","79","","","","22","","27","","24.1","","95.38","","","","-18","","Blowing Snow"
"-94.36","49.79","KENORA A","6034076","2022-11-29 09:00","2022","11","29","09:00","-8.7","","-11.8","","78","","","","22","","25","","19.3","","95.38","","","","-17","","Snow,Blowing Snow"
"-94.36","49.79","KENORA A","6034076","2022-11-29 10:00","2022","11","29","10:00","-8.7","","-11.2","","82","","","","19","","21","","8.1","","95.40","","","","-16","","Snow,Blowing Snow"
"-94.36","49.79","KENORA A","6034076","2022-11-29 11:00","2022","11","29","11:00","-8.8","","-11.6","","80","","","","19","","21","","16.1","","95.43","","","","-17","","Snow,Blowing Snow"
"-94.36","49.79","KENORA A","6034076","2022-11-29 12:00","2022","11","29","12:00","-8.9","","-11.9","","79","","","","20","","21","","16.1","","95.34","","","","-17","","Snow,Blowing Snow"
"-94.36","49.79","KENORA A","6034076","2022-11-29 13:00","2022","11","29","13:00","-8.8","","-11.8","","79","","","","20","","18","","24.1","","95.31","","","","-16","","Snow,Blowing Snow"
"-94.36","49.79","KENORA A","6034076","2022-11-29 14:00","2022","11","29","14:00","-8.6","","-11.5","","79","","","","20","","14","","24.1","","95.28","","","","-15","","Snow,Blowing Snow"
"-94.36","49.79","KENORA A","6034076","2022-11-29 15:00","2022","11","29","15:00","-8.5","","-11.1","","81","","","","20","","15","","19.3","","95.27","","","","-15","","Snow,Blowing Snow"
"-94.36","49.79","KENORA A","6034076","2022-11-29 16:00","2022","11","29","16:00","-8.4","","-10.8","","83","","","","19","","10","","16.1","","95.27","","","","-13","","Snow"
"-94.36","49.79","KENORA A","6034076","2022-11-29 17:00","2022","11","29","17:00","-8.4","","-10.7","","84","","","","22","","7","","8.1","","95.31","","","","-12","","Snow"
"-94.36","49.79","KENORA A","6034076","2022-11-29 18:00","2022","11","29","18:00","-8.7","","-10.4","","87","","","","26","","4","","6.4","","95.30","","","","-11","","Snow"
"-94.36","49.79","KENORA A","6034076","2022-11-29 19:00","2022","11","29","19:00","-8.8","","-10.6","","87","","","","26","","4","","9.7","","95.30","","","","-11","","Snow"
"-94.36","49.79","KENORA A","6034076","2022-11-29 20:00","2022","11","29","20:00","-8.9","","-10.7","","88","","","","27","","6","","9.7","","95.28","","","","-12","","Snow"
"-94.36","49.79","KENORA A","6034076","2022-11-29 21:00","2022","11","29","21:00","-8.9","","-10.4","","89","","","","28","","7","","9.7","","95.28","","","","-13","","Snow"
"-94.36","49.79","KENORA A","6034076","2022-11-29 22:00","2022","11","29","22:00","-9.0","","-10.4","","90","","","","30","","8","","16.1","","95.26","","","","-13","","Snow"
"-94.36","49.79","KENORA A","6034076","2022-11-29 23:00","2022","11","29","23:00","-8.9","","-10.4","","89","","","","31","","10","","8.1","","95.26","","","","-14","","Snow"
"-94.36","49.79","KENORA A","6034076","2022-11-30 00:00","2022","11","30","00:00","-8.7","","-10.2","","89","","","","31","","14","","3.2","","95.26","","","","-15","","Snow"
"-94.36","49.79","KENORA A","6034076","2022-11-30 01:00","2022","11","30","01:00","-8.8","","-10.3","","89","","","","31","","13","","8.1","","95.27","","","","-15","","Snow"
"-94.36","49.79","KENORA A","6034076","2022-11-30 02:00","2022","11","30","02:00","-8.8","","-10.4","","89","","","","30","","15","","8.1","","95.30","","","","-15","","Snow"
"-94.36","49.79","KENORA A","6034076","2022-11-30 03:00","2022","11","30","03:00","-8.9","","-10.4","","89","","","","31","","14","","8.1","","95.33","","","","-15","","Snow"
"-94.36","49.79","KENORA A","6034076","2022-11-30 04:00","2022","11","30","04:00","-8.7","","-10.3","","89","","","","30","","16","","8.1","","95.35","","","","-15","","Snow"
"-94.36","49.79","KENORA A","6034076","2022-11-30 05:00","2022","11","30","05:00","-8.3","","-9.9","","88","","","","30","","16","","4.8","","95.43","","","","-15","","Snow"
"-94.36","49.79","KENORA A","6034076","2022-11-30 06:00","2022","11","30","06:00","-8.9","","-10.7","","87","","","","30","","18","","1.6","","95.50","","","","-16","","Snow,Blowing Snow"
"-94.36","49.79","KENORA A","6034076","2022-11-30 07:00","2022","11","30","07:00","-8.9","","-10.7","","87","","","","31","","19","","2.4","","95.57","","","","-16","","Snow,Blowing Snow"
"-94.36","49.79","KENORA A","6034076","2022-11-30 08:00","2022","11","30","08:00","-8.8","","-10.8","","86","","","","31","","21","","2.0","","95.69","","","","-17","","Snow,Blowing Snow"
"-94.36","49.79","KENORA A","6034076","2022-11-30 09:00","2022","11","30","09:00","-9.3","","-12.2","","79","","","","33","","27","","3.2","","95.80","","","","-18","","Snow,Blowing Snow"
"-94.36","49.79","KENORA A","6034076","2022-11-30 10:00","2022","11","30","10:00","-10.3","","-12.6","","83","","","","31","","23","","1.2","","95.95","","","","-19","","Snow,Blowing Snow"
"-94.36","49.79","KENORA A","6034076","2022-11-30 11:00","2022","11","30","11:00","-10.6","","-13.8","","78","","","","33","","28","","2.4","","96.10","","","","-20","","Snow,Blowing Snow"
"-94.36","49.79","KENORA A","6034076","2022-11-30 12:00","2022","11","30","12:00","-10.9","","-14.0","","78","","","","32","","26","","4.8","","96.20","","","","-20","","Snow,Blowing Snow"
"-94.36","49.79","KENORA A","6034076","2022-11-30 13:00","2022","11","30","13:00","-11.2","","-14.2","","78","","","","32","","24","","4.8","","96.34","","","","-20","","Snow,Blowing Snow"
"-94.36","49.79","KENORA A","6034076","2022-11-30 14:00","2022","11","30","14:00","-11.2","","-14.1","","79","","","","31","","23","","4.8","","96.48","","","","-20","","Snow,Blowing Snow"
"-94.36","49.79","KENORA A","6034076","2022-11-30 15:00","2022","11","30","15:00","-11.5","","-14.4","","79","","","","30","","22","","6.4","","96.61","","","","-20","","Snow,Blowing Snow"
"-94.36","49.79","KENORA A","6034076","2022-11-30 16:00","2022","11","30","16:00","-11.3","","-13.8","","82","","","","31","","21","","6.4","","96.72","","","","-20","","Snow,Blowing Snow"
"-94.36","49.79","KENORA A","6034076","2022-11-30 17:00","2022","11","30","17:00","-11.2","","-13.7","","83","","","","30","","21","","16.1","","96.84","","","","-20","","Snow,Blowing Snow"
"-94.36","49.79","KENORA A","6034076","2022-11-30 18:00","2022","11","30","18:00","-11.5","","-13.8","","83","","","","30","","15","","24.1","","96.90","","","","-19","","Snow,Blowing Snow"
"-94.36","49.79","KENORA A","6034076","2022-11-30 19:00","2022","11","30","19:00","-11.8","","-14.0","","84","","","","30","","14","","9.7","","97.00","","","","-19","","Snow"
"-94.36","49.79","KENORA A","6034076","2022-11-30 20:00","2022","11","30","20:00","-12.8","","-14.8","","85","","","","29","","16","","9.7","","97.07","","","","-20","","Snow"
"-94.36","49.79","KENORA A","6034076","2022-11-30 21:00","2022","11","30","21:00","-13.6","","-15.4","","86","","","","30","","16","","9.7","","97.14","","","","-21","","Snow"
"-94.36","49.79","KENORA A","6034076","2022-11-30 22:00","2022","11","30","22:00","-14.1","","-15.8","","87","","","","31","","8","","12.9","","97.14","","","","-19","","Snow"
"-94.36","49.79","KENORA A","6034076","2022-11-30 23:00","2022","11","30","23:00","-14.3","","-15.9","","88","","","","30","","9","","24.1","","97.19","","","","-20","","Snow"
