"Longitude (x)","Latitude (y)","Station Name","Climate ID","Date/Time (LST)","Year","Month","Day","Time (LST)","Temp (°C)","Temp Flag","Dew Point Temp (°C)","Dew Point Temp Flag","Rel Hum (%)","Rel Hum Flag","Precip. Amount (mm)","Precip. Amount Flag","Wind Dir (10s deg)","Wind Dir Flag","Wind Spd (km/h)","Wind Spd Flag","Visibility (km)","Visibility Flag","Stn Press (kPa)","Stn Press Flag","Hmdx","Hmdx Flag","Wind Chill","Wind Chill Flag","Weather"
"-123.53","48.30","RACE ROCKS","1016640","2023-01-01 00:00","2023","01","01","00:00","","M","","M","","M","","","27","","33","","","","101.33","","","","","","NA"
"-123.53","48.30","RACE ROCKS","1016640","2023-01-01 01:00","2023","01","01","01:00","","M","","M","","M","","","27","","31","","","","101.34","","","","","","NA"
"-123.53","48.30","RACE ROCKS","1016640","2023-01-01 02:00","2023","01","01","02:00","","M","","M","","M","","","28","","23","","","","101.46","","","","","","NA"
"-123.53","48.30","RACE ROCKS","1016640","2023-01-01 03:00","2023","01","01","03:00","","M","","M","","M","","","28","","25","","","","101.52","","","","","","NA"
"-123.53","48.30","RACE ROCKS","1016640","2023-01-01 04:00","2023","01","01","04:00","","M","","M","","M","","","28","","20","","","","101.55","","","","","","NA"
"-123.53","48.30","RACE ROCKS","1016640","2023-01-01 05:00","2023","01","01","05:00","","M","","M","","M","","","29","","17","","","","101.60","","","","","","NA"
"-123.53","48.30","RACE ROCKS","1016640","2023-01-01 06:00","2023","01","01","06:00","","M","","M","","M","","","29","","8","","","","101.63","","","","","","NA"
"-123.53","48.30","RACE ROCKS","1016640","2023-01-01 07:00","2023","01","01","07:00","","M","","M","","M","","","29","","8","","","","101.66","","","","","","NA"
"-123.53","48.30","RACE ROCKS","1016640","2023-01-01 08:00","2023","01","01","08:00","","M","","M","","M","","","29","","14","","","","101.71","","","","","","NA"
"-123.53","48.30","RACE ROCKS","1016640","2023-01-01 09:00","2023","01","01","09:00","","M","","M","","M","","","29","","7","","","","101.76","","","","","","NA"
"-123.53","48.30","RACE ROCKS","1016640","2023-01-01 10:00","2023","01","01","10:00","","M","","M","","M","","","13","","8","","","","101.71","","","","","","NA"
"-123.53","48.30","RACE ROCKS","1016640","2023-01-01 11:00","2023","01","01","11:00","","M","","M","","M","","","14","","6","","","","101.73","","","","","","NA"
"-123.53","48.30","RACE ROCKS","1016640","2023-01-01 12:00","2023","01","01","12:00","","M","","M","","M","","","28","","7","","","","101.74","","","","","","NA"
"-123.53","48.30","RACE ROCKS","1016640","2023-01-01 13:00","2023","01","01","13:00","","M","","M","","M","","","6","","9","","","","101.62","","","","","","NA"
"-123.53","48.30","RACE ROCKS","1016640","2023-01-01 14:00","2023","01","01","14:00","","M","","M","","M","","","4","","12","","","","101.59","","","","","","NA"
"-123.53","48.30","RACE ROCKS","1016640","2023-01-01 15:00","2023","01","01","15:00","","M","","M","","M","","","8","","24","","","","101.49","","","","","","NA"
"-123.53","48.30","RACE ROCKS","1016640","2023-01-01 16:00","2023","01","01","16:00","","M","","M","","M","","","8","","25","","","","101.44","","","","","","NA"
"-123.53","48.30","RACE ROCKS","1016640","2023-01-01 17:00","2023","01","01","17:00","","M","","M","","M","","","6","","23","","","","101.38","","","","","","NA"
"-123.53","48.30","RACE ROCKS","1016640","2023-01-01 18:00","2023","01","01","18:00","","M","","M","","M","","","3","","23","","","","101.35","","","","","","NA"
"-123.53","48.30","RACE ROCKS","1016640","2023-01-01 19:00","2023","01","01","19:00","","M","","M","","M","","","2","","25","","","","101.25","","","","","","NA"
"-123.53","48.30","RACE ROCKS","1016640","2023-01-01 20:00","2023","01","01","20:00","","M","","M","","M","","","1","","30","","","","101.22","","","","","","NA"
"-123.53","48.30","RACE ROCKS","1016640","2023-01-01 21:00","2023","01","01","21:00","","M","","M","","M","","","1","","31","","","","101.20","","","","","","NA"
"-123.53","48.30","RACE ROCKS","1016640","2023-01-01 22:00","2023","01","01","22:00","","M","","M","","M","","","3","","32","","","","101.11","","","","","","NA"
"-123.53","48.30","RACE ROCKS","1016640","2023-01-01 23:00","2023","01","01","23:00","","M","","M","","M","","","2","","33","","","","101.08","","","","","","NA"
"-123.53","48.30","RACE ROCKS","1016640","2023-01-02 00:00","2023","01","02","00:00","","M","","M","","M","","","5","","34","","","","101.02","","","","","","NA"
"-123.53","48.30","RACE ROCKS","1016640","2023-01-02 01:00","2023","01","02","01:00","","M","","M","","M","","","7","","37","","","","100.90","","","","","","NA"
"-123.53","48.30","RACE ROCKS","1016640","2023-01-02 02:00","2023","01","02","02:00","","M","","M","","M","","","6","","38","","","","100.79","","","","","","NA"
"-123.53","48.30","RACE ROCKS","1016640","2023-01-02 03:00","2023","01","02","03:00","","M","","M","","M","","","6","","36","","","","100.73","","","","","","NA"
"-123.53","48.30","RACE ROCKS","1016640","2023-01-02 04:00","2023","01","02","04:00","","M","","M","","M","","","5","","29","","","","100.68","","","","","","NA"
"-123.53","48.30","RACE ROCKS","1016640","2023-01-02 05:00","2023","01","02","05:00","","M","","M","","M","","","6","","35","","","","100.56","","","","","","NA"
"-123.53","48.30","RACE ROCKS","1016640","2023-01-02 06:00","2023","01","02","06:00","","M","","M","","M","","","6","","41","","","","100.44","","","","","","NA"
"-123.53","48.30","RACE ROCKS","1016640","2023-01-02 07:00","2023","01","02","07:00","","M","","M","","M","","","4","","39","","","","100.39","","","","","","NA"
"-123.53","48.30","RACE ROCKS","1016640","2023-01-02 08:00","2023","01","02","08:00","","M","","M","","M","","","5","","39","","","","100.30","","","","","","NA"
"-123.53","48.30","RACE ROCKS","1016640","2023-01-02 09:00","2023","01","02","09:00","","M","","M","","M","","","3","","44","","","","100.18","","","","","","NA"
"-123.53","48.30","RACE ROCKS","1016640","2023-01-02 10:00","2023","01","02","10:00","","M","","M","","M","","","3","","43","","","","100.14","","","","","","NA"
"-123.53","48.30","RACE ROCKS","1016640","2023-01-02 11:00","2023","01","02","11:00","","M","","M","","M","","","5","","46","","","","100.10","","","","","","NA"
"-123.53","48.30","RACE ROCKS","1016640","2023-01-02 12:00","2023","01","02","12:00","","M","","M","","M","","","3","","44","","","","100.04","","","","","","NA"
"-123.53","48.30","RACE ROCKS","1016640","2023-01-02 13:00","2023","01","02","13:00","","M","","M","","M","","","2","","45","","","","99.95","","","","","","NA"
"-123.53","48.30","RACE ROCKS","1016640","2023-01-02 14:00","2023","01","02","14:00","","M","","M","","M","","","1","","43","","","","99.96","","","","","","NA"
"-123.53","48.30","RACE ROCKS","1016640","2023-01-02 15:00","2023","01","02","15:00","","M","","M","","M","","","36","","36","","","","100.01","","","","","","NA"
"-123.53","48.30","RACE ROCKS","1016640","2023-01-02 16:00","2023","01","02","16:00","","M","","M","","M","","","36","","31","","","","100.02","","","","","","NA"
"-123.53","48.30","RACE ROCKS","1016640","2023-01-02 17:00","2023","01","02","17:00","","M","","M","","M","","","2","","27","","","","100.04","","","","","","NA"
"-123.53","48.30","RACE ROCKS","1016640","2023-01-02 18:00","2023","01","02","18:00","","M","","M","","M","","","2","","28","","","","100.03","","","","","","NA"
"-123.53","48.30","RACE ROCKS","1016640","2023-01-02 19:00","2023","01","02","19:00","","M","","M","","M","","","3","","25","","","","100.05","","","","","","NA"
"-123.53","48.30","RACE ROCKS","1016640","2023-01-02 20:00","2023","01","02","20:00","","M","","M","","M","","","3","","28","","","","100.07","","","","","","NA"
"-123.53","48.30","RACE ROCKS","1016640","2023-01-02 21:00","2023","01","02","21:00","","M","","M","","M","","","2","","27","","","","100.08","","","","","","NA"
"-123.53","48.30","RACE ROCKS","1016640","2023-01-02 22:00","2023","01","02","22:00","","M","","M","","M","","","36","","36","","","","100.03","","","","","","NA"
"-123.53","48.30","RACE ROCKS","1016640","2023-01-02 23:00","2023","01","02","23:00","","M","","M","","M","","","36","","38","","","","100.07","","","","","","NA"
"-123.53","48.30","RACE ROCKS","1016640","2023-01-03 00:00","2023","01","03","00:00","","M","","M","","M","","","35","","27","","","","100.11","","","","","","NA"
"-123.53","48.30","RACE ROCKS","1016640","2023-01-03 01:00","2023","01","03","01:00","","M","","M","","M","","","32","","22","","","","100.16","","","","","","NA"
"-123.53","48.30","RACE ROCKS","1016640","2023-01-03 02:00","2023","01","03","02:00","","M","","M","","M","","","34","","17","","","","100.21","","","","","","NA"
"-123.53","48.30","RACE ROCKS","1016640","2023-01-03 03:00","2023","01","03","03:00","","M","","M","","M","","","33","","8","","","","100.29","","","","","","NA"
"-123.53","48.30","RACE ROCKS","1016640","2023-01-03 04:00","2023","01","03","04:00","","M","","M","","M","","","30","","7","","","","100.34","","","","","","NA"
"-123.53","48.30","RACE ROCKS","1016640","2023-01-03 05:00","2023","01","03","05:00","","M","","M","","M","","","34","","4","","","","100.39","","","","","","NA"
"-123.53","48.30","RACE ROCKS","1016640","2023-01-03 06:00","2023","01","03","06:00","","M","","M","","M","","","1","","15","","","","100.41","","","","","","NA"
"-123.53","48.30","RACE ROCKS","1016640","2023-01-03 07:00","2023","01","03","07:00","","M","","M","","M","","","36","","15","","","","100.46","","","","","","NA"
"-123.53","48.30","RACE ROCKS","1016640","2023-01-03 08:00","2023","01","03","08:00","","M","","M","","M","","","1","","24","","","","100.51","","","","","","NA"
"-123.53","48.30","RACE ROCKS","1016640","2023-01-03 09:00","2023","01","03","09:00","","M","","M","","M","","","8","","21","","","","100.61","","","","","","NA"
"-123.53","48.30","RACE ROCKS","1016640","2023-01-03 10:00","2023","01","03","10:00","","M","","M","","M","","","6","","24","","","","100.66","","","","","","NA"
"-123.53","48.30","RACE ROCKS","1016640","2023-01-03 11:00","2023","01","03","11:00","","M","","M","","M","","","7","","29","","","","100.66","","","","","","NA"
"-123.53","48.30","RACE ROCKS","1016640","2023-01-03 12:00","2023","01","03","12:00","","M","","M","","M","","","8","","25","","","","100.67","","","","","","NA"
"-123.53","48.30","RACE ROCKS","1016640","2023-01-03 13:00","2023","01","03","13:00","","M","","M","","M","","","7","","19","","","","100.67","","","","","","NA"
"-123.53","48.30","RACE ROCKS","1016640","2023-01-03 14:00","2023","01","03","14:00","","M","","M","","M","","","6","","27","","","","100.63","","","","","","NA"
"-123.53","48.30","RACE ROCKS","1016640","2023-01-03 15:00","2023","01","03","15:00","","M","","M","","M","","","6","","35","","","","100.58","","","","","","NA"
"-123.53","48.30","RACE ROCKS","1016640","2023-01-03 16:00","2023","01","03","16:00","","M","","M","","M","","","5","","38","","","","100.59","","","","","","NA"
"-123.53","48.30","RACE ROCKS","1016640","2023-01-03 17:00","2023","01","03","17:00","","M","","M","","M","","","2","","36","","","","100.57","","","","","","NA"
"-123.53","48.30","RACE ROCKS","1016640","2023-01-03 18:00","2023","01","03","18:00","","M","","M","","M","","","7","","28","","","","100.57","","","","","","NA"
"-123.53","48.30","RACE ROCKS","1016640","2023-01-03 19:00","2023","01","03","19:00","","M","","M","","M","","","2","","34","","","","100.56","","","","","","NA"
"-123.53","48.30","RACE ROCKS","1016640","2023-01-03 20:00","2023","01","03","20:00","","M","","M","","M","","","3","","33","","","","100.58","","","","","","NA"
"-123.53","48.30","RACE ROCKS","1016640","2023-01-03 21:00","2023","01","03","21:00","","M","","M","","M","","","2","","42","","","","100.60","","","","","","NA"
"-123.53","48.30","RACE ROCKS","1016640","2023-01-03 22:00","2023","01","03","22:00","","M","","M","","M","","","3","","40","","","","100.66","","","","","","NA"
"-123.53","48.30","RACE ROCKS","1016640","2023-01-03 23:00","2023","01","03","23:00","","M","","M","","M","","","2","","43","","","","100.69","","","","","","NA"
"-123.53","48.30","RACE ROCKS","1016640","2023-01-04 00:00","2023","01","04","00:00","","M","","M","","M","","","4","","43","","","","100.72","","","","","","NA"
"-123.53","48.30","RACE ROCKS","1016640","2023-01-04 01:00","2023","01","04","01:00","","M","","M","","M","","","3","","35","","","","100.73","","","","","","NA"
"-123.53","48.30","RACE ROCKS","1016640","2023-01-04 02:00","2023","01","04","02:00","","M","","M","","M","","","36","","46","","","","100.73","","","","","","NA"
"-123.53","48.30","RACE ROCKS","1016640","2023-01-04 03:00","2023","01","04","03:00","","M","","M","","M","","","36","","39","","","","100.77","","","","","","NA"
"-123.53","48.30","RACE ROCKS","1016640","2023-01-04 04:00","2023","01","04","04:00","","M","","M","","M","","","36","","39","","","","100.78","","","","","","NA"
"-123.53","48.30","RACE ROCKS","1016640","2023-01-04 05:00","2023","01","04","05:00","","M","","M","","M","","","7","","30","","","","100.72","","","","","","NA"
"-123.53","48.30","RACE ROCKS","1016640","2023-01-04 06:00","2023","01","04","06:00","","M","","M","","M","","","7","","21","","","","100.69","","","","","","NA"
"-123.53","48.30","RACE ROCKS","1016640","2023-01-04 07:00","2023","01","04","07:00","","M","","M","","M","","","8","","38","","","","100.74","","","","","","NA"
"-123.53","48.30","RACE ROCKS","1016640","2023-01-04 08:00","2023","01","04","08:00","","M","","M","","M","","","5","","44","","","","100.70","","","","","","NA"
"-123.53","48.30","RACE ROCKS","1016640","2023-01-04 09:00","2023","01","04","09:00","","M","","M","","M","","","5","","50","","","","100.65","","","","","","NA"
"-123.53","48.30","RACE ROCKS","1016640","2023-01-04 10:00","2023","01","04","10:00","","M","","M","","M","","","5","","57","","","","100.55","","","","","","NA"
"-123.53","48.30","RACE ROCKS","1016640","2023-01-04 11:00","2023","01","04","11:00","","M","","M","","M","","","6","","56","","","","100.47","","","","","","NA"
"-123.53","48.30","RACE ROCKS","1016640","2023-01-04 12:00","2023","01","04","12:00","","M","","M","","M","","","5","","56","","","","100.34","","","","","","NA"
"-123.53","48.30","RACE ROCKS","1016640","2023-01-04 13:00","2023","01","04","13:00","","M","","M","","M","","","5","","52","","","","100.20","","","","","","NA"
"-123.53","48.30","RACE ROCKS","1016640","2023-01-04 14:00","2023","01","04","14:00","","M","","M","","M","","","4","","55","","","","100.02","","","","","","NA"
"-123.53","48.30","RACE ROCKS","1016640","2023-01-04 15:00","2023","01","04","15:00","","M","","M","","M","","","4","","49","","","","99.97","","","","","","NA"
"-123.53","48.30","RACE ROCKS","1016640","2023-01-04 16:00","2023","01","04","16:00","","M","","M","","M","","","3","","57","","","","99.84","","","","","","NA"
"-123.53","48.30","RACE ROCKS","1016640","2023-01-04 17:00","2023","01","04","17:00","","M","","M","","M","","","4","","62","","","","99.74","","","","","","NA"
"-123.53","48.30","RACE ROCKS","1016640","2023-01-04 18:00","2023","01","04","18:00","","M","","M","","M","","","5","","61","","","","99.65","","","","","","NA"
"-123.53","48.30","RACE ROCKS","1016640","2023-01-04 19:00","2023","01","04","19:00","","M","","M","","M","","","5","","60","","","","99.62","","","","","","NA"
"-123.53","48.30","RACE ROCKS","1016640","2023-01-04 20:00","2023","01","04","20:00","","M","","M","","M","","","5","","59","","","","99.56","","","","","","NA"
"-123.53","48.30","RACE ROCKS","1016640","2023-01-04 21:00","2023","01","04","21:00","","M","","M","","M","","","7","","58","","","","99.52","","","","","","NA"
"-123.53","48.30","RACE ROCKS","1016640","2023-01-04 22:00","2023","01","04","22:00","","M","","M","","M","","","6","","56","","","","99.45","","","","","","NA"
"-123.53","48.30","RACE ROCKS","1016640","2023-01-04 23:00","2023","01","04","23:00","","M","","M","","M","","","4","","52","","","","99.43","","","","","","NA"
"-123.53","48.30","RACE ROCKS","1016640","2023-01-05 00:00","2023","01","05","00:00","","M","","M","","M","","","5","","46","","","","99.39","","","","","","NA"
"-123.53","48.30","RACE ROCKS","1016640","2023-01-05 01:00","2023","01","05","01:00","","M","","M","","M","","","3","","48","","","","99.31","","","","","","NA"
"-123.53","48.30","RACE ROCKS","1016640","2023-01-05 02:00","2023","01","05","02:00","","M","","M","","M","","","3","","45","","","","99.25","","","","","","NA"
"-123.53","48.30","RACE ROCKS","1016640","2023-01-05 03:00","2023","01","05","03:00","","M","","M","","M","","","3","","47","","","","99.22","","","","","","NA"
"-123.53","48.30","RACE ROCKS","1016640","2023-01-05 04:00","2023","01","05","04:00","","M","","M","","M","","","3","","49","","","","99.18","","","","","","NA"
"-123.53","48.30","RACE ROCKS","1016640","2023-01-05 05:00","2023","01","05","05:00","","M","","M","","M","","","4","","46","","","","99.13","","","","","","NA"
"-123.53","48.30","RACE ROCKS","1016640","2023-01-05 06:00","2023","01","05","06:00","","M","","M","","M","","","5","","52","","","","99.08","","","","","","NA"
"-123.53","48.30","RACE ROCKS","1016640","2023-01-05 07:00","2023","01","05","07:00","","M","","M","","M","","","4","","51","","","","99.01","","","","","","NA"
"-123.53","48.30","RACE ROCKS","1016640","2023-01-05 08:00","2023","01","05","08:00","","M","","M","","M","","","3","","53","","","","98.99","","","","","","NA"
"-123.53","48.30","RACE ROCKS","1016640","2023-01-05 09:00","2023","01","05","09:00","","M","","M","","M","","","4","","39","","","","99.06","","","","","","NA"
"-123.53","48.30","RACE ROCKS","1016640","2023-01-05 10:00","2023","01","05","10:00","","M","","M","","M","","","5","","35","","","","99.08","","","","","","NA"
"-123.53","48.30","RACE ROCKS","1016640","2023-01-05 11:00","2023","01","05","11:00","","M","","M","","M","","","36","","19","","","","99.12","","","","","","NA"
"-123.53","48.30","RACE ROCKS","1016640","2023-01-05 12:00","2023","01","05","12:00","","M","","M","","M","","","10","","69","","","","98.95","","","","","","NA"
"-123.53","48.30","RACE ROCKS","1016640","2023-01-05 13:00","2023","01","05","13:00","","M","","M","","M","","","11","","71","","","","98.89","","","","","","NA"
"-123.53","48.30","RACE ROCKS","1016640","2023-01-05 14:00","2023","01","05","14:00","","M","","M","","M","","","11","","70","","","","98.96","","","","","","NA"
"-123.53","48.30","RACE ROCKS","1016640","2023-01-05 15:00","2023","01","05","15:00","","M","","M","","M","","","11","","62","","","","99.00","","","","","","NA"
"-123.53","48.30","RACE ROCKS","1016640","2023-01-05 16:00","2023","01","05","16:00","","M","","M","","M","","","11","","61","","","","99.17","","","","","","NA"
"-123.53","48.30","RACE ROCKS","1016640","2023-01-05 17:00","2023","01","05","17:00","","M","","M","","M","","","12","","50","","","","99.27","","","","","","NA"
"-123.53","48.30","RACE ROCKS","1016640","2023-01-05 18:00","2023","01","05","18:00","","M","","M","","M","","","14","","35","","","","99.40","","","","","","NA"
"-123.53","48.30","RACE ROCKS","1016640","2023-01-05 19:00","2023","01","05","19:00","","M","","M","","M","","","34","","12","","","","99.61","","","","","","NA"
"-123.53","48.30","RACE ROCKS","1016640","2023-01-05 20:00","2023","01","05","20:00","","M","","M","","M","","","31","","6","","","","99.82","","","","","","NA"
"-123.53","48.30","RACE ROCKS","1016640","2023-01-05 21:00","2023","01","05","21:00","","M","","M","","M","","","28","","32","","","","100.00","","","","","","NA"
"-123.53","48.30","RACE ROCKS","1016640","2023-01-05 22:00","2023","01","05","22:00","","M","","M","","M","","","29","","42","","","","100.15","","","","","","NA"
"-123.53","48.30","RACE ROCKS","1016640","2023-01-05 23:00","2023","01","05","23:00","","M","","M","","M","","","28","","32","","","","100.36","","","","","","NA"
"-123.53","48.30","RACE ROCKS","1016640","2023-01-06 00:00","2023","01","06","00:00","","M","","M","","M","","","28","","31","","","","100.50","","","","","","NA"
"-123.53","48.30","RACE ROCKS","1016640","2023-01-06 01:00","2023","01","06","01:00","","M","","M","","M","","","29","","28","","","","100.60","","","","","","NA"
"-123.53","48.30","RACE ROCKS","1016640","2023-01-06 02:00","2023","01","06","02:00","","M","","M","","M","","","23","","13","","","","100.74","","","","","","NA"
"-123.53","48.30","RACE ROCKS","1016640","2023-01-06 03:00","2023","01","06","03:00","","M","","M","","M","","","27","","16","","","","100.86","","","","","","NA"
"-123.53","48.30","RACE ROCKS","1016640","2023-01-06 04:00","2023","01","06","04:00","","M","","M","","M","","","30","","2","","","","100.87","","","","","","NA"
"-123.53","48.30","RACE ROCKS","1016640","2023-01-06 05:00","2023","01","06","05:00","","M","","M","","M","","","1","","6","","","","100.93","","","","","","NA"
"-123.53","48.30","RACE ROCKS","1016640","2023-01-06 06:00","2023","01","06","06:00","","M","","M","","M","","","5","","13","","","","100.94","","","","","","NA"
"-123.53","48.30","RACE ROCKS","1016640","2023-01-06 07:00","2023","01","06","07:00","","M","","M","","M","","","36","","15","","","","101.00","","","","","","NA"
"-123.53","48.30","RACE ROCKS","1016640","2023-01-06 08:00","2023","01","06","08:00","","M","","M","","M","","","3","","19","","","","100.93","","","","","","NA"
"-123.53","48.30","RACE ROCKS","1016640","2023-01-06 09:00","2023","01","06","09:00","","M","","M","","M","","","2","","38","","","","100.91","","","","","","NA"
"-123.53","48.30","RACE ROCKS","1016640","2023-01-06 10:00","2023","01","06","10:00","","M","","M","","M","","","3","","30","","","","100.91","","","","","","NA"
"-123.53","48.30","RACE ROCKS","1016640","2023-01-06 11:00","2023","01","06","11:00","","M","","M","","M","","","1","","31","","","","100.87","","","","","","NA"
"-123.53","48.30","RACE ROCKS","1016640","2023-01-06 12:00","2023","01","06","12:00","","M","","M","","M","","","12","","17","","","","100.86","","","","","","NA"
"-123.53","48.30","RACE ROCKS","1016640","2023-01-06 13:00","2023","01","06","13:00","","M","","M","","M","","","7","","12","","","","100.82","","","","","","NA"
"-123.53","48.30","RACE ROCKS","1016640","2023-01-06 14:00","2023","01","06","14:00","","M","","M","","M","","","20","","2","","","","100.77","","","","","","NA"
"-123.53","48.30","RACE ROCKS","1016640","2023-01-06 15:00","2023","01","06","15:00","","M","","M","","M","","","5","","17","","","","100.70","","","","","","NA"
"-123.53","48.30","RACE ROCKS","1016640","2023-01-06 16:00","2023","01","06","16:00","","M","","M","","M","","","8","","19","","","","100.65","","","","","","NA"
"-123.53","48.30","RACE ROCKS","1016640","2023-01-06 17:00","2023","01","06","17:00","","M","","M","","M","","","10","","36","","","","100.57","","","","","","NA"
"-123.53","48.30","RACE ROCKS","1016640","2023-01-06 18:00","2023","01","06","18:00","","M","","M","","M","","","10","","60","","","","100.53","","","","","","NA"
"-123.53","48.30","RACE ROCKS","1016640","2023-01-06 19:00","2023","01","06","19:00","","M","","M","","M","","","12","","47","","","","100.66","","","","","","NA"
"-123.53","48.30","RACE ROCKS","1016640","2023-01-06 20:00","2023","01","06","20:00","","M","","M","","M","","","12","","9","","","","100.74","","","","","","NA"
"-123.53","48.30","RACE ROCKS","1016640","2023-01-06 21:00","2023","01","06","21:00","","M","","M","","M","","","30","","8","","","","100.81","","","","","","NA"
"-123.53","48.30","RACE ROCKS","1016640","2023-01-06 22:00","2023","01","06","22:00","","M","","M","","M","","","2","","27","","","","100.69","","","","","","NA"
"-123.53","48.30","RACE ROCKS","1016640","2023-01-06 23:00","2023","01","06","23:00","","M","","M","","M","","","36","","24","","","","100.80","","","","","","NA"
"-123.53","48.30","RACE ROCKS","1016640","2023-01-07 00:00","2023","01","07","00:00","","M","","M","","M","","","36","","32","","","","100.77","","","","","","NA"
"-123.53","48.30","RACE ROCKS","1016640","2023-01-07 01:00","2023","01","07","01:00","","M","","M","","M","","","35","","33","","","","100.80","","","","","","NA"
"-123.53","48.30","RACE ROCKS","1016640","2023-01-07 02:00","2023","01","07","02:00","","M","","M","","M","","","36","","34","","","","100.74","","","","","","NA"
"-123.53","48.30","RACE ROCKS","1016640","2023-01-07 03:00","2023","01","07","03:00","","M","","M","","M","","","36","","29","","","","100.74","","","","","","NA"
"-123.53","48.30","RACE ROCKS","1016640","2023-01-07 04:00","2023","01","07","04:00","","M","","M","","M","","","36","","28","","","","100.77","","","","","","NA"
"-123.53","48.30","RACE ROCKS","1016640","2023-01-07 05:00","2023","01","07","05:00","","M","","M","","M","","","36","","37","","","","100.72","","","","","","NA"
"-123.53","48.30","RACE ROCKS","1016640","2023-01-07 06:00","2023","01","07","06:00","","M","","M","","M","","","36","","33","","","","100.70","","","","","","NA"
"-123.53","48.30","RACE ROCKS","1016640","2023-01-07 07:00","2023","01","07","07:00","","M","","M","","M","","","36","","35","","","","100.67","","","","","","NA"
"-123.53","48.30","RACE ROCKS","1016640","2023-01-07 08:00","2023","01","07","08:00","","M","","M","","M","","","2","","34","","","","100.65","","","","","","NA"
"-123.53","48.30","RACE ROCKS","1016640","2023-01-07 09:00","2023","01","07","09:00","","M","","M","","M","","","3","","22","","","","100.67","","","","","","NA"
"-123.53","48.30","RACE ROCKS","1016640","2023-01-07 10:00","2023","01","07","10:00","","M","","M","","M","","","4","","20","","","","100.67","","","","","","NA"
"-123.53","48.30","RACE ROCKS","1016640","2023-01-07 11:00","2023","01","07","11:00","","M","","M","","M","","","7","","18","","","","100.63","","","","","","NA"
"-123.53","48.30","RACE ROCKS","1016640","2023-01-07 12:00","2023","01","07","12:00","","M","","M","","M","","","6","","30","","","","100.53","","","","","","NA"
"-123.53","48.30","RACE ROCKS","1016640","2023-01-07 13:00","2023","01","07","13:00","","M","","M","","M","","","5","","33","","","","100.47","","","","","","NA"
"-123.53","48.30","RACE ROCKS","1016640","2023-01-07 14:00","2023","01","07","14:00","","M","","M","","M","","","4","","22","","","","100.39","","","","","","NA"
"-123.53","48.30","RACE ROCKS","1016640","2023-01-07 15:00","2023","01","07","15:00","","M","","M","","M","","","4","","30","","","","100.34","","","","","","NA"
"-123.53","48.30","RACE ROCKS","1016640","2023-01-07 16:00","2023","01","07","16:00","","M","","M","","M","","","8","","19","","","","100.29","","","","","","NA"
"-123.53","48.30","RACE ROCKS","1016640","2023-01-07 17:00","2023","01","07","17:00","","M","","M","","M","","","6","","20","","","","100.28","","","","","","NA"
"-123.53","48.30","RACE ROCKS","1016640","2023-01-07 18:00","2023","01","07","18:00","","M","","M","","M","","","7","","17","","","","100.25","","","","","","NA"
"-123.53","48.30","RACE ROCKS","1016640","2023-01-07 19:00","2023","01","07","19:00","","M","","M","","M","","","6","","9","","","","100.22","","","","","","NA"
"-123.53","48.30","RACE ROCKS","1016640","2023-01-07 20:00","2023","01","07","20:00","","M","","M","","M","","","4","","22","","","","100.17","","","","","","NA"
"-123.53","48.30","RACE ROCKS","1016640","2023-01-07 21:00","2023","01","07","21:00","","M","","M","","M","","","36","","17","","","","100.11","","","","","","NA"
"-123.53","48.30","RACE ROCKS","1016640","2023-01-07 22:00","2023","01","07","22:00","","M","","M","","M","","","2","","12","","","","100.08","","","","","","NA"
"-123.53","48.30","RACE ROCKS","1016640","2023-01-07 23:00","2023","01","07","23:00","","M","","M","","M","","","3","","22","","","","100.03","","","","","","NA"
"-123.53","48.30","RACE ROCKS","1016640","2023-01-08 00:00","2023","01","08","00:00","","M","","M","","M","","","7","","13","","","","100.00","","","","","","NA"
"-123.53","48.30","RACE ROCKS","1016640","2023-01-08 01:00","2023","01","08","01:00","","M","","M","","M","","","6","","14","","","","99.93","","","","","","NA"
"-123.53","48.30","RACE ROCKS","1016640","2023-01-08 02:00","2023","01","08","02:00","","M","","M","","M","","","6","","17","","","","99.88","","","","","","NA"
"-123.53","48.30","RACE ROCKS","1016640","2023-01-08 03:00","2023","01","08","03:00","","M","","M","","M","","","3","","20","","","","99.80","","","","","","NA"
"-123.53","48.30","RACE ROCKS","1016640","2023-01-08 04:00","2023","01","08","04:00","","M","","M","","M","","","3","","27","","","","99.65","","","","","","NA"
"-123.53","48.30","RACE ROCKS","1016640","2023-01-08 05:00","2023","01","08","05:00","","M","","M","","M","","","4","","28","","","","99.60","","","","","","NA"
"-123.53","48.30","RACE ROCKS","1016640","2023-01-08 06:00","2023","01","08","06:00","","M","","M","","M","","","3","","24","","","","99.54","","","","","","NA"
"-123.53","48.30","RACE ROCKS","1016640","2023-01-08 07:00","2023","01","08","07:00","","M","","M","","M","","","3","","30","","","","99.55","","","","","","NA"
"-123.53","48.30","RACE ROCKS","1016640","2023-01-08 08:00","2023","01","08","08:00","","M","","M","","M","","","2","","37","","","","99.50","","","","","","NA"
"-123.53","48.30","RACE ROCKS","1016640","2023-01-08 09:00","2023","01","08","09:00","","M","","M","","M","","","4","","30","","","","99.54","","","","","","NA"
"-123.53","48.30","RACE ROCKS","1016640","2023-01-08 10:00","2023","01","08","10:00","","M","","M","","M","","","2","","39","","","","99.49","","","","","","NA"
"-123.53","48.30","RACE ROCKS","1016640","2023-01-08 11:00","2023","01","08","11:00","","M","","M","","M","","","5","","35","","","","99.56","","","","","","NA"
"-123.53","48.30","RACE ROCKS","1016640","2023-01-08 12:00","2023","01","08","12:00","","M","","M","","M","","","2","","39","","","","99.54","","","","","","NA"
"-123.53","48.30","RACE ROCKS","1016640","2023-01-08 13:00","2023","01","08","13:00","","M","","M","","M","","","36","","34","","","","99.60","","","","","","NA"
"-123.53","48.30","RACE ROCKS","1016640","2023-01-08 14:00","2023","01","08","14:00","","M","","M","","M","","","34","","16","","","","99.71","","","","","","NA"
"-123.53","48.30","RACE ROCKS","1016640","2023-01-08 15:00","2023","01","08","15:00","","M","","M","","M","","","3","","6","","","","99.81","","","","","","NA"
"-123.53","48.30","RACE ROCKS","1016640","2023-01-08 16:00","2023","01","08","16:00","","M","","M","","M","","","6","","9","","","","99.94","","","","","","NA"
"-123.53","48.30","RACE ROCKS","1016640","2023-01-08 17:00","2023","01","08","17:00","","M","","M","","M","","","17","","10","","","","100.05","","","","","","NA"
"-123.53","48.30","RACE ROCKS","1016640","2023-01-08 18:00","2023","01","08","18:00","","M","","M","","M","","","31","","12","","","","100.10","","","","","","NA"
"-123.53","48.30","RACE ROCKS","1016640","2023-01-08 19:00","2023","01","08","19:00","","M","","M","","M","","","29","","5","","","","100.22","","","","","","NA"
"-123.53","48.30","RACE ROCKS","1016640","2023-01-08 20:00","2023","01","08","20:00","","M","","M","","M","","","35","","11","","","","100.20","","","","","","NA"
"-123.53","48.30","RACE ROCKS","1016640","2023-01-08 21:00","2023","01","08","21:00","","M","","M","","M","","","17","","11","","","","100.34","","","","","","NA"
"-123.53","48.30","RACE ROCKS","1016640","2023-01-08 22:00","2023","01","08","22:00","","M","","M","","M","","","2","","10","","","","100.35","","","","","","NA"
"-123.53","48.30","RACE ROCKS","1016640","2023-01-08 23:00","2023","01","08","23:00","","M","","M","","M","","","1","","18","","","","100.35","","","","","","NA"
"-123.53","48.30","RACE ROCKS","1016640","2023-01-09 00:00","2023","01","09","00:00","","M","","M","","M","","","1","","32","","","","100.26","","","","","","NA"
"-123.53","48.30","RACE ROCKS","1016640","2023-01-09 01:00","2023","01","09","01:00","","M","","M","","M","","","36","","27","","","","100.24","","","","","","NA"
"-123.53","48.30","RACE ROCKS","1016640","2023-01-09 02:00","2023","01","09","02:00","","M","","M","","M","","","36","","34","","","","100.13","","","","","","NA"
"-123.53","48.30","RACE ROCKS","1016640","2023-01-09 03:00","2023","01","09","03:00","","M","","M","","M","","","9","","28","","","","100.02","","","","","","NA"
"-123.53","48.30","RACE ROCKS","1016640","2023-01-09 04:00","2023","01","09","04:00","","M","","M","","M","","","7","","21","","","","99.93","","","","","","NA"
"-123.53","48.30","RACE ROCKS","1016640","2023-01-09 05:00","2023","01","09","05:00","","M","","M","","M","","","6","","43","","","","99.72","","","","","","NA"
"-123.53","48.30","RACE ROCKS","1016640","2023-01-09 06:00","2023","01","09","06:00","","M","","M","","M","","","5","","49","","","","99.52","","","","","","NA"
"-123.53","48.30","RACE ROCKS","1016640","2023-01-09 07:00","2023","01","09","07:00","","M","","M","","M","","","3","","42","","","","99.29","","","","","","NA"
"-123.53","48.30","RACE ROCKS","1016640","2023-01-09 08:00","2023","01","09","08:00","","M","","M","","M","","","3","","44","","","","99.11","","","","","","NA"
"-123.53","48.30","RACE ROCKS","1016640","2023-01-09 09:00","2023","01","09","09:00","","M","","M","","M","","","3","","48","","","","98.96","","","","","","NA"
"-123.53","48.30","RACE ROCKS","1016640","2023-01-09 10:00","2023","01","09","10:00","","M","","M","","M","","","5","","54","","","","98.95","","","","","","NA"
"-123.53","48.30","RACE ROCKS","1016640","2023-01-09 11:00","2023","01","09","11:00","","M","","M","","M","","","8","","66","","","","98.79","","","","","","NA"
"-123.53","48.30","RACE ROCKS","1016640","2023-01-09 12:00","2023","01","09","12:00","","M","","M","","M","","","10","","65","","","","98.81","","","","","","NA"
"-123.53","48.30","RACE ROCKS","1016640","2023-01-09 13:00","2023","01","09","13:00","","M","","M","","M","","","12","","48","","","","98.96","","","","","","NA"
"-123.53","48.30","RACE ROCKS","1016640","2023-01-09 14:00","2023","01","09","14:00","","M","","M","","M","","","13","","26","","","","99.16","","","","","","NA"
"-123.53","48.30","RACE ROCKS","1016640","2023-01-09 15:00","2023","01","09","15:00","","M","","M","","M","","","7","","4","","","","99.29","","","","","","NA"
"-123.53","48.30","RACE ROCKS","1016640","2023-01-09 16:00","2023","01","09","16:00","","M","","M","","M","","","1","","6","","","","99.40","","","","","","NA"
"-123.53","48.30","RACE ROCKS","1016640","2023-01-09 17:00","2023","01","09","17:00","","M","","M","","M","","","26","","6","","","","99.51","","","","","","NA"
"-123.53","48.30","RACE ROCKS","1016640","2023-01-09 18:00","2023","01","09","18:00","","M","","M","","M","","","29","","12","","","","99.55","","","","","","NA"
"-123.53","48.30","RACE ROCKS","1016640","2023-01-09 19:00","2023","01","09","19:00","","M","","M","","M","","","3","","11","","","","99.54","","","","","","NA"
"-123.53","48.30","RACE ROCKS","1016640","2023-01-09 20:00","2023","01","09","20:00","","M","","M","","M","","","3","","20","","","","99.65","","","","","","NA"
"-123.53","48.30","RACE ROCKS","1016640","2023-01-09 21:00","2023","01","09","21:00","","M","","M","","M","","","29","","8","","","","99.79","","","","","","NA"
"-123.53","48.30","RACE ROCKS","1016640","2023-01-09 22:00","2023","01","09","22:00","","M","","M","","M","","","36","","31","","","","99.78","","","","","","NA"
"-123.53","48.30","RACE ROCKS","1016640","2023-01-09 23:00","2023","01","09","23:00","","M","","M","","M","","","8","","21","","","","99.84","","","","","","NA"
"-123.53","48.30","RACE ROCKS","1016640","2023-01-10 00:00","2023","01","10","00:00","","M","","M","","M","","","8","","19","","","","99.90","","","","","","NA"
"-123.53","48.30","RACE ROCKS","1016640","2023-01-10 01:00","2023","01","10","01:00","","M","","M","","M","","","8","","26","","","","99.89","","","","","","NA"
"-123.53","48.30","RACE ROCKS","1016640","2023-01-10 02:00","2023","01","10","02:00","","M","","M","","M","","","8","","23","","","","99.91","","","","","","NA"
"-123.53","48.30","RACE ROCKS","1016640","2023-01-10 03:00","2023","01","10","03:00","","M","","M","","M","","","2","","21","","","","99.99","","","","","","NA"
"-123.53","48.30","RACE ROCKS","1016640","2023-01-10 04:00","2023","01","10","04:00","","M","","M","","M","","","2","","32","","","","99.98","","","","","","NA"
"-123.53","48.30","RACE ROCKS","1016640","2023-01-10 05:00","2023","01","10","05:00","","M","","M","","M","","","3","","22","","","","100.00","","","","","","NA"
"-123.53","48.30","RACE ROCKS","1016640","2023-01-10 06:00","2023","01","10","06:00","","M","","M","","M","","","36","","32","","","","100.01","","","","","","NA"
"-123.53","48.30","RACE ROCKS","1016640","2023-01-10 07:00","2023","01","10","07:00","","M","","M","","M","","","2","","31","","","","100.03","","","","","","NA"
"-123.53","48.30","RACE ROCKS","1016640","2023-01-10 08:00","2023","01","10","08:00","","M","","M","","M","","","3","","34","","","","99.97","","","","","","NA"
"-123.53","48.30","RACE ROCKS","1016640","2023-01-10 09:00","2023","01","10","09:00","","M","","M","","M","","","4","","28","","","","100.00","","","","","","NA"
"-123.53","48.30","RACE ROCKS","1016640","2023-01-10 10:00","2023","01","10","10:00","","M","","M","","M","","","4","","24","","","","100.00","","","","","","NA"
"-123.53","48.30","RACE ROCKS","1016640","2023-01-10 11:00","2023","01","10","11:00","","M","","M","","M","","","5","","28","","","","99.98","","","","","","NA"
"-123.53","48.30","RACE ROCKS","1016640","2023-01-10 12:00","2023","01","10","12:00","","M","","M","","M","","","2","","33","","","","99.94","","","","","","NA"
"-123.53","48.30","RACE ROCKS","1016640","2023-01-10 13:00","2023","01","10","13:00","","M","","M","","M","","","2","","38","","","","99.89","","","","","","NA"
"-123.53","48.30","RACE ROCKS","1016640","2023-01-10 14:00","2023","01","10","14:00","","M","","M","","M","","","6","","18","","","","99.92","","","","","","NA"
"-123.53","48.30","RACE ROCKS","1016640","2023-01-10 15:00","2023","01","10","15:00","","M","","M","","M","","","8","","18","","","","99.88","","","","","","NA"
"-123.53","48.30","RACE ROCKS","1016640","2023-01-10 16:00","2023","01","10","16:00","","M","","M","","M","","","5","","27","","","","99.84","","","","","","NA"
"-123.53","48.30","RACE ROCKS","1016640","2023-01-10 17:00","2023","01","10","17:00","","M","","M","","M","","","3","","32","","","","99.82","","","","","","NA"
"-123.53","48.30","RACE ROCKS","1016640","2023-01-10 18:00","2023","01","10","18:00","","M","","M","","M","","","3","","33","","","","99.79","","","","","","NA"
"-123.53","48.30","RACE ROCKS","1016640","2023-01-10 19:00","2023","01","10","19:00","","M","","M","","M","","","4","","29","","","","99.84","","","","","","NA"
"-123.53","48.30","RACE ROCKS","1016640","2023-01-10 20:00","2023","01","10","20:00","","M","","M","","M","","","4","","26","","","","99.92","","","","","","NA"
"-123.53","48.30","RACE ROCKS","1016640","2023-01-10 21:00","2023","01","10","21:00","","M","","M","","M","","","3","","31","","","","99.98","","","","","","NA"
"-123.53","48.30","RACE ROCKS","1016640","2023-01-10 22:00","2023","01","10","22:00","","M","","M","","M","","","4","","31","","","","100.04","","","","","","NA"
"-123.53","48.30","RACE ROCKS","1016640","2023-01-10 23:00","2023","01","10","23:00","","M","","M","","M","","","4","","38","","","","100.09","","","","","","NA"
"-123.53","48.30","RACE ROCKS","1016640","2023-01-11 00:00","2023","01","11","00:00","","M","","M","","M","","","4","","37","","","","100.11","","","","","","NA"
"-123.53","48.30","RACE ROCKS","1016640","2023-01-11 01:00","2023","01","11","01:00","","M","","M","","M","","","3","","35","","","","100.13","","","","","","NA"
"-123.53","48.30","RACE ROCKS","1016640","2023-01-11 02:00","2023","01","11","02:00","","M","","M","","M","","","3","","35","","","","100.19","","","","","","NA"
"-123.53","48.30","RACE ROCKS","1016640","2023-01-11 03:00","2023","01","11","03:00","","M","","M","","M","","","3","","38","","","","100.25","","","","","","NA"
"-123.53","48.30","RACE ROCKS","1016640","2023-01-11 04:00","2023","01","11","04:00","","M","","M","","M","","","3","","37","","","","100.28","","","","","","NA"
"-123.53","48.30","RACE ROCKS","1016640","2023-01-11 05:00","2023","01","11","05:00","","M","","M","","M","","","1","","32","","","","100.34","","","","","","NA"
"-123.53","48.30","RACE ROCKS","1016640","2023-01-11 06:00","2023","01","11","06:00","","M","","M","","M","","","36","","37","","","","100.40","","","","","","NA"
"-123.53","48.30","RACE ROCKS","1016640","2023-01-11 07:00","2023","01","11","07:00","","M","","M","","M","","","36","","34","","","","100.45","","","","","","NA"
"-123.53","48.30","RACE ROCKS","1016640","2023-01-11 08:00","2023","01","11","08:00","","M","","M","","M","","","1","","27","","","","100.52","","","","","","NA"
"-123.53","48.30","RACE ROCKS","1016640","2023-01-11 09:00","2023","01","11","09:00","","M","","M","","M","","","36","","33","","","","100.58","","","","","","NA"
"-123.53","48.30","RACE ROCKS","1016640","2023-01-11 10:00","2023","01","11","10:00","","M","","M","","M","","","34","","18","","","","100.68","","","","","","NA"
"-123.53","48.30","RACE ROCKS","1016640","2023-01-11 11:00","2023","01","11","11:00","","M","","M","","M","","","2","","22","","","","100.71","","","","","","NA"
"-123.53","48.30","RACE ROCKS","1016640","2023-01-11 12:00","2023","01","11","12:00","","M","","M","","M","","","5","","20","","","","100.68","","","","","","NA"
"-123.53","48.30","RACE ROCKS","1016640","2023-01-11 13:00","2023","01","11","13:00","","M","","M","","M","","","4","","16","","","","100.64","","","","","","NA"
"-123.53","48.30","RACE ROCKS","1016640","2023-01-11 14:00","2023","01","11","14:00","","M","","M","","M","","","5","","19","","","","100.58","","","","","","NA"
"-123.53","48.30","RACE ROCKS","1016640","2023-01-11 15:00","2023","01","11","15:00","","M","","M","","M","","","4","","20","","","","100.51","","","","","","NA"
"-123.53","48.30","RACE ROCKS","1016640","2023-01-11 16:00","2023","01","11","16:00","","M","","M","","M","","","10","","21","","","","100.49","","","","","","NA"
"-123.53","48.30","RACE ROCKS","1016640","2023-01-11 17:00","2023","01","11","17:00","","M","","M","","M","","","8","","43","","","","100.46","","","","","","NA"
"-123.53","48.30","RACE ROCKS","1016640","2023-01-11 18:00","2023","01","11","18:00","","M","","M","","M","","","3","","34","","","","100.44","","","","","","NA"
"-123.53","48.30","RACE ROCKS","1016640","2023-01-11 19:00","2023","01","11","19:00","","M","","M","","M","","","7","","22","","","","100.43","","","","","","NA"
"-123.53","48.30","RACE ROCKS","1016640","2023-01-11 20:00","2023","01","11","20:00","","M","","M","","M","","","2","","29","","","","100.41","","","","","","NA"
"-123.53","48.30","RACE ROCKS","1016640","2023-01-11 21:00","2023","01","11","21:00","","M","","M","","M","","","11","","54","","","","100.25","","","","","","NA"
"-123.53","48.30","RACE ROCKS","1016640","2023-01-11 22:00","2023","01","11","22:00","","M","","M","","M","","","10","","52","","","","100.26","","","","","","NA"
"-123.53","48.30","RACE ROCKS","1016640","2023-01-11 23:00","2023","01","11","23:00","","M","","M","","M","","","9","","57","","","","100.22","","","","","","NA"
"-123.53","48.30","RACE ROCKS","1016640","2023-01-12 00:00","2023","01","12","00:00","","M","","M","","M","","","11","","59","","","","100.20","","","","","","NA"
"-123.53","48.30","RACE ROCKS","1016640","2023-01-12 01:00","2023","01","12","01:00","","M","","M","","M","","","10","","69","","","","100.13","","","","","","NA"
"-123.53","48.30","RACE ROCKS","1016640","2023-01-12 02:00","2023","01","12","02:00","","M","","M","","M","","","11","","61","","","","100.16","","","","","","NA"
"-123.53","48.30","RACE ROCKS","1016640","2023-01-12 03:00","2023","01","12","03:00","","M","","M","","M","","","11","","51","","","","100.18","","","","","","NA"
"-123.53","48.30","RACE ROCKS","1016640","2023-01-12 04:00","2023","01","12","04:00","","M","","M","","M","","","11","","55","","","","100.12","","","","","","NA"
"-123.53","48.30","RACE ROCKS","1016640","2023-01-12 05:00","2023","01","12","05:00","","M","","M","","M","","","11","","44","","","","100.19","","","","","","NA"
"-123.53","48.30","RACE ROCKS","1016640","2023-01-12 06:00","2023","01","12","06:00","","M","","M","","M","","","5","","14","","","","100.26","","","","","","NA"
"-123.53","48.30","RACE ROCKS","1016640","2023-01-12 07:00","2023","01","12","07:00","","M","","M","","M","","","10","","26","","","","100.30","","","","","","NA"
"-123.53","48.30","RACE ROCKS","1016640","2023-01-12 08:00","2023","01","12","08:00","","M","","M","","M","","","10","","32","","","","100.37","","","","","","NA"
"-123.53","48.30","RACE ROCKS","1016640","2023-01-12 09:00","2023","01","12","09:00","","M","","M","","M","","","10","","24","","","","100.45","","","","","","NA"
"-123.53","48.30","RACE ROCKS","1016640","2023-01-12 10:00","2023","01","12","10:00","","M","","M","","M","","","2","","14","","","","100.50","","","","","","NA"
"-123.53","48.30","RACE ROCKS","1016640","2023-01-12 11:00","2023","01","12","11:00","","M","","M","","M","","","2","","23","","","","100.52","","","","","","NA"
"-123.53","48.30","RACE ROCKS","1016640","2023-01-12 12:00","2023","01","12","12:00","","M","","M","","M","","","1","","27","","","","100.53","","","","","","NA"
"-123.53","48.30","RACE ROCKS","1016640","2023-01-12 13:00","2023","01","12","13:00","","M","","M","","M","","","3","","26","","","","100.45","","","","","","NA"
"-123.53","48.30","RACE ROCKS","1016640","2023-01-12 14:00","2023","01","12","14:00","","M","","M","","M","","","11","","43","","","","100.39","","","","","","NA"
"-123.53","48.30","RACE ROCKS","1016640","2023-01-12 15:00","2023","01","12","15:00","","M","","M","","M","","","12","","51","","","","100.33","","","","","","NA"
"-123.53","48.30","RACE ROCKS","1016640","2023-01-12 16:00","2023","01","12","16:00","","M","","M","","M","","","12","","51","","","","100.36","","","","","","NA"
"-123.53","48.30","RACE ROCKS","1016640","2023-01-12 17:00","2023","01","12","17:00","","M","","M","","M","","","11","","42","","","","100.34","","","","","","NA"
"-123.53","48.30","RACE ROCKS","1016640","2023-01-12 18:00","2023","01","12","18:00","","M","","M","","M","","","7","","17","","","","100.35","","","","","","NA"
"-123.53","48.30","RACE ROCKS","1016640","2023-01-12 19:00","2023","01","12","19:00","","M","","M","","M","","","6","","16","","","","100.36","","","","","","NA"
"-123.53","48.30","RACE ROCKS","1016640","2023-01-12 20:00","2023","01","12","20:00","","M","","M","","M","","","9","","13","","","","100.35","","","","","","NA"
"-123.53","48.30","RACE ROCKS","1016640","2023-01-12 21:00","2023","01","12","21:00","","M","","M","","M","","","36","","12","","","","100.33","","","","","","NA"
"-123.53","48.30","RACE ROCKS","1016640","2023-01-12 22:00","2023","01","12","22:00","","M","","M","","M","","","2","","12","","","","100.39","","","","","","NA"
"-123.53","48.30","RACE ROCKS","1016640","2023-01-12 23:00","2023","01","12","23:00","","M","","M","","M","","","36","","34","","","","100.39","","","","","","NA"
"-123.53","48.30","RACE ROCKS","1016640","2023-01-13 00:00","2023","01","13","00:00","","M","","M","","M","","","36","","40","","","","100.29","","","","","","NA"
"-123.53","48.30","RACE ROCKS","1016640","2023-01-13 01:00","2023","01","13","01:00","","M","","M","","M","","","2","","35","","","","100.24","","","","","","NA"
"-123.53","48.30","RACE ROCKS","1016640","2023-01-13 02:00","2023","01","13","02:00","","M","","M","","M","","","4","","29","","","","100.19","","","","","","NA"
"-123.53","48.30","RACE ROCKS","1016640","2023-01-13 03:00","2023","01","13","03:00","","M","","M","","M","","","36","","29","","","","100.23","","","","","","NA"
"-123.53","48.30","RACE ROCKS","1016640","2023-01-13 04:00","2023","01","13","04:00","","M","","M","","M","","","36","","38","","","","100.11","","","","","","NA"
"-123.53","48.30","RACE ROCKS","1016640","2023-01-13 05:00","2023","01","13","05:00","","M","","M","","M","","","36","","34","","","","100.03","","","","","","NA"
"-123.53","48.30","RACE ROCKS","1016640","2023-01-13 06:00","2023","01","13","06:00","","M","","M","","M","","","31","","23","","","","100.07","","","","","","NA"
"-123.53","48.30","RACE ROCKS","1016640","2023-01-13 07:00","2023","01","13","07:00","","M","","M","","M","","","33","","7","","","","100.10","","","","","","NA"
"-123.53","48.30","RACE ROCKS","1016640","2023-01-13 08:00","2023","01","13","08:00","","M","","M","","M","","","15","","5","","","","100.14","","","","","","NA"
"-123.53","48.30","RACE ROCKS","1016640","2023-01-13 09:00","2023","01","13","09:00","","M","","M","","M","","","21","","17","","","","100.20","","","","","","NA"
"-123.53","48.30","RACE ROCKS","1016640","2023-01-13 10:00","2023","01","13","10:00","","M","","M","","M","","","20","","17","","","","100.22","","","","","","NA"
"-123.53","48.30","RACE ROCKS","1016640","2023-01-13 11:00","2023","01","13","11:00","","M","","M","","M","","","20","","10","","","","100.22","","","","","","NA"
"-123.53","48.30","RACE ROCKS","1016640","2023-01-13 12:00","2023","01","13","12:00","","M","","M","","M","","","13","","14","","","","100.17","","","","","","NA"
"-123.53","48.30","RACE ROCKS","1016640","2023-01-13 13:00","2023","01","13","13:00","","M","","M","","M","","","7","","3","","","","100.11","","","","","","NA"
"-123.53","48.30","RACE ROCKS","1016640","2023-01-13 14:00","2023","01","13","14:00","","M","","M","","M","","","4","","13","","","","100.05","","","","","","NA"
"-123.53","48.30","RACE ROCKS","1016640","2023-01-13 15:00","2023","01","13","15:00","","M","","M","","M","","","5","","13","","","","100.01","","","","","","NA"
"-123.53","48.30","RACE ROCKS","1016640","2023-01-13 16:00","2023","01","13","16:00","","M","","M","","M","","","4","","11","","","","99.98","","","","","","NA"
"-123.53","48.30","RACE ROCKS","1016640","2023-01-13 17:00","2023","01","13","17:00","","M","","M","","M","","","7","","13","","","","99.95","","","","","","NA"
"-123.53","48.30","RACE ROCKS","1016640","2023-01-13 18:00","2023","01","13","18:00","","M","","M","","M","","","33","","2","","","","99.92","","","","","","NA"
"-123.53","48.30","RACE ROCKS","1016640","2023-01-13 19:00","2023","01","13","19:00","","M","","M","","M","","","5","","9","","","","99.85","","","","","","NA"
"-123.53","48.30","RACE ROCKS","1016640","2023-01-13 20:00","2023","01","13","20:00","","M","","M","","M","","","3","","11","","","","99.83","","","","","","NA"
"-123.53","48.30","RACE ROCKS","1016640","2023-01-13 21:00","2023","01","13","21:00","","M","","M","","M","","","6","","10","","","","99.79","","","","","","NA"
"-123.53","48.30","RACE ROCKS","1016640","2023-01-13 22:00","2023","01","13","22:00","","M","","M","","M","","","4","","12","","","","99.80","","","","","","NA"
"-123.53","48.30","RACE ROCKS","1016640","2023-01-13 23:00","2023","01","13","23:00","","M","","M","","M","","","6","","6","","","","99.85","","","","","","NA"
"-123.53","48.30","RACE ROCKS","1016640","2023-01-14 00:00","2023","01","14","00:00","","M","","M","","M","","","7","","11","","","","99.84","","","","","","NA"
"-123.53","48.30","RACE ROCKS","1016640","2023-01-14 01:00","2023","01","14","01:00","","M","","M","","M","","","2","","9","","","","99.80","","","","","","NA"
"-123.53","48.30","RACE ROCKS","1016640","2023-01-14 02:00","2023","01","14","02:00","","M","","M","","M","","","10","","6","","","","99.83","","","","","","NA"
"-123.53","48.30","RACE ROCKS","1016640","2023-01-14 03:00","2023","01","14","03:00","","M","","M","","M","","","8","","9","","","","99.85","","","","","","NA"
"-123.53","48.30","RACE ROCKS","1016640","2023-01-14 04:00","2023","01","14","04:00","","M","","M","","M","","","2","","15","","","","99.84","","","","","","NA"
"-123.53","48.30","RACE ROCKS","1016640","2023-01-14 05:00","2023","01","14","05:00","","M","","M","","M","","","3","","19","","","","99.79","","","","","","NA"
"-123.53","48.30","RACE ROCKS","1016640","2023-01-14 06:00","2023","01","14","06:00","","M","","M","","M","","","1","","24","","","","99.71","","","","","","NA"
"-123.53","48.30","RACE ROCKS","1016640","2023-01-14 07:00","2023","01","14","07:00","","M","","M","","M","","","3","","13","","","","99.67","","","","","","NA"
"-123.53","48.30","RACE ROCKS","1016640","2023-01-14 08:00","2023","01","14","08:00","","M","","M","","M","","","3","","22","","","","99.59","","","","","","NA"
"-123.53","48.30","RACE ROCKS","1016640","2023-01-14 09:00","2023","01","14","09:00","","M","","M","","M","","","3","","16","","","","99.54","","","","","","NA"
"-123.53","48.30","RACE ROCKS","1016640","2023-01-14 10:00","2023","01","14","10:00","","M","","M","","M","","","5","","15","","","","99.46","","","","","","NA"
"-123.53","48.30","RACE ROCKS","1016640","2023-01-14 11:00","2023","01","14","11:00","","M","","M","","M","","","5","","28","","","","99.37","","","","","","NA"
"-123.53","48.30","RACE ROCKS","1016640","2023-01-14 12:00","2023","01","14","12:00","","M","","M","","M","","","5","","37","","","","99.24","","","","","","NA"
"-123.53","48.30","RACE ROCKS","1016640","2023-01-14 13:00","2023","01","14","13:00","","M","","M","","M","","","8","","28","","","","99.13","","","","","","NA"
"-123.53","48.30","RACE ROCKS","1016640","2023-01-14 14:00","2023","01","14","14:00","","M","","M","","M","","","7","","27","","","","99.00","","","","","","NA"
"-123.53","48.30","RACE ROCKS","1016640","2023-01-14 15:00","2023","01","14","15:00","","M","","M","","M","","","7","","19","","","","98.99","","","","","","NA"
"-123.53","48.30","RACE ROCKS","1016640","2023-01-14 16:00","2023","01","14","16:00","","M","","M","","M","","","2","","40","","","","98.88","","","","","","NA"
"-123.53","48.30","RACE ROCKS","1016640","2023-01-14 17:00","2023","01","14","17:00","","M","","M","","M","","","4","","28","","","","98.90","","","","","","NA"
"-123.53","48.30","RACE ROCKS","1016640","2023-01-14 18:00","2023","01","14","18:00","","M","","M","","M","","","4","","29","","","","98.86","","","","","","NA"
"-123.53","48.30","RACE ROCKS","1016640","2023-01-14 19:00","2023","01","14","19:00","","M","","M","","M","","","3","","33","","","","98.83","","","","","","NA"
"-123.53","48.30","RACE ROCKS","1016640","2023-01-14 20:00","2023","01","14","20:00","","M","","M","","M","","","2","","45","","","","98.80","","","","","","NA"
"-123.53","48.30","RACE ROCKS","1016640","2023-01-14 21:00","2023","01","14","21:00","","M","","M","","M","","","2","","41","","","","98.76","","","","","","NA"
"-123.53","48.30","RACE ROCKS","1016640","2023-01-14 22:00","2023","01","14","22:00","","M","","M","","M","","","2","","43","","","","98.77","","","","","","NA"
"-123.53","48.30","RACE ROCKS","1016640","2023-01-14 23:00","2023","01","14","23:00","","M","","M","","M","","","1","","36","","","","98.82","","","","","","NA"
"-123.53","48.30","RACE ROCKS","1016640","2023-01-15 00:00","2023","01","15","00:00","","M","","M","","M","","","2","","39","","","","98.80","","","","","","NA"
"-123.53","48.30","RACE ROCKS","1016640","2023-01-15 01:00","2023","01","15","01:00","","M","","M","","M","","","2","","46","","","","98.77","","","","","","NA"
"-123.53","48.30","RACE ROCKS","1016640","2023-01-15 02:00","2023","01","15","02:00","","M","","M","","M","","","2","","39","","","","98.75","","","","","","NA"
"-123.53","48.30","RACE ROCKS","1016640","2023-01-15 03:00","2023","01","15","03:00","","M","","M","","M","","","3","","40","","","","98.75","","","","","","NA"
"-123.53","48.30","RACE ROCKS","1016640","2023-01-15 04:00","2023","01","15","04:00","","M","","M","","M","","","3","","39","","","","98.73","","","","","","NA"
"-123.53","48.30","RACE ROCKS","1016640","2023-01-15 05:00","2023","01","15","05:00","","M","","M","","M","","","3","","36","","","","98.71","","","","","","NA"
"-123.53","48.30","RACE ROCKS","1016640","2023-01-15 06:00","2023","01","15","06:00","","M","","M","","M","","","3","","29","","","","98.70","","","","","","NA"
"-123.53","48.30","RACE ROCKS","1016640","2023-01-15 07:00","2023","01","15","07:00","","M","","M","","M","","","3","","34","","","","98.66","","","","","","NA"
"-123.53","48.30","RACE ROCKS","1016640","2023-01-15 08:00","2023","01","15","08:00","","M","","M","","M","","","2","","33","","","","98.68","","","","","","NA"
"-123.53","48.30","RACE ROCKS","1016640","2023-01-15 09:00","2023","01","15","09:00","","M","","M","","M","","","2","","44","","","","98.71","","","","","","NA"
"-123.53","48.30","RACE ROCKS","1016640","2023-01-15 10:00","2023","01","15","10:00","","M","","M","","M","","","2","","45","","","","98.72","","","","","","NA"
"-123.53","48.30","RACE ROCKS","1016640","2023-01-15 11:00","2023","01","15","11:00","","M","","M","","M","","","4","","39","","","","98.73","","","","","","NA"
"-123.53","48.30","RACE ROCKS","1016640","2023-01-15 12:00","2023","01","15","12:00","","M","","M","","M","","","5","","31","","","","98.73","","","","","","NA"
"-123.53","48.30","RACE ROCKS","1016640","2023-01-15 13:00","2023","01","15","13:00","","M","","M","","M","","","5","","47","","","","98.68","","","","","","NA"
"-123.53","48.30","RACE ROCKS","1016640","2023-01-15 14:00","2023","01","15","14:00","","M","","M","","M","","","8","","18","","","","98.71","","","","","","NA"
"-123.53","48.30","RACE ROCKS","1016640","2023-01-15 15:00","2023","01","15","15:00","","M","","M","","M","","","10","","13","","","","98.75","","","","","","NA"
"-123.53","48.30","RACE ROCKS","1016640","2023-01-15 16:00","2023","01","15","16:00","","M","","M","","M","","","7","","5","","","","98.83","","","","","","NA"
"-123.53","48.30","RACE ROCKS","1016640","2023-01-15 17:00","2023","01","15","17:00","","M","","M","","M","","","2","","3","","","","98.92","","","","","","NA"
"-123.53","48.30","RACE ROCKS","1016640","2023-01-15 18:00","2023","01","15","18:00","","M","","M","","M","","","36","","11","","","","99.01","","","","","","NA"
"-123.53","48.30","RACE ROCKS","1016640","2023-01-15 19:00","2023","01","15","19:00","","M","","M","","M","","","36","","13","","","","99.09","","","","","","NA"
"-123.53","48.30","RACE ROCKS","1016640","2023-01-15 20:00","2023","01","15","20:00","","M","","M","","M","","","31","","9","","","","99.16","","","","","","NA"
"-123.53","48.30","RACE ROCKS","1016640","2023-01-15 21:00","2023","01","15","21:00","","M","","M","","M","","","34","","3","","","","99.24","","","","","","NA"
"-123.53","48.30","RACE ROCKS","1016640","2023-01-15 22:00","2023","01","15","22:00","","M","","M","","M","","","36","","7","","","","99.30","","","","","","NA"
"-123.53","48.30","RACE ROCKS","1016640","2023-01-15 23:00","2023","01","15","23:00","","M","","M","","M","","","1","","14","","","","99.38","","","","","","NA"
"-123.53","48.30","RACE ROCKS","1016640","2023-01-16 00:00","2023","01","16","00:00","","M","","M","","M","","","1","","18","","","","99.44","","","","","","NA"
"-123.53","48.30","RACE ROCKS","1016640","2023-01-16 01:00","2023","01","16","01:00","","M","","M","","M","","","1","","17","","","","99.50","","","","","","NA"
"-123.53","48.30","RACE ROCKS","1016640","2023-01-16 02:00","2023","01","16","02:00","","M","","M","","M","","","36","","14","","","","99.56","","","","","","NA"
"-123.53","48.30","RACE ROCKS","1016640","2023-01-16 03:00","2023","01","16","03:00","","M","","M","","M","","","35","","5","","","","99.65","","","","","","NA"
"-123.53","48.30","RACE ROCKS","1016640","2023-01-16 04:00","2023","01","16","04:00","","M","","M","","M","","","36","","8","","","","99.73","","","","","","NA"
"-123.53","48.30","RACE ROCKS","1016640","2023-01-16 05:00","2023","01","16","05:00","","M","","M","","M","","","1","","8","","","","99.78","","","","","","NA"
"-123.53","48.30","RACE ROCKS","1016640","2023-01-16 06:00","2023","01","16","06:00","","M","","M","","M","","","1","","14","","","","99.83","","","","","","NA"
"-123.53","48.30","RACE ROCKS","1016640","2023-01-16 07:00","2023","01","16","07:00","","M","","M","","M","","","36","","10","","","","99.89","","","","","","NA"
"-123.53","48.30","RACE ROCKS","1016640","2023-01-16 08:00","2023","01","16","08:00","","M","","M","","M","","","36","","10","","","","99.94","","","","","","NA"
"-123.53","48.30","RACE ROCKS","1016640","2023-01-16 09:00","2023","01","16","09:00","","M","","M","","M","","","1","","8","","","","100.04","","","","","","NA"
"-123.53","48.30","RACE ROCKS","1016640","2023-01-16 10:00","2023","01","16","10:00","","M","","M","","M","","","36","","16","","","","100.10","","","","","","NA"
"-123.53","48.30","RACE ROCKS","1016640","2023-01-16 11:00","2023","01","16","11:00","","M","","M","","M","","","2","","18","","","","100.15","","","","","","NA"
"-123.53","48.30","RACE ROCKS","1016640","2023-01-16 12:00","2023","01","16","12:00","","M","","M","","M","","","4","","17","","","","100.16","","","","","","NA"
"-123.53","48.30","RACE ROCKS","1016640","2023-01-16 13:00","2023","01","16","13:00","","M","","M","","M","","","6","","13","","","","100.17","","","","","","NA"
"-123.53","48.30","RACE ROCKS","1016640","2023-01-16 14:00","2023","01","16","14:00","","M","","M","","M","","","5","","11","","","","100.17","","","","","","NA"
"-123.53","48.30","RACE ROCKS","1016640","2023-01-16 15:00","2023","01","16","15:00","","M","","M","","M","","","3","","9","","","","100.23","","","","","","NA"
"-123.53","48.30","RACE ROCKS","1016640","2023-01-16 16:00","2023","01","16","16:00","","M","","M","","M","","","3","","11","","","","100.28","","","","","","NA"
"-123.53","48.30","RACE ROCKS","1016640","2023-01-16 17:00","2023","01","16","17:00","","M","","M","","M","","","2","","14","","","","100.32","","","","","","NA"
"-123.53","48.30","RACE ROCKS","1016640","2023-01-16 18:00","2023","01","16","18:00","","M","","M","","M","","","36","","17","","","","100.36","","","","","","NA"
"-123.53","48.30","RACE ROCKS","1016640","2023-01-16 19:00","2023","01","16","19:00","","M","","M","","M","","","35","","11","","","","100.39","","","","","","NA"
"-123.53","48.30","RACE ROCKS","1016640","2023-01-16 20:00","2023","01","16","20:00","","M","","M","","M","","","33","","6","","","","100.44","","","","","","NA"
"-123.53","48.30","RACE ROCKS","1016640","2023-01-16 21:00","2023","01","16","21:00","","M","","M","","M","","","34","","7","","","","100.47","","","","","","NA"
"-123.53","48.30","RACE ROCKS","1016640","2023-01-16 22:00","2023","01","16","22:00","","M","","M","","M","","","31","","5","","","","100.51","","","","","","NA"
"-123.53","48.30","RACE ROCKS","1016640","2023-01-16 23:00","2023","01","16","23:00","","M","","M","","M","","","1","","11","","","","100.54","","","","","","NA"
"-123.53","48.30","RACE ROCKS","1016640","2023-01-17 00:00","2023","01","17","00:00","","M","","M","","M","","","35","","12","","","","100.61","","","","","","NA"
"-123.53","48.30","RACE ROCKS","1016640","2023-01-17 01:00","2023","01","17","01:00","","M","","M","","M","","","35","","13","","","","100.62","","","","","","NA"
"-123.53","48.30","RACE ROCKS","1016640","2023-01-17 02:00","2023","01","17","02:00","","M","","M","","M","","","2","","8","","","","100.67","","","","","","NA"
"-123.53","48.30","RACE ROCKS","1016640","2023-01-17 03:00","2023","01","17","03:00","","M","","M","","M","","","8","","5","","","","100.71","","","","","","NA"
"-123.53","48.30","RACE ROCKS","1016640","2023-01-17 04:00","2023","01","17","04:00","","M","","M","","M","","","7","","4","","","","100.74","","","","","","NA"
"-123.53","48.30","RACE ROCKS","1016640","2023-01-17 05:00","2023","01","17","05:00","","M","","M","","M","","","2","","4","","","","100.75","","","","","","NA"
"-123.53","48.30","RACE ROCKS","1016640","2023-01-17 06:00","2023","01","17","06:00","","M","","M","","M","","","7","","3","","","","100.77","","","","","","NA"
"-123.53","48.30","RACE ROCKS","1016640","2023-01-17 07:00","2023","01","17","07:00","","M","","M","","M","","","16","","7","","","","100.80","","","","","","NA"
"-123.53","48.30","RACE ROCKS","1016640","2023-01-17 08:00","2023","01","17","08:00","","M","","M","","M","","","15","","4","","","","100.83","","","","","","NA"
"-123.53","48.30","RACE ROCKS","1016640","2023-01-17 09:00","2023","01","17","09:00","","M","","M","","M","","","9","","6","","","","100.87","","","","","","NA"
"-123.53","48.30","RACE ROCKS","1016640","2023-01-17 10:00","2023","01","17","10:00","","M","","M","","M","","","6","","7","","","","100.89","","","","","","NA"
"-123.53","48.30","RACE ROCKS","1016640","2023-01-17 11:00","2023","01","17","11:00","","M","","M","","M","","","5","","8","","","","100.90","","","","","","NA"
"-123.53","48.30","RACE ROCKS","1016640","2023-01-17 12:00","2023","01","17","12:00","","M","","M","","M","","","7","","16","","","","100.87","","","","","","NA"
"-123.53","48.30","RACE ROCKS","1016640","2023-01-17 13:00","2023","01","17","13:00","","M","","M","","M","","","5","","22","","","","100.80","","","","","","NA"
"-123.53","48.30","RACE ROCKS","1016640","2023-01-17 14:00","2023","01","17","14:00","","M","","M","","M","","","5","","23","","","","100.77","","","","","","NA"
"-123.53","48.30","RACE ROCKS","1016640","2023-01-17 15:00","2023","01","17","15:00","","M","","M","","M","","","3","","22","","","","100.74","","","","","","NA"
"-123.53","48.30","RACE ROCKS","1016640","2023-01-17 16:00","2023","01","17","16:00","","M","","M","","M","","","6","","22","","","","100.70","","","","","","NA"
"-123.53","48.30","RACE ROCKS","1016640","2023-01-17 17:00","2023","01","17","17:00","","M","","M","","M","","","1","","26","","","","100.65","","","","","","NA"
"-123.53","48.30","RACE ROCKS","1016640","2023-01-17 18:00","2023","01","17","18:00","","M","","M","","M","","","36","","30","","","","100.60","","","","","","NA"
"-123.53","48.30","RACE ROCKS","1016640","2023-01-17 19:00","2023","01","17","19:00","","M","","M","","M","","","36","","25","","","","100.59","","","","","","NA"
"-123.53","48.30","RACE ROCKS","1016640","2023-01-17 20:00","2023","01","17","20:00","","M","","M","","M","","","1","","27","","","","100.53","","","","","","NA"
"-123.53","48.30","RACE ROCKS","1016640","2023-01-17 21:00","2023","01","17","21:00","","M","","M","","M","","","6","","12","","","","100.54","","","","","","NA"
"-123.53","48.30","RACE ROCKS","1016640","2023-01-17 22:00","2023","01","17","22:00","","M","","M","","M","","","1","","15","","","","100.52","","","","","","NA"
"-123.53","48.30","RACE ROCKS","1016640","2023-01-17 23:00","2023","01","17","23:00","","M","","M","","M","","","2","","15","","","","100.50","","","","","","NA"
"-123.53","48.30","RACE ROCKS","1016640","2023-01-18 00:00","2023","01","18","00:00","","M","","M","","M","","","36","","19","","","","100.44","","","","","","NA"
"-123.53","48.30","RACE ROCKS","1016640","2023-01-18 01:00","2023","01","18","01:00","","M","","M","","M","","","35","","18","","","","100.35","","","","","","NA"
"-123.53","48.30","RACE ROCKS","1016640","2023-01-18 02:00","2023","01","18","02:00","","M","","M","","M","","","1","","18","","","","100.26","","","","","","NA"
"-123.53","48.30","RACE ROCKS","1016640","2023-01-18 03:00","2023","01","18","03:00","","M","","M","","M","","","2","","19","","","","100.19","","","","","","NA"
"-123.53","48.30","RACE ROCKS","1016640","2023-01-18 04:00","2023","01","18","04:00","","M","","M","","M","","","2","","22","","","","100.08","","","","","","NA"
"-123.53","48.30","RACE ROCKS","1016640","2023-01-18 05:00","2023","01","18","05:00","","M","","M","","M","","","2","","20","","","","99.93","","","","","","NA"
"-123.53","48.30","RACE ROCKS","1016640","2023-01-18 06:00","2023","01","18","06:00","","M","","M","","M","","","13","","26","","","","99.98","","","","","","NA"
"-123.53","48.30","RACE ROCKS","1016640","2023-01-18 07:00","2023","01","18","07:00","","M","","M","","M","","","28","","48","","","","100.08","","","","","","NA"
"-123.53","48.30","RACE ROCKS","1016640","2023-01-18 08:00","2023","01","18","08:00","","M","","M","","M","","","28","","39","","","","100.23","","","","","","NA"
"-123.53","48.30","RACE ROCKS","1016640","2023-01-18 09:00","2023","01","18","09:00","","M","","M","","M","","","28","","23","","","","100.35","","","","","","NA"
"-123.53","48.30","RACE ROCKS","1016640","2023-01-18 10:00","2023","01","18","10:00","","M","","M","","M","","","26","","28","","","","100.45","","","","","","NA"
"-123.53","48.30","RACE ROCKS","1016640","2023-01-18 11:00","2023","01","18","11:00","","M","","M","","M","","","26","","30","","","","100.48","","","","","","NA"
"-123.53","48.30","RACE ROCKS","1016640","2023-01-18 12:00","2023","01","18","12:00","","M","","M","","M","","","26","","45","","","","100.48","","","","","","NA"
"-123.53","48.30","RACE ROCKS","1016640","2023-01-18 13:00","2023","01","18","13:00","","M","","M","","M","","","25","","41","","","","100.57","","","","","","NA"
"-123.53","48.30","RACE ROCKS","1016640","2023-01-18 14:00","2023","01","18","14:00","","M","","M","","M","","","26","","40","","","","100.64","","","","","","NA"
"-123.53","48.30","RACE ROCKS","1016640","2023-01-18 15:00","2023","01","18","15:00","","M","","M","","M","","","27","","42","","","","100.77","","","","","","NA"
"-123.53","48.30","RACE ROCKS","1016640","2023-01-18 16:00","2023","01","18","16:00","","M","","M","","M","","","27","","46","","","","100.87","","","","","","NA"
"-123.53","48.30","RACE ROCKS","1016640","2023-01-18 17:00","2023","01","18","17:00","","M","","M","","M","","","27","","34","","","","100.99","","","","","","NA"
"-123.53","48.30","RACE ROCKS","1016640","2023-01-18 18:00","2023","01","18","18:00","","M","","M","","M","","","27","","38","","","","101.04","","","","","","NA"
"-123.53","48.30","RACE ROCKS","1016640","2023-01-18 19:00","2023","01","18","19:00","","M","","M","","M","","","26","","35","","","","101.14","","","","","","NA"
"-123.53","48.30","RACE ROCKS","1016640","2023-01-18 20:00","2023","01","18","20:00","","M","","M","","M","","","26","","40","","","","101.19","","","","","","NA"
"-123.53","48.30","RACE ROCKS","1016640","2023-01-18 21:00","2023","01","18","21:00","","M","","M","","M","","","26","","45","","","","101.20","","","","","","NA"
"-123.53","48.30","RACE ROCKS","1016640","2023-01-18 22:00","2023","01","18","22:00","","M","","M","","M","","","27","","38","","","","101.37","","","","","","NA"
"-123.53","48.30","RACE ROCKS","1016640","2023-01-18 23:00","2023","01","18","23:00","","M","","M","","M","","","28","","28","","","","101.51","","","","","","NA"
"-123.53","48.30","RACE ROCKS","1016640","2023-01-19 00:00","2023","01","19","00:00","","M","","M","","M","","","29","","20","","","","101.61","","","","","","NA"
"-123.53","48.30","RACE ROCKS","1016640","2023-01-19 01:00","2023","01","19","01:00","","M","","M","","M","","","28","","19","","","","101.66","","","","","","NA"
"-123.53","48.30","RACE ROCKS","1016640","2023-01-19 02:00","2023","01","19","02:00","","M","","M","","M","","","29","","15","","","","101.76","","","","","","NA"
"-123.53","48.30","RACE ROCKS","1016640","2023-01-19 03:00","2023","01","19","03:00","","M","","M","","M","","","27","","17","","","","101.83","","","","","","NA"
"-123.53","48.30","RACE ROCKS","1016640","2023-01-19 04:00","2023","01","19","04:00","","M","","M","","M","","","29","","22","","","","101.89","","","","","","NA"
"-123.53","48.30","RACE ROCKS","1016640","2023-01-19 05:00","2023","01","19","05:00","","M","","M","","M","","","29","","21","","","","101.98","","","","","","NA"
"-123.53","48.30","RACE ROCKS","1016640","2023-01-19 06:00","2023","01","19","06:00","","M","","M","","M","","","27","","16","","","","102.01","","","","","","NA"
"-123.53","48.30","RACE ROCKS","1016640","2023-01-19 07:00","2023","01","19","07:00","","M","","M","","M","","","28","","12","","","","102.10","","","","","","NA"
"-123.53","48.30","RACE ROCKS","1016640","2023-01-19 08:00","2023","01","19","08:00","","M","","M","","M","","","28","","8","","","","102.16","","","","","","NA"
"-123.53","48.30","RACE ROCKS","1016640","2023-01-19 09:00","2023","01","19","09:00","","M","","M","","M","","","4","","6","","","","102.26","","","","","","NA"
"-123.53","48.30","RACE ROCKS","1016640","2023-01-19 10:00","2023","01","19","10:00","","M","","M","","M","","","3","","9","","","","102.38","","","","","","NA"
"-123.53","48.30","RACE ROCKS","1016640","2023-01-19 11:00","2023","01","19","11:00","","M","","M","","M","","","3","","7","","","","102.44","","","","","","NA"
"-123.53","48.30","RACE ROCKS","1016640","2023-01-19 12:00","2023","01","19","12:00","","M","","M","","M","","","4","","9","","","","102.47","","","","","","NA"
"-123.53","48.30","RACE ROCKS","1016640","2023-01-19 13:00","2023","01","19","13:00","","M","","M","","M","","","7","","5","","","","102.49","","","","","","NA"
"-123.53","48.30","RACE ROCKS","1016640","2023-01-19 14:00","2023","01","19","14:00","","M","","M","","M","","","9","","5","","","","102.49","","","","","","NA"
"-123.53","48.30","RACE ROCKS","1016640","2023-01-19 15:00","2023","01","19","15:00","","M","","M","","M","","","9","","9","","","","102.53","","","","","","NA"
"-123.53","48.30","RACE ROCKS","1016640","2023-01-19 16:00","2023","01","19","16:00","","M","","M","","M","","","10","","14","","","","102.55","","","","","","NA"
"-123.53","48.30","RACE ROCKS","1016640","2023-01-19 17:00","2023","01","19","17:00","","M","","M","","M","","","12","","21","","","","102.56","","","","","","NA"
"-123.53","48.30","RACE ROCKS","1016640","2023-01-19 18:00","2023","01","19","18:00","","M","","M","","M","","","12","","22","","","","102.57","","","","","","NA"
"-123.53","48.30","RACE ROCKS","1016640","2023-01-19 19:00","2023","01","19","19:00","","M","","M","","M","","","11","","19","","","","102.61","","","","","","NA"
"-123.53","48.30","RACE ROCKS","1016640","2023-01-19 20:00","2023","01","19","20:00","","M","","M","","M","","","11","","9","","","","102.68","","","","","","NA"
"-123.53","48.30","RACE ROCKS","1016640","2023-01-19 21:00","2023","01","19","21:00","","M","","M","","M","","","36","","16","","","","102.73","","","","","","NA"
"-123.53","48.30","RACE ROCKS","1016640","2023-01-19 22:00","2023","01","19","22:00","","M","","M","","M","","","1","","18","","","","102.79","","","","","","NA"
"-123.53","48.30","RACE ROCKS","1016640","2023-01-19 23:00","2023","01","19","23:00","","M","","M","","M","","","3","","13","","","","102.75","","","","","","NA"
"-123.53","48.30","RACE ROCKS","1016640","2023-01-20 00:00","2023","01","20","00:00","","M","","M","","M","","","5","","11","","","","102.79","","","","","","NA"
"-123.53","48.30","RACE ROCKS","1016640","2023-01-20 01:00","2023","01","20","01:00","","M","","M","","M","","","1","","23","","","","102.81","","","","","","NA"
"-123.53","48.30","RACE ROCKS","1016640","2023-01-20 02:00","2023","01","20","02:00","","M","","M","","M","","","3","","17","","","","102.82","","","","","","NA"
"-123.53","48.30","RACE ROCKS","1016640","2023-01-20 03:00","2023","01","20","03:00","","M","","M","","M","","","7","","15","","","","102.85","","","","","","NA"
"-123.53","48.30","RACE ROCKS","1016640","2023-01-20 04:00","2023","01","20","04:00","","M","","M","","M","","","5","","19","","","","102.81","","","","","","NA"
"-123.53","48.30","RACE ROCKS","1016640","2023-01-20 05:00","2023","01","20","05:00","","M","","M","","M","","","5","","23","","","","102.81","","","","","","NA"
"-123.53","48.30","RACE ROCKS","1016640","2023-01-20 06:00","2023","01","20","06:00","","M","","M","","M","","","5","","27","","","","102.85","","","","","","NA"
"-123.53","48.30","RACE ROCKS","1016640","2023-01-20 07:00","2023","01","20","07:00","","M","","M","","M","","","6","","24","","","","102.85","","","","","","NA"
"-123.53","48.30","RACE ROCKS","1016640","2023-01-20 08:00","2023","01","20","08:00","","M","","M","","M","","","4","","18","","","","102.87","","","","","","NA"
"-123.53","48.30","RACE ROCKS","1016640","2023-01-20 09:00","2023","01","20","09:00","","M","","M","","M","","","6","","26","","","","102.93","","","","","","NA"
"-123.53","48.30","RACE ROCKS","1016640","2023-01-20 10:00","2023","01","20","10:00","","M","","M","","M","","","8","","20","","","","102.98","","","","","","NA"
"-123.53","48.30","RACE ROCKS","1016640","2023-01-20 11:00","2023","01","20","11:00","","M","","M","","M","","","5","","18","","","","103.01","","","","","","NA"
"-123.53","48.30","RACE ROCKS","1016640","2023-01-20 12:00","2023","01","20","12:00","","M","","M","","M","","","5","","13","","","","102.97","","","","","","NA"
"-123.53","48.30","RACE ROCKS","1016640","2023-01-20 13:00","2023","01","20","13:00","","M","","M","","M","","","4","","17","","","","102.93","","","","","","NA"
"-123.53","48.30","RACE ROCKS","1016640","2023-01-20 14:00","2023","01","20","14:00","","M","","M","","M","","","6","","19","","","","102.90","","","","","","NA"
"-123.53","48.30","RACE ROCKS","1016640","2023-01-20 15:00","2023","01","20","15:00","","M","","M","","M","","","7","","18","","","","102.89","","","","","","NA"
"-123.53","48.30","RACE ROCKS","1016640","2023-01-20 16:00","2023","01","20","16:00","","M","","M","","M","","","7","","16","","","","102.86","","","","","","NA"
"-123.53","48.30","RACE ROCKS","1016640","2023-01-20 17:00","2023","01","20","17:00","","M","","M","","M","","","5","","19","","","","102.83","","","","","","NA"
"-123.53","48.30","RACE ROCKS","1016640","2023-01-20 18:00","2023","01","20","18:00","","M","","M","","M","","","5","","17","","","","102.79","","","","","","NA"
"-123.53","48.30","RACE ROCKS","1016640","2023-01-20 19:00","2023","01","20","19:00","","M","","M","","M","","","8","","22","","","","102.73","","","","","","NA"
"-123.53","48.30","RACE ROCKS","1016640","2023-01-20 20:00","2023","01","20","20:00","","M","","M","","M","","","4","","18","","","","102.69","","","","","","NA"
"-123.53","48.30","RACE ROCKS","1016640","2023-01-20 21:00","2023","01","20","21:00","","M","","M","","M","","","4","","18","","","","102.65","","","","","","NA"
"-123.53","48.30","RACE ROCKS","1016640","2023-01-20 22:00","2023","01","20","22:00","","M","","M","","M","","","5","","20","","","","102.59","","","","","","NA"
"-123.53","48.30","RACE ROCKS","1016640","2023-01-20 23:00","2023","01","20","23:00","","M","","M","","M","","","5","","19","","","","102.56","","","","","","NA"
"-123.53","48.30","RACE ROCKS","1016640","2023-01-21 00:00","2023","01","21","00:00","","M","","M","","M","","","1","","22","","","","102.53","","","","","","NA"
"-123.53","48.30","RACE ROCKS","1016640","2023-01-21 01:00","2023","01","21","01:00","","M","","M","","M","","","2","","16","","","","102.48","","","","","","NA"
"-123.53","48.30","RACE ROCKS","1016640","2023-01-21 02:00","2023","01","21","02:00","","M","","M","","M","","","1","","18","","","","102.47","","","","","","NA"
"-123.53","48.30","RACE ROCKS","1016640","2023-01-21 03:00","2023","01","21","03:00","","M","","M","","M","","","4","","22","","","","102.35","","","","","","NA"
"-123.53","48.30","RACE ROCKS","1016640","2023-01-21 04:00","2023","01","21","04:00","","M","","M","","M","","","3","","25","","","","102.19","","","","","","NA"
"-123.53","48.30","RACE ROCKS","1016640","2023-01-21 05:00","2023","01","21","05:00","","M","","M","","M","","","7","","26","","","","102.07","","","","","","NA"
"-123.53","48.30","RACE ROCKS","1016640","2023-01-21 06:00","2023","01","21","06:00","","M","","M","","M","","","7","","33","","","","101.93","","","","","","NA"
"-123.53","48.30","RACE ROCKS","1016640","2023-01-21 07:00","2023","01","21","07:00","","M","","M","","M","","","8","","29","","","","101.79","","","","","","NA"
"-123.53","48.30","RACE ROCKS","1016640","2023-01-21 08:00","2023","01","21","08:00","","M","","M","","M","","","7","","15","","","","101.79","","","","","","NA"
"-123.53","48.30","RACE ROCKS","1016640","2023-01-21 09:00","2023","01","21","09:00","","M","","M","","M","","","32","","14","","","","101.75","","","","","","NA"
"-123.53","48.30","RACE ROCKS","1016640","2023-01-21 10:00","2023","01","21","10:00","","M","","M","","M","","","4","","19","","","","101.63","","","","","","NA"
"-123.53","48.30","RACE ROCKS","1016640","2023-01-21 11:00","2023","01","21","11:00","","M","","M","","M","","","5","","17","","","","101.60","","","","","","NA"
"-123.53","48.30","RACE ROCKS","1016640","2023-01-21 12:00","2023","01","21","12:00","","M","","M","","M","","","5","","23","","","","101.46","","","","","","NA"
"-123.53","48.30","RACE ROCKS","1016640","2023-01-21 13:00","2023","01","21","13:00","","M","","M","","M","","","1","","23","","","","101.38","","","","","","NA"
"-123.53","48.30","RACE ROCKS","1016640","2023-01-21 14:00","2023","01","21","14:00","","M","","M","","M","","","1","","34","","","","101.30","","","","","","NA"
"-123.53","48.30","RACE ROCKS","1016640","2023-01-21 15:00","2023","01","21","15:00","","M","","M","","M","","","36","","38","","","","101.36","","","","","","NA"
"-123.53","48.30","RACE ROCKS","1016640","2023-01-21 16:00","2023","01","21","16:00","","M","","M","","M","","","33","","28","","","","101.50","","","","","","NA"
"-123.53","48.30","RACE ROCKS","1016640","2023-01-21 17:00","2023","01","21","17:00","","M","","M","","M","","","32","","20","","","","101.64","","","","","","NA"
"-123.53","48.30","RACE ROCKS","1016640","2023-01-21 18:00","2023","01","21","18:00","","M","","M","","M","","","31","","12","","","","101.71","","","","","","NA"
"-123.53","48.30","RACE ROCKS","1016640","2023-01-21 19:00","2023","01","21","19:00","","M","","M","","M","","","25","","37","","","","101.75","","","","","","NA"
"-123.53","48.30","RACE ROCKS","1016640","2023-01-21 20:00","2023","01","21","20:00","","M","","M","","M","","","26","","46","","","","101.86","","","","","","NA"
"-123.53","48.30","RACE ROCKS","1016640","2023-01-21 21:00","2023","01","21","21:00","","M","","M","","M","","","28","","44","","","","101.96","","","","","","NA"
"-123.53","48.30","RACE ROCKS","1016640","2023-01-21 22:00","2023","01","21","22:00","","M","","M","","M","","","28","","24","","","","102.04","","","","","","NA"
"-123.53","48.30","RACE ROCKS","1016640","2023-01-21 23:00","2023","01","21","23:00","","M","","M","","M","","","28","","27","","","","102.14","","","","","","NA"
"-123.53","48.30","RACE ROCKS","1016640","2023-01-22 00:00","2023","01","22","00:00","","M","","M","","M","","","27","","23","","","","102.15","","","","","","NA"
"-123.53","48.30","RACE ROCKS","1016640","2023-01-22 01:00","2023","01","22","01:00","","M","","M","","M","","","28","","33","","","","102.21","","","","","","NA"
"-123.53","48.30","RACE ROCKS","1016640","2023-01-22 02:00","2023","01","22","02:00","","M","","M","","M","","","28","","27","","","","102.29","","","","","","NA"
"-123.53","48.30","RACE ROCKS","1016640","2023-01-22 03:00","2023","01","22","03:00","","M","","M","","M","","","28","","27","","","","102.37","","","","","","NA"
"-123.53","48.30","RACE ROCKS","1016640","2023-01-22 04:00","2023","01","22","04:00","","M","","M","","M","","","27","","28","","","","102.38","","","","","","NA"
"-123.53","48.30","RACE ROCKS","1016640","2023-01-22 05:00","2023","01","22","05:00","","M","","M","","M","","","28","","23","","","","102.48","","","","","","NA"
"-123.53","48.30","RACE ROCKS","1016640","2023-01-22 06:00","2023","01","22","06:00","","M","","M","","M","","","28","","18","","","","102.51","","","","","","NA"
"-123.53","48.30","RACE ROCKS","1016640","2023-01-22 07:00","2023","01","22","07:00","","M","","M","","M","","","28","","19","","","","102.56","","","","","","NA"
"-123.53","48.30","RACE ROCKS","1016640","2023-01-22 08:00","2023","01","22","08:00","","M","","M","","M","","","35","","9","","","","102.63","","","","","","NA"
"-123.53","48.30","RACE ROCKS","1016640","2023-01-22 09:00","2023","01","22","09:00","","M","","M","","M","","","1","","13","","","","102.69","","","","","","NA"
"-123.53","48.30","RACE ROCKS","1016640","2023-01-22 10:00","2023","01","22","10:00","","M","","M","","M","","","1","","16","","","","102.75","","","","","","NA"
"-123.53","48.30","RACE ROCKS","1016640","2023-01-22 11:00","2023","01","22","11:00","","M","","M","","M","","","3","","12","","","","102.76","","","","","","NA"
"-123.53","48.30","RACE ROCKS","1016640","2023-01-22 12:00","2023","01","22","12:00","","M","","M","","M","","","7","","8","","","","102.75","","","","","","NA"
"-123.53","48.30","RACE ROCKS","1016640","2023-01-22 13:00","2023","01","22","13:00","","M","","M","","M","","","11","","8","","","","102.73","","","","","","NA"
"-123.53","48.30","RACE ROCKS","1016640","2023-01-22 14:00","2023","01","22","14:00","","M","","M","","M","","","10","","3","","","","102.74","","","","","","NA"
"-123.53","48.30","RACE ROCKS","1016640","2023-01-22 15:00","2023","01","22","15:00","","M","","M","","M","","","8","","11","","","","102.80","","","","","","NA"
"-123.53","48.30","RACE ROCKS","1016640","2023-01-22 16:00","2023","01","22","16:00","","M","","M","","M","","","9","","20","","","","102.80","","","","","","NA"
"-123.53","48.30","RACE ROCKS","1016640","2023-01-22 17:00","2023","01","22","17:00","","M","","M","","M","","","9","","18","","","","102.82","","","","","","NA"
"-123.53","48.30","RACE ROCKS","1016640","2023-01-22 18:00","2023","01","22","18:00","","M","","M","","M","","","6","","18","","","","102.83","","","","","","NA"
"-123.53","48.30","RACE ROCKS","1016640","2023-01-22 19:00","2023","01","22","19:00","","M","","M","","M","","","8","","13","","","","102.82","","","","","","NA"
"-123.53","48.30","RACE ROCKS","1016640","2023-01-22 20:00","2023","01","22","20:00","","M","","M","","M","","","1","","15","","","","102.83","","","","","","NA"
"-123.53","48.30","RACE ROCKS","1016640","2023-01-22 21:00","2023","01","22","21:00","","M","","M","","M","","","2","","15","","","","102.78","","","","","","NA"
"-123.53","48.30","RACE ROCKS","1016640","2023-01-22 22:00","2023","01","22","22:00","","M","","M","","M","","","1","","15","","","","102.77","","","","","","NA"
"-123.53","48.30","RACE ROCKS","1016640","2023-01-22 23:00","2023","01","22","23:00","","M","","M","","M","","","2","","14","","","","102.73","","","","","","NA"
"-123.53","48.30","RACE ROCKS","1016640","2023-01-23 00:00","2023","01","23","00:00","","M","","M","","M","","","1","","11","","","","102.73","","","","","","NA"
"-123.53","48.30","RACE ROCKS","1016640","2023-01-23 01:00","2023","01","23","01:00","","M","","M","","M","","","36","","10","","","","102.70","","","","","","NA"
"-123.53","48.30","RACE ROCKS","1016640","2023-01-23 02:00","2023","01","23","02:00","","M","","M","","M","","","36","","19","","","","102.80","","","","","","NA"
"-123.53","48.30","RACE ROCKS","1016640","2023-01-23 03:00","2023","01","23","03:00","","M","","M","","M","","","1","","13","","","","102.86","","","","","","NA"
"-123.53","48.30","RACE ROCKS","1016640","2023-01-23 04:00","2023","01","23","04:00","","M","","M","","M","","","2","","7","","","","102.85","","","","","","NA"
"-123.53","48.30","RACE ROCKS","1016640","2023-01-23 05:00","2023","01","23","05:00","","M","","M","","M","","","7","","6","","","","102.81","","","","","","NA"
"-123.53","48.30","RACE ROCKS","1016640","2023-01-23 06:00","2023","01","23","06:00","","M","","M","","M","","","1","","5","","","","102.88","","","","","","NA"
"-123.53","48.30","RACE ROCKS","1016640","2023-01-23 07:00","2023","01","23","07:00","","M","","M","","M","","","5","","4","","","","102.81","","","","","","NA"
"-123.53","48.30","RACE ROCKS","1016640","2023-01-23 08:00","2023","01","23","08:00","","M","","M","","M","","","4","","15","","","","102.81","","","","","","NA"
"-123.53","48.30","RACE ROCKS","1016640","2023-01-23 09:00","2023","01","23","09:00","","M","","M","","M","","","8","","8","","","","102.89","","","","","","NA"
"-123.53","48.30","RACE ROCKS","1016640","2023-01-23 10:00","2023","01","23","10:00","","M","","M","","M","","","7","","11","","","","102.79","","","","","","NA"
"-123.53","48.30","RACE ROCKS","1016640","2023-01-23 11:00","2023","01","23","11:00","","M","","M","","M","","","1","","8","","","","102.96","","","","","","NA"
"-123.53","48.30","RACE ROCKS","1016640","2023-01-23 12:00","2023","01","23","12:00","","M","","M","","M","","","14","","8","","","","102.85","","","","","","NA"
"-123.53","48.30","RACE ROCKS","1016640","2023-01-23 13:00","2023","01","23","13:00","","M","","M","","M","","","26","","11","","","","102.93","","","","","","NA"
"-123.53","48.30","RACE ROCKS","1016640","2023-01-23 14:00","2023","01","23","14:00","","M","","M","","M","","","23","","13","","","","102.92","","","","","","NA"
"-123.53","48.30","RACE ROCKS","1016640","2023-01-23 15:00","2023","01","23","15:00","","M","","M","","M","","","20","","10","","","","102.86","","","","","","NA"
"-123.53","48.30","RACE ROCKS","1016640","2023-01-23 16:00","2023","01","23","16:00","","M","","M","","M","","","16","","11","","","","102.84","","","","","","NA"
"-123.53","48.30","RACE ROCKS","1016640","2023-01-23 17:00","2023","01","23","17:00","","M","","M","","M","","","10","","3","","","","102.88","","","","","","NA"
"-123.53","48.30","RACE ROCKS","1016640","2023-01-23 18:00","2023","01","23","18:00","","M","","M","","M","","","5","","4","","","","102.95","","","","","","NA"
"-123.53","48.30","RACE ROCKS","1016640","2023-01-23 19:00","2023","01","23","19:00","","M","","M","","M","","","10","","8","","","","102.92","","","","","","NA"
"-123.53","48.30","RACE ROCKS","1016640","2023-01-23 20:00","2023","01","23","20:00","","M","","M","","M","","","3","","6","","","","102.91","","","","","","NA"
"-123.53","48.30","RACE ROCKS","1016640","2023-01-23 21:00","2023","01","23","21:00","","M","","M","","M","","","9","","8","","","","102.91","","","","","","NA"
"-123.53","48.30","RACE ROCKS","1016640","2023-01-23 22:00","2023","01","23","22:00","","M","","M","","M","","","2","","7","","","","102.94","","","","","","NA"
"-123.53","48.30","RACE ROCKS","1016640","2023-01-23 23:00","2023","01","23","23:00","","M","","M","","M","","","1","","13","","","","102.95","","","","","","NA"
"-123.53","48.30","RACE ROCKS","1016640","2023-01-24 00:00","2023","01","24","00:00","","M","","M","","M","","","5","","6","","","","102.95","","","","","","NA"
"-123.53","48.30","RACE ROCKS","1016640","2023-01-24 01:00","2023","01","24","01:00","","M","","M","","M","","","2","","9","","","","102.91","","","","","","NA"
"-123.53","48.30","RACE ROCKS","1016640","2023-01-24 02:00","2023","01","24","02:00","","M","","M","","M","","","1","","11","","","","102.90","","","","","","NA"
"-123.53","48.30","RACE ROCKS","1016640","2023-01-24 03:00","2023","01","24","03:00","","M","","M","","M","","","36","","12","","","","102.96","","","","","","NA"
"-123.53","48.30","RACE ROCKS","1016640","2023-01-24 04:00","2023","01","24","04:00","","M","","M","","M","","","3","","7","","","","102.95","","","","","","NA"
"-123.53","48.30","RACE ROCKS","1016640","2023-01-24 05:00","2023","01","24","05:00","","M","","M","","M","","","25","","2","","","","102.93","","","","","","NA"
"-123.53","48.30","RACE ROCKS","1016640","2023-01-24 06:00","2023","01","24","06:00","","M","","M","","M","","","14","","6","","","","102.91","","","","","","NA"
"-123.53","48.30","RACE ROCKS","1016640","2023-01-24 07:00","2023","01","24","07:00","","M","","M","","M","","","19","","3","","","","102.95","","","","","","NA"
"-123.53","48.30","RACE ROCKS","1016640","2023-01-24 08:00","2023","01","24","08:00","","M","","M","","M","","","17","","16","","","","103.00","","","","","","NA"
"-123.53","48.30","RACE ROCKS","1016640","2023-01-24 09:00","2023","01","24","09:00","","M","","M","","M","","","28","","26","","","","103.02","","","","","","NA"
"-123.53","48.30","RACE ROCKS","1016640","2023-01-24 10:00","2023","01","24","10:00","","M","","M","","M","","","28","","33","","","","103.04","","","","","","NA"
"-123.53","48.30","RACE ROCKS","1016640","2023-01-24 11:00","2023","01","24","11:00","","M","","M","","M","","","28","","45","","","","103.01","","","","","","NA"
"-123.53","48.30","RACE ROCKS","1016640","2023-01-24 12:00","2023","01","24","12:00","","M","","M","","M","","","28","","40","","","","103.05","","","","","","NA"
"-123.53","48.30","RACE ROCKS","1016640","2023-01-24 13:00","2023","01","24","13:00","","M","","M","","M","","","28","","46","","","","103.04","","","","","","NA"
"-123.53","48.30","RACE ROCKS","1016640","2023-01-24 14:00","2023","01","24","14:00","","M","","M","","M","","","28","","40","","","","103.06","","","","","","NA"
"-123.53","48.30","RACE ROCKS","1016640","2023-01-24 15:00","2023","01","24","15:00","","M","","M","","M","","","28","","35","","","","103.04","","","","","","NA"
"-123.53","48.30","RACE ROCKS","1016640","2023-01-24 16:00","2023","01","24","16:00","","M","","M","","M","","","28","","40","","","","103.12","","","","","","NA"
"-123.53","48.30","RACE ROCKS","1016640","2023-01-24 17:00","2023","01","24","17:00","","M","","M","","M","","","28","","40","","","","103.11","","","","","","NA"
"-123.53","48.30","RACE ROCKS","1016640","2023-01-24 18:00","2023","01","24","18:00","","M","","M","","M","","","29","","36","","","","103.15","","","","","","NA"
"-123.53","48.30","RACE ROCKS","1016640","2023-01-24 19:00","2023","01","24","19:00","","M","","M","","M","","","31","","24","","","","103.21","","","","","","NA"
"-123.53","48.30","RACE ROCKS","1016640","2023-01-24 20:00","2023","01","24","20:00","","M","","M","","M","","","29","","21","","","","103.26","","","","","","NA"
"-123.53","48.30","RACE ROCKS","1016640","2023-01-24 21:00","2023","01","24","21:00","","M","","M","","M","","","28","","25","","","","103.26","","","","","","NA"
"-123.53","48.30","RACE ROCKS","1016640","2023-01-24 22:00","2023","01","24","22:00","","M","","M","","M","","","28","","16","","","","103.34","","","","","","NA"
"-123.53","48.30","RACE ROCKS","1016640","2023-01-24 23:00","2023","01","24","23:00","","M","","M","","M","","","4","","11","","","","103.40","","","","","","NA"
"-123.53","48.30","RACE ROCKS","1016640","2023-01-25 00:00","2023","01","25","00:00","","M","","M","","M","","","5","","13","","","","103.44","","","","","","NA"
"-123.53","48.30","RACE ROCKS","1016640","2023-01-25 01:00","2023","01","25","01:00","","M","","M","","M","","","6","","12","","","","103.44","","","","","","NA"
"-123.53","48.30","RACE ROCKS","1016640","2023-01-25 02:00","2023","01","25","02:00","","M","","M","","M","","","7","","8","","","","103.46","","","","","","NA"
"-123.53","48.30","RACE ROCKS","1016640","2023-01-25 03:00","2023","01","25","03:00","","M","","M","","M","","","7","","8","","","","103.50","","","","","","NA"
"-123.53","48.30","RACE ROCKS","1016640","2023-01-25 04:00","2023","01","25","04:00","","M","","M","","M","","","5","","8","","","","103.52","","","","","","NA"
"-123.53","48.30","RACE ROCKS","1016640","2023-01-25 05:00","2023","01","25","05:00","","M","","M","","M","","","6","","5","","","","103.55","","","","","","NA"
"-123.53","48.30","RACE ROCKS","1016640","2023-01-25 06:00","2023","01","25","06:00","","M","","M","","M","","","6","","3","","","","103.58","","","","","","NA"
"-123.53","48.30","RACE ROCKS","1016640","2023-01-25 07:00","2023","01","25","07:00","","M","","M","","M","","","1","","9","","","","103.63","","","","","","NA"
"-123.53","48.30","RACE ROCKS","1016640","2023-01-25 08:00","2023","01","25","08:00","","M","","M","","M","","","12","","6","","","","103.65","","","","","","NA"
"-123.53","48.30","RACE ROCKS","1016640","2023-01-25 09:00","2023","01","25","09:00","","M","","M","","M","","","10","","4","","","","103.69","","","","","","NA"
"-123.53","48.30","RACE ROCKS","1016640","2023-01-25 10:00","2023","01","25","10:00","","M","","M","","M","","","3","","8","","","","103.73","","","","","","NA"
"-123.53","48.30","RACE ROCKS","1016640","2023-01-25 11:00","2023","01","25","11:00","","M","","M","","M","","","10","","10","","","","103.70","","","","","","NA"
"-123.53","48.30","RACE ROCKS","1016640","2023-01-25 12:00","2023","01","25","12:00","","M","","M","","M","","","7","","14","","","","103.73","","","","","","NA"
"-123.53","48.30","RACE ROCKS","1016640","2023-01-25 13:00","2023","01","25","13:00","","M","","M","","M","","","10","","7","","","","103.69","","","","","","NA"
"-123.53","48.30","RACE ROCKS","1016640","2023-01-25 14:00","2023","01","25","14:00","","M","","M","","M","","","14","","11","","","","103.59","","","","","","NA"
"-123.53","48.30","RACE ROCKS","1016640","2023-01-25 15:00","2023","01","25","15:00","","M","","M","","M","","","14","","11","","","","103.60","","","","","","NA"
"-123.53","48.30","RACE ROCKS","1016640","2023-01-25 16:00","2023","01","25","16:00","","M","","M","","M","","","13","","10","","","","103.58","","","","","","NA"
"-123.53","48.30","RACE ROCKS","1016640","2023-01-25 17:00","2023","01","25","17:00","","M","","M","","M","","","13","","6","","","","103.60","","","","","","NA"
"-123.53","48.30","RACE ROCKS","1016640","2023-01-25 18:00","2023","01","25","18:00","","M","","M","","M","","","15","","8","","","","103.64","","","","","","NA"
"-123.53","48.30","RACE ROCKS","1016640","2023-01-25 19:00","2023","01","25","19:00","","M","","M","","M","","","15","","8","","","","103.65","","","","","","NA"
"-123.53","48.30","RACE ROCKS","1016640","2023-01-25 20:00","2023","01","25","20:00","","M","","M","","M","","","14","","8","","","","103.62","","","","","","NA"
"-123.53","48.30","RACE ROCKS","1016640","2023-01-25 21:00","2023","01","25","21:00","","M","","M","","M","","","12","","10","","","","103.61","","","","","","NA"
"-123.53","48.30","RACE ROCKS","1016640","2023-01-25 22:00","2023","01","25","22:00","","M","","M","","M","","","15","","7","","","","103.58","","","","","","NA"
"-123.53","48.30","RACE ROCKS","1016640","2023-01-25 23:00","2023","01","25","23:00","","M","","M","","M","","","36","","6","","","","103.57","","","","","","NA"
"-123.53","48.30","RACE ROCKS","1016640","2023-01-26 00:00","2023","01","26","00:00","","M","","M","","M","","","11","","4","","","","103.56","","","","","","NA"
"-123.53","48.30","RACE ROCKS","1016640","2023-01-26 01:00","2023","01","26","01:00","","M","","M","","M","","","34","","6","","","","103.56","","","","","","NA"
"-123.53","48.30","RACE ROCKS","1016640","2023-01-26 02:00","2023","01","26","02:00","","M","","M","","M","","","26","","6","","","","103.54","","","","","","NA"
"-123.53","48.30","RACE ROCKS","1016640","2023-01-26 03:00","2023","01","26","03:00","","M","","M","","M","","","23","","5","","","","103.49","","","","","","NA"
"-123.53","48.30","RACE ROCKS","1016640","2023-01-26 04:00","2023","01","26","04:00","","M","","M","","M","","","25","","8","","","","103.47","","","","","","NA"
"-123.53","48.30","RACE ROCKS","1016640","2023-01-26 05:00","2023","01","26","05:00","","M","","M","","M","","","28","","6","","","","103.47","","","","","","NA"
"-123.53","48.30","RACE ROCKS","1016640","2023-01-26 06:00","2023","01","26","06:00","","M","","M","","M","","","26","","13","","","","103.44","","","","","","NA"
"-123.53","48.30","RACE ROCKS","1016640","2023-01-26 07:00","2023","01","26","07:00","","M","","M","","M","","","26","","24","","","","103.40","","","","","","NA"
"-123.53","48.30","RACE ROCKS","1016640","2023-01-26 08:00","2023","01","26","08:00","","M","","M","","M","","","25","","26","","","","103.38","","","","","","NA"
"-123.53","48.30","RACE ROCKS","1016640","2023-01-26 09:00","2023","01","26","09:00","","M","","M","","M","","","25","","25","","","","103.37","","","","","","NA"
"-123.53","48.30","RACE ROCKS","1016640","2023-01-26 10:00","2023","01","26","10:00","","M","","M","","M","","","28","","21","","","","103.37","","","","","","NA"
"-123.53","48.30","RACE ROCKS","1016640","2023-01-26 11:00","2023","01","26","11:00","","M","","M","","M","","","27","","17","","","","103.31","","","","","","NA"
"-123.53","48.30","RACE ROCKS","1016640","2023-01-26 12:00","2023","01","26","12:00","","M","","M","","M","","","27","","22","","","","103.20","","","","","","NA"
"-123.53","48.30","RACE ROCKS","1016640","2023-01-26 13:00","2023","01","26","13:00","","M","","M","","M","","","28","","27","","","","103.12","","","","","","NA"
"-123.53","48.30","RACE ROCKS","1016640","2023-01-26 14:00","2023","01","26","14:00","","M","","M","","M","","","29","","39","","","","103.07","","","","","","NA"
"-123.53","48.30","RACE ROCKS","1016640","2023-01-26 15:00","2023","01","26","15:00","","M","","M","","M","","","29","","31","","","","103.00","","","","","","NA"
"-123.53","48.30","RACE ROCKS","1016640","2023-01-26 16:00","2023","01","26","16:00","","M","","M","","M","","","28","","30","","","","102.91","","","","","","NA"
"-123.53","48.30","RACE ROCKS","1016640","2023-01-26 17:00","2023","01","26","17:00","","M","","M","","M","","","29","","29","","","","102.86","","","","","","NA"
"-123.53","48.30","RACE ROCKS","1016640","2023-01-26 18:00","2023","01","26","18:00","","M","","M","","M","","","28","","32","","","","102.75","","","","","","NA"
"-123.53","48.30","RACE ROCKS","1016640","2023-01-26 19:00","2023","01","26","19:00","","M","","M","","M","","","28","","41","","","","102.70","","","","","","NA"
"-123.53","48.30","RACE ROCKS","1016640","2023-01-26 20:00","2023","01","26","20:00","","M","","M","","M","","","28","","40","","","","102.56","","","","","","NA"
"-123.53","48.30","RACE ROCKS","1016640","2023-01-26 21:00","2023","01","26","21:00","","M","","M","","M","","","27","","50","","","","102.39","","","","","","NA"
"-123.53","48.30","RACE ROCKS","1016640","2023-01-26 22:00","2023","01","26","22:00","","M","","M","","M","","","28","","44","","","","102.35","","","","","","NA"
"-123.53","48.30","RACE ROCKS","1016640","2023-01-26 23:00","2023","01","26","23:00","","M","","M","","M","","","27","","46","","","","102.20","","","","","","NA"
"-123.53","48.30","RACE ROCKS","1016640","2023-01-27 00:00","2023","01","27","00:00","","M","","M","","M","","","28","","51","","","","102.05","","","","","","NA"
"-123.53","48.30","RACE ROCKS","1016640","2023-01-27 01:00","2023","01","27","01:00","","M","","M","","M","","","27","","63","","","","101.84","","","","","","NA"
"-123.53","48.30","RACE ROCKS","1016640","2023-01-27 02:00","2023","01","27","02:00","","M","","M","","M","","","26","","52","","","","101.83","","","","","","NA"
"-123.53","48.30","RACE ROCKS","1016640","2023-01-27 03:00","2023","01","27","03:00","","M","","M","","M","","","28","","53","","","","101.93","","","","","","NA"
"-123.53","48.30","RACE ROCKS","1016640","2023-01-27 04:00","2023","01","27","04:00","","M","","M","","M","","","28","","57","","","","101.89","","","","","","NA"
"-123.53","48.30","RACE ROCKS","1016640","2023-01-27 05:00","2023","01","27","05:00","","M","","M","","M","","","27","","46","","","","101.89","","","","","","NA"
"-123.53","48.30","RACE ROCKS","1016640","2023-01-27 06:00","2023","01","27","06:00","","M","","M","","M","","","29","","32","","","","101.94","","","","","","NA"
"-123.53","48.30","RACE ROCKS","1016640","2023-01-27 07:00","2023","01","27","07:00","","M","","M","","M","","","1","","10","","","","101.94","","","","","","NA"
"-123.53","48.30","RACE ROCKS","1016640","2023-01-27 08:00","2023","01","27","08:00","","M","","M","","M","","","1","","12","","","","102.03","","","","","","NA"
"-123.53","48.30","RACE ROCKS","1016640","2023-01-27 09:00","2023","01","27","09:00","","M","","M","","M","","","7","","13","","","","102.07","","","","","","NA"
"-123.53","48.30","RACE ROCKS","1016640","2023-01-27 10:00","2023","01","27","10:00","","M","","M","","M","","","6","","7","","","","102.07","","","","","","NA"
"-123.53","48.30","RACE ROCKS","1016640","2023-01-27 11:00","2023","01","27","11:00","","M","","M","","M","","","11","","5","","","","102.05","","","","","","NA"
"-123.53","48.30","RACE ROCKS","1016640","2023-01-27 12:00","2023","01","27","12:00","","M","","M","","M","","","10","","8","","","","102.03","","","","","","NA"
"-123.53","48.30","RACE ROCKS","1016640","2023-01-27 13:00","2023","01","27","13:00","","M","","M","","M","","","10","","9","","","","101.98","","","","","","NA"
"-123.53","48.30","RACE ROCKS","1016640","2023-01-27 14:00","2023","01","27","14:00","","M","","M","","M","","","12","","17","","","","101.88","","","","","","NA"
"-123.53","48.30","RACE ROCKS","1016640","2023-01-27 15:00","2023","01","27","15:00","","M","","M","","M","","","9","","17","","","","101.87","","","","","","NA"
"-123.53","48.30","RACE ROCKS","1016640","2023-01-27 16:00","2023","01","27","16:00","","M","","M","","M","","","11","","22","","","","101.90","","","","","","NA"
"-123.53","48.30","RACE ROCKS","1016640","2023-01-27 17:00","2023","01","27","17:00","","M","","M","","M","","","13","","20","","","","101.88","","","","","","NA"
"-123.53","48.30","RACE ROCKS","1016640","2023-01-27 18:00","2023","01","27","18:00","","M","","M","","M","","","11","","18","","","","101.83","","","","","","NA"
"-123.53","48.30","RACE ROCKS","1016640","2023-01-27 19:00","2023","01","27","19:00","","M","","M","","M","","","12","","17","","","","101.82","","","","","","NA"
"-123.53","48.30","RACE ROCKS","1016640","2023-01-27 20:00","2023","01","27","20:00","","M","","M","","M","","","12","","19","","","","101.80","","","","","","NA"
"-123.53","48.30","RACE ROCKS","1016640","2023-01-27 21:00","2023","01","27","21:00","","M","","M","","M","","","9","","10","","","","101.82","","","","","","NA"
"-123.53","48.30","RACE ROCKS","1016640","2023-01-27 22:00","2023","01","27","22:00","","M","","M","","M","","","7","","15","","","","101.83","","","","","","NA"
"-123.53","48.30","RACE ROCKS","1016640","2023-01-27 23:00","2023","01","27","23:00","","M","","M","","M","","","6","","11","","","","101.80","","","","","","NA"
"-123.53","48.30","RACE ROCKS","1016640","2023-01-28 00:00","2023","01","28","00:00","","M","","M","","M","","","6","","15","","","","101.74","","","","","","NA"
"-123.53","48.30","RACE ROCKS","1016640","2023-01-28 01:00","2023","01","28","01:00","","M","","M","","M","","","3","","14","","","","101.72","","","","","","NA"
"-123.53","48.30","RACE ROCKS","1016640","2023-01-28 02:00","2023","01","28","02:00","","M","","M","","M","","","1","","36","","","","101.68","","","","","","NA"
"-123.53","48.30","RACE ROCKS","1016640","2023-01-28 03:00","2023","01","28","03:00","","M","","M","","M","","","1","","38","","","","101.76","","","","","","NA"
"-123.53","48.30","RACE ROCKS","1016640","2023-01-28 04:00","2023","01","28","04:00","","M","","M","","M","","","36","","37","","","","101.70","","","","","","NA"
"-123.53","48.30","RACE ROCKS","1016640","2023-01-28 05:00","2023","01","28","05:00","","M","","M","","M","","","1","","25","","","","101.68","","","","","","NA"
"-123.53","48.30","RACE ROCKS","1016640","2023-01-28 06:00","2023","01","28","06:00","","M","","M","","M","","","3","","21","","","","101.62","","","","","","NA"
"-123.53","48.30","RACE ROCKS","1016640","2023-01-28 07:00","2023","01","28","07:00","","M","","M","","M","","","3","","29","","","","101.63","","","","","","NA"
"-123.53","48.30","RACE ROCKS","1016640","2023-01-28 08:00","2023","01","28","08:00","","M","","M","","M","","","3","","28","","","","101.70","","","","","","NA"
"-123.53","48.30","RACE ROCKS","1016640","2023-01-28 09:00","2023","01","28","09:00","","M","","M","","M","","","3","","26","","","","101.74","","","","","","NA"
"-123.53","48.30","RACE ROCKS","1016640","2023-01-28 10:00","2023","01","28","10:00","","M","","M","","M","","","1","","30","","","","101.77","","","","","","NA"
"-123.53","48.30","RACE ROCKS","1016640","2023-01-28 11:00","2023","01","28","11:00","","M","","M","","M","","","35","","6","","","","101.82","","","","","","NA"
"-123.53","48.30","RACE ROCKS","1016640","2023-01-28 12:00","2023","01","28","12:00","","M","","M","","M","","","12","","9","","","","101.79","","","","","","NA"
"-123.53","48.30","RACE ROCKS","1016640","2023-01-28 13:00","2023","01","28","13:00","","M","","M","","M","","","8","","9","","","","101.75","","","","","","NA"
"-123.53","48.30","RACE ROCKS","1016640","2023-01-28 14:00","2023","01","28","14:00","","M","","M","","M","","","4","","25","","","","101.71","","","","","","NA"
"-123.53","48.30","RACE ROCKS","1016640","2023-01-28 15:00","2023","01","28","15:00","","M","","M","","M","","","4","","36","","","","101.74","","","","","","NA"
"-123.53","48.30","RACE ROCKS","1016640","2023-01-28 16:00","2023","01","28","16:00","","M","","M","","M","","","3","","32","","","","101.83","","","","","","NA"
"-123.53","48.30","RACE ROCKS","1016640","2023-01-28 17:00","2023","01","28","17:00","","M","","M","","M","","","5","","50","","","","101.86","","","","","","NA"
"-123.53","48.30","RACE ROCKS","1016640","2023-01-28 18:00","2023","01","28","18:00","","M","","M","","M","","","5","","56","","","","101.92","","","","","","NA"
"-123.53","48.30","RACE ROCKS","1016640","2023-01-28 19:00","2023","01","28","19:00","","M","","M","","M","","","5","","71","","","","101.92","","","","","","NA"
"-123.53","48.30","RACE ROCKS","1016640","2023-01-28 20:00","2023","01","28","20:00","","M","","M","","M","","","3","","71","","","","102.02","","","","","","NA"
"-123.53","48.30","RACE ROCKS","1016640","2023-01-28 21:00","2023","01","28","21:00","","M","","M","","M","","","3","","69","","","","102.14","","","","","","NA"
"-123.53","48.30","RACE ROCKS","1016640","2023-01-28 22:00","2023","01","28","22:00","","M","","M","","M","","","2","","69","","","","102.28","","","","","","NA"
"-123.53","48.30","RACE ROCKS","1016640","2023-01-28 23:00","2023","01","28","23:00","","M","","M","","M","","","1","","67","","","","102.45","","","","","","NA"
"-123.53","48.30","RACE ROCKS","1016640","2023-01-29 00:00","2023","01","29","00:00","","M","","M","","M","","","2","","64","","","","102.50","","","","","","NA"
"-123.53","48.30","RACE ROCKS","1016640","2023-01-29 01:00","2023","01","29","01:00","","M","","M","","M","","","3","","59","","","","102.56","","","","","","NA"
"-123.53","48.30","RACE ROCKS","1016640","2023-01-29 02:00","2023","01","29","02:00","","M","","M","","M","","","2","","62","","","","102.64","","","","","","NA"
"-123.53","48.30","RACE ROCKS","1016640","2023-01-29 03:00","2023","01","29","03:00","","M","","M","","M","","","4","","52","","","","102.74","","","","","","NA"
"-123.53","48.30","RACE ROCKS","1016640","2023-01-29 04:00","2023","01","29","04:00","","M","","M","","M","","","7","","38","","","","102.82","","","","","","NA"
"-123.53","48.30","RACE ROCKS","1016640","2023-01-29 05:00","2023","01","29","05:00","","M","","M","","M","","","7","","20","","","","102.88","","","","","","NA"
"-123.53","48.30","RACE ROCKS","1016640","2023-01-29 06:00","2023","01","29","06:00","","M","","M","","M","","","6","","29","","","","102.88","","","","","","NA"
"-123.53","48.30","RACE ROCKS","1016640","2023-01-29 07:00","2023","01","29","07:00","","M","","M","","M","","","2","","23","","","","102.97","","","","","","NA"
"-123.53","48.30","RACE ROCKS","1016640","2023-01-29 08:00","2023","01","29","08:00","","M","","M","","M","","","3","","22","","","","103.00","","","","","","NA"
"-123.53","48.30","RACE ROCKS","1016640","2023-01-29 09:00","2023","01","29","09:00","","M","","M","","M","","","6","","26","","","","103.03","","","","","","NA"
"-123.53","48.30","RACE ROCKS","1016640","2023-01-29 10:00","2023","01","29","10:00","","M","","M","","M","","","3","","27","","","","103.04","","","","","","NA"
"-123.53","48.30","RACE ROCKS","1016640","2023-01-29 11:00","2023","01","29","11:00","","M","","M","","M","","","4","","25","","","","103.08","","","","","","NA"
"-123.53","48.30","RACE ROCKS","1016640","2023-01-29 12:00","2023","01","29","12:00","","M","","M","","M","","","2","","27","","","","103.04","","","","","","NA"
"-123.53","48.30","RACE ROCKS","1016640","2023-01-29 13:00","2023","01","29","13:00","","M","","M","","M","","","4","","19","","","","102.99","","","","","","NA"
"-123.53","48.30","RACE ROCKS","1016640","2023-01-29 14:00","2023","01","29","14:00","","M","","M","","M","","","7","","15","","","","102.90","","","","","","NA"
"-123.53","48.30","RACE ROCKS","1016640","2023-01-29 15:00","2023","01","29","15:00","","M","","M","","M","","","9","","14","","","","102.85","","","","","","NA"
"-123.53","48.30","RACE ROCKS","1016640","2023-01-29 16:00","2023","01","29","16:00","","M","","M","","M","","","7","","23","","","","102.81","","","","","","NA"
"-123.53","48.30","RACE ROCKS","1016640","2023-01-29 17:00","2023","01","29","17:00","","M","","M","","M","","","5","","24","","","","102.78","","","","","","NA"
"-123.53","48.30","RACE ROCKS","1016640","2023-01-29 18:00","2023","01","29","18:00","","M","","M","","M","","","7","","17","","","","102.78","","","","","","NA"
"-123.53","48.30","RACE ROCKS","1016640","2023-01-29 19:00","2023","01","29","19:00","","M","","M","","M","","","3","","12","","","","102.78","","","","","","NA"
"-123.53","48.30","RACE ROCKS","1016640","2023-01-29 20:00","2023","01","29","20:00","","M","","M","","M","","","1","","16","","","","102.78","","","","","","NA"
"-123.53","48.30","RACE ROCKS","1016640","2023-01-29 21:00","2023","01","29","21:00","","M","","M","","M","","","36","","19","","","","102.81","","","","","","NA"
"-123.53","48.30","RACE ROCKS","1016640","2023-01-29 22:00","2023","01","29","22:00","","M","","M","","M","","","36","","21","","","","102.84","","","","","","NA"
"-123.53","48.30","RACE ROCKS","1016640","2023-01-29 23:00","2023","01","29","23:00","","M","","M","","M","","","35","","20","","","","102.81","","","","","","NA"
"-123.53","48.30","RACE ROCKS","1016640","2023-01-30 00:00","2023","01","30","00:00","","M","","M","","M","","","36","","22","","","","102.79","","","","","","NA"
"-123.53","48.30","RACE ROCKS","1016640","2023-01-30 01:00","2023","01","30","01:00","","M","","M","","M","","","36","","24","","","","102.77","","","","","","NA"
"-123.53","48.30","RACE ROCKS","1016640","2023-01-30 02:00","2023","01","30","02:00","","M","","M","","M","","","36","","24","","","","102.77","","","","","","NA"
"-123.53","48.30","RACE ROCKS","1016640","2023-01-30 03:00","2023","01","30","03:00","","M","","M","","M","","","36","","27","","","","102.84","","","","","","NA"
"-123.53","48.30","RACE ROCKS","1016640","2023-01-30 04:00","2023","01","30","04:00","","M","","M","","M","","","36","","22","","","","102.78","","","","","","NA"
"-123.53","48.30","RACE ROCKS","1016640","2023-01-30 05:00","2023","01","30","05:00","","M","","M","","M","","","1","","24","","","","102.76","","","","","","NA"
"-123.53","48.30","RACE ROCKS","1016640","2023-01-30 06:00","2023","01","30","06:00","","M","","M","","M","","","1","","28","","","","102.78","","","","","","NA"
"-123.53","48.30","RACE ROCKS","1016640","2023-01-30 07:00","2023","01","30","07:00","","M","","M","","M","","","36","","27","","","","102.71","","","","","","NA"
"-123.53","48.30","RACE ROCKS","1016640","2023-01-30 08:00","2023","01","30","08:00","","M","","M","","M","","","36","","32","","","","102.70","","","","","","NA"
"-123.53","48.30","RACE ROCKS","1016640","2023-01-30 09:00","2023","01","30","09:00","","M","","M","","M","","","2","","27","","","","102.69","","","","","","NA"
"-123.53","48.30","RACE ROCKS","1016640","2023-01-30 10:00","2023","01","30","10:00","","M","","M","","M","","","3","","23","","","","102.71","","","","","","NA"
"-123.53","48.30","RACE ROCKS","1016640","2023-01-30 11:00","2023","01","30","11:00","","M","","M","","M","","","3","","21","","","","102.78","","","","","","NA"
"-123.53","48.30","RACE ROCKS","1016640","2023-01-30 12:00","2023","01","30","12:00","","M","","M","","M","","","9","","12","","","","102.70","","","","","","NA"
"-123.53","48.30","RACE ROCKS","1016640","2023-01-30 13:00","2023","01","30","13:00","","M","","M","","M","","","5","","6","","","","102.69","","","","","","NA"
"-123.53","48.30","RACE ROCKS","1016640","2023-01-30 14:00","2023","01","30","14:00","","M","","M","","M","","","11","","14","","","","102.58","","","","","","NA"
"-123.53","48.30","RACE ROCKS","1016640","2023-01-30 15:00","2023","01","30","15:00","","M","","M","","M","","","11","","10","","","","102.54","","","","","","NA"
"-123.53","48.30","RACE ROCKS","1016640","2023-01-30 16:00","2023","01","30","16:00","","M","","M","","M","","","10","","11","","","","102.49","","","","","","NA"
"-123.53","48.30","RACE ROCKS","1016640","2023-01-30 17:00","2023","01","30","17:00","","M","","M","","M","","","9","","7","","","","102.45","","","","","","NA"
"-123.53","48.30","RACE ROCKS","1016640","2023-01-30 18:00","2023","01","30","18:00","","M","","M","","M","","","9","","3","","","","102.44","","","","","","NA"
"-123.53","48.30","RACE ROCKS","1016640","2023-01-30 19:00","2023","01","30","19:00","","M","","M","","M","","","9","","6","","","","102.35","","","","","","NA"
"-123.53","48.30","RACE ROCKS","1016640","2023-01-30 20:00","2023","01","30","20:00","","M","","M","","M","","","2","","11","","","","102.32","","","","","","NA"
"-123.53","48.30","RACE ROCKS","1016640","2023-01-30 21:00","2023","01","30","21:00","","M","","M","","M","","","36","","15","","","","102.35","","","","","","NA"
"-123.53","48.30","RACE ROCKS","1016640","2023-01-30 22:00","2023","01","30","22:00","","M","","M","","M","","","36","","15","","","","102.33","","","","","","NA"
"-123.53","48.30","RACE ROCKS","1016640","2023-01-30 23:00","2023","01","30","23:00","","M","","M","","M","","","1","","15","","","","102.28","","","","","","NA"
"-123.53","48.30","RACE ROCKS","1016640","2023-01-31 00:00","2023","01","31","00:00","","M","","M","","M","","","36","","17","","","","102.27","","","","","","NA"
"-123.53","48.30","RACE ROCKS","1016640","2023-01-31 01:00","2023","01","31","01:00","","M","","M","","M","","","1","","19","","","","102.21","","","","","","NA"
"-123.53","48.30","RACE ROCKS","1016640","2023-01-31 02:00","2023","01","31","02:00","","M","","M","","M","","","36","","20","","","","102.20","","","","","","NA"
"-123.53","48.30","RACE ROCKS","1016640","2023-01-31 03:00","2023","01","31","03:00","","M","","M","","M","","","36","","23","","","","102.17","","","","","","NA"
"-123.53","48.30","RACE ROCKS","1016640","2023-01-31 04:00","2023","01","31","04:00","","M","","M","","M","","","36","","21","","","","102.18","","","","","","NA"
"-123.53","48.30","RACE ROCKS","1016640","2023-01-31 05:00","2023","01","31","05:00","","M","","M","","M","","","1","","20","","","","102.14","","","","","","NA"
"-123.53","48.30","RACE ROCKS","1016640","2023-01-31 06:00","2023","01","31","06:00","","M","","M","","M","","","5","","17","","","","102.12","","","","","","NA"
"-123.53","48.30","RACE ROCKS","1016640","2023-01-31 07:00","2023","01","31","07:00","","M","","M","","M","","","7","","20","","","","102.05","","","","","","NA"
"-123.53","48.30","RACE ROCKS","1016640","2023-01-31 08:00","2023","01","31","08:00","","M","","M","","M","","","8","","17","","","","102.05","","","","","","NA"
"-123.53","48.30","RACE ROCKS","1016640","2023-01-31 09:00","2023","01","31","09:00","","M","","M","","M","","","9","","27","","","","101.98","","","","","","NA"
"-123.53","48.30","RACE ROCKS","1016640","2023-01-31 10:00","2023","01","31","10:00","","M","","M","","M","","","9","","14","","","","102.03","","","","","","NA"
"-123.53","48.30","RACE ROCKS","1016640","2023-01-31 11:00","2023","01","31","11:00","","M","","M","","M","","","2","","18","","","","102.05","","","","","","NA"
"-123.53","48.30","RACE ROCKS","1016640","2023-01-31 12:00","2023","01","31","12:00","","M","","M","","M","","","8","","18","","","","102.00","","","","","","NA"
"-123.53","48.30","RACE ROCKS","1016640","2023-01-31 13:00","2023","01","31","13:00","","M","","M","","M","","","5","","18","","","","101.96","","","","","","NA"
"-123.53","48.30","RACE ROCKS","1016640","2023-01-31 14:00","2023","01","31","14:00","","M","","M","","M","","","6","","19","","","","101.91","","","","","","NA"
"-123.53","48.30","RACE ROCKS","1016640","2023-01-31 15:00","2023","01","31","15:00","","M","","M","","M","","","9","","23","","","","101.85","","","","","","NA"
"-123.53","48.30","RACE ROCKS","1016640","2023-01-31 16:00","2023","01","31","16:00","","M","","M","","M","","","8","","19","","","","101.85","","","","","","NA"
"-123.53","48.30","RACE ROCKS","1016640","2023-01-31 17:00","2023","01","31","17:00","","M","","M","","M","","","7","","19","","","","101.81","","","","","","NA"
"-123.53","48.30","RACE ROCKS","1016640","2023-01-31 18:00","2023","01","31","18:00","","M","","M","","M","","","7","","20","","","","101.78","","","","","","NA"
"-123.53","48.30","RACE ROCKS","1016640","2023-01-31 19:00","2023","01","31","19:00","","M","","M","","M","","","7","","20","","","","101.74","","","","","","NA"
"-123.53","48.30","RACE ROCKS","1016640","2023-01-31 20:00","2023","01","31","20:00","","M","","M","","M","","","6","","20","","","","101.73","","","","","","NA"
"-123.53","48.30","RACE ROCKS","1016640","2023-01-31 21:00","2023","01","31","21:00","","M","","M","","M","","","1","","26","","","","101.71","","","","","","NA"
"-123.53","48.30","RACE ROCKS","1016640","2023-01-31 22:00","2023","01","31","22:00","","M","","M","","M","","","36","","32","","","","101.76","","","","","","NA"
"-123.53","48.30","RACE ROCKS","1016640","2023-01-31 23:00","2023","01","31","23:00","","M","","M","","M","","","1","","29","","","","101.76","","","","","","NA"
