"Longitude (x)","Latitude (y)","Station Name","Climate ID","Date/Time (LST)","Year","Month","Day","Time (LST)","Temp (°C)","Temp Flag","Dew Point Temp (°C)","Dew Point Temp Flag","Rel Hum (%)","Rel Hum Flag","Precip. Amount (mm)","Precip. Amount Flag","Wind Dir (10s deg)","Wind Dir Flag","Wind Spd (km/h)","Wind Spd Flag","Visibility (km)","Visibility Flag","Stn Press (kPa)","Stn Press Flag","Hmdx","Hmdx Flag","Wind Chill","Wind Chill Flag","Weather"
"-53.11","48.67","BONAVISTA","8400601","2020-02-01 00:30","2020","02","01","00:30","-6.9","","-11.3","","71","","0.0","","32","","52","","","","100.81","","","","-18","","NA"
"-53.11","48.67","BONAVISTA","8400601","2020-02-01 01:30","2020","02","01","01:30","-6.9","","-10.7","","74","","0.0","","32","","51","","","","100.84","","","","-18","","NA"
"-53.11","48.67","BONAVISTA","8400601","2020-02-01 02:30","2020","02","01","02:30","-6.8","","-11.9","","67","","0.0","","32","","54","","","","100.90","","","","-18","","NA"
"-53.11","48.67","BONAVISTA","8400601","2020-02-01 03:30","2020","02","01","03:30","-6.6","","-11.4","","69","","0.0","","32","","48","","","","100.94","","","","-17","","NA"
"-53.11","48.67","BONAVISTA","8400601","2020-02-01 04:30","2020","02","01","04:30","-6.6","","-11.0","","71","","0.0","","31","","51","","","","101.01","","","","-17","","NA"
"-53.11","48.67","BONAVISTA","8400601","2020-02-01 05:30","2020","02","01","05:30","-6.1","","-10.0","","74","","0.0","","32","","49","","","","101.08","","","","-16","","NA"
"-53.11","48.67","BONAVISTA","8400601","2020-02-01 06:30","2020","02","01","06:30","-6.1","","-10.6","","70","","0.0","","32","","48","","","","101.19","","","","-16","","NA"
"-53.11","48.67","BONAVISTA","8400601","2020-02-01 07:30","2020","02","01","07:30","-6.4","","-10.7","","71","","0.0","","32","","48","","","","101.31","","","","-17","","NA"
"-53.11","48.67","BONAVISTA","8400601","2020-02-01 08:30","2020","02","01","08:30","-6.6","","-10.8","","72","","0.0","","31","","48","","","","101.39","","","","-17","","NA"
"-53.11","48.67","BONAVISTA","8400601","2020-02-01 09:30","2020","02","01","09:30","-6.7","","-11.0","","72","","0.0","","34","","43","","","","101.35","","","","-17","","NA"
"-53.11","48.67","BONAVISTA","8400601","2020-02-01 10:30","2020","02","01","10:30","-6.3","","-10.4","","73","","0.0","","33","","37","","","","101.43","","","","-16","","NA"
"-53.11","48.67","BONAVISTA","8400601","2020-02-01 11:30","2020","02","01","11:30","-6.1","","-10.2","","73","","0.0","","32","","28","","","","101.46","","","","-14","","NA"
"-53.11","48.67","BONAVISTA","8400601","2020-02-01 12:30","2020","02","01","12:30","-5.7","","-10.4","","69","","0.0","","32","","19","","","","101.41","","","","-12","","NA"
"-53.11","48.67","BONAVISTA","8400601","2020-02-01 13:30","2020","02","01","13:30","-6.1","","-10.6","","71","","0.0","","29","","26","","","","101.46","","","","-14","","NA"
"-53.11","48.67","BONAVISTA","8400601","2020-02-01 14:30","2020","02","01","14:30","-5.7","","-10.7","","68","","0.0","","27","","26","","","","101.47","","","","-13","","NA"
"-53.11","48.67","BONAVISTA","8400601","2020-02-01 15:30","2020","02","01","15:30","-5.2","","-10.4","","67","","0.0","","25","","24","","","","101.46","","","","-12","","NA"
"-53.11","48.67","BONAVISTA","8400601","2020-02-01 16:30","2020","02","01","16:30","-5.5","","-11.6","","62","","0.0","","25","","23","","","","101.46","","","","-13","","NA"
"-53.11","48.67","BONAVISTA","8400601","2020-02-01 17:30","2020","02","01","17:30","-5.6","","-11.9","","61","","0.0","","24","","20","","","","101.44","","","","-12","","NA"
"-53.11","48.67","BONAVISTA","8400601","2020-02-01 18:30","2020","02","01","18:30","-7.0","","-11.4","","71","","0.0","","21","","22","","","","101.47","","","","-14","","NA"
"-53.11","48.67","BONAVISTA","8400601","2020-02-01 19:30","2020","02","01","19:30","-7.4","","-12.6","","66","","0.0","","21","","22","","","","101.41","","","","-15","","NA"
"-53.11","48.67","BONAVISTA","8400601","2020-02-01 20:30","2020","02","01","20:30","-9.5","","-14.2","","69","","0.0","","19","","16","","","","101.34","","","","-16","","NA"
"-53.11","48.67","BONAVISTA","8400601","2020-02-01 21:30","2020","02","01","21:30","-7.4","","-12.4","","67","","0.0","","22","","28","","","","101.37","","","","-16","","NA"
"-53.11","48.67","BONAVISTA","8400601","2020-02-01 22:30","2020","02","01","22:30","-7.5","","-12.2","","69","","0.0","","22","","26","","","","101.33","","","","-16","","NA"
"-53.11","48.67","BONAVISTA","8400601","2020-02-01 23:30","2020","02","01","23:30","-6.6","","-11.6","","67","","0.0","","20","","25","","","","101.30","","","","-14","","NA"
"-53.11","48.67","BONAVISTA","8400601","2020-02-02 00:30","2020","02","02","00:30","-6.9","","-11.3","","71","","0.0","","19","","18","","","","101.15","","","","-14","","NA"
"-53.11","48.67","BONAVISTA","8400601","2020-02-02 01:30","2020","02","02","01:30","-6.3","","-9.9","","76","","0.0","","21","","26","","","","101.15","","","","-14","","NA"
"-53.11","48.67","BONAVISTA","8400601","2020-02-02 02:30","2020","02","02","02:30","-6.0","","-9.5","","77","","0.0","","21","","20","","","","101.09","","","","-13","","NA"
"-53.11","48.67","BONAVISTA","8400601","2020-02-02 03:30","2020","02","02","03:30","-5.8","","-9.2","","76","","0.0","","20","","17","","","","101.05","","","","-12","","NA"
"-53.11","48.67","BONAVISTA","8400601","2020-02-02 04:30","2020","02","02","04:30","-6.4","","-9.3","","80","","0.0","","16","","18","","","","100.88","","","","-13","","NA"
"-53.11","48.67","BONAVISTA","8400601","2020-02-02 05:30","2020","02","02","05:30","-6.1","","-8.9","","80","","0.0","","17","","18","","","","100.84","","","","-13","","NA"
"-53.11","48.67","BONAVISTA","8400601","2020-02-02 06:30","2020","02","02","06:30","-5.1","","-7.8","","82","","0.0","","15","","12","","","","100.72","","","","-10","","NA"
"-53.11","48.67","BONAVISTA","8400601","2020-02-02 07:30","2020","02","02","07:30","-4.9","","-6.4","","89","","0.0","","17","","13","","","","100.61","","","","-10","","NA"
"-53.11","48.67","BONAVISTA","8400601","2020-02-02 08:30","2020","02","02","08:30","-4.1","","-5.4","","91","","0.5","","15","","20","","","","100.49","","","","-10","","NA"
"-53.11","48.67","BONAVISTA","8400601","2020-02-02 09:30","2020","02","02","09:30","-3.1","","-4.3","","92","","0.5","","14","","31","","","","100.26","","","","-11","","NA"
"-53.11","48.67","BONAVISTA","8400601","2020-02-02 10:30","2020","02","02","10:30","-2.8","","-3.7","","93","","1.0","","13","","42","","","","99.95","","","","-11","","NA"
"-53.11","48.67","BONAVISTA","8400601","2020-02-02 11:30","2020","02","02","11:30","-2.6","","-3.3","","95","","1.5","","13","","54","","","","99.64","","","","-12","","NA"
"-53.11","48.67","BONAVISTA","8400601","2020-02-02 12:30","2020","02","02","12:30","-2.2","","-2.9","","95","","2.5","","13","","56","","","","99.24","","","","-12","","NA"
"-53.11","48.67","BONAVISTA","8400601","2020-02-02 13:30","2020","02","02","13:30","-2.1","","-2.7","","95","","2.3","","13","","74","","","","98.83","","","","-12","","NA"
"-53.11","48.67","BONAVISTA","8400601","2020-02-02 14:30","2020","02","02","14:30","-1.6","","-2.2","","95","","5.6","","12","","74","","","","98.42","","","","-12","","NA"
"-53.11","48.67","BONAVISTA","8400601","2020-02-02 15:30","2020","02","02","15:30","-0.6","","-1.4","","94","","3.2","","14","","66","","","","98.26","","","","-10","","NA"
"-53.11","48.67","BONAVISTA","8400601","2020-02-02 16:30","2020","02","02","16:30","0.7","","-0.2","","94","","1.5","","15","","64","","","","97.88","","","","","","NA"
"-53.11","48.67","BONAVISTA","8400601","2020-02-02 17:30","2020","02","02","17:30","1.1","","0.3","","94","","2.7","","15","","55","","","","97.67","","","","","","NA"
"-53.11","48.67","BONAVISTA","8400601","2020-02-02 18:30","2020","02","02","18:30","1.8","","1.2","","95","","3.9","","15","","45","","","","97.39","","","","","","NA"
"-53.11","48.67","BONAVISTA","8400601","2020-02-02 19:30","2020","02","02","19:30","2.6","","1.9","","95","","1.5","","16","","51","","","","97.11","","","","","","NA"
"-53.11","48.67","BONAVISTA","8400601","2020-02-02 20:30","2020","02","02","20:30","3.0","","2.4","","96","","0.6","","17","","52","","","","96.85","","","","","","NA"
"-53.11","48.67","BONAVISTA","8400601","2020-02-02 21:30","2020","02","02","21:30","3.1","","2.6","","97","","0.3","","17","","43","","","","96.73","","","","","","NA"
"-53.11","48.67","BONAVISTA","8400601","2020-02-02 22:30","2020","02","02","22:30","3.6","","2.6","","93","","0.2","","20","","32","","","","96.62","","","","","","NA"
"-53.11","48.67","BONAVISTA","8400601","2020-02-02 23:30","2020","02","02","23:30","2.5","","1.4","","93","","0.0","","19","","25","","","","96.61","","","","","","NA"
"-53.11","48.67","BONAVISTA","8400601","2020-02-03 00:30","2020","02","03","00:30","1.0","","-0.3","","91","","0.0","","24","","34","","","","96.58","","","","","","NA"
"-53.11","48.67","BONAVISTA","8400601","2020-02-03 01:30","2020","02","03","01:30","0.4","","-1.5","","87","","0.0","","23","","47","","","","96.68","","","","","","NA"
"-53.11","48.67","BONAVISTA","8400601","2020-02-03 02:30","2020","02","03","02:30","0.3","","-1.4","","89","","0.0","","24","","45","","","","96.71","","","","","","NA"
"-53.11","48.67","BONAVISTA","8400601","2020-02-03 03:30","2020","02","03","03:30","-0.2","","-2.7","","83","","0.0","","24","","56","","","","96.79","","","","-9","","NA"
"-53.11","48.67","BONAVISTA","8400601","2020-02-03 04:30","2020","02","03","04:30","-1.5","","-4.8","","79","","0.0","","24","","65","","","","96.90","","","","-11","","NA"
"-53.11","48.67","BONAVISTA","8400601","2020-02-03 05:30","2020","02","03","05:30","-2.0","","-5.5","","77","","0.0","","24","","64","","","","97.03","","","","-12","","NA"
"-53.11","48.67","BONAVISTA","8400601","2020-02-03 06:30","2020","02","03","06:30","-2.7","","-6.7","","74","","0.0","","24","","70","","","","97.14","","","","-13","","NA"
"-53.11","48.67","BONAVISTA","8400601","2020-02-03 07:30","2020","02","03","07:30","-3.2","","-7.7","","71","","0.0","","23","","71","","","","97.29","","","","-14","","NA"
"-53.11","48.67","BONAVISTA","8400601","2020-02-03 08:30","2020","02","03","08:30","-2.9","","-7.8","","69","","0.0","","23","","71","","","","97.44","","","","-13","","NA"
"-53.11","48.67","BONAVISTA","8400601","2020-02-03 09:30","2020","02","03","09:30","-2.4","","-7.9","","66","","0.0","","23","","73","","","","97.50","","","","-13","","NA"
"-53.11","48.67","BONAVISTA","8400601","2020-02-03 10:30","2020","02","03","10:30","-1.9","","-7.8","","64","","0.0","","24","","67","","","","97.60","","","","-12","","NA"
"-53.11","48.67","BONAVISTA","8400601","2020-02-03 11:30","2020","02","03","11:30","-1.4","","-8.1","","61","","0.0","","23","","65","","","","97.65","","","","-11","","NA"
"-53.11","48.67","BONAVISTA","8400601","2020-02-03 12:30","2020","02","03","12:30","-0.9","","-7.6","","60","","0.0","","23","","67","","","","97.69","","","","-10","","NA"
"-53.11","48.67","BONAVISTA","8400601","2020-02-03 13:30","2020","02","03","13:30","-0.9","","-7.5","","61","","0.0","","24","","68","","","","97.74","","","","-10","","NA"
"-53.11","48.67","BONAVISTA","8400601","2020-02-03 14:30","2020","02","03","14:30","-0.8","","-7.7","","60","","0.0","","24","","66","","","","97.80","","","","-10","","NA"
"-53.11","48.67","BONAVISTA","8400601","2020-02-03 15:30","2020","02","03","15:30","-0.8","","-7.1","","63","","0.0","","23","","60","","","","97.88","","","","-10","","NA"
"-53.11","48.67","BONAVISTA","8400601","2020-02-03 16:30","2020","02","03","16:30","-1.2","","-6.9","","65","","0.0","","24","","61","","","","97.99","","","","-10","","NA"
"-53.11","48.67","BONAVISTA","8400601","2020-02-03 17:30","2020","02","03","17:30","-1.8","","-7.2","","66","","0.0","","24","","59","","","","98.16","","","","-11","","NA"
"-53.11","48.67","BONAVISTA","8400601","2020-02-03 18:30","2020","02","03","18:30","-2.1","","-7.2","","68","","0.0","","23","","56","","","","98.28","","","","-11","","NA"
"-53.11","48.67","BONAVISTA","8400601","2020-02-03 19:30","2020","02","03","19:30","-2.4","","-7.6","","67","","0.0","","23","","60","","","","98.36","","","","-12","","NA"
"-53.11","48.67","BONAVISTA","8400601","2020-02-03 20:30","2020","02","03","20:30","-2.8","","-7.7","","69","","0.0","","23","","53","","","","98.42","","","","-12","","NA"
"-53.11","48.67","BONAVISTA","8400601","2020-02-03 21:30","2020","02","03","21:30","-3.1","","-7.6","","71","","0.0","","24","","52","","","","98.45","","","","-13","","NA"
"-53.11","48.67","BONAVISTA","8400601","2020-02-03 22:30","2020","02","03","22:30","-3.4","","-7.7","","72","","0.0","","24","","53","","","","98.49","","","","-13","","NA"
"-53.11","48.67","BONAVISTA","8400601","2020-02-03 23:30","2020","02","03","23:30","-3.5","","-7.8","","72","","0.0","","24","","50","","","","98.54","","","","-13","","NA"
"-53.11","48.67","BONAVISTA","8400601","2020-02-04 00:30","2020","02","04","00:30","-3.5","","-7.8","","72","","0.0","","24","","45","","","","98.60","","","","-13","","NA"
"-53.11","48.67","BONAVISTA","8400601","2020-02-04 01:30","2020","02","04","01:30","-3.7","","-7.9","","73","","0.0","","24","","47","","","","98.61","","","","-13","","NA"
"-53.11","48.67","BONAVISTA","8400601","2020-02-04 02:30","2020","02","04","02:30","-3.7","","-7.8","","73","","0.0","","24","","50","","","","98.65","","","","-13","","NA"
"-53.11","48.67","BONAVISTA","8400601","2020-02-04 03:30","2020","02","04","03:30","-3.7","","-7.4","","75","","0.0","","24","","42","","","","98.72","","","","-13","","NA"
"-53.11","48.67","BONAVISTA","8400601","2020-02-04 04:30","2020","02","04","04:30","-3.5","","-7.4","","74","","0.0","","25","","46","","","","98.78","","","","-13","","NA"
"-53.11","48.67","BONAVISTA","8400601","2020-02-04 05:30","2020","02","04","05:30","-3.3","","-7.2","","74","","0.0","","25","","49","","","","98.85","","","","-13","","NA"
"-53.11","48.67","BONAVISTA","8400601","2020-02-04 06:30","2020","02","04","06:30","-3.3","","-7.2","","74","","0.0","","25","","50","","","","98.89","","","","-13","","NA"
"-53.11","48.67","BONAVISTA","8400601","2020-02-04 07:30","2020","02","04","07:30","-3.1","","-7.0","","74","","0.0","","26","","50","","","","98.98","","","","-12","","NA"
"-53.11","48.67","BONAVISTA","8400601","2020-02-04 08:30","2020","02","04","08:30","-3.1","","-6.9","","75","","0.0","","26","","48","","","","99.06","","","","-12","","NA"
"-53.11","48.67","BONAVISTA","8400601","2020-02-04 09:30","2020","02","04","09:30","-2.9","","-6.9","","74","","0.0","","26","","51","","","","99.09","","","","-12","","NA"
"-53.11","48.67","BONAVISTA","8400601","2020-02-04 10:30","2020","02","04","10:30","-2.5","","-6.8","","72","","0.0","","26","","47","","","","99.14","","","","-11","","NA"
"-53.11","48.67","BONAVISTA","8400601","2020-02-04 11:30","2020","02","04","11:30","-1.8","","-6.4","","71","","0.0","","26","","41","","","","99.16","","","","-10","","NA"
"-53.11","48.67","BONAVISTA","8400601","2020-02-04 12:30","2020","02","04","12:30","-1.0","","-6.0","","69","","0.0","","26","","36","","","","99.16","","","","-8","","NA"
"-53.11","48.67","BONAVISTA","8400601","2020-02-04 13:30","2020","02","04","13:30","-0.1","","-5.6","","67","","0.0","","25","","32","","","","99.15","","","","-7","","NA"
"-53.11","48.67","BONAVISTA","8400601","2020-02-04 14:30","2020","02","04","14:30","0.2","","-5.1","","68","","0.0","","27","","44","","","","99.16","","","","","","NA"
"-53.11","48.67","BONAVISTA","8400601","2020-02-04 15:30","2020","02","04","15:30","0.3","","-5.0","","68","","0.0","","26","","38","","","","99.22","","","","","","NA"
"-53.11","48.67","BONAVISTA","8400601","2020-02-04 16:30","2020","02","04","16:30","0.1","","-4.6","","71","","0.0","","27","","28","","","","99.28","","","","","","NA"
"-53.11","48.67","BONAVISTA","8400601","2020-02-04 17:30","2020","02","04","17:30","-0.2","","-6.1","","64","","0.0","","28","","46","","","","99.37","","","","-8","","NA"
"-53.11","48.67","BONAVISTA","8400601","2020-02-04 18:30","2020","02","04","18:30","-0.6","","-6.0","","67","","0.0","","27","","43","","","","99.48","","","","-8","","NA"
"-53.11","48.67","BONAVISTA","8400601","2020-02-04 19:30","2020","02","04","19:30","-1.1","","-5.7","","71","","0.0","","27","","31","","","","99.52","","","","-8","","NA"
"-53.11","48.67","BONAVISTA","8400601","2020-02-04 20:30","2020","02","04","20:30","-1.3","","-6.4","","68","","0.0","","25","","36","","","","99.55","","","","-9","","NA"
"-53.11","48.67","BONAVISTA","8400601","2020-02-04 21:30","2020","02","04","21:30","-2.0","","-6.7","","70","","0.0","","26","","44","","","","99.62","","","","-10","","NA"
"-53.11","48.67","BONAVISTA","8400601","2020-02-04 22:30","2020","02","04","22:30","-2.7","","-6.7","","74","","0.0","","26","","40","","","","99.68","","","","-11","","NA"
"-53.11","48.67","BONAVISTA","8400601","2020-02-04 23:30","2020","02","04","23:30","-3.4","","-7.5","","73","","0.0","","26","","42","","","","99.70","","","","-12","","NA"
"-53.11","48.67","BONAVISTA","8400601","2020-02-05 00:30","2020","02","05","00:30","-3.8","","-7.6","","75","","0.0","","27","","43","","","","99.65","","","","-13","","NA"
"-53.11","48.67","BONAVISTA","8400601","2020-02-05 01:30","2020","02","05","01:30","-3.8","","-7.7","","74","","0.0","","25","","31","","","","99.64","","","","-12","","NA"
"-53.11","48.67","BONAVISTA","8400601","2020-02-05 02:30","2020","02","05","02:30","-4.0","","-7.5","","76","","0.0","","24","","32","","","","99.67","","","","-12","","NA"
"-53.11","48.67","BONAVISTA","8400601","2020-02-05 03:30","2020","02","05","03:30","-4.3","","-7.7","","77","","0.0","","25","","46","","","","99.64","","","","-14","","NA"
"-53.11","48.67","BONAVISTA","8400601","2020-02-05 04:30","2020","02","05","04:30","-4.4","","-7.6","","78","","0.0","","25","","37","","","","99.64","","","","-13","","NA"
"-53.11","48.67","BONAVISTA","8400601","2020-02-05 05:30","2020","02","05","05:30","-3.8","","-7.5","","75","","0.0","","25","","39","","","","99.63","","","","-12","","NA"
"-53.11","48.67","BONAVISTA","8400601","2020-02-05 06:30","2020","02","05","06:30","-3.9","","-7.9","","74","","0.0","","24","","29","","","","99.62","","","","-11","","NA"
"-53.11","48.67","BONAVISTA","8400601","2020-02-05 07:30","2020","02","05","07:30","-4.5","","-8.0","","77","","0.0","","23","","37","","","","99.64","","","","-13","","NA"
"-53.11","48.67","BONAVISTA","8400601","2020-02-05 08:30","2020","02","05","08:30","-3.8","","-7.4","","76","","0.0","","23","","39","","","","99.60","","","","-12","","NA"
"-53.11","48.67","BONAVISTA","8400601","2020-02-05 09:30","2020","02","05","09:30","-3.1","","-6.7","","76","","0.0","","23","","39","","","","99.51","","","","-11","","NA"
"-53.11","48.67","BONAVISTA","8400601","2020-02-05 10:30","2020","02","05","10:30","-1.7","","-5.6","","75","","0.0","","22","","41","","","","99.41","","","","-10","","NA"
"-53.11","48.67","BONAVISTA","8400601","2020-02-05 11:30","2020","02","05","11:30","-1.4","","-5.3","","74","","0.0","","22","","36","","","","99.27","","","","-9","","NA"
"-53.11","48.67","BONAVISTA","8400601","2020-02-05 12:30","2020","02","05","12:30","-1.2","","-3.6","","84","","0.0","","22","","40","","","","99.09","","","","-9","","NA"
"-53.11","48.67","BONAVISTA","8400601","2020-02-05 13:30","2020","02","05","13:30","-0.8","","-2.5","","89","","0.0","","22","","43","","","","98.94","","","","-9","","NA"
"-53.11","48.67","BONAVISTA","8400601","2020-02-05 14:30","2020","02","05","14:30","-0.2","","-3.3","","80","","0.0","","23","","42","","","","98.86","","","","-8","","NA"
"-53.11","48.67","BONAVISTA","8400601","2020-02-05 15:30","2020","02","05","15:30","0.0","","-4.7","","71","","0.0","","25","","43","","","","98.85","","","","-8","","NA"
"-53.11","48.67","BONAVISTA","8400601","2020-02-05 16:30","2020","02","05","16:30","-2.4","","-3.1","","95","","0.0","","26","","38","","","","98.93","","","","-10","","NA"
"-53.11","48.67","BONAVISTA","8400601","2020-02-05 17:30","2020","02","05","17:30","-1.9","","-8.3","","62","","0.0","","29","","58","","","","99.04","","","","-11","","NA"
"-53.11","48.67","BONAVISTA","8400601","2020-02-05 18:30","2020","02","05","18:30","-2.6","","-8.7","","63","","0.0","","29","","67","","","","99.18","","","","-13","","NA"
"-53.11","48.67","BONAVISTA","8400601","2020-02-05 19:30","2020","02","05","19:30","-3.8","","-9.5","","65","","0.0","","29","","63","","","","99.32","","","","-14","","NA"
"-53.11","48.67","BONAVISTA","8400601","2020-02-05 20:30","2020","02","05","20:30","-5.2","","-10.1","","69","","0.0","","28","","63","","","","99.45","","","","-16","","NA"
"-53.11","48.67","BONAVISTA","8400601","2020-02-05 21:30","2020","02","05","21:30","-5.7","","-11.6","","63","","0.0","","29","","64","","","","99.57","","","","-17","","NA"
"-53.11","48.67","BONAVISTA","8400601","2020-02-05 22:30","2020","02","05","22:30","-6.1","","-11.8","","64","","0.0","","28","","60","","","","99.66","","","","-17","","NA"
"-53.11","48.67","BONAVISTA","8400601","2020-02-05 23:30","2020","02","05","23:30","-6.1","","-11.9","","64","","0.0","","28","","57","","","","99.71","","","","-17","","NA"
"-53.11","48.67","BONAVISTA","8400601","2020-02-06 00:30","2020","02","06","00:30","-6.3","","-12.0","","64","","0.0","","29","","62","","","","99.78","","","","-18","","NA"
"-53.11","48.67","BONAVISTA","8400601","2020-02-06 01:30","2020","02","06","01:30","-6.6","","-12.3","","64","","0.0","","29","","57","","","","99.83","","","","-18","","NA"
"-53.11","48.67","BONAVISTA","8400601","2020-02-06 02:30","2020","02","06","02:30","-6.7","","-11.8","","67","","0.0","","29","","57","","","","99.93","","","","-18","","NA"
"-53.11","48.67","BONAVISTA","8400601","2020-02-06 03:30","2020","02","06","03:30","-6.8","","-12.0","","66","","0.0","","27","","59","","","","100.06","","","","-18","","NA"
"-53.11","48.67","BONAVISTA","8400601","2020-02-06 04:30","2020","02","06","04:30","-6.9","","-12.5","","64","","0.0","","27","","55","","","","100.19","","","","-18","","NA"
"-53.11","48.67","BONAVISTA","8400601","2020-02-06 05:30","2020","02","06","05:30","-7.0","","-12.7","","64","","0.0","","28","","66","","","","100.31","","","","-19","","NA"
"-53.11","48.67","BONAVISTA","8400601","2020-02-06 06:30","2020","02","06","06:30","-7.2","","-12.5","","66","","0.0","","28","","65","","","","100.42","","","","-19","","NA"
"-53.11","48.67","BONAVISTA","8400601","2020-02-06 07:30","2020","02","06","07:30","-7.0","","-12.2","","66","","0.0","","28","","68","","","","100.54","","","","-19","","NA"
"-53.11","48.67","BONAVISTA","8400601","2020-02-06 08:30","2020","02","06","08:30","-7.1","","-12.6","","65","","0.0","","27","","71","","","","100.62","","","","-19","","NA"
"-53.11","48.67","BONAVISTA","8400601","2020-02-06 09:30","2020","02","06","09:30","-6.5","","-11.9","","66","","0.0","","27","","62","","","","100.70","","","","-18","","NA"
"-53.11","48.67","BONAVISTA","8400601","2020-02-06 10:30","2020","02","06","10:30","-5.9","","-11.8","","63","","0.0","","26","","54","","","","100.81","","","","-17","","NA"
"-53.11","48.67","BONAVISTA","8400601","2020-02-06 11:30","2020","02","06","11:30","-5.4","","-12.4","","58","","0.0","","25","","46","","","","100.86","","","","-15","","NA"
"-53.11","48.67","BONAVISTA","8400601","2020-02-06 12:30","2020","02","06","12:30","-4.8","","-11.2","","61","","0.0","","25","","46","","","","100.82","","","","-14","","NA"
"-53.11","48.67","BONAVISTA","8400601","2020-02-06 13:30","2020","02","06","13:30","-3.9","","-10.6","","60","","0.0","","25","","42","","","","100.84","","","","-13","","NA"
"-53.11","48.67","BONAVISTA","8400601","2020-02-06 14:30","2020","02","06","14:30","-4.1","","-11.3","","57","","0.0","","25","","52","","","","100.79","","","","-14","","NA"
"-53.11","48.67","BONAVISTA","8400601","2020-02-06 15:30","2020","02","06","15:30","-4.5","","-11.7","","57","","0.0","","25","","47","","","","100.86","","","","-14","","NA"
"-53.11","48.67","BONAVISTA","8400601","2020-02-06 16:30","2020","02","06","16:30","-4.5","","-10.7","","62","","0.0","","24","","44","","","","100.91","","","","-14","","NA"
"-53.11","48.67","BONAVISTA","8400601","2020-02-06 17:30","2020","02","06","17:30","-4.5","","-10.4","","64","","0.0","","23","","37","","","","100.91","","","","-13","","NA"
"-53.11","48.67","BONAVISTA","8400601","2020-02-06 18:30","2020","02","06","18:30","-4.3","","-9.7","","66","","0.0","","23","","39","","","","100.98","","","","-13","","NA"
"-53.11","48.67","BONAVISTA","8400601","2020-02-06 19:30","2020","02","06","19:30","-4.1","","-8.7","","70","","0.0","","23","","36","","","","100.99","","","","-12","","NA"
"-53.11","48.67","BONAVISTA","8400601","2020-02-06 20:30","2020","02","06","20:30","-3.6","","-7.7","","73","","0.0","","24","","37","","","","101.02","","","","-12","","NA"
"-53.11","48.67","BONAVISTA","8400601","2020-02-06 21:30","2020","02","06","21:30","-3.2","","-7.4","","73","","0.0","","23","","39","","","","100.98","","","","-12","","NA"
"-53.11","48.67","BONAVISTA","8400601","2020-02-06 22:30","2020","02","06","22:30","-3.0","","-7.4","","71","","0.0","","23","","34","","","","100.91","","","","-11","","NA"
"-53.11","48.67","BONAVISTA","8400601","2020-02-06 23:30","2020","02","06","23:30","-3.5","","-7.0","","77","","0.0","","21","","25","","","","100.88","","","","-10","","NA"
"-53.11","48.67","BONAVISTA","8400601","2020-02-07 00:30","2020","02","07","00:30","-3.3","","-6.7","","78","","0.0","","23","","38","","","","100.77","","","","-12","","NA"
"-53.11","48.67","BONAVISTA","8400601","2020-02-07 01:30","2020","02","07","01:30","-3.5","","-6.6","","79","","0.0","","23","","29","","","","100.65","","","","-11","","NA"
"-53.11","48.67","BONAVISTA","8400601","2020-02-07 02:30","2020","02","07","02:30","-3.5","","-6.1","","82","","0.0","","22","","25","","","","100.64","","","","-10","","NA"
"-53.11","48.67","BONAVISTA","8400601","2020-02-07 03:30","2020","02","07","03:30","-4.0","","-5.3","","91","","0.0","","23","","23","","","","100.59","","","","-11","","NA"
"-53.11","48.67","BONAVISTA","8400601","2020-02-07 04:30","2020","02","07","04:30","-4.1","","-5.1","","93","","0.2","","22","","17","","","","100.56","","","","-10","","NA"
"-53.11","48.67","BONAVISTA","8400601","2020-02-07 05:30","2020","02","07","05:30","-4.3","","-5.5","","91","","0.4","","21","","14","","","","100.48","","","","-9","","NA"
"-53.11","48.67","BONAVISTA","8400601","2020-02-07 06:30","2020","02","07","06:30","-4.1","","-5.5","","91","","0.2","","22","","14","","","","100.39","","","","-9","","NA"
"-53.11","48.67","BONAVISTA","8400601","2020-02-07 07:30","2020","02","07","07:30","-3.9","","-4.8","","93","","0.5","","25","","8","","","","100.32","","","","-7","","NA"
"-53.11","48.67","BONAVISTA","8400601","2020-02-07 08:30","2020","02","07","08:30","-3.9","","-5.0","","93","","0.2","","32","","2","","","","100.28","","","","-5","","NA"
"-53.11","48.67","BONAVISTA","8400601","2020-02-07 09:30","2020","02","07","09:30","-3.8","","-4.8","","93","","0.6","","6","","9","","","","100.20","","","","-8","","NA"
"-53.11","48.67","BONAVISTA","8400601","2020-02-07 10:30","2020","02","07","10:30","-3.7","","-5.5","","88","","0.0","","6","","15","","","","100.00","","","","-9","","NA"
"-53.11","48.67","BONAVISTA","8400601","2020-02-07 11:30","2020","02","07","11:30","-3.5","","-5.3","","88","","0.2","","6","","17","","","","99.93","","","","-9","","NA"
"-53.11","48.67","BONAVISTA","8400601","2020-02-07 12:30","2020","02","07","12:30","-3.6","","-4.8","","91","","0.4","","4","","21","","","","99.78","","","","-10","","NA"
"-53.11","48.67","BONAVISTA","8400601","2020-02-07 13:30","2020","02","07","13:30","-3.7","","-5.2","","89","","0.2","","4","","24","","","","99.77","","","","-11","","NA"
"-53.11","48.67","BONAVISTA","8400601","2020-02-07 14:30","2020","02","07","14:30","-3.6","","-5.4","","87","","0.2","","5","","25","","","","99.69","","","","-11","","NA"
"-53.11","48.67","BONAVISTA","8400601","2020-02-07 15:30","2020","02","07","15:30","-3.7","","-5.3","","89","","0.2","","5","","25","","","","99.66","","","","-11","","NA"
"-53.11","48.67","BONAVISTA","8400601","2020-02-07 16:30","2020","02","07","16:30","-3.8","","-4.8","","92","","1.2","","5","","28","","","","99.61","","","","-11","","NA"
"-53.11","48.67","BONAVISTA","8400601","2020-02-07 17:30","2020","02","07","17:30","-4.0","","-5.0","","92","","1.1","","6","","36","","","","99.42","","","","-12","","NA"
"-53.11","48.67","BONAVISTA","8400601","2020-02-07 18:30","2020","02","07","18:30","-3.6","","-4.9","","90","","0.2","","7","","30","","","","99.49","","","","-11","","NA"
"-53.11","48.67","BONAVISTA","8400601","2020-02-07 19:30","2020","02","07","19:30","-3.4","","-4.6","","91","","0.2","","7","","27","","","","99.42","","","","-11","","NA"
"-53.11","48.67","BONAVISTA","8400601","2020-02-07 20:30","2020","02","07","20:30","-3.4","","-4.1","","95","","1.7","","8","","34","","","","99.26","","","","-11","","NA"
"-53.11","48.67","BONAVISTA","8400601","2020-02-07 21:30","2020","02","07","21:30","-3.2","","-3.8","","95","","0.5","","9","","33","","","","99.06","","","","-11","","NA"
"-53.11","48.67","BONAVISTA","8400601","2020-02-07 22:30","2020","02","07","22:30","-3.0","","-3.6","","95","","3.4","","10","","32","","","","98.75","","","","-11","","NA"
"-53.11","48.67","BONAVISTA","8400601","2020-02-07 23:30","2020","02","07","23:30","-2.5","","-3.1","","96","","2.0","","11","","34","","","","98.49","","","","-10","","NA"
"-53.11","48.67","BONAVISTA","8400601","2020-02-08 00:30","2020","02","08","00:30","-2.0","","-2.5","","96","","2.3","","12","","31","","","","98.11","","","","-9","","NA"
"-53.11","48.67","BONAVISTA","8400601","2020-02-08 01:30","2020","02","08","01:30","-1.0","","-1.5","","97","","2.4","","12","","28","","","","97.71","","","","-8","","NA"
"-53.11","48.67","BONAVISTA","8400601","2020-02-08 02:30","2020","02","08","02:30","-0.6","","-1.1","","96","","0.3","","15","","13","","","","97.63","","","","-5","","NA"
"-53.11","48.67","BONAVISTA","8400601","2020-02-08 03:30","2020","02","08","03:30","0.1","","-0.3","","97","","0.0","","17","","17","","","","97.26","","","","","","NA"
"-53.11","48.67","BONAVISTA","8400601","2020-02-08 04:30","2020","02","08","04:30","4.7","","3.5","","92","","1.2","","20","","51","","","","96.95","","","","","","NA"
"-53.11","48.67","BONAVISTA","8400601","2020-02-08 05:30","2020","02","08","05:30","4.9","","1.3","","77","","0.2","","23","","74","","","","96.98","","","","","","NA"
"-53.11","48.67","BONAVISTA","8400601","2020-02-08 06:30","2020","02","08","06:30","4.2","","0.6","","77","","0.0","","23","","75","","","","96.97","","","","","","NA"
"-53.11","48.67","BONAVISTA","8400601","2020-02-08 07:30","2020","02","08","07:30","3.4","","0.1","","79","","0.0","","23","","68","","","","96.97","","","","","","NA"
"-53.11","48.67","BONAVISTA","8400601","2020-02-08 08:30","2020","02","08","08:30","2.6","","-0.8","","78","","0.0","","23","","65","","","","97.04","","","","","","NA"
"-53.11","48.67","BONAVISTA","8400601","2020-02-08 09:30","2020","02","08","09:30","2.3","","-1.5","","76","","0.0","","23","","67","","","","97.19","","","","","","NA"
"-53.11","48.67","BONAVISTA","8400601","2020-02-08 10:30","2020","02","08","10:30","1.7","","-1.9","","77","","0.0","","23","","61","","","","97.31","","","","","","NA"
"-53.11","48.67","BONAVISTA","8400601","2020-02-08 11:30","2020","02","08","11:30","0.1","","-2.6","","82","","0.0","","26","","49","","","","97.53","","","","","","NA"
"-53.11","48.67","BONAVISTA","8400601","2020-02-08 12:30","2020","02","08","12:30","-0.8","","-2.5","","89","","0.0","","27","","49","","","","97.87","","","","-9","","NA"
"-53.11","48.67","BONAVISTA","8400601","2020-02-08 13:30","2020","02","08","13:30","-2.7","","-5.6","","80","","0.0","","31","","67","","","","98.38","","","","-13","","NA"
"-53.11","48.67","BONAVISTA","8400601","2020-02-08 14:30","2020","02","08","14:30","-3.6","","-6.9","","78","","0.0","","30","","61","","","","98.82","","","","-14","","NA"
"-53.11","48.67","BONAVISTA","8400601","2020-02-08 15:30","2020","02","08","15:30","-4.5","","-8.7","","72","","0.0","","30","","67","","","","99.16","","","","-15","","NA"
"-53.11","48.67","BONAVISTA","8400601","2020-02-08 16:30","2020","02","08","16:30","-4.8","","-8.6","","74","","0.0","","29","","55","","","","99.53","","","","-15","","NA"
"-53.11","48.67","BONAVISTA","8400601","2020-02-08 17:30","2020","02","08","17:30","-5.1","","-9.2","","73","","0.0","","29","","49","","","","99.73","","","","-15","","NA"
"-53.11","48.67","BONAVISTA","8400601","2020-02-08 18:30","2020","02","08","18:30","-4.7","","-8.9","","73","","0.0","","28","","48","","","","99.96","","","","-14","","NA"
"-53.11","48.67","BONAVISTA","8400601","2020-02-08 19:30","2020","02","08","19:30","-5.0","","-10.1","","68","","0.0","","27","","49","","","","100.11","","","","-15","","NA"
"-53.11","48.67","BONAVISTA","8400601","2020-02-08 20:30","2020","02","08","20:30","-5.4","","-10.4","","67","","0.0","","26","","50","","","","100.29","","","","-16","","NA"
"-53.11","48.67","BONAVISTA","8400601","2020-02-08 21:30","2020","02","08","21:30","-6.5","","-11.4","","68","","0.0","","27","","45","","","","100.44","","","","-17","","NA"
"-53.11","48.67","BONAVISTA","8400601","2020-02-08 22:30","2020","02","08","22:30","-6.9","","-12.2","","66","","0.0","","27","","59","","","","100.58","","","","-18","","NA"
"-53.11","48.67","BONAVISTA","8400601","2020-02-08 23:30","2020","02","08","23:30","-6.8","","-12.0","","67","","0.0","","27","","52","","","","100.69","","","","-18","","NA"
"-53.11","48.67","BONAVISTA","8400601","2020-02-09 00:30","2020","02","09","00:30","-6.7","","-11.3","","70","","0.0","","25","","54","","","","100.86","","","","-18","","NA"
"-53.11","48.67","BONAVISTA","8400601","2020-02-09 01:30","2020","02","09","01:30","-6.7","","-11.6","","68","","0.0","","26","","55","","","","100.88","","","","-18","","NA"
"-53.11","48.67","BONAVISTA","8400601","2020-02-09 02:30","2020","02","09","02:30","-6.2","","-11.4","","67","","0.0","","26","","45","","","","100.94","","","","-16","","NA"
"-53.11","48.67","BONAVISTA","8400601","2020-02-09 03:30","2020","02","09","03:30","-5.5","","-10.3","","69","","0.0","","26","","44","","","","100.93","","","","-15","","NA"
"-53.11","48.67","BONAVISTA","8400601","2020-02-09 04:30","2020","02","09","04:30","-5.6","","-11.1","","65","","0.0","","26","","43","","","","100.97","","","","-15","","NA"
"-53.11","48.67","BONAVISTA","8400601","2020-02-09 05:30","2020","02","09","05:30","-5.8","","-11.4","","65","","0.0","","27","","47","","","","101.05","","","","-16","","NA"
"-53.11","48.67","BONAVISTA","8400601","2020-02-09 06:30","2020","02","09","06:30","-6.1","","-12.1","","62","","0.0","","26","","43","","","","101.15","","","","-16","","NA"
"-53.11","48.67","BONAVISTA","8400601","2020-02-09 07:30","2020","02","09","07:30","-6.3","","-12.0","","64","","0.0","","26","","47","","","","101.25","","","","-16","","NA"
"-53.11","48.67","BONAVISTA","8400601","2020-02-09 08:30","2020","02","09","08:30","-6.8","","-12.3","","65","","0.0","","27","","59","","","","101.37","","","","-18","","NA"
"-53.11","48.67","BONAVISTA","8400601","2020-02-09 09:30","2020","02","09","09:30","-6.8","","-12.4","","64","","0.0","","27","","56","","","","101.51","","","","-18","","NA"
"-53.11","48.67","BONAVISTA","8400601","2020-02-09 10:30","2020","02","09","10:30","-7.1","","-13.2","","62","","0.0","","28","","58","","","","101.66","","","","-18","","NA"
"-53.11","48.67","BONAVISTA","8400601","2020-02-09 11:30","2020","02","09","11:30","-6.7","","-13.3","","59","","0.0","","28","","52","","","","101.77","","","","-17","","NA"
"-53.11","48.67","BONAVISTA","8400601","2020-02-09 12:30","2020","02","09","12:30","-6.9","","-14.1","","57","","0.0","","29","","54","","","","101.85","","","","-18","","NA"
"-53.11","48.67","BONAVISTA","8400601","2020-02-09 13:30","2020","02","09","13:30","-6.4","","-14.0","","55","","0.0","","28","","46","","","","101.92","","","","-17","","NA"
"-53.11","48.67","BONAVISTA","8400601","2020-02-09 14:30","2020","02","09","14:30","-6.5","","-15.7","","48","","0.0","","28","","45","","","","102.02","","","","-17","","NA"
"-53.11","48.67","BONAVISTA","8400601","2020-02-09 15:30","2020","02","09","15:30","-6.3","","-15.1","","50","","0.0","","28","","45","","","","102.10","","","","-16","","NA"
"-53.11","48.67","BONAVISTA","8400601","2020-02-09 16:30","2020","02","09","16:30","-6.5","","-15.4","","49","","0.0","","29","","43","","","","102.20","","","","-16","","NA"
"-53.11","48.67","BONAVISTA","8400601","2020-02-09 17:30","2020","02","09","17:30","-6.7","","-15.3","","50","","0.0","","28","","39","","","","102.31","","","","-16","","NA"
"-53.11","48.67","BONAVISTA","8400601","2020-02-09 18:30","2020","02","09","18:30","-6.9","","-15.4","","51","","0.0","","28","","39","","","","102.43","","","","-17","","NA"
"-53.11","48.67","BONAVISTA","8400601","2020-02-09 19:30","2020","02","09","19:30","-7.3","","-15.6","","51","","0.0","","27","","42","","","","102.50","","","","-17","","NA"
"-53.11","48.67","BONAVISTA","8400601","2020-02-09 20:30","2020","02","09","20:30","-7.5","","-14.7","","56","","0.0","","28","","44","","","","102.57","","","","-18","","NA"
"-53.11","48.67","BONAVISTA","8400601","2020-02-09 21:30","2020","02","09","21:30","-7.7","","-13.6","","62","","0.0","","28","","48","","","","102.62","","","","-18","","NA"
"-53.11","48.67","BONAVISTA","8400601","2020-02-09 22:30","2020","02","09","22:30","-8.0","","-13.9","","62","","0.0","","27","","46","","","","102.67","","","","-19","","NA"
"-53.11","48.67","BONAVISTA","8400601","2020-02-09 23:30","2020","02","09","23:30","-8.0","","-12.9","","67","","0.0","","26","","44","","","","102.67","","","","-18","","NA"
"-53.11","48.67","BONAVISTA","8400601","2020-02-10 00:30","2020","02","10","00:30","-7.9","","-12.3","","71","","0.0","","26","","42","","","","102.69","","","","-18","","NA"
"-53.11","48.67","BONAVISTA","8400601","2020-02-10 01:30","2020","02","10","01:30","-8.0","","-12.0","","72","","0.0","","25","","40","","","","102.70","","","","-18","","NA"
"-53.11","48.67","BONAVISTA","8400601","2020-02-10 02:30","2020","02","10","02:30","-9.0","","-12.3","","77","","0.0","","24","","38","","","","102.76","","","","-19","","NA"
"-53.11","48.67","BONAVISTA","8400601","2020-02-10 03:30","2020","02","10","03:30","-9.0","","-12.0","","79","","0.0","","24","","35","","","","102.76","","","","-19","","NA"
"-53.11","48.67","BONAVISTA","8400601","2020-02-10 04:30","2020","02","10","04:30","-9.2","","-12.2","","79","","0.0","","24","","34","","","","102.76","","","","-19","","NA"
"-53.11","48.67","BONAVISTA","8400601","2020-02-10 05:30","2020","02","10","05:30","-8.7","","-12.9","","72","","0.0","","25","","41","","","","102.81","","","","-19","","NA"
"-53.11","48.67","BONAVISTA","8400601","2020-02-10 06:30","2020","02","10","06:30","-8.1","","-11.7","","75","","0.0","","26","","49","","","","102.77","","","","-19","","NA"
"-53.11","48.67","BONAVISTA","8400601","2020-02-10 07:30","2020","02","10","07:30","-7.9","","-11.2","","77","","0.0","","25","","32","","","","102.72","","","","-17","","NA"
"-53.11","48.67","BONAVISTA","8400601","2020-02-10 08:30","2020","02","10","08:30","-8.8","","-12.4","","75","","0.0","","21","","24","","","","102.74","","","","-17","","NA"
"-53.11","48.67","BONAVISTA","8400601","2020-02-10 09:30","2020","02","10","09:30","-6.6","","-10.9","","72","","0.0","","23","","24","","","","102.69","","","","-14","","NA"
"-53.11","48.67","BONAVISTA","8400601","2020-02-10 10:30","2020","02","10","10:30","-4.6","","-9.7","","68","","0.0","","23","","47","","","","102.65","","","","-14","","NA"
"-53.11","48.67","BONAVISTA","8400601","2020-02-10 11:30","2020","02","10","11:30","-3.7","","-9.5","","64","","0.0","","22","","44","","","","102.59","","","","-13","","NA"
"-53.11","48.67","BONAVISTA","8400601","2020-02-10 12:30","2020","02","10","12:30","-3.2","","-9.3","","63","","0.0","","22","","45","","","","102.48","","","","-12","","NA"
"-53.11","48.67","BONAVISTA","8400601","2020-02-10 13:30","2020","02","10","13:30","-2.7","","-8.6","","64","","0.0","","22","","46","","","","102.40","","","","-12","","NA"
"-53.11","48.67","BONAVISTA","8400601","2020-02-10 14:30","2020","02","10","14:30","-2.6","","-8.2","","65","","0.0","","23","","48","","","","102.34","","","","-12","","NA"
"-53.11","48.67","BONAVISTA","8400601","2020-02-10 15:30","2020","02","10","15:30","-2.1","","-7.9","","64","","0.0","","23","","43","","","","102.25","","","","-10","","NA"
"-53.11","48.67","BONAVISTA","8400601","2020-02-10 16:30","2020","02","10","16:30","-1.9","","-7.4","","66","","0.0","","24","","47","","","","102.22","","","","-11","","NA"
"-53.11","48.67","BONAVISTA","8400601","2020-02-10 17:30","2020","02","10","17:30","-1.9","","-6.8","","69","","0.0","","23","","43","","","","102.25","","","","-10","","NA"
"-53.11","48.67","BONAVISTA","8400601","2020-02-10 18:30","2020","02","10","18:30","-2.0","","-6.3","","72","","0.0","","23","","40","","","","102.21","","","","-10","","NA"
"-53.11","48.67","BONAVISTA","8400601","2020-02-10 19:30","2020","02","10","19:30","-2.8","","-6.5","","75","","0.0","","20","","25","","","","102.16","","","","-10","","NA"
"-53.11","48.67","BONAVISTA","8400601","2020-02-10 20:30","2020","02","10","20:30","-2.3","","-6.3","","74","","0.0","","21","","30","","","","102.11","","","","-9","","NA"
"-53.11","48.67","BONAVISTA","8400601","2020-02-10 21:30","2020","02","10","21:30","-2.1","","-5.6","","77","","0.0","","19","","19","","","","101.98","","","","-8","","NA"
"-53.11","48.67","BONAVISTA","8400601","2020-02-10 22:30","2020","02","10","22:30","-2.0","","-5.5","","77","","0.0","","18","","19","","","","101.79","","","","-8","","NA"
"-53.11","48.67","BONAVISTA","8400601","2020-02-10 23:30","2020","02","10","23:30","-2.3","","-5.4","","79","","0.0","","18","","26","","","","101.55","","","","-9","","NA"
"-53.11","48.67","BONAVISTA","8400601","2020-02-11 00:30","2020","02","11","00:30","-2.1","","-4.5","","84","","0.0","","17","","29","","","","101.39","","","","-9","","NA"
"-53.11","48.67","BONAVISTA","8400601","2020-02-11 01:30","2020","02","11","01:30","-2.2","","-3.0","","94","","0.4","","17","","23","","","","101.19","","","","-8","","NA"
"-53.11","48.67","BONAVISTA","8400601","2020-02-11 02:30","2020","02","11","02:30","-1.9","","-2.5","","96","","0.6","","17","","29","","","","100.97","","","","-9","","NA"
"-53.11","48.67","BONAVISTA","8400601","2020-02-11 03:30","2020","02","11","03:30","-1.5","","-2.0","","96","","1.2","","15","","28","","","","100.67","","","","-8","","NA"
"-53.11","48.67","BONAVISTA","8400601","2020-02-11 04:30","2020","02","11","04:30","-1.0","","-1.5","","97","","0.5","","13","","25","","","","100.42","","","","-7","","NA"
"-53.11","48.67","BONAVISTA","8400601","2020-02-11 05:30","2020","02","11","05:30","-0.7","","-1.2","","97","","0.0","","15","","21","","","","100.28","","","","-6","","NA"
"-53.11","48.67","BONAVISTA","8400601","2020-02-11 06:30","2020","02","11","06:30","-0.8","","-1.3","","97","","0.0","","23","","6","","","","100.25","","","","-3","","NA"
"-53.11","48.67","BONAVISTA","8400601","2020-02-11 07:30","2020","02","11","07:30","-1.5","","-2.0","","97","","0.2","","30","","25","","","","100.35","","","","-8","","NA"
"-53.11","48.67","BONAVISTA","8400601","2020-02-11 08:30","2020","02","11","08:30","-1.2","","-1.7","","96","","0.0","","31","","36","","","","100.55","","","","-9","","NA"
"-53.11","48.67","BONAVISTA","8400601","2020-02-11 09:30","2020","02","11","09:30","-1.3","","-1.9","","95","","0.0","","30","","36","","","","100.72","","","","-9","","NA"
"-53.11","48.67","BONAVISTA","8400601","2020-02-11 10:30","2020","02","11","10:30","-1.8","","-3.2","","90","","0.0","","31","","42","","","","100.81","","","","-10","","NA"
"-53.11","48.67","BONAVISTA","8400601","2020-02-11 11:30","2020","02","11","11:30","-2.2","","-3.8","","89","","0.0","","31","","41","","","","100.95","","","","-10","","NA"
"-53.11","48.67","BONAVISTA","8400601","2020-02-11 12:30","2020","02","11","12:30","-1.5","","-3.1","","89","","0.0","","30","","31","","","","101.00","","","","-9","","NA"
"-53.11","48.67","BONAVISTA","8400601","2020-02-11 13:30","2020","02","11","13:30","-0.8","","-2.7","","87","","0.0","","30","","27","","","","101.07","","","","-7","","NA"
"-53.11","48.67","BONAVISTA","8400601","2020-02-11 14:30","2020","02","11","14:30","-1.0","","-4.4","","78","","0.0","","31","","37","","","","101.12","","","","-8","","NA"
"-53.11","48.67","BONAVISTA","8400601","2020-02-11 15:30","2020","02","11","15:30","-1.0","","-4.3","","78","","0.0","","30","","23","","","","101.17","","","","-7","","NA"
"-53.11","48.67","BONAVISTA","8400601","2020-02-11 16:30","2020","02","11","16:30","-1.6","","-4.2","","83","","0.0","","32","","20","","","","101.15","","","","-7","","NA"
"-53.11","48.67","BONAVISTA","8400601","2020-02-11 17:30","2020","02","11","17:30","-2.3","","-4.7","","84","","0.0","","33","","11","","","","101.26","","","","-6","","NA"
"-53.11","48.67","BONAVISTA","8400601","2020-02-11 18:30","2020","02","11","18:30","-3.4","","-5.4","","86","","0.0","","2","","4","","","","101.35","","","","-5","","NA"
"-53.11","48.67","BONAVISTA","8400601","2020-02-11 19:30","2020","02","11","19:30","-4.0","","-5.6","","89","","0.0","","20","","11","","","","101.39","","","","-8","","NA"
"-53.11","48.67","BONAVISTA","8400601","2020-02-11 20:30","2020","02","11","20:30","-5.0","","-7.1","","85","","0.0","","18","","12","","","","101.27","","","","-10","","NA"
"-53.11","48.67","BONAVISTA","8400601","2020-02-11 21:30","2020","02","11","21:30","-5.4","","-7.5","","85","","0.0","","18","","7","","","","101.25","","","","-9","","NA"
"-53.11","48.67","BONAVISTA","8400601","2020-02-11 22:30","2020","02","11","22:30","-5.2","","-7.5","","84","","0.0","","17","","18","","","","101.18","","","","-11","","NA"
"-53.11","48.67","BONAVISTA","8400601","2020-02-11 23:30","2020","02","11","23:30","-4.8","","-6.4","","89","","0.0","","16","","20","","","","101.06","","","","-11","","NA"
"-53.11","48.67","BONAVISTA","8400601","2020-02-12 00:30","2020","02","12","00:30","-4.7","","-6.6","","87","","0.0","","17","","22","","","","100.90","","","","-12","","NA"
"-53.11","48.67","BONAVISTA","8400601","2020-02-12 01:30","2020","02","12","01:30","-4.3","","-5.8","","90","","0.0","","18","","11","","","","100.78","","","","-9","","NA"
"-53.11","48.67","BONAVISTA","8400601","2020-02-12 02:30","2020","02","12","02:30","-3.2","","-4.7","","90","","0.0","","13","","5","","","","100.60","","","","-5","","NA"
"-53.11","48.67","BONAVISTA","8400601","2020-02-12 03:30","2020","02","12","03:30","-1.9","","-4.3","","84","","0.0","","15","","15","","","","100.42","","","","-7","","NA"
"-53.11","48.67","BONAVISTA","8400601","2020-02-12 04:30","2020","02","12","04:30","-1.4","","-3.1","","88","","0.0","","14","","22","","","","100.25","","","","-7","","NA"
"-53.11","48.67","BONAVISTA","8400601","2020-02-12 05:30","2020","02","12","05:30","-1.6","","-3.0","","90","","0.0","","17","","14","","","","100.13","","","","-6","","NA"
"-53.11","48.67","BONAVISTA","8400601","2020-02-12 06:30","2020","02","12","06:30","-2.0","","-2.9","","93","","0.4","","12","","10","","","","99.91","","","","-6","","NA"
"-53.11","48.67","BONAVISTA","8400601","2020-02-12 07:30","2020","02","12","07:30","-1.9","","-2.7","","95","","0.7","","13","","16","","","","99.69","","","","-7","","NA"
"-53.11","48.67","BONAVISTA","8400601","2020-02-12 08:30","2020","02","12","08:30","-1.5","","-2.2","","96","","0.8","","8","","19","","","","99.44","","","","-7","","NA"
"-53.11","48.67","BONAVISTA","8400601","2020-02-12 09:30","2020","02","12","09:30","-1.3","","-1.8","","96","","1.6","","7","","28","","","","99.19","","","","-8","","NA"
"-53.11","48.67","BONAVISTA","8400601","2020-02-12 10:30","2020","02","12","10:30","-1.5","","-2.0","","96","","1.7","","7","","35","","","","98.99","","","","-9","","NA"
"-53.11","48.67","BONAVISTA","8400601","2020-02-12 11:30","2020","02","12","11:30","-1.7","","-2.2","","96","","1.6","","6","","44","","","","98.78","","","","-10","","NA"
"-53.11","48.67","BONAVISTA","8400601","2020-02-12 12:30","2020","02","12","12:30","-1.8","","-2.3","","96","","1.1","","6","","47","","","","98.54","","","","-10","","NA"
"-53.11","48.67","BONAVISTA","8400601","2020-02-12 13:30","2020","02","12","13:30","-1.7","","-2.3","","96","","0.8","","4","","47","","","","98.34","","","","-10","","NA"
"-53.11","48.67","BONAVISTA","8400601","2020-02-12 14:30","2020","02","12","14:30","-1.8","","-2.4","","96","","0.7","","3","","49","","","","98.27","","","","-11","","NA"
"-53.11","48.67","BONAVISTA","8400601","2020-02-12 15:30","2020","02","12","15:30","-2.0","","-2.6","","96","","0.6","","2","","59","","","","98.26","","","","-11","","NA"
"-53.11","48.67","BONAVISTA","8400601","2020-02-12 16:30","2020","02","12","16:30","-2.2","","-2.8","","96","","0.2","","36","","57","","","","98.45","","","","-12","","NA"
"-53.11","48.67","BONAVISTA","8400601","2020-02-12 17:30","2020","02","12","17:30","-2.1","","-2.6","","97","","0.2","","34","","57","","","","98.67","","","","-11","","NA"
"-53.11","48.67","BONAVISTA","8400601","2020-02-12 18:30","2020","02","12","18:30","-2.2","","-2.7","","96","","0.2","","34","","60","","","","98.85","","","","-12","","NA"
"-53.11","48.67","BONAVISTA","8400601","2020-02-12 19:30","2020","02","12","19:30","-2.2","","-2.7","","96","","0.0","","32","","59","","","","99.05","","","","-12","","NA"
"-53.11","48.67","BONAVISTA","8400601","2020-02-12 20:30","2020","02","12","20:30","-2.5","","-3.1","","96","","0.0","","32","","69","","","","99.24","","","","-13","","NA"
"-53.11","48.67","BONAVISTA","8400601","2020-02-12 21:30","2020","02","12","21:30","-3.3","","-3.9","","95","","0.2","","32","","75","","","","99.46","","","","-14","","NA"
"-53.11","48.67","BONAVISTA","8400601","2020-02-12 22:30","2020","02","12","22:30","-3.8","","-4.5","","94","","0.0","","32","","73","","","","99.68","","","","-15","","NA"
"-53.11","48.67","BONAVISTA","8400601","2020-02-12 23:30","2020","02","12","23:30","-3.8","","-4.5","","95","","0.0","","31","","57","","","","99.85","","","","-14","","NA"
"-53.11","48.67","BONAVISTA","8400601","2020-02-13 00:30","2020","02","13","00:30","-4.1","","-5.0","","94","","0.0","","30","","56","","","","99.99","","","","-14","","NA"
"-53.11","48.67","BONAVISTA","8400601","2020-02-13 01:30","2020","02","13","01:30","-4.6","","-5.5","","93","","0.0","","29","","44","","","","99.98","","","","-14","","NA"
"-53.11","48.67","BONAVISTA","8400601","2020-02-13 02:30","2020","02","13","02:30","-4.3","","-5.5","","92","","0.0","","29","","49","","","","100.08","","","","-14","","NA"
"-53.11","48.67","BONAVISTA","8400601","2020-02-13 03:30","2020","02","13","03:30","-4.2","","-5.7","","89","","0.0","","27","","46","","","","100.18","","","","-14","","NA"
"-53.11","48.67","BONAVISTA","8400601","2020-02-13 04:30","2020","02","13","04:30","-4.6","","-6.5","","87","","0.0","","25","","41","","","","100.24","","","","-14","","NA"
"-53.11","48.67","BONAVISTA","8400601","2020-02-13 05:30","2020","02","13","05:30","-5.8","","-8.0","","85","","0.0","","24","","41","","","","100.21","","","","-15","","NA"
"-53.11","48.67","BONAVISTA","8400601","2020-02-13 06:30","2020","02","13","06:30","-5.7","","-8.1","","83","","0.0","","23","","42","","","","100.20","","","","-15","","NA"
"-53.11","48.67","BONAVISTA","8400601","2020-02-13 07:30","2020","02","13","07:30","-4.7","","-7.8","","79","","0.0","","24","","42","","","","100.20","","","","-14","","NA"
"-53.11","48.67","BONAVISTA","8400601","2020-02-13 08:30","2020","02","13","08:30","-3.7","","-7.5","","75","","0.2","","23","","42","","","","100.12","","","","-13","","NA"
"-53.11","48.67","BONAVISTA","8400601","2020-02-13 09:30","2020","02","13","09:30","-2.9","","-6.4","","77","","0.0","","22","","46","","","","100.02","","","","-12","","NA"
"-53.11","48.67","BONAVISTA","8400601","2020-02-13 10:30","2020","02","13","10:30","-1.9","","-5.7","","75","","0.0","","22","","49","","","","99.82","","","","-11","","NA"
"-53.11","48.67","BONAVISTA","8400601","2020-02-13 11:30","2020","02","13","11:30","-1.2","","-5.1","","75","","0.0","","22","","49","","","","99.69","","","","-10","","NA"
"-53.11","48.67","BONAVISTA","8400601","2020-02-13 12:30","2020","02","13","12:30","-0.8","","-4.5","","76","","0.0","","22","","48","","","","99.58","","","","-9","","NA"
"-53.11","48.67","BONAVISTA","8400601","2020-02-13 13:30","2020","02","13","13:30","0.0","","-3.9","","75","","0.0","","23","","54","","","","99.38","","","","-8","","NA"
"-53.11","48.67","BONAVISTA","8400601","2020-02-13 14:30","2020","02","13","14:30","0.3","","-4.5","","70","","0.0","","24","","51","","","","99.32","","","","","","NA"
"-53.11","48.67","BONAVISTA","8400601","2020-02-13 15:30","2020","02","13","15:30","0.3","","-3.3","","77","","0.0","","23","","50","","","","99.26","","","","","","NA"
"-53.11","48.67","BONAVISTA","8400601","2020-02-13 16:30","2020","02","13","16:30","0.3","","-3.7","","74","","0.0","","23","","48","","","","99.14","","","","","","NA"
"-53.11","48.67","BONAVISTA","8400601","2020-02-13 17:30","2020","02","13","17:30","0.1","","-3.1","","79","","0.0","","23","","46","","","","99.06","","","","","","NA"
"-53.11","48.67","BONAVISTA","8400601","2020-02-13 18:30","2020","02","13","18:30","-0.2","","-3.6","","78","","0.0","","24","","46","","","","99.06","","","","-8","","NA"
"-53.11","48.67","BONAVISTA","8400601","2020-02-13 19:30","2020","02","13","19:30","-0.7","","-3.9","","79","","0.0","","24","","41","","","","99.02","","","","-8","","NA"
"-53.11","48.67","BONAVISTA","8400601","2020-02-13 20:30","2020","02","13","20:30","-0.8","","-3.9","","79","","0.0","","24","","38","","","","99.00","","","","-8","","NA"
"-53.11","48.67","BONAVISTA","8400601","2020-02-13 21:30","2020","02","13","21:30","-1.0","","-4.6","","76","","0.0","","26","","46","","","","98.98","","","","-9","","NA"
"-53.11","48.67","BONAVISTA","8400601","2020-02-13 22:30","2020","02","13","22:30","-4.2","","-7.4","","78","","0.0","","32","","47","","","","98.94","","","","-14","","NA"
"-53.11","48.67","BONAVISTA","8400601","2020-02-13 23:30","2020","02","13","23:30","-6.0","","-9.1","","79","","0.0","","33","","45","","","","98.90","","","","-16","","NA"
"-53.11","48.67","BONAVISTA","8400601","2020-02-14 00:30","2020","02","14","00:30","-6.8","","-11.5","","69","","0.0","","32","","46","","","","98.92","","","","-17","","NA"
"-53.11","48.67","BONAVISTA","8400601","2020-02-14 01:30","2020","02","14","01:30","-7.9","","-13.0","","67","","0.2","","32","","48","","","","98.92","","","","-19","","NA"
"-53.11","48.67","BONAVISTA","8400601","2020-02-14 02:30","2020","02","14","02:30","-8.3","","-12.5","","72","","0.0","","31","","41","","","","98.90","","","","-19","","NA"
"-53.11","48.67","BONAVISTA","8400601","2020-02-14 03:30","2020","02","14","03:30","-9.1","","-13.8","","69","","0.0","","31","","41","","","","98.95","","","","-20","","NA"
"-53.11","48.67","BONAVISTA","8400601","2020-02-14 04:30","2020","02","14","04:30","-9.3","","-13.7","","71","","0.0","","30","","40","","","","98.95","","","","-20","","NA"
"-53.11","48.67","BONAVISTA","8400601","2020-02-14 05:30","2020","02","14","05:30","-9.8","","-13.6","","73","","0.0","","29","","42","","","","99.01","","","","-21","","NA"
"-53.11","48.67","BONAVISTA","8400601","2020-02-14 06:30","2020","02","14","06:30","-10.4","","-15.2","","68","","0.0","","29","","48","","","","99.04","","","","-22","","NA"
"-53.11","48.67","BONAVISTA","8400601","2020-02-14 07:30","2020","02","14","07:30","-11.2","","-16.1","","67","","0.0","","29","","53","","","","99.13","","","","-24","","NA"
"-53.11","48.67","BONAVISTA","8400601","2020-02-14 08:30","2020","02","14","08:30","-11.9","","-17.8","","61","","0.0","","29","","60","","","","99.19","","","","-25","","NA"
"-53.11","48.67","BONAVISTA","8400601","2020-02-14 09:30","2020","02","14","09:30","-11.7","","-16.2","","69","","0.0","","28","","56","","","","99.21","","","","-25","","NA"
"-53.11","48.67","BONAVISTA","8400601","2020-02-14 10:30","2020","02","14","10:30","-12.3","","-17.7","","64","","0.0","","28","","55","","","","99.24","","","","-25","","NA"
"-53.11","48.67","BONAVISTA","8400601","2020-02-14 11:30","2020","02","14","11:30","-12.4","","-18.3","","61","","0.0","","29","","54","","","","99.26","","","","-25","","NA"
"-53.11","48.67","BONAVISTA","8400601","2020-02-14 12:30","2020","02","14","12:30","-11.9","","-18.9","","56","","0.0","","27","","56","","","","99.24","","","","-25","","NA"
"-53.11","48.67","BONAVISTA","8400601","2020-02-14 13:30","2020","02","14","13:30","-11.1","","-18.6","","54","","0.0","","27","","54","","","","99.19","","","","-24","","NA"
"-53.11","48.67","BONAVISTA","8400601","2020-02-14 14:30","2020","02","14","14:30","-11.5","","-20.8","","46","","0.0","","28","","61","","","","99.21","","","","-25","","NA"
"-53.11","48.67","BONAVISTA","8400601","2020-02-14 15:30","2020","02","14","15:30","-11.4","","-19.4","","52","","0.0","","28","","68","","","","99.31","","","","-25","","NA"
"-53.11","48.67","BONAVISTA","8400601","2020-02-14 16:30","2020","02","14","16:30","-11.8","","-19.4","","53","","0.0","","28","","65","","","","99.37","","","","-26","","NA"
"-53.11","48.67","BONAVISTA","8400601","2020-02-14 17:30","2020","02","14","17:30","-11.9","","-18.8","","57","","0.0","","28","","72","","","","99.45","","","","-26","","NA"
"-53.11","48.67","BONAVISTA","8400601","2020-02-14 18:30","2020","02","14","18:30","-12.5","","-18.8","","59","","0.0","","28","","62","","","","99.57","","","","-26","","NA"
"-53.11","48.67","BONAVISTA","8400601","2020-02-14 19:30","2020","02","14","19:30","-12.6","","-18.3","","62","","0.0","","29","","70","","","","99.66","","","","-27","","NA"
"-53.11","48.67","BONAVISTA","8400601","2020-02-14 20:30","2020","02","14","20:30","-13.4","","-19.1","","62","","0.0","","29","","61","","","","99.79","","","","-27","","NA"
"-53.11","48.67","BONAVISTA","8400601","2020-02-14 21:30","2020","02","14","21:30","-14.3","","-18.0","","73","","0.0","","30","","62","","","","99.95","","","","-29","","NA"
"-53.11","48.67","BONAVISTA","8400601","2020-02-14 22:30","2020","02","14","22:30","-15.0","","-18.3","","76","","0.0","","28","","56","","","","100.06","","","","-29","","NA"
"-53.11","48.67","BONAVISTA","8400601","2020-02-14 23:30","2020","02","14","23:30","-14.4","","-17.5","","77","","0.0","","29","","61","","","","100.14","","","","-29","","NA"
"-53.11","48.67","BONAVISTA","8400601","2020-02-15 00:30","2020","02","15","00:30","-13.2","","-16.4","","77","","0.2","","29","","67","","","","100.20","","","","-28","","NA"
"-53.11","48.67","BONAVISTA","8400601","2020-02-15 01:30","2020","02","15","01:30","-12.4","","-15.3","","79","","0.0","","29","","65","","","","100.31","","","","-26","","NA"
"-53.11","48.67","BONAVISTA","8400601","2020-02-15 02:30","2020","02","15","02:30","-12.3","","-15.3","","79","","0.0","","29","","65","","","","100.46","","","","-26","","NA"
"-53.11","48.67","BONAVISTA","8400601","2020-02-15 03:30","2020","02","15","03:30","-12.5","","-15.4","","79","","0.0","","29","","62","","","","100.58","","","","-26","","NA"
"-53.11","48.67","BONAVISTA","8400601","2020-02-15 04:30","2020","02","15","04:30","-12.7","","-16.0","","77","","0.0","","30","","67","","","","100.74","","","","-27","","NA"
"-53.11","48.67","BONAVISTA","8400601","2020-02-15 05:30","2020","02","15","05:30","-13.0","","-16.0","","78","","0.0","","30","","62","","","","100.87","","","","-27","","NA"
"-53.11","48.67","BONAVISTA","8400601","2020-02-15 06:30","2020","02","15","06:30","-13.6","","-17.1","","75","","0.0","","28","","59","","","","101.05","","","","-28","","NA"
"-53.11","48.67","BONAVISTA","8400601","2020-02-15 07:30","2020","02","15","07:30","-13.4","","-16.6","","77","","0.0","","29","","64","","","","101.13","","","","-28","","NA"
"-53.11","48.67","BONAVISTA","8400601","2020-02-15 08:30","2020","02","15","08:30","-12.4","","-16.3","","73","","0.0","","30","","59","","","","101.27","","","","-26","","NA"
"-53.11","48.67","BONAVISTA","8400601","2020-02-15 09:30","2020","02","15","09:30","-12.0","","-16.7","","68","","0.0","","30","","63","","","","101.34","","","","-26","","NA"
"-53.11","48.67","BONAVISTA","8400601","2020-02-15 10:30","2020","02","15","10:30","-11.6","","-17.7","","60","","0.0","","29","","59","","","","101.41","","","","-25","","NA"
"-53.11","48.67","BONAVISTA","8400601","2020-02-15 11:30","2020","02","15","11:30","-10.8","","-17.9","","56","","0.0","","27","","56","","","","101.48","","","","-23","","NA"
"-53.11","48.67","BONAVISTA","8400601","2020-02-15 12:30","2020","02","15","12:30","-9.6","","-17.1","","54","","0.0","","28","","57","","","","101.45","","","","-22","","NA"
"-53.11","48.67","BONAVISTA","8400601","2020-02-15 13:30","2020","02","15","13:30","-9.4","","-18.4","","48","","0.0","","27","","58","","","","101.48","","","","-22","","NA"
"-53.11","48.67","BONAVISTA","8400601","2020-02-15 14:30","2020","02","15","14:30","-8.2","","-17.2","","48","","0.0","","28","","57","","","","101.42","","","","-20","","NA"
"-53.11","48.67","BONAVISTA","8400601","2020-02-15 15:30","2020","02","15","15:30","-7.1","","-16.3","","48","","0.0","","27","","59","","","","101.44","","","","-19","","NA"
"-53.11","48.67","BONAVISTA","8400601","2020-02-15 16:30","2020","02","15","16:30","-6.5","","-14.6","","52","","0.0","","27","","64","","","","101.46","","","","-18","","NA"
"-53.11","48.67","BONAVISTA","8400601","2020-02-15 17:30","2020","02","15","17:30","-6.8","","-14.4","","55","","0.0","","26","","57","","","","101.53","","","","-18","","NA"
"-53.11","48.67","BONAVISTA","8400601","2020-02-15 18:30","2020","02","15","18:30","-6.8","","-13.5","","59","","0.0","","27","","56","","","","101.57","","","","-18","","NA"
"-53.11","48.67","BONAVISTA","8400601","2020-02-15 19:30","2020","02","15","19:30","-6.8","","-13.0","","61","","0.0","","26","","50","","","","101.58","","","","-17","","NA"
"-53.11","48.67","BONAVISTA","8400601","2020-02-15 20:30","2020","02","15","20:30","-7.4","","-13.6","","61","","0.0","","27","","60","","","","101.67","","","","-19","","NA"
"-53.11","48.67","BONAVISTA","8400601","2020-02-15 21:30","2020","02","15","21:30","-8.0","","-13.1","","66","","0.0","","27","","53","","","","101.66","","","","-19","","NA"
"-53.11","48.67","BONAVISTA","8400601","2020-02-15 22:30","2020","02","15","22:30","-8.7","","-13.3","","70","","0.0","","26","","48","","","","101.70","","","","-20","","NA"
"-53.11","48.67","BONAVISTA","8400601","2020-02-15 23:30","2020","02","15","23:30","-9.2","","-13.3","","72","","0.0","","26","","51","","","","101.77","","","","-21","","NA"
"-53.11","48.67","BONAVISTA","8400601","2020-02-16 00:30","2020","02","16","00:30","-9.4","","-13.3","","73","","0.0","","26","","51","","","","101.78","","","","-21","","NA"
"-53.11","48.67","BONAVISTA","8400601","2020-02-16 01:30","2020","02","16","01:30","-9.2","","-13.2","","73","","0.0","","26","","54","","","","101.80","","","","-21","","NA"
"-53.11","48.67","BONAVISTA","8400601","2020-02-16 02:30","2020","02","16","02:30","-8.9","","-13.3","","71","","0.0","","26","","55","","","","101.81","","","","-21","","NA"
"-53.11","48.67","BONAVISTA","8400601","2020-02-16 03:30","2020","02","16","03:30","-8.5","","-12.8","","71","","0.0","","27","","62","","","","101.81","","","","-21","","NA"
"-53.11","48.67","BONAVISTA","8400601","2020-02-16 04:30","2020","02","16","04:30","-8.4","","-12.8","","71","","0.0","","26","","51","","","","101.85","","","","-20","","NA"
"-53.11","48.67","BONAVISTA","8400601","2020-02-16 05:30","2020","02","16","05:30","-8.4","","-12.6","","72","","0.0","","25","","52","","","","101.82","","","","-20","","NA"
"-53.11","48.67","BONAVISTA","8400601","2020-02-16 06:30","2020","02","16","06:30","-8.2","","-11.9","","75","","0.0","","25","","35","","","","101.82","","","","-18","","NA"
"-53.11","48.67","BONAVISTA","8400601","2020-02-16 07:30","2020","02","16","07:30","-10.3","","-13.6","","77","","0.0","","20","","22","","","","101.76","","","","-19","","NA"
"-53.11","48.67","BONAVISTA","8400601","2020-02-16 08:30","2020","02","16","08:30","-8.5","","-11.6","","79","","0.0","","22","","22","","","","101.73","","","","-16","","NA"
"-53.11","48.67","BONAVISTA","8400601","2020-02-16 09:30","2020","02","16","09:30","-5.6","","-9.5","","74","","0.0","","23","","32","","","","101.69","","","","-14","","NA"
"-53.11","48.67","BONAVISTA","8400601","2020-02-16 10:30","2020","02","16","10:30","-3.8","","-9.0","","67","","0.0","","23","","50","","","","101.62","","","","-13","","NA"
"-53.11","48.67","BONAVISTA","8400601","2020-02-16 11:30","2020","02","16","11:30","-3.0","","-8.4","","66","","0.0","","23","","54","","","","101.54","","","","-13","","NA"
"-53.11","48.67","BONAVISTA","8400601","2020-02-16 12:30","2020","02","16","12:30","-2.4","","-7.5","","68","","0.0","","23","","53","","","","101.40","","","","-12","","NA"
"-53.11","48.67","BONAVISTA","8400601","2020-02-16 13:30","2020","02","16","13:30","-2.3","","-6.7","","72","","0.0","","24","","46","","","","101.32","","","","-11","","NA"
"-53.11","48.67","BONAVISTA","8400601","2020-02-16 14:30","2020","02","16","14:30","-2.0","","-6.2","","73","","0.0","","24","","48","","","","101.21","","","","-11","","NA"
"-53.11","48.67","BONAVISTA","8400601","2020-02-16 15:30","2020","02","16","15:30","-1.5","","-6.0","","71","","0.0","","23","","52","","","","101.18","","","","-10","","NA"
"-53.11","48.67","BONAVISTA","8400601","2020-02-16 16:30","2020","02","16","16:30","-1.3","","-5.7","","72","","0.0","","24","","59","","","","101.13","","","","-11","","NA"
"-53.11","48.67","BONAVISTA","8400601","2020-02-16 17:30","2020","02","16","17:30","-1.0","","-5.1","","74","","0.0","","24","","51","","","","101.14","","","","-10","","NA"
"-53.11","48.67","BONAVISTA","8400601","2020-02-16 18:30","2020","02","16","18:30","-0.7","","-4.9","","74","","0.0","","23","","55","","","","101.11","","","","-9","","NA"
"-53.11","48.67","BONAVISTA","8400601","2020-02-16 19:30","2020","02","16","19:30","-0.5","","-5.2","","71","","0.0","","22","","55","","","","101.10","","","","-9","","NA"
"-53.11","48.67","BONAVISTA","8400601","2020-02-16 20:30","2020","02","16","20:30","-0.4","","-4.2","","75","","0.0","","23","","54","","","","101.10","","","","-9","","NA"
"-53.11","48.67","BONAVISTA","8400601","2020-02-16 21:30","2020","02","16","21:30","-0.2","","-3.9","","76","","0.0","","23","","46","","","","101.14","","","","-8","","NA"
"-53.11","48.67","BONAVISTA","8400601","2020-02-16 22:30","2020","02","16","22:30","-0.2","","-3.4","","79","","0.0","","23","","45","","","","101.13","","","","-8","","NA"
"-53.11","48.67","BONAVISTA","8400601","2020-02-16 23:30","2020","02","16","23:30","0.2","","-3.2","","78","","0.0","","23","","41","","","","101.15","","","","","","NA"
"-53.11","48.67","BONAVISTA","8400601","2020-02-17 00:30","2020","02","17","00:30","0.2","","-3.1","","79","","0.0","","23","","40","","","","101.16","","","","","","NA"
"-53.11","48.67","BONAVISTA","8400601","2020-02-17 01:30","2020","02","17","01:30","0.1","","-3.1","","79","","0.0","","24","","38","","","","101.21","","","","","","NA"
"-53.11","48.67","BONAVISTA","8400601","2020-02-17 02:30","2020","02","17","02:30","-0.2","","-2.5","","84","","0.0","","24","","29","","","","101.28","","","","-7","","NA"
"-53.11","48.67","BONAVISTA","8400601","2020-02-17 03:30","2020","02","17","03:30","-0.6","","-3.6","","80","","0.0","","27","","24","","","","101.31","","","","-7","","NA"
"-53.11","48.67","BONAVISTA","8400601","2020-02-17 04:30","2020","02","17","04:30","-0.9","","-5.6","","70","","0.0","","24","","25","","","","101.31","","","","-7","","NA"
"-53.11","48.67","BONAVISTA","8400601","2020-02-17 05:30","2020","02","17","05:30","-1.0","","-5.8","","70","","0.0","","25","","27","","","","101.40","","","","-7","","NA"
"-53.11","48.67","BONAVISTA","8400601","2020-02-17 06:30","2020","02","17","06:30","-1.3","","-6.4","","68","","0.0","","25","","25","","","","101.39","","","","-8","","NA"
"-53.11","48.67","BONAVISTA","8400601","2020-02-17 07:30","2020","02","17","07:30","-1.3","","-5.9","","71","","0.0","","26","","25","","","","101.43","","","","-8","","NA"
"-53.11","48.67","BONAVISTA","8400601","2020-02-17 08:30","2020","02","17","08:30","-1.5","","-5.3","","76","","0.0","","21","","11","","","","101.47","","","","-5","","NA"
"-53.11","48.67","BONAVISTA","8400601","2020-02-17 09:30","2020","02","17","09:30","-1.2","","-5.7","","72","","0.0","","21","","13","","","","101.47","","","","-5","","NA"
"-53.11","48.67","BONAVISTA","8400601","2020-02-17 10:30","2020","02","17","10:30","-0.5","","-6.0","","66","","0.0","","22","","15","","","","101.43","","","","-5","","NA"
"-53.11","48.67","BONAVISTA","8400601","2020-02-17 11:30","2020","02","17","11:30","-0.5","","-3.9","","78","","0.0","","23","","13","","","","101.40","","","","-5","","NA"
"-53.11","48.67","BONAVISTA","8400601","2020-02-17 12:30","2020","02","17","12:30","-1.2","","-2.7","","90","","0.0","","27","","7","","","","101.31","","","","-4","","NA"
"-53.11","48.67","BONAVISTA","8400601","2020-02-17 13:30","2020","02","17","13:30","-1.1","","-2.3","","92","","0.3","","32","","5","","","","101.27","","","","-3","","NA"
"-53.11","48.67","BONAVISTA","8400601","2020-02-17 14:30","2020","02","17","14:30","-1.1","","-2.3","","92","","0.7","","9","","7","","","","101.23","","","","-4","","NA"
"-53.11","48.67","BONAVISTA","8400601","2020-02-17 15:30","2020","02","17","15:30","-1.4","","-2.4","","93","","0.6","","5","","7","","","","101.20","","","","-4","","NA"
"-53.11","48.67","BONAVISTA","8400601","2020-02-17 16:30","2020","02","17","16:30","-1.3","","-2.3","","92","","0.3","","","","0","","","","101.18","","","","","","NA"
"-53.11","48.67","BONAVISTA","8400601","2020-02-17 17:30","2020","02","17","17:30","-1.7","","-2.5","","94","","0.5","","8","","5","","","","101.14","","","","-4","","NA"
"-53.11","48.67","BONAVISTA","8400601","2020-02-17 18:30","2020","02","17","18:30","-1.8","","-2.6","","94","","0.0","","5","","2","","","","101.15","","","","-3","","NA"
"-53.11","48.67","BONAVISTA","8400601","2020-02-17 19:30","2020","02","17","19:30","-2.0","","-2.6","","95","","0.0","","7","","6","","","","101.12","","","","-4","","NA"
"-53.11","48.67","BONAVISTA","8400601","2020-02-17 20:30","2020","02","17","20:30","-2.0","","-2.7","","95","","0.0","","5","","4","","","","101.07","","","","-3","","NA"
"-53.11","48.67","BONAVISTA","8400601","2020-02-17 21:30","2020","02","17","21:30","-2.2","","-2.8","","96","","0.0","","30","","4","","","","101.06","","","","-4","","NA"
"-53.11","48.67","BONAVISTA","8400601","2020-02-17 22:30","2020","02","17","22:30","-2.7","","-3.3","","95","","0.0","","30","","9","","","","101.02","","","","-6","","NA"
"-53.11","48.67","BONAVISTA","8400601","2020-02-17 23:30","2020","02","17","23:30","-2.6","","-3.2","","96","","0.0","","29","","12","","","","100.98","","","","-7","","NA"
"-53.11","48.67","BONAVISTA","8400601","2020-02-18 00:30","2020","02","18","00:30","-2.5","","-3.2","","95","","0.0","","29","","21","","","","101.00","","","","-9","","NA"
"-53.11","48.67","BONAVISTA","8400601","2020-02-18 01:30","2020","02","18","01:30","-2.7","","-3.5","","94","","0.0","","29","","19","","","","101.01","","","","-8","","NA"
"-53.11","48.67","BONAVISTA","8400601","2020-02-18 02:30","2020","02","18","02:30","-3.3","","-4.6","","91","","0.0","","28","","12","","","","101.00","","","","-8","","NA"
"-53.11","48.67","BONAVISTA","8400601","2020-02-18 03:30","2020","02","18","03:30","-2.6","","-4.2","","89","","0.0","","26","","24","","","","101.04","","","","-9","","NA"
"-53.11","48.67","BONAVISTA","8400601","2020-02-18 04:30","2020","02","18","04:30","-3.2","","-5.3","","85","","0.0","","24","","22","","","","101.10","","","","-10","","NA"
"-53.11","48.67","BONAVISTA","8400601","2020-02-18 05:30","2020","02","18","05:30","-3.0","","-5.8","","81","","0.0","","26","","24","","","","101.11","","","","-10","","NA"
"-53.11","48.67","BONAVISTA","8400601","2020-02-18 06:30","2020","02","18","06:30","-3.5","","-4.6","","91","","0.0","","25","","24","","","","101.15","","","","-10","","NA"
"-53.11","48.67","BONAVISTA","8400601","2020-02-18 07:30","2020","02","18","07:30","-3.6","","-4.4","","94","","0.2","","26","","30","","","","101.25","","","","-11","","NA"
"-53.11","48.67","BONAVISTA","8400601","2020-02-18 08:30","2020","02","18","08:30","-3.7","","-4.6","","93","","0.0","","32","","43","","","","101.36","","","","-13","","NA"
"-53.11","48.67","BONAVISTA","8400601","2020-02-18 09:30","2020","02","18","09:30","-5.7","","-6.6","","93","","0.7","","35","","69","","","","101.68","","","","-17","","NA"
"-53.11","48.67","BONAVISTA","8400601","2020-02-18 10:30","2020","02","18","10:30","-6.5","","-7.7","","91","","0.6","","33","","63","","","","101.92","","","","-18","","NA"
"-53.11","48.67","BONAVISTA","8400601","2020-02-18 11:30","2020","02","18","11:30","-7.0","","-8.7","","88","","0.0","","33","","48","","","","102.11","","","","-18","","NA"
"-53.11","48.67","BONAVISTA","8400601","2020-02-18 12:30","2020","02","18","12:30","-7.1","","-9.1","","86","","0.0","","32","","49","","","","102.15","","","","-18","","NA"
"-53.11","48.67","BONAVISTA","8400601","2020-02-18 13:30","2020","02","18","13:30","-7.1","","-10.5","","77","","0.0","","32","","46","","","","102.26","","","","-17","","NA"
"-53.11","48.67","BONAVISTA","8400601","2020-02-18 14:30","2020","02","18","14:30","-7.0","","-10.8","","74","","0.0","","31","","43","","","","102.38","","","","-17","","NA"
"-53.11","48.67","BONAVISTA","8400601","2020-02-18 15:30","2020","02","18","15:30","-7.2","","-13.6","","60","","0.0","","31","","43","","","","102.50","","","","-17","","NA"
"-53.11","48.67","BONAVISTA","8400601","2020-02-18 16:30","2020","02","18","16:30","-7.0","","-13.9","","58","","0.0","","31","","38","","","","102.60","","","","-17","","NA"
"-53.11","48.67","BONAVISTA","8400601","2020-02-18 17:30","2020","02","18","17:30","-7.2","","-15.4","","52","","0.2","","30","","35","","","","102.66","","","","-16","","NA"
"-53.11","48.67","BONAVISTA","8400601","2020-02-18 18:30","2020","02","18","18:30","-6.9","","-15.5","","51","","0.0","","30","","31","","","","102.75","","","","-16","","NA"
"-53.11","48.67","BONAVISTA","8400601","2020-02-18 19:30","2020","02","18","19:30","-6.6","","-13.9","","56","","0.0","","27","","33","","","","102.86","","","","-15","","NA"
"-53.11","48.67","BONAVISTA","8400601","2020-02-18 20:30","2020","02","18","20:30","-7.0","","-14.8","","54","","0.0","","28","","35","","","","102.88","","","","-16","","NA"
"-53.11","48.67","BONAVISTA","8400601","2020-02-18 21:30","2020","02","18","21:30","-7.1","","-15.2","","52","","0.0","","28","","35","","","","102.92","","","","-16","","NA"
"-53.11","48.67","BONAVISTA","8400601","2020-02-18 22:30","2020","02","18","22:30","-7.5","","-15.3","","54","","0.0","","27","","28","","","","102.95","","","","-16","","NA"
"-53.11","48.67","BONAVISTA","8400601","2020-02-18 23:30","2020","02","18","23:30","-7.7","","-15.6","","53","","0.0","","27","","36","","","","102.92","","","","-17","","NA"
"-53.11","48.67","BONAVISTA","8400601","2020-02-19 00:30","2020","02","19","00:30","-8.2","","-14.9","","58","","0.0","","25","","24","","","","102.85","","","","-16","","NA"
"-53.11","48.67","BONAVISTA","8400601","2020-02-19 01:30","2020","02","19","01:30","-8.8","","-14.8","","62","","0.0","","23","","23","","","","102.80","","","","-17","","NA"
"-53.11","48.67","BONAVISTA","8400601","2020-02-19 02:30","2020","02","19","02:30","-12.1","","-18.2","","60","","0.0","","18","","12","","","","102.76","","","","-18","","NA"
"-53.11","48.67","BONAVISTA","8400601","2020-02-19 03:30","2020","02","19","03:30","-10.8","","-18.0","","56","","0.0","","18","","20","","","","102.65","","","","-19","","NA"
"-53.11","48.67","BONAVISTA","8400601","2020-02-19 04:30","2020","02","19","04:30","-9.9","","-15.2","","65","","0.0","","17","","19","","","","102.50","","","","-18","","NA"
"-53.11","48.67","BONAVISTA","8400601","2020-02-19 05:30","2020","02","19","05:30","-8.6","","-12.1","","76","","0.0","","17","","20","","","","102.35","","","","-16","","NA"
"-53.11","48.67","BONAVISTA","8400601","2020-02-19 06:30","2020","02","19","06:30","-6.2","","-10.2","","74","","0.0","","18","","18","","","","102.15","","","","-13","","NA"
"-53.11","48.67","BONAVISTA","8400601","2020-02-19 07:30","2020","02","19","07:30","-5.4","","-9.8","","71","","0.0","","18","","33","","","","101.99","","","","-14","","NA"
"-53.11","48.67","BONAVISTA","8400601","2020-02-19 08:30","2020","02","19","08:30","-4.6","","-9.3","","69","","0.0","","18","","45","","","","101.74","","","","-14","","NA"
"-53.11","48.67","BONAVISTA","8400601","2020-02-19 09:30","2020","02","19","09:30","-4.0","","-6.9","","80","","0.0","","17","","38","","","","101.43","","","","-13","","NA"
"-53.11","48.67","BONAVISTA","8400601","2020-02-19 10:30","2020","02","19","10:30","-3.7","","-4.7","","92","","0.8","","17","","53","","","","100.97","","","","-13","","NA"
"-53.11","48.67","BONAVISTA","8400601","2020-02-19 11:30","2020","02","19","11:30","-2.4","","-3.4","","93","","1.0","","16","","66","","","","100.39","","","","-12","","NA"
"-53.11","48.67","BONAVISTA","8400601","2020-02-19 12:30","2020","02","19","12:30","-1.5","","-2.3","","94","","1.1","","17","","69","","","","99.95","","","","-11","","NA"
"-53.11","48.67","BONAVISTA","8400601","2020-02-19 13:30","2020","02","19","13:30","0.1","","-0.8","","94","","0.3","","18","","65","","","","99.64","","","","","","NA"
"-53.11","48.67","BONAVISTA","8400601","2020-02-19 14:30","2020","02","19","14:30","1.0","","0.4","","96","","1.5","","18","","58","","","","99.33","","","","","","NA"
"-53.11","48.67","BONAVISTA","8400601","2020-02-19 15:30","2020","02","19","15:30","3.7","","2.6","","93","","0.5","","20","","64","","","","99.08","","","","","","NA"
"-53.11","48.67","BONAVISTA","8400601","2020-02-19 16:30","2020","02","19","16:30","3.9","","2.8","","93","","0.2","","21","","61","","","","99.06","","","","","","NA"
"-53.11","48.67","BONAVISTA","8400601","2020-02-19 17:30","2020","02","19","17:30","3.4","","1.8","","89","","0.7","","22","","50","","","","99.01","","","","","","NA"
"-53.11","48.67","BONAVISTA","8400601","2020-02-19 18:30","2020","02","19","18:30","2.3","","0.4","","87","","0.0","","23","","48","","","","99.02","","","","","","NA"
"-53.11","48.67","BONAVISTA","8400601","2020-02-19 19:30","2020","02","19","19:30","1.5","","-0.7","","85","","0.0","","24","","56","","","","99.05","","","","","","NA"
"-53.11","48.67","BONAVISTA","8400601","2020-02-19 20:30","2020","02","19","20:30","1.2","","-1.5","","82","","0.0","","24","","48","","","","99.09","","","","","","NA"
"-53.11","48.67","BONAVISTA","8400601","2020-02-19 21:30","2020","02","19","21:30","0.7","","-2.4","","80","","0.0","","24","","49","","","","99.13","","","","","","NA"
"-53.11","48.67","BONAVISTA","8400601","2020-02-19 22:30","2020","02","19","22:30","0.5","","-2.7","","79","","0.0","","25","","46","","","","99.14","","","","","","NA"
"-53.11","48.67","BONAVISTA","8400601","2020-02-19 23:30","2020","02","19","23:30","-0.3","","-5.6","","68","","0.0","","26","","59","","","","99.17","","","","-9","","NA"
"-53.11","48.67","BONAVISTA","8400601","2020-02-20 00:30","2020","02","20","00:30","-1.0","","-6.2","","68","","0.0","","27","","53","","","","99.18","","","","-10","","NA"
"-53.11","48.67","BONAVISTA","8400601","2020-02-20 01:30","2020","02","20","01:30","-1.3","","-6.6","","67","","0.0","","26","","59","","","","99.20","","","","-11","","NA"
"-53.11","48.67","BONAVISTA","8400601","2020-02-20 02:30","2020","02","20","02:30","-2.4","","-7.2","","70","","0.0","","25","","69","","","","99.30","","","","-13","","NA"
"-53.11","48.67","BONAVISTA","8400601","2020-02-20 03:30","2020","02","20","03:30","-3.1","","-9.6","","61","","0.0","","27","","78","","","","99.34","","","","-14","","NA"
"-53.11","48.67","BONAVISTA","8400601","2020-02-20 04:30","2020","02","20","04:30","-3.9","","-10.2","","61","","0.0","","26","","74","","","","99.41","","","","-15","","NA"
"-53.11","48.67","BONAVISTA","8400601","2020-02-20 05:30","2020","02","20","05:30","-4.5","","-10.4","","63","","0.0","","25","","69","","","","99.52","","","","-16","","NA"
"-53.11","48.67","BONAVISTA","8400601","2020-02-20 06:30","2020","02","20","06:30","-5.0","","-10.8","","64","","0.0","","25","","68","","","","99.65","","","","-16","","NA"
"-53.11","48.67","BONAVISTA","8400601","2020-02-20 07:30","2020","02","20","07:30","-5.6","","-10.8","","67","","0.0","","26","","69","","","","99.77","","","","-17","","NA"
"-53.11","48.67","BONAVISTA","8400601","2020-02-20 08:30","2020","02","20","08:30","-5.8","","-11.0","","67","","0.0","","25","","63","","","","99.93","","","","-17","","NA"
"-53.11","48.67","BONAVISTA","8400601","2020-02-20 09:30","2020","02","20","09:30","-5.9","","-11.5","","65","","0.0","","25","","62","","","","100.00","","","","-17","","NA"
"-53.11","48.67","BONAVISTA","8400601","2020-02-20 10:30","2020","02","20","10:30","-5.8","","-11.7","","63","","0.0","","25","","58","","","","100.05","","","","-17","","NA"
"-53.11","48.67","BONAVISTA","8400601","2020-02-20 11:30","2020","02","20","11:30","-6.1","","-12.1","","62","","0.0","","26","","53","","","","100.06","","","","-17","","NA"
"-53.11","48.67","BONAVISTA","8400601","2020-02-20 12:30","2020","02","20","12:30","-5.9","","-12.9","","58","","0.0","","25","","59","","","","100.03","","","","-17","","NA"
"-53.11","48.67","BONAVISTA","8400601","2020-02-20 13:30","2020","02","20","13:30","-5.9","","-13.9","","53","","0.0","","25","","58","","","","100.07","","","","-17","","NA"
"-53.11","48.67","BONAVISTA","8400601","2020-02-20 14:30","2020","02","20","14:30","-6.4","","-15.0","","51","","0.0","","25","","63","","","","100.14","","","","-18","","NA"
"-53.11","48.67","BONAVISTA","8400601","2020-02-20 15:30","2020","02","20","15:30","-7.3","","-16.0","","50","","0.0","","25","","61","","","","100.20","","","","-19","","NA"
"-53.11","48.67","BONAVISTA","8400601","2020-02-20 16:30","2020","02","20","16:30","-7.8","","-15.8","","53","","0.0","","25","","61","","","","100.25","","","","-20","","NA"
"-53.11","48.67","BONAVISTA","8400601","2020-02-20 17:30","2020","02","20","17:30","-8.8","","-16.7","","53","","0.0","","25","","67","","","","100.33","","","","-21","","NA"
"-53.11","48.67","BONAVISTA","8400601","2020-02-20 18:30","2020","02","20","18:30","-9.5","","-16.5","","57","","0.0","","25","","63","","","","100.48","","","","-22","","NA"
"-53.11","48.67","BONAVISTA","8400601","2020-02-20 19:30","2020","02","20","19:30","-9.8","","-15.4","","64","","0.0","","27","","64","","","","100.57","","","","-23","","NA"
"-53.11","48.67","BONAVISTA","8400601","2020-02-20 20:30","2020","02","20","20:30","-11.4","","-18.2","","57","","0.0","","27","","68","","","","100.74","","","","-25","","NA"
"-53.11","48.67","BONAVISTA","8400601","2020-02-20 21:30","2020","02","20","21:30","-12.0","","-18.3","","60","","0.0","","27","","71","","","","100.85","","","","-26","","NA"
"-53.11","48.67","BONAVISTA","8400601","2020-02-20 22:30","2020","02","20","22:30","-12.7","","-18.5","","62","","0.0","","27","","66","","","","100.96","","","","-27","","NA"
"-53.11","48.67","BONAVISTA","8400601","2020-02-20 23:30","2020","02","20","23:30","-12.9","","-18.1","","65","","0.0","","27","","70","","","","101.02","","","","-27","","NA"
"-53.11","48.67","BONAVISTA","8400601","2020-02-21 00:30","2020","02","21","00:30","-13.3","","-19.1","","61","","0.0","","27","","68","","","","101.08","","","","-28","","NA"
"-53.11","48.67","BONAVISTA","8400601","2020-02-21 01:30","2020","02","21","01:30","-13.0","","-18.5","","63","","0.0","","28","","66","","","","101.12","","","","-27","","NA"
"-53.11","48.67","BONAVISTA","8400601","2020-02-21 02:30","2020","02","21","02:30","-12.7","","-18.6","","61","","0.0","","27","","65","","","","101.09","","","","-27","","NA"
"-53.11","48.67","BONAVISTA","8400601","2020-02-21 03:30","2020","02","21","03:30","-12.8","","-17.4","","68","","0.0","","26","","49","","","","101.09","","","","-25","","NA"
"-53.11","48.67","BONAVISTA","8400601","2020-02-21 04:30","2020","02","21","04:30","-12.2","","-16.6","","69","","0.0","","26","","54","","","","101.09","","","","-25","","NA"
"-53.11","48.67","BONAVISTA","8400601","2020-02-21 05:30","2020","02","21","05:30","-12.5","","-17.4","","67","","0.0","","26","","58","","","","101.17","","","","-26","","NA"
"-53.11","48.67","BONAVISTA","8400601","2020-02-21 06:30","2020","02","21","06:30","-12.3","","-16.6","","70","","0.0","","26","","56","","","","101.23","","","","-25","","NA"
"-53.11","48.67","BONAVISTA","8400601","2020-02-21 07:30","2020","02","21","07:30","-12.3","","-17.2","","67","","0.0","","26","","55","","","","101.33","","","","-25","","NA"
"-53.11","48.67","BONAVISTA","8400601","2020-02-21 08:30","2020","02","21","08:30","-12.0","","-17.1","","66","","0.0","","26","","54","","","","101.41","","","","-25","","NA"
"-53.11","48.67","BONAVISTA","8400601","2020-02-21 09:30","2020","02","21","09:30","-11.2","","-16.5","","65","","0.0","","26","","55","","","","101.42","","","","-24","","NA"
"-53.11","48.67","BONAVISTA","8400601","2020-02-21 10:30","2020","02","21","10:30","-10.5","","-16.3","","62","","0.0","","25","","50","","","","101.39","","","","-22","","NA"
"-53.11","48.67","BONAVISTA","8400601","2020-02-21 11:30","2020","02","21","11:30","-9.8","","-16.8","","56","","0.0","","26","","51","","","","101.33","","","","-22","","NA"
"-53.11","48.67","BONAVISTA","8400601","2020-02-21 12:30","2020","02","21","12:30","-9.3","","-16.7","","55","","0.0","","25","","48","","","","101.28","","","","-21","","NA"
"-53.11","48.67","BONAVISTA","8400601","2020-02-21 13:30","2020","02","21","13:30","-8.8","","-16.8","","52","","0.0","","25","","46","","","","101.22","","","","-20","","NA"
"-53.11","48.67","BONAVISTA","8400601","2020-02-21 14:30","2020","02","21","14:30","-8.3","","-17.1","","49","","0.0","","25","","44","","","","101.20","","","","-19","","NA"
"-53.11","48.67","BONAVISTA","8400601","2020-02-21 15:30","2020","02","21","15:30","-7.8","","-17.0","","48","","0.0","","25","","48","","","","101.22","","","","-19","","NA"
"-53.11","48.67","BONAVISTA","8400601","2020-02-21 16:30","2020","02","21","16:30","-7.2","","-15.1","","53","","0.0","","25","","48","","","","101.22","","","","-18","","NA"
"-53.11","48.67","BONAVISTA","8400601","2020-02-21 17:30","2020","02","21","17:30","-7.5","","-16.3","","50","","0.0","","27","","57","","","","101.22","","","","-19","","NA"
"-53.11","48.67","BONAVISTA","8400601","2020-02-21 18:30","2020","02","21","18:30","-7.7","","-15.5","","54","","0.0","","27","","53","","","","101.33","","","","-19","","NA"
"-53.11","48.67","BONAVISTA","8400601","2020-02-21 19:30","2020","02","21","19:30","-8.5","","-16.0","","55","","0.0","","27","","55","","","","101.40","","","","-20","","NA"
"-53.11","48.67","BONAVISTA","8400601","2020-02-21 20:30","2020","02","21","20:30","-8.7","","-15.8","","57","","0.0","","27","","57","","","","101.41","","","","-21","","NA"
"-53.11","48.67","BONAVISTA","8400601","2020-02-21 21:30","2020","02","21","21:30","-9.1","","-16.1","","57","","0.0","","28","","59","","","","101.44","","","","-21","","NA"
"-53.11","48.67","BONAVISTA","8400601","2020-02-21 22:30","2020","02","21","22:30","-9.3","","-15.4","","61","","0.0","","28","","56","","","","101.42","","","","-21","","NA"
"-53.11","48.67","BONAVISTA","8400601","2020-02-21 23:30","2020","02","21","23:30","-9.6","","-14.7","","66","","0.0","","27","","51","","","","101.36","","","","-21","","NA"
"-53.11","48.67","BONAVISTA","8400601","2020-02-22 00:30","2020","02","22","00:30","-9.6","","-14.5","","68","","0.0","","28","","47","","","","101.37","","","","-21","","NA"
"-53.11","48.67","BONAVISTA","8400601","2020-02-22 01:30","2020","02","22","01:30","-9.9","","-14.6","","68","","0.0","","27","","41","","","","101.45","","","","-21","","NA"
"-53.11","48.67","BONAVISTA","8400601","2020-02-22 02:30","2020","02","22","02:30","-10.1","","-14.3","","71","","0.0","","28","","41","","","","101.45","","","","-21","","NA"
"-53.11","48.67","BONAVISTA","8400601","2020-02-22 03:30","2020","02","22","03:30","-10.5","","-13.8","","77","","0.0","","26","","31","","","","101.44","","","","-20","","NA"
"-53.11","48.67","BONAVISTA","8400601","2020-02-22 04:30","2020","02","22","04:30","-11.1","","-13.5","","82","","0.0","","24","","27","","","","101.47","","","","-21","","NA"
"-53.11","48.67","BONAVISTA","8400601","2020-02-22 05:30","2020","02","22","05:30","-10.9","","-13.7","","80","","0.0","","26","","35","","","","101.43","","","","-21","","NA"
"-53.11","48.67","BONAVISTA","8400601","2020-02-22 06:30","2020","02","22","06:30","-11.0","","-13.7","","81","","0.0","","24","","33","","","","101.46","","","","-21","","NA"
"-53.11","48.67","BONAVISTA","8400601","2020-02-22 07:30","2020","02","22","07:30","-10.9","","-13.6","","80","","0.0","","25","","29","","","","101.49","","","","-21","","NA"
"-53.11","48.67","BONAVISTA","8400601","2020-02-22 08:30","2020","02","22","08:30","-10.1","","-13.2","","79","","0.0","","24","","26","","","","101.46","","","","-19","","NA"
"-53.11","48.67","BONAVISTA","8400601","2020-02-22 09:30","2020","02","22","09:30","-9.3","","-13.1","","74","","0.0","","21","","24","","","","101.42","","","","-18","","NA"
"-53.11","48.67","BONAVISTA","8400601","2020-02-22 10:30","2020","02","22","10:30","-8.5","","-15.2","","58","","0.0","","22","","24","","","","101.41","","","","-17","","NA"
"-53.11","48.67","BONAVISTA","8400601","2020-02-22 11:30","2020","02","22","11:30","-6.9","","-14.8","","53","","0.0","","24","","29","","","","101.36","","","","-15","","NA"
"-53.11","48.67","BONAVISTA","8400601","2020-02-22 12:30","2020","02","22","12:30","-5.8","","-14.5","","50","","0.0","","24","","30","","","","101.27","","","","-14","","NA"
"-53.11","48.67","BONAVISTA","8400601","2020-02-22 13:30","2020","02","22","13:30","-4.6","","-12.6","","54","","0.0","","22","","32","","","","101.19","","","","-13","","NA"
"-53.11","48.67","BONAVISTA","8400601","2020-02-22 14:30","2020","02","22","14:30","-3.8","","-11.2","","56","","0.0","","22","","45","","","","101.11","","","","-13","","NA"
"-53.11","48.67","BONAVISTA","8400601","2020-02-22 15:30","2020","02","22","15:30","-3.4","","-10.2","","59","","0.0","","22","","46","","","","101.06","","","","-12","","NA"
"-53.11","48.67","BONAVISTA","8400601","2020-02-22 16:30","2020","02","22","16:30","-3.4","","-10.1","","60","","0.0","","22","","48","","","","101.02","","","","-13","","NA"
"-53.11","48.67","BONAVISTA","8400601","2020-02-22 17:30","2020","02","22","17:30","-3.6","","-9.2","","65","","0.0","","22","","40","","","","101.01","","","","-12","","NA"
"-53.11","48.67","BONAVISTA","8400601","2020-02-22 18:30","2020","02","22","18:30","-3.9","","-10.0","","63","","0.0","","21","","41","","","","100.98","","","","-13","","NA"
"-53.11","48.67","BONAVISTA","8400601","2020-02-22 19:30","2020","02","22","19:30","-3.7","","-8.3","","70","","0.0","","22","","42","","","","101.00","","","","-13","","NA"
"-53.11","48.67","BONAVISTA","8400601","2020-02-22 20:30","2020","02","22","20:30","-3.6","","-7.3","","75","","0.0","","22","","40","","","","100.98","","","","-12","","NA"
"-53.11","48.67","BONAVISTA","8400601","2020-02-22 21:30","2020","02","22","21:30","-3.2","","-6.9","","76","","0.0","","22","","46","","","","100.99","","","","-12","","NA"
"-53.11","48.67","BONAVISTA","8400601","2020-02-22 22:30","2020","02","22","22:30","-3.2","","-6.1","","81","","0.0","","22","","34","","","","100.99","","","","-11","","NA"
"-53.11","48.67","BONAVISTA","8400601","2020-02-22 23:30","2020","02","22","23:30","-3.2","","-5.8","","82","","0.0","","22","","32","","","","100.97","","","","-11","","NA"
"-53.11","48.67","BONAVISTA","8400601","2020-02-23 00:30","2020","02","23","00:30","-3.3","","-5.7","","83","","0.0","","22","","34","","","","100.96","","","","-11","","NA"
"-53.11","48.67","BONAVISTA","8400601","2020-02-23 01:30","2020","02","23","01:30","-2.9","","-5.0","","85","","0.0","","23","","34","","","","100.99","","","","-11","","NA"
"-53.11","48.67","BONAVISTA","8400601","2020-02-23 02:30","2020","02","23","02:30","-2.6","","-4.9","","84","","0.0","","23","","36","","","","100.97","","","","-10","","NA"
"-53.11","48.67","BONAVISTA","8400601","2020-02-23 03:30","2020","02","23","03:30","-2.9","","-5.8","","81","","0.0","","22","","34","","","","100.97","","","","-11","","NA"
"-53.11","48.67","BONAVISTA","8400601","2020-02-23 04:30","2020","02","23","04:30","-3.0","","-5.6","","82","","0.0","","22","","31","","","","101.01","","","","-11","","NA"
"-53.11","48.67","BONAVISTA","8400601","2020-02-23 05:30","2020","02","23","05:30","-3.0","","-5.6","","82","","0.0","","22","","37","","","","101.02","","","","-11","","NA"
"-53.11","48.67","BONAVISTA","8400601","2020-02-23 06:30","2020","02","23","06:30","-2.9","","-5.7","","81","","0.0","","22","","36","","","","101.06","","","","-11","","NA"
"-53.11","48.67","BONAVISTA","8400601","2020-02-23 07:30","2020","02","23","07:30","-2.7","","-5.9","","79","","0.0","","22","","39","","","","101.08","","","","-11","","NA"
"-53.11","48.67","BONAVISTA","8400601","2020-02-23 08:30","2020","02","23","08:30","-2.4","","-5.6","","78","","0.0","","23","","37","","","","101.15","","","","-10","","NA"
"-53.11","48.67","BONAVISTA","8400601","2020-02-23 09:30","2020","02","23","09:30","-1.3","","-5.2","","75","","0.0","","23","","32","","","","101.17","","","","-8","","NA"
"-53.11","48.67","BONAVISTA","8400601","2020-02-23 10:30","2020","02","23","10:30","-0.4","","-5.3","","69","","0.0","","23","","42","","","","101.14","","","","-8","","NA"
"-53.11","48.67","BONAVISTA","8400601","2020-02-23 11:30","2020","02","23","11:30","0.2","","-4.7","","69","","0.0","","22","","37","","","","101.10","","","","","","NA"
"-53.11","48.67","BONAVISTA","8400601","2020-02-23 12:30","2020","02","23","12:30","0.7","","-5.0","","65","","0.0","","22","","33","","","","101.06","","","","","","NA"
"-53.11","48.67","BONAVISTA","8400601","2020-02-23 13:30","2020","02","23","13:30","1.4","","-5.3","","61","","0.0","","24","","45","","","","101.03","","","","","","NA"
"-53.11","48.67","BONAVISTA","8400601","2020-02-23 14:30","2020","02","23","14:30","1.4","","-4.7","","64","","0.0","","25","","42","","","","101.09","","","","","","NA"
"-53.11","48.67","BONAVISTA","8400601","2020-02-23 15:30","2020","02","23","15:30","1.2","","-4.5","","66","","0.0","","24","","39","","","","101.14","","","","","","NA"
"-53.11","48.67","BONAVISTA","8400601","2020-02-23 16:30","2020","02","23","16:30","0.9","","-4.5","","67","","0.0","","24","","38","","","","101.19","","","","","","NA"
"-53.11","48.67","BONAVISTA","8400601","2020-02-23 17:30","2020","02","23","17:30","0.2","","-4.1","","73","","0.0","","23","","33","","","","101.25","","","","","","NA"
"-53.11","48.67","BONAVISTA","8400601","2020-02-23 18:30","2020","02","23","18:30","0.1","","-4.3","","73","","0.0","","23","","38","","","","101.37","","","","","","NA"
"-53.11","48.67","BONAVISTA","8400601","2020-02-23 19:30","2020","02","23","19:30","-0.5","","-4.3","","76","","0.0","","23","","40","","","","101.47","","","","-8","","NA"
"-53.11","48.67","BONAVISTA","8400601","2020-02-23 20:30","2020","02","23","20:30","-0.7","","-4.1","","78","","0.0","","23","","35","","","","101.57","","","","-8","","NA"
"-53.11","48.67","BONAVISTA","8400601","2020-02-23 21:30","2020","02","23","21:30","-1.1","","-3.9","","81","","0.0","","24","","28","","","","101.65","","","","-8","","NA"
"-53.11","48.67","BONAVISTA","8400601","2020-02-23 22:30","2020","02","23","22:30","-1.4","","-4.7","","78","","0.0","","23","","31","","","","101.75","","","","-8","","NA"
"-53.11","48.67","BONAVISTA","8400601","2020-02-23 23:30","2020","02","23","23:30","-1.8","","-4.5","","82","","0.0","","23","","30","","","","101.78","","","","-9","","NA"
"-53.11","48.67","BONAVISTA","8400601","2020-02-24 00:30","2020","02","24","00:30","-1.9","","-4.8","","81","","0.0","","23","","25","","","","101.85","","","","-8","","NA"
"-53.11","48.67","BONAVISTA","8400601","2020-02-24 01:30","2020","02","24","01:30","-2.4","","-5.7","","78","","0.0","","21","","19","","","","101.92","","","","-8","","NA"
"-53.11","48.67","BONAVISTA","8400601","2020-02-24 02:30","2020","02","24","02:30","-2.2","","-5.3","","79","","0.0","","22","","21","","","","101.92","","","","-8","","NA"
"-53.11","48.67","BONAVISTA","8400601","2020-02-24 03:30","2020","02","24","03:30","-2.4","","-5.3","","81","","0.0","","24","","21","","","","101.95","","","","-8","","NA"
"-53.11","48.67","BONAVISTA","8400601","2020-02-24 04:30","2020","02","24","04:30","-2.2","","-5.0","","81","","0.0","","23","","21","","","","102.03","","","","-8","","NA"
"-53.11","48.67","BONAVISTA","8400601","2020-02-24 05:30","2020","02","24","05:30","-2.7","","-5.4","","81","","0.0","","23","","20","","","","102.09","","","","-9","","NA"
"-53.11","48.67","BONAVISTA","8400601","2020-02-24 06:30","2020","02","24","06:30","-3.3","","-6.0","","82","","0.0","","21","","15","","","","102.14","","","","-8","","NA"
"-53.11","48.67","BONAVISTA","8400601","2020-02-24 07:30","2020","02","24","07:30","-4.3","","-6.9","","82","","0.0","","19","","11","","","","102.19","","","","-9","","NA"
"-53.11","48.67","BONAVISTA","8400601","2020-02-24 08:30","2020","02","24","08:30","-2.5","","-5.7","","79","","0.0","","21","","8","","","","102.23","","","","-6","","NA"
"-53.11","48.67","BONAVISTA","8400601","2020-02-24 09:30","2020","02","24","09:30","-1.2","","-5.2","","74","","0.0","","24","","8","","","","102.27","","","","-4","","NA"
"-53.11","48.67","BONAVISTA","8400601","2020-02-24 10:30","2020","02","24","10:30","0.8","","-4.7","","67","","0.0","","26","","3","","","","102.27","","","","","","NA"
"-53.11","48.67","BONAVISTA","8400601","2020-02-24 11:30","2020","02","24","11:30","0.1","","-4.1","","73","","0.0","","7","","14","","","","102.20","","","","","","NA"
"-53.11","48.67","BONAVISTA","8400601","2020-02-24 12:30","2020","02","24","12:30","1.4","","-3.8","","68","","0.0","","10","","15","","","","102.13","","","","","","NA"
"-53.11","48.67","BONAVISTA","8400601","2020-02-24 13:30","2020","02","24","13:30","2.0","","-4.2","","63","","0.0","","15","","17","","","","102.12","","","","","","NA"
"-53.11","48.67","BONAVISTA","8400601","2020-02-24 14:30","2020","02","24","14:30","0.3","","-4.0","","73","","0.0","","15","","32","","","","102.06","","","","","","NA"
"-53.11","48.67","BONAVISTA","8400601","2020-02-24 15:30","2020","02","24","15:30","0.0","","-3.9","","75","","0.0","","16","","25","","","","102.02","","","","-6","","NA"
"-53.11","48.67","BONAVISTA","8400601","2020-02-24 16:30","2020","02","24","16:30","-2.2","","-3.4","","92","","0.0","","16","","27","","","","102.00","","","","-9","","NA"
"-53.11","48.67","BONAVISTA","8400601","2020-02-24 17:30","2020","02","24","17:30","-2.7","","-3.6","","94","","0.0","","16","","27","","","","101.98","","","","-10","","NA"
"-53.11","48.67","BONAVISTA","8400601","2020-02-24 18:30","2020","02","24","18:30","-3.5","","-4.0","","97","","0.0","","17","","24","","","","101.99","","","","-10","","NA"
"-53.11","48.67","BONAVISTA","8400601","2020-02-24 19:30","2020","02","24","19:30","-3.3","","-3.8","","96","","0.0","","16","","21","","","","101.95","","","","-10","","NA"
"-53.11","48.67","BONAVISTA","8400601","2020-02-24 20:30","2020","02","24","20:30","-4.0","","-4.6","","96","","0.0","","18","","16","","","","101.93","","","","-10","","NA"
"-53.11","48.67","BONAVISTA","8400601","2020-02-24 21:30","2020","02","24","21:30","-4.3","","-4.9","","95","","0.0","","18","","16","","","","101.89","","","","-10","","NA"
"-53.11","48.67","BONAVISTA","8400601","2020-02-24 22:30","2020","02","24","22:30","-4.4","","-5.1","","95","","0.0","","18","","11","","","","101.83","","","","-9","","NA"
"-53.11","48.67","BONAVISTA","8400601","2020-02-24 23:30","2020","02","24","23:30","-3.9","","-4.6","","95","","0.0","","16","","16","","","","101.71","","","","-9","","NA"
"-53.11","48.67","BONAVISTA","8400601","2020-02-25 00:30","2020","02","25","00:30","-3.9","","-4.5","","95","","0.0","","17","","11","","","","101.62","","","","-8","","NA"
"-53.11","48.67","BONAVISTA","8400601","2020-02-25 01:30","2020","02","25","01:30","-3.6","","-4.2","","95","","0.0","","15","","32","","","","101.56","","","","-11","","NA"
"-53.11","48.67","BONAVISTA","8400601","2020-02-25 02:30","2020","02","25","02:30","-3.5","","-4.1","","95","","0.0","","19","","12","","","","101.48","","","","-8","","NA"
"-53.11","48.67","BONAVISTA","8400601","2020-02-25 03:30","2020","02","25","03:30","-3.7","","-4.4","","95","","0.0","","20","","12","","","","101.43","","","","-8","","NA"
"-53.11","48.67","BONAVISTA","8400601","2020-02-25 04:30","2020","02","25","04:30","-3.4","","-4.1","","95","","0.0","","23","","12","","","","101.41","","","","-8","","NA"
"-53.11","48.67","BONAVISTA","8400601","2020-02-25 05:30","2020","02","25","05:30","-2.9","","-3.5","","96","","0.0","","24","","14","","","","101.38","","","","-8","","NA"
"-53.11","48.67","BONAVISTA","8400601","2020-02-25 06:30","2020","02","25","06:30","-2.4","","-2.9","","96","","0.0","","24","","12","","","","101.31","","","","-7","","NA"
"-53.11","48.67","BONAVISTA","8400601","2020-02-25 07:30","2020","02","25","07:30","-2.4","","-2.9","","96","","0.0","","24","","13","","","","101.29","","","","-7","","NA"
"-53.11","48.67","BONAVISTA","8400601","2020-02-25 08:30","2020","02","25","08:30","-2.0","","-3.0","","93","","0.0","","22","","12","","","","101.28","","","","-6","","NA"
"-53.11","48.67","BONAVISTA","8400601","2020-02-25 09:30","2020","02","25","09:30","-0.7","","-2.0","","91","","0.0","","20","","14","","","","101.22","","","","-5","","NA"
"-53.11","48.67","BONAVISTA","8400601","2020-02-25 10:30","2020","02","25","10:30","1.1","","-0.9","","86","","0.0","","19","","18","","","","101.17","","","","","","NA"
"-53.11","48.67","BONAVISTA","8400601","2020-02-25 11:30","2020","02","25","11:30","0.7","","-1.8","","84","","0.0","","23","","19","","","","101.13","","","","","","NA"
"-53.11","48.67","BONAVISTA","8400601","2020-02-25 12:30","2020","02","25","12:30","2.4","","-1.9","","73","","0.0","","21","","22","","","","101.02","","","","","","NA"
"-53.11","48.67","BONAVISTA","8400601","2020-02-25 13:30","2020","02","25","13:30","3.1","","-1.7","","70","","0.0","","22","","21","","","","100.98","","","","","","NA"
"-53.11","48.67","BONAVISTA","8400601","2020-02-25 14:30","2020","02","25","14:30","2.8","","-1.9","","71","","0.0","","22","","28","","","","100.90","","","","","","NA"
"-53.11","48.67","BONAVISTA","8400601","2020-02-25 15:30","2020","02","25","15:30","3.2","","-2.3","","67","","0.0","","24","","26","","","","100.90","","","","","","NA"
"-53.11","48.67","BONAVISTA","8400601","2020-02-25 16:30","2020","02","25","16:30","0.8","","-2.0","","82","","0.0","","28","","16","","","","100.91","","","","","","NA"
"-53.11","48.67","BONAVISTA","8400601","2020-02-25 17:30","2020","02","25","17:30","1.3","","-1.9","","79","","0.0","","19","","8","","","","100.97","","","","","","NA"
"-53.11","48.67","BONAVISTA","8400601","2020-02-25 18:30","2020","02","25","18:30","0.7","","-2.0","","82","","0.0","","20","","7","","","","100.99","","","","","","NA"
"-53.11","48.67","BONAVISTA","8400601","2020-02-25 19:30","2020","02","25","19:30","1.0","","-2.0","","80","","0.0","","24","","21","","","","101.02","","","","","","NA"
"-53.11","48.67","BONAVISTA","8400601","2020-02-25 20:30","2020","02","25","20:30","0.1","","-2.0","","85","","0.0","","22","","16","","","","101.08","","","","","","NA"
"-53.11","48.67","BONAVISTA","8400601","2020-02-25 21:30","2020","02","25","21:30","0.1","","-2.0","","86","","0.0","","22","","18","","","","101.12","","","","","","NA"
"-53.11","48.67","BONAVISTA","8400601","2020-02-25 22:30","2020","02","25","22:30","-0.1","","-2.2","","86","","0.0","","22","","14","","","","101.11","","","","-4","","NA"
"-53.11","48.67","BONAVISTA","8400601","2020-02-25 23:30","2020","02","25","23:30","-0.3","","-2.2","","87","","0.0","","24","","15","","","","101.10","","","","-5","","NA"
"-53.11","48.67","BONAVISTA","8400601","2020-02-26 00:30","2020","02","26","00:30","-0.7","","-2.5","","87","","0.0","","27","","8","","","","101.09","","","","-4","","NA"
"-53.11","48.67","BONAVISTA","8400601","2020-02-26 01:30","2020","02","26","01:30","-1.0","","-2.4","","90","","0.0","","28","","9","","","","101.08","","","","-4","","NA"
"-53.11","48.67","BONAVISTA","8400601","2020-02-26 02:30","2020","02","26","02:30","-1.2","","-2.3","","92","","0.0","","4","","7","","","","101.08","","","","-4","","NA"
"-53.11","48.67","BONAVISTA","8400601","2020-02-26 03:30","2020","02","26","03:30","-1.7","","-2.8","","92","","0.0","","7","","12","","","","101.11","","","","-6","","NA"
"-53.11","48.67","BONAVISTA","8400601","2020-02-26 04:30","2020","02","26","04:30","-1.6","","-2.5","","93","","0.0","","5","","11","","","","101.14","","","","-5","","NA"
"-53.11","48.67","BONAVISTA","8400601","2020-02-26 05:30","2020","02","26","05:30","-1.7","","-2.6","","94","","0.0","","6","","14","","","","101.12","","","","-6","","NA"
"-53.11","48.67","BONAVISTA","8400601","2020-02-26 06:30","2020","02","26","06:30","-1.7","","-2.5","","95","","0.0","","7","","14","","","","101.15","","","","-6","","NA"
"-53.11","48.67","BONAVISTA","8400601","2020-02-26 07:30","2020","02","26","07:30","-1.5","","-2.3","","95","","0.0","","5","","22","","","","101.18","","","","-7","","NA"
"-53.11","48.67","BONAVISTA","8400601","2020-02-26 08:30","2020","02","26","08:30","-1.4","","-2.2","","94","","0.0","","7","","20","","","","101.19","","","","-7","","NA"
"-53.11","48.67","BONAVISTA","8400601","2020-02-26 09:30","2020","02","26","09:30","-1.4","","-2.4","","93","","0.0","","8","","23","","","","101.18","","","","-7","","NA"
"-53.11","48.67","BONAVISTA","8400601","2020-02-26 10:30","2020","02","26","10:30","-1.6","","-2.6","","93","","0.0","","8","","21","","","","101.20","","","","-7","","NA"
"-53.11","48.67","BONAVISTA","8400601","2020-02-26 11:30","2020","02","26","11:30","-1.5","","-2.5","","93","","0.0","","7","","20","","","","101.21","","","","-7","","NA"
"-53.11","48.67","BONAVISTA","8400601","2020-02-26 12:30","2020","02","26","12:30","-1.3","","-2.3","","92","","0.0","","8","","19","","","","101.13","","","","-7","","NA"
"-53.11","48.67","BONAVISTA","8400601","2020-02-26 13:30","2020","02","26","13:30","-1.4","","-2.2","","94","","0.0","","5","","20","","","","101.12","","","","-7","","NA"
"-53.11","48.67","BONAVISTA","8400601","2020-02-26 14:30","2020","02","26","14:30","-1.8","","-2.5","","95","","0.0","","6","","18","","","","101.18","","","","-7","","NA"
"-53.11","48.67","BONAVISTA","8400601","2020-02-26 15:30","2020","02","26","15:30","-2.0","","-3.2","","92","","0.0","","4","","27","","","","101.16","","","","-9","","NA"
"-53.11","48.67","BONAVISTA","8400601","2020-02-26 16:30","2020","02","26","16:30","-2.5","","-4.0","","89","","0.0","","5","","25","","","","101.22","","","","-9","","NA"
"-53.11","48.67","BONAVISTA","8400601","2020-02-26 17:30","2020","02","26","17:30","-2.7","","-4.3","","89","","0.0","","5","","19","","","","101.29","","","","-8","","NA"
"-53.11","48.67","BONAVISTA","8400601","2020-02-26 18:30","2020","02","26","18:30","-2.7","","-4.3","","89","","0.0","","3","","20","","","","101.37","","","","-9","","NA"
"-53.11","48.67","BONAVISTA","8400601","2020-02-26 19:30","2020","02","26","19:30","-2.8","","-4.2","","90","","0.0","","3","","22","","","","101.44","","","","-9","","NA"
"-53.11","48.67","BONAVISTA","8400601","2020-02-26 20:30","2020","02","26","20:30","-3.1","","-4.7","","89","","0.0","","1","","22","","","","101.49","","","","-9","","NA"
"-53.11","48.67","BONAVISTA","8400601","2020-02-26 21:30","2020","02","26","21:30","-3.4","","-5.0","","89","","0.0","","36","","23","","","","101.55","","","","-10","","NA"
"-53.11","48.67","BONAVISTA","8400601","2020-02-26 22:30","2020","02","26","22:30","-3.3","","-5.0","","88","","0.0","","36","","24","","","","101.59","","","","-10","","NA"
"-53.11","48.67","BONAVISTA","8400601","2020-02-26 23:30","2020","02","26","23:30","-3.5","","-5.5","","86","","0.0","","35","","25","","","","101.61","","","","-10","","NA"
"-53.11","48.67","BONAVISTA","8400601","2020-02-27 00:30","2020","02","27","00:30","-3.7","","-6.0","","84","","0.0","","35","","20","","","","101.66","","","","-10","","NA"
"-53.11","48.67","BONAVISTA","8400601","2020-02-27 01:30","2020","02","27","01:30","-3.7","","-5.6","","87","","0.0","","36","","20","","","","101.70","","","","-10","","NA"
"-53.11","48.67","BONAVISTA","8400601","2020-02-27 02:30","2020","02","27","02:30","-4.1","","-6.0","","86","","0.0","","1","","26","","","","101.72","","","","-11","","NA"
"-53.11","48.67","BONAVISTA","8400601","2020-02-27 03:30","2020","02","27","03:30","-5.1","","-7.2","","85","","0.0","","1","","31","","","","101.70","","","","-13","","NA"
"-53.11","48.67","BONAVISTA","8400601","2020-02-27 04:30","2020","02","27","04:30","-6.1","","-9.5","","77","","0.0","","1","","40","","","","101.78","","","","-16","","NA"
"-53.11","48.67","BONAVISTA","8400601","2020-02-27 05:30","2020","02","27","05:30","-6.5","","-9.1","","81","","0.0","","36","","32","","","","101.93","","","","-15","","NA"
"-53.11","48.67","BONAVISTA","8400601","2020-02-27 06:30","2020","02","27","06:30","-7.1","","-9.9","","80","","0.0","","36","","31","","","","102.03","","","","-16","","NA"
"-53.11","48.67","BONAVISTA","8400601","2020-02-27 07:30","2020","02","27","07:30","-7.6","","-10.6","","79","","0.2","","36","","34","","","","102.11","","","","-17","","NA"
"-53.11","48.67","BONAVISTA","8400601","2020-02-27 08:30","2020","02","27","08:30","-7.6","","-10.1","","83","","0.0","","36","","34","","","","102.18","","","","-17","","NA"
"-53.11","48.67","BONAVISTA","8400601","2020-02-27 09:30","2020","02","27","09:30","-7.5","","-11.2","","75","","0.0","","34","","30","","","","102.24","","","","-16","","NA"
"-53.11","48.67","BONAVISTA","8400601","2020-02-27 10:30","2020","02","27","10:30","-6.9","","-10.9","","73","","0.0","","34","","24","","","","102.26","","","","-15","","NA"
"-53.11","48.67","BONAVISTA","8400601","2020-02-27 11:30","2020","02","27","11:30","-6.9","","-11.9","","67","","0.0","","33","","30","","","","102.30","","","","-15","","NA"
"-53.11","48.67","BONAVISTA","8400601","2020-02-27 12:30","2020","02","27","12:30","-6.6","","-12.3","","64","","0.0","","33","","30","","","","102.24","","","","-15","","NA"
"-53.11","48.67","BONAVISTA","8400601","2020-02-27 13:30","2020","02","27","13:30","-7.0","","-12.8","","63","","0.0","","34","","35","","","","102.22","","","","-16","","NA"
"-53.11","48.67","BONAVISTA","8400601","2020-02-27 14:30","2020","02","27","14:30","-6.3","","-13.3","","58","","0.0","","33","","30","","","","102.27","","","","-15","","NA"
"-53.11","48.67","BONAVISTA","8400601","2020-02-27 15:30","2020","02","27","15:30","-6.4","","-12.9","","60","","0.0","","36","","38","","","","102.16","","","","-16","","NA"
"-53.11","48.67","BONAVISTA","8400601","2020-02-27 16:30","2020","02","27","16:30","-7.0","","-10.7","","75","","0.0","","36","","28","","","","102.21","","","","-15","","NA"
"-53.11","48.67","BONAVISTA","8400601","2020-02-27 17:30","2020","02","27","17:30","-7.3","","-10.3","","79","","0.0","","2","","27","","","","102.21","","","","-16","","NA"
"-53.11","48.67","BONAVISTA","8400601","2020-02-27 18:30","2020","02","27","18:30","-7.5","","-10.0","","82","","0.0","","2","","23","","","","102.21","","","","-15","","NA"
"-53.11","48.67","BONAVISTA","8400601","2020-02-27 19:30","2020","02","27","19:30","-7.1","","-9.7","","82","","0.0","","4","","21","","","","102.17","","","","-14","","NA"
"-53.11","48.67","BONAVISTA","8400601","2020-02-27 20:30","2020","02","27","20:30","-7.1","","-9.0","","86","","0.0","","6","","36","","","","101.93","","","","-16","","NA"
"-53.11","48.67","BONAVISTA","8400601","2020-02-27 21:30","2020","02","27","21:30","-6.6","","-8.4","","87","","0.0","","8","","32","","","","101.92","","","","-15","","NA"
"-53.11","48.67","BONAVISTA","8400601","2020-02-27 22:30","2020","02","27","22:30","-6.0","","-7.7","","87","","0.0","","8","","39","","","","101.73","","","","-15","","NA"
"-53.11","48.67","BONAVISTA","8400601","2020-02-27 23:30","2020","02","27","23:30","-5.0","","-7.1","","85","","0.0","","10","","33","","","","101.65","","","","-13","","NA"
"-53.11","48.67","BONAVISTA","8400601","2020-02-28 00:30","2020","02","28","00:30","-4.1","","-6.8","","81","","0.0","","11","","32","","","","101.57","","","","-12","","NA"
"-53.11","48.67","BONAVISTA","8400601","2020-02-28 01:30","2020","02","28","01:30","-3.4","","-6.3","","80","","0.0","","11","","37","","","","101.35","","","","-12","","NA"
"-53.11","48.67","BONAVISTA","8400601","2020-02-28 02:30","2020","02","28","02:30","-3.0","","-5.4","","84","","0.0","","10","","32","","","","101.24","","","","-11","","NA"
"-53.11","48.67","BONAVISTA","8400601","2020-02-28 03:30","2020","02","28","03:30","-2.7","","-5.0","","84","","0.0","","11","","37","","","","101.02","","","","-11","","NA"
"-53.11","48.67","BONAVISTA","8400601","2020-02-28 04:30","2020","02","28","04:30","-2.6","","-4.5","","87","","0.0","","10","","48","","","","100.65","","","","-12","","NA"
"-53.11","48.67","BONAVISTA","8400601","2020-02-28 05:30","2020","02","28","05:30","-2.6","","-3.3","","95","","0.3","","12","","45","","","","100.44","","","","-11","","NA"
"-53.11","48.67","BONAVISTA","8400601","2020-02-28 06:30","2020","02","28","06:30","-2.6","","-3.4","","94","","0.4","","12","","46","","","","100.33","","","","-11","","NA"
"-53.11","48.67","BONAVISTA","8400601","2020-02-28 07:30","2020","02","28","07:30","-2.7","","-3.3","","95","","1.0","","12","","34","","","","100.35","","","","-10","","NA"
"-53.11","48.67","BONAVISTA","8400601","2020-02-28 08:30","2020","02","28","08:30","-2.7","","-3.3","","96","","1.6","","11","","41","","","","100.23","","","","-11","","NA"
"-53.11","48.67","BONAVISTA","8400601","2020-02-28 09:30","2020","02","28","09:30","-2.5","","-3.1","","95","","2.0","","11","","44","","","","100.10","","","","-11","","NA"
"-53.11","48.67","BONAVISTA","8400601","2020-02-28 10:30","2020","02","28","10:30","-2.2","","-3.0","","95","","1.5","","11","","47","","","","99.98","","","","-11","","NA"
"-53.11","48.67","BONAVISTA","8400601","2020-02-28 11:30","2020","02","28","11:30","-1.9","","-2.7","","94","","0.2","","10","","39","","","","99.84","","","","-10","","NA"
"-53.11","48.67","BONAVISTA","8400601","2020-02-28 12:30","2020","02","28","12:30","-1.8","","-2.6","","94","","0.2","","11","","33","","","","99.72","","","","-9","","NA"
"-53.11","48.67","BONAVISTA","8400601","2020-02-28 13:30","2020","02","28","13:30","-1.6","","-2.4","","95","","0.0","","11","","21","","","","99.64","","","","-7","","NA"
"-53.11","48.67","BONAVISTA","8400601","2020-02-28 14:30","2020","02","28","14:30","-1.5","","-2.3","","94","","0.0","","11","","13","","","","99.59","","","","-6","","NA"
"-53.11","48.67","BONAVISTA","8400601","2020-02-28 15:30","2020","02","28","15:30","-1.3","","-2.2","","94","","0.0","","12","","11","","","","99.52","","","","-5","","NA"
"-53.11","48.67","BONAVISTA","8400601","2020-02-28 16:30","2020","02","28","16:30","-1.3","","-2.0","","95","","0.0","","13","","7","","","","99.51","","","","-4","","NA"
"-53.11","48.67","BONAVISTA","8400601","2020-02-28 17:30","2020","02","28","17:30","-1.3","","-2.0","","94","","0.0","","19","","5","","","","99.58","","","","-3","","NA"
"-53.11","48.67","BONAVISTA","8400601","2020-02-28 18:30","2020","02","28","18:30","-0.9","","-1.7","","94","","0.0","","23","","6","","","","99.61","","","","-3","","NA"
"-53.11","48.67","BONAVISTA","8400601","2020-02-28 19:30","2020","02","28","19:30","-0.2","","-1.6","","90","","0.0","","24","","15","","","","99.69","","","","-5","","NA"
"-53.11","48.67","BONAVISTA","8400601","2020-02-28 20:30","2020","02","28","20:30","-0.5","","-3.1","","83","","0.0","","24","","37","","","","99.74","","","","-8","","NA"
"-53.11","48.67","BONAVISTA","8400601","2020-02-28 21:30","2020","02","28","21:30","-1.2","","-4.4","","79","","0.0","","25","","47","","","","99.81","","","","-10","","NA"
"-53.11","48.67","BONAVISTA","8400601","2020-02-28 22:30","2020","02","28","22:30","-2.2","","-5.4","","78","","0.0","","24","","43","","","","99.88","","","","-11","","NA"
"-53.11","48.67","BONAVISTA","8400601","2020-02-28 23:30","2020","02","28","23:30","-2.6","","-5.1","","83","","0.0","","25","","57","","","","99.93","","","","-12","","NA"
"-53.11","48.67","BONAVISTA","8400601","2020-02-29 00:30","2020","02","29","00:30","-2.8","","-6.1","","78","","0.0","","25","","56","","","","99.99","","","","-12","","NA"
"-53.11","48.67","BONAVISTA","8400601","2020-02-29 01:30","2020","02","29","01:30","-3.2","","-7.5","","72","","0.0","","25","","54","","","","100.12","","","","-13","","NA"
"-53.11","48.67","BONAVISTA","8400601","2020-02-29 02:30","2020","02","29","02:30","-3.6","","-7.8","","73","","0.0","","25","","53","","","","100.21","","","","-13","","NA"
"-53.11","48.67","BONAVISTA","8400601","2020-02-29 03:30","2020","02","29","03:30","-3.4","","-8.4","","69","","0.0","","26","","49","","","","100.23","","","","-13","","NA"
"-53.11","48.67","BONAVISTA","8400601","2020-02-29 04:30","2020","02","29","04:30","-3.2","","-8.6","","66","","0.0","","26","","48","","","","100.27","","","","-12","","NA"
"-53.11","48.67","BONAVISTA","8400601","2020-02-29 05:30","2020","02","29","05:30","-3.5","","-8.3","","69","","0.0","","26","","40","","","","100.31","","","","-12","","NA"
"-53.11","48.67","BONAVISTA","8400601","2020-02-29 06:30","2020","02","29","06:30","-3.8","","-8.1","","72","","0.0","","27","","43","","","","100.32","","","","-13","","NA"
"-53.11","48.67","BONAVISTA","8400601","2020-02-29 07:30","2020","02","29","07:30","-3.6","","-8.0","","71","","0.0","","27","","41","","","","100.36","","","","-12","","NA"
"-53.11","48.67","BONAVISTA","8400601","2020-02-29 08:30","2020","02","29","08:30","-3.4","","-7.9","","71","","0.0","","26","","34","","","","100.52","","","","-11","","NA"
"-53.11","48.67","BONAVISTA","8400601","2020-02-29 09:30","2020","02","29","09:30","-3.1","","-7.5","","71","","0.0","","26","","34","","","","100.55","","","","-11","","NA"
"-53.11","48.67","BONAVISTA","8400601","2020-02-29 10:30","2020","02","29","10:30","-2.6","","-7.2","","71","","0.0","","26","","30","","","","100.53","","","","-10","","NA"
"-53.11","48.67","BONAVISTA","8400601","2020-02-29 11:30","2020","02","29","11:30","-1.9","","-7.2","","67","","0.0","","27","","28","","","","100.56","","","","-9","","NA"
"-53.11","48.67","BONAVISTA","8400601","2020-02-29 12:30","2020","02","29","12:30","-1.4","","-6.0","","71","","0.0","","29","","16","","","","100.53","","","","-6","","NA"
"-53.11","48.67","BONAVISTA","8400601","2020-02-29 13:30","2020","02","29","13:30","-0.6","","-6.0","","67","","0.0","","26","","16","","","","100.51","","","","-5","","NA"
"-53.11","48.67","BONAVISTA","8400601","2020-02-29 14:30","2020","02","29","14:30","-0.1","","-6.6","","62","","0.0","","26","","20","","","","100.54","","","","-5","","NA"
"-53.11","48.67","BONAVISTA","8400601","2020-02-29 15:30","2020","02","29","15:30","-0.3","","-8.2","","55","","0.0","","28","","32","","","","100.60","","","","-7","","NA"
"-53.11","48.67","BONAVISTA","8400601","2020-02-29 16:30","2020","02","29","16:30","-0.4","","-8.9","","53","","0.0","","28","","42","","","","100.65","","","","-8","","NA"
"-53.11","48.67","BONAVISTA","8400601","2020-02-29 17:30","2020","02","29","17:30","-0.8","","-7.7","","60","","0.0","","28","","36","","","","100.70","","","","-8","","NA"
"-53.11","48.67","BONAVISTA","8400601","2020-02-29 18:30","2020","02","29","18:30","-1.3","","-7.6","","62","","0.0","","29","","37","","","","100.79","","","","-9","","NA"
"-53.11","48.67","BONAVISTA","8400601","2020-02-29 19:30","2020","02","29","19:30","-1.8","","-7.1","","67","","0.0","","29","","30","","","","100.86","","","","-9","","NA"
"-53.11","48.67","BONAVISTA","8400601","2020-02-29 20:30","2020","02","29","20:30","-2.1","","-7.2","","68","","0.0","","29","","27","","","","100.89","","","","-9","","NA"
"-53.11","48.67","BONAVISTA","8400601","2020-02-29 21:30","2020","02","29","21:30","-2.3","","-6.8","","71","","0.0","","27","","21","","","","100.96","","","","-8","","NA"
"-53.11","48.67","BONAVISTA","8400601","2020-02-29 22:30","2020","02","29","22:30","-3.2","","-7.1","","74","","0.0","","24","","20","","","","100.97","","","","-9","","NA"
"-53.11","48.67","BONAVISTA","8400601","2020-02-29 23:30","2020","02","29","23:30","-2.9","","-7.5","","71","","0.0","","25","","21","","","","100.99","","","","-9","","NA"
