"Longitude (x)","Latitude (y)","Station Name","Climate ID","Date/Time (LST)","Year","Month","Day","Time (LST)","Temp (°C)","Temp Flag","Dew Point Temp (°C)","Dew Point Temp Flag","Rel Hum (%)","Rel Hum Flag","Precip. Amount (mm)","Precip. Amount Flag","Wind Dir (10s deg)","Wind Dir Flag","Wind Spd (km/h)","Wind Spd Flag","Visibility (km)","Visibility Flag","Stn Press (kPa)","Stn Press Flag","Hmdx","Hmdx Flag","Wind Chill","Wind Chill Flag","Weather"
"-132.77","53.32","KINDAKUN ROCKS (AUT)","1054222","2021-12-01 00:00","2021","12","01","00:00","8.3","","4.7","","78","","","M","20","","22","","","","100.73","","","","","","NA"
"-132.77","53.32","KINDAKUN ROCKS (AUT)","1054222","2021-12-01 01:00","2021","12","01","01:00","8.1","","4.4","","77","","","M","19","","28","","","","100.71","","","","","","NA"
"-132.77","53.32","KINDAKUN ROCKS (AUT)","1054222","2021-12-01 02:00","2021","12","01","02:00","8.1","","4.3","","77","","","M","18","","31","","","","100.65","","","","","","NA"
"-132.77","53.32","KINDAKUN ROCKS (AUT)","1054222","2021-12-01 03:00","2021","12","01","03:00","8.2","","4.4","","77","","","M","17","","32","","","","100.59","","","","","","NA"
"-132.77","53.32","KINDAKUN ROCKS (AUT)","1054222","2021-12-01 04:00","2021","12","01","04:00","7.9","","5.6","","85","","","M","17","","35","","","","100.53","","","","","","NA"
"-132.77","53.32","KINDAKUN ROCKS (AUT)","1054222","2021-12-01 05:00","2021","12","01","05:00","7.6","","5.3","","85","","","M","18","","42","","","","100.49","","","","","","NA"
"-132.77","53.32","KINDAKUN ROCKS (AUT)","1054222","2021-12-01 06:00","2021","12","01","06:00","7.9","","5.1","","82","","","M","18","","43","","","","100.42","","","","","","NA"
"-132.77","53.32","KINDAKUN ROCKS (AUT)","1054222","2021-12-01 07:00","2021","12","01","07:00","7.3","","5.6","","89","","","M","18","","48","","","","100.37","","","","","","NA"
"-132.77","53.32","KINDAKUN ROCKS (AUT)","1054222","2021-12-01 08:00","2021","12","01","08:00","7.3","","6.2","","93","","","M","18","","53","","","","100.31","","","","","","NA"
"-132.77","53.32","KINDAKUN ROCKS (AUT)","1054222","2021-12-01 09:00","2021","12","01","09:00","7.3","","6.5","","95","","","M","17","","49","","","","100.22","","","","","","NA"
"-132.77","53.32","KINDAKUN ROCKS (AUT)","1054222","2021-12-01 10:00","2021","12","01","10:00","7.3","","5.1","","86","","","M","20","","38","","","","100.34","","","","","","NA"
"-132.77","53.32","KINDAKUN ROCKS (AUT)","1054222","2021-12-01 11:00","2021","12","01","11:00","6.2","","2.8","","79","","","M","28","","46","","","","100.60","","","","","","NA"
"-132.77","53.32","KINDAKUN ROCKS (AUT)","1054222","2021-12-01 12:00","2021","12","01","12:00","6.2","","0.5","","67","","","M","28","","52","","","","100.80","","","","","","NA"
"-132.77","53.32","KINDAKUN ROCKS (AUT)","1054222","2021-12-01 13:00","2021","12","01","13:00","5.9","","-3.2","","52","","","M","27","","46","","","","100.89","","","","","","NA"
"-132.77","53.32","KINDAKUN ROCKS (AUT)","1054222","2021-12-01 14:00","2021","12","01","14:00","6.1","","-2.5","","54","","","M","25","","47","","","","100.90","","","","","","NA"
"-132.77","53.32","KINDAKUN ROCKS (AUT)","1054222","2021-12-01 15:00","2021","12","01","15:00","5.0","","-2.1","","60","","","M","28","","47","","","","101.00","","","","","","NA"
"-132.77","53.32","KINDAKUN ROCKS (AUT)","1054222","2021-12-01 16:00","2021","12","01","16:00","4.8","","-1.5","","64","","","M","26","","43","","","","101.09","","","","","","NA"
"-132.77","53.32","KINDAKUN ROCKS (AUT)","1054222","2021-12-01 17:00","2021","12","01","17:00","5.1","","-1.8","","61","","","M","26","","43","","","","101.17","","","","","","NA"
"-132.77","53.32","KINDAKUN ROCKS (AUT)","1054222","2021-12-01 18:00","2021","12","01","18:00","5.1","","-1.8","","61","","","M","25","","41","","","","101.19","","","","","","NA"
"-132.77","53.32","KINDAKUN ROCKS (AUT)","1054222","2021-12-01 19:00","2021","12","01","19:00","4.4","","-0.3","","72","","","M","26","","30","","","","101.27","","","","","","NA"
"-132.77","53.32","KINDAKUN ROCKS (AUT)","1054222","2021-12-01 20:00","2021","12","01","20:00","4.3","","-0.8","","70","","","M","24","","32","","","","101.32","","","","","","NA"
"-132.77","53.32","KINDAKUN ROCKS (AUT)","1054222","2021-12-01 21:00","2021","12","01","21:00","4.1","","0.1","","75","","","M","24","","33","","","","101.41","","","","","","NA"
"-132.77","53.32","KINDAKUN ROCKS (AUT)","1054222","2021-12-01 22:00","2021","12","01","22:00","4.5","","-2.3","","62","","","M","26","","42","","","","101.45","","","","","","NA"
"-132.77","53.32","KINDAKUN ROCKS (AUT)","1054222","2021-12-01 23:00","2021","12","01","23:00","2.9","","0.3","","83","","","M","24","","44","","","","101.53","","","","","","NA"
"-132.77","53.32","KINDAKUN ROCKS (AUT)","1054222","2021-12-02 00:00","2021","12","02","00:00","4.2","","0.0","","75","","","M","24","","32","","","","101.52","","","","","","NA"
"-132.77","53.32","KINDAKUN ROCKS (AUT)","1054222","2021-12-02 01:00","2021","12","02","01:00","4.1","","-0.5","","72","","","M","24","","31","","","","101.58","","","","","","NA"
"-132.77","53.32","KINDAKUN ROCKS (AUT)","1054222","2021-12-02 02:00","2021","12","02","02:00","3.8","","-1.4","","69","","","M","26","","39","","","","101.65","","","","","","NA"
"-132.77","53.32","KINDAKUN ROCKS (AUT)","1054222","2021-12-02 03:00","2021","12","02","03:00","3.3","","-0.2","","78","","","M","28","","41","","","","101.72","","","","","","NA"
"-132.77","53.32","KINDAKUN ROCKS (AUT)","1054222","2021-12-02 04:00","2021","12","02","04:00","2.4","","-0.3","","83","","","M","25","","46","","","","101.78","","","","","","NA"
"-132.77","53.32","KINDAKUN ROCKS (AUT)","1054222","2021-12-02 05:00","2021","12","02","05:00","2.7","","-1.0","","77","","","M","25","","44","","","","101.72","","","","","","NA"
"-132.77","53.32","KINDAKUN ROCKS (AUT)","1054222","2021-12-02 06:00","2021","12","02","06:00","4.4","","-0.9","","69","","","M","25","","42","","","","101.77","","","","","","NA"
"-132.77","53.32","KINDAKUN ROCKS (AUT)","1054222","2021-12-02 07:00","2021","12","02","07:00","4.5","","-2.1","","62","","","M","25","","38","","","","101.81","","","","","","NA"
"-132.77","53.32","KINDAKUN ROCKS (AUT)","1054222","2021-12-02 08:00","2021","12","02","08:00","3.4","","-1.1","","72","","","M","27","","41","","","","101.88","","","","","","NA"
"-132.77","53.32","KINDAKUN ROCKS (AUT)","1054222","2021-12-02 09:00","2021","12","02","09:00","3.1","","-0.1","","80","","","M","24","","35","","","","101.90","","","","","","NA"
"-132.77","53.32","KINDAKUN ROCKS (AUT)","1054222","2021-12-02 10:00","2021","12","02","10:00","3.0","","-0.2","","80","","","M","27","","37","","","","102.03","","","","","","NA"
"-132.77","53.32","KINDAKUN ROCKS (AUT)","1054222","2021-12-02 11:00","2021","12","02","11:00","4.2","","-0.6","","71","","","M","26","","32","","","","102.06","","","","","","NA"
"-132.77","53.32","KINDAKUN ROCKS (AUT)","1054222","2021-12-02 12:00","2021","12","02","12:00","5.0","","-2.0","","60","","","M","24","","41","","","","102.11","","","","","","NA"
"-132.77","53.32","KINDAKUN ROCKS (AUT)","1054222","2021-12-02 13:00","2021","12","02","13:00","5.1","","-1.6","","62","","","M","25","","28","","","","102.10","","","","","","NA"
"-132.77","53.32","KINDAKUN ROCKS (AUT)","1054222","2021-12-02 14:00","2021","12","02","14:00","4.6","","0.9","","77","","","M","28","","11","","","","102.11","","","","","","NA"
"-132.77","53.32","KINDAKUN ROCKS (AUT)","1054222","2021-12-02 15:00","2021","12","02","15:00","4.5","","2.0","","83","","","M","23","","30","","","","102.13","","","","","","NA"
"-132.77","53.32","KINDAKUN ROCKS (AUT)","1054222","2021-12-02 16:00","2021","12","02","16:00","5.6","","0.0","","67","","","M","26","","37","","","","102.15","","","","","","NA"
"-132.77","53.32","KINDAKUN ROCKS (AUT)","1054222","2021-12-02 17:00","2021","12","02","17:00","3.8","","1.5","","85","","","M","26","","31","","","","102.16","","","","","","NA"
"-132.77","53.32","KINDAKUN ROCKS (AUT)","1054222","2021-12-02 18:00","2021","12","02","18:00","4.6","","1.4","","80","","","M","23","","29","","","","102.18","","","","","","NA"
"-132.77","53.32","KINDAKUN ROCKS (AUT)","1054222","2021-12-02 19:00","2021","12","02","19:00","4.5","","1.7","","83","","","M","23","","35","","","","102.24","","","","","","NA"
"-132.77","53.32","KINDAKUN ROCKS (AUT)","1054222","2021-12-02 20:00","2021","12","02","20:00","4.4","","1.6","","82","","","M","24","","30","","","","102.26","","","","","","NA"
"-132.77","53.32","KINDAKUN ROCKS (AUT)","1054222","2021-12-02 21:00","2021","12","02","21:00","5.5","","0.4","","70","","","M","25","","30","","","","102.27","","","","","","NA"
"-132.77","53.32","KINDAKUN ROCKS (AUT)","1054222","2021-12-02 22:00","2021","12","02","22:00","4.4","","2.2","","86","","","M","25","","29","","","","102.33","","","","","","NA"
"-132.77","53.32","KINDAKUN ROCKS (AUT)","1054222","2021-12-02 23:00","2021","12","02","23:00","5.7","","-0.2","","66","","","M","24","","29","","","","102.33","","","","","","NA"
"-132.77","53.32","KINDAKUN ROCKS (AUT)","1054222","2021-12-03 00:00","2021","12","03","00:00","5.5","","-1.0","","63","","","M","25","","40","","","","102.37","","","","","","NA"
"-132.77","53.32","KINDAKUN ROCKS (AUT)","1054222","2021-12-03 01:00","2021","12","03","01:00","4.6","","1.7","","81","","","M","23","","33","","","","102.35","","","","","","NA"
"-132.77","53.32","KINDAKUN ROCKS (AUT)","1054222","2021-12-03 02:00","2021","12","03","02:00","4.4","","1.8","","84","","","M","23","","24","","","","102.37","","","","","","NA"
"-132.77","53.32","KINDAKUN ROCKS (AUT)","1054222","2021-12-03 03:00","2021","12","03","03:00","5.8","","2.4","","79","","","M","20","","22","","","","102.35","","","","","","NA"
"-132.77","53.32","KINDAKUN ROCKS (AUT)","1054222","2021-12-03 04:00","2021","12","03","04:00","4.7","","1.0","","77","","","M","25","","26","","","","102.35","","","","","","NA"
"-132.77","53.32","KINDAKUN ROCKS (AUT)","1054222","2021-12-03 05:00","2021","12","03","05:00","3.1","","1.8","","91","","","M","29","","21","","","","102.30","","","","","","NA"
"-132.77","53.32","KINDAKUN ROCKS (AUT)","1054222","2021-12-03 06:00","2021","12","03","06:00","4.4","","1.4","","81","","","M","25","","14","","","","102.28","","","","","","NA"
"-132.77","53.32","KINDAKUN ROCKS (AUT)","1054222","2021-12-03 07:00","2021","12","03","07:00","3.9","","1.5","","84","","","M","27","","23","","","","102.22","","","","","","NA"
"-132.77","53.32","KINDAKUN ROCKS (AUT)","1054222","2021-12-03 08:00","2021","12","03","08:00","4.4","","2.8","","89","","","M","21","","28","","","","102.18","","","","","","NA"
"-132.77","53.32","KINDAKUN ROCKS (AUT)","1054222","2021-12-03 09:00","2021","12","03","09:00","5.6","","2.1","","79","","","M","22","","37","","","","102.16","","","","","","NA"
"-132.77","53.32","KINDAKUN ROCKS (AUT)","1054222","2021-12-03 10:00","2021","12","03","10:00","4.7","","2.6","","87","","","M","28","","18","","","","102.17","","","","","","NA"
"-132.77","53.32","KINDAKUN ROCKS (AUT)","1054222","2021-12-03 11:00","2021","12","03","11:00","3.9","","1.1","","82","","","M","27","","46","","","","102.22","","","","","","NA"
"-132.77","53.32","KINDAKUN ROCKS (AUT)","1054222","2021-12-03 12:00","2021","12","03","12:00","5.4","","0.4","","70","","","M","24","","31","","","","102.17","","","","","","NA"
"-132.77","53.32","KINDAKUN ROCKS (AUT)","1054222","2021-12-03 13:00","2021","12","03","13:00"
"-132.77","53.32","KINDAKUN ROCKS (AUT)","1054222","2021-12-03 14:00","2021","12","03","14:00","5.5","","-0.2","","67","","","M","21","","18","","","","102.09","","","","","","NA"
"-132.77","53.32","KINDAKUN ROCKS (AUT)","1054222","2021-12-03 15:00","2021","12","03","15:00","5.3","","0.3","","70","","","M","21","","31","","","","102.01","","","","","","NA"
"-132.77","53.32","KINDAKUN ROCKS (AUT)","1054222","2021-12-03 16:00","2021","12","03","16:00","5.2","","0.9","","74","","","M","29","","19","","","","101.97","","","","","","NA"
"-132.77","53.32","KINDAKUN ROCKS (AUT)","1054222","2021-12-03 17:00","2021","12","03","17:00","5.0","","-0.3","","69","","","M","26","","24","","","","101.98","","","","","","NA"
"-132.77","53.32","KINDAKUN ROCKS (AUT)","1054222","2021-12-03 18:00","2021","12","03","18:00","5.0","","-0.8","","66","","","M","27","","20","","","","101.89","","","","","","NA"
"-132.77","53.32","KINDAKUN ROCKS (AUT)","1054222","2021-12-03 19:00","2021","12","03","19:00","5.0","","-1.2","","64","","","M","25","","16","","","","101.87","","","","","","NA"
"-132.77","53.32","KINDAKUN ROCKS (AUT)","1054222","2021-12-03 20:00","2021","12","03","20:00","4.4","","0.0","","73","","","M","27","","22","","","","101.83","","","","","","NA"
"-132.77","53.32","KINDAKUN ROCKS (AUT)","1054222","2021-12-03 21:00","2021","12","03","21:00","3.6","","1.3","","85","","","M","30","","9","","","","101.80","","","","","","NA"
"-132.77","53.32","KINDAKUN ROCKS (AUT)","1054222","2021-12-03 22:00","2021","12","03","22:00","4.2","","-0.3","","73","","","M","24","","20","","","","101.76","","","","","","NA"
"-132.77","53.32","KINDAKUN ROCKS (AUT)","1054222","2021-12-03 23:00","2021","12","03","23:00","3.8","","0.3","","78","","","M","27","","19","","","","101.75","","","","","","NA"
"-132.77","53.32","KINDAKUN ROCKS (AUT)","1054222","2021-12-04 00:00","2021","12","04","00:00","3.8","","0.1","","77","","","M","29","","17","","","","101.72","","","","","","NA"
"-132.77","53.32","KINDAKUN ROCKS (AUT)","1054222","2021-12-04 01:00","2021","12","04","01:00","4.3","","-2.0","","63","","","M","26","","20","","","","101.68","","","","","","NA"
"-132.77","53.32","KINDAKUN ROCKS (AUT)","1054222","2021-12-04 02:00","2021","12","04","02:00","4.0","","-0.6","","72","","","M","31","","18","","","","101.63","","","","","","NA"
"-132.77","53.32","KINDAKUN ROCKS (AUT)","1054222","2021-12-04 03:00","2021","12","04","03:00","3.8","","-2.1","","65","","","M","30","","17","","","","101.61","","","","","","NA"
"-132.77","53.32","KINDAKUN ROCKS (AUT)","1054222","2021-12-04 04:00","2021","12","04","04:00","4.0","","-3.8","","57","","","M","29","","23","","","","101.64","","","","","","NA"
"-132.77","53.32","KINDAKUN ROCKS (AUT)","1054222","2021-12-04 05:00","2021","12","04","05:00","4.2","","-4.0","","55","","","M","30","","23","","","","101.63","","","","","","NA"
"-132.77","53.32","KINDAKUN ROCKS (AUT)","1054222","2021-12-04 06:00","2021","12","04","06:00","2.9","","-1.2","","75","","","M","31","","33","","","","101.68","","","","","","NA"
"-132.77","53.32","KINDAKUN ROCKS (AUT)","1054222","2021-12-04 07:00","2021","12","04","07:00","1.7","","-1.2","","81","","","M","29","","20","","","","101.70","","","","","","NA"
"-132.77","53.32","KINDAKUN ROCKS (AUT)","1054222","2021-12-04 08:00","2021","12","04","08:00","1.7","","-0.2","","87","","","M","29","","10","","","","101.73","","","","","","NA"
"-132.77","53.32","KINDAKUN ROCKS (AUT)","1054222","2021-12-04 09:00","2021","12","04","09:00","1.8","","-0.6","","84","","","M","9","","8","","","","101.76","","","","","","NA"
"-132.77","53.32","KINDAKUN ROCKS (AUT)","1054222","2021-12-04 10:00","2021","12","04","10:00","2.1","","-0.2","","85","","","M","11","","8","","","","101.86","","","","","","NA"
"-132.77","53.32","KINDAKUN ROCKS (AUT)","1054222","2021-12-04 11:00","2021","12","04","11:00","2.4","","0.5","","87","","","M","8","","10","","","","101.94","","","","","","NA"
"-132.77","53.32","KINDAKUN ROCKS (AUT)","1054222","2021-12-04 12:00","2021","12","04","12:00","2.1","","0.4","","89","","","M","13","","11","","","","102.04","","","","","","NA"
"-132.77","53.32","KINDAKUN ROCKS (AUT)","1054222","2021-12-04 13:00","2021","12","04","13:00","3.7","","1.1","","83","","","M","13","","6","","","","102.13","","","","","","NA"
"-132.77","53.32","KINDAKUN ROCKS (AUT)","1054222","2021-12-04 14:00","2021","12","04","14:00","3.5","","0.7","","82","","","M","15","","7","","","","102.24","","","","","","NA"
"-132.77","53.32","KINDAKUN ROCKS (AUT)","1054222","2021-12-04 15:00","2021","12","04","15:00","3.6","","-0.3","","76","","","M","35","","9","","","","102.35","","","","","","NA"
"-132.77","53.32","KINDAKUN ROCKS (AUT)","1054222","2021-12-04 16:00","2021","12","04","16:00","3.7","","-0.1","","76","","","M","36","","14","","","","102.48","","","","","","NA"
"-132.77","53.32","KINDAKUN ROCKS (AUT)","1054222","2021-12-04 17:00","2021","12","04","17:00","3.1","","-0.4","","77","","","M","5","","3","","","","102.59","","","","","","NA"
"-132.77","53.32","KINDAKUN ROCKS (AUT)","1054222","2021-12-04 18:00","2021","12","04","18:00","2.4","","-0.3","","83","","","M","10","","8","","","","102.68","","","","","","NA"
"-132.77","53.32","KINDAKUN ROCKS (AUT)","1054222","2021-12-04 19:00","2021","12","04","19:00","1.9","","-1.0","","81","","","M","9","","11","","","","102.76","","","","","","NA"
"-132.77","53.32","KINDAKUN ROCKS (AUT)","1054222","2021-12-04 20:00","2021","12","04","20:00","1.9","","-0.5","","84","","","M","11","","9","","","","102.87","","","","","","NA"
"-132.77","53.32","KINDAKUN ROCKS (AUT)","1054222","2021-12-04 21:00","2021","12","04","21:00","3.4","","-0.3","","77","","","M","34","","7","","","","102.95","","","","","","NA"
"-132.77","53.32","KINDAKUN ROCKS (AUT)","1054222","2021-12-04 22:00","2021","12","04","22:00","1.9","","-0.8","","83","","","M","10","","10","","","","103.03","","","","","","NA"
"-132.77","53.32","KINDAKUN ROCKS (AUT)","1054222","2021-12-04 23:00","2021","12","04","23:00","1.8","","-0.7","","83","","","M","11","","10","","","","103.15","","","","","","NA"
"-132.77","53.32","KINDAKUN ROCKS (AUT)","1054222","2021-12-05 00:00","2021","12","05","00:00","1.9","","-0.5","","84","","","M","9","","11","","","","103.21","","","","","","NA"
"-132.77","53.32","KINDAKUN ROCKS (AUT)","1054222","2021-12-05 01:00","2021","12","05","01:00","1.8","","-0.8","","83","","","M","10","","10","","","","103.21","","","","","","NA"
"-132.77","53.32","KINDAKUN ROCKS (AUT)","1054222","2021-12-05 02:00","2021","12","05","02:00","2.0","","-0.6","","83","","","M","9","","11","","","","103.28","","","","","","NA"
"-132.77","53.32","KINDAKUN ROCKS (AUT)","1054222","2021-12-05 03:00","2021","12","05","03:00","2.1","","-0.8","","82","","","M","10","","9","","","","103.29","","","","","","NA"
"-132.77","53.32","KINDAKUN ROCKS (AUT)","1054222","2021-12-05 04:00","2021","12","05","04:00","2.1","","-1.0","","80","","","M","10","","7","","","","103.31","","","","","","NA"
"-132.77","53.32","KINDAKUN ROCKS (AUT)","1054222","2021-12-05 05:00","2021","12","05","05:00","2.1","","-0.7","","82","","","M","10","","8","","","","103.31","","","","","","NA"
"-132.77","53.32","KINDAKUN ROCKS (AUT)","1054222","2021-12-05 06:00","2021","12","05","06:00","2.0","","-0.9","","81","","","M","9","","11","","","","103.26","","","","","","NA"
"-132.77","53.32","KINDAKUN ROCKS (AUT)","1054222","2021-12-05 07:00","2021","12","05","07:00","2.0","","-1.0","","80","","","M","9","","10","","","","103.20","","","","","","NA"
"-132.77","53.32","KINDAKUN ROCKS (AUT)","1054222","2021-12-05 08:00","2021","12","05","08:00","2.2","","-1.1","","79","","","M","9","","9","","","","103.21","","","","","","NA"
"-132.77","53.32","KINDAKUN ROCKS (AUT)","1054222","2021-12-05 09:00","2021","12","05","09:00","2.5","","-0.6","","80","","","M","9","","9","","","","103.21","","","","","","NA"
"-132.77","53.32","KINDAKUN ROCKS (AUT)","1054222","2021-12-05 10:00","2021","12","05","10:00","2.7","","-1.5","","74","","","M","10","","8","","","","103.14","","","","","","NA"
"-132.77","53.32","KINDAKUN ROCKS (AUT)","1054222","2021-12-05 11:00","2021","12","05","11:00","3.6","","-1.8","","68","","","M","9","","8","","","","103.09","","","","","","NA"
"-132.77","53.32","KINDAKUN ROCKS (AUT)","1054222","2021-12-05 12:00","2021","12","05","12:00","3.6","","-1.4","","70","","","M","8","","12","","","","102.99","","","","","","NA"
"-132.77","53.32","KINDAKUN ROCKS (AUT)","1054222","2021-12-05 13:00","2021","12","05","13:00","3.3","","-1.7","","70","","","M","11","","10","","","","102.85","","","","","","NA"
"-132.77","53.32","KINDAKUN ROCKS (AUT)","1054222","2021-12-05 14:00","2021","12","05","14:00","3.6","","-2.0","","67","","","M","7","","15","","","","102.69","","","","","","NA"
"-132.77","53.32","KINDAKUN ROCKS (AUT)","1054222","2021-12-05 15:00","2021","12","05","15:00","3.9","","-1.7","","67","","","M","9","","15","","","","102.61","","","","","","NA"
"-132.77","53.32","KINDAKUN ROCKS (AUT)","1054222","2021-12-05 16:00","2021","12","05","16:00","3.6","","-1.7","","68","","","M","9","","19","","","","102.51","","","","","","NA"
"-132.77","53.32","KINDAKUN ROCKS (AUT)","1054222","2021-12-05 17:00","2021","12","05","17:00","3.3","","-1.7","","69","","","M","8","","24","","","","102.37","","","","","","NA"
"-132.77","53.32","KINDAKUN ROCKS (AUT)","1054222","2021-12-05 18:00","2021","12","05","18:00","2.9","","-1.0","","76","","","M","9","","26","","","","102.25","","","","","","NA"
"-132.77","53.32","KINDAKUN ROCKS (AUT)","1054222","2021-12-05 19:00","2021","12","05","19:00","2.7","","-0.3","","81","","","M","9","","32","","","","102.10","","","","","","NA"
"-132.77","53.32","KINDAKUN ROCKS (AUT)","1054222","2021-12-05 20:00","2021","12","05","20:00","2.9","","-0.3","","80","","","M","8","","31","","","","101.95","","","","","","NA"
"-132.77","53.32","KINDAKUN ROCKS (AUT)","1054222","2021-12-05 21:00","2021","12","05","21:00","3.6","","-0.5","","75","","","M","9","","27","","","","101.79","","","","","","NA"
"-132.77","53.32","KINDAKUN ROCKS (AUT)","1054222","2021-12-05 22:00","2021","12","05","22:00","3.3","","-1.1","","73","","","M","9","","30","","","","101.69","","","","","","NA"
"-132.77","53.32","KINDAKUN ROCKS (AUT)","1054222","2021-12-05 23:00","2021","12","05","23:00","3.5","","-2.1","","67","","","M","9","","30","","","","101.58","","","","","","NA"
"-132.77","53.32","KINDAKUN ROCKS (AUT)","1054222","2021-12-06 00:00","2021","12","06","00:00","3.7","","-2.3","","65","","","M","8","","25","","","","101.46","","","","","","NA"
"-132.77","53.32","KINDAKUN ROCKS (AUT)","1054222","2021-12-06 01:00","2021","12","06","01:00","3.9","","-2.1","","65","","","M","9","","37","","","","101.30","","","","","","NA"
"-132.77","53.32","KINDAKUN ROCKS (AUT)","1054222","2021-12-06 02:00","2021","12","06","02:00","4.3","","-2.2","","63","","","M","8","","38","","","","101.19","","","","","","NA"
"-132.77","53.32","KINDAKUN ROCKS (AUT)","1054222","2021-12-06 03:00","2021","12","06","03:00","4.4","","-1.9","","64","","","M","9","","41","","","","101.10","","","","","","NA"
"-132.77","53.32","KINDAKUN ROCKS (AUT)","1054222","2021-12-06 04:00","2021","12","06","04:00","4.5","","-2.3","","62","","","M","9","","41","","","","100.97","","","","","","NA"
"-132.77","53.32","KINDAKUN ROCKS (AUT)","1054222","2021-12-06 05:00","2021","12","06","05:00","4.4","","-1.4","","66","","","M","8","","41","","","","101.00","","","","","","NA"
"-132.77","53.32","KINDAKUN ROCKS (AUT)","1054222","2021-12-06 06:00","2021","12","06","06:00","4.3","","-1.7","","65","","","M","9","","41","","","","100.95","","","","","","NA"
"-132.77","53.32","KINDAKUN ROCKS (AUT)","1054222","2021-12-06 07:00","2021","12","06","07:00","4.0","","-1.4","","68","","","M","9","","40","","","","100.96","","","","","","NA"
"-132.77","53.32","KINDAKUN ROCKS (AUT)","1054222","2021-12-06 08:00","2021","12","06","08:00","3.6","","-1.9","","67","","","M","9","","43","","","","100.92","","","","","","NA"
"-132.77","53.32","KINDAKUN ROCKS (AUT)","1054222","2021-12-06 09:00","2021","12","06","09:00","3.1","","-2.3","","68","","","M","9","","43","","","","100.92","","","","","","NA"
"-132.77","53.32","KINDAKUN ROCKS (AUT)","1054222","2021-12-06 10:00","2021","12","06","10:00","3.4","","-1.6","","69","","","M","8","","40","","","","100.90","","","","","","NA"
"-132.77","53.32","KINDAKUN ROCKS (AUT)","1054222","2021-12-06 11:00","2021","12","06","11:00","3.8","","-1.2","","70","","","M","8","","35","","","","100.97","","","","","","NA"
"-132.77","53.32","KINDAKUN ROCKS (AUT)","1054222","2021-12-06 12:00","2021","12","06","12:00","4.3","","-0.3","","72","","","M","8","","23","","","","100.93","","","","","","NA"
"-132.77","53.32","KINDAKUN ROCKS (AUT)","1054222","2021-12-06 13:00","2021","12","06","13:00","4.4","","0.1","","74","","","M","8","","23","","","","100.92","","","","","","NA"
"-132.77","53.32","KINDAKUN ROCKS (AUT)","1054222","2021-12-06 14:00","2021","12","06","14:00","4.4","","-0.4","","71","","","M","32","","3","","","","100.94","","","","","","NA"
"-132.77","53.32","KINDAKUN ROCKS (AUT)","1054222","2021-12-06 15:00","2021","12","06","15:00","4.2","","0.0","","74","","","M","8","","20","","","","100.90","","","","","","NA"
"-132.77","53.32","KINDAKUN ROCKS (AUT)","1054222","2021-12-06 16:00","2021","12","06","16:00","4.3","","-0.2","","72","","","M","3","","7","","","","100.85","","","","","","NA"
"-132.77","53.32","KINDAKUN ROCKS (AUT)","1054222","2021-12-06 17:00","2021","12","06","17:00","3.9","","-0.2","","75","","","M","10","","6","","","","100.87","","","","","","NA"
"-132.77","53.32","KINDAKUN ROCKS (AUT)","1054222","2021-12-06 18:00","2021","12","06","18:00","3.7","","0.5","","80","","","M","8","","13","","","","100.82","","","","","","NA"
"-132.77","53.32","KINDAKUN ROCKS (AUT)","1054222","2021-12-06 19:00","2021","12","06","19:00","3.5","","0.0","","77","","","M","8","","7","","","","100.83","","","","","","NA"
"-132.77","53.32","KINDAKUN ROCKS (AUT)","1054222","2021-12-06 20:00","2021","12","06","20:00","3.4","","0.4","","81","","","M","10","","4","","","","100.77","","","","","","NA"
"-132.77","53.32","KINDAKUN ROCKS (AUT)","1054222","2021-12-06 21:00","2021","12","06","21:00","3.7","","0.8","","82","","","M","12","","4","","","","100.79","","","","","","NA"
"-132.77","53.32","KINDAKUN ROCKS (AUT)","1054222","2021-12-06 22:00","2021","12","06","22:00","3.5","","1.0","","83","","","M","9","","8","","","","100.80","","","","","","NA"
"-132.77","53.32","KINDAKUN ROCKS (AUT)","1054222","2021-12-06 23:00","2021","12","06","23:00","4.0","","1.1","","81","","","M","0","","1","","","","100.86","","","","","","NA"
"-132.77","53.32","KINDAKUN ROCKS (AUT)","1054222","2021-12-07 00:00","2021","12","07","00:00","4.0","","1.3","","83","","","M","9","","8","","","","100.79","","","","","","NA"
"-132.77","53.32","KINDAKUN ROCKS (AUT)","1054222","2021-12-07 01:00","2021","12","07","01:00","4.2","","2.0","","86","","","M","9","","12","","","","100.76","","","","","","NA"
"-132.77","53.32","KINDAKUN ROCKS (AUT)","1054222","2021-12-07 02:00","2021","12","07","02:00","4.6","","2.1","","84","","","M","3","","2","","","","100.75","","","","","","NA"
"-132.77","53.32","KINDAKUN ROCKS (AUT)","1054222","2021-12-07 03:00","2021","12","07","03:00","4.0","","2.1","","87","","","M","9","","9","","","","100.64","","","","","","NA"
"-132.77","53.32","KINDAKUN ROCKS (AUT)","1054222","2021-12-07 04:00","2021","12","07","04:00","4.4","","2.0","","84","","","M","10","","1","","","","100.57","","","","","","NA"
"-132.77","53.32","KINDAKUN ROCKS (AUT)","1054222","2021-12-07 05:00","2021","12","07","05:00","4.2","","2.1","","87","","","M","10","","7","","","","100.56","","","","","","NA"
"-132.77","53.32","KINDAKUN ROCKS (AUT)","1054222","2021-12-07 06:00","2021","12","07","06:00","4.5","","2.2","","85","","","M","10","","9","","","","100.55","","","","","","NA"
"-132.77","53.32","KINDAKUN ROCKS (AUT)","1054222","2021-12-07 07:00","2021","12","07","07:00","4.6","","2.6","","87","","","M","9","","10","","","","100.49","","","","","","NA"
"-132.77","53.32","KINDAKUN ROCKS (AUT)","1054222","2021-12-07 08:00","2021","12","07","08:00","5.4","","2.8","","84","","","M","14","","5","","","","100.48","","","","","","NA"
"-132.77","53.32","KINDAKUN ROCKS (AUT)","1054222","2021-12-07 09:00","2021","12","07","09:00","6.1","","3.8","","85","","","M","23","","21","","","","100.46","","","","","","NA"
"-132.77","53.32","KINDAKUN ROCKS (AUT)","1054222","2021-12-07 10:00","2021","12","07","10:00","6.5","","4.6","","88","","","M","22","","22","","","","100.45","","","","","","NA"
"-132.77","53.32","KINDAKUN ROCKS (AUT)","1054222","2021-12-07 11:00","2021","12","07","11:00","6.1","","4.9","","92","","","M","20","","25","","","","100.39","","","","","","NA"
"-132.77","53.32","KINDAKUN ROCKS (AUT)","1054222","2021-12-07 12:00","2021","12","07","12:00","6.3","","5.5","","94","","","M","24","","27","","","","100.35","","","","","","NA"
"-132.77","53.32","KINDAKUN ROCKS (AUT)","1054222","2021-12-07 13:00","2021","12","07","13:00","6.1","","5.3","","95","","","M","30","","40","","","","100.27","","","","","","NA"
"-132.77","53.32","KINDAKUN ROCKS (AUT)","1054222","2021-12-07 14:00","2021","12","07","14:00","6.8","","2.5","","74","","","M","31","","37","","","","100.24","","","","","","NA"
"-132.77","53.32","KINDAKUN ROCKS (AUT)","1054222","2021-12-07 15:00","2021","12","07","15:00","6.6","","1.2","","68","","","M","30","","48","","","","100.26","","","","","","NA"
"-132.77","53.32","KINDAKUN ROCKS (AUT)","1054222","2021-12-07 16:00","2021","12","07","16:00","5.9","","0.5","","68","","","M","32","","46","","","","100.25","","","","","","NA"
"-132.77","53.32","KINDAKUN ROCKS (AUT)","1054222","2021-12-07 17:00","2021","12","07","17:00","6.1","","0.4","","67","","","M","30","","42","","","","100.30","","","","","","NA"
"-132.77","53.32","KINDAKUN ROCKS (AUT)","1054222","2021-12-07 18:00","2021","12","07","18:00","5.9","","1.3","","72","","","M","29","","43","","","","100.33","","","","","","NA"
"-132.77","53.32","KINDAKUN ROCKS (AUT)","1054222","2021-12-07 19:00","2021","12","07","19:00","5.1","","1.5","","77","","","M","29","","49","","","","100.33","","","","","","NA"
"-132.77","53.32","KINDAKUN ROCKS (AUT)","1054222","2021-12-07 20:00","2021","12","07","20:00","4.1","","0.1","","75","","","M","30","","53","","","","100.39","","","","","","NA"
"-132.77","53.32","KINDAKUN ROCKS (AUT)","1054222","2021-12-07 21:00","2021","12","07","21:00","3.8","","0.5","","79","","","M","30","","33","","","","100.36","","","","","","NA"
"-132.77","53.32","KINDAKUN ROCKS (AUT)","1054222","2021-12-07 22:00","2021","12","07","22:00","2.5","","-0.3","","82","","","M","30","","59","","","","100.40","","","","","","NA"
"-132.77","53.32","KINDAKUN ROCKS (AUT)","1054222","2021-12-07 23:00","2021","12","07","23:00","3.4","","0.8","","83","","","M","28","","43","","","","100.44","","","","","","NA"
"-132.77","53.32","KINDAKUN ROCKS (AUT)","1054222","2021-12-08 00:00","2021","12","08","00:00","3.4","","-0.5","","76","","","M","30","","49","","","","100.49","","","","","","NA"
"-132.77","53.32","KINDAKUN ROCKS (AUT)","1054222","2021-12-08 01:00","2021","12","08","01:00","4.5","","0.5","","75","","","M","27","","47","","","","100.47","","","","","","NA"
"-132.77","53.32","KINDAKUN ROCKS (AUT)","1054222","2021-12-08 02:00","2021","12","08","02:00","4.0","","1.5","","84","","","M","30","","43","","","","100.53","","","","","","NA"
"-132.77","53.32","KINDAKUN ROCKS (AUT)","1054222","2021-12-08 03:00","2021","12","08","03:00","2.4","","0.1","","85","","","M","28","","46","","","","100.58","","","","","","NA"
"-132.77","53.32","KINDAKUN ROCKS (AUT)","1054222","2021-12-08 04:00","2021","12","08","04:00","2.9","","1.0","","87","","","M","29","","58","","","","100.52","","","","","","NA"
"-132.77","53.32","KINDAKUN ROCKS (AUT)","1054222","2021-12-08 05:00","2021","12","08","05:00","2.7","","0.0","","83","","","M","29","","42","","","","100.49","","","","","","NA"
"-132.77","53.32","KINDAKUN ROCKS (AUT)","1054222","2021-12-08 06:00","2021","12","08","06:00","4.7","","-0.7","","68","","","M","29","","44","","","","100.50","","","","","","NA"
"-132.77","53.32","KINDAKUN ROCKS (AUT)","1054222","2021-12-08 07:00","2021","12","08","07:00","4.3","","0.8","","78","","","M","28","","49","","","","100.51","","","","","","NA"
"-132.77","53.32","KINDAKUN ROCKS (AUT)","1054222","2021-12-08 08:00","2021","12","08","08:00","4.2","","0.2","","75","","","M","29","","45","","","","100.47","","","","","","NA"
"-132.77","53.32","KINDAKUN ROCKS (AUT)","1054222","2021-12-08 09:00","2021","12","08","09:00","4.4","","1.1","","79","","","M","29","","34","","","","100.53","","","","","","NA"
"-132.77","53.32","KINDAKUN ROCKS (AUT)","1054222","2021-12-08 10:00","2021","12","08","10:00","3.9","","0.3","","77","","","M","30","","49","","","","100.58","","","","","","NA"
"-132.77","53.32","KINDAKUN ROCKS (AUT)","1054222","2021-12-08 11:00","2021","12","08","11:00","4.7","","0.9","","76","","","M","30","","44","","","","100.60","","","","","","NA"
"-132.77","53.32","KINDAKUN ROCKS (AUT)","1054222","2021-12-08 12:00","2021","12","08","12:00","3.9","","0.7","","80","","","M","30","","45","","","","100.65","","","","","","NA"
"-132.77","53.32","KINDAKUN ROCKS (AUT)","1054222","2021-12-08 13:00","2021","12","08","13:00","3.1","","0.1","","81","","","M","28","","48","","","","100.73","","","","","","NA"
"-132.77","53.32","KINDAKUN ROCKS (AUT)","1054222","2021-12-08 14:00","2021","12","08","14:00","3.3","","1.7","","90","","","M","32","","35","","","","100.64","","","","","","NA"
"-132.77","53.32","KINDAKUN ROCKS (AUT)","1054222","2021-12-08 15:00","2021","12","08","15:00","4.4","","2.2","","85","","","M","31","","31","","","","100.63","","","","","","NA"
"-132.77","53.32","KINDAKUN ROCKS (AUT)","1054222","2021-12-08 16:00","2021","12","08","16:00","4.6","","-0.7","","68","","","M","31","","41","","","","100.61","","","","","","NA"
"-132.77","53.32","KINDAKUN ROCKS (AUT)","1054222","2021-12-08 17:00","2021","12","08","17:00","5.0","","0.7","","74","","","M","32","","32","","","","100.58","","","","","","NA"
"-132.77","53.32","KINDAKUN ROCKS (AUT)","1054222","2021-12-08 18:00","2021","12","08","18:00","4.7","","1.2","","78","","","M","31","","28","","","","100.59","","","","","","NA"
"-132.77","53.32","KINDAKUN ROCKS (AUT)","1054222","2021-12-08 19:00","2021","12","08","19:00","4.3","","1.5","","82","","","M","28","","36","","","","100.59","","","","","","NA"
"-132.77","53.32","KINDAKUN ROCKS (AUT)","1054222","2021-12-08 20:00","2021","12","08","20:00","5.2","","1.5","","77","","","M","29","","18","","","","100.55","","","","","","NA"
"-132.77","53.32","KINDAKUN ROCKS (AUT)","1054222","2021-12-08 21:00","2021","12","08","21:00","4.7","","1.0","","77","","","M","30","","27","","","","100.60","","","","","","NA"
"-132.77","53.32","KINDAKUN ROCKS (AUT)","1054222","2021-12-08 22:00","2021","12","08","22:00","3.7","","2.5","","92","","","M","31","","37","","","","100.64","","","","","","NA"
"-132.77","53.32","KINDAKUN ROCKS (AUT)","1054222","2021-12-08 23:00","2021","12","08","23:00","4.2","","1.7","","84","","","M","32","","30","","","","100.67","","","","","","NA"
"-132.77","53.32","KINDAKUN ROCKS (AUT)","1054222","2021-12-09 00:00","2021","12","09","00:00","3.3","","1.1","","86","","","M","29","","10","","","","100.65","","","","","","NA"
"-132.77","53.32","KINDAKUN ROCKS (AUT)","1054222","2021-12-09 01:00","2021","12","09","01:00","4.0","","2.3","","89","","","M","18","","5","","","","100.61","","","","","","NA"
"-132.77","53.32","KINDAKUN ROCKS (AUT)","1054222","2021-12-09 02:00","2021","12","09","02:00","4.5","","2.4","","86","","","M","25","","22","","","","100.58","","","","","","NA"
"-132.77","53.32","KINDAKUN ROCKS (AUT)","1054222","2021-12-09 03:00","2021","12","09","03:00","5.8","","0.8","","70","","","M","30","","40","","","","100.54","","","","","","NA"
"-132.77","53.32","KINDAKUN ROCKS (AUT)","1054222","2021-12-09 04:00","2021","12","09","04:00","5.6","","1.2","","73","","","M","31","","24","","","","100.51","","","","","","NA"
"-132.77","53.32","KINDAKUN ROCKS (AUT)","1054222","2021-12-09 05:00","2021","12","09","05:00","4.6","","2.3","","85","","","M","28","","26","","","","100.50","","","","","","NA"
"-132.77","53.32","KINDAKUN ROCKS (AUT)","1054222","2021-12-09 06:00","2021","12","09","06:00","5.3","","1.9","","78","","","M","30","","38","","","","100.47","","","","","","NA"
"-132.77","53.32","KINDAKUN ROCKS (AUT)","1054222","2021-12-09 07:00","2021","12","09","07:00","5.5","","2.8","","83","","","M","30","","37","","","","100.50","","","","","","NA"
"-132.77","53.32","KINDAKUN ROCKS (AUT)","1054222","2021-12-09 08:00","2021","12","09","08:00","5.1","","2.6","","84","","","M","32","","56","","","","100.57","","","","","","NA"
"-132.77","53.32","KINDAKUN ROCKS (AUT)","1054222","2021-12-09 09:00","2021","12","09","09:00","4.6","","1.4","","80","","","M","33","","50","","","","100.64","","","","","","NA"
"-132.77","53.32","KINDAKUN ROCKS (AUT)","1054222","2021-12-09 10:00","2021","12","09","10:00","5.9","","0.5","","68","","","M","31","","43","","","","100.69","","","","","","NA"
"-132.77","53.32","KINDAKUN ROCKS (AUT)","1054222","2021-12-09 11:00","2021","12","09","11:00","3.5","","0.6","","81","","","M","32","","53","","","","100.77","","","","","","NA"
"-132.77","53.32","KINDAKUN ROCKS (AUT)","1054222","2021-12-09 12:00","2021","12","09","12:00","5.4","","-0.3","","67","","","M","32","","36","","","","100.78","","","","","","NA"
"-132.77","53.32","KINDAKUN ROCKS (AUT)","1054222","2021-12-09 13:00","2021","12","09","13:00","5.9","","-1.0","","61","","","M","31","","37","","","","100.77","","","","","","NA"
"-132.77","53.32","KINDAKUN ROCKS (AUT)","1054222","2021-12-09 14:00","2021","12","09","14:00","5.6","","0.0","","67","","","M","30","","34","","","","100.80","","","","","","NA"
"-132.77","53.32","KINDAKUN ROCKS (AUT)","1054222","2021-12-09 15:00","2021","12","09","15:00","4.8","","0.6","","75","","","M","32","","32","","","","100.82","","","","","","NA"
"-132.77","53.32","KINDAKUN ROCKS (AUT)","1054222","2021-12-09 16:00","2021","12","09","16:00","5.2","","0.6","","72","","","M","28","","28","","","","100.82","","","","","","NA"
"-132.77","53.32","KINDAKUN ROCKS (AUT)","1054222","2021-12-09 17:00","2021","12","09","17:00","5.4","","-0.1","","68","","","M","29","","22","","","","100.77","","","","","","NA"
"-132.77","53.32","KINDAKUN ROCKS (AUT)","1054222","2021-12-09 18:00","2021","12","09","18:00","5.5","","-0.1","","67","","","M","25","","10","","","","100.74","","","","","","NA"
"-132.77","53.32","KINDAKUN ROCKS (AUT)","1054222","2021-12-09 19:00","2021","12","09","19:00","5.8","","-0.5","","64","","","M","24","","23","","","","100.71","","","","","","NA"
"-132.77","53.32","KINDAKUN ROCKS (AUT)","1054222","2021-12-09 20:00","2021","12","09","20:00","5.6","","1.1","","73","","","M","19","","19","","","","100.64","","","","","","NA"
"-132.77","53.32","KINDAKUN ROCKS (AUT)","1054222","2021-12-09 21:00","2021","12","09","21:00","5.5","","2.7","","83","","","M","18","","32","","","","100.51","","","","","","NA"
"-132.77","53.32","KINDAKUN ROCKS (AUT)","1054222","2021-12-09 22:00","2021","12","09","22:00","5.2","","2.9","","85","","","M","17","","45","","","","100.37","","","","","","NA"
"-132.77","53.32","KINDAKUN ROCKS (AUT)","1054222","2021-12-09 23:00","2021","12","09","23:00","6.3","","4.1","","86","","","M","20","","41","","","","100.24","","","","","","NA"
"-132.77","53.32","KINDAKUN ROCKS (AUT)","1054222","2021-12-10 00:00","2021","12","10","00:00","5.4","","3.0","","85","","","M","19","","45","","","","100.14","","","","","","NA"
"-132.77","53.32","KINDAKUN ROCKS (AUT)","1054222","2021-12-10 01:00","2021","12","10","01:00","6.4","","4.4","","87","","","M","20","","45","","","","100.03","","","","","","NA"
"-132.77","53.32","KINDAKUN ROCKS (AUT)","1054222","2021-12-10 02:00","2021","12","10","02:00","6.3","","4.4","","87","","","M","19","","47","","","","99.88","","","","","","NA"
"-132.77","53.32","KINDAKUN ROCKS (AUT)","1054222","2021-12-10 03:00","2021","12","10","03:00","6.5","","5.0","","90","","","M","18","","51","","","","99.69","","","","","","NA"
"-132.77","53.32","KINDAKUN ROCKS (AUT)","1054222","2021-12-10 04:00","2021","12","10","04:00","6.9","","5.4","","90","","","M","19","","45","","","","99.52","","","","","","NA"
"-132.77","53.32","KINDAKUN ROCKS (AUT)","1054222","2021-12-10 05:00","2021","12","10","05:00","6.9","","5.2","","89","","","M","19","","50","","","","99.36","","","","","","NA"
"-132.77","53.32","KINDAKUN ROCKS (AUT)","1054222","2021-12-10 06:00","2021","12","10","06:00","7.3","","5.5","","88","","","M","19","","52","","","","99.17","","","","","","NA"
"-132.77","53.32","KINDAKUN ROCKS (AUT)","1054222","2021-12-10 07:00","2021","12","10","07:00","7.0","","5.6","","91","","","M","19","","49","","","","99.00","","","","","","NA"
"-132.77","53.32","KINDAKUN ROCKS (AUT)","1054222","2021-12-10 08:00","2021","12","10","08:00","7.3","","5.9","","91","","","M","19","","48","","","","98.87","","","","","","NA"
"-132.77","53.32","KINDAKUN ROCKS (AUT)","1054222","2021-12-10 09:00","2021","12","10","09:00","5.1","","3.7","","91","","","M","30","","37","","","","98.79","","","","","","NA"
"-132.77","53.32","KINDAKUN ROCKS (AUT)","1054222","2021-12-10 10:00","2021","12","10","10:00","4.4","","2.5","","88","","","M","31","","42","","","","98.81","","","","","","NA"
"-132.77","53.32","KINDAKUN ROCKS (AUT)","1054222","2021-12-10 11:00","2021","12","10","11:00","3.5","","1.3","","86","","","M","31","","17","","","","98.82","","","","","","NA"
"-132.77","53.32","KINDAKUN ROCKS (AUT)","1054222","2021-12-10 12:00","2021","12","10","12:00","3.7","","1.4","","85","","","M","16","","9","","","","98.70","","","","","","NA"
"-132.77","53.32","KINDAKUN ROCKS (AUT)","1054222","2021-12-10 13:00","2021","12","10","13:00","3.3","","1.5","","89","","","M","20","","13","","","","98.69","","","","","","NA"
"-132.77","53.32","KINDAKUN ROCKS (AUT)","1054222","2021-12-10 14:00","2021","12","10","14:00","3.8","","2.2","","90","","","M","14","","13","","","","98.63","","","","","","NA"
"-132.77","53.32","KINDAKUN ROCKS (AUT)","1054222","2021-12-10 15:00","2021","12","10","15:00","5.5","","-0.7","","64","","","M","29","","25","","","","98.59","","","","","","NA"
"-132.77","53.32","KINDAKUN ROCKS (AUT)","1054222","2021-12-10 16:00","2021","12","10","16:00","4.2","","-1.4","","67","","","M","28","","13","","","","98.57","","","","","","NA"
"-132.77","53.32","KINDAKUN ROCKS (AUT)","1054222","2021-12-10 17:00","2021","12","10","17:00","4.7","","-0.9","","67","","","M","28","","28","","","","98.52","","","","","","NA"
"-132.77","53.32","KINDAKUN ROCKS (AUT)","1054222","2021-12-10 18:00","2021","12","10","18:00","5.5","","-1.7","","59","","","M","22","","25","","","","98.46","","","","","","NA"
"-132.77","53.32","KINDAKUN ROCKS (AUT)","1054222","2021-12-10 19:00","2021","12","10","19:00","1.5","","0.4","","93","","","M","18","","22","","","","98.43","","","","","","NA"
"-132.77","53.32","KINDAKUN ROCKS (AUT)","1054222","2021-12-10 20:00","2021","12","10","20:00","1.7","","0.7","","93","","","M","23","","20","","","","98.40","","","","","","NA"
"-132.77","53.32","KINDAKUN ROCKS (AUT)","1054222","2021-12-10 21:00","2021","12","10","21:00","3.3","","2.0","","91","","","M","19","","23","","","","98.30","","","","","","NA"
"-132.77","53.32","KINDAKUN ROCKS (AUT)","1054222","2021-12-10 22:00","2021","12","10","22:00","5.1","","-0.9","","65","","","M","22","","38","","","","98.24","","","","","","NA"
"-132.77","53.32","KINDAKUN ROCKS (AUT)","1054222","2021-12-10 23:00","2021","12","10","23:00","4.5","","0.1","","73","","","M","21","","43","","","","98.15","","","","","","NA"
"-132.77","53.32","KINDAKUN ROCKS (AUT)","1054222","2021-12-11 00:00","2021","12","11","00:00","3.9","","-0.3","","74","","","M","22","","48","","","","98.13","","","","","","NA"
"-132.77","53.32","KINDAKUN ROCKS (AUT)","1054222","2021-12-11 01:00","2021","12","11","01:00","4.2","","0.5","","77","","","M","22","","42","","","","98.03","","","","","","NA"
"-132.77","53.32","KINDAKUN ROCKS (AUT)","1054222","2021-12-11 02:00","2021","12","11","02:00","3.9","","-0.6","","72","","","M","27","","38","","","","98.11","","","","","","NA"
"-132.77","53.32","KINDAKUN ROCKS (AUT)","1054222","2021-12-11 03:00","2021","12","11","03:00","3.3","","-1.0","","73","","","M","26","","45","","","","98.17","","","","","","NA"
"-132.77","53.32","KINDAKUN ROCKS (AUT)","1054222","2021-12-11 04:00","2021","12","11","04:00","2.5","","0.5","","87","","","M","26","","41","","","","98.26","","","","","","NA"
"-132.77","53.32","KINDAKUN ROCKS (AUT)","1054222","2021-12-11 05:00","2021","12","11","05:00","3.0","","-1.5","","72","","","M","25","","34","","","","98.26","","","","","","NA"
"-132.77","53.32","KINDAKUN ROCKS (AUT)","1054222","2021-12-11 06:00","2021","12","11","06:00","3.5","","-2.4","","65","","","M","25","","25","","","","98.24","","","","","","NA"
"-132.77","53.32","KINDAKUN ROCKS (AUT)","1054222","2021-12-11 07:00","2021","12","11","07:00","3.0","","-1.8","","71","","","M","30","","28","","","","98.26","","","","","","NA"
"-132.77","53.32","KINDAKUN ROCKS (AUT)","1054222","2021-12-11 08:00","2021","12","11","08:00","3.4","","-0.6","","75","","","M","22","","28","","","","98.25","","","","","","NA"
"-132.77","53.32","KINDAKUN ROCKS (AUT)","1054222","2021-12-11 09:00","2021","12","11","09:00","2.7","","0.0","","83","","","M","20","","33","","","","98.30","","","","","","NA"
"-132.77","53.32","KINDAKUN ROCKS (AUT)","1054222","2021-12-11 10:00","2021","12","11","10:00","1.2","","-1.1","","85","","","M","23","","16","","","","98.34","","","","","","NA"
"-132.77","53.32","KINDAKUN ROCKS (AUT)","1054222","2021-12-11 11:00","2021","12","11","11:00","2.3","","0.1","","86","","","M","16","","18","","","","98.35","","","","","","NA"
"-132.77","53.32","KINDAKUN ROCKS (AUT)","1054222","2021-12-11 12:00","2021","12","11","12:00","2.6","","0.3","","85","","","M","18","","32","","","","98.32","","","","","","NA"
"-132.77","53.32","KINDAKUN ROCKS (AUT)","1054222","2021-12-11 13:00","2021","12","11","13:00","3.9","","-3.7","","58","","","M","25","","25","","","","98.35","","","","","","NA"
"-132.77","53.32","KINDAKUN ROCKS (AUT)","1054222","2021-12-11 14:00","2021","12","11","14:00","4.1","","-3.2","","59","","","M","24","","27","","","","98.32","","","","","","NA"
"-132.77","53.32","KINDAKUN ROCKS (AUT)","1054222","2021-12-11 15:00","2021","12","11","15:00","3.5","","-4.5","","56","","","M","23","","37","","","","98.35","","","","","","NA"
"-132.77","53.32","KINDAKUN ROCKS (AUT)","1054222","2021-12-11 16:00","2021","12","11","16:00","3.3","","-2.4","","66","","","M","21","","25","","","","98.31","","","","","","NA"
"-132.77","53.32","KINDAKUN ROCKS (AUT)","1054222","2021-12-11 17:00","2021","12","11","17:00","3.7","","-3.0","","61","","","M","20","","28","","","","98.32","","","","","","NA"
"-132.77","53.32","KINDAKUN ROCKS (AUT)","1054222","2021-12-11 18:00","2021","12","11","18:00","2.8","","-0.7","","78","","","M","20","","39","","","","98.34","","","","","","NA"
"-132.77","53.32","KINDAKUN ROCKS (AUT)","1054222","2021-12-11 19:00","2021","12","11","19:00","3.1","","-1.7","","71","","","M","17","","37","","","","98.26","","","","","","NA"
"-132.77","53.32","KINDAKUN ROCKS (AUT)","1054222","2021-12-11 20:00","2021","12","11","20:00","2.4","","-0.6","","81","","","M","16","","32","","","","98.29","","","","","","NA"
"-132.77","53.32","KINDAKUN ROCKS (AUT)","1054222","2021-12-11 21:00","2021","12","11","21:00","4.2","","-2.3","","62","","","M","19","","32","","","","98.24","","","","","","NA"
"-132.77","53.32","KINDAKUN ROCKS (AUT)","1054222","2021-12-11 22:00","2021","12","11","22:00","3.8","","-1.8","","67","","","M","18","","40","","","","98.24","","","","","","NA"
"-132.77","53.32","KINDAKUN ROCKS (AUT)","1054222","2021-12-11 23:00","2021","12","11","23:00","4.2","","-3.0","","60","","","M","18","","44","","","","98.22","","","","","","NA"
"-132.77","53.32","KINDAKUN ROCKS (AUT)","1054222","2021-12-12 00:00","2021","12","12","00:00","2.9","","-1.7","","71","","","M","17","","43","","","","98.22","","","","","","NA"
"-132.77","53.32","KINDAKUN ROCKS (AUT)","1054222","2021-12-12 01:00","2021","12","12","01:00","4.0","","-0.4","","73","","","M","16","","36","","","","98.19","","","","","","NA"
"-132.77","53.32","KINDAKUN ROCKS (AUT)","1054222","2021-12-12 02:00","2021","12","12","02:00","4.0","","1.1","","82","","","M","20","","28","","","","98.21","","","","","","NA"
"-132.77","53.32","KINDAKUN ROCKS (AUT)","1054222","2021-12-12 03:00","2021","12","12","03:00","2.7","","0.9","","88","","","M","21","","36","","","","98.24","","","","","","NA"
"-132.77","53.32","KINDAKUN ROCKS (AUT)","1054222","2021-12-12 04:00","2021","12","12","04:00","2.6","","0.9","","89","","","M","18","","17","","","","98.24","","","","","","NA"
"-132.77","53.32","KINDAKUN ROCKS (AUT)","1054222","2021-12-12 05:00","2021","12","12","05:00","1.9","","0.6","","91","","","M","13","","18","","","","98.24","","","","","","NA"
"-132.77","53.32","KINDAKUN ROCKS (AUT)","1054222","2021-12-12 06:00","2021","12","12","06:00","1.6","","0.7","","94","","","M","10","","18","","","","98.24","","","","","","NA"
"-132.77","53.32","KINDAKUN ROCKS (AUT)","1054222","2021-12-12 07:00","2021","12","12","07:00","2.2","","0.2","","86","","","M","11","","16","","","","98.23","","","","","","NA"
"-132.77","53.32","KINDAKUN ROCKS (AUT)","1054222","2021-12-12 08:00","2021","12","12","08:00","2.2","","0.0","","85","","","M","11","","14","","","","98.28","","","","","","NA"
"-132.77","53.32","KINDAKUN ROCKS (AUT)","1054222","2021-12-12 09:00","2021","12","12","09:00","2.5","","0.1","","84","","","M","13","","17","","","","98.34","","","","","","NA"
"-132.77","53.32","KINDAKUN ROCKS (AUT)","1054222","2021-12-12 10:00","2021","12","12","10:00","2.8","","1.3","","90","","","M","10","","9","","","","98.37","","","","","","NA"
"-132.77","53.32","KINDAKUN ROCKS (AUT)","1054222","2021-12-12 11:00","2021","12","12","11:00","3.0","","0.3","","82","","","M","13","","9","","","","98.39","","","","","","NA"
"-132.77","53.32","KINDAKUN ROCKS (AUT)","1054222","2021-12-12 12:00","2021","12","12","12:00","3.2","","0.7","","84","","","M","10","","7","","","","98.44","","","","","","NA"
"-132.77","53.32","KINDAKUN ROCKS (AUT)","1054222","2021-12-12 13:00","2021","12","12","13:00","1.9","","0.8","","93","","","M","21","","25","","","","98.50","","","","","","NA"
"-132.77","53.32","KINDAKUN ROCKS (AUT)","1054222","2021-12-12 14:00","2021","12","12","14:00","1.8","","1.0","","94","","","M","27","","27","","","","98.59","","","","","","NA"
"-132.77","53.32","KINDAKUN ROCKS (AUT)","1054222","2021-12-12 15:00","2021","12","12","15:00","1.7","","0.6","","93","","","M","22","","12","","","","98.67","","","","","","NA"
"-132.77","53.32","KINDAKUN ROCKS (AUT)","1054222","2021-12-12 16:00","2021","12","12","16:00","1.8","","0.3","","90","","","M","17","","21","","","","98.76","","","","","","NA"
"-132.77","53.32","KINDAKUN ROCKS (AUT)","1054222","2021-12-12 17:00","2021","12","12","17:00","1.1","","0.3","","94","","","M","21","","32","","","","98.89","","","","","","NA"
"-132.77","53.32","KINDAKUN ROCKS (AUT)","1054222","2021-12-12 18:00","2021","12","12","18:00","3.2","","-0.3","","78","","","M","18","","25","","","","98.95","","","","","","NA"
"-132.77","53.32","KINDAKUN ROCKS (AUT)","1054222","2021-12-12 19:00","2021","12","12","19:00","3.6","","-1.4","","69","","","M","19","","30","","","","99.06","","","","","","NA"
"-132.77","53.32","KINDAKUN ROCKS (AUT)","1054222","2021-12-12 20:00","2021","12","12","20:00","3.4","","-1.0","","73","","","M","16","","23","","","","99.15","","","","","","NA"
"-132.77","53.32","KINDAKUN ROCKS (AUT)","1054222","2021-12-12 21:00","2021","12","12","21:00","3.4","","-0.6","","75","","","M","15","","18","","","","99.23","","","","","","NA"
"-132.77","53.32","KINDAKUN ROCKS (AUT)","1054222","2021-12-12 22:00","2021","12","12","22:00","2.5","","-2.2","","71","","","M","10","","11","","","","99.32","","","","","","NA"
"-132.77","53.32","KINDAKUN ROCKS (AUT)","1054222","2021-12-12 23:00","2021","12","12","23:00","2.5","","-0.8","","79","","","M","24","","10","","","","99.38","","","","","","NA"
"-132.77","53.32","KINDAKUN ROCKS (AUT)","1054222","2021-12-13 00:00","2021","12","13","00:00","1.6","","-1.4","","80","","","M","8","","4","","","","99.44","","","","","","NA"
"-132.77","53.32","KINDAKUN ROCKS (AUT)","1054222","2021-12-13 01:00","2021","12","13","01:00","1.7","","-2.5","","73","","","M","8","","10","","","","99.45","","","","","","NA"
"-132.77","53.32","KINDAKUN ROCKS (AUT)","1054222","2021-12-13 02:00","2021","12","13","02:00","1.9","","-2.1","","75","","","M","5","","3","","","","99.45","","","","","","NA"
"-132.77","53.32","KINDAKUN ROCKS (AUT)","1054222","2021-12-13 03:00","2021","12","13","03:00","1.5","","-2.4","","76","","","M","7","","13","","","","99.52","","","","","","NA"
"-132.77","53.32","KINDAKUN ROCKS (AUT)","1054222","2021-12-13 04:00","2021","12","13","04:00","1.9","","-1.9","","76","","","M","8","","5","","","","99.49","","","","","","NA"
"-132.77","53.32","KINDAKUN ROCKS (AUT)","1054222","2021-12-13 05:00","2021","12","13","05:00","1.6","","0.1","","89","","","M","2","","18","","","","99.46","","","","","","NA"
"-132.77","53.32","KINDAKUN ROCKS (AUT)","1054222","2021-12-13 06:00","2021","12","13","06:00","2.5","","-0.9","","78","","","M","3","","18","","","","99.46","","","","","","NA"
"-132.77","53.32","KINDAKUN ROCKS (AUT)","1054222","2021-12-13 07:00","2021","12","13","07:00","2.6","","-2.6","","68","","","M","4","","19","","","","99.45","","","","","","NA"
"-132.77","53.32","KINDAKUN ROCKS (AUT)","1054222","2021-12-13 08:00","2021","12","13","08:00","2.9","","-3.1","","65","","","M","1","","7","","","","99.49","","","","","","NA"
"-132.77","53.32","KINDAKUN ROCKS (AUT)","1054222","2021-12-13 09:00","2021","12","13","09:00","3.4","","-2.7","","64","","","M","27","","8","","","","99.57","","","","","","NA"
"-132.77","53.32","KINDAKUN ROCKS (AUT)","1054222","2021-12-13 10:00","2021","12","13","10:00","3.2","","-2.1","","68","","","M","1","","32","","","","99.64","","","","","","NA"
"-132.77","53.32","KINDAKUN ROCKS (AUT)","1054222","2021-12-13 11:00","2021","12","13","11:00","3.3","","-2.8","","64","","","M","3","","23","","","","99.71","","","","","","NA"
"-132.77","53.32","KINDAKUN ROCKS (AUT)","1054222","2021-12-13 12:00","2021","12","13","12:00","3.2","","-2.3","","67","","","M","3","","27","","","","99.76","","","","","","NA"
"-132.77","53.32","KINDAKUN ROCKS (AUT)","1054222","2021-12-13 13:00","2021","12","13","13:00","3.3","","-1.8","","70","","","M","2","","19","","","","99.81","","","","","","NA"
"-132.77","53.32","KINDAKUN ROCKS (AUT)","1054222","2021-12-13 14:00","2021","12","13","14:00","3.4","","-2.6","","65","","","M","1","","10","","","","99.89","","","","","","NA"
"-132.77","53.32","KINDAKUN ROCKS (AUT)","1054222","2021-12-13 15:00","2021","12","13","15:00","3.4","","-2.2","","67","","","M","2","","14","","","","99.96","","","","","","NA"
"-132.77","53.32","KINDAKUN ROCKS (AUT)","1054222","2021-12-13 16:00","2021","12","13","16:00","3.2","","-2.8","","64","","","M","2","","16","","","","100.01","","","","","","NA"
"-132.77","53.32","KINDAKUN ROCKS (AUT)","1054222","2021-12-13 17:00","2021","12","13","17:00","2.9","","-3.2","","64","","","M","3","","26","","","","100.06","","","","","","NA"
"-132.77","53.32","KINDAKUN ROCKS (AUT)","1054222","2021-12-13 18:00","2021","12","13","18:00","2.5","","-2.5","","69","","","M","1","","20","","","","100.14","","","","","","NA"
"-132.77","53.32","KINDAKUN ROCKS (AUT)","1054222","2021-12-13 19:00","2021","12","13","19:00","2.8","","-2.7","","67","","","M","2","","17","","","","100.18","","","","","","NA"
"-132.77","53.32","KINDAKUN ROCKS (AUT)","1054222","2021-12-13 20:00","2021","12","13","20:00","2.7","","-2.9","","66","","","M","4","","14","","","","100.20","","","","","","NA"
"-132.77","53.32","KINDAKUN ROCKS (AUT)","1054222","2021-12-13 21:00","2021","12","13","21:00","2.2","","-2.6","","71","","","M","5","","11","","","","100.24","","","","","","NA"
"-132.77","53.32","KINDAKUN ROCKS (AUT)","1054222","2021-12-13 22:00","2021","12","13","22:00","2.5","","-3.6","","64","","","M","3","","8","","","","100.27","","","","","","NA"
"-132.77","53.32","KINDAKUN ROCKS (AUT)","1054222","2021-12-13 23:00","2021","12","13","23:00","2.2","","-4.0","","63","","","M","4","","5","","","","100.33","","","","","","NA"
"-132.77","53.32","KINDAKUN ROCKS (AUT)","1054222","2021-12-14 00:00","2021","12","14","00:00","1.7","","-2.7","","72","","","M","8","","12","","","","100.28","","","","","","NA"
"-132.77","53.32","KINDAKUN ROCKS (AUT)","1054222","2021-12-14 01:00","2021","12","14","01:00","1.6","","-2.5","","74","","","M","8","","10","","","","100.31","","","","","","NA"
"-132.77","53.32","KINDAKUN ROCKS (AUT)","1054222","2021-12-14 02:00","2021","12","14","02:00","2.1","","-1.9","","75","","","M","11","","7","","","","100.28","","","","","","NA"
"-132.77","53.32","KINDAKUN ROCKS (AUT)","1054222","2021-12-14 03:00","2021","12","14","03:00","1.8","","-2.1","","75","","","M","12","","7","","","","100.27","","","","","","NA"
"-132.77","53.32","KINDAKUN ROCKS (AUT)","1054222","2021-12-14 04:00","2021","12","14","04:00","1.6","","-2.2","","76","","","M","10","","9","","","","100.19","","","","","","NA"
"-132.77","53.32","KINDAKUN ROCKS (AUT)","1054222","2021-12-14 05:00","2021","12","14","05:00","1.8","","-1.6","","78","","","M","9","","15","","","","100.09","","","","","","NA"
"-132.77","53.32","KINDAKUN ROCKS (AUT)","1054222","2021-12-14 06:00","2021","12","14","06:00","2.3","","-2.4","","71","","","M","11","","16","","","","100.09","","","","","","NA"
"-132.77","53.32","KINDAKUN ROCKS (AUT)","1054222","2021-12-14 07:00","2021","12","14","07:00","1.7","","-2.5","","73","","","M","9","","13","","","","100.08","","","","","","NA"
"-132.77","53.32","KINDAKUN ROCKS (AUT)","1054222","2021-12-14 08:00","2021","12","14","08:00","1.4","","-1.4","","81","","","M","8","","16","","","","99.97","","","","","","NA"
"-132.77","53.32","KINDAKUN ROCKS (AUT)","1054222","2021-12-14 09:00","2021","12","14","09:00","2.6","","-3.5","","64","","","M","11","","13","","","","99.91","","","","","","NA"
"-132.77","53.32","KINDAKUN ROCKS (AUT)","1054222","2021-12-14 10:00","2021","12","14","10:00","3.6","","-2.9","","63","","","M","11","","18","","","","99.87","","","","","","NA"
"-132.77","53.32","KINDAKUN ROCKS (AUT)","1054222","2021-12-14 11:00","2021","12","14","11:00","3.9","","-2.6","","62","","","M","12","","21","","","","99.84","","","","","","NA"
"-132.77","53.32","KINDAKUN ROCKS (AUT)","1054222","2021-12-14 12:00","2021","12","14","12:00","4.2","","-2.4","","62","","","M","12","","22","","","","99.76","","","","","","NA"
"-132.77","53.32","KINDAKUN ROCKS (AUT)","1054222","2021-12-14 13:00","2021","12","14","13:00","3.8","","-1.6","","68","","","M","13","","23","","","","99.68","","","","","","NA"
"-132.77","53.32","KINDAKUN ROCKS (AUT)","1054222","2021-12-14 14:00","2021","12","14","14:00","3.6","","-1.6","","69","","","M","10","","22","","","","99.60","","","","","","NA"
"-132.77","53.32","KINDAKUN ROCKS (AUT)","1054222","2021-12-14 15:00","2021","12","14","15:00","4.0","","-1.7","","66","","","M","9","","16","","","","99.52","","","","","","NA"
"-132.77","53.32","KINDAKUN ROCKS (AUT)","1054222","2021-12-14 16:00","2021","12","14","16:00","4.8","","-2.8","","58","","","M","10","","24","","","","99.43","","","","","","NA"
"-132.77","53.32","KINDAKUN ROCKS (AUT)","1054222","2021-12-14 17:00","2021","12","14","17:00","4.6","","-2.1","","62","","","M","9","","19","","","","99.37","","","","","","NA"
"-132.77","53.32","KINDAKUN ROCKS (AUT)","1054222","2021-12-14 18:00","2021","12","14","18:00","4.1","","-1.8","","65","","","M","8","","22","","","","99.36","","","","","","NA"
"-132.77","53.32","KINDAKUN ROCKS (AUT)","1054222","2021-12-14 19:00","2021","12","14","19:00","4.4","","-1.3","","66","","","M","8","","22","","","","99.31","","","","","","NA"
"-132.77","53.32","KINDAKUN ROCKS (AUT)","1054222","2021-12-14 20:00","2021","12","14","20:00","4.3","","-1.0","","68","","","M","8","","14","","","","99.31","","","","","","NA"
"-132.77","53.32","KINDAKUN ROCKS (AUT)","1054222","2021-12-14 21:00","2021","12","14","21:00","4.1","","-0.1","","74","","","M","9","","29","","","","99.34","","","","","","NA"
"-132.77","53.32","KINDAKUN ROCKS (AUT)","1054222","2021-12-14 22:00","2021","12","14","22:00","4.4","","-0.1","","73","","","M","7","","20","","","","99.38","","","","","","NA"
"-132.77","53.32","KINDAKUN ROCKS (AUT)","1054222","2021-12-14 23:00","2021","12","14","23:00","4.4","","-0.2","","72","","","M","8","","19","","","","99.45","","","","","","NA"
"-132.77","53.32","KINDAKUN ROCKS (AUT)","1054222","2021-12-15 00:00","2021","12","15","00:00","4.6","","0.2","","73","","","M","8","","27","","","","99.53","","","","","","NA"
"-132.77","53.32","KINDAKUN ROCKS (AUT)","1054222","2021-12-15 01:00","2021","12","15","01:00","4.7","","0.5","","74","","","M","8","","31","","","","99.55","","","","","","NA"
"-132.77","53.32","KINDAKUN ROCKS (AUT)","1054222","2021-12-15 02:00","2021","12","15","02:00","4.8","","0.0","","71","","","M","8","","22","","","","99.61","","","","","","NA"
"-132.77","53.32","KINDAKUN ROCKS (AUT)","1054222","2021-12-15 03:00","2021","12","15","03:00","5.0","","0.8","","74","","","M","9","","34","","","","99.69","","","","","","NA"
"-132.77","53.32","KINDAKUN ROCKS (AUT)","1054222","2021-12-15 04:00","2021","12","15","04:00","5.0","","0.6","","73","","","M","9","","24","","","","99.76","","","","","","NA"
"-132.77","53.32","KINDAKUN ROCKS (AUT)","1054222","2021-12-15 05:00","2021","12","15","05:00","5.3","","0.0","","69","","","M","8","","23","","","","99.85","","","","","","NA"
"-132.77","53.32","KINDAKUN ROCKS (AUT)","1054222","2021-12-15 06:00","2021","12","15","06:00","5.3","","0.5","","71","","","M","9","","22","","","","99.98","","","","","","NA"
"-132.77","53.32","KINDAKUN ROCKS (AUT)","1054222","2021-12-15 07:00","2021","12","15","07:00","5.4","","0.0","","68","","","M","7","","17","","","","100.09","","","","","","NA"
"-132.77","53.32","KINDAKUN ROCKS (AUT)","1054222","2021-12-15 08:00","2021","12","15","08:00","4.8","","0.6","","74","","","M","9","","24","","","","100.17","","","","","","NA"
"-132.77","53.32","KINDAKUN ROCKS (AUT)","1054222","2021-12-15 09:00","2021","12","15","09:00","4.5","","-0.1","","72","","","M","4","","8","","","","100.29","","","","","","NA"
"-132.77","53.32","KINDAKUN ROCKS (AUT)","1054222","2021-12-15 10:00","2021","12","15","10:00","4.6","","-0.1","","72","","","M","8","","16","","","","100.36","","","","","","NA"
"-132.77","53.32","KINDAKUN ROCKS (AUT)","1054222","2021-12-15 11:00","2021","12","15","11:00","4.2","","-0.4","","72","","","M","35","","7","","","","100.51","","","","","","NA"
"-132.77","53.32","KINDAKUN ROCKS (AUT)","1054222","2021-12-15 12:00","2021","12","15","12:00","3.7","","0.2","","78","","","M","8","","26","","","","100.56","","","","","","NA"
"-132.77","53.32","KINDAKUN ROCKS (AUT)","1054222","2021-12-15 13:00","2021","12","15","13:00","3.7","","-0.4","","74","","","M","1","","10","","","","100.61","","","","","","NA"
"-132.77","53.32","KINDAKUN ROCKS (AUT)","1054222","2021-12-15 14:00","2021","12","15","14:00","4.0","","-0.1","","75","","","M","8","","14","","","","100.67","","","","","","NA"
"-132.77","53.32","KINDAKUN ROCKS (AUT)","1054222","2021-12-15 15:00","2021","12","15","15:00","3.9","","-0.7","","72","","","M","5","","7","","","","100.77","","","","","","NA"
"-132.77","53.32","KINDAKUN ROCKS (AUT)","1054222","2021-12-15 16:00","2021","12","15","16:00","3.1","","-1.6","","71","","","M","1","","17","","","","100.85","","","","","","NA"
"-132.77","53.32","KINDAKUN ROCKS (AUT)","1054222","2021-12-15 17:00","2021","12","15","17:00","3.0","","-1.8","","71","","","M","3","","6","","","","100.91","","","","","","NA"
"-132.77","53.32","KINDAKUN ROCKS (AUT)","1054222","2021-12-15 18:00","2021","12","15","18:00","2.7","","-2.3","","70","","","M","4","","12","","","","100.98","","","","","","NA"
"-132.77","53.32","KINDAKUN ROCKS (AUT)","1054222","2021-12-15 19:00","2021","12","15","19:00","2.6","","-2.8","","67","","","M","3","","9","","","","101.03","","","","","","NA"
"-132.77","53.32","KINDAKUN ROCKS (AUT)","1054222","2021-12-15 20:00","2021","12","15","20:00","2.1","","-1.9","","74","","","M","7","","5","","","","101.10","","","","","","NA"
"-132.77","53.32","KINDAKUN ROCKS (AUT)","1054222","2021-12-15 21:00","2021","12","15","21:00","1.9","","-1.5","","78","","","M","7","","7","","","","101.17","","","","","","NA"
"-132.77","53.32","KINDAKUN ROCKS (AUT)","1054222","2021-12-15 22:00","2021","12","15","22:00","1.9","","-1.9","","75","","","M","8","","6","","","","101.22","","","","","","NA"
"-132.77","53.32","KINDAKUN ROCKS (AUT)","1054222","2021-12-15 23:00","2021","12","15","23:00","2.1","","-2.1","","74","","","M","36","","3","","","","101.31","","","","","","NA"
"-132.77","53.32","KINDAKUN ROCKS (AUT)","1054222","2021-12-16 00:00","2021","12","16","00:00","2.3","","-2.5","","70","","","M","4","","6","","","","101.38","","","","","","NA"
"-132.77","53.32","KINDAKUN ROCKS (AUT)","1054222","2021-12-16 01:00","2021","12","16","01:00","2.6","","-1.8","","73","","","M","36","","7","","","","101.42","","","","","","NA"
"-132.77","53.32","KINDAKUN ROCKS (AUT)","1054222","2021-12-16 02:00","2021","12","16","02:00","2.1","","-2.7","","70","","","M","3","","6","","","","101.47","","","","","","NA"
"-132.77","53.32","KINDAKUN ROCKS (AUT)","1054222","2021-12-16 03:00","2021","12","16","03:00","2.9","","-3.3","","64","","","M","3","","6","","","","101.52","","","","","","NA"
"-132.77","53.32","KINDAKUN ROCKS (AUT)","1054222","2021-12-16 04:00","2021","12","16","04:00","2.5","","-2.8","","68","","","M","8","","7","","","","101.55","","","","","","NA"
"-132.77","53.32","KINDAKUN ROCKS (AUT)","1054222","2021-12-16 05:00","2021","12","16","05:00","2.3","","-1.8","","74","","","M","9","","3","","","","101.60","","","","","","NA"
"-132.77","53.32","KINDAKUN ROCKS (AUT)","1054222","2021-12-16 06:00","2021","12","16","06:00","1.9","","-1.3","","79","","","M","11","","9","","","","101.62","","","","","","NA"
"-132.77","53.32","KINDAKUN ROCKS (AUT)","1054222","2021-12-16 07:00","2021","12","16","07:00","2.1","","-0.9","","81","","","M","11","","10","","","","101.65","","","","","","NA"
"-132.77","53.32","KINDAKUN ROCKS (AUT)","1054222","2021-12-16 08:00","2021","12","16","08:00","3.4","","0.2","","80","","","M","34","","5","","","","101.69","","","","","","NA"
"-132.77","53.32","KINDAKUN ROCKS (AUT)","1054222","2021-12-16 09:00","2021","12","16","09:00","3.2","","0.9","","85","","","M","3","","5","","","","101.74","","","","","","NA"
"-132.77","53.32","KINDAKUN ROCKS (AUT)","1054222","2021-12-16 10:00","2021","12","16","10:00","2.6","","0.7","","87","","","M","7","","6","","","","101.75","","","","","","NA"
"-132.77","53.32","KINDAKUN ROCKS (AUT)","1054222","2021-12-16 11:00","2021","12","16","11:00","3.7","","1.7","","87","","","M","7","","3","","","","101.80","","","","","","NA"
"-132.77","53.32","KINDAKUN ROCKS (AUT)","1054222","2021-12-16 12:00","2021","12","16","12:00","4.3","","1.6","","83","","","M","9","","4","","","","101.82","","","","","","NA"
"-132.77","53.32","KINDAKUN ROCKS (AUT)","1054222","2021-12-16 13:00","2021","12","16","13:00","5.1","","2.2","","81","","","M","","","0","","","","101.81","","","","","","NA"
"-132.77","53.32","KINDAKUN ROCKS (AUT)","1054222","2021-12-16 14:00","2021","12","16","14:00","5.0","","1.9","","80","","","M","","","0","","","","101.84","","","","","","NA"
"-132.77","53.32","KINDAKUN ROCKS (AUT)","1054222","2021-12-16 15:00","2021","12","16","15:00","4.4","","1.9","","84","","","M","","","0","","","","101.86","","","","","","NA"
"-132.77","53.32","KINDAKUN ROCKS (AUT)","1054222","2021-12-16 16:00","2021","12","16","16:00","4.1","","1.7","","85","","","M","","","0","","","","101.85","","","","","","NA"
"-132.77","53.32","KINDAKUN ROCKS (AUT)","1054222","2021-12-16 17:00","2021","12","16","17:00","3.7","","1.6","","86","","","M","10","","9","","","","101.82","","","","","","NA"
"-132.77","53.32","KINDAKUN ROCKS (AUT)","1054222","2021-12-16 18:00","2021","12","16","18:00","3.5","","1.4","","86","","","M","10","","12","","","","101.80","","","","","","NA"
"-132.77","53.32","KINDAKUN ROCKS (AUT)","1054222","2021-12-16 19:00","2021","12","16","19:00","3.1","","0.8","","85","","","M","10","","11","","","","101.80","","","","","","NA"
"-132.77","53.32","KINDAKUN ROCKS (AUT)","1054222","2021-12-16 20:00","2021","12","16","20:00","3.1","","0.8","","85","","","M","11","","12","","","","101.79","","","","","","NA"
"-132.77","53.32","KINDAKUN ROCKS (AUT)","1054222","2021-12-16 21:00","2021","12","16","21:00","3.4","","1.1","","85","","","M","10","","11","","","","101.75","","","","","","NA"
"-132.77","53.32","KINDAKUN ROCKS (AUT)","1054222","2021-12-16 22:00","2021","12","16","22:00","3.6","","0.9","","83","","","M","13","","16","","","","101.76","","","","","","NA"
"-132.77","53.32","KINDAKUN ROCKS (AUT)","1054222","2021-12-16 23:00","2021","12","16","23:00","3.7","","1.1","","83","","","M","13","","18","","","","101.74","","","","","","NA"
"-132.77","53.32","KINDAKUN ROCKS (AUT)","1054222","2021-12-17 00:00","2021","12","17","00:00","4.0","","1.1","","81","","","M","10","","14","","","","101.72","","","","","","NA"
"-132.77","53.32","KINDAKUN ROCKS (AUT)","1054222","2021-12-17 01:00","2021","12","17","01:00","4.5","","0.9","","78","","","M","14","","18","","","","101.69","","","","","","NA"
"-132.77","53.32","KINDAKUN ROCKS (AUT)","1054222","2021-12-17 02:00","2021","12","17","02:00","4.8","","0.7","","75","","","M","12","","22","","","","101.65","","","","","","NA"
"-132.77","53.32","KINDAKUN ROCKS (AUT)","1054222","2021-12-17 03:00","2021","12","17","03:00","4.4","","0.6","","77","","","M","11","","18","","","","101.60","","","","","","NA"
"-132.77","53.32","KINDAKUN ROCKS (AUT)","1054222","2021-12-17 04:00","2021","12","17","04:00","4.8","","0.1","","71","","","M","12","","22","","","","101.55","","","","","","NA"
"-132.77","53.32","KINDAKUN ROCKS (AUT)","1054222","2021-12-17 05:00","2021","12","17","05:00","4.9","","-0.1","","70","","","M","10","","18","","","","101.49","","","","","","NA"
"-132.77","53.32","KINDAKUN ROCKS (AUT)","1054222","2021-12-17 06:00","2021","12","17","06:00","5.3","","-0.2","","68","","","M","12","","23","","","","101.43","","","","","","NA"
"-132.77","53.32","KINDAKUN ROCKS (AUT)","1054222","2021-12-17 07:00","2021","12","17","07:00","5.6","","0.7","","70","","","M","13","","33","","","","101.36","","","","","","NA"
"-132.77","53.32","KINDAKUN ROCKS (AUT)","1054222","2021-12-17 08:00","2021","12","17","08:00","5.0","","1.0","","75","","","M","13","","37","","","","101.32","","","","","","NA"
"-132.77","53.32","KINDAKUN ROCKS (AUT)","1054222","2021-12-17 09:00","2021","12","17","09:00","5.3","","1.4","","76","","","M","13","","28","","","","101.25","","","","","","NA"
"-132.77","53.32","KINDAKUN ROCKS (AUT)","1054222","2021-12-17 10:00","2021","12","17","10:00","5.4","","0.9","","73","","","M","14","","33","","","","101.23","","","","","","NA"
"-132.77","53.32","KINDAKUN ROCKS (AUT)","1054222","2021-12-17 11:00","2021","12","17","11:00","5.6","","1.2","","74","","","M","14","","36","","","","101.20","","","","","","NA"
"-132.77","53.32","KINDAKUN ROCKS (AUT)","1054222","2021-12-17 12:00","2021","12","17","12:00","5.5","","2.2","","79","","","M","15","","32","","","","101.13","","","","","","NA"
"-132.77","53.32","KINDAKUN ROCKS (AUT)","1054222","2021-12-17 13:00","2021","12","17","13:00","5.8","","2.8","","81","","","M","14","","35","","","","101.04","","","","","","NA"
"-132.77","53.32","KINDAKUN ROCKS (AUT)","1054222","2021-12-17 14:00","2021","12","17","14:00","5.7","","2.4","","79","","","M","14","","37","","","","100.92","","","","","","NA"
"-132.77","53.32","KINDAKUN ROCKS (AUT)","1054222","2021-12-17 15:00","2021","12","17","15:00","5.3","","3.1","","85","","","M","14","","31","","","","100.85","","","","","","NA"
"-132.77","53.32","KINDAKUN ROCKS (AUT)","1054222","2021-12-17 16:00","2021","12","17","16:00","5.5","","2.7","","82","","","M","13","","29","","","","100.77","","","","","","NA"
"-132.77","53.32","KINDAKUN ROCKS (AUT)","1054222","2021-12-17 17:00","2021","12","17","17:00","6.0","","3.0","","81","","","M","14","","34","","","","100.70","","","","","","NA"
"-132.77","53.32","KINDAKUN ROCKS (AUT)","1054222","2021-12-17 18:00","2021","12","17","18:00","6.6","","2.5","","75","","","M","13","","33","","","","100.61","","","","","","NA"
"-132.77","53.32","KINDAKUN ROCKS (AUT)","1054222","2021-12-17 19:00","2021","12","17","19:00","7.0","","2.9","","75","","","M","13","","38","","","","100.53","","","","","","NA"
"-132.77","53.32","KINDAKUN ROCKS (AUT)","1054222","2021-12-17 20:00","2021","12","17","20:00","6.7","","3.2","","78","","","M","13","","28","","","","100.45","","","","","","NA"
"-132.77","53.32","KINDAKUN ROCKS (AUT)","1054222","2021-12-17 21:00","2021","12","17","21:00","6.8","","3.3","","79","","","M","12","","19","","","","100.39","","","","","","NA"
"-132.77","53.32","KINDAKUN ROCKS (AUT)","1054222","2021-12-17 22:00","2021","12","17","22:00","7.0","","3.0","","76","","","M","12","","21","","","","100.30","","","","","","NA"
"-132.77","53.32","KINDAKUN ROCKS (AUT)","1054222","2021-12-17 23:00","2021","12","17","23:00","6.3","","3.3","","81","","","M","10","","10","","","","100.24","","","","","","NA"
"-132.77","53.32","KINDAKUN ROCKS (AUT)","1054222","2021-12-18 00:00","2021","12","18","00:00","5.7","","3.1","","83","","","M","1","","5","","","","100.18","","","","","","NA"
"-132.77","53.32","KINDAKUN ROCKS (AUT)","1054222","2021-12-18 01:00","2021","12","18","01:00","5.7","","3.4","","85","","","M","7","","9","","","","100.13","","","","","","NA"
"-132.77","53.32","KINDAKUN ROCKS (AUT)","1054222","2021-12-18 02:00","2021","12","18","02:00","5.4","","3.1","","85","","","M","33","","4","","","","100.09","","","","","","NA"
"-132.77","53.32","KINDAKUN ROCKS (AUT)","1054222","2021-12-18 03:00","2021","12","18","03:00","5.4","","3.1","","85","","","M","16","","2","","","","100.06","","","","","","NA"
"-132.77","53.32","KINDAKUN ROCKS (AUT)","1054222","2021-12-18 04:00","2021","12","18","04:00","4.6","","2.8","","88","","","M","9","","18","","","","100.05","","","","","","NA"
"-132.77","53.32","KINDAKUN ROCKS (AUT)","1054222","2021-12-18 05:00","2021","12","18","05:00","4.8","","2.4","","85","","","M","1","","5","","","","100.04","","","","","","NA"
"-132.77","53.32","KINDAKUN ROCKS (AUT)","1054222","2021-12-18 06:00","2021","12","18","06:00","4.1","","0.9","","80","","","M","9","","22","","","","100.05","","","","","","NA"
"-132.77","53.32","KINDAKUN ROCKS (AUT)","1054222","2021-12-18 07:00","2021","12","18","07:00","3.8","","1.0","","82","","","M","4","","12","","","","100.09","","","","","","NA"
"-132.77","53.32","KINDAKUN ROCKS (AUT)","1054222","2021-12-18 08:00","2021","12","18","08:00","3.5","","0.0","","78","","","M","2","","20","","","","100.13","","","","","","NA"
"-132.77","53.32","KINDAKUN ROCKS (AUT)","1054222","2021-12-18 09:00","2021","12","18","09:00","3.5","","0.4","","81","","","M","1","","26","","","","100.20","","","","","","NA"
"-132.77","53.32","KINDAKUN ROCKS (AUT)","1054222","2021-12-18 10:00","2021","12","18","10:00","2.8","","0.2","","83","","","M","3","","17","","","","100.34","","","","","","NA"
"-132.77","53.32","KINDAKUN ROCKS (AUT)","1054222","2021-12-18 11:00","2021","12","18","11:00","3.3","","-0.6","","76","","","M","2","","17","","","","100.40","","","","","","NA"
"-132.77","53.32","KINDAKUN ROCKS (AUT)","1054222","2021-12-18 12:00","2021","12","18","12:00","3.6","","-0.5","","75","","","M","2","","20","","","","100.44","","","","","","NA"
"-132.77","53.32","KINDAKUN ROCKS (AUT)","1054222","2021-12-18 13:00","2021","12","18","13:00","3.8","","-1.1","","70","","","M","3","","17","","","","100.46","","","","","","NA"
"-132.77","53.32","KINDAKUN ROCKS (AUT)","1054222","2021-12-18 14:00","2021","12","18","14:00","4.1","","-1.8","","65","","","M","3","","20","","","","100.52","","","","","","NA"
"-132.77","53.32","KINDAKUN ROCKS (AUT)","1054222","2021-12-18 15:00","2021","12","18","15:00","4.3","","-1.5","","66","","","M","1","","18","","","","100.58","","","","","","NA"
"-132.77","53.32","KINDAKUN ROCKS (AUT)","1054222","2021-12-18 16:00","2021","12","18","16:00","4.6","","-1.8","","63","","","M","1","","14","","","","100.69","","","","","","NA"
"-132.77","53.32","KINDAKUN ROCKS (AUT)","1054222","2021-12-18 17:00","2021","12","18","17:00","4.1","","-1.9","","65","","","M","4","","5","","","","100.80","","","","","","NA"
"-132.77","53.32","KINDAKUN ROCKS (AUT)","1054222","2021-12-18 18:00","2021","12","18","18:00","4.1","","-2.3","","63","","","M","3","","7","","","","100.86","","","","","","NA"
"-132.77","53.32","KINDAKUN ROCKS (AUT)","1054222","2021-12-18 19:00","2021","12","18","19:00","3.8","","-3.6","","58","","","M","6","","2","","","","100.95","","","","","","NA"
"-132.77","53.32","KINDAKUN ROCKS (AUT)","1054222","2021-12-18 20:00","2021","12","18","20:00","3.9","","-1.7","","67","","","M","3","","4","","","","101.02","","","","","","NA"
"-132.77","53.32","KINDAKUN ROCKS (AUT)","1054222","2021-12-18 21:00","2021","12","18","21:00","2.9","","-1.3","","74","","","M","9","","7","","","","101.12","","","","","","NA"
"-132.77","53.32","KINDAKUN ROCKS (AUT)","1054222","2021-12-18 22:00","2021","12","18","22:00","3.8","","-1.3","","69","","","M","3","","5","","","","101.17","","","","","","NA"
"-132.77","53.32","KINDAKUN ROCKS (AUT)","1054222","2021-12-18 23:00","2021","12","18","23:00","3.3","","-1.2","","72","","","M","9","","4","","","","101.24","","","","","","NA"
"-132.77","53.32","KINDAKUN ROCKS (AUT)","1054222","2021-12-19 00:00","2021","12","19","00:00","3.0","","-1.0","","75","","","M","7","","7","","","","101.35","","","","","","NA"
"-132.77","53.32","KINDAKUN ROCKS (AUT)","1054222","2021-12-19 01:00","2021","12","19","01:00","3.6","","-0.9","","72","","","M","5","","5","","","","101.42","","","","","","NA"
"-132.77","53.32","KINDAKUN ROCKS (AUT)","1054222","2021-12-19 02:00","2021","12","19","02:00","3.1","","-1.1","","74","","","M","4","","5","","","","101.48","","","","","","NA"
"-132.77","53.32","KINDAKUN ROCKS (AUT)","1054222","2021-12-19 03:00","2021","12","19","03:00","2.5","","-1.4","","75","","","M","7","","7","","","","101.52","","","","","","NA"
"-132.77","53.32","KINDAKUN ROCKS (AUT)","1054222","2021-12-19 04:00","2021","12","19","04:00","2.8","","-1.4","","74","","","M","6","","2","","","","101.58","","","","","","NA"
"-132.77","53.32","KINDAKUN ROCKS (AUT)","1054222","2021-12-19 05:00","2021","12","19","05:00","2.4","","-1.5","","76","","","M","9","","3","","","","101.60","","","","","","NA"
"-132.77","53.32","KINDAKUN ROCKS (AUT)","1054222","2021-12-19 06:00","2021","12","19","06:00","2.1","","-1.3","","78","","","M","9","","2","","","","101.61","","","","","","NA"
"-132.77","53.32","KINDAKUN ROCKS (AUT)","1054222","2021-12-19 07:00","2021","12","19","07:00","2.2","","-1.8","","75","","","M","7","","3","","","","101.62","","","","","","NA"
"-132.77","53.32","KINDAKUN ROCKS (AUT)","1054222","2021-12-19 08:00","2021","12","19","08:00","2.6","","-1.7","","73","","","M","6","","2","","","","101.67","","","","","","NA"
"-132.77","53.32","KINDAKUN ROCKS (AUT)","1054222","2021-12-19 09:00","2021","12","19","09:00","2.4","","-2.5","","70","","","M","9","","3","","","","101.70","","","","","","NA"
"-132.77","53.32","KINDAKUN ROCKS (AUT)","1054222","2021-12-19 10:00","2021","12","19","10:00","2.9","","-2.9","","66","","","M","8","","6","","","","101.72","","","","","","NA"
"-132.77","53.32","KINDAKUN ROCKS (AUT)","1054222","2021-12-19 11:00","2021","12","19","11:00","3.0","","-1.5","","73","","","M","12","","6","","","","101.75","","","","","","NA"
"-132.77","53.32","KINDAKUN ROCKS (AUT)","1054222","2021-12-19 12:00","2021","12","19","12:00","3.6","","-1.2","","71","","","M","","","0","","","","101.76","","","","","","NA"
"-132.77","53.32","KINDAKUN ROCKS (AUT)","1054222","2021-12-19 13:00","2021","12","19","13:00","4.5","","-2.0","","63","","","M","","","0","","","","101.76","","","","","","NA"
"-132.77","53.32","KINDAKUN ROCKS (AUT)","1054222","2021-12-19 14:00","2021","12","19","14:00","4.1","","-1.8","","65","","","M","2","","7","","","","101.77","","","","","","NA"
"-132.77","53.32","KINDAKUN ROCKS (AUT)","1054222","2021-12-19 15:00","2021","12","19","15:00","4.1","","-1.7","","66","","","M","6","","5","","","","101.80","","","","","","NA"
"-132.77","53.32","KINDAKUN ROCKS (AUT)","1054222","2021-12-19 16:00","2021","12","19","16:00","3.2","","-1.9","","69","","","M","7","","9","","","","101.83","","","","","","NA"
"-132.77","53.32","KINDAKUN ROCKS (AUT)","1054222","2021-12-19 17:00","2021","12","19","17:00","2.6","","-2.4","","69","","","M","4","","5","","","","101.90","","","","","","NA"
"-132.77","53.32","KINDAKUN ROCKS (AUT)","1054222","2021-12-19 18:00","2021","12","19","18:00","2.2","","-2.6","","70","","","M","7","","13","","","","101.92","","","","","","NA"
"-132.77","53.32","KINDAKUN ROCKS (AUT)","1054222","2021-12-19 19:00","2021","12","19","19:00","1.7","","-3.4","","68","","","M","5","","8","","","","101.98","","","","","","NA"
"-132.77","53.32","KINDAKUN ROCKS (AUT)","1054222","2021-12-19 20:00","2021","12","19","20:00","1.5","","-3.1","","72","","","M","7","","13","","","","101.97","","","","","","NA"
"-132.77","53.32","KINDAKUN ROCKS (AUT)","1054222","2021-12-19 21:00","2021","12","19","21:00","1.2","","-3.7","","70","","","M","8","","10","","","","102.00","","","","","","NA"
"-132.77","53.32","KINDAKUN ROCKS (AUT)","1054222","2021-12-19 22:00","2021","12","19","22:00","1.5","","-3.6","","69","","","M","7","","5","","","","102.05","","","","","","NA"
"-132.77","53.32","KINDAKUN ROCKS (AUT)","1054222","2021-12-19 23:00","2021","12","19","23:00","1.1","","-3.5","","71","","","M","7","","10","","","","102.04","","","","","","NA"
"-132.77","53.32","KINDAKUN ROCKS (AUT)","1054222","2021-12-20 00:00","2021","12","20","00:00","0.9","","-3.2","","74","","","M","6","","10","","","","102.06","","","","","","NA"
"-132.77","53.32","KINDAKUN ROCKS (AUT)","1054222","2021-12-20 01:00","2021","12","20","01:00","0.9","","-3.5","","73","","","M","6","","2","","","","102.11","","","","","","NA"
"-132.77","53.32","KINDAKUN ROCKS (AUT)","1054222","2021-12-20 02:00","2021","12","20","02:00","0.8","","-3.8","","71","","","M","8","","12","","","","102.12","","","","","","NA"
"-132.77","53.32","KINDAKUN ROCKS (AUT)","1054222","2021-12-20 03:00","2021","12","20","03:00","0.9","","-3.4","","73","","","M","7","","10","","","","102.17","","","","","","NA"
"-132.77","53.32","KINDAKUN ROCKS (AUT)","1054222","2021-12-20 04:00","2021","12","20","04:00","1.3","","-3.6","","70","","","M","8","","6","","","","102.14","","","","","","NA"
"-132.77","53.32","KINDAKUN ROCKS (AUT)","1054222","2021-12-20 05:00","2021","12","20","05:00","1.2","","-3.6","","70","","","M","7","","3","","","","102.07","","","","","","NA"
"-132.77","53.32","KINDAKUN ROCKS (AUT)","1054222","2021-12-20 06:00","2021","12","20","06:00","1.5","","-4.1","","66","","","M","1","","6","","","","102.05","","","","","","NA"
"-132.77","53.32","KINDAKUN ROCKS (AUT)","1054222","2021-12-20 07:00","2021","12","20","07:00","1.8","","-4.2","","64","","","M","3","","4","","","","102.07","","","","","","NA"
"-132.77","53.32","KINDAKUN ROCKS (AUT)","1054222","2021-12-20 08:00","2021","12","20","08:00","1.4","","-4.1","","67","","","M","9","","5","","","","102.08","","","","","","NA"
"-132.77","53.32","KINDAKUN ROCKS (AUT)","1054222","2021-12-20 09:00","2021","12","20","09:00","1.5","","-4.1","","67","","","M","10","","4","","","","102.12","","","","","","NA"
"-132.77","53.32","KINDAKUN ROCKS (AUT)","1054222","2021-12-20 10:00","2021","12","20","10:00","2.6","","-4.9","","58","","","M","13","","2","","","","102.12","","","","","","NA"
"-132.77","53.32","KINDAKUN ROCKS (AUT)","1054222","2021-12-20 11:00","2021","12","20","11:00","3.1","","-5.2","","54","","","M","32","","5","","","","102.17","","","","","","NA"
"-132.77","53.32","KINDAKUN ROCKS (AUT)","1054222","2021-12-20 12:00","2021","12","20","12:00","3.4","","-4.9","","55","","","M","32","","6","","","","102.20","","","","","","NA"
"-132.77","53.32","KINDAKUN ROCKS (AUT)","1054222","2021-12-20 13:00","2021","12","20","13:00","3.6","","-6.1","","49","","","M","1","","4","","","","102.15","","","","","","NA"
"-132.77","53.32","KINDAKUN ROCKS (AUT)","1054222","2021-12-20 14:00","2021","12","20","14:00","3.8","","-5.2","","52","","","M","34","","12","","","","102.15","","","","","","NA"
"-132.77","53.32","KINDAKUN ROCKS (AUT)","1054222","2021-12-20 15:00","2021","12","20","15:00","3.9","","-4.8","","53","","","M","36","","8","","","","102.11","","","","","","NA"
"-132.77","53.32","KINDAKUN ROCKS (AUT)","1054222","2021-12-20 16:00","2021","12","20","16:00","3.5","","-4.7","","55","","","M","6","","3","","","","102.09","","","","","","NA"
"-132.77","53.32","KINDAKUN ROCKS (AUT)","1054222","2021-12-20 17:00","2021","12","20","17:00","3.6","","-3.7","","59","","","M","35","","16","","","","102.20","","","","","","NA"
"-132.77","53.32","KINDAKUN ROCKS (AUT)","1054222","2021-12-20 18:00","2021","12","20","18:00","2.4","","-3.8","","64","","","M","6","","5","","","","102.15","","","","","","NA"
"-132.77","53.32","KINDAKUN ROCKS (AUT)","1054222","2021-12-20 19:00","2021","12","20","19:00","2.8","","-5.7","","54","","","M","11","","6","","","","102.12","","","","","","NA"
"-132.77","53.32","KINDAKUN ROCKS (AUT)","1054222","2021-12-20 20:00","2021","12","20","20:00","3.1","","-3.1","","64","","","M","33","","3","","","","102.06","","","","","","NA"
"-132.77","53.32","KINDAKUN ROCKS (AUT)","1054222","2021-12-20 21:00","2021","12","20","21:00","2.8","","-3.0","","66","","","M","7","","1","","","","102.09","","","","","","NA"
"-132.77","53.32","KINDAKUN ROCKS (AUT)","1054222","2021-12-20 22:00","2021","12","20","22:00","2.0","","-4.3","","63","","","M","9","","10","","","","101.98","","","","","","NA"
"-132.77","53.32","KINDAKUN ROCKS (AUT)","1054222","2021-12-20 23:00","2021","12","20","23:00","3.1","","-4.0","","59","","","M","1","","13","","","","102.06","","","","","","NA"
"-132.77","53.32","KINDAKUN ROCKS (AUT)","1054222","2021-12-21 00:00","2021","12","21","00:00","2.7","","-4.6","","58","","","M","11","","10","","","","102.05","","","","","","NA"
"-132.77","53.32","KINDAKUN ROCKS (AUT)","1054222","2021-12-21 01:00","2021","12","21","01:00","2.6","","-3.1","","66","","","M","10","","10","","","","102.00","","","","","","NA"
"-132.77","53.32","KINDAKUN ROCKS (AUT)","1054222","2021-12-21 02:00","2021","12","21","02:00","2.8","","-2.7","","67","","","M","10","","11","","","","101.97","","","","","","NA"
"-132.77","53.32","KINDAKUN ROCKS (AUT)","1054222","2021-12-21 03:00","2021","12","21","03:00","3.2","","-2.1","","68","","","M","10","","10","","","","101.83","","","","","","NA"
"-132.77","53.32","KINDAKUN ROCKS (AUT)","1054222","2021-12-21 04:00","2021","12","21","04:00","4.3","","-0.4","","71","","","M","17","","13","","","","101.76","","","","","","NA"
"-132.77","53.32","KINDAKUN ROCKS (AUT)","1054222","2021-12-21 05:00","2021","12","21","05:00","5.1","","0.0","","69","","","M","23","","18","","","","101.63","","","","","","NA"
"-132.77","53.32","KINDAKUN ROCKS (AUT)","1054222","2021-12-21 06:00","2021","12","21","06:00","5.1","","-0.3","","68","","","M","23","","18","","","","101.47","","","","","","NA"
"-132.77","53.32","KINDAKUN ROCKS (AUT)","1054222","2021-12-21 07:00","2021","12","21","07:00","5.0","","0.4","","72","","","M","23","","25","","","","101.34","","","","","","NA"
"-132.77","53.32","KINDAKUN ROCKS (AUT)","1054222","2021-12-21 08:00","2021","12","21","08:00","5.0","","0.8","","74","","","M","21","","26","","","","101.24","","","","","","NA"
"-132.77","53.32","KINDAKUN ROCKS (AUT)","1054222","2021-12-21 09:00","2021","12","21","09:00","5.0","","0.9","","75","","","M","21","","24","","","","101.12","","","","","","NA"
"-132.77","53.32","KINDAKUN ROCKS (AUT)","1054222","2021-12-21 10:00","2021","12","21","10:00","4.1","","2.2","","87","","","M","18","","31","","","","100.98","","","","","","NA"
"-132.77","53.32","KINDAKUN ROCKS (AUT)","1054222","2021-12-21 11:00","2021","12","21","11:00","4.5","","2.9","","90","","","M","19","","38","","","","100.81","","","","","","NA"
"-132.77","53.32","KINDAKUN ROCKS (AUT)","1054222","2021-12-21 12:00","2021","12","21","12:00","4.3","","2.9","","91","","","M","20","","44","","","","100.59","","","","","","NA"
"-132.77","53.32","KINDAKUN ROCKS (AUT)","1054222","2021-12-21 13:00","2021","12","21","13:00","4.4","","2.9","","90","","","M","21","","43","","","","100.42","","","","","","NA"
"-132.77","53.32","KINDAKUN ROCKS (AUT)","1054222","2021-12-21 14:00","2021","12","21","14:00","4.6","","3.4","","92","","","M","21","","39","","","","100.22","","","","","","NA"
"-132.77","53.32","KINDAKUN ROCKS (AUT)","1054222","2021-12-21 15:00","2021","12","21","15:00","5.5","","4.4","","93","","","M","22","","44","","","","100.00","","","","","","NA"
"-132.77","53.32","KINDAKUN ROCKS (AUT)","1054222","2021-12-21 16:00","2021","12","21","16:00","5.6","","2.6","","81","","","M","30","","43","","","","99.81","","","","","","NA"
"-132.77","53.32","KINDAKUN ROCKS (AUT)","1054222","2021-12-21 17:00","2021","12","21","17:00","5.5","","1.8","","77","","","M","29","","41","","","","99.72","","","","","","NA"
"-132.77","53.32","KINDAKUN ROCKS (AUT)","1054222","2021-12-21 18:00","2021","12","21","18:00","5.2","","0.9","","74","","","M","29","","38","","","","99.65","","","","","","NA"
"-132.77","53.32","KINDAKUN ROCKS (AUT)","1054222","2021-12-21 19:00","2021","12","21","19:00"
"-132.77","53.32","KINDAKUN ROCKS (AUT)","1054222","2021-12-21 20:00","2021","12","21","20:00","3.2","","1.4","","88","","","M","31","","26","","","","99.39","","","","","","NA"
"-132.77","53.32","KINDAKUN ROCKS (AUT)","1054222","2021-12-21 21:00","2021","12","21","21:00","2.9","","1.3","","89","","","M","7","","5","","","","99.33","","","","","","NA"
"-132.77","53.32","KINDAKUN ROCKS (AUT)","1054222","2021-12-21 22:00","2021","12","21","22:00","2.4","","1.2","","92","","","M","9","","9","","","","99.29","","","","","","NA"
"-132.77","53.32","KINDAKUN ROCKS (AUT)","1054222","2021-12-21 23:00","2021","12","21","23:00","2.4","","1.2","","92","","","M","8","","5","","","","99.28","","","","","","NA"
"-132.77","53.32","KINDAKUN ROCKS (AUT)","1054222","2021-12-22 00:00","2021","12","22","00:00","3.4","","1.8","","90","","","M","1","","8","","","","99.33","","","","","","NA"
"-132.77","53.32","KINDAKUN ROCKS (AUT)","1054222","2021-12-22 01:00","2021","12","22","01:00","3.3","","1.1","","86","","","M","1","","13","","","","99.41","","","","","","NA"
"-132.77","53.32","KINDAKUN ROCKS (AUT)","1054222","2021-12-22 02:00","2021","12","22","02:00","3.7","","0.4","","79","","","M","1","","12","","","","99.46","","","","","","NA"
"-132.77","53.32","KINDAKUN ROCKS (AUT)","1054222","2021-12-22 03:00","2021","12","22","03:00","3.8","","0.0","","76","","","M","1","","23","","","","99.55","","","","","","NA"
"-132.77","53.32","KINDAKUN ROCKS (AUT)","1054222","2021-12-22 04:00","2021","12","22","04:00","3.5","","0.7","","81","","","M","1","","32","","","","99.63","","","","","","NA"
"-132.77","53.32","KINDAKUN ROCKS (AUT)","1054222","2021-12-22 05:00","2021","12","22","05:00","3.9","","-0.1","","75","","","M","36","","29","","","","99.69","","","","","","NA"
"-132.77","53.32","KINDAKUN ROCKS (AUT)","1054222","2021-12-22 06:00","2021","12","22","06:00","3.6","","-0.5","","74","","","M","1","","28","","","","99.73","","","","","","NA"
"-132.77","53.32","KINDAKUN ROCKS (AUT)","1054222","2021-12-22 07:00","2021","12","22","07:00","3.6","","-0.5","","75","","","M","2","","22","","","","99.77","","","","","","NA"
"-132.77","53.32","KINDAKUN ROCKS (AUT)","1054222","2021-12-22 08:00","2021","12","22","08:00","3.7","","-0.2","","76","","","M","36","","25","","","","99.78","","","","","","NA"
"-132.77","53.32","KINDAKUN ROCKS (AUT)","1054222","2021-12-22 09:00","2021","12","22","09:00","3.8","","-1.1","","70","","","M","1","","20","","","","99.85","","","","","","NA"
"-132.77","53.32","KINDAKUN ROCKS (AUT)","1054222","2021-12-22 10:00","2021","12","22","10:00","3.5","","-0.7","","74","","","M","36","","29","","","","99.88","","","","","","NA"
"-132.77","53.32","KINDAKUN ROCKS (AUT)","1054222","2021-12-22 11:00","2021","12","22","11:00","3.5","","-1.6","","69","","","M","36","","28","","","","99.93","","","","","","NA"
"-132.77","53.32","KINDAKUN ROCKS (AUT)","1054222","2021-12-22 12:00","2021","12","22","12:00","3.6","","-1.9","","67","","","M","1","","20","","","","99.94","","","","","","NA"
"-132.77","53.32","KINDAKUN ROCKS (AUT)","1054222","2021-12-22 13:00","2021","12","22","13:00","3.4","","-2.6","","65","","","M","36","","10","","","","99.96","","","","","","NA"
"-132.77","53.32","KINDAKUN ROCKS (AUT)","1054222","2021-12-22 14:00","2021","12","22","14:00","3.4","","-2.9","","63","","","M","1","","16","","","","99.96","","","","","","NA"
"-132.77","53.32","KINDAKUN ROCKS (AUT)","1054222","2021-12-22 15:00","2021","12","22","15:00","3.5","","-2.6","","64","","","M","1","","27","","","","99.99","","","","","","NA"
"-132.77","53.32","KINDAKUN ROCKS (AUT)","1054222","2021-12-22 16:00","2021","12","22","16:00","3.2","","-3.5","","62","","","M","1","","33","","","","99.99","","","","","","NA"
"-132.77","53.32","KINDAKUN ROCKS (AUT)","1054222","2021-12-22 17:00","2021","12","22","17:00","3.1","","-3.2","","63","","","M","36","","34","","","","100.03","","","","","","NA"
"-132.77","53.32","KINDAKUN ROCKS (AUT)","1054222","2021-12-22 18:00","2021","12","22","18:00","2.7","","-3.4","","64","","","M","36","","35","","","","100.06","","","","","","NA"
"-132.77","53.32","KINDAKUN ROCKS (AUT)","1054222","2021-12-22 19:00","2021","12","22","19:00","2.5","","-3.0","","67","","","M","2","","22","","","","100.07","","","","","","NA"
"-132.77","53.32","KINDAKUN ROCKS (AUT)","1054222","2021-12-22 20:00","2021","12","22","20:00","2.5","","-4.3","","61","","","M","1","","26","","","","100.10","","","","","","NA"
"-132.77","53.32","KINDAKUN ROCKS (AUT)","1054222","2021-12-22 21:00","2021","12","22","21:00","2.1","","-3.9","","64","","","M","1","","23","","","","100.08","","","","","","NA"
"-132.77","53.32","KINDAKUN ROCKS (AUT)","1054222","2021-12-22 22:00","2021","12","22","22:00","1.8","","-4.3","","64","","","M","2","","18","","","","100.13","","","","","","NA"
"-132.77","53.32","KINDAKUN ROCKS (AUT)","1054222","2021-12-22 23:00","2021","12","22","23:00","2.2","","-5.4","","57","","","M","36","","26","","","","100.12","","","","","","NA"
"-132.77","53.32","KINDAKUN ROCKS (AUT)","1054222","2021-12-23 00:00","2021","12","23","00:00","1.8","","-5.6","","58","","","M","1","","21","","","","100.13","","","","","","NA"
"-132.77","53.32","KINDAKUN ROCKS (AUT)","1054222","2021-12-23 01:00","2021","12","23","01:00","1.7","","-6.4","","55","","","M","2","","14","","","","100.07","","","","","","NA"
"-132.77","53.32","KINDAKUN ROCKS (AUT)","1054222","2021-12-23 02:00","2021","12","23","02:00","2.5","","-4.7","","59","","","M","34","","30","","","","100.01","","","","","","NA"
"-132.77","53.32","KINDAKUN ROCKS (AUT)","1054222","2021-12-23 03:00","2021","12","23","03:00","2.9","","-3.2","","64","","","M","34","","36","","","","99.97","","","","","","NA"
"-132.77","53.32","KINDAKUN ROCKS (AUT)","1054222","2021-12-23 04:00","2021","12","23","04:00","3.0","","-2.8","","66","","","M","33","","40","","","","99.88","","","","","","NA"
"-132.77","53.32","KINDAKUN ROCKS (AUT)","1054222","2021-12-23 05:00","2021","12","23","05:00","3.1","","-2.7","","66","","","M","35","","29","","","","99.80","","","","","","NA"
"-132.77","53.32","KINDAKUN ROCKS (AUT)","1054222","2021-12-23 06:00","2021","12","23","06:00","3.8","","-1.6","","68","","","M","34","","31","","","","99.78","","","","","","NA"
"-132.77","53.32","KINDAKUN ROCKS (AUT)","1054222","2021-12-23 07:00","2021","12","23","07:00","3.5","","-2.3","","65","","","M","35","","29","","","","99.67","","","","","","NA"
"-132.77","53.32","KINDAKUN ROCKS (AUT)","1054222","2021-12-23 08:00","2021","12","23","08:00","3.7","","-2.2","","65","","","M","34","","22","","","","99.56","","","","","","NA"
"-132.77","53.32","KINDAKUN ROCKS (AUT)","1054222","2021-12-23 09:00","2021","12","23","09:00","2.8","","-2.8","","67","","","M","14","","4","","","","99.43","","","","","","NA"
"-132.77","53.32","KINDAKUN ROCKS (AUT)","1054222","2021-12-23 10:00","2021","12","23","10:00","2.3","","-1.9","","74","","","M","9","","7","","","","99.37","","","","","","NA"
"-132.77","53.32","KINDAKUN ROCKS (AUT)","1054222","2021-12-23 11:00","2021","12","23","11:00","1.1","","-1.0","","86","","","M","9","","14","","","","99.24","","","","","","NA"
"-132.77","53.32","KINDAKUN ROCKS (AUT)","1054222","2021-12-23 12:00","2021","12","23","12:00","1.0","","-0.3","","91","","","M","9","","15","","","","99.07","","","","","","NA"
"-132.77","53.32","KINDAKUN ROCKS (AUT)","1054222","2021-12-23 13:00","2021","12","23","13:00","0.6","","-0.5","","92","","","M","8","","14","","","","98.91","","","","","","NA"
"-132.77","53.32","KINDAKUN ROCKS (AUT)","1054222","2021-12-23 14:00","2021","12","23","14:00","0.6","","-0.3","","93","","","M","6","","10","","","","98.86","","","","","","NA"
"-132.77","53.32","KINDAKUN ROCKS (AUT)","1054222","2021-12-23 15:00","2021","12","23","15:00","1.2","","-0.2","","90","","","M","31","","4","","","","98.89","","","","","","NA"
"-132.77","53.32","KINDAKUN ROCKS (AUT)","1054222","2021-12-23 16:00","2021","12","23","16:00","1.3","","-2.0","","78","","","M","5","","8","","","","98.93","","","","","","NA"
"-132.77","53.32","KINDAKUN ROCKS (AUT)","1054222","2021-12-23 17:00","2021","12","23","17:00","1.2","","-2.6","","76","","","M","9","","20","","","","98.99","","","","","","NA"
"-132.77","53.32","KINDAKUN ROCKS (AUT)","1054222","2021-12-23 18:00","2021","12","23","18:00","1.1","","-2.8","","75","","","M","2","","6","","","","99.09","","","","","","NA"
"-132.77","53.32","KINDAKUN ROCKS (AUT)","1054222","2021-12-23 19:00","2021","12","23","19:00","0.9","","-3.4","","73","","","M","2","","13","","","","99.16","","","","","","NA"
"-132.77","53.32","KINDAKUN ROCKS (AUT)","1054222","2021-12-23 20:00","2021","12","23","20:00","0.1","","-4.0","","74","","","","4","","14","","","","99.28","","","","","","NA"
"-132.77","53.32","KINDAKUN ROCKS (AUT)","1054222","2021-12-23 21:00","2021","12","23","21:00","-0.2","","-5.3","","68","","","","5","","14","","","","99.33","","","","-4","","NA"
"-132.77","53.32","KINDAKUN ROCKS (AUT)","1054222","2021-12-23 22:00","2021","12","23","22:00","-0.1","","-4.9","","70","","","","4","","14","","","","99.39","","","","-4","","NA"
"-132.77","53.32","KINDAKUN ROCKS (AUT)","1054222","2021-12-23 23:00","2021","12","23","23:00","-0.2","","-5.3","","68","","","","4","","16","","","","99.46","","","","-5","","NA"
"-132.77","53.32","KINDAKUN ROCKS (AUT)","1054222","2021-12-24 00:00","2021","12","24","00:00","-0.3","","-6.5","","63","","","","3","","15","","","","99.52","","","","-5","","NA"
"-132.77","53.32","KINDAKUN ROCKS (AUT)","1054222","2021-12-24 01:00","2021","12","24","01:00","-0.4","","-6.5","","63","","","","4","","12","","","","99.53","","","","-4","","NA"
"-132.77","53.32","KINDAKUN ROCKS (AUT)","1054222","2021-12-24 02:00","2021","12","24","02:00","-0.5","","-7.4","","60","","","","3","","11","","","","99.56","","","","-4","","NA"
"-132.77","53.32","KINDAKUN ROCKS (AUT)","1054222","2021-12-24 03:00","2021","12","24","03:00","-0.8","","-7.0","","63","","","","3","","18","","","","99.59","","","","-6","","NA"
"-132.77","53.32","KINDAKUN ROCKS (AUT)","1054222","2021-12-24 04:00","2021","12","24","04:00","-0.8","","-7.4","","61","","","","2","","25","","","","99.62","","","","-7","","NA"
"-132.77","53.32","KINDAKUN ROCKS (AUT)","1054222","2021-12-24 05:00","2021","12","24","05:00","-1.2","","-8.7","","57","","","","3","","26","","","","99.64","","","","-8","","NA"
"-132.77","53.32","KINDAKUN ROCKS (AUT)","1054222","2021-12-24 06:00","2021","12","24","06:00","-1.1","","-7.6","","61","","","","2","","29","","","","99.70","","","","-8","","NA"
"-132.77","53.32","KINDAKUN ROCKS (AUT)","1054222","2021-12-24 07:00","2021","12","24","07:00","-1.3","","-8.0","","60","","","","1","","31","","","","99.77","","","","-8","","NA"
"-132.77","53.32","KINDAKUN ROCKS (AUT)","1054222","2021-12-24 08:00","2021","12","24","08:00","-1.5","","-8.4","","59","","","","3","","26","","","","99.84","","","","-8","","NA"
"-132.77","53.32","KINDAKUN ROCKS (AUT)","1054222","2021-12-24 09:00","2021","12","24","09:00","-1.8","","-8.9","","58","","","","2","","32","","","","99.91","","","","-9","","NA"
"-132.77","53.32","KINDAKUN ROCKS (AUT)","1054222","2021-12-24 10:00","2021","12","24","10:00","-2.1","","-9.6","","57","","","","2","","32","","","","100.03","","","","-9","","NA"
"-132.77","53.32","KINDAKUN ROCKS (AUT)","1054222","2021-12-24 11:00","2021","12","24","11:00","-1.9","","-9.3","","57","","","","1","","21","","","","100.12","","","","-8","","NA"
"-132.77","53.32","KINDAKUN ROCKS (AUT)","1054222","2021-12-24 12:00","2021","12","24","12:00","-2.0","","-9.5","","56","","","","3","","13","","","","100.12","","","","-6","","NA"
"-132.77","53.32","KINDAKUN ROCKS (AUT)","1054222","2021-12-24 13:00","2021","12","24","13:00","-2.0","","-10.1","","54","","","","5","","15","","","","100.15","","","","-7","","NA"
"-132.77","53.32","KINDAKUN ROCKS (AUT)","1054222","2021-12-24 14:00","2021","12","24","14:00","-2.0","","-10.3","","53","","","","2","","23","","","","100.23","","","","-8","","NA"
"-132.77","53.32","KINDAKUN ROCKS (AUT)","1054222","2021-12-24 15:00","2021","12","24","15:00","-2.3","","-11.1","","51","","","","3","","24","","","","100.26","","","","-9","","NA"
"-132.77","53.32","KINDAKUN ROCKS (AUT)","1054222","2021-12-24 16:00","2021","12","24","16:00","-2.5","","-10.7","","53","","","","3","","24","","","","100.30","","","","-9","","NA"
"-132.77","53.32","KINDAKUN ROCKS (AUT)","1054222","2021-12-24 17:00","2021","12","24","17:00","-2.2","","-9.3","","58","","","","1","","39","","","","100.36","","","","-10","","NA"
"-132.77","53.32","KINDAKUN ROCKS (AUT)","1054222","2021-12-24 18:00","2021","12","24","18:00","-2.3","","-9.5","","58","","","","36","","45","","","","100.39","","","","-11","","NA"
"-132.77","53.32","KINDAKUN ROCKS (AUT)","1054222","2021-12-24 19:00","2021","12","24","19:00","-2.3","","-8.9","","60","","","","1","","40","","","","100.42","","","","-10","","NA"
"-132.77","53.32","KINDAKUN ROCKS (AUT)","1054222","2021-12-24 20:00","2021","12","24","20:00"
"-132.77","53.32","KINDAKUN ROCKS (AUT)","1054222","2021-12-24 21:00","2021","12","24","21:00","-2.6","","-9.3","","60","","","","2","","25","","","","100.50","","","","-9","","NA"
"-132.77","53.32","KINDAKUN ROCKS (AUT)","1054222","2021-12-24 22:00","2021","12","24","22:00","-2.9","","-10.1","","58","","","","2","","25","","","","100.59","","","","-10","","NA"
"-132.77","53.32","KINDAKUN ROCKS (AUT)","1054222","2021-12-24 23:00","2021","12","24","23:00","-2.8","","-9.8","","58","","","","2","","30","","","","100.62","","","","-10","","NA"
"-132.77","53.32","KINDAKUN ROCKS (AUT)","1054222","2021-12-25 00:00","2021","12","25","00:00","-3.3","","-11.0","","55","","","","1","","56","","","","100.67","","","","-13","","NA"
"-132.77","53.32","KINDAKUN ROCKS (AUT)","1054222","2021-12-25 01:00","2021","12","25","01:00","-3.1","","-9.8","","60","","","","1","","53","","","","100.70","","","","-13","","NA"
"-132.77","53.32","KINDAKUN ROCKS (AUT)","1054222","2021-12-25 02:00","2021","12","25","02:00","-3.8","","-11.6","","54","","","","2","","41","","","","100.76","","","","-13","","NA"
"-132.77","53.32","KINDAKUN ROCKS (AUT)","1054222","2021-12-25 03:00","2021","12","25","03:00","-3.6","","-11.4","","55","","","","3","","34","","","","100.83","","","","-12","","NA"
"-132.77","53.32","KINDAKUN ROCKS (AUT)","1054222","2021-12-25 04:00","2021","12","25","04:00","-3.9","","-12.1","","53","","","","2","","38","","","","100.87","","","","-12","","NA"
"-132.77","53.32","KINDAKUN ROCKS (AUT)","1054222","2021-12-25 05:00","2021","12","25","05:00","-3.8","","-11.2","","56","","","","2","","33","","","","100.95","","","","-12","","NA"
"-132.77","53.32","KINDAKUN ROCKS (AUT)","1054222","2021-12-25 06:00","2021","12","25","06:00","-4.1","","-12.0","","54","","","","3","","31","","","","101.00","","","","-12","","NA"
"-132.77","53.32","KINDAKUN ROCKS (AUT)","1054222","2021-12-25 07:00","2021","12","25","07:00","-4.6","","-13.7","","49","","","","3","","29","","","","101.06","","","","-12","","NA"
"-132.77","53.32","KINDAKUN ROCKS (AUT)","1054222","2021-12-25 08:00","2021","12","25","08:00","-4.7","","-13.2","","52","","","","3","","31","","","","101.11","","","","-13","","NA"
"-132.77","53.32","KINDAKUN ROCKS (AUT)","1054222","2021-12-25 09:00","2021","12","25","09:00","-5.0","","-13.7","","50","","","","2","","38","","","","101.10","","","","-14","","NA"
"-132.77","53.32","KINDAKUN ROCKS (AUT)","1054222","2021-12-25 10:00","2021","12","25","10:00","-5.0","","-13.2","","52","","","","3","","38","","","","101.06","","","","-14","","NA"
"-132.77","53.32","KINDAKUN ROCKS (AUT)","1054222","2021-12-25 11:00","2021","12","25","11:00","-4.8","","-12.2","","56","","","","3","","31","","","","101.09","","","","-13","","NA"
"-132.77","53.32","KINDAKUN ROCKS (AUT)","1054222","2021-12-25 12:00","2021","12","25","12:00","-4.8","","-11.9","","58","","","","2","","33","","","","101.18","","","","-13","","NA"
"-132.77","53.32","KINDAKUN ROCKS (AUT)","1054222","2021-12-25 13:00","2021","12","25","13:00","-5.1","","-13.9","","50","","","","4","","19","","","","101.19","","","","-12","","NA"
"-132.77","53.32","KINDAKUN ROCKS (AUT)","1054222","2021-12-25 14:00","2021","12","25","14:00","-4.6","","-12.7","","53","","","","1","","35","","","","101.15","","","","-13","","NA"
"-132.77","53.32","KINDAKUN ROCKS (AUT)","1054222","2021-12-25 15:00","2021","12","25","15:00","-5.1","","-13.3","","52","","","","2","","33","","","","101.14","","","","-13","","NA"
"-132.77","53.32","KINDAKUN ROCKS (AUT)","1054222","2021-12-25 16:00","2021","12","25","16:00","-5.3","","-12.9","","55","","","","2","","35","","","","101.09","","","","-14","","NA"
"-132.77","53.32","KINDAKUN ROCKS (AUT)","1054222","2021-12-25 17:00","2021","12","25","17:00","-5.5","","-13.6","","53","","","","2","","30","","","","101.10","","","","-14","","NA"
"-132.77","53.32","KINDAKUN ROCKS (AUT)","1054222","2021-12-25 18:00","2021","12","25","18:00","-5.2","","-13.5","","52","","","","1","","37","","","","101.06","","","","-14","","NA"
"-132.77","53.32","KINDAKUN ROCKS (AUT)","1054222","2021-12-25 19:00","2021","12","25","19:00","-5.5","","-13.8","","52","","","","2","","34","","","","101.12","","","","-14","","NA"
"-132.77","53.32","KINDAKUN ROCKS (AUT)","1054222","2021-12-25 20:00","2021","12","25","20:00","-5.7","","-13.4","","54","","","","2","","32","","","","101.09","","","","-14","","NA"
"-132.77","53.32","KINDAKUN ROCKS (AUT)","1054222","2021-12-25 21:00","2021","12","25","21:00","-5.8","","-13.4","","55","","","","2","","28","","","","101.12","","","","-14","","NA"
"-132.77","53.32","KINDAKUN ROCKS (AUT)","1054222","2021-12-25 22:00","2021","12","25","22:00","-6.0","","-13.4","","56","","","","2","","27","","","","101.11","","","","-14","","NA"
"-132.77","53.32","KINDAKUN ROCKS (AUT)","1054222","2021-12-25 23:00","2021","12","25","23:00","-5.8","","-13.1","","57","","","","2","","27","","","","101.14","","","","-14","","NA"
"-132.77","53.32","KINDAKUN ROCKS (AUT)","1054222","2021-12-26 00:00","2021","12","26","00:00","-5.6","","-13.2","","55","","","","1","","28","","","","101.15","","","","-14","","NA"
"-132.77","53.32","KINDAKUN ROCKS (AUT)","1054222","2021-12-26 01:00","2021","12","26","01:00","-5.7","","-13.1","","56","","","","2","","20","","","","101.16","","","","-12","","NA"
"-132.77","53.32","KINDAKUN ROCKS (AUT)","1054222","2021-12-26 02:00","2021","12","26","02:00","-6.0","","-14.0","","53","","","","2","","21","","","","101.17","","","","-13","","NA"
"-132.77","53.32","KINDAKUN ROCKS (AUT)","1054222","2021-12-26 03:00","2021","12","26","03:00","-5.8","","-13.5","","54","","","","2","","24","","","","101.19","","","","-13","","NA"
"-132.77","53.32","KINDAKUN ROCKS (AUT)","1054222","2021-12-26 04:00","2021","12","26","04:00","-5.5","","-12.3","","59","","","","2","","25","","","","101.19","","","","-13","","NA"
"-132.77","53.32","KINDAKUN ROCKS (AUT)","1054222","2021-12-26 05:00","2021","12","26","05:00","-5.8","","-13.6","","54","","","","3","","18","","","","101.23","","","","-12","","NA"
"-132.77","53.32","KINDAKUN ROCKS (AUT)","1054222","2021-12-26 06:00","2021","12","26","06:00","-5.4","","-12.7","","56","","","","2","","26","","","","101.26","","","","-13","","NA"
"-132.77","53.32","KINDAKUN ROCKS (AUT)","1054222","2021-12-26 07:00","2021","12","26","07:00"
"-132.77","53.32","KINDAKUN ROCKS (AUT)","1054222","2021-12-26 08:00","2021","12","26","08:00","-5.6","","-13.5","","54","","","","4","","22","","","","101.35","","","","-13","","NA"
"-132.77","53.32","KINDAKUN ROCKS (AUT)","1054222","2021-12-26 09:00","2021","12","26","09:00","-5.5","","-14.1","","51","","","","3","","21","","","","101.41","","","","-12","","NA"
"-132.77","53.32","KINDAKUN ROCKS (AUT)","1054222","2021-12-26 10:00","2021","12","26","10:00","-5.4","","-14.8","","48","","","","3","","14","","","","101.45","","","","-11","","NA"
"-132.77","53.32","KINDAKUN ROCKS (AUT)","1054222","2021-12-26 11:00","2021","12","26","11:00","-5.1","","-14.4","","48","","","","4","","18","","","","101.53","","","","-11","","NA"
"-132.77","53.32","KINDAKUN ROCKS (AUT)","1054222","2021-12-26 12:00","2021","12","26","12:00","-4.7","","-12.9","","53","","","","3","","20","","","","101.52","","","","-11","","NA"
"-132.77","53.32","KINDAKUN ROCKS (AUT)","1054222","2021-12-26 13:00","2021","12","26","13:00","-4.6","","-14.0","","48","","","","2","","19","","","","101.55","","","","-11","","NA"
"-132.77","53.32","KINDAKUN ROCKS (AUT)","1054222","2021-12-26 14:00","2021","12","26","14:00","-4.0","","-14.2","","45","","","","2","","19","","","","101.51","","","","-10","","NA"
"-132.77","53.32","KINDAKUN ROCKS (AUT)","1054222","2021-12-26 15:00","2021","12","26","15:00","-4.2","","-13.8","","47","","","","3","","16","","","","101.56","","","","-10","","NA"
"-132.77","53.32","KINDAKUN ROCKS (AUT)","1054222","2021-12-26 16:00","2021","12","26","16:00","-4.6","","-13.9","","48","","","","3","","18","","","","101.67","","","","-11","","NA"
"-132.77","53.32","KINDAKUN ROCKS (AUT)","1054222","2021-12-26 17:00","2021","12","26","17:00","-4.7","","-14.8","","45","","","","3","","18","","","","101.69","","","","-11","","NA"
"-132.77","53.32","KINDAKUN ROCKS (AUT)","1054222","2021-12-26 18:00","2021","12","26","18:00","-4.7","","-14.5","","46","","","","36","","13","","","","101.72","","","","-10","","NA"
"-132.77","53.32","KINDAKUN ROCKS (AUT)","1054222","2021-12-26 19:00","2021","12","26","19:00","-5.4","","-17.0","","40","","","","4","","7","","","","101.76","","","","-9","","NA"
"-132.77","53.32","KINDAKUN ROCKS (AUT)","1054222","2021-12-26 20:00","2021","12","26","20:00","-5.7","","-15.5","","46","","","","5","","8","","","","101.71","","","","-9","","NA"
"-132.77","53.32","KINDAKUN ROCKS (AUT)","1054222","2021-12-26 21:00","2021","12","26","21:00","-5.2","","-14.1","","50","","","","7","","9","","","","101.67","","","","-9","","NA"
"-132.77","53.32","KINDAKUN ROCKS (AUT)","1054222","2021-12-26 22:00","2021","12","26","22:00","-4.7","","-14.0","","48","","","","8","","18","","","","101.65","","","","-11","","NA"
"-132.77","53.32","KINDAKUN ROCKS (AUT)","1054222","2021-12-26 23:00","2021","12","26","23:00","-4.7","","-13.2","","51","","","","9","","22","","","","101.60","","","","-12","","NA"
"-132.77","53.32","KINDAKUN ROCKS (AUT)","1054222","2021-12-27 00:00","2021","12","27","00:00","-4.4","","-15.6","","41","","","","9","","18","","","","101.55","","","","-10","","NA"
"-132.77","53.32","KINDAKUN ROCKS (AUT)","1054222","2021-12-27 01:00","2021","12","27","01:00","-4.1","","-14.8","","43","","","","9","","12","","","","101.46","","","","-9","","NA"
"-132.77","53.32","KINDAKUN ROCKS (AUT)","1054222","2021-12-27 02:00","2021","12","27","02:00","-3.8","","-12.4","","51","","","","10","","12","","","","101.25","","","","-8","","NA"
"-132.77","53.32","KINDAKUN ROCKS (AUT)","1054222","2021-12-27 03:00","2021","12","27","03:00","-2.9","","-8.7","","64","","","","15","","19","","","","101.11","","","","-9","","NA"
"-132.77","53.32","KINDAKUN ROCKS (AUT)","1054222","2021-12-27 04:00","2021","12","27","04:00","-3.3","","-6.5","","78","","","","15","","24","","","","100.99","","","","-10","","NA"
"-132.77","53.32","KINDAKUN ROCKS (AUT)","1054222","2021-12-27 05:00","2021","12","27","05:00","-3.9","","-5.2","","91","","","","13","","29","","","","100.83","","","","-11","","NA"
"-132.77","53.32","KINDAKUN ROCKS (AUT)","1054222","2021-12-27 06:00","2021","12","27","06:00","-3.1","","-3.9","","94","","","","12","","19","","","","100.68","","","","-9","","NA"
"-132.77","53.32","KINDAKUN ROCKS (AUT)","1054222","2021-12-27 07:00","2021","12","27","07:00","-1.8","","-3.4","","89","","","","15","","34","","","","100.45","","","","-9","","NA"
"-132.77","53.32","KINDAKUN ROCKS (AUT)","1054222","2021-12-27 08:00","2021","12","27","08:00","-1.1","","-3.2","","86","","","","14","","36","","","","100.33","","","","-9","","NA"
"-132.77","53.32","KINDAKUN ROCKS (AUT)","1054222","2021-12-27 09:00","2021","12","27","09:00","-0.3","","-2.1","","88","","","","14","","24","","","","100.29","","","","-6","","NA"
"-132.77","53.32","KINDAKUN ROCKS (AUT)","1054222","2021-12-27 10:00","2021","12","27","10:00","-0.9","","-2.1","","91","","","","7","","8","","","","100.29","","","","-4","","NA"
"-132.77","53.32","KINDAKUN ROCKS (AUT)","1054222","2021-12-27 11:00","2021","12","27","11:00","-0.8","","-1.7","","94","","","","7","","8","","","","100.32","","","","-4","","NA"
"-132.77","53.32","KINDAKUN ROCKS (AUT)","1054222","2021-12-27 12:00","2021","12","27","12:00","0.2","","-1.1","","91","","","","7","","1","","","","100.32","","","","","","NA"
"-132.77","53.32","KINDAKUN ROCKS (AUT)","1054222","2021-12-27 13:00","2021","12","27","13:00","0.9","","-1.2","","86","","","M","11","","6","","","","100.43","","","","","","NA"
"-132.77","53.32","KINDAKUN ROCKS (AUT)","1054222","2021-12-27 14:00","2021","12","27","14:00","1.2","","-1.5","","82","","","M","8","","13","","","","100.46","","","","","","NA"
"-132.77","53.32","KINDAKUN ROCKS (AUT)","1054222","2021-12-27 15:00","2021","12","27","15:00","1.5","","-1.2","","83","","","M","9","","8","","","","100.58","","","","","","NA"
"-132.77","53.32","KINDAKUN ROCKS (AUT)","1054222","2021-12-27 16:00","2021","12","27","16:00","1.7","","-1.5","","79","","","M","32","","3","","","","100.65","","","","","","NA"
"-132.77","53.32","KINDAKUN ROCKS (AUT)","1054222","2021-12-27 17:00","2021","12","27","17:00","0.8","","-2.1","","81","","","M","4","","3","","","","100.75","","","","","","NA"
"-132.77","53.32","KINDAKUN ROCKS (AUT)","1054222","2021-12-27 18:00","2021","12","27","18:00","1.1","","-2.0","","80","","","M","36","","2","","","","100.84","","","","","","NA"
"-132.77","53.32","KINDAKUN ROCKS (AUT)","1054222","2021-12-27 19:00","2021","12","27","19:00","0.0","","-2.6","","83","","","","9","","8","","","","100.87","","","","-3","","NA"
"-132.77","53.32","KINDAKUN ROCKS (AUT)","1054222","2021-12-27 20:00","2021","12","27","20:00","0.1","","-2.6","","82","","","","8","","10","","","","100.91","","","","","","NA"
"-132.77","53.32","KINDAKUN ROCKS (AUT)","1054222","2021-12-27 21:00","2021","12","27","21:00","-0.1","","-2.8","","82","","","","9","","8","","","","100.95","","","","-3","","NA"
"-132.77","53.32","KINDAKUN ROCKS (AUT)","1054222","2021-12-27 22:00","2021","12","27","22:00","0.0","","-2.7","","82","","","","10","","11","","","","100.94","","","","-4","","NA"
"-132.77","53.32","KINDAKUN ROCKS (AUT)","1054222","2021-12-27 23:00","2021","12","27","23:00","-0.1","","-2.5","","84","","","","10","","10","","","","100.95","","","","-3","","NA"
"-132.77","53.32","KINDAKUN ROCKS (AUT)","1054222","2021-12-28 00:00","2021","12","28","00:00","0.2","","-2.2","","84","","","","9","","7","","","","100.90","","","","","","NA"
"-132.77","53.32","KINDAKUN ROCKS (AUT)","1054222","2021-12-28 01:00","2021","12","28","01:00","1.0","","-1.4","","84","","","M","3","","3","","","","100.91","","","","","","NA"
"-132.77","53.32","KINDAKUN ROCKS (AUT)","1054222","2021-12-28 02:00","2021","12","28","02:00","0.4","","-1.5","","87","","","","9","","12","","","","100.77","","","","","","NA"
"-132.77","53.32","KINDAKUN ROCKS (AUT)","1054222","2021-12-28 03:00","2021","12","28","03:00","1.3","","-0.8","","86","","","M","14","","5","","","","100.79","","","","","","NA"
"-132.77","53.32","KINDAKUN ROCKS (AUT)","1054222","2021-12-28 04:00","2021","12","28","04:00","1.3","","-0.6","","87","","","M","9","","5","","","","100.72","","","","","","NA"
"-132.77","53.32","KINDAKUN ROCKS (AUT)","1054222","2021-12-28 05:00","2021","12","28","05:00","0.8","","-0.3","","93","","","M","10","","1","","","","100.64","","","","","","NA"
"-132.77","53.32","KINDAKUN ROCKS (AUT)","1054222","2021-12-28 06:00","2021","12","28","06:00","1.0","","0.1","","94","","","M","8","","7","","","","100.64","","","","","","NA"
"-132.77","53.32","KINDAKUN ROCKS (AUT)","1054222","2021-12-28 07:00","2021","12","28","07:00","1.3","","0.4","","93","","","M","9","","10","","","","100.61","","","","","","NA"
"-132.77","53.32","KINDAKUN ROCKS (AUT)","1054222","2021-12-28 08:00","2021","12","28","08:00","1.6","","0.2","","91","","","M","9","","10","","","","100.65","","","","","","NA"
"-132.77","53.32","KINDAKUN ROCKS (AUT)","1054222","2021-12-28 09:00","2021","12","28","09:00","1.8","","0.1","","88","","","M","7","","8","","","","100.63","","","","","","NA"
"-132.77","53.32","KINDAKUN ROCKS (AUT)","1054222","2021-12-28 10:00","2021","12","28","10:00","3.3","","0.5","","82","","","M","31","","3","","","","100.71","","","","","","NA"
"-132.77","53.32","KINDAKUN ROCKS (AUT)","1054222","2021-12-28 11:00","2021","12","28","11:00","2.8","","0.1","","82","","","M","36","","24","","","","100.83","","","","","","NA"
"-132.77","53.32","KINDAKUN ROCKS (AUT)","1054222","2021-12-28 12:00","2021","12","28","12:00","3.3","","0.8","","84","","","M","2","","6","","","","100.81","","","","","","NA"
"-132.77","53.32","KINDAKUN ROCKS (AUT)","1054222","2021-12-28 13:00","2021","12","28","13:00","3.4","","-1.7","","69","","","M","4","","12","","","","100.84","","","","","","NA"
"-132.77","53.32","KINDAKUN ROCKS (AUT)","1054222","2021-12-28 14:00","2021","12","28","14:00","2.8","","-2.4","","69","","","M","3","","14","","","","100.84","","","","","","NA"
"-132.77","53.32","KINDAKUN ROCKS (AUT)","1054222","2021-12-28 15:00","2021","12","28","15:00","2.7","","-2.4","","69","","","M","36","","14","","","","100.93","","","","","","NA"
"-132.77","53.32","KINDAKUN ROCKS (AUT)","1054222","2021-12-28 16:00","2021","12","28","16:00","1.7","","-3.3","","70","","","M","4","","16","","","","101.07","","","","","","NA"
"-132.77","53.32","KINDAKUN ROCKS (AUT)","1054222","2021-12-28 17:00","2021","12","28","17:00","1.2","","-3.1","","73","","","M","6","","13","","","","101.16","","","","","","NA"
"-132.77","53.32","KINDAKUN ROCKS (AUT)","1054222","2021-12-28 18:00","2021","12","28","18:00","1.3","","-3.2","","72","","","M","2","","13","","","","101.23","","","","","","NA"
"-132.77","53.32","KINDAKUN ROCKS (AUT)","1054222","2021-12-28 19:00","2021","12","28","19:00","1.1","","-3.2","","73","","","M","7","","13","","","","101.28","","","","","","NA"
"-132.77","53.32","KINDAKUN ROCKS (AUT)","1054222","2021-12-28 20:00","2021","12","28","20:00","1.3","","-3.1","","73","","","M","7","","11","","","","101.38","","","","","","NA"
"-132.77","53.32","KINDAKUN ROCKS (AUT)","1054222","2021-12-28 21:00","2021","12","28","21:00","1.1","","-4.1","","68","","","M","7","","16","","","","101.46","","","","","","NA"
"-132.77","53.32","KINDAKUN ROCKS (AUT)","1054222","2021-12-28 22:00","2021","12","28","22:00","0.9","","-3.7","","71","","","M","6","","14","","","","101.54","","","","","","NA"
"-132.77","53.32","KINDAKUN ROCKS (AUT)","1054222","2021-12-28 23:00","2021","12","28","23:00","1.0","","-3.8","","70","","","M","3","","16","","","","101.57","","","","","","NA"
"-132.77","53.32","KINDAKUN ROCKS (AUT)","1054222","2021-12-29 00:00","2021","12","29","00:00","1.2","","-4.3","","67","","","M","1","","6","","","","101.61","","","","","","NA"
"-132.77","53.32","KINDAKUN ROCKS (AUT)","1054222","2021-12-29 01:00","2021","12","29","01:00","1.2","","-4.1","","68","","","M","8","","12","","","","101.60","","","","","","NA"
"-132.77","53.32","KINDAKUN ROCKS (AUT)","1054222","2021-12-29 02:00","2021","12","29","02:00","1.1","","-4.4","","67","","","M","12","","6","","","","101.62","","","","","","NA"
"-132.77","53.32","KINDAKUN ROCKS (AUT)","1054222","2021-12-29 03:00","2021","12","29","03:00","0.8","","-3.3","","74","","","M","9","","13","","","","101.58","","","","","","NA"
"-132.77","53.32","KINDAKUN ROCKS (AUT)","1054222","2021-12-29 04:00","2021","12","29","04:00","0.7","","-4.1","","70","","","M","11","","10","","","","101.58","","","","","","NA"
"-132.77","53.32","KINDAKUN ROCKS (AUT)","1054222","2021-12-29 05:00","2021","12","29","05:00","0.7","","-3.8","","72","","","M","9","","11","","","","101.49","","","","","","NA"
"-132.77","53.32","KINDAKUN ROCKS (AUT)","1054222","2021-12-29 06:00","2021","12","29","06:00","1.2","","-4.4","","66","","","M","10","","9","","","","101.38","","","","","","NA"
"-132.77","53.32","KINDAKUN ROCKS (AUT)","1054222","2021-12-29 07:00","2021","12","29","07:00","2.4","","-1.8","","74","","","M","14","","22","","","","101.26","","","","","","NA"
"-132.77","53.32","KINDAKUN ROCKS (AUT)","1054222","2021-12-29 08:00","2021","12","29","08:00","2.4","","-1.6","","75","","","M","14","","27","","","","101.12","","","","","","NA"
"-132.77","53.32","KINDAKUN ROCKS (AUT)","1054222","2021-12-29 09:00","2021","12","29","09:00","3.0","","-0.3","","79","","","M","15","","34","","","","100.95","","","","","","NA"
"-132.77","53.32","KINDAKUN ROCKS (AUT)","1054222","2021-12-29 10:00","2021","12","29","10:00","4.0","","0.5","","78","","","M","17","","35","","","","100.92","","","","","","NA"
"-132.77","53.32","KINDAKUN ROCKS (AUT)","1054222","2021-12-29 11:00","2021","12","29","11:00","4.5","","0.8","","77","","","M","17","","32","","","","100.77","","","","","","NA"
"-132.77","53.32","KINDAKUN ROCKS (AUT)","1054222","2021-12-29 12:00","2021","12","29","12:00","4.7","","3.1","","90","","","M","20","","34","","","","100.60","","","","","","NA"
"-132.77","53.32","KINDAKUN ROCKS (AUT)","1054222","2021-12-29 13:00","2021","12","29","13:00","5.4","","4.7","","95","","","M","22","","32","","","","100.49","","","","","","NA"
"-132.77","53.32","KINDAKUN ROCKS (AUT)","1054222","2021-12-29 14:00","2021","12","29","14:00","5.8","","4.7","","92","","","M","29","","37","","","","100.31","","","","","","NA"
"-132.77","53.32","KINDAKUN ROCKS (AUT)","1054222","2021-12-29 15:00","2021","12","29","15:00","6.4","","4.2","","85","","","M","31","","49","","","","100.23","","","","","","NA"
"-132.77","53.32","KINDAKUN ROCKS (AUT)","1054222","2021-12-29 16:00","2021","12","29","16:00","6.7","","4.4","","86","","","M","31","","43","","","","100.16","","","","","","NA"
"-132.77","53.32","KINDAKUN ROCKS (AUT)","1054222","2021-12-29 17:00","2021","12","29","17:00","7.0","","2.0","","71","","","M","32","","65","","","","100.09","","","","","","NA"
"-132.77","53.32","KINDAKUN ROCKS (AUT)","1054222","2021-12-29 18:00","2021","12","29","18:00","6.4","","2.7","","77","","","M","31","","77","","","","100.02","","","","","","NA"
"-132.77","53.32","KINDAKUN ROCKS (AUT)","1054222","2021-12-29 19:00","2021","12","29","19:00","6.7","","1.6","","70","","","M","32","","76","","","","99.97","","","","","","NA"
"-132.77","53.32","KINDAKUN ROCKS (AUT)","1054222","2021-12-29 20:00","2021","12","29","20:00","6.8","","1.5","","69","","","M","32","","83","","","","100.01","","","","","","NA"
"-132.77","53.32","KINDAKUN ROCKS (AUT)","1054222","2021-12-29 21:00","2021","12","29","21:00","5.7","","1.8","","76","","","M","32","","68","","","","100.01","","","","","","NA"
"-132.77","53.32","KINDAKUN ROCKS (AUT)","1054222","2021-12-29 22:00","2021","12","29","22:00","5.8","","2.7","","80","","","M","33","","75","","","","100.06","","","","","","NA"
"-132.77","53.32","KINDAKUN ROCKS (AUT)","1054222","2021-12-29 23:00","2021","12","29","23:00","5.4","","3.0","","84","","","M","34","","55","","","","100.21","","","","","","NA"
"-132.77","53.32","KINDAKUN ROCKS (AUT)","1054222","2021-12-30 00:00","2021","12","30","00:00","5.1","","0.8","","74","","","M","33","","59","","","","100.30","","","","","","NA"
"-132.77","53.32","KINDAKUN ROCKS (AUT)","1054222","2021-12-30 01:00","2021","12","30","01:00","4.9","","0.1","","71","","","M","34","","31","","","","100.41","","","","","","NA"
"-132.77","53.32","KINDAKUN ROCKS (AUT)","1054222","2021-12-30 02:00","2021","12","30","02:00","4.9","","-0.2","","70","","","M","35","","29","","","","100.52","","","","","","NA"
"-132.77","53.32","KINDAKUN ROCKS (AUT)","1054222","2021-12-30 03:00","2021","12","30","03:00","4.7","","-1.0","","67","","","M","33","","50","","","","100.60","","","","","","NA"
"-132.77","53.32","KINDAKUN ROCKS (AUT)","1054222","2021-12-30 04:00","2021","12","30","04:00","5.2","","-1.0","","64","","","M","33","","54","","","","100.60","","","","","","NA"
"-132.77","53.32","KINDAKUN ROCKS (AUT)","1054222","2021-12-30 05:00","2021","12","30","05:00","5.3","","-1.7","","61","","","M","33","","50","","","","100.66","","","","","","NA"
"-132.77","53.32","KINDAKUN ROCKS (AUT)","1054222","2021-12-30 06:00","2021","12","30","06:00","5.3","","-2.2","","58","","","M","33","","49","","","","100.68","","","","","","NA"
"-132.77","53.32","KINDAKUN ROCKS (AUT)","1054222","2021-12-30 07:00","2021","12","30","07:00","5.3","","-3.7","","52","","","M","33","","46","","","","100.72","","","","","","NA"
"-132.77","53.32","KINDAKUN ROCKS (AUT)","1054222","2021-12-30 08:00","2021","12","30","08:00","5.3","","-2.7","","56","","","M","33","","44","","","","100.77","","","","","","NA"
"-132.77","53.32","KINDAKUN ROCKS (AUT)","1054222","2021-12-30 09:00","2021","12","30","09:00","5.3","","-2.5","","57","","","M","33","","43","","","","100.81","","","","","","NA"
"-132.77","53.32","KINDAKUN ROCKS (AUT)","1054222","2021-12-30 10:00","2021","12","30","10:00","5.3","","-2.9","","55","","","M","33","","40","","","","100.84","","","","","","NA"
"-132.77","53.32","KINDAKUN ROCKS (AUT)","1054222","2021-12-30 11:00","2021","12","30","11:00","5.2","","-1.7","","61","","","M","33","","40","","","","100.89","","","","","","NA"
"-132.77","53.32","KINDAKUN ROCKS (AUT)","1054222","2021-12-30 12:00","2021","12","30","12:00","5.0","","-4.4","","51","","","M","3","","10","","","","100.91","","","","","","NA"
"-132.77","53.32","KINDAKUN ROCKS (AUT)","1054222","2021-12-30 13:00","2021","12","30","13:00","4.8","","-4.5","","51","","","M","1","","14","","","","100.92","","","","","","NA"
"-132.77","53.32","KINDAKUN ROCKS (AUT)","1054222","2021-12-30 14:00","2021","12","30","14:00","5.0","","-4.2","","52","","","M","36","","5","","","","100.92","","","","","","NA"
"-132.77","53.32","KINDAKUN ROCKS (AUT)","1054222","2021-12-30 15:00","2021","12","30","15:00","5.1","","-5.1","","47","","","M","1","","6","","","","100.95","","","","","","NA"
"-132.77","53.32","KINDAKUN ROCKS (AUT)","1054222","2021-12-30 16:00","2021","12","30","16:00","4.8","","-6.0","","46","","","M","5","","1","","","","101.00","","","","","","NA"
"-132.77","53.32","KINDAKUN ROCKS (AUT)","1054222","2021-12-30 17:00","2021","12","30","17:00","4.2","","-3.8","","56","","","M","35","","4","","","","101.03","","","","","","NA"
"-132.77","53.32","KINDAKUN ROCKS (AUT)","1054222","2021-12-30 18:00","2021","12","30","18:00","2.9","","-4.3","","59","","","M","7","","3","","","","101.03","","","","","","NA"
"-132.77","53.32","KINDAKUN ROCKS (AUT)","1054222","2021-12-30 19:00","2021","12","30","19:00","2.5","","-3.6","","64","","","M","11","","8","","","","101.07","","","","","","NA"
"-132.77","53.32","KINDAKUN ROCKS (AUT)","1054222","2021-12-30 20:00","2021","12","30","20:00","2.1","","-3.3","","67","","","M","9","","11","","","","101.04","","","","","","NA"
"-132.77","53.32","KINDAKUN ROCKS (AUT)","1054222","2021-12-30 21:00","2021","12","30","21:00","2.3","","-2.0","","73","","","M","12","","10","","","","101.08","","","","","","NA"
"-132.77","53.32","KINDAKUN ROCKS (AUT)","1054222","2021-12-30 22:00","2021","12","30","22:00","2.2","","-1.8","","75","","","M","13","","8","","","","101.10","","","","","","NA"
"-132.77","53.32","KINDAKUN ROCKS (AUT)","1054222","2021-12-30 23:00","2021","12","30","23:00","2.2","","-2.3","","72","","","M","10","","8","","","","101.16","","","","","","NA"
"-132.77","53.32","KINDAKUN ROCKS (AUT)","1054222","2021-12-31 00:00","2021","12","31","00:00","2.0","","-1.4","","78","","","M","9","","8","","","","101.18","","","","","","NA"
"-132.77","53.32","KINDAKUN ROCKS (AUT)","1054222","2021-12-31 01:00","2021","12","31","01:00","2.3","","-1.0","","79","","","M","10","","8","","","","101.23","","","","","","NA"
"-132.77","53.32","KINDAKUN ROCKS (AUT)","1054222","2021-12-31 02:00","2021","12","31","02:00","2.4","","-0.8","","80","","","M","11","","11","","","","101.24","","","","","","NA"
"-132.77","53.32","KINDAKUN ROCKS (AUT)","1054222","2021-12-31 03:00","2021","12","31","03:00","2.3","","-1.1","","78","","","M","10","","9","","","","101.26","","","","","","NA"
"-132.77","53.32","KINDAKUN ROCKS (AUT)","1054222","2021-12-31 04:00","2021","12","31","04:00","2.5","","-0.5","","81","","","M","10","","12","","","","101.28","","","","","","NA"
"-132.77","53.32","KINDAKUN ROCKS (AUT)","1054222","2021-12-31 05:00","2021","12","31","05:00","3.0","","-0.4","","79","","","M","12","","11","","","","101.26","","","","","","NA"
"-132.77","53.32","KINDAKUN ROCKS (AUT)","1054222","2021-12-31 06:00","2021","12","31","06:00","3.3","","0.1","","79","","","M","11","","13","","","","101.25","","","","","","NA"
"-132.77","53.32","KINDAKUN ROCKS (AUT)","1054222","2021-12-31 07:00","2021","12","31","07:00","4.2","","-0.6","","71","","","M","13","","14","","","","101.26","","","","","","NA"
"-132.77","53.32","KINDAKUN ROCKS (AUT)","1054222","2021-12-31 08:00","2021","12","31","08:00","4.5","","-1.0","","67","","","M","14","","23","","","","101.22","","","","","","NA"
"-132.77","53.32","KINDAKUN ROCKS (AUT)","1054222","2021-12-31 09:00","2021","12","31","09:00","4.7","","0.0","","71","","","M","14","","27","","","","101.16","","","","","","NA"
"-132.77","53.32","KINDAKUN ROCKS (AUT)","1054222","2021-12-31 10:00","2021","12","31","10:00","4.8","","0.4","","73","","","M","15","","28","","","","101.18","","","","","","NA"
"-132.77","53.32","KINDAKUN ROCKS (AUT)","1054222","2021-12-31 11:00","2021","12","31","11:00","4.9","","0.9","","75","","","M","15","","35","","","","101.09","","","","","","NA"
"-132.77","53.32","KINDAKUN ROCKS (AUT)","1054222","2021-12-31 12:00","2021","12","31","12:00","4.9","","2.2","","82","","","M","16","","45","","","","101.01","","","","","","NA"
"-132.77","53.32","KINDAKUN ROCKS (AUT)","1054222","2021-12-31 13:00","2021","12","31","13:00","4.8","","2.7","","86","","","M","17","","45","","","","100.94","","","","","","NA"
"-132.77","53.32","KINDAKUN ROCKS (AUT)","1054222","2021-12-31 14:00","2021","12","31","14:00","5.0","","3.3","","89","","","M","17","","49","","","","100.83","","","","","","NA"
"-132.77","53.32","KINDAKUN ROCKS (AUT)","1054222","2021-12-31 15:00","2021","12","31","15:00","4.3","","2.5","","88","","","M","16","","51","","","","100.74","","","","","","NA"
"-132.77","53.32","KINDAKUN ROCKS (AUT)","1054222","2021-12-31 16:00","2021","12","31","16:00","5.0","","3.5","","90","","","M","16","","50","","","","100.67","","","","","","NA"
"-132.77","53.32","KINDAKUN ROCKS (AUT)","1054222","2021-12-31 17:00","2021","12","31","17:00","4.5","","3.2","","91","","","M","15","","55","","","","100.59","","","","","","NA"
"-132.77","53.32","KINDAKUN ROCKS (AUT)","1054222","2021-12-31 18:00","2021","12","31","18:00","5.0","","3.3","","89","","","M","15","","50","","","","100.43","","","","","","NA"
"-132.77","53.32","KINDAKUN ROCKS (AUT)","1054222","2021-12-31 19:00","2021","12","31","19:00","5.6","","5.1","","97","","","M","15","","52","","","","100.32","","","","","","NA"
"-132.77","53.32","KINDAKUN ROCKS (AUT)","1054222","2021-12-31 20:00","2021","12","31","20:00","6.4","","6.0","","98","","","M","16","","46","","","","100.22","","","","","","NA"
"-132.77","53.32","KINDAKUN ROCKS (AUT)","1054222","2021-12-31 21:00","2021","12","31","21:00","6.5","","6.1","","97","","","M","18","","42","","","","100.15","","","","","","NA"
"-132.77","53.32","KINDAKUN ROCKS (AUT)","1054222","2021-12-31 22:00","2021","12","31","22:00","6.5","","5.9","","96","","","M","19","","41","","","","100.02","","","","","","NA"
"-132.77","53.32","KINDAKUN ROCKS (AUT)","1054222","2021-12-31 23:00","2021","12","31","23:00","6.4","","5.8","","96","","","M","19","","39","","","","99.94","","","","","","NA"
