"Longitude (x)","Latitude (y)","Station Name","Climate ID","Date/Time (LST)","Year","Month","Day","Time (LST)","Temp (°C)","Temp Flag","Dew Point Temp (°C)","Dew Point Temp Flag","Rel Hum (%)","Rel Hum Flag","Precip. Amount (mm)","Precip. Amount Flag","Wind Dir (10s deg)","Wind Dir Flag","Wind Spd (km/h)","Wind Spd Flag","Visibility (km)","Visibility Flag","Stn Press (kPa)","Stn Press Flag","Hmdx","Hmdx Flag","Wind Chill","Wind Chill Flag","Weather"
"-96.08","64.30","BAKER LAKE A","2300503","2022-05-01 00:00","2022","05","01","00:00","-18.4","","-21.2","","79","","","","32","","17","","24.1","","103.43","","","","-28","","Clear"
"-96.08","64.30","BAKER LAKE A","2300503","2022-05-01 01:00","2022","05","01","01:00","-19.2","","-22.2","","78","","","","32","","19","","24.1","","103.43","","","","-29","","NA"
"-96.08","64.30","BAKER LAKE A","2300503","2022-05-01 02:00","2022","05","01","02:00","-19.3","","-22.0","","79","","","","33","","23","","24.1","","103.42","","","","-30","","NA"
"-96.08","64.30","BAKER LAKE A","2300503","2022-05-01 03:00","2022","05","01","03:00","-21.0","","-23.4","","81","","","","32","","17","","24.1","","103.42","","","","-31","","Clear"
"-96.08","64.30","BAKER LAKE A","2300503","2022-05-01 04:00","2022","05","01","04:00","-21.1","","-23.1","","84","","","","33","","17","","40.2","","103.43","","","","-31","","NA"
"-96.08","64.30","BAKER LAKE A","2300503","2022-05-01 05:00","2022","05","01","05:00","-21.2","","-23.3","","84","","","","33","","13","","40.2","","103.44","","","","-30","","NA"
"-96.08","64.30","BAKER LAKE A","2300503","2022-05-01 06:00","2022","05","01","06:00","-20.2","","-22.2","","84","","","","35","","12","","40.2","","103.46","","","","-28","","Mainly Clear"
"-96.08","64.30","BAKER LAKE A","2300503","2022-05-01 07:00","2022","05","01","07:00","-18.9","","-21.3","","82","","","","36","","10","","40.2","","103.45","","","","-26","","NA"
"-96.08","64.30","BAKER LAKE A","2300503","2022-05-01 08:00","2022","05","01","08:00","-18.3","","-20.4","","84","","","","36","","9","","24.1","","103.47","","","","-25","","NA"
"-96.08","64.30","BAKER LAKE A","2300503","2022-05-01 09:00","2022","05","01","09:00","-16.4","","-18.3","","85","","","","36","","12","","24.1","","103.45","","","","-24","","Mostly Cloudy"
"-96.08","64.30","BAKER LAKE A","2300503","2022-05-01 10:00","2022","05","01","10:00","-15.7","","-17.9","","83","","","","36","","5","","32.2","","103.44","","","","-19","","NA"
"-96.08","64.30","BAKER LAKE A","2300503","2022-05-01 11:00","2022","05","01","11:00","-14.6","","-17.0","","82","","","","20","","9","","32.2","","103.40","","","","-20","","NA"
"-96.08","64.30","BAKER LAKE A","2300503","2022-05-01 12:00","2022","05","01","12:00","-12.9","","-15.7","","80","","","","32","","8","","32.2","","103.36","","","","-18","","Clear"
"-96.08","64.30","BAKER LAKE A","2300503","2022-05-01 13:00","2022","05","01","13:00","-11.2","","-14.1","","79","","","","33","","8","","32.2","","103.34","","","","-16","","NA"
"-96.08","64.30","BAKER LAKE A","2300503","2022-05-01 14:00","2022","05","01","14:00","-10.4","","-14.1","","75","","","","25","","9","","32.2","","103.31","","","","-15","","NA"
"-96.08","64.30","BAKER LAKE A","2300503","2022-05-01 15:00","2022","05","01","15:00","-9.6","","-12.6","","79","","","","23","","10","","32.2","","103.26","","","","-15","","Mainly Clear"
"-96.08","64.30","BAKER LAKE A","2300503","2022-05-01 16:00","2022","05","01","16:00","-9.1","","-12.7","","75","","","","22","","10","","32.2","","103.23","","","","-14","","NA"
"-96.08","64.30","BAKER LAKE A","2300503","2022-05-01 17:00","2022","05","01","17:00","-8.3","","-12.9","","70","","","","24","","11","","32.2","","103.21","","","","-14","","NA"
"-96.08","64.30","BAKER LAKE A","2300503","2022-05-01 18:00","2022","05","01","18:00","-8.7","","-13.1","","71","","","","25","","10","","32.2","","103.22","","","","-14","","Clear"
"-96.08","64.30","BAKER LAKE A","2300503","2022-05-01 19:00","2022","05","01","19:00","-9.3","","-13.2","","73","","","","28","","5","","32.2","","103.20","","","","-12","","NA"
"-96.08","64.30","BAKER LAKE A","2300503","2022-05-01 20:00","2022","05","01","20:00","-10.7","","-14.2","","75","","","","27","","9","","40.2","","103.20","","","","-16","","NA"
"-96.08","64.30","BAKER LAKE A","2300503","2022-05-01 21:00","2022","05","01","21:00","-12.6","","-15.4","","80","","","","27","","6","","40.2","","103.18","","","","-17","","Clear"
"-96.08","64.30","BAKER LAKE A","2300503","2022-05-01 22:00","2022","05","01","22:00","-14.2","","-16.4","","83","","","","36","","4","","24.1","","103.17","","","","-17","","NA"
"-96.08","64.30","BAKER LAKE A","2300503","2022-05-01 23:00","2022","05","01","23:00","-14.3","","-16.2","","86","","","","20","","3","","24.1","","103.18","","","","-16","","NA"
"-96.08","64.30","BAKER LAKE A","2300503","2022-05-02 00:00","2022","05","02","00:00","-15.9","","-17.6","","87","","","","21","","3","","24.1","","103.19","","","","-18","","Clear"
"-96.08","64.30","BAKER LAKE A","2300503","2022-05-02 01:00","2022","05","02","01:00","-15.9","","-18.0","","84","","","","36","","2","","24.1","","103.21","","","","-17","","NA"
"-96.08","64.30","BAKER LAKE A","2300503","2022-05-02 02:00","2022","05","02","02:00","-15.8","","-17.4","","87","","","","33","","3","","24.1","","103.20","","","","-18","","NA"
"-96.08","64.30","BAKER LAKE A","2300503","2022-05-02 03:00","2022","05","02","03:00","-17.6","","-19.6","","84","","","","0","","1","","24.1","","103.22","","","","-18","","Clear"
"-96.08","64.30","BAKER LAKE A","2300503","2022-05-02 04:00","2022","05","02","04:00","-18.1","","-20.1","","85","","","","36","","6","","40.2","","103.23","","","","-23","","NA"
"-96.08","64.30","BAKER LAKE A","2300503","2022-05-02 05:00","2022","05","02","05:00","-17.4","","-19.2","","86","","","","35","","9","","40.2","","103.26","","","","-24","","NA"
"-96.08","64.30","BAKER LAKE A","2300503","2022-05-02 06:00","2022","05","02","06:00","-16.8","","-18.8","","85","","","","36","","6","","32.2","","103.31","","","","-21","","Mostly Cloudy"
"-96.08","64.30","BAKER LAKE A","2300503","2022-05-02 07:00","2022","05","02","07:00","-15.8","","-17.5","","87","","","","5","","4","","32.2","","103.34","","","","-19","","Snow"
"-96.08","64.30","BAKER LAKE A","2300503","2022-05-02 08:00","2022","05","02","08:00","-14.8","","-16.9","","84","","","","9","","5","","32.2","","103.34","","","","-18","","NA"
"-96.08","64.30","BAKER LAKE A","2300503","2022-05-02 09:00","2022","05","02","09:00","-14.4","","-16.7","","83","","","","12","","10","","32.2","","103.35","","","","-21","","Mainly Clear"
"-96.08","64.30","BAKER LAKE A","2300503","2022-05-02 10:00","2022","05","02","10:00","-13.4","","-15.9","","82","","","","14","","10","","32.2","","103.33","","","","-19","","NA"
"-96.08","64.30","BAKER LAKE A","2300503","2022-05-02 11:00","2022","05","02","11:00","-13.4","","-16.3","","79","","","","13","","10","","32.2","","103.34","","","","-19","","NA"
"-96.08","64.30","BAKER LAKE A","2300503","2022-05-02 12:00","2022","05","02","12:00","-12.5","","-15.6","","78","","","","12","","9","","32.2","","103.34","","","","-18","","Clear"
"-96.08","64.30","BAKER LAKE A","2300503","2022-05-02 13:00","2022","05","02","13:00","-11.8","","-14.9","","78","","","","12","","11","","32.2","","103.34","","","","-18","","NA"
"-96.08","64.30","BAKER LAKE A","2300503","2022-05-02 14:00","2022","05","02","14:00","-11.4","","-14.8","","77","","","","11","","13","","32.2","","103.35","","","","-18","","NA"
"-96.08","64.30","BAKER LAKE A","2300503","2022-05-02 15:00","2022","05","02","15:00","-11.1","","-14.7","","75","","","","11","","12","","32.2","","103.37","","","","-17","","Clear"
"-96.08","64.30","BAKER LAKE A","2300503","2022-05-02 16:00","2022","05","02","16:00","-10.5","","-13.8","","77","","","","12","","12","","32.2","","103.38","","","","-17","","NA"
"-96.08","64.30","BAKER LAKE A","2300503","2022-05-02 17:00","2022","05","02","17:00","-10.9","","-14.2","","76","","","","11","","13","","32.2","","103.36","","","","-17","","NA"
"-96.08","64.30","BAKER LAKE A","2300503","2022-05-02 18:00","2022","05","02","18:00","-10.9","","-13.9","","79","","","","11","","14","","32.2","","103.34","","","","-18","","Mainly Clear"
"-96.08","64.30","BAKER LAKE A","2300503","2022-05-02 19:00","2022","05","02","19:00","-11.5","","-14.2","","81","","","","12","","11","","32.2","","103.33","","","","-17","","NA"
"-96.08","64.30","BAKER LAKE A","2300503","2022-05-02 20:00","2022","05","02","20:00","-12.9","","-15.3","","82","","","","12","","10","","40.2","","103.36","","","","-19","","NA"
"-96.08","64.30","BAKER LAKE A","2300503","2022-05-02 21:00","2022","05","02","21:00","-14.6","","-16.9","","83","","","","11","","5","","40.2","","103.35","","","","-18","","Clear"
"-96.08","64.30","BAKER LAKE A","2300503","2022-05-02 22:00","2022","05","02","22:00","-14.9","","-17.0","","84","","","","11","","4","","24.1","","103.34","","","","-18","","NA"
"-96.08","64.30","BAKER LAKE A","2300503","2022-05-02 23:00","2022","05","02","23:00","-15.3","","-17.4","","84","","","","36","","3","","24.1","","103.35","","","","-17","","NA"
"-96.08","64.30","BAKER LAKE A","2300503","2022-05-03 00:00","2022","05","03","00:00","-16.0","","-18.0","","85","","","","11","","4","","24.1","","103.33","","","","-19","","Clear"
"-96.08","64.30","BAKER LAKE A","2300503","2022-05-03 01:00","2022","05","03","01:00","-16.7","","-18.7","","85","","","","36","","2","","24.1","","103.37","","","","-18","","NA"
"-96.08","64.30","BAKER LAKE A","2300503","2022-05-03 02:00","2022","05","03","02:00","-16.9","","-18.6","","87","","","","13","","3","","24.1","","103.37","","","","-19","","NA"
"-96.08","64.30","BAKER LAKE A","2300503","2022-05-03 03:00","2022","05","03","03:00","-17.3","","-19.3","","85","","","","14","","3","","40.2","","103.39","","","","-20","","Clear"
"-96.08","64.30","BAKER LAKE A","2300503","2022-05-03 04:00","2022","05","03","04:00","-18.7","","-20.7","","85","","","","36","","1","","40.2","","103.36","","","","-20","","NA"
"-96.08","64.30","BAKER LAKE A","2300503","2022-05-03 05:00","2022","05","03","05:00","-17.6","","-19.6","","85","","","","33","","3","","40.2","","103.37","","","","-20","","NA"
"-96.08","64.30","BAKER LAKE A","2300503","2022-05-03 06:00","2022","05","03","06:00","-17.1","","-19.0","","85","","","","17","","6","","40.2","","103.40","","","","-22","","Mainly Clear"
"-96.08","64.30","BAKER LAKE A","2300503","2022-05-03 07:00","2022","05","03","07:00","-17.6","","-19.4","","86","","","","23","","11","","40.2","","103.39","","","","-25","","NA"
"-96.08","64.30","BAKER LAKE A","2300503","2022-05-03 08:00","2022","05","03","08:00","-17.3","","-19.3","","85","","","","22","","14","","32.2","","103.39","","","","-25","","NA"
"-96.08","64.30","BAKER LAKE A","2300503","2022-05-03 09:00","2022","05","03","09:00","-17.0","","-19.0","","85","","","","22","","9","","6.4","","103.40","","","","-23","","Fog"
"-96.08","64.30","BAKER LAKE A","2300503","2022-05-03 10:00","2022","05","03","10:00","-16.2","","-18.2","","85","","","","17","","12","","4.8","","103.38","","","","-23","","Fog"
"-96.08","64.30","BAKER LAKE A","2300503","2022-05-03 11:00","2022","05","03","11:00","-15.2","","-17.2","","85","","","","14","","8","","8.1","","103.33","","","","-21","","Fog"
"-96.08","64.30","BAKER LAKE A","2300503","2022-05-03 12:00","2022","05","03","12:00","-14.3","","-16.5","","84","","","","16","","9","","12.9","","103.29","","","","-20","","Mostly Cloudy"
"-96.08","64.30","BAKER LAKE A","2300503","2022-05-03 13:00","2022","05","03","13:00","-13.2","","-15.3","","85","","","","19","","11","","16.1","","103.26","","","","-19","","NA"
"-96.08","64.30","BAKER LAKE A","2300503","2022-05-03 14:00","2022","05","03","14:00","-12.3","","-14.4","","84","","","","16","","8","","24.1","","103.24","","","","-17","","NA"
"-96.08","64.30","BAKER LAKE A","2300503","2022-05-03 15:00","2022","05","03","15:00","-11.5","","-14.2","","80","","","","16","","9","","32.2","","103.21","","","","-17","","Mostly Cloudy"
"-96.08","64.30","BAKER LAKE A","2300503","2022-05-03 16:00","2022","05","03","16:00","-10.8","","-13.7","","79","","","","14","","10","","32.2","","103.19","","","","-16","","NA"
"-96.08","64.30","BAKER LAKE A","2300503","2022-05-03 17:00","2022","05","03","17:00","-11.2","","-13.8","","82","","","","14","","10","","32.2","","103.17","","","","-17","","NA"
"-96.08","64.30","BAKER LAKE A","2300503","2022-05-03 18:00","2022","05","03","18:00","-11.5","","-14.3","","80","","","","15","","13","","32.2","","103.11","","","","-18","","Mostly Cloudy"
"-96.08","64.30","BAKER LAKE A","2300503","2022-05-03 19:00","2022","05","03","19:00","-12.0","","-14.7","","81","","","","15","","12","","32.2","","103.11","","","","-18","","NA"
"-96.08","64.30","BAKER LAKE A","2300503","2022-05-03 20:00","2022","05","03","20:00","-12.2","","-14.7","","82","","","","17","","12","","32.2","","103.08","","","","-19","","NA"
"-96.08","64.30","BAKER LAKE A","2300503","2022-05-03 21:00","2022","05","03","21:00","-13.6","","-15.6","","85","","","","13","","5","","32.2","","103.06","","","","-17","","Mostly Cloudy"
"-96.08","64.30","BAKER LAKE A","2300503","2022-05-03 22:00","2022","05","03","22:00","-14.5","","-16.4","","86","","","","0","","1","","32.2","","103.04","","","","-15","","NA"
"-96.08","64.30","BAKER LAKE A","2300503","2022-05-03 23:00","2022","05","03","23:00","-15.3","","-17.2","","86","","","","7","","3","","24.1","","103.05","","","","-17","","NA"
"-96.08","64.30","BAKER LAKE A","2300503","2022-05-04 00:00","2022","05","04","00:00","-15.1","","-17.0","","86","","","","4","","4","","24.1","","103.04","","","","-18","","Mostly Cloudy"
"-96.08","64.30","BAKER LAKE A","2300503","2022-05-04 01:00","2022","05","04","01:00","-15.5","","-17.4","","85","","","","36","","1","","24.1","","103.02","","","","-16","","NA"
"-96.08","64.30","BAKER LAKE A","2300503","2022-05-04 02:00","2022","05","04","02:00","-15.4","","-17.4","","85","","","","36","","2","","24.1","","103.02","","","","-17","","NA"
"-96.08","64.30","BAKER LAKE A","2300503","2022-05-04 03:00","2022","05","04","03:00","-15.3","","-17.3","","85","","","","0","","1","","32.2","","103.01","","","","-16","","Mostly Cloudy"
"-96.08","64.30","BAKER LAKE A","2300503","2022-05-04 04:00","2022","05","04","04:00","-15.0","","-17.1","","85","","","","36","","2","","32.2","","102.99","","","","-16","","NA"
"-96.08","64.30","BAKER LAKE A","2300503","2022-05-04 05:00","2022","05","04","05:00","-14.7","","-16.6","","85","","","","15","","3","","24.1","","103.00","","","","-17","","NA"
"-96.08","64.30","BAKER LAKE A","2300503","2022-05-04 06:00","2022","05","04","06:00","-14.2","","-15.6","","89","","","","16","","8","","24.1","","102.99","","","","-19","","Cloudy"
"-96.08","64.30","BAKER LAKE A","2300503","2022-05-04 07:00","2022","05","04","07:00","-14.2","","-15.8","","88","","","","18","","13","","8.1","","102.97","","","","-21","","Fog"
"-96.08","64.30","BAKER LAKE A","2300503","2022-05-04 08:00","2022","05","04","08:00","-13.7","","-15.4","","87","","","","18","","13","","6.4","","102.95","","","","-21","","Snow,Fog"
"-96.08","64.30","BAKER LAKE A","2300503","2022-05-04 09:00","2022","05","04","09:00","-13.3","","-15.1","","87","","","","16","","12","","4.8","","102.91","","","","-20","","Snow,Fog"
"-96.08","64.30","BAKER LAKE A","2300503","2022-05-04 10:00","2022","05","04","10:00","-13.1","","-14.9","","86","","","","13","","15","","8.1","","102.91","","","","-21","","Snow,Fog"
"-96.08","64.30","BAKER LAKE A","2300503","2022-05-04 11:00","2022","05","04","11:00","-12.9","","-14.8","","86","","","","12","","17","","9.7","","102.88","","","","-21","","Snow,Fog"
"-96.08","64.30","BAKER LAKE A","2300503","2022-05-04 12:00","2022","05","04","12:00","-12.2","","-14.0","","86","","","","12","","16","","16.1","","102.86","","","","-20","","Snow"
"-96.08","64.30","BAKER LAKE A","2300503","2022-05-04 13:00","2022","05","04","13:00","-11.7","","-13.7","","85","","","","13","","16","","16.1","","102.83","","","","-19","","Snow"
"-96.08","64.30","BAKER LAKE A","2300503","2022-05-04 14:00","2022","05","04","14:00","-11.8","","-14.6","","80","","","","12","","18","","32.2","","102.81","","","","-20","","Snow"
"-96.08","64.30","BAKER LAKE A","2300503","2022-05-04 15:00","2022","05","04","15:00","-11.6","","-14.3","","81","","","","12","","17","","32.2","","102.79","","","","-19","","Mainly Clear"
"-96.08","64.30","BAKER LAKE A","2300503","2022-05-04 16:00","2022","05","04","16:00","-11.2","","-13.9","","81","","","","13","","15","","32.2","","102.75","","","","-18","","NA"
"-96.08","64.30","BAKER LAKE A","2300503","2022-05-04 17:00","2022","05","04","17:00","-10.8","","-13.4","","81","","","","12","","14","","32.2","","102.69","","","","-17","","NA"
"-96.08","64.30","BAKER LAKE A","2300503","2022-05-04 18:00","2022","05","04","18:00","-11.6","","-14.1","","82","","","","11","","14","","32.2","","102.64","","","","-18","","Clear"
"-96.08","64.30","BAKER LAKE A","2300503","2022-05-04 19:00","2022","05","04","19:00","-12.5","","-14.6","","84","","","","11","","11","","32.2","","102.62","","","","-19","","NA"
"-96.08","64.30","BAKER LAKE A","2300503","2022-05-04 20:00","2022","05","04","20:00","-13.8","","-15.8","","85","","","","11","","10","","32.2","","102.61","","","","-20","","NA"
"-96.08","64.30","BAKER LAKE A","2300503","2022-05-04 21:00","2022","05","04","21:00","-15.1","","-17.0","","85","","","","11","","10","","32.2","","102.56","","","","-21","","Clear"
"-96.08","64.30","BAKER LAKE A","2300503","2022-05-04 22:00","2022","05","04","22:00","-15.1","","-17.0","","86","","","","13","","5","","32.2","","102.57","","","","-19","","NA"
"-96.08","64.30","BAKER LAKE A","2300503","2022-05-04 23:00","2022","05","04","23:00","-16.7","","-18.8","","84","","","","11","","7","","24.1","","102.55","","","","-22","","NA"
"-96.08","64.30","BAKER LAKE A","2300503","2022-05-05 00:00","2022","05","05","00:00","-17.1","","-19.0","","85","","","","14","","5","","24.1","","102.54","","","","-21","","Clear"
"-96.08","64.30","BAKER LAKE A","2300503","2022-05-05 01:00","2022","05","05","01:00","-19.0","","-21.3","","82","","","","11","","12","","24.1","","102.49","","","","-27","","NA"
"-96.08","64.30","BAKER LAKE A","2300503","2022-05-05 02:00","2022","05","05","02:00","-18.7","","-20.9","","83","","","","11","","12","","24.1","","102.45","","","","-26","","NA"
"-96.08","64.30","BAKER LAKE A","2300503","2022-05-05 03:00","2022","05","05","03:00","-18.8","","-20.6","","86","","","","12","","18","","32.2","","102.42","","","","-28","","Clear"
"-96.08","64.30","BAKER LAKE A","2300503","2022-05-05 04:00","2022","05","05","04:00","-18.0","","-19.9","","86","","","","11","","15","","24.1","","102.39","","","","-27","","NA"
"-96.08","64.30","BAKER LAKE A","2300503","2022-05-05 05:00","2022","05","05","05:00","-17.0","","-19.0","","84","","","","11","","14","","3.2","","102.36","","","","-25","","Ice Crystals,Fog"
"-96.08","64.30","BAKER LAKE A","2300503","2022-05-05 06:00","2022","05","05","06:00"
"-96.08","64.30","BAKER LAKE A","2300503","2022-05-05 07:00","2022","05","05","07:00","-14.8","","-16.8","","85","","","","12","","13","","32.2","","102.30","","","","-22","","NA"
"-96.08","64.30","BAKER LAKE A","2300503","2022-05-05 08:00","2022","05","05","08:00","-13.7","","-15.7","","85","","","","12","","20","","32.2","","102.26","","","","-23","","NA"
"-96.08","64.30","BAKER LAKE A","2300503","2022-05-05 09:00","2022","05","05","09:00","-12.7","","-14.7","","86","","","","11","","22","","32.2","","102.20","","","","-22","","Mostly Cloudy"
"-96.08","64.30","BAKER LAKE A","2300503","2022-05-05 10:00","2022","05","05","10:00","-10.7","","-12.7","","85","","","","11","","19","","32.2","","102.12","","","","-19","","NA"
"-96.08","64.30","BAKER LAKE A","2300503","2022-05-05 11:00","2022","05","05","11:00","-8.4","","-11.9","","76","","","","13","","21","","32.2","","102.06","","","","-16","","NA"
"-96.08","64.30","BAKER LAKE A","2300503","2022-05-05 12:00","2022","05","05","12:00","-7.2","","-10.7","","76","","","","15","","28","","32.2","","102.00","","","","-16","","Mostly Cloudy"
"-96.08","64.30","BAKER LAKE A","2300503","2022-05-05 13:00","2022","05","05","13:00","-6.3","","-9.6","","78","","","","15","","30","","32.2","","101.93","","","","-15","","NA"
"-96.08","64.30","BAKER LAKE A","2300503","2022-05-05 14:00","2022","05","05","14:00","-5.2","","-9.0","","75","","","","16","","32","","32.2","","101.87","","","","-13","","NA"
"-96.08","64.30","BAKER LAKE A","2300503","2022-05-05 15:00","2022","05","05","15:00","-4.7","","-8.5","","75","","","","15","","33","","32.2","","101.79","","","","-13","","Mostly Cloudy"
"-96.08","64.30","BAKER LAKE A","2300503","2022-05-05 16:00","2022","05","05","16:00","-4.2","","-7.5","","78","","","","16","","32","","32.2","","101.71","","","","-12","","NA"
"-96.08","64.30","BAKER LAKE A","2300503","2022-05-05 17:00","2022","05","05","17:00","-4.8","","-7.9","","79","","","","16","","30","","32.2","","101.65","","","","-13","","NA"
"-96.08","64.30","BAKER LAKE A","2300503","2022-05-05 18:00","2022","05","05","18:00","-4.9","","-7.9","","79","","","","16","","35","","32.2","","101.60","","","","-13","","Mostly Cloudy"
"-96.08","64.30","BAKER LAKE A","2300503","2022-05-05 19:00","2022","05","05","19:00","-5.0","","-8.0","","80","","","","16","","34","","32.2","","101.57","","","","-13","","NA"
"-96.08","64.30","BAKER LAKE A","2300503","2022-05-05 20:00","2022","05","05","20:00","-5.2","","-7.9","","81","","","","18","","23","","32.2","","101.54","","","","-12","","NA"
"-96.08","64.30","BAKER LAKE A","2300503","2022-05-05 21:00","2022","05","05","21:00","-5.5","","-7.8","","84","","","","17","","35","","24.1","","101.49","","","","-14","","Cloudy"
"-96.08","64.30","BAKER LAKE A","2300503","2022-05-05 22:00","2022","05","05","22:00","-6.0","","-7.3","","90","","","","16","","34","","2.4","","101.44","","","","-15","","Snow,Blowing Snow"
"-96.08","64.30","BAKER LAKE A","2300503","2022-05-05 23:00","2022","05","05","23:00","-6.0","","-7.3","","91","","","","16","","31","","3.2","","101.40","","","","-14","","Snow,Blowing Snow"
"-96.08","64.30","BAKER LAKE A","2300503","2022-05-06 00:00","2022","05","06","00:00","-6.0","","-7.3","","91","","","","16","","32","","2.4","","101.33","","","","-15","","Snow,Blowing Snow"
"-96.08","64.30","BAKER LAKE A","2300503","2022-05-06 01:00","2022","05","06","01:00","-6.0","","-7.4","","90","","","","16","","31","","6.4","","101.27","","","","-14","","Snow,Blowing Snow"
"-96.08","64.30","BAKER LAKE A","2300503","2022-05-06 02:00","2022","05","06","02:00","-5.9","","-7.3","","90","","","","17","","30","","12.9","","101.25","","","","-14","","Snow,Blowing Snow"
"-96.08","64.30","BAKER LAKE A","2300503","2022-05-06 03:00","2022","05","06","03:00","-5.8","","-7.3","","89","","","","17","","22","","9.7","","101.23","","","","-13","","Snow,Blowing Snow"
"-96.08","64.30","BAKER LAKE A","2300503","2022-05-06 04:00","2022","05","06","04:00","-5.7","","-7.3","","89","","","","16","","19","","24.1","","101.18","","","","-12","","Snow,Blowing Snow"
"-96.08","64.30","BAKER LAKE A","2300503","2022-05-06 05:00","2022","05","06","05:00","-5.3","","-6.9","","89","","","","18","","19","","24.1","","101.17","","","","-12","","Snow,Blowing Snow"
"-96.08","64.30","BAKER LAKE A","2300503","2022-05-06 06:00","2022","05","06","06:00","-5.0","","-6.8","","87","","","","19","","18","","32.2","","101.16","","","","-11","","Cloudy"
"-96.08","64.30","BAKER LAKE A","2300503","2022-05-06 07:00","2022","05","06","07:00","-4.6","","-6.5","","87","","","","18","","16","","32.2","","101.11","","","","-10","","NA"
"-96.08","64.30","BAKER LAKE A","2300503","2022-05-06 08:00","2022","05","06","08:00","-3.9","","-6.0","","85","","","","18","","14","","32.2","","101.09","","","","-9","","NA"
"-96.08","64.30","BAKER LAKE A","2300503","2022-05-06 09:00","2022","05","06","09:00","-3.5","","-5.5","","86","","","","16","","10","","32.2","","101.08","","","","-7","","Cloudy"
"-96.08","64.30","BAKER LAKE A","2300503","2022-05-06 10:00","2022","05","06","10:00","-2.9","","-4.5","","88","","","","17","","16","","32.2","","101.05","","","","-8","","NA"
"-96.08","64.30","BAKER LAKE A","2300503","2022-05-06 11:00","2022","05","06","11:00","-2.2","","-4.0","","87","","","","17","","14","","32.2","","101.05","","","","-7","","NA"
"-96.08","64.30","BAKER LAKE A","2300503","2022-05-06 12:00","2022","05","06","12:00","-1.7","","-4.1","","84","","","","17","","16","","32.2","","101.02","","","","-7","","Cloudy"
"-96.08","64.30","BAKER LAKE A","2300503","2022-05-06 13:00","2022","05","06","13:00","-1.2","","-3.7","","83","","","","16","","15","","32.2","","101.03","","","","-6","","NA"
"-96.08","64.30","BAKER LAKE A","2300503","2022-05-06 14:00","2022","05","06","14:00","-0.3","","-3.2","","81","","","","16","","17","","32.2","","101.01","","","","-5","","NA"
"-96.08","64.30","BAKER LAKE A","2300503","2022-05-06 15:00","2022","05","06","15:00","-0.4","","-3.0","","83","","","","16","","17","","32.2","","100.99","","","","-5","","Mostly Cloudy"
"-96.08","64.30","BAKER LAKE A","2300503","2022-05-06 16:00","2022","05","06","16:00","-0.1","","-2.6","","83","","","","15","","13","","32.2","","101.00","","","","-4","","NA"
"-96.08","64.30","BAKER LAKE A","2300503","2022-05-06 17:00","2022","05","06","17:00","-0.4","","-2.5","","86","","","","12","","10","","32.2","","100.98","","","","-4","","NA"
"-96.08","64.30","BAKER LAKE A","2300503","2022-05-06 18:00","2022","05","06","18:00","-0.9","","-2.4","","89","","","","14","","15","","32.2","","100.95","","","","-6","","Mostly Cloudy"
"-96.08","64.30","BAKER LAKE A","2300503","2022-05-06 19:00","2022","05","06","19:00","-1.6","","-3.0","","90","","","","13","","11","","32.2","","100.95","","","","-5","","NA"
"-96.08","64.30","BAKER LAKE A","2300503","2022-05-06 20:00","2022","05","06","20:00","-2.4","","-3.6","","92","","","","10","","10","","32.2","","100.94","","","","-6","","NA"
"-96.08","64.30","BAKER LAKE A","2300503","2022-05-06 21:00","2022","05","06","21:00","-4.3","","-5.1","","94","","","","36","","1","","32.2","","100.93","","","","-5","","Mainly Clear"
"-96.08","64.30","BAKER LAKE A","2300503","2022-05-06 22:00","2022","05","06","22:00","-4.4","","-5.3","","94","","","","36","","2","","24.1","","100.90","","","","-5","","NA"
"-96.08","64.30","BAKER LAKE A","2300503","2022-05-06 23:00","2022","05","06","23:00","-4.9","","-5.8","","94","","","","4","","4","","24.1","","100.89","","","","-7","","NA"
"-96.08","64.30","BAKER LAKE A","2300503","2022-05-07 00:00","2022","05","07","00:00","-5.6","","-6.5","","93","","","","7","","10","","24.1","","100.83","","","","-10","","Mostly Cloudy"
"-96.08","64.30","BAKER LAKE A","2300503","2022-05-07 01:00","2022","05","07","01:00","-4.4","","-5.5","","92","","","","6","","12","","24.1","","100.81","","","","-9","","NA"
"-96.08","64.30","BAKER LAKE A","2300503","2022-05-07 02:00","2022","05","07","02:00","-4.2","","-5.5","","90","","","","4","","10","","24.1","","100.81","","","","-8","","NA"
"-96.08","64.30","BAKER LAKE A","2300503","2022-05-07 03:00","2022","05","07","03:00","-4.3","","-5.6","","90","","","","4","","14","","32.2","","100.78","","","","-9","","Mostly Cloudy"
"-96.08","64.30","BAKER LAKE A","2300503","2022-05-07 04:00","2022","05","07","04:00","-4.5","","-6.0","","89","","","","4","","16","","32.2","","100.72","","","","-10","","NA"
"-96.08","64.30","BAKER LAKE A","2300503","2022-05-07 05:00","2022","05","07","05:00","-4.2","","-5.6","","90","","","","6","","16","","32.2","","100.73","","","","-10","","NA"
"-96.08","64.30","BAKER LAKE A","2300503","2022-05-07 06:00","2022","05","07","06:00","-3.9","","-5.4","","89","","","","6","","18","","32.2","","100.72","","","","-10","","Mostly Cloudy"
"-96.08","64.30","BAKER LAKE A","2300503","2022-05-07 07:00","2022","05","07","07:00","-3.7","","-5.1","","90","","","","5","","16","","24.1","","100.70","","","","-9","","Freezing Rain"
"-96.08","64.30","BAKER LAKE A","2300503","2022-05-07 08:00","2022","05","07","08:00","-3.2","","-5.0","","88","","","","5","","17","","16.1","","100.69","","","","-9","","NA"
"-96.08","64.30","BAKER LAKE A","2300503","2022-05-07 09:00","2022","05","07","09:00","-2.5","","-3.9","","90","","","","5","","20","","19.3","","100.61","","","","-8","","Freezing Rain"
"-96.08","64.30","BAKER LAKE A","2300503","2022-05-07 10:00","2022","05","07","10:00","-1.6","","-2.8","","92","","","","6","","26","","11.3","","100.58","","","","-8","","Freezing Rain"
"-96.08","64.30","BAKER LAKE A","2300503","2022-05-07 11:00","2022","05","07","11:00","-1.2","","-2.4","","92","","","","6","","26","","11.3","","100.51","","","","-8","","Freezing Rain"
"-96.08","64.30","BAKER LAKE A","2300503","2022-05-07 12:00","2022","05","07","12:00","-0.8","","-2.1","","91","","","","6","","26","","12.9","","100.51","","","","-7","","Freezing Rain"
"-96.08","64.30","BAKER LAKE A","2300503","2022-05-07 13:00","2022","05","07","13:00","-0.5","","-1.7","","92","","","","7","","26","","14.5","","100.50","","","","-7","","Freezing Rain"
"-96.08","64.30","BAKER LAKE A","2300503","2022-05-07 14:00","2022","05","07","14:00","-0.2","","-1.5","","91","","","","6","","28","","19.3","","100.46","","","","-7","","Freezing Rain"
"-96.08","64.30","BAKER LAKE A","2300503","2022-05-07 15:00","2022","05","07","15:00","-0.1","","-1.3","","92","","","","7","","26","","16.1","","100.48","","","","-6","","Freezing Rain"
"-96.08","64.30","BAKER LAKE A","2300503","2022-05-07 16:00","2022","05","07","16:00","0.1","","-0.9","","93","","","","8","","22","","17.7","","100.47","","","","","","Rain"
"-96.08","64.30","BAKER LAKE A","2300503","2022-05-07 17:00","2022","05","07","17:00","0.2","","-0.9","","92","","","","7","","22","","17.7","","100.47","","","","","","Rain"
"-96.08","64.30","BAKER LAKE A","2300503","2022-05-07 18:00","2022","05","07","18:00","0.2","","-0.8","","93","","","","6","","22","","24.1","","100.45","","","","","","Rain"
"-96.08","64.30","BAKER LAKE A","2300503","2022-05-07 19:00","2022","05","07","19:00","0.2","","-0.7","","93","","","","6","","22","","22.5","","100.44","","","","","","Rain"
"-96.08","64.30","BAKER LAKE A","2300503","2022-05-07 20:00","2022","05","07","20:00","0.2","","-0.7","","94","","","","7","","21","","19.3","","100.47","","","","","","Rain"
"-96.08","64.30","BAKER LAKE A","2300503","2022-05-07 21:00","2022","05","07","21:00","0.2","","-0.6","","94","","","","6","","17","","24.1","","100.49","","","","","","Rain"
"-96.08","64.30","BAKER LAKE A","2300503","2022-05-07 22:00","2022","05","07","22:00","0.2","","-0.6","","94","","","","6","","16","","16.1","","100.49","","","","","","Rain"
"-96.08","64.30","BAKER LAKE A","2300503","2022-05-07 23:00","2022","05","07","23:00","0.2","","-0.5","","95","","","","6","","19","","16.1","","100.50","","","","","","Rain"
"-96.08","64.30","BAKER LAKE A","2300503","2022-05-08 00:00","2022","05","08","00:00","0.3","","-0.5","","94","","","","6","","21","","24.1","","100.49","","","","","","Rain"
"-96.08","64.30","BAKER LAKE A","2300503","2022-05-08 01:00","2022","05","08","01:00","0.3","","-0.5","","94","","","","6","","20","","24.1","","100.51","","","","","","Rain"
"-96.08","64.30","BAKER LAKE A","2300503","2022-05-08 02:00","2022","05","08","02:00","0.4","","-0.6","","93","","","","5","","19","","24.1","","100.48","","","","","","Rain"
"-96.08","64.30","BAKER LAKE A","2300503","2022-05-08 03:00","2022","05","08","03:00","0.5","","-0.7","","92","","","","4","","20","","24.1","","100.46","","","","","","Rain"
"-96.08","64.30","BAKER LAKE A","2300503","2022-05-08 04:00","2022","05","08","04:00","0.5","","-0.8","","91","","","","5","","20","","32.2","","100.51","","","","","","Rain"
"-96.08","64.30","BAKER LAKE A","2300503","2022-05-08 05:00","2022","05","08","05:00","0.6","","-0.9","","90","","","","4","","21","","32.2","","100.56","","","","","","Rain"
"-96.08","64.30","BAKER LAKE A","2300503","2022-05-08 06:00","2022","05","08","06:00","0.7","","-0.8","","90","","","","5","","19","","32.2","","100.59","","","","","","Rain"
"-96.08","64.30","BAKER LAKE A","2300503","2022-05-08 07:00","2022","05","08","07:00","0.8","","-0.7","","90","","","","4","","23","","32.2","","100.58","","","","","","Rain"
"-96.08","64.30","BAKER LAKE A","2300503","2022-05-08 08:00","2022","05","08","08:00","0.6","","-0.6","","92","","","","5","","21","","40.2","","100.61","","","","","","Rain"
"-96.08","64.30","BAKER LAKE A","2300503","2022-05-08 09:00","2022","05","08","09:00","0.7","","-0.9","","89","","","","5","","26","","40.2","","100.64","","","","","","Cloudy"
"-96.08","64.30","BAKER LAKE A","2300503","2022-05-08 10:00","2022","05","08","10:00","0.9","","-1.0","","87","","","","4","","28","","40.2","","100.61","","","","","","NA"
"-96.08","64.30","BAKER LAKE A","2300503","2022-05-08 11:00","2022","05","08","11:00","0.9","","-1.2","","86","","","","4","","28","","40.2","","100.61","","","","","","NA"
"-96.08","64.30","BAKER LAKE A","2300503","2022-05-08 12:00","2022","05","08","12:00","1.0","","-1.4","","84","","","","5","","28","","40.2","","100.64","","","","","","Cloudy"
"-96.08","64.30","BAKER LAKE A","2300503","2022-05-08 13:00","2022","05","08","13:00","1.0","","-1.7","","82","","","","6","","35","","40.2","","100.68","","","","","","NA"
"-96.08","64.30","BAKER LAKE A","2300503","2022-05-08 14:00","2022","05","08","14:00","0.8","","-2.0","","82","","","","5","","40","","40.2","","100.66","","","","","","NA"
"-96.08","64.30","BAKER LAKE A","2300503","2022-05-08 15:00","2022","05","08","15:00","0.7","","-2.1","","82","","","","5","","38","","40.2","","100.64","","","","","","Cloudy"
"-96.08","64.30","BAKER LAKE A","2300503","2022-05-08 16:00","2022","05","08","16:00","0.3","","-2.7","","81","","","","6","","44","","40.2","","100.77","","","","","","NA"
"-96.08","64.30","BAKER LAKE A","2300503","2022-05-08 17:00","2022","05","08","17:00","0.2","","-2.4","","83","","","","6","","40","","40.2","","100.78","","","","","","NA"
"-96.08","64.30","BAKER LAKE A","2300503","2022-05-08 18:00","2022","05","08","18:00","0.0","","-3.0","","80","","","","5","","47","","40.2","","100.70","","","","-8","","Cloudy"
"-96.08","64.30","BAKER LAKE A","2300503","2022-05-08 19:00","2022","05","08","19:00","-0.9","","-4.1","","79","","","","5","","41","","40.2","","100.66","","","","-9","","NA"
"-96.08","64.30","BAKER LAKE A","2300503","2022-05-08 20:00","2022","05","08","20:00","-2.1","","-6.7","","71","","","","5","","49","","32.2","","100.63","","","","-11","","NA"
"-96.08","64.30","BAKER LAKE A","2300503","2022-05-08 21:00","2022","05","08","21:00","-3.0","","-7.5","","71","","","","5","","43","","32.2","","100.59","","","","-12","","Cloudy"
"-96.08","64.30","BAKER LAKE A","2300503","2022-05-08 22:00","2022","05","08","22:00","-3.6","","-8.4","","69","","","","5","","37","","24.1","","100.66","","","","-12","","Freezing Rain"
"-96.08","64.30","BAKER LAKE A","2300503","2022-05-08 23:00","2022","05","08","23:00"
"-96.08","64.30","BAKER LAKE A","2300503","2022-05-09 00:00","2022","05","09","00:00"
"-96.08","64.30","BAKER LAKE A","2300503","2022-05-09 01:00","2022","05","09","01:00","-4.9","","-10.2","","66","","","","5","","39","","24.1","","100.55","","","","-14","","Freezing Rain"
"-96.08","64.30","BAKER LAKE A","2300503","2022-05-09 02:00","2022","05","09","02:00","-5.5","","-9.6","","73","","","","5","","37","","24.1","","100.55","","","","-14","","Freezing Rain,Snow"
"-96.08","64.30","BAKER LAKE A","2300503","2022-05-09 03:00","2022","05","09","03:00","-6.1","","-9.2","","79","","","","5","","36","","12.9","","100.56","","","","-15","","Snow"
"-96.08","64.30","BAKER LAKE A","2300503","2022-05-09 04:00","2022","05","09","04:00","-6.4","","-9.1","","82","","","","5","","38","","4.8","","100.58","","","","-16","","Snow,Blowing Snow"
"-96.08","64.30","BAKER LAKE A","2300503","2022-05-09 05:00","2022","05","09","05:00","-6.8","","-8.8","","86","","","","5","","36","","3.2","","100.62","","","","-16","","Snow,Blowing Snow"
"-96.08","64.30","BAKER LAKE A","2300503","2022-05-09 06:00","2022","05","09","06:00","-6.9","","-8.6","","88","","","","5","","39","","1.6","","100.60","","","","-17","","Snow,Blowing Snow"
"-96.08","64.30","BAKER LAKE A","2300503","2022-05-09 07:00","2022","05","09","07:00","-6.8","","-8.4","","88","","","","5","","36","","0.8","","100.64","","","","-16","","Snow,Blowing Snow"
"-96.08","64.30","BAKER LAKE A","2300503","2022-05-09 08:00","2022","05","09","08:00","-6.8","","-8.6","","87","","","","5","","39","","0.6","","100.67","","","","-16","","Snow,Blowing Snow"
"-96.08","64.30","BAKER LAKE A","2300503","2022-05-09 09:00","2022","05","09","09:00","-6.6","","-8.3","","88","","","","6","","43","","0.6","","100.73","","","","-17","","Snow,Blowing Snow"
"-96.08","64.30","BAKER LAKE A","2300503","2022-05-09 10:00","2022","05","09","10:00","-6.2","","-7.9","","88","","","","6","","40","","0.6","","100.77","","","","-16","","Snow,Blowing Snow"
"-96.08","64.30","BAKER LAKE A","2300503","2022-05-09 11:00","2022","05","09","11:00","-5.7","","-7.7","","86","","","","6","","30","","4.8","","100.82","","","","-14","","Snow,Blowing Snow"
"-96.08","64.30","BAKER LAKE A","2300503","2022-05-09 12:00","2022","05","09","12:00","-5.7","","-7.9","","84","","","","6","","34","","4.8","","100.86","","","","-14","","Snow,Blowing Snow"
"-96.08","64.30","BAKER LAKE A","2300503","2022-05-09 13:00","2022","05","09","13:00","-5.6","","-7.8","","84","","","","7","","36","","4.8","","100.88","","","","-14","","Snow,Blowing Snow"
"-96.08","64.30","BAKER LAKE A","2300503","2022-05-09 14:00","2022","05","09","14:00","-4.6","","-7.1","","83","","","","6","","35","","8.1","","100.87","","","","-13","","Snow,Blowing Snow"
"-96.08","64.30","BAKER LAKE A","2300503","2022-05-09 15:00","2022","05","09","15:00","-4.0","","-6.5","","82","","","","7","","35","","24.1","","100.91","","","","-12","","Snow,Blowing Snow"
"-96.08","64.30","BAKER LAKE A","2300503","2022-05-09 16:00","2022","05","09","16:00","-4.3","","-6.7","","84","","","","8","","35","","24.1","","100.98","","","","-13","","Snow,Blowing Snow"
"-96.08","64.30","BAKER LAKE A","2300503","2022-05-09 17:00","2022","05","09","17:00","-4.6","","-6.9","","84","","","","9","","31","","32.2","","101.03","","","","-13","","Snow,Blowing Snow"
"-96.08","64.30","BAKER LAKE A","2300503","2022-05-09 18:00","2022","05","09","18:00","-4.8","","-7.0","","85","","","","7","","35","","24.1","","101.00","","","","-13","","Blowing Snow"
"-96.08","64.30","BAKER LAKE A","2300503","2022-05-09 19:00","2022","05","09","19:00","-5.1","","-6.9","","87","","","","8","","30","","32.2","","101.00","","","","-13","","Blowing Snow"
"-96.08","64.30","BAKER LAKE A","2300503","2022-05-09 20:00","2022","05","09","20:00","-5.2","","-7.0","","87","","","","8","","27","","32.2","","101.02","","","","-13","","Blowing Snow"
"-96.08","64.30","BAKER LAKE A","2300503","2022-05-09 21:00","2022","05","09","21:00","-5.3","","-7.0","","88","","","","8","","28","","32.2","","101.08","","","","-13","","Cloudy"
"-96.08","64.30","BAKER LAKE A","2300503","2022-05-09 22:00","2022","05","09","22:00","-5.6","","-7.4","","87","","","","8","","28","","32.2","","101.07","","","","-14","","NA"
"-96.08","64.30","BAKER LAKE A","2300503","2022-05-09 23:00","2022","05","09","23:00","-6.0","","-7.9","","87","","","","8","","28","","24.1","","101.14","","","","-14","","NA"
"-96.08","64.30","BAKER LAKE A","2300503","2022-05-10 00:00","2022","05","10","00:00","-5.8","","-7.5","","87","","","","7","","26","","24.1","","101.11","","","","-14","","Cloudy"
"-96.08","64.30","BAKER LAKE A","2300503","2022-05-10 01:00","2022","05","10","01:00","-5.8","","-7.8","","86","","","","8","","32","","24.1","","101.08","","","","-14","","NA"
"-96.08","64.30","BAKER LAKE A","2300503","2022-05-10 02:00","2022","05","10","02:00","-6.6","","-7.8","","91","","","","8","","32","","1.2","","101.08","","","","-15","","Snow,Blowing Snow"
"-96.08","64.30","BAKER LAKE A","2300503","2022-05-10 03:00","2022","05","10","03:00","-6.5","","-8.0","","89","","","","8","","28","","6.4","","101.01","","","","-15","","Snow,Blowing Snow"
"-96.08","64.30","BAKER LAKE A","2300503","2022-05-10 04:00","2022","05","10","04:00","-6.5","","-8.0","","89","","","","9","","35","","8.1","","100.95","","","","-16","","Freezing Rain,Snow"
"-96.08","64.30","BAKER LAKE A","2300503","2022-05-10 05:00","2022","05","10","05:00","-6.2","","-7.8","","89","","","","9","","24","","24.1","","101.00","","","","-14","","Freezing Rain,Snow"
"-96.08","64.30","BAKER LAKE A","2300503","2022-05-10 06:00","2022","05","10","06:00","-5.9","","-7.5","","88","","","","9","","30","","24.1","","100.96","","","","-14","","Snow"
"-96.08","64.30","BAKER LAKE A","2300503","2022-05-10 07:00","2022","05","10","07:00","-5.6","","-7.3","","87","","","","9","","26","","24.1","","100.96","","","","-13","","NA"
"-96.08","64.30","BAKER LAKE A","2300503","2022-05-10 08:00","2022","05","10","08:00","-5.2","","-7.0","","87","","","","10","","29","","24.1","","100.99","","","","-13","","NA"
"-96.08","64.30","BAKER LAKE A","2300503","2022-05-10 09:00","2022","05","10","09:00","-4.9","","-6.8","","86","","","","9","","29","","24.1","","100.97","","","","-13","","Cloudy"
"-96.08","64.30","BAKER LAKE A","2300503","2022-05-10 10:00","2022","05","10","10:00","-4.2","","-6.4","","85","","","","9","","26","","24.1","","100.98","","","","-11","","NA"
"-96.08","64.30","BAKER LAKE A","2300503","2022-05-10 11:00","2022","05","10","11:00","-3.8","","-6.1","","84","","","","9","","28","","24.1","","101.00","","","","-11","","NA"
"-96.08","64.30","BAKER LAKE A","2300503","2022-05-10 12:00","2022","05","10","12:00","-3.4","","-5.8","","84","","","","10","","27","","24.1","","101.02","","","","-11","","Cloudy"
"-96.08","64.30","BAKER LAKE A","2300503","2022-05-10 13:00","2022","05","10","13:00","-2.9","","-5.2","","84","","","","9","","25","","24.1","","101.01","","","","-10","","NA"
"-96.08","64.30","BAKER LAKE A","2300503","2022-05-10 14:00","2022","05","10","14:00","-2.7","","-5.4","","82","","","","8","","25","","24.1","","101.04","","","","-9","","NA"
"-96.08","64.30","BAKER LAKE A","2300503","2022-05-10 15:00","2022","05","10","15:00","-3.0","","-5.5","","83","","","","7","","29","","24.1","","101.05","","","","-10","","Cloudy"
"-96.08","64.30","BAKER LAKE A","2300503","2022-05-10 16:00","2022","05","10","16:00","-2.6","","-5.3","","82","","","","9","","27","","24.1","","101.07","","","","-10","","NA"
"-96.08","64.30","BAKER LAKE A","2300503","2022-05-10 17:00","2022","05","10","17:00","-2.5","","-5.3","","82","","","","10","","24","","24.1","","101.11","","","","-9","","NA"
"-96.08","64.30","BAKER LAKE A","2300503","2022-05-10 18:00","2022","05","10","18:00","-2.8","","-5.4","","82","","","","9","","21","","32.2","","101.11","","","","-9","","Cloudy"
"-96.08","64.30","BAKER LAKE A","2300503","2022-05-10 19:00","2022","05","10","19:00","-2.9","","-5.4","","83","","","","9","","19","","32.2","","101.13","","","","-9","","NA"
"-96.08","64.30","BAKER LAKE A","2300503","2022-05-10 20:00","2022","05","10","20:00","-3.0","","-5.3","","84","","","","10","","17","","32.2","","101.18","","","","-9","","NA"
"-96.08","64.30","BAKER LAKE A","2300503","2022-05-10 21:00","2022","05","10","21:00","-3.2","","-5.3","","85","","","","10","","14","","32.2","","101.19","","","","-8","","Mostly Cloudy"
"-96.08","64.30","BAKER LAKE A","2300503","2022-05-10 22:00","2022","05","10","22:00","-3.3","","-5.4","","86","","","","8","","17","","32.2","","101.16","","","","-9","","NA"
"-96.08","64.30","BAKER LAKE A","2300503","2022-05-10 23:00","2022","05","10","23:00","-3.5","","-5.3","","87","","","","10","","14","","24.1","","101.23","","","","-9","","Snow"
"-96.08","64.30","BAKER LAKE A","2300503","2022-05-11 00:00","2022","05","11","00:00","-4.0","","-5.5","","90","","","","13","","12","","1.6","","101.31","","","","-9","","Snow"
"-96.08","64.30","BAKER LAKE A","2300503","2022-05-11 01:00","2022","05","11","01:00","-4.3","","-5.4","","92","","","","11","","11","","6.4","","101.32","","","","-9","","Snow"
"-96.08","64.30","BAKER LAKE A","2300503","2022-05-11 02:00","2022","05","11","02:00","-4.5","","-5.4","","93","","","","9","","15","","8.1","","101.32","","","","-10","","Snow"
"-96.08","64.30","BAKER LAKE A","2300503","2022-05-11 03:00","2022","05","11","03:00","-4.4","","-5.7","","91","","","","9","","17","","24.1","","101.32","","","","-10","","Snow"
"-96.08","64.30","BAKER LAKE A","2300503","2022-05-11 04:00","2022","05","11","04:00","-4.6","","-5.9","","91","","","","8","","17","","24.1","","101.32","","","","-10","","Snow"
"-96.08","64.30","BAKER LAKE A","2300503","2022-05-11 05:00","2022","05","11","05:00","-4.8","","-5.8","","93","","","","10","","19","","1.0","","101.35","","","","-11","","Snow"
"-96.08","64.30","BAKER LAKE A","2300503","2022-05-11 06:00","2022","05","11","06:00","-4.7","","-5.9","","92","","","","10","","19","","16.1","","101.39","","","","-11","","Snow"
"-96.08","64.30","BAKER LAKE A","2300503","2022-05-11 07:00","2022","05","11","07:00","-4.4","","-5.6","","92","","","","10","","17","","16.1","","101.43","","","","-10","","NA"
"-96.08","64.30","BAKER LAKE A","2300503","2022-05-11 08:00","2022","05","11","08:00","-4.1","","-5.6","","89","","","","10","","21","","24.1","","101.44","","","","-11","","NA"
"-96.08","64.30","BAKER LAKE A","2300503","2022-05-11 09:00","2022","05","11","09:00","-3.7","","-5.8","","85","","","","11","","22","","24.1","","101.46","","","","-10","","Cloudy"
"-96.08","64.30","BAKER LAKE A","2300503","2022-05-11 10:00","2022","05","11","10:00","-3.8","","-5.3","","90","","","","11","","23","","16.1","","101.47","","","","-11","","NA"
"-96.08","64.30","BAKER LAKE A","2300503","2022-05-11 11:00","2022","05","11","11:00","-3.4","","-4.9","","89","","","","11","","23","","16.1","","101.49","","","","-10","","NA"
"-96.08","64.30","BAKER LAKE A","2300503","2022-05-11 12:00","2022","05","11","12:00","-2.9","","-4.9","","86","","","","9","","25","","24.1","","101.49","","","","-10","","Cloudy"
"-96.08","64.30","BAKER LAKE A","2300503","2022-05-11 13:00","2022","05","11","13:00","-2.6","","-4.9","","84","","","","10","","28","","24.1","","101.53","","","","-10","","NA"
"-96.08","64.30","BAKER LAKE A","2300503","2022-05-11 14:00","2022","05","11","14:00","-2.1","","-4.3","","85","","","","11","","28","","24.1","","101.55","","","","-9","","NA"
"-96.08","64.30","BAKER LAKE A","2300503","2022-05-11 15:00","2022","05","11","15:00","-2.7","","-4.7","","86","","","","8","","25","","24.1","","101.56","","","","-9","","Cloudy"
"-96.08","64.30","BAKER LAKE A","2300503","2022-05-11 16:00","2022","05","11","16:00","-3.1","","-5.0","","87","","","","10","","26","","24.1","","101.59","","","","-10","","NA"
"-96.08","64.30","BAKER LAKE A","2300503","2022-05-11 17:00","2022","05","11","17:00","-3.4","","-5.3","","86","","","","9","","27","","16.1","","101.58","","","","-11","","Snow"
"-96.08","64.30","BAKER LAKE A","2300503","2022-05-11 18:00","2022","05","11","18:00","-3.3","","-4.6","","91","","","","8","","23","","6.4","","101.55","","","","-10","","Snow"
"-96.08","64.30","BAKER LAKE A","2300503","2022-05-11 19:00","2022","05","11","19:00","-3.0","","-4.2","","91","","","","8","","28","","16.1","","101.51","","","","-10","","Snow"
"-96.08","64.30","BAKER LAKE A","2300503","2022-05-11 20:00","2022","05","11","20:00","-2.9","","-4.1","","92","","","","8","","30","","16.1","","101.49","","","","-10","","Freezing Drizzle,Blowing Snow"
"-96.08","64.30","BAKER LAKE A","2300503","2022-05-11 21:00","2022","05","11","21:00","-2.8","","-3.8","","93","","","","8","","30","","12.9","","101.50","","","","-10","","Freezing Drizzle,Blowing Snow"
"-96.08","64.30","BAKER LAKE A","2300503","2022-05-11 22:00","2022","05","11","22:00","-2.6","","-3.4","","95","","","","8","","32","","4.8","","101.49","","","","-10","","Freezing Drizzle,Blowing Snow"
"-96.08","64.30","BAKER LAKE A","2300503","2022-05-11 23:00","2022","05","11","23:00","-2.4","","-3.1","","95","","","","8","","29","","4.8","","101.51","","","","-9","","Freezing Drizzle,Blowing Snow"
"-96.08","64.30","BAKER LAKE A","2300503","2022-05-12 00:00","2022","05","12","00:00","-2.3","","-3.1","","94","","","","8","","28","","8.1","","101.50","","","","-9","","Snow,Blowing Snow"
"-96.08","64.30","BAKER LAKE A","2300503","2022-05-12 01:00","2022","05","12","01:00","-2.3","","-3.2","","94","","","","7","","25","","8.1","","101.51","","","","-9","","Freezing Drizzle"
"-96.08","64.30","BAKER LAKE A","2300503","2022-05-12 02:00","2022","05","12","02:00","-2.5","","-3.3","","94","","","","6","","20","","8.1","","101.54","","","","-8","","Freezing Drizzle"
"-96.08","64.30","BAKER LAKE A","2300503","2022-05-12 03:00","2022","05","12","03:00","-2.7","","-3.5","","94","","","","5","","18","","9.7","","101.53","","","","-8","","Freezing Drizzle"
"-96.08","64.30","BAKER LAKE A","2300503","2022-05-12 04:00","2022","05","12","04:00","-2.8","","-3.9","","92","","","","6","","19","","6.4","","101.55","","","","-9","","Snow"
"-96.08","64.30","BAKER LAKE A","2300503","2022-05-12 05:00","2022","05","12","05:00","-2.9","","-4.2","","91","","","","5","","20","","16.1","","101.55","","","","-9","","Snow"
"-96.08","64.30","BAKER LAKE A","2300503","2022-05-12 06:00","2022","05","12","06:00","-2.9","","-4.2","","90","","","","5","","14","","16.1","","101.59","","","","-8","","Snow"
"-96.08","64.30","BAKER LAKE A","2300503","2022-05-12 07:00","2022","05","12","07:00","-2.7","","-4.3","","89","","","","3","","13","","24.1","","101.65","","","","-7","","NA"
"-96.08","64.30","BAKER LAKE A","2300503","2022-05-12 08:00","2022","05","12","08:00","-2.5","","-4.2","","88","","","","36","","14","","24.1","","101.67","","","","-7","","NA"
"-96.08","64.30","BAKER LAKE A","2300503","2022-05-12 09:00","2022","05","12","09:00","-2.4","","-4.3","","86","","","","1","","18","","24.1","","101.68","","","","-8","","Cloudy"
"-96.08","64.30","BAKER LAKE A","2300503","2022-05-12 10:00","2022","05","12","10:00","-2.0","","-4.2","","85","","","","1","","17","","24.1","","101.72","","","","-7","","NA"
"-96.08","64.30","BAKER LAKE A","2300503","2022-05-12 11:00","2022","05","12","11:00","-1.8","","-4.2","","84","","","","1","","21","","24.1","","101.75","","","","-8","","NA"
"-96.08","64.30","BAKER LAKE A","2300503","2022-05-12 12:00","2022","05","12","12:00","-1.3","","-3.8","","83","","","","1","","21","","24.1","","101.80","","","","-7","","Cloudy"
"-96.08","64.30","BAKER LAKE A","2300503","2022-05-12 13:00","2022","05","12","13:00","-1.0","","-3.6","","83","","","","36","","19","","24.1","","101.85","","","","-6","","NA"
"-96.08","64.30","BAKER LAKE A","2300503","2022-05-12 14:00","2022","05","12","14:00","-0.8","","-3.6","","81","","","","36","","23","","24.1","","101.91","","","","-7","","NA"
"-96.08","64.30","BAKER LAKE A","2300503","2022-05-12 15:00","2022","05","12","15:00","-0.8","","-3.7","","81","","","","35","","21","","24.1","","101.93","","","","-6","","Cloudy"
"-96.08","64.30","BAKER LAKE A","2300503","2022-05-12 16:00","2022","05","12","16:00","-0.7","","-3.6","","81","","","","36","","20","","32.2","","101.98","","","","-6","","NA"
"-96.08","64.30","BAKER LAKE A","2300503","2022-05-12 17:00","2022","05","12","17:00","-1.1","","-4.2","","80","","","","35","","24","","32.2","","102.00","","","","-7","","NA"
"-96.08","64.30","BAKER LAKE A","2300503","2022-05-12 18:00","2022","05","12","18:00","-2.0","","-5.3","","78","","","","34","","20","","32.2","","102.04","","","","-8","","Mostly Cloudy"
"-96.08","64.30","BAKER LAKE A","2300503","2022-05-12 19:00","2022","05","12","19:00","-2.8","","-5.8","","80","","","","33","","20","","32.2","","102.08","","","","-9","","NA"
"-96.08","64.30","BAKER LAKE A","2300503","2022-05-12 20:00","2022","05","12","20:00","-2.8","","-6.1","","78","","","","33","","27","","40.2","","102.10","","","","-10","","NA"
"-96.08","64.30","BAKER LAKE A","2300503","2022-05-12 21:00","2022","05","12","21:00","-6.0","","-9.2","","78","","","","33","","26","","40.2","","102.14","","","","-14","","Mainly Clear"
"-96.08","64.30","BAKER LAKE A","2300503","2022-05-12 22:00","2022","05","12","22:00","-6.6","","-10.3","","75","","","","32","","25","","40.2","","102.20","","","","-14","","NA"
"-96.08","64.30","BAKER LAKE A","2300503","2022-05-12 23:00","2022","05","12","23:00","-8.6","","-11.7","","78","","","","30","","28","","24.1","","102.25","","","","-17","","NA"
"-96.08","64.30","BAKER LAKE A","2300503","2022-05-13 00:00","2022","05","13","00:00","-9.0","","-12.3","","77","","","","30","","28","","24.1","","102.28","","","","-18","","Clear"
"-96.08","64.30","BAKER LAKE A","2300503","2022-05-13 01:00","2022","05","13","01:00","-9.7","","-13.1","","76","","","","30","","25","","24.1","","102.34","","","","-18","","NA"
"-96.08","64.30","BAKER LAKE A","2300503","2022-05-13 02:00","2022","05","13","02:00","-9.9","","-13.1","","78","","","","29","","23","","24.1","","102.37","","","","-18","","NA"
"-96.08","64.30","BAKER LAKE A","2300503","2022-05-13 03:00","2022","05","13","03:00","-10.0","","-14.1","","72","","","","32","","10","","40.2","","102.38","","","","-15","","Clear"
"-96.08","64.30","BAKER LAKE A","2300503","2022-05-13 04:00","2022","05","13","04:00","-10.0","","-13.1","","78","","","","36","","1","","40.2","","102.37","","","","-11","","NA"
"-96.08","64.30","BAKER LAKE A","2300503","2022-05-13 05:00","2022","05","13","05:00","-9.4","","-13.4","","73","","","","33","","14","","40.2","","102.43","","","","-16","","NA"
"-96.08","64.30","BAKER LAKE A","2300503","2022-05-13 06:00","2022","05","13","06:00","-11.2","","-14.0","","80","","","","36","","2","","40.2","","102.57","","","","-12","","Clear"
"-96.08","64.30","BAKER LAKE A","2300503","2022-05-13 07:00","2022","05","13","07:00","-11.1","","-14.0","","79","","","","36","","2","","40.2","","102.62","","","","-12","","NA"
"-96.08","64.30","BAKER LAKE A","2300503","2022-05-13 08:00","2022","05","13","08:00","-9.7","","-13.1","","77","","","","36","","2","","32.2","","102.61","","","","-11","","NA"
"-96.08","64.30","BAKER LAKE A","2300503","2022-05-13 09:00","2022","05","13","09:00","-8.3","","-11.7","","77","","","","19","","6","","32.2","","102.62","","","","-12","","Clear"
"-96.08","64.30","BAKER LAKE A","2300503","2022-05-13 10:00","2022","05","13","10:00","-5.8","","-8.8","","80","","","","33","","6","","32.2","","102.58","","","","-9","","NA"
"-96.08","64.30","BAKER LAKE A","2300503","2022-05-13 11:00","2022","05","13","11:00","-4.6","","-8.6","","74","","","","33","","5","","32.2","","102.56","","","","-7","","NA"
"-96.08","64.30","BAKER LAKE A","2300503","2022-05-13 12:00","2022","05","13","12:00","-4.0","","-7.7","","75","","","","22","","9","","32.2","","102.59","","","","-8","","Clear"
"-96.08","64.30","BAKER LAKE A","2300503","2022-05-13 13:00","2022","05","13","13:00","-3.2","","-7.2","","74","","","","11","","4","","32.2","","102.61","","","","-5","","NA"
"-96.08","64.30","BAKER LAKE A","2300503","2022-05-13 14:00","2022","05","13","14:00","-2.8","","-6.9","","74","","","","17","","5","","32.2","","102.64","","","","-5","","NA"
"-96.08","64.30","BAKER LAKE A","2300503","2022-05-13 15:00","2022","05","13","15:00","-2.8","","-7.2","","72","","","","18","","3","","32.2","","102.64","","","","-4","","Clear"
"-96.08","64.30","BAKER LAKE A","2300503","2022-05-13 16:00","2022","05","13","16:00","-2.8","","-7.8","","68","","","","12","","4","","32.2","","102.61","","","","-4","","NA"
"-96.08","64.30","BAKER LAKE A","2300503","2022-05-13 17:00","2022","05","13","17:00","-2.9","","-6.9","","74","","","","13","","5","","32.2","","102.58","","","","-5","","NA"
"-96.08","64.30","BAKER LAKE A","2300503","2022-05-13 18:00","2022","05","13","18:00","-3.3","","-6.9","","77","","","","18","","7","","32.2","","102.60","","","","-6","","Clear"
"-96.08","64.30","BAKER LAKE A","2300503","2022-05-13 19:00","2022","05","13","19:00","-4.0","","-6.9","","80","","","","19","","5","","32.2","","102.63","","","","-6","","NA"
"-96.08","64.30","BAKER LAKE A","2300503","2022-05-13 20:00","2022","05","13","20:00","-4.9","","-7.4","","83","","","","36","","2","","40.2","","102.62","","","","-6","","NA"
"-96.08","64.30","BAKER LAKE A","2300503","2022-05-13 21:00","2022","05","13","21:00","-6.6","","-8.3","","88","","","","34","","4","","40.2","","102.60","","","","-9","","Clear"
"-96.08","64.30","BAKER LAKE A","2300503","2022-05-13 22:00","2022","05","13","22:00","-6.7","","-8.4","","88","","","","36","","2","","40.2","","102.59","","","","-8","","NA"
"-96.08","64.30","BAKER LAKE A","2300503","2022-05-13 23:00","2022","05","13","23:00","-7.8","","-9.1","","90","","","","36","","3","","24.1","","102.57","","","","-9","","NA"
"-96.08","64.30","BAKER LAKE A","2300503","2022-05-14 00:00","2022","05","14","00:00","-7.8","","-9.4","","88","","","","5","","3","","24.1","","102.60","","","","-9","","Mainly Clear"
"-96.08","64.30","BAKER LAKE A","2300503","2022-05-14 01:00","2022","05","14","01:00","-8.6","","-10.2","","88","","","","3","","3","","24.1","","102.56","","","","-10","","NA"
"-96.08","64.30","BAKER LAKE A","2300503","2022-05-14 02:00","2022","05","14","02:00","-8.5","","-9.7","","91","","","","33","","4","","24.1","","102.55","","","","-11","","NA"
"-96.08","64.30","BAKER LAKE A","2300503","2022-05-14 03:00","2022","05","14","03:00","-11.0","","-12.3","","90","","","","35","","9","","40.2","","102.55","","","","-16","","Mainly Clear"
"-96.08","64.30","BAKER LAKE A","2300503","2022-05-14 04:00","2022","05","14","04:00","-10.4","","-11.7","","90","","","","36","","5","","40.2","","102.55","","","","-13","","NA"
"-96.08","64.30","BAKER LAKE A","2300503","2022-05-14 05:00","2022","05","14","05:00","-10.0","","-11.5","","88","","","","35","","6","","40.2","","102.55","","","","-14","","NA"
"-96.08","64.30","BAKER LAKE A","2300503","2022-05-14 06:00","2022","05","14","06:00","-8.8","","-10.2","","89","","","","1","","4","","40.2","","102.53","","","","-11","","Mostly Cloudy"
"-96.08","64.30","BAKER LAKE A","2300503","2022-05-14 07:00","2022","05","14","07:00","-7.8","","-10.0","","84","","","","5","","5","","40.2","","102.54","","","","-10","","NA"
"-96.08","64.30","BAKER LAKE A","2300503","2022-05-14 08:00","2022","05","14","08:00","-7.1","","-9.2","","85","","","","9","","13","","32.2","","102.53","","","","-13","","NA"
"-96.08","64.30","BAKER LAKE A","2300503","2022-05-14 09:00","2022","05","14","09:00","-6.4","","-7.8","","90","","","","9","","12","","16.1","","102.50","","","","-12","","Cloudy"
"-96.08","64.30","BAKER LAKE A","2300503","2022-05-14 10:00","2022","05","14","10:00","-6.3","","-7.8","","89","","","","10","","19","","32.2","","102.47","","","","-13","","NA"
"-96.08","64.30","BAKER LAKE A","2300503","2022-05-14 11:00","2022","05","14","11:00","-5.0","","-6.8","","87","","","","9","","20","","32.2","","102.44","","","","-12","","NA"
"-96.08","64.30","BAKER LAKE A","2300503","2022-05-14 12:00","2022","05","14","12:00","-3.9","","-6.2","","84","","","","10","","18","","32.2","","102.42","","","","-10","","Cloudy"
"-96.08","64.30","BAKER LAKE A","2300503","2022-05-14 13:00","2022","05","14","13:00","-2.5","","-5.6","","80","","","","10","","14","","32.2","","102.39","","","","-7","","NA"
"-96.08","64.30","BAKER LAKE A","2300503","2022-05-14 14:00","2022","05","14","14:00","-1.8","","-4.8","","80","","","","9","","17","","32.2","","102.34","","","","-7","","NA"
"-96.08","64.30","BAKER LAKE A","2300503","2022-05-14 15:00","2022","05","14","15:00","-1.0","","-4.5","","77","","","","10","","18","","32.2","","102.30","","","","-6","","Cloudy"
"-96.08","64.30","BAKER LAKE A","2300503","2022-05-14 16:00","2022","05","14","16:00","-0.7","","-4.5","","76","","","","9","","16","","32.2","","102.29","","","","-5","","NA"
"-96.08","64.30","BAKER LAKE A","2300503","2022-05-14 17:00","2022","05","14","17:00","-0.8","","-3.9","","79","","","","8","","12","","32.2","","102.27","","","","-5","","NA"
"-96.08","64.30","BAKER LAKE A","2300503","2022-05-14 18:00","2022","05","14","18:00","-1.5","","-4.5","","80","","","","7","","10","","32.2","","102.28","","","","-5","","Cloudy"
"-96.08","64.30","BAKER LAKE A","2300503","2022-05-14 19:00","2022","05","14","19:00","-1.6","","-4.5","","80","","","","6","","11","","32.2","","102.28","","","","-5","","NA"
"-96.08","64.30","BAKER LAKE A","2300503","2022-05-14 20:00","2022","05","14","20:00","-2.1","","-4.6","","83","","","","1","","13","","40.2","","102.23","","","","-7","","NA"
"-96.08","64.30","BAKER LAKE A","2300503","2022-05-14 21:00","2022","05","14","21:00","-3.1","","-5.0","","87","","","","7","","14","","40.2","","102.23","","","","-8","","Cloudy"
"-96.08","64.30","BAKER LAKE A","2300503","2022-05-14 22:00","2022","05","14","22:00","-3.2","","-5.1","","87","","","","5","","11","","40.2","","102.23","","","","-7","","NA"
"-96.08","64.30","BAKER LAKE A","2300503","2022-05-14 23:00","2022","05","14","23:00","-3.4","","-5.2","","87","","","","5","","7","","24.1","","102.21","","","","-6","","NA"
"-96.08","64.30","BAKER LAKE A","2300503","2022-05-15 00:00","2022","05","15","00:00","-3.1","","-4.9","","87","","","","3","","8","","24.1","","102.20","","","","-6","","Mostly Cloudy"
"-96.08","64.30","BAKER LAKE A","2300503","2022-05-15 01:00","2022","05","15","01:00","-3.6","","-5.6","","86","","","","4","","7","","24.1","","102.18","","","","-7","","NA"
"-96.08","64.30","BAKER LAKE A","2300503","2022-05-15 02:00","2022","05","15","02:00","-5.8","","-7.3","","89","","","","35","","13","","40.2","","102.18","","","","-11","","NA"
"-96.08","64.30","BAKER LAKE A","2300503","2022-05-15 03:00","2022","05","15","03:00","-6.3","","-7.8","","89","","","","35","","9","","40.2","","102.16","","","","-11","","Mostly Cloudy"
"-96.08","64.30","BAKER LAKE A","2300503","2022-05-15 04:00","2022","05","15","04:00","-5.6","","-7.2","","89","","","","36","","7","","40.2","","102.17","","","","-9","","NA"
"-96.08","64.30","BAKER LAKE A","2300503","2022-05-15 05:00","2022","05","15","05:00","-5.2","","-7.0","","87","","","","36","","16","","40.2","","102.16","","","","-11","","NA"
"-96.08","64.30","BAKER LAKE A","2300503","2022-05-15 06:00","2022","05","15","06:00","-6.1","","-8.2","","86","","","","33","","10","","40.2","","102.15","","","","-11","","Mostly Cloudy"
"-96.08","64.30","BAKER LAKE A","2300503","2022-05-15 07:00","2022","05","15","07:00","-5.5","","-7.6","","85","","","","35","","17","","40.2","","102.14","","","","-12","","NA"
"-96.08","64.30","BAKER LAKE A","2300503","2022-05-15 08:00","2022","05","15","08:00","-4.2","","-6.5","","84","","","","1","","13","","32.2","","102.14","","","","-9","","NA"
"-96.08","64.30","BAKER LAKE A","2300503","2022-05-15 09:00","2022","05","15","09:00","-3.1","","-5.7","","82","","","","1","","13","","32.2","","102.13","","","","-8","","Mainly Clear"
"-96.08","64.30","BAKER LAKE A","2300503","2022-05-15 10:00","2022","05","15","10:00","-2.2","","-5.1","","81","","","","1","","13","","32.2","","102.13","","","","-7","","NA"
"-96.08","64.30","BAKER LAKE A","2300503","2022-05-15 11:00","2022","05","15","11:00","-1.6","","-4.5","","81","","","","36","","12","","32.2","","102.12","","","","-6","","NA"
"-96.08","64.30","BAKER LAKE A","2300503","2022-05-15 12:00","2022","05","15","12:00","-1.1","","-4.4","","79","","","","35","","8","","32.2","","102.12","","","","-4","","Mainly Clear"
"-96.08","64.30","BAKER LAKE A","2300503","2022-05-15 13:00","2022","05","15","13:00","-0.4","","-3.3","","81","","","","36","","14","","32.2","","102.13","","","","-5","","NA"
"-96.08","64.30","BAKER LAKE A","2300503","2022-05-15 14:00","2022","05","15","14:00","-0.3","","-3.5","","79","","","","35","","16","","32.2","","102.10","","","","-5","","NA"
"-96.08","64.30","BAKER LAKE A","2300503","2022-05-15 15:00","2022","05","15","15:00","0.3","","-3.2","","78","","","","34","","17","","32.2","","102.08","","","","","","Mainly Clear"
"-96.08","64.30","BAKER LAKE A","2300503","2022-05-15 16:00","2022","05","15","16:00","0.2","","-3.0","","79","","","","33","","17","","32.2","","102.08","","","","","","NA"
"-96.08","64.30","BAKER LAKE A","2300503","2022-05-15 17:00","2022","05","15","17:00","0.5","","-3.2","","77","","","","33","","20","","32.2","","102.06","","","","","","NA"
"-96.08","64.30","BAKER LAKE A","2300503","2022-05-15 18:00","2022","05","15","18:00","-0.2","","-3.0","","82","","","","33","","24","","32.2","","102.04","","","","-6","","Mainly Clear"
"-96.08","64.30","BAKER LAKE A","2300503","2022-05-15 19:00","2022","05","15","19:00","-0.7","","-4.0","","78","","","","32","","26","","32.2","","102.03","","","","-7","","NA"
"-96.08","64.30","BAKER LAKE A","2300503","2022-05-15 20:00","2022","05","15","20:00","-0.7","","-2.8","","86","","","","33","","24","","32.2","","102.01","","","","-7","","NA"
"-96.08","64.30","BAKER LAKE A","2300503","2022-05-15 21:00","2022","05","15","21:00","0.0","","-2.1","","86","","","","34","","21","","32.2","","102.01","","","","-5","","Mostly Cloudy"
"-96.08","64.30","BAKER LAKE A","2300503","2022-05-15 22:00","2022","05","15","22:00","0.1","","-1.3","","90","","","","35","","22","","32.2","","102.00","","","","","","NA"
"-96.08","64.30","BAKER LAKE A","2300503","2022-05-15 23:00","2022","05","15","23:00","-0.2","","-1.4","","91","","","","35","","31","","24.1","","102.01","","","","-7","","NA"
"-96.08","64.30","BAKER LAKE A","2300503","2022-05-16 00:00","2022","05","16","00:00","-0.7","","-2.2","","90","","","","36","","25","","24.1","","101.99","","","","-7","","Snow"
"-96.08","64.30","BAKER LAKE A","2300503","2022-05-16 01:00","2022","05","16","01:00","-0.8","","-2.1","","90","","","","34","","27","","24.1","","101.97","","","","-7","","Snow"
"-96.08","64.30","BAKER LAKE A","2300503","2022-05-16 02:00","2022","05","16","02:00","-0.7","","-2.1","","90","","","","35","","23","","24.1","","102.01","","","","-7","","Snow"
"-96.08","64.30","BAKER LAKE A","2300503","2022-05-16 03:00","2022","05","16","03:00"
"-96.08","64.30","BAKER LAKE A","2300503","2022-05-16 04:00","2022","05","16","04:00"
"-96.08","64.30","BAKER LAKE A","2300503","2022-05-16 05:00","2022","05","16","05:00","-1.9","","-3.6","","88","","","","35","","29","","32.2","","102.07","","","","-9","","NA"
"-96.08","64.30","BAKER LAKE A","2300503","2022-05-16 06:00","2022","05","16","06:00","-2.3","","-4.3","","86","","","","35","","35","","32.2","","102.07","","","","-10","","Cloudy"
"-96.08","64.30","BAKER LAKE A","2300503","2022-05-16 07:00","2022","05","16","07:00","-2.5","","-4.6","","86","","","","35","","35","","32.2","","102.08","","","","-10","","NA"
"-96.08","64.30","BAKER LAKE A","2300503","2022-05-16 08:00","2022","05","16","08:00","-2.3","","-4.7","","84","","","","34","","32","","32.2","","102.09","","","","-10","","NA"
"-96.08","64.30","BAKER LAKE A","2300503","2022-05-16 09:00","2022","05","16","09:00","-2.5","","-5.0","","83","","","","35","","35","","32.2","","102.09","","","","-10","","Cloudy"
"-96.08","64.30","BAKER LAKE A","2300503","2022-05-16 10:00","2022","05","16","10:00","-2.8","","-5.1","","84","","","","34","","42","","32.2","","102.04","","","","-11","","NA"
"-96.08","64.30","BAKER LAKE A","2300503","2022-05-16 11:00","2022","05","16","11:00","-2.2","","-4.6","","84","","","","34","","37","","32.2","","102.05","","","","-10","","NA"
"-96.08","64.30","BAKER LAKE A","2300503","2022-05-16 12:00","2022","05","16","12:00","-1.2","","-3.7","","84","","","","35","","35","","32.2","","102.02","","","","-9","","Mostly Cloudy"
"-96.08","64.30","BAKER LAKE A","2300503","2022-05-16 13:00","2022","05","16","13:00","-0.9","","-3.5","","82","","","","35","","41","","32.2","","101.98","","","","-9","","NA"
"-96.08","64.30","BAKER LAKE A","2300503","2022-05-16 14:00","2022","05","16","14:00","-0.6","","-3.5","","81","","","","35","","42","","32.2","","101.98","","","","-8","","NA"
"-96.08","64.30","BAKER LAKE A","2300503","2022-05-16 15:00","2022","05","16","15:00","-0.1","","-2.9","","81","","","","35","","37","","32.2","","102.02","","","","-7","","Mostly Cloudy"
"-96.08","64.30","BAKER LAKE A","2300503","2022-05-16 16:00","2022","05","16","16:00","0.0","","-2.7","","82","","","","35","","35","","32.2","","102.02","","","","-7","","Snow"
"-96.08","64.30","BAKER LAKE A","2300503","2022-05-16 17:00","2022","05","16","17:00","0.4","","-2.4","","82","","","","35","","30","","32.2","","102.05","","","","","","NA"
"-96.08","64.30","BAKER LAKE A","2300503","2022-05-16 18:00","2022","05","16","18:00","0.6","","-2.4","","81","","","","36","","32","","32.2","","102.07","","","","","","Mostly Cloudy"
"-96.08","64.30","BAKER LAKE A","2300503","2022-05-16 19:00","2022","05","16","19:00","0.0","","-2.9","","81","","","","36","","30","","32.2","","102.08","","","","-6","","NA"
"-96.08","64.30","BAKER LAKE A","2300503","2022-05-16 20:00","2022","05","16","20:00","-0.7","","-4.1","","78","","","","36","","36","","32.2","","102.11","","","","-8","","NA"
"-96.08","64.30","BAKER LAKE A","2300503","2022-05-16 21:00","2022","05","16","21:00","-2.0","","-4.9","","81","","","","36","","30","","32.2","","102.10","","","","-9","","Mainly Clear"
"-96.08","64.30","BAKER LAKE A","2300503","2022-05-16 22:00","2022","05","16","22:00","-3.3","","-5.7","","84","","","","34","","29","","32.2","","102.14","","","","-11","","NA"
"-96.08","64.30","BAKER LAKE A","2300503","2022-05-16 23:00","2022","05","16","23:00","-2.5","","-5.1","","82","","","","36","","27","","24.1","","102.14","","","","-9","","NA"
"-96.08","64.30","BAKER LAKE A","2300503","2022-05-17 00:00","2022","05","17","00:00","-2.5","","-5.0","","83","","","","35","","26","","24.1","","102.15","","","","-9","","Cloudy"
"-96.08","64.30","BAKER LAKE A","2300503","2022-05-17 01:00","2022","05","17","01:00","-2.5","","-4.6","","86","","","","35","","27","","24.1","","102.16","","","","-9","","NA"
"-96.08","64.30","BAKER LAKE A","2300503","2022-05-17 02:00","2022","05","17","02:00","-2.4","","-4.3","","87","","","","35","","28","","24.1","","102.18","","","","-9","","NA"
"-96.08","64.30","BAKER LAKE A","2300503","2022-05-17 03:00","2022","05","17","03:00"
"-96.08","64.30","BAKER LAKE A","2300503","2022-05-17 04:00","2022","05","17","04:00","-3.4","","-6.0","","82","","","","36","","27","","32.2","","102.24","","","","-11","","NA"
"-96.08","64.30","BAKER LAKE A","2300503","2022-05-17 05:00","2022","05","17","05:00","-3.9","","-6.8","","80","","","","1","","29","","32.2","","102.26","","","","-11","","NA"
"-96.08","64.30","BAKER LAKE A","2300503","2022-05-17 06:00","2022","05","17","06:00","-3.8","","-6.9","","80","","","","36","","34","","32.2","","102.27","","","","-12","","Mostly Cloudy"
"-96.08","64.30","BAKER LAKE A","2300503","2022-05-17 07:00","2022","05","17","07:00","-3.0","","-6.4","","78","","","","36","","35","","32.2","","102.29","","","","-11","","NA"
"-96.08","64.30","BAKER LAKE A","2300503","2022-05-17 08:00","2022","05","17","08:00","-3.2","","-6.8","","76","","","","35","","34","","32.2","","102.31","","","","-11","","NA"
"-96.08","64.30","BAKER LAKE A","2300503","2022-05-17 09:00","2022","05","17","09:00","-3.5","","-7.0","","77","","","","35","","30","","32.2","","102.33","","","","-11","","Mostly Cloudy"
"-96.08","64.30","BAKER LAKE A","2300503","2022-05-17 10:00","2022","05","17","10:00","-3.3","","-7.3","","74","","","","36","","31","","32.2","","102.30","","","","-11","","NA"
"-96.08","64.30","BAKER LAKE A","2300503","2022-05-17 11:00","2022","05","17","11:00","-3.0","","-7.0","","74","","","","36","","32","","32.2","","102.28","","","","-11","","NA"
"-96.08","64.30","BAKER LAKE A","2300503","2022-05-17 12:00","2022","05","17","12:00","-2.4","","-5.9","","77","","","","36","","26","","32.2","","102.28","","","","-9","","Mostly Cloudy"
"-96.08","64.30","BAKER LAKE A","2300503","2022-05-17 13:00","2022","05","17","13:00","-2.4","","-6.2","","75","","","","36","","23","","32.2","","102.26","","","","-9","","NA"
"-96.08","64.30","BAKER LAKE A","2300503","2022-05-17 14:00","2022","05","17","14:00","-2.1","","-5.9","","75","","","","35","","30","","32.2","","102.24","","","","-9","","NA"
"-96.08","64.30","BAKER LAKE A","2300503","2022-05-17 15:00","2022","05","17","15:00","-1.9","","-6.0","","73","","","","36","","35","","32.2","","102.21","","","","-9","","Mostly Cloudy"
"-96.08","64.30","BAKER LAKE A","2300503","2022-05-17 16:00","2022","05","17","16:00","-1.7","","-5.7","","74","","","","36","","30","","32.2","","102.22","","","","-9","","NA"
"-96.08","64.30","BAKER LAKE A","2300503","2022-05-17 17:00","2022","05","17","17:00","-1.7","","-5.6","","75","","","","36","","30","","32.2","","102.19","","","","-9","","NA"
"-96.08","64.30","BAKER LAKE A","2300503","2022-05-17 18:00","2022","05","17","18:00","-1.9","","-5.5","","76","","","","36","","26","","32.2","","102.17","","","","-8","","Mostly Cloudy"
"-96.08","64.30","BAKER LAKE A","2300503","2022-05-17 19:00","2022","05","17","19:00","-2.4","","-5.3","","80","","","","1","","15","","32.2","","102.17","","","","-7","","NA"
"-96.08","64.30","BAKER LAKE A","2300503","2022-05-17 20:00","2022","05","17","20:00","-3.5","","-6.4","","80","","","","36","","22","","32.2","","102.14","","","","-10","","NA"
"-96.08","64.30","BAKER LAKE A","2300503","2022-05-17 21:00","2022","05","17","21:00","-4.4","","-7.3","","81","","","","36","","26","","32.2","","102.12","","","","-12","","Mainly Clear"
"-96.08","64.30","BAKER LAKE A","2300503","2022-05-17 22:00","2022","05","17","22:00","-5.8","","-8.2","","84","","","","35","","20","","32.2","","102.13","","","","-13","","NA"
"-96.08","64.30","BAKER LAKE A","2300503","2022-05-17 23:00","2022","05","17","23:00","-6.6","","-8.9","","84","","","","35","","19","","32.2","","102.12","","","","-13","","NA"
"-96.08","64.30","BAKER LAKE A","2300503","2022-05-18 00:00","2022","05","18","00:00","-7.2","","-9.6","","84","","","","35","","23","","32.2","","102.12","","","","-15","","Clear"
"-96.08","64.30","BAKER LAKE A","2300503","2022-05-18 01:00","2022","05","18","01:00","-6.7","","-8.8","","85","","","","36","","27","","24.1","","102.06","","","","-15","","NA"
"-96.08","64.30","BAKER LAKE A","2300503","2022-05-18 02:00","2022","05","18","02:00","-5.9","","-8.0","","85","","","","36","","25","","32.2","","102.04","","","","-13","","NA"
"-96.08","64.30","BAKER LAKE A","2300503","2022-05-18 03:00","2022","05","18","03:00","-5.3","","-7.6","","84","","","","36","","30","","32.2","","102.03","","","","-13","","Mostly Cloudy"
"-96.08","64.30","BAKER LAKE A","2300503","2022-05-18 04:00","2022","05","18","04:00","-4.9","","-7.5","","82","","","","36","","21","","32.2","","102.02","","","","-12","","NA"
"-96.08","64.30","BAKER LAKE A","2300503","2022-05-18 05:00","2022","05","18","05:00","-4.5","","-7.2","","81","","","","36","","25","","32.2","","101.98","","","","-12","","NA"
"-96.08","64.30","BAKER LAKE A","2300503","2022-05-18 06:00","2022","05","18","06:00","-4.4","","-7.1","","81","","","","36","","20","","32.2","","101.94","","","","-11","","Cloudy"
"-96.08","64.30","BAKER LAKE A","2300503","2022-05-18 07:00","2022","05","18","07:00","-3.7","","-7.0","","78","","","","35","","27","","32.2","","101.89","","","","-11","","NA"
"-96.08","64.30","BAKER LAKE A","2300503","2022-05-18 08:00","2022","05","18","08:00","-3.6","","-6.8","","78","","","","36","","36","","32.2","","101.83","","","","-12","","NA"
"-96.08","64.30","BAKER LAKE A","2300503","2022-05-18 09:00","2022","05","18","09:00","-3.4","","-7.0","","76","","","","36","","37","","32.2","","101.82","","","","-12","","Clear"
"-96.08","64.30","BAKER LAKE A","2300503","2022-05-18 10:00","2022","05","18","10:00","-2.5","","-6.0","","77","","","","36","","28","","32.2","","101.79","","","","-10","","NA"
"-96.08","64.30","BAKER LAKE A","2300503","2022-05-18 11:00","2022","05","18","11:00","-1.7","","-5.7","","74","","","","36","","30","","32.2","","101.76","","","","-9","","NA"
"-96.08","64.30","BAKER LAKE A","2300503","2022-05-18 12:00","2022","05","18","12:00","-0.5","","-4.4","","75","","","","36","","30","","32.2","","101.72","","","","-7","","Clear"
"-96.08","64.30","BAKER LAKE A","2300503","2022-05-18 13:00","2022","05","18","13:00","0.0","","-4.1","","74","","","","35","","32","","32.2","","101.64","","","","-7","","NA"
"-96.08","64.30","BAKER LAKE A","2300503","2022-05-18 14:00","2022","05","18","14:00","0.6","","-4.0","","71","","","","36","","35","","32.2","","101.61","","","","","","NA"
"-96.08","64.30","BAKER LAKE A","2300503","2022-05-18 15:00","2022","05","18","15:00","1.0","","-2.9","","75","","","","36","","29","","32.2","","101.61","","","","","","Clear"
"-96.08","64.30","BAKER LAKE A","2300503","2022-05-18 16:00","2022","05","18","16:00","0.9","","-3.0","","75","","","","35","","32","","32.2","","101.58","","","","","","NA"
"-96.08","64.30","BAKER LAKE A","2300503","2022-05-18 17:00","2022","05","18","17:00","0.9","","-2.7","","77","","","","36","","33","","32.2","","101.53","","","","","","NA"
"-96.08","64.30","BAKER LAKE A","2300503","2022-05-18 18:00","2022","05","18","18:00","0.6","","-2.7","","79","","","","35","","30","","32.2","","101.54","","","","","","Mainly Clear"
"-96.08","64.30","BAKER LAKE A","2300503","2022-05-18 19:00","2022","05","18","19:00","0.3","","-2.8","","80","","","","34","","25","","32.2","","101.52","","","","","","NA"
"-96.08","64.30","BAKER LAKE A","2300503","2022-05-18 20:00","2022","05","18","20:00","-0.6","","-3.4","","81","","","","36","","31","","32.2","","101.49","","","","-7","","NA"
"-96.08","64.30","BAKER LAKE A","2300503","2022-05-18 21:00","2022","05","18","21:00","-1.4","","-4.1","","82","","","","36","","24","","32.2","","101.48","","","","-8","","Mostly Cloudy"
"-96.08","64.30","BAKER LAKE A","2300503","2022-05-18 22:00","2022","05","18","22:00","-2.2","","-4.9","","82","","","","36","","27","","32.2","","101.46","","","","-9","","NA"
"-96.08","64.30","BAKER LAKE A","2300503","2022-05-18 23:00","2022","05","18","23:00","-3.0","","-5.3","","84","","","","36","","29","","32.2","","101.42","","","","-10","","NA"
"-96.08","64.30","BAKER LAKE A","2300503","2022-05-19 00:00","2022","05","19","00:00","-3.5","","-5.8","","84","","","","36","","31","","24.1","","101.39","","","","-11","","Mostly Cloudy"
"-96.08","64.30","BAKER LAKE A","2300503","2022-05-19 01:00","2022","05","19","01:00"
"-96.08","64.30","BAKER LAKE A","2300503","2022-05-19 02:00","2022","05","19","02:00","-4.7","","-6.7","","86","","","","35","","32","","32.2","","101.37","","","","-13","","NA"
"-96.08","64.30","BAKER LAKE A","2300503","2022-05-19 03:00","2022","05","19","03:00"
"-96.08","64.30","BAKER LAKE A","2300503","2022-05-19 04:00","2022","05","19","04:00"
"-96.08","64.30","BAKER LAKE A","2300503","2022-05-19 05:00","2022","05","19","05:00","-5.9","","-8.5","","82","","","","35","","33","","32.2","","101.39","","","","-15","","NA"
"-96.08","64.30","BAKER LAKE A","2300503","2022-05-19 06:00","2022","05","19","06:00","-5.7","","-8.6","","80","","","","35","","37","","32.2","","101.38","","","","-15","","Mostly Cloudy"
"-96.08","64.30","BAKER LAKE A","2300503","2022-05-19 07:00","2022","05","19","07:00","-5.2","","-8.7","","77","","","","35","","41","","32.2","","101.37","","","","-14","","NA"
"-96.08","64.30","BAKER LAKE A","2300503","2022-05-19 08:00","2022","05","19","08:00","-4.7","","-8.2","","77","","","","35","","39","","40.2","","101.37","","","","-14","","NA"
"-96.08","64.30","BAKER LAKE A","2300503","2022-05-19 09:00","2022","05","19","09:00","-4.0","","-7.6","","76","","","","35","","45","","40.2","","101.36","","","","-13","","Mostly Cloudy"
"-96.08","64.30","BAKER LAKE A","2300503","2022-05-19 10:00","2022","05","19","10:00","-2.9","","-7.1","","73","","","","35","","43","","40.2","","101.36","","","","-12","","NA"
"-96.08","64.30","BAKER LAKE A","2300503","2022-05-19 11:00","2022","05","19","11:00","-1.5","","-6.4","","69","","","","36","","45","","40.2","","101.34","","","","-10","","NA"
"-96.08","64.30","BAKER LAKE A","2300503","2022-05-19 12:00","2022","05","19","12:00","-0.5","","-6.2","","65","","","","36","","46","","40.2","","101.40","","","","-9","","Mostly Cloudy"
"-96.08","64.30","BAKER LAKE A","2300503","2022-05-19 13:00","2022","05","19","13:00","0.5","","-4.4","","70","","","","36","","39","","40.2","","101.41","","","","","","NA"
"-96.08","64.30","BAKER LAKE A","2300503","2022-05-19 14:00","2022","05","19","14:00","1.1","","-3.8","","70","","","","36","","39","","40.2","","101.44","","","","","","NA"
"-96.08","64.30","BAKER LAKE A","2300503","2022-05-19 15:00","2022","05","19","15:00","1.3","","-3.6","","70","","","","35","","36","","40.2","","101.47","","","","","","Mostly Cloudy"
"-96.08","64.30","BAKER LAKE A","2300503","2022-05-19 16:00","2022","05","19","16:00","1.4","","-3.6","","69","","","","36","","40","","40.2","","101.48","","","","","","NA"
"-96.08","64.30","BAKER LAKE A","2300503","2022-05-19 17:00","2022","05","19","17:00","0.9","","-3.8","","71","","","","36","","40","","40.2","","101.51","","","","","","NA"
"-96.08","64.30","BAKER LAKE A","2300503","2022-05-19 18:00","2022","05","19","18:00","1.0","","-3.6","","71","","","","36","","41","","40.2","","101.53","","","","","","Mostly Cloudy"
"-96.08","64.30","BAKER LAKE A","2300503","2022-05-19 19:00","2022","05","19","19:00","0.3","","-3.4","","77","","","","35","","34","","40.2","","101.56","","","","","","NA"
"-96.08","64.30","BAKER LAKE A","2300503","2022-05-19 20:00","2022","05","19","20:00","-0.7","","-3.5","","81","","","","35","","43","","32.2","","101.57","","","","-9","","NA"
"-96.08","64.30","BAKER LAKE A","2300503","2022-05-19 21:00","2022","05","19","21:00","-1.9","","-4.4","","83","","","","35","","42","","32.2","","101.61","","","","-10","","Mostly Cloudy"
"-96.08","64.30","BAKER LAKE A","2300503","2022-05-19 22:00","2022","05","19","22:00","-2.8","","-5.4","","83","","","","35","","41","","32.2","","101.61","","","","-11","","NA"
"-96.08","64.30","BAKER LAKE A","2300503","2022-05-19 23:00","2022","05","19","23:00","-3.6","","-6.2","","82","","","","35","","48","","32.2","","101.59","","","","-13","","NA"
"-96.08","64.30","BAKER LAKE A","2300503","2022-05-20 00:00","2022","05","20","00:00","-4.0","","-6.8","","81","","","","35","","48","","24.1","","101.56","","","","-13","","Mainly Clear"
"-96.08","64.30","BAKER LAKE A","2300503","2022-05-20 01:00","2022","05","20","01:00","-4.7","","-7.8","","80","","","","35","","44","","32.2","","101.58","","","","-14","","NA"
"-96.08","64.30","BAKER LAKE A","2300503","2022-05-20 02:00","2022","05","20","02:00","-5.6","","-8.2","","82","","","","35","","38","","32.2","","101.59","","","","-15","","NA"
"-96.08","64.30","BAKER LAKE A","2300503","2022-05-20 03:00","2022","05","20","03:00","-6.0","","-8.0","","86","","","","35","","47","","32.2","","101.58","","","","-16","","Mostly Cloudy"
"-96.08","64.30","BAKER LAKE A","2300503","2022-05-20 04:00","2022","05","20","04:00","-5.1","","-7.0","","86","","","","35","","45","","32.2","","101.60","","","","-15","","NA"
"-96.08","64.30","BAKER LAKE A","2300503","2022-05-20 05:00","2022","05","20","05:00"
"-96.08","64.30","BAKER LAKE A","2300503","2022-05-20 06:00","2022","05","20","06:00","-4.2","","-7.5","","78","","","","36","","52","","32.2","","101.55","","","","-14","","Mostly Cloudy"
"-96.08","64.30","BAKER LAKE A","2300503","2022-05-20 07:00","2022","05","20","07:00","-3.6","","-7.5","","74","","","","35","","54","","32.2","","101.56","","","","-13","","NA"
"-96.08","64.30","BAKER LAKE A","2300503","2022-05-20 08:00","2022","05","20","08:00","-3.3","","-8.0","","70","","","","36","","48","","40.2","","101.55","","","","-12","","NA"
"-96.08","64.30","BAKER LAKE A","2300503","2022-05-20 09:00","2022","05","20","09:00","-2.8","","-7.8","","68","","","","35","","48","","40.2","","101.56","","","","-12","","Mainly Clear"
"-96.08","64.30","BAKER LAKE A","2300503","2022-05-20 10:00","2022","05","20","10:00","-2.2","","-8.0","","65","","","","35","","49","","40.2","","101.58","","","","-11","","NA"
"-96.08","64.30","BAKER LAKE A","2300503","2022-05-20 11:00","2022","05","20","11:00","-1.6","","-7.5","","64","","","","36","","44","","40.2","","101.61","","","","-10","","NA"
"-96.08","64.30","BAKER LAKE A","2300503","2022-05-20 12:00","2022","05","20","12:00","-1.2","","-7.5","","62","","","","36","","45","","40.2","","101.57","","","","-9","","Mainly Clear"
"-96.08","64.30","BAKER LAKE A","2300503","2022-05-20 13:00","2022","05","20","13:00","-1.0","","-7.6","","61","","","","35","","48","","40.2","","101.56","","","","-9","","NA"
"-96.08","64.30","BAKER LAKE A","2300503","2022-05-20 14:00","2022","05","20","14:00","-0.6","","-6.4","","65","","","","35","","46","","40.2","","101.56","","","","-9","","NA"
"-96.08","64.30","BAKER LAKE A","2300503","2022-05-20 15:00","2022","05","20","15:00","-0.8","","-5.7","","69","","","","35","","42","","40.2","","101.56","","","","-9","","Mainly Clear"
"-96.08","64.30","BAKER LAKE A","2300503","2022-05-20 16:00","2022","05","20","16:00","-1.5","","-6.6","","68","","","","35","","45","","40.2","","101.53","","","","-10","","NA"
"-96.08","64.30","BAKER LAKE A","2300503","2022-05-20 17:00","2022","05","20","17:00","-2.2","","-6.2","","74","","","","35","","40","","40.2","","101.48","","","","-10","","NA"
"-96.08","64.30","BAKER LAKE A","2300503","2022-05-20 18:00","2022","05","20","18:00","-2.9","","-7.0","","73","","","","35","","47","","40.2","","101.47","","","","-12","","Mainly Clear"
"-96.08","64.30","BAKER LAKE A","2300503","2022-05-20 19:00","2022","05","20","19:00","-3.6","","-7.6","","74","","","","35","","46","","40.2","","101.46","","","","-13","","NA"
"-96.08","64.30","BAKER LAKE A","2300503","2022-05-20 20:00","2022","05","20","20:00","-4.1","","-7.2","","79","","","","35","","35","","32.2","","101.44","","","","-12","","NA"
"-96.08","64.30","BAKER LAKE A","2300503","2022-05-20 21:00","2022","05","20","21:00","-5.4","","-8.1","","82","","","","34","","35","","32.2","","101.43","","","","-14","","Clear"
"-96.08","64.30","BAKER LAKE A","2300503","2022-05-20 22:00","2022","05","20","22:00","-6.5","","-8.8","","84","","","","34","","35","","32.2","","101.41","","","","-16","","NA"
"-96.08","64.30","BAKER LAKE A","2300503","2022-05-20 23:00","2022","05","20","23:00","-7.5","","-9.8","","84","","","","33","","35","","32.2","","101.39","","","","-17","","NA"
"-96.08","64.30","BAKER LAKE A","2300503","2022-05-21 00:00","2022","05","21","00:00","-8.0","","-10.4","","83","","","","33","","38","","24.1","","101.35","","","","-18","","Clear"
"-96.08","64.30","BAKER LAKE A","2300503","2022-05-21 01:00","2022","05","21","01:00","-8.4","","-11.0","","81","","","","34","","39","","24.1","","101.30","","","","-19","","NA"
"-96.08","64.30","BAKER LAKE A","2300503","2022-05-21 02:00","2022","05","21","02:00","-9.2","","-11.8","","81","","","","33","","37","","32.2","","101.29","","","","-19","","NA"
"-96.08","64.30","BAKER LAKE A","2300503","2022-05-21 03:00","2022","05","21","03:00","-9.2","","-11.9","","81","","","","34","","37","","32.2","","101.26","","","","-19","","Mainly Clear"
"-96.08","64.30","BAKER LAKE A","2300503","2022-05-21 04:00","2022","05","21","04:00","-9.4","","-12.3","","79","","","","34","","40","","32.2","","101.24","","","","-20","","NA"
"-96.08","64.30","BAKER LAKE A","2300503","2022-05-21 05:00","2022","05","21","05:00","-8.8","","-12.2","","77","","","","33","","35","","32.2","","101.23","","","","-19","","NA"
"-96.08","64.30","BAKER LAKE A","2300503","2022-05-21 06:00","2022","05","21","06:00","-7.5","","-11.4","","74","","","","33","","32","","32.2","","101.27","","","","-17","","Mainly Clear"
"-96.08","64.30","BAKER LAKE A","2300503","2022-05-21 07:00","2022","05","21","07:00","-6.8","","-10.8","","73","","","","34","","36","","32.2","","101.25","","","","-16","","NA"
"-96.08","64.30","BAKER LAKE A","2300503","2022-05-21 08:00","2022","05","21","08:00","-5.3","","-9.6","","72","","","","33","","23","","40.2","","101.27","","","","-12","","NA"
"-96.08","64.30","BAKER LAKE A","2300503","2022-05-21 09:00","2022","05","21","09:00","-4.9","","-9.5","","70","","","","34","","36","","40.2","","101.24","","","","-14","","Mostly Cloudy"
"-96.08","64.30","BAKER LAKE A","2300503","2022-05-21 10:00","2022","05","21","10:00","-4.1","","-8.5","","71","","","","33","","25","","40.2","","101.24","","","","-11","","NA"
"-96.08","64.30","BAKER LAKE A","2300503","2022-05-21 11:00","2022","05","21","11:00","-2.6","","-7.6","","69","","","","34","","26","","40.2","","101.27","","","","-9","","NA"
"-96.08","64.30","BAKER LAKE A","2300503","2022-05-21 12:00","2022","05","21","12:00","-2.3","","-7.5","","67","","","","33","","21","","40.2","","101.26","","","","-8","","Mostly Cloudy"
"-96.08","64.30","BAKER LAKE A","2300503","2022-05-21 13:00","2022","05","21","13:00","-1.4","","-6.8","","67","","","","33","","23","","40.2","","101.25","","","","-7","","NA"
"-96.08","64.30","BAKER LAKE A","2300503","2022-05-21 14:00","2022","05","21","14:00","-1.6","","-6.7","","68","","","","33","","22","","40.2","","101.27","","","","-8","","NA"
"-96.08","64.30","BAKER LAKE A","2300503","2022-05-21 15:00","2022","05","21","15:00","-1.2","","-7.1","","64","","","","33","","25","","40.2","","101.27","","","","-7","","Mostly Cloudy"
"-96.08","64.30","BAKER LAKE A","2300503","2022-05-21 16:00","2022","05","21","16:00","-1.3","","-6.3","","69","","","","33","","24","","40.2","","101.26","","","","-7","","NA"
"-96.08","64.30","BAKER LAKE A","2300503","2022-05-21 17:00","2022","05","21","17:00","-1.2","","-5.8","","71","","","","33","","22","","40.2","","101.27","","","","-7","","NA"
"-96.08","64.30","BAKER LAKE A","2300503","2022-05-21 18:00","2022","05","21","18:00","-1.4","","-6.5","","68","","","","35","","16","","40.2","","101.29","","","","-6","","Mainly Clear"
"-96.08","64.30","BAKER LAKE A","2300503","2022-05-21 19:00","2022","05","21","19:00","-2.4","","-7.0","","71","","","","35","","13","","40.2","","101.31","","","","-7","","NA"
"-96.08","64.30","BAKER LAKE A","2300503","2022-05-21 20:00","2022","05","21","20:00","-4.0","","-7.6","","76","","","","1","","5","","40.2","","101.30","","","","-6","","NA"
"-96.08","64.30","BAKER LAKE A","2300503","2022-05-21 21:00","2022","05","21","21:00","-5.8","","-8.9","","79","","","","34","","16","","32.2","","101.29","","","","-12","","Mainly Clear"
"-96.08","64.30","BAKER LAKE A","2300503","2022-05-21 22:00","2022","05","21","22:00","-6.5","","-9.3","","80","","","","35","","26","","32.2","","101.30","","","","-14","","NA"
"-96.08","64.30","BAKER LAKE A","2300503","2022-05-21 23:00","2022","05","21","23:00","-7.5","","-10.0","","82","","","","36","","23","","32.2","","101.29","","","","-15","","NA"
"-96.08","64.30","BAKER LAKE A","2300503","2022-05-22 00:00","2022","05","22","00:00","-7.9","","-11.5","","75","","","","35","","32","","24.1","","101.38","","","","-17","","Mostly Cloudy"
"-96.08","64.30","BAKER LAKE A","2300503","2022-05-22 01:00","2022","05","22","01:00","-9.0","","-12.2","","78","","","","36","","29","","24.1","","101.42","","","","-18","","NA"
"-96.08","64.30","BAKER LAKE A","2300503","2022-05-22 02:00","2022","05","22","02:00","-9.2","","-12.1","","80","","","","36","","18","","32.2","","101.48","","","","-16","","NA"
"-96.08","64.30","BAKER LAKE A","2300503","2022-05-22 03:00","2022","05","22","03:00","-10.9","","-13.4","","82","","","","34","","16","","32.2","","101.49","","","","-18","","Mainly Clear"
"-96.08","64.30","BAKER LAKE A","2300503","2022-05-22 04:00","2022","05","22","04:00","-12.0","","-15.2","","77","","","","35","","19","","32.2","","101.54","","","","-20","","NA"
"-96.08","64.30","BAKER LAKE A","2300503","2022-05-22 05:00","2022","05","22","05:00","-11.7","","-14.8","","78","","","","35","","13","","32.2","","101.60","","","","-18","","NA"
"-96.08","64.30","BAKER LAKE A","2300503","2022-05-22 06:00","2022","05","22","06:00","-11.0","","-14.7","","74","","","","33","","19","","32.2","","101.63","","","","-19","","Mainly Clear"
"-96.08","64.30","BAKER LAKE A","2300503","2022-05-22 07:00","2022","05","22","07:00","-9.4","","-14.0","","69","","","","35","","24","","32.2","","101.61","","","","-18","","NA"
"-96.08","64.30","BAKER LAKE A","2300503","2022-05-22 08:00","2022","05","22","08:00","-9.3","","-13.7","","71","","","","36","","22","","32.2","","101.63","","","","-17","","NA"
"-96.08","64.30","BAKER LAKE A","2300503","2022-05-22 09:00","2022","05","22","09:00","-8.5","","-13.3","","68","","","","36","","28","","16.1","","101.64","","","","-17","","Snow"
"-96.08","64.30","BAKER LAKE A","2300503","2022-05-22 10:00","2022","05","22","10:00","-8.2","","-13.6","","66","","","","35","","28","","24.1","","101.65","","","","-17","","Snow"
"-96.08","64.30","BAKER LAKE A","2300503","2022-05-22 11:00","2022","05","22","11:00","-8.0","","-13.3","","66","","","","35","","27","","24.1","","101.65","","","","-16","","Snow"
"-96.08","64.30","BAKER LAKE A","2300503","2022-05-22 12:00","2022","05","22","12:00","-7.6","","-13.2","","64","","","","35","","22","","24.1","","101.66","","","","-15","","Snow"
"-96.08","64.30","BAKER LAKE A","2300503","2022-05-22 13:00","2022","05","22","13:00","-7.4","","-12.6","","66","","","","35","","22","","24.1","","101.68","","","","-15","","Snow"
"-96.08","64.30","BAKER LAKE A","2300503","2022-05-22 14:00","2022","05","22","14:00","-7.3","","-12.2","","68","","","","33","","23","","24.1","","101.69","","","","-15","","Snow"
"-96.08","64.30","BAKER LAKE A","2300503","2022-05-22 15:00","2022","05","22","15:00","-7.2","","-12.6","","66","","","","34","","21","","16.1","","101.69","","","","-15","","Snow"
"-96.08","64.30","BAKER LAKE A","2300503","2022-05-22 16:00","2022","05","22","16:00","-7.2","","-12.8","","65","","","","35","","24","","24.1","","101.70","","","","-15","","Snow"
"-96.08","64.30","BAKER LAKE A","2300503","2022-05-22 17:00","2022","05","22","17:00","-7.5","","-12.3","","68","","","","34","","24","","16.1","","101.69","","","","-15","","Snow"
"-96.08","64.30","BAKER LAKE A","2300503","2022-05-22 18:00","2022","05","22","18:00","-7.6","","-12.5","","68","","","","33","","21","","24.1","","101.70","","","","-15","","Snow"
"-96.08","64.30","BAKER LAKE A","2300503","2022-05-22 19:00","2022","05","22","19:00","-8.0","","-12.6","","70","","","","34","","18","","24.1","","101.70","","","","-15","","Snow"
"-96.08","64.30","BAKER LAKE A","2300503","2022-05-22 20:00","2022","05","22","20:00","-8.5","","-13.2","","69","","","","33","","14","","32.2","","101.74","","","","-15","","Snow"
"-96.08","64.30","BAKER LAKE A","2300503","2022-05-22 21:00","2022","05","22","21:00","-8.8","","-12.8","","72","","","","33","","14","","24.1","","101.73","","","","-15","","Snow"
"-96.08","64.30","BAKER LAKE A","2300503","2022-05-22 22:00","2022","05","22","22:00","-9.1","","-14.1","","67","","","","32","","17","","24.1","","101.74","","","","-16","","Snow"
"-96.08","64.30","BAKER LAKE A","2300503","2022-05-22 23:00","2022","05","22","23:00","-9.0","","-12.9","","74","","","","31","","12","","24.1","","101.70","","","","-15","","Snow"
"-96.08","64.30","BAKER LAKE A","2300503","2022-05-23 00:00","2022","05","23","00:00","-9.3","","-13.4","","73","","","","33","","21","","24.1","","101.69","","","","-17","","Snow"
"-96.08","64.30","BAKER LAKE A","2300503","2022-05-23 01:00","2022","05","23","01:00","-9.3","","-13.8","","70","","","","32","","13","","24.1","","101.69","","","","-15","","Snow"
"-96.08","64.30","BAKER LAKE A","2300503","2022-05-23 02:00","2022","05","23","02:00","-9.3","","-13.7","","71","","","","31","","10","","24.1","","101.67","","","","-14","","Snow"
"-96.08","64.30","BAKER LAKE A","2300503","2022-05-23 03:00","2022","05","23","03:00","-9.3","","-13.2","","74","","","","34","","13","","24.1","","101.66","","","","-15","","Snow"
"-96.08","64.30","BAKER LAKE A","2300503","2022-05-23 04:00","2022","05","23","04:00","-9.1","","-13.5","","71","","","","33","","9","","32.2","","101.63","","","","-14","","Snow"
"-96.08","64.30","BAKER LAKE A","2300503","2022-05-23 05:00","2022","05","23","05:00","-8.7","","-13.3","","69","","","","30","","8","","32.2","","101.61","","","","-13","","Snow"
"-96.08","64.30","BAKER LAKE A","2300503","2022-05-23 06:00","2022","05","23","06:00","-8.4","","-12.9","","70","","","","26","","9","","32.2","","101.60","","","","-13","","Snow"
"-96.08","64.30","BAKER LAKE A","2300503","2022-05-23 07:00","2022","05","23","07:00","-7.8","","-13.0","","66","","","","28","","13","","32.2","","101.57","","","","-14","","Snow"
"-96.08","64.30","BAKER LAKE A","2300503","2022-05-23 08:00","2022","05","23","08:00","-7.3","","-12.6","","66","","","","27","","14","","32.2","","101.56","","","","-13","","NA"
"-96.08","64.30","BAKER LAKE A","2300503","2022-05-23 09:00","2022","05","23","09:00","-6.9","","-12.5","","65","","","","28","","14","","32.2","","101.54","","","","-13","","Snow"
"-96.08","64.30","BAKER LAKE A","2300503","2022-05-23 10:00","2022","05","23","10:00","-6.6","","-12.4","","63","","","","27","","11","","32.2","","101.50","","","","-12","","Snow"
"-96.08","64.30","BAKER LAKE A","2300503","2022-05-23 11:00","2022","05","23","11:00","-6.4","","-12.6","","62","","","","28","","13","","32.2","","101.47","","","","-12","","Snow"
"-96.08","64.30","BAKER LAKE A","2300503","2022-05-23 12:00","2022","05","23","12:00","-5.7","","-11.8","","63","","","","30","","13","","32.2","","101.46","","","","-11","","Snow"
"-96.08","64.30","BAKER LAKE A","2300503","2022-05-23 13:00","2022","05","23","13:00","-5.5","","-11.4","","63","","","","29","","17","","32.2","","101.45","","","","-12","","Snow"
"-96.08","64.30","BAKER LAKE A","2300503","2022-05-23 14:00","2022","05","23","14:00","-5.5","","-11.2","","65","","","","28","","20","","24.1","","101.42","","","","-12","","Snow"
"-96.08","64.30","BAKER LAKE A","2300503","2022-05-23 15:00","2022","05","23","15:00","-5.4","","-11.3","","63","","","","29","","19","","32.2","","101.41","","","","-12","","Snow"
"-96.08","64.30","BAKER LAKE A","2300503","2022-05-23 16:00","2022","05","23","16:00","-5.6","","-10.5","","68","","","","29","","17","","32.2","","101.39","","","","-12","","Snow"
"-96.08","64.30","BAKER LAKE A","2300503","2022-05-23 17:00","2022","05","23","17:00","-5.0","","-11.4","","61","","","","31","","16","","32.2","","101.35","","","","-11","","Snow"
"-96.08","64.30","BAKER LAKE A","2300503","2022-05-23 18:00","2022","05","23","18:00","-5.4","","-9.7","","72","","","","28","","18","","32.2","","101.33","","","","-12","","Snow"
"-96.08","64.30","BAKER LAKE A","2300503","2022-05-23 19:00","2022","05","23","19:00","-5.3","","-10.8","","65","","","","31","","15","","32.2","","101.31","","","","-11","","Snow"
"-96.08","64.30","BAKER LAKE A","2300503","2022-05-23 20:00","2022","05","23","20:00","-5.8","","-8.7","","80","","","","27","","18","","32.2","","101.29","","","","-12","","Snow"
"-96.08","64.30","BAKER LAKE A","2300503","2022-05-23 21:00","2022","05","23","21:00","-6.0","","-8.4","","83","","","","28","","14","","32.2","","101.28","","","","-12","","Snow"
"-96.08","64.30","BAKER LAKE A","2300503","2022-05-23 22:00","2022","05","23","22:00","-6.2","","-8.8","","82","","","","28","","17","","32.2","","101.24","","","","-12","","NA"
"-96.08","64.30","BAKER LAKE A","2300503","2022-05-23 23:00","2022","05","23","23:00","-6.4","","-9.1","","81","","","","28","","19","","24.1","","101.21","","","","-13","","Snow"
"-96.08","64.30","BAKER LAKE A","2300503","2022-05-24 00:00","2022","05","24","00:00","-6.4","","-9.3","","80","","","","28","","18","","24.1","","101.15","","","","-13","","Snow"
"-96.08","64.30","BAKER LAKE A","2300503","2022-05-24 01:00","2022","05","24","01:00","-6.4","","-9.5","","79","","","","28","","18","","24.1","","101.11","","","","-13","","Snow"
"-96.08","64.30","BAKER LAKE A","2300503","2022-05-24 02:00","2022","05","24","02:00","-6.5","","-9.2","","81","","","","27","","22","","32.2","","101.07","","","","-14","","Snow"
"-96.08","64.30","BAKER LAKE A","2300503","2022-05-24 03:00","2022","05","24","03:00","-6.4","","-8.9","","82","","","","28","","18","","32.2","","101.05","","","","-13","","Snow"
"-96.08","64.30","BAKER LAKE A","2300503","2022-05-24 04:00","2022","05","24","04:00","-5.8","","-8.5","","82","","","","29","","16","","32.2","","101.03","","","","-12","","Snow"
"-96.08","64.30","BAKER LAKE A","2300503","2022-05-24 05:00","2022","05","24","05:00","-5.7","","-8.8","","79","","","","29","","13","","32.2","","101.04","","","","-11","","NA"
"-96.08","64.30","BAKER LAKE A","2300503","2022-05-24 06:00","2022","05","24","06:00","-5.4","","-8.8","","77","","","","27","","17","","32.2","","101.00","","","","-11","","Cloudy"
"-96.08","64.30","BAKER LAKE A","2300503","2022-05-24 07:00","2022","05","24","07:00","-4.8","","-8.5","","76","","","","26","","19","","32.2","","100.98","","","","-11","","Snow"
"-96.08","64.30","BAKER LAKE A","2300503","2022-05-24 08:00","2022","05","24","08:00","-4.1","","-7.6","","76","","","","27","","21","","32.2","","100.95","","","","-11","","Snow"
"-96.08","64.30","BAKER LAKE A","2300503","2022-05-24 09:00","2022","05","24","09:00","-2.0","","-6.9","","70","","","","27","","26","","32.2","","100.89","","","","-9","","Mostly Cloudy"
"-96.08","64.30","BAKER LAKE A","2300503","2022-05-24 10:00","2022","05","24","10:00","-1.7","","-6.9","","68","","","","27","","30","","32.2","","100.85","","","","-9","","NA"
"-96.08","64.30","BAKER LAKE A","2300503","2022-05-24 11:00","2022","05","24","11:00","-1.7","","-6.2","","72","","","","25","","31","","24.1","","100.80","","","","-9","","Snow"
"-96.08","64.30","BAKER LAKE A","2300503","2022-05-24 12:00","2022","05","24","12:00","-1.0","","-4.2","","79","","","","24","","26","","9.7","","100.75","","","","-7","","Snow"
"-96.08","64.30","BAKER LAKE A","2300503","2022-05-24 13:00","2022","05","24","13:00","-1.2","","-4.6","","77","","","","25","","31","","12.9","","100.68","","","","-8","","Snow"
"-96.08","64.30","BAKER LAKE A","2300503","2022-05-24 14:00","2022","05","24","14:00","-1.3","","-4.3","","80","","","","29","","34","","16.1","","100.67","","","","-9","","Snow"
"-96.08","64.30","BAKER LAKE A","2300503","2022-05-24 15:00","2022","05","24","15:00","-0.6","","-5.3","","71","","","","30","","29","","24.1","","100.71","","","","-7","","Mostly Cloudy"
"-96.08","64.30","BAKER LAKE A","2300503","2022-05-24 16:00","2022","05","24","16:00","-0.8","","-3.7","","81","","","","28","","19","","24.1","","100.72","","","","-6","","Snow"
"-96.08","64.30","BAKER LAKE A","2300503","2022-05-24 17:00","2022","05","24","17:00","-0.3","","-3.0","","82","","","","26","","22","","24.1","","100.68","","","","-6","","Snow"
"-96.08","64.30","BAKER LAKE A","2300503","2022-05-24 18:00","2022","05","24","18:00","-0.5","","-3.2","","82","","","","31","","26","","24.1","","100.70","","","","-7","","Snow"
"-96.08","64.30","BAKER LAKE A","2300503","2022-05-24 19:00","2022","05","24","19:00","-0.9","","-3.4","","83","","","","30","","25","","32.2","","100.73","","","","-7","","Snow"
"-96.08","64.30","BAKER LAKE A","2300503","2022-05-24 20:00","2022","05","24","20:00","-1.4","","-3.8","","84","","","","31","","21","","40.2","","100.79","","","","-7","","Snow"
"-96.08","64.30","BAKER LAKE A","2300503","2022-05-24 21:00","2022","05","24","21:00","-1.9","","-4.1","","85","","","","30","","23","","40.2","","100.84","","","","-8","","Snow"
"-96.08","64.30","BAKER LAKE A","2300503","2022-05-24 22:00","2022","05","24","22:00","-2.7","","-4.6","","87","","","","30","","25","","32.2","","100.87","","","","-9","","Snow"
"-96.08","64.30","BAKER LAKE A","2300503","2022-05-24 23:00","2022","05","24","23:00","-3.2","","-4.9","","88","","","","31","","26","","32.2","","100.91","","","","-10","","Snow"
"-96.08","64.30","BAKER LAKE A","2300503","2022-05-25 00:00","2022","05","25","00:00","-3.7","","-5.5","","87","","","","31","","30","","24.1","","100.99","","","","-11","","Snow"
"-96.08","64.30","BAKER LAKE A","2300503","2022-05-25 01:00","2022","05","25","01:00","-3.9","","-5.8","","87","","","","31","","23","","24.1","","101.08","","","","-11","","Snow"
"-96.08","64.30","BAKER LAKE A","2300503","2022-05-25 02:00","2022","05","25","02:00","-5.2","","-7.0","","87","","","","34","","36","","12.9","","101.19","","","","-14","","Snow"
"-96.08","64.30","BAKER LAKE A","2300503","2022-05-25 03:00","2022","05","25","03:00","-6.0","","-8.1","","85","","","","33","","27","","24.1","","101.29","","","","-14","","Snow"
"-96.08","64.30","BAKER LAKE A","2300503","2022-05-25 04:00","2022","05","25","04:00","-6.6","","-9.1","","82","","","","33","","28","","32.2","","101.40","","","","-15","","Snow"
"-96.08","64.30","BAKER LAKE A","2300503","2022-05-25 05:00","2022","05","25","05:00","-7.0","","-9.9","","80","","","","33","","22","","32.2","","101.51","","","","-14","","Snow"
"-96.08","64.30","BAKER LAKE A","2300503","2022-05-25 06:00","2022","05","25","06:00","-6.3","","-9.9","","76","","","","33","","22","","32.2","","101.56","","","","-14","","Snow"
"-96.08","64.30","BAKER LAKE A","2300503","2022-05-25 07:00","2022","05","25","07:00","-5.6","","-9.2","","76","","","","31","","24","","12.9","","101.60","","","","-13","","Snow"
"-96.08","64.30","BAKER LAKE A","2300503","2022-05-25 08:00","2022","05","25","08:00","-5.0","","-9.8","","70","","","","30","","22","","32.2","","101.63","","","","-12","","Snow"
"-96.08","64.30","BAKER LAKE A","2300503","2022-05-25 09:00","2022","05","25","09:00","-4.5","","-9.1","","70","","","","30","","27","","32.2","","101.66","","","","-12","","Snow"
"-96.08","64.30","BAKER LAKE A","2300503","2022-05-25 10:00","2022","05","25","10:00","-4.0","","-8.0","","74","","","","29","","29","","32.2","","101.70","","","","-12","","Snow"
"-96.08","64.30","BAKER LAKE A","2300503","2022-05-25 11:00","2022","05","25","11:00","-2.9","","-7.4","","71","","","","30","","30","","32.2","","101.71","","","","-10","","Snow"
"-96.08","64.30","BAKER LAKE A","2300503","2022-05-25 12:00","2022","05","25","12:00","-2.9","","-7.0","","73","","","","30","","28","","32.2","","101.75","","","","-10","","Mostly Cloudy"
"-96.08","64.30","BAKER LAKE A","2300503","2022-05-25 13:00","2022","05","25","13:00","-2.4","","-6.8","","72","","","","29","","26","","32.2","","101.79","","","","-9","","Snow"
"-96.08","64.30","BAKER LAKE A","2300503","2022-05-25 14:00","2022","05","25","14:00","-2.8","","-7.5","","70","","","","29","","22","","32.2","","101.83","","","","-9","","Snow"
"-96.08","64.30","BAKER LAKE A","2300503","2022-05-25 15:00","2022","05","25","15:00","-2.7","","-8.3","","66","","","","29","","19","","32.2","","101.84","","","","-8","","Snow"
"-96.08","64.30","BAKER LAKE A","2300503","2022-05-25 16:00","2022","05","25","16:00","-3.0","","-8.7","","65","","","","29","","16","","32.2","","101.85","","","","-8","","NA"
"-96.08","64.30","BAKER LAKE A","2300503","2022-05-25 17:00","2022","05","25","17:00","-3.0","","-8.7","","65","","","","27","","18","","32.2","","101.84","","","","-9","","NA"
"-96.08","64.30","BAKER LAKE A","2300503","2022-05-25 18:00","2022","05","25","18:00","-3.2","","-8.7","","66","","","","26","","15","","32.2","","101.84","","","","-8","","Mostly Cloudy"
"-96.08","64.30","BAKER LAKE A","2300503","2022-05-25 19:00","2022","05","25","19:00","-3.4","","-7.9","","71","","","","24","","13","","32.2","","101.84","","","","-8","","NA"
"-96.08","64.30","BAKER LAKE A","2300503","2022-05-25 20:00","2022","05","25","20:00","-3.3","","-7.0","","76","","","","23","","13","","40.2","","101.82","","","","-8","","NA"
"-96.08","64.30","BAKER LAKE A","2300503","2022-05-25 21:00","2022","05","25","21:00","-3.7","","-6.4","","81","","","","22","","11","","40.2","","101.81","","","","-8","","Mostly Cloudy"
"-96.08","64.30","BAKER LAKE A","2300503","2022-05-25 22:00","2022","05","25","22:00","-4.7","","-7.4","","82","","","","25","","14","","40.2","","101.82","","","","-10","","NA"
"-96.08","64.30","BAKER LAKE A","2300503","2022-05-25 23:00","2022","05","25","23:00","-6.1","","-8.5","","83","","","","28","","16","","40.2","","101.80","","","","-12","","NA"
"-96.08","64.30","BAKER LAKE A","2300503","2022-05-26 00:00","2022","05","26","00:00","-7.1","","-9.2","","85","","","","31","","9","","24.1","","101.81","","","","-11","","Clear"
"-96.08","64.30","BAKER LAKE A","2300503","2022-05-26 01:00","2022","05","26","01:00","-9.3","","-11.1","","87","","","","36","","2","","24.1","","101.81","","","","-10","","NA"
"-96.08","64.30","BAKER LAKE A","2300503","2022-05-26 02:00","2022","05","26","02:00","-7.9","","-9.6","","87","","","","33","","4","","40.2","","101.82","","","","-10","","NA"
"-96.08","64.30","BAKER LAKE A","2300503","2022-05-26 03:00","2022","05","26","03:00","-8.1","","-9.5","","89","","","","10","","3","","40.2","","101.83","","","","-10","","Mostly Cloudy"
"-96.08","64.30","BAKER LAKE A","2300503","2022-05-26 04:00","2022","05","26","04:00","-7.4","","-9.3","","86","","","","36","","3","","40.2","","101.80","","","","-9","","NA"
"-96.08","64.30","BAKER LAKE A","2300503","2022-05-26 05:00","2022","05","26","05:00","-6.5","","-8.5","","86","","","","36","","2","","40.2","","101.79","","","","-7","","NA"
"-96.08","64.30","BAKER LAKE A","2300503","2022-05-26 06:00","2022","05","26","06:00","-5.5","","-7.5","","86","","","","14","","4","","40.2","","101.75","","","","-7","","Cloudy"
"-96.08","64.30","BAKER LAKE A","2300503","2022-05-26 07:00","2022","05","26","07:00","-1.9","","-5.7","","75","","","","28","","14","","40.2","","101.73","","","","-7","","NA"
"-96.08","64.30","BAKER LAKE A","2300503","2022-05-26 08:00","2022","05","26","08:00","-1.3","","-5.1","","76","","","","22","","10","","32.2","","101.71","","","","-5","","NA"
"-96.08","64.30","BAKER LAKE A","2300503","2022-05-26 09:00","2022","05","26","09:00","-0.7","","-4.2","","77","","","","22","","16","","32.2","","101.69","","","","-5","","Cloudy"
"-96.08","64.30","BAKER LAKE A","2300503","2022-05-26 10:00","2022","05","26","10:00","0.1","","-4.0","","74","","","","22","","23","","32.2","","101.64","","","","","","NA"
"-96.08","64.30","BAKER LAKE A","2300503","2022-05-26 11:00","2022","05","26","11:00","0.5","","-4.5","","69","","","","21","","26","","32.2","","101.63","","","","","","NA"
"-96.08","64.30","BAKER LAKE A","2300503","2022-05-26 12:00","2022","05","26","12:00","0.5","","-4.9","","67","","","","21","","26","","32.2","","101.60","","","","","","Mainly Clear"
"-96.08","64.30","BAKER LAKE A","2300503","2022-05-26 13:00","2022","05","26","13:00","0.9","","-4.3","","69","","","","21","","22","","32.2","","101.56","","","","","","NA"
"-96.08","64.30","BAKER LAKE A","2300503","2022-05-26 14:00","2022","05","26","14:00","1.5","","-3.7","","68","","","","20","","21","","32.2","","101.50","","","","","","NA"
"-96.08","64.30","BAKER LAKE A","2300503","2022-05-26 15:00","2022","05","26","15:00","2.3","","-2.4","","71","","","","20","","17","","32.2","","101.44","","","","","","Mainly Clear"
"-96.08","64.30","BAKER LAKE A","2300503","2022-05-26 16:00","2022","05","26","16:00","2.2","","-2.3","","72","","","","18","","14","","32.2","","101.38","","","","","","NA"
"-96.08","64.30","BAKER LAKE A","2300503","2022-05-26 17:00","2022","05","26","17:00","2.2","","-1.2","","78","","","","17","","8","","32.2","","101.33","","","","","","NA"
"-96.08","64.30","BAKER LAKE A","2300503","2022-05-26 18:00","2022","05","26","18:00","1.6","","-1.5","","80","","","","17","","10","","32.2","","101.23","","","","","","Clear"
"-96.08","64.30","BAKER LAKE A","2300503","2022-05-26 19:00","2022","05","26","19:00","0.6","","-1.4","","86","","","","11","","7","","32.2","","101.18","","","","","","NA"
"-96.08","64.30","BAKER LAKE A","2300503","2022-05-26 20:00","2022","05","26","20:00","1.0","","-1.3","","85","","","","20","","6","","40.2","","101.13","","","","","","NA"
"-96.08","64.30","BAKER LAKE A","2300503","2022-05-26 21:00","2022","05","26","21:00","-0.8","","-2.1","","91","","","","12","","5","","40.2","","101.09","","","","-2","","Clear"
"-96.08","64.30","BAKER LAKE A","2300503","2022-05-26 22:00","2022","05","26","22:00","-1.6","","-2.5","","93","","","","9","","5","","40.2","","101.06","","","","-3","","NA"
"-96.08","64.30","BAKER LAKE A","2300503","2022-05-26 23:00","2022","05","26","23:00","-1.9","","-2.6","","95","","","","36","","1","","40.2","","101.04","","","","-2","","NA"
"-96.08","64.30","BAKER LAKE A","2300503","2022-05-27 00:00","2022","05","27","00:00","-2.6","","-3.2","","95","","","","36","","1","","32.2","","101.01","","","","-3","","Clear"
"-96.08","64.30","BAKER LAKE A","2300503","2022-05-27 01:00","2022","05","27","01:00","-4.3","","-4.8","","96","","","","36","","1","","32.2","","100.98","","","","-5","","NA"
"-96.08","64.30","BAKER LAKE A","2300503","2022-05-27 02:00","2022","05","27","02:00","-4.3","","-5.0","","95","","","","36","","2","","40.2","","100.96","","","","-5","","NA"
"-96.08","64.30","BAKER LAKE A","2300503","2022-05-27 03:00","2022","05","27","03:00","-4.3","","-5.3","","93","","","","36","","3","","40.2","","100.91","","","","-6","","Mainly Clear"
"-96.08","64.30","BAKER LAKE A","2300503","2022-05-27 04:00","2022","05","27","04:00","-4.2","","-5.2","","93","","","","36","","2","","40.2","","100.85","","","","-5","","NA"
"-96.08","64.30","BAKER LAKE A","2300503","2022-05-27 05:00","2022","05","27","05:00","-3.2","","-4.3","","92","","","","36","","1","","40.2","","100.82","","","","-4","","NA"
"-96.08","64.30","BAKER LAKE A","2300503","2022-05-27 06:00","2022","05","27","06:00","-1.5","","-3.7","","85","","","","21","","5","","40.2","","100.78","","","","-3","","Mostly Cloudy"
"-96.08","64.30","BAKER LAKE A","2300503","2022-05-27 07:00","2022","05","27","07:00","-1.5","","-3.9","","84","","","","15","","5","","40.2","","100.74","","","","-3","","NA"
"-96.08","64.30","BAKER LAKE A","2300503","2022-05-27 08:00","2022","05","27","08:00","0.9","","-2.6","","77","","","","19","","9","","40.2","","100.71","","","","","","NA"
"-96.08","64.30","BAKER LAKE A","2300503","2022-05-27 09:00","2022","05","27","09:00","2.1","","-1.8","","75","","","","25","","15","","40.2","","100.65","","","","","","Mostly Cloudy"
"-96.08","64.30","BAKER LAKE A","2300503","2022-05-27 10:00","2022","05","27","10:00","2.8","","-0.9","","77","","","","23","","16","","40.2","","100.63","","","","","","NA"
"-96.08","64.30","BAKER LAKE A","2300503","2022-05-27 11:00","2022","05","27","11:00","4.0","","-0.4","","72","","","","26","","12","","40.2","","100.62","","","","","","NA"
"-96.08","64.30","BAKER LAKE A","2300503","2022-05-27 12:00","2022","05","27","12:00","4.9","","0.5","","73","","","","19","","15","","40.2","","100.61","","","","","","Mostly Cloudy"
"-96.08","64.30","BAKER LAKE A","2300503","2022-05-27 13:00","2022","05","27","13:00","4.7","","0.2","","73","","","","17","","11","","32.2","","100.59","","","","","","NA"
"-96.08","64.30","BAKER LAKE A","2300503","2022-05-27 14:00","2022","05","27","14:00","4.7","","0.4","","74","","","","21","","19","","32.2","","100.58","","","","","","NA"
"-96.08","64.30","BAKER LAKE A","2300503","2022-05-27 15:00","2022","05","27","15:00","4.1","","0.1","","75","","","","22","","19","","32.2","","100.54","","","","","","Mostly Cloudy"
"-96.08","64.30","BAKER LAKE A","2300503","2022-05-27 16:00","2022","05","27","16:00","3.6","","0.3","","79","","","","21","","9","","32.2","","100.54","","","","","","NA"
"-96.08","64.30","BAKER LAKE A","2300503","2022-05-27 17:00","2022","05","27","17:00","5.3","","0.5","","71","","","","23","","14","","32.2","","100.49","","","","","","NA"
"-96.08","64.30","BAKER LAKE A","2300503","2022-05-27 18:00","2022","05","27","18:00","5.0","","0.6","","73","","","","21","","10","","32.2","","100.46","","","","","","Mostly Cloudy"
"-96.08","64.30","BAKER LAKE A","2300503","2022-05-27 19:00","2022","05","27","19:00","4.8","","0.6","","74","","","","24","","15","","32.2","","100.44","","","","","","NA"
"-96.08","64.30","BAKER LAKE A","2300503","2022-05-27 20:00","2022","05","27","20:00","3.3","","0.2","","80","","","","23","","8","","32.2","","100.43","","","","","","NA"
"-96.08","64.30","BAKER LAKE A","2300503","2022-05-27 21:00","2022","05","27","21:00","4.3","","0.2","","75","","","","27","","17","","32.2","","100.40","","","","","","Mainly Clear"
"-96.08","64.30","BAKER LAKE A","2300503","2022-05-27 22:00","2022","05","27","22:00","3.7","","0.0","","76","","","","27","","34","","32.2","","100.36","","","","","","NA"
"-96.08","64.30","BAKER LAKE A","2300503","2022-05-27 23:00","2022","05","27","23:00","1.8","","-0.5","","85","","","","20","","8","","32.2","","100.40","","","","","","NA"
"-96.08","64.30","BAKER LAKE A","2300503","2022-05-28 00:00","2022","05","28","00:00","2.6","","-0.5","","80","","","","16","","5","","32.2","","100.40","","","","","","Mostly Cloudy"
"-96.08","64.30","BAKER LAKE A","2300503","2022-05-28 01:00","2022","05","28","01:00","2.3","","-0.4","","82","","","","21","","14","","32.2","","100.41","","","","","","NA"
"-96.08","64.30","BAKER LAKE A","2300503","2022-05-28 02:00","2022","05","28","02:00"
"-96.08","64.30","BAKER LAKE A","2300503","2022-05-28 03:00","2022","05","28","03:00","1.6","","-0.4","","86","","","","26","","8","","32.2","","100.39","","","","","","Mostly Cloudy"
"-96.08","64.30","BAKER LAKE A","2300503","2022-05-28 04:00","2022","05","28","04:00","2.9","","-0.4","","79","","","","28","","18","","32.2","","100.35","","","","","","NA"
"-96.08","64.30","BAKER LAKE A","2300503","2022-05-28 05:00","2022","05","28","05:00"
"-96.08","64.30","BAKER LAKE A","2300503","2022-05-28 06:00","2022","05","28","06:00","5.4","","-0.3","","67","","","","26","","28","","32.2","","100.31","","","","","","Mainly Clear"
"-96.08","64.30","BAKER LAKE A","2300503","2022-05-28 07:00","2022","05","28","07:00","5.6","","-0.8","","63","","","","25","","25","","32.2","","100.36","","","","","","NA"
"-96.08","64.30","BAKER LAKE A","2300503","2022-05-28 08:00","2022","05","28","08:00","5.9","","-0.7","","63","","","","27","","8","","32.2","","100.38","","","","","","NA"
"-96.08","64.30","BAKER LAKE A","2300503","2022-05-28 09:00","2022","05","28","09:00","6.2","","-0.1","","64","","","","16","","12","","32.2","","100.37","","","","","","Mostly Cloudy"
"-96.08","64.30","BAKER LAKE A","2300503","2022-05-28 10:00","2022","05","28","10:00","6.9","","-0.1","","61","","","","22","","10","","32.2","","100.36","","","","","","NA"
"-96.08","64.30","BAKER LAKE A","2300503","2022-05-28 11:00","2022","05","28","11:00","6.2","","-0.3","","63","","","","23","","10","","32.2","","100.37","","","","","","NA"
"-96.08","64.30","BAKER LAKE A","2300503","2022-05-28 12:00","2022","05","28","12:00","5.0","","1.1","","76","","","","6","","5","","32.2","","100.40","","","","","","Mostly Cloudy"
"-96.08","64.30","BAKER LAKE A","2300503","2022-05-28 13:00","2022","05","28","13:00","6.5","","0.4","","65","","","","16","","8","","32.2","","100.44","","","","","","NA"
"-96.08","64.30","BAKER LAKE A","2300503","2022-05-28 14:00","2022","05","28","14:00","6.3","","0.1","","64","","","","8","","5","","32.2","","100.47","","","","","","NA"
"-96.08","64.30","BAKER LAKE A","2300503","2022-05-28 15:00","2022","05","28","15:00","6.5","","1.3","","69","","","","5","","13","","32.2","","100.51","","","","","","Mainly Clear"
"-96.08","64.30","BAKER LAKE A","2300503","2022-05-28 16:00","2022","05","28","16:00","6.5","","1.9","","72","","","","6","","17","","32.2","","100.52","","","","","","NA"
"-96.08","64.30","BAKER LAKE A","2300503","2022-05-28 17:00","2022","05","28","17:00","6.2","","1.8","","74","","","","6","","18","","32.2","","100.56","","","","","","NA"
"-96.08","64.30","BAKER LAKE A","2300503","2022-05-28 18:00","2022","05","28","18:00","5.2","","1.5","","77","","","","4","","21","","32.2","","100.59","","","","","","Mainly Clear"
"-96.08","64.30","BAKER LAKE A","2300503","2022-05-28 19:00","2022","05","28","19:00","4.6","","1.4","","80","","","","6","","17","","32.2","","100.65","","","","","","NA"
"-96.08","64.30","BAKER LAKE A","2300503","2022-05-28 20:00","2022","05","28","20:00","3.8","","1.0","","82","","","","5","","16","","32.2","","100.71","","","","","","NA"
"-96.08","64.30","BAKER LAKE A","2300503","2022-05-28 21:00","2022","05","28","21:00","2.5","","0.4","","86","","","","6","","17","","32.2","","100.75","","","","","","Mainly Clear"
"-96.08","64.30","BAKER LAKE A","2300503","2022-05-28 22:00","2022","05","28","22:00","1.8","","0.1","","89","","","","5","","18","","32.2","","100.79","","","","","","NA"
"-96.08","64.30","BAKER LAKE A","2300503","2022-05-28 23:00","2022","05","28","23:00","1.2","","-0.3","","90","","","","5","","20","","32.2","","100.82","","","","","","NA"
"-96.08","64.30","BAKER LAKE A","2300503","2022-05-29 00:00","2022","05","29","00:00","0.8","","-0.6","","91","","","","5","","12","","32.2","","100.85","","","","","","Mainly Clear"
"-96.08","64.30","BAKER LAKE A","2300503","2022-05-29 01:00","2022","05","29","01:00","0.6","","-0.7","","90","","","","5","","14","","32.2","","100.88","","","","","","NA"
"-96.08","64.30","BAKER LAKE A","2300503","2022-05-29 02:00","2022","05","29","02:00","0.4","","-0.8","","91","","","","5","","14","","32.2","","100.89","","","","","","NA"
"-96.08","64.30","BAKER LAKE A","2300503","2022-05-29 03:00","2022","05","29","03:00","0.2","","-0.9","","92","","","","5","","14","","32.2","","100.92","","","","","","Mainly Clear"
"-96.08","64.30","BAKER LAKE A","2300503","2022-05-29 04:00","2022","05","29","04:00","0.5","","-0.7","","92","","","","5","","14","","32.2","","100.95","","","","","","NA"
"-96.08","64.30","BAKER LAKE A","2300503","2022-05-29 05:00","2022","05","29","05:00","1.0","","-0.2","","92","","","","6","","16","","32.2","","100.99","","","","","","NA"
"-96.08","64.30","BAKER LAKE A","2300503","2022-05-29 06:00","2022","05","29","06:00","1.5","","0.3","","92","","","","8","","12","","32.2","","101.04","","","","","","Mostly Cloudy"
"-96.08","64.30","BAKER LAKE A","2300503","2022-05-29 07:00","2022","05","29","07:00","1.8","","0.0","","88","","","","9","","21","","32.2","","101.09","","","","","","NA"
"-96.08","64.30","BAKER LAKE A","2300503","2022-05-29 08:00","2022","05","29","08:00","1.7","","0.1","","89","","","","8","","25","","32.2","","101.13","","","","","","NA"
"-96.08","64.30","BAKER LAKE A","2300503","2022-05-29 09:00","2022","05","29","09:00","1.6","","0.2","","90","","","","10","","31","","32.2","","101.16","","","","","","Mostly Cloudy"
"-96.08","64.30","BAKER LAKE A","2300503","2022-05-29 10:00","2022","05","29","10:00","2.3","","0.1","","85","","","","10","","28","","32.2","","101.19","","","","","","NA"
"-96.08","64.30","BAKER LAKE A","2300503","2022-05-29 11:00","2022","05","29","11:00","3.1","","0.3","","82","","","","9","","24","","32.2","","101.24","","","","","","NA"
"-96.08","64.30","BAKER LAKE A","2300503","2022-05-29 12:00","2022","05","29","12:00","2.6","","0.4","","85","","","","10","","13","","32.2","","101.28","","","","","","Mostly Cloudy"
"-96.08","64.30","BAKER LAKE A","2300503","2022-05-29 13:00","2022","05","29","13:00","2.4","","0.4","","87","","","","10","","27","","32.2","","101.30","","","","","","Rain"
"-96.08","64.30","BAKER LAKE A","2300503","2022-05-29 14:00","2022","05","29","14:00","1.8","","0.8","","93","","","","9","","23","","32.2","","101.31","","","","","","Rain"
"-96.08","64.30","BAKER LAKE A","2300503","2022-05-29 15:00","2022","05","29","15:00","2.1","","1.4","","95","","","","9","","20","","24.1","","101.34","","","","","","Rain"
"-96.08","64.30","BAKER LAKE A","2300503","2022-05-29 16:00","2022","05","29","16:00","1.8","","1.2","","95","","","","11","","8","","16.1","","101.41","","","","","","Rain"
"-96.08","64.30","BAKER LAKE A","2300503","2022-05-29 17:00","2022","05","29","17:00","2.1","","1.5","","96","","","","12","","4","","24.1","","101.44","","","","","","Rain"
"-96.08","64.30","BAKER LAKE A","2300503","2022-05-29 18:00","2022","05","29","18:00","1.9","","1.3","","96","","","","36","","2","","16.1","","101.47","","","","","","Rain"
"-96.08","64.30","BAKER LAKE A","2300503","2022-05-29 19:00","2022","05","29","19:00","1.8","","1.2","","96","","","","9","","8","","24.1","","101.53","","","","","","Rain"
"-96.08","64.30","BAKER LAKE A","2300503","2022-05-29 20:00","2022","05","29","20:00","1.5","","1.0","","96","","","","11","","12","","32.2","","101.59","","","","","","Rain"
"-96.08","64.30","BAKER LAKE A","2300503","2022-05-29 21:00","2022","05","29","21:00","1.6","","0.5","","92","","","","9","","18","","32.2","","101.63","","","","","","Cloudy"
"-96.08","64.30","BAKER LAKE A","2300503","2022-05-29 22:00","2022","05","29","22:00","1.2","","0.0","","92","","","","9","","7","","32.2","","101.69","","","","","","NA"
"-96.08","64.30","BAKER LAKE A","2300503","2022-05-29 23:00","2022","05","29","23:00","1.0","","-0.5","","89","","","","9","","12","","32.2","","101.73","","","","","","NA"
"-96.08","64.30","BAKER LAKE A","2300503","2022-05-30 00:00","2022","05","30","00:00","1.1","","-0.7","","88","","","","10","","19","","32.2","","101.76","","","","","","Cloudy"
"-96.08","64.30","BAKER LAKE A","2300503","2022-05-30 01:00","2022","05","30","01:00","0.9","","-1.1","","86","","","","9","","13","","32.2","","101.78","","","","","","NA"
"-96.08","64.30","BAKER LAKE A","2300503","2022-05-30 02:00","2022","05","30","02:00","0.8","","-1.3","","86","","","","10","","20","","32.2","","101.80","","","","","","NA"
"-96.08","64.30","BAKER LAKE A","2300503","2022-05-30 03:00","2022","05","30","03:00","0.7","","-1.3","","87","","","","6","","9","","32.2","","101.83","","","","","","Cloudy"
"-96.08","64.30","BAKER LAKE A","2300503","2022-05-30 04:00","2022","05","30","04:00","0.7","","-0.8","","90","","","","9","","13","","32.2","","101.85","","","","","","NA"
"-96.08","64.30","BAKER LAKE A","2300503","2022-05-30 05:00","2022","05","30","05:00","1.1","","-0.8","","87","","","","8","","12","","32.2","","101.86","","","","","","NA"
"-96.08","64.30","BAKER LAKE A","2300503","2022-05-30 06:00","2022","05","30","06:00","1.2","","-0.6","","88","","","","3","","5","","40.2","","101.89","","","","","","Cloudy"
"-96.08","64.30","BAKER LAKE A","2300503","2022-05-30 07:00","2022","05","30","07:00","1.4","","-0.3","","88","","","","11","","12","","32.2","","101.92","","","","","","NA"
"-96.08","64.30","BAKER LAKE A","2300503","2022-05-30 08:00","2022","05","30","08:00","1.5","","0.0","","90","","","","10","","18","","16.1","","101.93","","","","","","NA"
"-96.08","64.30","BAKER LAKE A","2300503","2022-05-30 09:00","2022","05","30","09:00","1.8","","0.4","","90","","","","9","","25","","32.2","","101.95","","","","","","Cloudy"
"-96.08","64.30","BAKER LAKE A","2300503","2022-05-30 10:00","2022","05","30","10:00","1.8","","0.3","","90","","","","9","","15","","32.2","","102.01","","","","","","NA"
"-96.08","64.30","BAKER LAKE A","2300503","2022-05-30 11:00","2022","05","30","11:00","1.9","","0.5","","90","","","","11","","19","","32.2","","102.02","","","","","","NA"
"-96.08","64.30","BAKER LAKE A","2300503","2022-05-30 12:00","2022","05","30","12:00","1.8","","0.6","","92","","","","11","","14","","32.2","","102.04","","","","","","Cloudy"
"-96.08","64.30","BAKER LAKE A","2300503","2022-05-30 13:00","2022","05","30","13:00","2.4","","1.0","","90","","","","9","","18","","32.2","","102.07","","","","","","NA"
"-96.08","64.30","BAKER LAKE A","2300503","2022-05-30 14:00","2022","05","30","14:00","2.7","","1.0","","89","","","","9","","19","","32.2","","102.10","","","","","","NA"
"-96.08","64.30","BAKER LAKE A","2300503","2022-05-30 15:00","2022","05","30","15:00","3.6","","1.5","","86","","","","10","","17","","32.2","","102.14","","","","","","Cloudy"
"-96.08","64.30","BAKER LAKE A","2300503","2022-05-30 16:00","2022","05","30","16:00","3.2","","1.2","","87","","","","10","","21","","32.2","","102.11","","","","","","NA"
"-96.08","64.30","BAKER LAKE A","2300503","2022-05-30 17:00","2022","05","30","17:00","3.0","","1.1","","87","","","","10","","10","","32.2","","102.17","","","","","","NA"
"-96.08","64.30","BAKER LAKE A","2300503","2022-05-30 18:00","2022","05","30","18:00","2.7","","0.8","","87","","","","8","","13","","32.2","","102.19","","","","","","Cloudy"
"-96.08","64.30","BAKER LAKE A","2300503","2022-05-30 19:00","2022","05","30","19:00","2.7","","0.8","","87","","","","10","","18","","32.2","","102.22","","","","","","NA"
"-96.08","64.30","BAKER LAKE A","2300503","2022-05-30 20:00","2022","05","30","20:00","2.1","","0.4","","89","","","","11","","11","","32.2","","102.24","","","","","","NA"
"-96.08","64.30","BAKER LAKE A","2300503","2022-05-30 21:00","2022","05","30","21:00","1.7","","0.3","","90","","","","9","","14","","32.2","","102.27","","","","","","Mostly Cloudy"
"-96.08","64.30","BAKER LAKE A","2300503","2022-05-30 22:00","2022","05","30","22:00","1.5","","0.1","","91","","","","10","","20","","32.2","","102.30","","","","","","NA"
"-96.08","64.30","BAKER LAKE A","2300503","2022-05-30 23:00","2022","05","30","23:00","1.2","","-0.1","","91","","","","10","","21","","32.2","","102.36","","","","","","NA"
"-96.08","64.30","BAKER LAKE A","2300503","2022-05-31 00:00","2022","05","31","00:00","1.1","","0.0","","92","","","","10","","23","","24.1","","102.39","","","","","","Mostly Cloudy"
"-96.08","64.30","BAKER LAKE A","2300503","2022-05-31 01:00","2022","05","31","01:00","0.8","","0.0","","94","","","","10","","14","","24.1","","102.39","","","","","","NA"
"-96.08","64.30","BAKER LAKE A","2300503","2022-05-31 02:00","2022","05","31","02:00","1.0","","0.3","","95","","","","9","","15","","24.1","","102.36","","","","","","NA"
"-96.08","64.30","BAKER LAKE A","2300503","2022-05-31 03:00","2022","05","31","03:00","0.9","","0.3","","96","","","","7","","11","","24.1","","102.34","","","","","","Rain"
"-96.08","64.30","BAKER LAKE A","2300503","2022-05-31 04:00","2022","05","31","04:00","1.3","","0.6","","95","","","","9","","8","","24.1","","102.33","","","","","","Rain"
"-96.08","64.30","BAKER LAKE A","2300503","2022-05-31 05:00","2022","05","31","05:00"
"-96.08","64.30","BAKER LAKE A","2300503","2022-05-31 06:00","2022","05","31","06:00"
"-96.08","64.30","BAKER LAKE A","2300503","2022-05-31 07:00","2022","05","31","07:00","1.4","","0.5","","93","","","","8","","23","","32.2","","102.25","","","","","","NA"
"-96.08","64.30","BAKER LAKE A","2300503","2022-05-31 08:00","2022","05","31","08:00","1.5","","0.5","","93","","","","8","","21","","32.2","","102.22","","","","","","Rain"
"-96.08","64.30","BAKER LAKE A","2300503","2022-05-31 09:00","2022","05","31","09:00","1.4","","0.5","","94","","","","6","","20","","24.1","","102.17","","","","","","Snow"
"-96.08","64.30","BAKER LAKE A","2300503","2022-05-31 10:00","2022","05","31","10:00","1.6","","0.7","","94","","","","5","","19","","24.1","","102.13","","","","","","Rain"
"-96.08","64.30","BAKER LAKE A","2300503","2022-05-31 11:00","2022","05","31","11:00","2.3","","1.1","","92","","","","4","","23","","24.1","","102.09","","","","","","Rain"
"-96.08","64.30","BAKER LAKE A","2300503","2022-05-31 12:00","2022","05","31","12:00","2.6","","1.2","","91","","","","5","","22","","32.2","","102.06","","","","","","Rain"
"-96.08","64.30","BAKER LAKE A","2300503","2022-05-31 13:00","2022","05","31","13:00","4.1","","2.1","","87","","","","4","","21","","32.2","","101.97","","","","","","Rain"
"-96.08","64.30","BAKER LAKE A","2300503","2022-05-31 14:00","2022","05","31","14:00","3.3","","1.3","","87","","","","6","","19","","40.2","","101.99","","","","","","Rain"
"-96.08","64.30","BAKER LAKE A","2300503","2022-05-31 15:00","2022","05","31","15:00","3.5","","0.9","","83","","","","5","","19","","40.2","","101.94","","","","","","Cloudy"
"-96.08","64.30","BAKER LAKE A","2300503","2022-05-31 16:00","2022","05","31","16:00","3.0","","0.6","","85","","","","6","","16","","40.2","","101.94","","","","","","NA"
"-96.08","64.30","BAKER LAKE A","2300503","2022-05-31 17:00","2022","05","31","17:00","3.0","","0.4","","83","","","","8","","10","","40.2","","101.97","","","","","","NA"
"-96.08","64.30","BAKER LAKE A","2300503","2022-05-31 18:00","2022","05","31","18:00","3.0","","0.5","","84","","","","5","","15","","40.2","","101.94","","","","","","Cloudy"
"-96.08","64.30","BAKER LAKE A","2300503","2022-05-31 19:00","2022","05","31","19:00","2.8","","1.0","","88","","","","1","","16","","40.2","","101.92","","","","","","NA"
"-96.08","64.30","BAKER LAKE A","2300503","2022-05-31 20:00","2022","05","31","20:00","2.3","","0.7","","89","","","","2","","18","","32.2","","101.91","","","","","","NA"
"-96.08","64.30","BAKER LAKE A","2300503","2022-05-31 21:00","2022","05","31","21:00","2.2","","0.8","","91","","","","2","","16","","32.2","","101.93","","","","","","Cloudy"
"-96.08","64.30","BAKER LAKE A","2300503","2022-05-31 22:00","2022","05","31","22:00","1.8","","0.6","","91","","","","4","","17","","24.1","","101.92","","","","","","Rain"
"-96.08","64.30","BAKER LAKE A","2300503","2022-05-31 23:00","2022","05","31","23:00","1.7","","0.7","","93","","","","1","","14","","24.1","","101.90","","","","","","Rain"
