"Longitude (x)","Latitude (y)","Station Name","Climate ID","Date/Time (LST)","Year","Month","Day","Time (LST)","Temp (°C)","Temp Flag","Dew Point Temp (°C)","Dew Point Temp Flag","Rel Hum (%)","Rel Hum Flag","Precip. Amount (mm)","Precip. Amount Flag","Wind Dir (10s deg)","Wind Dir Flag","Wind Spd (km/h)","Wind Spd Flag","Visibility (km)","Visibility Flag","Stn Press (kPa)","Stn Press Flag","Hmdx","Hmdx Flag","Wind Chill","Wind Chill Flag","Weather"
"-111.96","60.02","FORT SMITH A","2202201","2018-05-01 00:00","2018","05","01","00:00","3.1","","2.7","","97","","","","4","","13","","9.7","","98.21","","","","","","Fog"
"-111.96","60.02","FORT SMITH A","2202201","2018-05-01 01:00","2018","05","01","01:00","2.4","","1.3","","92","","","","2","","12","","9.7","","98.24","","","","","","Fog"
"-111.96","60.02","FORT SMITH A","2202201","2018-05-01 02:00","2018","05","01","02:00","1.7","","0.6","","92","","","","35","","14","","19.3","","98.29","","","","","","Cloudy"
"-111.96","60.02","FORT SMITH A","2202201","2018-05-01 03:00","2018","05","01","03:00","1.2","","0.2","","93","","","","35","","8","","24.1","","98.33","","","","","","NA"
"-111.96","60.02","FORT SMITH A","2202201","2018-05-01 04:00","2018","05","01","04:00","0.9","","-0.2","","92","","","","33","","8","","24.1","","98.41","","","","","","NA"
"-111.96","60.02","FORT SMITH A","2202201","2018-05-01 05:00","2018","05","01","05:00","0.8","","-0.4","","92","","","","35","","8","","19.3","","98.45","","","","","","Cloudy"
"-111.96","60.02","FORT SMITH A","2202201","2018-05-01 06:00","2018","05","01","06:00","0.6","","-1.0","","89","","","","35","","10","","24.1","","98.52","","","","","","NA"
"-111.96","60.02","FORT SMITH A","2202201","2018-05-01 07:00","2018","05","01","07:00","1.0","","-1.2","","86","","","","35","","16","","24.1","","98.55","","","","","","NA"
"-111.96","60.02","FORT SMITH A","2202201","2018-05-01 08:00","2018","05","01","08:00","1.0","","-1.8","","81","","","","34","","14","","24.1","","98.61","","","","","","Mostly Cloudy"
"-111.96","60.02","FORT SMITH A","2202201","2018-05-01 09:00","2018","05","01","09:00","2.5","","-1.7","","74","","","","34","","14","","24.1","","98.62","","","","","","NA"
"-111.96","60.02","FORT SMITH A","2202201","2018-05-01 10:00","2018","05","01","10:00","4.6","","-0.9","","68","","","","3","","14","","24.1","","98.62","","","","","","NA"
"-111.96","60.02","FORT SMITH A","2202201","2018-05-01 11:00","2018","05","01","11:00","5.8","","-1.8","","58","","","","1","","16","","24.1","","98.66","","","","","","Mostly Cloudy"
"-111.96","60.02","FORT SMITH A","2202201","2018-05-01 12:00","2018","05","01","12:00","7.0","","-2.4","","51","","","","1","","14","","24.1","","98.62","","","","","","NA"
"-111.96","60.02","FORT SMITH A","2202201","2018-05-01 13:00","2018","05","01","13:00","7.8","","-4.0","","43","","","","33","","14","","24.1","","98.61","","","","","","NA"
"-111.96","60.02","FORT SMITH A","2202201","2018-05-01 14:00","2018","05","01","14:00","9.3","","-3.3","","41","","","","34","","13","","24.1","","98.59","","","","","","Mainly Clear"
"-111.96","60.02","FORT SMITH A","2202201","2018-05-01 15:00","2018","05","01","15:00","9.3","","-5.7","","34","","","","29","","13","","24.1","","98.58","","","","","","NA"
"-111.96","60.02","FORT SMITH A","2202201","2018-05-01 16:00","2018","05","01","16:00","9.8","","-5.6","","33","","","","26","","8","","24.1","","98.54","","","","","","NA"
"-111.96","60.02","FORT SMITH A","2202201","2018-05-01 17:00","2018","05","01","17:00","9.8","","-5.8","","33","","","","36","","3","","24.1","","98.52","","","","","","Mostly Cloudy"
"-111.96","60.02","FORT SMITH A","2202201","2018-05-01 18:00","2018","05","01","18:00","10.3","","-5.7","","32","","","","14","","4","","24.1","","98.47","","","","","","NA"
"-111.96","60.02","FORT SMITH A","2202201","2018-05-01 19:00","2018","05","01","19:00","9.8","","-5.4","","34","","","","12","","5","","24.1","","98.44","","","","","","NA"
"-111.96","60.02","FORT SMITH A","2202201","2018-05-01 20:00","2018","05","01","20:00","7.5","","-4.1","","44","","","","14","","5","","24.1","","98.43","","","","","","Clear"
"-111.96","60.02","FORT SMITH A","2202201","2018-05-01 21:00","2018","05","01","21:00","3.2","","-4.3","","58","","","","12","","3","","24.1","","98.42","","","","","","NA"
"-111.96","60.02","FORT SMITH A","2202201","2018-05-01 22:00","2018","05","01","22:00","4.9","","-5.2","","48","","","","13","","8","","24.1","","98.38","","","","","","NA"
"-111.96","60.02","FORT SMITH A","2202201","2018-05-01 23:00","2018","05","01","23:00","4.1","","-5.1","","51","","","","14","","14","","24.1","","98.35","","","","","","Mainly Clear"
"-111.96","60.02","FORT SMITH A","2202201","2018-05-02 00:00","2018","05","02","00:00","2.1","","-4.0","","64","","","","14","","14","","24.1","","98.32","","","","","","NA"
"-111.96","60.02","FORT SMITH A","2202201","2018-05-02 01:00","2018","05","02","01:00","0.9","","-2.9","","76","","","","15","","16","","24.1","","98.27","","","","","","NA"
"-111.96","60.02","FORT SMITH A","2202201","2018-05-02 02:00","2018","05","02","02:00","0.2","","-2.9","","80","","","","15","","16","","24.1","","98.21","","","","","","Mainly Clear"
"-111.96","60.02","FORT SMITH A","2202201","2018-05-02 03:00","2018","05","02","03:00","-0.5","","-3.0","","83","","","","15","","14","","24.1","","98.16","","","","-5","","NA"
"-111.96","60.02","FORT SMITH A","2202201","2018-05-02 04:00","2018","05","02","04:00","-0.8","","-3.1","","85","","","","15","","16","","24.1","","98.09","","","","-6","","NA"
"-111.96","60.02","FORT SMITH A","2202201","2018-05-02 05:00","2018","05","02","05:00","-0.2","","-2.7","","83","","","","14","","15","","24.1","","98.00","","","","-5","","Mainly Clear"
"-111.96","60.02","FORT SMITH A","2202201","2018-05-02 06:00","2018","05","02","06:00","2.1","","-1.9","","74","","","","16","","21","","24.1","","97.92","","","","","","NA"
"-111.96","60.02","FORT SMITH A","2202201","2018-05-02 07:00","2018","05","02","07:00","3.5","","-1.7","","69","","","","15","","18","","24.1","","97.84","","","","","","NA"
"-111.96","60.02","FORT SMITH A","2202201","2018-05-02 08:00","2018","05","02","08:00","5.0","","-1.7","","62","","","","15","","19","","24.1","","97.75","","","","","","Cloudy"
"-111.96","60.02","FORT SMITH A","2202201","2018-05-02 09:00","2018","05","02","09:00","6.8","","-1.9","","54","","","","16","","22","","24.1","","97.69","","","","","","NA"
"-111.96","60.02","FORT SMITH A","2202201","2018-05-02 10:00","2018","05","02","10:00","8.4","","-1.5","","49","","","","15","","25","","24.1","","97.59","","","","","","NA"
"-111.96","60.02","FORT SMITH A","2202201","2018-05-02 11:00","2018","05","02","11:00","9.8","","-2.0","","43","","","","15","","20","","24.1","","97.50","","","","","","Cloudy"
"-111.96","60.02","FORT SMITH A","2202201","2018-05-02 12:00","2018","05","02","12:00","10.7","","-2.6","","39","","","","17","","22","","24.1","","97.47","","","","","","NA"
"-111.96","60.02","FORT SMITH A","2202201","2018-05-02 13:00","2018","05","02","13:00","11.2","","-1.0","","43","","","","18","","24","","24.1","","97.45","","","","","","NA"
"-111.96","60.02","FORT SMITH A","2202201","2018-05-02 14:00","2018","05","02","14:00","9.0","","3.2","","67","","","","20","","17","","8.1","","97.47","","","","","","Rain Showers"
"-111.96","60.02","FORT SMITH A","2202201","2018-05-02 15:00","2018","05","02","15:00","7.0","","5.5","","90","","","","13","","8","","6.4","","97.45","","","","","","Rain,Fog"
"-111.96","60.02","FORT SMITH A","2202201","2018-05-02 16:00","2018","05","02","16:00","7.0","","5.7","","91","","","","8","","7","","9.7","","97.43","","","","","","Rain,Fog"
"-111.96","60.02","FORT SMITH A","2202201","2018-05-02 17:00","2018","05","02","17:00","7.4","","5.6","","88","","","","10","","8","","24.1","","97.40","","","","","","Rain Showers"
"-111.96","60.02","FORT SMITH A","2202201","2018-05-02 18:00","2018","05","02","18:00","6.6","","5.2","","91","","","","8","","9","","4.8","","97.42","","","","","","Rain Showers"
"-111.96","60.02","FORT SMITH A","2202201","2018-05-02 19:00","2018","05","02","19:00","6.3","","5.2","","93","","","","2","","9","","12.9","","97.46","","","","","","Rain Showers"
"-111.96","60.02","FORT SMITH A","2202201","2018-05-02 20:00","2018","05","02","20:00","5.4","","4.2","","92","","","","36","","12","","19.3","","97.53","","","","","","Rain Showers"
"-111.96","60.02","FORT SMITH A","2202201","2018-05-02 21:00","2018","05","02","21:00","5.2","","4.6","","95","","","","35","","12","","19.3","","97.60","","","","","","Rain"
"-111.96","60.02","FORT SMITH A","2202201","2018-05-02 22:00","2018","05","02","22:00","4.8","","3.9","","94","","","","1","","13","","19.3","","97.69","","","","","","Rain"
"-111.96","60.02","FORT SMITH A","2202201","2018-05-02 23:00","2018","05","02","23:00","4.4","","3.6","","94","","","","34","","12","","19.3","","97.76","","","","","","Rain"
"-111.96","60.02","FORT SMITH A","2202201","2018-05-03 00:00","2018","05","03","00:00","4.2","","3.5","","95","","","","35","","10","","19.3","","97.83","","","","","","Rain"
"-111.96","60.02","FORT SMITH A","2202201","2018-05-03 01:00","2018","05","03","01:00","3.9","","3.1","","94","","","","34","","9","","24.1","","97.86","","","","","","Rain"
"-111.96","60.02","FORT SMITH A","2202201","2018-05-03 02:00","2018","05","03","02:00","3.5","","3.0","","96","","","","32","","9","","24.1","","97.91","","","","","","Cloudy"
"-111.96","60.02","FORT SMITH A","2202201","2018-05-03 03:00","2018","05","03","03:00","3.2","","2.8","","97","","","","30","","9","","24.1","","97.99","","","","","","NA"
"-111.96","60.02","FORT SMITH A","2202201","2018-05-03 04:00","2018","05","03","04:00","2.9","","2.6","","98","","","","30","","12","","0.8","","98.04","","","","","","Fog"
"-111.96","60.02","FORT SMITH A","2202201","2018-05-03 05:00","2018","05","03","05:00","2.7","","2.5","","98","","","","30","","11","","0.8","","98.07","","","","","","Fog"
"-111.96","60.02","FORT SMITH A","2202201","2018-05-03 06:00","2018","05","03","06:00","2.4","","2.2","","98","","","","29","","9","","0.8","","98.10","","","","","","Fog"
"-111.96","60.02","FORT SMITH A","2202201","2018-05-03 07:00","2018","05","03","07:00","2.1","","1.9","","98","","","","28","","8","","0.2","","98.13","","","","","","Fog"
"-111.96","60.02","FORT SMITH A","2202201","2018-05-03 08:00","2018","05","03","08:00","2.4","","2.2","","99","","","","29","","7","","0.6","","98.16","","","","","","Fog"
"-111.96","60.02","FORT SMITH A","2202201","2018-05-03 09:00","2018","05","03","09:00","3.7","","3.4","","98","","","","36","","2","","24.1","","98.18","","","","","","NA"
"-111.96","60.02","FORT SMITH A","2202201","2018-05-03 10:00","2018","05","03","10:00","6.1","","4.3","","88","","","","25","","9","","24.1","","98.22","","","","","","NA"
"-111.96","60.02","FORT SMITH A","2202201","2018-05-03 11:00","2018","05","03","11:00","7.6","","3.9","","77","","","","36","","1","","24.1","","98.23","","","","","","Cloudy"
"-111.96","60.02","FORT SMITH A","2202201","2018-05-03 12:00","2018","05","03","12:00","7.2","","5.3","","88","","","","25","","9","","9.7","","98.25","","","","","","Rain Showers,Fog"
"-111.96","60.02","FORT SMITH A","2202201","2018-05-03 13:00","2018","05","03","13:00","5.3","","4.0","","91","","","","27","","30","","16.1","","98.32","","","","","","Rain Showers"
"-111.96","60.02","FORT SMITH A","2202201","2018-05-03 14:00","2018","05","03","14:00","5.2","","3.2","","87","","","","27","","22","","24.1","","98.40","","","","","","Rain Showers"
"-111.96","60.02","FORT SMITH A","2202201","2018-05-03 15:00","2018","05","03","15:00","4.2","","3.2","","93","","","","29","","22","","8.1","","98.52","","","","","","Rain,Fog"
"-111.96","60.02","FORT SMITH A","2202201","2018-05-03 16:00","2018","05","03","16:00","4.0","","1.5","","83","","","","35","","19","","24.1","","98.69","","","","","","NA"
"-111.96","60.02","FORT SMITH A","2202201","2018-05-03 17:00","2018","05","03","17:00","3.0","","1.5","","90","","","","33","","20","","4.8","","98.81","","","","","","Rain,Drizzle"
"-111.96","60.02","FORT SMITH A","2202201","2018-05-03 18:00","2018","05","03","18:00","2.6","","0.8","","88","","","","33","","18","","24.1","","98.89","","","","","","Drizzle"
"-111.96","60.02","FORT SMITH A","2202201","2018-05-03 19:00","2018","05","03","19:00","2.8","","0.5","","85","","","","31","","9","","24.1","","98.94","","","","","","NA"
"-111.96","60.02","FORT SMITH A","2202201","2018-05-03 20:00","2018","05","03","20:00","2.1","","0.2","","87","","","","33","","7","","24.1","","98.95","","","","","","Rain"
"-111.96","60.02","FORT SMITH A","2202201","2018-05-03 21:00","2018","05","03","21:00","1.1","","0.0","","93","","","","31","","6","","24.1","","98.96","","","","","","NA"
"-111.96","60.02","FORT SMITH A","2202201","2018-05-03 22:00","2018","05","03","22:00","-0.1","","-0.8","","95","","","","27","","5","","24.1","","98.97","","","","-2","","NA"
"-111.96","60.02","FORT SMITH A","2202201","2018-05-03 23:00","2018","05","03","23:00","-0.7","","-1.2","","97","","","","30","","6","","24.1","","98.97","","","","-3","","Mostly Cloudy"
"-111.96","60.02","FORT SMITH A","2202201","2018-05-04 00:00","2018","05","04","00:00","-1.6","","-2.0","","97","","","","36","","2","","24.1","","98.98","","","","-2","","NA"
"-111.96","60.02","FORT SMITH A","2202201","2018-05-04 01:00","2018","05","04","01:00","-1.8","","-2.2","","97","","","","22","","5","","24.1","","98.99","","","","-4","","NA"
"-111.96","60.02","FORT SMITH A","2202201","2018-05-04 02:00","2018","05","04","02:00","-2.0","","-2.5","","97","","","","18","","4","","24.1","","99.01","","","","-3","","Mostly Cloudy"
"-111.96","60.02","FORT SMITH A","2202201","2018-05-04 03:00","2018","05","04","03:00","-2.1","","-2.5","","97","","","","36","","2","","24.1","","99.02","","","","-3","","NA"
"-111.96","60.02","FORT SMITH A","2202201","2018-05-04 04:00","2018","05","04","04:00","-2.8","","-3.1","","97","","","","36","","2","","1.6","","99.05","","","","-4","","Fog"
"-111.96","60.02","FORT SMITH A","2202201","2018-05-04 05:00","2018","05","04","05:00","-2.4","","-2.6","","98","","","","16","","4","","0.2","","99.06","","","","-4","","Freezing Fog"
"-111.96","60.02","FORT SMITH A","2202201","2018-05-04 06:00","2018","05","04","06:00","-2.4","","-2.7","","98","","","","4","","4","","1.2","","99.06","","","","-4","","Fog"
"-111.96","60.02","FORT SMITH A","2202201","2018-05-04 07:00","2018","05","04","07:00","-0.6","","-0.9","","98","","","","36","","3","","3.2","","99.03","","","","-2","","NA"
"-111.96","60.02","FORT SMITH A","2202201","2018-05-04 08:00","2018","05","04","08:00","2.8","","0.4","","84","","","","14","","4","","19.3","","99.04","","","","","","Mostly Cloudy"
"-111.96","60.02","FORT SMITH A","2202201","2018-05-04 09:00","2018","05","04","09:00","3.3","","-0.4","","76","","","","19","","11","","24.1","","99.02","","","","","","NA"
"-111.96","60.02","FORT SMITH A","2202201","2018-05-04 10:00","2018","05","04","10:00","4.1","","-1.4","","67","","","","18","","14","","24.1","","99.03","","","","","","NA"
"-111.96","60.02","FORT SMITH A","2202201","2018-05-04 11:00","2018","05","04","11:00","5.1","","-1.0","","65","","","","18","","13","","24.1","","98.98","","","","","","Cloudy"
"-111.96","60.02","FORT SMITH A","2202201","2018-05-04 12:00","2018","05","04","12:00","6.4","","-0.9","","60","","","","14","","16","","24.1","","98.94","","","","","","NA"
"-111.96","60.02","FORT SMITH A","2202201","2018-05-04 13:00","2018","05","04","13:00","7.8","","-1.3","","53","","","","18","","16","","24.1","","98.86","","","","","","NA"
"-111.96","60.02","FORT SMITH A","2202201","2018-05-04 14:00","2018","05","04","14:00","9.3","","-1.0","","48","","","","16","","19","","24.1","","98.81","","","","","","Mostly Cloudy"
"-111.96","60.02","FORT SMITH A","2202201","2018-05-04 15:00","2018","05","04","15:00","10.2","","-1.2","","45","","","","18","","23","","24.1","","98.76","","","","","","NA"
"-111.96","60.02","FORT SMITH A","2202201","2018-05-04 16:00","2018","05","04","16:00","10.0","","0.0","","49","","","","16","","17","","24.1","","98.71","","","","","","NA"
"-111.96","60.02","FORT SMITH A","2202201","2018-05-04 17:00","2018","05","04","17:00","10.0","","-0.2","","49","","","","19","","18","","24.1","","98.70","","","","","","Cloudy"
"-111.96","60.02","FORT SMITH A","2202201","2018-05-04 18:00","2018","05","04","18:00","7.6","","3.5","","75","","","","18","","14","","24.1","","98.68","","","","","","Rain"
"-111.96","60.02","FORT SMITH A","2202201","2018-05-04 19:00","2018","05","04","19:00","7.0","","4.1","","82","","","","18","","8","","24.1","","98.66","","","","","","NA"
"-111.96","60.02","FORT SMITH A","2202201","2018-05-04 20:00","2018","05","04","20:00","6.8","","3.6","","80","","","","17","","9","","24.1","","98.65","","","","","","Mainly Clear"
"-111.96","60.02","FORT SMITH A","2202201","2018-05-04 21:00","2018","05","04","21:00","4.2","","2.8","","90","","","","17","","7","","24.1","","98.64","","","","","","NA"
"-111.96","60.02","FORT SMITH A","2202201","2018-05-04 22:00","2018","05","04","22:00","2.0","","1.4","","96","","","","17","","5","","24.1","","98.65","","","","","","NA"
"-111.96","60.02","FORT SMITH A","2202201","2018-05-04 23:00","2018","05","04","23:00","1.2","","0.5","","95","","","","26","","4","","24.1","","98.68","","","","","","Mainly Clear"
"-111.96","60.02","FORT SMITH A","2202201","2018-05-05 00:00","2018","05","05","00:00","3.8","","1.4","","84","","","","28","","16","","24.1","","98.73","","","","","","NA"
"-111.96","60.02","FORT SMITH A","2202201","2018-05-05 01:00","2018","05","05","01:00","2.6","","1.1","","90","","","","29","","17","","24.1","","98.78","","","","","","NA"
"-111.96","60.02","FORT SMITH A","2202201","2018-05-05 02:00","2018","05","05","02:00","1.7","","1.4","","97","","","","31","","17","","0.6","","98.84","","","","","","Fog"
"-111.96","60.02","FORT SMITH A","2202201","2018-05-05 03:00","2018","05","05","03:00","1.7","","1.4","","98","","","","30","","13","","0.6","","98.88","","","","","","Fog"
"-111.96","60.02","FORT SMITH A","2202201","2018-05-05 04:00","2018","05","05","04:00","1.4","","1.1","","98","","","","31","","6","","0.6","","98.95","","","","","","Fog"
"-111.96","60.02","FORT SMITH A","2202201","2018-05-05 05:00","2018","05","05","05:00","1.1","","0.8","","98","","","","31","","9","","0.6","","99.01","","","","","","Fog"
"-111.96","60.02","FORT SMITH A","2202201","2018-05-05 06:00","2018","05","05","06:00","1.0","","0.8","","99","","","","29","","7","","0.2","","99.02","","","","","","Fog"
"-111.96","60.02","FORT SMITH A","2202201","2018-05-05 07:00","2018","05","05","07:00","0.6","","0.5","","99","","","","36","","3","","0.4","","99.04","","","","","","Fog"
"-111.96","60.02","FORT SMITH A","2202201","2018-05-05 08:00","2018","05","05","08:00","1.6","","1.4","","99","","","","18","","5","","1.0","","99.04","","","","","","Fog"
"-111.96","60.02","FORT SMITH A","2202201","2018-05-05 09:00","2018","05","05","09:00","2.8","","2.2","","96","","","","15","","9","","6.4","","99.01","","","","","","Fog"
"-111.96","60.02","FORT SMITH A","2202201","2018-05-05 10:00","2018","05","05","10:00","4.4","","3.0","","91","","","","17","","11","","24.1","","99.02","","","","","","NA"
"-111.96","60.02","FORT SMITH A","2202201","2018-05-05 11:00","2018","05","05","11:00","6.8","","3.6","","80","","","","15","","11","","24.1","","98.96","","","","","","Mostly Cloudy"
"-111.96","60.02","FORT SMITH A","2202201","2018-05-05 12:00","2018","05","05","12:00","10.6","","3.0","","59","","","","14","","13","","24.1","","98.90","","","","","","NA"
"-111.96","60.02","FORT SMITH A","2202201","2018-05-05 13:00","2018","05","05","13:00","12.7","","2.8","","51","","","","16","","14","","24.1","","98.82","","","","","","NA"
"-111.96","60.02","FORT SMITH A","2202201","2018-05-05 14:00","2018","05","05","14:00","13.7","","1.6","","44","","","","15","","19","","24.1","","98.76","","","","","","Mostly Cloudy"
"-111.96","60.02","FORT SMITH A","2202201","2018-05-05 15:00","2018","05","05","15:00","15.3","","3.0","","43","","","","14","","17","","24.1","","98.70","","","","","","NA"
"-111.96","60.02","FORT SMITH A","2202201","2018-05-05 16:00","2018","05","05","16:00","16.0","","3.3","","42","","","","14","","15","","24.1","","98.60","","","","","","NA"
"-111.96","60.02","FORT SMITH A","2202201","2018-05-05 17:00","2018","05","05","17:00","16.4","","2.8","","40","","","","16","","16","","24.1","","98.56","","","","","","Cloudy"
"-111.96","60.02","FORT SMITH A","2202201","2018-05-05 18:00","2018","05","05","18:00","16.0","","3.1","","42","","","","15","","18","","24.1","","98.51","","","","","","NA"
"-111.96","60.02","FORT SMITH A","2202201","2018-05-05 19:00","2018","05","05","19:00","15.2","","2.8","","43","","","","15","","13","","24.1","","98.45","","","","","","NA"
"-111.96","60.02","FORT SMITH A","2202201","2018-05-05 20:00","2018","05","05","20:00","14.0","","2.1","","44","","","","14","","12","","24.1","","98.39","","","","","","Cloudy"
"-111.96","60.02","FORT SMITH A","2202201","2018-05-05 21:00","2018","05","05","21:00","12.1","","2.2","","51","","","","15","","14","","24.1","","98.35","","","","","","NA"
"-111.96","60.02","FORT SMITH A","2202201","2018-05-05 22:00","2018","05","05","22:00","10.7","","1.6","","53","","","","17","","14","","24.1","","98.34","","","","","","NA"
"-111.96","60.02","FORT SMITH A","2202201","2018-05-05 23:00","2018","05","05","23:00","9.6","","1.7","","58","","","","16","","16","","24.1","","98.29","","","","","","Mostly Cloudy"
"-111.96","60.02","FORT SMITH A","2202201","2018-05-06 00:00","2018","05","06","00:00","8.5","","1.8","","63","","","","16","","10","","24.1","","98.22","","","","","","NA"
"-111.96","60.02","FORT SMITH A","2202201","2018-05-06 01:00","2018","05","06","01:00","8.0","","1.6","","64","","","","16","","5","","24.1","","98.17","","","","","","NA"
"-111.96","60.02","FORT SMITH A","2202201","2018-05-06 02:00","2018","05","06","02:00","6.6","","1.3","","69","","","","22","","10","","24.1","","98.12","","","","","","Mainly Clear"
"-111.96","60.02","FORT SMITH A","2202201","2018-05-06 03:00","2018","05","06","03:00","9.8","","1.5","","56","","","","22","","16","","24.1","","98.10","","","","","","NA"
"-111.96","60.02","FORT SMITH A","2202201","2018-05-06 04:00","2018","05","06","04:00","9.5","","1.5","","57","","","","23","","12","","24.1","","98.12","","","","","","NA"
"-111.96","60.02","FORT SMITH A","2202201","2018-05-06 05:00","2018","05","06","05:00","10.0","","1.6","","56","","","","22","","9","","24.1","","98.16","","","","","","Mostly Cloudy"
"-111.96","60.02","FORT SMITH A","2202201","2018-05-06 06:00","2018","05","06","06:00","11.9","","2.2","","51","","","","22","","14","","24.1","","98.17","","","","","","NA"
"-111.96","60.02","FORT SMITH A","2202201","2018-05-06 07:00","2018","05","06","07:00","14.1","","2.5","","45","","","","27","","16","","24.1","","98.20","","","","","","NA"
"-111.96","60.02","FORT SMITH A","2202201","2018-05-06 08:00","2018","05","06","08:00","16.3","","3.1","","41","","","","27","","22","","24.1","","98.18","","","","","","Mainly Clear"
"-111.96","60.02","FORT SMITH A","2202201","2018-05-06 09:00","2018","05","06","09:00","17.6","","3.1","","38","","","","28","","19","","24.1","","98.21","","","","","","NA"
"-111.96","60.02","FORT SMITH A","2202201","2018-05-06 10:00","2018","05","06","10:00","18.8","","3.0","","35","","","","30","","16","","24.1","","98.23","","","","","","NA"
"-111.96","60.02","FORT SMITH A","2202201","2018-05-06 11:00","2018","05","06","11:00","19.8","","3.6","","34","","","","28","","21","","24.1","","98.26","","","","","","Mainly Clear"
"-111.96","60.02","FORT SMITH A","2202201","2018-05-06 12:00","2018","05","06","12:00","20.7","","2.9","","30","","","","27","","29","","24.1","","98.28","","","","","","NA"
"-111.96","60.02","FORT SMITH A","2202201","2018-05-06 13:00","2018","05","06","13:00","21.2","","2.5","","29","","","","26","","29","","24.1","","98.31","","","","","","NA"
"-111.96","60.02","FORT SMITH A","2202201","2018-05-06 14:00","2018","05","06","14:00","21.3","","2.2","","28","","","","28","","27","","24.1","","98.35","","","","","","Mainly Clear"
"-111.96","60.02","FORT SMITH A","2202201","2018-05-06 15:00","2018","05","06","15:00","21.9","","2.1","","27","","","","29","","32","","24.1","","98.40","","","","","","NA"
"-111.96","60.02","FORT SMITH A","2202201","2018-05-06 16:00","2018","05","06","16:00","20.4","","2.4","","30","","","","30","","30","","24.1","","98.46","","","","","","NA"
"-111.96","60.02","FORT SMITH A","2202201","2018-05-06 17:00","2018","05","06","17:00","20.4","","1.7","","28","","","","34","","25","","24.1","","98.57","","","","","","Mainly Clear"
"-111.96","60.02","FORT SMITH A","2202201","2018-05-06 18:00","2018","05","06","18:00","19.1","","2.4","","33","","","","35","","23","","24.1","","98.67","","","","","","NA"
"-111.96","60.02","FORT SMITH A","2202201","2018-05-06 19:00","2018","05","06","19:00","16.6","","0.5","","33","","","","34","","22","","24.1","","98.80","","","","","","NA"
"-111.96","60.02","FORT SMITH A","2202201","2018-05-06 20:00","2018","05","06","20:00","13.5","","1.1","","43","","","","34","","22","","24.1","","98.95","","","","","","Mostly Cloudy"
"-111.96","60.02","FORT SMITH A","2202201","2018-05-06 21:00","2018","05","06","21:00","11.6","","1.8","","51","","","","34","","16","","24.1","","99.09","","","","","","NA"
"-111.96","60.02","FORT SMITH A","2202201","2018-05-06 22:00","2018","05","06","22:00","10.7","","1.2","","52","","","","32","","17","","24.1","","99.23","","","","","","NA"
"-111.96","60.02","FORT SMITH A","2202201","2018-05-06 23:00","2018","05","06","23:00","10.0","","-0.7","","47","","","","33","","15","","24.1","","99.35","","","","","","Mostly Cloudy"
"-111.96","60.02","FORT SMITH A","2202201","2018-05-07 00:00","2018","05","07","00:00","8.6","","-0.9","","51","","","","35","","12","","24.1","","99.47","","","","","","NA"
"-111.96","60.02","FORT SMITH A","2202201","2018-05-07 01:00","2018","05","07","01:00","7.4","","-0.9","","56","","","","35","","18","","24.1","","99.59","","","","","","NA"
"-111.96","60.02","FORT SMITH A","2202201","2018-05-07 02:00","2018","05","07","02:00","5.6","","-1.0","","62","","","","36","","9","","24.1","","99.67","","","","","","Clear"
"-111.96","60.02","FORT SMITH A","2202201","2018-05-07 03:00","2018","05","07","03:00","4.1","","-1.6","","66","","","","34","","12","","24.1","","99.78","","","","","","NA"
"-111.96","60.02","FORT SMITH A","2202201","2018-05-07 04:00","2018","05","07","04:00","3.1","","-1.9","","70","","","","34","","9","","24.1","","99.86","","","","","","NA"
"-111.96","60.02","FORT SMITH A","2202201","2018-05-07 05:00","2018","05","07","05:00","0.8","","-2.8","","77","","","","22","","5","","24.1","","99.94","","","","","","Mainly Clear"
"-111.96","60.02","FORT SMITH A","2202201","2018-05-07 06:00","2018","05","07","06:00","3.8","","-1.7","","67","","","","29","","10","","24.1","","100.01","","","","","","NA"
"-111.96","60.02","FORT SMITH A","2202201","2018-05-07 07:00","2018","05","07","07:00","5.5","","-1.5","","61","","","","29","","13","","24.1","","100.06","","","","","","NA"
"-111.96","60.02","FORT SMITH A","2202201","2018-05-07 08:00","2018","05","07","08:00","7.1","","-2.9","","49","","","","32","","14","","24.1","","100.09","","","","","","Mainly Clear"
"-111.96","60.02","FORT SMITH A","2202201","2018-05-07 09:00","2018","05","07","09:00","8.0","","-3.2","","45","","","","35","","17","","24.1","","100.08","","","","","","NA"
"-111.96","60.02","FORT SMITH A","2202201","2018-05-07 10:00","2018","05","07","10:00","9.2","","-4.2","","38","","","","35","","18","","24.1","","100.09","","","","","","NA"
"-111.96","60.02","FORT SMITH A","2202201","2018-05-07 11:00","2018","05","07","11:00","10.7","","-3.8","","36","","","","34","","9","","24.1","","100.08","","","","","","Clear"
"-111.96","60.02","FORT SMITH A","2202201","2018-05-07 12:00","2018","05","07","12:00","11.5","","-6.4","","28","","","","1","","12","","24.1","","100.05","","","","","","NA"
"-111.96","60.02","FORT SMITH A","2202201","2018-05-07 13:00","2018","05","07","13:00","12.0","","-5.9","","28","","","","34","","10","","24.1","","100.00","","","","","","NA"
"-111.96","60.02","FORT SMITH A","2202201","2018-05-07 14:00","2018","05","07","14:00","12.8","","-5.2","","28","","","","35","","8","","24.1","","99.92","","","","","","Clear"
"-111.96","60.02","FORT SMITH A","2202201","2018-05-07 15:00","2018","05","07","15:00","13.3","","-6.4","","25","","","","5","","9","","24.1","","99.82","","","","","","NA"
"-111.96","60.02","FORT SMITH A","2202201","2018-05-07 16:00","2018","05","07","16:00","13.5","","-5.8","","26","","","","31","","8","","24.1","","99.75","","","","","","NA"
"-111.96","60.02","FORT SMITH A","2202201","2018-05-07 17:00","2018","05","07","17:00","14.2","","-5.8","","24","","","","11","","7","","24.1","","99.66","","","","","","Mostly Cloudy"
"-111.96","60.02","FORT SMITH A","2202201","2018-05-07 18:00","2018","05","07","18:00","13.8","","-6.0","","25","","","","11","","8","","24.1","","99.56","","","","","","NA"
"-111.96","60.02","FORT SMITH A","2202201","2018-05-07 19:00","2018","05","07","19:00","13.3","","-6.6","","24","","","","11","","9","","24.1","","99.43","","","","","","NA"
"-111.96","60.02","FORT SMITH A","2202201","2018-05-07 20:00","2018","05","07","20:00","12.4","","-6.1","","27","","","","13","","10","","24.1","","99.33","","","","","","Mostly Cloudy"
"-111.96","60.02","FORT SMITH A","2202201","2018-05-07 21:00","2018","05","07","21:00","11.5","","-6.6","","28","","","","13","","14","","24.1","","99.24","","","","","","NA"
"-111.96","60.02","FORT SMITH A","2202201","2018-05-07 22:00","2018","05","07","22:00","10.4","","-4.3","","35","","","","15","","18","","24.1","","99.20","","","","","","NA"
"-111.96","60.02","FORT SMITH A","2202201","2018-05-07 23:00","2018","05","07","23:00","9.8","","-5.5","","33","","","","14","","12","","24.1","","99.12","","","","","","Mostly Cloudy"
"-111.96","60.02","FORT SMITH A","2202201","2018-05-08 00:00","2018","05","08","00:00","9.3","","-5.4","","35","","","","18","","16","","24.1","","99.10","","","","","","NA"
"-111.96","60.02","FORT SMITH A","2202201","2018-05-08 01:00","2018","05","08","01:00","8.2","","-4.1","","41","","","","14","","20","","24.1","","98.84","","","","","","Rain"
"-111.96","60.02","FORT SMITH A","2202201","2018-05-08 02:00","2018","05","08","02:00","7.7","","-3.2","","46","","","","14","","17","","24.1","","98.63","","","","","","Cloudy"
"-111.96","60.02","FORT SMITH A","2202201","2018-05-08 03:00","2018","05","08","03:00","7.6","","-3.3","","46","","","","14","","18","","19.3","","98.52","","","","","","Rain"
"-111.96","60.02","FORT SMITH A","2202201","2018-05-08 04:00","2018","05","08","04:00","7.8","","-1.7","","51","","","","15","","17","","24.1","","98.43","","","","","","NA"
"-111.96","60.02","FORT SMITH A","2202201","2018-05-08 05:00","2018","05","08","05:00","5.9","","1.1","","71","","","","15","","13","","9.7","","98.35","","","","","","Rain Showers"
"-111.96","60.02","FORT SMITH A","2202201","2018-05-08 06:00","2018","05","08","06:00","5.5","","2.0","","78","","","","13","","9","","16.1","","98.25","","","","","","Rain Showers"
"-111.96","60.02","FORT SMITH A","2202201","2018-05-08 07:00","2018","05","08","07:00","5.4","","2.9","","84","","","","16","","12","","24.1","","98.16","","","","","","Rain Showers"
"-111.96","60.02","FORT SMITH A","2202201","2018-05-08 08:00","2018","05","08","08:00","6.7","","3.4","","79","","","","20","","9","","24.1","","98.08","","","","","","Mostly Cloudy"
"-111.96","60.02","FORT SMITH A","2202201","2018-05-08 09:00","2018","05","08","09:00","9.6","","2.0","","59","","","","28","","42","","24.1","","98.12","","","","","","NA"
"-111.96","60.02","FORT SMITH A","2202201","2018-05-08 10:00","2018","05","08","10:00","6.7","","1.2","","68","","","","28","","36","","24.1","","98.24","","","","","","NA"
"-111.96","60.02","FORT SMITH A","2202201","2018-05-08 11:00","2018","05","08","11:00","5.3","","0.9","","73","","","","29","","49","","24.1","","98.36","","","","","","Cloudy"
"-111.96","60.02","FORT SMITH A","2202201","2018-05-08 12:00","2018","05","08","12:00","3.6","","0.6","","81","","","","31","","30","","24.1","","98.55","","","","","","Rain"
"-111.96","60.02","FORT SMITH A","2202201","2018-05-08 13:00","2018","05","08","13:00","4.1","","0.8","","79","","","","33","","36","","16.1","","98.79","","","","","","Rain"
"-111.96","60.02","FORT SMITH A","2202201","2018-05-08 14:00","2018","05","08","14:00","5.2","","-0.1","","68","","","","36","","30","","24.1","","99.10","","","","","","Rain"
"-111.96","60.02","FORT SMITH A","2202201","2018-05-08 15:00","2018","05","08","15:00","6.9","","-0.5","","59","","","","36","","28","","24.1","","99.31","","","","","","NA"
"-111.96","60.02","FORT SMITH A","2202201","2018-05-08 16:00","2018","05","08","16:00","7.3","","-1.0","","56","","","","35","","28","","24.1","","99.48","","","","","","NA"
"-111.96","60.02","FORT SMITH A","2202201","2018-05-08 17:00","2018","05","08","17:00","8.2","","-1.3","","51","","","","31","","29","","24.1","","99.62","","","","","","Mostly Cloudy"
"-111.96","60.02","FORT SMITH A","2202201","2018-05-08 18:00","2018","05","08","18:00","7.2","","-3.0","","48","","","","34","","23","","19.3","","99.70","","","","","","Rain Showers"
"-111.96","60.02","FORT SMITH A","2202201","2018-05-08 19:00","2018","05","08","19:00","6.9","","-5.4","","41","","","","35","","18","","24.1","","99.79","","","","","","NA"
"-111.96","60.02","FORT SMITH A","2202201","2018-05-08 20:00","2018","05","08","20:00","6.0","","-3.9","","49","","","","35","","10","","24.1","","99.83","","","","","","Clear"
"-111.96","60.02","FORT SMITH A","2202201","2018-05-08 21:00","2018","05","08","21:00","4.7","","-5.2","","48","","","","34","","9","","24.1","","99.88","","","","","","NA"
"-111.96","60.02","FORT SMITH A","2202201","2018-05-08 22:00","2018","05","08","22:00","1.8","","-4.7","","62","","","","30","","4","","24.1","","99.92","","","","","","NA"
"-111.96","60.02","FORT SMITH A","2202201","2018-05-08 23:00","2018","05","08","23:00","-1.5","","-5.6","","74","","","","23","","5","","24.1","","99.93","","","","-3","","Clear"
"-111.96","60.02","FORT SMITH A","2202201","2018-05-09 00:00","2018","05","09","00:00","-1.9","","-5.4","","77","","","","14","","3","","24.1","","99.94","","","","-3","","NA"
"-111.96","60.02","FORT SMITH A","2202201","2018-05-09 01:00","2018","05","09","01:00","-0.4","","-5.7","","67","","","","22","","7","","24.1","","99.95","","","","-3","","NA"
"-111.96","60.02","FORT SMITH A","2202201","2018-05-09 02:00","2018","05","09","02:00","-1.5","","-5.6","","74","","","","25","","4","","24.1","","99.98","","","","-3","","Mainly Clear"
"-111.96","60.02","FORT SMITH A","2202201","2018-05-09 03:00","2018","05","09","03:00","-0.5","","-5.4","","70","","","","25","","4","","24.1","","99.96","","","","-2","","NA"
"-111.96","60.02","FORT SMITH A","2202201","2018-05-09 04:00","2018","05","09","04:00","-1.5","","-5.3","","75","","","","25","","6","","24.1","","99.95","","","","-4","","NA"
"-111.96","60.02","FORT SMITH A","2202201","2018-05-09 05:00","2018","05","09","05:00","-1.6","","-4.9","","78","","","","3","","7","","24.1","","99.99","","","","-4","","Mainly Clear"
"-111.96","60.02","FORT SMITH A","2202201","2018-05-09 06:00","2018","05","09","06:00","1.6","","-3.5","","69","","","","30","","7","","24.1","","99.99","","","","","","NA"
"-111.96","60.02","FORT SMITH A","2202201","2018-05-09 07:00","2018","05","09","07:00","3.8","","-3.2","","60","","","","29","","10","","24.1","","100.00","","","","","","NA"
"-111.96","60.02","FORT SMITH A","2202201","2018-05-09 08:00","2018","05","09","08:00","6.0","","-3.0","","53","","","","30","","12","","24.1","","99.98","","","","","","Clear"
"-111.96","60.02","FORT SMITH A","2202201","2018-05-09 09:00","2018","05","09","09:00","7.9","","-2.9","","46","","","","35","","7","","24.1","","99.98","","","","","","NA"
"-111.96","60.02","FORT SMITH A","2202201","2018-05-09 10:00","2018","05","09","10:00","8.7","","-2.5","","45","","","","35","","8","","24.1","","99.96","","","","","","NA"
"-111.96","60.02","FORT SMITH A","2202201","2018-05-09 11:00","2018","05","09","11:00","9.7","","-1.9","","44","","","","3","","11","","24.1","","99.93","","","","","","Mostly Cloudy"
"-111.96","60.02","FORT SMITH A","2202201","2018-05-09 12:00","2018","05","09","12:00","11.0","","-1.8","","41","","","","34","","15","","24.1","","99.88","","","","","","NA"
"-111.96","60.02","FORT SMITH A","2202201","2018-05-09 13:00","2018","05","09","13:00","11.4","","-2.6","","37","","","","36","","14","","24.1","","99.85","","","","","","NA"
"-111.96","60.02","FORT SMITH A","2202201","2018-05-09 14:00","2018","05","09","14:00","11.2","","-2.3","","39","","","","6","","5","","24.1","","99.81","","","","","","Mostly Cloudy"
"-111.96","60.02","FORT SMITH A","2202201","2018-05-09 15:00","2018","05","09","15:00","11.6","","-2.7","","37","","","","1","","17","","24.1","","99.75","","","","","","NA"
"-111.96","60.02","FORT SMITH A","2202201","2018-05-09 16:00","2018","05","09","16:00","12.2","","-3.2","","34","","","","33","","11","","24.1","","99.71","","","","","","NA"
"-111.96","60.02","FORT SMITH A","2202201","2018-05-09 17:00","2018","05","09","17:00","12.2","","-2.3","","36","","","","2","","17","","24.1","","99.66","","","","","","Mostly Cloudy"
"-111.96","60.02","FORT SMITH A","2202201","2018-05-09 18:00","2018","05","09","18:00","11.3","","-2.4","","38","","","","2","","7","","24.1","","99.62","","","","","","NA"
"-111.96","60.02","FORT SMITH A","2202201","2018-05-09 19:00","2018","05","09","19:00","10.2","","-3.1","","39","","","","7","","7","","24.1","","99.59","","","","","","NA"
"-111.96","60.02","FORT SMITH A","2202201","2018-05-09 20:00","2018","05","09","20:00","8.6","","-4.5","","39","","","","7","","7","","24.1","","99.56","","","","","","Mostly Cloudy"
"-111.96","60.02","FORT SMITH A","2202201","2018-05-09 21:00","2018","05","09","21:00","6.7","","-5.3","","42","","","","6","","5","","24.1","","99.54","","","","","","NA"
"-111.96","60.02","FORT SMITH A","2202201","2018-05-09 22:00","2018","05","09","22:00","5.6","","-6.2","","42","","","","10","","3","","24.1","","99.53","","","","","","NA"
"-111.96","60.02","FORT SMITH A","2202201","2018-05-09 23:00","2018","05","09","23:00","5.2","","-6.2","","43","","","","10","","7","","24.1","","99.52","","","","","","Mainly Clear"
"-111.96","60.02","FORT SMITH A","2202201","2018-05-10 00:00","2018","05","10","00:00","4.1","","-5.9","","48","","","","11","","5","","24.1","","99.50","","","","","","NA"
"-111.96","60.02","FORT SMITH A","2202201","2018-05-10 01:00","2018","05","10","01:00","4.0","","-5.6","","50","","","","14","","9","","24.1","","99.48","","","","","","NA"
"-111.96","60.02","FORT SMITH A","2202201","2018-05-10 02:00","2018","05","10","02:00","2.8","","-5.9","","53","","","","14","","9","","24.1","","99.45","","","","","","Mainly Clear"
"-111.96","60.02","FORT SMITH A","2202201","2018-05-10 03:00","2018","05","10","03:00","2.3","","-7.0","","51","","","","13","","8","","24.1","","99.38","","","","","","NA"
"-111.96","60.02","FORT SMITH A","2202201","2018-05-10 04:00","2018","05","10","04:00","0.6","","-5.8","","62","","","","12","","5","","24.1","","99.32","","","","","","NA"
"-111.96","60.02","FORT SMITH A","2202201","2018-05-10 05:00","2018","05","10","05:00","0.7","","-5.0","","66","","","","11","","8","","24.1","","99.27","","","","","","Mainly Clear"
"-111.96","60.02","FORT SMITH A","2202201","2018-05-10 06:00","2018","05","10","06:00","2.1","","-4.4","","62","","","","12","","6","","24.1","","99.25","","","","","","NA"
"-111.96","60.02","FORT SMITH A","2202201","2018-05-10 07:00","2018","05","10","07:00","4.1","","-4.4","","54","","","","13","","12","","24.1","","99.22","","","","","","NA"
"-111.96","60.02","FORT SMITH A","2202201","2018-05-10 08:00","2018","05","10","08:00","6.2","","-3.9","","48","","","","12","","10","","24.1","","99.17","","","","","","Clear"
"-111.96","60.02","FORT SMITH A","2202201","2018-05-10 09:00","2018","05","10","09:00","8.5","","-2.4","","46","","","","9","","7","","24.1","","99.11","","","","","","NA"
"-111.96","60.02","FORT SMITH A","2202201","2018-05-10 10:00","2018","05","10","10:00","10.3","","-3.0","","39","","","","9","","8","","24.1","","99.06","","","","","","NA"
"-111.96","60.02","FORT SMITH A","2202201","2018-05-10 11:00","2018","05","10","11:00","12.7","","-3.9","","31","","","","13","","13","","24.1","","99.00","","","","","","Clear"
"-111.96","60.02","FORT SMITH A","2202201","2018-05-10 12:00","2018","05","10","12:00","14.4","","-4.4","","27","","","","12","","11","","24.1","","98.95","","","","","","NA"
"-111.96","60.02","FORT SMITH A","2202201","2018-05-10 13:00","2018","05","10","13:00","15.1","","-5.2","","24","","","","36","","1","","24.1","","98.88","","","","","","NA"
"-111.96","60.02","FORT SMITH A","2202201","2018-05-10 14:00","2018","05","10","14:00","16.1","","-4.8","","23","","","","2","","14","","24.1","","98.83","","","","","","Mainly Clear"
"-111.96","60.02","FORT SMITH A","2202201","2018-05-10 15:00","2018","05","10","15:00","16.6","","-4.6","","23","","","","3","","10","","24.1","","98.77","","","","","","NA"
"-111.96","60.02","FORT SMITH A","2202201","2018-05-10 16:00","2018","05","10","16:00","17.4","","-4.7","","22","","","","36","","2","","24.1","","98.72","","","","","","NA"
"-111.96","60.02","FORT SMITH A","2202201","2018-05-10 17:00","2018","05","10","17:00","17.8","","-4.7","","21","","","","19","","3","","24.1","","98.69","","","","","","Mainly Clear"
"-111.96","60.02","FORT SMITH A","2202201","2018-05-10 18:00","2018","05","10","18:00","17.1","","-5.6","","20","","","","4","","15","","24.1","","98.67","","","","","","NA"
"-111.96","60.02","FORT SMITH A","2202201","2018-05-10 19:00","2018","05","10","19:00","16.5","","-5.4","","22","","","","3","","13","","24.1","","98.68","","","","","","NA"
"-111.96","60.02","FORT SMITH A","2202201","2018-05-10 20:00","2018","05","10","20:00","14.7","","-5.3","","25","","","","2","","7","","24.1","","98.69","","","","","","Mainly Clear"
"-111.96","60.02","FORT SMITH A","2202201","2018-05-10 21:00","2018","05","10","21:00","12.1","","-5.3","","29","","","","5","","8","","24.1","","98.73","","","","","","NA"
"-111.96","60.02","FORT SMITH A","2202201","2018-05-10 22:00","2018","05","10","22:00","8.6","","-3.1","","43","","","","11","","4","","24.1","","98.72","","","","","","NA"
"-111.96","60.02","FORT SMITH A","2202201","2018-05-10 23:00","2018","05","10","23:00","8.0","","-3.7","","43","","","","10","","5","","24.1","","98.71","","","","","","Mainly Clear"
"-111.96","60.02","FORT SMITH A","2202201","2018-05-11 00:00","2018","05","11","00:00","7.7","","-4.0","","43","","","","15","","7","","24.1","","98.68","","","","","","NA"
"-111.96","60.02","FORT SMITH A","2202201","2018-05-11 01:00","2018","05","11","01:00","6.6","","-4.5","","45","","","","16","","5","","24.1","","98.69","","","","","","NA"
"-111.96","60.02","FORT SMITH A","2202201","2018-05-11 02:00","2018","05","11","02:00","3.5","","-4.3","","57","","","","14","","4","","24.1","","98.68","","","","","","Clear"
"-111.96","60.02","FORT SMITH A","2202201","2018-05-11 03:00","2018","05","11","03:00","2.0","","-4.0","","65","","","","3","","8","","24.1","","98.67","","","","","","NA"
"-111.96","60.02","FORT SMITH A","2202201","2018-05-11 04:00","2018","05","11","04:00","1.6","","-4.2","","66","","","","36","","2","","24.1","","98.69","","","","","","NA"
"-111.96","60.02","FORT SMITH A","2202201","2018-05-11 05:00","2018","05","11","05:00","0.9","","-3.9","","71","","","","36","","1","","24.1","","98.71","","","","","","Clear"
"-111.96","60.02","FORT SMITH A","2202201","2018-05-11 06:00","2018","05","11","06:00","4.5","","-1.1","","67","","","","36","","1","","24.1","","98.75","","","","","","NA"
"-111.96","60.02","FORT SMITH A","2202201","2018-05-11 07:00","2018","05","11","07:00","8.0","","-4.3","","42","","","","36","","1","","24.1","","98.78","","","","","","NA"
"-111.96","60.02","FORT SMITH A","2202201","2018-05-11 08:00","2018","05","11","08:00","11.3","","-3.5","","35","","","","33","","6","","24.1","","98.80","","","","","","Mainly Clear"
"-111.96","60.02","FORT SMITH A","2202201","2018-05-11 09:00","2018","05","11","09:00","13.8","","-1.7","","34","","","","26","","6","","24.1","","98.81","","","","","","NA"
"-111.96","60.02","FORT SMITH A","2202201","2018-05-11 10:00","2018","05","11","10:00","16.1","","-4.1","","25","","","","31","","16","","24.1","","98.81","","","","","","NA"
"-111.96","60.02","FORT SMITH A","2202201","2018-05-11 11:00","2018","05","11","11:00","17.0","","-4.1","","23","","","","27","","5","","24.1","","98.80","","","","","","Mainly Clear"
"-111.96","60.02","FORT SMITH A","2202201","2018-05-11 12:00","2018","05","11","12:00","18.3","","-2.5","","24","","","","25","","15","","24.1","","98.75","","","","","","NA"
"-111.96","60.02","FORT SMITH A","2202201","2018-05-11 13:00","2018","05","11","13:00","19.3","","-2.1","","23","","","","25","","12","","24.1","","98.71","","","","","","NA"
"-111.96","60.02","FORT SMITH A","2202201","2018-05-11 14:00","2018","05","11","14:00","20.1","","-0.9","","24","","","","30","","24","","24.1","","98.67","","","","","","Mostly Cloudy"
"-111.96","60.02","FORT SMITH A","2202201","2018-05-11 15:00","2018","05","11","15:00","20.6","","-0.9","","23","","","","27","","19","","24.1","","98.60","","","","","","NA"
"-111.96","60.02","FORT SMITH A","2202201","2018-05-11 16:00","2018","05","11","16:00","21.0","","-0.7","","23","","","","30","","12","","24.1","","98.55","","","","","","NA"
"-111.96","60.02","FORT SMITH A","2202201","2018-05-11 17:00","2018","05","11","17:00","21.0","","-1.1","","22","","","","24","","5","","24.1","","98.47","","","","","","Mostly Cloudy"
"-111.96","60.02","FORT SMITH A","2202201","2018-05-11 18:00","2018","05","11","18:00","21.9","","0.7","","24","","","","26","","14","","24.1","","98.41","","","","","","NA"
"-111.96","60.02","FORT SMITH A","2202201","2018-05-11 19:00","2018","05","11","19:00","20.9","","0.1","","25","","","","23","","8","","24.1","","98.35","","","","","","NA"
"-111.96","60.02","FORT SMITH A","2202201","2018-05-11 20:00","2018","05","11","20:00","18.3","","1.8","","33","","","","15","","6","","24.1","","98.28","","","","","","Mostly Cloudy"
"-111.96","60.02","FORT SMITH A","2202201","2018-05-11 21:00","2018","05","11","21:00","16.9","","1.6","","35","","","","15","","14","","24.1","","98.17","","","","","","NA"
"-111.96","60.02","FORT SMITH A","2202201","2018-05-11 22:00","2018","05","11","22:00","16.6","","1.1","","35","","","","17","","14","","24.1","","98.10","","","","","","NA"
"-111.96","60.02","FORT SMITH A","2202201","2018-05-11 23:00","2018","05","11","23:00","15.3","","-0.4","","34","","","","18","","13","","24.1","","98.03","","","","","","Mostly Cloudy"
"-111.96","60.02","FORT SMITH A","2202201","2018-05-12 00:00","2018","05","12","00:00","14.8","","-1.2","","33","","","","19","","18","","24.1","","97.91","","","","","","NA"
"-111.96","60.02","FORT SMITH A","2202201","2018-05-12 01:00","2018","05","12","01:00","13.8","","-0.5","","37","","","","21","","13","","24.1","","97.85","","","","","","NA"
"-111.96","60.02","FORT SMITH A","2202201","2018-05-12 02:00","2018","05","12","02:00","11.9","","0.6","","46","","","","23","","17","","24.1","","97.78","","","","","","Mainly Clear"
"-111.96","60.02","FORT SMITH A","2202201","2018-05-12 03:00","2018","05","12","03:00","11.4","","1.4","","50","","","","24","","13","","24.1","","97.76","","","","","","NA"
"-111.96","60.02","FORT SMITH A","2202201","2018-05-12 04:00","2018","05","12","04:00","11.7","","1.9","","51","","","","23","","12","","24.1","","97.71","","","","","","NA"
"-111.96","60.02","FORT SMITH A","2202201","2018-05-12 05:00","2018","05","12","05:00","13.5","","2.9","","48","","","","25","","10","","24.1","","97.73","","","","","","Mostly Cloudy"
"-111.96","60.02","FORT SMITH A","2202201","2018-05-12 06:00","2018","05","12","06:00","14.9","","3.6","","47","","","","27","","22","","24.1","","97.74","","","","","","NA"
"-111.96","60.02","FORT SMITH A","2202201","2018-05-12 07:00","2018","05","12","07:00","16.3","","4.3","","44","","","","28","","22","","24.1","","97.73","","","","","","NA"
"-111.96","60.02","FORT SMITH A","2202201","2018-05-12 08:00","2018","05","12","08:00","16.7","","4.0","","42","","","","28","","33","","24.1","","97.77","","","","","","Mostly Cloudy"
"-111.96","60.02","FORT SMITH A","2202201","2018-05-12 09:00","2018","05","12","09:00","17.1","","4.0","","41","","","","30","","26","","24.1","","97.84","","","","","","NA"
"-111.96","60.02","FORT SMITH A","2202201","2018-05-12 10:00","2018","05","12","10:00","16.9","","3.5","","40","","","","28","","31","","24.1","","97.88","","","","","","NA"
"-111.96","60.02","FORT SMITH A","2202201","2018-05-12 11:00","2018","05","12","11:00","18.4","","3.9","","38","","","","30","","27","","24.1","","97.92","","","","","","Mostly Cloudy"
"-111.96","60.02","FORT SMITH A","2202201","2018-05-12 12:00","2018","05","12","12:00","19.1","","3.3","","35","","","","30","","26","","24.1","","97.94","","","","","","NA"
"-111.96","60.02","FORT SMITH A","2202201","2018-05-12 13:00","2018","05","12","13:00","20.0","","1.8","","29","","","","27","","27","","24.1","","97.91","","","","","","NA"
"-111.96","60.02","FORT SMITH A","2202201","2018-05-12 14:00","2018","05","12","14:00","18.3","","2.2","","34","","","","32","","12","","24.1","","97.93","","","","","","Rain Showers"
"-111.96","60.02","FORT SMITH A","2202201","2018-05-12 15:00","2018","05","12","15:00","16.1","","4.3","","45","","","","35","","27","","16.1","","98.02","","","","","","Rain Showers"
"-111.96","60.02","FORT SMITH A","2202201","2018-05-12 16:00","2018","05","12","16:00","15.1","","6.2","","55","","","","1","","15","","24.1","","98.04","","","","","","Rain Showers"
"-111.96","60.02","FORT SMITH A","2202201","2018-05-12 17:00","2018","05","12","17:00","17.2","","4.1","","41","","","","35","","12","","24.1","","98.07","","","","","","Mostly Cloudy"
"-111.96","60.02","FORT SMITH A","2202201","2018-05-12 18:00","2018","05","12","18:00","12.7","","5.8","","63","","","","31","","23","","9.7","","98.26","","","","","","Rain Showers"
"-111.96","60.02","FORT SMITH A","2202201","2018-05-12 19:00","2018","05","12","19:00","11.4","","5.1","","65","","","","34","","14","","24.1","","98.28","","","","","","NA"
"-111.96","60.02","FORT SMITH A","2202201","2018-05-12 20:00","2018","05","12","20:00","10.9","","5.5","","69","","","","29","","13","","24.1","","98.29","","","","","","Mostly Cloudy"
"-111.96","60.02","FORT SMITH A","2202201","2018-05-12 21:00","2018","05","12","21:00","9.7","","5.2","","73","","","","27","","13","","24.1","","98.34","","","","","","NA"
"-111.96","60.02","FORT SMITH A","2202201","2018-05-12 22:00","2018","05","12","22:00","9.9","","5.2","","72","","","","30","","14","","24.1","","98.38","","","","","","NA"
"-111.96","60.02","FORT SMITH A","2202201","2018-05-12 23:00","2018","05","12","23:00","8.2","","4.9","","79","","","","30","","10","","24.1","","98.38","","","","","","Mainly Clear"
"-111.96","60.02","FORT SMITH A","2202201","2018-05-13 00:00","2018","05","13","00:00","8.1","","4.1","","76","","","","25","","12","","24.1","","98.38","","","","","","NA"
"-111.96","60.02","FORT SMITH A","2202201","2018-05-13 01:00","2018","05","13","01:00","8.2","","4.1","","76","","","","28","","15","","24.1","","98.39","","","","","","NA"
"-111.96","60.02","FORT SMITH A","2202201","2018-05-13 02:00","2018","05","13","02:00","8.1","","3.9","","75","","","","30","","19","","24.1","","98.45","","","","","","Mainly Clear"
"-111.96","60.02","FORT SMITH A","2202201","2018-05-13 03:00","2018","05","13","03:00","7.2","","3.4","","77","","","","31","","16","","24.1","","98.46","","","","","","NA"
"-111.96","60.02","FORT SMITH A","2202201","2018-05-13 04:00","2018","05","13","04:00","5.9","","2.6","","79","","","","32","","11","","24.1","","98.54","","","","","","NA"
"-111.96","60.02","FORT SMITH A","2202201","2018-05-13 05:00","2018","05","13","05:00","5.3","","2.2","","80","","","","32","","14","","24.1","","98.66","","","","","","Mostly Cloudy"
"-111.96","60.02","FORT SMITH A","2202201","2018-05-13 06:00","2018","05","13","06:00","5.6","","2.0","","77","","","","30","","16","","24.1","","98.75","","","","","","NA"
"-111.96","60.02","FORT SMITH A","2202201","2018-05-13 07:00","2018","05","13","07:00","5.6","","1.8","","77","","","","31","","21","","24.1","","98.81","","","","","","Moderate Rain"
"-111.96","60.02","FORT SMITH A","2202201","2018-05-13 08:00","2018","05","13","08:00","5.0","","2.6","","84","","","","32","","18","","24.1","","98.88","","","","","","Rain"
"-111.96","60.02","FORT SMITH A","2202201","2018-05-13 09:00","2018","05","13","09:00","5.1","","2.5","","83","","","","33","","18","","19.3","","98.95","","","","","","Rain"
"-111.96","60.02","FORT SMITH A","2202201","2018-05-13 10:00","2018","05","13","10:00","5.5","","1.1","","73","","","","34","","16","","24.1","","99.05","","","","","","Rain"
"-111.96","60.02","FORT SMITH A","2202201","2018-05-13 11:00","2018","05","13","11:00","7.2","","-0.5","","58","","","","32","","13","","24.1","","99.11","","","","","","Mostly Cloudy"
"-111.96","60.02","FORT SMITH A","2202201","2018-05-13 12:00","2018","05","13","12:00","8.3","","-2.1","","48","","","","34","","22","","24.1","","99.16","","","","","","NA"
"-111.96","60.02","FORT SMITH A","2202201","2018-05-13 13:00","2018","05","13","13:00","8.9","","-5.2","","36","","","","31","","23","","24.1","","99.21","","","","","","NA"
"-111.96","60.02","FORT SMITH A","2202201","2018-05-13 14:00","2018","05","13","14:00","8.9","","-4.2","","39","","","","30","","26","","24.1","","99.26","","","","","","Mainly Clear"
"-111.96","60.02","FORT SMITH A","2202201","2018-05-13 15:00","2018","05","13","15:00","8.8","","-6.5","","33","","","","34","","19","","24.1","","99.30","","","","","","NA"
"-111.96","60.02","FORT SMITH A","2202201","2018-05-13 16:00","2018","05","13","16:00","8.7","","-8.6","","29","","","","34","","23","","24.1","","99.32","","","","","","NA"
"-111.96","60.02","FORT SMITH A","2202201","2018-05-13 17:00","2018","05","13","17:00","9.0","","-9.0","","27","","","","31","","17","","24.1","","99.35","","","","","","Mainly Clear"
"-111.96","60.02","FORT SMITH A","2202201","2018-05-13 18:00","2018","05","13","18:00","7.3","","-10.8","","26","","","","33","","17","","24.1","","99.38","","","","","","NA"
"-111.96","60.02","FORT SMITH A","2202201","2018-05-13 19:00","2018","05","13","19:00","6.5","","-12.9","","24","","","","33","","19","","24.1","","99.39","","","","","","NA"
"-111.96","60.02","FORT SMITH A","2202201","2018-05-13 20:00","2018","05","13","20:00","5.4","","-10.3","","31","","","","33","","13","","24.1","","99.41","","","","","","Mainly Clear"
"-111.96","60.02","FORT SMITH A","2202201","2018-05-13 21:00","2018","05","13","21:00","3.7","","-9.0","","39","","","","36","","9","","24.1","","99.40","","","","","","NA"
"-111.96","60.02","FORT SMITH A","2202201","2018-05-13 22:00","2018","05","13","22:00","2.2","","-8.4","","46","","","","36","","11","","24.1","","99.43","","","","","","NA"
"-111.96","60.02","FORT SMITH A","2202201","2018-05-13 23:00","2018","05","13","23:00","0.2","","-8.4","","53","","","","36","","6","","24.1","","99.45","","","","","","Mainly Clear"
"-111.96","60.02","FORT SMITH A","2202201","2018-05-14 00:00","2018","05","14","00:00","-0.2","","-9.0","","51","","","","2","","4","","24.1","","99.45","","","","-1","","NA"
"-111.96","60.02","FORT SMITH A","2202201","2018-05-14 01:00","2018","05","14","01:00","-1.2","","-8.2","","59","","","","5","","5","","24.1","","99.48","","","","-3","","NA"
"-111.96","60.02","FORT SMITH A","2202201","2018-05-14 02:00","2018","05","14","02:00","-1.4","","-7.2","","65","","","","8","","5","","24.1","","99.54","","","","-3","","Clear"
"-111.96","60.02","FORT SMITH A","2202201","2018-05-14 03:00","2018","05","14","03:00","-2.3","","-7.7","","67","","","","9","","4","","24.1","","99.58","","","","-4","","NA"
"-111.96","60.02","FORT SMITH A","2202201","2018-05-14 04:00","2018","05","14","04:00","-2.2","","-7.8","","66","","","","10","","5","","24.1","","99.63","","","","-4","","NA"
"-111.96","60.02","FORT SMITH A","2202201","2018-05-14 05:00","2018","05","14","05:00","-1.4","","-7.4","","64","","","","10","","8","","24.1","","99.63","","","","-4","","Mostly Cloudy"
"-111.96","60.02","FORT SMITH A","2202201","2018-05-14 06:00","2018","05","14","06:00","-1.1","","-7.7","","61","","","","10","","10","","24.1","","99.61","","","","-5","","NA"
"-111.96","60.02","FORT SMITH A","2202201","2018-05-14 07:00","2018","05","14","07:00","0.2","","-8.4","","53","","","","11","","10","","24.1","","99.60","","","","","","NA"
"-111.96","60.02","FORT SMITH A","2202201","2018-05-14 08:00","2018","05","14","08:00","1.0","","-7.9","","52","","","","8","","12","","24.1","","99.54","","","","","","Mostly Cloudy"
"-111.96","60.02","FORT SMITH A","2202201","2018-05-14 09:00","2018","05","14","09:00","1.7","","-9.0","","45","","","","11","","13","","24.1","","99.47","","","","","","NA"
"-111.96","60.02","FORT SMITH A","2202201","2018-05-14 10:00","2018","05","14","10:00","2.7","","-9.0","","42","","","","12","","8","","24.1","","99.36","","","","","","NA"
"-111.96","60.02","FORT SMITH A","2202201","2018-05-14 11:00","2018","05","14","11:00","3.7","","-9.3","","38","","","","15","","18","","24.1","","99.27","","","","","","Mostly Cloudy"
"-111.96","60.02","FORT SMITH A","2202201","2018-05-14 12:00","2018","05","14","12:00","4.2","","-10.4","","34","","","","13","","16","","24.1","","99.21","","","","","","NA"
"-111.96","60.02","FORT SMITH A","2202201","2018-05-14 13:00","2018","05","14","13:00","5.7","","-10.3","","31","","","","12","","17","","24.1","","99.11","","","","","","NA"
"-111.96","60.02","FORT SMITH A","2202201","2018-05-14 14:00","2018","05","14","14:00","6.8","","-9.2","","31","","","","15","","16","","24.1","","99.03","","","","","","Cloudy"
"-111.96","60.02","FORT SMITH A","2202201","2018-05-14 15:00","2018","05","14","15:00","7.5","","-8.0","","32","","","","13","","14","","24.1","","98.96","","","","","","NA"
"-111.96","60.02","FORT SMITH A","2202201","2018-05-14 16:00","2018","05","14","16:00","6.6","","-8.7","","33","","","","15","","21","","24.1","","98.85","","","","","","NA"
"-111.96","60.02","FORT SMITH A","2202201","2018-05-14 17:00","2018","05","14","17:00","6.2","","-11.2","","28","","","","12","","13","","24.1","","98.79","","","","","","Cloudy"
"-111.96","60.02","FORT SMITH A","2202201","2018-05-14 18:00","2018","05","14","18:00","5.4","","-13.4","","24","","","","12","","12","","24.1","","98.70","","","","","","NA"
"-111.96","60.02","FORT SMITH A","2202201","2018-05-14 19:00","2018","05","14","19:00","3.9","","-6.5","","47","","","","13","","10","","24.1","","98.63","","","","","","Ice Pellets"
"-111.96","60.02","FORT SMITH A","2202201","2018-05-14 20:00","2018","05","14","20:00","3.6","","-5.4","","52","","","","11","","11","","19.3","","98.50","","","","","","Rain"
"-111.96","60.02","FORT SMITH A","2202201","2018-05-14 21:00","2018","05","14","21:00","3.5","","-5.0","","54","","","","12","","9","","19.3","","98.45","","","","","","Rain"
"-111.96","60.02","FORT SMITH A","2202201","2018-05-14 22:00","2018","05","14","22:00","4.1","","-5.5","","50","","","","13","","10","","24.1","","98.37","","","","","","Rain"
"-111.96","60.02","FORT SMITH A","2202201","2018-05-14 23:00","2018","05","14","23:00","4.2","","-4.0","","55","","","","8","","5","","24.1","","98.40","","","","","","Cloudy"
"-111.96","60.02","FORT SMITH A","2202201","2018-05-15 00:00","2018","05","15","00:00","4.2","","-4.0","","55","","","","8","","9","","24.1","","98.32","","","","","","NA"
"-111.96","60.02","FORT SMITH A","2202201","2018-05-15 01:00","2018","05","15","01:00","3.4","","-3.2","","62","","","","7","","10","","19.3","","98.27","","","","","","Rain"
"-111.96","60.02","FORT SMITH A","2202201","2018-05-15 02:00","2018","05","15","02:00","2.3","","-3.5","","66","","","","7","","7","","24.1","","98.26","","","","","","Mainly Clear"
"-111.96","60.02","FORT SMITH A","2202201","2018-05-15 03:00","2018","05","15","03:00","1.2","","-3.2","","72","","","","6","","7","","24.1","","98.30","","","","","","NA"
"-111.96","60.02","FORT SMITH A","2202201","2018-05-15 04:00","2018","05","15","04:00","0.5","","-3.7","","73","","","","7","","4","","24.1","","98.32","","","","","","NA"
"-111.96","60.02","FORT SMITH A","2202201","2018-05-15 05:00","2018","05","15","05:00","1.0","","-3.3","","73","","","","8","","9","","24.1","","98.39","","","","","","Mainly Clear"
"-111.96","60.02","FORT SMITH A","2202201","2018-05-15 06:00","2018","05","15","06:00","2.0","","-2.2","","74","","","","9","","8","","24.1","","98.44","","","","","","NA"
"-111.96","60.02","FORT SMITH A","2202201","2018-05-15 07:00","2018","05","15","07:00","3.0","","-1.6","","71","","","","11","","8","","24.1","","98.49","","","","","","NA"
"-111.96","60.02","FORT SMITH A","2202201","2018-05-15 08:00","2018","05","15","08:00","4.1","","-1.4","","67","","","","9","","9","","24.1","","98.52","","","","","","Mostly Cloudy"
"-111.96","60.02","FORT SMITH A","2202201","2018-05-15 09:00","2018","05","15","09:00","4.9","","-1.0","","66","","","","36","","6","","24.1","","98.58","","","","","","NA"
"-111.96","60.02","FORT SMITH A","2202201","2018-05-15 10:00","2018","05","15","10:00","6.3","","-0.6","","61","","","","8","","4","","24.1","","98.59","","","","","","NA"
"-111.96","60.02","FORT SMITH A","2202201","2018-05-15 11:00","2018","05","15","11:00","8.0","","-0.3","","56","","","","10","","10","","24.1","","98.60","","","","","","Mostly Cloudy"
"-111.96","60.02","FORT SMITH A","2202201","2018-05-15 12:00","2018","05","15","12:00","9.3","","0.4","","54","","","","3","","12","","24.1","","98.65","","","","","","NA"
"-111.96","60.02","FORT SMITH A","2202201","2018-05-15 13:00","2018","05","15","13:00","9.3","","0.7","","55","","","","3","","10","","24.1","","98.71","","","","","","NA"
"-111.96","60.02","FORT SMITH A","2202201","2018-05-15 14:00","2018","05","15","14:00","9.4","","1.0","","56","","","","36","","12","","24.1","","98.78","","","","","","Cloudy"
"-111.96","60.02","FORT SMITH A","2202201","2018-05-15 15:00","2018","05","15","15:00","8.9","","0.0","","54","","","","6","","14","","24.1","","98.84","","","","","","NA"
"-111.96","60.02","FORT SMITH A","2202201","2018-05-15 16:00","2018","05","15","16:00","8.3","","0.1","","56","","","","6","","11","","24.1","","98.90","","","","","","NA"
"-111.96","60.02","FORT SMITH A","2202201","2018-05-15 17:00","2018","05","15","17:00","8.2","","0.2","","57","","","","6","","9","","24.1","","98.95","","","","","","Mostly Cloudy"
"-111.96","60.02","FORT SMITH A","2202201","2018-05-15 18:00","2018","05","15","18:00","8.0","","0.2","","58","","","","4","","6","","24.1","","99.02","","","","","","NA"
"-111.96","60.02","FORT SMITH A","2202201","2018-05-15 19:00","2018","05","15","19:00","7.1","","0.2","","62","","","","5","","12","","24.1","","99.05","","","","","","NA"
"-111.96","60.02","FORT SMITH A","2202201","2018-05-15 20:00","2018","05","15","20:00","6.4","","0.3","","65","","","","6","","10","","24.1","","99.07","","","","","","Mostly Cloudy"
"-111.96","60.02","FORT SMITH A","2202201","2018-05-15 21:00","2018","05","15","21:00","5.9","","0.5","","68","","","","5","","5","","24.1","","99.12","","","","","","NA"
"-111.96","60.02","FORT SMITH A","2202201","2018-05-15 22:00","2018","05","15","22:00","5.6","","0.5","","70","","","","7","","5","","19.3","","99.18","","","","","","Rain"
"-111.96","60.02","FORT SMITH A","2202201","2018-05-15 23:00","2018","05","15","23:00","5.3","","0.6","","72","","","","4","","9","","19.3","","99.26","","","","","","Rain"
"-111.96","60.02","FORT SMITH A","2202201","2018-05-16 00:00","2018","05","16","00:00","4.8","","1.4","","78","","","","7","","7","","19.3","","99.33","","","","","","Rain"
"-111.96","60.02","FORT SMITH A","2202201","2018-05-16 01:00","2018","05","16","01:00","4.2","","2.2","","87","","","","9","","4","","9.7","","99.42","","","","","","Rain"
"-111.96","60.02","FORT SMITH A","2202201","2018-05-16 02:00","2018","05","16","02:00","3.7","","1.1","","83","","","","13","","7","","19.3","","99.48","","","","","","Rain"
"-111.96","60.02","FORT SMITH A","2202201","2018-05-16 03:00","2018","05","16","03:00","3.7","","0.1","","77","","","","12","","4","","24.1","","99.54","","","","","","NA"
"-111.96","60.02","FORT SMITH A","2202201","2018-05-16 04:00","2018","05","16","04:00","3.6","","-0.8","","73","","","","15","","5","","24.1","","99.61","","","","","","NA"
"-111.96","60.02","FORT SMITH A","2202201","2018-05-16 05:00","2018","05","16","05:00","3.5","","-1.6","","69","","","","14","","10","","24.1","","99.68","","","","","","Mostly Cloudy"
"-111.96","60.02","FORT SMITH A","2202201","2018-05-16 06:00","2018","05","16","06:00","3.5","","-1.6","","69","","","","14","","12","","24.1","","99.72","","","","","","NA"
"-111.96","60.02","FORT SMITH A","2202201","2018-05-16 07:00","2018","05","16","07:00","3.7","","-1.8","","67","","","","16","","11","","24.1","","99.77","","","","","","NA"
"-111.96","60.02","FORT SMITH A","2202201","2018-05-16 08:00","2018","05","16","08:00","4.0","","-1.7","","67","","","","17","","9","","24.1","","99.81","","","","","","Cloudy"
"-111.96","60.02","FORT SMITH A","2202201","2018-05-16 09:00","2018","05","16","09:00","4.4","","-2.1","","63","","","","17","","9","","24.1","","99.85","","","","","","NA"
"-111.96","60.02","FORT SMITH A","2202201","2018-05-16 10:00","2018","05","16","10:00","4.8","","-1.9","","62","","","","15","","5","","24.1","","99.88","","","","","","NA"
"-111.96","60.02","FORT SMITH A","2202201","2018-05-16 11:00","2018","05","16","11:00","4.9","","-1.3","","64","","","","8","","11","","24.1","","99.93","","","","","","Rain"
"-111.96","60.02","FORT SMITH A","2202201","2018-05-16 12:00","2018","05","16","12:00","5.5","","-0.5","","65","","","","36","","2","","24.1","","99.96","","","","","","Rain Showers"
"-111.96","60.02","FORT SMITH A","2202201","2018-05-16 13:00","2018","05","16","13:00","6.0","","-0.7","","63","","","","1","","8","","24.1","","99.97","","","","","","NA"
"-111.96","60.02","FORT SMITH A","2202201","2018-05-16 14:00","2018","05","16","14:00","8.0","","0.5","","59","","","","5","","6","","24.1","","99.98","","","","","","Mostly Cloudy"
"-111.96","60.02","FORT SMITH A","2202201","2018-05-16 15:00","2018","05","16","15:00","7.7","","0.6","","61","","","","3","","12","","24.1","","99.97","","","","","","NA"
"-111.96","60.02","FORT SMITH A","2202201","2018-05-16 16:00","2018","05","16","16:00","8.2","","0.0","","56","","","","2","","10","","24.1","","99.96","","","","","","NA"
"-111.96","60.02","FORT SMITH A","2202201","2018-05-16 17:00","2018","05","16","17:00","8.6","","-0.5","","52","","","","5","","7","","24.1","","99.96","","","","","","Mostly Cloudy"
"-111.96","60.02","FORT SMITH A","2202201","2018-05-16 18:00","2018","05","16","18:00","8.6","","-0.4","","53","","","","4","","7","","24.1","","99.96","","","","","","NA"
"-111.96","60.02","FORT SMITH A","2202201","2018-05-16 19:00","2018","05","16","19:00","8.4","","0.3","","56","","","","2","","10","","24.1","","99.98","","","","","","NA"
"-111.96","60.02","FORT SMITH A","2202201","2018-05-16 20:00","2018","05","16","20:00","8.3","","0.4","","57","","","","2","","5","","24.1","","100.00","","","","","","Mostly Cloudy"
"-111.96","60.02","FORT SMITH A","2202201","2018-05-16 21:00","2018","05","16","21:00","6.9","","0.4","","63","","","","36","","2","","24.1","","100.03","","","","","","NA"
"-111.96","60.02","FORT SMITH A","2202201","2018-05-16 22:00","2018","05","16","22:00","5.0","","-0.1","","70","","","","3","","6","","24.1","","100.05","","","","","","NA"
"-111.96","60.02","FORT SMITH A","2202201","2018-05-16 23:00","2018","05","16","23:00","1.8","","-1.5","","79","","","","36","","3","","24.1","","100.07","","","","","","Clear"
"-111.96","60.02","FORT SMITH A","2202201","2018-05-17 00:00","2018","05","17","00:00","1.1","","-1.5","","83","","","","36","","2","","24.1","","100.09","","","","","","NA"
"-111.96","60.02","FORT SMITH A","2202201","2018-05-17 01:00","2018","05","17","01:00","-0.4","","-2.5","","86","","","","0","","1","","24.1","","100.12","","","","-1","","NA"
"-111.96","60.02","FORT SMITH A","2202201","2018-05-17 02:00","2018","05","17","02:00","-1.2","","-2.9","","88","","","","36","","3","","24.1","","100.14","","","","-2","","Clear"
"-111.96","60.02","FORT SMITH A","2202201","2018-05-17 03:00","2018","05","17","03:00","-1.8","","-3.4","","89","","","","16","","4","","24.1","","100.16","","","","-3","","NA"
"-111.96","60.02","FORT SMITH A","2202201","2018-05-17 04:00","2018","05","17","04:00","-3.0","","-4.6","","89","","","","36","","1","","24.1","","100.17","","","","-3","","NA"
"-111.96","60.02","FORT SMITH A","2202201","2018-05-17 05:00","2018","05","17","05:00","-1.9","","-3.4","","90","","","","35","","4","","24.1","","100.20","","","","-3","","Mainly Clear"
"-111.96","60.02","FORT SMITH A","2202201","2018-05-17 06:00","2018","05","17","06:00","2.7","","-1.9","","72","","","","36","","6","","24.1","","100.22","","","","","","NA"
"-111.96","60.02","FORT SMITH A","2202201","2018-05-17 07:00","2018","05","17","07:00","4.8","","-2.5","","60","","","","34","","8","","24.1","","100.23","","","","","","NA"
"-111.96","60.02","FORT SMITH A","2202201","2018-05-17 08:00","2018","05","17","08:00","7.6","","-5.8","","38","","","","34","","7","","24.1","","100.25","","","","","","Clear"
"-111.96","60.02","FORT SMITH A","2202201","2018-05-17 09:00","2018","05","17","09:00","9.4","","-3.2","","41","","","","35","","10","","24.1","","100.24","","","","","","NA"
"-111.96","60.02","FORT SMITH A","2202201","2018-05-17 10:00","2018","05","17","10:00","9.8","","-4.1","","37","","","","32","","12","","24.1","","100.24","","","","","","NA"
"-111.96","60.02","FORT SMITH A","2202201","2018-05-17 11:00","2018","05","17","11:00","10.8","","-4.3","","34","","","","36","","12","","24.1","","100.24","","","","","","Clear"
"-111.96","60.02","FORT SMITH A","2202201","2018-05-17 12:00","2018","05","17","12:00","11.4","","-4.9","","31","","","","31","","11","","24.1","","100.21","","","","","","NA"
"-111.96","60.02","FORT SMITH A","2202201","2018-05-17 13:00","2018","05","17","13:00","12.7","","-4.5","","30","","","","35","","13","","24.1","","100.19","","","","","","NA"
"-111.96","60.02","FORT SMITH A","2202201","2018-05-17 14:00","2018","05","17","14:00","13.3","","-5.3","","27","","","","36","","9","","24.1","","100.16","","","","","","Clear"
"-111.96","60.02","FORT SMITH A","2202201","2018-05-17 15:00","2018","05","17","15:00","13.2","","-5.0","","28","","","","1","","14","","24.1","","100.15","","","","","","NA"
"-111.96","60.02","FORT SMITH A","2202201","2018-05-17 16:00","2018","05","17","16:00","14.2","","-4.8","","26","","","","36","","13","","24.1","","100.12","","","","","","NA"
"-111.96","60.02","FORT SMITH A","2202201","2018-05-17 17:00","2018","05","17","17:00","14.0","","-4.7","","27","","","","35","","12","","24.1","","100.09","","","","","","Clear"
"-111.96","60.02","FORT SMITH A","2202201","2018-05-17 18:00","2018","05","17","18:00","13.8","","-5.4","","26","","","","30","","5","","24.1","","100.06","","","","","","NA"
"-111.96","60.02","FORT SMITH A","2202201","2018-05-17 19:00","2018","05","17","19:00","13.6","","-5.9","","25","","","","31","","12","","24.1","","100.06","","","","","","NA"
"-111.96","60.02","FORT SMITH A","2202201","2018-05-17 20:00","2018","05","17","20:00","12.4","","-4.6","","30","","","","34","","8","","24.1","","100.08","","","","","","Clear"
"-111.96","60.02","FORT SMITH A","2202201","2018-05-17 21:00","2018","05","17","21:00","9.4","","-4.4","","37","","","","35","","3","","24.1","","100.10","","","","","","NA"
"-111.96","60.02","FORT SMITH A","2202201","2018-05-17 22:00","2018","05","17","22:00","6.2","","-3.4","","50","","","","17","","4","","24.1","","100.12","","","","","","NA"
"-111.96","60.02","FORT SMITH A","2202201","2018-05-17 23:00","2018","05","17","23:00","4.1","","-4.0","","55","","","","36","","2","","24.1","","100.13","","","","","","Clear"
"-111.96","60.02","FORT SMITH A","2202201","2018-05-18 00:00","2018","05","18","00:00","1.8","","-4.5","","63","","","","0","","1","","24.1","","100.13","","","","","","NA"
"-111.96","60.02","FORT SMITH A","2202201","2018-05-18 01:00","2018","05","18","01:00","0.3","","-5.5","","65","","","","36","","2","","24.1","","100.16","","","","","","NA"
"-111.96","60.02","FORT SMITH A","2202201","2018-05-18 02:00","2018","05","18","02:00","-0.1","","-5.6","","66","","","","36","","2","","24.1","","100.14","","","","-1","","Mainly Clear"
"-111.96","60.02","FORT SMITH A","2202201","2018-05-18 03:00","2018","05","18","03:00","-1.1","","-5.9","","70","","","","17","","7","","24.1","","100.11","","","","-4","","NA"
"-111.96","60.02","FORT SMITH A","2202201","2018-05-18 04:00","2018","05","18","04:00","1.1","","-4.5","","66","","","","20","","4","","24.1","","100.12","","","","","","NA"
"-111.96","60.02","FORT SMITH A","2202201","2018-05-18 05:00","2018","05","18","05:00","1.6","","-3.7","","68","","","","36","","3","","24.1","","100.10","","","","","","Mainly Clear"
"-111.96","60.02","FORT SMITH A","2202201","2018-05-18 06:00","2018","05","18","06:00","5.2","","-4.7","","49","","","","15","","6","","24.1","","100.09","","","","","","NA"
"-111.96","60.02","FORT SMITH A","2202201","2018-05-18 07:00","2018","05","18","07:00","10.2","","-4.9","","34","","","","19","","9","","24.1","","100.07","","","","","","NA"
"-111.96","60.02","FORT SMITH A","2202201","2018-05-18 08:00","2018","05","18","08:00","13.4","","-4.5","","29","","","","16","","13","","24.1","","100.02","","","","","","Mainly Clear"
"-111.96","60.02","FORT SMITH A","2202201","2018-05-18 09:00","2018","05","18","09:00","15.1","","-3.4","","28","","","","17","","12","","24.1","","99.98","","","","","","NA"
"-111.96","60.02","FORT SMITH A","2202201","2018-05-18 10:00","2018","05","18","10:00","16.7","","-3.1","","25","","","","16","","13","","24.1","","99.92","","","","","","NA"
"-111.96","60.02","FORT SMITH A","2202201","2018-05-18 11:00","2018","05","18","11:00","17.8","","-2.0","","26","","","","15","","12","","24.1","","99.86","","","","","","Mainly Clear"
"-111.96","60.02","FORT SMITH A","2202201","2018-05-18 12:00","2018","05","18","12:00","18.9","","-4.0","","21","","","","20","","15","","24.1","","99.79","","","","","","NA"
"-111.96","60.02","FORT SMITH A","2202201","2018-05-18 13:00","2018","05","18","13:00","19.6","","-3.3","","21","","","","14","","8","","24.1","","99.71","","","","","","NA"
"-111.96","60.02","FORT SMITH A","2202201","2018-05-18 14:00","2018","05","18","14:00","21.0","","-2.2","","21","","","","22","","14","","24.1","","99.65","","","","","","Mainly Clear"
"-111.96","60.02","FORT SMITH A","2202201","2018-05-18 15:00","2018","05","18","15:00","21.4","","-1.3","","22","","","","16","","10","","24.1","","99.56","","","","","","NA"
"-111.96","60.02","FORT SMITH A","2202201","2018-05-18 16:00","2018","05","18","16:00","22.1","","-0.7","","22","","","","23","","3","","24.1","","99.48","","","","","","NA"
"-111.96","60.02","FORT SMITH A","2202201","2018-05-18 17:00","2018","05","18","17:00","22.0","","-1.3","","21","","","","19","","18","","24.1","","99.40","","","","","","Mostly Cloudy"
"-111.96","60.02","FORT SMITH A","2202201","2018-05-18 18:00","2018","05","18","18:00","21.9","","-0.4","","22","","","","18","","21","","24.1","","99.35","","","","","","NA"
"-111.96","60.02","FORT SMITH A","2202201","2018-05-18 19:00","2018","05","18","19:00","21.2","","-0.6","","23","","","","21","","13","","24.1","","99.31","","","","","","NA"
"-111.96","60.02","FORT SMITH A","2202201","2018-05-18 20:00","2018","05","18","20:00","19.4","","1.0","","29","","","","15","","8","","24.1","","99.28","","","","","","Mostly Cloudy"
"-111.96","60.02","FORT SMITH A","2202201","2018-05-18 21:00","2018","05","18","21:00","16.7","","1.7","","36","","","","16","","13","","24.1","","99.27","","","","","","NA"
"-111.96","60.02","FORT SMITH A","2202201","2018-05-18 22:00","2018","05","18","22:00","16.1","","1.2","","36","","","","18","","16","","24.1","","99.25","","","","","","NA"
"-111.96","60.02","FORT SMITH A","2202201","2018-05-18 23:00","2018","05","18","23:00","14.0","","1.2","","42","","","","17","","14","","24.1","","99.21","","","","","","Mostly Cloudy"
"-111.96","60.02","FORT SMITH A","2202201","2018-05-19 00:00","2018","05","19","00:00","13.1","","0.8","","43","","","","18","","12","","24.1","","99.16","","","","","","NA"
"-111.96","60.02","FORT SMITH A","2202201","2018-05-19 01:00","2018","05","19","01:00","12.7","","0.3","","42","","","","19","","12","","24.1","","99.12","","","","","","NA"
"-111.96","60.02","FORT SMITH A","2202201","2018-05-19 02:00","2018","05","19","02:00","10.8","","1.6","","53","","","","36","","1","","24.1","","99.13","","","","","","Mostly Cloudy"
"-111.96","60.02","FORT SMITH A","2202201","2018-05-19 03:00","2018","05","19","03:00","13.2","","1.5","","45","","","","23","","5","","24.1","","99.17","","","","","","NA"
"-111.96","60.02","FORT SMITH A","2202201","2018-05-19 04:00","2018","05","19","04:00","11.1","","2.4","","55","","","","7","","5","","24.1","","99.13","","","","","","NA"
"-111.96","60.02","FORT SMITH A","2202201","2018-05-19 05:00","2018","05","19","05:00","11.3","","1.9","","52","","","","22","","5","","24.1","","99.16","","","","","","Mostly Cloudy"
"-111.96","60.02","FORT SMITH A","2202201","2018-05-19 06:00","2018","05","19","06:00","12.6","","1.8","","48","","","","19","","8","","24.1","","99.10","","","","","","NA"
"-111.96","60.02","FORT SMITH A","2202201","2018-05-19 07:00","2018","05","19","07:00","14.0","","3.1","","48","","","","31","","4","","24.1","","99.10","","","","","","NA"
"-111.96","60.02","FORT SMITH A","2202201","2018-05-19 08:00","2018","05","19","08:00","16.9","","3.4","","40","","","","36","","12","","24.1","","99.13","","","","","","Mostly Cloudy"
"-111.96","60.02","FORT SMITH A","2202201","2018-05-19 09:00","2018","05","19","09:00","18.1","","4.5","","40","","","","36","","11","","24.1","","99.14","","","","","","NA"
"-111.96","60.02","FORT SMITH A","2202201","2018-05-19 10:00","2018","05","19","10:00","19.5","","4.3","","36","","","","1","","14","","24.1","","99.15","","","","","","NA"
"-111.96","60.02","FORT SMITH A","2202201","2018-05-19 11:00","2018","05","19","11:00","20.2","","3.3","","32","","","","2","","14","","24.1","","99.14","","","","","","Mostly Cloudy"
"-111.96","60.02","FORT SMITH A","2202201","2018-05-19 12:00","2018","05","19","12:00","20.9","","3.3","","31","","","","3","","8","","24.1","","99.10","","","","","","NA"
"-111.96","60.02","FORT SMITH A","2202201","2018-05-19 13:00","2018","05","19","13:00","20.0","","2.3","","31","","","","3","","17","","24.1","","99.10","","","","","","NA"
"-111.96","60.02","FORT SMITH A","2202201","2018-05-19 14:00","2018","05","19","14:00","21.0","","1.3","","27","","","","7","","10","","24.1","","99.06","","","","","","Mostly Cloudy"
"-111.96","60.02","FORT SMITH A","2202201","2018-05-19 15:00","2018","05","19","15:00","21.9","","1.4","","25","","","","5","","15","","24.1","","99.01","","","","","","NA"
"-111.96","60.02","FORT SMITH A","2202201","2018-05-19 16:00","2018","05","19","16:00","22.2","","1.7","","26","","","","7","","9","","24.1","","98.94","","","","","","NA"
"-111.96","60.02","FORT SMITH A","2202201","2018-05-19 17:00","2018","05","19","17:00","22.6","","3.1","","28","","","","5","","11","","24.1","","98.91","","","","","","Clear"
"-111.96","60.02","FORT SMITH A","2202201","2018-05-19 18:00","2018","05","19","18:00","22.0","","3.5","","29","","","","5","","12","","24.1","","98.90","","","","","","NA"
"-111.96","60.02","FORT SMITH A","2202201","2018-05-19 19:00","2018","05","19","19:00","20.7","","3.1","","31","","","","6","","10","","24.1","","98.87","","","","","","NA"
"-111.96","60.02","FORT SMITH A","2202201","2018-05-19 20:00","2018","05","19","20:00","18.5","","2.6","","34","","","","7","","9","","24.1","","98.86","","","","","","Mainly Clear"
"-111.96","60.02","FORT SMITH A","2202201","2018-05-19 21:00","2018","05","19","21:00","17.4","","3.0","","38","","","","12","","5","","24.1","","98.81","","","","","","NA"
"-111.96","60.02","FORT SMITH A","2202201","2018-05-19 22:00","2018","05","19","22:00","16.1","","3.3","","42","","","","5","","4","","24.1","","98.81","","","","","","NA"
"-111.96","60.02","FORT SMITH A","2202201","2018-05-19 23:00","2018","05","19","23:00","15.4","","3.5","","45","","","","12","","9","","24.1","","98.78","","","","","","Mostly Cloudy"
"-111.96","60.02","FORT SMITH A","2202201","2018-05-20 00:00","2018","05","20","00:00","14.3","","3.1","","47","","","","12","","5","","24.1","","98.78","","","","","","NA"
"-111.96","60.02","FORT SMITH A","2202201","2018-05-20 01:00","2018","05","20","01:00","12.8","","3.0","","51","","","","12","","7","","24.1","","98.73","","","","","","NA"
"-111.96","60.02","FORT SMITH A","2202201","2018-05-20 02:00","2018","05","20","02:00","11.8","","3.1","","55","","","","14","","8","","24.1","","98.71","","","","","","Mostly Cloudy"
"-111.96","60.02","FORT SMITH A","2202201","2018-05-20 03:00","2018","05","20","03:00","10.7","","2.8","","58","","","","13","","10","","24.1","","98.68","","","","","","NA"
"-111.96","60.02","FORT SMITH A","2202201","2018-05-20 04:00","2018","05","20","04:00","9.4","","2.8","","63","","","","13","","8","","24.1","","98.67","","","","","","NA"
"-111.96","60.02","FORT SMITH A","2202201","2018-05-20 05:00","2018","05","20","05:00","8.7","","2.9","","67","","","","12","","8","","24.1","","98.66","","","","","","Mainly Clear"
"-111.96","60.02","FORT SMITH A","2202201","2018-05-20 06:00","2018","05","20","06:00","9.9","","2.7","","61","","","","14","","8","","24.1","","98.65","","","","","","NA"
"-111.96","60.02","FORT SMITH A","2202201","2018-05-20 07:00","2018","05","20","07:00","12.2","","3.3","","54","","","","11","","5","","24.1","","98.64","","","","","","NA"
"-111.96","60.02","FORT SMITH A","2202201","2018-05-20 08:00","2018","05","20","08:00","13.4","","3.1","","50","","","","6","","9","","24.1","","98.62","","","","","","Mainly Clear"
"-111.96","60.02","FORT SMITH A","2202201","2018-05-20 09:00","2018","05","20","09:00","16.9","","3.7","","41","","","","12","","4","","24.1","","98.58","","","","","","NA"
"-111.96","60.02","FORT SMITH A","2202201","2018-05-20 10:00","2018","05","20","10:00","19.8","","4.8","","37","","","","7","","3","","24.1","","98.52","","","","","","NA"
"-111.96","60.02","FORT SMITH A","2202201","2018-05-20 11:00","2018","05","20","11:00","22.3","","3.7","","29","","","","15","","5","","24.1","","98.49","","","","","","Clear"
"-111.96","60.02","FORT SMITH A","2202201","2018-05-20 12:00","2018","05","20","12:00","24.4","","3.2","","25","","","","1","","8","","24.1","","98.44","","","","","","NA"
"-111.96","60.02","FORT SMITH A","2202201","2018-05-20 13:00","2018","05","20","13:00","25.7","","2.0","","21","","","","35","","9","","24.1","","98.38","","","","","","NA"
"-111.96","60.02","FORT SMITH A","2202201","2018-05-20 14:00","2018","05","20","14:00","26.7","","2.0","","20","","","","36","","11","","24.1","","98.34","","25","","","","Clear"
"-111.96","60.02","FORT SMITH A","2202201","2018-05-20 15:00","2018","05","20","15:00","27.4","","1.7","","19","","","","4","","8","","24.1","","98.31","","26","","","","NA"
"-111.96","60.02","FORT SMITH A","2202201","2018-05-20 16:00","2018","05","20","16:00","26.7","","5.1","","25","","","","1","","13","","24.1","","98.27","","26","","","","NA"
"-111.96","60.02","FORT SMITH A","2202201","2018-05-20 17:00","2018","05","20","17:00","25.9","","6.3","","28","","","","2","","30","","24.1","","98.28","","26","","","","Mostly Cloudy"
"-111.96","60.02","FORT SMITH A","2202201","2018-05-20 18:00","2018","05","20","18:00","24.4","","5.3","","29","","","","5","","10","","24.1","","98.29","","","","","","NA"
"-111.96","60.02","FORT SMITH A","2202201","2018-05-20 19:00","2018","05","20","19:00","23.1","","5.1","","31","","","","5","","13","","24.1","","98.26","","","","","","NA"
"-111.96","60.02","FORT SMITH A","2202201","2018-05-20 20:00","2018","05","20","20:00","21.6","","5.0","","33","","","","5","","12","","24.1","","98.28","","","","","","Mostly Cloudy"
"-111.96","60.02","FORT SMITH A","2202201","2018-05-20 21:00","2018","05","20","21:00","19.9","","5.2","","38","","","","5","","11","","24.1","","98.29","","","","","","NA"
"-111.96","60.02","FORT SMITH A","2202201","2018-05-20 22:00","2018","05","20","22:00","18.3","","5.3","","42","","","","6","","9","","24.1","","98.31","","","","","","NA"
"-111.96","60.02","FORT SMITH A","2202201","2018-05-20 23:00","2018","05","20","23:00","16.5","","5.2","","47","","","","7","","10","","24.1","","98.34","","","","","","Mostly Cloudy"
"-111.96","60.02","FORT SMITH A","2202201","2018-05-21 00:00","2018","05","21","00:00","15.2","","4.2","","47","","","","8","","13","","24.1","","98.38","","","","","","NA"
"-111.96","60.02","FORT SMITH A","2202201","2018-05-21 01:00","2018","05","21","01:00","13.5","","3.7","","51","","","","7","","9","","24.1","","98.42","","","","","","NA"
"-111.96","60.02","FORT SMITH A","2202201","2018-05-21 02:00","2018","05","21","02:00","12.2","","2.6","","52","","","","8","","9","","24.1","","98.43","","","","","","Mainly Clear"
"-111.96","60.02","FORT SMITH A","2202201","2018-05-21 03:00","2018","05","21","03:00","11.0","","2.1","","54","","","","9","","10","","24.1","","98.45","","","","","","NA"
"-111.96","60.02","FORT SMITH A","2202201","2018-05-21 04:00","2018","05","21","04:00","10.0","","1.8","","56","","","","7","","8","","24.1","","98.48","","","","","","NA"
"-111.96","60.02","FORT SMITH A","2202201","2018-05-21 05:00","2018","05","21","05:00","9.7","","1.3","","56","","","","9","","10","","24.1","","98.50","","","","","","Mainly Clear"
"-111.96","60.02","FORT SMITH A","2202201","2018-05-21 06:00","2018","05","21","06:00","10.1","","1.2","","54","","","","11","","10","","24.1","","98.50","","","","","","NA"
"-111.96","60.02","FORT SMITH A","2202201","2018-05-21 07:00","2018","05","21","07:00","11.1","","1.5","","51","","","","8","","14","","24.1","","98.52","","","","","","NA"
"-111.96","60.02","FORT SMITH A","2202201","2018-05-21 08:00","2018","05","21","08:00","12.8","","1.6","","47","","","","9","","12","","24.1","","98.54","","","","","","Mainly Clear"
"-111.96","60.02","FORT SMITH A","2202201","2018-05-21 09:00","2018","05","21","09:00","14.9","","2.8","","44","","","","7","","10","","24.1","","98.55","","","","","","NA"
"-111.96","60.02","FORT SMITH A","2202201","2018-05-21 10:00","2018","05","21","10:00","17.0","","3.2","","40","","","","8","","9","","24.1","","98.53","","","","","","NA"
"-111.96","60.02","FORT SMITH A","2202201","2018-05-21 11:00","2018","05","21","11:00","18.9","","3.4","","35","","","","8","","14","","24.1","","98.54","","","","","","Mainly Clear"
"-111.96","60.02","FORT SMITH A","2202201","2018-05-21 12:00","2018","05","21","12:00","20.4","","3.4","","32","","","","8","","12","","24.1","","98.53","","","","","","NA"
"-111.96","60.02","FORT SMITH A","2202201","2018-05-21 13:00","2018","05","21","13:00","22.2","","3.6","","29","","","","8","","13","","24.1","","98.51","","","","","","NA"
"-111.96","60.02","FORT SMITH A","2202201","2018-05-21 14:00","2018","05","21","14:00","23.7","","3.5","","26","","","","14","","14","","24.1","","98.48","","","","","","Clear"
"-111.96","60.02","FORT SMITH A","2202201","2018-05-21 15:00","2018","05","21","15:00","24.6","","2.5","","23","","","","12","","14","","24.1","","98.47","","","","","","NA"
"-111.96","60.02","FORT SMITH A","2202201","2018-05-21 16:00","2018","05","21","16:00","25.3","","2.1","","22","","","","12","","11","","24.1","","98.46","","","","","","NA"
"-111.96","60.02","FORT SMITH A","2202201","2018-05-21 17:00","2018","05","21","17:00","24.9","","2.9","","23","","","","9","","15","","24.1","","98.43","","","","","","Clear"
"-111.96","60.02","FORT SMITH A","2202201","2018-05-21 18:00","2018","05","21","18:00","24.5","","2.5","","24","","","","13","","16","","24.1","","98.43","","","","","","NA"
"-111.96","60.02","FORT SMITH A","2202201","2018-05-21 19:00","2018","05","21","19:00","23.2","","3.1","","27","","","","14","","15","","24.1","","98.42","","","","","","NA"
"-111.96","60.02","FORT SMITH A","2202201","2018-05-21 20:00","2018","05","21","20:00","21.1","","3.0","","30","","","","14","","13","","24.1","","98.47","","","","","","Clear"
"-111.96","60.02","FORT SMITH A","2202201","2018-05-21 21:00","2018","05","21","21:00","19.0","","3.4","","35","","","","13","","13","","24.1","","98.50","","","","","","NA"
"-111.96","60.02","FORT SMITH A","2202201","2018-05-21 22:00","2018","05","21","22:00","17.2","","3.2","","39","","","","13","","16","","24.1","","98.49","","","","","","NA"
"-111.96","60.02","FORT SMITH A","2202201","2018-05-21 23:00","2018","05","21","23:00","16.1","","2.6","","40","","","","13","","15","","24.1","","98.48","","","","","","Mainly Clear"
"-111.96","60.02","FORT SMITH A","2202201","2018-05-22 00:00","2018","05","22","00:00","14.6","","2.8","","45","","","","13","","11","","24.1","","98.47","","","","","","NA"
"-111.96","60.02","FORT SMITH A","2202201","2018-05-22 01:00","2018","05","22","01:00","13.8","","2.9","","48","","","","13","","13","","24.1","","98.46","","","","","","NA"
"-111.96","60.02","FORT SMITH A","2202201","2018-05-22 02:00","2018","05","22","02:00","13.5","","2.8","","48","","","","14","","15","","24.1","","98.45","","","","","","Mostly Cloudy"
"-111.96","60.02","FORT SMITH A","2202201","2018-05-22 03:00","2018","05","22","03:00","12.7","","2.8","","51","","","","14","","16","","24.1","","98.42","","","","","","NA"
"-111.96","60.02","FORT SMITH A","2202201","2018-05-22 04:00","2018","05","22","04:00","11.5","","2.9","","55","","","","15","","16","","24.1","","98.42","","","","","","NA"
"-111.96","60.02","FORT SMITH A","2202201","2018-05-22 05:00","2018","05","22","05:00","11.4","","3.0","","56","","","","15","","16","","24.1","","98.41","","","","","","Clear"
"-111.96","60.02","FORT SMITH A","2202201","2018-05-22 06:00","2018","05","22","06:00","12.6","","3.6","","54","","","","14","","19","","24.1","","98.40","","","","","","NA"
"-111.96","60.02","FORT SMITH A","2202201","2018-05-22 07:00","2018","05","22","07:00","14.2","","4.2","","51","","","","15","","17","","24.1","","98.38","","","","","","NA"
"-111.96","60.02","FORT SMITH A","2202201","2018-05-22 08:00","2018","05","22","08:00","16.5","","5.4","","47","","","","16","","17","","24.1","","98.33","","","","","","Mostly Cloudy"
"-111.96","60.02","FORT SMITH A","2202201","2018-05-22 09:00","2018","05","22","09:00","18.4","","6.2","","44","","","","16","","18","","24.1","","98.30","","","","","","NA"
"-111.96","60.02","FORT SMITH A","2202201","2018-05-22 10:00","2018","05","22","10:00","20.6","","7.4","","42","","","","15","","17","","24.1","","98.27","","","","","","NA"
"-111.96","60.02","FORT SMITH A","2202201","2018-05-22 11:00","2018","05","22","11:00","23.7","","8.5","","37","","","","16","","18","","24.1","","98.23","","","","","","Mostly Cloudy"
"-111.96","60.02","FORT SMITH A","2202201","2018-05-22 12:00","2018","05","22","12:00","27.8","","4.3","","22","","","","23","","28","","24.1","","98.12","","27","","","","NA"
"-111.96","60.02","FORT SMITH A","2202201","2018-05-22 13:00","2018","05","22","13:00","27.2","","1.6","","19","","","","21","","30","","24.1","","98.12","","25","","","","NA"
"-111.96","60.02","FORT SMITH A","2202201","2018-05-22 14:00","2018","05","22","14:00","27.6","","3.4","","21","","","","20","","18","","24.1","","98.11","","26","","","","Mostly Cloudy"
"-111.96","60.02","FORT SMITH A","2202201","2018-05-22 15:00","2018","05","22","15:00","28.3","","4.2","","21","","","","22","","20","","24.1","","98.06","","27","","","","NA"
"-111.96","60.02","FORT SMITH A","2202201","2018-05-22 16:00","2018","05","22","16:00","28.1","","3.9","","21","","","","20","","18","","24.1","","98.05","","27","","","","NA"
"-111.96","60.02","FORT SMITH A","2202201","2018-05-22 17:00","2018","05","22","17:00","28.2","","5.9","","24","","","","25","","13","","24.1","","98.03","","28","","","","Mostly Cloudy"
"-111.96","60.02","FORT SMITH A","2202201","2018-05-22 18:00","2018","05","22","18:00","28.7","","6.8","","25","","","","20","","13","","24.1","","98.01","","29","","","","NA"
"-111.96","60.02","FORT SMITH A","2202201","2018-05-22 19:00","2018","05","22","19:00","27.8","","6.0","","25","","","","30","","17","","24.1","","98.04","","27","","","","NA"
"-111.96","60.02","FORT SMITH A","2202201","2018-05-22 20:00","2018","05","22","20:00","26.0","","7.0","","29","","","","34","","8","","24.1","","98.06","","26","","","","Mainly Clear"
"-111.96","60.02","FORT SMITH A","2202201","2018-05-22 21:00","2018","05","22","21:00","20.8","","8.0","","43","","","","15","","4","","24.1","","98.09","","","","","","NA"
"-111.96","60.02","FORT SMITH A","2202201","2018-05-22 22:00","2018","05","22","22:00","17.4","","7.6","","52","","","","36","","2","","24.1","","98.11","","","","","","NA"
"-111.96","60.02","FORT SMITH A","2202201","2018-05-22 23:00","2018","05","22","23:00","16.1","","7.5","","57","","","","36","","3","","24.1","","98.12","","","","","","Mainly Clear"
"-111.96","60.02","FORT SMITH A","2202201","2018-05-23 00:00","2018","05","23","00:00","14.3","","6.8","","60","","","","13","","3","","24.1","","98.09","","","","","","NA"
"-111.96","60.02","FORT SMITH A","2202201","2018-05-23 01:00","2018","05","23","01:00","15.4","","7.2","","58","","","","15","","7","","24.1","","98.11","","","","","","NA"
"-111.96","60.02","FORT SMITH A","2202201","2018-05-23 02:00","2018","05","23","02:00","15.5","","7.2","","58","","","","18","","5","","24.1","","98.13","","","","","","Mostly Cloudy"
"-111.96","60.02","FORT SMITH A","2202201","2018-05-23 03:00","2018","05","23","03:00","14.7","","6.9","","59","","","","22","","3","","24.1","","98.15","","","","","","NA"
"-111.96","60.02","FORT SMITH A","2202201","2018-05-23 04:00","2018","05","23","04:00","14.4","","7.1","","61","","","","15","","5","","24.1","","98.18","","","","","","NA"
"-111.96","60.02","FORT SMITH A","2202201","2018-05-23 05:00","2018","05","23","05:00","14.6","","7.2","","61","","","","21","","6","","24.1","","98.21","","","","","","Mostly Cloudy"
"-111.96","60.02","FORT SMITH A","2202201","2018-05-23 06:00","2018","05","23","06:00","16.3","","8.0","","58","","","","21","","6","","24.1","","98.22","","","","","","NA"
"-111.96","60.02","FORT SMITH A","2202201","2018-05-23 07:00","2018","05","23","07:00","18.9","","8.9","","52","","","","22","","6","","24.1","","98.22","","","","","","NA"
"-111.96","60.02","FORT SMITH A","2202201","2018-05-23 08:00","2018","05","23","08:00","20.6","","8.9","","47","","","","28","","5","","24.1","","98.23","","","","","","Mainly Clear"
"-111.96","60.02","FORT SMITH A","2202201","2018-05-23 09:00","2018","05","23","09:00","23.1","","9.2","","41","","","","5","","5","","24.1","","98.22","","","","","","NA"
"-111.96","60.02","FORT SMITH A","2202201","2018-05-23 10:00","2018","05","23","10:00","25.1","","8.7","","35","","","","26","","9","","24.1","","98.21","","26","","","","NA"
"-111.96","60.02","FORT SMITH A","2202201","2018-05-23 11:00","2018","05","23","11:00","26.3","","6.6","","28","","","","30","","12","","24.1","","98.20","","26","","","","Mostly Cloudy"
"-111.96","60.02","FORT SMITH A","2202201","2018-05-23 12:00","2018","05","23","12:00","26.1","","8.1","","31","","","","25","","9","","24.1","","98.19","","27","","","","NA"
"-111.96","60.02","FORT SMITH A","2202201","2018-05-23 13:00","2018","05","23","13:00","27.7","","8.5","","29","","","","30","","20","","24.1","","98.17","","28","","","","NA"
"-111.96","60.02","FORT SMITH A","2202201","2018-05-23 14:00","2018","05","23","14:00","29.2","","6.7","","24","","","","24","","18","","24.1","","98.14","","29","","","","Mainly Clear"
"-111.96","60.02","FORT SMITH A","2202201","2018-05-23 15:00","2018","05","23","15:00","29.4","","7.6","","25","","","","31","","20","","24.1","","98.13","","30","","","","NA"
"-111.96","60.02","FORT SMITH A","2202201","2018-05-23 16:00","2018","05","23","16:00","29.9","","7.5","","24","","","","30","","21","","24.1","","98.13","","30","","","","NA"
"-111.96","60.02","FORT SMITH A","2202201","2018-05-23 17:00","2018","05","23","17:00","29.9","","8.0","","25","","","","30","","18","","24.1","","98.11","","30","","","","Clear"
"-111.96","60.02","FORT SMITH A","2202201","2018-05-23 18:00","2018","05","23","18:00","29.7","","7.3","","24","","","","30","","13","","24.1","","98.10","","30","","","","NA"
"-111.96","60.02","FORT SMITH A","2202201","2018-05-23 19:00","2018","05","23","19:00","27.0","","7.8","","29","","","","35","","12","","24.1","","98.15","","27","","","","NA"
"-111.96","60.02","FORT SMITH A","2202201","2018-05-23 20:00","2018","05","23","20:00","24.7","","7.7","","33","","","","34","","14","","24.1","","98.22","","25","","","","Mainly Clear"
"-111.96","60.02","FORT SMITH A","2202201","2018-05-23 21:00","2018","05","23","21:00","22.3","","5.9","","34","","","","34","","12","","24.1","","98.28","","","","","","NA"
"-111.96","60.02","FORT SMITH A","2202201","2018-05-23 22:00","2018","05","23","22:00","20.2","","6.1","","39","","","","35","","8","","24.1","","98.32","","","","","","NA"
"-111.96","60.02","FORT SMITH A","2202201","2018-05-23 23:00","2018","05","23","23:00","16.9","","5.7","","47","","","","36","","8","","24.1","","98.36","","","","","","Clear"
"-111.96","60.02","FORT SMITH A","2202201","2018-05-24 00:00","2018","05","24","00:00","17.9","","4.9","","42","","","","7","","7","","24.1","","98.38","","","","","","NA"
"-111.96","60.02","FORT SMITH A","2202201","2018-05-24 01:00","2018","05","24","01:00","16.6","","4.1","","43","","","","7","","5","","24.1","","98.39","","","","","","NA"
"-111.96","60.02","FORT SMITH A","2202201","2018-05-24 02:00","2018","05","24","02:00","16.1","","3.5","","43","","","","8","","5","","24.1","","98.40","","","","","","Mainly Clear"
"-111.96","60.02","FORT SMITH A","2202201","2018-05-24 03:00","2018","05","24","03:00","13.4","","5.2","","57","","","","1","","9","","24.1","","98.42","","","","","","NA"
"-111.96","60.02","FORT SMITH A","2202201","2018-05-24 04:00","2018","05","24","04:00","13.1","","5.4","","59","","","","35","","9","","24.1","","98.57","","","","","","Rain Showers"
"-111.96","60.02","FORT SMITH A","2202201","2018-05-24 05:00","2018","05","24","05:00","13.8","","4.6","","54","","","","4","","12","","24.1","","98.52","","","","","","Mostly Cloudy"
"-111.96","60.02","FORT SMITH A","2202201","2018-05-24 06:00","2018","05","24","06:00","14.7","","5.1","","52","","","","6","","5","","24.1","","98.52","","","","","","NA"
"-111.96","60.02","FORT SMITH A","2202201","2018-05-24 07:00","2018","05","24","07:00","15.2","","5.5","","52","","","","3","","5","","24.1","","98.55","","","","","","NA"
"-111.96","60.02","FORT SMITH A","2202201","2018-05-24 08:00","2018","05","24","08:00","17.5","","5.4","","45","","","","7","","11","","24.1","","98.44","","","","","","Mostly Cloudy"
"-111.96","60.02","FORT SMITH A","2202201","2018-05-24 09:00","2018","05","24","09:00","19.4","","4.6","","37","","","","6","","12","","24.1","","98.41","","","","","","NA"
"-111.96","60.02","FORT SMITH A","2202201","2018-05-24 10:00","2018","05","24","10:00","22.5","","3.1","","28","","","","7","","17","","24.1","","98.33","","","","","","NA"
"-111.96","60.02","FORT SMITH A","2202201","2018-05-24 11:00","2018","05","24","11:00","22.7","","2.7","","27","","","","7","","18","","24.1","","98.29","","","","","","Mostly Cloudy"
"-111.96","60.02","FORT SMITH A","2202201","2018-05-24 12:00","2018","05","24","12:00","23.8","","4.8","","29","","","","9","","12","","24.1","","98.25","","","","","","NA"
"-111.96","60.02","FORT SMITH A","2202201","2018-05-24 13:00","2018","05","24","13:00","23.8","","4.1","","27","","","","10","","12","","24.1","","98.22","","","","","","NA"
"-111.96","60.02","FORT SMITH A","2202201","2018-05-24 14:00","2018","05","24","14:00","24.8","","5.3","","28","","","","6","","10","","24.1","","98.18","","","","","","Mostly Cloudy"
"-111.96","60.02","FORT SMITH A","2202201","2018-05-24 15:00","2018","05","24","15:00","24.6","","4.9","","28","","","","6","","13","","24.1","","98.13","","","","","","NA"
"-111.96","60.02","FORT SMITH A","2202201","2018-05-24 16:00","2018","05","24","16:00","26.0","","4.8","","25","","","","8","","15","","24.1","","98.07","","25","","","","NA"
"-111.96","60.02","FORT SMITH A","2202201","2018-05-24 17:00","2018","05","24","17:00","26.3","","4.6","","24","","","","9","","12","","24.1","","98.03","","25","","","","Mainly Clear"
"-111.96","60.02","FORT SMITH A","2202201","2018-05-24 18:00","2018","05","24","18:00","25.3","","4.7","","26","","","","10","","12","","24.1","","97.99","","","","","","NA"
"-111.96","60.02","FORT SMITH A","2202201","2018-05-24 19:00","2018","05","24","19:00","23.0","","5.4","","32","","","","9","","13","","24.1","","97.98","","","","","","NA"
"-111.96","60.02","FORT SMITH A","2202201","2018-05-24 20:00","2018","05","24","20:00","21.0","","6.3","","38","","","","8","","16","","24.1","","97.96","","","","","","Mostly Cloudy"
"-111.96","60.02","FORT SMITH A","2202201","2018-05-24 21:00","2018","05","24","21:00","19.1","","6.3","","43","","","","7","","13","","24.1","","97.94","","","","","","NA"
"-111.96","60.02","FORT SMITH A","2202201","2018-05-24 22:00","2018","05","24","22:00","16.8","","6.7","","51","","","","7","","7","","24.1","","97.96","","","","","","NA"
"-111.96","60.02","FORT SMITH A","2202201","2018-05-24 23:00","2018","05","24","23:00","16.4","","5.8","","49","","","","9","","6","","24.1","","97.92","","","","","","Mostly Cloudy"
"-111.96","60.02","FORT SMITH A","2202201","2018-05-25 00:00","2018","05","25","00:00","15.4","","5.9","","53","","","","10","","8","","24.1","","97.90","","","","","","NA"
"-111.96","60.02","FORT SMITH A","2202201","2018-05-25 01:00","2018","05","25","01:00","15.2","","5.8","","53","","","","9","","4","","24.1","","97.90","","","","","","NA"
"-111.96","60.02","FORT SMITH A","2202201","2018-05-25 02:00","2018","05","25","02:00","13.9","","5.9","","58","","","","4","","7","","24.1","","97.92","","","","","","Mostly Cloudy"
"-111.96","60.02","FORT SMITH A","2202201","2018-05-25 03:00","2018","05","25","03:00","13.7","","5.9","","59","","","","9","","7","","24.1","","97.96","","","","","","NA"
"-111.96","60.02","FORT SMITH A","2202201","2018-05-25 04:00","2018","05","25","04:00","13.1","","6.2","","63","","","","9","","9","","24.1","","97.95","","","","","","NA"
"-111.96","60.02","FORT SMITH A","2202201","2018-05-25 05:00","2018","05","25","05:00","12.6","","6.4","","66","","","","11","","8","","24.1","","97.91","","","","","","Cloudy"
"-111.96","60.02","FORT SMITH A","2202201","2018-05-25 06:00","2018","05","25","06:00","12.4","","6.7","","68","","","","15","","9","","24.1","","97.99","","","","","","Rain Showers"
"-111.96","60.02","FORT SMITH A","2202201","2018-05-25 07:00","2018","05","25","07:00","11.4","","8.8","","84","","","","22","","6","","24.1","","97.96","","","","","","NA"
"-111.96","60.02","FORT SMITH A","2202201","2018-05-25 08:00","2018","05","25","08:00","12.3","","9.4","","83","","","","17","","10","","24.1","","97.95","","","","","","Cloudy"
"-111.96","60.02","FORT SMITH A","2202201","2018-05-25 09:00","2018","05","25","09:00","12.9","","9.2","","78","","","","16","","14","","24.1","","97.98","","","","","","NA"
"-111.96","60.02","FORT SMITH A","2202201","2018-05-25 10:00","2018","05","25","10:00","13.3","","9.1","","75","","","","17","","12","","24.1","","97.97","","","","","","NA"
"-111.96","60.02","FORT SMITH A","2202201","2018-05-25 11:00","2018","05","25","11:00","14.6","","9.2","","70","","","","16","","9","","24.1","","97.97","","","","","","Cloudy"
"-111.96","60.02","FORT SMITH A","2202201","2018-05-25 12:00","2018","05","25","12:00","16.5","","10.2","","66","","","","14","","9","","24.1","","97.93","","","","","","NA"
"-111.96","60.02","FORT SMITH A","2202201","2018-05-25 13:00","2018","05","25","13:00","17.9","","10.9","","63","","","","2","","12","","24.1","","97.91","","","","","","NA"
"-111.96","60.02","FORT SMITH A","2202201","2018-05-25 14:00","2018","05","25","14:00","18.8","","11.4","","62","","","","14","","10","","24.1","","97.90","","","","","","Cloudy"
"-111.96","60.02","FORT SMITH A","2202201","2018-05-25 15:00","2018","05","25","15:00","19.7","","12.0","","61","","","","13","","9","","24.1","","97.89","","","","","","NA"
"-111.96","60.02","FORT SMITH A","2202201","2018-05-25 16:00","2018","05","25","16:00","20.6","","12.8","","60","","","","14","","11","","24.1","","97.86","","","","","","NA"
"-111.96","60.02","FORT SMITH A","2202201","2018-05-25 17:00","2018","05","25","17:00","20.6","","12.6","","60","","","","17","","6","","24.1","","97.86","","","","","","Mostly Cloudy"
"-111.96","60.02","FORT SMITH A","2202201","2018-05-25 18:00","2018","05","25","18:00","20.6","","8.7","","46","","","","1","","4","","24.1","","97.88","","","","","","NA"
"-111.96","60.02","FORT SMITH A","2202201","2018-05-25 19:00","2018","05","25","19:00","20.2","","8.7","","47","","","","14","","5","","24.1","","97.84","","","","","","NA"
"-111.96","60.02","FORT SMITH A","2202201","2018-05-25 20:00","2018","05","25","20:00","18.6","","12.6","","68","","","","5","","3","","24.1","","97.84","","","","","","Mainly Clear"
"-111.96","60.02","FORT SMITH A","2202201","2018-05-25 21:00","2018","05","25","21:00","16.9","","12.3","","74","","","","13","","7","","24.1","","97.85","","","","","","NA"
"-111.96","60.02","FORT SMITH A","2202201","2018-05-25 22:00","2018","05","25","22:00","13.7","","11.6","","87","","","","36","","1","","24.1","","97.86","","","","","","NA"
"-111.96","60.02","FORT SMITH A","2202201","2018-05-25 23:00","2018","05","25","23:00","11.9","","11.3","","96","","","","1","","5","","24.1","","97.87","","","","","","Mostly Cloudy"
"-111.96","60.02","FORT SMITH A","2202201","2018-05-26 00:00","2018","05","26","00:00","11.1","","10.3","","95","","","","36","","2","","24.1","","97.85","","","","","","NA"
"-111.96","60.02","FORT SMITH A","2202201","2018-05-26 01:00","2018","05","26","01:00","9.7","","9.2","","97","","","","0","","1","","24.1","","97.84","","","","","","NA"
"-111.96","60.02","FORT SMITH A","2202201","2018-05-26 02:00","2018","05","26","02:00","8.8","","8.5","","98","","","","36","","1","","24.1","","97.84","","","","","","Mainly Clear"
"-111.96","60.02","FORT SMITH A","2202201","2018-05-26 03:00","2018","05","26","03:00","8.0","","7.7","","98","","","","1","","5","","0.8","","97.80","","","","","","Fog"
"-111.96","60.02","FORT SMITH A","2202201","2018-05-26 04:00","2018","05","26","04:00","7.0","","6.6","","97","","","","2","","7","","0.8","","97.78","","","","","","Fog"
"-111.96","60.02","FORT SMITH A","2202201","2018-05-26 05:00","2018","05","26","05:00","9.0","","8.6","","97","","","","36","","2","","0.6","","97.75","","","","","","Fog"
"-111.96","60.02","FORT SMITH A","2202201","2018-05-26 06:00","2018","05","26","06:00","11.1","","10.8","","98","","","","3","","11","","24.1","","97.67","","","","","","NA"
"-111.96","60.02","FORT SMITH A","2202201","2018-05-26 07:00","2018","05","26","07:00","11.1","","9.5","","90","","","","5","","10","","24.1","","97.60","","","","","","NA"
"-111.96","60.02","FORT SMITH A","2202201","2018-05-26 08:00","2018","05","26","08:00","12.1","","9.3","","83","","","","4","","12","","24.1","","97.53","","","","","","Mostly Cloudy"
"-111.96","60.02","FORT SMITH A","2202201","2018-05-26 09:00","2018","05","26","09:00","12.6","","9.7","","82","","","","8","","8","","24.1","","97.54","","","","","","Rain Showers"
"-111.96","60.02","FORT SMITH A","2202201","2018-05-26 10:00","2018","05","26","10:00","12.1","","11.4","","96","","","","16","","6","","4.8","","97.53","","","","","","Thunderstorms,Rain Showers"
"-111.96","60.02","FORT SMITH A","2202201","2018-05-26 11:00","2018","05","26","11:00","10.4","","9.5","","94","","","","33","","16","","19.3","","97.51","","","","","","Rain Showers"
"-111.96","60.02","FORT SMITH A","2202201","2018-05-26 12:00","2018","05","26","12:00","9.8","","9.1","","95","","","","2","","12","","19.3","","97.50","","","","","","Rain"
"-111.96","60.02","FORT SMITH A","2202201","2018-05-26 13:00","2018","05","26","13:00","10.9","","9.7","","92","","","","31","","9","","24.1","","97.49","","","","","","Rain"
"-111.96","60.02","FORT SMITH A","2202201","2018-05-26 14:00","2018","05","26","14:00","12.4","","10.3","","87","","","","25","","3","","24.1","","97.46","","","","","","Mostly Cloudy"
"-111.96","60.02","FORT SMITH A","2202201","2018-05-26 15:00","2018","05","26","15:00","14.6","","10.9","","78","","","","28","","10","","24.1","","97.49","","","","","","NA"
"-111.96","60.02","FORT SMITH A","2202201","2018-05-26 16:00","2018","05","26","16:00","13.5","","10.1","","79","","","","29","","14","","24.1","","97.54","","","","","","NA"
"-111.96","60.02","FORT SMITH A","2202201","2018-05-26 17:00","2018","05","26","17:00","11.9","","9.7","","86","","","","31","","15","","24.1","","97.61","","","","","","Mostly Cloudy"
"-111.96","60.02","FORT SMITH A","2202201","2018-05-26 18:00","2018","05","26","18:00","11.1","","9.2","","88","","","","30","","17","","19.3","","97.69","","","","","","Rain Showers"
"-111.96","60.02","FORT SMITH A","2202201","2018-05-26 19:00","2018","05","26","19:00","10.6","","8.3","","86","","","","30","","18","","19.3","","97.78","","","","","","Rain Showers"
"-111.96","60.02","FORT SMITH A","2202201","2018-05-26 20:00","2018","05","26","20:00","9.3","","8.0","","92","","","","29","","18","","24.1","","97.89","","","","","","Rain Showers"
"-111.96","60.02","FORT SMITH A","2202201","2018-05-26 21:00","2018","05","26","21:00","8.9","","6.9","","87","","","","30","","18","","24.1","","97.95","","","","","","NA"
"-111.96","60.02","FORT SMITH A","2202201","2018-05-26 22:00","2018","05","26","22:00","8.6","","6.5","","87","","","","30","","13","","24.1","","98.03","","","","","","NA"
"-111.96","60.02","FORT SMITH A","2202201","2018-05-26 23:00","2018","05","26","23:00","7.9","","6.0","","88","","","","27","","9","","24.1","","98.11","","","","","","Mostly Cloudy"
"-111.96","60.02","FORT SMITH A","2202201","2018-05-27 00:00","2018","05","27","00:00","6.8","","5.7","","93","","","","28","","8","","24.1","","98.16","","","","","","NA"
"-111.96","60.02","FORT SMITH A","2202201","2018-05-27 01:00","2018","05","27","01:00","6.6","","6.0","","96","","","","29","","5","","24.1","","98.18","","","","","","NA"
"-111.96","60.02","FORT SMITH A","2202201","2018-05-27 02:00","2018","05","27","02:00","5.8","","5.3","","96","","","","20","","4","","24.1","","98.25","","","","","","Mainly Clear"
"-111.96","60.02","FORT SMITH A","2202201","2018-05-27 03:00","2018","05","27","03:00","3.1","","2.7","","97","","","","15","","5","","24.1","","98.27","","","","","","NA"
"-111.96","60.02","FORT SMITH A","2202201","2018-05-27 04:00","2018","05","27","04:00","2.8","","2.4","","97","","","","0","","1","","4.8","","98.32","","","","","","NA"
"-111.96","60.02","FORT SMITH A","2202201","2018-05-27 05:00","2018","05","27","05:00","3.8","","3.2","","96","","","","17","","5","","19.3","","98.39","","","","","","Mainly Clear"
"-111.96","60.02","FORT SMITH A","2202201","2018-05-27 06:00","2018","05","27","06:00","7.1","","5.4","","89","","","","21","","5","","24.1","","98.43","","","","","","NA"
"-111.96","60.02","FORT SMITH A","2202201","2018-05-27 07:00","2018","05","27","07:00","9.8","","4.8","","71","","","","36","","2","","24.1","","98.46","","","","","","NA"
"-111.96","60.02","FORT SMITH A","2202201","2018-05-27 08:00","2018","05","27","08:00","12.0","","5.9","","66","","","","17","","4","","24.1","","98.49","","","","","","Mainly Clear"
"-111.96","60.02","FORT SMITH A","2202201","2018-05-27 09:00","2018","05","27","09:00","14.0","","5.9","","58","","","","21","","12","","24.1","","98.47","","","","","","NA"
"-111.96","60.02","FORT SMITH A","2202201","2018-05-27 10:00","2018","05","27","10:00","15.6","","5.4","","50","","","","19","","12","","24.1","","98.46","","","","","","NA"
"-111.96","60.02","FORT SMITH A","2202201","2018-05-27 11:00","2018","05","27","11:00","16.8","","4.2","","43","","","","18","","11","","24.1","","98.46","","","","","","Clear"
"-111.96","60.02","FORT SMITH A","2202201","2018-05-27 12:00","2018","05","27","12:00","17.7","","5.9","","46","","","","15","","10","","24.1","","98.46","","","","","","NA"
"-111.96","60.02","FORT SMITH A","2202201","2018-05-27 13:00","2018","05","27","13:00","19.0","","5.6","","41","","","","17","","8","","24.1","","98.44","","","","","","NA"
"-111.96","60.02","FORT SMITH A","2202201","2018-05-27 14:00","2018","05","27","14:00","20.1","","6.3","","40","","","","16","","15","","24.1","","98.40","","","","","","Mostly Cloudy"
"-111.96","60.02","FORT SMITH A","2202201","2018-05-27 15:00","2018","05","27","15:00","20.0","","5.6","","39","","","","20","","10","","24.1","","98.40","","","","","","NA"
"-111.96","60.02","FORT SMITH A","2202201","2018-05-27 16:00","2018","05","27","16:00","20.1","","3.5","","33","","","","22","","6","","24.1","","98.40","","","","","","Rain Showers"
"-111.96","60.02","FORT SMITH A","2202201","2018-05-27 17:00","2018","05","27","17:00","20.1","","3.9","","34","","","","20","","8","","24.1","","98.42","","","","","","Mostly Cloudy"
"-111.96","60.02","FORT SMITH A","2202201","2018-05-27 18:00","2018","05","27","18:00","18.4","","7.3","","48","","","","12","","10","","24.1","","98.40","","","","","","NA"
"-111.96","60.02","FORT SMITH A","2202201","2018-05-27 19:00","2018","05","27","19:00","17.7","","8.0","","53","","","","14","","10","","24.1","","98.37","","","","","","NA"
"-111.96","60.02","FORT SMITH A","2202201","2018-05-27 20:00","2018","05","27","20:00","17.1","","7.8","","54","","","","12","","6","","24.1","","98.37","","","","","","Mostly Cloudy"
"-111.96","60.02","FORT SMITH A","2202201","2018-05-27 21:00","2018","05","27","21:00","15.5","","7.6","","59","","","","8","","4","","24.1","","98.36","","","","","","NA"
"-111.96","60.02","FORT SMITH A","2202201","2018-05-27 22:00","2018","05","27","22:00","14.5","","8.2","","65","","","","4","","6","","24.1","","98.37","","","","","","NA"
"-111.96","60.02","FORT SMITH A","2202201","2018-05-27 23:00","2018","05","27","23:00","13.5","","8.3","","71","","","","10","","5","","24.1","","98.36","","","","","","Mostly Cloudy"
"-111.96","60.02","FORT SMITH A","2202201","2018-05-28 00:00","2018","05","28","00:00","10.9","","8.1","","82","","","","14","","7","","24.1","","98.34","","","","","","NA"
"-111.96","60.02","FORT SMITH A","2202201","2018-05-28 01:00","2018","05","28","01:00","12.2","","6.2","","66","","","","15","","5","","24.1","","98.31","","","","","","NA"
"-111.96","60.02","FORT SMITH A","2202201","2018-05-28 02:00","2018","05","28","02:00","11.4","","5.6","","67","","","","16","","9","","24.1","","98.28","","","","","","Mostly Cloudy"
"-111.96","60.02","FORT SMITH A","2202201","2018-05-28 03:00","2018","05","28","03:00","11.1","","5.5","","68","","","","16","","5","","24.1","","98.26","","","","","","NA"
"-111.96","60.02","FORT SMITH A","2202201","2018-05-28 04:00","2018","05","28","04:00","10.4","","5.5","","71","","","","15","","7","","24.1","","98.22","","","","","","NA"
"-111.96","60.02","FORT SMITH A","2202201","2018-05-28 05:00","2018","05","28","05:00","11.1","","6.1","","71","","","","15","","8","","24.1","","98.19","","","","","","Cloudy"
"-111.96","60.02","FORT SMITH A","2202201","2018-05-28 06:00","2018","05","28","06:00","11.7","","6.8","","72","","","","14","","9","","24.1","","98.17","","","","","","NA"
"-111.96","60.02","FORT SMITH A","2202201","2018-05-28 07:00","2018","05","28","07:00","13.2","","7.3","","67","","","","17","","4","","19.3","","98.13","","","","","","NA"
"-111.96","60.02","FORT SMITH A","2202201","2018-05-28 08:00","2018","05","28","08:00","14.5","","7.2","","61","","","","18","","5","","19.3","","98.09","","","","","","Mostly Cloudy"
"-111.96","60.02","FORT SMITH A","2202201","2018-05-28 09:00","2018","05","28","09:00","16.1","","6.6","","53","","","","21","","8","","19.3","","98.02","","","","","","NA"
"-111.96","60.02","FORT SMITH A","2202201","2018-05-28 10:00","2018","05","28","10:00","18.6","","7.5","","48","","","","18","","21","","19.3","","97.97","","","","","","NA"
"-111.96","60.02","FORT SMITH A","2202201","2018-05-28 11:00","2018","05","28","11:00","20.9","","5.6","","36","","","","21","","18","","24.1","","97.86","","","","","","Mostly Cloudy"
"-111.96","60.02","FORT SMITH A","2202201","2018-05-28 12:00","2018","05","28","12:00","20.8","","5.5","","36","","","","20","","23","","24.1","","97.80","","","","","","NA"
"-111.96","60.02","FORT SMITH A","2202201","2018-05-28 13:00","2018","05","28","13:00","19.9","","6.2","","40","","","","20","","26","","24.1","","97.79","","","","","","NA"
"-111.96","60.02","FORT SMITH A","2202201","2018-05-28 14:00","2018","05","28","14:00","21.0","","6.3","","38","","","","19","","27","","24.1","","97.70","","","","","","Mainly Clear"
"-111.96","60.02","FORT SMITH A","2202201","2018-05-28 15:00","2018","05","28","15:00","21.1","","8.2","","43","","","","18","","22","","24.1","","97.61","","","","","","NA"
"-111.96","60.02","FORT SMITH A","2202201","2018-05-28 16:00","2018","05","28","16:00","16.4","","8.4","","59","","","","21","","45","","19.3","","97.65","","","","","","Thunderstorms,Rain Showers"
"-111.96","60.02","FORT SMITH A","2202201","2018-05-28 17:00","2018","05","28","17:00","18.4","","6.2","","45","","","","28","","23","","24.1","","97.71","","","","","","Mainly Clear"
"-111.96","60.02","FORT SMITH A","2202201","2018-05-28 18:00","2018","05","28","18:00","17.1","","7.1","","51","","","","31","","15","","24.1","","97.82","","","","","","NA"
"-111.96","60.02","FORT SMITH A","2202201","2018-05-28 19:00","2018","05","28","19:00","16.4","","6.7","","52","","","","28","","15","","24.1","","97.78","","","","","","NA"
"-111.96","60.02","FORT SMITH A","2202201","2018-05-28 20:00","2018","05","28","20:00","16.1","","7.2","","55","","","","26","","10","","24.1","","97.78","","","","","","Mainly Clear"
"-111.96","60.02","FORT SMITH A","2202201","2018-05-28 21:00","2018","05","28","21:00","14.9","","6.2","","56","","","","25","","12","","24.1","","97.87","","","","","","NA"
"-111.96","60.02","FORT SMITH A","2202201","2018-05-28 22:00","2018","05","28","22:00","12.8","","7.3","","69","","","","23","","14","","24.1","","97.83","","","","","","NA"
"-111.96","60.02","FORT SMITH A","2202201","2018-05-28 23:00","2018","05","28","23:00","10.9","","6.5","","74","","","","23","","11","","24.1","","97.83","","","","","","Mainly Clear"
"-111.96","60.02","FORT SMITH A","2202201","2018-05-29 00:00","2018","05","29","00:00","9.5","","6.0","","79","","","","22","","16","","24.1","","97.87","","","","","","NA"
"-111.96","60.02","FORT SMITH A","2202201","2018-05-29 01:00","2018","05","29","01:00","10.3","","7.4","","82","","","","26","","18","","24.1","","97.89","","","","","","NA"
"-111.96","60.02","FORT SMITH A","2202201","2018-05-29 02:00","2018","05","29","02:00","9.2","","6.2","","81","","","","28","","17","","24.1","","97.92","","","","","","Mainly Clear"
"-111.96","60.02","FORT SMITH A","2202201","2018-05-29 03:00","2018","05","29","03:00","9.3","","6.4","","82","","","","26","","16","","24.1","","97.95","","","","","","NA"
"-111.96","60.02","FORT SMITH A","2202201","2018-05-29 04:00","2018","05","29","04:00","8.4","","5.7","","83","","","","30","","27","","24.1","","97.96","","","","","","NA"
"-111.96","60.02","FORT SMITH A","2202201","2018-05-29 05:00","2018","05","29","05:00","7.6","","5.3","","85","","","","30","","27","","24.1","","98.04","","","","","","Cloudy"
"-111.96","60.02","FORT SMITH A","2202201","2018-05-29 06:00","2018","05","29","06:00","7.2","","4.9","","85","","","","33","","16","","19.3","","98.13","","","","","","Rain"
"-111.96","60.02","FORT SMITH A","2202201","2018-05-29 07:00","2018","05","29","07:00","6.2","","5.0","","91","","","","33","","17","","19.3","","98.21","","","","","","Rain"
"-111.96","60.02","FORT SMITH A","2202201","2018-05-29 08:00","2018","05","29","08:00","5.9","","4.9","","93","","","","34","","12","","19.3","","98.30","","","","","","Rain"
"-111.96","60.02","FORT SMITH A","2202201","2018-05-29 09:00","2018","05","29","09:00","5.6","","4.6","","93","","","","30","","13","","19.3","","98.40","","","","","","Rain"
"-111.96","60.02","FORT SMITH A","2202201","2018-05-29 10:00","2018","05","29","10:00","5.8","","4.0","","88","","","","34","","22","","19.3","","98.49","","","","","","Rain"
"-111.96","60.02","FORT SMITH A","2202201","2018-05-29 11:00","2018","05","29","11:00","6.7","","4.2","","84","","","","30","","17","","19.3","","98.57","","","","","","Rain"
"-111.96","60.02","FORT SMITH A","2202201","2018-05-29 12:00","2018","05","29","12:00","8.6","","3.6","","71","","","","33","","19","","24.1","","98.65","","","","","","NA"
"-111.96","60.02","FORT SMITH A","2202201","2018-05-29 13:00","2018","05","29","13:00","8.7","","3.7","","70","","","","31","","13","","24.1","","98.70","","","","","","NA"
"-111.96","60.02","FORT SMITH A","2202201","2018-05-29 14:00","2018","05","29","14:00","10.2","","2.6","","59","","","","30","","11","","24.1","","98.75","","","","","","Cloudy"
"-111.96","60.02","FORT SMITH A","2202201","2018-05-29 15:00","2018","05","29","15:00","10.8","","3.0","","58","","","","32","","13","","24.1","","98.76","","","","","","NA"
"-111.96","60.02","FORT SMITH A","2202201","2018-05-29 16:00","2018","05","29","16:00","11.3","","2.7","","55","","","","30","","19","","24.1","","98.76","","","","","","NA"
"-111.96","60.02","FORT SMITH A","2202201","2018-05-29 17:00","2018","05","29","17:00","11.4","","3.4","","58","","","","29","","17","","24.1","","98.75","","","","","","Mostly Cloudy"
"-111.96","60.02","FORT SMITH A","2202201","2018-05-29 18:00","2018","05","29","18:00","12.2","","3.9","","56","","","","35","","15","","24.1","","98.75","","","","","","NA"
"-111.96","60.02","FORT SMITH A","2202201","2018-05-29 19:00","2018","05","29","19:00","12.3","","2.8","","52","","","","31","","10","","24.1","","98.74","","","","","","NA"
"-111.96","60.02","FORT SMITH A","2202201","2018-05-29 20:00","2018","05","29","20:00","11.6","","1.5","","50","","","","31","","11","","24.1","","98.76","","","","","","Cloudy"
"-111.96","60.02","FORT SMITH A","2202201","2018-05-29 21:00","2018","05","29","21:00","9.9","","1.1","","54","","","","33","","8","","24.1","","98.79","","","","","","NA"
"-111.96","60.02","FORT SMITH A","2202201","2018-05-29 22:00","2018","05","29","22:00","6.3","","1.7","","72","","","","19","","3","","24.1","","98.80","","","","","","NA"
"-111.96","60.02","FORT SMITH A","2202201","2018-05-29 23:00","2018","05","29","23:00","4.1","","0.8","","79","","","","17","","4","","24.1","","98.81","","","","","","Mainly Clear"
"-111.96","60.02","FORT SMITH A","2202201","2018-05-30 00:00","2018","05","30","00:00","4.0","","0.9","","81","","","","18","","5","","24.1","","98.80","","","","","","NA"
"-111.96","60.02","FORT SMITH A","2202201","2018-05-30 01:00","2018","05","30","01:00","5.4","","1.3","","75","","","","18","","4","","24.1","","98.80","","","","","","NA"
"-111.96","60.02","FORT SMITH A","2202201","2018-05-30 02:00","2018","05","30","02:00","3.5","","0.7","","82","","","","16","","4","","24.1","","98.79","","","","","","Mainly Clear"
"-111.96","60.02","FORT SMITH A","2202201","2018-05-30 03:00","2018","05","30","03:00","2.7","","0.4","","84","","","","36","","1","","24.1","","98.81","","","","","","NA"
"-111.96","60.02","FORT SMITH A","2202201","2018-05-30 04:00","2018","05","30","04:00","4.5","","1.3","","80","","","","20","","3","","24.1","","98.84","","","","","","NA"
"-111.96","60.02","FORT SMITH A","2202201","2018-05-30 05:00","2018","05","30","05:00","7.5","","2.9","","73","","","","32","","7","","24.1","","98.88","","","","","","Mostly Cloudy"
"-111.96","60.02","FORT SMITH A","2202201","2018-05-30 06:00","2018","05","30","06:00","7.5","","2.4","","70","","","","34","","9","","24.1","","98.88","","","","","","NA"
"-111.96","60.02","FORT SMITH A","2202201","2018-05-30 07:00","2018","05","30","07:00","8.4","","2.2","","65","","","","36","","6","","24.1","","98.91","","","","","","NA"
"-111.96","60.02","FORT SMITH A","2202201","2018-05-30 08:00","2018","05","30","08:00","10.6","","-2.5","","40","","","","36","","9","","24.1","","98.96","","","","","","Mainly Clear"
"-111.96","60.02","FORT SMITH A","2202201","2018-05-30 09:00","2018","05","30","09:00","11.3","","-2.2","","39","","","","3","","6","","24.1","","98.97","","","","","","NA"
"-111.96","60.02","FORT SMITH A","2202201","2018-05-30 10:00","2018","05","30","10:00","11.9","","-1.8","","38","","","","33","","14","","24.1","","98.99","","","","","","NA"
"-111.96","60.02","FORT SMITH A","2202201","2018-05-30 11:00","2018","05","30","11:00","12.5","","-2.7","","35","","","","35","","18","","24.1","","98.98","","","","","","Mainly Clear"
"-111.96","60.02","FORT SMITH A","2202201","2018-05-30 12:00","2018","05","30","12:00","12.3","","-3.0","","34","","","","31","","14","","24.1","","98.99","","","","","","NA"
"-111.96","60.02","FORT SMITH A","2202201","2018-05-30 13:00","2018","05","30","13:00","12.9","","-1.8","","36","","","","36","","14","","24.1","","99.01","","","","","","NA"
"-111.96","60.02","FORT SMITH A","2202201","2018-05-30 14:00","2018","05","30","14:00","12.7","","-2.8","","34","","","","34","","18","","24.1","","99.03","","","","","","Clear"
"-111.96","60.02","FORT SMITH A","2202201","2018-05-30 15:00","2018","05","30","15:00","12.6","","-5.6","","28","","","","34","","17","","24.1","","99.04","","","","","","NA"
"-111.96","60.02","FORT SMITH A","2202201","2018-05-30 16:00","2018","05","30","16:00","12.0","","-5.4","","29","","","","35","","14","","24.1","","99.09","","","","","","NA"
"-111.96","60.02","FORT SMITH A","2202201","2018-05-30 17:00","2018","05","30","17:00","11.7","","-6.7","","27","","","","1","","9","","24.1","","99.09","","","","","","Clear"
"-111.96","60.02","FORT SMITH A","2202201","2018-05-30 18:00","2018","05","30","18:00","11.9","","-6.2","","28","","","","36","","12","","24.1","","99.09","","","","","","NA"
"-111.96","60.02","FORT SMITH A","2202201","2018-05-30 19:00","2018","05","30","19:00","11.3","","-5.0","","31","","","","1","","13","","24.1","","99.11","","","","","","NA"
"-111.96","60.02","FORT SMITH A","2202201","2018-05-30 20:00","2018","05","30","20:00","10.3","","-4.6","","35","","","","3","","11","","24.1","","99.15","","","","","","Clear"
"-111.96","60.02","FORT SMITH A","2202201","2018-05-30 21:00","2018","05","30","21:00","7.5","","-3.3","","46","","","","3","","9","","24.1","","99.20","","","","","","NA"
"-111.96","60.02","FORT SMITH A","2202201","2018-05-30 22:00","2018","05","30","22:00","7.0","","-3.6","","47","","","","6","","8","","24.1","","99.25","","","","","","NA"
"-111.96","60.02","FORT SMITH A","2202201","2018-05-30 23:00","2018","05","30","23:00","5.7","","-3.5","","52","","","","5","","8","","24.1","","99.28","","","","","","Clear"
"-111.96","60.02","FORT SMITH A","2202201","2018-05-31 00:00","2018","05","31","00:00","4.7","","-3.8","","54","","","","6","","8","","24.1","","99.28","","","","","","NA"
"-111.96","60.02","FORT SMITH A","2202201","2018-05-31 01:00","2018","05","31","01:00","3.3","","-3.5","","61","","","","5","","9","","24.1","","99.32","","","","","","NA"
"-111.96","60.02","FORT SMITH A","2202201","2018-05-31 02:00","2018","05","31","02:00","3.0","","-3.7","","61","","","","6","","6","","24.1","","99.36","","","","","","Clear"
"-111.96","60.02","FORT SMITH A","2202201","2018-05-31 03:00","2018","05","31","03:00","2.6","","-3.4","","65","","","","7","","5","","24.1","","99.40","","","","","","NA"
"-111.96","60.02","FORT SMITH A","2202201","2018-05-31 04:00","2018","05","31","04:00","1.4","","-3.1","","72","","","","5","","4","","24.1","","99.43","","","","","","NA"
"-111.96","60.02","FORT SMITH A","2202201","2018-05-31 05:00","2018","05","31","05:00","3.2","","-1.6","","71","","","","9","","4","","24.1","","99.45","","","","","","Clear"
"-111.96","60.02","FORT SMITH A","2202201","2018-05-31 06:00","2018","05","31","06:00","4.5","","-1.6","","65","","","","11","","7","","24.1","","99.47","","","","","","NA"
"-111.96","60.02","FORT SMITH A","2202201","2018-05-31 07:00","2018","05","31","07:00","5.6","","-1.4","","60","","","","11","","7","","24.1","","99.49","","","","","","NA"
"-111.96","60.02","FORT SMITH A","2202201","2018-05-31 08:00","2018","05","31","08:00","6.8","","-1.4","","56","","","","11","","8","","24.1","","99.50","","","","","","Clear"
"-111.96","60.02","FORT SMITH A","2202201","2018-05-31 09:00","2018","05","31","09:00","8.3","","-1.8","","49","","","","11","","8","","24.1","","99.48","","","","","","NA"
"-111.96","60.02","FORT SMITH A","2202201","2018-05-31 10:00","2018","05","31","10:00","9.4","","-2.9","","42","","","","8","","10","","24.1","","99.46","","","","","","NA"
"-111.96","60.02","FORT SMITH A","2202201","2018-05-31 11:00","2018","05","31","11:00","10.6","","-3.5","","37","","","","9","","13","","24.1","","99.45","","","","","","Clear"
"-111.96","60.02","FORT SMITH A","2202201","2018-05-31 12:00","2018","05","31","12:00","11.6","","-2.4","","38","","","","6","","11","","24.1","","99.43","","","","","","NA"
"-111.96","60.02","FORT SMITH A","2202201","2018-05-31 13:00","2018","05","31","13:00","12.7","","-2.9","","33","","","","7","","14","","24.1","","99.41","","","","","","NA"
"-111.96","60.02","FORT SMITH A","2202201","2018-05-31 14:00","2018","05","31","14:00","13.1","","-3.4","","31","","","","10","","13","","24.1","","99.38","","","","","","Clear"
"-111.96","60.02","FORT SMITH A","2202201","2018-05-31 15:00","2018","05","31","15:00","14.2","","-3.7","","29","","","","9","","9","","24.1","","99.34","","","","","","NA"
"-111.96","60.02","FORT SMITH A","2202201","2018-05-31 16:00","2018","05","31","16:00","14.1","","-5.1","","26","","","","15","","4","","24.1","","99.32","","","","","","NA"
"-111.96","60.02","FORT SMITH A","2202201","2018-05-31 17:00","2018","05","31","17:00","14.5","","-6.4","","23","","","","8","","16","","24.1","","99.30","","","","","","Clear"
"-111.96","60.02","FORT SMITH A","2202201","2018-05-31 18:00","2018","05","31","18:00","14.8","","-5.6","","24","","","","11","","9","","24.1","","99.30","","","","","","NA"
"-111.96","60.02","FORT SMITH A","2202201","2018-05-31 19:00","2018","05","31","19:00","14.4","","-4.0","","28","","","","12","","10","","24.1","","99.29","","","","","","NA"
"-111.96","60.02","FORT SMITH A","2202201","2018-05-31 20:00","2018","05","31","20:00","13.5","","-3.4","","31","","","","12","","10","","24.1","","99.30","","","","","","Clear"
"-111.96","60.02","FORT SMITH A","2202201","2018-05-31 21:00","2018","05","31","21:00","11.8","","-2.6","","37","","","","12","","7","","24.1","","99.34","","","","","","NA"
"-111.96","60.02","FORT SMITH A","2202201","2018-05-31 22:00","2018","05","31","22:00","9.8","","-2.1","","43","","","","11","","6","","24.1","","99.36","","","","","","NA"
"-111.96","60.02","FORT SMITH A","2202201","2018-05-31 23:00","2018","05","31","23:00","9.2","","-2.5","","44","","","","14","","10","","24.1","","99.39","","","","","","Clear"
