"Longitude (x)","Latitude (y)","Station Name","Climate ID","Date/Time (LST)","Year","Month","Day","Time (LST)","Temp (°C)","Temp Flag","Dew Point Temp (°C)","Dew Point Temp Flag","Rel Hum (%)","Rel Hum Flag","Precip. Amount (mm)","Precip. Amount Flag","Wind Dir (10s deg)","Wind Dir Flag","Wind Spd (km/h)","Wind Spd Flag","Visibility (km)","Visibility Flag","Stn Press (kPa)","Stn Press Flag","Hmdx","Hmdx Flag","Wind Chill","Wind Chill Flag","Weather"
"-86.35","48.76","MARATHON A","6044967","2018-02-01 00:00","2018","02","01","00:00","-19.2","","-23.3","","71","","","M","28","","8","","","M","96.44","","","","-25","","NA"
"-86.35","48.76","MARATHON A","6044967","2018-02-01 01:00","2018","02","01","01:00","-20.1","","-24.1","","71","","","M","29","","8","","","M","96.46","","","","-26","","NA"
"-86.35","48.76","MARATHON A","6044967","2018-02-01 02:00","2018","02","01","02:00","-20.4","","-24.6","","70","","","M","30","","9","","","M","96.52","","","","-27","","NA"
"-86.35","48.76","MARATHON A","6044967","2018-02-01 03:00","2018","02","01","03:00","-20.9","","-24.8","","71","","","M","28","","8","","","M","96.58","","","","-27","","NA"
"-86.35","48.76","MARATHON A","6044967","2018-02-01 04:00","2018","02","01","04:00","-20.5","","-24.2","","72","","","M","30","","8","","","M","96.64","","","","-27","","NA"
"-86.35","48.76","MARATHON A","6044967","2018-02-01 05:00","2018","02","01","05:00","-20.4","","-23.8","","75","","","M","29","","10","","","M","96.69","","","","-28","","NA"
"-86.35","48.76","MARATHON A","6044967","2018-02-01 06:00","2018","02","01","06:00","-21.2","","-24.5","","75","","","M","30","","10","","","M","96.79","","","","-29","","NA"
"-86.35","48.76","MARATHON A","6044967","2018-02-01 07:00","2018","02","01","07:00","-21.3","","-24.7","","74","","","M","30","","12","","","M","96.88","","","","-30","","NA"
"-86.35","48.76","MARATHON A","6044967","2018-02-01 08:00","2018","02","01","08:00","-21.5","","-25.5","","71","","","M","31","","11","","","M","96.99","","","","-29","","NA"
"-86.35","48.76","MARATHON A","6044967","2018-02-01 09:00","2018","02","01","09:00","-21.5","","-25.5","","71","","","M","32","","13","","","M","97.09","","","","-30","","NA"
"-86.35","48.76","MARATHON A","6044967","2018-02-01 10:00","2018","02","01","10:00","-21.5","","-26.7","","64","","","M","35","","28","","","M","97.24","","","","-34","","NA"
"-86.35","48.76","MARATHON A","6044967","2018-02-01 11:00","2018","02","01","11:00","-21.4","","-26.8","","63","","","M","35","","24","","","M","97.38","","","","-33","","NA"
"-86.35","48.76","MARATHON A","6044967","2018-02-01 12:00","2018","02","01","12:00","-20.7","","-26.5","","60","","","M","35","","26","","","M","97.45","","","","-33","","NA"
"-86.35","48.76","MARATHON A","6044967","2018-02-01 13:00","2018","02","01","13:00","-19.7","","-25.8","","59","","","M","34","","26","","","M","97.51","","","","-31","","NA"
"-86.35","48.76","MARATHON A","6044967","2018-02-01 14:00","2018","02","01","14:00","-19.2","","-25.6","","58","","","M","32","","17","","","M","97.61","","","","-29","","NA"
"-86.35","48.76","MARATHON A","6044967","2018-02-01 15:00","2018","02","01","15:00","-18.5","","-24.4","","60","","","M","35","","18","","","M","97.69","","","","-28","","NA"
"-86.35","48.76","MARATHON A","6044967","2018-02-01 16:00","2018","02","01","16:00","-18.7","","-24.4","","62","","","M","35","","16","","","M","97.82","","","","-28","","NA"
"-86.35","48.76","MARATHON A","6044967","2018-02-01 17:00","2018","02","01","17:00","-18.6","","-24.3","","62","","","M","36","","14","","","M","97.93","","","","-27","","NA"
"-86.35","48.76","MARATHON A","6044967","2018-02-01 18:00","2018","02","01","18:00","-19.5","","-24.4","","66","","","M","36","","7","","","M","98.06","","","","-25","","NA"
"-86.35","48.76","MARATHON A","6044967","2018-02-01 19:00","2018","02","01","19:00","-20.9","","-25.1","","70","","","M","35","","13","","","M","98.19","","","","-30","","NA"
"-86.35","48.76","MARATHON A","6044967","2018-02-01 20:00","2018","02","01","20:00","-20.8","","-24.8","","71","","","M","35","","14","","","M","98.29","","","","-30","","NA"
"-86.35","48.76","MARATHON A","6044967","2018-02-01 21:00","2018","02","01","21:00","-21.3","","-24.9","","73","","","M","34","","14","","","M","98.35","","","","-30","","NA"
"-86.35","48.76","MARATHON A","6044967","2018-02-01 22:00","2018","02","01","22:00","-22.0","","-25.6","","73","","","M","1","","9","","","M","98.42","","","","-29","","NA"
"-86.35","48.76","MARATHON A","6044967","2018-02-01 23:00","2018","02","01","23:00","-22.0","","-26.0","","71","","","M","1","","12","","","M","98.48","","","","-30","","NA"
"-86.35","48.76","MARATHON A","6044967","2018-02-02 00:00","2018","02","02","00:00","-22.5","","-26.1","","73","","","M","2","","8","","","M","98.53","","","","-29","","NA"
"-86.35","48.76","MARATHON A","6044967","2018-02-02 01:00","2018","02","02","01:00","-26.0","","-28.6","","79","","","M","1","","8","","","M","98.56","","","","-33","","NA"
"-86.35","48.76","MARATHON A","6044967","2018-02-02 02:00","2018","02","02","02:00","-25.7","","-28.6","","77","","","M","1","","4","","","M","98.59","","","","-30","","NA"
"-86.35","48.76","MARATHON A","6044967","2018-02-02 03:00","2018","02","02","03:00","-25.6","","-28.7","","76","","","M","36","","4","","","M","98.63","","","","-30","","NA"
"-86.35","48.76","MARATHON A","6044967","2018-02-02 04:00","2018","02","02","04:00","-30.2","","-32.7","","79","","","M","33","","1","","","M","98.68","","","","-31","","NA"
"-86.35","48.76","MARATHON A","6044967","2018-02-02 05:00","2018","02","02","05:00","-31.9","","-34.6","","78","","","M","35","","5","","","M","98.64","","","","-38","","NA"
"-86.35","48.76","MARATHON A","6044967","2018-02-02 06:00","2018","02","02","06:00","-32.0","","-34.8","","77","","","M","14","","3","","","M","98.64","","","","-36","","NA"
"-86.35","48.76","MARATHON A","6044967","2018-02-02 07:00","2018","02","02","07:00","-32.8","","-35.8","","76","","","M","9","","3","","","M","98.65","","","","-36","","NA"
"-86.35","48.76","MARATHON A","6044967","2018-02-02 08:00","2018","02","02","08:00","-33.2","","-36.1","","76","","","M","36","","4","","","M","98.67","","","","-38","","NA"
"-86.35","48.76","MARATHON A","6044967","2018-02-02 09:00","2018","02","02","09:00","-30.8","","-33.7","","76","","","M","4","","2","","","M","98.65","","","","-33","","NA"
"-86.35","48.76","MARATHON A","6044967","2018-02-02 10:00","2018","02","02","10:00","-24.1","","-27.4","","75","","","M","33","","12","","","M","98.63","","","","-33","","NA"
"-86.35","48.76","MARATHON A","6044967","2018-02-02 11:00","2018","02","02","11:00","-22.4","","-26.3","","71","","","M","31","","9","","","M","98.60","","","","-30","","NA"
"-86.35","48.76","MARATHON A","6044967","2018-02-02 12:00","2018","02","02","12:00","-21.1","","-26.4","","62","","","M","29","","3","","","M","98.54","","","","-24","","NA"
"-86.35","48.76","MARATHON A","6044967","2018-02-02 13:00","2018","02","02","13:00","-20.4","","-26.7","","58","","","M","27","","10","","","M","98.44","","","","-28","","NA"
"-86.35","48.76","MARATHON A","6044967","2018-02-02 14:00","2018","02","02","14:00","-19.7","","-25.7","","60","","","M","32","","5","","","M","98.36","","","","-24","","NA"
"-86.35","48.76","MARATHON A","6044967","2018-02-02 15:00","2018","02","02","15:00","-19.1","","-25.1","","60","","","M","34","","9","","","M","98.28","","","","-26","","NA"
"-86.35","48.76","MARATHON A","6044967","2018-02-02 16:00","2018","02","02","16:00","-19.0","","-25.1","","59","","","M","30","","11","","","M","98.25","","","","-26","","NA"
"-86.35","48.76","MARATHON A","6044967","2018-02-02 17:00","2018","02","02","17:00","-19.7","","-24.9","","64","","","M","34","","12","","","M","98.24","","","","-28","","NA"
"-86.35","48.76","MARATHON A","6044967","2018-02-02 18:00","2018","02","02","18:00","-20.9","","-26.3","","63","","","M","32","","12","","","M","98.26","","","","-29","","NA"
"-86.35","48.76","MARATHON A","6044967","2018-02-02 19:00","2018","02","02","19:00","-25.9","","-28.6","","78","","","M","11","","3","","","M","98.28","","","","-29","","NA"
"-86.35","48.76","MARATHON A","6044967","2018-02-02 20:00","2018","02","02","20:00","-27.9","","-30.4","","79","","","M","4","","3","","","M","98.29","","","","-31","","NA"
"-86.35","48.76","MARATHON A","6044967","2018-02-02 21:00","2018","02","02","21:00","-29.6","","-32.3","","78","","","M","7","","5","","","M","98.28","","","","-35","","NA"
"-86.35","48.76","MARATHON A","6044967","2018-02-02 22:00","2018","02","02","22:00","-31.0","","-33.8","","77","","","M","12","","3","","","M","98.25","","","","-34","","NA"
"-86.35","48.76","MARATHON A","6044967","2018-02-02 23:00","2018","02","02","23:00","-31.8","","-34.6","","77","","","M","10","","3","","","M","98.24","","","","-35","","NA"
"-86.35","48.76","MARATHON A","6044967","2018-02-03 00:00","2018","02","03","00:00","-32.3","","-35.1","","77","","","M","9","","4","","","M","98.24","","","","-37","","NA"
"-86.35","48.76","MARATHON A","6044967","2018-02-03 01:00","2018","02","03","01:00","-33.0","","-35.9","","76","","","M","13","","4","","","M","98.23","","","","-38","","NA"
"-86.35","48.76","MARATHON A","6044967","2018-02-03 02:00","2018","02","03","02:00","-33.9","","-36.9","","75","","","M","5","","4","","","M","98.18","","","","-39","","NA"
"-86.35","48.76","MARATHON A","6044967","2018-02-03 03:00","2018","02","03","03:00","-34.6","","-37.6","","75","","","M","9","","5","","","M","98.15","","","","-41","","NA"
"-86.35","48.76","MARATHON A","6044967","2018-02-03 04:00","2018","02","03","04:00","-34.6","","-37.6","","75","","","M","12","","4","","","M","98.12","","","","-40","","NA"
"-86.35","48.76","MARATHON A","6044967","2018-02-03 05:00","2018","02","03","05:00","-34.1","","-37.1","","75","","","M","3","","7","","","M","98.10","","","","-42","","NA"
"-86.35","48.76","MARATHON A","6044967","2018-02-03 06:00","2018","02","03","06:00","-33.9","","-37.0","","74","","","M","11","","7","","","M","98.08","","","","-42","","NA"
"-86.35","48.76","MARATHON A","6044967","2018-02-03 07:00","2018","02","03","07:00","-33.6","","-36.8","","73","","","M","10","","3","","","M","98.06","","","","-37","","NA"
"-86.35","48.76","MARATHON A","6044967","2018-02-03 08:00","2018","02","03","08:00","-34.2","","-37.4","","74","","","M","6","","4","","","M","98.02","","","","-39","","NA"
"-86.35","48.76","MARATHON A","6044967","2018-02-03 09:00","2018","02","03","09:00","-33.1","","-36.2","","74","","","M","11","","4","","","M","98.00","","","","-38","","NA"
"-86.35","48.76","MARATHON A","6044967","2018-02-03 10:00","2018","02","03","10:00","-23.8","","-26.7","","78","","","M","14","","5","","","M","97.98","","","","-29","","NA"
"-86.35","48.76","MARATHON A","6044967","2018-02-03 11:00","2018","02","03","11:00","-21.2","","-25.3","","70","","","M","11","","4","","","M","97.85","","","","-25","","NA"
"-86.35","48.76","MARATHON A","6044967","2018-02-03 12:00","2018","02","03","12:00","-19.7","","-24.9","","64","","","M","13","","4","","","M","97.80","","","","-23","","NA"
"-86.35","48.76","MARATHON A","6044967","2018-02-03 13:00","2018","02","03","13:00","-17.0","","-22.6","","62","","","M","28","","8","","","M","97.71","","","","-23","","NA"
"-86.35","48.76","MARATHON A","6044967","2018-02-03 14:00","2018","02","03","14:00","-17.0","","-21.7","","67","","","M","20","","3","","","M","97.65","","","","-19","","NA"
"-86.35","48.76","MARATHON A","6044967","2018-02-03 15:00","2018","02","03","15:00","-16.4","","-20.6","","70","","","M","26","","9","","","M","97.58","","","","-22","","NA"
"-86.35","48.76","MARATHON A","6044967","2018-02-03 16:00","2018","02","03","16:00","-16.4","","-19.7","","76","","","M","30","","9","","","M","97.52","","","","-22","","NA"
"-86.35","48.76","MARATHON A","6044967","2018-02-03 17:00","2018","02","03","17:00","-16.4","","-21.0","","68","","","M","30","","8","","","M","97.47","","","","-22","","NA"
"-86.35","48.76","MARATHON A","6044967","2018-02-03 18:00","2018","02","03","18:00","-18.3","","-22.9","","68","","","M","5","","10","","","M","97.48","","","","-25","","NA"
"-86.35","48.76","MARATHON A","6044967","2018-02-03 19:00","2018","02","03","19:00","-19.6","","-23.9","","70","","","M","6","","8","","","M","97.53","","","","-26","","NA"
"-86.35","48.76","MARATHON A","6044967","2018-02-03 20:00","2018","02","03","20:00","-21.1","","-25.2","","70","","","M","1","","13","","","M","97.56","","","","-30","","NA"
"-86.35","48.76","MARATHON A","6044967","2018-02-03 21:00","2018","02","03","21:00","-21.4","","-25.6","","69","","","M","2","","10","","","M","97.59","","","","-29","","NA"
"-86.35","48.76","MARATHON A","6044967","2018-02-03 22:00","2018","02","03","22:00","-22.6","","-26.8","","69","","","M","1","","11","","","M","97.62","","","","-31","","NA"
"-86.35","48.76","MARATHON A","6044967","2018-02-03 23:00","2018","02","03","23:00","-22.5","","-27.1","","67","","","M","3","","13","","","M","97.64","","","","-31","","NA"
"-86.35","48.76","MARATHON A","6044967","2018-02-04 00:00","2018","02","04","00:00","-23.7","","-27.5","","72","","","M","6","","12","","","M","97.70","","","","-33","","NA"
"-86.35","48.76","MARATHON A","6044967","2018-02-04 01:00","2018","02","04","01:00","-25.0","","-28.0","","76","","","M","7","","9","","","M","97.73","","","","-33","","NA"
"-86.35","48.76","MARATHON A","6044967","2018-02-04 02:00","2018","02","04","02:00","-24.6","","-27.9","","75","","","M","5","","10","","","M","97.77","","","","-33","","NA"
"-86.35","48.76","MARATHON A","6044967","2018-02-04 03:00","2018","02","04","03:00","-25.0","","-28.4","","74","","","M","5","","10","","","M","97.80","","","","-33","","NA"
"-86.35","48.76","MARATHON A","6044967","2018-02-04 04:00","2018","02","04","04:00","-25.2","","-28.9","","72","","","M","4","","14","","","M","97.82","","","","-35","","NA"
"-86.35","48.76","MARATHON A","6044967","2018-02-04 05:00","2018","02","04","05:00","-25.4","","-29.1","","72","","","M","3","","15","","","M","97.80","","","","-36","","NA"
"-86.35","48.76","MARATHON A","6044967","2018-02-04 06:00","2018","02","04","06:00","-26.5","","-29.7","","75","","","M","7","","6","","","M","97.87","","","","-32","","NA"
"-86.35","48.76","MARATHON A","6044967","2018-02-04 07:00","2018","02","04","07:00","-31.1","","-33.7","","79","","","M","14","","4","","","M","97.87","","","","-36","","NA"
"-86.35","48.76","MARATHON A","6044967","2018-02-04 08:00","2018","02","04","08:00","-34.0","","-37.0","","75","","","M","11","","5","","","M","97.96","","","","-40","","NA"
"-86.35","48.76","MARATHON A","6044967","2018-02-04 09:00","2018","02","04","09:00","-32.5","","-35.4","","76","","","M","13","","6","","","M","97.95","","","","-39","","NA"
"-86.35","48.76","MARATHON A","6044967","2018-02-04 10:00","2018","02","04","10:00","-27.1","","-30.2","","75","","","M","0","","1","","","M","97.95","","","","-28","","NA"
"-86.35","48.76","MARATHON A","6044967","2018-02-04 11:00","2018","02","04","11:00","-22.0","","-27.4","","62","","","M","26","","9","","","M","97.94","","","","-29","","NA"
"-86.35","48.76","MARATHON A","6044967","2018-02-04 12:00","2018","02","04","12:00","-20.2","","-25.6","","63","","","M","28","","11","","","M","97.88","","","","-28","","NA"
"-86.35","48.76","MARATHON A","6044967","2018-02-04 13:00","2018","02","04","13:00","-18.8","","-25.4","","57","","","M","25","","8","","","M","97.74","","","","-25","","NA"
"-86.35","48.76","MARATHON A","6044967","2018-02-04 14:00","2018","02","04","14:00","-18.1","","-23.8","","62","","","M","25","","10","","","M","97.65","","","","-25","","NA"
"-86.35","48.76","MARATHON A","6044967","2018-02-04 15:00","2018","02","04","15:00","-17.3","","-23.2","","61","","","M","26","","13","","","M","97.56","","","","-25","","NA"
"-86.35","48.76","MARATHON A","6044967","2018-02-04 16:00","2018","02","04","16:00","-17.9","","-23.0","","65","","","M","27","","14","","","M","97.49","","","","-26","","NA"
"-86.35","48.76","MARATHON A","6044967","2018-02-04 17:00","2018","02","04","17:00","-17.3","","-20.9","","74","","","M","27","","12","","","M","97.39","","","","-25","","NA"
"-86.35","48.76","MARATHON A","6044967","2018-02-04 18:00","2018","02","04","18:00","-17.0","","-19.9","","78","","","M","29","","17","","","M","97.34","","","","-26","","NA"
"-86.35","48.76","MARATHON A","6044967","2018-02-04 19:00","2018","02","04","19:00","-15.6","","-19.4","","73","","","M","27","","21","","","M","97.30","","","","-25","","NA"
"-86.35","48.76","MARATHON A","6044967","2018-02-04 20:00","2018","02","04","20:00","-14.3","","-18.6","","71","","","M","28","","23","","","M","97.24","","","","-24","","NA"
"-86.35","48.76","MARATHON A","6044967","2018-02-04 21:00","2018","02","04","21:00","-14.1","","-18.8","","68","","","M","28","","21","","","M","97.23","","","","-23","","NA"
"-86.35","48.76","MARATHON A","6044967","2018-02-04 22:00","2018","02","04","22:00","-15.3","","-20.3","","67","","","M","30","","17","","","M","97.24","","","","-24","","NA"
"-86.35","48.76","MARATHON A","6044967","2018-02-04 23:00","2018","02","04","23:00","-16.8","","-23.6","","56","","","M","31","","20","","","M","97.31","","","","-26","","NA"
"-86.35","48.76","MARATHON A","6044967","2018-02-05 00:00","2018","02","05","00:00","-18.3","","-24.8","","58","","","M","30","","15","","","M","97.34","","","","-27","","NA"
"-86.35","48.76","MARATHON A","6044967","2018-02-05 01:00","2018","02","05","01:00","-20.1","","-25.7","","61","","","M","31","","9","","","M","97.36","","","","-27","","NA"
"-86.35","48.76","MARATHON A","6044967","2018-02-05 02:00","2018","02","05","02:00","-20.6","","-25.9","","63","","","M","29","","5","","","M","97.37","","","","-25","","NA"
"-86.35","48.76","MARATHON A","6044967","2018-02-05 03:00","2018","02","05","03:00","-24.3","","-28.6","","68","","","M","29","","5","","","M","97.39","","","","-29","","NA"
"-86.35","48.76","MARATHON A","6044967","2018-02-05 04:00","2018","02","05","04:00","-25.8","","-28.5","","78","","","M","34","","8","","","M","97.36","","","","-33","","NA"
"-86.35","48.76","MARATHON A","6044967","2018-02-05 05:00","2018","02","05","05:00","-23.7","","-27.0","","75","","","M","30","","7","","","M","97.36","","","","-30","","NA"
"-86.35","48.76","MARATHON A","6044967","2018-02-05 06:00","2018","02","05","06:00","-22.9","","-25.9","","76","","","M","31","","8","","","M","97.38","","","","-30","","NA"
"-86.35","48.76","MARATHON A","6044967","2018-02-05 07:00","2018","02","05","07:00","-28.4","","-30.9","","80","","","M","0","","1","","","M","97.41","","","","-29","","NA"
"-86.35","48.76","MARATHON A","6044967","2018-02-05 08:00","2018","02","05","08:00","-29.0","","-31.6","","79","","","M","4","","2","","","M","97.40","","","","-31","","NA"
"-86.35","48.76","MARATHON A","6044967","2018-02-05 09:00","2018","02","05","09:00","-29.8","","-32.6","","77","","","M","21","","1","","","M","97.43","","","","-31","","NA"
"-86.35","48.76","MARATHON A","6044967","2018-02-05 10:00","2018","02","05","10:00","-20.6","","-24.9","","69","","","M","31","","9","","","M","97.48","","","","-27","","NA"
"-86.35","48.76","MARATHON A","6044967","2018-02-05 11:00","2018","02","05","11:00","-18.1","","-24.4","","59","","","M","29","","9","","","M","97.53","","","","-24","","NA"
"-86.35","48.76","MARATHON A","6044967","2018-02-05 12:00","2018","02","05","12:00","-16.8","","-25.2","","49","","","M","29","","16","","","M","97.53","","","","-25","","NA"
"-86.35","48.76","MARATHON A","6044967","2018-02-05 13:00","2018","02","05","13:00","-15.7","","-24.3","","48","","","M","28","","10","","","M","97.48","","","","-22","","NA"
"-86.35","48.76","MARATHON A","6044967","2018-02-05 14:00","2018","02","05","14:00","-15.5","","-24.3","","48","","","M","32","","10","","","M","97.42","","","","-22","","NA"
"-86.35","48.76","MARATHON A","6044967","2018-02-05 15:00","2018","02","05","15:00","-15.1","","-22.8","","52","","","M","30","","2","","","M","97.39","","","","-17","","NA"
"-86.35","48.76","MARATHON A","6044967","2018-02-05 16:00","2018","02","05","16:00","-15.5","","-22.7","","55","","","M","34","","7","","","M","97.40","","","","-20","","NA"
"-86.35","48.76","MARATHON A","6044967","2018-02-05 17:00","2018","02","05","17:00","-16.1","","-21.9","","61","","","M","33","","9","","","M","97.46","","","","-22","","NA"
"-86.35","48.76","MARATHON A","6044967","2018-02-05 18:00","2018","02","05","18:00","-18.9","","-23.4","","68","","","M","34","","6","","","M","97.53","","","","-24","","NA"
"-86.35","48.76","MARATHON A","6044967","2018-02-05 19:00","2018","02","05","19:00","-20.0","","-23.3","","75","","","M","34","","13","","","M","97.61","","","","-28","","NA"
"-86.35","48.76","MARATHON A","6044967","2018-02-05 20:00","2018","02","05","20:00","-21.5","","-24.9","","74","","","M","34","","8","","","M","97.69","","","","-28","","NA"
"-86.35","48.76","MARATHON A","6044967","2018-02-05 21:00","2018","02","05","21:00","-26.7","","-29.2","","80","","","M","33","","4","","","M","97.74","","","","-31","","NA"
"-86.35","48.76","MARATHON A","6044967","2018-02-05 22:00","2018","02","05","22:00","-27.9","","-30.4","","80","","","M","33","","4","","","M","97.78","","","","-32","","NA"
"-86.35","48.76","MARATHON A","6044967","2018-02-05 23:00","2018","02","05","23:00","-28.1","","-30.7","","79","","","M","27","","2","","","M","97.81","","","","-30","","NA"
"-86.35","48.76","MARATHON A","6044967","2018-02-06 00:00","2018","02","06","00:00","-22.1","","-24.9","","79","","","M","36","","10","","","M","97.85","","","","-30","","NA"
"-86.35","48.76","MARATHON A","6044967","2018-02-06 01:00","2018","02","06","01:00","-21.1","","-24.6","","74","","","M","1","","16","","","M","97.92","","","","-31","","NA"
"-86.35","48.76","MARATHON A","6044967","2018-02-06 02:00","2018","02","06","02:00","-22.1","","-27.1","","65","","","M","1","","13","","","M","97.99","","","","-31","","NA"
"-86.35","48.76","MARATHON A","6044967","2018-02-06 03:00","2018","02","06","03:00","-22.9","","-27.1","","69","","","M","1","","16","","","M","98.06","","","","-33","","NA"
"-86.35","48.76","MARATHON A","6044967","2018-02-06 04:00","2018","02","06","04:00","-27.2","","-30.1","","77","","","M","35","","4","","","M","98.16","","","","-31","","NA"
"-86.35","48.76","MARATHON A","6044967","2018-02-06 05:00","2018","02","06","05:00","-29.8","","-32.4","","78","","","M","11","","2","","","M","98.24","","","","-32","","NA"
"-86.35","48.76","MARATHON A","6044967","2018-02-06 06:00","2018","02","06","06:00","-32.2","","-35.0","","77","","","M","6","","2","","","M","98.30","","","","-35","","NA"
"-86.35","48.76","MARATHON A","6044967","2018-02-06 07:00","2018","02","06","07:00","-33.2","","-36.1","","76","","","M","1","","3","","","M","98.33","","","","-37","","NA"
"-86.35","48.76","MARATHON A","6044967","2018-02-06 08:00","2018","02","06","08:00","-33.9","","-36.9","","75","","","M","11","","1","","","M","98.42","","","","-35","","NA"
"-86.35","48.76","MARATHON A","6044967","2018-02-06 09:00","2018","02","06","09:00","-32.3","","-35.3","","76","","","M","36","","4","","","M","98.50","","","","-37","","NA"
"-86.35","48.76","MARATHON A","6044967","2018-02-06 10:00","2018","02","06","10:00","-22.8","","-28.1","","63","","","M","31","","9","","","M","98.55","","","","-30","","NA"
"-86.35","48.76","MARATHON A","6044967","2018-02-06 11:00","2018","02","06","11:00","-20.5","","-27.6","","54","","","M","27","","8","","","M","98.61","","","","-27","","NA"
"-86.35","48.76","MARATHON A","6044967","2018-02-06 12:00","2018","02","06","12:00","-19.0","","-25.3","","58","","","M","27","","13","","","M","98.67","","","","-27","","NA"
"-86.35","48.76","MARATHON A","6044967","2018-02-06 13:00","2018","02","06","13:00","-17.6","","-22.2","","68","","","M","27","","12","","","M","98.63","","","","-25","","NA"
"-86.35","48.76","MARATHON A","6044967","2018-02-06 14:00","2018","02","06","14:00","-17.1","","-20.9","","73","","","M","27","","13","","","M","98.61","","","","-25","","NA"
"-86.35","48.76","MARATHON A","6044967","2018-02-06 15:00","2018","02","06","15:00","-16.5","","-20.3","","73","","","M","27","","14","","","M","98.56","","","","-24","","NA"
"-86.35","48.76","MARATHON A","6044967","2018-02-06 16:00","2018","02","06","16:00","-16.0","","-19.7","","74","","","M","26","","14","","","M","98.59","","","","-24","","NA"
"-86.35","48.76","MARATHON A","6044967","2018-02-06 17:00","2018","02","06","17:00","-15.5","","-18.9","","75","","","M","27","","17","","","M","98.60","","","","-24","","NA"
"-86.35","48.76","MARATHON A","6044967","2018-02-06 18:00","2018","02","06","18:00","-15.1","","-18.3","","77","","","M","27","","12","","","M","98.55","","","","-22","","NA"
"-86.35","48.76","MARATHON A","6044967","2018-02-06 19:00","2018","02","06","19:00","-14.8","","-18.8","","72","","","M","27","","15","","","M","98.55","","","","-23","","NA"
"-86.35","48.76","MARATHON A","6044967","2018-02-06 20:00","2018","02","06","20:00","-13.3","","-17.1","","73","","","M","26","","12","","","M","98.50","","","","-20","","NA"
"-86.35","48.76","MARATHON A","6044967","2018-02-06 21:00","2018","02","06","21:00","-12.9","","-16.9","","72","","","M","27","","26","","","M","98.50","","","","-23","","NA"
"-86.35","48.76","MARATHON A","6044967","2018-02-06 22:00","2018","02","06","22:00","-13.1","","-16.0","","79","","","M","28","","18","","","M","98.50","","","","-21","","NA"
"-86.35","48.76","MARATHON A","6044967","2018-02-06 23:00","2018","02","06","23:00","-13.7","","-16.3","","81","","","M","30","","13","","","M","98.50","","","","-21","","NA"
"-86.35","48.76","MARATHON A","6044967","2018-02-07 00:00","2018","02","07","00:00","-15.1","","-19.6","","69","","","M","31","","14","","","M","98.51","","","","-23","","NA"
"-86.35","48.76","MARATHON A","6044967","2018-02-07 01:00","2018","02","07","01:00","-15.2","","-22.6","","54","","","M","31","","12","","","M","98.48","","","","-22","","NA"
"-86.35","48.76","MARATHON A","6044967","2018-02-07 02:00","2018","02","07","02:00","-15.4","","-22.7","","54","","","M","32","","9","","","M","98.45","","","","-21","","NA"
"-86.35","48.76","MARATHON A","6044967","2018-02-07 03:00","2018","02","07","03:00","-15.6","","-22.0","","58","","","M","31","","9","","","M","98.43","","","","-22","","NA"
"-86.35","48.76","MARATHON A","6044967","2018-02-07 04:00","2018","02","07","04:00","-17.0","","-21.9","","66","","","M","35","","6","","","M","98.40","","","","-22","","NA"
"-86.35","48.76","MARATHON A","6044967","2018-02-07 05:00","2018","02","07","05:00","-23.1","","-25.7","","80","","","M","6","","4","","","M","98.40","","","","-27","","NA"
"-86.35","48.76","MARATHON A","6044967","2018-02-07 06:00","2018","02","07","06:00","-26.1","","-28.6","","80","","","M","7","","3","","","M","98.38","","","","-29","","NA"
"-86.35","48.76","MARATHON A","6044967","2018-02-07 07:00","2018","02","07","07:00","-25.5","","-27.6","","83","","","M","11","","4","","","M","98.36","","","","-30","","NA"
"-86.35","48.76","MARATHON A","6044967","2018-02-07 08:00","2018","02","07","08:00","-26.9","","-29.2","","81","","","M","14","","5","","","M","98.42","","","","-32","","NA"
"-86.35","48.76","MARATHON A","6044967","2018-02-07 09:00","2018","02","07","09:00","-26.4","","-28.8","","80","","","M","15","","7","","","M","98.44","","","","-33","","NA"
"-86.35","48.76","MARATHON A","6044967","2018-02-07 10:00","2018","02","07","10:00","-18.3","","-23.0","","67","","","M","28","","3","","","M","98.42","","","","-21","","NA"
"-86.35","48.76","MARATHON A","6044967","2018-02-07 11:00","2018","02","07","11:00","-16.5","","-22.9","","58","","","M","31","","9","","","M","98.41","","","","-23","","NA"
"-86.35","48.76","MARATHON A","6044967","2018-02-07 12:00","2018","02","07","12:00","-14.7","","-21.8","","55","","","M","25","","10","","","M","98.38","","","","-21","","NA"
"-86.35","48.76","MARATHON A","6044967","2018-02-07 13:00","2018","02","07","13:00","-13.5","","-21.1","","53","","","M","27","","11","","","M","98.28","","","","-20","","NA"
"-86.35","48.76","MARATHON A","6044967","2018-02-07 14:00","2018","02","07","14:00","-13.8","","-18.8","","66","","","M","26","","12","","","M","98.23","","","","-21","","NA"
"-86.35","48.76","MARATHON A","6044967","2018-02-07 15:00","2018","02","07","15:00","-13.5","","-19.6","","61","","","M","29","","11","","","M","98.21","","","","-20","","NA"
"-86.35","48.76","MARATHON A","6044967","2018-02-07 16:00","2018","02","07","16:00","-12.7","","-19.8","","56","","","M","27","","9","","","M","98.20","","","","-18","","NA"
"-86.35","48.76","MARATHON A","6044967","2018-02-07 17:00","2018","02","07","17:00","-13.1","","-19.7","","58","","","M","27","","9","","","M","98.23","","","","-19","","NA"
"-86.35","48.76","MARATHON A","6044967","2018-02-07 18:00","2018","02","07","18:00","-14.3","","-20.2","","62","","","M","28","","11","","","M","98.28","","","","-21","","NA"
"-86.35","48.76","MARATHON A","6044967","2018-02-07 19:00","2018","02","07","19:00","-15.9","","-22.0","","60","","","M","31","","10","","","M","98.33","","","","-22","","NA"
"-86.35","48.76","MARATHON A","6044967","2018-02-07 20:00","2018","02","07","20:00","-17.3","","-21.9","","68","","","M","33","","8","","","M","98.35","","","","-23","","NA"
"-86.35","48.76","MARATHON A","6044967","2018-02-07 21:00","2018","02","07","21:00","-19.6","","-23.9","","69","","","M","36","","7","","","M","98.33","","","","-25","","NA"
"-86.35","48.76","MARATHON A","6044967","2018-02-07 22:00","2018","02","07","22:00","-17.1","","-21.4","","70","","","M","32","","8","","","M","98.33","","","","-23","","NA"
"-86.35","48.76","MARATHON A","6044967","2018-02-07 23:00","2018","02","07","23:00","-16.4","","-22.1","","62","","","M","31","","9","","","M","98.36","","","","-22","","NA"
"-86.35","48.76","MARATHON A","6044967","2018-02-08 00:00","2018","02","08","00:00","-20.5","","-24.9","","69","","","M","31","","5","","","M","98.33","","","","-25","","NA"
"-86.35","48.76","MARATHON A","6044967","2018-02-08 01:00","2018","02","08","01:00","-24.9","","-27.4","","80","","","M","1","","10","","","M","98.29","","","","-33","","NA"
"-86.35","48.76","MARATHON A","6044967","2018-02-08 02:00","2018","02","08","02:00","-16.1","","-21.3","","65","","","M","34","","7","","","M","98.27","","","","-21","","NA"
"-86.35","48.76","MARATHON A","6044967","2018-02-08 03:00","2018","02","08","03:00","-16.2","","-20.1","","72","","","M","1","","8","","","M","98.27","","","","-22","","NA"
"-86.35","48.76","MARATHON A","6044967","2018-02-08 04:00","2018","02","08","04:00","-21.4","","-23.6","","83","","","M","9","","3","","","M","98.24","","","","-24","","NA"
"-86.35","48.76","MARATHON A","6044967","2018-02-08 05:00","2018","02","08","05:00","-24.8","","-27.1","","81","","","M","11","","2","","","M","98.21","","","","-27","","NA"
"-86.35","48.76","MARATHON A","6044967","2018-02-08 06:00","2018","02","08","06:00","-27.2","","-30.1","","77","","","M","13","","5","","","M","98.20","","","","-32","","NA"
"-86.35","48.76","MARATHON A","6044967","2018-02-08 07:00","2018","02","08","07:00","-27.6","","-30.1","","79","","","M","12","","3","","","M","98.21","","","","-31","","NA"
"-86.35","48.76","MARATHON A","6044967","2018-02-08 08:00","2018","02","08","08:00","-26.8","","-29.6","","78","","","M","34","","3","","","M","98.24","","","","-30","","NA"
"-86.35","48.76","MARATHON A","6044967","2018-02-08 09:00","2018","02","08","09:00","-24.6","","-26.6","","84","","","M","32","","9","","","M","98.28","","","","-32","","NA"
"-86.35","48.76","MARATHON A","6044967","2018-02-08 10:00","2018","02","08","10:00","-18.8","","-21.8","","78","","","M","32","","8","","","M","98.30","","","","-25","","NA"
"-86.35","48.76","MARATHON A","6044967","2018-02-08 11:00","2018","02","08","11:00","-17.3","","-22.5","","65","","","M","35","","14","","","M","98.31","","","","-25","","NA"
"-86.35","48.76","MARATHON A","6044967","2018-02-08 12:00","2018","02","08","12:00","-16.6","","-23.3","","57","","","M","35","","14","","","M","98.32","","","","-25","","NA"
"-86.35","48.76","MARATHON A","6044967","2018-02-08 13:00","2018","02","08","13:00","-16.3","","-24.1","","52","","","M","34","","13","","","M","98.30","","","","-24","","NA"
"-86.35","48.76","MARATHON A","6044967","2018-02-08 14:00","2018","02","08","14:00","-14.4","","-23.6","","46","","","M","29","","12","","","M","98.29","","","","-21","","NA"
"-86.35","48.76","MARATHON A","6044967","2018-02-08 15:00","2018","02","08","15:00","-14.6","","-23.6","","47","","","M","1","","8","","","M","98.27","","","","-20","","NA"
"-86.35","48.76","MARATHON A","6044967","2018-02-08 16:00","2018","02","08","16:00","-15.1","","-23.0","","51","","","M","35","","14","","","M","98.32","","","","-23","","NA"
"-86.35","48.76","MARATHON A","6044967","2018-02-08 17:00","2018","02","08","17:00","-15.7","","-23.1","","54","","","M","33","","10","","","M","98.34","","","","-22","","NA"
"-86.35","48.76","MARATHON A","6044967","2018-02-08 18:00","2018","02","08","18:00","-17.1","","-23.9","","56","","","M","34","","10","","","M","98.38","","","","-24","","NA"
"-86.35","48.76","MARATHON A","6044967","2018-02-08 19:00","2018","02","08","19:00","-20.5","","-25.4","","66","","","M","35","","9","","","M","98.47","","","","-27","","NA"
"-86.35","48.76","MARATHON A","6044967","2018-02-08 20:00","2018","02","08","20:00","-19.4","","-25.2","","61","","","M","34","","11","","","M","98.56","","","","-27","","NA"
"-86.35","48.76","MARATHON A","6044967","2018-02-08 21:00","2018","02","08","21:00","-22.1","","-26.9","","66","","","M","34","","6","","","M","98.61","","","","-27","","NA"
"-86.35","48.76","MARATHON A","6044967","2018-02-08 22:00","2018","02","08","22:00","-24.7","","-28.3","","73","","","M","14","","3","","","M","98.63","","","","-28","","NA"
"-86.35","48.76","MARATHON A","6044967","2018-02-08 23:00","2018","02","08","23:00","-24.1","","-27.7","","72","","","M","2","","6","","","M","98.61","","","","-30","","NA"
"-86.35","48.76","MARATHON A","6044967","2018-02-09 00:00","2018","02","09","00:00","-27.1","","-29.6","","79","","","M","19","","3","","","M","98.66","","","","-30","","NA"
"-86.35","48.76","MARATHON A","6044967","2018-02-09 01:00","2018","02","09","01:00","-29.4","","-32.1","","79","","","M","12","","3","","","M","98.68","","","","-33","","NA"
"-86.35","48.76","MARATHON A","6044967","2018-02-09 02:00","2018","02","09","02:00","-30.1","","-33.0","","77","","","M","16","","3","","","M","98.72","","","","-33","","NA"
"-86.35","48.76","MARATHON A","6044967","2018-02-09 03:00","2018","02","09","03:00","-30.6","","-33.4","","77","","","M","13","","5","","","M","98.71","","","","-36","","NA"
"-86.35","48.76","MARATHON A","6044967","2018-02-09 04:00","2018","02","09","04:00","-32.2","","-35.2","","75","","","M","14","","5","","","M","98.67","","","","-38","","NA"
"-86.35","48.76","MARATHON A","6044967","2018-02-09 05:00","2018","02","09","05:00","-32.1","","-35.0","","76","","","M","13","","3","","","M","98.63","","","","-36","","NA"
"-86.35","48.76","MARATHON A","6044967","2018-02-09 06:00","2018","02","09","06:00","-31.9","","-34.8","","76","","","M","13","","7","","","M","98.61","","","","-39","","NA"
"-86.35","48.76","MARATHON A","6044967","2018-02-09 07:00","2018","02","09","07:00","-32.3","","-35.4","","75","","","M","11","","1","","","M","98.62","","","","-33","","NA"
"-86.35","48.76","MARATHON A","6044967","2018-02-09 08:00","2018","02","09","08:00","-32.5","","-35.5","","76","","","M","0","","1","","","M","98.61","","","","-34","","NA"
"-86.35","48.76","MARATHON A","6044967","2018-02-09 09:00","2018","02","09","09:00","-29.7","","-32.6","","77","","","M","34","","1","","","M","98.61","","","","-31","","NA"
"-86.35","48.76","MARATHON A","6044967","2018-02-09 10:00","2018","02","09","10:00","-19.9","","-23.0","","77","","","M","30","","9","","","M","98.57","","","","-27","","NA"
"-86.35","48.76","MARATHON A","6044967","2018-02-09 11:00","2018","02","09","11:00","-17.2","","-20.6","","75","","","M","28","","12","","","M","98.52","","","","-25","","NA"
"-86.35","48.76","MARATHON A","6044967","2018-02-09 12:00","2018","02","09","12:00","-16.4","","-21.8","","64","","","M","26","","18","","","M","98.48","","","","-25","","NA"
"-86.35","48.76","MARATHON A","6044967","2018-02-09 13:00","2018","02","09","13:00","-15.6","","-20.7","","65","","","M","25","","12","","","M","98.39","","","","-23","","NA"
"-86.35","48.76","MARATHON A","6044967","2018-02-09 14:00","2018","02","09","14:00","-15.8","","-20.6","","67","","","M","26","","19","","","M","98.31","","","","-25","","NA"
"-86.35","48.76","MARATHON A","6044967","2018-02-09 15:00","2018","02","09","15:00","-15.8","","-19.1","","76","","","M","25","","16","","","M","98.23","","","","-24","","NA"
"-86.35","48.76","MARATHON A","6044967","2018-02-09 16:00","2018","02","09","16:00","-15.6","","-19.3","","73","","","M","26","","15","","","M","98.19","","","","-24","","NA"
"-86.35","48.76","MARATHON A","6044967","2018-02-09 17:00","2018","02","09","17:00","-15.4","","-18.4","","78","","","M","24","","15","","","M","98.12","","","","-23","","NA"
"-86.35","48.76","MARATHON A","6044967","2018-02-09 18:00","2018","02","09","18:00","-15.2","","-18.3","","77","","","M","24","","8","","","M","98.09","","","","-21","","NA"
"-86.35","48.76","MARATHON A","6044967","2018-02-09 19:00","2018","02","09","19:00","-13.7","","-16.6","","79","","","M","25","","12","","","M","98.03","","","","-20","","NA"
"-86.35","48.76","MARATHON A","6044967","2018-02-09 20:00","2018","02","09","20:00","-12.8","","-16.4","","75","","","M","25","","18","","","M","97.97","","","","-21","","NA"
"-86.35","48.76","MARATHON A","6044967","2018-02-09 21:00","2018","02","09","21:00","-12.5","","-17.1","","69","","","M","26","","18","","","M","97.91","","","","-21","","NA"
"-86.35","48.76","MARATHON A","6044967","2018-02-09 22:00","2018","02","09","22:00","-11.2","","-15.3","","72","","","M","26","","24","","","M","97.87","","","","-20","","NA"
"-86.35","48.76","MARATHON A","6044967","2018-02-09 23:00","2018","02","09","23:00","-11.5","","-18.4","","57","","","M","27","","25","","","M","97.91","","","","-21","","NA"
"-86.35","48.76","MARATHON A","6044967","2018-02-10 00:00","2018","02","10","00:00","-11.7","","-18.7","","57","","","M","27","","25","","","M","97.90","","","","-21","","NA"
"-86.35","48.76","MARATHON A","6044967","2018-02-10 01:00","2018","02","10","01:00","-12.4","","-17.8","","64","","","M","28","","14","","","M","97.88","","","","-19","","NA"
"-86.35","48.76","MARATHON A","6044967","2018-02-10 02:00","2018","02","10","02:00","-14.4","","-22.7","","50","","","M","30","","16","","","M","97.87","","","","-22","","NA"
"-86.35","48.76","MARATHON A","6044967","2018-02-10 03:00","2018","02","10","03:00","-15.5","","-23.1","","53","","","M","31","","10","","","M","97.90","","","","-22","","NA"
"-86.35","48.76","MARATHON A","6044967","2018-02-10 04:00","2018","02","10","04:00","-16.5","","-23.1","","57","","","M","28","","9","","","M","97.90","","","","-23","","NA"
"-86.35","48.76","MARATHON A","6044967","2018-02-10 05:00","2018","02","10","05:00","-20.8","","-25.6","","66","","","M","25","","3","","","M","97.92","","","","-23","","NA"
"-86.35","48.76","MARATHON A","6044967","2018-02-10 06:00","2018","02","10","06:00","-22.5","","-24.7","","83","","","M","30","","3","","","M","97.95","","","","-25","","NA"
"-86.35","48.76","MARATHON A","6044967","2018-02-10 07:00","2018","02","10","07:00","-23.4","","-26.7","","75","","","M","31","","5","","","M","97.95","","","","-28","","NA"
"-86.35","48.76","MARATHON A","6044967","2018-02-10 08:00","2018","02","10","08:00","-24.2","","-27.7","","73","","","M","35","","4","","","M","98.05","","","","-28","","NA"
"-86.35","48.76","MARATHON A","6044967","2018-02-10 09:00","2018","02","10","09:00","-23.8","","-26.8","","77","","","M","16","","5","","","M","98.06","","","","-29","","NA"
"-86.35","48.76","MARATHON A","6044967","2018-02-10 10:00","2018","02","10","10:00","-16.8","","-21.9","","65","","","M","31","","3","","","M","98.09","","","","-19","","NA"
"-86.35","48.76","MARATHON A","6044967","2018-02-10 11:00","2018","02","10","11:00","-15.3","","-21.6","","59","","","M","17","","6","","","M","98.14","","","","-20","","NA"
"-86.35","48.76","MARATHON A","6044967","2018-02-10 12:00","2018","02","10","12:00","-13.8","","-21.8","","51","","","M","17","","6","","","M","98.15","","","","-18","","NA"
"-86.35","48.76","MARATHON A","6044967","2018-02-10 13:00","2018","02","10","13:00","-13.1","","-21.0","","52","","","M","19","","10","","","M","98.16","","","","-19","","NA"
"-86.35","48.76","MARATHON A","6044967","2018-02-10 14:00","2018","02","10","14:00","-13.0","","-19.8","","58","","","M","19","","11","","","M","98.12","","","","-19","","NA"
"-86.35","48.76","MARATHON A","6044967","2018-02-10 15:00","2018","02","10","15:00","-12.3","","-19.1","","58","","","M","23","","7","","","M","98.09","","","","-17","","NA"
"-86.35","48.76","MARATHON A","6044967","2018-02-10 16:00","2018","02","10","16:00","-12.3","","-18.6","","60","","","M","23","","5","","","M","98.06","","","","-16","","NA"
"-86.35","48.76","MARATHON A","6044967","2018-02-10 17:00","2018","02","10","17:00","-12.7","","-18.1","","64","","","M","22","","5","","","M","98.04","","","","-16","","NA"
"-86.35","48.76","MARATHON A","6044967","2018-02-10 18:00","2018","02","10","18:00","-13.0","","-17.2","","71","","","M","20","","7","","","M","98.03","","","","-18","","NA"
"-86.35","48.76","MARATHON A","6044967","2018-02-10 19:00","2018","02","10","19:00","-13.4","","-17.6","","71","","","M","21","","4","","","M","98.04","","","","-16","","NA"
"-86.35","48.76","MARATHON A","6044967","2018-02-10 20:00","2018","02","10","20:00","-12.8","","-16.7","","73","","","M","22","","5","","","M","97.99","","","","-16","","NA"
"-86.35","48.76","MARATHON A","6044967","2018-02-10 21:00","2018","02","10","21:00","-12.4","","-16.0","","75","","","M","22","","9","","","M","97.94","","","","-18","","NA"
"-86.35","48.76","MARATHON A","6044967","2018-02-10 22:00","2018","02","10","22:00","-11.7","","-15.2","","76","","","M","22","","7","","","M","97.90","","","","-16","","NA"
"-86.35","48.76","MARATHON A","6044967","2018-02-10 23:00","2018","02","10","23:00","-11.4","","-13.9","","82","","","M","22","","6","","","M","97.86","","","","-15","","NA"
"-86.35","48.76","MARATHON A","6044967","2018-02-11 00:00","2018","02","11","00:00","-11.5","","-15.1","","75","","","M","24","","10","","","M","97.81","","","","-17","","NA"
"-86.35","48.76","MARATHON A","6044967","2018-02-11 01:00","2018","02","11","01:00","-11.4","","-14.9","","75","","","M","22","","7","","","M","97.84","","","","-16","","NA"
"-86.35","48.76","MARATHON A","6044967","2018-02-11 02:00","2018","02","11","02:00","-10.4","","-14.4","","73","","","M","23","","5","","","M","97.78","","","","-13","","NA"
"-86.35","48.76","MARATHON A","6044967","2018-02-11 03:00","2018","02","11","03:00","-10.3","","-14.1","","74","","","M","22","","4","","","M","97.64","","","","-13","","NA"
"-86.35","48.76","MARATHON A","6044967","2018-02-11 04:00","2018","02","11","04:00","-10.5","","-14.1","","75","","","M","25","","4","","","M","97.59","","","","-13","","NA"
"-86.35","48.76","MARATHON A","6044967","2018-02-11 05:00","2018","02","11","05:00","-9.8","","-13.9","","72","","","M","19","","3","","","M","97.50","","","","-12","","NA"
"-86.35","48.76","MARATHON A","6044967","2018-02-11 06:00","2018","02","11","06:00","-8.8","","-12.6","","74","","","M","24","","6","","","M","97.41","","","","-12","","NA"
"-86.35","48.76","MARATHON A","6044967","2018-02-11 07:00","2018","02","11","07:00","-8.8","","-12.7","","73","","","M","24","","8","","","M","97.41","","","","-13","","NA"
"-86.35","48.76","MARATHON A","6044967","2018-02-11 08:00","2018","02","11","08:00","-9.7","","-12.9","","77","","","M","21","","5","","","M","97.33","","","","-13","","NA"
"-86.35","48.76","MARATHON A","6044967","2018-02-11 09:00","2018","02","11","09:00","-9.7","","-13.3","","75","","","M","24","","4","","","M","97.27","","","","-12","","NA"
"-86.35","48.76","MARATHON A","6044967","2018-02-11 10:00","2018","02","11","10:00","-8.5","","-12.1","","75","","","M","23","","5","","","M","97.16","","","","-11","","NA"
"-86.35","48.76","MARATHON A","6044967","2018-02-11 11:00","2018","02","11","11:00","-7.4","","-11.9","","71","","","M","25","","16","","","M","97.06","","","","-14","","NA"
"-86.35","48.76","MARATHON A","6044967","2018-02-11 12:00","2018","02","11","12:00","-7.0","","-11.5","","71","","","M","26","","12","","","M","96.95","","","","-12","","NA"
"-86.35","48.76","MARATHON A","6044967","2018-02-11 13:00","2018","02","11","13:00","-8.8","","-12.8","","73","","","M","26","","12","","","M","96.88","","","","-14","","NA"
"-86.35","48.76","MARATHON A","6044967","2018-02-11 14:00","2018","02","11","14:00","-8.6","","-12.8","","72","","","M","25","","15","","","M","96.82","","","","-15","","NA"
"-86.35","48.76","MARATHON A","6044967","2018-02-11 15:00","2018","02","11","15:00","-9.1","","-13.6","","70","","","M","26","","18","","","M","96.76","","","","-16","","NA"
"-86.35","48.76","MARATHON A","6044967","2018-02-11 16:00","2018","02","11","16:00","-10.2","","-13.7","","76","","","M","24","","16","","","M","96.76","","","","-17","","NA"
"-86.35","48.76","MARATHON A","6044967","2018-02-11 17:00","2018","02","11","17:00","-10.5","","-12.4","","86","","","M","24","","10","","","M","96.80","","","","-16","","NA"
"-86.35","48.76","MARATHON A","6044967","2018-02-11 18:00","2018","02","11","18:00","-9.9","","-13.1","","78","","","M","26","","16","","","M","96.83","","","","-17","","NA"
"-86.35","48.76","MARATHON A","6044967","2018-02-11 19:00","2018","02","11","19:00","-10.7","","-14.5","","74","","","M","28","","16","","","M","96.98","","","","-18","","NA"
"-86.35","48.76","MARATHON A","6044967","2018-02-11 20:00","2018","02","11","20:00","-13.3","","-18.4","","66","","","M","31","","24","","","M","97.21","","","","-23","","NA"
"-86.35","48.76","MARATHON A","6044967","2018-02-11 21:00","2018","02","11","21:00","-14.7","","-19.2","","69","","","M","31","","21","","","M","97.41","","","","-24","","NA"
"-86.35","48.76","MARATHON A","6044967","2018-02-11 22:00","2018","02","11","22:00","-15.2","","-19.2","","72","","","M","32","","15","","","M","97.55","","","","-23","","NA"
"-86.35","48.76","MARATHON A","6044967","2018-02-11 23:00","2018","02","11","23:00","-15.6","","-19.2","","74","","","M","32","","11","","","M","97.70","","","","-22","","NA"
"-86.35","48.76","MARATHON A","6044967","2018-02-12 00:00","2018","02","12","00:00","-15.8","","-19.3","","75","","","M","30","","11","","","M","97.87","","","","-23","","NA"
"-86.35","48.76","MARATHON A","6044967","2018-02-12 01:00","2018","02","12","01:00","-16.8","","-19.7","","79","","","M","29","","8","","","M","98.08","","","","-22","","NA"
"-86.35","48.76","MARATHON A","6044967","2018-02-12 02:00","2018","02","12","02:00","-16.9","","-20.1","","77","","","M","32","","15","","","M","98.26","","","","-25","","NA"
"-86.35","48.76","MARATHON A","6044967","2018-02-12 03:00","2018","02","12","03:00","-17.2","","-20.7","","75","","","M","32","","19","","","M","98.44","","","","-27","","NA"
"-86.35","48.76","MARATHON A","6044967","2018-02-12 04:00","2018","02","12","04:00","-18.1","","-21.7","","74","","","M","32","","9","","","M","98.62","","","","-24","","NA"
"-86.35","48.76","MARATHON A","6044967","2018-02-12 05:00","2018","02","12","05:00","-23.9","","-25.9","","83","","","M","15","","4","","","M","98.80","","","","-28","","NA"
"-86.35","48.76","MARATHON A","6044967","2018-02-12 06:00","2018","02","12","06:00","-21.1","","-25.3","","69","","","M","36","","10","","","M","98.99","","","","-29","","NA"
"-86.35","48.76","MARATHON A","6044967","2018-02-12 07:00","2018","02","12","07:00","-21.9","","-26.3","","68","","","M","33","","6","","","M","99.14","","","","-27","","NA"
"-86.35","48.76","MARATHON A","6044967","2018-02-12 08:00","2018","02","12","08:00","-23.4","","-27.2","","71","","","M","33","","14","","","M","99.29","","","","-33","","NA"
"-86.35","48.76","MARATHON A","6044967","2018-02-12 09:00","2018","02","12","09:00","-22.5","","-27.0","","67","","","M","34","","13","","","M","99.40","","","","-31","","NA"
"-86.35","48.76","MARATHON A","6044967","2018-02-12 10:00","2018","02","12","10:00","-21.9","","-27.5","","61","","","M","34","","14","","","M","99.49","","","","-31","","NA"
"-86.35","48.76","MARATHON A","6044967","2018-02-12 11:00","2018","02","12","11:00","-20.7","","-27.6","","55","","","M","0","","1","","","M","99.57","","","","-22","","NA"
"-86.35","48.76","MARATHON A","6044967","2018-02-12 12:00","2018","02","12","12:00","-19.1","","-27.8","","47","","","M","27","","12","","","M","99.62","","","","-27","","NA"
"-86.35","48.76","MARATHON A","6044967","2018-02-12 13:00","2018","02","12","13:00","-18.2","","-25.8","","52","","","M","21","","9","","","M","99.67","","","","-25","","NA"
"-86.35","48.76","MARATHON A","6044967","2018-02-12 14:00","2018","02","12","14:00","-16.9","","-24.9","","51","","","M","26","","11","","","M","99.69","","","","-24","","NA"
"-86.35","48.76","MARATHON A","6044967","2018-02-12 15:00","2018","02","12","15:00","-16.3","","-22.5","","59","","","M","24","","5","","","M","99.67","","","","-20","","NA"
"-86.35","48.76","MARATHON A","6044967","2018-02-12 16:00","2018","02","12","16:00","-15.7","","-20.2","","69","","","M","27","","9","","","M","99.70","","","","-22","","NA"
"-86.35","48.76","MARATHON A","6044967","2018-02-12 17:00","2018","02","12","17:00","-15.4","","-21.1","","62","","","M","27","","12","","","M","99.71","","","","-22","","NA"
"-86.35","48.76","MARATHON A","6044967","2018-02-12 18:00","2018","02","12","18:00","-16.6","","-23.3","","57","","","M","29","","19","","","M","99.75","","","","-26","","NA"
"-86.35","48.76","MARATHON A","6044967","2018-02-12 19:00","2018","02","12","19:00","-19.4","","-25.0","","62","","","M","34","","1","","","M","99.78","","","","-20","","NA"
"-86.35","48.76","MARATHON A","6044967","2018-02-12 20:00","2018","02","12","20:00","-23.3","","-26.1","","79","","","M","15","","6","","","M","99.79","","","","-29","","NA"
"-86.35","48.76","MARATHON A","6044967","2018-02-12 21:00","2018","02","12","21:00","-16.9","","-19.5","","80","","","M","27","","10","","","M","99.76","","","","-24","","NA"
"-86.35","48.76","MARATHON A","6044967","2018-02-12 22:00","2018","02","12","22:00","-15.3","","-19.4","","71","","","M","29","","10","","","M","99.75","","","","-22","","NA"
"-86.35","48.76","MARATHON A","6044967","2018-02-12 23:00","2018","02","12","23:00","-15.6","","-20.3","","68","","","M","30","","10","","","M","99.74","","","","-22","","NA"
"-86.35","48.76","MARATHON A","6044967","2018-02-13 00:00","2018","02","13","00:00","-15.5","","-20.6","","66","","","M","28","","7","","","M","99.72","","","","-20","","NA"
"-86.35","48.76","MARATHON A","6044967","2018-02-13 01:00","2018","02","13","01:00","-16.1","","-20.5","","69","","","M","29","","8","","","M","99.69","","","","-22","","NA"
"-86.35","48.76","MARATHON A","6044967","2018-02-13 02:00","2018","02","13","02:00","-22.7","","-25.7","","77","","","M","14","","4","","","M","99.67","","","","-26","","NA"
"-86.35","48.76","MARATHON A","6044967","2018-02-13 03:00","2018","02","13","03:00","-16.0","","-20.1","","71","","","M","29","","6","","","M","99.64","","","","-20","","NA"
"-86.35","48.76","MARATHON A","6044967","2018-02-13 04:00","2018","02","13","04:00","-17.9","","-21.0","","78","","","M","21","","3","","","M","99.55","","","","-20","","NA"
"-86.35","48.76","MARATHON A","6044967","2018-02-13 05:00","2018","02","13","05:00","-10.8","","-14.2","","77","","","M","22","","8","","","M","99.41","","","","-15","","NA"
"-86.35","48.76","MARATHON A","6044967","2018-02-13 06:00","2018","02","13","06:00","-11.1","","-14.2","","78","","","M","23","","12","","","M","99.33","","","","-17","","NA"
"-86.35","48.76","MARATHON A","6044967","2018-02-13 07:00","2018","02","13","07:00","-11.2","","-15.6","","70","","","M","24","","13","","","M","99.25","","","","-18","","NA"
"-86.35","48.76","MARATHON A","6044967","2018-02-13 08:00","2018","02","13","08:00","-10.7","","-15.0","","71","","","M","22","","19","","","M","99.17","","","","-19","","NA"
"-86.35","48.76","MARATHON A","6044967","2018-02-13 09:00","2018","02","13","09:00","-10.4","","-15.6","","66","","","M","23","","12","","","M","99.13","","","","-16","","NA"
"-86.35","48.76","MARATHON A","6044967","2018-02-13 10:00","2018","02","13","10:00","-9.9","","-16.7","","58","","","M","21","","10","","","M","98.99","","","","-15","","NA"
"-86.35","48.76","MARATHON A","6044967","2018-02-13 11:00","2018","02","13","11:00","-8.8","","-14.6","","63","","","M","21","","14","","","M","98.81","","","","-15","","NA"
"-86.35","48.76","MARATHON A","6044967","2018-02-13 12:00","2018","02","13","12:00","-8.4","","-14.3","","63","","","M","21","","11","","","M","98.66","","","","-14","","NA"
"-86.35","48.76","MARATHON A","6044967","2018-02-13 13:00","2018","02","13","13:00","-8.3","","-11.5","","78","","","M","22","","12","","","M","98.48","","","","-14","","NA"
"-86.35","48.76","MARATHON A","6044967","2018-02-13 14:00","2018","02","13","14:00","-7.3","","-10.0","","81","","","M","22","","15","","","M","98.21","","","","-13","","NA"
"-86.35","48.76","MARATHON A","6044967","2018-02-13 15:00","2018","02","13","15:00","-6.0","","-7.6","","88","","","M","22","","16","","","M","98.04","","","","-12","","NA"
"-86.35","48.76","MARATHON A","6044967","2018-02-13 16:00","2018","02","13","16:00","-5.5","","-10.0","","70","","","M","20","","18","","","M","97.83","","","","-12","","NA"
"-86.35","48.76","MARATHON A","6044967","2018-02-13 17:00","2018","02","13","17:00","-4.7","","-10.0","","67","","","M","19","","25","","","M","97.71","","","","-12","","NA"
"-86.35","48.76","MARATHON A","6044967","2018-02-13 18:00","2018","02","13","18:00","-4.4","","-9.1","","69","","","M","20","","24","","","M","97.57","","","","-11","","NA"
"-86.35","48.76","MARATHON A","6044967","2018-02-13 19:00","2018","02","13","19:00","-4.0","","-9.2","","67","","","M","20","","16","","","M","97.44","","","","-10","","NA"
"-86.35","48.76","MARATHON A","6044967","2018-02-13 20:00","2018","02","13","20:00","-3.5","","-8.5","","68","","","M","20","","15","","","M","97.33","","","","-9","","NA"
"-86.35","48.76","MARATHON A","6044967","2018-02-13 21:00","2018","02","13","21:00","-2.6","","-7.8","","68","","","M","21","","14","","","M","97.22","","","","-7","","NA"
"-86.35","48.76","MARATHON A","6044967","2018-02-13 22:00","2018","02","13","22:00","-2.0","","-6.9","","69","","","M","23","","16","","","M","97.21","","","","-7","","NA"
"-86.35","48.76","MARATHON A","6044967","2018-02-13 23:00","2018","02","13","23:00","-2.0","","-8.1","","63","","","M","25","","23","","","M","97.15","","","","-8","","NA"
"-86.35","48.76","MARATHON A","6044967","2018-02-14 00:00","2018","02","14","00:00","-2.4","","-7.2","","70","","","M","25","","23","","","M","97.09","","","","-9","","NA"
"-86.35","48.76","MARATHON A","6044967","2018-02-14 01:00","2018","02","14","01:00","-2.7","","-6.4","","76","","","M","25","","19","","","M","97.05","","","","-8","","NA"
"-86.35","48.76","MARATHON A","6044967","2018-02-14 02:00","2018","02","14","02:00","-2.8","","-5.6","","81","","","M","25","","19","","","M","96.98","","","","-9","","NA"
"-86.35","48.76","MARATHON A","6044967","2018-02-14 03:00","2018","02","14","03:00","-2.9","","-5.2","","84","","","M","25","","20","","","M","96.97","","","","-9","","NA"
"-86.35","48.76","MARATHON A","6044967","2018-02-14 04:00","2018","02","14","04:00","-2.9","","-4.8","","87","","","M","25","","18","","","M","96.88","","","","-9","","NA"
"-86.35","48.76","MARATHON A","6044967","2018-02-14 05:00","2018","02","14","05:00","-2.7","","-4.6","","86","","","M","26","","19","","","M","96.90","","","","-8","","NA"
"-86.35","48.76","MARATHON A","6044967","2018-02-14 06:00","2018","02","14","06:00","-2.5","","-5.7","","79","","","M","27","","17","","","M","96.87","","","","-8","","NA"
"-86.35","48.76","MARATHON A","6044967","2018-02-14 07:00","2018","02","14","07:00","-2.6","","-6.3","","76","","","M","27","","16","","","M","96.86","","","","-8","","NA"
"-86.35","48.76","MARATHON A","6044967","2018-02-14 08:00","2018","02","14","08:00","-2.6","","-6.1","","77","","","M","27","","16","","","M","96.90","","","","-8","","NA"
"-86.35","48.76","MARATHON A","6044967","2018-02-14 09:00","2018","02","14","09:00","-2.5","","-6.2","","76","","","M","26","","14","","","M","96.91","","","","-7","","NA"
"-86.35","48.76","MARATHON A","6044967","2018-02-14 10:00","2018","02","14","10:00","-2.3","","-6.1","","75","","","M","27","","15","","","M","96.92","","","","-7","","NA"
"-86.35","48.76","MARATHON A","6044967","2018-02-14 11:00","2018","02","14","11:00","-2.3","","-4.9","","82","","","M","24","","8","","","M","96.88","","","","-5","","NA"
"-86.35","48.76","MARATHON A","6044967","2018-02-14 12:00","2018","02","14","12:00","-2.5","","-4.2","","88","","","M","23","","8","","","M","96.91","","","","-6","","NA"
"-86.35","48.76","MARATHON A","6044967","2018-02-14 13:00","2018","02","14","13:00","-2.5","","-4.7","","85","","","M","20","","10","","","M","96.86","","","","-6","","NA"
"-86.35","48.76","MARATHON A","6044967","2018-02-14 14:00","2018","02","14","14:00","-2.5","","-4.9","","84","","","M","21","","11","","","M","96.81","","","","-7","","NA"
"-86.35","48.76","MARATHON A","6044967","2018-02-14 15:00","2018","02","14","15:00","-2.9","","-4.9","","86","","","M","20","","12","","","M","96.73","","","","-7","","NA"
"-86.35","48.76","MARATHON A","6044967","2018-02-14 16:00","2018","02","14","16:00","-2.9","","-5.1","","85","","","M","22","","9","","","M","96.70","","","","-6","","NA"
"-86.35","48.76","MARATHON A","6044967","2018-02-14 17:00","2018","02","14","17:00","-2.8","","-4.8","","86","","","M","20","","12","","","M","96.64","","","","-7","","NA"
"-86.35","48.76","MARATHON A","6044967","2018-02-14 18:00","2018","02","14","18:00","-2.6","","-4.6","","86","","","M","19","","15","","","M","96.57","","","","-8","","NA"
"-86.35","48.76","MARATHON A","6044967","2018-02-14 19:00","2018","02","14","19:00","-2.6","","-5.6","","80","","","M","20","","7","","","M","96.52","","","","-5","","NA"
"-86.35","48.76","MARATHON A","6044967","2018-02-14 20:00","2018","02","14","20:00","-2.3","","-5.5","","79","","","M","20","","7","","","M","96.50","","","","-5","","NA"
"-86.35","48.76","MARATHON A","6044967","2018-02-14 21:00","2018","02","14","21:00","-2.2","","-5.5","","79","","","M","","","0","","","M","96.42","","","","","","NA"
"-86.35","48.76","MARATHON A","6044967","2018-02-14 22:00","2018","02","14","22:00","-2.4","","-6.3","","75","","","M","10","","6","","","M","96.40","","","","-5","","NA"
"-86.35","48.76","MARATHON A","6044967","2018-02-14 23:00","2018","02","14","23:00","-2.4","","-6.2","","75","","","M","6","","3","","","M","96.32","","","","-4","","NA"
"-86.35","48.76","MARATHON A","6044967","2018-02-15 00:00","2018","02","15","00:00","-2.6","","-6.2","","76","","","M","10","","10","","","M","96.24","","","","-6","","NA"
"-86.35","48.76","MARATHON A","6044967","2018-02-15 01:00","2018","02","15","01:00","-2.7","","-6.1","","78","","","M","10","","3","","","M","96.18","","","","-4","","NA"
"-86.35","48.76","MARATHON A","6044967","2018-02-15 02:00","2018","02","15","02:00","-2.9","","-6.0","","79","","","M","6","","9","","","M","96.10","","","","-6","","NA"
"-86.35","48.76","MARATHON A","6044967","2018-02-15 03:00","2018","02","15","03:00","-3.2","","-6.1","","80","","","M","5","","17","","","M","96.12","","","","-9","","NA"
"-86.35","48.76","MARATHON A","6044967","2018-02-15 04:00","2018","02","15","04:00","-3.2","","-6.0","","81","","","M","4","","15","","","M","96.11","","","","-8","","NA"
"-86.35","48.76","MARATHON A","6044967","2018-02-15 05:00","2018","02","15","05:00","-3.4","","-6.0","","82","","","M","6","","19","","","M","96.07","","","","-9","","NA"
"-86.35","48.76","MARATHON A","6044967","2018-02-15 06:00","2018","02","15","06:00","-3.4","","-5.8","","83","","","M","5","","19","","","M","96.12","","","","-9","","NA"
"-86.35","48.76","MARATHON A","6044967","2018-02-15 07:00","2018","02","15","07:00","-4.2","","-5.8","","88","","","M","3","","21","","","M","96.13","","","","-11","","NA"
"-86.35","48.76","MARATHON A","6044967","2018-02-15 08:00","2018","02","15","08:00","-6.2","","-8.4","","84","","","M","4","","32","","","M","96.18","","","","-15","","NA"
"-86.35","48.76","MARATHON A","6044967","2018-02-15 09:00","2018","02","15","09:00","-11.0","","-13.6","","81","","","M","3","","24","","","M","96.40","","","","-20","","NA"
"-86.35","48.76","MARATHON A","6044967","2018-02-15 10:00","2018","02","15","10:00","-12.7","","-15.6","","79","","","M","3","","29","","","M","96.50","","","","-23","","NA"
"-86.35","48.76","MARATHON A","6044967","2018-02-15 11:00","2018","02","15","11:00"
"-86.35","48.76","MARATHON A","6044967","2018-02-15 12:00","2018","02","15","12:00"
"-86.35","48.76","MARATHON A","6044967","2018-02-15 13:00","2018","02","15","13:00"
"-86.35","48.76","MARATHON A","6044967","2018-02-15 14:00","2018","02","15","14:00","-12.1","","-17.1","","67","","","M","5","","18","","","M","96.82","","","","-20","","NA"
"-86.35","48.76","MARATHON A","6044967","2018-02-15 15:00","2018","02","15","15:00","-10.7","","-16.2","","64","","","M","2","","20","","","M","96.92","","","","-19","","NA"
"-86.35","48.76","MARATHON A","6044967","2018-02-15 16:00","2018","02","15","16:00","-10.1","","-15.9","","63","","","M","2","","18","","","M","96.97","","","","-18","","NA"
"-86.35","48.76","MARATHON A","6044967","2018-02-15 17:00","2018","02","15","17:00","-10.7","","-16.1","","65","","","M","3","","18","","","M","97.09","","","","-18","","NA"
"-86.35","48.76","MARATHON A","6044967","2018-02-15 18:00","2018","02","15","18:00","-11.6","","-16.5","","67","","","M","2","","17","","","M","97.20","","","","-19","","NA"
"-86.35","48.76","MARATHON A","6044967","2018-02-15 19:00","2018","02","15","19:00","-13.1","","-17.1","","72","","","M","2","","9","","","M","97.33","","","","-19","","NA"
"-86.35","48.76","MARATHON A","6044967","2018-02-15 20:00","2018","02","15","20:00","-13.4","","-17.2","","74","","","M","4","","9","","","M","97.38","","","","-19","","NA"
"-86.35","48.76","MARATHON A","6044967","2018-02-15 21:00","2018","02","15","21:00","-14.1","","-17.2","","78","","","M","6","","4","","","M","97.45","","","","-17","","NA"
"-86.35","48.76","MARATHON A","6044967","2018-02-15 22:00","2018","02","15","22:00","-13.8","","-16.9","","77","","","M","3","","11","","","M","97.51","","","","-20","","NA"
"-86.35","48.76","MARATHON A","6044967","2018-02-15 23:00","2018","02","15","23:00","-14.2","","-17.1","","79","","","M","5","","8","","","M","97.48","","","","-19","","NA"
"-86.35","48.76","MARATHON A","6044967","2018-02-16 00:00","2018","02","16","00:00","-14.3","","-16.9","","81","","","M","2","","13","","","M","97.49","","","","-21","","NA"
"-86.35","48.76","MARATHON A","6044967","2018-02-16 01:00","2018","02","16","01:00","-14.1","","-16.5","","82","","","M","32","","5","","","M","97.55","","","","-18","","NA"
"-86.35","48.76","MARATHON A","6044967","2018-02-16 02:00","2018","02","16","02:00","-14.2","","-17.2","","78","","","M","34","","14","","","M","97.61","","","","-22","","NA"
"-86.35","48.76","MARATHON A","6044967","2018-02-16 03:00","2018","02","16","03:00","-15.4","","-19.3","","73","","","M","33","","18","","","M","97.65","","","","-24","","NA"
"-86.35","48.76","MARATHON A","6044967","2018-02-16 04:00","2018","02","16","04:00","-17.5","","-21.6","","71","","","M","33","","16","","","M","97.67","","","","-26","","NA"
"-86.35","48.76","MARATHON A","6044967","2018-02-16 05:00","2018","02","16","05:00","-19.0","","-22.9","","72","","","M","34","","8","","","M","97.71","","","","-25","","NA"
"-86.35","48.76","MARATHON A","6044967","2018-02-16 06:00","2018","02","16","06:00","-23.5","","-25.7","","83","","","M","21","","1","","","M","97.72","","","","-24","","NA"
"-86.35","48.76","MARATHON A","6044967","2018-02-16 07:00","2018","02","16","07:00","-26.0","","-28.2","","82","","","M","25","","1","","","M","97.76","","","","-27","","NA"
"-86.35","48.76","MARATHON A","6044967","2018-02-16 08:00","2018","02","16","08:00","-21.4","","-24.6","","76","","","M","29","","7","","","M","97.79","","","","-27","","NA"
"-86.35","48.76","MARATHON A","6044967","2018-02-16 09:00","2018","02","16","09:00","-20.2","","-23.3","","77","","","M","27","","4","","","M","97.81","","","","-24","","NA"
"-86.35","48.76","MARATHON A","6044967","2018-02-16 10:00","2018","02","16","10:00","-17.3","","-23.9","","57","","","M","29","","13","","","M","97.83","","","","-25","","NA"
"-86.35","48.76","MARATHON A","6044967","2018-02-16 11:00","2018","02","16","11:00","-16.6","","-24.1","","53","","","M","28","","20","","","M","97.84","","","","-26","","NA"
"-86.35","48.76","MARATHON A","6044967","2018-02-16 12:00","2018","02","16","12:00","-14.3","","-20.4","","60","","","M","26","","19","","","M","97.79","","","","-23","","NA"
"-86.35","48.76","MARATHON A","6044967","2018-02-16 13:00","2018","02","16","13:00","-12.1","","-17.0","","67","","","M","25","","18","","","M","97.71","","","","-20","","NA"
"-86.35","48.76","MARATHON A","6044967","2018-02-16 14:00","2018","02","16","14:00","-11.4","","-16.1","","69","","","M","28","","25","","","M","97.69","","","","-21","","NA"
"-86.35","48.76","MARATHON A","6044967","2018-02-16 15:00","2018","02","16","15:00","-11.0","","-18.5","","54","","","M","27","","25","","","M","97.63","","","","-20","","NA"
"-86.35","48.76","MARATHON A","6044967","2018-02-16 16:00","2018","02","16","16:00","-10.1","","-18.0","","53","","","M","27","","20","","","M","97.70","","","","-18","","NA"
"-86.35","48.76","MARATHON A","6044967","2018-02-16 17:00","2018","02","16","17:00","-10.2","","-17.8","","54","","","M","28","","20","","","M","97.71","","","","-18","","NA"
"-86.35","48.76","MARATHON A","6044967","2018-02-16 18:00","2018","02","16","18:00","-10.8","","-16.9","","61","","","M","28","","11","","","M","97.69","","","","-17","","NA"
"-86.35","48.76","MARATHON A","6044967","2018-02-16 19:00","2018","02","16","19:00","-10.9","","-16.6","","64","","","M","29","","8","","","M","97.67","","","","-16","","NA"
"-86.35","48.76","MARATHON A","6044967","2018-02-16 20:00","2018","02","16","20:00","-8.3","","-15.1","","58","","","M","27","","12","","","M","97.61","","","","-14","","NA"
"-86.35","48.76","MARATHON A","6044967","2018-02-16 21:00","2018","02","16","21:00","-7.0","","-9.8","","81","","","M","25","","15","","","M","97.56","","","","-13","","NA"
"-86.35","48.76","MARATHON A","6044967","2018-02-16 22:00","2018","02","16","22:00","-6.9","","-10.1","","78","","","M","26","","18","","","M","97.54","","","","-14","","NA"
"-86.35","48.76","MARATHON A","6044967","2018-02-16 23:00","2018","02","16","23:00","-6.4","","-11.0","","70","","","M","26","","15","","","M","97.47","","","","-12","","NA"
"-86.35","48.76","MARATHON A","6044967","2018-02-17 00:00","2018","02","17","00:00","-5.8","","-12.4","","60","","","M","24","","10","","","M","97.44","","","","-10","","NA"
"-86.35","48.76","MARATHON A","6044967","2018-02-17 01:00","2018","02","17","01:00","-5.9","","-10.1","","72","","","M","25","","14","","","M","97.40","","","","-11","","NA"
"-86.35","48.76","MARATHON A","6044967","2018-02-17 02:00","2018","02","17","02:00","-5.8","","-9.6","","75","","","M","24","","14","","","M","97.32","","","","-11","","NA"
"-86.35","48.76","MARATHON A","6044967","2018-02-17 03:00","2018","02","17","03:00","-6.0","","-9.2","","78","","","M","24","","12","","","M","97.24","","","","-11","","NA"
"-86.35","48.76","MARATHON A","6044967","2018-02-17 04:00","2018","02","17","04:00","-6.3","","-9.2","","80","","","M","23","","8","","","M","97.12","","","","-10","","NA"
"-86.35","48.76","MARATHON A","6044967","2018-02-17 05:00","2018","02","17","05:00","-6.8","","-9.5","","82","","","M","22","","12","","","M","97.01","","","","-12","","NA"
"-86.35","48.76","MARATHON A","6044967","2018-02-17 06:00","2018","02","17","06:00","-7.3","","-10.3","","79","","","M","21","","11","","","M","96.91","","","","-12","","NA"
"-86.35","48.76","MARATHON A","6044967","2018-02-17 07:00","2018","02","17","07:00","-7.6","","-8.7","","92","","","M","21","","8","","","M","96.82","","","","-12","","NA"
"-86.35","48.76","MARATHON A","6044967","2018-02-17 08:00","2018","02","17","08:00","-7.3","","-8.3","","92","","","M","21","","14","","","M","96.74","","","","-13","","NA"
"-86.35","48.76","MARATHON A","6044967","2018-02-17 09:00","2018","02","17","09:00","-6.5","","-7.6","","92","","","M","22","","8","","","M","96.70","","","","-10","","NA"
"-86.35","48.76","MARATHON A","6044967","2018-02-17 10:00","2018","02","17","10:00","-5.8","","-6.9","","92","","","M","23","","9","","","M","96.65","","","","-10","","NA"
"-86.35","48.76","MARATHON A","6044967","2018-02-17 11:00","2018","02","17","11:00","-4.9","","-6.1","","91","","","M","24","","14","","","M","96.59","","","","-10","","NA"
"-86.35","48.76","MARATHON A","6044967","2018-02-17 12:00","2018","02","17","12:00","-5.7","","-8.0","","84","","","M","28","","18","","","M","96.63","","","","-12","","NA"
"-86.35","48.76","MARATHON A","6044967","2018-02-17 13:00","2018","02","17","13:00","-5.6","","-8.5","","80","","","M","27","","18","","","M","96.59","","","","-12","","NA"
"-86.35","48.76","MARATHON A","6044967","2018-02-17 14:00","2018","02","17","14:00","-5.9","","-8.8","","80","","","M","29","","16","","","M","96.60","","","","-12","","NA"
"-86.35","48.76","MARATHON A","6044967","2018-02-17 15:00","2018","02","17","15:00","-5.8","","-9.0","","78","","","M","30","","12","","","M","96.61","","","","-11","","NA"
"-86.35","48.76","MARATHON A","6044967","2018-02-17 16:00","2018","02","17","16:00","-5.2","","-9.3","","73","","","M","26","","13","","","M","96.60","","","","-10","","NA"
"-86.35","48.76","MARATHON A","6044967","2018-02-17 17:00","2018","02","17","17:00","-5.2","","-10.3","","67","","","M","27","","10","","","M","96.66","","","","-10","","NA"
"-86.35","48.76","MARATHON A","6044967","2018-02-17 18:00","2018","02","17","18:00","-5.6","","-10.8","","67","","","M","28","","9","","","M","96.71","","","","-10","","NA"
"-86.35","48.76","MARATHON A","6044967","2018-02-17 19:00","2018","02","17","19:00","-7.2","","-11.4","","72","","","M","29","","4","","","M","96.78","","","","-9","","NA"
"-86.35","48.76","MARATHON A","6044967","2018-02-17 20:00","2018","02","17","20:00","-14.7","","-16.1","","89","","","M","36","","2","","","M","96.85","","","","-16","","NA"
"-86.35","48.76","MARATHON A","6044967","2018-02-17 21:00","2018","02","17","21:00","-8.5","","-13.6","","67","","","M","29","","8","","","M","96.91","","","","-13","","NA"
"-86.35","48.76","MARATHON A","6044967","2018-02-17 22:00","2018","02","17","22:00","-16.2","","-17.8","","87","","","M","0","","1","","","M","97.00","","","","-17","","NA"
"-86.35","48.76","MARATHON A","6044967","2018-02-17 23:00","2018","02","17","23:00","-17.2","","-18.6","","90","","","M","26","","4","","","M","97.09","","","","-20","","NA"
"-86.35","48.76","MARATHON A","6044967","2018-02-18 00:00","2018","02","18","00:00","-10.9","","-15.9","","67","","","M","30","","8","","","M","97.18","","","","-16","","NA"
"-86.35","48.76","MARATHON A","6044967","2018-02-18 01:00","2018","02","18","01:00","-13.6","","-16.3","","80","","","M","30","","9","","","M","97.29","","","","-19","","NA"
"-86.35","48.76","MARATHON A","6044967","2018-02-18 02:00","2018","02","18","02:00","-14.4","","-16.9","","82","","","M","31","","7","","","M","97.42","","","","-19","","NA"
"-86.35","48.76","MARATHON A","6044967","2018-02-18 03:00","2018","02","18","03:00","-21.9","","-23.8","","85","","","M","13","","5","","","M","97.59","","","","-26","","NA"
"-86.35","48.76","MARATHON A","6044967","2018-02-18 04:00","2018","02","18","04:00","-21.1","","-23.0","","85","","","M","11","","1","","","M","97.70","","","","-22","","NA"
"-86.35","48.76","MARATHON A","6044967","2018-02-18 05:00","2018","02","18","05:00","-19.4","","-21.6","","83","","","M","13","","6","","","M","97.85","","","","-24","","NA"
"-86.35","48.76","MARATHON A","6044967","2018-02-18 06:00","2018","02","18","06:00","-14.5","","-18.6","","72","","","M","8","","12","","","M","97.90","","","","-21","","NA"
"-86.35","48.76","MARATHON A","6044967","2018-02-18 07:00","2018","02","18","07:00","-15.0","","-19.4","","70","","","M","9","","9","","","M","97.93","","","","-21","","NA"
"-86.35","48.76","MARATHON A","6044967","2018-02-18 08:00","2018","02","18","08:00","-15.8","","-19.4","","75","","","M","12","","4","","","M","98.02","","","","-19","","NA"
"-86.35","48.76","MARATHON A","6044967","2018-02-18 09:00","2018","02","18","09:00","-14.8","","-19.4","","69","","","M","8","","8","","","M","98.08","","","","-20","","NA"
"-86.35","48.76","MARATHON A","6044967","2018-02-18 10:00","2018","02","18","10:00","-13.9","","-18.9","","66","","","M","9","","12","","","M","98.03","","","","-21","","NA"
"-86.35","48.76","MARATHON A","6044967","2018-02-18 11:00","2018","02","18","11:00","-12.1","","-17.2","","66","","","M","19","","2","","","M","98.09","","","","-13","","NA"
"-86.35","48.76","MARATHON A","6044967","2018-02-18 12:00","2018","02","18","12:00","-10.8","","-16.1","","66","","","M","3","","1","","","M","98.11","","","","-11","","NA"
"-86.35","48.76","MARATHON A","6044967","2018-02-18 13:00","2018","02","18","13:00","-9.9","","-14.9","","67","","","M","11","","6","","","M","98.05","","","","-13","","NA"
"-86.35","48.76","MARATHON A","6044967","2018-02-18 14:00","2018","02","18","14:00","-8.9","","-13.2","","71","","","M","19","","10","","","M","97.97","","","","-14","","NA"
"-86.35","48.76","MARATHON A","6044967","2018-02-18 15:00","2018","02","18","15:00","-9.0","","-11.5","","83","","","M","22","","4","","","M","97.82","","","","-11","","NA"
"-86.35","48.76","MARATHON A","6044967","2018-02-18 16:00","2018","02","18","16:00","-8.8","","-10.6","","87","","","M","10","","2","","","M","97.71","","","","-10","","NA"
"-86.35","48.76","MARATHON A","6044967","2018-02-18 17:00","2018","02","18","17:00","-8.6","","-10.1","","89","","","M","5","","5","","","M","97.63","","","","-11","","NA"
"-86.35","48.76","MARATHON A","6044967","2018-02-18 18:00","2018","02","18","18:00","-9.0","","-10.4","","90","","","M","7","","9","","","M","97.59","","","","-14","","NA"
"-86.35","48.76","MARATHON A","6044967","2018-02-18 19:00","2018","02","18","19:00","-9.8","","-11.5","","88","","","M","4","","14","","","M","97.57","","","","-16","","NA"
"-86.35","48.76","MARATHON A","6044967","2018-02-18 20:00","2018","02","18","20:00","-10.5","","-12.3","","87","","","M","4","","15","","","M","97.49","","","","-17","","NA"
"-86.35","48.76","MARATHON A","6044967","2018-02-18 21:00","2018","02","18","21:00","-10.8","","-12.9","","85","","","M","3","","17","","","M","97.45","","","","-18","","NA"
"-86.35","48.76","MARATHON A","6044967","2018-02-18 22:00","2018","02","18","22:00","-11.6","","-13.7","","84","","","M","5","","22","","","M","97.38","","","","-20","","NA"
"-86.35","48.76","MARATHON A","6044967","2018-02-18 23:00","2018","02","18","23:00","-12.2","","-14.2","","85","","","M","4","","30","","","M","97.40","","","","-22","","NA"
"-86.35","48.76","MARATHON A","6044967","2018-02-19 00:00","2018","02","19","00:00","-12.7","","-14.9","","84","","","M","4","","26","","","M","97.44","","","","-22","","NA"
"-86.35","48.76","MARATHON A","6044967","2018-02-19 01:00","2018","02","19","01:00","-13.2","","-15.6","","83","","","M","4","","30","","","M","97.45","","","","-24","","NA"
"-86.35","48.76","MARATHON A","6044967","2018-02-19 02:00","2018","02","19","02:00","-13.5","","-15.8","","83","","","M","5","","30","","","M","97.45","","","","-24","","NA"
"-86.35","48.76","MARATHON A","6044967","2018-02-19 03:00","2018","02","19","03:00","-13.8","","-16.1","","83","","","M","5","","30","","","M","97.54","","","","-24","","NA"
"-86.35","48.76","MARATHON A","6044967","2018-02-19 04:00","2018","02","19","04:00","-14.0","","-16.4","","83","","","M","4","","27","","","M","97.61","","","","-24","","NA"
"-86.35","48.76","MARATHON A","6044967","2018-02-19 05:00","2018","02","19","05:00","-14.3","","-16.8","","82","","","M","5","","26","","","M","97.68","","","","-24","","NA"
"-86.35","48.76","MARATHON A","6044967","2018-02-19 06:00","2018","02","19","06:00","-14.9","","-17.3","","82","","","M","5","","26","","","M","97.76","","","","-25","","NA"
"-86.35","48.76","MARATHON A","6044967","2018-02-19 07:00","2018","02","19","07:00","-15.1","","-17.5","","82","","","M","5","","23","","","M","97.82","","","","-25","","NA"
"-86.35","48.76","MARATHON A","6044967","2018-02-19 08:00","2018","02","19","08:00","-15.5","","-17.9","","83","","","M","5","","29","","","M","97.89","","","","-27","","NA"
"-86.35","48.76","MARATHON A","6044967","2018-02-19 09:00","2018","02","19","09:00","-15.5","","-18.0","","81","","","M","5","","30","","","M","98.02","","","","-27","","NA"
"-86.35","48.76","MARATHON A","6044967","2018-02-19 10:00","2018","02","19","10:00","-15.0","","-18.1","","78","","","M","5","","31","","","M","98.14","","","","-26","","NA"
"-86.35","48.76","MARATHON A","6044967","2018-02-19 11:00","2018","02","19","11:00","-14.7","","-18.2","","75","","","M","5","","28","","","M","98.29","","","","-25","","NA"
"-86.35","48.76","MARATHON A","6044967","2018-02-19 12:00","2018","02","19","12:00","-14.5","","-18.2","","74","","","M","4","","28","","","M","98.36","","","","-25","","NA"
"-86.35","48.76","MARATHON A","6044967","2018-02-19 13:00","2018","02","19","13:00","-14.4","","-17.9","","75","","","M","5","","22","","","M","98.33","","","","-24","","NA"
"-86.35","48.76","MARATHON A","6044967","2018-02-19 14:00","2018","02","19","14:00","-14.3","","-18.2","","73","","","M","6","","24","","","M","98.30","","","","-24","","NA"
"-86.35","48.76","MARATHON A","6044967","2018-02-19 15:00","2018","02","19","15:00","-14.1","","-18.1","","72","","","M","5","","26","","","M","98.37","","","","-24","","NA"
"-86.35","48.76","MARATHON A","6044967","2018-02-19 16:00","2018","02","19","16:00","-14.0","","-17.9","","73","","","M","7","","23","","","M","98.39","","","","-24","","NA"
"-86.35","48.76","MARATHON A","6044967","2018-02-19 17:00","2018","02","19","17:00","-14.6","","-18.5","","73","","","M","6","","24","","","M","98.43","","","","-24","","NA"
"-86.35","48.76","MARATHON A","6044967","2018-02-19 18:00","2018","02","19","18:00","-15.4","","-18.8","","76","","","M","5","","21","","","M","98.44","","","","-25","","NA"
"-86.35","48.76","MARATHON A","6044967","2018-02-19 19:00","2018","02","19","19:00","-15.9","","-19.1","","77","","","M","6","","28","","","M","98.42","","","","-27","","NA"
"-86.35","48.76","MARATHON A","6044967","2018-02-19 20:00","2018","02","19","20:00","-16.7","","-19.7","","78","","","M","6","","36","","","M","98.45","","","","-29","","NA"
"-86.35","48.76","MARATHON A","6044967","2018-02-19 21:00","2018","02","19","21:00","-16.8","","-19.8","","78","","","M","7","","32","","","M","98.41","","","","-29","","NA"
"-86.35","48.76","MARATHON A","6044967","2018-02-19 22:00","2018","02","19","22:00","-17.1","","-20.1","","78","","","M","7","","34","","","M","98.40","","","","-29","","NA"
"-86.35","48.76","MARATHON A","6044967","2018-02-19 23:00","2018","02","19","23:00","-17.4","","-20.2","","79","","","M","7","","35","","","M","98.36","","","","-30","","NA"
"-86.35","48.76","MARATHON A","6044967","2018-02-20 00:00","2018","02","20","00:00","-17.7","","-20.5","","79","","","M","7","","37","","","M","98.34","","","","-31","","NA"
"-86.35","48.76","MARATHON A","6044967","2018-02-20 01:00","2018","02","20","01:00","-18.0","","-20.7","","80","","","M","7","","35","","","M","98.28","","","","-31","","NA"
"-86.35","48.76","MARATHON A","6044967","2018-02-20 02:00","2018","02","20","02:00","-18.0","","-20.9","","79","","","M","7","","36","","","M","98.28","","","","-31","","NA"
"-86.35","48.76","MARATHON A","6044967","2018-02-20 03:00","2018","02","20","03:00","-18.0","","-20.9","","78","","","M","7","","34","","","M","98.15","","","","-31","","NA"
"-86.35","48.76","MARATHON A","6044967","2018-02-20 04:00","2018","02","20","04:00","-17.7","","-20.7","","78","","","M","7","","35","","","M","98.07","","","","-30","","NA"
"-86.35","48.76","MARATHON A","6044967","2018-02-20 05:00","2018","02","20","05:00","-17.6","","-20.5","","78","","","M","7","","37","","","M","97.94","","","","-31","","NA"
"-86.35","48.76","MARATHON A","6044967","2018-02-20 06:00","2018","02","20","06:00","-17.6","","-20.4","","79","","","M","7","","36","","","M","97.86","","","","-30","","NA"
"-86.35","48.76","MARATHON A","6044967","2018-02-20 07:00","2018","02","20","07:00","-17.5","","-20.1","","81","","","M","8","","29","","","M","97.70","","","","-29","","NA"
"-86.35","48.76","MARATHON A","6044967","2018-02-20 08:00","2018","02","20","08:00","-17.7","","-20.5","","79","","","M","7","","29","","","M","97.68","","","","-29","","NA"
"-86.35","48.76","MARATHON A","6044967","2018-02-20 09:00","2018","02","20","09:00","-17.6","","-20.5","","79","","","M","7","","19","","","M","97.70","","","","-27","","NA"
"-86.35","48.76","MARATHON A","6044967","2018-02-20 10:00","2018","02","20","10:00","-17.9","","-20.7","","80","","","M","7","","17","","","M","97.57","","","","-27","","NA"
"-86.35","48.76","MARATHON A","6044967","2018-02-20 11:00","2018","02","20","11:00","-17.8","","-20.0","","83","","","M","6","","18","","","M","97.49","","","","-27","","NA"
"-86.35","48.76","MARATHON A","6044967","2018-02-20 12:00","2018","02","20","12:00","-17.7","","-19.9","","83","","","M","8","","14","","","M","97.33","","","","-26","","NA"
"-86.35","48.76","MARATHON A","6044967","2018-02-20 13:00","2018","02","20","13:00","-17.5","","-19.6","","84","","","M","5","","18","","","M","97.35","","","","-27","","NA"
"-86.35","48.76","MARATHON A","6044967","2018-02-20 14:00","2018","02","20","14:00","-17.4","","-19.3","","85","","","M","5","","14","","","M","97.29","","","","-26","","NA"
"-86.35","48.76","MARATHON A","6044967","2018-02-20 15:00","2018","02","20","15:00","-17.1","","-19.1","","85","","","M","7","","13","","","M","97.29","","","","-25","","NA"
"-86.35","48.76","MARATHON A","6044967","2018-02-20 16:00","2018","02","20","16:00","-16.8","","-18.7","","86","","","M","5","","17","","","M","97.24","","","","-26","","NA"
"-86.35","48.76","MARATHON A","6044967","2018-02-20 17:00","2018","02","20","17:00","-16.9","","-18.7","","87","","","M","3","","10","","","M","97.33","","","","-24","","NA"
"-86.35","48.76","MARATHON A","6044967","2018-02-20 18:00","2018","02","20","18:00","-17.3","","-19.2","","85","","","M","5","","8","","","M","97.36","","","","-23","","NA"
"-86.35","48.76","MARATHON A","6044967","2018-02-20 19:00","2018","02","20","19:00","-17.6","","-19.6","","85","","","M","4","","8","","","M","97.40","","","","-23","","NA"
"-86.35","48.76","MARATHON A","6044967","2018-02-20 20:00","2018","02","20","20:00","-17.4","","-19.5","","84","","","M","4","","2","","","M","97.51","","","","-19","","NA"
"-86.35","48.76","MARATHON A","6044967","2018-02-20 21:00","2018","02","20","21:00","-17.4","","-19.6","","83","","","M","34","","5","","","M","97.59","","","","-21","","NA"
"-86.35","48.76","MARATHON A","6044967","2018-02-20 22:00","2018","02","20","22:00","-17.1","","-19.2","","84","","","M","31","","9","","","M","97.68","","","","-23","","NA"
"-86.35","48.76","MARATHON A","6044967","2018-02-20 23:00","2018","02","20","23:00","-18.6","","-21.4","","79","","","M","29","","11","","","M","97.85","","","","-26","","NA"
"-86.35","48.76","MARATHON A","6044967","2018-02-21 00:00","2018","02","21","00:00","-18.5","","-21.8","","76","","","M","29","","11","","","M","97.97","","","","-26","","NA"
"-86.35","48.76","MARATHON A","6044967","2018-02-21 01:00","2018","02","21","01:00","-18.6","","-22.2","","74","","","M","28","","21","","","M","98.10","","","","-29","","NA"
"-86.35","48.76","MARATHON A","6044967","2018-02-21 02:00","2018","02","21","02:00","-19.1","","-22.5","","75","","","M","29","","9","","","M","98.20","","","","-26","","NA"
"-86.35","48.76","MARATHON A","6044967","2018-02-21 03:00","2018","02","21","03:00","-19.7","","-23.3","","74","","","M","29","","7","","","M","98.34","","","","-25","","NA"
"-86.35","48.76","MARATHON A","6044967","2018-02-21 04:00","2018","02","21","04:00","-20.4","","-23.8","","74","","","M","31","","4","","","M","98.44","","","","-24","","NA"
"-86.35","48.76","MARATHON A","6044967","2018-02-21 05:00","2018","02","21","05:00","-25.0","","-27.5","","80","","","M","9","","2","","","M","98.56","","","","-27","","NA"
"-86.35","48.76","MARATHON A","6044967","2018-02-21 06:00","2018","02","21","06:00","-25.8","","-28.4","","79","","","M","28","","5","","","M","98.63","","","","-31","","NA"
"-86.35","48.76","MARATHON A","6044967","2018-02-21 07:00","2018","02","21","07:00","-25.7","","-28.4","","78","","","M","26","","4","","","M","98.74","","","","-30","","NA"
"-86.35","48.76","MARATHON A","6044967","2018-02-21 08:00","2018","02","21","08:00","-26.0","","-28.4","","80","","","M","9","","1","","","M","98.84","","","","-27","","NA"
"-86.35","48.76","MARATHON A","6044967","2018-02-21 09:00","2018","02","21","09:00","-18.2","","-20.5","","82","","","M","29","","8","","","M","98.99","","","","-24","","NA"
"-86.35","48.76","MARATHON A","6044967","2018-02-21 10:00","2018","02","21","10:00","-15.9","","-18.5","","81","","","M","30","","19","","","M","99.05","","","","-25","","NA"
"-86.35","48.76","MARATHON A","6044967","2018-02-21 11:00","2018","02","21","11:00","-14.2","","-16.8","","81","","","M","30","","9","","","M","99.07","","","","-20","","NA"
"-86.35","48.76","MARATHON A","6044967","2018-02-21 12:00","2018","02","21","12:00","-12.2","","-14.9","","80","","","M","25","","12","","","M","99.09","","","","-19","","NA"
"-86.35","48.76","MARATHON A","6044967","2018-02-21 13:00","2018","02","21","13:00","-10.6","","-13.5","","79","","","M","26","","7","","","M","99.16","","","","-15","","NA"
"-86.35","48.76","MARATHON A","6044967","2018-02-21 14:00","2018","02","21","14:00","-10.1","","-14.3","","72","","","M","26","","17","","","M","99.23","","","","-17","","NA"
"-86.35","48.76","MARATHON A","6044967","2018-02-21 15:00","2018","02","21","15:00","-9.5","","-13.2","","75","","","M","27","","11","","","M","99.29","","","","-15","","NA"
"-86.35","48.76","MARATHON A","6044967","2018-02-21 16:00","2018","02","21","16:00","-9.1","","-12.9","","74","","","M","27","","13","","","M","99.34","","","","-15","","NA"
"-86.35","48.76","MARATHON A","6044967","2018-02-21 17:00","2018","02","21","17:00","-8.9","","-12.9","","73","","","M","26","","14","","","M","99.40","","","","-15","","NA"
"-86.35","48.76","MARATHON A","6044967","2018-02-21 18:00","2018","02","21","18:00","-8.6","","-12.2","","75","","","M","24","","11","","","M","99.42","","","","-14","","NA"
"-86.35","48.76","MARATHON A","6044967","2018-02-21 19:00","2018","02","21","19:00","-8.4","","-12.0","","76","","","M","26","","15","","","M","99.41","","","","-15","","NA"
"-86.35","48.76","MARATHON A","6044967","2018-02-21 20:00","2018","02","21","20:00","-7.7","","-11.3","","76","","","M","26","","16","","","M","99.47","","","","-14","","NA"
"-86.35","48.76","MARATHON A","6044967","2018-02-21 21:00","2018","02","21","21:00","-7.3","","-10.8","","77","","","M","26","","15","","","M","99.53","","","","-13","","NA"
"-86.35","48.76","MARATHON A","6044967","2018-02-21 22:00","2018","02","21","22:00","-6.8","","-11.0","","72","","","M","25","","14","","","M","99.59","","","","-13","","NA"
"-86.35","48.76","MARATHON A","6044967","2018-02-21 23:00","2018","02","21","23:00","-6.3","","-10.3","","73","","","M","26","","14","","","M","99.58","","","","-12","","NA"
"-86.35","48.76","MARATHON A","6044967","2018-02-22 00:00","2018","02","22","00:00","-5.9","","-10.9","","68","","","M","27","","23","","","M","99.61","","","","-13","","NA"
"-86.35","48.76","MARATHON A","6044967","2018-02-22 01:00","2018","02","22","01:00","-7.5","","-12.8","","66","","","M","29","","11","","","M","99.68","","","","-13","","NA"
"-86.35","48.76","MARATHON A","6044967","2018-02-22 02:00","2018","02","22","02:00","-8.8","","-13.5","","69","","","M","28","","8","","","M","99.75","","","","-13","","NA"
"-86.35","48.76","MARATHON A","6044967","2018-02-22 03:00","2018","02","22","03:00","-15.0","","-16.5","","89","","","M","9","","3","","","M","99.70","","","","-17","","NA"
"-86.35","48.76","MARATHON A","6044967","2018-02-22 04:00","2018","02","22","04:00","-16.9","","-18.4","","88","","","M","12","","4","","","M","99.71","","","","-20","","NA"
"-86.35","48.76","MARATHON A","6044967","2018-02-22 05:00","2018","02","22","05:00","-18.3","","-20.4","","84","","","M","9","","1","","","M","99.71","","","","-19","","NA"
"-86.35","48.76","MARATHON A","6044967","2018-02-22 06:00","2018","02","22","06:00","-14.8","","-16.6","","86","","","M","30","","2","","","M","99.67","","","","-16","","NA"
"-86.35","48.76","MARATHON A","6044967","2018-02-22 07:00","2018","02","22","07:00","-17.2","","-19.2","","85","","","M","30","","3","","","M","99.70","","","","-20","","NA"
"-86.35","48.76","MARATHON A","6044967","2018-02-22 08:00","2018","02","22","08:00","-9.4","","-14.7","","65","","","M","31","","11","","","M","99.78","","","","-15","","NA"
"-86.35","48.76","MARATHON A","6044967","2018-02-22 09:00","2018","02","22","09:00","-7.9","","-15.9","","53","","","M","29","","10","","","M","99.89","","","","-13","","NA"
"-86.35","48.76","MARATHON A","6044967","2018-02-22 10:00","2018","02","22","10:00","-7.8","","-15.3","","55","","","M","24","","7","","","M","99.90","","","","-11","","NA"
"-86.35","48.76","MARATHON A","6044967","2018-02-22 11:00","2018","02","22","11:00","-6.5","","-13.7","","57","","","M","26","","8","","","M","99.89","","","","-10","","NA"
"-86.35","48.76","MARATHON A","6044967","2018-02-22 12:00","2018","02","22","12:00","-5.4","","-12.5","","57","","","M","27","","8","","","M","99.91","","","","-9","","NA"
"-86.35","48.76","MARATHON A","6044967","2018-02-22 13:00","2018","02","22","13:00","-5.2","","-12.2","","58","","","M","23","","8","","","M","99.88","","","","-9","","NA"
"-86.35","48.76","MARATHON A","6044967","2018-02-22 14:00","2018","02","22","14:00","-4.7","","-11.0","","61","","","M","27","","9","","","M","99.79","","","","-9","","NA"
"-86.35","48.76","MARATHON A","6044967","2018-02-22 15:00","2018","02","22","15:00","-4.7","","-10.2","","65","","","M","26","","9","","","M","99.70","","","","-9","","NA"
"-86.35","48.76","MARATHON A","6044967","2018-02-22 16:00","2018","02","22","16:00","-5.0","","-9.3","","72","","","M","20","","7","","","M","99.65","","","","-8","","NA"
"-86.35","48.76","MARATHON A","6044967","2018-02-22 17:00","2018","02","22","17:00","-4.8","","-9.8","","68","","","M","22","","11","","","M","99.57","","","","-9","","NA"
"-86.35","48.76","MARATHON A","6044967","2018-02-22 18:00","2018","02","22","18:00","-5.5","","-10.5","","68","","","M","22","","7","","","M","99.51","","","","-9","","NA"
"-86.35","48.76","MARATHON A","6044967","2018-02-22 19:00","2018","02","22","19:00","-6.5","","-10.3","","75","","","M","20","","8","","","M","99.49","","","","-10","","NA"
"-86.35","48.76","MARATHON A","6044967","2018-02-22 20:00","2018","02","22","20:00","-5.3","","-8.4","","79","","","M","20","","15","","","M","99.49","","","","-11","","NA"
"-86.35","48.76","MARATHON A","6044967","2018-02-22 21:00","2018","02","22","21:00","-5.9","","-8.8","","80","","","M","19","","11","","","M","99.47","","","","-11","","NA"
"-86.35","48.76","MARATHON A","6044967","2018-02-22 22:00","2018","02","22","22:00","-7.2","","-10.3","","79","","","M","18","","13","","","M","99.39","","","","-13","","NA"
"-86.35","48.76","MARATHON A","6044967","2018-02-22 23:00","2018","02","22","23:00","-7.5","","-10.4","","80","","","M","17","","11","","","M","99.29","","","","-13","","NA"
"-86.35","48.76","MARATHON A","6044967","2018-02-23 00:00","2018","02","23","00:00","-6.7","","-9.9","","79","","","M","18","","9","","","M","99.16","","","","-11","","NA"
"-86.35","48.76","MARATHON A","6044967","2018-02-23 01:00","2018","02","23","01:00","-5.7","","-7.8","","85","","","M","18","","10","","","M","99.08","","","","-10","","NA"
"-86.35","48.76","MARATHON A","6044967","2018-02-23 02:00","2018","02","23","02:00","-9.5","","-11.2","","88","","","M","15","","4","","","M","99.01","","","","-12","","NA"
"-86.35","48.76","MARATHON A","6044967","2018-02-23 03:00","2018","02","23","03:00","-6.5","","-8.3","","88","","","M","17","","8","","","M","98.95","","","","-10","","NA"
"-86.35","48.76","MARATHON A","6044967","2018-02-23 04:00","2018","02","23","04:00","-5.9","","-7.6","","88","","","M","18","","8","","","M","98.81","","","","-10","","NA"
"-86.35","48.76","MARATHON A","6044967","2018-02-23 05:00","2018","02","23","05:00","-5.5","","-6.5","","93","","","M","15","","11","","","M","98.66","","","","-10","","NA"
"-86.35","48.76","MARATHON A","6044967","2018-02-23 06:00","2018","02","23","06:00","-6.1","","-7.0","","93","","","M","12","","15","","","M","98.47","","","","-12","","NA"
"-86.35","48.76","MARATHON A","6044967","2018-02-23 07:00","2018","02","23","07:00","-6.0","","-7.0","","93","","","M","12","","14","","","M","98.25","","","","-12","","NA"
"-86.35","48.76","MARATHON A","6044967","2018-02-23 08:00","2018","02","23","08:00","-6.1","","-7.1","","93","","","M","12","","10","","","M","98.11","","","","-11","","NA"
"-86.35","48.76","MARATHON A","6044967","2018-02-23 09:00","2018","02","23","09:00","-5.9","","-7.0","","92","","","M","8","","8","","","M","97.97","","","","-10","","NA"
"-86.35","48.76","MARATHON A","6044967","2018-02-23 10:00","2018","02","23","10:00","-6.0","","-7.0","","92","","","M","9","","11","","","M","97.84","","","","-11","","NA"
"-86.35","48.76","MARATHON A","6044967","2018-02-23 11:00","2018","02","23","11:00","-5.2","","-6.4","","91","","","M","11","","9","","","M","97.73","","","","-9","","NA"
"-86.35","48.76","MARATHON A","6044967","2018-02-23 12:00","2018","02","23","12:00","-4.7","","-6.0","","91","","","M","9","","5","","","M","97.68","","","","-7","","NA"
"-86.35","48.76","MARATHON A","6044967","2018-02-23 13:00","2018","02","23","13:00","-3.4","","-5.2","","87","","","M","2","","5","","","M","97.57","","","","-5","","NA"
"-86.35","48.76","MARATHON A","6044967","2018-02-23 14:00","2018","02","23","14:00","-2.9","","-5.0","","85","","","M","1","","4","","","M","97.51","","","","-4","","NA"
"-86.35","48.76","MARATHON A","6044967","2018-02-23 15:00","2018","02","23","15:00","-2.9","","-4.7","","87","","","M","28","","4","","","M","97.51","","","","-4","","NA"
"-86.35","48.76","MARATHON A","6044967","2018-02-23 16:00","2018","02","23","16:00","-3.2","","-4.4","","92","","","M","28","","5","","","M","97.58","","","","-5","","NA"
"-86.35","48.76","MARATHON A","6044967","2018-02-23 17:00","2018","02","23","17:00","-3.2","","-4.9","","88","","","M","33","","9","","","M","97.67","","","","-7","","NA"
"-86.35","48.76","MARATHON A","6044967","2018-02-23 18:00","2018","02","23","18:00","-3.4","","-4.8","","90","","","M","36","","8","","","M","97.71","","","","-7","","NA"
"-86.35","48.76","MARATHON A","6044967","2018-02-23 19:00","2018","02","23","19:00","-7.4","","-7.9","","96","","","M","4","","1","","","M","97.84","","","","-8","","NA"
"-86.35","48.76","MARATHON A","6044967","2018-02-23 20:00","2018","02","23","20:00","-6.1","","-6.8","","95","","","M","14","","2","","","M","97.93","","","","-7","","NA"
"-86.35","48.76","MARATHON A","6044967","2018-02-23 21:00","2018","02","23","21:00","-9.0","","-9.9","","93","","","M","8","","1","","","M","98.03","","","","-10","","NA"
"-86.35","48.76","MARATHON A","6044967","2018-02-23 22:00","2018","02","23","22:00","-9.2","","-10.1","","93","","","M","35","","3","","","M","98.12","","","","-11","","NA"
"-86.35","48.76","MARATHON A","6044967","2018-02-23 23:00","2018","02","23","23:00","-11.4","","-12.4","","92","","","M","35","","9","","","M","98.13","","","","-17","","NA"
"-86.35","48.76","MARATHON A","6044967","2018-02-24 00:00","2018","02","24","00:00","-14.1","","-15.5","","89","","","M","14","","5","","","M","98.17","","","","-18","","NA"
"-86.35","48.76","MARATHON A","6044967","2018-02-24 01:00","2018","02","24","01:00","-14.8","","-16.5","","87","","","M","11","","3","","","M","98.21","","","","-17","","NA"
"-86.35","48.76","MARATHON A","6044967","2018-02-24 02:00","2018","02","24","02:00","-16.1","","-17.8","","87","","","M","9","","4","","","M","98.24","","","","-19","","NA"
"-86.35","48.76","MARATHON A","6044967","2018-02-24 03:00","2018","02","24","03:00","-15.8","","-17.5","","87","","","M","3","","2","","","M","98.28","","","","-17","","NA"
"-86.35","48.76","MARATHON A","6044967","2018-02-24 04:00","2018","02","24","04:00","-16.0","","-17.8","","86","","","M","16","","3","","","M","98.27","","","","-18","","NA"
"-86.35","48.76","MARATHON A","6044967","2018-02-24 05:00","2018","02","24","05:00","-15.6","","-17.2","","87","","","M","12","","4","","","M","98.26","","","","-19","","NA"
"-86.35","48.76","MARATHON A","6044967","2018-02-24 06:00","2018","02","24","06:00","-14.2","","-15.8","","88","","","M","9","","3","","","M","98.27","","","","-16","","NA"
"-86.35","48.76","MARATHON A","6044967","2018-02-24 07:00","2018","02","24","07:00","-13.0","","-14.5","","89","","","M","10","","2","","","M","98.27","","","","-14","","NA"
"-86.35","48.76","MARATHON A","6044967","2018-02-24 08:00","2018","02","24","08:00","-15.9","","-17.6","","87","","","M","7","","3","","","M","98.27","","","","-18","","NA"
"-86.35","48.76","MARATHON A","6044967","2018-02-24 09:00","2018","02","24","09:00","-13.8","","-15.2","","89","","","M","15","","2","","","M","98.29","","","","-15","","NA"
"-86.35","48.76","MARATHON A","6044967","2018-02-24 10:00","2018","02","24","10:00","-8.1","","-8.8","","94","","","M","13","","1","","","M","98.31","","","","-9","","NA"
"-86.35","48.76","MARATHON A","6044967","2018-02-24 11:00","2018","02","24","11:00","-5.3","","-6.1","","94","","","M","24","","6","","","M","98.34","","","","-8","","NA"
"-86.35","48.76","MARATHON A","6044967","2018-02-24 12:00","2018","02","24","12:00","-5.0","","-5.7","","95","","","M","25","","4","","","M","98.31","","","","-7","","NA"
"-86.35","48.76","MARATHON A","6044967","2018-02-24 13:00","2018","02","24","13:00","-4.1","","-5.3","","91","","","M","22","","8","","","M","98.32","","","","-8","","NA"
"-86.35","48.76","MARATHON A","6044967","2018-02-24 14:00","2018","02","24","14:00","-3.2","","-6.8","","77","","","M","20","","9","","","M","98.23","","","","-7","","NA"
"-86.35","48.76","MARATHON A","6044967","2018-02-24 15:00","2018","02","24","15:00","-3.0","","-6.4","","77","","","M","23","","7","","","M","98.12","","","","-6","","NA"
"-86.35","48.76","MARATHON A","6044967","2018-02-24 16:00","2018","02","24","16:00","-2.9","","-6.3","","78","","","M","24","","11","","","M","98.08","","","","-7","","NA"
"-86.35","48.76","MARATHON A","6044967","2018-02-24 17:00","2018","02","24","17:00","-3.5","","-6.0","","83","","","M","21","","8","","","M","98.08","","","","-7","","NA"
"-86.35","48.76","MARATHON A","6044967","2018-02-24 18:00","2018","02","24","18:00","-4.1","","-5.8","","88","","","M","19","","5","","","M","97.99","","","","-6","","NA"
"-86.35","48.76","MARATHON A","6044967","2018-02-24 19:00","2018","02","24","19:00","-8.6","","-9.9","","90","","","M","13","","7","","","M","97.91","","","","-12","","NA"
"-86.35","48.76","MARATHON A","6044967","2018-02-24 20:00","2018","02","24","20:00","-6.2","","-7.0","","94","","","M","14","","7","","","M","97.81","","","","-10","","NA"
"-86.35","48.76","MARATHON A","6044967","2018-02-24 21:00","2018","02","24","21:00","-5.1","","-6.7","","88","","","M","13","","13","","","M","97.67","","","","-10","","NA"
"-86.35","48.76","MARATHON A","6044967","2018-02-24 22:00","2018","02","24","22:00","-4.9","","-6.8","","87","","","M","13","","15","","","M","97.50","","","","-10","","NA"
"-86.35","48.76","MARATHON A","6044967","2018-02-24 23:00","2018","02","24","23:00","-4.6","","-7.1","","83","","","M","12","","15","","","M","97.27","","","","-10","","NA"
"-86.35","48.76","MARATHON A","6044967","2018-02-25 00:00","2018","02","25","00:00","-4.2","","-7.3","","79","","","M","10","","21","","","M","97.01","","","","-11","","NA"
"-86.35","48.76","MARATHON A","6044967","2018-02-25 01:00","2018","02","25","01:00","-4.2","","-7.0","","81","","","M","11","","23","","","M","96.61","","","","-11","","NA"
"-86.35","48.76","MARATHON A","6044967","2018-02-25 02:00","2018","02","25","02:00","-3.8","","-6.8","","80","","","M","9","","12","","","M","96.55","","","","-8","","NA"
"-86.35","48.76","MARATHON A","6044967","2018-02-25 03:00","2018","02","25","03:00","-4.0","","-6.5","","82","","","M","9","","16","","","M","96.26","","","","-10","","NA"
"-86.35","48.76","MARATHON A","6044967","2018-02-25 04:00","2018","02","25","04:00","-4.4","","-5.7","","91","","","M","8","","23","","","M","95.96","","","","-11","","NA"
"-86.35","48.76","MARATHON A","6044967","2018-02-25 05:00","2018","02","25","05:00","-4.4","","-5.3","","94","","","M","6","","16","","","M","95.67","","","","-10","","NA"
"-86.35","48.76","MARATHON A","6044967","2018-02-25 06:00","2018","02","25","06:00","-4.4","","-5.5","","93","","","M","6","","14","","","M","95.46","","","","-10","","NA"
"-86.35","48.76","MARATHON A","6044967","2018-02-25 07:00","2018","02","25","07:00","-4.6","","-5.6","","93","","","M","10","","13","","","M","95.23","","","","-10","","NA"
"-86.35","48.76","MARATHON A","6044967","2018-02-25 08:00","2018","02","25","08:00","-4.5","","-5.5","","93","","","M","13","","8","","","M","95.02","","","","-8","","NA"
"-86.35","48.76","MARATHON A","6044967","2018-02-25 09:00","2018","02","25","09:00","-4.1","","-5.2","","93","","","M","8","","10","","","M","94.88","","","","-8","","NA"
"-86.35","48.76","MARATHON A","6044967","2018-02-25 10:00","2018","02","25","10:00","-3.5","","-4.4","","94","","","M","15","","8","","","M","94.81","","","","-7","","NA"
"-86.35","48.76","MARATHON A","6044967","2018-02-25 11:00","2018","02","25","11:00","-1.7","","-2.3","","96","","","M","25","","11","","","M","94.80","","","","-6","","NA"
"-86.35","48.76","MARATHON A","6044967","2018-02-25 12:00","2018","02","25","12:00","-1.6","","-2.5","","94","","","M","26","","18","","","M","94.91","","","","-7","","NA"
"-86.35","48.76","MARATHON A","6044967","2018-02-25 13:00","2018","02","25","13:00","-2.2","","-3.7","","89","","","M","27","","25","","","M","95.03","","","","-9","","NA"
"-86.35","48.76","MARATHON A","6044967","2018-02-25 14:00","2018","02","25","14:00","-2.3","","-4.1","","88","","","M","26","","27","","","M","95.12","","","","-9","","NA"
"-86.35","48.76","MARATHON A","6044967","2018-02-25 15:00","2018","02","25","15:00","-3.0","","-4.7","","89","","","M","27","","23","","","M","95.23","","","","-9","","NA"
"-86.35","48.76","MARATHON A","6044967","2018-02-25 16:00","2018","02","25","16:00","-3.2","","-4.6","","90","","","M","27","","23","","","M","95.38","","","","-10","","NA"
"-86.35","48.76","MARATHON A","6044967","2018-02-25 17:00","2018","02","25","17:00","-3.0","","-5.4","","83","","","M","27","","24","","","M","95.56","","","","-10","","NA"
"-86.35","48.76","MARATHON A","6044967","2018-02-25 18:00","2018","02","25","18:00","-2.7","","-5.5","","81","","","M","27","","27","","","M","95.75","","","","-10","","NA"
"-86.35","48.76","MARATHON A","6044967","2018-02-25 19:00","2018","02","25","19:00","-2.7","","-5.6","","80","","","M","28","","21","","","M","95.95","","","","-9","","NA"
"-86.35","48.76","MARATHON A","6044967","2018-02-25 20:00","2018","02","25","20:00","-3.2","","-4.9","","88","","","M","28","","25","","","M","96.11","","","","-10","","NA"
"-86.35","48.76","MARATHON A","6044967","2018-02-25 21:00","2018","02","25","21:00","-3.3","","-5.4","","85","","","M","27","","13","","","M","96.27","","","","-8","","NA"
"-86.35","48.76","MARATHON A","6044967","2018-02-25 22:00","2018","02","25","22:00","-3.3","","-5.1","","88","","","M","28","","14","","","M","96.42","","","","-8","","NA"
"-86.35","48.76","MARATHON A","6044967","2018-02-25 23:00","2018","02","25","23:00","-3.4","","-5.4","","86","","","M","28","","13","","","M","96.57","","","","-8","","NA"
"-86.35","48.76","MARATHON A","6044967","2018-02-26 00:00","2018","02","26","00:00","-3.4","","-5.1","","88","","","M","27","","12","","","M","96.71","","","","-8","","NA"
"-86.35","48.76","MARATHON A","6044967","2018-02-26 01:00","2018","02","26","01:00","-3.2","","-4.8","","89","","","M","28","","13","","","M","96.84","","","","-8","","NA"
"-86.35","48.76","MARATHON A","6044967","2018-02-26 02:00","2018","02","26","02:00","-3.2","","-4.6","","90","","","M","28","","10","","","M","96.95","","","","-7","","NA"
"-86.35","48.76","MARATHON A","6044967","2018-02-26 03:00","2018","02","26","03:00","-3.0","","-5.2","","85","","","M","27","","16","","","M","97.03","","","","-8","","NA"
"-86.35","48.76","MARATHON A","6044967","2018-02-26 04:00","2018","02","26","04:00","-3.8","","-6.2","","83","","","M","29","","13","","","M","97.12","","","","-9","","NA"
"-86.35","48.76","MARATHON A","6044967","2018-02-26 05:00","2018","02","26","05:00","-4.5","","-6.7","","85","","","M","29","","9","","","M","97.21","","","","-8","","NA"
"-86.35","48.76","MARATHON A","6044967","2018-02-26 06:00","2018","02","26","06:00","-4.9","","-7.7","","81","","","M","28","","14","","","M","97.29","","","","-10","","NA"
"-86.35","48.76","MARATHON A","6044967","2018-02-26 07:00","2018","02","26","07:00","-5.0","","-7.6","","82","","","M","28","","13","","","M","97.34","","","","-10","","NA"
"-86.35","48.76","MARATHON A","6044967","2018-02-26 08:00","2018","02","26","08:00","-5.1","","-9.1","","74","","","M","27","","17","","","M","97.43","","","","-11","","NA"
"-86.35","48.76","MARATHON A","6044967","2018-02-26 09:00","2018","02","26","09:00","-4.9","","-9.9","","68","","","M","28","","13","","","M","97.54","","","","-10","","NA"
"-86.35","48.76","MARATHON A","6044967","2018-02-26 10:00","2018","02","26","10:00","-4.6","","-9.4","","69","","","M","27","","8","","","M","97.58","","","","-8","","NA"
"-86.35","48.76","MARATHON A","6044967","2018-02-26 11:00","2018","02","26","11:00","-3.6","","-7.4","","75","","","M","27","","13","","","M","97.63","","","","-8","","NA"
"-86.35","48.76","MARATHON A","6044967","2018-02-26 12:00","2018","02","26","12:00","-1.8","","-6.4","","71","","","M","25","","16","","","M","97.67","","","","-7","","NA"
"-86.35","48.76","MARATHON A","6044967","2018-02-26 13:00","2018","02","26","13:00","-2.6","","-7.3","","71","","","M","26","","16","","","M","97.70","","","","-8","","NA"
"-86.35","48.76","MARATHON A","6044967","2018-02-26 14:00","2018","02","26","14:00","-2.4","","-5.5","","79","","","M","25","","7","","","M","97.70","","","","-5","","NA"
"-86.35","48.76","MARATHON A","6044967","2018-02-26 15:00","2018","02","26","15:00","-2.4","","-5.0","","83","","","M","21","","10","","","M","97.72","","","","-6","","NA"
"-86.35","48.76","MARATHON A","6044967","2018-02-26 16:00","2018","02","26","16:00","-2.4","","-4.6","","85","","","M","22","","9","","","M","97.74","","","","-6","","NA"
"-86.35","48.76","MARATHON A","6044967","2018-02-26 17:00","2018","02","26","17:00","-3.0","","-5.2","","85","","","M","21","","7","","","M","97.77","","","","-6","","NA"
"-86.35","48.76","MARATHON A","6044967","2018-02-26 18:00","2018","02","26","18:00","-3.2","","-5.1","","87","","","M","19","","9","","","M","97.79","","","","-7","","NA"
"-86.35","48.76","MARATHON A","6044967","2018-02-26 19:00","2018","02","26","19:00","-3.7","","-4.9","","91","","","M","19","","12","","","M","97.76","","","","-8","","NA"
"-86.35","48.76","MARATHON A","6044967","2018-02-26 20:00","2018","02","26","20:00","-3.2","","-4.3","","92","","","M","21","","7","","","M","97.74","","","","-6","","NA"
"-86.35","48.76","MARATHON A","6044967","2018-02-26 21:00","2018","02","26","21:00","-2.8","","-4.8","","86","","","M","17","","7","","","M","97.65","","","","-6","","NA"
"-86.35","48.76","MARATHON A","6044967","2018-02-26 22:00","2018","02","26","22:00","-1.5","","-3.3","","87","","","M","19","","10","","","M","97.62","","","","-5","","NA"
"-86.35","48.76","MARATHON A","6044967","2018-02-26 23:00","2018","02","26","23:00","-0.4","","-2.7","","84","","","M","19","","17","","","M","97.57","","","","-5","","NA"
"-86.35","48.76","MARATHON A","6044967","2018-02-27 00:00","2018","02","27","00:00","0.4","","-3.3","","76","","","M","19","","14","","","M","97.53","","","","","","NA"
"-86.35","48.76","MARATHON A","6044967","2018-02-27 01:00","2018","02","27","01:00","0.4","","-3.7","","74","","","M","20","","7","","","M","97.52","","","","","","NA"
"-86.35","48.76","MARATHON A","6044967","2018-02-27 02:00","2018","02","27","02:00","-0.1","","-3.2","","80","","","M","24","","6","","","M","97.53","","","","-2","","NA"
"-86.35","48.76","MARATHON A","6044967","2018-02-27 03:00","2018","02","27","03:00","-0.2","","-3.0","","81","","","M","20","","7","","","M","97.47","","","","-3","","NA"
"-86.35","48.76","MARATHON A","6044967","2018-02-27 04:00","2018","02","27","04:00","0.2","","-3.0","","79","","","M","20","","13","","","M","97.43","","","","","","NA"
"-86.35","48.76","MARATHON A","6044967","2018-02-27 05:00","2018","02","27","05:00","-0.4","","-3.0","","83","","","M","21","","3","","","M","97.42","","","","-1","","NA"
"-86.35","48.76","MARATHON A","6044967","2018-02-27 06:00","2018","02","27","06:00","-0.6","","-2.6","","86","","","M","20","","3","","","M","97.40","","","","-2","","NA"
"-86.35","48.76","MARATHON A","6044967","2018-02-27 07:00","2018","02","27","07:00","-1.0","","-2.6","","89","","","M","25","","3","","","M","97.43","","","","-2","","NA"
"-86.35","48.76","MARATHON A","6044967","2018-02-27 08:00","2018","02","27","08:00","-2.2","","-2.9","","95","","","M","12","","1","","","M","97.47","","","","-3","","NA"
"-86.35","48.76","MARATHON A","6044967","2018-02-27 09:00","2018","02","27","09:00","-1.7","","-2.2","","96","","","M","27","","2","","","M","97.52","","","","-2","","NA"
"-86.35","48.76","MARATHON A","6044967","2018-02-27 10:00","2018","02","27","10:00","0.2","","-1.7","","87","","","M","24","","3","","","M","97.54","","","","","","NA"
"-86.35","48.76","MARATHON A","6044967","2018-02-27 11:00","2018","02","27","11:00","1.0","","-2.2","","79","","","M","24","","8","","","M","97.57","","","","","","NA"
"-86.35","48.76","MARATHON A","6044967","2018-02-27 12:00","2018","02","27","12:00","1.5","","-3.1","","71","","","M","27","","10","","","M","97.65","","","","","","NA"
"-86.35","48.76","MARATHON A","6044967","2018-02-27 13:00","2018","02","27","13:00","1.9","","-3.6","","67","","","M","21","","8","","","M","97.60","","","","","","NA"
"-86.35","48.76","MARATHON A","6044967","2018-02-27 14:00","2018","02","27","14:00","2.0","","-3.6","","67","","","M","24","","9","","","M","97.59","","","","","","NA"
"-86.35","48.76","MARATHON A","6044967","2018-02-27 15:00","2018","02","27","15:00","1.2","","-4.0","","68","","","M","23","","10","","","M","97.61","","","","","","NA"
"-86.35","48.76","MARATHON A","6044967","2018-02-27 16:00","2018","02","27","16:00","0.8","","-4.0","","70","","","M","25","","10","","","M","97.60","","","","","","NA"
"-86.35","48.76","MARATHON A","6044967","2018-02-27 17:00","2018","02","27","17:00","-0.6","","-3.6","","80","","","M","24","","6","","","M","97.64","","","","-3","","NA"
"-86.35","48.76","MARATHON A","6044967","2018-02-27 18:00","2018","02","27","18:00","-1.9","","-3.1","","92","","","M","24","","4","","","M","97.59","","","","-3","","NA"
"-86.35","48.76","MARATHON A","6044967","2018-02-27 19:00","2018","02","27","19:00","-2.8","","-3.2","","97","","","M","24","","1","","","M","97.59","","","","-3","","NA"
"-86.35","48.76","MARATHON A","6044967","2018-02-27 20:00","2018","02","27","20:00","-3.0","","-3.4","","97","","","M","33","","3","","","M","97.58","","","","-4","","NA"
"-86.35","48.76","MARATHON A","6044967","2018-02-27 21:00","2018","02","27","21:00","-3.1","","-4.1","","93","","","M","1","","2","","","M","97.59","","","","-4","","NA"
"-86.35","48.76","MARATHON A","6044967","2018-02-27 22:00","2018","02","27","22:00","-2.8","","-3.2","","97","","","M","0","","1","","","M","97.57","","","","-3","","NA"
"-86.35","48.76","MARATHON A","6044967","2018-02-27 23:00","2018","02","27","23:00","-3.0","","-3.2","","98","","","M","2","","1","","","M","97.53","","","","-3","","NA"
"-86.35","48.76","MARATHON A","6044967","2018-02-28 00:00","2018","02","28","00:00","-3.5","","-3.6","","99","","","M","25","","2","","","M","97.51","","","","-4","","NA"
"-86.35","48.76","MARATHON A","6044967","2018-02-28 01:00","2018","02","28","01:00","-5.8","","-6.2","","97","","","M","35","","7","","","M","97.52","","","","-9","","NA"
"-86.35","48.76","MARATHON A","6044967","2018-02-28 02:00","2018","02","28","02:00","-4.9","","-5.3","","97","","","M","5","","1","","","M","97.51","","","","-5","","NA"
"-86.35","48.76","MARATHON A","6044967","2018-02-28 03:00","2018","02","28","03:00","-3.3","","-3.7","","98","","","M","32","","4","","","M","97.44","","","","-5","","NA"
"-86.35","48.76","MARATHON A","6044967","2018-02-28 04:00","2018","02","28","04:00","-5.4","","-5.9","","97","","","M","11","","4","","","M","97.41","","","","-7","","NA"
"-86.35","48.76","MARATHON A","6044967","2018-02-28 05:00","2018","02","28","05:00","-6.7","","-7.5","","94","","","M","8","","7","","","M","97.43","","","","-10","","NA"
"-86.35","48.76","MARATHON A","6044967","2018-02-28 06:00","2018","02","28","06:00","-7.5","","-8.5","","93","","","M","1","","11","","","M","97.48","","","","-13","","NA"
"-86.35","48.76","MARATHON A","6044967","2018-02-28 07:00","2018","02","28","07:00","-7.9","","-8.7","","94","","","M","2","","15","","","M","97.51","","","","-14","","NA"
"-86.35","48.76","MARATHON A","6044967","2018-02-28 08:00","2018","02","28","08:00","-6.6","","-7.3","","95","","","M","2","","17","","","M","97.49","","","","-13","","NA"
"-86.35","48.76","MARATHON A","6044967","2018-02-28 09:00","2018","02","28","09:00","-5.8","","-6.5","","95","","","M","5","","9","","","M","97.49","","","","-10","","NA"
"-86.35","48.76","MARATHON A","6044967","2018-02-28 10:00","2018","02","28","10:00","-5.3","","-6.0","","95","","","M","6","","13","","","M","97.52","","","","-10","","NA"
"-86.35","48.76","MARATHON A","6044967","2018-02-28 11:00","2018","02","28","11:00","-4.7","","-5.3","","95","","","M","5","","16","","","M","97.57","","","","-10","","NA"
"-86.35","48.76","MARATHON A","6044967","2018-02-28 12:00","2018","02","28","12:00","-4.3","","-5.0","","95","","","M","5","","11","","","M","97.61","","","","-9","","NA"
"-86.35","48.76","MARATHON A","6044967","2018-02-28 13:00","2018","02","28","13:00","-4.0","","-5.0","","93","","","M","4","","14","","","M","97.61","","","","-9","","NA"
"-86.35","48.76","MARATHON A","6044967","2018-02-28 14:00","2018","02","28","14:00","-3.7","","-5.1","","90","","","M","2","","10","","","M","97.64","","","","-8","","NA"
"-86.35","48.76","MARATHON A","6044967","2018-02-28 15:00","2018","02","28","15:00","-3.2","","-6.0","","81","","","M","5","","14","","","M","97.66","","","","-8","","NA"
"-86.35","48.76","MARATHON A","6044967","2018-02-28 16:00","2018","02","28","16:00","-3.5","","-6.0","","83","","","M","2","","14","","","M","97.70","","","","-9","","NA"
"-86.35","48.76","MARATHON A","6044967","2018-02-28 17:00","2018","02","28","17:00","-4.1","","-6.8","","82","","","M","3","","9","","","M","97.76","","","","-8","","NA"
"-86.35","48.76","MARATHON A","6044967","2018-02-28 18:00","2018","02","28","18:00","-4.5","","-7.2","","81","","","M","3","","11","","","M","97.81","","","","-9","","NA"
"-86.35","48.76","MARATHON A","6044967","2018-02-28 19:00","2018","02","28","19:00","-4.9","","-7.7","","81","","","M","5","","17","","","M","97.85","","","","-11","","NA"
"-86.35","48.76","MARATHON A","6044967","2018-02-28 20:00","2018","02","28","20:00","-5.3","","-8.0","","81","","","M","5","","18","","","M","97.88","","","","-12","","NA"
"-86.35","48.76","MARATHON A","6044967","2018-02-28 21:00","2018","02","28","21:00","-6.1","","-8.3","","84","","","M","6","","16","","","M","97.92","","","","-12","","NA"
"-86.35","48.76","MARATHON A","6044967","2018-02-28 22:00","2018","02","28","22:00","-6.5","","-8.7","","84","","","M","4","","15","","","M","97.94","","","","-12","","NA"
"-86.35","48.76","MARATHON A","6044967","2018-02-28 23:00","2018","02","28","23:00","-6.7","","-9.0","","83","","","M","5","","11","","","M","97.97","","","","-12","","NA"
