"Longitude (x)","Latitude (y)","Station Name","Climate ID","Date/Time (LST)","Year","Month","Day","Time (LST)","Temp (°C)","Temp Flag","Dew Point Temp (°C)","Dew Point Temp Flag","Rel Hum (%)","Rel Hum Flag","Precip. Amount (mm)","Precip. Amount Flag","Wind Dir (10s deg)","Wind Dir Flag","Wind Spd (km/h)","Wind Spd Flag","Visibility (km)","Visibility Flag","Stn Press (kPa)","Stn Press Flag","Hmdx","Hmdx Flag","Wind Chill","Wind Chill Flag","Weather"
"-57.19","51.44","LOURDES DE BLANC SABLON A","7040815","2018-10-01 00:00","2018","10","01","00:00","3.0","","1.0","","87","","","","36","","3","","24.1","","102.11","","","","","","NA"
"-57.19","51.44","LOURDES DE BLANC SABLON A","7040815","2018-10-01 01:00","2018","10","01","01:00","1.4","","0.1","","91","","","","4","","8","","24.1","","102.10","","","","","","NA"
"-57.19","51.44","LOURDES DE BLANC SABLON A","7040815","2018-10-01 02:00","2018","10","01","02:00","2.0","","1.1","","94","","","","6","","7","","24.1","","102.07","","","","","","Mostly Cloudy"
"-57.19","51.44","LOURDES DE BLANC SABLON A","7040815","2018-10-01 03:00","2018","10","01","03:00","2.3","","1.6","","95","","","","5","","7","","24.1","","102.01","","","","","","NA"
"-57.19","51.44","LOURDES DE BLANC SABLON A","7040815","2018-10-01 04:00","2018","10","01","04:00","2.7","","1.7","","93","","","","6","","9","","24.1","","102.00","","","","","","NA"
"-57.19","51.44","LOURDES DE BLANC SABLON A","7040815","2018-10-01 05:00","2018","10","01","05:00","3.4","","1.0","","84","","","","7","","9","","24.1","","101.91","","","","","","Mostly Cloudy"
"-57.19","51.44","LOURDES DE BLANC SABLON A","7040815","2018-10-01 06:00","2018","10","01","06:00","3.0","","0.8","","85","","","","7","","12","","24.1","","101.88","","","","","","NA"
"-57.19","51.44","LOURDES DE BLANC SABLON A","7040815","2018-10-01 07:00","2018","10","01","07:00","3.4","","1.7","","89","","","","7","","14","","24.1","","101.79","","","","","","NA"
"-57.19","51.44","LOURDES DE BLANC SABLON A","7040815","2018-10-01 08:00","2018","10","01","08:00","4.6","","1.9","","83","","","","7","","13","","24.1","","101.73","","","","","","Mostly Cloudy"
"-57.19","51.44","LOURDES DE BLANC SABLON A","7040815","2018-10-01 09:00","2018","10","01","09:00","7.2","","4.3","","82","","","","10","","10","","24.1","","101.65","","","","","","NA"
"-57.19","51.44","LOURDES DE BLANC SABLON A","7040815","2018-10-01 10:00","2018","10","01","10:00","8.1","","3.2","","71","","","","12","","16","","24.1","","101.55","","","","","","NA"
"-57.19","51.44","LOURDES DE BLANC SABLON A","7040815","2018-10-01 11:00","2018","10","01","11:00","6.3","","4.1","","85","","","","23","","18","","9.7","","101.54","","","","","","Rain,Fog"
"-57.19","51.44","LOURDES DE BLANC SABLON A","7040815","2018-10-01 12:00","2018","10","01","12:00","6.4","","4.1","","85","","","","24","","6","","9.7","","101.44","","","","","","Rain,Fog"
"-57.19","51.44","LOURDES DE BLANC SABLON A","7040815","2018-10-01 13:00","2018","10","01","13:00","6.5","","4.7","","88","","","","29","","7","","16.1","","101.38","","","","","","Rain"
"-57.19","51.44","LOURDES DE BLANC SABLON A","7040815","2018-10-01 14:00","2018","10","01","14:00","7.1","","4.0","","80","","","","26","","10","","24.1","","101.37","","","","","","Mostly Cloudy"
"-57.19","51.44","LOURDES DE BLANC SABLON A","7040815","2018-10-01 15:00","2018","10","01","15:00","8.0","","4.4","","78","","","","25","","18","","24.1","","101.41","","","","","","NA"
"-57.19","51.44","LOURDES DE BLANC SABLON A","7040815","2018-10-01 16:00","2018","10","01","16:00","7.7","","4.4","","79","","","","26","","20","","24.1","","101.42","","","","","","NA"
"-57.19","51.44","LOURDES DE BLANC SABLON A","7040815","2018-10-01 17:00","2018","10","01","17:00","7.3","","4.4","","82","","","","25","","23","","24.1","","101.45","","","","","","Mainly Clear"
"-57.19","51.44","LOURDES DE BLANC SABLON A","7040815","2018-10-01 18:00","2018","10","01","18:00","6.1","","3.7","","84","","","","28","","15","","24.1","","101.49","","","","","","NA"
"-57.19","51.44","LOURDES DE BLANC SABLON A","7040815","2018-10-01 19:00","2018","10","01","19:00","4.8","","2.4","","85","","","","29","","12","","24.1","","101.55","","","","","","NA"
"-57.19","51.44","LOURDES DE BLANC SABLON A","7040815","2018-10-01 20:00","2018","10","01","20:00","4.5","","1.4","","81","","","","28","","16","","24.1","","101.61","","","","","","Mainly Clear"
"-57.19","51.44","LOURDES DE BLANC SABLON A","7040815","2018-10-01 21:00","2018","10","01","21:00","3.5","","-0.3","","76","","","","28","","18","","24.1","","101.65","","","","","","NA"
"-57.19","51.44","LOURDES DE BLANC SABLON A","7040815","2018-10-01 22:00","2018","10","01","22:00","3.5","","-0.9","","73","","","","29","","20","","24.1","","101.69","","","","","","NA"
"-57.19","51.44","LOURDES DE BLANC SABLON A","7040815","2018-10-01 23:00","2018","10","01","23:00","2.8","","-1.1","","76","","","","29","","17","","24.1","","101.73","","","","","","Mainly Clear"
"-57.19","51.44","LOURDES DE BLANC SABLON A","7040815","2018-10-02 00:00","2018","10","02","00:00","1.9","","-1.1","","80","","","","29","","16","","24.1","","101.77","","","","","","NA"
"-57.19","51.44","LOURDES DE BLANC SABLON A","7040815","2018-10-02 01:00","2018","10","02","01:00","1.8","","-1.2","","81","","","","30","","16","","24.1","","101.81","","","","","","NA"
"-57.19","51.44","LOURDES DE BLANC SABLON A","7040815","2018-10-02 02:00","2018","10","02","02:00","1.2","","-1.3","","84","","","","30","","17","","24.1","","101.87","","","","","","Clear"
"-57.19","51.44","LOURDES DE BLANC SABLON A","7040815","2018-10-02 03:00","2018","10","02","03:00","0.7","","-1.7","","84","","","","30","","10","","24.1","","101.93","","","","","","NA"
"-57.19","51.44","LOURDES DE BLANC SABLON A","7040815","2018-10-02 04:00","2018","10","02","04:00","0.2","","-2.1","","84","","","","35","","7","","24.1","","101.99","","","","","","NA"
"-57.19","51.44","LOURDES DE BLANC SABLON A","7040815","2018-10-02 05:00","2018","10","02","05:00","1.1","","-2.0","","80","","","","30","","13","","24.1","","102.02","","","","","","Clear"
"-57.19","51.44","LOURDES DE BLANC SABLON A","7040815","2018-10-02 06:00","2018","10","02","06:00","0.5","","-1.8","","84","","","","29","","17","","24.1","","102.10","","","","","","NA"
"-57.19","51.44","LOURDES DE BLANC SABLON A","7040815","2018-10-02 07:00","2018","10","02","07:00","1.8","","-0.9","","82","","","","29","","15","","24.1","","102.17","","","","","","NA"
"-57.19","51.44","LOURDES DE BLANC SABLON A","7040815","2018-10-02 08:00","2018","10","02","08:00","3.1","","-0.7","","76","","","","28","","24","","24.1","","102.23","","","","","","Mainly Clear"
"-57.19","51.44","LOURDES DE BLANC SABLON A","7040815","2018-10-02 09:00","2018","10","02","09:00","4.2","","-0.9","","69","","","","29","","18","","24.1","","102.25","","","","","","NA"
"-57.19","51.44","LOURDES DE BLANC SABLON A","7040815","2018-10-02 10:00","2018","10","02","10:00","5.6","","-0.1","","67","","","","31","","9","","24.1","","102.28","","","","","","NA"
"-57.19","51.44","LOURDES DE BLANC SABLON A","7040815","2018-10-02 11:00","2018","10","02","11:00","6.7","","0.0","","62","","","","25","","20","","24.1","","102.27","","","","","","Mainly Clear"
"-57.19","51.44","LOURDES DE BLANC SABLON A","7040815","2018-10-02 12:00","2018","10","02","12:00","7.8","","0.8","","61","","","","25","","21","","24.1","","102.25","","","","","","NA"
"-57.19","51.44","LOURDES DE BLANC SABLON A","7040815","2018-10-02 13:00","2018","10","02","13:00","6.4","","0.0","","64","","","","25","","24","","24.1","","102.25","","","","","","NA"
"-57.19","51.44","LOURDES DE BLANC SABLON A","7040815","2018-10-02 14:00","2018","10","02","14:00","7.9","","0.0","","57","","","","24","","23","","24.1","","102.24","","","","","","Mainly Clear"
"-57.19","51.44","LOURDES DE BLANC SABLON A","7040815","2018-10-02 15:00","2018","10","02","15:00","7.3","","0.9","","64","","","","23","","27","","24.1","","102.22","","","","","","NA"
"-57.19","51.44","LOURDES DE BLANC SABLON A","7040815","2018-10-02 16:00","2018","10","02","16:00","7.9","","0.5","","59","","","","24","","23","","24.1","","102.25","","","","","","NA"
"-57.19","51.44","LOURDES DE BLANC SABLON A","7040815","2018-10-02 17:00","2018","10","02","17:00","7.6","","0.0","","58","","","","23","","17","","24.1","","102.30","","","","","","Mainly Clear"
"-57.19","51.44","LOURDES DE BLANC SABLON A","7040815","2018-10-02 18:00","2018","10","02","18:00","5.1","","-2.4","","58","","","","31","","13","","24.1","","102.36","","","","","","NA"
"-57.19","51.44","LOURDES DE BLANC SABLON A","7040815","2018-10-02 19:00","2018","10","02","19:00","3.9","","-3.6","","58","","","","36","","10","","24.1","","102.40","","","","","","NA"
"-57.19","51.44","LOURDES DE BLANC SABLON A","7040815","2018-10-02 20:00","2018","10","02","20:00","3.5","","-3.7","","59","","","","2","","8","","24.1","","102.45","","","","","","Mainly Clear"
"-57.19","51.44","LOURDES DE BLANC SABLON A","7040815","2018-10-02 21:00","2018","10","02","21:00","2.8","","-3.6","","63","","","","2","","16","","24.1","","102.47","","","","","","NA"
"-57.19","51.44","LOURDES DE BLANC SABLON A","7040815","2018-10-02 22:00","2018","10","02","22:00","2.1","","-2.5","","71","","","","5","","9","","24.1","","102.52","","","","","","NA"
"-57.19","51.44","LOURDES DE BLANC SABLON A","7040815","2018-10-02 23:00","2018","10","02","23:00","2.7","","-2.4","","69","","","","9","","8","","24.1","","102.52","","","","","","Mostly Cloudy"
"-57.19","51.44","LOURDES DE BLANC SABLON A","7040815","2018-10-03 00:00","2018","10","03","00:00","2.0","","-1.3","","79","","","","4","","10","","24.1","","102.48","","","","","","NA"
"-57.19","51.44","LOURDES DE BLANC SABLON A","7040815","2018-10-03 01:00","2018","10","03","01:00","1.9","","-1.2","","80","","","","5","","10","","24.1","","102.47","","","","","","NA"
"-57.19","51.44","LOURDES DE BLANC SABLON A","7040815","2018-10-03 02:00","2018","10","03","02:00","2.7","","-0.9","","77","","","","7","","11","","24.1","","102.45","","","","","","Mostly Cloudy"
"-57.19","51.44","LOURDES DE BLANC SABLON A","7040815","2018-10-03 03:00","2018","10","03","03:00","3.0","","-0.3","","79","","","","10","","16","","24.1","","102.45","","","","","","NA"
"-57.19","51.44","LOURDES DE BLANC SABLON A","7040815","2018-10-03 04:00","2018","10","03","04:00","5.3","","2.4","","82","","","","26","","8","","24.1","","102.46","","","","","","Rain"
"-57.19","51.44","LOURDES DE BLANC SABLON A","7040815","2018-10-03 05:00","2018","10","03","05:00","4.2","","1.4","","82","","","","20","","10","","24.1","","102.44","","","","","","Mostly Cloudy"
"-57.19","51.44","LOURDES DE BLANC SABLON A","7040815","2018-10-03 06:00","2018","10","03","06:00","4.2","","1.2","","81","","","","16","","5","","24.1","","102.43","","","","","","NA"
"-57.19","51.44","LOURDES DE BLANC SABLON A","7040815","2018-10-03 07:00","2018","10","03","07:00","3.9","","1.0","","81","","","","10","","3","","24.1","","102.45","","","","","","NA"
"-57.19","51.44","LOURDES DE BLANC SABLON A","7040815","2018-10-03 08:00","2018","10","03","08:00","5.3","","2.8","","84","","","","7","","5","","24.1","","102.47","","","","","","Cloudy"
"-57.19","51.44","LOURDES DE BLANC SABLON A","7040815","2018-10-03 09:00","2018","10","03","09:00","6.9","","2.4","","73","","","","18","","16","","24.1","","102.44","","","","","","NA"
"-57.19","51.44","LOURDES DE BLANC SABLON A","7040815","2018-10-03 10:00","2018","10","03","10:00","8.3","","1.6","","62","","","","20","","11","","24.1","","102.40","","","","","","NA"
"-57.19","51.44","LOURDES DE BLANC SABLON A","7040815","2018-10-03 11:00","2018","10","03","11:00","7.9","","1.1","","62","","","","22","","16","","24.1","","102.35","","","","","","Cloudy"
"-57.19","51.44","LOURDES DE BLANC SABLON A","7040815","2018-10-03 12:00","2018","10","03","12:00","8.0","","1.6","","64","","","","22","","16","","24.1","","102.30","","","","","","NA"
"-57.19","51.44","LOURDES DE BLANC SABLON A","7040815","2018-10-03 13:00","2018","10","03","13:00","8.0","","2.5","","68","","","","23","","14","","24.1","","102.29","","","","","","NA"
"-57.19","51.44","LOURDES DE BLANC SABLON A","7040815","2018-10-03 14:00","2018","10","03","14:00","7.8","","1.5","","65","","","","23","","14","","24.1","","102.25","","","","","","Cloudy"
"-57.19","51.44","LOURDES DE BLANC SABLON A","7040815","2018-10-03 15:00","2018","10","03","15:00","7.7","","0.7","","61","","","","23","","15","","24.1","","102.26","","","","","","NA"
"-57.19","51.44","LOURDES DE BLANC SABLON A","7040815","2018-10-03 16:00","2018","10","03","16:00","7.5","","0.6","","62","","","","22","","14","","24.1","","102.26","","","","","","NA"
"-57.19","51.44","LOURDES DE BLANC SABLON A","7040815","2018-10-03 17:00","2018","10","03","17:00","7.3","","2.1","","70","","","","24","","12","","24.1","","102.28","","","","","","Cloudy"
"-57.19","51.44","LOURDES DE BLANC SABLON A","7040815","2018-10-03 18:00","2018","10","03","18:00","7.1","","3.4","","77","","","","25","","9","","24.1","","102.29","","","","","","NA"
"-57.19","51.44","LOURDES DE BLANC SABLON A","7040815","2018-10-03 19:00","2018","10","03","19:00","6.3","","3.4","","82","","","","19","","4","","24.1","","102.28","","","","","","NA"
"-57.19","51.44","LOURDES DE BLANC SABLON A","7040815","2018-10-03 20:00","2018","10","03","20:00","6.2","","4.1","","86","","","","28","","4","","24.1","","102.24","","","","","","Cloudy"
"-57.19","51.44","LOURDES DE BLANC SABLON A","7040815","2018-10-03 21:00","2018","10","03","21:00","5.8","","4.3","","91","","","","6","","5","","24.1","","102.21","","","","","","NA"
"-57.19","51.44","LOURDES DE BLANC SABLON A","7040815","2018-10-03 22:00","2018","10","03","22:00","6.2","","4.5","","89","","","","7","","4","","24.1","","102.19","","","","","","NA"
"-57.19","51.44","LOURDES DE BLANC SABLON A","7040815","2018-10-03 23:00","2018","10","03","23:00","6.1","","4.7","","91","","","","2","","7","","24.1","","102.18","","","","","","Cloudy"
"-57.19","51.44","LOURDES DE BLANC SABLON A","7040815","2018-10-04 00:00","2018","10","04","00:00","6.6","","5.1","","90","","","","3","","10","","24.1","","102.10","","","","","","NA"
"-57.19","51.44","LOURDES DE BLANC SABLON A","7040815","2018-10-04 01:00","2018","10","04","01:00","6.8","","5.2","","89","","","","6","","8","","24.1","","102.03","","","","","","NA"
"-57.19","51.44","LOURDES DE BLANC SABLON A","7040815","2018-10-04 02:00","2018","10","04","02:00","7.0","","5.6","","91","","","","9","","12","","24.1","","101.97","","","","","","Cloudy"
"-57.19","51.44","LOURDES DE BLANC SABLON A","7040815","2018-10-04 03:00","2018","10","04","03:00","7.0","","6.0","","94","","","","9","","9","","12.9","","101.93","","","","","","Rain"
"-57.19","51.44","LOURDES DE BLANC SABLON A","7040815","2018-10-04 04:00","2018","10","04","04:00","6.9","","6.5","","97","","","","9","","9","","8.1","","101.86","","","","","","Rain,Fog"
"-57.19","51.44","LOURDES DE BLANC SABLON A","7040815","2018-10-04 05:00","2018","10","04","05:00","7.3","","6.8","","97","","","","8","","10","","9.7","","101.79","","","","","","Rain,Fog"
"-57.19","51.44","LOURDES DE BLANC SABLON A","7040815","2018-10-04 06:00","2018","10","04","06:00","7.3","","6.8","","96","","","","8","","15","","8.1","","101.75","","","","","","Rain,Fog"
"-57.19","51.44","LOURDES DE BLANC SABLON A","7040815","2018-10-04 07:00","2018","10","04","07:00","7.8","","7.6","","99","","","","11","","17","","4.0","","101.64","","","","","","Rain,Fog"
"-57.19","51.44","LOURDES DE BLANC SABLON A","7040815","2018-10-04 08:00","2018","10","04","08:00","8.2","","8.1","","99","","","","11","","17","","4.0","","101.52","","","","","","Rain,Fog"
"-57.19","51.44","LOURDES DE BLANC SABLON A","7040815","2018-10-04 09:00","2018","10","04","09:00","8.4","","8.3","","99","","","","12","","19","","4.0","","101.41","","","","","","Rain,Fog"
"-57.19","51.44","LOURDES DE BLANC SABLON A","7040815","2018-10-04 10:00","2018","10","04","10:00","9.0","","8.9","","99","","","","12","","22","","4.0","","101.27","","","","","","Rain,Fog"
"-57.19","51.44","LOURDES DE BLANC SABLON A","7040815","2018-10-04 11:00","2018","10","04","11:00","9.2","","9.1","","99","","","","12","","23","","3.6","","101.15","","","","","","Rain,Fog"
"-57.19","51.44","LOURDES DE BLANC SABLON A","7040815","2018-10-04 12:00","2018","10","04","12:00","9.7","","9.6","","99","","","","13","","21","","2.4","","101.01","","","","","","Rain,Fog"
"-57.19","51.44","LOURDES DE BLANC SABLON A","7040815","2018-10-04 13:00","2018","10","04","13:00","11.1","","11.0","","99","","","","16","","8","","9.7","","100.82","","","","","","Rain,Fog"
"-57.19","51.44","LOURDES DE BLANC SABLON A","7040815","2018-10-04 14:00","2018","10","04","14:00","12.0","","11.4","","96","","","","16","","10","","16.1","","100.67","","","","","","Rain"
"-57.19","51.44","LOURDES DE BLANC SABLON A","7040815","2018-10-04 15:00","2018","10","04","15:00","12.1","","10.7","","92","","","","20","","4","","24.1","","100.55","","","","","","NA"
"-57.19","51.44","LOURDES DE BLANC SABLON A","7040815","2018-10-04 16:00","2018","10","04","16:00","11.5","","9.7","","88","","","","24","","7","","16.1","","100.45","","","","","","Rain"
"-57.19","51.44","LOURDES DE BLANC SABLON A","7040815","2018-10-04 17:00","2018","10","04","17:00","11.3","","9.0","","86","","","","22","","17","","24.1","","100.32","","","","","","Rain"
"-57.19","51.44","LOURDES DE BLANC SABLON A","7040815","2018-10-04 18:00","2018","10","04","18:00","12.8","","9.1","","78","","","","20","","26","","16.1","","100.17","","","","","","Rain"
"-57.19","51.44","LOURDES DE BLANC SABLON A","7040815","2018-10-04 19:00","2018","10","04","19:00","12.9","","11.4","","91","","","","21","","36","","16.1","","100.11","","","","","","Rain"
"-57.19","51.44","LOURDES DE BLANC SABLON A","7040815","2018-10-04 20:00","2018","10","04","20:00","12.6","","11.4","","92","","","","21","","38","","12.9","","99.98","","","","","","Rain"
"-57.19","51.44","LOURDES DE BLANC SABLON A","7040815","2018-10-04 21:00","2018","10","04","21:00","12.4","","11.2","","92","","","","21","","31","","16.1","","99.88","","","","","","Rain"
"-57.19","51.44","LOURDES DE BLANC SABLON A","7040815","2018-10-04 22:00","2018","10","04","22:00","13.3","","12.0","","92","","","","23","","65","","16.1","","99.77","","","","","","Rain"
"-57.19","51.44","LOURDES DE BLANC SABLON A","7040815","2018-10-04 23:00","2018","10","04","23:00","13.2","","12.1","","93","","","","23","","46","","16.1","","99.66","","","","","","Rain"
"-57.19","51.44","LOURDES DE BLANC SABLON A","7040815","2018-10-05 00:00","2018","10","05","00:00","11.7","","11.4","","98","","","","23","","43","","6.4","","99.56","","","","","","Rain,Fog"
"-57.19","51.44","LOURDES DE BLANC SABLON A","7040815","2018-10-05 01:00","2018","10","05","01:00","11.1","","10.8","","98","","","","24","","45","","12.9","","99.57","","","","","","Rain"
"-57.19","51.44","LOURDES DE BLANC SABLON A","7040815","2018-10-05 02:00","2018","10","05","02:00","10.5","","10.3","","98","","","","24","","32","","12.9","","99.58","","","","","","Rain"
"-57.19","51.44","LOURDES DE BLANC SABLON A","7040815","2018-10-05 03:00","2018","10","05","03:00","8.0","","4.5","","79","","","","30","","22","","19.3","","99.81","","","","","","Rain"
"-57.19","51.44","LOURDES DE BLANC SABLON A","7040815","2018-10-05 04:00","2018","10","05","04:00","6.8","","3.2","","78","","","","28","","21","","24.1","","99.98","","","","","","NA"
"-57.19","51.44","LOURDES DE BLANC SABLON A","7040815","2018-10-05 05:00","2018","10","05","05:00","5.7","","3.0","","83","","","","27","","19","","24.1","","100.14","","","","","","Mainly Clear"
"-57.19","51.44","LOURDES DE BLANC SABLON A","7040815","2018-10-05 06:00","2018","10","05","06:00","4.9","","0.9","","75","","","","27","","23","","24.1","","100.31","","","","","","NA"
"-57.19","51.44","LOURDES DE BLANC SABLON A","7040815","2018-10-05 07:00","2018","10","05","07:00","5.0","","0.3","","72","","","","27","","30","","24.1","","100.45","","","","","","NA"
"-57.19","51.44","LOURDES DE BLANC SABLON A","7040815","2018-10-05 08:00","2018","10","05","08:00","5.1","","-0.8","","66","","","","28","","32","","24.1","","100.57","","","","","","Mainly Clear"
"-57.19","51.44","LOURDES DE BLANC SABLON A","7040815","2018-10-05 09:00","2018","10","05","09:00","5.0","","-2.1","","60","","","","27","","46","","24.1","","100.63","","","","","","NA"
"-57.19","51.44","LOURDES DE BLANC SABLON A","7040815","2018-10-05 10:00","2018","10","05","10:00","6.5","","-2.6","","52","","","","27","","28","","24.1","","100.70","","","","","","NA"
"-57.19","51.44","LOURDES DE BLANC SABLON A","7040815","2018-10-05 11:00","2018","10","05","11:00","7.4","","-2.9","","48","","","","28","","34","","24.1","","100.72","","","","","","Mainly Clear"
"-57.19","51.44","LOURDES DE BLANC SABLON A","7040815","2018-10-05 12:00","2018","10","05","12:00","7.8","","-4.1","","43","","","","27","","30","","24.1","","100.74","","","","","","NA"
"-57.19","51.44","LOURDES DE BLANC SABLON A","7040815","2018-10-05 13:00","2018","10","05","13:00","7.5","","-3.7","","45","","","","27","","55","","24.1","","100.68","","","","","","NA"
"-57.19","51.44","LOURDES DE BLANC SABLON A","7040815","2018-10-05 14:00","2018","10","05","14:00","8.0","","-3.2","","45","","","","27","","55","","24.1","","100.69","","","","","","Mainly Clear"
"-57.19","51.44","LOURDES DE BLANC SABLON A","7040815","2018-10-05 15:00","2018","10","05","15:00","8.0","","-3.2","","45","","","","27","","55","","24.1","","100.71","","","","","","NA"
"-57.19","51.44","LOURDES DE BLANC SABLON A","7040815","2018-10-05 16:00","2018","10","05","16:00","8.0","","-3.2","","45","","","","27","","55","","24.1","","100.73","","","","","","NA"
"-57.19","51.44","LOURDES DE BLANC SABLON A","7040815","2018-10-05 17:00","2018","10","05","17:00","8.0","","-3.2","","45","","","","27","","55","","24.1","","100.79","","","","","","Mainly Clear"
"-57.19","51.44","LOURDES DE BLANC SABLON A","7040815","2018-10-05 18:00","2018","10","05","18:00","8.0","","-3.2","","45","","","","27","","46","","24.1","","100.85","","","","","","NA"
"-57.19","51.44","LOURDES DE BLANC SABLON A","7040815","2018-10-05 19:00","2018","10","05","19:00","6.8","","-1.9","","54","","","","25","","35","","24.1","","100.90","","","","","","NA"
"-57.19","51.44","LOURDES DE BLANC SABLON A","7040815","2018-10-05 20:00","2018","10","05","20:00","6.7","","-0.6","","60","","","","26","","30","","24.1","","100.96","","","","","","Mainly Clear"
"-57.19","51.44","LOURDES DE BLANC SABLON A","7040815","2018-10-05 21:00","2018","10","05","21:00","5.3","","-1.8","","60","","","","28","","22","","24.1","","101.00","","","","","","NA"
"-57.19","51.44","LOURDES DE BLANC SABLON A","7040815","2018-10-05 22:00","2018","10","05","22:00","4.7","","-1.3","","65","","","","28","","21","","24.1","","101.04","","","","","","NA"
"-57.19","51.44","LOURDES DE BLANC SABLON A","7040815","2018-10-05 23:00","2018","10","05","23:00","4.1","","-2.8","","61","","","","28","","21","","24.1","","101.07","","","","","","Mainly Clear"
"-57.19","51.44","LOURDES DE BLANC SABLON A","7040815","2018-10-06 00:00","2018","10","06","00:00","3.4","","-4.2","","57","","","","28","","18","","24.1","","101.08","","","","","","NA"
"-57.19","51.44","LOURDES DE BLANC SABLON A","7040815","2018-10-06 01:00","2018","10","06","01:00","3.4","","-6.1","","50","","","","28","","25","","24.1","","101.06","","","","","","NA"
"-57.19","51.44","LOURDES DE BLANC SABLON A","7040815","2018-10-06 02:00","2018","10","06","02:00","3.2","","-5.2","","54","","","","27","","22","","24.1","","101.10","","","","","","Mainly Clear"
"-57.19","51.44","LOURDES DE BLANC SABLON A","7040815","2018-10-06 03:00","2018","10","06","03:00","2.8","","-5.6","","54","","","","27","","18","","24.1","","101.11","","","","","","NA"
"-57.19","51.44","LOURDES DE BLANC SABLON A","7040815","2018-10-06 04:00","2018","10","06","04:00","2.7","","-6.2","","52","","","","27","","26","","24.1","","101.10","","","","","","NA"
"-57.19","51.44","LOURDES DE BLANC SABLON A","7040815","2018-10-06 05:00","2018","10","06","05:00","2.3","","-5.8","","55","","","","27","","21","","24.1","","101.15","","","","","","Mainly Clear"
"-57.19","51.44","LOURDES DE BLANC SABLON A","7040815","2018-10-06 06:00","2018","10","06","06:00","2.5","","-6.1","","53","","","","26","","26","","24.1","","101.18","","","","","","NA"
"-57.19","51.44","LOURDES DE BLANC SABLON A","7040815","2018-10-06 07:00","2018","10","06","07:00","3.0","","-5.7","","53","","","","26","","28","","24.1","","101.20","","","","","","NA"
"-57.19","51.44","LOURDES DE BLANC SABLON A","7040815","2018-10-06 08:00","2018","10","06","08:00","3.8","","-5.2","","52","","","","26","","35","","24.1","","101.22","","","","","","Mainly Clear"
"-57.19","51.44","LOURDES DE BLANC SABLON A","7040815","2018-10-06 09:00","2018","10","06","09:00","4.6","","-5.4","","48","","","","26","","30","","24.1","","101.18","","","","","","NA"
"-57.19","51.44","LOURDES DE BLANC SABLON A","7040815","2018-10-06 10:00","2018","10","06","10:00","5.3","","-4.8","","48","","","","25","","31","","24.1","","101.13","","","","","","NA"
"-57.19","51.44","LOURDES DE BLANC SABLON A","7040815","2018-10-06 11:00","2018","10","06","11:00","5.9","","-4.8","","46","","","","25","","29","","24.1","","101.09","","","","","","Mainly Clear"
"-57.19","51.44","LOURDES DE BLANC SABLON A","7040815","2018-10-06 12:00","2018","10","06","12:00","7.2","","-6.3","","38","","","","27","","31","","24.1","","101.02","","","","","","NA"
"-57.19","51.44","LOURDES DE BLANC SABLON A","7040815","2018-10-06 13:00","2018","10","06","13:00","6.9","","-2.5","","51","","","","24","","39","","24.1","","101.00","","","","","","NA"
"-57.19","51.44","LOURDES DE BLANC SABLON A","7040815","2018-10-06 14:00","2018","10","06","14:00","7.6","","-2.2","","50","","","","24","","36","","24.1","","101.03","","","","","","Mainly Clear"
"-57.19","51.44","LOURDES DE BLANC SABLON A","7040815","2018-10-06 15:00","2018","10","06","15:00","7.6","","-1.7","","52","","","","25","","38","","24.1","","101.04","","","","","","NA"
"-57.19","51.44","LOURDES DE BLANC SABLON A","7040815","2018-10-06 16:00","2018","10","06","16:00","7.7","","-0.2","","57","","","","25","","27","","24.1","","101.09","","","","","","NA"
"-57.19","51.44","LOURDES DE BLANC SABLON A","7040815","2018-10-06 17:00","2018","10","06","17:00","6.7","","-1.9","","54","","","","27","","20","","24.1","","101.16","","","","","","Mostly Cloudy"
"-57.19","51.44","LOURDES DE BLANC SABLON A","7040815","2018-10-06 18:00","2018","10","06","18:00","4.8","","-3.3","","56","","","","29","","13","","24.1","","101.20","","","","","","NA"
"-57.19","51.44","LOURDES DE BLANC SABLON A","7040815","2018-10-06 19:00","2018","10","06","19:00","3.8","","-3.4","","59","","","","33","","8","","24.1","","101.23","","","","","","NA"
"-57.19","51.44","LOURDES DE BLANC SABLON A","7040815","2018-10-06 20:00","2018","10","06","20:00","2.1","","-4.3","","63","","","","1","","8","","24.1","","101.27","","","","","","Mainly Clear"
"-57.19","51.44","LOURDES DE BLANC SABLON A","7040815","2018-10-06 21:00","2018","10","06","21:00","1.6","","-5.1","","61","","","","35","","6","","24.1","","101.27","","","","","","NA"
"-57.19","51.44","LOURDES DE BLANC SABLON A","7040815","2018-10-06 22:00","2018","10","06","22:00","-0.9","","-4.0","","80","","","","5","","8","","24.1","","101.20","","","","-4","","NA"
"-57.19","51.44","LOURDES DE BLANC SABLON A","7040815","2018-10-06 23:00","2018","10","06","23:00","-0.7","","-4.5","","76","","","","36","","2","","24.1","","101.25","","","","-1","","Mostly Cloudy"
"-57.19","51.44","LOURDES DE BLANC SABLON A","7040815","2018-10-07 00:00","2018","10","07","00:00","-0.4","","-4.5","","74","","","","9","","5","","24.1","","101.18","","","","-2","","NA"
"-57.19","51.44","LOURDES DE BLANC SABLON A","7040815","2018-10-07 01:00","2018","10","07","01:00","1.0","","-3.5","","72","","","","12","","4","","24.1","","101.23","","","","","","NA"
"-57.19","51.44","LOURDES DE BLANC SABLON A","7040815","2018-10-07 02:00","2018","10","07","02:00","1.4","","-3.4","","71","","","","35","","9","","24.1","","101.24","","","","","","Cloudy"
"-57.19","51.44","LOURDES DE BLANC SABLON A","7040815","2018-10-07 03:00","2018","10","07","03:00","1.7","","-3.1","","71","","","","33","","8","","24.1","","101.19","","","","","","NA"
"-57.19","51.44","LOURDES DE BLANC SABLON A","7040815","2018-10-07 04:00","2018","10","07","04:00","1.7","","-0.6","","85","","","","29","","17","","24.1","","101.24","","","","","","NA"
"-57.19","51.44","LOURDES DE BLANC SABLON A","7040815","2018-10-07 05:00","2018","10","07","05:00","1.1","","0.2","","93","","","","29","","10","","24.1","","101.24","","","","","","Rain"
"-57.19","51.44","LOURDES DE BLANC SABLON A","7040815","2018-10-07 06:00","2018","10","07","06:00","1.0","","0.1","","94","","","","30","","8","","24.1","","101.23","","","","","","NA"
"-57.19","51.44","LOURDES DE BLANC SABLON A","7040815","2018-10-07 07:00","2018","10","07","07:00","1.7","","0.0","","89","","","","31","","12","","24.1","","101.25","","","","","","NA"
"-57.19","51.44","LOURDES DE BLANC SABLON A","7040815","2018-10-07 08:00","2018","10","07","08:00","2.2","","-0.5","","83","","","","30","","14","","24.1","","101.26","","","","","","Mostly Cloudy"
"-57.19","51.44","LOURDES DE BLANC SABLON A","7040815","2018-10-07 09:00","2018","10","07","09:00","3.6","","-0.8","","73","","","","30","","15","","24.1","","101.25","","","","","","NA"
"-57.19","51.44","LOURDES DE BLANC SABLON A","7040815","2018-10-07 10:00","2018","10","07","10:00","5.3","","-2.1","","59","","","","29","","19","","24.1","","101.23","","","","","","NA"
"-57.19","51.44","LOURDES DE BLANC SABLON A","7040815","2018-10-07 11:00","2018","10","07","11:00","5.8","","-1.9","","58","","","","29","","20","","24.1","","101.25","","","","","","Mainly Clear"
"-57.19","51.44","LOURDES DE BLANC SABLON A","7040815","2018-10-07 12:00","2018","10","07","12:00","6.6","","-2.5","","52","","","","30","","18","","24.1","","101.26","","","","","","NA"
"-57.19","51.44","LOURDES DE BLANC SABLON A","7040815","2018-10-07 13:00","2018","10","07","13:00","6.5","","-3.4","","49","","","","31","","21","","24.1","","101.30","","","","","","NA"
"-57.19","51.44","LOURDES DE BLANC SABLON A","7040815","2018-10-07 14:00","2018","10","07","14:00","6.0","","-3.9","","49","","","","29","","18","","24.1","","101.33","","","","","","Mostly Cloudy"
"-57.19","51.44","LOURDES DE BLANC SABLON A","7040815","2018-10-07 15:00","2018","10","07","15:00","6.0","","-4.8","","46","","","","31","","19","","24.1","","101.40","","","","","","NA"
"-57.19","51.44","LOURDES DE BLANC SABLON A","7040815","2018-10-07 16:00","2018","10","07","16:00","5.7","","-5.5","","44","","","","29","","20","","24.1","","101.48","","","","","","NA"
"-57.19","51.44","LOURDES DE BLANC SABLON A","7040815","2018-10-07 17:00","2018","10","07","17:00","5.0","","-5.3","","47","","","","33","","19","","24.1","","101.56","","","","","","Mainly Clear"
"-57.19","51.44","LOURDES DE BLANC SABLON A","7040815","2018-10-07 18:00","2018","10","07","18:00","2.8","","-5.3","","55","","","","32","","7","","24.1","","101.63","","","","","","NA"
"-57.19","51.44","LOURDES DE BLANC SABLON A","7040815","2018-10-07 19:00","2018","10","07","19:00","0.7","","-4.5","","68","","","","30","","12","","24.1","","101.70","","","","","","NA"
"-57.19","51.44","LOURDES DE BLANC SABLON A","7040815","2018-10-07 20:00","2018","10","07","20:00","0.3","","-4.8","","69","","","","31","","9","","24.1","","101.73","","","","","","Clear"
"-57.19","51.44","LOURDES DE BLANC SABLON A","7040815","2018-10-07 21:00","2018","10","07","21:00","-1.1","","-4.8","","76","","","","7","","4","","24.1","","101.77","","","","-2","","NA"
"-57.19","51.44","LOURDES DE BLANC SABLON A","7040815","2018-10-07 22:00","2018","10","07","22:00","-0.8","","-5.2","","72","","","","12","","4","","24.1","","101.82","","","","-2","","NA"
"-57.19","51.44","LOURDES DE BLANC SABLON A","7040815","2018-10-07 23:00","2018","10","07","23:00","-0.8","","-5.1","","73","","","","33","","4","","24.1","","101.85","","","","-2","","Clear"
"-57.19","51.44","LOURDES DE BLANC SABLON A","7040815","2018-10-08 00:00","2018","10","08","00:00","-1.2","","-5.3","","74","","","","28","","14","","24.1","","101.88","","","","-6","","NA"
"-57.19","51.44","LOURDES DE BLANC SABLON A","7040815","2018-10-08 01:00","2018","10","08","01:00","-0.3","","-5.0","","70","","","","27","","15","","24.1","","101.87","","","","-5","","NA"
"-57.19","51.44","LOURDES DE BLANC SABLON A","7040815","2018-10-08 02:00","2018","10","08","02:00","-1.0","","-5.1","","74","","","","30","","12","","24.1","","101.89","","","","-5","","Clear"
"-57.19","51.44","LOURDES DE BLANC SABLON A","7040815","2018-10-08 03:00","2018","10","08","03:00","-1.4","","-4.6","","79","","","","29","","14","","24.1","","101.93","","","","-6","","NA"
"-57.19","51.44","LOURDES DE BLANC SABLON A","7040815","2018-10-08 04:00","2018","10","08","04:00","-2.4","","-5.2","","81","","","","30","","11","","24.1","","101.94","","","","-6","","NA"
"-57.19","51.44","LOURDES DE BLANC SABLON A","7040815","2018-10-08 05:00","2018","10","08","05:00","-2.5","","-5.3","","81","","","","29","","13","","24.1","","101.95","","","","-7","","Clear"
"-57.19","51.44","LOURDES DE BLANC SABLON A","7040815","2018-10-08 06:00","2018","10","08","06:00","-1.7","","-5.2","","77","","","","31","","13","","24.1","","101.99","","","","-6","","NA"
"-57.19","51.44","LOURDES DE BLANC SABLON A","7040815","2018-10-08 07:00","2018","10","08","07:00","-0.8","","-4.7","","75","","","","30","","12","","24.1","","102.03","","","","-5","","NA"
"-57.19","51.44","LOURDES DE BLANC SABLON A","7040815","2018-10-08 08:00","2018","10","08","08:00","2.0","","-4.0","","64","","","","27","","17","","24.1","","102.05","","","","","","Mainly Clear"
"-57.19","51.44","LOURDES DE BLANC SABLON A","7040815","2018-10-08 09:00","2018","10","08","09:00","3.0","","-4.6","","57","","","","27","","28","","24.1","","102.00","","","","","","NA"
"-57.19","51.44","LOURDES DE BLANC SABLON A","7040815","2018-10-08 10:00","2018","10","08","10:00","4.3","","-3.2","","59","","","","24","","25","","24.1","","101.97","","","","","","NA"
"-57.19","51.44","LOURDES DE BLANC SABLON A","7040815","2018-10-08 11:00","2018","10","08","11:00","6.4","","-3.1","","50","","","","26","","23","","24.1","","101.94","","","","","","Mainly Clear"
"-57.19","51.44","LOURDES DE BLANC SABLON A","7040815","2018-10-08 12:00","2018","10","08","12:00","6.8","","-3.3","","48","","","","25","","34","","24.1","","101.88","","","","","","NA"
"-57.19","51.44","LOURDES DE BLANC SABLON A","7040815","2018-10-08 13:00","2018","10","08","13:00","7.6","","-1.8","","51","","","","25","","31","","24.1","","101.82","","","","","","NA"
"-57.19","51.44","LOURDES DE BLANC SABLON A","7040815","2018-10-08 14:00","2018","10","08","14:00","7.1","","-1.9","","53","","","","24","","42","","24.1","","101.78","","","","","","Mostly Cloudy"
"-57.19","51.44","LOURDES DE BLANC SABLON A","7040815","2018-10-08 15:00","2018","10","08","15:00","7.3","","-4.8","","42","","","","28","","26","","24.1","","101.80","","","","","","NA"
"-57.19","51.44","LOURDES DE BLANC SABLON A","7040815","2018-10-08 16:00","2018","10","08","16:00","6.8","","-5.7","","41","","","","29","","26","","24.1","","101.89","","","","","","NA"
"-57.19","51.44","LOURDES DE BLANC SABLON A","7040815","2018-10-08 17:00","2018","10","08","17:00","5.7","","-4.2","","49","","","","30","","16","","24.1","","101.99","","","","","","Mostly Cloudy"
"-57.19","51.44","LOURDES DE BLANC SABLON A","7040815","2018-10-08 18:00","2018","10","08","18:00","4.9","","-4.7","","50","","","","30","","17","","24.1","","102.04","","","","","","NA"
"-57.19","51.44","LOURDES DE BLANC SABLON A","7040815","2018-10-08 19:00","2018","10","08","19:00","3.3","","-4.5","","57","","","","30","","15","","24.1","","102.04","","","","","","NA"
"-57.19","51.44","LOURDES DE BLANC SABLON A","7040815","2018-10-08 20:00","2018","10","08","20:00","2.6","","-3.5","","64","","","","28","","12","","24.1","","102.07","","","","","","Mainly Clear"
"-57.19","51.44","LOURDES DE BLANC SABLON A","7040815","2018-10-08 21:00","2018","10","08","21:00","2.0","","-4.1","","64","","","","29","","13","","24.1","","102.07","","","","","","NA"
"-57.19","51.44","LOURDES DE BLANC SABLON A","7040815","2018-10-08 22:00","2018","10","08","22:00","0.7","","-4.1","","70","","","","28","","9","","24.1","","102.06","","","","","","NA"
"-57.19","51.44","LOURDES DE BLANC SABLON A","7040815","2018-10-08 23:00","2018","10","08","23:00","1.1","","-4.2","","68","","","","28","","16","","24.1","","102.00","","","","","","Mainly Clear"
"-57.19","51.44","LOURDES DE BLANC SABLON A","7040815","2018-10-09 00:00","2018","10","09","00:00","-1.2","","-4.2","","80","","","","36","","3","","24.1","","101.96","","","","-2","","NA"
"-57.19","51.44","LOURDES DE BLANC SABLON A","7040815","2018-10-09 01:00","2018","10","09","01:00","0.6","","-4.0","","72","","","","36","","2","","24.1","","101.92","","","","","","NA"
"-57.19","51.44","LOURDES DE BLANC SABLON A","7040815","2018-10-09 02:00","2018","10","09","02:00","1.4","","-3.8","","68","","","","30","","14","","24.1","","101.90","","","","","","Cloudy"
"-57.19","51.44","LOURDES DE BLANC SABLON A","7040815","2018-10-09 03:00","2018","10","09","03:00","1.5","","-3.8","","68","","","","30","","9","","24.1","","101.86","","","","","","NA"
"-57.19","51.44","LOURDES DE BLANC SABLON A","7040815","2018-10-09 04:00","2018","10","09","04:00","2.2","","-3.3","","67","","","","27","","9","","24.1","","101.85","","","","","","NA"
"-57.19","51.44","LOURDES DE BLANC SABLON A","7040815","2018-10-09 05:00","2018","10","09","05:00","2.5","","-3.3","","66","","","","26","","13","","24.1","","101.81","","","","","","Cloudy"
"-57.19","51.44","LOURDES DE BLANC SABLON A","7040815","2018-10-09 06:00","2018","10","09","06:00","2.6","","-3.5","","64","","","","25","","13","","24.1","","101.79","","","","","","NA"
"-57.19","51.44","LOURDES DE BLANC SABLON A","7040815","2018-10-09 07:00","2018","10","09","07:00","3.0","","-3.2","","64","","","","27","","12","","24.1","","101.76","","","","","","NA"
"-57.19","51.44","LOURDES DE BLANC SABLON A","7040815","2018-10-09 08:00","2018","10","09","08:00","3.8","","-3.0","","61","","","","27","","25","","24.1","","101.68","","","","","","Mostly Cloudy"
"-57.19","51.44","LOURDES DE BLANC SABLON A","7040815","2018-10-09 09:00","2018","10","09","09:00","4.3","","-1.1","","68","","","","27","","30","","24.1","","101.66","","","","","","NA"
"-57.19","51.44","LOURDES DE BLANC SABLON A","7040815","2018-10-09 10:00","2018","10","09","10:00","4.0","","0.4","","77","","","","27","","30","","24.1","","101.57","","","","","","Rain"
"-57.19","51.44","LOURDES DE BLANC SABLON A","7040815","2018-10-09 11:00","2018","10","09","11:00","3.2","","1.2","","87","","","","27","","30","","9.7","","101.51","","","","","","Rain,Fog"
"-57.19","51.44","LOURDES DE BLANC SABLON A","7040815","2018-10-09 12:00","2018","10","09","12:00","2.8","","1.4","","91","","","","26","","24","","9.7","","101.40","","","","","","Rain,Fog"
"-57.19","51.44","LOURDES DE BLANC SABLON A","7040815","2018-10-09 13:00","2018","10","09","13:00","2.4","","1.3","","93","","","","26","","22","","6.4","","101.33","","","","","","Rain,Fog"
"-57.19","51.44","LOURDES DE BLANC SABLON A","7040815","2018-10-09 14:00","2018","10","09","14:00","2.6","","1.6","","93","","","","26","","20","","6.4","","101.24","","","","","","Rain,Fog"
"-57.19","51.44","LOURDES DE BLANC SABLON A","7040815","2018-10-09 15:00","2018","10","09","15:00","2.6","","1.7","","93","","","","26","","17","","6.4","","101.18","","","","","","Rain,Fog"
"-57.19","51.44","LOURDES DE BLANC SABLON A","7040815","2018-10-09 16:00","2018","10","09","16:00","2.2","","1.3","","94","","","","28","","14","","6.4","","101.12","","","","","","Rain,Fog"
"-57.19","51.44","LOURDES DE BLANC SABLON A","7040815","2018-10-09 17:00","2018","10","09","17:00","1.9","","1.2","","95","","","","26","","9","","16.1","","101.01","","","","","","Rain"
"-57.19","51.44","LOURDES DE BLANC SABLON A","7040815","2018-10-09 18:00","2018","10","09","18:00","1.9","","1.2","","95","","","","31","","8","","16.1","","101.00","","","","","","NA"
"-57.19","51.44","LOURDES DE BLANC SABLON A","7040815","2018-10-09 19:00","2018","10","09","19:00","1.6","","1.0","","96","","","","32","","9","","24.1","","100.93","","","","","","Rain"
"-57.19","51.44","LOURDES DE BLANC SABLON A","7040815","2018-10-09 20:00","2018","10","09","20:00","1.5","","1.0","","96","","","","34","","5","","24.1","","100.89","","","","","","Cloudy"
"-57.19","51.44","LOURDES DE BLANC SABLON A","7040815","2018-10-09 21:00","2018","10","09","21:00","1.5","","0.9","","96","","","","35","","5","","24.1","","100.81","","","","","","NA"
"-57.19","51.44","LOURDES DE BLANC SABLON A","7040815","2018-10-09 22:00","2018","10","09","22:00","1.3","","0.7","","96","","","","33","","5","","24.1","","100.75","","","","","","NA"
"-57.19","51.44","LOURDES DE BLANC SABLON A","7040815","2018-10-09 23:00","2018","10","09","23:00","1.3","","0.7","","96","","","","33","","6","","24.1","","100.64","","","","","","Cloudy"
"-57.19","51.44","LOURDES DE BLANC SABLON A","7040815","2018-10-10 00:00","2018","10","10","00:00","0.8","","0.1","","95","","","","33","","10","","22.5","","100.61","","","","","","NA"
"-57.19","51.44","LOURDES DE BLANC SABLON A","7040815","2018-10-10 01:00","2018","10","10","01:00","1.0","","0.2","","94","","","","32","","10","","24.1","","100.56","","","","","","NA"
"-57.19","51.44","LOURDES DE BLANC SABLON A","7040815","2018-10-10 02:00","2018","10","10","02:00","1.5","","0.6","","93","","","","31","","10","","24.1","","100.50","","","","","","Cloudy"
"-57.19","51.44","LOURDES DE BLANC SABLON A","7040815","2018-10-10 03:00","2018","10","10","03:00","1.4","","0.4","","93","","","","29","","10","","24.1","","100.36","","","","","","NA"
"-57.19","51.44","LOURDES DE BLANC SABLON A","7040815","2018-10-10 04:00","2018","10","10","04:00","1.6","","0.6","","93","","","","28","","8","","24.1","","100.36","","","","","","NA"
"-57.19","51.44","LOURDES DE BLANC SABLON A","7040815","2018-10-10 05:00","2018","10","10","05:00","1.4","","0.6","","94","","","","28","","15","","24.1","","100.32","","","","","","Mainly Clear"
"-57.19","51.44","LOURDES DE BLANC SABLON A","7040815","2018-10-10 06:00","2018","10","10","06:00","1.2","","0.3","","94","","","","28","","18","","24.1","","100.28","","","","","","NA"
"-57.19","51.44","LOURDES DE BLANC SABLON A","7040815","2018-10-10 07:00","2018","10","10","07:00","1.4","","0.6","","94","","","","27","","13","","24.1","","100.28","","","","","","NA"
"-57.19","51.44","LOURDES DE BLANC SABLON A","7040815","2018-10-10 08:00","2018","10","10","08:00","3.3","","0.8","","84","","","","28","","15","","24.1","","100.27","","","","","","Mainly Clear"
"-57.19","51.44","LOURDES DE BLANC SABLON A","7040815","2018-10-10 09:00","2018","10","10","09:00","5.0","","1.6","","79","","","","29","","18","","24.1","","100.28","","","","","","NA"
"-57.19","51.44","LOURDES DE BLANC SABLON A","7040815","2018-10-10 10:00","2018","10","10","10:00","5.0","","0.3","","71","","","","31","","19","","24.1","","100.25","","","","","","NA"
"-57.19","51.44","LOURDES DE BLANC SABLON A","7040815","2018-10-10 11:00","2018","10","10","11:00","4.8","","0.0","","71","","","","34","","35","","19.3","","100.26","","","","","","Rain Showers"
"-57.19","51.44","LOURDES DE BLANC SABLON A","7040815","2018-10-10 12:00","2018","10","10","12:00","6.1","","-3.6","","50","","","","31","","28","","24.1","","100.27","","","","","","NA"
"-57.19","51.44","LOURDES DE BLANC SABLON A","7040815","2018-10-10 13:00","2018","10","10","13:00","5.3","","-6.0","","44","","","","33","","29","","24.1","","100.28","","","","","","NA"
"-57.19","51.44","LOURDES DE BLANC SABLON A","7040815","2018-10-10 14:00","2018","10","10","14:00","6.2","","-7.3","","37","","","","31","","31","","24.1","","100.35","","","","","","Mainly Clear"
"-57.19","51.44","LOURDES DE BLANC SABLON A","7040815","2018-10-10 15:00","2018","10","10","15:00","4.2","","-5.6","","49","","","","31","","31","","24.1","","100.45","","","","","","NA"
"-57.19","51.44","LOURDES DE BLANC SABLON A","7040815","2018-10-10 16:00","2018","10","10","16:00","3.0","","-7.2","","47","","","","33","","31","","24.1","","100.51","","","","","","NA"
"-57.19","51.44","LOURDES DE BLANC SABLON A","7040815","2018-10-10 17:00","2018","10","10","17:00","2.7","","-8.4","","44","","","","34","","27","","24.1","","100.60","","","","","","Mainly Clear"
"-57.19","51.44","LOURDES DE BLANC SABLON A","7040815","2018-10-10 18:00","2018","10","10","18:00","1.5","","-7.4","","52","","","","32","","19","","24.1","","100.71","","","","","","NA"
"-57.19","51.44","LOURDES DE BLANC SABLON A","7040815","2018-10-10 19:00","2018","10","10","19:00","-0.9","","-5.7","","70","","","","31","","11","","24.1","","100.82","","","","-5","","NA"
"-57.19","51.44","LOURDES DE BLANC SABLON A","7040815","2018-10-10 20:00","2018","10","10","20:00","-1.2","","-6.6","","67","","","","31","","13","","24.1","","100.87","","","","-5","","Clear"
"-57.19","51.44","LOURDES DE BLANC SABLON A","7040815","2018-10-10 21:00","2018","10","10","21:00","-1.6","","-7.3","","65","","","","32","","14","","24.1","","100.87","","","","-6","","NA"
"-57.19","51.44","LOURDES DE BLANC SABLON A","7040815","2018-10-10 22:00","2018","10","10","22:00","-1.0","","-6.9","","65","","","","32","","14","","24.1","","100.88","","","","-5","","NA"
"-57.19","51.44","LOURDES DE BLANC SABLON A","7040815","2018-10-10 23:00","2018","10","10","23:00","-1.8","","-7.0","","67","","","","31","","15","","24.1","","100.90","","","","-7","","Clear"
"-57.19","51.44","LOURDES DE BLANC SABLON A","7040815","2018-10-11 00:00","2018","10","11","00:00","-2.3","","-7.5","","67","","","","31","","13","","24.1","","100.95","","","","-7","","NA"
"-57.19","51.44","LOURDES DE BLANC SABLON A","7040815","2018-10-11 01:00","2018","10","11","01:00","-2.2","","-7.8","","66","","","","31","","13","","24.1","","100.96","","","","-7","","NA"
"-57.19","51.44","LOURDES DE BLANC SABLON A","7040815","2018-10-11 02:00","2018","10","11","02:00","-2.7","","-7.3","","71","","","","30","","14","","24.1","","100.99","","","","-8","","Clear"
"-57.19","51.44","LOURDES DE BLANC SABLON A","7040815","2018-10-11 03:00","2018","10","11","03:00","-2.5","","-7.7","","68","","","","32","","12","","24.1","","101.00","","","","-7","","NA"
"-57.19","51.44","LOURDES DE BLANC SABLON A","7040815","2018-10-11 04:00","2018","10","11","04:00","-2.4","","-7.2","","70","","","","33","","17","","24.1","","101.04","","","","-8","","NA"
"-57.19","51.44","LOURDES DE BLANC SABLON A","7040815","2018-10-11 05:00","2018","10","11","05:00","-2.0","","-6.9","","69","","","","33","","19","","24.1","","101.07","","","","-8","","Clear"
"-57.19","51.44","LOURDES DE BLANC SABLON A","7040815","2018-10-11 06:00","2018","10","11","06:00","-2.3","","-7.1","","70","","","","33","","18","","24.1","","101.12","","","","-8","","NA"
"-57.19","51.44","LOURDES DE BLANC SABLON A","7040815","2018-10-11 07:00","2018","10","11","07:00","-1.1","","-6.6","","66","","","","33","","27","","24.1","","101.12","","","","-8","","NA"
"-57.19","51.44","LOURDES DE BLANC SABLON A","7040815","2018-10-11 08:00","2018","10","11","08:00","0.4","","-6.3","","61","","","","34","","33","","24.1","","101.12","","","","","","Mainly Clear"
"-57.19","51.44","LOURDES DE BLANC SABLON A","7040815","2018-10-11 09:00","2018","10","11","09:00"
"-57.19","51.44","LOURDES DE BLANC SABLON A","7040815","2018-10-11 10:00","2018","10","11","10:00","3.1","","-7.0","","48","","","","36","","33","","24.1","","101.20","","","","","","NA"
"-57.19","51.44","LOURDES DE BLANC SABLON A","7040815","2018-10-11 11:00","2018","10","11","11:00","4.0","","-7.0","","45","","","","34","","23","","24.1","","101.21","","","","","","Mainly Clear"
"-57.19","51.44","LOURDES DE BLANC SABLON A","7040815","2018-10-11 12:00","2018","10","11","12:00","5.1","","-8.0","","38","","","","35","","22","","24.1","","101.21","","","","","","NA"
"-57.19","51.44","LOURDES DE BLANC SABLON A","7040815","2018-10-11 13:00","2018","10","11","13:00","4.8","","-7.6","","40","","","","34","","21","","24.1","","101.21","","","","","","NA"
"-57.19","51.44","LOURDES DE BLANC SABLON A","7040815","2018-10-11 14:00","2018","10","11","14:00","5.0","","-8.1","","38","","","","35","","16","","24.1","","101.23","","","","","","Mostly Cloudy"
"-57.19","51.44","LOURDES DE BLANC SABLON A","7040815","2018-10-11 15:00","2018","10","11","15:00","5.6","","-7.8","","38","","","","31","","17","","24.1","","101.21","","","","","","NA"
"-57.19","51.44","LOURDES DE BLANC SABLON A","7040815","2018-10-11 16:00","2018","10","11","16:00","4.7","","-7.7","","40","","","","36","","8","","24.1","","101.24","","","","","","NA"
"-57.19","51.44","LOURDES DE BLANC SABLON A","7040815","2018-10-11 17:00","2018","10","11","17:00","2.4","","-7.6","","48","","","","35","","13","","24.1","","101.27","","","","","","Mainly Clear"
"-57.19","51.44","LOURDES DE BLANC SABLON A","7040815","2018-10-11 18:00","2018","10","11","18:00","1.2","","-7.5","","52","","","","35","","10","","24.1","","101.30","","","","","","NA"
"-57.19","51.44","LOURDES DE BLANC SABLON A","7040815","2018-10-11 19:00","2018","10","11","19:00","0.6","","-7.4","","55","","","","1","","16","","24.1","","101.24","","","","","","NA"
"-57.19","51.44","LOURDES DE BLANC SABLON A","7040815","2018-10-11 20:00","2018","10","11","20:00","-0.1","","-7.0","","60","","","","1","","13","","24.1","","101.24","","","","-4","","Mainly Clear"
"-57.19","51.44","LOURDES DE BLANC SABLON A","7040815","2018-10-11 21:00","2018","10","11","21:00"
"-57.19","51.44","LOURDES DE BLANC SABLON A","7040815","2018-10-11 22:00","2018","10","11","22:00","-1.6","","-7.0","","67","","","","5","","9","","24.1","","101.18","","","","-5","","NA"
"-57.19","51.44","LOURDES DE BLANC SABLON A","7040815","2018-10-11 23:00","2018","10","11","23:00","-1.8","","-6.6","","70","","","","4","","10","","24.1","","101.08","","","","-5","","Mainly Clear"
"-57.19","51.44","LOURDES DE BLANC SABLON A","7040815","2018-10-12 00:00","2018","10","12","00:00","-2.5","","-6.3","","75","","","","5","","9","","24.1","","101.08","","","","-6","","NA"
"-57.19","51.44","LOURDES DE BLANC SABLON A","7040815","2018-10-12 01:00","2018","10","12","01:00","-2.8","","-7.3","","71","","","","5","","7","","24.1","","101.00","","","","-6","","NA"
"-57.19","51.44","LOURDES DE BLANC SABLON A","7040815","2018-10-12 02:00","2018","10","12","02:00","-3.6","","-7.3","","76","","","","5","","9","","24.1","","100.96","","","","-7","","Mainly Clear"
"-57.19","51.44","LOURDES DE BLANC SABLON A","7040815","2018-10-12 03:00","2018","10","12","03:00","-3.5","","-6.9","","77","","","","4","","10","","24.1","","100.92","","","","-7","","NA"
"-57.19","51.44","LOURDES DE BLANC SABLON A","7040815","2018-10-12 04:00","2018","10","12","04:00","-1.6","","-5.4","","76","","","","4","","14","","24.1","","100.86","","","","-6","","NA"
"-57.19","51.44","LOURDES DE BLANC SABLON A","7040815","2018-10-12 05:00","2018","10","12","05:00","-1.0","","-4.5","","77","","","","4","","11","","24.1","","100.80","","","","-5","","Mostly Cloudy"
"-57.19","51.44","LOURDES DE BLANC SABLON A","7040815","2018-10-12 06:00","2018","10","12","06:00","-0.5","","-4.2","","76","","","","7","","9","","24.1","","100.71","","","","-4","","NA"
"-57.19","51.44","LOURDES DE BLANC SABLON A","7040815","2018-10-12 07:00","2018","10","12","07:00","0.8","","-3.7","","72","","","","5","","8","","24.1","","100.63","","","","","","NA"
"-57.19","51.44","LOURDES DE BLANC SABLON A","7040815","2018-10-12 08:00","2018","10","12","08:00","2.1","","-2.5","","72","","","","12","","13","","24.1","","100.55","","","","","","Cloudy"
"-57.19","51.44","LOURDES DE BLANC SABLON A","7040815","2018-10-12 09:00","2018","10","12","09:00","3.4","","-2.3","","66","","","","14","","9","","24.1","","100.48","","","","","","NA"
"-57.19","51.44","LOURDES DE BLANC SABLON A","7040815","2018-10-12 10:00","2018","10","12","10:00","4.6","","-4.5","","52","","","","19","","16","","24.1","","100.46","","","","","","NA"
"-57.19","51.44","LOURDES DE BLANC SABLON A","7040815","2018-10-12 11:00","2018","10","12","11:00","4.7","","-4.3","","52","","","","16","","11","","24.1","","100.39","","","","","","Cloudy"
"-57.19","51.44","LOURDES DE BLANC SABLON A","7040815","2018-10-12 12:00","2018","10","12","12:00","4.9","","-4.9","","49","","","","13","","13","","24.1","","100.29","","","","","","NA"
"-57.19","51.44","LOURDES DE BLANC SABLON A","7040815","2018-10-12 13:00","2018","10","12","13:00","5.2","","-5.0","","48","","","","14","","14","","24.1","","100.22","","","","","","NA"
"-57.19","51.44","LOURDES DE BLANC SABLON A","7040815","2018-10-12 14:00","2018","10","12","14:00","5.2","","-5.5","","46","","","","13","","16","","24.1","","100.18","","","","","","Mostly Cloudy"
"-57.19","51.44","LOURDES DE BLANC SABLON A","7040815","2018-10-12 15:00","2018","10","12","15:00","4.8","","-5.4","","48","","","","8","","14","","24.1","","100.12","","","","","","NA"
"-57.19","51.44","LOURDES DE BLANC SABLON A","7040815","2018-10-12 16:00","2018","10","12","16:00","4.5","","-5.0","","50","","","","6","","16","","24.1","","100.02","","","","","","NA"
"-57.19","51.44","LOURDES DE BLANC SABLON A","7040815","2018-10-12 17:00","2018","10","12","17:00","3.1","","-4.8","","56","","","","6","","14","","24.1","","99.93","","","","","","Mostly Cloudy"
"-57.19","51.44","LOURDES DE BLANC SABLON A","7040815","2018-10-12 18:00","2018","10","12","18:00","2.6","","-3.6","","63","","","","7","","21","","24.1","","99.89","","","","","","NA"
"-57.19","51.44","LOURDES DE BLANC SABLON A","7040815","2018-10-12 19:00","2018","10","12","19:00","2.4","","-1.8","","74","","","","6","","12","","24.1","","99.85","","","","","","NA"
"-57.19","51.44","LOURDES DE BLANC SABLON A","7040815","2018-10-12 20:00","2018","10","12","20:00","3.1","","-1.2","","73","","","","9","","16","","24.1","","99.79","","","","","","Mostly Cloudy"
"-57.19","51.44","LOURDES DE BLANC SABLON A","7040815","2018-10-12 21:00","2018","10","12","21:00","2.7","","-1.4","","75","","","","8","","18","","24.1","","99.76","","","","","","NA"
"-57.19","51.44","LOURDES DE BLANC SABLON A","7040815","2018-10-12 22:00","2018","10","12","22:00","2.8","","-0.6","","78","","","","8","","23","","24.1","","99.67","","","","","","NA"
"-57.19","51.44","LOURDES DE BLANC SABLON A","7040815","2018-10-12 23:00","2018","10","12","23:00","3.0","","-0.8","","76","","","","8","","31","","24.1","","99.56","","","","","","Cloudy"
"-57.19","51.44","LOURDES DE BLANC SABLON A","7040815","2018-10-13 00:00","2018","10","13","00:00","2.9","","-0.7","","77","","","","6","","26","","24.1","","99.52","","","","","","NA"
"-57.19","51.44","LOURDES DE BLANC SABLON A","7040815","2018-10-13 01:00","2018","10","13","01:00","3.2","","0.1","","80","","","","7","","27","","24.1","","99.50","","","","","","NA"
"-57.19","51.44","LOURDES DE BLANC SABLON A","7040815","2018-10-13 02:00","2018","10","13","02:00","3.1","","1.3","","88","","","","7","","27","","24.1","","99.47","","","","","","Cloudy"
"-57.19","51.44","LOURDES DE BLANC SABLON A","7040815","2018-10-13 03:00","2018","10","13","03:00","3.1","","1.6","","90","","","","7","","24","","24.1","","99.47","","","","","","Rain"
"-57.19","51.44","LOURDES DE BLANC SABLON A","7040815","2018-10-13 04:00","2018","10","13","04:00","3.1","","2.1","","93","","","","7","","26","","16.1","","99.45","","","","","","Rain"
"-57.19","51.44","LOURDES DE BLANC SABLON A","7040815","2018-10-13 05:00","2018","10","13","05:00","3.1","","2.3","","94","","","","7","","27","","16.1","","99.47","","","","","","Rain"
"-57.19","51.44","LOURDES DE BLANC SABLON A","7040815","2018-10-13 06:00","2018","10","13","06:00","3.2","","2.2","","94","","","","7","","26","","16.1","","99.48","","","","","","NA"
"-57.19","51.44","LOURDES DE BLANC SABLON A","7040815","2018-10-13 07:00","2018","10","13","07:00","3.5","","2.4","","92","","","","8","","29","","16.1","","99.54","","","","","","NA"
"-57.19","51.44","LOURDES DE BLANC SABLON A","7040815","2018-10-13 08:00","2018","10","13","08:00","3.9","","2.7","","92","","","","10","","29","","16.1","","99.60","","","","","","Cloudy"
"-57.19","51.44","LOURDES DE BLANC SABLON A","7040815","2018-10-13 09:00","2018","10","13","09:00","4.2","","2.5","","89","","","","10","","32","","16.1","","99.68","","","","","","NA"
"-57.19","51.44","LOURDES DE BLANC SABLON A","7040815","2018-10-13 10:00","2018","10","13","10:00","4.5","","3.1","","91","","","","10","","26","","12.9","","99.70","","","","","","Drizzle"
"-57.19","51.44","LOURDES DE BLANC SABLON A","7040815","2018-10-13 11:00","2018","10","13","11:00","4.1","","3.0","","93","","","","9","","27","","4.8","","99.74","","","","","","Drizzle"
"-57.19","51.44","LOURDES DE BLANC SABLON A","7040815","2018-10-13 12:00","2018","10","13","12:00","4.0","","3.1","","94","","","","9","","27","","4.8","","99.76","","","","","","Drizzle,Fog"
"-57.19","51.44","LOURDES DE BLANC SABLON A","7040815","2018-10-13 13:00","2018","10","13","13:00","3.9","","2.7","","92","","","","9","","29","","4.8","","99.78","","","","","","Drizzle"
"-57.19","51.44","LOURDES DE BLANC SABLON A","7040815","2018-10-13 14:00","2018","10","13","14:00","3.7","","2.8","","94","","","","9","","27","","4.8","","99.80","","","","","","Rain,Fog"
"-57.19","51.44","LOURDES DE BLANC SABLON A","7040815","2018-10-13 15:00","2018","10","13","15:00","3.9","","3.0","","94","","","","9","","29","","4.8","","99.80","","","","","","Rain,Fog"
"-57.19","51.44","LOURDES DE BLANC SABLON A","7040815","2018-10-13 16:00","2018","10","13","16:00","3.5","","2.8","","95","","","","9","","26","","4.8","","99.82","","","","","","Rain,Fog"
"-57.19","51.44","LOURDES DE BLANC SABLON A","7040815","2018-10-13 17:00","2018","10","13","17:00","3.4","","2.7","","95","","","","10","","25","","6.4","","99.82","","","","","","Rain,Fog"
"-57.19","51.44","LOURDES DE BLANC SABLON A","7040815","2018-10-13 18:00","2018","10","13","18:00","3.0","","2.0","","93","","","","10","","25","","9.7","","99.83","","","","","","Rain,Fog"
"-57.19","51.44","LOURDES DE BLANC SABLON A","7040815","2018-10-13 19:00","2018","10","13","19:00","2.5","","1.6","","94","","","","9","","24","","24.1","","99.79","","","","","","Rain"
"-57.19","51.44","LOURDES DE BLANC SABLON A","7040815","2018-10-13 20:00","2018","10","13","20:00","2.0","","1.4","","95","","","","9","","19","","24.1","","99.78","","","","","","Rain"
"-57.19","51.44","LOURDES DE BLANC SABLON A","7040815","2018-10-13 21:00","2018","10","13","21:00","1.6","","0.9","","95","","","","8","","28","","24.1","","99.72","","","","","","Rain"
"-57.19","51.44","LOURDES DE BLANC SABLON A","7040815","2018-10-13 22:00","2018","10","13","22:00","1.5","","0.8","","95","","","","7","","27","","24.1","","99.64","","","","","","Rain"
"-57.19","51.44","LOURDES DE BLANC SABLON A","7040815","2018-10-13 23:00","2018","10","13","23:00","1.5","","0.7","","95","","","","7","","28","","24.1","","99.57","","","","","","Rain"
"-57.19","51.44","LOURDES DE BLANC SABLON A","7040815","2018-10-14 00:00","2018","10","14","00:00","1.6","","0.8","","95","","","","6","","27","","24.1","","99.50","","","","","","Rain"
"-57.19","51.44","LOURDES DE BLANC SABLON A","7040815","2018-10-14 01:00","2018","10","14","01:00","1.6","","0.8","","95","","","","6","","30","","24.1","","99.46","","","","","","Rain"
"-57.19","51.44","LOURDES DE BLANC SABLON A","7040815","2018-10-14 02:00","2018","10","14","02:00","1.4","","0.7","","95","","","","6","","26","","24.1","","99.40","","","","","","Rain"
"-57.19","51.44","LOURDES DE BLANC SABLON A","7040815","2018-10-14 03:00","2018","10","14","03:00","1.3","","0.5","","95","","","","6","","26","","24.1","","99.35","","","","","","Rain"
"-57.19","51.44","LOURDES DE BLANC SABLON A","7040815","2018-10-14 04:00","2018","10","14","04:00","1.1","","0.4","","95","","","","6","","27","","24.1","","99.32","","","","","","Rain"
"-57.19","51.44","LOURDES DE BLANC SABLON A","7040815","2018-10-14 05:00","2018","10","14","05:00","1.1","","0.3","","95","","","","6","","26","","16.1","","99.29","","","","","","Rain"
"-57.19","51.44","LOURDES DE BLANC SABLON A","7040815","2018-10-14 06:00","2018","10","14","06:00","0.9","","0.2","","95","","","","6","","27","","4.0","","99.28","","","","","","Rain,Snow"
"-57.19","51.44","LOURDES DE BLANC SABLON A","7040815","2018-10-14 07:00","2018","10","14","07:00","1.2","","0.4","","95","","","","5","","27","","4.0","","99.28","","","","","","Rain,Snow"
"-57.19","51.44","LOURDES DE BLANC SABLON A","7040815","2018-10-14 08:00","2018","10","14","08:00","1.9","","0.9","","93","","","","5","","26","","6.4","","99.31","","","","","","Rain,Snow"
"-57.19","51.44","LOURDES DE BLANC SABLON A","7040815","2018-10-14 09:00","2018","10","14","09:00","2.5","","1.1","","90","","","","5","","25","","12.9","","99.38","","","","","","Rain"
"-57.19","51.44","LOURDES DE BLANC SABLON A","7040815","2018-10-14 10:00","2018","10","14","10:00","2.6","","0.5","","86","","","","6","","25","","16.1","","99.45","","","","","","Rain"
"-57.19","51.44","LOURDES DE BLANC SABLON A","7040815","2018-10-14 11:00","2018","10","14","11:00","3.3","","1.0","","85","","","","5","","16","","24.1","","99.51","","","","","","Cloudy"
"-57.19","51.44","LOURDES DE BLANC SABLON A","7040815","2018-10-14 12:00","2018","10","14","12:00","3.2","","0.9","","85","","","","3","","16","","12.9","","99.57","","","","","","Drizzle"
"-57.19","51.44","LOURDES DE BLANC SABLON A","7040815","2018-10-14 13:00","2018","10","14","13:00","3.4","","1.3","","86","","","","3","","10","","9.7","","99.62","","","","","","Rain,Fog"
"-57.19","51.44","LOURDES DE BLANC SABLON A","7040815","2018-10-14 14:00","2018","10","14","14:00","3.6","","0.8","","82","","","","1","","13","","16.1","","99.68","","","","","","Rain"
"-57.19","51.44","LOURDES DE BLANC SABLON A","7040815","2018-10-14 15:00","2018","10","14","15:00","3.9","","0.6","","79","","","","3","","8","","16.1","","99.76","","","","","","Rain"
"-57.19","51.44","LOURDES DE BLANC SABLON A","7040815","2018-10-14 16:00","2018","10","14","16:00","3.8","","0.9","","81","","","","29","","8","","16.1","","99.82","","","","","","Rain"
"-57.19","51.44","LOURDES DE BLANC SABLON A","7040815","2018-10-14 17:00","2018","10","14","17:00","2.6","","1.6","","93","","","","27","","10","","16.1","","99.90","","","","","","Rain"
"-57.19","51.44","LOURDES DE BLANC SABLON A","7040815","2018-10-14 18:00","2018","10","14","18:00","2.0","","0.8","","92","","","","30","","6","","24.1","","99.99","","","","","","NA"
"-57.19","51.44","LOURDES DE BLANC SABLON A","7040815","2018-10-14 19:00","2018","10","14","19:00","2.4","","0.9","","90","","","","30","","9","","24.1","","100.07","","","","","","NA"
"-57.19","51.44","LOURDES DE BLANC SABLON A","7040815","2018-10-14 20:00","2018","10","14","20:00","2.2","","1.0","","91","","","","33","","10","","24.1","","100.12","","","","","","Rain"
"-57.19","51.44","LOURDES DE BLANC SABLON A","7040815","2018-10-14 21:00","2018","10","14","21:00","1.9","","0.7","","91","","","","32","","10","","24.1","","100.17","","","","","","NA"
"-57.19","51.44","LOURDES DE BLANC SABLON A","7040815","2018-10-14 22:00","2018","10","14","22:00","1.4","","0.1","","91","","","","33","","11","","24.1","","100.21","","","","","","NA"
"-57.19","51.44","LOURDES DE BLANC SABLON A","7040815","2018-10-14 23:00","2018","10","14","23:00","1.5","","-0.5","","87","","","","33","","7","","24.1","","100.25","","","","","","Mostly Cloudy"
"-57.19","51.44","LOURDES DE BLANC SABLON A","7040815","2018-10-15 00:00","2018","10","15","00:00","1.3","","-0.9","","86","","","","32","","9","","24.1","","100.29","","","","","","NA"
"-57.19","51.44","LOURDES DE BLANC SABLON A","7040815","2018-10-15 01:00","2018","10","15","01:00","0.9","","-0.7","","89","","","","34","","9","","24.1","","100.34","","","","","","NA"
"-57.19","51.44","LOURDES DE BLANC SABLON A","7040815","2018-10-15 02:00","2018","10","15","02:00","0.7","","-0.9","","89","","","","35","","9","","24.1","","100.36","","","","","","Cloudy"
"-57.19","51.44","LOURDES DE BLANC SABLON A","7040815","2018-10-15 03:00","2018","10","15","03:00","0.4","","-1.0","","90","","","","36","","2","","24.1","","100.42","","","","","","NA"
"-57.19","51.44","LOURDES DE BLANC SABLON A","7040815","2018-10-15 04:00","2018","10","15","04:00","0.6","","-0.9","","90","","","","36","","3","","24.1","","100.47","","","","","","NA"
"-57.19","51.44","LOURDES DE BLANC SABLON A","7040815","2018-10-15 05:00","2018","10","15","05:00","0.3","","-0.7","","93","","","","36","","3","","24.1","","100.53","","","","","","Mainly Clear"
"-57.19","51.44","LOURDES DE BLANC SABLON A","7040815","2018-10-15 06:00","2018","10","15","06:00","0.3","","-0.5","","95","","","","2","","3","","24.1","","100.57","","","","","","NA"
"-57.19","51.44","LOURDES DE BLANC SABLON A","7040815","2018-10-15 07:00","2018","10","15","07:00","0.2","","-0.6","","94","","","","31","","4","","24.1","","100.63","","","","","","NA"
"-57.19","51.44","LOURDES DE BLANC SABLON A","7040815","2018-10-15 08:00","2018","10","15","08:00","2.8","","1.0","","88","","","","28","","8","","24.1","","100.70","","","","","","Mainly Clear"
"-57.19","51.44","LOURDES DE BLANC SABLON A","7040815","2018-10-15 09:00","2018","10","15","09:00","3.8","","0.2","","78","","","","30","","11","","24.1","","100.76","","","","","","NA"
"-57.19","51.44","LOURDES DE BLANC SABLON A","7040815","2018-10-15 10:00","2018","10","15","10:00","4.0","","0.8","","79","","","","24","","17","","24.1","","100.83","","","","","","NA"
"-57.19","51.44","LOURDES DE BLANC SABLON A","7040815","2018-10-15 11:00","2018","10","15","11:00","4.4","","1.4","","80","","","","24","","21","","24.1","","100.87","","","","","","Mostly Cloudy"
"-57.19","51.44","LOURDES DE BLANC SABLON A","7040815","2018-10-15 12:00","2018","10","15","12:00","5.0","","1.6","","79","","","","24","","19","","24.1","","100.86","","","","","","NA"
"-57.19","51.44","LOURDES DE BLANC SABLON A","7040815","2018-10-15 13:00","2018","10","15","13:00","5.2","","1.8","","78","","","","25","","21","","24.1","","100.88","","","","","","NA"
"-57.19","51.44","LOURDES DE BLANC SABLON A","7040815","2018-10-15 14:00","2018","10","15","14:00","6.5","","2.2","","74","","","","25","","16","","24.1","","100.88","","","","","","Mostly Cloudy"
"-57.19","51.44","LOURDES DE BLANC SABLON A","7040815","2018-10-15 15:00","2018","10","15","15:00","5.2","","2.9","","85","","","","22","","18","","24.1","","100.91","","","","","","NA"
"-57.19","51.44","LOURDES DE BLANC SABLON A","7040815","2018-10-15 16:00","2018","10","15","16:00","4.7","","2.4","","85","","","","23","","17","","24.1","","100.93","","","","","","NA"
"-57.19","51.44","LOURDES DE BLANC SABLON A","7040815","2018-10-15 17:00","2018","10","15","17:00","4.3","","2.3","","87","","","","22","","13","","24.1","","100.93","","","","","","Mainly Clear"
"-57.19","51.44","LOURDES DE BLANC SABLON A","7040815","2018-10-15 18:00","2018","10","15","18:00","3.2","","2.1","","92","","","","24","","9","","24.1","","100.96","","","","","","NA"
"-57.19","51.44","LOURDES DE BLANC SABLON A","7040815","2018-10-15 19:00","2018","10","15","19:00","4.2","","2.8","","91","","","","24","","18","","24.1","","100.98","","","","","","NA"
"-57.19","51.44","LOURDES DE BLANC SABLON A","7040815","2018-10-15 20:00","2018","10","15","20:00","3.7","","2.8","","93","","","","24","","14","","24.1","","100.95","","","","","","Mainly Clear"
"-57.19","51.44","LOURDES DE BLANC SABLON A","7040815","2018-10-15 21:00","2018","10","15","21:00","3.8","","3.1","","95","","","","22","","15","","24.1","","100.91","","","","","","NA"
"-57.19","51.44","LOURDES DE BLANC SABLON A","7040815","2018-10-15 22:00","2018","10","15","22:00","4.2","","2.6","","89","","","","22","","23","","24.1","","100.89","","","","","","NA"
"-57.19","51.44","LOURDES DE BLANC SABLON A","7040815","2018-10-15 23:00","2018","10","15","23:00","4.4","","2.3","","86","","","","23","","23","","24.1","","100.88","","","","","","Mostly Cloudy"
"-57.19","51.44","LOURDES DE BLANC SABLON A","7040815","2018-10-16 00:00","2018","10","16","00:00","4.4","","2.4","","87","","","","23","","15","","24.1","","100.82","","","","","","NA"
"-57.19","51.44","LOURDES DE BLANC SABLON A","7040815","2018-10-16 01:00","2018","10","16","01:00","3.9","","2.2","","88","","","","20","","8","","24.1","","100.71","","","","","","NA"
"-57.19","51.44","LOURDES DE BLANC SABLON A","7040815","2018-10-16 02:00","2018","10","16","02:00","3.9","","2.5","","91","","","","17","","8","","24.1","","100.57","","","","","","Cloudy"
"-57.19","51.44","LOURDES DE BLANC SABLON A","7040815","2018-10-16 03:00","2018","10","16","03:00","3.9","","1.8","","86","","","","16","","7","","24.1","","100.36","","","","","","Rain"
"-57.19","51.44","LOURDES DE BLANC SABLON A","7040815","2018-10-16 04:00","2018","10","16","04:00","3.4","","2.3","","92","","","","11","","11","","24.1","","100.20","","","","","","Rain"
"-57.19","51.44","LOURDES DE BLANC SABLON A","7040815","2018-10-16 05:00","2018","10","16","05:00","3.2","","2.5","","95","","","","11","","29","","24.1","","100.02","","","","","","Rain"
"-57.19","51.44","LOURDES DE BLANC SABLON A","7040815","2018-10-16 06:00","2018","10","16","06:00","3.5","","2.6","","94","","","","11","","30","","24.1","","99.83","","","","","","Rain"
"-57.19","51.44","LOURDES DE BLANC SABLON A","7040815","2018-10-16 07:00","2018","10","16","07:00","3.5","","2.8","","95","","","","11","","36","","9.7","","99.48","","","","","","Rain,Fog"
"-57.19","51.44","LOURDES DE BLANC SABLON A","7040815","2018-10-16 08:00","2018","10","16","08:00","3.8","","3.2","","95","","","","10","","36","","6.4","","99.22","","","","","","Rain,Fog"
"-57.19","51.44","LOURDES DE BLANC SABLON A","7040815","2018-10-16 09:00","2018","10","16","09:00","4.3","","3.7","","96","","","","9","","43","","6.4","","98.77","","","","","","Rain,Fog"
"-57.19","51.44","LOURDES DE BLANC SABLON A","7040815","2018-10-16 10:00","2018","10","16","10:00","5.0","","4.5","","97","","","","9","","44","","4.8","","98.39","","","","","","Rain,Fog"
"-57.19","51.44","LOURDES DE BLANC SABLON A","7040815","2018-10-16 11:00","2018","10","16","11:00","5.6","","5.0","","96","","","","10","","39","","4.8","","97.99","","","","","","Rain,Fog"
"-57.19","51.44","LOURDES DE BLANC SABLON A","7040815","2018-10-16 12:00","2018","10","16","12:00","6.0","","5.3","","96","","","","9","","36","","4.8","","97.55","","","","","","Rain,Fog"
"-57.19","51.44","LOURDES DE BLANC SABLON A","7040815","2018-10-16 13:00","2018","10","16","13:00","6.5","","5.6","","94","","","","8","","36","","4.8","","97.06","","","","","","Rain,Fog"
"-57.19","51.44","LOURDES DE BLANC SABLON A","7040815","2018-10-16 14:00","2018","10","16","14:00","6.5","","6.0","","96","","","","6","","37","","4.0","","96.79","","","","","","Rain,Fog"
"-57.19","51.44","LOURDES DE BLANC SABLON A","7040815","2018-10-16 15:00","2018","10","16","15:00","6.8","","6.3","","96","","","","12","","27","","4.8","","96.63","","","","","","Rain,Fog"
"-57.19","51.44","LOURDES DE BLANC SABLON A","7040815","2018-10-16 16:00","2018","10","16","16:00","6.8","","6.6","","99","","","","18","","15","","3.2","","96.35","","","","","","Rain,Fog"
"-57.19","51.44","LOURDES DE BLANC SABLON A","7040815","2018-10-16 17:00","2018","10","16","17:00","5.1","","4.2","","94","","","","1","","31","","9.7","","96.36","","","","","","Rain,Fog"
"-57.19","51.44","LOURDES DE BLANC SABLON A","7040815","2018-10-16 18:00","2018","10","16","18:00","3.8","","2.6","","91","","","","31","","21","","24.1","","96.75","","","","","","Rain"
"-57.19","51.44","LOURDES DE BLANC SABLON A","7040815","2018-10-16 19:00","2018","10","16","19:00","3.6","","2.1","","90","","","","28","","24","","24.1","","97.06","","","","","","NA"
"-57.19","51.44","LOURDES DE BLANC SABLON A","7040815","2018-10-16 20:00","2018","10","16","20:00","3.2","","1.3","","87","","","","29","","33","","24.1","","97.35","","","","","","Rain"
"-57.19","51.44","LOURDES DE BLANC SABLON A","7040815","2018-10-16 21:00","2018","10","16","21:00","2.5","","1.0","","90","","","","29","","31","","24.1","","97.69","","","","","","NA"
"-57.19","51.44","LOURDES DE BLANC SABLON A","7040815","2018-10-16 22:00","2018","10","16","22:00","2.7","","0.8","","87","","","","29","","28","","24.1","","97.97","","","","","","Rain"
"-57.19","51.44","LOURDES DE BLANC SABLON A","7040815","2018-10-16 23:00","2018","10","16","23:00","3.0","","0.6","","84","","","","29","","30","","24.1","","98.21","","","","","","Cloudy"
"-57.19","51.44","LOURDES DE BLANC SABLON A","7040815","2018-10-17 00:00","2018","10","17","00:00","3.0","","0.3","","82","","","","28","","23","","24.1","","98.42","","","","","","NA"
"-57.19","51.44","LOURDES DE BLANC SABLON A","7040815","2018-10-17 01:00","2018","10","17","01:00","2.9","","0.4","","84","","","","27","","26","","24.1","","98.62","","","","","","NA"
"-57.19","51.44","LOURDES DE BLANC SABLON A","7040815","2018-10-17 02:00","2018","10","17","02:00","3.0","","0.3","","83","","","","28","","27","","24.1","","98.75","","","","","","Mostly Cloudy"
"-57.19","51.44","LOURDES DE BLANC SABLON A","7040815","2018-10-17 03:00","2018","10","17","03:00","3.0","","-0.2","","80","","","","28","","29","","24.1","","98.87","","","","","","NA"
"-57.19","51.44","LOURDES DE BLANC SABLON A","7040815","2018-10-17 04:00","2018","10","17","04:00","2.7","","-0.1","","81","","","","29","","21","","24.1","","99.00","","","","","","NA"
"-57.19","51.44","LOURDES DE BLANC SABLON A","7040815","2018-10-17 05:00","2018","10","17","05:00","2.7","","-0.4","","80","","","","28","","25","","24.1","","99.17","","","","","","Cloudy"
"-57.19","51.44","LOURDES DE BLANC SABLON A","7040815","2018-10-17 06:00","2018","10","17","06:00","2.4","","-0.6","","80","","","","28","","16","","24.1","","99.30","","","","","","NA"
"-57.19","51.44","LOURDES DE BLANC SABLON A","7040815","2018-10-17 07:00","2018","10","17","07:00","2.6","","-0.5","","80","","","","30","","10","","24.1","","99.40","","","","","","NA"
"-57.19","51.44","LOURDES DE BLANC SABLON A","7040815","2018-10-17 08:00","2018","10","17","08:00","3.5","","-0.5","","76","","","","25","","6","","24.1","","99.52","","","","","","Cloudy"
"-57.19","51.44","LOURDES DE BLANC SABLON A","7040815","2018-10-17 09:00","2018","10","17","09:00","4.6","","-0.8","","68","","","","33","","10","","24.1","","99.60","","","","","","NA"
"-57.19","51.44","LOURDES DE BLANC SABLON A","7040815","2018-10-17 10:00","2018","10","17","10:00","5.2","","-0.3","","68","","","","33","","12","","24.1","","99.67","","","","","","NA"
"-57.19","51.44","LOURDES DE BLANC SABLON A","7040815","2018-10-17 11:00","2018","10","17","11:00","4.9","","-1.3","","64","","","","33","","6","","24.1","","99.71","","","","","","Cloudy"
"-57.19","51.44","LOURDES DE BLANC SABLON A","7040815","2018-10-17 12:00","2018","10","17","12:00","4.6","","0.0","","72","","","","23","","18","","24.1","","99.73","","","","","","NA"
"-57.19","51.44","LOURDES DE BLANC SABLON A","7040815","2018-10-17 13:00","2018","10","17","13:00","4.4","","0.3","","75","","","","23","","16","","24.1","","99.76","","","","","","NA"
"-57.19","51.44","LOURDES DE BLANC SABLON A","7040815","2018-10-17 14:00","2018","10","17","14:00","3.9","","0.7","","80","","","","23","","15","","24.1","","99.81","","","","","","Rain"
"-57.19","51.44","LOURDES DE BLANC SABLON A","7040815","2018-10-17 15:00","2018","10","17","15:00","3.8","","0.6","","80","","","","24","","11","","24.1","","99.80","","","","","","Rain"
"-57.19","51.44","LOURDES DE BLANC SABLON A","7040815","2018-10-17 16:00","2018","10","17","16:00","3.5","","0.4","","80","","","","24","","9","","24.1","","99.85","","","","","","NA"
"-57.19","51.44","LOURDES DE BLANC SABLON A","7040815","2018-10-17 17:00","2018","10","17","17:00","3.4","","1.0","","85","","","","23","","12","","24.1","","99.90","","","","","","Rain"
"-57.19","51.44","LOURDES DE BLANC SABLON A","7040815","2018-10-17 18:00","2018","10","17","18:00","3.1","","1.2","","87","","","","23","","9","","24.1","","99.93","","","","","","Rain"
"-57.19","51.44","LOURDES DE BLANC SABLON A","7040815","2018-10-17 19:00","2018","10","17","19:00","2.2","","1.0","","92","","","","20","","4","","24.1","","99.94","","","","","","NA"
"-57.19","51.44","LOURDES DE BLANC SABLON A","7040815","2018-10-17 20:00","2018","10","17","20:00","1.2","","0.5","","95","","","","36","","3","","24.1","","99.94","","","","","","Mostly Cloudy"
"-57.19","51.44","LOURDES DE BLANC SABLON A","7040815","2018-10-17 21:00","2018","10","17","21:00","1.1","","0.4","","95","","","","6","","3","","24.1","","99.95","","","","","","NA"
"-57.19","51.44","LOURDES DE BLANC SABLON A","7040815","2018-10-17 22:00","2018","10","17","22:00","0.6","","0.1","","97","","","","6","","7","","24.1","","99.92","","","","","","NA"
"-57.19","51.44","LOURDES DE BLANC SABLON A","7040815","2018-10-17 23:00","2018","10","17","23:00","0.2","","-0.4","","96","","","","5","","8","","24.1","","99.84","","","","","","Mostly Cloudy"
"-57.19","51.44","LOURDES DE BLANC SABLON A","7040815","2018-10-18 00:00","2018","10","18","00:00","0.0","","-0.5","","97","","","","8","","6","","24.1","","99.79","","","","-2","","NA"
"-57.19","51.44","LOURDES DE BLANC SABLON A","7040815","2018-10-18 01:00","2018","10","18","01:00","0.6","","-0.1","","95","","","","5","","21","","24.1","","99.70","","","","","","NA"
"-57.19","51.44","LOURDES DE BLANC SABLON A","7040815","2018-10-18 02:00","2018","10","18","02:00","0.8","","0.1","","94","","","","7","","17","","24.1","","99.62","","","","","","Mostly Cloudy"
"-57.19","51.44","LOURDES DE BLANC SABLON A","7040815","2018-10-18 03:00","2018","10","18","03:00","1.0","","0.3","","95","","","","8","","16","","24.1","","99.58","","","","","","NA"
"-57.19","51.44","LOURDES DE BLANC SABLON A","7040815","2018-10-18 04:00","2018","10","18","04:00","1.5","","1.0","","96","","","","9","","23","","24.1","","99.55","","","","","","NA"
"-57.19","51.44","LOURDES DE BLANC SABLON A","7040815","2018-10-18 05:00","2018","10","18","05:00","1.9","","0.9","","93","","","","8","","28","","24.1","","99.49","","","","","","Cloudy"
"-57.19","51.44","LOURDES DE BLANC SABLON A","7040815","2018-10-18 06:00","2018","10","18","06:00","2.2","","0.9","","91","","","","9","","21","","24.1","","99.43","","","","","","NA"
"-57.19","51.44","LOURDES DE BLANC SABLON A","7040815","2018-10-18 07:00","2018","10","18","07:00","2.7","","1.4","","91","","","","9","","28","","24.1","","99.41","","","","","","NA"
"-57.19","51.44","LOURDES DE BLANC SABLON A","7040815","2018-10-18 08:00","2018","10","18","08:00","3.4","","1.6","","88","","","","9","","27","","24.1","","99.37","","","","","","Mostly Cloudy"
"-57.19","51.44","LOURDES DE BLANC SABLON A","7040815","2018-10-18 09:00","2018","10","18","09:00","4.3","","2.0","","85","","","","9","","34","","24.1","","99.30","","","","","","NA"
"-57.19","51.44","LOURDES DE BLANC SABLON A","7040815","2018-10-18 10:00","2018","10","18","10:00","4.8","","2.0","","83","","","","8","","36","","24.1","","99.21","","","","","","NA"
"-57.19","51.44","LOURDES DE BLANC SABLON A","7040815","2018-10-18 11:00","2018","10","18","11:00","4.7","","2.4","","85","","","","7","","31","","24.1","","99.15","","","","","","Rain"
"-57.19","51.44","LOURDES DE BLANC SABLON A","7040815","2018-10-18 12:00","2018","10","18","12:00","4.1","","2.0","","86","","","","7","","36","","24.1","","99.09","","","","","","Rain"
"-57.19","51.44","LOURDES DE BLANC SABLON A","7040815","2018-10-18 13:00","2018","10","18","13:00","4.2","","1.9","","85","","","","7","","35","","24.1","","99.02","","","","","","Rain"
"-57.19","51.44","LOURDES DE BLANC SABLON A","7040815","2018-10-18 14:00","2018","10","18","14:00","3.5","","1.9","","89","","","","7","","34","","24.1","","99.00","","","","","","Rain"
"-57.19","51.44","LOURDES DE BLANC SABLON A","7040815","2018-10-18 15:00","2018","10","18","15:00","3.1","","1.4","","88","","","","6","","33","","24.1","","98.96","","","","","","Rain"
"-57.19","51.44","LOURDES DE BLANC SABLON A","7040815","2018-10-18 16:00","2018","10","18","16:00","3.1","","1.1","","87","","","","6","","28","","24.1","","98.96","","","","","","NA"
"-57.19","51.44","LOURDES DE BLANC SABLON A","7040815","2018-10-18 17:00","2018","10","18","17:00","2.6","","0.4","","85","","","","5","","27","","24.1","","98.97","","","","","","Cloudy"
"-57.19","51.44","LOURDES DE BLANC SABLON A","7040815","2018-10-18 18:00","2018","10","18","18:00","2.5","","1.2","","91","","","","5","","25","","24.1","","98.99","","","","","","Rain"
"-57.19","51.44","LOURDES DE BLANC SABLON A","7040815","2018-10-18 19:00","2018","10","18","19:00","1.9","","1.0","","94","","","","4","","23","","24.1","","99.00","","","","","","Rain"
"-57.19","51.44","LOURDES DE BLANC SABLON A","7040815","2018-10-18 20:00","2018","10","18","20:00","2.0","","1.1","","94","","","","5","","25","","24.1","","99.02","","","","","","Rain"
"-57.19","51.44","LOURDES DE BLANC SABLON A","7040815","2018-10-18 21:00","2018","10","18","21:00","1.9","","0.9","","93","","","","6","","27","","24.1","","99.06","","","","","","Rain"
"-57.19","51.44","LOURDES DE BLANC SABLON A","7040815","2018-10-18 22:00","2018","10","18","22:00","2.1","","0.7","","91","","","","5","","28","","24.1","","99.08","","","","","","Rain"
"-57.19","51.44","LOURDES DE BLANC SABLON A","7040815","2018-10-18 23:00","2018","10","18","23:00","1.8","","0.6","","91","","","","5","","25","","16.1","","99.10","","","","","","Rain"
"-57.19","51.44","LOURDES DE BLANC SABLON A","7040815","2018-10-19 00:00","2018","10","19","00:00","1.8","","0.0","","88","","","","4","","23","","24.1","","99.17","","","","","","Rain"
"-57.19","51.44","LOURDES DE BLANC SABLON A","7040815","2018-10-19 01:00","2018","10","19","01:00","1.8","","-0.3","","86","","","","4","","21","","24.1","","99.24","","","","","","Rain"
"-57.19","51.44","LOURDES DE BLANC SABLON A","7040815","2018-10-19 02:00","2018","10","19","02:00","1.4","","-1.1","","84","","","","5","","31","","24.1","","99.32","","","","","","Rain"
"-57.19","51.44","LOURDES DE BLANC SABLON A","7040815","2018-10-19 03:00","2018","10","19","03:00","1.2","","-2.0","","79","","","","3","","21","","24.1","","99.42","","","","","","Rain"
"-57.19","51.44","LOURDES DE BLANC SABLON A","7040815","2018-10-19 04:00","2018","10","19","04:00","0.9","","-2.4","","78","","","","3","","20","","24.1","","99.53","","","","","","NA"
"-57.19","51.44","LOURDES DE BLANC SABLON A","7040815","2018-10-19 05:00","2018","10","19","05:00","0.8","","-2.8","","77","","","","3","","14","","24.1","","99.62","","","","","","Cloudy"
"-57.19","51.44","LOURDES DE BLANC SABLON A","7040815","2018-10-19 06:00","2018","10","19","06:00","0.3","","-3.3","","77","","","","2","","17","","24.1","","99.73","","","","","","NA"
"-57.19","51.44","LOURDES DE BLANC SABLON A","7040815","2018-10-19 07:00","2018","10","19","07:00","0.5","","-3.6","","74","","","","2","","14","","24.1","","99.85","","","","","","NA"
"-57.19","51.44","LOURDES DE BLANC SABLON A","7040815","2018-10-19 08:00","2018","10","19","08:00","1.2","","-3.2","","72","","","","1","","16","","24.1","","99.95","","","","","","Cloudy"
"-57.19","51.44","LOURDES DE BLANC SABLON A","7040815","2018-10-19 09:00","2018","10","19","09:00","1.8","","-3.5","","68","","","","1","","22","","24.1","","100.04","","","","","","NA"
"-57.19","51.44","LOURDES DE BLANC SABLON A","7040815","2018-10-19 10:00","2018","10","19","10:00","2.2","","-3.9","","64","","","","2","","21","","24.1","","100.10","","","","","","Snow"
"-57.19","51.44","LOURDES DE BLANC SABLON A","7040815","2018-10-19 11:00","2018","10","19","11:00","2.0","","-3.5","","67","","","","35","","17","","16.1","","100.18","","","","","","Snow"
"-57.19","51.44","LOURDES DE BLANC SABLON A","7040815","2018-10-19 12:00","2018","10","19","12:00","2.2","","-2.6","","71","","","","34","","12","","12.9","","100.21","","","","","","Snow"
"-57.19","51.44","LOURDES DE BLANC SABLON A","7040815","2018-10-19 13:00","2018","10","19","13:00","2.3","","-3.0","","68","","","","34","","14","","24.1","","100.25","","","","","","Snow"
"-57.19","51.44","LOURDES DE BLANC SABLON A","7040815","2018-10-19 14:00","2018","10","19","14:00","2.8","","-4.4","","59","","","","35","","7","","24.1","","100.29","","","","","","Mostly Cloudy"
"-57.19","51.44","LOURDES DE BLANC SABLON A","7040815","2018-10-19 15:00","2018","10","19","15:00","2.4","","-3.2","","67","","","","25","","12","","24.1","","100.36","","","","","","NA"
"-57.19","51.44","LOURDES DE BLANC SABLON A","7040815","2018-10-19 16:00","2018","10","19","16:00","2.2","","-2.7","","70","","","","26","","7","","24.1","","100.42","","","","","","NA"
"-57.19","51.44","LOURDES DE BLANC SABLON A","7040815","2018-10-19 17:00","2018","10","19","17:00","1.8","","-2.8","","71","","","","26","","5","","24.1","","100.51","","","","","","Cloudy"
"-57.19","51.44","LOURDES DE BLANC SABLON A","7040815","2018-10-19 18:00","2018","10","19","18:00","1.4","","-2.8","","74","","","","27","","5","","24.1","","100.60","","","","","","NA"
"-57.19","51.44","LOURDES DE BLANC SABLON A","7040815","2018-10-19 19:00","2018","10","19","19:00","1.0","","-1.9","","81","","","","5","","5","","24.1","","100.64","","","","","","NA"
"-57.19","51.44","LOURDES DE BLANC SABLON A","7040815","2018-10-19 20:00","2018","10","19","20:00","0.7","","-1.7","","84","","","","9","","4","","24.1","","100.68","","","","","","Cloudy"
"-57.19","51.44","LOURDES DE BLANC SABLON A","7040815","2018-10-19 21:00","2018","10","19","21:00","0.6","","-1.3","","87","","","","3","","8","","24.1","","100.74","","","","","","NA"
"-57.19","51.44","LOURDES DE BLANC SABLON A","7040815","2018-10-19 22:00","2018","10","19","22:00","0.6","","-1.4","","86","","","","6","","9","","24.1","","100.72","","","","","","Snow"
"-57.19","51.44","LOURDES DE BLANC SABLON A","7040815","2018-10-19 23:00","2018","10","19","23:00","0.4","","-1.5","","88","","","","7","","5","","24.1","","100.73","","","","","","Cloudy"
"-57.19","51.44","LOURDES DE BLANC SABLON A","7040815","2018-10-20 00:00","2018","10","20","00:00","0.4","","-1.4","","88","","","","9","","4","","24.1","","100.75","","","","","","Snow"
"-57.19","51.44","LOURDES DE BLANC SABLON A","7040815","2018-10-20 01:00","2018","10","20","01:00","0.3","","-2.0","","85","","","","7","","7","","24.1","","100.75","","","","","","Snow"
"-57.19","51.44","LOURDES DE BLANC SABLON A","7040815","2018-10-20 02:00","2018","10","20","02:00","0.8","","-1.6","","84","","","","7","","7","","24.1","","100.74","","","","","","Snow"
"-57.19","51.44","LOURDES DE BLANC SABLON A","7040815","2018-10-20 03:00","2018","10","20","03:00","1.8","","0.0","","88","","","","14","","13","","24.1","","100.74","","","","","","Snow"
"-57.19","51.44","LOURDES DE BLANC SABLON A","7040815","2018-10-20 04:00","2018","10","20","04:00","2.2","","0.5","","88","","","","17","","19","","24.1","","100.74","","","","","","Rain"
"-57.19","51.44","LOURDES DE BLANC SABLON A","7040815","2018-10-20 05:00","2018","10","20","05:00","1.9","","1.3","","96","","","","24","","12","","24.1","","100.76","","","","","","Rain"
"-57.19","51.44","LOURDES DE BLANC SABLON A","7040815","2018-10-20 06:00","2018","10","20","06:00","1.8","","-1.4","","79","","","","25","","30","","24.1","","100.83","","","","","","NA"
"-57.19","51.44","LOURDES DE BLANC SABLON A","7040815","2018-10-20 07:00","2018","10","20","07:00","2.0","","-1.9","","75","","","","26","","17","","24.1","","100.87","","","","","","NA"
"-57.19","51.44","LOURDES DE BLANC SABLON A","7040815","2018-10-20 08:00","2018","10","20","08:00","1.0","","0.0","","93","","","","25","","17","","4.8","","100.89","","","","","","Snow"
"-57.19","51.44","LOURDES DE BLANC SABLON A","7040815","2018-10-20 09:00","2018","10","20","09:00","1.3","","0.7","","96","","","","18","","4","","9.7","","100.86","","","","","","Snow"
"-57.19","51.44","LOURDES DE BLANC SABLON A","7040815","2018-10-20 10:00","2018","10","20","10:00","1.0","","0.6","","98","","","","16","","23","","24.1","","100.80","","","","","","Snow"
"-57.19","51.44","LOURDES DE BLANC SABLON A","7040815","2018-10-20 11:00","2018","10","20","11:00","0.7","","0.4","","98","","","","13","","27","","3.2","","100.69","","","","","","Snow"
"-57.19","51.44","LOURDES DE BLANC SABLON A","7040815","2018-10-20 12:00","2018","10","20","12:00","0.6","","0.4","","98","","","","12","","31","","4.0","","100.54","","","","","","Snow"
"-57.19","51.44","LOURDES DE BLANC SABLON A","7040815","2018-10-20 13:00","2018","10","20","13:00","2.4","","1.9","","97","","","","12","","28","","16.1","","100.40","","","","","","Rain"
"-57.19","51.44","LOURDES DE BLANC SABLON A","7040815","2018-10-20 14:00","2018","10","20","14:00","3.3","","2.5","","94","","","","12","","27","","24.1","","100.27","","","","","","Rain"
"-57.19","51.44","LOURDES DE BLANC SABLON A","7040815","2018-10-20 15:00","2018","10","20","15:00","3.8","","3.1","","95","","","","11","","30","","24.1","","100.13","","","","","","Rain"
"-57.19","51.44","LOURDES DE BLANC SABLON A","7040815","2018-10-20 16:00","2018","10","20","16:00","5.1","","3.8","","91","","","","13","","23","","24.1","","99.97","","","","","","NA"
"-57.19","51.44","LOURDES DE BLANC SABLON A","7040815","2018-10-20 17:00","2018","10","20","17:00","5.0","","4.2","","94","","","","12","","23","","12.9","","99.86","","","","","","Rain"
"-57.19","51.44","LOURDES DE BLANC SABLON A","7040815","2018-10-20 18:00","2018","10","20","18:00","6.9","","5.3","","90","","","","15","","32","","24.1","","99.82","","","","","","NA"
"-57.19","51.44","LOURDES DE BLANC SABLON A","7040815","2018-10-20 19:00","2018","10","20","19:00","6.4","","5.4","","94","","","","13","","26","","16.1","","99.70","","","","","","Rain"
"-57.19","51.44","LOURDES DE BLANC SABLON A","7040815","2018-10-20 20:00","2018","10","20","20:00","6.3","","5.6","","95","","","","13","","23","","16.1","","99.59","","","","","","Rain"
"-57.19","51.44","LOURDES DE BLANC SABLON A","7040815","2018-10-20 21:00","2018","10","20","21:00","8.1","","7.5","","96","","","","17","","28","","16.1","","99.48","","","","","","Rain"
"-57.19","51.44","LOURDES DE BLANC SABLON A","7040815","2018-10-20 22:00","2018","10","20","22:00","8.4","","8.0","","97","","","","17","","25","","12.9","","99.40","","","","","","Rain"
"-57.19","51.44","LOURDES DE BLANC SABLON A","7040815","2018-10-20 23:00","2018","10","20","23:00","8.9","","8.7","","99","","","","19","","26","","4.8","","99.36","","","","","","Rain,Fog"
"-57.19","51.44","LOURDES DE BLANC SABLON A","7040815","2018-10-21 00:00","2018","10","21","00:00","8.4","","8.2","","99","","","","22","","21","","3.2","","99.37","","","","","","Rain,Fog"
"-57.19","51.44","LOURDES DE BLANC SABLON A","7040815","2018-10-21 01:00","2018","10","21","01:00","7.8","","7.6","","99","","","","22","","15","","3.2","","99.30","","","","","","Rain,Fog"
"-57.19","51.44","LOURDES DE BLANC SABLON A","7040815","2018-10-21 02:00","2018","10","21","02:00","7.8","","7.7","","99","","","","23","","10","","3.2","","99.32","","","","","","Rain,Fog"
"-57.19","51.44","LOURDES DE BLANC SABLON A","7040815","2018-10-21 03:00","2018","10","21","03:00","7.5","","7.5","","100","","","","29","","3","","1.2","","99.21","","","","","","Rain,Fog"
"-57.19","51.44","LOURDES DE BLANC SABLON A","7040815","2018-10-21 04:00","2018","10","21","04:00","7.4","","7.3","","100","","","","36","","2","","1.2","","99.18","","","","","","Rain,Fog"
"-57.19","51.44","LOURDES DE BLANC SABLON A","7040815","2018-10-21 05:00","2018","10","21","05:00","7.6","","7.5","","100","","","","21","","5","","1.2","","99.14","","","","","","Rain,Fog"
"-57.19","51.44","LOURDES DE BLANC SABLON A","7040815","2018-10-21 06:00","2018","10","21","06:00","6.7","","6.7","","100","","","","25","","3","","1.6","","99.16","","","","","","Fog"
"-57.19","51.44","LOURDES DE BLANC SABLON A","7040815","2018-10-21 07:00","2018","10","21","07:00","7.0","","7.0","","100","","","","36","","2","","16.1","","99.21","","","","","","NA"
"-57.19","51.44","LOURDES DE BLANC SABLON A","7040815","2018-10-21 08:00","2018","10","21","08:00","7.4","","7.3","","99","","","","","","0","","16.1","","99.25","","","","","","Mostly Cloudy"
"-57.19","51.44","LOURDES DE BLANC SABLON A","7040815","2018-10-21 09:00","2018","10","21","09:00","8.2","","7.9","","98","","","","36","","3","","19.3","","99.27","","","","","","NA"
"-57.19","51.44","LOURDES DE BLANC SABLON A","7040815","2018-10-21 10:00","2018","10","21","10:00","8.6","","8.2","","97","","","","18","","14","","16.1","","99.27","","","","","","NA"
"-57.19","51.44","LOURDES DE BLANC SABLON A","7040815","2018-10-21 11:00","2018","10","21","11:00","7.5","","7.3","","99","","","","23","","16","","0.2","","99.32","","","","","","Fog"
"-57.19","51.44","LOURDES DE BLANC SABLON A","7040815","2018-10-21 12:00","2018","10","21","12:00","6.8","","6.8","","100","","","","25","","15","","0.2","","99.30","","","","","","Fog"
"-57.19","51.44","LOURDES DE BLANC SABLON A","7040815","2018-10-21 13:00","2018","10","21","13:00","7.5","","6.4","","93","","","","23","","12","","19.3","","99.32","","","","","","NA"
"-57.19","51.44","LOURDES DE BLANC SABLON A","7040815","2018-10-21 14:00","2018","10","21","14:00","7.6","","6.4","","92","","","","22","","17","","24.1","","99.34","","","","","","Mostly Cloudy"
"-57.19","51.44","LOURDES DE BLANC SABLON A","7040815","2018-10-21 15:00","2018","10","21","15:00","7.0","","5.2","","89","","","","25","","14","","24.1","","99.34","","","","","","NA"
"-57.19","51.44","LOURDES DE BLANC SABLON A","7040815","2018-10-21 16:00","2018","10","21","16:00","5.5","","3.8","","89","","","","23","","14","","24.1","","99.34","","","","","","NA"
"-57.19","51.44","LOURDES DE BLANC SABLON A","7040815","2018-10-21 17:00","2018","10","21","17:00","5.0","","3.4","","89","","","","22","","17","","24.1","","99.40","","","","","","Mostly Cloudy"
"-57.19","51.44","LOURDES DE BLANC SABLON A","7040815","2018-10-21 18:00","2018","10","21","18:00","4.9","","3.6","","91","","","","23","","18","","24.1","","99.47","","","","","","NA"
"-57.19","51.44","LOURDES DE BLANC SABLON A","7040815","2018-10-21 19:00","2018","10","21","19:00","4.7","","3.6","","92","","","","25","","12","","24.1","","99.38","","","","","","NA"
"-57.19","51.44","LOURDES DE BLANC SABLON A","7040815","2018-10-21 20:00","2018","10","21","20:00","4.4","","3.3","","93","","","","27","","11","","24.1","","99.38","","","","","","Mostly Cloudy"
"-57.19","51.44","LOURDES DE BLANC SABLON A","7040815","2018-10-21 21:00","2018","10","21","21:00","4.1","","3.0","","93","","","","9","","7","","24.1","","99.46","","","","","","NA"
"-57.19","51.44","LOURDES DE BLANC SABLON A","7040815","2018-10-21 22:00","2018","10","21","22:00","4.1","","2.9","","92","","","","36","","2","","24.1","","99.44","","","","","","NA"
"-57.19","51.44","LOURDES DE BLANC SABLON A","7040815","2018-10-21 23:00","2018","10","21","23:00","3.8","","2.8","","93","","","","36","","2","","24.1","","99.35","","","","","","Cloudy"
"-57.19","51.44","LOURDES DE BLANC SABLON A","7040815","2018-10-22 00:00","2018","10","22","00:00","2.8","","2.3","","96","","","","6","","6","","24.1","","99.32","","","","","","NA"
"-57.19","51.44","LOURDES DE BLANC SABLON A","7040815","2018-10-22 01:00","2018","10","22","01:00","2.1","","1.8","","98","","","","4","","8","","24.1","","99.31","","","","","","NA"
"-57.19","51.44","LOURDES DE BLANC SABLON A","7040815","2018-10-22 02:00","2018","10","22","02:00","1.8","","1.2","","96","","","","36","","1","","24.1","","99.35","","","","","","Mostly Cloudy"
"-57.19","51.44","LOURDES DE BLANC SABLON A","7040815","2018-10-22 03:00","2018","10","22","03:00","2.2","","1.8","","97","","","","36","","1","","24.1","","99.35","","","","","","NA"
"-57.19","51.44","LOURDES DE BLANC SABLON A","7040815","2018-10-22 04:00","2018","10","22","04:00","1.7","","1.4","","98","","","","3","","8","","24.1","","99.38","","","","","","NA"
"-57.19","51.44","LOURDES DE BLANC SABLON A","7040815","2018-10-22 05:00","2018","10","22","05:00","1.1","","0.8","","98","","","","36","","2","","24.1","","99.45","","","","","","Mostly Cloudy"
"-57.19","51.44","LOURDES DE BLANC SABLON A","7040815","2018-10-22 06:00","2018","10","22","06:00","2.1","","1.8","","98","","","","36","","1","","24.1","","99.50","","","","","","NA"
"-57.19","51.44","LOURDES DE BLANC SABLON A","7040815","2018-10-22 07:00","2018","10","22","07:00","2.4","","1.9","","97","","","","36","","1","","24.1","","99.56","","","","","","NA"
"-57.19","51.44","LOURDES DE BLANC SABLON A","7040815","2018-10-22 08:00","2018","10","22","08:00","3.0","","2.4","","96","","","","22","","5","","24.1","","99.61","","","","","","Cloudy"
"-57.19","51.44","LOURDES DE BLANC SABLON A","7040815","2018-10-22 09:00","2018","10","22","09:00","3.8","","2.4","","90","","","","24","","11","","24.1","","99.69","","","","","","NA"
"-57.19","51.44","LOURDES DE BLANC SABLON A","7040815","2018-10-22 10:00","2018","10","22","10:00","4.1","","1.5","","83","","","","22","","18","","24.1","","99.76","","","","","","NA"
"-57.19","51.44","LOURDES DE BLANC SABLON A","7040815","2018-10-22 11:00","2018","10","22","11:00","4.3","","1.3","","81","","","","23","","21","","24.1","","99.79","","","","","","Cloudy"
"-57.19","51.44","LOURDES DE BLANC SABLON A","7040815","2018-10-22 12:00","2018","10","22","12:00","4.2","","1.3","","82","","","","24","","17","","24.1","","99.82","","","","","","NA"
"-57.19","51.44","LOURDES DE BLANC SABLON A","7040815","2018-10-22 13:00","2018","10","22","13:00","4.2","","0.8","","79","","","","23","","20","","24.1","","99.88","","","","","","NA"
"-57.19","51.44","LOURDES DE BLANC SABLON A","7040815","2018-10-22 14:00","2018","10","22","14:00","4.3","","0.3","","75","","","","24","","22","","24.1","","99.93","","","","","","Mostly Cloudy"
"-57.19","51.44","LOURDES DE BLANC SABLON A","7040815","2018-10-22 15:00","2018","10","22","15:00","4.0","","0.3","","77","","","","24","","22","","24.1","","99.97","","","","","","NA"
"-57.19","51.44","LOURDES DE BLANC SABLON A","7040815","2018-10-22 16:00","2018","10","22","16:00","3.6","","0.4","","80","","","","24","","26","","24.1","","100.02","","","","","","NA"
"-57.19","51.44","LOURDES DE BLANC SABLON A","7040815","2018-10-22 17:00","2018","10","22","17:00","3.5","","-0.1","","77","","","","24","","30","","24.1","","100.09","","","","","","Cloudy"
"-57.19","51.44","LOURDES DE BLANC SABLON A","7040815","2018-10-22 18:00","2018","10","22","18:00","3.3","","-1.5","","71","","","","24","","31","","24.1","","100.16","","","","","","NA"
"-57.19","51.44","LOURDES DE BLANC SABLON A","7040815","2018-10-22 19:00","2018","10","22","19:00","3.1","","-0.3","","78","","","","24","","26","","24.1","","100.21","","","","","","NA"
"-57.19","51.44","LOURDES DE BLANC SABLON A","7040815","2018-10-22 20:00","2018","10","22","20:00","2.4","","0.0","","84","","","","23","","26","","24.1","","100.30","","","","","","Rain"
"-57.19","51.44","LOURDES DE BLANC SABLON A","7040815","2018-10-22 21:00","2018","10","22","21:00","1.5","","0.5","","93","","","","25","","33","","24.1","","100.34","","","","","","Rain,Snow"
"-57.19","51.44","LOURDES DE BLANC SABLON A","7040815","2018-10-22 22:00","2018","10","22","22:00","1.8","","0.9","","94","","","","26","","23","","24.1","","100.34","","","","","","Rain,Snow"
"-57.19","51.44","LOURDES DE BLANC SABLON A","7040815","2018-10-22 23:00","2018","10","22","23:00","2.6","","-0.5","","80","","","","24","","25","","24.1","","100.36","","","","","","Mostly Cloudy"
"-57.19","51.44","LOURDES DE BLANC SABLON A","7040815","2018-10-23 00:00","2018","10","23","00:00","2.7","","0.2","","83","","","","24","","22","","24.1","","100.40","","","","","","NA"
"-57.19","51.44","LOURDES DE BLANC SABLON A","7040815","2018-10-23 01:00","2018","10","23","01:00","2.3","","0.0","","85","","","","23","","25","","24.1","","100.42","","","","","","Snow"
"-57.19","51.44","LOURDES DE BLANC SABLON A","7040815","2018-10-23 02:00","2018","10","23","02:00","1.3","","-0.7","","87","","","","25","","12","","24.1","","100.43","","","","","","Mostly Cloudy"
"-57.19","51.44","LOURDES DE BLANC SABLON A","7040815","2018-10-23 03:00","2018","10","23","03:00","1.2","","0.2","","93","","","","24","","10","","24.1","","100.47","","","","","","NA"
"-57.19","51.44","LOURDES DE BLANC SABLON A","7040815","2018-10-23 04:00","2018","10","23","04:00","0.9","","-0.6","","90","","","","26","","11","","24.1","","100.50","","","","","","NA"
"-57.19","51.44","LOURDES DE BLANC SABLON A","7040815","2018-10-23 05:00","2018","10","23","05:00","1.4","","0.1","","91","","","","27","","12","","24.1","","100.57","","","","","","Cloudy"
"-57.19","51.44","LOURDES DE BLANC SABLON A","7040815","2018-10-23 06:00","2018","10","23","06:00","1.2","","0.3","","94","","","","27","","12","","24.1","","100.64","","","","","","NA"
"-57.19","51.44","LOURDES DE BLANC SABLON A","7040815","2018-10-23 07:00","2018","10","23","07:00","1.0","","0.1","","94","","","","28","","14","","24.1","","100.76","","","","","","NA"
"-57.19","51.44","LOURDES DE BLANC SABLON A","7040815","2018-10-23 08:00","2018","10","23","08:00","1.6","","0.4","","92","","","","27","","14","","24.1","","100.86","","","","","","Cloudy"
"-57.19","51.44","LOURDES DE BLANC SABLON A","7040815","2018-10-23 09:00","2018","10","23","09:00","2.1","","0.5","","89","","","","26","","15","","24.1","","100.97","","","","","","NA"
"-57.19","51.44","LOURDES DE BLANC SABLON A","7040815","2018-10-23 10:00","2018","10","23","10:00","4.0","","1.8","","85","","","","26","","18","","24.1","","101.05","","","","","","NA"
"-57.19","51.44","LOURDES DE BLANC SABLON A","7040815","2018-10-23 11:00","2018","10","23","11:00","4.5","","2.1","","85","","","","25","","18","","24.1","","101.12","","","","","","Mostly Cloudy"
"-57.19","51.44","LOURDES DE BLANC SABLON A","7040815","2018-10-23 12:00","2018","10","23","12:00","3.8","","0.7","","80","","","","24","","28","","24.1","","101.17","","","","","","NA"
"-57.19","51.44","LOURDES DE BLANC SABLON A","7040815","2018-10-23 13:00","2018","10","23","13:00","4.0","","1.1","","81","","","","24","","25","","24.1","","101.23","","","","","","NA"
"-57.19","51.44","LOURDES DE BLANC SABLON A","7040815","2018-10-23 14:00","2018","10","23","14:00","4.6","","1.4","","79","","","","24","","19","","24.1","","101.33","","","","","","Cloudy"
"-57.19","51.44","LOURDES DE BLANC SABLON A","7040815","2018-10-23 15:00","2018","10","23","15:00","4.0","","1.0","","81","","","","26","","18","","24.1","","101.43","","","","","","Rain"
"-57.19","51.44","LOURDES DE BLANC SABLON A","7040815","2018-10-23 16:00","2018","10","23","16:00","3.8","","1.6","","86","","","","27","","16","","24.1","","101.54","","","","","","Rain"
"-57.19","51.44","LOURDES DE BLANC SABLON A","7040815","2018-10-23 17:00","2018","10","23","17:00","3.1","","1.8","","91","","","","28","","11","","24.1","","101.66","","","","","","Cloudy"
"-57.19","51.44","LOURDES DE BLANC SABLON A","7040815","2018-10-23 18:00","2018","10","23","18:00","2.9","","1.4","","90","","","","1","","7","","24.1","","101.77","","","","","","Snow"
"-57.19","51.44","LOURDES DE BLANC SABLON A","7040815","2018-10-23 19:00","2018","10","23","19:00","2.3","","1.0","","91","","","","4","","8","","24.1","","101.84","","","","","","NA"
"-57.19","51.44","LOURDES DE BLANC SABLON A","7040815","2018-10-23 20:00","2018","10","23","20:00","1.9","","0.1","","88","","","","4","","10","","24.1","","101.93","","","","","","Mostly Cloudy"
"-57.19","51.44","LOURDES DE BLANC SABLON A","7040815","2018-10-23 21:00","2018","10","23","21:00","1.7","","-0.3","","86","","","","3","","15","","24.1","","102.02","","","","","","NA"
"-57.19","51.44","LOURDES DE BLANC SABLON A","7040815","2018-10-23 22:00","2018","10","23","22:00","1.1","","-0.8","","87","","","","36","","1","","24.1","","102.09","","","","","","NA"
"-57.19","51.44","LOURDES DE BLANC SABLON A","7040815","2018-10-23 23:00","2018","10","23","23:00","0.6","","-1.5","","86","","","","2","","8","","24.1","","102.16","","","","","","Mostly Cloudy"
"-57.19","51.44","LOURDES DE BLANC SABLON A","7040815","2018-10-24 00:00","2018","10","24","00:00","0.4","","-1.5","","87","","","","3","","14","","24.1","","102.19","","","","","","NA"
"-57.19","51.44","LOURDES DE BLANC SABLON A","7040815","2018-10-24 01:00","2018","10","24","01:00","0.7","","-1.3","","86","","","","4","","15","","24.1","","102.24","","","","","","NA"
"-57.19","51.44","LOURDES DE BLANC SABLON A","7040815","2018-10-24 02:00","2018","10","24","02:00","0.7","","-1.4","","86","","","","4","","14","","24.1","","102.30","","","","","","Mostly Cloudy"
"-57.19","51.44","LOURDES DE BLANC SABLON A","7040815","2018-10-24 03:00","2018","10","24","03:00","0.4","","-1.9","","85","","","","5","","14","","24.1","","102.31","","","","","","NA"
"-57.19","51.44","LOURDES DE BLANC SABLON A","7040815","2018-10-24 04:00","2018","10","24","04:00","0.5","","-1.8","","85","","","","8","","8","","24.1","","102.35","","","","","","NA"
"-57.19","51.44","LOURDES DE BLANC SABLON A","7040815","2018-10-24 05:00","2018","10","24","05:00","0.6","","-1.9","","83","","","","8","","18","","24.1","","102.42","","","","","","Cloudy"
"-57.19","51.44","LOURDES DE BLANC SABLON A","7040815","2018-10-24 06:00","2018","10","24","06:00","0.1","","-1.2","","91","","","","7","","18","","8.1","","102.46","","","","","","Snow"
"-57.19","51.44","LOURDES DE BLANC SABLON A","7040815","2018-10-24 07:00","2018","10","24","07:00","0.3","","-1.0","","91","","","","8","","27","","16.1","","102.50","","","","","","Snow"
"-57.19","51.44","LOURDES DE BLANC SABLON A","7040815","2018-10-24 08:00","2018","10","24","08:00","0.9","","-0.7","","89","","","","7","","29","","16.1","","102.52","","","","","","Mostly Cloudy"
"-57.19","51.44","LOURDES DE BLANC SABLON A","7040815","2018-10-24 09:00","2018","10","24","09:00","1.1","","0.0","","92","","","","7","","32","","4.8","","102.57","","","","","","Drizzle,Fog"
"-57.19","51.44","LOURDES DE BLANC SABLON A","7040815","2018-10-24 10:00","2018","10","24","10:00","1.6","","0.2","","91","","","","8","","32","","16.1","","102.57","","","","","","NA"
"-57.19","51.44","LOURDES DE BLANC SABLON A","7040815","2018-10-24 11:00","2018","10","24","11:00","2.3","","1.0","","91","","","","8","","32","","9.7","","102.52","","","","","","Fog"
"-57.19","51.44","LOURDES DE BLANC SABLON A","7040815","2018-10-24 12:00","2018","10","24","12:00","1.9","","1.0","","93","","","","8","","31","","4.8","","102.49","","","","","","Snow,Fog"
"-57.19","51.44","LOURDES DE BLANC SABLON A","7040815","2018-10-24 13:00","2018","10","24","13:00","1.8","","0.9","","93","","","","9","","35","","9.7","","102.41","","","","","","Rain,Fog"
"-57.19","51.44","LOURDES DE BLANC SABLON A","7040815","2018-10-24 14:00","2018","10","24","14:00","2.1","","1.1","","93","","","","8","","30","","16.1","","102.34","","","","","","Rain"
"-57.19","51.44","LOURDES DE BLANC SABLON A","7040815","2018-10-24 15:00","2018","10","24","15:00","2.1","","0.4","","89","","","","8","","33","","24.1","","102.26","","","","","","NA"
"-57.19","51.44","LOURDES DE BLANC SABLON A","7040815","2018-10-24 16:00","2018","10","24","16:00","2.0","","0.4","","89","","","","9","","27","","24.1","","102.34","","","","","","NA"
"-57.19","51.44","LOURDES DE BLANC SABLON A","7040815","2018-10-24 17:00","2018","10","24","17:00","1.8","","0.2","","89","","","","8","","33","","24.1","","102.32","","","","","","Cloudy"
"-57.19","51.44","LOURDES DE BLANC SABLON A","7040815","2018-10-24 18:00","2018","10","24","18:00","1.5","","0.5","","93","","","","8","","35","","16.1","","102.21","","","","","","Snow"
"-57.19","51.44","LOURDES DE BLANC SABLON A","7040815","2018-10-24 19:00","2018","10","24","19:00","1.1","","0.3","","95","","","","8","","36","","16.1","","102.12","","","","","","Snow"
"-57.19","51.44","LOURDES DE BLANC SABLON A","7040815","2018-10-24 20:00","2018","10","24","20:00","1.3","","0.6","","95","","","","7","","40","","19.3","","102.02","","","","","","Snow"
"-57.19","51.44","LOURDES DE BLANC SABLON A","7040815","2018-10-24 21:00","2018","10","24","21:00","1.7","","0.8","","94","","","","8","","40","","24.1","","101.94","","","","","","Snow"
"-57.19","51.44","LOURDES DE BLANC SABLON A","7040815","2018-10-24 22:00","2018","10","24","22:00","1.7","","0.9","","95","","","","8","","43","","24.1","","101.83","","","","","","Rain"
"-57.19","51.44","LOURDES DE BLANC SABLON A","7040815","2018-10-24 23:00","2018","10","24","23:00","1.2","","0.6","","95","","","","8","","46","","19.3","","101.70","","","","","","Snow"
"-57.19","51.44","LOURDES DE BLANC SABLON A","7040815","2018-10-25 00:00","2018","10","25","00:00","0.8","","0.2","","96","","","","8","","48","","16.1","","101.61","","","","","","Snow"
"-57.19","51.44","LOURDES DE BLANC SABLON A","7040815","2018-10-25 01:00","2018","10","25","01:00","0.8","","0.3","","96","","","","8","","44","","6.4","","101.44","","","","","","Snow"
"-57.19","51.44","LOURDES DE BLANC SABLON A","7040815","2018-10-25 02:00","2018","10","25","02:00","0.8","","0.1","","96","","","","8","","52","","6.4","","101.28","","","","","","Snow"
"-57.19","51.44","LOURDES DE BLANC SABLON A","7040815","2018-10-25 03:00","2018","10","25","03:00","0.5","","0.0","","97","","","","8","","45","","4.8","","101.24","","","","","","Snow"
"-57.19","51.44","LOURDES DE BLANC SABLON A","7040815","2018-10-25 04:00","2018","10","25","04:00","1.0","","0.4","","96","","","","8","","49","","6.4","","101.04","","","","","","Snow"
"-57.19","51.44","LOURDES DE BLANC SABLON A","7040815","2018-10-25 05:00","2018","10","25","05:00","2.0","","1.4","","95","","","","9","","48","","19.3","","100.91","","","","","","Rain"
"-57.19","51.44","LOURDES DE BLANC SABLON A","7040815","2018-10-25 06:00","2018","10","25","06:00","2.5","","1.5","","93","","","","9","","49","","24.1","","100.73","","","","","","NA"
"-57.19","51.44","LOURDES DE BLANC SABLON A","7040815","2018-10-25 07:00","2018","10","25","07:00","2.7","","2.0","","95","","","","8","","51","","3.2","","100.63","","","","","","Moderate Rain Showers,Fog"
"-57.19","51.44","LOURDES DE BLANC SABLON A","7040815","2018-10-25 08:00","2018","10","25","08:00","3.1","","2.5","","96","","","","8","","49","","4.8","","100.43","","","","","","Rain,Fog"
"-57.19","51.44","LOURDES DE BLANC SABLON A","7040815","2018-10-25 09:00","2018","10","25","09:00","3.5","","2.9","","96","","","","7","","47","","4.8","","100.32","","","","","","Rain,Fog"
"-57.19","51.44","LOURDES DE BLANC SABLON A","7040815","2018-10-25 10:00","2018","10","25","10:00","3.9","","3.4","","97","","","","8","","48","","3.2","","100.13","","","","","","Rain,Fog"
"-57.19","51.44","LOURDES DE BLANC SABLON A","7040815","2018-10-25 11:00","2018","10","25","11:00","4.0","","3.5","","97","","","","7","","50","","3.2","","99.82","","","","","","Rain,Fog"
"-57.19","51.44","LOURDES DE BLANC SABLON A","7040815","2018-10-25 12:00","2018","10","25","12:00","4.8","","4.2","","96","","","","9","","42","","4.8","","99.71","","","","","","Rain,Fog"
"-57.19","51.44","LOURDES DE BLANC SABLON A","7040815","2018-10-25 13:00","2018","10","25","13:00","4.9","","4.3","","96","","","","9","","46","","3.2","","99.56","","","","","","Rain,Fog"
"-57.19","51.44","LOURDES DE BLANC SABLON A","7040815","2018-10-25 14:00","2018","10","25","14:00","4.9","","4.4","","96","","","","8","","37","","4.8","","99.46","","","","","","Rain,Fog"
"-57.19","51.44","LOURDES DE BLANC SABLON A","7040815","2018-10-25 15:00","2018","10","25","15:00","4.9","","4.2","","96","","","","8","","31","","16.1","","99.30","","","","","","Rain"
"-57.19","51.44","LOURDES DE BLANC SABLON A","7040815","2018-10-25 16:00","2018","10","25","16:00","4.8","","4.3","","96","","","","7","","22","","16.1","","99.20","","","","","","Rain"
"-57.19","51.44","LOURDES DE BLANC SABLON A","7040815","2018-10-25 17:00","2018","10","25","17:00","4.8","","4.4","","97","","","","7","","19","","16.1","","99.17","","","","","","Cloudy"
"-57.19","51.44","LOURDES DE BLANC SABLON A","7040815","2018-10-25 18:00","2018","10","25","18:00","4.8","","4.3","","97","","","","7","","15","","24.1","","99.10","","","","","","NA"
"-57.19","51.44","LOURDES DE BLANC SABLON A","7040815","2018-10-25 19:00","2018","10","25","19:00","4.5","","4.2","","98","","","","6","","13","","24.1","","99.06","","","","","","NA"
"-57.19","51.44","LOURDES DE BLANC SABLON A","7040815","2018-10-25 20:00","2018","10","25","20:00","4.5","","4.2","","98","","","","5","","15","","24.1","","98.98","","","","","","Cloudy"
"-57.19","51.44","LOURDES DE BLANC SABLON A","7040815","2018-10-25 21:00","2018","10","25","21:00","4.2","","3.8","","97","","","","4","","11","","24.1","","98.92","","","","","","NA"
"-57.19","51.44","LOURDES DE BLANC SABLON A","7040815","2018-10-25 22:00","2018","10","25","22:00","4.5","","4.0","","97","","","","5","","9","","24.1","","98.85","","","","","","NA"
"-57.19","51.44","LOURDES DE BLANC SABLON A","7040815","2018-10-25 23:00","2018","10","25","23:00","4.6","","4.2","","97","","","","5","","10","","24.1","","98.78","","","","","","Cloudy"
"-57.19","51.44","LOURDES DE BLANC SABLON A","7040815","2018-10-26 00:00","2018","10","26","00:00","4.4","","3.9","","97","","","","36","","2","","24.1","","98.70","","","","","","NA"
"-57.19","51.44","LOURDES DE BLANC SABLON A","7040815","2018-10-26 01:00","2018","10","26","01:00","5.2","","4.8","","97","","","","24","","7","","9.7","","98.55","","","","","","Rain,Fog"
"-57.19","51.44","LOURDES DE BLANC SABLON A","7040815","2018-10-26 02:00","2018","10","26","02:00","4.6","","4.5","","99","","","","25","","7","","3.2","","98.49","","","","","","Rain,Fog"
"-57.19","51.44","LOURDES DE BLANC SABLON A","7040815","2018-10-26 03:00","2018","10","26","03:00","4.6","","4.5","","99","","","","27","","11","","3.2","","98.41","","","","","","Rain,Fog"
"-57.19","51.44","LOURDES DE BLANC SABLON A","7040815","2018-10-26 04:00","2018","10","26","04:00","4.3","","3.7","","95","","","","23","","23","","9.7","","98.37","","","","","","Rain,Fog"
"-57.19","51.44","LOURDES DE BLANC SABLON A","7040815","2018-10-26 05:00","2018","10","26","05:00","4.0","","2.4","","89","","","","23","","21","","12.9","","98.36","","","","","","Rain"
"-57.19","51.44","LOURDES DE BLANC SABLON A","7040815","2018-10-26 06:00","2018","10","26","06:00","3.7","","1.8","","88","","","","23","","21","","24.1","","98.29","","","","","","Rain"
"-57.19","51.44","LOURDES DE BLANC SABLON A","7040815","2018-10-26 07:00","2018","10","26","07:00","4.0","","1.8","","86","","","","21","","31","","9.7","","98.27","","","","","","Rain Showers"
"-57.19","51.44","LOURDES DE BLANC SABLON A","7040815","2018-10-26 08:00","2018","10","26","08:00","4.7","","2.8","","88","","","","21","","31","","12.9","","98.21","","","","","","Rain Showers"
"-57.19","51.44","LOURDES DE BLANC SABLON A","7040815","2018-10-26 09:00","2018","10","26","09:00","4.4","","2.9","","90","","","","21","","37","","16.1","","98.21","","","","","","Rain Showers"
"-57.19","51.44","LOURDES DE BLANC SABLON A","7040815","2018-10-26 10:00","2018","10","26","10:00","4.6","","3.0","","90","","","","21","","45","","16.1","","98.21","","","","","","Rain Showers"
"-57.19","51.44","LOURDES DE BLANC SABLON A","7040815","2018-10-26 11:00","2018","10","26","11:00","4.2","","2.9","","92","","","","22","","57","","12.9","","98.26","","","","","","Rain Showers"
"-57.19","51.44","LOURDES DE BLANC SABLON A","7040815","2018-10-26 12:00","2018","10","26","12:00","4.2","","2.6","","89","","","","22","","49","","12.9","","98.31","","","","","","Rain Showers"
"-57.19","51.44","LOURDES DE BLANC SABLON A","7040815","2018-10-26 13:00","2018","10","26","13:00","4.0","","1.8","","85","","","","22","","58","","16.1","","98.46","","","","","","Rain Showers"
"-57.19","51.44","LOURDES DE BLANC SABLON A","7040815","2018-10-26 14:00","2018","10","26","14:00","3.5","","1.7","","88","","","","22","","53","","16.1","","98.60","","","","","","Rain Showers"
"-57.19","51.44","LOURDES DE BLANC SABLON A","7040815","2018-10-26 15:00","2018","10","26","15:00","3.7","","0.7","","81","","","","22","","55","","16.1","","98.73","","","","","","Rain Showers"
"-57.19","51.44","LOURDES DE BLANC SABLON A","7040815","2018-10-26 16:00","2018","10","26","16:00","3.4","","0.7","","83","","","","22","","56","","16.1","","98.87","","","","","","Rain Showers"
"-57.19","51.44","LOURDES DE BLANC SABLON A","7040815","2018-10-26 17:00","2018","10","26","17:00","3.1","","0.9","","86","","","","23","","47","","16.1","","98.99","","","","","","Rain Showers"
"-57.19","51.44","LOURDES DE BLANC SABLON A","7040815","2018-10-26 18:00","2018","10","26","18:00","2.7","","0.9","","88","","","","23","","42","","16.1","","99.11","","","","","","Rain Showers"
"-57.19","51.44","LOURDES DE BLANC SABLON A","7040815","2018-10-26 19:00","2018","10","26","19:00","2.4","","1.1","","91","","","","22","","41","","12.9","","99.21","","","","","","Rain Showers"
"-57.19","51.44","LOURDES DE BLANC SABLON A","7040815","2018-10-26 20:00","2018","10","26","20:00","2.4","","1.0","","90","","","","23","","46","","16.1","","99.33","","","","","","Rain Showers"
"-57.19","51.44","LOURDES DE BLANC SABLON A","7040815","2018-10-26 21:00","2018","10","26","21:00","2.3","","1.5","","95","","","","24","","39","","12.9","","99.47","","","","","","Rain Showers"
"-57.19","51.44","LOURDES DE BLANC SABLON A","7040815","2018-10-26 22:00","2018","10","26","22:00","2.4","","0.6","","88","","","","26","","33","","16.1","","99.63","","","","","","Rain"
"-57.19","51.44","LOURDES DE BLANC SABLON A","7040815","2018-10-26 23:00","2018","10","26","23:00","1.5","","-0.4","","87","","","","27","","27","","24.1","","99.81","","","","","","Cloudy"
"-57.19","51.44","LOURDES DE BLANC SABLON A","7040815","2018-10-27 00:00","2018","10","27","00:00","0.9","","-0.8","","88","","","","28","","18","","24.1","","100.01","","","","","","NA"
"-57.19","51.44","LOURDES DE BLANC SABLON A","7040815","2018-10-27 01:00","2018","10","27","01:00","0.3","","-1.0","","91","","","","28","","14","","12.9","","100.23","","","","","","Snow"
"-57.19","51.44","LOURDES DE BLANC SABLON A","7040815","2018-10-27 02:00","2018","10","27","02:00","0.0","","-2.4","","84","","","","28","","24","","24.1","","100.41","","","","-6","","Mostly Cloudy"
"-57.19","51.44","LOURDES DE BLANC SABLON A","7040815","2018-10-27 03:00","2018","10","27","03:00","-0.7","","-3.2","","84","","","","27","","18","","24.1","","100.59","","","","-6","","NA"
"-57.19","51.44","LOURDES DE BLANC SABLON A","7040815","2018-10-27 04:00","2018","10","27","04:00","-1.3","","-4.1","","81","","","","28","","21","","24.1","","100.75","","","","-7","","NA"
"-57.19","51.44","LOURDES DE BLANC SABLON A","7040815","2018-10-27 05:00","2018","10","27","05:00","-1.0","","-3.8","","82","","","","26","","22","","24.1","","100.91","","","","-7","","Mostly Cloudy"
"-57.19","51.44","LOURDES DE BLANC SABLON A","7040815","2018-10-27 06:00","2018","10","27","06:00","-1.4","","-4.5","","80","","","","27","","23","","24.1","","101.03","","","","-7","","NA"
"-57.19","51.44","LOURDES DE BLANC SABLON A","7040815","2018-10-27 07:00","2018","10","27","07:00","-1.4","","-3.2","","87","","","","26","","27","","6.4","","101.18","","","","-8","","Freezing Rain,Fog"
"-57.19","51.44","LOURDES DE BLANC SABLON A","7040815","2018-10-27 08:00","2018","10","27","08:00","-1.0","","-3.0","","86","","","","26","","31","","9.7","","101.32","","","","-8","","Snow"
"-57.19","51.44","LOURDES DE BLANC SABLON A","7040815","2018-10-27 09:00","2018","10","27","09:00","-1.1","","-3.8","","82","","","","26","","36","","24.1","","101.40","","","","-9","","NA"
"-57.19","51.44","LOURDES DE BLANC SABLON A","7040815","2018-10-27 10:00","2018","10","27","10:00","-0.9","","-5.8","","70","","","","27","","31","","24.1","","101.45","","","","-8","","NA"
"-57.19","51.44","LOURDES DE BLANC SABLON A","7040815","2018-10-27 11:00","2018","10","27","11:00","-1.6","","-6.8","","67","","","","27","","33","","24.1","","101.55","","","","-9","","Cloudy"
"-57.19","51.44","LOURDES DE BLANC SABLON A","7040815","2018-10-27 12:00","2018","10","27","12:00","-1.6","","-6.3","","70","","","","26","","26","","24.1","","101.66","","","","-8","","NA"
"-57.19","51.44","LOURDES DE BLANC SABLON A","7040815","2018-10-27 13:00","2018","10","27","13:00","-0.9","","-7.8","","59","","","","26","","45","","24.1","","101.75","","","","-9","","NA"
"-57.19","51.44","LOURDES DE BLANC SABLON A","7040815","2018-10-27 14:00","2018","10","27","14:00","-1.2","","-9.2","","55","","","","26","","40","","24.1","","101.94","","","","-9","","Mainly Clear"
"-57.19","51.44","LOURDES DE BLANC SABLON A","7040815","2018-10-27 15:00","2018","10","27","15:00","-2.2","","-11.8","","48","","","","28","","31","","24.1","","102.11","","","","-9","","NA"
"-57.19","51.44","LOURDES DE BLANC SABLON A","7040815","2018-10-27 16:00","2018","10","27","16:00","-2.1","","-11.3","","50","","","","26","","30","","24.1","","102.27","","","","-9","","NA"
"-57.19","51.44","LOURDES DE BLANC SABLON A","7040815","2018-10-27 17:00","2018","10","27","17:00","-2.3","","-11.3","","50","","","","27","","28","","24.1","","102.34","","","","-9","","Mainly Clear"
"-57.19","51.44","LOURDES DE BLANC SABLON A","7040815","2018-10-27 18:00","2018","10","27","18:00","-2.1","","-11.3","","50","","","","28","","33","","24.1","","102.42","","","","-10","","NA"
"-57.19","51.44","LOURDES DE BLANC SABLON A","7040815","2018-10-27 19:00","2018","10","27","19:00","-2.1","","-10.3","","53","","","","27","","30","","24.1","","102.52","","","","-9","","NA"
"-57.19","51.44","LOURDES DE BLANC SABLON A","7040815","2018-10-27 20:00","2018","10","27","20:00","-2.8","","-9.9","","58","","","","28","","22","","24.1","","102.64","","","","-9","","Mainly Clear"
"-57.19","51.44","LOURDES DE BLANC SABLON A","7040815","2018-10-27 21:00","2018","10","27","21:00","-2.7","","-10.9","","54","","","","27","","30","","24.1","","102.71","","","","-10","","NA"
"-57.19","51.44","LOURDES DE BLANC SABLON A","7040815","2018-10-27 22:00","2018","10","27","22:00","-3.1","","-10.0","","59","","","","26","","22","","24.1","","102.81","","","","-9","","NA"
"-57.19","51.44","LOURDES DE BLANC SABLON A","7040815","2018-10-27 23:00","2018","10","27","23:00","-3.5","","-9.8","","62","","","","28","","19","","24.1","","102.83","","","","-9","","Clear"
"-57.19","51.44","LOURDES DE BLANC SABLON A","7040815","2018-10-28 00:00","2018","10","28","00:00","-4.0","","-9.8","","65","","","","28","","14","","24.1","","102.87","","","","-9","","NA"
"-57.19","51.44","LOURDES DE BLANC SABLON A","7040815","2018-10-28 01:00","2018","10","28","01:00","-4.8","","-9.5","","70","","","","27","","15","","24.1","","102.90","","","","-10","","NA"
"-57.19","51.44","LOURDES DE BLANC SABLON A","7040815","2018-10-28 02:00","2018","10","28","02:00","-5.3","","-9.4","","73","","","","26","","12","","24.1","","102.94","","","","-10","","Clear"
"-57.19","51.44","LOURDES DE BLANC SABLON A","7040815","2018-10-28 03:00","2018","10","28","03:00","-5.3","","-9.7","","71","","","","27","","9","","24.1","","103.01","","","","-9","","NA"
"-57.19","51.44","LOURDES DE BLANC SABLON A","7040815","2018-10-28 04:00","2018","10","28","04:00","-5.6","","-9.4","","75","","","","31","","10","","24.1","","103.00","","","","-10","","NA"
"-57.19","51.44","LOURDES DE BLANC SABLON A","7040815","2018-10-28 05:00","2018","10","28","05:00","-5.7","","-9.5","","75","","","","30","","12","","24.1","","103.02","","","","-11","","Mostly Cloudy"
"-57.19","51.44","LOURDES DE BLANC SABLON A","7040815","2018-10-28 06:00","2018","10","28","06:00","-5.9","","-9.3","","77","","","","36","","7","","24.1","","103.01","","","","-9","","NA"
"-57.19","51.44","LOURDES DE BLANC SABLON A","7040815","2018-10-28 07:00","2018","10","28","07:00","-6.3","","-9.8","","76","","","","35","","9","","24.1","","103.04","","","","-11","","NA"
"-57.19","51.44","LOURDES DE BLANC SABLON A","7040815","2018-10-28 08:00","2018","10","28","08:00","-4.9","","-9.6","","70","","","","34","","5","","24.1","","103.09","","","","-7","","Cloudy"
"-57.19","51.44","LOURDES DE BLANC SABLON A","7040815","2018-10-28 09:00","2018","10","28","09:00","-4.3","","-9.9","","65","","","","1","","11","","24.1","","103.02","","","","-9","","NA"
"-57.19","51.44","LOURDES DE BLANC SABLON A","7040815","2018-10-28 10:00","2018","10","28","10:00","-3.2","","-9.3","","63","","","","4","","3","","24.1","","103.03","","","","-4","","NA"
"-57.19","51.44","LOURDES DE BLANC SABLON A","7040815","2018-10-28 11:00","2018","10","28","11:00","-2.0","","-8.4","","61","","","","3","","6","","24.1","","102.95","","","","-4","","Cloudy"
"-57.19","51.44","LOURDES DE BLANC SABLON A","7040815","2018-10-28 12:00","2018","10","28","12:00","-1.0","","-11.2","","46","","","","6","","9","","24.1","","102.90","","","","-4","","NA"
"-57.19","51.44","LOURDES DE BLANC SABLON A","7040815","2018-10-28 13:00","2018","10","28","13:00","-0.9","","-8.9","","55","","","","8","","18","","24.1","","102.87","","","","-6","","NA"
"-57.19","51.44","LOURDES DE BLANC SABLON A","7040815","2018-10-28 14:00","2018","10","28","14:00","-0.9","","-9.2","","54","","","","8","","21","","24.1","","102.76","","","","-7","","Cloudy"
"-57.19","51.44","LOURDES DE BLANC SABLON A","7040815","2018-10-28 15:00","2018","10","28","15:00","-0.7","","-7.6","","60","","","","7","","27","","24.1","","102.61","","","","-7","","NA"
"-57.19","51.44","LOURDES DE BLANC SABLON A","7040815","2018-10-28 16:00","2018","10","28","16:00","-0.1","","-5.9","","65","","","","8","","28","","24.1","","102.53","","","","-6","","NA"
"-57.19","51.44","LOURDES DE BLANC SABLON A","7040815","2018-10-28 17:00","2018","10","28","17:00","0.2","","-5.2","","67","","","","9","","37","","24.1","","102.47","","","","","","Cloudy"
"-57.19","51.44","LOURDES DE BLANC SABLON A","7040815","2018-10-28 18:00","2018","10","28","18:00","0.4","","-3.9","","73","","","","9","","33","","24.1","","102.36","","","","","","NA"
"-57.19","51.44","LOURDES DE BLANC SABLON A","7040815","2018-10-28 19:00","2018","10","28","19:00","0.8","","-2.7","","78","","","","9","","41","","24.1","","102.30","","","","","","NA"
"-57.19","51.44","LOURDES DE BLANC SABLON A","7040815","2018-10-28 20:00","2018","10","28","20:00","0.4","","-0.7","","93","","","","9","","38","","24.1","","102.18","","","","","","Rain"
"-57.19","51.44","LOURDES DE BLANC SABLON A","7040815","2018-10-28 21:00","2018","10","28","21:00","0.6","","-0.3","","94","","","","9","","37","","24.1","","102.04","","","","","","Rain"
"-57.19","51.44","LOURDES DE BLANC SABLON A","7040815","2018-10-28 22:00","2018","10","28","22:00","0.7","","0.0","","95","","","","9","","43","","24.1","","101.91","","","","","","Rain"
"-57.19","51.44","LOURDES DE BLANC SABLON A","7040815","2018-10-28 23:00","2018","10","28","23:00","0.9","","0.2","","95","","","","9","","39","","6.4","","101.80","","","","","","Rain"
"-57.19","51.44","LOURDES DE BLANC SABLON A","7040815","2018-10-29 00:00","2018","10","29","00:00","1.1","","0.4","","95","","","","8","","47","","8.1","","101.58","","","","","","Rain"
"-57.19","51.44","LOURDES DE BLANC SABLON A","7040815","2018-10-29 01:00","2018","10","29","01:00","1.3","","0.7","","96","","","","8","","42","","8.1","","101.43","","","","","","Rain"
"-57.19","51.44","LOURDES DE BLANC SABLON A","7040815","2018-10-29 02:00","2018","10","29","02:00","1.5","","1.0","","96","","","","8","","46","","8.1","","101.27","","","","","","Rain"
"-57.19","51.44","LOURDES DE BLANC SABLON A","7040815","2018-10-29 03:00","2018","10","29","03:00","2.0","","1.5","","96","","","","8","","47","","6.4","","101.04","","","","","","Rain"
"-57.19","51.44","LOURDES DE BLANC SABLON A","7040815","2018-10-29 04:00","2018","10","29","04:00","2.7","","2.0","","95","","","","8","","38","","9.7","","100.94","","","","","","Rain"
"-57.19","51.44","LOURDES DE BLANC SABLON A","7040815","2018-10-29 05:00","2018","10","29","05:00","2.6","","2.0","","95","","","","8","","37","","6.4","","100.73","","","","","","Rain"
"-57.19","51.44","LOURDES DE BLANC SABLON A","7040815","2018-10-29 06:00","2018","10","29","06:00","3.0","","2.4","","96","","","","8","","33","","6.4","","100.55","","","","","","Rain"
"-57.19","51.44","LOURDES DE BLANC SABLON A","7040815","2018-10-29 07:00","2018","10","29","07:00","3.2","","2.7","","97","","","","7","","29","","6.4","","100.44","","","","","","Rain,Fog"
"-57.19","51.44","LOURDES DE BLANC SABLON A","7040815","2018-10-29 08:00","2018","10","29","08:00","3.5","","3.0","","97","","","","7","","28","","9.7","","100.28","","","","","","Rain,Fog"
"-57.19","51.44","LOURDES DE BLANC SABLON A","7040815","2018-10-29 09:00","2018","10","29","09:00","3.4","","2.7","","95","","","","5","","16","","16.1","","100.17","","","","","","Rain"
"-57.19","51.44","LOURDES DE BLANC SABLON A","7040815","2018-10-29 10:00","2018","10","29","10:00","3.4","","2.6","","95","","","","4","","20","","12.9","","100.17","","","","","","Rain"
"-57.19","51.44","LOURDES DE BLANC SABLON A","7040815","2018-10-29 11:00","2018","10","29","11:00","3.8","","3.0","","95","","","","3","","16","","2.4","","100.21","","","","","","Rain,Fog"
"-57.19","51.44","LOURDES DE BLANC SABLON A","7040815","2018-10-29 12:00","2018","10","29","12:00","5.7","","4.6","","93","","","","4","","15","","24.1","","100.12","","","","","","NA"
"-57.19","51.44","LOURDES DE BLANC SABLON A","7040815","2018-10-29 13:00","2018","10","29","13:00","6.9","","5.2","","89","","","","23","","5","","24.1","","100.24","","","","","","NA"
"-57.19","51.44","LOURDES DE BLANC SABLON A","7040815","2018-10-29 14:00","2018","10","29","14:00","5.4","","5.0","","98","","","","27","","9","","3.2","","100.23","","","","","","Drizzle,Fog"
"-57.19","51.44","LOURDES DE BLANC SABLON A","7040815","2018-10-29 15:00","2018","10","29","15:00","5.1","","4.8","","98","","","","25","","3","","2.4","","100.34","","","","","","Drizzle,Fog"
"-57.19","51.44","LOURDES DE BLANC SABLON A","7040815","2018-10-29 16:00","2018","10","29","16:00","4.2","","4.1","","99","","","","9","","8","","3.2","","100.44","","","","","","Drizzle,Fog"
"-57.19","51.44","LOURDES DE BLANC SABLON A","7040815","2018-10-29 17:00","2018","10","29","17:00","4.1","","4.0","","99","","","","10","","9","","4.8","","100.49","","","","","","Drizzle,Fog"
"-57.19","51.44","LOURDES DE BLANC SABLON A","7040815","2018-10-29 18:00","2018","10","29","18:00","4.0","","4.0","","99","","","","9","","5","","3.2","","100.51","","","","","","Drizzle,Fog"
"-57.19","51.44","LOURDES DE BLANC SABLON A","7040815","2018-10-29 19:00","2018","10","29","19:00","4.0","","4.0","","99","","","","8","","8","","4.8","","100.49","","","","","","Drizzle,Fog"
"-57.19","51.44","LOURDES DE BLANC SABLON A","7040815","2018-10-29 20:00","2018","10","29","20:00","4.2","","4.1","","99","","","","9","","13","","4.8","","100.48","","","","","","Drizzle,Fog"
"-57.19","51.44","LOURDES DE BLANC SABLON A","7040815","2018-10-29 21:00","2018","10","29","21:00","4.7","","4.4","","98","","","","8","","10","","4.0","","100.49","","","","","","Drizzle,Fog"
"-57.19","51.44","LOURDES DE BLANC SABLON A","7040815","2018-10-29 22:00","2018","10","29","22:00","4.7","","4.6","","99","","","","9","","4","","3.2","","100.46","","","","","","Rain,Fog"
"-57.19","51.44","LOURDES DE BLANC SABLON A","7040815","2018-10-29 23:00","2018","10","29","23:00","4.8","","4.7","","99","","","","8","","7","","4.0","","100.41","","","","","","Rain,Fog"
"-57.19","51.44","LOURDES DE BLANC SABLON A","7040815","2018-10-30 00:00","2018","10","30","00:00","5.0","","4.9","","99","","","","6","","7","","3.2","","100.38","","","","","","Rain,Fog"
"-57.19","51.44","LOURDES DE BLANC SABLON A","7040815","2018-10-30 01:00","2018","10","30","01:00","4.9","","4.7","","99","","","","9","","9","","4.0","","100.40","","","","","","Rain,Fog"
"-57.19","51.44","LOURDES DE BLANC SABLON A","7040815","2018-10-30 02:00","2018","10","30","02:00","4.4","","4.0","","97","","","","9","","12","","4.8","","100.35","","","","","","Rain,Fog"
"-57.19","51.44","LOURDES DE BLANC SABLON A","7040815","2018-10-30 03:00","2018","10","30","03:00","4.2","","3.7","","96","","","","6","","14","","8.1","","100.31","","","","","","Drizzle,Fog"
"-57.19","51.44","LOURDES DE BLANC SABLON A","7040815","2018-10-30 04:00","2018","10","30","04:00","4.3","","4.0","","98","","","","5","","13","","4.8","","100.30","","","","","","Rain Showers,Fog"
"-57.19","51.44","LOURDES DE BLANC SABLON A","7040815","2018-10-30 05:00","2018","10","30","05:00","4.2","","3.8","","97","","","","7","","16","","6.4","","100.31","","","","","","Rain Showers,Fog"
"-57.19","51.44","LOURDES DE BLANC SABLON A","7040815","2018-10-30 06:00","2018","10","30","06:00","4.2","","3.8","","97","","","","5","","13","","9.7","","100.23","","","","","","Rain,Fog"
"-57.19","51.44","LOURDES DE BLANC SABLON A","7040815","2018-10-30 07:00","2018","10","30","07:00","4.3","","4.0","","97","","","","8","","7","","24.1","","100.26","","","","","","Rain"
"-57.19","51.44","LOURDES DE BLANC SABLON A","7040815","2018-10-30 08:00","2018","10","30","08:00","5.1","","4.7","","97","","","","5","","5","","24.1","","100.26","","","","","","Cloudy"
"-57.19","51.44","LOURDES DE BLANC SABLON A","7040815","2018-10-30 09:00","2018","10","30","09:00","5.8","","5.2","","96","","","","10","","5","","16.1","","100.26","","","","","","NA"
"-57.19","51.44","LOURDES DE BLANC SABLON A","7040815","2018-10-30 10:00","2018","10","30","10:00","7.0","","6.0","","94","","","","17","","5","","24.1","","100.25","","","","","","Rain"
"-57.19","51.44","LOURDES DE BLANC SABLON A","7040815","2018-10-30 11:00","2018","10","30","11:00","6.8","","5.7","","93","","","","20","","10","","24.1","","100.24","","","","","","Cloudy"
"-57.19","51.44","LOURDES DE BLANC SABLON A","7040815","2018-10-30 12:00","2018","10","30","12:00","7.4","","5.9","","90","","","","25","","10","","24.1","","100.19","","","","","","NA"
"-57.19","51.44","LOURDES DE BLANC SABLON A","7040815","2018-10-30 13:00","2018","10","30","13:00","6.7","","4.6","","86","","","","30","","8","","24.1","","100.14","","","","","","NA"
"-57.19","51.44","LOURDES DE BLANC SABLON A","7040815","2018-10-30 14:00","2018","10","30","14:00","7.3","","4.7","","83","","","","33","","7","","24.1","","100.13","","","","","","Mostly Cloudy"
"-57.19","51.44","LOURDES DE BLANC SABLON A","7040815","2018-10-30 15:00","2018","10","30","15:00","7.4","","4.5","","82","","","","1","","3","","24.1","","100.16","","","","","","NA"
"-57.19","51.44","LOURDES DE BLANC SABLON A","7040815","2018-10-30 16:00","2018","10","30","16:00","5.8","","4.7","","92","","","","36","","2","","24.1","","100.14","","","","","","NA"
"-57.19","51.44","LOURDES DE BLANC SABLON A","7040815","2018-10-30 17:00","2018","10","30","17:00","4.8","","3.3","","91","","","","36","","5","","24.1","","100.11","","","","","","Mostly Cloudy"
"-57.19","51.44","LOURDES DE BLANC SABLON A","7040815","2018-10-30 18:00","2018","10","30","18:00","4.5","","2.9","","89","","","","36","","10","","24.1","","100.18","","","","","","NA"
"-57.19","51.44","LOURDES DE BLANC SABLON A","7040815","2018-10-30 19:00","2018","10","30","19:00","4.5","","3.2","","91","","","","7","","5","","24.1","","100.20","","","","","","NA"
"-57.19","51.44","LOURDES DE BLANC SABLON A","7040815","2018-10-30 20:00","2018","10","30","20:00","4.4","","3.4","","93","","","","4","","6","","24.1","","100.25","","","","","","Cloudy"
"-57.19","51.44","LOURDES DE BLANC SABLON A","7040815","2018-10-30 21:00","2018","10","30","21:00","4.5","","3.1","","91","","","","3","","13","","24.1","","100.26","","","","","","NA"
"-57.19","51.44","LOURDES DE BLANC SABLON A","7040815","2018-10-30 22:00","2018","10","30","22:00","4.0","","2.2","","88","","","","2","","12","","24.1","","100.26","","","","","","NA"
"-57.19","51.44","LOURDES DE BLANC SABLON A","7040815","2018-10-30 23:00","2018","10","30","23:00","3.8","","1.9","","88","","","","2","","14","","24.1","","100.24","","","","","","Cloudy"
"-57.19","51.44","LOURDES DE BLANC SABLON A","7040815","2018-10-31 00:00","2018","10","31","00:00","3.7","","1.7","","87","","","","2","","15","","24.1","","100.25","","","","","","NA"
"-57.19","51.44","LOURDES DE BLANC SABLON A","7040815","2018-10-31 01:00","2018","10","31","01:00","3.5","","1.7","","88","","","","1","","10","","24.1","","100.25","","","","","","NA"
"-57.19","51.44","LOURDES DE BLANC SABLON A","7040815","2018-10-31 02:00","2018","10","31","02:00","3.2","","1.4","","88","","","","2","","14","","24.1","","100.29","","","","","","Cloudy"
"-57.19","51.44","LOURDES DE BLANC SABLON A","7040815","2018-10-31 03:00","2018","10","31","03:00","3.3","","1.4","","88","","","","4","","16","","24.1","","100.32","","","","","","NA"
"-57.19","51.44","LOURDES DE BLANC SABLON A","7040815","2018-10-31 04:00","2018","10","31","04:00","3.3","","1.5","","88","","","","3","","20","","24.1","","100.38","","","","","","NA"
"-57.19","51.44","LOURDES DE BLANC SABLON A","7040815","2018-10-31 05:00","2018","10","31","05:00","3.5","","1.1","","84","","","","3","","17","","24.1","","100.44","","","","","","Cloudy"
"-57.19","51.44","LOURDES DE BLANC SABLON A","7040815","2018-10-31 06:00","2018","10","31","06:00","3.5","","0.8","","83","","","","3","","15","","24.1","","100.48","","","","","","NA"
"-57.19","51.44","LOURDES DE BLANC SABLON A","7040815","2018-10-31 07:00","2018","10","31","07:00","3.3","","0.8","","84","","","","4","","30","","24.1","","100.51","","","","","","NA"
"-57.19","51.44","LOURDES DE BLANC SABLON A","7040815","2018-10-31 08:00","2018","10","31","08:00","3.5","","1.1","","84","","","","4","","31","","24.1","","100.59","","","","","","Cloudy"
"-57.19","51.44","LOURDES DE BLANC SABLON A","7040815","2018-10-31 09:00","2018","10","31","09:00","3.7","","1.5","","85","","","","6","","28","","24.1","","100.64","","","","","","NA"
"-57.19","51.44","LOURDES DE BLANC SABLON A","7040815","2018-10-31 10:00","2018","10","31","10:00","3.8","","1.9","","87","","","","5","","26","","24.1","","100.72","","","","","","NA"
"-57.19","51.44","LOURDES DE BLANC SABLON A","7040815","2018-10-31 11:00","2018","10","31","11:00","3.9","","1.9","","87","","","","4","","24","","24.1","","100.78","","","","","","Cloudy"
"-57.19","51.44","LOURDES DE BLANC SABLON A","7040815","2018-10-31 12:00","2018","10","31","12:00","3.9","","2.1","","88","","","","5","","23","","16.1","","100.77","","","","","","Rain"
"-57.19","51.44","LOURDES DE BLANC SABLON A","7040815","2018-10-31 13:00","2018","10","31","13:00","4.1","","2.3","","88","","","","6","","23","","16.1","","100.78","","","","","","Rain"
"-57.19","51.44","LOURDES DE BLANC SABLON A","7040815","2018-10-31 14:00","2018","10","31","14:00","3.6","","2.2","","91","","","","6","","23","","12.9","","100.84","","","","","","Rain"
"-57.19","51.44","LOURDES DE BLANC SABLON A","7040815","2018-10-31 15:00","2018","10","31","15:00","3.2","","1.6","","89","","","","6","","21","","16.1","","100.92","","","","","","Rain"
"-57.19","51.44","LOURDES DE BLANC SABLON A","7040815","2018-10-31 16:00","2018","10","31","16:00","2.7","","1.5","","91","","","","6","","19","","16.1","","101.00","","","","","","Rain"
"-57.19","51.44","LOURDES DE BLANC SABLON A","7040815","2018-10-31 17:00","2018","10","31","17:00","2.4","","1.3","","92","","","","7","","14","","16.1","","101.06","","","","","","Rain"
"-57.19","51.44","LOURDES DE BLANC SABLON A","7040815","2018-10-31 18:00","2018","10","31","18:00","2.0","","0.7","","91","","","","7","","16","","24.1","","101.07","","","","","","NA"
"-57.19","51.44","LOURDES DE BLANC SABLON A","7040815","2018-10-31 19:00","2018","10","31","19:00","2.1","","0.4","","88","","","","6","","17","","24.1","","101.08","","","","","","NA"
"-57.19","51.44","LOURDES DE BLANC SABLON A","7040815","2018-10-31 20:00","2018","10","31","20:00","1.9","","0.2","","88","","","","7","","11","","24.1","","101.08","","","","","","Cloudy"
"-57.19","51.44","LOURDES DE BLANC SABLON A","7040815","2018-10-31 21:00","2018","10","31","21:00","1.8","","0.1","","88","","","","6","","11","","24.1","","101.11","","","","","","NA"
"-57.19","51.44","LOURDES DE BLANC SABLON A","7040815","2018-10-31 22:00","2018","10","31","22:00","1.7","","0.0","","89","","","","6","","15","","24.1","","101.07","","","","","","NA"
"-57.19","51.44","LOURDES DE BLANC SABLON A","7040815","2018-10-31 23:00","2018","10","31","23:00","1.7","","-0.2","","87","","","","6","","19","","24.1","","101.05","","","","","","Cloudy"
