"Longitude (x)","Latitude (y)","Station Name","Climate ID","Date/Time (LST)","Year","Month","Day","Time (LST)","Temp (°C)","Temp Flag","Dew Point Temp (°C)","Dew Point Temp Flag","Rel Hum (%)","Rel Hum Flag","Precip. Amount (mm)","Precip. Amount Flag","Wind Dir (10s deg)","Wind Dir Flag","Wind Spd (km/h)","Wind Spd Flag","Visibility (km)","Visibility Flag","Stn Press (kPa)","Stn Press Flag","Hmdx","Hmdx Flag","Wind Chill","Wind Chill Flag","Weather"
"-79.91","44.27","BORDEN AWOS","611B002","2020-09-01 00:00","2020","09","01","00:00","12.5","","11.3","","92","","","","","","0","","14.5","","98.69","","","","","","NA"
"-79.91","44.27","BORDEN AWOS","611B002","2020-09-01 01:00","2020","09","01","01:00","12.3","","11.1","","92","","","","","","0","","14.5","","98.69","","","","","","NA"
"-79.91","44.27","BORDEN AWOS","611B002","2020-09-01 02:00","2020","09","01","02:00","11.5","","10.5","","94","","","","","","0","","14.5","","98.69","","","","","","NA"
"-79.91","44.27","BORDEN AWOS","611B002","2020-09-01 03:00","2020","09","01","03:00","11.0","","10.0","","94","","","","20","","4","","5.6","","98.69","","","","","","NA"
"-79.91","44.27","BORDEN AWOS","611B002","2020-09-01 04:00","2020","09","01","04:00","12.3","","11.5","","95","","","","17","","4","","6.4","","98.68","","","","","","NA"
"-79.91","44.27","BORDEN AWOS","611B002","2020-09-01 05:00","2020","09","01","05:00","12.5","","11.9","","96","","","","","","0","","0.3","","98.70","","","","","","NA"
"-79.91","44.27","BORDEN AWOS","611B002","2020-09-01 06:00","2020","09","01","06:00","13.2","","12.4","","95","","","","17","","4","","0.3","","98.76","","","","","","NA"
"-79.91","44.27","BORDEN AWOS","611B002","2020-09-01 07:00","2020","09","01","07:00","17.2","","16.0","","93","","","","16","","6","","11.3","","98.76","","","","","","NA"
"-79.91","44.27","BORDEN AWOS","611B002","2020-09-01 08:00","2020","09","01","08:00","18.9","","16.7","","87","","","","16","","9","","14.5","","98.77","","","","","","NA"
"-79.91","44.27","BORDEN AWOS","611B002","2020-09-01 09:00","2020","09","01","09:00","22.4","","17.5","","74","","","","18","","11","","14.5","","98.76","","28","","","","NA"
"-79.91","44.27","BORDEN AWOS","611B002","2020-09-01 10:00","2020","09","01","10:00","24.7","","18.2","","67","","","","18","","7","","14.5","","98.78","","31","","","","NA"
"-79.91","44.27","BORDEN AWOS","611B002","2020-09-01 11:00","2020","09","01","11:00","25.8","","17.1","","59","","","","22","","17","","14.5","","98.74","","31","","","","NA"
"-79.91","44.27","BORDEN AWOS","611B002","2020-09-01 12:00","2020","09","01","12:00","26.9","","14.9","","48","","","","17","","15","","14.5","","98.67","","31","","","","NA"
"-79.91","44.27","BORDEN AWOS","611B002","2020-09-01 13:00","2020","09","01","13:00","28.0","","15.0","","45","","","","19","","15","","14.5","","98.66","","32","","","","NA"
"-79.91","44.27","BORDEN AWOS","611B002","2020-09-01 14:00","2020","09","01","14:00"
"-79.91","44.27","BORDEN AWOS","611B002","2020-09-01 15:00","2020","09","01","15:00","27.5","","15.6","","48","","","","19","","9","","14.5","","98.62","","32","","","","NA"
"-79.91","44.27","BORDEN AWOS","611B002","2020-09-01 16:00","2020","09","01","16:00","27.7","","16.7","","51","","","","16","","15","","14.5","","98.57","","33","","","","NA"
"-79.91","44.27","BORDEN AWOS","611B002","2020-09-01 17:00","2020","09","01","17:00","25.3","","17.8","","63","","","","14","","11","","14.5","","98.56","","31","","","","NA"
"-79.91","44.27","BORDEN AWOS","611B002","2020-09-01 18:00","2020","09","01","18:00","24.6","","17.6","","65","","","","16","","17","","14.5","","98.52","","30","","","","NA"
"-79.91","44.27","BORDEN AWOS","611B002","2020-09-01 19:00","2020","09","01","19:00","23.3","","17.5","","70","","","","15","","17","","14.5","","98.51","","29","","","","NA"
"-79.91","44.27","BORDEN AWOS","611B002","2020-09-01 20:00","2020","09","01","20:00","22.2","","17.5","","75","","","","15","","15","","14.5","","98.51","","28","","","","NA"
"-79.91","44.27","BORDEN AWOS","611B002","2020-09-01 21:00","2020","09","01","21:00","21.7","","17.7","","78","","","","15","","11","","14.5","","98.49","","27","","","","NA"
"-79.91","44.27","BORDEN AWOS","611B002","2020-09-01 22:00","2020","09","01","22:00","21.3","","17.7","","80","","","","16","","9","","14.5","","98.45","","27","","","","NA"
"-79.91","44.27","BORDEN AWOS","611B002","2020-09-01 23:00","2020","09","01","23:00","21.6","","17.6","","78","","","","20","","9","","14.5","","98.46","","27","","","","Rain"
"-79.91","44.27","BORDEN AWOS","611B002","2020-09-02 00:00","2020","09","02","00:00","20.0","","17.8","","87","","","","15","","13","","9.7","","98.40","","26","","","","Moderate Rain"
"-79.91","44.27","BORDEN AWOS","611B002","2020-09-02 01:00","2020","09","02","01:00","20.2","","18.3","","89","","","","18","","11","","14.5","","98.31","","26","","","","Rain"
"-79.91","44.27","BORDEN AWOS","611B002","2020-09-02 02:00","2020","09","02","02:00","19.5","","17.8","","90","","","","16","","13","","14.5","","98.16","","","","","","NA"
"-79.91","44.27","BORDEN AWOS","611B002","2020-09-02 03:00","2020","09","02","03:00","19.1","","17.5","","90","","","","16","","17","","14.5","","98.11","","","","","","Rain"
"-79.91","44.27","BORDEN AWOS","611B002","2020-09-02 04:00","2020","09","02","04:00","19.9","","18.3","","91","","","","16","","19","","14.5","","97.99","","","","","","NA"
"-79.91","44.27","BORDEN AWOS","611B002","2020-09-02 05:00","2020","09","02","05:00","20.6","","19.0","","91","","","","17","","20","","14.5","","97.95","","27","","","","NA"
"-79.91","44.27","BORDEN AWOS","611B002","2020-09-02 06:00","2020","09","02","06:00","20.4","","18.9","","91","","","","17","","17","","14.5","","97.93","","27","","","","NA"
"-79.91","44.27","BORDEN AWOS","611B002","2020-09-02 07:00","2020","09","02","07:00","21.2","","19.7","","91","","","","16","","19","","11.3","","97.83","","29","","","","NA"
"-79.91","44.27","BORDEN AWOS","611B002","2020-09-02 08:00","2020","09","02","08:00","22.2","","20.3","","89","","","","16","","17","","14.5","","97.81","","30","","","","NA"
"-79.91","44.27","BORDEN AWOS","611B002","2020-09-02 09:00","2020","09","02","09:00","23.4","","20.0","","81","","","","19","","33","","14.5","","97.78","","31","","","","NA"
"-79.91","44.27","BORDEN AWOS","611B002","2020-09-02 10:00","2020","09","02","10:00"
"-79.91","44.27","BORDEN AWOS","611B002","2020-09-02 11:00","2020","09","02","11:00","27.0","","19.8","","65","","","","23","","26","","14.5","","97.70","","34","","","","NA"
"-79.91","44.27","BORDEN AWOS","611B002","2020-09-02 12:00","2020","09","02","12:00","22.7","","19.6","","83","","","","24","","19","","14.5","","97.71","","30","","","","Rain"
"-79.91","44.27","BORDEN AWOS","611B002","2020-09-02 13:00","2020","09","02","13:00","22.5","","20.0","","86","","","","25","","17","","14.5","","97.72","","30","","","","Rain"
"-79.91","44.27","BORDEN AWOS","611B002","2020-09-02 14:00","2020","09","02","14:00","23.0","","18.7","","77","","","","26","","19","","14.5","","97.77","","30","","","","NA"
"-79.91","44.27","BORDEN AWOS","611B002","2020-09-02 15:00","2020","09","02","15:00","24.9","","15.8","","57","","","","28","","24","","14.5","","97.80","","29","","","","NA"
"-79.91","44.27","BORDEN AWOS","611B002","2020-09-02 16:00","2020","09","02","16:00","25.1","","14.1","","51","","","","29","","17","","14.5","","97.87","","29","","","","NA"
"-79.91","44.27","BORDEN AWOS","611B002","2020-09-02 17:00","2020","09","02","17:00","24.3","","13.8","","52","","","","28","","17","","14.5","","97.93","","28","","","","NA"
"-79.91","44.27","BORDEN AWOS","611B002","2020-09-02 18:00","2020","09","02","18:00","23.0","","14.4","","58","","","","28","","9","","14.5","","97.98","","27","","","","NA"
"-79.91","44.27","BORDEN AWOS","611B002","2020-09-02 19:00","2020","09","02","19:00","18.6","","14.8","","79","","","","","","0","","14.5","","98.05","","","","","","NA"
"-79.91","44.27","BORDEN AWOS","611B002","2020-09-02 20:00","2020","09","02","20:00","16.5","","14.3","","87","","","","22","","6","","14.5","","98.15","","","","","","NA"
"-79.91","44.27","BORDEN AWOS","611B002","2020-09-02 21:00","2020","09","02","21:00","15.9","","13.3","","85","","","","24","","9","","14.5","","98.23","","","","","","NA"
"-79.91","44.27","BORDEN AWOS","611B002","2020-09-02 22:00","2020","09","02","22:00","14.5","","13.0","","91","","","","31","","4","","14.5","","98.31","","","","","","NA"
"-79.91","44.27","BORDEN AWOS","611B002","2020-09-02 23:00","2020","09","02","23:00"
"-79.91","44.27","BORDEN AWOS","611B002","2020-09-03 00:00","2020","09","03","00:00","12.5","","11.4","","93","","","","19","","4","","14.5","","98.43","","","","","","NA"
"-79.91","44.27","BORDEN AWOS","611B002","2020-09-03 01:00","2020","09","03","01:00","12.1","","10.7","","91","","","","21","","6","","14.5","","98.42","","","","","","NA"
"-79.91","44.27","BORDEN AWOS","611B002","2020-09-03 02:00","2020","09","03","02:00"
"-79.91","44.27","BORDEN AWOS","611B002","2020-09-03 03:00","2020","09","03","03:00","10.3","","9.7","","96","","","","","","0","","1.0","","98.37","","","","","","NA"
"-79.91","44.27","BORDEN AWOS","611B002","2020-09-03 04:00","2020","09","03","04:00"
"-79.91","44.27","BORDEN AWOS","611B002","2020-09-03 05:00","2020","09","03","05:00","9.2","","8.4","","95","","","","","","0","","1.6","","98.34","","","","","","NA"
"-79.91","44.27","BORDEN AWOS","611B002","2020-09-03 06:00","2020","09","03","06:00","9.7","","8.9","","95","","","","","","0","","0.8","","98.36","","","","","","NA"
"-79.91","44.27","BORDEN AWOS","611B002","2020-09-03 07:00","2020","09","03","07:00","10.9","","9.8","","93","","","","","","0","","6.4","","98.37","","","","","","NA"
"-79.91","44.27","BORDEN AWOS","611B002","2020-09-03 08:00","2020","09","03","08:00","16.7","","14.1","","85","","","","21","","9","","14.5","","98.32","","","","","","NA"
"-79.91","44.27","BORDEN AWOS","611B002","2020-09-03 09:00","2020","09","03","09:00","21.2","","13.3","","61","","","","19","","15","","14.5","","98.27","","","","","","NA"
"-79.91","44.27","BORDEN AWOS","611B002","2020-09-03 10:00","2020","09","03","10:00","23.0","","11.7","","49","","","","19","","19","","14.5","","98.19","","25","","","","NA"
"-79.91","44.27","BORDEN AWOS","611B002","2020-09-03 11:00","2020","09","03","11:00","24.4","","10.8","","42","","","","17","","26","","14.5","","98.09","","26","","","","NA"
"-79.91","44.27","BORDEN AWOS","611B002","2020-09-03 12:00","2020","09","03","12:00","25.2","","11.1","","41","","","","16","","30","","14.5","","97.96","","27","","","","NA"
"-79.91","44.27","BORDEN AWOS","611B002","2020-09-03 13:00","2020","09","03","13:00","26.4","","12.1","","41","","","","20","","20","","14.5","","97.85","","29","","","","NA"
"-79.91","44.27","BORDEN AWOS","611B002","2020-09-03 14:00","2020","09","03","14:00","27.3","","13.1","","42","","","","20","","33","","14.5","","97.69","","30","","","","NA"
"-79.91","44.27","BORDEN AWOS","611B002","2020-09-03 15:00","2020","09","03","15:00","27.4","","14.1","","44","","","","21","","31","","14.5","","97.62","","31","","","","NA"
"-79.91","44.27","BORDEN AWOS","611B002","2020-09-03 16:00","2020","09","03","16:00","27.2","","14.1","","45","","","","22","","26","","14.5","","97.53","","31","","","","NA"
"-79.91","44.27","BORDEN AWOS","611B002","2020-09-03 17:00","2020","09","03","17:00","26.4","","14.4","","48","","","","20","","24","","14.5","","97.47","","30","","","","NA"
"-79.91","44.27","BORDEN AWOS","611B002","2020-09-03 18:00","2020","09","03","18:00"
"-79.91","44.27","BORDEN AWOS","611B002","2020-09-03 19:00","2020","09","03","19:00","19.3","","16.3","","83","","","","27","","15","","14.5","","97.66","","","","","","Rain"
"-79.91","44.27","BORDEN AWOS","611B002","2020-09-03 20:00","2020","09","03","20:00","18.5","","15.0","","80","","","","28","","11","","14.5","","97.79","","","","","","NA"
"-79.91","44.27","BORDEN AWOS","611B002","2020-09-03 21:00","2020","09","03","21:00","17.0","","12.6","","75","","","","31","","11","","14.5","","97.95","","","","","","NA"
"-79.91","44.27","BORDEN AWOS","611B002","2020-09-03 22:00","2020","09","03","22:00","16.2","","11.1","","72","","","","31","","9","","14.5","","98.04","","","","","","NA"
"-79.91","44.27","BORDEN AWOS","611B002","2020-09-03 23:00","2020","09","03","23:00","15.2","","10.0","","71","","","","30","","13","","14.5","","98.11","","","","","","NA"
"-79.91","44.27","BORDEN AWOS","611B002","2020-09-04 00:00","2020","09","04","00:00","13.5","","9.3","","76","","","","28","","9","","14.5","","98.18","","","","","","NA"
"-79.91","44.27","BORDEN AWOS","611B002","2020-09-04 01:00","2020","09","04","01:00","11.3","","8.7","","84","","","","29","","6","","14.5","","98.23","","","","","","NA"
"-79.91","44.27","BORDEN AWOS","611B002","2020-09-04 02:00","2020","09","04","02:00","10.1","","8.2","","88","","","","17","","6","","14.5","","98.28","","","","","","NA"
"-79.91","44.27","BORDEN AWOS","611B002","2020-09-04 03:00","2020","09","04","03:00","11.8","","9.8","","88","","","","23","","11","","14.5","","98.34","","","","","","NA"
"-79.91","44.27","BORDEN AWOS","611B002","2020-09-04 04:00","2020","09","04","04:00","11.4","","9.3","","87","","","","28","","6","","14.5","","98.41","","","","","","NA"
"-79.91","44.27","BORDEN AWOS","611B002","2020-09-04 05:00","2020","09","04","05:00","10.7","","8.7","","87","","","","26","","6","","14.5","","98.48","","","","","","NA"
"-79.91","44.27","BORDEN AWOS","611B002","2020-09-04 06:00","2020","09","04","06:00","8.7","","7.0","","89","","","","19","","9","","14.5","","98.54","","","","","","NA"
"-79.91","44.27","BORDEN AWOS","611B002","2020-09-04 07:00","2020","09","04","07:00"
"-79.91","44.27","BORDEN AWOS","611B002","2020-09-04 08:00","2020","09","04","08:00","15.6","","12.8","","83","","","","27","","13","","","M","98.67","","","","","","NA"
"-79.91","44.27","BORDEN AWOS","611B002","2020-09-04 09:00","2020","09","04","09:00","17.4","","13.7","","79","","","","28","","19","","","M","98.72","","","","","","NA"
"-79.91","44.27","BORDEN AWOS","611B002","2020-09-04 10:00","2020","09","04","10:00","18.6","","13.5","","72","","","","26","","20","","","M","98.73","","","","","","NA"
"-79.91","44.27","BORDEN AWOS","611B002","2020-09-04 11:00","2020","09","04","11:00","20.4","","8.2","","45","","","","26","","28","","14.5","","98.75","","","","","","NA"
"-79.91","44.27","BORDEN AWOS","611B002","2020-09-04 12:00","2020","09","04","12:00","20.9","","5.7","","37","","","","28","","22","","14.5","","98.77","","","","","","NA"
"-79.91","44.27","BORDEN AWOS","611B002","2020-09-04 13:00","2020","09","04","13:00","20.9","","6.6","","39","","","","30","","17","","14.5","","98.79","","","","","","NA"
"-79.91","44.27","BORDEN AWOS","611B002","2020-09-04 14:00","2020","09","04","14:00","20.8","","5.5","","37","","","","28","","22","","14.5","","98.82","","","","","","NA"
"-79.91","44.27","BORDEN AWOS","611B002","2020-09-04 15:00","2020","09","04","15:00","21.6","","5.7","","36","","","","27","","24","","14.5","","98.83","","","","","","NA"
"-79.91","44.27","BORDEN AWOS","611B002","2020-09-04 16:00","2020","09","04","16:00","20.1","","6.9","","42","","","","30","","30","","14.5","","98.89","","","","","","NA"
"-79.91","44.27","BORDEN AWOS","611B002","2020-09-04 17:00","2020","09","04","17:00","19.1","","7.3","","46","","","","27","","19","","14.5","","98.94","","","","","","NA"
"-79.91","44.27","BORDEN AWOS","611B002","2020-09-04 18:00","2020","09","04","18:00","18.1","","7.2","","49","","","","27","","11","","14.5","","98.97","","","","","","NA"
"-79.91","44.27","BORDEN AWOS","611B002","2020-09-04 19:00","2020","09","04","19:00","14.5","","7.8","","64","","","","22","","4","","14.5","","98.99","","","","","","NA"
"-79.91","44.27","BORDEN AWOS","611B002","2020-09-04 20:00","2020","09","04","20:00","10.8","","7.1","","78","","","","21","","7","","14.5","","99.04","","","","","","NA"
"-79.91","44.27","BORDEN AWOS","611B002","2020-09-04 21:00","2020","09","04","21:00","10.5","","7.1","","80","","","","22","","9","","14.5","","99.10","","","","","","NA"
"-79.91","44.27","BORDEN AWOS","611B002","2020-09-04 22:00","2020","09","04","22:00","9.4","","7.2","","86","","","","29","","4","","14.5","","99.14","","","","","","NA"
"-79.91","44.27","BORDEN AWOS","611B002","2020-09-04 23:00","2020","09","04","23:00","8.4","","5.9","","84","","","","17","","13","","14.5","","99.19","","","","","","NA"
"-79.91","44.27","BORDEN AWOS","611B002","2020-09-05 00:00","2020","09","05","00:00","7.9","","5.9","","87","","","","","","0","","14.5","","99.21","","","","","","NA"
"-79.91","44.27","BORDEN AWOS","611B002","2020-09-05 01:00","2020","09","05","01:00","7.0","","5.2","","88","","","","","","0","","14.5","","99.25","","","","","","NA"
"-79.91","44.27","BORDEN AWOS","611B002","2020-09-05 02:00","2020","09","05","02:00","7.2","","4.8","","85","","","","19","","6","","14.5","","99.26","","","","","","NA"
"-79.91","44.27","BORDEN AWOS","611B002","2020-09-05 03:00","2020","09","05","03:00","6.8","","5.3","","90","","","","18","","4","","14.5","","99.27","","","","","","NA"
"-79.91","44.27","BORDEN AWOS","611B002","2020-09-05 04:00","2020","09","05","04:00","6.4","","4.9","","90","","","","","","0","","14.5","","99.27","","","","","","NA"
"-79.91","44.27","BORDEN AWOS","611B002","2020-09-05 05:00","2020","09","05","05:00","6.6","","5.6","","93","","","","","","0","","14.5","","99.31","","","","","","NA"
"-79.91","44.27","BORDEN AWOS","611B002","2020-09-05 06:00","2020","09","05","06:00","5.2","","4.2","","93","","","","21","","4","","14.5","","99.37","","","","","","NA"
"-79.91","44.27","BORDEN AWOS","611B002","2020-09-05 07:00","2020","09","05","07:00","10.4","","8.8","","90","","","","21","","4","","14.5","","99.39","","","","","","NA"
"-79.91","44.27","BORDEN AWOS","611B002","2020-09-05 08:00","2020","09","05","08:00","14.9","","11.5","","80","","","","21","","7","","14.5","","99.40","","","","","","NA"
"-79.91","44.27","BORDEN AWOS","611B002","2020-09-05 09:00","2020","09","05","09:00","18.2","","11.0","","63","","","","25","","11","","14.5","","99.41","","","","","","NA"
"-79.91","44.27","BORDEN AWOS","611B002","2020-09-05 10:00","2020","09","05","10:00","19.8","","8.0","","47","","","","30","","17","","14.5","","99.41","","","","","","NA"
"-79.91","44.27","BORDEN AWOS","611B002","2020-09-05 11:00","2020","09","05","11:00","20.7","","6.6","","40","","","","23","","24","","14.5","","99.41","","","","","","NA"
"-79.91","44.27","BORDEN AWOS","611B002","2020-09-05 12:00","2020","09","05","12:00","20.6","","7.1","","42","","","","25","","15","","14.5","","99.33","","","","","","NA"
"-79.91","44.27","BORDEN AWOS","611B002","2020-09-05 13:00","2020","09","05","13:00","21.5","","7.9","","42","","","","26","","15","","14.5","","99.32","","","","","","NA"
"-79.91","44.27","BORDEN AWOS","611B002","2020-09-05 14:00","2020","09","05","14:00","22.0","","8.7","","43","","","","26","","13","","14.5","","99.27","","","","","","NA"
"-79.91","44.27","BORDEN AWOS","611B002","2020-09-05 15:00","2020","09","05","15:00","20.3","","11.2","","56","","","","24","","20","","14.5","","99.26","","","","","","NA"
"-79.91","44.27","BORDEN AWOS","611B002","2020-09-05 16:00","2020","09","05","16:00","20.2","","9.0","","49","","","","25","","22","","14.5","","99.27","","","","","","NA"
"-79.91","44.27","BORDEN AWOS","611B002","2020-09-05 17:00","2020","09","05","17:00","19.9","","8.9","","49","","","","28","","11","","14.5","","99.30","","","","","","NA"
"-79.91","44.27","BORDEN AWOS","611B002","2020-09-05 18:00","2020","09","05","18:00","18.6","","9.4","","55","","","","27","","9","","14.5","","99.32","","","","","","NA"
"-79.91","44.27","BORDEN AWOS","611B002","2020-09-05 19:00","2020","09","05","19:00","17.0","","9.7","","62","","","","27","","11","","14.5","","99.34","","","","","","NA"
"-79.91","44.27","BORDEN AWOS","611B002","2020-09-05 20:00","2020","09","05","20:00","14.7","","9.9","","73","","","","28","","4","","14.5","","99.42","","","","","","NA"
"-79.91","44.27","BORDEN AWOS","611B002","2020-09-05 21:00","2020","09","05","21:00","11.1","","8.4","","83","","","","18","","6","","14.5","","99.43","","","","","","NA"
"-79.91","44.27","BORDEN AWOS","611B002","2020-09-05 22:00","2020","09","05","22:00","9.8","","8.0","","89","","","","15","","4","","14.5","","99.47","","","","","","NA"
"-79.91","44.27","BORDEN AWOS","611B002","2020-09-05 23:00","2020","09","05","23:00","8.4","","7.8","","96","","","","","","0","","8.0","","99.49","","","","","","NA"
"-79.91","44.27","BORDEN AWOS","611B002","2020-09-06 00:00","2020","09","06","00:00","7.6","","5.9","","89","","","","","","0","","14.5","","99.52","","","","","","NA"
"-79.91","44.27","BORDEN AWOS","611B002","2020-09-06 01:00","2020","09","06","01:00","9.0","","7.2","","89","","","","26","","7","","14.5","","99.52","","","","","","NA"
"-79.91","44.27","BORDEN AWOS","611B002","2020-09-06 02:00","2020","09","06","02:00","6.9","","5.3","","90","","","","21","","6","","14.5","","99.55","","","","","","NA"
"-79.91","44.27","BORDEN AWOS","611B002","2020-09-06 03:00","2020","09","06","03:00","7.1","","5.2","","88","","","","25","","9","","14.5","","99.56","","","","","","NA"
"-79.91","44.27","BORDEN AWOS","611B002","2020-09-06 04:00","2020","09","06","04:00","7.8","","4.9","","82","","","","","","0","","14.5","","99.60","","","","","","NA"
"-79.91","44.27","BORDEN AWOS","611B002","2020-09-06 05:00","2020","09","06","05:00","5.6","","4.0","","89","","","","17","","6","","14.5","","99.49","","","","","","NA"
"-79.91","44.27","BORDEN AWOS","611B002","2020-09-06 06:00","2020","09","06","06:00","4.2","","3.0","","92","","","","24","","4","","14.5","","99.53","","","","","","NA"
"-79.91","44.27","BORDEN AWOS","611B002","2020-09-06 07:00","2020","09","06","07:00","9.5","","7.4","","87","","","","24","","7","","14.5","","99.63","","","","","","NA"
"-79.91","44.27","BORDEN AWOS","611B002","2020-09-06 08:00","2020","09","06","08:00","13.5","","8.0","","69","","","","26","","7","","14.5","","99.71","","","","","","NA"
"-79.91","44.27","BORDEN AWOS","611B002","2020-09-06 09:00","2020","09","06","09:00","16.3","","7.1","","54","","","","25","","9","","14.5","","99.73","","","","","","NA"
"-79.91","44.27","BORDEN AWOS","611B002","2020-09-06 10:00","2020","09","06","10:00","17.2","","8.6","","57","","","","29","","7","","14.5","","99.69","","","","","","NA"
"-79.91","44.27","BORDEN AWOS","611B002","2020-09-06 11:00","2020","09","06","11:00","19.0","","8.5","","51","","","","22","","13","","14.5","","99.56","","","","","","NA"
"-79.91","44.27","BORDEN AWOS","611B002","2020-09-06 12:00","2020","09","06","12:00","19.4","","7.1","","45","","","","34","","4","","14.5","","99.54","","","","","","NA"
"-79.91","44.27","BORDEN AWOS","611B002","2020-09-06 13:00","2020","09","06","13:00","21.2","","7.1","","40","","","","21","","11","","14.5","","99.43","","","","","","NA"
"-79.91","44.27","BORDEN AWOS","611B002","2020-09-06 14:00","2020","09","06","14:00","22.1","","6.6","","37","","","","20","","11","","14.5","","99.39","","","","","","NA"
"-79.91","44.27","BORDEN AWOS","611B002","2020-09-06 15:00","2020","09","06","15:00","22.4","","5.9","","34","","","","19","","19","","14.5","","99.27","","","","","","NA"
"-79.91","44.27","BORDEN AWOS","611B002","2020-09-06 16:00","2020","09","06","16:00","22.6","","7.0","","37","","","","18","","17","","14.5","","99.16","","","","","","NA"
"-79.91","44.27","BORDEN AWOS","611B002","2020-09-06 17:00","2020","09","06","17:00","21.9","","7.2","","39","","","","17","","22","","14.5","","99.06","","","","","","NA"
"-79.91","44.27","BORDEN AWOS","611B002","2020-09-06 18:00","2020","09","06","18:00","19.9","","9.3","","50","","","","14","","13","","14.5","","98.97","","","","","","NA"
"-79.91","44.27","BORDEN AWOS","611B002","2020-09-06 19:00","2020","09","06","19:00","16.7","","8.7","","59","","","","14","","13","","14.5","","98.93","","","","","","NA"
"-79.91","44.27","BORDEN AWOS","611B002","2020-09-06 20:00","2020","09","06","20:00","16.3","","9.0","","62","","","","16","","15","","14.5","","98.90","","","","","","NA"
"-79.91","44.27","BORDEN AWOS","611B002","2020-09-06 21:00","2020","09","06","21:00","15.7","","8.8","","64","","","","16","","20","","14.5","","98.76","","","","","","NA"
"-79.91","44.27","BORDEN AWOS","611B002","2020-09-06 22:00","2020","09","06","22:00","15.0","","9.6","","70","","","","16","","20","","14.5","","98.66","","","","","","NA"
"-79.91","44.27","BORDEN AWOS","611B002","2020-09-06 23:00","2020","09","06","23:00","16.1","","10.7","","70","","","","16","","26","","14.5","","98.50","","","","","","NA"
"-79.91","44.27","BORDEN AWOS","611B002","2020-09-07 00:00","2020","09","07","00:00","16.2","","11.1","","72","","","","16","","22","","14.5","","98.29","","","","","","NA"
"-79.91","44.27","BORDEN AWOS","611B002","2020-09-07 01:00","2020","09","07","01:00","17.0","","10.8","","67","","","","17","","28","","14.5","","98.10","","","","","","NA"
"-79.91","44.27","BORDEN AWOS","611B002","2020-09-07 02:00","2020","09","07","02:00","16.8","","13.7","","82","","","","20","","31","","8.0","","98.15","","","","","","Moderate Rain"
"-79.91","44.27","BORDEN AWOS","611B002","2020-09-07 03:00","2020","09","07","03:00","17.7","","15.3","","86","","","","17","","33","","11.3","","97.83","","","","","","Moderate Rain"
"-79.91","44.27","BORDEN AWOS","611B002","2020-09-07 04:00","2020","09","07","04:00","17.7","","15.7","","88","","","","17","","13","","14.5","","97.89","","","","","","NA"
"-79.91","44.27","BORDEN AWOS","611B002","2020-09-07 05:00","2020","09","07","05:00","19.1","","16.3","","84","","","","19","","28","","14.5","","97.97","","","","","","NA"
"-79.91","44.27","BORDEN AWOS","611B002","2020-09-07 06:00","2020","09","07","06:00","19.7","","16.3","","81","","","","20","","28","","14.5","","97.91","","","","","","NA"
"-79.91","44.27","BORDEN AWOS","611B002","2020-09-07 07:00","2020","09","07","07:00","19.9","","16.4","","80","","","","21","","30","","14.5","","97.89","","","","","","NA"
"-79.91","44.27","BORDEN AWOS","611B002","2020-09-07 08:00","2020","09","07","08:00","20.1","","16.7","","81","","","","22","","39","","14.5","","97.94","","25","","","","NA"
"-79.91","44.27","BORDEN AWOS","611B002","2020-09-07 09:00","2020","09","07","09:00","20.8","","17.1","","79","","","","22","","39","","14.5","","97.93","","26","","","","NA"
"-79.91","44.27","BORDEN AWOS","611B002","2020-09-07 10:00","2020","09","07","10:00","21.0","","17.3","","79","","","","21","","33","","14.5","","97.95","","26","","","","NA"
"-79.91","44.27","BORDEN AWOS","611B002","2020-09-07 11:00","2020","09","07","11:00","21.9","","17.6","","77","","","","22","","24","","14.5","","98.03","","28","","","","NA"
"-79.91","44.27","BORDEN AWOS","611B002","2020-09-07 12:00","2020","09","07","12:00","22.9","","17.9","","73","","","","24","","26","","14.5","","98.09","","29","","","","NA"
"-79.91","44.27","BORDEN AWOS","611B002","2020-09-07 13:00","2020","09","07","13:00","18.1","","13.2","","73","","","","32","","15","","14.5","","98.27","","","","","","NA"
"-79.91","44.27","BORDEN AWOS","611B002","2020-09-07 14:00","2020","09","07","14:00","18.5","","12.3","","67","","","","32","","17","","14.5","","98.37","","","","","","NA"
"-79.91","44.27","BORDEN AWOS","611B002","2020-09-07 15:00","2020","09","07","15:00","19.5","","13.1","","67","","","","35","","15","","14.5","","98.45","","","","","","NA"
"-79.91","44.27","BORDEN AWOS","611B002","2020-09-07 16:00","2020","09","07","16:00","20.5","","13.1","","63","","","","32","","17","","14.5","","98.49","","","","","","NA"
"-79.91","44.27","BORDEN AWOS","611B002","2020-09-07 17:00","2020","09","07","17:00","19.2","","11.6","","61","","","","31","","11","","14.5","","98.54","","","","","","NA"
"-79.91","44.27","BORDEN AWOS","611B002","2020-09-07 18:00","2020","09","07","18:00","17.6","","10.6","","64","","","","32","","6","","14.5","","98.62","","","","","","NA"
"-79.91","44.27","BORDEN AWOS","611B002","2020-09-07 19:00","2020","09","07","19:00","15.2","","10.2","","72","","","","","","0","","14.5","","98.75","","","","","","NA"
"-79.91","44.27","BORDEN AWOS","611B002","2020-09-07 20:00","2020","09","07","20:00","12.4","","9.9","","85","","","","31","","4","","14.5","","98.92","","","","","","NA"
"-79.91","44.27","BORDEN AWOS","611B002","2020-09-07 21:00","2020","09","07","21:00","13.0","","9.7","","80","","","","31","","4","","14.5","","99.03","","","","","","NA"
"-79.91","44.27","BORDEN AWOS","611B002","2020-09-07 22:00","2020","09","07","22:00","13.2","","8.4","","73","","","","30","","4","","14.5","","99.07","","","","","","NA"
"-79.91","44.27","BORDEN AWOS","611B002","2020-09-07 23:00","2020","09","07","23:00","12.0","","9.4","","84","","","","","","0","","14.5","","99.06","","","","","","NA"
"-79.91","44.27","BORDEN AWOS","611B002","2020-09-08 00:00","2020","09","08","00:00","11.5","","9.4","","87","","","","","","0","","14.5","","99.13","","","","","","NA"
"-79.91","44.27","BORDEN AWOS","611B002","2020-09-08 01:00","2020","09","08","01:00","10.4","","8.6","","89","","","","21","","4","","14.5","","99.22","","","","","","NA"
"-79.91","44.27","BORDEN AWOS","611B002","2020-09-08 02:00","2020","09","08","02:00","11.1","","9.6","","91","","","","","","0","","14.5","","99.15","","","","","","NA"
"-79.91","44.27","BORDEN AWOS","611B002","2020-09-08 03:00","2020","09","08","03:00","11.5","","10.0","","91","","","","","","0","","14.5","","99.15","","","","","","NA"
"-79.91","44.27","BORDEN AWOS","611B002","2020-09-08 04:00","2020","09","08","04:00","11.8","","10.1","","89","","","","","","0","","14.5","","99.24","","","","","","NA"
"-79.91","44.27","BORDEN AWOS","611B002","2020-09-08 05:00","2020","09","08","05:00","12.1","","10.4","","89","","","","33","","4","","14.5","","99.24","","","","","","NA"
"-79.91","44.27","BORDEN AWOS","611B002","2020-09-08 06:00","2020","09","08","06:00","12.1","","10.2","","88","","","","34","","6","","14.5","","99.32","","","","","","NA"
"-79.91","44.27","BORDEN AWOS","611B002","2020-09-08 07:00","2020","09","08","07:00","11.6","","10.0","","90","","","","34","","7","","14.5","","99.40","","","","","","NA"
"-79.91","44.27","BORDEN AWOS","611B002","2020-09-08 08:00","2020","09","08","08:00","11.5","","9.2","","86","","","","6","","7","","14.5","","99.37","","","","","","NA"
"-79.91","44.27","BORDEN AWOS","611B002","2020-09-08 09:00","2020","09","08","09:00","11.8","","9.7","","87","","","","30","","4","","14.5","","99.47","","","","","","Drizzle"
"-79.91","44.27","BORDEN AWOS","611B002","2020-09-08 10:00","2020","09","08","10:00","12.4","","9.9","","85","","","","27","","6","","14.5","","99.55","","","","","","NA"
"-79.91","44.27","BORDEN AWOS","611B002","2020-09-08 11:00","2020","09","08","11:00","12.4","","10.3","","87","","","","1","","11","","14.5","","99.53","","","","","","Rain"
"-79.91","44.27","BORDEN AWOS","611B002","2020-09-08 12:00","2020","09","08","12:00","13.0","","10.6","","85","","","","1","","6","","14.5","","99.54","","","","","","NA"
"-79.91","44.27","BORDEN AWOS","611B002","2020-09-08 13:00","2020","09","08","13:00","13.7","","11.1","","84","","","","36","","6","","14.5","","99.49","","","","","","NA"
"-79.91","44.27","BORDEN AWOS","611B002","2020-09-08 14:00","2020","09","08","14:00","13.8","","10.7","","82","","","","12","","6","","14.5","","99.48","","","","","","Drizzle"
"-79.91","44.27","BORDEN AWOS","611B002","2020-09-08 15:00","2020","09","08","15:00","13.3","","10.6","","84","","","","","","0","","12.9","","99.52","","","","","","Rain"
"-79.91","44.27","BORDEN AWOS","611B002","2020-09-08 16:00","2020","09","08","16:00","12.5","","10.7","","89","","","","5","","9","","8.0","","99.53","","","","","","Drizzle"
"-79.91","44.27","BORDEN AWOS","611B002","2020-09-08 17:00","2020","09","08","17:00","12.3","","10.7","","90","","","","36","","6","","14.5","","99.58","","","","","","Rain"
"-79.91","44.27","BORDEN AWOS","611B002","2020-09-08 18:00","2020","09","08","18:00","11.9","","10.7","","92","","","","34","","4","","4.0","","99.60","","","","","","Rain"
"-79.91","44.27","BORDEN AWOS","611B002","2020-09-08 19:00","2020","09","08","19:00","12.0","","11.0","","94","","","","1","","4","","14.5","","99.59","","","","","","NA"
"-79.91","44.27","BORDEN AWOS","611B002","2020-09-08 20:00","2020","09","08","20:00","12.2","","11.0","","92","","","","32","","4","","14.5","","99.62","","","","","","NA"
"-79.91","44.27","BORDEN AWOS","611B002","2020-09-08 21:00","2020","09","08","21:00","12.4","","11.4","","94","","","","","","0","","14.5","","99.63","","","","","","NA"
"-79.91","44.27","BORDEN AWOS","611B002","2020-09-08 22:00","2020","09","08","22:00","12.3","","11.1","","92","","","","32","","4","","14.5","","99.63","","","","","","NA"
"-79.91","44.27","BORDEN AWOS","611B002","2020-09-08 23:00","2020","09","08","23:00","12.4","","11.5","","94","","","","","","0","","14.5","","99.61","","","","","","NA"
"-79.91","44.27","BORDEN AWOS","611B002","2020-09-09 00:00","2020","09","09","00:00","12.5","","11.4","","93","","","","","","0","","14.5","","99.62","","","","","","NA"
"-79.91","44.27","BORDEN AWOS","611B002","2020-09-09 01:00","2020","09","09","01:00","12.5","","11.6","","94","","","","","","0","","14.5","","99.61","","","","","","NA"
"-79.91","44.27","BORDEN AWOS","611B002","2020-09-09 02:00","2020","09","09","02:00","12.5","","11.4","","93","","","","31","","6","","14.5","","99.63","","","","","","NA"
"-79.91","44.27","BORDEN AWOS","611B002","2020-09-09 03:00","2020","09","09","03:00","12.5","","11.6","","94","","","","","","0","","8.0","","99.62","","","","","","NA"
"-79.91","44.27","BORDEN AWOS","611B002","2020-09-09 04:00","2020","09","09","04:00","12.6","","11.6","","94","","","","31","","6","","14.5","","99.68","","","","","","Rain"
"-79.91","44.27","BORDEN AWOS","611B002","2020-09-09 05:00","2020","09","09","05:00","12.5","","11.5","","94","","","","32","","7","","14.5","","99.73","","","","","","NA"
"-79.91","44.27","BORDEN AWOS","611B002","2020-09-09 06:00","2020","09","09","06:00","12.7","","11.7","","94","","","","2","","4","","14.5","","99.80","","","","","","NA"
"-79.91","44.27","BORDEN AWOS","611B002","2020-09-09 07:00","2020","09","09","07:00","12.9","","11.7","","92","","","","5","","9","","9.7","","99.78","","","","","","NA"
"-79.91","44.27","BORDEN AWOS","611B002","2020-09-09 08:00","2020","09","09","08:00","13.1","","11.9","","92","","","","1","","4","","12.9","","99.87","","","","","","NA"
"-79.91","44.27","BORDEN AWOS","611B002","2020-09-09 09:00","2020","09","09","09:00","13.2","","12.1","","93","","","","1","","6","","5.6","","99.89","","","","","","NA"
"-79.91","44.27","BORDEN AWOS","611B002","2020-09-09 10:00","2020","09","09","10:00","13.5","","12.4","","93","","","","36","","6","","14.5","","99.96","","","","","","NA"
"-79.91","44.27","BORDEN AWOS","611B002","2020-09-09 11:00","2020","09","09","11:00","13.9","","12.7","","93","","","","36","","7","","8.0","","99.96","","","","","","NA"
"-79.91","44.27","BORDEN AWOS","611B002","2020-09-09 12:00","2020","09","09","12:00","14.3","","13.1","","93","","","","2","","7","","5.6","","99.94","","","","","","NA"
"-79.91","44.27","BORDEN AWOS","611B002","2020-09-09 13:00","2020","09","09","13:00","14.9","","13.3","","90","","","","9","","9","","6.4","","99.90","","","","","","NA"
"-79.91","44.27","BORDEN AWOS","611B002","2020-09-09 14:00","2020","09","09","14:00","14.9","","13.5","","91","","","","4","","4","","12.9","","99.90","","","","","","NA"
"-79.91","44.27","BORDEN AWOS","611B002","2020-09-09 15:00","2020","09","09","15:00","14.9","","13.4","","91","","","","36","","6","","9.7","","99.87","","","","","","NA"
"-79.91","44.27","BORDEN AWOS","611B002","2020-09-09 16:00","2020","09","09","16:00","14.9","","13.7","","93","","","","3","","6","","8.0","","99.87","","","","","","NA"
"-79.91","44.27","BORDEN AWOS","611B002","2020-09-09 17:00","2020","09","09","17:00"
"-79.91","44.27","BORDEN AWOS","611B002","2020-09-09 18:00","2020","09","09","18:00"
"-79.91","44.27","BORDEN AWOS","611B002","2020-09-09 19:00","2020","09","09","19:00","13.9","","13.0","","94","","","","5","","6","","2.1","","99.85","","","","","","NA"
"-79.91","44.27","BORDEN AWOS","611B002","2020-09-09 20:00","2020","09","09","20:00","13.8","","13.0","","95","","","","36","","4","","2.6","","99.91","","","","","","NA"
"-79.91","44.27","BORDEN AWOS","611B002","2020-09-09 21:00","2020","09","09","21:00","13.8","","13.2","","96","","","","","","0","","2.3","","99.89","","","","","","NA"
"-79.91","44.27","BORDEN AWOS","611B002","2020-09-09 22:00","2020","09","09","22:00","13.8","","13.2","","96","","","","","","0","","1.9","","99.87","","","","","","NA"
"-79.91","44.27","BORDEN AWOS","611B002","2020-09-09 23:00","2020","09","09","23:00","13.9","","13.1","","95","","","","","","0","","1.3","","99.85","","","","","","NA"
"-79.91","44.27","BORDEN AWOS","611B002","2020-09-10 00:00","2020","09","10","00:00","14.1","","13.0","","93","","","","18","","6","","1.4","","99.77","","","","","","NA"
"-79.91","44.27","BORDEN AWOS","611B002","2020-09-10 01:00","2020","09","10","01:00","14.2","","13.3","","94","","","","17","","6","","0.6","","99.71","","","","","","NA"
"-79.91","44.27","BORDEN AWOS","611B002","2020-09-10 02:00","2020","09","10","02:00","14.5","","13.9","","96","","","","","","0","","2.3","","99.67","","","","","","NA"
"-79.91","44.27","BORDEN AWOS","611B002","2020-09-10 03:00","2020","09","10","03:00","15.2","","14.1","","93","","","","14","","7","","14.5","","99.66","","","","","","NA"
"-79.91","44.27","BORDEN AWOS","611B002","2020-09-10 04:00","2020","09","10","04:00","15.9","","15.0","","94","","","","16","","6","","12.9","","99.67","","","","","","NA"
"-79.91","44.27","BORDEN AWOS","611B002","2020-09-10 05:00","2020","09","10","05:00","15.6","","14.8","","95","","","","31","","6","","4.8","","99.72","","","","","","Drizzle"
"-79.91","44.27","BORDEN AWOS","611B002","2020-09-10 06:00","2020","09","10","06:00","14.0","","12.7","","92","","","","32","","20","","12.9","","99.82","","","","","","NA"
"-79.91","44.27","BORDEN AWOS","611B002","2020-09-10 07:00","2020","09","10","07:00","13.4","","12.0","","91","","","","35","","15","","14.5","","99.88","","","","","","NA"
"-79.91","44.27","BORDEN AWOS","611B002","2020-09-10 08:00","2020","09","10","08:00","13.4","","12.5","","94","","","","36","","6","","4.0","","99.91","","","","","","Drizzle"
"-79.91","44.27","BORDEN AWOS","611B002","2020-09-10 09:00","2020","09","10","09:00","13.8","","12.5","","92","","","","33","","4","","14.5","","99.95","","","","","","NA"
"-79.91","44.27","BORDEN AWOS","611B002","2020-09-10 10:00","2020","09","10","10:00","15.1","","13.1","","88","","","","32","","9","","14.5","","99.95","","","","","","NA"
"-79.91","44.27","BORDEN AWOS","611B002","2020-09-10 11:00","2020","09","10","11:00","14.4","","12.0","","86","","","","32","","13","","14.5","","99.97","","","","","","NA"
"-79.91","44.27","BORDEN AWOS","611B002","2020-09-10 12:00","2020","09","10","12:00","14.8","","11.6","","81","","","","31","","17","","14.5","","99.98","","","","","","NA"
"-79.91","44.27","BORDEN AWOS","611B002","2020-09-10 13:00","2020","09","10","13:00","14.6","","10.7","","77","","","","32","","15","","14.5","","100.00","","","","","","NA"
"-79.91","44.27","BORDEN AWOS","611B002","2020-09-10 14:00","2020","09","10","14:00","14.6","","10.2","","75","","","","34","","20","","14.5","","99.99","","","","","","NA"
"-79.91","44.27","BORDEN AWOS","611B002","2020-09-10 15:00","2020","09","10","15:00","14.3","","9.8","","74","","","","32","","15","","14.5","","99.99","","","","","","NA"
"-79.91","44.27","BORDEN AWOS","611B002","2020-09-10 16:00","2020","09","10","16:00","13.9","","9.6","","75","","","","35","","9","","14.5","","100.00","","","","","","NA"
"-79.91","44.27","BORDEN AWOS","611B002","2020-09-10 17:00","2020","09","10","17:00","13.4","","9.5","","77","","","","36","","9","","14.5","","100.00","","","","","","NA"
"-79.91","44.27","BORDEN AWOS","611B002","2020-09-10 18:00","2020","09","10","18:00","13.0","","9.6","","80","","","","1","","6","","14.5","","100.01","","","","","","NA"
"-79.91","44.27","BORDEN AWOS","611B002","2020-09-10 19:00","2020","09","10","19:00","12.5","","9.9","","84","","","","","","0","","14.5","","100.01","","","","","","NA"
"-79.91","44.27","BORDEN AWOS","611B002","2020-09-10 20:00","2020","09","10","20:00","12.4","","10.2","","86","","","","29","","4","","14.5","","100.04","","","","","","NA"
"-79.91","44.27","BORDEN AWOS","611B002","2020-09-10 21:00","2020","09","10","21:00","12.2","","10.1","","87","","","","1","","7","","14.5","","100.05","","","","","","NA"
"-79.91","44.27","BORDEN AWOS","611B002","2020-09-10 22:00","2020","09","10","22:00","12.1","","9.4","","84","","","","36","","9","","14.5","","100.05","","","","","","NA"
"-79.91","44.27","BORDEN AWOS","611B002","2020-09-10 23:00","2020","09","10","23:00","11.8","","9.2","","84","","","","35","","9","","14.5","","100.02","","","","","","NA"
"-79.91","44.27","BORDEN AWOS","611B002","2020-09-11 00:00","2020","09","11","00:00","11.7","","8.9","","83","","","","3","","9","","14.5","","100.03","","","","","","NA"
"-79.91","44.27","BORDEN AWOS","611B002","2020-09-11 01:00","2020","09","11","01:00","11.3","","8.5","","83","","","","1","","9","","14.5","","100.05","","","","","","NA"
"-79.91","44.27","BORDEN AWOS","611B002","2020-09-11 02:00","2020","09","11","02:00","10.9","","7.9","","82","","","","35","","7","","14.5","","100.08","","","","","","NA"
"-79.91","44.27","BORDEN AWOS","611B002","2020-09-11 03:00","2020","09","11","03:00","10.7","","7.9","","83","","","","36","","6","","14.5","","100.09","","","","","","NA"
"-79.91","44.27","BORDEN AWOS","611B002","2020-09-11 04:00","2020","09","11","04:00","10.7","","7.4","","80","","","","2","","7","","14.5","","100.13","","","","","","NA"
"-79.91","44.27","BORDEN AWOS","611B002","2020-09-11 05:00","2020","09","11","05:00","10.6","","7.6","","82","","","","2","","7","","14.5","","100.14","","","","","","NA"
"-79.91","44.27","BORDEN AWOS","611B002","2020-09-11 06:00","2020","09","11","06:00","10.5","","6.8","","78","","","","5","","9","","14.5","","100.18","","","","","","NA"
"-79.91","44.27","BORDEN AWOS","611B002","2020-09-11 07:00","2020","09","11","07:00","10.7","","7.2","","79","","","","36","","7","","14.5","","100.25","","","","","","NA"
"-79.91","44.27","BORDEN AWOS","611B002","2020-09-11 08:00","2020","09","11","08:00","11.5","","6.3","","70","","","","35","","9","","14.5","","100.25","","","","","","NA"
"-79.91","44.27","BORDEN AWOS","611B002","2020-09-11 09:00","2020","09","11","09:00","12.2","","6.1","","66","","","","5","","15","","14.5","","100.26","","","","","","NA"
"-79.91","44.27","BORDEN AWOS","611B002","2020-09-11 10:00","2020","09","11","10:00","12.8","","6.5","","66","","","","34","","6","","14.5","","100.27","","","","","","NA"
"-79.91","44.27","BORDEN AWOS","611B002","2020-09-11 11:00","2020","09","11","11:00","14.2","","6.9","","61","","","","9","","7","","14.5","","100.24","","","","","","NA"
"-79.91","44.27","BORDEN AWOS","611B002","2020-09-11 12:00","2020","09","11","12:00","15.3","","7.3","","59","","","","7","","6","","14.5","","100.23","","","","","","NA"
"-79.91","44.27","BORDEN AWOS","611B002","2020-09-11 13:00","2020","09","11","13:00","16.5","","7.9","","57","","","","3","","6","","14.5","","100.18","","","","","","NA"
"-79.91","44.27","BORDEN AWOS","611B002","2020-09-11 14:00","2020","09","11","14:00","17.4","","8.1","","54","","","","36","","13","","14.5","","100.10","","","","","","NA"
"-79.91","44.27","BORDEN AWOS","611B002","2020-09-11 15:00","2020","09","11","15:00","17.3","","8.2","","55","","","","34","","4","","14.5","","100.05","","","","","","NA"
"-79.91","44.27","BORDEN AWOS","611B002","2020-09-11 16:00","2020","09","11","16:00","16.9","","8.9","","59","","","","1","","7","","14.5","","100.03","","","","","","NA"
"-79.91","44.27","BORDEN AWOS","611B002","2020-09-11 17:00","2020","09","11","17:00","16.7","","8.9","","60","","","","35","","11","","14.5","","100.00","","","","","","NA"
"-79.91","44.27","BORDEN AWOS","611B002","2020-09-11 18:00","2020","09","11","18:00","14.7","","9.2","","70","","","","35","","6","","14.5","","100.02","","","","","","NA"
"-79.91","44.27","BORDEN AWOS","611B002","2020-09-11 19:00","2020","09","11","19:00","11.6","","9.2","","85","","","","34","","4","","14.5","","100.02","","","","","","NA"
"-79.91","44.27","BORDEN AWOS","611B002","2020-09-11 20:00","2020","09","11","20:00","9.0","","7.4","","90","","","","","","0","","14.5","","99.99","","","","","","NA"
"-79.91","44.27","BORDEN AWOS","611B002","2020-09-11 21:00","2020","09","11","21:00","6.2","","5.7","","97","","","","","","0","","0.6","","100.03","","","","","","NA"
"-79.91","44.27","BORDEN AWOS","611B002","2020-09-11 22:00","2020","09","11","22:00","5.3","","4.6","","95","","","","","","0","","6.4","","99.98","","","","","","NA"
"-79.91","44.27","BORDEN AWOS","611B002","2020-09-11 23:00","2020","09","11","23:00","5.5","","4.6","","94","","","","","","0","","14.5","","99.97","","","","","","NA"
"-79.91","44.27","BORDEN AWOS","611B002","2020-09-12 00:00","2020","09","12","00:00","4.0","","3.1","","94","","","","","","0","","2.3","","99.93","","","","","","NA"
"-79.91","44.27","BORDEN AWOS","611B002","2020-09-12 01:00","2020","09","12","01:00","4.3","","2.8","","90","","","","","","0","","14.5","","99.93","","","","","","NA"
"-79.91","44.27","BORDEN AWOS","611B002","2020-09-12 02:00","2020","09","12","02:00","4.0","","2.9","","93","","","","16","","4","","8.0","","99.89","","","","","","NA"
"-79.91","44.27","BORDEN AWOS","611B002","2020-09-12 03:00","2020","09","12","03:00","3.5","","2.6","","94","","","","24","","4","","12.9","","99.85","","","","","","NA"
"-79.91","44.27","BORDEN AWOS","611B002","2020-09-12 04:00","2020","09","12","04:00","2.5","","1.4","","92","","","","","","0","","0.3","","99.80","","","","","","NA"
"-79.91","44.27","BORDEN AWOS","611B002","2020-09-12 05:00","2020","09","12","05:00","3.1","","1.5","","89","","","","25","","4","","1.3","","99.79","","","","","","NA"
"-79.91","44.27","BORDEN AWOS","611B002","2020-09-12 06:00","2020","09","12","06:00","2.5","","1.1","","91","","","","","","0","","14.5","","99.75","","","","","","NA"
"-79.91","44.27","BORDEN AWOS","611B002","2020-09-12 07:00","2020","09","12","07:00","7.1","","4.9","","86","","","","18","","6","","14.5","","99.73","","","","","","NA"
"-79.91","44.27","BORDEN AWOS","611B002","2020-09-12 08:00","2020","09","12","08:00","11.5","","10.3","","92","","","","12","","6","","14.5","","99.72","","","","","","NA"
"-79.91","44.27","BORDEN AWOS","611B002","2020-09-12 09:00","2020","09","12","09:00","13.2","","10.9","","86","","","","12","","7","","14.5","","99.64","","","","","","NA"
"-79.91","44.27","BORDEN AWOS","611B002","2020-09-12 10:00","2020","09","12","10:00","15.9","","11.6","","76","","","","16","","17","","14.5","","99.59","","","","","","NA"
"-79.91","44.27","BORDEN AWOS","611B002","2020-09-12 11:00","2020","09","12","11:00","18.1","","11.3","","65","","","","12","","22","","14.5","","99.49","","","","","","NA"
"-79.91","44.27","BORDEN AWOS","611B002","2020-09-12 12:00","2020","09","12","12:00","18.1","","11.2","","64","","","","14","","17","","14.5","","99.43","","","","","","NA"
"-79.91","44.27","BORDEN AWOS","611B002","2020-09-12 13:00","2020","09","12","13:00","19.9","","12.3","","62","","","","12","","17","","14.5","","99.36","","","","","","NA"
"-79.91","44.27","BORDEN AWOS","611B002","2020-09-12 14:00","2020","09","12","14:00","21.0","","12.5","","58","","","","12","","17","","14.5","","99.26","","","","","","NA"
"-79.91","44.27","BORDEN AWOS","611B002","2020-09-12 15:00","2020","09","12","15:00","21.6","","13.4","","60","","","","16","","13","","14.5","","99.17","","25","","","","NA"
"-79.91","44.27","BORDEN AWOS","611B002","2020-09-12 16:00","2020","09","12","16:00","20.5","","13.6","","65","","","","15","","19","","14.5","","99.09","","","","","","NA"
"-79.91","44.27","BORDEN AWOS","611B002","2020-09-12 17:00","2020","09","12","17:00","19.6","","13.7","","69","","","","13","","15","","14.5","","99.07","","","","","","NA"
"-79.91","44.27","BORDEN AWOS","611B002","2020-09-12 18:00","2020","09","12","18:00","18.5","","13.5","","73","","","","13","","13","","14.5","","99.00","","","","","","NA"
"-79.91","44.27","BORDEN AWOS","611B002","2020-09-12 19:00","2020","09","12","19:00","16.8","","12.7","","77","","","","14","","9","","14.5","","98.94","","","","","","NA"
"-79.91","44.27","BORDEN AWOS","611B002","2020-09-12 20:00","2020","09","12","20:00","14.8","","12.2","","84","","","","","","0","","14.5","","99.00","","","","","","NA"
"-79.91","44.27","BORDEN AWOS","611B002","2020-09-12 21:00","2020","09","12","21:00","15.0","","12.9","","87","","","","15","","4","","14.5","","98.91","","","","","","NA"
"-79.91","44.27","BORDEN AWOS","611B002","2020-09-12 22:00","2020","09","12","22:00","14.6","","12.9","","90","","","","13","","4","","14.5","","98.83","","","","","","NA"
"-79.91","44.27","BORDEN AWOS","611B002","2020-09-12 23:00","2020","09","12","23:00","16.4","","14.2","","87","","","","23","","4","","14.5","","98.77","","","","","","Drizzle"
"-79.91","44.27","BORDEN AWOS","611B002","2020-09-13 00:00","2020","09","13","00:00","17.6","","14.7","","83","","","","17","","13","","14.5","","98.71","","","","","","NA"
"-79.91","44.27","BORDEN AWOS","611B002","2020-09-13 01:00","2020","09","13","01:00","18.4","","15.5","","83","","","","18","","13","","14.5","","98.69","","","","","","NA"
"-79.91","44.27","BORDEN AWOS","611B002","2020-09-13 02:00","2020","09","13","02:00","18.5","","15.6","","83","","","","17","","22","","14.5","","98.59","","","","","","NA"
"-79.91","44.27","BORDEN AWOS","611B002","2020-09-13 03:00","2020","09","13","03:00","18.0","","16.0","","88","","","","16","","13","","4.0","","98.57","","","","","","Moderate Rain"
"-79.91","44.27","BORDEN AWOS","611B002","2020-09-13 04:00","2020","09","13","04:00","18.3","","16.5","","89","","","","15","","13","","14.5","","98.48","","","","","","NA"
"-79.91","44.27","BORDEN AWOS","611B002","2020-09-13 05:00","2020","09","13","05:00","18.4","","16.7","","90","","","","15","","13","","14.5","","98.43","","","","","","NA"
"-79.91","44.27","BORDEN AWOS","611B002","2020-09-13 06:00","2020","09","13","06:00","18.8","","17.2","","90","","","","15","","6","","14.5","","98.41","","","","","","NA"
"-79.91","44.27","BORDEN AWOS","611B002","2020-09-13 07:00","2020","09","13","07:00","18.5","","17.4","","93","","","","22","","6","","1.0","","98.43","","","","","","Heavy Rain"
"-79.91","44.27","BORDEN AWOS","611B002","2020-09-13 08:00","2020","09","13","08:00","18.7","","17.4","","92","","","","15","","9","","9.7","","98.37","","","","","","Rain"
"-79.91","44.27","BORDEN AWOS","611B002","2020-09-13 09:00","2020","09","13","09:00","19.6","","18.5","","93","","","","19","","4","","14.5","","98.34","","","","","","NA"
"-79.91","44.27","BORDEN AWOS","611B002","2020-09-13 10:00","2020","09","13","10:00","20.7","","18.5","","87","","","","24","","13","","14.5","","98.41","","27","","","","NA"
"-79.91","44.27","BORDEN AWOS","611B002","2020-09-13 11:00","2020","09","13","11:00","22.5","","15.4","","64","","","","25","","31","","14.5","","98.41","","27","","","","NA"
"-79.91","44.27","BORDEN AWOS","611B002","2020-09-13 12:00","2020","09","13","12:00"
"-79.91","44.27","BORDEN AWOS","611B002","2020-09-13 13:00","2020","09","13","13:00","22.3","","13.9","","59","","","","29","","30","","14.5","","98.53","","26","","","","NA"
"-79.91","44.27","BORDEN AWOS","611B002","2020-09-13 14:00","2020","09","13","14:00","20.5","","13.2","","63","","","","27","","19","","14.5","","98.61","","","","","","NA"
"-79.91","44.27","BORDEN AWOS","611B002","2020-09-13 15:00","2020","09","13","15:00","20.4","","13.6","","65","","","","27","","17","","14.5","","98.65","","","","","","NA"
"-79.91","44.27","BORDEN AWOS","611B002","2020-09-13 16:00","2020","09","13","16:00","20.4","","13.9","","66","","","","27","","24","","14.5","","98.71","","","","","","NA"
"-79.91","44.27","BORDEN AWOS","611B002","2020-09-13 17:00","2020","09","13","17:00","19.4","","13.6","","69","","","","27","","13","","14.5","","98.81","","","","","","NA"
"-79.91","44.27","BORDEN AWOS","611B002","2020-09-13 18:00","2020","09","13","18:00"
"-79.91","44.27","BORDEN AWOS","611B002","2020-09-13 19:00","2020","09","13","19:00","16.4","","11.1","","71","","","","31","","9","","14.5","","99.02","","","","","","NA"
"-79.91","44.27","BORDEN AWOS","611B002","2020-09-13 20:00","2020","09","13","20:00","15.5","","11.1","","75","","","","28","","9","","14.5","","99.12","","","","","","NA"
"-79.91","44.27","BORDEN AWOS","611B002","2020-09-13 21:00","2020","09","13","21:00","14.6","","11.0","","79","","","","","","0","","14.5","","99.14","","","","","","NA"
"-79.91","44.27","BORDEN AWOS","611B002","2020-09-13 22:00","2020","09","13","22:00","15.0","","10.6","","75","","","","30","","9","","14.5","","99.16","","","","","","NA"
"-79.91","44.27","BORDEN AWOS","611B002","2020-09-13 23:00","2020","09","13","23:00","14.6","","10.4","","76","","","","32","","11","","14.5","","99.22","","","","","","NA"
"-79.91","44.27","BORDEN AWOS","611B002","2020-09-14 00:00","2020","09","14","00:00","14.0","","9.3","","73","","","","32","","13","","14.5","","99.30","","","","","","NA"
"-79.91","44.27","BORDEN AWOS","611B002","2020-09-14 01:00","2020","09","14","01:00","13.2","","8.7","","74","","","","30","","9","","14.5","","99.38","","","","","","NA"
"-79.91","44.27","BORDEN AWOS","611B002","2020-09-14 02:00","2020","09","14","02:00","12.9","","7.7","","71","","","","30","","13","","14.5","","99.44","","","","","","NA"
"-79.91","44.27","BORDEN AWOS","611B002","2020-09-14 03:00","2020","09","14","03:00","12.4","","8.2","","76","","","","30","","9","","14.5","","99.50","","","","","","NA"
"-79.91","44.27","BORDEN AWOS","611B002","2020-09-14 04:00","2020","09","14","04:00","12.4","","9.3","","81","","","","1","","7","","14.5","","99.59","","","","","","NA"
"-79.91","44.27","BORDEN AWOS","611B002","2020-09-14 05:00","2020","09","14","05:00","12.5","","6.3","","66","","","","35","","9","","14.5","","99.71","","","","","","NA"
"-79.91","44.27","BORDEN AWOS","611B002","2020-09-14 06:00","2020","09","14","06:00","10.7","","6.3","","74","","","","34","","6","","14.5","","99.84","","","","","","NA"
"-79.91","44.27","BORDEN AWOS","611B002","2020-09-14 07:00","2020","09","14","07:00","10.4","","6.4","","76","","","","35","","6","","14.5","","99.95","","","","","","NA"
"-79.91","44.27","BORDEN AWOS","611B002","2020-09-14 08:00","2020","09","14","08:00","11.5","","6.8","","73","","","","33","","15","","14.5","","100.04","","","","","","NA"
"-79.91","44.27","BORDEN AWOS","611B002","2020-09-14 09:00","2020","09","14","09:00","12.4","","4.3","","58","","","","36","","15","","14.5","","100.10","","","","","","NA"
"-79.91","44.27","BORDEN AWOS","611B002","2020-09-14 10:00","2020","09","14","10:00","13.4","","5.2","","58","","","","31","","13","","14.5","","100.16","","","","","","NA"
"-79.91","44.27","BORDEN AWOS","611B002","2020-09-14 11:00","2020","09","14","11:00","14.2","","5.3","","55","","","","31","","13","","14.5","","100.16","","","","","","NA"
"-79.91","44.27","BORDEN AWOS","611B002","2020-09-14 12:00","2020","09","14","12:00","14.6","","4.7","","51","","","","31","","20","","14.5","","100.16","","","","","","NA"
"-79.91","44.27","BORDEN AWOS","611B002","2020-09-14 13:00","2020","09","14","13:00","14.5","","2.6","","45","","","","33","","20","","14.5","","100.18","","","","","","NA"
"-79.91","44.27","BORDEN AWOS","611B002","2020-09-14 14:00","2020","09","14","14:00","14.6","","3.9","","49","","","","32","","17","","14.5","","100.15","","","","","","NA"
"-79.91","44.27","BORDEN AWOS","611B002","2020-09-14 15:00","2020","09","14","15:00","14.4","","2.3","","44","","","","34","","17","","14.5","","100.15","","","","","","NA"
"-79.91","44.27","BORDEN AWOS","611B002","2020-09-14 16:00","2020","09","14","16:00","13.7","","2.3","","46","","","","34","","17","","14.5","","100.14","","","","","","NA"
"-79.91","44.27","BORDEN AWOS","611B002","2020-09-14 17:00","2020","09","14","17:00","12.6","","3.5","","54","","","","33","","11","","14.5","","100.16","","","","","","NA"
"-79.91","44.27","BORDEN AWOS","611B002","2020-09-14 18:00","2020","09","14","18:00","10.8","","4.3","","64","","","","32","","9","","14.5","","100.19","","","","","","NA"
"-79.91","44.27","BORDEN AWOS","611B002","2020-09-14 19:00","2020","09","14","19:00","9.0","","4.4","","73","","","","31","","6","","14.5","","100.20","","","","","","NA"
"-79.91","44.27","BORDEN AWOS","611B002","2020-09-14 20:00","2020","09","14","20:00","5.9","","3.3","","83","","","","26","","7","","14.5","","100.21","","","","","","NA"
"-79.91","44.27","BORDEN AWOS","611B002","2020-09-14 21:00","2020","09","14","21:00","4.7","","2.3","","84","","","","6","","7","","14.5","","100.25","","","","","","NA"
"-79.91","44.27","BORDEN AWOS","611B002","2020-09-14 22:00","2020","09","14","22:00","3.9","","1.8","","86","","","","","","0","","14.5","","100.26","","","","","","NA"
"-79.91","44.27","BORDEN AWOS","611B002","2020-09-14 23:00","2020","09","14","23:00","2.9","","0.6","","85","","","","","","0","","14.5","","100.22","","","","","","NA"
"-79.91","44.27","BORDEN AWOS","611B002","2020-09-15 00:00","2020","09","15","00:00","2.0","","0.0","","87","","","","21","","4","","14.5","","100.19","","","","","","NA"
"-79.91","44.27","BORDEN AWOS","611B002","2020-09-15 01:00","2020","09","15","01:00","1.0","","-0.7","","88","","","","","","0","","14.5","","100.18","","","","","","NA"
"-79.91","44.27","BORDEN AWOS","611B002","2020-09-15 02:00","2020","09","15","02:00","0.2","","-0.9","","92","","","","","","0","","14.5","","100.15","","","","","","NA"
"-79.91","44.27","BORDEN AWOS","611B002","2020-09-15 03:00","2020","09","15","03:00","0.6","","-1.4","","86","","","","","","0","","14.5","","100.15","","","","","","NA"
"-79.91","44.27","BORDEN AWOS","611B002","2020-09-15 04:00","2020","09","15","04:00","-0.2","","-1.7","","90","","","","","","0","","14.5","","100.15","","","","","","NA"
"-79.91","44.27","BORDEN AWOS","611B002","2020-09-15 05:00","2020","09","15","05:00","-0.7","","-1.9","","92","","","","21","","4","","14.5","","100.17","","","","-2","","NA"
"-79.91","44.27","BORDEN AWOS","611B002","2020-09-15 06:00","2020","09","15","06:00","-0.5","","-2.3","","88","","","","19","","4","","14.5","","100.15","","","","-2","","NA"
"-79.91","44.27","BORDEN AWOS","611B002","2020-09-15 07:00","2020","09","15","07:00","0.9","","-0.5","","90","","","","21","","4","","14.5","","100.17","","","","","","NA"
"-79.91","44.27","BORDEN AWOS","611B002","2020-09-15 08:00","2020","09","15","08:00","6.9","","4.9","","87","","","","18","","4","","14.5","","100.13","","","","","","NA"
"-79.91","44.27","BORDEN AWOS","611B002","2020-09-15 09:00","2020","09","15","09:00","11.2","","6.5","","73","","","","16","","17","","14.5","","100.04","","","","","","NA"
"-79.91","44.27","BORDEN AWOS","611B002","2020-09-15 10:00","2020","09","15","10:00","13.6","","7.1","","65","","","","17","","20","","14.5","","99.95","","","","","","NA"
"-79.91","44.27","BORDEN AWOS","611B002","2020-09-15 11:00","2020","09","15","11:00","15.7","","6.6","","55","","","","18","","24","","14.5","","99.83","","","","","","NA"
"-79.91","44.27","BORDEN AWOS","611B002","2020-09-15 12:00","2020","09","15","12:00","18.1","","5.7","","44","","","","21","","17","","14.5","","99.76","","","","","","NA"
"-79.91","44.27","BORDEN AWOS","611B002","2020-09-15 13:00","2020","09","15","13:00","19.2","","6.3","","43","","","","20","","20","","14.5","","99.65","","","","","","NA"
"-79.91","44.27","BORDEN AWOS","611B002","2020-09-15 14:00","2020","09","15","14:00","19.8","","8.5","","48","","","","21","","24","","14.5","","99.58","","","","","","NA"
"-79.91","44.27","BORDEN AWOS","611B002","2020-09-15 15:00","2020","09","15","15:00","19.8","","9.8","","53","","","","19","","28","","14.5","","99.50","","","","","","NA"
"-79.91","44.27","BORDEN AWOS","611B002","2020-09-15 16:00","2020","09","15","16:00","18.8","","10.2","","57","","","","19","","28","","14.5","","99.40","","","","","","NA"
"-79.91","44.27","BORDEN AWOS","611B002","2020-09-15 17:00","2020","09","15","17:00","17.9","","10.2","","61","","","","18","","15","","14.5","","99.36","","","","","","NA"
"-79.91","44.27","BORDEN AWOS","611B002","2020-09-15 18:00","2020","09","15","18:00","17.4","","10.2","","63","","","","18","","22","","14.5","","99.31","","","","","","NA"
"-79.91","44.27","BORDEN AWOS","611B002","2020-09-15 19:00","2020","09","15","19:00","16.3","","10.2","","67","","","","18","","20","","14.5","","99.27","","","","","","NA"
"-79.91","44.27","BORDEN AWOS","611B002","2020-09-15 20:00","2020","09","15","20:00","15.6","","10.2","","70","","","","18","","17","","14.5","","99.26","","","","","","NA"
"-79.91","44.27","BORDEN AWOS","611B002","2020-09-15 21:00","2020","09","15","21:00","14.7","","10.3","","75","","","","18","","20","","14.5","","99.17","","","","","","NA"
"-79.91","44.27","BORDEN AWOS","611B002","2020-09-15 22:00","2020","09","15","22:00","14.8","","9.4","","70","","","","19","","20","","14.5","","99.13","","","","","","NA"
"-79.91","44.27","BORDEN AWOS","611B002","2020-09-15 23:00","2020","09","15","23:00","14.9","","8.0","","63","","","","20","","20","","14.5","","99.06","","","","","","NA"
"-79.91","44.27","BORDEN AWOS","611B002","2020-09-16 00:00","2020","09","16","00:00","15.3","","6.3","","55","","","","20","","17","","14.5","","99.03","","","","","","NA"
"-79.91","44.27","BORDEN AWOS","611B002","2020-09-16 01:00","2020","09","16","01:00","15.4","","8.5","","63","","","","24","","13","","14.5","","99.00","","","","","","NA"
"-79.91","44.27","BORDEN AWOS","611B002","2020-09-16 02:00","2020","09","16","02:00","15.8","","9.2","","65","","","","23","","19","","14.5","","98.97","","","","","","NA"
"-79.91","44.27","BORDEN AWOS","611B002","2020-09-16 03:00","2020","09","16","03:00","15.4","","9.3","","67","","","","25","","15","","14.5","","98.98","","","","","","NA"
"-79.91","44.27","BORDEN AWOS","611B002","2020-09-16 04:00","2020","09","16","04:00","15.4","","9.6","","68","","","","24","","17","","14.5","","98.96","","","","","","NA"
"-79.91","44.27","BORDEN AWOS","611B002","2020-09-16 05:00","2020","09","16","05:00","15.3","","9.6","","69","","","","23","","17","","14.5","","98.92","","","","","","NA"
"-79.91","44.27","BORDEN AWOS","611B002","2020-09-16 06:00","2020","09","16","06:00","15.2","","9.5","","69","","","","24","","11","","14.5","","98.92","","","","","","NA"
"-79.91","44.27","BORDEN AWOS","611B002","2020-09-16 07:00","2020","09","16","07:00","15.6","","9.9","","69","","","","23","","13","","14.5","","98.90","","","","","","NA"
"-79.91","44.27","BORDEN AWOS","611B002","2020-09-16 08:00","2020","09","16","08:00","16.7","","10.4","","66","","","","23","","17","","14.5","","98.89","","","","","","NA"
"-79.91","44.27","BORDEN AWOS","611B002","2020-09-16 09:00","2020","09","16","09:00","","M","","M","","M","","","22","","9","","14.5","","98.85","","","","","","NA"
"-79.91","44.27","BORDEN AWOS","611B002","2020-09-16 10:00","2020","09","16","10:00","","M","","M","","M","","","22","","17","","14.5","","98.81","","","","","","NA"
"-79.91","44.27","BORDEN AWOS","611B002","2020-09-16 11:00","2020","09","16","11:00","23.2","","13.2","","53","","","","23","","17","","","M","98.73","","26","","","","NA"
"-79.91","44.27","BORDEN AWOS","611B002","2020-09-16 12:00","2020","09","16","12:00","23.5","","13.2","","52","","","","","M","","M","14.5","","98.69","","26","","","","NA"
"-79.91","44.27","BORDEN AWOS","611B002","2020-09-16 13:00","2020","09","16","13:00","24.4","","14.0","","52","","","","","M","","M","14.5","","98.63","","28","","","","NA"
"-79.91","44.27","BORDEN AWOS","611B002","2020-09-16 14:00","2020","09","16","14:00","25.2","","14.3","","51","","","","","M","","M","14.5","","98.57","","29","","","","NA"
"-79.91","44.27","BORDEN AWOS","611B002","2020-09-16 15:00","2020","09","16","15:00","25.1","","13.7","","49","","","","21","","24","","14.5","","98.50","","28","","","","NA"
"-79.91","44.27","BORDEN AWOS","611B002","2020-09-16 16:00","2020","09","16","16:00","24.7","","13.8","","51","","","","23","","24","","14.5","","98.50","","28","","","","NA"
"-79.91","44.27","BORDEN AWOS","611B002","2020-09-16 17:00","2020","09","16","17:00","23.5","","14.2","","56","","","","23","","19","","14.5","","98.54","","27","","","","NA"
"-79.91","44.27","BORDEN AWOS","611B002","2020-09-16 18:00","2020","09","16","18:00","22.2","","14.5","","62","","","","23","","15","","14.5","","98.57","","26","","","","NA"
"-79.91","44.27","BORDEN AWOS","611B002","2020-09-16 19:00","2020","09","16","19:00","20.4","","15.2","","72","","","","27","","9","","14.5","","98.65","","","","","","Rain"
"-79.91","44.27","BORDEN AWOS","611B002","2020-09-16 20:00","2020","09","16","20:00","16.2","","14.1","","87","","","","31","","15","","14.5","","98.82","","","","","","Rain"
"-79.91","44.27","BORDEN AWOS","611B002","2020-09-16 21:00","2020","09","16","21:00","16.5","","10.9","","70","","","","31","","7","","14.5","","98.89","","","","","","NA"
"-79.91","44.27","BORDEN AWOS","611B002","2020-09-16 22:00","2020","09","16","22:00","15.5","","11.7","","78","","","","28","","6","","14.5","","98.93","","","","","","Rain"
"-79.91","44.27","BORDEN AWOS","611B002","2020-09-16 23:00","2020","09","16","23:00","15.1","","12.1","","82","","","","29","","7","","14.5","","98.96","","","","","","NA"
"-79.91","44.27","BORDEN AWOS","611B002","2020-09-17 00:00","2020","09","17","00:00","14.2","","11.5","","84","","","","","","0","","14.5","","98.96","","","","","","NA"
"-79.91","44.27","BORDEN AWOS","611B002","2020-09-17 01:00","2020","09","17","01:00","13.2","","10.8","","85","","","","30","","13","","14.5","","98.97","","","","","","NA"
"-79.91","44.27","BORDEN AWOS","611B002","2020-09-17 02:00","2020","09","17","02:00","12.8","","10.9","","88","","","","29","","11","","14.5","","98.98","","","","","","NA"
"-79.91","44.27","BORDEN AWOS","611B002","2020-09-17 03:00","2020","09","17","03:00","11.3","","10.4","","94","","","","25","","6","","14.5","","98.99","","","","","","NA"
"-79.91","44.27","BORDEN AWOS","611B002","2020-09-17 04:00","2020","09","17","04:00","9.9","","9.2","","95","","","","30","","6","","14.5","","99.03","","","","","","NA"
"-79.91","44.27","BORDEN AWOS","611B002","2020-09-17 05:00","2020","09","17","05:00","10.8","","10.2","","96","","","","30","","4","","14.5","","99.06","","","","","","NA"
"-79.91","44.27","BORDEN AWOS","611B002","2020-09-17 06:00","2020","09","17","06:00","10.8","","10.4","","97","","","","35","","4","","14.5","","99.14","","","","","","NA"
"-79.91","44.27","BORDEN AWOS","611B002","2020-09-17 07:00","2020","09","17","07:00","11.5","","10.6","","94","","","","36","","15","","14.5","","99.25","","","","","","NA"
"-79.91","44.27","BORDEN AWOS","611B002","2020-09-17 08:00","2020","09","17","08:00","11.7","","9.4","","86","","","","1","","11","","14.5","","99.31","","","","","","NA"
"-79.91","44.27","BORDEN AWOS","611B002","2020-09-17 09:00","2020","09","17","09:00","12.3","","8.6","","78","","","","1","","17","","14.5","","99.38","","","","","","NA"
"-79.91","44.27","BORDEN AWOS","611B002","2020-09-17 10:00","2020","09","17","10:00","14.0","","8.7","","70","","","","33","","17","","14.5","","99.40","","","","","","NA"
"-79.91","44.27","BORDEN AWOS","611B002","2020-09-17 11:00","2020","09","17","11:00","14.8","","8.3","","65","","","","2","","13","","14.5","","99.39","","","","","","NA"
"-79.91","44.27","BORDEN AWOS","611B002","2020-09-17 12:00","2020","09","17","12:00","15.0","","6.8","","58","","","","3","","7","","14.5","","99.38","","","","","","NA"
"-79.91","44.27","BORDEN AWOS","611B002","2020-09-17 13:00","2020","09","17","13:00","15.5","","7.1","","57","","","","31","","17","","14.5","","99.38","","","","","","NA"
"-79.91","44.27","BORDEN AWOS","611B002","2020-09-17 14:00","2020","09","17","14:00","15.6","","6.3","","54","","","","34","","17","","14.5","","99.37","","","","","","NA"
"-79.91","44.27","BORDEN AWOS","611B002","2020-09-17 15:00","2020","09","17","15:00","14.4","","5.9","","57","","","","34","","20","","14.5","","99.36","","","","","","NA"
"-79.91","44.27","BORDEN AWOS","611B002","2020-09-17 16:00","2020","09","17","16:00","13.3","","5.0","","57","","","","30","","20","","14.5","","99.36","","","","","","NA"
"-79.91","44.27","BORDEN AWOS","611B002","2020-09-17 17:00","2020","09","17","17:00","12.3","","4.8","","60","","","","33","","17","","14.5","","99.35","","","","","","NA"
"-79.91","44.27","BORDEN AWOS","611B002","2020-09-17 18:00","2020","09","17","18:00","10.5","","2.7","","58","","","","32","","7","","14.5","","99.36","","","","","","NA"
"-79.91","44.27","BORDEN AWOS","611B002","2020-09-17 19:00","2020","09","17","19:00","8.2","","2.5","","67","","","","30","","4","","14.5","","99.40","","","","","","NA"
"-79.91","44.27","BORDEN AWOS","611B002","2020-09-17 20:00","2020","09","17","20:00","4.4","","1.7","","83","","","","","","0","","14.5","","99.42","","","","","","NA"
"-79.91","44.27","BORDEN AWOS","611B002","2020-09-17 21:00","2020","09","17","21:00","5.2","","1.9","","79","","","","30","","7","","14.5","","99.43","","","","","","NA"
"-79.91","44.27","BORDEN AWOS","611B002","2020-09-17 22:00","2020","09","17","22:00","2.3","","0.8","","90","","","","12","","4","","14.5","","99.44","","","","","","NA"
"-79.91","44.27","BORDEN AWOS","611B002","2020-09-17 23:00","2020","09","17","23:00"
"-79.91","44.27","BORDEN AWOS","611B002","2020-09-18 00:00","2020","09","18","00:00","1.3","","0.3","","93","","","","32","","6","","14.5","","99.47","","","","","","NA"
"-79.91","44.27","BORDEN AWOS","611B002","2020-09-18 01:00","2020","09","18","01:00","0.0","","-0.9","","94","","","","18","","4","","14.5","","99.47","","","","-1","","NA"
"-79.91","44.27","BORDEN AWOS","611B002","2020-09-18 02:00","2020","09","18","02:00","-0.7","","-1.2","","96","","","","","","0","","14.5","","99.49","","","","","","NA"
"-79.91","44.27","BORDEN AWOS","611B002","2020-09-18 03:00","2020","09","18","03:00","-1.2","","-1.6","","97","","","","","","0","","14.5","","99.49","","","","","","NA"
"-79.91","44.27","BORDEN AWOS","611B002","2020-09-18 04:00","2020","09","18","04:00","-1.9","","-2.7","","94","","","","","","0","","14.5","","99.54","","","","","","NA"
"-79.91","44.27","BORDEN AWOS","611B002","2020-09-18 05:00","2020","09","18","05:00","-0.7","","-1.7","","93","","","","","","0","","14.5","","99.56","","","","","","NA"
"-79.91","44.27","BORDEN AWOS","611B002","2020-09-18 06:00","2020","09","18","06:00","-1.4","","-2.0","","96","","","","18","","4","","14.5","","99.61","","","","-3","","NA"
"-79.91","44.27","BORDEN AWOS","611B002","2020-09-18 07:00","2020","09","18","07:00","0.1","","-0.8","","94","","","","27","","4","","14.5","","99.69","","","","","","NA"
"-79.91","44.27","BORDEN AWOS","611B002","2020-09-18 08:00","2020","09","18","08:00","6.9","","3.8","","81","","","","30","","6","","14.5","","99.74","","","","","","NA"
"-79.91","44.27","BORDEN AWOS","611B002","2020-09-18 09:00","2020","09","18","09:00","9.8","","2.9","","62","","","","35","","9","","14.5","","99.81","","","","","","NA"
"-79.91","44.27","BORDEN AWOS","611B002","2020-09-18 10:00","2020","09","18","10:00","11.8","","3.7","","58","","","","35","","13","","14.5","","99.86","","","","","","NA"
"-79.91","44.27","BORDEN AWOS","611B002","2020-09-18 11:00","2020","09","18","11:00","12.5","","0.5","","44","","","","2","","15","","14.5","","99.88","","","","","","NA"
"-79.91","44.27","BORDEN AWOS","611B002","2020-09-18 12:00","2020","09","18","12:00"
"-79.91","44.27","BORDEN AWOS","611B002","2020-09-18 13:00","2020","09","18","13:00","12.6","","-1.0","","39","","","","30","","19","","14.5","","99.88","","","","","","NA"
"-79.91","44.27","BORDEN AWOS","611B002","2020-09-18 14:00","2020","09","18","14:00","13.8","","-1.0","","36","","","","31","","17","","14.5","","99.88","","","","","","NA"
"-79.91","44.27","BORDEN AWOS","611B002","2020-09-18 15:00","2020","09","18","15:00","12.4","","-1.5","","38","","","","36","","20","","14.5","","99.89","","","","","","NA"
"-79.91","44.27","BORDEN AWOS","611B002","2020-09-18 16:00","2020","09","18","16:00","11.5","","-1.0","","42","","","","31","","22","","14.5","","99.90","","","","","","NA"
"-79.91","44.27","BORDEN AWOS","611B002","2020-09-18 17:00","2020","09","18","17:00","10.7","","-0.9","","45","","","","33","","17","","14.5","","99.92","","","","","","NA"
"-79.91","44.27","BORDEN AWOS","611B002","2020-09-18 18:00","2020","09","18","18:00","9.0","","-0.3","","52","","","","32","","6","","14.5","","99.96","","","","","","NA"
"-79.91","44.27","BORDEN AWOS","611B002","2020-09-18 19:00","2020","09","18","19:00","5.1","","0.9","","74","","","","28","","6","","14.5","","99.99","","","","","","NA"
"-79.91","44.27","BORDEN AWOS","611B002","2020-09-18 20:00","2020","09","18","20:00","1.5","","-0.6","","86","","","","","","0","","14.5","","100.05","","","","","","NA"
"-79.91","44.27","BORDEN AWOS","611B002","2020-09-18 21:00","2020","09","18","21:00","0.7","","-1.1","","88","","","","","","0","","14.5","","100.08","","","","","","NA"
"-79.91","44.27","BORDEN AWOS","611B002","2020-09-18 22:00","2020","09","18","22:00","0.8","","-0.5","","91","","","","","","0","","14.5","","100.12","","","","","","NA"
"-79.91","44.27","BORDEN AWOS","611B002","2020-09-18 23:00","2020","09","18","23:00","3.0","","1.6","","91","","","","","","0","","14.5","","100.18","","","","","","NA"
"-79.91","44.27","BORDEN AWOS","611B002","2020-09-19 00:00","2020","09","19","00:00","1.6","","0.4","","92","","","","","","0","","14.5","","100.18","","","","","","NA"
"-79.91","44.27","BORDEN AWOS","611B002","2020-09-19 01:00","2020","09","19","01:00","-1.0","","-1.8","","94","","","","25","","4","","14.5","","100.23","","","","-2","","NA"
"-79.91","44.27","BORDEN AWOS","611B002","2020-09-19 02:00","2020","09","19","02:00","-1.9","","-2.7","","94","","","","21","","4","","14.5","","100.25","","","","-3","","NA"
"-79.91","44.27","BORDEN AWOS","611B002","2020-09-19 03:00","2020","09","19","03:00","-2.0","","-2.0","","100","","","","","","0","","14.5","","100.26","","","","","","NA"
"-79.91","44.27","BORDEN AWOS","611B002","2020-09-19 04:00","2020","09","19","04:00"
"-79.91","44.27","BORDEN AWOS","611B002","2020-09-19 05:00","2020","09","19","05:00","-2.9","","-3.4","","96","","","","","","0","","14.5","","100.29","","","","","","NA"
"-79.91","44.27","BORDEN AWOS","611B002","2020-09-19 06:00","2020","09","19","06:00","-2.8","","-3.3","","96","","","","","","0","","14.5","","100.29","","","","","","NA"
"-79.91","44.27","BORDEN AWOS","611B002","2020-09-19 07:00","2020","09","19","07:00","-0.2","","-0.4","","99","","","","18","","4","","14.5","","100.34","","","","-1","","NA"
"-79.91","44.27","BORDEN AWOS","611B002","2020-09-19 08:00","2020","09","19","08:00","4.8","","2.6","","86","","","","","","0","","14.5","","100.35","","","","","","NA"
"-79.91","44.27","BORDEN AWOS","611B002","2020-09-19 09:00","2020","09","19","09:00"
"-79.91","44.27","BORDEN AWOS","611B002","2020-09-19 10:00","2020","09","19","10:00","12.5","","0.3","","43","","","","22","","11","","14.5","","100.37","","","","","","NA"
"-79.91","44.27","BORDEN AWOS","611B002","2020-09-19 11:00","2020","09","19","11:00"
"-79.91","44.27","BORDEN AWOS","611B002","2020-09-19 12:00","2020","09","19","12:00","12.9","","0.4","","42","","","","12","","13","","14.5","","100.35","","","","","","NA"
"-79.91","44.27","BORDEN AWOS","611B002","2020-09-19 13:00","2020","09","19","13:00","12.9","","0.3","","42","","","","14","","7","","14.5","","100.31","","","","","","NA"
"-79.91","44.27","BORDEN AWOS","611B002","2020-09-19 14:00","2020","09","19","14:00","13.0","","0.2","","41","","","","","","0","","14.5","","100.26","","","","","","NA"
"-79.91","44.27","BORDEN AWOS","611B002","2020-09-19 15:00","2020","09","19","15:00","13.8","","0.5","","40","","","","28","","4","","14.5","","100.22","","","","","","NA"
"-79.91","44.27","BORDEN AWOS","611B002","2020-09-19 16:00","2020","09","19","16:00","13.9","","0.3","","39","","","","12","","7","","14.5","","100.19","","","","","","NA"
"-79.91","44.27","BORDEN AWOS","611B002","2020-09-19 17:00","2020","09","19","17:00","13.4","","0.5","","41","","","","36","","4","","14.5","","100.18","","","","","","NA"
"-79.91","44.27","BORDEN AWOS","611B002","2020-09-19 18:00","2020","09","19","18:00","10.7","","3.0","","59","","","","3","","6","","14.5","","100.20","","","","","","NA"
"-79.91","44.27","BORDEN AWOS","611B002","2020-09-19 19:00","2020","09","19","19:00","8.0","","3.2","","72","","","","","","0","","14.5","","100.24","","","","","","NA"
"-79.91","44.27","BORDEN AWOS","611B002","2020-09-19 20:00","2020","09","19","20:00","8.4","","1.9","","64","","","","12","","9","","14.5","","100.29","","","","","","NA"
"-79.91","44.27","BORDEN AWOS","611B002","2020-09-19 21:00","2020","09","19","21:00","6.3","","2.2","","75","","","","16","","7","","14.5","","100.33","","","","","","NA"
"-79.91","44.27","BORDEN AWOS","611B002","2020-09-19 22:00","2020","09","19","22:00","5.5","","2.8","","83","","","","18","","4","","14.5","","100.37","","","","","","NA"
"-79.91","44.27","BORDEN AWOS","611B002","2020-09-19 23:00","2020","09","19","23:00","6.5","","3.7","","82","","","","23","","4","","14.5","","100.43","","","","","","NA"
"-79.91","44.27","BORDEN AWOS","611B002","2020-09-20 00:00","2020","09","20","00:00","6.1","","4.0","","86","","","","19","","4","","14.5","","100.46","","","","","","NA"
"-79.91","44.27","BORDEN AWOS","611B002","2020-09-20 01:00","2020","09","20","01:00","6.0","","4.0","","87","","","","5","","4","","14.5","","100.49","","","","","","NA"
"-79.91","44.27","BORDEN AWOS","611B002","2020-09-20 02:00","2020","09","20","02:00","5.9","","4.3","","90","","","","6","","4","","14.5","","100.51","","","","","","NA"
"-79.91","44.27","BORDEN AWOS","611B002","2020-09-20 03:00","2020","09","20","03:00","5.1","","4.3","","95","","","","","","0","","14.5","","100.54","","","","","","NA"
"-79.91","44.27","BORDEN AWOS","611B002","2020-09-20 04:00","2020","09","20","04:00","5.6","","4.7","","94","","","","","","0","","14.5","","100.58","","","","","","NA"
"-79.91","44.27","BORDEN AWOS","611B002","2020-09-20 05:00","2020","09","20","05:00","5.8","","4.9","","94","","","","","","0","","14.5","","100.63","","","","","","NA"
"-79.91","44.27","BORDEN AWOS","611B002","2020-09-20 06:00","2020","09","20","06:00","6.0","","5.2","","95","","","","","","0","","14.5","","100.67","","","","","","NA"
"-79.91","44.27","BORDEN AWOS","611B002","2020-09-20 07:00","2020","09","20","07:00","5.7","","4.9","","95","","","","","","0","","14.5","","100.75","","","","","","NA"
"-79.91","44.27","BORDEN AWOS","611B002","2020-09-20 08:00","2020","09","20","08:00","9.9","","5.0","","72","","","","16","","4","","14.5","","100.80","","","","","","NA"
"-79.91","44.27","BORDEN AWOS","611B002","2020-09-20 09:00","2020","09","20","09:00","12.4","","3.7","","55","","","","13","","9","","14.5","","100.84","","","","","","NA"
"-79.91","44.27","BORDEN AWOS","611B002","2020-09-20 10:00","2020","09","20","10:00","14.0","","2.7","","46","","","","13","","11","","14.5","","100.87","","","","","","NA"
"-79.91","44.27","BORDEN AWOS","611B002","2020-09-20 11:00","2020","09","20","11:00","15.0","","2.4","","43","","","","18","","11","","14.5","","100.85","","","","","","NA"
"-79.91","44.27","BORDEN AWOS","611B002","2020-09-20 12:00","2020","09","20","12:00","15.7","","2.6","","41","","","","20","","11","","14.5","","100.84","","","","","","NA"
"-79.91","44.27","BORDEN AWOS","611B002","2020-09-20 13:00","2020","09","20","13:00","16.3","","2.4","","39","","","","","","0","","14.5","","100.77","","","","","","NA"
"-79.91","44.27","BORDEN AWOS","611B002","2020-09-20 14:00","2020","09","20","14:00"
"-79.91","44.27","BORDEN AWOS","611B002","2020-09-20 15:00","2020","09","20","15:00","17.1","","3.0","","39","","","","8","","13","","14.5","","100.69","","","","","","NA"
"-79.91","44.27","BORDEN AWOS","611B002","2020-09-20 16:00","2020","09","20","16:00","16.8","","2.7","","39","","","","18","","11","","14.5","","100.67","","","","","","NA"
"-79.91","44.27","BORDEN AWOS","611B002","2020-09-20 17:00","2020","09","20","17:00","16.1","","3.2","","42","","","","14","","13","","14.5","","100.66","","","","","","NA"
"-79.91","44.27","BORDEN AWOS","611B002","2020-09-20 18:00","2020","09","20","18:00","13.3","","4.8","","56","","","","15","","9","","14.5","","100.68","","","","","","NA"
"-79.91","44.27","BORDEN AWOS","611B002","2020-09-20 19:00","2020","09","20","19:00","10.4","","5.0","","69","","","","15","","13","","14.5","","100.68","","","","","","NA"
"-79.91","44.27","BORDEN AWOS","611B002","2020-09-20 20:00","2020","09","20","20:00"
"-79.91","44.27","BORDEN AWOS","611B002","2020-09-20 21:00","2020","09","20","21:00","7.0","","3.3","","77","","","","18","","7","","14.5","","100.77","","","","","","NA"
"-79.91","44.27","BORDEN AWOS","611B002","2020-09-20 22:00","2020","09","20","22:00","4.5","","2.8","","89","","","","","","0","","14.5","","100.75","","","","","","NA"
"-79.91","44.27","BORDEN AWOS","611B002","2020-09-20 23:00","2020","09","20","23:00","2.5","","2.0","","97","","","","","","0","","14.5","","100.75","","","","","","NA"
"-79.91","44.27","BORDEN AWOS","611B002","2020-09-21 00:00","2020","09","21","00:00","1.4","","1.1","","98","","","","","","0","","14.5","","100.76","","","","","","NA"
"-79.91","44.27","BORDEN AWOS","611B002","2020-09-21 01:00","2020","09","21","01:00","0.8","","-0.1","","94","","","","","","0","","1.1","","100.74","","","","","","NA"
"-79.91","44.27","BORDEN AWOS","611B002","2020-09-21 02:00","2020","09","21","02:00","0.2","","-0.4","","96","","","","","","0","","14.5","","100.72","","","","","","NA"
"-79.91","44.27","BORDEN AWOS","611B002","2020-09-21 03:00","2020","09","21","03:00","-1.0","","-1.7","","95","","","","","","0","","5.6","","100.71","","","","","","NA"
"-79.91","44.27","BORDEN AWOS","611B002","2020-09-21 04:00","2020","09","21","04:00","-1.2","","-1.5","","98","","","","","","0","","14.5","","100.72","","","","","","NA"
"-79.91","44.27","BORDEN AWOS","611B002","2020-09-21 05:00","2020","09","21","05:00","-1.7","","-2.4","","95","","","","","","0","","14.5","","100.72","","","","","","NA"
"-79.91","44.27","BORDEN AWOS","611B002","2020-09-21 06:00","2020","09","21","06:00","-1.2","","-1.8","","96","","","","","","0","","4.0","","100.74","","","","","","NA"
"-79.91","44.27","BORDEN AWOS","611B002","2020-09-21 07:00","2020","09","21","07:00","0.9","","0.5","","97","","","","","","0","","14.5","","100.76","","","","","","NA"
"-79.91","44.27","BORDEN AWOS","611B002","2020-09-21 08:00","2020","09","21","08:00","8.8","","5.9","","82","","","","","","0","","14.5","","100.76","","","","","","NA"
"-79.91","44.27","BORDEN AWOS","611B002","2020-09-21 09:00","2020","09","21","09:00","12.5","","7.1","","70","","","","15","","7","","14.5","","100.78","","","","","","NA"
"-79.91","44.27","BORDEN AWOS","611B002","2020-09-21 10:00","2020","09","21","10:00","14.8","","6.5","","58","","","","16","","13","","14.5","","100.75","","","","","","NA"
"-79.91","44.27","BORDEN AWOS","611B002","2020-09-21 11:00","2020","09","21","11:00","17.7","","7.3","","51","","","","17","","11","","14.5","","100.68","","","","","","NA"
"-79.91","44.27","BORDEN AWOS","611B002","2020-09-21 12:00","2020","09","21","12:00"
"-79.91","44.27","BORDEN AWOS","611B002","2020-09-21 13:00","2020","09","21","13:00","20.2","","5.6","","38","","","","19","","20","","14.5","","100.51","","","","","","NA"
"-79.91","44.27","BORDEN AWOS","611B002","2020-09-21 14:00","2020","09","21","14:00"
"-79.91","44.27","BORDEN AWOS","611B002","2020-09-21 15:00","2020","09","21","15:00"
"-79.91","44.27","BORDEN AWOS","611B002","2020-09-21 16:00","2020","09","21","16:00","20.2","","4.6","","36","","","","16","","13","","14.5","","100.25","","","","","","NA"
"-79.91","44.27","BORDEN AWOS","611B002","2020-09-21 17:00","2020","09","21","17:00","18.8","","6.1","","43","","","","16","","13","","14.5","","100.22","","","","","","NA"
"-79.91","44.27","BORDEN AWOS","611B002","2020-09-21 18:00","2020","09","21","18:00","15.4","","6.7","","56","","","","16","","11","","14.5","","100.20","","","","","","NA"
"-79.91","44.27","BORDEN AWOS","611B002","2020-09-21 19:00","2020","09","21","19:00","12.4","","6.1","","65","","","","16","","9","","14.5","","100.19","","","","","","NA"
"-79.91","44.27","BORDEN AWOS","611B002","2020-09-21 20:00","2020","09","21","20:00","11.5","","6.0","","69","","","","16","","11","","14.5","","100.21","","","","","","NA"
"-79.91","44.27","BORDEN AWOS","611B002","2020-09-21 21:00","2020","09","21","21:00","7.9","","5.4","","84","","","","","","0","","14.5","","100.19","","","","","","NA"
"-79.91","44.27","BORDEN AWOS","611B002","2020-09-21 22:00","2020","09","21","22:00","6.2","","4.3","","88","","","","17","","7","","14.5","","100.16","","","","","","NA"
"-79.91","44.27","BORDEN AWOS","611B002","2020-09-21 23:00","2020","09","21","23:00","5.9","","4.2","","89","","","","20","","7","","14.5","","100.12","","","","","","NA"
"-79.91","44.27","BORDEN AWOS","611B002","2020-09-22 00:00","2020","09","22","00:00","4.8","","4.0","","95","","","","19","","6","","14.5","","100.06","","","","","","NA"
"-79.91","44.27","BORDEN AWOS","611B002","2020-09-22 01:00","2020","09","22","01:00","4.2","","3.8","","97","","","","29","","4","","14.5","","100.07","","","","","","NA"
"-79.91","44.27","BORDEN AWOS","611B002","2020-09-22 02:00","2020","09","22","02:00","3.3","","2.7","","96","","","","","","0","","14.5","","99.98","","","","","","NA"
"-79.91","44.27","BORDEN AWOS","611B002","2020-09-22 03:00","2020","09","22","03:00","2.2","","1.7","","97","","","","","","0","","14.5","","99.92","","","","","","NA"
"-79.91","44.27","BORDEN AWOS","611B002","2020-09-22 04:00","2020","09","22","04:00","2.1","","1.4","","95","","","","20","","4","","14.5","","99.89","","","","","","NA"
"-79.91","44.27","BORDEN AWOS","611B002","2020-09-22 05:00","2020","09","22","05:00","2.5","","2.4","","99","","","","21","","7","","14.5","","99.86","","","","","","NA"
"-79.91","44.27","BORDEN AWOS","611B002","2020-09-22 06:00","2020","09","22","06:00","2.4","","2.1","","98","","","","18","","4","","14.5","","99.86","","","","","","NA"
"-79.91","44.27","BORDEN AWOS","611B002","2020-09-22 07:00","2020","09","22","07:00","3.2","","2.8","","97","","","","","","0","","12.9","","99.82","","","","","","NA"
"-79.91","44.27","BORDEN AWOS","611B002","2020-09-22 08:00","2020","09","22","08:00","8.4","","7.6","","95","","","","","","0","","14.5","","99.77","","","","","","NA"
"-79.91","44.27","BORDEN AWOS","611B002","2020-09-22 09:00","2020","09","22","09:00","13.7","","8.5","","71","","","","13","","6","","14.5","","99.70","","","","","","NA"
"-79.91","44.27","BORDEN AWOS","611B002","2020-09-22 10:00","2020","09","22","10:00","16.8","","9.1","","60","","","","17","","4","","14.5","","99.64","","","","","","NA"
"-79.91","44.27","BORDEN AWOS","611B002","2020-09-22 11:00","2020","09","22","11:00","18.1","","9.2","","56","","","","15","","7","","14.5","","99.55","","","","","","NA"
"-79.91","44.27","BORDEN AWOS","611B002","2020-09-22 12:00","2020","09","22","12:00","21.5","","10.0","","48","","","","18","","7","","14.5","","99.46","","","","","","NA"
"-79.91","44.27","BORDEN AWOS","611B002","2020-09-22 13:00","2020","09","22","13:00","23.0","","9.1","","41","","","","20","","15","","14.5","","99.34","","","","","","NA"
"-79.91","44.27","BORDEN AWOS","611B002","2020-09-22 14:00","2020","09","22","14:00","23.3","","8.3","","38","","","","23","","13","","14.5","","99.24","","","","","","NA"
"-79.91","44.27","BORDEN AWOS","611B002","2020-09-22 15:00","2020","09","22","15:00","23.5","","7.6","","36","","","","30","","7","","14.5","","99.15","","","","","","NA"
"-79.91","44.27","BORDEN AWOS","611B002","2020-09-22 16:00","2020","09","22","16:00","22.4","","8.3","","40","","","","27","","9","","14.5","","99.06","","","","","","NA"
"-79.91","44.27","BORDEN AWOS","611B002","2020-09-22 17:00","2020","09","22","17:00","22.1","","8.7","","42","","","","29","","11","","14.5","","99.03","","","","","","NA"
"-79.91","44.27","BORDEN AWOS","611B002","2020-09-22 18:00","2020","09","22","18:00","18.8","","9.7","","56","","","","","","0","","14.5","","99.01","","","","","","NA"
"-79.91","44.27","BORDEN AWOS","611B002","2020-09-22 19:00","2020","09","22","19:00","14.0","","10.1","","77","","","","31","","4","","14.5","","98.98","","","","","","NA"
"-79.91","44.27","BORDEN AWOS","611B002","2020-09-22 20:00","2020","09","22","20:00","13.1","","8.6","","74","","","","28","","4","","14.5","","98.95","","","","","","NA"
"-79.91","44.27","BORDEN AWOS","611B002","2020-09-22 21:00","2020","09","22","21:00","10.0","","8.0","","87","","","","10","","4","","14.5","","98.91","","","","","","NA"
"-79.91","44.27","BORDEN AWOS","611B002","2020-09-22 22:00","2020","09","22","22:00","9.5","","7.5","","87","","","","8","","4","","14.5","","98.87","","","","","","NA"
"-79.91","44.27","BORDEN AWOS","611B002","2020-09-22 23:00","2020","09","22","23:00"
"-79.91","44.27","BORDEN AWOS","611B002","2020-09-23 00:00","2020","09","23","00:00","15.0","","9.4","","69","","","","29","","7","","14.5","","98.79","","","","","","NA"
"-79.91","44.27","BORDEN AWOS","611B002","2020-09-23 01:00","2020","09","23","01:00","14.4","","10.2","","76","","","","27","","9","","14.5","","98.79","","","","","","NA"
"-79.91","44.27","BORDEN AWOS","611B002","2020-09-23 02:00","2020","09","23","02:00","9.5","","7.8","","89","","","","","","0","","14.5","","98.76","","","","","","NA"
"-79.91","44.27","BORDEN AWOS","611B002","2020-09-23 03:00","2020","09","23","03:00","8.5","","7.8","","95","","","","","","0","","14.5","","98.76","","","","","","NA"
"-79.91","44.27","BORDEN AWOS","611B002","2020-09-23 04:00","2020","09","23","04:00","12.2","","11.1","","93","","","","28","","9","","14.5","","98.77","","","","","","NA"
"-79.91","44.27","BORDEN AWOS","611B002","2020-09-23 05:00","2020","09","23","05:00","12.5","","10.8","","89","","","","29","","9","","14.5","","98.77","","","","","","NA"
"-79.91","44.27","BORDEN AWOS","611B002","2020-09-23 06:00","2020","09","23","06:00","7.5","","6.3","","92","","","","14","","4","","14.5","","98.78","","","","","","NA"
"-79.91","44.27","BORDEN AWOS","611B002","2020-09-23 07:00","2020","09","23","07:00","9.2","","8.6","","96","","","","","","0","","14.5","","98.80","","","","","","NA"
"-79.91","44.27","BORDEN AWOS","611B002","2020-09-23 08:00","2020","09","23","08:00","14.7","","12.0","","84","","","","26","","4","","14.5","","98.82","","","","","","NA"
"-79.91","44.27","BORDEN AWOS","611B002","2020-09-23 09:00","2020","09","23","09:00","18.1","","12.3","","69","","","","28","","7","","14.5","","98.83","","","","","","NA"
"-79.91","44.27","BORDEN AWOS","611B002","2020-09-23 10:00","2020","09","23","10:00","20.2","","12.7","","62","","","","28","","11","","14.5","","98.81","","","","","","NA"
"-79.91","44.27","BORDEN AWOS","611B002","2020-09-23 11:00","2020","09","23","11:00","21.8","","11.8","","53","","","","34","","15","","14.5","","98.79","","","","","","NA"
"-79.91","44.27","BORDEN AWOS","611B002","2020-09-23 12:00","2020","09","23","12:00","21.9","","12.3","","54","","","","1","","11","","14.5","","98.77","","","","","","NA"
"-79.91","44.27","BORDEN AWOS","611B002","2020-09-23 13:00","2020","09","23","13:00","24.1","","12.8","","49","","","","33","","9","","14.5","","98.70","","27","","","","NA"
"-79.91","44.27","BORDEN AWOS","611B002","2020-09-23 14:00","2020","09","23","14:00","24.1","","12.5","","48","","","","36","","11","","14.5","","98.65","","27","","","","NA"
"-79.91","44.27","BORDEN AWOS","611B002","2020-09-23 15:00","2020","09","23","15:00","23.2","","12.6","","51","","","","34","","15","","14.5","","98.62","","26","","","","NA"
"-79.91","44.27","BORDEN AWOS","611B002","2020-09-23 16:00","2020","09","23","16:00","21.3","","13.7","","62","","","","1","","9","","14.5","","98.64","","","","","","NA"
"-79.91","44.27","BORDEN AWOS","611B002","2020-09-23 17:00","2020","09","23","17:00","19.9","","13.8","","68","","","","34","","11","","14.5","","98.68","","","","","","NA"
"-79.91","44.27","BORDEN AWOS","611B002","2020-09-23 18:00","2020","09","23","18:00","17.4","","13.2","","76","","","","36","","4","","14.5","","98.73","","","","","","NA"
"-79.91","44.27","BORDEN AWOS","611B002","2020-09-23 19:00","2020","09","23","19:00","13.4","","12.4","","94","","","","","","0","","14.5","","98.75","","","","","","NA"
"-79.91","44.27","BORDEN AWOS","611B002","2020-09-23 20:00","2020","09","23","20:00","11.1","","10.1","","94","","","","17","","4","","0.6","","98.80","","","","","","NA"
"-79.91","44.27","BORDEN AWOS","611B002","2020-09-23 21:00","2020","09","23","21:00","9.3","","8.7","","96","","","","19","","4","","","M","98.78","","","","","","NA"
"-79.91","44.27","BORDEN AWOS","611B002","2020-09-23 22:00","2020","09","23","22:00"
"-79.91","44.27","BORDEN AWOS","611B002","2020-09-23 23:00","2020","09","23","23:00"
"-79.91","44.27","BORDEN AWOS","611B002","2020-09-24 00:00","2020","09","24","00:00","6.3","","6.3","","100","","","","","","0","","8.0","","98.70","","","","","","NA"
"-79.91","44.27","BORDEN AWOS","611B002","2020-09-24 01:00","2020","09","24","01:00","5.8","","5.4","","97","","","","","","0","","14.5","","98.71","","","","","","NA"
"-79.91","44.27","BORDEN AWOS","611B002","2020-09-24 02:00","2020","09","24","02:00","5.5","","5.5","","100","","","","","","0","","0.5","","98.68","","","","","","NA"
"-79.91","44.27","BORDEN AWOS","611B002","2020-09-24 03:00","2020","09","24","03:00","5.2","","5.2","","100","","","","","","0","","14.5","","98.70","","","","","","NA"
"-79.91","44.27","BORDEN AWOS","611B002","2020-09-24 04:00","2020","09","24","04:00","4.6","","4.6","","100","","","","","","0","","14.5","","98.68","","","","","","NA"
"-79.91","44.27","BORDEN AWOS","611B002","2020-09-24 05:00","2020","09","24","05:00","4.4","","3.4","","93","","","","23","","4","","14.5","","98.65","","","","","","NA"
"-79.91","44.27","BORDEN AWOS","611B002","2020-09-24 06:00","2020","09","24","06:00","3.4","","3.1","","98","","","","","","0","","14.5","","98.67","","","","","","NA"
"-79.91","44.27","BORDEN AWOS","611B002","2020-09-24 07:00","2020","09","24","07:00"
"-79.91","44.27","BORDEN AWOS","611B002","2020-09-24 08:00","2020","09","24","08:00","11.1","","11.1","","100","","","","","","0","","14.5","","98.73","","","","","","NA"
"-79.91","44.27","BORDEN AWOS","611B002","2020-09-24 09:00","2020","09","24","09:00","17.2","","13.1","","77","","","","13","","4","","14.5","","98.79","","","","","","NA"
"-79.91","44.27","BORDEN AWOS","611B002","2020-09-24 10:00","2020","09","24","10:00","20.8","","12.3","","58","","","","12","","6","","14.5","","98.79","","","","","","NA"
"-79.91","44.27","BORDEN AWOS","611B002","2020-09-24 11:00","2020","09","24","11:00","21.6","","11.3","","52","","","","","","0","","14.5","","98.78","","","","","","NA"
"-79.91","44.27","BORDEN AWOS","611B002","2020-09-24 12:00","2020","09","24","12:00","23.8","","11.0","","45","","","","6","","6","","14.5","","98.72","","26","","","","NA"
"-79.91","44.27","BORDEN AWOS","611B002","2020-09-24 13:00","2020","09","24","13:00","24.9","","11.7","","44","","","","15","","7","","14.5","","98.66","","27","","","","NA"
"-79.91","44.27","BORDEN AWOS","611B002","2020-09-24 14:00","2020","09","24","14:00","24.3","","11.3","","44","","","","","","0","","14.5","","98.63","","26","","","","NA"
"-79.91","44.27","BORDEN AWOS","611B002","2020-09-24 15:00","2020","09","24","15:00","22.5","","14.2","","59","","","","34","","7","","14.5","","98.66","","26","","","","NA"
"-79.91","44.27","BORDEN AWOS","611B002","2020-09-24 16:00","2020","09","24","16:00","20.3","","15.9","","76","","","","","","0","","14.5","","98.68","","25","","","","NA"
"-79.91","44.27","BORDEN AWOS","611B002","2020-09-24 17:00","2020","09","24","17:00","19.0","","14.3","","74","","","","34","","6","","14.5","","98.73","","","","","","NA"
"-79.91","44.27","BORDEN AWOS","611B002","2020-09-24 18:00","2020","09","24","18:00","17.4","","14.6","","84","","","","","","0","","14.5","","98.73","","","","","","NA"
"-79.91","44.27","BORDEN AWOS","611B002","2020-09-24 19:00","2020","09","24","19:00","16.4","","14.4","","88","","","","32","","6","","14.5","","98.79","","","","","","NA"
"-79.91","44.27","BORDEN AWOS","611B002","2020-09-24 20:00","2020","09","24","20:00","14.8","","13.9","","94","","","","","","0","","14.5","","98.82","","","","","","NA"
"-79.91","44.27","BORDEN AWOS","611B002","2020-09-24 21:00","2020","09","24","21:00","14.1","","13.5","","96","","","","","","0","","8.0","","98.86","","","","","","NA"
"-79.91","44.27","BORDEN AWOS","611B002","2020-09-24 22:00","2020","09","24","22:00","14.1","","14.1","","100","","","","21","","4","","0.3","","98.88","","","","","","NA"
"-79.91","44.27","BORDEN AWOS","611B002","2020-09-24 23:00","2020","09","24","23:00","13.9","","13.7","","99","","","","","","0","","1.4","","98.89","","","","","","NA"
"-79.91","44.27","BORDEN AWOS","611B002","2020-09-25 00:00","2020","09","25","00:00","13.5","","13.5","","100","","","","","","0","","6.4","","98.90","","","","","","NA"
"-79.91","44.27","BORDEN AWOS","611B002","2020-09-25 01:00","2020","09","25","01:00","13.0","","13.0","","100","","","","","","0","","5.6","","98.91","","","","","","NA"
"-79.91","44.27","BORDEN AWOS","611B002","2020-09-25 02:00","2020","09","25","02:00","12.9","","12.7","","99","","","","","","0","","4.0","","98.91","","","","","","NA"
"-79.91","44.27","BORDEN AWOS","611B002","2020-09-25 03:00","2020","09","25","03:00","12.1","","11.8","","98","","","","","","0","","0.3","","98.89","","","","","","NA"
"-79.91","44.27","BORDEN AWOS","611B002","2020-09-25 04:00","2020","09","25","04:00","10.5","","10.5","","100","","","","","","0","","0.2","","98.94","","","","","","NA"
"-79.91","44.27","BORDEN AWOS","611B002","2020-09-25 05:00","2020","09","25","05:00"
"-79.91","44.27","BORDEN AWOS","611B002","2020-09-25 06:00","2020","09","25","06:00","11.4","","11.4","","100","","","","18","","4","","0.5","","99.03","","","","","","NA"
"-79.91","44.27","BORDEN AWOS","611B002","2020-09-25 07:00","2020","09","25","07:00","12.7","","12.7","","100","","","","15","","4","","0.5","","99.08","","","","","","NA"
"-79.91","44.27","BORDEN AWOS","611B002","2020-09-25 08:00","2020","09","25","08:00","15.1","","14.8","","98","","","","14","","6","","14.5","","99.11","","","","","","NA"
"-79.91","44.27","BORDEN AWOS","611B002","2020-09-25 09:00","2020","09","25","09:00","18.6","","14.9","","79","","","","14","","11","","14.5","","99.14","","","","","","NA"
"-79.91","44.27","BORDEN AWOS","611B002","2020-09-25 10:00","2020","09","25","10:00","21.0","","15.2","","70","","","","13","","7","","14.5","","99.15","","25","","","","NA"
"-79.91","44.27","BORDEN AWOS","611B002","2020-09-25 11:00","2020","09","25","11:00","23.1","","15.2","","61","","","","11","","6","","14.5","","99.12","","27","","","","NA"
"-79.91","44.27","BORDEN AWOS","611B002","2020-09-25 12:00","2020","09","25","12:00","24.9","","13.2","","48","","","","19","","17","","14.5","","99.09","","28","","","","NA"
"-79.91","44.27","BORDEN AWOS","611B002","2020-09-25 13:00","2020","09","25","13:00","25.8","","12.7","","44","","","","20","","11","","14.5","","98.99","","28","","","","NA"
"-79.91","44.27","BORDEN AWOS","611B002","2020-09-25 14:00","2020","09","25","14:00","25.8","","11.8","","42","","","","17","","6","","14.5","","98.94","","28","","","","NA"
"-79.91","44.27","BORDEN AWOS","611B002","2020-09-25 15:00","2020","09","25","15:00","26.8","","12.1","","40","","","","17","","19","","14.5","","98.89","","29","","","","NA"
"-79.91","44.27","BORDEN AWOS","611B002","2020-09-25 16:00","2020","09","25","16:00","26.4","","12.3","","42","","","","20","","17","","14.5","","98.85","","29","","","","NA"
"-79.91","44.27","BORDEN AWOS","611B002","2020-09-25 17:00","2020","09","25","17:00","24.3","","14.8","","55","","","","16","","13","","14.5","","98.84","","28","","","","NA"
"-79.91","44.27","BORDEN AWOS","611B002","2020-09-25 18:00","2020","09","25","18:00","20.3","","14.4","","69","","","","15","","11","","14.5","","98.84","","","","","","NA"
"-79.91","44.27","BORDEN AWOS","611B002","2020-09-25 19:00","2020","09","25","19:00","17.8","","13.6","","76","","","","15","","13","","14.5","","98.89","","","","","","NA"
"-79.91","44.27","BORDEN AWOS","611B002","2020-09-25 20:00","2020","09","25","20:00","16.8","","13.2","","79","","","","16","","11","","14.5","","98.92","","","","","","NA"
"-79.91","44.27","BORDEN AWOS","611B002","2020-09-25 21:00","2020","09","25","21:00","15.8","","12.9","","83","","","","17","","6","","14.5","","98.90","","","","","","NA"
"-79.91","44.27","BORDEN AWOS","611B002","2020-09-25 22:00","2020","09","25","22:00","12.7","","11.4","","92","","","","14","","7","","14.5","","98.91","","","","","","NA"
"-79.91","44.27","BORDEN AWOS","611B002","2020-09-25 23:00","2020","09","25","23:00","14.9","","13.3","","90","","","","16","","11","","14.5","","98.88","","","","","","NA"
"-79.91","44.27","BORDEN AWOS","611B002","2020-09-26 00:00","2020","09","26","00:00","15.0","","13.5","","91","","","","17","","11","","11.3","","98.82","","","","","","NA"
"-79.91","44.27","BORDEN AWOS","611B002","2020-09-26 01:00","2020","09","26","01:00","14.1","","13.2","","94","","","","17","","6","","4.8","","98.84","","","","","","NA"
"-79.91","44.27","BORDEN AWOS","611B002","2020-09-26 02:00","2020","09","26","02:00","13.6","","12.6","","94","","","","14","","11","","2.9","","98.80","","","","","","NA"
"-79.91","44.27","BORDEN AWOS","611B002","2020-09-26 03:00","2020","09","26","03:00","11.9","","11.6","","98","","","","15","","7","","2.1","","98.81","","","","","","NA"
"-79.91","44.27","BORDEN AWOS","611B002","2020-09-26 04:00","2020","09","26","04:00"
"-79.91","44.27","BORDEN AWOS","611B002","2020-09-26 05:00","2020","09","26","05:00","10.0","","9.9","","99","","","","22","","6","","0.2","","98.84","","","","","","NA"
"-79.91","44.27","BORDEN AWOS","611B002","2020-09-26 06:00","2020","09","26","06:00","10.7","","10.6","","99","","","","22","","9","","3.1","","98.78","","","","","","NA"
"-79.91","44.27","BORDEN AWOS","611B002","2020-09-26 07:00","2020","09","26","07:00","11.1","","11.1","","100","","","","17","","4","","4.0","","98.78","","","","","","NA"
"-79.91","44.27","BORDEN AWOS","611B002","2020-09-26 08:00","2020","09","26","08:00","15.3","","14.5","","95","","","","16","","7","","14.5","","98.76","","","","","","NA"
"-79.91","44.27","BORDEN AWOS","611B002","2020-09-26 09:00","2020","09","26","09:00","20.1","","15.0","","73","","","","18","","17","","14.5","","98.66","","","","","","NA"
"-79.91","44.27","BORDEN AWOS","611B002","2020-09-26 10:00","2020","09","26","10:00","22.8","","15.4","","63","","","","18","","20","","14.5","","98.62","","27","","","","NA"
"-79.91","44.27","BORDEN AWOS","611B002","2020-09-26 11:00","2020","09","26","11:00","25.0","","14.7","","53","","","","18","","28","","14.5","","98.59","","29","","","","NA"
"-79.91","44.27","BORDEN AWOS","611B002","2020-09-26 12:00","2020","09","26","12:00","25.3","","14.7","","52","","","","20","","20","","14.5","","98.55","","29","","","","NA"
"-79.91","44.27","BORDEN AWOS","611B002","2020-09-26 13:00","2020","09","26","13:00","25.2","","14.7","","52","","","","21","","22","","14.5","","98.49","","29","","","","NA"
"-79.91","44.27","BORDEN AWOS","611B002","2020-09-26 14:00","2020","09","26","14:00","25.3","","15.6","","55","","","","19","","19","","14.5","","98.45","","30","","","","NA"
"-79.91","44.27","BORDEN AWOS","611B002","2020-09-26 15:00","2020","09","26","15:00","25.3","","15.9","","56","","","","19","","19","","14.5","","98.38","","30","","","","NA"
"-79.91","44.27","BORDEN AWOS","611B002","2020-09-26 16:00","2020","09","26","16:00","25.3","","15.3","","54","","","","19","","26","","14.5","","98.31","","29","","","","NA"
"-79.91","44.27","BORDEN AWOS","611B002","2020-09-26 17:00","2020","09","26","17:00"
"-79.91","44.27","BORDEN AWOS","611B002","2020-09-26 18:00","2020","09","26","18:00","22.6","","14.6","","61","","","","19","","17","","14.5","","98.34","","26","","","","NA"
"-79.91","44.27","BORDEN AWOS","611B002","2020-09-26 19:00","2020","09","26","19:00","21.2","","14.2","","64","","","","19","","20","","14.5","","98.35","","25","","","","NA"
"-79.91","44.27","BORDEN AWOS","611B002","2020-09-26 20:00","2020","09","26","20:00","20.4","","14.6","","69","","","","19","","19","","14.5","","98.36","","","","","","NA"
"-79.91","44.27","BORDEN AWOS","611B002","2020-09-26 21:00","2020","09","26","21:00","19.5","","14.8","","74","","","","17","","17","","14.5","","98.33","","","","","","NA"
"-79.91","44.27","BORDEN AWOS","611B002","2020-09-26 22:00","2020","09","26","22:00","19.6","","15.1","","75","","","","16","","17","","14.5","","98.30","","","","","","NA"
"-79.91","44.27","BORDEN AWOS","611B002","2020-09-26 23:00","2020","09","26","23:00","19.4","","15.3","","77","","","","15","","19","","14.5","","98.25","","","","","","NA"
"-79.91","44.27","BORDEN AWOS","611B002","2020-09-27 00:00","2020","09","27","00:00","19.1","","15.4","","79","","","","15","","22","","14.5","","98.18","","","","","","NA"
"-79.91","44.27","BORDEN AWOS","611B002","2020-09-27 01:00","2020","09","27","01:00","18.8","","15.5","","81","","","","15","","17","","14.5","","98.10","","","","","","NA"
"-79.91","44.27","BORDEN AWOS","611B002","2020-09-27 02:00","2020","09","27","02:00","19.0","","15.8","","82","","","","15","","13","","14.5","","98.08","","","","","","NA"
"-79.91","44.27","BORDEN AWOS","611B002","2020-09-27 03:00","2020","09","27","03:00","20.4","","15.8","","75","","","","20","","22","","14.5","","98.03","","25","","","","NA"
"-79.91","44.27","BORDEN AWOS","611B002","2020-09-27 04:00","2020","09","27","04:00","20.1","","15.7","","76","","","","20","","22","","14.5","","98.01","","25","","","","NA"
"-79.91","44.27","BORDEN AWOS","611B002","2020-09-27 05:00","2020","09","27","05:00","19.8","","15.4","","76","","","","18","","19","","14.5","","97.99","","","","","","NA"
"-79.91","44.27","BORDEN AWOS","611B002","2020-09-27 06:00","2020","09","27","06:00","19.3","","15.3","","78","","","","20","","19","","14.5","","97.98","","","","","","NA"
"-79.91","44.27","BORDEN AWOS","611B002","2020-09-27 07:00","2020","09","27","07:00","19.4","","15.4","","78","","","","19","","15","","14.5","","98.02","","","","","","NA"
"-79.91","44.27","BORDEN AWOS","611B002","2020-09-27 08:00","2020","09","27","08:00","19.6","","15.7","","78","","","","18","","13","","14.5","","98.03","","","","","","NA"
"-79.91","44.27","BORDEN AWOS","611B002","2020-09-27 09:00","2020","09","27","09:00","21.1","","16.0","","73","","","","18","","20","","14.5","","98.02","","26","","","","NA"
"-79.91","44.27","BORDEN AWOS","611B002","2020-09-27 10:00","2020","09","27","10:00","23.1","","16.1","","65","","","","20","","20","","14.5","","98.02","","28","","","","NA"
"-79.91","44.27","BORDEN AWOS","611B002","2020-09-27 11:00","2020","09","27","11:00","24.9","","16.4","","59","","","","20","","20","","14.5","","97.99","","30","","","","NA"
"-79.91","44.27","BORDEN AWOS","611B002","2020-09-27 12:00","2020","09","27","12:00","26.4","","16.8","","56","","","","18","","22","","14.5","","97.98","","32","","","","NA"
"-79.91","44.27","BORDEN AWOS","611B002","2020-09-27 13:00","2020","09","27","13:00","26.9","","16.7","","54","","","","21","","19","","14.5","","97.97","","32","","","","NA"
"-79.91","44.27","BORDEN AWOS","611B002","2020-09-27 14:00","2020","09","27","14:00","27.5","","17.1","","53","","","","23","","20","","14.5","","97.96","","33","","","","NA"
"-79.91","44.27","BORDEN AWOS","611B002","2020-09-27 15:00","2020","09","27","15:00","26.1","","17.3","","58","","","","26","","15","","14.5","","97.99","","32","","","","NA"
"-79.91","44.27","BORDEN AWOS","611B002","2020-09-27 16:00","2020","09","27","16:00","25.4","","17.3","","61","","","","22","","17","","14.5","","97.98","","31","","","","NA"
"-79.91","44.27","BORDEN AWOS","611B002","2020-09-27 17:00","2020","09","27","17:00","24.0","","16.9","","65","","","","19","","19","","14.5","","98.04","","29","","","","NA"
"-79.91","44.27","BORDEN AWOS","611B002","2020-09-27 18:00","2020","09","27","18:00","22.4","","16.6","","70","","","","22","","13","","14.5","","98.18","","27","","","","NA"
"-79.91","44.27","BORDEN AWOS","611B002","2020-09-27 19:00","2020","09","27","19:00","21.9","","16.5","","71","","","","21","","9","","14.5","","98.19","","27","","","","NA"
"-79.91","44.27","BORDEN AWOS","611B002","2020-09-27 20:00","2020","09","27","20:00","21.5","","16.6","","74","","","","25","","7","","14.5","","98.24","","27","","","","NA"
"-79.91","44.27","BORDEN AWOS","611B002","2020-09-27 21:00","2020","09","27","21:00","21.0","","16.9","","77","","","","21","","7","","14.5","","98.22","","26","","","","Rain"
"-79.91","44.27","BORDEN AWOS","611B002","2020-09-27 22:00","2020","09","27","22:00","18.8","","16.7","","88","","","","12","","9","","14.5","","98.16","","","","","","NA"
"-79.91","44.27","BORDEN AWOS","611B002","2020-09-27 23:00","2020","09","27","23:00","19.3","","17.0","","87","","","","17","","4","","14.5","","98.14","","","","","","NA"
"-79.91","44.27","BORDEN AWOS","611B002","2020-09-28 00:00","2020","09","28","00:00","19.2","","16.4","","84","","","","15","","9","","14.5","","98.10","","","","","","NA"
"-79.91","44.27","BORDEN AWOS","611B002","2020-09-28 01:00","2020","09","28","01:00","19.0","","16.1","","83","","","","15","","6","","14.5","","98.11","","","","","","NA"
"-79.91","44.27","BORDEN AWOS","611B002","2020-09-28 02:00","2020","09","28","02:00","17.6","","15.5","","88","","","","13","","7","","14.5","","98.05","","","","","","NA"
"-79.91","44.27","BORDEN AWOS","611B002","2020-09-28 03:00","2020","09","28","03:00","17.5","","15.6","","89","","","","10","","4","","14.5","","97.99","","","","","","NA"
"-79.91","44.27","BORDEN AWOS","611B002","2020-09-28 04:00","2020","09","28","04:00","17.8","","15.9","","89","","","","15","","13","","14.5","","97.98","","","","","","NA"
"-79.91","44.27","BORDEN AWOS","611B002","2020-09-28 05:00","2020","09","28","05:00","17.4","","15.6","","89","","","","17","","7","","14.5","","97.98","","","","","","NA"
"-79.91","44.27","BORDEN AWOS","611B002","2020-09-28 06:00","2020","09","28","06:00","16.9","","15.5","","92","","","","16","","11","","14.5","","97.99","","","","","","NA"
"-79.91","44.27","BORDEN AWOS","611B002","2020-09-28 07:00","2020","09","28","07:00","17.4","","15.8","","90","","","","16","","17","","14.5","","97.97","","","","","","NA"
"-79.91","44.27","BORDEN AWOS","611B002","2020-09-28 08:00","2020","09","28","08:00","18.8","","16.2","","85","","","","17","","17","","14.5","","97.93","","","","","","NA"
"-79.91","44.27","BORDEN AWOS","611B002","2020-09-28 09:00","2020","09","28","09:00","21.1","","16.6","","76","","","","16","","15","","14.5","","97.91","","26","","","","NA"
"-79.91","44.27","BORDEN AWOS","611B002","2020-09-28 10:00","2020","09","28","10:00","22.7","","17.1","","71","","","","15","","19","","14.5","","97.87","","28","","","","NA"
"-79.91","44.27","BORDEN AWOS","611B002","2020-09-28 11:00","2020","09","28","11:00","24.3","","17.1","","64","","","","16","","24","","14.5","","97.81","","30","","","","NA"
"-79.91","44.27","BORDEN AWOS","611B002","2020-09-28 12:00","2020","09","28","12:00","25.0","","16.6","","60","","","","17","","31","","14.5","","97.81","","30","","","","NA"
"-79.91","44.27","BORDEN AWOS","611B002","2020-09-28 13:00","2020","09","28","13:00"
"-79.91","44.27","BORDEN AWOS","611B002","2020-09-28 14:00","2020","09","28","14:00","25.7","","13.9","","48","","","","18","","26","","14.5","","97.69","","29","","","","NA"
"-79.91","44.27","BORDEN AWOS","611B002","2020-09-28 15:00","2020","09","28","15:00","25.3","","14.0","","50","","","","18","","22","","14.5","","97.67","","29","","","","NA"
"-79.91","44.27","BORDEN AWOS","611B002","2020-09-28 16:00","2020","09","28","16:00","24.3","","14.4","","54","","","","18","","22","","14.5","","97.65","","28","","","","NA"
"-79.91","44.27","BORDEN AWOS","611B002","2020-09-28 17:00","2020","09","28","17:00","23.5","","14.7","","58","","","","18","","19","","14.5","","97.62","","27","","","","NA"
"-79.91","44.27","BORDEN AWOS","611B002","2020-09-28 18:00","2020","09","28","18:00","22.5","","14.8","","62","","","","17","","15","","14.5","","97.59","","26","","","","Rain"
"-79.91","44.27","BORDEN AWOS","611B002","2020-09-28 19:00","2020","09","28","19:00","21.2","","15.3","","69","","","","18","","9","","14.5","","97.61","","25","","","","Rain"
"-79.91","44.27","BORDEN AWOS","611B002","2020-09-28 20:00","2020","09","28","20:00","18.0","","17.0","","94","","","","17","","9","","9.7","","97.67","","","","","","Rain"
"-79.91","44.27","BORDEN AWOS","611B002","2020-09-28 21:00","2020","09","28","21:00","18.0","","17.1","","95","","","","20","","11","","11.3","","97.69","","","","","","Rain"
"-79.91","44.27","BORDEN AWOS","611B002","2020-09-28 22:00","2020","09","28","22:00","15.4","","14.3","","93","","","","28","","15","","8.0","","97.71","","","","","","Moderate Rain"
"-79.91","44.27","BORDEN AWOS","611B002","2020-09-28 23:00","2020","09","28","23:00","14.1","","13.8","","98","","","","","","0","","8.0","","97.76","","","","","","Rain"
"-79.91","44.27","BORDEN AWOS","611B002","2020-09-29 00:00","2020","09","29","00:00","14.1","","13.6","","97","","","","24","","7","","14.5","","97.81","","","","","","Rain"
"-79.91","44.27","BORDEN AWOS","611B002","2020-09-29 01:00","2020","09","29","01:00","13.5","","12.6","","94","","","","26","","13","","14.5","","97.88","","","","","","Rain"
"-79.91","44.27","BORDEN AWOS","611B002","2020-09-29 02:00","2020","09","29","02:00","12.6","","11.7","","94","","","","25","","7","","14.5","","97.95","","","","","","NA"
"-79.91","44.27","BORDEN AWOS","611B002","2020-09-29 03:00","2020","09","29","03:00","12.8","","12.1","","96","","","","23","","6","","14.5","","97.93","","","","","","NA"
"-79.91","44.27","BORDEN AWOS","611B002","2020-09-29 04:00","2020","09","29","04:00"
"-79.91","44.27","BORDEN AWOS","611B002","2020-09-29 05:00","2020","09","29","05:00","9.9","","9.4","","97","","","","18","","6","","14.5","","98.07","","","","","","NA"
"-79.91","44.27","BORDEN AWOS","611B002","2020-09-29 06:00","2020","09","29","06:00","9.6","","9.4","","99","","","","10","","4","","14.5","","98.12","","","","","","NA"
"-79.91","44.27","BORDEN AWOS","611B002","2020-09-29 07:00","2020","09","29","07:00","11.5","","10.9","","96","","","","14","","7","","14.5","","98.18","","","","","","NA"
"-79.91","44.27","BORDEN AWOS","611B002","2020-09-29 08:00","2020","09","29","08:00","13.8","","11.8","","88","","","","21","","15","","14.5","","98.20","","","","","","NA"
"-79.91","44.27","BORDEN AWOS","611B002","2020-09-29 09:00","2020","09","29","09:00","15.0","","11.3","","79","","","","26","","17","","14.5","","98.26","","","","","","NA"
"-79.91","44.27","BORDEN AWOS","611B002","2020-09-29 10:00","2020","09","29","10:00","15.9","","9.3","","65","","","","25","","20","","14.5","","98.27","","","","","","NA"
"-79.91","44.27","BORDEN AWOS","611B002","2020-09-29 11:00","2020","09","29","11:00","17.6","","10.3","","62","","","","23","","17","","14.5","","98.26","","","","","","NA"
"-79.91","44.27","BORDEN AWOS","611B002","2020-09-29 12:00","2020","09","29","12:00","17.6","","8.9","","57","","","","25","","15","","14.5","","98.25","","","","","","NA"
"-79.91","44.27","BORDEN AWOS","611B002","2020-09-29 13:00","2020","09","29","13:00","18.1","","8.6","","54","","","","23","","15","","14.5","","98.19","","","","","","NA"
"-79.91","44.27","BORDEN AWOS","611B002","2020-09-29 14:00","2020","09","29","14:00"
"-79.91","44.27","BORDEN AWOS","611B002","2020-09-29 15:00","2020","09","29","15:00","17.1","","8.2","","56","","","","26","","7","","14.5","","98.13","","","","","","NA"
"-79.91","44.27","BORDEN AWOS","611B002","2020-09-29 16:00","2020","09","29","16:00","16.6","","8.2","","58","","","","28","","9","","14.5","","98.15","","","","","","NA"
"-79.91","44.27","BORDEN AWOS","611B002","2020-09-29 17:00","2020","09","29","17:00","15.1","","8.7","","66","","","","22","","4","","14.5","","98.14","","","","","","NA"
"-79.91","44.27","BORDEN AWOS","611B002","2020-09-29 18:00","2020","09","29","18:00","13.5","","9.6","","77","","","","26","","4","","14.5","","98.13","","","","","","NA"
"-79.91","44.27","BORDEN AWOS","611B002","2020-09-29 19:00","2020","09","29","19:00","12.1","","10.2","","88","","","","17","","4","","14.5","","98.17","","","","","","NA"
"-79.91","44.27","BORDEN AWOS","611B002","2020-09-29 20:00","2020","09","29","20:00","12.3","","10.4","","88","","","","","","0","","14.5","","98.11","","","","","","NA"
"-79.91","44.27","BORDEN AWOS","611B002","2020-09-29 21:00","2020","09","29","21:00","11.7","","10.6","","93","","","","15","","6","","14.5","","98.03","","","","","","NA"
"-79.91","44.27","BORDEN AWOS","611B002","2020-09-29 22:00","2020","09","29","22:00","12.0","","10.3","","89","","","","","","0","","14.5","","97.94","","","","","","NA"
"-79.91","44.27","BORDEN AWOS","611B002","2020-09-29 23:00","2020","09","29","23:00","11.4","","10.2","","92","","","","","","0","","14.5","","97.91","","","","","","NA"
"-79.91","44.27","BORDEN AWOS","611B002","2020-09-30 00:00","2020","09","30","00:00","10.7","","10.1","","96","","","","","","0","","14.5","","97.76","","","","","","NA"
"-79.91","44.27","BORDEN AWOS","611B002","2020-09-30 01:00","2020","09","30","01:00","9.6","","9.4","","99","","","","","","0","","14.5","","97.65","","","","","","NA"
"-79.91","44.27","BORDEN AWOS","611B002","2020-09-30 02:00","2020","09","30","02:00","10.5","","9.9","","96","","","","19","","6","","14.5","","97.54","","","","","","NA"
"-79.91","44.27","BORDEN AWOS","611B002","2020-09-30 03:00","2020","09","30","03:00","10.5","","9.6","","94","","","","21","","6","","14.5","","97.48","","","","","","NA"
"-79.91","44.27","BORDEN AWOS","611B002","2020-09-30 04:00","2020","09","30","04:00","10.0","","8.7","","92","","","","21","","7","","14.5","","97.44","","","","","","NA"
"-79.91","44.27","BORDEN AWOS","611B002","2020-09-30 05:00","2020","09","30","05:00","9.7","","8.3","","91","","","","21","","6","","14.5","","97.39","","","","","","NA"
"-79.91","44.27","BORDEN AWOS","611B002","2020-09-30 06:00","2020","09","30","06:00","9.0","","7.8","","92","","","","18","","7","","14.5","","97.35","","","","","","NA"
"-79.91","44.27","BORDEN AWOS","611B002","2020-09-30 07:00","2020","09","30","07:00","9.2","","8.2","","94","","","","17","","9","","14.5","","97.32","","","","","","NA"
"-79.91","44.27","BORDEN AWOS","611B002","2020-09-30 08:00","2020","09","30","08:00","11.6","","8.9","","84","","","","21","","17","","14.5","","97.32","","","","","","NA"
"-79.91","44.27","BORDEN AWOS","611B002","2020-09-30 09:00","2020","09","30","09:00","11.6","","8.2","","80","","","","20","","15","","14.5","","97.30","","","","","","NA"
"-79.91","44.27","BORDEN AWOS","611B002","2020-09-30 10:00","2020","09","30","10:00","12.8","","7.8","","72","","","","23","","28","","14.5","","97.27","","","","","","NA"
"-79.91","44.27","BORDEN AWOS","611B002","2020-09-30 11:00","2020","09","30","11:00","13.9","","8.3","","69","","","","22","","31","","14.5","","97.25","","","","","","NA"
"-79.91","44.27","BORDEN AWOS","611B002","2020-09-30 12:00","2020","09","30","12:00","13.8","","8.8","","72","","","","23","","31","","14.5","","97.28","","","","","","Rain"
"-79.91","44.27","BORDEN AWOS","611B002","2020-09-30 13:00","2020","09","30","13:00","15.6","","9.6","","68","","","","22","","26","","14.5","","97.24","","","","","","NA"
"-79.91","44.27","BORDEN AWOS","611B002","2020-09-30 14:00","2020","09","30","14:00","13.2","","9.6","","79","","","","22","","20","","14.5","","97.23","","","","","","Rain"
"-79.91","44.27","BORDEN AWOS","611B002","2020-09-30 15:00","2020","09","30","15:00","16.4","","9.0","","62","","","","23","","22","","14.5","","97.18","","","","","","NA"
"-79.91","44.27","BORDEN AWOS","611B002","2020-09-30 16:00","2020","09","30","16:00","14.9","","8.4","","65","","","","22","","19","","14.5","","97.22","","","","","","NA"
"-79.91","44.27","BORDEN AWOS","611B002","2020-09-30 17:00","2020","09","30","17:00","11.6","","9.2","","85","","","","23","","13","","14.5","","97.33","","","","","","Rain"
"-79.91","44.27","BORDEN AWOS","611B002","2020-09-30 18:00","2020","09","30","18:00","10.8","","9.9","","94","","","","","","0","","14.5","","97.41","","","","","","Rain"
"-79.91","44.27","BORDEN AWOS","611B002","2020-09-30 19:00","2020","09","30","19:00"
"-79.91","44.27","BORDEN AWOS","611B002","2020-09-30 20:00","2020","09","30","20:00","9.3","","8.4","","94","","","","24","","9","","14.5","","97.54","","","","","","NA"
"-79.91","44.27","BORDEN AWOS","611B002","2020-09-30 21:00","2020","09","30","21:00","7.9","","7.2","","95","","","","20","","6","","14.5","","97.59","","","","","","NA"
"-79.91","44.27","BORDEN AWOS","611B002","2020-09-30 22:00","2020","09","30","22:00","7.1","","7.1","","100","","","","20","","4","","14.5","","97.62","","","","","","NA"
"-79.91","44.27","BORDEN AWOS","611B002","2020-09-30 23:00","2020","09","30","23:00","8.3","","8.2","","99","","","","","","0","","14.5","","97.68","","","","","","NA"
