"Longitude (x)","Latitude (y)","Station Name","Climate ID","Date/Time (LST)","Year","Month","Day","Time (LST)","Temp (°C)","Temp Flag","Dew Point Temp (°C)","Dew Point Temp Flag","Rel Hum (%)","Rel Hum Flag","Precip. Amount (mm)","Precip. Amount Flag","Wind Dir (10s deg)","Wind Dir Flag","Wind Spd (km/h)","Wind Spd Flag","Visibility (km)","Visibility Flag","Stn Press (kPa)","Stn Press Flag","Hmdx","Hmdx Flag","Wind Chill","Wind Chill Flag","Weather"
"-81.24","68.78","SANIRAJAK","2402353","2023-02-01 00:00","2023","02","01","00:00","-32.8","","-36.1","","73","","","M","4","","24","","","","100.99","","","","-48","","NA"
"-81.24","68.78","SANIRAJAK","2402353","2023-02-01 01:00","2023","02","01","01:00","-32.7","","-35.9","","73","","","M","4","","24","","","","100.96","","","","-48","","NA"
"-81.24","68.78","SANIRAJAK","2402353","2023-02-01 02:00","2023","02","01","02:00","-32.1","","-35.2","","73","","","M","5","","28","","","","100.98","","","","-48","","NA"
"-81.24","68.78","SANIRAJAK","2402353","2023-02-01 03:00","2023","02","01","03:00","-31.9","","-35.0","","74","","","M","4","","26","","","","100.98","","","","-47","","NA"
"-81.24","68.78","SANIRAJAK","2402353","2023-02-01 04:00","2023","02","01","04:00","-32.0","","-35.2","","73","","","M","4","","23","","","","100.99","","","","-46","","NA"
"-81.24","68.78","SANIRAJAK","2402353","2023-02-01 05:00","2023","02","01","05:00","-31.7","","-34.8","","74","","","M","4","","24","","","","100.99","","","","-46","","NA"
"-81.24","68.78","SANIRAJAK","2402353","2023-02-01 06:00","2023","02","01","06:00","-31.6","","-34.7","","74","","","M","4","","26","","","","100.99","","","","-47","","NA"
"-81.24","68.78","SANIRAJAK","2402353","2023-02-01 07:00","2023","02","01","07:00","-31.6","","-34.8","","74","","","M","3","","21","","","","100.96","","","","-45","","NA"
"-81.24","68.78","SANIRAJAK","2402353","2023-02-01 08:00","2023","02","01","08:00","-31.6","","-34.7","","74","","","M","3","","25","","","","100.96","","","","-47","","NA"
"-81.24","68.78","SANIRAJAK","2402353","2023-02-01 09:00","2023","02","01","09:00","-31.4","","-34.5","","74","","","M","3","","23","","","","100.96","","","","-46","","NA"
"-81.24","68.78","SANIRAJAK","2402353","2023-02-01 10:00","2023","02","01","10:00","-31.5","","-34.7","","74","","","M","2","","23","","","","100.94","","","","-46","","NA"
"-81.24","68.78","SANIRAJAK","2402353","2023-02-01 11:00","2023","02","01","11:00","-31.9","","-35.1","","73","","","M","1","","22","","","","100.96","","","","-46","","NA"
"-81.24","68.78","SANIRAJAK","2402353","2023-02-01 12:00","2023","02","01","12:00","-30.9","","-34.1","","74","","","M","1","","22","","","","100.95","","","","-45","","NA"
"-81.24","68.78","SANIRAJAK","2402353","2023-02-01 13:00","2023","02","01","13:00","-36.4","","-40.0","","69","","","M","33","","18","","","","100.92","","","","-50","","NA"
"-81.24","68.78","SANIRAJAK","2402353","2023-02-01 14:00","2023","02","01","14:00","-37.8","","-41.4","","69","","","M","33","","18","","","","100.91","","","","-52","","NA"
"-81.24","68.78","SANIRAJAK","2402353","2023-02-01 15:00","2023","02","01","15:00","-38.0","","-41.5","","70","","","M","33","","20","","","","100.92","","","","-53","","NA"
"-81.24","68.78","SANIRAJAK","2402353","2023-02-01 16:00","2023","02","01","16:00","-38.4","","-41.9","","70","","","M","33","","18","","","","100.97","","","","-53","","NA"
"-81.24","68.78","SANIRAJAK","2402353","2023-02-01 17:00","2023","02","01","17:00","-38.3","","-41.8","","70","","","M","33","","20","","","","100.95","","","","-54","","NA"
"-81.24","68.78","SANIRAJAK","2402353","2023-02-01 18:00","2023","02","01","18:00","-38.2","","-41.7","","70","","","M","33","","20","","","","100.93","","","","-53","","NA"
"-81.24","68.78","SANIRAJAK","2402353","2023-02-01 19:00","2023","02","01","19:00","-37.8","","-41.3","","70","","","M","33","","22","","","","100.92","","","","-54","","NA"
"-81.24","68.78","SANIRAJAK","2402353","2023-02-01 20:00","2023","02","01","20:00","-37.5","","-41.0","","70","","","M","33","","22","","","","100.89","","","","-53","","NA"
"-81.24","68.78","SANIRAJAK","2402353","2023-02-01 21:00","2023","02","01","21:00","-38.4","","-41.8","","70","","","M","33","","17","","","","100.92","","","","-53","","NA"
"-81.24","68.78","SANIRAJAK","2402353","2023-02-01 22:00","2023","02","01","22:00","-40.5","","-44.2","","68","","","M","32","","17","","","","100.91","","","","-55","","NA"
"-81.24","68.78","SANIRAJAK","2402353","2023-02-01 23:00","2023","02","01","23:00","-41.2","","-44.9","","68","","","M","31","","15","","","","100.90","","","","-55","","NA"
"-81.24","68.78","SANIRAJAK","2402353","2023-02-02 00:00","2023","02","02","00:00","-40.3","","-43.9","","69","","","M","31","","15","","","","100.88","","","","-54","","NA"
"-81.24","68.78","SANIRAJAK","2402353","2023-02-02 01:00","2023","02","02","01:00","-40.7","","-44.3","","68","","","M","31","","17","","","","100.87","","","","-55","","NA"
"-81.24","68.78","SANIRAJAK","2402353","2023-02-02 02:00","2023","02","02","02:00","-40.5","","-44.2","","68","","","M","31","","17","","","","100.84","","","","-55","","NA"
"-81.24","68.78","SANIRAJAK","2402353","2023-02-02 03:00","2023","02","02","03:00","-40.9","","-44.6","","68","","","M","31","","17","","","","100.83","","","","-56","","NA"
"-81.24","68.78","SANIRAJAK","2402353","2023-02-02 04:00","2023","02","02","04:00","-41.2","","-44.9","","68","","","M","30","","16","","","","100.83","","","","-56","","NA"
"-81.24","68.78","SANIRAJAK","2402353","2023-02-02 05:00","2023","02","02","05:00","-39.9","","-43.4","","69","","","M","30","","22","","","","100.81","","","","-56","","NA"
"-81.24","68.78","SANIRAJAK","2402353","2023-02-02 06:00","2023","02","02","06:00","-39.5","","-43.0","","69","","","M","30","","23","","","","100.80","","","","-56","","NA"
"-81.24","68.78","SANIRAJAK","2402353","2023-02-02 07:00","2023","02","02","07:00","-40.2","","-43.8","","68","","","M","30","","20","","","","100.80","","","","-56","","NA"
"-81.24","68.78","SANIRAJAK","2402353","2023-02-02 08:00","2023","02","02","08:00","-41.2","","-44.9","","68","","","M","28","","14","","","","100.84","","","","-55","","NA"
"-81.24","68.78","SANIRAJAK","2402353","2023-02-02 09:00","2023","02","02","09:00","-40.7","","-44.3","","68","","","M","29","","19","","","","100.82","","","","-56","","NA"
"-81.24","68.78","SANIRAJAK","2402353","2023-02-02 10:00","2023","02","02","10:00","-41.0","","-44.7","","68","","","M","29","","17","","","","100.84","","","","-56","","NA"
"-81.24","68.78","SANIRAJAK","2402353","2023-02-02 11:00","2023","02","02","11:00","-40.5","","-44.2","","68","","","M","28","","15","","","","100.84","","","","-54","","NA"
"-81.24","68.78","SANIRAJAK","2402353","2023-02-02 12:00","2023","02","02","12:00","-39.6","","-43.3","","68","","","M","29","","19","","","","100.83","","","","-55","","NA"
"-81.24","68.78","SANIRAJAK","2402353","2023-02-02 13:00","2023","02","02","13:00","-39.6","","-43.2","","68","","","M","28","","19","","","","100.84","","","","-55","","NA"
"-81.24","68.78","SANIRAJAK","2402353","2023-02-02 14:00","2023","02","02","14:00","-39.2","","-42.8","","69","","","M","29","","20","","","","100.84","","","","-55","","NA"
"-81.24","68.78","SANIRAJAK","2402353","2023-02-02 15:00","2023","02","02","15:00","-39.4","","-43.1","","69","","","M","28","","15","","","","100.87","","","","-53","","NA"
"-81.24","68.78","SANIRAJAK","2402353","2023-02-02 16:00","2023","02","02","16:00","-40.2","","-43.9","","68","","","M","29","","19","","","","100.89","","","","-56","","NA"
"-81.24","68.78","SANIRAJAK","2402353","2023-02-02 17:00","2023","02","02","17:00","-41.0","","-44.7","","68","","","M","29","","15","","","","100.92","","","","-55","","NA"
"-81.24","68.78","SANIRAJAK","2402353","2023-02-02 18:00","2023","02","02","18:00","-41.5","","-45.2","","68","","","M","29","","16","","","","100.95","","","","-56","","NA"
"-81.24","68.78","SANIRAJAK","2402353","2023-02-02 19:00","2023","02","02","19:00","-40.8","","-44.5","","68","","","M","29","","17","","","","100.95","","","","-56","","NA"
"-81.24","68.78","SANIRAJAK","2402353","2023-02-02 20:00","2023","02","02","20:00","-41.3","","-45.0","","68","","","M","29","","17","","","","100.96","","","","-56","","NA"
"-81.24","68.78","SANIRAJAK","2402353","2023-02-02 21:00","2023","02","02","21:00","-41.8","","-45.5","","67","","","M","29","","19","","","","100.94","","","","-58","","NA"
"-81.24","68.78","SANIRAJAK","2402353","2023-02-02 22:00","2023","02","02","22:00","-42.0","","-45.7","","67","","","M","29","","16","","","","100.96","","","","-57","","NA"
"-81.24","68.78","SANIRAJAK","2402353","2023-02-02 23:00","2023","02","02","23:00","-41.8","","-45.5","","67","","","M","28","","16","","","","100.94","","","","-56","","NA"
"-81.24","68.78","SANIRAJAK","2402353","2023-02-03 00:00","2023","02","03","00:00","-41.6","","-45.3","","68","","","M","29","","13","","","","100.94","","","","-55","","NA"
"-81.24","68.78","SANIRAJAK","2402353","2023-02-03 01:00","2023","02","03","01:00","-41.3","","-45.0","","68","","","M","30","","15","","","","100.96","","","","-55","","NA"
"-81.24","68.78","SANIRAJAK","2402353","2023-02-03 02:00","2023","02","03","02:00","-42.7","","-46.5","","67","","","M","30","","14","","","","100.95","","","","-57","","NA"
"-81.24","68.78","SANIRAJAK","2402353","2023-02-03 03:00","2023","02","03","03:00","-42.8","","-46.6","","67","","","M","30","","15","","","","100.98","","","","-57","","NA"
"-81.24","68.78","SANIRAJAK","2402353","2023-02-03 04:00","2023","02","03","04:00","-42.5","","-46.2","","67","","","M","29","","17","","","","100.98","","","","-58","","NA"
"-81.24","68.78","SANIRAJAK","2402353","2023-02-03 05:00","2023","02","03","05:00","-43.0","","-46.7","","67","","","M","30","","17","","","","100.99","","","","-58","","NA"
"-81.24","68.78","SANIRAJAK","2402353","2023-02-03 06:00","2023","02","03","06:00","-43.1","","-46.9","","66","","","M","29","","16","","","","100.98","","","","-58","","NA"
"-81.24","68.78","SANIRAJAK","2402353","2023-02-03 07:00","2023","02","03","07:00","-43.1","","-46.9","","67","","","M","30","","17","","","","100.97","","","","-58","","NA"
"-81.24","68.78","SANIRAJAK","2402353","2023-02-03 08:00","2023","02","03","08:00","-43.8","","-47.6","","66","","","M","30","","15","","","","100.97","","","","-58","","NA"
"-81.24","68.78","SANIRAJAK","2402353","2023-02-03 09:00","2023","02","03","09:00","-44.3","","-48.1","","66","","","M","32","","14","","","","100.98","","","","-59","","NA"
"-81.24","68.78","SANIRAJAK","2402353","2023-02-03 10:00","2023","02","03","10:00","-44.0","","-47.8","","66","","","M","31","","16","","","","100.97","","","","-59","","NA"
"-81.24","68.78","SANIRAJAK","2402353","2023-02-03 11:00","2023","02","03","11:00","-43.6","","-47.4","","66","","","M","30","","14","","","","100.95","","","","-58","","NA"
"-81.24","68.78","SANIRAJAK","2402353","2023-02-03 12:00","2023","02","03","12:00","-43.4","","-47.3","","66","","","M","31","","15","","","","100.95","","","","-58","","NA"
"-81.24","68.78","SANIRAJAK","2402353","2023-02-03 13:00","2023","02","03","13:00","-43.1","","-46.9","","66","","","M","31","","14","","","","100.96","","","","-57","","NA"
"-81.24","68.78","SANIRAJAK","2402353","2023-02-03 14:00","2023","02","03","14:00","-43.1","","-47.0","","66","","","M","31","","13","","","","100.97","","","","-57","","NA"
"-81.24","68.78","SANIRAJAK","2402353","2023-02-03 15:00","2023","02","03","15:00","-43.6","","-47.5","","66","","","M","31","","15","","","","101.00","","","","-58","","NA"
"-81.24","68.78","SANIRAJAK","2402353","2023-02-03 16:00","2023","02","03","16:00","-43.8","","-47.6","","66","","","M","32","","15","","","","101.02","","","","-58","","NA"
"-81.24","68.78","SANIRAJAK","2402353","2023-02-03 17:00","2023","02","03","17:00","-44.1","","-47.9","","66","","","M","31","","16","","","","101.03","","","","-59","","NA"
"-81.24","68.78","SANIRAJAK","2402353","2023-02-03 18:00","2023","02","03","18:00","-44.0","","-47.8","","66","","","M","30","","14","","","","101.04","","","","-58","","NA"
"-81.24","68.78","SANIRAJAK","2402353","2023-02-03 19:00","2023","02","03","19:00","-44.1","","-47.9","","66","","","M","30","","15","","","","101.04","","","","-59","","NA"
"-81.24","68.78","SANIRAJAK","2402353","2023-02-03 20:00","2023","02","03","20:00","-44.2","","-48.0","","66","","","M","30","","13","","","","101.03","","","","-58","","NA"
"-81.24","68.78","SANIRAJAK","2402353","2023-02-03 21:00","2023","02","03","21:00","-44.3","","-48.1","","66","","","M","30","","13","","","","101.03","","","","-58","","NA"
"-81.24","68.78","SANIRAJAK","2402353","2023-02-03 22:00","2023","02","03","22:00","-43.9","","-47.7","","66","","","M","30","","16","","","","101.04","","","","-59","","NA"
"-81.24","68.78","SANIRAJAK","2402353","2023-02-03 23:00","2023","02","03","23:00","-43.8","","-47.6","","66","","","M","30","","14","","","","101.06","","","","-58","","NA"
"-81.24","68.78","SANIRAJAK","2402353","2023-02-04 00:00","2023","02","04","00:00","-43.8","","-47.6","","66","","","M","30","","15","","","","101.07","","","","-58","","NA"
"-81.24","68.78","SANIRAJAK","2402353","2023-02-04 01:00","2023","02","04","01:00","-44.3","","-48.1","","66","","","M","30","","14","","","","101.08","","","","-59","","NA"
"-81.24","68.78","SANIRAJAK","2402353","2023-02-04 02:00","2023","02","04","02:00","-44.2","","-48.0","","66","","","M","30","","14","","","","101.08","","","","-58","","NA"
"-81.24","68.78","SANIRAJAK","2402353","2023-02-04 03:00","2023","02","04","03:00","-44.0","","-47.8","","66","","","M","29","","16","","","","101.10","","","","-59","","NA"
"-81.24","68.78","SANIRAJAK","2402353","2023-02-04 04:00","2023","02","04","04:00","-43.8","","-47.6","","66","","","M","29","","13","","","","101.10","","","","-57","","NA"
"-81.24","68.78","SANIRAJAK","2402353","2023-02-04 05:00","2023","02","04","05:00","-43.8","","-47.6","","66","","","M","29","","14","","","","101.13","","","","-58","","NA"
"-81.24","68.78","SANIRAJAK","2402353","2023-02-04 06:00","2023","02","04","06:00","-44.4","","-48.2","","65","","","M","29","","11","","","","101.14","","","","-57","","NA"
"-81.24","68.78","SANIRAJAK","2402353","2023-02-04 07:00","2023","02","04","07:00","-43.7","","-47.5","","66","","","M","29","","12","","","","101.15","","","","-57","","NA"
"-81.24","68.78","SANIRAJAK","2402353","2023-02-04 08:00","2023","02","04","08:00","-44.3","","-48.1","","66","","","M","29","","15","","","","101.15","","","","-59","","NA"
"-81.24","68.78","SANIRAJAK","2402353","2023-02-04 09:00","2023","02","04","09:00","-44.6","","-48.4","","65","","","M","29","","14","","","","101.15","","","","-59","","NA"
"-81.24","68.78","SANIRAJAK","2402353","2023-02-04 10:00","2023","02","04","10:00","-44.5","","-48.4","","65","","","M","29","","14","","","","101.14","","","","-59","","NA"
"-81.24","68.78","SANIRAJAK","2402353","2023-02-04 11:00","2023","02","04","11:00","-43.2","","-47.1","","66","","","M","29","","14","","","","101.12","","","","-57","","NA"
"-81.24","68.78","SANIRAJAK","2402353","2023-02-04 12:00","2023","02","04","12:00","-42.0","","-45.8","","67","","","M","29","","16","","","","101.08","","","","-57","","NA"
"-81.24","68.78","SANIRAJAK","2402353","2023-02-04 13:00","2023","02","04","13:00","-42.5","","-46.4","","66","","","M","29","","11","","","","101.05","","","","-55","","NA"
"-81.24","68.78","SANIRAJAK","2402353","2023-02-04 14:00","2023","02","04","14:00","-42.7","","-46.5","","66","","","M","29","","17","","","","101.02","","","","-58","","NA"
"-81.24","68.78","SANIRAJAK","2402353","2023-02-04 15:00","2023","02","04","15:00","-42.6","","-46.4","","66","","","M","30","","13","","","","101.02","","","","-56","","NA"
"-81.24","68.78","SANIRAJAK","2402353","2023-02-04 16:00","2023","02","04","16:00","-42.9","","-46.7","","66","","","M","29","","15","","","","100.99","","","","-57","","NA"
"-81.24","68.78","SANIRAJAK","2402353","2023-02-04 17:00","2023","02","04","17:00","-43.1","","-47.0","","66","","","M","29","","16","","","","100.91","","","","-58","","NA"
"-81.24","68.78","SANIRAJAK","2402353","2023-02-04 18:00","2023","02","04","18:00","-42.5","","-46.2","","67","","","M","29","","17","","","","100.89","","","","-58","","NA"
"-81.24","68.78","SANIRAJAK","2402353","2023-02-04 19:00","2023","02","04","19:00","-42.5","","-46.3","","66","","","M","29","","16","","","","100.80","","","","-57","","NA"
"-81.24","68.78","SANIRAJAK","2402353","2023-02-04 20:00","2023","02","04","20:00","-42.2","","-46.0","","67","","","M","29","","16","","","","100.72","","","","-57","","NA"
"-81.24","68.78","SANIRAJAK","2402353","2023-02-04 21:00","2023","02","04","21:00","-41.8","","-45.5","","67","","","M","29","","18","","","","100.66","","","","-57","","NA"
"-81.24","68.78","SANIRAJAK","2402353","2023-02-04 22:00","2023","02","04","22:00","-41.3","","-45.0","","67","","","M","29","","16","","","","100.58","","","","-56","","NA"
"-81.24","68.78","SANIRAJAK","2402353","2023-02-04 23:00","2023","02","04","23:00","-41.3","","-45.0","","67","","","M","28","","15","","","","100.51","","","","-55","","NA"
"-81.24","68.78","SANIRAJAK","2402353","2023-02-05 00:00","2023","02","05","00:00","-40.5","","-44.2","","68","","","M","28","","19","","","","100.43","","","","-56","","NA"
"-81.24","68.78","SANIRAJAK","2402353","2023-02-05 01:00","2023","02","05","01:00","-40.5","","-44.2","","68","","","M","28","","17","","","","100.34","","","","-55","","NA"
"-81.24","68.78","SANIRAJAK","2402353","2023-02-05 02:00","2023","02","05","02:00","-39.3","","-42.9","","69","","","M","29","","20","","","","100.27","","","","-55","","NA"
"-81.24","68.78","SANIRAJAK","2402353","2023-02-05 03:00","2023","02","05","03:00","-38.3","","-41.9","","69","","","M","29","","25","","","","100.24","","","","-55","","NA"
"-81.24","68.78","SANIRAJAK","2402353","2023-02-05 04:00","2023","02","05","04:00","-38.4","","-42.0","","69","","","M","28","","24","","","","100.20","","","","-55","","NA"
"-81.24","68.78","SANIRAJAK","2402353","2023-02-05 05:00","2023","02","05","05:00","-38.4","","-42.0","","69","","","M","29","","23","","","","100.14","","","","-55","","NA"
"-81.24","68.78","SANIRAJAK","2402353","2023-02-05 06:00","2023","02","05","06:00","-38.0","","-41.5","","69","","","M","29","","26","","","","100.08","","","","-55","","NA"
"-81.24","68.78","SANIRAJAK","2402353","2023-02-05 07:00","2023","02","05","07:00","-37.7","","-41.2","","69","","","M","28","","30","","","","100.00","","","","-56","","NA"
"-81.24","68.78","SANIRAJAK","2402353","2023-02-05 08:00","2023","02","05","08:00","-37.7","","-41.3","","69","","","M","28","","29","","","","99.94","","","","-55","","NA"
"-81.24","68.78","SANIRAJAK","2402353","2023-02-05 09:00","2023","02","05","09:00","-37.8","","-41.4","","69","","","M","28","","31","","","","99.88","","","","-56","","NA"
"-81.24","68.78","SANIRAJAK","2402353","2023-02-05 10:00","2023","02","05","10:00","-37.9","","-41.4","","69","","","M","28","","26","","","","99.86","","","","-55","","NA"
"-81.24","68.78","SANIRAJAK","2402353","2023-02-05 11:00","2023","02","05","11:00","-37.4","","-41.0","","69","","","M","28","","27","","","","99.80","","","","-55","","NA"
"-81.24","68.78","SANIRAJAK","2402353","2023-02-05 12:00","2023","02","05","12:00","-37.1","","-40.6","","69","","","M","28","","29","","","","99.72","","","","-55","","NA"
"-81.24","68.78","SANIRAJAK","2402353","2023-02-05 13:00","2023","02","05","13:00","-36.3","","-39.8","","70","","","M","28","","30","","","","99.68","","","","-54","","NA"
"-81.24","68.78","SANIRAJAK","2402353","2023-02-05 14:00","2023","02","05","14:00","-36.5","","-40.0","","70","","","M","27","","34","","","","99.66","","","","-55","","NA"
"-81.24","68.78","SANIRAJAK","2402353","2023-02-05 15:00","2023","02","05","15:00","-36.4","","-39.9","","70","","","M","28","","32","","","","99.67","","","","-54","","NA"
"-81.24","68.78","SANIRAJAK","2402353","2023-02-05 16:00","2023","02","05","16:00","-36.5","","-40.0","","70","","","M","27","","30","","","","99.69","","","","-54","","NA"
"-81.24","68.78","SANIRAJAK","2402353","2023-02-05 17:00","2023","02","05","17:00","-36.8","","-40.3","","70","","","M","27","","30","","","","99.72","","","","-54","","NA"
"-81.24","68.78","SANIRAJAK","2402353","2023-02-05 18:00","2023","02","05","18:00","-37.0","","-40.5","","70","","","M","28","","23","","","","99.73","","","","-53","","NA"
"-81.24","68.78","SANIRAJAK","2402353","2023-02-05 19:00","2023","02","05","19:00","-36.5","","-40.0","","70","","","M","28","","26","","","","99.75","","","","-53","","NA"
"-81.24","68.78","SANIRAJAK","2402353","2023-02-05 20:00","2023","02","05","20:00","-36.8","","-40.3","","70","","","M","26","","10","","","","99.81","","","","-47","","NA"
"-81.24","68.78","SANIRAJAK","2402353","2023-02-05 21:00","2023","02","05","21:00","-36.8","","-40.3","","70","","","M","27","","17","","","","99.85","","","","-51","","NA"
"-81.24","68.78","SANIRAJAK","2402353","2023-02-05 22:00","2023","02","05","22:00","-36.7","","-40.2","","70","","","M","29","","20","","","","99.85","","","","-52","","NA"
"-81.24","68.78","SANIRAJAK","2402353","2023-02-05 23:00","2023","02","05","23:00","-36.5","","-40.0","","70","","","M","27","","15","","","","99.87","","","","-49","","NA"
"-81.24","68.78","SANIRAJAK","2402353","2023-02-06 00:00","2023","02","06","00:00","-36.5","","-40.0","","70","","","M","29","","14","","","","99.88","","","","-49","","NA"
"-81.24","68.78","SANIRAJAK","2402353","2023-02-06 01:00","2023","02","06","01:00","-36.9","","-40.4","","70","","","M","25","","11","","","","99.94","","","","-48","","NA"
"-81.24","68.78","SANIRAJAK","2402353","2023-02-06 02:00","2023","02","06","02:00","-35.6","","-39.0","","71","","","M","25","","11","","","","99.96","","","","-46","","NA"
"-81.24","68.78","SANIRAJAK","2402353","2023-02-06 03:00","2023","02","06","03:00","-35.0","","-38.4","","71","","","M","24","","10","","","","100.00","","","","-45","","NA"
"-81.24","68.78","SANIRAJAK","2402353","2023-02-06 04:00","2023","02","06","04:00","-34.5","","-37.9","","71","","","M","30","","4","","","","100.07","","","","-39","","NA"
"-81.24","68.78","SANIRAJAK","2402353","2023-02-06 05:00","2023","02","06","05:00","-33.7","","-37.0","","72","","","M","26","","14","","","","100.08","","","","-46","","NA"
"-81.24","68.78","SANIRAJAK","2402353","2023-02-06 06:00","2023","02","06","06:00","-34.3","","-37.7","","71","","","M","27","","13","","","","100.14","","","","-46","","NA"
"-81.24","68.78","SANIRAJAK","2402353","2023-02-06 07:00","2023","02","06","07:00","-36.2","","-39.7","","70","","","M","30","","15","","","","100.18","","","","-49","","NA"
"-81.24","68.78","SANIRAJAK","2402353","2023-02-06 08:00","2023","02","06","08:00","-36.2","","-39.7","","70","","","M","22","","13","","","","100.24","","","","-48","","NA"
"-81.24","68.78","SANIRAJAK","2402353","2023-02-06 09:00","2023","02","06","09:00","-38.0","","-41.6","","69","","","M","24","","10","","","","100.28","","","","-49","","NA"
"-81.24","68.78","SANIRAJAK","2402353","2023-02-06 10:00","2023","02","06","10:00","-38.6","","-42.2","","69","","","M","21","","8","","","","100.28","","","","-48","","NA"
"-81.24","68.78","SANIRAJAK","2402353","2023-02-06 11:00","2023","02","06","11:00","-38.5","","-42.1","","69","","","M","25","","13","","","","100.35","","","","-51","","NA"
"-81.24","68.78","SANIRAJAK","2402353","2023-02-06 12:00","2023","02","06","12:00","-38.8","","-42.5","","68","","","M","24","","15","","","","100.37","","","","-52","","NA"
"-81.24","68.78","SANIRAJAK","2402353","2023-02-06 13:00","2023","02","06","13:00","-38.4","","-42.0","","69","","","M","26","","11","","","","100.44","","","","-50","","NA"
"-81.24","68.78","SANIRAJAK","2402353","2023-02-06 14:00","2023","02","06","14:00","-37.9","","-41.5","","69","","","M","26","","8","","","","100.49","","","","-47","","NA"
"-81.24","68.78","SANIRAJAK","2402353","2023-02-06 15:00","2023","02","06","15:00","-38.5","","-42.1","","69","","","M","26","","9","","","","100.53","","","","-49","","NA"
"-81.24","68.78","SANIRAJAK","2402353","2023-02-06 16:00","2023","02","06","16:00","-38.6","","-42.1","","69","","","M","24","","6","","","","100.58","","","","-46","","NA"
"-81.24","68.78","SANIRAJAK","2402353","2023-02-06 17:00","2023","02","06","17:00","-40.1","","-43.6","","69","","","M","22","","10","","","","100.63","","","","-51","","NA"
"-81.24","68.78","SANIRAJAK","2402353","2023-02-06 18:00","2023","02","06","18:00","-41.1","","-44.8","","67","","","M","21","","12","","","","100.65","","","","-54","","NA"
"-81.24","68.78","SANIRAJAK","2402353","2023-02-06 19:00","2023","02","06","19:00","-41.5","","-45.2","","67","","","M","22","","11","","","","100.67","","","","-54","","NA"
"-81.24","68.78","SANIRAJAK","2402353","2023-02-06 20:00","2023","02","06","20:00","-41.2","","-44.9","","68","","","M","21","","10","","","","100.68","","","","-53","","NA"
"-81.24","68.78","SANIRAJAK","2402353","2023-02-06 21:00","2023","02","06","21:00","-40.6","","-44.2","","68","","","M","21","","7","","","","100.69","","","","-50","","NA"
"-81.24","68.78","SANIRAJAK","2402353","2023-02-06 22:00","2023","02","06","22:00","-39.2","","-42.8","","69","","","M","23","","12","","","","100.68","","","","-51","","NA"
"-81.24","68.78","SANIRAJAK","2402353","2023-02-06 23:00","2023","02","06","23:00","-39.9","","-43.5","","69","","","M","24","","11","","","","100.68","","","","-52","","NA"
"-81.24","68.78","SANIRAJAK","2402353","2023-02-07 00:00","2023","02","07","00:00","-39.9","","-43.5","","68","","","M","22","","6","","","","100.67","","","","-48","","NA"
"-81.24","68.78","SANIRAJAK","2402353","2023-02-07 01:00","2023","02","07","01:00","-36.9","","-40.4","","70","","","M","21","","6","","","","100.67","","","","-44","","NA"
"-81.24","68.78","SANIRAJAK","2402353","2023-02-07 02:00","2023","02","07","02:00","-39.2","","-42.8","","68","","","M","18","","4","","","","100.67","","","","-45","","NA"
"-81.24","68.78","SANIRAJAK","2402353","2023-02-07 03:00","2023","02","07","03:00","-41.2","","-44.9","","67","","","M","19","","4","","","","100.70","","","","-47","","NA"
"-81.24","68.78","SANIRAJAK","2402353","2023-02-07 04:00","2023","02","07","04:00","-39.7","","-43.4","","68","","","M","18","","6","","","","100.70","","","","-48","","NA"
"-81.24","68.78","SANIRAJAK","2402353","2023-02-07 05:00","2023","02","07","05:00","-38.3","","-41.9","","69","","","M","21","","4","","","","100.69","","","","-44","","NA"
"-81.24","68.78","SANIRAJAK","2402353","2023-02-07 06:00","2023","02","07","06:00","-40.5","","-44.2","","67","","","M","23","","2","","","","100.69","","","","-43","","NA"
"-81.24","68.78","SANIRAJAK","2402353","2023-02-07 07:00","2023","02","07","07:00","-41.5","","-45.2","","67","","","M","25","","6","","","","100.66","","","","-50","","NA"
"-81.24","68.78","SANIRAJAK","2402353","2023-02-07 08:00","2023","02","07","08:00","-39.8","","-43.3","","69","","","M","26","","8","","","","100.68","","","","-49","","NA"
"-81.24","68.78","SANIRAJAK","2402353","2023-02-07 09:00","2023","02","07","09:00","-39.2","","-42.7","","69","","","M","32","","7","","","","100.67","","","","-48","","NA"
"-81.24","68.78","SANIRAJAK","2402353","2023-02-07 10:00","2023","02","07","10:00","-40.6","","-44.3","","67","","","M","24","","7","","","","100.68","","","","-50","","NA"
"-81.24","68.78","SANIRAJAK","2402353","2023-02-07 11:00","2023","02","07","11:00","-39.4","","-43.0","","69","","","M","25","","5","","","","100.67","","","","-46","","NA"
"-81.24","68.78","SANIRAJAK","2402353","2023-02-07 12:00","2023","02","07","12:00","-39.9","","-43.6","","68","","","M","24","","12","","","","100.67","","","","-52","","NA"
"-81.24","68.78","SANIRAJAK","2402353","2023-02-07 13:00","2023","02","07","13:00","-38.3","","-41.8","","69","","","M","27","","11","","","","100.65","","","","-50","","NA"
"-81.24","68.78","SANIRAJAK","2402353","2023-02-07 14:00","2023","02","07","14:00","-36.9","","-40.4","","70","","","M","29","","9","","","","100.67","","","","-47","","NA"
"-81.24","68.78","SANIRAJAK","2402353","2023-02-07 15:00","2023","02","07","15:00","-37.6","","-41.2","","69","","","M","29","","13","","","","100.71","","","","-50","","NA"
"-81.24","68.78","SANIRAJAK","2402353","2023-02-07 16:00","2023","02","07","16:00","-39.1","","-42.8","","68","","","M","29","","15","","","","100.72","","","","-53","","NA"
"-81.24","68.78","SANIRAJAK","2402353","2023-02-07 17:00","2023","02","07","17:00","-38.3","","-41.9","","69","","","M","29","","14","","","","100.72","","","","-51","","NA"
"-81.24","68.78","SANIRAJAK","2402353","2023-02-07 18:00","2023","02","07","18:00","-38.0","","-41.5","","70","","","M","30","","10","","","","100.74","","","","-49","","NA"
"-81.24","68.78","SANIRAJAK","2402353","2023-02-07 19:00","2023","02","07","19:00","-38.3","","-41.9","","69","","","M","30","","12","","","","100.73","","","","-50","","NA"
"-81.24","68.78","SANIRAJAK","2402353","2023-02-07 20:00","2023","02","07","20:00","-38.3","","-41.9","","69","","","M","29","","11","","","","100.70","","","","-50","","NA"
"-81.24","68.78","SANIRAJAK","2402353","2023-02-07 21:00","2023","02","07","21:00","-38.5","","-42.1","","69","","","M","29","","9","","","","100.74","","","","-49","","NA"
"-81.24","68.78","SANIRAJAK","2402353","2023-02-07 22:00","2023","02","07","22:00","-38.8","","-42.4","","69","","","M","29","","14","","","","100.76","","","","-52","","NA"
"-81.24","68.78","SANIRAJAK","2402353","2023-02-07 23:00","2023","02","07","23:00","-39.1","","-42.7","","69","","","M","29","","15","","","","100.79","","","","-53","","NA"
"-81.24","68.78","SANIRAJAK","2402353","2023-02-08 00:00","2023","02","08","00:00","-39.4","","-43.1","","69","","","M","29","","16","","","","100.83","","","","-53","","NA"
"-81.24","68.78","SANIRAJAK","2402353","2023-02-08 01:00","2023","02","08","01:00","-39.4","","-43.0","","68","","","M","28","","13","","","","100.83","","","","-52","","NA"
"-81.24","68.78","SANIRAJAK","2402353","2023-02-08 02:00","2023","02","08","02:00","-39.1","","-42.7","","69","","","M","28","","13","","","","100.85","","","","-52","","NA"
"-81.24","68.78","SANIRAJAK","2402353","2023-02-08 03:00","2023","02","08","03:00","-38.3","","-41.8","","69","","","M","29","","14","","","","100.89","","","","-51","","NA"
"-81.24","68.78","SANIRAJAK","2402353","2023-02-08 04:00","2023","02","08","04:00","-37.1","","-40.6","","70","","","M","28","","14","","","","100.92","","","","-50","","NA"
"-81.24","68.78","SANIRAJAK","2402353","2023-02-08 05:00","2023","02","08","05:00","-36.5","","-39.9","","70","","","M","30","","10","","","","100.95","","","","-47","","NA"
"-81.24","68.78","SANIRAJAK","2402353","2023-02-08 06:00","2023","02","08","06:00","-37.0","","-40.5","","70","","","M","29","","12","","","","100.98","","","","-49","","NA"
"-81.24","68.78","SANIRAJAK","2402353","2023-02-08 07:00","2023","02","08","07:00","-37.3","","-40.8","","70","","","M","28","","10","","","","101.02","","","","-48","","NA"
"-81.24","68.78","SANIRAJAK","2402353","2023-02-08 08:00","2023","02","08","08:00","-37.3","","-40.8","","70","","","M","29","","13","","","","101.07","","","","-49","","NA"
"-81.24","68.78","SANIRAJAK","2402353","2023-02-08 09:00","2023","02","08","09:00","-36.9","","-40.4","","70","","","M","29","","13","","","","101.10","","","","-49","","NA"
"-81.24","68.78","SANIRAJAK","2402353","2023-02-08 10:00","2023","02","08","10:00","-36.4","","-39.9","","70","","","M","29","","12","","","","101.14","","","","-48","","NA"
"-81.24","68.78","SANIRAJAK","2402353","2023-02-08 11:00","2023","02","08","11:00","-37.0","","-40.6","","70","","","M","29","","14","","","","101.16","","","","-50","","NA"
"-81.24","68.78","SANIRAJAK","2402353","2023-02-08 12:00","2023","02","08","12:00","-36.6","","-40.1","","70","","","M","29","","16","","","","101.18","","","","-50","","NA"
"-81.24","68.78","SANIRAJAK","2402353","2023-02-08 13:00","2023","02","08","13:00","-36.1","","-39.6","","70","","","M","29","","17","","","","101.20","","","","-50","","NA"
"-81.24","68.78","SANIRAJAK","2402353","2023-02-08 14:00","2023","02","08","14:00","-36.5","","-40.0","","70","","","M","29","","17","","","","101.23","","","","-50","","NA"
"-81.24","68.78","SANIRAJAK","2402353","2023-02-08 15:00","2023","02","08","15:00","-36.6","","-40.1","","70","","","M","29","","16","","","","101.28","","","","-50","","NA"
"-81.24","68.78","SANIRAJAK","2402353","2023-02-08 16:00","2023","02","08","16:00","-37.0","","-40.5","","70","","","M","29","","15","","","","101.35","","","","-50","","NA"
"-81.24","68.78","SANIRAJAK","2402353","2023-02-08 17:00","2023","02","08","17:00","-37.6","","-41.1","","69","","","M","30","","17","","","","101.36","","","","-52","","NA"
"-81.24","68.78","SANIRAJAK","2402353","2023-02-08 18:00","2023","02","08","18:00","-38.5","","-42.1","","69","","","M","29","","16","","","","101.40","","","","-52","","NA"
"-81.24","68.78","SANIRAJAK","2402353","2023-02-08 19:00","2023","02","08","19:00","-39.2","","-42.8","","69","","","M","29","","15","","","","101.44","","","","-53","","NA"
"-81.24","68.78","SANIRAJAK","2402353","2023-02-08 20:00","2023","02","08","20:00","-39.0","","-42.5","","69","","","M","29","","16","","","","101.45","","","","-53","","NA"
"-81.24","68.78","SANIRAJAK","2402353","2023-02-08 21:00","2023","02","08","21:00","-38.2","","-41.7","","70","","","M","30","","20","","","","101.42","","","","-53","","NA"
"-81.24","68.78","SANIRAJAK","2402353","2023-02-08 22:00","2023","02","08","22:00","-38.5","","-42.1","","69","","","M","30","","19","","","","101.45","","","","-53","","NA"
"-81.24","68.78","SANIRAJAK","2402353","2023-02-08 23:00","2023","02","08","23:00","-38.6","","-42.2","","69","","","M","30","","17","","","","101.46","","","","-53","","NA"
"-81.24","68.78","SANIRAJAK","2402353","2023-02-09 00:00","2023","02","09","00:00","-35.7","","-39.1","","71","","","M","31","","18","","","","101.49","","","","-50","","NA"
"-81.24","68.78","SANIRAJAK","2402353","2023-02-09 01:00","2023","02","09","01:00","-36.8","","-40.3","","70","","","M","31","","18","","","","101.54","","","","-51","","NA"
"-81.24","68.78","SANIRAJAK","2402353","2023-02-09 02:00","2023","02","09","02:00","-36.0","","-39.4","","70","","","M","31","","18","","","","101.55","","","","-50","","NA"
"-81.24","68.78","SANIRAJAK","2402353","2023-02-09 03:00","2023","02","09","03:00","-37.8","","-41.4","","69","","","M","30","","17","","","","101.59","","","","-52","","NA"
"-81.24","68.78","SANIRAJAK","2402353","2023-02-09 04:00","2023","02","09","04:00","-38.8","","-42.4","","69","","","M","30","","18","","","","101.62","","","","-53","","NA"
"-81.24","68.78","SANIRAJAK","2402353","2023-02-09 05:00","2023","02","09","05:00","-39.6","","-43.2","","68","","","M","29","","18","","","","101.64","","","","-54","","NA"
"-81.24","68.78","SANIRAJAK","2402353","2023-02-09 06:00","2023","02","09","06:00","-39.8","","-43.5","","68","","","M","29","","17","","","","101.63","","","","-54","","NA"
"-81.24","68.78","SANIRAJAK","2402353","2023-02-09 07:00","2023","02","09","07:00","-40.3","","-43.9","","68","","","M","29","","18","","","","101.64","","","","-55","","NA"
"-81.24","68.78","SANIRAJAK","2402353","2023-02-09 08:00","2023","02","09","08:00","-40.4","","-44.0","","68","","","M","29","","19","","","","101.64","","","","-56","","NA"
"-81.24","68.78","SANIRAJAK","2402353","2023-02-09 09:00","2023","02","09","09:00","-40.3","","-43.9","","68","","","M","29","","18","","","","101.60","","","","-55","","NA"
"-81.24","68.78","SANIRAJAK","2402353","2023-02-09 10:00","2023","02","09","10:00","-39.6","","-43.2","","68","","","M","29","","19","","","","101.60","","","","-55","","NA"
"-81.24","68.78","SANIRAJAK","2402353","2023-02-09 11:00","2023","02","09","11:00","-38.9","","-42.6","","68","","","M","29","","18","","","","101.60","","","","-54","","NA"
"-81.24","68.78","SANIRAJAK","2402353","2023-02-09 12:00","2023","02","09","12:00","-38.3","","-41.9","","69","","","M","29","","21","","","","101.58","","","","-54","","NA"
"-81.24","68.78","SANIRAJAK","2402353","2023-02-09 13:00","2023","02","09","13:00","-37.8","","-41.4","","69","","","M","28","","19","","","","101.55","","","","-53","","NA"
"-81.24","68.78","SANIRAJAK","2402353","2023-02-09 14:00","2023","02","09","14:00","-38.1","","-41.7","","68","","","M","28","","19","","","","101.55","","","","-53","","NA"
"-81.24","68.78","SANIRAJAK","2402353","2023-02-09 15:00","2023","02","09","15:00","-37.9","","-41.5","","69","","","M","28","","20","","","","101.55","","","","-53","","NA"
"-81.24","68.78","SANIRAJAK","2402353","2023-02-09 16:00","2023","02","09","16:00","-38.2","","-41.8","","69","","","M","28","","21","","","","101.55","","","","-54","","NA"
"-81.24","68.78","SANIRAJAK","2402353","2023-02-09 17:00","2023","02","09","17:00","-38.2","","-41.8","","69","","","M","28","","21","","","","101.53","","","","-54","","NA"
"-81.24","68.78","SANIRAJAK","2402353","2023-02-09 18:00","2023","02","09","18:00","-39.0","","-42.6","","69","","","M","28","","17","","","","101.53","","","","-53","","NA"
"-81.24","68.78","SANIRAJAK","2402353","2023-02-09 19:00","2023","02","09","19:00","-39.7","","-43.3","","68","","","M","28","","14","","","","101.51","","","","-53","","NA"
"-81.24","68.78","SANIRAJAK","2402353","2023-02-09 20:00","2023","02","09","20:00","-39.9","","-43.6","","68","","","M","29","","17","","","","101.49","","","","-54","","NA"
"-81.24","68.78","SANIRAJAK","2402353","2023-02-09 21:00","2023","02","09","21:00","-39.8","","-43.4","","68","","","M","29","","15","","","","101.46","","","","-53","","NA"
"-81.24","68.78","SANIRAJAK","2402353","2023-02-09 22:00","2023","02","09","22:00","-39.7","","-43.3","","68","","","M","28","","15","","","","101.41","","","","-53","","NA"
"-81.24","68.78","SANIRAJAK","2402353","2023-02-09 23:00","2023","02","09","23:00","-39.8","","-43.4","","68","","","M","28","","17","","","","101.36","","","","-54","","NA"
"-81.24","68.78","SANIRAJAK","2402353","2023-02-10 00:00","2023","02","10","00:00","-39.9","","-43.5","","68","","","M","27","","17","","","","101.32","","","","-54","","NA"
"-81.24","68.78","SANIRAJAK","2402353","2023-02-10 01:00","2023","02","10","01:00","-39.6","","-43.2","","68","","","M","28","","18","","","","101.32","","","","-54","","NA"
"-81.24","68.78","SANIRAJAK","2402353","2023-02-10 02:00","2023","02","10","02:00","-40.0","","-43.6","","68","","","M","27","","16","","","","101.31","","","","-54","","NA"
"-81.24","68.78","SANIRAJAK","2402353","2023-02-10 03:00","2023","02","10","03:00","-40.5","","-44.2","","68","","","M","27","","15","","","","101.29","","","","-54","","NA"
"-81.24","68.78","SANIRAJAK","2402353","2023-02-10 04:00","2023","02","10","04:00","-40.4","","-44.0","","68","","","M","27","","15","","","","101.27","","","","-54","","NA"
"-81.24","68.78","SANIRAJAK","2402353","2023-02-10 05:00","2023","02","10","05:00","-40.4","","-44.0","","68","","","M","27","","17","","","","101.24","","","","-55","","NA"
"-81.24","68.78","SANIRAJAK","2402353","2023-02-10 06:00","2023","02","10","06:00","-39.6","","-43.2","","69","","","M","27","","18","","","","101.23","","","","-54","","NA"
"-81.24","68.78","SANIRAJAK","2402353","2023-02-10 07:00","2023","02","10","07:00","-40.0","","-43.6","","68","","","M","28","","18","","","","101.20","","","","-55","","NA"
"-81.24","68.78","SANIRAJAK","2402353","2023-02-10 08:00","2023","02","10","08:00","-39.9","","-43.5","","68","","","M","28","","18","","","","101.20","","","","-55","","NA"
"-81.24","68.78","SANIRAJAK","2402353","2023-02-10 09:00","2023","02","10","09:00","-40.5","","-44.2","","68","","","M","28","","16","","","","101.19","","","","-55","","NA"
"-81.24","68.78","SANIRAJAK","2402353","2023-02-10 10:00","2023","02","10","10:00","-40.0","","-43.7","","68","","","M","28","","14","","","","101.20","","","","-53","","NA"
"-81.24","68.78","SANIRAJAK","2402353","2023-02-10 11:00","2023","02","10","11:00","-39.2","","-42.9","","68","","","M","28","","15","","","","101.16","","","","-53","","NA"
"-81.24","68.78","SANIRAJAK","2402353","2023-02-10 12:00","2023","02","10","12:00","-38.4","","-42.1","","68","","","M","26","","10","","","","101.15","","","","-49","","NA"
"-81.24","68.78","SANIRAJAK","2402353","2023-02-10 13:00","2023","02","10","13:00","-38.9","","-42.6","","68","","","M","28","","13","","","","101.15","","","","-51","","NA"
"-81.24","68.78","SANIRAJAK","2402353","2023-02-10 14:00","2023","02","10","14:00","-38.8","","-42.5","","68","","","M","28","","16","","","","101.16","","","","-53","","NA"
"-81.24","68.78","SANIRAJAK","2402353","2023-02-10 15:00","2023","02","10","15:00","-39.5","","-43.2","","68","","","M","27","","14","","","","101.16","","","","-53","","NA"
"-81.24","68.78","SANIRAJAK","2402353","2023-02-10 16:00","2023","02","10","16:00","-40.4","","-44.1","","68","","","M","27","","12","","","","101.17","","","","-53","","NA"
"-81.24","68.78","SANIRAJAK","2402353","2023-02-10 17:00","2023","02","10","17:00","-40.6","","-44.2","","68","","","M","27","","13","","","","101.20","","","","-54","","NA"
"-81.24","68.78","SANIRAJAK","2402353","2023-02-10 18:00","2023","02","10","18:00","-41.2","","-44.9","","67","","","M","26","","10","","","","101.16","","","","-53","","NA"
"-81.24","68.78","SANIRAJAK","2402353","2023-02-10 19:00","2023","02","10","19:00","-41.0","","-44.7","","67","","","M","27","","15","","","","101.11","","","","-55","","NA"
"-81.24","68.78","SANIRAJAK","2402353","2023-02-10 20:00","2023","02","10","20:00","-40.9","","-44.6","","68","","","M","26","","14","","","","101.09","","","","-54","","NA"
"-81.24","68.78","SANIRAJAK","2402353","2023-02-10 21:00","2023","02","10","21:00","-40.5","","-44.2","","68","","","M","28","","17","","","","101.05","","","","-55","","NA"
"-81.24","68.78","SANIRAJAK","2402353","2023-02-10 22:00","2023","02","10","22:00","-41.0","","-44.7","","68","","","M","27","","18","","","","101.01","","","","-56","","NA"
"-81.24","68.78","SANIRAJAK","2402353","2023-02-10 23:00","2023","02","10","23:00","-40.6","","-44.3","","68","","","M","27","","17","","","","100.95","","","","-55","","NA"
"-81.24","68.78","SANIRAJAK","2402353","2023-02-11 00:00","2023","02","11","00:00","-40.6","","-44.3","","68","","","M","28","","16","","","","100.94","","","","-55","","NA"
"-81.24","68.78","SANIRAJAK","2402353","2023-02-11 01:00","2023","02","11","01:00","-40.8","","-44.5","","68","","","M","26","","14","","","","100.90","","","","-54","","NA"
"-81.24","68.78","SANIRAJAK","2402353","2023-02-11 02:00","2023","02","11","02:00","-39.6","","-43.2","","68","","","M","27","","18","","","","100.85","","","","-54","","NA"
"-81.24","68.78","SANIRAJAK","2402353","2023-02-11 03:00","2023","02","11","03:00","-39.4","","-43.0","","69","","","M","27","","19","","","","100.81","","","","-55","","NA"
"-81.24","68.78","SANIRAJAK","2402353","2023-02-11 04:00","2023","02","11","04:00","-38.0","","-41.5","","70","","","M","26","","17","","","","100.78","","","","-52","","NA"
"-81.24","68.78","SANIRAJAK","2402353","2023-02-11 05:00","2023","02","11","05:00","-38.9","","-42.5","","69","","","M","25","","12","","","","100.73","","","","-51","","NA"
"-81.24","68.78","SANIRAJAK","2402353","2023-02-11 06:00","2023","02","11","06:00","-39.5","","-43.1","","69","","","M","27","","17","","","","100.74","","","","-54","","NA"
"-81.24","68.78","SANIRAJAK","2402353","2023-02-11 07:00","2023","02","11","07:00","-38.4","","-42.0","","69","","","M","27","","18","","","","100.68","","","","-53","","NA"
"-81.24","68.78","SANIRAJAK","2402353","2023-02-11 08:00","2023","02","11","08:00","-37.8","","-41.3","","70","","","M","28","","19","","","","100.61","","","","-53","","NA"
"-81.24","68.78","SANIRAJAK","2402353","2023-02-11 09:00","2023","02","11","09:00","-38.4","","-42.0","","69","","","M","27","","14","","","","100.58","","","","-51","","NA"
"-81.24","68.78","SANIRAJAK","2402353","2023-02-11 10:00","2023","02","11","10:00","-38.2","","-41.7","","69","","","M","28","","15","","","","100.54","","","","-52","","NA"
"-81.24","68.78","SANIRAJAK","2402353","2023-02-11 11:00","2023","02","11","11:00","-37.8","","-41.4","","69","","","M","26","","10","","","","100.52","","","","-48","","NA"
"-81.24","68.78","SANIRAJAK","2402353","2023-02-11 12:00","2023","02","11","12:00","-37.1","","-40.7","","69","","","M","27","","16","","","","100.49","","","","-51","","NA"
"-81.24","68.78","SANIRAJAK","2402353","2023-02-11 13:00","2023","02","11","13:00","-37.1","","-40.7","","69","","","M","28","","18","","","","100.46","","","","-51","","NA"
"-81.24","68.78","SANIRAJAK","2402353","2023-02-11 14:00","2023","02","11","14:00","-37.0","","-40.6","","69","","","M","28","","18","","","","100.43","","","","-51","","NA"
"-81.24","68.78","SANIRAJAK","2402353","2023-02-11 15:00","2023","02","11","15:00","-36.1","","-39.5","","70","","","M","27","","15","","","","100.46","","","","-49","","NA"
"-81.24","68.78","SANIRAJAK","2402353","2023-02-11 16:00","2023","02","11","16:00","-36.9","","-40.4","","70","","","M","27","","16","","","","100.45","","","","-50","","NA"
"-81.24","68.78","SANIRAJAK","2402353","2023-02-11 17:00","2023","02","11","17:00","-37.1","","-40.6","","70","","","M","28","","19","","","","100.45","","","","-52","","NA"
"-81.24","68.78","SANIRAJAK","2402353","2023-02-11 18:00","2023","02","11","18:00","-37.5","","-41.0","","69","","","M","28","","14","","","","100.46","","","","-50","","NA"
"-81.24","68.78","SANIRAJAK","2402353","2023-02-11 19:00","2023","02","11","19:00","-35.6","","-39.0","","71","","","M","28","","22","","","","100.43","","","","-51","","NA"
"-81.24","68.78","SANIRAJAK","2402353","2023-02-11 20:00","2023","02","11","20:00","-35.5","","-39.0","","71","","","M","27","","21","","","","100.42","","","","-50","","NA"
"-81.24","68.78","SANIRAJAK","2402353","2023-02-11 21:00","2023","02","11","21:00","-37.0","","-40.5","","70","","","M","27","","17","","","","100.42","","","","-51","","NA"
"-81.24","68.78","SANIRAJAK","2402353","2023-02-11 22:00","2023","02","11","22:00","-37.2","","-40.7","","70","","","M","27","","17","","","","100.41","","","","-51","","NA"
"-81.24","68.78","SANIRAJAK","2402353","2023-02-11 23:00","2023","02","11","23:00","-36.8","","-40.3","","70","","","M","28","","20","","","","100.39","","","","-52","","NA"
"-81.24","68.78","SANIRAJAK","2402353","2023-02-12 00:00","2023","02","12","00:00","-37.0","","-40.5","","70","","","M","28","","16","","","","100.39","","","","-50","","NA"
"-81.24","68.78","SANIRAJAK","2402353","2023-02-12 01:00","2023","02","12","01:00","-37.5","","-41.1","","70","","","M","27","","15","","","","100.37","","","","-51","","NA"
"-81.24","68.78","SANIRAJAK","2402353","2023-02-12 02:00","2023","02","12","02:00","-37.8","","-41.3","","69","","","M","28","","17","","","","100.41","","","","-52","","NA"
"-81.24","68.78","SANIRAJAK","2402353","2023-02-12 03:00","2023","02","12","03:00","-38.5","","-42.0","","69","","","M","28","","18","","","","100.42","","","","-53","","NA"
"-81.24","68.78","SANIRAJAK","2402353","2023-02-12 04:00","2023","02","12","04:00","-39.1","","-42.7","","69","","","M","28","","12","","","","100.43","","","","-51","","NA"
"-81.24","68.78","SANIRAJAK","2402353","2023-02-12 05:00","2023","02","12","05:00","-39.0","","-42.6","","69","","","M","28","","21","","","","100.41","","","","-55","","NA"
"-81.24","68.78","SANIRAJAK","2402353","2023-02-12 06:00","2023","02","12","06:00","-39.5","","-43.1","","68","","","M","28","","17","","","","100.43","","","","-54","","NA"
"-81.24","68.78","SANIRAJAK","2402353","2023-02-12 07:00","2023","02","12","07:00","-38.4","","-42.0","","69","","","M","29","","17","","","","100.44","","","","-53","","NA"
"-81.24","68.78","SANIRAJAK","2402353","2023-02-12 08:00","2023","02","12","08:00","-38.9","","-42.5","","69","","","M","29","","19","","","","100.43","","","","-54","","NA"
"-81.24","68.78","SANIRAJAK","2402353","2023-02-12 09:00","2023","02","12","09:00","-39.1","","-42.7","","69","","","M","27","","16","","","","100.43","","","","-53","","NA"
"-81.24","68.78","SANIRAJAK","2402353","2023-02-12 10:00","2023","02","12","10:00","-39.4","","-43.0","","69","","","M","26","","15","","","","100.41","","","","-53","","NA"
"-81.24","68.78","SANIRAJAK","2402353","2023-02-12 11:00","2023","02","12","11:00","-39.1","","-42.8","","68","","","M","26","","11","","","","100.43","","","","-51","","NA"
"-81.24","68.78","SANIRAJAK","2402353","2023-02-12 12:00","2023","02","12","12:00","-38.5","","-42.1","","69","","","M","27","","13","","","","100.43","","","","-51","","NA"
"-81.24","68.78","SANIRAJAK","2402353","2023-02-12 13:00","2023","02","12","13:00","-37.9","","-41.5","","69","","","M","27","","14","","","","100.42","","","","-51","","NA"
"-81.24","68.78","SANIRAJAK","2402353","2023-02-12 14:00","2023","02","12","14:00","-37.6","","-41.2","","69","","","M","28","","15","","","","100.42","","","","-51","","NA"
"-81.24","68.78","SANIRAJAK","2402353","2023-02-12 15:00","2023","02","12","15:00","-38.3","","-41.9","","69","","","M","27","","15","","","","100.44","","","","-52","","NA"
"-81.24","68.78","SANIRAJAK","2402353","2023-02-12 16:00","2023","02","12","16:00","-39.5","","-43.1","","68","","","M","29","","15","","","","100.45","","","","-53","","NA"
"-81.24","68.78","SANIRAJAK","2402353","2023-02-12 17:00","2023","02","12","17:00","-40.2","","-43.9","","68","","","M","27","","5","","","","100.49","","","","-47","","NA"
"-81.24","68.78","SANIRAJAK","2402353","2023-02-12 18:00","2023","02","12","18:00","-41.2","","-44.9","","67","","","M","28","","13","","","","100.48","","","","-54","","NA"
"-81.24","68.78","SANIRAJAK","2402353","2023-02-12 19:00","2023","02","12","19:00","-41.2","","-44.8","","68","","","M","28","","16","","","","100.47","","","","-56","","NA"
"-81.24","68.78","SANIRAJAK","2402353","2023-02-12 20:00","2023","02","12","20:00","-41.1","","-44.7","","68","","","M","27","","17","","","","100.46","","","","-56","","NA"
"-81.24","68.78","SANIRAJAK","2402353","2023-02-12 21:00","2023","02","12","21:00","-41.1","","-44.8","","68","","","M","28","","17","","","","100.46","","","","-56","","NA"
"-81.24","68.78","SANIRAJAK","2402353","2023-02-12 22:00","2023","02","12","22:00","-41.4","","-45.1","","67","","","M","28","","17","","","","100.43","","","","-56","","NA"
"-81.24","68.78","SANIRAJAK","2402353","2023-02-12 23:00","2023","02","12","23:00","-41.6","","-45.3","","67","","","M","28","","17","","","","100.45","","","","-57","","NA"
"-81.24","68.78","SANIRAJAK","2402353","2023-02-13 00:00","2023","02","13","00:00","-41.9","","-45.7","","67","","","M","29","","17","","","","100.43","","","","-57","","NA"
"-81.24","68.78","SANIRAJAK","2402353","2023-02-13 01:00","2023","02","13","01:00","-42.5","","-46.3","","67","","","M","27","","14","","","","100.45","","","","-56","","NA"
"-81.24","68.78","SANIRAJAK","2402353","2023-02-13 02:00","2023","02","13","02:00","-41.7","","-45.4","","67","","","M","29","","17","","","","100.47","","","","-57","","NA"
"-81.24","68.78","SANIRAJAK","2402353","2023-02-13 03:00","2023","02","13","03:00","-42.3","","-46.0","","67","","","M","31","","15","","","","100.47","","","","-57","","NA"
"-81.24","68.78","SANIRAJAK","2402353","2023-02-13 04:00","2023","02","13","04:00","-42.7","","-46.5","","66","","","M","29","","11","","","","100.46","","","","-55","","NA"
"-81.24","68.78","SANIRAJAK","2402353","2023-02-13 05:00","2023","02","13","05:00","-42.8","","-46.5","","67","","","M","31","","12","","","","100.46","","","","-56","","NA"
"-81.24","68.78","SANIRAJAK","2402353","2023-02-13 06:00","2023","02","13","06:00","-42.8","","-46.6","","67","","","M","26","","10","","","","100.49","","","","-54","","NA"
"-81.24","68.78","SANIRAJAK","2402353","2023-02-13 07:00","2023","02","13","07:00","-42.8","","-46.6","","66","","","M","30","","16","","","","100.47","","","","-58","","NA"
"-81.24","68.78","SANIRAJAK","2402353","2023-02-13 08:00","2023","02","13","08:00","-42.9","","-46.7","","66","","","M","31","","14","","","","100.48","","","","-57","","NA"
"-81.24","68.78","SANIRAJAK","2402353","2023-02-13 09:00","2023","02","13","09:00","-43.3","","-47.1","","66","","","M","29","","13","","","","100.49","","","","-57","","NA"
"-81.24","68.78","SANIRAJAK","2402353","2023-02-13 10:00","2023","02","13","10:00","-42.9","","-46.7","","66","","","M","30","","14","","","","100.50","","","","-57","","NA"
"-81.24","68.78","SANIRAJAK","2402353","2023-02-13 11:00","2023","02","13","11:00","-41.5","","-45.3","","67","","","M","30","","15","","","","100.48","","","","-56","","NA"
"-81.24","68.78","SANIRAJAK","2402353","2023-02-13 12:00","2023","02","13","12:00","-41.5","","-45.3","","66","","","M","31","","14","","","","100.48","","","","-55","","NA"
"-81.24","68.78","SANIRAJAK","2402353","2023-02-13 13:00","2023","02","13","13:00","-40.5","","-44.3","","67","","","M","30","","14","","","","100.46","","","","-54","","NA"
"-81.24","68.78","SANIRAJAK","2402353","2023-02-13 14:00","2023","02","13","14:00","-40.6","","-44.4","","67","","","M","30","","13","","","","100.48","","","","-54","","NA"
"-81.24","68.78","SANIRAJAK","2402353","2023-02-13 15:00","2023","02","13","15:00","-41.2","","-45.1","","67","","","M","30","","12","","","","100.50","","","","-54","","NA"
"-81.24","68.78","SANIRAJAK","2402353","2023-02-13 16:00","2023","02","13","16:00","-42.1","","-45.9","","66","","","M","31","","11","","","","100.50","","","","-54","","NA"
"-81.24","68.78","SANIRAJAK","2402353","2023-02-13 17:00","2023","02","13","17:00","-43.0","","-46.8","","66","","","M","33","","9","","","","100.52","","","","-54","","NA"
"-81.24","68.78","SANIRAJAK","2402353","2023-02-13 18:00","2023","02","13","18:00","-42.6","","-46.4","","66","","","M","34","","10","","","","100.51","","","","-54","","NA"
"-81.24","68.78","SANIRAJAK","2402353","2023-02-13 19:00","2023","02","13","19:00","-42.4","","-46.2","","67","","","M","32","","12","","","","100.51","","","","-55","","NA"
"-81.24","68.78","SANIRAJAK","2402353","2023-02-13 20:00","2023","02","13","20:00","-42.6","","-46.4","","67","","","M","31","","13","","","","100.51","","","","-56","","NA"
"-81.24","68.78","SANIRAJAK","2402353","2023-02-13 21:00","2023","02","13","21:00","-42.5","","-46.2","","67","","","M","31","","12","","","","100.49","","","","-55","","NA"
"-81.24","68.78","SANIRAJAK","2402353","2023-02-13 22:00","2023","02","13","22:00","-42.3","","-46.1","","67","","","M","31","","12","","","","100.51","","","","-55","","NA"
"-81.24","68.78","SANIRAJAK","2402353","2023-02-13 23:00","2023","02","13","23:00","-41.6","","-45.3","","67","","","M","32","","12","","","","100.52","","","","-54","","NA"
"-81.24","68.78","SANIRAJAK","2402353","2023-02-14 00:00","2023","02","14","00:00","-41.4","","-45.1","","67","","","M","32","","13","","","","100.50","","","","-54","","NA"
"-81.24","68.78","SANIRAJAK","2402353","2023-02-14 01:00","2023","02","14","01:00","-40.8","","-44.5","","68","","","M","32","","13","","","","100.48","","","","-54","","NA"
"-81.24","68.78","SANIRAJAK","2402353","2023-02-14 02:00","2023","02","14","02:00","-39.8","","-43.4","","69","","","M","33","","13","","","","100.51","","","","-53","","NA"
"-81.24","68.78","SANIRAJAK","2402353","2023-02-14 03:00","2023","02","14","03:00","-39.3","","-42.9","","69","","","M","32","","12","","","","100.52","","","","-51","","NA"
"-81.24","68.78","SANIRAJAK","2402353","2023-02-14 04:00","2023","02","14","04:00","-39.1","","-42.7","","69","","","M","32","","13","","","","100.52","","","","-52","","NA"
"-81.24","68.78","SANIRAJAK","2402353","2023-02-14 05:00","2023","02","14","05:00","-39.4","","-43.1","","68","","","M","33","","6","","","","100.50","","","","-47","","NA"
"-81.24","68.78","SANIRAJAK","2402353","2023-02-14 06:00","2023","02","14","06:00","-38.9","","-42.5","","69","","","M","33","","12","","","","100.53","","","","-51","","NA"
"-81.24","68.78","SANIRAJAK","2402353","2023-02-14 07:00","2023","02","14","07:00","-38.6","","-42.2","","69","","","M","33","","7","","","","100.51","","","","-47","","NA"
"-81.24","68.78","SANIRAJAK","2402353","2023-02-14 08:00","2023","02","14","08:00","-39.3","","-43.0","","68","","","M","32","","11","","","","100.50","","","","-51","","NA"
"-81.24","68.78","SANIRAJAK","2402353","2023-02-14 09:00","2023","02","14","09:00","-40.1","","-43.8","","68","","","M","33","","13","","","","100.49","","","","-53","","NA"
"-81.24","68.78","SANIRAJAK","2402353","2023-02-14 10:00","2023","02","14","10:00","-40.2","","-43.9","","68","","","M","33","","11","","","","100.49","","","","-52","","NA"
"-81.24","68.78","SANIRAJAK","2402353","2023-02-14 11:00","2023","02","14","11:00","-38.8","","-42.5","","69","","","M","33","","14","","","","100.49","","","","-52","","NA"
"-81.24","68.78","SANIRAJAK","2402353","2023-02-14 12:00","2023","02","14","12:00","-38.0","","-41.6","","69","","","M","32","","13","","","","100.46","","","","-50","","NA"
"-81.24","68.78","SANIRAJAK","2402353","2023-02-14 13:00","2023","02","14","13:00","-38.3","","-41.9","","69","","","M","32","","14","","","","100.45","","","","-51","","NA"
"-81.24","68.78","SANIRAJAK","2402353","2023-02-14 14:00","2023","02","14","14:00","-38.2","","-41.9","","68","","","M","32","","14","","","","100.40","","","","-51","","NA"
"-81.24","68.78","SANIRAJAK","2402353","2023-02-14 15:00","2023","02","14","15:00","-37.9","","-41.5","","69","","","M","32","","15","","","","100.38","","","","-51","","NA"
"-81.24","68.78","SANIRAJAK","2402353","2023-02-14 16:00","2023","02","14","16:00","-39.2","","-42.9","","68","","","M","32","","15","","","","100.39","","","","-53","","NA"
"-81.24","68.78","SANIRAJAK","2402353","2023-02-14 17:00","2023","02","14","17:00","-39.7","","-43.4","","68","","","M","32","","15","","","","100.40","","","","-53","","NA"
"-81.24","68.78","SANIRAJAK","2402353","2023-02-14 18:00","2023","02","14","18:00","-40.3","","-44.0","","68","","","M","32","","15","","","","100.38","","","","-54","","NA"
"-81.24","68.78","SANIRAJAK","2402353","2023-02-14 19:00","2023","02","14","19:00","-40.6","","-44.4","","68","","","M","30","","16","","","","100.36","","","","-55","","NA"
"-81.24","68.78","SANIRAJAK","2402353","2023-02-14 20:00","2023","02","14","20:00","-41.2","","-45.0","","67","","","M","30","","15","","","","100.34","","","","-55","","NA"
"-81.24","68.78","SANIRAJAK","2402353","2023-02-14 21:00","2023","02","14","21:00","-41.3","","-45.0","","67","","","M","29","","17","","","","100.29","","","","-56","","NA"
"-81.24","68.78","SANIRAJAK","2402353","2023-02-14 22:00","2023","02","14","22:00","-40.3","","-43.9","","68","","","M","30","","15","","","","100.25","","","","-54","","NA"
"-81.24","68.78","SANIRAJAK","2402353","2023-02-14 23:00","2023","02","14","23:00","-40.0","","-43.6","","68","","","M","30","","19","","","","100.24","","","","-55","","NA"
"-81.24","68.78","SANIRAJAK","2402353","2023-02-15 00:00","2023","02","15","00:00","-40.0","","-43.6","","68","","","M","29","","17","","","","100.21","","","","-55","","NA"
"-81.24","68.78","SANIRAJAK","2402353","2023-02-15 01:00","2023","02","15","01:00","-41.1","","-44.9","","67","","","M","29","","19","","","","100.17","","","","-57","","NA"
"-81.24","68.78","SANIRAJAK","2402353","2023-02-15 02:00","2023","02","15","02:00","-41.5","","-45.3","","67","","","M","29","","15","","","","100.17","","","","-56","","NA"
"-81.24","68.78","SANIRAJAK","2402353","2023-02-15 03:00","2023","02","15","03:00","-41.8","","-45.6","","67","","","M","29","","19","","","","100.16","","","","-58","","NA"
"-81.24","68.78","SANIRAJAK","2402353","2023-02-15 04:00","2023","02","15","04:00","-41.8","","-45.6","","67","","","M","28","","16","","","","100.14","","","","-56","","NA"
"-81.24","68.78","SANIRAJAK","2402353","2023-02-15 05:00","2023","02","15","05:00","-41.4","","-45.1","","67","","","M","28","","20","","","","100.11","","","","-57","","NA"
"-81.24","68.78","SANIRAJAK","2402353","2023-02-15 06:00","2023","02","15","06:00","-41.2","","-44.9","","67","","","M","29","","17","","","","100.09","","","","-56","","NA"
"-81.24","68.78","SANIRAJAK","2402353","2023-02-15 07:00","2023","02","15","07:00","-41.3","","-45.1","","67","","","M","28","","19","","","","100.09","","","","-57","","NA"
"-81.24","68.78","SANIRAJAK","2402353","2023-02-15 08:00","2023","02","15","08:00","-40.4","","-44.1","","68","","","M","27","","15","","","","100.08","","","","-54","","NA"
"-81.24","68.78","SANIRAJAK","2402353","2023-02-15 09:00","2023","02","15","09:00","-41.2","","-44.9","","67","","","M","28","","17","","","","100.06","","","","-56","","NA"
"-81.24","68.78","SANIRAJAK","2402353","2023-02-15 10:00","2023","02","15","10:00","-40.1","","-43.8","","67","","","M","29","","20","","","","100.04","","","","-56","","NA"
"-81.24","68.78","SANIRAJAK","2402353","2023-02-15 11:00","2023","02","15","11:00","-40.0","","-43.8","","67","","","M","28","","21","","","","100.03","","","","-56","","NA"
"-81.24","68.78","SANIRAJAK","2402353","2023-02-15 12:00","2023","02","15","12:00","-39.7","","-43.5","","67","","","M","28","","18","","","","100.03","","","","-55","","NA"
"-81.24","68.78","SANIRAJAK","2402353","2023-02-15 13:00","2023","02","15","13:00","-39.3","","-43.0","","67","","","M","28","","19","","","","100.00","","","","-54","","NA"
"-81.24","68.78","SANIRAJAK","2402353","2023-02-15 14:00","2023","02","15","14:00","-39.8","","-43.6","","67","","","M","28","","16","","","","100.02","","","","-54","","NA"
"-81.24","68.78","SANIRAJAK","2402353","2023-02-15 15:00","2023","02","15","15:00","-40.5","","-44.3","","67","","","M","28","","19","","","","100.03","","","","-56","","NA"
"-81.24","68.78","SANIRAJAK","2402353","2023-02-15 16:00","2023","02","15","16:00","-40.9","","-44.7","","67","","","M","27","","16","","","","100.05","","","","-55","","NA"
"-81.24","68.78","SANIRAJAK","2402353","2023-02-15 17:00","2023","02","15","17:00","-42.0","","-45.8","","66","","","M","27","","16","","","","100.05","","","","-57","","NA"
"-81.24","68.78","SANIRAJAK","2402353","2023-02-15 18:00","2023","02","15","18:00","-41.9","","-45.7","","67","","","M","29","","20","","","","100.05","","","","-58","","NA"
"-81.24","68.78","SANIRAJAK","2402353","2023-02-15 19:00","2023","02","15","19:00","-42.3","","-46.1","","67","","","M","28","","16","","","","100.07","","","","-57","","NA"
"-81.24","68.78","SANIRAJAK","2402353","2023-02-15 20:00","2023","02","15","20:00","-43.1","","-46.9","","66","","","M","29","","19","","","","100.09","","","","-59","","NA"
"-81.24","68.78","SANIRAJAK","2402353","2023-02-15 21:00","2023","02","15","21:00","-43.0","","-46.8","","66","","","M","29","","20","","","","100.03","","","","-60","","NA"
"-81.24","68.78","SANIRAJAK","2402353","2023-02-15 22:00","2023","02","15","22:00","-43.1","","-46.9","","66","","","M","28","","18","","","","100.04","","","","-59","","NA"
"-81.24","68.78","SANIRAJAK","2402353","2023-02-15 23:00","2023","02","15","23:00","-43.8","","-47.6","","66","","","M","27","","13","","","","100.04","","","","-57","","NA"
"-81.24","68.78","SANIRAJAK","2402353","2023-02-16 00:00","2023","02","16","00:00","-43.7","","-47.6","","66","","","M","28","","13","","","","100.04","","","","-57","","NA"
"-81.24","68.78","SANIRAJAK","2402353","2023-02-16 01:00","2023","02","16","01:00","-44.0","","-47.8","","66","","","M","28","","17","","","","100.02","","","","-60","","NA"
"-81.24","68.78","SANIRAJAK","2402353","2023-02-16 02:00","2023","02","16","02:00","-44.8","","-48.6","","65","","","M","26","","9","","","","100.04","","","","-56","","NA"
"-81.24","68.78","SANIRAJAK","2402353","2023-02-16 03:00","2023","02","16","03:00","-44.0","","-47.9","","66","","","M","28","","17","","","","100.05","","","","-60","","NA"
"-81.24","68.78","SANIRAJAK","2402353","2023-02-16 04:00","2023","02","16","04:00","-43.8","","-47.7","","66","","","M","28","","14","","","","100.02","","","","-58","","NA"
"-81.24","68.78","SANIRAJAK","2402353","2023-02-16 05:00","2023","02","16","05:00","-44.1","","-47.9","","66","","","M","27","","11","","","","100.07","","","","-57","","NA"
"-81.24","68.78","SANIRAJAK","2402353","2023-02-16 06:00","2023","02","16","06:00","-44.3","","-48.1","","66","","","M","26","","11","","","","100.10","","","","-57","","NA"
"-81.24","68.78","SANIRAJAK","2402353","2023-02-16 07:00","2023","02","16","07:00","-44.4","","-48.3","","65","","","M","27","","15","","","","100.10","","","","-59","","NA"
"-81.24","68.78","SANIRAJAK","2402353","2023-02-16 08:00","2023","02","16","08:00","-43.8","","-47.7","","66","","","M","27","","16","","","","100.11","","","","-59","","NA"
"-81.24","68.78","SANIRAJAK","2402353","2023-02-16 09:00","2023","02","16","09:00","-44.4","","-48.3","","65","","","M","27","","16","","","","100.13","","","","-60","","NA"
"-81.24","68.78","SANIRAJAK","2402353","2023-02-16 10:00","2023","02","16","10:00","-43.1","","-47.0","","66","","","M","26","","17","","","","100.14","","","","-58","","NA"
"-81.24","68.78","SANIRAJAK","2402353","2023-02-16 11:00","2023","02","16","11:00","-42.2","","-46.0","","66","","","M","26","","13","","","","100.16","","","","-55","","NA"
"-81.24","68.78","SANIRAJAK","2402353","2023-02-16 12:00","2023","02","16","12:00","-42.3","","-46.2","","66","","","M","26","","14","","","","100.19","","","","-56","","NA"
"-81.24","68.78","SANIRAJAK","2402353","2023-02-16 13:00","2023","02","16","13:00","-41.4","","-45.3","","66","","","M","26","","12","","","","100.23","","","","-54","","NA"
"-81.24","68.78","SANIRAJAK","2402353","2023-02-16 14:00","2023","02","16","14:00","-41.2","","-45.1","","67","","","M","27","","12","","","","100.25","","","","-54","","NA"
"-81.24","68.78","SANIRAJAK","2402353","2023-02-16 15:00","2023","02","16","15:00","-41.3","","-45.1","","67","","","M","27","","8","","","","100.30","","","","-51","","NA"
"-81.24","68.78","SANIRAJAK","2402353","2023-02-16 16:00","2023","02","16","16:00","-43.2","","-47.1","","65","","","M","25","","8","","","","100.36","","","","-53","","NA"
"-81.24","68.78","SANIRAJAK","2402353","2023-02-16 17:00","2023","02","16","17:00","-43.8","","-47.7","","66","","","M","26","","8","","","","100.42","","","","-54","","NA"
"-81.24","68.78","SANIRAJAK","2402353","2023-02-16 18:00","2023","02","16","18:00","-44.7","","-48.6","","65","","","M","25","","9","","","","100.46","","","","-56","","NA"
"-81.24","68.78","SANIRAJAK","2402353","2023-02-16 19:00","2023","02","16","19:00","-44.2","","-48.0","","66","","","M","28","","16","","","","100.50","","","","-59","","NA"
"-81.24","68.78","SANIRAJAK","2402353","2023-02-16 20:00","2023","02","16","20:00","-44.2","","-48.0","","66","","","M","28","","11","","","","100.54","","","","-57","","NA"
"-81.24","68.78","SANIRAJAK","2402353","2023-02-16 21:00","2023","02","16","21:00","-44.0","","-47.8","","66","","","M","28","","9","","","","100.56","","","","-55","","NA"
"-81.24","68.78","SANIRAJAK","2402353","2023-02-16 22:00","2023","02","16","22:00","-44.0","","-47.8","","66","","","M","31","","7","","","","100.59","","","","-54","","NA"
"-81.24","68.78","SANIRAJAK","2402353","2023-02-16 23:00","2023","02","16","23:00","-45.0","","-48.9","","65","","","M","30","","9","","","","100.57","","","","-56","","NA"
"-81.24","68.78","SANIRAJAK","2402353","2023-02-17 00:00","2023","02","17","00:00","-45.2","","-49.1","","65","","","M","30","","9","","","","100.59","","","","-57","","NA"
"-81.24","68.78","SANIRAJAK","2402353","2023-02-17 01:00","2023","02","17","01:00","-45.5","","-49.4","","65","","","M","31","","13","","","","100.59","","","","-59","","NA"
"-81.24","68.78","SANIRAJAK","2402353","2023-02-17 02:00","2023","02","17","02:00","-45.8","","-49.7","","64","","","M","32","","14","","","","100.61","","","","-60","","NA"
"-81.24","68.78","SANIRAJAK","2402353","2023-02-17 03:00","2023","02","17","03:00","-46.2","","-50.2","","64","","","M","31","","15","","","","100.63","","","","-61","","NA"
"-81.24","68.78","SANIRAJAK","2402353","2023-02-17 04:00","2023","02","17","04:00","-45.4","","-49.3","","65","","","M","32","","17","","","","100.67","","","","-61","","NA"
"-81.24","68.78","SANIRAJAK","2402353","2023-02-17 05:00","2023","02","17","05:00","-43.7","","-47.5","","66","","","M","32","","18","","","","100.68","","","","-60","","NA"
"-81.24","68.78","SANIRAJAK","2402353","2023-02-17 06:00","2023","02","17","06:00","-43.7","","-47.6","","66","","","M","32","","17","","","","100.66","","","","-59","","NA"
"-81.24","68.78","SANIRAJAK","2402353","2023-02-17 07:00","2023","02","17","07:00","-42.5","","-46.2","","67","","","M","31","","16","","","","100.64","","","","-57","","NA"
"-81.24","68.78","SANIRAJAK","2402353","2023-02-17 08:00","2023","02","17","08:00","-41.4","","-45.1","","67","","","M","32","","17","","","","100.64","","","","-56","","NA"
"-81.24","68.78","SANIRAJAK","2402353","2023-02-17 09:00","2023","02","17","09:00","-40.6","","-44.3","","68","","","M","32","","15","","","","100.62","","","","-54","","NA"
"-81.24","68.78","SANIRAJAK","2402353","2023-02-17 10:00","2023","02","17","10:00","-40.4","","-44.2","","67","","","M","31","","14","","","","100.63","","","","-54","","NA"
"-81.24","68.78","SANIRAJAK","2402353","2023-02-17 11:00","2023","02","17","11:00","-40.0","","-43.8","","67","","","M","32","","15","","","","100.58","","","","-54","","NA"
"-81.24","68.78","SANIRAJAK","2402353","2023-02-17 12:00","2023","02","17","12:00","-40.2","","-43.9","","67","","","M","32","","16","","","","100.55","","","","-54","","NA"
"-81.24","68.78","SANIRAJAK","2402353","2023-02-17 13:00","2023","02","17","13:00","-39.4","","-43.1","","68","","","M","32","","16","","","","100.52","","","","-53","","NA"
"-81.24","68.78","SANIRAJAK","2402353","2023-02-17 14:00","2023","02","17","14:00","-40.8","","-44.7","","67","","","M","32","","17","","","","100.50","","","","-56","","NA"
"-81.24","68.78","SANIRAJAK","2402353","2023-02-17 15:00","2023","02","17","15:00","-39.5","","-43.2","","68","","","M","32","","18","","","","100.49","","","","-54","","NA"
"-81.24","68.78","SANIRAJAK","2402353","2023-02-17 16:00","2023","02","17","16:00","-40.1","","-43.9","","68","","","M","32","","17","","","","100.46","","","","-55","","NA"
"-81.24","68.78","SANIRAJAK","2402353","2023-02-17 17:00","2023","02","17","17:00","-40.7","","-44.4","","67","","","M","32","","16","","","","100.46","","","","-55","","NA"
"-81.24","68.78","SANIRAJAK","2402353","2023-02-17 18:00","2023","02","17","18:00","-40.3","","-44.0","","68","","","M","32","","18","","","","100.43","","","","-55","","NA"
"-81.24","68.78","SANIRAJAK","2402353","2023-02-17 19:00","2023","02","17","19:00","-40.2","","-43.9","","68","","","M","32","","19","","","","100.42","","","","-56","","NA"
"-81.24","68.78","SANIRAJAK","2402353","2023-02-17 20:00","2023","02","17","20:00","-39.7","","-43.3","","68","","","M","32","","18","","","","100.39","","","","-55","","NA"
"-81.24","68.78","SANIRAJAK","2402353","2023-02-17 21:00","2023","02","17","21:00","-38.8","","-42.4","","69","","","M","33","","17","","","","100.36","","","","-53","","NA"
"-81.24","68.78","SANIRAJAK","2402353","2023-02-17 22:00","2023","02","17","22:00","-38.8","","-42.4","","68","","","M","33","","19","","","","100.32","","","","-54","","NA"
"-81.24","68.78","SANIRAJAK","2402353","2023-02-17 23:00","2023","02","17","23:00","-40.5","","-44.3","","67","","","M","31","","17","","","","100.27","","","","-55","","NA"
"-81.24","68.78","SANIRAJAK","2402353","2023-02-18 00:00","2023","02","18","00:00","-41.1","","-44.8","","67","","","M","31","","20","","","","100.20","","","","-57","","NA"
"-81.24","68.78","SANIRAJAK","2402353","2023-02-18 01:00","2023","02","18","01:00","-41.2","","-44.9","","67","","","M","30","","20","","","","100.17","","","","-57","","NA"
"-81.24","68.78","SANIRAJAK","2402353","2023-02-18 02:00","2023","02","18","02:00","-41.1","","-44.8","","67","","","M","30","","16","","","","100.13","","","","-56","","NA"
"-81.24","68.78","SANIRAJAK","2402353","2023-02-18 03:00","2023","02","18","03:00","-40.7","","-44.4","","68","","","M","29","","16","","","","100.12","","","","-55","","NA"
"-81.24","68.78","SANIRAJAK","2402353","2023-02-18 04:00","2023","02","18","04:00","-40.2","","-43.9","","68","","","M","29","","17","","","","100.10","","","","-55","","NA"
"-81.24","68.78","SANIRAJAK","2402353","2023-02-18 05:00","2023","02","18","05:00","-40.2","","-43.8","","68","","","M","29","","18","","","","100.05","","","","-55","","NA"
"-81.24","68.78","SANIRAJAK","2402353","2023-02-18 06:00","2023","02","18","06:00","-40.3","","-44.0","","68","","","M","30","","18","","","","100.03","","","","-55","","NA"
"-81.24","68.78","SANIRAJAK","2402353","2023-02-18 07:00","2023","02","18","07:00","-40.1","","-43.8","","68","","","M","29","","18","","","","99.99","","","","-55","","NA"
"-81.24","68.78","SANIRAJAK","2402353","2023-02-18 08:00","2023","02","18","08:00","-39.9","","-43.6","","68","","","M","29","","18","","","","99.98","","","","-55","","NA"
"-81.24","68.78","SANIRAJAK","2402353","2023-02-18 09:00","2023","02","18","09:00","-39.6","","-43.2","","68","","","M","29","","17","","","","99.98","","","","-54","","NA"
"-81.24","68.78","SANIRAJAK","2402353","2023-02-18 10:00","2023","02","18","10:00","-39.3","","-43.0","","68","","","M","29","","18","","","","99.95","","","","-54","","NA"
"-81.24","68.78","SANIRAJAK","2402353","2023-02-18 11:00","2023","02","18","11:00","-39.3","","-43.0","","68","","","M","29","","18","","","","99.95","","","","-54","","NA"
"-81.24","68.78","SANIRAJAK","2402353","2023-02-18 12:00","2023","02","18","12:00","-38.8","","-42.4","","68","","","M","29","","19","","","","99.89","","","","-54","","NA"
"-81.24","68.78","SANIRAJAK","2402353","2023-02-18 13:00","2023","02","18","13:00","-39.0","","-42.7","","68","","","M","29","","18","","","","99.88","","","","-54","","NA"
"-81.24","68.78","SANIRAJAK","2402353","2023-02-18 14:00","2023","02","18","14:00","-39.8","","-43.6","","67","","","M","29","","19","","","","99.88","","","","-55","","NA"
"-81.24","68.78","SANIRAJAK","2402353","2023-02-18 15:00","2023","02","18","15:00","-40.0","","-43.8","","67","","","M","29","","19","","","","99.87","","","","-55","","NA"
"-81.24","68.78","SANIRAJAK","2402353","2023-02-18 16:00","2023","02","18","16:00","-39.9","","-43.6","","68","","","M","29","","19","","","","99.90","","","","-55","","NA"
"-81.24","68.78","SANIRAJAK","2402353","2023-02-18 17:00","2023","02","18","17:00","-39.9","","-43.6","","68","","","M","29","","17","","","","99.89","","","","-54","","NA"
"-81.24","68.78","SANIRAJAK","2402353","2023-02-18 18:00","2023","02","18","18:00","-39.9","","-43.6","","68","","","M","29","","18","","","","99.90","","","","-55","","NA"
"-81.24","68.78","SANIRAJAK","2402353","2023-02-18 19:00","2023","02","18","19:00","-40.5","","-44.2","","68","","","M","29","","20","","","","99.89","","","","-56","","NA"
"-81.24","68.78","SANIRAJAK","2402353","2023-02-18 20:00","2023","02","18","20:00","-40.7","","-44.4","","67","","","M","30","","18","","","","99.88","","","","-56","","NA"
"-81.24","68.78","SANIRAJAK","2402353","2023-02-18 21:00","2023","02","18","21:00","-41.4","","-45.1","","67","","","M","29","","19","","","","99.87","","","","-57","","NA"
"-81.24","68.78","SANIRAJAK","2402353","2023-02-18 22:00","2023","02","18","22:00","-41.7","","-45.5","","67","","","M","29","","19","","","","99.87","","","","-57","","NA"
"-81.24","68.78","SANIRAJAK","2402353","2023-02-18 23:00","2023","02","18","23:00","-42.7","","-46.5","","66","","","M","29","","20","","","","99.83","","","","-59","","NA"
"-81.24","68.78","SANIRAJAK","2402353","2023-02-19 00:00","2023","02","19","00:00","-43.2","","-47.1","","66","","","M","29","","19","","","","99.82","","","","-59","","NA"
"-81.24","68.78","SANIRAJAK","2402353","2023-02-19 01:00","2023","02","19","01:00","-43.9","","-47.7","","66","","","M","30","","18","","","","99.80","","","","-60","","NA"
"-81.24","68.78","SANIRAJAK","2402353","2023-02-19 02:00","2023","02","19","02:00","-45.0","","-48.8","","65","","","M","29","","16","","","","99.81","","","","-60","","NA"
"-81.24","68.78","SANIRAJAK","2402353","2023-02-19 03:00","2023","02","19","03:00","-45.1","","-49.0","","65","","","M","29","","19","","","","99.83","","","","-62","","NA"
"-81.24","68.78","SANIRAJAK","2402353","2023-02-19 04:00","2023","02","19","04:00","-45.5","","-49.4","","65","","","M","29","","17","","","","99.84","","","","-61","","NA"
"-81.24","68.78","SANIRAJAK","2402353","2023-02-19 05:00","2023","02","19","05:00","-45.4","","-49.3","","65","","","M","29","","17","","","","99.84","","","","-61","","NA"
"-81.24","68.78","SANIRAJAK","2402353","2023-02-19 06:00","2023","02","19","06:00","-45.9","","-49.8","","65","","","M","29","","16","","","","99.85","","","","-61","","NA"
"-81.24","68.78","SANIRAJAK","2402353","2023-02-19 07:00","2023","02","19","07:00","-45.8","","-49.7","","65","","","M","28","","16","","","","99.84","","","","-61","","NA"
"-81.24","68.78","SANIRAJAK","2402353","2023-02-19 08:00","2023","02","19","08:00","-46.3","","-50.3","","64","","","M","28","","17","","","","99.84","","","","-62","","NA"
"-81.24","68.78","SANIRAJAK","2402353","2023-02-19 09:00","2023","02","19","09:00","-46.2","","-50.2","","64","","","M","29","","14","","","","99.85","","","","-61","","NA"
"-81.24","68.78","SANIRAJAK","2402353","2023-02-19 10:00","2023","02","19","10:00","-45.5","","-49.4","","64","","","M","29","","10","","","","99.86","","","","-58","","NA"
"-81.24","68.78","SANIRAJAK","2402353","2023-02-19 11:00","2023","02","19","11:00","-44.0","","-47.9","","65","","","M","27","","13","","","","99.89","","","","-58","","NA"
"-81.24","68.78","SANIRAJAK","2402353","2023-02-19 12:00","2023","02","19","12:00","-44.3","","-48.2","","65","","","M","24","","9","","","","99.92","","","","-56","","NA"
"-81.24","68.78","SANIRAJAK","2402353","2023-02-19 13:00","2023","02","19","13:00","-43.4","","-47.4","","65","","","M","25","","9","","","","99.92","","","","-54","","NA"
"-81.24","68.78","SANIRAJAK","2402353","2023-02-19 14:00","2023","02","19","14:00","-43.8","","-47.8","","65","","","M","24","","9","","","","99.97","","","","-55","","NA"
"-81.24","68.78","SANIRAJAK","2402353","2023-02-19 15:00","2023","02","19","15:00","-43.4","","-47.3","","65","","","M","25","","8","","","","100.00","","","","-54","","NA"
"-81.24","68.78","SANIRAJAK","2402353","2023-02-19 16:00","2023","02","19","16:00","-44.1","","-48.0","","65","","","M","27","","7","","","","100.05","","","","-54","","NA"
"-81.24","68.78","SANIRAJAK","2402353","2023-02-19 17:00","2023","02","19","17:00","-44.6","","-48.5","","65","","","M","33","","4","","","","100.12","","","","-51","","NA"
"-81.24","68.78","SANIRAJAK","2402353","2023-02-19 18:00","2023","02","19","18:00","-43.9","","-47.8","","66","","","M","34","","5","","","","100.14","","","","-51","","NA"
"-81.24","68.78","SANIRAJAK","2402353","2023-02-19 19:00","2023","02","19","19:00","-45.0","","-48.9","","65","","","M","","","0","","","","100.15","","","","","","NA"
"-81.24","68.78","SANIRAJAK","2402353","2023-02-19 20:00","2023","02","19","20:00","-45.2","","-49.1","","65","","","M","34","","5","","","","100.19","","","","-53","","NA"
"-81.24","68.78","SANIRAJAK","2402353","2023-02-19 21:00","2023","02","19","21:00","-45.7","","-49.6","","64","","","M","36","","6","","","","100.21","","","","-55","","NA"
"-81.24","68.78","SANIRAJAK","2402353","2023-02-19 22:00","2023","02","19","22:00","-46.0","","-49.9","","64","","","M","4","","3","","","","100.27","","","","-51","","NA"
"-81.24","68.78","SANIRAJAK","2402353","2023-02-19 23:00","2023","02","19","23:00","-46.0","","-50.0","","65","","","M","36","","2","","","","100.29","","","","-49","","NA"
"-81.24","68.78","SANIRAJAK","2402353","2023-02-20 00:00","2023","02","20","00:00","-46.0","","-49.9","","64","","","M","35","","7","","","","100.29","","","","-56","","NA"
"-81.24","68.78","SANIRAJAK","2402353","2023-02-20 01:00","2023","02","20","01:00","-44.6","","-48.5","","65","","","M","36","","4","","","","100.32","","","","-51","","NA"
"-81.24","68.78","SANIRAJAK","2402353","2023-02-20 02:00","2023","02","20","02:00","-44.2","","-48.1","","65","","","M","33","","7","","","","100.36","","","","-54","","NA"
"-81.24","68.78","SANIRAJAK","2402353","2023-02-20 03:00","2023","02","20","03:00","-43.6","","-47.4","","66","","","M","34","","10","","","","100.39","","","","-55","","NA"
"-81.24","68.78","SANIRAJAK","2402353","2023-02-20 04:00","2023","02","20","04:00","-44.3","","-48.2","","65","","","M","33","","10","","","","100.41","","","","-56","","NA"
"-81.24","68.78","SANIRAJAK","2402353","2023-02-20 05:00","2023","02","20","05:00","-45.1","","-49.1","","65","","","M","33","","11","","","","100.43","","","","-58","","NA"
"-81.24","68.78","SANIRAJAK","2402353","2023-02-20 06:00","2023","02","20","06:00","-45.6","","-49.5","","65","","","M","33","","13","","","","100.45","","","","-60","","NA"
"-81.24","68.78","SANIRAJAK","2402353","2023-02-20 07:00","2023","02","20","07:00","-45.3","","-49.2","","64","","","M","33","","14","","","","100.50","","","","-60","","NA"
"-81.24","68.78","SANIRAJAK","2402353","2023-02-20 08:00","2023","02","20","08:00","-46.1","","-50.0","","64","","","M","33","","14","","","","100.52","","","","-61","","NA"
"-81.24","68.78","SANIRAJAK","2402353","2023-02-20 09:00","2023","02","20","09:00","-46.8","","-50.8","","64","","","M","32","","16","","","","100.57","","","","-63","","NA"
"-81.24","68.78","SANIRAJAK","2402353","2023-02-20 10:00","2023","02","20","10:00","-43.9","","-47.7","","66","","","M","32","","15","","","","100.58","","","","-59","","NA"
"-81.24","68.78","SANIRAJAK","2402353","2023-02-20 11:00","2023","02","20","11:00","-43.6","","-47.5","","66","","","M","32","","15","","","","100.61","","","","-58","","NA"
"-81.24","68.78","SANIRAJAK","2402353","2023-02-20 12:00","2023","02","20","12:00","-43.6","","-47.6","","65","","","M","31","","16","","","","100.63","","","","-59","","NA"
"-81.24","68.78","SANIRAJAK","2402353","2023-02-20 13:00","2023","02","20","13:00","-42.2","","-46.1","","66","","","M","31","","13","","","","100.65","","","","-55","","NA"
"-81.24","68.78","SANIRAJAK","2402353","2023-02-20 14:00","2023","02","20","14:00","-41.8","","-45.6","","66","","","M","31","","13","","","","100.68","","","","-55","","NA"
"-81.24","68.78","SANIRAJAK","2402353","2023-02-20 15:00","2023","02","20","15:00","-42.0","","-46.0","","66","","","M","35","","9","","","","100.69","","","","-53","","NA"
"-81.24","68.78","SANIRAJAK","2402353","2023-02-20 16:00","2023","02","20","16:00","-42.9","","-46.8","","66","","","M","33","","8","","","","100.73","","","","-53","","NA"
"-81.24","68.78","SANIRAJAK","2402353","2023-02-20 17:00","2023","02","20","17:00","-43.5","","-47.4","","65","","","M","33","","15","","","","100.76","","","","-58","","NA"
"-81.24","68.78","SANIRAJAK","2402353","2023-02-20 18:00","2023","02","20","18:00","-43.5","","-47.4","","66","","","M","35","","9","","","","100.79","","","","-55","","NA"
"-81.24","68.78","SANIRAJAK","2402353","2023-02-20 19:00","2023","02","20","19:00","-43.5","","-47.4","","65","","","M","36","","11","","","","100.80","","","","-56","","NA"
"-81.24","68.78","SANIRAJAK","2402353","2023-02-20 20:00","2023","02","20","20:00","-37.1","","-40.5","","71","","","M","3","","12","","","","100.80","","","","-49","","NA"
"-81.24","68.78","SANIRAJAK","2402353","2023-02-20 21:00","2023","02","20","21:00","-35.7","","-39.1","","71","","","M","3","","17","","","","100.80","","","","-49","","NA"
"-81.24","68.78","SANIRAJAK","2402353","2023-02-20 22:00","2023","02","20","22:00","-35.0","","-38.4","","71","","","M","3","","18","","","","100.80","","","","-49","","NA"
"-81.24","68.78","SANIRAJAK","2402353","2023-02-20 23:00","2023","02","20","23:00","-41.5","","-45.5","","66","","","M","33","","16","","","","100.77","","","","-56","","NA"
"-81.24","68.78","SANIRAJAK","2402353","2023-02-21 00:00","2023","02","21","00:00","-41.5","","-45.3","","67","","","M","33","","18","","","","100.71","","","","-57","","NA"
"-81.24","68.78","SANIRAJAK","2402353","2023-02-21 01:00","2023","02","21","01:00","-40.3","","-43.9","","68","","","M","33","","19","","","","100.68","","","","-56","","NA"
"-81.24","68.78","SANIRAJAK","2402353","2023-02-21 02:00","2023","02","21","02:00","-41.4","","-45.2","","67","","","M","32","","21","","","","100.65","","","","-58","","NA"
"-81.24","68.78","SANIRAJAK","2402353","2023-02-21 03:00","2023","02","21","03:00","-40.1","","-43.8","","68","","","M","33","","21","","","","100.63","","","","-56","","NA"
"-81.24","68.78","SANIRAJAK","2402353","2023-02-21 04:00","2023","02","21","04:00","-40.5","","-44.2","","68","","","M","32","","23","","","","100.61","","","","-57","","NA"
"-81.24","68.78","SANIRAJAK","2402353","2023-02-21 05:00","2023","02","21","05:00","-40.2","","-43.9","","68","","","M","32","","23","","","","100.56","","","","-57","","NA"
"-81.24","68.78","SANIRAJAK","2402353","2023-02-21 06:00","2023","02","21","06:00","-42.7","","-46.6","","66","","","M","31","","22","","","","100.52","","","","-60","","NA"
"-81.24","68.78","SANIRAJAK","2402353","2023-02-21 07:00","2023","02","21","07:00","-43.2","","-47.1","","66","","","M","32","","21","","","","100.49","","","","-60","","NA"
"-81.24","68.78","SANIRAJAK","2402353","2023-02-21 08:00","2023","02","21","08:00","-43.2","","-47.0","","66","","","M","32","","19","","","","100.46","","","","-59","","NA"
"-81.24","68.78","SANIRAJAK","2402353","2023-02-21 09:00","2023","02","21","09:00","-42.5","","-46.3","","67","","","M","30","","22","","","","100.40","","","","-60","","NA"
"-81.24","68.78","SANIRAJAK","2402353","2023-02-21 10:00","2023","02","21","10:00","-42.0","","-45.8","","67","","","M","30","","23","","","","100.32","","","","-59","","NA"
"-81.24","68.78","SANIRAJAK","2402353","2023-02-21 11:00","2023","02","21","11:00","-41.0","","-44.8","","67","","","M","31","","19","","","","100.32","","","","-57","","NA"
"-81.24","68.78","SANIRAJAK","2402353","2023-02-21 12:00","2023","02","21","12:00","-39.3","","-43.0","","68","","","M","31","","21","","","","100.29","","","","-55","","NA"
"-81.24","68.78","SANIRAJAK","2402353","2023-02-21 13:00","2023","02","21","13:00","-37.6","","-41.3","","69","","","M","32","","21","","","","100.23","","","","-53","","NA"
"-81.24","68.78","SANIRAJAK","2402353","2023-02-21 14:00","2023","02","21","14:00","-37.4","","-41.1","","68","","","M","31","","21","","","","100.20","","","","-53","","NA"
"-81.24","68.78","SANIRAJAK","2402353","2023-02-21 15:00","2023","02","21","15:00","-36.0","","-39.5","","70","","","M","31","","24","","","","100.19","","","","-52","","NA"
"-81.24","68.78","SANIRAJAK","2402353","2023-02-21 16:00","2023","02","21","16:00","-35.9","","-39.5","","70","","","M","31","","22","","","","100.19","","","","-51","","NA"
"-81.24","68.78","SANIRAJAK","2402353","2023-02-21 17:00","2023","02","21","17:00","-35.8","","-39.3","","70","","","M","31","","26","","","","100.16","","","","-52","","NA"
"-81.24","68.78","SANIRAJAK","2402353","2023-02-21 18:00","2023","02","21","18:00","-36.5","","-40.1","","70","","","M","31","","26","","","","100.13","","","","-53","","NA"
"-81.24","68.78","SANIRAJAK","2402353","2023-02-21 19:00","2023","02","21","19:00","-36.9","","-40.4","","70","","","M","30","","25","","","","100.10","","","","-53","","NA"
"-81.24","68.78","SANIRAJAK","2402353","2023-02-21 20:00","2023","02","21","20:00","-36.3","","-39.8","","70","","","M","31","","19","","","","100.14","","","","-51","","NA"
"-81.24","68.78","SANIRAJAK","2402353","2023-02-21 21:00","2023","02","21","21:00","-35.6","","-39.0","","71","","","M","31","","20","","","","100.10","","","","-50","","NA"
"-81.24","68.78","SANIRAJAK","2402353","2023-02-21 22:00","2023","02","21","22:00","-35.4","","-38.9","","71","","","M","30","","24","","","","100.09","","","","-51","","NA"
"-81.24","68.78","SANIRAJAK","2402353","2023-02-21 23:00","2023","02","21","23:00","-36.6","","-40.2","","70","","","M","29","","21","","","","100.10","","","","-52","","NA"
"-81.24","68.78","SANIRAJAK","2402353","2023-02-22 00:00","2023","02","22","00:00","-37.8","","-41.5","","69","","","M","29","","20","","","","100.08","","","","-53","","NA"
"-81.24","68.78","SANIRAJAK","2402353","2023-02-22 01:00","2023","02","22","01:00","-38.1","","-41.7","","69","","","M","30","","19","","","","100.08","","","","-53","","NA"
"-81.24","68.78","SANIRAJAK","2402353","2023-02-22 02:00","2023","02","22","02:00","-39.5","","-43.2","","68","","","M","29","","20","","","","100.10","","","","-55","","NA"
"-81.24","68.78","SANIRAJAK","2402353","2023-02-22 03:00","2023","02","22","03:00","-39.4","","-43.1","","68","","","M","29","","26","","","","100.07","","","","-57","","NA"
"-81.24","68.78","SANIRAJAK","2402353","2023-02-22 04:00","2023","02","22","04:00","-39.6","","-43.2","","68","","","M","29","","25","","","","100.09","","","","-57","","NA"
"-81.24","68.78","SANIRAJAK","2402353","2023-02-22 05:00","2023","02","22","05:00","-39.5","","-43.1","","68","","","M","28","","23","","","","100.15","","","","-56","","NA"
"-81.24","68.78","SANIRAJAK","2402353","2023-02-22 06:00","2023","02","22","06:00","-39.7","","-43.3","","68","","","M","28","","24","","","","100.18","","","","-57","","NA"
"-81.24","68.78","SANIRAJAK","2402353","2023-02-22 07:00","2023","02","22","07:00","-39.1","","-42.6","","69","","","M","28","","23","","","","100.22","","","","-56","","NA"
"-81.24","68.78","SANIRAJAK","2402353","2023-02-22 08:00","2023","02","22","08:00","-38.5","","-42.1","","69","","","M","28","","24","","","","100.23","","","","-55","","NA"
"-81.24","68.78","SANIRAJAK","2402353","2023-02-22 09:00","2023","02","22","09:00","-39.4","","-43.0","","68","","","M","28","","21","","","","100.26","","","","-55","","NA"
"-81.24","68.78","SANIRAJAK","2402353","2023-02-22 10:00","2023","02","22","10:00","-38.6","","-42.3","","69","","","M","28","","16","","","","100.35","","","","-52","","NA"
"-81.24","68.78","SANIRAJAK","2402353","2023-02-22 11:00","2023","02","22","11:00","-37.5","","-41.0","","70","","","M","28","","18","","","","100.41","","","","-52","","NA"
"-81.24","68.78","SANIRAJAK","2402353","2023-02-22 12:00","2023","02","22","12:00","-36.5","","-40.0","","70","","","M","28","","12","","","","100.52","","","","-48","","NA"
"-81.24","68.78","SANIRAJAK","2402353","2023-02-22 13:00","2023","02","22","13:00","-36.3","","-39.8","","70","","","M","28","","17","","","","100.56","","","","-50","","NA"
"-81.24","68.78","SANIRAJAK","2402353","2023-02-22 14:00","2023","02","22","14:00","-36.5","","-40.1","","69","","","M","28","","17","","","","100.63","","","","-50","","NA"
"-81.24","68.78","SANIRAJAK","2402353","2023-02-22 15:00","2023","02","22","15:00","-35.8","","-39.3","","70","","","M","28","","16","","","","100.71","","","","-49","","NA"
"-81.24","68.78","SANIRAJAK","2402353","2023-02-22 16:00","2023","02","22","16:00","-35.9","","-39.4","","70","","","M","28","","16","","","","100.78","","","","-49","","NA"
"-81.24","68.78","SANIRAJAK","2402353","2023-02-22 17:00","2023","02","22","17:00","-36.7","","-40.2","","70","","","M","28","","16","","","","100.86","","","","-50","","NA"
"-81.24","68.78","SANIRAJAK","2402353","2023-02-22 18:00","2023","02","22","18:00","-36.2","","-39.6","","70","","","M","28","","15","","","","100.95","","","","-49","","NA"
"-81.24","68.78","SANIRAJAK","2402353","2023-02-22 19:00","2023","02","22","19:00","-37.1","","-40.6","","70","","","M","27","","13","","","","101.02","","","","-49","","NA"
"-81.24","68.78","SANIRAJAK","2402353","2023-02-22 20:00","2023","02","22","20:00","-38.6","","-42.2","","69","","","M","21","","12","","","","101.11","","","","-51","","NA"
"-81.24","68.78","SANIRAJAK","2402353","2023-02-22 21:00","2023","02","22","21:00","-39.4","","-43.1","","68","","","M","22","","12","","","","101.18","","","","-52","","NA"
"-81.24","68.78","SANIRAJAK","2402353","2023-02-22 22:00","2023","02","22","22:00","-38.6","","-42.2","","69","","","M","25","","12","","","","101.20","","","","-51","","NA"
"-81.24","68.78","SANIRAJAK","2402353","2023-02-22 23:00","2023","02","22","23:00","-39.3","","-42.9","","69","","","M","22","","10","","","","101.24","","","","-50","","NA"
"-81.24","68.78","SANIRAJAK","2402353","2023-02-23 00:00","2023","02","23","00:00","-38.8","","-42.4","","69","","","M","22","","7","","","","101.29","","","","-48","","NA"
"-81.24","68.78","SANIRAJAK","2402353","2023-02-23 01:00","2023","02","23","01:00","-38.2","","-41.7","","70","","","M","23","","9","","","","101.34","","","","-48","","NA"
"-81.24","68.78","SANIRAJAK","2402353","2023-02-23 02:00","2023","02","23","02:00","-36.7","","-40.1","","70","","","M","22","","8","","","","101.35","","","","-46","","NA"
"-81.24","68.78","SANIRAJAK","2402353","2023-02-23 03:00","2023","02","23","03:00","-37.1","","-40.6","","70","","","M","23","","7","","","","101.37","","","","-46","","NA"
"-81.24","68.78","SANIRAJAK","2402353","2023-02-23 04:00","2023","02","23","04:00","-37.1","","-40.6","","70","","","M","23","","6","","","","101.39","","","","-45","","NA"
"-81.24","68.78","SANIRAJAK","2402353","2023-02-23 05:00","2023","02","23","05:00","-36.5","","-39.9","","70","","","M","23","","9","","","","101.40","","","","-46","","NA"
"-81.24","68.78","SANIRAJAK","2402353","2023-02-23 06:00","2023","02","23","06:00","-36.5","","-40.0","","70","","","M","23","","8","","","","101.38","","","","-46","","NA"
"-81.24","68.78","SANIRAJAK","2402353","2023-02-23 07:00","2023","02","23","07:00","-37.8","","-41.3","","69","","","M","25","","7","","","","101.39","","","","-46","","NA"
"-81.24","68.78","SANIRAJAK","2402353","2023-02-23 08:00","2023","02","23","08:00","-38.8","","-42.4","","69","","","M","28","","10","","","","101.36","","","","-50","","NA"
"-81.24","68.78","SANIRAJAK","2402353","2023-02-23 09:00","2023","02","23","09:00","-37.9","","-41.5","","69","","","M","29","","9","","","","101.36","","","","-48","","NA"
"-81.24","68.78","SANIRAJAK","2402353","2023-02-23 10:00","2023","02","23","10:00","-35.7","","-39.1","","71","","","M","29","","6","","","","101.34","","","","-43","","NA"
"-81.24","68.78","SANIRAJAK","2402353","2023-02-23 11:00","2023","02","23","11:00","-35.2","","-38.6","","71","","","M","29","","10","","","","101.31","","","","-45","","NA"
"-81.24","68.78","SANIRAJAK","2402353","2023-02-23 12:00","2023","02","23","12:00","-34.6","","-38.0","","71","","","M","30","","10","","","","101.29","","","","-45","","NA"
"-81.24","68.78","SANIRAJAK","2402353","2023-02-23 13:00","2023","02","23","13:00","-34.0","","-37.5","","71","","","M","29","","15","","","","101.23","","","","-46","","NA"
"-81.24","68.78","SANIRAJAK","2402353","2023-02-23 14:00","2023","02","23","14:00","-34.2","","-37.7","","71","","","M","29","","14","","","","101.21","","","","-46","","NA"
"-81.24","68.78","SANIRAJAK","2402353","2023-02-23 15:00","2023","02","23","15:00","-34.9","","-38.4","","71","","","M","29","","12","","","","101.16","","","","-46","","NA"
"-81.24","68.78","SANIRAJAK","2402353","2023-02-23 16:00","2023","02","23","16:00","-35.6","","-39.0","","71","","","M","28","","10","","","","101.11","","","","-46","","NA"
"-81.24","68.78","SANIRAJAK","2402353","2023-02-23 17:00","2023","02","23","17:00","-36.5","","-40.0","","70","","","M","29","","14","","","","101.07","","","","-49","","NA"
"-81.24","68.78","SANIRAJAK","2402353","2023-02-23 18:00","2023","02","23","18:00","-36.7","","-40.2","","70","","","M","29","","13","","","","101.02","","","","-49","","NA"
"-81.24","68.78","SANIRAJAK","2402353","2023-02-23 19:00","2023","02","23","19:00","-36.7","","-40.1","","70","","","M","28","","15","","","","100.93","","","","-50","","NA"
"-81.24","68.78","SANIRAJAK","2402353","2023-02-23 20:00","2023","02","23","20:00","-37.8","","-41.3","","69","","","M","28","","14","","","","100.83","","","","-51","","NA"
"-81.24","68.78","SANIRAJAK","2402353","2023-02-23 21:00","2023","02","23","21:00","-38.4","","-42.0","","69","","","M","28","","15","","","","100.70","","","","-52","","NA"
"-81.24","68.78","SANIRAJAK","2402353","2023-02-23 22:00","2023","02","23","22:00","-38.6","","-42.2","","69","","","M","29","","12","","","","100.62","","","","-51","","NA"
"-81.24","68.78","SANIRAJAK","2402353","2023-02-23 23:00","2023","02","23","23:00","-39.5","","-43.1","","68","","","M","29","","13","","","","100.55","","","","-52","","NA"
"-81.24","68.78","SANIRAJAK","2402353","2023-02-24 00:00","2023","02","24","00:00","-40.1","","-43.7","","68","","","M","28","","16","","","","100.44","","","","-54","","NA"
"-81.24","68.78","SANIRAJAK","2402353","2023-02-24 01:00","2023","02","24","01:00","-40.4","","-44.1","","68","","","M","28","","14","","","","100.37","","","","-54","","NA"
"-81.24","68.78","SANIRAJAK","2402353","2023-02-24 02:00","2023","02","24","02:00","-39.6","","-43.2","","69","","","M","28","","14","","","","100.29","","","","-53","","NA"
"-81.24","68.78","SANIRAJAK","2402353","2023-02-24 03:00","2023","02","24","03:00","-39.7","","-43.3","","68","","","M","29","","14","","","","100.23","","","","-53","","NA"
"-81.24","68.78","SANIRAJAK","2402353","2023-02-24 04:00","2023","02","24","04:00","-41.0","","-44.7","","67","","","M","29","","16","","","","100.14","","","","-55","","NA"
"-81.24","68.78","SANIRAJAK","2402353","2023-02-24 05:00","2023","02","24","05:00","-39.9","","-43.5","","68","","","M","29","","17","","","","100.07","","","","-54","","NA"
"-81.24","68.78","SANIRAJAK","2402353","2023-02-24 06:00","2023","02","24","06:00","-38.9","","-42.4","","69","","","M","29","","12","","","","100.00","","","","-51","","NA"
"-81.24","68.78","SANIRAJAK","2402353","2023-02-24 07:00","2023","02","24","07:00","-40.0","","-43.7","","68","","","M","28","","15","","","","99.93","","","","-54","","NA"
"-81.24","68.78","SANIRAJAK","2402353","2023-02-24 08:00","2023","02","24","08:00","-41.2","","-44.9","","67","","","M","28","","16","","","","99.88","","","","-56","","NA"
"-81.24","68.78","SANIRAJAK","2402353","2023-02-24 09:00","2023","02","24","09:00","-41.0","","-44.7","","68","","","M","28","","17","","","","99.79","","","","-56","","NA"
"-81.24","68.78","SANIRAJAK","2402353","2023-02-24 10:00","2023","02","24","10:00","-39.9","","-43.6","","68","","","M","28","","17","","","","99.74","","","","-54","","NA"
"-81.24","68.78","SANIRAJAK","2402353","2023-02-24 11:00","2023","02","24","11:00","-40.3","","-44.0","","67","","","M","28","","15","","","","99.66","","","","-54","","NA"
"-81.24","68.78","SANIRAJAK","2402353","2023-02-24 12:00","2023","02","24","12:00","-39.4","","-43.1","","68","","","M","27","","16","","","","99.60","","","","-53","","NA"
"-81.24","68.78","SANIRAJAK","2402353","2023-02-24 13:00","2023","02","24","13:00","-39.0","","-42.7","","68","","","M","28","","14","","","","99.52","","","","-52","","NA"
"-81.24","68.78","SANIRAJAK","2402353","2023-02-24 14:00","2023","02","24","14:00","-39.2","","-42.9","","68","","","M","28","","14","","","","99.47","","","","-52","","NA"
"-81.24","68.78","SANIRAJAK","2402353","2023-02-24 15:00","2023","02","24","15:00","-39.5","","-43.3","","67","","","M","27","","15","","","","99.42","","","","-53","","NA"
"-81.24","68.78","SANIRAJAK","2402353","2023-02-24 16:00","2023","02","24","16:00","-40.4","","-44.1","","67","","","M","27","","15","","","","99.38","","","","-54","","NA"
"-81.24","68.78","SANIRAJAK","2402353","2023-02-24 17:00","2023","02","24","17:00","-41.8","","-45.5","","67","","","M","28","","14","","","","99.33","","","","-55","","NA"
"-81.24","68.78","SANIRAJAK","2402353","2023-02-24 18:00","2023","02","24","18:00","-42.9","","-46.7","","66","","","M","26","","13","","","","99.31","","","","-56","","NA"
"-81.24","68.78","SANIRAJAK","2402353","2023-02-24 19:00","2023","02","24","19:00","-43.2","","-47.0","","66","","","M","26","","12","","","","99.27","","","","-56","","NA"
"-81.24","68.78","SANIRAJAK","2402353","2023-02-24 20:00","2023","02","24","20:00","-44.5","","-48.4","","65","","","M","25","","12","","","","99.24","","","","-58","","NA"
"-81.24","68.78","SANIRAJAK","2402353","2023-02-24 21:00","2023","02","24","21:00","-44.4","","-48.2","","66","","","M","24","","13","","","","99.18","","","","-58","","NA"
"-81.24","68.78","SANIRAJAK","2402353","2023-02-24 22:00","2023","02","24","22:00","-44.7","","-48.5","","65","","","M","25","","16","","","","99.16","","","","-60","","NA"
"-81.24","68.78","SANIRAJAK","2402353","2023-02-24 23:00","2023","02","24","23:00","-45.0","","-48.8","","65","","","M","24","","13","","","","99.14","","","","-59","","NA"
"-81.24","68.78","SANIRAJAK","2402353","2023-02-25 00:00","2023","02","25","00:00","-45.5","","-49.4","","65","","","M","22","","13","","","","99.11","","","","-59","","NA"
"-81.24","68.78","SANIRAJAK","2402353","2023-02-25 01:00","2023","02","25","01:00","-45.1","","-48.9","","65","","","M","22","","12","","","","99.13","","","","-58","","NA"
"-81.24","68.78","SANIRAJAK","2402353","2023-02-25 02:00","2023","02","25","02:00","-45.4","","-49.3","","65","","","M","22","","13","","","","99.12","","","","-59","","NA"
"-81.24","68.78","SANIRAJAK","2402353","2023-02-25 03:00","2023","02","25","03:00","-45.5","","-49.4","","65","","","M","22","","12","","","","99.17","","","","-59","","NA"
"-81.24","68.78","SANIRAJAK","2402353","2023-02-25 04:00","2023","02","25","04:00","-44.3","","-48.2","","66","","","M","21","","11","","","","99.19","","","","-57","","NA"
"-81.24","68.78","SANIRAJAK","2402353","2023-02-25 05:00","2023","02","25","05:00","-43.7","","-47.5","","66","","","M","21","","11","","","","99.22","","","","-56","","NA"
"-81.24","68.78","SANIRAJAK","2402353","2023-02-25 06:00","2023","02","25","06:00","-42.8","","-46.6","","67","","","M","21","","7","","","","99.22","","","","-52","","NA"
"-81.24","68.78","SANIRAJAK","2402353","2023-02-25 07:00","2023","02","25","07:00","-45.1","","-49.0","","65","","","M","23","","8","","","","99.23","","","","-56","","NA"
"-81.24","68.78","SANIRAJAK","2402353","2023-02-25 08:00","2023","02","25","08:00","-43.9","","-47.8","","66","","","M","24","","7","","","","99.23","","","","-53","","NA"
"-81.24","68.78","SANIRAJAK","2402353","2023-02-25 09:00","2023","02","25","09:00","-41.7","","-45.4","","67","","","M","22","","5","","","","99.23","","","","-49","","NA"
"-81.24","68.78","SANIRAJAK","2402353","2023-02-25 10:00","2023","02","25","10:00","-41.3","","-45.0","","67","","","M","23","","5","","","","99.22","","","","-48","","NA"
"-81.24","68.78","SANIRAJAK","2402353","2023-02-25 11:00","2023","02","25","11:00","-39.9","","-43.6","","68","","","M","27","","6","","","","99.22","","","","-48","","NA"
"-81.24","68.78","SANIRAJAK","2402353","2023-02-25 12:00","2023","02","25","12:00","-39.0","","-42.7","","68","","","M","34","","8","","","","99.24","","","","-49","","NA"
"-81.24","68.78","SANIRAJAK","2402353","2023-02-25 13:00","2023","02","25","13:00","-38.3","","-41.9","","69","","","M","36","","2","","","","99.24","","","","-41","","NA"
"-81.24","68.78","SANIRAJAK","2402353","2023-02-25 14:00","2023","02","25","14:00","-38.6","","-42.3","","68","","","M","31","","5","","","","99.26","","","","-45","","NA"
"-81.24","68.78","SANIRAJAK","2402353","2023-02-25 15:00","2023","02","25","15:00","-39.4","","-43.1","","68","","","M","29","","3","","","","99.26","","","","-44","","NA"
"-81.24","68.78","SANIRAJAK","2402353","2023-02-25 16:00","2023","02","25","16:00","-39.9","","-43.6","","68","","","M","17","","2","","","","99.28","","","","-43","","NA"
"-81.24","68.78","SANIRAJAK","2402353","2023-02-25 17:00","2023","02","25","17:00","-40.5","","-44.1","","68","","","M","17","","6","","","","99.30","","","","-49","","NA"
"-81.24","68.78","SANIRAJAK","2402353","2023-02-25 18:00","2023","02","25","18:00","-37.6","","-41.0","","70","","","M","17","","6","","","","99.33","","","","-45","","NA"
"-81.24","68.78","SANIRAJAK","2402353","2023-02-25 19:00","2023","02","25","19:00","-39.0","","-42.6","","69","","","M","22","","3","","","","99.34","","","","-43","","NA"
"-81.24","68.78","SANIRAJAK","2402353","2023-02-25 20:00","2023","02","25","20:00","-41.3","","-45.2","","66","","","M","","","0","","","","99.37","","","","","","NA"
"-81.24","68.78","SANIRAJAK","2402353","2023-02-25 21:00","2023","02","25","21:00","-42.8","","-46.6","","66","","","M","34","","6","","","","99.39","","","","-51","","NA"
"-81.24","68.78","SANIRAJAK","2402353","2023-02-25 22:00","2023","02","25","22:00","-41.5","","-45.2","","68","","","M","34","","4","","","","99.41","","","","-47","","NA"
"-81.24","68.78","SANIRAJAK","2402353","2023-02-25 23:00","2023","02","25","23:00","-42.7","","-46.5","","66","","","M","31","","3","","","","99.43","","","","-47","","NA"
"-81.24","68.78","SANIRAJAK","2402353","2023-02-26 00:00","2023","02","26","00:00","-40.1","","-43.7","","69","","","M","","","0","","","","99.44","","","","","","NA"
"-81.24","68.78","SANIRAJAK","2402353","2023-02-26 01:00","2023","02","26","01:00","-42.5","","-46.2","","67","","","M","","","0","","","","99.48","","","","","","NA"
"-81.24","68.78","SANIRAJAK","2402353","2023-02-26 02:00","2023","02","26","02:00","-36.3","","-39.7","","71","","","M","35","","5","","","","99.54","","","","-43","","NA"
"-81.24","68.78","SANIRAJAK","2402353","2023-02-26 03:00","2023","02","26","03:00","-35.7","","-39.2","","71","","","M","21","","8","","","","99.61","","","","-45","","NA"
"-81.24","68.78","SANIRAJAK","2402353","2023-02-26 04:00","2023","02","26","04:00","-43.9","","-47.9","","65","","","M","26","","5","","","","99.69","","","","-51","","NA"
"-81.24","68.78","SANIRAJAK","2402353","2023-02-26 05:00","2023","02","26","05:00","-44.6","","-48.6","","65","","","M","31","","9","","","","99.77","","","","-56","","NA"
"-81.24","68.78","SANIRAJAK","2402353","2023-02-26 06:00","2023","02","26","06:00","-43.5","","-47.4","","66","","","M","","","0","","","","99.84","","","","","","NA"
"-81.24","68.78","SANIRAJAK","2402353","2023-02-26 07:00","2023","02","26","07:00","-42.8","","-46.4","","68","","","M","","","0","","","","99.90","","","","","","NA"
"-81.24","68.78","SANIRAJAK","2402353","2023-02-26 08:00","2023","02","26","08:00","-38.1","","-41.2","","72","","","M","","","0","","","","99.98","","","","","","NA"
"-81.24","68.78","SANIRAJAK","2402353","2023-02-26 09:00","2023","02","26","09:00","-41.5","","-45.1","","68","","","M","35","","2","","","","100.06","","","","-44","","NA"
"-81.24","68.78","SANIRAJAK","2402353","2023-02-26 10:00","2023","02","26","10:00","-42.8","","-46.7","","65","","","M","","","0","","","","100.16","","","","","","NA"
"-81.24","68.78","SANIRAJAK","2402353","2023-02-26 11:00","2023","02","26","11:00","-41.6","","-45.4","","67","","","M","","","0","","","","100.24","","","","","","NA"
"-81.24","68.78","SANIRAJAK","2402353","2023-02-26 12:00","2023","02","26","12:00","-40.4","","-44.1","","68","","","M","","","0","","","","100.34","","","","","","NA"
"-81.24","68.78","SANIRAJAK","2402353","2023-02-26 13:00","2023","02","26","13:00","-41.0","","-44.8","","67","","","M","31","","9","","","","100.42","","","","-52","","NA"
"-81.24","68.78","SANIRAJAK","2402353","2023-02-26 14:00","2023","02","26","14:00","-39.2","","-42.9","","68","","","M","34","","2","","","","100.50","","","","-42","","NA"
"-81.24","68.78","SANIRAJAK","2402353","2023-02-26 15:00","2023","02","26","15:00","-40.3","","-44.1","","67","","","M","32","","6","","","","100.59","","","","-48","","NA"
"-81.24","68.78","SANIRAJAK","2402353","2023-02-26 16:00","2023","02","26","16:00","-40.4","","-44.2","","67","","","M","34","","7","","","","100.67","","","","-49","","NA"
"-81.24","68.78","SANIRAJAK","2402353","2023-02-26 17:00","2023","02","26","17:00","-41.1","","-44.9","","67","","","M","34","","8","","","","100.75","","","","-51","","NA"
"-81.24","68.78","SANIRAJAK","2402353","2023-02-26 18:00","2023","02","26","18:00","-41.9","","-45.6","","67","","","M","34","","3","","","","100.80","","","","-46","","NA"
"-81.24","68.78","SANIRAJAK","2402353","2023-02-26 19:00","2023","02","26","19:00","-43.3","","-47.1","","66","","","M","","","0","","","","100.84","","","","","","NA"
"-81.24","68.78","SANIRAJAK","2402353","2023-02-26 20:00","2023","02","26","20:00","-43.7","","-47.5","","66","","","M","33","","10","","","","100.89","","","","-56","","NA"
"-81.24","68.78","SANIRAJAK","2402353","2023-02-26 21:00","2023","02","26","21:00","-41.6","","-45.3","","68","","","M","36","","6","","","","100.91","","","","-50","","NA"
"-81.24","68.78","SANIRAJAK","2402353","2023-02-26 22:00","2023","02","26","22:00","-43.4","","-47.3","","66","","","M","2","","3","","","","100.94","","","","-48","","NA"
"-81.24","68.78","SANIRAJAK","2402353","2023-02-26 23:00","2023","02","26","23:00","-42.0","","-45.6","","68","","","M","4","","4","","","","100.97","","","","-48","","NA"
"-81.24","68.78","SANIRAJAK","2402353","2023-02-27 00:00","2023","02","27","00:00","-44.4","","-48.2","","66","","","M","8","","3","","","","100.99","","","","-49","","NA"
"-81.24","68.78","SANIRAJAK","2402353","2023-02-27 01:00","2023","02","27","01:00","-44.8","","-48.7","","65","","","M","32","","3","","","","100.98","","","","-49","","NA"
"-81.24","68.78","SANIRAJAK","2402353","2023-02-27 02:00","2023","02","27","02:00","-44.5","","-48.3","","66","","","M","33","","7","","","","101.04","","","","-54","","NA"
"-81.24","68.78","SANIRAJAK","2402353","2023-02-27 03:00","2023","02","27","03:00","-43.7","","-47.5","","66","","","M","33","","9","","","","101.06","","","","-55","","NA"
"-81.24","68.78","SANIRAJAK","2402353","2023-02-27 04:00","2023","02","27","04:00","-44.3","","-48.2","","65","","","M","33","","9","","","","101.10","","","","-56","","NA"
"-81.24","68.78","SANIRAJAK","2402353","2023-02-27 05:00","2023","02","27","05:00","-44.3","","-48.1","","65","","","M","33","","9","","","","101.10","","","","-56","","NA"
"-81.24","68.78","SANIRAJAK","2402353","2023-02-27 06:00","2023","02","27","06:00","-44.6","","-48.4","","65","","","M","33","","8","","","","101.10","","","","-55","","NA"
"-81.24","68.78","SANIRAJAK","2402353","2023-02-27 07:00","2023","02","27","07:00","-44.5","","-48.3","","65","","","M","31","","10","","","","101.10","","","","-56","","NA"
"-81.24","68.78","SANIRAJAK","2402353","2023-02-27 08:00","2023","02","27","08:00","-44.8","","-48.7","","65","","","M","30","","9","","","","101.09","","","","-56","","NA"
"-81.24","68.78","SANIRAJAK","2402353","2023-02-27 09:00","2023","02","27","09:00","-44.7","","-48.7","","65","","","M","31","","7","","","","101.05","","","","-54","","NA"
"-81.24","68.78","SANIRAJAK","2402353","2023-02-27 10:00","2023","02","27","10:00","-43.3","","-47.2","","65","","","M","32","","7","","","","101.05","","","","-53","","NA"
"-81.24","68.78","SANIRAJAK","2402353","2023-02-27 11:00","2023","02","27","11:00","-41.7","","-45.5","","66","","","M","30","","7","","","","101.02","","","","-51","","NA"
"-81.24","68.78","SANIRAJAK","2402353","2023-02-27 12:00","2023","02","27","12:00","-40.1","","-43.8","","68","","","M","27","","8","","","","100.99","","","","-50","","NA"
"-81.24","68.78","SANIRAJAK","2402353","2023-02-27 13:00","2023","02","27","13:00","-37.4","","-41.1","","69","","","M","26","","7","","","","100.95","","","","-46","","NA"
"-81.24","68.78","SANIRAJAK","2402353","2023-02-27 14:00","2023","02","27","14:00","-39.0","","-42.9","","67","","","M","25","","5","","","","100.98","","","","-46","","NA"
"-81.24","68.78","SANIRAJAK","2402353","2023-02-27 15:00","2023","02","27","15:00","-37.8","","-41.3","","69","","","M","29","","2","","","","100.98","","","","-40","","NA"
"-81.24","68.78","SANIRAJAK","2402353","2023-02-27 16:00","2023","02","27","16:00","-38.8","","-42.6","","68","","","M","27","","2","","","","100.97","","","","-42","","NA"
"-81.24","68.78","SANIRAJAK","2402353","2023-02-27 17:00","2023","02","27","17:00","-41.5","","-45.4","","66","","","M","22","","3","","","","101.00","","","","-46","","NA"
"-81.24","68.78","SANIRAJAK","2402353","2023-02-27 18:00","2023","02","27","18:00","-42.1","","-45.9","","67","","","M","18","","1","","","","101.03","","","","-44","","NA"
"-81.24","68.78","SANIRAJAK","2402353","2023-02-27 19:00","2023","02","27","19:00","-43.4","","-47.2","","66","","","M","21","","3","","","","101.03","","","","-48","","NA"
"-81.24","68.78","SANIRAJAK","2402353","2023-02-27 20:00","2023","02","27","20:00","-44.6","","-48.5","","65","","","M","22","","5","","","","101.04","","","","-52","","NA"
"-81.24","68.78","SANIRAJAK","2402353","2023-02-27 21:00","2023","02","27","21:00","-43.6","","-47.4","","66","","","M","25","","3","","","","101.02","","","","-48","","NA"
"-81.24","68.78","SANIRAJAK","2402353","2023-02-27 22:00","2023","02","27","22:00","-43.0","","-46.8","","66","","","M","26","","3","","","","101.03","","","","-47","","NA"
"-81.24","68.78","SANIRAJAK","2402353","2023-02-27 23:00","2023","02","27","23:00","-44.3","","-48.2","","65","","","M","31","","4","","","","101.04","","","","-50","","NA"
"-81.24","68.78","SANIRAJAK","2402353","2023-02-28 00:00","2023","02","28","00:00","-44.1","","-47.9","","66","","","M","27","","3","","","","101.06","","","","-49","","NA"
"-81.24","68.78","SANIRAJAK","2402353","2023-02-28 01:00","2023","02","28","01:00","-44.5","","-48.3","","66","","","M","27","","3","","","","101.05","","","","-49","","NA"
"-81.24","68.78","SANIRAJAK","2402353","2023-02-28 02:00","2023","02","28","02:00","-44.8","","-48.7","","65","","","M","28","","5","","","","101.03","","","","-52","","NA"
"-81.24","68.78","SANIRAJAK","2402353","2023-02-28 03:00","2023","02","28","03:00","-43.5","","-47.2","","66","","","M","28","","4","","","","101.04","","","","-49","","NA"
"-81.24","68.78","SANIRAJAK","2402353","2023-02-28 04:00","2023","02","28","04:00","-44.5","","-48.4","","65","","","M","28","","4","","","","101.03","","","","-51","","NA"
"-81.24","68.78","SANIRAJAK","2402353","2023-02-28 05:00","2023","02","28","05:00","-43.6","","-47.4","","66","","","M","29","","3","","","","101.06","","","","-48","","NA"
"-81.24","68.78","SANIRAJAK","2402353","2023-02-28 06:00","2023","02","28","06:00","-42.2","","-46.0","","67","","","M","29","","2","","","","101.07","","","","-45","","NA"
"-81.24","68.78","SANIRAJAK","2402353","2023-02-28 07:00","2023","02","28","07:00","-41.9","","-45.7","","67","","","M","28","","2","","","","101.06","","","","-45","","NA"
"-81.24","68.78","SANIRAJAK","2402353","2023-02-28 08:00","2023","02","28","08:00","-41.8","","-45.6","","67","","","M","26","","3","","","","101.11","","","","-46","","NA"
"-81.24","68.78","SANIRAJAK","2402353","2023-02-28 09:00","2023","02","28","09:00","-40.4","","-44.1","","68","","","M","30","","3","","","","101.15","","","","-45","","NA"
"-81.24","68.78","SANIRAJAK","2402353","2023-02-28 10:00","2023","02","28","10:00","-39.7","","-43.4","","68","","","M","30","","3","","","","101.17","","","","-44","","NA"
"-81.24","68.78","SANIRAJAK","2402353","2023-02-28 11:00","2023","02","28","11:00","-37.4","","-40.9","","69","","","M","27","","2","","","","101.20","","","","-40","","NA"
"-81.24","68.78","SANIRAJAK","2402353","2023-02-28 12:00","2023","02","28","12:00","-37.6","","-41.2","","69","","","M","23","","2","","","","101.23","","","","-40","","NA"
"-81.24","68.78","SANIRAJAK","2402353","2023-02-28 13:00","2023","02","28","13:00","-36.5","","-40.1","","69","","","M","27","","3","","","","101.27","","","","-40","","NA"
"-81.24","68.78","SANIRAJAK","2402353","2023-02-28 14:00","2023","02","28","14:00","-36.2","","-39.9","","69","","","M","30","","4","","","","101.30","","","","-41","","NA"
"-81.24","68.78","SANIRAJAK","2402353","2023-02-28 15:00","2023","02","28","15:00","-37.2","","-40.9","","69","","","M","31","","4","","","","101.38","","","","-42","","NA"
"-81.24","68.78","SANIRAJAK","2402353","2023-02-28 16:00","2023","02","28","16:00","-37.3","","-40.9","","69","","","M","28","","4","","","","101.47","","","","-43","","NA"
"-81.24","68.78","SANIRAJAK","2402353","2023-02-28 17:00","2023","02","28","17:00","-39.6","","-43.4","","67","","","M","31","","5","","","","101.55","","","","-47","","NA"
"-81.24","68.78","SANIRAJAK","2402353","2023-02-28 18:00","2023","02","28","18:00","-41.2","","-45.0","","67","","","M","31","","5","","","","101.63","","","","-48","","NA"
"-81.24","68.78","SANIRAJAK","2402353","2023-02-28 19:00","2023","02","28","19:00","-41.0","","-44.8","","67","","","M","30","","5","","","","101.71","","","","-48","","NA"
"-81.24","68.78","SANIRAJAK","2402353","2023-02-28 20:00","2023","02","28","20:00","-40.7","","-44.4","","68","","","M","29","","6","","","","101.76","","","","-49","","NA"
"-81.24","68.78","SANIRAJAK","2402353","2023-02-28 21:00","2023","02","28","21:00","-41.8","","-45.5","","67","","","M","28","","6","","","","101.83","","","","-50","","NA"
"-81.24","68.78","SANIRAJAK","2402353","2023-02-28 22:00","2023","02","28","22:00","-40.9","","-44.5","","68","","","M","28","","8","","","","101.90","","","","-51","","NA"
"-81.24","68.78","SANIRAJAK","2402353","2023-02-28 23:00","2023","02","28","23:00","-41.7","","-45.4","","67","","","M","29","","7","","","","101.95","","","","-51","","NA"
