"Longitude (x)","Latitude (y)","Station Name","Climate ID","Date/Time (LST)","Year","Month","Day","Time (LST)","Temp (°C)","Temp Flag","Dew Point Temp (°C)","Dew Point Temp Flag","Rel Hum (%)","Rel Hum Flag","Precip. Amount (mm)","Precip. Amount Flag","Wind Dir (10s deg)","Wind Dir Flag","Wind Spd (km/h)","Wind Spd Flag","Visibility (km)","Visibility Flag","Stn Press (kPa)","Stn Press Flag","Hmdx","Hmdx Flag","Wind Chill","Wind Chill Flag","Weather"
"-65.20","44.40","KEJIMKUJIK 1","8202592","2019-06-01 00:00","2019","06","01","00:00","6.5","","6.1","","97","","0.0","","32","","3","","","","99.51","","","","","","NA"
"-65.20","44.40","KEJIMKUJIK 1","8202592","2019-06-01 01:00","2019","06","01","01:00","5.9","","5.6","","98","","0.0","","30","","2","","","","99.50","","","","","","NA"
"-65.20","44.40","KEJIMKUJIK 1","8202592","2019-06-01 02:00","2019","06","01","02:00","4.9","","4.7","","98","","0.0","","31","","3","","","","99.52","","","","","","NA"
"-65.20","44.40","KEJIMKUJIK 1","8202592","2019-06-01 03:00","2019","06","01","03:00","4.4","","4.3","","99","","0.0","","32","","3","","","","99.52","","","","","","NA"
"-65.20","44.40","KEJIMKUJIK 1","8202592","2019-06-01 04:00","2019","06","01","04:00","4.1","","4.0","","99","","0.0","","24","","3","","","","99.57","","","","","","NA"
"-65.20","44.40","KEJIMKUJIK 1","8202592","2019-06-01 05:00","2019","06","01","05:00","3.3","","3.1","","99","","0.0","","20","","3","","","","99.59","","","","","","NA"
"-65.20","44.40","KEJIMKUJIK 1","8202592","2019-06-01 06:00","2019","06","01","06:00","4.0","","3.9","","99","","0.3","","26","","3","","","","99.67","","","","","","NA"
"-65.20","44.40","KEJIMKUJIK 1","8202592","2019-06-01 07:00","2019","06","01","07:00","7.3","","7.1","","98","","0.5","","30","","3","","","","99.75","","","","","","NA"
"-65.20","44.40","KEJIMKUJIK 1","8202592","2019-06-01 08:00","2019","06","01","08:00","10.6","","8.4","","86","","0.2","","27","","2","","","","99.74","","","","","","NA"
"-65.20","44.40","KEJIMKUJIK 1","8202592","2019-06-01 09:00","2019","06","01","09:00","13.7","","8.4","","70","","0.0","","24","","5","","","","99.80","","","","","","NA"
"-65.20","44.40","KEJIMKUJIK 1","8202592","2019-06-01 10:00","2019","06","01","10:00","15.6","","9.8","","68","","0.0","","28","","4","","","","99.82","","","","","","NA"
"-65.20","44.40","KEJIMKUJIK 1","8202592","2019-06-01 11:00","2019","06","01","11:00","18.4","","7.8","","50","","0.0","","29","","6","","","","99.80","","","","","","NA"
"-65.20","44.40","KEJIMKUJIK 1","8202592","2019-06-01 12:00","2019","06","01","12:00","19.8","","6.4","","42","","0.0","","25","","10","","","","99.79","","","","","","NA"
"-65.20","44.40","KEJIMKUJIK 1","8202592","2019-06-01 13:00","2019","06","01","13:00","19.6","","6.9","","43","","0.0","","24","","7","","","","99.76","","","","","","NA"
"-65.20","44.40","KEJIMKUJIK 1","8202592","2019-06-01 14:00","2019","06","01","14:00","20.3","","7.3","","43","","0.0","","25","","10","","","","99.74","","","","","","NA"
"-65.20","44.40","KEJIMKUJIK 1","8202592","2019-06-01 15:00","2019","06","01","15:00","20.7","","7.6","","43","","0.0","","28","","6","","","","99.75","","","","","","NA"
"-65.20","44.40","KEJIMKUJIK 1","8202592","2019-06-01 16:00","2019","06","01","16:00","19.7","","8.9","","50","","0.0","","24","","8","","","","99.76","","","","","","NA"
"-65.20","44.40","KEJIMKUJIK 1","8202592","2019-06-01 17:00","2019","06","01","17:00","19.0","","7.5","","47","","0.0","","22","","8","","","","99.76","","","","","","NA"
"-65.20","44.40","KEJIMKUJIK 1","8202592","2019-06-01 18:00","2019","06","01","18:00","19.1","","6.8","","45","","0.0","","22","","5","","","","99.78","","","","","","NA"
"-65.20","44.40","KEJIMKUJIK 1","8202592","2019-06-01 19:00","2019","06","01","19:00","17.0","","8.4","","57","","0.0","","20","","8","","","","99.84","","","","","","NA"
"-65.20","44.40","KEJIMKUJIK 1","8202592","2019-06-01 20:00","2019","06","01","20:00","15.5","","8.3","","62","","0.0","","17","","5","","","","99.86","","","","","","NA"
"-65.20","44.40","KEJIMKUJIK 1","8202592","2019-06-01 21:00","2019","06","01","21:00","14.0","","7.6","","66","","0.0","","16","","6","","","","99.88","","","","","","NA"
"-65.20","44.40","KEJIMKUJIK 1","8202592","2019-06-01 22:00","2019","06","01","22:00","12.8","","7.7","","71","","0.0","","16","","7","","","","99.90","","","","","","NA"
"-65.20","44.40","KEJIMKUJIK 1","8202592","2019-06-01 23:00","2019","06","01","23:00","11.8","","8.1","","78","","0.0","","15","","7","","","","99.88","","","","","","NA"
"-65.20","44.40","KEJIMKUJIK 1","8202592","2019-06-02 00:00","2019","06","02","00:00","10.8","","8.1","","84","","0.0","","13","","6","","","","99.90","","","","","","NA"
"-65.20","44.40","KEJIMKUJIK 1","8202592","2019-06-02 01:00","2019","06","02","01:00","9.5","","7.8","","89","","0.0","","11","","6","","","","99.90","","","","","","NA"
"-65.20","44.40","KEJIMKUJIK 1","8202592","2019-06-02 02:00","2019","06","02","02:00","9.6","","8.9","","96","","0.0","","11","","7","","","","99.86","","","","","","NA"
"-65.20","44.40","KEJIMKUJIK 1","8202592","2019-06-02 03:00","2019","06","02","03:00","9.5","","9.2","","98","","0.0","","10","","9","","","","99.80","","","","","","NA"
"-65.20","44.40","KEJIMKUJIK 1","8202592","2019-06-02 04:00","2019","06","02","04:00","9.8","","9.6","","99","","0.0","","8","","9","","","","99.79","","","","","","NA"
"-65.20","44.40","KEJIMKUJIK 1","8202592","2019-06-02 05:00","2019","06","02","05:00","9.9","","9.7","","99","","0.0","","10","","10","","","","99.73","","","","","","NA"
"-65.20","44.40","KEJIMKUJIK 1","8202592","2019-06-02 06:00","2019","06","02","06:00","10.3","","10.1","","99","","0.0","","10","","11","","","","99.69","","","","","","NA"
"-65.20","44.40","KEJIMKUJIK 1","8202592","2019-06-02 07:00","2019","06","02","07:00","10.4","","10.1","","98","","0.0","","10","","11","","","","99.70","","","","","","NA"
"-65.20","44.40","KEJIMKUJIK 1","8202592","2019-06-02 08:00","2019","06","02","08:00","10.7","","10.0","","95","","0.0","","11","","16","","","","99.67","","","","","","NA"
"-65.20","44.40","KEJIMKUJIK 1","8202592","2019-06-02 09:00","2019","06","02","09:00","11.8","","9.3","","85","","0.0","","10","","16","","","","99.59","","","","","","NA"
"-65.20","44.40","KEJIMKUJIK 1","8202592","2019-06-02 10:00","2019","06","02","10:00","11.0","","9.8","","92","","0.0","","9","","13","","","","99.51","","","","","","NA"
"-65.20","44.40","KEJIMKUJIK 1","8202592","2019-06-02 11:00","2019","06","02","11:00","11.3","","10.3","","94","","0.0","","9","","16","","","","99.43","","","","","","NA"
"-65.20","44.40","KEJIMKUJIK 1","8202592","2019-06-02 12:00","2019","06","02","12:00","11.3","","10.6","","96","","0.7","","10","","22","","","","99.34","","","","","","NA"
"-65.20","44.40","KEJIMKUJIK 1","8202592","2019-06-02 13:00","2019","06","02","13:00","11.2","","10.5","","96","","1.5","","10","","15","","","","99.30","","","","","","NA"
"-65.20","44.40","KEJIMKUJIK 1","8202592","2019-06-02 14:00","2019","06","02","14:00","10.8","","10.3","","97","","2.6","","10","","12","","","","99.22","","","","","","NA"
"-65.20","44.40","KEJIMKUJIK 1","8202592","2019-06-02 15:00","2019","06","02","15:00","10.8","","10.5","","98","","2.0","","7","","6","","","","99.15","","","","","","NA"
"-65.20","44.40","KEJIMKUJIK 1","8202592","2019-06-02 16:00","2019","06","02","16:00","10.6","","10.3","","98","","5.1","","9","","13","","","","99.07","","","","","","NA"
"-65.20","44.40","KEJIMKUJIK 1","8202592","2019-06-02 17:00","2019","06","02","17:00","10.6","","10.3","","99","","3.3","","10","","12","","","","98.99","","","","","","NA"
"-65.20","44.40","KEJIMKUJIK 1","8202592","2019-06-02 18:00","2019","06","02","18:00","10.5","","10.2","","98","","4.8","","4","","3","","","","98.99","","","","","","NA"
"-65.20","44.40","KEJIMKUJIK 1","8202592","2019-06-02 19:00","2019","06","02","19:00","10.7","","10.6","","99","","1.5","","7","","5","","","","98.95","","","","","","NA"
"-65.20","44.40","KEJIMKUJIK 1","8202592","2019-06-02 20:00","2019","06","02","20:00","10.6","","10.4","","99","","0.0","","22","","2","","","","98.99","","","","","","NA"
"-65.20","44.40","KEJIMKUJIK 1","8202592","2019-06-02 21:00","2019","06","02","21:00","10.6","","10.4","","99","","0.0","","1","","3","","","","99.02","","","","","","NA"
"-65.20","44.40","KEJIMKUJIK 1","8202592","2019-06-02 22:00","2019","06","02","22:00","10.4","","10.4","","100","","0.0","","25","","2","","","","99.01","","","","","","NA"
"-65.20","44.40","KEJIMKUJIK 1","8202592","2019-06-02 23:00","2019","06","02","23:00","10.5","","10.5","","100","","0.0","","27","","2","","","","99.02","","","","","","NA"
"-65.20","44.40","KEJIMKUJIK 1","8202592","2019-06-03 00:00","2019","06","03","00:00","10.4","","10.4","","100","","0.0","","25","","3","","","","99.03","","","","","","NA"
"-65.20","44.40","KEJIMKUJIK 1","8202592","2019-06-03 01:00","2019","06","03","01:00","9.7","","9.6","","100","","0.0","","21","","2","","","","99.00","","","","","","NA"
"-65.20","44.40","KEJIMKUJIK 1","8202592","2019-06-03 02:00","2019","06","03","02:00","9.0","","8.9","","100","","0.0","","26","","6","","","","99.02","","","","","","NA"
"-65.20","44.40","KEJIMKUJIK 1","8202592","2019-06-03 03:00","2019","06","03","03:00","8.6","","8.6","","100","","0.0","","25","","4","","","","99.07","","","","","","NA"
"-65.20","44.40","KEJIMKUJIK 1","8202592","2019-06-03 04:00","2019","06","03","04:00","8.8","","8.8","","100","","0.0","","24","","4","","","","99.09","","","","","","NA"
"-65.20","44.40","KEJIMKUJIK 1","8202592","2019-06-03 05:00","2019","06","03","05:00","9.3","","9.2","","100","","0.3","","18","","4","","","","99.12","","","","","","NA"
"-65.20","44.40","KEJIMKUJIK 1","8202592","2019-06-03 06:00","2019","06","03","06:00","9.7","","9.7","","100","","0.2","","17","","6","","","","99.17","","","","","","NA"
"-65.20","44.40","KEJIMKUJIK 1","8202592","2019-06-03 07:00","2019","06","03","07:00","10.7","","10.7","","100","","0.2","","16","","5","","","","99.21","","","","","","NA"
"-65.20","44.40","KEJIMKUJIK 1","8202592","2019-06-03 08:00","2019","06","03","08:00","11.8","","11.8","","100","","0.0","","16","","7","","","","99.19","","","","","","NA"
"-65.20","44.40","KEJIMKUJIK 1","8202592","2019-06-03 09:00","2019","06","03","09:00","12.8","","12.8","","100","","0.0","","19","","11","","","","99.21","","","","","","NA"
"-65.20","44.40","KEJIMKUJIK 1","8202592","2019-06-03 10:00","2019","06","03","10:00","13.2","","13.1","","100","","0.2","","18","","10","","","","99.25","","","","","","NA"
"-65.20","44.40","KEJIMKUJIK 1","8202592","2019-06-03 11:00","2019","06","03","11:00","13.3","","13.3","","100","","0.0","","17","","8","","","","99.25","","","","","","NA"
"-65.20","44.40","KEJIMKUJIK 1","8202592","2019-06-03 12:00","2019","06","03","12:00","13.2","","13.1","","100","","0.0","","17","","7","","","","99.27","","","","","","NA"
"-65.20","44.40","KEJIMKUJIK 1","8202592","2019-06-03 13:00","2019","06","03","13:00","13.8","","13.7","","100","","0.0","","19","","8","","","","99.28","","","","","","NA"
"-65.20","44.40","KEJIMKUJIK 1","8202592","2019-06-03 14:00","2019","06","03","14:00","15.1","","14.9","","99","","0.0","","22","","11","","","","99.24","","","","","","NA"
"-65.20","44.40","KEJIMKUJIK 1","8202592","2019-06-03 15:00","2019","06","03","15:00","15.1","","14.8","","98","","0.0","","21","","10","","","","99.22","","","","","","NA"
"-65.20","44.40","KEJIMKUJIK 1","8202592","2019-06-03 16:00","2019","06","03","16:00","14.3","","13.9","","98","","0.0","","24","","11","","","","99.26","","","","","","NA"
"-65.20","44.40","KEJIMKUJIK 1","8202592","2019-06-03 17:00","2019","06","03","17:00","13.0","","12.1","","94","","0.0","","25","","9","","","","99.29","","","","","","NA"
"-65.20","44.40","KEJIMKUJIK 1","8202592","2019-06-03 18:00","2019","06","03","18:00","10.7","","9.0","","90","","0.0","","22","","7","","","","99.35","","","","","","NA"
"-65.20","44.40","KEJIMKUJIK 1","8202592","2019-06-03 19:00","2019","06","03","19:00","9.9","","8.9","","94","","0.0","","20","","8","","","","99.40","","","","","","NA"
"-65.20","44.40","KEJIMKUJIK 1","8202592","2019-06-03 20:00","2019","06","03","20:00","9.2","","8.0","","92","","0.0","","21","","10","","","","99.39","","","","","","NA"
"-65.20","44.40","KEJIMKUJIK 1","8202592","2019-06-03 21:00","2019","06","03","21:00","8.0","","7.4","","96","","0.0","","19","","9","","","","99.47","","","","","","NA"
"-65.20","44.40","KEJIMKUJIK 1","8202592","2019-06-03 22:00","2019","06","03","22:00","7.4","","6.9","","96","","0.0","","23","","11","","","","99.48","","","","","","NA"
"-65.20","44.40","KEJIMKUJIK 1","8202592","2019-06-03 23:00","2019","06","03","23:00","7.2","","6.6","","96","","0.0","","22","","10","","","","99.50","","","","","","NA"
"-65.20","44.40","KEJIMKUJIK 1","8202592","2019-06-04 00:00","2019","06","04","00:00","6.2","","5.8","","97","","0.0","","25","","3","","","","99.45","","","","","","NA"
"-65.20","44.40","KEJIMKUJIK 1","8202592","2019-06-04 01:00","2019","06","04","01:00","5.5","","5.4","","100","","0.0","","21","","5","","","","99.46","","","","","","NA"
"-65.20","44.40","KEJIMKUJIK 1","8202592","2019-06-04 02:00","2019","06","04","02:00","4.6","","4.5","","100","","0.0","","28","","2","","","","99.49","","","","","","NA"
"-65.20","44.40","KEJIMKUJIK 1","8202592","2019-06-04 03:00","2019","06","04","03:00","4.2","","4.2","","100","","0.0","","30","","5","","","","99.48","","","","","","NA"
"-65.20","44.40","KEJIMKUJIK 1","8202592","2019-06-04 04:00","2019","06","04","04:00","3.7","","3.6","","100","","0.0","","30","","3","","","","99.53","","","","","","NA"
"-65.20","44.40","KEJIMKUJIK 1","8202592","2019-06-04 05:00","2019","06","04","05:00","2.7","","2.7","","100","","0.0","","30","","5","","","","99.60","","","","","","NA"
"-65.20","44.40","KEJIMKUJIK 1","8202592","2019-06-04 06:00","2019","06","04","06:00","3.7","","3.7","","100","","0.0","","30","","4","","","","99.68","","","","","","NA"
"-65.20","44.40","KEJIMKUJIK 1","8202592","2019-06-04 07:00","2019","06","04","07:00","6.7","","6.7","","100","","0.3","","30","","3","","","","99.74","","","","","","NA"
"-65.20","44.40","KEJIMKUJIK 1","8202592","2019-06-04 08:00","2019","06","04","08:00","10.1","","7.0","","81","","0.0","","30","","7","","","","99.76","","","","","","NA"
"-65.20","44.40","KEJIMKUJIK 1","8202592","2019-06-04 09:00","2019","06","04","09:00","12.0","","7.1","","72","","0.0","","29","","10","","","","99.78","","","","","","NA"
"-65.20","44.40","KEJIMKUJIK 1","8202592","2019-06-04 10:00","2019","06","04","10:00","12.6","","6.3","","66","","0.0","","27","","9","","","","99.74","","","","","","NA"
"-65.20","44.40","KEJIMKUJIK 1","8202592","2019-06-04 11:00","2019","06","04","11:00","13.9","","6.6","","61","","0.0","","27","","11","","","","99.74","","","","","","NA"
"-65.20","44.40","KEJIMKUJIK 1","8202592","2019-06-04 12:00","2019","06","04","12:00","14.6","","6.3","","57","","0.0","","28","","11","","","","99.72","","","","","","NA"
"-65.20","44.40","KEJIMKUJIK 1","8202592","2019-06-04 13:00","2019","06","04","13:00","16.3","","6.8","","53","","0.0","","30","","9","","","","99.72","","","","","","NA"
"-65.20","44.40","KEJIMKUJIK 1","8202592","2019-06-04 14:00","2019","06","04","14:00","16.6","","5.3","","47","","0.0","","32","","11","","","","99.71","","","","","","NA"
"-65.20","44.40","KEJIMKUJIK 1","8202592","2019-06-04 15:00","2019","06","04","15:00","16.9","","4.7","","44","","0.0","","31","","9","","","","99.69","","","","","","NA"
"-65.20","44.40","KEJIMKUJIK 1","8202592","2019-06-04 16:00","2019","06","04","16:00","17.3","","6.7","","50","","0.0","","28","","10","","","","99.69","","","","","","NA"
"-65.20","44.40","KEJIMKUJIK 1","8202592","2019-06-04 17:00","2019","06","04","17:00","16.1","","5.6","","50","","0.0","","29","","13","","","","99.71","","","","","","NA"
"-65.20","44.40","KEJIMKUJIK 1","8202592","2019-06-04 18:00","2019","06","04","18:00","15.0","","5.1","","52","","0.0","","27","","14","","","","99.73","","","","","","NA"
"-65.20","44.40","KEJIMKUJIK 1","8202592","2019-06-04 19:00","2019","06","04","19:00","12.7","","4.5","","57","","0.0","","27","","11","","","","99.80","","","","","","NA"
"-65.20","44.40","KEJIMKUJIK 1","8202592","2019-06-04 20:00","2019","06","04","20:00","10.9","","4.5","","65","","0.0","","27","","8","","","","99.81","","","","","","NA"
"-65.20","44.40","KEJIMKUJIK 1","8202592","2019-06-04 21:00","2019","06","04","21:00","9.4","","5.1","","75","","0.0","","25","","5","","","","99.86","","","","","","NA"
"-65.20","44.40","KEJIMKUJIK 1","8202592","2019-06-04 22:00","2019","06","04","22:00","8.4","","5.4","","82","","0.0","","24","","6","","","","99.85","","","","","","NA"
"-65.20","44.40","KEJIMKUJIK 1","8202592","2019-06-04 23:00","2019","06","04","23:00","8.2","","5.4","","82","","0.0","","24","","7","","","","99.87","","","","","","NA"
"-65.20","44.40","KEJIMKUJIK 1","8202592","2019-06-05 00:00","2019","06","05","00:00","7.5","","5.5","","87","","0.0","","26","","6","","","","99.88","","","","","","NA"
"-65.20","44.40","KEJIMKUJIK 1","8202592","2019-06-05 01:00","2019","06","05","01:00","6.3","","5.1","","92","","0.0","","27","","5","","","","99.88","","","","","","NA"
"-65.20","44.40","KEJIMKUJIK 1","8202592","2019-06-05 02:00","2019","06","05","02:00","5.5","","5.0","","96","","0.0","","27","","3","","","","99.84","","","","","","NA"
"-65.20","44.40","KEJIMKUJIK 1","8202592","2019-06-05 03:00","2019","06","05","03:00","5.4","","4.8","","96","","0.0","","24","","4","","","","99.84","","","","","","NA"
"-65.20","44.40","KEJIMKUJIK 1","8202592","2019-06-05 04:00","2019","06","05","04:00","6.1","","5.2","","94","","0.0","","24","","4","","","","99.82","","","","","","NA"
"-65.20","44.40","KEJIMKUJIK 1","8202592","2019-06-05 05:00","2019","06","05","05:00","6.7","","5.9","","95","","0.0","","18","","4","","","","99.81","","","","","","NA"
"-65.20","44.40","KEJIMKUJIK 1","8202592","2019-06-05 06:00","2019","06","05","06:00","7.5","","6.7","","95","","0.0","","20","","6","","","","99.83","","","","","","NA"
"-65.20","44.40","KEJIMKUJIK 1","8202592","2019-06-05 07:00","2019","06","05","07:00","8.5","","7.5","","94","","0.0","","17","","6","","","","99.78","","","","","","NA"
"-65.20","44.40","KEJIMKUJIK 1","8202592","2019-06-05 08:00","2019","06","05","08:00","9.6","","8.8","","95","","0.0","","23","","10","","","","99.79","","","","","","NA"
"-65.20","44.40","KEJIMKUJIK 1","8202592","2019-06-05 09:00","2019","06","05","09:00","9.6","","9.2","","98","","0.6","","22","","10","","","","99.73","","","","","","NA"
"-65.20","44.40","KEJIMKUJIK 1","8202592","2019-06-05 10:00","2019","06","05","10:00","10.2","","9.9","","98","","0.8","","22","","14","","","","99.67","","","","","","NA"
"-65.20","44.40","KEJIMKUJIK 1","8202592","2019-06-05 11:00","2019","06","05","11:00","10.6","","10.3","","98","","0.3","","23","","12","","","","99.66","","","","","","NA"
"-65.20","44.40","KEJIMKUJIK 1","8202592","2019-06-05 12:00","2019","06","05","12:00","11.0","","10.8","","99","","0.2","","23","","10","","","","99.62","","","","","","NA"
"-65.20","44.40","KEJIMKUJIK 1","8202592","2019-06-05 13:00","2019","06","05","13:00","11.3","","11.0","","98","","0.0","","24","","12","","","","99.57","","","","","","NA"
"-65.20","44.40","KEJIMKUJIK 1","8202592","2019-06-05 14:00","2019","06","05","14:00","11.4","","11.1","","98","","0.0","","25","","7","","","","99.59","","","","","","NA"
"-65.20","44.40","KEJIMKUJIK 1","8202592","2019-06-05 15:00","2019","06","05","15:00","11.8","","11.5","","98","","0.2","","25","","6","","","","99.58","","","","","","NA"
"-65.20","44.40","KEJIMKUJIK 1","8202592","2019-06-05 16:00","2019","06","05","16:00","12.4","","11.6","","95","","0.0","","24","","9","","","","99.58","","","","","","NA"
"-65.20","44.40","KEJIMKUJIK 1","8202592","2019-06-05 17:00","2019","06","05","17:00","13.3","","12.2","","93","","0.0","","24","","6","","","","99.55","","","","","","NA"
"-65.20","44.40","KEJIMKUJIK 1","8202592","2019-06-05 18:00","2019","06","05","18:00","13.9","","12.1","","89","","0.0","","21","","7","","","","99.59","","","","","","NA"
"-65.20","44.40","KEJIMKUJIK 1","8202592","2019-06-05 19:00","2019","06","05","19:00","13.2","","11.7","","91","","0.0","","24","","7","","","","99.64","","","","","","NA"
"-65.20","44.40","KEJIMKUJIK 1","8202592","2019-06-05 20:00","2019","06","05","20:00","12.3","","11.6","","95","","0.0","","21","","6","","","","99.66","","","","","","NA"
"-65.20","44.40","KEJIMKUJIK 1","8202592","2019-06-05 21:00","2019","06","05","21:00","12.0","","11.4","","96","","0.0","","20","","7","","","","99.69","","","","","","NA"
"-65.20","44.40","KEJIMKUJIK 1","8202592","2019-06-05 22:00","2019","06","05","22:00","11.8","","11.2","","97","","0.0","","19","","6","","","","99.67","","","","","","NA"
"-65.20","44.40","KEJIMKUJIK 1","8202592","2019-06-05 23:00","2019","06","05","23:00","11.1","","10.6","","97","","0.0","","20","","6","","","","99.65","","","","","","NA"
"-65.20","44.40","KEJIMKUJIK 1","8202592","2019-06-06 00:00","2019","06","06","00:00","10.7","","10.5","","99","","0.0","","18","","5","","","","99.59","","","","","","NA"
"-65.20","44.40","KEJIMKUJIK 1","8202592","2019-06-06 01:00","2019","06","06","01:00","10.7","","10.6","","99","","0.0","","17","","4","","","","99.55","","","","","","NA"
"-65.20","44.40","KEJIMKUJIK 1","8202592","2019-06-06 02:00","2019","06","06","02:00","10.9","","10.9","","100","","0.0","","19","","5","","","","99.51","","","","","","NA"
"-65.20","44.40","KEJIMKUJIK 1","8202592","2019-06-06 03:00","2019","06","06","03:00","11.2","","11.2","","100","","0.0","","14","","5","","","","99.38","","","","","","NA"
"-65.20","44.40","KEJIMKUJIK 1","8202592","2019-06-06 04:00","2019","06","06","04:00","11.3","","11.3","","100","","0.0","","12","","6","","","","99.32","","","","","","NA"
"-65.20","44.40","KEJIMKUJIK 1","8202592","2019-06-06 05:00","2019","06","06","05:00","11.3","","11.3","","100","","0.3","","17","","8","","","","99.34","","","","","","NA"
"-65.20","44.40","KEJIMKUJIK 1","8202592","2019-06-06 06:00","2019","06","06","06:00","11.6","","11.6","","100","","1.9","","14","","7","","","","99.24","","","","","","NA"
"-65.20","44.40","KEJIMKUJIK 1","8202592","2019-06-06 07:00","2019","06","06","07:00","11.8","","11.8","","100","","2.7","","13","","11","","","","99.10","","","","","","NA"
"-65.20","44.40","KEJIMKUJIK 1","8202592","2019-06-06 08:00","2019","06","06","08:00","12.0","","12.0","","100","","3.8","","14","","6","","","","99.03","","","","","","NA"
"-65.20","44.40","KEJIMKUJIK 1","8202592","2019-06-06 09:00","2019","06","06","09:00","13.5","","13.5","","100","","1.8","","20","","8","","","","99.00","","","","","","NA"
"-65.20","44.40","KEJIMKUJIK 1","8202592","2019-06-06 10:00","2019","06","06","10:00","15.2","","15.2","","100","","3.8","","25","","7","","","","99.01","","","","","","NA"
"-65.20","44.40","KEJIMKUJIK 1","8202592","2019-06-06 11:00","2019","06","06","11:00","15.8","","15.8","","100","","4.6","","23","","9","","","","99.03","","","","","","NA"
"-65.20","44.40","KEJIMKUJIK 1","8202592","2019-06-06 12:00","2019","06","06","12:00","15.7","","15.5","","99","","1.6","","25","","10","","","","99.04","","","","","","NA"
"-65.20","44.40","KEJIMKUJIK 1","8202592","2019-06-06 13:00","2019","06","06","13:00","14.7","","14.4","","98","","2.8","","25","","13","","","","99.06","","","","","","NA"
"-65.20","44.40","KEJIMKUJIK 1","8202592","2019-06-06 14:00","2019","06","06","14:00","14.3","","14.2","","99","","2.1","","24","","5","","","","99.07","","","","","","NA"
"-65.20","44.40","KEJIMKUJIK 1","8202592","2019-06-06 15:00","2019","06","06","15:00","14.0","","13.8","","99","","1.0","","24","","5","","","","99.08","","","","","","NA"
"-65.20","44.40","KEJIMKUJIK 1","8202592","2019-06-06 16:00","2019","06","06","16:00","14.2","","14.1","","99","","1.4","","22","","5","","","","99.13","","","","","","NA"
"-65.20","44.40","KEJIMKUJIK 1","8202592","2019-06-06 17:00","2019","06","06","17:00","14.8","","14.1","","96","","1.0","","0","","1","","","","99.09","","","","","","NA"
"-65.20","44.40","KEJIMKUJIK 1","8202592","2019-06-06 18:00","2019","06","06","18:00","14.8","","14.3","","97","","0.2","","25","","2","","","","99.11","","","","","","NA"
"-65.20","44.40","KEJIMKUJIK 1","8202592","2019-06-06 19:00","2019","06","06","19:00","14.7","","14.5","","99","","0.0","","2","","3","","","","99.12","","","","","","NA"
"-65.20","44.40","KEJIMKUJIK 1","8202592","2019-06-06 20:00","2019","06","06","20:00","14.4","","14.2","","99","","0.0","","36","","4","","","","99.18","","","","","","NA"
"-65.20","44.40","KEJIMKUJIK 1","8202592","2019-06-06 21:00","2019","06","06","21:00","13.6","","13.5","","99","","0.0","","1","","4","","","","99.26","","","","","","NA"
"-65.20","44.40","KEJIMKUJIK 1","8202592","2019-06-06 22:00","2019","06","06","22:00","13.2","","13.1","","99","","0.0","","36","","4","","","","99.30","","","","","","NA"
"-65.20","44.40","KEJIMKUJIK 1","8202592","2019-06-06 23:00","2019","06","06","23:00","12.4","","12.2","","99","","0.0","","1","","4","","","","99.32","","","","","","NA"
"-65.20","44.40","KEJIMKUJIK 1","8202592","2019-06-07 00:00","2019","06","07","00:00","11.9","","11.8","","100","","0.0","","35","","3","","","","99.33","","","","","","NA"
"-65.20","44.40","KEJIMKUJIK 1","8202592","2019-06-07 01:00","2019","06","07","01:00","11.5","","11.5","","100","","0.0","","33","","3","","","","99.41","","","","","","NA"
"-65.20","44.40","KEJIMKUJIK 1","8202592","2019-06-07 02:00","2019","06","07","02:00","11.2","","11.2","","100","","0.0","","33","","3","","","","99.48","","","","","","NA"
"-65.20","44.40","KEJIMKUJIK 1","8202592","2019-06-07 03:00","2019","06","07","03:00","10.4","","10.3","","100","","0.0","","31","","3","","","","99.52","","","","","","NA"
"-65.20","44.40","KEJIMKUJIK 1","8202592","2019-06-07 04:00","2019","06","07","04:00","10.1","","10.1","","100","","0.0","","34","","4","","","","99.57","","","","","","NA"
"-65.20","44.40","KEJIMKUJIK 1","8202592","2019-06-07 05:00","2019","06","07","05:00","10.2","","10.2","","100","","0.0","","3","","3","","","","99.62","","","","","","NA"
"-65.20","44.40","KEJIMKUJIK 1","8202592","2019-06-07 06:00","2019","06","07","06:00","9.9","","9.9","","100","","0.0","","5","","1","","","","99.69","","","","","","NA"
"-65.20","44.40","KEJIMKUJIK 1","8202592","2019-06-07 07:00","2019","06","07","07:00","10.6","","10.5","","100","","0.0","","4","","3","","","","99.72","","","","","","NA"
"-65.20","44.40","KEJIMKUJIK 1","8202592","2019-06-07 08:00","2019","06","07","08:00","11.7","","11.3","","98","","0.0","","9","","6","","","","99.75","","","","","","NA"
"-65.20","44.40","KEJIMKUJIK 1","8202592","2019-06-07 09:00","2019","06","07","09:00","13.5","","12.0","","91","","0.0","","12","","5","","","","99.79","","","","","","NA"
"-65.20","44.40","KEJIMKUJIK 1","8202592","2019-06-07 10:00","2019","06","07","10:00","15.8","","13.9","","89","","0.2","","17","","3","","","","99.80","","","","","","NA"
"-65.20","44.40","KEJIMKUJIK 1","8202592","2019-06-07 11:00","2019","06","07","11:00","17.6","","12.8","","73","","0.0","","16","","6","","","","99.80","","","","","","NA"
"-65.20","44.40","KEJIMKUJIK 1","8202592","2019-06-07 12:00","2019","06","07","12:00","19.3","","13.5","","69","","0.0","","22","","7","","","","99.76","","","","","","NA"
"-65.20","44.40","KEJIMKUJIK 1","8202592","2019-06-07 13:00","2019","06","07","13:00","19.8","","14.1","","70","","0.0","","17","","4","","","","99.75","","","","","","NA"
"-65.20","44.40","KEJIMKUJIK 1","8202592","2019-06-07 14:00","2019","06","07","14:00","20.3","","13.8","","66","","0.0","","18","","10","","","","99.68","","","","","","NA"
"-65.20","44.40","KEJIMKUJIK 1","8202592","2019-06-07 15:00","2019","06","07","15:00","20.3","","14.3","","68","","0.0","","20","","6","","","","99.64","","","","","","NA"
"-65.20","44.40","KEJIMKUJIK 1","8202592","2019-06-07 16:00","2019","06","07","16:00","19.7","","14.5","","72","","0.0","","15","","5","","","","99.64","","","","","","NA"
"-65.20","44.40","KEJIMKUJIK 1","8202592","2019-06-07 17:00","2019","06","07","17:00","20.6","","13.8","","65","","0.0","","32","","5","","","","99.65","","","","","","NA"
"-65.20","44.40","KEJIMKUJIK 1","8202592","2019-06-07 18:00","2019","06","07","18:00","20.9","","13.2","","62","","0.0","","29","","5","","","","99.64","","","","","","NA"
"-65.20","44.40","KEJIMKUJIK 1","8202592","2019-06-07 19:00","2019","06","07","19:00","18.9","","14.2","","74","","0.0","","9","","4","","","","99.69","","","","","","NA"
"-65.20","44.40","KEJIMKUJIK 1","8202592","2019-06-07 20:00","2019","06","07","20:00","16.9","","13.1","","78","","0.0","","31","","5","","","","99.78","","","","","","NA"
"-65.20","44.40","KEJIMKUJIK 1","8202592","2019-06-07 21:00","2019","06","07","21:00","14.0","","12.3","","90","","0.0","","27","","3","","","","99.82","","","","","","NA"
"-65.20","44.40","KEJIMKUJIK 1","8202592","2019-06-07 22:00","2019","06","07","22:00","12.2","","11.4","","95","","0.0","","28","","5","","","","99.89","","","","","","NA"
"-65.20","44.40","KEJIMKUJIK 1","8202592","2019-06-07 23:00","2019","06","07","23:00","11.0","","10.6","","97","","0.0","","29","","3","","","","99.86","","","","","","NA"
"-65.20","44.40","KEJIMKUJIK 1","8202592","2019-06-08 00:00","2019","06","08","00:00","10.0","","9.7","","98","","0.0","","27","","2","","","","99.87","","","","","","NA"
"-65.20","44.40","KEJIMKUJIK 1","8202592","2019-06-08 01:00","2019","06","08","01:00","9.1","","8.9","","99","","0.0","","30","","2","","","","99.86","","","","","","NA"
"-65.20","44.40","KEJIMKUJIK 1","8202592","2019-06-08 02:00","2019","06","08","02:00","8.4","","8.3","","99","","0.0","","28","","7","","","","99.89","","","","","","NA"
"-65.20","44.40","KEJIMKUJIK 1","8202592","2019-06-08 03:00","2019","06","08","03:00","8.2","","8.1","","100","","0.0","","28","","3","","","","99.88","","","","","","NA"
"-65.20","44.40","KEJIMKUJIK 1","8202592","2019-06-08 04:00","2019","06","08","04:00","8.9","","8.7","","99","","0.0","","30","","6","","","","99.92","","","","","","NA"
"-65.20","44.40","KEJIMKUJIK 1","8202592","2019-06-08 05:00","2019","06","08","05:00","9.2","","9.1","","99","","0.0","","30","","6","","","","99.90","","","","","","NA"
"-65.20","44.40","KEJIMKUJIK 1","8202592","2019-06-08 06:00","2019","06","08","06:00","9.4","","9.2","","99","","0.0","","35","","4","","","","100.00","","","","","","NA"
"-65.20","44.40","KEJIMKUJIK 1","8202592","2019-06-08 07:00","2019","06","08","07:00","12.2","","10.9","","92","","0.0","","34","","4","","","","100.09","","","","","","NA"
"-65.20","44.40","KEJIMKUJIK 1","8202592","2019-06-08 08:00","2019","06","08","08:00","15.0","","10.3","","73","","0.0","","34","","4","","","","100.18","","","","","","NA"
"-65.20","44.40","KEJIMKUJIK 1","8202592","2019-06-08 09:00","2019","06","08","09:00","16.7","","8.8","","60","","0.0","","1","","7","","","","100.21","","","","","","NA"
"-65.20","44.40","KEJIMKUJIK 1","8202592","2019-06-08 10:00","2019","06","08","10:00","17.4","","7.8","","53","","0.0","","33","","9","","","","100.22","","","","","","NA"
"-65.20","44.40","KEJIMKUJIK 1","8202592","2019-06-08 11:00","2019","06","08","11:00","18.4","","7.2","","48","","0.0","","34","","10","","","","100.26","","","","","","NA"
"-65.20","44.40","KEJIMKUJIK 1","8202592","2019-06-08 12:00","2019","06","08","12:00","18.7","","5.8","","43","","0.0","","36","","11","","","","100.27","","","","","","NA"
"-65.20","44.40","KEJIMKUJIK 1","8202592","2019-06-08 13:00","2019","06","08","13:00","18.3","","3.3","","37","","0.0","","35","","10","","","","100.29","","","","","","NA"
"-65.20","44.40","KEJIMKUJIK 1","8202592","2019-06-08 14:00","2019","06","08","14:00","18.7","","3.8","","37","","0.0","","34","","14","","","","100.33","","","","","","NA"
"-65.20","44.40","KEJIMKUJIK 1","8202592","2019-06-08 15:00","2019","06","08","15:00","18.9","","4.5","","39","","0.0","","34","","10","","","","100.39","","","","","","NA"
"-65.20","44.40","KEJIMKUJIK 1","8202592","2019-06-08 16:00","2019","06","08","16:00","19.0","","3.5","","36","","0.0","","36","","7","","","","100.42","","","","","","NA"
"-65.20","44.40","KEJIMKUJIK 1","8202592","2019-06-08 17:00","2019","06","08","17:00","18.6","","2.8","","35","","0.0","","36","","7","","","","100.48","","","","","","NA"
"-65.20","44.40","KEJIMKUJIK 1","8202592","2019-06-08 18:00","2019","06","08","18:00","17.6","","4.4","","42","","0.0","","36","","9","","","","100.55","","","","","","NA"
"-65.20","44.40","KEJIMKUJIK 1","8202592","2019-06-08 19:00","2019","06","08","19:00","16.3","","1.5","","37","","0.0","","1","","4","","","","100.60","","","","","","NA"
"-65.20","44.40","KEJIMKUJIK 1","8202592","2019-06-08 20:00","2019","06","08","20:00","14.2","","3.4","","48","","0.0","","31","","4","","","","100.67","","","","","","NA"
"-65.20","44.40","KEJIMKUJIK 1","8202592","2019-06-08 21:00","2019","06","08","21:00","11.2","","4.6","","64","","0.0","","30","","3","","","","100.75","","","","","","NA"
"-65.20","44.40","KEJIMKUJIK 1","8202592","2019-06-08 22:00","2019","06","08","22:00","9.9","","4.3","","68","","0.0","","30","","5","","","","100.79","","","","","","NA"
"-65.20","44.40","KEJIMKUJIK 1","8202592","2019-06-08 23:00","2019","06","08","23:00","8.9","","4.9","","76","","0.0","","30","","5","","","","100.83","","","","","","NA"
"-65.20","44.40","KEJIMKUJIK 1","8202592","2019-06-09 00:00","2019","06","09","00:00","7.6","","4.6","","81","","0.0","","28","","6","","","","100.84","","","","","","NA"
"-65.20","44.40","KEJIMKUJIK 1","8202592","2019-06-09 01:00","2019","06","09","01:00","6.8","","4.4","","85","","0.0","","30","","5","","","","100.87","","","","","","NA"
"-65.20","44.40","KEJIMKUJIK 1","8202592","2019-06-09 02:00","2019","06","09","02:00","6.4","","4.5","","88","","0.0","","32","","7","","","","100.88","","","","","","NA"
"-65.20","44.40","KEJIMKUJIK 1","8202592","2019-06-09 03:00","2019","06","09","03:00","5.9","","3.8","","86","","0.0","","30","","5","","","","100.88","","","","","","NA"
"-65.20","44.40","KEJIMKUJIK 1","8202592","2019-06-09 04:00","2019","06","09","04:00","5.6","","4.2","","91","","0.0","","31","","5","","","","100.91","","","","","","NA"
"-65.20","44.40","KEJIMKUJIK 1","8202592","2019-06-09 05:00","2019","06","09","05:00","5.8","","4.2","","89","","0.0","","33","","4","","","","100.97","","","","","","NA"
"-65.20","44.40","KEJIMKUJIK 1","8202592","2019-06-09 06:00","2019","06","09","06:00","8.0","","5.3","","83","","0.0","","31","","4","","","","101.02","","","","","","NA"
"-65.20","44.40","KEJIMKUJIK 1","8202592","2019-06-09 07:00","2019","06","09","07:00","12.1","","6.8","","70","","0.0","","30","","3","","","","101.06","","","","","","NA"
"-65.20","44.40","KEJIMKUJIK 1","8202592","2019-06-09 08:00","2019","06","09","08:00","16.1","","6.7","","54","","0.0","","31","","2","","","","101.10","","","","","","NA"
"-65.20","44.40","KEJIMKUJIK 1","8202592","2019-06-09 09:00","2019","06","09","09:00","19.1","","3.2","","35","","0.0","","2","","5","","","","101.11","","","","","","NA"
"-65.20","44.40","KEJIMKUJIK 1","8202592","2019-06-09 10:00","2019","06","09","10:00","20.3","","4.4","","35","","0.0","","33","","6","","","","101.11","","","","","","NA"
"-65.20","44.40","KEJIMKUJIK 1","8202592","2019-06-09 11:00","2019","06","09","11:00","20.8","","2.4","","30","","0.0","","7","","9","","","","101.06","","","","","","NA"
"-65.20","44.40","KEJIMKUJIK 1","8202592","2019-06-09 12:00","2019","06","09","12:00","21.9","","4.0","","31","","0.0","","34","","7","","","","101.05","","","","","","NA"
"-65.20","44.40","KEJIMKUJIK 1","8202592","2019-06-09 13:00","2019","06","09","13:00","22.2","","1.7","","26","","0.0","","28","","7","","","","101.00","","","","","","NA"
"-65.20","44.40","KEJIMKUJIK 1","8202592","2019-06-09 14:00","2019","06","09","14:00","22.9","","2.4","","26","","0.0","","33","","5","","","","100.96","","","","","","NA"
"-65.20","44.40","KEJIMKUJIK 1","8202592","2019-06-09 15:00","2019","06","09","15:00","23.0","","1.1","","24","","0.0","","30","","8","","","","100.92","","","","","","NA"
"-65.20","44.40","KEJIMKUJIK 1","8202592","2019-06-09 16:00","2019","06","09","16:00","23.1","","4.4","","30","","0.0","","33","","8","","","","100.88","","","","","","NA"
"-65.20","44.40","KEJIMKUJIK 1","8202592","2019-06-09 17:00","2019","06","09","17:00","22.0","","3.1","","29","","0.0","","31","","9","","","","100.89","","","","","","NA"
"-65.20","44.40","KEJIMKUJIK 1","8202592","2019-06-09 18:00","2019","06","09","18:00","20.7","","3.9","","33","","0.0","","32","","8","","","","100.91","","","","","","NA"
"-65.20","44.40","KEJIMKUJIK 1","8202592","2019-06-09 19:00","2019","06","09","19:00","18.3","","3.8","","38","","0.0","","28","","8","","","","100.92","","","","","","NA"
"-65.20","44.40","KEJIMKUJIK 1","8202592","2019-06-09 20:00","2019","06","09","20:00","16.0","","4.1","","45","","0.0","","27","","4","","","","100.91","","","","","","NA"
"-65.20","44.40","KEJIMKUJIK 1","8202592","2019-06-09 21:00","2019","06","09","21:00","13.7","","5.4","","57","","0.0","","26","","4","","","","100.93","","","","","","NA"
"-65.20","44.40","KEJIMKUJIK 1","8202592","2019-06-09 22:00","2019","06","09","22:00","13.2","","5.3","","59","","0.0","","26","","6","","","","100.93","","","","","","NA"
"-65.20","44.40","KEJIMKUJIK 1","8202592","2019-06-09 23:00","2019","06","09","23:00","14.0","","4.4","","52","","0.0","","28","","7","","","","100.91","","","","","","NA"
"-65.20","44.40","KEJIMKUJIK 1","8202592","2019-06-10 00:00","2019","06","10","00:00","13.7","","5.2","","57","","0.0","","28","","7","","","","100.88","","","","","","NA"
"-65.20","44.40","KEJIMKUJIK 1","8202592","2019-06-10 01:00","2019","06","10","01:00","13.6","","5.7","","59","","0.0","","29","","7","","","","100.84","","","","","","NA"
"-65.20","44.40","KEJIMKUJIK 1","8202592","2019-06-10 02:00","2019","06","10","02:00","13.4","","5.7","","59","","0.0","","28","","7","","","","100.84","","","","","","NA"
"-65.20","44.40","KEJIMKUJIK 1","8202592","2019-06-10 03:00","2019","06","10","03:00","13.2","","6.8","","65","","0.0","","28","","4","","","","100.84","","","","","","NA"
"-65.20","44.40","KEJIMKUJIK 1","8202592","2019-06-10 04:00","2019","06","10","04:00","12.8","","6.8","","67","","0.0","","28","","5","","","","100.83","","","","","","NA"
"-65.20","44.40","KEJIMKUJIK 1","8202592","2019-06-10 05:00","2019","06","10","05:00","12.6","","6.8","","68","","0.0","","28","","4","","","","100.83","","","","","","NA"
"-65.20","44.40","KEJIMKUJIK 1","8202592","2019-06-10 06:00","2019","06","10","06:00","12.5","","6.9","","69","","0.0","","25","","3","","","","100.82","","","","","","NA"
"-65.20","44.40","KEJIMKUJIK 1","8202592","2019-06-10 07:00","2019","06","10","07:00","12.8","","8.4","","74","","0.0","","24","","4","","","","100.86","","","","","","NA"
"-65.20","44.40","KEJIMKUJIK 1","8202592","2019-06-10 08:00","2019","06","10","08:00","13.9","","6.8","","62","","0.0","","23","","2","","","","100.87","","","","","","NA"
"-65.20","44.40","KEJIMKUJIK 1","8202592","2019-06-10 09:00","2019","06","10","09:00","16.1","","8.4","","60","","0.0","","11","","4","","","","100.89","","","","","","NA"
"-65.20","44.40","KEJIMKUJIK 1","8202592","2019-06-10 10:00","2019","06","10","10:00","18.2","","7.5","","50","","0.0","","9","","10","","","","100.86","","","","","","NA"
"-65.20","44.40","KEJIMKUJIK 1","8202592","2019-06-10 11:00","2019","06","10","11:00","19.5","","8.2","","48","","0.0","","9","","12","","","","100.84","","","","","","NA"
"-65.20","44.40","KEJIMKUJIK 1","8202592","2019-06-10 12:00","2019","06","10","12:00","20.4","","7.4","","43","","0.0","","16","","14","","","","100.81","","","","","","NA"
"-65.20","44.40","KEJIMKUJIK 1","8202592","2019-06-10 13:00","2019","06","10","13:00","22.3","","8.3","","41","","0.0","","12","","10","","","","100.78","","","","","","NA"
"-65.20","44.40","KEJIMKUJIK 1","8202592","2019-06-10 14:00","2019","06","10","14:00","22.2","","6.5","","36","","0.0","","14","","12","","","","100.76","","","","","","NA"
"-65.20","44.40","KEJIMKUJIK 1","8202592","2019-06-10 15:00","2019","06","10","15:00","22.6","","5.6","","33","","0.0","","14","","10","","","","100.73","","","","","","NA"
"-65.20","44.40","KEJIMKUJIK 1","8202592","2019-06-10 16:00","2019","06","10","16:00","22.1","","4.3","","31","","0.0","","15","","12","","","","100.70","","","","","","NA"
"-65.20","44.40","KEJIMKUJIK 1","8202592","2019-06-10 17:00","2019","06","10","17:00","21.7","","5.8","","35","","0.0","","16","","11","","","","100.67","","","","","","NA"
"-65.20","44.40","KEJIMKUJIK 1","8202592","2019-06-10 18:00","2019","06","10","18:00","20.7","","4.7","","35","","0.0","","16","","10","","","","100.67","","","","","","NA"
"-65.20","44.40","KEJIMKUJIK 1","8202592","2019-06-10 19:00","2019","06","10","19:00","19.0","","4.3","","38","","0.0","","15","","8","","","","100.66","","","","","","NA"
"-65.20","44.40","KEJIMKUJIK 1","8202592","2019-06-10 20:00","2019","06","10","20:00","16.9","","7.3","","53","","0.0","","16","","5","","","","100.64","","","","","","NA"
"-65.20","44.40","KEJIMKUJIK 1","8202592","2019-06-10 21:00","2019","06","10","21:00","14.9","","8.0","","63","","0.0","","17","","7","","","","100.64","","","","","","NA"
"-65.20","44.40","KEJIMKUJIK 1","8202592","2019-06-10 22:00","2019","06","10","22:00","13.7","","8.6","","71","","0.0","","18","","6","","","","100.62","","","","","","NA"
"-65.20","44.40","KEJIMKUJIK 1","8202592","2019-06-10 23:00","2019","06","10","23:00","12.3","","9.2","","81","","0.0","","18","","6","","","","100.60","","","","","","NA"
"-65.20","44.40","KEJIMKUJIK 1","8202592","2019-06-11 00:00","2019","06","11","00:00","11.3","","9.3","","88","","0.0","","21","","6","","","","100.56","","","","","","NA"
"-65.20","44.40","KEJIMKUJIK 1","8202592","2019-06-11 01:00","2019","06","11","01:00","10.5","","9.0","","90","","0.0","","21","","5","","","","100.51","","","","","","NA"
"-65.20","44.40","KEJIMKUJIK 1","8202592","2019-06-11 02:00","2019","06","11","02:00","10.5","","9.4","","93","","0.0","","18","","5","","","","100.48","","","","","","NA"
"-65.20","44.40","KEJIMKUJIK 1","8202592","2019-06-11 03:00","2019","06","11","03:00","9.9","","9.0","","94","","0.0","","17","","5","","","","100.42","","","","","","NA"
"-65.20","44.40","KEJIMKUJIK 1","8202592","2019-06-11 04:00","2019","06","11","04:00","9.7","","9.1","","96","","0.0","","17","","5","","","","100.39","","","","","","NA"
"-65.20","44.40","KEJIMKUJIK 1","8202592","2019-06-11 05:00","2019","06","11","05:00","9.3","","8.7","","96","","0.0","","13","","5","","","","100.36","","","","","","NA"
"-65.20","44.40","KEJIMKUJIK 1","8202592","2019-06-11 06:00","2019","06","11","06:00","10.1","","9.7","","97","","0.0","","16","","6","","","","100.32","","","","","","NA"
"-65.20","44.40","KEJIMKUJIK 1","8202592","2019-06-11 07:00","2019","06","11","07:00","13.7","","11.9","","89","","0.0","","19","","7","","","","100.28","","","","","","NA"
"-65.20","44.40","KEJIMKUJIK 1","8202592","2019-06-11 08:00","2019","06","11","08:00","16.5","","13.0","","80","","0.0","","18","","8","","","","100.22","","","","","","NA"
"-65.20","44.40","KEJIMKUJIK 1","8202592","2019-06-11 09:00","2019","06","11","09:00","18.3","","13.4","","73","","0.0","","17","","10","","","","100.18","","","","","","NA"
"-65.20","44.40","KEJIMKUJIK 1","8202592","2019-06-11 10:00","2019","06","11","10:00","20.0","","14.2","","69","","0.0","","18","","14","","","","100.12","","","","","","NA"
"-65.20","44.40","KEJIMKUJIK 1","8202592","2019-06-11 11:00","2019","06","11","11:00","21.6","","13.8","","61","","0.0","","18","","16","","","","100.02","","25","","","","NA"
"-65.20","44.40","KEJIMKUJIK 1","8202592","2019-06-11 12:00","2019","06","11","12:00","22.4","","13.7","","58","","0.0","","17","","14","","","","99.93","","26","","","","NA"
"-65.20","44.40","KEJIMKUJIK 1","8202592","2019-06-11 13:00","2019","06","11","13:00","20.8","","13.9","","65","","0.0","","17","","17","","","","99.86","","","","","","NA"
"-65.20","44.40","KEJIMKUJIK 1","8202592","2019-06-11 14:00","2019","06","11","14:00","20.4","","13.6","","65","","0.0","","18","","16","","","","99.76","","","","","","NA"
"-65.20","44.40","KEJIMKUJIK 1","8202592","2019-06-11 15:00","2019","06","11","15:00","20.0","","14.5","","71","","0.0","","17","","12","","","","99.70","","","","","","NA"
"-65.20","44.40","KEJIMKUJIK 1","8202592","2019-06-11 16:00","2019","06","11","16:00","18.7","","15.5","","82","","0.0","","16","","13","","","","99.61","","","","","","NA"
"-65.20","44.40","KEJIMKUJIK 1","8202592","2019-06-11 17:00","2019","06","11","17:00","17.7","","16.0","","90","","0.0","","17","","11","","","","99.51","","","","","","NA"
"-65.20","44.40","KEJIMKUJIK 1","8202592","2019-06-11 18:00","2019","06","11","18:00","16.5","","15.9","","96","","0.8","","15","","14","","","","99.41","","","","","","NA"
"-65.20","44.40","KEJIMKUJIK 1","8202592","2019-06-11 19:00","2019","06","11","19:00","16.2","","15.9","","98","","2.8","","16","","13","","","","99.32","","","","","","NA"
"-65.20","44.40","KEJIMKUJIK 1","8202592","2019-06-11 20:00","2019","06","11","20:00","16.4","","16.2","","99","","2.9","","15","","9","","","","99.23","","","","","","NA"
"-65.20","44.40","KEJIMKUJIK 1","8202592","2019-06-11 21:00","2019","06","11","21:00","16.5","","16.3","","99","","2.0","","17","","8","","","","99.19","","","","","","NA"
"-65.20","44.40","KEJIMKUJIK 1","8202592","2019-06-11 22:00","2019","06","11","22:00","16.3","","16.1","","99","","0.2","","19","","4","","","","99.14","","","","","","NA"
"-65.20","44.40","KEJIMKUJIK 1","8202592","2019-06-11 23:00","2019","06","11","23:00","15.3","","14.9","","98","","0.2","","30","","12","","","","99.15","","","","","","NA"
"-65.20","44.40","KEJIMKUJIK 1","8202592","2019-06-12 00:00","2019","06","12","00:00","13.1","","12.8","","99","","0.0","","32","","9","","","","99.16","","","","","","NA"
"-65.20","44.40","KEJIMKUJIK 1","8202592","2019-06-12 01:00","2019","06","12","01:00","13.4","","13.3","","100","","0.0","","33","","11","","","","99.16","","","","","","NA"
"-65.20","44.40","KEJIMKUJIK 1","8202592","2019-06-12 02:00","2019","06","12","02:00","13.2","","13.0","","99","","0.0","","34","","14","","","","99.23","","","","","","NA"
"-65.20","44.40","KEJIMKUJIK 1","8202592","2019-06-12 03:00","2019","06","12","03:00","10.7","","9.9","","95","","0.0","","34","","13","","","","99.38","","","","","","NA"
"-65.20","44.40","KEJIMKUJIK 1","8202592","2019-06-12 04:00","2019","06","12","04:00","8.9","","8.1","","94","","0.0","","34","","12","","","","99.49","","","","","","NA"
"-65.20","44.40","KEJIMKUJIK 1","8202592","2019-06-12 05:00","2019","06","12","05:00","8.5","","7.5","","94","","0.0","","34","","11","","","","99.62","","","","","","NA"
"-65.20","44.40","KEJIMKUJIK 1","8202592","2019-06-12 06:00","2019","06","12","06:00","8.8","","7.5","","92","","0.0","","34","","9","","","","99.72","","","","","","NA"
"-65.20","44.40","KEJIMKUJIK 1","8202592","2019-06-12 07:00","2019","06","12","07:00","10.7","","7.9","","83","","0.2","","34","","13","","","","99.83","","","","","","NA"
"-65.20","44.40","KEJIMKUJIK 1","8202592","2019-06-12 08:00","2019","06","12","08:00","12.4","","7.7","","73","","0.0","","35","","12","","","","99.92","","","","","","NA"
"-65.20","44.40","KEJIMKUJIK 1","8202592","2019-06-12 09:00","2019","06","12","09:00","14.0","","7.0","","63","","0.0","","33","","13","","","","100.04","","","","","","NA"
"-65.20","44.40","KEJIMKUJIK 1","8202592","2019-06-12 10:00","2019","06","12","10:00","16.1","","7.2","","56","","0.0","","34","","12","","","","100.10","","","","","","NA"
"-65.20","44.40","KEJIMKUJIK 1","8202592","2019-06-12 11:00","2019","06","12","11:00","17.2","","7.5","","53","","0.0","","33","","11","","","","100.12","","","","","","NA"
"-65.20","44.40","KEJIMKUJIK 1","8202592","2019-06-12 12:00","2019","06","12","12:00","18.6","","7.6","","49","","0.0","","33","","13","","","","100.15","","","","","","NA"
"-65.20","44.40","KEJIMKUJIK 1","8202592","2019-06-12 13:00","2019","06","12","13:00","19.8","","7.0","","43","","0.0","","33","","12","","","","100.17","","","","","","NA"
"-65.20","44.40","KEJIMKUJIK 1","8202592","2019-06-12 14:00","2019","06","12","14:00","20.4","","5.0","","36","","0.0","","33","","13","","","","100.21","","","","","","NA"
"-65.20","44.40","KEJIMKUJIK 1","8202592","2019-06-12 15:00","2019","06","12","15:00","21.2","","5.5","","36","","0.0","","34","","15","","","","100.22","","","","","","NA"
"-65.20","44.40","KEJIMKUJIK 1","8202592","2019-06-12 16:00","2019","06","12","16:00","21.4","","7.1","","40","","0.0","","31","","11","","","","100.24","","","","","","NA"
"-65.20","44.40","KEJIMKUJIK 1","8202592","2019-06-12 17:00","2019","06","12","17:00","21.1","","5.5","","36","","0.0","","32","","10","","","","100.24","","","","","","NA"
"-65.20","44.40","KEJIMKUJIK 1","8202592","2019-06-12 18:00","2019","06","12","18:00","20.5","","6.7","","41","","0.0","","29","","10","","","","100.28","","","","","","NA"
"-65.20","44.40","KEJIMKUJIK 1","8202592","2019-06-12 19:00","2019","06","12","19:00","17.5","","6.6","","49","","0.0","","29","","12","","","","100.39","","","","","","NA"
"-65.20","44.40","KEJIMKUJIK 1","8202592","2019-06-12 20:00","2019","06","12","20:00","15.2","","6.8","","57","","0.0","","28","","9","","","","100.47","","","","","","NA"
"-65.20","44.40","KEJIMKUJIK 1","8202592","2019-06-12 21:00","2019","06","12","21:00","13.2","","7.2","","67","","0.0","","26","","4","","","","100.53","","","","","","NA"
"-65.20","44.40","KEJIMKUJIK 1","8202592","2019-06-12 22:00","2019","06","12","22:00","11.4","","7.5","","77","","0.0","","26","","5","","","","100.60","","","","","","NA"
"-65.20","44.40","KEJIMKUJIK 1","8202592","2019-06-12 23:00","2019","06","12","23:00","10.4","","7.2","","81","","0.0","","27","","6","","","","100.66","","","","","","NA"
"-65.20","44.40","KEJIMKUJIK 1","8202592","2019-06-13 00:00","2019","06","13","00:00","9.4","","6.7","","83","","0.0","","28","","4","","","","100.67","","","","","","NA"
"-65.20","44.40","KEJIMKUJIK 1","8202592","2019-06-13 01:00","2019","06","13","01:00","8.8","","6.6","","87","","0.0","","32","","2","","","","100.70","","","","","","NA"
"-65.20","44.40","KEJIMKUJIK 1","8202592","2019-06-13 02:00","2019","06","13","02:00","8.2","","6.2","","87","","0.0","","32","","3","","","","100.73","","","","","","NA"
"-65.20","44.40","KEJIMKUJIK 1","8202592","2019-06-13 03:00","2019","06","13","03:00","7.9","","5.6","","86","","0.0","","35","","3","","","","100.72","","","","","","NA"
"-65.20","44.40","KEJIMKUJIK 1","8202592","2019-06-13 04:00","2019","06","13","04:00","7.4","","5.7","","89","","0.0","","33","","4","","","","100.70","","","","","","NA"
"-65.20","44.40","KEJIMKUJIK 1","8202592","2019-06-13 05:00","2019","06","13","05:00","7.1","","5.5","","90","","0.0","","28","","2","","","","100.77","","","","","","NA"
"-65.20","44.40","KEJIMKUJIK 1","8202592","2019-06-13 06:00","2019","06","13","06:00","8.6","","5.4","","80","","0.0","","30","","3","","","","100.76","","","","","","NA"
"-65.20","44.40","KEJIMKUJIK 1","8202592","2019-06-13 07:00","2019","06","13","07:00","12.3","","7.5","","72","","0.0","","34","","2","","","","100.76","","","","","","NA"
"-65.20","44.40","KEJIMKUJIK 1","8202592","2019-06-13 08:00","2019","06","13","08:00","14.5","","7.7","","64","","0.0","","24","","3","","","","100.78","","","","","","NA"
"-65.20","44.40","KEJIMKUJIK 1","8202592","2019-06-13 09:00","2019","06","13","09:00","16.4","","8.9","","61","","0.0","","19","","2","","","","100.77","","","","","","NA"
"-65.20","44.40","KEJIMKUJIK 1","8202592","2019-06-13 10:00","2019","06","13","10:00","18.2","","8.7","","54","","0.0","","18","","6","","","","100.75","","","","","","NA"
"-65.20","44.40","KEJIMKUJIK 1","8202592","2019-06-13 11:00","2019","06","13","11:00","19.7","","4.4","","36","","0.0","","19","","10","","","","100.77","","","","","","NA"
"-65.20","44.40","KEJIMKUJIK 1","8202592","2019-06-13 12:00","2019","06","13","12:00","20.4","","5.8","","39","","0.0","","19","","9","","","","100.72","","","","","","NA"
"-65.20","44.40","KEJIMKUJIK 1","8202592","2019-06-13 13:00","2019","06","13","13:00","20.6","","2.9","","31","","0.0","","18","","17","","","","100.68","","","","","","NA"
"-65.20","44.40","KEJIMKUJIK 1","8202592","2019-06-13 14:00","2019","06","13","14:00","19.6","","4.7","","37","","0.0","","19","","15","","","","100.66","","","","","","NA"
"-65.20","44.40","KEJIMKUJIK 1","8202592","2019-06-13 15:00","2019","06","13","15:00","19.1","","5.1","","40","","0.0","","19","","12","","","","100.54","","","","","","NA"
"-65.20","44.40","KEJIMKUJIK 1","8202592","2019-06-13 16:00","2019","06","13","16:00","17.7","","4.9","","43","","0.0","","17","","12","","","","100.48","","","","","","NA"
"-65.20","44.40","KEJIMKUJIK 1","8202592","2019-06-13 17:00","2019","06","13","17:00","17.0","","6.1","","49","","0.0","","16","","10","","","","100.47","","","","","","NA"
"-65.20","44.40","KEJIMKUJIK 1","8202592","2019-06-13 18:00","2019","06","13","18:00","12.7","","11.3","","91","","0.4","","11","","7","","","","100.44","","","","","","NA"
"-65.20","44.40","KEJIMKUJIK 1","8202592","2019-06-13 19:00","2019","06","13","19:00","12.0","","11.3","","96","","1.1","","12","","13","","","","100.30","","","","","","NA"
"-65.20","44.40","KEJIMKUJIK 1","8202592","2019-06-13 20:00","2019","06","13","20:00","12.4","","11.8","","96","","0.2","","13","","15","","","","100.15","","","","","","NA"
"-65.20","44.40","KEJIMKUJIK 1","8202592","2019-06-13 21:00","2019","06","13","21:00","12.3","","11.3","","94","","0.0","","14","","15","","","","100.06","","","","","","NA"
"-65.20","44.40","KEJIMKUJIK 1","8202592","2019-06-13 22:00","2019","06","13","22:00","12.4","","11.1","","92","","0.3","","13","","18","","","","99.92","","","","","","NA"
"-65.20","44.40","KEJIMKUJIK 1","8202592","2019-06-13 23:00","2019","06","13","23:00","12.2","","12.0","","98","","5.7","","12","","17","","","","99.80","","","","","","NA"
"-65.20","44.40","KEJIMKUJIK 1","8202592","2019-06-14 00:00","2019","06","14","00:00","12.6","","12.4","","99","","2.2","","12","","16","","","","99.64","","","","","","NA"
"-65.20","44.40","KEJIMKUJIK 1","8202592","2019-06-14 01:00","2019","06","14","01:00","13.7","","13.6","","100","","3.0","","13","","13","","","","99.57","","","","","","NA"
"-65.20","44.40","KEJIMKUJIK 1","8202592","2019-06-14 02:00","2019","06","14","02:00","14.6","","14.6","","100","","0.7","","14","","11","","","","99.47","","","","","","NA"
"-65.20","44.40","KEJIMKUJIK 1","8202592","2019-06-14 03:00","2019","06","14","03:00","14.9","","14.9","","100","","0.4","","15","","9","","","","99.39","","","","","","NA"
"-65.20","44.40","KEJIMKUJIK 1","8202592","2019-06-14 04:00","2019","06","14","04:00","15.2","","15.1","","100","","0.0","","16","","8","","","","99.38","","","","","","NA"
"-65.20","44.40","KEJIMKUJIK 1","8202592","2019-06-14 05:00","2019","06","14","05:00","15.4","","15.4","","100","","0.2","","19","","6","","","","99.39","","","","","","NA"
"-65.20","44.40","KEJIMKUJIK 1","8202592","2019-06-14 06:00","2019","06","14","06:00","15.4","","15.4","","100","","0.0","","18","","7","","","","99.40","","","","","","NA"
"-65.20","44.40","KEJIMKUJIK 1","8202592","2019-06-14 07:00","2019","06","14","07:00","15.8","","15.8","","100","","0.2","","22","","11","","","","99.42","","","","","","NA"
"-65.20","44.40","KEJIMKUJIK 1","8202592","2019-06-14 08:00","2019","06","14","08:00","16.1","","15.9","","99","","0.0","","22","","8","","","","99.48","","","","","","NA"
"-65.20","44.40","KEJIMKUJIK 1","8202592","2019-06-14 09:00","2019","06","14","09:00","16.8","","15.8","","94","","0.0","","21","","8","","","","99.48","","","","","","NA"
"-65.20","44.40","KEJIMKUJIK 1","8202592","2019-06-14 10:00","2019","06","14","10:00","18.3","","16.2","","88","","0.0","","22","","8","","","","99.47","","","","","","NA"
"-65.20","44.40","KEJIMKUJIK 1","8202592","2019-06-14 11:00","2019","06","14","11:00","19.8","","16.0","","79","","0.0","","23","","8","","","","99.49","","","","","","NA"
"-65.20","44.40","KEJIMKUJIK 1","8202592","2019-06-14 12:00","2019","06","14","12:00","21.2","","15.7","","71","","0.0","","26","","12","","","","99.53","","26","","","","NA"
"-65.20","44.40","KEJIMKUJIK 1","8202592","2019-06-14 13:00","2019","06","14","13:00","21.2","","16.0","","72","","0.0","","24","","14","","","","99.53","","26","","","","NA"
"-65.20","44.40","KEJIMKUJIK 1","8202592","2019-06-14 14:00","2019","06","14","14:00","21.3","","15.8","","71","","0.0","","24","","8","","","","99.51","","26","","","","NA"
"-65.20","44.40","KEJIMKUJIK 1","8202592","2019-06-14 15:00","2019","06","14","15:00","22.7","","15.7","","64","","0.0","","24","","13","","","","99.47","","27","","","","NA"
"-65.20","44.40","KEJIMKUJIK 1","8202592","2019-06-14 16:00","2019","06","14","16:00","22.7","","14.7","","61","","0.0","","25","","13","","","","99.46","","26","","","","NA"
"-65.20","44.40","KEJIMKUJIK 1","8202592","2019-06-14 17:00","2019","06","14","17:00","21.5","","15.3","","68","","0.0","","24","","13","","","","99.47","","26","","","","NA"
"-65.20","44.40","KEJIMKUJIK 1","8202592","2019-06-14 18:00","2019","06","14","18:00","20.2","","15.0","","72","","0.0","","24","","14","","","","99.48","","","","","","NA"
"-65.20","44.40","KEJIMKUJIK 1","8202592","2019-06-14 19:00","2019","06","14","19:00","18.7","","14.9","","78","","0.0","","23","","13","","","","99.52","","","","","","NA"
"-65.20","44.40","KEJIMKUJIK 1","8202592","2019-06-14 20:00","2019","06","14","20:00","17.4","","14.8","","85","","0.0","","24","","9","","","","99.55","","","","","","NA"
"-65.20","44.40","KEJIMKUJIK 1","8202592","2019-06-14 21:00","2019","06","14","21:00","15.8","","14.2","","90","","0.0","","24","","7","","","","99.60","","","","","","NA"
"-65.20","44.40","KEJIMKUJIK 1","8202592","2019-06-14 22:00","2019","06","14","22:00","15.0","","13.7","","92","","0.0","","24","","9","","","","99.62","","","","","","NA"
"-65.20","44.40","KEJIMKUJIK 1","8202592","2019-06-14 23:00","2019","06","14","23:00","14.3","","13.0","","92","","0.0","","25","","7","","","","99.61","","","","","","NA"
"-65.20","44.40","KEJIMKUJIK 1","8202592","2019-06-15 00:00","2019","06","15","00:00","14.0","","12.5","","91","","0.0","","26","","6","","","","99.63","","","","","","NA"
"-65.20","44.40","KEJIMKUJIK 1","8202592","2019-06-15 01:00","2019","06","15","01:00","13.0","","11.8","","92","","0.0","","23","","7","","","","99.61","","","","","","NA"
"-65.20","44.40","KEJIMKUJIK 1","8202592","2019-06-15 02:00","2019","06","15","02:00","11.8","","11.0","","95","","0.0","","23","","7","","","","99.61","","","","","","NA"
"-65.20","44.40","KEJIMKUJIK 1","8202592","2019-06-15 03:00","2019","06","15","03:00","11.1","","10.7","","97","","0.0","","23","","5","","","","99.63","","","","","","NA"
"-65.20","44.40","KEJIMKUJIK 1","8202592","2019-06-15 04:00","2019","06","15","04:00","11.6","","11.1","","97","","0.0","","24","","6","","","","99.68","","","","","","NA"
"-65.20","44.40","KEJIMKUJIK 1","8202592","2019-06-15 05:00","2019","06","15","05:00","11.5","","11.0","","97","","0.0","","25","","6","","","","99.73","","","","","","NA"
"-65.20","44.40","KEJIMKUJIK 1","8202592","2019-06-15 06:00","2019","06","15","06:00","11.7","","11.1","","96","","0.0","","26","","6","","","","99.80","","","","","","NA"
"-65.20","44.40","KEJIMKUJIK 1","8202592","2019-06-15 07:00","2019","06","15","07:00","12.6","","11.7","","94","","0.0","","29","","5","","","","99.88","","","","","","NA"
"-65.20","44.40","KEJIMKUJIK 1","8202592","2019-06-15 08:00","2019","06","15","08:00","14.7","","12.5","","86","","0.0","","29","","5","","","","99.92","","","","","","NA"
"-65.20","44.40","KEJIMKUJIK 1","8202592","2019-06-15 09:00","2019","06","15","09:00","17.6","","12.8","","74","","0.0","","30","","6","","","","99.94","","","","","","NA"
"-65.20","44.40","KEJIMKUJIK 1","8202592","2019-06-15 10:00","2019","06","15","10:00","20.1","","13.4","","65","","0.0","","32","","7","","","","99.97","","","","","","NA"
"-65.20","44.40","KEJIMKUJIK 1","8202592","2019-06-15 11:00","2019","06","15","11:00","21.2","","12.6","","58","","0.0","","31","","12","","","","100.00","","","","","","NA"
"-65.20","44.40","KEJIMKUJIK 1","8202592","2019-06-15 12:00","2019","06","15","12:00","22.1","","12.6","","55","","0.0","","28","","10","","","","100.00","","25","","","","NA"
"-65.20","44.40","KEJIMKUJIK 1","8202592","2019-06-15 13:00","2019","06","15","13:00","22.8","","11.2","","48","","0.0","","31","","11","","","","99.99","","25","","","","NA"
"-65.20","44.40","KEJIMKUJIK 1","8202592","2019-06-15 14:00","2019","06","15","14:00","22.9","","9.0","","41","","0.0","","31","","12","","","","99.96","","","","","","NA"
"-65.20","44.40","KEJIMKUJIK 1","8202592","2019-06-15 15:00","2019","06","15","15:00","23.3","","9.7","","42","","0.0","","30","","10","","","","100.00","","","","","","NA"
"-65.20","44.40","KEJIMKUJIK 1","8202592","2019-06-15 16:00","2019","06","15","16:00","23.5","","7.7","","37","","0.0","","31","","10","","","","99.96","","","","","","NA"
"-65.20","44.40","KEJIMKUJIK 1","8202592","2019-06-15 17:00","2019","06","15","17:00","23.4","","9.7","","42","","0.0","","26","","11","","","","99.94","","25","","","","NA"
"-65.20","44.40","KEJIMKUJIK 1","8202592","2019-06-15 18:00","2019","06","15","18:00","21.6","","9.3","","46","","0.0","","27","","9","","","","99.95","","","","","","NA"
"-65.20","44.40","KEJIMKUJIK 1","8202592","2019-06-15 19:00","2019","06","15","19:00","20.0","","9.0","","49","","0.0","","26","","10","","","","100.00","","","","","","NA"
"-65.20","44.40","KEJIMKUJIK 1","8202592","2019-06-15 20:00","2019","06","15","20:00","17.8","","10.0","","60","","0.0","","25","","6","","","","100.07","","","","","","NA"
"-65.20","44.40","KEJIMKUJIK 1","8202592","2019-06-15 21:00","2019","06","15","21:00","16.2","","8.9","","62","","0.0","","24","","9","","","","100.07","","","","","","NA"
"-65.20","44.40","KEJIMKUJIK 1","8202592","2019-06-15 22:00","2019","06","15","22:00","15.1","","8.8","","66","","0.0","","23","","9","","","","100.05","","","","","","NA"
"-65.20","44.40","KEJIMKUJIK 1","8202592","2019-06-15 23:00","2019","06","15","23:00","14.2","","8.4","","68","","0.0","","22","","12","","","","99.98","","","","","","NA"
"-65.20","44.40","KEJIMKUJIK 1","8202592","2019-06-16 00:00","2019","06","16","00:00","13.3","","8.4","","72","","0.0","","22","","10","","","","99.90","","","","","","NA"
"-65.20","44.40","KEJIMKUJIK 1","8202592","2019-06-16 01:00","2019","06","16","01:00","12.7","","8.8","","77","","0.0","","21","","10","","","","99.82","","","","","","NA"
"-65.20","44.40","KEJIMKUJIK 1","8202592","2019-06-16 02:00","2019","06","16","02:00","12.3","","9.4","","83","","0.0","","22","","9","","","","99.76","","","","","","NA"
"-65.20","44.40","KEJIMKUJIK 1","8202592","2019-06-16 03:00","2019","06","16","03:00","12.6","","9.8","","83","","0.0","","22","","10","","","","99.71","","","","","","NA"
"-65.20","44.40","KEJIMKUJIK 1","8202592","2019-06-16 04:00","2019","06","16","04:00","12.7","","10.5","","86","","0.0","","22","","7","","","","99.70","","","","","","NA"
"-65.20","44.40","KEJIMKUJIK 1","8202592","2019-06-16 05:00","2019","06","16","05:00","12.4","","11.1","","92","","0.0","","24","","8","","","","99.72","","","","","","NA"
"-65.20","44.40","KEJIMKUJIK 1","8202592","2019-06-16 06:00","2019","06","16","06:00","13.5","","11.7","","89","","0.0","","23","","7","","","","99.68","","","","","","NA"
"-65.20","44.40","KEJIMKUJIK 1","8202592","2019-06-16 07:00","2019","06","16","07:00","15.6","","12.1","","80","","0.0","","24","","9","","","","99.70","","","","","","NA"
"-65.20","44.40","KEJIMKUJIK 1","8202592","2019-06-16 08:00","2019","06","16","08:00","15.8","","12.0","","78","","0.0","","26","","12","","","","99.73","","","","","","NA"
"-65.20","44.40","KEJIMKUJIK 1","8202592","2019-06-16 09:00","2019","06","16","09:00","17.0","","12.6","","75","","0.0","","27","","11","","","","99.74","","","","","","NA"
"-65.20","44.40","KEJIMKUJIK 1","8202592","2019-06-16 10:00","2019","06","16","10:00","16.8","","13.0","","78","","0.0","","25","","9","","","","99.72","","","","","","NA"
"-65.20","44.40","KEJIMKUJIK 1","8202592","2019-06-16 11:00","2019","06","16","11:00","17.1","","13.7","","81","","0.0","","25","","7","","","","99.72","","","","","","NA"
"-65.20","44.40","KEJIMKUJIK 1","8202592","2019-06-16 12:00","2019","06","16","12:00","16.9","","14.2","","84","","0.0","","26","","6","","","","99.75","","","","","","NA"
"-65.20","44.40","KEJIMKUJIK 1","8202592","2019-06-16 13:00","2019","06","16","13:00","17.2","","14.1","","82","","0.0","","25","","7","","","","99.72","","","","","","NA"
"-65.20","44.40","KEJIMKUJIK 1","8202592","2019-06-16 14:00","2019","06","16","14:00","17.5","","14.8","","84","","0.0","","25","","7","","","","99.72","","","","","","NA"
"-65.20","44.40","KEJIMKUJIK 1","8202592","2019-06-16 15:00","2019","06","16","15:00","17.1","","15.0","","87","","0.0","","24","","9","","","","99.72","","","","","","NA"
"-65.20","44.40","KEJIMKUJIK 1","8202592","2019-06-16 16:00","2019","06","16","16:00","16.1","","15.2","","94","","0.0","","23","","7","","","","99.71","","","","","","NA"
"-65.20","44.40","KEJIMKUJIK 1","8202592","2019-06-16 17:00","2019","06","16","17:00","16.2","","15.0","","93","","0.0","","23","","6","","","","99.71","","","","","","NA"
"-65.20","44.40","KEJIMKUJIK 1","8202592","2019-06-16 18:00","2019","06","16","18:00","15.4","","14.4","","94","","0.0","","23","","8","","","","99.71","","","","","","NA"
"-65.20","44.40","KEJIMKUJIK 1","8202592","2019-06-16 19:00","2019","06","16","19:00","14.8","","14.5","","98","","1.4","","22","","8","","","","99.71","","","","","","NA"
"-65.20","44.40","KEJIMKUJIK 1","8202592","2019-06-16 20:00","2019","06","16","20:00","14.7","","14.5","","98","","0.2","","22","","5","","","","99.72","","","","","","NA"
"-65.20","44.40","KEJIMKUJIK 1","8202592","2019-06-16 21:00","2019","06","16","21:00","14.5","","14.3","","99","","0.0","","21","","9","","","","99.74","","","","","","NA"
"-65.20","44.40","KEJIMKUJIK 1","8202592","2019-06-16 22:00","2019","06","16","22:00","14.5","","14.3","","99","","0.2","","23","","5","","","","99.74","","","","","","NA"
"-65.20","44.40","KEJIMKUJIK 1","8202592","2019-06-16 23:00","2019","06","16","23:00","14.5","","14.4","","99","","0.0","","22","","4","","","","99.74","","","","","","NA"
"-65.20","44.40","KEJIMKUJIK 1","8202592","2019-06-17 00:00","2019","06","17","00:00","14.4","","14.3","","100","","0.0","","18","","4","","","","99.67","","","","","","NA"
"-65.20","44.40","KEJIMKUJIK 1","8202592","2019-06-17 01:00","2019","06","17","01:00","14.1","","14.1","","100","","0.0","","18","","7","","","","99.62","","","","","","NA"
"-65.20","44.40","KEJIMKUJIK 1","8202592","2019-06-17 02:00","2019","06","17","02:00","14.0","","14.0","","100","","0.0","","18","","4","","","","99.54","","","","","","NA"
"-65.20","44.40","KEJIMKUJIK 1","8202592","2019-06-17 03:00","2019","06","17","03:00","14.0","","14.0","","100","","1.0","","18","","4","","","","99.50","","","","","","NA"
"-65.20","44.40","KEJIMKUJIK 1","8202592","2019-06-17 04:00","2019","06","17","04:00","14.0","","13.9","","100","","3.7","","12","","3","","","","99.45","","","","","","NA"
"-65.20","44.40","KEJIMKUJIK 1","8202592","2019-06-17 05:00","2019","06","17","05:00","14.0","","14.0","","100","","3.2","","12","","4","","","","99.39","","","","","","NA"
"-65.20","44.40","KEJIMKUJIK 1","8202592","2019-06-17 06:00","2019","06","17","06:00","14.4","","14.4","","100","","0.8","","14","","5","","","","99.37","","","","","","NA"
"-65.20","44.40","KEJIMKUJIK 1","8202592","2019-06-17 07:00","2019","06","17","07:00","14.5","","14.5","","100","","0.3","","6","","3","","","","99.45","","","","","","NA"
"-65.20","44.40","KEJIMKUJIK 1","8202592","2019-06-17 08:00","2019","06","17","08:00","15.5","","15.3","","99","","0.2","","2","","3","","","","99.45","","","","","","NA"
"-65.20","44.40","KEJIMKUJIK 1","8202592","2019-06-17 09:00","2019","06","17","09:00","17.5","","16.6","","94","","0.2","","1","","2","","","","99.46","","","","","","NA"
"-65.20","44.40","KEJIMKUJIK 1","8202592","2019-06-17 10:00","2019","06","17","10:00","18.4","","16.4","","88","","0.0","","33","","5","","","","99.49","","","","","","NA"
"-65.20","44.40","KEJIMKUJIK 1","8202592","2019-06-17 11:00","2019","06","17","11:00","18.7","","16.8","","88","","0.0","","31","","5","","","","99.54","","","","","","NA"
"-65.20","44.40","KEJIMKUJIK 1","8202592","2019-06-17 12:00","2019","06","17","12:00","20.3","","17.3","","83","","0.0","","31","","7","","","","99.56","","26","","","","NA"
"-65.20","44.40","KEJIMKUJIK 1","8202592","2019-06-17 13:00","2019","06","17","13:00","21.2","","16.7","","75","","0.0","","33","","7","","","","99.54","","26","","","","NA"
"-65.20","44.40","KEJIMKUJIK 1","8202592","2019-06-17 14:00","2019","06","17","14:00","23.7","","16.5","","64","","0.0","","31","","7","","","","99.53","","29","","","","NA"
"-65.20","44.40","KEJIMKUJIK 1","8202592","2019-06-17 15:00","2019","06","17","15:00","23.8","","16.0","","62","","0.0","","29","","10","","","","99.55","","28","","","","NA"
"-65.20","44.40","KEJIMKUJIK 1","8202592","2019-06-17 16:00","2019","06","17","16:00","23.6","","13.8","","54","","0.0","","31","","8","","","","99.56","","27","","","","NA"
"-65.20","44.40","KEJIMKUJIK 1","8202592","2019-06-17 17:00","2019","06","17","17:00","22.3","","12.6","","54","","0.0","","32","","12","","","","99.61","","25","","","","NA"
"-65.20","44.40","KEJIMKUJIK 1","8202592","2019-06-17 18:00","2019","06","17","18:00","21.1","","11.5","","54","","0.0","","31","","10","","","","99.65","","","","","","NA"
"-65.20","44.40","KEJIMKUJIK 1","8202592","2019-06-17 19:00","2019","06","17","19:00","19.1","","11.3","","61","","0.0","","30","","12","","","","99.72","","","","","","NA"
"-65.20","44.40","KEJIMKUJIK 1","8202592","2019-06-17 20:00","2019","06","17","20:00","17.2","","11.5","","69","","0.0","","31","","6","","","","99.76","","","","","","NA"
"-65.20","44.40","KEJIMKUJIK 1","8202592","2019-06-17 21:00","2019","06","17","21:00","15.0","","11.5","","80","","0.0","","32","","6","","","","99.83","","","","","","NA"
"-65.20","44.40","KEJIMKUJIK 1","8202592","2019-06-17 22:00","2019","06","17","22:00","13.6","","10.8","","83","","0.0","","32","","6","","","","99.88","","","","","","NA"
"-65.20","44.40","KEJIMKUJIK 1","8202592","2019-06-17 23:00","2019","06","17","23:00","12.1","","9.9","","86","","0.0","","33","","4","","","","99.91","","","","","","NA"
"-65.20","44.40","KEJIMKUJIK 1","8202592","2019-06-18 00:00","2019","06","18","00:00","10.8","","9.4","","91","","0.0","","31","","6","","","","99.93","","","","","","NA"
"-65.20","44.40","KEJIMKUJIK 1","8202592","2019-06-18 01:00","2019","06","18","01:00","10.2","","8.9","","92","","0.0","","31","","6","","","","99.95","","","","","","NA"
"-65.20","44.40","KEJIMKUJIK 1","8202592","2019-06-18 02:00","2019","06","18","02:00","8.8","","8.0","","95","","0.0","","35","","3","","","","99.96","","","","","","NA"
"-65.20","44.40","KEJIMKUJIK 1","8202592","2019-06-18 03:00","2019","06","18","03:00","9.0","","7.9","","93","","0.0","","31","","3","","","","99.96","","","","","","NA"
"-65.20","44.40","KEJIMKUJIK 1","8202592","2019-06-18 04:00","2019","06","18","04:00","9.0","","8.1","","94","","0.0","","29","","6","","","","99.98","","","","","","NA"
"-65.20","44.40","KEJIMKUJIK 1","8202592","2019-06-18 05:00","2019","06","18","05:00","8.5","","7.7","","95","","0.0","","30","","6","","","","100.00","","","","","","NA"
"-65.20","44.40","KEJIMKUJIK 1","8202592","2019-06-18 06:00","2019","06","18","06:00","9.4","","8.2","","92","","0.0","","30","","5","","","","100.06","","","","","","NA"
"-65.20","44.40","KEJIMKUJIK 1","8202592","2019-06-18 07:00","2019","06","18","07:00","13.5","","10.0","","80","","0.0","","31","","5","","","","100.08","","","","","","NA"
"-65.20","44.40","KEJIMKUJIK 1","8202592","2019-06-18 08:00","2019","06","18","08:00","17.7","","10.7","","64","","0.0","","30","","2","","","","100.07","","","","","","NA"
"-65.20","44.40","KEJIMKUJIK 1","8202592","2019-06-18 09:00","2019","06","18","09:00","20.1","","11.3","","57","","0.0","","27","","5","","","","100.06","","","","","","NA"
"-65.20","44.40","KEJIMKUJIK 1","8202592","2019-06-18 10:00","2019","06","18","10:00","21.7","","9.1","","45","","0.0","","26","","10","","","","100.03","","","","","","NA"
"-65.20","44.40","KEJIMKUJIK 1","8202592","2019-06-18 11:00","2019","06","18","11:00","22.6","","10.2","","45","","0.0","","26","","11","","","","100.00","","","","","","NA"
"-65.20","44.40","KEJIMKUJIK 1","8202592","2019-06-18 12:00","2019","06","18","12:00","23.5","","9.0","","40","","0.0","","27","","12","","","","99.97","","","","","","NA"
"-65.20","44.40","KEJIMKUJIK 1","8202592","2019-06-18 13:00","2019","06","18","13:00","23.6","","9.6","","41","","0.0","","29","","11","","","","99.94","","25","","","","NA"
"-65.20","44.40","KEJIMKUJIK 1","8202592","2019-06-18 14:00","2019","06","18","14:00","22.9","","8.0","","39","","0.0","","29","","10","","","","99.91","","","","","","NA"
"-65.20","44.40","KEJIMKUJIK 1","8202592","2019-06-18 15:00","2019","06","18","15:00","23.5","","8.6","","39","","0.0","","30","","11","","","","99.89","","","","","","NA"
"-65.20","44.40","KEJIMKUJIK 1","8202592","2019-06-18 16:00","2019","06","18","16:00","23.0","","9.1","","41","","0.0","","29","","13","","","","99.88","","","","","","NA"
"-65.20","44.40","KEJIMKUJIK 1","8202592","2019-06-18 17:00","2019","06","18","17:00","22.6","","6.9","","36","","0.0","","30","","9","","","","99.86","","","","","","NA"
"-65.20","44.40","KEJIMKUJIK 1","8202592","2019-06-18 18:00","2019","06","18","18:00","20.9","","6.0","","38","","0.0","","31","","6","","","","99.85","","","","","","NA"
"-65.20","44.40","KEJIMKUJIK 1","8202592","2019-06-18 19:00","2019","06","18","19:00","19.6","","9.3","","51","","0.0","","26","","6","","","","99.86","","","","","","NA"
"-65.20","44.40","KEJIMKUJIK 1","8202592","2019-06-18 20:00","2019","06","18","20:00","18.7","","13.1","","70","","0.0","","26","","6","","","","99.88","","","","","","NA"
"-65.20","44.40","KEJIMKUJIK 1","8202592","2019-06-18 21:00","2019","06","18","21:00","17.3","","13.2","","77","","0.0","","27","","3","","","","99.90","","","","","","NA"
"-65.20","44.40","KEJIMKUJIK 1","8202592","2019-06-18 22:00","2019","06","18","22:00","16.4","","12.8","","80","","0.0","","25","","5","","","","99.89","","","","","","NA"
"-65.20","44.40","KEJIMKUJIK 1","8202592","2019-06-18 23:00","2019","06","18","23:00","14.9","","12.5","","85","","0.0","","24","","4","","","","99.86","","","","","","NA"
"-65.20","44.40","KEJIMKUJIK 1","8202592","2019-06-19 00:00","2019","06","19","00:00","13.9","","12.1","","89","","0.0","","26","","3","","","","99.87","","","","","","NA"
"-65.20","44.40","KEJIMKUJIK 1","8202592","2019-06-19 01:00","2019","06","19","01:00","14.9","","12.5","","86","","0.0","","25","","4","","","","99.87","","","","","","NA"
"-65.20","44.40","KEJIMKUJIK 1","8202592","2019-06-19 02:00","2019","06","19","02:00","14.8","","12.3","","85","","0.0","","25","","3","","","","99.84","","","","","","NA"
"-65.20","44.40","KEJIMKUJIK 1","8202592","2019-06-19 03:00","2019","06","19","03:00","14.3","","12.3","","88","","0.0","","34","","3","","","","99.81","","","","","","NA"
"-65.20","44.40","KEJIMKUJIK 1","8202592","2019-06-19 04:00","2019","06","19","04:00","14.1","","12.4","","90","","0.0","","28","","2","","","","99.78","","","","","","NA"
"-65.20","44.40","KEJIMKUJIK 1","8202592","2019-06-19 05:00","2019","06","19","05:00","13.9","","12.3","","90","","0.0","","30","","2","","","","99.78","","","","","","NA"
"-65.20","44.40","KEJIMKUJIK 1","8202592","2019-06-19 06:00","2019","06","19","06:00","14.3","","13.2","","93","","0.0","","25","","2","","","","99.78","","","","","","NA"
"-65.20","44.40","KEJIMKUJIK 1","8202592","2019-06-19 07:00","2019","06","19","07:00","15.5","","13.5","","88","","0.0","","29","","2","","","","99.78","","","","","","NA"
"-65.20","44.40","KEJIMKUJIK 1","8202592","2019-06-19 08:00","2019","06","19","08:00","17.0","","14.2","","83","","0.0","","25","","2","","","","99.74","","","","","","NA"
"-65.20","44.40","KEJIMKUJIK 1","8202592","2019-06-19 09:00","2019","06","19","09:00","18.3","","14.9","","80","","0.0","","23","","3","","","","99.75","","","","","","NA"
"-65.20","44.40","KEJIMKUJIK 1","8202592","2019-06-19 10:00","2019","06","19","10:00","20.5","","15.2","","71","","0.0","","27","","2","","","","99.74","","25","","","","NA"
"-65.20","44.40","KEJIMKUJIK 1","8202592","2019-06-19 11:00","2019","06","19","11:00","22.6","","15.2","","63","","0.0","","20","","10","","","","99.71","","27","","","","NA"
"-65.20","44.40","KEJIMKUJIK 1","8202592","2019-06-19 12:00","2019","06","19","12:00","23.6","","13.3","","52","","0.0","","18","","7","","","","99.67","","27","","","","NA"
"-65.20","44.40","KEJIMKUJIK 1","8202592","2019-06-19 13:00","2019","06","19","13:00","24.3","","12.9","","49","","0.0","","23","","7","","","","99.63","","27","","","","NA"
"-65.20","44.40","KEJIMKUJIK 1","8202592","2019-06-19 14:00","2019","06","19","14:00","23.7","","13.3","","52","","0.0","","18","","8","","","","99.63","","27","","","","NA"
"-65.20","44.40","KEJIMKUJIK 1","8202592","2019-06-19 15:00","2019","06","19","15:00","22.9","","12.7","","53","","0.0","","22","","9","","","","99.59","","26","","","","NA"
"-65.20","44.40","KEJIMKUJIK 1","8202592","2019-06-19 16:00","2019","06","19","16:00","23.6","","13.8","","54","","0.0","","27","","10","","","","99.60","","27","","","","NA"
"-65.20","44.40","KEJIMKUJIK 1","8202592","2019-06-19 17:00","2019","06","19","17:00","21.9","","13.4","","59","","0.0","","22","","9","","","","99.60","","25","","","","NA"
"-65.20","44.40","KEJIMKUJIK 1","8202592","2019-06-19 18:00","2019","06","19","18:00","22.5","","12.8","","54","","0.0","","25","","9","","","","99.62","","25","","","","NA"
"-65.20","44.40","KEJIMKUJIK 1","8202592","2019-06-19 19:00","2019","06","19","19:00","21.1","","13.6","","63","","0.0","","26","","8","","","","99.66","","","","","","NA"
"-65.20","44.40","KEJIMKUJIK 1","8202592","2019-06-19 20:00","2019","06","19","20:00","18.7","","13.9","","74","","0.0","","28","","2","","","","99.66","","","","","","NA"
"-65.20","44.40","KEJIMKUJIK 1","8202592","2019-06-19 21:00","2019","06","19","21:00","16.6","","13.8","","84","","0.0","","27","","3","","","","99.68","","","","","","NA"
"-65.20","44.40","KEJIMKUJIK 1","8202592","2019-06-19 22:00","2019","06","19","22:00","15.6","","13.7","","89","","0.0","","24","","3","","","","99.68","","","","","","NA"
"-65.20","44.40","KEJIMKUJIK 1","8202592","2019-06-19 23:00","2019","06","19","23:00","14.5","","13.2","","92","","0.0","","22","","8","","","","99.68","","","","","","NA"
"-65.20","44.40","KEJIMKUJIK 1","8202592","2019-06-20 00:00","2019","06","20","00:00","13.8","","13.1","","95","","0.0","","18","","5","","","","99.65","","","","","","NA"
"-65.20","44.40","KEJIMKUJIK 1","8202592","2019-06-20 01:00","2019","06","20","01:00","13.2","","12.7","","96","","0.0","","23","","5","","","","99.61","","","","","","NA"
"-65.20","44.40","KEJIMKUJIK 1","8202592","2019-06-20 02:00","2019","06","20","02:00","12.3","","11.5","","95","","0.0","","0","","1","","","","99.62","","","","","","NA"
"-65.20","44.40","KEJIMKUJIK 1","8202592","2019-06-20 03:00","2019","06","20","03:00","11.6","","11.1","","96","","0.0","","11","","4","","","","99.59","","","","","","NA"
"-65.20","44.40","KEJIMKUJIK 1","8202592","2019-06-20 04:00","2019","06","20","04:00","10.8","","9.9","","94","","0.0","","14","","3","","","","99.57","","","","","","NA"
"-65.20","44.40","KEJIMKUJIK 1","8202592","2019-06-20 05:00","2019","06","20","05:00","11.8","","11.6","","99","","0.0","","19","","5","","","","99.58","","","","","","NA"
"-65.20","44.40","KEJIMKUJIK 1","8202592","2019-06-20 06:00","2019","06","20","06:00","13.2","","12.9","","98","","0.0","","19","","6","","","","99.57","","","","","","NA"
"-65.20","44.40","KEJIMKUJIK 1","8202592","2019-06-20 07:00","2019","06","20","07:00","14.0","","13.8","","99","","0.0","","13","","5","","","","99.56","","","","","","NA"
"-65.20","44.40","KEJIMKUJIK 1","8202592","2019-06-20 08:00","2019","06","20","08:00","14.9","","13.5","","91","","0.0","","15","","7","","","","99.56","","","","","","NA"
"-65.20","44.40","KEJIMKUJIK 1","8202592","2019-06-20 09:00","2019","06","20","09:00","16.2","","13.4","","84","","0.0","","15","","8","","","","99.52","","","","","","NA"
"-65.20","44.40","KEJIMKUJIK 1","8202592","2019-06-20 10:00","2019","06","20","10:00","17.2","","13.5","","79","","0.0","","17","","8","","","","99.49","","","","","","NA"
"-65.20","44.40","KEJIMKUJIK 1","8202592","2019-06-20 11:00","2019","06","20","11:00","19.6","","14.2","","71","","0.0","","15","","10","","","","99.42","","","","","","NA"
"-65.20","44.40","KEJIMKUJIK 1","8202592","2019-06-20 12:00","2019","06","20","12:00","20.5","","13.9","","66","","0.0","","14","","15","","","","99.37","","","","","","NA"
"-65.20","44.40","KEJIMKUJIK 1","8202592","2019-06-20 13:00","2019","06","20","13:00","21.3","","14.1","","63","","0.0","","17","","10","","","","99.28","","25","","","","NA"
"-65.20","44.40","KEJIMKUJIK 1","8202592","2019-06-20 14:00","2019","06","20","14:00","21.8","","13.2","","58","","0.0","","15","","11","","","","99.22","","25","","","","NA"
"-65.20","44.40","KEJIMKUJIK 1","8202592","2019-06-20 15:00","2019","06","20","15:00","21.0","","14.4","","66","","0.0","","18","","10","","","","99.19","","25","","","","NA"
"-65.20","44.40","KEJIMKUJIK 1","8202592","2019-06-20 16:00","2019","06","20","16:00","19.6","","15.0","","75","","0.0","","16","","13","","","","99.15","","","","","","NA"
"-65.20","44.40","KEJIMKUJIK 1","8202592","2019-06-20 17:00","2019","06","20","17:00","18.5","","14.9","","79","","0.0","","15","","8","","","","99.13","","","","","","NA"
"-65.20","44.40","KEJIMKUJIK 1","8202592","2019-06-20 18:00","2019","06","20","18:00","17.9","","15.0","","83","","0.0","","12","","9","","","","99.08","","","","","","NA"
"-65.20","44.40","KEJIMKUJIK 1","8202592","2019-06-20 19:00","2019","06","20","19:00","16.4","","15.2","","93","","0.0","","12","","7","","","","99.04","","","","","","NA"
"-65.20","44.40","KEJIMKUJIK 1","8202592","2019-06-20 20:00","2019","06","20","20:00","15.8","","15.2","","96","","0.0","","14","","8","","","","98.96","","","","","","NA"
"-65.20","44.40","KEJIMKUJIK 1","8202592","2019-06-20 21:00","2019","06","20","21:00","15.8","","15.5","","98","","0.6","","13","","8","","","","98.93","","","","","","NA"
"-65.20","44.40","KEJIMKUJIK 1","8202592","2019-06-20 22:00","2019","06","20","22:00","15.4","","15.1","","98","","1.2","","14","","13","","","","98.86","","","","","","NA"
"-65.20","44.40","KEJIMKUJIK 1","8202592","2019-06-20 23:00","2019","06","20","23:00","14.4","","14.3","","99","","0.4","","13","","10","","","","98.78","","","","","","NA"
"-65.20","44.40","KEJIMKUJIK 1","8202592","2019-06-21 00:00","2019","06","21","00:00","13.9","","13.8","","100","","0.0","","14","","14","","","","98.69","","","","","","NA"
"-65.20","44.40","KEJIMKUJIK 1","8202592","2019-06-21 01:00","2019","06","21","01:00","13.5","","13.5","","100","","0.0","","13","","8","","","","98.61","","","","","","NA"
"-65.20","44.40","KEJIMKUJIK 1","8202592","2019-06-21 02:00","2019","06","21","02:00","13.2","","13.2","","100","","0.0","","12","","7","","","","98.55","","","","","","NA"
"-65.20","44.40","KEJIMKUJIK 1","8202592","2019-06-21 03:00","2019","06","21","03:00","13.2","","13.2","","100","","3.3","","7","","7","","","","98.48","","","","","","NA"
"-65.20","44.40","KEJIMKUJIK 1","8202592","2019-06-21 04:00","2019","06","21","04:00","13.1","","13.1","","100","","9.0","","11","","11","","","","98.36","","","","","","NA"
"-65.20","44.40","KEJIMKUJIK 1","8202592","2019-06-21 05:00","2019","06","21","05:00","13.2","","13.1","","100","","23.2","","13","","15","","","","98.29","","","","","","NA"
"-65.20","44.40","KEJIMKUJIK 1","8202592","2019-06-21 06:00","2019","06","21","06:00","13.4","","13.4","","100","","5.7","","15","","12","","","","98.23","","","","","","NA"
"-65.20","44.40","KEJIMKUJIK 1","8202592","2019-06-21 07:00","2019","06","21","07:00","13.6","","13.5","","100","","3.0","","13","","7","","","","98.22","","","","","","NA"
"-65.20","44.40","KEJIMKUJIK 1","8202592","2019-06-21 08:00","2019","06","21","08:00","13.7","","13.6","","99","","0.8","","10","","5","","","","98.19","","","","","","NA"
"-65.20","44.40","KEJIMKUJIK 1","8202592","2019-06-21 09:00","2019","06","21","09:00","13.9","","13.8","","99","","3.6","","11","","7","","","","98.12","","","","","","NA"
"-65.20","44.40","KEJIMKUJIK 1","8202592","2019-06-21 10:00","2019","06","21","10:00","14.3","","14.2","","99","","4.0","","8","","7","","","","98.04","","","","","","NA"
"-65.20","44.40","KEJIMKUJIK 1","8202592","2019-06-21 11:00","2019","06","21","11:00","14.3","","14.2","","99","","3.7","","8","","7","","","","98.00","","","","","","NA"
"-65.20","44.40","KEJIMKUJIK 1","8202592","2019-06-21 12:00","2019","06","21","12:00","14.5","","14.3","","99","","1.8","","8","","5","","","","97.93","","","","","","NA"
"-65.20","44.40","KEJIMKUJIK 1","8202592","2019-06-21 13:00","2019","06","21","13:00","15.0","","14.7","","98","","6.2","","7","","5","","","","97.90","","","","","","NA"
"-65.20","44.40","KEJIMKUJIK 1","8202592","2019-06-21 14:00","2019","06","21","14:00","15.5","","15.3","","99","","0.2","","4","","6","","","","97.83","","","","","","NA"
"-65.20","44.40","KEJIMKUJIK 1","8202592","2019-06-21 15:00","2019","06","21","15:00","15.5","","15.2","","98","","0.0","","5","","8","","","","97.72","","","","","","NA"
"-65.20","44.40","KEJIMKUJIK 1","8202592","2019-06-21 16:00","2019","06","21","16:00","15.8","","15.6","","99","","2.4","","34","","5","","","","97.80","","","","","","NA"
"-65.20","44.40","KEJIMKUJIK 1","8202592","2019-06-21 17:00","2019","06","21","17:00","15.7","","15.3","","98","","0.3","","35","","6","","","","97.77","","","","","","NA"
"-65.20","44.40","KEJIMKUJIK 1","8202592","2019-06-21 18:00","2019","06","21","18:00","14.8","","14.2","","96","","0.2","","2","","10","","","","97.80","","","","","","NA"
"-65.20","44.40","KEJIMKUJIK 1","8202592","2019-06-21 19:00","2019","06","21","19:00","14.0","","13.5","","97","","0.0","","1","","12","","","","97.91","","","","","","NA"
"-65.20","44.40","KEJIMKUJIK 1","8202592","2019-06-21 20:00","2019","06","21","20:00","13.3","","13.1","","98","","0.0","","36","","10","","","","97.97","","","","","","NA"
"-65.20","44.40","KEJIMKUJIK 1","8202592","2019-06-21 21:00","2019","06","21","21:00","12.7","","12.4","","99","","0.0","","35","","8","","","","98.06","","","","","","NA"
"-65.20","44.40","KEJIMKUJIK 1","8202592","2019-06-21 22:00","2019","06","21","22:00","11.9","","11.6","","98","","0.0","","36","","12","","","","98.04","","","","","","NA"
"-65.20","44.40","KEJIMKUJIK 1","8202592","2019-06-21 23:00","2019","06","21","23:00","11.3","","11.0","","98","","0.0","","36","","11","","","","98.08","","","","","","NA"
"-65.20","44.40","KEJIMKUJIK 1","8202592","2019-06-22 00:00","2019","06","22","00:00","11.2","","11.0","","99","","0.8","","34","","9","","","","98.11","","","","","","NA"
"-65.20","44.40","KEJIMKUJIK 1","8202592","2019-06-22 01:00","2019","06","22","01:00","11.1","","10.9","","99","","1.5","","34","","9","","","","98.14","","","","","","NA"
"-65.20","44.40","KEJIMKUJIK 1","8202592","2019-06-22 02:00","2019","06","22","02:00","11.1","","11.0","","99","","0.0","","34","","8","","","","98.15","","","","","","NA"
"-65.20","44.40","KEJIMKUJIK 1","8202592","2019-06-22 03:00","2019","06","22","03:00","11.2","","11.1","","99","","0.0","","34","","10","","","","98.15","","","","","","NA"
"-65.20","44.40","KEJIMKUJIK 1","8202592","2019-06-22 04:00","2019","06","22","04:00","11.2","","11.0","","99","","0.0","","34","","9","","","","98.19","","","","","","NA"
"-65.20","44.40","KEJIMKUJIK 1","8202592","2019-06-22 05:00","2019","06","22","05:00","11.2","","11.0","","99","","0.0","","35","","10","","","","98.24","","","","","","NA"
"-65.20","44.40","KEJIMKUJIK 1","8202592","2019-06-22 06:00","2019","06","22","06:00","11.6","","11.3","","98","","0.0","","34","","10","","","","98.33","","","","","","NA"
"-65.20","44.40","KEJIMKUJIK 1","8202592","2019-06-22 07:00","2019","06","22","07:00","11.7","","11.4","","98","","0.0","","35","","9","","","","98.43","","","","","","NA"
"-65.20","44.40","KEJIMKUJIK 1","8202592","2019-06-22 08:00","2019","06","22","08:00","12.4","","11.9","","97","","0.2","","35","","9","","","","98.46","","","","","","NA"
"-65.20","44.40","KEJIMKUJIK 1","8202592","2019-06-22 09:00","2019","06","22","09:00","13.9","","12.8","","93","","0.0","","35","","11","","","","98.49","","","","","","NA"
"-65.20","44.40","KEJIMKUJIK 1","8202592","2019-06-22 10:00","2019","06","22","10:00","15.5","","13.2","","87","","0.0","","35","","9","","","","98.50","","","","","","NA"
"-65.20","44.40","KEJIMKUJIK 1","8202592","2019-06-22 11:00","2019","06","22","11:00","17.4","","14.8","","85","","0.0","","35","","11","","","","98.52","","","","","","NA"
"-65.20","44.40","KEJIMKUJIK 1","8202592","2019-06-22 12:00","2019","06","22","12:00","17.3","","12.0","","71","","0.0","","36","","12","","","","98.55","","","","","","NA"
"-65.20","44.40","KEJIMKUJIK 1","8202592","2019-06-22 13:00","2019","06","22","13:00","18.7","","13.5","","72","","0.0","","35","","9","","","","98.54","","","","","","NA"
"-65.20","44.40","KEJIMKUJIK 1","8202592","2019-06-22 14:00","2019","06","22","14:00","18.6","","12.5","","68","","0.0","","32","","12","","","","98.58","","","","","","NA"
"-65.20","44.40","KEJIMKUJIK 1","8202592","2019-06-22 15:00","2019","06","22","15:00","19.6","","13.2","","67","","0.0","","33","","10","","","","98.60","","","","","","NA"
"-65.20","44.40","KEJIMKUJIK 1","8202592","2019-06-22 16:00","2019","06","22","16:00","18.4","","13.1","","71","","0.0","","35","","4","","","","98.62","","","","","","NA"
"-65.20","44.40","KEJIMKUJIK 1","8202592","2019-06-22 17:00","2019","06","22","17:00","19.4","","11.5","","60","","0.0","","30","","10","","","","98.63","","","","","","NA"
"-65.20","44.40","KEJIMKUJIK 1","8202592","2019-06-22 18:00","2019","06","22","18:00","19.1","","11.4","","61","","0.0","","31","","11","","","","98.66","","","","","","NA"
"-65.20","44.40","KEJIMKUJIK 1","8202592","2019-06-22 19:00","2019","06","22","19:00","18.3","","12.5","","69","","0.0","","30","","5","","","","98.70","","","","","","NA"
"-65.20","44.40","KEJIMKUJIK 1","8202592","2019-06-22 20:00","2019","06","22","20:00","16.0","","12.7","","81","","0.0","","28","","7","","","","98.73","","","","","","NA"
"-65.20","44.40","KEJIMKUJIK 1","8202592","2019-06-22 21:00","2019","06","22","21:00","14.3","","12.8","","91","","0.0","","28","","6","","","","98.77","","","","","","NA"
"-65.20","44.40","KEJIMKUJIK 1","8202592","2019-06-22 22:00","2019","06","22","22:00","13.1","","11.0","","87","","0.0","","31","","6","","","","98.79","","","","","","NA"
"-65.20","44.40","KEJIMKUJIK 1","8202592","2019-06-22 23:00","2019","06","22","23:00","11.7","","10.6","","93","","0.0","","29","","5","","","","98.79","","","","","","NA"
"-65.20","44.40","KEJIMKUJIK 1","8202592","2019-06-23 00:00","2019","06","23","00:00","11.0","","9.8","","93","","0.0","","30","","5","","","","98.79","","","","","","NA"
"-65.20","44.40","KEJIMKUJIK 1","8202592","2019-06-23 01:00","2019","06","23","01:00","10.0","","9.5","","96","","0.0","","29","","7","","","","98.77","","","","","","NA"
"-65.20","44.40","KEJIMKUJIK 1","8202592","2019-06-23 02:00","2019","06","23","02:00","9.7","","8.9","","94","","0.0","","29","","7","","","","98.73","","","","","","NA"
"-65.20","44.40","KEJIMKUJIK 1","8202592","2019-06-23 03:00","2019","06","23","03:00","9.5","","8.7","","95","","0.0","","30","","5","","","","98.74","","","","","","NA"
"-65.20","44.40","KEJIMKUJIK 1","8202592","2019-06-23 04:00","2019","06","23","04:00","9.0","","8.5","","97","","0.0","","30","","5","","","","98.75","","","","","","NA"
"-65.20","44.40","KEJIMKUJIK 1","8202592","2019-06-23 05:00","2019","06","23","05:00","8.8","","8.2","","96","","0.0","","30","","5","","","","98.77","","","","","","NA"
"-65.20","44.40","KEJIMKUJIK 1","8202592","2019-06-23 06:00","2019","06","23","06:00","9.9","","9.0","","94","","0.0","","30","","6","","","","98.78","","","","","","NA"
"-65.20","44.40","KEJIMKUJIK 1","8202592","2019-06-23 07:00","2019","06","23","07:00","13.6","","11.1","","85","","0.0","","30","","6","","","","98.80","","","","","","NA"
"-65.20","44.40","KEJIMKUJIK 1","8202592","2019-06-23 08:00","2019","06","23","08:00","17.2","","11.2","","68","","0.0","","30","","9","","","","98.82","","","","","","NA"
"-65.20","44.40","KEJIMKUJIK 1","8202592","2019-06-23 09:00","2019","06","23","09:00","19.4","","10.8","","58","","0.0","","32","","12","","","","98.82","","","","","","NA"
"-65.20","44.40","KEJIMKUJIK 1","8202592","2019-06-23 10:00","2019","06","23","10:00","21.1","","11.0","","53","","0.0","","34","","12","","","","98.79","","","","","","NA"
"-65.20","44.40","KEJIMKUJIK 1","8202592","2019-06-23 11:00","2019","06","23","11:00","22.2","","10.7","","48","","0.0","","30","","13","","","","98.75","","","","","","NA"
"-65.20","44.40","KEJIMKUJIK 1","8202592","2019-06-23 12:00","2019","06","23","12:00","22.6","","10.5","","46","","0.0","","30","","22","","","","98.69","","","","","","NA"
"-65.20","44.40","KEJIMKUJIK 1","8202592","2019-06-23 13:00","2019","06","23","13:00","23.0","","10.4","","45","","0.0","","30","","18","","","","98.67","","","","","","NA"
"-65.20","44.40","KEJIMKUJIK 1","8202592","2019-06-23 14:00","2019","06","23","14:00","24.0","","10.6","","43","","0.0","","31","","17","","","","98.61","","26","","","","NA"
"-65.20","44.40","KEJIMKUJIK 1","8202592","2019-06-23 15:00","2019","06","23","15:00","24.2","","10.5","","42","","0.0","","33","","14","","","","98.55","","26","","","","NA"
"-65.20","44.40","KEJIMKUJIK 1","8202592","2019-06-23 16:00","2019","06","23","16:00","24.4","","10.5","","42","","0.0","","31","","13","","","","98.55","","26","","","","NA"
"-65.20","44.40","KEJIMKUJIK 1","8202592","2019-06-23 17:00","2019","06","23","17:00","21.8","","11.4","","52","","0.0","","31","","10","","","","98.59","","","","","","NA"
"-65.20","44.40","KEJIMKUJIK 1","8202592","2019-06-23 18:00","2019","06","23","18:00","16.8","","13.6","","82","","0.8","","35","","13","","","","98.77","","","","","","NA"
"-65.20","44.40","KEJIMKUJIK 1","8202592","2019-06-23 19:00","2019","06","23","19:00","15.5","","14.1","","91","","0.4","","28","","4","","","","98.71","","","","","","NA"
"-65.20","44.40","KEJIMKUJIK 1","8202592","2019-06-23 20:00","2019","06","23","20:00","14.9","","14.2","","96","","0.0","","32","","5","","","","98.76","","","","","","NA"
"-65.20","44.40","KEJIMKUJIK 1","8202592","2019-06-23 21:00","2019","06","23","21:00","13.4","","13.0","","97","","0.0","","33","","3","","","","98.85","","","","","","NA"
"-65.20","44.40","KEJIMKUJIK 1","8202592","2019-06-23 22:00","2019","06","23","22:00","12.3","","11.9","","98","","0.0","","4","","2","","","","98.91","","","","","","NA"
"-65.20","44.40","KEJIMKUJIK 1","8202592","2019-06-23 23:00","2019","06","23","23:00","11.8","","11.5","","98","","0.0","","4","","3","","","","98.97","","","","","","NA"
"-65.20","44.40","KEJIMKUJIK 1","8202592","2019-06-24 00:00","2019","06","24","00:00","10.6","","10.2","","97","","0.0","","8","","5","","","","98.99","","","","","","NA"
"-65.20","44.40","KEJIMKUJIK 1","8202592","2019-06-24 01:00","2019","06","24","01:00","9.9","","9.6","","98","","0.0","","4","","4","","","","99.03","","","","","","NA"
"-65.20","44.40","KEJIMKUJIK 1","8202592","2019-06-24 02:00","2019","06","24","02:00","9.6","","9.2","","98","","0.0","","29","","5","","","","99.04","","","","","","NA"
"-65.20","44.40","KEJIMKUJIK 1","8202592","2019-06-24 03:00","2019","06","24","03:00","8.4","","8.0","","97","","0.0","","32","","5","","","","99.06","","","","","","NA"
"-65.20","44.40","KEJIMKUJIK 1","8202592","2019-06-24 04:00","2019","06","24","04:00","7.8","","7.6","","98","","0.0","","33","","1","","","","99.09","","","","","","NA"
"-65.20","44.40","KEJIMKUJIK 1","8202592","2019-06-24 05:00","2019","06","24","05:00","7.1","","6.9","","99","","0.0","","33","","4","","","","99.13","","","","","","NA"
"-65.20","44.40","KEJIMKUJIK 1","8202592","2019-06-24 06:00","2019","06","24","06:00","7.7","","7.5","","99","","0.0","","29","","4","","","","99.19","","","","","","NA"
"-65.20","44.40","KEJIMKUJIK 1","8202592","2019-06-24 07:00","2019","06","24","07:00","10.9","","10.0","","94","","0.2","","32","","4","","","","99.25","","","","","","NA"
"-65.20","44.40","KEJIMKUJIK 1","8202592","2019-06-24 08:00","2019","06","24","08:00","14.0","","10.6","","80","","0.0","","34","","5","","","","99.30","","","","","","NA"
"-65.20","44.40","KEJIMKUJIK 1","8202592","2019-06-24 09:00","2019","06","24","09:00","16.2","","9.5","","64","","0.0","","33","","7","","","","99.30","","","","","","NA"
"-65.20","44.40","KEJIMKUJIK 1","8202592","2019-06-24 10:00","2019","06","24","10:00","17.3","","8.4","","56","","0.0","","33","","8","","","","99.31","","","","","","NA"
"-65.20","44.40","KEJIMKUJIK 1","8202592","2019-06-24 11:00","2019","06","24","11:00","18.2","","4.6","","41","","0.0","","33","","12","","","","99.30","","","","","","NA"
"-65.20","44.40","KEJIMKUJIK 1","8202592","2019-06-24 12:00","2019","06","24","12:00","18.4","","6.1","","44","","0.0","","33","","11","","","","99.33","","","","","","NA"
"-65.20","44.40","KEJIMKUJIK 1","8202592","2019-06-24 13:00","2019","06","24","13:00","18.6","","4.6","","40","","0.0","","32","","13","","","","99.32","","","","","","NA"
"-65.20","44.40","KEJIMKUJIK 1","8202592","2019-06-24 14:00","2019","06","24","14:00","19.8","","7.1","","44","","0.0","","35","","10","","","","99.33","","","","","","NA"
"-65.20","44.40","KEJIMKUJIK 1","8202592","2019-06-24 15:00","2019","06","24","15:00","20.4","","7.5","","43","","0.0","","34","","10","","","","99.36","","","","","","NA"
"-65.20","44.40","KEJIMKUJIK 1","8202592","2019-06-24 16:00","2019","06","24","16:00","20.4","","5.8","","38","","0.0","","33","","11","","","","99.39","","","","","","NA"
"-65.20","44.40","KEJIMKUJIK 1","8202592","2019-06-24 17:00","2019","06","24","17:00","20.7","","6.8","","40","","0.0","","1","","5","","","","99.42","","","","","","NA"
"-65.20","44.40","KEJIMKUJIK 1","8202592","2019-06-24 18:00","2019","06","24","18:00","19.7","","6.6","","42","","0.0","","34","","6","","","","99.47","","","","","","NA"
"-65.20","44.40","KEJIMKUJIK 1","8202592","2019-06-24 19:00","2019","06","24","19:00","18.1","","7.8","","51","","0.0","","31","","5","","","","99.54","","","","","","NA"
"-65.20","44.40","KEJIMKUJIK 1","8202592","2019-06-24 20:00","2019","06","24","20:00","15.8","","8.3","","61","","0.0","","30","","2","","","","99.60","","","","","","NA"
"-65.20","44.40","KEJIMKUJIK 1","8202592","2019-06-24 21:00","2019","06","24","21:00","13.8","","8.5","","70","","0.0","","29","","7","","","","99.68","","","","","","NA"
"-65.20","44.40","KEJIMKUJIK 1","8202592","2019-06-24 22:00","2019","06","24","22:00","12.1","","7.4","","73","","0.0","","28","","4","","","","99.72","","","","","","NA"
"-65.20","44.40","KEJIMKUJIK 1","8202592","2019-06-24 23:00","2019","06","24","23:00","10.8","","7.3","","79","","0.0","","29","","4","","","","99.72","","","","","","NA"
"-65.20","44.40","KEJIMKUJIK 1","8202592","2019-06-25 00:00","2019","06","25","00:00","9.9","","7.0","","82","","0.0","","30","","5","","","","99.72","","","","","","NA"
"-65.20","44.40","KEJIMKUJIK 1","8202592","2019-06-25 01:00","2019","06","25","01:00","9.1","","6.7","","85","","0.0","","30","","5","","","","99.76","","","","","","NA"
"-65.20","44.40","KEJIMKUJIK 1","8202592","2019-06-25 02:00","2019","06","25","02:00","8.9","","6.9","","87","","0.0","","5","","4","","","","99.81","","","","","","NA"
"-65.20","44.40","KEJIMKUJIK 1","8202592","2019-06-25 03:00","2019","06","25","03:00","8.0","","6.1","","88","","0.0","","31","","6","","","","99.86","","","","","","NA"
"-65.20","44.40","KEJIMKUJIK 1","8202592","2019-06-25 04:00","2019","06","25","04:00","7.4","","6.1","","92","","0.0","","33","","3","","","","99.90","","","","","","NA"
"-65.20","44.40","KEJIMKUJIK 1","8202592","2019-06-25 05:00","2019","06","25","05:00","6.0","","4.9","","93","","0.0","","34","","4","","","","99.98","","","","","","NA"
"-65.20","44.40","KEJIMKUJIK 1","8202592","2019-06-25 06:00","2019","06","25","06:00","7.9","","6.6","","92","","0.0","","1","","3","","","","100.04","","","","","","NA"
"-65.20","44.40","KEJIMKUJIK 1","8202592","2019-06-25 07:00","2019","06","25","07:00","12.9","","8.6","","75","","0.0","","36","","1","","","","100.10","","","","","","NA"
"-65.20","44.40","KEJIMKUJIK 1","8202592","2019-06-25 08:00","2019","06","25","08:00","16.7","","9.9","","64","","0.0","","6","","2","","","","100.13","","","","","","NA"
"-65.20","44.40","KEJIMKUJIK 1","8202592","2019-06-25 09:00","2019","06","25","09:00","19.1","","9.4","","53","","0.0","","12","","7","","","","100.17","","","","","","NA"
"-65.20","44.40","KEJIMKUJIK 1","8202592","2019-06-25 10:00","2019","06","25","10:00","21.0","","9.9","","49","","0.0","","10","","4","","","","100.15","","","","","","NA"
"-65.20","44.40","KEJIMKUJIK 1","8202592","2019-06-25 11:00","2019","06","25","11:00","22.0","","8.3","","42","","0.0","","13","","6","","","","100.12","","","","","","NA"
"-65.20","44.40","KEJIMKUJIK 1","8202592","2019-06-25 12:00","2019","06","25","12:00","22.7","","6.8","","36","","0.0","","28","","8","","","","100.10","","","","","","NA"
"-65.20","44.40","KEJIMKUJIK 1","8202592","2019-06-25 13:00","2019","06","25","13:00","23.9","","7.9","","36","","0.0","","22","","8","","","","100.09","","","","","","NA"
"-65.20","44.40","KEJIMKUJIK 1","8202592","2019-06-25 14:00","2019","06","25","14:00","24.2","","9.3","","39","","0.0","","22","","6","","","","100.06","","25","","","","NA"
"-65.20","44.40","KEJIMKUJIK 1","8202592","2019-06-25 15:00","2019","06","25","15:00","23.4","","9.0","","40","","0.0","","18","","17","","","","100.08","","","","","","NA"
"-65.20","44.40","KEJIMKUJIK 1","8202592","2019-06-25 16:00","2019","06","25","16:00","21.2","","10.1","","49","","0.0","","20","","16","","","","100.15","","","","","","NA"
"-65.20","44.40","KEJIMKUJIK 1","8202592","2019-06-25 17:00","2019","06","25","17:00","20.1","","9.6","","51","","0.0","","19","","18","","","","100.20","","","","","","NA"
"-65.20","44.40","KEJIMKUJIK 1","8202592","2019-06-25 18:00","2019","06","25","18:00","18.8","","9.6","","55","","0.0","","19","","10","","","","100.25","","","","","","NA"
"-65.20","44.40","KEJIMKUJIK 1","8202592","2019-06-25 19:00","2019","06","25","19:00","16.9","","9.8","","63","","0.0","","18","","8","","","","100.28","","","","","","NA"
"-65.20","44.40","KEJIMKUJIK 1","8202592","2019-06-25 20:00","2019","06","25","20:00","15.3","","9.7","","70","","0.0","","17","","7","","","","100.33","","","","","","NA"
"-65.20","44.40","KEJIMKUJIK 1","8202592","2019-06-25 21:00","2019","06","25","21:00","13.9","","9.6","","76","","0.0","","17","","5","","","","100.39","","","","","","NA"
"-65.20","44.40","KEJIMKUJIK 1","8202592","2019-06-25 22:00","2019","06","25","22:00","13.2","","9.7","","79","","0.0","","18","","7","","","","100.43","","","","","","NA"
"-65.20","44.40","KEJIMKUJIK 1","8202592","2019-06-25 23:00","2019","06","25","23:00","12.7","","9.9","","83","","0.0","","18","","4","","","","100.46","","","","","","NA"
"-65.20","44.40","KEJIMKUJIK 1","8202592","2019-06-26 00:00","2019","06","26","00:00","12.2","","10.0","","86","","0.0","","19","","5","","","","100.48","","","","","","NA"
"-65.20","44.40","KEJIMKUJIK 1","8202592","2019-06-26 01:00","2019","06","26","01:00","11.8","","10.2","","90","","0.0","","16","","4","","","","100.47","","","","","","NA"
"-65.20","44.40","KEJIMKUJIK 1","8202592","2019-06-26 02:00","2019","06","26","02:00","11.6","","10.0","","90","","0.0","","15","","4","","","","100.47","","","","","","NA"
"-65.20","44.40","KEJIMKUJIK 1","8202592","2019-06-26 03:00","2019","06","26","03:00","11.8","","10.1","","89","","0.0","","13","","8","","","","100.45","","","","","","NA"
"-65.20","44.40","KEJIMKUJIK 1","8202592","2019-06-26 04:00","2019","06","26","04:00","11.8","","10.2","","90","","0.0","","12","","7","","","","100.47","","","","","","NA"
"-65.20","44.40","KEJIMKUJIK 1","8202592","2019-06-26 05:00","2019","06","26","05:00","12.1","","9.9","","87","","0.0","","15","","7","","","","100.52","","","","","","NA"
"-65.20","44.40","KEJIMKUJIK 1","8202592","2019-06-26 06:00","2019","06","26","06:00","12.6","","9.2","","80","","0.0","","14","","9","","","","100.57","","","","","","NA"
"-65.20","44.40","KEJIMKUJIK 1","8202592","2019-06-26 07:00","2019","06","26","07:00","13.2","","9.2","","77","","0.0","","13","","10","","","","100.59","","","","","","NA"
"-65.20","44.40","KEJIMKUJIK 1","8202592","2019-06-26 08:00","2019","06","26","08:00","14.4","","9.9","","74","","0.0","","13","","9","","","","100.63","","","","","","NA"
"-65.20","44.40","KEJIMKUJIK 1","8202592","2019-06-26 09:00","2019","06","26","09:00","16.0","","11.1","","72","","0.0","","15","","10","","","","100.63","","","","","","NA"
"-65.20","44.40","KEJIMKUJIK 1","8202592","2019-06-26 10:00","2019","06","26","10:00","16.4","","11.2","","71","","0.0","","19","","6","","","","100.71","","","","","","NA"
"-65.20","44.40","KEJIMKUJIK 1","8202592","2019-06-26 11:00","2019","06","26","11:00","14.6","","13.4","","93","","0.8","","13","","9","","","","100.68","","","","","","NA"
"-65.20","44.40","KEJIMKUJIK 1","8202592","2019-06-26 12:00","2019","06","26","12:00","15.1","","14.0","","93","","0.0","","14","","8","","","","100.69","","","","","","NA"
"-65.20","44.40","KEJIMKUJIK 1","8202592","2019-06-26 13:00","2019","06","26","13:00","15.2","","13.2","","88","","0.2","","13","","10","","","","100.74","","","","","","NA"
"-65.20","44.40","KEJIMKUJIK 1","8202592","2019-06-26 14:00","2019","06","26","14:00","14.4","","13.1","","92","","0.0","","15","","10","","","","100.67","","","","","","NA"
"-65.20","44.40","KEJIMKUJIK 1","8202592","2019-06-26 15:00","2019","06","26","15:00","14.3","","12.6","","89","","0.2","","15","","12","","","","100.63","","","","","","NA"
"-65.20","44.40","KEJIMKUJIK 1","8202592","2019-06-26 16:00","2019","06","26","16:00","16.3","","12.5","","78","","0.2","","16","","12","","","","100.66","","","","","","NA"
"-65.20","44.40","KEJIMKUJIK 1","8202592","2019-06-26 17:00","2019","06","26","17:00","15.2","","12.0","","81","","0.0","","16","","15","","","","100.65","","","","","","NA"
"-65.20","44.40","KEJIMKUJIK 1","8202592","2019-06-26 18:00","2019","06","26","18:00","14.9","","11.4","","80","","0.0","","15","","12","","","","100.63","","","","","","NA"
"-65.20","44.40","KEJIMKUJIK 1","8202592","2019-06-26 19:00","2019","06","26","19:00","14.5","","12.0","","85","","0.0","","14","","9","","","","100.69","","","","","","NA"
"-65.20","44.40","KEJIMKUJIK 1","8202592","2019-06-26 20:00","2019","06","26","20:00","14.3","","12.1","","87","","0.0","","14","","10","","","","100.70","","","","","","NA"
"-65.20","44.40","KEJIMKUJIK 1","8202592","2019-06-26 21:00","2019","06","26","21:00","13.8","","11.9","","88","","0.0","","15","","10","","","","100.79","","","","","","NA"
"-65.20","44.40","KEJIMKUJIK 1","8202592","2019-06-26 22:00","2019","06","26","22:00","13.5","","11.2","","86","","0.0","","14","","11","","","","100.74","","","","","","NA"
"-65.20","44.40","KEJIMKUJIK 1","8202592","2019-06-26 23:00","2019","06","26","23:00","13.6","","11.7","","88","","0.0","","14","","13","","","","100.75","","","","","","NA"
"-65.20","44.40","KEJIMKUJIK 1","8202592","2019-06-27 00:00","2019","06","27","00:00","13.3","","11.9","","91","","0.0","","13","","12","","","","100.71","","","","","","NA"
"-65.20","44.40","KEJIMKUJIK 1","8202592","2019-06-27 01:00","2019","06","27","01:00","13.5","","11.8","","89","","0.0","","15","","11","","","","100.71","","","","","","NA"
"-65.20","44.40","KEJIMKUJIK 1","8202592","2019-06-27 02:00","2019","06","27","02:00","13.6","","12.1","","91","","0.0","","14","","9","","","","100.69","","","","","","NA"
"-65.20","44.40","KEJIMKUJIK 1","8202592","2019-06-27 03:00","2019","06","27","03:00","13.3","","12.2","","93","","0.0","","14","","8","","","","100.69","","","","","","NA"
"-65.20","44.40","KEJIMKUJIK 1","8202592","2019-06-27 04:00","2019","06","27","04:00","13.5","","12.4","","93","","0.0","","14","","10","","","","100.70","","","","","","NA"
"-65.20","44.40","KEJIMKUJIK 1","8202592","2019-06-27 05:00","2019","06","27","05:00","13.1","","12.5","","96","","0.0","","14","","12","","","","100.72","","","","","","NA"
"-65.20","44.40","KEJIMKUJIK 1","8202592","2019-06-27 06:00","2019","06","27","06:00","13.0","","12.4","","96","","0.0","","13","","15","","","","100.74","","","","","","NA"
"-65.20","44.40","KEJIMKUJIK 1","8202592","2019-06-27 07:00","2019","06","27","07:00","13.3","","12.6","","96","","0.0","","13","","13","","","","100.77","","","","","","NA"
"-65.20","44.40","KEJIMKUJIK 1","8202592","2019-06-27 08:00","2019","06","27","08:00","13.1","","12.9","","98","","0.7","","14","","17","","","","100.77","","","","","","NA"
"-65.20","44.40","KEJIMKUJIK 1","8202592","2019-06-27 09:00","2019","06","27","09:00","13.5","","13.2","","98","","1.9","","15","","11","","","","100.76","","","","","","NA"
"-65.20","44.40","KEJIMKUJIK 1","8202592","2019-06-27 10:00","2019","06","27","10:00","14.4","","13.9","","97","","0.2","","14","","9","","","","100.77","","","","","","NA"
"-65.20","44.40","KEJIMKUJIK 1","8202592","2019-06-27 11:00","2019","06","27","11:00","16.2","","15.0","","92","","0.0","","13","","14","","","","100.72","","","","","","NA"
"-65.20","44.40","KEJIMKUJIK 1","8202592","2019-06-27 12:00","2019","06","27","12:00","15.4","","14.3","","93","","1.3","","15","","18","","","","100.73","","","","","","NA"
"-65.20","44.40","KEJIMKUJIK 1","8202592","2019-06-27 13:00","2019","06","27","13:00","16.1","","15.3","","95","","0.3","","13","","9","","","","100.71","","","","","","NA"
"-65.20","44.40","KEJIMKUJIK 1","8202592","2019-06-27 14:00","2019","06","27","14:00","16.6","","15.4","","92","","0.0","","12","","10","","","","100.67","","","","","","NA"
"-65.20","44.40","KEJIMKUJIK 1","8202592","2019-06-27 15:00","2019","06","27","15:00","16.7","","14.9","","89","","0.0","","13","","13","","","","100.65","","","","","","NA"
"-65.20","44.40","KEJIMKUJIK 1","8202592","2019-06-27 16:00","2019","06","27","16:00","16.4","","14.7","","90","","0.0","","13","","12","","","","100.65","","","","","","NA"
"-65.20","44.40","KEJIMKUJIK 1","8202592","2019-06-27 17:00","2019","06","27","17:00","16.1","","14.2","","89","","0.0","","13","","14","","","","100.62","","","","","","NA"
"-65.20","44.40","KEJIMKUJIK 1","8202592","2019-06-27 18:00","2019","06","27","18:00","15.7","","13.8","","89","","0.0","","13","","10","","","","100.63","","","","","","NA"
"-65.20","44.40","KEJIMKUJIK 1","8202592","2019-06-27 19:00","2019","06","27","19:00","14.9","","13.4","","91","","0.0","","13","","11","","","","100.62","","","","","","NA"
"-65.20","44.40","KEJIMKUJIK 1","8202592","2019-06-27 20:00","2019","06","27","20:00","14.4","","13.3","","94","","0.0","","11","","7","","","","100.63","","","","","","NA"
"-65.20","44.40","KEJIMKUJIK 1","8202592","2019-06-27 21:00","2019","06","27","21:00","13.9","","13.2","","96","","0.0","","12","","9","","","","100.72","","","","","","NA"
"-65.20","44.40","KEJIMKUJIK 1","8202592","2019-06-27 22:00","2019","06","27","22:00","13.6","","13.1","","97","","0.0","","13","","11","","","","100.68","","","","","","NA"
"-65.20","44.40","KEJIMKUJIK 1","8202592","2019-06-27 23:00","2019","06","27","23:00","13.6","","13.1","","97","","0.0","","13","","8","","","","100.65","","","","","","NA"
"-65.20","44.40","KEJIMKUJIK 1","8202592","2019-06-28 00:00","2019","06","28","00:00","13.5","","13.1","","97","","0.0","","13","","8","","","","100.60","","","","","","NA"
"-65.20","44.40","KEJIMKUJIK 1","8202592","2019-06-28 01:00","2019","06","28","01:00","13.5","","13.1","","97","","0.0","","14","","9","","","","100.54","","","","","","NA"
"-65.20","44.40","KEJIMKUJIK 1","8202592","2019-06-28 02:00","2019","06","28","02:00","13.7","","13.3","","98","","0.0","","12","","6","","","","100.51","","","","","","NA"
"-65.20","44.40","KEJIMKUJIK 1","8202592","2019-06-28 03:00","2019","06","28","03:00","13.8","","13.5","","98","","0.0","","15","","5","","","","100.49","","","","","","NA"
"-65.20","44.40","KEJIMKUJIK 1","8202592","2019-06-28 04:00","2019","06","28","04:00","14.0","","13.7","","99","","0.0","","18","","2","","","","100.45","","","","","","NA"
"-65.20","44.40","KEJIMKUJIK 1","8202592","2019-06-28 05:00","2019","06","28","05:00","13.8","","13.6","","99","","0.2","","22","","2","","","","100.42","","","","","","NA"
"-65.20","44.40","KEJIMKUJIK 1","8202592","2019-06-28 06:00","2019","06","28","06:00","13.9","","13.8","","100","","2.0","","12","","10","","","","100.38","","","","","","NA"
"-65.20","44.40","KEJIMKUJIK 1","8202592","2019-06-28 07:00","2019","06","28","07:00","13.9","","13.7","","99","","0.2","","11","","6","","","","100.43","","","","","","NA"
"-65.20","44.40","KEJIMKUJIK 1","8202592","2019-06-28 08:00","2019","06","28","08:00","14.4","","14.1","","98","","0.0","","14","","7","","","","100.43","","","","","","NA"
"-65.20","44.40","KEJIMKUJIK 1","8202592","2019-06-28 09:00","2019","06","28","09:00","15.2","","14.7","","97","","0.0","","24","","4","","","","100.42","","","","","","NA"
"-65.20","44.40","KEJIMKUJIK 1","8202592","2019-06-28 10:00","2019","06","28","10:00","15.5","","14.8","","96","","0.0","","33","","1","","","","100.42","","","","","","NA"
"-65.20","44.40","KEJIMKUJIK 1","8202592","2019-06-28 11:00","2019","06","28","11:00","16.6","","15.4","","93","","0.0","","18","","2","","","","100.43","","","","","","NA"
"-65.20","44.40","KEJIMKUJIK 1","8202592","2019-06-28 12:00","2019","06","28","12:00","17.4","","15.6","","89","","0.0","","4","","1","","","","100.41","","","","","","NA"
"-65.20","44.40","KEJIMKUJIK 1","8202592","2019-06-28 13:00","2019","06","28","13:00","18.3","","16.6","","90","","0.0","","14","","7","","","","100.37","","","","","","NA"
"-65.20","44.40","KEJIMKUJIK 1","8202592","2019-06-28 14:00","2019","06","28","14:00","20.5","","16.1","","76","","0.2","","16","","4","","","","100.30","","25","","","","NA"
"-65.20","44.40","KEJIMKUJIK 1","8202592","2019-06-28 15:00","2019","06","28","15:00","21.0","","16.5","","76","","0.0","","19","","5","","","","100.25","","26","","","","NA"
"-65.20","44.40","KEJIMKUJIK 1","8202592","2019-06-28 16:00","2019","06","28","16:00","22.4","","15.5","","65","","0.0","","33","","9","","","","100.23","","27","","","","NA"
"-65.20","44.40","KEJIMKUJIK 1","8202592","2019-06-28 17:00","2019","06","28","17:00","22.0","","16.2","","69","","0.0","","34","","8","","","","100.25","","27","","","","NA"
"-65.20","44.40","KEJIMKUJIK 1","8202592","2019-06-28 18:00","2019","06","28","18:00","21.0","","15.1","","69","","0.0","","1","","7","","","","100.28","","25","","","","NA"
"-65.20","44.40","KEJIMKUJIK 1","8202592","2019-06-28 19:00","2019","06","28","19:00","19.2","","14.1","","72","","0.0","","5","","5","","","","100.29","","","","","","NA"
"-65.20","44.40","KEJIMKUJIK 1","8202592","2019-06-28 20:00","2019","06","28","20:00","17.9","","15.6","","87","","0.0","","12","","5","","","","100.32","","","","","","NA"
"-65.20","44.40","KEJIMKUJIK 1","8202592","2019-06-28 21:00","2019","06","28","21:00","16.1","","15.5","","97","","0.0","","12","","6","","","","100.34","","","","","","NA"
"-65.20","44.40","KEJIMKUJIK 1","8202592","2019-06-28 22:00","2019","06","28","22:00","15.7","","15.4","","98","","0.0","","15","","5","","","","100.36","","","","","","NA"
"-65.20","44.40","KEJIMKUJIK 1","8202592","2019-06-28 23:00","2019","06","28","23:00","15.4","","15.2","","99","","0.0","","19","","3","","","","100.40","","","","","","NA"
"-65.20","44.40","KEJIMKUJIK 1","8202592","2019-06-29 00:00","2019","06","29","00:00","15.2","","15.0","","99","","0.0","","21","","3","","","","100.32","","","","","","NA"
"-65.20","44.40","KEJIMKUJIK 1","8202592","2019-06-29 01:00","2019","06","29","01:00","14.8","","14.7","","100","","0.0","","14","","3","","","","100.28","","","","","","NA"
"-65.20","44.40","KEJIMKUJIK 1","8202592","2019-06-29 02:00","2019","06","29","02:00","14.5","","14.4","","100","","0.0","","20","","2","","","","100.29","","","","","","NA"
"-65.20","44.40","KEJIMKUJIK 1","8202592","2019-06-29 03:00","2019","06","29","03:00","13.9","","13.9","","100","","0.0","","22","","3","","","","100.22","","","","","","NA"
"-65.20","44.40","KEJIMKUJIK 1","8202592","2019-06-29 04:00","2019","06","29","04:00","13.9","","13.9","","100","","0.0","","17","","3","","","","100.20","","","","","","NA"
"-65.20","44.40","KEJIMKUJIK 1","8202592","2019-06-29 05:00","2019","06","29","05:00","14.1","","14.1","","100","","0.0","","21","","5","","","","100.18","","","","","","NA"
"-65.20","44.40","KEJIMKUJIK 1","8202592","2019-06-29 06:00","2019","06","29","06:00","14.2","","14.1","","100","","0.0","","17","","3","","","","100.16","","","","","","NA"
"-65.20","44.40","KEJIMKUJIK 1","8202592","2019-06-29 07:00","2019","06","29","07:00","15.0","","14.6","","98","","0.0","","17","","6","","","","100.14","","","","","","NA"
"-65.20","44.40","KEJIMKUJIK 1","8202592","2019-06-29 08:00","2019","06","29","08:00","17.8","","14.4","","81","","0.0","","21","","7","","","","100.12","","","","","","NA"
"-65.20","44.40","KEJIMKUJIK 1","8202592","2019-06-29 09:00","2019","06","29","09:00","20.0","","13.9","","68","","0.0","","21","","8","","","","100.09","","","","","","NA"
"-65.20","44.40","KEJIMKUJIK 1","8202592","2019-06-29 10:00","2019","06","29","10:00","20.3","","14.4","","69","","0.0","","20","","8","","","","100.04","","","","","","NA"
"-65.20","44.40","KEJIMKUJIK 1","8202592","2019-06-29 11:00","2019","06","29","11:00","19.9","","15.6","","76","","0.0","","18","","7","","","","99.98","","","","","","NA"
"-65.20","44.40","KEJIMKUJIK 1","8202592","2019-06-29 12:00","2019","06","29","12:00","21.1","","15.7","","71","","0.0","","15","","6","","","","99.93","","26","","","","NA"
"-65.20","44.40","KEJIMKUJIK 1","8202592","2019-06-29 13:00","2019","06","29","13:00","21.0","","16.4","","75","","0.0","","16","","6","","","","99.88","","26","","","","NA"
"-65.20","44.40","KEJIMKUJIK 1","8202592","2019-06-29 14:00","2019","06","29","14:00","20.6","","16.9","","79","","0.0","","16","","6","","","","99.83","","26","","","","NA"
"-65.20","44.40","KEJIMKUJIK 1","8202592","2019-06-29 15:00","2019","06","29","15:00","20.8","","17.1","","80","","0.0","","16","","9","","","","99.74","","26","","","","NA"
"-65.20","44.40","KEJIMKUJIK 1","8202592","2019-06-29 16:00","2019","06","29","16:00","19.9","","16.7","","82","","0.0","","18","","8","","","","99.72","","","","","","NA"
"-65.20","44.40","KEJIMKUJIK 1","8202592","2019-06-29 17:00","2019","06","29","17:00","18.2","","17.0","","93","","0.2","","15","","3","","","","99.68","","","","","","NA"
"-65.20","44.40","KEJIMKUJIK 1","8202592","2019-06-29 18:00","2019","06","29","18:00","18.0","","17.3","","95","","0.0","","15","","6","","","","99.60","","","","","","NA"
"-65.20","44.40","KEJIMKUJIK 1","8202592","2019-06-29 19:00","2019","06","29","19:00","17.9","","17.1","","95","","0.0","","19","","5","","","","99.59","","","","","","NA"
"-65.20","44.40","KEJIMKUJIK 1","8202592","2019-06-29 20:00","2019","06","29","20:00","17.4","","16.6","","95","","0.0","","17","","4","","","","99.59","","","","","","NA"
"-65.20","44.40","KEJIMKUJIK 1","8202592","2019-06-29 21:00","2019","06","29","21:00","16.9","","16.3","","96","","0.0","","13","","5","","","","99.60","","","","","","NA"
"-65.20","44.40","KEJIMKUJIK 1","8202592","2019-06-29 22:00","2019","06","29","22:00","16.4","","15.9","","97","","0.0","","15","","5","","","","99.52","","","","","","NA"
"-65.20","44.40","KEJIMKUJIK 1","8202592","2019-06-29 23:00","2019","06","29","23:00","16.2","","15.8","","97","","0.0","","18","","4","","","","99.46","","","","","","NA"
"-65.20","44.40","KEJIMKUJIK 1","8202592","2019-06-30 00:00","2019","06","30","00:00","16.1","","15.7","","98","","0.0","","19","","6","","","","99.39","","","","","","NA"
"-65.20","44.40","KEJIMKUJIK 1","8202592","2019-06-30 01:00","2019","06","30","01:00","16.1","","15.8","","98","","0.0","","8","","3","","","","99.36","","","","","","NA"
"-65.20","44.40","KEJIMKUJIK 1","8202592","2019-06-30 02:00","2019","06","30","02:00","16.0","","15.7","","98","","0.0","","7","","3","","","","99.31","","","","","","NA"
"-65.20","44.40","KEJIMKUJIK 1","8202592","2019-06-30 03:00","2019","06","30","03:00","15.7","","15.5","","99","","0.2","","8","","4","","","","99.22","","","","","","NA"
"-65.20","44.40","KEJIMKUJIK 1","8202592","2019-06-30 04:00","2019","06","30","04:00","15.5","","15.4","","99","","0.0","","7","","3","","","","99.16","","","","","","NA"
"-65.20","44.40","KEJIMKUJIK 1","8202592","2019-06-30 05:00","2019","06","30","05:00","15.4","","15.2","","99","","0.0","","9","","5","","","","99.15","","","","","","NA"
"-65.20","44.40","KEJIMKUJIK 1","8202592","2019-06-30 06:00","2019","06","30","06:00","15.3","","15.2","","99","","0.0","","10","","7","","","","99.09","","","","","","NA"
"-65.20","44.40","KEJIMKUJIK 1","8202592","2019-06-30 07:00","2019","06","30","07:00","15.3","","15.2","","99","","0.0","","11","","8","","","","99.02","","","","","","NA"
"-65.20","44.40","KEJIMKUJIK 1","8202592","2019-06-30 08:00","2019","06","30","08:00","15.2","","15.0","","98","","0.0","","9","","8","","","","98.99","","","","","","NA"
"-65.20","44.40","KEJIMKUJIK 1","8202592","2019-06-30 09:00","2019","06","30","09:00","15.1","","14.9","","99","","0.0","","8","","8","","","","98.94","","","","","","NA"
"-65.20","44.40","KEJIMKUJIK 1","8202592","2019-06-30 10:00","2019","06","30","10:00","15.3","","15.0","","98","","0.0","","10","","7","","","","98.92","","","","","","NA"
"-65.20","44.40","KEJIMKUJIK 1","8202592","2019-06-30 11:00","2019","06","30","11:00","15.7","","15.2","","97","","0.0","","8","","10","","","","98.86","","","","","","NA"
"-65.20","44.40","KEJIMKUJIK 1","8202592","2019-06-30 12:00","2019","06","30","12:00","15.6","","15.1","","97","","0.0","","9","","12","","","","98.82","","","","","","NA"
"-65.20","44.40","KEJIMKUJIK 1","8202592","2019-06-30 13:00","2019","06","30","13:00","15.5","","15.3","","99","","0.6","","5","","3","","","","98.79","","","","","","NA"
"-65.20","44.40","KEJIMKUJIK 1","8202592","2019-06-30 14:00","2019","06","30","14:00","15.6","","15.5","","99","","4.2","","4","","3","","","","98.78","","","","","","NA"
"-65.20","44.40","KEJIMKUJIK 1","8202592","2019-06-30 15:00","2019","06","30","15:00","15.6","","15.5","","100","","7.3","","5","","7","","","","98.70","","","","","","NA"
"-65.20","44.40","KEJIMKUJIK 1","8202592","2019-06-30 16:00","2019","06","30","16:00","15.5","","15.5","","100","","4.1","","3","","5","","","","98.68","","","","","","NA"
"-65.20","44.40","KEJIMKUJIK 1","8202592","2019-06-30 17:00","2019","06","30","17:00","16.0","","15.9","","100","","0.3","","3","","3","","","","98.65","","","","","","NA"
"-65.20","44.40","KEJIMKUJIK 1","8202592","2019-06-30 18:00","2019","06","30","18:00","16.0","","15.9","","99","","0.2","","3","","4","","","","98.63","","","","","","NA"
"-65.20","44.40","KEJIMKUJIK 1","8202592","2019-06-30 19:00","2019","06","30","19:00","15.8","","15.7","","99","","0.3","","2","","6","","","","98.64","","","","","","NA"
"-65.20","44.40","KEJIMKUJIK 1","8202592","2019-06-30 20:00","2019","06","30","20:00","15.1","","15.0","","99","","1.3","","3","","7","","","","98.65","","","","","","NA"
"-65.20","44.40","KEJIMKUJIK 1","8202592","2019-06-30 21:00","2019","06","30","21:00","14.7","","14.6","","100","","0.8","","2","","8","","","","98.69","","","","","","NA"
"-65.20","44.40","KEJIMKUJIK 1","8202592","2019-06-30 22:00","2019","06","30","22:00","14.6","","14.5","","100","","2.3","","1","","3","","","","98.70","","","","","","NA"
"-65.20","44.40","KEJIMKUJIK 1","8202592","2019-06-30 23:00","2019","06","30","23:00","14.4","","14.3","","100","","1.8","","4","","9","","","","98.72","","","","","","NA"
