"Longitude (x)","Latitude (y)","Station Name","Climate ID","Date/Time (LST)","Year","Month","Day","Time (LST)","Temp (°C)","Temp Flag","Dew Point Temp (°C)","Dew Point Temp Flag","Rel Hum (%)","Rel Hum Flag","Precip. Amount (mm)","Precip. Amount Flag","Wind Dir (10s deg)","Wind Dir Flag","Wind Spd (km/h)","Wind Spd Flag","Visibility (km)","Visibility Flag","Stn Press (kPa)","Stn Press Flag","Hmdx","Hmdx Flag","Wind Chill","Wind Chill Flag","Weather"
"-115.14","67.82","KUGLUKTUK A","2300903","2020-10-01 00:00","2020","10","01","00:00","3.5","","2.0","","90","","","","15","","4","","16.1","","102.31","","","","","","NA"
"-115.14","67.82","KUGLUKTUK A","2300903","2020-10-01 01:00","2020","10","01","01:00","3.4","","1.8","","89","","","","36","","2","","16.1","","102.26","","","","","","NA"
"-115.14","67.82","KUGLUKTUK A","2300903","2020-10-01 02:00","2020","10","01","02:00","3.3","","1.8","","90","","","","16","","3","","16.1","","102.21","","","","","","Cloudy"
"-115.14","67.82","KUGLUKTUK A","2300903","2020-10-01 03:00","2020","10","01","03:00","2.8","","1.5","","91","","","","36","","3","","16.1","","102.18","","","","","","NA"
"-115.14","67.82","KUGLUKTUK A","2300903","2020-10-01 04:00","2020","10","01","04:00","2.4","","1.6","","94","","","","14","","5","","16.1","","102.13","","","","","","NA"
"-115.14","67.82","KUGLUKTUK A","2300903","2020-10-01 05:00","2020","10","01","05:00","2.0","","1.2","","94","","","","36","","3","","16.1","","102.08","","","","","","Cloudy"
"-115.14","67.82","KUGLUKTUK A","2300903","2020-10-01 06:00","2020","10","01","06:00","2.0","","1.2","","94","","","","20","","5","","16.1","","102.03","","","","","","NA"
"-115.14","67.82","KUGLUKTUK A","2300903","2020-10-01 07:00","2020","10","01","07:00","2.3","","1.2","","92","","","","18","","8","","24.1","","101.99","","","","","","NA"
"-115.14","67.82","KUGLUKTUK A","2300903","2020-10-01 08:00","2020","10","01","08:00","2.5","","1.2","","91","","","","17","","3","","24.1","","101.94","","","","","","Cloudy"
"-115.14","67.82","KUGLUKTUK A","2300903","2020-10-01 09:00","2020","10","01","09:00","3.3","","1.8","","90","","","","12","","4","","24.1","","101.91","","","","","","NA"
"-115.14","67.82","KUGLUKTUK A","2300903","2020-10-01 10:00","2020","10","01","10:00","3.8","","2.0","","88","","","","5","","5","","24.1","","101.89","","","","","","NA"
"-115.14","67.82","KUGLUKTUK A","2300903","2020-10-01 11:00","2020","10","01","11:00","4.5","","0.4","","74","","","","6","","7","","24.1","","101.88","","","","","","Cloudy"
"-115.14","67.82","KUGLUKTUK A","2300903","2020-10-01 12:00","2020","10","01","12:00","4.4","","2.2","","86","","","","4","","12","","24.1","","101.87","","","","","","NA"
"-115.14","67.82","KUGLUKTUK A","2300903","2020-10-01 13:00","2020","10","01","13:00","4.4","","2.1","","85","","","","4","","14","","24.1","","101.85","","","","","","NA"
"-115.14","67.82","KUGLUKTUK A","2300903","2020-10-01 14:00","2020","10","01","14:00","4.5","","1.3","","80","","","","3","","16","","24.1","","101.85","","","","","","Cloudy"
"-115.14","67.82","KUGLUKTUK A","2300903","2020-10-01 15:00","2020","10","01","15:00","4.4","","-0.2","","72","","","","4","","8","","24.1","","101.84","","","","","","NA"
"-115.14","67.82","KUGLUKTUK A","2300903","2020-10-01 16:00","2020","10","01","16:00","4.2","","-0.2","","73","","","","8","","7","","24.1","","101.86","","","","","","NA"
"-115.14","67.82","KUGLUKTUK A","2300903","2020-10-01 17:00","2020","10","01","17:00","3.9","","2.6","","91","","","","5","","10","","24.1","","101.85","","","","","","Cloudy"
"-115.14","67.82","KUGLUKTUK A","2300903","2020-10-01 18:00","2020","10","01","18:00","3.5","","1.9","","90","","","","8","","13","","24.1","","101.87","","","","","","NA"
"-115.14","67.82","KUGLUKTUK A","2300903","2020-10-01 19:00","2020","10","01","19:00","3.3","","2.0","","92","","","","7","","12","","16.1","","101.89","","","","","","NA"
"-115.14","67.82","KUGLUKTUK A","2300903","2020-10-01 20:00","2020","10","01","20:00","3.2","","2.0","","92","","","","9","","9","","16.1","","101.90","","","","","","Cloudy"
"-115.14","67.82","KUGLUKTUK A","2300903","2020-10-01 21:00","2020","10","01","21:00","3.2","","1.0","","86","","","","10","","8","","16.1","","101.91","","","","","","NA"
"-115.14","67.82","KUGLUKTUK A","2300903","2020-10-01 22:00","2020","10","01","22:00","3.0","","0.8","","86","","","","10","","6","","16.1","","101.94","","","","","","NA"
"-115.14","67.82","KUGLUKTUK A","2300903","2020-10-01 23:00","2020","10","01","23:00","2.4","","1.7","","95","","","","11","","9","","16.1","","101.93","","","","","","Cloudy"
"-115.14","67.82","KUGLUKTUK A","2300903","2020-10-02 00:00","2020","10","02","00:00","2.4","","1.6","","95","","","","36","","1","","16.1","","101.98","","","","","","NA"
"-115.14","67.82","KUGLUKTUK A","2300903","2020-10-02 01:00","2020","10","02","01:00","2.3","","0.9","","90","","","","12","","5","","16.1","","101.99","","","","","","NA"
"-115.14","67.82","KUGLUKTUK A","2300903","2020-10-02 02:00","2020","10","02","02:00","1.8","","0.1","","89","","","","15","","9","","16.1","","102.00","","","","","","Cloudy"
"-115.14","67.82","KUGLUKTUK A","2300903","2020-10-02 03:00","2020","10","02","03:00","0.4","","-0.7","","93","","","","11","","7","","16.1","","101.99","","","","","","NA"
"-115.14","67.82","KUGLUKTUK A","2300903","2020-10-02 04:00","2020","10","02","04:00","-0.3","","-0.9","","96","","","","14","","7","","16.1","","102.00","","","","-3","","NA"
"-115.14","67.82","KUGLUKTUK A","2300903","2020-10-02 05:00","2020","10","02","05:00","-0.1","","-0.7","","96","","","","13","","8","","16.1","","102.01","","","","-3","","Mostly Cloudy"
"-115.14","67.82","KUGLUKTUK A","2300903","2020-10-02 06:00","2020","10","02","06:00","-0.1","","-0.9","","95","","","","11","","9","","16.1","","102.01","","","","-3","","NA"
"-115.14","67.82","KUGLUKTUK A","2300903","2020-10-02 07:00","2020","10","02","07:00","-0.8","","-1.4","","96","","","","11","","13","","24.1","","102.03","","","","-5","","NA"
"-115.14","67.82","KUGLUKTUK A","2300903","2020-10-02 08:00","2020","10","02","08:00","-0.1","","-1.2","","92","","","","13","","8","","24.1","","102.05","","","","-3","","Mostly Cloudy"
"-115.14","67.82","KUGLUKTUK A","2300903","2020-10-02 09:00","2020","10","02","09:00","0.0","","-1.1","","92","","","","36","","2","","24.1","","102.05","","","","-1","","NA"
"-115.14","67.82","KUGLUKTUK A","2300903","2020-10-02 10:00","2020","10","02","10:00","1.3","","-0.2","","90","","","","11","","9","","24.1","","102.01","","","","","","NA"
"-115.14","67.82","KUGLUKTUK A","2300903","2020-10-02 11:00","2020","10","02","11:00","2.2","","-0.2","","85","","","","17","","4","","24.1","","102.01","","","","","","Cloudy"
"-115.14","67.82","KUGLUKTUK A","2300903","2020-10-02 12:00","2020","10","02","12:00","3.4","","0.2","","79","","","","11","","12","","24.1","","101.95","","","","","","NA"
"-115.14","67.82","KUGLUKTUK A","2300903","2020-10-02 13:00","2020","10","02","13:00","4.2","","0.6","","77","","","","14","","10","","24.1","","101.94","","","","","","NA"
"-115.14","67.82","KUGLUKTUK A","2300903","2020-10-02 14:00","2020","10","02","14:00","4.3","","1.4","","81","","","","7","","17","","24.1","","101.92","","","","","","Cloudy"
"-115.14","67.82","KUGLUKTUK A","2300903","2020-10-02 15:00","2020","10","02","15:00","4.8","","1.8","","81","","","","7","","18","","24.1","","101.91","","","","","","NA"
"-115.14","67.82","KUGLUKTUK A","2300903","2020-10-02 16:00","2020","10","02","16:00","4.0","","1.8","","85","","","","8","","22","","24.1","","101.83","","","","","","NA"
"-115.14","67.82","KUGLUKTUK A","2300903","2020-10-02 17:00","2020","10","02","17:00","4.0","","2.1","","87","","","","8","","21","","24.1","","101.83","","","","","","Cloudy"
"-115.14","67.82","KUGLUKTUK A","2300903","2020-10-02 18:00","2020","10","02","18:00","3.2","","2.0","","92","","","","9","","18","","24.1","","101.78","","","","","","NA"
"-115.14","67.82","KUGLUKTUK A","2300903","2020-10-02 19:00","2020","10","02","19:00","3.3","","2.1","","92","","","","10","","16","","24.1","","101.76","","","","","","NA"
"-115.14","67.82","KUGLUKTUK A","2300903","2020-10-02 20:00","2020","10","02","20:00","2.9","","1.7","","92","","","","9","","15","","24.1","","101.74","","","","","","Cloudy"
"-115.14","67.82","KUGLUKTUK A","2300903","2020-10-02 21:00","2020","10","02","21:00","3.0","","1.8","","92","","","","10","","17","","24.1","","101.68","","","","","","NA"
"-115.14","67.82","KUGLUKTUK A","2300903","2020-10-02 22:00","2020","10","02","22:00","2.9","","1.2","","88","","","","9","","13","","24.1","","101.63","","","","","","NA"
"-115.14","67.82","KUGLUKTUK A","2300903","2020-10-02 23:00","2020","10","02","23:00","2.3","","1.0","","91","","","","9","","10","","24.1","","101.63","","","","","","Cloudy"
"-115.14","67.82","KUGLUKTUK A","2300903","2020-10-03 00:00","2020","10","03","00:00","2.3","","1.0","","91","","","","11","","13","","24.1","","101.59","","","","","","NA"
"-115.14","67.82","KUGLUKTUK A","2300903","2020-10-03 01:00","2020","10","03","01:00","2.1","","0.8","","91","","","","11","","13","","24.1","","101.53","","","","","","NA"
"-115.14","67.82","KUGLUKTUK A","2300903","2020-10-03 02:00","2020","10","03","02:00","3.3","","1.6","","88","","","","12","","19","","24.1","","101.47","","","","","","Cloudy"
"-115.14","67.82","KUGLUKTUK A","2300903","2020-10-03 03:00","2020","10","03","03:00","3.5","","1.7","","88","","","","11","","18","","24.1","","101.37","","","","","","NA"
"-115.14","67.82","KUGLUKTUK A","2300903","2020-10-03 04:00","2020","10","03","04:00","3.6","","1.7","","87","","","","11","","17","","24.1","","101.32","","","","","","NA"
"-115.14","67.82","KUGLUKTUK A","2300903","2020-10-03 05:00","2020","10","03","05:00","3.8","","1.8","","87","","","","11","","21","","24.1","","101.24","","","","","","Cloudy"
"-115.14","67.82","KUGLUKTUK A","2300903","2020-10-03 06:00","2020","10","03","06:00","3.6","","1.6","","87","","","","11","","18","","24.1","","101.14","","","","","","NA"
"-115.14","67.82","KUGLUKTUK A","2300903","2020-10-03 07:00","2020","10","03","07:00","3.4","","1.5","","87","","","","10","","23","","24.1","","101.03","","","","","","NA"
"-115.14","67.82","KUGLUKTUK A","2300903","2020-10-03 08:00","2020","10","03","08:00","3.3","","1.5","","88","","","","10","","20","","24.1","","100.95","","","","","","Cloudy"
"-115.14","67.82","KUGLUKTUK A","2300903","2020-10-03 09:00","2020","10","03","09:00","3.8","","1.7","","86","","","","10","","21","","24.1","","100.89","","","","","","NA"
"-115.14","67.82","KUGLUKTUK A","2300903","2020-10-03 10:00","2020","10","03","10:00","4.3","","1.8","","84","","","","9","","25","","24.1","","100.80","","","","","","NA"
"-115.14","67.82","KUGLUKTUK A","2300903","2020-10-03 11:00","2020","10","03","11:00","4.5","","2.1","","84","","","","9","","27","","24.1","","100.72","","","","","","Cloudy"
"-115.14","67.82","KUGLUKTUK A","2300903","2020-10-03 12:00","2020","10","03","12:00","4.3","","2.2","","86","","","","9","","32","","24.1","","100.60","","","","","","NA"
"-115.14","67.82","KUGLUKTUK A","2300903","2020-10-03 13:00","2020","10","03","13:00","4.6","","2.4","","85","","","","9","","32","","24.1","","100.51","","","","","","Rain"
"-115.14","67.82","KUGLUKTUK A","2300903","2020-10-03 14:00","2020","10","03","14:00","4.4","","2.7","","88","","","","9","","26","","24.1","","100.41","","","","","","Cloudy"
"-115.14","67.82","KUGLUKTUK A","2300903","2020-10-03 15:00","2020","10","03","15:00","4.8","","2.5","","85","","","","9","","30","","24.1","","100.30","","","","","","NA"
"-115.14","67.82","KUGLUKTUK A","2300903","2020-10-03 16:00","2020","10","03","16:00","4.8","","2.4","","84","","","","9","","35","","24.1","","100.23","","","","","","NA"
"-115.14","67.82","KUGLUKTUK A","2300903","2020-10-03 17:00","2020","10","03","17:00","4.0","","3.0","","93","","","","8","","28","","12.9","","100.18","","","","","","Rain"
"-115.14","67.82","KUGLUKTUK A","2300903","2020-10-03 18:00","2020","10","03","18:00","4.0","","3.1","","94","","","","8","","30","","12.9","","100.10","","","","","","Rain"
"-115.14","67.82","KUGLUKTUK A","2300903","2020-10-03 19:00","2020","10","03","19:00","3.8","","3.2","","96","","","","9","","24","","12.9","","100.07","","","","","","Rain"
"-115.14","67.82","KUGLUKTUK A","2300903","2020-10-03 20:00","2020","10","03","20:00","3.5","","3.1","","97","","","","9","","32","","12.9","","99.99","","","","","","Rain"
"-115.14","67.82","KUGLUKTUK A","2300903","2020-10-03 21:00","2020","10","03","21:00","3.4","","2.8","","96","","","","8","","34","","12.9","","99.94","","","","","","Rain"
"-115.14","67.82","KUGLUKTUK A","2300903","2020-10-03 22:00","2020","10","03","22:00","3.2","","2.8","","97","","","","9","","30","","12.9","","99.91","","","","","","Rain"
"-115.14","67.82","KUGLUKTUK A","2300903","2020-10-03 23:00","2020","10","03","23:00","3.1","","2.7","","97","","","","9","","26","","12.9","","99.89","","","","","","Rain"
"-115.14","67.82","KUGLUKTUK A","2300903","2020-10-04 00:00","2020","10","04","00:00","2.9","","2.6","","97","","","","9","","26","","16.1","","99.86","","","","","","Rain"
"-115.14","67.82","KUGLUKTUK A","2300903","2020-10-04 01:00","2020","10","04","01:00","2.8","","2.3","","97","","","","9","","29","","16.1","","99.84","","","","","","Rain"
"-115.14","67.82","KUGLUKTUK A","2300903","2020-10-04 02:00","2020","10","04","02:00","2.8","","2.1","","95","","","","9","","32","","16.1","","99.83","","","","","","Rain"
"-115.14","67.82","KUGLUKTUK A","2300903","2020-10-04 03:00","2020","10","04","03:00","2.6","","2.0","","95","","","","9","","30","","19.3","","99.81","","","","","","NA"
"-115.14","67.82","KUGLUKTUK A","2300903","2020-10-04 04:00","2020","10","04","04:00","2.6","","1.9","","95","","","","8","","32","","19.3","","99.79","","","","","","NA"
"-115.14","67.82","KUGLUKTUK A","2300903","2020-10-04 05:00","2020","10","04","05:00","2.5","","1.8","","95","","","","8","","32","","24.1","","99.80","","","","","","Cloudy"
"-115.14","67.82","KUGLUKTUK A","2300903","2020-10-04 06:00","2020","10","04","06:00","2.4","","1.5","","94","","","","8","","35","","16.1","","99.80","","","","","","NA"
"-115.14","67.82","KUGLUKTUK A","2300903","2020-10-04 07:00","2020","10","04","07:00","2.1","","1.4","","95","","","","9","","31","","12.9","","99.79","","","","","","Rain"
"-115.14","67.82","KUGLUKTUK A","2300903","2020-10-04 08:00","2020","10","04","08:00","2.0","","1.2","","95","","","","9","","32","","16.1","","99.83","","","","","","Rain"
"-115.14","67.82","KUGLUKTUK A","2300903","2020-10-04 09:00","2020","10","04","09:00","2.1","","1.5","","95","","","","9","","23","","16.1","","99.84","","","","","","Rain"
"-115.14","67.82","KUGLUKTUK A","2300903","2020-10-04 10:00","2020","10","04","10:00","2.1","","1.4","","95","","","","9","","28","","16.1","","99.85","","","","","","Rain"
"-115.14","67.82","KUGLUKTUK A","2300903","2020-10-04 11:00","2020","10","04","11:00","2.1","","1.4","","95","","","","9","","27","","16.1","","99.87","","","","","","Rain"
"-115.14","67.82","KUGLUKTUK A","2300903","2020-10-04 12:00","2020","10","04","12:00","2.0","","1.1","","93","","","","9","","28","","16.1","","99.91","","","","","","Rain"
"-115.14","67.82","KUGLUKTUK A","2300903","2020-10-04 13:00","2020","10","04","13:00","2.1","","1.1","","94","","","","9","","28","","19.3","","99.93","","","","","","NA"
"-115.14","67.82","KUGLUKTUK A","2300903","2020-10-04 14:00","2020","10","04","14:00","2.0","","1.1","","93","","","","9","","25","","16.1","","99.97","","","","","","Cloudy"
"-115.14","67.82","KUGLUKTUK A","2300903","2020-10-04 15:00","2020","10","04","15:00","2.0","","0.9","","92","","","","8","","22","","16.1","","100.00","","","","","","NA"
"-115.14","67.82","KUGLUKTUK A","2300903","2020-10-04 16:00","2020","10","04","16:00","1.9","","0.4","","90","","","","9","","28","","19.3","","100.03","","","","","","NA"
"-115.14","67.82","KUGLUKTUK A","2300903","2020-10-04 17:00","2020","10","04","17:00","1.8","","0.4","","91","","","","9","","25","","16.1","","100.06","","","","","","Rain"
"-115.14","67.82","KUGLUKTUK A","2300903","2020-10-04 18:00","2020","10","04","18:00","1.6","","0.2","","91","","","","9","","26","","16.1","","100.08","","","","","","Rain"
"-115.14","67.82","KUGLUKTUK A","2300903","2020-10-04 19:00","2020","10","04","19:00","1.6","","0.2","","90","","","","9","","22","","24.1","","100.12","","","","","","Rain"
"-115.14","67.82","KUGLUKTUK A","2300903","2020-10-04 20:00","2020","10","04","20:00","1.3","","0.1","","91","","","","9","","26","","19.3","","100.12","","","","","","Rain"
"-115.14","67.82","KUGLUKTUK A","2300903","2020-10-04 21:00","2020","10","04","21:00","1.3","","0.0","","91","","","","9","","21","","24.1","","100.13","","","","","","Rain"
"-115.14","67.82","KUGLUKTUK A","2300903","2020-10-04 22:00","2020","10","04","22:00","1.1","","-0.1","","92","","","","9","","27","","19.3","","100.12","","","","","","Snow"
"-115.14","67.82","KUGLUKTUK A","2300903","2020-10-04 23:00","2020","10","04","23:00","1.1","","-0.1","","92","","","","9","","25","","24.1","","100.12","","","","","","Drizzle"
"-115.14","67.82","KUGLUKTUK A","2300903","2020-10-05 00:00","2020","10","05","00:00","1.1","","-0.2","","91","","","","9","","25","","16.1","","100.12","","","","","","Snow"
"-115.14","67.82","KUGLUKTUK A","2300903","2020-10-05 01:00","2020","10","05","01:00","0.6","","0.1","","96","","","","9","","20","","12.9","","100.11","","","","","","Snow"
"-115.14","67.82","KUGLUKTUK A","2300903","2020-10-05 02:00","2020","10","05","02:00","0.8","","-0.1","","94","","","","9","","25","","19.3","","100.11","","","","","","Drizzle"
"-115.14","67.82","KUGLUKTUK A","2300903","2020-10-05 03:00","2020","10","05","03:00","0.9","","-0.3","","92","","","","9","","23","","19.3","","100.10","","","","","","NA"
"-115.14","67.82","KUGLUKTUK A","2300903","2020-10-05 04:00","2020","10","05","04:00","0.7","","-0.1","","94","","","","9","","22","","12.9","","100.06","","","","","","Drizzle,Snow"
"-115.14","67.82","KUGLUKTUK A","2300903","2020-10-05 05:00","2020","10","05","05:00","0.6","","0.1","","97","","","","9","","19","","12.9","","100.03","","","","","","Snow"
"-115.14","67.82","KUGLUKTUK A","2300903","2020-10-05 06:00","2020","10","05","06:00","0.7","","0.3","","98","","","","9","","20","","9.7","","100.00","","","","","","Snow"
"-115.14","67.82","KUGLUKTUK A","2300903","2020-10-05 07:00","2020","10","05","07:00","0.7","","0.1","","96","","","","8","","26","","6.4","","99.96","","","","","","Snow,Fog"
"-115.14","67.82","KUGLUKTUK A","2300903","2020-10-05 08:00","2020","10","05","08:00","0.8","","0.4","","97","","","","8","","22","","9.7","","99.94","","","","","","Snow Grains,Ice Pellets"
"-115.14","67.82","KUGLUKTUK A","2300903","2020-10-05 09:00","2020","10","05","09:00","1.1","","0.1","","93","","","","9","","28","","12.9","","99.89","","","","","","Snow Grains,Ice Pellets"
"-115.14","67.82","KUGLUKTUK A","2300903","2020-10-05 10:00","2020","10","05","10:00","1.1","","0.4","","95","","","","8","","22","","8.1","","99.89","","","","","","Snow,Ice Pellets"
"-115.14","67.82","KUGLUKTUK A","2300903","2020-10-05 11:00","2020","10","05","11:00","1.1","","0.4","","95","","","","8","","27","","8.1","","99.88","","","","","","Snow,Ice Pellets"
"-115.14","67.82","KUGLUKTUK A","2300903","2020-10-05 12:00","2020","10","05","12:00","1.4","","0.9","","96","","","","7","","21","","6.4","","99.88","","","","","","Snow,Ice Pellets"
"-115.14","67.82","KUGLUKTUK A","2300903","2020-10-05 13:00","2020","10","05","13:00","1.5","","0.9","","96","","","","7","","24","","8.1","","99.88","","","","","","Snow,Ice Pellets"
"-115.14","67.82","KUGLUKTUK A","2300903","2020-10-05 14:00","2020","10","05","14:00","1.3","","0.6","","95","","","","7","","27","","9.7","","99.89","","","","","","Ice Pellets"
"-115.14","67.82","KUGLUKTUK A","2300903","2020-10-05 15:00","2020","10","05","15:00","1.2","","0.6","","96","","","","6","","19","","9.7","","99.92","","","","","","Ice Pellets"
"-115.14","67.82","KUGLUKTUK A","2300903","2020-10-05 16:00","2020","10","05","16:00","0.9","","0.7","","99","","","","6","","19","","1.0","","99.94","","","","","","Snow,Fog"
"-115.14","67.82","KUGLUKTUK A","2300903","2020-10-05 17:00","2020","10","05","17:00","0.8","","0.4","","97","","","","6","","18","","16.1","","99.96","","","","","","Snow"
"-115.14","67.82","KUGLUKTUK A","2300903","2020-10-05 18:00","2020","10","05","18:00","0.9","","-0.3","","92","","","","5","","17","","19.3","","99.99","","","","","","NA"
"-115.14","67.82","KUGLUKTUK A","2300903","2020-10-05 19:00","2020","10","05","19:00","0.8","","-0.5","","91","","","","5","","21","","19.3","","100.01","","","","","","NA"
"-115.14","67.82","KUGLUKTUK A","2300903","2020-10-05 20:00","2020","10","05","20:00","0.8","","-0.7","","89","","","","5","","20","","19.3","","100.04","","","","","","Cloudy"
"-115.14","67.82","KUGLUKTUK A","2300903","2020-10-05 21:00","2020","10","05","21:00","0.7","","-0.5","","92","","","","4","","19","","19.3","","100.06","","","","","","NA"
"-115.14","67.82","KUGLUKTUK A","2300903","2020-10-05 22:00","2020","10","05","22:00","0.4","","-0.4","","94","","","","5","","21","","19.3","","100.08","","","","","","Snow Grains"
"-115.14","67.82","KUGLUKTUK A","2300903","2020-10-05 23:00","2020","10","05","23:00","0.2","","-0.6","","94","","","","6","","14","","19.3","","100.10","","","","","","Snow"
"-115.14","67.82","KUGLUKTUK A","2300903","2020-10-06 00:00","2020","10","06","00:00","0.4","","-0.4","","95","","","","5","","17","","24.1","","100.15","","","","","","Snow"
"-115.14","67.82","KUGLUKTUK A","2300903","2020-10-06 01:00","2020","10","06","01:00","0.3","","-0.6","","94","","","","5","","14","","12.9","","100.19","","","","","","Snow Showers"
"-115.14","67.82","KUGLUKTUK A","2300903","2020-10-06 02:00","2020","10","06","02:00","0.2","","-0.2","","97","","","","3","","18","","9.7","","100.25","","","","","","Snow Showers"
"-115.14","67.82","KUGLUKTUK A","2300903","2020-10-06 03:00","2020","10","06","03:00","0.1","","-0.6","","95","","","","4","","19","","12.9","","100.29","","","","","","Snow Showers"
"-115.14","67.82","KUGLUKTUK A","2300903","2020-10-06 04:00","2020","10","06","04:00","-0.1","","-0.5","","97","","","","5","","17","","4.8","","100.36","","","","-5","","Snow Showers"
"-115.14","67.82","KUGLUKTUK A","2300903","2020-10-06 05:00","2020","10","06","05:00","0.1","","-0.7","","94","","","","7","","21","","12.9","","100.42","","","","","","Snow Showers"
"-115.14","67.82","KUGLUKTUK A","2300903","2020-10-06 06:00","2020","10","06","06:00","-0.4","","-0.8","","97","","","","6","","28","","2.0","","100.48","","","","-7","","Snow Showers"
"-115.14","67.82","KUGLUKTUK A","2300903","2020-10-06 07:00","2020","10","06","07:00","-0.2","","-1.6","","90","","","","6","","25","","9.7","","100.54","","","","-6","","Snow Showers"
"-115.14","67.82","KUGLUKTUK A","2300903","2020-10-06 08:00","2020","10","06","08:00","-0.3","","-2.0","","88","","","","6","","27","","24.1","","100.63","","","","-7","","Cloudy"
"-115.14","67.82","KUGLUKTUK A","2300903","2020-10-06 09:00","2020","10","06","09:00","-0.4","","-2.4","","86","","","","7","","22","","24.1","","100.70","","","","-6","","NA"
"-115.14","67.82","KUGLUKTUK A","2300903","2020-10-06 10:00","2020","10","06","10:00","-0.4","","-3.1","","82","","","","7","","22","","24.1","","100.76","","","","-6","","NA"
"-115.14","67.82","KUGLUKTUK A","2300903","2020-10-06 11:00","2020","10","06","11:00","0.0","","-3.7","","76","","","","7","","16","","24.1","","100.82","","","","-5","","Cloudy"
"-115.14","67.82","KUGLUKTUK A","2300903","2020-10-06 12:00","2020","10","06","12:00","-1.0","","-1.9","","94","","","","3","","18","","6.4","","100.90","","","","-6","","Snow Pellets"
"-115.14","67.82","KUGLUKTUK A","2300903","2020-10-06 13:00","2020","10","06","13:00","-1.1","","-2.0","","93","","","","3","","17","","1.2","","100.99","","","","-6","","Snow Pellets"
"-115.14","67.82","KUGLUKTUK A","2300903","2020-10-06 14:00","2020","10","06","14:00","-0.8","","-3.2","","84","","","","4","","13","","12.9","","101.05","","","","-5","","Snow Showers"
"-115.14","67.82","KUGLUKTUK A","2300903","2020-10-06 15:00","2020","10","06","15:00","-0.7","","-2.6","","87","","","","36","","2","","8.1","","101.11","","","","-1","","Snow Showers"
"-115.14","67.82","KUGLUKTUK A","2300903","2020-10-06 16:00","2020","10","06","16:00","-0.6","","-5.7","","68","","","","6","","10","","19.3","","101.16","","","","-4","","Snow Showers"
"-115.14","67.82","KUGLUKTUK A","2300903","2020-10-06 17:00","2020","10","06","17:00","-0.8","","-5.0","","73","","","","8","","11","","24.1","","101.22","","","","-5","","Clear"
"-115.14","67.82","KUGLUKTUK A","2300903","2020-10-06 18:00","2020","10","06","18:00","-1.4","","-4.4","","80","","","","11","","5","","24.1","","101.27","","","","-3","","NA"
"-115.14","67.82","KUGLUKTUK A","2300903","2020-10-06 19:00","2020","10","06","19:00","-1.4","","-4.9","","77","","","","16","","10","","19.3","","101.31","","","","-5","","Snow Showers"
"-115.14","67.82","KUGLUKTUK A","2300903","2020-10-06 20:00","2020","10","06","20:00","-2.0","","-3.6","","88","","","","24","","7","","19.3","","101.35","","","","-5","","Snow Showers"
"-115.14","67.82","KUGLUKTUK A","2300903","2020-10-06 21:00","2020","10","06","21:00","-1.8","","-4.3","","83","","","","22","","6","","24.1","","101.34","","","","-4","","Snow Showers"
"-115.14","67.82","KUGLUKTUK A","2300903","2020-10-06 22:00","2020","10","06","22:00","-1.6","","-5.0","","78","","","","10","","5","","24.1","","101.35","","","","-3","","NA"
"-115.14","67.82","KUGLUKTUK A","2300903","2020-10-06 23:00","2020","10","06","23:00","-2.2","","-4.2","","86","","","","36","","3","","19.3","","101.39","","","","-3","","Snow Showers"
"-115.14","67.82","KUGLUKTUK A","2300903","2020-10-07 00:00","2020","10","07","00:00","-2.4","","-4.2","","87","","","","23","","9","","19.3","","101.40","","","","-6","","Snow Showers"
"-115.14","67.82","KUGLUKTUK A","2300903","2020-10-07 01:00","2020","10","07","01:00","-2.4","","-4.2","","88","","","","23","","8","","24.1","","101.41","","","","-6","","Snow Showers"
"-115.14","67.82","KUGLUKTUK A","2300903","2020-10-07 02:00","2020","10","07","02:00","-2.5","","-4.1","","89","","","","19","","8","","24.1","","101.41","","","","-6","","Mostly Cloudy"
"-115.14","67.82","KUGLUKTUK A","2300903","2020-10-07 03:00","2020","10","07","03:00","-2.8","","-4.7","","87","","","","15","","5","","24.1","","101.41","","","","-5","","NA"
"-115.14","67.82","KUGLUKTUK A","2300903","2020-10-07 04:00","2020","10","07","04:00","-2.8","","-5.4","","82","","","","13","","7","","24.1","","101.42","","","","-6","","NA"
"-115.14","67.82","KUGLUKTUK A","2300903","2020-10-07 05:00","2020","10","07","05:00","-3.1","","-5.8","","82","","","","18","","8","","24.1","","101.39","","","","-6","","Mostly Cloudy"
"-115.14","67.82","KUGLUKTUK A","2300903","2020-10-07 06:00","2020","10","07","06:00","-2.6","","-5.4","","81","","","","17","","8","","24.1","","101.37","","","","-6","","Snow Showers"
"-115.14","67.82","KUGLUKTUK A","2300903","2020-10-07 07:00","2020","10","07","07:00","-2.6","","-5.2","","83","","","","18","","8","","24.1","","101.35","","","","-6","","Snow Showers"
"-115.14","67.82","KUGLUKTUK A","2300903","2020-10-07 08:00","2020","10","07","08:00","-2.1","","-5.3","","79","","","","12","","7","","24.1","","101.33","","","","-5","","Snow"
"-115.14","67.82","KUGLUKTUK A","2300903","2020-10-07 09:00","2020","10","07","09:00","-2.2","","-4.4","","85","","","","12","","13","","16.1","","101.33","","","","-7","","Snow Showers"
"-115.14","67.82","KUGLUKTUK A","2300903","2020-10-07 10:00","2020","10","07","10:00","-1.7","","-4.6","","80","","","","10","","18","","24.1","","101.30","","","","-7","","Snow Showers"
"-115.14","67.82","KUGLUKTUK A","2300903","2020-10-07 11:00","2020","10","07","11:00","-1.5","","-5.1","","76","","","","10","","21","","24.1","","101.26","","","","-7","","Snow Showers"
"-115.14","67.82","KUGLUKTUK A","2300903","2020-10-07 12:00","2020","10","07","12:00","-1.2","","-6.0","","70","","","","11","","21","","24.1","","101.23","","","","-7","","Snow"
"-115.14","67.82","KUGLUKTUK A","2300903","2020-10-07 13:00","2020","10","07","13:00","-0.9","","-4.9","","75","","","","11","","19","","24.1","","101.22","","","","-6","","Snow"
"-115.14","67.82","KUGLUKTUK A","2300903","2020-10-07 14:00","2020","10","07","14:00","-0.8","","-4.1","","78","","","","9","","19","","16.1","","101.24","","","","-6","","Snow Showers"
"-115.14","67.82","KUGLUKTUK A","2300903","2020-10-07 15:00","2020","10","07","15:00","-0.6","","-3.2","","83","","","","8","","14","","24.1","","101.23","","","","-5","","Snow Showers"
"-115.14","67.82","KUGLUKTUK A","2300903","2020-10-07 16:00","2020","10","07","16:00","-0.4","","-2.5","","86","","","","8","","11","","12.9","","101.22","","","","-4","","Snow Showers"
"-115.14","67.82","KUGLUKTUK A","2300903","2020-10-07 17:00","2020","10","07","17:00","-0.5","","-2.9","","84","","","","8","","20","","12.9","","101.23","","","","-6","","Snow Showers"
"-115.14","67.82","KUGLUKTUK A","2300903","2020-10-07 18:00","2020","10","07","18:00","-1.1","","-3.0","","86","","","","7","","22","","12.9","","101.24","","","","-7","","Snow Showers"
"-115.14","67.82","KUGLUKTUK A","2300903","2020-10-07 19:00","2020","10","07","19:00","-1.1","","-3.1","","87","","","","5","","19","","12.9","","101.23","","","","-6","","Snow Showers"
"-115.14","67.82","KUGLUKTUK A","2300903","2020-10-07 20:00","2020","10","07","20:00","-1.0","","-3.4","","84","","","","7","","18","","16.1","","101.22","","","","-6","","Snow Showers"
"-115.14","67.82","KUGLUKTUK A","2300903","2020-10-07 21:00","2020","10","07","21:00","-1.0","","-3.6","","82","","","","6","","22","","16.1","","101.21","","","","-7","","Snow Showers"
"-115.14","67.82","KUGLUKTUK A","2300903","2020-10-07 22:00","2020","10","07","22:00","-1.1","","-4.0","","81","","","","6","","21","","12.9","","101.21","","","","-7","","Snow Showers"
"-115.14","67.82","KUGLUKTUK A","2300903","2020-10-07 23:00","2020","10","07","23:00","-1.1","","-4.3","","79","","","","7","","16","","16.1","","101.20","","","","-6","","Snow Showers"
"-115.14","67.82","KUGLUKTUK A","2300903","2020-10-08 00:00","2020","10","08","00:00","-0.9","","-3.7","","81","","","","6","","21","","16.1","","101.18","","","","-7","","Snow Showers"
"-115.14","67.82","KUGLUKTUK A","2300903","2020-10-08 01:00","2020","10","08","01:00","-1.2","","-2.4","","92","","","","8","","18","","9.7","","101.19","","","","-6","","Snow Showers"
"-115.14","67.82","KUGLUKTUK A","2300903","2020-10-08 02:00","2020","10","08","02:00","-0.9","","-3.3","","84","","","","7","","17","","9.7","","101.19","","","","-6","","Snow Showers"
"-115.14","67.82","KUGLUKTUK A","2300903","2020-10-08 03:00","2020","10","08","03:00","-1.1","","-3.2","","86","","","","5","","16","","12.9","","101.19","","","","-6","","Snow Showers"
"-115.14","67.82","KUGLUKTUK A","2300903","2020-10-08 04:00","2020","10","08","04:00","-0.8","","-3.1","","84","","","","5","","16","","12.9","","101.17","","","","-6","","Snow Showers"
"-115.14","67.82","KUGLUKTUK A","2300903","2020-10-08 05:00","2020","10","08","05:00","-1.1","","-1.9","","94","","","","9","","18","","12.9","","101.16","","","","-6","","Snow Showers"
"-115.14","67.82","KUGLUKTUK A","2300903","2020-10-08 06:00","2020","10","08","06:00","-1.2","","-1.7","","96","","","","6","","19","","4.8","","101.13","","","","-7","","Snow Showers"
"-115.14","67.82","KUGLUKTUK A","2300903","2020-10-08 07:00","2020","10","08","07:00","-0.9","","-2.5","","89","","","","8","","21","","6.4","","101.12","","","","-7","","Snow Showers"
"-115.14","67.82","KUGLUKTUK A","2300903","2020-10-08 08:00","2020","10","08","08:00","-1.1","","-2.2","","92","","","","8","","22","","4.8","","101.12","","","","-7","","Snow Showers"
"-115.14","67.82","KUGLUKTUK A","2300903","2020-10-08 09:00","2020","10","08","09:00","-1.0","","-2.2","","92","","","","7","","21","","9.7","","101.11","","","","-7","","Snow Showers"
"-115.14","67.82","KUGLUKTUK A","2300903","2020-10-08 10:00","2020","10","08","10:00","-1.2","","-2.0","","94","","","","9","","16","","6.4","","101.08","","","","-6","","Snow Showers"
"-115.14","67.82","KUGLUKTUK A","2300903","2020-10-08 11:00","2020","10","08","11:00","-1.0","","-2.1","","92","","","","13","","9","","9.7","","101.09","","","","-4","","Snow"
"-115.14","67.82","KUGLUKTUK A","2300903","2020-10-08 12:00","2020","10","08","12:00","-0.9","","-2.5","","89","","","","12","","12","","12.9","","101.12","","","","-5","","Snow"
"-115.14","67.82","KUGLUKTUK A","2300903","2020-10-08 13:00","2020","10","08","13:00","-0.3","","-2.7","","84","","","","12","","3","","16.1","","101.12","","","","-1","","Snow"
"-115.14","67.82","KUGLUKTUK A","2300903","2020-10-08 14:00","2020","10","08","14:00","-0.2","","-3.0","","81","","","","10","","16","","6.4","","101.11","","","","-5","","Snow Showers"
"-115.14","67.82","KUGLUKTUK A","2300903","2020-10-08 15:00","2020","10","08","15:00","-0.2","","-3.8","","76","","","","9","","15","","24.1","","101.11","","","","-5","","NA"
"-115.14","67.82","KUGLUKTUK A","2300903","2020-10-08 16:00","2020","10","08","16:00","-0.3","","-3.9","","77","","","","9","","16","","19.3","","101.11","","","","-5","","NA"
"-115.14","67.82","KUGLUKTUK A","2300903","2020-10-08 17:00","2020","10","08","17:00","-0.4","","-4.1","","76","","","","10","","16","","19.3","","101.11","","","","-5","","Snow"
"-115.14","67.82","KUGLUKTUK A","2300903","2020-10-08 18:00","2020","10","08","18:00","-0.7","","-4.0","","78","","","","11","","17","","24.1","","101.13","","","","-6","","NA"
"-115.14","67.82","KUGLUKTUK A","2300903","2020-10-08 19:00","2020","10","08","19:00","-0.9","","-4.0","","80","","","","11","","18","","19.3","","101.12","","","","-6","","Snow Showers"
"-115.14","67.82","KUGLUKTUK A","2300903","2020-10-08 20:00","2020","10","08","20:00","-1.2","","-3.9","","82","","","","11","","18","","24.1","","101.12","","","","-6","","Cloudy"
"-115.14","67.82","KUGLUKTUK A","2300903","2020-10-08 21:00","2020","10","08","21:00","-1.3","","-4.1","","82","","","","11","","17","","24.1","","101.10","","","","-6","","Snow Showers"
"-115.14","67.82","KUGLUKTUK A","2300903","2020-10-08 22:00","2020","10","08","22:00","-1.4","","-4.0","","83","","","","11","","18","","19.3","","101.09","","","","-7","","Snow Showers"
"-115.14","67.82","KUGLUKTUK A","2300903","2020-10-08 23:00","2020","10","08","23:00","-1.5","","-3.9","","84","","","","10","","17","","24.1","","101.09","","","","-7","","Snow Showers"
"-115.14","67.82","KUGLUKTUK A","2300903","2020-10-09 00:00","2020","10","09","00:00","-1.5","","-4.1","","83","","","","10","","13","","19.3","","101.09","","","","-6","","Snow Showers"
"-115.14","67.82","KUGLUKTUK A","2300903","2020-10-09 01:00","2020","10","09","01:00","-1.7","","-4.0","","84","","","","11","","11","","24.1","","101.09","","","","-6","","Snow Showers"
"-115.14","67.82","KUGLUKTUK A","2300903","2020-10-09 02:00","2020","10","09","02:00","-2.0","","-4.1","","85","","","","11","","10","","24.1","","101.09","","","","-6","","Cloudy"
"-115.14","67.82","KUGLUKTUK A","2300903","2020-10-09 03:00","2020","10","09","03:00","-2.0","","-3.9","","87","","","","12","","8","","19.3","","101.09","","","","-5","","Snow Showers"
"-115.14","67.82","KUGLUKTUK A","2300903","2020-10-09 04:00","2020","10","09","04:00","-2.1","","-4.1","","86","","","","11","","5","","16.1","","101.08","","","","-4","","Snow Showers"
"-115.14","67.82","KUGLUKTUK A","2300903","2020-10-09 05:00","2020","10","09","05:00","-2.2","","-4.4","","85","","","","13","","6","","24.1","","101.06","","","","-5","","Snow Showers"
"-115.14","67.82","KUGLUKTUK A","2300903","2020-10-09 06:00","2020","10","09","06:00","-2.5","","-4.6","","86","","","","11","","10","","24.1","","101.03","","","","-6","","Snow Showers"
"-115.14","67.82","KUGLUKTUK A","2300903","2020-10-09 07:00","2020","10","09","07:00","-2.6","","-4.5","","87","","","","12","","11","","24.1","","101.02","","","","-7","","Snow Showers"
"-115.14","67.82","KUGLUKTUK A","2300903","2020-10-09 08:00","2020","10","09","08:00","-2.5","","-4.6","","86","","","","11","","12","","24.1","","101.00","","","","-7","","Cloudy"
"-115.14","67.82","KUGLUKTUK A","2300903","2020-10-09 09:00","2020","10","09","09:00","-2.1","","-4.6","","83","","","","11","","14","","24.1","","100.98","","","","-7","","NA"
"-115.14","67.82","KUGLUKTUK A","2300903","2020-10-09 10:00","2020","10","09","10:00","-1.6","","-5.0","","78","","","","10","","17","","24.1","","100.97","","","","-7","","NA"
"-115.14","67.82","KUGLUKTUK A","2300903","2020-10-09 11:00","2020","10","09","11:00","-1.2","","-5.1","","75","","","","10","","15","","24.1","","100.95","","","","-6","","Cloudy"
"-115.14","67.82","KUGLUKTUK A","2300903","2020-10-09 12:00","2020","10","09","12:00","-1.2","","-5.0","","75","","","","9","","22","","24.1","","100.90","","","","-7","","NA"
"-115.14","67.82","KUGLUKTUK A","2300903","2020-10-09 13:00","2020","10","09","13:00","-1.5","","-5.4","","74","","","","10","","22","","24.1","","100.88","","","","-7","","NA"
"-115.14","67.82","KUGLUKTUK A","2300903","2020-10-09 14:00","2020","10","09","14:00","-1.0","","-5.9","","70","","","","9","","25","","24.1","","100.84","","","","-7","","Mostly Cloudy"
"-115.14","67.82","KUGLUKTUK A","2300903","2020-10-09 15:00","2020","10","09","15:00","-1.4","","-6.5","","69","","","","9","","30","","24.1","","100.80","","","","-8","","NA"
"-115.14","67.82","KUGLUKTUK A","2300903","2020-10-09 16:00","2020","10","09","16:00","-1.8","","-6.5","","70","","","","9","","26","","24.1","","100.76","","","","-8","","NA"
"-115.14","67.82","KUGLUKTUK A","2300903","2020-10-09 17:00","2020","10","09","17:00","-2.4","","-6.5","","74","","","","9","","23","","24.1","","100.72","","","","-9","","Mainly Clear"
"-115.14","67.82","KUGLUKTUK A","2300903","2020-10-09 18:00","2020","10","09","18:00","-2.5","","-6.6","","74","","","","8","","26","","24.1","","100.66","","","","-9","","NA"
"-115.14","67.82","KUGLUKTUK A","2300903","2020-10-09 19:00","2020","10","09","19:00","-2.7","","-6.2","","77","","","","7","","27","","24.1","","100.60","","","","-10","","NA"
"-115.14","67.82","KUGLUKTUK A","2300903","2020-10-09 20:00","2020","10","09","20:00","-2.5","","-6.1","","77","","","","7","","23","","24.1","","100.56","","","","-9","","Mostly Cloudy"
"-115.14","67.82","KUGLUKTUK A","2300903","2020-10-09 21:00","2020","10","09","21:00","-2.3","","-5.7","","78","","","","7","","26","","24.1","","100.51","","","","-9","","NA"
"-115.14","67.82","KUGLUKTUK A","2300903","2020-10-09 22:00","2020","10","09","22:00","-2.3","","-5.8","","77","","","","7","","28","","24.1","","100.46","","","","-9","","NA"
"-115.14","67.82","KUGLUKTUK A","2300903","2020-10-09 23:00","2020","10","09","23:00","-2.1","","-5.6","","77","","","","6","","26","","24.1","","100.40","","","","-9","","Cloudy"
"-115.14","67.82","KUGLUKTUK A","2300903","2020-10-10 00:00","2020","10","10","00:00","-1.9","","-5.3","","77","","","","6","","19","","24.1","","100.34","","","","-7","","NA"
"-115.14","67.82","KUGLUKTUK A","2300903","2020-10-10 01:00","2020","10","10","01:00","-1.6","","-5.4","","75","","","","7","","27","","24.1","","100.28","","","","-8","","NA"
"-115.14","67.82","KUGLUKTUK A","2300903","2020-10-10 02:00","2020","10","10","02:00","-1.6","","-3.9","","84","","","","7","","20","","19.3","","100.22","","","","-7","","Snow"
"-115.14","67.82","KUGLUKTUK A","2300903","2020-10-10 03:00","2020","10","10","03:00","-1.7","","-3.4","","88","","","","6","","18","","16.1","","100.16","","","","-7","","Snow,Blowing Snow"
"-115.14","67.82","KUGLUKTUK A","2300903","2020-10-10 04:00","2020","10","10","04:00","-1.4","","-3.4","","86","","","","6","","18","","16.1","","100.13","","","","-7","","Snow"
"-115.14","67.82","KUGLUKTUK A","2300903","2020-10-10 05:00","2020","10","10","05:00","-1.8","","-2.6","","94","","","","6","","15","","12.9","","100.06","","","","-7","","Snow"
"-115.14","67.82","KUGLUKTUK A","2300903","2020-10-10 06:00","2020","10","10","06:00","-1.4","","-2.0","","96","","","","6","","14","","6.4","","100.02","","","","-6","","Snow,Fog"
"-115.14","67.82","KUGLUKTUK A","2300903","2020-10-10 07:00","2020","10","10","07:00","-0.9","","-1.5","","96","","","","5","","26","","3.2","","99.99","","","","-7","","Snow,Fog"
"-115.14","67.82","KUGLUKTUK A","2300903","2020-10-10 08:00","2020","10","10","08:00","-1.1","","-1.5","","97","","","","4","","28","","3.6","","99.94","","","","-8","","Snow"
"-115.14","67.82","KUGLUKTUK A","2300903","2020-10-10 09:00","2020","10","10","09:00","-0.8","","-1.2","","97","","","","2","","25","","4.8","","99.88","","","","-7","","Snow,Fog"
"-115.14","67.82","KUGLUKTUK A","2300903","2020-10-10 10:00","2020","10","10","10:00","-0.6","","-1.3","","95","","","","4","","14","","2.4","","99.86","","","","-5","","Snow,Fog"
"-115.14","67.82","KUGLUKTUK A","2300903","2020-10-10 11:00","2020","10","10","11:00","-0.5","","-1.0","","96","","","","3","","21","","3.2","","99.85","","","","-6","","Snow,Fog"
"-115.14","67.82","KUGLUKTUK A","2300903","2020-10-10 12:00","2020","10","10","12:00","-0.4","","-0.8","","97","","","","36","","23","","3.6","","99.83","","","","-6","","Snow,Fog"
"-115.14","67.82","KUGLUKTUK A","2300903","2020-10-10 13:00","2020","10","10","13:00","-0.3","","-0.9","","96","","","","34","","25","","6.4","","99.82","","","","-6","","Snow,Fog"
"-115.14","67.82","KUGLUKTUK A","2300903","2020-10-10 14:00","2020","10","10","14:00","-0.3","","-0.8","","96","","","","34","","22","","12.9","","99.82","","","","-6","","Snow"
"-115.14","67.82","KUGLUKTUK A","2300903","2020-10-10 15:00","2020","10","10","15:00","-0.1","","-0.9","","94","","","","34","","17","","12.9","","99.82","","","","-5","","NA"
"-115.14","67.82","KUGLUKTUK A","2300903","2020-10-10 16:00","2020","10","10","16:00","-0.2","","-0.6","","97","","","","4","","6","","9.7","","99.81","","","","-2","","Snow,Fog"
"-115.14","67.82","KUGLUKTUK A","2300903","2020-10-10 17:00","2020","10","10","17:00","-0.2","","-0.8","","96","","","","36","","8","","9.7","","99.80","","","","-3","","Snow,Fog"
"-115.14","67.82","KUGLUKTUK A","2300903","2020-10-10 18:00","2020","10","10","18:00","-0.3","","-0.5","","99","","","","30","","3","","6.4","","99.79","","","","-1","","Snow,Fog"
"-115.14","67.82","KUGLUKTUK A","2300903","2020-10-10 19:00","2020","10","10","19:00","-0.4","","-0.4","","99","","","","36","","3","","19.3","","99.78","","","","-1","","Snow"
"-115.14","67.82","KUGLUKTUK A","2300903","2020-10-10 20:00","2020","10","10","20:00","-0.1","","-0.7","","96","","","","1","","10","","16.1","","99.79","","","","-3","","Snow"
"-115.14","67.82","KUGLUKTUK A","2300903","2020-10-10 21:00","2020","10","10","21:00","-0.3","","-0.5","","98","","","","3","","4","","3.6","","99.79","","","","-2","","Freezing Drizzle,Snow"
"-115.14","67.82","KUGLUKTUK A","2300903","2020-10-10 22:00","2020","10","10","22:00","-0.1","","-0.2","","99","","","","36","","11","","4.8","","99.79","","","","-4","","Freezing Drizzle,Snow"
"-115.14","67.82","KUGLUKTUK A","2300903","2020-10-10 23:00","2020","10","10","23:00","-0.1","","-0.2","","100","","","","4","","7","","3.2","","99.79","","","","-3","","Freezing Drizzle,Snow"
"-115.14","67.82","KUGLUKTUK A","2300903","2020-10-11 00:00","2020","10","11","00:00","-0.1","","-0.2","","100","","","","4","","9","","2.8","","99.78","","","","-3","","Snow"
"-115.14","67.82","KUGLUKTUK A","2300903","2020-10-11 01:00","2020","10","11","01:00","-0.2","","-0.3","","100","","","","6","","8","","2.8","","99.78","","","","-3","","Snow"
"-115.14","67.82","KUGLUKTUK A","2300903","2020-10-11 02:00","2020","10","11","02:00","-0.2","","-0.3","","99","","","","7","","11","","3.2","","99.79","","","","-4","","Snow"
"-115.14","67.82","KUGLUKTUK A","2300903","2020-10-11 03:00","2020","10","11","03:00","-0.3","","-0.4","","100","","","","8","","7","","1.2","","99.80","","","","-3","","Snow"
"-115.14","67.82","KUGLUKTUK A","2300903","2020-10-11 04:00","2020","10","11","04:00","-0.5","","-0.6","","99","","","","9","","8","","3.6","","99.82","","","","-3","","Snow"
"-115.14","67.82","KUGLUKTUK A","2300903","2020-10-11 05:00","2020","10","11","05:00","-0.5","","-0.6","","100","","","","6","","6","","1.6","","99.80","","","","-3","","Snow"
"-115.14","67.82","KUGLUKTUK A","2300903","2020-10-11 06:00","2020","10","11","06:00","-0.6","","-0.7","","100","","","","13","","6","","2.4","","99.82","","","","-3","","Snow"
"-115.14","67.82","KUGLUKTUK A","2300903","2020-10-11 07:00","2020","10","11","07:00","-0.9","","-0.9","","100","","","","15","","4","","2.4","","99.84","","","","-2","","Snow"
"-115.14","67.82","KUGLUKTUK A","2300903","2020-10-11 08:00","2020","10","11","08:00","-1.0","","-1.0","","100","","","","0","","1","","3.6","","99.86","","","","-1","","Snow,Fog"
"-115.14","67.82","KUGLUKTUK A","2300903","2020-10-11 09:00","2020","10","11","09:00","-0.8","","-0.8","","100","","","","36","","2","","3.6","","99.88","","","","-1","","Snow,Fog"
"-115.14","67.82","KUGLUKTUK A","2300903","2020-10-11 10:00","2020","10","11","10:00","-0.5","","-0.6","","99","","","","27","","5","","6.4","","99.91","","","","-2","","Snow,Fog"
"-115.14","67.82","KUGLUKTUK A","2300903","2020-10-11 11:00","2020","10","11","11:00","-0.2","","-0.4","","99","","","","30","","7","","6.4","","99.92","","","","-3","","Snow,Fog"
"-115.14","67.82","KUGLUKTUK A","2300903","2020-10-11 12:00","2020","10","11","12:00","0.0","","-0.2","","99","","","","35","","13","","16.1","","99.97","","","","-4","","Snow"
"-115.14","67.82","KUGLUKTUK A","2300903","2020-10-11 13:00","2020","10","11","13:00","-0.1","","-0.8","","95","","","","35","","15","","24.1","","100.01","","","","-5","","NA"
"-115.14","67.82","KUGLUKTUK A","2300903","2020-10-11 14:00","2020","10","11","14:00","-0.5","","-1.4","","94","","","","34","","19","","16.1","","100.06","","","","-6","","Snow"
"-115.14","67.82","KUGLUKTUK A","2300903","2020-10-11 15:00","2020","10","11","15:00","-0.8","","-1.5","","95","","","","34","","19","","4.8","","100.09","","","","-6","","Snow,Fog"
"-115.14","67.82","KUGLUKTUK A","2300903","2020-10-11 16:00","2020","10","11","16:00","-0.8","","-1.4","","96","","","","32","","16","","4.8","","100.12","","","","-6","","Snow,Fog"
"-115.14","67.82","KUGLUKTUK A","2300903","2020-10-11 17:00","2020","10","11","17:00","-1.2","","-1.5","","98","","","","28","","12","","4.8","","100.15","","","","-5","","Snow,Fog"
"-115.14","67.82","KUGLUKTUK A","2300903","2020-10-11 18:00","2020","10","11","18:00","-1.7","","-2.2","","97","","","","26","","16","","6.4","","100.20","","","","-7","","Snow,Fog"
"-115.14","67.82","KUGLUKTUK A","2300903","2020-10-11 19:00","2020","10","11","19:00","-2.1","","-2.4","","97","","","","26","","13","","2.0","","100.22","","","","-7","","Snow"
"-115.14","67.82","KUGLUKTUK A","2300903","2020-10-11 20:00","2020","10","11","20:00","-2.2","","-2.5","","98","","","","27","","14","","1.6","","100.23","","","","-7","","Snow"
"-115.14","67.82","KUGLUKTUK A","2300903","2020-10-11 21:00","2020","10","11","21:00","-2.5","","-3.0","","97","","","","26","","16","","2.8","","100.25","","","","-8","","Snow"
"-115.14","67.82","KUGLUKTUK A","2300903","2020-10-11 22:00","2020","10","11","22:00","-3.5","","-4.1","","96","","","","26","","21","","3.2","","100.26","","","","-10","","Freezing Drizzle,Snow"
"-115.14","67.82","KUGLUKTUK A","2300903","2020-10-11 23:00","2020","10","11","23:00","-3.5","","-4.1","","96","","","","26","","18","","6.4","","100.28","","","","-9","","Snow Grains"
"-115.14","67.82","KUGLUKTUK A","2300903","2020-10-12 00:00","2020","10","12","00:00","-4.0","","-4.6","","96","","","","26","","20","","3.2","","100.32","","","","-10","","Snow,Snow Grains"
"-115.14","67.82","KUGLUKTUK A","2300903","2020-10-12 01:00","2020","10","12","01:00","-4.9","","-5.7","","95","","","","25","","20","","2.8","","100.35","","","","-11","","Snow,Snow Grains"
"-115.14","67.82","KUGLUKTUK A","2300903","2020-10-12 02:00","2020","10","12","02:00","-5.2","","-6.0","","94","","","","25","","22","","4.8","","100.37","","","","-12","","Snow,Snow Grains,Blowing Snow"
"-115.14","67.82","KUGLUKTUK A","2300903","2020-10-12 03:00","2020","10","12","03:00","-6.2","","-7.2","","92","","","","25","","21","","2.4","","100.39","","","","-13","","Snow,Blowing Snow"
"-115.14","67.82","KUGLUKTUK A","2300903","2020-10-12 04:00","2020","10","12","04:00","-6.3","","-7.4","","92","","","","26","","25","","3.2","","100.39","","","","-14","","Snow"
"-115.14","67.82","KUGLUKTUK A","2300903","2020-10-12 05:00","2020","10","12","05:00","-6.1","","-7.2","","92","","","","23","","23","","12.9","","100.43","","","","-13","","Snow Grains"
"-115.14","67.82","KUGLUKTUK A","2300903","2020-10-12 06:00","2020","10","12","06:00","-7.3","","-8.2","","93","","","","24","","22","","16.1","","100.48","","","","-15","","Snow Grains"
"-115.14","67.82","KUGLUKTUK A","2300903","2020-10-12 07:00","2020","10","12","07:00","-6.2","","-6.8","","96","","","","26","","27","","24.1","","100.50","","","","-14","","NA"
"-115.14","67.82","KUGLUKTUK A","2300903","2020-10-12 08:00","2020","10","12","08:00","-6.4","","-7.0","","96","","","","24","","23","","24.1","","100.51","","","","-14","","Cloudy"
"-115.14","67.82","KUGLUKTUK A","2300903","2020-10-12 09:00","2020","10","12","09:00","-5.7","","-6.3","","95","","","","24","","25","","24.1","","100.54","","","","-13","","NA"
"-115.14","67.82","KUGLUKTUK A","2300903","2020-10-12 10:00","2020","10","12","10:00","-4.7","","-5.4","","95","","","","26","","25","","16.1","","100.57","","","","-12","","NA"
"-115.14","67.82","KUGLUKTUK A","2300903","2020-10-12 11:00","2020","10","12","11:00","-4.2","","-4.9","","95","","","","26","","24","","24.1","","100.60","","","","-11","","Cloudy"
"-115.14","67.82","KUGLUKTUK A","2300903","2020-10-12 12:00","2020","10","12","12:00","-2.9","","-3.4","","96","","","","28","","23","","9.7","","100.60","","","","-9","","Fog"
"-115.14","67.82","KUGLUKTUK A","2300903","2020-10-12 13:00","2020","10","12","13:00","-2.8","","-3.4","","95","","","","28","","22","","6.4","","100.63","","","","-9","","Snow Grains"
"-115.14","67.82","KUGLUKTUK A","2300903","2020-10-12 14:00","2020","10","12","14:00","-2.5","","-3.6","","92","","","","29","","17","","16.1","","100.69","","","","-8","","Cloudy"
"-115.14","67.82","KUGLUKTUK A","2300903","2020-10-12 15:00","2020","10","12","15:00","-3.1","","-5.0","","87","","","","29","","16","","24.1","","100.72","","","","-8","","NA"
"-115.14","67.82","KUGLUKTUK A","2300903","2020-10-12 16:00","2020","10","12","16:00","-3.5","","-5.2","","88","","","","29","","16","","24.1","","100.78","","","","-9","","NA"
"-115.14","67.82","KUGLUKTUK A","2300903","2020-10-12 17:00","2020","10","12","17:00","-4.2","","-6.3","","85","","","","30","","19","","24.1","","100.81","","","","-10","","Cloudy"
"-115.14","67.82","KUGLUKTUK A","2300903","2020-10-12 18:00","2020","10","12","18:00","-4.8","","-7.0","","85","","","","28","","19","","24.1","","100.85","","","","-11","","NA"
"-115.14","67.82","KUGLUKTUK A","2300903","2020-10-12 19:00","2020","10","12","19:00","-5.5","","-8.4","","80","","","","28","","31","","24.1","","100.86","","","","-14","","Snow"
"-115.14","67.82","KUGLUKTUK A","2300903","2020-10-12 20:00","2020","10","12","20:00","-8.1","","-10.3","","85","","","","27","","29","","24.1","","100.87","","","","-17","","Snow"
"-115.14","67.82","KUGLUKTUK A","2300903","2020-10-12 21:00","2020","10","12","21:00","-10.0","","-11.9","","86","","","","26","","28","","24.1","","100.89","","","","-19","","NA"
"-115.14","67.82","KUGLUKTUK A","2300903","2020-10-12 22:00","2020","10","12","22:00","-9.9","","-12.1","","84","","","","26","","27","","24.1","","100.90","","","","-19","","NA"
"-115.14","67.82","KUGLUKTUK A","2300903","2020-10-12 23:00","2020","10","12","23:00","-6.9","","-9.9","","80","","","","28","","26","","24.1","","100.90","","","","-15","","Mostly Cloudy"
"-115.14","67.82","KUGLUKTUK A","2300903","2020-10-13 00:00","2020","10","13","00:00","-5.0","","-8.6","","76","","","","32","","46","","16.1","","100.87","","","","-15","","Blowing Snow"
"-115.14","67.82","KUGLUKTUK A","2300903","2020-10-13 01:00","2020","10","13","01:00","-8.7","","-11.5","","80","","","","28","","19","","24.1","","100.93","","","","-16","","NA"
"-115.14","67.82","KUGLUKTUK A","2300903","2020-10-13 02:00","2020","10","13","02:00","-10.1","","-12.4","","83","","","","26","","30","","24.1","","100.94","","","","-20","","Clear"
"-115.14","67.82","KUGLUKTUK A","2300903","2020-10-13 03:00","2020","10","13","03:00","-10.5","","-12.4","","86","","","","27","","31","","24.1","","100.92","","","","-20","","NA"
"-115.14","67.82","KUGLUKTUK A","2300903","2020-10-13 04:00","2020","10","13","04:00","-11.4","","-13.5","","85","","","","27","","33","","24.1","","100.88","","","","-22","","NA"
"-115.14","67.82","KUGLUKTUK A","2300903","2020-10-13 05:00","2020","10","13","05:00","-11.4","","-13.5","","84","","","","26","","35","","24.1","","100.82","","","","-22","","Clear"
"-115.14","67.82","KUGLUKTUK A","2300903","2020-10-13 06:00","2020","10","13","06:00","-11.9","","-14.1","","84","","","","26","","30","","24.1","","100.84","","","","-22","","NA"
"-115.14","67.82","KUGLUKTUK A","2300903","2020-10-13 07:00","2020","10","13","07:00","-11.7","","-13.7","","85","","","","27","","35","","24.1","","100.80","","","","-22","","NA"
"-115.14","67.82","KUGLUKTUK A","2300903","2020-10-13 08:00","2020","10","13","08:00","-11.1","","-13.2","","85","","","","27","","32","","24.1","","100.75","","","","-21","","Mostly Cloudy"
"-115.14","67.82","KUGLUKTUK A","2300903","2020-10-13 09:00","2020","10","13","09:00","-9.4","","-11.5","","85","","","","27","","32","","24.1","","100.71","","","","-19","","NA"
"-115.14","67.82","KUGLUKTUK A","2300903","2020-10-13 10:00","2020","10","13","10:00","-7.9","","-10.2","","84","","","","26","","33","","24.1","","100.64","","","","-17","","NA"
"-115.14","67.82","KUGLUKTUK A","2300903","2020-10-13 11:00","2020","10","13","11:00","-6.7","","-9.2","","83","","","","28","","27","","24.1","","100.63","","","","-15","","Cloudy"
"-115.14","67.82","KUGLUKTUK A","2300903","2020-10-13 12:00","2020","10","13","12:00","-4.3","","-6.7","","84","","","","30","","27","","24.1","","100.57","","","","-12","","Snow"
"-115.14","67.82","KUGLUKTUK A","2300903","2020-10-13 13:00","2020","10","13","13:00","-3.7","","-6.5","","81","","","","31","","40","","24.1","","100.53","","","","-12","","NA"
"-115.14","67.82","KUGLUKTUK A","2300903","2020-10-13 14:00","2020","10","13","14:00","-3.5","","-6.6","","80","","","","31","","43","","19.3","","100.60","","","","-12","","Cloudy"
"-115.14","67.82","KUGLUKTUK A","2300903","2020-10-13 15:00","2020","10","13","15:00","-3.5","","-6.6","","79","","","","32","","49","","19.3","","100.54","","","","-13","","NA"
"-115.14","67.82","KUGLUKTUK A","2300903","2020-10-13 16:00","2020","10","13","16:00","-3.4","","-6.4","","80","","","","33","","49","","19.3","","100.52","","","","-13","","NA"
"-115.14","67.82","KUGLUKTUK A","2300903","2020-10-13 17:00","2020","10","13","17:00","-3.5","","-6.6","","79","","","","32","","46","","19.3","","100.54","","","","-13","","Snow,Blowing Snow"
"-115.14","67.82","KUGLUKTUK A","2300903","2020-10-13 18:00","2020","10","13","18:00","-3.6","","-5.9","","84","","","","32","","45","","19.3","","100.51","","","","-13","","Snow,Blowing Snow"
"-115.14","67.82","KUGLUKTUK A","2300903","2020-10-13 19:00","2020","10","13","19:00","-3.6","","-5.4","","88","","","","33","","36","","16.1","","100.52","","","","-12","","Snow,Blowing Snow"
"-115.14","67.82","KUGLUKTUK A","2300903","2020-10-13 20:00","2020","10","13","20:00","-3.8","","-6.2","","84","","","","32","","45","","16.1","","100.50","","","","-13","","Snow Grains,Blowing Snow"
"-115.14","67.82","KUGLUKTUK A","2300903","2020-10-13 21:00","2020","10","13","21:00","-3.9","","-6.3","","84","","","","33","","48","","16.1","","100.48","","","","-13","","Snow Grains,Blowing Snow"
"-115.14","67.82","KUGLUKTUK A","2300903","2020-10-13 22:00","2020","10","13","22:00","-4.1","","-6.2","","85","","","","32","","48","","12.9","","100.44","","","","-14","","Snow Grains,Blowing Snow"
"-115.14","67.82","KUGLUKTUK A","2300903","2020-10-13 23:00","2020","10","13","23:00","-4.3","","-6.6","","84","","","","32","","48","","16.1","","100.42","","","","-14","","Snow Grains,Blowing Snow"
"-115.14","67.82","KUGLUKTUK A","2300903","2020-10-14 00:00","2020","10","14","00:00","-4.4","","-6.3","","87","","","","32","","47","","16.1","","100.39","","","","-14","","Snow Grains,Blowing Snow"
"-115.14","67.82","KUGLUKTUK A","2300903","2020-10-14 01:00","2020","10","14","01:00","-4.4","","-6.1","","87","","","","32","","61","","16.1","","100.31","","","","-15","","Snow Grains,Blowing Snow"
"-115.14","67.82","KUGLUKTUK A","2300903","2020-10-14 02:00","2020","10","14","02:00","-4.1","","-5.8","","88","","","","33","","62","","8.1","","100.29","","","","-15","","Snow Grains,Blowing Snow"
"-115.14","67.82","KUGLUKTUK A","2300903","2020-10-14 03:00","2020","10","14","03:00","-4.2","","-6.0","","87","","","","32","","69","","2.8","","100.24","","","","-15","","Snow Grains,Blowing Snow"
"-115.14","67.82","KUGLUKTUK A","2300903","2020-10-14 04:00","2020","10","14","04:00","-4.0","","-5.5","","89","","","","34","","70","","2.4","","100.24","","","","-15","","Snow Grains,Blowing Snow"
"-115.14","67.82","KUGLUKTUK A","2300903","2020-10-14 05:00","2020","10","14","05:00","-4.0","","-5.2","","91","","","","33","","74","","1.6","","100.21","","","","-15","","Snow Grains,Blowing Snow"
"-115.14","67.82","KUGLUKTUK A","2300903","2020-10-14 06:00","2020","10","14","06:00","-4.2","","-5.6","","90","","","","33","","83","","1.2","","100.13","","","","-16","","Snow Grains,Blowing Snow"
"-115.14","67.82","KUGLUKTUK A","2300903","2020-10-14 07:00","2020","10","14","07:00","-3.9","","-5.4","","89","","","","33","","73","","3.2","","100.10","","","","-15","","Blowing Snow"
"-115.14","67.82","KUGLUKTUK A","2300903","2020-10-14 08:00","2020","10","14","08:00","-3.9","","-5.5","","89","","","","33","","70","","4.8","","100.13","","","","-15","","Blowing Snow"
"-115.14","67.82","KUGLUKTUK A","2300903","2020-10-14 09:00","2020","10","14","09:00","-4.0","","-5.8","","87","","","","32","","79","","2.4","","100.12","","","","-15","","Snow,Blowing Snow"
"-115.14","67.82","KUGLUKTUK A","2300903","2020-10-14 10:00","2020","10","14","10:00","-3.8","","-5.2","","90","","","","32","","68","","1.2","","100.11","","","","-15","","Snow,Blowing Snow"
"-115.14","67.82","KUGLUKTUK A","2300903","2020-10-14 11:00","2020","10","14","11:00","-3.6","","-4.4","","94","","","","33","","58","","0.4","","100.11","","","","-14","","Snow,Blowing Snow"
"-115.14","67.82","KUGLUKTUK A","2300903","2020-10-14 12:00","2020","10","14","12:00","-3.8","","-5.0","","91","","","","34","","62","","1.2","","100.10","","","","-14","","Snow,Blowing Snow"
"-115.14","67.82","KUGLUKTUK A","2300903","2020-10-14 13:00","2020","10","14","13:00","-3.8","","-5.3","","90","","","","34","","62","","2.0","","100.16","","","","-14","","Snow,Blowing Snow"
"-115.14","67.82","KUGLUKTUK A","2300903","2020-10-14 14:00","2020","10","14","14:00","-4.0","","-6.0","","87","","","","34","","73","","6.4","","100.14","","","","-15","","Snow,Blowing Snow"
"-115.14","67.82","KUGLUKTUK A","2300903","2020-10-14 15:00","2020","10","14","15:00","-3.9","","-5.6","","88","","","","34","","63","","9.7","","100.17","","","","-14","","Snow,Blowing Snow"
"-115.14","67.82","KUGLUKTUK A","2300903","2020-10-14 16:00","2020","10","14","16:00","-3.8","","-5.7","","87","","","","34","","69","","9.7","","100.21","","","","-15","","Snow,Blowing Snow"
"-115.14","67.82","KUGLUKTUK A","2300903","2020-10-14 17:00","2020","10","14","17:00","-3.8","","-5.4","","89","","","","34","","58","","4.8","","100.28","","","","-14","","Snow,Blowing Snow"
"-115.14","67.82","KUGLUKTUK A","2300903","2020-10-14 18:00","2020","10","14","18:00","-3.7","","-5.4","","88","","","","33","","58","","3.2","","100.34","","","","-14","","Snow,Blowing Snow"
"-115.14","67.82","KUGLUKTUK A","2300903","2020-10-14 19:00","2020","10","14","19:00","-3.9","","-5.8","","87","","","","34","","64","","3.2","","100.38","","","","-14","","Snow,Blowing Snow"
"-115.14","67.82","KUGLUKTUK A","2300903","2020-10-14 20:00","2020","10","14","20:00","-4.0","","-5.8","","88","","","","33","","62","","2.4","","100.44","","","","-14","","Snow,Blowing Snow"
"-115.14","67.82","KUGLUKTUK A","2300903","2020-10-14 21:00","2020","10","14","21:00","-4.2","","-5.9","","88","","","","34","","62","","2.4","","100.46","","","","-15","","Snow,Blowing Snow"
"-115.14","67.82","KUGLUKTUK A","2300903","2020-10-14 22:00","2020","10","14","22:00","-4.0","","-5.4","","90","","","","33","","58","","1.0","","100.50","","","","-14","","Snow,Blowing Snow"
"-115.14","67.82","KUGLUKTUK A","2300903","2020-10-14 23:00","2020","10","14","23:00","-3.9","","-5.6","","88","","","","33","","58","","3.2","","100.56","","","","-14","","Snow,Blowing Snow"
"-115.14","67.82","KUGLUKTUK A","2300903","2020-10-15 00:00","2020","10","15","00:00","-3.8","","-4.9","","92","","","","33","","60","","2.4","","100.60","","","","-14","","Snow,Blowing Snow"
"-115.14","67.82","KUGLUKTUK A","2300903","2020-10-15 01:00","2020","10","15","01:00","-3.5","","-4.8","","91","","","","33","","55","","2.4","","100.67","","","","-13","","Snow,Blowing Snow"
"-115.14","67.82","KUGLUKTUK A","2300903","2020-10-15 02:00","2020","10","15","02:00","-3.2","","-4.5","","91","","","","33","","56","","1.2","","100.71","","","","-13","","Snow,Blowing Snow"
"-115.14","67.82","KUGLUKTUK A","2300903","2020-10-15 03:00","2020","10","15","03:00","-3.0","","-4.5","","90","","","","34","","64","","3.2","","100.74","","","","-13","","Snow,Blowing Snow"
"-115.14","67.82","KUGLUKTUK A","2300903","2020-10-15 04:00","2020","10","15","04:00","-2.7","","-4.0","","90","","","","34","","61","","2.4","","100.79","","","","-13","","Snow,Blowing Snow"
"-115.14","67.82","KUGLUKTUK A","2300903","2020-10-15 05:00","2020","10","15","05:00","-2.4","","-4.1","","88","","","","34","","62","","2.4","","100.84","","","","-12","","Snow,Blowing Snow"
"-115.14","67.82","KUGLUKTUK A","2300903","2020-10-15 06:00","2020","10","15","06:00","-2.4","","-4.0","","89","","","","34","","61","","16.1","","100.88","","","","-12","","Blowing Snow"
"-115.14","67.82","KUGLUKTUK A","2300903","2020-10-15 07:00","2020","10","15","07:00","-2.4","","-3.8","","90","","","","34","","63","","4.8","","100.93","","","","-12","","Snow,Blowing Snow"
"-115.14","67.82","KUGLUKTUK A","2300903","2020-10-15 08:00","2020","10","15","08:00","-2.1","","-3.8","","88","","","","34","","62","","9.7","","100.96","","","","-12","","Snow,Blowing Snow"
"-115.14","67.82","KUGLUKTUK A","2300903","2020-10-15 09:00","2020","10","15","09:00","-1.9","","-3.6","","88","","","","34","","60","","12.9","","101.02","","","","-11","","Snow,Blowing Snow"
"-115.14","67.82","KUGLUKTUK A","2300903","2020-10-15 10:00","2020","10","15","10:00","-1.9","","-3.3","","90","","","","33","","55","","2.4","","101.06","","","","-11","","Snow,Blowing Snow"
"-115.14","67.82","KUGLUKTUK A","2300903","2020-10-15 11:00","2020","10","15","11:00","-1.8","","-2.9","","93","","","","34","","53","","2.0","","101.10","","","","-11","","Snow,Blowing Snow"
"-115.14","67.82","KUGLUKTUK A","2300903","2020-10-15 12:00","2020","10","15","12:00","-1.5","","-2.7","","91","","","","34","","47","","12.9","","101.17","","","","-10","","Snow,Blowing Snow"
"-115.14","67.82","KUGLUKTUK A","2300903","2020-10-15 13:00","2020","10","15","13:00","-1.4","","-2.3","","94","","","","34","","44","","2.0","","101.22","","","","-10","","Snow,Blowing Snow"
"-115.14","67.82","KUGLUKTUK A","2300903","2020-10-15 14:00","2020","10","15","14:00","-1.2","","-2.7","","90","","","","34","","50","","8.1","","101.26","","","","-10","","Snow,Blowing Snow"
"-115.14","67.82","KUGLUKTUK A","2300903","2020-10-15 15:00","2020","10","15","15:00","-1.4","","-2.8","","90","","","","34","","46","","6.4","","101.30","","","","-10","","Snow,Blowing Snow"
"-115.14","67.82","KUGLUKTUK A","2300903","2020-10-15 16:00","2020","10","15","16:00","-1.7","","-2.8","","92","","","","34","","42","","3.2","","101.32","","","","-10","","Snow,Blowing Snow"
"-115.14","67.82","KUGLUKTUK A","2300903","2020-10-15 17:00","2020","10","15","17:00","-1.9","","-3.4","","90","","","","34","","50","","3.2","","101.33","","","","-11","","Snow,Blowing Snow"
"-115.14","67.82","KUGLUKTUK A","2300903","2020-10-15 18:00","2020","10","15","18:00","-2.1","","-3.6","","89","","","","35","","36","","4.8","","101.35","","","","-10","","Snow,Blowing Snow"
"-115.14","67.82","KUGLUKTUK A","2300903","2020-10-15 19:00","2020","10","15","19:00","-2.4","","-3.7","","91","","","","34","","46","","4.8","","101.35","","","","-11","","Snow,Blowing Snow"
"-115.14","67.82","KUGLUKTUK A","2300903","2020-10-15 20:00","2020","10","15","20:00","-2.6","","-4.1","","90","","","","34","","46","","2.4","","101.33","","","","-11","","Snow,Blowing Snow"
"-115.14","67.82","KUGLUKTUK A","2300903","2020-10-15 21:00","2020","10","15","21:00","-2.6","","-3.6","","93","","","","33","","24","","2.0","","101.32","","","","-9","","Snow,Blowing Snow"
"-115.14","67.82","KUGLUKTUK A","2300903","2020-10-15 22:00","2020","10","15","22:00","-2.5","","-3.6","","92","","","","33","","25","","2.4","","101.30","","","","-9","","Snow,Blowing Snow"
"-115.14","67.82","KUGLUKTUK A","2300903","2020-10-15 23:00","2020","10","15","23:00","-2.5","","-4.0","","89","","","","33","","37","","2.4","","101.26","","","","-10","","Snow,Blowing Snow"
"-115.14","67.82","KUGLUKTUK A","2300903","2020-10-16 00:00","2020","10","16","00:00","-2.6","","-3.9","","91","","","","33","","38","","2.4","","101.24","","","","-11","","Snow,Blowing Snow"
"-115.14","67.82","KUGLUKTUK A","2300903","2020-10-16 01:00","2020","10","16","01:00","-3.2","","-4.2","","92","","","","34","","30","","1.6","","101.21","","","","-11","","Snow,Blowing Snow"
"-115.14","67.82","KUGLUKTUK A","2300903","2020-10-16 02:00","2020","10","16","02:00","-3.1","","-5.2","","86","","","","33","","34","","4.8","","101.20","","","","-11","","Snow,Blowing Snow"
"-115.14","67.82","KUGLUKTUK A","2300903","2020-10-16 03:00","2020","10","16","03:00","-3.3","","-5.1","","88","","","","33","","35","","6.4","","101.18","","","","-11","","Snow,Blowing Snow"
"-115.14","67.82","KUGLUKTUK A","2300903","2020-10-16 04:00","2020","10","16","04:00","-3.4","","-4.6","","91","","","","34","","29","","12.9","","101.17","","","","-11","","Snow,Blowing Snow"
"-115.14","67.82","KUGLUKTUK A","2300903","2020-10-16 05:00","2020","10","16","05:00","-4.0","","-4.7","","95","","","","33","","28","","16.1","","101.16","","","","-11","","Snow Grains"
"-115.14","67.82","KUGLUKTUK A","2300903","2020-10-16 06:00","2020","10","16","06:00","-4.4","","-5.0","","95","","","","35","","24","","6.4","","101.19","","","","-11","","Freezing Drizzle"
"-115.14","67.82","KUGLUKTUK A","2300903","2020-10-16 07:00","2020","10","16","07:00","-4.1","","-5.9","","87","","","","34","","39","","16.1","","101.21","","","","-13","","NA"
"-115.14","67.82","KUGLUKTUK A","2300903","2020-10-16 08:00","2020","10","16","08:00","-4.2","","-6.5","","85","","","","34","","37","","16.1","","101.23","","","","-13","","Cloudy"
"-115.14","67.82","KUGLUKTUK A","2300903","2020-10-16 09:00","2020","10","16","09:00","-4.3","","-6.3","","86","","","","34","","35","","12.9","","101.27","","","","-13","","NA"
"-115.14","67.82","KUGLUKTUK A","2300903","2020-10-16 10:00","2020","10","16","10:00","-4.7","","-6.9","","85","","","","34","","42","","19.3","","101.28","","","","-14","","Blowing Snow"
"-115.14","67.82","KUGLUKTUK A","2300903","2020-10-16 11:00","2020","10","16","11:00","-5.2","","-6.5","","90","","","","34","","34","","6.4","","101.32","","","","-14","","Freezing Drizzle,Fog"
"-115.14","67.82","KUGLUKTUK A","2300903","2020-10-16 12:00","2020","10","16","12:00","-5.3","","-6.5","","92","","","","34","","34","","6.4","","101.37","","","","-14","","Freezing Drizzle,Fog"
"-115.14","67.82","KUGLUKTUK A","2300903","2020-10-16 13:00","2020","10","16","13:00","-5.2","","-6.9","","88","","","","34","","31","","2.4","","101.41","","","","-13","","Snow,Fog,Blowing Snow"
"-115.14","67.82","KUGLUKTUK A","2300903","2020-10-16 14:00","2020","10","16","14:00","-4.7","","-7.0","","84","","","","34","","34","","8.1","","101.45","","","","-13","","Snow,Fog,Blowing Snow"
"-115.14","67.82","KUGLUKTUK A","2300903","2020-10-16 15:00","2020","10","16","15:00","-4.1","","-6.0","","87","","","","33","","36","","6.4","","101.51","","","","-12","","Snow,Fog,Blowing Snow"
"-115.14","67.82","KUGLUKTUK A","2300903","2020-10-16 16:00","2020","10","16","16:00","-4.2","","-5.8","","88","","","","33","","31","","2.0","","101.56","","","","-12","","Snow,Fog,Blowing Snow"
"-115.14","67.82","KUGLUKTUK A","2300903","2020-10-16 17:00","2020","10","16","17:00","-4.3","","-6.0","","88","","","","33","","28","","2.4","","101.59","","","","-12","","Snow,Fog,Blowing Snow"
"-115.14","67.82","KUGLUKTUK A","2300903","2020-10-16 18:00","2020","10","16","18:00","-4.3","","-6.2","","87","","","","32","","33","","6.4","","101.66","","","","-12","","Snow,Fog,Blowing Snow"
"-115.14","67.82","KUGLUKTUK A","2300903","2020-10-16 19:00","2020","10","16","19:00","-4.3","","-6.1","","88","","","","33","","26","","6.4","","101.69","","","","-12","","Snow,Fog,Blowing Snow"
"-115.14","67.82","KUGLUKTUK A","2300903","2020-10-16 20:00","2020","10","16","20:00","-4.1","","-5.9","","87","","","","33","","27","","12.9","","101.72","","","","-11","","Snow,Blowing Snow"
"-115.14","67.82","KUGLUKTUK A","2300903","2020-10-16 21:00","2020","10","16","21:00","-4.0","","-6.0","","86","","","","33","","30","","16.1","","101.75","","","","-12","","NA"
"-115.14","67.82","KUGLUKTUK A","2300903","2020-10-16 22:00","2020","10","16","22:00","-3.6","","-6.2","","82","","","","33","","36","","16.1","","101.78","","","","-12","","Snow,Blowing Snow"
"-115.14","67.82","KUGLUKTUK A","2300903","2020-10-16 23:00","2020","10","16","23:00","-3.7","","-6.0","","84","","","","34","","36","","12.9","","101.83","","","","-12","","Snow,Blowing Snow"
"-115.14","67.82","KUGLUKTUK A","2300903","2020-10-17 00:00","2020","10","17","00:00","-3.5","","-6.1","","82","","","","33","","32","","16.1","","101.89","","","","-11","","Snow,Blowing Snow"
"-115.14","67.82","KUGLUKTUK A","2300903","2020-10-17 01:00","2020","10","17","01:00","-3.6","","-5.8","","85","","","","32","","30","","16.1","","101.93","","","","-11","","Snow,Blowing Snow"
"-115.14","67.82","KUGLUKTUK A","2300903","2020-10-17 02:00","2020","10","17","02:00","-3.5","","-5.9","","83","","","","32","","34","","16.1","","102.00","","","","-11","","Snow,Blowing Snow"
"-115.14","67.82","KUGLUKTUK A","2300903","2020-10-17 03:00","2020","10","17","03:00","-3.6","","-5.6","","86","","","","33","","36","","16.1","","102.04","","","","-12","","Snow,Blowing Snow"
"-115.14","67.82","KUGLUKTUK A","2300903","2020-10-17 04:00","2020","10","17","04:00","-3.6","","-5.9","","84","","","","32","","31","","16.1","","102.09","","","","-11","","Snow,Blowing Snow"
"-115.14","67.82","KUGLUKTUK A","2300903","2020-10-17 05:00","2020","10","17","05:00","-3.8","","-6.4","","82","","","","33","","32","","16.1","","102.13","","","","-12","","Snow,Blowing Snow"
"-115.14","67.82","KUGLUKTUK A","2300903","2020-10-17 06:00","2020","10","17","06:00","-3.9","","-6.7","","81","","","","32","","37","","16.1","","102.16","","","","-12","","Snow,Blowing Snow"
"-115.14","67.82","KUGLUKTUK A","2300903","2020-10-17 07:00","2020","10","17","07:00","-4.1","","-6.2","","85","","","","32","","32","","19.3","","102.20","","","","-12","","Snow,Blowing Snow"
"-115.14","67.82","KUGLUKTUK A","2300903","2020-10-17 08:00","2020","10","17","08:00","-4.0","","-6.3","","84","","","","31","","28","","19.3","","102.24","","","","-11","","Snow,Blowing Snow"
"-115.14","67.82","KUGLUKTUK A","2300903","2020-10-17 09:00","2020","10","17","09:00","-5.4","","-7.5","","85","","","","26","","22","","24.1","","102.26","","","","-12","","Snow"
"-115.14","67.82","KUGLUKTUK A","2300903","2020-10-17 10:00","2020","10","17","10:00","-5.7","","-7.6","","87","","","","28","","26","","24.1","","102.28","","","","-13","","NA"
"-115.14","67.82","KUGLUKTUK A","2300903","2020-10-17 11:00","2020","10","17","11:00","-5.9","","-7.7","","87","","","","27","","19","","24.1","","102.33","","","","-13","","Mostly Cloudy"
"-115.14","67.82","KUGLUKTUK A","2300903","2020-10-17 12:00","2020","10","17","12:00","-4.7","","-7.3","","82","","","","29","","22","","24.1","","102.37","","","","-12","","NA"
"-115.14","67.82","KUGLUKTUK A","2300903","2020-10-17 13:00","2020","10","17","13:00","-4.5","","-7.0","","83","","","","29","","21","","24.1","","102.38","","","","-11","","NA"
"-115.14","67.82","KUGLUKTUK A","2300903","2020-10-17 14:00","2020","10","17","14:00","-4.2","","-6.8","","82","","","","31","","32","","19.3","","102.41","","","","-12","","Snow,Blowing Snow"
"-115.14","67.82","KUGLUKTUK A","2300903","2020-10-17 15:00","2020","10","17","15:00","-5.6","","-8.1","","83","","","","28","","20","","16.1","","102.42","","","","-12","","NA"
"-115.14","67.82","KUGLUKTUK A","2300903","2020-10-17 16:00","2020","10","17","16:00","-5.2","","-7.8","","82","","","","29","","22","","19.3","","102.45","","","","-12","","Snow"
"-115.14","67.82","KUGLUKTUK A","2300903","2020-10-17 17:00","2020","10","17","17:00","-5.6","","-7.5","","87","","","","28","","22","","3.2","","102.50","","","","-13","","Snow"
"-115.14","67.82","KUGLUKTUK A","2300903","2020-10-17 18:00","2020","10","17","18:00","-6.8","","-9.4","","82","","","","25","","18","","12.9","","102.50","","","","-13","","Snow"
"-115.14","67.82","KUGLUKTUK A","2300903","2020-10-17 19:00","2020","10","17","19:00","-6.8","","-9.5","","82","","","","27","","23","","12.9","","102.49","","","","-14","","Snow"
"-115.14","67.82","KUGLUKTUK A","2300903","2020-10-17 20:00","2020","10","17","20:00","-6.7","","-9.8","","79","","","","27","","28","","12.9","","102.47","","","","-15","","Snow"
"-115.14","67.82","KUGLUKTUK A","2300903","2020-10-17 21:00","2020","10","17","21:00","-8.0","","-10.8","","80","","","","26","","29","","12.9","","102.46","","","","-17","","Snow"
"-115.14","67.82","KUGLUKTUK A","2300903","2020-10-17 22:00","2020","10","17","22:00","-9.0","","-11.7","","81","","","","26","","25","","16.1","","102.46","","","","-17","","Snow"
"-115.14","67.82","KUGLUKTUK A","2300903","2020-10-17 23:00","2020","10","17","23:00","-9.4","","-12.4","","79","","","","26","","31","","16.1","","102.48","","","","-19","","Snow"
"-115.14","67.82","KUGLUKTUK A","2300903","2020-10-18 00:00","2020","10","18","00:00","-9.7","","-12.7","","79","","","","26","","30","","16.1","","102.47","","","","-19","","Snow"
"-115.14","67.82","KUGLUKTUK A","2300903","2020-10-18 01:00","2020","10","18","01:00","-12.8","","-15.4","","81","","","","24","","28","","24.1","","102.47","","","","-23","","NA"
"-115.14","67.82","KUGLUKTUK A","2300903","2020-10-18 02:00","2020","10","18","02:00","-13.3","","-15.7","","83","","","","22","","26","","19.3","","102.49","","","","-23","","Snow"
"-115.14","67.82","KUGLUKTUK A","2300903","2020-10-18 03:00","2020","10","18","03:00","-13.7","","-16.0","","83","","","","22","","24","","24.1","","102.45","","","","-23","","NA"
"-115.14","67.82","KUGLUKTUK A","2300903","2020-10-18 04:00","2020","10","18","04:00","-14.3","","-16.5","","84","","","","23","","29","","16.1","","102.44","","","","-25","","Snow"
"-115.14","67.82","KUGLUKTUK A","2300903","2020-10-18 05:00","2020","10","18","05:00","-13.9","","-16.0","","85","","","","23","","25","","24.1","","102.41","","","","-24","","Clear"
"-115.14","67.82","KUGLUKTUK A","2300903","2020-10-18 06:00","2020","10","18","06:00","-15.2","","-16.8","","88","","","","22","","22","","24.1","","102.39","","","","-25","","NA"
"-115.14","67.82","KUGLUKTUK A","2300903","2020-10-18 07:00","2020","10","18","07:00","-15.7","","-17.2","","88","","","","21","","16","","12.9","","102.35","","","","-24","","NA"
"-115.14","67.82","KUGLUKTUK A","2300903","2020-10-18 08:00","2020","10","18","08:00","-15.2","","-16.7","","89","","","","22","","21","","24.1","","102.31","","","","-25","","Mainly Clear"
"-115.14","67.82","KUGLUKTUK A","2300903","2020-10-18 09:00","2020","10","18","09:00","-15.2","","-16.7","","88","","","","21","","15","","24.1","","102.24","","","","-23","","NA"
"-115.14","67.82","KUGLUKTUK A","2300903","2020-10-18 10:00","2020","10","18","10:00","-13.8","","-15.7","","86","","","","22","","19","","24.1","","102.19","","","","-22","","NA"
"-115.14","67.82","KUGLUKTUK A","2300903","2020-10-18 11:00","2020","10","18","11:00","-11.8","","-13.8","","85","","","","23","","14","","24.1","","102.13","","","","-19","","Mostly Cloudy"
"-115.14","67.82","KUGLUKTUK A","2300903","2020-10-18 12:00","2020","10","18","12:00","-10.8","","-13.0","","84","","","","27","","10","","24.1","","102.10","","","","-16","","Snow"
"-115.14","67.82","KUGLUKTUK A","2300903","2020-10-18 13:00","2020","10","18","13:00","-12.4","","-14.0","","88","","","","26","","16","","24.1","","102.06","","","","-20","","NA"
"-115.14","67.82","KUGLUKTUK A","2300903","2020-10-18 14:00","2020","10","18","14:00","-12.8","","-15.3","","82","","","","22","","17","","24.1","","101.98","","","","-21","","Mostly Cloudy"
"-115.14","67.82","KUGLUKTUK A","2300903","2020-10-18 15:00","2020","10","18","15:00","-10.9","","-12.7","","87","","","","23","","14","","24.1","","101.90","","","","-18","","NA"
"-115.14","67.82","KUGLUKTUK A","2300903","2020-10-18 16:00","2020","10","18","16:00","-12.2","","-13.6","","89","","","","24","","18","","24.1","","101.85","","","","-20","","NA"
"-115.14","67.82","KUGLUKTUK A","2300903","2020-10-18 17:00","2020","10","18","17:00","-14.6","","-16.1","","88","","","","23","","22","","24.1","","101.79","","","","-24","","Mainly Clear"
"-115.14","67.82","KUGLUKTUK A","2300903","2020-10-18 18:00","2020","10","18","18:00","-13.0","","-14.7","","87","","","","24","","21","","24.1","","101.72","","","","-22","","NA"
"-115.14","67.82","KUGLUKTUK A","2300903","2020-10-18 19:00","2020","10","18","19:00","-12.5","","-14.1","","88","","","","24","","24","","24.1","","101.65","","","","-22","","NA"
"-115.14","67.82","KUGLUKTUK A","2300903","2020-10-18 20:00","2020","10","18","20:00","-11.3","","-12.9","","88","","","","24","","14","","24.1","","101.59","","","","-18","","Cloudy"
"-115.14","67.82","KUGLUKTUK A","2300903","2020-10-18 21:00","2020","10","18","21:00","-11.1","","-13.0","","86","","","","23","","19","","24.1","","101.53","","","","-19","","NA"
"-115.14","67.82","KUGLUKTUK A","2300903","2020-10-18 22:00","2020","10","18","22:00","-10.1","","-11.7","","88","","","","22","","14","","24.1","","101.47","","","","-17","","NA"
"-115.14","67.82","KUGLUKTUK A","2300903","2020-10-18 23:00","2020","10","18","23:00","-9.7","","-10.7","","93","","","","21","","16","","24.1","","101.43","","","","-17","","Cloudy"
"-115.14","67.82","KUGLUKTUK A","2300903","2020-10-19 00:00","2020","10","19","00:00","-10.6","","-11.3","","95","","","","21","","13","","24.1","","101.37","","","","-17","","NA"
"-115.14","67.82","KUGLUKTUK A","2300903","2020-10-19 01:00","2020","10","19","01:00","-9.1","","-9.7","","96","","","","21","","10","","9.7","","101.34","","","","-14","","Snow Grains"
"-115.14","67.82","KUGLUKTUK A","2300903","2020-10-19 02:00","2020","10","19","02:00","-8.2","","-8.8","","96","","","","20","","8","","12.9","","101.28","","","","-12","","Snow Grains"
"-115.14","67.82","KUGLUKTUK A","2300903","2020-10-19 03:00","2020","10","19","03:00","-7.2","","-8.4","","91","","","","23","","12","","19.3","","101.23","","","","-13","","NA"
"-115.14","67.82","KUGLUKTUK A","2300903","2020-10-19 04:00","2020","10","19","04:00","-9.3","","-10.1","","94","","","","28","","11","","24.1","","101.20","","","","-15","","NA"
"-115.14","67.82","KUGLUKTUK A","2300903","2020-10-19 05:00","2020","10","19","05:00","-8.8","","-9.6","","94","","","","25","","13","","24.1","","101.18","","","","-15","","Cloudy"
"-115.14","67.82","KUGLUKTUK A","2300903","2020-10-19 06:00","2020","10","19","06:00","-9.0","","-9.7","","95","","","","21","","11","","16.1","","101.14","","","","-14","","Snow Grains"
"-115.14","67.82","KUGLUKTUK A","2300903","2020-10-19 07:00","2020","10","19","07:00","-7.4","","-8.6","","92","","","","22","","17","","12.9","","101.10","","","","-14","","Freezing Drizzle"
"-115.14","67.82","KUGLUKTUK A","2300903","2020-10-19 08:00","2020","10","19","08:00","-7.0","","-8.1","","92","","","","22","","23","","24.1","","101.08","","","","-15","","Cloudy"
"-115.14","67.82","KUGLUKTUK A","2300903","2020-10-19 09:00","2020","10","19","09:00","-8.2","","-9.1","","93","","","","27","","13","","24.1","","101.07","","","","-14","","NA"
"-115.14","67.82","KUGLUKTUK A","2300903","2020-10-19 10:00","2020","10","19","10:00","-9.8","","-10.5","","95","","","","27","","17","","24.1","","101.06","","","","-17","","NA"
"-115.14","67.82","KUGLUKTUK A","2300903","2020-10-19 11:00","2020","10","19","11:00","-10.7","","-11.4","","94","","","","25","","17","","24.1","","101.05","","","","-18","","Mainly Clear"
"-115.14","67.82","KUGLUKTUK A","2300903","2020-10-19 12:00","2020","10","19","12:00","-10.7","","-11.8","","92","","","","27","","21","","24.1","","101.06","","","","-19","","NA"
"-115.14","67.82","KUGLUKTUK A","2300903","2020-10-19 13:00","2020","10","19","13:00","-11.1","","-12.2","","91","","","","24","","21","","24.1","","101.05","","","","-19","","NA"
"-115.14","67.82","KUGLUKTUK A","2300903","2020-10-19 14:00","2020","10","19","14:00","-10.2","","-12.1","","86","","","","24","","20","","24.1","","101.07","","","","-18","","Mostly Cloudy"
"-115.14","67.82","KUGLUKTUK A","2300903","2020-10-19 15:00","2020","10","19","15:00","-11.9","","-13.3","","89","","","","23","","23","","24.1","","101.08","","","","-21","","NA"
"-115.14","67.82","KUGLUKTUK A","2300903","2020-10-19 16:00","2020","10","19","16:00","-13.6","","-15.3","","87","","","","23","","22","","24.1","","101.09","","","","-23","","NA"
"-115.14","67.82","KUGLUKTUK A","2300903","2020-10-19 17:00","2020","10","19","17:00","-13.8","","-15.5","","87","","","","23","","23","","24.1","","101.08","","","","-23","","Mostly Cloudy"
"-115.14","67.82","KUGLUKTUK A","2300903","2020-10-19 18:00","2020","10","19","18:00","-13.5","","-15.1","","88","","","","23","","21","","24.1","","101.10","","","","-22","","NA"
"-115.14","67.82","KUGLUKTUK A","2300903","2020-10-19 19:00","2020","10","19","19:00","-12.6","","-14.4","","86","","","","23","","22","","24.1","","101.11","","","","-22","","NA"
"-115.14","67.82","KUGLUKTUK A","2300903","2020-10-19 20:00","2020","10","19","20:00","-11.5","","-13.3","","86","","","","23","","17","","24.1","","101.12","","","","-19","","Cloudy"
"-115.14","67.82","KUGLUKTUK A","2300903","2020-10-19 21:00","2020","10","19","21:00","-10.9","","-13.0","","85","","","","24","","23","","24.1","","101.12","","","","-20","","NA"
"-115.14","67.82","KUGLUKTUK A","2300903","2020-10-19 22:00","2020","10","19","22:00","-11.0","","-12.9","","86","","","","24","","18","","24.1","","101.14","","","","-19","","NA"
"-115.14","67.82","KUGLUKTUK A","2300903","2020-10-19 23:00","2020","10","19","23:00","-10.9","","-12.8","","86","","","","22","","19","","24.1","","101.17","","","","-19","","Cloudy"
"-115.14","67.82","KUGLUKTUK A","2300903","2020-10-20 00:00","2020","10","20","00:00","-10.2","","-12.2","","86","","","","24","","25","","24.1","","101.17","","","","-19","","NA"
"-115.14","67.82","KUGLUKTUK A","2300903","2020-10-20 01:00","2020","10","20","01:00","-9.9","","-11.8","","86","","","","23","","24","","9.7","","101.18","","","","-18","","Snow"
"-115.14","67.82","KUGLUKTUK A","2300903","2020-10-20 02:00","2020","10","20","02:00","-9.6","","-11.4","","86","","","","24","","22","","12.9","","101.21","","","","-18","","Snow"
"-115.14","67.82","KUGLUKTUK A","2300903","2020-10-20 03:00","2020","10","20","03:00","-9.3","","-11.4","","85","","","","23","","22","","12.9","","101.24","","","","-17","","Snow"
"-115.14","67.82","KUGLUKTUK A","2300903","2020-10-20 04:00","2020","10","20","04:00","-9.3","","-11.5","","84","","","","23","","26","","9.7","","101.26","","","","-18","","Snow"
"-115.14","67.82","KUGLUKTUK A","2300903","2020-10-20 05:00","2020","10","20","05:00","-9.4","","-11.7","","84","","","","23","","28","","12.9","","101.29","","","","-18","","Snow,Blowing Snow"
"-115.14","67.82","KUGLUKTUK A","2300903","2020-10-20 06:00","2020","10","20","06:00","-9.7","","-11.9","","84","","","","24","","27","","12.9","","101.31","","","","-19","","Snow"
"-115.14","67.82","KUGLUKTUK A","2300903","2020-10-20 07:00","2020","10","20","07:00","-9.7","","-11.7","","86","","","","24","","28","","4.8","","101.31","","","","-19","","Snow,Blowing Snow"
"-115.14","67.82","KUGLUKTUK A","2300903","2020-10-20 08:00","2020","10","20","08:00","-9.6","","-11.3","","87","","","","24","","25","","12.9","","101.35","","","","-18","","Snow,Blowing Snow"
"-115.14","67.82","KUGLUKTUK A","2300903","2020-10-20 09:00","2020","10","20","09:00","-9.0","","-10.8","","87","","","","24","","25","","12.9","","101.37","","","","-17","","Snow,Blowing Snow"
"-115.14","67.82","KUGLUKTUK A","2300903","2020-10-20 10:00","2020","10","20","10:00","-8.4","","-10.2","","87","","","","25","","27","","24.1","","101.39","","","","-17","","Snow,Blowing Snow"
"-115.14","67.82","KUGLUKTUK A","2300903","2020-10-20 11:00","2020","10","20","11:00","-8.0","","-10.0","","85","","","","25","","26","","24.1","","101.42","","","","-16","","Cloudy"
"-115.14","67.82","KUGLUKTUK A","2300903","2020-10-20 12:00","2020","10","20","12:00","-7.9","","-10.7","","81","","","","26","","29","","24.1","","101.46","","","","-17","","NA"
"-115.14","67.82","KUGLUKTUK A","2300903","2020-10-20 13:00","2020","10","20","13:00","-8.4","","-11.5","","79","","","","26","","31","","24.1","","101.49","","","","-18","","NA"
"-115.14","67.82","KUGLUKTUK A","2300903","2020-10-20 14:00","2020","10","20","14:00","-8.7","","-11.6","","80","","","","24","","31","","24.1","","101.52","","","","-18","","Cloudy"
"-115.14","67.82","KUGLUKTUK A","2300903","2020-10-20 15:00","2020","10","20","15:00","-9.0","","-11.8","","80","","","","24","","31","","24.1","","101.55","","","","-18","","NA"
"-115.14","67.82","KUGLUKTUK A","2300903","2020-10-20 16:00","2020","10","20","16:00","-8.8","","-11.6","","80","","","","25","","33","","24.1","","101.59","","","","-18","","NA"
"-115.14","67.82","KUGLUKTUK A","2300903","2020-10-20 17:00","2020","10","20","17:00","-8.8","","-11.3","","82","","","","25","","30","","24.1","","101.62","","","","-18","","Cloudy"
"-115.14","67.82","KUGLUKTUK A","2300903","2020-10-20 18:00","2020","10","20","18:00","-8.3","","-10.8","","83","","","","26","","33","","24.1","","101.64","","","","-18","","NA"
"-115.14","67.82","KUGLUKTUK A","2300903","2020-10-20 19:00","2020","10","20","19:00","-7.8","","-10.1","","84","","","","26","","28","","24.1","","101.69","","","","-16","","NA"
"-115.14","67.82","KUGLUKTUK A","2300903","2020-10-20 20:00","2020","10","20","20:00","-6.9","","-9.1","","85","","","","27","","27","","24.1","","101.72","","","","-15","","Cloudy"
"-115.14","67.82","KUGLUKTUK A","2300903","2020-10-20 21:00","2020","10","20","21:00","-6.8","","-8.9","","85","","","","26","","25","","24.1","","101.74","","","","-15","","NA"
"-115.14","67.82","KUGLUKTUK A","2300903","2020-10-20 22:00","2020","10","20","22:00","-6.2","","-8.2","","85","","","","27","","25","","16.1","","101.78","","","","-14","","Snow"
"-115.14","67.82","KUGLUKTUK A","2300903","2020-10-20 23:00","2020","10","20","23:00","-5.6","","-7.5","","87","","","","27","","23","","16.1","","101.80","","","","-13","","Snow"
"-115.14","67.82","KUGLUKTUK A","2300903","2020-10-21 00:00","2020","10","21","00:00","-6.3","","-8.2","","87","","","","26","","30","","24.1","","101.83","","","","-15","","NA"
"-115.14","67.82","KUGLUKTUK A","2300903","2020-10-21 01:00","2020","10","21","01:00","-6.8","","-8.3","","89","","","","26","","30","","24.1","","101.87","","","","-15","","NA"
"-115.14","67.82","KUGLUKTUK A","2300903","2020-10-21 02:00","2020","10","21","02:00","-6.4","","-8.1","","88","","","","26","","31","","16.1","","101.90","","","","-15","","Snow"
"-115.14","67.82","KUGLUKTUK A","2300903","2020-10-21 03:00","2020","10","21","03:00","-6.6","","-8.5","","86","","","","26","","31","","12.9","","101.94","","","","-15","","Snow,Blowing Snow"
"-115.14","67.82","KUGLUKTUK A","2300903","2020-10-21 04:00","2020","10","21","04:00","-6.2","","-8.0","","87","","","","26","","33","","12.9","","101.94","","","","-15","","Snow,Blowing Snow"
"-115.14","67.82","KUGLUKTUK A","2300903","2020-10-21 05:00","2020","10","21","05:00","-6.2","","-7.8","","89","","","","25","","33","","12.9","","101.96","","","","-15","","Snow,Blowing Snow"
"-115.14","67.82","KUGLUKTUK A","2300903","2020-10-21 06:00","2020","10","21","06:00","-6.0","","-7.3","","90","","","","26","","30","","12.9","","101.98","","","","-14","","Snow,Blowing Snow"
"-115.14","67.82","KUGLUKTUK A","2300903","2020-10-21 07:00","2020","10","21","07:00","-5.3","","-6.5","","91","","","","26","","28","","12.9","","102.01","","","","-13","","Snow,Blowing Snow"
"-115.14","67.82","KUGLUKTUK A","2300903","2020-10-21 08:00","2020","10","21","08:00","-4.3","","-5.6","","91","","","","26","","19","","16.1","","102.04","","","","-10","","Snow"
"-115.14","67.82","KUGLUKTUK A","2300903","2020-10-21 09:00","2020","10","21","09:00","-2.4","","-4.3","","87","","","","30","","26","","6.4","","102.07","","","","-9","","Snow,Blowing Snow"
"-115.14","67.82","KUGLUKTUK A","2300903","2020-10-21 10:00","2020","10","21","10:00","-2.6","","-4.8","","85","","","","32","","37","","6.4","","102.12","","","","-11","","Snow,Blowing Snow"
"-115.14","67.82","KUGLUKTUK A","2300903","2020-10-21 11:00","2020","10","21","11:00","-2.6","","-5.3","","81","","","","32","","36","","12.9","","102.17","","","","-10","","Snow,Blowing Snow"
"-115.14","67.82","KUGLUKTUK A","2300903","2020-10-21 12:00","2020","10","21","12:00","-2.9","","-4.9","","86","","","","34","","41","","24.1","","102.21","","","","-11","","Snow,Blowing Snow"
"-115.14","67.82","KUGLUKTUK A","2300903","2020-10-21 13:00","2020","10","21","13:00","-3.0","","-5.2","","85","","","","34","","43","","24.1","","102.29","","","","-12","","Snow,Blowing Snow"
"-115.14","67.82","KUGLUKTUK A","2300903","2020-10-21 14:00","2020","10","21","14:00","-3.6","","-6.5","","80","","","","34","","45","","24.1","","102.38","","","","-13","","Blowing Snow"
"-115.14","67.82","KUGLUKTUK A","2300903","2020-10-21 15:00","2020","10","21","15:00","-3.8","","-6.7","","81","","","","34","","31","","24.1","","102.48","","","","-12","","Blowing Snow"
"-115.14","67.82","KUGLUKTUK A","2300903","2020-10-21 16:00","2020","10","21","16:00","-4.1","","-6.9","","81","","","","34","","38","","24.1","","102.54","","","","-13","","Blowing Snow"
"-115.14","67.82","KUGLUKTUK A","2300903","2020-10-21 17:00","2020","10","21","17:00","-4.1","","-7.2","","79","","","","34","","42","","19.3","","102.59","","","","-13","","Snow,Blowing Snow"
"-115.14","67.82","KUGLUKTUK A","2300903","2020-10-21 18:00","2020","10","21","18:00","-4.7","","-7.1","","83","","","","34","","42","","16.1","","102.65","","","","-14","","Blowing Snow"
"-115.14","67.82","KUGLUKTUK A","2300903","2020-10-21 19:00","2020","10","21","19:00","-4.5","","-6.4","","87","","","","35","","42","","16.1","","102.71","","","","-14","","Snow Grains,Blowing Snow"
"-115.14","67.82","KUGLUKTUK A","2300903","2020-10-21 20:00","2020","10","21","20:00","-3.6","","-6.0","","84","","","","35","","31","","16.1","","102.72","","","","-11","","Snow Grains,Blowing Snow"
"-115.14","67.82","KUGLUKTUK A","2300903","2020-10-21 21:00","2020","10","21","21:00","-3.6","","-5.7","","86","","","","31","","16","","19.3","","102.72","","","","-9","","Snow"
"-115.14","67.82","KUGLUKTUK A","2300903","2020-10-21 22:00","2020","10","21","22:00","-3.1","","-4.7","","89","","","","33","","19","","19.3","","102.69","","","","-9","","Snow"
"-115.14","67.82","KUGLUKTUK A","2300903","2020-10-21 23:00","2020","10","21","23:00","-4.1","","-5.0","","93","","","","26","","21","","12.9","","102.68","","","","-11","","Snow"
"-115.14","67.82","KUGLUKTUK A","2300903","2020-10-22 00:00","2020","10","22","00:00","-3.2","","-4.6","","90","","","","31","","28","","16.1","","102.67","","","","-10","","Snow,Blowing Snow"
"-115.14","67.82","KUGLUKTUK A","2300903","2020-10-22 01:00","2020","10","22","01:00","-2.5","","-4.3","","87","","","","33","","39","","16.1","","102.69","","","","-11","","Snow,Blowing Snow"
"-115.14","67.82","KUGLUKTUK A","2300903","2020-10-22 02:00","2020","10","22","02:00","-2.7","","-5.6","","80","","","","34","","32","","12.9","","102.71","","","","-10","","Snow,Blowing Snow"
"-115.14","67.82","KUGLUKTUK A","2300903","2020-10-22 03:00","2020","10","22","03:00","-3.0","","-5.8","","81","","","","32","","27","","24.1","","102.75","","","","-10","","NA"
"-115.14","67.82","KUGLUKTUK A","2300903","2020-10-22 04:00","2020","10","22","04:00","-3.0","","-4.7","","88","","","","33","","31","","24.1","","102.75","","","","-11","","NA"
"-115.14","67.82","KUGLUKTUK A","2300903","2020-10-22 05:00","2020","10","22","05:00","-3.3","","-5.4","","85","","","","32","","42","","24.1","","102.76","","","","-12","","Blowing Snow"
"-115.14","67.82","KUGLUKTUK A","2300903","2020-10-22 06:00","2020","10","22","06:00","-3.4","","-5.3","","87","","","","33","","42","","24.1","","102.77","","","","-12","","Blowing Snow"
"-115.14","67.82","KUGLUKTUK A","2300903","2020-10-22 07:00","2020","10","22","07:00","-3.4","","-5.3","","86","","","","33","","40","","16.1","","102.79","","","","-12","","Snow,Blowing Snow"
"-115.14","67.82","KUGLUKTUK A","2300903","2020-10-22 08:00","2020","10","22","08:00","-3.7","","-5.2","","89","","","","34","","40","","6.4","","102.79","","","","-12","","Snow,Blowing Snow"
"-115.14","67.82","KUGLUKTUK A","2300903","2020-10-22 09:00","2020","10","22","09:00","-3.7","","-5.6","","87","","","","33","","38","","12.9","","102.78","","","","-12","","Snow,Blowing Snow"
"-115.14","67.82","KUGLUKTUK A","2300903","2020-10-22 10:00","2020","10","22","10:00","-4.1","","-6.2","","85","","","","30","","25","","16.1","","102.84","","","","-11","","Snow,Blowing Snow"
"-115.14","67.82","KUGLUKTUK A","2300903","2020-10-22 11:00","2020","10","22","11:00","-4.9","","-6.9","","86","","","","27","","23","","3.6","","102.87","","","","-12","","Snow,Blowing Snow"
"-115.14","67.82","KUGLUKTUK A","2300903","2020-10-22 12:00","2020","10","22","12:00","-6.1","","-8.8","","82","","","","25","","23","","24.1","","102.88","","","","-13","","Snow,Blowing Snow"
"-115.14","67.82","KUGLUKTUK A","2300903","2020-10-22 13:00","2020","10","22","13:00","-6.9","","-9.7","","80","","","","25","","25","","24.1","","102.89","","","","-15","","NA"
"-115.14","67.82","KUGLUKTUK A","2300903","2020-10-22 14:00","2020","10","22","14:00","-6.5","","-9.8","","78","","","","26","","30","","24.1","","102.89","","","","-15","","Blowing Snow"
"-115.14","67.82","KUGLUKTUK A","2300903","2020-10-22 15:00","2020","10","22","15:00","-7.2","","-10.4","","78","","","","25","","30","","24.1","","102.88","","","","-16","","NA"
"-115.14","67.82","KUGLUKTUK A","2300903","2020-10-22 16:00","2020","10","22","16:00","-8.3","","-11.1","","80","","","","24","","22","","24.1","","102.87","","","","-16","","NA"
"-115.14","67.82","KUGLUKTUK A","2300903","2020-10-22 17:00","2020","10","22","17:00","-9.4","","-12.0","","81","","","","22","","22","","24.1","","102.85","","","","-17","","Mostly Cloudy"
"-115.14","67.82","KUGLUKTUK A","2300903","2020-10-22 18:00","2020","10","22","18:00","-10.8","","-13.5","","81","","","","23","","23","","24.1","","102.81","","","","-19","","NA"
"-115.14","67.82","KUGLUKTUK A","2300903","2020-10-22 19:00","2020","10","22","19:00","-11.2","","-13.8","","82","","","","23","","27","","24.1","","102.77","","","","-21","","NA"
"-115.14","67.82","KUGLUKTUK A","2300903","2020-10-22 20:00","2020","10","22","20:00","-11.8","","-14.3","","81","","","","22","","24","","24.1","","102.75","","","","-21","","Clear"
"-115.14","67.82","KUGLUKTUK A","2300903","2020-10-22 21:00","2020","10","22","21:00","-11.1","","-13.8","","81","","","","23","","31","","24.1","","102.70","","","","-21","","NA"
"-115.14","67.82","KUGLUKTUK A","2300903","2020-10-22 22:00","2020","10","22","22:00","-11.8","","-14.1","","83","","","","24","","28","","24.1","","102.66","","","","-22","","NA"
"-115.14","67.82","KUGLUKTUK A","2300903","2020-10-22 23:00","2020","10","22","23:00","-11.4","","-13.9","","82","","","","24","","25","","24.1","","102.60","","","","-21","","Mainly Clear"
"-115.14","67.82","KUGLUKTUK A","2300903","2020-10-23 00:00","2020","10","23","00:00","-10.6","","-12.6","","85","","","","24","","26","","24.1","","102.55","","","","-20","","NA"
"-115.14","67.82","KUGLUKTUK A","2300903","2020-10-23 01:00","2020","10","23","01:00","-10.3","","-12.4","","85","","","","23","","28","","24.1","","102.51","","","","-20","","NA"
"-115.14","67.82","KUGLUKTUK A","2300903","2020-10-23 02:00","2020","10","23","02:00","-11.1","","-12.9","","86","","","","24","","19","","24.1","","102.45","","","","-19","","Clear"
"-115.14","67.82","KUGLUKTUK A","2300903","2020-10-23 03:00","2020","10","23","03:00","-8.6","","-10.6","","86","","","","23","","28","","24.1","","102.34","","","","-17","","NA"
"-115.14","67.82","KUGLUKTUK A","2300903","2020-10-23 04:00","2020","10","23","04:00","-8.3","","-11.0","","81","","","","24","","32","","24.1","","102.25","","","","-18","","Blowing Snow"
"-115.14","67.82","KUGLUKTUK A","2300903","2020-10-23 05:00","2020","10","23","05:00","-8.7","","-11.6","","79","","","","24","","26","","24.1","","102.22","","","","-17","","Mainly Clear"
"-115.14","67.82","KUGLUKTUK A","2300903","2020-10-23 06:00","2020","10","23","06:00","-7.7","","-11.1","","77","","","","24","","32","","24.1","","102.12","","","","-17","","NA"
"-115.14","67.82","KUGLUKTUK A","2300903","2020-10-23 07:00","2020","10","23","07:00","-6.1","","-9.0","","80","","","","24","","28","","24.1","","102.04","","","","-14","","Blowing Snow"
"-115.14","67.82","KUGLUKTUK A","2300903","2020-10-23 08:00","2020","10","23","08:00","-6.3","","-8.4","","86","","","","25","","39","","24.1","","101.99","","","","-16","","Blowing Snow"
"-115.14","67.82","KUGLUKTUK A","2300903","2020-10-23 09:00","2020","10","23","09:00","-5.8","","-7.4","","88","","","","25","","40","","24.1","","101.96","","","","-15","","Blowing Snow"
"-115.14","67.82","KUGLUKTUK A","2300903","2020-10-23 10:00","2020","10","23","10:00","-5.0","","-6.6","","88","","","","27","","35","","24.1","","101.97","","","","-14","","Blowing Snow"
"-115.14","67.82","KUGLUKTUK A","2300903","2020-10-23 11:00","2020","10","23","11:00","-5.1","","-7.8","","82","","","","27","","33","","24.1","","101.97","","","","-13","","Blowing Snow"
"-115.14","67.82","KUGLUKTUK A","2300903","2020-10-23 12:00","2020","10","23","12:00","-4.5","","-7.5","","80","","","","26","","26","","24.1","","102.00","","","","-12","","NA"
"-115.14","67.82","KUGLUKTUK A","2300903","2020-10-23 13:00","2020","10","23","13:00","-4.6","","-8.1","","77","","","","26","","31","","24.1","","102.00","","","","-13","","NA"
"-115.14","67.82","KUGLUKTUK A","2300903","2020-10-23 14:00","2020","10","23","14:00","-4.6","","-8.9","","72","","","","25","","31","","24.1","","102.01","","","","-13","","Mainly Clear"
"-115.14","67.82","KUGLUKTUK A","2300903","2020-10-23 15:00","2020","10","23","15:00","-4.9","","-8.9","","74","","","","25","","36","","24.1","","101.99","","","","-14","","NA"
"-115.14","67.82","KUGLUKTUK A","2300903","2020-10-23 16:00","2020","10","23","16:00","-5.5","","-8.6","","79","","","","27","","34","","24.1","","101.96","","","","-14","","NA"
"-115.14","67.82","KUGLUKTUK A","2300903","2020-10-23 17:00","2020","10","23","17:00","-5.3","","-8.9","","76","","","","26","","38","","24.1","","101.93","","","","-14","","Cloudy"
"-115.14","67.82","KUGLUKTUK A","2300903","2020-10-23 18:00","2020","10","23","18:00","-5.5","","-9.0","","76","","","","27","","39","","24.1","","101.88","","","","-15","","Snow,Blowing Snow"
"-115.14","67.82","KUGLUKTUK A","2300903","2020-10-23 19:00","2020","10","23","19:00","-5.7","","-9.0","","77","","","","26","","39","","24.1","","101.86","","","","-15","","Snow,Blowing Snow"
"-115.14","67.82","KUGLUKTUK A","2300903","2020-10-23 20:00","2020","10","23","20:00","-5.6","","-8.6","","80","","","","26","","38","","16.1","","101.82","","","","-15","","Snow,Blowing Snow"
"-115.14","67.82","KUGLUKTUK A","2300903","2020-10-23 21:00","2020","10","23","21:00","-5.4","","-7.8","","83","","","","27","","37","","16.1","","101.81","","","","-14","","Snow,Blowing Snow"
"-115.14","67.82","KUGLUKTUK A","2300903","2020-10-23 22:00","2020","10","23","22:00","-4.1","","-6.2","","86","","","","29","","42","","19.3","","101.79","","","","-13","","Snow,Blowing Snow"
"-115.14","67.82","KUGLUKTUK A","2300903","2020-10-23 23:00","2020","10","23","23:00","-3.4","","-5.3","","87","","","","31","","56","","4.8","","101.77","","","","-13","","Snow,Blowing Snow"
"-115.14","67.82","KUGLUKTUK A","2300903","2020-10-24 00:00","2020","10","24","00:00","-3.5","","-5.8","","84","","","","32","","59","","6.4","","101.84","","","","-14","","Snow,Blowing Snow"
"-115.14","67.82","KUGLUKTUK A","2300903","2020-10-24 01:00","2020","10","24","01:00","-3.8","","-6.0","","85","","","","31","","49","","9.7","","101.94","","","","-13","","Snow,Blowing Snow"
"-115.14","67.82","KUGLUKTUK A","2300903","2020-10-24 02:00","2020","10","24","02:00","-4.0","","-6.3","","84","","","","31","","48","","9.7","","101.98","","","","-13","","Snow,Blowing Snow"
"-115.14","67.82","KUGLUKTUK A","2300903","2020-10-24 03:00","2020","10","24","03:00","-4.2","","-6.5","","85","","","","30","","40","","16.1","","102.06","","","","-13","","Snow,Blowing Snow"
"-115.14","67.82","KUGLUKTUK A","2300903","2020-10-24 04:00","2020","10","24","04:00","-3.6","","-5.9","","84","","","","32","","42","","12.9","","102.11","","","","-12","","Snow,Blowing Snow"
"-115.14","67.82","KUGLUKTUK A","2300903","2020-10-24 05:00","2020","10","24","05:00","-3.7","","-5.8","","85","","","","32","","52","","12.9","","102.09","","","","-13","","Snow,Blowing Snow"
"-115.14","67.82","KUGLUKTUK A","2300903","2020-10-24 06:00","2020","10","24","06:00","-3.6","","-5.8","","85","","","","32","","51","","12.9","","102.13","","","","-13","","Snow,Blowing Snow"
"-115.14","67.82","KUGLUKTUK A","2300903","2020-10-24 07:00","2020","10","24","07:00","-3.5","","-6.5","","80","","","","33","","49","","12.9","","102.15","","","","-13","","Snow,Blowing Snow"
"-115.14","67.82","KUGLUKTUK A","2300903","2020-10-24 08:00","2020","10","24","08:00","-3.5","","-7.3","","75","","","","32","","40","","24.1","","102.23","","","","-12","","Snow,Blowing Snow"
"-115.14","67.82","KUGLUKTUK A","2300903","2020-10-24 09:00","2020","10","24","09:00","-4.3","","-7.5","","78","","","","29","","25","","24.1","","102.27","","","","-11","","Snow,Blowing Snow"
"-115.14","67.82","KUGLUKTUK A","2300903","2020-10-24 10:00","2020","10","24","10:00","-5.1","","-7.2","","85","","","","27","","22","","24.1","","102.27","","","","-12","","NA"
"-115.14","67.82","KUGLUKTUK A","2300903","2020-10-24 11:00","2020","10","24","11:00","-5.2","","-7.8","","82","","","","27","","28","","24.1","","102.26","","","","-13","","Cloudy"
"-115.14","67.82","KUGLUKTUK A","2300903","2020-10-24 12:00","2020","10","24","12:00","-5.2","","-8.0","","81","","","","27","","20","","24.1","","102.25","","","","-12","","NA"
"-115.14","67.82","KUGLUKTUK A","2300903","2020-10-24 13:00","2020","10","24","13:00","-6.0","","-9.1","","79","","","","25","","34","","24.1","","102.25","","","","-15","","NA"
"-115.14","67.82","KUGLUKTUK A","2300903","2020-10-24 14:00","2020","10","24","14:00","-6.5","","-10.2","","75","","","","26","","30","","24.1","","102.23","","","","-15","","Mostly Cloudy"
"-115.14","67.82","KUGLUKTUK A","2300903","2020-10-24 15:00","2020","10","24","15:00","-8.0","","-10.8","","80","","","","23","","15","","24.1","","102.24","","","","-14","","NA"
"-115.14","67.82","KUGLUKTUK A","2300903","2020-10-24 16:00","2020","10","24","16:00","-9.6","","-12.5","","80","","","","23","","16","","24.1","","102.19","","","","-16","","NA"
"-115.14","67.82","KUGLUKTUK A","2300903","2020-10-24 17:00","2020","10","24","17:00","-9.5","","-12.5","","79","","","","23","","20","","24.1","","102.11","","","","-17","","Clear"
"-115.14","67.82","KUGLUKTUK A","2300903","2020-10-24 18:00","2020","10","24","18:00","-9.7","","-12.8","","78","","","","22","","21","","24.1","","102.00","","","","-18","","NA"
"-115.14","67.82","KUGLUKTUK A","2300903","2020-10-24 19:00","2020","10","24","19:00","-7.8","","-10.7","","80","","","","23","","25","","24.1","","101.87","","","","-16","","NA"
"-115.14","67.82","KUGLUKTUK A","2300903","2020-10-24 20:00","2020","10","24","20:00","-8.1","","-10.6","","82","","","","23","","26","","24.1","","101.79","","","","-16","","Mainly Clear"
"-115.14","67.82","KUGLUKTUK A","2300903","2020-10-24 21:00","2020","10","24","21:00","-8.1","","-10.6","","82","","","","21","","26","","24.1","","101.69","","","","-16","","NA"
"-115.14","67.82","KUGLUKTUK A","2300903","2020-10-24 22:00","2020","10","24","22:00","-6.9","","-10.1","","78","","","","21","","32","","24.1","","101.60","","","","-16","","NA"
"-115.14","67.82","KUGLUKTUK A","2300903","2020-10-24 23:00","2020","10","24","23:00","-6.8","","-9.2","","83","","","","22","","29","","24.1","","101.47","","","","-15","","Clear"
"-115.14","67.82","KUGLUKTUK A","2300903","2020-10-25 00:00","2020","10","25","00:00","-5.6","","-7.5","","87","","","","21","","30","","24.1","","101.36","","","","-14","","NA"
"-115.14","67.82","KUGLUKTUK A","2300903","2020-10-25 01:00","2020","10","25","01:00","-4.7","","-6.9","","84","","","","21","","33","","24.1","","101.28","","","","-13","","NA"
"-115.14","67.82","KUGLUKTUK A","2300903","2020-10-25 02:00","2020","10","25","02:00","-4.5","","-7.0","","83","","","","21","","32","","24.1","","101.19","","","","-13","","Mainly Clear"
"-115.14","67.82","KUGLUKTUK A","2300903","2020-10-25 03:00","2020","10","25","03:00","-5.2","","-7.6","","83","","","","22","","25","","24.1","","101.14","","","","-13","","NA"
"-115.14","67.82","KUGLUKTUK A","2300903","2020-10-25 04:00","2020","10","25","04:00","-5.5","","-7.9","","84","","","","22","","23","","24.1","","101.04","","","","-13","","NA"
"-115.14","67.82","KUGLUKTUK A","2300903","2020-10-25 05:00","2020","10","25","05:00","-5.5","","-7.8","","83","","","","21","","45","","24.1","","100.84","","","","-15","","Mainly Clear"
"-115.14","67.82","KUGLUKTUK A","2300903","2020-10-25 06:00","2020","10","25","06:00","-5.2","","-7.6","","83","","","","21","","40","","24.1","","100.74","","","","-14","","NA"
"-115.14","67.82","KUGLUKTUK A","2300903","2020-10-25 07:00","2020","10","25","07:00","-3.9","","-6.5","","82","","","","21","","37","","24.1","","100.58","","","","-12","","Blowing Snow"
"-115.14","67.82","KUGLUKTUK A","2300903","2020-10-25 08:00","2020","10","25","08:00","-3.4","","-5.6","","85","","","","23","","37","","24.1","","100.48","","","","-12","","Blowing Snow"
"-115.14","67.82","KUGLUKTUK A","2300903","2020-10-25 09:00","2020","10","25","09:00","-3.7","","-7.2","","77","","","","25","","37","","24.1","","100.43","","","","-12","","NA"
"-115.14","67.82","KUGLUKTUK A","2300903","2020-10-25 10:00","2020","10","25","10:00","-4.7","","-8.5","","75","","","","26","","37","","24.1","","100.45","","","","-13","","Blowing Snow"
"-115.14","67.82","KUGLUKTUK A","2300903","2020-10-25 11:00","2020","10","25","11:00","-4.9","","-8.3","","77","","","","26","","37","","24.1","","100.44","","","","-14","","Cloudy"
"-115.14","67.82","KUGLUKTUK A","2300903","2020-10-25 12:00","2020","10","25","12:00","-5.0","","-8.0","","79","","","","25","","28","","24.1","","100.48","","","","-13","","NA"
"-115.14","67.82","KUGLUKTUK A","2300903","2020-10-25 13:00","2020","10","25","13:00","-4.5","","-7.5","","80","","","","25","","30","","24.1","","100.49","","","","-12","","NA"
"-115.14","67.82","KUGLUKTUK A","2300903","2020-10-25 14:00","2020","10","25","14:00","-4.3","","-7.4","","79","","","","26","","32","","24.1","","100.49","","","","-12","","Cloudy"
"-115.14","67.82","KUGLUKTUK A","2300903","2020-10-25 15:00","2020","10","25","15:00","-4.5","","-7.4","","80","","","","27","","35","","24.1","","100.46","","","","-13","","NA"
"-115.14","67.82","KUGLUKTUK A","2300903","2020-10-25 16:00","2020","10","25","16:00","-4.1","","-5.6","","90","","","","26","","34","","12.9","","100.45","","","","-12","","Snow"
"-115.14","67.82","KUGLUKTUK A","2300903","2020-10-25 17:00","2020","10","25","17:00","-4.2","","-5.9","","88","","","","26","","34","","24.1","","100.43","","","","-12","","Mostly Cloudy"
"-115.14","67.82","KUGLUKTUK A","2300903","2020-10-25 18:00","2020","10","25","18:00","-3.9","","-6.8","","81","","","","26","","35","","24.1","","100.42","","","","-12","","NA"
"-115.14","67.82","KUGLUKTUK A","2300903","2020-10-25 19:00","2020","10","25","19:00","-4.0","","-6.3","","84","","","","27","","37","","24.1","","100.40","","","","-12","","NA"
"-115.14","67.82","KUGLUKTUK A","2300903","2020-10-25 20:00","2020","10","25","20:00","-4.6","","-6.0","","90","","","","27","","30","","12.9","","100.44","","","","-12","","Snow,Blowing Snow"
"-115.14","67.82","KUGLUKTUK A","2300903","2020-10-25 21:00","2020","10","25","21:00","-4.2","","-5.7","","89","","","","28","","28","","24.1","","100.50","","","","-12","","NA"
"-115.14","67.82","KUGLUKTUK A","2300903","2020-10-25 22:00","2020","10","25","22:00","-4.5","","-5.5","","93","","","","28","","26","","19.3","","100.50","","","","-12","","Snow"
"-115.14","67.82","KUGLUKTUK A","2300903","2020-10-25 23:00","2020","10","25","23:00","-3.5","","-4.8","","90","","","","31","","40","","12.9","","100.57","","","","-12","","Snow,Blowing Snow"
"-115.14","67.82","KUGLUKTUK A","2300903","2020-10-26 00:00","2020","10","26","00:00","-4.0","","-6.6","","82","","","","33","","39","","19.3","","100.68","","","","-13","","Snow,Blowing Snow"
"-115.14","67.82","KUGLUKTUK A","2300903","2020-10-26 01:00","2020","10","26","01:00","-4.5","","-7.2","","81","","","","33","","46","","12.9","","100.75","","","","-14","","Snow,Blowing Snow"
"-115.14","67.82","KUGLUKTUK A","2300903","2020-10-26 02:00","2020","10","26","02:00","-5.0","","-8.1","","79","","","","31","","47","","19.3","","100.84","","","","-15","","Snow,Blowing Snow"
"-115.14","67.82","KUGLUKTUK A","2300903","2020-10-26 03:00","2020","10","26","03:00","-6.5","","-8.8","","84","","","","33","","58","","3.2","","100.86","","","","-18","","Snow,Blowing Snow"
"-115.14","67.82","KUGLUKTUK A","2300903","2020-10-26 04:00","2020","10","26","04:00","-7.8","","-10.3","","82","","","","34","","31","","16.1","","101.03","","","","-17","","Snow,Blowing Snow"
"-115.14","67.82","KUGLUKTUK A","2300903","2020-10-26 05:00","2020","10","26","05:00","-7.5","","-9.3","","87","","","","34","","27","","4.8","","101.04","","","","-16","","Snow,Blowing Snow"
"-115.14","67.82","KUGLUKTUK A","2300903","2020-10-26 06:00","2020","10","26","06:00","-7.7","","-10.9","","78","","","","33","","39","","19.3","","101.04","","","","-18","","Snow,Blowing Snow"
"-115.14","67.82","KUGLUKTUK A","2300903","2020-10-26 07:00","2020","10","26","07:00","-8.2","","-11.4","","78","","","","35","","39","","19.3","","101.06","","","","-18","","Snow,Blowing Snow"
"-115.14","67.82","KUGLUKTUK A","2300903","2020-10-26 08:00","2020","10","26","08:00","-8.0","","-11.5","","76","","","","33","","25","","24.1","","101.11","","","","-16","","Cloudy"
"-115.14","67.82","KUGLUKTUK A","2300903","2020-10-26 09:00","2020","10","26","09:00","-8.2","","-12.1","","74","","","","32","","22","","24.1","","101.08","","","","-16","","NA"
"-115.14","67.82","KUGLUKTUK A","2300903","2020-10-26 10:00","2020","10","26","10:00","-8.1","","-13.3","","67","","","","34","","18","","24.1","","101.05","","","","-15","","NA"
"-115.14","67.82","KUGLUKTUK A","2300903","2020-10-26 11:00","2020","10","26","11:00","-7.8","","-13.7","","63","","","","34","","14","","24.1","","101.02","","","","-14","","Cloudy"
"-115.14","67.82","KUGLUKTUK A","2300903","2020-10-26 12:00","2020","10","26","12:00","-8.4","","-12.2","","74","","","","27","","16","","24.1","","100.99","","","","-15","","NA"
"-115.14","67.82","KUGLUKTUK A","2300903","2020-10-26 13:00","2020","10","26","13:00","-7.4","","-13.5","","62","","","","1","","12","","24.1","","100.95","","","","-13","","NA"
"-115.14","67.82","KUGLUKTUK A","2300903","2020-10-26 14:00","2020","10","26","14:00","-8.5","","-11.3","","80","","","","27","","18","","24.1","","100.90","","","","-16","","Cloudy"
"-115.14","67.82","KUGLUKTUK A","2300903","2020-10-26 15:00","2020","10","26","15:00","-8.6","","-11.0","","83","","","","27","","14","","24.1","","100.82","","","","-15","","Snow"
"-115.14","67.82","KUGLUKTUK A","2300903","2020-10-26 16:00","2020","10","26","16:00","-8.6","","-10.8","","84","","","","27","","14","","24.1","","100.81","","","","-15","","Snow"
"-115.14","67.82","KUGLUKTUK A","2300903","2020-10-26 17:00","2020","10","26","17:00","-8.6","","-11.3","","81","","","","26","","14","","24.1","","100.83","","","","-15","","Snow"
"-115.14","67.82","KUGLUKTUK A","2300903","2020-10-26 18:00","2020","10","26","18:00","-8.8","","-12.0","","78","","","","27","","14","","19.3","","100.84","","","","-15","","Snow"
"-115.14","67.82","KUGLUKTUK A","2300903","2020-10-26 19:00","2020","10","26","19:00","-8.8","","-12.2","","76","","","","26","","11","","24.1","","100.82","","","","-14","","Snow"
"-115.14","67.82","KUGLUKTUK A","2300903","2020-10-26 20:00","2020","10","26","20:00","-8.7","","-12.4","","75","","","","28","","14","","19.3","","100.75","","","","-15","","Snow"
"-115.14","67.82","KUGLUKTUK A","2300903","2020-10-26 21:00","2020","10","26","21:00","-7.8","","-13.2","","65","","","","1","","8","","19.3","","100.72","","","","-12","","Snow"
"-115.14","67.82","KUGLUKTUK A","2300903","2020-10-26 22:00","2020","10","26","22:00","-7.8","","-13.4","","64","","","","36","","2","","24.1","","100.72","","","","-9","","Snow"
"-115.14","67.82","KUGLUKTUK A","2300903","2020-10-26 23:00","2020","10","26","23:00","-8.5","","-12.5","","73","","","","27","","14","","19.3","","100.74","","","","-15","","Snow"
"-115.14","67.82","KUGLUKTUK A","2300903","2020-10-27 00:00","2020","10","27","00:00","-8.6","","-12.3","","75","","","","27","","15","","19.3","","100.77","","","","-15","","Snow"
"-115.14","67.82","KUGLUKTUK A","2300903","2020-10-27 01:00","2020","10","27","01:00","-8.9","","-11.8","","79","","","","27","","16","","19.3","","100.79","","","","-16","","Snow"
"-115.14","67.82","KUGLUKTUK A","2300903","2020-10-27 02:00","2020","10","27","02:00","-8.7","","-12.3","","75","","","","27","","13","","24.1","","100.83","","","","-15","","Snow"
"-115.14","67.82","KUGLUKTUK A","2300903","2020-10-27 03:00","2020","10","27","03:00","-8.7","","-13.3","","69","","","","29","","16","","24.1","","100.90","","","","-15","","Snow"
"-115.14","67.82","KUGLUKTUK A","2300903","2020-10-27 04:00","2020","10","27","04:00","-9.1","","-12.8","","75","","","","25","","12","","19.3","","100.95","","","","-15","","Snow"
"-115.14","67.82","KUGLUKTUK A","2300903","2020-10-27 05:00","2020","10","27","05:00","-9.1","","-12.8","","74","","","","26","","14","","19.3","","100.98","","","","-15","","Snow"
"-115.14","67.82","KUGLUKTUK A","2300903","2020-10-27 06:00","2020","10","27","06:00","-9.0","","-13.2","","72","","","","25","","14","","24.1","","101.03","","","","-15","","Snow"
"-115.14","67.82","KUGLUKTUK A","2300903","2020-10-27 07:00","2020","10","27","07:00","-9.4","","-13.1","","75","","","","24","","17","","24.1","","101.03","","","","-16","","Snow"
"-115.14","67.82","KUGLUKTUK A","2300903","2020-10-27 08:00","2020","10","27","08:00","-9.8","","-13.3","","76","","","","25","","18","","19.3","","101.07","","","","-17","","Snow Showers"
"-115.14","67.82","KUGLUKTUK A","2300903","2020-10-27 09:00","2020","10","27","09:00","-9.9","","-13.2","","77","","","","26","","17","","19.3","","","M","","","-17","","Snow Showers"
"-115.14","67.82","KUGLUKTUK A","2300903","2020-10-27 10:00","2020","10","27","10:00","-9.8","","-12.9","","78","","","","26","","18","","24.1","","101.15","","","","-17","","Snow Showers"
"-115.14","67.82","KUGLUKTUK A","2300903","2020-10-27 11:00","2020","10","27","11:00","-9.6","","-13.2","","76","","","","26","","15","","24.1","","101.18","","","","-16","","Snow Showers"
"-115.14","67.82","KUGLUKTUK A","2300903","2020-10-27 12:00","2020","10","27","12:00","-9.8","","-12.8","","79","","","","25","","14","","24.1","","101.21","","","","-16","","Snow Showers"
"-115.14","67.82","KUGLUKTUK A","2300903","2020-10-27 13:00","2020","10","27","13:00","-9.4","","-12.9","","76","","","","25","","13","","24.1","","101.25","","","","-15","","Snow Showers"
"-115.14","67.82","KUGLUKTUK A","2300903","2020-10-27 14:00","2020","10","27","14:00","-9.6","","-12.6","","79","","","","25","","16","","19.3","","101.26","","","","-16","","Snow Showers"
"-115.14","67.82","KUGLUKTUK A","2300903","2020-10-27 15:00","2020","10","27","15:00","-9.8","","-13.0","","78","","","","26","","19","","24.1","","101.30","","","","-17","","Snow Showers"
"-115.14","67.82","KUGLUKTUK A","2300903","2020-10-27 16:00","2020","10","27","16:00","-9.9","","-13.3","","77","","","","25","","16","","24.1","","101.29","","","","-17","","Snow Showers"
"-115.14","67.82","KUGLUKTUK A","2300903","2020-10-27 17:00","2020","10","27","17:00","-10.7","","-13.9","","77","","","","23","","23","","24.1","","101.29","","","","-19","","Snow Showers"
"-115.14","67.82","KUGLUKTUK A","2300903","2020-10-27 18:00","2020","10","27","18:00","-11.0","","-14.4","","76","","","","23","","23","","24.1","","101.26","","","","-20","","Snow"
"-115.14","67.82","KUGLUKTUK A","2300903","2020-10-27 19:00","2020","10","27","19:00","-11.3","","-14.8","","75","","","","23","","18","","24.1","","101.24","","","","-19","","Snow"
"-115.14","67.82","KUGLUKTUK A","2300903","2020-10-27 20:00","2020","10","27","20:00","-11.4","","-14.9","","76","","","","21","","10","","24.1","","101.18","","","","-17","","Snow"
"-115.14","67.82","KUGLUKTUK A","2300903","2020-10-27 21:00","2020","10","27","21:00","-10.8","","-14.1","","77","","","","22","","13","","24.1","","101.12","","","","-17","","Snow"
"-115.14","67.82","KUGLUKTUK A","2300903","2020-10-27 22:00","2020","10","27","22:00","-11.6","","-15.3","","75","","","","25","","23","","24.1","","101.05","","","","-20","","Snow"
"-115.14","67.82","KUGLUKTUK A","2300903","2020-10-27 23:00","2020","10","27","23:00","-13.5","","-16.7","","77","","","","24","","21","","24.1","","101.02","","","","-22","","Clear"
"-115.14","67.82","KUGLUKTUK A","2300903","2020-10-28 00:00","2020","10","28","00:00","-14.8","","-17.7","","79","","","","22","","21","","24.1","","100.97","","","","-24","","NA"
"-115.14","67.82","KUGLUKTUK A","2300903","2020-10-28 01:00","2020","10","28","01:00","-12.2","","-15.0","","80","","","","21","","13","","24.1","","100.90","","","","-19","","Snow"
"-115.14","67.82","KUGLUKTUK A","2300903","2020-10-28 02:00","2020","10","28","02:00","-9.4","","-12.8","","76","","","","22","","26","","24.1","","100.84","","","","-18","","Snow"
"-115.14","67.82","KUGLUKTUK A","2300903","2020-10-28 03:00","2020","10","28","03:00","-8.7","","-11.6","","79","","","","22","","20","","24.1","","100.80","","","","-16","","Snow"
"-115.14","67.82","KUGLUKTUK A","2300903","2020-10-28 04:00","2020","10","28","04:00","-8.1","","-11.2","","78","","","","22","","18","","24.1","","100.75","","","","-15","","Snow"
"-115.14","67.82","KUGLUKTUK A","2300903","2020-10-28 05:00","2020","10","28","05:00","-8.0","","-11.3","","77","","","","23","","20","","24.1","","100.68","","","","-15","","Cloudy"
"-115.14","67.82","KUGLUKTUK A","2300903","2020-10-28 06:00","2020","10","28","06:00","-7.5","","-10.7","","78","","","","22","","32","","12.9","","100.63","","","","-17","","Snow,Blowing Snow"
"-115.14","67.82","KUGLUKTUK A","2300903","2020-10-28 07:00","2020","10","28","07:00","-8.2","","-10.0","","87","","","","21","","39","","3.2","","100.57","","","","-18","","Snow,Blowing Snow"
"-115.14","67.82","KUGLUKTUK A","2300903","2020-10-28 08:00","2020","10","28","08:00","-7.7","","-9.3","","89","","","","21","","36","","3.6","","100.52","","","","-17","","Snow,Blowing Snow"
"-115.14","67.82","KUGLUKTUK A","2300903","2020-10-28 09:00","2020","10","28","09:00","-7.5","","-8.9","","90","","","","21","","29","","3.6","","100.48","","","","-16","","Snow,Blowing Snow"
"-115.14","67.82","KUGLUKTUK A","2300903","2020-10-28 10:00","2020","10","28","10:00","-7.4","","-9.0","","88","","","","23","","30","","4.8","","100.41","","","","-16","","Snow,Blowing Snow"
"-115.14","67.82","KUGLUKTUK A","2300903","2020-10-28 11:00","2020","10","28","11:00","-7.5","","-9.1","","89","","","","23","","22","","12.9","","100.37","","","","-15","","Snow,Blowing Snow"
"-115.14","67.82","KUGLUKTUK A","2300903","2020-10-28 12:00","2020","10","28","12:00","-7.2","","-8.7","","89","","","","25","","22","","6.4","","100.38","","","","-15","","Snow,Blowing Snow"
"-115.14","67.82","KUGLUKTUK A","2300903","2020-10-28 13:00","2020","10","28","13:00","-7.7","","-10.8","","79","","","","30","","25","","24.1","","100.40","","","","-16","","NA"
"-115.14","67.82","KUGLUKTUK A","2300903","2020-10-28 14:00","2020","10","28","14:00","-9.4","","-12.1","","81","","","","27","","19","","24.1","","100.46","","","","-17","","Mostly Cloudy"
"-115.14","67.82","KUGLUKTUK A","2300903","2020-10-28 15:00","2020","10","28","15:00","-10.7","","-13.7","","79","","","","26","","25","","24.1","","100.49","","","","-20","","NA"
"-115.14","67.82","KUGLUKTUK A","2300903","2020-10-28 16:00","2020","10","28","16:00","-11.6","","-15.1","","75","","","","25","","27","","24.1","","100.51","","","","-21","","NA"
"-115.14","67.82","KUGLUKTUK A","2300903","2020-10-28 17:00","2020","10","28","17:00","-11.2","","-14.9","","75","","","","26","","35","","24.1","","100.49","","","","-22","","Blowing Snow"
"-115.14","67.82","KUGLUKTUK A","2300903","2020-10-28 18:00","2020","10","28","18:00","-11.4","","-14.6","","78","","","","26","","34","","19.3","","100.51","","","","-22","","Snow,Blowing Snow"
"-115.14","67.82","KUGLUKTUK A","2300903","2020-10-28 19:00","2020","10","28","19:00","-10.6","","-13.9","","77","","","","27","","35","","24.1","","100.54","","","","-21","","Blowing Snow"
"-115.14","67.82","KUGLUKTUK A","2300903","2020-10-28 20:00","2020","10","28","20:00","-10.5","","-13.9","","77","","","","26","","35","","24.1","","100.57","","","","-21","","Blowing Snow"
"-115.14","67.82","KUGLUKTUK A","2300903","2020-10-28 21:00","2020","10","28","21:00","-10.3","","-13.6","","77","","","","26","","39","","24.1","","100.56","","","","-21","","Blowing Snow"
"-115.14","67.82","KUGLUKTUK A","2300903","2020-10-28 22:00","2020","10","28","22:00","-10.7","","-13.8","","78","","","","26","","41","","24.1","","100.57","","","","-22","","Blowing Snow"
"-115.14","67.82","KUGLUKTUK A","2300903","2020-10-28 23:00","2020","10","28","23:00","-11.0","","-14.1","","78","","","","26","","41","","24.1","","100.60","","","","-22","","Blowing Snow"
"-115.14","67.82","KUGLUKTUK A","2300903","2020-10-29 00:00","2020","10","29","00:00","-10.9","","-14.1","","78","","","","26","","38","","24.1","","100.64","","","","-22","","Blowing Snow"
"-115.14","67.82","KUGLUKTUK A","2300903","2020-10-29 01:00","2020","10","29","01:00","-10.9","","-14.3","","76","","","","25","","40","","24.1","","100.68","","","","-22","","NA"
"-115.14","67.82","KUGLUKTUK A","2300903","2020-10-29 02:00","2020","10","29","02:00","-10.4","","-13.7","","77","","","","25","","36","","24.1","","100.69","","","","-21","","Mainly Clear"
"-115.14","67.82","KUGLUKTUK A","2300903","2020-10-29 03:00","2020","10","29","03:00","-12.7","","-15.2","","82","","","","23","","25","","24.1","","100.69","","","","-22","","NA"
"-115.14","67.82","KUGLUKTUK A","2300903","2020-10-29 04:00","2020","10","29","04:00","-11.6","","-13.7","","85","","","","23","","27","","24.1","","100.66","","","","-21","","NA"
"-115.14","67.82","KUGLUKTUK A","2300903","2020-10-29 05:00","2020","10","29","05:00","-11.1","","-14.1","","78","","","","24","","31","","24.1","","100.63","","","","-21","","Mainly Clear"
"-115.14","67.82","KUGLUKTUK A","2300903","2020-10-29 06:00","2020","10","29","06:00","-9.3","","-12.4","","78","","","","25","","35","","24.1","","100.62","","","","-19","","Blowing Snow"
"-115.14","67.82","KUGLUKTUK A","2300903","2020-10-29 07:00","2020","10","29","07:00","-9.0","","-11.9","","79","","","","25","","35","","24.1","","100.61","","","","-19","","NA"
"-115.14","67.82","KUGLUKTUK A","2300903","2020-10-29 08:00","2020","10","29","08:00","-8.8","","-12.3","","75","","","","25","","41","","24.1","","100.57","","","","-19","","Blowing Snow"
"-115.14","67.82","KUGLUKTUK A","2300903","2020-10-29 09:00","2020","10","29","09:00","-9.2","","-12.8","","76","","","","25","","39","","24.1","","100.52","","","","-20","","Blowing Snow"
"-115.14","67.82","KUGLUKTUK A","2300903","2020-10-29 10:00","2020","10","29","10:00","-9.0","","-11.0","","85","","","","25","","42","","9.7","","100.49","","","","-20","","Snow,Blowing Snow"
"-115.14","67.82","KUGLUKTUK A","2300903","2020-10-29 11:00","2020","10","29","11:00","-8.1","","-11.1","","80","","","","26","","43","","9.7","","100.48","","","","-19","","Blowing Snow"
"-115.14","67.82","KUGLUKTUK A","2300903","2020-10-29 12:00","2020","10","29","12:00","-7.6","","-10.2","","82","","","","26","","37","","24.1","","100.51","","","","-17","","Blowing Snow"
"-115.14","67.82","KUGLUKTUK A","2300903","2020-10-29 13:00","2020","10","29","13:00","-6.9","","-9.3","","83","","","","29","","37","","24.1","","100.64","","","","-16","","Blowing Snow"
"-115.14","67.82","KUGLUKTUK A","2300903","2020-10-29 14:00","2020","10","29","14:00","-7.5","","-10.0","","82","","","","26","","37","","24.1","","100.75","","","","-17","","Blowing Snow"
"-115.14","67.82","KUGLUKTUK A","2300903","2020-10-29 15:00","2020","10","29","15:00","-8.8","","-11.6","","81","","","","28","","30","","24.1","","100.84","","","","-18","","NA"
"-115.14","67.82","KUGLUKTUK A","2300903","2020-10-29 16:00","2020","10","29","16:00","-9.7","","-12.2","","82","","","","26","","36","","24.1","","100.90","","","","-20","","NA"
"-115.14","67.82","KUGLUKTUK A","2300903","2020-10-29 17:00","2020","10","29","17:00","-8.3","","-11.4","","79","","","","29","","37","","24.1","","100.93","","","","-18","","Cloudy"
"-115.14","67.82","KUGLUKTUK A","2300903","2020-10-29 18:00","2020","10","29","18:00","-8.8","","-11.4","","82","","","","29","","36","","19.3","","100.98","","","","-19","","Snow"
"-115.14","67.82","KUGLUKTUK A","2300903","2020-10-29 19:00","2020","10","29","19:00","-10.5","","-13.0","","82","","","","26","","25","","24.1","","101.07","","","","-19","","Snow"
"-115.14","67.82","KUGLUKTUK A","2300903","2020-10-29 20:00","2020","10","29","20:00","-11.4","","-14.4","","78","","","","26","","25","","24.1","","101.09","","","","-21","","Mainly Clear"
"-115.14","67.82","KUGLUKTUK A","2300903","2020-10-29 21:00","2020","10","29","21:00","-12.1","","-14.8","","81","","","","27","","26","","24.1","","101.12","","","","-22","","NA"
"-115.14","67.82","KUGLUKTUK A","2300903","2020-10-29 22:00","2020","10","29","22:00","-11.6","","-14.2","","82","","","","26","","29","","16.1","","101.11","","","","-21","","Snow"
"-115.14","67.82","KUGLUKTUK A","2300903","2020-10-29 23:00","2020","10","29","23:00","-11.6","","-13.5","","86","","","","26","","29","","24.1","","101.14","","","","-21","","Snow"
"-115.14","67.82","KUGLUKTUK A","2300903","2020-10-30 00:00","2020","10","30","00:00","-11.7","","-13.7","","85","","","","26","","29","","24.1","","101.16","","","","-22","","Snow Grains"
"-115.14","67.82","KUGLUKTUK A","2300903","2020-10-30 01:00","2020","10","30","01:00","-12.8","","-15.2","","82","","","","26","","25","","24.1","","101.18","","","","-22","","NA"
"-115.14","67.82","KUGLUKTUK A","2300903","2020-10-30 02:00","2020","10","30","02:00","-12.1","","-15.2","","78","","","","27","","29","","24.1","","101.19","","","","-22","","Mostly Cloudy"
"-115.14","67.82","KUGLUKTUK A","2300903","2020-10-30 03:00","2020","10","30","03:00","-12.3","","-15.3","","79","","","","26","","22","","24.1","","101.21","","","","-21","","NA"
"-115.14","67.82","KUGLUKTUK A","2300903","2020-10-30 04:00","2020","10","30","04:00","-12.8","","-15.8","","79","","","","26","","30","","24.1","","101.18","","","","-23","","NA"
"-115.14","67.82","KUGLUKTUK A","2300903","2020-10-30 05:00","2020","10","30","05:00","-14.3","","-17.9","","75","","","","26","","32","","24.1","","101.17","","","","-25","","Mainly Clear"
"-115.14","67.82","KUGLUKTUK A","2300903","2020-10-30 06:00","2020","10","30","06:00","-16.6","","-19.7","","78","","","","23","","26","","24.1","","101.16","","","","-27","","NA"
"-115.14","67.82","KUGLUKTUK A","2300903","2020-10-30 07:00","2020","10","30","07:00","-17.4","","-20.3","","79","","","","23","","27","","24.1","","101.16","","","","-29","","Blowing Snow"
"-115.14","67.82","KUGLUKTUK A","2300903","2020-10-30 08:00","2020","10","30","08:00","-16.4","","-20.0","","74","","","","24","","32","","24.1","","101.15","","","","-28","","Blowing Snow"
"-115.14","67.82","KUGLUKTUK A","2300903","2020-10-30 09:00","2020","10","30","09:00","-17.1","","-20.5","","75","","","","24","","34","","24.1","","101.13","","","","-29","","Blowing Snow"
"-115.14","67.82","KUGLUKTUK A","2300903","2020-10-30 10:00","2020","10","30","10:00","-17.0","","-20.5","","74","","","","24","","35","","24.1","","101.13","","","","-29","","Blowing Snow"
"-115.14","67.82","KUGLUKTUK A","2300903","2020-10-30 11:00","2020","10","30","11:00","-16.7","","-20.3","","74","","","","23","","30","","24.1","","101.13","","","","-28","","Mainly Clear"
"-115.14","67.82","KUGLUKTUK A","2300903","2020-10-30 12:00","2020","10","30","12:00","-15.1","","-19.1","","72","","","","24","","32","","24.1","","101.15","","","","-26","","NA"
"-115.14","67.82","KUGLUKTUK A","2300903","2020-10-30 13:00","2020","10","30","13:00","-15.3","","-19.2","","72","","","","24","","32","","24.1","","101.16","","","","-27","","NA"
"-115.14","67.82","KUGLUKTUK A","2300903","2020-10-30 14:00","2020","10","30","14:00","-15.4","","-18.9","","75","","","","23","","29","","24.1","","101.15","","","","-26","","Mostly Cloudy"
"-115.14","67.82","KUGLUKTUK A","2300903","2020-10-30 15:00","2020","10","30","15:00","-15.4","","-18.9","","75","","","","24","","32","","24.1","","101.15","","","","-27","","NA"
"-115.14","67.82","KUGLUKTUK A","2300903","2020-10-30 16:00","2020","10","30","16:00","-14.4","","-18.1","","74","","","","24","","32","","24.1","","101.19","","","","-26","","NA"
"-115.14","67.82","KUGLUKTUK A","2300903","2020-10-30 17:00","2020","10","30","17:00","-14.2","","-17.8","","74","","","","24","","28","","24.1","","101.20","","","","-25","","Snow"
"-115.14","67.82","KUGLUKTUK A","2300903","2020-10-30 18:00","2020","10","30","18:00","-14.0","","-17.5","","75","","","","24","","28","","24.1","","101.22","","","","-24","","Snow"
"-115.14","67.82","KUGLUKTUK A","2300903","2020-10-30 19:00","2020","10","30","19:00","-13.8","","-17.0","","77","","","","24","","22","","24.1","","101.25","","","","-23","","Snow"
"-115.14","67.82","KUGLUKTUK A","2300903","2020-10-30 20:00","2020","10","30","20:00","-14.3","","-17.4","","78","","","","23","","24","","24.1","","101.28","","","","-24","","Mostly Cloudy"
"-115.14","67.82","KUGLUKTUK A","2300903","2020-10-30 21:00","2020","10","30","21:00","-14.2","","-17.5","","76","","","","23","","25","","24.1","","101.30","","","","-24","","NA"
"-115.14","67.82","KUGLUKTUK A","2300903","2020-10-30 22:00","2020","10","30","22:00","-15.3","","-18.5","","77","","","","23","","22","","24.1","","101.32","","","","-25","","NA"
"-115.14","67.82","KUGLUKTUK A","2300903","2020-10-30 23:00","2020","10","30","23:00","-15.9","","-18.5","","81","","","","23","","25","","24.1","","101.36","","","","-26","","Clear"
"-115.14","67.82","KUGLUKTUK A","2300903","2020-10-31 00:00","2020","10","31","00:00","-15.5","","-17.9","","82","","","","23","","22","","24.1","","101.40","","","","-25","","NA"
"-115.14","67.82","KUGLUKTUK A","2300903","2020-10-31 01:00","2020","10","31","01:00","-13.1","","-16.0","","79","","","","24","","23","","24.1","","101.43","","","","-22","","NA"
"-115.14","67.82","KUGLUKTUK A","2300903","2020-10-31 02:00","2020","10","31","02:00","-12.9","","-15.8","","79","","","","23","","21","","24.1","","101.44","","","","-22","","Cloudy"
"-115.14","67.82","KUGLUKTUK A","2300903","2020-10-31 03:00","2020","10","31","03:00","-12.9","","-15.5","","81","","","","23","","19","","24.1","","101.45","","","","-21","","NA"
"-115.14","67.82","KUGLUKTUK A","2300903","2020-10-31 04:00","2020","10","31","04:00","-13.1","","-15.3","","83","","","","22","","18","","24.1","","101.46","","","","-21","","Snow"
"-115.14","67.82","KUGLUKTUK A","2300903","2020-10-31 05:00","2020","10","31","05:00","-13.3","","-15.4","","85","","","","22","","16","","24.1","","101.48","","","","-21","","Snow"
"-115.14","67.82","KUGLUKTUK A","2300903","2020-10-31 06:00","2020","10","31","06:00","-13.3","","-14.7","","89","","","","22","","14","","24.1","","101.49","","","","-21","","Snow Grains"
"-115.14","67.82","KUGLUKTUK A","2300903","2020-10-31 07:00","2020","10","31","07:00","-14.4","","-15.8","","90","","","","23","","18","","12.9","","101.49","","","","-23","","Snow Grains"
"-115.14","67.82","KUGLUKTUK A","2300903","2020-10-31 08:00","2020","10","31","08:00","-15.8","","-17.3","","88","","","","23","","13","","3.2","","101.52","","","","-23","","Snow Grains,Fog"
"-115.14","67.82","KUGLUKTUK A","2300903","2020-10-31 09:00","2020","10","31","09:00","-18.4","","-20.4","","84","","","","23","","18","","19.3","","101.49","","","","-28","","NA"
"-115.14","67.82","KUGLUKTUK A","2300903","2020-10-31 10:00","2020","10","31","10:00","-18.8","","-20.9","","84","","","","23","","17","","24.1","","101.48","","","","-28","","NA"
"-115.14","67.82","KUGLUKTUK A","2300903","2020-10-31 11:00","2020","10","31","11:00","-18.1","","-20.2","","84","","","","21","","12","","24.1","","101.48","","","","-26","","Mostly Cloudy"
"-115.14","67.82","KUGLUKTUK A","2300903","2020-10-31 12:00","2020","10","31","12:00","-17.9","","-20.4","","81","","","","17","","10","","24.1","","101.49","","","","-25","","NA"
"-115.14","67.82","KUGLUKTUK A","2300903","2020-10-31 13:00","2020","10","31","13:00","-17.8","","-20.5","","80","","","","19","","13","","24.1","","101.48","","","","-26","","NA"
"-115.14","67.82","KUGLUKTUK A","2300903","2020-10-31 14:00","2020","10","31","14:00","-18.1","","-20.8","","80","","","","19","","10","","24.1","","101.46","","","","-25","","Mainly Clear"
"-115.14","67.82","KUGLUKTUK A","2300903","2020-10-31 15:00","2020","10","31","15:00","-18.6","","-21.1","","81","","","","20","","9","","24.1","","101.45","","","","-25","","NA"
"-115.14","67.82","KUGLUKTUK A","2300903","2020-10-31 16:00","2020","10","31","16:00","-19.6","","-22.0","","81","","","","16","","14","","24.1","","101.43","","","","-28","","NA"
"-115.14","67.82","KUGLUKTUK A","2300903","2020-10-31 17:00","2020","10","31","17:00","-17.1","","-19.8","","80","","","","15","","13","","24.1","","101.38","","","","-25","","Mostly Cloudy"
"-115.14","67.82","KUGLUKTUK A","2300903","2020-10-31 18:00","2020","10","31","18:00","-18.8","","-21.3","","80","","","","18","","13","","24.1","","101.34","","","","-27","","NA"
"-115.14","67.82","KUGLUKTUK A","2300903","2020-10-31 19:00","2020","10","31","19:00","-18.4","","-21.4","","77","","","","19","","12","","24.1","","101.31","","","","-26","","NA"
"-115.14","67.82","KUGLUKTUK A","2300903","2020-10-31 20:00","2020","10","31","20:00","-17.2","","-20.6","","75","","","","19","","9","","24.1","","101.29","","","","-23","","Clear"
"-115.14","67.82","KUGLUKTUK A","2300903","2020-10-31 21:00","2020","10","31","21:00","-17.1","","-20.0","","78","","","","15","","7","","24.1","","101.26","","","","-22","","NA"
"-115.14","67.82","KUGLUKTUK A","2300903","2020-10-31 22:00","2020","10","31","22:00","-15.3","","-18.8","","75","","","","14","","15","","24.1","","101.22","","","","-23","","NA"
"-115.14","67.82","KUGLUKTUK A","2300903","2020-10-31 23:00","2020","10","31","23:00","-14.8","","-18.6","","74","","","","10","","14","","24.1","","101.18","","","","-22","","Cloudy"
