"Longitude (x)","Latitude (y)","Station Name","Climate ID","Date/Time (LST)","Year","Month","Day","Time (LST)","Temp (°C)","Temp Flag","Dew Point Temp (°C)","Dew Point Temp Flag","Rel Hum (%)","Rel Hum Flag","Precip. Amount (mm)","Precip. Amount Flag","Wind Dir (10s deg)","Wind Dir Flag","Wind Spd (km/h)","Wind Spd Flag","Visibility (km)","Visibility Flag","Stn Press (kPa)","Stn Press Flag","Hmdx","Hmdx Flag","Wind Chill","Wind Chill Flag","Weather"
"-115.14","67.82","KUGLUKTUK A","2300903","2020-11-01 00:00","2020","11","01","00:00","-14.6","","-18.4","","73","","","","8","","6","","24.1","","101.17","","","","-19","","NA"
"-115.14","67.82","KUGLUKTUK A","2300903","2020-11-01 01:00","2020","11","01","01:00","-14.9","","-18.6","","74","","","","8","","6","","24.1","","101.14","","","","-19","","NA"
"-115.14","67.82","KUGLUKTUK A","2300903","2020-11-01 02:00","2020","11","01","02:00","-14.9","","-18.7","","73","","","","11","","10","","24.1","","101.12","","","","-21","","Cloudy"
"-115.14","67.82","KUGLUKTUK A","2300903","2020-11-01 03:00","2020","11","01","03:00","-14.9","","-18.4","","75","","","","11","","10","","24.1","","101.09","","","","-21","","NA"
"-115.14","67.82","KUGLUKTUK A","2300903","2020-11-01 04:00","2020","11","01","04:00","-13.0","","-18.2","","65","","","","16","","18","","24.1","","101.07","","","","-21","","NA"
"-115.14","67.82","KUGLUKTUK A","2300903","2020-11-01 05:00","2020","11","01","05:00","-14.2","","-18.5","","70","","","","16","","15","","24.1","","101.06","","","","-22","","Mostly Cloudy"
"-115.14","67.82","KUGLUKTUK A","2300903","2020-11-01 06:00","2020","11","01","06:00","-13.7","","-18.2","","69","","","","14","","15","","24.1","","101.04","","","","-21","","NA"
"-115.14","67.82","KUGLUKTUK A","2300903","2020-11-01 07:00","2020","11","01","07:00","-13.6","","-17.7","","72","","","","13","","7","","24.1","","101.02","","","","-18","","NA"
"-115.14","67.82","KUGLUKTUK A","2300903","2020-11-01 08:00","2020","11","01","08:00","-14.4","","-18.0","","75","","","","12","","7","","24.1","","101.03","","","","-19","","Mostly Cloudy"
"-115.14","67.82","KUGLUKTUK A","2300903","2020-11-01 09:00","2020","11","01","09:00","-14.3","","-18.4","","71","","","","11","","10","","24.1","","101.03","","","","-20","","NA"
"-115.14","67.82","KUGLUKTUK A","2300903","2020-11-01 10:00","2020","11","01","10:00","-13.7","","-17.7","","72","","","","13","","10","","24.1","","101.04","","","","-20","","NA"
"-115.14","67.82","KUGLUKTUK A","2300903","2020-11-01 11:00","2020","11","01","11:00","-13.5","","-17.5","","72","","","","14","","11","","19.3","","101.06","","","","-20","","Cloudy"
"-115.14","67.82","KUGLUKTUK A","2300903","2020-11-01 12:00","2020","11","01","12:00","-13.4","","-17.3","","73","","","","15","","12","","19.3","","101.07","","","","-20","","NA"
"-115.14","67.82","KUGLUKTUK A","2300903","2020-11-01 13:00","2020","11","01","13:00","-13.3","","-17.0","","74","","","","8","","3","","19.3","","101.09","","","","-15","","NA"
"-115.14","67.82","KUGLUKTUK A","2300903","2020-11-01 14:00","2020","11","01","14:00","-13.0","","-16.7","","75","","","","16","","7","","24.1","","101.11","","","","-18","","Cloudy"
"-115.14","67.82","KUGLUKTUK A","2300903","2020-11-01 15:00","2020","11","01","15:00","-13.9","","-17.6","","74","","","","16","","8","","24.1","","101.14","","","","-19","","NA"
"-115.14","67.82","KUGLUKTUK A","2300903","2020-11-01 16:00","2020","11","01","16:00","-14.3","","-17.3","","78","","","","18","","10","","24.1","","101.18","","","","-20","","NA"
"-115.14","67.82","KUGLUKTUK A","2300903","2020-11-01 17:00","2020","11","01","17:00","-14.8","","-17.7","","79","","","","28","","5","","24.1","","101.23","","","","-18","","Cloudy"
"-115.14","67.82","KUGLUKTUK A","2300903","2020-11-01 18:00","2020","11","01","18:00","-16.8","","-18.9","","84","","","","23","","16","","24.1","","101.27","","","","-25","","NA"
"-115.14","67.82","KUGLUKTUK A","2300903","2020-11-01 19:00","2020","11","01","19:00","-17.0","","-19.0","","85","","","","24","","15","","24.1","","101.30","","","","-25","","Ice Crystals"
"-115.14","67.82","KUGLUKTUK A","2300903","2020-11-01 20:00","2020","11","01","20:00","-18.0","","-20.1","","84","","","","23","","20","","24.1","","101.35","","","","-28","","Clear"
"-115.14","67.82","KUGLUKTUK A","2300903","2020-11-01 21:00","2020","11","01","21:00","-19.4","","-21.5","","83","","","","21","","18","","24.1","","101.39","","","","-29","","NA"
"-115.14","67.82","KUGLUKTUK A","2300903","2020-11-01 22:00","2020","11","01","22:00","-20.2","","-22.3","","84","","","","21","","22","","24.1","","101.44","","","","-31","","NA"
"-115.14","67.82","KUGLUKTUK A","2300903","2020-11-01 23:00","2020","11","01","23:00","-21.1","","-23.4","","82","","","","22","","21","","24.1","","101.44","","","","-32","","Clear"
"-115.14","67.82","KUGLUKTUK A","2300903","2020-11-02 00:00","2020","11","02","00:00","-21.5","","-23.8","","82","","","","22","","25","","24.1","","101.47","","","","-34","","NA"
"-115.14","67.82","KUGLUKTUK A","2300903","2020-11-02 01:00","2020","11","02","01:00","-20.0","","-22.2","","83","","","","22","","24","","24.1","","101.47","","","","-31","","NA"
"-115.14","67.82","KUGLUKTUK A","2300903","2020-11-02 02:00","2020","11","02","02:00","-18.5","","-20.7","","84","","","","21","","25","","24.1","","101.52","","","","-30","","Cloudy"
"-115.14","67.82","KUGLUKTUK A","2300903","2020-11-02 03:00","2020","11","02","03:00","-16.9","","-19.0","","84","","","","23","","26","","24.1","","101.54","","","","-28","","Snow"
"-115.14","67.82","KUGLUKTUK A","2300903","2020-11-02 04:00","2020","11","02","04:00","-16.0","","-18.2","","83","","","","22","","23","","24.1","","101.55","","","","-26","","Snow"
"-115.14","67.82","KUGLUKTUK A","2300903","2020-11-02 05:00","2020","11","02","05:00","-15.4","","-17.6","","84","","","","22","","21","","24.1","","101.55","","","","-25","","Snow"
"-115.14","67.82","KUGLUKTUK A","2300903","2020-11-02 06:00","2020","11","02","06:00","-14.9","","-17.2","","83","","","","22","","21","","24.1","","101.57","","","","-24","","Snow"
"-115.14","67.82","KUGLUKTUK A","2300903","2020-11-02 07:00","2020","11","02","07:00","-14.7","","-16.8","","84","","","","22","","19","","24.1","","101.54","","","","-24","","Snow"
"-115.14","67.82","KUGLUKTUK A","2300903","2020-11-02 08:00","2020","11","02","08:00","-14.6","","-16.7","","84","","","","23","","14","","16.1","","101.52","","","","-22","","Snow"
"-115.14","67.82","KUGLUKTUK A","2300903","2020-11-02 09:00","2020","11","02","09:00","-14.4","","-16.8","","82","","","","22","","19","","19.3","","101.48","","","","-23","","Snow"
"-115.14","67.82","KUGLUKTUK A","2300903","2020-11-02 10:00","2020","11","02","10:00","-14.4","","-16.6","","84","","","","22","","17","","24.1","","101.47","","","","-23","","Snow"
"-115.14","67.82","KUGLUKTUK A","2300903","2020-11-02 11:00","2020","11","02","11:00","-14.8","","-16.9","","84","","","","23","","21","","24.1","","101.48","","","","-24","","Snow"
"-115.14","67.82","KUGLUKTUK A","2300903","2020-11-02 12:00","2020","11","02","12:00","-14.8","","-17.0","","83","","","","23","","18","","24.1","","101.48","","","","-23","","Snow"
"-115.14","67.82","KUGLUKTUK A","2300903","2020-11-02 13:00","2020","11","02","13:00","-16.3","","-18.6","","83","","","","22","","14","","24.1","","101.44","","","","-24","","Snow"
"-115.14","67.82","KUGLUKTUK A","2300903","2020-11-02 14:00","2020","11","02","14:00","-18.8","","-21.4","","81","","","","20","","17","","24.1","","101.41","","","","-28","","Mostly Cloudy"
"-115.14","67.82","KUGLUKTUK A","2300903","2020-11-02 15:00","2020","11","02","15:00","-19.3","","-22.2","","78","","","","23","","4","","24.1","","101.35","","","","-23","","NA"
"-115.14","67.82","KUGLUKTUK A","2300903","2020-11-02 16:00","2020","11","02","16:00","-19.1","","-21.3","","83","","","","22","","3","","24.1","","101.32","","","","-22","","NA"
"-115.14","67.82","KUGLUKTUK A","2300903","2020-11-02 17:00","2020","11","02","17:00","-19.5","","-21.7","","83","","","","20","","3","","24.1","","101.21","","","","-22","","Mostly Cloudy"
"-115.14","67.82","KUGLUKTUK A","2300903","2020-11-02 18:00","2020","11","02","18:00","-19.9","","-22.8","","79","","","","20","","6","","24.1","","101.18","","","","-25","","NA"
"-115.14","67.82","KUGLUKTUK A","2300903","2020-11-02 19:00","2020","11","02","19:00","-20.7","","-23.6","","78","","","","16","","8","","24.1","","101.14","","","","-27","","NA"
"-115.14","67.82","KUGLUKTUK A","2300903","2020-11-02 20:00","2020","11","02","20:00","-21.2","","-24.4","","76","","","","21","","6","","24.1","","101.09","","","","-26","","Mostly Cloudy"
"-115.14","67.82","KUGLUKTUK A","2300903","2020-11-02 21:00","2020","11","02","21:00","-20.9","","-24.1","","76","","","","21","","13","","24.1","","101.09","","","","-30","","Ice Crystals"
"-115.14","67.82","KUGLUKTUK A","2300903","2020-11-02 22:00","2020","11","02","22:00","-19.2","","-22.8","","73","","","","3","","5","","24.1","","101.06","","","","-23","","Ice Crystals"
"-115.14","67.82","KUGLUKTUK A","2300903","2020-11-02 23:00","2020","11","02","23:00","-18.9","","-22.6","","73","","","","36","","3","","24.1","","100.98","","","","-21","","Ice Crystals"
"-115.14","67.82","KUGLUKTUK A","2300903","2020-11-03 00:00","2020","11","03","00:00","-19.2","","-22.5","","76","","","","20","","8","","24.1","","100.94","","","","-25","","Ice Crystals"
"-115.14","67.82","KUGLUKTUK A","2300903","2020-11-03 01:00","2020","11","03","01:00","-17.7","","-21.2","","75","","","","36","","1","","24.1","","100.90","","","","-18","","Ice Crystals"
"-115.14","67.82","KUGLUKTUK A","2300903","2020-11-03 02:00","2020","11","03","02:00","-17.6","","-20.2","","80","","","","16","","5","","16.1","","100.82","","","","-22","","Ice Crystals"
"-115.14","67.82","KUGLUKTUK A","2300903","2020-11-03 03:00","2020","11","03","03:00","-16.9","","-19.3","","82","","","","13","","5","","16.1","","100.78","","","","-21","","Snow"
"-115.14","67.82","KUGLUKTUK A","2300903","2020-11-03 04:00","2020","11","03","04:00","-18.7","","-20.9","","84","","","","36","","3","","9.7","","100.74","","","","-21","","Ice Crystals"
"-115.14","67.82","KUGLUKTUK A","2300903","2020-11-03 05:00","2020","11","03","05:00","-19.7","","-22.0","","83","","","","27","","13","","16.1","","100.69","","","","-28","","Ice Crystals"
"-115.14","67.82","KUGLUKTUK A","2300903","2020-11-03 06:00","2020","11","03","06:00","-20.8","","-23.1","","82","","","","23","","12","","8.1","","100.68","","","","-29","","Ice Crystals"
"-115.14","67.82","KUGLUKTUK A","2300903","2020-11-03 07:00","2020","11","03","07:00","-21.2","","-23.5","","82","","","","24","","17","","24.1","","100.66","","","","-31","","Ice Crystals"
"-115.14","67.82","KUGLUKTUK A","2300903","2020-11-03 08:00","2020","11","03","08:00","-22.8","","-25.1","","82","","","","23","","15","","24.1","","100.61","","","","-33","","Ice Crystals"
"-115.14","67.82","KUGLUKTUK A","2300903","2020-11-03 09:00","2020","11","03","09:00","-23.0","","-25.3","","82","","","","22","","25","","24.1","","100.57","","","","-35","","Ice Crystals"
"-115.14","67.82","KUGLUKTUK A","2300903","2020-11-03 10:00","2020","11","03","10:00","-21.7","","-24.0","","82","","","","23","","30","","6.4","","100.53","","","","-35","","Ice Crystals,Blowing Snow"
"-115.14","67.82","KUGLUKTUK A","2300903","2020-11-03 11:00","2020","11","03","11:00","-20.6","","-22.8","","82","","","","23","","23","","16.1","","100.53","","","","-32","","Ice Crystals,Blowing Snow"
"-115.14","67.82","KUGLUKTUK A","2300903","2020-11-03 12:00","2020","11","03","12:00","-19.3","","-21.5","","83","","","","25","","19","","16.1","","100.52","","","","-29","","Ice Crystals,Blowing Snow"
"-115.14","67.82","KUGLUKTUK A","2300903","2020-11-03 13:00","2020","11","03","13:00","-17.7","","-19.9","","83","","","","27","","22","","16.1","","100.51","","","","-28","","Snow"
"-115.14","67.82","KUGLUKTUK A","2300903","2020-11-03 14:00","2020","11","03","14:00","-17.4","","-19.7","","83","","","","25","","22","","19.3","","100.52","","","","-28","","Snow"
"-115.14","67.82","KUGLUKTUK A","2300903","2020-11-03 15:00","2020","11","03","15:00","-17.2","","-19.5","","83","","","","25","","24","","24.1","","100.52","","","","-28","","NA"
"-115.14","67.82","KUGLUKTUK A","2300903","2020-11-03 16:00","2020","11","03","16:00","-16.9","","-19.1","","83","","","","26","","25","","24.1","","100.55","","","","-28","","Snow"
"-115.14","67.82","KUGLUKTUK A","2300903","2020-11-03 17:00","2020","11","03","17:00","-17.1","","-19.2","","84","","","","26","","23","","24.1","","100.56","","","","-27","","Snow"
"-115.14","67.82","KUGLUKTUK A","2300903","2020-11-03 18:00","2020","11","03","18:00","-17.4","","-19.2","","86","","","","26","","26","","16.1","","100.58","","","","-28","","Snow"
"-115.14","67.82","KUGLUKTUK A","2300903","2020-11-03 19:00","2020","11","03","19:00","-17.6","","-19.3","","87","","","","26","","23","","16.1","","100.60","","","","-28","","Snow"
"-115.14","67.82","KUGLUKTUK A","2300903","2020-11-03 20:00","2020","11","03","20:00","-17.6","","-19.2","","88","","","","25","","17","","16.1","","100.64","","","","-27","","Snow"
"-115.14","67.82","KUGLUKTUK A","2300903","2020-11-03 21:00","2020","11","03","21:00","-18.1","","-19.7","","87","","","","21","","16","","16.1","","100.66","","","","-27","","Snow Grains"
"-115.14","67.82","KUGLUKTUK A","2300903","2020-11-03 22:00","2020","11","03","22:00","-21.8","","-24.0","","82","","","","23","","13","","24.1","","100.66","","","","-31","","NA"
"-115.14","67.82","KUGLUKTUK A","2300903","2020-11-03 23:00","2020","11","03","23:00","-23.8","","-26.1","","81","","","","21","","15","","24.1","","100.66","","","","-34","","Mainly Clear"
"-115.14","67.82","KUGLUKTUK A","2300903","2020-11-04 00:00","2020","11","04","00:00","-24.2","","-26.8","","80","","","","21","","18","","24.1","","100.69","","","","-35","","NA"
"-115.14","67.82","KUGLUKTUK A","2300903","2020-11-04 01:00","2020","11","04","01:00","-22.3","","-24.8","","80","","","","19","","13","","24.1","","100.71","","","","-31","","NA"
"-115.14","67.82","KUGLUKTUK A","2300903","2020-11-04 02:00","2020","11","04","02:00","-22.9","","-25.5","","80","","","","22","","25","","24.1","","100.69","","","","-35","","Mostly Cloudy"
"-115.14","67.82","KUGLUKTUK A","2300903","2020-11-04 03:00","2020","11","04","03:00","-23.0","","-25.7","","79","","","","24","","13","","24.1","","100.75","","","","-32","","NA"
"-115.14","67.82","KUGLUKTUK A","2300903","2020-11-04 04:00","2020","11","04","04:00","-22.3","","-24.9","","80","","","","22","","22","","24.1","","100.78","","","","-34","","NA"
"-115.14","67.82","KUGLUKTUK A","2300903","2020-11-04 05:00","2020","11","04","05:00","-22.6","","-25.4","","78","","","","23","","18","","24.1","","100.86","","","","-33","","Mainly Clear"
"-115.14","67.82","KUGLUKTUK A","2300903","2020-11-04 06:00","2020","11","04","06:00","-21.7","","-24.6","","78","","","","23","","28","","24.1","","100.86","","","","-34","","NA"
"-115.14","67.82","KUGLUKTUK A","2300903","2020-11-04 07:00","2020","11","04","07:00","-20.9","","-23.9","","77","","","","24","","31","","24.1","","100.89","","","","-34","","NA"
"-115.14","67.82","KUGLUKTUK A","2300903","2020-11-04 08:00","2020","11","04","08:00","-20.9","","-24.2","","75","","","","23","","30","","24.1","","100.95","","","","-34","","Mainly Clear"
"-115.14","67.82","KUGLUKTUK A","2300903","2020-11-04 09:00","2020","11","04","09:00","-21.1","","-24.3","","76","","","","24","","14","","24.1","","101.04","","","","-30","","NA"
"-115.14","67.82","KUGLUKTUK A","2300903","2020-11-04 10:00","2020","11","04","10:00","-19.0","","-22.2","","76","","","","23","","12","","24.1","","101.07","","","","-27","","NA"
"-115.14","67.82","KUGLUKTUK A","2300903","2020-11-04 11:00","2020","11","04","11:00","-17.5","","-20.7","","76","","","","21","","18","","24.1","","101.10","","","","-27","","Cloudy"
"-115.14","67.82","KUGLUKTUK A","2300903","2020-11-04 12:00","2020","11","04","12:00","-16.4","","-19.7","","76","","","","21","","15","","24.1","","101.14","","","","-25","","NA"
"-115.14","67.82","KUGLUKTUK A","2300903","2020-11-04 13:00","2020","11","04","13:00","-15.8","","-19.1","","76","","","","23","","36","","24.1","","101.17","","","","-28","","NA"
"-115.14","67.82","KUGLUKTUK A","2300903","2020-11-04 14:00","2020","11","04","14:00","-15.2","","-18.5","","76","","","","23","","36","","24.1","","101.21","","","","-27","","Mostly Cloudy"
"-115.14","67.82","KUGLUKTUK A","2300903","2020-11-04 15:00","2020","11","04","15:00","-14.8","","-18.3","","75","","","","23","","32","","24.1","","101.26","","","","-26","","NA"
"-115.14","67.82","KUGLUKTUK A","2300903","2020-11-04 16:00","2020","11","04","16:00","-14.8","","-18.2","","76","","","","23","","30","","24.1","","101.32","","","","-26","","NA"
"-115.14","67.82","KUGLUKTUK A","2300903","2020-11-04 17:00","2020","11","04","17:00","-14.1","","-17.6","","75","","","","23","","32","","24.1","","101.34","","","","-25","","Cloudy"
"-115.14","67.82","KUGLUKTUK A","2300903","2020-11-04 18:00","2020","11","04","18:00","-13.9","","-17.4","","75","","","","23","","29","","24.1","","101.37","","","","-24","","NA"
"-115.14","67.82","KUGLUKTUK A","2300903","2020-11-04 19:00","2020","11","04","19:00","-13.9","","-17.8","","73","","","","23","","32","","24.1","","101.39","","","","-25","","NA"
"-115.14","67.82","KUGLUKTUK A","2300903","2020-11-04 20:00","2020","11","04","20:00","-14.1","","-17.6","","75","","","","23","","30","","24.1","","101.42","","","","-25","","Mostly Cloudy"
"-115.14","67.82","KUGLUKTUK A","2300903","2020-11-04 21:00","2020","11","04","21:00","-13.4","","-17.2","","74","","","","22","","33","","24.1","","101.46","","","","-24","","Snow"
"-115.14","67.82","KUGLUKTUK A","2300903","2020-11-04 22:00","2020","11","04","22:00","-13.5","","-17.0","","75","","","","22","","26","","24.1","","101.49","","","","-23","","NA"
"-115.14","67.82","KUGLUKTUK A","2300903","2020-11-04 23:00","2020","11","04","23:00","-13.4","","-17.0","","74","","","","22","","32","","24.1","","101.50","","","","-24","","Cloudy"
"-115.14","67.82","KUGLUKTUK A","2300903","2020-11-05 00:00","2020","11","05","00:00","-14.8","","-18.1","","76","","","","21","","30","","24.1","","101.55","","","","-26","","NA"
"-115.14","67.82","KUGLUKTUK A","2300903","2020-11-05 01:00","2020","11","05","01:00","-14.9","","-18.3","","76","","","","22","","26","","24.1","","101.57","","","","-25","","NA"
"-115.14","67.82","KUGLUKTUK A","2300903","2020-11-05 02:00","2020","11","05","02:00","-14.5","","-17.7","","77","","","","23","","28","","24.1","","101.59","","","","-25","","Mostly Cloudy"
"-115.14","67.82","KUGLUKTUK A","2300903","2020-11-05 03:00","2020","11","05","03:00","-13.7","","-17.1","","76","","","","23","","26","","24.1","","101.64","","","","-24","","NA"
"-115.14","67.82","KUGLUKTUK A","2300903","2020-11-05 04:00","2020","11","05","04:00","-13.0","","-16.7","","74","","","","22","","21","","24.1","","101.66","","","","-22","","NA"
"-115.14","67.82","KUGLUKTUK A","2300903","2020-11-05 05:00","2020","11","05","05:00","-12.7","","-16.6","","73","","","","23","","16","","24.1","","101.65","","","","-20","","Cloudy"
"-115.14","67.82","KUGLUKTUK A","2300903","2020-11-05 06:00","2020","11","05","06:00","-13.6","","-17.3","","74","","","","21","","9","","24.1","","101.68","","","","-19","","NA"
"-115.14","67.82","KUGLUKTUK A","2300903","2020-11-05 07:00","2020","11","05","07:00","-12.6","","-16.8","","71","","","","22","","18","","24.1","","101.68","","","","-21","","NA"
"-115.14","67.82","KUGLUKTUK A","2300903","2020-11-05 08:00","2020","11","05","08:00","-13.0","","-17.3","","71","","","","23","","13","","24.1","","101.70","","","","-20","","Mostly Cloudy"
"-115.14","67.82","KUGLUKTUK A","2300903","2020-11-05 09:00","2020","11","05","09:00","-12.4","","-16.5","","72","","","","24","","16","","24.1","","101.75","","","","-20","","NA"
"-115.14","67.82","KUGLUKTUK A","2300903","2020-11-05 10:00","2020","11","05","10:00","-12.5","","-16.0","","75","","","","25","","18","","24.1","","101.74","","","","-21","","NA"
"-115.14","67.82","KUGLUKTUK A","2300903","2020-11-05 11:00","2020","11","05","11:00","-12.8","","-16.6","","74","","","","24","","19","","24.1","","101.72","","","","-21","","Mostly Cloudy"
"-115.14","67.82","KUGLUKTUK A","2300903","2020-11-05 12:00","2020","11","05","12:00","-12.1","","-16.0","","73","","","","22","","25","","24.1","","101.72","","","","-21","","NA"
"-115.14","67.82","KUGLUKTUK A","2300903","2020-11-05 13:00","2020","11","05","13:00","-13.5","","-17.2","","74","","","","22","","25","","24.1","","101.71","","","","-23","","NA"
"-115.14","67.82","KUGLUKTUK A","2300903","2020-11-05 14:00","2020","11","05","14:00","-14.0","","-17.6","","75","","","","23","","18","","24.1","","101.73","","","","-22","","Mainly Clear"
"-115.14","67.82","KUGLUKTUK A","2300903","2020-11-05 15:00","2020","11","05","15:00","-14.9","","-18.2","","76","","","","22","","24","","24.1","","101.72","","","","-25","","NA"
"-115.14","67.82","KUGLUKTUK A","2300903","2020-11-05 16:00","2020","11","05","16:00","-15.6","","-18.9","","76","","","","23","","21","","24.1","","101.71","","","","-25","","NA"
"-115.14","67.82","KUGLUKTUK A","2300903","2020-11-05 17:00","2020","11","05","17:00","-16.0","","-19.4","","75","","","","23","","18","","24.1","","101.71","","","","-25","","Mainly Clear"
"-115.14","67.82","KUGLUKTUK A","2300903","2020-11-05 18:00","2020","11","05","18:00","-16.6","","-19.6","","78","","","","22","","23","","24.1","","101.65","","","","-27","","NA"
"-115.14","67.82","KUGLUKTUK A","2300903","2020-11-05 19:00","2020","11","05","19:00","-15.5","","-18.5","","78","","","","21","","22","","24.1","","101.60","","","","-25","","NA"
"-115.14","67.82","KUGLUKTUK A","2300903","2020-11-05 20:00","2020","11","05","20:00","-14.5","","-17.5","","78","","","","22","","21","","24.1","","101.56","","","","-24","","Mostly Cloudy"
"-115.14","67.82","KUGLUKTUK A","2300903","2020-11-05 21:00","2020","11","05","21:00","-13.9","","-16.7","","79","","","","22","","20","","24.1","","101.53","","","","-23","","NA"
"-115.14","67.82","KUGLUKTUK A","2300903","2020-11-05 22:00","2020","11","05","22:00","-13.2","","-16.3","","78","","","","23","","20","","24.1","","101.51","","","","-22","","NA"
"-115.14","67.82","KUGLUKTUK A","2300903","2020-11-05 23:00","2020","11","05","23:00","-13.1","","-16.3","","77","","","","22","","23","","24.1","","101.46","","","","-22","","Cloudy"
"-115.14","67.82","KUGLUKTUK A","2300903","2020-11-06 00:00","2020","11","06","00:00","-13.9","","-17.1","","77","","","","23","","25","","24.1","","101.39","","","","-24","","NA"
"-115.14","67.82","KUGLUKTUK A","2300903","2020-11-06 01:00","2020","11","06","01:00","-16.1","","-19.0","","79","","","","23","","19","","24.1","","101.37","","","","-25","","NA"
"-115.14","67.82","KUGLUKTUK A","2300903","2020-11-06 02:00","2020","11","06","02:00","-15.5","","-18.7","","77","","","","21","","21","","24.1","","101.32","","","","-25","","Mostly Cloudy"
"-115.14","67.82","KUGLUKTUK A","2300903","2020-11-06 03:00","2020","11","06","03:00","-15.6","","-18.6","","78","","","","19","","10","","24.1","","101.29","","","","-22","","NA"
"-115.14","67.82","KUGLUKTUK A","2300903","2020-11-06 04:00","2020","11","06","04:00","-15.6","","-18.8","","77","","","","21","","20","","24.1","","101.21","","","","-25","","NA"
"-115.14","67.82","KUGLUKTUK A","2300903","2020-11-06 05:00","2020","11","06","05:00","-15.2","","-18.7","","75","","","","22","","21","","24.1","","101.14","","","","-25","","Cloudy"
"-115.14","67.82","KUGLUKTUK A","2300903","2020-11-06 06:00","2020","11","06","06:00","-15.1","","-18.6","","75","","","","22","","22","","24.1","","101.06","","","","-25","","NA"
"-115.14","67.82","KUGLUKTUK A","2300903","2020-11-06 07:00","2020","11","06","07:00","-14.3","","-17.8","","75","","","","20","","21","","24.1","","101.02","","","","-24","","NA"
"-115.14","67.82","KUGLUKTUK A","2300903","2020-11-06 08:00","2020","11","06","08:00","-14.0","","-17.6","","74","","","","21","","27","","24.1","","100.94","","","","-24","","Cloudy"
"-115.14","67.82","KUGLUKTUK A","2300903","2020-11-06 09:00","2020","11","06","09:00","-14.6","","-18.2","","75","","","","19","","26","","24.1","","100.83","","","","-25","","NA"
"-115.14","67.82","KUGLUKTUK A","2300903","2020-11-06 10:00","2020","11","06","10:00","-14.8","","-18.7","","73","","","","22","","33","","24.1","","100.76","","","","-26","","NA"
"-115.14","67.82","KUGLUKTUK A","2300903","2020-11-06 11:00","2020","11","06","11:00","-15.1","","-19.1","","72","","","","20","","28","","24.1","","100.72","","","","-26","","Mostly Cloudy"
"-115.14","67.82","KUGLUKTUK A","2300903","2020-11-06 12:00","2020","11","06","12:00","-14.8","","-18.8","","72","","","","21","","26","","24.1","","100.66","","","","-25","","NA"
"-115.14","67.82","KUGLUKTUK A","2300903","2020-11-06 13:00","2020","11","06","13:00","-14.6","","-18.4","","73","","","","19","","22","","24.1","","100.61","","","","-24","","NA"
"-115.14","67.82","KUGLUKTUK A","2300903","2020-11-06 14:00","2020","11","06","14:00","-13.7","","-17.6","","73","","","","22","","21","","24.1","","100.61","","","","-23","","Cloudy"
"-115.14","67.82","KUGLUKTUK A","2300903","2020-11-06 15:00","2020","11","06","15:00","-12.8","","-16.2","","76","","","","23","","15","","16.1","","100.56","","","","-20","","Snow"
"-115.14","67.82","KUGLUKTUK A","2300903","2020-11-06 16:00","2020","11","06","16:00","-11.8","","-15.8","","72","","","","21","","34","","16.1","","100.47","","","","-22","","Snow"
"-115.14","67.82","KUGLUKTUK A","2300903","2020-11-06 17:00","2020","11","06","17:00","-12.8","","-16.5","","74","","","","22","","32","","24.1","","100.42","","","","-23","","Mostly Cloudy"
"-115.14","67.82","KUGLUKTUK A","2300903","2020-11-06 18:00","2020","11","06","18:00","-13.9","","-17.6","","74","","","","19","","30","","24.1","","100.37","","","","-25","","NA"
"-115.14","67.82","KUGLUKTUK A","2300903","2020-11-06 19:00","2020","11","06","19:00","-13.4","","-17.0","","75","","","","20","","31","","24.1","","100.36","","","","-24","","NA"
"-115.14","67.82","KUGLUKTUK A","2300903","2020-11-06 20:00","2020","11","06","20:00","-13.8","","-17.1","","76","","","","20","","28","","24.1","","100.31","","","","-24","","Mostly Cloudy"
"-115.14","67.82","KUGLUKTUK A","2300903","2020-11-06 21:00","2020","11","06","21:00","-13.4","","-16.9","","75","","","","21","","32","","24.1","","100.28","","","","-24","","NA"
"-115.14","67.82","KUGLUKTUK A","2300903","2020-11-06 22:00","2020","11","06","22:00","-13.5","","-16.8","","76","","","","21","","26","","24.1","","100.26","","","","-23","","NA"
"-115.14","67.82","KUGLUKTUK A","2300903","2020-11-06 23:00","2020","11","06","23:00","-13.7","","-17.1","","75","","","","21","","22","","24.1","","100.23","","","","-23","","Mainly Clear"
"-115.14","67.82","KUGLUKTUK A","2300903","2020-11-07 00:00","2020","11","07","00:00","-13.2","","-16.2","","78","","","","21","","25","","19.3","","100.23","","","","-23","","Snow"
"-115.14","67.82","KUGLUKTUK A","2300903","2020-11-07 01:00","2020","11","07","01:00","-13.8","","-16.3","","81","","","","21","","13","","19.3","","100.24","","","","-21","","Snow"
"-115.14","67.82","KUGLUKTUK A","2300903","2020-11-07 02:00","2020","11","07","02:00","-13.1","","-16.4","","77","","","","23","","20","","24.1","","100.25","","","","-22","","Cloudy"
"-115.14","67.82","KUGLUKTUK A","2300903","2020-11-07 03:00","2020","11","07","03:00","-13.4","","-16.7","","77","","","","22","","23","","24.1","","100.24","","","","-23","","Snow"
"-115.14","67.82","KUGLUKTUK A","2300903","2020-11-07 04:00","2020","11","07","04:00","-14.0","","-17.0","","78","","","","23","","25","","24.1","","100.25","","","","-24","","Ice Crystals"
"-115.14","67.82","KUGLUKTUK A","2300903","2020-11-07 05:00","2020","11","07","05:00","-13.8","","-16.8","","79","","","","23","","19","","24.1","","100.29","","","","-22","","Ice Crystals"
"-115.14","67.82","KUGLUKTUK A","2300903","2020-11-07 06:00","2020","11","07","06:00","-13.4","","-16.2","","80","","","","24","","22","","24.1","","100.32","","","","-23","","Ice Crystals"
"-115.14","67.82","KUGLUKTUK A","2300903","2020-11-07 07:00","2020","11","07","07:00","-14.6","","-17.5","","79","","","","25","","16","","24.1","","100.37","","","","-23","","Ice Crystals"
"-115.14","67.82","KUGLUKTUK A","2300903","2020-11-07 08:00","2020","11","07","08:00","-15.6","","-18.5","","79","","","","25","","22","","24.1","","100.44","","","","-25","","Mostly Cloudy"
"-115.14","67.82","KUGLUKTUK A","2300903","2020-11-07 09:00","2020","11","07","09:00","-17.9","","-20.3","","82","","","","24","","20","","24.1","","100.45","","","","-28","","NA"
"-115.14","67.82","KUGLUKTUK A","2300903","2020-11-07 10:00","2020","11","07","10:00","-16.6","","-19.6","","78","","","","24","","27","","24.1","","100.49","","","","-28","","NA"
"-115.14","67.82","KUGLUKTUK A","2300903","2020-11-07 11:00","2020","11","07","11:00","-16.8","","-20.0","","77","","","","23","","24","","24.1","","100.51","","","","-27","","Clear"
"-115.14","67.82","KUGLUKTUK A","2300903","2020-11-07 12:00","2020","11","07","12:00","-16.2","","-19.4","","77","","","","23","","27","","24.1","","100.55","","","","-27","","NA"
"-115.14","67.82","KUGLUKTUK A","2300903","2020-11-07 13:00","2020","11","07","13:00","-16.1","","-19.2","","78","","","","22","","20","","24.1","","100.57","","","","-26","","NA"
"-115.14","67.82","KUGLUKTUK A","2300903","2020-11-07 14:00","2020","11","07","14:00","-14.3","","-17.8","","75","","","","24","","22","","24.1","","100.56","","","","-24","","Mainly Clear"
"-115.14","67.82","KUGLUKTUK A","2300903","2020-11-07 15:00","2020","11","07","15:00","-15.2","","-17.9","","80","","","","23","","20","","24.1","","100.57","","","","-24","","NA"
"-115.14","67.82","KUGLUKTUK A","2300903","2020-11-07 16:00","2020","11","07","16:00","-14.3","","-17.0","","80","","","","23","","21","","24.1","","100.58","","","","-24","","NA"
"-115.14","67.82","KUGLUKTUK A","2300903","2020-11-07 17:00","2020","11","07","17:00","-12.0","","-14.3","","83","","","","24","","27","","16.1","","100.54","","","","-22","","Snow"
"-115.14","67.82","KUGLUKTUK A","2300903","2020-11-07 18:00","2020","11","07","18:00","-9.8","","-11.9","","85","","","","23","","21","","16.1","","100.50","","","","-18","","Snow"
"-115.14","67.82","KUGLUKTUK A","2300903","2020-11-07 19:00","2020","11","07","19:00","-7.7","","-10.2","","82","","","","25","","21","","24.1","","100.50","","","","-15","","NA"
"-115.14","67.82","KUGLUKTUK A","2300903","2020-11-07 20:00","2020","11","07","20:00","-8.4","","-10.7","","84","","","","23","","24","","24.1","","100.51","","","","-17","","Snow"
"-115.14","67.82","KUGLUKTUK A","2300903","2020-11-07 21:00","2020","11","07","21:00","-6.8","","-8.8","","85","","","","23","","27","","19.3","","100.50","","","","-15","","Snow"
"-115.14","67.82","KUGLUKTUK A","2300903","2020-11-07 22:00","2020","11","07","22:00","-4.8","","-6.8","","86","","","","24","","36","","24.1","","100.49","","","","-13","","Snow"
"-115.14","67.82","KUGLUKTUK A","2300903","2020-11-07 23:00","2020","11","07","23:00","-5.0","","-6.5","","89","","","","24","","32","","24.1","","100.51","","","","-13","","Mostly Cloudy"
"-115.14","67.82","KUGLUKTUK A","2300903","2020-11-08 00:00","2020","11","08","00:00","-3.5","","-4.7","","92","","","","25","","30","","24.1","","100.53","","","","-11","","NA"
"-115.14","67.82","KUGLUKTUK A","2300903","2020-11-08 01:00","2020","11","08","01:00","-2.9","","-5.5","","82","","","","24","","32","","24.1","","100.61","","","","-10","","NA"
"-115.14","67.82","KUGLUKTUK A","2300903","2020-11-08 02:00","2020","11","08","02:00","-2.9","","-5.5","","82","","","","24","","28","","24.1","","100.63","","","","-10","","Mostly Cloudy"
"-115.14","67.82","KUGLUKTUK A","2300903","2020-11-08 03:00","2020","11","08","03:00","-2.8","","-5.0","","85","","","","23","","34","","24.1","","100.63","","","","-11","","NA"
"-115.14","67.82","KUGLUKTUK A","2300903","2020-11-08 04:00","2020","11","08","04:00","-3.3","","-5.4","","85","","","","23","","26","","24.1","","100.62","","","","-10","","NA"
"-115.14","67.82","KUGLUKTUK A","2300903","2020-11-08 05:00","2020","11","08","05:00","-2.5","","-4.9","","84","","","","24","","35","","19.3","","100.62","","","","-10","","Snow"
"-115.14","67.82","KUGLUKTUK A","2300903","2020-11-08 06:00","2020","11","08","06:00","-2.5","","-4.4","","87","","","","24","","26","","12.9","","100.61","","","","-9","","Snow"
"-115.14","67.82","KUGLUKTUK A","2300903","2020-11-08 07:00","2020","11","08","07:00","-2.6","","-4.9","","85","","","","24","","29","","24.1","","100.57","","","","-10","","NA"
"-115.14","67.82","KUGLUKTUK A","2300903","2020-11-08 08:00","2020","11","08","08:00","-2.2","","-4.5","","84","","","","22","","31","","24.1","","100.53","","","","-9","","Snow,Blowing Snow"
"-115.14","67.82","KUGLUKTUK A","2300903","2020-11-08 09:00","2020","11","08","09:00","-1.7","","-4.3","","82","","","","22","","32","","24.1","","100.47","","","","-9","","NA"
"-115.14","67.82","KUGLUKTUK A","2300903","2020-11-08 10:00","2020","11","08","10:00","-1.6","","-4.5","","81","","","","24","","25","","24.1","","100.41","","","","-8","","NA"
"-115.14","67.82","KUGLUKTUK A","2300903","2020-11-08 11:00","2020","11","08","11:00","-0.9","","-4.3","","78","","","","22","","35","","24.1","","100.33","","","","-8","","Cloudy"
"-115.14","67.82","KUGLUKTUK A","2300903","2020-11-08 12:00","2020","11","08","12:00","-1.0","","-2.9","","87","","","","23","","32","","9.7","","100.28","","","","-8","","Snow,Blowing Snow"
"-115.14","67.82","KUGLUKTUK A","2300903","2020-11-08 13:00","2020","11","08","13:00","-0.8","","-3.3","","83","","","","24","","25","","24.1","","100.24","","","","-7","","NA"
"-115.14","67.82","KUGLUKTUK A","2300903","2020-11-08 14:00","2020","11","08","14:00","-1.2","","-2.5","","91","","","","25","","22","","2.4","","100.21","","","","-7","","Snow"
"-115.14","67.82","KUGLUKTUK A","2300903","2020-11-08 15:00","2020","11","08","15:00","-0.9","","-2.5","","89","","","","25","","23","","2.4","","100.15","","","","-7","","Snow"
"-115.14","67.82","KUGLUKTUK A","2300903","2020-11-08 16:00","2020","11","08","16:00","-1.2","","-3.2","","86","","","","22","","14","","19.3","","100.10","","","","-6","","Snow"
"-115.14","67.82","KUGLUKTUK A","2300903","2020-11-08 17:00","2020","11","08","17:00","-1.9","","-4.7","","81","","","","20","","20","","24.1","","100.01","","","","-8","","Snow"
"-115.14","67.82","KUGLUKTUK A","2300903","2020-11-08 18:00","2020","11","08","18:00","-1.6","","-6.1","","72","","","","21","","34","","24.1","","99.89","","","","-9","","Snow,Blowing Snow"
"-115.14","67.82","KUGLUKTUK A","2300903","2020-11-08 19:00","2020","11","08","19:00","-3.2","","-7.4","","73","","","","20","","29","","24.1","","99.79","","","","-11","","Blowing Snow"
"-115.14","67.82","KUGLUKTUK A","2300903","2020-11-08 20:00","2020","11","08","20:00","-4.2","","-8.3","","73","","","","22","","37","","19.3","","99.69","","","","-13","","Blowing Snow"
"-115.14","67.82","KUGLUKTUK A","2300903","2020-11-08 21:00","2020","11","08","21:00","-4.8","","-9.2","","71","","","","21","","31","","24.1","","99.64","","","","-13","","Blowing Snow"
"-115.14","67.82","KUGLUKTUK A","2300903","2020-11-08 22:00","2020","11","08","22:00","-6.0","","-9.7","","75","","","","20","","26","","24.1","","99.58","","","","-14","","NA"
"-115.14","67.82","KUGLUKTUK A","2300903","2020-11-08 23:00","2020","11","08","23:00","-7.5","","-10.5","","79","","","","21","","27","","24.1","","99.51","","","","-16","","Mostly Cloudy"
"-115.14","67.82","KUGLUKTUK A","2300903","2020-11-09 00:00","2020","11","09","00:00","-7.2","","-10.5","","78","","","","20","","27","","24.1","","99.46","","","","-15","","NA"
"-115.14","67.82","KUGLUKTUK A","2300903","2020-11-09 01:00","2020","11","09","01:00","-7.5","","-10.7","","78","","","","21","","23","","24.1","","99.45","","","","-15","","NA"
"-115.14","67.82","KUGLUKTUK A","2300903","2020-11-09 02:00","2020","11","09","02:00","-7.6","","-10.9","","77","","","","21","","28","","24.1","","99.40","","","","-16","","Mostly Cloudy"
"-115.14","67.82","KUGLUKTUK A","2300903","2020-11-09 03:00","2020","11","09","03:00","-7.9","","-10.7","","80","","","","22","","10","","24.1","","99.44","","","","-13","","NA"
"-115.14","67.82","KUGLUKTUK A","2300903","2020-11-09 04:00","2020","11","09","04:00","-8.6","","-11.1","","82","","","","22","","17","","24.1","","99.40","","","","-15","","NA"
"-115.14","67.82","KUGLUKTUK A","2300903","2020-11-09 05:00","2020","11","09","05:00","-9.3","","-11.5","","85","","","","23","","15","","24.1","","99.42","","","","-16","","Mostly Cloudy"
"-115.14","67.82","KUGLUKTUK A","2300903","2020-11-09 06:00","2020","11","09","06:00","-7.1","","-9.4","","83","","","","27","","23","","24.1","","99.47","","","","-15","","Snow"
"-115.14","67.82","KUGLUKTUK A","2300903","2020-11-09 07:00","2020","11","09","07:00","-8.4","","-10.5","","85","","","","34","","32","","16.1","","99.55","","","","-18","","Snow,Blowing Snow"
"-115.14","67.82","KUGLUKTUK A","2300903","2020-11-09 08:00","2020","11","09","08:00","-10.1","","-12.2","","84","","","","35","","37","","4.8","","99.65","","","","-21","","Snow,Blowing Snow"
"-115.14","67.82","KUGLUKTUK A","2300903","2020-11-09 09:00","2020","11","09","09:00","-11.4","","-14.0","","81","","","","35","","39","","3.6","","99.77","","","","-23","","Snow,Blowing Snow"
"-115.14","67.82","KUGLUKTUK A","2300903","2020-11-09 10:00","2020","11","09","10:00","-13.0","","-15.5","","82","","","","33","","39","","3.2","","99.92","","","","-25","","Snow,Blowing Snow"
"-115.14","67.82","KUGLUKTUK A","2300903","2020-11-09 11:00","2020","11","09","11:00","-14.3","","-17.0","","80","","","","33","","36","","3.2","","100.04","","","","-26","","Snow,Blowing Snow"
"-115.14","67.82","KUGLUKTUK A","2300903","2020-11-09 12:00","2020","11","09","12:00","-15.8","","-19.1","","76","","","","33","","46","","12.9","","100.17","","","","-29","","Snow,Blowing Snow"
"-115.14","67.82","KUGLUKTUK A","2300903","2020-11-09 13:00","2020","11","09","13:00","-17.0","","-20.4","","76","","","","34","","36","","24.1","","100.29","","","","-30","","Blowing Snow"
"-115.14","67.82","KUGLUKTUK A","2300903","2020-11-09 14:00","2020","11","09","14:00","-18.5","","-22.1","","73","","","","33","","36","","24.1","","100.41","","","","-32","","Mainly Clear"
"-115.14","67.82","KUGLUKTUK A","2300903","2020-11-09 15:00","2020","11","09","15:00","-19.4","","-22.8","","74","","","","33","","31","","24.1","","100.57","","","","-32","","Blowing Snow"
"-115.14","67.82","KUGLUKTUK A","2300903","2020-11-09 16:00","2020","11","09","16:00","-19.9","","-23.4","","74","","","","30","","17","","24.1","","100.66","","","","-30","","NA"
"-115.14","67.82","KUGLUKTUK A","2300903","2020-11-09 17:00","2020","11","09","17:00","-20.6","","-24.2","","73","","","","27","","14","","24.1","","100.78","","","","-29","","Mainly Clear"
"-115.14","67.82","KUGLUKTUK A","2300903","2020-11-09 18:00","2020","11","09","18:00","-19.1","","-22.8","","73","","","","31","","24","","6.4","","100.82","","","","-30","","Fog"
"-115.14","67.82","KUGLUKTUK A","2300903","2020-11-09 19:00","2020","11","09","19:00","-18.9","","-23.1","","70","","","","29","","16","","16.1","","100.85","","","","-28","","Ice Crystals"
"-115.14","67.82","KUGLUKTUK A","2300903","2020-11-09 20:00","2020","11","09","20:00","-22.3","","-25.0","","79","","","","24","","28","","24.1","","100.89","","","","-35","","Ice Crystals"
"-115.14","67.82","KUGLUKTUK A","2300903","2020-11-09 21:00","2020","11","09","21:00","-22.4","","-25.9","","74","","","","23","","26","","24.1","","100.94","","","","-35","","Ice Crystals"
"-115.14","67.82","KUGLUKTUK A","2300903","2020-11-09 22:00","2020","11","09","22:00","-21.3","","-25.3","","71","","","","26","","35","","24.1","","100.95","","","","-35","","Ice Crystals"
"-115.14","67.82","KUGLUKTUK A","2300903","2020-11-09 23:00","2020","11","09","23:00","-20.7","","-25.1","","69","","","","25","","35","","24.1","","100.99","","","","-34","","Ice Crystals"
"-115.14","67.82","KUGLUKTUK A","2300903","2020-11-10 00:00","2020","11","10","00:00","-19.9","","-24.2","","69","","","","25","","37","","24.1","","101.01","","","","-34","","Ice Crystals,Blowing Snow"
"-115.14","67.82","KUGLUKTUK A","2300903","2020-11-10 01:00","2020","11","10","01:00","-19.0","","-22.6","","73","","","","26","","40","","19.3","","101.02","","","","-33","","Ice Crystals,Blowing Snow"
"-115.14","67.82","KUGLUKTUK A","2300903","2020-11-10 02:00","2020","11","10","02:00","-19.2","","-22.9","","73","","","","26","","38","","19.3","","101.06","","","","-33","","Ice Crystals,Blowing Snow"
"-115.14","67.82","KUGLUKTUK A","2300903","2020-11-10 03:00","2020","11","10","03:00","-19.3","","-23.1","","72","","","","25","","32","","24.1","","101.08","","","","-32","","Ice Crystals"
"-115.14","67.82","KUGLUKTUK A","2300903","2020-11-10 04:00","2020","11","10","04:00","-19.1","","-22.6","","74","","","","26","","32","","24.1","","101.07","","","","-32","","Ice Crystals,Blowing Snow"
"-115.14","67.82","KUGLUKTUK A","2300903","2020-11-10 05:00","2020","11","10","05:00","-19.1","","-22.9","","73","","","","27","","40","","19.3","","101.06","","","","-33","","Ice Crystals,Blowing Snow"
"-115.14","67.82","KUGLUKTUK A","2300903","2020-11-10 06:00","2020","11","10","06:00","-19.3","","-23.0","","73","","","","26","","40","","19.3","","101.07","","","","-33","","Ice Crystals,Blowing Snow"
"-115.14","67.82","KUGLUKTUK A","2300903","2020-11-10 07:00","2020","11","10","07:00","-19.0","","-22.5","","74","","","","26","","42","","19.3","","101.02","","","","-33","","Ice Crystals,Blowing Snow"
"-115.14","67.82","KUGLUKTUK A","2300903","2020-11-10 08:00","2020","11","10","08:00","-19.5","","-23.4","","71","","","","26","","40","","24.1","","101.02","","","","-33","","Ice Crystals,Blowing Snow"
"-115.14","67.82","KUGLUKTUK A","2300903","2020-11-10 09:00","2020","11","10","09:00","-19.4","","-23.1","","73","","","","26","","43","","24.1","","101.02","","","","-34","","Blowing Snow"
"-115.14","67.82","KUGLUKTUK A","2300903","2020-11-10 10:00","2020","11","10","10:00","-19.1","","-23.0","","72","","","","27","","50","","16.1","","100.94","","","","-34","","Blowing Snow"
"-115.14","67.82","KUGLUKTUK A","2300903","2020-11-10 11:00","2020","11","10","11:00","-19.4","","-23.1","","73","","","","26","","50","","16.1","","100.96","","","","-35","","Blowing Snow"
"-115.14","67.82","KUGLUKTUK A","2300903","2020-11-10 12:00","2020","11","10","12:00","-19.0","","-22.8","","73","","","","26","","48","","16.1","","100.96","","","","-34","","Blowing Snow"
"-115.14","67.82","KUGLUKTUK A","2300903","2020-11-10 13:00","2020","11","10","13:00","-18.7","","-22.3","","74","","","","27","","50","","8.1","","100.93","","","","-34","","Blowing Snow"
"-115.14","67.82","KUGLUKTUK A","2300903","2020-11-10 14:00","2020","11","10","14:00","-18.4","","-21.3","","78","","","","27","","46","","4.8","","100.91","","","","-33","","Blowing Snow"
"-115.14","67.82","KUGLUKTUK A","2300903","2020-11-10 15:00","2020","11","10","15:00","-17.8","","-20.4","","80","","","","26","","43","","12.9","","100.93","","","","-32","","Blowing Snow"
"-115.14","67.82","KUGLUKTUK A","2300903","2020-11-10 16:00","2020","11","10","16:00","-16.5","","-19.8","","76","","","","26","","42","","16.1","","100.94","","","","-30","","Blowing Snow"
"-115.14","67.82","KUGLUKTUK A","2300903","2020-11-10 17:00","2020","11","10","17:00","-16.5","","-19.6","","77","","","","27","","35","","4.8","","100.98","","","","-29","","Snow,Blowing Snow"
"-115.14","67.82","KUGLUKTUK A","2300903","2020-11-10 18:00","2020","11","10","18:00","-16.8","","-20.0","","76","","","","27","","47","","2.8","","100.96","","","","-31","","Snow,Blowing Snow"
"-115.14","67.82","KUGLUKTUK A","2300903","2020-11-10 19:00","2020","11","10","19:00","-16.2","","-18.5","","83","","","","28","","35","","2.4","","101.03","","","","-28","","Snow,Blowing Snow"
"-115.14","67.82","KUGLUKTUK A","2300903","2020-11-10 20:00","2020","11","10","20:00","-14.4","","-17.6","","77","","","","31","","41","","12.9","","101.07","","","","-27","","Snow,Blowing Snow"
"-115.14","67.82","KUGLUKTUK A","2300903","2020-11-10 21:00","2020","11","10","21:00","-14.5","","-18.1","","74","","","","29","","35","","24.1","","101.10","","","","-26","","Snow,Blowing Snow"
"-115.14","67.82","KUGLUKTUK A","2300903","2020-11-10 22:00","2020","11","10","22:00","-14.7","","-17.9","","77","","","","27","","32","","19.3","","101.13","","","","-26","","Snow,Blowing Snow"
"-115.14","67.82","KUGLUKTUK A","2300903","2020-11-10 23:00","2020","11","10","23:00","-15.1","","-18.0","","79","","","","27","","36","","9.7","","101.14","","","","-27","","Snow,Blowing Snow"
"-115.14","67.82","KUGLUKTUK A","2300903","2020-11-11 00:00","2020","11","11","00:00","-15.8","","-18.5","","80","","","","27","","33","","24.1","","101.15","","","","-28","","Snow"
"-115.14","67.82","KUGLUKTUK A","2300903","2020-11-11 01:00","2020","11","11","01:00","-17.0","","-20.3","","76","","","","25","","32","","24.1","","101.19","","","","-29","","NA"
"-115.14","67.82","KUGLUKTUK A","2300903","2020-11-11 02:00","2020","11","11","02:00","-16.5","","-20.0","","74","","","","26","","35","","24.1","","101.20","","","","-29","","Snow"
"-115.14","67.82","KUGLUKTUK A","2300903","2020-11-11 03:00","2020","11","11","03:00","-17.6","","-21.5","","72","","","","24","","27","","24.1","","101.22","","","","-29","","Ice Crystals"
"-115.14","67.82","KUGLUKTUK A","2300903","2020-11-11 04:00","2020","11","11","04:00","-19.2","","-23.0","","72","","","","23","","29","","24.1","","101.22","","","","-31","","NA"
"-115.14","67.82","KUGLUKTUK A","2300903","2020-11-11 05:00","2020","11","11","05:00","-20.6","","-24.2","","73","","","","23","","24","","24.1","","101.15","","","","-32","","Mainly Clear"
"-115.14","67.82","KUGLUKTUK A","2300903","2020-11-11 06:00","2020","11","11","06:00","-20.7","","-24.3","","73","","","","22","","27","","24.1","","101.11","","","","-33","","NA"
"-115.14","67.82","KUGLUKTUK A","2300903","2020-11-11 07:00","2020","11","11","07:00","-20.9","","-24.4","","74","","","","24","","25","","24.1","","101.06","","","","-33","","NA"
"-115.14","67.82","KUGLUKTUK A","2300903","2020-11-11 08:00","2020","11","11","08:00","-21.1","","-24.7","","73","","","","23","","26","","24.1","","101.01","","","","-33","","Clear"
"-115.14","67.82","KUGLUKTUK A","2300903","2020-11-11 09:00","2020","11","11","09:00","-21.9","","-25.4","","74","","","","21","","24","","24.1","","100.98","","","","-34","","NA"
"-115.14","67.82","KUGLUKTUK A","2300903","2020-11-11 10:00","2020","11","11","10:00","-21.9","","-25.4","","74","","","","23","","30","","24.1","","100.90","","","","-35","","NA"
"-115.14","67.82","KUGLUKTUK A","2300903","2020-11-11 11:00","2020","11","11","11:00","-22.0","","-25.7","","72","","","","22","","32","","24.1","","100.87","","","","-36","","Blowing Snow"
"-115.14","67.82","KUGLUKTUK A","2300903","2020-11-11 12:00","2020","11","11","12:00","-21.1","","-25.0","","71","","","","23","","29","","24.1","","100.79","","","","-34","","Blowing Snow"
"-115.14","67.82","KUGLUKTUK A","2300903","2020-11-11 13:00","2020","11","11","13:00","-20.5","","-24.6","","70","","","","23","","28","","24.1","","100.71","","","","-33","","Blowing Snow"
"-115.14","67.82","KUGLUKTUK A","2300903","2020-11-11 14:00","2020","11","11","14:00","-20.4","","-24.2","","72","","","","23","","26","","24.1","","100.67","","","","-32","","Clear"
"-115.14","67.82","KUGLUKTUK A","2300903","2020-11-11 15:00","2020","11","11","15:00","-21.5","","-25.1","","73","","","","24","","20","","24.1","","100.63","","","","-32","","NA"
"-115.14","67.82","KUGLUKTUK A","2300903","2020-11-11 16:00","2020","11","11","16:00","-22.1","","-25.1","","76","","","","19","","14","","24.1","","100.56","","","","-31","","NA"
"-115.14","67.82","KUGLUKTUK A","2300903","2020-11-11 17:00","2020","11","11","17:00","-20.8","","-23.8","","78","","","","23","","24","","24.1","","100.43","","","","-32","","Clear"
"-115.14","67.82","KUGLUKTUK A","2300903","2020-11-11 18:00","2020","11","11","18:00","-20.3","","-23.0","","79","","","","23","","29","","24.1","","100.34","","","","-33","","NA"
"-115.14","67.82","KUGLUKTUK A","2300903","2020-11-11 19:00","2020","11","11","19:00","-19.9","","-22.3","","82","","","","23","","20","","24.1","","100.26","","","","-30","","Ice Crystals"
"-115.14","67.82","KUGLUKTUK A","2300903","2020-11-11 20:00","2020","11","11","20:00","-20.1","","-22.4","","82","","","","23","","21","","24.1","","100.16","","","","-31","","Ice Crystals"
"-115.14","67.82","KUGLUKTUK A","2300903","2020-11-11 21:00","2020","11","11","21:00","-19.8","","-22.1","","82","","","","23","","21","","24.1","","100.04","","","","-30","","Ice Crystals"
"-115.14","67.82","KUGLUKTUK A","2300903","2020-11-11 22:00","2020","11","11","22:00","-18.3","","-21.9","","74","","","","22","","15","","24.1","","99.93","","","","-27","","NA"
"-115.14","67.82","KUGLUKTUK A","2300903","2020-11-11 23:00","2020","11","11","23:00","-17.0","","-21.8","","67","","","","23","","21","","24.1","","99.84","","","","-27","","Clear"
"-115.14","67.82","KUGLUKTUK A","2300903","2020-11-12 00:00","2020","11","12","00:00","-16.1","","-21.5","","64","","","","22","","22","","24.1","","99.72","","","","-26","","NA"
"-115.14","67.82","KUGLUKTUK A","2300903","2020-11-12 01:00","2020","11","12","01:00","-16.4","","-21.9","","63","","","","22","","28","","24.1","","99.65","","","","-28","","NA"
"-115.14","67.82","KUGLUKTUK A","2300903","2020-11-12 02:00","2020","11","12","02:00","-16.1","","-22.9","","56","","","","21","","34","","24.1","","99.55","","","","-28","","Clear"
"-115.14","67.82","KUGLUKTUK A","2300903","2020-11-12 03:00","2020","11","12","03:00","-17.0","","-22.8","","61","","","","22","","30","","24.1","","99.47","","","","-29","","NA"
"-115.14","67.82","KUGLUKTUK A","2300903","2020-11-12 04:00","2020","11","12","04:00","-17.1","","-22.9","","61","","","","23","","21","","24.1","","99.34","","","","-27","","NA"
"-115.14","67.82","KUGLUKTUK A","2300903","2020-11-12 05:00","2020","11","12","05:00","-15.4","","-20.4","","66","","","","20","","40","","24.1","","99.17","","","","-28","","Mainly Clear"
"-115.14","67.82","KUGLUKTUK A","2300903","2020-11-12 06:00","2020","11","12","06:00","-15.8","","-19.6","","72","","","","22","","25","","19.3","","99.07","","","","-26","","Ice Crystals"
"-115.14","67.82","KUGLUKTUK A","2300903","2020-11-12 07:00","2020","11","12","07:00","-16.2","","-20.1","","73","","","","23","","25","","24.1","","98.99","","","","-27","","Ice Crystals"
"-115.14","67.82","KUGLUKTUK A","2300903","2020-11-12 08:00","2020","11","12","08:00","-18.2","","-21.5","","75","","","","23","","17","","24.1","","98.94","","","","-27","","Ice Crystals"
"-115.14","67.82","KUGLUKTUK A","2300903","2020-11-12 09:00","2020","11","12","09:00","-18.5","","-21.7","","76","","","","23","","22","","24.1","","98.90","","","","-29","","Ice Crystals"
"-115.14","67.82","KUGLUKTUK A","2300903","2020-11-12 10:00","2020","11","12","10:00","-19.6","","-22.6","","77","","","","21","","19","","24.1","","98.82","","","","-30","","Ice Crystals"
"-115.14","67.82","KUGLUKTUK A","2300903","2020-11-12 11:00","2020","11","12","11:00","-17.1","","-20.5","","75","","","","21","","23","","24.1","","98.72","","","","-27","","Ice Crystals"
"-115.14","67.82","KUGLUKTUK A","2300903","2020-11-12 12:00","2020","11","12","12:00","-16.0","","-19.4","","75","","","","24","","13","","24.1","","98.68","","","","-24","","NA"
"-115.14","67.82","KUGLUKTUK A","2300903","2020-11-12 13:00","2020","11","12","13:00","-16.8","","-19.5","","79","","","","29","","10","","24.1","","98.64","","","","-23","","NA"
"-115.14","67.82","KUGLUKTUK A","2300903","2020-11-12 14:00","2020","11","12","14:00","-15.9","","-19.2","","76","","","","27","","5","","19.3","","98.63","","","","-20","","Snow Grains"
"-115.14","67.82","KUGLUKTUK A","2300903","2020-11-12 15:00","2020","11","12","15:00","-16.4","","-19.2","","80","","","","32","","7","","24.1","","98.60","","","","-21","","Snow Grains"
"-115.14","67.82","KUGLUKTUK A","2300903","2020-11-12 16:00","2020","11","12","16:00","-17.9","","-20.5","","80","","","","29","","17","","24.1","","98.62","","","","-27","","NA"
"-115.14","67.82","KUGLUKTUK A","2300903","2020-11-12 17:00","2020","11","12","17:00","-20.2","","-22.3","","84","","","","30","","18","","24.1","","98.66","","","","-30","","Mainly Clear"
"-115.14","67.82","KUGLUKTUK A","2300903","2020-11-12 18:00","2020","11","12","18:00","-16.2","","-17.5","","90","","","","33","","17","","6.4","","98.68","","","","-25","","Snow Grains"
"-115.14","67.82","KUGLUKTUK A","2300903","2020-11-12 19:00","2020","11","12","19:00","-19.0","","-21.3","","83","","","","27","","23","","16.1","","98.70","","","","-30","","Snow"
"-115.14","67.82","KUGLUKTUK A","2300903","2020-11-12 20:00","2020","11","12","20:00","-19.2","","-21.3","","83","","","","27","","23","","16.1","","98.72","","","","-30","","Snow,Blowing Snow"
"-115.14","67.82","KUGLUKTUK A","2300903","2020-11-12 21:00","2020","11","12","21:00","-18.4","","-21.0","","81","","","","27","","25","","16.1","","98.76","","","","-30","","Snow,Blowing Snow"
"-115.14","67.82","KUGLUKTUK A","2300903","2020-11-12 22:00","2020","11","12","22:00","-19.7","","-22.1","","81","","","","27","","28","","16.1","","98.82","","","","-32","","Snow,Blowing Snow"
"-115.14","67.82","KUGLUKTUK A","2300903","2020-11-12 23:00","2020","11","12","23:00","-18.7","","-21.0","","83","","","","27","","22","","16.1","","98.87","","","","-29","","Snow,Blowing Snow"
"-115.14","67.82","KUGLUKTUK A","2300903","2020-11-13 00:00","2020","11","13","00:00","-14.9","","-17.7","","80","","","","35","","20","","16.1","","98.91","","","","-24","","Snow,Blowing Snow"
"-115.14","67.82","KUGLUKTUK A","2300903","2020-11-13 01:00","2020","11","13","01:00","-15.1","","-17.4","","83","","","","34","","33","","9.7","","98.97","","","","-27","","Snow,Blowing Snow"
"-115.14","67.82","KUGLUKTUK A","2300903","2020-11-13 02:00","2020","11","13","02:00","-14.8","","-17.8","","78","","","","1","","27","","12.9","","99.05","","","","-25","","Snow,Blowing Snow"
"-115.14","67.82","KUGLUKTUK A","2300903","2020-11-13 03:00","2020","11","13","03:00","-15.7","","-18.2","","82","","","","2","","27","","16.1","","99.13","","","","-26","","Snow,Blowing Snow"
"-115.14","67.82","KUGLUKTUK A","2300903","2020-11-13 04:00","2020","11","13","04:00","-16.7","","-18.7","","84","","","","1","","27","","16.1","","99.22","","","","-28","","Snow,Blowing Snow"
"-115.14","67.82","KUGLUKTUK A","2300903","2020-11-13 05:00","2020","11","13","05:00","-17.2","","-19.0","","86","","","","36","","22","","16.1","","99.30","","","","-27","","Snow,Blowing Snow"
"-115.14","67.82","KUGLUKTUK A","2300903","2020-11-13 06:00","2020","11","13","06:00","-17.3","","-19.2","","85","","","","35","","24","","16.1","","99.37","","","","-28","","Snow,Blowing Snow"
"-115.14","67.82","KUGLUKTUK A","2300903","2020-11-13 07:00","2020","11","13","07:00","-17.6","","-19.6","","84","","","","36","","22","","16.1","","99.44","","","","-28","","Snow,Blowing Snow"
"-115.14","67.82","KUGLUKTUK A","2300903","2020-11-13 08:00","2020","11","13","08:00","-18.8","","-21.1","","82","","","","36","","18","","19.3","","99.50","","","","-28","","Snow Grains"
"-115.14","67.82","KUGLUKTUK A","2300903","2020-11-13 09:00","2020","11","13","09:00","-19.4","","-21.4","","84","","","","32","","20","","19.3","","99.56","","","","-30","","Snow Grains"
"-115.14","67.82","KUGLUKTUK A","2300903","2020-11-13 10:00","2020","11","13","10:00","-22.4","","-24.6","","83","","","","29","","18","","24.1","","99.65","","","","-33","","NA"
"-115.14","67.82","KUGLUKTUK A","2300903","2020-11-13 11:00","2020","11","13","11:00","-22.9","","-25.0","","84","","","","26","","17","","24.1","","99.73","","","","-33","","Mostly Cloudy"
"-115.14","67.82","KUGLUKTUK A","2300903","2020-11-13 12:00","2020","11","13","12:00","-21.8","","-23.9","","84","","","","26","","13","","24.1","","99.77","","","","-31","","NA"
"-115.14","67.82","KUGLUKTUK A","2300903","2020-11-13 13:00","2020","11","13","13:00","-22.7","","-25.1","","82","","","","23","","17","","24.1","","99.81","","","","-33","","NA"
"-115.14","67.82","KUGLUKTUK A","2300903","2020-11-13 14:00","2020","11","13","14:00","-23.4","","-25.7","","82","","","","26","","15","","24.1","","99.88","","","","-33","","Mostly Cloudy"
"-115.14","67.82","KUGLUKTUK A","2300903","2020-11-13 15:00","2020","11","13","15:00","-25.1","","-27.5","","80","","","","25","","12","","24.1","","99.94","","","","-34","","NA"
"-115.14","67.82","KUGLUKTUK A","2300903","2020-11-13 16:00","2020","11","13","16:00","-25.5","","-27.9","","81","","","","22","","21","","24.1","","99.96","","","","-38","","NA"
"-115.14","67.82","KUGLUKTUK A","2300903","2020-11-13 17:00","2020","11","13","17:00","-26.4","","-28.9","","80","","","","23","","21","","24.1","","99.99","","","","-39","","Mainly Clear"
"-115.14","67.82","KUGLUKTUK A","2300903","2020-11-13 18:00","2020","11","13","18:00","-25.9","","-28.6","","79","","","","24","","24","","24.1","","100.00","","","","-39","","NA"
"-115.14","67.82","KUGLUKTUK A","2300903","2020-11-13 19:00","2020","11","13","19:00","-25.7","","-28.3","","80","","","","24","","24","","24.1","","100.01","","","","-39","","NA"
"-115.14","67.82","KUGLUKTUK A","2300903","2020-11-13 20:00","2020","11","13","20:00","-25.6","","-28.3","","79","","","","23","","17","","24.1","","100.03","","","","-37","","Clear"
"-115.14","67.82","KUGLUKTUK A","2300903","2020-11-13 21:00","2020","11","13","21:00","-26.5","","-29.2","","79","","","","22","","20","","24.1","","100.05","","","","-39","","NA"
"-115.14","67.82","KUGLUKTUK A","2300903","2020-11-13 22:00","2020","11","13","22:00","-27.0","","-29.8","","78","","","","21","","23","","24.1","","100.03","","","","-40","","NA"
"-115.14","67.82","KUGLUKTUK A","2300903","2020-11-13 23:00","2020","11","13","23:00","-26.3","","-29.0","","79","","","","23","","8","","24.1","","100.03","","","","-34","","Clear"
"-115.14","67.82","KUGLUKTUK A","2300903","2020-11-14 00:00","2020","11","14","00:00","-25.3","","-28.1","","78","","","","24","","25","","24.1","","100.04","","","","-38","","Ice Crystals"
"-115.14","67.82","KUGLUKTUK A","2300903","2020-11-14 01:00","2020","11","14","01:00","-26.4","","-29.3","","77","","","","23","","20","","24.1","","100.05","","","","-39","","Ice Crystals"
"-115.14","67.82","KUGLUKTUK A","2300903","2020-11-14 02:00","2020","11","14","02:00","-25.5","","-28.4","","77","","","","22","","18","","24.1","","100.06","","","","-37","","Ice Crystals"
"-115.14","67.82","KUGLUKTUK A","2300903","2020-11-14 03:00","2020","11","14","03:00","-23.8","","-26.7","","77","","","","24","","25","","24.1","","100.06","","","","-36","","Ice Crystals"
"-115.14","67.82","KUGLUKTUK A","2300903","2020-11-14 04:00","2020","11","14","04:00","-22.8","","-25.9","","76","","","","24","","26","","24.1","","100.07","","","","-35","","Ice Crystals"
"-115.14","67.82","KUGLUKTUK A","2300903","2020-11-14 05:00","2020","11","14","05:00","-22.5","","-25.7","","76","","","","23","","26","","24.1","","100.04","","","","-35","","Ice Crystals,Blowing Snow"
"-115.14","67.82","KUGLUKTUK A","2300903","2020-11-14 06:00","2020","11","14","06:00","-22.1","","-25.4","","75","","","","24","","33","","24.1","","99.99","","","","-36","","Ice Crystals,Blowing Snow"
"-115.14","67.82","KUGLUKTUK A","2300903","2020-11-14 07:00","2020","11","14","07:00","-22.1","","-25.6","","73","","","","23","","34","","24.1","","99.94","","","","-36","","Ice Crystals,Blowing Snow"
"-115.14","67.82","KUGLUKTUK A","2300903","2020-11-14 08:00","2020","11","14","08:00","-22.0","","-25.8","","72","","","","24","","35","","19.3","","99.92","","","","-36","","Ice Crystals,Blowing Snow"
"-115.14","67.82","KUGLUKTUK A","2300903","2020-11-14 09:00","2020","11","14","09:00","-22.6","","-26.3","","73","","","","24","","25","","19.3","","99.96","","","","-35","","Ice Crystals,Blowing Snow"
"-115.14","67.82","KUGLUKTUK A","2300903","2020-11-14 10:00","2020","11","14","10:00","-22.0","","-25.6","","73","","","","24","","32","","19.3","","99.95","","","","-36","","Ice Crystals,Blowing Snow"
"-115.14","67.82","KUGLUKTUK A","2300903","2020-11-14 11:00","2020","11","14","11:00","-20.7","","-24.5","","72","","","","23","","34","","19.3","","99.92","","","","-34","","Ice Crystals,Blowing Snow"
"-115.14","67.82","KUGLUKTUK A","2300903","2020-11-14 12:00","2020","11","14","12:00","-20.1","","-23.7","","73","","","","23","","36","","19.3","","99.91","","","","-34","","Ice Crystals,Blowing Snow"
"-115.14","67.82","KUGLUKTUK A","2300903","2020-11-14 13:00","2020","11","14","13:00","-19.5","","-23.1","","73","","","","24","","32","","19.3","","99.93","","","","-32","","Ice Crystals,Blowing Snow"
"-115.14","67.82","KUGLUKTUK A","2300903","2020-11-14 14:00","2020","11","14","14:00","-18.7","","-22.2","","75","","","","24","","34","","19.3","","99.94","","","","-32","","Ice Crystals,Blowing Snow"
"-115.14","67.82","KUGLUKTUK A","2300903","2020-11-14 15:00","2020","11","14","15:00","-18.9","","-22.2","","75","","","","24","","33","","19.3","","99.94","","","","-32","","Ice Crystals,Blowing Snow"
"-115.14","67.82","KUGLUKTUK A","2300903","2020-11-14 16:00","2020","11","14","16:00","-18.7","","-22.3","","74","","","","24","","43","","19.3","","99.93","","","","-33","","Ice Crystals,Blowing Snow"
"-115.14","67.82","KUGLUKTUK A","2300903","2020-11-14 17:00","2020","11","14","17:00","-18.5","","-22.1","","74","","","","22","","36","","19.3","","99.93","","","","-32","","Ice Crystals,Blowing Snow"
"-115.14","67.82","KUGLUKTUK A","2300903","2020-11-14 18:00","2020","11","14","18:00","-18.1","","-20.9","","79","","","","24","","33","","16.1","","99.95","","","","-31","","Snow,Blowing Snow"
"-115.14","67.82","KUGLUKTUK A","2300903","2020-11-14 19:00","2020","11","14","19:00","-17.6","","-20.0","","81","","","","23","","35","","12.9","","99.95","","","","-30","","Snow,Blowing Snow"
"-115.14","67.82","KUGLUKTUK A","2300903","2020-11-14 20:00","2020","11","14","20:00","-17.3","","-20.2","","79","","","","23","","35","","24.1","","99.92","","","","-30","","Snow,Blowing Snow"
"-115.14","67.82","KUGLUKTUK A","2300903","2020-11-14 21:00","2020","11","14","21:00","-16.5","","-19.2","","80","","","","24","","41","","24.1","","99.88","","","","-30","","Snow,Blowing Snow"
"-115.14","67.82","KUGLUKTUK A","2300903","2020-11-14 22:00","2020","11","14","22:00","-15.4","","-18.6","","77","","","","24","","36","","16.1","","99.88","","","","-27","","Snow,Blowing Snow"
"-115.14","67.82","KUGLUKTUK A","2300903","2020-11-14 23:00","2020","11","14","23:00","-14.7","","-17.9","","77","","","","25","","41","","12.9","","99.86","","","","-27","","Snow,Blowing Snow"
"-115.14","67.82","KUGLUKTUK A","2300903","2020-11-15 00:00","2020","11","15","00:00","-14.5","","-17.2","","80","","","","24","","43","","16.1","","99.84","","","","-27","","Snow,Blowing Snow"
"-115.14","67.82","KUGLUKTUK A","2300903","2020-11-15 01:00","2020","11","15","01:00","-14.0","","-16.9","","79","","","","25","","43","","16.1","","99.86","","","","-26","","Snow,Blowing Snow"
"-115.14","67.82","KUGLUKTUK A","2300903","2020-11-15 02:00","2020","11","15","02:00","-13.0","","-16.5","","76","","","","25","","44","","16.1","","99.83","","","","-25","","Snow,Blowing Snow"
"-115.14","67.82","KUGLUKTUK A","2300903","2020-11-15 03:00","2020","11","15","03:00","-12.5","","-16.0","","75","","","","25","","43","","16.1","","99.85","","","","-24","","Snow,Blowing Snow"
"-115.14","67.82","KUGLUKTUK A","2300903","2020-11-15 04:00","2020","11","15","04:00","-11.6","","-15.6","","73","","","","25","","42","","16.1","","99.88","","","","-23","","Snow,Blowing Snow"
"-115.14","67.82","KUGLUKTUK A","2300903","2020-11-15 05:00","2020","11","15","05:00","-11.4","","-15.2","","74","","","","25","","43","","16.1","","99.88","","","","-23","","Snow,Blowing Snow"
"-115.14","67.82","KUGLUKTUK A","2300903","2020-11-15 06:00","2020","11","15","06:00","-11.2","","-14.7","","75","","","","25","","41","","16.1","","99.88","","","","-22","","Snow,Blowing Snow"
"-115.14","67.82","KUGLUKTUK A","2300903","2020-11-15 07:00","2020","11","15","07:00","-11.0","","-14.5","","76","","","","25","","39","","16.1","","99.90","","","","-22","","Snow,Blowing Snow"
"-115.14","67.82","KUGLUKTUK A","2300903","2020-11-15 08:00","2020","11","15","08:00","-10.6","","-14.2","","75","","","","26","","36","","19.3","","99.92","","","","-21","","Snow,Blowing Snow"
"-115.14","67.82","KUGLUKTUK A","2300903","2020-11-15 09:00","2020","11","15","09:00","-10.1","","-13.8","","74","","","","27","","41","","19.3","","99.96","","","","-21","","Snow,Blowing Snow"
"-115.14","67.82","KUGLUKTUK A","2300903","2020-11-15 10:00","2020","11","15","10:00","-9.8","","-13.7","","74","","","","27","","44","","16.1","","99.99","","","","-21","","Snow,Blowing Snow"
"-115.14","67.82","KUGLUKTUK A","2300903","2020-11-15 11:00","2020","11","15","11:00","-9.6","","-13.1","","76","","","","28","","46","","16.1","","100.04","","","","-21","","Snow,Blowing Snow"
"-115.14","67.82","KUGLUKTUK A","2300903","2020-11-15 12:00","2020","11","15","12:00","-9.5","","-13.0","","76","","","","27","","41","","16.1","","100.10","","","","-20","","Snow,Blowing Snow"
"-115.14","67.82","KUGLUKTUK A","2300903","2020-11-15 13:00","2020","11","15","13:00","-9.5","","-13.1","","75","","","","27","","38","","12.9","","100.17","","","","-20","","Snow,Blowing Snow"
"-115.14","67.82","KUGLUKTUK A","2300903","2020-11-15 14:00","2020","11","15","14:00","-9.4","","-13.5","","72","","","","27","","41","","12.9","","100.23","","","","-20","","Snow,Blowing Snow"
"-115.14","67.82","KUGLUKTUK A","2300903","2020-11-15 15:00","2020","11","15","15:00","-9.6","","-13.2","","75","","","","27","","44","","12.9","","100.30","","","","-21","","Blowing Snow"
"-115.14","67.82","KUGLUKTUK A","2300903","2020-11-15 16:00","2020","11","15","16:00","-9.4","","-12.5","","78","","","","29","","44","","8.1","","100.41","","","","-20","","Snow,Blowing Snow"
"-115.14","67.82","KUGLUKTUK A","2300903","2020-11-15 17:00","2020","11","15","17:00","-9.8","","-12.0","","84","","","","29","","34","","9.7","","100.51","","","","-20","","Snow,Blowing Snow"
"-115.14","67.82","KUGLUKTUK A","2300903","2020-11-15 18:00","2020","11","15","18:00","-9.4","","-12.7","","77","","","","28","","39","","12.9","","100.57","","","","-20","","Snow,Blowing Snow"
"-115.14","67.82","KUGLUKTUK A","2300903","2020-11-15 19:00","2020","11","15","19:00","-9.1","","-12.6","","76","","","","28","","36","","16.1","","100.63","","","","-19","","Snow,Blowing Snow"
"-115.14","67.82","KUGLUKTUK A","2300903","2020-11-15 20:00","2020","11","15","20:00","-9.3","","-13.0","","75","","","","28","","41","","16.1","","100.70","","","","-20","","Snow,Blowing Snow"
"-115.14","67.82","KUGLUKTUK A","2300903","2020-11-15 21:00","2020","11","15","21:00","-9.4","","-13.0","","75","","","","29","","45","","16.1","","100.78","","","","-20","","NA"
"-115.14","67.82","KUGLUKTUK A","2300903","2020-11-15 22:00","2020","11","15","22:00","-9.3","","-13.6","","72","","","","28","","41","","16.1","","100.86","","","","-20","","Snow,Blowing Snow"
"-115.14","67.82","KUGLUKTUK A","2300903","2020-11-15 23:00","2020","11","15","23:00","-9.6","","-12.8","","78","","","","29","","32","","16.1","","100.95","","","","-19","","Snow,Blowing Snow"
"-115.14","67.82","KUGLUKTUK A","2300903","2020-11-16 00:00","2020","11","16","00:00","-9.7","","-13.6","","74","","","","29","","37","","16.1","","101.06","","","","-20","","Snow,Blowing Snow"
"-115.14","67.82","KUGLUKTUK A","2300903","2020-11-16 01:00","2020","11","16","01:00","-10.1","","-14.4","","71","","","","30","","38","","16.1","","101.14","","","","-21","","Snow,Blowing Snow"
"-115.14","67.82","KUGLUKTUK A","2300903","2020-11-16 02:00","2020","11","16","02:00","-11.0","","-15.8","","68","","","","29","","41","","24.1","","101.21","","","","-22","","Snow"
"-115.14","67.82","KUGLUKTUK A","2300903","2020-11-16 03:00","2020","11","16","03:00","-12.4","","-17.5","","66","","","","29","","31","","24.1","","101.30","","","","-23","","NA"
"-115.14","67.82","KUGLUKTUK A","2300903","2020-11-16 04:00","2020","11","16","04:00","-13.2","","-17.6","","70","","","","28","","23","","24.1","","101.37","","","","-23","","NA"
"-115.14","67.82","KUGLUKTUK A","2300903","2020-11-16 05:00","2020","11","16","05:00","-12.2","","-16.7","","69","","","","27","","22","","24.1","","101.41","","","","-21","","Cloudy"
"-115.14","67.82","KUGLUKTUK A","2300903","2020-11-16 06:00","2020","11","16","06:00","-13.1","","-18.2","","66","","","","29","","28","","24.1","","101.44","","","","-23","","NA"
"-115.14","67.82","KUGLUKTUK A","2300903","2020-11-16 07:00","2020","11","16","07:00","-15.4","","-19.3","","72","","","","26","","26","","24.1","","101.51","","","","-26","","NA"
"-115.14","67.82","KUGLUKTUK A","2300903","2020-11-16 08:00","2020","11","16","08:00","-16.8","","-20.3","","75","","","","25","","26","","24.1","","101.55","","","","-28","","Clear"
"-115.14","67.82","KUGLUKTUK A","2300903","2020-11-16 09:00","2020","11","16","09:00","-18.3","","-21.3","","78","","","","24","","22","","24.1","","101.55","","","","-29","","NA"
"-115.14","67.82","KUGLUKTUK A","2300903","2020-11-16 10:00","2020","11","16","10:00","-18.9","","-22.3","","75","","","","23","","24","","24.1","","101.58","","","","-30","","NA"
"-115.14","67.82","KUGLUKTUK A","2300903","2020-11-16 11:00","2020","11","16","11:00","-18.0","","-21.8","","72","","","","24","","30","","24.1","","101.58","","","","-30","","Mostly Cloudy"
"-115.14","67.82","KUGLUKTUK A","2300903","2020-11-16 12:00","2020","11","16","12:00","-17.1","","-21.5","","69","","","","25","","35","","24.1","","101.63","","","","-30","","NA"
"-115.14","67.82","KUGLUKTUK A","2300903","2020-11-16 13:00","2020","11","16","13:00","-17.8","","-21.4","","74","","","","25","","27","","24.1","","101.67","","","","-29","","NA"
"-115.14","67.82","KUGLUKTUK A","2300903","2020-11-16 14:00","2020","11","16","14:00","-17.5","","-21.2","","73","","","","24","","25","","24.1","","101.70","","","","-28","","Mostly Cloudy"
"-115.14","67.82","KUGLUKTUK A","2300903","2020-11-16 15:00","2020","11","16","15:00","-18.4","","-21.4","","77","","","","23","","20","","24.1","","101.71","","","","-28","","NA"
"-115.14","67.82","KUGLUKTUK A","2300903","2020-11-16 16:00","2020","11","16","16:00","-17.0","","-20.4","","76","","","","24","","28","","24.1","","101.69","","","","-28","","NA"
"-115.14","67.82","KUGLUKTUK A","2300903","2020-11-16 17:00","2020","11","16","17:00","-17.3","","-20.8","","75","","","","24","","20","","24.1","","101.72","","","","-27","","Mostly Cloudy"
"-115.14","67.82","KUGLUKTUK A","2300903","2020-11-16 18:00","2020","11","16","18:00","-17.3","","-20.8","","74","","","","24","","24","","24.1","","101.71","","","","-28","","NA"
"-115.14","67.82","KUGLUKTUK A","2300903","2020-11-16 19:00","2020","11","16","19:00","-18.5","","-21.9","","75","","","","23","","14","","24.1","","101.70","","","","-27","","NA"
"-115.14","67.82","KUGLUKTUK A","2300903","2020-11-16 20:00","2020","11","16","20:00","-19.0","","-22.1","","77","","","","23","","23","","24.1","","101.64","","","","-30","","Clear"
"-115.14","67.82","KUGLUKTUK A","2300903","2020-11-16 21:00","2020","11","16","21:00","-19.6","","-22.6","","78","","","","23","","28","","24.1","","101.60","","","","-32","","NA"
"-115.14","67.82","KUGLUKTUK A","2300903","2020-11-16 22:00","2020","11","16","22:00","-19.0","","-22.2","","76","","","","23","","24","","24.1","","101.57","","","","-30","","NA"
"-115.14","67.82","KUGLUKTUK A","2300903","2020-11-16 23:00","2020","11","16","23:00","-19.7","","-22.9","","76","","","","23","","23","","24.1","","101.55","","","","-31","","Clear"
"-115.14","67.82","KUGLUKTUK A","2300903","2020-11-17 00:00","2020","11","17","00:00","-20.0","","-23.1","","76","","","","21","","21","","24.1","","101.52","","","","-31","","NA"
"-115.14","67.82","KUGLUKTUK A","2300903","2020-11-17 01:00","2020","11","17","01:00","-18.3","","-21.5","","76","","","","23","","23","","24.1","","101.45","","","","-29","","NA"
"-115.14","67.82","KUGLUKTUK A","2300903","2020-11-17 02:00","2020","11","17","02:00","-17.2","","-20.8","","74","","","","22","","25","","24.1","","101.38","","","","-28","","Clear"
"-115.14","67.82","KUGLUKTUK A","2300903","2020-11-17 03:00","2020","11","17","03:00","-16.7","","-20.4","","73","","","","22","","19","","24.1","","101.32","","","","-26","","NA"
"-115.14","67.82","KUGLUKTUK A","2300903","2020-11-17 04:00","2020","11","17","04:00","-16.1","","-19.6","","74","","","","22","","24","","24.1","","101.28","","","","-26","","NA"
"-115.14","67.82","KUGLUKTUK A","2300903","2020-11-17 05:00","2020","11","17","05:00","-15.3","","-18.6","","77","","","","23","","32","","24.1","","101.17","","","","-27","","Mainly Clear"
"-115.14","67.82","KUGLUKTUK A","2300903","2020-11-17 06:00","2020","11","17","06:00","-15.5","","-18.6","","77","","","","23","","25","","24.1","","101.12","","","","-26","","NA"
"-115.14","67.82","KUGLUKTUK A","2300903","2020-11-17 07:00","2020","11","17","07:00","-15.4","","-18.5","","77","","","","22","","30","","24.1","","101.03","","","","-27","","NA"
"-115.14","67.82","KUGLUKTUK A","2300903","2020-11-17 08:00","2020","11","17","08:00","-14.3","","-17.6","","76","","","","21","","34","","24.1","","100.92","","","","-26","","Mostly Cloudy"
"-115.14","67.82","KUGLUKTUK A","2300903","2020-11-17 09:00","2020","11","17","09:00","-13.2","","-16.9","","74","","","","21","","40","","24.1","","100.85","","","","-25","","NA"
"-115.14","67.82","KUGLUKTUK A","2300903","2020-11-17 10:00","2020","11","17","10:00","-13.5","","-17.4","","73","","","","22","","37","","24.1","","100.75","","","","-25","","NA"
"-115.14","67.82","KUGLUKTUK A","2300903","2020-11-17 11:00","2020","11","17","11:00","-13.3","","-17.1","","73","","","","21","","25","","24.1","","100.69","","","","-23","","Mostly Cloudy"
"-115.14","67.82","KUGLUKTUK A","2300903","2020-11-17 12:00","2020","11","17","12:00","-12.4","","-16.3","","73","","","","22","","40","","24.1","","100.60","","","","-24","","NA"
"-115.14","67.82","KUGLUKTUK A","2300903","2020-11-17 13:00","2020","11","17","13:00","-12.6","","-16.4","","73","","","","22","","36","","24.1","","100.53","","","","-24","","NA"
"-115.14","67.82","KUGLUKTUK A","2300903","2020-11-17 14:00","2020","11","17","14:00","-12.6","","-15.9","","77","","","","23","","14","","19.3","","100.53","","","","-20","","Mostly Cloudy"
"-115.14","67.82","KUGLUKTUK A","2300903","2020-11-17 15:00","2020","11","17","15:00","-11.2","","-13.6","","83","","","","24","","26","","8.1","","100.47","","","","-20","","Snow,Blowing Snow"
"-115.14","67.82","KUGLUKTUK A","2300903","2020-11-17 16:00","2020","11","17","16:00","-11.2","","-13.2","","86","","","","24","","30","","4.8","","100.45","","","","-21","","Snow,Blowing Snow"
"-115.14","67.82","KUGLUKTUK A","2300903","2020-11-17 17:00","2020","11","17","17:00","-11.5","","-13.7","","84","","","","26","","30","","6.4","","100.45","","","","-21","","Snow,Blowing Snow"
"-115.14","67.82","KUGLUKTUK A","2300903","2020-11-17 18:00","2020","11","17","18:00","-12.2","","-14.6","","83","","","","26","","27","","16.1","","100.46","","","","-22","","Snow,Blowing Snow"
"-115.14","67.82","KUGLUKTUK A","2300903","2020-11-17 19:00","2020","11","17","19:00","-12.3","","-14.7","","82","","","","26","","28","","24.1","","100.48","","","","-22","","Snow"
"-115.14","67.82","KUGLUKTUK A","2300903","2020-11-17 20:00","2020","11","17","20:00","-12.5","","-14.7","","84","","","","26","","28","","12.9","","100.50","","","","-22","","Ice Crystals,Blowing Snow"
"-115.14","67.82","KUGLUKTUK A","2300903","2020-11-17 21:00","2020","11","17","21:00","-13.1","","-14.8","","87","","","","27","","25","","4.8","","100.58","","","","-23","","Fog,Blowing Snow"
"-115.14","67.82","KUGLUKTUK A","2300903","2020-11-17 22:00","2020","11","17","22:00","-12.8","","-14.5","","87","","","","28","","19","","2.4","","100.65","","","","-21","","Fog,Blowing Snow"
"-115.14","67.82","KUGLUKTUK A","2300903","2020-11-17 23:00","2020","11","17","23:00","-12.2","","-14.8","","81","","","","32","","28","","3.2","","100.74","","","","-22","","Fog,Blowing Snow"
"-115.14","67.82","KUGLUKTUK A","2300903","2020-11-18 00:00","2020","11","18","00:00","-13.1","","-15.7","","81","","","","32","","36","","2.8","","100.82","","","","-24","","Fog,Blowing Snow"
"-115.14","67.82","KUGLUKTUK A","2300903","2020-11-18 01:00","2020","11","18","01:00","-15.2","","-18.1","","79","","","","29","","21","","3.2","","100.93","","","","-25","","Fog,Blowing Snow"
"-115.14","67.82","KUGLUKTUK A","2300903","2020-11-18 02:00","2020","11","18","02:00","-15.5","","-18.1","","81","","","","32","","39","","24.1","","100.99","","","","-28","","Clear"
"-115.14","67.82","KUGLUKTUK A","2300903","2020-11-18 03:00","2020","11","18","03:00","-13.8","","-16.4","","81","","","","33","","35","","24.1","","101.08","","","","-25","","Blowing Snow"
"-115.14","67.82","KUGLUKTUK A","2300903","2020-11-18 04:00","2020","11","18","04:00","-14.5","","-17.4","","79","","","","32","","39","","24.1","","101.14","","","","-27","","NA"
"-115.14","67.82","KUGLUKTUK A","2300903","2020-11-18 05:00","2020","11","18","05:00","-16.3","","-19.4","","77","","","","32","","30","","24.1","","101.21","","","","-28","","Mostly Cloudy"
"-115.14","67.82","KUGLUKTUK A","2300903","2020-11-18 06:00","2020","11","18","06:00","-16.6","","-20.9","","70","","","","31","","32","","24.1","","101.28","","","","-28","","NA"
"-115.14","67.82","KUGLUKTUK A","2300903","2020-11-18 07:00","2020","11","18","07:00","-17.1","","-20.5","","75","","","","29","","21","","24.1","","101.35","","","","-27","","NA"
"-115.14","67.82","KUGLUKTUK A","2300903","2020-11-18 08:00","2020","11","18","08:00","-18.1","","-21.5","","75","","","","31","","27","","16.1","","101.39","","","","-30","","Mostly Cloudy"
"-115.14","67.82","KUGLUKTUK A","2300903","2020-11-18 09:00","2020","11","18","09:00","-17.1","","-20.5","","75","","","","32","","26","","8.1","","101.42","","","","-28","","Fog"
"-115.14","67.82","KUGLUKTUK A","2300903","2020-11-18 10:00","2020","11","18","10:00","-18.4","","-21.6","","76","","","","29","","17","","9.7","","101.49","","","","-28","","Fog"
"-115.14","67.82","KUGLUKTUK A","2300903","2020-11-18 11:00","2020","11","18","11:00","-18.7","","-21.2","","81","","","","24","","25","","12.9","","101.50","","","","-30","","Mostly Cloudy"
"-115.14","67.82","KUGLUKTUK A","2300903","2020-11-18 12:00","2020","11","18","12:00","-17.8","","-20.6","","79","","","","23","","17","","16.1","","101.54","","","","-27","","NA"
"-115.14","67.82","KUGLUKTUK A","2300903","2020-11-18 13:00","2020","11","18","13:00","-17.0","","-20.1","","77","","","","26","","21","","12.9","","101.55","","","","-27","","Snow"
"-115.14","67.82","KUGLUKTUK A","2300903","2020-11-18 14:00","2020","11","18","14:00","-17.2","","-20.6","","75","","","","24","","21","","19.3","","101.55","","","","-27","","Cloudy"
"-115.14","67.82","KUGLUKTUK A","2300903","2020-11-18 15:00","2020","11","18","15:00","-16.5","","-20.9","","69","","","","26","","25","","9.7","","101.51","","","","-27","","Snow,Blowing Snow"
"-115.14","67.82","KUGLUKTUK A","2300903","2020-11-18 16:00","2020","11","18","16:00","-16.8","","-20.7","","72","","","","25","","25","","9.7","","101.52","","","","-27","","Snow,Blowing Snow"
"-115.14","67.82","KUGLUKTUK A","2300903","2020-11-18 17:00","2020","11","18","17:00","-16.4","","-20.7","","70","","","","26","","27","","9.7","","101.50","","","","-27","","Snow,Blowing Snow"
"-115.14","67.82","KUGLUKTUK A","2300903","2020-11-18 18:00","2020","11","18","18:00","-16.4","","-20.5","","71","","","","24","","23","","9.7","","101.52","","","","-27","","Snow,Blowing Snow"
"-115.14","67.82","KUGLUKTUK A","2300903","2020-11-18 19:00","2020","11","18","19:00","-16.2","","-20.5","","70","","","","24","","24","","12.9","","101.49","","","","-27","","Snow,Blowing Snow"
"-115.14","67.82","KUGLUKTUK A","2300903","2020-11-18 20:00","2020","11","18","20:00","-16.3","","-20.7","","69","","","","24","","27","","16.1","","101.45","","","","-27","","Ice Crystals,Blowing Snow"
"-115.14","67.82","KUGLUKTUK A","2300903","2020-11-18 21:00","2020","11","18","21:00","-15.8","","-20.6","","67","","","","25","","27","","16.1","","101.44","","","","-27","","Ice Crystals,Blowing Snow"
"-115.14","67.82","KUGLUKTUK A","2300903","2020-11-18 22:00","2020","11","18","22:00","-15.8","","-20.3","","69","","","","25","","30","","16.1","","101.42","","","","-27","","Snow,Blowing Snow"
"-115.14","67.82","KUGLUKTUK A","2300903","2020-11-18 23:00","2020","11","18","23:00","-15.6","","-20.2","","68","","","","25","","30","","16.1","","101.41","","","","-27","","Snow,Blowing Snow"
"-115.14","67.82","KUGLUKTUK A","2300903","2020-11-19 00:00","2020","11","19","00:00","-16.2","","-20.5","","70","","","","26","","32","","16.1","","101.39","","","","-28","","Snow,Blowing Snow"
"-115.14","67.82","KUGLUKTUK A","2300903","2020-11-19 01:00","2020","11","19","01:00","-18.1","","-22.7","","68","","","","25","","36","","24.1","","101.40","","","","-31","","Ice Crystals,Blowing Snow"
"-115.14","67.82","KUGLUKTUK A","2300903","2020-11-19 02:00","2020","11","19","02:00","-19.4","","-23.4","","71","","","","23","","30","","24.1","","101.41","","","","-32","","Ice Crystals,Blowing Snow"
"-115.14","67.82","KUGLUKTUK A","2300903","2020-11-19 03:00","2020","11","19","03:00","-19.8","","-23.6","","72","","","","24","","31","","24.1","","101.40","","","","-32","","NA"
"-115.14","67.82","KUGLUKTUK A","2300903","2020-11-19 04:00","2020","11","19","04:00","-20.9","","-24.7","","72","","","","23","","30","","24.1","","101.39","","","","-34","","NA"
"-115.14","67.82","KUGLUKTUK A","2300903","2020-11-19 05:00","2020","11","19","05:00","-19.4","","-23.2","","72","","","","24","","35","","24.1","","101.36","","","","-33","","Clear"
"-115.14","67.82","KUGLUKTUK A","2300903","2020-11-19 06:00","2020","11","19","06:00","-19.5","","-23.2","","73","","","","24","","27","","24.1","","101.39","","","","-31","","NA"
"-115.14","67.82","KUGLUKTUK A","2300903","2020-11-19 07:00","2020","11","19","07:00","-19.4","","-23.1","","73","","","","24","","28","","24.1","","101.35","","","","-31","","NA"
"-115.14","67.82","KUGLUKTUK A","2300903","2020-11-19 08:00","2020","11","19","08:00","-18.7","","-22.3","","74","","","","24","","27","","24.1","","101.31","","","","-30","","Mostly Cloudy"
"-115.14","67.82","KUGLUKTUK A","2300903","2020-11-19 09:00","2020","11","19","09:00","-18.4","","-22.4","","71","","","","26","","29","","24.1","","101.32","","","","-30","","Snow"
"-115.14","67.82","KUGLUKTUK A","2300903","2020-11-19 10:00","2020","11","19","10:00","-18.6","","-22.5","","72","","","","24","","23","","24.1","","101.28","","","","-29","","NA"
"-115.14","67.82","KUGLUKTUK A","2300903","2020-11-19 11:00","2020","11","19","11:00","-17.9","","-21.8","","72","","","","24","","22","","24.1","","101.25","","","","-28","","Mostly Cloudy"
"-115.14","67.82","KUGLUKTUK A","2300903","2020-11-19 12:00","2020","11","19","12:00","-17.8","","-21.2","","75","","","","24","","26","","24.1","","101.23","","","","-29","","NA"
"-115.14","67.82","KUGLUKTUK A","2300903","2020-11-19 13:00","2020","11","19","13:00","-17.9","","-21.5","","74","","","","25","","18","","24.1","","101.28","","","","-27","","NA"
"-115.14","67.82","KUGLUKTUK A","2300903","2020-11-19 14:00","2020","11","19","14:00","-18.0","","-21.6","","74","","","","25","","28","","24.1","","101.25","","","","-30","","Mostly Cloudy"
"-115.14","67.82","KUGLUKTUK A","2300903","2020-11-19 15:00","2020","11","19","15:00","-18.3","","-21.9","","74","","","","25","","26","","24.1","","101.23","","","","-30","","NA"
"-115.14","67.82","KUGLUKTUK A","2300903","2020-11-19 16:00","2020","11","19","16:00","-17.9","","-21.5","","74","","","","24","","26","","24.1","","101.18","","","","-29","","NA"
"-115.14","67.82","KUGLUKTUK A","2300903","2020-11-19 17:00","2020","11","19","17:00","-18.0","","-21.7","","73","","","","25","","21","","24.1","","101.14","","","","-28","","Mainly Clear"
"-115.14","67.82","KUGLUKTUK A","2300903","2020-11-19 18:00","2020","11","19","18:00","-17.6","","-21.2","","74","","","","24","","26","","24.1","","101.12","","","","-29","","NA"
"-115.14","67.82","KUGLUKTUK A","2300903","2020-11-19 19:00","2020","11","19","19:00","-18.1","","-21.2","","77","","","","23","","19","","24.1","","101.10","","","","-28","","NA"
"-115.14","67.82","KUGLUKTUK A","2300903","2020-11-19 20:00","2020","11","19","20:00","-17.3","","-20.1","","79","","","","24","","22","","24.1","","101.06","","","","-28","","Mostly Cloudy"
"-115.14","67.82","KUGLUKTUK A","2300903","2020-11-19 21:00","2020","11","19","21:00","-17.0","","-19.8","","79","","","","24","","22","","24.1","","101.02","","","","-27","","NA"
"-115.14","67.82","KUGLUKTUK A","2300903","2020-11-19 22:00","2020","11","19","22:00","-15.3","","-18.3","","78","","","","24","","19","","19.3","","100.98","","","","-24","","Snow"
"-115.14","67.82","KUGLUKTUK A","2300903","2020-11-19 23:00","2020","11","19","23:00","-14.1","","-17.1","","78","","","","25","","23","","16.1","","100.94","","","","-24","","Snow"
"-115.14","67.82","KUGLUKTUK A","2300903","2020-11-20 00:00","2020","11","20","00:00","-13.1","","-15.9","","80","","","","24","","20","","8.1","","100.92","","","","-22","","Snow"
"-115.14","67.82","KUGLUKTUK A","2300903","2020-11-20 01:00","2020","11","20","01:00","-12.7","","-14.6","","86","","","","24","","27","","8.1","","100.87","","","","-23","","Snow,Blowing Snow"
"-115.14","67.82","KUGLUKTUK A","2300903","2020-11-20 02:00","2020","11","20","02:00","-12.1","","-14.0","","86","","","","24","","28","","6.4","","100.84","","","","-22","","Snow,Blowing Snow"
"-115.14","67.82","KUGLUKTUK A","2300903","2020-11-20 03:00","2020","11","20","03:00","-11.8","","-13.7","","86","","","","24","","31","","6.4","","100.81","","","","-22","","Snow,Blowing Snow"
"-115.14","67.82","KUGLUKTUK A","2300903","2020-11-20 04:00","2020","11","20","04:00","-11.7","","-13.6","","86","","","","25","","34","","6.4","","100.78","","","","-22","","Snow,Blowing Snow"
"-115.14","67.82","KUGLUKTUK A","2300903","2020-11-20 05:00","2020","11","20","05:00","-11.4","","-13.2","","87","","","","25","","23","","9.7","","100.75","","","","-20","","Snow,Blowing Snow"
"-115.14","67.82","KUGLUKTUK A","2300903","2020-11-20 06:00","2020","11","20","06:00","-11.4","","-13.6","","84","","","","24","","28","","9.7","","100.68","","","","-21","","Snow,Blowing Snow"
"-115.14","67.82","KUGLUKTUK A","2300903","2020-11-20 07:00","2020","11","20","07:00","-11.2","","-13.4","","84","","","","25","","31","","12.9","","100.66","","","","-21","","Snow,Blowing Snow"
"-115.14","67.82","KUGLUKTUK A","2300903","2020-11-20 08:00","2020","11","20","08:00","-11.1","","-13.3","","84","","","","25","","27","","6.4","","100.66","","","","-21","","Snow,Blowing Snow"
"-115.14","67.82","KUGLUKTUK A","2300903","2020-11-20 09:00","2020","11","20","09:00","-11.1","","-13.3","","84","","","","25","","31","","6.4","","100.64","","","","-21","","Snow,Blowing Snow"
"-115.14","67.82","KUGLUKTUK A","2300903","2020-11-20 10:00","2020","11","20","10:00","-11.0","","-13.8","","80","","","","26","","27","","6.4","","100.66","","","","-20","","Snow,Blowing Snow"
"-115.14","67.82","KUGLUKTUK A","2300903","2020-11-20 11:00","2020","11","20","11:00","-11.7","","-14.3","","81","","","","24","","21","","24.1","","100.68","","","","-20","","Cloudy"
"-115.14","67.82","KUGLUKTUK A","2300903","2020-11-20 12:00","2020","11","20","12:00","-12.6","","-15.7","","78","","","","25","","25","","24.1","","100.70","","","","-22","","NA"
"-115.14","67.82","KUGLUKTUK A","2300903","2020-11-20 13:00","2020","11","20","13:00","-13.4","","-15.9","","82","","","","23","","16","","24.1","","100.74","","","","-21","","NA"
"-115.14","67.82","KUGLUKTUK A","2300903","2020-11-20 14:00","2020","11","20","14:00","-13.5","","-15.8","","83","","","","26","","30","","24.1","","100.75","","","","-24","","Mainly Clear"
"-115.14","67.82","KUGLUKTUK A","2300903","2020-11-20 15:00","2020","11","20","15:00","-13.7","","-15.7","","85","","","","26","","25","","12.9","","100.79","","","","-24","","Snow"
"-115.14","67.82","KUGLUKTUK A","2300903","2020-11-20 16:00","2020","11","20","16:00","-12.8","","-15.0","","84","","","","27","","21","","6.4","","100.84","","","","-22","","Snow"
"-115.14","67.82","KUGLUKTUK A","2300903","2020-11-20 17:00","2020","11","20","17:00","-12.2","","-14.5","","83","","","","28","","19","","9.7","","100.90","","","","-20","","Snow"
"-115.14","67.82","KUGLUKTUK A","2300903","2020-11-20 18:00","2020","11","20","18:00","-12.5","","-14.7","","84","","","","27","","18","","6.4","","100.95","","","","-21","","Snow"
"-115.14","67.82","KUGLUKTUK A","2300903","2020-11-20 19:00","2020","11","20","19:00","-12.4","","-14.7","","83","","","","30","","20","","12.9","","101.01","","","","-21","","Snow"
"-115.14","67.82","KUGLUKTUK A","2300903","2020-11-20 20:00","2020","11","20","20:00","-12.7","","-14.6","","86","","","","25","","10","","16.1","","101.06","","","","-18","","Snow"
"-115.14","67.82","KUGLUKTUK A","2300903","2020-11-20 21:00","2020","11","20","21:00","-13.0","","-15.2","","84","","","","27","","16","","16.1","","101.12","","","","-21","","Snow"
"-115.14","67.82","KUGLUKTUK A","2300903","2020-11-20 22:00","2020","11","20","22:00","-13.4","","-15.6","","84","","","","27","","16","","19.3","","101.18","","","","-21","","Snow"
"-115.14","67.82","KUGLUKTUK A","2300903","2020-11-20 23:00","2020","11","20","23:00","-13.4","","-15.6","","84","","","","29","","12","","12.9","","101.25","","","","-20","","Snow"
"-115.14","67.82","KUGLUKTUK A","2300903","2020-11-21 00:00","2020","11","21","00:00","-12.0","","-14.0","","85","","","","35","","19","","19.3","","101.34","","","","-20","","Snow"
"-115.14","67.82","KUGLUKTUK A","2300903","2020-11-21 01:00","2020","11","21","01:00","-12.4","","-14.6","","84","","","","34","","22","","16.1","","101.45","","","","-21","","Snow"
"-115.14","67.82","KUGLUKTUK A","2300903","2020-11-21 02:00","2020","11","21","02:00","-13.2","","-15.2","","85","","","","35","","26","","16.1","","101.54","","","","-23","","Snow"
"-115.14","67.82","KUGLUKTUK A","2300903","2020-11-21 03:00","2020","11","21","03:00","-14.3","","-16.7","","82","","","","35","","25","","19.3","","101.65","","","","-24","","Snow"
"-115.14","67.82","KUGLUKTUK A","2300903","2020-11-21 04:00","2020","11","21","04:00","-14.7","","-17.0","","83","","","","36","","23","","24.1","","101.75","","","","-24","","Snow"
"-115.14","67.82","KUGLUKTUK A","2300903","2020-11-21 05:00","2020","11","21","05:00","-16.2","","-18.7","","81","","","","26","","17","","24.1","","101.79","","","","-25","","Snow"
"-115.14","67.82","KUGLUKTUK A","2300903","2020-11-21 06:00","2020","11","21","06:00","-17.2","","-19.9","","80","","","","27","","17","","24.1","","101.86","","","","-26","","Snow"
"-115.14","67.82","KUGLUKTUK A","2300903","2020-11-21 07:00","2020","11","21","07:00","-16.8","","-19.3","","81","","","","27","","17","","19.3","","101.95","","","","-26","","Snow"
"-115.14","67.82","KUGLUKTUK A","2300903","2020-11-21 08:00","2020","11","21","08:00","-16.5","","-18.9","","82","","","","27","","14","","19.3","","102.02","","","","-24","","Snow"
"-115.14","67.82","KUGLUKTUK A","2300903","2020-11-21 09:00","2020","11","21","09:00","-16.1","","-18.6","","81","","","","27","","15","","19.3","","102.06","","","","-24","","Snow"
"-115.14","67.82","KUGLUKTUK A","2300903","2020-11-21 10:00","2020","11","21","10:00","-15.7","","-18.3","","81","","","","26","","14","","24.1","","102.11","","","","-23","","NA"
"-115.14","67.82","KUGLUKTUK A","2300903","2020-11-21 11:00","2020","11","21","11:00","-15.4","","-17.8","","82","","","","26","","15","","24.1","","102.16","","","","-23","","Cloudy"
"-115.14","67.82","KUGLUKTUK A","2300903","2020-11-21 12:00","2020","11","21","12:00","-15.0","","-17.7","","80","","","","29","","12","","24.1","","102.22","","","","-22","","NA"
"-115.14","67.82","KUGLUKTUK A","2300903","2020-11-21 13:00","2020","11","21","13:00","-14.8","","-17.5","","80","","","","26","","11","","24.1","","102.26","","","","-21","","NA"
"-115.14","67.82","KUGLUKTUK A","2300903","2020-11-21 14:00","2020","11","21","14:00","-14.6","","-17.0","","82","","","","26","","16","","24.1","","102.27","","","","-23","","Cloudy"
"-115.14","67.82","KUGLUKTUK A","2300903","2020-11-21 15:00","2020","11","21","15:00","-15.0","","-17.9","","79","","","","29","","20","","24.1","","102.31","","","","-24","","NA"
"-115.14","67.82","KUGLUKTUK A","2300903","2020-11-21 16:00","2020","11","21","16:00","-16.3","","-18.4","","84","","","","28","","16","","19.3","","102.33","","","","-25","","Snow"
"-115.14","67.82","KUGLUKTUK A","2300903","2020-11-21 17:00","2020","11","21","17:00","-15.9","","-18.6","","80","","","","28","","20","","19.3","","102.34","","","","-25","","Snow"
"-115.14","67.82","KUGLUKTUK A","2300903","2020-11-21 18:00","2020","11","21","18:00","-15.9","","-18.3","","82","","","","27","","19","","19.3","","102.33","","","","-25","","Snow"
"-115.14","67.82","KUGLUKTUK A","2300903","2020-11-21 19:00","2020","11","21","19:00","-17.9","","-20.1","","83","","","","24","","19","","19.3","","102.30","","","","-28","","Snow"
"-115.14","67.82","KUGLUKTUK A","2300903","2020-11-21 20:00","2020","11","21","20:00","-16.0","","-18.0","","85","","","","25","","19","","24.1","","102.31","","","","-25","","Snow"
"-115.14","67.82","KUGLUKTUK A","2300903","2020-11-21 21:00","2020","11","21","21:00","-15.6","","-17.6","","85","","","","26","","16","","19.3","","102.28","","","","-24","","Snow"
"-115.14","67.82","KUGLUKTUK A","2300903","2020-11-21 22:00","2020","11","21","22:00","-14.8","","-16.8","","85","","","","25","","17","","19.3","","102.26","","","","-23","","Snow"
"-115.14","67.82","KUGLUKTUK A","2300903","2020-11-21 23:00","2020","11","21","23:00","-15.4","","-17.1","","87","","","","25","","21","","19.3","","102.25","","","","-25","","Snow"
"-115.14","67.82","KUGLUKTUK A","2300903","2020-11-22 00:00","2020","11","22","00:00","-18.3","","-20.8","","81","","","","23","","22","","24.1","","102.22","","","","-29","","NA"
"-115.14","67.82","KUGLUKTUK A","2300903","2020-11-22 01:00","2020","11","22","01:00","-18.2","","-20.9","","80","","","","23","","21","","24.1","","102.22","","","","-28","","NA"
"-115.14","67.82","KUGLUKTUK A","2300903","2020-11-22 02:00","2020","11","22","02:00","-19.1","","-21.7","","80","","","","23","","19","","24.1","","102.21","","","","-29","","Mainly Clear"
"-115.14","67.82","KUGLUKTUK A","2300903","2020-11-22 03:00","2020","11","22","03:00","-19.8","","-22.4","","80","","","","22","","18","","24.1","","102.17","","","","-30","","NA"
"-115.14","67.82","KUGLUKTUK A","2300903","2020-11-22 04:00","2020","11","22","04:00","-19.2","","-21.8","","80","","","","22","","26","","24.1","","102.12","","","","-31","","NA"
"-115.14","67.82","KUGLUKTUK A","2300903","2020-11-22 05:00","2020","11","22","05:00","-20.0","","-22.8","","79","","","","22","","24","","24.1","","102.07","","","","-31","","Mainly Clear"
"-115.14","67.82","KUGLUKTUK A","2300903","2020-11-22 06:00","2020","11","22","06:00","-20.2","","-22.8","","80","","","","23","","22","","24.1","","102.04","","","","-31","","NA"
"-115.14","67.82","KUGLUKTUK A","2300903","2020-11-22 07:00","2020","11","22","07:00","-20.1","","-22.9","","79","","","","22","","25","","24.1","","102.01","","","","-32","","NA"
"-115.14","67.82","KUGLUKTUK A","2300903","2020-11-22 08:00","2020","11","22","08:00","-20.5","","-23.1","","80","","","","22","","28","","24.1","","101.94","","","","-33","","Clear"
"-115.14","67.82","KUGLUKTUK A","2300903","2020-11-22 09:00","2020","11","22","09:00","-20.9","","-23.6","","79","","","","23","","25","","24.1","","101.90","","","","-33","","NA"
"-115.14","67.82","KUGLUKTUK A","2300903","2020-11-22 10:00","2020","11","22","10:00","-20.6","","-23.3","","79","","","","23","","9","","24.1","","101.90","","","","-27","","NA"
"-115.14","67.82","KUGLUKTUK A","2300903","2020-11-22 11:00","2020","11","22","11:00","-21.1","","-23.7","","80","","","","22","","18","","24.1","","101.86","","","","-31","","Clear"
"-115.14","67.82","KUGLUKTUK A","2300903","2020-11-22 12:00","2020","11","22","12:00","-20.9","","-23.8","","78","","","","22","","23","","24.1","","101.85","","","","-32","","NA"
"-115.14","67.82","KUGLUKTUK A","2300903","2020-11-22 13:00","2020","11","22","13:00","-20.9","","-23.6","","79","","","","22","","22","","24.1","","101.82","","","","-32","","NA"
"-115.14","67.82","KUGLUKTUK A","2300903","2020-11-22 14:00","2020","11","22","14:00","-21.3","","-24.2","","78","","","","23","","14","","24.1","","101.80","","","","-30","","Clear"
"-115.14","67.82","KUGLUKTUK A","2300903","2020-11-22 15:00","2020","11","22","15:00","-20.7","","-23.4","","79","","","","23","","13","","24.1","","101.79","","","","-29","","NA"
"-115.14","67.82","KUGLUKTUK A","2300903","2020-11-22 16:00","2020","11","22","16:00","-21.7","","-24.3","","80","","","","19","","9","","24.1","","101.76","","","","-29","","NA"
"-115.14","67.82","KUGLUKTUK A","2300903","2020-11-22 17:00","2020","11","22","17:00","-21.3","","-23.7","","81","","","","20","","5","","24.1","","101.72","","","","-26","","Clear"
"-115.14","67.82","KUGLUKTUK A","2300903","2020-11-22 18:00","2020","11","22","18:00","-23.8","","-26.2","","81","","","","20","","9","","24.1","","101.68","","","","-31","","NA"
"-115.14","67.82","KUGLUKTUK A","2300903","2020-11-22 19:00","2020","11","22","19:00","-22.8","","-24.9","","83","","","","21","","9","","24.1","","101.64","","","","-30","","NA"
"-115.14","67.82","KUGLUKTUK A","2300903","2020-11-22 20:00","2020","11","22","20:00","-23.2","","-25.6","","81","","","","23","","16","","24.1","","101.63","","","","-33","","Clear"
"-115.14","67.82","KUGLUKTUK A","2300903","2020-11-22 21:00","2020","11","22","21:00","-24.2","","-26.5","","82","","","","21","","14","","24.1","","101.61","","","","-34","","NA"
"-115.14","67.82","KUGLUKTUK A","2300903","2020-11-22 22:00","2020","11","22","22:00","-23.4","","-25.7","","82","","","","22","","14","","24.1","","101.60","","","","-33","","NA"
"-115.14","67.82","KUGLUKTUK A","2300903","2020-11-22 23:00","2020","11","22","23:00","-23.9","","-26.2","","82","","","","22","","11","","24.1","","101.60","","","","-32","","Clear"
"-115.14","67.82","KUGLUKTUK A","2300903","2020-11-23 00:00","2020","11","23","00:00","-24.4","","-26.6","","82","","","","20","","9","","24.1","","101.58","","","","-32","","NA"
"-115.14","67.82","KUGLUKTUK A","2300903","2020-11-23 01:00","2020","11","23","01:00","-23.8","","-25.9","","83","","","","19","","12","","24.1","","101.57","","","","-33","","NA"
"-115.14","67.82","KUGLUKTUK A","2300903","2020-11-23 02:00","2020","11","23","02:00","-25.2","","-27.6","","81","","","","22","","12","","24.1","","101.54","","","","-34","","Mainly Clear"
"-115.14","67.82","KUGLUKTUK A","2300903","2020-11-23 03:00","2020","11","23","03:00","-24.7","","-26.9","","82","","","","20","","8","","24.1","","101.50","","","","-32","","NA"
"-115.14","67.82","KUGLUKTUK A","2300903","2020-11-23 04:00","2020","11","23","04:00","-24.3","","-26.4","","83","","","","22","","6","","24.1","","101.48","","","","-30","","NA"
"-115.14","67.82","KUGLUKTUK A","2300903","2020-11-23 05:00","2020","11","23","05:00","-25.3","","-27.7","","81","","","","23","","9","","24.1","","101.46","","","","-33","","Mainly Clear"
"-115.14","67.82","KUGLUKTUK A","2300903","2020-11-23 06:00","2020","11","23","06:00","-25.6","","-28.1","","80","","","","22","","10","","24.1","","101.45","","","","-34","","NA"
"-115.14","67.82","KUGLUKTUK A","2300903","2020-11-23 07:00","2020","11","23","07:00","-25.2","","-27.7","","80","","","","20","","13","","24.1","","101.43","","","","-35","","NA"
"-115.14","67.82","KUGLUKTUK A","2300903","2020-11-23 08:00","2020","11","23","08:00","-24.5","","-26.9","","81","","","","21","","10","","24.1","","101.42","","","","-33","","Clear"
"-115.14","67.82","KUGLUKTUK A","2300903","2020-11-23 09:00","2020","11","23","09:00","-25.1","","-27.6","","80","","","","28","","5","","24.1","","101.36","","","","-30","","NA"
"-115.14","67.82","KUGLUKTUK A","2300903","2020-11-23 10:00","2020","11","23","10:00","-25.2","","-27.8","","79","","","","23","","4","","24.1","","101.32","","","","-29","","NA"
"-115.14","67.82","KUGLUKTUK A","2300903","2020-11-23 11:00","2020","11","23","11:00","-24.3","","-26.6","","82","","","","17","","8","","24.1","","101.33","","","","-31","","Clear"
"-115.14","67.82","KUGLUKTUK A","2300903","2020-11-23 12:00","2020","11","23","12:00","-25.0","","-27.6","","80","","","","1","","5","","24.1","","101.32","","","","-30","","NA"
"-115.14","67.82","KUGLUKTUK A","2300903","2020-11-23 13:00","2020","11","23","13:00","-23.7","","-26.0","","82","","","","16","","6","","24.1","","101.29","","","","-29","","NA"
"-115.14","67.82","KUGLUKTUK A","2300903","2020-11-23 14:00","2020","11","23","14:00","-26.5","","-29.2","","78","","","","36","","7","","24.1","","101.28","","","","-33","","Clear"
"-115.14","67.82","KUGLUKTUK A","2300903","2020-11-23 15:00","2020","11","23","15:00","-27.2","","-30.0","","78","","","","29","","5","","24.1","","101.26","","","","-32","","NA"
"-115.14","67.82","KUGLUKTUK A","2300903","2020-11-23 16:00","2020","11","23","16:00","-25.8","","-28.4","","79","","","","26","","3","","24.1","","101.21","","","","-29","","NA"
"-115.14","67.82","KUGLUKTUK A","2300903","2020-11-23 17:00","2020","11","23","17:00","-25.7","","-28.4","","79","","","","36","","1","","24.1","","101.19","","","","-27","","Clear"
"-115.14","67.82","KUGLUKTUK A","2300903","2020-11-23 18:00","2020","11","23","18:00","-26.4","","-29.3","","78","","","","36","","2","","24.1","","101.13","","","","-28","","NA"
"-115.14","67.82","KUGLUKTUK A","2300903","2020-11-23 19:00","2020","11","23","19:00","-25.8","","-28.3","","80","","","","36","","2","","24.1","","101.11","","","","-28","","NA"
"-115.14","67.82","KUGLUKTUK A","2300903","2020-11-23 20:00","2020","11","23","20:00","-24.4","","-26.9","","81","","","","0","","1","","24.1","","101.06","","","","-25","","Ice Crystals"
"-115.14","67.82","KUGLUKTUK A","2300903","2020-11-23 21:00","2020","11","23","21:00","-25.3","","-27.8","","80","","","","36","","2","","24.1","","101.03","","","","-27","","NA"
"-115.14","67.82","KUGLUKTUK A","2300903","2020-11-23 22:00","2020","11","23","22:00","-26.0","","-28.7","","79","","","","1","","4","","24.1","","100.98","","","","-30","","NA"
"-115.14","67.82","KUGLUKTUK A","2300903","2020-11-23 23:00","2020","11","23","23:00","-25.7","","-28.2","","80","","","","32","","4","","24.1","","100.92","","","","-30","","Clear"
"-115.14","67.82","KUGLUKTUK A","2300903","2020-11-24 00:00","2020","11","24","00:00","-26.7","","-29.5","","78","","","","36","","2","","24.1","","100.90","","","","-29","","NA"
"-115.14","67.82","KUGLUKTUK A","2300903","2020-11-24 01:00","2020","11","24","01:00","-25.2","","-27.8","","80","","","","34","","4","","24.1","","100.89","","","","-29","","NA"
"-115.14","67.82","KUGLUKTUK A","2300903","2020-11-24 02:00","2020","11","24","02:00","-26.4","","-29.1","","78","","","","36","","3","","24.1","","100.85","","","","-29","","Clear"
"-115.14","67.82","KUGLUKTUK A","2300903","2020-11-24 03:00","2020","11","24","03:00","-25.8","","-28.4","","79","","","","36","","1","","24.1","","100.82","","","","-27","","NA"
"-115.14","67.82","KUGLUKTUK A","2300903","2020-11-24 04:00","2020","11","24","04:00","-26.6","","-29.3","","78","","","","29","","5","","24.1","","100.77","","","","-32","","NA"
"-115.14","67.82","KUGLUKTUK A","2300903","2020-11-24 05:00","2020","11","24","05:00","-26.0","","-28.7","","79","","","","36","","2","","24.1","","100.73","","","","-28","","Clear"
"-115.14","67.82","KUGLUKTUK A","2300903","2020-11-24 06:00","2020","11","24","06:00","-26.5","","-29.3","","78","","","","36","","4","","24.1","","100.68","","","","-31","","Ice Crystals"
"-115.14","67.82","KUGLUKTUK A","2300903","2020-11-24 07:00","2020","11","24","07:00","-26.1","","-28.9","","78","","","","34","","3","","24.1","","100.66","","","","-29","","NA"
"-115.14","67.82","KUGLUKTUK A","2300903","2020-11-24 08:00","2020","11","24","08:00","-25.9","","-28.6","","79","","","","28","","9","","24.1","","100.65","","","","-34","","Clear"
"-115.14","67.82","KUGLUKTUK A","2300903","2020-11-24 09:00","2020","11","24","09:00","-25.3","","-28.0","","79","","","","36","","2","","24.1","","100.63","","","","-27","","NA"
"-115.14","67.82","KUGLUKTUK A","2300903","2020-11-24 10:00","2020","11","24","10:00","-27.2","","-30.1","","77","","","","5","","3","","24.1","","100.63","","","","-30","","NA"
"-115.14","67.82","KUGLUKTUK A","2300903","2020-11-24 11:00","2020","11","24","11:00","-26.8","","-29.6","","78","","","","32","","5","","24.1","","100.61","","","","-32","","Clear"
"-115.14","67.82","KUGLUKTUK A","2300903","2020-11-24 12:00","2020","11","24","12:00","-26.7","","-29.5","","78","","","","31","","5","","24.1","","100.61","","","","-32","","NA"
"-115.14","67.82","KUGLUKTUK A","2300903","2020-11-24 13:00","2020","11","24","13:00","-25.2","","-27.9","","79","","","","0","","1","","24.1","","100.60","","","","-26","","Snow Grains"
"-115.14","67.82","KUGLUKTUK A","2300903","2020-11-24 14:00","2020","11","24","14:00","-23.8","","-26.3","","80","","","","36","","2","","24.1","","100.59","","","","-26","","Snow Grains"
"-115.14","67.82","KUGLUKTUK A","2300903","2020-11-24 15:00","2020","11","24","15:00","-23.4","","-25.9","","80","","","","30","","6","","24.1","","100.59","","","","-29","","Snow Grains"
"-115.14","67.82","KUGLUKTUK A","2300903","2020-11-24 16:00","2020","11","24","16:00","-26.2","","-29.0","","78","","","","24","","7","","24.1","","100.56","","","","-33","","Ice Crystals"
"-115.14","67.82","KUGLUKTUK A","2300903","2020-11-24 17:00","2020","11","24","17:00","-25.9","","-28.6","","78","","","","24","","3","","24.1","","100.56","","","","-29","","Ice Crystals"
"-115.14","67.82","KUGLUKTUK A","2300903","2020-11-24 18:00","2020","11","24","18:00","-26.9","","-29.7","","77","","","","22","","13","","24.1","","100.57","","","","-37","","Ice Crystals"
"-115.14","67.82","KUGLUKTUK A","2300903","2020-11-24 19:00","2020","11","24","19:00","-25.5","","-28.1","","79","","","","27","","3","","24.1","","100.56","","","","-29","","Ice Crystals"
"-115.14","67.82","KUGLUKTUK A","2300903","2020-11-24 20:00","2020","11","24","20:00","-24.0","","-26.6","","80","","","","33","","3","","19.3","","100.55","","","","-27","","Snow"
"-115.14","67.82","KUGLUKTUK A","2300903","2020-11-24 21:00","2020","11","24","21:00","-24.4","","-27.0","","80","","","","21","","8","","24.1","","100.56","","","","-31","","Snow"
"-115.14","67.82","KUGLUKTUK A","2300903","2020-11-24 22:00","2020","11","24","22:00","-24.3","","-26.9","","79","","","","21","","12","","19.3","","100.55","","","","-33","","Snow"
"-115.14","67.82","KUGLUKTUK A","2300903","2020-11-24 23:00","2020","11","24","23:00","-23.4","","-25.9","","80","","","","22","","12","","12.9","","100.55","","","","-32","","Snow"
"-115.14","67.82","KUGLUKTUK A","2300903","2020-11-25 00:00","2020","11","25","00:00","-23.8","","-26.4","","80","","","","24","","5","","16.1","","100.54","","","","-29","","Snow"
"-115.14","67.82","KUGLUKTUK A","2300903","2020-11-25 01:00","2020","11","25","01:00","-22.8","","-25.3","","81","","","","23","","7","","19.3","","100.56","","","","-29","","Snow"
"-115.14","67.82","KUGLUKTUK A","2300903","2020-11-25 02:00","2020","11","25","02:00","-22.0","","-24.4","","81","","","","21","","12","","24.1","","100.58","","","","-30","","Snow"
"-115.14","67.82","KUGLUKTUK A","2300903","2020-11-25 03:00","2020","11","25","03:00","-21.1","","-23.5","","82","","","","22","","5","","24.1","","100.56","","","","-26","","Snow"
"-115.14","67.82","KUGLUKTUK A","2300903","2020-11-25 04:00","2020","11","25","04:00","-20.4","","-22.6","","83","","","","20","","9","","2.4","","100.55","","","","-27","","Snow,Fog"
"-115.14","67.82","KUGLUKTUK A","2300903","2020-11-25 05:00","2020","11","25","05:00","-20.0","","-22.2","","83","","","","23","","6","","2.4","","100.55","","","","-25","","Snow,Fog"
"-115.14","67.82","KUGLUKTUK A","2300903","2020-11-25 06:00","2020","11","25","06:00","-19.6","","-21.7","","83","","","","22","","11","","0.8","","100.53","","","","-27","","Freezing Fog"
"-115.14","67.82","KUGLUKTUK A","2300903","2020-11-25 07:00","2020","11","25","07:00","-19.4","","-21.5","","84","","","","22","","11","","0.8","","100.53","","","","-27","","Freezing Fog"
"-115.14","67.82","KUGLUKTUK A","2300903","2020-11-25 08:00","2020","11","25","08:00","-19.3","","-21.4","","84","","","","23","","11","","0.6","","100.54","","","","-27","","Freezing Fog"
"-115.14","67.82","KUGLUKTUK A","2300903","2020-11-25 09:00","2020","11","25","09:00","-19.3","","-21.5","","84","","","","22","","9","","0.2","","100.55","","","","-26","","Freezing Fog"
"-115.14","67.82","KUGLUKTUK A","2300903","2020-11-25 10:00","2020","11","25","10:00","-19.6","","-21.7","","83","","","","22","","9","","1.2","","100.55","","","","-26","","Fog"
"-115.14","67.82","KUGLUKTUK A","2300903","2020-11-25 11:00","2020","11","25","11:00","-19.6","","-21.7","","83","","","","23","","7","","4.8","","100.56","","","","-25","","Fog"
"-115.14","67.82","KUGLUKTUK A","2300903","2020-11-25 12:00","2020","11","25","12:00","-19.4","","-21.5","","83","","","","22","","7","","0.4","","100.59","","","","-25","","Freezing Fog"
"-115.14","67.82","KUGLUKTUK A","2300903","2020-11-25 13:00","2020","11","25","13:00","-19.1","","-21.1","","84","","","","21","","9","","1.6","","100.58","","","","-26","","Fog"
"-115.14","67.82","KUGLUKTUK A","2300903","2020-11-25 14:00","2020","11","25","14:00","-20.1","","-22.2","","83","","","","23","","9","","2.0","","100.65","","","","-27","","Fog"
"-115.14","67.82","KUGLUKTUK A","2300903","2020-11-25 15:00","2020","11","25","15:00","-19.6","","-21.8","","83","","","","21","","12","","24.1","","100.62","","","","-28","","NA"
"-115.14","67.82","KUGLUKTUK A","2300903","2020-11-25 16:00","2020","11","25","16:00","-18.9","","-21.0","","84","","","","23","","17","","24.1","","100.64","","","","-28","","NA"
"-115.14","67.82","KUGLUKTUK A","2300903","2020-11-25 17:00","2020","11","25","17:00","-18.7","","-20.7","","84","","","","24","","14","","24.1","","100.67","","","","-27","","Cloudy"
"-115.14","67.82","KUGLUKTUK A","2300903","2020-11-25 18:00","2020","11","25","18:00","-19.1","","-21.2","","84","","","","22","","18","","24.1","","100.66","","","","-29","","NA"
"-115.14","67.82","KUGLUKTUK A","2300903","2020-11-25 19:00","2020","11","25","19:00","-19.7","","-21.8","","84","","","","23","","14","","24.1","","100.68","","","","-28","","Ice Crystals"
"-115.14","67.82","KUGLUKTUK A","2300903","2020-11-25 20:00","2020","11","25","20:00","-21.8","","-24.2","","81","","","","23","","18","","24.1","","100.70","","","","-32","","Ice Crystals"
"-115.14","67.82","KUGLUKTUK A","2300903","2020-11-25 21:00","2020","11","25","21:00","-20.3","","-22.5","","83","","","","23","","19","","24.1","","100.68","","","","-31","","Ice Crystals"
"-115.14","67.82","KUGLUKTUK A","2300903","2020-11-25 22:00","2020","11","25","22:00","-21.7","","-24.0","","82","","","","23","","3","","24.1","","100.68","","","","-24","","NA"
"-115.14","67.82","KUGLUKTUK A","2300903","2020-11-25 23:00","2020","11","25","23:00","-20.1","","-22.2","","83","","","","24","","11","","24.1","","100.69","","","","-28","","Ice Crystals"
"-115.14","67.82","KUGLUKTUK A","2300903","2020-11-26 00:00","2020","11","26","00:00","-20.6","","-22.9","","83","","","","21","","10","","24.1","","100.69","","","","-28","","Ice Crystals"
"-115.14","67.82","KUGLUKTUK A","2300903","2020-11-26 01:00","2020","11","26","01:00","-19.8","","-21.9","","83","","","","21","","12","","24.1","","100.67","","","","-28","","Ice Crystals"
"-115.14","67.82","KUGLUKTUK A","2300903","2020-11-26 02:00","2020","11","26","02:00","-19.2","","-21.3","","84","","","","23","","7","","19.3","","100.65","","","","-25","","Snow"
"-115.14","67.82","KUGLUKTUK A","2300903","2020-11-26 03:00","2020","11","26","03:00","-19.3","","-21.4","","84","","","","23","","4","","24.1","","100.60","","","","-23","","Snow"
"-115.14","67.82","KUGLUKTUK A","2300903","2020-11-26 04:00","2020","11","26","04:00","-19.4","","-21.6","","84","","","","22","","7","","24.1","","100.56","","","","-25","","Snow"
"-115.14","67.82","KUGLUKTUK A","2300903","2020-11-26 05:00","2020","11","26","05:00","-19.6","","-21.7","","83","","","","23","","3","","24.1","","100.52","","","","-22","","Snow"
"-115.14","67.82","KUGLUKTUK A","2300903","2020-11-26 06:00","2020","11","26","06:00","-20.8","","-23.1","","82","","","","36","","3","","24.1","","100.45","","","","-23","","NA"
"-115.14","67.82","KUGLUKTUK A","2300903","2020-11-26 07:00","2020","11","26","07:00","-21.9","","-24.3","","82","","","","33","","5","","24.1","","100.41","","","","-26","","NA"
"-115.14","67.82","KUGLUKTUK A","2300903","2020-11-26 08:00","2020","11","26","08:00","-22.8","","-25.4","","80","","","","5","","3","","24.1","","100.36","","","","-26","","Clear"
"-115.14","67.82","KUGLUKTUK A","2300903","2020-11-26 09:00","2020","11","26","09:00","-22.3","","-24.7","","81","","","","5","","4","","24.1","","100.28","","","","-26","","NA"
"-115.14","67.82","KUGLUKTUK A","2300903","2020-11-26 10:00","2020","11","26","10:00","-23.1","","-25.5","","81","","","","25","","3","","24.1","","100.27","","","","-26","","NA"
"-115.14","67.82","KUGLUKTUK A","2300903","2020-11-26 11:00","2020","11","26","11:00","-23.2","","-25.7","","80","","","","36","","3","","24.1","","100.19","","","","-26","","Clear"
"-115.14","67.82","KUGLUKTUK A","2300903","2020-11-26 12:00","2020","11","26","12:00","-26.6","","-29.6","","77","","","","8","","4","","24.1","","100.13","","","","-31","","NA"
"-115.14","67.82","KUGLUKTUK A","2300903","2020-11-26 13:00","2020","11","26","13:00","-24.5","","-27.1","","80","","","","8","","10","","24.1","","100.06","","","","-33","","NA"
"-115.14","67.82","KUGLUKTUK A","2300903","2020-11-26 14:00","2020","11","26","14:00","-25.3","","-28.0","","79","","","","5","","7","","24.1","","99.98","","","","-32","","Mainly Clear"
"-115.14","67.82","KUGLUKTUK A","2300903","2020-11-26 15:00","2020","11","26","15:00","-23.2","","-25.6","","81","","","","8","","13","","24.1","","99.91","","","","-32","","NA"
"-115.14","67.82","KUGLUKTUK A","2300903","2020-11-26 16:00","2020","11","26","16:00","-23.1","","-25.5","","81","","","","4","","10","","24.1","","99.87","","","","-31","","NA"
"-115.14","67.82","KUGLUKTUK A","2300903","2020-11-26 17:00","2020","11","26","17:00","-22.4","","-24.8","","81","","","","7","","11","","24.1","","99.80","","","","-31","","Clear"
"-115.14","67.82","KUGLUKTUK A","2300903","2020-11-26 18:00","2020","11","26","18:00","-22.7","","-25.1","","81","","","","4","","9","","24.1","","99.77","","","","-30","","NA"
"-115.14","67.82","KUGLUKTUK A","2300903","2020-11-26 19:00","2020","11","26","19:00","-22.5","","-24.9","","81","","","","5","","10","","24.1","","99.74","","","","-30","","Ice Crystals"
"-115.14","67.82","KUGLUKTUK A","2300903","2020-11-26 20:00","2020","11","26","20:00","-23.0","","-25.5","","81","","","","5","","16","","24.1","","99.71","","","","-33","","Ice Crystals"
"-115.14","67.82","KUGLUKTUK A","2300903","2020-11-26 21:00","2020","11","26","21:00","-22.6","","-25.0","","81","","","","5","","15","","24.1","","99.70","","","","-32","","Ice Crystals"
"-115.14","67.82","KUGLUKTUK A","2300903","2020-11-26 22:00","2020","11","26","22:00","-22.4","","-24.8","","81","","","","6","","14","","24.1","","99.71","","","","-32","","Ice Crystals"
"-115.14","67.82","KUGLUKTUK A","2300903","2020-11-26 23:00","2020","11","26","23:00","-22.0","","-24.3","","81","","","","6","","13","","24.1","","99.73","","","","-31","","Ice Crystals"
"-115.14","67.82","KUGLUKTUK A","2300903","2020-11-27 00:00","2020","11","27","00:00","-21.8","","-24.2","","82","","","","6","","14","","24.1","","99.75","","","","-31","","Ice Crystals"
"-115.14","67.82","KUGLUKTUK A","2300903","2020-11-27 01:00","2020","11","27","01:00","-21.6","","-23.9","","82","","","","6","","16","","24.1","","99.78","","","","-31","","Ice Crystals"
"-115.14","67.82","KUGLUKTUK A","2300903","2020-11-27 02:00","2020","11","27","02:00","-22.0","","-24.3","","82","","","","6","","7","","24.1","","99.83","","","","-28","","Ice Crystals"
"-115.14","67.82","KUGLUKTUK A","2300903","2020-11-27 03:00","2020","11","27","03:00","-21.1","","-23.4","","82","","","","1","","18","","24.1","","99.88","","","","-31","","Ice Crystals"
"-115.14","67.82","KUGLUKTUK A","2300903","2020-11-27 04:00","2020","11","27","04:00","-22.8","","-25.2","","81","","","","35","","21","","24.1","","99.94","","","","-34","","Ice Crystals"
"-115.14","67.82","KUGLUKTUK A","2300903","2020-11-27 05:00","2020","11","27","05:00","-23.2","","-25.7","","80","","","","36","","17","","24.1","","100.01","","","","-34","","Ice Crystals"
"-115.14","67.82","KUGLUKTUK A","2300903","2020-11-27 06:00","2020","11","27","06:00","-23.7","","-26.2","","80","","","","34","","18","","24.1","","100.09","","","","-35","","Ice Crystals"
"-115.14","67.82","KUGLUKTUK A","2300903","2020-11-27 07:00","2020","11","27","07:00","-24.4","","-27.0","","80","","","","25","","14","","19.3","","100.17","","","","-34","","Ice Crystals"
"-115.14","67.82","KUGLUKTUK A","2300903","2020-11-27 08:00","2020","11","27","08:00","-24.0","","-26.6","","80","","","","26","","13","","19.3","","100.22","","","","-33","","Snow"
"-115.14","67.82","KUGLUKTUK A","2300903","2020-11-27 09:00","2020","11","27","09:00","-24.3","","-26.9","","79","","","","24","","15","","16.1","","100.31","","","","-34","","Snow"
"-115.14","67.82","KUGLUKTUK A","2300903","2020-11-27 10:00","2020","11","27","10:00","-24.4","","-26.9","","79","","","","24","","16","","16.1","","100.37","","","","-35","","Snow"
"-115.14","67.82","KUGLUKTUK A","2300903","2020-11-27 11:00","2020","11","27","11:00","-24.4","","-27.0","","79","","","","25","","12","","16.1","","100.43","","","","-33","","Snow"
"-115.14","67.82","KUGLUKTUK A","2300903","2020-11-27 12:00","2020","11","27","12:00","-25.1","","-27.8","","79","","","","23","","8","","16.1","","100.47","","","","-32","","Snow"
"-115.14","67.82","KUGLUKTUK A","2300903","2020-11-27 13:00","2020","11","27","13:00","-25.5","","-28.2","","78","","","","23","","15","","19.3","","100.55","","","","-36","","Ice Crystals"
"-115.14","67.82","KUGLUKTUK A","2300903","2020-11-27 14:00","2020","11","27","14:00","-26.0","","-28.7","","78","","","","20","","13","","19.3","","100.58","","","","-36","","Ice Crystals"
"-115.14","67.82","KUGLUKTUK A","2300903","2020-11-27 15:00","2020","11","27","15:00","-26.9","","-29.7","","77","","","","22","","16","","19.3","","100.60","","","","-38","","Ice Crystals"
"-115.14","67.82","KUGLUKTUK A","2300903","2020-11-27 16:00","2020","11","27","16:00","-27.7","","-30.6","","77","","","","22","","17","","19.3","","100.62","","","","-39","","Ice Crystals"
"-115.14","67.82","KUGLUKTUK A","2300903","2020-11-27 17:00","2020","11","27","17:00","-28.0","","-30.9","","77","","","","23","","21","","19.3","","100.63","","","","-41","","Ice Crystals"
"-115.14","67.82","KUGLUKTUK A","2300903","2020-11-27 18:00","2020","11","27","18:00","-27.3","","-30.1","","77","","","","21","","16","","19.3","","100.66","","","","-38","","Ice Crystals"
"-115.14","67.82","KUGLUKTUK A","2300903","2020-11-27 19:00","2020","11","27","19:00","-25.6","","-28.4","","79","","","","21","","16","","19.3","","100.64","","","","-36","","Ice Crystals"
"-115.14","67.82","KUGLUKTUK A","2300903","2020-11-27 20:00","2020","11","27","20:00","-25.8","","-28.6","","78","","","","21","","17","","19.3","","100.64","","","","-37","","Ice Crystals"
"-115.14","67.82","KUGLUKTUK A","2300903","2020-11-27 21:00","2020","11","27","21:00","-25.2","","-27.9","","79","","","","21","","10","","19.3","","100.65","","","","-33","","Ice Crystals"
"-115.14","67.82","KUGLUKTUK A","2300903","2020-11-27 22:00","2020","11","27","22:00","-25.1","","-27.8","","79","","","","22","","14","","19.3","","100.64","","","","-35","","Ice Crystals"
"-115.14","67.82","KUGLUKTUK A","2300903","2020-11-27 23:00","2020","11","27","23:00","-25.2","","-27.9","","79","","","","22","","12","","19.3","","100.64","","","","-34","","Ice Crystals"
"-115.14","67.82","KUGLUKTUK A","2300903","2020-11-28 00:00","2020","11","28","00:00","-24.9","","-27.6","","79","","","","21","","12","","19.3","","100.64","","","","-34","","Ice Crystals"
"-115.14","67.82","KUGLUKTUK A","2300903","2020-11-28 01:00","2020","11","28","01:00","-24.7","","-27.3","","79","","","","22","","12","","19.3","","100.63","","","","-34","","Ice Crystals"
"-115.14","67.82","KUGLUKTUK A","2300903","2020-11-28 02:00","2020","11","28","02:00","-23.5","","-26.0","","80","","","","25","","9","","19.3","","100.61","","","","-31","","Ice Crystals"
"-115.14","67.82","KUGLUKTUK A","2300903","2020-11-28 03:00","2020","11","28","03:00","-24.8","","-27.4","","79","","","","22","","6","","19.3","","100.63","","","","-31","","Ice Crystals"
"-115.14","67.82","KUGLUKTUK A","2300903","2020-11-28 04:00","2020","11","28","04:00","-25.9","","-28.6","","78","","","","21","","13","","19.3","","100.62","","","","-36","","Ice Crystals"
"-115.14","67.82","KUGLUKTUK A","2300903","2020-11-28 05:00","2020","11","28","05:00","-26.3","","-29.1","","78","","","","18","","8","","19.3","","100.57","","","","-34","","Ice Crystals"
"-115.14","67.82","KUGLUKTUK A","2300903","2020-11-28 06:00","2020","11","28","06:00","-26.6","","-29.4","","78","","","","20","","11","","19.3","","100.55","","","","-36","","Ice Crystals"
"-115.14","67.82","KUGLUKTUK A","2300903","2020-11-28 07:00","2020","11","28","07:00","-24.9","","-27.6","","79","","","","25","","7","","19.3","","100.57","","","","-31","","Ice Crystals"
"-115.14","67.82","KUGLUKTUK A","2300903","2020-11-28 08:00","2020","11","28","08:00","-26.7","","-29.5","","78","","","","17","","8","","19.3","","100.55","","","","-34","","Ice Crystals"
"-115.14","67.82","KUGLUKTUK A","2300903","2020-11-28 09:00","2020","11","28","09:00","-25.8","","-28.6","","78","","","","36","","1","","19.3","","100.53","","","","-27","","Ice Crystals"
"-115.14","67.82","KUGLUKTUK A","2300903","2020-11-28 10:00","2020","11","28","10:00","-26.7","","-29.5","","78","","","","0","","1","","19.3","","100.54","","","","-28","","Ice Crystals"
"-115.14","67.82","KUGLUKTUK A","2300903","2020-11-28 11:00","2020","11","28","11:00","-26.3","","-29.1","","78","","","","18","","6","","16.1","","100.52","","","","-32","","Ice Crystals"
"-115.14","67.82","KUGLUKTUK A","2300903","2020-11-28 12:00","2020","11","28","12:00","-25.8","","-28.6","","78","","","","36","","1","","16.1","","100.51","","","","-27","","Ice Crystals"
"-115.14","67.82","KUGLUKTUK A","2300903","2020-11-28 13:00","2020","11","28","13:00","-26.1","","-28.9","","78","","","","36","","1","","16.1","","100.48","","","","-27","","Ice Crystals"
"-115.14","67.82","KUGLUKTUK A","2300903","2020-11-28 14:00","2020","11","28","14:00","-27.5","","-30.4","","77","","","","34","","4","","16.1","","100.49","","","","-32","","Ice Crystals"
"-115.14","67.82","KUGLUKTUK A","2300903","2020-11-28 15:00","2020","11","28","15:00","-26.2","","-28.9","","78","","","","20","","7","","19.3","","100.46","","","","-33","","Ice Crystals"
"-115.14","67.82","KUGLUKTUK A","2300903","2020-11-28 16:00","2020","11","28","16:00","-25.5","","-28.4","","78","","","","36","","1","","19.3","","100.41","","","","-27","","Ice Crystals"
"-115.14","67.82","KUGLUKTUK A","2300903","2020-11-28 17:00","2020","11","28","17:00","-24.0","","-26.7","","79","","","","21","","14","","19.3","","100.38","","","","-34","","Ice Crystals"
"-115.14","67.82","KUGLUKTUK A","2300903","2020-11-28 18:00","2020","11","28","18:00","-23.8","","-26.3","","80","","","","22","","7","","19.3","","100.34","","","","-30","","Ice Crystals"
"-115.14","67.82","KUGLUKTUK A","2300903","2020-11-28 19:00","2020","11","28","19:00","-24.1","","-26.8","","79","","","","29","","4","","19.3","","100.28","","","","-28","","Ice Crystals"
"-115.14","67.82","KUGLUKTUK A","2300903","2020-11-28 20:00","2020","11","28","20:00","-22.2","","-24.5","","82","","","","20","","12","","19.3","","100.22","","","","-31","","Ice Crystals"
"-115.14","67.82","KUGLUKTUK A","2300903","2020-11-28 21:00","2020","11","28","21:00","-23.6","","-26.2","","80","","","","21","","11","","19.3","","100.12","","","","-32","","Ice Crystals"
"-115.14","67.82","KUGLUKTUK A","2300903","2020-11-28 22:00","2020","11","28","22:00","-26.8","","-29.7","","77","","","","29","","4","","19.3","","100.08","","","","-31","","Ice Crystals"
"-115.14","67.82","KUGLUKTUK A","2300903","2020-11-28 23:00","2020","11","28","23:00","-27.6","","-30.5","","76","","","","35","","5","","19.3","","100.02","","","","-33","","Ice Crystals"
"-115.14","67.82","KUGLUKTUK A","2300903","2020-11-29 00:00","2020","11","29","00:00","-23.0","","-25.5","","81","","","","9","","3","","19.3","","99.98","","","","-26","","Ice Crystals"
"-115.14","67.82","KUGLUKTUK A","2300903","2020-11-29 01:00","2020","11","29","01:00","-26.2","","-29.0","","78","","","","36","","1","","19.3","","99.94","","","","-27","","Ice Crystals"
"-115.14","67.82","KUGLUKTUK A","2300903","2020-11-29 02:00","2020","11","29","02:00","-26.5","","-29.3","","78","","","","35","","5","","19.3","","99.84","","","","-32","","Ice Crystals"
"-115.14","67.82","KUGLUKTUK A","2300903","2020-11-29 03:00","2020","11","29","03:00","-26.8","","-29.7","","77","","","","36","","1","","19.3","","99.79","","","","-28","","Ice Crystals"
"-115.14","67.82","KUGLUKTUK A","2300903","2020-11-29 04:00","2020","11","29","04:00","-26.8","","-29.6","","78","","","","35","","6","","19.3","","99.67","","","","-33","","Ice Crystals"
"-115.14","67.82","KUGLUKTUK A","2300903","2020-11-29 05:00","2020","11","29","05:00","-26.0","","-28.8","","78","","","","34","","6","","19.3","","99.65","","","","-32","","Ice Crystals"
"-115.14","67.82","KUGLUKTUK A","2300903","2020-11-29 06:00","2020","11","29","06:00","-25.8","","-28.4","","79","","","","32","","5","","19.3","","99.50","","","","-31","","Ice Crystals"
"-115.14","67.82","KUGLUKTUK A","2300903","2020-11-29 07:00","2020","11","29","07:00","-23.9","","-26.5","","80","","","","16","","6","","19.3","","99.46","","","","-30","","Ice Crystals"
"-115.14","67.82","KUGLUKTUK A","2300903","2020-11-29 08:00","2020","11","29","08:00","-22.5","","-24.9","","81","","","","36","","2","","19.3","","99.38","","","","-24","","Ice Crystals"
"-115.14","67.82","KUGLUKTUK A","2300903","2020-11-29 09:00","2020","11","29","09:00","-21.4","","-23.8","","82","","","","36","","4","","19.3","","99.34","","","","-25","","Ice Crystals"
"-115.14","67.82","KUGLUKTUK A","2300903","2020-11-29 10:00","2020","11","29","10:00","-18.9","","-21.0","","84","","","","2","","16","","19.3","","99.30","","","","-28","","Ice Crystals"
"-115.14","67.82","KUGLUKTUK A","2300903","2020-11-29 11:00","2020","11","29","11:00","-19.4","","-21.6","","83","","","","2","","17","","19.3","","99.28","","","","-29","","Ice Crystals"
"-115.14","67.82","KUGLUKTUK A","2300903","2020-11-29 12:00","2020","11","29","12:00","-19.7","","-21.9","","83","","","","1","","16","","19.3","","99.28","","","","-29","","Ice Crystals"
"-115.14","67.82","KUGLUKTUK A","2300903","2020-11-29 13:00","2020","11","29","13:00","-21.5","","-23.9","","81","","","","29","","16","","19.3","","99.31","","","","-31","","Ice Crystals"
"-115.14","67.82","KUGLUKTUK A","2300903","2020-11-29 14:00","2020","11","29","14:00","-21.3","","-23.7","","82","","","","27","","13","","12.9","","99.37","","","","-30","","Ice Crystals"
"-115.14","67.82","KUGLUKTUK A","2300903","2020-11-29 15:00","2020","11","29","15:00","-20.5","","-22.7","","83","","","","27","","9","","12.9","","99.44","","","","-27","","Ice Crystals"
"-115.14","67.82","KUGLUKTUK A","2300903","2020-11-29 16:00","2020","11","29","16:00","-20.3","","-22.5","","83","","","","27","","7","","12.9","","99.50","","","","-26","","Ice Crystals"
"-115.14","67.82","KUGLUKTUK A","2300903","2020-11-29 17:00","2020","11","29","17:00","-20.3","","-22.6","","82","","","","27","","10","","16.1","","99.56","","","","-28","","Ice Crystals"
"-115.14","67.82","KUGLUKTUK A","2300903","2020-11-29 18:00","2020","11","29","18:00","-19.9","","-22.1","","83","","","","23","","7","","12.9","","99.60","","","","-26","","Ice Crystals"
"-115.14","67.82","KUGLUKTUK A","2300903","2020-11-29 19:00","2020","11","29","19:00","-19.9","","-22.1","","83","","","","23","","14","","12.9","","99.64","","","","-29","","Ice Crystals"
"-115.14","67.82","KUGLUKTUK A","2300903","2020-11-29 20:00","2020","11","29","20:00","-20.1","","-22.4","","83","","","","22","","15","","12.9","","99.65","","","","-29","","Ice Crystals"
"-115.14","67.82","KUGLUKTUK A","2300903","2020-11-29 21:00","2020","11","29","21:00","-20.2","","-22.4","","83","","","","24","","13","","12.9","","99.71","","","","-29","","Snow"
"-115.14","67.82","KUGLUKTUK A","2300903","2020-11-29 22:00","2020","11","29","22:00","-20.4","","-22.6","","83","","","","24","","13","","12.9","","99.76","","","","-29","","Snow"
"-115.14","67.82","KUGLUKTUK A","2300903","2020-11-29 23:00","2020","11","29","23:00","-20.3","","-22.5","","83","","","","20","","6","","12.9","","99.79","","","","-25","","Snow"
"-115.14","67.82","KUGLUKTUK A","2300903","2020-11-30 00:00","2020","11","30","00:00","-20.2","","-22.4","","83","","","","21","","4","","12.9","","99.84","","","","-24","","Snow Grains"
"-115.14","67.82","KUGLUKTUK A","2300903","2020-11-30 01:00","2020","11","30","01:00","-20.0","","-22.2","","83","","","","22","","5","","12.9","","99.91","","","","-24","","Snow Grains"
"-115.14","67.82","KUGLUKTUK A","2300903","2020-11-30 02:00","2020","11","30","02:00","-20.0","","-22.2","","83","","","","22","","5","","12.9","","99.94","","","","-24","","Snow Grains"
"-115.14","67.82","KUGLUKTUK A","2300903","2020-11-30 03:00","2020","11","30","03:00","-19.9","","-22.1","","83","","","","19","","3","","12.9","","99.96","","","","-22","","Snow Grains"
"-115.14","67.82","KUGLUKTUK A","2300903","2020-11-30 04:00","2020","11","30","04:00","-19.8","","-22.0","","83","","","","17","","8","","12.9","","99.98","","","","-26","","Snow Grains"
"-115.14","67.82","KUGLUKTUK A","2300903","2020-11-30 05:00","2020","11","30","05:00","-19.5","","-21.7","","83","","","","16","","7","","12.9","","99.98","","","","-25","","Snow Grains"
"-115.14","67.82","KUGLUKTUK A","2300903","2020-11-30 06:00","2020","11","30","06:00","-19.2","","-21.4","","84","","","","11","","8","","12.9","","99.95","","","","-25","","Snow Grains"
"-115.14","67.82","KUGLUKTUK A","2300903","2020-11-30 07:00","2020","11","30","07:00","-19.5","","-21.7","","83","","","","9","","10","","16.1","","99.92","","","","-27","","Snow"
"-115.14","67.82","KUGLUKTUK A","2300903","2020-11-30 08:00","2020","11","30","08:00","-19.9","","-22.1","","83","","","","10","","13","","19.3","","99.89","","","","-28","","Ice Crystals"
"-115.14","67.82","KUGLUKTUK A","2300903","2020-11-30 09:00","2020","11","30","09:00","-19.7","","-21.8","","83","","","","11","","11","","19.3","","99.93","","","","-27","","Ice Crystals"
"-115.14","67.82","KUGLUKTUK A","2300903","2020-11-30 10:00","2020","11","30","10:00","-20.0","","-22.2","","83","","","","11","","9","","19.3","","99.93","","","","-27","","Ice Crystals"
"-115.14","67.82","KUGLUKTUK A","2300903","2020-11-30 11:00","2020","11","30","11:00","-20.4","","-22.6","","83","","","","10","","11","","19.3","","99.97","","","","-28","","Ice Crystals"
"-115.14","67.82","KUGLUKTUK A","2300903","2020-11-30 12:00","2020","11","30","12:00","-21.1","","-23.4","","82","","","","10","","8","","19.3","","100.01","","","","-28","","Ice Crystals"
"-115.14","67.82","KUGLUKTUK A","2300903","2020-11-30 13:00","2020","11","30","13:00","-22.8","","-25.4","","80","","","","15","","6","","19.3","","100.05","","","","-28","","Ice Crystals"
"-115.14","67.82","KUGLUKTUK A","2300903","2020-11-30 14:00","2020","11","30","14:00","-23.5","","-26.0","","81","","","","22","","6","","19.3","","100.04","","","","-29","","Ice Crystals"
"-115.14","67.82","KUGLUKTUK A","2300903","2020-11-30 15:00","2020","11","30","15:00","-21.5","","-23.8","","82","","","","23","","7","","19.3","","100.10","","","","-27","","Ice Crystals"
"-115.14","67.82","KUGLUKTUK A","2300903","2020-11-30 16:00","2020","11","30","16:00","-21.0","","-23.3","","82","","","","36","","3","","19.3","","100.18","","","","-24","","Ice Crystals"
"-115.14","67.82","KUGLUKTUK A","2300903","2020-11-30 17:00","2020","11","30","17:00","-21.7","","-24.1","","82","","","","36","","2","","19.3","","100.24","","","","-24","","Ice Crystals"
"-115.14","67.82","KUGLUKTUK A","2300903","2020-11-30 18:00","2020","11","30","18:00","-22.6","","-24.9","","81","","","","24","","4","","19.3","","100.34","","","","-26","","Ice Crystals"
"-115.14","67.82","KUGLUKTUK A","2300903","2020-11-30 19:00","2020","11","30","19:00","-23.6","","-26.1","","80","","","","21","","6","","19.3","","100.37","","","","-29","","Ice Crystals"
"-115.14","67.82","KUGLUKTUK A","2300903","2020-11-30 20:00","2020","11","30","20:00","-24.8","","-27.4","","79","","","","21","","13","","19.3","","100.41","","","","-34","","Ice Crystals"
"-115.14","67.82","KUGLUKTUK A","2300903","2020-11-30 21:00","2020","11","30","21:00","-25.0","","-27.6","","79","","","","23","","17","","19.3","","100.53","","","","-36","","Ice Crystals"
"-115.14","67.82","KUGLUKTUK A","2300903","2020-11-30 22:00","2020","11","30","22:00","-25.1","","-27.7","","79","","","","23","","16","","19.3","","100.60","","","","-36","","Ice Crystals"
"-115.14","67.82","KUGLUKTUK A","2300903","2020-11-30 23:00","2020","11","30","23:00","-25.8","","-28.4","","79","","","","21","","16","","19.3","","100.64","","","","-37","","Ice Crystals"
