"Longitude (x)","Latitude (y)","Station Name","Climate ID","Date/Time (LST)","Year","Month","Day","Time (LST)","Temp (°C)","Temp Flag","Dew Point Temp (°C)","Dew Point Temp Flag","Rel Hum (%)","Rel Hum Flag","Precip. Amount (mm)","Precip. Amount Flag","Wind Dir (10s deg)","Wind Dir Flag","Wind Spd (km/h)","Wind Spd Flag","Visibility (km)","Visibility Flag","Stn Press (kPa)","Stn Press Flag","Hmdx","Hmdx Flag","Wind Chill","Wind Chill Flag","Weather"
"-115.14","67.82","KUGLUKTUK A","2300903","2020-02-01 00:00","2020","02","01","00:00","-29.1","","-32.1","","76","","","","23","","7","","19.3","","100.51","","","","-36","","Ice Crystals"
"-115.14","67.82","KUGLUKTUK A","2300903","2020-02-01 01:00","2020","02","01","01:00","-29.0","","-32.0","","76","","","","21","","9","","19.3","","100.51","","","","-37","","Ice Crystals"
"-115.14","67.82","KUGLUKTUK A","2300903","2020-02-01 02:00","2020","02","01","02:00","-28.4","","-31.6","","75","","","","24","","15","","19.3","","100.53","","","","-39","","Ice Crystals"
"-115.14","67.82","KUGLUKTUK A","2300903","2020-02-01 03:00","2020","02","01","03:00","-27.3","","-30.4","","75","","","","24","","10","","19.3","","100.54","","","","-36","","Ice Crystals"
"-115.14","67.82","KUGLUKTUK A","2300903","2020-02-01 04:00","2020","02","01","04:00","-27.6","","-30.9","","74","","","","23","","10","","12.9","","100.56","","","","-36","","Snow"
"-115.14","67.82","KUGLUKTUK A","2300903","2020-02-01 05:00","2020","02","01","05:00","-27.9","","-31.1","","74","","","","23","","11","","16.1","","100.56","","","","-37","","Snow"
"-115.14","67.82","KUGLUKTUK A","2300903","2020-02-01 06:00","2020","02","01","06:00","-28.1","","-31.4","","74","","","","23","","12","","16.1","","100.57","","","","-38","","Snow"
"-115.14","67.82","KUGLUKTUK A","2300903","2020-02-01 07:00","2020","02","01","07:00","-28.4","","-31.8","","73","","","","23","","16","","16.1","","100.61","","","","-40","","Snow"
"-115.14","67.82","KUGLUKTUK A","2300903","2020-02-01 08:00","2020","02","01","08:00","-28.5","","-31.8","","73","","","","22","","15","","12.9","","100.64","","","","-40","","Snow"
"-115.14","67.82","KUGLUKTUK A","2300903","2020-02-01 09:00","2020","02","01","09:00","-28.4","","-31.8","","73","","","","22","","13","","12.9","","100.66","","","","-39","","Snow"
"-115.14","67.82","KUGLUKTUK A","2300903","2020-02-01 10:00","2020","02","01","10:00","-28.7","","-32.2","","73","","","","23","","16","","12.9","","100.69","","","","-40","","Ice Crystals"
"-115.14","67.82","KUGLUKTUK A","2300903","2020-02-01 11:00","2020","02","01","11:00","-28.5","","-31.9","","73","","","","23","","17","","8.1","","100.75","","","","-40","","Ice Crystals"
"-115.14","67.82","KUGLUKTUK A","2300903","2020-02-01 12:00","2020","02","01","12:00","-28.1","","-31.5","","73","","","","23","","16","","6.4","","100.80","","","","-39","","Snow"
"-115.14","67.82","KUGLUKTUK A","2300903","2020-02-01 13:00","2020","02","01","13:00","-28.3","","-31.8","","73","","","","22","","19","","6.4","","100.83","","","","-41","","Snow"
"-115.14","67.82","KUGLUKTUK A","2300903","2020-02-01 14:00","2020","02","01","14:00","-28.5","","-32.1","","72","","","","25","","19","","12.9","","100.86","","","","-41","","Snow"
"-115.14","67.82","KUGLUKTUK A","2300903","2020-02-01 15:00","2020","02","01","15:00","-28.2","","-31.7","","73","","","","25","","13","","4.8","","100.92","","","","-38","","Snow"
"-115.14","67.82","KUGLUKTUK A","2300903","2020-02-01 16:00","2020","02","01","16:00","-28.5","","-32.0","","73","","","","23","","8","","6.4","","100.99","","","","-36","","Snow"
"-115.14","67.82","KUGLUKTUK A","2300903","2020-02-01 17:00","2020","02","01","17:00","-29.0","","-32.6","","72","","","","23","","14","","6.4","","101.06","","","","-40","","Snow"
"-115.14","67.82","KUGLUKTUK A","2300903","2020-02-01 18:00","2020","02","01","18:00","-29.8","","-33.4","","72","","","","23","","17","","6.4","","101.12","","","","-42","","Snow"
"-115.14","67.82","KUGLUKTUK A","2300903","2020-02-01 19:00","2020","02","01","19:00","-29.9","","-33.5","","71","","","","23","","13","","12.9","","101.18","","","","-40","","Snow"
"-115.14","67.82","KUGLUKTUK A","2300903","2020-02-01 20:00","2020","02","01","20:00","-30.1","","-33.7","","71","","","","22","","15","","12.9","","101.21","","","","-42","","Snow"
"-115.14","67.82","KUGLUKTUK A","2300903","2020-02-01 21:00","2020","02","01","21:00","-30.7","","-34.3","","71","","","","23","","17","","19.3","","101.26","","","","-43","","Ice Crystals"
"-115.14","67.82","KUGLUKTUK A","2300903","2020-02-01 22:00","2020","02","01","22:00","-31.9","","-35.5","","71","","","","23","","17","","19.3","","101.31","","","","-44","","Ice Crystals"
"-115.14","67.82","KUGLUKTUK A","2300903","2020-02-01 23:00","2020","02","01","23:00","-32.3","","-36.1","","70","","","","24","","14","","19.3","","101.37","","","","-44","","Ice Crystals"
"-115.14","67.82","KUGLUKTUK A","2300903","2020-02-02 00:00","2020","02","02","00:00","-32.6","","-36.2","","71","","","","22","","14","","19.3","","101.43","","","","-44","","Ice Crystals"
"-115.14","67.82","KUGLUKTUK A","2300903","2020-02-02 01:00","2020","02","02","01:00","-33.0","","-36.7","","70","","","","21","","14","","19.3","","101.46","","","","-45","","Ice Crystals,Blowing Snow"
"-115.14","67.82","KUGLUKTUK A","2300903","2020-02-02 02:00","2020","02","02","02:00","-31.7","","-35.4","","70","","","","20","","12","","19.3","","101.52","","","","-42","","Ice Crystals"
"-115.14","67.82","KUGLUKTUK A","2300903","2020-02-02 03:00","2020","02","02","03:00","-31.8","","-35.5","","70","","","","22","","15","","19.3","","101.54","","","","-44","","Ice Crystals"
"-115.14","67.82","KUGLUKTUK A","2300903","2020-02-02 04:00","2020","02","02","04:00","-30.9","","-34.7","","70","","","","22","","17","","19.3","","101.55","","","","-43","","Ice Crystals"
"-115.14","67.82","KUGLUKTUK A","2300903","2020-02-02 05:00","2020","02","02","05:00","-30.1","","-33.9","","71","","","","22","","17","","19.3","","101.58","","","","-42","","Ice Crystals"
"-115.14","67.82","KUGLUKTUK A","2300903","2020-02-02 06:00","2020","02","02","06:00","-29.6","","-33.5","","70","","","","23","","19","","16.1","","101.60","","","","-42","","Snow"
"-115.14","67.82","KUGLUKTUK A","2300903","2020-02-02 07:00","2020","02","02","07:00","-28.8","","-32.5","","71","","","","23","","21","","19.3","","101.62","","","","-42","","Snow"
"-115.14","67.82","KUGLUKTUK A","2300903","2020-02-02 08:00","2020","02","02","08:00","-27.8","","-31.5","","71","","","","24","","19","","16.1","","101.64","","","","-40","","Snow"
"-115.14","67.82","KUGLUKTUK A","2300903","2020-02-02 09:00","2020","02","02","09:00","-27.3","","-31.0","","71","","","","26","","15","","16.1","","101.67","","","","-38","","Snow"
"-115.14","67.82","KUGLUKTUK A","2300903","2020-02-02 10:00","2020","02","02","10:00","-27.6","","-31.4","","71","","","","25","","16","","16.1","","101.67","","","","-39","","Snow"
"-115.14","67.82","KUGLUKTUK A","2300903","2020-02-02 11:00","2020","02","02","11:00","-28.0","","-31.8","","71","","","","26","","19","","16.1","","101.67","","","","-40","","Snow"
"-115.14","67.82","KUGLUKTUK A","2300903","2020-02-02 12:00","2020","02","02","12:00","-28.4","","-32.1","","72","","","","24","","17","","19.3","","101.69","","","","-40","","Snow"
"-115.14","67.82","KUGLUKTUK A","2300903","2020-02-02 13:00","2020","02","02","13:00","-29.3","","-32.9","","71","","","","26","","16","","16.1","","101.72","","","","-41","","Snow"
"-115.14","67.82","KUGLUKTUK A","2300903","2020-02-02 14:00","2020","02","02","14:00","-30.7","","-34.4","","71","","","","24","","18","","19.3","","101.75","","","","-43","","Ice Crystals"
"-115.14","67.82","KUGLUKTUK A","2300903","2020-02-02 15:00","2020","02","02","15:00","-32.0","","-35.6","","71","","","","23","","18","","19.3","","101.76","","","","-45","","Ice Crystals"
"-115.14","67.82","KUGLUKTUK A","2300903","2020-02-02 16:00","2020","02","02","16:00","-33.5","","-36.9","","72","","","","22","","17","","19.3","","101.75","","","","-46","","Ice Crystals"
"-115.14","67.82","KUGLUKTUK A","2300903","2020-02-02 17:00","2020","02","02","17:00","-32.7","","-36.0","","73","","","","23","","18","","12.9","","101.75","","","","-46","","Ice Crystals"
"-115.14","67.82","KUGLUKTUK A","2300903","2020-02-02 18:00","2020","02","02","18:00","-30.7","","-34.3","","72","","","","17","","9","","12.9","","101.71","","","","-39","","Snow"
"-115.14","67.82","KUGLUKTUK A","2300903","2020-02-02 19:00","2020","02","02","19:00","-29.4","","-33.1","","71","","","","21","","7","","16.1","","101.72","","","","-37","","Snow"
"-115.14","67.82","KUGLUKTUK A","2300903","2020-02-02 20:00","2020","02","02","20:00","-28.9","","-33.0","","69","","","","23","","7","","16.1","","101.71","","","","-36","","Snow"
"-115.14","67.82","KUGLUKTUK A","2300903","2020-02-02 21:00","2020","02","02","21:00","-28.6","","-32.9","","67","","","","23","","18","","16.1","","101.67","","","","-41","","Snow,Blowing Snow"
"-115.14","67.82","KUGLUKTUK A","2300903","2020-02-02 22:00","2020","02","02","22:00","-28.5","","-32.8","","67","","","","23","","18","","16.1","","101.63","","","","-41","","Snow"
"-115.14","67.82","KUGLUKTUK A","2300903","2020-02-02 23:00","2020","02","02","23:00","-28.2","","-32.1","","70","","","","26","","9","","9.7","","101.61","","","","-36","","Snow"
"-115.14","67.82","KUGLUKTUK A","2300903","2020-02-03 00:00","2020","02","03","00:00","-28.3","","-31.9","","72","","","","24","","18","","6.4","","101.58","","","","-40","","Snow"
"-115.14","67.82","KUGLUKTUK A","2300903","2020-02-03 01:00","2020","02","03","01:00","-28.3","","-31.8","","72","","","","25","","19","","9.7","","101.57","","","","-41","","Snow"
"-115.14","67.82","KUGLUKTUK A","2300903","2020-02-03 02:00","2020","02","03","02:00","-29.7","","-33.5","","70","","","","24","","22","","12.9","","101.59","","","","-43","","Snow,Blowing Snow"
"-115.14","67.82","KUGLUKTUK A","2300903","2020-02-03 03:00","2020","02","03","03:00","-31.6","","-35.6","","68","","","","23","","22","","19.3","","101.60","","","","-46","","Ice Crystals,Blowing Snow"
"-115.14","67.82","KUGLUKTUK A","2300903","2020-02-03 04:00","2020","02","03","04:00","-33.1","","-37.5","","65","","","","24","","23","","19.3","","101.61","","","","-48","","Ice Crystals,Blowing Snow"
"-115.14","67.82","KUGLUKTUK A","2300903","2020-02-03 05:00","2020","02","03","05:00","-34.7","","-38.9","","67","","","","22","","17","","19.3","","101.60","","","","-48","","Ice Crystals"
"-115.14","67.82","KUGLUKTUK A","2300903","2020-02-03 06:00","2020","02","03","06:00","-35.0","","-39.1","","67","","","","23","","7","","19.3","","101.60","","","","-43","","Ice Crystals"
"-115.14","67.82","KUGLUKTUK A","2300903","2020-02-03 07:00","2020","02","03","07:00","-35.1","","-39.2","","67","","","","22","","13","","19.3","","101.59","","","","-47","","Ice Crystals"
"-115.14","67.82","KUGLUKTUK A","2300903","2020-02-03 08:00","2020","02","03","08:00","-35.8","","-40.0","","66","","","","23","","23","","19.3","","101.54","","","","-51","","Ice Crystals"
"-115.14","67.82","KUGLUKTUK A","2300903","2020-02-03 09:00","2020","02","03","09:00","-35.3","","-39.5","","66","","","","23","","24","","19.3","","101.52","","","","-51","","Ice Crystals,Blowing Snow"
"-115.14","67.82","KUGLUKTUK A","2300903","2020-02-03 10:00","2020","02","03","10:00","-35.5","","-39.8","","66","","","","23","","21","","16.1","","101.53","","","","-50","","Ice Crystals"
"-115.14","67.82","KUGLUKTUK A","2300903","2020-02-03 11:00","2020","02","03","11:00","-35.2","","-39.7","","64","","","","24","","25","","12.9","","101.51","","","","-51","","Ice Crystals,Blowing Snow"
"-115.14","67.82","KUGLUKTUK A","2300903","2020-02-03 12:00","2020","02","03","12:00","-35.8","","-40.3","","65","","","","24","","23","","12.9","","101.54","","","","-51","","Ice Crystals,Blowing Snow"
"-115.14","67.82","KUGLUKTUK A","2300903","2020-02-03 13:00","2020","02","03","13:00","-36.8","","-41.2","","65","","","","23","","24","","16.1","","101.54","","","","-53","","Ice Crystals,Blowing Snow"
"-115.14","67.82","KUGLUKTUK A","2300903","2020-02-03 14:00","2020","02","03","14:00","-36.8","","-41.1","","65","","","","23","","22","","16.1","","101.56","","","","-52","","Ice Crystals"
"-115.14","67.82","KUGLUKTUK A","2300903","2020-02-03 15:00","2020","02","03","15:00","-37.2","","-41.5","","66","","","","23","","22","","19.3","","101.58","","","","-53","","Ice Crystals,Blowing Snow"
"-115.14","67.82","KUGLUKTUK A","2300903","2020-02-03 16:00","2020","02","03","16:00","-37.7","","-41.7","","67","","","","23","","20","","19.3","","101.60","","","","-53","","Ice Crystals"
"-115.14","67.82","KUGLUKTUK A","2300903","2020-02-03 17:00","2020","02","03","17:00","-38.3","","-42.1","","68","","","","23","","22","","19.3","","101.62","","","","-54","","Ice Crystals"
"-115.14","67.82","KUGLUKTUK A","2300903","2020-02-03 18:00","2020","02","03","18:00","-39.0","","-42.8","","68","","","","23","","22","","19.3","","101.61","","","","-55","","Ice Crystals"
"-115.14","67.82","KUGLUKTUK A","2300903","2020-02-03 19:00","2020","02","03","19:00","-38.8","","-42.6","","68","","","","22","","22","","16.1","","101.59","","","","-55","","Ice Crystals"
"-115.14","67.82","KUGLUKTUK A","2300903","2020-02-03 20:00","2020","02","03","20:00","-39.2","","-43.1","","67","","","","22","","24","","19.3","","101.60","","","","-56","","Ice Crystals,Blowing Snow"
"-115.14","67.82","KUGLUKTUK A","2300903","2020-02-03 21:00","2020","02","03","21:00","-39.4","","-43.4","","67","","","","22","","26","","19.3","","101.57","","","","-57","","Ice Crystals,Blowing Snow"
"-115.14","67.82","KUGLUKTUK A","2300903","2020-02-03 22:00","2020","02","03","22:00","-40.0","","-44.0","","67","","","","22","","23","","19.3","","101.57","","","","-57","","Ice Crystals,Blowing Snow"
"-115.14","67.82","KUGLUKTUK A","2300903","2020-02-03 23:00","2020","02","03","23:00","-40.4","","-44.4","","67","","","","22","","25","","19.3","","101.57","","","","-58","","Ice Crystals,Blowing Snow"
"-115.14","67.82","KUGLUKTUK A","2300903","2020-02-04 00:00","2020","02","04","00:00","-39.2","","-43.1","","67","","","","23","","28","","19.3","","101.54","","","","-57","","Ice Crystals,Blowing Snow"
"-115.14","67.82","KUGLUKTUK A","2300903","2020-02-04 01:00","2020","02","04","01:00","-39.6","","-43.6","","67","","","","22","","27","","19.3","","101.54","","","","-57","","Ice Crystals,Blowing Snow"
"-115.14","67.82","KUGLUKTUK A","2300903","2020-02-04 02:00","2020","02","04","02:00","-40.0","","-44.0","","67","","","","22","","25","","19.3","","101.54","","","","-57","","Ice Crystals,Blowing Snow"
"-115.14","67.82","KUGLUKTUK A","2300903","2020-02-04 03:00","2020","02","04","03:00","-40.4","","-44.4","","66","","","","22","","28","","19.3","","101.53","","","","-59","","Ice Crystals,Blowing Snow"
"-115.14","67.82","KUGLUKTUK A","2300903","2020-02-04 04:00","2020","02","04","04:00","-39.5","","-43.4","","67","","","","15","","4","","19.3","","101.55","","","","-45","","Ice Crystals"
"-115.14","67.82","KUGLUKTUK A","2300903","2020-02-04 05:00","2020","02","04","05:00","-39.3","","-43.2","","67","","","","21","","5","","19.3","","101.55","","","","-46","","Ice Crystals"
"-115.14","67.82","KUGLUKTUK A","2300903","2020-02-04 06:00","2020","02","04","06:00","-40.3","","-44.3","","67","","","","22","","22","","19.3","","101.52","","","","-57","","Ice Crystals"
"-115.14","67.82","KUGLUKTUK A","2300903","2020-02-04 07:00","2020","02","04","07:00","-40.4","","-44.4","","67","","","","22","","22","","19.3","","101.51","","","","-57","","Ice Crystals"
"-115.14","67.82","KUGLUKTUK A","2300903","2020-02-04 08:00","2020","02","04","08:00","-40.0","","-44.0","","67","","","","21","","17","","24.1","","101.47","","","","-55","","Clear"
"-115.14","67.82","KUGLUKTUK A","2300903","2020-02-04 09:00","2020","02","04","09:00","-39.4","","-43.4","","67","","","","21","","21","","24.1","","101.45","","","","-55","","NA"
"-115.14","67.82","KUGLUKTUK A","2300903","2020-02-04 10:00","2020","02","04","10:00","-39.9","","-44.0","","67","","","","23","","14","","24.1","","101.45","","","","-53","","NA"
"-115.14","67.82","KUGLUKTUK A","2300903","2020-02-04 11:00","2020","02","04","11:00","-39.2","","-43.2","","67","","","","26","","7","","24.1","","101.42","","","","-48","","Clear"
"-115.14","67.82","KUGLUKTUK A","2300903","2020-02-04 12:00","2020","02","04","12:00","-38.1","","-42.1","","67","","","","24","","11","","24.1","","101.41","","","","-49","","NA"
"-115.14","67.82","KUGLUKTUK A","2300903","2020-02-04 13:00","2020","02","04","13:00","-39.2","","-43.3","","66","","","","22","","12","","24.1","","101.40","","","","-51","","NA"
"-115.14","67.82","KUGLUKTUK A","2300903","2020-02-04 14:00","2020","02","04","14:00","-38.2","","-42.5","","66","","","","22","","7","","24.1","","101.37","","","","-47","","Mainly Clear"
"-115.14","67.82","KUGLUKTUK A","2300903","2020-02-04 15:00","2020","02","04","15:00"
"-115.14","67.82","KUGLUKTUK A","2300903","2020-02-04 16:00","2020","02","04","16:00"
"-115.14","67.82","KUGLUKTUK A","2300903","2020-02-04 17:00","2020","02","04","17:00","","M","","M","","M","","","","","","M","16.1","","","M","","","","","Mainly Clear"
"-115.14","67.82","KUGLUKTUK A","2300903","2020-02-04 18:00","2020","02","04","18:00","-40.5","","-44.6","","66","","","","4","","3","","0.6","","101.34","","","","-45","","Freezing Fog"
"-115.14","67.82","KUGLUKTUK A","2300903","2020-02-04 19:00","2020","02","04","19:00","-40.3","","-44.3","","66","","","","3","","4","","12.9","","101.30","","","","-46","","NA"
"-115.14","67.82","KUGLUKTUK A","2300903","2020-02-04 20:00","2020","02","04","20:00","-41.2","","-45.1","","67","","","","35","","5","","16.1","","101.26","","","","-48","","Clear"
"-115.14","67.82","KUGLUKTUK A","2300903","2020-02-04 21:00","2020","02","04","21:00","-40.8","","-44.8","","67","","","","33","","5","","24.1","","101.21","","","","-48","","NA"
"-115.14","67.82","KUGLUKTUK A","2300903","2020-02-04 22:00","2020","02","04","22:00","-39.4","","-43.3","","67","","","","32","","4","","24.1","","101.18","","","","-45","","Ice Crystals"
"-115.14","67.82","KUGLUKTUK A","2300903","2020-02-04 23:00","2020","02","04","23:00","-39.5","","-43.4","","67","","","","32","","5","","24.1","","101.17","","","","-46","","Ice Crystals"
"-115.14","67.82","KUGLUKTUK A","2300903","2020-02-05 00:00","2020","02","05","00:00","-39.1","","-43.1","","67","","","","36","","5","","24.1","","101.14","","","","-46","","Ice Crystals"
"-115.14","67.82","KUGLUKTUK A","2300903","2020-02-05 01:00","2020","02","05","01:00","-39.7","","-43.6","","67","","","","33","","7","","24.1","","101.14","","","","-49","","Ice Crystals"
"-115.14","67.82","KUGLUKTUK A","2300903","2020-02-05 02:00","2020","02","05","02:00","-39.2","","-43.1","","67","","","","2","","4","","24.1","","101.11","","","","-45","","Ice Crystals"
"-115.14","67.82","KUGLUKTUK A","2300903","2020-02-05 03:00","2020","02","05","03:00","-38.7","","-42.7","","67","","","","35","","3","","24.1","","101.08","","","","-43","","Ice Crystals"
"-115.14","67.82","KUGLUKTUK A","2300903","2020-02-05 04:00","2020","02","05","04:00","-38.9","","-42.9","","67","","","","33","","5","","24.1","","101.01","","","","-46","","Ice Crystals"
"-115.14","67.82","KUGLUKTUK A","2300903","2020-02-05 05:00","2020","02","05","05:00","-38.7","","-42.7","","67","","","","35","","3","","24.1","","100.93","","","","-43","","Ice Crystals"
"-115.14","67.82","KUGLUKTUK A","2300903","2020-02-05 06:00","2020","02","05","06:00","-38.2","","-42.1","","68","","","","8","","3","","24.1","","100.85","","","","-42","","Ice Crystals"
"-115.14","67.82","KUGLUKTUK A","2300903","2020-02-05 07:00","2020","02","05","07:00","-36.9","","-40.8","","68","","","","32","","4","","24.1","","100.81","","","","-42","","Ice Crystals"
"-115.14","67.82","KUGLUKTUK A","2300903","2020-02-05 08:00","2020","02","05","08:00","-35.8","","-39.6","","69","","","","33","","6","","24.1","","100.72","","","","-43","","Mostly Cloudy"
"-115.14","67.82","KUGLUKTUK A","2300903","2020-02-05 09:00","2020","02","05","09:00","-32.8","","-36.5","","70","","","","36","","3","","24.1","","100.68","","","","-36","","NA"
"-115.14","67.82","KUGLUKTUK A","2300903","2020-02-05 10:00","2020","02","05","10:00","-31.4","","-35.3","","70","","","","36","","2","","24.1","","100.64","","","","-34","","NA"
"-115.14","67.82","KUGLUKTUK A","2300903","2020-02-05 11:00","2020","02","05","11:00","-26.8","","-31.0","","69","","","","23","","7","","24.1","","100.57","","","","-34","","Cloudy"
"-115.14","67.82","KUGLUKTUK A","2300903","2020-02-05 12:00","2020","02","05","12:00","-23.6","","-28.6","","64","","","","21","","11","","24.1","","100.53","","","","-32","","NA"
"-115.14","67.82","KUGLUKTUK A","2300903","2020-02-05 13:00","2020","02","05","13:00","-23.7","","-28.3","","66","","","","24","","14","","24.1","","100.47","","","","-33","","NA"
"-115.14","67.82","KUGLUKTUK A","2300903","2020-02-05 14:00","2020","02","05","14:00","-22.7","","-27.2","","67","","","","23","","22","","24.1","","100.44","","","","-34","","Cloudy"
"-115.14","67.82","KUGLUKTUK A","2300903","2020-02-05 15:00","2020","02","05","15:00","-22.7","","-27.4","","66","","","","24","","19","","24.1","","100.41","","","","-34","","NA"
"-115.14","67.82","KUGLUKTUK A","2300903","2020-02-05 16:00","2020","02","05","16:00","-22.3","","-27.0","","66","","","","21","","14","","16.1","","100.40","","","","-32","","Snow"
"-115.14","67.82","KUGLUKTUK A","2300903","2020-02-05 17:00","2020","02","05","17:00","-21.0","","-25.2","","70","","","","21","","10","","12.9","","100.32","","","","-28","","Snow"
"-115.14","67.82","KUGLUKTUK A","2300903","2020-02-05 18:00","2020","02","05","18:00","-20.4","","-24.7","","69","","","","19","","15","","12.9","","100.23","","","","-30","","Snow"
"-115.14","67.82","KUGLUKTUK A","2300903","2020-02-05 19:00","2020","02","05","19:00","-20.5","","-24.4","","71","","","","23","","28","","12.9","","100.17","","","","-33","","Snow"
"-115.14","67.82","KUGLUKTUK A","2300903","2020-02-05 20:00","2020","02","05","20:00","-20.2","","-23.9","","73","","","","20","","23","","12.9","","100.13","","","","-31","","Ice Crystals,Blowing Snow"
"-115.14","67.82","KUGLUKTUK A","2300903","2020-02-05 21:00","2020","02","05","21:00","-19.7","","-23.1","","75","","","","21","","34","","9.7","","100.06","","","","-33","","Ice Crystals,Blowing Snow"
"-115.14","67.82","KUGLUKTUK A","2300903","2020-02-05 22:00","2020","02","05","22:00","-19.9","","-23.2","","76","","","","22","","26","","9.7","","100.05","","","","-32","","Snow,Blowing Snow"
"-115.14","67.82","KUGLUKTUK A","2300903","2020-02-05 23:00","2020","02","05","23:00","-20.4","","-23.8","","75","","","","22","","28","","9.7","","100.06","","","","-33","","Snow"
"-115.14","67.82","KUGLUKTUK A","2300903","2020-02-06 00:00","2020","02","06","00:00","-20.3","","-23.5","","76","","","","22","","27","","9.7","","100.09","","","","-32","","Snow,Blowing Snow"
"-115.14","67.82","KUGLUKTUK A","2300903","2020-02-06 01:00","2020","02","06","01:00","-21.1","","-24.1","","77","","","","25","","17","","9.7","","100.13","","","","-31","","Ice Crystals,Blowing Snow"
"-115.14","67.82","KUGLUKTUK A","2300903","2020-02-06 02:00","2020","02","06","02:00","-21.5","","-24.6","","76","","","","25","","16","","9.7","","100.12","","","","-31","","Ice Crystals,Blowing Snow"
"-115.14","67.82","KUGLUKTUK A","2300903","2020-02-06 03:00","2020","02","06","03:00","-21.9","","-24.9","","77","","","","25","","15","","12.9","","100.16","","","","-31","","Snow,Blowing Snow"
"-115.14","67.82","KUGLUKTUK A","2300903","2020-02-06 04:00","2020","02","06","04:00","-21.4","","-24.8","","74","","","","26","","31","","9.7","","100.16","","","","-35","","Snow,Blowing Snow"
"-115.14","67.82","KUGLUKTUK A","2300903","2020-02-06 05:00","2020","02","06","05:00","-22.8","","-26.3","","74","","","","25","","28","","9.7","","100.18","","","","-36","","Snow,Blowing Snow"
"-115.14","67.82","KUGLUKTUK A","2300903","2020-02-06 06:00","2020","02","06","06:00","-24.2","","-27.7","","74","","","","26","","32","","12.9","","100.17","","","","-38","","Ice Crystals,Blowing Snow"
"-115.14","67.82","KUGLUKTUK A","2300903","2020-02-06 07:00","2020","02","06","07:00","-25.1","","-28.9","","71","","","","26","","33","","12.9","","100.20","","","","-40","","Ice Crystals,Blowing Snow"
"-115.14","67.82","KUGLUKTUK A","2300903","2020-02-06 08:00","2020","02","06","08:00","-25.8","","-29.6","","71","","","","26","","31","","24.1","","100.23","","","","-40","","Blowing Snow"
"-115.14","67.82","KUGLUKTUK A","2300903","2020-02-06 09:00","2020","02","06","09:00","-27.5","","-31.3","","71","","","","24","","22","","24.1","","100.25","","","","-40","","Blowing Snow"
"-115.14","67.82","KUGLUKTUK A","2300903","2020-02-06 10:00","2020","02","06","10:00","-27.9","","-31.4","","73","","","","24","","19","","24.1","","100.30","","","","-40","","Blowing Snow"
"-115.14","67.82","KUGLUKTUK A","2300903","2020-02-06 11:00","2020","02","06","11:00","-24.9","","-28.5","","72","","","","24","","21","","24.1","","100.34","","","","-37","","Snow,Blowing Snow"
"-115.14","67.82","KUGLUKTUK A","2300903","2020-02-06 12:00","2020","02","06","12:00","-24.0","","-27.6","","73","","","","25","","21","","24.1","","100.37","","","","-36","","Snow"
"-115.14","67.82","KUGLUKTUK A","2300903","2020-02-06 13:00","2020","02","06","13:00","-23.4","","-27.0","","72","","","","25","","22","","24.1","","100.39","","","","-35","","Snow"
"-115.14","67.82","KUGLUKTUK A","2300903","2020-02-06 14:00","2020","02","06","14:00","-23.0","","-26.8","","72","","","","27","","20","","24.1","","100.43","","","","-34","","Snow"
"-115.14","67.82","KUGLUKTUK A","2300903","2020-02-06 15:00","2020","02","06","15:00","-23.0","","-26.7","","72","","","","27","","18","","19.3","","100.48","","","","-34","","Snow"
"-115.14","67.82","KUGLUKTUK A","2300903","2020-02-06 16:00","2020","02","06","16:00","-23.0","","-26.5","","74","","","","29","","12","","16.1","","100.55","","","","-32","","Snow"
"-115.14","67.82","KUGLUKTUK A","2300903","2020-02-06 17:00","2020","02","06","17:00","-23.1","","-26.7","","73","","","","34","","11","","12.9","","100.56","","","","-31","","Snow"
"-115.14","67.82","KUGLUKTUK A","2300903","2020-02-06 18:00","2020","02","06","18:00","-24.6","","-27.7","","76","","","","32","","12","","16.1","","100.61","","","","-34","","Ice Crystals"
"-115.14","67.82","KUGLUKTUK A","2300903","2020-02-06 19:00","2020","02","06","19:00","-23.9","","-27.6","","72","","","","32","","17","","12.9","","100.63","","","","-35","","Ice Crystals"
"-115.14","67.82","KUGLUKTUK A","2300903","2020-02-06 20:00","2020","02","06","20:00","-24.1","","-27.8","","73","","","","30","","13","","9.7","","100.66","","","","-33","","Ice Crystals"
"-115.14","67.82","KUGLUKTUK A","2300903","2020-02-06 21:00","2020","02","06","21:00","-23.6","","-27.4","","72","","","","32","","13","","12.9","","100.67","","","","-33","","Ice Crystals"
"-115.14","67.82","KUGLUKTUK A","2300903","2020-02-06 22:00","2020","02","06","22:00","-23.6","","-27.1","","74","","","","31","","8","","9.7","","100.72","","","","-30","","Snow"
"-115.14","67.82","KUGLUKTUK A","2300903","2020-02-06 23:00","2020","02","06","23:00","-23.7","","-26.9","","75","","","","31","","12","","9.7","","100.75","","","","-33","","Ice Crystals"
"-115.14","67.82","KUGLUKTUK A","2300903","2020-02-07 00:00","2020","02","07","00:00","-25.2","","-28.3","","76","","","","29","","8","","16.1","","100.82","","","","-32","","Ice Crystals"
"-115.14","67.82","KUGLUKTUK A","2300903","2020-02-07 01:00","2020","02","07","01:00","-26.8","","-30.7","","70","","","","31","","10","","16.1","","100.88","","","","-35","","Ice Crystals"
"-115.14","67.82","KUGLUKTUK A","2300903","2020-02-07 02:00","2020","02","07","02:00","-26.6","","-30.3","","72","","","","36","","13","","16.1","","100.94","","","","-36","","Ice Crystals"
"-115.14","67.82","KUGLUKTUK A","2300903","2020-02-07 03:00","2020","02","07","03:00","-26.9","","-30.4","","73","","","","2","","6","","16.1","","101.00","","","","-33","","Ice Crystals"
"-115.14","67.82","KUGLUKTUK A","2300903","2020-02-07 04:00","2020","02","07","04:00","-28.9","","-32.0","","75","","","","16","","7","","16.1","","101.03","","","","-36","","Ice Crystals"
"-115.14","67.82","KUGLUKTUK A","2300903","2020-02-07 05:00","2020","02","07","05:00","-31.2","","-34.3","","75","","","","19","","14","","19.3","","101.03","","","","-42","","Ice Crystals"
"-115.14","67.82","KUGLUKTUK A","2300903","2020-02-07 06:00","2020","02","07","06:00","-30.2","","-33.5","","74","","","","20","","11","","19.3","","101.03","","","","-40","","Ice Crystals"
"-115.14","67.82","KUGLUKTUK A","2300903","2020-02-07 07:00","2020","02","07","07:00","-28.8","","-32.3","","73","","","","22","","10","","19.3","","101.05","","","","-38","","Ice Crystals"
"-115.14","67.82","KUGLUKTUK A","2300903","2020-02-07 08:00","2020","02","07","08:00","-29.2","","-32.4","","75","","","","17","","6","","24.1","","101.02","","","","-36","","Mainly Clear"
"-115.14","67.82","KUGLUKTUK A","2300903","2020-02-07 09:00","2020","02","07","09:00","-27.3","","-30.7","","73","","","","24","","10","","24.1","","101.05","","","","-36","","NA"
"-115.14","67.82","KUGLUKTUK A","2300903","2020-02-07 10:00","2020","02","07","10:00","-26.8","","-30.3","","73","","","","27","","13","","12.9","","101.01","","","","-37","","Snow"
"-115.14","67.82","KUGLUKTUK A","2300903","2020-02-07 11:00","2020","02","07","11:00","-26.4","","-29.8","","73","","","","24","","10","","12.9","","100.98","","","","-35","","Snow"
"-115.14","67.82","KUGLUKTUK A","2300903","2020-02-07 12:00","2020","02","07","12:00","-25.6","","-29.1","","73","","","","23","","10","","16.1","","100.99","","","","-34","","Snow"
"-115.14","67.82","KUGLUKTUK A","2300903","2020-02-07 13:00","2020","02","07","13:00","-25.4","","-28.8","","73","","","","24","","11","","8.1","","100.98","","","","-34","","Snow"
"-115.14","67.82","KUGLUKTUK A","2300903","2020-02-07 14:00","2020","02","07","14:00","-25.2","","-28.6","","73","","","","25","","13","","6.4","","100.97","","","","-35","","Snow"
"-115.14","67.82","KUGLUKTUK A","2300903","2020-02-07 15:00","2020","02","07","15:00","-25.1","","-28.4","","74","","","","26","","12","","6.4","","100.95","","","","-34","","Snow"
"-115.14","67.82","KUGLUKTUK A","2300903","2020-02-07 16:00","2020","02","07","16:00","-25.1","","-28.5","","74","","","","24","","14","","12.9","","100.97","","","","-35","","Snow"
"-115.14","67.82","KUGLUKTUK A","2300903","2020-02-07 17:00","2020","02","07","17:00","-25.4","","-28.6","","75","","","","24","","13","","19.3","","101.00","","","","-35","","Snow"
"-115.14","67.82","KUGLUKTUK A","2300903","2020-02-07 18:00","2020","02","07","18:00","-26.5","","-29.8","","75","","","","25","","18","","24.1","","101.00","","","","-38","","NA"
"-115.14","67.82","KUGLUKTUK A","2300903","2020-02-07 19:00","2020","02","07","19:00","-28.3","","-31.3","","76","","","","27","","21","","24.1","","101.03","","","","-41","","Ice Crystals"
"-115.14","67.82","KUGLUKTUK A","2300903","2020-02-07 20:00","2020","02","07","20:00","-27.8","","-31.3","","72","","","","29","","22","","19.3","","101.04","","","","-41","","Ice Crystals"
"-115.14","67.82","KUGLUKTUK A","2300903","2020-02-07 21:00","2020","02","07","21:00","-28.9","","-32.2","","74","","","","28","","21","","19.3","","101.07","","","","-42","","Ice Crystals"
"-115.14","67.82","KUGLUKTUK A","2300903","2020-02-07 22:00","2020","02","07","22:00","-28.2","","-31.8","","72","","","","27","","16","","19.3","","101.10","","","","-40","","Ice Crystals"
"-115.14","67.82","KUGLUKTUK A","2300903","2020-02-07 23:00","2020","02","07","23:00","-28.4","","-32.1","","72","","","","27","","26","","16.1","","101.11","","","","-43","","Ice Crystals"
"-115.14","67.82","KUGLUKTUK A","2300903","2020-02-08 00:00","2020","02","08","00:00","-28.7","","-32.6","","70","","","","27","","23","","19.3","","101.12","","","","-42","","Ice Crystals"
"-115.14","67.82","KUGLUKTUK A","2300903","2020-02-08 01:00","2020","02","08","01:00","-29.2","","-32.9","","71","","","","26","","26","","16.1","","101.15","","","","-44","","Ice Crystals,Blowing Snow"
"-115.14","67.82","KUGLUKTUK A","2300903","2020-02-08 02:00","2020","02","08","02:00","-31.3","","-35.0","","71","","","","25","","24","","16.1","","101.22","","","","-46","","Ice Crystals,Blowing Snow"
"-115.14","67.82","KUGLUKTUK A","2300903","2020-02-08 03:00","2020","02","08","03:00","-30.0","","-34.0","","69","","","","25","","32","","12.9","","101.22","","","","-46","","Ice Crystals,Blowing Snow"
"-115.14","67.82","KUGLUKTUK A","2300903","2020-02-08 04:00","2020","02","08","04:00","-30.2","","-34.1","","70","","","","24","","27","","12.9","","101.27","","","","-45","","Ice Crystals,Blowing Snow"
"-115.14","67.82","KUGLUKTUK A","2300903","2020-02-08 05:00","2020","02","08","05:00","-30.1","","-33.8","","70","","","","25","","26","","16.1","","101.28","","","","-45","","Ice Crystals,Blowing Snow"
"-115.14","67.82","KUGLUKTUK A","2300903","2020-02-08 06:00","2020","02","08","06:00","-30.0","","-33.9","","69","","","","24","","28","","16.1","","101.31","","","","-45","","Ice Crystals,Blowing Snow"
"-115.14","67.82","KUGLUKTUK A","2300903","2020-02-08 07:00","2020","02","08","07:00","-30.7","","-34.8","","68","","","","25","","31","","16.1","","101.34","","","","-47","","Ice Crystals,Blowing Snow"
"-115.14","67.82","KUGLUKTUK A","2300903","2020-02-08 08:00","2020","02","08","08:00","-31.4","","-35.6","","67","","","","25","","30","","19.3","","101.34","","","","-47","","Ice Crystals,Blowing Snow"
"-115.14","67.82","KUGLUKTUK A","2300903","2020-02-08 09:00","2020","02","08","09:00","-30.6","","-34.6","","69","","","","24","","31","","19.3","","101.31","","","","-47","","Ice Crystals,Blowing Snow"
"-115.14","67.82","KUGLUKTUK A","2300903","2020-02-08 10:00","2020","02","08","10:00","-32.0","","-36.0","","69","","","","24","","28","","24.1","","101.28","","","","-48","","Ice Crystals,Blowing Snow"
"-115.14","67.82","KUGLUKTUK A","2300903","2020-02-08 11:00","2020","02","08","11:00","-30.2","","-34.4","","67","","","","24","","26","","24.1","","101.29","","","","-45","","Ice Crystals,Blowing Snow"
"-115.14","67.82","KUGLUKTUK A","2300903","2020-02-08 12:00","2020","02","08","12:00","-30.9","","-35.1","","67","","","","23","","27","","24.1","","101.26","","","","-46","","Ice Crystals,Blowing Snow"
"-115.14","67.82","KUGLUKTUK A","2300903","2020-02-08 13:00","2020","02","08","13:00","-30.1","","-34.4","","67","","","","24","","26","","24.1","","101.25","","","","-45","","Ice Crystals,Blowing Snow"
"-115.14","67.82","KUGLUKTUK A","2300903","2020-02-08 14:00","2020","02","08","14:00","-29.4","","-33.9","","66","","","","23","","18","","24.1","","101.24","","","","-42","","Ice Crystals,Blowing Snow"
"-115.14","67.82","KUGLUKTUK A","2300903","2020-02-08 15:00","2020","02","08","15:00","-30.8","","-35.0","","68","","","","22","","24","","24.1","","101.20","","","","-45","","Ice Crystals,Blowing Snow"
"-115.14","67.82","KUGLUKTUK A","2300903","2020-02-08 16:00","2020","02","08","16:00","-31.9","","-36.0","","68","","","","21","","15","","24.1","","101.15","","","","-44","","Ice Crystals"
"-115.14","67.82","KUGLUKTUK A","2300903","2020-02-08 17:00","2020","02","08","17:00","-32.3","","-36.2","","69","","","","20","","13","","24.1","","101.08","","","","-43","","Ice Crystals"
"-115.14","67.82","KUGLUKTUK A","2300903","2020-02-08 18:00","2020","02","08","18:00","-31.8","","-35.6","","70","","","","23","","28","","19.3","","100.94","","","","-48","","Ice Crystals,Blowing Snow"
"-115.14","67.82","KUGLUKTUK A","2300903","2020-02-08 19:00","2020","02","08","19:00","-32.9","","-36.6","","70","","","","23","","26","","24.1","","100.89","","","","-48","","Ice Crystals,Blowing Snow"
"-115.14","67.82","KUGLUKTUK A","2300903","2020-02-08 20:00","2020","02","08","20:00","-32.4","","-36.2","","70","","","","23","","22","","24.1","","100.88","","","","-47","","Ice Crystals"
"-115.14","67.82","KUGLUKTUK A","2300903","2020-02-08 21:00","2020","02","08","21:00","-32.3","","-36.1","","70","","","","24","","6","","24.1","","100.85","","","","-39","","NA"
"-115.14","67.82","KUGLUKTUK A","2300903","2020-02-08 22:00","2020","02","08","22:00","-32.9","","-36.5","","71","","","","24","","21","","24.1","","100.79","","","","-47","","Ice Crystals"
"-115.14","67.82","KUGLUKTUK A","2300903","2020-02-08 23:00","2020","02","08","23:00","-34.6","","-38.2","","71","","","","24","","20","","24.1","","100.74","","","","-49","","Ice Crystals"
"-115.14","67.82","KUGLUKTUK A","2300903","2020-02-09 00:00","2020","02","09","00:00","-32.7","","-36.3","","71","","","","27","","16","","24.1","","100.71","","","","-45","","Ice Crystals"
"-115.14","67.82","KUGLUKTUK A","2300903","2020-02-09 01:00","2020","02","09","01:00","-34.3","","-37.6","","73","","","","32","","6","","24.1","","100.71","","","","-41","","Ice Crystals"
"-115.14","67.82","KUGLUKTUK A","2300903","2020-02-09 02:00","2020","02","09","02:00","-34.6","","-37.9","","73","","","","2","","3","","24.1","","100.70","","","","-38","","Ice Crystals"
"-115.14","67.82","KUGLUKTUK A","2300903","2020-02-09 03:00","2020","02","09","03:00","-35.2","","-38.6","","72","","","","22","","13","","24.1","","100.68","","","","-47","","Ice Crystals"
"-115.14","67.82","KUGLUKTUK A","2300903","2020-02-09 04:00","2020","02","09","04:00","-33.8","","-37.2","","73","","","","23","","12","","24.1","","100.68","","","","-45","","Ice Crystals"
"-115.14","67.82","KUGLUKTUK A","2300903","2020-02-09 05:00","2020","02","09","05:00","-34.3","","-37.8","","72","","","","28","","4","","24.1","","100.64","","","","-39","","Ice Crystals"
"-115.14","67.82","KUGLUKTUK A","2300903","2020-02-09 06:00","2020","02","09","06:00","-34.8","","-38.2","","71","","","","23","","11","","24.1","","100.64","","","","-45","","Ice Crystals"
"-115.14","67.82","KUGLUKTUK A","2300903","2020-02-09 07:00","2020","02","09","07:00","-34.6","","-37.9","","73","","","","36","","1","","24.1","","100.63","","","","-36","","Ice Crystals"
"-115.14","67.82","KUGLUKTUK A","2300903","2020-02-09 08:00","2020","02","09","08:00","-34.9","","-38.4","","71","","","","23","","16","","24.1","","100.61","","","","-48","","Ice Crystals"
"-115.14","67.82","KUGLUKTUK A","2300903","2020-02-09 09:00","2020","02","09","09:00","-34.8","","-38.4","","70","","","","25","","18","","19.3","","100.65","","","","-48","","Ice Crystals"
"-115.14","67.82","KUGLUKTUK A","2300903","2020-02-09 10:00","2020","02","09","10:00","-35.0","","-38.7","","70","","","","22","","21","","16.1","","100.67","","","","-50","","Ice Crystals"
"-115.14","67.82","KUGLUKTUK A","2300903","2020-02-09 11:00","2020","02","09","11:00","-33.2","","-36.8","","71","","","","22","","22","","19.3","","100.68","","","","-48","","Ice Crystals"
"-115.14","67.82","KUGLUKTUK A","2300903","2020-02-09 12:00","2020","02","09","12:00","-32.9","","-36.5","","71","","","","22","","20","","24.1","","100.71","","","","-47","","Ice Crystals"
"-115.14","67.82","KUGLUKTUK A","2300903","2020-02-09 13:00","2020","02","09","13:00","-32.4","","-36.0","","71","","","","23","","18","","24.1","","100.73","","","","-45","","Ice Crystals"
"-115.14","67.82","KUGLUKTUK A","2300903","2020-02-09 14:00","2020","02","09","14:00","-31.7","","-35.4","","71","","","","26","","18","","24.1","","100.78","","","","-45","","Ice Crystals"
"-115.14","67.82","KUGLUKTUK A","2300903","2020-02-09 15:00","2020","02","09","15:00","-32.0","","-35.6","","71","","","","21","","9","","16.1","","100.86","","","","-41","","Ice Crystals"
"-115.14","67.82","KUGLUKTUK A","2300903","2020-02-09 16:00","2020","02","09","16:00","-31.7","","-35.4","","71","","","","25","","10","","16.1","","100.91","","","","-41","","Ice Crystals"
"-115.14","67.82","KUGLUKTUK A","2300903","2020-02-09 17:00","2020","02","09","17:00","-29.9","","-33.4","","72","","","","26","","13","","16.1","","100.93","","","","-40","","Ice Crystals"
"-115.14","67.82","KUGLUKTUK A","2300903","2020-02-09 18:00","2020","02","09","18:00","-32.0","","-35.7","","70","","","","24","","21","","24.1","","101.00","","","","-46","","Ice Crystals"
"-115.14","67.82","KUGLUKTUK A","2300903","2020-02-09 19:00","2020","02","09","19:00","-31.3","","-34.9","","71","","","","24","","24","","16.1","","101.03","","","","-46","","Ice Crystals,Blowing Snow"
"-115.14","67.82","KUGLUKTUK A","2300903","2020-02-09 20:00","2020","02","09","20:00","-30.9","","-34.7","","70","","","","27","","29","","9.7","","101.04","","","","-47","","Snow,Blowing Snow"
"-115.14","67.82","KUGLUKTUK A","2300903","2020-02-09 21:00","2020","02","09","21:00","-29.6","","-33.6","","69","","","","27","","23","","19.3","","101.06","","","","-43","","Snow,Blowing Snow"
"-115.14","67.82","KUGLUKTUK A","2300903","2020-02-09 22:00","2020","02","09","22:00","-30.7","","-34.7","","69","","","","27","","27","","16.1","","101.06","","","","-46","","Snow,Blowing Snow"
"-115.14","67.82","KUGLUKTUK A","2300903","2020-02-09 23:00","2020","02","09","23:00","-30.3","","-34.4","","68","","","","25","","18","","12.9","","101.09","","","","-43","","Ice Crystals,Blowing Snow"
"-115.14","67.82","KUGLUKTUK A","2300903","2020-02-10 00:00","2020","02","10","00:00","-30.2","","-34.1","","69","","","","23","","19","","6.4","","101.09","","","","-43","","Ice Crystals,Blowing Snow"
"-115.14","67.82","KUGLUKTUK A","2300903","2020-02-10 01:00","2020","02","10","01:00","-30.6","","-34.4","","70","","","","24","","19","","9.7","","101.11","","","","-44","","Ice Crystals,Blowing Snow"
"-115.14","67.82","KUGLUKTUK A","2300903","2020-02-10 02:00","2020","02","10","02:00","-31.0","","-34.6","","71","","","","25","","18","","12.9","","101.14","","","","-44","","Ice Crystals,Blowing Snow"
"-115.14","67.82","KUGLUKTUK A","2300903","2020-02-10 03:00","2020","02","10","03:00","-31.1","","-34.7","","71","","","","22","","14","","12.9","","101.13","","","","-42","","Ice Crystals"
"-115.14","67.82","KUGLUKTUK A","2300903","2020-02-10 04:00","2020","02","10","04:00","-31.8","","-35.5","","71","","","","25","","7","","16.1","","101.15","","","","-39","","Ice Crystals"
"-115.14","67.82","KUGLUKTUK A","2300903","2020-02-10 05:00","2020","02","10","05:00","-32.3","","-36.2","","69","","","","28","","8","","16.1","","101.19","","","","-41","","Ice Crystals"
"-115.14","67.82","KUGLUKTUK A","2300903","2020-02-10 06:00","2020","02","10","06:00","-29.6","","-33.8","","68","","","","25","","18","","16.1","","101.18","","","","-42","","Ice Crystals,Blowing Snow"
"-115.14","67.82","KUGLUKTUK A","2300903","2020-02-10 07:00","2020","02","10","07:00","-30.4","","-34.6","","67","","","","27","","22","","19.3","","101.22","","","","-44","","Ice Crystals,Blowing Snow"
"-115.14","67.82","KUGLUKTUK A","2300903","2020-02-10 08:00","2020","02","10","08:00","-30.3","","-34.9","","65","","","","26","","19","","19.3","","101.31","","","","-43","","Ice Crystals,Blowing Snow"
"-115.14","67.82","KUGLUKTUK A","2300903","2020-02-10 09:00","2020","02","10","09:00","-31.6","","-35.5","","70","","","","27","","23","","2.4","","101.35","","","","-46","","Snow,Blowing Snow"
"-115.14","67.82","KUGLUKTUK A","2300903","2020-02-10 10:00","2020","02","10","10:00","-31.3","","-35.0","","71","","","","26","","21","","6.4","","101.41","","","","-45","","Snow,Blowing Snow"
"-115.14","67.82","KUGLUKTUK A","2300903","2020-02-10 11:00","2020","02","10","11:00","-30.7","","-34.4","","71","","","","26","","19","","16.1","","101.44","","","","-44","","Snow,Blowing Snow"
"-115.14","67.82","KUGLUKTUK A","2300903","2020-02-10 12:00","2020","02","10","12:00","-30.2","","-34.1","","70","","","","28","","14","","19.3","","101.52","","","","-41","","Ice Crystals"
"-115.14","67.82","KUGLUKTUK A","2300903","2020-02-10 13:00","2020","02","10","13:00","-29.1","","-33.5","","67","","","","34","","19","","16.1","","101.58","","","","-42","","Ice Crystals"
"-115.14","67.82","KUGLUKTUK A","2300903","2020-02-10 14:00","2020","02","10","14:00","-29.8","","-34.1","","67","","","","35","","21","","19.3","","101.68","","","","-43","","Ice Crystals"
"-115.14","67.82","KUGLUKTUK A","2300903","2020-02-10 15:00","2020","02","10","15:00","-31.6","","-35.5","","69","","","","35","","13","","19.3","","101.78","","","","-43","","Ice Crystals"
"-115.14","67.82","KUGLUKTUK A","2300903","2020-02-10 16:00","2020","02","10","16:00","-33.1","","-37.2","","68","","","","28","","13","","19.3","","101.86","","","","-44","","Ice Crystals"
"-115.14","67.82","KUGLUKTUK A","2300903","2020-02-10 17:00","2020","02","10","17:00","-35.1","","-39.1","","68","","","","25","","21","","19.3","","101.93","","","","-50","","Ice Crystals,Blowing Snow"
"-115.14","67.82","KUGLUKTUK A","2300903","2020-02-10 18:00","2020","02","10","18:00","-35.5","","-39.4","","68","","","","23","","24","","19.3","","102.01","","","","-51","","Ice Crystals,Blowing Snow"
"-115.14","67.82","KUGLUKTUK A","2300903","2020-02-10 19:00","2020","02","10","19:00","-35.2","","-39.0","","69","","","","25","","21","","19.3","","102.06","","","","-50","","Ice Crystals,Blowing Snow"
"-115.14","67.82","KUGLUKTUK A","2300903","2020-02-10 20:00","2020","02","10","20:00","-37.3","","-41.1","","69","","","","21","","15","","24.1","","102.10","","","","-50","","Ice Crystals"
"-115.14","67.82","KUGLUKTUK A","2300903","2020-02-10 21:00","2020","02","10","21:00","-37.2","","-40.9","","70","","","","22","","19","","24.1","","102.16","","","","-52","","Ice Crystals"
"-115.14","67.82","KUGLUKTUK A","2300903","2020-02-10 22:00","2020","02","10","22:00","-37.2","","-40.9","","69","","","","22","","18","","19.3","","102.19","","","","-51","","Ice Crystals"
"-115.14","67.82","KUGLUKTUK A","2300903","2020-02-10 23:00","2020","02","10","23:00","-37.3","","-41.0","","69","","","","22","","18","","24.1","","102.28","","","","-52","","Ice Crystals"
"-115.14","67.82","KUGLUKTUK A","2300903","2020-02-11 00:00","2020","02","11","00:00","-37.2","","-41.0","","69","","","","23","","22","","24.1","","102.37","","","","-53","","Ice Crystals"
"-115.14","67.82","KUGLUKTUK A","2300903","2020-02-11 01:00","2020","02","11","01:00","-37.9","","-41.8","","68","","","","22","","22","","24.1","","102.42","","","","-54","","Ice Crystals"
"-115.14","67.82","KUGLUKTUK A","2300903","2020-02-11 02:00","2020","02","11","02:00","-38.1","","-41.9","","68","","","","22","","23","","24.1","","102.48","","","","-54","","Ice Crystals"
"-115.14","67.82","KUGLUKTUK A","2300903","2020-02-11 03:00","2020","02","11","03:00","-38.2","","-42.1","","68","","","","22","","23","","24.1","","102.52","","","","-54","","Ice Crystals"
"-115.14","67.82","KUGLUKTUK A","2300903","2020-02-11 04:00","2020","02","11","04:00","-38.4","","-42.3","","68","","","","21","","15","","24.1","","102.60","","","","-52","","Ice Crystals"
"-115.14","67.82","KUGLUKTUK A","2300903","2020-02-11 05:00","2020","02","11","05:00","-38.5","","-42.4","","68","","","","21","","19","","24.1","","102.64","","","","-53","","Ice Crystals"
"-115.14","67.82","KUGLUKTUK A","2300903","2020-02-11 06:00","2020","02","11","06:00","-38.2","","-42.1","","68","","","","22","","24","","24.1","","102.68","","","","-55","","Ice Crystals"
"-115.14","67.82","KUGLUKTUK A","2300903","2020-02-11 07:00","2020","02","11","07:00","-37.9","","-41.9","","67","","","","22","","28","","24.1","","102.71","","","","-55","","NA"
"-115.14","67.82","KUGLUKTUK A","2300903","2020-02-11 08:00","2020","02","11","08:00","-37.8","","-41.8","","67","","","","22","","26","","24.1","","102.76","","","","-55","","Blowing Snow"
"-115.14","67.82","KUGLUKTUK A","2300903","2020-02-11 09:00","2020","02","11","09:00","-37.6","","-41.6","","67","","","","23","","23","","24.1","","102.80","","","","-54","","Blowing Snow"
"-115.14","67.82","KUGLUKTUK A","2300903","2020-02-11 10:00","2020","02","11","10:00","-37.1","","-41.2","","67","","","","22","","28","","24.1","","102.82","","","","-54","","Blowing Snow"
"-115.14","67.82","KUGLUKTUK A","2300903","2020-02-11 11:00","2020","02","11","11:00","-35.5","","-39.6","","67","","","","22","","28","","24.1","","102.83","","","","-52","","Blowing Snow"
"-115.14","67.82","KUGLUKTUK A","2300903","2020-02-11 12:00","2020","02","11","12:00","-34.4","","-38.7","","66","","","","23","","31","","24.1","","102.88","","","","-52","","Blowing Snow"
"-115.14","67.82","KUGLUKTUK A","2300903","2020-02-11 13:00","2020","02","11","13:00","-34.8","","-39.0","","66","","","","23","","22","","24.1","","102.93","","","","-50","","Blowing Snow"
"-115.14","67.82","KUGLUKTUK A","2300903","2020-02-11 14:00","2020","02","11","14:00","-34.4","","-38.8","","66","","","","23","","26","","24.1","","102.95","","","","-50","","Blowing Snow"
"-115.14","67.82","KUGLUKTUK A","2300903","2020-02-11 15:00","2020","02","11","15:00","-34.6","","-38.9","","66","","","","22","","24","","24.1","","103.01","","","","-50","","Blowing Snow"
"-115.14","67.82","KUGLUKTUK A","2300903","2020-02-11 16:00","2020","02","11","16:00","-34.1","","-38.2","","67","","","","24","","24","","24.1","","103.07","","","","-49","","Blowing Snow"
"-115.14","67.82","KUGLUKTUK A","2300903","2020-02-11 17:00","2020","02","11","17:00","-34.2","","-38.2","","68","","","","23","","24","","24.1","","103.10","","","","-50","","Blowing Snow"
"-115.14","67.82","KUGLUKTUK A","2300903","2020-02-11 18:00","2020","02","11","18:00","-34.2","","-38.1","","68","","","","23","","25","","24.1","","103.11","","","","-50","","Blowing Snow"
"-115.14","67.82","KUGLUKTUK A","2300903","2020-02-11 19:00","2020","02","11","19:00","-34.2","","-38.3","","68","","","","22","","22","","24.1","","103.12","","","","-49","","Blowing Snow"
"-115.14","67.82","KUGLUKTUK A","2300903","2020-02-11 20:00","2020","02","11","20:00","-33.4","","-37.5","","68","","","","23","","25","","24.1","","103.12","","","","-49","","Mainly Clear"
"-115.14","67.82","KUGLUKTUK A","2300903","2020-02-11 21:00","2020","02","11","21:00","-34.8","","-38.8","","68","","","","21","","17","","24.1","","103.13","","","","-48","","NA"
"-115.14","67.82","KUGLUKTUK A","2300903","2020-02-11 22:00","2020","02","11","22:00","-34.2","","-38.4","","67","","","","22","","18","","24.1","","103.10","","","","-48","","NA"
"-115.14","67.82","KUGLUKTUK A","2300903","2020-02-11 23:00","2020","02","11","23:00","-34.3","","-38.5","","67","","","","23","","22","","24.1","","103.12","","","","-49","","Clear"
"-115.14","67.82","KUGLUKTUK A","2300903","2020-02-12 00:00","2020","02","12","00:00","-35.0","","-39.2","","67","","","","22","","23","","24.1","","103.13","","","","-50","","NA"
"-115.14","67.82","KUGLUKTUK A","2300903","2020-02-12 01:00","2020","02","12","01:00","-35.5","","-39.5","","68","","","","22","","22","","24.1","","103.11","","","","-51","","NA"
"-115.14","67.82","KUGLUKTUK A","2300903","2020-02-12 02:00","2020","02","12","02:00","-35.3","","-39.4","","67","","","","22","","22","","24.1","","103.11","","","","-50","","Clear"
"-115.14","67.82","KUGLUKTUK A","2300903","2020-02-12 03:00","2020","02","12","03:00","-34.7","","-38.8","","67","","","","23","","23","","24.1","","103.09","","","","-50","","NA"
"-115.14","67.82","KUGLUKTUK A","2300903","2020-02-12 04:00","2020","02","12","04:00","-34.8","","-38.9","","67","","","","22","","18","","24.1","","103.08","","","","-48","","NA"
"-115.14","67.82","KUGLUKTUK A","2300903","2020-02-12 05:00","2020","02","12","05:00","-34.5","","-38.5","","68","","","","15","","7","","24.1","","103.05","","","","-43","","Clear"
"-115.14","67.82","KUGLUKTUK A","2300903","2020-02-12 06:00","2020","02","12","06:00","-34.9","","-38.9","","67","","","","22","","26","","24.1","","103.02","","","","-51","","Blowing Snow"
"-115.14","67.82","KUGLUKTUK A","2300903","2020-02-12 07:00","2020","02","12","07:00","-34.3","","-38.4","","67","","","","23","","27","","24.1","","103.00","","","","-51","","Ice Crystals,Blowing Snow"
"-115.14","67.82","KUGLUKTUK A","2300903","2020-02-12 08:00","2020","02","12","08:00","-33.9","","-38.1","","67","","","","24","","11","","24.1","","102.98","","","","-44","","Ice Crystals"
"-115.14","67.82","KUGLUKTUK A","2300903","2020-02-12 09:00","2020","02","12","09:00","-33.5","","-37.6","","67","","","","23","","17","","24.1","","102.94","","","","-46","","Ice Crystals"
"-115.14","67.82","KUGLUKTUK A","2300903","2020-02-12 10:00","2020","02","12","10:00","-33.0","","-37.1","","67","","","","22","","21","","24.1","","102.90","","","","-47","","Ice Crystals"
"-115.14","67.82","KUGLUKTUK A","2300903","2020-02-12 11:00","2020","02","12","11:00","-33.1","","-37.3","","67","","","","22","","23","","24.1","","102.87","","","","-48","","Ice Crystals"
"-115.14","67.82","KUGLUKTUK A","2300903","2020-02-12 12:00","2020","02","12","12:00","-33.5","","-37.8","","66","","","","22","","23","","24.1","","102.80","","","","-48","","Ice Crystals"
"-115.14","67.82","KUGLUKTUK A","2300903","2020-02-12 13:00","2020","02","12","13:00","-32.8","","-37.2","","66","","","","22","","15","","24.1","","102.77","","","","-45","","NA"
"-115.14","67.82","KUGLUKTUK A","2300903","2020-02-12 14:00","2020","02","12","14:00","-31.7","","-36.1","","66","","","","23","","11","","24.1","","102.71","","","","-42","","Cloudy"
"-115.14","67.82","KUGLUKTUK A","2300903","2020-02-12 15:00","2020","02","12","15:00","-32.0","","-36.1","","68","","","","25","","9","","19.3","","102.66","","","","-41","","Ice Crystals"
"-115.14","67.82","KUGLUKTUK A","2300903","2020-02-12 16:00","2020","02","12","16:00","-32.2","","-36.2","","69","","","","18","","3","","24.1","","102.60","","","","-36","","Ice Crystals"
"-115.14","67.82","KUGLUKTUK A","2300903","2020-02-12 17:00","2020","02","12","17:00","-31.3","","-35.3","","69","","","","23","","8","","6.4","","102.58","","","","-40","","Ice Crystals"
"-115.14","67.82","KUGLUKTUK A","2300903","2020-02-12 18:00","2020","02","12","18:00","-31.6","","-35.5","","69","","","","22","","13","","12.9","","102.49","","","","-43","","Ice Crystals"
"-115.14","67.82","KUGLUKTUK A","2300903","2020-02-12 19:00","2020","02","12","19:00","-32.1","","-36.2","","68","","","","23","","20","","12.9","","102.39","","","","-46","","Ice Crystals"
"-115.14","67.82","KUGLUKTUK A","2300903","2020-02-12 20:00","2020","02","12","20:00","-31.6","","-35.6","","69","","","","28","","5","","24.1","","102.34","","","","-37","","Ice Crystals"
"-115.14","67.82","KUGLUKTUK A","2300903","2020-02-12 21:00","2020","02","12","21:00","-35.0","","-38.8","","69","","","","22","","14","","24.1","","102.29","","","","-47","","Ice Crystals"
"-115.14","67.82","KUGLUKTUK A","2300903","2020-02-12 22:00","2020","02","12","22:00","-34.2","","-38.2","","68","","","","21","","14","","24.1","","102.27","","","","-46","","NA"
"-115.14","67.82","KUGLUKTUK A","2300903","2020-02-12 23:00","2020","02","12","23:00","-32.7","","-37.1","","65","","","","23","","8","","24.1","","102.20","","","","-41","","Mostly Cloudy"
"-115.14","67.82","KUGLUKTUK A","2300903","2020-02-13 00:00","2020","02","13","00:00","-32.5","","-36.5","","68","","","","20","","6","","24.1","","102.13","","","","-39","","Snow"
"-115.14","67.82","KUGLUKTUK A","2300903","2020-02-13 01:00","2020","02","13","01:00","-32.8","","-36.5","","70","","","","35","","5","","24.1","","102.10","","","","-39","","Ice Crystals"
"-115.14","67.82","KUGLUKTUK A","2300903","2020-02-13 02:00","2020","02","13","02:00","-32.5","","-36.3","","70","","","","36","","2","","24.1","","102.08","","","","-35","","Ice Crystals"
"-115.14","67.82","KUGLUKTUK A","2300903","2020-02-13 03:00","2020","02","13","03:00","-32.5","","-36.4","","69","","","","32","","4","","24.1","","102.02","","","","-37","","Ice Crystals"
"-115.14","67.82","KUGLUKTUK A","2300903","2020-02-13 04:00","2020","02","13","04:00","-32.4","","-36.3","","69","","","","35","","4","","24.1","","101.96","","","","-37","","Ice Crystals"
"-115.14","67.82","KUGLUKTUK A","2300903","2020-02-13 05:00","2020","02","13","05:00","-32.9","","-36.8","","69","","","","28","","5","","24.1","","101.93","","","","-39","","Ice Crystals"
"-115.14","67.82","KUGLUKTUK A","2300903","2020-02-13 06:00","2020","02","13","06:00","-32.7","","-36.4","","70","","","","30","","7","","24.1","","101.92","","","","-40","","Ice Crystals"
"-115.14","67.82","KUGLUKTUK A","2300903","2020-02-13 07:00","2020","02","13","07:00","-32.8","","-36.6","","70","","","","29","","5","","24.1","","101.87","","","","-39","","Ice Crystals"
"-115.14","67.82","KUGLUKTUK A","2300903","2020-02-13 08:00","2020","02","13","08:00","-32.2","","-35.9","","71","","","","36","","1","","19.3","","101.85","","","","-33","","Ice Crystals"
"-115.14","67.82","KUGLUKTUK A","2300903","2020-02-13 09:00","2020","02","13","09:00","-32.0","","-35.6","","71","","","","36","","3","","19.3","","101.85","","","","-36","","Ice Crystals"
"-115.14","67.82","KUGLUKTUK A","2300903","2020-02-13 10:00","2020","02","13","10:00","-31.7","","-35.4","","71","","","","28","","4","","19.3","","101.82","","","","-36","","Ice Crystals"
"-115.14","67.82","KUGLUKTUK A","2300903","2020-02-13 11:00","2020","02","13","11:00","-31.9","","-35.6","","70","","","","27","","10","","12.9","","101.82","","","","-41","","Ice Crystals"
"-115.14","67.82","KUGLUKTUK A","2300903","2020-02-13 12:00","2020","02","13","12:00","-31.6","","-35.4","","70","","","","27","","10","","12.9","","101.84","","","","-41","","Ice Crystals"
"-115.14","67.82","KUGLUKTUK A","2300903","2020-02-13 13:00","2020","02","13","13:00","-30.9","","-34.8","","70","","","","28","","7","","12.9","","101.84","","","","-38","","Ice Crystals"
"-115.14","67.82","KUGLUKTUK A","2300903","2020-02-13 14:00","2020","02","13","14:00","-31.1","","-35.0","","70","","","","25","","11","","16.1","","101.85","","","","-41","","Ice Crystals"
"-115.14","67.82","KUGLUKTUK A","2300903","2020-02-13 15:00","2020","02","13","15:00","-31.8","","-35.7","","69","","","","26","","14","","16.1","","101.82","","","","-43","","Ice Crystals"
"-115.14","67.82","KUGLUKTUK A","2300903","2020-02-13 16:00","2020","02","13","16:00","-32.1","","-35.9","","70","","","","28","","8","","16.1","","101.83","","","","-40","","Ice Crystals"
"-115.14","67.82","KUGLUKTUK A","2300903","2020-02-13 17:00","2020","02","13","17:00","-31.8","","-35.8","","69","","","","2","","6","","16.1","","101.82","","","","-39","","Cloudy"
"-115.14","67.82","KUGLUKTUK A","2300903","2020-02-13 18:00","2020","02","13","18:00","-31.6","","-35.5","","69","","","","33","","3","","12.9","","101.83","","","","-35","","Ice Crystals"
"-115.14","67.82","KUGLUKTUK A","2300903","2020-02-13 19:00","2020","02","13","19:00","-31.9","","-35.8","","69","","","","31","","5","","16.1","","101.83","","","","-38","","Ice Crystals"
"-115.14","67.82","KUGLUKTUK A","2300903","2020-02-13 20:00","2020","02","13","20:00","-32.8","","-36.6","","69","","","","25","","11","","24.1","","101.87","","","","-43","","Ice Crystals"
"-115.14","67.82","KUGLUKTUK A","2300903","2020-02-13 21:00","2020","02","13","21:00","-31.9","","-35.6","","70","","","","26","","15","","24.1","","101.87","","","","-44","","Ice Crystals"
"-115.14","67.82","KUGLUKTUK A","2300903","2020-02-13 22:00","2020","02","13","22:00","-32.9","","-36.8","","69","","","","25","","15","","24.1","","101.87","","","","-45","","Ice Crystals"
"-115.14","67.82","KUGLUKTUK A","2300903","2020-02-13 23:00","2020","02","13","23:00","-31.2","","-35.3","","68","","","","25","","17","","24.1","","101.86","","","","-44","","Ice Crystals"
"-115.14","67.82","KUGLUKTUK A","2300903","2020-02-14 00:00","2020","02","14","00:00","-30.5","","-34.3","","70","","","","27","","9","","24.1","","101.84","","","","-39","","Ice Crystals"
"-115.14","67.82","KUGLUKTUK A","2300903","2020-02-14 01:00","2020","02","14","01:00","-31.3","","-35.0","","70","","","","22","","11","","24.1","","101.86","","","","-41","","Ice Crystals"
"-115.14","67.82","KUGLUKTUK A","2300903","2020-02-14 02:00","2020","02","14","02:00","-32.4","","-36.0","","71","","","","22","","13","","24.1","","101.87","","","","-44","","Ice Crystals"
"-115.14","67.82","KUGLUKTUK A","2300903","2020-02-14 03:00","2020","02","14","03:00","-32.5","","-35.9","","73","","","","27","","10","","24.1","","101.89","","","","-42","","Ice Crystals"
"-115.14","67.82","KUGLUKTUK A","2300903","2020-02-14 04:00","2020","02","14","04:00","-31.5","","-35.0","","72","","","","27","","13","","16.1","","101.90","","","","-42","","Ice Crystals"
"-115.14","67.82","KUGLUKTUK A","2300903","2020-02-14 05:00","2020","02","14","05:00","-31.9","","-35.5","","71","","","","26","","17","","1.2","","101.90","","","","-44","","Fog"
"-115.14","67.82","KUGLUKTUK A","2300903","2020-02-14 06:00","2020","02","14","06:00","-30.9","","-34.4","","72","","","","26","","22","","2.4","","101.91","","","","-45","","Fog,Blowing Snow"
"-115.14","67.82","KUGLUKTUK A","2300903","2020-02-14 07:00","2020","02","14","07:00","-32.6","","-36.3","","70","","","","26","","27","","16.1","","101.91","","","","-48","","Ice Crystals,Blowing Snow"
"-115.14","67.82","KUGLUKTUK A","2300903","2020-02-14 08:00","2020","02","14","08:00","-32.5","","-36.1","","71","","","","26","","27","","19.3","","101.93","","","","-48","","Ice Crystals,Blowing Snow"
"-115.14","67.82","KUGLUKTUK A","2300903","2020-02-14 09:00","2020","02","14","09:00","-32.7","","-36.4","","70","","","","26","","28","","4.8","","101.93","","","","-49","","Fog,Blowing Snow"
"-115.14","67.82","KUGLUKTUK A","2300903","2020-02-14 10:00","2020","02","14","10:00","-32.6","","-36.3","","70","","","","26","","26","","4.8","","101.92","","","","-48","","Fog"
"-115.14","67.82","KUGLUKTUK A","2300903","2020-02-14 11:00","2020","02","14","11:00","-33.1","","-36.9","","70","","","","24","","20","","3.6","","101.91","","","","-47","","Fog"
"-115.14","67.82","KUGLUKTUK A","2300903","2020-02-14 12:00","2020","02","14","12:00","-32.6","","-36.5","","70","","","","27","","24","","6.4","","101.93","","","","-48","","Fog,Blowing Snow"
"-115.14","67.82","KUGLUKTUK A","2300903","2020-02-14 13:00","2020","02","14","13:00","-32.4","","-36.2","","70","","","","27","","23","","4.8","","101.96","","","","-47","","Fog,Blowing Snow"
"-115.14","67.82","KUGLUKTUK A","2300903","2020-02-14 14:00","2020","02","14","14:00","-32.1","","-35.9","","70","","","","26","","25","","4.8","","101.97","","","","-47","","Fog,Blowing Snow"
"-115.14","67.82","KUGLUKTUK A","2300903","2020-02-14 15:00","2020","02","14","15:00","-32.0","","-35.8","","70","","","","26","","26","","2.0","","101.98","","","","-47","","Fog,Blowing Snow"
"-115.14","67.82","KUGLUKTUK A","2300903","2020-02-14 16:00","2020","02","14","16:00","-32.3","","-35.9","","71","","","","28","","27","","1.6","","101.99","","","","-48","","Fog,Blowing Snow"
"-115.14","67.82","KUGLUKTUK A","2300903","2020-02-14 17:00","2020","02","14","17:00","-33.1","","-36.8","","71","","","","29","","24","","3.2","","101.99","","","","-48","","Fog,Blowing Snow"
"-115.14","67.82","KUGLUKTUK A","2300903","2020-02-14 18:00","2020","02","14","18:00","-33.3","","-37.0","","71","","","","28","","22","","2.4","","102.01","","","","-48","","Ice Crystals,Fog,Blowing Snow"
"-115.14","67.82","KUGLUKTUK A","2300903","2020-02-14 19:00","2020","02","14","19:00","-34.4","","-38.0","","70","","","","27","","21","","3.2","","102.03","","","","-49","","Ice Crystals,Fog,Blowing Snow"
"-115.14","67.82","KUGLUKTUK A","2300903","2020-02-14 20:00","2020","02","14","20:00","-34.5","","-38.2","","70","","","","27","","24","","4.0","","102.03","","","","-50","","Fog,Blowing Snow"
"-115.14","67.82","KUGLUKTUK A","2300903","2020-02-14 21:00","2020","02","14","21:00","-35.6","","-39.4","","69","","","","25","","21","","16.1","","102.03","","","","-50","","Ice Crystals,Blowing Snow"
"-115.14","67.82","KUGLUKTUK A","2300903","2020-02-14 22:00","2020","02","14","22:00","-35.8","","-39.6","","69","","","","25","","21","","24.1","","102.03","","","","-51","","Ice Crystals,Blowing Snow"
"-115.14","67.82","KUGLUKTUK A","2300903","2020-02-14 23:00","2020","02","14","23:00","-35.3","","-39.0","","70","","","","25","","19","","24.1","","102.04","","","","-49","","Ice Crystals"
"-115.14","67.82","KUGLUKTUK A","2300903","2020-02-15 00:00","2020","02","15","00:00","-36.9","","-40.6","","69","","","","23","","22","","24.1","","102.05","","","","-52","","NA"
"-115.14","67.82","KUGLUKTUK A","2300903","2020-02-15 01:00","2020","02","15","01:00","-37.0","","-40.8","","69","","","","23","","23","","24.1","","102.06","","","","-53","","NA"
"-115.14","67.82","KUGLUKTUK A","2300903","2020-02-15 02:00","2020","02","15","02:00","-37.5","","-41.3","","68","","","","23","","22","","24.1","","102.05","","","","-53","","Clear"
"-115.14","67.82","KUGLUKTUK A","2300903","2020-02-15 03:00","2020","02","15","03:00","-36.8","","-40.6","","69","","","","23","","25","","24.1","","102.06","","","","-53","","NA"
"-115.14","67.82","KUGLUKTUK A","2300903","2020-02-15 04:00","2020","02","15","04:00","-36.7","","-40.6","","69","","","","23","","25","","24.1","","102.04","","","","-53","","NA"
"-115.14","67.82","KUGLUKTUK A","2300903","2020-02-15 05:00","2020","02","15","05:00","-37.1","","-40.9","","69","","","","23","","26","","24.1","","102.01","","","","-54","","Clear"
"-115.14","67.82","KUGLUKTUK A","2300903","2020-02-15 06:00","2020","02","15","06:00","-37.3","","-41.2","","68","","","","23","","24","","24.1","","102.00","","","","-54","","NA"
"-115.14","67.82","KUGLUKTUK A","2300903","2020-02-15 07:00","2020","02","15","07:00","-36.0","","-39.8","","69","","","","23","","32","","24.1","","101.96","","","","-54","","NA"
"-115.14","67.82","KUGLUKTUK A","2300903","2020-02-15 08:00","2020","02","15","08:00","-35.3","","-39.2","","69","","","","23","","29","","24.1","","101.90","","","","-52","","Clear"
"-115.14","67.82","KUGLUKTUK A","2300903","2020-02-15 09:00","2020","02","15","09:00","-35.1","","-38.9","","69","","","","24","","33","","24.1","","101.85","","","","-53","","Blowing Snow"
"-115.14","67.82","KUGLUKTUK A","2300903","2020-02-15 10:00","2020","02","15","10:00","-34.5","","-38.2","","70","","","","24","","30","","24.1","","101.85","","","","-51","","Blowing Snow"
"-115.14","67.82","KUGLUKTUK A","2300903","2020-02-15 11:00","2020","02","15","11:00","-33.2","","-37.0","","69","","","","24","","34","","24.1","","101.80","","","","-51","","Blowing Snow"
"-115.14","67.82","KUGLUKTUK A","2300903","2020-02-15 12:00","2020","02","15","12:00","-31.7","","-35.6","","69","","","","23","","36","","24.1","","101.78","","","","-49","","Blowing Snow"
"-115.14","67.82","KUGLUKTUK A","2300903","2020-02-15 13:00","2020","02","15","13:00","-30.2","","-34.4","","67","","","","24","","32","","24.1","","101.77","","","","-46","","Blowing Snow"
"-115.14","67.82","KUGLUKTUK A","2300903","2020-02-15 14:00","2020","02","15","14:00","-31.2","","-35.4","","67","","","","25","","36","","24.1","","101.75","","","","-48","","Blowing Snow"
"-115.14","67.82","KUGLUKTUK A","2300903","2020-02-15 15:00","2020","02","15","15:00","-30.7","","-35.1","","66","","","","25","","34","","24.1","","101.73","","","","-47","","Blowing Snow"
"-115.14","67.82","KUGLUKTUK A","2300903","2020-02-15 16:00","2020","02","15","16:00","-30.2","","-34.5","","67","","","","25","","37","","24.1","","101.70","","","","-47","","Blowing Snow"
"-115.14","67.82","KUGLUKTUK A","2300903","2020-02-15 17:00","2020","02","15","17:00","-30.8","","-35.0","","67","","","","24","","35","","24.1","","101.70","","","","-48","","Blowing Snow"
"-115.14","67.82","KUGLUKTUK A","2300903","2020-02-15 18:00","2020","02","15","18:00","-30.8","","-34.9","","68","","","","24","","34","","24.1","","101.66","","","","-47","","Ice Crystals,Blowing Snow"
"-115.14","67.82","KUGLUKTUK A","2300903","2020-02-15 19:00","2020","02","15","19:00","-30.4","","-34.6","","68","","","","24","","35","","24.1","","101.65","","","","-47","","Ice Crystals,Blowing Snow"
"-115.14","67.82","KUGLUKTUK A","2300903","2020-02-15 20:00","2020","02","15","20:00","-29.5","","-33.8","","67","","","","25","","39","","24.1","","101.59","","","","-47","","Blowing Snow"
"-115.14","67.82","KUGLUKTUK A","2300903","2020-02-15 21:00","2020","02","15","21:00","-29.6","","-34.0","","66","","","","24","","37","","24.1","","101.59","","","","-46","","Blowing Snow"
"-115.14","67.82","KUGLUKTUK A","2300903","2020-02-15 22:00","2020","02","15","22:00","-28.8","","-33.4","","65","","","","24","","37","","24.1","","101.57","","","","-45","","Blowing Snow"
"-115.14","67.82","KUGLUKTUK A","2300903","2020-02-15 23:00","2020","02","15","23:00","-29.5","","-34.4","","64","","","","24","","37","","24.1","","101.54","","","","-46","","Blowing Snow"
"-115.14","67.82","KUGLUKTUK A","2300903","2020-02-16 00:00","2020","02","16","00:00","-29.1","","-34.0","","63","","","","25","","38","","24.1","","101.52","","","","-46","","Blowing Snow"
"-115.14","67.82","KUGLUKTUK A","2300903","2020-02-16 01:00","2020","02","16","01:00","-28.2","","-33.1","","64","","","","26","","37","","16.1","","101.52","","","","-45","","Ice Crystals,Blowing Snow"
"-115.14","67.82","KUGLUKTUK A","2300903","2020-02-16 02:00","2020","02","16","02:00","-28.4","","-33.2","","64","","","","25","","36","","19.3","","101.52","","","","-45","","Ice Crystals,Blowing Snow"
"-115.14","67.82","KUGLUKTUK A","2300903","2020-02-16 03:00","2020","02","16","03:00","-27.6","","-32.1","","66","","","","25","","35","","24.1","","101.51","","","","-43","","Ice Crystals,Blowing Snow"
"-115.14","67.82","KUGLUKTUK A","2300903","2020-02-16 04:00","2020","02","16","04:00","-25.4","","-30.7","","62","","","","27","","28","","24.1","","101.51","","","","-39","","Ice Crystals,Blowing Snow"
"-115.14","67.82","KUGLUKTUK A","2300903","2020-02-16 05:00","2020","02","16","05:00","-26.5","","-31.5","","64","","","","25","","25","","16.1","","101.52","","","","-40","","Ice Crystals,Blowing Snow"
"-115.14","67.82","KUGLUKTUK A","2300903","2020-02-16 06:00","2020","02","16","06:00","-26.9","","-31.1","","68","","","","26","","23","","24.1","","101.51","","","","-40","","Ice Crystals,Blowing Snow"
"-115.14","67.82","KUGLUKTUK A","2300903","2020-02-16 07:00","2020","02","16","07:00","-26.0","","-30.8","","65","","","","25","","29","","24.1","","101.50","","","","-40","","Ice Crystals,Blowing Snow"
"-115.14","67.82","KUGLUKTUK A","2300903","2020-02-16 08:00","2020","02","16","08:00","-26.0","","-30.5","","66","","","","25","","29","","24.1","","101.51","","","","-40","","Blowing Snow"
"-115.14","67.82","KUGLUKTUK A","2300903","2020-02-16 09:00","2020","02","16","09:00","-26.3","","-31.1","","65","","","","24","","24","","24.1","","101.54","","","","-39","","Blowing Snow"
"-115.14","67.82","KUGLUKTUK A","2300903","2020-02-16 10:00","2020","02","16","10:00","-25.6","","-30.5","","64","","","","26","","30","","24.1","","101.55","","","","-40","","Blowing Snow"
"-115.14","67.82","KUGLUKTUK A","2300903","2020-02-16 11:00","2020","02","16","11:00","-26.4","","-30.9","","67","","","","24","","30","","19.3","","101.55","","","","-41","","Blowing Snow"
"-115.14","67.82","KUGLUKTUK A","2300903","2020-02-16 12:00","2020","02","16","12:00","-24.7","","-29.2","","67","","","","29","","29","","12.9","","101.59","","","","-39","","Ice Crystals,Blowing Snow"
"-115.14","67.82","KUGLUKTUK A","2300903","2020-02-16 13:00","2020","02","16","13:00","-24.2","","-28.3","","69","","","","30","","29","","12.9","","101.62","","","","-38","","Ice Crystals,Blowing Snow"
"-115.14","67.82","KUGLUKTUK A","2300903","2020-02-16 14:00","2020","02","16","14:00","-25.1","","-29.6","","67","","","","28","","33","","12.9","","101.68","","","","-40","","Ice Crystals,Blowing Snow"
"-115.14","67.82","KUGLUKTUK A","2300903","2020-02-16 15:00","2020","02","16","15:00","-25.4","","-29.6","","68","","","","30","","23","","12.9","","101.76","","","","-38","","Ice Crystals,Blowing Snow"
"-115.14","67.82","KUGLUKTUK A","2300903","2020-02-16 16:00","2020","02","16","16:00","-25.7","","-30.3","","66","","","","27","","29","","12.9","","101.78","","","","-40","","Ice Crystals,Blowing Snow"
"-115.14","67.82","KUGLUKTUK A","2300903","2020-02-16 17:00","2020","02","16","17:00","-25.9","","-30.4","","67","","","","25","","29","","12.9","","101.81","","","","-40","","Ice Crystals,Blowing Snow"
"-115.14","67.82","KUGLUKTUK A","2300903","2020-02-16 18:00","2020","02","16","18:00","-25.2","","-29.7","","67","","","","28","","28","","12.9","","101.86","","","","-39","","Ice Crystals,Blowing Snow"
"-115.14","67.82","KUGLUKTUK A","2300903","2020-02-16 19:00","2020","02","16","19:00","-25.9","","-30.3","","67","","","","30","","24","","16.1","","101.93","","","","-39","","Ice Crystals,Blowing Snow"
"-115.14","67.82","KUGLUKTUK A","2300903","2020-02-16 20:00","2020","02","16","20:00","-25.4","","-29.3","","70","","","","28","","22","","16.1","","101.98","","","","-38","","Ice Crystals,Blowing Snow"
"-115.14","67.82","KUGLUKTUK A","2300903","2020-02-16 21:00","2020","02","16","21:00","-25.3","","-29.4","","69","","","","30","","26","","16.1","","101.99","","","","-39","","Ice Crystals,Blowing Snow"
"-115.14","67.82","KUGLUKTUK A","2300903","2020-02-16 22:00","2020","02","16","22:00","-25.0","","-29.1","","70","","","","31","","32","","19.3","","102.00","","","","-39","","Ice Crystals,Blowing Snow"
"-115.14","67.82","KUGLUKTUK A","2300903","2020-02-16 23:00","2020","02","16","23:00","-24.9","","-29.3","","68","","","","29","","26","","19.3","","102.07","","","","-38","","Ice Crystals,Blowing Snow"
"-115.14","67.82","KUGLUKTUK A","2300903","2020-02-17 00:00","2020","02","17","00:00","-25.1","","-29.3","","69","","","","30","","35","","16.1","","102.08","","","","-40","","Ice Crystals,Blowing Snow"
"-115.14","67.82","KUGLUKTUK A","2300903","2020-02-17 01:00","2020","02","17","01:00","-25.1","","-29.3","","68","","","","29","","25","","19.3","","102.18","","","","-38","","Ice Crystals,Blowing Snow"
"-115.14","67.82","KUGLUKTUK A","2300903","2020-02-17 02:00","2020","02","17","02:00","-24.1","","-28.5","","68","","","","31","","35","","12.9","","102.18","","","","-39","","Ice Crystals,Blowing Snow"
"-115.14","67.82","KUGLUKTUK A","2300903","2020-02-17 03:00","2020","02","17","03:00","-23.8","","-28.0","","69","","","","26","","15","","24.1","","102.29","","","","-34","","Ice Crystals"
"-115.14","67.82","KUGLUKTUK A","2300903","2020-02-17 04:00","2020","02","17","04:00","-24.5","","-28.6","","69","","","","32","","16","","24.1","","102.32","","","","-35","","Ice Crystals,Blowing Snow"
"-115.14","67.82","KUGLUKTUK A","2300903","2020-02-17 05:00","2020","02","17","05:00","-24.5","","-28.6","","69","","","","28","","26","","24.1","","102.32","","","","-38","","Ice Crystals,Blowing Snow"
"-115.14","67.82","KUGLUKTUK A","2300903","2020-02-17 06:00","2020","02","17","06:00","-25.5","","-29.5","","70","","","","24","","24","","24.1","","102.36","","","","-38","","Ice Crystals,Blowing Snow"
"-115.14","67.82","KUGLUKTUK A","2300903","2020-02-17 07:00","2020","02","17","07:00","-26.4","","-31.2","","65","","","","27","","20","","24.1","","102.37","","","","-39","","NA"
"-115.14","67.82","KUGLUKTUK A","2300903","2020-02-17 08:00","2020","02","17","08:00","-27.6","","-31.6","","69","","","","24","","28","","24.1","","102.40","","","","-42","","Mainly Clear"
"-115.14","67.82","KUGLUKTUK A","2300903","2020-02-17 09:00","2020","02","17","09:00","-27.0","","-31.0","","70","","","","23","","30","","24.1","","102.43","","","","-42","","NA"
"-115.14","67.82","KUGLUKTUK A","2300903","2020-02-17 10:00","2020","02","17","10:00","-28.8","","-33.0","","68","","","","23","","27","","24.1","","102.44","","","","-43","","NA"
"-115.14","67.82","KUGLUKTUK A","2300903","2020-02-17 11:00","2020","02","17","11:00","-26.4","","-31.4","","63","","","","24","","33","","24.1","","102.43","","","","-41","","Blowing Snow"
"-115.14","67.82","KUGLUKTUK A","2300903","2020-02-17 12:00","2020","02","17","12:00","-26.5","","-32.1","","60","","","","23","","29","","24.1","","102.47","","","","-41","","Ice Crystals,Blowing Snow"
"-115.14","67.82","KUGLUKTUK A","2300903","2020-02-17 13:00","2020","02","17","13:00","-25.5","","-31.2","","60","","","","25","","31","","24.1","","102.50","","","","-40","","Ice Crystals,Blowing Snow"
"-115.14","67.82","KUGLUKTUK A","2300903","2020-02-17 14:00","2020","02","17","14:00","-25.4","","-31.8","","56","","","","22","","22","","24.1","","102.54","","","","-38","","Ice Crystals"
"-115.14","67.82","KUGLUKTUK A","2300903","2020-02-17 15:00","2020","02","17","15:00","-27.0","","-32.2","","62","","","","22","","26","","24.1","","102.54","","","","-41","","NA"
"-115.14","67.82","KUGLUKTUK A","2300903","2020-02-17 16:00","2020","02","17","16:00","-27.4","","-32.3","","64","","","","22","","23","","24.1","","102.56","","","","-41","","NA"
"-115.14","67.82","KUGLUKTUK A","2300903","2020-02-17 17:00","2020","02","17","17:00","-27.5","","-32.5","","64","","","","23","","29","","24.1","","102.55","","","","-42","","Blowing Snow"
"-115.14","67.82","KUGLUKTUK A","2300903","2020-02-17 18:00","2020","02","17","18:00","-28.1","","-32.9","","65","","","","24","","5","","24.1","","102.56","","","","-33","","NA"
"-115.14","67.82","KUGLUKTUK A","2300903","2020-02-17 19:00","2020","02","17","19:00","-28.7","","-33.5","","64","","","","21","","19","","24.1","","102.52","","","","-41","","NA"
"-115.14","67.82","KUGLUKTUK A","2300903","2020-02-17 20:00","2020","02","17","20:00","-28.2","","-33.2","","63","","","","22","","30","","24.1","","102.49","","","","-43","","Blowing Snow"
"-115.14","67.82","KUGLUKTUK A","2300903","2020-02-17 21:00","2020","02","17","21:00","-28.6","","-33.2","","65","","","","22","","27","","24.1","","102.45","","","","-43","","Blowing Snow"
"-115.14","67.82","KUGLUKTUK A","2300903","2020-02-17 22:00","2020","02","17","22:00","-26.5","","-31.6","","63","","","","24","","17","","24.1","","102.41","","","","-38","","NA"
"-115.14","67.82","KUGLUKTUK A","2300903","2020-02-17 23:00","2020","02","17","23:00","-28.3","","-33.4","","63","","","","23","","19","","24.1","","102.35","","","","-41","","Mainly Clear"
"-115.14","67.82","KUGLUKTUK A","2300903","2020-02-18 00:00","2020","02","18","00:00","-25.8","","-30.6","","65","","","","21","","32","","24.1","","102.30","","","","-41","","Blowing Snow"
"-115.14","67.82","KUGLUKTUK A","2300903","2020-02-18 01:00","2020","02","18","01:00","-23.3","","-29.4","","58","","","","22","","31","","19.3","","102.26","","","","-37","","Blowing Snow"
"-115.14","67.82","KUGLUKTUK A","2300903","2020-02-18 02:00","2020","02","18","02:00","-25.1","","-31.1","","58","","","","28","","13","","24.1","","102.22","","","","-35","","Mainly Clear"
"-115.14","67.82","KUGLUKTUK A","2300903","2020-02-18 03:00","2020","02","18","03:00","-23.0","","-28.5","","61","","","","24","","17","","19.3","","102.19","","","","-33","","Blowing Snow"
"-115.14","67.82","KUGLUKTUK A","2300903","2020-02-18 04:00","2020","02","18","04:00","-23.2","","-28.6","","62","","","","21","","16","","24.1","","102.15","","","","-33","","NA"
"-115.14","67.82","KUGLUKTUK A","2300903","2020-02-18 05:00","2020","02","18","05:00","-24.4","","-29.2","","65","","","","21","","27","","24.1","","102.05","","","","-38","","Mainly Clear"
"-115.14","67.82","KUGLUKTUK A","2300903","2020-02-18 06:00","2020","02","18","06:00","-22.7","","-27.7","","64","","","","21","","37","","19.3","","101.93","","","","-37","","Blowing Snow"
"-115.14","67.82","KUGLUKTUK A","2300903","2020-02-18 07:00","2020","02","18","07:00","-21.9","","-27.8","","60","","","","20","","40","","19.3","","101.90","","","","-37","","Blowing Snow"
"-115.14","67.82","KUGLUKTUK A","2300903","2020-02-18 08:00","2020","02","18","08:00","-21.6","","-26.8","","64","","","","22","","45","","19.3","","101.81","","","","-37","","Blowing Snow"
"-115.14","67.82","KUGLUKTUK A","2300903","2020-02-18 09:00","2020","02","18","09:00","-22.6","","-27.8","","63","","","","22","","34","","24.1","","101.75","","","","-37","","Blowing Snow"
"-115.14","67.82","KUGLUKTUK A","2300903","2020-02-18 10:00","2020","02","18","10:00","-22.4","","-27.8","","63","","","","21","","36","","24.1","","101.68","","","","-37","","Blowing Snow"
"-115.14","67.82","KUGLUKTUK A","2300903","2020-02-18 11:00","2020","02","18","11:00","-21.6","","-27.4","","60","","","","21","","32","","24.1","","101.60","","","","-35","","Blowing Snow"
"-115.14","67.82","KUGLUKTUK A","2300903","2020-02-18 12:00","2020","02","18","12:00","-21.7","","-27.3","","61","","","","22","","27","","24.1","","101.62","","","","-34","","Blowing Snow"
"-115.14","67.82","KUGLUKTUK A","2300903","2020-02-18 13:00","2020","02","18","13:00","-22.1","","-27.4","","63","","","","23","","25","","24.1","","101.58","","","","-34","","NA"
"-115.14","67.82","KUGLUKTUK A","2300903","2020-02-18 14:00","2020","02","18","14:00","-24.5","","-29.3","","65","","","","28","","17","","24.1","","101.57","","","","-35","","Mainly Clear"
"-115.14","67.82","KUGLUKTUK A","2300903","2020-02-18 15:00","2020","02","18","15:00","-23.2","","-27.7","","67","","","","24","","23","","24.1","","101.47","","","","-35","","NA"
"-115.14","67.82","KUGLUKTUK A","2300903","2020-02-18 16:00","2020","02","18","16:00","-23.7","","-28.0","","68","","","","22","","21","","24.1","","101.48","","","","-35","","NA"
"-115.14","67.82","KUGLUKTUK A","2300903","2020-02-18 17:00","2020","02","18","17:00","-24.4","","-28.4","","70","","","","24","","8","","24.1","","101.41","","","","-31","","Mainly Clear"
"-115.14","67.82","KUGLUKTUK A","2300903","2020-02-18 18:00","2020","02","18","18:00","-26.2","","-30.3","","69","","","","22","","17","","24.1","","101.38","","","","-37","","NA"
"-115.14","67.82","KUGLUKTUK A","2300903","2020-02-18 19:00","2020","02","18","19:00","-24.5","","-29.1","","66","","","","24","","25","","24.1","","101.32","","","","-37","","NA"
"-115.14","67.82","KUGLUKTUK A","2300903","2020-02-18 20:00","2020","02","18","20:00","-24.0","","-28.4","","68","","","","24","","22","","24.1","","101.30","","","","-36","","Mostly Cloudy"
"-115.14","67.82","KUGLUKTUK A","2300903","2020-02-18 21:00","2020","02","18","21:00","-25.4","","-29.3","","70","","","","21","","11","","24.1","","101.22","","","","-34","","NA"
"-115.14","67.82","KUGLUKTUK A","2300903","2020-02-18 22:00","2020","02","18","22:00","-25.1","","-29.3","","69","","","","22","","21","","24.1","","101.13","","","","-37","","NA"
"-115.14","67.82","KUGLUKTUK A","2300903","2020-02-18 23:00","2020","02","18","23:00","-24.1","","-28.7","","66","","","","23","","18","","24.1","","101.08","","","","-35","","Mainly Clear"
"-115.14","67.82","KUGLUKTUK A","2300903","2020-02-19 00:00","2020","02","19","00:00","-24.6","","-29.1","","67","","","","24","","19","","24.1","","101.04","","","","-36","","NA"
"-115.14","67.82","KUGLUKTUK A","2300903","2020-02-19 01:00","2020","02","19","01:00","-23.9","","-28.5","","67","","","","21","","10","","24.1","","101.00","","","","-32","","NA"
"-115.14","67.82","KUGLUKTUK A","2300903","2020-02-19 02:00","2020","02","19","02:00","-22.9","","-27.5","","67","","","","22","","13","","24.1","","100.93","","","","-32","","Mostly Cloudy"
"-115.14","67.82","KUGLUKTUK A","2300903","2020-02-19 03:00","2020","02","19","03:00","-21.1","","-25.8","","67","","","","23","","15","","24.1","","100.88","","","","-30","","NA"
"-115.14","67.82","KUGLUKTUK A","2300903","2020-02-19 04:00","2020","02","19","04:00","-19.9","","-24.8","","66","","","","23","","16","","24.1","","100.81","","","","-29","","NA"
"-115.14","67.82","KUGLUKTUK A","2300903","2020-02-19 05:00","2020","02","19","05:00","-21.6","","-25.7","","70","","","","27","","6","","24.1","","100.77","","","","-27","","Cloudy"
"-115.14","67.82","KUGLUKTUK A","2300903","2020-02-19 06:00","2020","02","19","06:00","-20.2","","-24.9","","67","","","","25","","9","","24.1","","100.72","","","","-27","","NA"
"-115.14","67.82","KUGLUKTUK A","2300903","2020-02-19 07:00","2020","02","19","07:00","-21.6","","-25.5","","71","","","","11","","11","","24.1","","100.65","","","","-30","","NA"
"-115.14","67.82","KUGLUKTUK A","2300903","2020-02-19 08:00","2020","02","19","08:00","-20.6","","-25.0","","68","","","","9","","12","","24.1","","100.58","","","","-29","","Mostly Cloudy"
"-115.14","67.82","KUGLUKTUK A","2300903","2020-02-19 09:00","2020","02","19","09:00","-20.4","","-24.8","","68","","","","9","","10","","24.1","","100.52","","","","-28","","NA"
"-115.14","67.82","KUGLUKTUK A","2300903","2020-02-19 10:00","2020","02","19","10:00","-20.1","","-23.1","","77","","","","2","","9","","24.1","","100.44","","","","-27","","NA"
"-115.14","67.82","KUGLUKTUK A","2300903","2020-02-19 11:00","2020","02","19","11:00","-18.8","","-22.2","","75","","","","8","","5","","24.1","","100.32","","","","-23","","Cloudy"
"-115.14","67.82","KUGLUKTUK A","2300903","2020-02-19 12:00","2020","02","19","12:00","-18.3","","-21.6","","76","","","","36","","2","","24.1","","100.29","","","","-20","","NA"
"-115.14","67.82","KUGLUKTUK A","2300903","2020-02-19 13:00","2020","02","19","13:00","-17.8","","-21.2","","75","","","","9","","6","","24.1","","100.21","","","","-22","","NA"
"-115.14","67.82","KUGLUKTUK A","2300903","2020-02-19 14:00","2020","02","19","14:00","-17.8","","-21.0","","77","","","","10","","9","","24.1","","100.11","","","","-24","","Cloudy"
"-115.14","67.82","KUGLUKTUK A","2300903","2020-02-19 15:00","2020","02","19","15:00","-17.0","","-20.2","","77","","","","10","","9","","24.1","","100.03","","","","-23","","NA"
"-115.14","67.82","KUGLUKTUK A","2300903","2020-02-19 16:00","2020","02","19","16:00","-16.7","","-19.5","","79","","","","8","","16","","24.1","","99.93","","","","-25","","NA"
"-115.14","67.82","KUGLUKTUK A","2300903","2020-02-19 17:00","2020","02","19","17:00","-17.1","","-19.9","","79","","","","7","","21","","24.1","","99.80","","","","-27","","Cloudy"
"-115.14","67.82","KUGLUKTUK A","2300903","2020-02-19 18:00","2020","02","19","18:00","-17.5","","-20.2","","80","","","","7","","24","","24.1","","99.65","","","","-28","","NA"
"-115.14","67.82","KUGLUKTUK A","2300903","2020-02-19 19:00","2020","02","19","19:00","-16.6","","-19.2","","81","","","","8","","23","","24.1","","99.53","","","","-27","","NA"
"-115.14","67.82","KUGLUKTUK A","2300903","2020-02-19 20:00","2020","02","19","20:00","-16.7","","-19.3","","81","","","","8","","25","","24.1","","99.40","","","","-27","","Cloudy"
"-115.14","67.82","KUGLUKTUK A","2300903","2020-02-19 21:00","2020","02","19","21:00","-17.0","","-19.4","","82","","","","9","","24","","24.1","","99.29","","","","-28","","NA"
"-115.14","67.82","KUGLUKTUK A","2300903","2020-02-19 22:00","2020","02","19","22:00","-15.1","","-18.9","","73","","","","15","","10","","24.1","","99.16","","","","-21","","NA"
"-115.14","67.82","KUGLUKTUK A","2300903","2020-02-19 23:00","2020","02","19","23:00","-16.1","","-19.9","","73","","","","13","","10","","24.1","","99.00","","","","-23","","Cloudy"
"-115.14","67.82","KUGLUKTUK A","2300903","2020-02-20 00:00","2020","02","20","00:00","-15.8","","-19.9","","71","","","","15","","12","","24.1","","98.86","","","","-23","","NA"
"-115.14","67.82","KUGLUKTUK A","2300903","2020-02-20 01:00","2020","02","20","01:00","-15.4","","-19.3","","73","","","","12","","8","","24.1","","98.75","","","","-21","","NA"
"-115.14","67.82","KUGLUKTUK A","2300903","2020-02-20 02:00","2020","02","20","02:00","-15.3","","-18.9","","75","","","","1","","4","","24.1","","98.65","","","","-18","","Cloudy"
"-115.14","67.82","KUGLUKTUK A","2300903","2020-02-20 03:00","2020","02","20","03:00","-15.0","","-18.5","","75","","","","28","","7","","24.1","","98.58","","","","-20","","NA"
"-115.14","67.82","KUGLUKTUK A","2300903","2020-02-20 04:00","2020","02","20","04:00","-15.4","","-18.2","","79","","","","26","","16","","24.1","","98.50","","","","-24","","NA"
"-115.14","67.82","KUGLUKTUK A","2300903","2020-02-20 05:00","2020","02","20","05:00","-16.9","","-19.1","","83","","","","32","","20","","24.1","","98.40","","","","-27","","Snow"
"-115.14","67.82","KUGLUKTUK A","2300903","2020-02-20 06:00","2020","02","20","06:00","-16.8","","-19.0","","84","","","","33","","19","","19.3","","98.38","","","","-26","","Snow"
"-115.14","67.82","KUGLUKTUK A","2300903","2020-02-20 07:00","2020","02","20","07:00","-17.0","","-19.1","","83","","","","34","","24","","12.9","","98.32","","","","-28","","Snow,Blowing Snow"
"-115.14","67.82","KUGLUKTUK A","2300903","2020-02-20 08:00","2020","02","20","08:00","-18.0","","-20.2","","83","","","","33","","17","","16.1","","98.31","","","","-27","","Ice Crystals"
"-115.14","67.82","KUGLUKTUK A","2300903","2020-02-20 09:00","2020","02","20","09:00","-18.3","","-20.6","","82","","","","34","","23","","6.4","","98.38","","","","-29","","Fog"
"-115.14","67.82","KUGLUKTUK A","2300903","2020-02-20 10:00","2020","02","20","10:00","-19.2","","-21.7","","81","","","","1","","22","","3.6","","98.46","","","","-30","","Snow Grains,Fog"
"-115.14","67.82","KUGLUKTUK A","2300903","2020-02-20 11:00","2020","02","20","11:00","-21.1","","-23.8","","79","","","","36","","35","","2.8","","98.59","","","","-35","","Snow Grains,Fog,Blowing Snow"
"-115.14","67.82","KUGLUKTUK A","2300903","2020-02-20 12:00","2020","02","20","12:00","-21.4","","-24.4","","77","","","","1","","30","","4.8","","98.71","","","","-34","","Snow,Blowing Snow"
"-115.14","67.82","KUGLUKTUK A","2300903","2020-02-20 13:00","2020","02","20","13:00","-21.7","","-24.8","","76","","","","2","","28","","6.4","","98.83","","","","-34","","Snow,Blowing Snow"
"-115.14","67.82","KUGLUKTUK A","2300903","2020-02-20 14:00","2020","02","20","14:00","-22.1","","-25.2","","76","","","","2","","27","","12.9","","98.99","","","","-35","","Ice Crystals,Blowing Snow"
"-115.14","67.82","KUGLUKTUK A","2300903","2020-02-20 15:00","2020","02","20","15:00","-22.5","","-25.7","","76","","","","1","","27","","8.1","","99.14","","","","-35","","Ice Crystals,Blowing Snow"
"-115.14","67.82","KUGLUKTUK A","2300903","2020-02-20 16:00","2020","02","20","16:00","-23.4","","-26.6","","75","","","","2","","18","","8.1","","99.31","","","","-34","","Ice Crystals,Blowing Snow"
"-115.14","67.82","KUGLUKTUK A","2300903","2020-02-20 17:00","2020","02","20","17:00","-23.3","","-26.4","","77","","","","2","","17","","12.9","","99.45","","","","-34","","Ice Crystals"
"-115.14","67.82","KUGLUKTUK A","2300903","2020-02-20 18:00","2020","02","20","18:00","-23.8","","-27.0","","75","","","","4","","16","","16.1","","99.52","","","","-34","","Ice Crystals"
"-115.14","67.82","KUGLUKTUK A","2300903","2020-02-20 19:00","2020","02","20","19:00","-24.9","","-27.9","","76","","","","5","","12","","24.1","","99.60","","","","-34","","Ice Crystals"
"-115.14","67.82","KUGLUKTUK A","2300903","2020-02-20 20:00","2020","02","20","20:00","-26.2","","-29.3","","76","","","","3","","9","","24.1","","99.70","","","","-34","","Ice Crystals"
"-115.14","67.82","KUGLUKTUK A","2300903","2020-02-20 21:00","2020","02","20","21:00","-27.2","","-29.9","","78","","","","4","","9","","24.1","","99.83","","","","-35","","Ice Crystals"
"-115.14","67.82","KUGLUKTUK A","2300903","2020-02-20 22:00","2020","02","20","22:00","-26.9","","-29.9","","76","","","","8","","7","","24.1","","99.85","","","","-34","","Ice Crystals"
"-115.14","67.82","KUGLUKTUK A","2300903","2020-02-20 23:00","2020","02","20","23:00","-27.6","","-30.4","","77","","","","10","","4","","24.1","","99.90","","","","-32","","Ice Crystals"
"-115.14","67.82","KUGLUKTUK A","2300903","2020-02-21 00:00","2020","02","21","00:00","-28.3","","-31.2","","76","","","","7","","4","","24.1","","99.95","","","","-33","","Ice Crystals"
"-115.14","67.82","KUGLUKTUK A","2300903","2020-02-21 01:00","2020","02","21","01:00","-29.5","","-32.5","","76","","","","11","","10","","24.1","","99.98","","","","-39","","Ice Crystals"
"-115.14","67.82","KUGLUKTUK A","2300903","2020-02-21 02:00","2020","02","21","02:00","-30.1","","-32.9","","77","","","","12","","7","","24.1","","100.01","","","","-37","","Ice Crystals"
"-115.14","67.82","KUGLUKTUK A","2300903","2020-02-21 03:00","2020","02","21","03:00","-30.1","","-33.1","","75","","","","11","","14","","24.1","","100.02","","","","-41","","Ice Crystals"
"-115.14","67.82","KUGLUKTUK A","2300903","2020-02-21 04:00","2020","02","21","04:00","-29.7","","-32.7","","76","","","","10","","14","","24.1","","100.03","","","","-41","","Ice Crystals"
"-115.14","67.82","KUGLUKTUK A","2300903","2020-02-21 05:00","2020","02","21","05:00","-29.9","","-33.0","","75","","","","8","","16","","24.1","","100.00","","","","-42","","Ice Crystals"
"-115.14","67.82","KUGLUKTUK A","2300903","2020-02-21 06:00","2020","02","21","06:00","-30.6","","-33.8","","74","","","","8","","15","","24.1","","100.00","","","","-42","","Ice Crystals"
"-115.14","67.82","KUGLUKTUK A","2300903","2020-02-21 07:00","2020","02","21","07:00","-30.4","","-33.7","","74","","","","9","","19","","24.1","","100.00","","","","-43","","Ice Crystals"
"-115.14","67.82","KUGLUKTUK A","2300903","2020-02-21 08:00","2020","02","21","08:00","-29.9","","-33.1","","74","","","","10","","21","","24.1","","99.99","","","","-43","","Mostly Cloudy"
"-115.14","67.82","KUGLUKTUK A","2300903","2020-02-21 09:00","2020","02","21","09:00","-29.3","","-32.6","","74","","","","9","","26","","24.1","","99.94","","","","-44","","Blowing Snow"
"-115.14","67.82","KUGLUKTUK A","2300903","2020-02-21 10:00","2020","02","21","10:00","-29.8","","-33.0","","74","","","","9","","26","","32.2","","99.95","","","","-44","","Blowing Snow"
"-115.14","67.82","KUGLUKTUK A","2300903","2020-02-21 11:00","2020","02","21","11:00","-29.2","","-32.5","","74","","","","9","","25","","24.1","","99.96","","","","-43","","Blowing Snow"
"-115.14","67.82","KUGLUKTUK A","2300903","2020-02-21 12:00","2020","02","21","12:00","-28.4","","-31.8","","73","","","","9","","22","","24.1","","99.97","","","","-42","","Blowing Snow"
"-115.14","67.82","KUGLUKTUK A","2300903","2020-02-21 13:00","2020","02","21","13:00","-27.8","","-31.2","","73","","","","9","","22","","24.1","","99.98","","","","-41","","Blowing Snow"
"-115.14","67.82","KUGLUKTUK A","2300903","2020-02-21 14:00","2020","02","21","14:00","-27.1","","-30.6","","73","","","","9","","15","","24.1","","99.98","","","","-38","","Blowing Snow"
"-115.14","67.82","KUGLUKTUK A","2300903","2020-02-21 15:00","2020","02","21","15:00","-26.5","","-29.9","","73","","","","9","","27","","24.1","","99.96","","","","-40","","Blowing Snow"
"-115.14","67.82","KUGLUKTUK A","2300903","2020-02-21 16:00","2020","02","21","16:00","-26.7","","-30.0","","74","","","","9","","29","","24.1","","99.94","","","","-41","","Blowing Snow"
"-115.14","67.82","KUGLUKTUK A","2300903","2020-02-21 17:00","2020","02","21","17:00","-26.7","","-30.0","","74","","","","9","","28","","24.1","","99.96","","","","-41","","Blowing Snow"
"-115.14","67.82","KUGLUKTUK A","2300903","2020-02-21 18:00","2020","02","21","18:00","-27.1","","-30.4","","74","","","","9","","31","","24.1","","99.97","","","","-42","","Blowing Snow"
"-115.14","67.82","KUGLUKTUK A","2300903","2020-02-21 19:00","2020","02","21","19:00","-26.5","","-30.0","","73","","","","9","","30","","24.1","","99.99","","","","-41","","Blowing Snow"
"-115.14","67.82","KUGLUKTUK A","2300903","2020-02-21 20:00","2020","02","21","20:00","-26.4","","-29.9","","73","","","","9","","28","","24.1","","100.02","","","","-41","","Blowing Snow"
"-115.14","67.82","KUGLUKTUK A","2300903","2020-02-21 21:00","2020","02","21","21:00","-26.7","","-30.1","","74","","","","9","","29","","24.1","","100.03","","","","-41","","Ice Crystals,Blowing Snow"
"-115.14","67.82","KUGLUKTUK A","2300903","2020-02-21 22:00","2020","02","21","22:00","-26.9","","-30.4","","73","","","","9","","23","","24.1","","100.07","","","","-40","","Ice Crystals,Blowing Snow"
"-115.14","67.82","KUGLUKTUK A","2300903","2020-02-21 23:00","2020","02","21","23:00","-26.9","","-30.3","","73","","","","7","","17","","24.1","","100.12","","","","-38","","Ice Crystals,Blowing Snow"
"-115.14","67.82","KUGLUKTUK A","2300903","2020-02-22 00:00","2020","02","22","00:00","-27.3","","-30.8","","73","","","","9","","27","","24.1","","100.12","","","","-41","","Ice Crystals,Blowing Snow"
"-115.14","67.82","KUGLUKTUK A","2300903","2020-02-22 01:00","2020","02","22","01:00","-27.5","","-31.0","","73","","","","10","","25","","24.1","","100.14","","","","-41","","Ice Crystals,Blowing Snow"
"-115.14","67.82","KUGLUKTUK A","2300903","2020-02-22 02:00","2020","02","22","02:00","-28.5","","-31.9","","73","","","","9","","24","","24.1","","100.20","","","","-42","","Ice Crystals,Blowing Snow"
"-115.14","67.82","KUGLUKTUK A","2300903","2020-02-22 03:00","2020","02","22","03:00","-28.4","","-31.8","","73","","","","10","","23","","24.1","","100.25","","","","-42","","Blowing Snow"
"-115.14","67.82","KUGLUKTUK A","2300903","2020-02-22 04:00","2020","02","22","04:00","-28.9","","-32.2","","73","","","","10","","22","","24.1","","100.29","","","","-42","","Blowing Snow"
"-115.14","67.82","KUGLUKTUK A","2300903","2020-02-22 05:00","2020","02","22","05:00","-28.7","","-32.1","","73","","","","10","","20","","24.1","","100.34","","","","-41","","Blowing Snow"
"-115.14","67.82","KUGLUKTUK A","2300903","2020-02-22 06:00","2020","02","22","06:00","-28.7","","-32.1","","73","","","","10","","19","","24.1","","100.40","","","","-41","","Blowing Snow"
"-115.14","67.82","KUGLUKTUK A","2300903","2020-02-22 07:00","2020","02","22","07:00","-29.4","","-32.9","","73","","","","8","","17","","24.1","","100.47","","","","-41","","NA"
"-115.14","67.82","KUGLUKTUK A","2300903","2020-02-22 08:00","2020","02","22","08:00","-30.5","","-34.1","","71","","","","35","","4","","24.1","","100.54","","","","-35","","Clear"
"-115.14","67.82","KUGLUKTUK A","2300903","2020-02-22 09:00","2020","02","22","09:00","-31.0","","-34.5","","72","","","","2","","18","","24.1","","100.58","","","","-44","","NA"
"-115.14","67.82","KUGLUKTUK A","2300903","2020-02-22 10:00","2020","02","22","10:00","-31.4","","-34.8","","72","","","","3","","14","","24.1","","100.67","","","","-43","","NA"
"-115.14","67.82","KUGLUKTUK A","2300903","2020-02-22 11:00","2020","02","22","11:00","-31.0","","-34.6","","71","","","","3","","16","","24.1","","100.74","","","","-43","","Clear"
"-115.14","67.82","KUGLUKTUK A","2300903","2020-02-22 12:00","2020","02","22","12:00","-30.2","","-33.9","","71","","","","3","","10","","24.1","","100.78","","","","-39","","NA"
"-115.14","67.82","KUGLUKTUK A","2300903","2020-02-22 13:00","2020","02","22","13:00","-29.6","","-33.3","","71","","","","2","","9","","24.1","","100.84","","","","-38","","NA"
"-115.14","67.82","KUGLUKTUK A","2300903","2020-02-22 14:00","2020","02","22","14:00","-29.3","","-32.9","","72","","","","3","","11","","24.1","","100.91","","","","-39","","Clear"
"-115.14","67.82","KUGLUKTUK A","2300903","2020-02-22 15:00","2020","02","22","15:00","-29.2","","-32.8","","72","","","","2","","8","","24.1","","100.96","","","","-37","","NA"
"-115.14","67.82","KUGLUKTUK A","2300903","2020-02-22 16:00","2020","02","22","16:00","-29.1","","-32.6","","72","","","","4","","12","","24.1","","101.00","","","","-39","","NA"
"-115.14","67.82","KUGLUKTUK A","2300903","2020-02-22 17:00","2020","02","22","17:00","-29.9","","-33.3","","73","","","","3","","16","","24.1","","101.06","","","","-42","","Clear"
"-115.14","67.82","KUGLUKTUK A","2300903","2020-02-22 18:00","2020","02","22","18:00","-30.8","","-34.1","","73","","","","3","","14","","24.1","","101.12","","","","-42","","NA"
"-115.14","67.82","KUGLUKTUK A","2300903","2020-02-22 19:00","2020","02","22","19:00","-32.0","","-35.3","","73","","","","1","","10","","24.1","","101.17","","","","-42","","NA"
"-115.14","67.82","KUGLUKTUK A","2300903","2020-02-22 20:00","2020","02","22","20:00","-32.4","","-35.8","","72","","","","2","","12","","24.1","","101.22","","","","-43","","Clear"
"-115.14","67.82","KUGLUKTUK A","2300903","2020-02-22 21:00","2020","02","22","21:00","-32.3","","-35.7","","72","","","","2","","14","","24.1","","101.29","","","","-44","","NA"
"-115.14","67.82","KUGLUKTUK A","2300903","2020-02-22 22:00","2020","02","22","22:00","-33.0","","-36.4","","72","","","","1","","8","","24.1","","101.34","","","","-41","","NA"
"-115.14","67.82","KUGLUKTUK A","2300903","2020-02-22 23:00","2020","02","22","23:00","-32.6","","-36.0","","72","","","","4","","9","","24.1","","101.38","","","","-42","","Clear"
"-115.14","67.82","KUGLUKTUK A","2300903","2020-02-23 00:00","2020","02","23","00:00","-33.3","","-36.8","","72","","","","2","","9","","24.1","","101.45","","","","-43","","NA"
"-115.14","67.82","KUGLUKTUK A","2300903","2020-02-23 01:00","2020","02","23","01:00","-33.0","","-36.4","","72","","","","2","","9","","24.1","","101.51","","","","-42","","NA"
"-115.14","67.82","KUGLUKTUK A","2300903","2020-02-23 02:00","2020","02","23","02:00","-33.5","","-36.9","","72","","","","2","","8","","24.1","","101.55","","","","-42","","Clear"
"-115.14","67.82","KUGLUKTUK A","2300903","2020-02-23 03:00","2020","02","23","03:00","-33.2","","-36.6","","72","","","","2","","8","","24.1","","101.60","","","","-42","","NA"
"-115.14","67.82","KUGLUKTUK A","2300903","2020-02-23 04:00","2020","02","23","04:00","-33.5","","-36.9","","72","","","","2","","4","","24.1","","101.66","","","","-38","","NA"
"-115.14","67.82","KUGLUKTUK A","2300903","2020-02-23 05:00","2020","02","23","05:00","-34.3","","-37.6","","72","","","","29","","5","","24.1","","101.71","","","","-41","","Clear"
"-115.14","67.82","KUGLUKTUK A","2300903","2020-02-23 06:00","2020","02","23","06:00","-33.6","","-36.9","","73","","","","32","","4","","24.1","","101.75","","","","-38","","NA"
"-115.14","67.82","KUGLUKTUK A","2300903","2020-02-23 07:00","2020","02","23","07:00","-34.8","","-38.1","","73","","","","30","","5","","24.1","","101.81","","","","-41","","NA"
"-115.14","67.82","KUGLUKTUK A","2300903","2020-02-23 08:00","2020","02","23","08:00","-34.6","","-37.8","","73","","","","28","","6","","24.1","","101.87","","","","-42","","Clear"
"-115.14","67.82","KUGLUKTUK A","2300903","2020-02-23 09:00","2020","02","23","09:00","-35.6","","-38.7","","74","","","","36","","3","","24.1","","101.91","","","","-39","","NA"
"-115.14","67.82","KUGLUKTUK A","2300903","2020-02-23 10:00","2020","02","23","10:00","-34.1","","-37.4","","73","","","","29","","3","","24.1","","101.94","","","","-38","","NA"
"-115.14","67.82","KUGLUKTUK A","2300903","2020-02-23 11:00","2020","02","23","11:00","-35.2","","-38.7","","71","","","","24","","7","","24.1","","101.99","","","","-43","","Clear"
"-115.14","67.82","KUGLUKTUK A","2300903","2020-02-23 12:00","2020","02","23","12:00","-33.6","","-37.2","","71","","","","32","","3","","24.1","","102.04","","","","-37","","NA"
"-115.14","67.82","KUGLUKTUK A","2300903","2020-02-23 13:00","2020","02","23","13:00","-33.2","","-36.7","","72","","","","28","","8","","24.1","","102.09","","","","-42","","NA"
"-115.14","67.82","KUGLUKTUK A","2300903","2020-02-23 14:00","2020","02","23","14:00","-32.1","","-36.1","","69","","","","36","","2","","24.1","","102.13","","","","-34","","Clear"
"-115.14","67.82","KUGLUKTUK A","2300903","2020-02-23 15:00","2020","02","23","15:00","-32.5","","-36.3","","69","","","","29","","4","","24.1","","102.19","","","","-37","","NA"
"-115.14","67.82","KUGLUKTUK A","2300903","2020-02-23 16:00","2020","02","23","16:00","-33.3","","-36.9","","71","","","","29","","7","","24.1","","102.22","","","","-41","","NA"
"-115.14","67.82","KUGLUKTUK A","2300903","2020-02-23 17:00","2020","02","23","17:00","-34.2","","-37.7","","71","","","","26","","5","","24.1","","102.27","","","","-40","","Clear"
"-115.14","67.82","KUGLUKTUK A","2300903","2020-02-23 18:00","2020","02","23","18:00","-35.2","","-38.7","","71","","","","24","","8","","24.1","","102.29","","","","-44","","NA"
"-115.14","67.82","KUGLUKTUK A","2300903","2020-02-23 19:00","2020","02","23","19:00","-34.9","","-38.4","","72","","","","24","","9","","24.1","","102.32","","","","-44","","NA"
"-115.14","67.82","KUGLUKTUK A","2300903","2020-02-23 20:00","2020","02","23","20:00","-35.8","","-39.3","","71","","","","36","","1","","24.1","","102.37","","","","-37","","Clear"
"-115.14","67.82","KUGLUKTUK A","2300903","2020-02-23 21:00","2020","02","23","21:00","-36.3","","-39.8","","71","","","","36","","1","","24.1","","102.41","","","","-38","","NA"
"-115.14","67.82","KUGLUKTUK A","2300903","2020-02-23 22:00","2020","02","23","22:00","-35.5","","-39.0","","71","","","","25","","6","","24.1","","102.43","","","","-43","","NA"
"-115.14","67.82","KUGLUKTUK A","2300903","2020-02-23 23:00","2020","02","23","23:00","-35.4","","-39.0","","71","","","","22","","16","","24.1","","102.46","","","","-48","","Clear"
"-115.14","67.82","KUGLUKTUK A","2300903","2020-02-24 00:00","2020","02","24","00:00","-34.9","","-38.5","","70","","","","13","","5","","24.1","","102.50","","","","-41","","NA"
"-115.14","67.82","KUGLUKTUK A","2300903","2020-02-24 01:00","2020","02","24","01:00","-35.8","","-39.4","","70","","","","22","","17","","24.1","","102.59","","","","-49","","NA"
"-115.14","67.82","KUGLUKTUK A","2300903","2020-02-24 02:00","2020","02","24","02:00","-34.9","","-38.5","","70","","","","21","","19","","24.1","","102.61","","","","-49","","Clear"
"-115.14","67.82","KUGLUKTUK A","2300903","2020-02-24 03:00","2020","02","24","03:00","-33.9","","-37.6","","70","","","","24","","3","","24.1","","102.66","","","","-38","","NA"
"-115.14","67.82","KUGLUKTUK A","2300903","2020-02-24 04:00","2020","02","24","04:00","-34.0","","-37.6","","71","","","","36","","1","","24.1","","102.67","","","","-35","","NA"
"-115.14","67.82","KUGLUKTUK A","2300903","2020-02-24 05:00","2020","02","24","05:00","-34.2","","-37.8","","71","","","","36","","1","","24.1","","102.70","","","","-35","","Clear"
"-115.14","67.82","KUGLUKTUK A","2300903","2020-02-24 06:00","2020","02","24","06:00","-33.3","","-36.8","","71","","","","30","","7","","24.1","","102.75","","","","-41","","NA"
"-115.14","67.82","KUGLUKTUK A","2300903","2020-02-24 07:00","2020","02","24","07:00","-33.2","","-36.8","","71","","","","18","","5","","24.1","","102.75","","","","-39","","Ice Crystals"
"-115.14","67.82","KUGLUKTUK A","2300903","2020-02-24 08:00","2020","02","24","08:00","-33.6","","-37.3","","71","","","","1","","4","","24.1","","102.84","","","","-38","","Ice Crystals"
"-115.14","67.82","KUGLUKTUK A","2300903","2020-02-24 09:00","2020","02","24","09:00","-27.3","","-30.6","","74","","","","25","","8","","24.1","","102.87","","","","-35","","Ice Crystals"
"-115.14","67.82","KUGLUKTUK A","2300903","2020-02-24 10:00","2020","02","24","10:00","-23.3","","-26.6","","75","","","","23","","15","","19.3","","102.89","","","","-33","","Ice Crystals"
"-115.14","67.82","KUGLUKTUK A","2300903","2020-02-24 11:00","2020","02","24","11:00","-22.4","","-26.0","","73","","","","23","","21","","19.3","","102.93","","","","-34","","Ice Crystals"
"-115.14","67.82","KUGLUKTUK A","2300903","2020-02-24 12:00","2020","02","24","12:00","-21.6","","-25.8","","69","","","","22","","23","","19.3","","102.95","","","","-33","","Ice Crystals"
"-115.14","67.82","KUGLUKTUK A","2300903","2020-02-24 13:00","2020","02","24","13:00","-23.1","","-27.2","","70","","","","23","","21","","24.1","","103.02","","","","-35","","NA"
"-115.14","67.82","KUGLUKTUK A","2300903","2020-02-24 14:00","2020","02","24","14:00","-22.2","","-26.5","","69","","","","23","","24","","24.1","","103.10","","","","-34","","Mostly Cloudy"
"-115.14","67.82","KUGLUKTUK A","2300903","2020-02-24 15:00","2020","02","24","15:00","-22.9","","-26.8","","71","","","","23","","20","","24.1","","103.13","","","","-34","","NA"
"-115.14","67.82","KUGLUKTUK A","2300903","2020-02-24 16:00","2020","02","24","16:00","-21.6","","-25.4","","72","","","","22","","18","","24.1","","103.19","","","","-32","","NA"
"-115.14","67.82","KUGLUKTUK A","2300903","2020-02-24 17:00","2020","02","24","17:00","-21.3","","-25.2","","72","","","","22","","17","","24.1","","103.23","","","","-31","","Mostly Cloudy"
"-115.14","67.82","KUGLUKTUK A","2300903","2020-02-24 18:00","2020","02","24","18:00","-21.3","","-25.1","","72","","","","20","","14","","24.1","","103.25","","","","-30","","NA"
"-115.14","67.82","KUGLUKTUK A","2300903","2020-02-24 19:00","2020","02","24","19:00","-21.7","","-25.5","","72","","","","21","","15","","24.1","","103.27","","","","-31","","Snow"
"-115.14","67.82","KUGLUKTUK A","2300903","2020-02-24 20:00","2020","02","24","20:00","-21.7","","-25.8","","70","","","","21","","12","","24.1","","103.27","","","","-30","","Snow"
"-115.14","67.82","KUGLUKTUK A","2300903","2020-02-24 21:00","2020","02","24","21:00","-21.8","","-25.9","","70","","","","19","","14","","24.1","","103.29","","","","-31","","Snow"
"-115.14","67.82","KUGLUKTUK A","2300903","2020-02-24 22:00","2020","02","24","22:00","-22.1","","-26.0","","71","","","","20","","14","","24.1","","103.29","","","","-31","","Snow"
"-115.14","67.82","KUGLUKTUK A","2300903","2020-02-24 23:00","2020","02","24","23:00","-21.9","","-25.7","","72","","","","20","","13","","24.1","","103.28","","","","-31","","Snow"
"-115.14","67.82","KUGLUKTUK A","2300903","2020-02-25 00:00","2020","02","25","00:00","-21.6","","-25.5","","71","","","","33","","3","","24.1","","103.30","","","","-24","","Snow"
"-115.14","67.82","KUGLUKTUK A","2300903","2020-02-25 01:00","2020","02","25","01:00","-21.3","","-25.4","","70","","","","30","","3","","19.3","","103.29","","","","-24","","Snow"
"-115.14","67.82","KUGLUKTUK A","2300903","2020-02-25 02:00","2020","02","25","02:00","-21.4","","-25.2","","72","","","","1","","3","","19.3","","103.26","","","","-24","","Snow"
"-115.14","67.82","KUGLUKTUK A","2300903","2020-02-25 03:00","2020","02","25","03:00","-21.1","","-24.6","","74","","","","5","","7","","16.1","","103.24","","","","-27","","Snow"
"-115.14","67.82","KUGLUKTUK A","2300903","2020-02-25 04:00","2020","02","25","04:00","-20.8","","-23.9","","76","","","","6","","5","","12.9","","103.23","","","","-25","","Snow"
"-115.14","67.82","KUGLUKTUK A","2300903","2020-02-25 05:00","2020","02","25","05:00","-20.9","","-23.6","","79","","","","5","","5","","16.1","","103.18","","","","-25","","Snow"
"-115.14","67.82","KUGLUKTUK A","2300903","2020-02-25 06:00","2020","02","25","06:00","-21.0","","-23.7","","79","","","","6","","9","","12.9","","103.13","","","","-28","","Snow"
"-115.14","67.82","KUGLUKTUK A","2300903","2020-02-25 07:00","2020","02","25","07:00","-21.4","","-24.0","","80","","","","7","","8","","12.9","","103.07","","","","-28","","Snow"
"-115.14","67.82","KUGLUKTUK A","2300903","2020-02-25 08:00","2020","02","25","08:00","-21.3","","-23.8","","80","","","","5","","5","","12.9","","103.03","","","","-26","","Snow"
"-115.14","67.82","KUGLUKTUK A","2300903","2020-02-25 09:00","2020","02","25","09:00","-21.4","","-24.1","","80","","","","2","","3","","12.9","","102.99","","","","-24","","Snow"
"-115.14","67.82","KUGLUKTUK A","2300903","2020-02-25 10:00","2020","02","25","10:00","-21.4","","-24.1","","80","","","","1","","3","","12.9","","102.93","","","","-24","","Snow"
"-115.14","67.82","KUGLUKTUK A","2300903","2020-02-25 11:00","2020","02","25","11:00","-21.0","","-23.8","","79","","","","4","","5","","8.1","","102.87","","","","-25","","Snow"
"-115.14","67.82","KUGLUKTUK A","2300903","2020-02-25 12:00","2020","02","25","12:00","-21.2","","-23.9","","79","","","","3","","8","","16.1","","102.81","","","","-28","","Snow"
"-115.14","67.82","KUGLUKTUK A","2300903","2020-02-25 13:00","2020","02","25","13:00","-21.1","","-24.0","","78","","","","2","","8","","16.1","","102.76","","","","-28","","Snow"
"-115.14","67.82","KUGLUKTUK A","2300903","2020-02-25 14:00","2020","02","25","14:00","-22.0","","-24.7","","79","","","","2","","8","","19.3","","102.74","","","","-29","","Snow"
"-115.14","67.82","KUGLUKTUK A","2300903","2020-02-25 15:00","2020","02","25","15:00","-22.0","","-24.8","","78","","","","1","","10","","19.3","","102.70","","","","-30","","Ice Crystals"
"-115.14","67.82","KUGLUKTUK A","2300903","2020-02-25 16:00","2020","02","25","16:00","-23.3","","-26.2","","78","","","","30","","5","","19.3","","102.66","","","","-28","","Ice Crystals"
"-115.14","67.82","KUGLUKTUK A","2300903","2020-02-25 17:00","2020","02","25","17:00","-23.7","","-26.4","","79","","","","36","","5","","19.3","","102.60","","","","-28","","Ice Crystals"
"-115.14","67.82","KUGLUKTUK A","2300903","2020-02-25 18:00","2020","02","25","18:00","-24.9","","-27.3","","81","","","","17","","4","","19.3","","102.55","","","","-29","","Ice Crystals"
"-115.14","67.82","KUGLUKTUK A","2300903","2020-02-25 19:00","2020","02","25","19:00","-25.4","","-27.9","","80","","","","36","","3","","19.3","","102.48","","","","-28","","Ice Crystals"
"-115.14","67.82","KUGLUKTUK A","2300903","2020-02-25 20:00","2020","02","25","20:00","-26.0","","-28.4","","81","","","","36","","2","","24.1","","102.44","","","","-28","","Mainly Clear"
"-115.14","67.82","KUGLUKTUK A","2300903","2020-02-25 21:00","2020","02","25","21:00","-27.5","","-30.2","","78","","","","21","","11","","24.1","","102.40","","","","-37","","NA"
"-115.14","67.82","KUGLUKTUK A","2300903","2020-02-25 22:00","2020","02","25","22:00","-29.7","","-32.8","","75","","","","22","","15","","24.1","","102.35","","","","-41","","NA"
"-115.14","67.82","KUGLUKTUK A","2300903","2020-02-25 23:00","2020","02","25","23:00","-29.9","","-33.1","","75","","","","22","","16","","24.1","","102.29","","","","-42","","Mainly Clear"
"-115.14","67.82","KUGLUKTUK A","2300903","2020-02-26 00:00","2020","02","26","00:00","-28.9","","-32.1","","75","","","","21","","17","","19.3","","102.24","","","","-41","","Snow"
"-115.14","67.82","KUGLUKTUK A","2300903","2020-02-26 01:00","2020","02","26","01:00","-29.5","","-32.8","","74","","","","22","","17","","19.3","","102.21","","","","-42","","Snow"
"-115.14","67.82","KUGLUKTUK A","2300903","2020-02-26 02:00","2020","02","26","02:00","-29.5","","-32.7","","74","","","","23","","19","","24.1","","102.17","","","","-42","","Ice Crystals"
"-115.14","67.82","KUGLUKTUK A","2300903","2020-02-26 03:00","2020","02","26","03:00","-29.5","","-32.7","","74","","","","22","","18","","24.1","","102.17","","","","-42","","Ice Crystals"
"-115.14","67.82","KUGLUKTUK A","2300903","2020-02-26 04:00","2020","02","26","04:00","-30.1","","-33.4","","74","","","","22","","9","","24.1","","102.11","","","","-39","","Ice Crystals"
"-115.14","67.82","KUGLUKTUK A","2300903","2020-02-26 05:00","2020","02","26","05:00","-29.1","","-32.2","","75","","","","18","","8","","24.1","","102.11","","","","-37","","Ice Crystals"
"-115.14","67.82","KUGLUKTUK A","2300903","2020-02-26 06:00","2020","02","26","06:00","-28.4","","-31.5","","75","","","","23","","4","","24.1","","102.06","","","","-33","","Ice Crystals"
"-115.14","67.82","KUGLUKTUK A","2300903","2020-02-26 07:00","2020","02","26","07:00","-27.8","","-31.0","","75","","","","18","","7","","19.3","","102.02","","","","-35","","Ice Crystals"
"-115.14","67.82","KUGLUKTUK A","2300903","2020-02-26 08:00","2020","02","26","08:00","-29.9","","-33.2","","74","","","","32","","5","","19.3","","102.00","","","","-36","","Ice Crystals"
"-115.14","67.82","KUGLUKTUK A","2300903","2020-02-26 09:00","2020","02","26","09:00","-30.6","","-33.9","","73","","","","13","","7","","19.3","","101.96","","","","-38","","Ice Crystals"
"-115.14","67.82","KUGLUKTUK A","2300903","2020-02-26 10:00","2020","02","26","10:00","-29.8","","-33.1","","74","","","","36","","1","","24.1","","101.91","","","","-31","","Ice Crystals"
"-115.14","67.82","KUGLUKTUK A","2300903","2020-02-26 11:00","2020","02","26","11:00","-29.5","","-32.7","","74","","","","14","","3","","24.1","","101.87","","","","-33","","Ice Crystals"
"-115.14","67.82","KUGLUKTUK A","2300903","2020-02-26 12:00","2020","02","26","12:00","-29.0","","-32.2","","74","","","","25","","5","","24.1","","101.88","","","","-34","","Ice Crystals"
"-115.14","67.82","KUGLUKTUK A","2300903","2020-02-26 13:00","2020","02","26","13:00","-28.5","","-31.7","","75","","","","26","","4","","24.1","","101.88","","","","-33","","Ice Crystals"
"-115.14","67.82","KUGLUKTUK A","2300903","2020-02-26 14:00","2020","02","26","14:00","-28.7","","-32.0","","74","","","","23","","13","","24.1","","101.83","","","","-39","","Ice Crystals"
"-115.14","67.82","KUGLUKTUK A","2300903","2020-02-26 15:00","2020","02","26","15:00","-27.8","","-31.1","","74","","","","21","","7","","24.1","","101.81","","","","-35","","Ice Crystals"
"-115.14","67.82","KUGLUKTUK A","2300903","2020-02-26 16:00","2020","02","26","16:00","-31.1","","-34.6","","72","","","","35","","4","","24.1","","101.79","","","","-36","","Ice Crystals"
"-115.14","67.82","KUGLUKTUK A","2300903","2020-02-26 17:00","2020","02","26","17:00","-29.7","","-33.0","","73","","","","36","","3","","19.3","","101.73","","","","-33","","Ice Crystals"
"-115.14","67.82","KUGLUKTUK A","2300903","2020-02-26 18:00","2020","02","26","18:00","-30.3","","-33.5","","74","","","","23","","5","","24.1","","101.74","","","","-36","","Ice Crystals"
"-115.14","67.82","KUGLUKTUK A","2300903","2020-02-26 19:00","2020","02","26","19:00","-31.6","","-35.0","","73","","","","21","","12","","24.1","","101.70","","","","-42","","NA"
"-115.14","67.82","KUGLUKTUK A","2300903","2020-02-26 20:00","2020","02","26","20:00","-30.6","","-33.9","","73","","","","24","","10","","24.1","","101.68","","","","-40","","Clear"
"-115.14","67.82","KUGLUKTUK A","2300903","2020-02-26 21:00","2020","02","26","21:00","-31.6","","-35.0","","73","","","","19","","7","","24.1","","101.64","","","","-39","","NA"
"-115.14","67.82","KUGLUKTUK A","2300903","2020-02-26 22:00","2020","02","26","22:00","-30.6","","-33.9","","74","","","","22","","3","","24.1","","101.57","","","","-34","","NA"
"-115.14","67.82","KUGLUKTUK A","2300903","2020-02-26 23:00","2020","02","26","23:00","-31.5","","-34.8","","73","","","","36","","1","","24.1","","101.56","","","","-33","","Clear"
"-115.14","67.82","KUGLUKTUK A","2300903","2020-02-27 00:00","2020","02","27","00:00","-31.2","","-34.6","","73","","","","36","","3","","24.1","","101.55","","","","-35","","NA"
"-115.14","67.82","KUGLUKTUK A","2300903","2020-02-27 01:00","2020","02","27","01:00","-30.7","","-33.9","","74","","","","36","","2","","24.1","","101.53","","","","-33","","NA"
"-115.14","67.82","KUGLUKTUK A","2300903","2020-02-27 02:00","2020","02","27","02:00","-33.3","","-36.7","","72","","","","18","","8","","24.1","","101.51","","","","-42","","Clear"
"-115.14","67.82","KUGLUKTUK A","2300903","2020-02-27 03:00","2020","02","27","03:00","-32.9","","-36.3","","72","","","","17","","6","","24.1","","101.48","","","","-40","","NA"
"-115.14","67.82","KUGLUKTUK A","2300903","2020-02-27 04:00","2020","02","27","04:00","-34.0","","-37.5","","71","","","","35","","3","","24.1","","101.44","","","","-38","","NA"
"-115.14","67.82","KUGLUKTUK A","2300903","2020-02-27 05:00","2020","02","27","05:00","-34.1","","-37.7","","71","","","","31","","7","","24.1","","101.45","","","","-42","","Clear"
"-115.14","67.82","KUGLUKTUK A","2300903","2020-02-27 06:00","2020","02","27","06:00","-34.2","","-37.8","","71","","","","22","","4","","24.1","","101.42","","","","-39","","NA"
"-115.14","67.82","KUGLUKTUK A","2300903","2020-02-27 07:00","2020","02","27","07:00","-33.1","","-36.6","","71","","","","22","","5","","24.1","","101.41","","","","-39","","NA"
"-115.14","67.82","KUGLUKTUK A","2300903","2020-02-27 08:00","2020","02","27","08:00","-31.9","","-35.4","","72","","","","27","","5","","24.1","","101.43","","","","-38","","Mostly Cloudy"
"-115.14","67.82","KUGLUKTUK A","2300903","2020-02-27 09:00","2020","02","27","09:00","-30.7","","-34.1","","73","","","","24","","7","","24.1","","101.43","","","","-38","","NA"
"-115.14","67.82","KUGLUKTUK A","2300903","2020-02-27 10:00","2020","02","27","10:00","-29.2","","-32.6","","74","","","","23","","13","","6.4","","101.44","","","","-40","","Snow"
"-115.14","67.82","KUGLUKTUK A","2300903","2020-02-27 11:00","2020","02","27","11:00","-28.4","","-31.6","","74","","","","22","","14","","19.3","","101.43","","","","-39","","Snow"
"-115.14","67.82","KUGLUKTUK A","2300903","2020-02-27 12:00","2020","02","27","12:00","-27.4","","-30.6","","75","","","","29","","11","","6.4","","101.45","","","","-37","","Snow"
"-115.14","67.82","KUGLUKTUK A","2300903","2020-02-27 13:00","2020","02","27","13:00","-27.7","","-30.9","","75","","","","28","","11","","3.2","","101.46","","","","-37","","Snow"
"-115.14","67.82","KUGLUKTUK A","2300903","2020-02-27 14:00","2020","02","27","14:00","-27.3","","-30.4","","75","","","","26","","5","","4.8","","101.48","","","","-33","","Snow"
"-115.14","67.82","KUGLUKTUK A","2300903","2020-02-27 15:00","2020","02","27","15:00","-27.3","","-30.5","","75","","","","36","","7","","6.4","","101.50","","","","-34","","Snow"
"-115.14","67.82","KUGLUKTUK A","2300903","2020-02-27 16:00","2020","02","27","16:00","-28.0","","-31.3","","74","","","","2","","17","","16.1","","101.50","","","","-40","","Snow"
"-115.14","67.82","KUGLUKTUK A","2300903","2020-02-27 17:00","2020","02","27","17:00","-29.0","","-32.3","","74","","","","3","","14","","16.1","","101.55","","","","-40","","Ice Crystals"
"-115.14","67.82","KUGLUKTUK A","2300903","2020-02-27 18:00","2020","02","27","18:00","-29.4","","-32.7","","74","","","","2","","12","","9.7","","101.59","","","","-39","","Ice Crystals"
"-115.14","67.82","KUGLUKTUK A","2300903","2020-02-27 19:00","2020","02","27","19:00","-28.6","","-31.9","","74","","","","3","","7","","4.8","","101.62","","","","-36","","Ice Crystals"
"-115.14","67.82","KUGLUKTUK A","2300903","2020-02-27 20:00","2020","02","27","20:00","-27.8","","-30.9","","75","","","","36","","21","","16.1","","101.67","","","","-41","","Ice Crystals"
"-115.14","67.82","KUGLUKTUK A","2300903","2020-02-27 21:00","2020","02","27","21:00","-28.1","","-31.4","","74","","","","36","","21","","16.1","","101.70","","","","-41","","Ice Crystals,Blowing Snow"
"-115.14","67.82","KUGLUKTUK A","2300903","2020-02-27 22:00","2020","02","27","22:00","-28.6","","-31.9","","74","","","","36","","26","","12.9","","101.70","","","","-43","","Snow,Blowing Snow"
"-115.14","67.82","KUGLUKTUK A","2300903","2020-02-27 23:00","2020","02","27","23:00","-28.8","","-32.1","","74","","","","2","","17","","6.4","","101.70","","","","-41","","Ice Crystals"
"-115.14","67.82","KUGLUKTUK A","2300903","2020-02-28 00:00","2020","02","28","00:00","-30.1","","-33.4","","73","","","","2","","13","","9.7","","101.73","","","","-41","","Ice Crystals"
"-115.14","67.82","KUGLUKTUK A","2300903","2020-02-28 01:00","2020","02","28","01:00","-30.6","","-34.0","","73","","","","4","","10","","16.1","","101.76","","","","-40","","Ice Crystals"
"-115.14","67.82","KUGLUKTUK A","2300903","2020-02-28 02:00","2020","02","28","02:00","-33.1","","-36.6","","72","","","","20","","12","","16.1","","101.77","","","","-44","","Ice Crystals"
"-115.14","67.82","KUGLUKTUK A","2300903","2020-02-28 03:00","2020","02","28","03:00","-34.8","","-38.4","","70","","","","20","","13","","24.1","","101.80","","","","-46","","Ice Crystals"
"-115.14","67.82","KUGLUKTUK A","2300903","2020-02-28 04:00","2020","02","28","04:00","-34.8","","-38.4","","70","","","","22","","16","","16.1","","101.84","","","","-48","","Ice Crystals"
"-115.14","67.82","KUGLUKTUK A","2300903","2020-02-28 05:00","2020","02","28","05:00","-35.8","","-39.5","","70","","","","22","","18","","16.1","","101.87","","","","-50","","Ice Crystals"
"-115.14","67.82","KUGLUKTUK A","2300903","2020-02-28 06:00","2020","02","28","06:00","-36.4","","-40.1","","69","","","","22","","17","","16.1","","101.91","","","","-50","","Ice Crystals"
"-115.14","67.82","KUGLUKTUK A","2300903","2020-02-28 07:00","2020","02","28","07:00","-36.7","","-40.5","","69","","","","23","","16","","24.1","","101.96","","","","-50","","Ice Crystals"
"-115.14","67.82","KUGLUKTUK A","2300903","2020-02-28 08:00","2020","02","28","08:00","-37.7","","-41.5","","68","","","","21","","18","","24.1","","101.97","","","","-52","","Mainly Clear"
"-115.14","67.82","KUGLUKTUK A","2300903","2020-02-28 09:00","2020","02","28","09:00","-37.4","","-41.2","","69","","","","21","","17","","24.1","","102.00","","","","-51","","NA"
"-115.14","67.82","KUGLUKTUK A","2300903","2020-02-28 10:00","2020","02","28","10:00","-36.9","","-40.7","","69","","","","21","","19","","24.1","","102.03","","","","-51","","NA"
"-115.14","67.82","KUGLUKTUK A","2300903","2020-02-28 11:00","2020","02","28","11:00"
"-115.14","67.82","KUGLUKTUK A","2300903","2020-02-28 12:00","2020","02","28","12:00"
"-115.14","67.82","KUGLUKTUK A","2300903","2020-02-28 13:00","2020","02","28","13:00"
"-115.14","67.82","KUGLUKTUK A","2300903","2020-02-28 14:00","2020","02","28","14:00"
"-115.14","67.82","KUGLUKTUK A","2300903","2020-02-28 15:00","2020","02","28","15:00"
"-115.14","67.82","KUGLUKTUK A","2300903","2020-02-28 16:00","2020","02","28","16:00"
"-115.14","67.82","KUGLUKTUK A","2300903","2020-02-28 17:00","2020","02","28","17:00"
"-115.14","67.82","KUGLUKTUK A","2300903","2020-02-28 18:00","2020","02","28","18:00","-36.1","","-39.9","","69","","","","23","","20","","24.1","","102.22","","","","-51","","NA"
"-115.14","67.82","KUGLUKTUK A","2300903","2020-02-28 19:00","2020","02","28","19:00","-37.0","","-40.8","","69","","","","22","","19","","24.1","","102.23","","","","-52","","NA"
"-115.14","67.82","KUGLUKTUK A","2300903","2020-02-28 20:00","2020","02","28","20:00","-36.9","","-40.7","","69","","","","22","","19","","24.1","","102.23","","","","-51","","Clear"
"-115.14","67.82","KUGLUKTUK A","2300903","2020-02-28 21:00","2020","02","28","21:00","-37.3","","-41.2","","68","","","","22","","21","","24.1","","102.26","","","","-53","","NA"
"-115.14","67.82","KUGLUKTUK A","2300903","2020-02-28 22:00","2020","02","28","22:00","-37.6","","-41.4","","68","","","","22","","21","","24.1","","102.24","","","","-53","","NA"
"-115.14","67.82","KUGLUKTUK A","2300903","2020-02-28 23:00","2020","02","28","23:00","-37.7","","-41.5","","68","","","","21","","15","","24.1","","102.23","","","","-51","","Clear"
"-115.14","67.82","KUGLUKTUK A","2300903","2020-02-29 00:00","2020","02","29","00:00","-38.4","","-42.2","","68","","","","22","","19","","24.1","","102.23","","","","-53","","Ice Crystals"
"-115.14","67.82","KUGLUKTUK A","2300903","2020-02-29 01:00","2020","02","29","01:00","-38.0","","-41.9","","68","","","","22","","17","","24.1","","102.25","","","","-52","","Ice Crystals"
"-115.14","67.82","KUGLUKTUK A","2300903","2020-02-29 02:00","2020","02","29","02:00","-38.0","","-41.9","","68","","","","22","","19","","24.1","","102.23","","","","-53","","Ice Crystals"
"-115.14","67.82","KUGLUKTUK A","2300903","2020-02-29 03:00","2020","02","29","03:00","-38.0","","-41.8","","68","","","","22","","11","","24.1","","102.22","","","","-49","","Ice Crystals"
"-115.14","67.82","KUGLUKTUK A","2300903","2020-02-29 04:00","2020","02","29","04:00","-38.7","","-42.6","","68","","","","23","","9","","24.1","","102.22","","","","-49","","Ice Crystals"
"-115.14","67.82","KUGLUKTUK A","2300903","2020-02-29 05:00","2020","02","29","05:00","-36.6","","-40.4","","69","","","","23","","8","","24.1","","102.20","","","","-46","","Ice Crystals"
"-115.14","67.82","KUGLUKTUK A","2300903","2020-02-29 06:00","2020","02","29","06:00","-36.2","","-39.9","","69","","","","23","","10","","24.1","","102.19","","","","-47","","Ice Crystals"
"-115.14","67.82","KUGLUKTUK A","2300903","2020-02-29 07:00","2020","02","29","07:00","-36.9","","-40.7","","69","","","","23","","6","","24.1","","102.17","","","","-44","","Ice Crystals"
"-115.14","67.82","KUGLUKTUK A","2300903","2020-02-29 08:00","2020","02","29","08:00","-37.0","","-40.8","","69","","","","24","","6","","24.1","","102.16","","","","-45","","Mostly Cloudy"
"-115.14","67.82","KUGLUKTUK A","2300903","2020-02-29 09:00","2020","02","29","09:00","-37.2","","-41.0","","68","","","","24","","4","","24.1","","102.13","","","","-42","","NA"
"-115.14","67.82","KUGLUKTUK A","2300903","2020-02-29 10:00","2020","02","29","10:00","-37.6","","-41.5","","68","","","","32","","4","","24.1","","102.11","","","","-43","","NA"
"-115.14","67.82","KUGLUKTUK A","2300903","2020-02-29 11:00","2020","02","29","11:00","-37.2","","-41.0","","68","","","","19","","6","","24.1","","102.11","","","","-45","","Mostly Cloudy"
"-115.14","67.82","KUGLUKTUK A","2300903","2020-02-29 12:00","2020","02","29","12:00","-37.0","","-40.8","","68","","","","20","","9","","24.1","","102.08","","","","-47","","NA"
"-115.14","67.82","KUGLUKTUK A","2300903","2020-02-29 13:00","2020","02","29","13:00","-34.8","","-38.6","","69","","","","36","","1","","24.1","","102.04","","","","-36","","NA"
"-115.14","67.82","KUGLUKTUK A","2300903","2020-02-29 14:00","2020","02","29","14:00","-35.5","","-39.3","","69","","","","36","","1","","24.1","","101.99","","","","-37","","Mainly Clear"
"-115.14","67.82","KUGLUKTUK A","2300903","2020-02-29 15:00","2020","02","29","15:00","-35.6","","-39.4","","69","","","","36","","3","","24.1","","102.00","","","","-39","","NA"
"-115.14","67.82","KUGLUKTUK A","2300903","2020-02-29 16:00","2020","02","29","16:00","-35.9","","-39.7","","69","","","","36","","1","","24.1","","101.96","","","","-37","","NA"
"-115.14","67.82","KUGLUKTUK A","2300903","2020-02-29 17:00","2020","02","29","17:00","-36.5","","-40.3","","69","","","","36","","1","","24.1","","101.94","","","","-38","","Clear"
"-115.14","67.82","KUGLUKTUK A","2300903","2020-02-29 18:00","2020","02","29","18:00","-37.2","","-41.0","","69","","","","17","","6","","24.1","","101.88","","","","-45","","NA"
"-115.14","67.82","KUGLUKTUK A","2300903","2020-02-29 19:00","2020","02","29","19:00","-37.6","","-41.4","","68","","","","36","","2","","24.1","","101.83","","","","-40","","NA"
"-115.14","67.82","KUGLUKTUK A","2300903","2020-02-29 20:00","2020","02","29","20:00","-37.5","","-41.3","","68","","","","36","","3","","24.1","","101.77","","","","-41","","Clear"
"-115.14","67.82","KUGLUKTUK A","2300903","2020-02-29 21:00","2020","02","29","21:00","-38.2","","-42.1","","68","","","","36","","2","","24.1","","101.72","","","","-41","","NA"
"-115.14","67.82","KUGLUKTUK A","2300903","2020-02-29 22:00","2020","02","29","22:00","-38.8","","-42.7","","68","","","","11","","4","","24.1","","101.65","","","","-44","","NA"
"-115.14","67.82","KUGLUKTUK A","2300903","2020-02-29 23:00","2020","02","29","23:00","-38.2","","-42.0","","68","","","","13","","4","","24.1","","101.55","","","","-44","","Clear"
