"Longitude (x)","Latitude (y)","Station Name","Climate ID","Date/Time (LST)","Year","Month","Day","Time (LST)","Temp (°C)","Temp Flag","Dew Point Temp (°C)","Dew Point Temp Flag","Rel Hum (%)","Rel Hum Flag","Precip. Amount (mm)","Precip. Amount Flag","Wind Dir (10s deg)","Wind Dir Flag","Wind Spd (km/h)","Wind Spd Flag","Visibility (km)","Visibility Flag","Stn Press (kPa)","Stn Press Flag","Hmdx","Hmdx Flag","Wind Chill","Wind Chill Flag","Weather"
"-115.14","67.82","KUGLUKTUK A","2300903","2020-03-01 00:00","2020","03","01","00:00","-40.5","","-44.6","","66","","","","36","","1","","24.1","","101.48","","","","-42","","NA"
"-115.14","67.82","KUGLUKTUK A","2300903","2020-03-01 01:00","2020","03","01","01:00","-38.5","","-42.4","","67","","","","12","","7","","24.1","","101.41","","","","-47","","NA"
"-115.14","67.82","KUGLUKTUK A","2300903","2020-03-01 02:00","2020","03","01","02:00","-41.0","","-45.1","","66","","","","32","","3","","24.1","","101.33","","","","-45","","Ice Crystals"
"-115.14","67.82","KUGLUKTUK A","2300903","2020-03-01 03:00","2020","03","01","03:00","-39.8","","-43.7","","67","","","","30","","3","","24.1","","101.28","","","","-44","","Ice Crystals"
"-115.14","67.82","KUGLUKTUK A","2300903","2020-03-01 04:00","2020","03","01","04:00","-40.4","","-44.4","","66","","","","36","","1","","24.1","","101.15","","","","-42","","Ice Crystals"
"-115.14","67.82","KUGLUKTUK A","2300903","2020-03-01 05:00","2020","03","01","05:00","-42.0","","-46.1","","65","","","","33","","5","","24.1","","101.07","","","","-49","","Clear"
"-115.14","67.82","KUGLUKTUK A","2300903","2020-03-01 06:00","2020","03","01","06:00","-39.5","","-43.5","","67","","","","36","","3","","24.1","","100.99","","","","-44","","NA"
"-115.14","67.82","KUGLUKTUK A","2300903","2020-03-01 07:00","2020","03","01","07:00","-41.5","","-45.6","","66","","","","8","","3","","24.1","","100.90","","","","-46","","NA"
"-115.14","67.82","KUGLUKTUK A","2300903","2020-03-01 08:00","2020","03","01","08:00","-42.1","","-46.3","","65","","","","36","","3","","24.1","","100.80","","","","-46","","Clear"
"-115.14","67.82","KUGLUKTUK A","2300903","2020-03-01 09:00","2020","03","01","09:00","-41.5","","-45.6","","65","","","","36","","2","","24.1","","100.70","","","","-44","","NA"
"-115.14","67.82","KUGLUKTUK A","2300903","2020-03-01 10:00","2020","03","01","10:00","-40.3","","-44.4","","66","","","","36","","3","","6.4","","100.57","","","","-45","","Fog"
"-115.14","67.82","KUGLUKTUK A","2300903","2020-03-01 11:00","2020","03","01","11:00","-40.5","","-44.6","","66","","","","2","","3","","8.1","","100.45","","","","-45","","Fog"
"-115.14","67.82","KUGLUKTUK A","2300903","2020-03-01 12:00","2020","03","01","12:00","-39.2","","-43.2","","67","","","","36","","2","","8.1","","100.36","","","","-42","","Fog"
"-115.14","67.82","KUGLUKTUK A","2300903","2020-03-01 13:00","2020","03","01","13:00","-38.6","","-42.7","","67","","","","36","","6","","19.3","","100.26","","","","-46","","Ice Crystals"
"-115.14","67.82","KUGLUKTUK A","2300903","2020-03-01 14:00","2020","03","01","14:00","-37.5","","-41.5","","68","","","","34","","4","","19.3","","100.18","","","","-43","","Ice Crystals"
"-115.14","67.82","KUGLUKTUK A","2300903","2020-03-01 15:00","2020","03","01","15:00","-37.4","","-41.3","","68","","","","4","","4","","19.3","","100.07","","","","-43","","Ice Crystals"
"-115.14","67.82","KUGLUKTUK A","2300903","2020-03-01 16:00","2020","03","01","16:00","-37.3","","-41.2","","68","","","","36","","3","","19.3","","99.95","","","","-41","","Ice Crystals"
"-115.14","67.82","KUGLUKTUK A","2300903","2020-03-01 17:00","2020","03","01","17:00","-36.2","","-40.1","","69","","","","4","","4","","19.3","","99.89","","","","-41","","Ice Crystals"
"-115.14","67.82","KUGLUKTUK A","2300903","2020-03-01 18:00","2020","03","01","18:00","-35.5","","-39.3","","69","","","","36","","6","","19.3","","99.79","","","","-43","","Ice Crystals"
"-115.14","67.82","KUGLUKTUK A","2300903","2020-03-01 19:00","2020","03","01","19:00","-35.2","","-39.0","","69","","","","3","","6","","19.3","","99.71","","","","-42","","Ice Crystals"
"-115.14","67.82","KUGLUKTUK A","2300903","2020-03-01 20:00","2020","03","01","20:00","-35.3","","-39.1","","69","","","","34","","7","","24.1","","99.65","","","","-43","","Ice Crystals"
"-115.14","67.82","KUGLUKTUK A","2300903","2020-03-01 21:00","2020","03","01","21:00","-34.6","","-38.4","","70","","","","36","","4","","24.1","","99.63","","","","-40","","Ice Crystals"
"-115.14","67.82","KUGLUKTUK A","2300903","2020-03-01 22:00","2020","03","01","22:00","-33.7","","-37.4","","70","","","","33","","7","","24.1","","99.59","","","","-42","","Ice Crystals"
"-115.14","67.82","KUGLUKTUK A","2300903","2020-03-01 23:00","2020","03","01","23:00","-33.2","","-36.8","","71","","","","35","","9","","24.1","","99.54","","","","-42","","Ice Crystals"
"-115.14","67.82","KUGLUKTUK A","2300903","2020-03-02 00:00","2020","03","02","00:00","-32.6","","-36.2","","71","","","","36","","7","","24.1","","99.55","","","","-40","","NA"
"-115.14","67.82","KUGLUKTUK A","2300903","2020-03-02 01:00","2020","03","02","01:00","-32.4","","-36.0","","71","","","","35","","12","","24.1","","99.58","","","","-43","","NA"
"-115.14","67.82","KUGLUKTUK A","2300903","2020-03-02 02:00","2020","03","02","02:00","-33.5","","-37.1","","71","","","","27","","12","","24.1","","99.62","","","","-44","","Ice Crystals"
"-115.14","67.82","KUGLUKTUK A","2300903","2020-03-02 03:00","2020","03","02","03:00","-33.6","","-37.2","","70","","","","26","","8","","24.1","","99.63","","","","-42","","NA"
"-115.14","67.82","KUGLUKTUK A","2300903","2020-03-02 04:00","2020","03","02","04:00","-34.3","","-38.0","","70","","","","23","","13","","24.1","","99.69","","","","-46","","NA"
"-115.14","67.82","KUGLUKTUK A","2300903","2020-03-02 05:00","2020","03","02","05:00","-35.2","","-39.0","","69","","","","24","","11","","24.1","","99.74","","","","-46","","Clear"
"-115.14","67.82","KUGLUKTUK A","2300903","2020-03-02 06:00","2020","03","02","06:00","-36.3","","-40.1","","69","","","","22","","18","","24.1","","99.76","","","","-50","","NA"
"-115.14","67.82","KUGLUKTUK A","2300903","2020-03-02 07:00","2020","03","02","07:00","-35.7","","-39.5","","69","","","","23","","19","","24.1","","99.78","","","","-50","","NA"
"-115.14","67.82","KUGLUKTUK A","2300903","2020-03-02 08:00","2020","03","02","08:00","-35.3","","-39.1","","69","","","","23","","19","","24.1","","99.83","","","","-49","","Mainly Clear"
"-115.14","67.82","KUGLUKTUK A","2300903","2020-03-02 09:00","2020","03","02","09:00","-35.2","","-39.0","","69","","","","25","","17","","24.1","","99.88","","","","-49","","NA"
"-115.14","67.82","KUGLUKTUK A","2300903","2020-03-02 10:00","2020","03","02","10:00","-35.5","","-39.3","","69","","","","24","","8","","24.1","","99.94","","","","-44","","NA"
"-115.14","67.82","KUGLUKTUK A","2300903","2020-03-02 11:00","2020","03","02","11:00","-34.8","","-38.5","","70","","","","22","","11","","24.1","","99.99","","","","-45","","Mostly Cloudy"
"-115.14","67.82","KUGLUKTUK A","2300903","2020-03-02 12:00","2020","03","02","12:00","-34.3","","-38.1","","70","","","","23","","13","","24.1","","100.05","","","","-46","","NA"
"-115.14","67.82","KUGLUKTUK A","2300903","2020-03-02 13:00","2020","03","02","13:00","-34.1","","-37.8","","70","","","","21","","8","","24.1","","100.11","","","","-43","","NA"
"-115.14","67.82","KUGLUKTUK A","2300903","2020-03-02 14:00","2020","03","02","14:00","-32.9","","-36.5","","71","","","","26","","8","","24.1","","100.17","","","","-41","","Clear"
"-115.14","67.82","KUGLUKTUK A","2300903","2020-03-02 15:00","2020","03","02","15:00","-32.9","","-36.5","","71","","","","28","","7","","24.1","","100.25","","","","-41","","NA"
"-115.14","67.82","KUGLUKTUK A","2300903","2020-03-02 16:00","2020","03","02","16:00","-33.1","","-36.8","","70","","","","27","","5","","24.1","","100.29","","","","-39","","NA"
"-115.14","67.82","KUGLUKTUK A","2300903","2020-03-02 17:00","2020","03","02","17:00","-34.3","","-38.0","","70","","","","24","","12","","24.1","","100.34","","","","-45","","Clear"
"-115.14","67.82","KUGLUKTUK A","2300903","2020-03-02 18:00","2020","03","02","18:00","-35.5","","-39.2","","69","","","","22","","19","","24.1","","100.35","","","","-50","","NA"
"-115.14","67.82","KUGLUKTUK A","2300903","2020-03-02 19:00","2020","03","02","19:00","-35.9","","-39.7","","69","","","","23","","22","","24.1","","100.37","","","","-51","","NA"
"-115.14","67.82","KUGLUKTUK A","2300903","2020-03-02 20:00","2020","03","02","20:00","-36.4","","-40.2","","69","","","","23","","21","","24.1","","100.39","","","","-51","","Ice Crystals"
"-115.14","67.82","KUGLUKTUK A","2300903","2020-03-02 21:00","2020","03","02","21:00","-36.9","","-40.8","","68","","","","22","","23","","24.1","","100.43","","","","-53","","Ice Crystals"
"-115.14","67.82","KUGLUKTUK A","2300903","2020-03-02 22:00","2020","03","02","22:00","-37.2","","-41.0","","68","","","","23","","21","","24.1","","100.43","","","","-53","","Ice Crystals"
"-115.14","67.82","KUGLUKTUK A","2300903","2020-03-02 23:00","2020","03","02","23:00","-37.0","","-40.9","","68","","","","24","","16","","24.1","","100.47","","","","-50","","Ice Crystals"
"-115.14","67.82","KUGLUKTUK A","2300903","2020-03-03 00:00","2020","03","03","00:00","-37.4","","-41.3","","68","","","","22","","20","","24.1","","100.50","","","","-52","","NA"
"-115.14","67.82","KUGLUKTUK A","2300903","2020-03-03 01:00","2020","03","03","01:00","-37.4","","-41.3","","68","","","","22","","22","","24.1","","100.53","","","","-53","","NA"
"-115.14","67.82","KUGLUKTUK A","2300903","2020-03-03 02:00","2020","03","03","02:00","-38.0","","-41.9","","68","","","","23","","17","","24.1","","100.55","","","","-52","","Clear"
"-115.14","67.82","KUGLUKTUK A","2300903","2020-03-03 03:00","2020","03","03","03:00","-38.9","","-42.8","","67","","","","21","","18","","24.1","","100.61","","","","-54","","NA"
"-115.14","67.82","KUGLUKTUK A","2300903","2020-03-03 04:00","2020","03","03","04:00","-38.2","","-42.1","","68","","","","22","","18","","24.1","","100.64","","","","-53","","NA"
"-115.14","67.82","KUGLUKTUK A","2300903","2020-03-03 05:00","2020","03","03","05:00","-38.4","","-42.3","","68","","","","22","","17","","24.1","","100.68","","","","-53","","Clear"
"-115.14","67.82","KUGLUKTUK A","2300903","2020-03-03 06:00","2020","03","03","06:00","-39.0","","-43.0","","67","","","","22","","15","","24.1","","100.69","","","","-53","","NA"
"-115.14","67.82","KUGLUKTUK A","2300903","2020-03-03 07:00","2020","03","03","07:00","-39.5","","-43.5","","67","","","","21","","16","","24.1","","100.73","","","","-54","","NA"
"-115.14","67.82","KUGLUKTUK A","2300903","2020-03-03 08:00","2020","03","03","08:00","-38.7","","-42.7","","67","","","","22","","17","","24.1","","100.79","","","","-53","","Mostly Cloudy"
"-115.14","67.82","KUGLUKTUK A","2300903","2020-03-03 09:00","2020","03","03","09:00","-37.8","","-41.7","","68","","","","25","","3","","24.1","","100.75","","","","-42","","NA"
"-115.14","67.82","KUGLUKTUK A","2300903","2020-03-03 10:00","2020","03","03","10:00","-38.9","","-42.9","","67","","","","21","","6","","24.1","","100.77","","","","-47","","NA"
"-115.14","67.82","KUGLUKTUK A","2300903","2020-03-03 11:00","2020","03","03","11:00","-37.0","","-40.9","","68","","","","21","","7","","24.1","","100.81","","","","-45","","Cloudy"
"-115.14","67.82","KUGLUKTUK A","2300903","2020-03-03 12:00","2020","03","03","12:00","-35.6","","-39.4","","69","","","","35","","3","","24.1","","100.81","","","","-39","","NA"
"-115.14","67.82","KUGLUKTUK A","2300903","2020-03-03 13:00","2020","03","03","13:00","-35.8","","-39.6","","69","","","","1","","5","","24.1","","100.81","","","","-42","","NA"
"-115.14","67.82","KUGLUKTUK A","2300903","2020-03-03 14:00","2020","03","03","14:00","-35.1","","-38.9","","69","","","","5","","9","","24.1","","100.82","","","","-45","","Cloudy"
"-115.14","67.82","KUGLUKTUK A","2300903","2020-03-03 15:00","2020","03","03","15:00","-34.8","","-38.6","","69","","","","5","","11","","24.1","","100.81","","","","-45","","NA"
"-115.14","67.82","KUGLUKTUK A","2300903","2020-03-03 16:00","2020","03","03","16:00","-34.6","","-38.3","","70","","","","3","","14","","24.1","","100.77","","","","-47","","NA"
"-115.14","67.82","KUGLUKTUK A","2300903","2020-03-03 17:00","2020","03","03","17:00","-34.3","","-38.0","","70","","","","7","","14","","24.1","","100.74","","","","-46","","Snow"
"-115.14","67.82","KUGLUKTUK A","2300903","2020-03-03 18:00","2020","03","03","18:00","-33.8","","-37.5","","70","","","","8","","10","","4.8","","100.75","","","","-44","","Snow"
"-115.14","67.82","KUGLUKTUK A","2300903","2020-03-03 19:00","2020","03","03","19:00","-33.2","","-36.9","","71","","","","7","","19","","4.8","","100.70","","","","-47","","Snow"
"-115.14","67.82","KUGLUKTUK A","2300903","2020-03-03 20:00","2020","03","03","20:00","-32.7","","-36.3","","71","","","","7","","21","","6.4","","100.69","","","","-47","","Snow,Blowing Snow"
"-115.14","67.82","KUGLUKTUK A","2300903","2020-03-03 21:00","2020","03","03","21:00","-32.3","","-35.9","","71","","","","7","","21","","9.7","","100.64","","","","-46","","Snow,Blowing Snow"
"-115.14","67.82","KUGLUKTUK A","2300903","2020-03-03 22:00","2020","03","03","22:00","-32.2","","-35.8","","71","","","","7","","18","","9.7","","100.60","","","","-45","","Snow,Blowing Snow"
"-115.14","67.82","KUGLUKTUK A","2300903","2020-03-03 23:00","2020","03","03","23:00","-31.8","","-35.3","","72","","","","6","","18","","9.7","","100.58","","","","-45","","Snow,Blowing Snow"
"-115.14","67.82","KUGLUKTUK A","2300903","2020-03-04 00:00","2020","03","04","00:00","-31.2","","-34.8","","72","","","","4","","14","","8.1","","100.57","","","","-42","","Snow"
"-115.14","67.82","KUGLUKTUK A","2300903","2020-03-04 01:00","2020","03","04","01:00","-30.6","","-34.1","","72","","","","5","","13","","9.7","","100.53","","","","-41","","Snow"
"-115.14","67.82","KUGLUKTUK A","2300903","2020-03-04 02:00","2020","03","04","02:00","-30.3","","-33.7","","73","","","","4","","19","","9.7","","100.52","","","","-43","","Snow,Blowing Snow"
"-115.14","67.82","KUGLUKTUK A","2300903","2020-03-04 03:00","2020","03","04","03:00","-29.8","","-33.2","","73","","","","4","","18","","9.7","","100.52","","","","-42","","Snow,Blowing Snow"
"-115.14","67.82","KUGLUKTUK A","2300903","2020-03-04 04:00","2020","03","04","04:00","-29.6","","-33.0","","73","","","","3","","16","","12.9","","100.55","","","","-41","","Snow"
"-115.14","67.82","KUGLUKTUK A","2300903","2020-03-04 05:00","2020","03","04","05:00","-30.2","","-33.6","","73","","","","3","","14","","12.9","","100.55","","","","-41","","Ice Crystals"
"-115.14","67.82","KUGLUKTUK A","2300903","2020-03-04 06:00","2020","03","04","06:00","-31.6","","-35.1","","72","","","","1","","13","","12.9","","100.60","","","","-43","","Ice Crystals"
"-115.14","67.82","KUGLUKTUK A","2300903","2020-03-04 07:00","2020","03","04","07:00","-31.2","","-34.7","","72","","","","1","","16","","6.4","","100.65","","","","-43","","Ice Crystals"
"-115.14","67.82","KUGLUKTUK A","2300903","2020-03-04 08:00","2020","03","04","08:00","-30.8","","-34.2","","72","","","","36","","18","","3.2","","100.69","","","","-43","","Ice Crystals"
"-115.14","67.82","KUGLUKTUK A","2300903","2020-03-04 09:00","2020","03","04","09:00","-30.5","","-34.0","","72","","","","36","","15","","3.2","","100.75","","","","-42","","Ice Crystals"
"-115.14","67.82","KUGLUKTUK A","2300903","2020-03-04 10:00","2020","03","04","10:00","-31.0","","-34.5","","72","","","","33","","22","","3.2","","100.81","","","","-45","","Ice Crystals"
"-115.14","67.82","KUGLUKTUK A","2300903","2020-03-04 11:00","2020","03","04","11:00","-31.1","","-34.6","","72","","","","33","","20","","8.1","","100.90","","","","-44","","Ice Crystals"
"-115.14","67.82","KUGLUKTUK A","2300903","2020-03-04 12:00","2020","03","04","12:00","-31.6","","-35.1","","71","","","","29","","15","","8.1","","100.94","","","","-43","","Ice Crystals"
"-115.14","67.82","KUGLUKTUK A","2300903","2020-03-04 13:00","2020","03","04","13:00","-32.5","","-36.2","","71","","","","26","","15","","16.1","","101.04","","","","-44","","Ice Crystals"
"-115.14","67.82","KUGLUKTUK A","2300903","2020-03-04 14:00","2020","03","04","14:00","-33.7","","-37.5","","70","","","","24","","21","","19.3","","101.14","","","","-48","","Ice Crystals,Blowing Snow"
"-115.14","67.82","KUGLUKTUK A","2300903","2020-03-04 15:00","2020","03","04","15:00","-33.8","","-37.5","","70","","","","24","","19","","19.3","","101.21","","","","-48","","Ice Crystals,Blowing Snow"
"-115.14","67.82","KUGLUKTUK A","2300903","2020-03-04 16:00","2020","03","04","16:00","-34.3","","-38.0","","69","","","","24","","18","","19.3","","101.33","","","","-48","","Ice Crystals"
"-115.14","67.82","KUGLUKTUK A","2300903","2020-03-04 17:00","2020","03","04","17:00","-34.8","","-38.6","","69","","","","26","","21","","19.3","","101.40","","","","-49","","Ice Crystals,Blowing Snow"
"-115.14","67.82","KUGLUKTUK A","2300903","2020-03-04 18:00","2020","03","04","18:00","-36.9","","-40.7","","68","","","","23","","22","","19.3","","101.48","","","","-52","","Ice Crystals,Blowing Snow"
"-115.14","67.82","KUGLUKTUK A","2300903","2020-03-04 19:00","2020","03","04","19:00","-37.4","","-41.3","","68","","","","23","","21","","19.3","","101.56","","","","-53","","Ice Crystals,Blowing Snow"
"-115.14","67.82","KUGLUKTUK A","2300903","2020-03-04 20:00","2020","03","04","20:00","-37.3","","-41.3","","68","","","","23","","21","","24.1","","101.64","","","","-53","","Ice Crystals,Blowing Snow"
"-115.14","67.82","KUGLUKTUK A","2300903","2020-03-04 21:00","2020","03","04","21:00","-38.4","","-42.4","","67","","","","22","","21","","24.1","","101.70","","","","-54","","Ice Crystals,Blowing Snow"
"-115.14","67.82","KUGLUKTUK A","2300903","2020-03-04 22:00","2020","03","04","22:00","-38.4","","-42.4","","67","","","","22","","16","","24.1","","101.73","","","","-52","","Ice Crystals"
"-115.14","67.82","KUGLUKTUK A","2300903","2020-03-04 23:00","2020","03","04","23:00","-36.9","","-40.9","","68","","","","25","","23","","24.1","","101.77","","","","-53","","Mainly Clear"
"-115.14","67.82","KUGLUKTUK A","2300903","2020-03-05 00:00","2020","03","05","00:00","-37.4","","-41.4","","67","","","","25","","22","","24.1","","101.86","","","","-53","","Ice Crystals"
"-115.14","67.82","KUGLUKTUK A","2300903","2020-03-05 01:00","2020","03","05","01:00","-38.3","","-42.4","","67","","","","24","","19","","24.1","","101.91","","","","-53","","Ice Crystals"
"-115.14","67.82","KUGLUKTUK A","2300903","2020-03-05 02:00","2020","03","05","02:00","-37.4","","-41.4","","67","","","","25","","20","","24.1","","102.00","","","","-52","","Ice Crystals"
"-115.14","67.82","KUGLUKTUK A","2300903","2020-03-05 03:00","2020","03","05","03:00","-39.9","","-43.9","","66","","","","24","","15","","24.1","","102.05","","","","-54","","Ice Crystals"
"-115.14","67.82","KUGLUKTUK A","2300903","2020-03-05 04:00","2020","03","05","04:00","-37.2","","-41.2","","67","","","","26","","22","","24.1","","102.11","","","","-53","","Ice Crystals,Blowing Snow"
"-115.14","67.82","KUGLUKTUK A","2300903","2020-03-05 05:00","2020","03","05","05:00","-38.0","","-42.0","","67","","","","24","","25","","24.1","","102.17","","","","-55","","Ice Crystals,Blowing Snow"
"-115.14","67.82","KUGLUKTUK A","2300903","2020-03-05 06:00","2020","03","05","06:00","-36.9","","-40.9","","68","","","","26","","25","","24.1","","102.24","","","","-53","","Ice Crystals,Blowing Snow"
"-115.14","67.82","KUGLUKTUK A","2300903","2020-03-05 07:00","2020","03","05","07:00","-38.2","","-42.2","","68","","","","23","","23","","16.1","","102.30","","","","-54","","Ice Crystals,Blowing Snow"
"-115.14","67.82","KUGLUKTUK A","2300903","2020-03-05 08:00","2020","03","05","08:00","-38.2","","-42.2","","68","","","","23","","29","","16.1","","102.30","","","","-56","","Ice Crystals,Blowing Snow"
"-115.14","67.82","KUGLUKTUK A","2300903","2020-03-05 09:00","2020","03","05","09:00","-35.7","","-39.5","","69","","","","24","","26","","19.3","","102.34","","","","-52","","Ice Crystals,Blowing Snow"
"-115.14","67.82","KUGLUKTUK A","2300903","2020-03-05 10:00","2020","03","05","10:00","-35.2","","-39.2","","68","","","","24","","28","","19.3","","102.38","","","","-52","","Ice Crystals,Blowing Snow"
"-115.14","67.82","KUGLUKTUK A","2300903","2020-03-05 11:00","2020","03","05","11:00","-34.6","","-38.5","","68","","","","24","","30","","19.3","","102.44","","","","-52","","Ice Crystals,Blowing Snow"
"-115.14","67.82","KUGLUKTUK A","2300903","2020-03-05 12:00","2020","03","05","12:00","-33.6","","-37.5","","68","","","","26","","34","","19.3","","102.47","","","","-51","","Ice Crystals,Blowing Snow"
"-115.14","67.82","KUGLUKTUK A","2300903","2020-03-05 13:00","2020","03","05","13:00","-32.9","","-36.9","","68","","","","26","","32","","19.3","","102.52","","","","-50","","Ice Crystals,Blowing Snow"
"-115.14","67.82","KUGLUKTUK A","2300903","2020-03-05 14:00","2020","03","05","14:00","-32.7","","-36.9","","67","","","","24","","23","","19.3","","102.58","","","","-47","","Ice Crystals,Blowing Snow"
"-115.14","67.82","KUGLUKTUK A","2300903","2020-03-05 15:00","2020","03","05","15:00","-32.4","","-36.8","","66","","","","24","","27","","19.3","","102.58","","","","-48","","Ice Crystals,Blowing Snow"
"-115.14","67.82","KUGLUKTUK A","2300903","2020-03-05 16:00","2020","03","05","16:00","-32.9","","-37.5","","64","","","","23","","23","","19.3","","102.58","","","","-48","","Ice Crystals,Blowing Snow"
"-115.14","67.82","KUGLUKTUK A","2300903","2020-03-05 17:00","2020","03","05","17:00","-32.8","","-37.5","","64","","","","24","","28","","19.3","","102.56","","","","-49","","Ice Crystals,Blowing Snow"
"-115.14","67.82","KUGLUKTUK A","2300903","2020-03-05 18:00","2020","03","05","18:00","-33.2","","-37.8","","65","","","","24","","28","","19.3","","102.48","","","","-49","","Ice Crystals,Blowing Snow"
"-115.14","67.82","KUGLUKTUK A","2300903","2020-03-05 19:00","2020","03","05","19:00","-33.7","","-38.0","","66","","","","24","","34","","19.3","","102.44","","","","-51","","Ice Crystals,Blowing Snow"
"-115.14","67.82","KUGLUKTUK A","2300903","2020-03-05 20:00","2020","03","05","20:00","-31.9","","-36.1","","67","","","","25","","42","","6.4","","102.41","","","","-50","","Ice Crystals,Blowing Snow"
"-115.14","67.82","KUGLUKTUK A","2300903","2020-03-05 21:00","2020","03","05","21:00","-32.0","","-36.4","","66","","","","25","","39","","6.4","","102.46","","","","-50","","Ice Crystals,Blowing Snow"
"-115.14","67.82","KUGLUKTUK A","2300903","2020-03-05 22:00","2020","03","05","22:00","-33.1","","-37.3","","67","","","","25","","31","","12.9","","102.47","","","","-50","","Ice Crystals,Blowing Snow"
"-115.14","67.82","KUGLUKTUK A","2300903","2020-03-05 23:00","2020","03","05","23:00","-33.5","","-37.8","","66","","","","25","","34","","12.9","","102.42","","","","-51","","Ice Crystals,Blowing Snow"
"-115.14","67.82","KUGLUKTUK A","2300903","2020-03-06 00:00","2020","03","06","00:00","-32.2","","-36.4","","67","","","","25","","38","","12.9","","102.37","","","","-50","","Ice Crystals,Blowing Snow"
"-115.14","67.82","KUGLUKTUK A","2300903","2020-03-06 01:00","2020","03","06","01:00","-32.2","","-36.5","","66","","","","25","","36","","12.9","","102.37","","","","-50","","Ice Crystals,Blowing Snow"
"-115.14","67.82","KUGLUKTUK A","2300903","2020-03-06 02:00","2020","03","06","02:00","-33.9","","-38.0","","67","","","","26","","32","","12.9","","102.38","","","","-51","","Ice Crystals,Blowing Snow"
"-115.14","67.82","KUGLUKTUK A","2300903","2020-03-06 03:00","2020","03","06","03:00","-34.2","","-38.3","","67","","","","26","","30","","16.1","","102.43","","","","-51","","Ice Crystals,Blowing Snow"
"-115.14","67.82","KUGLUKTUK A","2300903","2020-03-06 04:00","2020","03","06","04:00","-35.8","","-39.9","","67","","","","28","","23","","24.1","","102.53","","","","-51","","Ice Crystals,Blowing Snow"
"-115.14","67.82","KUGLUKTUK A","2300903","2020-03-06 05:00","2020","03","06","05:00","-36.8","","-41.0","","66","","","","31","","22","","24.1","","102.61","","","","-52","","Mainly Clear"
"-115.14","67.82","KUGLUKTUK A","2300903","2020-03-06 06:00","2020","03","06","06:00","-37.8","","-42.2","","64","","","","28","","23","","24.1","","102.66","","","","-54","","NA"
"-115.14","67.82","KUGLUKTUK A","2300903","2020-03-06 07:00","2020","03","06","07:00","-37.6","","-42.3","","63","","","","28","","20","","24.1","","102.72","","","","-53","","NA"
"-115.14","67.82","KUGLUKTUK A","2300903","2020-03-06 08:00","2020","03","06","08:00","-37.9","","-42.4","","64","","","","30","","26","","24.1","","102.74","","","","-55","","Blowing Snow"
"-115.14","67.82","KUGLUKTUK A","2300903","2020-03-06 09:00","2020","03","06","09:00","-37.4","","-42.2","","62","","","","29","","28","","24.1","","102.76","","","","-55","","Blowing Snow"
"-115.14","67.82","KUGLUKTUK A","2300903","2020-03-06 10:00","2020","03","06","10:00","-37.5","","-42.2","","62","","","","27","","24","","24.1","","102.79","","","","-54","","Blowing Snow"
"-115.14","67.82","KUGLUKTUK A","2300903","2020-03-06 11:00","2020","03","06","11:00","-36.6","","-41.3","","63","","","","25","","25","","24.1","","102.85","","","","-53","","Clear"
"-115.14","67.82","KUGLUKTUK A","2300903","2020-03-06 12:00","2020","03","06","12:00","-35.5","","-40.4","","62","","","","27","","27","","24.1","","102.88","","","","-52","","Blowing Snow"
"-115.14","67.82","KUGLUKTUK A","2300903","2020-03-06 13:00","2020","03","06","13:00","-35.3","","-40.3","","61","","","","26","","23","","24.1","","102.92","","","","-51","","Blowing Snow"
"-115.14","67.82","KUGLUKTUK A","2300903","2020-03-06 14:00","2020","03","06","14:00","-34.7","","-39.8","","61","","","","24","","14","","24.1","","102.97","","","","-47","","Clear"
"-115.14","67.82","KUGLUKTUK A","2300903","2020-03-06 15:00","2020","03","06","15:00","-34.2","","-39.2","","62","","","","23","","16","","24.1","","102.99","","","","-47","","NA"
"-115.14","67.82","KUGLUKTUK A","2300903","2020-03-06 16:00","2020","03","06","16:00","-34.7","","-39.6","","62","","","","22","","12","","24.1","","102.99","","","","-46","","NA"
"-115.14","67.82","KUGLUKTUK A","2300903","2020-03-06 17:00","2020","03","06","17:00","-36.1","","-40.9","","63","","","","21","","17","","24.1","","103.01","","","","-50","","Clear"
"-115.14","67.82","KUGLUKTUK A","2300903","2020-03-06 18:00","2020","03","06","18:00","-36.2","","-40.8","","63","","","","22","","18","","24.1","","103.02","","","","-50","","NA"
"-115.14","67.82","KUGLUKTUK A","2300903","2020-03-06 19:00","2020","03","06","19:00","-36.7","","-41.4","","63","","","","28","","9","","24.1","","103.01","","","","-47","","NA"
"-115.14","67.82","KUGLUKTUK A","2300903","2020-03-06 20:00","2020","03","06","20:00","-35.6","","-40.2","","64","","","","28","","4","","24.1","","103.03","","","","-41","","Clear"
"-115.14","67.82","KUGLUKTUK A","2300903","2020-03-06 21:00","2020","03","06","21:00","-36.5","","-41.0","","64","","","","21","","5","","24.1","","103.05","","","","-43","","NA"
"-115.14","67.82","KUGLUKTUK A","2300903","2020-03-06 22:00","2020","03","06","22:00","-37.5","","-41.8","","65","","","","21","","12","","24.1","","103.04","","","","-49","","NA"
"-115.14","67.82","KUGLUKTUK A","2300903","2020-03-06 23:00","2020","03","06","23:00","-35.8","","-40.3","","65","","","","27","","5","","24.1","","103.05","","","","-42","","Clear"
"-115.14","67.82","KUGLUKTUK A","2300903","2020-03-07 00:00","2020","03","07","00:00","-37.7","","-42.0","","66","","","","22","","7","","24.1","","103.03","","","","-46","","NA"
"-115.14","67.82","KUGLUKTUK A","2300903","2020-03-07 01:00","2020","03","07","01:00","-36.6","","-40.9","","65","","","","20","","4","","24.1","","103.03","","","","-42","","NA"
"-115.14","67.82","KUGLUKTUK A","2300903","2020-03-07 02:00","2020","03","07","02:00","-36.0","","-40.8","","62","","","","25","","4","","24.1","","103.04","","","","-41","","Clear"
"-115.14","67.82","KUGLUKTUK A","2300903","2020-03-07 03:00","2020","03","07","03:00","-39.8","","-43.8","","67","","","","20","","4","","24.1","","103.04","","","","-45","","NA"
"-115.14","67.82","KUGLUKTUK A","2300903","2020-03-07 04:00","2020","03","07","04:00","-41.8","","-45.9","","65","","","","34","","4","","19.3","","103.03","","","","-48","","NA"
"-115.14","67.82","KUGLUKTUK A","2300903","2020-03-07 05:00","2020","03","07","05:00","-39.5","","-43.4","","68","","","","36","","2","","19.3","","102.98","","","","-42","","Clear"
"-115.14","67.82","KUGLUKTUK A","2300903","2020-03-07 06:00","2020","03","07","06:00","-39.6","","-43.6","","67","","","","30","","4","","24.1","","102.98","","","","-45","","NA"
"-115.14","67.82","KUGLUKTUK A","2300903","2020-03-07 07:00","2020","03","07","07:00","-41.0","","-45.0","","66","","","","12","","3","","24.1","","102.94","","","","-45","","NA"
"-115.14","67.82","KUGLUKTUK A","2300903","2020-03-07 08:00","2020","03","07","08:00","-41.5","","-45.7","","65","","","","2","","4","","24.1","","102.92","","","","-47","","Clear"
"-115.14","67.82","KUGLUKTUK A","2300903","2020-03-07 09:00","2020","03","07","09:00","-40.8","","-44.9","","66","","","","36","","2","","24.1","","102.90","","","","-44","","NA"
"-115.14","67.82","KUGLUKTUK A","2300903","2020-03-07 10:00","2020","03","07","10:00","-41.2","","-45.4","","65","","","","36","","2","","24.1","","102.90","","","","-44","","NA"
"-115.14","67.82","KUGLUKTUK A","2300903","2020-03-07 11:00","2020","03","07","11:00","-40.0","","-44.1","","66","","","","36","","2","","24.1","","102.89","","","","-43","","Clear"
"-115.14","67.82","KUGLUKTUK A","2300903","2020-03-07 12:00","2020","03","07","12:00","-39.2","","-43.9","","62","","","","36","","3","","16.1","","102.81","","","","-43","","NA"
"-115.14","67.82","KUGLUKTUK A","2300903","2020-03-07 13:00","2020","03","07","13:00","-37.6","","-42.2","","63","","","","36","","3","","16.1","","102.79","","","","-42","","NA"
"-115.14","67.82","KUGLUKTUK A","2300903","2020-03-07 14:00","2020","03","07","14:00","-37.5","","-42.0","","64","","","","1","","4","","24.1","","102.73","","","","-43","","Clear"
"-115.14","67.82","KUGLUKTUK A","2300903","2020-03-07 15:00","2020","03","07","15:00","-36.7","","-41.0","","66","","","","2","","7","","24.1","","102.64","","","","-45","","NA"
"-115.14","67.82","KUGLUKTUK A","2300903","2020-03-07 16:00","2020","03","07","16:00","-35.7","","-40.1","","66","","","","35","","4","","24.1","","102.59","","","","-41","","NA"
"-115.14","67.82","KUGLUKTUK A","2300903","2020-03-07 17:00","2020","03","07","17:00","-36.1","","-40.3","","66","","","","5","","3","","24.1","","102.50","","","","-40","","Clear"
"-115.14","67.82","KUGLUKTUK A","2300903","2020-03-07 18:00","2020","03","07","18:00","-35.7","","-39.8","","67","","","","36","","2","","24.1","","102.44","","","","-38","","NA"
"-115.14","67.82","KUGLUKTUK A","2300903","2020-03-07 19:00","2020","03","07","19:00","-35.9","","-39.7","","69","","","","33","","3","","24.1","","102.36","","","","-40","","NA"
"-115.14","67.82","KUGLUKTUK A","2300903","2020-03-07 20:00","2020","03","07","20:00","-36.3","","-40.0","","69","","","","32","","4","","24.1","","102.34","","","","-41","","Mainly Clear"
"-115.14","67.82","KUGLUKTUK A","2300903","2020-03-07 21:00","2020","03","07","21:00","-35.9","","-39.6","","70","","","","12","","5","","24.1","","102.26","","","","-42","","NA"
"-115.14","67.82","KUGLUKTUK A","2300903","2020-03-07 22:00","2020","03","07","22:00","-31.8","","-35.1","","73","","","","22","","7","","24.1","","102.21","","","","-39","","NA"
"-115.14","67.82","KUGLUKTUK A","2300903","2020-03-07 23:00","2020","03","07","23:00","-26.4","","-31.1","","66","","","","21","","27","","24.1","","102.12","","","","-40","","Blowing Snow"
"-115.14","67.82","KUGLUKTUK A","2300903","2020-03-08 00:00","2020","03","08","00:00","-26.4","","-31.1","","65","","","","21","","35","","19.3","","102.05","","","","-42","","Ice Crystals,Blowing Snow"
"-115.14","67.82","KUGLUKTUK A","2300903","2020-03-08 01:00","2020","03","08","01:00","-26.2","","-30.9","","65","","","","22","","27","","19.3","","101.98","","","","-40","","Ice Crystals,Blowing Snow"
"-115.14","67.82","KUGLUKTUK A","2300903","2020-03-08 02:00","2020","03","08","02:00","-25.9","","-30.8","","64","","","","21","","16","","24.1","","101.93","","","","-37","","Mainly Clear"
"-115.14","67.82","KUGLUKTUK A","2300903","2020-03-08 03:00","2020","03","08","03:00","-27.0","","-31.9","","64","","","","11","","9","","24.1","","101.86","","","","-35","","NA"
"-115.14","67.82","KUGLUKTUK A","2300903","2020-03-08 04:00","2020","03","08","04:00","-27.0","","-31.3","","68","","","","18","","13","","24.1","","101.75","","","","-37","","NA"
"-115.14","67.82","KUGLUKTUK A","2300903","2020-03-08 05:00","2020","03","08","05:00","-26.7","","-31.2","","66","","","","25","","5","","24.1","","101.68","","","","-32","","Mainly Clear"
"-115.14","67.82","KUGLUKTUK A","2300903","2020-03-08 06:00","2020","03","08","06:00","-24.0","","-29.1","","64","","","","20","","10","","24.1","","101.62","","","","-32","","NA"
"-115.14","67.82","KUGLUKTUK A","2300903","2020-03-08 07:00","2020","03","08","07:00","-24.3","","-29.2","","64","","","","25","","11","","24.1","","101.57","","","","-33","","NA"
"-115.14","67.82","KUGLUKTUK A","2300903","2020-03-08 08:00","2020","03","08","08:00","-24.3","","-29.1","","65","","","","21","","17","","24.1","","101.48","","","","-35","","Cloudy"
"-115.14","67.82","KUGLUKTUK A","2300903","2020-03-08 09:00","2020","03","08","09:00","-23.2","","-28.4","","63","","","","20","","22","","24.1","","101.40","","","","-35","","Blowing Snow"
"-115.14","67.82","KUGLUKTUK A","2300903","2020-03-08 10:00","2020","03","08","10:00","-22.7","","-27.4","","66","","","","22","","10","","24.1","","101.32","","","","-30","","NA"
"-115.14","67.82","KUGLUKTUK A","2300903","2020-03-08 11:00","2020","03","08","11:00","-22.4","","-27.1","","66","","","","21","","18","","24.1","","101.22","","","","-33","","Cloudy"
"-115.14","67.82","KUGLUKTUK A","2300903","2020-03-08 12:00","2020","03","08","12:00","-21.4","","-26.1","","67","","","","22","","14","","24.1","","101.15","","","","-30","","NA"
"-115.14","67.82","KUGLUKTUK A","2300903","2020-03-08 13:00","2020","03","08","13:00","-21.1","","-26.0","","65","","","","20","","23","","24.1","","101.04","","","","-33","","NA"
"-115.14","67.82","KUGLUKTUK A","2300903","2020-03-08 14:00","2020","03","08","14:00","-20.8","","-25.5","","66","","","","21","","28","","24.1","","100.96","","","","-33","","Blowing Snow"
"-115.14","67.82","KUGLUKTUK A","2300903","2020-03-08 15:00","2020","03","08","15:00","-21.1","","-25.8","","67","","","","21","","22","","24.1","","100.87","","","","-32","","Blowing Snow"
"-115.14","67.82","KUGLUKTUK A","2300903","2020-03-08 16:00","2020","03","08","16:00","-21.7","","-26.2","","67","","","","21","","22","","24.1","","100.79","","","","-33","","NA"
"-115.14","67.82","KUGLUKTUK A","2300903","2020-03-08 17:00","2020","03","08","17:00","-22.7","","-26.9","","70","","","","20","","20","","24.1","","100.74","","","","-34","","Cloudy"
"-115.14","67.82","KUGLUKTUK A","2300903","2020-03-08 18:00","2020","03","08","18:00","-23.4","","-27.5","","70","","","","19","","16","","24.1","","100.66","","","","-34","","NA"
"-115.14","67.82","KUGLUKTUK A","2300903","2020-03-08 19:00","2020","03","08","19:00","-22.5","","-26.4","","71","","","","21","","17","","24.1","","100.64","","","","-33","","NA"
"-115.14","67.82","KUGLUKTUK A","2300903","2020-03-08 20:00","2020","03","08","20:00","-23.2","","-26.9","","72","","","","22","","15","","24.1","","100.60","","","","-33","","Mostly Cloudy"
"-115.14","67.82","KUGLUKTUK A","2300903","2020-03-08 21:00","2020","03","08","21:00","-22.5","","-26.5","","70","","","","23","","17","","24.1","","100.56","","","","-33","","Snow"
"-115.14","67.82","KUGLUKTUK A","2300903","2020-03-08 22:00","2020","03","08","22:00","-22.2","","-26.1","","71","","","","23","","21","","24.1","","100.51","","","","-34","","Snow"
"-115.14","67.82","KUGLUKTUK A","2300903","2020-03-08 23:00","2020","03","08","23:00","-22.4","","-26.6","","69","","","","24","","23","","19.3","","100.48","","","","-34","","Snow,Blowing Snow"
"-115.14","67.82","KUGLUKTUK A","2300903","2020-03-09 00:00","2020","03","09","00:00","-25.8","","-29.3","","73","","","","32","","9","","24.1","","100.52","","","","-34","","Snow"
"-115.14","67.82","KUGLUKTUK A","2300903","2020-03-09 01:00","2020","03","09","01:00","-24.8","","-28.1","","75","","","","28","","19","","24.1","","100.51","","","","-36","","Ice Crystals"
"-115.14","67.82","KUGLUKTUK A","2300903","2020-03-09 02:00","2020","03","09","02:00","-24.9","","-28.8","","71","","","","26","","23","","24.1","","100.54","","","","-37","","Ice Crystals"
"-115.14","67.82","KUGLUKTUK A","2300903","2020-03-09 03:00","2020","03","09","03:00","-25.1","","-29.0","","71","","","","25","","23","","24.1","","100.56","","","","-38","","NA"
"-115.14","67.82","KUGLUKTUK A","2300903","2020-03-09 04:00","2020","03","09","04:00","-26.5","","-30.0","","73","","","","25","","24","","24.1","","100.61","","","","-40","","NA"
"-115.14","67.82","KUGLUKTUK A","2300903","2020-03-09 05:00","2020","03","09","05:00","-27.1","","-30.4","","74","","","","24","","26","","24.1","","100.64","","","","-41","","Clear"
"-115.14","67.82","KUGLUKTUK A","2300903","2020-03-09 06:00","2020","03","09","06:00","-27.6","","-31.2","","72","","","","25","","21","","24.1","","100.66","","","","-40","","NA"
"-115.14","67.82","KUGLUKTUK A","2300903","2020-03-09 07:00","2020","03","09","07:00","-30.0","","-33.4","","73","","","","22","","22","","24.1","","100.68","","","","-44","","NA"
"-115.14","67.82","KUGLUKTUK A","2300903","2020-03-09 08:00","2020","03","09","08:00","-29.4","","-33.0","","72","","","","22","","23","","24.1","","100.71","","","","-43","","Clear"
"-115.14","67.82","KUGLUKTUK A","2300903","2020-03-09 09:00","2020","03","09","09:00","-29.6","","-33.4","","71","","","","21","","10","","24.1","","100.71","","","","-39","","NA"
"-115.14","67.82","KUGLUKTUK A","2300903","2020-03-09 10:00","2020","03","09","10:00","-28.6","","-32.6","","69","","","","22","","13","","24.1","","100.71","","","","-39","","NA"
"-115.14","67.82","KUGLUKTUK A","2300903","2020-03-09 11:00","2020","03","09","11:00","-26.3","","-30.4","","69","","","","23","","20","","24.1","","100.70","","","","-38","","Clear"
"-115.14","67.82","KUGLUKTUK A","2300903","2020-03-09 12:00","2020","03","09","12:00","-25.9","","-30.2","","68","","","","23","","7","","24.1","","100.71","","","","-33","","NA"
"-115.14","67.82","KUGLUKTUK A","2300903","2020-03-09 13:00","2020","03","09","13:00","-25.1","","-29.3","","68","","","","22","","12","","24.1","","100.70","","","","-34","","NA"
"-115.14","67.82","KUGLUKTUK A","2300903","2020-03-09 14:00","2020","03","09","14:00","-24.3","","-29.2","","65","","","","23","","9","","24.1","","100.72","","","","-32","","Clear"
"-115.14","67.82","KUGLUKTUK A","2300903","2020-03-09 15:00","2020","03","09","15:00","-25.3","","-30.1","","65","","","","21","","9","","24.1","","100.72","","","","-33","","NA"
"-115.14","67.82","KUGLUKTUK A","2300903","2020-03-09 16:00","2020","03","09","16:00","-24.6","","-29.1","","67","","","","26","","14","","24.1","","100.75","","","","-34","","NA"
"-115.14","67.82","KUGLUKTUK A","2300903","2020-03-09 17:00","2020","03","09","17:00","-27.5","","-31.8","","68","","","","30","","6","","24.1","","100.80","","","","-34","","Clear"
"-115.14","67.82","KUGLUKTUK A","2300903","2020-03-09 18:00","2020","03","09","18:00","-27.8","","-32.2","","67","","","","26","","13","","24.1","","100.82","","","","-38","","NA"
"-115.14","67.82","KUGLUKTUK A","2300903","2020-03-09 19:00","2020","03","09","19:00","-29.0","","-33.0","","69","","","","25","","6","","24.1","","100.84","","","","-35","","NA"
"-115.14","67.82","KUGLUKTUK A","2300903","2020-03-09 20:00","2020","03","09","20:00","-29.1","","-33.2","","68","","","","27","","4","","24.1","","100.87","","","","-34","","Clear"
"-115.14","67.82","KUGLUKTUK A","2300903","2020-03-09 21:00","2020","03","09","21:00","-28.4","","-32.5","","69","","","","33","","4","","24.1","","100.88","","","","-33","","NA"
"-115.14","67.82","KUGLUKTUK A","2300903","2020-03-09 22:00","2020","03","09","22:00","-29.7","","-33.4","","71","","","","36","","2","","24.1","","100.89","","","","-32","","NA"
"-115.14","67.82","KUGLUKTUK A","2300903","2020-03-09 23:00","2020","03","09","23:00","-28.8","","-32.1","","74","","","","29","","4","","24.1","","100.91","","","","-33","","Mainly Clear"
"-115.14","67.82","KUGLUKTUK A","2300903","2020-03-10 00:00","2020","03","10","00:00","-29.2","","-32.2","","76","","","","36","","1","","24.1","","100.92","","","","-30","","NA"
"-115.14","67.82","KUGLUKTUK A","2300903","2020-03-10 01:00","2020","03","10","01:00","-30.4","","-33.4","","76","","","","36","","3","","24.1","","100.94","","","","-34","","NA"
"-115.14","67.82","KUGLUKTUK A","2300903","2020-03-10 02:00","2020","03","10","02:00","-31.8","","-34.9","","74","","","","31","","4","","24.1","","100.97","","","","-36","","Mainly Clear"
"-115.14","67.82","KUGLUKTUK A","2300903","2020-03-10 03:00","2020","03","10","03:00","-31.9","","-34.6","","77","","","","27","","3","","24.1","","101.00","","","","-35","","NA"
"-115.14","67.82","KUGLUKTUK A","2300903","2020-03-10 04:00","2020","03","10","04:00","-32.4","","-35.5","","75","","","","29","","8","","24.1","","101.00","","","","-41","","NA"
"-115.14","67.82","KUGLUKTUK A","2300903","2020-03-10 05:00","2020","03","10","05:00","-32.6","","-35.8","","74","","","","30","","6","","24.1","","101.04","","","","-40","","Mainly Clear"
"-115.14","67.82","KUGLUKTUK A","2300903","2020-03-10 06:00","2020","03","10","06:00","-34.0","","-37.4","","72","","","","36","","1","","24.1","","101.06","","","","-35","","NA"
"-115.14","67.82","KUGLUKTUK A","2300903","2020-03-10 07:00","2020","03","10","07:00","-33.1","","-36.2","","74","","","","21","","6","","24.1","","101.08","","","","-40","","NA"
"-115.14","67.82","KUGLUKTUK A","2300903","2020-03-10 08:00","2020","03","10","08:00","-32.3","","-35.4","","74","","","","29","","6","","24.1","","101.10","","","","-39","","Clear"
"-115.14","67.82","KUGLUKTUK A","2300903","2020-03-10 09:00","2020","03","10","09:00","-32.5","","-35.8","","73","","","","30","","8","","24.1","","101.12","","","","-41","","NA"
"-115.14","67.82","KUGLUKTUK A","2300903","2020-03-10 10:00","2020","03","10","10:00","-34.1","","-37.6","","71","","","","21","","5","","24.1","","101.15","","","","-40","","NA"
"-115.14","67.82","KUGLUKTUK A","2300903","2020-03-10 11:00","2020","03","10","11:00","-31.7","","-35.1","","72","","","","36","","1","","24.1","","101.18","","","","-33","","Mainly Clear"
"-115.14","67.82","KUGLUKTUK A","2300903","2020-03-10 12:00","2020","03","10","12:00","-31.2","","-34.7","","72","","","","33","","3","","24.1","","101.19","","","","-35","","NA"
"-115.14","67.82","KUGLUKTUK A","2300903","2020-03-10 13:00","2020","03","10","13:00","-30.7","","-34.1","","72","","","","19","","5","","24.1","","101.27","","","","-36","","Ice Crystals"
"-115.14","67.82","KUGLUKTUK A","2300903","2020-03-10 14:00","2020","03","10","14:00","-29.3","","-32.6","","73","","","","36","","3","","24.1","","101.33","","","","-33","","Ice Crystals"
"-115.14","67.82","KUGLUKTUK A","2300903","2020-03-10 15:00","2020","03","10","15:00","-30.3","","-33.7","","73","","","","29","","7","","24.1","","101.38","","","","-38","","NA"
"-115.14","67.82","KUGLUKTUK A","2300903","2020-03-10 16:00","2020","03","10","16:00","-30.2","","-33.6","","73","","","","36","","2","","24.1","","101.44","","","","-32","","NA"
"-115.14","67.82","KUGLUKTUK A","2300903","2020-03-10 17:00","2020","03","10","17:00","-30.3","","-33.8","","72","","","","28","","4","","24.1","","101.49","","","","-35","","Mainly Clear"
"-115.14","67.82","KUGLUKTUK A","2300903","2020-03-10 18:00","2020","03","10","18:00","-31.3","","-34.7","","73","","","","27","","8","","24.1","","101.53","","","","-40","","NA"
"-115.14","67.82","KUGLUKTUK A","2300903","2020-03-10 19:00","2020","03","10","19:00","-31.7","","-35.0","","73","","","","36","","1","","24.1","","101.60","","","","-33","","NA"
"-115.14","67.82","KUGLUKTUK A","2300903","2020-03-10 20:00","2020","03","10","20:00","-32.6","","-36.0","","72","","","","22","","4","","24.1","","101.65","","","","-37","","Mostly Cloudy"
"-115.14","67.82","KUGLUKTUK A","2300903","2020-03-10 21:00","2020","03","10","21:00","-31.7","","-35.0","","73","","","","24","","3","","24.1","","101.71","","","","-35","","NA"
"-115.14","67.82","KUGLUKTUK A","2300903","2020-03-10 22:00","2020","03","10","22:00","-33.5","","-37.0","","72","","","","26","","10","","24.1","","101.75","","","","-43","","Ice Crystals"
"-115.14","67.82","KUGLUKTUK A","2300903","2020-03-10 23:00","2020","03","10","23:00","-33.0","","-36.5","","72","","","","26","","8","","24.1","","101.80","","","","-41","","Ice Crystals"
"-115.14","67.82","KUGLUKTUK A","2300903","2020-03-11 00:00","2020","03","11","00:00","-34.4","","-38.0","","71","","","","23","","5","","24.1","","101.86","","","","-41","","Ice Crystals"
"-115.14","67.82","KUGLUKTUK A","2300903","2020-03-11 01:00","2020","03","11","01:00","-33.4","","-36.9","","72","","","","36","","2","","24.1","","101.93","","","","-36","","Ice Crystals"
"-115.14","67.82","KUGLUKTUK A","2300903","2020-03-11 02:00","2020","03","11","02:00","-33.9","","-37.4","","71","","","","24","","3","","24.1","","102.02","","","","-38","","Ice Crystals"
"-115.14","67.82","KUGLUKTUK A","2300903","2020-03-11 03:00","2020","03","11","03:00","-35.1","","-38.7","","70","","","","2","","5","","24.1","","102.07","","","","-41","","Ice Crystals"
"-115.14","67.82","KUGLUKTUK A","2300903","2020-03-11 04:00","2020","03","11","04:00","-33.9","","-37.4","","71","","","","36","","1","","24.1","","102.11","","","","-35","","Ice Crystals"
"-115.14","67.82","KUGLUKTUK A","2300903","2020-03-11 05:00","2020","03","11","05:00","-34.8","","-38.4","","71","","","","36","","2","","24.1","","102.20","","","","-37","","Ice Crystals"
"-115.14","67.82","KUGLUKTUK A","2300903","2020-03-11 06:00","2020","03","11","06:00","-34.2","","-37.7","","71","","","","32","","3","","24.1","","102.27","","","","-38","","Ice Crystals"
"-115.14","67.82","KUGLUKTUK A","2300903","2020-03-11 07:00","2020","03","11","07:00","-35.0","","-38.7","","70","","","","9","","4","","24.1","","102.32","","","","-40","","NA"
"-115.14","67.82","KUGLUKTUK A","2300903","2020-03-11 08:00","2020","03","11","08:00","-34.3","","-37.9","","71","","","","35","","3","","24.1","","102.38","","","","-38","","Clear"
"-115.14","67.82","KUGLUKTUK A","2300903","2020-03-11 09:00","2020","03","11","09:00","-34.5","","-38.1","","70","","","","1","","3","","24.1","","102.44","","","","-38","","Ice Crystals"
"-115.14","67.82","KUGLUKTUK A","2300903","2020-03-11 10:00","2020","03","11","10:00","-34.0","","-37.7","","71","","","","36","","2","","24.1","","102.50","","","","-36","","Ice Crystals"
"-115.14","67.82","KUGLUKTUK A","2300903","2020-03-11 11:00","2020","03","11","11:00","-33.8","","-37.4","","70","","","","2","","6","","24.1","","102.53","","","","-41","","Cloudy"
"-115.14","67.82","KUGLUKTUK A","2300903","2020-03-11 12:00","2020","03","11","12:00","-33.1","","-36.7","","71","","","","36","","3","","24.1","","102.61","","","","-37","","NA"
"-115.14","67.82","KUGLUKTUK A","2300903","2020-03-11 13:00","2020","03","11","13:00","-32.5","","-36.1","","71","","","","36","","3","","24.1","","102.67","","","","-36","","NA"
"-115.14","67.82","KUGLUKTUK A","2300903","2020-03-11 14:00","2020","03","11","14:00","-31.6","","-35.2","","72","","","","2","","5","","24.1","","102.73","","","","-37","","Cloudy"
"-115.14","67.82","KUGLUKTUK A","2300903","2020-03-11 15:00","2020","03","11","15:00","-31.4","","-34.9","","72","","","","36","","2","","24.1","","102.78","","","","-34","","NA"
"-115.14","67.82","KUGLUKTUK A","2300903","2020-03-11 16:00","2020","03","11","16:00","-31.3","","-34.8","","72","","","","9","","7","","24.1","","102.79","","","","-39","","NA"
"-115.14","67.82","KUGLUKTUK A","2300903","2020-03-11 17:00","2020","03","11","17:00","-30.9","","-34.4","","72","","","","8","","7","","24.1","","102.80","","","","-38","","Cloudy"
"-115.14","67.82","KUGLUKTUK A","2300903","2020-03-11 18:00","2020","03","11","18:00","-30.9","","-34.3","","72","","","","8","","5","","24.1","","102.86","","","","-37","","NA"
"-115.14","67.82","KUGLUKTUK A","2300903","2020-03-11 19:00","2020","03","11","19:00","-30.7","","-34.1","","73","","","","2","","7","","24.1","","102.87","","","","-38","","NA"
"-115.14","67.82","KUGLUKTUK A","2300903","2020-03-11 20:00","2020","03","11","20:00","-30.0","","-33.4","","73","","","","4","","10","","24.1","","102.93","","","","-39","","Cloudy"
"-115.14","67.82","KUGLUKTUK A","2300903","2020-03-11 21:00","2020","03","11","21:00","-29.9","","-33.3","","73","","","","6","","10","","24.1","","102.99","","","","-39","","Snow"
"-115.14","67.82","KUGLUKTUK A","2300903","2020-03-11 22:00","2020","03","11","22:00","-30.0","","-33.4","","73","","","","6","","9","","19.3","","103.04","","","","-39","","Snow"
"-115.14","67.82","KUGLUKTUK A","2300903","2020-03-11 23:00","2020","03","11","23:00","-30.1","","-33.5","","73","","","","4","","7","","19.3","","103.06","","","","-37","","Cloudy"
"-115.14","67.82","KUGLUKTUK A","2300903","2020-03-12 00:00","2020","03","12","00:00","-30.2","","-33.6","","73","","","","4","","8","","24.1","","103.11","","","","-38","","Snow"
"-115.14","67.82","KUGLUKTUK A","2300903","2020-03-12 01:00","2020","03","12","01:00","-30.2","","-33.6","","73","","","","4","","8","","19.3","","103.12","","","","-38","","Snow"
"-115.14","67.82","KUGLUKTUK A","2300903","2020-03-12 02:00","2020","03","12","02:00","-30.2","","-33.6","","73","","","","3","","8","","19.3","","103.19","","","","-38","","Snow"
"-115.14","67.82","KUGLUKTUK A","2300903","2020-03-12 03:00","2020","03","12","03:00","-30.2","","-33.6","","73","","","","2","","5","","19.3","","103.26","","","","-36","","Snow"
"-115.14","67.82","KUGLUKTUK A","2300903","2020-03-12 04:00","2020","03","12","04:00","-30.0","","-33.4","","73","","","","35","","8","","19.3","","103.32","","","","-38","","Snow"
"-115.14","67.82","KUGLUKTUK A","2300903","2020-03-12 05:00","2020","03","12","05:00","-30.1","","-33.6","","73","","","","35","","10","","12.9","","103.39","","","","-39","","Snow"
"-115.14","67.82","KUGLUKTUK A","2300903","2020-03-12 06:00","2020","03","12","06:00","-30.1","","-33.6","","73","","","","34","","8","","9.7","","103.46","","","","-38","","Snow"
"-115.14","67.82","KUGLUKTUK A","2300903","2020-03-12 07:00","2020","03","12","07:00","-30.1","","-33.5","","73","","","","35","","5","","9.7","","103.50","","","","-36","","Snow"
"-115.14","67.82","KUGLUKTUK A","2300903","2020-03-12 08:00","2020","03","12","08:00","-30.3","","-33.7","","73","","","","27","","5","","9.7","","103.56","","","","-36","","Snow"
"-115.14","67.82","KUGLUKTUK A","2300903","2020-03-12 09:00","2020","03","12","09:00","-30.0","","-33.4","","73","","","","27","","5","","9.7","","103.59","","","","-36","","Snow"
"-115.14","67.82","KUGLUKTUK A","2300903","2020-03-12 10:00","2020","03","12","10:00","-29.8","","-33.2","","73","","","","27","","4","","9.7","","103.65","","","","-34","","Snow"
"-115.14","67.82","KUGLUKTUK A","2300903","2020-03-12 11:00","2020","03","12","11:00","-29.3","","-32.8","","73","","","","36","","3","","16.1","","103.71","","","","-33","","Snow"
"-115.14","67.82","KUGLUKTUK A","2300903","2020-03-12 12:00","2020","03","12","12:00","-29.1","","-32.6","","72","","","","31","","5","","6.4","","103.77","","","","-35","","Snow"
"-115.14","67.82","KUGLUKTUK A","2300903","2020-03-12 13:00","2020","03","12","13:00","-29.1","","-32.6","","72","","","","34","","9","","4.8","","103.85","","","","-38","","Snow,Fog"
"-115.14","67.82","KUGLUKTUK A","2300903","2020-03-12 14:00","2020","03","12","14:00","-29.0","","-32.6","","71","","","","35","","8","","6.4","","103.89","","","","-37","","Snow,Fog"
"-115.14","67.82","KUGLUKTUK A","2300903","2020-03-12 15:00","2020","03","12","15:00","-28.6","","-32.4","","71","","","","31","","5","","6.4","","103.96","","","","-34","","Snow,Fog"
"-115.14","67.82","KUGLUKTUK A","2300903","2020-03-12 16:00","2020","03","12","16:00","-28.5","","-32.3","","70","","","","33","","5","","8.1","","104.00","","","","-34","","Snow,Fog"
"-115.14","67.82","KUGLUKTUK A","2300903","2020-03-12 17:00","2020","03","12","17:00","-28.7","","-32.5","","70","","","","27","","8","","16.1","","104.10","","","","-36","","Snow"
"-115.14","67.82","KUGLUKTUK A","2300903","2020-03-12 18:00","2020","03","12","18:00","-29.2","","-33.0","","70","","","","26","","6","","12.9","","104.14","","","","-36","","Snow"
"-115.14","67.82","KUGLUKTUK A","2300903","2020-03-12 19:00","2020","03","12","19:00","-29.6","","-33.6","","70","","","","29","","6","","16.1","","104.22","","","","-36","","Ice Crystals"
"-115.14","67.82","KUGLUKTUK A","2300903","2020-03-12 20:00","2020","03","12","20:00","-30.2","","-34.0","","70","","","","36","","6","","16.1","","104.21","","","","-37","","Ice Crystals"
"-115.14","67.82","KUGLUKTUK A","2300903","2020-03-12 21:00","2020","03","12","21:00","-30.6","","-34.6","","69","","","","34","","5","","16.1","","104.29","","","","-36","","Ice Crystals"
"-115.14","67.82","KUGLUKTUK A","2300903","2020-03-12 22:00","2020","03","12","22:00","-31.5","","-35.4","","69","","","","26","","4","","19.3","","104.32","","","","-36","","Ice Crystals"
"-115.14","67.82","KUGLUKTUK A","2300903","2020-03-12 23:00","2020","03","12","23:00","-32.2","","-36.0","","70","","","","25","","9","","16.1","","104.37","","","","-41","","Ice Crystals"
"-115.14","67.82","KUGLUKTUK A","2300903","2020-03-13 00:00","2020","03","13","00:00","-33.6","","-37.4","","70","","","","23","","17","","19.3","","104.40","","","","-47","","NA"
"-115.14","67.82","KUGLUKTUK A","2300903","2020-03-13 01:00","2020","03","13","01:00","-33.3","","-36.9","","71","","","","23","","19","","19.3","","104.42","","","","-47","","Ice Crystals"
"-115.14","67.82","KUGLUKTUK A","2300903","2020-03-13 02:00","2020","03","13","02:00","-34.2","","-37.8","","70","","","","22","","22","","19.3","","104.46","","","","-49","","Ice Crystals"
"-115.14","67.82","KUGLUKTUK A","2300903","2020-03-13 03:00","2020","03","13","03:00","-35.2","","-39.0","","69","","","","22","","19","","19.3","","104.46","","","","-49","","Ice Crystals"
"-115.14","67.82","KUGLUKTUK A","2300903","2020-03-13 04:00","2020","03","13","04:00","-35.5","","-39.4","","69","","","","21","","17","","24.1","","104.47","","","","-49","","NA"
"-115.14","67.82","KUGLUKTUK A","2300903","2020-03-13 05:00","2020","03","13","05:00","-35.4","","-39.2","","69","","","","21","","18","","24.1","","104.40","","","","-49","","Mainly Clear"
"-115.14","67.82","KUGLUKTUK A","2300903","2020-03-13 06:00","2020","03","13","06:00","-35.0","","-38.8","","69","","","","21","","17","","24.1","","104.35","","","","-48","","NA"
"-115.14","67.82","KUGLUKTUK A","2300903","2020-03-13 07:00","2020","03","13","07:00","-35.5","","-39.5","","68","","","","21","","16","","24.1","","104.32","","","","-49","","NA"
"-115.14","67.82","KUGLUKTUK A","2300903","2020-03-13 08:00","2020","03","13","08:00","-33.7","","-37.9","","67","","","","21","","5","","24.1","","104.32","","","","-40","","Mainly Clear"
"-115.14","67.82","KUGLUKTUK A","2300903","2020-03-13 09:00","2020","03","13","09:00","-33.3","","-37.6","","66","","","","17","","6","","24.1","","104.25","","","","-40","","NA"
"-115.14","67.82","KUGLUKTUK A","2300903","2020-03-13 10:00","2020","03","13","10:00","-29.7","","-34.5","","64","","","","22","","25","","24.1","","104.23","","","","-44","","NA"
"-115.14","67.82","KUGLUKTUK A","2300903","2020-03-13 11:00","2020","03","13","11:00","-27.7","","-32.7","","63","","","","20","","34","","24.1","","104.08","","","","-43","","Ice Crystals,Blowing Snow"
"-115.14","67.82","KUGLUKTUK A","2300903","2020-03-13 12:00","2020","03","13","12:00","-26.0","","-30.9","","65","","","","22","","32","","24.1","","103.90","","","","-41","","Ice Crystals,Blowing Snow"
"-115.14","67.82","KUGLUKTUK A","2300903","2020-03-13 13:00","2020","03","13","13:00","-25.5","","-30.1","","66","","","","21","","44","","19.3","","103.85","","","","-42","","Ice Crystals,Blowing Snow"
"-115.14","67.82","KUGLUKTUK A","2300903","2020-03-13 14:00","2020","03","13","14:00","-24.5","","-29.1","","67","","","","22","","43","","16.1","","103.79","","","","-41","","Ice Crystals,Blowing Snow"
"-115.14","67.82","KUGLUKTUK A","2300903","2020-03-13 15:00","2020","03","13","15:00","-24.3","","-28.8","","67","","","","22","","30","","19.3","","103.74","","","","-38","","Ice Crystals,Blowing Snow"
"-115.14","67.82","KUGLUKTUK A","2300903","2020-03-13 16:00","2020","03","13","16:00","-24.8","","-28.9","","70","","","","22","","50","","6.4","","103.51","","","","-42","","Ice Crystals,Blowing Snow"
"-115.14","67.82","KUGLUKTUK A","2300903","2020-03-13 17:00","2020","03","13","17:00","-24.5","","-28.5","","70","","","","21","","42","","9.7","","103.44","","","","-40","","Ice Crystals,Blowing Snow"
"-115.14","67.82","KUGLUKTUK A","2300903","2020-03-13 18:00","2020","03","13","18:00","-23.7","","-27.1","","74","","","","21","","51","","1.6","","103.20","","","","-41","","Ice Crystals,Blowing Snow"
"-115.14","67.82","KUGLUKTUK A","2300903","2020-03-13 19:00","2020","03","13","19:00","-22.9","","-26.3","","74","","","","21","","46","","1.6","","103.04","","","","-39","","Snow,Blowing Snow"
"-115.14","67.82","KUGLUKTUK A","2300903","2020-03-13 20:00","2020","03","13","20:00","-22.2","","-25.2","","77","","","","22","","60","","0.2","","102.78","","","","-40","","Snow,Blowing Snow"
"-115.14","67.82","KUGLUKTUK A","2300903","2020-03-13 21:00","2020","03","13","21:00","-21.2","","-24.1","","78","","","","22","","62","","0.2","","102.58","","","","-38","","Snow,Blowing Snow"
"-115.14","67.82","KUGLUKTUK A","2300903","2020-03-13 22:00","2020","03","13","22:00","-20.3","","-23.1","","79","","","","23","","59","","0.2","","102.42","","","","-37","","Snow,Blowing Snow"
"-115.14","67.82","KUGLUKTUK A","2300903","2020-03-13 23:00","2020","03","13","23:00","-18.9","","-21.5","","81","","","","23","","53","","0.2","","102.25","","","","-34","","Snow,Blowing Snow"
"-115.14","67.82","KUGLUKTUK A","2300903","2020-03-14 00:00","2020","03","14","00:00","-17.8","","-20.2","","82","","","","23","","49","","0.2","","102.14","","","","-32","","Snow,Blowing Snow"
"-115.14","67.82","KUGLUKTUK A","2300903","2020-03-14 01:00","2020","03","14","01:00","-16.4","","-18.7","","83","","","","22","","53","","0.2","","101.98","","","","-31","","Snow,Blowing Snow"
"-115.14","67.82","KUGLUKTUK A","2300903","2020-03-14 02:00","2020","03","14","02:00","-14.6","","-16.7","","84","","","","24","","53","","0.2","","101.83","","","","-28","","Snow,Blowing Snow"
"-115.14","67.82","KUGLUKTUK A","2300903","2020-03-14 03:00","2020","03","14","03:00","-13.8","","-15.8","","85","","","","24","","52","","0.2","","101.71","","","","-27","","Snow,Blowing Snow"
"-115.14","67.82","KUGLUKTUK A","2300903","2020-03-14 04:00","2020","03","14","04:00","-12.3","","-14.1","","86","","","","24","","56","","0.2","","101.62","","","","-25","","Snow,Blowing Snow"
"-115.14","67.82","KUGLUKTUK A","2300903","2020-03-14 05:00","2020","03","14","05:00","-11.8","","-13.6","","87","","","","24","","52","","0.4","","101.58","","","","-24","","Snow,Blowing Snow"
"-115.14","67.82","KUGLUKTUK A","2300903","2020-03-14 06:00","2020","03","14","06:00","-11.0","","-12.8","","87","","","","23","","45","","0.6","","101.51","","","","-23","","Snow,Blowing Snow"
"-115.14","67.82","KUGLUKTUK A","2300903","2020-03-14 07:00","2020","03","14","07:00","-10.1","","-11.8","","88","","","","24","","50","","0.2","","101.41","","","","-22","","Snow,Blowing Snow"
"-115.14","67.82","KUGLUKTUK A","2300903","2020-03-14 08:00","2020","03","14","08:00","-9.2","","-11.1","","87","","","","24","","37","","12.9","","101.42","","","","-19","","Snow,Blowing Snow"
"-115.14","67.82","KUGLUKTUK A","2300903","2020-03-14 09:00","2020","03","14","09:00","-7.4","","-9.8","","83","","","","26","","42","","16.1","","101.43","","","","-17","","Snow,Blowing Snow"
"-115.14","67.82","KUGLUKTUK A","2300903","2020-03-14 10:00","2020","03","14","10:00","-6.0","","-8.5","","83","","","","26","","42","","12.9","","101.43","","","","-16","","Snow,Blowing Snow"
"-115.14","67.82","KUGLUKTUK A","2300903","2020-03-14 11:00","2020","03","14","11:00","-5.4","","-7.9","","83","","","","26","","36","","6.4","","101.38","","","","-14","","Snow,Blowing Snow"
"-115.14","67.82","KUGLUKTUK A","2300903","2020-03-14 12:00","2020","03","14","12:00","-4.7","","-7.7","","80","","","","27","","46","","19.3","","101.39","","","","-14","","Blowing Snow"
"-115.14","67.82","KUGLUKTUK A","2300903","2020-03-14 13:00","2020","03","14","13:00","-5.0","","-7.6","","82","","","","25","","39","","8.1","","101.39","","","","-14","","Snow,Blowing Snow"
"-115.14","67.82","KUGLUKTUK A","2300903","2020-03-14 14:00","2020","03","14","14:00","-4.6","","-7.1","","83","","","","25","","36","","16.1","","101.37","","","","-13","","Snow,Blowing Snow"
"-115.14","67.82","KUGLUKTUK A","2300903","2020-03-14 15:00","2020","03","14","15:00","-4.7","","-7.2","","82","","","","25","","41","","16.1","","101.32","","","","-14","","Blowing Snow"
"-115.14","67.82","KUGLUKTUK A","2300903","2020-03-14 16:00","2020","03","14","16:00","-4.5","","-6.9","","83","","","","27","","45","","16.1","","101.27","","","","-14","","Blowing Snow"
"-115.14","67.82","KUGLUKTUK A","2300903","2020-03-14 17:00","2020","03","14","17:00","-4.9","","-6.2","","90","","","","26","","36","","6.4","","101.23","","","","-14","","Snow,Blowing Snow"
"-115.14","67.82","KUGLUKTUK A","2300903","2020-03-14 18:00","2020","03","14","18:00","-5.1","","-6.4","","91","","","","25","","40","","8.1","","101.17","","","","-14","","Snow,Blowing Snow"
"-115.14","67.82","KUGLUKTUK A","2300903","2020-03-14 19:00","2020","03","14","19:00","-5.5","","-6.8","","91","","","","25","","43","","12.9","","101.05","","","","-15","","Snow,Blowing Snow"
"-115.14","67.82","KUGLUKTUK A","2300903","2020-03-14 20:00","2020","03","14","20:00","-4.8","","-6.0","","91","","","","26","","50","","2.4","","100.96","","","","-15","","Snow,Blowing Snow"
"-115.14","67.82","KUGLUKTUK A","2300903","2020-03-14 21:00","2020","03","14","21:00","-5.2","","-6.5","","91","","","","26","","52","","4.8","","100.90","","","","-15","","Snow,Blowing Snow"
"-115.14","67.82","KUGLUKTUK A","2300903","2020-03-14 22:00","2020","03","14","22:00","-5.4","","-6.7","","90","","","","26","","48","","4.8","","100.87","","","","-15","","Snow,Blowing Snow"
"-115.14","67.82","KUGLUKTUK A","2300903","2020-03-14 23:00","2020","03","14","23:00","-5.6","","-7.0","","90","","","","26","","47","","6.4","","100.82","","","","-16","","Snow,Blowing Snow"
"-115.14","67.82","KUGLUKTUK A","2300903","2020-03-15 00:00","2020","03","15","00:00","-5.9","","-8.0","","85","","","","27","","48","","6.4","","100.76","","","","-16","","Snow,Blowing Snow"
"-115.14","67.82","KUGLUKTUK A","2300903","2020-03-15 01:00","2020","03","15","01:00","-5.9","","-8.0","","85","","","","26","","54","","6.4","","100.71","","","","-17","","Snow,Blowing Snow"
"-115.14","67.82","KUGLUKTUK A","2300903","2020-03-15 02:00","2020","03","15","02:00","-5.8","","-8.0","","85","","","","26","","52","","6.4","","100.69","","","","-16","","Snow,Blowing Snow"
"-115.14","67.82","KUGLUKTUK A","2300903","2020-03-15 03:00","2020","03","15","03:00","-7.1","","-9.2","","85","","","","27","","46","","6.4","","100.73","","","","-17","","Snow,Blowing Snow"
"-115.14","67.82","KUGLUKTUK A","2300903","2020-03-15 04:00","2020","03","15","04:00","-7.6","","-9.8","","85","","","","28","","53","","9.7","","100.64","","","","-19","","Snow,Blowing Snow"
"-115.14","67.82","KUGLUKTUK A","2300903","2020-03-15 05:00","2020","03","15","05:00","-9.0","","-11.0","","86","","","","27","","54","","9.7","","100.65","","","","-21","","Snow,Blowing Snow"
"-115.14","67.82","KUGLUKTUK A","2300903","2020-03-15 06:00","2020","03","15","06:00","-9.4","","-11.1","","88","","","","27","","59","","0.8","","100.64","","","","-22","","Snow,Blowing Snow"
"-115.14","67.82","KUGLUKTUK A","2300903","2020-03-15 07:00","2020","03","15","07:00","-10.0","","-11.8","","87","","","","28","","53","","0.8","","100.70","","","","-22","","Snow,Blowing Snow"
"-115.14","67.82","KUGLUKTUK A","2300903","2020-03-15 08:00","2020","03","15","08:00","-12.5","","-14.3","","86","","","","30","","63","","0.8","","100.90","","","","-26","","Snow,Blowing Snow"
"-115.14","67.82","KUGLUKTUK A","2300903","2020-03-15 09:00","2020","03","15","09:00","-13.7","","-15.8","","85","","","","28","","48","","0.6","","101.11","","","","-27","","Snow,Blowing Snow"
"-115.14","67.82","KUGLUKTUK A","2300903","2020-03-15 10:00","2020","03","15","10:00","-15.6","","-17.9","","82","","","","31","","57","","0.6","","101.20","","","","-30","","Snow,Blowing Snow"
"-115.14","67.82","KUGLUKTUK A","2300903","2020-03-15 11:00","2020","03","15","11:00","-16.3","","-18.8","","81","","","","30","","46","","1.2","","101.29","","","","-30","","Snow,Blowing Snow"
"-115.14","67.82","KUGLUKTUK A","2300903","2020-03-15 12:00","2020","03","15","12:00","-17.3","","-20.0","","80","","","","30","","53","","1.2","","101.38","","","","-32","","Snow,Blowing Snow"
"-115.14","67.82","KUGLUKTUK A","2300903","2020-03-15 13:00","2020","03","15","13:00","-18.3","","-21.4","","78","","","","30","","40","","1.2","","101.50","","","","-32","","Snow,Blowing Snow"
"-115.14","67.82","KUGLUKTUK A","2300903","2020-03-15 14:00","2020","03","15","14:00","-19.7","","-22.6","","78","","","","32","","50","","1.2","","101.59","","","","-35","","Snow,Blowing Snow"
"-115.14","67.82","KUGLUKTUK A","2300903","2020-03-15 15:00","2020","03","15","15:00","-20.4","","-23.1","","80","","","","31","","56","","0.8","","101.58","","","","-37","","Snow,Blowing Snow"
"-115.14","67.82","KUGLUKTUK A","2300903","2020-03-15 16:00","2020","03","15","16:00","-21.0","","-23.7","","79","","","","30","","61","","0.6","","101.59","","","","-38","","Snow,Blowing Snow"
"-115.14","67.82","KUGLUKTUK A","2300903","2020-03-15 17:00","2020","03","15","17:00","-21.4","","-24.1","","79","","","","31","","62","","0.6","","101.66","","","","-39","","Snow,Blowing Snow"
"-115.14","67.82","KUGLUKTUK A","2300903","2020-03-15 18:00","2020","03","15","18:00","-22.0","","-24.8","","79","","","","31","","59","","0.6","","101.66","","","","-39","","Snow,Blowing Snow"
"-115.14","67.82","KUGLUKTUK A","2300903","2020-03-15 19:00","2020","03","15","19:00","-22.2","","-25.1","","78","","","","31","","58","","0.0","","101.67","","","","-39","","Blowing Snow"
"-115.14","67.82","KUGLUKTUK A","2300903","2020-03-15 20:00","2020","03","15","20:00","-23.3","","-26.2","","77","","","","32","","65","","0.2","","101.79","","","","-42","","Blowing Snow"
"-115.14","67.82","KUGLUKTUK A","2300903","2020-03-15 21:00","2020","03","15","21:00","-24.7","","-27.6","","77","","","","32","","55","","0.0","","101.85","","","","-42","","Blowing Snow"
"-115.14","67.82","KUGLUKTUK A","2300903","2020-03-15 22:00","2020","03","15","22:00","-25.3","","-28.3","","77","","","","32","","47","","0.2","","101.94","","","","-42","","Blowing Snow"
"-115.14","67.82","KUGLUKTUK A","2300903","2020-03-15 23:00","2020","03","15","23:00","-26.1","","-29.1","","76","","","","31","","34","","0.6","","102.07","","","","-41","","Blowing Snow"
"-115.14","67.82","KUGLUKTUK A","2300903","2020-03-16 00:00","2020","03","16","00:00","-26.8","","-29.8","","76","","","","32","","39","","0.2","","102.15","","","","-43","","Blowing Snow"
"-115.14","67.82","KUGLUKTUK A","2300903","2020-03-16 01:00","2020","03","16","01:00","-27.3","","-30.4","","76","","","","32","","40","","1.0","","102.23","","","","-44","","Blowing Snow"
"-115.14","67.82","KUGLUKTUK A","2300903","2020-03-16 02:00","2020","03","16","02:00","-27.6","","-30.7","","75","","","","32","","31","","2.0","","102.35","","","","-43","","Ice Crystals,Blowing Snow"
"-115.14","67.82","KUGLUKTUK A","2300903","2020-03-16 03:00","2020","03","16","03:00","-27.9","","-31.2","","74","","","","32","","35","","2.4","","102.41","","","","-44","","Snow Grains,Blowing Snow"
"-115.14","67.82","KUGLUKTUK A","2300903","2020-03-16 04:00","2020","03","16","04:00","-28.6","","-31.9","","74","","","","31","","31","","8.1","","102.45","","","","-44","","Ice Crystals,Blowing Snow"
"-115.14","67.82","KUGLUKTUK A","2300903","2020-03-16 05:00","2020","03","16","05:00","-29.1","","-32.7","","72","","","","30","","19","","16.1","","102.52","","","","-42","","Ice Crystals,Blowing Snow"
"-115.14","67.82","KUGLUKTUK A","2300903","2020-03-16 06:00","2020","03","16","06:00","-30.1","","-34.0","","70","","","","28","","16","","24.1","","102.58","","","","-42","","NA"
"-115.14","67.82","KUGLUKTUK A","2300903","2020-03-16 07:00","2020","03","16","07:00","-29.6","","-33.5","","70","","","","28","","24","","24.1","","102.58","","","","-44","","NA"
"-115.14","67.82","KUGLUKTUK A","2300903","2020-03-16 08:00","2020","03","16","08:00","-30.6","","-34.4","","70","","","","29","","19","","24.1","","102.58","","","","-44","","Clear"
"-115.14","67.82","KUGLUKTUK A","2300903","2020-03-16 09:00","2020","03","16","09:00","-29.3","","-33.2","","69","","","","28","","14","","24.1","","102.66","","","","-40","","NA"
"-115.14","67.82","KUGLUKTUK A","2300903","2020-03-16 10:00","2020","03","16","10:00","-28.9","","-32.9","","70","","","","29","","9","","24.1","","102.67","","","","-37","","NA"
"-115.14","67.82","KUGLUKTUK A","2300903","2020-03-16 11:00","2020","03","16","11:00","-28.8","","-32.7","","70","","","","23","","18","","24.1","","102.72","","","","-41","","Clear"
"-115.14","67.82","KUGLUKTUK A","2300903","2020-03-16 12:00","2020","03","16","12:00","-28.2","","-32.3","","69","","","","24","","21","","24.1","","102.69","","","","-41","","NA"
"-115.14","67.82","KUGLUKTUK A","2300903","2020-03-16 13:00","2020","03","16","13:00","-27.6","","-31.7","","69","","","","23","","17","","24.1","","102.70","","","","-39","","NA"
"-115.14","67.82","KUGLUKTUK A","2300903","2020-03-16 14:00","2020","03","16","14:00","-27.3","","-31.4","","69","","","","24","","23","","24.1","","102.71","","","","-41","","Mainly Clear"
"-115.14","67.82","KUGLUKTUK A","2300903","2020-03-16 15:00","2020","03","16","15:00","-27.2","","-31.3","","69","","","","25","","18","","24.1","","102.72","","","","-39","","NA"
"-115.14","67.82","KUGLUKTUK A","2300903","2020-03-16 16:00","2020","03","16","16:00","-27.3","","-31.5","","68","","","","23","","13","","24.1","","102.73","","","","-37","","NA"
"-115.14","67.82","KUGLUKTUK A","2300903","2020-03-16 17:00","2020","03","16","17:00","-27.9","","-32.0","","69","","","","21","","12","","24.1","","102.70","","","","-38","","Clear"
"-115.14","67.82","KUGLUKTUK A","2300903","2020-03-16 18:00","2020","03","16","18:00","-29.1","","-33.1","","69","","","","21","","18","","24.1","","102.66","","","","-41","","NA"
"-115.14","67.82","KUGLUKTUK A","2300903","2020-03-16 19:00","2020","03","16","19:00","-30.0","","-34.0","","69","","","","22","","11","","24.1","","102.62","","","","-40","","NA"
"-115.14","67.82","KUGLUKTUK A","2300903","2020-03-16 20:00","2020","03","16","20:00","-30.0","","-34.1","","68","","","","22","","17","","24.1","","102.59","","","","-42","","Mainly Clear"
"-115.14","67.82","KUGLUKTUK A","2300903","2020-03-16 21:00","2020","03","16","21:00","-29.9","","-34.1","","68","","","","20","","12","","24.1","","102.52","","","","-40","","NA"
"-115.14","67.82","KUGLUKTUK A","2300903","2020-03-16 22:00","2020","03","16","22:00","-30.4","","-34.5","","68","","","","21","","12","","24.1","","102.50","","","","-41","","NA"
"-115.14","67.82","KUGLUKTUK A","2300903","2020-03-16 23:00","2020","03","16","23:00","-30.0","","-34.0","","69","","","","18","","14","","24.1","","102.48","","","","-41","","Clear"
"-115.14","67.82","KUGLUKTUK A","2300903","2020-03-17 00:00","2020","03","17","00:00","-29.9","","-34.0","","68","","","","22","","18","","24.1","","102.45","","","","-42","","NA"
"-115.14","67.82","KUGLUKTUK A","2300903","2020-03-17 01:00","2020","03","17","01:00","-29.7","","-33.9","","68","","","","22","","16","","24.1","","102.48","","","","-41","","NA"
"-115.14","67.82","KUGLUKTUK A","2300903","2020-03-17 02:00","2020","03","17","02:00","-29.0","","-33.2","","68","","","","21","","19","","24.1","","102.44","","","","-42","","Clear"
"-115.14","67.82","KUGLUKTUK A","2300903","2020-03-17 03:00","2020","03","17","03:00","-28.8","","-33.1","","67","","","","22","","17","","24.1","","102.38","","","","-41","","NA"
"-115.14","67.82","KUGLUKTUK A","2300903","2020-03-17 04:00","2020","03","17","04:00","-28.3","","-32.8","","66","","","","22","","14","","24.1","","102.31","","","","-39","","NA"
"-115.14","67.82","KUGLUKTUK A","2300903","2020-03-17 05:00","2020","03","17","05:00","-27.6","","-32.0","","67","","","","22","","20","","24.1","","102.28","","","","-40","","Mostly Cloudy"
"-115.14","67.82","KUGLUKTUK A","2300903","2020-03-17 06:00","2020","03","17","06:00","-26.8","","-31.4","","66","","","","22","","23","","24.1","","102.23","","","","-40","","NA"
"-115.14","67.82","KUGLUKTUK A","2300903","2020-03-17 07:00","2020","03","17","07:00","-26.1","","-30.8","","66","","","","22","","28","","24.1","","102.17","","","","-40","","NA"
"-115.14","67.82","KUGLUKTUK A","2300903","2020-03-17 08:00","2020","03","17","08:00","-24.8","","-29.6","","65","","","","22","","28","","24.1","","102.14","","","","-38","","Mostly Cloudy"
"-115.14","67.82","KUGLUKTUK A","2300903","2020-03-17 09:00","2020","03","17","09:00","-24.0","","-28.6","","67","","","","22","","29","","24.1","","102.14","","","","-38","","NA"
"-115.14","67.82","KUGLUKTUK A","2300903","2020-03-17 10:00","2020","03","17","10:00","-22.1","","-25.8","","73","","","","21","","28","","4.8","","102.08","","","","-35","","Snow,Blowing Snow"
"-115.14","67.82","KUGLUKTUK A","2300903","2020-03-17 11:00","2020","03","17","11:00","-21.4","","-24.9","","74","","","","22","","23","","6.4","","102.05","","","","-33","","Snow,Blowing Snow"
"-115.14","67.82","KUGLUKTUK A","2300903","2020-03-17 12:00","2020","03","17","12:00","-20.1","","-23.6","","75","","","","22","","29","","6.4","","101.98","","","","-33","","Snow,Blowing Snow"
"-115.14","67.82","KUGLUKTUK A","2300903","2020-03-17 13:00","2020","03","17","13:00","-18.8","","-22.4","","74","","","","23","","33","","6.4","","101.95","","","","-32","","Snow,Blowing Snow"
"-115.14","67.82","KUGLUKTUK A","2300903","2020-03-17 14:00","2020","03","17","14:00","-18.0","","-21.8","","73","","","","23","","27","","16.1","","101.96","","","","-29","","Snow,Blowing Snow"
"-115.14","67.82","KUGLUKTUK A","2300903","2020-03-17 15:00","2020","03","17","15:00","-18.0","","-22.0","","71","","","","23","","34","","24.1","","101.98","","","","-31","","Blowing Snow"
"-115.14","67.82","KUGLUKTUK A","2300903","2020-03-17 16:00","2020","03","17","16:00","-18.0","","-22.0","","71","","","","23","","28","","24.1","","102.00","","","","-30","","Blowing Snow"
"-115.14","67.82","KUGLUKTUK A","2300903","2020-03-17 17:00","2020","03","17","17:00","-18.4","","-22.4","","71","","","","23","","26","","24.1","","102.03","","","","-30","","Mainly Clear"
"-115.14","67.82","KUGLUKTUK A","2300903","2020-03-17 18:00","2020","03","17","18:00","-19.4","","-23.4","","71","","","","23","","28","","24.1","","102.02","","","","-31","","NA"
"-115.14","67.82","KUGLUKTUK A","2300903","2020-03-17 19:00","2020","03","17","19:00","-19.4","","-23.2","","72","","","","23","","24","","24.1","","102.07","","","","-31","","NA"
"-115.14","67.82","KUGLUKTUK A","2300903","2020-03-17 20:00","2020","03","17","20:00","-19.7","","-23.4","","73","","","","23","","23","","24.1","","102.10","","","","-31","","Cloudy"
"-115.14","67.82","KUGLUKTUK A","2300903","2020-03-17 21:00","2020","03","17","21:00","-21.0","","-24.4","","75","","","","23","","24","","24.1","","102.14","","","","-33","","Ice Crystals,Blowing Snow"
"-115.14","67.82","KUGLUKTUK A","2300903","2020-03-17 22:00","2020","03","17","22:00","-21.4","","-24.8","","75","","","","23","","25","","19.3","","102.18","","","","-33","","Ice Crystals,Blowing Snow"
"-115.14","67.82","KUGLUKTUK A","2300903","2020-03-17 23:00","2020","03","17","23:00","-20.7","","-23.8","","77","","","","23","","17","","16.1","","102.23","","","","-31","","Ice Crystals"
"-115.14","67.82","KUGLUKTUK A","2300903","2020-03-18 00:00","2020","03","18","00:00","-21.1","","-24.1","","77","","","","24","","19","","24.1","","102.26","","","","-32","","Ice Crystals"
"-115.14","67.82","KUGLUKTUK A","2300903","2020-03-18 01:00","2020","03","18","01:00","-21.8","","-24.6","","78","","","","23","","16","","16.1","","102.31","","","","-32","","Ice Crystals"
"-115.14","67.82","KUGLUKTUK A","2300903","2020-03-18 02:00","2020","03","18","02:00","-22.9","","-25.8","","78","","","","35","","3","","16.1","","102.34","","","","-26","","Ice Crystals"
"-115.14","67.82","KUGLUKTUK A","2300903","2020-03-18 03:00","2020","03","18","03:00","-22.8","","-25.3","","80","","","","29","","3","","24.1","","102.38","","","","-26","","Ice Crystals"
"-115.14","67.82","KUGLUKTUK A","2300903","2020-03-18 04:00","2020","03","18","04:00","-24.2","","-26.6","","81","","","","36","","3","","24.1","","102.42","","","","-27","","Ice Crystals"
"-115.14","67.82","KUGLUKTUK A","2300903","2020-03-18 05:00","2020","03","18","05:00","-25.7","","-28.5","","78","","","","10","","11","","24.1","","102.48","","","","-34","","Ice Crystals"
"-115.14","67.82","KUGLUKTUK A","2300903","2020-03-18 06:00","2020","03","18","06:00","-25.9","","-28.7","","78","","","","11","","13","","16.1","","102.51","","","","-36","","Ice Crystals"
"-115.14","67.82","KUGLUKTUK A","2300903","2020-03-18 07:00","2020","03","18","07:00","-26.2","","-29.1","","77","","","","10","","13","","24.1","","102.55","","","","-36","","NA"
"-115.14","67.82","KUGLUKTUK A","2300903","2020-03-18 08:00","2020","03","18","08:00","-26.5","","-29.6","","76","","","","4","","3","","24.1","","102.60","","","","-30","","Mainly Clear"
"-115.14","67.82","KUGLUKTUK A","2300903","2020-03-18 09:00","2020","03","18","09:00","-27.2","","-30.2","","76","","","","36","","3","","24.1","","102.65","","","","-30","","NA"
"-115.14","67.82","KUGLUKTUK A","2300903","2020-03-18 10:00","2020","03","18","10:00","-27.0","","-30.3","","74","","","","36","","3","","24.1","","102.69","","","","-30","","NA"
"-115.14","67.82","KUGLUKTUK A","2300903","2020-03-18 11:00","2020","03","18","11:00","-26.8","","-30.1","","74","","","","11","","4","","16.1","","102.67","","","","-31","","Mostly Cloudy"
"-115.14","67.82","KUGLUKTUK A","2300903","2020-03-18 12:00","2020","03","18","12:00","-26.0","","-29.3","","74","","","","1","","3","","24.1","","102.68","","","","-29","","NA"
"-115.14","67.82","KUGLUKTUK A","2300903","2020-03-18 13:00","2020","03","18","13:00","-25.2","","-28.6","","74","","","","33","","8","","24.1","","102.75","","","","-32","","NA"
"-115.14","67.82","KUGLUKTUK A","2300903","2020-03-18 14:00","2020","03","18","14:00","-24.2","","-27.8","","73","","","","34","","3","","24.1","","102.79","","","","-27","","Cloudy"
"-115.14","67.82","KUGLUKTUK A","2300903","2020-03-18 15:00","2020","03","18","15:00","-23.2","","-26.6","","74","","","","6","","4","","24.1","","102.74","","","","-27","","NA"
"-115.14","67.82","KUGLUKTUK A","2300903","2020-03-18 16:00","2020","03","18","16:00","-22.9","","-26.5","","73","","","","33","","5","","24.1","","102.75","","","","-28","","NA"
"-115.14","67.82","KUGLUKTUK A","2300903","2020-03-18 17:00","2020","03","18","17:00","-23.7","","-27.0","","75","","","","35","","7","","24.1","","102.74","","","","-30","","Clear"
"-115.14","67.82","KUGLUKTUK A","2300903","2020-03-18 18:00","2020","03","18","18:00","-25.2","","-28.2","","77","","","","1","","8","","24.1","","102.72","","","","-32","","NA"
"-115.14","67.82","KUGLUKTUK A","2300903","2020-03-18 19:00","2020","03","18","19:00","-26.0","","-28.8","","78","","","","1","","5","","24.1","","102.72","","","","-31","","NA"
"-115.14","67.82","KUGLUKTUK A","2300903","2020-03-18 20:00","2020","03","18","20:00","-26.3","","-29.1","","78","","","","2","","6","","24.1","","102.68","","","","-32","","Clear"
"-115.14","67.82","KUGLUKTUK A","2300903","2020-03-18 21:00","2020","03","18","21:00","-27.5","","-30.4","","77","","","","35","","8","","24.1","","102.69","","","","-35","","NA"
"-115.14","67.82","KUGLUKTUK A","2300903","2020-03-18 22:00","2020","03","18","22:00","-27.6","","-30.5","","77","","","","12","","3","","24.1","","102.68","","","","-31","","NA"
"-115.14","67.82","KUGLUKTUK A","2300903","2020-03-18 23:00","2020","03","18","23:00","-28.0","","-30.7","","78","","","","13","","5","","24.1","","102.64","","","","-33","","Clear"
"-115.14","67.82","KUGLUKTUK A","2300903","2020-03-19 00:00","2020","03","19","00:00","-28.7","","-31.5","","78","","","","33","","5","","24.1","","102.63","","","","-34","","NA"
"-115.14","67.82","KUGLUKTUK A","2300903","2020-03-19 01:00","2020","03","19","01:00","-27.2","","-29.8","","79","","","","34","","3","","24.1","","102.57","","","","-30","","NA"
"-115.14","67.82","KUGLUKTUK A","2300903","2020-03-19 02:00","2020","03","19","02:00","-27.7","","-30.5","","78","","","","36","","1","","24.1","","102.52","","","","-29","","Clear"
"-115.14","67.82","KUGLUKTUK A","2300903","2020-03-19 03:00","2020","03","19","03:00","-27.5","","-30.2","","78","","","","36","","3","","24.1","","102.47","","","","-31","","NA"
"-115.14","67.82","KUGLUKTUK A","2300903","2020-03-19 04:00","2020","03","19","04:00","-24.6","","-27.1","","80","","","","26","","5","","24.1","","102.44","","","","-29","","NA"
"-115.14","67.82","KUGLUKTUK A","2300903","2020-03-19 05:00","2020","03","19","05:00","-20.8","","-23.4","","80","","","","24","","17","","24.1","","102.36","","","","-31","","Mostly Cloudy"
"-115.14","67.82","KUGLUKTUK A","2300903","2020-03-19 06:00","2020","03","19","06:00","-17.9","","-21.0","","77","","","","22","","28","","24.1","","102.31","","","","-29","","NA"
"-115.14","67.82","KUGLUKTUK A","2300903","2020-03-19 07:00","2020","03","19","07:00","-16.7","","-20.4","","73","","","","22","","41","","24.1","","102.22","","","","-30","","Blowing Snow"
"-115.14","67.82","KUGLUKTUK A","2300903","2020-03-19 08:00","2020","03","19","08:00","-16.1","","-20.1","","72","","","","21","","33","","24.1","","102.16","","","","-28","","Blowing Snow"
"-115.14","67.82","KUGLUKTUK A","2300903","2020-03-19 09:00","2020","03","19","09:00","-15.5","","-19.5","","72","","","","22","","29","","24.1","","102.16","","","","-27","","Blowing Snow"
"-115.14","67.82","KUGLUKTUK A","2300903","2020-03-19 10:00","2020","03","19","10:00","-14.4","","-18.1","","74","","","","22","","26","","24.1","","102.11","","","","-25","","NA"
"-115.14","67.82","KUGLUKTUK A","2300903","2020-03-19 11:00","2020","03","19","11:00","-13.5","","-17.1","","74","","","","23","","22","","24.1","","102.11","","","","-23","","Mostly Cloudy"
"-115.14","67.82","KUGLUKTUK A","2300903","2020-03-19 12:00","2020","03","19","12:00","-13.0","","-16.9","","73","","","","22","","24","","24.1","","102.05","","","","-22","","NA"
"-115.14","67.82","KUGLUKTUK A","2300903","2020-03-19 13:00","2020","03","19","13:00","-12.4","","-16.2","","73","","","","22","","35","","24.1","","101.99","","","","-23","","Blowing Snow"
"-115.14","67.82","KUGLUKTUK A","2300903","2020-03-19 14:00","2020","03","19","14:00","-11.7","","-15.6","","73","","","","22","","34","","24.1","","101.93","","","","-22","","Blowing Snow"
"-115.14","67.82","KUGLUKTUK A","2300903","2020-03-19 15:00","2020","03","19","15:00","-11.7","","-15.6","","73","","","","22","","35","","24.1","","101.87","","","","-22","","Blowing Snow"
"-115.14","67.82","KUGLUKTUK A","2300903","2020-03-19 16:00","2020","03","19","16:00","-12.0","","-16.0","","73","","","","22","","32","","24.1","","101.85","","","","-22","","Blowing Snow"
"-115.14","67.82","KUGLUKTUK A","2300903","2020-03-19 17:00","2020","03","19","17:00","-12.2","","-15.9","","74","","","","22","","25","","24.1","","101.84","","","","-22","","Blowing Snow"
"-115.14","67.82","KUGLUKTUK A","2300903","2020-03-19 18:00","2020","03","19","18:00","-13.4","","-16.8","","76","","","","23","","23","","24.1","","101.82","","","","-23","","NA"
"-115.14","67.82","KUGLUKTUK A","2300903","2020-03-19 19:00","2020","03","19","19:00","-15.0","","-18.2","","77","","","","23","","18","","24.1","","101.80","","","","-24","","NA"
"-115.14","67.82","KUGLUKTUK A","2300903","2020-03-19 20:00","2020","03","19","20:00","-15.2","","-18.4","","77","","","","23","","24","","24.1","","101.76","","","","-25","","Mainly Clear"
"-115.14","67.82","KUGLUKTUK A","2300903","2020-03-19 21:00","2020","03","19","21:00","-16.0","","-19.2","","77","","","","22","","24","","24.1","","101.72","","","","-26","","NA"
"-115.14","67.82","KUGLUKTUK A","2300903","2020-03-19 22:00","2020","03","19","22:00","-16.4","","-19.6","","77","","","","22","","28","","24.1","","101.66","","","","-28","","NA"
"-115.14","67.82","KUGLUKTUK A","2300903","2020-03-19 23:00","2020","03","19","23:00","-16.7","","-19.6","","78","","","","22","","20","","24.1","","101.61","","","","-26","","Mainly Clear"
"-115.14","67.82","KUGLUKTUK A","2300903","2020-03-20 00:00","2020","03","20","00:00","-14.8","","-18.1","","76","","","","22","","30","","24.1","","101.53","","","","-26","","Blowing Snow"
"-115.14","67.82","KUGLUKTUK A","2300903","2020-03-20 01:00","2020","03","20","01:00","-15.7","","-18.7","","78","","","","21","","22","","24.1","","101.44","","","","-25","","NA"
"-115.14","67.82","KUGLUKTUK A","2300903","2020-03-20 02:00","2020","03","20","02:00","-15.2","","-18.3","","77","","","","22","","26","","24.1","","101.38","","","","-26","","Mostly Cloudy"
"-115.14","67.82","KUGLUKTUK A","2300903","2020-03-20 03:00","2020","03","20","03:00","-12.2","","-15.9","","74","","","","22","","36","","24.1","","101.30","","","","-23","","NA"
"-115.14","67.82","KUGLUKTUK A","2300903","2020-03-20 04:00","2020","03","20","04:00","-12.1","","-15.9","","74","","","","21","","34","","24.1","","101.24","","","","-23","","Blowing Snow"
"-115.14","67.82","KUGLUKTUK A","2300903","2020-03-20 05:00","2020","03","20","05:00","-10.7","","-14.6","","74","","","","19","","23","","24.1","","101.14","","","","-19","","Cloudy"
"-115.14","67.82","KUGLUKTUK A","2300903","2020-03-20 06:00","2020","03","20","06:00","-9.3","","-13.4","","72","","","","21","","34","","24.1","","101.01","","","","-19","","NA"
"-115.14","67.82","KUGLUKTUK A","2300903","2020-03-20 07:00","2020","03","20","07:00","-8.7","","-13.0","","71","","","","20","","35","","24.1","","100.85","","","","-18","","NA"
"-115.14","67.82","KUGLUKTUK A","2300903","2020-03-20 08:00","2020","03","20","08:00","-8.1","","-11.6","","76","","","","20","","45","","19.3","","100.69","","","","-19","","Blowing Snow"
"-115.14","67.82","KUGLUKTUK A","2300903","2020-03-20 09:00","2020","03","20","09:00","-7.5","","-11.4","","74","","","","21","","43","","24.1","","100.62","","","","-18","","NA"
"-115.14","67.82","KUGLUKTUK A","2300903","2020-03-20 10:00","2020","03","20","10:00","-6.7","","-10.6","","74","","","","21","","53","","24.1","","100.47","","","","-18","","Blowing Snow"
"-115.14","67.82","KUGLUKTUK A","2300903","2020-03-20 11:00","2020","03","20","11:00","-5.8","","-9.2","","77","","","","24","","33","","24.1","","100.46","","","","-14","","Cloudy"
"-115.14","67.82","KUGLUKTUK A","2300903","2020-03-20 12:00","2020","03","20","12:00","-5.8","","-9.6","","75","","","","22","","39","","24.1","","100.37","","","","-15","","NA"
"-115.14","67.82","KUGLUKTUK A","2300903","2020-03-20 13:00","2020","03","20","13:00","-5.3","","-9.1","","74","","","","22","","41","","24.1","","100.27","","","","-15","","NA"
"-115.14","67.82","KUGLUKTUK A","2300903","2020-03-20 14:00","2020","03","20","14:00","-4.9","","-8.2","","78","","","","24","","27","","24.1","","100.31","","","","-12","","Cloudy"
"-115.14","67.82","KUGLUKTUK A","2300903","2020-03-20 15:00","2020","03","20","15:00","-4.8","","-8.1","","77","","","","25","","37","","24.1","","100.30","","","","-14","","NA"
"-115.14","67.82","KUGLUKTUK A","2300903","2020-03-20 16:00","2020","03","20","16:00","-4.6","","-7.5","","80","","","","25","","32","","24.1","","100.31","","","","-13","","NA"
"-115.14","67.82","KUGLUKTUK A","2300903","2020-03-20 17:00","2020","03","20","17:00","-4.8","","-7.5","","82","","","","24","","32","","24.1","","100.31","","","","-13","","Cloudy"
"-115.14","67.82","KUGLUKTUK A","2300903","2020-03-20 18:00","2020","03","20","18:00","-5.0","","-6.7","","88","","","","24","","29","","24.1","","100.33","","","","-13","","NA"
"-115.14","67.82","KUGLUKTUK A","2300903","2020-03-20 19:00","2020","03","20","19:00","-5.1","","-7.0","","87","","","","23","","26","","24.1","","100.33","","","","-13","","NA"
"-115.14","67.82","KUGLUKTUK A","2300903","2020-03-20 20:00","2020","03","20","20:00","-4.7","","-6.8","","85","","","","25","","34","","24.1","","100.34","","","","-13","","Cloudy"
"-115.14","67.82","KUGLUKTUK A","2300903","2020-03-20 21:00","2020","03","20","21:00","-4.7","","-6.5","","87","","","","26","","29","","11.3","","100.35","","","","-12","","Snow,Blowing Snow"
"-115.14","67.82","KUGLUKTUK A","2300903","2020-03-20 22:00","2020","03","20","22:00","-4.6","","-6.8","","85","","","","26","","29","","16.1","","100.36","","","","-12","","Snow,Blowing Snow"
"-115.14","67.82","KUGLUKTUK A","2300903","2020-03-20 23:00","2020","03","20","23:00","-4.9","","-6.6","","87","","","","27","","30","","12.9","","100.37","","","","-13","","Snow,Blowing Snow"
"-115.14","67.82","KUGLUKTUK A","2300903","2020-03-21 00:00","2020","03","21","00:00","-5.3","","-6.6","","90","","","","27","","25","","6.4","","100.42","","","","-13","","Snow,Blowing Snow"
"-115.14","67.82","KUGLUKTUK A","2300903","2020-03-21 01:00","2020","03","21","01:00","-5.2","","-6.5","","90","","","","27","","25","","6.4","","100.48","","","","-13","","Snow,Blowing Snow"
"-115.14","67.82","KUGLUKTUK A","2300903","2020-03-21 02:00","2020","03","21","02:00","-4.7","","-6.4","","88","","","","26","","19","","6.4","","100.51","","","","-11","","Snow,Blowing Snow"
"-115.14","67.82","KUGLUKTUK A","2300903","2020-03-21 03:00","2020","03","21","03:00","-4.0","","-6.1","","86","","","","27","","20","","16.1","","100.55","","","","-10","","Snow,Blowing Snow"
"-115.14","67.82","KUGLUKTUK A","2300903","2020-03-21 04:00","2020","03","21","04:00","-4.1","","-6.3","","85","","","","27","","20","","24.1","","100.58","","","","-10","","NA"
"-115.14","67.82","KUGLUKTUK A","2300903","2020-03-21 05:00","2020","03","21","05:00","-4.3","","-6.5","","84","","","","26","","20","","19.3","","100.63","","","","-11","","Snow,Blowing Snow"
"-115.14","67.82","KUGLUKTUK A","2300903","2020-03-21 06:00","2020","03","21","06:00","-4.5","","-6.7","","85","","","","28","","14","","19.3","","100.68","","","","-10","","Snow"
"-115.14","67.82","KUGLUKTUK A","2300903","2020-03-21 07:00","2020","03","21","07:00","-3.9","","-5.7","","87","","","","31","","24","","16.1","","100.71","","","","-11","","NA"
"-115.14","67.82","KUGLUKTUK A","2300903","2020-03-21 08:00","2020","03","21","08:00","-2.9","","-5.0","","86","","","","33","","30","","24.1","","100.76","","","","-10","","Cloudy"
"-115.14","67.82","KUGLUKTUK A","2300903","2020-03-21 09:00","2020","03","21","09:00","-2.5","","-5.0","","83","","","","28","","20","","16.1","","100.78","","","","-8","","Snow"
"-115.14","67.82","KUGLUKTUK A","2300903","2020-03-21 10:00","2020","03","21","10:00","-3.2","","-5.0","","87","","","","27","","23","","24.1","","100.76","","","","-10","","NA"
"-115.14","67.82","KUGLUKTUK A","2300903","2020-03-21 11:00","2020","03","21","11:00","-3.2","","-5.1","","87","","","","26","","20","","24.1","","100.78","","","","-9","","Mostly Cloudy"
"-115.14","67.82","KUGLUKTUK A","2300903","2020-03-21 12:00","2020","03","21","12:00","-4.0","","-6.6","","82","","","","26","","29","","24.1","","100.76","","","","-12","","NA"
"-115.14","67.82","KUGLUKTUK A","2300903","2020-03-21 13:00","2020","03","21","13:00","-4.5","","-7.4","","81","","","","26","","22","","24.1","","100.79","","","","-11","","NA"
"-115.14","67.82","KUGLUKTUK A","2300903","2020-03-21 14:00","2020","03","21","14:00","-4.5","","-7.5","","80","","","","27","","21","","24.1","","100.79","","","","-11","","Mostly Cloudy"
"-115.14","67.82","KUGLUKTUK A","2300903","2020-03-21 15:00","2020","03","21","15:00","-4.2","","-7.4","","79","","","","26","","25","","24.1","","100.78","","","","-11","","NA"
"-115.14","67.82","KUGLUKTUK A","2300903","2020-03-21 16:00","2020","03","21","16:00","-4.8","","-8.1","","78","","","","26","","23","","24.1","","100.78","","","","-12","","NA"
"-115.14","67.82","KUGLUKTUK A","2300903","2020-03-21 17:00","2020","03","21","17:00","-5.5","","-8.5","","80","","","","25","","19","","24.1","","100.80","","","","-12","","Mostly Cloudy"
"-115.14","67.82","KUGLUKTUK A","2300903","2020-03-21 18:00","2020","03","21","18:00","-6.3","","-8.4","","85","","","","32","","14","","24.1","","100.79","","","","-12","","NA"
"-115.14","67.82","KUGLUKTUK A","2300903","2020-03-21 19:00","2020","03","21","19:00","-7.0","","-9.2","","84","","","","33","","9","","24.1","","100.84","","","","-11","","NA"
"-115.14","67.82","KUGLUKTUK A","2300903","2020-03-21 20:00","2020","03","21","20:00","-7.1","","-9.3","","85","","","","34","","9","","19.3","","100.80","","","","-11","","Snow"
"-115.14","67.82","KUGLUKTUK A","2300903","2020-03-21 21:00","2020","03","21","21:00","-7.1","","-10.0","","80","","","","36","","1","","19.3","","100.80","","","","-8","","Snow"
"-115.14","67.82","KUGLUKTUK A","2300903","2020-03-21 22:00","2020","03","21","22:00","-7.7","","-10.4","","81","","","","29","","7","","19.3","","100.76","","","","-11","","Snow"
"-115.14","67.82","KUGLUKTUK A","2300903","2020-03-21 23:00","2020","03","21","23:00","-7.4","","-11.3","","74","","","","31","","18","","24.1","","100.73","","","","-14","","Snow"
"-115.14","67.82","KUGLUKTUK A","2300903","2020-03-22 00:00","2020","03","22","00:00","-9.4","","-12.3","","79","","","","33","","19","","19.3","","100.75","","","","-17","","Snow,Blowing Snow"
"-115.14","67.82","KUGLUKTUK A","2300903","2020-03-22 01:00","2020","03","22","01:00","-11.1","","-13.7","","81","","","","29","","14","","12.9","","100.78","","","","-18","","Snow"
"-115.14","67.82","KUGLUKTUK A","2300903","2020-03-22 02:00","2020","03","22","02:00","-11.3","","-14.1","","80","","","","31","","15","","19.3","","100.79","","","","-18","","Snow"
"-115.14","67.82","KUGLUKTUK A","2300903","2020-03-22 03:00","2020","03","22","03:00","-12.0","","-14.7","","80","","","","29","","13","","19.3","","100.82","","","","-19","","Snow"
"-115.14","67.82","KUGLUKTUK A","2300903","2020-03-22 04:00","2020","03","22","04:00","-11.7","","-14.2","","81","","","","30","","17","","19.3","","100.83","","","","-19","","Snow"
"-115.14","67.82","KUGLUKTUK A","2300903","2020-03-22 05:00","2020","03","22","05:00","-11.8","","-14.7","","79","","","","30","","20","","24.1","","100.82","","","","-20","","Snow"
"-115.14","67.82","KUGLUKTUK A","2300903","2020-03-22 06:00","2020","03","22","06:00","-12.1","","-14.9","","80","","","","26","","7","","24.1","","100.79","","","","-16","","Snow"
"-115.14","67.82","KUGLUKTUK A","2300903","2020-03-22 07:00","2020","03","22","07:00","-13.0","","-15.3","","83","","","","22","","12","","24.1","","100.82","","","","-20","","NA"
"-115.14","67.82","KUGLUKTUK A","2300903","2020-03-22 08:00","2020","03","22","08:00","-13.9","","-16.1","","84","","","","22","","19","","24.1","","100.82","","","","-23","","Mostly Cloudy"
"-115.14","67.82","KUGLUKTUK A","2300903","2020-03-22 09:00","2020","03","22","09:00","-12.2","","-14.9","","80","","","","26","","22","","24.1","","100.81","","","","-21","","NA"
"-115.14","67.82","KUGLUKTUK A","2300903","2020-03-22 10:00","2020","03","22","10:00","-12.1","","-15.5","","76","","","","25","","21","","24.1","","100.83","","","","-21","","NA"
"-115.14","67.82","KUGLUKTUK A","2300903","2020-03-22 11:00","2020","03","22","11:00","-11.8","","-15.2","","76","","","","23","","16","","24.1","","100.83","","","","-19","","Mostly Cloudy"
"-115.14","67.82","KUGLUKTUK A","2300903","2020-03-22 12:00","2020","03","22","12:00","-11.1","","-14.4","","76","","","","22","","13","","24.1","","100.82","","","","-18","","NA"
"-115.14","67.82","KUGLUKTUK A","2300903","2020-03-22 13:00","2020","03","22","13:00","-10.0","","-13.6","","75","","","","20","","10","","19.3","","100.83","","","","-15","","NA"
"-115.14","67.82","KUGLUKTUK A","2300903","2020-03-22 14:00","2020","03","22","14:00","-8.2","","-11.1","","80","","","","26","","19","","4.8","","100.83","","","","-15","","Snow"
"-115.14","67.82","KUGLUKTUK A","2300903","2020-03-22 15:00","2020","03","22","15:00","-8.5","","-10.7","","84","","","","30","","16","","3.2","","100.85","","","","-15","","Snow"
"-115.14","67.82","KUGLUKTUK A","2300903","2020-03-22 16:00","2020","03","22","16:00","-9.9","","-12.9","","79","","","","35","","21","","3.2","","100.98","","","","-18","","Snow"
"-115.14","67.82","KUGLUKTUK A","2300903","2020-03-22 17:00","2020","03","22","17:00","-12.0","","-15.2","","77","","","","35","","33","","4.8","","101.07","","","","-23","","Snow,Blowing Snow"
"-115.14","67.82","KUGLUKTUK A","2300903","2020-03-22 18:00","2020","03","22","18:00","-14.3","","-16.7","","82","","","","35","","35","","1.2","","101.22","","","","-26","","Snow,Blowing Snow"
"-115.14","67.82","KUGLUKTUK A","2300903","2020-03-22 19:00","2020","03","22","19:00","-15.5","","-18.0","","81","","","","35","","40","","0.8","","101.34","","","","-28","","Snow,Blowing Snow"
"-115.14","67.82","KUGLUKTUK A","2300903","2020-03-22 20:00","2020","03","22","20:00","-16.7","","-18.9","","83","","","","34","","29","","0.4","","101.49","","","","-28","","Snow,Blowing Snow"
"-115.14","67.82","KUGLUKTUK A","2300903","2020-03-22 21:00","2020","03","22","21:00","-17.9","","-20.4","","81","","","","33","","37","","0.8","","101.64","","","","-31","","Snow,Blowing Snow"
"-115.14","67.82","KUGLUKTUK A","2300903","2020-03-22 22:00","2020","03","22","22:00","-19.0","","-21.9","","78","","","","33","","37","","1.6","","101.74","","","","-32","","Snow,Blowing Snow"
"-115.14","67.82","KUGLUKTUK A","2300903","2020-03-22 23:00","2020","03","22","23:00","-20.1","","-23.0","","78","","","","32","","39","","6.4","","101.79","","","","-34","","Snow,Blowing Snow"
"-115.14","67.82","KUGLUKTUK A","2300903","2020-03-23 00:00","2020","03","23","00:00","-21.5","","-24.5","","77","","","","31","","33","","3.2","","101.92","","","","-35","","Snow,Blowing Snow"
"-115.14","67.82","KUGLUKTUK A","2300903","2020-03-23 01:00","2020","03","23","01:00","-22.3","","-25.4","","76","","","","32","","33","","6.4","","102.04","","","","-36","","Snow,Blowing Snow"
"-115.14","67.82","KUGLUKTUK A","2300903","2020-03-23 02:00","2020","03","23","02:00","-21.5","","-25.2","","72","","","","30","","6","","9.7","","102.13","","","","-27","","Ice Crystals,Blowing Snow"
"-115.14","67.82","KUGLUKTUK A","2300903","2020-03-23 03:00","2020","03","23","03:00","-22.7","","-26.7","","71","","","","28","","17","","16.1","","102.19","","","","-33","","Ice Crystals,Blowing Snow"
"-115.14","67.82","KUGLUKTUK A","2300903","2020-03-23 04:00","2020","03","23","04:00","-22.4","","-26.3","","71","","","","31","","22","","16.1","","102.22","","","","-34","","Ice Crystals,Blowing Snow"
"-115.14","67.82","KUGLUKTUK A","2300903","2020-03-23 05:00","2020","03","23","05:00","-23.4","","-27.2","","71","","","","28","","29","","19.3","","102.22","","","","-37","","Ice Crystals,Blowing Snow"
"-115.14","67.82","KUGLUKTUK A","2300903","2020-03-23 06:00","2020","03","23","06:00","-23.1","","-26.9","","72","","","","25","","32","","19.3","","102.22","","","","-37","","Ice Crystals,Blowing Snow"
"-115.14","67.82","KUGLUKTUK A","2300903","2020-03-23 07:00","2020","03","23","07:00","-23.4","","-27.1","","72","","","","25","","38","","19.3","","102.18","","","","-38","","Ice Crystals,Blowing Snow"
"-115.14","67.82","KUGLUKTUK A","2300903","2020-03-23 08:00","2020","03","23","08:00","-22.4","","-26.0","","73","","","","25","","36","","19.3","","102.17","","","","-37","","Ice Crystals,Blowing Snow"
"-115.14","67.82","KUGLUKTUK A","2300903","2020-03-23 09:00","2020","03","23","09:00","-21.1","","-24.9","","72","","","","24","","35","","19.3","","102.12","","","","-35","","Ice Crystals,Blowing Snow"
"-115.14","67.82","KUGLUKTUK A","2300903","2020-03-23 10:00","2020","03","23","10:00","-20.7","","-24.1","","75","","","","24","","37","","9.7","","102.05","","","","-35","","Ice Crystals,Blowing Snow"
"-115.14","67.82","KUGLUKTUK A","2300903","2020-03-23 11:00","2020","03","23","11:00","-18.8","","-22.5","","73","","","","25","","39","","3.2","","102.01","","","","-32","","Ice Crystals,Blowing Snow"
"-115.14","67.82","KUGLUKTUK A","2300903","2020-03-23 12:00","2020","03","23","12:00","-18.4","","-21.4","","77","","","","27","","48","","0.6","","101.94","","","","-33","","Ice Crystals,Blowing Snow"
"-115.14","67.82","KUGLUKTUK A","2300903","2020-03-23 13:00","2020","03","23","13:00","-18.7","","-21.9","","76","","","","27","","52","","0.2","","101.96","","","","-34","","Ice Crystals,Blowing Snow"
"-115.14","67.82","KUGLUKTUK A","2300903","2020-03-23 14:00","2020","03","23","14:00","-18.4","","-21.5","","77","","","","27","","55","","0.2","","101.90","","","","-34","","Ice Crystals,Blowing Snow"
"-115.14","67.82","KUGLUKTUK A","2300903","2020-03-23 15:00","2020","03","23","15:00","-18.1","","-21.2","","77","","","","26","","52","","0.6","","101.87","","","","-33","","Ice Crystals,Blowing Snow"
"-115.14","67.82","KUGLUKTUK A","2300903","2020-03-23 16:00","2020","03","23","16:00","-16.8","","-20.2","","75","","","","27","","43","","9.7","","101.84","","","","-30","","Ice Crystals,Blowing Snow"
"-115.14","67.82","KUGLUKTUK A","2300903","2020-03-23 17:00","2020","03","23","17:00","-16.7","","-20.2","","74","","","","26","","42","","12.9","","101.83","","","","-30","","Ice Crystals,Blowing Snow"
"-115.14","67.82","KUGLUKTUK A","2300903","2020-03-23 18:00","2020","03","23","18:00","-17.2","","-20.7","","74","","","","23","","31","","19.3","","101.81","","","","-29","","Ice Crystals,Blowing Snow"
"-115.14","67.82","KUGLUKTUK A","2300903","2020-03-23 19:00","2020","03","23","19:00","-18.5","","-22.0","","74","","","","25","","41","","16.1","","101.75","","","","-32","","Ice Crystals,Blowing Snow"
"-115.14","67.82","KUGLUKTUK A","2300903","2020-03-23 20:00","2020","03","23","20:00","-18.7","","-22.8","","71","","","","25","","41","","19.3","","101.70","","","","-33","","Ice Crystals,Blowing Snow"
"-115.14","67.82","KUGLUKTUK A","2300903","2020-03-23 21:00","2020","03","23","21:00","-18.7","","-22.8","","71","","","","25","","41","","16.1","","101.63","","","","-33","","Ice Crystals,Blowing Snow"
"-115.14","67.82","KUGLUKTUK A","2300903","2020-03-23 22:00","2020","03","23","22:00","-18.8","","-22.7","","72","","","","25","","39","","16.1","","101.55","","","","-32","","Ice Crystals,Blowing Snow"
"-115.14","67.82","KUGLUKTUK A","2300903","2020-03-23 23:00","2020","03","23","23:00","-18.6","","-22.9","","69","","","","25","","37","","16.1","","101.50","","","","-32","","Ice Crystals,Blowing Snow"
"-115.14","67.82","KUGLUKTUK A","2300903","2020-03-24 00:00","2020","03","24","00:00","-18.8","","-22.9","","71","","","","24","","20","","19.3","","101.47","","","","-29","","Ice Crystals"
"-115.14","67.82","KUGLUKTUK A","2300903","2020-03-24 01:00","2020","03","24","01:00","-19.3","","-23.5","","70","","","","23","","21","","19.3","","101.36","","","","-30","","Ice Crystals"
"-115.14","67.82","KUGLUKTUK A","2300903","2020-03-24 02:00","2020","03","24","02:00","-18.5","","-22.8","","70","","","","25","","30","","24.1","","101.27","","","","-31","","Ice Crystals,Blowing Snow"
"-115.14","67.82","KUGLUKTUK A","2300903","2020-03-24 03:00","2020","03","24","03:00","-18.1","","-22.9","","67","","","","24","","27","","24.1","","101.16","","","","-30","","Ice Crystals,Blowing Snow"
"-115.14","67.82","KUGLUKTUK A","2300903","2020-03-24 04:00","2020","03","24","04:00","-17.7","","-22.3","","68","","","","23","","34","","19.3","","101.00","","","","-30","","Ice Crystals,Blowing Snow"
"-115.14","67.82","KUGLUKTUK A","2300903","2020-03-24 05:00","2020","03","24","05:00","-17.8","","-21.8","","71","","","","23","","33","","24.1","","100.88","","","","-30","","Ice Crystals,Blowing Snow"
"-115.14","67.82","KUGLUKTUK A","2300903","2020-03-24 06:00","2020","03","24","06:00","-17.3","","-20.7","","75","","","","22","","36","","24.1","","100.82","","","","-30","","Ice Crystals,Blowing Snow"
"-115.14","67.82","KUGLUKTUK A","2300903","2020-03-24 07:00","2020","03","24","07:00","-17.8","","-20.9","","77","","","","24","","17","","12.9","","100.79","","","","-27","","Ice Crystals"
"-115.14","67.82","KUGLUKTUK A","2300903","2020-03-24 08:00","2020","03","24","08:00","-17.4","","-20.4","","78","","","","23","","24","","6.4","","100.71","","","","-28","","Ice Crystals,Blowing Snow"
"-115.14","67.82","KUGLUKTUK A","2300903","2020-03-24 09:00","2020","03","24","09:00","-17.2","","-20.4","","76","","","","22","","27","","24.1","","100.66","","","","-28","","Ice Crystals,Blowing Snow"
"-115.14","67.82","KUGLUKTUK A","2300903","2020-03-24 10:00","2020","03","24","10:00","-16.9","","-20.2","","76","","","","23","","34","","19.3","","100.58","","","","-29","","Ice Crystals,Blowing Snow"
"-115.14","67.82","KUGLUKTUK A","2300903","2020-03-24 11:00","2020","03","24","11:00","-16.2","","-20.0","","73","","","","25","","24","","24.1","","100.57","","","","-27","","Ice Crystals"
"-115.14","67.82","KUGLUKTUK A","2300903","2020-03-24 12:00","2020","03","24","12:00","-16.8","","-20.5","","73","","","","26","","19","","24.1","","100.56","","","","-26","","NA"
"-115.14","67.82","KUGLUKTUK A","2300903","2020-03-24 13:00","2020","03","24","13:00","-16.6","","-20.4","","73","","","","27","","28","","24.1","","100.53","","","","-28","","NA"
"-115.14","67.82","KUGLUKTUK A","2300903","2020-03-24 14:00","2020","03","24","14:00","-16.6","","-20.8","","70","","","","25","","24","","24.1","","100.54","","","","-27","","Mainly Clear"
"-115.14","67.82","KUGLUKTUK A","2300903","2020-03-24 15:00","2020","03","24","15:00","-16.8","","-21.0","","70","","","","26","","19","","24.1","","100.56","","","","-26","","NA"
"-115.14","67.82","KUGLUKTUK A","2300903","2020-03-24 16:00","2020","03","24","16:00","-17.3","","-21.5","","71","","","","27","","23","","24.1","","100.58","","","","-28","","NA"
"-115.14","67.82","KUGLUKTUK A","2300903","2020-03-24 17:00","2020","03","24","17:00","-17.8","","-21.9","","71","","","","26","","22","","24.1","","100.62","","","","-28","","Mainly Clear"
"-115.14","67.82","KUGLUKTUK A","2300903","2020-03-24 18:00","2020","03","24","18:00","-19.3","","-22.8","","74","","","","24","","21","","24.1","","100.60","","","","-30","","NA"
"-115.14","67.82","KUGLUKTUK A","2300903","2020-03-24 19:00","2020","03","24","19:00","-19.4","","-23.0","","73","","","","25","","21","","24.1","","100.60","","","","-30","","NA"
"-115.14","67.82","KUGLUKTUK A","2300903","2020-03-24 20:00","2020","03","24","20:00","-19.5","","-23.2","","73","","","","26","","23","","24.1","","100.60","","","","-31","","Mainly Clear"
"-115.14","67.82","KUGLUKTUK A","2300903","2020-03-24 21:00","2020","03","24","21:00","-22.2","","-25.1","","78","","","","24","","25","","24.1","","100.58","","","","-34","","NA"
"-115.14","67.82","KUGLUKTUK A","2300903","2020-03-24 22:00","2020","03","24","22:00","-20.8","","-24.2","","75","","","","23","","26","","24.1","","100.53","","","","-33","","NA"
"-115.14","67.82","KUGLUKTUK A","2300903","2020-03-24 23:00","2020","03","24","23:00","-22.4","","-25.8","","74","","","","23","","24","","24.1","","100.49","","","","-34","","Mainly Clear"
"-115.14","67.82","KUGLUKTUK A","2300903","2020-03-25 00:00","2020","03","25","00:00","-23.7","","-26.9","","75","","","","21","","20","","24.1","","100.43","","","","-35","","NA"
"-115.14","67.82","KUGLUKTUK A","2300903","2020-03-25 01:00","2020","03","25","01:00","-23.8","","-27.2","","74","","","","23","","23","","24.1","","100.37","","","","-36","","NA"
"-115.14","67.82","KUGLUKTUK A","2300903","2020-03-25 02:00","2020","03","25","02:00","-22.7","","-26.1","","74","","","","24","","28","","24.1","","100.30","","","","-36","","Mainly Clear"
"-115.14","67.82","KUGLUKTUK A","2300903","2020-03-25 03:00","2020","03","25","03:00","-22.2","","-25.8","","73","","","","23","","24","","24.1","","100.21","","","","-34","","NA"
"-115.14","67.82","KUGLUKTUK A","2300903","2020-03-25 04:00","2020","03","25","04:00","-23.0","","-26.7","","72","","","","23","","23","","24.1","","100.09","","","","-35","","NA"
"-115.14","67.82","KUGLUKTUK A","2300903","2020-03-25 05:00","2020","03","25","05:00","-22.5","","-26.1","","73","","","","22","","23","","24.1","","100.01","","","","-34","","Mainly Clear"
"-115.14","67.82","KUGLUKTUK A","2300903","2020-03-25 06:00","2020","03","25","06:00","-21.3","","-25.0","","73","","","","18","","14","","24.1","","99.87","","","","-30","","NA"
"-115.14","67.82","KUGLUKTUK A","2300903","2020-03-25 07:00","2020","03","25","07:00","-19.8","","-24.1","","69","","","","21","","28","","24.1","","99.72","","","","-32","","NA"
"-115.14","67.82","KUGLUKTUK A","2300903","2020-03-25 08:00","2020","03","25","08:00","-18.2","","-22.1","","72","","","","20","","33","","24.1","","99.50","","","","-31","","Blowing Snow"
"-115.14","67.82","KUGLUKTUK A","2300903","2020-03-25 09:00","2020","03","25","09:00","-16.5","","-19.9","","76","","","","20","","28","","12.9","","99.34","","","","-28","","Blowing Snow"
"-115.14","67.82","KUGLUKTUK A","2300903","2020-03-25 10:00","2020","03","25","10:00","-15.7","","-18.1","","82","","","","20","","44","","0.8","","99.15","","","","-29","","Snow,Blowing Snow"
"-115.14","67.82","KUGLUKTUK A","2300903","2020-03-25 11:00","2020","03","25","11:00","-13.9","","-16.4","","82","","","","21","","42","","0.8","","98.97","","","","-26","","Snow,Blowing Snow"
"-115.14","67.82","KUGLUKTUK A","2300903","2020-03-25 12:00","2020","03","25","12:00","-12.5","","-15.4","","80","","","","23","","37","","8.1","","98.88","","","","-24","","Blowing Snow"
"-115.14","67.82","KUGLUKTUK A","2300903","2020-03-25 13:00","2020","03","25","13:00","-11.5","","-14.4","","79","","","","24","","29","","16.1","","98.81","","","","-21","","Blowing Snow"
"-115.14","67.82","KUGLUKTUK A","2300903","2020-03-25 14:00","2020","03","25","14:00","-11.2","","-14.7","","76","","","","25","","30","","24.1","","98.80","","","","-21","","Blowing Snow"
"-115.14","67.82","KUGLUKTUK A","2300903","2020-03-25 15:00","2020","03","25","15:00","-11.6","","-15.4","","74","","","","25","","34","","24.1","","98.77","","","","-22","","Blowing Snow"
"-115.14","67.82","KUGLUKTUK A","2300903","2020-03-25 16:00","2020","03","25","16:00","-12.3","","-15.9","","75","","","","27","","29","","24.1","","98.78","","","","-22","","Blowing Snow"
"-115.14","67.82","KUGLUKTUK A","2300903","2020-03-25 17:00","2020","03","25","17:00","-13.0","","-16.5","","75","","","","26","","25","","24.1","","98.79","","","","-23","","Blowing Snow"
"-115.14","67.82","KUGLUKTUK A","2300903","2020-03-25 18:00","2020","03","25","18:00","-13.3","","-17.2","","73","","","","26","","32","","24.1","","98.80","","","","-24","","Blowing Snow"
"-115.14","67.82","KUGLUKTUK A","2300903","2020-03-25 19:00","2020","03","25","19:00","-14.2","","-18.1","","73","","","","27","","39","","24.1","","98.82","","","","-26","","NA"
"-115.14","67.82","KUGLUKTUK A","2300903","2020-03-25 20:00","2020","03","25","20:00","-14.9","","-19.1","","71","","","","28","","21","","24.1","","98.91","","","","-24","","Blowing Snow"
"-115.14","67.82","KUGLUKTUK A","2300903","2020-03-25 21:00","2020","03","25","21:00","-15.8","","-19.6","","73","","","","27","","21","","24.1","","98.93","","","","-25","","Blowing Snow"
"-115.14","67.82","KUGLUKTUK A","2300903","2020-03-25 22:00","2020","03","25","22:00","-15.9","","-19.8","","72","","","","28","","23","","19.3","","98.95","","","","-26","","Snow,Blowing Snow"
"-115.14","67.82","KUGLUKTUK A","2300903","2020-03-25 23:00","2020","03","25","23:00","-15.9","","-20.1","","71","","","","29","","31","","19.3","","98.94","","","","-27","","Snow,Blowing Snow"
"-115.14","67.82","KUGLUKTUK A","2300903","2020-03-26 00:00","2020","03","26","00:00","-16.3","","-19.9","","74","","","","28","","32","","19.3","","98.96","","","","-28","","Snow,Blowing Snow"
"-115.14","67.82","KUGLUKTUK A","2300903","2020-03-26 01:00","2020","03","26","01:00","-17.1","","-20.6","","75","","","","27","","37","","16.1","","99.00","","","","-30","","Snow,Blowing Snow"
"-115.14","67.82","KUGLUKTUK A","2300903","2020-03-26 02:00","2020","03","26","02:00","-18.3","","-21.9","","73","","","","27","","32","","12.9","","99.03","","","","-31","","Snow,Blowing Snow"
"-115.14","67.82","KUGLUKTUK A","2300903","2020-03-26 03:00","2020","03","26","03:00","-19.2","","-22.0","","79","","","","29","","36","","12.9","","99.11","","","","-32","","Snow,Blowing Snow"
"-115.14","67.82","KUGLUKTUK A","2300903","2020-03-26 04:00","2020","03","26","04:00","-20.4","","-23.9","","74","","","","28","","24","","12.9","","99.26","","","","-32","","Snow,Blowing Snow"
"-115.14","67.82","KUGLUKTUK A","2300903","2020-03-26 05:00","2020","03","26","05:00","-22.1","","-25.2","","76","","","","31","","30","","12.9","","99.36","","","","-35","","Snow,Blowing Snow"
"-115.14","67.82","KUGLUKTUK A","2300903","2020-03-26 06:00","2020","03","26","06:00","-22.7","","-25.8","","77","","","","33","","27","","6.4","","99.51","","","","-36","","Snow,Blowing Snow"
"-115.14","67.82","KUGLUKTUK A","2300903","2020-03-26 07:00","2020","03","26","07:00","-24.0","","-27.4","","74","","","","33","","22","","24.1","","99.66","","","","-36","","Blowing Snow"
"-115.14","67.82","KUGLUKTUK A","2300903","2020-03-26 08:00","2020","03","26","08:00","-23.8","","-27.3","","73","","","","33","","16","","24.1","","99.76","","","","-34","","Blowing Snow"
"-115.14","67.82","KUGLUKTUK A","2300903","2020-03-26 09:00","2020","03","26","09:00","-22.6","","-26.4","","71","","","","33","","17","","19.3","","99.85","","","","-33","","Ice Crystals"
"-115.14","67.82","KUGLUKTUK A","2300903","2020-03-26 10:00","2020","03","26","10:00","-22.1","","-25.9","","72","","","","35","","12","","6.4","","99.91","","","","-31","","Snow"
"-115.14","67.82","KUGLUKTUK A","2300903","2020-03-26 11:00","2020","03","26","11:00","-21.4","","-24.7","","75","","","","30","","19","","2.4","","99.95","","","","-32","","Snow Grains,Fog"
"-115.14","67.82","KUGLUKTUK A","2300903","2020-03-26 12:00","2020","03","26","12:00","-21.8","","-25.4","","73","","","","29","","24","","4.8","","100.05","","","","-34","","Snow Grains,Fog,Blowing Snow"
"-115.14","67.82","KUGLUKTUK A","2300903","2020-03-26 13:00","2020","03","26","13:00","-21.8","","-26.0","","70","","","","30","","25","","12.9","","100.11","","","","-34","","Ice Crystals,Blowing Snow"
"-115.14","67.82","KUGLUKTUK A","2300903","2020-03-26 14:00","2020","03","26","14:00","-21.6","","-25.7","","70","","","","32","","18","","12.9","","100.19","","","","-32","","Ice Crystals,Blowing Snow"
"-115.14","67.82","KUGLUKTUK A","2300903","2020-03-26 15:00","2020","03","26","15:00","-21.5","","-25.5","","71","","","","31","","22","","12.9","","100.27","","","","-33","","Ice Crystals,Blowing Snow"
"-115.14","67.82","KUGLUKTUK A","2300903","2020-03-26 16:00","2020","03","26","16:00","-22.0","","-25.9","","71","","","","36","","11","","12.9","","100.37","","","","-30","","Ice Crystals"
"-115.14","67.82","KUGLUKTUK A","2300903","2020-03-26 17:00","2020","03","26","17:00","-22.0","","-25.8","","71","","","","31","","20","","11.3","","100.40","","","","-33","","Ice Crystals,Blowing Snow"
"-115.14","67.82","KUGLUKTUK A","2300903","2020-03-26 18:00","2020","03","26","18:00","-21.9","","-25.4","","74","","","","35","","16","","3.2","","100.48","","","","-32","","Ice Crystals,Fog"
"-115.14","67.82","KUGLUKTUK A","2300903","2020-03-26 19:00","2020","03","26","19:00","-22.6","","-25.7","","76","","","","3","","11","","9.7","","100.56","","","","-31","","Ice Crystals,Fog"
"-115.14","67.82","KUGLUKTUK A","2300903","2020-03-26 20:00","2020","03","26","20:00","-23.0","","-26.5","","74","","","","35","","6","","16.1","","100.63","","","","-28","","Ice Crystals"
"-115.14","67.82","KUGLUKTUK A","2300903","2020-03-26 21:00","2020","03","26","21:00","-22.9","","-26.6","","72","","","","33","","18","","12.9","","100.68","","","","-34","","Snow"
"-115.14","67.82","KUGLUKTUK A","2300903","2020-03-26 22:00","2020","03","26","22:00","-24.0","","-27.7","","72","","","","33","","23","","12.9","","100.76","","","","-36","","Snow"
"-115.14","67.82","KUGLUKTUK A","2300903","2020-03-26 23:00","2020","03","26","23:00","-24.8","","-28.2","","74","","","","34","","15","","12.9","","100.86","","","","-35","","Snow"
"-115.14","67.82","KUGLUKTUK A","2300903","2020-03-27 00:00","2020","03","27","00:00","-25.8","","-29.0","","75","","","","33","","25","","12.9","","100.93","","","","-39","","Snow,Blowing Snow"
"-115.14","67.82","KUGLUKTUK A","2300903","2020-03-27 01:00","2020","03","27","01:00","-27.8","","-31.4","","72","","","","34","","22","","19.3","","101.07","","","","-41","","Snow"
"-115.14","67.82","KUGLUKTUK A","2300903","2020-03-27 02:00","2020","03","27","02:00","-28.4","","-31.9","","73","","","","31","","13","","24.1","","101.17","","","","-39","","Clear"
"-115.14","67.82","KUGLUKTUK A","2300903","2020-03-27 03:00","2020","03","27","03:00","-28.9","","-32.7","","70","","","","28","","22","","24.1","","101.26","","","","-42","","NA"
"-115.14","67.82","KUGLUKTUK A","2300903","2020-03-27 04:00","2020","03","27","04:00","-29.4","","-33.4","","69","","","","27","","23","","24.1","","101.32","","","","-43","","NA"
"-115.14","67.82","KUGLUKTUK A","2300903","2020-03-27 05:00","2020","03","27","05:00","-28.8","","-33.0","","68","","","","28","","21","","24.1","","101.38","","","","-42","","Ice Crystals"
"-115.14","67.82","KUGLUKTUK A","2300903","2020-03-27 06:00","2020","03","27","06:00","-28.7","","-32.8","","68","","","","28","","22","","9.7","","101.45","","","","-42","","Snow,Fog"
"-115.14","67.82","KUGLUKTUK A","2300903","2020-03-27 07:00","2020","03","27","07:00","-28.6","","-32.5","","70","","","","26","","22","","6.4","","101.51","","","","-42","","Snow,Fog"
"-115.14","67.82","KUGLUKTUK A","2300903","2020-03-27 08:00","2020","03","27","08:00","-27.3","","-31.4","","69","","","","28","","19","","19.3","","101.53","","","","-39","","Ice Crystals"
"-115.14","67.82","KUGLUKTUK A","2300903","2020-03-27 09:00","2020","03","27","09:00","-26.0","","-29.6","","72","","","","28","","14","","11.3","","101.56","","","","-36","","Ice Crystals,Blowing Snow"
"-115.14","67.82","KUGLUKTUK A","2300903","2020-03-27 10:00","2020","03","27","10:00","-24.9","","-28.8","","71","","","","27","","16","","8.1","","101.57","","","","-35","","Ice Crystals,Blowing Snow"
"-115.14","67.82","KUGLUKTUK A","2300903","2020-03-27 11:00","2020","03","27","11:00","-23.5","","-27.4","","71","","","","26","","23","","11.3","","101.55","","","","-36","","Ice Crystals,Blowing Snow"
"-115.14","67.82","KUGLUKTUK A","2300903","2020-03-27 12:00","2020","03","27","12:00","-23.1","","-27.2","","70","","","","27","","37","","11.3","","101.53","","","","-38","","Ice Crystals,Blowing Snow"
"-115.14","67.82","KUGLUKTUK A","2300903","2020-03-27 13:00","2020","03","27","13:00","-23.0","","-26.8","","72","","","","27","","35","","9.7","","101.55","","","","-37","","Ice Crystals,Blowing Snow"
"-115.14","67.82","KUGLUKTUK A","2300903","2020-03-27 14:00","2020","03","27","14:00","-21.9","","-25.5","","73","","","","27","","31","","6.4","","101.59","","","","-35","","Ice Crystals,Blowing Snow"
"-115.14","67.82","KUGLUKTUK A","2300903","2020-03-27 15:00","2020","03","27","15:00","-21.2","","-24.8","","74","","","","28","","36","","8.1","","101.58","","","","-35","","Ice Crystals,Blowing Snow"
"-115.14","67.82","KUGLUKTUK A","2300903","2020-03-27 16:00","2020","03","27","16:00","-22.4","","-26.4","","71","","","","30","","38","","16.1","","101.60","","","","-37","","Ice Crystals,Blowing Snow"
"-115.14","67.82","KUGLUKTUK A","2300903","2020-03-27 17:00","2020","03","27","17:00","-23.4","","-27.4","","70","","","","30","","34","","16.1","","101.66","","","","-38","","Ice Crystals,Blowing Snow"
"-115.14","67.82","KUGLUKTUK A","2300903","2020-03-27 18:00","2020","03","27","18:00","-23.7","","-27.4","","72","","","","30","","33","","16.1","","101.68","","","","-38","","Ice Crystals,Blowing Snow"
"-115.14","67.82","KUGLUKTUK A","2300903","2020-03-27 19:00","2020","03","27","19:00","-24.3","","-28.1","","72","","","","31","","36","","8.1","","101.72","","","","-39","","Ice Crystals,Blowing Snow"
"-115.14","67.82","KUGLUKTUK A","2300903","2020-03-27 20:00","2020","03","27","20:00","-24.4","","-28.8","","67","","","","30","","35","","9.7","","101.75","","","","-39","","Ice Crystals,Blowing Snow"
"-115.14","67.82","KUGLUKTUK A","2300903","2020-03-27 21:00","2020","03","27","21:00","-24.3","","-28.5","","69","","","","31","","35","","8.1","","101.71","","","","-39","","Snow,Blowing Snow"
"-115.14","67.82","KUGLUKTUK A","2300903","2020-03-27 22:00","2020","03","27","22:00","-24.7","","-28.6","","70","","","","29","","28","","9.7","","101.72","","","","-38","","Snow,Blowing Snow"
"-115.14","67.82","KUGLUKTUK A","2300903","2020-03-27 23:00","2020","03","27","23:00","-25.2","","-28.4","","75","","","","29","","37","","4.8","","101.71","","","","-41","","Snow,Blowing Snow"
"-115.14","67.82","KUGLUKTUK A","2300903","2020-03-28 00:00","2020","03","28","00:00","-26.6","","-30.5","","71","","","","27","","30","","12.9","","101.76","","","","-41","","Ice Crystals,Blowing Snow"
"-115.14","67.82","KUGLUKTUK A","2300903","2020-03-28 01:00","2020","03","28","01:00","-27.6","","-31.6","","70","","","","26","","29","","16.1","","101.75","","","","-42","","Ice Crystals,Blowing Snow"
"-115.14","67.82","KUGLUKTUK A","2300903","2020-03-28 02:00","2020","03","28","02:00","-28.2","","-32.3","","69","","","","26","","35","","12.9","","101.76","","","","-44","","Ice Crystals,Blowing Snow"
"-115.14","67.82","KUGLUKTUK A","2300903","2020-03-28 03:00","2020","03","28","03:00","-28.6","","-32.7","","69","","","","25","","35","","12.9","","101.74","","","","-45","","Ice Crystals,Blowing Snow"
"-115.14","67.82","KUGLUKTUK A","2300903","2020-03-28 04:00","2020","03","28","04:00","-27.5","","-32.2","","65","","","","26","","35","","16.1","","101.75","","","","-43","","Ice Crystals,Blowing Snow"
"-115.14","67.82","KUGLUKTUK A","2300903","2020-03-28 05:00","2020","03","28","05:00","-27.6","","-31.5","","70","","","","24","","30","","9.7","","101.72","","","","-42","","Ice Crystals,Blowing Snow"
"-115.14","67.82","KUGLUKTUK A","2300903","2020-03-28 06:00","2020","03","28","06:00","-27.5","","-31.4","","70","","","","24","","31","","8.1","","101.70","","","","-43","","Ice Crystals,Blowing Snow"
"-115.14","67.82","KUGLUKTUK A","2300903","2020-03-28 07:00","2020","03","28","07:00","-28.5","","-32.7","","68","","","","22","","30","","12.9","","101.66","","","","-44","","Ice Crystals,Blowing Snow"
"-115.14","67.82","KUGLUKTUK A","2300903","2020-03-28 08:00","2020","03","28","08:00","-27.6","","-31.9","","67","","","","24","","31","","16.1","","101.61","","","","-43","","Ice Crystals,Blowing Snow"
"-115.14","67.82","KUGLUKTUK A","2300903","2020-03-28 09:00","2020","03","28","09:00","-26.9","","-31.1","","68","","","","24","","34","","19.3","","101.60","","","","-42","","Ice Crystals,Blowing Snow"
"-115.14","67.82","KUGLUKTUK A","2300903","2020-03-28 10:00","2020","03","28","10:00","-26.1","","-30.6","","66","","","","23","","27","","19.3","","101.62","","","","-40","","Ice Crystals,Blowing Snow"
"-115.14","67.82","KUGLUKTUK A","2300903","2020-03-28 11:00","2020","03","28","11:00","-25.7","","-29.9","","68","","","","24","","30","","19.3","","101.61","","","","-40","","Ice Crystals,Blowing Snow"
"-115.14","67.82","KUGLUKTUK A","2300903","2020-03-28 12:00","2020","03","28","12:00","-25.1","","-29.4","","68","","","","24","","31","","19.3","","101.62","","","","-39","","Ice Crystals,Blowing Snow"
"-115.14","67.82","KUGLUKTUK A","2300903","2020-03-28 13:00","2020","03","28","13:00","-24.4","","-28.8","","68","","","","25","","35","","16.1","","101.63","","","","-39","","Ice Crystals,Blowing Snow"
"-115.14","67.82","KUGLUKTUK A","2300903","2020-03-28 14:00","2020","03","28","14:00","-23.9","","-28.0","","69","","","","25","","41","","16.1","","101.61","","","","-39","","Ice Crystals,Blowing Snow"
"-115.14","67.82","KUGLUKTUK A","2300903","2020-03-28 15:00","2020","03","28","15:00","-23.6","","-28.0","","68","","","","25","","33","","16.1","","101.64","","","","-38","","Ice Crystals,Blowing Snow"
"-115.14","67.82","KUGLUKTUK A","2300903","2020-03-28 16:00","2020","03","28","16:00","-23.5","","-27.7","","69","","","","25","","29","","16.1","","101.68","","","","-37","","Ice Crystals,Blowing Snow"
"-115.14","67.82","KUGLUKTUK A","2300903","2020-03-28 17:00","2020","03","28","17:00","-23.0","","-27.1","","70","","","","26","","34","","19.3","","101.69","","","","-37","","Ice Crystals,Blowing Snow"
"-115.14","67.82","KUGLUKTUK A","2300903","2020-03-28 18:00","2020","03","28","18:00","-23.6","","-27.7","","70","","","","25","","31","","19.3","","101.70","","","","-37","","Ice Crystals,Blowing Snow"
"-115.14","67.82","KUGLUKTUK A","2300903","2020-03-28 19:00","2020","03","28","19:00","-24.6","","-28.7","","70","","","","24","","25","","24.1","","101.74","","","","-38","","Ice Crystals,Blowing Snow"
"-115.14","67.82","KUGLUKTUK A","2300903","2020-03-28 20:00","2020","03","28","20:00","-25.5","","-29.7","","68","","","","25","","32","","24.1","","101.77","","","","-40","","Ice Crystals,Blowing Snow"
"-115.14","67.82","KUGLUKTUK A","2300903","2020-03-28 21:00","2020","03","28","21:00","-25.6","","-29.9","","68","","","","25","","31","","24.1","","101.83","","","","-40","","Ice Crystals,Blowing Snow"
"-115.14","67.82","KUGLUKTUK A","2300903","2020-03-28 22:00","2020","03","28","22:00","-25.8","","-30.3","","67","","","","26","","33","","24.1","","101.84","","","","-41","","Ice Crystals,Blowing Snow"
"-115.14","67.82","KUGLUKTUK A","2300903","2020-03-28 23:00","2020","03","28","23:00","-28.4","","-32.4","","69","","","","26","","21","","24.1","","101.94","","","","-41","","Clear"
"-115.14","67.82","KUGLUKTUK A","2300903","2020-03-29 00:00","2020","03","29","00:00","-29.2","","-32.9","","71","","","","26","","15","","24.1","","102.03","","","","-40","","NA"
"-115.14","67.82","KUGLUKTUK A","2300903","2020-03-29 01:00","2020","03","29","01:00","-27.9","","-32.0","","69","","","","27","","16","","24.1","","102.06","","","","-39","","NA"
"-115.14","67.82","KUGLUKTUK A","2300903","2020-03-29 02:00","2020","03","29","02:00","-28.8","","-32.5","","71","","","","26","","19","","24.1","","102.15","","","","-41","","Clear"
"-115.14","67.82","KUGLUKTUK A","2300903","2020-03-29 03:00","2020","03","29","03:00","-29.4","","-33.6","","67","","","","24","","20","","24.1","","102.18","","","","-42","","NA"
"-115.14","67.82","KUGLUKTUK A","2300903","2020-03-29 04:00","2020","03","29","04:00","-30.6","","-34.6","","69","","","","23","","23","","24.1","","102.25","","","","-45","","NA"
"-115.14","67.82","KUGLUKTUK A","2300903","2020-03-29 05:00","2020","03","29","05:00","-30.8","","-34.7","","69","","","","24","","27","","24.1","","102.27","","","","-46","","Mainly Clear"
"-115.14","67.82","KUGLUKTUK A","2300903","2020-03-29 06:00","2020","03","29","06:00","-28.2","","-32.7","","66","","","","25","","21","","24.1","","102.34","","","","-41","","NA"
"-115.14","67.82","KUGLUKTUK A","2300903","2020-03-29 07:00","2020","03","29","07:00","-28.4","","-33.0","","65","","","","24","","27","","24.1","","102.41","","","","-43","","NA"
"-115.14","67.82","KUGLUKTUK A","2300903","2020-03-29 08:00","2020","03","29","08:00","-27.7","","-32.5","","64","","","","26","","23","","24.1","","102.46","","","","-41","","Mostly Cloudy"
"-115.14","67.82","KUGLUKTUK A","2300903","2020-03-29 09:00","2020","03","29","09:00","-28.3","","-33.3","","63","","","","25","","26","","24.1","","102.53","","","","-43","","Blowing Snow"
"-115.14","67.82","KUGLUKTUK A","2300903","2020-03-29 10:00","2020","03","29","10:00","-27.5","","-32.7","","62","","","","26","","28","","24.1","","102.58","","","","-42","","Blowing Snow"
"-115.14","67.82","KUGLUKTUK A","2300903","2020-03-29 11:00","2020","03","29","11:00","-26.4","","-31.4","","63","","","","27","","28","","24.1","","102.64","","","","-41","","Blowing Snow"
"-115.14","67.82","KUGLUKTUK A","2300903","2020-03-29 12:00","2020","03","29","12:00","-26.0","","-31.2","","62","","","","24","","21","","24.1","","102.70","","","","-38","","Blowing Snow"
"-115.14","67.82","KUGLUKTUK A","2300903","2020-03-29 13:00","2020","03","29","13:00","-24.9","","-30.6","","60","","","","24","","23","","24.1","","102.73","","","","-37","","Blowing Snow"
"-115.14","67.82","KUGLUKTUK A","2300903","2020-03-29 14:00","2020","03","29","14:00","-24.8","","-30.1","","62","","","","23","","20","","24.1","","102.77","","","","-37","","Blowing Snow"
"-115.14","67.82","KUGLUKTUK A","2300903","2020-03-29 15:00","2020","03","29","15:00","-24.3","","-29.4","","63","","","","24","","22","","24.1","","102.81","","","","-36","","Blowing Snow"
"-115.14","67.82","KUGLUKTUK A","2300903","2020-03-29 16:00","2020","03","29","16:00","-23.6","","-28.6","","64","","","","26","","25","","24.1","","102.82","","","","-36","","Blowing Snow"
"-115.14","67.82","KUGLUKTUK A","2300903","2020-03-29 17:00","2020","03","29","17:00","-23.3","","-28.4","","63","","","","25","","25","","24.1","","102.82","","","","-36","","Blowing Snow"
"-115.14","67.82","KUGLUKTUK A","2300903","2020-03-29 18:00","2020","03","29","18:00","-24.4","","-28.9","","67","","","","25","","22","","24.1","","102.86","","","","-37","","NA"
"-115.14","67.82","KUGLUKTUK A","2300903","2020-03-29 19:00","2020","03","29","19:00","-24.9","","-29.6","","65","","","","25","","25","","24.1","","102.91","","","","-38","","NA"
"-115.14","67.82","KUGLUKTUK A","2300903","2020-03-29 20:00","2020","03","29","20:00","-25.9","","-30.6","","65","","","","24","","25","","24.1","","102.99","","","","-39","","Clear"
"-115.14","67.82","KUGLUKTUK A","2300903","2020-03-29 21:00","2020","03","29","21:00","-27.1","","-31.7","","66","","","","24","","26","","24.1","","103.08","","","","-41","","NA"
"-115.14","67.82","KUGLUKTUK A","2300903","2020-03-29 22:00","2020","03","29","22:00","-25.5","","-30.1","","66","","","","25","","19","","24.1","","103.17","","","","-37","","NA"
"-115.14","67.82","KUGLUKTUK A","2300903","2020-03-29 23:00","2020","03","29","23:00","-27.5","","-31.6","","69","","","","25","","19","","24.1","","103.25","","","","-40","","Mainly Clear"
"-115.14","67.82","KUGLUKTUK A","2300903","2020-03-30 00:00","2020","03","30","00:00","-28.5","","-32.9","","67","","","","23","","25","","24.1","","103.33","","","","-43","","NA"
"-115.14","67.82","KUGLUKTUK A","2300903","2020-03-30 01:00","2020","03","30","01:00","-28.6","","-33.2","","66","","","","24","","21","","24.1","","103.37","","","","-42","","NA"
"-115.14","67.82","KUGLUKTUK A","2300903","2020-03-30 02:00","2020","03","30","02:00","-28.8","","-32.9","","69","","","","25","","21","","24.1","","103.43","","","","-42","","Mainly Clear"
"-115.14","67.82","KUGLUKTUK A","2300903","2020-03-30 03:00","2020","03","30","03:00","-28.3","","-32.9","","65","","","","24","","24","","24.1","","103.45","","","","-42","","NA"
"-115.14","67.82","KUGLUKTUK A","2300903","2020-03-30 04:00","2020","03","30","04:00","-29.5","","-33.6","","69","","","","23","","28","","24.1","","103.48","","","","-45","","NA"
"-115.14","67.82","KUGLUKTUK A","2300903","2020-03-30 05:00","2020","03","30","05:00","-30.6","","-34.7","","68","","","","22","","23","","24.1","","103.52","","","","-45","","Mainly Clear"
"-115.14","67.82","KUGLUKTUK A","2300903","2020-03-30 06:00","2020","03","30","06:00","-30.8","","-35.2","","66","","","","22","","21","","24.1","","103.54","","","","-44","","NA"
"-115.14","67.82","KUGLUKTUK A","2300903","2020-03-30 07:00","2020","03","30","07:00","-30.2","","-34.4","","68","","","","22","","22","","24.1","","103.55","","","","-44","","NA"
"-115.14","67.82","KUGLUKTUK A","2300903","2020-03-30 08:00","2020","03","30","08:00","-28.9","","-33.3","","66","","","","22","","21","","24.1","","103.57","","","","-42","","Cloudy"
"-115.14","67.82","KUGLUKTUK A","2300903","2020-03-30 09:00","2020","03","30","09:00","-27.6","","-32.2","","65","","","","22","","21","","24.1","","103.57","","","","-40","","NA"
"-115.14","67.82","KUGLUKTUK A","2300903","2020-03-30 10:00","2020","03","30","10:00","-26.4","","-31.3","","65","","","","22","","22","","24.1","","103.60","","","","-39","","NA"
"-115.14","67.82","KUGLUKTUK A","2300903","2020-03-30 11:00","2020","03","30","11:00","-25.2","","-30.2","","64","","","","22","","21","","24.1","","103.60","","","","-37","","Mostly Cloudy"
"-115.14","67.82","KUGLUKTUK A","2300903","2020-03-30 12:00","2020","03","30","12:00","-23.5","","-28.6","","64","","","","23","","26","","24.1","","103.60","","","","-36","","NA"
"-115.14","67.82","KUGLUKTUK A","2300903","2020-03-30 13:00","2020","03","30","13:00","-22.4","","-27.4","","64","","","","25","","17","","24.1","","103.63","","","","-33","","NA"
"-115.14","67.82","KUGLUKTUK A","2300903","2020-03-30 14:00","2020","03","30","14:00","-22.8","","-27.7","","65","","","","24","","29","","24.1","","103.61","","","","-36","","Mainly Clear"
"-115.14","67.82","KUGLUKTUK A","2300903","2020-03-30 15:00","2020","03","30","15:00","-21.3","","-26.1","","66","","","","24","","21","","24.1","","103.60","","","","-32","","NA"
"-115.14","67.82","KUGLUKTUK A","2300903","2020-03-30 16:00","2020","03","30","16:00","-21.5","","-26.1","","67","","","","24","","24","","24.1","","103.63","","","","-33","","NA"
"-115.14","67.82","KUGLUKTUK A","2300903","2020-03-30 17:00","2020","03","30","17:00","-22.3","","-27.0","","66","","","","26","","14","","24.1","","103.65","","","","-32","","Mainly Clear"
"-115.14","67.82","KUGLUKTUK A","2300903","2020-03-30 18:00","2020","03","30","18:00","-23.2","","-27.8","","67","","","","22","","11","","24.1","","103.69","","","","-31","","NA"
"-115.14","67.82","KUGLUKTUK A","2300903","2020-03-30 19:00","2020","03","30","19:00","-24.4","","-28.8","","67","","","","23","","19","","24.1","","103.67","","","","-36","","NA"
"-115.14","67.82","KUGLUKTUK A","2300903","2020-03-30 20:00","2020","03","30","20:00","-24.8","","-29.4","","66","","","","23","","23","","24.1","","103.72","","","","-37","","Mainly Clear"
"-115.14","67.82","KUGLUKTUK A","2300903","2020-03-30 21:00","2020","03","30","21:00","-25.8","","-30.1","","68","","","","23","","17","","24.1","","103.75","","","","-37","","NA"
"-115.14","67.82","KUGLUKTUK A","2300903","2020-03-30 22:00","2020","03","30","22:00","-26.1","","-30.2","","69","","","","23","","23","","24.1","","103.77","","","","-39","","NA"
"-115.14","67.82","KUGLUKTUK A","2300903","2020-03-30 23:00","2020","03","30","23:00","-25.8","","-30.3","","67","","","","23","","21","","24.1","","103.79","","","","-38","","Mainly Clear"
"-115.14","67.82","KUGLUKTUK A","2300903","2020-03-31 00:00","2020","03","31","00:00","-26.2","","-30.7","","67","","","","23","","28","","24.1","","103.77","","","","-40","","NA"
"-115.14","67.82","KUGLUKTUK A","2300903","2020-03-31 01:00","2020","03","31","01:00","-26.3","","-30.8","","67","","","","23","","21","","24.1","","103.82","","","","-39","","NA"
"-115.14","67.82","KUGLUKTUK A","2300903","2020-03-31 02:00","2020","03","31","02:00","-27.2","","-31.5","","67","","","","22","","20","","24.1","","103.86","","","","-40","","Clear"
"-115.14","67.82","KUGLUKTUK A","2300903","2020-03-31 03:00","2020","03","31","03:00","-27.3","","-31.6","","68","","","","19","","14","","24.1","","103.90","","","","-38","","NA"
"-115.14","67.82","KUGLUKTUK A","2300903","2020-03-31 04:00","2020","03","31","04:00","-27.7","","-31.9","","68","","","","21","","17","","24.1","","103.89","","","","-39","","NA"
"-115.14","67.82","KUGLUKTUK A","2300903","2020-03-31 05:00","2020","03","31","05:00","-27.5","","-31.8","","68","","","","22","","20","","24.1","","103.91","","","","-40","","Clear"
"-115.14","67.82","KUGLUKTUK A","2300903","2020-03-31 06:00","2020","03","31","06:00","-27.0","","-31.3","","68","","","","23","","21","","24.1","","103.96","","","","-40","","NA"
"-115.14","67.82","KUGLUKTUK A","2300903","2020-03-31 07:00","2020","03","31","07:00","-26.5","","-31.1","","66","","","","23","","22","","24.1","","103.99","","","","-39","","NA"
"-115.14","67.82","KUGLUKTUK A","2300903","2020-03-31 08:00","2020","03","31","08:00","-25.9","","-30.2","","67","","","","23","","21","","24.1","","103.99","","","","-38","","Mostly Cloudy"
"-115.14","67.82","KUGLUKTUK A","2300903","2020-03-31 09:00","2020","03","31","09:00","-24.6","","-29.2","","66","","","","23","","23","","24.1","","104.00","","","","-37","","NA"
"-115.14","67.82","KUGLUKTUK A","2300903","2020-03-31 10:00","2020","03","31","10:00","-23.3","","-28.1","","66","","","","23","","18","","24.1","","104.02","","","","-34","","NA"
"-115.14","67.82","KUGLUKTUK A","2300903","2020-03-31 11:00","2020","03","31","11:00","-21.6","","-26.7","","64","","","","23","","22","","24.1","","104.04","","","","-33","","Mainly Clear"
"-115.14","67.82","KUGLUKTUK A","2300903","2020-03-31 12:00","2020","03","31","12:00","-20.2","","-25.6","","63","","","","23","","21","","24.1","","104.07","","","","-31","","NA"
"-115.14","67.82","KUGLUKTUK A","2300903","2020-03-31 13:00","2020","03","31","13:00","-18.9","","-24.5","","62","","","","23","","20","","24.1","","104.08","","","","-29","","NA"
"-115.14","67.82","KUGLUKTUK A","2300903","2020-03-31 14:00","2020","03","31","14:00","-17.8","","-23.6","","62","","","","23","","16","","24.1","","104.12","","","","-27","","Mainly Clear"
"-115.14","67.82","KUGLUKTUK A","2300903","2020-03-31 15:00","2020","03","31","15:00","-17.9","","-22.9","","66","","","","23","","11","","24.1","","104.14","","","","-25","","NA"
"-115.14","67.82","KUGLUKTUK A","2300903","2020-03-31 16:00","2020","03","31","16:00","-17.4","","-22.9","","63","","","","23","","13","","24.1","","104.15","","","","-25","","NA"
"-115.14","67.82","KUGLUKTUK A","2300903","2020-03-31 17:00","2020","03","31","17:00","-19.2","","-23.7","","68","","","","36","","3","","24.1","","104.19","","","","-22","","Clear"
"-115.14","67.82","KUGLUKTUK A","2300903","2020-03-31 18:00","2020","03","31","18:00","-18.7","","-23.8","","65","","","","23","","5","","24.1","","104.22","","","","-23","","NA"
"-115.14","67.82","KUGLUKTUK A","2300903","2020-03-31 19:00","2020","03","31","19:00","-19.4","","-24.1","","67","","","","15","","6","","24.1","","104.25","","","","-24","","NA"
"-115.14","67.82","KUGLUKTUK A","2300903","2020-03-31 20:00","2020","03","31","20:00","-21.6","","-26.3","","66","","","","21","","10","","24.1","","104.28","","","","-29","","Mainly Clear"
"-115.14","67.82","KUGLUKTUK A","2300903","2020-03-31 21:00","2020","03","31","21:00","-21.6","","-26.5","","65","","","","18","","10","","24.1","","104.31","","","","-29","","NA"
"-115.14","67.82","KUGLUKTUK A","2300903","2020-03-31 22:00","2020","03","31","22:00","-20.8","","-26.4","","61","","","","19","","5","","24.1","","104.37","","","","-25","","NA"
"-115.14","67.82","KUGLUKTUK A","2300903","2020-03-31 23:00","2020","03","31","23:00","-21.7","","-26.4","","66","","","","16","","4","","24.1","","104.39","","","","-25","","Clear"
