"Longitude (x)","Latitude (y)","Station Name","Climate ID","Date/Time (LST)","Year","Month","Day","Time (LST)","Temp (°C)","Temp Flag","Dew Point Temp (°C)","Dew Point Temp Flag","Rel Hum (%)","Rel Hum Flag","Precip. Amount (mm)","Precip. Amount Flag","Wind Dir (10s deg)","Wind Dir Flag","Wind Spd (km/h)","Wind Spd Flag","Visibility (km)","Visibility Flag","Stn Press (kPa)","Stn Press Flag","Hmdx","Hmdx Flag","Wind Chill","Wind Chill Flag","Weather"
"-85.81","79.99","EUREKA A","2401203","2018-07-01 00:00","2018","07","01","00:00","8.8","","1.4","","60","","","","27","","16","","24.1","","100.63","","","","","","Mostly Cloudy"
"-85.81","79.99","EUREKA A","2401203","2018-07-01 01:00","2018","07","01","01:00","8.9","","1.2","","58","","","","26","","22","","24.1","","100.60","","","","","","NA"
"-85.81","79.99","EUREKA A","2401203","2018-07-01 02:00","2018","07","01","02:00","9.4","","2.0","","59","","","","28","","14","","24.1","","100.60","","","","","","NA"
"-85.81","79.99","EUREKA A","2401203","2018-07-01 03:00","2018","07","01","03:00","8.1","","0.7","","59","","","","28","","21","","24.1","","100.60","","","","","","Mainly Clear"
"-85.81","79.99","EUREKA A","2401203","2018-07-01 04:00","2018","07","01","04:00","11.3","","2.2","","54","","","","35","","21","","24.1","","100.57","","","","","","NA"
"-85.81","79.99","EUREKA A","2401203","2018-07-01 05:00","2018","07","01","05:00","8.8","","0.3","","55","","","","28","","21","","24.1","","100.57","","","","","","NA"
"-85.81","79.99","EUREKA A","2401203","2018-07-01 06:00","2018","07","01","06:00","8.0","","-0.4","","55","","","","27","","24","","24.1","","100.55","","","","","","Clear"
"-85.81","79.99","EUREKA A","2401203","2018-07-01 07:00","2018","07","01","07:00","9.4","","0.9","","55","","","","28","","20","","24.1","","100.55","","","","","","NA"
"-85.81","79.99","EUREKA A","2401203","2018-07-01 08:00","2018","07","01","08:00","8.2","","-0.6","","53","","","","28","","24","","24.1","","100.55","","","","","","NA"
"-85.81","79.99","EUREKA A","2401203","2018-07-01 09:00","2018","07","01","09:00","8.0","","-0.7","","54","","","","28","","25","","24.1","","100.54","","","","","","Mostly Cloudy"
"-85.81","79.99","EUREKA A","2401203","2018-07-01 10:00","2018","07","01","10:00","10.5","","0.2","","49","","","","27","","17","","24.1","","100.53","","","","","","NA"
"-85.81","79.99","EUREKA A","2401203","2018-07-01 11:00","2018","07","01","11:00","10.1","","-0.1","","49","","","","29","","26","","24.1","","100.53","","","","","","NA"
"-85.81","79.99","EUREKA A","2401203","2018-07-01 12:00","2018","07","01","12:00","10.8","","0.5","","49","","","","27","","25","","24.1","","100.53","","","","","","Clear"
"-85.81","79.99","EUREKA A","2401203","2018-07-01 13:00","2018","07","01","13:00","9.7","","-0.3","","50","","","","28","","27","","24.1","","100.57","","","","","","NA"
"-85.81","79.99","EUREKA A","2401203","2018-07-01 14:00","2018","07","01","14:00","12.3","","1.6","","48","","","","33","","16","","24.1","","100.57","","","","","","NA"
"-85.81","79.99","EUREKA A","2401203","2018-07-01 15:00","2018","07","01","15:00","9.9","","0.0","","50","","","","29","","17","","24.1","","100.60","","","","","","Mostly Cloudy"
"-85.81","79.99","EUREKA A","2401203","2018-07-01 16:00","2018","07","01","16:00","12.9","","1.8","","46","","","","1","","18","","24.1","","100.66","","","","","","NA"
"-85.81","79.99","EUREKA A","2401203","2018-07-01 17:00","2018","07","01","17:00","10.2","","1.4","","54","","","","27","","18","","24.1","","100.66","","","","","","NA"
"-85.81","79.99","EUREKA A","2401203","2018-07-01 18:00","2018","07","01","18:00","12.6","","2.0","","48","","","","36","","16","","24.1","","100.70","","","","","","Clear"
"-85.81","79.99","EUREKA A","2401203","2018-07-01 19:00","2018","07","01","19:00","12.3","","1.5","","48","","","","35","","21","","24.1","","100.72","","","","","","NA"
"-85.81","79.99","EUREKA A","2401203","2018-07-01 20:00","2018","07","01","20:00","10.2","","1.3","","54","","","","28","","18","","24.1","","100.73","","","","","","NA"
"-85.81","79.99","EUREKA A","2401203","2018-07-01 21:00","2018","07","01","21:00","8.8","","0.4","","56","","","","27","","17","","24.1","","100.76","","","","","","Mostly Cloudy"
"-85.81","79.99","EUREKA A","2401203","2018-07-01 22:00","2018","07","01","22:00","8.4","","0.7","","58","","","","24","","10","","24.1","","100.78","","","","","","NA"
"-85.81","79.99","EUREKA A","2401203","2018-07-01 23:00","2018","07","01","23:00","8.8","","1.0","","58","","","","27","","11","","24.1","","100.79","","","","","","NA"
"-85.81","79.99","EUREKA A","2401203","2018-07-02 00:00","2018","07","02","00:00","8.5","","0.7","","58","","","","29","","10","","24.1","","100.81","","","","","","Cloudy"
"-85.81","79.99","EUREKA A","2401203","2018-07-02 01:00","2018","07","02","01:00","8.2","","0.8","","60","","","","36","","17","","24.1","","100.83","","","","","","NA"
"-85.81","79.99","EUREKA A","2401203","2018-07-02 02:00","2018","07","02","02:00","7.9","","1.1","","62","","","","32","","12","","24.1","","100.81","","","","","","NA"
"-85.81","79.99","EUREKA A","2401203","2018-07-02 03:00","2018","07","02","03:00","7.3","","0.0","","59","","","","28","","21","","24.1","","100.79","","","","","","Cloudy"
"-85.81","79.99","EUREKA A","2401203","2018-07-02 04:00","2018","07","02","04:00","7.1","","0.4","","62","","","","27","","28","","24.1","","100.80","","","","","","NA"
"-85.81","79.99","EUREKA A","2401203","2018-07-02 05:00","2018","07","02","05:00","6.7","","0.4","","65","","","","28","","28","","24.1","","100.77","","","","","","NA"
"-85.81","79.99","EUREKA A","2401203","2018-07-02 06:00","2018","07","02","06:00","6.3","","0.3","","66","","","","29","","19","","24.1","","100.73","","","","","","Cloudy"
"-85.81","79.99","EUREKA A","2401203","2018-07-02 07:00","2018","07","02","07:00","7.5","","0.2","","60","","","","27","","32","","24.1","","100.70","","","","","","NA"
"-85.81","79.99","EUREKA A","2401203","2018-07-02 08:00","2018","07","02","08:00","7.3","","-0.1","","59","","","","27","","32","","24.1","","100.66","","","","","","NA"
"-85.81","79.99","EUREKA A","2401203","2018-07-02 09:00","2018","07","02","09:00","6.3","","-0.6","","61","","","","27","","24","","24.1","","100.63","","","","","","Mostly Cloudy"
"-85.81","79.99","EUREKA A","2401203","2018-07-02 10:00","2018","07","02","10:00","8.2","","0.2","","57","","","","27","","30","","24.1","","100.59","","","","","","NA"
"-85.81","79.99","EUREKA A","2401203","2018-07-02 11:00","2018","07","02","11:00","8.4","","-0.2","","54","","","","28","","37","","24.1","","100.54","","","","","","NA"
"-85.81","79.99","EUREKA A","2401203","2018-07-02 12:00","2018","07","02","12:00","7.4","","-0.2","","58","","","","27","","28","","24.1","","100.52","","","","","","Mostly Cloudy"
"-85.81","79.99","EUREKA A","2401203","2018-07-02 13:00","2018","07","02","13:00","8.6","","1.0","","59","","","","28","","21","","24.1","","100.54","","","","","","NA"
"-85.81","79.99","EUREKA A","2401203","2018-07-02 14:00","2018","07","02","14:00","7.0","","-0.2","","60","","","","27","","30","","24.1","","100.55","","","","","","NA"
"-85.81","79.99","EUREKA A","2401203","2018-07-02 15:00","2018","07","02","15:00","7.9","","0.5","","59","","","","28","","31","","24.1","","100.57","","","","","","Clear"
"-85.81","79.99","EUREKA A","2401203","2018-07-02 16:00","2018","07","02","16:00","7.9","","0.5","","59","","","","27","","28","","24.1","","100.58","","","","","","NA"
"-85.81","79.99","EUREKA A","2401203","2018-07-02 17:00","2018","07","02","17:00","9.0","","1.5","","59","","","","27","","20","","24.1","","100.58","","","","","","NA"
"-85.81","79.99","EUREKA A","2401203","2018-07-02 18:00","2018","07","02","18:00","8.4","","0.5","","57","","","","27","","21","","24.1","","100.62","","","","","","Mainly Clear"
"-85.81","79.99","EUREKA A","2401203","2018-07-02 19:00","2018","07","02","19:00","8.2","","0.6","","59","","","","29","","18","","24.1","","100.63","","","","","","NA"
"-85.81","79.99","EUREKA A","2401203","2018-07-02 20:00","2018","07","02","20:00","9.5","","1.0","","55","","","","32","","13","","24.1","","100.66","","","","","","NA"
"-85.81","79.99","EUREKA A","2401203","2018-07-02 21:00","2018","07","02","21:00","9.1","","0.9","","56","","","","36","","20","","24.1","","100.66","","","","","","Mostly Cloudy"
"-85.81","79.99","EUREKA A","2401203","2018-07-02 22:00","2018","07","02","22:00"
"-85.81","79.99","EUREKA A","2401203","2018-07-02 23:00","2018","07","02","23:00"
"-85.81","79.99","EUREKA A","2401203","2018-07-03 00:00","2018","07","03","00:00","6.0","","0.9","","70","","","","30","","19","","24.1","","100.69","","","","","","Mostly Cloudy"
"-85.81","79.99","EUREKA A","2401203","2018-07-03 01:00","2018","07","03","01:00","5.0","","0.2","","71","","","","29","","21","","24.1","","100.69","","","","","","NA"
"-85.81","79.99","EUREKA A","2401203","2018-07-03 02:00","2018","07","03","02:00","6.0","","0.9","","70","","","","35","","13","","24.1","","100.70","","","","","","NA"
"-85.81","79.99","EUREKA A","2401203","2018-07-03 03:00","2018","07","03","03:00","5.9","","0.9","","70","","","","35","","13","","24.1","","100.73","","","","","","Mostly Cloudy"
"-85.81","79.99","EUREKA A","2401203","2018-07-03 04:00","2018","07","03","04:00","6.4","","1.2","","69","","","","26","","3","","24.1","","100.71","","","","","","NA"
"-85.81","79.99","EUREKA A","2401203","2018-07-03 05:00","2018","07","03","05:00","7.0","","-0.2","","60","","","","28","","16","","24.1","","100.71","","","","","","NA"
"-85.81","79.99","EUREKA A","2401203","2018-07-03 06:00","2018","07","03","06:00","7.9","","0.1","","58","","","","28","","21","","24.1","","100.70","","","","","","Mainly Clear"
"-85.81","79.99","EUREKA A","2401203","2018-07-03 07:00","2018","07","03","07:00","6.7","","0.0","","62","","","","27","","23","","24.1","","100.69","","","","","","NA"
"-85.81","79.99","EUREKA A","2401203","2018-07-03 08:00","2018","07","03","08:00","6.9","","0.0","","61","","","","27","","28","","24.1","","100.69","","","","","","NA"
"-85.81","79.99","EUREKA A","2401203","2018-07-03 09:00","2018","07","03","09:00","6.9","","-0.3","","60","","","","26","","22","","24.1","","100.66","","","","","","Mainly Clear"
"-85.81","79.99","EUREKA A","2401203","2018-07-03 10:00","2018","07","03","10:00","6.3","","-0.4","","62","","","","27","","30","","24.1","","100.65","","","","","","NA"
"-85.81","79.99","EUREKA A","2401203","2018-07-03 11:00","2018","07","03","11:00","6.8","","0.1","","62","","","","26","","26","","24.1","","100.64","","","","","","NA"
"-85.81","79.99","EUREKA A","2401203","2018-07-03 12:00","2018","07","03","12:00","6.2","","-0.2","","64","","","","27","","28","","24.1","","100.63","","","","","","Clear"
"-85.81","79.99","EUREKA A","2401203","2018-07-03 13:00","2018","07","03","13:00","6.6","","0.3","","64","","","","26","","30","","24.1","","100.62","","","","","","NA"
"-85.81","79.99","EUREKA A","2401203","2018-07-03 14:00","2018","07","03","14:00","7.6","","0.0","","59","","","","26","","27","","24.1","","100.61","","","","","","NA"
"-85.81","79.99","EUREKA A","2401203","2018-07-03 15:00","2018","07","03","15:00","7.3","","0.0","","60","","","","26","","25","","24.1","","100.61","","","","","","Mainly Clear"
"-85.81","79.99","EUREKA A","2401203","2018-07-03 16:00","2018","07","03","16:00","8.9","","0.4","","55","","","","26","","27","","24.1","","100.63","","","","","","NA"
"-85.81","79.99","EUREKA A","2401203","2018-07-03 17:00","2018","07","03","17:00","7.6","","0.1","","59","","","","27","","29","","24.1","","100.63","","","","","","NA"
"-85.81","79.99","EUREKA A","2401203","2018-07-03 18:00","2018","07","03","18:00","10.9","","1.8","","53","","","","2","","20","","24.1","","100.66","","","","","","Mostly Cloudy"
"-85.81","79.99","EUREKA A","2401203","2018-07-03 19:00","2018","07","03","19:00","9.2","","2.1","","61","","","","29","","8","","24.1","","100.67","","","","","","NA"
"-85.81","79.99","EUREKA A","2401203","2018-07-03 20:00","2018","07","03","20:00","8.4","","1.4","","61","","","","23","","14","","24.1","","100.69","","","","","","NA"
"-85.81","79.99","EUREKA A","2401203","2018-07-03 21:00","2018","07","03","21:00","9.2","","1.8","","60","","","","20","","5","","24.1","","100.69","","","","","","Mostly Cloudy"
"-85.81","79.99","EUREKA A","2401203","2018-07-03 22:00","2018","07","03","22:00","8.4","","2.0","","64","","","","14","","4","","24.1","","100.69","","","","","","NA"
"-85.81","79.99","EUREKA A","2401203","2018-07-03 23:00","2018","07","03","23:00","6.6","","1.1","","68","","","","17","","5","","22.5","","100.71","","","","","","NA"
"-85.81","79.99","EUREKA A","2401203","2018-07-04 00:00","2018","07","04","00:00","7.2","","1.8","","68","","","","14","","8","","24.1","","100.72","","","","","","Mostly Cloudy"
"-85.81","79.99","EUREKA A","2401203","2018-07-04 01:00","2018","07","04","01:00","7.5","","2.0","","68","","","","14","","9","","24.1","","100.73","","","","","","NA"
"-85.81","79.99","EUREKA A","2401203","2018-07-04 02:00","2018","07","04","02:00","6.5","","1.9","","72","","","","15","","8","","24.1","","100.73","","","","","","NA"
"-85.81","79.99","EUREKA A","2401203","2018-07-04 03:00","2018","07","04","03:00","6.0","","1.8","","74","","","","17","","9","","24.1","","100.73","","","","","","Mostly Cloudy"
"-85.81","79.99","EUREKA A","2401203","2018-07-04 04:00","2018","07","04","04:00","6.4","","1.7","","72","","","","18","","6","","24.1","","100.74","","","","","","NA"
"-85.81","79.99","EUREKA A","2401203","2018-07-04 05:00","2018","07","04","05:00","6.7","","1.8","","71","","","","20","","6","","24.1","","100.72","","","","","","NA"
"-85.81","79.99","EUREKA A","2401203","2018-07-04 06:00","2018","07","04","06:00","7.3","","1.9","","69","","","","27","","6","","24.1","","100.70","","","","","","Mostly Cloudy"
"-85.81","79.99","EUREKA A","2401203","2018-07-04 07:00","2018","07","04","07:00","7.8","","1.8","","66","","","","27","","12","","24.1","","100.69","","","","","","NA"
"-85.81","79.99","EUREKA A","2401203","2018-07-04 08:00","2018","07","04","08:00","7.5","","1.6","","66","","","","27","","14","","24.1","","100.66","","","","","","NA"
"-85.81","79.99","EUREKA A","2401203","2018-07-04 09:00","2018","07","04","09:00","7.9","","1.5","","64","","","","27","","15","","24.1","","100.64","","","","","","Mostly Cloudy"
"-85.81","79.99","EUREKA A","2401203","2018-07-04 10:00","2018","07","04","10:00","7.5","","1.5","","66","","","","27","","17","","24.1","","100.60","","","","","","NA"
"-85.81","79.99","EUREKA A","2401203","2018-07-04 11:00","2018","07","04","11:00","7.0","","1.3","","67","","","","27","","19","","24.1","","100.54","","","","","","NA"
"-85.81","79.99","EUREKA A","2401203","2018-07-04 12:00","2018","07","04","12:00","7.9","","1.6","","65","","","","27","","16","","24.1","","100.51","","","","","","Mainly Clear"
"-85.81","79.99","EUREKA A","2401203","2018-07-04 13:00","2018","07","04","13:00","7.7","","1.0","","62","","","","27","","21","","24.1","","100.48","","","","","","NA"
"-85.81","79.99","EUREKA A","2401203","2018-07-04 14:00","2018","07","04","14:00","9.0","","1.0","","57","","","","26","","18","","24.1","","100.45","","","","","","NA"
"-85.81","79.99","EUREKA A","2401203","2018-07-04 15:00","2018","07","04","15:00","6.3","","0.2","","65","","","","27","","20","","24.1","","100.42","","","","","","Mainly Clear"
"-85.81","79.99","EUREKA A","2401203","2018-07-04 16:00","2018","07","04","16:00","9.5","","0.5","","53","","","","28","","15","","24.1","","100.38","","","","","","NA"
"-85.81","79.99","EUREKA A","2401203","2018-07-04 17:00","2018","07","04","17:00","13.0","","-0.6","","39","","","","34","","17","","24.1","","100.37","","","","","","NA"
"-85.81","79.99","EUREKA A","2401203","2018-07-04 18:00","2018","07","04","18:00","12.7","","-0.6","","40","","","","1","","13","","24.1","","100.33","","","","","","Mostly Cloudy"
"-85.81","79.99","EUREKA A","2401203","2018-07-04 19:00","2018","07","04","19:00","12.0","","0.4","","45","","","","1","","15","","24.1","","100.30","","","","","","NA"
"-85.81","79.99","EUREKA A","2401203","2018-07-04 20:00","2018","07","04","20:00","11.2","","0.7","","48","","","","1","","18","","24.1","","100.29","","","","","","NA"
"-85.81","79.99","EUREKA A","2401203","2018-07-04 21:00","2018","07","04","21:00","10.5","","0.2","","49","","","","33","","18","","24.1","","100.27","","","","","","Mostly Cloudy"
"-85.81","79.99","EUREKA A","2401203","2018-07-04 22:00","2018","07","04","22:00","9.8","","0.4","","52","","","","32","","14","","24.1","","100.23","","","","","","NA"
"-85.81","79.99","EUREKA A","2401203","2018-07-04 23:00","2018","07","04","23:00","8.1","","0.6","","59","","","","27","","4","","24.1","","100.20","","","","","","NA"
"-85.81","79.99","EUREKA A","2401203","2018-07-05 00:00","2018","07","05","00:00","7.8","","0.7","","61","","","","32","","7","","24.1","","100.18","","","","","","Mostly Cloudy"
"-85.81","79.99","EUREKA A","2401203","2018-07-05 01:00","2018","07","05","01:00","5.8","","0.8","","70","","","","27","","16","","24.1","","100.16","","","","","","NA"
"-85.81","79.99","EUREKA A","2401203","2018-07-05 02:00","2018","07","05","02:00","6.3","","0.7","","67","","","","27","","18","","24.1","","100.13","","","","","","NA"
"-85.81","79.99","EUREKA A","2401203","2018-07-05 03:00","2018","07","05","03:00","6.5","","0.7","","67","","","","33","","12","","24.1","","100.10","","","","","","Mostly Cloudy"
"-85.81","79.99","EUREKA A","2401203","2018-07-05 04:00","2018","07","05","04:00","6.7","","0.7","","65","","","","28","","25","","24.1","","100.11","","","","","","NA"
"-85.81","79.99","EUREKA A","2401203","2018-07-05 05:00","2018","07","05","05:00","7.1","","1.0","","65","","","","28","","22","","24.1","","100.10","","","","","","NA"
"-85.81","79.99","EUREKA A","2401203","2018-07-05 06:00","2018","07","05","06:00","7.2","","0.7","","63","","","","31","","17","","24.1","","100.10","","","","","","Mostly Cloudy"
"-85.81","79.99","EUREKA A","2401203","2018-07-05 07:00","2018","07","05","07:00","9.0","","1.2","","58","","","","36","","19","","24.1","","100.07","","","","","","NA"
"-85.81","79.99","EUREKA A","2401203","2018-07-05 08:00","2018","07","05","08:00","9.7","","1.1","","55","","","","1","","20","","24.1","","100.07","","","","","","NA"
"-85.81","79.99","EUREKA A","2401203","2018-07-05 09:00","2018","07","05","09:00","7.0","","0.5","","63","","","","27","","17","","24.1","","100.04","","","","","","Cloudy"
"-85.81","79.99","EUREKA A","2401203","2018-07-05 10:00","2018","07","05","10:00","6.9","","0.3","","63","","","","28","","20","","24.1","","100.00","","","","","","NA"
"-85.81","79.99","EUREKA A","2401203","2018-07-05 11:00","2018","07","05","11:00","6.5","","0.4","","65","","","","26","","17","","24.1","","100.01","","","","","","NA"
"-85.81","79.99","EUREKA A","2401203","2018-07-05 12:00","2018","07","05","12:00","7.8","","0.4","","59","","","","30","","22","","24.1","","100.00","","","","","","Mostly Cloudy"
"-85.81","79.99","EUREKA A","2401203","2018-07-05 13:00","2018","07","05","13:00","8.2","","0.3","","57","","","","28","","22","","24.1","","99.98","","","","","","NA"
"-85.81","79.99","EUREKA A","2401203","2018-07-05 14:00","2018","07","05","14:00","8.2","","0.2","","57","","","","27","","26","","24.1","","99.99","","","","","","NA"
"-85.81","79.99","EUREKA A","2401203","2018-07-05 15:00","2018","07","05","15:00","9.3","","0.2","","53","","","","27","","28","","24.1","","99.99","","","","","","Mostly Cloudy"
"-85.81","79.99","EUREKA A","2401203","2018-07-05 16:00","2018","07","05","16:00","8.2","","0.5","","58","","","","27","","23","","24.1","","99.99","","","","","","NA"
"-85.81","79.99","EUREKA A","2401203","2018-07-05 17:00","2018","07","05","17:00","8.0","","0.5","","59","","","","26","","22","","24.1","","100.03","","","","","","NA"
"-85.81","79.99","EUREKA A","2401203","2018-07-05 18:00","2018","07","05","18:00","8.2","","0.7","","59","","","","28","","14","","24.1","","100.04","","","","","","Cloudy"
"-85.81","79.99","EUREKA A","2401203","2018-07-05 19:00","2018","07","05","19:00","9.1","","1.1","","57","","","","34","","9","","24.1","","100.05","","","","","","NA"
"-85.81","79.99","EUREKA A","2401203","2018-07-05 20:00","2018","07","05","20:00","9.4","","1.8","","59","","","","26","","4","","24.1","","100.06","","","","","","Rain"
"-85.81","79.99","EUREKA A","2401203","2018-07-05 21:00","2018","07","05","21:00","6.3","","0.4","","66","","","","26","","12","","24.1","","100.06","","","","","","Cloudy"
"-85.81","79.99","EUREKA A","2401203","2018-07-05 22:00","2018","07","05","22:00","7.2","","0.7","","63","","","","27","","8","","24.1","","100.06","","","","","","NA"
"-85.81","79.99","EUREKA A","2401203","2018-07-05 23:00","2018","07","05","23:00","4.1","","0.1","","75","","","","26","","17","","24.1","","100.06","","","","","","Rain"
"-85.81","79.99","EUREKA A","2401203","2018-07-06 00:00","2018","07","06","00:00","5.5","","-0.1","","67","","","","27","","25","","24.1","","100.05","","","","","","Cloudy"
"-85.81","79.99","EUREKA A","2401203","2018-07-06 01:00","2018","07","06","01:00","5.2","","0.2","","70","","","","27","","23","","24.1","","100.06","","","","","","NA"
"-85.81","79.99","EUREKA A","2401203","2018-07-06 02:00","2018","07","06","02:00","5.4","","0.2","","69","","","","27","","25","","24.1","","100.06","","","","","","NA"
"-85.81","79.99","EUREKA A","2401203","2018-07-06 03:00","2018","07","06","03:00","6.1","","1.0","","69","","","","27","","18","","24.1","","100.06","","","","","","Cloudy"
"-85.81","79.99","EUREKA A","2401203","2018-07-06 04:00","2018","07","06","04:00","5.2","","0.9","","74","","","","23","","13","","24.1","","100.08","","","","","","Rain"
"-85.81","79.99","EUREKA A","2401203","2018-07-06 05:00","2018","07","06","05:00","7.0","","1.9","","70","","","","27","","6","","24.1","","100.07","","","","","","NA"
"-85.81","79.99","EUREKA A","2401203","2018-07-06 06:00","2018","07","06","06:00","6.3","","1.2","","70","","","","26","","16","","24.1","","100.07","","","","","","Cloudy"
"-85.81","79.99","EUREKA A","2401203","2018-07-06 07:00","2018","07","06","07:00","5.7","","1.3","","73","","","","27","","16","","24.1","","100.05","","","","","","Rain"
"-85.81","79.99","EUREKA A","2401203","2018-07-06 08:00","2018","07","06","08:00","5.8","","1.5","","74","","","","26","","11","","24.1","","100.05","","","","","","NA"
"-85.81","79.99","EUREKA A","2401203","2018-07-06 09:00","2018","07","06","09:00","6.1","","1.5","","73","","","","26","","11","","24.1","","100.05","","","","","","Rain Showers"
"-85.81","79.99","EUREKA A","2401203","2018-07-06 10:00","2018","07","06","10:00","6.0","","1.1","","71","","","","27","","13","","24.1","","100.03","","","","","","NA"
"-85.81","79.99","EUREKA A","2401203","2018-07-06 11:00","2018","07","06","11:00","7.0","","1.7","","69","","","","26","","8","","24.1","","100.02","","","","","","Rain"
"-85.81","79.99","EUREKA A","2401203","2018-07-06 12:00","2018","07","06","12:00","7.3","","1.9","","68","","","","26","","8","","24.1","","100.00","","","","","","Cloudy"
"-85.81","79.99","EUREKA A","2401203","2018-07-06 13:00","2018","07","06","13:00","7.6","","2.7","","71","","","","20","","5","","24.1","","99.99","","","","","","NA"
"-85.81","79.99","EUREKA A","2401203","2018-07-06 14:00","2018","07","06","14:00","7.0","","2.8","","74","","","","20","","4","","24.1","","99.98","","","","","","Rain"
"-85.81","79.99","EUREKA A","2401203","2018-07-06 15:00","2018","07","06","15:00","7.0","","3.9","","80","","","","16","","9","","24.1","","99.96","","","","","","Rain"
"-85.81","79.99","EUREKA A","2401203","2018-07-06 16:00","2018","07","06","16:00","7.0","","4.3","","83","","","","17","","10","","24.1","","99.94","","","","","","Rain"
"-85.81","79.99","EUREKA A","2401203","2018-07-06 17:00","2018","07","06","17:00","7.3","","3.9","","79","","","","17","","12","","24.1","","99.94","","","","","","Rain"
"-85.81","79.99","EUREKA A","2401203","2018-07-06 18:00","2018","07","06","18:00","6.3","","3.3","","81","","","","18","","14","","24.1","","99.92","","","","","","Rain"
"-85.81","79.99","EUREKA A","2401203","2018-07-06 19:00","2018","07","06","19:00","6.0","","3.0","","81","","","","17","","15","","24.1","","99.89","","","","","","Rain"
"-85.81","79.99","EUREKA A","2401203","2018-07-06 20:00","2018","07","06","20:00","5.9","","3.1","","82","","","","14","","15","","24.1","","99.88","","","","","","Rain"
"-85.81","79.99","EUREKA A","2401203","2018-07-06 21:00","2018","07","06","21:00","5.6","","2.8","","82","","","","17","","22","","24.1","","99.85","","","","","","Rain"
"-85.81","79.99","EUREKA A","2401203","2018-07-06 22:00","2018","07","06","22:00","5.0","","2.0","","81","","","","18","","21","","24.1","","99.81","","","","","","Rain"
"-85.81","79.99","EUREKA A","2401203","2018-07-06 23:00","2018","07","06","23:00"
"-85.81","79.99","EUREKA A","2401203","2018-07-07 00:00","2018","07","07","00:00"
"-85.81","79.99","EUREKA A","2401203","2018-07-07 01:00","2018","07","07","01:00","5.5","","1.1","","73","","","","11","","9","","24.1","","99.79","","","","","","NA"
"-85.81","79.99","EUREKA A","2401203","2018-07-07 02:00","2018","07","07","02:00","5.0","","0.8","","74","","","","12","","20","","24.1","","99.80","","","","","","NA"
"-85.81","79.99","EUREKA A","2401203","2018-07-07 03:00","2018","07","07","03:00","4.9","","0.3","","72","","","","8","","17","","24.1","","99.79","","","","","","Mostly Cloudy"
"-85.81","79.99","EUREKA A","2401203","2018-07-07 04:00","2018","07","07","04:00","5.0","","0.6","","73","","","","36","","3","","24.1","","99.79","","","","","","NA"
"-85.81","79.99","EUREKA A","2401203","2018-07-07 05:00","2018","07","07","05:00","5.7","","0.5","","69","","","","16","","34","","24.1","","99.79","","","","","","NA"
"-85.81","79.99","EUREKA A","2401203","2018-07-07 06:00","2018","07","07","06:00","5.6","","0.3","","69","","","","15","","36","","24.1","","99.73","","","","","","Mainly Clear"
"-85.81","79.99","EUREKA A","2401203","2018-07-07 07:00","2018","07","07","07:00","6.1","","0.1","","65","","","","15","","42","","24.1","","99.66","","","","","","NA"
"-85.81","79.99","EUREKA A","2401203","2018-07-07 08:00","2018","07","07","08:00","6.7","","0.5","","64","","","","15","","41","","24.1","","99.62","","","","","","NA"
"-85.81","79.99","EUREKA A","2401203","2018-07-07 09:00","2018","07","07","09:00","6.4","","1.0","","68","","","","15","","40","","24.1","","99.63","","","","","","Mostly Cloudy"
"-85.81","79.99","EUREKA A","2401203","2018-07-07 10:00","2018","07","07","10:00","6.2","","1.0","","69","","","","16","","44","","24.1","","99.55","","","","","","NA"
"-85.81","79.99","EUREKA A","2401203","2018-07-07 11:00","2018","07","07","11:00","7.0","","1.0","","66","","","","16","","54","","24.1","","99.50","","","","","","NA"
"-85.81","79.99","EUREKA A","2401203","2018-07-07 12:00","2018","07","07","12:00","6.5","","0.9","","67","","","","17","","51","","24.1","","99.48","","","","","","Cloudy"
"-85.81","79.99","EUREKA A","2401203","2018-07-07 13:00","2018","07","07","13:00","6.2","","0.2","","66","","","","18","","48","","24.1","","99.43","","","","","","NA"
"-85.81","79.99","EUREKA A","2401203","2018-07-07 14:00","2018","07","07","14:00","6.6","","0.0","","63","","","","17","","53","","24.1","","99.41","","","","","","NA"
"-85.81","79.99","EUREKA A","2401203","2018-07-07 15:00","2018","07","07","15:00","6.3","","0.0","","64","","","","18","","48","","24.1","","99.41","","","","","","Cloudy"
"-85.81","79.99","EUREKA A","2401203","2018-07-07 16:00","2018","07","07","16:00","5.8","","-0.1","","66","","","","17","","36","","24.1","","99.37","","","","","","NA"
"-85.81","79.99","EUREKA A","2401203","2018-07-07 17:00","2018","07","07","17:00","6.0","","0.0","","66","","","","18","","41","","24.1","","99.36","","","","","","NA"
"-85.81","79.99","EUREKA A","2401203","2018-07-07 18:00","2018","07","07","18:00","5.5","","0.4","","69","","","","17","","35","","24.1","","99.38","","","","","","Cloudy"
"-85.81","79.99","EUREKA A","2401203","2018-07-07 19:00","2018","07","07","19:00","5.1","","0.4","","72","","","","17","","35","","24.1","","99.34","","","","","","NA"
"-85.81","79.99","EUREKA A","2401203","2018-07-07 20:00","2018","07","07","20:00","4.4","","0.7","","77","","","","15","","33","","24.1","","99.31","","","","","","NA"
"-85.81","79.99","EUREKA A","2401203","2018-07-07 21:00","2018","07","07","21:00","4.5","","0.8","","77","","","","15","","36","","24.1","","99.28","","","","","","Cloudy"
"-85.81","79.99","EUREKA A","2401203","2018-07-07 22:00","2018","07","07","22:00","4.4","","0.6","","76","","","","16","","36","","24.1","","99.24","","","","","","NA"
"-85.81","79.99","EUREKA A","2401203","2018-07-07 23:00","2018","07","07","23:00","4.5","","0.3","","74","","","","16","","36","","24.1","","99.20","","","","","","NA"
"-85.81","79.99","EUREKA A","2401203","2018-07-08 00:00","2018","07","08","00:00","4.2","","0.7","","78","","","","15","","38","","24.1","","99.14","","","","","","Cloudy"
"-85.81","79.99","EUREKA A","2401203","2018-07-08 01:00","2018","07","08","01:00","3.9","","0.4","","78","","","","15","","36","","24.1","","99.09","","","","","","NA"
"-85.81","79.99","EUREKA A","2401203","2018-07-08 02:00","2018","07","08","02:00","3.9","","-0.1","","75","","","","14","","34","","24.1","","99.06","","","","","","NA"
"-85.81","79.99","EUREKA A","2401203","2018-07-08 03:00","2018","07","08","03:00","4.3","","0.0","","74","","","","15","","28","","24.1","","99.01","","","","","","Cloudy"
"-85.81","79.99","EUREKA A","2401203","2018-07-08 04:00","2018","07","08","04:00","5.2","","0.3","","71","","","","14","","34","","24.1","","98.91","","","","","","NA"
"-85.81","79.99","EUREKA A","2401203","2018-07-08 05:00","2018","07","08","05:00","4.2","","-0.2","","73","","","","13","","28","","24.1","","98.86","","","","","","NA"
"-85.81","79.99","EUREKA A","2401203","2018-07-08 06:00","2018","07","08","06:00","4.4","","-0.2","","72","","","","13","","31","","24.1","","98.77","","","","","","Rain"
"-85.81","79.99","EUREKA A","2401203","2018-07-08 07:00","2018","07","08","07:00","5.2","","-0.3","","68","","","","13","","30","","24.1","","98.73","","","","","","NA"
"-85.81","79.99","EUREKA A","2401203","2018-07-08 08:00","2018","07","08","08:00","5.1","","0.9","","74","","","","16","","44","","24.1","","98.62","","","","","","NA"
"-85.81","79.99","EUREKA A","2401203","2018-07-08 09:00","2018","07","08","09:00","5.0","","0.6","","73","","","","17","","37","","24.1","","98.60","","","","","","Mostly Cloudy"
"-85.81","79.99","EUREKA A","2401203","2018-07-08 10:00","2018","07","08","10:00","5.5","","0.9","","72","","","","16","","36","","24.1","","98.52","","","","","","NA"
"-85.81","79.99","EUREKA A","2401203","2018-07-08 11:00","2018","07","08","11:00","6.0","","0.7","","69","","","","16","","37","","24.1","","98.46","","","","","","NA"
"-85.81","79.99","EUREKA A","2401203","2018-07-08 12:00","2018","07","08","12:00","5.8","","1.0","","71","","","","16","","34","","24.1","","98.44","","","","","","Cloudy"
"-85.81","79.99","EUREKA A","2401203","2018-07-08 13:00","2018","07","08","13:00","6.3","","1.0","","69","","","","16","","41","","24.1","","98.40","","","","","","NA"
"-85.81","79.99","EUREKA A","2401203","2018-07-08 14:00","2018","07","08","14:00","5.9","","1.2","","72","","","","16","","36","","24.1","","98.36","","","","","","NA"
"-85.81","79.99","EUREKA A","2401203","2018-07-08 15:00","2018","07","08","15:00","6.0","","1.8","","74","","","","16","","30","","24.1","","98.34","","","","","","Cloudy"
"-85.81","79.99","EUREKA A","2401203","2018-07-08 16:00","2018","07","08","16:00","5.9","","2.1","","77","","","","17","","30","","24.1","","98.32","","","","","","NA"
"-85.81","79.99","EUREKA A","2401203","2018-07-08 17:00","2018","07","08","17:00","5.8","","2.5","","79","","","","16","","36","","24.1","","98.28","","","","","","Rain"
"-85.81","79.99","EUREKA A","2401203","2018-07-08 18:00","2018","07","08","18:00","4.9","","3.2","","89","","","","16","","29","","24.1","","98.27","","","","","","Rain"
"-85.81","79.99","EUREKA A","2401203","2018-07-08 19:00","2018","07","08","19:00","4.9","","3.2","","89","","","","14","","26","","24.1","","98.25","","","","","","Rain"
"-85.81","79.99","EUREKA A","2401203","2018-07-08 20:00","2018","07","08","20:00","4.4","","2.6","","88","","","","14","","34","","24.1","","98.21","","","","","","Rain"
"-85.81","79.99","EUREKA A","2401203","2018-07-08 21:00","2018","07","08","21:00","4.2","","2.8","","90","","","","14","","31","","24.1","","98.21","","","","","","Rain"
"-85.81","79.99","EUREKA A","2401203","2018-07-08 22:00","2018","07","08","22:00","4.0","","2.4","","89","","","","14","","31","","24.1","","98.18","","","","","","Rain"
"-85.81","79.99","EUREKA A","2401203","2018-07-08 23:00","2018","07","08","23:00","4.0","","2.4","","89","","","","14","","32","","24.1","","98.17","","","","","","NA"
"-85.81","79.99","EUREKA A","2401203","2018-07-09 00:00","2018","07","09","00:00","4.2","","2.3","","88","","","","13","","25","","24.1","","98.16","","","","","","Mostly Cloudy"
"-85.81","79.99","EUREKA A","2401203","2018-07-09 01:00","2018","07","09","01:00","3.7","","2.1","","89","","","","15","","22","","24.1","","98.13","","","","","","NA"
"-85.81","79.99","EUREKA A","2401203","2018-07-09 02:00","2018","07","09","02:00","3.8","","2.1","","88","","","","16","","36","","24.1","","98.14","","","","","","NA"
"-85.81","79.99","EUREKA A","2401203","2018-07-09 03:00","2018","07","09","03:00","3.8","","2.1","","89","","","","15","","26","","24.1","","98.16","","","","","","Cloudy"
"-85.81","79.99","EUREKA A","2401203","2018-07-09 04:00","2018","07","09","04:00","3.2","","2.1","","93","","","","15","","24","","9.7","","98.18","","","","","","Rain,Fog"
"-85.81","79.99","EUREKA A","2401203","2018-07-09 05:00","2018","07","09","05:00","3.3","","2.3","","93","","","","15","","32","","12.9","","98.17","","","","","","Rain"
"-85.81","79.99","EUREKA A","2401203","2018-07-09 06:00","2018","07","09","06:00","3.1","","1.3","","88","","","","16","","31","","16.1","","98.20","","","","","","Cloudy"
"-85.81","79.99","EUREKA A","2401203","2018-07-09 07:00","2018","07","09","07:00","3.1","","1.3","","88","","","","18","","26","","16.1","","98.22","","","","","","Rain"
"-85.81","79.99","EUREKA A","2401203","2018-07-09 08:00","2018","07","09","08:00","2.8","","1.1","","88","","","","17","","24","","11.3","","98.23","","","","","","Rain"
"-85.81","79.99","EUREKA A","2401203","2018-07-09 09:00","2018","07","09","09:00","2.9","","0.8","","86","","","","15","","35","","16.1","","98.19","","","","","","Rain"
"-85.81","79.99","EUREKA A","2401203","2018-07-09 10:00","2018","07","09","10:00","2.5","","0.3","","85","","","","16","","30","","19.3","","98.18","","","","","","Rain"
"-85.81","79.99","EUREKA A","2401203","2018-07-09 11:00","2018","07","09","11:00","2.6","","-1.0","","77","","","","17","","41","","24.1","","98.19","","","","","","NA"
"-85.81","79.99","EUREKA A","2401203","2018-07-09 12:00","2018","07","09","12:00","3.5","","-1.1","","72","","","","17","","48","","24.1","","98.17","","","","","","Mostly Cloudy"
"-85.81","79.99","EUREKA A","2401203","2018-07-09 13:00","2018","07","09","13:00","3.8","","-1.3","","69","","","","17","","48","","24.1","","98.19","","","","","","Rain Showers"
"-85.81","79.99","EUREKA A","2401203","2018-07-09 14:00","2018","07","09","14:00","4.0","","-1.6","","67","","","","17","","43","","24.1","","98.22","","","","","","NA"
"-85.81","79.99","EUREKA A","2401203","2018-07-09 15:00","2018","07","09","15:00","3.7","","-0.8","","72","","","","17","","40","","24.1","","98.27","","","","","","Mostly Cloudy"
"-85.81","79.99","EUREKA A","2401203","2018-07-09 16:00","2018","07","09","16:00","4.4","","-0.3","","72","","","","18","","37","","24.1","","98.28","","","","","","NA"
"-85.81","79.99","EUREKA A","2401203","2018-07-09 17:00","2018","07","09","17:00","3.9","","-1.9","","66","","","","18","","31","","24.1","","98.33","","","","","","NA"
"-85.81","79.99","EUREKA A","2401203","2018-07-09 18:00","2018","07","09","18:00","3.9","","-2.8","","62","","","","18","","37","","24.1","","98.34","","","","","","Rain Showers"
"-85.81","79.99","EUREKA A","2401203","2018-07-09 19:00","2018","07","09","19:00","3.4","","-2.7","","64","","","","18","","37","","24.1","","98.37","","","","","","NA"
"-85.81","79.99","EUREKA A","2401203","2018-07-09 20:00","2018","07","09","20:00","3.2","","-3.0","","64","","","","18","","41","","24.1","","98.36","","","","","","NA"
"-85.81","79.99","EUREKA A","2401203","2018-07-09 21:00","2018","07","09","21:00","3.2","","-2.7","","65","","","","17","","32","","24.1","","98.39","","","","","","Mostly Cloudy"
"-85.81","79.99","EUREKA A","2401203","2018-07-09 22:00","2018","07","09","22:00","3.0","","-2.6","","66","","","","15","","23","","24.1","","98.39","","","","","","NA"
"-85.81","79.99","EUREKA A","2401203","2018-07-09 23:00","2018","07","09","23:00","2.3","","-2.4","","71","","","","18","","28","","24.1","","98.43","","","","","","NA"
"-85.81","79.99","EUREKA A","2401203","2018-07-10 00:00","2018","07","10","00:00","1.7","","-1.4","","80","","","","16","","24","","24.1","","98.45","","","","","","Mostly Cloudy"
"-85.81","79.99","EUREKA A","2401203","2018-07-10 01:00","2018","07","10","01:00","1.4","","-1.2","","83","","","","17","","36","","24.1","","98.46","","","","","","NA"
"-85.81","79.99","EUREKA A","2401203","2018-07-10 02:00","2018","07","10","02:00","1.1","","-1.0","","86","","","","17","","30","","24.1","","98.53","","","","","","NA"
"-85.81","79.99","EUREKA A","2401203","2018-07-10 03:00","2018","07","10","03:00","1.3","","-0.9","","85","","","","16","","26","","24.1","","98.57","","","","","","Mostly Cloudy"
"-85.81","79.99","EUREKA A","2401203","2018-07-10 04:00","2018","07","10","04:00","1.5","","-1.0","","83","","","","17","","22","","24.1","","98.62","","","","","","NA"
"-85.81","79.99","EUREKA A","2401203","2018-07-10 05:00","2018","07","10","05:00","1.4","","-0.8","","86","","","","17","","32","","24.1","","98.62","","","","","","NA"
"-85.81","79.99","EUREKA A","2401203","2018-07-10 06:00","2018","07","10","06:00","2.0","","-0.4","","84","","","","17","","29","","24.1","","98.65","","","","","","Cloudy"
"-85.81","79.99","EUREKA A","2401203","2018-07-10 07:00","2018","07","10","07:00","2.4","","-0.9","","79","","","","16","","29","","24.1","","98.66","","","","","","NA"
"-85.81","79.99","EUREKA A","2401203","2018-07-10 08:00","2018","07","10","08:00","2.3","","-1.0","","79","","","","16","","32","","24.1","","98.66","","","","","","NA"
"-85.81","79.99","EUREKA A","2401203","2018-07-10 09:00","2018","07","10","09:00","2.1","","-0.3","","84","","","","16","","30","","24.1","","98.69","","","","","","Rain Showers"
"-85.81","79.99","EUREKA A","2401203","2018-07-10 10:00","2018","07","10","10:00","2.7","","-0.3","","80","","","","17","","32","","24.1","","98.66","","","","","","NA"
"-85.81","79.99","EUREKA A","2401203","2018-07-10 11:00","2018","07","10","11:00","3.7","","-1.9","","67","","","","18","","36","","24.1","","98.66","","","","","","NA"
"-85.81","79.99","EUREKA A","2401203","2018-07-10 12:00","2018","07","10","12:00","3.7","","-2.5","","64","","","","17","","30","","19.3","","98.69","","","","","","Cloudy"
"-85.81","79.99","EUREKA A","2401203","2018-07-10 13:00","2018","07","10","13:00","3.0","","-1.6","","72","","","","17","","32","","19.3","","98.73","","","","","","NA"
"-85.81","79.99","EUREKA A","2401203","2018-07-10 14:00","2018","07","10","14:00","3.2","","-1.5","","71","","","","17","","31","","24.1","","98.76","","","","","","NA"
"-85.81","79.99","EUREKA A","2401203","2018-07-10 15:00","2018","07","10","15:00","2.6","","-1.3","","75","","","","17","","34","","24.1","","98.85","","","","","","Cloudy"
"-85.81","79.99","EUREKA A","2401203","2018-07-10 16:00","2018","07","10","16:00","3.3","","-2.5","","66","","","","19","","22","","24.1","","98.89","","","","","","NA"
"-85.81","79.99","EUREKA A","2401203","2018-07-10 17:00","2018","07","10","17:00","2.9","","-1.2","","75","","","","17","","28","","24.1","","98.93","","","","","","NA"
"-85.81","79.99","EUREKA A","2401203","2018-07-10 18:00","2018","07","10","18:00","3.2","","-1.5","","71","","","","17","","27","","24.1","","98.98","","","","","","Cloudy"
"-85.81","79.99","EUREKA A","2401203","2018-07-10 19:00","2018","07","10","19:00","3.4","","-2.4","","66","","","","17","","28","","24.1","","99.05","","","","","","NA"
"-85.81","79.99","EUREKA A","2401203","2018-07-10 20:00","2018","07","10","20:00","2.9","","-2.1","","69","","","","13","","12","","24.1","","99.14","","","","","","NA"
"-85.81","79.99","EUREKA A","2401203","2018-07-10 21:00","2018","07","10","21:00","3.0","","-2.4","","68","","","","17","","21","","24.1","","99.15","","","","","","Cloudy"
"-85.81","79.99","EUREKA A","2401203","2018-07-10 22:00","2018","07","10","22:00","3.1","","-3.1","","64","","","","26","","12","","24.1","","99.23","","","","","","NA"
"-85.81","79.99","EUREKA A","2401203","2018-07-10 23:00","2018","07","10","23:00","2.4","","-2.4","","71","","","","27","","10","","24.1","","99.29","","","","","","NA"
"-85.81","79.99","EUREKA A","2401203","2018-07-11 00:00","2018","07","11","00:00","2.6","","-1.8","","72","","","","26","","10","","24.1","","99.36","","","","","","Mostly Cloudy"
"-85.81","79.99","EUREKA A","2401203","2018-07-11 01:00","2018","07","11","01:00","1.4","","-0.5","","87","","","","28","","9","","24.1","","99.43","","","","","","NA"
"-85.81","79.99","EUREKA A","2401203","2018-07-11 02:00","2018","07","11","02:00","2.1","","-1.1","","80","","","","26","","7","","24.1","","99.49","","","","","","NA"
"-85.81","79.99","EUREKA A","2401203","2018-07-11 03:00","2018","07","11","03:00","1.7","","-0.7","","84","","","","27","","12","","24.1","","99.55","","","","","","Mostly Cloudy"
"-85.81","79.99","EUREKA A","2401203","2018-07-11 04:00","2018","07","11","04:00","1.6","","-1.1","","82","","","","27","","11","","24.1","","99.59","","","","","","NA"
"-85.81","79.99","EUREKA A","2401203","2018-07-11 05:00","2018","07","11","05:00","3.3","","-2.3","","67","","","","18","","7","","24.1","","99.61","","","","","","NA"
"-85.81","79.99","EUREKA A","2401203","2018-07-11 06:00","2018","07","11","06:00","4.0","","-3.1","","60","","","","15","","13","","24.1","","99.65","","","","","","Mainly Clear"
"-85.81","79.99","EUREKA A","2401203","2018-07-11 07:00","2018","07","11","07:00","4.2","","-3.7","","57","","","","19","","14","","24.1","","99.66","","","","","","NA"
"-85.81","79.99","EUREKA A","2401203","2018-07-11 08:00","2018","07","11","08:00","4.6","","-3.6","","55","","","","18","","22","","24.1","","99.67","","","","","","NA"
"-85.81","79.99","EUREKA A","2401203","2018-07-11 09:00","2018","07","11","09:00","4.9","","-1.4","","63","","","","18","","23","","24.1","","99.66","","","","","","Cloudy"
"-85.81","79.99","EUREKA A","2401203","2018-07-11 10:00","2018","07","11","10:00","3.5","","-1.5","","70","","","","16","","28","","24.1","","99.70","","","","","","NA"
"-85.81","79.99","EUREKA A","2401203","2018-07-11 11:00","2018","07","11","11:00","4.3","","-1.2","","67","","","","15","","30","","24.1","","99.72","","","","","","NA"
"-85.81","79.99","EUREKA A","2401203","2018-07-11 12:00","2018","07","11","12:00","3.6","","-1.8","","68","","","","16","","32","","24.1","","99.74","","","","","","Mostly Cloudy"
"-85.81","79.99","EUREKA A","2401203","2018-07-11 13:00","2018","07","11","13:00","3.5","","-1.7","","69","","","","14","","32","","24.1","","99.75","","","","","","NA"
"-85.81","79.99","EUREKA A","2401203","2018-07-11 14:00","2018","07","11","14:00","3.5","","-1.7","","69","","","","18","","28","","24.1","","99.78","","","","","","NA"
"-85.81","79.99","EUREKA A","2401203","2018-07-11 15:00","2018","07","11","15:00","3.8","","-1.5","","68","","","","19","","30","","24.1","","99.79","","","","","","Cloudy"
"-85.81","79.99","EUREKA A","2401203","2018-07-11 16:00","2018","07","11","16:00","2.8","","-1.0","","76","","","","18","","23","","24.1","","99.86","","","","","","NA"
"-85.81","79.99","EUREKA A","2401203","2018-07-11 17:00","2018","07","11","17:00","2.6","","-0.4","","81","","","","15","","23","","24.1","","99.90","","","","","","NA"
"-85.81","79.99","EUREKA A","2401203","2018-07-11 18:00","2018","07","11","18:00","2.4","","-0.2","","83","","","","14","","20","","9.7","","99.92","","","","","","Rain,Fog"
"-85.81","79.99","EUREKA A","2401203","2018-07-11 19:00","2018","07","11","19:00","2.2","","0.3","","87","","","","13","","20","","9.7","","99.95","","","","","","Rain,Fog"
"-85.81","79.99","EUREKA A","2401203","2018-07-11 20:00","2018","07","11","20:00","2.2","","0.0","","85","","","","16","","18","","24.1","","99.94","","","","","","NA"
"-85.81","79.99","EUREKA A","2401203","2018-07-11 21:00","2018","07","11","21:00","2.6","","0.2","","84","","","","18","","17","","9.7","","99.95","","","","","","Rain Showers"
"-85.81","79.99","EUREKA A","2401203","2018-07-11 22:00","2018","07","11","22:00","2.5","","-0.2","","83","","","","18","","20","","12.9","","99.95","","","","","","NA"
"-85.81","79.99","EUREKA A","2401203","2018-07-11 23:00","2018","07","11","23:00","2.0","","-0.4","","84","","","","16","","21","","11.3","","99.94","","","","","","NA"
"-85.81","79.99","EUREKA A","2401203","2018-07-12 00:00","2018","07","12","00:00","1.8","","-0.2","","86","","","","18","","27","","24.1","","99.93","","","","","","Cloudy"
"-85.81","79.99","EUREKA A","2401203","2018-07-12 01:00","2018","07","12","01:00","1.8","","-0.4","","86","","","","18","","23","","24.1","","99.95","","","","","","NA"
"-85.81","79.99","EUREKA A","2401203","2018-07-12 02:00","2018","07","12","02:00","1.9","","-0.2","","86","","","","13","","13","","16.1","","99.97","","","","","","NA"
"-85.81","79.99","EUREKA A","2401203","2018-07-12 03:00","2018","07","12","03:00","1.9","","-0.3","","85","","","","13","","18","","24.1","","99.97","","","","","","Mostly Cloudy"
"-85.81","79.99","EUREKA A","2401203","2018-07-12 04:00","2018","07","12","04:00","2.2","","-0.2","","84","","","","14","","21","","24.1","","99.98","","","","","","NA"
"-85.81","79.99","EUREKA A","2401203","2018-07-12 05:00","2018","07","12","05:00","3.1","","0.1","","80","","","","17","","14","","24.1","","99.97","","","","","","NA"
"-85.81","79.99","EUREKA A","2401203","2018-07-12 06:00","2018","07","12","06:00","3.4","","0.0","","78","","","","16","","19","","24.1","","99.98","","","","","","Mostly Cloudy"
"-85.81","79.99","EUREKA A","2401203","2018-07-12 07:00","2018","07","12","07:00","3.7","","0.0","","77","","","","17","","18","","24.1","","99.97","","","","","","NA"
"-85.81","79.99","EUREKA A","2401203","2018-07-12 08:00","2018","07","12","08:00","4.0","","-0.4","","73","","","","18","","19","","24.1","","99.96","","","","","","NA"
"-85.81","79.99","EUREKA A","2401203","2018-07-12 09:00","2018","07","12","09:00","4.8","","0.0","","71","","","","18","","23","","24.1","","99.96","","","","","","Mostly Cloudy"
"-85.81","79.99","EUREKA A","2401203","2018-07-12 10:00","2018","07","12","10:00","5.8","","0.0","","67","","","","18","","23","","24.1","","99.94","","","","","","NA"
"-85.81","79.99","EUREKA A","2401203","2018-07-12 11:00","2018","07","12","11:00","5.4","","-0.9","","64","","","","18","","26","","24.1","","99.93","","","","","","NA"
"-85.81","79.99","EUREKA A","2401203","2018-07-12 12:00","2018","07","12","12:00","5.0","","-0.7","","67","","","","21","","14","","24.1","","99.96","","","","","","Mostly Cloudy"
"-85.81","79.99","EUREKA A","2401203","2018-07-12 13:00","2018","07","12","13:00","6.0","","-0.2","","64","","","","19","","27","","24.1","","99.98","","","","","","NA"
"-85.81","79.99","EUREKA A","2401203","2018-07-12 14:00","2018","07","12","14:00","6.4","","-0.4","","62","","","","18","","27","","24.1","","100.01","","","","","","NA"
"-85.81","79.99","EUREKA A","2401203","2018-07-12 15:00","2018","07","12","15:00","6.7","","-0.6","","60","","","","18","","31","","24.1","","100.04","","","","","","Mostly Cloudy"
"-85.81","79.99","EUREKA A","2401203","2018-07-12 16:00","2018","07","12","16:00","6.4","","-0.9","","59","","","","19","","22","","24.1","","100.12","","","","","","NA"
"-85.81","79.99","EUREKA A","2401203","2018-07-12 17:00","2018","07","12","17:00","5.9","","-2.2","","56","","","","25","","13","","24.1","","100.17","","","","","","NA"
"-85.81","79.99","EUREKA A","2401203","2018-07-12 18:00","2018","07","12","18:00","5.1","","-1.1","","64","","","","36","","3","","24.1","","100.22","","","","","","Cloudy"
"-85.81","79.99","EUREKA A","2401203","2018-07-12 19:00","2018","07","12","19:00","5.9","","-1.6","","58","","","","36","","1","","24.1","","100.26","","","","","","NA"
"-85.81","79.99","EUREKA A","2401203","2018-07-12 20:00","2018","07","12","20:00","4.5","","-0.9","","68","","","","24","","8","","24.1","","100.31","","","","","","NA"
"-85.81","79.99","EUREKA A","2401203","2018-07-12 21:00","2018","07","12","21:00","4.8","","-0.6","","68","","","","26","","10","","24.1","","100.32","","","","","","Mostly Cloudy"
"-85.81","79.99","EUREKA A","2401203","2018-07-12 22:00","2018","07","12","22:00","3.7","","0.0","","77","","","","28","","9","","24.1","","100.34","","","","","","Rain Showers"
"-85.81","79.99","EUREKA A","2401203","2018-07-12 23:00","2018","07","12","23:00","4.3","","1.5","","82","","","","2","","10","","24.1","","100.37","","","","","","Rain Showers"
"-85.81","79.99","EUREKA A","2401203","2018-07-13 00:00","2018","07","13","00:00","3.8","","1.3","","84","","","","4","","11","","24.1","","100.41","","","","","","Rain Showers"
"-85.81","79.99","EUREKA A","2401203","2018-07-13 01:00","2018","07","13","01:00","3.5","","0.8","","82","","","","12","","10","","24.1","","100.42","","","","","","Rain"
"-85.81","79.99","EUREKA A","2401203","2018-07-13 02:00","2018","07","13","02:00","3.2","","0.4","","82","","","","13","","12","","24.1","","100.45","","","","","","NA"
"-85.81","79.99","EUREKA A","2401203","2018-07-13 03:00","2018","07","13","03:00","3.4","","0.2","","80","","","","14","","13","","24.1","","100.47","","","","","","Cloudy"
"-85.81","79.99","EUREKA A","2401203","2018-07-13 04:00","2018","07","13","04:00","3.3","","-0.1","","78","","","","15","","13","","24.1","","100.48","","","","","","NA"
"-85.81","79.99","EUREKA A","2401203","2018-07-13 05:00","2018","07","13","05:00","3.3","","-0.2","","78","","","","16","","12","","24.1","","100.48","","","","","","NA"
"-85.81","79.99","EUREKA A","2401203","2018-07-13 06:00","2018","07","13","06:00","3.9","","0.0","","75","","","","18","","12","","24.1","","100.47","","","","","","Mostly Cloudy"
"-85.81","79.99","EUREKA A","2401203","2018-07-13 07:00","2018","07","13","07:00","5.0","","-0.2","","69","","","","17","","14","","24.1","","100.45","","","","","","NA"
"-85.81","79.99","EUREKA A","2401203","2018-07-13 08:00","2018","07","13","08:00","5.2","","-0.1","","69","","","","17","","17","","24.1","","100.44","","","","","","NA"
"-85.81","79.99","EUREKA A","2401203","2018-07-13 09:00","2018","07","13","09:00","6.2","","-0.1","","64","","","","16","","17","","24.1","","100.39","","","","","","Mostly Cloudy"
"-85.81","79.99","EUREKA A","2401203","2018-07-13 10:00","2018","07","13","10:00","6.1","","-0.3","","63","","","","17","","21","","24.1","","100.36","","","","","","NA"
"-85.81","79.99","EUREKA A","2401203","2018-07-13 11:00","2018","07","13","11:00","5.8","","0.1","","67","","","","18","","22","","24.1","","100.32","","","","","","NA"
"-85.81","79.99","EUREKA A","2401203","2018-07-13 12:00","2018","07","13","12:00","5.9","","-0.3","","64","","","","18","","26","","24.1","","100.31","","","","","","Cloudy"
"-85.81","79.99","EUREKA A","2401203","2018-07-13 13:00","2018","07","13","13:00","6.1","","0.0","","65","","","","18","","23","","24.1","","100.29","","","","","","NA"
"-85.81","79.99","EUREKA A","2401203","2018-07-13 14:00","2018","07","13","14:00","6.0","","0.1","","66","","","","18","","28","","24.1","","100.25","","","","","","NA"
"-85.81","79.99","EUREKA A","2401203","2018-07-13 15:00","2018","07","13","15:00","5.6","","0.3","","69","","","","17","","28","","24.1","","100.24","","","","","","Mostly Cloudy"
"-85.81","79.99","EUREKA A","2401203","2018-07-13 16:00","2018","07","13","16:00","5.3","","0.4","","70","","","","17","","25","","24.1","","100.20","","","","","","NA"
"-85.81","79.99","EUREKA A","2401203","2018-07-13 17:00","2018","07","13","17:00","6.6","","0.1","","63","","","","16","","23","","24.1","","100.17","","","","","","NA"
"-85.81","79.99","EUREKA A","2401203","2018-07-13 18:00","2018","07","13","18:00","5.9","","0.4","","68","","","","17","","26","","24.1","","100.10","","","","","","Mostly Cloudy"
"-85.81","79.99","EUREKA A","2401203","2018-07-13 19:00","2018","07","13","19:00","5.8","","0.7","","70","","","","18","","26","","24.1","","100.09","","","","","","NA"
"-85.81","79.99","EUREKA A","2401203","2018-07-13 20:00","2018","07","13","20:00","5.0","","0.4","","72","","","","16","","29","","24.1","","100.06","","","","","","NA"
"-85.81","79.99","EUREKA A","2401203","2018-07-13 21:00","2018","07","13","21:00","3.8","","-0.4","","74","","","","17","","34","","24.1","","100.01","","","","","","Mostly Cloudy"
"-85.81","79.99","EUREKA A","2401203","2018-07-13 22:00","2018","07","13","22:00","2.8","","-0.9","","77","","","","17","","27","","24.1","","99.96","","","","","","NA"
"-85.81","79.99","EUREKA A","2401203","2018-07-13 23:00","2018","07","13","23:00","2.8","","-1.0","","76","","","","12","","16","","24.1","","99.93","","","","","","NA"
"-85.81","79.99","EUREKA A","2401203","2018-07-14 00:00","2018","07","14","00:00","2.4","","-1.4","","76","","","","16","","33","","24.1","","99.90","","","","","","Cloudy"
"-85.81","79.99","EUREKA A","2401203","2018-07-14 01:00","2018","07","14","01:00","2.2","","-1.3","","78","","","","11","","28","","24.1","","99.94","","","","","","NA"
"-85.81","79.99","EUREKA A","2401203","2018-07-14 02:00","2018","07","14","02:00","2.0","","-1.5","","78","","","","10","","34","","24.1","","99.94","","","","","","NA"
"-85.81","79.99","EUREKA A","2401203","2018-07-14 03:00","2018","07","14","03:00","2.3","","-1.4","","77","","","","11","","27","","24.1","","99.94","","","","","","Cloudy"
"-85.81","79.99","EUREKA A","2401203","2018-07-14 04:00","2018","07","14","04:00","2.5","","-1.1","","77","","","","13","","28","","24.1","","99.91","","","","","","NA"
"-85.81","79.99","EUREKA A","2401203","2018-07-14 05:00","2018","07","14","05:00","2.5","","-0.9","","78","","","","11","","24","","24.1","","99.90","","","","","","NA"
"-85.81","79.99","EUREKA A","2401203","2018-07-14 06:00","2018","07","14","06:00","2.8","","-0.8","","77","","","","13","","23","","24.1","","99.89","","","","","","Cloudy"
"-85.81","79.99","EUREKA A","2401203","2018-07-14 07:00","2018","07","14","07:00","3.1","","-0.4","","77","","","","14","","20","","24.1","","99.91","","","","","","NA"
"-85.81","79.99","EUREKA A","2401203","2018-07-14 08:00","2018","07","14","08:00","3.0","","-0.2","","79","","","","13","","18","","24.1","","99.90","","","","","","NA"
"-85.81","79.99","EUREKA A","2401203","2018-07-14 09:00","2018","07","14","09:00","3.4","","-0.1","","78","","","","17","","22","","24.1","","99.90","","","","","","Cloudy"
"-85.81","79.99","EUREKA A","2401203","2018-07-14 10:00","2018","07","14","10:00","4.2","","0.4","","76","","","","16","","25","","24.1","","99.91","","","","","","NA"
"-85.81","79.99","EUREKA A","2401203","2018-07-14 11:00","2018","07","14","11:00","4.5","","0.0","","72","","","","16","","32","","24.1","","99.92","","","","","","NA"
"-85.81","79.99","EUREKA A","2401203","2018-07-14 12:00","2018","07","14","12:00","4.5","","0.1","","73","","","","16","","33","","24.1","","99.94","","","","","","Mostly Cloudy"
"-85.81","79.99","EUREKA A","2401203","2018-07-14 13:00","2018","07","14","13:00","6.1","","0.3","","66","","","","17","","32","","24.1","","99.94","","","","","","NA"
"-85.81","79.99","EUREKA A","2401203","2018-07-14 14:00","2018","07","14","14:00","5.8","","-0.1","","66","","","","17","","35","","24.1","","99.97","","","","","","NA"
"-85.81","79.99","EUREKA A","2401203","2018-07-14 15:00","2018","07","14","15:00","4.9","","-0.3","","69","","","","16","","34","","24.1","","100.05","","","","","","Mostly Cloudy"
"-85.81","79.99","EUREKA A","2401203","2018-07-14 16:00","2018","07","14","16:00","4.2","","-0.3","","73","","","","16","","31","","24.1","","100.09","","","","","","NA"
"-85.81","79.99","EUREKA A","2401203","2018-07-14 17:00","2018","07","14","17:00","3.7","","-0.6","","73","","","","16","","29","","24.1","","100.11","","","","","","NA"
"-85.81","79.99","EUREKA A","2401203","2018-07-14 18:00","2018","07","14","18:00","3.2","","-0.4","","77","","","","17","","26","","24.1","","100.12","","","","","","Cloudy"
"-85.81","79.99","EUREKA A","2401203","2018-07-14 19:00","2018","07","14","19:00","3.0","","-0.6","","77","","","","16","","27","","24.1","","100.15","","","","","","NA"
"-85.81","79.99","EUREKA A","2401203","2018-07-14 20:00","2018","07","14","20:00","3.0","","-0.2","","79","","","","17","","30","","24.1","","100.17","","","","","","NA"
"-85.81","79.99","EUREKA A","2401203","2018-07-14 21:00","2018","07","14","21:00","3.1","","-0.2","","79","","","","15","","21","","24.1","","100.19","","","","","","Cloudy"
"-85.81","79.99","EUREKA A","2401203","2018-07-14 22:00","2018","07","14","22:00","2.5","","-0.2","","82","","","","17","","17","","24.1","","100.18","","","","","","Rain"
"-85.81","79.99","EUREKA A","2401203","2018-07-14 23:00","2018","07","14","23:00","2.6","","0.1","","84","","","","15","","23","","24.1","","100.17","","","","","","Rain"
"-85.81","79.99","EUREKA A","2401203","2018-07-15 00:00","2018","07","15","00:00","2.8","","-0.2","","81","","","","14","","23","","24.1","","100.17","","","","","","Rain"
"-85.81","79.99","EUREKA A","2401203","2018-07-15 01:00","2018","07","15","01:00","2.3","","-0.6","","81","","","","14","","27","","24.1","","100.18","","","","","","Rain"
"-85.81","79.99","EUREKA A","2401203","2018-07-15 02:00","2018","07","15","02:00","1.9","","-0.4","","85","","","","15","","22","","24.1","","100.21","","","","","","Rain,Ice Pellets"
"-85.81","79.99","EUREKA A","2401203","2018-07-15 03:00","2018","07","15","03:00","2.1","","-0.6","","82","","","","16","","22","","24.1","","100.21","","","","","","Rain"
"-85.81","79.99","EUREKA A","2401203","2018-07-15 04:00","2018","07","15","04:00","1.8","","-0.4","","85","","","","19","","24","","24.1","","100.20","","","","","","Rain"
"-85.81","79.99","EUREKA A","2401203","2018-07-15 05:00","2018","07","15","05:00","1.6","","0.4","","91","","","","19","","24","","19.3","","100.19","","","","","","Rain"
"-85.81","79.99","EUREKA A","2401203","2018-07-15 06:00","2018","07","15","06:00","1.8","","0.8","","93","","","","18","","21","","24.1","","100.20","","","","","","Rain"
"-85.81","79.99","EUREKA A","2401203","2018-07-15 07:00","2018","07","15","07:00","2.1","","1.0","","92","","","","18","","19","","24.1","","100.20","","","","","","NA"
"-85.81","79.99","EUREKA A","2401203","2018-07-15 08:00","2018","07","15","08:00","2.2","","0.8","","91","","","","20","","14","","24.1","","100.22","","","","","","NA"
"-85.81","79.99","EUREKA A","2401203","2018-07-15 09:00","2018","07","15","09:00","3.0","","1.0","","87","","","","18","","11","","24.1","","100.20","","","","","","Mostly Cloudy"
"-85.81","79.99","EUREKA A","2401203","2018-07-15 10:00","2018","07","15","10:00","3.1","","1.0","","86","","","","23","","4","","24.1","","100.21","","","","","","Rain Showers"
"-85.81","79.99","EUREKA A","2401203","2018-07-15 11:00","2018","07","15","11:00","3.3","","0.8","","84","","","","13","","8","","24.1","","100.21","","","","","","Rain Showers"
"-85.81","79.99","EUREKA A","2401203","2018-07-15 12:00","2018","07","15","12:00","3.6","","0.7","","81","","","","18","","8","","24.1","","100.23","","","","","","Rain Showers"
"-85.81","79.99","EUREKA A","2401203","2018-07-15 13:00","2018","07","15","13:00","3.9","","0.3","","77","","","","20","","9","","24.1","","100.26","","","","","","Rain"
"-85.81","79.99","EUREKA A","2401203","2018-07-15 14:00","2018","07","15","14:00","3.9","","0.3","","77","","","","20","","12","","24.1","","100.27","","","","","","Rain"
"-85.81","79.99","EUREKA A","2401203","2018-07-15 15:00","2018","07","15","15:00","3.5","","1.0","","83","","","","23","","7","","12.9","","100.31","","","","","","Rain"
"-85.81","79.99","EUREKA A","2401203","2018-07-15 16:00","2018","07","15","16:00","3.7","","1.1","","83","","","","36","","2","","12.9","","100.32","","","","","","Rain"
"-85.81","79.99","EUREKA A","2401203","2018-07-15 17:00","2018","07","15","17:00","4.2","","1.8","","84","","","","30","","6","","16.1","","100.35","","","","","","Rain"
"-85.81","79.99","EUREKA A","2401203","2018-07-15 18:00","2018","07","15","18:00","3.9","","2.1","","88","","","","1","","16","","12.9","","100.38","","","","","","Rain"
"-85.81","79.99","EUREKA A","2401203","2018-07-15 19:00","2018","07","15","19:00","3.4","","1.7","","89","","","","1","","18","","16.1","","100.43","","","","","","Rain"
"-85.81","79.99","EUREKA A","2401203","2018-07-15 20:00","2018","07","15","20:00","3.0","","0.5","","84","","","","36","","22","","16.1","","100.45","","","","","","Rain"
"-85.81","79.99","EUREKA A","2401203","2018-07-15 21:00","2018","07","15","21:00","2.5","","0.2","","84","","","","35","","22","","24.1","","100.48","","","","","","Rain"
"-85.81","79.99","EUREKA A","2401203","2018-07-15 22:00","2018","07","15","22:00","2.5","","0.1","","84","","","","36","","18","","24.1","","100.51","","","","","","NA"
"-85.81","79.99","EUREKA A","2401203","2018-07-15 23:00","2018","07","15","23:00","2.3","","-0.5","","82","","","","36","","24","","24.1","","100.54","","","","","","Rain"
"-85.81","79.99","EUREKA A","2401203","2018-07-16 00:00","2018","07","16","00:00","2.0","","-1.3","","78","","","","36","","22","","24.1","","100.56","","","","","","Rain"
"-85.81","79.99","EUREKA A","2401203","2018-07-16 01:00","2018","07","16","01:00","2.2","","-1.2","","78","","","","35","","14","","24.1","","100.61","","","","","","NA"
"-85.81","79.99","EUREKA A","2401203","2018-07-16 02:00","2018","07","16","02:00","2.2","","-1.1","","79","","","","35","","14","","24.1","","100.63","","","","","","NA"
"-85.81","79.99","EUREKA A","2401203","2018-07-16 03:00","2018","07","16","03:00","2.4","","-1.8","","74","","","","1","","16","","24.1","","100.66","","","","","","Cloudy"
"-85.81","79.99","EUREKA A","2401203","2018-07-16 04:00","2018","07","16","04:00","2.3","","-2.1","","73","","","","36","","22","","24.1","","100.68","","","","","","NA"
"-85.81","79.99","EUREKA A","2401203","2018-07-16 05:00","2018","07","16","05:00","2.1","","-1.9","","75","","","","1","","18","","24.1","","100.69","","","","","","NA"
"-85.81","79.99","EUREKA A","2401203","2018-07-16 06:00","2018","07","16","06:00","2.5","","-1.6","","75","","","","1","","17","","24.1","","100.71","","","","","","Cloudy"
"-85.81","79.99","EUREKA A","2401203","2018-07-16 07:00","2018","07","16","07:00","3.0","","-1.5","","72","","","","36","","12","","24.1","","100.70","","","","","","NA"
"-85.81","79.99","EUREKA A","2401203","2018-07-16 08:00","2018","07","16","08:00","3.5","","-1.8","","68","","","","1","","10","","24.1","","100.71","","","","","","NA"
"-85.81","79.99","EUREKA A","2401203","2018-07-16 09:00","2018","07","16","09:00","4.0","","-0.9","","71","","","","36","","1","","24.1","","100.71","","","","","","Mostly Cloudy"
"-85.81","79.99","EUREKA A","2401203","2018-07-16 10:00","2018","07","16","10:00","4.0","","-1.1","","69","","","","19","","5","","24.1","","100.69","","","","","","NA"
"-85.81","79.99","EUREKA A","2401203","2018-07-16 11:00","2018","07","16","11:00","4.6","","-1.3","","65","","","","15","","6","","24.1","","100.68","","","","","","NA"
"-85.81","79.99","EUREKA A","2401203","2018-07-16 12:00","2018","07","16","12:00","5.2","","-1.2","","64","","","","16","","7","","24.1","","100.67","","","","","","Cloudy"
"-85.81","79.99","EUREKA A","2401203","2018-07-16 13:00","2018","07","16","13:00","5.5","","-1.0","","63","","","","14","","6","","24.1","","100.67","","","","","","NA"
"-85.81","79.99","EUREKA A","2401203","2018-07-16 14:00","2018","07","16","14:00","5.5","","-1.1","","63","","","","14","","3","","24.1","","100.68","","","","","","NA"
"-85.81","79.99","EUREKA A","2401203","2018-07-16 15:00","2018","07","16","15:00","6.2","","0.0","","64","","","","12","","7","","24.1","","100.67","","","","","","Mostly Cloudy"
"-85.81","79.99","EUREKA A","2401203","2018-07-16 16:00","2018","07","16","16:00","6.7","","-0.3","","61","","","","11","","10","","24.1","","100.66","","","","","","NA"
"-85.81","79.99","EUREKA A","2401203","2018-07-16 17:00","2018","07","16","17:00","6.8","","0.3","","63","","","","15","","12","","24.1","","100.67","","","","","","NA"
"-85.81","79.99","EUREKA A","2401203","2018-07-16 18:00","2018","07","16","18:00","6.5","","0.6","","66","","","","13","","9","","24.1","","100.69","","","","","","Mostly Cloudy"
"-85.81","79.99","EUREKA A","2401203","2018-07-16 19:00","2018","07","16","19:00","5.7","","0.6","","70","","","","16","","9","","24.1","","100.69","","","","","","NA"
"-85.81","79.99","EUREKA A","2401203","2018-07-16 20:00","2018","07","16","20:00","6.2","","0.3","","65","","","","14","","7","","24.1","","100.69","","","","","","NA"
"-85.81","79.99","EUREKA A","2401203","2018-07-16 21:00","2018","07","16","21:00","6.5","","0.5","","66","","","","12","","9","","24.1","","100.71","","","","","","Mostly Cloudy"
"-85.81","79.99","EUREKA A","2401203","2018-07-16 22:00","2018","07","16","22:00","6.3","","0.3","","66","","","","13","","7","","24.1","","100.70","","","","","","NA"
"-85.81","79.99","EUREKA A","2401203","2018-07-16 23:00","2018","07","16","23:00","6.3","","0.5","","66","","","","11","","10","","24.1","","100.70","","","","","","NA"
"-85.81","79.99","EUREKA A","2401203","2018-07-17 00:00","2018","07","17","00:00","6.1","","0.3","","66","","","","12","","7","","24.1","","100.71","","","","","","Mostly Cloudy"
"-85.81","79.99","EUREKA A","2401203","2018-07-17 01:00","2018","07","17","01:00","6.1","","0.3","","67","","","","12","","6","","24.1","","100.71","","","","","","NA"
"-85.81","79.99","EUREKA A","2401203","2018-07-17 02:00","2018","07","17","02:00","6.5","","0.6","","66","","","","16","","8","","24.1","","100.71","","","","","","NA"
"-85.81","79.99","EUREKA A","2401203","2018-07-17 03:00","2018","07","17","03:00","6.8","","0.5","","64","","","","14","","10","","24.1","","100.71","","","","","","Mainly Clear"
"-85.81","79.99","EUREKA A","2401203","2018-07-17 04:00","2018","07","17","04:00","7.2","","1.0","","64","","","","12","","14","","24.1","","100.71","","","","","","NA"
"-85.81","79.99","EUREKA A","2401203","2018-07-17 05:00","2018","07","17","05:00","7.5","","0.9","","63","","","","13","","17","","24.1","","100.69","","","","","","NA"
"-85.81","79.99","EUREKA A","2401203","2018-07-17 06:00","2018","07","17","06:00","7.7","","1.0","","62","","","","14","","12","","24.1","","100.68","","","","","","Mainly Clear"
"-85.81","79.99","EUREKA A","2401203","2018-07-17 07:00","2018","07","17","07:00","8.0","","0.5","","59","","","","17","","16","","24.1","","100.66","","","","","","NA"
"-85.81","79.99","EUREKA A","2401203","2018-07-17 08:00","2018","07","17","08:00","8.8","","0.4","","55","","","","14","","15","","24.1","","100.64","","","","","","NA"
"-85.81","79.99","EUREKA A","2401203","2018-07-17 09:00","2018","07","17","09:00","8.6","","0.8","","58","","","","14","","17","","24.1","","100.63","","","","","","Mostly Cloudy"
"-85.81","79.99","EUREKA A","2401203","2018-07-17 10:00","2018","07","17","10:00","8.7","","0.9","","58","","","","17","","16","","24.1","","100.61","","","","","","NA"
"-85.81","79.99","EUREKA A","2401203","2018-07-17 11:00","2018","07","17","11:00","8.9","","1.0","","57","","","","17","","16","","24.1","","100.60","","","","","","NA"
"-85.81","79.99","EUREKA A","2401203","2018-07-17 12:00","2018","07","17","12:00","8.1","","1.1","","61","","","","18","","20","","24.1","","100.61","","","","","","Mostly Cloudy"
"-85.81","79.99","EUREKA A","2401203","2018-07-17 13:00","2018","07","17","13:00","8.7","","1.9","","62","","","","18","","19","","24.1","","100.61","","","","","","NA"
"-85.81","79.99","EUREKA A","2401203","2018-07-17 14:00","2018","07","17","14:00","7.8","","2.5","","69","","","","18","","18","","24.1","","100.62","","","","","","NA"
"-85.81","79.99","EUREKA A","2401203","2018-07-17 15:00","2018","07","17","15:00","7.7","","2.7","","71","","","","17","","21","","24.1","","100.63","","","","","","Mostly Cloudy"
"-85.81","79.99","EUREKA A","2401203","2018-07-17 16:00","2018","07","17","16:00","7.0","","2.8","","75","","","","17","","26","","24.1","","100.66","","","","","","NA"
"-85.81","79.99","EUREKA A","2401203","2018-07-17 17:00","2018","07","17","17:00","6.7","","3.5","","80","","","","17","","21","","24.1","","100.67","","","","","","NA"
"-85.81","79.99","EUREKA A","2401203","2018-07-17 18:00","2018","07","17","18:00","6.4","","4.0","","85","","","","15","","21","","16.1","","100.66","","","","","","Rain"
"-85.81","79.99","EUREKA A","2401203","2018-07-17 19:00","2018","07","17","19:00","6.4","","4.1","","85","","","","15","","22","","24.1","","100.67","","","","","","NA"
"-85.81","79.99","EUREKA A","2401203","2018-07-17 20:00","2018","07","17","20:00","6.3","","4.2","","86","","","","13","","18","","24.1","","100.65","","","","","","NA"
"-85.81","79.99","EUREKA A","2401203","2018-07-17 21:00","2018","07","17","21:00","7.1","","4.4","","83","","","","14","","20","","24.1","","100.67","","","","","","Cloudy"
"-85.81","79.99","EUREKA A","2401203","2018-07-17 22:00","2018","07","17","22:00","7.3","","4.5","","82","","","","14","","21","","24.1","","100.67","","","","","","NA"
"-85.81","79.99","EUREKA A","2401203","2018-07-17 23:00","2018","07","17","23:00","7.4","","4.5","","82","","","","15","","18","","24.1","","100.67","","","","","","NA"
"-85.81","79.99","EUREKA A","2401203","2018-07-18 00:00","2018","07","18","00:00","7.3","","4.5","","82","","","","14","","19","","24.1","","100.66","","","","","","Mostly Cloudy"
"-85.81","79.99","EUREKA A","2401203","2018-07-18 01:00","2018","07","18","01:00","7.8","","4.8","","82","","","","17","","21","","24.1","","100.65","","","","","","NA"
"-85.81","79.99","EUREKA A","2401203","2018-07-18 02:00","2018","07","18","02:00","7.7","","4.5","","80","","","","15","","16","","24.1","","100.65","","","","","","NA"
"-85.81","79.99","EUREKA A","2401203","2018-07-18 03:00","2018","07","18","03:00","8.2","","4.9","","80","","","","14","","17","","24.1","","100.65","","","","","","Cloudy"
"-85.81","79.99","EUREKA A","2401203","2018-07-18 04:00","2018","07","18","04:00","8.2","","4.7","","79","","","","15","","19","","24.1","","100.64","","","","","","NA"
"-85.81","79.99","EUREKA A","2401203","2018-07-18 05:00","2018","07","18","05:00","7.9","","4.5","","79","","","","15","","18","","24.1","","100.61","","","","","","NA"
"-85.81","79.99","EUREKA A","2401203","2018-07-18 06:00","2018","07","18","06:00","8.7","","4.9","","77","","","","14","","19","","24.1","","100.62","","","","","","Mostly Cloudy"
"-85.81","79.99","EUREKA A","2401203","2018-07-18 07:00","2018","07","18","07:00","9.0","","4.6","","74","","","","16","","24","","24.1","","100.58","","","","","","NA"
"-85.81","79.99","EUREKA A","2401203","2018-07-18 08:00","2018","07","18","08:00","9.7","","4.6","","71","","","","16","","24","","24.1","","100.53","","","","","","NA"
"-85.81","79.99","EUREKA A","2401203","2018-07-18 09:00","2018","07","18","09:00","10.2","","5.1","","70","","","","15","","27","","24.1","","100.50","","","","","","Cloudy"
"-85.81","79.99","EUREKA A","2401203","2018-07-18 10:00","2018","07","18","10:00","10.4","","5.1","","70","","","","14","","22","","24.1","","100.48","","","","","","NA"
"-85.81","79.99","EUREKA A","2401203","2018-07-18 11:00","2018","07","18","11:00","11.0","","5.4","","68","","","","13","","22","","24.1","","100.45","","","","","","NA"
"-85.81","79.99","EUREKA A","2401203","2018-07-18 12:00","2018","07","18","12:00","11.0","","5.8","","70","","","","13","","19","","24.1","","100.44","","","","","","Mostly Cloudy"
"-85.81","79.99","EUREKA A","2401203","2018-07-18 13:00","2018","07","18","13:00","11.4","","5.6","","68","","","","14","","26","","24.1","","100.40","","","","","","NA"
"-85.81","79.99","EUREKA A","2401203","2018-07-18 14:00","2018","07","18","14:00","11.7","","6.0","","68","","","","14","","21","","24.1","","100.38","","","","","","NA"
"-85.81","79.99","EUREKA A","2401203","2018-07-18 15:00","2018","07","18","15:00","11.0","","5.5","","69","","","","17","","25","","24.1","","100.37","","","","","","Cloudy"
"-85.81","79.99","EUREKA A","2401203","2018-07-18 16:00","2018","07","18","16:00","9.8","","6.4","","79","","","","16","","19","","16.1","","100.40","","","","","","NA"
"-85.81","79.99","EUREKA A","2401203","2018-07-18 17:00","2018","07","18","17:00","9.6","","7.1","","84","","","","15","","14","","24.1","","100.40","","","","","","Rain"
"-85.81","79.99","EUREKA A","2401203","2018-07-18 18:00","2018","07","18","18:00","10.2","","7.8","","85","","","","14","","17","","24.1","","100.37","","","","","","Rain"
"-85.81","79.99","EUREKA A","2401203","2018-07-18 19:00","2018","07","18","19:00","9.8","","7.8","","87","","","","15","","22","","16.1","","100.36","","","","","","Rain"
"-85.81","79.99","EUREKA A","2401203","2018-07-18 20:00","2018","07","18","20:00","9.9","","8.0","","88","","","","14","","23","","16.1","","100.36","","","","","","Rain"
"-85.81","79.99","EUREKA A","2401203","2018-07-18 21:00","2018","07","18","21:00","9.6","","8.1","","91","","","","15","","23","","24.1","","100.35","","","","","","Cloudy"
"-85.81","79.99","EUREKA A","2401203","2018-07-18 22:00","2018","07","18","22:00","8.6","","7.8","","95","","","","14","","22","","24.1","","100.35","","","","","","Rain"
"-85.81","79.99","EUREKA A","2401203","2018-07-18 23:00","2018","07","18","23:00","8.8","","7.9","","94","","","","15","","26","","24.1","","100.35","","","","","","Rain"
"-85.81","79.99","EUREKA A","2401203","2018-07-19 00:00","2018","07","19","00:00","7.8","","6.5","","91","","","","14","","20","","24.1","","100.36","","","","","","Rain"
"-85.81","79.99","EUREKA A","2401203","2018-07-19 01:00","2018","07","19","01:00","7.3","","6.0","","92","","","","17","","17","","24.1","","100.38","","","","","","Rain"
"-85.81","79.99","EUREKA A","2401203","2018-07-19 02:00","2018","07","19","02:00","6.5","","5.5","","94","","","","16","","15","","16.1","","100.40","","","","","","Rain"
"-85.81","79.99","EUREKA A","2401203","2018-07-19 03:00","2018","07","19","03:00","6.1","","5.2","","94","","","","15","","25","","16.1","","100.40","","","","","","Rain"
"-85.81","79.99","EUREKA A","2401203","2018-07-19 04:00","2018","07","19","04:00","5.5","","4.4","","92","","","","14","","21","","16.1","","100.42","","","","","","Rain"
"-85.81","79.99","EUREKA A","2401203","2018-07-19 05:00","2018","07","19","05:00","4.6","","3.7","","94","","","","16","","22","","9.7","","100.45","","","","","","Rain,Fog"
"-85.81","79.99","EUREKA A","2401203","2018-07-19 06:00","2018","07","19","06:00","4.4","","3.5","","94","","","","16","","19","","9.7","","100.48","","","","","","Rain,Fog"
"-85.81","79.99","EUREKA A","2401203","2018-07-19 07:00","2018","07","19","07:00","4.6","","3.4","","92","","","","16","","16","","9.7","","100.48","","","","","","Rain,Fog"
"-85.81","79.99","EUREKA A","2401203","2018-07-19 08:00","2018","07","19","08:00","4.0","","2.9","","93","","","","19","","12","","16.1","","100.49","","","","","","Rain"
"-85.81","79.99","EUREKA A","2401203","2018-07-19 09:00","2018","07","19","09:00","5.4","","4.2","","92","","","","16","","11","","24.1","","100.47","","","","","","Cloudy"
"-85.81","79.99","EUREKA A","2401203","2018-07-19 10:00","2018","07","19","10:00","5.4","","4.1","","91","","","","16","","9","","24.1","","100.48","","","","","","NA"
"-85.81","79.99","EUREKA A","2401203","2018-07-19 11:00","2018","07","19","11:00","5.5","","4.0","","90","","","","18","","10","","24.1","","100.48","","","","","","NA"
"-85.81","79.99","EUREKA A","2401203","2018-07-19 12:00","2018","07","19","12:00","5.9","","4.2","","89","","","","17","","12","","24.1","","100.46","","","","","","Cloudy"
"-85.81","79.99","EUREKA A","2401203","2018-07-19 13:00","2018","07","19","13:00","6.8","","4.5","","85","","","","18","","25","","24.1","","100.42","","","","","","NA"
"-85.81","79.99","EUREKA A","2401203","2018-07-19 14:00","2018","07","19","14:00","6.1","","3.6","","84","","","","17","","21","","24.1","","100.39","","","","","","NA"
"-85.81","79.99","EUREKA A","2401203","2018-07-19 15:00","2018","07","19","15:00","6.4","","3.5","","82","","","","15","","23","","24.1","","100.37","","","","","","Mostly Cloudy"
"-85.81","79.99","EUREKA A","2401203","2018-07-19 16:00","2018","07","19","16:00","6.0","","3.1","","81","","","","15","","28","","24.1","","100.34","","","","","","NA"
"-85.81","79.99","EUREKA A","2401203","2018-07-19 17:00","2018","07","19","17:00","5.4","","2.4","","81","","","","15","","26","","24.1","","100.31","","","","","","NA"
"-85.81","79.99","EUREKA A","2401203","2018-07-19 18:00","2018","07","19","18:00","4.8","","1.8","","81","","","","15","","17","","24.1","","100.26","","","","","","Mostly Cloudy"
"-85.81","79.99","EUREKA A","2401203","2018-07-19 19:00","2018","07","19","19:00","4.4","","1.4","","81","","","","17","","21","","24.1","","100.21","","","","","","NA"
"-85.81","79.99","EUREKA A","2401203","2018-07-19 20:00","2018","07","19","20:00","4.5","","1.1","","79","","","","15","","24","","24.1","","100.19","","","","","","NA"
"-85.81","79.99","EUREKA A","2401203","2018-07-19 21:00","2018","07","19","21:00","4.1","","0.3","","77","","","","13","","24","","24.1","","100.10","","","","","","Mostly Cloudy"
"-85.81","79.99","EUREKA A","2401203","2018-07-19 22:00","2018","07","19","22:00","3.5","","0.0","","78","","","","13","","31","","24.1","","100.06","","","","","","NA"
"-85.81","79.99","EUREKA A","2401203","2018-07-19 23:00","2018","07","19","23:00","2.8","","-1.0","","76","","","","14","","28","","24.1","","100.04","","","","","","NA"
"-85.81","79.99","EUREKA A","2401203","2018-07-20 00:00","2018","07","20","00:00","2.5","","-1.2","","77","","","","12","","28","","24.1","","99.99","","","","","","Mostly Cloudy"
"-85.81","79.99","EUREKA A","2401203","2018-07-20 01:00","2018","07","20","01:00","2.4","","-2.0","","73","","","","14","","29","","24.1","","99.97","","","","","","NA"
"-85.81","79.99","EUREKA A","2401203","2018-07-20 02:00","2018","07","20","02:00","2.1","","-1.9","","75","","","","16","","21","","24.1","","99.97","","","","","","NA"
"-85.81","79.99","EUREKA A","2401203","2018-07-20 03:00","2018","07","20","03:00","2.0","","-1.4","","78","","","","15","","24","","24.1","","99.94","","","","","","Cloudy"
"-85.81","79.99","EUREKA A","2401203","2018-07-20 04:00","2018","07","20","04:00","1.6","","-0.4","","86","","","","16","","26","","6.4","","99.93","","","","","","Fog"
"-85.81","79.99","EUREKA A","2401203","2018-07-20 05:00","2018","07","20","05:00","1.2","","-0.1","","91","","","","17","","32","","16.1","","99.91","","","","","","Rain"
"-85.81","79.99","EUREKA A","2401203","2018-07-20 06:00","2018","07","20","06:00","1.6","","0.5","","92","","","","14","","18","","16.1","","99.88","","","","","","Rain"
"-85.81","79.99","EUREKA A","2401203","2018-07-20 07:00","2018","07","20","07:00","2.1","","0.7","","90","","","","13","","19","","16.1","","99.83","","","","","","Rain"
"-85.81","79.99","EUREKA A","2401203","2018-07-20 08:00","2018","07","20","08:00","2.4","","0.5","","88","","","","18","","25","","24.1","","99.76","","","","","","NA"
"-85.81","79.99","EUREKA A","2401203","2018-07-20 09:00","2018","07","20","09:00","3.2","","0.4","","82","","","","18","","36","","24.1","","99.73","","","","","","Cloudy"
"-85.81","79.99","EUREKA A","2401203","2018-07-20 10:00","2018","07","20","10:00","3.6","","0.5","","80","","","","17","","27","","24.1","","99.67","","","","","","NA"
"-85.81","79.99","EUREKA A","2401203","2018-07-20 11:00","2018","07","20","11:00","3.9","","0.5","","78","","","","14","","19","","24.1","","99.63","","","","","","NA"
"-85.81","79.99","EUREKA A","2401203","2018-07-20 12:00","2018","07","20","12:00","3.6","","0.7","","81","","","","14","","26","","24.1","","99.61","","","","","","Cloudy"
"-85.81","79.99","EUREKA A","2401203","2018-07-20 13:00","2018","07","20","13:00","3.1","","1.2","","87","","","","17","","26","","24.1","","99.55","","","","","","Rain"
"-85.81","79.99","EUREKA A","2401203","2018-07-20 14:00","2018","07","20","14:00","3.0","","1.6","","91","","","","13","","22","","20.9","","99.55","","","","","","Rain"
"-85.81","79.99","EUREKA A","2401203","2018-07-20 15:00","2018","07","20","15:00","3.0","","1.6","","91","","","","14","","20","","24.1","","99.50","","","","","","Rain"
"-85.81","79.99","EUREKA A","2401203","2018-07-20 16:00","2018","07","20","16:00","3.1","","2.1","","93","","","","15","","21","","19.3","","99.42","","","","","","Rain"
"-85.81","79.99","EUREKA A","2401203","2018-07-20 17:00","2018","07","20","17:00","2.9","","2.0","","94","","","","15","","23","","16.1","","99.35","","","","","","Rain"
"-85.81","79.99","EUREKA A","2401203","2018-07-20 18:00","2018","07","20","18:00","3.1","","2.4","","95","","","","15","","21","","16.1","","99.32","","","","","","Rain"
"-85.81","79.99","EUREKA A","2401203","2018-07-20 19:00","2018","07","20","19:00","3.0","","2.4","","96","","","","15","","17","","12.9","","99.30","","","","","","Rain"
"-85.81","79.99","EUREKA A","2401203","2018-07-20 20:00","2018","07","20","20:00","3.0","","2.4","","96","","","","16","","14","","11.3","","99.32","","","","","","Rain"
"-85.81","79.99","EUREKA A","2401203","2018-07-20 21:00","2018","07","20","21:00","2.7","","2.0","","95","","","","15","","10","","9.7","","99.37","","","","","","Rain,Fog"
"-85.81","79.99","EUREKA A","2401203","2018-07-20 22:00","2018","07","20","22:00","2.4","","1.5","","94","","","","16","","15","","16.1","","99.41","","","","","","NA"
"-85.81","79.99","EUREKA A","2401203","2018-07-20 23:00","2018","07","20","23:00","2.4","","1.4","","93","","","","13","","19","","16.1","","99.49","","","","","","NA"
"-85.81","79.99","EUREKA A","2401203","2018-07-21 00:00","2018","07","21","00:00","1.8","","0.8","","93","","","","17","","19","","16.1","","99.57","","","","","","Cloudy"
"-85.81","79.99","EUREKA A","2401203","2018-07-21 01:00","2018","07","21","01:00","2.7","","0.6","","86","","","","17","","20","","16.1","","99.64","","","","","","NA"
"-85.81","79.99","EUREKA A","2401203","2018-07-21 02:00","2018","07","21","02:00","1.9","","0.4","","90","","","","15","","22","","24.1","","99.66","","","","","","NA"
"-85.81","79.99","EUREKA A","2401203","2018-07-21 03:00","2018","07","21","03:00","1.2","","-0.4","","89","","","","16","","31","","24.1","","99.71","","","","","","Mostly Cloudy"
"-85.81","79.99","EUREKA A","2401203","2018-07-21 04:00","2018","07","21","04:00","1.2","","-0.4","","89","","","","17","","28","","24.1","","99.80","","","","","","NA"
"-85.81","79.99","EUREKA A","2401203","2018-07-21 05:00","2018","07","21","05:00","1.9","","-0.2","","86","","","","18","","34","","24.1","","99.82","","","","","","NA"
"-85.81","79.99","EUREKA A","2401203","2018-07-21 06:00","2018","07","21","06:00","2.1","","0.0","","86","","","","18","","35","","24.1","","99.88","","","","","","Cloudy"
"-85.81","79.99","EUREKA A","2401203","2018-07-21 07:00","2018","07","21","07:00","1.5","","-0.4","","87","","","","18","","30","","24.1","","99.89","","","","","","NA"
"-85.81","79.99","EUREKA A","2401203","2018-07-21 08:00","2018","07","21","08:00","1.8","","-0.1","","87","","","","17","","35","","24.1","","99.86","","","","","","NA"
"-85.81","79.99","EUREKA A","2401203","2018-07-21 09:00","2018","07","21","09:00","1.8","","-0.5","","85","","","","17","","34","","24.1","","99.90","","","","","","Mostly Cloudy"
"-85.81","79.99","EUREKA A","2401203","2018-07-21 10:00","2018","07","21","10:00","2.8","","0.0","","82","","","","18","","41","","24.1","","99.90","","","","","","NA"
"-85.81","79.99","EUREKA A","2401203","2018-07-21 11:00","2018","07","21","11:00","4.0","","0.5","","78","","","","17","","39","","24.1","","99.91","","","","","","NA"
"-85.81","79.99","EUREKA A","2401203","2018-07-21 12:00","2018","07","21","12:00","3.1","","-0.7","","76","","","","17","","40","","24.1","","99.92","","","","","","Mostly Cloudy"
"-85.81","79.99","EUREKA A","2401203","2018-07-21 13:00","2018","07","21","13:00","2.3","","-1.7","","75","","","","19","","39","","24.1","","99.99","","","","","","NA"
"-85.81","79.99","EUREKA A","2401203","2018-07-21 14:00","2018","07","21","14:00","2.7","","-2.0","","71","","","","16","","35","","24.1","","99.98","","","","","","NA"
"-85.81","79.99","EUREKA A","2401203","2018-07-21 15:00","2018","07","21","15:00","2.8","","-1.6","","73","","","","16","","34","","24.1","","100.01","","","","","","Mostly Cloudy"
"-85.81","79.99","EUREKA A","2401203","2018-07-21 16:00","2018","07","21","16:00","2.3","","-1.0","","79","","","","17","","37","","24.1","","100.04","","","","","","Rain"
"-85.81","79.99","EUREKA A","2401203","2018-07-21 17:00","2018","07","21","17:00","2.3","","-1.1","","78","","","","16","","32","","24.1","","100.04","","","","","","Rain"
"-85.81","79.99","EUREKA A","2401203","2018-07-21 18:00","2018","07","21","18:00","2.2","","-0.6","","82","","","","15","","26","","24.1","","100.06","","","","","","Rain"
"-85.81","79.99","EUREKA A","2401203","2018-07-21 19:00","2018","07","21","19:00","2.6","","-0.2","","82","","","","16","","26","","24.1","","100.05","","","","","","NA"
"-85.81","79.99","EUREKA A","2401203","2018-07-21 20:00","2018","07","21","20:00","2.4","","-0.4","","82","","","","16","","21","","24.1","","100.05","","","","","","NA"
"-85.81","79.99","EUREKA A","2401203","2018-07-21 21:00","2018","07","21","21:00","2.0","","-0.1","","86","","","","15","","18","","24.1","","100.03","","","","","","Cloudy"
"-85.81","79.99","EUREKA A","2401203","2018-07-21 22:00","2018","07","21","22:00","2.4","","0.3","","86","","","","13","","17","","24.1","","100.04","","","","","","NA"
"-85.81","79.99","EUREKA A","2401203","2018-07-21 23:00","2018","07","21","23:00","2.7","","0.3","","84","","","","13","","18","","24.1","","100.05","","","","","","NA"
"-85.81","79.99","EUREKA A","2401203","2018-07-22 00:00","2018","07","22","00:00","2.4","","0.6","","88","","","","15","","10","","24.1","","100.07","","","","","","Rain"
"-85.81","79.99","EUREKA A","2401203","2018-07-22 01:00","2018","07","22","01:00","2.1","","0.8","","91","","","","18","","5","","24.1","","100.07","","","","","","Rain"
"-85.81","79.99","EUREKA A","2401203","2018-07-22 02:00","2018","07","22","02:00","2.9","","1.1","","88","","","","34","","10","","24.1","","100.06","","","","","","NA"
"-85.81","79.99","EUREKA A","2401203","2018-07-22 03:00","2018","07","22","03:00","3.8","","0.3","","78","","","","36","","6","","24.1","","100.09","","","","","","Mostly Cloudy"
"-85.81","79.99","EUREKA A","2401203","2018-07-22 04:00","2018","07","22","04:00","4.0","","-0.2","","74","","","","36","","4","","24.1","","100.11","","","","","","NA"
"-85.81","79.99","EUREKA A","2401203","2018-07-22 05:00","2018","07","22","05:00","4.0","","-0.6","","72","","","","29","","7","","24.1","","100.13","","","","","","NA"
"-85.81","79.99","EUREKA A","2401203","2018-07-22 06:00","2018","07","22","06:00","4.0","","1.2","","82","","","","1","","16","","24.1","","100.17","","","","","","Rain"
"-85.81","79.99","EUREKA A","2401203","2018-07-22 07:00","2018","07","22","07:00","3.4","","1.0","","84","","","","1","","15","","24.1","","100.20","","","","","","Rain"
"-85.81","79.99","EUREKA A","2401203","2018-07-22 08:00","2018","07","22","08:00","3.6","","1.6","","87","","","","2","","22","","24.1","","100.23","","","","","","Rain"
"-85.81","79.99","EUREKA A","2401203","2018-07-22 09:00","2018","07","22","09:00","3.9","","1.4","","84","","","","2","","22","","24.1","","100.30","","","","","","Rain"
"-85.81","79.99","EUREKA A","2401203","2018-07-22 10:00","2018","07","22","10:00","3.9","","1.1","","82","","","","35","","24","","24.1","","100.32","","","","","","Rain"
"-85.81","79.99","EUREKA A","2401203","2018-07-22 11:00","2018","07","22","11:00","4.3","","1.0","","79","","","","35","","19","","24.1","","100.35","","","","","","Rain"
"-85.81","79.99","EUREKA A","2401203","2018-07-22 12:00","2018","07","22","12:00","4.9","","0.1","","71","","","","35","","21","","24.1","","100.41","","","","","","Cloudy"
"-85.81","79.99","EUREKA A","2401203","2018-07-22 13:00","2018","07","22","13:00","5.3","","-0.5","","66","","","","34","","29","","24.1","","100.44","","","","","","NA"
"-85.81","79.99","EUREKA A","2401203","2018-07-22 14:00","2018","07","22","14:00","5.4","","-0.9","","64","","","","34","","19","","24.1","","100.50","","","","","","NA"
"-85.81","79.99","EUREKA A","2401203","2018-07-22 15:00","2018","07","22","15:00","6.1","","0.0","","65","","","","35","","19","","24.1","","100.56","","","","","","Mostly Cloudy"
"-85.81","79.99","EUREKA A","2401203","2018-07-22 16:00","2018","07","22","16:00","7.1","","-0.4","","59","","","","34","","18","","24.1","","100.59","","","","","","NA"
"-85.81","79.99","EUREKA A","2401203","2018-07-22 17:00","2018","07","22","17:00","6.4","","-1.9","","55","","","","33","","21","","24.1","","100.64","","","","","","NA"
"-85.81","79.99","EUREKA A","2401203","2018-07-22 18:00","2018","07","22","18:00","6.0","","-1.4","","59","","","","33","","22","","24.1","","100.69","","","","","","Mostly Cloudy"
"-85.81","79.99","EUREKA A","2401203","2018-07-22 19:00","2018","07","22","19:00","5.2","","-1.1","","64","","","","27","","7","","24.1","","100.72","","","","","","NA"
"-85.81","79.99","EUREKA A","2401203","2018-07-22 20:00","2018","07","22","20:00","5.1","","-0.7","","66","","","","3","","9","","24.1","","100.75","","","","","","NA"
"-85.81","79.99","EUREKA A","2401203","2018-07-22 21:00","2018","07","22","21:00","3.9","","-1.1","","70","","","","27","","16","","24.1","","100.77","","","","","","Mostly Cloudy"
"-85.81","79.99","EUREKA A","2401203","2018-07-22 22:00","2018","07","22","22:00","3.9","","-0.7","","72","","","","29","","11","","24.1","","100.79","","","","","","NA"
"-85.81","79.99","EUREKA A","2401203","2018-07-22 23:00","2018","07","22","23:00","3.3","","-0.7","","75","","","","29","","14","","24.1","","100.81","","","","","","NA"
"-85.81","79.99","EUREKA A","2401203","2018-07-23 00:00","2018","07","23","00:00","3.1","","-0.6","","77","","","","18","","5","","24.1","","100.82","","","","","","Mostly Cloudy"
"-85.81","79.99","EUREKA A","2401203","2018-07-23 01:00","2018","07","23","01:00","2.7","","-0.6","","79","","","","36","","3","","24.1","","100.85","","","","","","NA"
"-85.81","79.99","EUREKA A","2401203","2018-07-23 02:00","2018","07","23","02:00","2.9","","0.6","","84","","","","15","","3","","24.1","","100.87","","","","","","NA"
"-85.81","79.99","EUREKA A","2401203","2018-07-23 03:00","2018","07","23","03:00","3.5","","1.2","","85","","","","14","","10","","24.1","","100.87","","","","","","Mostly Cloudy"
"-85.81","79.99","EUREKA A","2401203","2018-07-23 04:00","2018","07","23","04:00","3.8","","1.0","","82","","","","13","","13","","24.1","","100.88","","","","","","NA"
"-85.81","79.99","EUREKA A","2401203","2018-07-23 05:00","2018","07","23","05:00","4.1","","1.1","","81","","","","14","","15","","24.1","","100.88","","","","","","NA"
"-85.81","79.99","EUREKA A","2401203","2018-07-23 06:00","2018","07","23","06:00","4.3","","0.8","","78","","","","14","","16","","24.1","","100.86","","","","","","Clear"
"-85.81","79.99","EUREKA A","2401203","2018-07-23 07:00","2018","07","23","07:00","5.2","","1.4","","77","","","","15","","16","","24.1","","100.83","","","","","","NA"
"-85.81","79.99","EUREKA A","2401203","2018-07-23 08:00","2018","07","23","08:00","5.1","","1.4","","77","","","","18","","18","","24.1","","100.80","","","","","","NA"
"-85.81","79.99","EUREKA A","2401203","2018-07-23 09:00","2018","07","23","09:00","5.0","","1.4","","77","","","","18","","25","","24.1","","100.76","","","","","","Mainly Clear"
"-85.81","79.99","EUREKA A","2401203","2018-07-23 10:00","2018","07","23","10:00","5.4","","1.8","","78","","","","17","","27","","24.1","","100.73","","","","","","NA"
"-85.81","79.99","EUREKA A","2401203","2018-07-23 11:00","2018","07","23","11:00","5.8","","1.5","","74","","","","17","","30","","24.1","","100.70","","","","","","NA"
"-85.81","79.99","EUREKA A","2401203","2018-07-23 12:00","2018","07","23","12:00","5.9","","1.1","","71","","","","17","","30","","24.1","","100.64","","","","","","Mainly Clear"
"-85.81","79.99","EUREKA A","2401203","2018-07-23 13:00","2018","07","23","13:00","6.3","","1.3","","70","","","","17","","37","","24.1","","100.59","","","","","","NA"
"-85.81","79.99","EUREKA A","2401203","2018-07-23 14:00","2018","07","23","14:00","5.8","","0.4","","68","","","","17","","37","","24.1","","100.57","","","","","","NA"
"-85.81","79.99","EUREKA A","2401203","2018-07-23 15:00","2018","07","23","15:00","5.6","","-0.2","","66","","","","17","","41","","24.1","","100.55","","","","","","Mostly Cloudy"
"-85.81","79.99","EUREKA A","2401203","2018-07-23 16:00","2018","07","23","16:00","4.9","","-0.3","","69","","","","16","","33","","24.1","","100.50","","","","","","NA"
"-85.81","79.99","EUREKA A","2401203","2018-07-23 17:00","2018","07","23","17:00","4.0","","-1.1","","70","","","","15","","30","","24.1","","100.47","","","","","","NA"
"-85.81","79.99","EUREKA A","2401203","2018-07-23 18:00","2018","07","23","18:00","3.5","","-1.6","","69","","","","16","","34","","24.1","","100.45","","","","","","Mostly Cloudy"
"-85.81","79.99","EUREKA A","2401203","2018-07-23 19:00","2018","07","23","19:00","3.2","","-1.5","","71","","","","14","","32","","24.1","","100.44","","","","","","NA"
"-85.81","79.99","EUREKA A","2401203","2018-07-23 20:00","2018","07","23","20:00","3.1","","-1.6","","71","","","","14","","31","","24.1","","100.38","","","","","","NA"
"-85.81","79.99","EUREKA A","2401203","2018-07-23 21:00","2018","07","23","21:00","2.6","","-2.0","","71","","","","15","","31","","24.1","","100.37","","","","","","Mostly Cloudy"
"-85.81","79.99","EUREKA A","2401203","2018-07-23 22:00","2018","07","23","22:00","2.2","","-2.1","","73","","","","14","","33","","24.1","","100.33","","","","","","NA"
"-85.81","79.99","EUREKA A","2401203","2018-07-23 23:00","2018","07","23","23:00","2.4","","-1.9","","73","","","","14","","36","","24.1","","100.29","","","","","","NA"
"-85.81","79.99","EUREKA A","2401203","2018-07-24 00:00","2018","07","24","00:00","2.6","","-2.2","","70","","","","15","","31","","24.1","","100.22","","","","","","Mostly Cloudy"
"-85.81","79.99","EUREKA A","2401203","2018-07-24 01:00","2018","07","24","01:00","2.7","","-2.5","","69","","","","14","","39","","24.1","","100.15","","","","","","NA"
"-85.81","79.99","EUREKA A","2401203","2018-07-24 02:00","2018","07","24","02:00","2.9","","-2.1","","70","","","","14","","35","","24.1","","100.13","","","","","","NA"
"-85.81","79.99","EUREKA A","2401203","2018-07-24 03:00","2018","07","24","03:00","3.4","","-1.9","","69","","","","14","","30","","24.1","","100.08","","","","","","Mostly Cloudy"
"-85.81","79.99","EUREKA A","2401203","2018-07-24 04:00","2018","07","24","04:00","3.7","","-1.9","","66","","","","15","","26","","24.1","","100.05","","","","","","NA"
"-85.81","79.99","EUREKA A","2401203","2018-07-24 05:00","2018","07","24","05:00","4.3","","-1.7","","65","","","","15","","21","","24.1","","100.02","","","","","","NA"
"-85.81","79.99","EUREKA A","2401203","2018-07-24 06:00","2018","07","24","06:00","3.8","","-1.4","","69","","","","17","","18","","24.1","","99.97","","","","","","Mostly Cloudy"
"-85.81","79.99","EUREKA A","2401203","2018-07-24 07:00","2018","07","24","07:00","4.0","","-1.1","","69","","","","17","","17","","24.1","","99.93","","","","","","NA"
"-85.81","79.99","EUREKA A","2401203","2018-07-24 08:00","2018","07","24","08:00","4.1","","-0.9","","70","","","","16","","9","","24.1","","99.89","","","","","","NA"
"-85.81","79.99","EUREKA A","2401203","2018-07-24 09:00","2018","07","24","09:00","5.0","","-0.8","","66","","","","17","","9","","24.1","","99.86","","","","","","Mostly Cloudy"
"-85.81","79.99","EUREKA A","2401203","2018-07-24 10:00","2018","07","24","10:00","5.4","","-0.8","","64","","","","14","","11","","24.1","","99.82","","","","","","NA"
"-85.81","79.99","EUREKA A","2401203","2018-07-24 11:00","2018","07","24","11:00","5.2","","-0.8","","65","","","","16","","9","","24.1","","99.82","","","","","","NA"
"-85.81","79.99","EUREKA A","2401203","2018-07-24 12:00","2018","07","24","12:00","5.0","","-0.4","","68","","","","20","","7","","24.1","","99.83","","","","","","Rain"
"-85.81","79.99","EUREKA A","2401203","2018-07-24 13:00","2018","07","24","13:00","4.8","","-0.4","","69","","","","16","","10","","24.1","","99.82","","","","","","Rain"
"-85.81","79.99","EUREKA A","2401203","2018-07-24 14:00","2018","07","24","14:00","4.8","","-0.9","","66","","","","19","","6","","24.1","","99.83","","","","","","NA"
"-85.81","79.99","EUREKA A","2401203","2018-07-24 15:00","2018","07","24","15:00","5.4","","-0.5","","66","","","","23","","6","","24.1","","99.84","","","","","","Mostly Cloudy"
"-85.81","79.99","EUREKA A","2401203","2018-07-24 16:00","2018","07","24","16:00","5.2","","0.0","","69","","","","26","","12","","24.1","","99.85","","","","","","NA"
"-85.81","79.99","EUREKA A","2401203","2018-07-24 17:00","2018","07","24","17:00","4.8","","0.0","","71","","","","28","","14","","24.1","","99.89","","","","","","NA"
"-85.81","79.99","EUREKA A","2401203","2018-07-24 18:00","2018","07","24","18:00","3.8","","0.4","","78","","","","28","","19","","24.1","","99.93","","","","","","Rain Showers"
"-85.81","79.99","EUREKA A","2401203","2018-07-24 19:00","2018","07","24","19:00","3.2","","0.9","","85","","","","29","","16","","24.1","","99.95","","","","","","NA"
"-85.81","79.99","EUREKA A","2401203","2018-07-24 20:00","2018","07","24","20:00","3.6","","0.9","","83","","","","28","","12","","24.1","","99.97","","","","","","NA"
"-85.81","79.99","EUREKA A","2401203","2018-07-24 21:00","2018","07","24","21:00","4.0","","0.2","","76","","","","29","","15","","24.1","","99.98","","","","","","Mostly Cloudy"
"-85.81","79.99","EUREKA A","2401203","2018-07-24 22:00","2018","07","24","22:00","4.2","","0.2","","75","","","","29","","16","","24.1","","100.01","","","","","","NA"
"-85.81","79.99","EUREKA A","2401203","2018-07-24 23:00","2018","07","24","23:00","4.2","","-0.1","","73","","","","28","","14","","24.1","","100.04","","","","","","NA"
"-85.81","79.99","EUREKA A","2401203","2018-07-25 00:00","2018","07","25","00:00","3.8","","-0.4","","74","","","","27","","17","","24.1","","100.07","","","","","","Mostly Cloudy"
"-85.81","79.99","EUREKA A","2401203","2018-07-25 01:00","2018","07","25","01:00","3.5","","-0.5","","75","","","","28","","14","","24.1","","100.10","","","","","","NA"
"-85.81","79.99","EUREKA A","2401203","2018-07-25 02:00","2018","07","25","02:00","4.2","","0.2","","75","","","","29","","12","","24.1","","100.12","","","","","","NA"
"-85.81","79.99","EUREKA A","2401203","2018-07-25 03:00","2018","07","25","03:00","4.1","","-0.1","","74","","","","27","","14","","24.1","","100.15","","","","","","Mostly Cloudy"
"-85.81","79.99","EUREKA A","2401203","2018-07-25 04:00","2018","07","25","04:00","4.7","","-0.1","","71","","","","27","","16","","24.1","","100.19","","","","","","NA"
"-85.81","79.99","EUREKA A","2401203","2018-07-25 05:00","2018","07","25","05:00","4.8","","-0.3","","69","","","","27","","23","","24.1","","100.21","","","","","","NA"
"-85.81","79.99","EUREKA A","2401203","2018-07-25 06:00","2018","07","25","06:00","3.9","","-0.7","","72","","","","27","","21","","24.1","","100.23","","","","","","Mainly Clear"
"-85.81","79.99","EUREKA A","2401203","2018-07-25 07:00","2018","07","25","07:00","5.5","","0.4","","70","","","","26","","16","","24.1","","100.27","","","","","","NA"
"-85.81","79.99","EUREKA A","2401203","2018-07-25 08:00","2018","07","25","08:00","5.3","","-0.2","","68","","","","27","","19","","24.1","","100.29","","","","","","NA"
"-85.81","79.99","EUREKA A","2401203","2018-07-25 09:00","2018","07","25","09:00","6.4","","0.5","","66","","","","26","","20","","24.1","","100.30","","","","","","Mostly Cloudy"
"-85.81","79.99","EUREKA A","2401203","2018-07-25 10:00","2018","07","25","10:00","7.1","","0.0","","61","","","","27","","22","","24.1","","100.33","","","","","","NA"
"-85.81","79.99","EUREKA A","2401203","2018-07-25 11:00","2018","07","25","11:00","7.9","","0.4","","59","","","","27","","25","","24.1","","100.33","","","","","","NA"
"-85.81","79.99","EUREKA A","2401203","2018-07-25 12:00","2018","07","25","12:00","7.1","","0.1","","61","","","","26","","25","","24.1","","100.34","","","","","","Mainly Clear"
"-85.81","79.99","EUREKA A","2401203","2018-07-25 13:00","2018","07","25","13:00","7.2","","-0.2","","59","","","","27","","25","","24.1","","100.35","","","","","","NA"
"-85.81","79.99","EUREKA A","2401203","2018-07-25 14:00","2018","07","25","14:00","8.0","","-0.1","","56","","","","27","","22","","24.1","","100.37","","","","","","NA"
"-85.81","79.99","EUREKA A","2401203","2018-07-25 15:00","2018","07","25","15:00","7.3","","-0.3","","58","","","","27","","23","","24.1","","100.39","","","","","","Mainly Clear"
"-85.81","79.99","EUREKA A","2401203","2018-07-25 16:00","2018","07","25","16:00","7.6","","-0.6","","56","","","","26","","26","","24.1","","100.42","","","","","","NA"
"-85.81","79.99","EUREKA A","2401203","2018-07-25 17:00","2018","07","25","17:00","6.7","","-0.6","","59","","","","26","","27","","24.1","","100.44","","","","","","NA"
"-85.81","79.99","EUREKA A","2401203","2018-07-25 18:00","2018","07","25","18:00","6.0","","-0.2","","64","","","","27","","31","","24.1","","100.45","","","","","","Mainly Clear"
"-85.81","79.99","EUREKA A","2401203","2018-07-25 19:00","2018","07","25","19:00","5.9","","-0.1","","66","","","","27","","34","","24.1","","100.47","","","","","","NA"
"-85.81","79.99","EUREKA A","2401203","2018-07-25 20:00","2018","07","25","20:00","5.0","","0.1","","70","","","","28","","22","","24.1","","100.49","","","","","","NA"
"-85.81","79.99","EUREKA A","2401203","2018-07-25 21:00","2018","07","25","21:00","5.5","","-0.1","","67","","","","27","","27","","24.1","","100.47","","","","","","Clear"
"-85.81","79.99","EUREKA A","2401203","2018-07-25 22:00","2018","07","25","22:00","4.1","","0.0","","75","","","","26","","25","","24.1","","100.46","","","","","","NA"
"-85.81","79.99","EUREKA A","2401203","2018-07-25 23:00","2018","07","25","23:00","4.0","","0.1","","76","","","","27","","22","","24.1","","100.45","","","","","","NA"
"-85.81","79.99","EUREKA A","2401203","2018-07-26 00:00","2018","07","26","00:00","2.9","","-0.2","","80","","","","27","","24","","24.1","","100.44","","","","","","Clear"
"-85.81","79.99","EUREKA A","2401203","2018-07-26 01:00","2018","07","26","01:00","1.6","","-0.6","","85","","","","27","","27","","24.1","","100.44","","","","","","NA"
"-85.81","79.99","EUREKA A","2401203","2018-07-26 02:00","2018","07","26","02:00","2.6","","0.2","","84","","","","28","","14","","24.1","","100.43","","","","","","NA"
"-85.81","79.99","EUREKA A","2401203","2018-07-26 03:00","2018","07","26","03:00","3.9","","0.4","","77","","","","28","","17","","24.1","","100.40","","","","","","Clear"
"-85.81","79.99","EUREKA A","2401203","2018-07-26 04:00","2018","07","26","04:00","3.5","","0.1","","79","","","","28","","17","","24.1","","100.39","","","","","","NA"
"-85.81","79.99","EUREKA A","2401203","2018-07-26 05:00","2018","07","26","05:00","3.9","","0.2","","77","","","","27","","16","","24.1","","100.36","","","","","","NA"
"-85.81","79.99","EUREKA A","2401203","2018-07-26 06:00","2018","07","26","06:00","3.2","","-0.1","","79","","","","27","","16","","24.1","","100.36","","","","","","Clear"
"-85.81","79.99","EUREKA A","2401203","2018-07-26 07:00","2018","07","26","07:00","3.8","","0.2","","77","","","","27","","14","","24.1","","100.32","","","","","","NA"
"-85.81","79.99","EUREKA A","2401203","2018-07-26 08:00","2018","07","26","08:00","5.6","","0.8","","71","","","","28","","7","","24.1","","100.26","","","","","","NA"
"-85.81","79.99","EUREKA A","2401203","2018-07-26 09:00","2018","07","26","09:00","5.5","","0.6","","71","","","","26","","12","","24.1","","100.21","","","","","","Clear"
"-85.81","79.99","EUREKA A","2401203","2018-07-26 10:00","2018","07","26","10:00","5.4","","0.4","","70","","","","26","","13","","24.1","","100.16","","","","","","NA"
"-85.81","79.99","EUREKA A","2401203","2018-07-26 11:00","2018","07","26","11:00","6.9","","1.1","","66","","","","26","","11","","24.1","","100.12","","","","","","NA"
"-85.81","79.99","EUREKA A","2401203","2018-07-26 12:00","2018","07","26","12:00","6.8","","1.0","","67","","","","27","","13","","24.1","","100.08","","","","","","Mainly Clear"
"-85.81","79.99","EUREKA A","2401203","2018-07-26 13:00","2018","07","26","13:00","7.2","","0.7","","63","","","","27","","14","","24.1","","100.05","","","","","","NA"
"-85.81","79.99","EUREKA A","2401203","2018-07-26 14:00","2018","07","26","14:00","7.5","","0.6","","61","","","","27","","18","","24.1","","100.01","","","","","","NA"
"-85.81","79.99","EUREKA A","2401203","2018-07-26 15:00","2018","07","26","15:00","8.2","","0.6","","59","","","","27","","16","","24.1","","99.98","","","","","","Mainly Clear"
"-85.81","79.99","EUREKA A","2401203","2018-07-26 16:00","2018","07","26","16:00","8.2","","1.0","","60","","","","27","","16","","24.1","","99.95","","","","","","NA"
"-85.81","79.99","EUREKA A","2401203","2018-07-26 17:00","2018","07","26","17:00","7.8","","1.0","","62","","","","27","","17","","24.1","","99.94","","","","","","NA"
"-85.81","79.99","EUREKA A","2401203","2018-07-26 18:00","2018","07","26","18:00","7.4","","0.7","","62","","","","27","","20","","24.1","","99.92","","","","","","Mainly Clear"
"-85.81","79.99","EUREKA A","2401203","2018-07-26 19:00","2018","07","26","19:00","7.0","","0.4","","63","","","","27","","19","","24.1","","99.90","","","","","","NA"
"-85.81","79.99","EUREKA A","2401203","2018-07-26 20:00","2018","07","26","20:00","6.0","","0.2","","67","","","","26","","17","","24.1","","99.86","","","","","","NA"
"-85.81","79.99","EUREKA A","2401203","2018-07-26 21:00","2018","07","26","21:00","6.4","","0.5","","66","","","","27","","19","","24.1","","99.84","","","","","","Mainly Clear"
"-85.81","79.99","EUREKA A","2401203","2018-07-26 22:00","2018","07","26","22:00","6.5","","0.6","","66","","","","28","","10","","24.1","","99.82","","","","","","NA"
"-85.81","79.99","EUREKA A","2401203","2018-07-26 23:00","2018","07","26","23:00","5.4","","0.5","","71","","","","27","","17","","24.1","","99.82","","","","","","NA"
"-85.81","79.99","EUREKA A","2401203","2018-07-27 00:00","2018","07","27","00:00","5.0","","0.3","","72","","","","26","","10","","24.1","","99.82","","","","","","Clear"
"-85.81","79.99","EUREKA A","2401203","2018-07-27 01:00","2018","07","27","01:00","6.3","","0.5","","66","","","","28","","16","","24.1","","99.80","","","","","","NA"
"-85.81","79.99","EUREKA A","2401203","2018-07-27 02:00","2018","07","27","02:00","5.4","","0.5","","71","","","","28","","23","","24.1","","99.78","","","","","","NA"
"-85.81","79.99","EUREKA A","2401203","2018-07-27 03:00","2018","07","27","03:00","5.5","","0.0","","68","","","","27","","21","","24.1","","99.79","","","","","","Mainly Clear"
"-85.81","79.99","EUREKA A","2401203","2018-07-27 04:00","2018","07","27","04:00","6.9","","-0.4","","60","","","","28","","16","","24.1","","99.80","","","","","","NA"
"-85.81","79.99","EUREKA A","2401203","2018-07-27 05:00","2018","07","27","05:00","6.2","","-1.4","","58","","","","27","","21","","24.1","","99.81","","","","","","NA"
"-85.81","79.99","EUREKA A","2401203","2018-07-27 06:00","2018","07","27","06:00","7.2","","-3.1","","48","","","","27","","22","","24.1","","99.80","","","","","","Mostly Cloudy"
"-85.81","79.99","EUREKA A","2401203","2018-07-27 07:00","2018","07","27","07:00","7.5","","-2.9","","48","","","","27","","22","","24.1","","99.80","","","","","","NA"
"-85.81","79.99","EUREKA A","2401203","2018-07-27 08:00","2018","07","27","08:00","7.4","","-2.1","","51","","","","27","","23","","24.1","","99.81","","","","","","NA"
"-85.81","79.99","EUREKA A","2401203","2018-07-27 09:00","2018","07","27","09:00","7.8","","-2.3","","49","","","","27","","23","","24.1","","99.80","","","","","","Mainly Clear"
"-85.81","79.99","EUREKA A","2401203","2018-07-27 10:00","2018","07","27","10:00","8.0","","-1.8","","50","","","","27","","23","","24.1","","99.82","","","","","","NA"
"-85.81","79.99","EUREKA A","2401203","2018-07-27 11:00","2018","07","27","11:00","8.6","","-1.2","","50","","","","27","","22","","24.1","","99.84","","","","","","NA"
"-85.81","79.99","EUREKA A","2401203","2018-07-27 12:00","2018","07","27","12:00","8.1","","-1.1","","52","","","","26","","23","","24.1","","99.84","","","","","","Mainly Clear"
"-85.81","79.99","EUREKA A","2401203","2018-07-27 13:00","2018","07","27","13:00","8.6","","-0.9","","51","","","","27","","18","","24.1","","99.87","","","","","","NA"
"-85.81","79.99","EUREKA A","2401203","2018-07-27 14:00","2018","07","27","14:00","9.0","","-0.6","","51","","","","27","","16","","24.1","","99.88","","","","","","NA"
"-85.81","79.99","EUREKA A","2401203","2018-07-27 15:00","2018","07","27","15:00","9.1","","-1.1","","49","","","","27","","13","","24.1","","99.91","","","","","","Mainly Clear"
"-85.81","79.99","EUREKA A","2401203","2018-07-27 16:00","2018","07","27","16:00","9.1","","-1.4","","48","","","","27","","16","","24.1","","99.94","","","","","","NA"
"-85.81","79.99","EUREKA A","2401203","2018-07-27 17:00","2018","07","27","17:00","9.1","","-1.3","","48","","","","26","","14","","24.1","","99.98","","","","","","NA"
"-85.81","79.99","EUREKA A","2401203","2018-07-27 18:00","2018","07","27","18:00","10.0","","-1.4","","45","","","","26","","13","","24.1","","100.02","","","","","","Mainly Clear"
"-85.81","79.99","EUREKA A","2401203","2018-07-27 19:00","2018","07","27","19:00","10.6","","-1.5","","43","","","","1","","18","","24.1","","100.04","","","","","","NA"
"-85.81","79.99","EUREKA A","2401203","2018-07-27 20:00","2018","07","27","20:00","10.6","","-0.2","","47","","","","1","","18","","24.1","","100.08","","","","","","NA"
"-85.81","79.99","EUREKA A","2401203","2018-07-27 21:00","2018","07","27","21:00","9.8","","0.0","","50","","","","1","","19","","24.1","","100.10","","","","","","Mostly Cloudy"
"-85.81","79.99","EUREKA A","2401203","2018-07-27 22:00","2018","07","27","22:00","9.6","","-2.1","","44","","","","2","","17","","24.1","","100.14","","","","","","NA"
"-85.81","79.99","EUREKA A","2401203","2018-07-27 23:00","2018","07","27","23:00","8.9","","-3.2","","42","","","","1","","19","","24.1","","100.19","","","","","","NA"
"-85.81","79.99","EUREKA A","2401203","2018-07-28 00:00","2018","07","28","00:00","7.8","","-2.2","","49","","","","1","","17","","24.1","","100.24","","","","","","Mostly Cloudy"
"-85.81","79.99","EUREKA A","2401203","2018-07-28 01:00","2018","07","28","01:00","7.3","","-1.8","","52","","","","36","","20","","24.1","","100.28","","","","","","NA"
"-85.81","79.99","EUREKA A","2401203","2018-07-28 02:00","2018","07","28","02:00","7.2","","-1.1","","55","","","","36","","24","","24.1","","100.32","","","","","","NA"
"-85.81","79.99","EUREKA A","2401203","2018-07-28 03:00","2018","07","28","03:00","7.5","","-0.8","","56","","","","1","","18","","24.1","","100.37","","","","","","Mostly Cloudy"
"-85.81","79.99","EUREKA A","2401203","2018-07-28 04:00","2018","07","28","04:00","6.4","","-0.4","","62","","","","28","","6","","24.1","","100.42","","","","","","NA"
"-85.81","79.99","EUREKA A","2401203","2018-07-28 05:00","2018","07","28","05:00","5.5","","0.8","","71","","","","29","","9","","24.1","","100.49","","","","","","Rain Showers"
"-85.81","79.99","EUREKA A","2401203","2018-07-28 06:00","2018","07","28","06:00","6.0","","1.0","","70","","","","30","","8","","24.1","","100.56","","","","","","Mostly Cloudy"
"-85.81","79.99","EUREKA A","2401203","2018-07-28 07:00","2018","07","28","07:00","5.4","","0.4","","70","","","","26","","15","","24.1","","100.59","","","","","","NA"
"-85.81","79.99","EUREKA A","2401203","2018-07-28 08:00","2018","07","28","08:00","7.0","","0.9","","65","","","","27","","12","","24.1","","100.61","","","","","","NA"
"-85.81","79.99","EUREKA A","2401203","2018-07-28 09:00","2018","07","28","09:00","7.4","","0.2","","60","","","","28","","7","","24.1","","100.64","","","","","","Mostly Cloudy"
"-85.81","79.99","EUREKA A","2401203","2018-07-28 10:00","2018","07","28","10:00","6.5","","-0.2","","63","","","","27","","10","","24.1","","100.68","","","","","","NA"
"-85.81","79.99","EUREKA A","2401203","2018-07-28 11:00","2018","07","28","11:00","8.1","","0.2","","57","","","","21","","3","","24.1","","100.71","","","","","","NA"
"-85.81","79.99","EUREKA A","2401203","2018-07-28 12:00","2018","07","28","12:00","8.8","","0.4","","56","","","","16","","10","","24.1","","100.73","","","","","","Mostly Cloudy"
"-85.81","79.99","EUREKA A","2401203","2018-07-28 13:00","2018","07","28","13:00","9.1","","0.0","","53","","","","14","","10","","24.1","","100.76","","","","","","NA"
"-85.81","79.99","EUREKA A","2401203","2018-07-28 14:00","2018","07","28","14:00","10.1","","-2.0","","43","","","","16","","6","","24.1","","100.78","","","","","","NA"
"-85.81","79.99","EUREKA A","2401203","2018-07-28 15:00","2018","07","28","15:00","10.4","","-2.4","","41","","","","18","","14","","24.1","","100.80","","","","","","Mostly Cloudy"
"-85.81","79.99","EUREKA A","2401203","2018-07-28 16:00","2018","07","28","16:00","9.8","","-1.7","","45","","","","19","","14","","24.1","","100.84","","","","","","NA"
"-85.81","79.99","EUREKA A","2401203","2018-07-28 17:00","2018","07","28","17:00","10.9","","-2.4","","39","","","","17","","11","","24.1","","100.86","","","","","","NA"
"-85.81","79.99","EUREKA A","2401203","2018-07-28 18:00","2018","07","28","18:00","10.1","","-1.9","","43","","","","19","","12","","24.1","","100.90","","","","","","Mainly Clear"
"-85.81","79.99","EUREKA A","2401203","2018-07-28 19:00","2018","07","28","19:00","9.9","","-2.3","","42","","","","17","","10","","24.1","","100.91","","","","","","NA"
"-85.81","79.99","EUREKA A","2401203","2018-07-28 20:00","2018","07","28","20:00","8.5","","-2.4","","46","","","","17","","17","","24.1","","100.93","","","","","","NA"
"-85.81","79.99","EUREKA A","2401203","2018-07-28 21:00","2018","07","28","21:00","8.2","","-2.4","","47","","","","13","","9","","24.1","","100.94","","","","","","Mostly Cloudy"
"-85.81","79.99","EUREKA A","2401203","2018-07-28 22:00","2018","07","28","22:00","8.6","","-2.4","","46","","","","14","","10","","24.1","","100.97","","","","","","NA"
"-85.81","79.99","EUREKA A","2401203","2018-07-28 23:00","2018","07","28","23:00","8.2","","-2.3","","47","","","","13","","12","","24.1","","100.99","","","","","","NA"
"-85.81","79.99","EUREKA A","2401203","2018-07-29 00:00","2018","07","29","00:00","7.2","","-2.1","","51","","","","15","","10","","24.1","","100.99","","","","","","Mostly Cloudy"
"-85.81","79.99","EUREKA A","2401203","2018-07-29 01:00","2018","07","29","01:00","7.7","","-2.1","","50","","","","13","","5","","24.1","","101.01","","","","","","NA"
"-85.81","79.99","EUREKA A","2401203","2018-07-29 02:00","2018","07","29","02:00","7.5","","-2.0","","51","","","","19","","5","","24.1","","101.02","","","","","","NA"
"-85.81","79.99","EUREKA A","2401203","2018-07-29 03:00","2018","07","29","03:00","6.3","","-2.2","","55","","","","28","","4","","24.1","","101.04","","","","","","Mainly Clear"
"-85.81","79.99","EUREKA A","2401203","2018-07-29 04:00","2018","07","29","04:00","7.6","","-1.6","","52","","","","36","","2","","24.1","","101.05","","","","","","NA"
"-85.81","79.99","EUREKA A","2401203","2018-07-29 05:00","2018","07","29","05:00","8.1","","-1.4","","51","","","","36","","2","","24.1","","101.05","","","","","","NA"
"-85.81","79.99","EUREKA A","2401203","2018-07-29 06:00","2018","07","29","06:00","7.9","","-0.7","","55","","","","27","","7","","24.1","","101.06","","","","","","Clear"
"-85.81","79.99","EUREKA A","2401203","2018-07-29 07:00","2018","07","29","07:00","8.0","","-0.2","","56","","","","27","","8","","24.1","","101.03","","","","","","NA"
"-85.81","79.99","EUREKA A","2401203","2018-07-29 08:00","2018","07","29","08:00","8.2","","-0.6","","54","","","","26","","13","","24.1","","100.99","","","","","","NA"
"-85.81","79.99","EUREKA A","2401203","2018-07-29 09:00","2018","07","29","09:00","7.2","","-0.4","","58","","","","26","","19","","24.1","","100.95","","","","","","Mostly Cloudy"
"-85.81","79.99","EUREKA A","2401203","2018-07-29 10:00","2018","07","29","10:00","8.0","","-0.6","","55","","","","26","","15","","24.1","","100.92","","","","","","NA"
"-85.81","79.99","EUREKA A","2401203","2018-07-29 11:00","2018","07","29","11:00","7.7","","-0.2","","57","","","","26","","17","","24.1","","100.88","","","","","","NA"
"-85.81","79.99","EUREKA A","2401203","2018-07-29 12:00","2018","07","29","12:00","7.4","","0.0","","60","","","","27","","21","","24.1","","100.85","","","","","","Mostly Cloudy"
"-85.81","79.99","EUREKA A","2401203","2018-07-29 13:00","2018","07","29","13:00","7.8","","0.0","","58","","","","27","","18","","24.1","","100.84","","","","","","NA"
"-85.81","79.99","EUREKA A","2401203","2018-07-29 14:00","2018","07","29","14:00","7.3","","0.0","","60","","","","26","","17","","24.1","","100.84","","","","","","NA"
"-85.81","79.99","EUREKA A","2401203","2018-07-29 15:00","2018","07","29","15:00","8.9","","-0.8","","51","","","","31","","8","","24.1","","100.82","","","","","","Mostly Cloudy"
"-85.81","79.99","EUREKA A","2401203","2018-07-29 16:00","2018","07","29","16:00","10.8","","0.0","","47","","","","3","","18","","24.1","","100.83","","","","","","NA"
"-85.81","79.99","EUREKA A","2401203","2018-07-29 17:00","2018","07","29","17:00","9.7","","0.2","","52","","","","2","","23","","24.1","","100.83","","","","","","NA"
"-85.81","79.99","EUREKA A","2401203","2018-07-29 18:00","2018","07","29","18:00","9.3","","0.0","","52","","","","2","","21","","24.1","","100.84","","","","","","Mostly Cloudy"
"-85.81","79.99","EUREKA A","2401203","2018-07-29 19:00","2018","07","29","19:00","9.9","","-0.2","","49","","","","2","","14","","24.1","","100.84","","","","","","NA"
"-85.81","79.99","EUREKA A","2401203","2018-07-29 20:00","2018","07","29","20:00","8.6","","-0.9","","51","","","","1","","19","","24.1","","100.84","","","","","","NA"
"-85.81","79.99","EUREKA A","2401203","2018-07-29 21:00","2018","07","29","21:00","8.1","","-0.1","","56","","","","1","","14","","24.1","","100.82","","","","","","Cloudy"
"-85.81","79.99","EUREKA A","2401203","2018-07-29 22:00","2018","07","29","22:00","6.8","","0.2","","63","","","","30","","10","","24.1","","100.83","","","","","","NA"
"-85.81","79.99","EUREKA A","2401203","2018-07-29 23:00","2018","07","29","23:00","6.7","","0.1","","63","","","","33","","6","","24.1","","100.82","","","","","","NA"
"-85.81","79.99","EUREKA A","2401203","2018-07-30 00:00","2018","07","30","00:00","5.0","","-0.1","","70","","","","28","","16","","24.1","","100.83","","","","","","Cloudy"
"-85.81","79.99","EUREKA A","2401203","2018-07-30 01:00","2018","07","30","01:00","5.7","","0.0","","67","","","","29","","15","","24.1","","100.83","","","","","","NA"
"-85.81","79.99","EUREKA A","2401203","2018-07-30 02:00","2018","07","30","02:00","5.9","","0.2","","67","","","","31","","10","","24.1","","100.82","","","","","","NA"
"-85.81","79.99","EUREKA A","2401203","2018-07-30 03:00","2018","07","30","03:00","5.7","","0.5","","69","","","","34","","9","","24.1","","100.83","","","","","","Mostly Cloudy"
"-85.81","79.99","EUREKA A","2401203","2018-07-30 04:00","2018","07","30","04:00","5.1","","0.5","","72","","","","1","","13","","24.1","","100.83","","","","","","NA"
"-85.81","79.99","EUREKA A","2401203","2018-07-30 05:00","2018","07","30","05:00","5.0","","0.5","","72","","","","33","","11","","24.1","","100.86","","","","","","NA"
"-85.81","79.99","EUREKA A","2401203","2018-07-30 06:00","2018","07","30","06:00","4.8","","0.6","","74","","","","36","","13","","24.1","","100.87","","","","","","Cloudy"
"-85.81","79.99","EUREKA A","2401203","2018-07-30 07:00","2018","07","30","07:00","5.3","","0.6","","72","","","","34","","14","","24.1","","100.87","","","","","","NA"
"-85.81","79.99","EUREKA A","2401203","2018-07-30 08:00","2018","07","30","08:00","5.7","","0.6","","70","","","","29","","16","","24.1","","100.86","","","","","","NA"
"-85.81","79.99","EUREKA A","2401203","2018-07-30 09:00","2018","07","30","09:00","4.9","","0.2","","71","","","","27","","19","","24.1","","100.86","","","","","","Cloudy"
"-85.81","79.99","EUREKA A","2401203","2018-07-30 10:00","2018","07","30","10:00","5.1","","0.2","","70","","","","27","","16","","24.1","","100.86","","","","","","NA"
"-85.81","79.99","EUREKA A","2401203","2018-07-30 11:00","2018","07","30","11:00","5.8","","0.4","","68","","","","28","","10","","24.1","","100.84","","","","","","NA"
"-85.81","79.99","EUREKA A","2401203","2018-07-30 12:00","2018","07","30","12:00","6.8","","0.6","","64","","","","26","","10","","24.1","","100.84","","","","","","Mostly Cloudy"
"-85.81","79.99","EUREKA A","2401203","2018-07-30 13:00","2018","07","30","13:00","6.4","","0.6","","66","","","","26","","9","","24.1","","100.83","","","","","","NA"
"-85.81","79.99","EUREKA A","2401203","2018-07-30 14:00","2018","07","30","14:00","6.9","","0.7","","65","","","","28","","9","","24.1","","100.82","","","","","","NA"
"-85.81","79.99","EUREKA A","2401203","2018-07-30 15:00","2018","07","30","15:00","7.2","","0.8","","64","","","","27","","9","","24.1","","100.81","","","","","","Mostly Cloudy"
"-85.81","79.99","EUREKA A","2401203","2018-07-30 16:00","2018","07","30","16:00","7.5","","0.2","","60","","","","27","","13","","24.1","","100.79","","","","","","NA"
"-85.81","79.99","EUREKA A","2401203","2018-07-30 17:00","2018","07","30","17:00","7.4","","0.4","","61","","","","27","","13","","24.1","","100.76","","","","","","NA"
"-85.81","79.99","EUREKA A","2401203","2018-07-30 18:00","2018","07","30","18:00","8.0","","0.2","","58","","","","27","","9","","24.1","","100.75","","","","","","Mainly Clear"
"-85.81","79.99","EUREKA A","2401203","2018-07-30 19:00","2018","07","30","19:00","7.7","","0.2","","59","","","","27","","12","","24.1","","100.72","","","","","","NA"
"-85.81","79.99","EUREKA A","2401203","2018-07-30 20:00","2018","07","30","20:00","8.4","","-0.1","","55","","","","28","","7","","24.1","","100.68","","","","","","NA"
"-85.81","79.99","EUREKA A","2401203","2018-07-30 21:00","2018","07","30","21:00","8.8","","1.3","","59","","","","1","","12","","24.1","","100.66","","","","","","Clear"
"-85.81","79.99","EUREKA A","2401203","2018-07-30 22:00","2018","07","30","22:00","8.4","","1.1","","60","","","","1","","15","","24.1","","100.64","","","","","","NA"
"-85.81","79.99","EUREKA A","2401203","2018-07-30 23:00","2018","07","30","23:00","8.1","","0.6","","59","","","","1","","12","","24.1","","100.62","","","","","","NA"
"-85.81","79.99","EUREKA A","2401203","2018-07-31 00:00","2018","07","31","00:00","8.4","","0.3","","57","","","","2","","15","","24.1","","100.61","","","","","","Mostly Cloudy"
"-85.81","79.99","EUREKA A","2401203","2018-07-31 01:00","2018","07","31","01:00","7.5","","-0.2","","58","","","","36","","3","","24.1","","100.60","","","","","","NA"
"-85.81","79.99","EUREKA A","2401203","2018-07-31 02:00","2018","07","31","02:00","6.2","","-0.2","","64","","","","29","","9","","24.1","","100.58","","","","","","NA"
"-85.81","79.99","EUREKA A","2401203","2018-07-31 03:00","2018","07","31","03:00","8.3","","0.6","","58","","","","31","","9","","24.1","","100.57","","","","","","Mostly Cloudy"
"-85.81","79.99","EUREKA A","2401203","2018-07-31 04:00","2018","07","31","04:00","5.6","","0.0","","67","","","","29","","9","","24.1","","100.56","","","","","","NA"
"-85.81","79.99","EUREKA A","2401203","2018-07-31 05:00","2018","07","31","05:00","5.1","","0.0","","69","","","","29","","13","","24.1","","100.55","","","","","","NA"
"-85.81","79.99","EUREKA A","2401203","2018-07-31 06:00","2018","07","31","06:00","5.8","","0.1","","67","","","","26","","10","","24.1","","100.54","","","","","","Mainly Clear"
"-85.81","79.99","EUREKA A","2401203","2018-07-31 07:00","2018","07","31","07:00","7.1","","0.6","","63","","","","24","","5","","24.1","","100.52","","","","","","NA"
"-85.81","79.99","EUREKA A","2401203","2018-07-31 08:00","2018","07","31","08:00","8.5","","0.5","","57","","","","24","","7","","24.1","","100.48","","","","","","NA"
"-85.81","79.99","EUREKA A","2401203","2018-07-31 09:00","2018","07","31","09:00","9.4","","0.0","","52","","","","26","","9","","24.1","","100.45","","","","","","Clear"
"-85.81","79.99","EUREKA A","2401203","2018-07-31 10:00","2018","07","31","10:00","9.8","","-0.4","","49","","","","26","","10","","24.1","","100.41","","","","","","NA"
"-85.81","79.99","EUREKA A","2401203","2018-07-31 11:00","2018","07","31","11:00","10.8","","-0.8","","44","","","","26","","8","","24.1","","100.38","","","","","","NA"
"-85.81","79.99","EUREKA A","2401203","2018-07-31 12:00","2018","07","31","12:00","11.1","","-0.4","","45","","","","26","","11","","24.1","","100.36","","","","","","Mainly Clear"
"-85.81","79.99","EUREKA A","2401203","2018-07-31 13:00","2018","07","31","13:00","10.3","","0.8","","52","","","","26","","14","","24.1","","100.35","","","","","","NA"
"-85.81","79.99","EUREKA A","2401203","2018-07-31 14:00","2018","07","31","14:00","11.5","","-0.3","","44","","","","27","","19","","24.1","","100.31","","","","","","NA"
"-85.81","79.99","EUREKA A","2401203","2018-07-31 15:00","2018","07","31","15:00","11.5","","-0.4","","44","","","","27","","20","","24.1","","100.29","","","","","","Mainly Clear"
"-85.81","79.99","EUREKA A","2401203","2018-07-31 16:00","2018","07","31","16:00","11.7","","0.1","","44","","","","27","","18","","24.1","","100.28","","","","","","NA"
"-85.81","79.99","EUREKA A","2401203","2018-07-31 17:00","2018","07","31","17:00","10.5","","0.0","","48","","","","27","","14","","24.1","","100.27","","","","","","NA"
"-85.81","79.99","EUREKA A","2401203","2018-07-31 18:00","2018","07","31","18:00","11.3","","0.5","","47","","","","28","","7","","24.1","","100.26","","","","","","Mostly Cloudy"
"-85.81","79.99","EUREKA A","2401203","2018-07-31 19:00","2018","07","31","19:00","10.9","","0.4","","48","","","","26","","4","","24.1","","100.25","","","","","","NA"
"-85.81","79.99","EUREKA A","2401203","2018-07-31 20:00","2018","07","31","20:00","11.4","","0.3","","46","","","","15","","4","","24.1","","100.26","","","","","","Rain Showers"
"-85.81","79.99","EUREKA A","2401203","2018-07-31 21:00","2018","07","31","21:00","10.8","","0.6","","49","","","","20","","3","","24.1","","100.25","","","","","","Rain Showers"
"-85.81","79.99","EUREKA A","2401203","2018-07-31 22:00","2018","07","31","22:00","10.9","","1.4","","52","","","","36","","2","","24.1","","100.26","","","","","","Rain Showers"
"-85.81","79.99","EUREKA A","2401203","2018-07-31 23:00","2018","07","31","23:00","11.1","","1.1","","50","","","","36","","1","","24.1","","100.29","","","","","","NA"
