"Longitude (x)","Latitude (y)","Station Name","Climate ID","Date/Time (LST)","Year","Month","Day","Time (LST)","Temp (°C)","Temp Flag","Dew Point Temp (°C)","Dew Point Temp Flag","Rel Hum (%)","Rel Hum Flag","Precip. Amount (mm)","Precip. Amount Flag","Wind Dir (10s deg)","Wind Dir Flag","Wind Spd (km/h)","Wind Spd Flag","Visibility (km)","Visibility Flag","Stn Press (kPa)","Stn Press Flag","Hmdx","Hmdx Flag","Wind Chill","Wind Chill Flag","Weather"
"-133.03","69.43","TUKTOYAKTUK A","2203913","2022-01-01 00:00","2022","01","01","00:00"
"-133.03","69.43","TUKTOYAKTUK A","2203913","2022-01-01 01:00","2022","01","01","01:00"
"-133.03","69.43","TUKTOYAKTUK A","2203913","2022-01-01 02:00","2022","01","01","02:00"
"-133.03","69.43","TUKTOYAKTUK A","2203913","2022-01-01 03:00","2022","01","01","03:00"
"-133.03","69.43","TUKTOYAKTUK A","2203913","2022-01-01 04:00","2022","01","01","04:00"
"-133.03","69.43","TUKTOYAKTUK A","2203913","2022-01-01 05:00","2022","01","01","05:00"
"-133.03","69.43","TUKTOYAKTUK A","2203913","2022-01-01 06:00","2022","01","01","06:00"
"-133.03","69.43","TUKTOYAKTUK A","2203913","2022-01-01 07:00","2022","01","01","07:00","-32.6","","-36.2","","71","","","","24","","6","","9.7","","102.18","","","","-40","","Snow"
"-133.03","69.43","TUKTOYAKTUK A","2203913","2022-01-01 08:00","2022","01","01","08:00","-32.8","","-36.4","","71","","","","25","","5","","9.7","","102.20","","","","-39","","Snow"
"-133.03","69.43","TUKTOYAKTUK A","2203913","2022-01-01 09:00","2022","01","01","09:00","-33.1","","-36.7","","71","","","","23","","7","","9.7","","102.24","","","","-41","","Snow"
"-133.03","69.43","TUKTOYAKTUK A","2203913","2022-01-01 10:00","2022","01","01","10:00","-32.6","","-36.2","","71","","","","26","","3","","9.7","","102.27","","","","-36","","Snow"
"-133.03","69.43","TUKTOYAKTUK A","2203913","2022-01-01 11:00","2022","01","01","11:00","-31.3","","-34.9","","72","","","","1","","6","","9.7","","102.34","","","","-38","","Snow"
"-133.03","69.43","TUKTOYAKTUK A","2203913","2022-01-01 12:00","2022","01","01","12:00","-29.4","","-32.8","","73","","","","35","","8","","9.7","","102.42","","","","-37","","Snow"
"-133.03","69.43","TUKTOYAKTUK A","2203913","2022-01-01 13:00","2022","01","01","13:00","-29.0","","-32.4","","73","","","","36","","16","","9.7","","102.50","","","","-41","","Snow"
"-133.03","69.43","TUKTOYAKTUK A","2203913","2022-01-01 14:00","2022","01","01","14:00","-29.6","","-33.0","","73","","","","34","","11","","8.1","","102.60","","","","-39","","Snow"
"-133.03","69.43","TUKTOYAKTUK A","2203913","2022-01-01 15:00","2022","01","01","15:00","-29.5","","-32.9","","73","","","","33","","13","","12.9","","102.69","","","","-40","","Snow"
"-133.03","69.43","TUKTOYAKTUK A","2203913","2022-01-01 16:00","2022","01","01","16:00","-29.7","","-33.1","","73","","","","33","","14","","16.1","","102.76","","","","-41","","NA"
"-133.03","69.43","TUKTOYAKTUK A","2203913","2022-01-01 17:00","2022","01","01","17:00","-29.3","","-32.6","","73","","","","34","","18","","11.3","","102.83","","","","-42","","Snow"
"-133.03","69.43","TUKTOYAKTUK A","2203913","2022-01-01 18:00","2022","01","01","18:00","-30.3","","-33.8","","72","","","","33","","15","","16.1","","102.90","","","","-42","","NA"
"-133.03","69.43","TUKTOYAKTUK A","2203913","2022-01-01 19:00","2022","01","01","19:00","-29.6","","-33.0","","73","","","","33","","16","","24.1","","102.98","","","","-41","","NA"
"-133.03","69.43","TUKTOYAKTUK A","2203913","2022-01-01 20:00","2022","01","01","20:00","-29.4","","-32.8","","73","","","","33","","17","","16.1","","103.07","","","","-41","","Mostly Cloudy"
"-133.03","69.43","TUKTOYAKTUK A","2203913","2022-01-01 21:00","2022","01","01","21:00","-29.6","","-33.0","","73","","","","32","","20","","16.1","","103.17","","","","-43","","NA"
"-133.03","69.43","TUKTOYAKTUK A","2203913","2022-01-01 22:00","2022","01","01","22:00","-29.4","","-32.8","","73","","","","33","","19","","16.1","","103.24","","","","-42","","NA"
"-133.03","69.43","TUKTOYAKTUK A","2203913","2022-01-01 23:00","2022","01","01","23:00","-29.3","","-32.7","","73","","","","33","","23","","16.1","","103.33","","","","-43","","Mostly Cloudy"
"-133.03","69.43","TUKTOYAKTUK A","2203913","2022-01-02 00:00","2022","01","02","00:00"
"-133.03","69.43","TUKTOYAKTUK A","2203913","2022-01-02 01:00","2022","01","02","01:00"
"-133.03","69.43","TUKTOYAKTUK A","2203913","2022-01-02 02:00","2022","01","02","02:00"
"-133.03","69.43","TUKTOYAKTUK A","2203913","2022-01-02 03:00","2022","01","02","03:00"
"-133.03","69.43","TUKTOYAKTUK A","2203913","2022-01-02 04:00","2022","01","02","04:00"
"-133.03","69.43","TUKTOYAKTUK A","2203913","2022-01-02 05:00","2022","01","02","05:00"
"-133.03","69.43","TUKTOYAKTUK A","2203913","2022-01-02 06:00","2022","01","02","06:00"
"-133.03","69.43","TUKTOYAKTUK A","2203913","2022-01-02 07:00","2022","01","02","07:00","-30.6","","-34.2","","72","","","","32","","21","","24.1","","104.02","","","","-44","","Blowing Snow"
"-133.03","69.43","TUKTOYAKTUK A","2203913","2022-01-02 08:00","2022","01","02","08:00","-31.0","","-34.6","","72","","","","32","","21","","24.1","","104.07","","","","-45","","Mainly Clear"
"-133.03","69.43","TUKTOYAKTUK A","2203913","2022-01-02 09:00","2022","01","02","09:00","-30.9","","-34.5","","72","","","","32","","21","","24.1","","104.14","","","","-45","","NA"
"-133.03","69.43","TUKTOYAKTUK A","2203913","2022-01-02 10:00","2022","01","02","10:00","-31.0","","-34.5","","72","","","","32","","22","","24.1","","104.22","","","","-45","","Blowing Snow"
"-133.03","69.43","TUKTOYAKTUK A","2203913","2022-01-02 11:00","2022","01","02","11:00","-31.1","","-34.7","","72","","","","31","","18","","24.1","","104.29","","","","-44","","Mainly Clear"
"-133.03","69.43","TUKTOYAKTUK A","2203913","2022-01-02 12:00","2022","01","02","12:00","-31.1","","-34.6","","72","","","","32","","19","","16.1","","104.34","","","","-44","","Blowing Snow"
"-133.03","69.43","TUKTOYAKTUK A","2203913","2022-01-02 13:00","2022","01","02","13:00","-30.6","","-34.1","","72","","","","32","","20","","16.1","","104.39","","","","-44","","Blowing Snow"
"-133.03","69.43","TUKTOYAKTUK A","2203913","2022-01-02 14:00","2022","01","02","14:00","-30.5","","-34.0","","72","","","","32","","19","","16.1","","104.44","","","","-43","","Blowing Snow"
"-133.03","69.43","TUKTOYAKTUK A","2203913","2022-01-02 15:00","2022","01","02","15:00","-30.5","","-34.0","","72","","","","31","","21","","16.1","","104.49","","","","-44","","Blowing Snow"
"-133.03","69.43","TUKTOYAKTUK A","2203913","2022-01-02 16:00","2022","01","02","16:00","-30.7","","-34.2","","72","","","","31","","21","","16.1","","104.52","","","","-44","","Blowing Snow"
"-133.03","69.43","TUKTOYAKTUK A","2203913","2022-01-02 17:00","2022","01","02","17:00","-30.3","","-33.8","","72","","","","32","","21","","16.1","","104.55","","","","-44","","Blowing Snow"
"-133.03","69.43","TUKTOYAKTUK A","2203913","2022-01-02 18:00","2022","01","02","18:00","-30.5","","-34.0","","72","","","","32","","17","","16.1","","104.58","","","","-43","","Blowing Snow"
"-133.03","69.43","TUKTOYAKTUK A","2203913","2022-01-02 19:00","2022","01","02","19:00","-31.2","","-34.7","","72","","","","30","","16","","16.1","","104.61","","","","-43","","Blowing Snow"
"-133.03","69.43","TUKTOYAKTUK A","2203913","2022-01-02 20:00","2022","01","02","20:00","-31.3","","-34.8","","72","","","","31","","18","","16.1","","104.63","","","","-44","","Blowing Snow"
"-133.03","69.43","TUKTOYAKTUK A","2203913","2022-01-02 21:00","2022","01","02","21:00","-31.5","","-35.0","","72","","","","30","","17","","16.1","","104.66","","","","-44","","Blowing Snow"
"-133.03","69.43","TUKTOYAKTUK A","2203913","2022-01-02 22:00","2022","01","02","22:00","-30.8","","-34.3","","72","","","","31","","17","","16.1","","104.68","","","","-43","","Blowing Snow"
"-133.03","69.43","TUKTOYAKTUK A","2203913","2022-01-02 23:00","2022","01","02","23:00","-31.7","","-35.2","","71","","","","30","","13","","16.1","","104.72","","","","-43","","Mainly Clear"
"-133.03","69.43","TUKTOYAKTUK A","2203913","2022-01-03 00:00","2022","01","03","00:00"
"-133.03","69.43","TUKTOYAKTUK A","2203913","2022-01-03 01:00","2022","01","03","01:00"
"-133.03","69.43","TUKTOYAKTUK A","2203913","2022-01-03 02:00","2022","01","03","02:00"
"-133.03","69.43","TUKTOYAKTUK A","2203913","2022-01-03 03:00","2022","01","03","03:00"
"-133.03","69.43","TUKTOYAKTUK A","2203913","2022-01-03 04:00","2022","01","03","04:00"
"-133.03","69.43","TUKTOYAKTUK A","2203913","2022-01-03 05:00","2022","01","03","05:00"
"-133.03","69.43","TUKTOYAKTUK A","2203913","2022-01-03 06:00","2022","01","03","06:00"
"-133.03","69.43","TUKTOYAKTUK A","2203913","2022-01-03 07:00","2022","01","03","07:00","-32.0","","-35.6","","71","","","","30","","12","","24.1","","104.83","","","","-43","","NA"
"-133.03","69.43","TUKTOYAKTUK A","2203913","2022-01-03 08:00","2022","01","03","08:00","-32.1","","-35.7","","71","","","","28","","12","","24.1","","104.88","","","","-43","","Mainly Clear"
"-133.03","69.43","TUKTOYAKTUK A","2203913","2022-01-03 09:00","2022","01","03","09:00","-30.3","","-33.8","","73","","","","29","","13","","24.1","","104.90","","","","-41","","NA"
"-133.03","69.43","TUKTOYAKTUK A","2203913","2022-01-03 10:00","2022","01","03","10:00","-29.0","","-32.4","","73","","","","31","","12","","16.1","","104.89","","","","-39","","Snow"
"-133.03","69.43","TUKTOYAKTUK A","2203913","2022-01-03 11:00","2022","01","03","11:00","-29.6","","-33.0","","73","","","","31","","16","","24.1","","104.91","","","","-41","","Mainly Clear"
"-133.03","69.43","TUKTOYAKTUK A","2203913","2022-01-03 12:00","2022","01","03","12:00","-30.5","","-34.0","","72","","","","30","","17","","16.1","","104.94","","","","-43","","NA"
"-133.03","69.43","TUKTOYAKTUK A","2203913","2022-01-03 13:00","2022","01","03","13:00","-30.8","","-34.2","","72","","","","30","","16","","16.1","","104.93","","","","-43","","NA"
"-133.03","69.43","TUKTOYAKTUK A","2203913","2022-01-03 14:00","2022","01","03","14:00","-31.6","","-35.1","","72","","","","29","","12","","24.1","","104.95","","","","-42","","Clear"
"-133.03","69.43","TUKTOYAKTUK A","2203913","2022-01-03 15:00","2022","01","03","15:00","-29.4","","-32.8","","73","","","","29","","16","","16.1","","104.98","","","","-41","","NA"
"-133.03","69.43","TUKTOYAKTUK A","2203913","2022-01-03 16:00","2022","01","03","16:00","-28.3","","-31.7","","74","","","","30","","17","","16.1","","104.97","","","","-40","","NA"
"-133.03","69.43","TUKTOYAKTUK A","2203913","2022-01-03 17:00","2022","01","03","17:00","-28.5","","-31.9","","74","","","","29","","17","","16.1","","104.96","","","","-40","","Mostly Cloudy"
"-133.03","69.43","TUKTOYAKTUK A","2203913","2022-01-03 18:00","2022","01","03","18:00","-28.4","","-31.7","","74","","","","30","","19","","12.9","","104.96","","","","-41","","NA"
"-133.03","69.43","TUKTOYAKTUK A","2203913","2022-01-03 19:00","2022","01","03","19:00","-28.2","","-31.5","","74","","","","31","","16","","12.9","","104.96","","","","-40","","NA"
"-133.03","69.43","TUKTOYAKTUK A","2203913","2022-01-03 20:00","2022","01","03","20:00","-26.6","","-29.8","","75","","","","33","","18","","12.9","","104.94","","","","-38","","Mostly Cloudy"
"-133.03","69.43","TUKTOYAKTUK A","2203913","2022-01-03 21:00","2022","01","03","21:00","-26.8","","-30.0","","75","","","","30","","19","","16.1","","104.96","","","","-39","","NA"
"-133.03","69.43","TUKTOYAKTUK A","2203913","2022-01-03 22:00","2022","01","03","22:00","-27.1","","-30.3","","75","","","","30","","17","","16.1","","104.96","","","","-39","","NA"
"-133.03","69.43","TUKTOYAKTUK A","2203913","2022-01-03 23:00","2022","01","03","23:00","-27.1","","-30.3","","75","","","","31","","16","","16.1","","104.95","","","","-38","","Mostly Cloudy"
"-133.03","69.43","TUKTOYAKTUK A","2203913","2022-01-04 00:00","2022","01","04","00:00"
"-133.03","69.43","TUKTOYAKTUK A","2203913","2022-01-04 01:00","2022","01","04","01:00"
"-133.03","69.43","TUKTOYAKTUK A","2203913","2022-01-04 02:00","2022","01","04","02:00"
"-133.03","69.43","TUKTOYAKTUK A","2203913","2022-01-04 03:00","2022","01","04","03:00"
"-133.03","69.43","TUKTOYAKTUK A","2203913","2022-01-04 04:00","2022","01","04","04:00"
"-133.03","69.43","TUKTOYAKTUK A","2203913","2022-01-04 05:00","2022","01","04","05:00"
"-133.03","69.43","TUKTOYAKTUK A","2203913","2022-01-04 06:00","2022","01","04","06:00"
"-133.03","69.43","TUKTOYAKTUK A","2203913","2022-01-04 07:00","2022","01","04","07:00","-28.1","","-31.4","","74","","","","28","","15","","16.1","","104.85","","","","-39","","NA"
"-133.03","69.43","TUKTOYAKTUK A","2203913","2022-01-04 08:00","2022","01","04","08:00","-28.1","","-31.4","","74","","","","26","","18","","16.1","","104.82","","","","-40","","Mostly Cloudy"
"-133.03","69.43","TUKTOYAKTUK A","2203913","2022-01-04 09:00","2022","01","04","09:00","-28.1","","-31.4","","74","","","","26","","17","","16.1","","104.79","","","","-40","","Snow"
"-133.03","69.43","TUKTOYAKTUK A","2203913","2022-01-04 10:00","2022","01","04","10:00","-28.4","","-31.8","","74","","","","27","","14","","16.1","","104.76","","","","-39","","Snow"
"-133.03","69.43","TUKTOYAKTUK A","2203913","2022-01-04 11:00","2022","01","04","11:00","-28.9","","-32.2","","73","","","","23","","13","","16.1","","104.71","","","","-39","","Snow"
"-133.03","69.43","TUKTOYAKTUK A","2203913","2022-01-04 12:00","2022","01","04","12:00","-29.9","","-33.3","","73","","","","27","","13","","24.1","","104.67","","","","-40","","Snow"
"-133.03","69.43","TUKTOYAKTUK A","2203913","2022-01-04 13:00","2022","01","04","13:00","-30.4","","-33.9","","73","","","","25","","16","","24.1","","104.60","","","","-42","","NA"
"-133.03","69.43","TUKTOYAKTUK A","2203913","2022-01-04 14:00","2022","01","04","14:00","-31.6","","-35.1","","72","","","","24","","11","","24.1","","104.60","","","","-42","","Mainly Clear"
"-133.03","69.43","TUKTOYAKTUK A","2203913","2022-01-04 15:00","2022","01","04","15:00","-31.4","","-34.9","","72","","","","23","","13","","24.1","","104.56","","","","-42","","NA"
"-133.03","69.43","TUKTOYAKTUK A","2203913","2022-01-04 16:00","2022","01","04","16:00","-31.3","","-34.8","","72","","","","20","","10","","24.1","","104.44","","","","-41","","NA"
"-133.03","69.43","TUKTOYAKTUK A","2203913","2022-01-04 17:00","2022","01","04","17:00","-31.5","","-35.0","","72","","","","20","","12","","24.1","","104.35","","","","-42","","Mainly Clear"
"-133.03","69.43","TUKTOYAKTUK A","2203913","2022-01-04 18:00","2022","01","04","18:00","-30.6","","-34.1","","72","","","","19","","18","","24.1","","104.24","","","","-43","","NA"
"-133.03","69.43","TUKTOYAKTUK A","2203913","2022-01-04 19:00","2022","01","04","19:00","-30.8","","-34.3","","72","","","","19","","19","","24.1","","104.16","","","","-44","","NA"
"-133.03","69.43","TUKTOYAKTUK A","2203913","2022-01-04 20:00","2022","01","04","20:00","-31.0","","-34.5","","72","","","","18","","17","","24.1","","104.05","","","","-43","","Mainly Clear"
"-133.03","69.43","TUKTOYAKTUK A","2203913","2022-01-04 21:00","2022","01","04","21:00","-30.4","","-33.9","","72","","","","19","","16","","24.1","","103.99","","","","-42","","NA"
"-133.03","69.43","TUKTOYAKTUK A","2203913","2022-01-04 22:00","2022","01","04","22:00","-29.6","","-33.0","","73","","","","19","","15","","24.1","","103.89","","","","-41","","NA"
"-133.03","69.43","TUKTOYAKTUK A","2203913","2022-01-04 23:00","2022","01","04","23:00","-29.1","","-32.5","","73","","","","20","","25","","24.1","","103.74","","","","-43","","Mainly Clear"
"-133.03","69.43","TUKTOYAKTUK A","2203913","2022-01-05 00:00","2022","01","05","00:00"
"-133.03","69.43","TUKTOYAKTUK A","2203913","2022-01-05 01:00","2022","01","05","01:00"
"-133.03","69.43","TUKTOYAKTUK A","2203913","2022-01-05 02:00","2022","01","05","02:00"
"-133.03","69.43","TUKTOYAKTUK A","2203913","2022-01-05 03:00","2022","01","05","03:00"
"-133.03","69.43","TUKTOYAKTUK A","2203913","2022-01-05 04:00","2022","01","05","04:00"
"-133.03","69.43","TUKTOYAKTUK A","2203913","2022-01-05 05:00","2022","01","05","05:00"
"-133.03","69.43","TUKTOYAKTUK A","2203913","2022-01-05 06:00","2022","01","05","06:00"
"-133.03","69.43","TUKTOYAKTUK A","2203913","2022-01-05 07:00","2022","01","05","07:00","-22.7","","-25.6","","78","","","","24","","27","","6.4","","102.95","","","","-36","","Snow,Blowing Snow"
"-133.03","69.43","TUKTOYAKTUK A","2203913","2022-01-05 08:00","2022","01","05","08:00","-22.2","","-25.1","","78","","","","24","","28","","16.1","","102.83","","","","-35","","Snow,Blowing Snow"
"-133.03","69.43","TUKTOYAKTUK A","2203913","2022-01-05 09:00","2022","01","05","09:00","-22.3","","-25.2","","78","","","","25","","28","","9.7","","102.69","","","","-35","","Snow,Blowing Snow"
"-133.03","69.43","TUKTOYAKTUK A","2203913","2022-01-05 10:00","2022","01","05","10:00","-21.3","","-24.0","","79","","","","26","","40","","4.8","","102.59","","","","-36","","Snow,Blowing Snow"
"-133.03","69.43","TUKTOYAKTUK A","2203913","2022-01-05 11:00","2022","01","05","11:00","-20.2","","-22.9","","80","","","","26","","42","","1.6","","102.45","","","","-35","","Snow,Blowing Snow"
"-133.03","69.43","TUKTOYAKTUK A","2203913","2022-01-05 12:00","2022","01","05","12:00","-20.1","","-22.7","","80","","","","26","","43","","0.2","","102.31","","","","-35","","Snow,Blowing Snow"
"-133.03","69.43","TUKTOYAKTUK A","2203913","2022-01-05 13:00","2022","01","05","13:00","-18.5","","-20.9","","82","","","","26","","44","","0.2","","102.21","","","","-33","","Snow,Blowing Snow"
"-133.03","69.43","TUKTOYAKTUK A","2203913","2022-01-05 14:00","2022","01","05","14:00","-17.9","","-20.2","","82","","","","26","","32","","0.2","","102.13","","","","-30","","Snow,Blowing Snow"
"-133.03","69.43","TUKTOYAKTUK A","2203913","2022-01-05 15:00","2022","01","05","15:00","-14.8","","-16.7","","85","","","","28","","57","","0.2","","101.94","","","","-29","","Snow,Blowing Snow"
"-133.03","69.43","TUKTOYAKTUK A","2203913","2022-01-05 16:00","2022","01","05","16:00","-14.5","","-16.4","","86","","","","28","","54","","0.2","","101.87","","","","-28","","Snow,Blowing Snow"
"-133.03","69.43","TUKTOYAKTUK A","2203913","2022-01-05 17:00","2022","01","05","17:00","-14.6","","-16.5","","85","","","","28","","54","","0.2","","101.80","","","","-28","","Snow,Blowing Snow"
"-133.03","69.43","TUKTOYAKTUK A","2203913","2022-01-05 18:00","2022","01","05","18:00","-14.6","","-16.5","","86","","","","28","","52","","0.2","","101.69","","","","-28","","Snow,Blowing Snow"
"-133.03","69.43","TUKTOYAKTUK A","2203913","2022-01-05 19:00","2022","01","05","19:00","-14.7","","-16.6","","86","","","","28","","49","","0.2","","101.60","","","","-28","","Snow,Blowing Snow"
"-133.03","69.43","TUKTOYAKTUK A","2203913","2022-01-05 20:00","2022","01","05","20:00","-14.4","","-16.2","","86","","","","29","","54","","0.2","","101.51","","","","-28","","Snow,Blowing Snow"
"-133.03","69.43","TUKTOYAKTUK A","2203913","2022-01-05 21:00","2022","01","05","21:00","-14.0","","-15.8","","86","","","","29","","48","","0.4","","101.50","","","","-27","","Snow,Blowing Snow"
"-133.03","69.43","TUKTOYAKTUK A","2203913","2022-01-05 22:00","2022","01","05","22:00","-12.5","","-14.1","","88","","","","30","","45","","1.6","","101.48","","","","-25","","Snow,Blowing Snow"
"-133.03","69.43","TUKTOYAKTUK A","2203913","2022-01-05 23:00","2022","01","05","23:00","-13.0","","-14.7","","87","","","","31","","34","","1.6","","101.51","","","","-24","","Snow,Blowing Snow"
"-133.03","69.43","TUKTOYAKTUK A","2203913","2022-01-06 00:00","2022","01","06","00:00"
"-133.03","69.43","TUKTOYAKTUK A","2203913","2022-01-06 01:00","2022","01","06","01:00"
"-133.03","69.43","TUKTOYAKTUK A","2203913","2022-01-06 02:00","2022","01","06","02:00"
"-133.03","69.43","TUKTOYAKTUK A","2203913","2022-01-06 03:00","2022","01","06","03:00"
"-133.03","69.43","TUKTOYAKTUK A","2203913","2022-01-06 04:00","2022","01","06","04:00"
"-133.03","69.43","TUKTOYAKTUK A","2203913","2022-01-06 05:00","2022","01","06","05:00"
"-133.03","69.43","TUKTOYAKTUK A","2203913","2022-01-06 06:00","2022","01","06","06:00"
"-133.03","69.43","TUKTOYAKTUK A","2203913","2022-01-06 07:00","2022","01","06","07:00","-22.9","","-25.7","","78","","","","30","","28","","3.2","","101.61","","","","-36","","Snow,Blowing Snow"
"-133.03","69.43","TUKTOYAKTUK A","2203913","2022-01-06 08:00","2022","01","06","08:00","-22.1","","-24.9","","79","","","","31","","42","","1.2","","101.59","","","","-37","","Snow,Blowing Snow"
"-133.03","69.43","TUKTOYAKTUK A","2203913","2022-01-06 09:00","2022","01","06","09:00","-21.8","","-24.6","","78","","","","32","","37","","1.2","","101.60","","","","-36","","Snow,Blowing Snow"
"-133.03","69.43","TUKTOYAKTUK A","2203913","2022-01-06 10:00","2022","01","06","10:00","-21.8","","-24.6","","78","","","","31","","41","","1.6","","101.58","","","","-37","","Snow,Blowing Snow"
"-133.03","69.43","TUKTOYAKTUK A","2203913","2022-01-06 11:00","2022","01","06","11:00","-22.1","","-25.0","","78","","","","31","","41","","1.6","","101.54","","","","-37","","Snow,Blowing Snow"
"-133.03","69.43","TUKTOYAKTUK A","2203913","2022-01-06 12:00","2022","01","06","12:00","-22.7","","-25.6","","78","","","","31","","40","","0.8","","101.55","","","","-38","","Snow,Blowing Snow"
"-133.03","69.43","TUKTOYAKTUK A","2203913","2022-01-06 13:00","2022","01","06","13:00","-22.8","","-25.7","","78","","","","31","","42","","0.4","","101.55","","","","-38","","Snow,Blowing Snow"
"-133.03","69.43","TUKTOYAKTUK A","2203913","2022-01-06 14:00","2022","01","06","14:00","-22.7","","-25.6","","78","","","","30","","48","","0.4","","101.52","","","","-39","","Snow,Blowing Snow"
"-133.03","69.43","TUKTOYAKTUK A","2203913","2022-01-06 15:00","2022","01","06","15:00","-22.3","","-25.1","","78","","","","31","","45","","0.2","","101.47","","","","-38","","Snow,Blowing Snow"
"-133.03","69.43","TUKTOYAKTUK A","2203913","2022-01-06 16:00","2022","01","06","16:00","-21.8","","-24.6","","79","","","","32","","51","","0.4","","101.46","","","","-38","","Snow,Blowing Snow"
"-133.03","69.43","TUKTOYAKTUK A","2203913","2022-01-06 17:00","2022","01","06","17:00","-22.0","","-24.9","","78","","","","32","","58","","0.2","","101.43","","","","-39","","Snow,Blowing Snow"
"-133.03","69.43","TUKTOYAKTUK A","2203913","2022-01-06 18:00","2022","01","06","18:00","-22.1","","-24.9","","78","","","","32","","49","","0.4","","101.41","","","","-38","","Snow,Blowing Snow"
"-133.03","69.43","TUKTOYAKTUK A","2203913","2022-01-06 19:00","2022","01","06","19:00","-22.1","","-24.9","","78","","","","33","","43","","0.8","","101.37","","","","-37","","Snow,Blowing Snow"
"-133.03","69.43","TUKTOYAKTUK A","2203913","2022-01-06 20:00","2022","01","06","20:00","-22.6","","-25.5","","78","","","","33","","46","","1.2","","101.35","","","","-38","","Snow,Blowing Snow"
"-133.03","69.43","TUKTOYAKTUK A","2203913","2022-01-06 21:00","2022","01","06","21:00","-22.9","","-25.9","","77","","","","33","","42","","1.2","","101.36","","","","-38","","Snow,Blowing Snow"
"-133.03","69.43","TUKTOYAKTUK A","2203913","2022-01-06 22:00","2022","01","06","22:00","-23.0","","-26.0","","77","","","","33","","35","","1.2","","101.37","","","","-37","","Snow,Blowing Snow"
"-133.03","69.43","TUKTOYAKTUK A","2203913","2022-01-06 23:00","2022","01","06","23:00","-23.1","","-26.1","","77","","","","33","","48","","1.2","","101.35","","","","-39","","Snow,Blowing Snow"
"-133.03","69.43","TUKTOYAKTUK A","2203913","2022-01-07 00:00","2022","01","07","00:00"
"-133.03","69.43","TUKTOYAKTUK A","2203913","2022-01-07 01:00","2022","01","07","01:00"
"-133.03","69.43","TUKTOYAKTUK A","2203913","2022-01-07 02:00","2022","01","07","02:00"
"-133.03","69.43","TUKTOYAKTUK A","2203913","2022-01-07 03:00","2022","01","07","03:00"
"-133.03","69.43","TUKTOYAKTUK A","2203913","2022-01-07 04:00","2022","01","07","04:00"
"-133.03","69.43","TUKTOYAKTUK A","2203913","2022-01-07 05:00","2022","01","07","05:00"
"-133.03","69.43","TUKTOYAKTUK A","2203913","2022-01-07 06:00","2022","01","07","06:00"
"-133.03","69.43","TUKTOYAKTUK A","2203913","2022-01-07 07:00","2022","01","07","07:00","-24.4","","-27.5","","76","","","","32","","48","","1.2","","101.38","","","","-41","","Snow,Blowing Snow"
"-133.03","69.43","TUKTOYAKTUK A","2203913","2022-01-07 08:00","2022","01","07","08:00","-24.7","","-27.8","","76","","","","32","","45","","1.2","","101.44","","","","-41","","Snow,Blowing Snow"
"-133.03","69.43","TUKTOYAKTUK A","2203913","2022-01-07 09:00","2022","01","07","09:00","-25.0","","-28.3","","75","","","","34","","38","","1.2","","101.48","","","","-41","","Snow,Blowing Snow"
"-133.03","69.43","TUKTOYAKTUK A","2203913","2022-01-07 10:00","2022","01","07","10:00","-24.9","","-28.1","","75","","","","34","","36","","1.2","","101.52","","","","-40","","Snow,Blowing Snow"
"-133.03","69.43","TUKTOYAKTUK A","2203913","2022-01-07 11:00","2022","01","07","11:00","-24.9","","-28.2","","75","","","","34","","39","","1.2","","101.54","","","","-41","","Snow,Blowing Snow"
"-133.03","69.43","TUKTOYAKTUK A","2203913","2022-01-07 12:00","2022","01","07","12:00","-23.8","","-26.9","","76","","","","34","","36","","1.6","","101.63","","","","-39","","Snow,Blowing Snow"
"-133.03","69.43","TUKTOYAKTUK A","2203913","2022-01-07 13:00","2022","01","07","13:00","-23.6","","-26.7","","76","","","","34","","45","","0.2","","101.71","","","","-40","","Snow,Blowing Snow"
"-133.03","69.43","TUKTOYAKTUK A","2203913","2022-01-07 14:00","2022","01","07","14:00","-24.0","","-27.0","","77","","","","33","","49","","0.2","","101.76","","","","-41","","Snow,Blowing Snow"
"-133.03","69.43","TUKTOYAKTUK A","2203913","2022-01-07 15:00","2022","01","07","15:00","-24.4","","-27.4","","76","","","","33","","49","","0.4","","101.80","","","","-41","","Snow,Blowing Snow"
"-133.03","69.43","TUKTOYAKTUK A","2203913","2022-01-07 16:00","2022","01","07","16:00","-24.2","","-27.3","","76","","","","32","","46","","0.4","","101.85","","","","-41","","Snow,Blowing Snow"
"-133.03","69.43","TUKTOYAKTUK A","2203913","2022-01-07 17:00","2022","01","07","17:00","-24.4","","-27.4","","76","","","","32","","47","","0.4","","101.88","","","","-41","","Snow,Blowing Snow"
"-133.03","69.43","TUKTOYAKTUK A","2203913","2022-01-07 18:00","2022","01","07","18:00","-24.1","","-27.1","","76","","","","33","","44","","0.4","","101.90","","","","-40","","Snow,Blowing Snow"
"-133.03","69.43","TUKTOYAKTUK A","2203913","2022-01-07 19:00","2022","01","07","19:00","-24.0","","-27.1","","76","","","","33","","44","","0.4","","101.92","","","","-40","","Snow,Blowing Snow"
"-133.03","69.43","TUKTOYAKTUK A","2203913","2022-01-07 20:00","2022","01","07","20:00","-24.1","","-27.2","","76","","","","32","","45","","0.4","","101.92","","","","-40","","Snow,Blowing Snow"
"-133.03","69.43","TUKTOYAKTUK A","2203913","2022-01-07 21:00","2022","01","07","21:00","-24.3","","-27.5","","76","","","","32","","48","","0.4","","101.99","","","","-41","","Snow,Blowing Snow"
"-133.03","69.43","TUKTOYAKTUK A","2203913","2022-01-07 22:00","2022","01","07","22:00","-24.8","","-27.9","","76","","","","33","","47","","0.4","","102.01","","","","-42","","Snow,Blowing Snow"
"-133.03","69.43","TUKTOYAKTUK A","2203913","2022-01-07 23:00","2022","01","07","23:00","-25.1","","-28.2","","76","","","","33","","37","","0.4","","102.01","","","","-40","","Snow,Blowing Snow"
"-133.03","69.43","TUKTOYAKTUK A","2203913","2022-01-08 00:00","2022","01","08","00:00"
"-133.03","69.43","TUKTOYAKTUK A","2203913","2022-01-08 01:00","2022","01","08","01:00"
"-133.03","69.43","TUKTOYAKTUK A","2203913","2022-01-08 02:00","2022","01","08","02:00"
"-133.03","69.43","TUKTOYAKTUK A","2203913","2022-01-08 03:00","2022","01","08","03:00"
"-133.03","69.43","TUKTOYAKTUK A","2203913","2022-01-08 04:00","2022","01","08","04:00"
"-133.03","69.43","TUKTOYAKTUK A","2203913","2022-01-08 05:00","2022","01","08","05:00"
"-133.03","69.43","TUKTOYAKTUK A","2203913","2022-01-08 06:00","2022","01","08","06:00"
"-133.03","69.43","TUKTOYAKTUK A","2203913","2022-01-08 07:00","2022","01","08","07:00","-26.8","","-30.1","","74","","","","32","","37","","2.8","","102.36","","","","-43","","Snow,Blowing Snow"
"-133.03","69.43","TUKTOYAKTUK A","2203913","2022-01-08 08:00","2022","01","08","08:00","-27.0","","-30.4","","74","","","","32","","36","","2.4","","102.38","","","","-43","","Snow,Blowing Snow"
"-133.03","69.43","TUKTOYAKTUK A","2203913","2022-01-08 09:00","2022","01","08","09:00","-27.3","","-30.6","","74","","","","32","","37","","2.8","","102.35","","","","-43","","Snow,Blowing Snow"
"-133.03","69.43","TUKTOYAKTUK A","2203913","2022-01-08 10:00","2022","01","08","10:00","-27.2","","-30.6","","74","","","","32","","41","","2.4","","102.38","","","","-44","","Snow,Blowing Snow"
"-133.03","69.43","TUKTOYAKTUK A","2203913","2022-01-08 11:00","2022","01","08","11:00","-27.4","","-30.8","","74","","","","32","","35","","2.8","","102.45","","","","-43","","Snow,Blowing Snow"
"-133.03","69.43","TUKTOYAKTUK A","2203913","2022-01-08 12:00","2022","01","08","12:00","-27.4","","-30.7","","74","","","","32","","39","","2.4","","102.49","","","","-44","","Snow,Blowing Snow"
"-133.03","69.43","TUKTOYAKTUK A","2203913","2022-01-08 13:00","2022","01","08","13:00","-27.7","","-31.1","","74","","","","32","","33","","2.4","","102.52","","","","-43","","Snow,Blowing Snow"
"-133.03","69.43","TUKTOYAKTUK A","2203913","2022-01-08 14:00","2022","01","08","14:00","-28.1","","-31.5","","73","","","","32","","30","","3.2","","102.58","","","","-43","","Blowing Snow"
"-133.03","69.43","TUKTOYAKTUK A","2203913","2022-01-08 15:00","2022","01","08","15:00","-28.3","","-31.7","","73","","","","32","","31","","4.8","","102.63","","","","-44","","Blowing Snow"
"-133.03","69.43","TUKTOYAKTUK A","2203913","2022-01-08 16:00","2022","01","08","16:00","-28.5","","-31.9","","73","","","","32","","27","","6.4","","102.72","","","","-43","","Blowing Snow"
"-133.03","69.43","TUKTOYAKTUK A","2203913","2022-01-08 17:00","2022","01","08","17:00","-28.9","","-32.4","","73","","","","31","","25","","6.4","","102.75","","","","-43","","Blowing Snow"
"-133.03","69.43","TUKTOYAKTUK A","2203913","2022-01-08 18:00","2022","01","08","18:00","-29.1","","-32.5","","73","","","","31","","27","","12.9","","102.76","","","","-44","","Blowing Snow"
"-133.03","69.43","TUKTOYAKTUK A","2203913","2022-01-08 19:00","2022","01","08","19:00","-28.8","","-32.2","","73","","","","32","","28","","16.1","","102.78","","","","-44","","Blowing Snow"
"-133.03","69.43","TUKTOYAKTUK A","2203913","2022-01-08 20:00","2022","01","08","20:00","-28.9","","-32.3","","73","","","","32","","25","","16.1","","102.83","","","","-43","","Blowing Snow"
"-133.03","69.43","TUKTOYAKTUK A","2203913","2022-01-08 21:00","2022","01","08","21:00","-28.9","","-32.3","","73","","","","32","","27","","24.1","","102.85","","","","-44","","NA"
"-133.03","69.43","TUKTOYAKTUK A","2203913","2022-01-08 22:00","2022","01","08","22:00","-28.8","","-32.2","","73","","","","31","","23","","24.1","","102.92","","","","-42","","NA"
"-133.03","69.43","TUKTOYAKTUK A","2203913","2022-01-08 23:00","2022","01","08","23:00","-28.9","","-32.3","","73","","","","31","","23","","16.1","","102.95","","","","-43","","Blowing Snow"
"-133.03","69.43","TUKTOYAKTUK A","2203913","2022-01-09 00:00","2022","01","09","00:00"
"-133.03","69.43","TUKTOYAKTUK A","2203913","2022-01-09 01:00","2022","01","09","01:00"
"-133.03","69.43","TUKTOYAKTUK A","2203913","2022-01-09 02:00","2022","01","09","02:00"
"-133.03","69.43","TUKTOYAKTUK A","2203913","2022-01-09 03:00","2022","01","09","03:00","-29.1","","-32.5","","73","","","","31","","21","","16.1","","103.09","","","","-42","","NA"
"-133.03","69.43","TUKTOYAKTUK A","2203913","2022-01-09 04:00","2022","01","09","04:00","-29.3","","-32.8","","73","","","","31","","21","","16.1","","103.12","","","","-43","","NA"
"-133.03","69.43","TUKTOYAKTUK A","2203913","2022-01-09 05:00","2022","01","09","05:00","-29.7","","-33.1","","73","","","","30","","20","","12.9","","103.14","","","","-43","","Ice Crystals"
"-133.03","69.43","TUKTOYAKTUK A","2203913","2022-01-09 06:00","2022","01","09","06:00","-29.9","","-33.4","","73","","","","30","","19","","12.9","","103.13","","","","-43","","Ice Crystals"
"-133.03","69.43","TUKTOYAKTUK A","2203913","2022-01-09 07:00","2022","01","09","07:00","-30.3","","-33.7","","73","","","","28","","18","","12.9","","103.16","","","","-43","","Ice Crystals"
"-133.03","69.43","TUKTOYAKTUK A","2203913","2022-01-09 08:00","2022","01","09","08:00","-30.1","","-33.5","","73","","","","29","","21","","16.1","","103.13","","","","-44","","Ice Crystals"
"-133.03","69.43","TUKTOYAKTUK A","2203913","2022-01-09 09:00","2022","01","09","09:00","-28.7","","-32.1","","73","","","","30","","23","","12.9","","103.15","","","","-42","","Ice Crystals"
"-133.03","69.43","TUKTOYAKTUK A","2203913","2022-01-09 10:00","2022","01","09","10:00","-28.3","","-31.7","","73","","","","29","","23","","9.7","","103.12","","","","-42","","Snow"
"-133.03","69.43","TUKTOYAKTUK A","2203913","2022-01-09 11:00","2022","01","09","11:00","-29.4","","-32.9","","73","","","","29","","20","","16.1","","103.12","","","","-42","","Mostly Cloudy"
"-133.03","69.43","TUKTOYAKTUK A","2203913","2022-01-09 12:00","2022","01","09","12:00","-29.9","","-33.4","","73","","","","30","","21","","16.1","","103.09","","","","-43","","NA"
"-133.03","69.43","TUKTOYAKTUK A","2203913","2022-01-09 13:00","2022","01","09","13:00","-30.4","","-33.9","","72","","","","28","","18","","24.1","","103.05","","","","-43","","NA"
"-133.03","69.43","TUKTOYAKTUK A","2203913","2022-01-09 14:00","2022","01","09","14:00","-30.7","","-34.1","","72","","","","28","","16","","16.1","","103.02","","","","-43","","Mainly Clear"
"-133.03","69.43","TUKTOYAKTUK A","2203913","2022-01-09 15:00","2022","01","09","15:00","-31.3","","-34.7","","72","","","","26","","16","","24.1","","102.92","","","","-43","","NA"
"-133.03","69.43","TUKTOYAKTUK A","2203913","2022-01-09 16:00","2022","01","09","16:00","-31.2","","-34.6","","72","","","","26","","15","","24.1","","102.86","","","","-43","","NA"
"-133.03","69.43","TUKTOYAKTUK A","2203913","2022-01-09 17:00","2022","01","09","17:00","-31.8","","-35.3","","72","","","","24","","14","","24.1","","102.82","","","","-43","","Mainly Clear"
"-133.03","69.43","TUKTOYAKTUK A","2203913","2022-01-09 18:00","2022","01","09","18:00","-32.1","","-35.6","","72","","","","26","","16","","24.1","","102.75","","","","-44","","NA"
"-133.03","69.43","TUKTOYAKTUK A","2203913","2022-01-09 19:00","2022","01","09","19:00","-31.4","","-34.9","","72","","","","25","","16","","16.1","","102.70","","","","-44","","NA"
"-133.03","69.43","TUKTOYAKTUK A","2203913","2022-01-09 20:00","2022","01","09","20:00","-32.1","","-35.7","","71","","","","27","","16","","6.4","","102.63","","","","-44","","Snow"
"-133.03","69.43","TUKTOYAKTUK A","2203913","2022-01-09 21:00","2022","01","09","21:00","-32.3","","-35.8","","72","","","","27","","13","","16.1","","102.54","","","","-43","","Snow"
"-133.03","69.43","TUKTOYAKTUK A","2203913","2022-01-09 22:00","2022","01","09","22:00","-33.0","","-36.5","","71","","","","25","","14","","16.1","","102.50","","","","-45","","NA"
"-133.03","69.43","TUKTOYAKTUK A","2203913","2022-01-09 23:00","2022","01","09","23:00","-32.9","","-36.4","","72","","","","28","","12","","24.1","","102.42","","","","-44","","Clear"
"-133.03","69.43","TUKTOYAKTUK A","2203913","2022-01-10 00:00","2022","01","10","00:00"
"-133.03","69.43","TUKTOYAKTUK A","2203913","2022-01-10 01:00","2022","01","10","01:00"
"-133.03","69.43","TUKTOYAKTUK A","2203913","2022-01-10 02:00","2022","01","10","02:00"
"-133.03","69.43","TUKTOYAKTUK A","2203913","2022-01-10 03:00","2022","01","10","03:00"
"-133.03","69.43","TUKTOYAKTUK A","2203913","2022-01-10 04:00","2022","01","10","04:00"
"-133.03","69.43","TUKTOYAKTUK A","2203913","2022-01-10 05:00","2022","01","10","05:00"
"-133.03","69.43","TUKTOYAKTUK A","2203913","2022-01-10 06:00","2022","01","10","06:00"
"-133.03","69.43","TUKTOYAKTUK A","2203913","2022-01-10 07:00","2022","01","10","07:00","-31.6","","-34.9","","74","","","","27","","20","","12.9","","102.17","","","","-45","","Snow"
"-133.03","69.43","TUKTOYAKTUK A","2203913","2022-01-10 08:00","2022","01","10","08:00","-31.1","","-34.5","","73","","","","26","","17","","12.9","","102.14","","","","-44","","Snow"
"-133.03","69.43","TUKTOYAKTUK A","2203913","2022-01-10 09:00","2022","01","10","09:00","-31.5","","-34.9","","73","","","","27","","16","","16.1","","102.09","","","","-44","","Snow"
"-133.03","69.43","TUKTOYAKTUK A","2203913","2022-01-10 10:00","2022","01","10","10:00","-31.5","","-35.0","","72","","","","26","","17","","16.1","","102.10","","","","-44","","Snow"
"-133.03","69.43","TUKTOYAKTUK A","2203913","2022-01-10 11:00","2022","01","10","11:00","-32.1","","-35.7","","71","","","","25","","11","","16.1","","102.09","","","","-42","","Mainly Clear"
"-133.03","69.43","TUKTOYAKTUK A","2203913","2022-01-10 12:00","2022","01","10","12:00","-32.2","","-35.8","","71","","","","25","","17","","24.1","","102.09","","","","-45","","NA"
"-133.03","69.43","TUKTOYAKTUK A","2203913","2022-01-10 13:00","2022","01","10","13:00","-31.5","","-35.0","","72","","","","26","","16","","24.1","","102.07","","","","-44","","NA"
"-133.03","69.43","TUKTOYAKTUK A","2203913","2022-01-10 14:00","2022","01","10","14:00","-31.2","","-34.7","","72","","","","27","","13","","24.1","","102.06","","","","-42","","Mainly Clear"
"-133.03","69.43","TUKTOYAKTUK A","2203913","2022-01-10 15:00","2022","01","10","15:00","-32.0","","-35.6","","71","","","","24","","9","","24.1","","102.01","","","","-41","","NA"
"-133.03","69.43","TUKTOYAKTUK A","2203913","2022-01-10 16:00","2022","01","10","16:00","-33.2","","-36.9","","71","","","","20","","11","","24.1","","101.98","","","","-44","","NA"
"-133.03","69.43","TUKTOYAKTUK A","2203913","2022-01-10 17:00","2022","01","10","17:00","-33.2","","-36.8","","71","","","","18","","10","","24.1","","101.94","","","","-43","","Clear"
"-133.03","69.43","TUKTOYAKTUK A","2203913","2022-01-10 18:00","2022","01","10","18:00","-33.4","","-37.0","","71","","","","18","","7","","24.1","","101.89","","","","-41","","NA"
"-133.03","69.43","TUKTOYAKTUK A","2203913","2022-01-10 19:00","2022","01","10","19:00","-33.1","","-36.7","","71","","","","17","","9","","24.1","","101.83","","","","-42","","NA"
"-133.03","69.43","TUKTOYAKTUK A","2203913","2022-01-10 20:00","2022","01","10","20:00","-32.8","","-36.4","","71","","","","17","","14","","24.1","","101.79","","","","-44","","Clear"
"-133.03","69.43","TUKTOYAKTUK A","2203913","2022-01-10 21:00","2022","01","10","21:00","-32.3","","-35.8","","72","","","","16","","15","","24.1","","101.75","","","","-44","","NA"
"-133.03","69.43","TUKTOYAKTUK A","2203913","2022-01-10 22:00","2022","01","10","22:00","-32.2","","-35.7","","72","","","","16","","14","","24.1","","101.67","","","","-44","","NA"
"-133.03","69.43","TUKTOYAKTUK A","2203913","2022-01-10 23:00","2022","01","10","23:00","-32.0","","-35.4","","72","","","","15","","12","","24.1","","101.62","","","","-43","","Clear"
"-133.03","69.43","TUKTOYAKTUK A","2203913","2022-01-11 00:00","2022","01","11","00:00"
"-133.03","69.43","TUKTOYAKTUK A","2203913","2022-01-11 01:00","2022","01","11","01:00"
"-133.03","69.43","TUKTOYAKTUK A","2203913","2022-01-11 02:00","2022","01","11","02:00"
"-133.03","69.43","TUKTOYAKTUK A","2203913","2022-01-11 03:00","2022","01","11","03:00"
"-133.03","69.43","TUKTOYAKTUK A","2203913","2022-01-11 04:00","2022","01","11","04:00"
"-133.03","69.43","TUKTOYAKTUK A","2203913","2022-01-11 05:00","2022","01","11","05:00"
"-133.03","69.43","TUKTOYAKTUK A","2203913","2022-01-11 06:00","2022","01","11","06:00"
"-133.03","69.43","TUKTOYAKTUK A","2203913","2022-01-11 07:00","2022","01","11","07:00","-30.1","","-33.6","","72","","","","15","","23","","24.1","","100.99","","","","-44","","NA"
"-133.03","69.43","TUKTOYAKTUK A","2203913","2022-01-11 08:00","2022","01","11","08:00","-29.6","","-33.0","","73","","","","15","","26","","24.1","","100.89","","","","-44","","Mainly Clear"
"-133.03","69.43","TUKTOYAKTUK A","2203913","2022-01-11 09:00","2022","01","11","09:00","-29.4","","-32.9","","73","","","","15","","23","","24.1","","100.79","","","","-43","","NA"
"-133.03","69.43","TUKTOYAKTUK A","2203913","2022-01-11 10:00","2022","01","11","10:00","-29.6","","-33.0","","73","","","","15","","26","","24.1","","100.71","","","","-44","","NA"
"-133.03","69.43","TUKTOYAKTUK A","2203913","2022-01-11 11:00","2022","01","11","11:00","-29.7","","-33.2","","72","","","","16","","23","","24.1","","100.64","","","","-44","","Mainly Clear"
"-133.03","69.43","TUKTOYAKTUK A","2203913","2022-01-11 12:00","2022","01","11","12:00","-30.1","","-33.6","","72","","","","14","","19","","24.1","","100.58","","","","-43","","NA"
"-133.03","69.43","TUKTOYAKTUK A","2203913","2022-01-11 13:00","2022","01","11","13:00","-30.0","","-33.5","","72","","","","14","","18","","24.1","","100.55","","","","-42","","NA"
"-133.03","69.43","TUKTOYAKTUK A","2203913","2022-01-11 14:00","2022","01","11","14:00","-29.7","","-33.1","","72","","","","15","","21","","24.1","","100.47","","","","-43","","Mainly Clear"
"-133.03","69.43","TUKTOYAKTUK A","2203913","2022-01-11 15:00","2022","01","11","15:00","-29.4","","-33.0","","72","","","","14","","15","","24.1","","100.46","","","","-41","","NA"
"-133.03","69.43","TUKTOYAKTUK A","2203913","2022-01-11 16:00","2022","01","11","16:00","-29.6","","-33.2","","72","","","","13","","13","","24.1","","100.41","","","","-40","","NA"
"-133.03","69.43","TUKTOYAKTUK A","2203913","2022-01-11 17:00","2022","01","11","17:00","-28.5","","-32.1","","72","","","","16","","13","","24.1","","100.40","","","","-39","","Mostly Cloudy"
"-133.03","69.43","TUKTOYAKTUK A","2203913","2022-01-11 18:00","2022","01","11","18:00","-28.2","","-31.8","","72","","","","19","","14","","24.1","","100.34","","","","-39","","NA"
"-133.03","69.43","TUKTOYAKTUK A","2203913","2022-01-11 19:00","2022","01","11","19:00","-27.8","","-31.5","","72","","","","19","","10","","24.1","","100.29","","","","-37","","NA"
"-133.03","69.43","TUKTOYAKTUK A","2203913","2022-01-11 20:00","2022","01","11","20:00","-27.3","","-31.0","","71","","","","22","","13","","24.1","","100.29","","","","-37","","Mostly Cloudy"
"-133.03","69.43","TUKTOYAKTUK A","2203913","2022-01-11 21:00","2022","01","11","21:00","-27.3","","-31.1","","71","","","","26","","17","","24.1","","100.29","","","","-39","","NA"
"-133.03","69.43","TUKTOYAKTUK A","2203913","2022-01-11 22:00","2022","01","11","22:00","-27.0","","-30.6","","72","","","","29","","17","","24.1","","100.25","","","","-38","","NA"
"-133.03","69.43","TUKTOYAKTUK A","2203913","2022-01-11 23:00","2022","01","11","23:00","-27.4","","-31.0","","72","","","","30","","27","","16.1","","100.28","","","","-42","","Snow"
"-133.03","69.43","TUKTOYAKTUK A","2203913","2022-01-12 00:00","2022","01","12","00:00"
"-133.03","69.43","TUKTOYAKTUK A","2203913","2022-01-12 01:00","2022","01","12","01:00"
"-133.03","69.43","TUKTOYAKTUK A","2203913","2022-01-12 02:00","2022","01","12","02:00"
"-133.03","69.43","TUKTOYAKTUK A","2203913","2022-01-12 03:00","2022","01","12","03:00"
"-133.03","69.43","TUKTOYAKTUK A","2203913","2022-01-12 04:00","2022","01","12","04:00"
"-133.03","69.43","TUKTOYAKTUK A","2203913","2022-01-12 05:00","2022","01","12","05:00"
"-133.03","69.43","TUKTOYAKTUK A","2203913","2022-01-12 06:00","2022","01","12","06:00"
"-133.03","69.43","TUKTOYAKTUK A","2203913","2022-01-12 07:00","2022","01","12","07:00","-26.9","","-30.5","","72","","","","29","","32","","16.1","","100.62","","","","-42","","Blowing Snow"
"-133.03","69.43","TUKTOYAKTUK A","2203913","2022-01-12 08:00","2022","01","12","08:00","-27.0","","-30.6","","72","","","","29","","36","","12.9","","100.66","","","","-43","","Blowing Snow"
"-133.03","69.43","TUKTOYAKTUK A","2203913","2022-01-12 09:00","2022","01","12","09:00","-27.0","","-30.6","","72","","","","29","","33","","12.9","","100.70","","","","-42","","Blowing Snow"
"-133.03","69.43","TUKTOYAKTUK A","2203913","2022-01-12 10:00","2022","01","12","10:00","-27.1","","-30.6","","73","","","","29","","30","","16.1","","100.79","","","","-42","","Blowing Snow"
"-133.03","69.43","TUKTOYAKTUK A","2203913","2022-01-12 11:00","2022","01","12","11:00","-27.1","","-30.6","","73","","","","29","","28","","24.1","","100.86","","","","-41","","Blowing Snow"
"-133.03","69.43","TUKTOYAKTUK A","2203913","2022-01-12 12:00","2022","01","12","12:00","-26.9","","-30.3","","73","","","","27","","27","","24.1","","100.96","","","","-41","","Blowing Snow"
"-133.03","69.43","TUKTOYAKTUK A","2203913","2022-01-12 13:00","2022","01","12","13:00","-26.9","","-30.3","","74","","","","28","","22","","24.1","","101.01","","","","-40","","Blowing Snow"
"-133.03","69.43","TUKTOYAKTUK A","2203913","2022-01-12 14:00","2022","01","12","14:00","-26.8","","-30.1","","74","","","","28","","26","","24.1","","101.10","","","","-41","","Blowing Snow"
"-133.03","69.43","TUKTOYAKTUK A","2203913","2022-01-12 15:00","2022","01","12","15:00","-26.6","","-29.9","","74","","","","28","","26","","24.1","","101.16","","","","-40","","NA"
"-133.03","69.43","TUKTOYAKTUK A","2203913","2022-01-12 16:00","2022","01","12","16:00","-26.6","","-30.0","","74","","","","28","","27","","24.1","","101.22","","","","-41","","NA"
"-133.03","69.43","TUKTOYAKTUK A","2203913","2022-01-12 17:00","2022","01","12","17:00","-26.9","","-30.2","","74","","","","28","","23","","24.1","","101.28","","","","-40","","Mainly Clear"
"-133.03","69.43","TUKTOYAKTUK A","2203913","2022-01-12 18:00","2022","01","12","18:00","-26.9","","-30.2","","74","","","","28","","24","","24.1","","101.33","","","","-40","","NA"
"-133.03","69.43","TUKTOYAKTUK A","2203913","2022-01-12 19:00","2022","01","12","19:00","-27.0","","-30.3","","74","","","","29","","26","","24.1","","101.40","","","","-41","","NA"
"-133.03","69.43","TUKTOYAKTUK A","2203913","2022-01-12 20:00","2022","01","12","20:00","-26.1","","-29.3","","75","","","","29","","32","","24.1","","101.45","","","","-41","","Mostly Cloudy"
"-133.03","69.43","TUKTOYAKTUK A","2203913","2022-01-12 21:00","2022","01","12","21:00","-25.6","","-28.9","","74","","","","28","","28","","24.1","","101.52","","","","-39","","NA"
"-133.03","69.43","TUKTOYAKTUK A","2203913","2022-01-12 22:00","2022","01","12","22:00","-25.6","","-28.9","","74","","","","28","","26","","16.1","","101.57","","","","-39","","Snow"
"-133.03","69.43","TUKTOYAKTUK A","2203913","2022-01-12 23:00","2022","01","12","23:00","-25.2","","-28.5","","74","","","","29","","28","","16.1","","101.63","","","","-39","","Snow"
"-133.03","69.43","TUKTOYAKTUK A","2203913","2022-01-13 00:00","2022","01","13","00:00"
"-133.03","69.43","TUKTOYAKTUK A","2203913","2022-01-13 01:00","2022","01","13","01:00"
"-133.03","69.43","TUKTOYAKTUK A","2203913","2022-01-13 02:00","2022","01","13","02:00"
"-133.03","69.43","TUKTOYAKTUK A","2203913","2022-01-13 03:00","2022","01","13","03:00"
"-133.03","69.43","TUKTOYAKTUK A","2203913","2022-01-13 04:00","2022","01","13","04:00"
"-133.03","69.43","TUKTOYAKTUK A","2203913","2022-01-13 05:00","2022","01","13","05:00"
"-133.03","69.43","TUKTOYAKTUK A","2203913","2022-01-13 06:00","2022","01","13","06:00"
"-133.03","69.43","TUKTOYAKTUK A","2203913","2022-01-13 07:00","2022","01","13","07:00","-29.2","","-32.6","","74","","","","29","","18","","24.1","","102.17","","","","-41","","NA"
"-133.03","69.43","TUKTOYAKTUK A","2203913","2022-01-13 08:00","2022","01","13","08:00","-29.5","","-32.8","","74","","","","27","","16","","24.1","","102.24","","","","-41","","Clear"
"-133.03","69.43","TUKTOYAKTUK A","2203913","2022-01-13 09:00","2022","01","13","09:00","-30.2","","-33.5","","73","","","","27","","13","","24.1","","102.26","","","","-41","","NA"
"-133.03","69.43","TUKTOYAKTUK A","2203913","2022-01-13 10:00","2022","01","13","10:00","-30.3","","-33.6","","73","","","","28","","13","","24.1","","102.31","","","","-41","","NA"
"-133.03","69.43","TUKTOYAKTUK A","2203913","2022-01-13 11:00","2022","01","13","11:00","-30.7","","-34.0","","74","","","","25","","11","","24.1","","102.35","","","","-41","","Mainly Clear"
"-133.03","69.43","TUKTOYAKTUK A","2203913","2022-01-13 12:00","2022","01","13","12:00","-31.7","","-35.1","","73","","","","26","","10","","24.1","","102.38","","","","-41","","NA"
"-133.03","69.43","TUKTOYAKTUK A","2203913","2022-01-13 13:00","2022","01","13","13:00","-32.2","","-35.6","","73","","","","25","","12","","24.1","","102.43","","","","-43","","NA"
"-133.03","69.43","TUKTOYAKTUK A","2203913","2022-01-13 14:00","2022","01","13","14:00","-32.1","","-35.3","","74","","","","24","","12","","24.1","","102.45","","","","-43","","Mostly Cloudy"
"-133.03","69.43","TUKTOYAKTUK A","2203913","2022-01-13 15:00","2022","01","13","15:00","-31.8","","-35.0","","74","","","","26","","15","","24.1","","102.53","","","","-44","","NA"
"-133.03","69.43","TUKTOYAKTUK A","2203913","2022-01-13 16:00","2022","01","13","16:00","-32.0","","-35.2","","74","","","","25","","7","","24.1","","102.48","","","","-40","","NA"
"-133.03","69.43","TUKTOYAKTUK A","2203913","2022-01-13 17:00","2022","01","13","17:00","-31.1","","-34.4","","74","","","","24","","6","","16.1","","102.49","","","","-38","","Cloudy"
"-133.03","69.43","TUKTOYAKTUK A","2203913","2022-01-13 18:00","2022","01","13","18:00","-32.0","","-35.3","","73","","","","23","","11","","16.1","","102.48","","","","-42","","NA"
"-133.03","69.43","TUKTOYAKTUK A","2203913","2022-01-13 19:00","2022","01","13","19:00","-31.1","","-34.0","","76","","","","25","","9","","4.8","","102.49","","","","-40","","Fog"
"-133.03","69.43","TUKTOYAKTUK A","2203913","2022-01-13 20:00","2022","01","13","20:00","-31.6","","-35.0","","73","","","","22","","10","","2.4","","102.44","","","","-41","","Fog"
"-133.03","69.43","TUKTOYAKTUK A","2203913","2022-01-13 21:00","2022","01","13","21:00","-31.2","","-34.6","","72","","","","26","","5","","9.7","","102.37","","","","-37","","Fog"
"-133.03","69.43","TUKTOYAKTUK A","2203913","2022-01-13 22:00","2022","01","13","22:00","-30.5","","-33.9","","73","","","","35","","6","","16.1","","102.29","","","","-37","","NA"
"-133.03","69.43","TUKTOYAKTUK A","2203913","2022-01-13 23:00","2022","01","13","23:00","-30.7","","-34.2","","72","","","","4","","4","","16.1","","102.25","","","","-35","","Mostly Cloudy"
"-133.03","69.43","TUKTOYAKTUK A","2203913","2022-01-14 00:00","2022","01","14","00:00"
"-133.03","69.43","TUKTOYAKTUK A","2203913","2022-01-14 01:00","2022","01","14","01:00"
"-133.03","69.43","TUKTOYAKTUK A","2203913","2022-01-14 02:00","2022","01","14","02:00"
"-133.03","69.43","TUKTOYAKTUK A","2203913","2022-01-14 03:00","2022","01","14","03:00"
"-133.03","69.43","TUKTOYAKTUK A","2203913","2022-01-14 04:00","2022","01","14","04:00"
"-133.03","69.43","TUKTOYAKTUK A","2203913","2022-01-14 05:00","2022","01","14","05:00"
"-133.03","69.43","TUKTOYAKTUK A","2203913","2022-01-14 06:00","2022","01","14","06:00"
"-133.03","69.43","TUKTOYAKTUK A","2203913","2022-01-14 07:00","2022","01","14","07:00","-32.4","","-36.0","","71","","","","4","","7","","9.7","","102.10","","","","-40","","Fog"
"-133.03","69.43","TUKTOYAKTUK A","2203913","2022-01-14 08:00","2022","01","14","08:00","-32.1","","-35.6","","71","","","","7","","6","","4.8","","102.10","","","","-39","","Fog"
"-133.03","69.43","TUKTOYAKTUK A","2203913","2022-01-14 09:00","2022","01","14","09:00","-32.0","","-35.6","","71","","","","7","","5","","4.8","","102.09","","","","-38","","Fog"
"-133.03","69.43","TUKTOYAKTUK A","2203913","2022-01-14 10:00","2022","01","14","10:00","-31.9","","-35.5","","71","","","","5","","5","","4.8","","102.17","","","","-38","","Fog"
"-133.03","69.43","TUKTOYAKTUK A","2203913","2022-01-14 11:00","2022","01","14","11:00","-32.0","","-35.5","","71","","","","8","","9","","4.8","","102.14","","","","-41","","Fog"
"-133.03","69.43","TUKTOYAKTUK A","2203913","2022-01-14 12:00","2022","01","14","12:00","-31.5","","-35.0","","72","","","","5","","8","","1.6","","102.15","","","","-40","","Fog"
"-133.03","69.43","TUKTOYAKTUK A","2203913","2022-01-14 13:00","2022","01","14","13:00","-31.4","","-35.0","","72","","","","4","","11","","0.4","","102.14","","","","-41","","Freezing Fog"
"-133.03","69.43","TUKTOYAKTUK A","2203913","2022-01-14 14:00","2022","01","14","14:00","-31.5","","-35.1","","72","","","","6","","3","","4.8","","102.20","","","","-35","","Fog"
"-133.03","69.43","TUKTOYAKTUK A","2203913","2022-01-14 15:00","2022","01","14","15:00","-32.1","","-35.7","","71","","","","22","","3","","4.8","","102.23","","","","-36","","Fog"
"-133.03","69.43","TUKTOYAKTUK A","2203913","2022-01-14 16:00","2022","01","14","16:00","-32.1","","-35.7","","71","","","","8","","7","","4.8","","102.23","","","","-40","","Fog"
"-133.03","69.43","TUKTOYAKTUK A","2203913","2022-01-14 17:00","2022","01","14","17:00","-32.5","","-36.1","","71","","","","9","","9","","3.2","","102.20","","","","-42","","Fog"
"-133.03","69.43","TUKTOYAKTUK A","2203913","2022-01-14 18:00","2022","01","14","18:00","-32.9","","-36.5","","71","","","","9","","7","","4.8","","102.19","","","","-41","","Fog"
"-133.03","69.43","TUKTOYAKTUK A","2203913","2022-01-14 19:00","2022","01","14","19:00","-32.9","","-36.5","","71","","","","8","","9","","3.2","","102.19","","","","-42","","Fog"
"-133.03","69.43","TUKTOYAKTUK A","2203913","2022-01-14 20:00","2022","01","14","20:00","-33.1","","-36.8","","71","","","","7","","5","","4.8","","102.17","","","","-39","","Fog"
"-133.03","69.43","TUKTOYAKTUK A","2203913","2022-01-14 21:00","2022","01","14","21:00","-33.1","","-36.8","","70","","","","14","","4","","9.7","","102.17","","","","-38","","Fog"
"-133.03","69.43","TUKTOYAKTUK A","2203913","2022-01-14 22:00","2022","01","14","22:00","-33.0","","-36.6","","71","","","","12","","3","","6.4","","102.19","","","","-37","","Fog"
"-133.03","69.43","TUKTOYAKTUK A","2203913","2022-01-14 23:00","2022","01","14","23:00","-33.6","","-37.3","","70","","","","8","","5","","16.1","","102.17","","","","-40","","Mostly Cloudy"
"-133.03","69.43","TUKTOYAKTUK A","2203913","2022-01-15 00:00","2022","01","15","00:00"
"-133.03","69.43","TUKTOYAKTUK A","2203913","2022-01-15 01:00","2022","01","15","01:00"
"-133.03","69.43","TUKTOYAKTUK A","2203913","2022-01-15 02:00","2022","01","15","02:00"
"-133.03","69.43","TUKTOYAKTUK A","2203913","2022-01-15 03:00","2022","01","15","03:00"
"-133.03","69.43","TUKTOYAKTUK A","2203913","2022-01-15 04:00","2022","01","15","04:00"
"-133.03","69.43","TUKTOYAKTUK A","2203913","2022-01-15 05:00","2022","01","15","05:00"
"-133.03","69.43","TUKTOYAKTUK A","2203913","2022-01-15 06:00","2022","01","15","06:00"
"-133.03","69.43","TUKTOYAKTUK A","2203913","2022-01-15 07:00","2022","01","15","07:00","-33.6","","-37.4","","70","","","","36","","1","","4.8","","102.35","","","","-35","","Fog"
"-133.03","69.43","TUKTOYAKTUK A","2203913","2022-01-15 08:00","2022","01","15","08:00","-33.2","","-36.8","","70","","","","21","","4","","4.8","","102.39","","","","-38","","Fog"
"-133.03","69.43","TUKTOYAKTUK A","2203913","2022-01-15 09:00","2022","01","15","09:00","-32.9","","-36.6","","71","","","","36","","2","","4.8","","102.42","","","","-35","","Fog"
"-133.03","69.43","TUKTOYAKTUK A","2203913","2022-01-15 10:00","2022","01","15","10:00","-32.7","","-36.3","","71","","","","36","","1","","4.8","","102.44","","","","-34","","Fog"
"-133.03","69.43","TUKTOYAKTUK A","2203913","2022-01-15 11:00","2022","01","15","11:00","-33.1","","-36.8","","70","","","","5","","9","","3.2","","102.45","","","","-42","","Fog"
"-133.03","69.43","TUKTOYAKTUK A","2203913","2022-01-15 12:00","2022","01","15","12:00","-33.8","","-37.6","","70","","","","6","","8","","8.1","","102.47","","","","-42","","Fog"
"-133.03","69.43","TUKTOYAKTUK A","2203913","2022-01-15 13:00","2022","01","15","13:00","-33.9","","-37.6","","70","","","","36","","3","","16.1","","102.53","","","","-38","","NA"
"-133.03","69.43","TUKTOYAKTUK A","2203913","2022-01-15 14:00","2022","01","15","14:00","-35.1","","-38.9","","69","","","","19","","4","","16.1","","102.59","","","","-40","","Mainly Clear"
"-133.03","69.43","TUKTOYAKTUK A","2203913","2022-01-15 15:00","2022","01","15","15:00","-34.4","","-38.1","","70","","","","36","","2","","24.1","","102.64","","","","-37","","NA"
"-133.03","69.43","TUKTOYAKTUK A","2203913","2022-01-15 16:00","2022","01","15","16:00","-34.2","","-37.9","","70","","","","36","","2","","24.1","","102.69","","","","-37","","NA"
"-133.03","69.43","TUKTOYAKTUK A","2203913","2022-01-15 17:00","2022","01","15","17:00","-34.7","","-38.5","","69","","","","12","","4","","24.1","","102.71","","","","-40","","Mainly Clear"
"-133.03","69.43","TUKTOYAKTUK A","2203913","2022-01-15 18:00","2022","01","15","18:00","-34.7","","-38.4","","70","","","","36","","2","","24.1","","102.73","","","","-37","","NA"
"-133.03","69.43","TUKTOYAKTUK A","2203913","2022-01-15 19:00","2022","01","15","19:00","-34.8","","-38.6","","69","","","","36","","1","","24.1","","102.77","","","","-36","","NA"
"-133.03","69.43","TUKTOYAKTUK A","2203913","2022-01-15 20:00","2022","01","15","20:00","-35.2","","-39.0","","69","","","","6","","6","","24.1","","102.78","","","","-42","","Mainly Clear"
"-133.03","69.43","TUKTOYAKTUK A","2203913","2022-01-15 21:00","2022","01","15","21:00","-35.9","","-39.7","","69","","","","11","","3","","24.1","","102.84","","","","-40","","NA"
"-133.03","69.43","TUKTOYAKTUK A","2203913","2022-01-15 22:00","2022","01","15","22:00","-36.7","","-40.6","","68","","","","11","","5","","24.1","","102.85","","","","-43","","NA"
"-133.03","69.43","TUKTOYAKTUK A","2203913","2022-01-15 23:00","2022","01","15","23:00","-36.6","","-40.5","","68","","","","9","","8","","24.1","","102.84","","","","-46","","Clear"
"-133.03","69.43","TUKTOYAKTUK A","2203913","2022-01-16 00:00","2022","01","16","00:00"
"-133.03","69.43","TUKTOYAKTUK A","2203913","2022-01-16 01:00","2022","01","16","01:00"
"-133.03","69.43","TUKTOYAKTUK A","2203913","2022-01-16 02:00","2022","01","16","02:00"
"-133.03","69.43","TUKTOYAKTUK A","2203913","2022-01-16 03:00","2022","01","16","03:00"
"-133.03","69.43","TUKTOYAKTUK A","2203913","2022-01-16 04:00","2022","01","16","04:00"
"-133.03","69.43","TUKTOYAKTUK A","2203913","2022-01-16 05:00","2022","01","16","05:00"
"-133.03","69.43","TUKTOYAKTUK A","2203913","2022-01-16 06:00","2022","01","16","06:00"
"-133.03","69.43","TUKTOYAKTUK A","2203913","2022-01-16 07:00","2022","01","16","07:00","-36.2","","-40.1","","68","","","","10","","8","","24.1","","102.87","","","","-45","","NA"
"-133.03","69.43","TUKTOYAKTUK A","2203913","2022-01-16 08:00","2022","01","16","08:00","-36.9","","-40.8","","68","","","","10","","12","","24.1","","102.85","","","","-49","","Clear"
"-133.03","69.43","TUKTOYAKTUK A","2203913","2022-01-16 09:00","2022","01","16","09:00","-36.9","","-40.8","","68","","","","10","","10","","24.1","","102.85","","","","-47","","NA"
"-133.03","69.43","TUKTOYAKTUK A","2203913","2022-01-16 10:00","2022","01","16","10:00","-37.1","","-41.0","","68","","","","10","","10","","24.1","","102.84","","","","-48","","NA"
"-133.03","69.43","TUKTOYAKTUK A","2203913","2022-01-16 11:00","2022","01","16","11:00","-37.2","","-41.2","","68","","","","8","","5","","24.1","","102.86","","","","-44","","Clear"
"-133.03","69.43","TUKTOYAKTUK A","2203913","2022-01-16 12:00","2022","01","16","12:00","-37.4","","-41.4","","67","","","","9","","10","","24.1","","102.85","","","","-48","","NA"
"-133.03","69.43","TUKTOYAKTUK A","2203913","2022-01-16 13:00","2022","01","16","13:00","-36.9","","-40.9","","68","","","","7","","8","","24.1","","102.86","","","","-46","","NA"
"-133.03","69.43","TUKTOYAKTUK A","2203913","2022-01-16 14:00","2022","01","16","14:00","-36.9","","-40.8","","68","","","","10","","17","","24.1","","102.83","","","","-51","","Clear"
"-133.03","69.43","TUKTOYAKTUK A","2203913","2022-01-16 15:00","2022","01","16","15:00","-37.1","","-41.1","","68","","","","9","","7","","24.1","","102.84","","","","-46","","NA"
"-133.03","69.43","TUKTOYAKTUK A","2203913","2022-01-16 16:00","2022","01","16","16:00","-37.0","","-41.0","","68","","","","9","","10","","24.1","","102.82","","","","-48","","NA"
"-133.03","69.43","TUKTOYAKTUK A","2203913","2022-01-16 17:00","2022","01","16","17:00","-36.7","","-40.7","","68","","","","8","","13","","24.1","","102.84","","","","-49","","Mainly Clear"
"-133.03","69.43","TUKTOYAKTUK A","2203913","2022-01-16 18:00","2022","01","16","18:00","-37.0","","-41.0","","68","","","","9","","11","","24.1","","102.83","","","","-48","","NA"
"-133.03","69.43","TUKTOYAKTUK A","2203913","2022-01-16 19:00","2022","01","16","19:00","-36.5","","-40.5","","68","","","","11","","10","","24.1","","102.87","","","","-47","","NA"
"-133.03","69.43","TUKTOYAKTUK A","2203913","2022-01-16 20:00","2022","01","16","20:00","-37.1","","-41.1","","68","","","","10","","12","","24.1","","102.81","","","","-49","","Clear"
"-133.03","69.43","TUKTOYAKTUK A","2203913","2022-01-16 21:00","2022","01","16","21:00","-36.3","","-40.2","","68","","","","17","","4","","24.1","","102.85","","","","-41","","NA"
"-133.03","69.43","TUKTOYAKTUK A","2203913","2022-01-16 22:00","2022","01","16","22:00","-37.2","","-41.2","","68","","","","9","","6","","24.1","","102.86","","","","-45","","NA"
"-133.03","69.43","TUKTOYAKTUK A","2203913","2022-01-16 23:00","2022","01","16","23:00","-37.3","","-41.3","","67","","","","11","","5","","24.1","","102.87","","","","-44","","Clear"
"-133.03","69.43","TUKTOYAKTUK A","2203913","2022-01-17 00:00","2022","01","17","00:00"
"-133.03","69.43","TUKTOYAKTUK A","2203913","2022-01-17 01:00","2022","01","17","01:00"
"-133.03","69.43","TUKTOYAKTUK A","2203913","2022-01-17 02:00","2022","01","17","02:00"
"-133.03","69.43","TUKTOYAKTUK A","2203913","2022-01-17 03:00","2022","01","17","03:00"
"-133.03","69.43","TUKTOYAKTUK A","2203913","2022-01-17 04:00","2022","01","17","04:00"
"-133.03","69.43","TUKTOYAKTUK A","2203913","2022-01-17 05:00","2022","01","17","05:00"
"-133.03","69.43","TUKTOYAKTUK A","2203913","2022-01-17 06:00","2022","01","17","06:00"
"-133.03","69.43","TUKTOYAKTUK A","2203913","2022-01-17 07:00","2022","01","17","07:00","-36.7","","-40.7","","68","","","","14","","11","","24.1","","102.87","","","","-48","","NA"
"-133.03","69.43","TUKTOYAKTUK A","2203913","2022-01-17 08:00","2022","01","17","08:00","-36.2","","-40.1","","68","","","","14","","13","","24.1","","102.86","","","","-48","","Clear"
"-133.03","69.43","TUKTOYAKTUK A","2203913","2022-01-17 09:00","2022","01","17","09:00","-35.4","","-39.2","","69","","","","13","","12","","24.1","","102.87","","","","-47","","NA"
"-133.03","69.43","TUKTOYAKTUK A","2203913","2022-01-17 10:00","2022","01","17","10:00","-35.5","","-39.3","","69","","","","13","","11","","24.1","","102.88","","","","-46","","NA"
"-133.03","69.43","TUKTOYAKTUK A","2203913","2022-01-17 11:00","2022","01","17","11:00","-35.0","","-38.8","","69","","","","14","","14","","24.1","","102.83","","","","-47","","Clear"
"-133.03","69.43","TUKTOYAKTUK A","2203913","2022-01-17 12:00","2022","01","17","12:00","-34.4","","-38.2","","69","","","","14","","14","","24.1","","102.85","","","","-46","","NA"
"-133.03","69.43","TUKTOYAKTUK A","2203913","2022-01-17 13:00","2022","01","17","13:00","-33.8","","-37.5","","70","","","","14","","16","","24.1","","102.81","","","","-46","","NA"
"-133.03","69.43","TUKTOYAKTUK A","2203913","2022-01-17 14:00","2022","01","17","14:00","-33.7","","-37.4","","70","","","","13","","9","","24.1","","102.82","","","","-43","","Mainly Clear"
"-133.03","69.43","TUKTOYAKTUK A","2203913","2022-01-17 15:00","2022","01","17","15:00","-33.1","","-36.8","","70","","","","13","","18","","24.1","","102.82","","","","-46","","NA"
"-133.03","69.43","TUKTOYAKTUK A","2203913","2022-01-17 16:00","2022","01","17","16:00","-33.4","","-37.2","","70","","","","13","","16","","24.1","","102.84","","","","-46","","NA"
"-133.03","69.43","TUKTOYAKTUK A","2203913","2022-01-17 17:00","2022","01","17","17:00","-33.4","","-37.1","","70","","","","14","","20","","24.1","","102.78","","","","-47","","Mainly Clear"
"-133.03","69.43","TUKTOYAKTUK A","2203913","2022-01-17 18:00","2022","01","17","18:00","-33.4","","-37.2","","70","","","","13","","10","","24.1","","102.79","","","","-43","","NA"
"-133.03","69.43","TUKTOYAKTUK A","2203913","2022-01-17 19:00","2022","01","17","19:00","-33.0","","-36.7","","70","","","","13","","23","","24.1","","102.74","","","","-48","","NA"
"-133.03","69.43","TUKTOYAKTUK A","2203913","2022-01-17 20:00","2022","01","17","20:00","-33.6","","-37.4","","70","","","","13","","24","","24.1","","102.72","","","","-49","","Clear"
"-133.03","69.43","TUKTOYAKTUK A","2203913","2022-01-17 21:00","2022","01","17","21:00","-33.4","","-37.1","","70","","","","14","","22","","24.1","","102.68","","","","-48","","NA"
"-133.03","69.43","TUKTOYAKTUK A","2203913","2022-01-17 22:00","2022","01","17","22:00","-33.5","","-37.3","","70","","","","14","","21","","24.1","","102.64","","","","-48","","NA"
"-133.03","69.43","TUKTOYAKTUK A","2203913","2022-01-17 23:00","2022","01","17","23:00","-32.8","","-36.5","","70","","","","14","","19","","24.1","","102.65","","","","-46","","Clear"
"-133.03","69.43","TUKTOYAKTUK A","2203913","2022-01-18 00:00","2022","01","18","00:00"
"-133.03","69.43","TUKTOYAKTUK A","2203913","2022-01-18 01:00","2022","01","18","01:00"
"-133.03","69.43","TUKTOYAKTUK A","2203913","2022-01-18 02:00","2022","01","18","02:00"
"-133.03","69.43","TUKTOYAKTUK A","2203913","2022-01-18 03:00","2022","01","18","03:00"
"-133.03","69.43","TUKTOYAKTUK A","2203913","2022-01-18 04:00","2022","01","18","04:00"
"-133.03","69.43","TUKTOYAKTUK A","2203913","2022-01-18 05:00","2022","01","18","05:00"
"-133.03","69.43","TUKTOYAKTUK A","2203913","2022-01-18 06:00","2022","01","18","06:00"
"-133.03","69.43","TUKTOYAKTUK A","2203913","2022-01-18 07:00","2022","01","18","07:00","-30.8","","-34.4","","72","","","","15","","9","","16.1","","102.45","","","","-40","","NA"
"-133.03","69.43","TUKTOYAKTUK A","2203913","2022-01-18 08:00","2022","01","18","08:00","-29.7","","-33.1","","73","","","","16","","12","","16.1","","102.40","","","","-40","","Cloudy"
"-133.03","69.43","TUKTOYAKTUK A","2203913","2022-01-18 09:00","2022","01","18","09:00","-29.1","","-32.5","","73","","","","19","","10","","16.1","","102.35","","","","-38","","NA"
"-133.03","69.43","TUKTOYAKTUK A","2203913","2022-01-18 10:00","2022","01","18","10:00","-28.4","","-31.7","","74","","","","20","","13","","16.1","","102.35","","","","-39","","NA"
"-133.03","69.43","TUKTOYAKTUK A","2203913","2022-01-18 11:00","2022","01","18","11:00","-28.0","","-31.3","","74","","","","21","","17","","16.1","","102.31","","","","-40","","Cloudy"
"-133.03","69.43","TUKTOYAKTUK A","2203913","2022-01-18 12:00","2022","01","18","12:00","-28.2","","-31.5","","74","","","","25","","11","","2.4","","102.32","","","","-38","","Snow"
"-133.03","69.43","TUKTOYAKTUK A","2203913","2022-01-18 13:00","2022","01","18","13:00","-28.8","","-32.2","","73","","","","26","","10","","4.8","","102.28","","","","-38","","Snow"
"-133.03","69.43","TUKTOYAKTUK A","2203913","2022-01-18 14:00","2022","01","18","14:00","-28.7","","-32.1","","73","","","","25","","13","","4.8","","102.30","","","","-39","","Snow"
"-133.03","69.43","TUKTOYAKTUK A","2203913","2022-01-18 15:00","2022","01","18","15:00","-28.7","","-32.0","","73","","","","26","","13","","4.8","","102.29","","","","-39","","Snow"
"-133.03","69.43","TUKTOYAKTUK A","2203913","2022-01-18 16:00","2022","01","18","16:00","-28.0","","-31.3","","74","","","","27","","12","","16.1","","102.29","","","","-38","","Snow"
"-133.03","69.43","TUKTOYAKTUK A","2203913","2022-01-18 17:00","2022","01","18","17:00","-26.8","","-30.1","","75","","","","29","","13","","16.1","","102.25","","","","-37","","Snow"
"-133.03","69.43","TUKTOYAKTUK A","2203913","2022-01-18 18:00","2022","01","18","18:00","-26.1","","-29.3","","75","","","","27","","13","","16.1","","102.25","","","","-36","","Snow"
"-133.03","69.43","TUKTOYAKTUK A","2203913","2022-01-18 19:00","2022","01","18","19:00","-26.0","","-29.1","","75","","","","25","","12","","16.1","","102.25","","","","-35","","Snow"
"-133.03","69.43","TUKTOYAKTUK A","2203913","2022-01-18 20:00","2022","01","18","20:00","-26.0","","-29.2","","75","","","","25","","13","","16.1","","102.22","","","","-36","","Snow"
"-133.03","69.43","TUKTOYAKTUK A","2203913","2022-01-18 21:00","2022","01","18","21:00","-26.0","","-29.1","","75","","","","24","","11","","16.1","","102.17","","","","-35","","Snow"
"-133.03","69.43","TUKTOYAKTUK A","2203913","2022-01-18 22:00","2022","01","18","22:00","-25.7","","-28.8","","76","","","","26","","13","","16.1","","102.16","","","","-35","","Snow"
"-133.03","69.43","TUKTOYAKTUK A","2203913","2022-01-18 23:00","2022","01","18","23:00","-25.4","","-28.4","","76","","","","26","","10","","16.1","","102.15","","","","-34","","Snow"
"-133.03","69.43","TUKTOYAKTUK A","2203913","2022-01-19 00:00","2022","01","19","00:00"
"-133.03","69.43","TUKTOYAKTUK A","2203913","2022-01-19 01:00","2022","01","19","01:00"
"-133.03","69.43","TUKTOYAKTUK A","2203913","2022-01-19 02:00","2022","01","19","02:00"
"-133.03","69.43","TUKTOYAKTUK A","2203913","2022-01-19 03:00","2022","01","19","03:00"
"-133.03","69.43","TUKTOYAKTUK A","2203913","2022-01-19 04:00","2022","01","19","04:00"
"-133.03","69.43","TUKTOYAKTUK A","2203913","2022-01-19 05:00","2022","01","19","05:00"
"-133.03","69.43","TUKTOYAKTUK A","2203913","2022-01-19 06:00","2022","01","19","06:00"
"-133.03","69.43","TUKTOYAKTUK A","2203913","2022-01-19 07:00","2022","01","19","07:00","-24.1","","-27.1","","77","","","","34","","11","","4.8","","102.04","","","","-33","","Snow"
"-133.03","69.43","TUKTOYAKTUK A","2203913","2022-01-19 08:00","2022","01","19","08:00","-24.4","","-27.3","","77","","","","36","","12","","16.1","","102.03","","","","-33","","Snow"
"-133.03","69.43","TUKTOYAKTUK A","2203913","2022-01-19 09:00","2022","01","19","09:00","-24.7","","-27.7","","77","","","","1","","13","","12.9","","102.01","","","","-34","","Snow"
"-133.03","69.43","TUKTOYAKTUK A","2203913","2022-01-19 10:00","2022","01","19","10:00","-26.2","","-29.3","","75","","","","36","","9","","16.1","","102.01","","","","-34","","Snow"
"-133.03","69.43","TUKTOYAKTUK A","2203913","2022-01-19 11:00","2022","01","19","11:00","-25.7","","-28.8","","76","","","","35","","8","","16.1","","101.97","","","","-33","","Snow"
"-133.03","69.43","TUKTOYAKTUK A","2203913","2022-01-19 12:00","2022","01","19","12:00","-26.9","","-30.1","","75","","","","32","","11","","24.1","","102.00","","","","-36","","Snow"
"-133.03","69.43","TUKTOYAKTUK A","2203913","2022-01-19 13:00","2022","01","19","13:00","-29.1","","-32.5","","73","","","","31","","13","","24.1","","101.98","","","","-39","","NA"
"-133.03","69.43","TUKTOYAKTUK A","2203913","2022-01-19 14:00","2022","01","19","14:00","-29.6","","-33.0","","73","","","","29","","13","","24.1","","101.98","","","","-40","","Mostly Cloudy"
"-133.03","69.43","TUKTOYAKTUK A","2203913","2022-01-19 15:00","2022","01","19","15:00","-29.8","","-33.2","","73","","","","29","","13","","16.1","","101.97","","","","-40","","NA"
"-133.03","69.43","TUKTOYAKTUK A","2203913","2022-01-19 16:00","2022","01","19","16:00","-27.1","","-30.3","","75","","","","30","","27","","16.1","","101.95","","","","-41","","NA"
"-133.03","69.43","TUKTOYAKTUK A","2203913","2022-01-19 17:00","2022","01","19","17:00","-31.1","","-34.6","","72","","","","28","","16","","16.1","","101.92","","","","-43","","Mainly Clear"
"-133.03","69.43","TUKTOYAKTUK A","2203913","2022-01-19 18:00","2022","01","19","18:00","-32.4","","-36.0","","71","","","","29","","16","","24.1","","101.89","","","","-45","","NA"
"-133.03","69.43","TUKTOYAKTUK A","2203913","2022-01-19 19:00","2022","01","19","19:00","-32.6","","-36.2","","71","","","","29","","18","","24.1","","101.87","","","","-46","","NA"
"-133.03","69.43","TUKTOYAKTUK A","2203913","2022-01-19 20:00","2022","01","19","20:00","-33.3","","-37.0","","71","","","","29","","17","","24.1","","101.87","","","","-46","","Clear"
"-133.03","69.43","TUKTOYAKTUK A","2203913","2022-01-19 21:00","2022","01","19","21:00","-33.7","","-37.4","","70","","","","29","","16","","24.1","","101.80","","","","-46","","NA"
"-133.03","69.43","TUKTOYAKTUK A","2203913","2022-01-19 22:00","2022","01","19","22:00","-34.8","","-38.6","","70","","","","27","","12","","24.1","","101.81","","","","-46","","NA"
"-133.03","69.43","TUKTOYAKTUK A","2203913","2022-01-19 23:00","2022","01","19","23:00","-31.9","","-35.4","","72","","","","26","","17","","24.1","","101.77","","","","-44","","Mostly Cloudy"
"-133.03","69.43","TUKTOYAKTUK A","2203913","2022-01-20 00:00","2022","01","20","00:00"
"-133.03","69.43","TUKTOYAKTUK A","2203913","2022-01-20 01:00","2022","01","20","01:00"
"-133.03","69.43","TUKTOYAKTUK A","2203913","2022-01-20 02:00","2022","01","20","02:00"
"-133.03","69.43","TUKTOYAKTUK A","2203913","2022-01-20 03:00","2022","01","20","03:00"
"-133.03","69.43","TUKTOYAKTUK A","2203913","2022-01-20 04:00","2022","01","20","04:00"
"-133.03","69.43","TUKTOYAKTUK A","2203913","2022-01-20 05:00","2022","01","20","05:00"
"-133.03","69.43","TUKTOYAKTUK A","2203913","2022-01-20 06:00","2022","01","20","06:00"
"-133.03","69.43","TUKTOYAKTUK A","2203913","2022-01-20 07:00","2022","01","20","07:00","-32.8","","-36.4","","71","","","","29","","22","","16.1","","101.81","","","","-47","","NA"
"-133.03","69.43","TUKTOYAKTUK A","2203913","2022-01-20 08:00","2022","01","20","08:00","-32.4","","-36.0","","71","","","","28","","22","","16.1","","101.82","","","","-47","","Blowing Snow"
"-133.03","69.43","TUKTOYAKTUK A","2203913","2022-01-20 09:00","2022","01","20","09:00","-32.7","","-36.4","","71","","","","29","","22","","24.1","","101.86","","","","-47","","NA"
"-133.03","69.43","TUKTOYAKTUK A","2203913","2022-01-20 10:00","2022","01","20","10:00","-32.3","","-35.9","","71","","","","29","","22","","24.1","","101.92","","","","-47","","NA"
"-133.03","69.43","TUKTOYAKTUK A","2203913","2022-01-20 11:00","2022","01","20","11:00","-30.7","","-34.2","","72","","","","30","","26","","16.1","","101.95","","","","-46","","Snow"
"-133.03","69.43","TUKTOYAKTUK A","2203913","2022-01-20 12:00","2022","01","20","12:00","-30.5","","-34.0","","72","","","","28","","25","","11.3","","102.00","","","","-45","","Snow"
"-133.03","69.43","TUKTOYAKTUK A","2203913","2022-01-20 13:00","2022","01","20","13:00","-30.9","","-34.4","","72","","","","27","","21","","16.1","","102.07","","","","-45","","NA"
"-133.03","69.43","TUKTOYAKTUK A","2203913","2022-01-20 14:00","2022","01","20","14:00","-30.1","","-33.6","","73","","","","27","","23","","16.1","","102.15","","","","-44","","Blowing Snow"
"-133.03","69.43","TUKTOYAKTUK A","2203913","2022-01-20 15:00","2022","01","20","15:00","-29.7","","-33.1","","73","","","","28","","24","","4.8","","102.18","","","","-44","","Snow,Blowing Snow"
"-133.03","69.43","TUKTOYAKTUK A","2203913","2022-01-20 16:00","2022","01","20","16:00","-30.0","","-33.4","","73","","","","27","","26","","8.1","","102.24","","","","-45","","Snow,Blowing Snow"
"-133.03","69.43","TUKTOYAKTUK A","2203913","2022-01-20 17:00","2022","01","20","17:00","-29.5","","-32.9","","73","","","","28","","27","","4.8","","102.25","","","","-44","","Snow,Blowing Snow"
"-133.03","69.43","TUKTOYAKTUK A","2203913","2022-01-20 18:00","2022","01","20","18:00","-29.5","","-32.9","","73","","","","27","","26","","8.1","","102.27","","","","-44","","Snow,Blowing Snow"
"-133.03","69.43","TUKTOYAKTUK A","2203913","2022-01-20 19:00","2022","01","20","19:00","-28.9","","-32.2","","73","","","","29","","36","","8.1","","102.27","","","","-45","","Snow,Blowing Snow"
"-133.03","69.43","TUKTOYAKTUK A","2203913","2022-01-20 20:00","2022","01","20","20:00","-28.7","","-32.0","","74","","","","28","","32","","4.8","","102.27","","","","-44","","Snow,Blowing Snow"
"-133.03","69.43","TUKTOYAKTUK A","2203913","2022-01-20 21:00","2022","01","20","21:00","-28.9","","-32.2","","73","","","","28","","26","","4.8","","102.26","","","","-43","","Snow,Blowing Snow"
"-133.03","69.43","TUKTOYAKTUK A","2203913","2022-01-20 22:00","2022","01","20","22:00","-28.7","","-32.0","","74","","","","28","","25","","16.1","","102.27","","","","-43","","Snow,Blowing Snow"
"-133.03","69.43","TUKTOYAKTUK A","2203913","2022-01-20 23:00","2022","01","20","23:00","-28.1","","-31.4","","74","","","","27","","24","","9.7","","102.31","","","","-42","","Snow,Blowing Snow"
"-133.03","69.43","TUKTOYAKTUK A","2203913","2022-01-21 00:00","2022","01","21","00:00"
"-133.03","69.43","TUKTOYAKTUK A","2203913","2022-01-21 01:00","2022","01","21","01:00"
"-133.03","69.43","TUKTOYAKTUK A","2203913","2022-01-21 02:00","2022","01","21","02:00"
"-133.03","69.43","TUKTOYAKTUK A","2203913","2022-01-21 03:00","2022","01","21","03:00"
"-133.03","69.43","TUKTOYAKTUK A","2203913","2022-01-21 04:00","2022","01","21","04:00"
"-133.03","69.43","TUKTOYAKTUK A","2203913","2022-01-21 05:00","2022","01","21","05:00"
"-133.03","69.43","TUKTOYAKTUK A","2203913","2022-01-21 06:00","2022","01","21","06:00"
"-133.03","69.43","TUKTOYAKTUK A","2203913","2022-01-21 07:00","2022","01","21","07:00","-32.0","","-35.5","","71","","","","28","","10","","16.1","","102.36","","","","-42","","NA"
"-133.03","69.43","TUKTOYAKTUK A","2203913","2022-01-21 08:00","2022","01","21","08:00","-32.6","","-36.2","","71","","","","25","","9","","24.1","","102.37","","","","-42","","Mainly Clear"
"-133.03","69.43","TUKTOYAKTUK A","2203913","2022-01-21 09:00","2022","01","21","09:00","-33.2","","-36.8","","71","","","","26","","10","","24.1","","102.36","","","","-43","","NA"
"-133.03","69.43","TUKTOYAKTUK A","2203913","2022-01-21 10:00","2022","01","21","10:00","-33.1","","-36.8","","70","","","","36","","1","","24.1","","102.35","","","","-34","","NA"
"-133.03","69.43","TUKTOYAKTUK A","2203913","2022-01-21 11:00","2022","01","21","11:00","-33.6","","-37.3","","70","","","","18","","8","","24.1","","102.34","","","","-42","","Mostly Cloudy"
"-133.03","69.43","TUKTOYAKTUK A","2203913","2022-01-21 12:00","2022","01","21","12:00","-34.1","","-37.9","","70","","","","14","","7","","24.1","","102.36","","","","-42","","NA"
"-133.03","69.43","TUKTOYAKTUK A","2203913","2022-01-21 13:00","2022","01","21","13:00","-34.5","","-38.2","","70","","","","16","","7","","24.1","","102.36","","","","-43","","NA"
"-133.03","69.43","TUKTOYAKTUK A","2203913","2022-01-21 14:00","2022","01","21","14:00","-34.8","","-38.6","","69","","","","10","","10","","24.1","","102.33","","","","-45","","Clear"
"-133.03","69.43","TUKTOYAKTUK A","2203913","2022-01-21 15:00","2022","01","21","15:00","-34.4","","-38.1","","70","","","","11","","11","","24.1","","102.29","","","","-45","","NA"
"-133.03","69.43","TUKTOYAKTUK A","2203913","2022-01-21 16:00","2022","01","21","16:00","-34.8","","-38.6","","69","","","","12","","8","","24.1","","102.34","","","","-44","","NA"
"-133.03","69.43","TUKTOYAKTUK A","2203913","2022-01-21 17:00","2022","01","21","17:00","-33.7","","-37.4","","70","","","","13","","14","","24.1","","102.28","","","","-46","","Mainly Clear"
"-133.03","69.43","TUKTOYAKTUK A","2203913","2022-01-21 18:00","2022","01","21","18:00","-33.3","","-37.0","","70","","","","12","","16","","24.1","","102.23","","","","-46","","NA"
"-133.03","69.43","TUKTOYAKTUK A","2203913","2022-01-21 19:00","2022","01","21","19:00","-33.6","","-37.3","","70","","","","36","","2","","24.1","","102.21","","","","-36","","NA"
"-133.03","69.43","TUKTOYAKTUK A","2203913","2022-01-21 20:00","2022","01","21","20:00","-33.7","","-37.4","","70","","","","11","","15","","24.1","","102.18","","","","-46","","Clear"
"-133.03","69.43","TUKTOYAKTUK A","2203913","2022-01-21 21:00","2022","01","21","21:00","-33.3","","-37.0","","70","","","","11","","16","","24.1","","102.14","","","","-46","","NA"
"-133.03","69.43","TUKTOYAKTUK A","2203913","2022-01-21 22:00","2022","01","21","22:00","-33.7","","-37.4","","70","","","","10","","13","","24.1","","102.09","","","","-45","","NA"
"-133.03","69.43","TUKTOYAKTUK A","2203913","2022-01-21 23:00","2022","01","21","23:00","-33.3","","-37.0","","70","","","","11","","12","","24.1","","101.99","","","","-44","","Mainly Clear"
"-133.03","69.43","TUKTOYAKTUK A","2203913","2022-01-22 00:00","2022","01","22","00:00"
"-133.03","69.43","TUKTOYAKTUK A","2203913","2022-01-22 01:00","2022","01","22","01:00"
"-133.03","69.43","TUKTOYAKTUK A","2203913","2022-01-22 02:00","2022","01","22","02:00"
"-133.03","69.43","TUKTOYAKTUK A","2203913","2022-01-22 03:00","2022","01","22","03:00"
"-133.03","69.43","TUKTOYAKTUK A","2203913","2022-01-22 04:00","2022","01","22","04:00"
"-133.03","69.43","TUKTOYAKTUK A","2203913","2022-01-22 05:00","2022","01","22","05:00"
"-133.03","69.43","TUKTOYAKTUK A","2203913","2022-01-22 06:00","2022","01","22","06:00"
"-133.03","69.43","TUKTOYAKTUK A","2203913","2022-01-22 07:00","2022","01","22","07:00","-28.6","","-31.9","","74","","","","11","","26","","24.1","","101.50","","","","-43","","Blowing Snow"
"-133.03","69.43","TUKTOYAKTUK A","2203913","2022-01-22 08:00","2022","01","22","08:00","-28.0","","-31.3","","74","","","","11","","23","","24.1","","101.42","","","","-41","","Blowing Snow"
"-133.03","69.43","TUKTOYAKTUK A","2203913","2022-01-22 09:00","2022","01","22","09:00","-27.2","","-30.4","","75","","","","11","","26","","24.1","","101.40","","","","-41","","Blowing Snow"
"-133.03","69.43","TUKTOYAKTUK A","2203913","2022-01-22 10:00","2022","01","22","10:00","-26.5","","-29.6","","75","","","","10","","35","","16.1","","101.29","","","","-42","","Blowing Snow"
"-133.03","69.43","TUKTOYAKTUK A","2203913","2022-01-22 11:00","2022","01","22","11:00","-24.8","","-27.8","","76","","","","12","","36","","16.1","","101.23","","","","-40","","Blowing Snow"
"-133.03","69.43","TUKTOYAKTUK A","2203913","2022-01-22 12:00","2022","01","22","12:00","-24.4","","-27.4","","77","","","","12","","34","","16.1","","101.25","","","","-39","","Blowing Snow"
"-133.03","69.43","TUKTOYAKTUK A","2203913","2022-01-22 13:00","2022","01","22","13:00","-24.0","","-27.0","","77","","","","12","","27","","16.1","","101.28","","","","-37","","Blowing Snow"
"-133.03","69.43","TUKTOYAKTUK A","2203913","2022-01-22 14:00","2022","01","22","14:00","-23.3","","-26.2","","78","","","","12","","29","","16.1","","101.26","","","","-37","","Blowing Snow"
"-133.03","69.43","TUKTOYAKTUK A","2203913","2022-01-22 15:00","2022","01","22","15:00","-22.4","","-25.2","","78","","","","12","","29","","16.1","","101.24","","","","-36","","Blowing Snow"
"-133.03","69.43","TUKTOYAKTUK A","2203913","2022-01-22 16:00","2022","01","22","16:00","-22.1","","-24.8","","79","","","","13","","32","","4.8","","101.20","","","","-36","","Snow,Blowing Snow"
"-133.03","69.43","TUKTOYAKTUK A","2203913","2022-01-22 17:00","2022","01","22","17:00","-21.6","","-24.3","","79","","","","13","","27","","6.4","","101.22","","","","-34","","Snow"
"-133.03","69.43","TUKTOYAKTUK A","2203913","2022-01-22 18:00","2022","01","22","18:00","-21.2","","-23.9","","79","","","","13","","34","","9.7","","101.17","","","","-35","","Snow,Blowing Snow"
"-133.03","69.43","TUKTOYAKTUK A","2203913","2022-01-22 19:00","2022","01","22","19:00","-21.3","","-24.0","","79","","","","13","","35","","4.8","","101.12","","","","-35","","Snow,Blowing Snow"
"-133.03","69.43","TUKTOYAKTUK A","2203913","2022-01-22 20:00","2022","01","22","20:00","-21.1","","-23.7","","80","","","","13","","36","","4.8","","101.10","","","","-35","","Snow,Blowing Snow"
"-133.03","69.43","TUKTOYAKTUK A","2203913","2022-01-22 21:00","2022","01","22","21:00","-20.4","","-23.0","","80","","","","13","","35","","9.7","","101.06","","","","-34","","Snow,Blowing Snow"
"-133.03","69.43","TUKTOYAKTUK A","2203913","2022-01-22 22:00","2022","01","22","22:00","-20.1","","-22.6","","80","","","","13","","36","","9.7","","101.01","","","","-34","","Snow,Blowing Snow"
"-133.03","69.43","TUKTOYAKTUK A","2203913","2022-01-22 23:00","2022","01","22","23:00","-19.7","","-22.2","","81","","","","13","","41","","9.7","","100.98","","","","-34","","Snow,Blowing Snow"
"-133.03","69.43","TUKTOYAKTUK A","2203913","2022-01-23 00:00","2022","01","23","00:00"
"-133.03","69.43","TUKTOYAKTUK A","2203913","2022-01-23 01:00","2022","01","23","01:00"
"-133.03","69.43","TUKTOYAKTUK A","2203913","2022-01-23 02:00","2022","01","23","02:00"
"-133.03","69.43","TUKTOYAKTUK A","2203913","2022-01-23 03:00","2022","01","23","03:00"
"-133.03","69.43","TUKTOYAKTUK A","2203913","2022-01-23 04:00","2022","01","23","04:00"
"-133.03","69.43","TUKTOYAKTUK A","2203913","2022-01-23 05:00","2022","01","23","05:00"
"-133.03","69.43","TUKTOYAKTUK A","2203913","2022-01-23 06:00","2022","01","23","06:00"
"-133.03","69.43","TUKTOYAKTUK A","2203913","2022-01-23 07:00","2022","01","23","07:00","-17.6","","-19.8","","83","","","","13","","31","","3.2","","100.88","","","","-30","","Snow,Blowing Snow"
"-133.03","69.43","TUKTOYAKTUK A","2203913","2022-01-23 08:00","2022","01","23","08:00","-17.6","","-19.8","","83","","","","14","","27","","9.7","","100.92","","","","-29","","Snow,Blowing Snow"
"-133.03","69.43","TUKTOYAKTUK A","2203913","2022-01-23 09:00","2022","01","23","09:00","-16.9","","-19.1","","84","","","","14","","27","","8.1","","100.95","","","","-28","","Snow,Blowing Snow"
"-133.03","69.43","TUKTOYAKTUK A","2203913","2022-01-23 10:00","2022","01","23","10:00","-16.6","","-18.7","","84","","","","14","","26","","8.1","","101.02","","","","-27","","Snow,Blowing Snow"
"-133.03","69.43","TUKTOYAKTUK A","2203913","2022-01-23 11:00","2022","01","23","11:00","-16.3","","-18.3","","84","","","","15","","23","","16.1","","101.09","","","","-26","","Snow"
"-133.03","69.43","TUKTOYAKTUK A","2203913","2022-01-23 12:00","2022","01","23","12:00","-16.2","","-18.2","","84","","","","15","","19","","16.1","","101.13","","","","-25","","Snow"
"-133.03","69.43","TUKTOYAKTUK A","2203913","2022-01-23 13:00","2022","01","23","13:00","-16.0","","-18.1","","85","","","","17","","15","","16.1","","101.21","","","","-24","","Snow"
"-133.03","69.43","TUKTOYAKTUK A","2203913","2022-01-23 14:00","2022","01","23","14:00","-16.2","","-18.2","","84","","","","16","","13","","24.1","","101.29","","","","-24","","Snow"
"-133.03","69.43","TUKTOYAKTUK A","2203913","2022-01-23 15:00","2022","01","23","15:00","-16.5","","-18.6","","84","","","","17","","12","","16.1","","101.39","","","","-24","","Snow"
"-133.03","69.43","TUKTOYAKTUK A","2203913","2022-01-23 16:00","2022","01","23","16:00","-16.3","","-18.4","","84","","","","17","","15","","24.1","","101.40","","","","-25","","NA"
"-133.03","69.43","TUKTOYAKTUK A","2203913","2022-01-23 17:00","2022","01","23","17:00","-17.1","","-19.3","","83","","","","17","","14","","24.1","","101.46","","","","-25","","Mostly Cloudy"
"-133.03","69.43","TUKTOYAKTUK A","2203913","2022-01-23 18:00","2022","01","23","18:00","-17.8","","-20.1","","83","","","","17","","14","","24.1","","101.50","","","","-26","","NA"
"-133.03","69.43","TUKTOYAKTUK A","2203913","2022-01-23 19:00","2022","01","23","19:00","-18.5","","-20.8","","82","","","","17","","16","","24.1","","101.53","","","","-28","","NA"
"-133.03","69.43","TUKTOYAKTUK A","2203913","2022-01-23 20:00","2022","01","23","20:00","-18.9","","-21.3","","82","","","","17","","15","","24.1","","101.54","","","","-28","","Mostly Cloudy"
"-133.03","69.43","TUKTOYAKTUK A","2203913","2022-01-23 21:00","2022","01","23","21:00","-19.2","","-21.6","","82","","","","17","","16","","24.1","","101.57","","","","-28","","NA"
"-133.03","69.43","TUKTOYAKTUK A","2203913","2022-01-23 22:00","2022","01","23","22:00","-19.4","","-21.8","","82","","","","17","","15","","24.1","","101.60","","","","-28","","NA"
"-133.03","69.43","TUKTOYAKTUK A","2203913","2022-01-23 23:00","2022","01","23","23:00","-18.9","","-21.2","","82","","","","16","","18","","24.1","","101.56","","","","-29","","Mainly Clear"
"-133.03","69.43","TUKTOYAKTUK A","2203913","2022-01-24 00:00","2022","01","24","00:00"
"-133.03","69.43","TUKTOYAKTUK A","2203913","2022-01-24 01:00","2022","01","24","01:00"
"-133.03","69.43","TUKTOYAKTUK A","2203913","2022-01-24 02:00","2022","01","24","02:00"
"-133.03","69.43","TUKTOYAKTUK A","2203913","2022-01-24 03:00","2022","01","24","03:00"
"-133.03","69.43","TUKTOYAKTUK A","2203913","2022-01-24 04:00","2022","01","24","04:00"
"-133.03","69.43","TUKTOYAKTUK A","2203913","2022-01-24 05:00","2022","01","24","05:00"
"-133.03","69.43","TUKTOYAKTUK A","2203913","2022-01-24 06:00","2022","01","24","06:00"
"-133.03","69.43","TUKTOYAKTUK A","2203913","2022-01-24 07:00","2022","01","24","07:00","-16.8","","-19.0","","84","","","","14","","19","","24.1","","101.14","","","","-26","","Blowing Snow"
"-133.03","69.43","TUKTOYAKTUK A","2203913","2022-01-24 08:00","2022","01","24","08:00","-16.7","","-18.9","","84","","","","13","","17","","24.1","","101.03","","","","-26","","Blowing Snow"
"-133.03","69.43","TUKTOYAKTUK A","2203913","2022-01-24 09:00","2022","01","24","09:00","-16.2","","-18.3","","84","","","","14","","27","","24.1","","100.86","","","","-27","","Blowing Snow"
"-133.03","69.43","TUKTOYAKTUK A","2203913","2022-01-24 10:00","2022","01","24","10:00","-15.3","","-17.2","","86","","","","13","","16","","24.1","","100.77","","","","-24","","NA"
"-133.03","69.43","TUKTOYAKTUK A","2203913","2022-01-24 11:00","2022","01","24","11:00","-14.5","","-16.3","","87","","","","14","","27","","24.1","","100.64","","","","-25","","Blowing Snow"
"-133.03","69.43","TUKTOYAKTUK A","2203913","2022-01-24 12:00","2022","01","24","12:00","-14.1","","-15.9","","86","","","","13","","23","","24.1","","100.53","","","","-24","","NA"
"-133.03","69.43","TUKTOYAKTUK A","2203913","2022-01-24 13:00","2022","01","24","13:00","-14.4","","-16.2","","86","","","","14","","26","","24.1","","100.40","","","","-25","","Blowing Snow"
"-133.03","69.43","TUKTOYAKTUK A","2203913","2022-01-24 14:00","2022","01","24","14:00","-13.4","","-15.1","","87","","","","13","","25","","24.1","","100.22","","","","-23","","Blowing Snow"
"-133.03","69.43","TUKTOYAKTUK A","2203913","2022-01-24 15:00","2022","01","24","15:00","-12.7","","-14.4","","87","","","","14","","31","","16.1","","100.05","","","","-23","","Blowing Snow"
"-133.03","69.43","TUKTOYAKTUK A","2203913","2022-01-24 16:00","2022","01","24","16:00","-11.1","","-12.7","","89","","","","14","","22","","16.1","","99.95","","","","-20","","Blowing Snow"
"-133.03","69.43","TUKTOYAKTUK A","2203913","2022-01-24 17:00","2022","01","24","17:00","-9.7","","-11.1","","90","","","","15","","23","","16.1","","99.84","","","","-18","","Blowing Snow"
"-133.03","69.43","TUKTOYAKTUK A","2203913","2022-01-24 18:00","2022","01","24","18:00","-8.4","","-9.8","","90","","","","14","","31","","16.1","","99.66","","","","-18","","Blowing Snow"
"-133.03","69.43","TUKTOYAKTUK A","2203913","2022-01-24 19:00","2022","01","24","19:00","-7.7","","-9.2","","89","","","","16","","22","","16.1","","99.53","","","","-15","","Blowing Snow"
"-133.03","69.43","TUKTOYAKTUK A","2203913","2022-01-24 20:00","2022","01","24","20:00","-7.8","","-9.4","","88","","","","16","","26","","24.1","","99.41","","","","-16","","Cloudy"
"-133.03","69.43","TUKTOYAKTUK A","2203913","2022-01-24 21:00","2022","01","24","21:00","-7.4","","-9.2","","87","","","","18","","30","","24.1","","99.30","","","","-16","","NA"
"-133.03","69.43","TUKTOYAKTUK A","2203913","2022-01-24 22:00","2022","01","24","22:00","-7.2","","-9.0","","87","","","","17","","25","","24.1","","99.21","","","","-15","","NA"
"-133.03","69.43","TUKTOYAKTUK A","2203913","2022-01-24 23:00","2022","01","24","23:00","-6.1","","-8.5","","83","","","","18","","25","","24.1","","99.15","","","","-14","","Cloudy"
"-133.03","69.43","TUKTOYAKTUK A","2203913","2022-01-25 00:00","2022","01","25","00:00"
"-133.03","69.43","TUKTOYAKTUK A","2203913","2022-01-25 01:00","2022","01","25","01:00"
"-133.03","69.43","TUKTOYAKTUK A","2203913","2022-01-25 02:00","2022","01","25","02:00"
"-133.03","69.43","TUKTOYAKTUK A","2203913","2022-01-25 03:00","2022","01","25","03:00"
"-133.03","69.43","TUKTOYAKTUK A","2203913","2022-01-25 04:00","2022","01","25","04:00"
"-133.03","69.43","TUKTOYAKTUK A","2203913","2022-01-25 05:00","2022","01","25","05:00"
"-133.03","69.43","TUKTOYAKTUK A","2203913","2022-01-25 06:00","2022","01","25","06:00"
"-133.03","69.43","TUKTOYAKTUK A","2203913","2022-01-25 07:00","2022","01","25","07:00","-2.7","","-2.7","","100","","","","26","","39","","4.0","","98.90","","","","-11","","Snow,Blowing Snow"
"-133.03","69.43","TUKTOYAKTUK A","2203913","2022-01-25 08:00","2022","01","25","08:00","-2.2","","-2.2","","100","","","","26","","30","","4.0","","98.96","","","","-9","","Snow,Blowing Snow"
"-133.03","69.43","TUKTOYAKTUK A","2203913","2022-01-25 09:00","2022","01","25","09:00","-1.5","","-1.5","","100","","","","27","","34","","4.0","","99.03","","","","-9","","Snow,Blowing Snow"
"-133.03","69.43","TUKTOYAKTUK A","2203913","2022-01-25 10:00","2022","01","25","10:00","-2.1","","-2.1","","100","","","","27","","24","","3.2","","99.10","","","","-8","","Snow,Blowing Snow"
"-133.03","69.43","TUKTOYAKTUK A","2203913","2022-01-25 11:00","2022","01","25","11:00","-1.7","","-3.1","","90","","","","27","","32","","9.7","","99.16","","","","-9","","Blowing Snow"
"-133.03","69.43","TUKTOYAKTUK A","2203913","2022-01-25 12:00","2022","01","25","12:00","-2.3","","-3.7","","90","","","","28","","34","","16.1","","99.22","","","","-10","","Blowing Snow"
"-133.03","69.43","TUKTOYAKTUK A","2203913","2022-01-25 13:00","2022","01","25","13:00","-3.1","","-4.6","","90","","","","28","","39","","16.1","","99.32","","","","-11","","Blowing Snow"
"-133.03","69.43","TUKTOYAKTUK A","2203913","2022-01-25 14:00","2022","01","25","14:00","-3.4","","-4.7","","90","","","","29","","40","","16.1","","99.48","","","","-12","","Blowing Snow"
"-133.03","69.43","TUKTOYAKTUK A","2203913","2022-01-25 15:00","2022","01","25","15:00","-4.9","","-5.5","","96","","","","30","","43","","2.4","","99.71","","","","-14","","Snow,Blowing Snow"
"-133.03","69.43","TUKTOYAKTUK A","2203913","2022-01-25 16:00","2022","01","25","16:00","-7.1","","-7.7","","96","","","","31","","43","","0.4","","99.98","","","","-17","","Snow,Blowing Snow"
"-133.03","69.43","TUKTOYAKTUK A","2203913","2022-01-25 17:00","2022","01","25","17:00","-7.3","","-8.1","","94","","","","30","","41","","1.6","","100.21","","","","-17","","Snow,Blowing Snow"
"-133.03","69.43","TUKTOYAKTUK A","2203913","2022-01-25 18:00","2022","01","25","18:00","-8.7","","-9.8","","92","","","","31","","56","","0.8","","100.40","","","","-21","","Snow,Blowing Snow"
"-133.03","69.43","TUKTOYAKTUK A","2203913","2022-01-25 19:00","2022","01","25","19:00","-10.2","","-11.4","","91","","","","31","","60","","0.2","","100.56","","","","-23","","Snow,Blowing Snow"
"-133.03","69.43","TUKTOYAKTUK A","2203913","2022-01-25 20:00","2022","01","25","20:00","-11.1","","-12.7","","88","","","","31","","49","","0.4","","100.77","","","","-23","","Snow,Blowing Snow"
"-133.03","69.43","TUKTOYAKTUK A","2203913","2022-01-25 21:00","2022","01","25","21:00","-12.0","","-13.6","","88","","","","31","","56","","0.2","","100.92","","","","-25","","Snow,Blowing Snow"
"-133.03","69.43","TUKTOYAKTUK A","2203913","2022-01-25 22:00","2022","01","25","22:00","-12.3","","-14.1","","87","","","","31","","53","","0.2","","101.09","","","","-25","","Snow,Blowing Snow"
"-133.03","69.43","TUKTOYAKTUK A","2203913","2022-01-25 23:00","2022","01","25","23:00","-13.0","","-14.8","","86","","","","31","","54","","0.4","","101.21","","","","-26","","Snow,Blowing Snow"
"-133.03","69.43","TUKTOYAKTUK A","2203913","2022-01-26 00:00","2022","01","26","00:00"
"-133.03","69.43","TUKTOYAKTUK A","2203913","2022-01-26 01:00","2022","01","26","01:00"
"-133.03","69.43","TUKTOYAKTUK A","2203913","2022-01-26 02:00","2022","01","26","02:00"
"-133.03","69.43","TUKTOYAKTUK A","2203913","2022-01-26 03:00","2022","01","26","03:00"
"-133.03","69.43","TUKTOYAKTUK A","2203913","2022-01-26 04:00","2022","01","26","04:00"
"-133.03","69.43","TUKTOYAKTUK A","2203913","2022-01-26 05:00","2022","01","26","05:00"
"-133.03","69.43","TUKTOYAKTUK A","2203913","2022-01-26 06:00","2022","01","26","06:00"
"-133.03","69.43","TUKTOYAKTUK A","2203913","2022-01-26 07:00","2022","01","26","07:00","-15.1","","-18.2","","78","","","","32","","36","","9.7","","102.21","","","","-27","","Snow,Blowing Snow"
"-133.03","69.43","TUKTOYAKTUK A","2203913","2022-01-26 08:00","2022","01","26","08:00","-16.2","","-20.0","","73","","","","32","","34","","16.1","","102.32","","","","-28","","Snow,Blowing Snow"
"-133.03","69.43","TUKTOYAKTUK A","2203913","2022-01-26 09:00","2022","01","26","09:00","-16.6","","-19.9","","76","","","","30","","22","","16.1","","102.40","","","","-27","","Blowing Snow"
"-133.03","69.43","TUKTOYAKTUK A","2203913","2022-01-26 10:00","2022","01","26","10:00","-17.0","","-19.7","","80","","","","31","","18","","16.1","","102.45","","","","-26","","Blowing Snow"
"-133.03","69.43","TUKTOYAKTUK A","2203913","2022-01-26 11:00","2022","01","26","11:00","-17.3","","-20.3","","78","","","","31","","32","","6.4","","102.54","","","","-29","","Snow,Blowing Snow"
"-133.03","69.43","TUKTOYAKTUK A","2203913","2022-01-26 12:00","2022","01","26","12:00","-18.0","","-21.0","","77","","","","29","","30","","8.1","","102.61","","","","-30","","Snow,Blowing Snow"
"-133.03","69.43","TUKTOYAKTUK A","2203913","2022-01-26 13:00","2022","01","26","13:00","-18.5","","-21.9","","75","","","","29","","27","","12.9","","102.67","","","","-30","","Snow,Blowing Snow"
"-133.03","69.43","TUKTOYAKTUK A","2203913","2022-01-26 14:00","2022","01","26","14:00","-19.2","","-22.3","","77","","","","29","","29","","16.1","","102.73","","","","-31","","Blowing Snow"
"-133.03","69.43","TUKTOYAKTUK A","2203913","2022-01-26 15:00","2022","01","26","15:00","-20.2","","-23.7","","74","","","","29","","33","","12.9","","102.77","","","","-33","","Blowing Snow"
"-133.03","69.43","TUKTOYAKTUK A","2203913","2022-01-26 16:00","2022","01","26","16:00","-20.9","","-24.1","","76","","","","29","","27","","16.1","","102.82","","","","-33","","NA"
"-133.03","69.43","TUKTOYAKTUK A","2203913","2022-01-26 17:00","2022","01","26","17:00","-21.5","","-24.5","","77","","","","29","","22","","16.1","","102.89","","","","-33","","Blowing Snow"
"-133.03","69.43","TUKTOYAKTUK A","2203913","2022-01-26 18:00","2022","01","26","18:00","-21.8","","-24.8","","77","","","","28","","24","","16.1","","102.90","","","","-34","","Blowing Snow"
"-133.03","69.43","TUKTOYAKTUK A","2203913","2022-01-26 19:00","2022","01","26","19:00","-21.7","","-24.7","","77","","","","29","","29","","24.1","","102.91","","","","-35","","Blowing Snow"
"-133.03","69.43","TUKTOYAKTUK A","2203913","2022-01-26 20:00","2022","01","26","20:00","-22.3","","-25.3","","77","","","","29","","28","","24.1","","102.98","","","","-35","","Clear"
"-133.03","69.43","TUKTOYAKTUK A","2203913","2022-01-26 21:00","2022","01","26","21:00","-22.8","","-25.8","","77","","","","29","","26","","24.1","","103.03","","","","-35","","NA"
"-133.03","69.43","TUKTOYAKTUK A","2203913","2022-01-26 22:00","2022","01","26","22:00","-23.4","","-26.5","","76","","","","28","","21","","24.1","","103.08","","","","-35","","NA"
"-133.03","69.43","TUKTOYAKTUK A","2203913","2022-01-26 23:00","2022","01","26","23:00","-24.0","","-27.2","","75","","","","26","","18","","24.1","","103.11","","","","-35","","Clear"
"-133.03","69.43","TUKTOYAKTUK A","2203913","2022-01-27 00:00","2022","01","27","00:00"
"-133.03","69.43","TUKTOYAKTUK A","2203913","2022-01-27 01:00","2022","01","27","01:00"
"-133.03","69.43","TUKTOYAKTUK A","2203913","2022-01-27 02:00","2022","01","27","02:00"
"-133.03","69.43","TUKTOYAKTUK A","2203913","2022-01-27 03:00","2022","01","27","03:00"
"-133.03","69.43","TUKTOYAKTUK A","2203913","2022-01-27 04:00","2022","01","27","04:00"
"-133.03","69.43","TUKTOYAKTUK A","2203913","2022-01-27 05:00","2022","01","27","05:00"
"-133.03","69.43","TUKTOYAKTUK A","2203913","2022-01-27 06:00","2022","01","27","06:00"
"-133.03","69.43","TUKTOYAKTUK A","2203913","2022-01-27 07:00","2022","01","27","07:00","-26.7","","-29.7","","76","","","","28","","22","","24.1","","103.18","","","","-39","","NA"
"-133.03","69.43","TUKTOYAKTUK A","2203913","2022-01-27 08:00","2022","01","27","08:00","-28.1","","-31.1","","76","","","","26","","17","","32.2","","103.19","","","","-40","","Clear"
"-133.03","69.43","TUKTOYAKTUK A","2203913","2022-01-27 09:00","2022","01","27","09:00","-27.9","","-31.0","","76","","","","27","","18","","24.1","","103.17","","","","-40","","NA"
"-133.03","69.43","TUKTOYAKTUK A","2203913","2022-01-27 10:00","2022","01","27","10:00","-27.3","","-30.3","","76","","","","28","","18","","24.1","","103.15","","","","-39","","NA"
"-133.03","69.43","TUKTOYAKTUK A","2203913","2022-01-27 11:00","2022","01","27","11:00","-27.8","","-30.9","","76","","","","28","","17","","24.1","","103.15","","","","-39","","Clear"
"-133.03","69.43","TUKTOYAKTUK A","2203913","2022-01-27 12:00","2022","01","27","12:00","-28.4","","-31.5","","75","","","","27","","12","","24.1","","103.15","","","","-38","","NA"
"-133.03","69.43","TUKTOYAKTUK A","2203913","2022-01-27 13:00","2022","01","27","13:00","-28.9","","-32.1","","75","","","","26","","12","","24.1","","103.14","","","","-39","","NA"
"-133.03","69.43","TUKTOYAKTUK A","2203913","2022-01-27 14:00","2022","01","27","14:00","-28.1","","-31.2","","76","","","","28","","17","","24.1","","103.14","","","","-40","","Mainly Clear"
"-133.03","69.43","TUKTOYAKTUK A","2203913","2022-01-27 15:00","2022","01","27","15:00","-29.2","","-32.4","","75","","","","26","","14","","24.1","","103.13","","","","-40","","NA"
"-133.03","69.43","TUKTOYAKTUK A","2203913","2022-01-27 16:00","2022","01","27","16:00","-29.3","","-32.4","","75","","","","25","","13","","24.1","","103.13","","","","-40","","NA"
"-133.03","69.43","TUKTOYAKTUK A","2203913","2022-01-27 17:00","2022","01","27","17:00","-29.3","","-32.5","","75","","","","26","","12","","24.1","","103.07","","","","-39","","Mainly Clear"
"-133.03","69.43","TUKTOYAKTUK A","2203913","2022-01-27 18:00","2022","01","27","18:00","-28.4","","-31.4","","75","","","","30","","18","","24.1","","103.00","","","","-40","","NA"
"-133.03","69.43","TUKTOYAKTUK A","2203913","2022-01-27 19:00","2022","01","27","19:00","-29.8","","-32.9","","75","","","","27","","11","","24.1","","103.03","","","","-39","","NA"
"-133.03","69.43","TUKTOYAKTUK A","2203913","2022-01-27 20:00","2022","01","27","20:00","-31.2","","-34.5","","74","","","","24","","13","","24.1","","103.02","","","","-42","","Clear"
"-133.03","69.43","TUKTOYAKTUK A","2203913","2022-01-27 21:00","2022","01","27","21:00","-31.4","","-34.8","","73","","","","23","","17","","24.1","","102.96","","","","-44","","NA"
"-133.03","69.43","TUKTOYAKTUK A","2203913","2022-01-27 22:00","2022","01","27","22:00","-29.8","","-33.0","","75","","","","28","","19","","24.1","","102.91","","","","-43","","NA"
"-133.03","69.43","TUKTOYAKTUK A","2203913","2022-01-27 23:00","2022","01","27","23:00","-30.5","","-33.8","","74","","","","25","","13","","24.1","","102.88","","","","-41","","Clear"
"-133.03","69.43","TUKTOYAKTUK A","2203913","2022-01-28 00:00","2022","01","28","00:00"
"-133.03","69.43","TUKTOYAKTUK A","2203913","2022-01-28 01:00","2022","01","28","01:00"
"-133.03","69.43","TUKTOYAKTUK A","2203913","2022-01-28 02:00","2022","01","28","02:00"
"-133.03","69.43","TUKTOYAKTUK A","2203913","2022-01-28 03:00","2022","01","28","03:00"
"-133.03","69.43","TUKTOYAKTUK A","2203913","2022-01-28 04:00","2022","01","28","04:00"
"-133.03","69.43","TUKTOYAKTUK A","2203913","2022-01-28 05:00","2022","01","28","05:00"
"-133.03","69.43","TUKTOYAKTUK A","2203913","2022-01-28 06:00","2022","01","28","06:00"
"-133.03","69.43","TUKTOYAKTUK A","2203913","2022-01-28 07:00","2022","01","28","07:00","-29.9","","-33.2","","74","","","","26","","19","","24.1","","102.70","","","","-43","","Blowing Snow"
"-133.03","69.43","TUKTOYAKTUK A","2203913","2022-01-28 08:00","2022","01","28","08:00","-29.7","","-33.0","","74","","","","27","","21","","24.1","","102.68","","","","-43","","Clear"
"-133.03","69.43","TUKTOYAKTUK A","2203913","2022-01-28 09:00","2022","01","28","09:00","-29.4","","-32.7","","74","","","","27","","22","","24.1","","102.66","","","","-43","","NA"
"-133.03","69.43","TUKTOYAKTUK A","2203913","2022-01-28 10:00","2022","01","28","10:00","-28.8","","-32.1","","74","","","","28","","22","","24.1","","102.66","","","","-42","","NA"
"-133.03","69.43","TUKTOYAKTUK A","2203913","2022-01-28 11:00","2022","01","28","11:00","-28.6","","-31.9","","74","","","","27","","24","","24.1","","102.65","","","","-42","","Clear"
"-133.03","69.43","TUKTOYAKTUK A","2203913","2022-01-28 12:00","2022","01","28","12:00","-28.2","","-31.5","","74","","","","27","","26","","24.1","","102.64","","","","-42","","NA"
"-133.03","69.43","TUKTOYAKTUK A","2203913","2022-01-28 13:00","2022","01","28","13:00","-28.2","","-31.4","","74","","","","27","","25","","24.1","","102.63","","","","-42","","NA"
"-133.03","69.43","TUKTOYAKTUK A","2203913","2022-01-28 14:00","2022","01","28","14:00","-28.3","","-31.6","","74","","","","26","","25","","24.1","","102.64","","","","-42","","Mainly Clear"
"-133.03","69.43","TUKTOYAKTUK A","2203913","2022-01-28 15:00","2022","01","28","15:00","-27.9","","-31.1","","74","","","","27","","27","","24.1","","102.62","","","","-42","","NA"
"-133.03","69.43","TUKTOYAKTUK A","2203913","2022-01-28 16:00","2022","01","28","16:00","-28.2","","-31.5","","74","","","","26","","24","","16.1","","102.59","","","","-42","","Blowing Snow"
"-133.03","69.43","TUKTOYAKTUK A","2203913","2022-01-28 17:00","2022","01","28","17:00","-28.3","","-31.5","","74","","","","27","","28","","16.1","","102.56","","","","-43","","Mainly Clear"
"-133.03","69.43","TUKTOYAKTUK A","2203913","2022-01-28 18:00","2022","01","28","18:00","-27.8","","-31.0","","74","","","","26","","28","","16.1","","102.54","","","","-42","","Blowing Snow"
"-133.03","69.43","TUKTOYAKTUK A","2203913","2022-01-28 19:00","2022","01","28","19:00","-27.5","","-30.7","","75","","","","27","","30","","16.1","","102.51","","","","-42","","Blowing Snow"
"-133.03","69.43","TUKTOYAKTUK A","2203913","2022-01-28 20:00","2022","01","28","20:00","-27.2","","-30.4","","75","","","","26","","28","","16.1","","102.50","","","","-42","","Blowing Snow"
"-133.03","69.43","TUKTOYAKTUK A","2203913","2022-01-28 21:00","2022","01","28","21:00","-26.2","","-29.3","","75","","","","26","","28","","24.1","","102.45","","","","-40","","NA"
"-133.03","69.43","TUKTOYAKTUK A","2203913","2022-01-28 22:00","2022","01","28","22:00","-25.5","","-28.6","","76","","","","27","","32","","24.1","","102.43","","","","-40","","NA"
"-133.03","69.43","TUKTOYAKTUK A","2203913","2022-01-28 23:00","2022","01","28","23:00","-25.3","","-28.4","","76","","","","28","","31","","24.1","","102.43","","","","-40","","Mainly Clear"
"-133.03","69.43","TUKTOYAKTUK A","2203913","2022-01-29 00:00","2022","01","29","00:00"
"-133.03","69.43","TUKTOYAKTUK A","2203913","2022-01-29 01:00","2022","01","29","01:00"
"-133.03","69.43","TUKTOYAKTUK A","2203913","2022-01-29 02:00","2022","01","29","02:00"
"-133.03","69.43","TUKTOYAKTUK A","2203913","2022-01-29 03:00","2022","01","29","03:00"
"-133.03","69.43","TUKTOYAKTUK A","2203913","2022-01-29 04:00","2022","01","29","04:00"
"-133.03","69.43","TUKTOYAKTUK A","2203913","2022-01-29 05:00","2022","01","29","05:00"
"-133.03","69.43","TUKTOYAKTUK A","2203913","2022-01-29 06:00","2022","01","29","06:00"
"-133.03","69.43","TUKTOYAKTUK A","2203913","2022-01-29 07:00","2022","01","29","07:00","-22.4","","-25.3","","78","","","","28","","24","","9.7","","102.19","","","","-34","","Snow,Blowing Snow"
"-133.03","69.43","TUKTOYAKTUK A","2203913","2022-01-29 08:00","2022","01","29","08:00","-23.4","","-26.4","","77","","","","28","","28","","9.7","","102.14","","","","-37","","Snow,Blowing Snow"
"-133.03","69.43","TUKTOYAKTUK A","2203913","2022-01-29 09:00","2022","01","29","09:00","-23.9","","-27.0","","77","","","","28","","23","","9.7","","102.09","","","","-36","","Snow,Blowing Snow"
"-133.03","69.43","TUKTOYAKTUK A","2203913","2022-01-29 10:00","2022","01","29","10:00","-23.5","","-26.5","","76","","","","27","","23","","9.7","","102.06","","","","-36","","Snow,Blowing Snow"
"-133.03","69.43","TUKTOYAKTUK A","2203913","2022-01-29 11:00","2022","01","29","11:00","-23.2","","-26.4","","76","","","","25","","21","","9.7","","102.01","","","","-35","","Snow,Blowing Snow"
"-133.03","69.43","TUKTOYAKTUK A","2203913","2022-01-29 12:00","2022","01","29","12:00","-23.0","","-26.4","","74","","","","26","","26","","9.7","","102.01","","","","-36","","Snow,Blowing Snow"
"-133.03","69.43","TUKTOYAKTUK A","2203913","2022-01-29 13:00","2022","01","29","13:00","-22.6","","-25.9","","75","","","","27","","24","","16.1","","101.97","","","","-35","","Snow,Blowing Snow"
"-133.03","69.43","TUKTOYAKTUK A","2203913","2022-01-29 14:00","2022","01","29","14:00","-21.6","","-24.8","","76","","","","28","","29","","4.8","","101.94","","","","-34","","Snow,Blowing Snow"
"-133.03","69.43","TUKTOYAKTUK A","2203913","2022-01-29 15:00","2022","01","29","15:00","-20.9","","-23.9","","77","","","","29","","30","","4.8","","101.92","","","","-34","","Snow,Blowing Snow"
"-133.03","69.43","TUKTOYAKTUK A","2203913","2022-01-29 16:00","2022","01","29","16:00","-21.7","","-24.6","","77","","","","29","","28","","9.7","","101.88","","","","-34","","Snow,Blowing Snow"
"-133.03","69.43","TUKTOYAKTUK A","2203913","2022-01-29 17:00","2022","01","29","17:00","-21.1","","-24.0","","79","","","","29","","27","","8.1","","101.86","","","","-33","","Snow,Blowing Snow"
"-133.03","69.43","TUKTOYAKTUK A","2203913","2022-01-29 18:00","2022","01","29","18:00","-20.7","","-23.5","","79","","","","28","","24","","9.7","","101.85","","","","-32","","Snow,Blowing Snow"
"-133.03","69.43","TUKTOYAKTUK A","2203913","2022-01-29 19:00","2022","01","29","19:00","-22.1","","-24.8","","79","","","","28","","20","","16.1","","101.86","","","","-33","","Blowing Snow"
"-133.03","69.43","TUKTOYAKTUK A","2203913","2022-01-29 20:00","2022","01","29","20:00","-22.1","","-24.9","","78","","","","28","","20","","16.1","","101.83","","","","-33","","Blowing Snow"
"-133.03","69.43","TUKTOYAKTUK A","2203913","2022-01-29 21:00","2022","01","29","21:00","-21.4","","-24.2","","78","","","","28","","27","","16.1","","101.85","","","","-34","","Blowing Snow"
"-133.03","69.43","TUKTOYAKTUK A","2203913","2022-01-29 22:00","2022","01","29","22:00","-20.6","","-23.3","","79","","","","29","","28","","6.4","","101.85","","","","-33","","Snow,Blowing Snow"
"-133.03","69.43","TUKTOYAKTUK A","2203913","2022-01-29 23:00","2022","01","29","23:00","-20.2","","-23.0","","79","","","","29","","29","","4.8","","101.87","","","","-33","","Snow,Blowing Snow"
"-133.03","69.43","TUKTOYAKTUK A","2203913","2022-01-30 00:00","2022","01","30","00:00"
"-133.03","69.43","TUKTOYAKTUK A","2203913","2022-01-30 01:00","2022","01","30","01:00"
"-133.03","69.43","TUKTOYAKTUK A","2203913","2022-01-30 02:00","2022","01","30","02:00"
"-133.03","69.43","TUKTOYAKTUK A","2203913","2022-01-30 03:00","2022","01","30","03:00"
"-133.03","69.43","TUKTOYAKTUK A","2203913","2022-01-30 04:00","2022","01","30","04:00"
"-133.03","69.43","TUKTOYAKTUK A","2203913","2022-01-30 05:00","2022","01","30","05:00"
"-133.03","69.43","TUKTOYAKTUK A","2203913","2022-01-30 06:00","2022","01","30","06:00"
"-133.03","69.43","TUKTOYAKTUK A","2203913","2022-01-30 07:00","2022","01","30","07:00","-19.4","","-22.0","","80","","","","30","","27","","3.2","","102.00","","","","-31","","Snow,Blowing Snow"
"-133.03","69.43","TUKTOYAKTUK A","2203913","2022-01-30 08:00","2022","01","30","08:00","-19.4","","-22.0","","81","","","","30","","30","","1.6","","102.04","","","","-32","","Snow,Blowing Snow"
"-133.03","69.43","TUKTOYAKTUK A","2203913","2022-01-30 09:00","2022","01","30","09:00","-19.4","","-22.0","","80","","","","29","","26","","3.2","","102.03","","","","-31","","Snow,Blowing Snow"
"-133.03","69.43","TUKTOYAKTUK A","2203913","2022-01-30 10:00","2022","01","30","10:00","-19.3","","-21.8","","81","","","","30","","30","","3.2","","102.04","","","","-32","","Snow,Blowing Snow"
"-133.03","69.43","TUKTOYAKTUK A","2203913","2022-01-30 11:00","2022","01","30","11:00","-19.1","","-21.6","","81","","","","30","","31","","1.6","","102.05","","","","-32","","Snow,Blowing Snow"
"-133.03","69.43","TUKTOYAKTUK A","2203913","2022-01-30 12:00","2022","01","30","12:00","-18.9","","-21.4","","81","","","","30","","32","","1.6","","102.09","","","","-31","","Snow,Blowing Snow"
"-133.03","69.43","TUKTOYAKTUK A","2203913","2022-01-30 13:00","2022","01","30","13:00","-18.7","","-21.2","","81","","","","30","","32","","1.6","","102.08","","","","-31","","Snow,Blowing Snow"
"-133.03","69.43","TUKTOYAKTUK A","2203913","2022-01-30 14:00","2022","01","30","14:00","-18.4","","-20.8","","81","","","","30","","31","","0.8","","102.08","","","","-31","","Snow,Blowing Snow"
"-133.03","69.43","TUKTOYAKTUK A","2203913","2022-01-30 15:00","2022","01","30","15:00","-18.1","","-20.5","","82","","","","30","","39","","0.8","","102.05","","","","-31","","Snow,Blowing Snow"
"-133.03","69.43","TUKTOYAKTUK A","2203913","2022-01-30 16:00","2022","01","30","16:00","-18.2","","-20.6","","82","","","","30","","34","","0.6","","102.09","","","","-31","","Snow,Blowing Snow"
"-133.03","69.43","TUKTOYAKTUK A","2203913","2022-01-30 17:00","2022","01","30","17:00","-18.2","","-20.6","","82","","","","30","","34","","0.6","","102.09","","","","-31","","Snow,Blowing Snow"
"-133.03","69.43","TUKTOYAKTUK A","2203913","2022-01-30 18:00","2022","01","30","18:00","-18.4","","-20.8","","82","","","","30","","40","","0.8","","102.07","","","","-32","","Snow,Blowing Snow"
"-133.03","69.43","TUKTOYAKTUK A","2203913","2022-01-30 19:00","2022","01","30","19:00","-18.7","","-21.1","","81","","","","30","","40","","0.8","","102.11","","","","-32","","Snow,Blowing Snow"
"-133.03","69.43","TUKTOYAKTUK A","2203913","2022-01-30 20:00","2022","01","30","20:00","-18.7","","-21.1","","82","","","","30","","35","","1.6","","102.11","","","","-32","","Snow,Blowing Snow"
"-133.03","69.43","TUKTOYAKTUK A","2203913","2022-01-30 21:00","2022","01","30","21:00","-18.6","","-21.0","","82","","","","31","","38","","1.0","","102.13","","","","-32","","Snow,Blowing Snow"
"-133.03","69.43","TUKTOYAKTUK A","2203913","2022-01-30 22:00","2022","01","30","22:00","-18.7","","-21.1","","82","","","","30","","33","","1.6","","102.15","","","","-31","","Snow,Blowing Snow"
"-133.03","69.43","TUKTOYAKTUK A","2203913","2022-01-30 23:00","2022","01","30","23:00","-18.2","","-20.6","","82","","","","31","","36","","1.2","","102.15","","","","-31","","Snow,Blowing Snow"
"-133.03","69.43","TUKTOYAKTUK A","2203913","2022-01-31 00:00","2022","01","31","00:00"
"-133.03","69.43","TUKTOYAKTUK A","2203913","2022-01-31 01:00","2022","01","31","01:00"
"-133.03","69.43","TUKTOYAKTUK A","2203913","2022-01-31 02:00","2022","01","31","02:00"
"-133.03","69.43","TUKTOYAKTUK A","2203913","2022-01-31 03:00","2022","01","31","03:00"
"-133.03","69.43","TUKTOYAKTUK A","2203913","2022-01-31 04:00","2022","01","31","04:00"
"-133.03","69.43","TUKTOYAKTUK A","2203913","2022-01-31 05:00","2022","01","31","05:00"
"-133.03","69.43","TUKTOYAKTUK A","2203913","2022-01-31 06:00","2022","01","31","06:00"
"-133.03","69.43","TUKTOYAKTUK A","2203913","2022-01-31 07:00","2022","01","31","07:00","-21.6","","-24.5","","78","","","","1","","9","","16.1","","102.64","","","","-29","","NA"
"-133.03","69.43","TUKTOYAKTUK A","2203913","2022-01-31 08:00","2022","01","31","08:00","-22.5","","-25.5","","77","","","","1","","8","","16.1","","102.70","","","","-29","","Mostly Cloudy"
"-133.03","69.43","TUKTOYAKTUK A","2203913","2022-01-31 09:00","2022","01","31","09:00","-23.2","","-26.3","","76","","","","2","","7","","16.1","","102.76","","","","-29","","Snow"
"-133.03","69.43","TUKTOYAKTUK A","2203913","2022-01-31 10:00","2022","01","31","10:00","-24.4","","-27.3","","77","","","","34","","4","","16.1","","102.82","","","","-28","","Snow"
"-133.03","69.43","TUKTOYAKTUK A","2203913","2022-01-31 11:00","2022","01","31","11:00","-24.4","","-27.4","","76","","","","35","","7","","11.3","","102.91","","","","-31","","Snow"
"-133.03","69.43","TUKTOYAKTUK A","2203913","2022-01-31 12:00","2022","01","31","12:00","-25.2","","-28.5","","75","","","","1","","7","","8.1","","102.98","","","","-32","","Snow"
"-133.03","69.43","TUKTOYAKTUK A","2203913","2022-01-31 13:00","2022","01","31","13:00","-25.2","","-28.6","","74","","","","2","","10","","9.7","","103.06","","","","-33","","Snow,Fog"
"-133.03","69.43","TUKTOYAKTUK A","2203913","2022-01-31 14:00","2022","01","31","14:00","-25.7","","-29.1","","74","","","","6","","3","","9.7","","103.16","","","","-29","","Snow,Fog"
"-133.03","69.43","TUKTOYAKTUK A","2203913","2022-01-31 15:00","2022","01","31","15:00","-27.2","","-30.6","","74","","","","8","","6","","12.9","","103.26","","","","-33","","Snow,Fog"
"-133.03","69.43","TUKTOYAKTUK A","2203913","2022-01-31 16:00","2022","01","31","16:00","-27.6","","-30.8","","75","","","","36","","1","","16.1","","103.36","","","","-29","","Snow"
"-133.03","69.43","TUKTOYAKTUK A","2203913","2022-01-31 17:00","2022","01","31","17:00","-27.3","","-30.5","","75","","","","36","","2","","24.1","","103.44","","","","-29","","Mainly Clear"
"-133.03","69.43","TUKTOYAKTUK A","2203913","2022-01-31 18:00","2022","01","31","18:00","-28.5","","-31.6","","75","","","","24","","3","","24.1","","103.50","","","","-32","","NA"
"-133.03","69.43","TUKTOYAKTUK A","2203913","2022-01-31 19:00","2022","01","31","19:00","-27.5","","-30.7","","75","","","","29","","4","","24.1","","103.56","","","","-32","","NA"
"-133.03","69.43","TUKTOYAKTUK A","2203913","2022-01-31 20:00","2022","01","31","20:00","-29.2","","-32.2","","76","","","","11","","4","","24.1","","103.64","","","","-34","","Mainly Clear"
"-133.03","69.43","TUKTOYAKTUK A","2203913","2022-01-31 21:00","2022","01","31","21:00","-29.9","","-32.9","","76","","","","15","","3","","24.1","","103.71","","","","-33","","NA"
"-133.03","69.43","TUKTOYAKTUK A","2203913","2022-01-31 22:00","2022","01","31","22:00","-30.2","","-33.2","","76","","","","14","","4","","24.1","","103.76","","","","-35","","NA"
"-133.03","69.43","TUKTOYAKTUK A","2203913","2022-01-31 23:00","2022","01","31","23:00","-30.9","","-33.9","","76","","","","19","","4","","24.1","","103.81","","","","-35","","Clear"
