"Longitude (x)","Latitude (y)","Station Name","Climate ID","Date/Time (LST)","Year","Month","Day","Time (LST)","Temp (°C)","Temp Flag","Dew Point Temp (°C)","Dew Point Temp Flag","Rel Hum (%)","Rel Hum Flag","Precip. Amount (mm)","Precip. Amount Flag","Wind Dir (10s deg)","Wind Dir Flag","Wind Spd (km/h)","Wind Spd Flag","Visibility (km)","Visibility Flag","Stn Press (kPa)","Stn Press Flag","Hmdx","Hmdx Flag","Wind Chill","Wind Chill Flag","Weather"
"-83.36","64.19","CORAL HARBOUR A","2301002","2023-02-01 00:00","2023","02","01","00:00","-32.1","","-35.3","","74","","","","1","","31","","19.3","","99.10","","","","-49","","Ice Crystals,Blowing Snow"
"-83.36","64.19","CORAL HARBOUR A","2301002","2023-02-01 01:00","2023","02","01","01:00","-31.7","","-34.9","","74","","","","36","","32","","19.3","","99.10","","","","-48","","Ice Crystals,Blowing Snow"
"-83.36","64.19","CORAL HARBOUR A","2301002","2023-02-01 02:00","2023","02","01","02:00","-30.9","","-34.1","","75","","","","1","","28","","19.3","","99.11","","","","-46","","Ice Crystals,Blowing Snow"
"-83.36","64.19","CORAL HARBOUR A","2301002","2023-02-01 03:00","2023","02","01","03:00","-31.9","","-35.2","","73","","","","36","","31","","19.3","","99.12","","","","-48","","Ice Crystals,Blowing Snow"
"-83.36","64.19","CORAL HARBOUR A","2301002","2023-02-01 04:00","2023","02","01","04:00"
"-83.36","64.19","CORAL HARBOUR A","2301002","2023-02-01 05:00","2023","02","01","05:00","-32.4","","-35.7","","73","","","","36","","35","","19.3","","99.12","","","","-50","","Ice Crystals,Blowing Snow"
"-83.36","64.19","CORAL HARBOUR A","2301002","2023-02-01 06:00","2023","02","01","06:00","-32.1","","-35.4","","73","","","","2","","36","","24.1","","99.11","","","","-50","","Ice Crystals,Blowing Snow"
"-83.36","64.19","CORAL HARBOUR A","2301002","2023-02-01 07:00","2023","02","01","07:00","-32.4","","-35.8","","73","","","","35","","27","","24.1","","99.13","","","","-48","","Ice Crystals,Blowing Snow"
"-83.36","64.19","CORAL HARBOUR A","2301002","2023-02-01 08:00","2023","02","01","08:00","-32.1","","-35.4","","73","","","","1","","36","","24.1","","99.14","","","","-50","","Ice Crystals"
"-83.36","64.19","CORAL HARBOUR A","2301002","2023-02-01 09:00","2023","02","01","09:00","-32.0","","-35.2","","74","","","","1","","34","","24.1","","99.13","","","","-49","","Ice Crystals,Blowing Snow"
"-83.36","64.19","CORAL HARBOUR A","2301002","2023-02-01 10:00","2023","02","01","10:00","-31.9","","-35.4","","72","","","","2","","32","","16.1","","99.13","","","","-49","","Ice Crystals,Blowing Snow"
"-83.36","64.19","CORAL HARBOUR A","2301002","2023-02-01 11:00","2023","02","01","11:00","-30.7","","-34.1","","73","","","","2","","28","","24.1","","99.16","","","","-46","","Ice Crystals,Blowing Snow"
"-83.36","64.19","CORAL HARBOUR A","2301002","2023-02-01 12:00","2023","02","01","12:00","-31.1","","-34.9","","71","","","","36","","27","","24.1","","99.18","","","","-46","","Ice Crystals,Blowing Snow"
"-83.36","64.19","CORAL HARBOUR A","2301002","2023-02-01 13:00","2023","02","01","13:00","-31.5","","-35.2","","71","","","","36","","29","","24.1","","99.18","","","","-47","","Ice Crystals,Blowing Snow"
"-83.36","64.19","CORAL HARBOUR A","2301002","2023-02-01 14:00","2023","02","01","14:00","-31.6","","-35.3","","71","","","","1","","25","","24.1","","99.20","","","","-47","","Ice Crystals,Blowing Snow"
"-83.36","64.19","CORAL HARBOUR A","2301002","2023-02-01 15:00","2023","02","01","15:00","-32.1","","-35.8","","71","","","","1","","26","","24.1","","99.24","","","","-47","","Ice Crystals,Blowing Snow"
"-83.36","64.19","CORAL HARBOUR A","2301002","2023-02-01 16:00","2023","02","01","16:00","-31.2","","-35.0","","70","","","","4","","29","","24.1","","99.27","","","","-47","","Ice Crystals,Blowing Snow"
"-83.36","64.19","CORAL HARBOUR A","2301002","2023-02-01 17:00","2023","02","01","17:00","-32.2","","-36.0","","70","","","","3","","23","","24.1","","99.31","","","","-47","","Ice Crystals,Blowing Snow"
"-83.36","64.19","CORAL HARBOUR A","2301002","2023-02-01 18:00","2023","02","01","18:00","-33.3","","-36.8","","72","","","","2","","27","","24.1","","99.34","","","","-49","","Ice Crystals,Blowing Snow"
"-83.36","64.19","CORAL HARBOUR A","2301002","2023-02-01 19:00","2023","02","01","19:00","-33.1","","-36.4","","73","","","","2","","26","","24.1","","99.38","","","","-49","","Ice Crystals,Blowing Snow"
"-83.36","64.19","CORAL HARBOUR A","2301002","2023-02-01 20:00","2023","02","01","20:00","-31.6","","-34.8","","74","","","","1","","25","","24.1","","99.40","","","","-47","","Ice Crystals,Blowing Snow"
"-83.36","64.19","CORAL HARBOUR A","2301002","2023-02-01 21:00","2023","02","01","21:00","-31.4","","-34.7","","73","","","","1","","21","","24.1","","99.41","","","","-45","","Ice Crystals,Blowing Snow"
"-83.36","64.19","CORAL HARBOUR A","2301002","2023-02-01 22:00","2023","02","01","22:00","-32.4","","-35.8","","72","","","","1","","34","","24.1","","99.39","","","","-50","","Ice Crystals,Blowing Snow"
"-83.36","64.19","CORAL HARBOUR A","2301002","2023-02-01 23:00","2023","02","01","23:00","-32.2","","-35.5","","73","","","","1","","35","","24.1","","99.40","","","","-50","","Ice Crystals,Blowing Snow"
"-83.36","64.19","CORAL HARBOUR A","2301002","2023-02-02 00:00","2023","02","02","00:00","-31.7","","-35.0","","73","","","","1","","32","","24.1","","99.38","","","","-48","","Ice Crystals,Blowing Snow"
"-83.36","64.19","CORAL HARBOUR A","2301002","2023-02-02 01:00","2023","02","02","01:00","-31.6","","-34.8","","74","","","","1","","43","","24.1","","99.41","","","","-50","","Ice Crystals,Blowing Snow"
"-83.36","64.19","CORAL HARBOUR A","2301002","2023-02-02 02:00","2023","02","02","02:00","-32.3","","-35.7","","73","","","","1","","34","","24.1","","99.45","","","","-49","","Ice Crystals,Blowing Snow"
"-83.36","64.19","CORAL HARBOUR A","2301002","2023-02-02 03:00","2023","02","02","03:00","-32.7","","-36.0","","73","","","","1","","34","","24.1","","99.48","","","","-50","","Ice Crystals,Blowing Snow"
"-83.36","64.19","CORAL HARBOUR A","2301002","2023-02-02 04:00","2023","02","02","04:00","-32.9","","-36.3","","72","","","","2","","35","","24.1","","99.54","","","","-50","","Ice Crystals,Blowing Snow"
"-83.36","64.19","CORAL HARBOUR A","2301002","2023-02-02 05:00","2023","02","02","05:00","-32.9","","-36.4","","72","","","","3","","26","","24.1","","99.65","","","","-48","","Ice Crystals,Blowing Snow"
"-83.36","64.19","CORAL HARBOUR A","2301002","2023-02-02 06:00","2023","02","02","06:00","-33.8","","-37.2","","72","","","","2","","24","","24.1","","99.71","","","","-49","","Ice Crystals,Blowing Snow"
"-83.36","64.19","CORAL HARBOUR A","2301002","2023-02-02 07:00","2023","02","02","07:00","-34.8","","-38.2","","71","","","","1","","27","","24.1","","99.75","","","","-51","","Ice Crystals,Blowing Snow"
"-83.36","64.19","CORAL HARBOUR A","2301002","2023-02-02 08:00","2023","02","02","08:00","-35.7","","-39.3","","70","","","","1","","31","","24.1","","99.84","","","","-53","","Ice Crystals,Blowing Snow"
"-83.36","64.19","CORAL HARBOUR A","2301002","2023-02-02 09:00","2023","02","02","09:00","-36.3","","-40.0","","70","","","","1","","30","","24.1","","99.91","","","","-54","","Ice Crystals,Blowing Snow"
"-83.36","64.19","CORAL HARBOUR A","2301002","2023-02-02 10:00","2023","02","02","10:00","-36.3","","-40.0","","70","","","","1","","28","","24.1","","99.98","","","","-53","","Ice Crystals,Blowing Snow"
"-83.36","64.19","CORAL HARBOUR A","2301002","2023-02-02 11:00","2023","02","02","11:00","-35.1","","-39.0","","69","","","","36","","26","","24.1","","100.07","","","","-51","","Ice Crystals,Blowing Snow"
"-83.36","64.19","CORAL HARBOUR A","2301002","2023-02-02 12:00","2023","02","02","12:00","-32.5","","-36.4","","69","","","","1","","28","","24.1","","100.11","","","","-48","","Ice Crystals,Blowing Snow"
"-83.36","64.19","CORAL HARBOUR A","2301002","2023-02-02 13:00","2023","02","02","13:00","-32.3","","-36.3","","69","","","","1","","27","","24.1","","100.16","","","","-48","","Ice Crystals,Blowing Snow"
"-83.36","64.19","CORAL HARBOUR A","2301002","2023-02-02 14:00","2023","02","02","14:00","-32.3","","-36.8","","65","","","","3","","24","","24.1","","100.23","","","","-47","","Ice Crystals,Blowing Snow"
"-83.36","64.19","CORAL HARBOUR A","2301002","2023-02-02 15:00","2023","02","02","15:00","-32.8","","-36.5","","70","","","","36","","23","","24.1","","100.32","","","","-48","","Ice Crystals,Blowing Snow"
"-83.36","64.19","CORAL HARBOUR A","2301002","2023-02-02 16:00","2023","02","02","16:00"
"-83.36","64.19","CORAL HARBOUR A","2301002","2023-02-02 17:00","2023","02","02","17:00","-32.4","","-35.8","","72","","","","1","","17","","24.1","","100.43","","","","-45","","Ice Crystals"
"-83.36","64.19","CORAL HARBOUR A","2301002","2023-02-02 18:00","2023","02","02","18:00","-34.7","","-38.3","","71","","","","33","","16","","24.1","","100.48","","","","-48","","Ice Crystals"
"-83.36","64.19","CORAL HARBOUR A","2301002","2023-02-02 19:00","2023","02","02","19:00","-35.7","","-39.4","","69","","","","35","","17","","24.1","","100.49","","","","-49","","Ice Crystals"
"-83.36","64.19","CORAL HARBOUR A","2301002","2023-02-02 20:00","2023","02","02","20:00","-37.1","","-40.9","","69","","","","36","","16","","24.1","","100.50","","","","-51","","Ice Crystals"
"-83.36","64.19","CORAL HARBOUR A","2301002","2023-02-02 21:00","2023","02","02","21:00","-36.8","","-40.4","","70","","","","34","","10","","24.1","","100.50","","","","-47","","Ice Crystals"
"-83.36","64.19","CORAL HARBOUR A","2301002","2023-02-02 22:00","2023","02","02","22:00","-38.8","","-42.7","","68","","","","33","","4","","24.1","","100.47","","","","-44","","Ice Crystals"
"-83.36","64.19","CORAL HARBOUR A","2301002","2023-02-02 23:00","2023","02","02","23:00","-39.8","","-43.5","","69","","","","33","","11","","24.1","","100.44","","","","-51","","Ice Crystals"
"-83.36","64.19","CORAL HARBOUR A","2301002","2023-02-03 00:00","2023","02","03","00:00","-41.5","","-45.4","","67","","","","35","","12","","24.1","","100.41","","","","-54","","Ice Crystals"
"-83.36","64.19","CORAL HARBOUR A","2301002","2023-02-03 01:00","2023","02","03","01:00","-41.2","","-45.1","","68","","","","33","","17","","24.1","","100.37","","","","-56","","Ice Crystals"
"-83.36","64.19","CORAL HARBOUR A","2301002","2023-02-03 02:00","2023","02","03","02:00","-41.2","","-45.0","","68","","","","32","","21","","24.1","","100.38","","","","-58","","Ice Crystals"
"-83.36","64.19","CORAL HARBOUR A","2301002","2023-02-03 03:00","2023","02","03","03:00","-39.2","","-42.9","","69","","","","33","","21","","24.1","","100.35","","","","-55","","Ice Crystals"
"-83.36","64.19","CORAL HARBOUR A","2301002","2023-02-03 04:00","2023","02","03","04:00","-40.0","","-43.8","","68","","","","35","","16","","24.1","","100.35","","","","-54","","Ice Crystals"
"-83.36","64.19","CORAL HARBOUR A","2301002","2023-02-03 05:00","2023","02","03","05:00","-40.3","","-44.2","","67","","","","34","","11","","24.1","","100.29","","","","-52","","Ice Crystals"
"-83.36","64.19","CORAL HARBOUR A","2301002","2023-02-03 06:00","2023","02","03","06:00","-40.5","","-44.3","","68","","","","34","","14","","24.1","","100.26","","","","-54","","Ice Crystals"
"-83.36","64.19","CORAL HARBOUR A","2301002","2023-02-03 07:00","2023","02","03","07:00","-39.6","","-43.3","","69","","","","36","","1","","24.1","","100.23","","","","-41","","Ice Crystals"
"-83.36","64.19","CORAL HARBOUR A","2301002","2023-02-03 08:00","2023","02","03","08:00","-39.4","","-43.0","","69","","","","33","","7","","24.1","","100.22","","","","-48","","Ice Crystals"
"-83.36","64.19","CORAL HARBOUR A","2301002","2023-02-03 09:00","2023","02","03","09:00","-40.0","","-43.8","","68","","","","34","","16","","24.1","","100.18","","","","-54","","Ice Crystals"
"-83.36","64.19","CORAL HARBOUR A","2301002","2023-02-03 10:00","2023","02","03","10:00","-38.1","","-41.7","","70","","","","36","","19","","24.1","","100.14","","","","-53","","Ice Crystals"
"-83.36","64.19","CORAL HARBOUR A","2301002","2023-02-03 11:00","2023","02","03","11:00","-37.2","","-41.1","","68","","","","36","","22","","24.1","","100.11","","","","-53","","Ice Crystals"
"-83.36","64.19","CORAL HARBOUR A","2301002","2023-02-03 12:00","2023","02","03","12:00","-36.1","","-40.2","","67","","","","1","","23","","24.1","","100.09","","","","-52","","Ice Crystals"
"-83.36","64.19","CORAL HARBOUR A","2301002","2023-02-03 13:00","2023","02","03","13:00","-34.6","","-38.9","","66","","","","12","","6","","24.1","","100.08","","","","-42","","Ice Crystals"
"-83.36","64.19","CORAL HARBOUR A","2301002","2023-02-03 14:00","2023","02","03","14:00","-35.5","","-40.2","","63","","","","36","","2","","24.1","","100.08","","","","-38","","Ice Crystals"
"-83.36","64.19","CORAL HARBOUR A","2301002","2023-02-03 15:00","2023","02","03","15:00","-36.1","","-40.2","","67","","","","2","","7","","24.1","","100.08","","","","-44","","Ice Crystals"
"-83.36","64.19","CORAL HARBOUR A","2301002","2023-02-03 16:00","2023","02","03","16:00","-37.8","","-41.8","","67","","","","1","","9","","24.1","","100.10","","","","-48","","Ice Crystals"
"-83.36","64.19","CORAL HARBOUR A","2301002","2023-02-03 17:00","2023","02","03","17:00","-40.5","","-44.4","","68","","","","33","","10","","24.1","","100.12","","","","-52","","Ice Crystals"
"-83.36","64.19","CORAL HARBOUR A","2301002","2023-02-03 18:00","2023","02","03","18:00","-39.0","","-42.6","","70","","","","4","","18","","24.1","","100.12","","","","-54","","Ice Crystals"
"-83.36","64.19","CORAL HARBOUR A","2301002","2023-02-03 19:00","2023","02","03","19:00","-36.2","","-39.3","","74","","","","6","","23","","24.1","","100.14","","","","-52","","Ice Crystals"
"-83.36","64.19","CORAL HARBOUR A","2301002","2023-02-03 20:00","2023","02","03","20:00","-36.0","","-39.0","","74","","","","7","","23","","24.1","","100.14","","","","-52","","Ice Crystals"
"-83.36","64.19","CORAL HARBOUR A","2301002","2023-02-03 21:00","2023","02","03","21:00","-36.5","","-39.8","","73","","","","6","","24","","24.1","","100.15","","","","-53","","Ice Crystals"
"-83.36","64.19","CORAL HARBOUR A","2301002","2023-02-03 22:00","2023","02","03","22:00","-36.6","","-39.8","","73","","","","6","","25","","24.1","","100.13","","","","-53","","Ice Crystals"
"-83.36","64.19","CORAL HARBOUR A","2301002","2023-02-03 23:00","2023","02","03","23:00","-36.9","","-40.0","","73","","","","6","","27","","24.1","","100.14","","","","-54","","Ice Crystals"
"-83.36","64.19","CORAL HARBOUR A","2301002","2023-02-04 00:00","2023","02","04","00:00","-36.7","","-39.9","","73","","","","6","","26","","24.1","","100.17","","","","-53","","Ice Crystals"
"-83.36","64.19","CORAL HARBOUR A","2301002","2023-02-04 01:00","2023","02","04","01:00","-36.8","","-39.9","","74","","","","6","","25","","24.1","","100.18","","","","-53","","Ice Crystals"
"-83.36","64.19","CORAL HARBOUR A","2301002","2023-02-04 02:00","2023","02","04","02:00","-36.5","","-39.7","","73","","","","6","","22","","24.1","","100.20","","","","-52","","Ice Crystals"
"-83.36","64.19","CORAL HARBOUR A","2301002","2023-02-04 03:00","2023","02","04","03:00","-38.8","","-42.5","","69","","","","33","","6","","24.1","","100.26","","","","-47","","Ice Crystals"
"-83.36","64.19","CORAL HARBOUR A","2301002","2023-02-04 04:00","2023","02","04","04:00","-40.0","","-43.6","","69","","","","2","","7","","24.1","","100.30","","","","-49","","Ice Crystals"
"-83.36","64.19","CORAL HARBOUR A","2301002","2023-02-04 05:00","2023","02","04","05:00","-40.0","","-43.6","","69","","","","32","","11","","24.1","","100.32","","","","-52","","Ice Crystals"
"-83.36","64.19","CORAL HARBOUR A","2301002","2023-02-04 06:00","2023","02","04","06:00"
"-83.36","64.19","CORAL HARBOUR A","2301002","2023-02-04 07:00","2023","02","04","07:00","-37.4","","-40.7","","72","","","","6","","22","","24.1","","100.37","","","","-53","","Ice Crystals"
"-83.36","64.19","CORAL HARBOUR A","2301002","2023-02-04 08:00","2023","02","04","08:00","-39.0","","-42.6","","70","","","","5","","19","","19.3","","100.39","","","","-54","","Ice Crystals"
"-83.36","64.19","CORAL HARBOUR A","2301002","2023-02-04 09:00","2023","02","04","09:00","-37.2","","-40.5","","72","","","","5","","20","","24.1","","100.40","","","","-52","","Ice Crystals"
"-83.36","64.19","CORAL HARBOUR A","2301002","2023-02-04 10:00","2023","02","04","10:00","-42.0","","-45.9","","67","","","","34","","14","","16.1","","100.42","","","","-56","","Ice Crystals"
"-83.36","64.19","CORAL HARBOUR A","2301002","2023-02-04 11:00","2023","02","04","11:00","-40.5","","-44.3","","67","","","","34","","16","","19.3","","100.41","","","","-55","","Ice Crystals"
"-83.36","64.19","CORAL HARBOUR A","2301002","2023-02-04 12:00","2023","02","04","12:00","-38.6","","-42.4","","68","","","","2","","14","","19.3","","100.40","","","","-52","","Ice Crystals"
"-83.36","64.19","CORAL HARBOUR A","2301002","2023-02-04 13:00","2023","02","04","13:00","-38.2","","-42.0","","69","","","","33","","16","","19.3","","100.40","","","","-52","","Ice Crystals"
"-83.36","64.19","CORAL HARBOUR A","2301002","2023-02-04 14:00","2023","02","04","14:00","-38.6","","-42.4","","68","","","","34","","13","","24.1","","100.37","","","","-51","","Ice Crystals"
"-83.36","64.19","CORAL HARBOUR A","2301002","2023-02-04 15:00","2023","02","04","15:00","-38.7","","-42.5","","69","","","","34","","18","","24.1","","100.36","","","","-53","","Ice Crystals"
"-83.36","64.19","CORAL HARBOUR A","2301002","2023-02-04 16:00","2023","02","04","16:00","-40.5","","-44.3","","68","","","","33","","20","","24.1","","100.37","","","","-56","","Ice Crystals"
"-83.36","64.19","CORAL HARBOUR A","2301002","2023-02-04 17:00","2023","02","04","17:00","-41.8","","-45.6","","67","","","","34","","21","","24.1","","100.38","","","","-58","","Ice Crystals"
"-83.36","64.19","CORAL HARBOUR A","2301002","2023-02-04 18:00","2023","02","04","18:00","-41.7","","-45.5","","68","","","","34","","21","","24.1","","100.36","","","","-58","","Ice Crystals"
"-83.36","64.19","CORAL HARBOUR A","2301002","2023-02-04 19:00","2023","02","04","19:00","-42.5","","-46.3","","67","","","","34","","21","","19.3","","100.31","","","","-59","","Ice Crystals"
"-83.36","64.19","CORAL HARBOUR A","2301002","2023-02-04 20:00","2023","02","04","20:00","-41.6","","-45.4","","68","","","","34","","27","","24.1","","100.23","","","","-60","","Ice Crystals"
"-83.36","64.19","CORAL HARBOUR A","2301002","2023-02-04 21:00","2023","02","04","21:00","-41.1","","-44.9","","68","","","","36","","23","","24.1","","100.21","","","","-58","","Ice Crystals"
"-83.36","64.19","CORAL HARBOUR A","2301002","2023-02-04 22:00","2023","02","04","22:00","-40.2","","-44.0","","68","","","","35","","23","","24.1","","100.14","","","","-57","","Ice Crystals"
"-83.36","64.19","CORAL HARBOUR A","2301002","2023-02-04 23:00","2023","02","04","23:00","-39.6","","-43.3","","69","","","","35","","26","","24.1","","100.09","","","","-57","","Ice Crystals"
"-83.36","64.19","CORAL HARBOUR A","2301002","2023-02-05 00:00","2023","02","05","00:00","-39.8","","-43.5","","69","","","","34","","23","","24.1","","100.08","","","","-56","","Ice Crystals"
"-83.36","64.19","CORAL HARBOUR A","2301002","2023-02-05 01:00","2023","02","05","01:00","-40.0","","-43.7","","69","","","","33","","27","","24.1","","99.99","","","","-58","","Ice Crystals"
"-83.36","64.19","CORAL HARBOUR A","2301002","2023-02-05 02:00","2023","02","05","02:00","-39.6","","-43.3","","69","","","","32","","25","","24.1","","99.97","","","","-57","","Ice Crystals"
"-83.36","64.19","CORAL HARBOUR A","2301002","2023-02-05 03:00","2023","02","05","03:00","-39.2","","-42.9","","69","","","","31","","23","","24.1","","99.93","","","","-56","","Ice Crystals"
"-83.36","64.19","CORAL HARBOUR A","2301002","2023-02-05 04:00","2023","02","05","04:00","-38.7","","-42.4","","69","","","","31","","13","","24.1","","99.93","","","","-51","","Ice Crystals"
"-83.36","64.19","CORAL HARBOUR A","2301002","2023-02-05 05:00","2023","02","05","05:00","-38.6","","-42.3","","69","","","","32","","25","","24.1","","99.87","","","","-56","","Ice Crystals"
"-83.36","64.19","CORAL HARBOUR A","2301002","2023-02-05 06:00","2023","02","05","06:00","-38.9","","-42.6","","69","","","","31","","18","","24.1","","99.85","","","","-54","","Ice Crystals"
"-83.36","64.19","CORAL HARBOUR A","2301002","2023-02-05 07:00","2023","02","05","07:00","-37.7","","-41.3","","70","","","","30","","13","","24.1","","99.83","","","","-50","","Ice Crystals"
"-83.36","64.19","CORAL HARBOUR A","2301002","2023-02-05 08:00","2023","02","05","08:00","-37.4","","-41.0","","70","","","","33","","16","","24.1","","99.80","","","","-51","","Ice Crystals"
"-83.36","64.19","CORAL HARBOUR A","2301002","2023-02-05 09:00","2023","02","05","09:00","-37.0","","-40.5","","70","","","","34","","19","","24.1","","99.80","","","","-52","","Ice Crystals"
"-83.36","64.19","CORAL HARBOUR A","2301002","2023-02-05 10:00","2023","02","05","10:00","-36.5","","-40.1","","70","","","","35","","24","","24.1","","99.76","","","","-53","","Ice Crystals"
"-83.36","64.19","CORAL HARBOUR A","2301002","2023-02-05 11:00","2023","02","05","11:00","-35.4","","-39.1","","70","","","","36","","24","","24.1","","99.73","","","","-51","","Ice Crystals"
"-83.36","64.19","CORAL HARBOUR A","2301002","2023-02-05 12:00","2023","02","05","12:00","-35.2","","-39.0","","70","","","","1","","25","","24.1","","99.73","","","","-51","","Ice Crystals"
"-83.36","64.19","CORAL HARBOUR A","2301002","2023-02-05 13:00","2023","02","05","13:00","-34.0","","-37.5","","71","","","","35","","25","","24.1","","99.72","","","","-50","","Ice Crystals"
"-83.36","64.19","CORAL HARBOUR A","2301002","2023-02-05 14:00","2023","02","05","14:00","-33.4","","-36.9","","71","","","","36","","27","","24.1","","99.72","","","","-49","","Ice Crystals"
"-83.36","64.19","CORAL HARBOUR A","2301002","2023-02-05 15:00","2023","02","05","15:00","-33.1","","-36.6","","71","","","","36","","25","","24.1","","99.72","","","","-48","","Ice Crystals"
"-83.36","64.19","CORAL HARBOUR A","2301002","2023-02-05 16:00","2023","02","05","16:00","-34.2","","-37.7","","71","","","","33","","12","","24.1","","99.75","","","","-45","","Ice Crystals"
"-83.36","64.19","CORAL HARBOUR A","2301002","2023-02-05 17:00","2023","02","05","17:00","-38.2","","-41.9","","69","","","","30","","16","","24.1","","99.78","","","","-52","","Ice Crystals"
"-83.36","64.19","CORAL HARBOUR A","2301002","2023-02-05 18:00","2023","02","05","18:00","-39.2","","-43.0","","69","","","","30","","14","","24.1","","99.77","","","","-52","","Ice Crystals"
"-83.36","64.19","CORAL HARBOUR A","2301002","2023-02-05 19:00","2023","02","05","19:00","-39.0","","-42.7","","69","","","","31","","14","","24.1","","99.78","","","","-52","","Ice Crystals"
"-83.36","64.19","CORAL HARBOUR A","2301002","2023-02-05 20:00","2023","02","05","20:00","-39.2","","-43.0","","69","","","","33","","14","","24.1","","99.80","","","","-52","","Ice Crystals"
"-83.36","64.19","CORAL HARBOUR A","2301002","2023-02-05 21:00","2023","02","05","21:00","-39.3","","-43.0","","69","","","","33","","19","","24.1","","99.81","","","","-54","","Ice Crystals"
"-83.36","64.19","CORAL HARBOUR A","2301002","2023-02-05 22:00","2023","02","05","22:00","-38.6","","-42.3","","69","","","","33","","20","","24.1","","99.81","","","","-54","","Ice Crystals"
"-83.36","64.19","CORAL HARBOUR A","2301002","2023-02-05 23:00","2023","02","05","23:00","-39.0","","-42.7","","69","","","","34","","21","","24.1","","99.83","","","","-55","","Ice Crystals"
"-83.36","64.19","CORAL HARBOUR A","2301002","2023-02-06 00:00","2023","02","06","00:00","-39.5","","-43.2","","69","","","","34","","20","","24.1","","99.88","","","","-55","","Ice Crystals"
"-83.36","64.19","CORAL HARBOUR A","2301002","2023-02-06 01:00","2023","02","06","01:00","-40.3","","-44.1","","68","","","","33","","17","","24.1","","99.90","","","","-55","","Clear"
"-83.36","64.19","CORAL HARBOUR A","2301002","2023-02-06 02:00","2023","02","06","02:00","-41.0","","-44.9","","67","","","","31","","15","","24.1","","99.96","","","","-55","","Ice Crystals"
"-83.36","64.19","CORAL HARBOUR A","2301002","2023-02-06 03:00","2023","02","06","03:00","-41.2","","-45.1","","67","","","","30","","12","","24.1","","100.00","","","","-54","","Ice Crystals"
"-83.36","64.19","CORAL HARBOUR A","2301002","2023-02-06 04:00","2023","02","06","04:00"
"-83.36","64.19","CORAL HARBOUR A","2301002","2023-02-06 05:00","2023","02","06","05:00"
"-83.36","64.19","CORAL HARBOUR A","2301002","2023-02-06 06:00","2023","02","06","06:00","-39.9","","-43.7","","69","","","","31","","10","","24.1","","100.14","","","","-51","","Ice Crystals"
"-83.36","64.19","CORAL HARBOUR A","2301002","2023-02-06 07:00","2023","02","06","07:00","-38.4","","-42.0","","70","","","","31","","8","","24.1","","100.16","","","","-48","","Ice Crystals"
"-83.36","64.19","CORAL HARBOUR A","2301002","2023-02-06 08:00","2023","02","06","08:00","-40.1","","-43.8","","69","","","","31","","5","","24.1","","100.21","","","","-47","","Ice Crystals"
"-83.36","64.19","CORAL HARBOUR A","2301002","2023-02-06 09:00","2023","02","06","09:00","-38.8","","-42.5","","69","","","","26","","4","","24.1","","100.22","","","","-44","","Ice Crystals"
"-83.36","64.19","CORAL HARBOUR A","2301002","2023-02-06 10:00","2023","02","06","10:00","-36.8","","-40.5","","70","","","","29","","9","","24.1","","100.29","","","","-47","","Ice Crystals"
"-83.36","64.19","CORAL HARBOUR A","2301002","2023-02-06 11:00","2023","02","06","11:00","-34.8","","-38.6","","69","","","","33","","9","","24.1","","100.35","","","","-44","","Ice Crystals"
"-83.36","64.19","CORAL HARBOUR A","2301002","2023-02-06 12:00","2023","02","06","12:00","-32.8","","-36.8","","68","","","","33","","7","","24.1","","100.35","","","","-41","","Ice Crystals"
"-83.36","64.19","CORAL HARBOUR A","2301002","2023-02-06 13:00","2023","02","06","13:00","-32.2","","-36.3","","68","","","","32","","7","","24.1","","100.36","","","","-40","","Ice Crystals"
"-83.36","64.19","CORAL HARBOUR A","2301002","2023-02-06 14:00","2023","02","06","14:00","-34.0","","-38.2","","67","","","","33","","5","","24.1","","100.38","","","","-40","","Ice Crystals"
"-83.36","64.19","CORAL HARBOUR A","2301002","2023-02-06 15:00","2023","02","06","15:00","-35.9","","-39.6","","70","","","","35","","11","","24.1","","100.40","","","","-47","","Ice Crystals"
"-83.36","64.19","CORAL HARBOUR A","2301002","2023-02-06 16:00","2023","02","06","16:00","-34.9","","-38.5","","71","","","","1","","10","","24.1","","100.40","","","","-45","","Ice Crystals"
"-83.36","64.19","CORAL HARBOUR A","2301002","2023-02-06 17:00","2023","02","06","17:00","-36.6","","-40.0","","71","","","","2","","3","","24.1","","100.43","","","","-41","","Ice Crystals"
"-83.36","64.19","CORAL HARBOUR A","2301002","2023-02-06 18:00","2023","02","06","18:00","-37.0","","-40.5","","71","","","","5","","4","","24.1","","100.42","","","","-42","","Ice Crystals"
"-83.36","64.19","CORAL HARBOUR A","2301002","2023-02-06 19:00","2023","02","06","19:00","-37.2","","-40.8","","70","","","","36","","1","","24.1","","100.43","","","","-39","","Ice Crystals"
"-83.36","64.19","CORAL HARBOUR A","2301002","2023-02-06 20:00","2023","02","06","20:00","-37.9","","-41.5","","70","","","","6","","3","","24.1","","100.43","","","","-42","","Ice Crystals"
"-83.36","64.19","CORAL HARBOUR A","2301002","2023-02-06 21:00","2023","02","06","21:00","-36.4","","-39.9","","71","","","","36","","2","","24.1","","100.43","","","","-39","","Ice Crystals"
"-83.36","64.19","CORAL HARBOUR A","2301002","2023-02-06 22:00","2023","02","06","22:00","-35.7","","-39.3","","70","","","","2","","4","","19.3","","100.38","","","","-41","","Ice Crystals"
"-83.36","64.19","CORAL HARBOUR A","2301002","2023-02-06 23:00","2023","02","06","23:00","-33.8","","-36.8","","75","","","","3","","13","","19.3","","100.35","","","","-45","","Ice Crystals"
"-83.36","64.19","CORAL HARBOUR A","2301002","2023-02-07 00:00","2023","02","07","00:00","-33.2","","-36.3","","74","","","","8","","10","","24.1","","100.33","","","","-43","","Ice Crystals"
"-83.36","64.19","CORAL HARBOUR A","2301002","2023-02-07 01:00","2023","02","07","01:00","-33.2","","-36.1","","76","","","","7","","19","","24.1","","100.28","","","","-47","","Ice Crystals"
"-83.36","64.19","CORAL HARBOUR A","2301002","2023-02-07 02:00","2023","02","07","02:00","-33.5","","-36.5","","75","","","","6","","22","","24.1","","100.28","","","","-48","","Ice Crystals"
"-83.36","64.19","CORAL HARBOUR A","2301002","2023-02-07 03:00","2023","02","07","03:00","-33.9","","-37.0","","74","","","","7","","22","","24.1","","100.25","","","","-49","","Ice Crystals"
"-83.36","64.19","CORAL HARBOUR A","2301002","2023-02-07 04:00","2023","02","07","04:00"
"-83.36","64.19","CORAL HARBOUR A","2301002","2023-02-07 05:00","2023","02","07","05:00","-33.6","","-36.7","","74","","","","6","","17","","24.1","","100.18","","","","-47","","Ice Crystals"
"-83.36","64.19","CORAL HARBOUR A","2301002","2023-02-07 06:00","2023","02","07","06:00","-34.0","","-37.2","","74","","","","6","","17","","24.1","","100.16","","","","-47","","Ice Crystals"
"-83.36","64.19","CORAL HARBOUR A","2301002","2023-02-07 07:00","2023","02","07","07:00","-33.9","","-37.1","","74","","","","6","","20","","24.1","","100.14","","","","-48","","Ice Crystals"
"-83.36","64.19","CORAL HARBOUR A","2301002","2023-02-07 08:00","2023","02","07","08:00","-34.0","","-37.2","","73","","","","7","","10","","24.1","","100.11","","","","-44","","Ice Crystals"
"-83.36","64.19","CORAL HARBOUR A","2301002","2023-02-07 09:00","2023","02","07","09:00","-34.6","","-38.1","","72","","","","36","","12","","19.3","","100.07","","","","-46","","Snow,Ice Crystals"
"-83.36","64.19","CORAL HARBOUR A","2301002","2023-02-07 10:00","2023","02","07","10:00","-34.9","","-38.4","","71","","","","2","","13","","24.1","","100.02","","","","-47","","Ice Crystals"
"-83.36","64.19","CORAL HARBOUR A","2301002","2023-02-07 11:00","2023","02","07","11:00","-34.6","","-38.2","","70","","","","34","","15","","24.1","","99.99","","","","-47","","Ice Crystals"
"-83.36","64.19","CORAL HARBOUR A","2301002","2023-02-07 12:00","2023","02","07","12:00","-32.3","","-35.8","","72","","","","2","","9","","24.1","","99.94","","","","-41","","Ice Crystals"
"-83.36","64.19","CORAL HARBOUR A","2301002","2023-02-07 13:00","2023","02","07","13:00","-32.9","","-36.4","","72","","","","34","","14","","24.1","","99.92","","","","-45","","Ice Crystals"
"-83.36","64.19","CORAL HARBOUR A","2301002","2023-02-07 14:00","2023","02","07","14:00","-30.8","","-34.1","","73","","","","2","","15","","24.1","","99.88","","","","-42","","Ice Crystals"
"-83.36","64.19","CORAL HARBOUR A","2301002","2023-02-07 15:00","2023","02","07","15:00","-31.9","","-35.3","","73","","","","36","","15","","24.1","","99.91","","","","-44","","Ice Crystals"
"-83.36","64.19","CORAL HARBOUR A","2301002","2023-02-07 16:00","2023","02","07","16:00","-33.0","","-36.4","","72","","","","36","","24","","24.1","","99.92","","","","-48","","Ice Crystals"
"-83.36","64.19","CORAL HARBOUR A","2301002","2023-02-07 17:00","2023","02","07","17:00","-35.8","","-39.4","","71","","","","34","","22","","24.1","","99.94","","","","-51","","Ice Crystals"
"-83.36","64.19","CORAL HARBOUR A","2301002","2023-02-07 18:00","2023","02","07","18:00","-35.4","","-38.9","","71","","","","35","","23","","24.1","","99.95","","","","-51","","Ice Crystals"
"-83.36","64.19","CORAL HARBOUR A","2301002","2023-02-07 19:00","2023","02","07","19:00","-36.5","","-40.0","","71","","","","33","","26","","24.1","","99.96","","","","-53","","Ice Crystals"
"-83.36","64.19","CORAL HARBOUR A","2301002","2023-02-07 20:00","2023","02","07","20:00","-36.5","","-40.1","","71","","","","33","","20","","24.1","","99.96","","","","-51","","Ice Crystals"
"-83.36","64.19","CORAL HARBOUR A","2301002","2023-02-07 21:00","2023","02","07","21:00","-36.2","","-39.8","","71","","","","33","","28","","24.1","","99.96","","","","-53","","Ice Crystals"
"-83.36","64.19","CORAL HARBOUR A","2301002","2023-02-07 22:00","2023","02","07","22:00","-34.8","","-38.2","","72","","","","34","","26","","24.1","","99.96","","","","-51","","Ice Crystals"
"-83.36","64.19","CORAL HARBOUR A","2301002","2023-02-07 23:00","2023","02","07","23:00","-35.8","","-39.3","","71","","","","34","","25","","24.1","","99.97","","","","-52","","Ice Crystals"
"-83.36","64.19","CORAL HARBOUR A","2301002","2023-02-08 00:00","2023","02","08","00:00","-34.7","","-38.1","","72","","","","35","","24","","24.1","","99.99","","","","-50","","Ice Crystals"
"-83.36","64.19","CORAL HARBOUR A","2301002","2023-02-08 01:00","2023","02","08","01:00","-34.6","","-38.1","","72","","","","34","","22","","24.1","","100.03","","","","-50","","Ice Crystals"
"-83.36","64.19","CORAL HARBOUR A","2301002","2023-02-08 02:00","2023","02","08","02:00","-35.3","","-38.7","","71","","","","34","","23","","24.1","","100.08","","","","-51","","Ice Crystals"
"-83.36","64.19","CORAL HARBOUR A","2301002","2023-02-08 03:00","2023","02","08","03:00","-36.4","","-40.0","","70","","","","34","","24","","24.1","","100.11","","","","-52","","Ice Crystals"
"-83.36","64.19","CORAL HARBOUR A","2301002","2023-02-08 04:00","2023","02","08","04:00","-36.2","","-39.8","","71","","","","34","","23","","24.1","","100.14","","","","-52","","Ice Crystals"
"-83.36","64.19","CORAL HARBOUR A","2301002","2023-02-08 05:00","2023","02","08","05:00","-35.7","","-39.2","","71","","","","34","","23","","24.1","","100.17","","","","-51","","Ice Crystals"
"-83.36","64.19","CORAL HARBOUR A","2301002","2023-02-08 06:00","2023","02","08","06:00","-34.7","","-38.2","","72","","","","34","","29","","24.1","","100.21","","","","-52","","Ice Crystals"
"-83.36","64.19","CORAL HARBOUR A","2301002","2023-02-08 07:00","2023","02","08","07:00","-34.3","","-37.7","","72","","","","34","","14","","24.1","","100.27","","","","-46","","Ice Crystals"
"-83.36","64.19","CORAL HARBOUR A","2301002","2023-02-08 08:00","2023","02","08","08:00","-35.3","","-38.8","","71","","","","34","","16","","24.1","","100.32","","","","-48","","Ice Crystals"
"-83.36","64.19","CORAL HARBOUR A","2301002","2023-02-08 09:00","2023","02","08","09:00","-35.5","","-39.0","","71","","","","35","","10","","24.1","","100.35","","","","-46","","Ice Crystals"
"-83.36","64.19","CORAL HARBOUR A","2301002","2023-02-08 10:00","2023","02","08","10:00","-34.7","","-38.3","","71","","","","2","","18","","24.1","","100.41","","","","-48","","Ice Crystals"
"-83.36","64.19","CORAL HARBOUR A","2301002","2023-02-08 11:00","2023","02","08","11:00","-33.2","","-36.8","","72","","","","35","","20","","24.1","","100.44","","","","-47","","Ice Crystals"
"-83.36","64.19","CORAL HARBOUR A","2301002","2023-02-08 12:00","2023","02","08","12:00","-33.0","","-36.5","","71","","","","32","","27","","24.1","","100.46","","","","-49","","Ice Crystals"
"-83.36","64.19","CORAL HARBOUR A","2301002","2023-02-08 13:00","2023","02","08","13:00","-31.6","","-35.1","","72","","","","34","","16","","24.1","","100.50","","","","-44","","Ice Crystals"
"-83.36","64.19","CORAL HARBOUR A","2301002","2023-02-08 14:00","2023","02","08","14:00","-30.8","","-34.2","","73","","","","34","","23","","24.1","","100.50","","","","-45","","Ice Crystals"
"-83.36","64.19","CORAL HARBOUR A","2301002","2023-02-08 15:00","2023","02","08","15:00","-31.9","","-35.7","","70","","","","31","","15","","24.1","","100.57","","","","-44","","Ice Crystals"
"-83.36","64.19","CORAL HARBOUR A","2301002","2023-02-08 16:00","2023","02","08","16:00","-32.2","","-36.0","","70","","","","34","","10","","24.1","","100.62","","","","-42","","Ice Crystals"
"-83.36","64.19","CORAL HARBOUR A","2301002","2023-02-08 17:00","2023","02","08","17:00","-34.5","","-38.0","","72","","","","33","","23","","24.1","","100.64","","","","-50","","Ice Crystals"
"-83.36","64.19","CORAL HARBOUR A","2301002","2023-02-08 18:00","2023","02","08","18:00","-34.0","","-37.3","","72","","","","36","","1","","24.1","","100.72","","","","-35","","Ice Crystals"
"-83.36","64.19","CORAL HARBOUR A","2301002","2023-02-08 19:00","2023","02","08","19:00","-34.4","","-37.7","","72","","","","1","","10","","24.1","","100.73","","","","-44","","Ice Crystals"
"-83.36","64.19","CORAL HARBOUR A","2301002","2023-02-08 20:00","2023","02","08","20:00","-32.0","","-35.3","","73","","","","1","","7","","19.3","","100.74","","","","-40","","Snow"
"-83.36","64.19","CORAL HARBOUR A","2301002","2023-02-08 21:00","2023","02","08","21:00","-31.9","","-35.1","","74","","","","32","","15","","24.1","","100.75","","","","-44","","Snow"
"-83.36","64.19","CORAL HARBOUR A","2301002","2023-02-08 22:00","2023","02","08","22:00","-32.6","","-36.1","","72","","","","36","","18","","19.3","","100.77","","","","-46","","Snow"
"-83.36","64.19","CORAL HARBOUR A","2301002","2023-02-08 23:00","2023","02","08","23:00","-35.9","","-39.6","","70","","","","34","","11","","24.1","","100.80","","","","-47","","Ice Crystals"
"-83.36","64.19","CORAL HARBOUR A","2301002","2023-02-09 00:00","2023","02","09","00:00","-36.8","","-40.4","","70","","","","1","","16","","24.1","","100.84","","","","-50","","Ice Crystals"
"-83.36","64.19","CORAL HARBOUR A","2301002","2023-02-09 01:00","2023","02","09","01:00"
"-83.36","64.19","CORAL HARBOUR A","2301002","2023-02-09 02:00","2023","02","09","02:00","-34.7","","-38.1","","72","","","","1","","23","","24.1","","100.88","","","","-50","","Ice Crystals"
"-83.36","64.19","CORAL HARBOUR A","2301002","2023-02-09 03:00","2023","02","09","03:00","-33.6","","-37.0","","72","","","","34","","17","","24.1","","100.91","","","","-47","","Ice Crystals"
"-83.36","64.19","CORAL HARBOUR A","2301002","2023-02-09 04:00","2023","02","09","04:00","-34.6","","-38.0","","72","","","","35","","21","","24.1","","100.94","","","","-49","","Ice Crystals"
"-83.36","64.19","CORAL HARBOUR A","2301002","2023-02-09 05:00","2023","02","09","05:00","-32.0","","-35.3","","73","","","","34","","18","","24.1","","100.98","","","","-45","","Ice Crystals"
"-83.36","64.19","CORAL HARBOUR A","2301002","2023-02-09 06:00","2023","02","09","06:00","-33.1","","-36.5","","72","","","","35","","28","","24.1","","100.95","","","","-49","","Ice Crystals"
"-83.36","64.19","CORAL HARBOUR A","2301002","2023-02-09 07:00","2023","02","09","07:00","-32.8","","-36.2","","73","","","","35","","34","","24.1","","101.00","","","","-50","","Ice Crystals"
"-83.36","64.19","CORAL HARBOUR A","2301002","2023-02-09 08:00","2023","02","09","08:00","-33.6","","-37.1","","71","","","","35","","26","","24.1","","101.02","","","","-49","","Ice Crystals"
"-83.36","64.19","CORAL HARBOUR A","2301002","2023-02-09 09:00","2023","02","09","09:00","-33.6","","-37.1","","72","","","","35","","28","","24.1","","101.05","","","","-50","","Ice Crystals"
"-83.36","64.19","CORAL HARBOUR A","2301002","2023-02-09 10:00","2023","02","09","10:00","-33.0","","-36.7","","70","","","","36","","32","","24.1","","101.05","","","","-50","","Ice Crystals"
"-83.36","64.19","CORAL HARBOUR A","2301002","2023-02-09 11:00","2023","02","09","11:00","-32.3","","-36.1","","70","","","","1","","27","","24.1","","101.07","","","","-48","","Ice Crystals"
"-83.36","64.19","CORAL HARBOUR A","2301002","2023-02-09 12:00","2023","02","09","12:00","-31.5","","-35.5","","69","","","","36","","12","","24.1","","101.08","","","","-42","","Ice Crystals"
"-83.36","64.19","CORAL HARBOUR A","2301002","2023-02-09 13:00","2023","02","09","13:00","-30.9","","-34.8","","69","","","","33","","20","","24.1","","101.11","","","","-44","","Ice Crystals"
"-83.36","64.19","CORAL HARBOUR A","2301002","2023-02-09 14:00","2023","02","09","14:00","-30.6","","-34.5","","70","","","","35","","14","","24.1","","101.10","","","","-42","","Ice Crystals"
"-83.36","64.19","CORAL HARBOUR A","2301002","2023-02-09 15:00","2023","02","09","15:00","-31.8","","-35.4","","71","","","","30","","12","","24.1","","101.12","","","","-42","","Ice Crystals"
"-83.36","64.19","CORAL HARBOUR A","2301002","2023-02-09 16:00","2023","02","09","16:00","-31.4","","-35.0","","72","","","","32","","16","","24.1","","101.11","","","","-44","","Ice Crystals"
"-83.36","64.19","CORAL HARBOUR A","2301002","2023-02-09 17:00","2023","02","09","17:00","-32.0","","-35.6","","71","","","","2","","21","","24.1","","101.11","","","","-46","","NA"
"-83.36","64.19","CORAL HARBOUR A","2301002","2023-02-09 18:00","2023","02","09","18:00","-32.7","","-36.3","","71","","","","1","","22","","24.1","","101.09","","","","-47","","Ice Crystals"
"-83.36","64.19","CORAL HARBOUR A","2301002","2023-02-09 19:00","2023","02","09","19:00","-32.5","","-36.1","","71","","","","34","","15","","24.1","","101.09","","","","-44","","Ice Crystals"
"-83.36","64.19","CORAL HARBOUR A","2301002","2023-02-09 20:00","2023","02","09","20:00","-32.4","","-35.9","","72","","","","28","","6","","24.1","","101.12","","","","-39","","Snow"
"-83.36","64.19","CORAL HARBOUR A","2301002","2023-02-09 21:00","2023","02","09","21:00","-32.9","","-36.4","","72","","","","31","","10","","19.3","","101.07","","","","-43","","Snow"
"-83.36","64.19","CORAL HARBOUR A","2301002","2023-02-09 22:00","2023","02","09","22:00","-32.6","","-36.0","","72","","","","30","","7","","24.1","","101.00","","","","-40","","Snow"
"-83.36","64.19","CORAL HARBOUR A","2301002","2023-02-09 23:00","2023","02","09","23:00","-33.2","","-36.8","","72","","","","33","","11","","24.1","","100.96","","","","-44","","Snow"
"-83.36","64.19","CORAL HARBOUR A","2301002","2023-02-10 00:00","2023","02","10","00:00","-33.7","","-37.2","","72","","","","35","","12","","24.1","","100.94","","","","-45","","Snow"
"-83.36","64.19","CORAL HARBOUR A","2301002","2023-02-10 01:00","2023","02","10","01:00","-35.0","","-38.6","","71","","","","34","","10","","24.1","","100.91","","","","-45","","Snow"
"-83.36","64.19","CORAL HARBOUR A","2301002","2023-02-10 02:00","2023","02","10","02:00","-36.1","","-39.6","","71","","","","34","","15","","24.1","","100.90","","","","-49","","Snow"
"-83.36","64.19","CORAL HARBOUR A","2301002","2023-02-10 03:00","2023","02","10","03:00","-36.3","","-39.9","","70","","","","36","","17","","24.1","","100.85","","","","-50","","Snow"
"-83.36","64.19","CORAL HARBOUR A","2301002","2023-02-10 04:00","2023","02","10","04:00","-37.2","","-41.0","","69","","","","35","","14","","24.1","","100.84","","","","-50","","Ice Crystals"
"-83.36","64.19","CORAL HARBOUR A","2301002","2023-02-10 05:00","2023","02","10","05:00","-34.2","","-37.4","","74","","","","35","","13","","24.1","","100.79","","","","-46","","Ice Crystals"
"-83.36","64.19","CORAL HARBOUR A","2301002","2023-02-10 06:00","2023","02","10","06:00","-36.1","","-39.7","","70","","","","34","","12","","24.1","","100.74","","","","-48","","Ice Crystals"
"-83.36","64.19","CORAL HARBOUR A","2301002","2023-02-10 07:00","2023","02","10","07:00","-36.3","","-39.9","","70","","","","3","","5","","24.1","","100.68","","","","-43","","Ice Crystals"
"-83.36","64.19","CORAL HARBOUR A","2301002","2023-02-10 08:00","2023","02","10","08:00","-35.2","","-38.8","","71","","","","4","","5","","19.3","","100.68","","","","-42","","Snow"
"-83.36","64.19","CORAL HARBOUR A","2301002","2023-02-10 09:00","2023","02","10","09:00","-34.2","","-37.8","","71","","","","31","","6","","19.3","","100.66","","","","-41","","Ice Crystals"
"-83.36","64.19","CORAL HARBOUR A","2301002","2023-02-10 10:00","2023","02","10","10:00","-33.0","","-36.5","","72","","","","36","","1","","24.1","","100.60","","","","-34","","Ice Crystals"
"-83.36","64.19","CORAL HARBOUR A","2301002","2023-02-10 11:00","2023","02","10","11:00","-32.2","","-36.3","","68","","","","1","","13","","24.1","","100.59","","","","-43","","Ice Crystals"
"-83.36","64.19","CORAL HARBOUR A","2301002","2023-02-10 12:00","2023","02","10","12:00","-31.0","","-34.9","","69","","","","4","","9","","24.1","","100.53","","","","-40","","Ice Crystals"
"-83.36","64.19","CORAL HARBOUR A","2301002","2023-02-10 13:00","2023","02","10","13:00","-29.8","","-34.2","","67","","","","4","","10","","19.3","","100.49","","","","-39","","Snow"
"-83.36","64.19","CORAL HARBOUR A","2301002","2023-02-10 14:00","2023","02","10","14:00","-30.6","","-34.3","","71","","","","3","","12","","8.1","","100.45","","","","-41","","Snow"
"-83.36","64.19","CORAL HARBOUR A","2301002","2023-02-10 15:00","2023","02","10","15:00","-29.2","","-32.5","","74","","","","3","","13","","19.3","","100.40","","","","-40","","Snow"
"-83.36","64.19","CORAL HARBOUR A","2301002","2023-02-10 16:00","2023","02","10","16:00","-28.6","","-32.0","","74","","","","1","","12","","24.1","","100.36","","","","-38","","Snow"
"-83.36","64.19","CORAL HARBOUR A","2301002","2023-02-10 17:00","2023","02","10","17:00","-29.4","","-32.8","","73","","","","5","","13","","19.3","","100.34","","","","-40","","Snow"
"-83.36","64.19","CORAL HARBOUR A","2301002","2023-02-10 18:00","2023","02","10","18:00","-28.1","","-31.4","","74","","","","5","","15","","16.1","","100.31","","","","-39","","Snow"
"-83.36","64.19","CORAL HARBOUR A","2301002","2023-02-10 19:00","2023","02","10","19:00","-27.8","","-31.0","","75","","","","5","","15","","16.1","","100.25","","","","-39","","Snow"
"-83.36","64.19","CORAL HARBOUR A","2301002","2023-02-10 20:00","2023","02","10","20:00","-27.2","","-30.4","","75","","","","5","","13","","19.3","","100.21","","","","-37","","Snow"
"-83.36","64.19","CORAL HARBOUR A","2301002","2023-02-10 21:00","2023","02","10","21:00","-26.8","","-29.8","","76","","","","7","","20","","12.9","","100.12","","","","-39","","Snow"
"-83.36","64.19","CORAL HARBOUR A","2301002","2023-02-10 22:00","2023","02","10","22:00","-26.4","","-29.4","","76","","","","6","","23","","12.9","","100.06","","","","-39","","Snow"
"-83.36","64.19","CORAL HARBOUR A","2301002","2023-02-10 23:00","2023","02","10","23:00","-26.3","","-29.3","","76","","","","6","","25","","12.9","","100.00","","","","-40","","Snow"
"-83.36","64.19","CORAL HARBOUR A","2301002","2023-02-11 00:00","2023","02","11","00:00","-26.6","","-29.8","","75","","","","6","","26","","9.7","","99.95","","","","-40","","Snow"
"-83.36","64.19","CORAL HARBOUR A","2301002","2023-02-11 01:00","2023","02","11","01:00","-26.7","","-29.9","","75","","","","6","","31","","9.7","","99.90","","","","-42","","Snow"
"-83.36","64.19","CORAL HARBOUR A","2301002","2023-02-11 02:00","2023","02","11","02:00","-26.6","","-29.6","","76","","","","6","","35","","6.4","","99.85","","","","-42","","Snow"
"-83.36","64.19","CORAL HARBOUR A","2301002","2023-02-11 03:00","2023","02","11","03:00","-26.6","","-29.7","","76","","","","6","","34","","4.8","","99.82","","","","-42","","Snow"
"-83.36","64.19","CORAL HARBOUR A","2301002","2023-02-11 04:00","2023","02","11","04:00","-26.4","","-29.7","","75","","","","5","","31","","6.4","","99.81","","","","-41","","Snow"
"-83.36","64.19","CORAL HARBOUR A","2301002","2023-02-11 05:00","2023","02","11","05:00","-27.4","","-30.9","","73","","","","4","","28","","9.7","","99.79","","","","-42","","Snow"
"-83.36","64.19","CORAL HARBOUR A","2301002","2023-02-11 06:00","2023","02","11","06:00","-28.5","","-31.8","","74","","","","36","","26","","6.4","","99.78","","","","-43","","Snow"
"-83.36","64.19","CORAL HARBOUR A","2301002","2023-02-11 07:00","2023","02","11","07:00","-30.1","","-33.4","","73","","","","3","","29","","19.3","","99.76","","","","-46","","Snow,Blowing Snow"
"-83.36","64.19","CORAL HARBOUR A","2301002","2023-02-11 08:00","2023","02","11","08:00","-31.2","","-34.6","","73","","","","2","","35","","19.3","","99.76","","","","-48","","Ice Crystals,Blowing Snow"
"-83.36","64.19","CORAL HARBOUR A","2301002","2023-02-11 09:00","2023","02","11","09:00","-30.7","","-33.9","","74","","","","36","","28","","19.3","","99.75","","","","-46","","Ice Crystals,Blowing Snow"
"-83.36","64.19","CORAL HARBOUR A","2301002","2023-02-11 10:00","2023","02","11","10:00","-30.4","","-34.1","","71","","","","34","","27","","19.3","","99.74","","","","-45","","Ice Crystals,Blowing Snow"
"-83.36","64.19","CORAL HARBOUR A","2301002","2023-02-11 11:00","2023","02","11","11:00","-30.6","","-34.6","","68","","","","33","","25","","19.3","","99.73","","","","-45","","Ice Crystals,Blowing Snow"
"-83.36","64.19","CORAL HARBOUR A","2301002","2023-02-11 12:00","2023","02","11","12:00","-30.1","","-34.3","","68","","","","34","","25","","24.1","","99.75","","","","-45","","Ice Crystals"
"-83.36","64.19","CORAL HARBOUR A","2301002","2023-02-11 13:00","2023","02","11","13:00","-27.1","","-31.9","","65","","","","35","","8","","24.1","","99.74","","","","-35","","Ice Crystals"
"-83.36","64.19","CORAL HARBOUR A","2301002","2023-02-11 14:00","2023","02","11","14:00","-29.2","","-33.7","","66","","","","33","","17","","24.1","","99.73","","","","-41","","Ice Crystals"
"-83.36","64.19","CORAL HARBOUR A","2301002","2023-02-11 15:00","2023","02","11","15:00","-29.8","","-34.2","","67","","","","33","","20","","24.1","","99.77","","","","-43","","Ice Crystals"
"-83.36","64.19","CORAL HARBOUR A","2301002","2023-02-11 16:00","2023","02","11","16:00","-31.8","","-35.9","","68","","","","33","","19","","24.1","","99.78","","","","-45","","Ice Crystals"
"-83.36","64.19","CORAL HARBOUR A","2301002","2023-02-11 17:00","2023","02","11","17:00","-34.1","","-38.0","","69","","","","33","","22","","24.1","","99.81","","","","-49","","Ice Crystals"
"-83.36","64.19","CORAL HARBOUR A","2301002","2023-02-11 18:00","2023","02","11","18:00","-35.0","","-38.5","","71","","","","34","","23","","24.1","","99.83","","","","-50","","Ice Crystals"
"-83.36","64.19","CORAL HARBOUR A","2301002","2023-02-11 19:00","2023","02","11","19:00","-35.5","","-39.0","","71","","","","33","","19","","24.1","","99.84","","","","-50","","Ice Crystals"
"-83.36","64.19","CORAL HARBOUR A","2301002","2023-02-11 20:00","2023","02","11","20:00","-35.9","","-39.5","","71","","","","34","","22","","24.1","","99.84","","","","-51","","Ice Crystals"
"-83.36","64.19","CORAL HARBOUR A","2301002","2023-02-11 21:00","2023","02","11","21:00","-35.4","","-38.9","","72","","","","35","","21","","24.1","","99.85","","","","-50","","Ice Crystals"
"-83.36","64.19","CORAL HARBOUR A","2301002","2023-02-11 22:00","2023","02","11","22:00","-36.2","","-39.8","","70","","","","32","","19","","24.1","","99.81","","","","-51","","Ice Crystals"
"-83.36","64.19","CORAL HARBOUR A","2301002","2023-02-11 23:00","2023","02","11","23:00","-37.5","","-41.1","","70","","","","35","","22","","24.1","","99.83","","","","-53","","Ice Crystals"
"-83.36","64.19","CORAL HARBOUR A","2301002","2023-02-12 00:00","2023","02","12","00:00","-37.6","","-41.3","","69","","","","1","","12","","24.1","","99.82","","","","-49","","Ice Crystals"
"-83.36","64.19","CORAL HARBOUR A","2301002","2023-02-12 01:00","2023","02","12","01:00","-37.9","","-41.7","","69","","","","35","","17","","24.1","","99.84","","","","-52","","Ice Crystals"
"-83.36","64.19","CORAL HARBOUR A","2301002","2023-02-12 02:00","2023","02","12","02:00","-38.6","","-42.4","","69","","","","33","","11","","24.1","","99.84","","","","-50","","Ice Crystals"
"-83.36","64.19","CORAL HARBOUR A","2301002","2023-02-12 03:00","2023","02","12","03:00","-37.8","","-41.4","","70","","","","1","","24","","24.1","","99.85","","","","-54","","Ice Crystals"
"-83.36","64.19","CORAL HARBOUR A","2301002","2023-02-12 04:00","2023","02","12","04:00","-39.2","","-43.1","","68","","","","33","","17","","24.1","","99.87","","","","-54","","Ice Crystals"
"-83.36","64.19","CORAL HARBOUR A","2301002","2023-02-12 05:00","2023","02","12","05:00","-39.0","","-42.8","","69","","","","33","","16","","24.1","","99.86","","","","-53","","Ice Crystals"
"-83.36","64.19","CORAL HARBOUR A","2301002","2023-02-12 06:00","2023","02","12","06:00","-38.5","","-42.1","","69","","","","1","","14","","24.1","","99.84","","","","-51","","Ice Crystals"
"-83.36","64.19","CORAL HARBOUR A","2301002","2023-02-12 07:00","2023","02","12","07:00","-39.3","","-43.1","","68","","","","34","","12","","24.1","","99.87","","","","-51","","Ice Crystals"
"-83.36","64.19","CORAL HARBOUR A","2301002","2023-02-12 08:00","2023","02","12","08:00","-37.0","","-40.4","","72","","","","35","","7","","24.1","","99.88","","","","-45","","Ice Crystals"
"-83.36","64.19","CORAL HARBOUR A","2301002","2023-02-12 09:00","2023","02","12","09:00","-37.0","","-40.8","","69","","","","5","","3","","24.1","","99.87","","","","-41","","Ice Crystals"
"-83.36","64.19","CORAL HARBOUR A","2301002","2023-02-12 10:00","2023","02","12","10:00","-36.7","","-40.8","","67","","","","2","","9","","24.1","","99.86","","","","-47","","Ice Crystals"
"-83.36","64.19","CORAL HARBOUR A","2301002","2023-02-12 11:00","2023","02","12","11:00","-35.1","","-39.5","","65","","","","33","","10","","24.1","","99.87","","","","-45","","Ice Crystals"
"-83.36","64.19","CORAL HARBOUR A","2301002","2023-02-12 12:00","2023","02","12","12:00","-33.4","","-38.1","","64","","","","7","","7","","24.1","","99.83","","","","-41","","Ice Crystals"
"-83.36","64.19","CORAL HARBOUR A","2301002","2023-02-12 13:00","2023","02","12","13:00","-30.8","","-35.9","","62","","","","1","","7","","24.1","","99.85","","","","-38","","Ice Crystals"
"-83.36","64.19","CORAL HARBOUR A","2301002","2023-02-12 14:00","2023","02","12","14:00","-33.1","","-37.7","","64","","","","34","","12","","24.1","","99.84","","","","-44","","Ice Crystals"
"-83.36","64.19","CORAL HARBOUR A","2301002","2023-02-12 15:00","2023","02","12","15:00","-32.3","","-36.6","","66","","","","36","","10","","24.1","","99.83","","","","-42","","Ice Crystals"
"-83.36","64.19","CORAL HARBOUR A","2301002","2023-02-12 16:00","2023","02","12","16:00","-35.3","","-39.6","","66","","","","33","","12","","24.1","","99.82","","","","-47","","Ice Crystals"
"-83.36","64.19","CORAL HARBOUR A","2301002","2023-02-12 17:00","2023","02","12","17:00","-37.7","","-41.5","","68","","","","33","","14","","24.1","","99.84","","","","-50","","Ice Crystals"
"-83.36","64.19","CORAL HARBOUR A","2301002","2023-02-12 18:00","2023","02","12","18:00","-38.1","","-41.7","","70","","","","36","","8","","24.1","","99.86","","","","-47","","Ice Crystals"
"-83.36","64.19","CORAL HARBOUR A","2301002","2023-02-12 19:00","2023","02","12","19:00","-36.8","","-40.2","","72","","","","1","","10","","24.1","","99.84","","","","-47","","Ice Crystals"
"-83.36","64.19","CORAL HARBOUR A","2301002","2023-02-12 20:00","2023","02","12","20:00","-39.2","","-43.0","","68","","","","33","","14","","24.1","","99.82","","","","-52","","Ice Crystals"
"-83.36","64.19","CORAL HARBOUR A","2301002","2023-02-12 21:00","2023","02","12","21:00","-38.6","","-42.2","","70","","","","34","","5","","24.1","","99.80","","","","-45","","Ice Crystals"
"-83.36","64.19","CORAL HARBOUR A","2301002","2023-02-12 22:00","2023","02","12","22:00","-38.3","","-41.9","","70","","","","3","","5","","24.1","","99.79","","","","-45","","Ice Crystals"
"-83.36","64.19","CORAL HARBOUR A","2301002","2023-02-12 23:00","2023","02","12","23:00","-36.3","","-39.5","","73","","","","3","","7","","24.1","","99.78","","","","-45","","Ice Crystals"
"-83.36","64.19","CORAL HARBOUR A","2301002","2023-02-13 00:00","2023","02","13","00:00","-38.5","","-42.2","","69","","","","2","","8","","24.1","","99.77","","","","-48","","Ice Crystals"
"-83.36","64.19","CORAL HARBOUR A","2301002","2023-02-13 01:00","2023","02","13","01:00","-38.9","","-42.5","","69","","","","35","","8","","24.1","","99.77","","","","-48","","Ice Crystals"
"-83.36","64.19","CORAL HARBOUR A","2301002","2023-02-13 02:00","2023","02","13","02:00","-39.1","","-42.8","","69","","","","4","","9","","24.1","","99.76","","","","-49","","Ice Crystals"
"-83.36","64.19","CORAL HARBOUR A","2301002","2023-02-13 03:00","2023","02","13","03:00","-37.3","","-40.9","","70","","","","4","","9","","24.1","","99.71","","","","-47","","Ice Crystals"
"-83.36","64.19","CORAL HARBOUR A","2301002","2023-02-13 04:00","2023","02","13","04:00","-37.3","","-40.9","","70","","","","4","","11","","24.1","","99.69","","","","-48","","Ice Crystals"
"-83.36","64.19","CORAL HARBOUR A","2301002","2023-02-13 05:00","2023","02","13","05:00","-35.5","","-39.0","","71","","","","36","","2","","24.1","","99.70","","","","-38","","Ice Crystals"
"-83.36","64.19","CORAL HARBOUR A","2301002","2023-02-13 06:00","2023","02","13","06:00","-34.4","","-37.6","","73","","","","4","","13","","24.1","","99.67","","","","-46","","Ice Crystals"
"-83.36","64.19","CORAL HARBOUR A","2301002","2023-02-13 07:00","2023","02","13","07:00","-33.7","","-36.9","","74","","","","5","","14","","24.1","","99.64","","","","-46","","Ice Crystals"
"-83.36","64.19","CORAL HARBOUR A","2301002","2023-02-13 08:00","2023","02","13","08:00","-32.4","","-35.5","","74","","","","5","","19","","19.3","","99.57","","","","-46","","Ice Crystals"
"-83.36","64.19","CORAL HARBOUR A","2301002","2023-02-13 09:00","2023","02","13","09:00","-31.2","","-34.6","","73","","","","7","","16","","16.1","","99.57","","","","-43","","Ice Crystals"
"-83.36","64.19","CORAL HARBOUR A","2301002","2023-02-13 10:00","2023","02","13","10:00","-29.9","","-33.0","","75","","","","8","","19","","16.1","","99.52","","","","-43","","Ice Crystals"
"-83.36","64.19","CORAL HARBOUR A","2301002","2023-02-13 11:00","2023","02","13","11:00","-29.2","","-32.3","","75","","","","8","","21","","4.8","","99.48","","","","-42","","Snow"
"-83.36","64.19","CORAL HARBOUR A","2301002","2023-02-13 12:00","2023","02","13","12:00","-28.4","","-31.6","","75","","","","8","","26","","4.8","","99.42","","","","-43","","Snow"
"-83.36","64.19","CORAL HARBOUR A","2301002","2023-02-13 13:00","2023","02","13","13:00","-27.7","","-30.8","","75","","","","9","","25","","4.8","","99.39","","","","-42","","Snow"
"-83.36","64.19","CORAL HARBOUR A","2301002","2023-02-13 14:00","2023","02","13","14:00","-27.2","","-30.4","","75","","","","8","","20","","9.7","","99.34","","","","-40","","Snow"
"-83.36","64.19","CORAL HARBOUR A","2301002","2023-02-13 15:00","2023","02","13","15:00","-27.2","","-30.4","","75","","","","8","","24","","9.7","","99.29","","","","-41","","Snow"
"-83.36","64.19","CORAL HARBOUR A","2301002","2023-02-13 16:00","2023","02","13","16:00","-27.0","","-30.0","","76","","","","8","","28","","9.7","","99.23","","","","-41","","Snow"
"-83.36","64.19","CORAL HARBOUR A","2301002","2023-02-13 17:00","2023","02","13","17:00","-26.6","","-29.6","","77","","","","8","","27","","16.1","","99.20","","","","-41","","Snow"
"-83.36","64.19","CORAL HARBOUR A","2301002","2023-02-13 18:00","2023","02","13","18:00","-26.1","","-28.8","","78","","","","8","","30","","9.7","","99.15","","","","-41","","Snow"
"-83.36","64.19","CORAL HARBOUR A","2301002","2023-02-13 19:00","2023","02","13","19:00","-25.6","","-28.1","","80","","","","8","","27","","12.9","","99.11","","","","-39","","Snow"
"-83.36","64.19","CORAL HARBOUR A","2301002","2023-02-13 20:00","2023","02","13","20:00","-24.9","","-27.2","","81","","","","8","","29","","19.3","","99.06","","","","-39","","Snow"
"-83.36","64.19","CORAL HARBOUR A","2301002","2023-02-13 21:00","2023","02","13","21:00","-24.8","","-27.1","","82","","","","8","","32","","9.7","","99.00","","","","-39","","Snow,Blowing Snow"
"-83.36","64.19","CORAL HARBOUR A","2301002","2023-02-13 22:00","2023","02","13","22:00","-24.3","","-26.2","","84","","","","8","","28","","9.7","","98.97","","","","-38","","Snow,Blowing Snow"
"-83.36","64.19","CORAL HARBOUR A","2301002","2023-02-13 23:00","2023","02","13","23:00","-23.8","","-25.4","","87","","","","8","","35","","2.4","","98.92","","","","-38","","Snow,Blowing Snow"
"-83.36","64.19","CORAL HARBOUR A","2301002","2023-02-14 00:00","2023","02","14","00:00","-23.5","","-25.0","","88","","","","8","","32","","3.2","","98.87","","","","-38","","Snow,Blowing Snow"
"-83.36","64.19","CORAL HARBOUR A","2301002","2023-02-14 01:00","2023","02","14","01:00","-23.3","","-24.7","","88","","","","7","","32","","2.4","","98.83","","","","-37","","Snow,Blowing Snow"
"-83.36","64.19","CORAL HARBOUR A","2301002","2023-02-14 02:00","2023","02","14","02:00","-23.2","","-24.4","","90","","","","7","","33","","2.4","","98.81","","","","-37","","Snow,Blowing Snow"
"-83.36","64.19","CORAL HARBOUR A","2301002","2023-02-14 03:00","2023","02","14","03:00","-23.1","","-24.5","","89","","","","6","","32","","2.4","","98.79","","","","-37","","Snow,Blowing Snow"
"-83.36","64.19","CORAL HARBOUR A","2301002","2023-02-14 04:00","2023","02","14","04:00","-22.9","","-24.3","","88","","","","6","","35","","3.2","","98.76","","","","-37","","Snow,Blowing Snow"
"-83.36","64.19","CORAL HARBOUR A","2301002","2023-02-14 05:00","2023","02","14","05:00","-22.8","","-24.5","","87","","","","5","","35","","3.2","","98.75","","","","-37","","Snow,Blowing Snow"
"-83.36","64.19","CORAL HARBOUR A","2301002","2023-02-14 06:00","2023","02","14","06:00","-22.6","","-24.0","","88","","","","5","","38","","2.4","","98.73","","","","-37","","Snow,Blowing Snow"
"-83.36","64.19","CORAL HARBOUR A","2301002","2023-02-14 07:00","2023","02","14","07:00","-22.5","","-23.9","","89","","","","5","","39","","2.4","","98.75","","","","-37","","Snow,Blowing Snow"
"-83.36","64.19","CORAL HARBOUR A","2301002","2023-02-14 08:00","2023","02","14","08:00","-22.9","","-24.4","","88","","","","4","","37","","2.4","","98.78","","","","-38","","Snow,Blowing Snow"
"-83.36","64.19","CORAL HARBOUR A","2301002","2023-02-14 09:00","2023","02","14","09:00","-23.2","","-24.9","","86","","","","5","","40","","2.4","","98.75","","","","-38","","Snow,Blowing Snow"
"-83.36","64.19","CORAL HARBOUR A","2301002","2023-02-14 10:00","2023","02","14","10:00","-23.9","","-25.6","","86","","","","3","","41","","3.2","","98.77","","","","-39","","Blowing Snow"
"-83.36","64.19","CORAL HARBOUR A","2301002","2023-02-14 11:00","2023","02","14","11:00","-24.0","","-25.9","","85","","","","2","","37","","4.0","","98.82","","","","-39","","Snow,Blowing Snow"
"-83.36","64.19","CORAL HARBOUR A","2301002","2023-02-14 12:00","2023","02","14","12:00","-24.1","","-25.9","","85","","","","35","","34","","4.0","","98.86","","","","-39","","Ice Crystals,Blowing Snow"
"-83.36","64.19","CORAL HARBOUR A","2301002","2023-02-14 13:00","2023","02","14","13:00","-24.2","","-25.6","","88","","","","2","","40","","0.8","","98.83","","","","-40","","Ice Crystals,Blowing Snow"
"-83.36","64.19","CORAL HARBOUR A","2301002","2023-02-14 14:00","2023","02","14","14:00","-24.4","","-26.2","","85","","","","34","","37","","3.2","","98.93","","","","-40","","Ice Crystals,Blowing Snow"
"-83.36","64.19","CORAL HARBOUR A","2301002","2023-02-14 15:00","2023","02","14","15:00","-25.1","","-27.2","","83","","","","35","","39","","3.2","","98.99","","","","-41","","Ice Crystals,Blowing Snow"
"-83.36","64.19","CORAL HARBOUR A","2301002","2023-02-14 16:00","2023","02","14","16:00","-25.8","","-28.0","","83","","","","35","","35","","16.1","","99.07","","","","-41","","Ice Crystals,Blowing Snow"
"-83.36","64.19","CORAL HARBOUR A","2301002","2023-02-14 17:00","2023","02","14","17:00","-27.6","","-29.9","","81","","","","34","","26","","16.1","","99.16","","","","-42","","Ice Crystals,Blowing Snow"
"-83.36","64.19","CORAL HARBOUR A","2301002","2023-02-14 18:00","2023","02","14","18:00","-28.2","","-30.6","","81","","","","34","","31","","11.3","","99.19","","","","-43","","Ice Crystals,Blowing Snow"
"-83.36","64.19","CORAL HARBOUR A","2301002","2023-02-14 19:00","2023","02","14","19:00","-28.0","","-30.5","","80","","","","34","","33","","11.3","","99.25","","","","-44","","Ice Crystals,Blowing Snow"
"-83.36","64.19","CORAL HARBOUR A","2301002","2023-02-14 20:00","2023","02","14","20:00","-29.9","","-32.5","","78","","","","35","","33","","24.1","","99.29","","","","-46","","Ice Crystals,Blowing Snow"
"-83.36","64.19","CORAL HARBOUR A","2301002","2023-02-14 21:00","2023","02","14","21:00","-30.6","","-33.5","","77","","","","34","","27","","24.1","","99.32","","","","-46","","Ice Crystals,Blowing Snow"
"-83.36","64.19","CORAL HARBOUR A","2301002","2023-02-14 22:00","2023","02","14","22:00","-31.0","","-33.9","","76","","","","34","","37","","19.3","","99.30","","","","-48","","Ice Crystals,Blowing Snow"
"-83.36","64.19","CORAL HARBOUR A","2301002","2023-02-14 23:00","2023","02","14","23:00","-31.8","","-34.7","","76","","","","36","","33","","19.3","","99.36","","","","-49","","Ice Crystals,Blowing Snow"
"-83.36","64.19","CORAL HARBOUR A","2301002","2023-02-15 00:00","2023","02","15","00:00","-31.4","","-34.3","","76","","","","35","","28","","24.1","","99.39","","","","-47","","Ice Crystals,Blowing Snow"
"-83.36","64.19","CORAL HARBOUR A","2301002","2023-02-15 01:00","2023","02","15","01:00","-31.5","","-34.6","","75","","","","35","","28","","24.1","","99.44","","","","-47","","Ice Crystals,Blowing Snow"
"-83.36","64.19","CORAL HARBOUR A","2301002","2023-02-15 02:00","2023","02","15","02:00","-32.3","","-35.4","","75","","","","36","","24","","24.1","","99.49","","","","-47","","Ice Crystals,Blowing Snow"
"-83.36","64.19","CORAL HARBOUR A","2301002","2023-02-15 03:00","2023","02","15","03:00","-33.5","","-36.9","","73","","","","36","","23","","24.1","","99.54","","","","-48","","Ice Crystals"
"-83.36","64.19","CORAL HARBOUR A","2301002","2023-02-15 04:00","2023","02","15","04:00","-34.4","","-37.9","","72","","","","35","","25","","24.1","","99.56","","","","-50","","Ice Crystals"
"-83.36","64.19","CORAL HARBOUR A","2301002","2023-02-15 05:00","2023","02","15","05:00","-34.9","","-38.2","","72","","","","31","","10","","24.1","","99.62","","","","-45","","Ice Crystals"
"-83.36","64.19","CORAL HARBOUR A","2301002","2023-02-15 06:00","2023","02","15","06:00","-36.2","","-39.6","","71","","","","31","","16","","24.1","","99.62","","","","-49","","Ice Crystals"
"-83.36","64.19","CORAL HARBOUR A","2301002","2023-02-15 07:00","2023","02","15","07:00","-37.0","","-40.5","","71","","","","33","","23","","24.1","","99.62","","","","-53","","Ice Crystals"
"-83.36","64.19","CORAL HARBOUR A","2301002","2023-02-15 08:00","2023","02","15","08:00","-36.1","","-39.5","","72","","","","35","","28","","24.1","","99.61","","","","-53","","Ice Crystals"
"-83.36","64.19","CORAL HARBOUR A","2301002","2023-02-15 09:00","2023","02","15","09:00","-35.4","","-39.0","","71","","","","35","","28","","24.1","","99.61","","","","-52","","Ice Crystals"
"-83.36","64.19","CORAL HARBOUR A","2301002","2023-02-15 10:00","2023","02","15","10:00","-34.9","","-38.9","","68","","","","36","","26","","24.1","","99.59","","","","-51","","Ice Crystals"
"-83.36","64.19","CORAL HARBOUR A","2301002","2023-02-15 11:00","2023","02","15","11:00","-34.1","","-38.3","","66","","","","35","","25","","24.1","","99.60","","","","-50","","Ice Crystals"
"-83.36","64.19","CORAL HARBOUR A","2301002","2023-02-15 12:00","2023","02","15","12:00","-33.4","","-37.8","","66","","","","35","","25","","24.1","","99.59","","","","-49","","Ice Crystals"
"-83.36","64.19","CORAL HARBOUR A","2301002","2023-02-15 13:00","2023","02","15","13:00","-32.3","","-36.8","","66","","","","35","","26","","24.1","","99.59","","","","-48","","Ice Crystals"
"-83.36","64.19","CORAL HARBOUR A","2301002","2023-02-15 14:00","2023","02","15","14:00","-30.4","","-34.8","","66","","","","36","","11","","24.1","","99.64","","","","-40","","Ice Crystals"
"-83.36","64.19","CORAL HARBOUR A","2301002","2023-02-15 15:00","2023","02","15","15:00","-31.6","","-36.1","","65","","","","36","","19","","24.1","","99.65","","","","-45","","Ice Crystals"
"-83.36","64.19","CORAL HARBOUR A","2301002","2023-02-15 16:00","2023","02","15","16:00","-32.2","","-36.5","","67","","","","35","","18","","24.1","","99.68","","","","-45","","Ice Crystals"
"-83.36","64.19","CORAL HARBOUR A","2301002","2023-02-15 17:00","2023","02","15","17:00","-34.7","","-38.6","","68","","","","34","","14","","24.1","","99.71","","","","-47","","Ice Crystals"
"-83.36","64.19","CORAL HARBOUR A","2301002","2023-02-15 18:00","2023","02","15","18:00","-35.7","","-39.4","","70","","","","1","","19","","24.1","","99.70","","","","-50","","Ice Crystals"
"-83.36","64.19","CORAL HARBOUR A","2301002","2023-02-15 19:00","2023","02","15","19:00","-37.1","","-40.9","","69","","","","1","","7","","24.1","","99.70","","","","-46","","Ice Crystals"
"-83.36","64.19","CORAL HARBOUR A","2301002","2023-02-15 20:00","2023","02","15","20:00","-38.0","","-41.9","","68","","","","33","","17","","24.1","","99.69","","","","-52","","Ice Crystals"
"-83.36","64.19","CORAL HARBOUR A","2301002","2023-02-15 21:00","2023","02","15","21:00","-38.2","","-41.9","","70","","","","3","","5","","24.1","","99.66","","","","-45","","Ice Crystals"
"-83.36","64.19","CORAL HARBOUR A","2301002","2023-02-15 22:00","2023","02","15","22:00","-38.7","","-42.6","","68","","","","36","","2","","24.1","","99.65","","","","-41","","Ice Crystals"
"-83.36","64.19","CORAL HARBOUR A","2301002","2023-02-15 23:00","2023","02","15","23:00","-39.1","","-42.7","","69","","","","6","","5","","24.1","","99.60","","","","-46","","Ice Crystals"
"-83.36","64.19","CORAL HARBOUR A","2301002","2023-02-16 00:00","2023","02","16","00:00","-39.5","","-43.3","","68","","","","32","","9","","24.1","","99.58","","","","-50","","Ice Crystals"
"-83.36","64.19","CORAL HARBOUR A","2301002","2023-02-16 01:00","2023","02","16","01:00","-39.7","","-43.5","","68","","","","33","","7","","24.1","","99.56","","","","-49","","Ice Crystals"
"-83.36","64.19","CORAL HARBOUR A","2301002","2023-02-16 02:00","2023","02","16","02:00","-40.0","","-43.8","","68","","","","36","","1","","19.3","","99.55","","","","-41","","Ice Crystals"
"-83.36","64.19","CORAL HARBOUR A","2301002","2023-02-16 03:00","2023","02","16","03:00","-38.5","","-42.0","","70","","","","4","","3","","24.1","","99.51","","","","-43","","Ice Crystals"
"-83.36","64.19","CORAL HARBOUR A","2301002","2023-02-16 04:00","2023","02","16","04:00","-38.0","","-41.7","","70","","","","36","","1","","19.3","","99.51","","","","-39","","Ice Crystals"
"-83.36","64.19","CORAL HARBOUR A","2301002","2023-02-16 05:00","2023","02","16","05:00","-36.5","","-40.0","","71","","","","36","","2","","19.3","","99.50","","","","-39","","Ice Crystals"
"-83.36","64.19","CORAL HARBOUR A","2301002","2023-02-16 06:00","2023","02","16","06:00","-36.0","","-39.5","","71","","","","13","","3","","24.1","","99.51","","","","-40","","Ice Crystals"
"-83.36","64.19","CORAL HARBOUR A","2301002","2023-02-16 07:00","2023","02","16","07:00","-38.5","","-42.2","","69","","","","36","","2","","24.1","","99.51","","","","-41","","Ice Crystals"
"-83.36","64.19","CORAL HARBOUR A","2301002","2023-02-16 08:00","2023","02","16","08:00","-39.3","","-42.9","","70","","","","36","","3","","24.1","","99.49","","","","-43","","Ice Crystals"
"-83.36","64.19","CORAL HARBOUR A","2301002","2023-02-16 09:00","2023","02","16","09:00","-38.2","","-41.9","","69","","","","33","","10","","24.1","","99.50","","","","-49","","Ice Crystals"
"-83.36","64.19","CORAL HARBOUR A","2301002","2023-02-16 10:00","2023","02","16","10:00","-37.6","","-41.4","","69","","","","34","","8","","24.1","","99.48","","","","-47","","Ice Crystals"
"-83.36","64.19","CORAL HARBOUR A","2301002","2023-02-16 11:00","2023","02","16","11:00","-35.5","","-39.3","","69","","","","18","","3","","24.1","","99.49","","","","-39","","Ice Crystals"
"-83.36","64.19","CORAL HARBOUR A","2301002","2023-02-16 12:00","2023","02","16","12:00","-34.0","","-39.6","","58","","","","7","","6","","24.1","","99.49","","","","-41","","Ice Crystals"
"-83.36","64.19","CORAL HARBOUR A","2301002","2023-02-16 13:00","2023","02","16","13:00","-32.7","","-37.4","","64","","","","13","","5","","24.1","","99.52","","","","-39","","Ice Crystals"
"-83.36","64.19","CORAL HARBOUR A","2301002","2023-02-16 14:00","2023","02","16","14:00","-32.1","","-37.3","","61","","","","11","","5","","24.1","","99.56","","","","-38","","Ice Crystals"
"-83.36","64.19","CORAL HARBOUR A","2301002","2023-02-16 15:00","2023","02","16","15:00","-36.2","","-41.3","","60","","","","5","","8","","24.1","","99.58","","","","-45","","Ice Crystals"
"-83.36","64.19","CORAL HARBOUR A","2301002","2023-02-16 16:00","2023","02","16","16:00","-37.5","","-41.9","","64","","","","5","","11","","24.1","","99.61","","","","-49","","Ice Crystals"
"-83.36","64.19","CORAL HARBOUR A","2301002","2023-02-16 17:00","2023","02","16","17:00","-39.1","","-43.1","","67","","","","3","","12","","24.1","","99.65","","","","-51","","Ice Crystals"
"-83.36","64.19","CORAL HARBOUR A","2301002","2023-02-16 18:00","2023","02","16","18:00","-40.6","","-44.5","","67","","","","36","","10","","24.1","","99.68","","","","-52","","Ice Crystals"
"-83.36","64.19","CORAL HARBOUR A","2301002","2023-02-16 19:00","2023","02","16","19:00","-41.1","","-44.9","","68","","","","36","","24","","24.1","","99.73","","","","-58","","Ice Crystals"
"-83.36","64.19","CORAL HARBOUR A","2301002","2023-02-16 20:00","2023","02","16","20:00","-41.5","","-45.3","","67","","","","34","","24","","24.1","","99.75","","","","-59","","Ice Crystals"
"-83.36","64.19","CORAL HARBOUR A","2301002","2023-02-16 21:00","2023","02","16","21:00","-39.6","","-43.4","","68","","","","36","","9","","24.1","","99.78","","","","-50","","Ice Crystals"
"-83.36","64.19","CORAL HARBOUR A","2301002","2023-02-16 22:00","2023","02","16","22:00","-40.0","","-43.9","","67","","","","36","","23","","24.1","","99.77","","","","-57","","Ice Crystals"
"-83.36","64.19","CORAL HARBOUR A","2301002","2023-02-16 23:00","2023","02","16","23:00","-40.4","","-44.2","","68","","","","35","","22","","24.1","","99.74","","","","-57","","Ice Crystals"
"-83.36","64.19","CORAL HARBOUR A","2301002","2023-02-17 00:00","2023","02","17","00:00","-40.7","","-44.5","","68","","","","36","","22","","24.1","","99.76","","","","-57","","Ice Crystals"
"-83.36","64.19","CORAL HARBOUR A","2301002","2023-02-17 01:00","2023","02","17","01:00","-40.6","","-44.4","","68","","","","34","","17","","24.1","","99.76","","","","-55","","Ice Crystals"
"-83.36","64.19","CORAL HARBOUR A","2301002","2023-02-17 02:00","2023","02","17","02:00","-40.1","","-44.0","","68","","","","34","","16","","24.1","","99.76","","","","-54","","Ice Crystals"
"-83.36","64.19","CORAL HARBOUR A","2301002","2023-02-17 03:00","2023","02","17","03:00","-40.0","","-43.9","","68","","","","35","","16","","24.1","","99.78","","","","-54","","Ice Crystals"
"-83.36","64.19","CORAL HARBOUR A","2301002","2023-02-17 04:00","2023","02","17","04:00","-39.9","","-43.7","","68","","","","36","","21","","19.3","","99.80","","","","-56","","Ice Crystals"
"-83.36","64.19","CORAL HARBOUR A","2301002","2023-02-17 05:00","2023","02","17","05:00","-40.0","","-43.8","","68","","","","1","","22","","24.1","","99.80","","","","-56","","Ice Crystals"
"-83.36","64.19","CORAL HARBOUR A","2301002","2023-02-17 06:00","2023","02","17","06:00","-40.6","","-44.6","","67","","","","36","","17","","24.1","","99.80","","","","-55","","Ice Crystals"
"-83.36","64.19","CORAL HARBOUR A","2301002","2023-02-17 07:00","2023","02","17","07:00","-40.6","","-44.5","","67","","","","35","","19","","24.1","","99.77","","","","-56","","Ice Crystals"
"-83.36","64.19","CORAL HARBOUR A","2301002","2023-02-17 08:00","2023","02","17","08:00","-40.9","","-44.9","","67","","","","1","","22","","24.1","","99.77","","","","-58","","Ice Crystals"
"-83.36","64.19","CORAL HARBOUR A","2301002","2023-02-17 09:00","2023","02","17","09:00","-40.8","","-44.7","","67","","","","2","","18","","24.1","","99.78","","","","-56","","Ice Crystals"
"-83.36","64.19","CORAL HARBOUR A","2301002","2023-02-17 10:00","2023","02","17","10:00","-40.4","","-44.5","","66","","","","35","","23","","24.1","","99.78","","","","-57","","Ice Crystals"
"-83.36","64.19","CORAL HARBOUR A","2301002","2023-02-17 11:00","2023","02","17","11:00","-38.2","","-42.5","","65","","","","36","","21","","24.1","","99.74","","","","-54","","Ice Crystals"
"-83.36","64.19","CORAL HARBOUR A","2301002","2023-02-17 12:00","2023","02","17","12:00","-37.0","","-41.5","","64","","","","36","","20","","24.1","","99.72","","","","-52","","Ice Crystals"
"-83.36","64.19","CORAL HARBOUR A","2301002","2023-02-17 13:00","2023","02","17","13:00","-36.4","","-41.2","","62","","","","36","","20","","24.1","","99.69","","","","-51","","Ice Crystals"
"-83.36","64.19","CORAL HARBOUR A","2301002","2023-02-17 14:00","2023","02","17","14:00","-35.3","","-40.3","","61","","","","34","","15","","24.1","","99.67","","","","-48","","Ice Crystals"
"-83.36","64.19","CORAL HARBOUR A","2301002","2023-02-17 15:00","2023","02","17","15:00","-36.1","","-41.2","","61","","","","34","","18","","24.1","","99.65","","","","-50","","Ice Crystals"
"-83.36","64.19","CORAL HARBOUR A","2301002","2023-02-17 16:00","2023","02","17","16:00","-37.3","","-42.0","","62","","","","34","","20","","24.1","","99.64","","","","-52","","Ice Crystals"
"-83.36","64.19","CORAL HARBOUR A","2301002","2023-02-17 17:00","2023","02","17","17:00","-39.9","","-44.2","","64","","","","33","","20","","24.1","","99.67","","","","-56","","Ice Crystals"
"-83.36","64.19","CORAL HARBOUR A","2301002","2023-02-17 18:00","2023","02","17","18:00","-41.7","","-45.6","","67","","","","32","","13","","24.1","","99.69","","","","-55","","Ice Crystals"
"-83.36","64.19","CORAL HARBOUR A","2301002","2023-02-17 19:00","2023","02","17","19:00","-42.7","","-46.7","","66","","","","35","","26","","24.1","","99.65","","","","-61","","Ice Crystals"
"-83.36","64.19","CORAL HARBOUR A","2301002","2023-02-17 20:00","2023","02","17","20:00","-41.5","","-45.4","","66","","","","35","","16","","24.1","","99.65","","","","-56","","Ice Crystals"
"-83.36","64.19","CORAL HARBOUR A","2301002","2023-02-17 21:00","2023","02","17","21:00","-42.6","","-46.8","","65","","","","36","","23","","24.1","","99.63","","","","-60","","Ice Crystals"
"-83.36","64.19","CORAL HARBOUR A","2301002","2023-02-17 22:00","2023","02","17","22:00","-43.0","","-47.0","","66","","","","36","","21","","24.1","","99.58","","","","-60","","Ice Crystals"
"-83.36","64.19","CORAL HARBOUR A","2301002","2023-02-17 23:00","2023","02","17","23:00"
"-83.36","64.19","CORAL HARBOUR A","2301002","2023-02-18 00:00","2023","02","18","00:00"
"-83.36","64.19","CORAL HARBOUR A","2301002","2023-02-18 01:00","2023","02","18","01:00"
"-83.36","64.19","CORAL HARBOUR A","2301002","2023-02-18 02:00","2023","02","18","02:00","-42.9","","-46.9","","66","","","","35","","31","","24.1","","99.47","","","","-63","","Ice Crystals"
"-83.36","64.19","CORAL HARBOUR A","2301002","2023-02-18 03:00","2023","02","18","03:00","-43.7","","-47.8","","65","","","","36","","27","","24.1","","99.45","","","","-63","","Ice Crystals"
"-83.36","64.19","CORAL HARBOUR A","2301002","2023-02-18 04:00","2023","02","18","04:00","-44.1","","-48.1","","65","","","","36","","28","","24.1","","99.43","","","","-63","","Ice Crystals"
"-83.36","64.19","CORAL HARBOUR A","2301002","2023-02-18 05:00","2023","02","18","05:00","-43.8","","-47.8","","65","","","","35","","23","","24.1","","99.44","","","","-62","","Ice Crystals"
"-83.36","64.19","CORAL HARBOUR A","2301002","2023-02-18 06:00","2023","02","18","06:00","-43.9","","-48.0","","65","","","","36","","23","","24.1","","99.43","","","","-62","","Ice Crystals"
"-83.36","64.19","CORAL HARBOUR A","2301002","2023-02-18 07:00","2023","02","18","07:00","-44.5","","-48.6","","65","","","","1","","14","","24.1","","99.42","","","","-59","","Ice Crystals"
"-83.36","64.19","CORAL HARBOUR A","2301002","2023-02-18 08:00","2023","02","18","08:00","-45.0","","-49.1","","65","","","","36","","13","","24.1","","99.42","","","","-59","","Ice Crystals"
"-83.36","64.19","CORAL HARBOUR A","2301002","2023-02-18 09:00","2023","02","18","09:00","-44.0","","-48.1","","65","","","","2","","8","","24.1","","99.42","","","","-54","","Ice Crystals"
"-83.36","64.19","CORAL HARBOUR A","2301002","2023-02-18 10:00","2023","02","18","10:00","-43.1","","-47.5","","63","","","","35","","16","","24.1","","99.41","","","","-58","","Ice Crystals"
"-83.36","64.19","CORAL HARBOUR A","2301002","2023-02-18 11:00","2023","02","18","11:00","-40.9","","-45.5","","63","","","","1","","13","","24.1","","99.39","","","","-54","","Ice Crystals"
"-83.36","64.19","CORAL HARBOUR A","2301002","2023-02-18 12:00","2023","02","18","12:00","-39.6","","-44.3","","62","","","","35","","12","","24.1","","99.38","","","","-52","","Ice Crystals"
"-83.36","64.19","CORAL HARBOUR A","2301002","2023-02-18 13:00","2023","02","18","13:00","-38.8","","-43.7","","61","","","","33","","9","","24.1","","99.40","","","","-49","","Ice Crystals"
"-83.36","64.19","CORAL HARBOUR A","2301002","2023-02-18 14:00","2023","02","18","14:00","-38.1","","-43.1","","61","","","","1","","9","","24.1","","99.38","","","","-48","","Ice Crystals"
"-83.36","64.19","CORAL HARBOUR A","2301002","2023-02-18 15:00","2023","02","18","15:00","-37.0","","-41.9","","62","","","","34","","7","","24.1","","99.38","","","","-45","","Ice Crystals"
"-83.36","64.19","CORAL HARBOUR A","2301002","2023-02-18 16:00","2023","02","18","16:00","-39.7","","-44.6","","61","","","","34","","13","","24.1","","99.39","","","","-52","","Ice Crystals"
"-83.36","64.19","CORAL HARBOUR A","2301002","2023-02-18 17:00","2023","02","18","17:00","-42.1","","-46.7","","62","","","","36","","13","","24.1","","99.41","","","","-55","","Ice Crystals"
"-83.36","64.19","CORAL HARBOUR A","2301002","2023-02-18 18:00","2023","02","18","18:00","-43.7","","-47.9","","65","","","","35","","12","","24.1","","99.44","","","","-57","","Ice Crystals"
"-83.36","64.19","CORAL HARBOUR A","2301002","2023-02-18 19:00","2023","02","18","19:00","-44.3","","-48.4","","65","","","","33","","20","","24.1","","99.44","","","","-61","","Ice Crystals"
"-83.36","64.19","CORAL HARBOUR A","2301002","2023-02-18 20:00","2023","02","18","20:00","-44.2","","-48.2","","66","","","","36","","22","","24.1","","99.44","","","","-62","","Ice Crystals"
"-83.36","64.19","CORAL HARBOUR A","2301002","2023-02-18 21:00","2023","02","18","21:00","-45.4","","-49.5","","65","","","","36","","12","","24.1","","99.42","","","","-59","","Ice Crystals"
"-83.36","64.19","CORAL HARBOUR A","2301002","2023-02-18 22:00","2023","02","18","22:00","-44.6","","-48.6","","65","","","","1","","8","","24.1","","99.40","","","","-55","","Ice Crystals"
"-83.36","64.19","CORAL HARBOUR A","2301002","2023-02-18 23:00","2023","02","18","23:00","-45.4","","-49.4","","65","","","","36","","19","","24.1","","99.40","","","","-62","","Ice Crystals"
"-83.36","64.19","CORAL HARBOUR A","2301002","2023-02-19 00:00","2023","02","19","00:00","-45.8","","-49.9","","65","","","","35","","22","","24.1","","99.39","","","","-64","","Ice Crystals"
"-83.36","64.19","CORAL HARBOUR A","2301002","2023-02-19 01:00","2023","02","19","01:00","-45.3","","-49.4","","65","","","","36","","26","","24.1","","99.36","","","","-64","","Ice Crystals"
"-83.36","64.19","CORAL HARBOUR A","2301002","2023-02-19 02:00","2023","02","19","02:00"
"-83.36","64.19","CORAL HARBOUR A","2301002","2023-02-19 03:00","2023","02","19","03:00","-44.2","","-48.2","","65","","","","36","","26","","24.1","","99.38","","","","-63","","Ice Crystals"
"-83.36","64.19","CORAL HARBOUR A","2301002","2023-02-19 04:00","2023","02","19","04:00"
"-83.36","64.19","CORAL HARBOUR A","2301002","2023-02-19 05:00","2023","02","19","05:00","-44.3","","-48.5","","64","","","","34","","17","","24.1","","99.41","","","","-60","","Ice Crystals"
"-83.36","64.19","CORAL HARBOUR A","2301002","2023-02-19 06:00","2023","02","19","06:00","-45.2","","-49.4","","64","","","","33","","9","","24.1","","99.39","","","","-57","","Ice Crystals"
"-83.36","64.19","CORAL HARBOUR A","2301002","2023-02-19 07:00","2023","02","19","07:00","-46.0","","-50.2","","64","","","","32","","18","","24.1","","99.40","","","","-62","","Ice Crystals"
"-83.36","64.19","CORAL HARBOUR A","2301002","2023-02-19 08:00","2023","02","19","08:00","-46.1","","-50.3","","64","","","","31","","15","","24.1","","99.39","","","","-61","","Ice Crystals"
"-83.36","64.19","CORAL HARBOUR A","2301002","2023-02-19 09:00","2023","02","19","09:00","-44.2","","-48.4","","65","","","","31","","13","","24.1","","99.40","","","","-58","","Ice Crystals"
"-83.36","64.19","CORAL HARBOUR A","2301002","2023-02-19 10:00","2023","02","19","10:00","-42.4","","-46.7","","64","","","","34","","18","","24.1","","99.38","","","","-58","","Ice Crystals"
"-83.36","64.19","CORAL HARBOUR A","2301002","2023-02-19 11:00","2023","02","19","11:00","-41.7","","-46.3","","62","","","","34","","21","","24.1","","99.37","","","","-58","","Ice Crystals"
"-83.36","64.19","CORAL HARBOUR A","2301002","2023-02-19 12:00","2023","02","19","12:00","-39.2","","-44.6","","58","","","","10","","4","","24.1","","99.37","","","","-45","","Ice Crystals"
"-83.36","64.19","CORAL HARBOUR A","2301002","2023-02-19 13:00","2023","02","19","13:00","-37.1","","-42.9","","56","","","","36","","2","","24.1","","99.38","","","","-40","","Ice Crystals"
"-83.36","64.19","CORAL HARBOUR A","2301002","2023-02-19 14:00","2023","02","19","14:00","-36.1","","-42.3","","54","","","","12","","3","","24.1","","99.39","","","","-40","","Ice Crystals"
"-83.36","64.19","CORAL HARBOUR A","2301002","2023-02-19 15:00","2023","02","19","15:00","-36.5","","-42.5","","55","","","","36","","3","","24.1","","99.36","","","","-40","","Ice Crystals"
"-83.36","64.19","CORAL HARBOUR A","2301002","2023-02-19 16:00","2023","02","19","16:00","-40.4","","-46.2","","55","","","","3","","6","","24.1","","99.36","","","","-48","","Ice Crystals"
"-83.36","64.19","CORAL HARBOUR A","2301002","2023-02-19 17:00","2023","02","19","17:00","-40.6","","-45.2","","63","","","","3","","5","","24.1","","99.36","","","","-48","","Ice Crystals"
"-83.36","64.19","CORAL HARBOUR A","2301002","2023-02-19 18:00","2023","02","19","18:00","-44.5","","-48.8","","63","","","","1","","10","","24.1","","99.35","","","","-56","","Ice Crystals"
"-83.36","64.19","CORAL HARBOUR A","2301002","2023-02-19 19:00","2023","02","19","19:00","-43.3","","-47.0","","68","","","","36","","2","","24.1","","99.35","","","","-46","","Ice Crystals"
"-83.36","64.19","CORAL HARBOUR A","2301002","2023-02-19 20:00","2023","02","19","20:00","-44.8","","-49.0","","64","","","","32","","7","","24.1","","99.33","","","","-54","","Ice Crystals"
"-83.36","64.19","CORAL HARBOUR A","2301002","2023-02-19 21:00","2023","02","19","21:00","-44.1","","-48.0","","66","","","","32","","10","","24.1","","99.33","","","","-56","","Ice Crystals"
"-83.36","64.19","CORAL HARBOUR A","2301002","2023-02-19 22:00","2023","02","19","22:00","-44.8","","-49.1","","63","","","","35","","7","","24.1","","99.30","","","","-54","","Ice Crystals"
"-83.36","64.19","CORAL HARBOUR A","2301002","2023-02-19 23:00","2023","02","19","23:00","-44.2","","-48.3","","65","","","","3","","8","","24.1","","99.29","","","","-55","","Ice Crystals"
"-83.36","64.19","CORAL HARBOUR A","2301002","2023-02-20 00:00","2023","02","20","00:00","-44.4","","-48.4","","66","","","","2","","11","","24.1","","99.26","","","","-57","","Ice Crystals"
"-83.36","64.19","CORAL HARBOUR A","2301002","2023-02-20 01:00","2023","02","20","01:00","-46.7","","-51.0","","63","","","","36","","12","","24.1","","99.25","","","","-60","","Ice Crystals"
"-83.36","64.19","CORAL HARBOUR A","2301002","2023-02-20 02:00","2023","02","20","02:00"
"-83.36","64.19","CORAL HARBOUR A","2301002","2023-02-20 03:00","2023","02","20","03:00","-45.5","","-49.6","","65","","","","1","","12","","24.1","","99.23","","","","-59","","Ice Crystals"
"-83.36","64.19","CORAL HARBOUR A","2301002","2023-02-20 04:00","2023","02","20","04:00","-45.8","","-49.9","","64","","","","35","","15","","24.1","","99.22","","","","-61","","Ice Crystals"
"-83.36","64.19","CORAL HARBOUR A","2301002","2023-02-20 05:00","2023","02","20","05:00"
"-83.36","64.19","CORAL HARBOUR A","2301002","2023-02-20 06:00","2023","02","20","06:00","-46.7","","-50.9","","64","","","","1","","16","","24.1","","99.23","","","","-62","","Ice Crystals"
"-83.36","64.19","CORAL HARBOUR A","2301002","2023-02-20 07:00","2023","02","20","07:00","-46.7","","-50.9","","64","","","","34","","16","","16.1","","99.25","","","","-62","","Ice Crystals"
"-83.36","64.19","CORAL HARBOUR A","2301002","2023-02-20 08:00","2023","02","20","08:00","-46.3","","-50.5","","64","","","","33","","14","","19.3","","99.26","","","","-61","","Ice Crystals"
"-83.36","64.19","CORAL HARBOUR A","2301002","2023-02-20 09:00","2023","02","20","09:00","-45.5","","-49.7","","64","","","","33","","17","","19.3","","99.25","","","","-61","","Ice Crystals"
"-83.36","64.19","CORAL HARBOUR A","2301002","2023-02-20 10:00","2023","02","20","10:00","-40.4","","-44.2","","67","","","","5","","23","","19.3","","99.30","","","","-57","","Ice Crystals"
"-83.36","64.19","CORAL HARBOUR A","2301002","2023-02-20 11:00","2023","02","20","11:00","-39.1","","-43.3","","65","","","","6","","21","","19.3","","99.29","","","","-55","","Ice Crystals"
"-83.36","64.19","CORAL HARBOUR A","2301002","2023-02-20 12:00","2023","02","20","12:00","-37.8","","-42.3","","64","","","","6","","18","","24.1","","99.31","","","","-52","","Ice Crystals"
"-83.36","64.19","CORAL HARBOUR A","2301002","2023-02-20 13:00","2023","02","20","13:00","-36.8","","-41.5","","63","","","","5","","15","","19.3","","99.31","","","","-50","","Ice Crystals"
"-83.36","64.19","CORAL HARBOUR A","2301002","2023-02-20 14:00","2023","02","20","14:00","-36.2","","-41.1","","62","","","","6","","15","","24.1","","99.32","","","","-49","","Ice Crystals"
"-83.36","64.19","CORAL HARBOUR A","2301002","2023-02-20 15:00","2023","02","20","15:00","-36.9","","-41.9","","61","","","","5","","18","","24.1","","99.35","","","","-51","","Ice Crystals"
"-83.36","64.19","CORAL HARBOUR A","2301002","2023-02-20 16:00","2023","02","20","16:00","-37.9","","-42.5","","63","","","","5","","19","","24.1","","99.39","","","","-53","","Ice Crystals"
"-83.36","64.19","CORAL HARBOUR A","2301002","2023-02-20 17:00","2023","02","20","17:00","-38.9","","-43.0","","66","","","","5","","22","","24.1","","99.40","","","","-55","","Ice Crystals"
"-83.36","64.19","CORAL HARBOUR A","2301002","2023-02-20 18:00","2023","02","20","18:00","-38.2","","-42.1","","68","","","","6","","22","","24.1","","99.43","","","","-54","","Ice Crystals"
"-83.36","64.19","CORAL HARBOUR A","2301002","2023-02-20 19:00","2023","02","20","19:00","-38.5","","-42.4","","68","","","","5","","26","","24.1","","99.44","","","","-56","","Ice Crystals"
"-83.36","64.19","CORAL HARBOUR A","2301002","2023-02-20 20:00","2023","02","20","20:00","-38.5","","-42.5","","67","","","","5","","27","","24.1","","99.45","","","","-56","","Ice Crystals"
"-83.36","64.19","CORAL HARBOUR A","2301002","2023-02-20 21:00","2023","02","20","21:00","-38.0","","-42.0","","67","","","","5","","27","","24.1","","99.44","","","","-55","","Ice Crystals"
"-83.36","64.19","CORAL HARBOUR A","2301002","2023-02-20 22:00","2023","02","20","22:00","-37.5","","-41.6","","67","","","","4","","26","","24.1","","99.45","","","","-54","","Ice Crystals"
"-83.36","64.19","CORAL HARBOUR A","2301002","2023-02-20 23:00","2023","02","20","23:00","-37.6","","-41.9","","65","","","","5","","26","","24.1","","99.42","","","","-55","","Ice Crystals,Blowing Snow"
"-83.36","64.19","CORAL HARBOUR A","2301002","2023-02-21 00:00","2023","02","21","00:00","-39.5","","-43.4","","67","","","","3","","24","","24.1","","99.41","","","","-56","","Ice Crystals"
"-83.36","64.19","CORAL HARBOUR A","2301002","2023-02-21 01:00","2023","02","21","01:00","-36.8","","-41.1","","65","","","","4","","26","","24.1","","99.39","","","","-53","","Ice Crystals"
"-83.36","64.19","CORAL HARBOUR A","2301002","2023-02-21 02:00","2023","02","21","02:00","-36.7","","-41.0","","65","","","","4","","23","","24.1","","99.41","","","","-52","","Ice Crystals"
"-83.36","64.19","CORAL HARBOUR A","2301002","2023-02-21 03:00","2023","02","21","03:00","-36.8","","-41.1","","65","","","","5","","27","","24.1","","99.42","","","","-54","","Ice Crystals"
"-83.36","64.19","CORAL HARBOUR A","2301002","2023-02-21 04:00","2023","02","21","04:00","-36.7","","-41.0","","66","","","","5","","26","","24.1","","99.43","","","","-53","","Ice Crystals"
"-83.36","64.19","CORAL HARBOUR A","2301002","2023-02-21 05:00","2023","02","21","05:00","-38.8","","-43.1","","65","","","","3","","22","","24.1","","99.44","","","","-55","","Ice Crystals"
"-83.36","64.19","CORAL HARBOUR A","2301002","2023-02-21 06:00","2023","02","21","06:00","-40.3","","-44.2","","67","","","","3","","26","","24.1","","99.44","","","","-58","","Ice Crystals"
"-83.36","64.19","CORAL HARBOUR A","2301002","2023-02-21 07:00","2023","02","21","07:00","-40.0","","-43.8","","68","","","","2","","27","","24.1","","99.45","","","","-58","","Ice Crystals"
"-83.36","64.19","CORAL HARBOUR A","2301002","2023-02-21 08:00","2023","02","21","08:00","-38.6","","-42.4","","69","","","","3","","24","","24.1","","99.48","","","","-55","","Ice Crystals"
"-83.36","64.19","CORAL HARBOUR A","2301002","2023-02-21 09:00","2023","02","21","09:00","-36.2","","-40.4","","67","","","","3","","31","","24.1","","99.48","","","","-54","","Ice Crystals"
"-83.36","64.19","CORAL HARBOUR A","2301002","2023-02-21 10:00","2023","02","21","10:00","-37.0","","-41.1","","66","","","","2","","27","","24.1","","99.52","","","","-54","","Ice Crystals,Blowing Snow"
"-83.36","64.19","CORAL HARBOUR A","2301002","2023-02-21 11:00","2023","02","21","11:00","-34.8","","-39.7","","62","","","","3","","32","","24.1","","99.52","","","","-52","","Ice Crystals,Blowing Snow"
"-83.36","64.19","CORAL HARBOUR A","2301002","2023-02-21 12:00","2023","02","21","12:00","-34.1","","-39.1","","61","","","","3","","32","","24.1","","99.53","","","","-51","","Ice Crystals"
"-83.36","64.19","CORAL HARBOUR A","2301002","2023-02-21 13:00","2023","02","21","13:00","-32.2","","-37.2","","62","","","","2","","24","","24.1","","99.57","","","","-47","","Ice Crystals"
"-83.36","64.19","CORAL HARBOUR A","2301002","2023-02-21 14:00","2023","02","21","14:00","-32.2","","-37.4","","61","","","","2","","22","","24.1","","99.59","","","","-46","","Ice Crystals"
"-83.36","64.19","CORAL HARBOUR A","2301002","2023-02-21 15:00","2023","02","21","15:00","-33.6","","-38.9","","60","","","","34","","22","","24.1","","99.61","","","","-48","","Ice Crystals"
"-83.36","64.19","CORAL HARBOUR A","2301002","2023-02-21 16:00","2023","02","21","16:00","-35.6","","-40.7","","61","","","","34","","19","","24.1","","99.64","","","","-50","","Ice Crystals"
"-83.36","64.19","CORAL HARBOUR A","2301002","2023-02-21 17:00","2023","02","21","17:00","-38.9","","-43.5","","63","","","","34","","19","","24.1","","99.66","","","","-54","","Ice Crystals"
"-83.36","64.19","CORAL HARBOUR A","2301002","2023-02-21 18:00","2023","02","21","18:00","-41.0","","-45.0","","66","","","","34","","21","","24.1","","99.68","","","","-57","","Ice Crystals"
"-83.36","64.19","CORAL HARBOUR A","2301002","2023-02-21 19:00","2023","02","21","19:00","-42.0","","-46.0","","66","","","","33","","19","","24.1","","99.70","","","","-58","","Ice Crystals"
"-83.36","64.19","CORAL HARBOUR A","2301002","2023-02-21 20:00","2023","02","21","20:00","-42.9","","-46.9","","66","","","","34","","20","","24.1","","99.72","","","","-59","","Ice Crystals"
"-83.36","64.19","CORAL HARBOUR A","2301002","2023-02-21 21:00","2023","02","21","21:00","-43.9","","-48.0","","65","","","","33","","21","","24.1","","99.72","","","","-61","","Ice Crystals"
"-83.36","64.19","CORAL HARBOUR A","2301002","2023-02-21 22:00","2023","02","21","22:00","-43.7","","-47.8","","65","","","","35","","18","","24.1","","99.74","","","","-60","","Ice Crystals"
"-83.36","64.19","CORAL HARBOUR A","2301002","2023-02-21 23:00","2023","02","21","23:00","-42.4","","-46.3","","67","","","","5","","3","","24.1","","99.75","","","","-47","","Ice Crystals"
"-83.36","64.19","CORAL HARBOUR A","2301002","2023-02-22 00:00","2023","02","22","00:00","-44.8","","-49.0","","65","","","","36","","11","","24.1","","99.76","","","","-57","","Ice Crystals"
"-83.36","64.19","CORAL HARBOUR A","2301002","2023-02-22 01:00","2023","02","22","01:00","-44.9","","-49.0","","65","","","","34","","13","","24.1","","99.75","","","","-59","","Ice Crystals"
"-83.36","64.19","CORAL HARBOUR A","2301002","2023-02-22 02:00","2023","02","22","02:00","-44.6","","-48.5","","66","","","","33","","20","","24.1","","99.75","","","","-62","","Ice Crystals"
"-83.36","64.19","CORAL HARBOUR A","2301002","2023-02-22 03:00","2023","02","22","03:00","-45.1","","-49.1","","65","","","","33","","15","","24.1","","99.77","","","","-60","","Ice Crystals"
"-83.36","64.19","CORAL HARBOUR A","2301002","2023-02-22 04:00","2023","02","22","04:00","-44.7","","-48.7","","65","","","","35","","24","","24.1","","99.80","","","","-63","","Ice Crystals"
"-83.36","64.19","CORAL HARBOUR A","2301002","2023-02-22 05:00","2023","02","22","05:00","-44.0","","-48.1","","65","","","","36","","28","","24.1","","99.81","","","","-63","","Ice Crystals"
"-83.36","64.19","CORAL HARBOUR A","2301002","2023-02-22 06:00","2023","02","22","06:00","-43.7","","-47.7","","66","","","","35","","23","","24.1","","99.82","","","","-61","","Ice Crystals"
"-83.36","64.19","CORAL HARBOUR A","2301002","2023-02-22 07:00","2023","02","22","07:00","-43.3","","-47.3","","65","","","","35","","26","","24.1","","99.85","","","","-62","","Ice Crystals"
"-83.36","64.19","CORAL HARBOUR A","2301002","2023-02-22 08:00","2023","02","22","08:00","-42.5","","-46.6","","66","","","","36","","30","","24.1","","99.89","","","","-62","","Ice Crystals"
"-83.36","64.19","CORAL HARBOUR A","2301002","2023-02-22 09:00","2023","02","22","09:00","-41.6","","-45.7","","66","","","","34","","26","","24.1","","99.95","","","","-60","","Ice Crystals"
"-83.36","64.19","CORAL HARBOUR A","2301002","2023-02-22 10:00","2023","02","22","10:00","-40.4","","-44.7","","64","","","","36","","25","","24.1","","99.99","","","","-58","","Ice Crystals"
"-83.36","64.19","CORAL HARBOUR A","2301002","2023-02-22 11:00","2023","02","22","11:00","-39.6","","-44.3","","63","","","","36","","24","","24.1","","100.07","","","","-57","","Ice Crystals"
"-83.36","64.19","CORAL HARBOUR A","2301002","2023-02-22 12:00","2023","02","22","12:00","-38.3","","-43.6","","59","","","","35","","21","","24.1","","100.09","","","","-54","","Ice Crystals"
"-83.36","64.19","CORAL HARBOUR A","2301002","2023-02-22 13:00","2023","02","22","13:00","-37.4","","-42.6","","59","","","","36","","23","","24.1","","100.13","","","","-53","","Ice Crystals"
"-83.36","64.19","CORAL HARBOUR A","2301002","2023-02-22 14:00","2023","02","22","14:00","-36.6","","-42.2","","57","","","","35","","18","","24.1","","100.19","","","","-51","","Ice Crystals"
"-83.36","64.19","CORAL HARBOUR A","2301002","2023-02-22 15:00","2023","02","22","15:00","-34.8","","-40.2","","59","","","","32","","5","","24.1","","100.30","","","","-41","","Ice Crystals"
"-83.36","64.19","CORAL HARBOUR A","2301002","2023-02-22 16:00","2023","02","22","16:00","-35.9","","-41.2","","59","","","","33","","9","","24.1","","100.37","","","","-46","","Ice Crystals"
"-83.36","64.19","CORAL HARBOUR A","2301002","2023-02-22 17:00","2023","02","22","17:00","-40.0","","-44.9","","61","","","","28","","14","","24.1","","100.45","","","","-53","","Ice Crystals"
"-83.36","64.19","CORAL HARBOUR A","2301002","2023-02-22 18:00","2023","02","22","18:00","-42.8","","-47.2","","63","","","","31","","10","","24.1","","100.51","","","","-54","","Ice Crystals"
"-83.36","64.19","CORAL HARBOUR A","2301002","2023-02-22 19:00","2023","02","22","19:00","-44.1","","-48.3","","64","","","","32","","14","","24.1","","100.54","","","","-58","","Ice Crystals"
"-83.36","64.19","CORAL HARBOUR A","2301002","2023-02-22 20:00","2023","02","22","20:00","-44.9","","-49.1","","64","","","","32","","17","","24.1","","100.60","","","","-61","","Ice Crystals"
"-83.36","64.19","CORAL HARBOUR A","2301002","2023-02-22 21:00","2023","02","22","21:00","-45.3","","-49.6","","64","","","","33","","16","","24.1","","100.61","","","","-61","","Ice Crystals"
"-83.36","64.19","CORAL HARBOUR A","2301002","2023-02-22 22:00","2023","02","22","22:00","-45.0","","-49.1","","64","","","","36","","14","","24.1","","100.64","","","","-59","","Ice Crystals"
"-83.36","64.19","CORAL HARBOUR A","2301002","2023-02-22 23:00","2023","02","22","23:00","-44.7","","-48.9","","64","","","","34","","13","","24.1","","100.69","","","","-59","","Ice Crystals"
"-83.36","64.19","CORAL HARBOUR A","2301002","2023-02-23 00:00","2023","02","23","00:00","-43.6","","-47.6","","66","","","","36","","3","","24.1","","100.75","","","","-48","","Ice Crystals"
"-83.36","64.19","CORAL HARBOUR A","2301002","2023-02-23 01:00","2023","02","23","01:00","-45.3","","-49.5","","64","","","","35","","18","","24.1","","100.76","","","","-62","","Ice Crystals"
"-83.36","64.19","CORAL HARBOUR A","2301002","2023-02-23 02:00","2023","02","23","02:00","-44.9","","-49.0","","64","","","","34","","9","","24.1","","100.78","","","","-56","","Ice Crystals"
"-83.36","64.19","CORAL HARBOUR A","2301002","2023-02-23 03:00","2023","02","23","03:00","-44.7","","-48.9","","64","","","","36","","20","","24.1","","100.80","","","","-62","","Ice Crystals"
"-83.36","64.19","CORAL HARBOUR A","2301002","2023-02-23 04:00","2023","02","23","04:00","-44.2","","-48.3","","65","","","","36","","23","","24.1","","100.81","","","","-62","","Ice Crystals"
"-83.36","64.19","CORAL HARBOUR A","2301002","2023-02-23 05:00","2023","02","23","05:00","-43.8","","-47.9","","65","","","","1","","21","","24.1","","100.80","","","","-61","","Ice Crystals"
"-83.36","64.19","CORAL HARBOUR A","2301002","2023-02-23 06:00","2023","02","23","06:00","-45.0","","-49.1","","64","","","","33","","17","","24.1","","100.82","","","","-61","","Ice Crystals"
"-83.36","64.19","CORAL HARBOUR A","2301002","2023-02-23 07:00","2023","02","23","07:00","-44.5","","-48.6","","65","","","","35","","14","","24.1","","100.79","","","","-59","","Ice Crystals"
"-83.36","64.19","CORAL HARBOUR A","2301002","2023-02-23 08:00","2023","02","23","08:00","-45.3","","-49.5","","64","","","","3","","9","","19.3","","100.81","","","","-57","","Ice Crystals"
"-83.36","64.19","CORAL HARBOUR A","2301002","2023-02-23 09:00","2023","02","23","09:00","-40.2","","-44.0","","68","","","","7","","4","","19.3","","100.76","","","","-46","","Ice Crystals"
"-83.36","64.19","CORAL HARBOUR A","2301002","2023-02-23 10:00","2023","02","23","10:00","-41.3","","-45.9","","62","","","","35","","17","","19.3","","100.74","","","","-56","","Ice Crystals"
"-83.36","64.19","CORAL HARBOUR A","2301002","2023-02-23 11:00","2023","02","23","11:00","-38.8","","-43.8","","60","","","","4","","9","","24.1","","100.74","","","","-49","","Ice Crystals"
"-83.36","64.19","CORAL HARBOUR A","2301002","2023-02-23 12:00","2023","02","23","12:00","-37.5","","-42.3","","62","","","","36","","9","","24.1","","100.73","","","","-47","","Ice Crystals"
"-83.36","64.19","CORAL HARBOUR A","2301002","2023-02-23 13:00","2023","02","23","13:00","-29.8","","-36.4","","54","","","","36","","1","","24.1","","100.65","","","","-31","","Ice Crystals"
"-83.36","64.19","CORAL HARBOUR A","2301002","2023-02-23 14:00","2023","02","23","14:00","-31.2","","-37.7","","54","","","","33","","3","","19.3","","100.62","","","","-35","","Ice Crystals"
"-83.36","64.19","CORAL HARBOUR A","2301002","2023-02-23 15:00","2023","02","23","15:00","-34.5","","-41.0","","53","","","","18","","4","","19.3","","100.58","","","","-39","","Ice Crystals"
"-83.36","64.19","CORAL HARBOUR A","2301002","2023-02-23 16:00","2023","02","23","16:00","-34.6","","-40.1","","58","","","","36","","1","","19.3","","100.52","","","","-36","","Ice Crystals"
"-83.36","64.19","CORAL HARBOUR A","2301002","2023-02-23 17:00","2023","02","23","17:00","-36.0","","-40.1","","67","","","","28","","10","","19.3","","100.47","","","","-46","","Ice Crystals"
"-83.36","64.19","CORAL HARBOUR A","2301002","2023-02-23 18:00","2023","02","23","18:00","-38.0","","-42.0","","67","","","","36","","3","","24.1","","100.41","","","","-42","","Ice Crystals"
"-83.36","64.19","CORAL HARBOUR A","2301002","2023-02-23 19:00","2023","02","23","19:00","-37.8","","-41.6","","69","","","","32","","4","","24.1","","100.33","","","","-43","","Ice Crystals"
"-83.36","64.19","CORAL HARBOUR A","2301002","2023-02-23 20:00","2023","02","23","20:00","-39.6","","-43.5","","68","","","","35","","12","","24.1","","100.23","","","","-52","","Ice Crystals"
"-83.36","64.19","CORAL HARBOUR A","2301002","2023-02-23 21:00","2023","02","23","21:00","-38.9","","-42.8","","68","","","","36","","19","","24.1","","100.12","","","","-54","","Ice Crystals"
"-83.36","64.19","CORAL HARBOUR A","2301002","2023-02-23 22:00","2023","02","23","22:00","-38.6","","-42.3","","69","","","","36","","2","","24.1","","100.05","","","","-41","","Ice Crystals"
"-83.36","64.19","CORAL HARBOUR A","2301002","2023-02-23 23:00","2023","02","23","23:00","-39.6","","-43.7","","66","","","","34","","7","","24.1","","99.95","","","","-48","","Ice Crystals"
"-83.36","64.19","CORAL HARBOUR A","2301002","2023-02-24 00:00","2023","02","24","00:00","-40.1","","-44.2","","66","","","","33","","10","","24.1","","99.86","","","","-51","","Ice Crystals"
"-83.36","64.19","CORAL HARBOUR A","2301002","2023-02-24 01:00","2023","02","24","01:00","-40.1","","-44.0","","67","","","","31","","9","","24.1","","99.79","","","","-51","","Ice Crystals"
"-83.36","64.19","CORAL HARBOUR A","2301002","2023-02-24 02:00","2023","02","24","02:00","-41.7","","-45.8","","66","","","","32","","14","","24.1","","99.73","","","","-55","","Ice Crystals"
"-83.36","64.19","CORAL HARBOUR A","2301002","2023-02-24 03:00","2023","02","24","03:00","-40.7","","-44.7","","67","","","","32","","13","","24.1","","99.65","","","","-54","","Ice Crystals"
"-83.36","64.19","CORAL HARBOUR A","2301002","2023-02-24 04:00","2023","02","24","04:00","-41.9","","-45.9","","66","","","","33","","15","","24.1","","99.57","","","","-56","","Ice Crystals"
"-83.36","64.19","CORAL HARBOUR A","2301002","2023-02-24 05:00","2023","02","24","05:00","-40.9","","-44.9","","67","","","","33","","12","","24.1","","99.50","","","","-53","","Ice Crystals"
"-83.36","64.19","CORAL HARBOUR A","2301002","2023-02-24 06:00","2023","02","24","06:00","-40.4","","-44.3","","67","","","","32","","14","","24.1","","99.44","","","","-54","","Ice Crystals"
"-83.36","64.19","CORAL HARBOUR A","2301002","2023-02-24 07:00","2023","02","24","07:00","-41.4","","-45.4","","66","","","","33","","12","","24.1","","99.36","","","","-54","","Ice Crystals"
"-83.36","64.19","CORAL HARBOUR A","2301002","2023-02-24 08:00","2023","02","24","08:00","-40.6","","-44.6","","67","","","","34","","14","","24.1","","99.28","","","","-54","","Ice Crystals"
"-83.36","64.19","CORAL HARBOUR A","2301002","2023-02-24 09:00","2023","02","24","09:00","-40.6","","-44.6","","66","","","","34","","14","","24.1","","99.22","","","","-54","","Ice Crystals"
"-83.36","64.19","CORAL HARBOUR A","2301002","2023-02-24 10:00","2023","02","24","10:00","-38.9","","-43.2","","65","","","","32","","10","","24.1","","99.14","","","","-50","","Ice Crystals"
"-83.36","64.19","CORAL HARBOUR A","2301002","2023-02-24 11:00","2023","02","24","11:00","-37.9","","-43.0","","61","","","","32","","13","","24.1","","99.07","","","","-50","","Ice Crystals"
"-83.36","64.19","CORAL HARBOUR A","2301002","2023-02-24 12:00","2023","02","24","12:00","-36.6","","-41.9","","59","","","","31","","11","","24.1","","99.01","","","","-48","","Ice Crystals"
"-83.36","64.19","CORAL HARBOUR A","2301002","2023-02-24 13:00","2023","02","24","13:00","-35.1","","-40.4","","60","","","","30","","10","","24.1","","98.95","","","","-45","","Ice Crystals"
"-83.36","64.19","CORAL HARBOUR A","2301002","2023-02-24 14:00","2023","02","24","14:00","-34.0","","-39.5","","59","","","","30","","12","","24.1","","98.90","","","","-45","","Ice Crystals"
"-83.36","64.19","CORAL HARBOUR A","2301002","2023-02-24 15:00","2023","02","24","15:00","-33.7","","-39.1","","60","","","","34","","13","","24.1","","98.86","","","","-45","","Ice Crystals"
"-83.36","64.19","CORAL HARBOUR A","2301002","2023-02-24 16:00","2023","02","24","16:00","-35.5","","-40.6","","61","","","","33","","17","","24.1","","98.84","","","","-49","","Ice Crystals"
"-83.36","64.19","CORAL HARBOUR A","2301002","2023-02-24 17:00","2023","02","24","17:00","-38.2","","-42.7","","64","","","","34","","17","","24.1","","98.86","","","","-52","","Ice Crystals"
"-83.36","64.19","CORAL HARBOUR A","2301002","2023-02-24 18:00","2023","02","24","18:00","-38.0","","-42.0","","67","","","","35","","19","","24.1","","98.84","","","","-53","","Ice Crystals"
"-83.36","64.19","CORAL HARBOUR A","2301002","2023-02-24 19:00","2023","02","24","19:00"
"-83.36","64.19","CORAL HARBOUR A","2301002","2023-02-24 20:00","2023","02","24","20:00","-38.9","","-42.9","","67","","","","32","","18","","24.1","","98.82","","","","-54","","Ice Crystals"
"-83.36","64.19","CORAL HARBOUR A","2301002","2023-02-24 21:00","2023","02","24","21:00","-40.3","","-44.4","","66","","","","32","","18","","24.1","","98.79","","","","-55","","Ice Crystals"
"-83.36","64.19","CORAL HARBOUR A","2301002","2023-02-24 22:00","2023","02","24","22:00","-42.5","","-46.5","","66","","","","33","","16","","24.1","","98.81","","","","-57","","Ice Crystals"
"-83.36","64.19","CORAL HARBOUR A","2301002","2023-02-24 23:00","2023","02","24","23:00","-42.5","","-46.6","","66","","","","31","","16","","24.1","","98.79","","","","-57","","Ice Crystals"
"-83.36","64.19","CORAL HARBOUR A","2301002","2023-02-25 00:00","2023","02","25","00:00","-42.5","","-46.7","","65","","","","29","","7","","24.1","","98.78","","","","-52","","Ice Crystals"
"-83.36","64.19","CORAL HARBOUR A","2301002","2023-02-25 01:00","2023","02","25","01:00","-43.4","","-47.7","","64","","","","32","","15","","24.1","","98.78","","","","-58","","Ice Crystals"
"-83.36","64.19","CORAL HARBOUR A","2301002","2023-02-25 02:00","2023","02","25","02:00","-42.2","","-46.0","","67","","","","4","","5","","24.1","","98.80","","","","-49","","Ice Crystals"
"-83.36","64.19","CORAL HARBOUR A","2301002","2023-02-25 03:00","2023","02","25","03:00","-43.1","","-47.2","","65","","","","33","","13","","24.1","","98.80","","","","-57","","Ice Crystals"
"-83.36","64.19","CORAL HARBOUR A","2301002","2023-02-25 04:00","2023","02","25","04:00","-42.1","","-46.1","","66","","","","36","","14","","24.1","","98.80","","","","-56","","Ice Crystals"
"-83.36","64.19","CORAL HARBOUR A","2301002","2023-02-25 05:00","2023","02","25","05:00","-41.9","","-45.9","","66","","","","36","","7","","24.1","","98.79","","","","-51","","Ice Crystals"
"-83.36","64.19","CORAL HARBOUR A","2301002","2023-02-25 06:00","2023","02","25","06:00","-44.2","","-48.4","","64","","","","29","","10","","24.1","","98.81","","","","-56","","Ice Crystals"
"-83.36","64.19","CORAL HARBOUR A","2301002","2023-02-25 07:00","2023","02","25","07:00","-43.2","","-47.3","","66","","","","32","","13","","24.1","","98.80","","","","-57","","Ice Crystals"
"-83.36","64.19","CORAL HARBOUR A","2301002","2023-02-25 08:00","2023","02","25","08:00","-43.3","","-47.5","","65","","","","36","","13","","24.1","","98.79","","","","-57","","Ice Crystals"
"-83.36","64.19","CORAL HARBOUR A","2301002","2023-02-25 09:00","2023","02","25","09:00","-42.1","","-46.4","","64","","","","34","","12","","24.1","","98.78","","","","-55","","Ice Crystals"
"-83.36","64.19","CORAL HARBOUR A","2301002","2023-02-25 10:00","2023","02","25","10:00","-40.4","","-44.9","","63","","","","36","","15","","24.1","","98.75","","","","-54","","Ice Crystals"
"-83.36","64.19","CORAL HARBOUR A","2301002","2023-02-25 11:00","2023","02","25","11:00","-38.4","","-43.4","","60","","","","35","","14","","24.1","","98.73","","","","-51","","Ice Crystals"
"-83.36","64.19","CORAL HARBOUR A","2301002","2023-02-25 12:00","2023","02","25","12:00","-37.5","","-43.1","","57","","","","35","","13","","24.1","","98.75","","","","-50","","Ice Crystals"
"-83.36","64.19","CORAL HARBOUR A","2301002","2023-02-25 13:00","2023","02","25","13:00","-35.2","","-41.0","","57","","","","34","","11","","24.1","","98.76","","","","-46","","Ice Crystals"
"-83.36","64.19","CORAL HARBOUR A","2301002","2023-02-25 14:00","2023","02","25","14:00","-34.2","","-39.7","","59","","","","34","","7","","24.1","","98.75","","","","-42","","Ice Crystals"
"-83.36","64.19","CORAL HARBOUR A","2301002","2023-02-25 15:00","2023","02","25","15:00","-34.6","","-40.4","","57","","","","36","","7","","24.1","","98.73","","","","-43","","Ice Crystals"
"-83.36","64.19","CORAL HARBOUR A","2301002","2023-02-25 16:00","2023","02","25","16:00","-35.6","","-40.6","","61","","","","35","","4","","24.1","","98.73","","","","-41","","Ice Crystals"
"-83.36","64.19","CORAL HARBOUR A","2301002","2023-02-25 17:00","2023","02","25","17:00","-38.3","","-43.2","","62","","","","32","","8","","24.1","","98.75","","","","-48","","Ice Crystals"
"-83.36","64.19","CORAL HARBOUR A","2301002","2023-02-25 18:00","2023","02","25","18:00","-39.8","","-43.9","","66","","","","32","","9","","24.1","","98.74","","","","-50","","Ice Crystals"
"-83.36","64.19","CORAL HARBOUR A","2301002","2023-02-25 19:00","2023","02","25","19:00","-40.5","","-44.8","","65","","","","34","","9","","24.1","","98.74","","","","-51","","Ice Crystals"
"-83.36","64.19","CORAL HARBOUR A","2301002","2023-02-25 20:00","2023","02","25","20:00","-39.7","","-43.4","","69","","","","36","","2","","24.1","","98.71","","","","-42","","Ice Crystals"
"-83.36","64.19","CORAL HARBOUR A","2301002","2023-02-25 21:00","2023","02","25","21:00","-42.1","","-46.1","","67","","","","36","","3","","24.1","","98.73","","","","-46","","Ice Crystals"
"-83.36","64.19","CORAL HARBOUR A","2301002","2023-02-25 22:00","2023","02","25","22:00","-42.8","","-46.9","","65","","","","30","","4","","24.1","","98.72","","","","-49","","Ice Crystals"
"-83.36","64.19","CORAL HARBOUR A","2301002","2023-02-25 23:00","2023","02","25","23:00","-43.0","","-47.1","","65","","","","1","","9","","24.1","","98.72","","","","-54","","Ice Crystals"
"-83.36","64.19","CORAL HARBOUR A","2301002","2023-02-26 00:00","2023","02","26","00:00","-42.4","","-46.4","","66","","","","35","","5","","24.1","","98.74","","","","-50","","Ice Crystals"
"-83.36","64.19","CORAL HARBOUR A","2301002","2023-02-26 01:00","2023","02","26","01:00","-41.5","","-45.2","","68","","","","34","","8","","24.1","","98.76","","","","-51","","Ice Crystals"
"-83.36","64.19","CORAL HARBOUR A","2301002","2023-02-26 02:00","2023","02","26","02:00","-43.4","","-47.6","","65","","","","33","","13","","24.1","","98.78","","","","-57","","Ice Crystals"
"-83.36","64.19","CORAL HARBOUR A","2301002","2023-02-26 03:00","2023","02","26","03:00","-42.0","","-46.0","","67","","","","34","","15","","24.1","","98.80","","","","-56","","Ice Crystals"
"-83.36","64.19","CORAL HARBOUR A","2301002","2023-02-26 04:00","2023","02","26","04:00","-42.0","","-46.1","","66","","","","34","","18","","24.1","","98.82","","","","-57","","Ice Crystals"
"-83.36","64.19","CORAL HARBOUR A","2301002","2023-02-26 05:00","2023","02","26","05:00","-42.4","","-46.5","","65","","","","33","","13","","24.1","","98.88","","","","-56","","Ice Crystals"
"-83.36","64.19","CORAL HARBOUR A","2301002","2023-02-26 06:00","2023","02","26","06:00","-42.2","","-46.2","","66","","","","35","","16","","24.1","","98.91","","","","-57","","Ice Crystals"
"-83.36","64.19","CORAL HARBOUR A","2301002","2023-02-26 07:00","2023","02","26","07:00","-41.2","","-45.3","","66","","","","4","","6","","24.1","","98.96","","","","-49","","Ice Crystals"
"-83.36","64.19","CORAL HARBOUR A","2301002","2023-02-26 08:00","2023","02","26","08:00","-41.9","","-45.9","","66","","","","34","","9","","24.1","","99.04","","","","-53","","Ice Crystals"
"-83.36","64.19","CORAL HARBOUR A","2301002","2023-02-26 09:00","2023","02","26","09:00","-41.8","","-46.1","","64","","","","34","","11","","24.1","","99.07","","","","-54","","Ice Crystals"
"-83.36","64.19","CORAL HARBOUR A","2301002","2023-02-26 10:00","2023","02","26","10:00","-38.0","","-42.2","","65","","","","35","","11","","24.1","","99.15","","","","-49","","Ice Crystals"
"-83.36","64.19","CORAL HARBOUR A","2301002","2023-02-26 11:00","2023","02","26","11:00","-36.3","","-40.7","","65","","","","34","","14","","24.1","","99.20","","","","-49","","Ice Crystals"
"-83.36","64.19","CORAL HARBOUR A","2301002","2023-02-26 12:00","2023","02","26","12:00","-34.6","","-39.0","","66","","","","1","","12","","24.1","","99.26","","","","-46","","Ice Crystals"
"-83.36","64.19","CORAL HARBOUR A","2301002","2023-02-26 13:00","2023","02","26","13:00","-29.8","","-35.4","","59","","","","7","","4","","24.1","","99.33","","","","-34","","Ice Crystals"
"-83.36","64.19","CORAL HARBOUR A","2301002","2023-02-26 14:00","2023","02","26","14:00","-30.4","","-35.4","","62","","","","33","","8","","24.1","","99.42","","","","-38","","Ice Crystals"
"-83.36","64.19","CORAL HARBOUR A","2301002","2023-02-26 15:00","2023","02","26","15:00","-32.8","","-38.4","","59","","","","6","","10","","24.1","","99.50","","","","-42","","Ice Crystals"
"-83.36","64.19","CORAL HARBOUR A","2301002","2023-02-26 16:00","2023","02","26","16:00","-33.3","","-38.7","","59","","","","4","","9","","24.1","","99.58","","","","-43","","Ice Crystals"
"-83.36","64.19","CORAL HARBOUR A","2301002","2023-02-26 17:00","2023","02","26","17:00","-35.5","","-40.3","","63","","","","4","","14","","24.1","","99.63","","","","-48","","Ice Crystals"
"-83.36","64.19","CORAL HARBOUR A","2301002","2023-02-26 18:00","2023","02","26","18:00","-37.4","","-41.0","","70","","","","4","","12","","24.1","","99.70","","","","-49","","Ice Crystals"
"-83.36","64.19","CORAL HARBOUR A","2301002","2023-02-26 19:00","2023","02","26","19:00","-39.2","","-43.1","","67","","","","1","","14","","24.1","","99.74","","","","-52","","Ice Crystals"
"-83.36","64.19","CORAL HARBOUR A","2301002","2023-02-26 20:00","2023","02","26","20:00","-39.6","","-43.5","","68","","","","34","","14","","24.1","","99.84","","","","-53","","Ice Crystals"
"-83.36","64.19","CORAL HARBOUR A","2301002","2023-02-26 21:00","2023","02","26","21:00","-40.3","","-44.2","","67","","","","35","","14","","24.1","","99.88","","","","-54","","Ice Crystals"
"-83.36","64.19","CORAL HARBOUR A","2301002","2023-02-26 22:00","2023","02","26","22:00","-40.2","","-44.1","","68","","","","1","","15","","24.1","","99.89","","","","-54","","Ice Crystals"
"-83.36","64.19","CORAL HARBOUR A","2301002","2023-02-26 23:00","2023","02","26","23:00","-41.5","","-45.6","","66","","","","34","","19","","24.1","","99.94","","","","-57","","Ice Crystals"
"-83.36","64.19","CORAL HARBOUR A","2301002","2023-02-27 00:00","2023","02","27","00:00","-41.5","","-45.5","","67","","","","35","","22","","24.1","","99.97","","","","-58","","Ice Crystals"
"-83.36","64.19","CORAL HARBOUR A","2301002","2023-02-27 01:00","2023","02","27","01:00","-41.2","","-45.2","","67","","","","32","","18","","24.1","","100.05","","","","-56","","Ice Crystals"
"-83.36","64.19","CORAL HARBOUR A","2301002","2023-02-27 02:00","2023","02","27","02:00","-40.7","","-44.6","","67","","","","35","","17","","24.1","","100.10","","","","-55","","Ice Crystals"
"-83.36","64.19","CORAL HARBOUR A","2301002","2023-02-27 03:00","2023","02","27","03:00","-40.4","","-44.3","","67","","","","34","","18","","24.1","","100.15","","","","-55","","Ice Crystals"
"-83.36","64.19","CORAL HARBOUR A","2301002","2023-02-27 04:00","2023","02","27","04:00","-40.5","","-44.4","","67","","","","35","","17","","24.1","","100.19","","","","-55","","Ice Crystals"
"-83.36","64.19","CORAL HARBOUR A","2301002","2023-02-27 05:00","2023","02","27","05:00","-41.6","","-45.6","","67","","","","1","","15","","24.1","","100.22","","","","-56","","Ice Crystals"
"-83.36","64.19","CORAL HARBOUR A","2301002","2023-02-27 06:00","2023","02","27","06:00","-40.1","","-43.8","","68","","","","33","","17","","24.1","","100.24","","","","-55","","Ice Crystals"
"-83.36","64.19","CORAL HARBOUR A","2301002","2023-02-27 07:00","2023","02","27","07:00","-40.7","","-44.6","","67","","","","34","","15","","24.1","","100.24","","","","-55","","Ice Crystals"
"-83.36","64.19","CORAL HARBOUR A","2301002","2023-02-27 08:00","2023","02","27","08:00","-41.3","","-45.2","","67","","","","35","","12","","24.1","","100.24","","","","-54","","Ice Crystals"
"-83.36","64.19","CORAL HARBOUR A","2301002","2023-02-27 09:00","2023","02","27","09:00","-39.1","","-43.0","","67","","","","33","","17","","24.1","","100.28","","","","-53","","Ice Crystals"
"-83.36","64.19","CORAL HARBOUR A","2301002","2023-02-27 10:00","2023","02","27","10:00","-35.7","","-39.8","","67","","","","3","","14","","24.1","","100.30","","","","-48","","Ice Crystals"
"-83.36","64.19","CORAL HARBOUR A","2301002","2023-02-27 11:00","2023","02","27","11:00","-34.8","","-39.2","","65","","","","35","","14","","24.1","","100.30","","","","-47","","Ice Crystals"
"-83.36","64.19","CORAL HARBOUR A","2301002","2023-02-27 12:00","2023","02","27","12:00","-32.9","","-37.6","","64","","","","4","","13","","24.1","","100.32","","","","-44","","Ice Crystals"
"-83.36","64.19","CORAL HARBOUR A","2301002","2023-02-27 13:00","2023","02","27","13:00","-31.6","","-36.2","","65","","","","2","","11","","24.1","","100.30","","","","-42","","Ice Crystals"
"-83.36","64.19","CORAL HARBOUR A","2301002","2023-02-27 14:00","2023","02","27","14:00","-30.5","","-35.9","","60","","","","6","","13","","24.1","","100.30","","","","-41","","Ice Crystals"
"-83.36","64.19","CORAL HARBOUR A","2301002","2023-02-27 15:00","2023","02","27","15:00","-29.9","","-35.2","","61","","","","5","","10","","24.1","","100.31","","","","-39","","Ice Crystals"
"-83.36","64.19","CORAL HARBOUR A","2301002","2023-02-27 16:00","2023","02","27","16:00","-31.2","","-35.5","","67","","","","7","","12","","24.1","","100.36","","","","-42","","Ice Crystals"
"-83.36","64.19","CORAL HARBOUR A","2301002","2023-02-27 17:00","2023","02","27","17:00","-32.7","","-36.1","","72","","","","7","","16","","24.1","","100.36","","","","-45","","Ice Crystals"
"-83.36","64.19","CORAL HARBOUR A","2301002","2023-02-27 18:00","2023","02","27","18:00","-33.7","","-36.6","","75","","","","7","","17","","24.1","","100.35","","","","-47","","Ice Crystals"
"-83.36","64.19","CORAL HARBOUR A","2301002","2023-02-27 19:00","2023","02","27","19:00","-33.1","","-36.3","","74","","","","6","","21","","24.1","","100.37","","","","-47","","Ice Crystals"
"-83.36","64.19","CORAL HARBOUR A","2301002","2023-02-27 20:00","2023","02","27","20:00","-33.5","","-36.7","","73","","","","6","","19","","24.1","","100.40","","","","-47","","Ice Crystals"
"-83.36","64.19","CORAL HARBOUR A","2301002","2023-02-27 21:00","2023","02","27","21:00","-33.5","","-36.7","","74","","","","6","","16","","24.1","","100.40","","","","-46","","Ice Crystals"
"-83.36","64.19","CORAL HARBOUR A","2301002","2023-02-27 22:00","2023","02","27","22:00","-33.2","","-36.4","","74","","","","6","","22","","24.1","","100.38","","","","-48","","Ice Crystals"
"-83.36","64.19","CORAL HARBOUR A","2301002","2023-02-27 23:00","2023","02","27","23:00","-33.0","","-36.1","","74","","","","6","","22","","24.1","","100.35","","","","-47","","Ice Crystals"
"-83.36","64.19","CORAL HARBOUR A","2301002","2023-02-28 00:00","2023","02","28","00:00","-33.2","","-36.2","","76","","","","6","","20","","24.1","","100.35","","","","-47","","Ice Crystals"
"-83.36","64.19","CORAL HARBOUR A","2301002","2023-02-28 01:00","2023","02","28","01:00","-33.1","","-36.2","","75","","","","7","","23","","24.1","","100.35","","","","-48","","Ice Crystals"
"-83.36","64.19","CORAL HARBOUR A","2301002","2023-02-28 02:00","2023","02","28","02:00"
"-83.36","64.19","CORAL HARBOUR A","2301002","2023-02-28 03:00","2023","02","28","03:00"
"-83.36","64.19","CORAL HARBOUR A","2301002","2023-02-28 04:00","2023","02","28","04:00","-33.2","","-36.2","","75","","","","6","","24","","24.1","","100.34","","","","-48","","Ice Crystals"
"-83.36","64.19","CORAL HARBOUR A","2301002","2023-02-28 05:00","2023","02","28","05:00","-32.7","","-35.6","","75","","","","6","","22","","24.1","","100.31","","","","-47","","Ice Crystals"
"-83.36","64.19","CORAL HARBOUR A","2301002","2023-02-28 06:00","2023","02","28","06:00","-31.9","","-34.9","","75","","","","6","","18","","24.1","","100.35","","","","-45","","Ice Crystals"
"-83.36","64.19","CORAL HARBOUR A","2301002","2023-02-28 07:00","2023","02","28","07:00","-31.2","","-34.4","","75","","","","6","","18","","19.3","","100.36","","","","-44","","Snow"
"-83.36","64.19","CORAL HARBOUR A","2301002","2023-02-28 08:00","2023","02","28","08:00","-30.4","","-33.5","","75","","","","7","","19","","24.1","","100.37","","","","-43","","Ice Crystals"
"-83.36","64.19","CORAL HARBOUR A","2301002","2023-02-28 09:00","2023","02","28","09:00","-30.0","","-33.1","","75","","","","7","","18","","19.3","","100.41","","","","-42","","Snow"
"-83.36","64.19","CORAL HARBOUR A","2301002","2023-02-28 10:00","2023","02","28","10:00","-30.1","","-33.3","","74","","","","7","","20","","24.1","","100.44","","","","-43","","Ice Crystals"
"-83.36","64.19","CORAL HARBOUR A","2301002","2023-02-28 11:00","2023","02","28","11:00","-29.3","","-32.5","","74","","","","7","","15","","24.1","","100.46","","","","-41","","Ice Crystals"
"-83.36","64.19","CORAL HARBOUR A","2301002","2023-02-28 12:00","2023","02","28","12:00","-27.5","","-30.6","","75","","","","8","","15","","24.1","","100.50","","","","-38","","Ice Crystals"
"-83.36","64.19","CORAL HARBOUR A","2301002","2023-02-28 13:00","2023","02","28","13:00","-27.4","","-30.6","","75","","","","8","","17","","11.3","","100.51","","","","-39","","Snow"
"-83.36","64.19","CORAL HARBOUR A","2301002","2023-02-28 14:00","2023","02","28","14:00","-26.8","","-29.9","","75","","","","8","","12","","11.3","","100.54","","","","-36","","Snow"
"-83.36","64.19","CORAL HARBOUR A","2301002","2023-02-28 15:00","2023","02","28","15:00","-25.8","","-29.0","","75","","","","10","","9","","24.1","","100.61","","","","-34","","NA"
"-83.36","64.19","CORAL HARBOUR A","2301002","2023-02-28 16:00","2023","02","28","16:00","-29.0","","-32.7","","71","","","","8","","13","","24.1","","100.66","","","","-39","","Ice Crystals"
"-83.36","64.19","CORAL HARBOUR A","2301002","2023-02-28 17:00","2023","02","28","17:00","-30.9","","-34.2","","73","","","","7","","14","","24.1","","100.74","","","","-42","","Ice Crystals"
"-83.36","64.19","CORAL HARBOUR A","2301002","2023-02-28 18:00","2023","02","28","18:00","-31.8","","-34.9","","75","","","","5","","20","","24.1","","100.79","","","","-45","","Ice Crystals"
"-83.36","64.19","CORAL HARBOUR A","2301002","2023-02-28 19:00","2023","02","28","19:00","-32.0","","-35.1","","75","","","","5","","23","","24.1","","100.85","","","","-46","","Ice Crystals"
"-83.36","64.19","CORAL HARBOUR A","2301002","2023-02-28 20:00","2023","02","28","20:00","-31.8","","-34.9","","75","","","","5","","21","","24.1","","100.91","","","","-46","","Ice Crystals"
"-83.36","64.19","CORAL HARBOUR A","2301002","2023-02-28 21:00","2023","02","28","21:00","-31.6","","-34.6","","75","","","","5","","22","","24.1","","100.96","","","","-46","","Ice Crystals"
"-83.36","64.19","CORAL HARBOUR A","2301002","2023-02-28 22:00","2023","02","28","22:00","-31.5","","-34.5","","76","","","","5","","23","","24.1","","101.03","","","","-46","","Ice Crystals"
"-83.36","64.19","CORAL HARBOUR A","2301002","2023-02-28 23:00","2023","02","28","23:00","-31.4","","-34.4","","75","","","","5","","25","","24.1","","101.07","","","","-46","","Ice Crystals"
