"Longitude (x)","Latitude (y)","Station Name","Climate ID","Date/Time (LST)","Year","Month","Day","Time (LST)","Temp (°C)","Temp Flag","Dew Point Temp (°C)","Dew Point Temp Flag","Rel Hum (%)","Rel Hum Flag","Precip. Amount (mm)","Precip. Amount Flag","Wind Dir (10s deg)","Wind Dir Flag","Wind Spd (km/h)","Wind Spd Flag","Visibility (km)","Visibility Flag","Stn Press (kPa)","Stn Press Flag","Hmdx","Hmdx Flag","Wind Chill","Wind Chill Flag","Weather"
"-117.16","58.62","HIGH LEVEL A","3073141","2019-06-01 00:00","2019","06","01","00:00"
"-117.16","58.62","HIGH LEVEL A","3073141","2019-06-01 01:00","2019","06","01","01:00"
"-117.16","58.62","HIGH LEVEL A","3073141","2019-06-01 02:00","2019","06","01","02:00"
"-117.16","58.62","HIGH LEVEL A","3073141","2019-06-01 03:00","2019","06","01","03:00"
"-117.16","58.62","HIGH LEVEL A","3073141","2019-06-01 04:00","2019","06","01","04:00"
"-117.16","58.62","HIGH LEVEL A","3073141","2019-06-01 05:00","2019","06","01","05:00"
"-117.16","58.62","HIGH LEVEL A","3073141","2019-06-01 06:00","2019","06","01","06:00"
"-117.16","58.62","HIGH LEVEL A","3073141","2019-06-01 07:00","2019","06","01","07:00"
"-117.16","58.62","HIGH LEVEL A","3073141","2019-06-01 08:00","2019","06","01","08:00"
"-117.16","58.62","HIGH LEVEL A","3073141","2019-06-01 09:00","2019","06","01","09:00"
"-117.16","58.62","HIGH LEVEL A","3073141","2019-06-01 10:00","2019","06","01","10:00"
"-117.16","58.62","HIGH LEVEL A","3073141","2019-06-01 11:00","2019","06","01","11:00"
"-117.16","58.62","HIGH LEVEL A","3073141","2019-06-01 12:00","2019","06","01","12:00"
"-117.16","58.62","HIGH LEVEL A","3073141","2019-06-01 13:00","2019","06","01","13:00"
"-117.16","58.62","HIGH LEVEL A","3073141","2019-06-01 14:00","2019","06","01","14:00"
"-117.16","58.62","HIGH LEVEL A","3073141","2019-06-01 15:00","2019","06","01","15:00"
"-117.16","58.62","HIGH LEVEL A","3073141","2019-06-01 16:00","2019","06","01","16:00"
"-117.16","58.62","HIGH LEVEL A","3073141","2019-06-01 17:00","2019","06","01","17:00"
"-117.16","58.62","HIGH LEVEL A","3073141","2019-06-01 18:00","2019","06","01","18:00"
"-117.16","58.62","HIGH LEVEL A","3073141","2019-06-01 19:00","2019","06","01","19:00"
"-117.16","58.62","HIGH LEVEL A","3073141","2019-06-01 20:00","2019","06","01","20:00"
"-117.16","58.62","HIGH LEVEL A","3073141","2019-06-01 21:00","2019","06","01","21:00"
"-117.16","58.62","HIGH LEVEL A","3073141","2019-06-01 22:00","2019","06","01","22:00"
"-117.16","58.62","HIGH LEVEL A","3073141","2019-06-01 23:00","2019","06","01","23:00"
"-117.16","58.62","HIGH LEVEL A","3073141","2019-06-02 00:00","2019","06","02","00:00"
"-117.16","58.62","HIGH LEVEL A","3073141","2019-06-02 01:00","2019","06","02","01:00"
"-117.16","58.62","HIGH LEVEL A","3073141","2019-06-02 02:00","2019","06","02","02:00"
"-117.16","58.62","HIGH LEVEL A","3073141","2019-06-02 03:00","2019","06","02","03:00"
"-117.16","58.62","HIGH LEVEL A","3073141","2019-06-02 04:00","2019","06","02","04:00"
"-117.16","58.62","HIGH LEVEL A","3073141","2019-06-02 05:00","2019","06","02","05:00"
"-117.16","58.62","HIGH LEVEL A","3073141","2019-06-02 06:00","2019","06","02","06:00"
"-117.16","58.62","HIGH LEVEL A","3073141","2019-06-02 07:00","2019","06","02","07:00"
"-117.16","58.62","HIGH LEVEL A","3073141","2019-06-02 08:00","2019","06","02","08:00"
"-117.16","58.62","HIGH LEVEL A","3073141","2019-06-02 09:00","2019","06","02","09:00"
"-117.16","58.62","HIGH LEVEL A","3073141","2019-06-02 10:00","2019","06","02","10:00"
"-117.16","58.62","HIGH LEVEL A","3073141","2019-06-02 11:00","2019","06","02","11:00"
"-117.16","58.62","HIGH LEVEL A","3073141","2019-06-02 12:00","2019","06","02","12:00"
"-117.16","58.62","HIGH LEVEL A","3073141","2019-06-02 13:00","2019","06","02","13:00"
"-117.16","58.62","HIGH LEVEL A","3073141","2019-06-02 14:00","2019","06","02","14:00"
"-117.16","58.62","HIGH LEVEL A","3073141","2019-06-02 15:00","2019","06","02","15:00"
"-117.16","58.62","HIGH LEVEL A","3073141","2019-06-02 16:00","2019","06","02","16:00"
"-117.16","58.62","HIGH LEVEL A","3073141","2019-06-02 17:00","2019","06","02","17:00"
"-117.16","58.62","HIGH LEVEL A","3073141","2019-06-02 18:00","2019","06","02","18:00"
"-117.16","58.62","HIGH LEVEL A","3073141","2019-06-02 19:00","2019","06","02","19:00"
"-117.16","58.62","HIGH LEVEL A","3073141","2019-06-02 20:00","2019","06","02","20:00"
"-117.16","58.62","HIGH LEVEL A","3073141","2019-06-02 21:00","2019","06","02","21:00"
"-117.16","58.62","HIGH LEVEL A","3073141","2019-06-02 22:00","2019","06","02","22:00"
"-117.16","58.62","HIGH LEVEL A","3073141","2019-06-02 23:00","2019","06","02","23:00"
"-117.16","58.62","HIGH LEVEL A","3073141","2019-06-03 00:00","2019","06","03","00:00"
"-117.16","58.62","HIGH LEVEL A","3073141","2019-06-03 01:00","2019","06","03","01:00"
"-117.16","58.62","HIGH LEVEL A","3073141","2019-06-03 02:00","2019","06","03","02:00"
"-117.16","58.62","HIGH LEVEL A","3073141","2019-06-03 03:00","2019","06","03","03:00"
"-117.16","58.62","HIGH LEVEL A","3073141","2019-06-03 04:00","2019","06","03","04:00"
"-117.16","58.62","HIGH LEVEL A","3073141","2019-06-03 05:00","2019","06","03","05:00"
"-117.16","58.62","HIGH LEVEL A","3073141","2019-06-03 06:00","2019","06","03","06:00"
"-117.16","58.62","HIGH LEVEL A","3073141","2019-06-03 07:00","2019","06","03","07:00"
"-117.16","58.62","HIGH LEVEL A","3073141","2019-06-03 08:00","2019","06","03","08:00"
"-117.16","58.62","HIGH LEVEL A","3073141","2019-06-03 09:00","2019","06","03","09:00"
"-117.16","58.62","HIGH LEVEL A","3073141","2019-06-03 10:00","2019","06","03","10:00"
"-117.16","58.62","HIGH LEVEL A","3073141","2019-06-03 11:00","2019","06","03","11:00"
"-117.16","58.62","HIGH LEVEL A","3073141","2019-06-03 12:00","2019","06","03","12:00"
"-117.16","58.62","HIGH LEVEL A","3073141","2019-06-03 13:00","2019","06","03","13:00"
"-117.16","58.62","HIGH LEVEL A","3073141","2019-06-03 14:00","2019","06","03","14:00"
"-117.16","58.62","HIGH LEVEL A","3073141","2019-06-03 15:00","2019","06","03","15:00"
"-117.16","58.62","HIGH LEVEL A","3073141","2019-06-03 16:00","2019","06","03","16:00"
"-117.16","58.62","HIGH LEVEL A","3073141","2019-06-03 17:00","2019","06","03","17:00"
"-117.16","58.62","HIGH LEVEL A","3073141","2019-06-03 18:00","2019","06","03","18:00"
"-117.16","58.62","HIGH LEVEL A","3073141","2019-06-03 19:00","2019","06","03","19:00"
"-117.16","58.62","HIGH LEVEL A","3073141","2019-06-03 20:00","2019","06","03","20:00"
"-117.16","58.62","HIGH LEVEL A","3073141","2019-06-03 21:00","2019","06","03","21:00"
"-117.16","58.62","HIGH LEVEL A","3073141","2019-06-03 22:00","2019","06","03","22:00"
"-117.16","58.62","HIGH LEVEL A","3073141","2019-06-03 23:00","2019","06","03","23:00"
"-117.16","58.62","HIGH LEVEL A","3073141","2019-06-04 00:00","2019","06","04","00:00"
"-117.16","58.62","HIGH LEVEL A","3073141","2019-06-04 01:00","2019","06","04","01:00"
"-117.16","58.62","HIGH LEVEL A","3073141","2019-06-04 02:00","2019","06","04","02:00"
"-117.16","58.62","HIGH LEVEL A","3073141","2019-06-04 03:00","2019","06","04","03:00"
"-117.16","58.62","HIGH LEVEL A","3073141","2019-06-04 04:00","2019","06","04","04:00"
"-117.16","58.62","HIGH LEVEL A","3073141","2019-06-04 05:00","2019","06","04","05:00"
"-117.16","58.62","HIGH LEVEL A","3073141","2019-06-04 06:00","2019","06","04","06:00"
"-117.16","58.62","HIGH LEVEL A","3073141","2019-06-04 07:00","2019","06","04","07:00"
"-117.16","58.62","HIGH LEVEL A","3073141","2019-06-04 08:00","2019","06","04","08:00"
"-117.16","58.62","HIGH LEVEL A","3073141","2019-06-04 09:00","2019","06","04","09:00"
"-117.16","58.62","HIGH LEVEL A","3073141","2019-06-04 10:00","2019","06","04","10:00"
"-117.16","58.62","HIGH LEVEL A","3073141","2019-06-04 11:00","2019","06","04","11:00"
"-117.16","58.62","HIGH LEVEL A","3073141","2019-06-04 12:00","2019","06","04","12:00"
"-117.16","58.62","HIGH LEVEL A","3073141","2019-06-04 13:00","2019","06","04","13:00"
"-117.16","58.62","HIGH LEVEL A","3073141","2019-06-04 14:00","2019","06","04","14:00"
"-117.16","58.62","HIGH LEVEL A","3073141","2019-06-04 15:00","2019","06","04","15:00"
"-117.16","58.62","HIGH LEVEL A","3073141","2019-06-04 16:00","2019","06","04","16:00"
"-117.16","58.62","HIGH LEVEL A","3073141","2019-06-04 17:00","2019","06","04","17:00"
"-117.16","58.62","HIGH LEVEL A","3073141","2019-06-04 18:00","2019","06","04","18:00"
"-117.16","58.62","HIGH LEVEL A","3073141","2019-06-04 19:00","2019","06","04","19:00"
"-117.16","58.62","HIGH LEVEL A","3073141","2019-06-04 20:00","2019","06","04","20:00"
"-117.16","58.62","HIGH LEVEL A","3073141","2019-06-04 21:00","2019","06","04","21:00"
"-117.16","58.62","HIGH LEVEL A","3073141","2019-06-04 22:00","2019","06","04","22:00"
"-117.16","58.62","HIGH LEVEL A","3073141","2019-06-04 23:00","2019","06","04","23:00"
"-117.16","58.62","HIGH LEVEL A","3073141","2019-06-05 00:00","2019","06","05","00:00"
"-117.16","58.62","HIGH LEVEL A","3073141","2019-06-05 01:00","2019","06","05","01:00"
"-117.16","58.62","HIGH LEVEL A","3073141","2019-06-05 02:00","2019","06","05","02:00"
"-117.16","58.62","HIGH LEVEL A","3073141","2019-06-05 03:00","2019","06","05","03:00"
"-117.16","58.62","HIGH LEVEL A","3073141","2019-06-05 04:00","2019","06","05","04:00"
"-117.16","58.62","HIGH LEVEL A","3073141","2019-06-05 05:00","2019","06","05","05:00"
"-117.16","58.62","HIGH LEVEL A","3073141","2019-06-05 06:00","2019","06","05","06:00"
"-117.16","58.62","HIGH LEVEL A","3073141","2019-06-05 07:00","2019","06","05","07:00"
"-117.16","58.62","HIGH LEVEL A","3073141","2019-06-05 08:00","2019","06","05","08:00","7.2","","2.6","","73","","","","31","","16","","24.1","","97.18","","","","","","Mostly Cloudy"
"-117.16","58.62","HIGH LEVEL A","3073141","2019-06-05 09:00","2019","06","05","09:00","8.3","","2.4","","66","","","","33","","13","","24.1","","97.18","","","","","","NA"
"-117.16","58.62","HIGH LEVEL A","3073141","2019-06-05 10:00","2019","06","05","10:00","9.3","","2.7","","63","","","","34","","11","","24.1","","97.22","","","","","","NA"
"-117.16","58.62","HIGH LEVEL A","3073141","2019-06-05 11:00","2019","06","05","11:00","9.5","","2.9","","63","","","","32","","12","","24.1","","97.25","","","","","","Cloudy"
"-117.16","58.62","HIGH LEVEL A","3073141","2019-06-05 12:00","2019","06","05","12:00","10.2","","3.0","","61","","","","33","","15","","24.1","","97.25","","","","","","NA"
"-117.16","58.62","HIGH LEVEL A","3073141","2019-06-05 13:00","2019","06","05","13:00","11.0","","3.7","","60","","","","31","","10","","24.1","","97.26","","","","","","NA"
"-117.16","58.62","HIGH LEVEL A","3073141","2019-06-05 14:00","2019","06","05","14:00","11.7","","3.9","","59","","","","33","","17","","24.1","","97.26","","","","","","Mostly Cloudy"
"-117.16","58.62","HIGH LEVEL A","3073141","2019-06-05 15:00","2019","06","05","15:00","12.2","","3.8","","56","","","","36","","21","","24.1","","97.25","","","","","","NA"
"-117.16","58.62","HIGH LEVEL A","3073141","2019-06-05 16:00","2019","06","05","16:00","12.1","","3.2","","54","","","","36","","15","","24.1","","97.27","","","","","","NA"
"-117.16","58.62","HIGH LEVEL A","3073141","2019-06-05 17:00","2019","06","05","17:00","12.2","","3.4","","55","","","","34","","13","","24.1","","97.26","","","","","","Mostly Cloudy"
"-117.16","58.62","HIGH LEVEL A","3073141","2019-06-05 18:00","2019","06","05","18:00","11.2","","4.0","","61","","","","2","","17","","24.1","","97.29","","","","","","NA"
"-117.16","58.62","HIGH LEVEL A","3073141","2019-06-05 19:00","2019","06","05","19:00","11.2","","4.0","","61","","","","2","","12","","24.1","","97.32","","","","","","NA"
"-117.16","58.62","HIGH LEVEL A","3073141","2019-06-05 20:00","2019","06","05","20:00","10.3","","3.9","","64","","","","36","","10","","24.1","","97.33","","","","","","Mostly Cloudy"
"-117.16","58.62","HIGH LEVEL A","3073141","2019-06-05 21:00","2019","06","05","21:00","9.6","","3.6","","66","","","","5","","6","","24.1","","97.37","","","","","","NA"
"-117.16","58.62","HIGH LEVEL A","3073141","2019-06-05 22:00","2019","06","05","22:00"
"-117.16","58.62","HIGH LEVEL A","3073141","2019-06-05 23:00","2019","06","05","23:00"
"-117.16","58.62","HIGH LEVEL A","3073141","2019-06-06 00:00","2019","06","06","00:00"
"-117.16","58.62","HIGH LEVEL A","3073141","2019-06-06 01:00","2019","06","06","01:00"
"-117.16","58.62","HIGH LEVEL A","3073141","2019-06-06 02:00","2019","06","06","02:00"
"-117.16","58.62","HIGH LEVEL A","3073141","2019-06-06 03:00","2019","06","06","03:00"
"-117.16","58.62","HIGH LEVEL A","3073141","2019-06-06 04:00","2019","06","06","04:00"
"-117.16","58.62","HIGH LEVEL A","3073141","2019-06-06 05:00","2019","06","06","05:00"
"-117.16","58.62","HIGH LEVEL A","3073141","2019-06-06 06:00","2019","06","06","06:00","2.4","","0.8","","89","","","","1","","4","","24.1","","97.53","","","","","","NA"
"-117.16","58.62","HIGH LEVEL A","3073141","2019-06-06 07:00","2019","06","06","07:00","5.0","","2.1","","82","","","","36","","8","","24.1","","97.53","","","","","","NA"
"-117.16","58.62","HIGH LEVEL A","3073141","2019-06-06 08:00","2019","06","06","08:00","8.8","","-0.6","","51","","","","35","","6","","24.1","","97.53","","","","","","Mostly Cloudy"
"-117.16","58.62","HIGH LEVEL A","3073141","2019-06-06 09:00","2019","06","06","09:00","9.7","","0.8","","54","","","","27","","5","","24.1","","97.51","","","","","","NA"
"-117.16","58.62","HIGH LEVEL A","3073141","2019-06-06 10:00","2019","06","06","10:00","11.0","","0.5","","48","","","","36","","18","","24.1","","97.50","","","","","","NA"
"-117.16","58.62","HIGH LEVEL A","3073141","2019-06-06 11:00","2019","06","06","11:00","11.2","","1.9","","53","","","","36","","10","","24.1","","97.47","","","","","","Mostly Cloudy"
"-117.16","58.62","HIGH LEVEL A","3073141","2019-06-06 12:00","2019","06","06","12:00","12.1","","2.0","","50","","","","2","","17","","24.1","","97.43","","","","","","NA"
"-117.16","58.62","HIGH LEVEL A","3073141","2019-06-06 13:00","2019","06","06","13:00","12.5","","2.4","","50","","","","34","","18","","24.1","","97.42","","","","","","NA"
"-117.16","58.62","HIGH LEVEL A","3073141","2019-06-06 14:00","2019","06","06","14:00","12.4","","2.8","","52","","","","32","","14","","24.1","","97.42","","","","","","Mostly Cloudy"
"-117.16","58.62","HIGH LEVEL A","3073141","2019-06-06 15:00","2019","06","06","15:00","12.7","","2.1","","48","","","","35","","19","","24.1","","97.43","","","","","","NA"
"-117.16","58.62","HIGH LEVEL A","3073141","2019-06-06 16:00","2019","06","06","16:00","12.4","","1.7","","48","","","","4","","16","","24.1","","97.42","","","","","","NA"
"-117.16","58.62","HIGH LEVEL A","3073141","2019-06-06 17:00","2019","06","06","17:00","12.2","","1.0","","46","","","","2","","14","","24.1","","97.43","","","","","","Mostly Cloudy"
"-117.16","58.62","HIGH LEVEL A","3073141","2019-06-06 18:00","2019","06","06","18:00","12.7","","0.8","","44","","","","36","","19","","24.1","","97.45","","","","","","NA"
"-117.16","58.62","HIGH LEVEL A","3073141","2019-06-06 19:00","2019","06","06","19:00","12.0","","0.7","","46","","","","3","","15","","24.1","","97.47","","","","","","NA"
"-117.16","58.62","HIGH LEVEL A","3073141","2019-06-06 20:00","2019","06","06","20:00","11.1","","0.0","","46","","","","3","","15","","24.1","","97.50","","","","","","Mostly Cloudy"
"-117.16","58.62","HIGH LEVEL A","3073141","2019-06-06 21:00","2019","06","06","21:00","10.0","","0.1","","50","","","","3","","12","","24.1","","97.51","","","","","","NA"
"-117.16","58.62","HIGH LEVEL A","3073141","2019-06-06 22:00","2019","06","06","22:00"
"-117.16","58.62","HIGH LEVEL A","3073141","2019-06-06 23:00","2019","06","06","23:00"
"-117.16","58.62","HIGH LEVEL A","3073141","2019-06-07 00:00","2019","06","07","00:00"
"-117.16","58.62","HIGH LEVEL A","3073141","2019-06-07 01:00","2019","06","07","01:00"
"-117.16","58.62","HIGH LEVEL A","3073141","2019-06-07 02:00","2019","06","07","02:00"
"-117.16","58.62","HIGH LEVEL A","3073141","2019-06-07 03:00","2019","06","07","03:00"
"-117.16","58.62","HIGH LEVEL A","3073141","2019-06-07 04:00","2019","06","07","04:00"
"-117.16","58.62","HIGH LEVEL A","3073141","2019-06-07 05:00","2019","06","07","05:00"
"-117.16","58.62","HIGH LEVEL A","3073141","2019-06-07 06:00","2019","06","07","06:00","4.4","","0.6","","76","","","","35","","8","","24.1","","97.74","","","","","","NA"
"-117.16","58.62","HIGH LEVEL A","3073141","2019-06-07 07:00","2019","06","07","07:00","6.1","","1.0","","70","","","","36","","9","","24.1","","97.72","","","","","","NA"
"-117.16","58.62","HIGH LEVEL A","3073141","2019-06-07 08:00","2019","06","07","08:00","7.6","","1.1","","64","","","","34","","16","","24.1","","97.69","","","","","","Mainly Clear"
"-117.16","58.62","HIGH LEVEL A","3073141","2019-06-07 09:00","2019","06","07","09:00","9.0","","1.5","","59","","","","36","","16","","24.1","","97.66","","","","","","NA"
"-117.16","58.62","HIGH LEVEL A","3073141","2019-06-07 10:00","2019","06","07","10:00","9.0","","0.0","","53","","","","32","","13","","24.1","","97.65","","","","","","NA"
"-117.16","58.62","HIGH LEVEL A","3073141","2019-06-07 11:00","2019","06","07","11:00","9.5","","0.0","","52","","","","35","","17","","24.1","","97.62","","","","","","Mostly Cloudy"
"-117.16","58.62","HIGH LEVEL A","3073141","2019-06-07 12:00","2019","06","07","12:00","9.8","","0.3","","52","","","","34","","26","","24.1","","97.61","","","","","","NA"
"-117.16","58.62","HIGH LEVEL A","3073141","2019-06-07 13:00","2019","06","07","13:00","10.4","","0.8","","51","","","","36","","26","","24.1","","97.58","","","","","","NA"
"-117.16","58.62","HIGH LEVEL A","3073141","2019-06-07 14:00","2019","06","07","14:00","9.0","","2.5","","64","","","","4","","13","","24.1","","97.58","","","","","","Mostly Cloudy"
"-117.16","58.62","HIGH LEVEL A","3073141","2019-06-07 15:00","2019","06","07","15:00","9.6","","1.2","","56","","","","1","","18","","24.1","","97.58","","","","","","Rain Showers"
"-117.16","58.62","HIGH LEVEL A","3073141","2019-06-07 16:00","2019","06","07","16:00","10.3","","0.9","","52","","","","2","","18","","24.1","","97.60","","","","","","NA"
"-117.16","58.62","HIGH LEVEL A","3073141","2019-06-07 17:00","2019","06","07","17:00","10.2","","-0.1","","49","","","","36","","20","","24.1","","97.59","","","","","","Mostly Cloudy"
"-117.16","58.62","HIGH LEVEL A","3073141","2019-06-07 18:00","2019","06","07","18:00","10.3","","0.4","","50","","","","36","","14","","24.1","","97.58","","","","","","NA"
"-117.16","58.62","HIGH LEVEL A","3073141","2019-06-07 19:00","2019","06","07","19:00","8.9","","0.5","","55","","","","36","","19","","24.1","","97.59","","","","","","NA"
"-117.16","58.62","HIGH LEVEL A","3073141","2019-06-07 20:00","2019","06","07","20:00","8.0","","0.7","","60","","","","36","","17","","24.1","","97.61","","","","","","Mostly Cloudy"
"-117.16","58.62","HIGH LEVEL A","3073141","2019-06-07 21:00","2019","06","07","21:00","6.3","","0.0","","64","","","","1","","14","","24.1","","97.65","","","","","","NA"
"-117.16","58.62","HIGH LEVEL A","3073141","2019-06-07 22:00","2019","06","07","22:00"
"-117.16","58.62","HIGH LEVEL A","3073141","2019-06-07 23:00","2019","06","07","23:00"
"-117.16","58.62","HIGH LEVEL A","3073141","2019-06-08 00:00","2019","06","08","00:00"
"-117.16","58.62","HIGH LEVEL A","3073141","2019-06-08 01:00","2019","06","08","01:00"
"-117.16","58.62","HIGH LEVEL A","3073141","2019-06-08 02:00","2019","06","08","02:00"
"-117.16","58.62","HIGH LEVEL A","3073141","2019-06-08 03:00","2019","06","08","03:00"
"-117.16","58.62","HIGH LEVEL A","3073141","2019-06-08 04:00","2019","06","08","04:00"
"-117.16","58.62","HIGH LEVEL A","3073141","2019-06-08 05:00","2019","06","08","05:00"
"-117.16","58.62","HIGH LEVEL A","3073141","2019-06-08 06:00","2019","06","08","06:00","2.4","","0.9","","90","","","","36","","2","","24.1","","97.78","","","","","","NA"
"-117.16","58.62","HIGH LEVEL A","3073141","2019-06-08 07:00","2019","06","08","07:00","5.7","","2.1","","77","","","","30","","5","","24.1","","97.79","","","","","","NA"
"-117.16","58.62","HIGH LEVEL A","3073141","2019-06-08 08:00","2019","06","08","08:00","8.2","","1.8","","64","","","","35","","11","","24.1","","97.78","","","","","","Mostly Cloudy"
"-117.16","58.62","HIGH LEVEL A","3073141","2019-06-08 09:00","2019","06","08","09:00","9.7","","1.0","","55","","","","34","","14","","24.1","","97.77","","","","","","NA"
"-117.16","58.62","HIGH LEVEL A","3073141","2019-06-08 10:00","2019","06","08","10:00","9.7","","1.1","","55","","","","35","","16","","24.1","","97.75","","","","","","NA"
"-117.16","58.62","HIGH LEVEL A","3073141","2019-06-08 11:00","2019","06","08","11:00","10.2","","-0.2","","48","","","","31","","8","","24.1","","97.74","","","","","","Mostly Cloudy"
"-117.16","58.62","HIGH LEVEL A","3073141","2019-06-08 12:00","2019","06","08","12:00","9.7","","0.0","","51","","","","33","","13","","24.1","","97.75","","","","","","Rain Showers"
"-117.16","58.62","HIGH LEVEL A","3073141","2019-06-08 13:00","2019","06","08","13:00","9.3","","2.0","","60","","","","6","","6","","24.1","","97.76","","","","","","NA"
"-117.16","58.62","HIGH LEVEL A","3073141","2019-06-08 14:00","2019","06","08","14:00","9.9","","0.6","","52","","","","31","","9","","24.1","","97.77","","","","","","Cloudy"
"-117.16","58.62","HIGH LEVEL A","3073141","2019-06-08 15:00","2019","06","08","15:00","11.8","","-0.6","","42","","","","28","","12","","24.1","","97.76","","","","","","NA"
"-117.16","58.62","HIGH LEVEL A","3073141","2019-06-08 16:00","2019","06","08","16:00","8.4","","3.2","","70","","","","27","","12","","16.1","","97.81","","","","","","NA"
"-117.16","58.62","HIGH LEVEL A","3073141","2019-06-08 17:00","2019","06","08","17:00","9.0","","2.5","","64","","","","7","","8","","24.1","","97.80","","","","","","Mostly Cloudy"
"-117.16","58.62","HIGH LEVEL A","3073141","2019-06-08 18:00","2019","06","08","18:00","10.6","","2.4","","57","","","","17","","5","","24.1","","97.80","","","","","","NA"
"-117.16","58.62","HIGH LEVEL A","3073141","2019-06-08 19:00","2019","06","08","19:00","10.4","","2.3","","57","","","","9","","9","","24.1","","97.83","","","","","","NA"
"-117.16","58.62","HIGH LEVEL A","3073141","2019-06-08 20:00","2019","06","08","20:00","9.8","","3.4","","64","","","","15","","7","","24.1","","97.83","","","","","","Mainly Clear"
"-117.16","58.62","HIGH LEVEL A","3073141","2019-06-08 21:00","2019","06","08","21:00","8.9","","3.3","","68","","","","22","","4","","24.1","","97.84","","","","","","NA"
"-117.16","58.62","HIGH LEVEL A","3073141","2019-06-08 22:00","2019","06","08","22:00"
"-117.16","58.62","HIGH LEVEL A","3073141","2019-06-08 23:00","2019","06","08","23:00"
"-117.16","58.62","HIGH LEVEL A","3073141","2019-06-09 00:00","2019","06","09","00:00"
"-117.16","58.62","HIGH LEVEL A","3073141","2019-06-09 01:00","2019","06","09","01:00"
"-117.16","58.62","HIGH LEVEL A","3073141","2019-06-09 02:00","2019","06","09","02:00"
"-117.16","58.62","HIGH LEVEL A","3073141","2019-06-09 03:00","2019","06","09","03:00"
"-117.16","58.62","HIGH LEVEL A","3073141","2019-06-09 04:00","2019","06","09","04:00"
"-117.16","58.62","HIGH LEVEL A","3073141","2019-06-09 05:00","2019","06","09","05:00"
"-117.16","58.62","HIGH LEVEL A","3073141","2019-06-09 06:00","2019","06","09","06:00","4.1","","0.8","","79","","","","36","","2","","4.8","","97.91","","","","","","Smoke"
"-117.16","58.62","HIGH LEVEL A","3073141","2019-06-09 07:00","2019","06","09","07:00","8.7","","2.8","","67","","","","33","","5","","8.1","","97.92","","","","","","Smoke"
"-117.16","58.62","HIGH LEVEL A","3073141","2019-06-09 08:00","2019","06","09","08:00","11.4","","0.2","","46","","","","33","","14","","24.1","","97.94","","","","","","Mainly Clear"
"-117.16","58.62","HIGH LEVEL A","3073141","2019-06-09 09:00","2019","06","09","09:00","13.6","","-1.4","","35","","","","35","","7","","24.1","","97.94","","","","","","NA"
"-117.16","58.62","HIGH LEVEL A","3073141","2019-06-09 10:00","2019","06","09","10:00","14.5","","-2.8","","30","","","","35","","7","","24.1","","97.92","","","","","","NA"
"-117.16","58.62","HIGH LEVEL A","3073141","2019-06-09 11:00","2019","06","09","11:00","15.9","","-3.9","","25","","","","30","","11","","24.1","","97.87","","","","","","Mainly Clear"
"-117.16","58.62","HIGH LEVEL A","3073141","2019-06-09 12:00","2019","06","09","12:00","16.5","","-3.5","","25","","","","23","","9","","24.1","","97.83","","","","","","NA"
"-117.16","58.62","HIGH LEVEL A","3073141","2019-06-09 13:00","2019","06","09","13:00","17.3","","-2.0","","27","","","","33","","14","","24.1","","97.77","","","","","","NA"
"-117.16","58.62","HIGH LEVEL A","3073141","2019-06-09 14:00","2019","06","09","14:00","18.2","","-1.4","","26","","","","36","","13","","24.1","","97.71","","","","","","Mostly Cloudy"
"-117.16","58.62","HIGH LEVEL A","3073141","2019-06-09 15:00","2019","06","09","15:00","18.7","","-1.7","","25","","","","31","","13","","24.1","","97.64","","","","","","NA"
"-117.16","58.62","HIGH LEVEL A","3073141","2019-06-09 16:00","2019","06","09","16:00","15.9","","2.8","","41","","","","28","","20","","24.1","","97.72","","","","","","NA"
"-117.16","58.62","HIGH LEVEL A","3073141","2019-06-09 17:00","2019","06","09","17:00","16.1","","6.0","","51","","","","24","","12","","24.1","","97.77","","","","","","Mostly Cloudy"
"-117.16","58.62","HIGH LEVEL A","3073141","2019-06-09 18:00","2019","06","09","18:00","15.0","","5.6","","53","","","","25","","7","","24.1","","97.69","","","","","","NA"
"-117.16","58.62","HIGH LEVEL A","3073141","2019-06-09 19:00","2019","06","09","19:00","15.3","","5.4","","51","","","","25","","8","","24.1","","97.61","","","","","","NA"
"-117.16","58.62","HIGH LEVEL A","3073141","2019-06-09 20:00","2019","06","09","20:00","14.7","","6.5","","58","","","","9","","5","","24.1","","97.57","","","","","","Mostly Cloudy"
"-117.16","58.62","HIGH LEVEL A","3073141","2019-06-09 21:00","2019","06","09","21:00","13.2","","6.7","","64","","","","3","","6","","24.1","","97.55","","","","","","NA"
"-117.16","58.62","HIGH LEVEL A","3073141","2019-06-09 22:00","2019","06","09","22:00"
"-117.16","58.62","HIGH LEVEL A","3073141","2019-06-09 23:00","2019","06","09","23:00"
"-117.16","58.62","HIGH LEVEL A","3073141","2019-06-10 00:00","2019","06","10","00:00"
"-117.16","58.62","HIGH LEVEL A","3073141","2019-06-10 01:00","2019","06","10","01:00"
"-117.16","58.62","HIGH LEVEL A","3073141","2019-06-10 02:00","2019","06","10","02:00"
"-117.16","58.62","HIGH LEVEL A","3073141","2019-06-10 03:00","2019","06","10","03:00"
"-117.16","58.62","HIGH LEVEL A","3073141","2019-06-10 04:00","2019","06","10","04:00"
"-117.16","58.62","HIGH LEVEL A","3073141","2019-06-10 05:00","2019","06","10","05:00"
"-117.16","58.62","HIGH LEVEL A","3073141","2019-06-10 06:00","2019","06","10","06:00","6.6","","1.5","","70","","","","2","","9","","24.1","","97.84","","","","","","NA"
"-117.16","58.62","HIGH LEVEL A","3073141","2019-06-10 07:00","2019","06","10","07:00","8.4","","2.3","","65","","","","35","","7","","24.1","","97.85","","","","","","NA"
"-117.16","58.62","HIGH LEVEL A","3073141","2019-06-10 08:00","2019","06","10","08:00","10.0","","2.1","","58","","","","12","","9","","24.1","","97.85","","","","","","Mostly Cloudy"
"-117.16","58.62","HIGH LEVEL A","3073141","2019-06-10 09:00","2019","06","10","09:00","11.3","","1.8","","52","","","","13","","4","","24.1","","97.86","","","","","","NA"
"-117.16","58.62","HIGH LEVEL A","3073141","2019-06-10 10:00","2019","06","10","10:00","13.3","","1.6","","45","","","","14","","4","","24.1","","97.87","","","","","","NA"
"-117.16","58.62","HIGH LEVEL A","3073141","2019-06-10 11:00","2019","06","10","11:00","14.7","","-1.2","","33","","","","22","","7","","24.1","","97.87","","","","","","Mostly Cloudy"
"-117.16","58.62","HIGH LEVEL A","3073141","2019-06-10 12:00","2019","06","10","12:00","15.9","","-1.3","","31","","","","36","","3","","24.1","","97.85","","","","","","NA"
"-117.16","58.62","HIGH LEVEL A","3073141","2019-06-10 13:00","2019","06","10","13:00","16.6","","-1.0","","30","","","","18","","7","","24.1","","97.81","","","","","","NA"
"-117.16","58.62","HIGH LEVEL A","3073141","2019-06-10 14:00","2019","06","10","14:00","18.7","","-2.6","","23","","","","32","","8","","24.1","","97.80","","","","","","Mostly Cloudy"
"-117.16","58.62","HIGH LEVEL A","3073141","2019-06-10 15:00","2019","06","10","15:00","17.1","","-1.9","","27","","","","2","","20","","24.1","","97.79","","","","","","NA"
"-117.16","58.62","HIGH LEVEL A","3073141","2019-06-10 16:00","2019","06","10","16:00","15.7","","-1.2","","31","","","","2","","8","","24.1","","97.79","","","","","","NA"
"-117.16","58.62","HIGH LEVEL A","3073141","2019-06-10 17:00","2019","06","10","17:00","16.4","","-1.7","","29","","","","34","","8","","24.1","","97.76","","","","","","Mostly Cloudy"
"-117.16","58.62","HIGH LEVEL A","3073141","2019-06-10 18:00","2019","06","10","18:00","17.9","","-1.4","","27","","","","36","","4","","24.1","","97.73","","","","","","NA"
"-117.16","58.62","HIGH LEVEL A","3073141","2019-06-10 19:00","2019","06","10","19:00","17.2","","-0.4","","30","","","","21","","4","","24.1","","97.72","","","","","","NA"
"-117.16","58.62","HIGH LEVEL A","3073141","2019-06-10 20:00","2019","06","10","20:00","15.3","","1.6","","39","","","","32","","7","","24.1","","97.71","","","","","","Mainly Clear"
"-117.16","58.62","HIGH LEVEL A","3073141","2019-06-10 21:00","2019","06","10","21:00","14.1","","2.7","","46","","","","31","","5","","24.1","","97.71","","","","","","NA"
"-117.16","58.62","HIGH LEVEL A","3073141","2019-06-10 22:00","2019","06","10","22:00"
"-117.16","58.62","HIGH LEVEL A","3073141","2019-06-10 23:00","2019","06","10","23:00"
"-117.16","58.62","HIGH LEVEL A","3073141","2019-06-11 00:00","2019","06","11","00:00"
"-117.16","58.62","HIGH LEVEL A","3073141","2019-06-11 01:00","2019","06","11","01:00"
"-117.16","58.62","HIGH LEVEL A","3073141","2019-06-11 02:00","2019","06","11","02:00"
"-117.16","58.62","HIGH LEVEL A","3073141","2019-06-11 03:00","2019","06","11","03:00"
"-117.16","58.62","HIGH LEVEL A","3073141","2019-06-11 04:00","2019","06","11","04:00"
"-117.16","58.62","HIGH LEVEL A","3073141","2019-06-11 05:00","2019","06","11","05:00"
"-117.16","58.62","HIGH LEVEL A","3073141","2019-06-11 06:00","2019","06","11","06:00","7.1","","1.9","","69","","","","36","","1","","24.1","","97.87","","","","","","NA"
"-117.16","58.62","HIGH LEVEL A","3073141","2019-06-11 07:00","2019","06","11","07:00","9.0","","2.2","","63","","","","36","","2","","24.1","","97.85","","","","","","NA"
"-117.16","58.62","HIGH LEVEL A","3073141","2019-06-11 08:00","2019","06","11","08:00","12.6","","3.3","","53","","","","22","","4","","9.7","","97.84","","","","","","Smoke"
"-117.16","58.62","HIGH LEVEL A","3073141","2019-06-11 09:00","2019","06","11","09:00","15.8","","3.6","","44","","","","19","","5","","2.0","","97.85","","","","","","Smoke"
"-117.16","58.62","HIGH LEVEL A","3073141","2019-06-11 10:00","2019","06","11","10:00","18.1","","2.2","","34","","","","20","","9","","2.0","","97.80","","","","","","Smoke"
"-117.16","58.62","HIGH LEVEL A","3073141","2019-06-11 11:00","2019","06","11","11:00","19.3","","4.7","","38","","","","22","","9","","3.2","","97.75","","","","","","Smoke"
"-117.16","58.62","HIGH LEVEL A","3073141","2019-06-11 12:00","2019","06","11","12:00","20.1","","2.8","","31","","","","18","","11","","1.6","","97.73","","","","","","Smoke"
"-117.16","58.62","HIGH LEVEL A","3073141","2019-06-11 13:00","2019","06","11","13:00","20.3","","4.8","","36","","","","22","","4","","2.4","","97.67","","","","","","Smoke"
"-117.16","58.62","HIGH LEVEL A","3073141","2019-06-11 14:00","2019","06","11","14:00","21.8","","5.3","","34","","","","24","","8","","12.9","","97.61","","","","","","Mostly Cloudy"
"-117.16","58.62","HIGH LEVEL A","3073141","2019-06-11 15:00","2019","06","11","15:00","21.9","","5.2","","33","","","","24","","7","","16.1","","97.58","","","","","","NA"
"-117.16","58.62","HIGH LEVEL A","3073141","2019-06-11 16:00","2019","06","11","16:00","22.4","","5.5","","33","","","","20","","14","","24.1","","97.53","","","","","","NA"
"-117.16","58.62","HIGH LEVEL A","3073141","2019-06-11 17:00","2019","06","11","17:00","22.0","","6.1","","35","","","","36","","2","","24.1","","97.48","","","","","","Mostly Cloudy"
"-117.16","58.62","HIGH LEVEL A","3073141","2019-06-11 18:00","2019","06","11","18:00","17.7","","14.2","","80","","","","18","","8","","12.9","","97.45","","","","","","NA"
"-117.16","58.62","HIGH LEVEL A","3073141","2019-06-11 19:00","2019","06","11","19:00","20.2","","11.0","","55","","","","16","","8","","16.1","","97.41","","","","","","NA"
"-117.16","58.62","HIGH LEVEL A","3073141","2019-06-11 20:00","2019","06","11","20:00","19.6","","9.5","","52","","","","13","","4","","24.1","","97.37","","","","","","Mostly Cloudy"
"-117.16","58.62","HIGH LEVEL A","3073141","2019-06-11 21:00","2019","06","11","21:00","18.7","","9.3","","54","","","","14","","5","","12.9","","97.36","","","","","","NA"
"-117.16","58.62","HIGH LEVEL A","3073141","2019-06-11 22:00","2019","06","11","22:00"
"-117.16","58.62","HIGH LEVEL A","3073141","2019-06-11 23:00","2019","06","11","23:00"
"-117.16","58.62","HIGH LEVEL A","3073141","2019-06-12 00:00","2019","06","12","00:00"
"-117.16","58.62","HIGH LEVEL A","3073141","2019-06-12 01:00","2019","06","12","01:00"
"-117.16","58.62","HIGH LEVEL A","3073141","2019-06-12 02:00","2019","06","12","02:00"
"-117.16","58.62","HIGH LEVEL A","3073141","2019-06-12 03:00","2019","06","12","03:00"
"-117.16","58.62","HIGH LEVEL A","3073141","2019-06-12 04:00","2019","06","12","04:00"
"-117.16","58.62","HIGH LEVEL A","3073141","2019-06-12 05:00","2019","06","12","05:00"
"-117.16","58.62","HIGH LEVEL A","3073141","2019-06-12 06:00","2019","06","12","06:00","10.2","","7.5","","83","","","","14","","9","","0.4","","97.22","","","","","","Smoke"
"-117.16","58.62","HIGH LEVEL A","3073141","2019-06-12 07:00","2019","06","12","07:00","13.7","","8.5","","71","","","","5","","4","","0.6","","97.21","","","","","","Smoke"
"-117.16","58.62","HIGH LEVEL A","3073141","2019-06-12 08:00","2019","06","12","08:00","17.7","","9.4","","58","","","","9","","5","","0.8","","97.19","","","","","","Smoke"
"-117.16","58.62","HIGH LEVEL A","3073141","2019-06-12 09:00","2019","06","12","09:00","22.1","","7.8","","39","","","","24","","5","","3.2","","97.13","","","","","","Smoke"
"-117.16","58.62","HIGH LEVEL A","3073141","2019-06-12 10:00","2019","06","12","10:00","23.5","","6.6","","33","","","","28","","13","","16.1","","97.07","","","","","","NA"
"-117.16","58.62","HIGH LEVEL A","3073141","2019-06-12 11:00","2019","06","12","11:00","24.5","","6.2","","30","","","","27","","8","","24.1","","97.01","","","","","","Mostly Cloudy"
"-117.16","58.62","HIGH LEVEL A","3073141","2019-06-12 12:00","2019","06","12","12:00","24.2","","5.1","","29","","","","25","","10","","24.1","","96.95","","","","","","NA"
"-117.16","58.62","HIGH LEVEL A","3073141","2019-06-12 13:00","2019","06","12","13:00","25.9","","5.1","","26","","","","29","","11","","24.1","","96.90","","25","","","","NA"
"-117.16","58.62","HIGH LEVEL A","3073141","2019-06-12 14:00","2019","06","12","14:00","24.1","","5.1","","29","","","","27","","9","","24.1","","96.85","","","","","","Mostly Cloudy"
"-117.16","58.62","HIGH LEVEL A","3073141","2019-06-12 15:00","2019","06","12","15:00","25.5","","5.5","","27","","","","27","","8","","24.1","","96.79","","25","","","","NA"
"-117.16","58.62","HIGH LEVEL A","3073141","2019-06-12 16:00","2019","06","12","16:00","25.4","","5.6","","28","","","","29","","9","","24.1","","96.72","","25","","","","NA"
"-117.16","58.62","HIGH LEVEL A","3073141","2019-06-12 17:00","2019","06","12","17:00","25.0","","5.6","","28","","","","26","","6","","24.1","","96.65","","","","","","Mostly Cloudy"
"-117.16","58.62","HIGH LEVEL A","3073141","2019-06-12 18:00","2019","06","12","18:00","24.6","","5.8","","29","","","","31","","9","","24.1","","96.59","","","","","","NA"
"-117.16","58.62","HIGH LEVEL A","3073141","2019-06-12 19:00","2019","06","12","19:00","23.7","","6.3","","32","","","","32","","11","","24.1","","96.54","","","","","","NA"
"-117.16","58.62","HIGH LEVEL A","3073141","2019-06-12 20:00","2019","06","12","20:00","22.9","","6.1","","33","","","","35","","7","","24.1","","96.49","","","","","","Cloudy"
"-117.16","58.62","HIGH LEVEL A","3073141","2019-06-12 21:00","2019","06","12","21:00","21.6","","6.3","","37","","","","30","","5","","24.1","","96.48","","","","","","NA"
"-117.16","58.62","HIGH LEVEL A","3073141","2019-06-12 22:00","2019","06","12","22:00"
"-117.16","58.62","HIGH LEVEL A","3073141","2019-06-12 23:00","2019","06","12","23:00"
"-117.16","58.62","HIGH LEVEL A","3073141","2019-06-13 00:00","2019","06","13","00:00"
"-117.16","58.62","HIGH LEVEL A","3073141","2019-06-13 01:00","2019","06","13","01:00"
"-117.16","58.62","HIGH LEVEL A","3073141","2019-06-13 02:00","2019","06","13","02:00"
"-117.16","58.62","HIGH LEVEL A","3073141","2019-06-13 03:00","2019","06","13","03:00"
"-117.16","58.62","HIGH LEVEL A","3073141","2019-06-13 04:00","2019","06","13","04:00"
"-117.16","58.62","HIGH LEVEL A","3073141","2019-06-13 05:00","2019","06","13","05:00"
"-117.16","58.62","HIGH LEVEL A","3073141","2019-06-13 06:00","2019","06","13","06:00","16.0","","10.1","","68","","","","35","","10","","24.1","","96.36","","","","","","NA"
"-117.16","58.62","HIGH LEVEL A","3073141","2019-06-13 07:00","2019","06","13","07:00","17.5","","11.9","","69","","","","34","","11","","24.1","","96.36","","","","","","NA"
"-117.16","58.62","HIGH LEVEL A","3073141","2019-06-13 08:00","2019","06","13","08:00","19.0","","8.0","","49","","","","33","","18","","24.1","","96.37","","","","","","Mostly Cloudy"
"-117.16","58.62","HIGH LEVEL A","3073141","2019-06-13 09:00","2019","06","13","09:00","19.4","","8.4","","48","","","","31","","9","","24.1","","96.40","","","","","","NA"
"-117.16","58.62","HIGH LEVEL A","3073141","2019-06-13 10:00","2019","06","13","10:00","18.2","","9.3","","56","","","","19","","4","","24.1","","96.46","","","","","","NA"
"-117.16","58.62","HIGH LEVEL A","3073141","2019-06-13 11:00","2019","06","13","11:00","18.5","","9.3","","55","","","","26","","5","","24.1","","96.47","","","","","","Cloudy"
"-117.16","58.62","HIGH LEVEL A","3073141","2019-06-13 12:00","2019","06","13","12:00","17.0","","11.8","","71","","","","23","","7","","24.1","","96.48","","","","","","Rain Showers"
"-117.16","58.62","HIGH LEVEL A","3073141","2019-06-13 13:00","2019","06","13","13:00","19.2","","11.0","","59","","","","16","","8","","24.1","","96.47","","","","","","NA"
"-117.16","58.62","HIGH LEVEL A","3073141","2019-06-13 14:00","2019","06","13","14:00","21.2","","10.9","","52","","","","13","","7","","24.1","","96.40","","","","","","Mostly Cloudy"
"-117.16","58.62","HIGH LEVEL A","3073141","2019-06-13 15:00","2019","06","13","15:00","23.7","","9.6","","40","","","","24","","9","","24.1","","96.36","","25","","","","NA"
"-117.16","58.62","HIGH LEVEL A","3073141","2019-06-13 16:00","2019","06","13","16:00","23.4","","6.6","","33","","","","36","","1","","24.1","","96.37","","","","","","NA"
"-117.16","58.62","HIGH LEVEL A","3073141","2019-06-13 17:00","2019","06","13","17:00","22.7","","9.3","","42","","","","11","","4","","24.1","","96.36","","","","","","Mostly Cloudy"
"-117.16","58.62","HIGH LEVEL A","3073141","2019-06-13 18:00","2019","06","13","18:00","20.9","","8.3","","44","","","","36","","13","","24.1","","96.42","","","","","","NA"
"-117.16","58.62","HIGH LEVEL A","3073141","2019-06-13 19:00","2019","06","13","19:00","19.8","","9.0","","49","","","","34","","17","","24.1","","96.47","","","","","","NA"
"-117.16","58.62","HIGH LEVEL A","3073141","2019-06-13 20:00","2019","06","13","20:00","18.0","","10.2","","60","","","","32","","7","","24.1","","96.51","","","","","","Mostly Cloudy"
"-117.16","58.62","HIGH LEVEL A","3073141","2019-06-13 21:00","2019","06","13","21:00","15.1","","10.1","","72","","","","32","","5","","24.1","","96.53","","","","","","NA"
"-117.16","58.62","HIGH LEVEL A","3073141","2019-06-13 22:00","2019","06","13","22:00"
"-117.16","58.62","HIGH LEVEL A","3073141","2019-06-13 23:00","2019","06","13","23:00"
"-117.16","58.62","HIGH LEVEL A","3073141","2019-06-14 00:00","2019","06","14","00:00"
"-117.16","58.62","HIGH LEVEL A","3073141","2019-06-14 01:00","2019","06","14","01:00"
"-117.16","58.62","HIGH LEVEL A","3073141","2019-06-14 02:00","2019","06","14","02:00"
"-117.16","58.62","HIGH LEVEL A","3073141","2019-06-14 03:00","2019","06","14","03:00"
"-117.16","58.62","HIGH LEVEL A","3073141","2019-06-14 04:00","2019","06","14","04:00"
"-117.16","58.62","HIGH LEVEL A","3073141","2019-06-14 05:00","2019","06","14","05:00"
"-117.16","58.62","HIGH LEVEL A","3073141","2019-06-14 06:00","2019","06","14","06:00","14.9","","10.2","","73","","","","35","","17","","24.1","","96.86","","","","","","NA"
"-117.16","58.62","HIGH LEVEL A","3073141","2019-06-14 07:00","2019","06","14","07:00","16.2","","10.7","","70","","","","35","","16","","24.1","","96.91","","","","","","NA"
"-117.16","58.62","HIGH LEVEL A","3073141","2019-06-14 08:00","2019","06","14","08:00","15.6","","10.8","","73","","","","34","","8","","24.1","","96.94","","","","","","Mostly Cloudy"
"-117.16","58.62","HIGH LEVEL A","3073141","2019-06-14 09:00","2019","06","14","09:00","18.5","","11.0","","61","","","","36","","13","","24.1","","96.93","","","","","","NA"
"-117.16","58.62","HIGH LEVEL A","3073141","2019-06-14 10:00","2019","06","14","10:00","20.8","","10.2","","50","","","","32","","8","","24.1","","96.92","","","","","","NA"
"-117.16","58.62","HIGH LEVEL A","3073141","2019-06-14 11:00","2019","06","14","11:00","20.7","","9.6","","48","","","","36","","19","","24.1","","96.91","","","","","","Mostly Cloudy"
"-117.16","58.62","HIGH LEVEL A","3073141","2019-06-14 12:00","2019","06","14","12:00","19.3","","11.3","","60","","","","31","","10","","24.1","","96.93","","","","","","NA"
"-117.16","58.62","HIGH LEVEL A","3073141","2019-06-14 13:00","2019","06","14","13:00","22.3","","9.4","","43","","","","33","","10","","24.1","","96.92","","","","","","NA"
"-117.16","58.62","HIGH LEVEL A","3073141","2019-06-14 14:00","2019","06","14","14:00","17.4","","11.2","","67","","","","34","","25","","24.1","","97.03","","","","","","Mostly Cloudy"
"-117.16","58.62","HIGH LEVEL A","3073141","2019-06-14 15:00","2019","06","14","15:00","16.0","","12.4","","79","","","","33","","12","","24.1","","97.07","","","","","","Rain Showers"
"-117.16","58.62","HIGH LEVEL A","3073141","2019-06-14 16:00","2019","06","14","16:00","19.8","","11.9","","60","","","","35","","16","","24.1","","97.01","","","","","","NA"
"-117.16","58.62","HIGH LEVEL A","3073141","2019-06-14 17:00","2019","06","14","17:00","21.5","","9.2","","45","","","","36","","13","","24.1","","97.04","","","","","","Mostly Cloudy"
"-117.16","58.62","HIGH LEVEL A","3073141","2019-06-14 18:00","2019","06","14","18:00","20.0","","9.9","","52","","","","2","","9","","24.1","","97.08","","","","","","NA"
"-117.16","58.62","HIGH LEVEL A","3073141","2019-06-14 19:00","2019","06","14","19:00","18.2","","9.6","","57","","","","33","","13","","24.1","","97.12","","","","","","Rain Showers"
"-117.16","58.62","HIGH LEVEL A","3073141","2019-06-14 20:00","2019","06","14","20:00","17.7","","10.4","","62","","","","36","","11","","24.1","","97.18","","","","","","Cloudy"
"-117.16","58.62","HIGH LEVEL A","3073141","2019-06-14 21:00","2019","06","14","21:00","16.9","","10.8","","67","","","","33","","10","","24.1","","97.18","","","","","","NA"
"-117.16","58.62","HIGH LEVEL A","3073141","2019-06-14 22:00","2019","06","14","22:00"
"-117.16","58.62","HIGH LEVEL A","3073141","2019-06-14 23:00","2019","06","14","23:00"
"-117.16","58.62","HIGH LEVEL A","3073141","2019-06-15 00:00","2019","06","15","00:00"
"-117.16","58.62","HIGH LEVEL A","3073141","2019-06-15 01:00","2019","06","15","01:00"
"-117.16","58.62","HIGH LEVEL A","3073141","2019-06-15 02:00","2019","06","15","02:00"
"-117.16","58.62","HIGH LEVEL A","3073141","2019-06-15 03:00","2019","06","15","03:00"
"-117.16","58.62","HIGH LEVEL A","3073141","2019-06-15 04:00","2019","06","15","04:00"
"-117.16","58.62","HIGH LEVEL A","3073141","2019-06-15 05:00","2019","06","15","05:00"
"-117.16","58.62","HIGH LEVEL A","3073141","2019-06-15 06:00","2019","06","15","06:00","13.2","","10.4","","83","","","","14","","5","","24.1","","97.41","","","","","","NA"
"-117.16","58.62","HIGH LEVEL A","3073141","2019-06-15 07:00","2019","06","15","07:00","13.5","","10.2","","80","","","","36","","3","","24.1","","97.42","","","","","","NA"
"-117.16","58.62","HIGH LEVEL A","3073141","2019-06-15 08:00","2019","06","15","08:00","16.6","","10.2","","66","","","","19","","4","","24.1","","97.43","","","","","","Mainly Clear"
"-117.16","58.62","HIGH LEVEL A","3073141","2019-06-15 09:00","2019","06","15","09:00","19.7","","10.1","","54","","","","28","","5","","24.1","","97.45","","","","","","NA"
"-117.16","58.62","HIGH LEVEL A","3073141","2019-06-15 10:00","2019","06","15","10:00","21.6","","9.4","","45","","","","24","","5","","24.1","","97.43","","","","","","NA"
"-117.16","58.62","HIGH LEVEL A","3073141","2019-06-15 11:00","2019","06","15","11:00","22.2","","8.9","","42","","","","35","","9","","24.1","","97.40","","","","","","Mostly Cloudy"
"-117.16","58.62","HIGH LEVEL A","3073141","2019-06-15 12:00","2019","06","15","12:00","24.7","","6.8","","31","","","","35","","8","","24.1","","97.38","","25","","","","NA"
"-117.16","58.62","HIGH LEVEL A","3073141","2019-06-15 13:00","2019","06","15","13:00","25.1","","3.6","","24","","","","2","","10","","24.1","","97.36","","","","","","NA"
"-117.16","58.62","HIGH LEVEL A","3073141","2019-06-15 14:00","2019","06","15","14:00","26.1","","5.2","","26","","","","28","","3","","24.1","","97.31","","25","","","","Mostly Cloudy"
"-117.16","58.62","HIGH LEVEL A","3073141","2019-06-15 15:00","2019","06","15","15:00","25.4","","4.8","","26","","","","3","","4","","24.1","","97.29","","25","","","","NA"
"-117.16","58.62","HIGH LEVEL A","3073141","2019-06-15 16:00","2019","06","15","16:00","26.0","","4.2","","24","","","","8","","8","","24.1","","97.25","","25","","","","NA"
"-117.16","58.62","HIGH LEVEL A","3073141","2019-06-15 17:00","2019","06","15","17:00","26.4","","4.7","","24","","","","31","","4","","24.1","","97.23","","26","","","","Mainly Clear"
"-117.16","58.62","HIGH LEVEL A","3073141","2019-06-15 18:00","2019","06","15","18:00","26.4","","4.5","","24","","","","32","","10","","24.1","","97.23","","26","","","","NA"
"-117.16","58.62","HIGH LEVEL A","3073141","2019-06-15 19:00","2019","06","15","19:00","26.2","","5.0","","25","","","","","","0","","24.1","","97.21","","25","","","","NA"
"-117.16","58.62","HIGH LEVEL A","3073141","2019-06-15 20:00","2019","06","15","20:00","25.4","","6.9","","30","","","","36","","2","","24.1","","97.21","","25","","","","Mainly Clear"
"-117.16","58.62","HIGH LEVEL A","3073141","2019-06-15 21:00","2019","06","15","21:00","22.0","","7.7","","39","","","","36","","2","","24.1","","97.21","","","","","","NA"
"-117.16","58.62","HIGH LEVEL A","3073141","2019-06-15 22:00","2019","06","15","22:00"
"-117.16","58.62","HIGH LEVEL A","3073141","2019-06-15 23:00","2019","06","15","23:00"
"-117.16","58.62","HIGH LEVEL A","3073141","2019-06-16 00:00","2019","06","16","00:00"
"-117.16","58.62","HIGH LEVEL A","3073141","2019-06-16 01:00","2019","06","16","01:00"
"-117.16","58.62","HIGH LEVEL A","3073141","2019-06-16 02:00","2019","06","16","02:00"
"-117.16","58.62","HIGH LEVEL A","3073141","2019-06-16 03:00","2019","06","16","03:00"
"-117.16","58.62","HIGH LEVEL A","3073141","2019-06-16 04:00","2019","06","16","04:00"
"-117.16","58.62","HIGH LEVEL A","3073141","2019-06-16 05:00","2019","06","16","05:00"
"-117.16","58.62","HIGH LEVEL A","3073141","2019-06-16 06:00","2019","06","16","06:00","12.9","","10.3","","84","","","","36","","1","","24.1","","97.35","","","","","","NA"
"-117.16","58.62","HIGH LEVEL A","3073141","2019-06-16 07:00","2019","06","16","07:00","16.8","","11.2","","69","","","","15","","11","","24.1","","97.35","","","","","","NA"
"-117.16","58.62","HIGH LEVEL A","3073141","2019-06-16 08:00","2019","06","16","08:00","18.8","","11.3","","61","","","","17","","11","","24.1","","97.35","","","","","","Mainly Clear"
"-117.16","58.62","HIGH LEVEL A","3073141","2019-06-16 09:00","2019","06","16","09:00","21.4","","10.4","","49","","","","14","","14","","24.1","","97.33","","","","","","NA"
"-117.16","58.62","HIGH LEVEL A","3073141","2019-06-16 10:00","2019","06","16","10:00","23.1","","10.4","","44","","","","16","","16","","24.1","","97.30","","25","","","","NA"
"-117.16","58.62","HIGH LEVEL A","3073141","2019-06-16 11:00","2019","06","16","11:00","25.2","","10.1","","38","","","","17","","10","","24.1","","97.25","","27","","","","Mainly Clear"
"-117.16","58.62","HIGH LEVEL A","3073141","2019-06-16 12:00","2019","06","16","12:00","26.8","","8.1","","30","","","","17","","7","","24.1","","97.21","","27","","","","NA"
"-117.16","58.62","HIGH LEVEL A","3073141","2019-06-16 13:00","2019","06","16","13:00","27.4","","6.7","","26","","","","16","","18","","24.1","","97.16","","27","","","","NA"
"-117.16","58.62","HIGH LEVEL A","3073141","2019-06-16 14:00","2019","06","16","14:00","28.8","","5.3","","22","","","","15","","16","","24.1","","97.13","","28","","","","Mostly Cloudy"
"-117.16","58.62","HIGH LEVEL A","3073141","2019-06-16 15:00","2019","06","16","15:00","28.9","","4.6","","21","","","","12","","8","","24.1","","97.09","","28","","","","NA"
"-117.16","58.62","HIGH LEVEL A","3073141","2019-06-16 16:00","2019","06","16","16:00","29.1","","4.9","","21","","","","17","","17","","12.9","","97.05","","28","","","","NA"
"-117.16","58.62","HIGH LEVEL A","3073141","2019-06-16 17:00","2019","06","16","17:00","28.7","","4.3","","21","","","","15","","23","","12.9","","97.02","","28","","","","Mainly Clear"
"-117.16","58.62","HIGH LEVEL A","3073141","2019-06-16 18:00","2019","06","16","18:00","27.9","","3.7","","21","","","","14","","17","","16.1","","97.00","","27","","","","NA"
"-117.16","58.62","HIGH LEVEL A","3073141","2019-06-16 19:00","2019","06","16","19:00","27.0","","4.4","","23","","","","13","","13","","24.1","","96.99","","26","","","","NA"
"-117.16","58.62","HIGH LEVEL A","3073141","2019-06-16 20:00","2019","06","16","20:00","25.5","","5.3","","27","","","","12","","12","","16.1","","96.98","","25","","","","NA"
"-117.16","58.62","HIGH LEVEL A","3073141","2019-06-16 21:00","2019","06","16","21:00","23.8","","5.4","","30","","","","12","","10","","16.1","","96.98","","","","","","NA"
"-117.16","58.62","HIGH LEVEL A","3073141","2019-06-16 22:00","2019","06","16","22:00"
"-117.16","58.62","HIGH LEVEL A","3073141","2019-06-16 23:00","2019","06","16","23:00"
"-117.16","58.62","HIGH LEVEL A","3073141","2019-06-17 00:00","2019","06","17","00:00"
"-117.16","58.62","HIGH LEVEL A","3073141","2019-06-17 01:00","2019","06","17","01:00"
"-117.16","58.62","HIGH LEVEL A","3073141","2019-06-17 02:00","2019","06","17","02:00"
"-117.16","58.62","HIGH LEVEL A","3073141","2019-06-17 03:00","2019","06","17","03:00"
"-117.16","58.62","HIGH LEVEL A","3073141","2019-06-17 04:00","2019","06","17","04:00"
"-117.16","58.62","HIGH LEVEL A","3073141","2019-06-17 05:00","2019","06","17","05:00"
"-117.16","58.62","HIGH LEVEL A","3073141","2019-06-17 06:00","2019","06","17","06:00","16.3","","7.4","","55","","","","13","","8","","16.1","","97.03","","","","","","NA"
"-117.16","58.62","HIGH LEVEL A","3073141","2019-06-17 07:00","2019","06","17","07:00","19.3","","7.6","","46","","","","14","","15","","4.8","","97.03","","","","","","Smoke"
"-117.16","58.62","HIGH LEVEL A","3073141","2019-06-17 08:00","2019","06","17","08:00","19.8","","7.4","","44","","","","15","","16","","4.0","","97.00","","","","","","Smoke"
"-117.16","58.62","HIGH LEVEL A","3073141","2019-06-17 09:00","2019","06","17","09:00","21.3","","8.9","","45","","","","13","","16","","3.2","","96.96","","","","","","Smoke"
"-117.16","58.62","HIGH LEVEL A","3073141","2019-06-17 10:00","2019","06","17","10:00","23.1","","9.5","","42","","","","14","","16","","2.4","","96.91","","","","","","Smoke"
"-117.16","58.62","HIGH LEVEL A","3073141","2019-06-17 11:00","2019","06","17","11:00","24.3","","10.3","","41","","","","14","","14","","0.4","","96.87","","26","","","","Smoke"
"-117.16","58.62","HIGH LEVEL A","3073141","2019-06-17 12:00","2019","06","17","12:00","27.3","","9.9","","33","","","","17","","15","","0.8","","96.80","","29","","","","Smoke"
"-117.16","58.62","HIGH LEVEL A","3073141","2019-06-17 13:00","2019","06","17","13:00","29.3","","8.2","","26","","","","14","","18","","1.6","","96.71","","30","","","","Smoke"
"-117.16","58.62","HIGH LEVEL A","3073141","2019-06-17 14:00","2019","06","17","14:00","27.8","","8.4","","29","","","","16","","19","","1.6","","96.64","","28","","","","Smoke"
"-117.16","58.62","HIGH LEVEL A","3073141","2019-06-17 15:00","2019","06","17","15:00","23.9","","9.9","","41","","","","10","","18","","6.4","","96.63","","25","","","","Smoke"
"-117.16","58.62","HIGH LEVEL A","3073141","2019-06-17 16:00","2019","06","17","16:00","22.1","","12.6","","54","","","","7","","13","","4.8","","96.63","","25","","","","Smoke"
"-117.16","58.62","HIGH LEVEL A","3073141","2019-06-17 17:00","2019","06","17","17:00","22.0","","13.2","","57","","","","11","","15","","9.7","","96.55","","25","","","","Smoke"
"-117.16","58.62","HIGH LEVEL A","3073141","2019-06-17 18:00","2019","06","17","18:00","21.9","","14.1","","61","","","","36","","2","","9.7","","96.53","","25","","","","Smoke"
"-117.16","58.62","HIGH LEVEL A","3073141","2019-06-17 19:00","2019","06","17","19:00","22.0","","10.9","","49","","","","30","","6","","19.3","","96.43","","","","","","Rain Showers"
"-117.16","58.62","HIGH LEVEL A","3073141","2019-06-17 20:00","2019","06","17","20:00","20.7","","12.2","","58","","","","10","","8","","20.9","","96.45","","","","","","Mostly Cloudy"
"-117.16","58.62","HIGH LEVEL A","3073141","2019-06-17 21:00","2019","06","17","21:00","21.8","","11.7","","52","","","","15","","13","","4.8","","96.44","","","","","","Smoke"
"-117.16","58.62","HIGH LEVEL A","3073141","2019-06-17 22:00","2019","06","17","22:00"
"-117.16","58.62","HIGH LEVEL A","3073141","2019-06-17 23:00","2019","06","17","23:00"
"-117.16","58.62","HIGH LEVEL A","3073141","2019-06-18 00:00","2019","06","18","00:00"
"-117.16","58.62","HIGH LEVEL A","3073141","2019-06-18 01:00","2019","06","18","01:00"
"-117.16","58.62","HIGH LEVEL A","3073141","2019-06-18 02:00","2019","06","18","02:00"
"-117.16","58.62","HIGH LEVEL A","3073141","2019-06-18 03:00","2019","06","18","03:00"
"-117.16","58.62","HIGH LEVEL A","3073141","2019-06-18 04:00","2019","06","18","04:00"
"-117.16","58.62","HIGH LEVEL A","3073141","2019-06-18 05:00","2019","06","18","05:00"
"-117.16","58.62","HIGH LEVEL A","3073141","2019-06-18 06:00","2019","06","18","06:00","15.2","","14.2","","94","","","","13","","6","","0.6","","96.40","","","","","","Fog,Smoke"
"-117.16","58.62","HIGH LEVEL A","3073141","2019-06-18 07:00","2019","06","18","07:00","15.8","","14.0","","89","","","","15","","11","","0.6","","96.36","","","","","","Fog,Smoke"
"-117.16","58.62","HIGH LEVEL A","3073141","2019-06-18 08:00","2019","06","18","08:00","17.1","","14.4","","84","","","","15","","16","","0.6","","96.33","","","","","","Fog,Smoke"
"-117.16","58.62","HIGH LEVEL A","3073141","2019-06-18 09:00","2019","06","18","09:00","19.0","","14.0","","73","","","","17","","15","","0.8","","96.31","","","","","","Fog,Smoke"
"-117.16","58.62","HIGH LEVEL A","3073141","2019-06-18 10:00","2019","06","18","10:00","20.5","","13.7","","65","","","","14","","19","","1.0","","96.29","","","","","","Smoke"
"-117.16","58.62","HIGH LEVEL A","3073141","2019-06-18 11:00","2019","06","18","11:00","21.2","","13.0","","59","","","","15","","22","","0.8","","96.25","","","","","","Smoke"
"-117.16","58.62","HIGH LEVEL A","3073141","2019-06-18 12:00","2019","06","18","12:00","21.7","","12.4","","55","","","","16","","27","","0.8","","96.23","","","","","","Smoke"
"-117.16","58.62","HIGH LEVEL A","3073141","2019-06-18 13:00","2019","06","18","13:00","22.6","","11.8","","50","","","","15","","25","","1.2","","96.20","","25","","","","Smoke"
"-117.16","58.62","HIGH LEVEL A","3073141","2019-06-18 14:00","2019","06","18","14:00","23.1","","11.4","","47","","","","16","","28","","1.2","","96.17","","25","","","","Smoke"
"-117.16","58.62","HIGH LEVEL A","3073141","2019-06-18 15:00","2019","06","18","15:00","24.0","","10.9","","43","","","","16","","23","","4.8","","96.16","","26","","","","Smoke"
"-117.16","58.62","HIGH LEVEL A","3073141","2019-06-18 16:00","2019","06","18","16:00","18.7","","15.3","","81","","","","9","","5","","4.8","","96.17","","","","","","Thunderstorms,Smoke"
"-117.16","58.62","HIGH LEVEL A","3073141","2019-06-18 17:00","2019","06","18","17:00","18.9","","10.3","","57","","","","26","","16","","12.9","","96.22","","","","","","Thunderstorms,Smoke"
"-117.16","58.62","HIGH LEVEL A","3073141","2019-06-18 18:00","2019","06","18","18:00","15.2","","11.7","","79","","","","36","","3","","20.9","","96.34","","","","","","Thunderstorms,Smoke"
"-117.16","58.62","HIGH LEVEL A","3073141","2019-06-18 19:00","2019","06","18","19:00","13.9","","12.7","","92","","","","34","","5","","16.1","","96.37","","","","","","NA"
"-117.16","58.62","HIGH LEVEL A","3073141","2019-06-18 20:00","2019","06","18","20:00","14.0","","13.1","","94","","","","24","","4","","24.1","","96.34","","","","","","Mostly Cloudy"
"-117.16","58.62","HIGH LEVEL A","3073141","2019-06-18 21:00","2019","06","18","21:00","14.4","","9.1","","70","","","","21","","8","","24.1","","96.35","","","","","","NA"
"-117.16","58.62","HIGH LEVEL A","3073141","2019-06-18 22:00","2019","06","18","22:00"
"-117.16","58.62","HIGH LEVEL A","3073141","2019-06-18 23:00","2019","06","18","23:00"
"-117.16","58.62","HIGH LEVEL A","3073141","2019-06-19 00:00","2019","06","19","00:00"
"-117.16","58.62","HIGH LEVEL A","3073141","2019-06-19 01:00","2019","06","19","01:00"
"-117.16","58.62","HIGH LEVEL A","3073141","2019-06-19 02:00","2019","06","19","02:00"
"-117.16","58.62","HIGH LEVEL A","3073141","2019-06-19 03:00","2019","06","19","03:00"
"-117.16","58.62","HIGH LEVEL A","3073141","2019-06-19 04:00","2019","06","19","04:00"
"-117.16","58.62","HIGH LEVEL A","3073141","2019-06-19 05:00","2019","06","19","05:00"
"-117.16","58.62","HIGH LEVEL A","3073141","2019-06-19 06:00","2019","06","19","06:00","10.9","","6.4","","74","","","","17","","12","","16.1","","96.38","","","","","","NA"
"-117.16","58.62","HIGH LEVEL A","3073141","2019-06-19 07:00","2019","06","19","07:00","11.9","","6.6","","70","","","","19","","19","","16.1","","96.44","","","","","","NA"
"-117.16","58.62","HIGH LEVEL A","3073141","2019-06-19 08:00","2019","06","19","08:00","14.1","","7.2","","63","","","","23","","22","","16.1","","96.42","","","","","","Mostly Cloudy"
"-117.16","58.62","HIGH LEVEL A","3073141","2019-06-19 09:00","2019","06","19","09:00","13.6","","6.8","","63","","","","21","","14","","16.1","","96.52","","","","","","NA"
"-117.16","58.62","HIGH LEVEL A","3073141","2019-06-19 10:00","2019","06","19","10:00","13.5","","6.5","","62","","","","21","","10","","16.1","","96.62","","","","","","NA"
"-117.16","58.62","HIGH LEVEL A","3073141","2019-06-19 11:00","2019","06","19","11:00","13.3","","6.6","","64","","","","25","","9","","16.1","","96.71","","","","","","Cloudy"
"-117.16","58.62","HIGH LEVEL A","3073141","2019-06-19 12:00","2019","06","19","12:00","14.4","","6.4","","58","","","","25","","8","","16.1","","96.75","","","","","","NA"
"-117.16","58.62","HIGH LEVEL A","3073141","2019-06-19 13:00","2019","06","19","13:00","15.1","","6.6","","57","","","","24","","16","","24.1","","96.83","","","","","","NA"
"-117.16","58.62","HIGH LEVEL A","3073141","2019-06-19 14:00","2019","06","19","14:00","16.7","","5.4","","47","","","","22","","12","","19.3","","96.87","","","","","","Mostly Cloudy"
"-117.16","58.62","HIGH LEVEL A","3073141","2019-06-19 15:00","2019","06","19","15:00","16.8","","5.8","","48","","","","25","","13","","19.3","","96.89","","","","","","NA"
"-117.16","58.62","HIGH LEVEL A","3073141","2019-06-19 16:00","2019","06","19","16:00","16.7","","5.8","","48","","","","29","","13","","24.1","","96.91","","","","","","NA"
"-117.16","58.62","HIGH LEVEL A","3073141","2019-06-19 17:00","2019","06","19","17:00","16.5","","5.8","","49","","","","29","","5","","19.3","","97.00","","","","","","Mostly Cloudy"
"-117.16","58.62","HIGH LEVEL A","3073141","2019-06-19 18:00","2019","06","19","18:00","16.6","","7.3","","54","","","","31","","13","","24.1","","97.06","","","","","","NA"
"-117.16","58.62","HIGH LEVEL A","3073141","2019-06-19 19:00","2019","06","19","19:00","15.7","","6.5","","54","","","","30","","13","","24.1","","97.14","","","","","","NA"
"-117.16","58.62","HIGH LEVEL A","3073141","2019-06-19 20:00","2019","06","19","20:00","14.1","","6.7","","61","","","","32","","9","","24.1","","97.21","","","","","","Mainly Clear"
"-117.16","58.62","HIGH LEVEL A","3073141","2019-06-19 21:00","2019","06","19","21:00","12.5","","7.2","","70","","","","29","","9","","24.1","","97.25","","","","","","NA"
"-117.16","58.62","HIGH LEVEL A","3073141","2019-06-19 22:00","2019","06","19","22:00"
"-117.16","58.62","HIGH LEVEL A","3073141","2019-06-19 23:00","2019","06","19","23:00"
"-117.16","58.62","HIGH LEVEL A","3073141","2019-06-20 00:00","2019","06","20","00:00"
"-117.16","58.62","HIGH LEVEL A","3073141","2019-06-20 01:00","2019","06","20","01:00"
"-117.16","58.62","HIGH LEVEL A","3073141","2019-06-20 02:00","2019","06","20","02:00"
"-117.16","58.62","HIGH LEVEL A","3073141","2019-06-20 03:00","2019","06","20","03:00"
"-117.16","58.62","HIGH LEVEL A","3073141","2019-06-20 04:00","2019","06","20","04:00"
"-117.16","58.62","HIGH LEVEL A","3073141","2019-06-20 05:00","2019","06","20","05:00"
"-117.16","58.62","HIGH LEVEL A","3073141","2019-06-20 06:00","2019","06","20","06:00","9.1","","6.9","","86","","","","34","","28","","16.1","","97.58","","","","","","NA"
"-117.16","58.62","HIGH LEVEL A","3073141","2019-06-20 07:00","2019","06","20","07:00","9.3","","6.7","","84","","","","35","","26","","16.1","","97.61","","","","","","NA"
"-117.16","58.62","HIGH LEVEL A","3073141","2019-06-20 08:00","2019","06","20","08:00","9.8","","7.0","","83","","","","35","","25","","16.1","","97.66","","","","","","Cloudy"
"-117.16","58.62","HIGH LEVEL A","3073141","2019-06-20 09:00","2019","06","20","09:00","10.9","","7.5","","80","","","","35","","23","","16.1","","97.70","","","","","","NA"
"-117.16","58.62","HIGH LEVEL A","3073141","2019-06-20 10:00","2019","06","20","10:00","11.6","","7.7","","77","","","","36","","30","","16.1","","97.75","","","","","","NA"
"-117.16","58.62","HIGH LEVEL A","3073141","2019-06-20 11:00","2019","06","20","11:00","12.2","","7.8","","74","","","","35","","31","","16.1","","97.75","","","","","","Cloudy"
"-117.16","58.62","HIGH LEVEL A","3073141","2019-06-20 12:00","2019","06","20","12:00","13.0","","8.1","","72","","","","36","","19","","24.1","","97.78","","","","","","NA"
"-117.16","58.62","HIGH LEVEL A","3073141","2019-06-20 13:00","2019","06","20","13:00","13.8","","8.6","","70","","","","1","","9","","16.1","","97.83","","","","","","Rain Showers"
"-117.16","58.62","HIGH LEVEL A","3073141","2019-06-20 14:00","2019","06","20","14:00","15.3","","8.6","","64","","","","33","","16","","24.1","","97.80","","","","","","Rain Showers"
"-117.16","58.62","HIGH LEVEL A","3073141","2019-06-20 15:00","2019","06","20","15:00","15.6","","9.0","","65","","","","34","","18","","24.1","","97.80","","","","","","Rain Showers"
"-117.16","58.62","HIGH LEVEL A","3073141","2019-06-20 16:00","2019","06","20","16:00","16.6","","9.5","","63","","","","33","","14","","24.1","","97.84","","","","","","NA"
"-117.16","58.62","HIGH LEVEL A","3073141","2019-06-20 17:00","2019","06","20","17:00","16.1","","10.0","","67","","","","32","","16","","24.1","","97.88","","","","","","Mostly Cloudy"
"-117.16","58.62","HIGH LEVEL A","3073141","2019-06-20 18:00","2019","06","20","18:00","14.5","","10.6","","77","","","","32","","12","","24.1","","97.91","","","","","","Rain Showers"
"-117.16","58.62","HIGH LEVEL A","3073141","2019-06-20 19:00","2019","06","20","19:00","12.9","","11.3","","90","","","","34","","11","","9.7","","97.95","","","","","","Rain Showers"
"-117.16","58.62","HIGH LEVEL A","3073141","2019-06-20 20:00","2019","06","20","20:00","11.9","","10.2","","89","","","","36","","21","","16.1","","97.95","","","","","","Rain Showers"
"-117.16","58.62","HIGH LEVEL A","3073141","2019-06-20 21:00","2019","06","20","21:00","11.4","","10.0","","91","","","","1","","18","","16.1","","97.99","","","","","","Rain Showers"
"-117.16","58.62","HIGH LEVEL A","3073141","2019-06-20 22:00","2019","06","20","22:00"
"-117.16","58.62","HIGH LEVEL A","3073141","2019-06-20 23:00","2019","06","20","23:00"
"-117.16","58.62","HIGH LEVEL A","3073141","2019-06-21 00:00","2019","06","21","00:00"
"-117.16","58.62","HIGH LEVEL A","3073141","2019-06-21 01:00","2019","06","21","01:00"
"-117.16","58.62","HIGH LEVEL A","3073141","2019-06-21 02:00","2019","06","21","02:00"
"-117.16","58.62","HIGH LEVEL A","3073141","2019-06-21 03:00","2019","06","21","03:00"
"-117.16","58.62","HIGH LEVEL A","3073141","2019-06-21 04:00","2019","06","21","04:00"
"-117.16","58.62","HIGH LEVEL A","3073141","2019-06-21 05:00","2019","06","21","05:00"
"-117.16","58.62","HIGH LEVEL A","3073141","2019-06-21 06:00","2019","06","21","06:00","10.1","","9.7","","97","","","","33","","14","","4.8","","98.00","","","","","","Rain Showers"
"-117.16","58.62","HIGH LEVEL A","3073141","2019-06-21 07:00","2019","06","21","07:00","10.1","","9.7","","97","","","","34","","15","","9.7","","97.97","","","","","","Rain Showers"
"-117.16","58.62","HIGH LEVEL A","3073141","2019-06-21 08:00","2019","06","21","08:00","10.3","","9.8","","97","","","","33","","17","","4.8","","97.94","","","","","","Rain Showers"
"-117.16","58.62","HIGH LEVEL A","3073141","2019-06-21 09:00","2019","06","21","09:00","10.7","","10.2","","97","","","","35","","17","","4.8","","97.92","","","","","","Rain Showers"
"-117.16","58.62","HIGH LEVEL A","3073141","2019-06-21 10:00","2019","06","21","10:00","12.1","","11.0","","93","","","","34","","18","","9.7","","97.94","","","","","","Rain Showers"
"-117.16","58.62","HIGH LEVEL A","3073141","2019-06-21 11:00","2019","06","21","11:00","12.4","","11.0","","91","","","","34","","17","","16.1","","97.93","","","","","","Rain Showers"
"-117.16","58.62","HIGH LEVEL A","3073141","2019-06-21 12:00","2019","06","21","12:00","12.7","","11.6","","93","","","","32","","10","","16.1","","97.93","","","","","","Rain Showers"
"-117.16","58.62","HIGH LEVEL A","3073141","2019-06-21 13:00","2019","06","21","13:00","13.6","","12.3","","92","","","","34","","14","","16.1","","97.91","","","","","","Rain Showers"
"-117.16","58.62","HIGH LEVEL A","3073141","2019-06-21 14:00","2019","06","21","14:00","13.2","","11.9","","92","","","","3","","10","","24.1","","97.90","","","","","","Rain Showers"
"-117.16","58.62","HIGH LEVEL A","3073141","2019-06-21 15:00","2019","06","21","15:00","12.8","","12.0","","95","","","","35","","11","","16.1","","97.91","","","","","","Rain Showers"
"-117.16","58.62","HIGH LEVEL A","3073141","2019-06-21 16:00","2019","06","21","16:00","13.3","","12.2","","93","","","","35","","12","","16.1","","97.92","","","","","","Rain"
"-117.16","58.62","HIGH LEVEL A","3073141","2019-06-21 17:00","2019","06","21","17:00","13.9","","12.3","","90","","","","34","","11","","16.1","","97.87","","","","","","Cloudy"
"-117.16","58.62","HIGH LEVEL A","3073141","2019-06-21 18:00","2019","06","21","18:00","13.5","","12.2","","92","","","","31","","7","","19.3","","97.85","","","","","","Rain"
"-117.16","58.62","HIGH LEVEL A","3073141","2019-06-21 19:00","2019","06","21","19:00","13.3","","12.4","","94","","","","33","","7","","19.3","","97.84","","","","","","NA"
"-117.16","58.62","HIGH LEVEL A","3073141","2019-06-21 20:00","2019","06","21","20:00","13.2","","12.3","","94","","","","31","","5","","16.1","","97.82","","","","","","Cloudy"
"-117.16","58.62","HIGH LEVEL A","3073141","2019-06-21 21:00","2019","06","21","21:00","12.8","","12.2","","96","","","","36","","1","","16.1","","97.81","","","","","","NA"
"-117.16","58.62","HIGH LEVEL A","3073141","2019-06-21 22:00","2019","06","21","22:00"
"-117.16","58.62","HIGH LEVEL A","3073141","2019-06-21 23:00","2019","06","21","23:00"
"-117.16","58.62","HIGH LEVEL A","3073141","2019-06-22 00:00","2019","06","22","00:00"
"-117.16","58.62","HIGH LEVEL A","3073141","2019-06-22 01:00","2019","06","22","01:00"
"-117.16","58.62","HIGH LEVEL A","3073141","2019-06-22 02:00","2019","06","22","02:00"
"-117.16","58.62","HIGH LEVEL A","3073141","2019-06-22 03:00","2019","06","22","03:00"
"-117.16","58.62","HIGH LEVEL A","3073141","2019-06-22 04:00","2019","06","22","04:00"
"-117.16","58.62","HIGH LEVEL A","3073141","2019-06-22 05:00","2019","06","22","05:00"
"-117.16","58.62","HIGH LEVEL A","3073141","2019-06-22 06:00","2019","06","22","06:00","11.0","","10.8","","99","","","","17","","3","","0.0","","97.53","","","","","","Fog"
"-117.16","58.62","HIGH LEVEL A","3073141","2019-06-22 07:00","2019","06","22","07:00","10.9","","10.8","","99","","","","17","","7","","1.2","","97.51","","","","","","Fog"
"-117.16","58.62","HIGH LEVEL A","3073141","2019-06-22 08:00","2019","06","22","08:00","11.8","","11.4","","97","","","","23","","7","","2.4","","97.47","","","","","","Fog"
"-117.16","58.62","HIGH LEVEL A","3073141","2019-06-22 09:00","2019","06","22","09:00","11.8","","11.2","","96","","","","16","","9","","0.4","","97.43","","","","","","Fog,Smoke"
"-117.16","58.62","HIGH LEVEL A","3073141","2019-06-22 10:00","2019","06","22","10:00","14.0","","12.2","","89","","","","15","","7","","0.8","","97.38","","","","","","Fog,Smoke"
"-117.16","58.62","HIGH LEVEL A","3073141","2019-06-22 11:00","2019","06","22","11:00","16.0","","11.8","","76","","","","18","","12","","0.4","","97.33","","","","","","Smoke"
"-117.16","58.62","HIGH LEVEL A","3073141","2019-06-22 12:00","2019","06","22","12:00","16.3","","12.0","","76","","","","15","","13","","0.4","","97.30","","","","","","Smoke"
"-117.16","58.62","HIGH LEVEL A","3073141","2019-06-22 13:00","2019","06","22","13:00","17.2","","12.5","","74","","","","13","","11","","0.8","","97.25","","","","","","Smoke"
"-117.16","58.62","HIGH LEVEL A","3073141","2019-06-22 14:00","2019","06","22","14:00","19.3","","12.1","","63","","","","14","","17","","2.0","","97.17","","","","","","Smoke"
"-117.16","58.62","HIGH LEVEL A","3073141","2019-06-22 15:00","2019","06","22","15:00","19.8","","12.1","","61","","","","14","","21","","3.6","","97.12","","","","","","Smoke"
"-117.16","58.62","HIGH LEVEL A","3073141","2019-06-22 16:00","2019","06","22","16:00","20.2","","11.5","","57","","","","11","","19","","4.8","","97.07","","","","","","Smoke"
"-117.16","58.62","HIGH LEVEL A","3073141","2019-06-22 17:00","2019","06","22","17:00","20.5","","10.3","","52","","","","11","","16","","6.4","","97.02","","","","","","Smoke"
"-117.16","58.62","HIGH LEVEL A","3073141","2019-06-22 18:00","2019","06","22","18:00","19.8","","9.9","","53","","","","14","","9","","8.1","","97.02","","","","","","Smoke"
"-117.16","58.62","HIGH LEVEL A","3073141","2019-06-22 19:00","2019","06","22","19:00","17.5","","10.6","","64","","","","35","","5","","12.9","","97.05","","","","","","Thunderstorms"
"-117.16","58.62","HIGH LEVEL A","3073141","2019-06-22 20:00","2019","06","22","20:00","16.2","","13.1","","82","","","","36","","3","","12.9","","96.97","","","","","","Mostly Cloudy"
"-117.16","58.62","HIGH LEVEL A","3073141","2019-06-22 21:00","2019","06","22","21:00","14.6","","12.7","","88","","","","3","","3","","12.9","","96.99","","","","","","NA"
"-117.16","58.62","HIGH LEVEL A","3073141","2019-06-22 22:00","2019","06","22","22:00"
"-117.16","58.62","HIGH LEVEL A","3073141","2019-06-22 23:00","2019","06","22","23:00"
"-117.16","58.62","HIGH LEVEL A","3073141","2019-06-23 00:00","2019","06","23","00:00"
"-117.16","58.62","HIGH LEVEL A","3073141","2019-06-23 01:00","2019","06","23","01:00"
"-117.16","58.62","HIGH LEVEL A","3073141","2019-06-23 02:00","2019","06","23","02:00"
"-117.16","58.62","HIGH LEVEL A","3073141","2019-06-23 03:00","2019","06","23","03:00"
"-117.16","58.62","HIGH LEVEL A","3073141","2019-06-23 04:00","2019","06","23","04:00"
"-117.16","58.62","HIGH LEVEL A","3073141","2019-06-23 05:00","2019","06","23","05:00"
"-117.16","58.62","HIGH LEVEL A","3073141","2019-06-23 06:00","2019","06","23","06:00","12.3","","10.2","","87","","","","35","","7","","8.1","","96.92","","","","","","Fog"
"-117.16","58.62","HIGH LEVEL A","3073141","2019-06-23 07:00","2019","06","23","07:00","13.2","","10.6","","84","","","","1","","5","","9.7","","96.90","","","","","","Fog"
"-117.16","58.62","HIGH LEVEL A","3073141","2019-06-23 08:00","2019","06","23","08:00","15.0","","12.2","","83","","","","36","","14","","9.7","","96.87","","","","","","Smoke"
"-117.16","58.62","HIGH LEVEL A","3073141","2019-06-23 09:00","2019","06","23","09:00","17.5","","11.9","","69","","","","36","","14","","8.1","","96.86","","","","","","Smoke"
"-117.16","58.62","HIGH LEVEL A","3073141","2019-06-23 10:00","2019","06","23","10:00","19.5","","13.0","","66","","","","33","","11","","9.7","","96.85","","","","","","Smoke"
"-117.16","58.62","HIGH LEVEL A","3073141","2019-06-23 11:00","2019","06","23","11:00","20.0","","11.6","","58","","","","33","","12","","9.7","","96.82","","","","","","Smoke"
"-117.16","58.62","HIGH LEVEL A","3073141","2019-06-23 12:00","2019","06","23","12:00","22.0","","12.0","","53","","","","32","","15","","11.3","","96.77","","","","","","NA"
"-117.16","58.62","HIGH LEVEL A","3073141","2019-06-23 13:00","2019","06","23","13:00","21.5","","9.1","","45","","","","36","","17","","11.3","","96.74","","","","","","NA"
"-117.16","58.62","HIGH LEVEL A","3073141","2019-06-23 14:00","2019","06","23","14:00","22.8","","10.3","","45","","","","34","","18","","12.9","","96.70","","","","","","Mostly Cloudy"
"-117.16","58.62","HIGH LEVEL A","3073141","2019-06-23 15:00","2019","06","23","15:00","22.7","","9.6","","43","","","","31","","17","","16.1","","96.67","","","","","","NA"
"-117.16","58.62","HIGH LEVEL A","3073141","2019-06-23 16:00","2019","06","23","16:00","22.2","","9.3","","43","","","","34","","16","","24.1","","96.69","","","","","","NA"
"-117.16","58.62","HIGH LEVEL A","3073141","2019-06-23 17:00","2019","06","23","17:00","21.0","","10.1","","49","","","","35","","16","","24.1","","96.70","","","","","","Cloudy"
"-117.16","58.62","HIGH LEVEL A","3073141","2019-06-23 18:00","2019","06","23","18:00","18.1","","12.2","","68","","","","9","","18","","24.1","","96.79","","","","","","NA"
"-117.16","58.62","HIGH LEVEL A","3073141","2019-06-23 19:00","2019","06","23","19:00","14.4","","13.1","","92","","","","14","","12","","24.1","","96.84","","","","","","Rain Showers"
"-117.16","58.62","HIGH LEVEL A","3073141","2019-06-23 20:00","2019","06","23","20:00","14.5","","13.9","","96","","","","25","","8","","24.1","","96.81","","","","","","Rain Showers"
"-117.16","58.62","HIGH LEVEL A","3073141","2019-06-23 21:00","2019","06","23","21:00","14.2","","13.4","","95","","","","36","","1","","19.3","","96.85","","","","","","NA"
"-117.16","58.62","HIGH LEVEL A","3073141","2019-06-23 22:00","2019","06","23","22:00"
"-117.16","58.62","HIGH LEVEL A","3073141","2019-06-23 23:00","2019","06","23","23:00"
"-117.16","58.62","HIGH LEVEL A","3073141","2019-06-24 00:00","2019","06","24","00:00"
"-117.16","58.62","HIGH LEVEL A","3073141","2019-06-24 01:00","2019","06","24","01:00"
"-117.16","58.62","HIGH LEVEL A","3073141","2019-06-24 02:00","2019","06","24","02:00"
"-117.16","58.62","HIGH LEVEL A","3073141","2019-06-24 03:00","2019","06","24","03:00"
"-117.16","58.62","HIGH LEVEL A","3073141","2019-06-24 04:00","2019","06","24","04:00"
"-117.16","58.62","HIGH LEVEL A","3073141","2019-06-24 05:00","2019","06","24","05:00"
"-117.16","58.62","HIGH LEVEL A","3073141","2019-06-24 06:00","2019","06","24","06:00","13.4","","12.1","","92","","","","36","","13","","24.1","","96.92","","","","","","NA"
"-117.16","58.62","HIGH LEVEL A","3073141","2019-06-24 07:00","2019","06","24","07:00","13.9","","12.2","","89","","","","35","","15","","24.1","","96.92","","","","","","NA"
"-117.16","58.62","HIGH LEVEL A","3073141","2019-06-24 08:00","2019","06","24","08:00","14.0","","12.2","","89","","","","36","","14","","24.1","","96.94","","","","","","Cloudy"
"-117.16","58.62","HIGH LEVEL A","3073141","2019-06-24 09:00","2019","06","24","09:00","15.0","","12.3","","84","","","","35","","14","","24.1","","96.94","","","","","","NA"
"-117.16","58.62","HIGH LEVEL A","3073141","2019-06-24 10:00","2019","06","24","10:00","15.8","","12.8","","82","","","","1","","13","","24.1","","96.96","","","","","","NA"
"-117.16","58.62","HIGH LEVEL A","3073141","2019-06-24 11:00","2019","06","24","11:00","18.1","","13.4","","74","","","","35","","8","","24.1","","96.96","","","","","","Mostly Cloudy"
"-117.16","58.62","HIGH LEVEL A","3073141","2019-06-24 12:00","2019","06","24","12:00","19.7","","13.6","","68","","","","1","","13","","24.1","","96.92","","","","","","NA"
"-117.16","58.62","HIGH LEVEL A","3073141","2019-06-24 13:00","2019","06","24","13:00","21.3","","12.5","","57","","","","35","","13","","24.1","","96.86","","","","","","NA"
"-117.16","58.62","HIGH LEVEL A","3073141","2019-06-24 14:00","2019","06","24","14:00","20.8","","11.9","","56","","","","35","","11","","24.1","","96.86","","","","","","Thunderstorms"
"-117.16","58.62","HIGH LEVEL A","3073141","2019-06-24 15:00","2019","06","24","15:00","15.0","","12.9","","87","","","","29","","5","","12.9","","96.89","","","","","","Thunderstorms,Rain Showers"
"-117.16","58.62","HIGH LEVEL A","3073141","2019-06-24 16:00","2019","06","24","16:00","16.9","","14.0","","83","","","","30","","7","","24.1","","96.90","","","","","","NA"
"-117.16","58.62","HIGH LEVEL A","3073141","2019-06-24 17:00","2019","06","24","17:00","18.8","","12.1","","65","","","","33","","16","","24.1","","96.84","","","","","","Mostly Cloudy"
"-117.16","58.62","HIGH LEVEL A","3073141","2019-06-24 18:00","2019","06","24","18:00","18.1","","12.0","","67","","","","33","","19","","24.1","","96.85","","","","","","NA"
"-117.16","58.62","HIGH LEVEL A","3073141","2019-06-24 19:00","2019","06","24","19:00","18.5","","11.9","","65","","","","34","","13","","24.1","","96.89","","","","","","NA"
"-117.16","58.62","HIGH LEVEL A","3073141","2019-06-24 20:00","2019","06","24","20:00","18.2","","11.9","","66","","","","34","","10","","24.1","","96.89","","","","","","Mostly Cloudy"
"-117.16","58.62","HIGH LEVEL A","3073141","2019-06-24 21:00","2019","06","24","21:00","14.5","","13.0","","90","","","","11","","12","","9.7","","97.01","","","","","","Rain Showers"
"-117.16","58.62","HIGH LEVEL A","3073141","2019-06-24 22:00","2019","06","24","22:00"
"-117.16","58.62","HIGH LEVEL A","3073141","2019-06-24 23:00","2019","06","24","23:00"
"-117.16","58.62","HIGH LEVEL A","3073141","2019-06-25 00:00","2019","06","25","00:00"
"-117.16","58.62","HIGH LEVEL A","3073141","2019-06-25 01:00","2019","06","25","01:00"
"-117.16","58.62","HIGH LEVEL A","3073141","2019-06-25 02:00","2019","06","25","02:00"
"-117.16","58.62","HIGH LEVEL A","3073141","2019-06-25 03:00","2019","06","25","03:00"
"-117.16","58.62","HIGH LEVEL A","3073141","2019-06-25 04:00","2019","06","25","04:00"
"-117.16","58.62","HIGH LEVEL A","3073141","2019-06-25 05:00","2019","06","25","05:00"
"-117.16","58.62","HIGH LEVEL A","3073141","2019-06-25 06:00","2019","06","25","06:00","13.4","","11.6","","89","","","","35","","10","","24.1","","97.07","","","","","","NA"
"-117.16","58.62","HIGH LEVEL A","3073141","2019-06-25 07:00","2019","06","25","07:00","13.6","","11.6","","88","","","","35","","13","","24.1","","97.11","","","","","","NA"
"-117.16","58.62","HIGH LEVEL A","3073141","2019-06-25 08:00","2019","06","25","08:00","14.6","","11.8","","83","","","","35","","10","","24.1","","97.12","","","","","","Mostly Cloudy"
"-117.16","58.62","HIGH LEVEL A","3073141","2019-06-25 09:00","2019","06","25","09:00","16.4","","12.5","","78","","","","33","","13","","24.1","","97.13","","","","","","NA"
"-117.16","58.62","HIGH LEVEL A","3073141","2019-06-25 10:00","2019","06","25","10:00","17.1","","12.5","","74","","","","35","","12","","24.1","","97.15","","","","","","NA"
"-117.16","58.62","HIGH LEVEL A","3073141","2019-06-25 11:00","2019","06","25","11:00","19.9","","12.2","","61","","","","32","","14","","24.1","","97.10","","","","","","Mainly Clear"
"-117.16","58.62","HIGH LEVEL A","3073141","2019-06-25 12:00","2019","06","25","12:00","20.8","","10.4","","51","","","","33","","9","","24.1","","97.06","","","","","","NA"
"-117.16","58.62","HIGH LEVEL A","3073141","2019-06-25 13:00","2019","06","25","13:00","21.9","","11.1","","50","","","","36","","13","","24.1","","97.02","","","","","","NA"
"-117.16","58.62","HIGH LEVEL A","3073141","2019-06-25 14:00","2019","06","25","14:00","21.1","","10.0","","49","","","","35","","15","","24.1","","96.99","","","","","","Mostly Cloudy"
"-117.16","58.62","HIGH LEVEL A","3073141","2019-06-25 15:00","2019","06","25","15:00","20.3","","12.3","","60","","","","34","","20","","24.1","","97.01","","","","","","NA"
"-117.16","58.62","HIGH LEVEL A","3073141","2019-06-25 16:00","2019","06","25","16:00","21.0","","13.1","","60","","","","34","","10","","24.1","","97.02","","","","","","NA"
"-117.16","58.62","HIGH LEVEL A","3073141","2019-06-25 17:00","2019","06","25","17:00","21.0","","11.0","","52","","","","10","","14","","24.1","","97.04","","","","","","Mostly Cloudy"
"-117.16","58.62","HIGH LEVEL A","3073141","2019-06-25 18:00","2019","06","25","18:00","20.4","","9.3","","48","","","","8","","14","","24.1","","97.09","","","","","","NA"
"-117.16","58.62","HIGH LEVEL A","3073141","2019-06-25 19:00","2019","06","25","19:00","18.3","","13.0","","71","","","","33","","7","","24.1","","97.08","","","","","","NA"
"-117.16","58.62","HIGH LEVEL A","3073141","2019-06-25 20:00","2019","06","25","20:00","17.6","","11.8","","69","","","","5","","7","","24.1","","97.10","","","","","","Mostly Cloudy"
"-117.16","58.62","HIGH LEVEL A","3073141","2019-06-25 21:00","2019","06","25","21:00","16.3","","12.9","","80","","","","33","","5","","24.1","","97.14","","","","","","NA"
"-117.16","58.62","HIGH LEVEL A","3073141","2019-06-25 22:00","2019","06","25","22:00"
"-117.16","58.62","HIGH LEVEL A","3073141","2019-06-25 23:00","2019","06","25","23:00"
"-117.16","58.62","HIGH LEVEL A","3073141","2019-06-26 00:00","2019","06","26","00:00"
"-117.16","58.62","HIGH LEVEL A","3073141","2019-06-26 01:00","2019","06","26","01:00"
"-117.16","58.62","HIGH LEVEL A","3073141","2019-06-26 02:00","2019","06","26","02:00"
"-117.16","58.62","HIGH LEVEL A","3073141","2019-06-26 03:00","2019","06","26","03:00"
"-117.16","58.62","HIGH LEVEL A","3073141","2019-06-26 04:00","2019","06","26","04:00"
"-117.16","58.62","HIGH LEVEL A","3073141","2019-06-26 05:00","2019","06","26","05:00"
"-117.16","58.62","HIGH LEVEL A","3073141","2019-06-26 06:00","2019","06","26","06:00","11.8","","10.1","","89","","","","36","","1","","24.1","","97.38","","","","","","NA"
"-117.16","58.62","HIGH LEVEL A","3073141","2019-06-26 07:00","2019","06","26","07:00","14.8","","11.5","","81","","","","36","","6","","24.1","","97.41","","","","","","NA"
"-117.16","58.62","HIGH LEVEL A","3073141","2019-06-26 08:00","2019","06","26","08:00","16.9","","11.9","","72","","","","36","","7","","24.1","","97.43","","","","","","Clear"
"-117.16","58.62","HIGH LEVEL A","3073141","2019-06-26 09:00","2019","06","26","09:00","18.8","","10.1","","57","","","","34","","8","","24.1","","97.44","","","","","","NA"
"-117.16","58.62","HIGH LEVEL A","3073141","2019-06-26 10:00","2019","06","26","10:00","20.6","","8.4","","45","","","","31","","6","","24.1","","97.43","","","","","","NA"
"-117.16","58.62","HIGH LEVEL A","3073141","2019-06-26 11:00","2019","06","26","11:00","21.7","","6.5","","37","","","","36","","12","","24.1","","97.41","","","","","","Mainly Clear"
"-117.16","58.62","HIGH LEVEL A","3073141","2019-06-26 12:00","2019","06","26","12:00","22.6","","1.5","","25","","","","2","","9","","24.1","","97.41","","","","","","NA"
"-117.16","58.62","HIGH LEVEL A","3073141","2019-06-26 13:00","2019","06","26","13:00","23.3","","1.7","","24","","","","2","","16","","24.1","","97.39","","","","","","NA"
"-117.16","58.62","HIGH LEVEL A","3073141","2019-06-26 14:00","2019","06","26","14:00","23.9","","4.2","","27","","","","33","","7","","24.1","","97.38","","","","","","Mainly Clear"
"-117.16","58.62","HIGH LEVEL A","3073141","2019-06-26 15:00","2019","06","26","15:00","24.3","","0.6","","21","","","","3","","9","","24.1","","97.38","","","","","","NA"
"-117.16","58.62","HIGH LEVEL A","3073141","2019-06-26 16:00","2019","06","26","16:00","23.8","","5.0","","29","","","","5","","12","","24.1","","97.38","","","","","","NA"
"-117.16","58.62","HIGH LEVEL A","3073141","2019-06-26 17:00","2019","06","26","17:00","24.3","","5.9","","30","","","","5","","16","","24.1","","97.40","","","","","","Mostly Cloudy"
"-117.16","58.62","HIGH LEVEL A","3073141","2019-06-26 18:00","2019","06","26","18:00","23.7","","5.9","","31","","","","6","","10","","24.1","","97.41","","","","","","NA"
"-117.16","58.62","HIGH LEVEL A","3073141","2019-06-26 19:00","2019","06","26","19:00","22.5","","6.1","","34","","","","2","","8","","24.1","","97.44","","","","","","NA"
"-117.16","58.62","HIGH LEVEL A","3073141","2019-06-26 20:00","2019","06","26","20:00","23.8","","3.1","","26","","","","3","","17","","24.1","","97.49","","","","","","Mostly Cloudy"
"-117.16","58.62","HIGH LEVEL A","3073141","2019-06-26 21:00","2019","06","26","21:00","20.7","","7.3","","42","","","","6","","5","","24.1","","97.56","","","","","","NA"
"-117.16","58.62","HIGH LEVEL A","3073141","2019-06-26 22:00","2019","06","26","22:00"
"-117.16","58.62","HIGH LEVEL A","3073141","2019-06-26 23:00","2019","06","26","23:00"
"-117.16","58.62","HIGH LEVEL A","3073141","2019-06-27 00:00","2019","06","27","00:00"
"-117.16","58.62","HIGH LEVEL A","3073141","2019-06-27 01:00","2019","06","27","01:00"
"-117.16","58.62","HIGH LEVEL A","3073141","2019-06-27 02:00","2019","06","27","02:00"
"-117.16","58.62","HIGH LEVEL A","3073141","2019-06-27 03:00","2019","06","27","03:00"
"-117.16","58.62","HIGH LEVEL A","3073141","2019-06-27 04:00","2019","06","27","04:00"
"-117.16","58.62","HIGH LEVEL A","3073141","2019-06-27 05:00","2019","06","27","05:00"
"-117.16","58.62","HIGH LEVEL A","3073141","2019-06-27 06:00","2019","06","27","06:00","12.1","","10.2","","88","","","","36","","22","","24.1","","98.09","","","","","","Rain"
"-117.16","58.62","HIGH LEVEL A","3073141","2019-06-27 07:00","2019","06","27","07:00","11.9","","9.8","","87","","","","35","","19","","24.1","","98.12","","","","","","Rain"
"-117.16","58.62","HIGH LEVEL A","3073141","2019-06-27 08:00","2019","06","27","08:00","12.1","","9.6","","84","","","","35","","18","","24.1","","98.17","","","","","","Cloudy"
"-117.16","58.62","HIGH LEVEL A","3073141","2019-06-27 09:00","2019","06","27","09:00","12.2","","9.5","","83","","","","35","","19","","24.1","","98.20","","","","","","NA"
"-117.16","58.62","HIGH LEVEL A","3073141","2019-06-27 10:00","2019","06","27","10:00","13.1","","9.7","","80","","","","35","","16","","24.1","","98.23","","","","","","NA"
"-117.16","58.62","HIGH LEVEL A","3073141","2019-06-27 11:00","2019","06","27","11:00","13.5","","9.6","","77","","","","35","","18","","24.1","","98.23","","","","","","Mostly Cloudy"
"-117.16","58.62","HIGH LEVEL A","3073141","2019-06-27 12:00","2019","06","27","12:00","15.0","","10.5","","74","","","","36","","16","","24.1","","98.24","","","","","","NA"
"-117.16","58.62","HIGH LEVEL A","3073141","2019-06-27 13:00","2019","06","27","13:00","16.8","","10.6","","67","","","","33","","16","","24.1","","98.23","","","","","","NA"
"-117.16","58.62","HIGH LEVEL A","3073141","2019-06-27 14:00","2019","06","27","14:00","18.5","","11.1","","62","","","","32","","10","","24.1","","98.21","","","","","","Mostly Cloudy"
"-117.16","58.62","HIGH LEVEL A","3073141","2019-06-27 15:00","2019","06","27","15:00","18.7","","11.6","","63","","","","4","","9","","24.1","","98.21","","","","","","NA"
"-117.16","58.62","HIGH LEVEL A","3073141","2019-06-27 16:00","2019","06","27","16:00","19.7","","11.4","","58","","","","1","","14","","24.1","","98.18","","","","","","NA"
"-117.16","58.62","HIGH LEVEL A","3073141","2019-06-27 17:00","2019","06","27","17:00","19.8","","11.9","","60","","","","36","","12","","24.1","","98.17","","","","","","Mostly Cloudy"
"-117.16","58.62","HIGH LEVEL A","3073141","2019-06-27 18:00","2019","06","27","18:00","20.1","","11.9","","59","","","","33","","16","","24.1","","98.14","","","","","","NA"
"-117.16","58.62","HIGH LEVEL A","3073141","2019-06-27 19:00","2019","06","27","19:00","19.4","","11.4","","59","","","","35","","18","","24.1","","98.15","","","","","","NA"
"-117.16","58.62","HIGH LEVEL A","3073141","2019-06-27 20:00","2019","06","27","20:00","17.7","","10.7","","63","","","","35","","14","","24.1","","98.22","","","","","","Mainly Clear"
"-117.16","58.62","HIGH LEVEL A","3073141","2019-06-27 21:00","2019","06","27","21:00","16.5","","10.7","","68","","","","35","","15","","24.1","","98.22","","","","","","NA"
"-117.16","58.62","HIGH LEVEL A","3073141","2019-06-27 22:00","2019","06","27","22:00"
"-117.16","58.62","HIGH LEVEL A","3073141","2019-06-27 23:00","2019","06","27","23:00"
"-117.16","58.62","HIGH LEVEL A","3073141","2019-06-28 00:00","2019","06","28","00:00"
"-117.16","58.62","HIGH LEVEL A","3073141","2019-06-28 01:00","2019","06","28","01:00"
"-117.16","58.62","HIGH LEVEL A","3073141","2019-06-28 02:00","2019","06","28","02:00"
"-117.16","58.62","HIGH LEVEL A","3073141","2019-06-28 03:00","2019","06","28","03:00"
"-117.16","58.62","HIGH LEVEL A","3073141","2019-06-28 04:00","2019","06","28","04:00"
"-117.16","58.62","HIGH LEVEL A","3073141","2019-06-28 05:00","2019","06","28","05:00"
"-117.16","58.62","HIGH LEVEL A","3073141","2019-06-28 06:00","2019","06","28","06:00","10.5","","8.9","","90","","","","36","","11","","24.1","","98.14","","","","","","NA"
"-117.16","58.62","HIGH LEVEL A","3073141","2019-06-28 07:00","2019","06","28","07:00","13.4","","10.2","","81","","","","35","","10","","24.1","","98.11","","","","","","NA"
"-117.16","58.62","HIGH LEVEL A","3073141","2019-06-28 08:00","2019","06","28","08:00","16.3","","10.6","","69","","","","8","","5","","24.1","","98.07","","","","","","Mostly Cloudy"
"-117.16","58.62","HIGH LEVEL A","3073141","2019-06-28 09:00","2019","06","28","09:00","18.3","","11.0","","62","","","","14","","12","","24.1","","98.04","","","","","","NA"
"-117.16","58.62","HIGH LEVEL A","3073141","2019-06-28 10:00","2019","06","28","10:00","20.1","","12.1","","60","","","","13","","14","","24.1","","98.02","","","","","","NA"
"-117.16","58.62","HIGH LEVEL A","3073141","2019-06-28 11:00","2019","06","28","11:00","20.0","","11.3","","57","","","","13","","14","","24.1","","97.98","","","","","","Mostly Cloudy"
"-117.16","58.62","HIGH LEVEL A","3073141","2019-06-28 12:00","2019","06","28","12:00","22.0","","11.9","","52","","","","13","","13","","24.1","","97.92","","","","","","NA"
"-117.16","58.62","HIGH LEVEL A","3073141","2019-06-28 13:00","2019","06","28","13:00","22.2","","10.3","","46","","","","12","","16","","24.1","","97.85","","","","","","NA"
"-117.16","58.62","HIGH LEVEL A","3073141","2019-06-28 14:00","2019","06","28","14:00","23.7","","11.1","","45","","","","14","","12","","24.1","","97.77","","26","","","","Mostly Cloudy"
"-117.16","58.62","HIGH LEVEL A","3073141","2019-06-28 15:00","2019","06","28","15:00","24.4","","10.2","","40","","","","11","","15","","24.1","","97.69","","26","","","","NA"
"-117.16","58.62","HIGH LEVEL A","3073141","2019-06-28 16:00","2019","06","28","16:00","23.3","","9.2","","40","","","","3","","8","","24.1","","97.62","","","","","","NA"
"-117.16","58.62","HIGH LEVEL A","3073141","2019-06-28 17:00","2019","06","28","17:00","17.6","","10.3","","62","","","","31","","4","","24.1","","97.63","","","","","","Thunderstorms,Rain Showers"
"-117.16","58.62","HIGH LEVEL A","3073141","2019-06-28 18:00","2019","06","28","18:00","18.2","","13.6","","74","","","","22","","7","","24.1","","97.62","","","","","","Rain Showers"
"-117.16","58.62","HIGH LEVEL A","3073141","2019-06-28 19:00","2019","06","28","19:00","18.0","","13.2","","73","","","","15","","10","","24.1","","97.59","","","","","","NA"
"-117.16","58.62","HIGH LEVEL A","3073141","2019-06-28 20:00","2019","06","28","20:00","19.0","","12.7","","67","","","","7","","5","","24.1","","97.59","","","","","","Mostly Cloudy"
"-117.16","58.62","HIGH LEVEL A","3073141","2019-06-28 21:00","2019","06","28","21:00","17.8","","11.2","","65","","","","5","","9","","24.1","","97.57","","","","","","NA"
"-117.16","58.62","HIGH LEVEL A","3073141","2019-06-28 22:00","2019","06","28","22:00"
"-117.16","58.62","HIGH LEVEL A","3073141","2019-06-28 23:00","2019","06","28","23:00"
"-117.16","58.62","HIGH LEVEL A","3073141","2019-06-29 00:00","2019","06","29","00:00"
"-117.16","58.62","HIGH LEVEL A","3073141","2019-06-29 01:00","2019","06","29","01:00"
"-117.16","58.62","HIGH LEVEL A","3073141","2019-06-29 02:00","2019","06","29","02:00"
"-117.16","58.62","HIGH LEVEL A","3073141","2019-06-29 03:00","2019","06","29","03:00"
"-117.16","58.62","HIGH LEVEL A","3073141","2019-06-29 04:00","2019","06","29","04:00"
"-117.16","58.62","HIGH LEVEL A","3073141","2019-06-29 05:00","2019","06","29","05:00"
"-117.16","58.62","HIGH LEVEL A","3073141","2019-06-29 06:00","2019","06","29","06:00","12.4","","10.2","","86","","","","36","","2","","24.1","","97.41","","","","","","NA"
"-117.16","58.62","HIGH LEVEL A","3073141","2019-06-29 07:00","2019","06","29","07:00","14.5","","11.6","","83","","","","33","","9","","24.1","","97.40","","","","","","NA"
"-117.16","58.62","HIGH LEVEL A","3073141","2019-06-29 08:00","2019","06","29","08:00","17.2","","11.9","","71","","","","34","","13","","24.1","","97.38","","","","","","Mostly Cloudy"
"-117.16","58.62","HIGH LEVEL A","3073141","2019-06-29 09:00","2019","06","29","09:00","17.9","","11.7","","67","","","","34","","17","","24.1","","97.37","","","","","","NA"
"-117.16","58.62","HIGH LEVEL A","3073141","2019-06-29 10:00","2019","06","29","10:00","19.0","","10.5","","58","","","","4","","12","","24.1","","97.36","","","","","","NA"
"-117.16","58.62","HIGH LEVEL A","3073141","2019-06-29 11:00","2019","06","29","11:00","20.4","","9.5","","49","","","","6","","13","","24.1","","97.36","","","","","","Mostly Cloudy"
"-117.16","58.62","HIGH LEVEL A","3073141","2019-06-29 12:00","2019","06","29","12:00","21.4","","9.8","","47","","","","36","","13","","19.3","","97.31","","","","","","NA"
"-117.16","58.62","HIGH LEVEL A","3073141","2019-06-29 13:00","2019","06","29","13:00","22.0","","9.3","","44","","","","35","","11","","19.3","","97.24","","","","","","NA"
"-117.16","58.62","HIGH LEVEL A","3073141","2019-06-29 14:00","2019","06","29","14:00","18.7","","13.2","","70","","","","26","","4","","16.1","","97.30","","","","","","Mostly Cloudy"
"-117.16","58.62","HIGH LEVEL A","3073141","2019-06-29 15:00","2019","06","29","15:00","21.3","","11.3","","53","","","","28","","8","","24.1","","97.24","","","","","","NA"
"-117.16","58.62","HIGH LEVEL A","3073141","2019-06-29 16:00","2019","06","29","16:00","23.4","","4.9","","30","","","","1","","22","","24.1","","97.19","","","","","","NA"
"-117.16","58.62","HIGH LEVEL A","3073141","2019-06-29 17:00","2019","06","29","17:00","24.0","","5.4","","30","","","","1","","16","","24.1","","97.22","","","","","","Mainly Clear"
"-117.16","58.62","HIGH LEVEL A","3073141","2019-06-29 18:00","2019","06","29","18:00","22.2","","6.0","","35","","","","2","","15","","24.1","","97.26","","","","","","NA"
"-117.16","58.62","HIGH LEVEL A","3073141","2019-06-29 19:00","2019","06","29","19:00","22.7","","6.5","","35","","","","1","","10","","24.1","","97.25","","","","","","NA"
"-117.16","58.62","HIGH LEVEL A","3073141","2019-06-29 20:00","2019","06","29","20:00","21.1","","8.9","","45","","","","33","","8","","24.1","","97.25","","","","","","Mainly Clear"
"-117.16","58.62","HIGH LEVEL A","3073141","2019-06-29 21:00","2019","06","29","21:00","19.6","","8.7","","49","","","","36","","3","","24.1","","97.33","","","","","","NA"
"-117.16","58.62","HIGH LEVEL A","3073141","2019-06-29 22:00","2019","06","29","22:00"
"-117.16","58.62","HIGH LEVEL A","3073141","2019-06-29 23:00","2019","06","29","23:00"
"-117.16","58.62","HIGH LEVEL A","3073141","2019-06-30 00:00","2019","06","30","00:00"
"-117.16","58.62","HIGH LEVEL A","3073141","2019-06-30 01:00","2019","06","30","01:00"
"-117.16","58.62","HIGH LEVEL A","3073141","2019-06-30 02:00","2019","06","30","02:00"
"-117.16","58.62","HIGH LEVEL A","3073141","2019-06-30 03:00","2019","06","30","03:00"
"-117.16","58.62","HIGH LEVEL A","3073141","2019-06-30 04:00","2019","06","30","04:00"
"-117.16","58.62","HIGH LEVEL A","3073141","2019-06-30 05:00","2019","06","30","05:00"
"-117.16","58.62","HIGH LEVEL A","3073141","2019-06-30 06:00","2019","06","30","06:00","13.8","","11.7","","87","","","","32","","4","","19.3","","97.29","","","","","","NA"
"-117.16","58.62","HIGH LEVEL A","3073141","2019-06-30 07:00","2019","06","30","07:00","16.5","","11.6","","73","","","","30","","9","","24.1","","97.31","","","","","","NA"
"-117.16","58.62","HIGH LEVEL A","3073141","2019-06-30 08:00","2019","06","30","08:00","17.4","","9.9","","61","","","","34","","23","","19.3","","97.36","","","","","","Rain Showers"
"-117.16","58.62","HIGH LEVEL A","3073141","2019-06-30 09:00","2019","06","30","09:00","16.2","","10.5","","69","","","","34","","15","","24.1","","97.38","","","","","","Rain Showers"
"-117.16","58.62","HIGH LEVEL A","3073141","2019-06-30 10:00","2019","06","30","10:00","17.5","","10.9","","65","","","","33","","12","","24.1","","97.38","","","","","","NA"
"-117.16","58.62","HIGH LEVEL A","3073141","2019-06-30 11:00","2019","06","30","11:00","17.9","","10.8","","63","","","","35","","7","","24.1","","97.33","","","","","","Rain Showers"
"-117.16","58.62","HIGH LEVEL A","3073141","2019-06-30 12:00","2019","06","30","12:00","18.1","","10.1","","59","","","","27","","6","","24.1","","97.28","","","","","","NA"
"-117.16","58.62","HIGH LEVEL A","3073141","2019-06-30 13:00","2019","06","30","13:00","19.1","","10.8","","58","","","","23","","8","","24.1","","97.22","","","","","","NA"
"-117.16","58.62","HIGH LEVEL A","3073141","2019-06-30 14:00","2019","06","30","14:00","19.0","","12.1","","64","","","","21","","7","","24.1","","97.15","","","","","","Cloudy"
"-117.16","58.62","HIGH LEVEL A","3073141","2019-06-30 15:00","2019","06","30","15:00","20.1","","11.6","","58","","","","24","","10","","24.1","","97.09","","","","","","NA"
"-117.16","58.62","HIGH LEVEL A","3073141","2019-06-30 16:00","2019","06","30","16:00","18.2","","13.1","","72","","","","32","","6","","16.1","","97.06","","","","","","Rain"
"-117.16","58.62","HIGH LEVEL A","3073141","2019-06-30 17:00","2019","06","30","17:00","14.3","","12.9","","91","","","","2","","20","","16.1","","97.08","","","","","","Rain"
"-117.16","58.62","HIGH LEVEL A","3073141","2019-06-30 18:00","2019","06","30","18:00","10.9","","9.4","","90","","","","36","","27","","16.1","","97.13","","","","","","NA"
"-117.16","58.62","HIGH LEVEL A","3073141","2019-06-30 19:00","2019","06","30","19:00","9.4","","7.4","","87","","","","","","","M","24.1","","97.19","","","","","","NA"
"-117.16","58.62","HIGH LEVEL A","3073141","2019-06-30 20:00","2019","06","30","20:00","8.6","","7.5","","93","","","","","","","M","24.1","","97.26","","","","","","Rain"
"-117.16","58.62","HIGH LEVEL A","3073141","2019-06-30 21:00","2019","06","30","21:00","8.4","","7.2","","92","","","","","","","M","24.1","","97.35","","","","","","NA"
"-117.16","58.62","HIGH LEVEL A","3073141","2019-06-30 22:00","2019","06","30","22:00"
"-117.16","58.62","HIGH LEVEL A","3073141","2019-06-30 23:00","2019","06","30","23:00"
