"Longitude (x)","Latitude (y)","Station Name","Climate ID","Date/Time (LST)","Year","Month","Day","Time (LST)","Temp (°C)","Temp Flag","Dew Point Temp (°C)","Dew Point Temp Flag","Rel Hum (%)","Rel Hum Flag","Precip. Amount (mm)","Precip. Amount Flag","Wind Dir (10s deg)","Wind Dir Flag","Wind Spd (km/h)","Wind Spd Flag","Visibility (km)","Visibility Flag","Stn Press (kPa)","Stn Press Flag","Hmdx","Hmdx Flag","Wind Chill","Wind Chill Flag","Weather"
"-65.71","66.15","PANGNIRTUNG A","2403051","2023-01-01 00:00","2023","01","01","00:00"
"-65.71","66.15","PANGNIRTUNG A","2403051","2023-01-01 01:00","2023","01","01","01:00"
"-65.71","66.15","PANGNIRTUNG A","2403051","2023-01-01 02:00","2023","01","01","02:00"
"-65.71","66.15","PANGNIRTUNG A","2403051","2023-01-01 03:00","2023","01","01","03:00"
"-65.71","66.15","PANGNIRTUNG A","2403051","2023-01-01 04:00","2023","01","01","04:00"
"-65.71","66.15","PANGNIRTUNG A","2403051","2023-01-01 05:00","2023","01","01","05:00"
"-65.71","66.15","PANGNIRTUNG A","2403051","2023-01-01 06:00","2023","01","01","06:00"
"-65.71","66.15","PANGNIRTUNG A","2403051","2023-01-01 07:00","2023","01","01","07:00"
"-65.71","66.15","PANGNIRTUNG A","2403051","2023-01-01 08:00","2023","01","01","08:00"
"-65.71","66.15","PANGNIRTUNG A","2403051","2023-01-01 09:00","2023","01","01","09:00"
"-65.71","66.15","PANGNIRTUNG A","2403051","2023-01-01 10:00","2023","01","01","10:00"
"-65.71","66.15","PANGNIRTUNG A","2403051","2023-01-01 11:00","2023","01","01","11:00"
"-65.71","66.15","PANGNIRTUNG A","2403051","2023-01-01 12:00","2023","01","01","12:00","-30.7","","-33.8","","75","","","","36","","3","","24.1","","100.83","","","","-34","","NA"
"-65.71","66.15","PANGNIRTUNG A","2403051","2023-01-01 13:00","2023","01","01","13:00","-31.4","","-34.8","","73","","","","36","","2","","24.1","","100.77","","","","-34","","Mainly Clear"
"-65.71","66.15","PANGNIRTUNG A","2403051","2023-01-01 14:00","2023","01","01","14:00","-30.9","","-34.1","","74","","","","36","","2","","24.1","","100.74","","","","-33","","NA"
"-65.71","66.15","PANGNIRTUNG A","2403051","2023-01-01 15:00","2023","01","01","15:00","-31.1","","-34.5","","73","","","","23","","7","","24.1","","100.75","","","","-39","","NA"
"-65.71","66.15","PANGNIRTUNG A","2403051","2023-01-01 16:00","2023","01","01","16:00","-31.3","","-34.5","","74","","","","11","","4","","24.1","","100.76","","","","-36","","Mainly Clear"
"-65.71","66.15","PANGNIRTUNG A","2403051","2023-01-01 17:00","2023","01","01","17:00"
"-65.71","66.15","PANGNIRTUNG A","2403051","2023-01-01 18:00","2023","01","01","18:00"
"-65.71","66.15","PANGNIRTUNG A","2403051","2023-01-01 19:00","2023","01","01","19:00"
"-65.71","66.15","PANGNIRTUNG A","2403051","2023-01-01 20:00","2023","01","01","20:00"
"-65.71","66.15","PANGNIRTUNG A","2403051","2023-01-01 21:00","2023","01","01","21:00"
"-65.71","66.15","PANGNIRTUNG A","2403051","2023-01-01 22:00","2023","01","01","22:00"
"-65.71","66.15","PANGNIRTUNG A","2403051","2023-01-01 23:00","2023","01","01","23:00"
"-65.71","66.15","PANGNIRTUNG A","2403051","2023-01-02 00:00","2023","01","02","00:00"
"-65.71","66.15","PANGNIRTUNG A","2403051","2023-01-02 01:00","2023","01","02","01:00"
"-65.71","66.15","PANGNIRTUNG A","2403051","2023-01-02 02:00","2023","01","02","02:00"
"-65.71","66.15","PANGNIRTUNG A","2403051","2023-01-02 03:00","2023","01","02","03:00"
"-65.71","66.15","PANGNIRTUNG A","2403051","2023-01-02 04:00","2023","01","02","04:00"
"-65.71","66.15","PANGNIRTUNG A","2403051","2023-01-02 05:00","2023","01","02","05:00"
"-65.71","66.15","PANGNIRTUNG A","2403051","2023-01-02 06:00","2023","01","02","06:00"
"-65.71","66.15","PANGNIRTUNG A","2403051","2023-01-02 07:00","2023","01","02","07:00","-28.1","","-31.0","","77","","","","12","","4","","12.9","","100.42","","","","-32","","Snow"
"-65.71","66.15","PANGNIRTUNG A","2403051","2023-01-02 08:00","2023","01","02","08:00","-28.4","","-31.4","","76","","","","11","","4","","19.3","","100.42","","","","-33","","Snow"
"-65.71","66.15","PANGNIRTUNG A","2403051","2023-01-02 09:00","2023","01","02","09:00","-27.6","","-30.5","","77","","","","7","","5","","24.1","","100.36","","","","-33","","Snow"
"-65.71","66.15","PANGNIRTUNG A","2403051","2023-01-02 10:00","2023","01","02","10:00","-27.3","","-30.0","","78","","","","12","","3","","24.1","","100.34","","","","-30","","Snow"
"-65.71","66.15","PANGNIRTUNG A","2403051","2023-01-02 11:00","2023","01","02","11:00","-27.0","","-29.8","","78","","","","11","","5","","12.9","","100.30","","","","-32","","Snow"
"-65.71","66.15","PANGNIRTUNG A","2403051","2023-01-02 12:00","2023","01","02","12:00","-27.5","","-30.2","","78","","","","36","","2","","19.3","","100.27","","","","-30","","Ice Crystals"
"-65.71","66.15","PANGNIRTUNG A","2403051","2023-01-02 13:00","2023","01","02","13:00","-27.8","","-30.5","","78","","","","0","","1","","24.1","","100.24","","","","-29","","Ice Crystals"
"-65.71","66.15","PANGNIRTUNG A","2403051","2023-01-02 14:00","2023","01","02","14:00","-27.8","","-30.7","","77","","","","36","","1","","24.1","","100.25","","","","-29","","Ice Crystals"
"-65.71","66.15","PANGNIRTUNG A","2403051","2023-01-02 15:00","2023","01","02","15:00","-28.2","","-31.1","","77","","","","8","","4","","24.1","","100.23","","","","-33","","Ice Crystals"
"-65.71","66.15","PANGNIRTUNG A","2403051","2023-01-02 16:00","2023","01","02","16:00","-27.7","","-30.6","","77","","","","11","","12","","24.1","","100.23","","","","-37","","Ice Crystals"
"-65.71","66.15","PANGNIRTUNG A","2403051","2023-01-02 17:00","2023","01","02","17:00","-26.7","","-29.3","","79","","","","5","","11","","24.1","","100.20","","","","-36","","Ice Crystals"
"-65.71","66.15","PANGNIRTUNG A","2403051","2023-01-02 18:00","2023","01","02","18:00","-26.6","","-29.2","","79","","","","6","","8","","24.1","","100.19","","","","-34","","Ice Crystals"
"-65.71","66.15","PANGNIRTUNG A","2403051","2023-01-02 19:00","2023","01","02","19:00"
"-65.71","66.15","PANGNIRTUNG A","2403051","2023-01-02 20:00","2023","01","02","20:00"
"-65.71","66.15","PANGNIRTUNG A","2403051","2023-01-02 21:00","2023","01","02","21:00"
"-65.71","66.15","PANGNIRTUNG A","2403051","2023-01-02 22:00","2023","01","02","22:00"
"-65.71","66.15","PANGNIRTUNG A","2403051","2023-01-02 23:00","2023","01","02","23:00"
"-65.71","66.15","PANGNIRTUNG A","2403051","2023-01-03 00:00","2023","01","03","00:00"
"-65.71","66.15","PANGNIRTUNG A","2403051","2023-01-03 01:00","2023","01","03","01:00"
"-65.71","66.15","PANGNIRTUNG A","2403051","2023-01-03 02:00","2023","01","03","02:00"
"-65.71","66.15","PANGNIRTUNG A","2403051","2023-01-03 03:00","2023","01","03","03:00"
"-65.71","66.15","PANGNIRTUNG A","2403051","2023-01-03 04:00","2023","01","03","04:00"
"-65.71","66.15","PANGNIRTUNG A","2403051","2023-01-03 05:00","2023","01","03","05:00"
"-65.71","66.15","PANGNIRTUNG A","2403051","2023-01-03 06:00","2023","01","03","06:00"
"-65.71","66.15","PANGNIRTUNG A","2403051","2023-01-03 07:00","2023","01","03","07:00","-24.0","","-26.6","","80","","","","11","","5","","19.3","","100.00","","","","-29","","Ice Crystals"
"-65.71","66.15","PANGNIRTUNG A","2403051","2023-01-03 08:00","2023","01","03","08:00","-24.4","","-27.0","","80","","","","21","","3","","12.9","","99.96","","","","-27","","Snow"
"-65.71","66.15","PANGNIRTUNG A","2403051","2023-01-03 09:00","2023","01","03","09:00","-23.5","","-26.3","","78","","","","14","","5","","19.3","","99.95","","","","-28","","Snow"
"-65.71","66.15","PANGNIRTUNG A","2403051","2023-01-03 10:00","2023","01","03","10:00","-23.5","","-26.3","","78","","","","21","","3","","12.9","","99.93","","","","-26","","Snow"
"-65.71","66.15","PANGNIRTUNG A","2403051","2023-01-03 11:00","2023","01","03","11:00","-23.1","","-25.9","","78","","","","36","","2","","6.4","","99.91","","","","-25","","Snow"
"-65.71","66.15","PANGNIRTUNG A","2403051","2023-01-03 12:00","2023","01","03","12:00","-22.9","","-25.8","","78","","","","22","","6","","16.1","","99.90","","","","-28","","Snow"
"-65.71","66.15","PANGNIRTUNG A","2403051","2023-01-03 13:00","2023","01","03","13:00","-22.1","","-25.3","","76","","","","36","","1","","8.1","","99.92","","","","-23","","Snow"
"-65.71","66.15","PANGNIRTUNG A","2403051","2023-01-03 14:00","2023","01","03","14:00","-22.1","","-25.2","","77","","","","6","","9","","12.9","","99.91","","","","-29","","Snow"
"-65.71","66.15","PANGNIRTUNG A","2403051","2023-01-03 15:00","2023","01","03","15:00","-21.8","","-25.0","","76","","","","5","","12","","12.9","","99.90","","","","-30","","Snow"
"-65.71","66.15","PANGNIRTUNG A","2403051","2023-01-03 16:00","2023","01","03","16:00","-21.6","","-25.0","","74","","","","7","","13","","12.9","","99.90","","","","-30","","Snow"
"-65.71","66.15","PANGNIRTUNG A","2403051","2023-01-03 17:00","2023","01","03","17:00","-21.0","","-24.5","","74","","","","7","","11","","12.9","","99.93","","","","-29","","Snow"
"-65.71","66.15","PANGNIRTUNG A","2403051","2023-01-03 18:00","2023","01","03","18:00","-21.2","","-24.5","","75","","","","5","","19","","12.9","","99.94","","","","-32","","Snow,Blowing Snow"
"-65.71","66.15","PANGNIRTUNG A","2403051","2023-01-03 19:00","2023","01","03","19:00"
"-65.71","66.15","PANGNIRTUNG A","2403051","2023-01-03 20:00","2023","01","03","20:00"
"-65.71","66.15","PANGNIRTUNG A","2403051","2023-01-03 21:00","2023","01","03","21:00"
"-65.71","66.15","PANGNIRTUNG A","2403051","2023-01-03 22:00","2023","01","03","22:00"
"-65.71","66.15","PANGNIRTUNG A","2403051","2023-01-03 23:00","2023","01","03","23:00"
"-65.71","66.15","PANGNIRTUNG A","2403051","2023-01-04 00:00","2023","01","04","00:00"
"-65.71","66.15","PANGNIRTUNG A","2403051","2023-01-04 01:00","2023","01","04","01:00"
"-65.71","66.15","PANGNIRTUNG A","2403051","2023-01-04 02:00","2023","01","04","02:00"
"-65.71","66.15","PANGNIRTUNG A","2403051","2023-01-04 03:00","2023","01","04","03:00"
"-65.71","66.15","PANGNIRTUNG A","2403051","2023-01-04 04:00","2023","01","04","04:00"
"-65.71","66.15","PANGNIRTUNG A","2403051","2023-01-04 05:00","2023","01","04","05:00"
"-65.71","66.15","PANGNIRTUNG A","2403051","2023-01-04 06:00","2023","01","04","06:00"
"-65.71","66.15","PANGNIRTUNG A","2403051","2023-01-04 07:00","2023","01","04","07:00","-18.6","","-21.4","","79","","","","5","","11","","16.1","","100.09","","","","-26","","Snow"
"-65.71","66.15","PANGNIRTUNG A","2403051","2023-01-04 08:00","2023","01","04","08:00","-18.4","","-21.2","","79","","","","6","","9","","12.9","","100.11","","","","-25","","Snow"
"-65.71","66.15","PANGNIRTUNG A","2403051","2023-01-04 09:00","2023","01","04","09:00","-18.0","","-20.8","","79","","","","36","","2","","8.1","","100.14","","","","-20","","Snow"
"-65.71","66.15","PANGNIRTUNG A","2403051","2023-01-04 10:00","2023","01","04","10:00","-17.8","","-20.4","","81","","","","8","","11","","2.4","","100.19","","","","-25","","Snow,Blowing Snow"
"-65.71","66.15","PANGNIRTUNG A","2403051","2023-01-04 11:00","2023","01","04","11:00","-17.8","","-20.3","","81","","","","6","","14","","3.6","","100.19","","","","-26","","Snow"
"-65.71","66.15","PANGNIRTUNG A","2403051","2023-01-04 12:00","2023","01","04","12:00","-17.2","","-20.0","","79","","","","9","","17","","4.0","","100.18","","","","-26","","Snow"
"-65.71","66.15","PANGNIRTUNG A","2403051","2023-01-04 13:00","2023","01","04","13:00","-16.8","","-20.2","","75","","","","6","","14","","4.8","","100.22","","","","-25","","Snow"
"-65.71","66.15","PANGNIRTUNG A","2403051","2023-01-04 14:00","2023","01","04","14:00","-16.7","","-20.1","","75","","","","7","","9","","6.4","","100.25","","","","-23","","Snow"
"-65.71","66.15","PANGNIRTUNG A","2403051","2023-01-04 15:00","2023","01","04","15:00","-16.1","","-20.1","","72","","","","8","","11","","12.9","","100.25","","","","-23","","Snow,Blowing Snow"
"-65.71","66.15","PANGNIRTUNG A","2403051","2023-01-04 16:00","2023","01","04","16:00","-15.9","","-20.0","","71","","","","10","","16","","12.9","","100.29","","","","-24","","Snow,Blowing Snow"
"-65.71","66.15","PANGNIRTUNG A","2403051","2023-01-04 17:00","2023","01","04","17:00","-15.6","","-19.7","","71","","","","11","","14","","24.1","","100.34","","","","-23","","NA"
"-65.71","66.15","PANGNIRTUNG A","2403051","2023-01-04 18:00","2023","01","04","18:00","-15.2","","-19.7","","69","","","","9","","19","","19.3","","100.41","","","","-24","","Snow"
"-65.71","66.15","PANGNIRTUNG A","2403051","2023-01-04 19:00","2023","01","04","19:00"
"-65.71","66.15","PANGNIRTUNG A","2403051","2023-01-04 20:00","2023","01","04","20:00"
"-65.71","66.15","PANGNIRTUNG A","2403051","2023-01-04 21:00","2023","01","04","21:00"
"-65.71","66.15","PANGNIRTUNG A","2403051","2023-01-04 22:00","2023","01","04","22:00"
"-65.71","66.15","PANGNIRTUNG A","2403051","2023-01-04 23:00","2023","01","04","23:00"
"-65.71","66.15","PANGNIRTUNG A","2403051","2023-01-05 00:00","2023","01","05","00:00"
"-65.71","66.15","PANGNIRTUNG A","2403051","2023-01-05 01:00","2023","01","05","01:00"
"-65.71","66.15","PANGNIRTUNG A","2403051","2023-01-05 02:00","2023","01","05","02:00"
"-65.71","66.15","PANGNIRTUNG A","2403051","2023-01-05 03:00","2023","01","05","03:00"
"-65.71","66.15","PANGNIRTUNG A","2403051","2023-01-05 04:00","2023","01","05","04:00"
"-65.71","66.15","PANGNIRTUNG A","2403051","2023-01-05 05:00","2023","01","05","05:00"
"-65.71","66.15","PANGNIRTUNG A","2403051","2023-01-05 06:00","2023","01","05","06:00"
"-65.71","66.15","PANGNIRTUNG A","2403051","2023-01-05 07:00","2023","01","05","07:00","-21.9","","-24.1","","83","","","","24","","6","","24.1","","101.11","","","","-27","","Mostly Cloudy"
"-65.71","66.15","PANGNIRTUNG A","2403051","2023-01-05 08:00","2023","01","05","08:00","-22.5","","-24.6","","83","","","","24","","10","","24.1","","101.15","","","","-30","","Ice Crystals"
"-65.71","66.15","PANGNIRTUNG A","2403051","2023-01-05 09:00","2023","01","05","09:00","-22.5","","-24.9","","81","","","","12","","3","","24.1","","101.16","","","","-25","","Ice Crystals"
"-65.71","66.15","PANGNIRTUNG A","2403051","2023-01-05 10:00","2023","01","05","10:00","-23.0","","-24.8","","86","","","","11","","6","","24.1","","101.16","","","","-28","","Ice Crystals"
"-65.71","66.15","PANGNIRTUNG A","2403051","2023-01-05 11:00","2023","01","05","11:00","-22.2","","-24.5","","82","","","","","","0","","24.1","","101.17","","","","","","Ice Crystals"
"-65.71","66.15","PANGNIRTUNG A","2403051","2023-01-05 12:00","2023","01","05","12:00","-22.1","","-24.3","","83","","","","25","","7","","24.1","","101.19","","","","-28","","Ice Crystals"
"-65.71","66.15","PANGNIRTUNG A","2403051","2023-01-05 13:00","2023","01","05","13:00","-21.7","","-24.1","","81","","","","25","","8","","24.1","","101.23","","","","-28","","Ice Crystals"
"-65.71","66.15","PANGNIRTUNG A","2403051","2023-01-05 14:00","2023","01","05","14:00","-21.7","","-24.1","","82","","","","22","","3","","24.1","","101.27","","","","-24","","Ice Crystals"
"-65.71","66.15","PANGNIRTUNG A","2403051","2023-01-05 15:00","2023","01","05","15:00","-22.2","","-24.9","","79","","","","36","","3","","24.1","","101.28","","","","-25","","Ice Crystals"
"-65.71","66.15","PANGNIRTUNG A","2403051","2023-01-05 16:00","2023","01","05","16:00","-22.2","","-24.6","","81","","","","11","","6","","24.1","","101.28","","","","-28","","Mainly Clear"
"-65.71","66.15","PANGNIRTUNG A","2403051","2023-01-05 17:00","2023","01","05","17:00","-21.9","","-24.1","","82","","","","27","","7","","24.1","","101.28","","","","-28","","NA"
"-65.71","66.15","PANGNIRTUNG A","2403051","2023-01-05 18:00","2023","01","05","18:00","-21.6","","-23.6","","84","","","","24","","7","","24.1","","101.31","","","","-28","","NA"
"-65.71","66.15","PANGNIRTUNG A","2403051","2023-01-05 19:00","2023","01","05","19:00"
"-65.71","66.15","PANGNIRTUNG A","2403051","2023-01-05 20:00","2023","01","05","20:00"
"-65.71","66.15","PANGNIRTUNG A","2403051","2023-01-05 21:00","2023","01","05","21:00"
"-65.71","66.15","PANGNIRTUNG A","2403051","2023-01-05 22:00","2023","01","05","22:00"
"-65.71","66.15","PANGNIRTUNG A","2403051","2023-01-05 23:00","2023","01","05","23:00"
"-65.71","66.15","PANGNIRTUNG A","2403051","2023-01-06 00:00","2023","01","06","00:00"
"-65.71","66.15","PANGNIRTUNG A","2403051","2023-01-06 01:00","2023","01","06","01:00"
"-65.71","66.15","PANGNIRTUNG A","2403051","2023-01-06 02:00","2023","01","06","02:00"
"-65.71","66.15","PANGNIRTUNG A","2403051","2023-01-06 03:00","2023","01","06","03:00"
"-65.71","66.15","PANGNIRTUNG A","2403051","2023-01-06 04:00","2023","01","06","04:00"
"-65.71","66.15","PANGNIRTUNG A","2403051","2023-01-06 05:00","2023","01","06","05:00"
"-65.71","66.15","PANGNIRTUNG A","2403051","2023-01-06 06:00","2023","01","06","06:00"
"-65.71","66.15","PANGNIRTUNG A","2403051","2023-01-06 07:00","2023","01","06","07:00","-21.0","","-23.0","","84","","","","24","","7","","24.1","","101.43","","","","-27","","Cloudy"
"-65.71","66.15","PANGNIRTUNG A","2403051","2023-01-06 08:00","2023","01","06","08:00","-21.3","","-23.5","","83","","","","23","","8","","24.1","","101.44","","","","-28","","NA"
"-65.71","66.15","PANGNIRTUNG A","2403051","2023-01-06 09:00","2023","01","06","09:00","-21.4","","-23.6","","83","","","","24","","7","","24.1","","101.43","","","","-27","","NA"
"-65.71","66.15","PANGNIRTUNG A","2403051","2023-01-06 10:00","2023","01","06","10:00","-21.5","","-23.7","","83","","","","24","","8","","24.1","","101.42","","","","-28","","Mostly Cloudy"
"-65.71","66.15","PANGNIRTUNG A","2403051","2023-01-06 11:00","2023","01","06","11:00","-22.2","","-24.2","","84","","","","24","","10","","24.1","","101.41","","","","-30","","NA"
"-65.71","66.15","PANGNIRTUNG A","2403051","2023-01-06 12:00","2023","01","06","12:00","-22.6","","-24.7","","83","","","","24","","15","","24.1","","101.41","","","","-32","","NA"
"-65.71","66.15","PANGNIRTUNG A","2403051","2023-01-06 13:00","2023","01","06","13:00","-23.5","","-25.6","","83","","","","24","","9","","24.1","","101.44","","","","-31","","Mostly Cloudy"
"-65.71","66.15","PANGNIRTUNG A","2403051","2023-01-06 14:00","2023","01","06","14:00","-24.5","","-26.8","","82","","","","24","","13","","24.1","","101.48","","","","-34","","NA"
"-65.71","66.15","PANGNIRTUNG A","2403051","2023-01-06 15:00","2023","01","06","15:00","-24.4","","-26.7","","82","","","","22","","6","","24.1","","101.50","","","","-30","","NA"
"-65.71","66.15","PANGNIRTUNG A","2403051","2023-01-06 16:00","2023","01","06","16:00","-24.5","","-26.8","","82","","","","24","","5","","24.1","","101.51","","","","-29","","Mostly Cloudy"
"-65.71","66.15","PANGNIRTUNG A","2403051","2023-01-06 17:00","2023","01","06","17:00","-24.6","","-26.8","","82","","","","25","","10","","24.1","","101.52","","","","-33","","NA"
"-65.71","66.15","PANGNIRTUNG A","2403051","2023-01-06 18:00","2023","01","06","18:00","-24.5","","-26.8","","82","","","","22","","5","","24.1","","101.54","","","","-29","","NA"
"-65.71","66.15","PANGNIRTUNG A","2403051","2023-01-06 19:00","2023","01","06","19:00"
"-65.71","66.15","PANGNIRTUNG A","2403051","2023-01-06 20:00","2023","01","06","20:00"
"-65.71","66.15","PANGNIRTUNG A","2403051","2023-01-06 21:00","2023","01","06","21:00"
"-65.71","66.15","PANGNIRTUNG A","2403051","2023-01-06 22:00","2023","01","06","22:00"
"-65.71","66.15","PANGNIRTUNG A","2403051","2023-01-06 23:00","2023","01","06","23:00"
"-65.71","66.15","PANGNIRTUNG A","2403051","2023-01-07 00:00","2023","01","07","00:00"
"-65.71","66.15","PANGNIRTUNG A","2403051","2023-01-07 01:00","2023","01","07","01:00"
"-65.71","66.15","PANGNIRTUNG A","2403051","2023-01-07 02:00","2023","01","07","02:00"
"-65.71","66.15","PANGNIRTUNG A","2403051","2023-01-07 03:00","2023","01","07","03:00"
"-65.71","66.15","PANGNIRTUNG A","2403051","2023-01-07 04:00","2023","01","07","04:00"
"-65.71","66.15","PANGNIRTUNG A","2403051","2023-01-07 05:00","2023","01","07","05:00"
"-65.71","66.15","PANGNIRTUNG A","2403051","2023-01-07 06:00","2023","01","07","06:00"
"-65.71","66.15","PANGNIRTUNG A","2403051","2023-01-07 07:00","2023","01","07","07:00"
"-65.71","66.15","PANGNIRTUNG A","2403051","2023-01-07 08:00","2023","01","07","08:00"
"-65.71","66.15","PANGNIRTUNG A","2403051","2023-01-07 09:00","2023","01","07","09:00"
"-65.71","66.15","PANGNIRTUNG A","2403051","2023-01-07 10:00","2023","01","07","10:00","-21.5","","-23.7","","83","","","","24","","7","","24.1","","101.27","","","","-27","","Mostly Cloudy"
"-65.71","66.15","PANGNIRTUNG A","2403051","2023-01-07 11:00","2023","01","07","11:00","-21.2","","-23.4","","83","","","","25","","5","","24.1","","101.26","","","","-26","","NA"
"-65.71","66.15","PANGNIRTUNG A","2403051","2023-01-07 12:00","2023","01","07","12:00","-21.5","","-23.6","","83","","","","25","","11","","24.1","","101.24","","","","-29","","NA"
"-65.71","66.15","PANGNIRTUNG A","2403051","2023-01-07 13:00","2023","01","07","13:00","-21.6","","-23.8","","83","","","","24","","7","","24.1","","101.24","","","","-28","","Mostly Cloudy"
"-65.71","66.15","PANGNIRTUNG A","2403051","2023-01-07 14:00","2023","01","07","14:00","-21.4","","-23.5","","83","","","","23","","3","","24.1","","101.26","","","","-24","","NA"
"-65.71","66.15","PANGNIRTUNG A","2403051","2023-01-07 15:00","2023","01","07","15:00","-22.3","","-24.4","","83","","","","25","","8","","24.1","","101.26","","","","-29","","NA"
"-65.71","66.15","PANGNIRTUNG A","2403051","2023-01-07 16:00","2023","01","07","16:00"
"-65.71","66.15","PANGNIRTUNG A","2403051","2023-01-07 17:00","2023","01","07","17:00"
"-65.71","66.15","PANGNIRTUNG A","2403051","2023-01-07 18:00","2023","01","07","18:00"
"-65.71","66.15","PANGNIRTUNG A","2403051","2023-01-07 19:00","2023","01","07","19:00"
"-65.71","66.15","PANGNIRTUNG A","2403051","2023-01-07 20:00","2023","01","07","20:00"
"-65.71","66.15","PANGNIRTUNG A","2403051","2023-01-07 21:00","2023","01","07","21:00"
"-65.71","66.15","PANGNIRTUNG A","2403051","2023-01-07 22:00","2023","01","07","22:00"
"-65.71","66.15","PANGNIRTUNG A","2403051","2023-01-07 23:00","2023","01","07","23:00"
"-65.71","66.15","PANGNIRTUNG A","2403051","2023-01-08 00:00","2023","01","08","00:00"
"-65.71","66.15","PANGNIRTUNG A","2403051","2023-01-08 01:00","2023","01","08","01:00"
"-65.71","66.15","PANGNIRTUNG A","2403051","2023-01-08 02:00","2023","01","08","02:00"
"-65.71","66.15","PANGNIRTUNG A","2403051","2023-01-08 03:00","2023","01","08","03:00"
"-65.71","66.15","PANGNIRTUNG A","2403051","2023-01-08 04:00","2023","01","08","04:00"
"-65.71","66.15","PANGNIRTUNG A","2403051","2023-01-08 05:00","2023","01","08","05:00"
"-65.71","66.15","PANGNIRTUNG A","2403051","2023-01-08 06:00","2023","01","08","06:00"
"-65.71","66.15","PANGNIRTUNG A","2403051","2023-01-08 07:00","2023","01","08","07:00"
"-65.71","66.15","PANGNIRTUNG A","2403051","2023-01-08 08:00","2023","01","08","08:00"
"-65.71","66.15","PANGNIRTUNG A","2403051","2023-01-08 09:00","2023","01","08","09:00"
"-65.71","66.15","PANGNIRTUNG A","2403051","2023-01-08 10:00","2023","01","08","10:00"
"-65.71","66.15","PANGNIRTUNG A","2403051","2023-01-08 11:00","2023","01","08","11:00"
"-65.71","66.15","PANGNIRTUNG A","2403051","2023-01-08 12:00","2023","01","08","12:00","-27.5","","-30.1","","79","","","","24","","8","","24.1","","100.97","","","","-35","","NA"
"-65.71","66.15","PANGNIRTUNG A","2403051","2023-01-08 13:00","2023","01","08","13:00","-27.3","","-29.6","","81","","","","25","","7","","24.1","","100.97","","","","-34","","Clear"
"-65.71","66.15","PANGNIRTUNG A","2403051","2023-01-08 14:00","2023","01","08","14:00","-27.7","","-30.3","","79","","","","36","","2","","24.1","","100.96","","","","-30","","NA"
"-65.71","66.15","PANGNIRTUNG A","2403051","2023-01-08 15:00","2023","01","08","15:00","-27.3","","-29.9","","79","","","","24","","4","","24.1","","100.98","","","","-32","","NA"
"-65.71","66.15","PANGNIRTUNG A","2403051","2023-01-08 16:00","2023","01","08","16:00","-27.4","","-30.1","","78","","","","24","","6","","24.1","","100.97","","","","-34","","Clear"
"-65.71","66.15","PANGNIRTUNG A","2403051","2023-01-08 17:00","2023","01","08","17:00"
"-65.71","66.15","PANGNIRTUNG A","2403051","2023-01-08 18:00","2023","01","08","18:00"
"-65.71","66.15","PANGNIRTUNG A","2403051","2023-01-08 19:00","2023","01","08","19:00"
"-65.71","66.15","PANGNIRTUNG A","2403051","2023-01-08 20:00","2023","01","08","20:00"
"-65.71","66.15","PANGNIRTUNG A","2403051","2023-01-08 21:00","2023","01","08","21:00"
"-65.71","66.15","PANGNIRTUNG A","2403051","2023-01-08 22:00","2023","01","08","22:00"
"-65.71","66.15","PANGNIRTUNG A","2403051","2023-01-08 23:00","2023","01","08","23:00"
"-65.71","66.15","PANGNIRTUNG A","2403051","2023-01-09 00:00","2023","01","09","00:00"
"-65.71","66.15","PANGNIRTUNG A","2403051","2023-01-09 01:00","2023","01","09","01:00"
"-65.71","66.15","PANGNIRTUNG A","2403051","2023-01-09 02:00","2023","01","09","02:00"
"-65.71","66.15","PANGNIRTUNG A","2403051","2023-01-09 03:00","2023","01","09","03:00"
"-65.71","66.15","PANGNIRTUNG A","2403051","2023-01-09 04:00","2023","01","09","04:00"
"-65.71","66.15","PANGNIRTUNG A","2403051","2023-01-09 05:00","2023","01","09","05:00"
"-65.71","66.15","PANGNIRTUNG A","2403051","2023-01-09 06:00","2023","01","09","06:00"
"-65.71","66.15","PANGNIRTUNG A","2403051","2023-01-09 07:00","2023","01","09","07:00","-30.3","","-33.4","","75","","","","24","","9","","24.1","","100.96","","","","-39","","Clear"
"-65.71","66.15","PANGNIRTUNG A","2403051","2023-01-09 08:00","2023","01","09","08:00","-30.2","","-33.3","","75","","","","36","","1","","24.1","","100.98","","","","-31","","NA"
"-65.71","66.15","PANGNIRTUNG A","2403051","2023-01-09 09:00","2023","01","09","09:00","-30.1","","-33.1","","76","","","","11","","3","","24.1","","100.98","","","","-33","","NA"
"-65.71","66.15","PANGNIRTUNG A","2403051","2023-01-09 10:00","2023","01","09","10:00","-29.6","","-32.6","","76","","","","36","","1","","24.1","","100.98","","","","-31","","Clear"
"-65.71","66.15","PANGNIRTUNG A","2403051","2023-01-09 11:00","2023","01","09","11:00","-29.7","","-32.7","","76","","","","23","","6","","24.1","","101.01","","","","-36","","NA"
"-65.71","66.15","PANGNIRTUNG A","2403051","2023-01-09 12:00","2023","01","09","12:00","-29.9","","-32.9","","76","","","","24","","7","","24.1","","101.02","","","","-37","","NA"
"-65.71","66.15","PANGNIRTUNG A","2403051","2023-01-09 13:00","2023","01","09","13:00","-29.9","","-32.9","","76","","","","36","","1","","24.1","","101.02","","","","-31","","Clear"
"-65.71","66.15","PANGNIRTUNG A","2403051","2023-01-09 14:00","2023","01","09","14:00","-29.7","","-32.7","","76","","","","24","","4","","24.1","","101.07","","","","-34","","NA"
"-65.71","66.15","PANGNIRTUNG A","2403051","2023-01-09 15:00","2023","01","09","15:00","-29.8","","-32.8","","76","","","","24","","4","","24.1","","101.12","","","","-34","","NA"
"-65.71","66.15","PANGNIRTUNG A","2403051","2023-01-09 16:00","2023","01","09","16:00","-30.5","","-33.7","","74","","","","23","","10","","24.1","","101.19","","","","-40","","Clear"
"-65.71","66.15","PANGNIRTUNG A","2403051","2023-01-09 17:00","2023","01","09","17:00","-30.5","","-33.6","","75","","","","23","","6","","24.1","","101.24","","","","-37","","NA"
"-65.71","66.15","PANGNIRTUNG A","2403051","2023-01-09 18:00","2023","01","09","18:00","-30.2","","-33.2","","76","","","","25","","5","","24.1","","101.29","","","","-36","","NA"
"-65.71","66.15","PANGNIRTUNG A","2403051","2023-01-09 19:00","2023","01","09","19:00"
"-65.71","66.15","PANGNIRTUNG A","2403051","2023-01-09 20:00","2023","01","09","20:00"
"-65.71","66.15","PANGNIRTUNG A","2403051","2023-01-09 21:00","2023","01","09","21:00"
"-65.71","66.15","PANGNIRTUNG A","2403051","2023-01-09 22:00","2023","01","09","22:00"
"-65.71","66.15","PANGNIRTUNG A","2403051","2023-01-09 23:00","2023","01","09","23:00"
"-65.71","66.15","PANGNIRTUNG A","2403051","2023-01-10 00:00","2023","01","10","00:00"
"-65.71","66.15","PANGNIRTUNG A","2403051","2023-01-10 01:00","2023","01","10","01:00"
"-65.71","66.15","PANGNIRTUNG A","2403051","2023-01-10 02:00","2023","01","10","02:00"
"-65.71","66.15","PANGNIRTUNG A","2403051","2023-01-10 03:00","2023","01","10","03:00"
"-65.71","66.15","PANGNIRTUNG A","2403051","2023-01-10 04:00","2023","01","10","04:00"
"-65.71","66.15","PANGNIRTUNG A","2403051","2023-01-10 05:00","2023","01","10","05:00"
"-65.71","66.15","PANGNIRTUNG A","2403051","2023-01-10 06:00","2023","01","10","06:00"
"-65.71","66.15","PANGNIRTUNG A","2403051","2023-01-10 07:00","2023","01","10","07:00","-31.0","","-34.2","","74","","","","36","","2","","24.1","","101.65","","","","-33","","Mainly Clear"
"-65.71","66.15","PANGNIRTUNG A","2403051","2023-01-10 08:00","2023","01","10","08:00","-30.5","","-33.6","","75","","","","24","","4","","24.1","","101.67","","","","-35","","NA"
"-65.71","66.15","PANGNIRTUNG A","2403051","2023-01-10 09:00","2023","01","10","09:00","-31.2","","-34.3","","75","","","","14","","3","","24.1","","101.71","","","","-35","","NA"
"-65.71","66.15","PANGNIRTUNG A","2403051","2023-01-10 10:00","2023","01","10","10:00","-31.0","","-34.2","","74","","","","8","","3","","24.1","","101.72","","","","-34","","Mostly Cloudy"
"-65.71","66.15","PANGNIRTUNG A","2403051","2023-01-10 11:00","2023","01","10","11:00","-29.4","","-32.4","","76","","","","36","","1","","24.1","","101.74","","","","-31","","NA"
"-65.71","66.15","PANGNIRTUNG A","2403051","2023-01-10 12:00","2023","01","10","12:00","-29.0","","-32.0","","76","","","","36","","2","","24.1","","101.73","","","","-31","","NA"
"-65.71","66.15","PANGNIRTUNG A","2403051","2023-01-10 13:00","2023","01","10","13:00","-28.4","","-31.3","","77","","","","24","","5","","24.1","","101.73","","","","-34","","Mostly Cloudy"
"-65.71","66.15","PANGNIRTUNG A","2403051","2023-01-10 14:00","2023","01","10","14:00","-28.6","","-31.4","","77","","","","13","","5","","24.1","","101.73","","","","-34","","NA"
"-65.71","66.15","PANGNIRTUNG A","2403051","2023-01-10 15:00","2023","01","10","15:00","-28.0","","-30.9","","77","","","","0","","1","","24.1","","101.78","","","","-29","","NA"
"-65.71","66.15","PANGNIRTUNG A","2403051","2023-01-10 16:00","2023","01","10","16:00","-27.7","","-30.6","","77","","","","36","","1","","24.1","","101.81","","","","-29","","Mostly Cloudy"
"-65.71","66.15","PANGNIRTUNG A","2403051","2023-01-10 17:00","2023","01","10","17:00","-29.5","","-32.5","","76","","","","36","","1","","24.1","","101.86","","","","-31","","NA"
"-65.71","66.15","PANGNIRTUNG A","2403051","2023-01-10 18:00","2023","01","10","18:00","-29.3","","-32.2","","76","","","","18","","3","","24.1","","101.86","","","","-33","","NA"
"-65.71","66.15","PANGNIRTUNG A","2403051","2023-01-10 19:00","2023","01","10","19:00"
"-65.71","66.15","PANGNIRTUNG A","2403051","2023-01-10 20:00","2023","01","10","20:00"
"-65.71","66.15","PANGNIRTUNG A","2403051","2023-01-10 21:00","2023","01","10","21:00"
"-65.71","66.15","PANGNIRTUNG A","2403051","2023-01-10 22:00","2023","01","10","22:00"
"-65.71","66.15","PANGNIRTUNG A","2403051","2023-01-10 23:00","2023","01","10","23:00"
"-65.71","66.15","PANGNIRTUNG A","2403051","2023-01-11 00:00","2023","01","11","00:00"
"-65.71","66.15","PANGNIRTUNG A","2403051","2023-01-11 01:00","2023","01","11","01:00"
"-65.71","66.15","PANGNIRTUNG A","2403051","2023-01-11 02:00","2023","01","11","02:00"
"-65.71","66.15","PANGNIRTUNG A","2403051","2023-01-11 03:00","2023","01","11","03:00"
"-65.71","66.15","PANGNIRTUNG A","2403051","2023-01-11 04:00","2023","01","11","04:00"
"-65.71","66.15","PANGNIRTUNG A","2403051","2023-01-11 05:00","2023","01","11","05:00"
"-65.71","66.15","PANGNIRTUNG A","2403051","2023-01-11 06:00","2023","01","11","06:00"
"-65.71","66.15","PANGNIRTUNG A","2403051","2023-01-11 07:00","2023","01","11","07:00","-32.1","","-35.3","","74","","","","36","","1","","24.1","","101.87","","","","-33","","Clear"
"-65.71","66.15","PANGNIRTUNG A","2403051","2023-01-11 08:00","2023","01","11","08:00","-31.8","","-35.1","","73","","","","25","","7","","24.1","","101.85","","","","-39","","NA"
"-65.71","66.15","PANGNIRTUNG A","2403051","2023-01-11 09:00","2023","01","11","09:00","-31.7","","-35.0","","73","","","","24","","9","","24.1","","101.87","","","","-41","","NA"
"-65.71","66.15","PANGNIRTUNG A","2403051","2023-01-11 10:00","2023","01","11","10:00","-32.3","","-35.4","","74","","","","18","","4","","24.1","","101.86","","","","-37","","Clear"
"-65.71","66.15","PANGNIRTUNG A","2403051","2023-01-11 11:00","2023","01","11","11:00","-32.0","","-35.3","","73","","","","12","","3","","24.1","","101.85","","","","-36","","NA"
"-65.71","66.15","PANGNIRTUNG A","2403051","2023-01-11 12:00","2023","01","11","12:00","-31.6","","-34.9","","73","","","","36","","1","","24.1","","101.80","","","","-33","","NA"
"-65.71","66.15","PANGNIRTUNG A","2403051","2023-01-11 13:00","2023","01","11","13:00","-31.4","","-34.8","","73","","","","9","","4","","24.1","","101.78","","","","-36","","Clear"
"-65.71","66.15","PANGNIRTUNG A","2403051","2023-01-11 14:00","2023","01","11","14:00","-31.5","","-34.7","","74","","","","36","","3","","24.1","","101.82","","","","-35","","NA"
"-65.71","66.15","PANGNIRTUNG A","2403051","2023-01-11 15:00","2023","01","11","15:00","-31.8","","-35.0","","74","","","","12","","8","","24.1","","101.81","","","","-40","","NA"
"-65.71","66.15","PANGNIRTUNG A","2403051","2023-01-11 16:00","2023","01","11","16:00","-31.1","","-34.3","","74","","","","12","","6","","24.1","","101.79","","","","-38","","Mainly Clear"
"-65.71","66.15","PANGNIRTUNG A","2403051","2023-01-11 17:00","2023","01","11","17:00","-31.0","","-34.4","","73","","","","15","","4","","24.1","","101.79","","","","-36","","NA"
"-65.71","66.15","PANGNIRTUNG A","2403051","2023-01-11 18:00","2023","01","11","18:00","-31.1","","-34.3","","74","","","","12","","3","","24.1","","101.77","","","","-35","","NA"
"-65.71","66.15","PANGNIRTUNG A","2403051","2023-01-11 19:00","2023","01","11","19:00"
"-65.71","66.15","PANGNIRTUNG A","2403051","2023-01-11 20:00","2023","01","11","20:00"
"-65.71","66.15","PANGNIRTUNG A","2403051","2023-01-11 21:00","2023","01","11","21:00"
"-65.71","66.15","PANGNIRTUNG A","2403051","2023-01-11 22:00","2023","01","11","22:00"
"-65.71","66.15","PANGNIRTUNG A","2403051","2023-01-11 23:00","2023","01","11","23:00"
"-65.71","66.15","PANGNIRTUNG A","2403051","2023-01-12 00:00","2023","01","12","00:00"
"-65.71","66.15","PANGNIRTUNG A","2403051","2023-01-12 01:00","2023","01","12","01:00"
"-65.71","66.15","PANGNIRTUNG A","2403051","2023-01-12 02:00","2023","01","12","02:00"
"-65.71","66.15","PANGNIRTUNG A","2403051","2023-01-12 03:00","2023","01","12","03:00"
"-65.71","66.15","PANGNIRTUNG A","2403051","2023-01-12 04:00","2023","01","12","04:00"
"-65.71","66.15","PANGNIRTUNG A","2403051","2023-01-12 05:00","2023","01","12","05:00"
"-65.71","66.15","PANGNIRTUNG A","2403051","2023-01-12 06:00","2023","01","12","06:00"
"-65.71","66.15","PANGNIRTUNG A","2403051","2023-01-12 07:00","2023","01","12","07:00","-28.1","","-31.0","","77","","","","0","","1","","24.1","","101.19","","","","-29","","Mainly Clear"
"-65.71","66.15","PANGNIRTUNG A","2403051","2023-01-12 08:00","2023","01","12","08:00","-28.3","","-31.2","","77","","","","11","","4","","24.1","","101.13","","","","-33","","NA"
"-65.71","66.15","PANGNIRTUNG A","2403051","2023-01-12 09:00","2023","01","12","09:00","-28.1","","-31.1","","76","","","","9","","7","","24.1","","101.08","","","","-35","","NA"
"-65.71","66.15","PANGNIRTUNG A","2403051","2023-01-12 10:00","2023","01","12","10:00","-27.6","","-30.5","","77","","","","10","","4","","24.1","","101.03","","","","-32","","Mainly Clear"
"-65.71","66.15","PANGNIRTUNG A","2403051","2023-01-12 11:00","2023","01","12","11:00","-27.2","","-30.1","","77","","","","8","","3","","24.1","","100.96","","","","-30","","NA"
"-65.71","66.15","PANGNIRTUNG A","2403051","2023-01-12 12:00","2023","01","12","12:00","-27.0","","-29.8","","78","","","","11","","7","","24.1","","100.88","","","","-34","","NA"
"-65.71","66.15","PANGNIRTUNG A","2403051","2023-01-12 13:00","2023","01","12","13:00","-26.7","","-29.6","","77","","","","10","","6","","24.1","","100.82","","","","-33","","Mostly Cloudy"
"-65.71","66.15","PANGNIRTUNG A","2403051","2023-01-12 14:00","2023","01","12","14:00","-26.2","","-28.9","","79","","","","6","","3","","24.1","","100.77","","","","-29","","NA"
"-65.71","66.15","PANGNIRTUNG A","2403051","2023-01-12 15:00","2023","01","12","15:00","-25.9","","-28.5","","79","","","","12","","4","","24.1","","100.72","","","","-30","","NA"
"-65.71","66.15","PANGNIRTUNG A","2403051","2023-01-12 16:00","2023","01","12","16:00","-25.1","","-27.6","","80","","","","36","","1","","24.1","","100.68","","","","-26","","Mostly Cloudy"
"-65.71","66.15","PANGNIRTUNG A","2403051","2023-01-12 17:00","2023","01","12","17:00","-24.2","","-26.6","","81","","","","28","","4","","24.1","","100.65","","","","-28","","NA"
"-65.71","66.15","PANGNIRTUNG A","2403051","2023-01-12 18:00","2023","01","12","18:00","-24.8","","-27.3","","80","","","","9","","4","","24.1","","100.59","","","","-29","","NA"
"-65.71","66.15","PANGNIRTUNG A","2403051","2023-01-12 19:00","2023","01","12","19:00"
"-65.71","66.15","PANGNIRTUNG A","2403051","2023-01-12 20:00","2023","01","12","20:00"
"-65.71","66.15","PANGNIRTUNG A","2403051","2023-01-12 21:00","2023","01","12","21:00"
"-65.71","66.15","PANGNIRTUNG A","2403051","2023-01-12 22:00","2023","01","12","22:00"
"-65.71","66.15","PANGNIRTUNG A","2403051","2023-01-12 23:00","2023","01","12","23:00"
"-65.71","66.15","PANGNIRTUNG A","2403051","2023-01-13 00:00","2023","01","13","00:00"
"-65.71","66.15","PANGNIRTUNG A","2403051","2023-01-13 01:00","2023","01","13","01:00"
"-65.71","66.15","PANGNIRTUNG A","2403051","2023-01-13 02:00","2023","01","13","02:00"
"-65.71","66.15","PANGNIRTUNG A","2403051","2023-01-13 03:00","2023","01","13","03:00"
"-65.71","66.15","PANGNIRTUNG A","2403051","2023-01-13 04:00","2023","01","13","04:00"
"-65.71","66.15","PANGNIRTUNG A","2403051","2023-01-13 05:00","2023","01","13","05:00"
"-65.71","66.15","PANGNIRTUNG A","2403051","2023-01-13 06:00","2023","01","13","06:00"
"-65.71","66.15","PANGNIRTUNG A","2403051","2023-01-13 07:00","2023","01","13","07:00","-24.3","","-28.0","","72","","","","10","","5","","24.1","","100.30","","","","-29","","Clear"
"-65.71","66.15","PANGNIRTUNG A","2403051","2023-01-13 08:00","2023","01","13","08:00","-23.9","","-27.0","","76","","","","22","","5","","24.1","","100.34","","","","-29","","Ice Crystals"
"-65.71","66.15","PANGNIRTUNG A","2403051","2023-01-13 09:00","2023","01","13","09:00","-24.5","","-27.2","","79","","","","36","","2","","24.1","","100.38","","","","-26","","Ice Crystals"
"-65.71","66.15","PANGNIRTUNG A","2403051","2023-01-13 10:00","2023","01","13","10:00","-24.5","","-27.2","","79","","","","23","","4","","24.1","","100.41","","","","-28","","Ice Crystals"
"-65.71","66.15","PANGNIRTUNG A","2403051","2023-01-13 11:00","2023","01","13","11:00","-25.1","","-27.6","","80","","","","24","","8","","24.1","","100.42","","","","-32","","Ice Crystals"
"-65.71","66.15","PANGNIRTUNG A","2403051","2023-01-13 12:00","2023","01","13","12:00","-26.1","","-28.7","","79","","","","25","","11","","24.1","","100.45","","","","-35","","Ice Crystals"
"-65.71","66.15","PANGNIRTUNG A","2403051","2023-01-13 13:00","2023","01","13","13:00","-27.0","","-29.6","","79","","","","24","","14","","24.1","","100.51","","","","-37","","Mainly Clear"
"-65.71","66.15","PANGNIRTUNG A","2403051","2023-01-13 14:00","2023","01","13","14:00","-27.8","","-30.7","","77","","","","24","","17","","16.1","","100.60","","","","-39","","Ice Crystals"
"-65.71","66.15","PANGNIRTUNG A","2403051","2023-01-13 15:00","2023","01","13","15:00","-28.6","","-31.6","","76","","","","24","","14","","19.3","","100.69","","","","-39","","Ice Crystals"
"-65.71","66.15","PANGNIRTUNG A","2403051","2023-01-13 16:00","2023","01","13","16:00","-29.0","","-32.0","","76","","","","24","","16","","24.1","","100.76","","","","-41","","Ice Crystals"
"-65.71","66.15","PANGNIRTUNG A","2403051","2023-01-13 17:00","2023","01","13","17:00","-28.9","","-32.0","","75","","","","24","","14","","24.1","","100.83","","","","-40","","NA"
"-65.71","66.15","PANGNIRTUNG A","2403051","2023-01-13 18:00","2023","01","13","18:00","-29.2","","-32.2","","76","","","","24","","13","","16.1","","100.87","","","","-40","","Ice Crystals"
"-65.71","66.15","PANGNIRTUNG A","2403051","2023-01-13 19:00","2023","01","13","19:00"
"-65.71","66.15","PANGNIRTUNG A","2403051","2023-01-13 20:00","2023","01","13","20:00"
"-65.71","66.15","PANGNIRTUNG A","2403051","2023-01-13 21:00","2023","01","13","21:00"
"-65.71","66.15","PANGNIRTUNG A","2403051","2023-01-13 22:00","2023","01","13","22:00"
"-65.71","66.15","PANGNIRTUNG A","2403051","2023-01-13 23:00","2023","01","13","23:00"
"-65.71","66.15","PANGNIRTUNG A","2403051","2023-01-14 00:00","2023","01","14","00:00"
"-65.71","66.15","PANGNIRTUNG A","2403051","2023-01-14 01:00","2023","01","14","01:00"
"-65.71","66.15","PANGNIRTUNG A","2403051","2023-01-14 02:00","2023","01","14","02:00"
"-65.71","66.15","PANGNIRTUNG A","2403051","2023-01-14 03:00","2023","01","14","03:00"
"-65.71","66.15","PANGNIRTUNG A","2403051","2023-01-14 04:00","2023","01","14","04:00"
"-65.71","66.15","PANGNIRTUNG A","2403051","2023-01-14 05:00","2023","01","14","05:00"
"-65.71","66.15","PANGNIRTUNG A","2403051","2023-01-14 06:00","2023","01","14","06:00"
"-65.71","66.15","PANGNIRTUNG A","2403051","2023-01-14 07:00","2023","01","14","07:00"
"-65.71","66.15","PANGNIRTUNG A","2403051","2023-01-14 08:00","2023","01","14","08:00"
"-65.71","66.15","PANGNIRTUNG A","2403051","2023-01-14 09:00","2023","01","14","09:00"
"-65.71","66.15","PANGNIRTUNG A","2403051","2023-01-14 10:00","2023","01","14","10:00","-27.9","","-30.9","","76","","","","9","","7","","24.1","","100.54","","","","-35","","Ice Crystals"
"-65.71","66.15","PANGNIRTUNG A","2403051","2023-01-14 11:00","2023","01","14","11:00","-27.6","","-30.6","","76","","","","10","","5","","24.1","","100.47","","","","-33","","Ice Crystals"
"-65.71","66.15","PANGNIRTUNG A","2403051","2023-01-14 12:00","2023","01","14","12:00","-27.1","","-30.3","","75","","","","5","","9","","8.1","","100.34","","","","-35","","Snow"
"-65.71","66.15","PANGNIRTUNG A","2403051","2023-01-14 13:00","2023","01","14","13:00","-26.6","","-29.6","","76","","","","7","","5","","2.4","","100.29","","","","-32","","Snow"
"-65.71","66.15","PANGNIRTUNG A","2403051","2023-01-14 14:00","2023","01","14","14:00","-25.9","","-28.7","","78","","","","10","","3","","1.2","","100.31","","","","-29","","Snow"
"-65.71","66.15","PANGNIRTUNG A","2403051","2023-01-14 15:00","2023","01","14","15:00","-24.9","","-27.8","","77","","","","11","","7","","1.6","","100.24","","","","-31","","Snow"
"-65.71","66.15","PANGNIRTUNG A","2403051","2023-01-14 16:00","2023","01","14","16:00"
"-65.71","66.15","PANGNIRTUNG A","2403051","2023-01-14 17:00","2023","01","14","17:00"
"-65.71","66.15","PANGNIRTUNG A","2403051","2023-01-14 18:00","2023","01","14","18:00"
"-65.71","66.15","PANGNIRTUNG A","2403051","2023-01-14 19:00","2023","01","14","19:00"
"-65.71","66.15","PANGNIRTUNG A","2403051","2023-01-14 20:00","2023","01","14","20:00"
"-65.71","66.15","PANGNIRTUNG A","2403051","2023-01-14 21:00","2023","01","14","21:00"
"-65.71","66.15","PANGNIRTUNG A","2403051","2023-01-14 22:00","2023","01","14","22:00"
"-65.71","66.15","PANGNIRTUNG A","2403051","2023-01-14 23:00","2023","01","14","23:00"
"-65.71","66.15","PANGNIRTUNG A","2403051","2023-01-15 00:00","2023","01","15","00:00"
"-65.71","66.15","PANGNIRTUNG A","2403051","2023-01-15 01:00","2023","01","15","01:00"
"-65.71","66.15","PANGNIRTUNG A","2403051","2023-01-15 02:00","2023","01","15","02:00"
"-65.71","66.15","PANGNIRTUNG A","2403051","2023-01-15 03:00","2023","01","15","03:00"
"-65.71","66.15","PANGNIRTUNG A","2403051","2023-01-15 04:00","2023","01","15","04:00"
"-65.71","66.15","PANGNIRTUNG A","2403051","2023-01-15 05:00","2023","01","15","05:00"
"-65.71","66.15","PANGNIRTUNG A","2403051","2023-01-15 06:00","2023","01","15","06:00"
"-65.71","66.15","PANGNIRTUNG A","2403051","2023-01-15 07:00","2023","01","15","07:00"
"-65.71","66.15","PANGNIRTUNG A","2403051","2023-01-15 08:00","2023","01","15","08:00"
"-65.71","66.15","PANGNIRTUNG A","2403051","2023-01-15 09:00","2023","01","15","09:00"
"-65.71","66.15","PANGNIRTUNG A","2403051","2023-01-15 10:00","2023","01","15","10:00"
"-65.71","66.15","PANGNIRTUNG A","2403051","2023-01-15 11:00","2023","01","15","11:00"
"-65.71","66.15","PANGNIRTUNG A","2403051","2023-01-15 12:00","2023","01","15","12:00","-34.1","","-38.0","","69","","","","25","","24","","16.1","","101.22","","","","-49","","Ice Crystals"
"-65.71","66.15","PANGNIRTUNG A","2403051","2023-01-15 13:00","2023","01","15","13:00","-33.6","","-37.6","","68","","","","25","","18","","16.1","","101.31","","","","-47","","Ice Crystals"
"-65.71","66.15","PANGNIRTUNG A","2403051","2023-01-15 14:00","2023","01","15","14:00","-33.4","","-37.3","","69","","","","25","","23","","12.9","","101.38","","","","-48","","Ice Crystals"
"-65.71","66.15","PANGNIRTUNG A","2403051","2023-01-15 15:00","2023","01","15","15:00","-33.3","","-37.3","","68","","","","26","","28","","12.9","","101.46","","","","-49","","Ice Crystals"
"-65.71","66.15","PANGNIRTUNG A","2403051","2023-01-15 16:00","2023","01","15","16:00","-33.5","","-37.7","","67","","","","25","","25","","16.1","","101.54","","","","-49","","Ice Crystals"
"-65.71","66.15","PANGNIRTUNG A","2403051","2023-01-15 17:00","2023","01","15","17:00"
"-65.71","66.15","PANGNIRTUNG A","2403051","2023-01-15 18:00","2023","01","15","18:00"
"-65.71","66.15","PANGNIRTUNG A","2403051","2023-01-15 19:00","2023","01","15","19:00"
"-65.71","66.15","PANGNIRTUNG A","2403051","2023-01-15 20:00","2023","01","15","20:00"
"-65.71","66.15","PANGNIRTUNG A","2403051","2023-01-15 21:00","2023","01","15","21:00"
"-65.71","66.15","PANGNIRTUNG A","2403051","2023-01-15 22:00","2023","01","15","22:00"
"-65.71","66.15","PANGNIRTUNG A","2403051","2023-01-15 23:00","2023","01","15","23:00"
"-65.71","66.15","PANGNIRTUNG A","2403051","2023-01-16 00:00","2023","01","16","00:00"
"-65.71","66.15","PANGNIRTUNG A","2403051","2023-01-16 01:00","2023","01","16","01:00"
"-65.71","66.15","PANGNIRTUNG A","2403051","2023-01-16 02:00","2023","01","16","02:00"
"-65.71","66.15","PANGNIRTUNG A","2403051","2023-01-16 03:00","2023","01","16","03:00"
"-65.71","66.15","PANGNIRTUNG A","2403051","2023-01-16 04:00","2023","01","16","04:00"
"-65.71","66.15","PANGNIRTUNG A","2403051","2023-01-16 05:00","2023","01","16","05:00"
"-65.71","66.15","PANGNIRTUNG A","2403051","2023-01-16 06:00","2023","01","16","06:00"
"-65.71","66.15","PANGNIRTUNG A","2403051","2023-01-16 07:00","2023","01","16","07:00","-33.7","","-38.1","","66","","","","25","","21","","19.3","","102.46","","","","-48","","Ice Crystals"
"-65.71","66.15","PANGNIRTUNG A","2403051","2023-01-16 08:00","2023","01","16","08:00","-34.8","","-39.2","","65","","","","24","","23","","24.1","","102.56","","","","-50","","Ice Crystals,Blowing Snow"
"-65.71","66.15","PANGNIRTUNG A","2403051","2023-01-16 09:00","2023","01","16","09:00","-34.5","","-39.0","","65","","","","25","","19","","24.1","","102.59","","","","-48","","Ice Crystals,Blowing Snow"
"-65.71","66.15","PANGNIRTUNG A","2403051","2023-01-16 10:00","2023","01","16","10:00","-34.8","","-39.5","","63","","","","24","","21","","24.1","","102.62","","","","-49","","Ice Crystals,Blowing Snow"
"-65.71","66.15","PANGNIRTUNG A","2403051","2023-01-16 11:00","2023","01","16","11:00","-34.1","","-39.0","","62","","","","26","","4","","24.1","","102.62","","","","-39","","Ice Crystals"
"-65.71","66.15","PANGNIRTUNG A","2403051","2023-01-16 12:00","2023","01","16","12:00","-34.8","","-39.2","","65","","","","23","","13","","24.1","","102.62","","","","-46","","Ice Crystals"
"-65.71","66.15","PANGNIRTUNG A","2403051","2023-01-16 13:00","2023","01","16","13:00","-34.9","","-39.8","","62","","","","25","","12","","24.1","","102.65","","","","-46","","Ice Crystals"
"-65.71","66.15","PANGNIRTUNG A","2403051","2023-01-16 14:00","2023","01","16","14:00","-34.4","","-39.3","","62","","","","24","","6","","24.1","","102.67","","","","-42","","Ice Crystals"
"-65.71","66.15","PANGNIRTUNG A","2403051","2023-01-16 15:00","2023","01","16","15:00","-34.8","","-39.4","","64","","","","24","","10","","24.1","","102.69","","","","-45","","Ice Crystals"
"-65.71","66.15","PANGNIRTUNG A","2403051","2023-01-16 16:00","2023","01","16","16:00","-35.3","","-40.4","","61","","","","9","","5","","24.1","","102.71","","","","-42","","Ice Crystals"
"-65.71","66.15","PANGNIRTUNG A","2403051","2023-01-16 17:00","2023","01","16","17:00","-35.1","","-40.0","","62","","","","22","","5","","24.1","","102.73","","","","-41","","Ice Crystals"
"-65.71","66.15","PANGNIRTUNG A","2403051","2023-01-16 18:00","2023","01","16","18:00","-34.5","","-39.1","","64","","","","36","","1","","24.1","","102.73","","","","-36","","Ice Crystals"
"-65.71","66.15","PANGNIRTUNG A","2403051","2023-01-16 19:00","2023","01","16","19:00","-34.6","","-39.1","","64","","","","36","","1","","24.1","","102.72","","","","-36","","Clear"
"-65.71","66.15","PANGNIRTUNG A","2403051","2023-01-16 20:00","2023","01","16","20:00","-35.6","","-40.5","","62","","","","10","","8","","24.1","","102.72","","","","-45","","NA"
"-65.71","66.15","PANGNIRTUNG A","2403051","2023-01-16 21:00","2023","01","16","21:00","-34.5","","-39.3","","63","","","","10","","9","","24.1","","102.74","","","","-44","","NA"
"-65.71","66.15","PANGNIRTUNG A","2403051","2023-01-16 22:00","2023","01","16","22:00"
"-65.71","66.15","PANGNIRTUNG A","2403051","2023-01-16 23:00","2023","01","16","23:00"
"-65.71","66.15","PANGNIRTUNG A","2403051","2023-01-17 00:00","2023","01","17","00:00"
"-65.71","66.15","PANGNIRTUNG A","2403051","2023-01-17 01:00","2023","01","17","01:00"
"-65.71","66.15","PANGNIRTUNG A","2403051","2023-01-17 02:00","2023","01","17","02:00"
"-65.71","66.15","PANGNIRTUNG A","2403051","2023-01-17 03:00","2023","01","17","03:00"
"-65.71","66.15","PANGNIRTUNG A","2403051","2023-01-17 04:00","2023","01","17","04:00"
"-65.71","66.15","PANGNIRTUNG A","2403051","2023-01-17 05:00","2023","01","17","05:00"
"-65.71","66.15","PANGNIRTUNG A","2403051","2023-01-17 06:00","2023","01","17","06:00"
"-65.71","66.15","PANGNIRTUNG A","2403051","2023-01-17 07:00","2023","01","17","07:00","-32.3","","-37.5","","61","","","","36","","1","","24.1","","102.71","","","","-33","","Ice Crystals"
"-65.71","66.15","PANGNIRTUNG A","2403051","2023-01-17 08:00","2023","01","17","08:00","-32.5","","-38.0","","59","","","","8","","7","","24.1","","102.70","","","","-40","","NA"
"-65.71","66.15","PANGNIRTUNG A","2403051","2023-01-17 09:00","2023","01","17","09:00","-31.5","","-36.9","","60","","","","11","","4","","24.1","","102.74","","","","-36","","NA"
"-65.71","66.15","PANGNIRTUNG A","2403051","2023-01-17 10:00","2023","01","17","10:00","-31.2","","-36.6","","60","","","","36","","2","","24.1","","102.73","","","","-34","","Mainly Clear"
"-65.71","66.15","PANGNIRTUNG A","2403051","2023-01-17 11:00","2023","01","17","11:00","-31.9","","-36.3","","66","","","","11","","9","","24.1","","102.71","","","","-41","","NA"
"-65.71","66.15","PANGNIRTUNG A","2403051","2023-01-17 12:00","2023","01","17","12:00","-31.4","","-36.3","","63","","","","4","","7","","24.1","","102.66","","","","-39","","NA"
"-65.71","66.15","PANGNIRTUNG A","2403051","2023-01-17 13:00","2023","01","17","13:00","-30.9","","-36.5","","59","","","","8","","8","","24.1","","102.58","","","","-39","","Mostly Cloudy"
"-65.71","66.15","PANGNIRTUNG A","2403051","2023-01-17 14:00","2023","01","17","14:00","-30.0","","-36.0","","57","","","","10","","8","","24.1","","102.54","","","","-38","","NA"
"-65.71","66.15","PANGNIRTUNG A","2403051","2023-01-17 15:00","2023","01","17","15:00","-30.5","","-35.5","","63","","","","10","","6","","24.1","","102.51","","","","-37","","NA"
"-65.71","66.15","PANGNIRTUNG A","2403051","2023-01-17 16:00","2023","01","17","16:00","-28.8","","-35.0","","56","","","","8","","5","","24.1","","102.49","","","","-34","","Mostly Cloudy"
"-65.71","66.15","PANGNIRTUNG A","2403051","2023-01-17 17:00","2023","01","17","17:00","-28.5","","-34.4","","58","","","","36","","1","","24.1","","102.45","","","","-30","","NA"
"-65.71","66.15","PANGNIRTUNG A","2403051","2023-01-17 18:00","2023","01","17","18:00","-28.3","","-33.3","","63","","","","8","","4","","24.1","","102.42","","","","-33","","NA"
"-65.71","66.15","PANGNIRTUNG A","2403051","2023-01-17 19:00","2023","01","17","19:00"
"-65.71","66.15","PANGNIRTUNG A","2403051","2023-01-17 20:00","2023","01","17","20:00"
"-65.71","66.15","PANGNIRTUNG A","2403051","2023-01-17 21:00","2023","01","17","21:00"
"-65.71","66.15","PANGNIRTUNG A","2403051","2023-01-17 22:00","2023","01","17","22:00"
"-65.71","66.15","PANGNIRTUNG A","2403051","2023-01-17 23:00","2023","01","17","23:00"
"-65.71","66.15","PANGNIRTUNG A","2403051","2023-01-18 00:00","2023","01","18","00:00"
"-65.71","66.15","PANGNIRTUNG A","2403051","2023-01-18 01:00","2023","01","18","01:00"
"-65.71","66.15","PANGNIRTUNG A","2403051","2023-01-18 02:00","2023","01","18","02:00"
"-65.71","66.15","PANGNIRTUNG A","2403051","2023-01-18 03:00","2023","01","18","03:00"
"-65.71","66.15","PANGNIRTUNG A","2403051","2023-01-18 04:00","2023","01","18","04:00"
"-65.71","66.15","PANGNIRTUNG A","2403051","2023-01-18 05:00","2023","01","18","05:00"
"-65.71","66.15","PANGNIRTUNG A","2403051","2023-01-18 06:00","2023","01","18","06:00"
"-65.71","66.15","PANGNIRTUNG A","2403051","2023-01-18 07:00","2023","01","18","07:00","-24.3","","-29.9","","61","","","","9","","7","","24.1","","101.96","","","","-31","","Cloudy"
"-65.71","66.15","PANGNIRTUNG A","2403051","2023-01-18 08:00","2023","01","18","08:00","-23.0","","-31.0","","49","","","","10","","8","","24.1","","101.94","","","","-30","","NA"
"-65.71","66.15","PANGNIRTUNG A","2403051","2023-01-18 09:00","2023","01","18","09:00","-23.1","","-30.2","","53","","","","10","","7","","24.1","","101.91","","","","-29","","NA"
"-65.71","66.15","PANGNIRTUNG A","2403051","2023-01-18 10:00","2023","01","18","10:00","-22.1","","-30.8","","46","","","","9","","6","","24.1","","101.89","","","","-27","","Mostly Cloudy"
"-65.71","66.15","PANGNIRTUNG A","2403051","2023-01-18 11:00","2023","01","18","11:00","-22.2","","-31.3","","44","","","","36","","1","","24.1","","101.88","","","","-23","","NA"
"-65.71","66.15","PANGNIRTUNG A","2403051","2023-01-18 12:00","2023","01","18","12:00","-22.0","","-31.3","","44","","","","11","","5","","24.1","","101.85","","","","-27","","NA"
"-65.71","66.15","PANGNIRTUNG A","2403051","2023-01-18 13:00","2023","01","18","13:00","-22.5","","-31.0","","47","","","","26","","8","","24.1","","101.85","","","","-29","","Mainly Clear"
"-65.71","66.15","PANGNIRTUNG A","2403051","2023-01-18 14:00","2023","01","18","14:00","-24.5","","-30.4","","59","","","","24","","3","","24.1","","101.88","","","","-27","","NA"
"-65.71","66.15","PANGNIRTUNG A","2403051","2023-01-18 15:00","2023","01","18","15:00","-23.7","","-31.0","","52","","","","36","","2","","24.1","","101.91","","","","-26","","NA"
"-65.71","66.15","PANGNIRTUNG A","2403051","2023-01-18 16:00","2023","01","18","16:00","-23.8","","-31.3","","51","","","","36","","2","","24.1","","101.94","","","","-26","","Clear"
"-65.71","66.15","PANGNIRTUNG A","2403051","2023-01-18 17:00","2023","01","18","17:00","-22.7","","-32.1","","43","","","","11","","12","","24.1","","101.92","","","","-31","","NA"
"-65.71","66.15","PANGNIRTUNG A","2403051","2023-01-18 18:00","2023","01","18","18:00","-24.1","","-31.5","","52","","","","0","","1","","24.1","","101.95","","","","-25","","NA"
"-65.71","66.15","PANGNIRTUNG A","2403051","2023-01-18 19:00","2023","01","18","19:00"
"-65.71","66.15","PANGNIRTUNG A","2403051","2023-01-18 20:00","2023","01","18","20:00"
"-65.71","66.15","PANGNIRTUNG A","2403051","2023-01-18 21:00","2023","01","18","21:00"
"-65.71","66.15","PANGNIRTUNG A","2403051","2023-01-18 22:00","2023","01","18","22:00"
"-65.71","66.15","PANGNIRTUNG A","2403051","2023-01-18 23:00","2023","01","18","23:00"
"-65.71","66.15","PANGNIRTUNG A","2403051","2023-01-19 00:00","2023","01","19","00:00"
"-65.71","66.15","PANGNIRTUNG A","2403051","2023-01-19 01:00","2023","01","19","01:00"
"-65.71","66.15","PANGNIRTUNG A","2403051","2023-01-19 02:00","2023","01","19","02:00"
"-65.71","66.15","PANGNIRTUNG A","2403051","2023-01-19 03:00","2023","01","19","03:00"
"-65.71","66.15","PANGNIRTUNG A","2403051","2023-01-19 04:00","2023","01","19","04:00"
"-65.71","66.15","PANGNIRTUNG A","2403051","2023-01-19 05:00","2023","01","19","05:00"
"-65.71","66.15","PANGNIRTUNG A","2403051","2023-01-19 06:00","2023","01","19","06:00"
"-65.71","66.15","PANGNIRTUNG A","2403051","2023-01-19 07:00","2023","01","19","07:00","-28.1","","-31.8","","71","","","","24","","8","","24.1","","101.85","","","","-36","","Mostly Cloudy"
"-65.71","66.15","PANGNIRTUNG A","2403051","2023-01-19 08:00","2023","01","19","08:00","-28.0","","-31.9","","70","","","","22","","4","","24.1","","101.84","","","","-32","","NA"
"-65.71","66.15","PANGNIRTUNG A","2403051","2023-01-19 09:00","2023","01","19","09:00","-28.1","","-32.0","","70","","","","15","","3","","11.3","","101.81","","","","-31","","Snow"
"-65.71","66.15","PANGNIRTUNG A","2403051","2023-01-19 10:00","2023","01","19","10:00","-28.3","","-31.8","","72","","","","14","","3","","24.1","","101.76","","","","-32","","Mostly Cloudy"
"-65.71","66.15","PANGNIRTUNG A","2403051","2023-01-19 11:00","2023","01","19","11:00","-28.3","","-31.9","","72","","","","36","","2","","24.1","","101.71","","","","-30","","NA"
"-65.71","66.15","PANGNIRTUNG A","2403051","2023-01-19 12:00","2023","01","19","12:00","-28.5","","-32.0","","73","","","","11","","3","","24.1","","101.64","","","","-32","","NA"
"-65.71","66.15","PANGNIRTUNG A","2403051","2023-01-19 13:00","2023","01","19","13:00","-28.4","","-32.0","","72","","","","12","","3","","24.1","","101.63","","","","-32","","Mainly Clear"
"-65.71","66.15","PANGNIRTUNG A","2403051","2023-01-19 14:00","2023","01","19","14:00","-28.8","","-32.2","","73","","","","36","","3","","24.1","","101.59","","","","-32","","Snow"
"-65.71","66.15","PANGNIRTUNG A","2403051","2023-01-19 15:00","2023","01","19","15:00","-29.1","","-32.1","","76","","","","12","","5","","24.1","","101.55","","","","-35","","NA"
"-65.71","66.15","PANGNIRTUNG A","2403051","2023-01-19 16:00","2023","01","19","16:00","-29.8","","-33.1","","74","","","","9","","7","","24.1","","101.51","","","","-37","","Mainly Clear"
"-65.71","66.15","PANGNIRTUNG A","2403051","2023-01-19 17:00","2023","01","19","17:00","-29.6","","-32.8","","75","","","","36","","2","","24.1","","101.47","","","","-32","","NA"
"-65.71","66.15","PANGNIRTUNG A","2403051","2023-01-19 18:00","2023","01","19","18:00","-29.2","","-32.3","","75","","","","36","","3","","24.1","","101.42","","","","-33","","NA"
"-65.71","66.15","PANGNIRTUNG A","2403051","2023-01-19 19:00","2023","01","19","19:00"
"-65.71","66.15","PANGNIRTUNG A","2403051","2023-01-19 20:00","2023","01","19","20:00"
"-65.71","66.15","PANGNIRTUNG A","2403051","2023-01-19 21:00","2023","01","19","21:00"
"-65.71","66.15","PANGNIRTUNG A","2403051","2023-01-19 22:00","2023","01","19","22:00"
"-65.71","66.15","PANGNIRTUNG A","2403051","2023-01-19 23:00","2023","01","19","23:00"
"-65.71","66.15","PANGNIRTUNG A","2403051","2023-01-20 00:00","2023","01","20","00:00"
"-65.71","66.15","PANGNIRTUNG A","2403051","2023-01-20 01:00","2023","01","20","01:00"
"-65.71","66.15","PANGNIRTUNG A","2403051","2023-01-20 02:00","2023","01","20","02:00"
"-65.71","66.15","PANGNIRTUNG A","2403051","2023-01-20 03:00","2023","01","20","03:00"
"-65.71","66.15","PANGNIRTUNG A","2403051","2023-01-20 04:00","2023","01","20","04:00"
"-65.71","66.15","PANGNIRTUNG A","2403051","2023-01-20 05:00","2023","01","20","05:00"
"-65.71","66.15","PANGNIRTUNG A","2403051","2023-01-20 06:00","2023","01","20","06:00"
"-65.71","66.15","PANGNIRTUNG A","2403051","2023-01-20 07:00","2023","01","20","07:00","-26.8","","-30.2","","74","","","","36","","1","","24.1","","100.77","","","","-28","","Mainly Clear"
"-65.71","66.15","PANGNIRTUNG A","2403051","2023-01-20 08:00","2023","01","20","08:00","-27.3","","-30.6","","74","","","","29","","4","","24.1","","100.79","","","","-32","","NA"
"-65.71","66.15","PANGNIRTUNG A","2403051","2023-01-20 09:00","2023","01","20","09:00","-26.8","","-30.8","","70","","","","36","","3","","24.1","","100.77","","","","-30","","NA"
"-65.71","66.15","PANGNIRTUNG A","2403051","2023-01-20 10:00","2023","01","20","10:00","-27.3","","-30.8","","73","","","","0","","1","","24.1","","100.74","","","","-28","","Clear"
"-65.71","66.15","PANGNIRTUNG A","2403051","2023-01-20 11:00","2023","01","20","11:00","-27.5","","-30.8","","74","","","","25","","5","","24.1","","100.71","","","","-33","","NA"
"-65.71","66.15","PANGNIRTUNG A","2403051","2023-01-20 12:00","2023","01","20","12:00","-27.2","","-31.2","","70","","","","36","","2","","24.1","","100.69","","","","-29","","NA"
"-65.71","66.15","PANGNIRTUNG A","2403051","2023-01-20 13:00","2023","01","20","13:00","-27.4","","-31.0","","72","","","","26","","7","","24.1","","100.68","","","","-34","","Clear"
"-65.71","66.15","PANGNIRTUNG A","2403051","2023-01-20 14:00","2023","01","20","14:00","-27.3","","-31.1","","71","","","","36","","3","","24.1","","100.68","","","","-30","","NA"
"-65.71","66.15","PANGNIRTUNG A","2403051","2023-01-20 15:00","2023","01","20","15:00","-27.5","","-31.6","","69","","","","24","","4","","24.1","","100.67","","","","-32","","NA"
"-65.71","66.15","PANGNIRTUNG A","2403051","2023-01-20 16:00","2023","01","20","16:00","-28.0","","-31.8","","71","","","","25","","9","","24.1","","100.65","","","","-36","","Clear"
"-65.71","66.15","PANGNIRTUNG A","2403051","2023-01-20 17:00","2023","01","20","17:00","-28.0","","-31.9","","70","","","","9","","6","","24.1","","100.66","","","","-34","","NA"
"-65.71","66.15","PANGNIRTUNG A","2403051","2023-01-20 18:00","2023","01","20","18:00","-28.3","","-31.9","","72","","","","10","","7","","24.1","","100.61","","","","-35","","NA"
"-65.71","66.15","PANGNIRTUNG A","2403051","2023-01-20 19:00","2023","01","20","19:00"
"-65.71","66.15","PANGNIRTUNG A","2403051","2023-01-20 20:00","2023","01","20","20:00"
"-65.71","66.15","PANGNIRTUNG A","2403051","2023-01-20 21:00","2023","01","20","21:00"
"-65.71","66.15","PANGNIRTUNG A","2403051","2023-01-20 22:00","2023","01","20","22:00"
"-65.71","66.15","PANGNIRTUNG A","2403051","2023-01-20 23:00","2023","01","20","23:00"
"-65.71","66.15","PANGNIRTUNG A","2403051","2023-01-21 00:00","2023","01","21","00:00"
"-65.71","66.15","PANGNIRTUNG A","2403051","2023-01-21 01:00","2023","01","21","01:00"
"-65.71","66.15","PANGNIRTUNG A","2403051","2023-01-21 02:00","2023","01","21","02:00"
"-65.71","66.15","PANGNIRTUNG A","2403051","2023-01-21 03:00","2023","01","21","03:00"
"-65.71","66.15","PANGNIRTUNG A","2403051","2023-01-21 04:00","2023","01","21","04:00"
"-65.71","66.15","PANGNIRTUNG A","2403051","2023-01-21 05:00","2023","01","21","05:00"
"-65.71","66.15","PANGNIRTUNG A","2403051","2023-01-21 06:00","2023","01","21","06:00"
"-65.71","66.15","PANGNIRTUNG A","2403051","2023-01-21 07:00","2023","01","21","07:00"
"-65.71","66.15","PANGNIRTUNG A","2403051","2023-01-21 08:00","2023","01","21","08:00"
"-65.71","66.15","PANGNIRTUNG A","2403051","2023-01-21 09:00","2023","01","21","09:00"
"-65.71","66.15","PANGNIRTUNG A","2403051","2023-01-21 10:00","2023","01","21","10:00","-21.8","","-25.0","","76","","","","8","","11","","6.4","","99.49","","","","-30","","Snow"
"-65.71","66.15","PANGNIRTUNG A","2403051","2023-01-21 11:00","2023","01","21","11:00","-20.9","","-24.4","","74","","","","12","","16","","6.4","","99.40","","","","-31","","Snow"
"-65.71","66.15","PANGNIRTUNG A","2403051","2023-01-21 12:00","2023","01","21","12:00","-20.4","","-23.6","","76","","","","7","","5","","12.9","","99.35","","","","-25","","Snow"
"-65.71","66.15","PANGNIRTUNG A","2403051","2023-01-21 13:00","2023","01","21","13:00","-20.0","","-23.3","","75","","","","10","","6","","12.9","","99.27","","","","-25","","Snow"
"-65.71","66.15","PANGNIRTUNG A","2403051","2023-01-21 14:00","2023","01","21","14:00","-19.7","","-22.9","","76","","","","7","","12","","16.1","","99.23","","","","-28","","Snow,Blowing Snow"
"-65.71","66.15","PANGNIRTUNG A","2403051","2023-01-21 15:00","2023","01","21","15:00","-19.3","","-22.5","","76","","","","12","","8","","12.9","","99.21","","","","-25","","Snow"
"-65.71","66.15","PANGNIRTUNG A","2403051","2023-01-21 16:00","2023","01","21","16:00"
"-65.71","66.15","PANGNIRTUNG A","2403051","2023-01-21 17:00","2023","01","21","17:00"
"-65.71","66.15","PANGNIRTUNG A","2403051","2023-01-21 18:00","2023","01","21","18:00"
"-65.71","66.15","PANGNIRTUNG A","2403051","2023-01-21 19:00","2023","01","21","19:00"
"-65.71","66.15","PANGNIRTUNG A","2403051","2023-01-21 20:00","2023","01","21","20:00"
"-65.71","66.15","PANGNIRTUNG A","2403051","2023-01-21 21:00","2023","01","21","21:00"
"-65.71","66.15","PANGNIRTUNG A","2403051","2023-01-21 22:00","2023","01","21","22:00"
"-65.71","66.15","PANGNIRTUNG A","2403051","2023-01-21 23:00","2023","01","21","23:00"
"-65.71","66.15","PANGNIRTUNG A","2403051","2023-01-22 00:00","2023","01","22","00:00"
"-65.71","66.15","PANGNIRTUNG A","2403051","2023-01-22 01:00","2023","01","22","01:00"
"-65.71","66.15","PANGNIRTUNG A","2403051","2023-01-22 02:00","2023","01","22","02:00"
"-65.71","66.15","PANGNIRTUNG A","2403051","2023-01-22 03:00","2023","01","22","03:00"
"-65.71","66.15","PANGNIRTUNG A","2403051","2023-01-22 04:00","2023","01","22","04:00"
"-65.71","66.15","PANGNIRTUNG A","2403051","2023-01-22 05:00","2023","01","22","05:00"
"-65.71","66.15","PANGNIRTUNG A","2403051","2023-01-22 06:00","2023","01","22","06:00"
"-65.71","66.15","PANGNIRTUNG A","2403051","2023-01-22 07:00","2023","01","22","07:00"
"-65.71","66.15","PANGNIRTUNG A","2403051","2023-01-22 08:00","2023","01","22","08:00"
"-65.71","66.15","PANGNIRTUNG A","2403051","2023-01-22 09:00","2023","01","22","09:00"
"-65.71","66.15","PANGNIRTUNG A","2403051","2023-01-22 10:00","2023","01","22","10:00"
"-65.71","66.15","PANGNIRTUNG A","2403051","2023-01-22 11:00","2023","01","22","11:00"
"-65.71","66.15","PANGNIRTUNG A","2403051","2023-01-22 12:00","2023","01","22","12:00","-20.1","","-22.9","","78","","","","6","","15","","12.9","","98.76","","","","-29","","Snow"
"-65.71","66.15","PANGNIRTUNG A","2403051","2023-01-22 13:00","2023","01","22","13:00","-19.8","","-22.6","","79","","","","5","","9","","12.9","","98.75","","","","-27","","Snow"
"-65.71","66.15","PANGNIRTUNG A","2403051","2023-01-22 14:00","2023","01","22","14:00","-19.8","","-22.6","","79","","","","6","","9","","6.4","","98.79","","","","-27","","Snow"
"-65.71","66.15","PANGNIRTUNG A","2403051","2023-01-22 15:00","2023","01","22","15:00","-19.5","","-22.1","","80","","","","8","","13","","6.4","","98.81","","","","-28","","Snow"
"-65.71","66.15","PANGNIRTUNG A","2403051","2023-01-22 16:00","2023","01","22","16:00","-19.7","","-22.4","","79","","","","6","","13","","6.4","","98.84","","","","-28","","Snow"
"-65.71","66.15","PANGNIRTUNG A","2403051","2023-01-22 17:00","2023","01","22","17:00"
"-65.71","66.15","PANGNIRTUNG A","2403051","2023-01-22 18:00","2023","01","22","18:00"
"-65.71","66.15","PANGNIRTUNG A","2403051","2023-01-22 19:00","2023","01","22","19:00"
"-65.71","66.15","PANGNIRTUNG A","2403051","2023-01-22 20:00","2023","01","22","20:00"
"-65.71","66.15","PANGNIRTUNG A","2403051","2023-01-22 21:00","2023","01","22","21:00"
"-65.71","66.15","PANGNIRTUNG A","2403051","2023-01-22 22:00","2023","01","22","22:00"
"-65.71","66.15","PANGNIRTUNG A","2403051","2023-01-22 23:00","2023","01","22","23:00"
"-65.71","66.15","PANGNIRTUNG A","2403051","2023-01-23 00:00","2023","01","23","00:00"
"-65.71","66.15","PANGNIRTUNG A","2403051","2023-01-23 01:00","2023","01","23","01:00"
"-65.71","66.15","PANGNIRTUNG A","2403051","2023-01-23 02:00","2023","01","23","02:00"
"-65.71","66.15","PANGNIRTUNG A","2403051","2023-01-23 03:00","2023","01","23","03:00"
"-65.71","66.15","PANGNIRTUNG A","2403051","2023-01-23 04:00","2023","01","23","04:00"
"-65.71","66.15","PANGNIRTUNG A","2403051","2023-01-23 05:00","2023","01","23","05:00"
"-65.71","66.15","PANGNIRTUNG A","2403051","2023-01-23 06:00","2023","01","23","06:00"
"-65.71","66.15","PANGNIRTUNG A","2403051","2023-01-23 07:00","2023","01","23","07:00","-29.5","","-32.6","","75","","","","36","","3","","24.1","","100.04","","","","-33","","Ice Crystals"
"-65.71","66.15","PANGNIRTUNG A","2403051","2023-01-23 08:00","2023","01","23","08:00","-29.5","","-33.0","","72","","","","10","","4","","24.1","","100.07","","","","-34","","Ice Crystals"
"-65.71","66.15","PANGNIRTUNG A","2403051","2023-01-23 09:00","2023","01","23","09:00","-29.4","","-32.5","","75","","","","11","","6","","24.1","","100.06","","","","-36","","Ice Crystals"
"-65.71","66.15","PANGNIRTUNG A","2403051","2023-01-23 10:00","2023","01","23","10:00","-29.9","","-33.0","","75","","","","10","","10","","24.1","","100.05","","","","-39","","Ice Crystals"
"-65.71","66.15","PANGNIRTUNG A","2403051","2023-01-23 11:00","2023","01","23","11:00","-29.4","","-32.6","","74","","","","11","","3","","24.1","","100.00","","","","-33","","Ice Crystals"
"-65.71","66.15","PANGNIRTUNG A","2403051","2023-01-23 12:00","2023","01","23","12:00","-29.1","","-31.7","","79","","","","36","","1","","24.1","","99.96","","","","-30","","Ice Crystals"
"-65.71","66.15","PANGNIRTUNG A","2403051","2023-01-23 13:00","2023","01","23","13:00","-28.6","","-31.4","","78","","","","10","","8","","24.1","","99.89","","","","-36","","Mostly Cloudy"
"-65.71","66.15","PANGNIRTUNG A","2403051","2023-01-23 14:00","2023","01","23","14:00","-28.1","","-31.1","","76","","","","11","","7","","24.1","","99.88","","","","-35","","NA"
"-65.71","66.15","PANGNIRTUNG A","2403051","2023-01-23 15:00","2023","01","23","15:00","-27.0","","-30.1","","75","","","","36","","3","","24.1","","99.87","","","","-30","","NA"
"-65.71","66.15","PANGNIRTUNG A","2403051","2023-01-23 16:00","2023","01","23","16:00","-27.7","","-30.6","","77","","","","25","","7","","24.1","","99.88","","","","-35","","Mainly Clear"
"-65.71","66.15","PANGNIRTUNG A","2403051","2023-01-23 17:00","2023","01","23","17:00","-28.2","","-31.1","","77","","","","24","","7","","24.1","","99.92","","","","-35","","NA"
"-65.71","66.15","PANGNIRTUNG A","2403051","2023-01-23 18:00","2023","01","23","18:00","-28.6","","-31.6","","76","","","","7","","5","","24.1","","99.92","","","","-34","","NA"
"-65.71","66.15","PANGNIRTUNG A","2403051","2023-01-23 19:00","2023","01","23","19:00"
"-65.71","66.15","PANGNIRTUNG A","2403051","2023-01-23 20:00","2023","01","23","20:00"
"-65.71","66.15","PANGNIRTUNG A","2403051","2023-01-23 21:00","2023","01","23","21:00"
"-65.71","66.15","PANGNIRTUNG A","2403051","2023-01-23 22:00","2023","01","23","22:00"
"-65.71","66.15","PANGNIRTUNG A","2403051","2023-01-23 23:00","2023","01","23","23:00"
"-65.71","66.15","PANGNIRTUNG A","2403051","2023-01-24 00:00","2023","01","24","00:00"
"-65.71","66.15","PANGNIRTUNG A","2403051","2023-01-24 01:00","2023","01","24","01:00"
"-65.71","66.15","PANGNIRTUNG A","2403051","2023-01-24 02:00","2023","01","24","02:00"
"-65.71","66.15","PANGNIRTUNG A","2403051","2023-01-24 03:00","2023","01","24","03:00"
"-65.71","66.15","PANGNIRTUNG A","2403051","2023-01-24 04:00","2023","01","24","04:00"
"-65.71","66.15","PANGNIRTUNG A","2403051","2023-01-24 05:00","2023","01","24","05:00"
"-65.71","66.15","PANGNIRTUNG A","2403051","2023-01-24 06:00","2023","01","24","06:00"
"-65.71","66.15","PANGNIRTUNG A","2403051","2023-01-24 07:00","2023","01","24","07:00","-24.1","","-28.0","","71","","","","8","","5","","9.7","","99.84","","","","-29","","Snow"
"-65.71","66.15","PANGNIRTUNG A","2403051","2023-01-24 08:00","2023","01","24","08:00","-23.9","","-27.3","","74","","","","36","","3","","12.9","","99.86","","","","-27","","Snow"
"-65.71","66.15","PANGNIRTUNG A","2403051","2023-01-24 09:00","2023","01","24","09:00","-23.7","","-27.5","","71","","","","8","","4","","16.1","","99.90","","","","-28","","Snow"
"-65.71","66.15","PANGNIRTUNG A","2403051","2023-01-24 10:00","2023","01","24","10:00","-23.9","","-27.6","","72","","","","9","","8","","12.9","","99.92","","","","-31","","Snow"
"-65.71","66.15","PANGNIRTUNG A","2403051","2023-01-24 11:00","2023","01","24","11:00","-23.7","","-26.9","","76","","","","6","","5","","16.1","","99.96","","","","-28","","Snow"
"-65.71","66.15","PANGNIRTUNG A","2403051","2023-01-24 12:00","2023","01","24","12:00","-23.4","","-26.8","","74","","","","","","0","","24.1","","99.99","","","","","","Ice Crystals"
"-65.71","66.15","PANGNIRTUNG A","2403051","2023-01-24 13:00","2023","01","24","13:00","-23.6","","-27.0","","74","","","","8","","5","","24.1","","100.03","","","","-28","","Ice Crystals"
"-65.71","66.15","PANGNIRTUNG A","2403051","2023-01-24 14:00","2023","01","24","14:00","-23.2","","-26.3","","76","","","","36","","1","","24.1","","100.06","","","","-24","","Ice Crystals"
"-65.71","66.15","PANGNIRTUNG A","2403051","2023-01-24 15:00","2023","01","24","15:00","-22.9","","-26.3","","74","","","","10","","10","","19.3","","100.12","","","","-31","","Ice Crystals"
"-65.71","66.15","PANGNIRTUNG A","2403051","2023-01-24 16:00","2023","01","24","16:00","-22.4","","-25.8","","74","","","","8","","4","","24.1","","100.16","","","","-26","","Ice Crystals"
"-65.71","66.15","PANGNIRTUNG A","2403051","2023-01-24 17:00","2023","01","24","17:00","-20.8","","-24.6","","72","","","","7","","5","","19.3","","100.18","","","","-25","","Ice Crystals"
"-65.71","66.15","PANGNIRTUNG A","2403051","2023-01-24 18:00","2023","01","24","18:00","-20.4","","-24.1","","73","","","","8","","12","","12.9","","100.18","","","","-29","","Ice Crystals"
"-65.71","66.15","PANGNIRTUNG A","2403051","2023-01-24 19:00","2023","01","24","19:00"
"-65.71","66.15","PANGNIRTUNG A","2403051","2023-01-24 20:00","2023","01","24","20:00","-19.4","","-23.7","","69","","","","13","","18","","24.1","","100.11","","","","-29","","Ice Crystals"
"-65.71","66.15","PANGNIRTUNG A","2403051","2023-01-24 21:00","2023","01","24","21:00","-20.1","","-23.5","","75","","","","10","","12","","16.1","","100.08","","","","-28","","Ice Crystals"
"-65.71","66.15","PANGNIRTUNG A","2403051","2023-01-24 22:00","2023","01","24","22:00","-19.1","","-22.6","","74","","","","0","","1","","24.1","","100.04","","","","-20","","Ice Crystals"
"-65.71","66.15","PANGNIRTUNG A","2403051","2023-01-24 23:00","2023","01","24","23:00","-19.0","","-22.4","","75","","","","24","","10","","24.1","","100.00","","","","-26","","Ice Crystals"
"-65.71","66.15","PANGNIRTUNG A","2403051","2023-01-25 00:00","2023","01","25","00:00","-20.1","","-22.4","","82","","","","25","","14","","19.3","","99.95","","","","-29","","Ice Crystals"
"-65.71","66.15","PANGNIRTUNG A","2403051","2023-01-25 01:00","2023","01","25","01:00"
"-65.71","66.15","PANGNIRTUNG A","2403051","2023-01-25 02:00","2023","01","25","02:00"
"-65.71","66.15","PANGNIRTUNG A","2403051","2023-01-25 03:00","2023","01","25","03:00"
"-65.71","66.15","PANGNIRTUNG A","2403051","2023-01-25 04:00","2023","01","25","04:00"
"-65.71","66.15","PANGNIRTUNG A","2403051","2023-01-25 05:00","2023","01","25","05:00"
"-65.71","66.15","PANGNIRTUNG A","2403051","2023-01-25 06:00","2023","01","25","06:00"
"-65.71","66.15","PANGNIRTUNG A","2403051","2023-01-25 07:00","2023","01","25","07:00","-28.6","","-31.5","","77","","","","24","","13","","16.1","","99.69","","","","-39","","Ice Crystals"
"-65.71","66.15","PANGNIRTUNG A","2403051","2023-01-25 08:00","2023","01","25","08:00","-28.5","","-31.5","","76","","","","24","","11","","6.4","","99.70","","","","-38","","Ice Crystals"
"-65.71","66.15","PANGNIRTUNG A","2403051","2023-01-25 09:00","2023","01","25","09:00","-28.5","","-31.6","","75","","","","24","","14","","9.7","","99.72","","","","-39","","Ice Crystals"
"-65.71","66.15","PANGNIRTUNG A","2403051","2023-01-25 10:00","2023","01","25","10:00","-29.4","","-32.5","","75","","","","25","","17","","19.3","","99.74","","","","-41","","Ice Crystals,Blowing Snow"
"-65.71","66.15","PANGNIRTUNG A","2403051","2023-01-25 11:00","2023","01","25","11:00","-30.0","","-33.2","","74","","","","25","","18","","19.3","","99.79","","","","-42","","Ice Crystals,Blowing Snow"
"-65.71","66.15","PANGNIRTUNG A","2403051","2023-01-25 12:00","2023","01","25","12:00","-29.9","","-33.1","","74","","","","25","","17","","19.3","","99.80","","","","-42","","Ice Crystals,Blowing Snow"
"-65.71","66.15","PANGNIRTUNG A","2403051","2023-01-25 13:00","2023","01","25","13:00","-30.3","","-33.6","","74","","","","24","","16","","24.1","","99.87","","","","-42","","Ice Crystals,Blowing Snow"
"-65.71","66.15","PANGNIRTUNG A","2403051","2023-01-25 14:00","2023","01","25","14:00","-30.7","","-33.9","","74","","","","25","","14","","19.3","","99.95","","","","-42","","Ice Crystals,Blowing Snow"
"-65.71","66.15","PANGNIRTUNG A","2403051","2023-01-25 15:00","2023","01","25","15:00","-30.6","","-34.0","","73","","","","24","","14","","19.3","","100.03","","","","-42","","Ice Crystals,Blowing Snow"
"-65.71","66.15","PANGNIRTUNG A","2403051","2023-01-25 16:00","2023","01","25","16:00","-30.5","","-33.9","","73","","","","25","","11","","19.3","","100.09","","","","-40","","Ice Crystals"
"-65.71","66.15","PANGNIRTUNG A","2403051","2023-01-25 17:00","2023","01","25","17:00","-30.2","","-33.6","","73","","","","24","","8","","19.3","","100.15","","","","-38","","Ice Crystals"
"-65.71","66.15","PANGNIRTUNG A","2403051","2023-01-25 18:00","2023","01","25","18:00","-30.1","","-33.5","","73","","","","25","","7","","19.3","","100.20","","","","-37","","Ice Crystals"
"-65.71","66.15","PANGNIRTUNG A","2403051","2023-01-25 19:00","2023","01","25","19:00"
"-65.71","66.15","PANGNIRTUNG A","2403051","2023-01-25 20:00","2023","01","25","20:00"
"-65.71","66.15","PANGNIRTUNG A","2403051","2023-01-25 21:00","2023","01","25","21:00"
"-65.71","66.15","PANGNIRTUNG A","2403051","2023-01-25 22:00","2023","01","25","22:00"
"-65.71","66.15","PANGNIRTUNG A","2403051","2023-01-25 23:00","2023","01","25","23:00"
"-65.71","66.15","PANGNIRTUNG A","2403051","2023-01-26 00:00","2023","01","26","00:00"
"-65.71","66.15","PANGNIRTUNG A","2403051","2023-01-26 01:00","2023","01","26","01:00"
"-65.71","66.15","PANGNIRTUNG A","2403051","2023-01-26 02:00","2023","01","26","02:00","-30.8","","-34.3","","72","","","","36","","1","","24.1","","100.33","","","","-32","","NA"
"-65.71","66.15","PANGNIRTUNG A","2403051","2023-01-26 03:00","2023","01","26","03:00","-31.1","","-34.0","","76","","","","24","","5","","24.1","","100.37","","","","-37","","NA"
"-65.71","66.15","PANGNIRTUNG A","2403051","2023-01-26 04:00","2023","01","26","04:00","-31.4","","-34.6","","74","","","","12","","4","","24.1","","100.35","","","","-36","","Mainly Clear"
"-65.71","66.15","PANGNIRTUNG A","2403051","2023-01-26 05:00","2023","01","26","05:00","-31.4","","-34.8","","73","","","","8","","7","","24.1","","100.35","","","","-39","","NA"
"-65.71","66.15","PANGNIRTUNG A","2403051","2023-01-26 06:00","2023","01","26","06:00","-31.3","","-34.6","","73","","","","11","","7","","24.1","","100.37","","","","-39","","NA"
"-65.71","66.15","PANGNIRTUNG A","2403051","2023-01-26 07:00","2023","01","26","07:00","-30.8","","-33.7","","76","","","","10","","7","","24.1","","100.37","","","","-38","","Mainly Clear"
"-65.71","66.15","PANGNIRTUNG A","2403051","2023-01-26 08:00","2023","01","26","08:00","-31.0","","-34.1","","75","","","","11","","9","","24.1","","100.36","","","","-40","","NA"
"-65.71","66.15","PANGNIRTUNG A","2403051","2023-01-26 09:00","2023","01","26","09:00","-30.7","","-33.8","","75","","","","14","","5","","24.1","","100.38","","","","-36","","NA"
"-65.71","66.15","PANGNIRTUNG A","2403051","2023-01-26 10:00","2023","01","26","10:00","-30.6","","-34.0","","73","","","","12","","5","","24.1","","100.37","","","","-36","","Mostly Cloudy"
"-65.71","66.15","PANGNIRTUNG A","2403051","2023-01-26 11:00","2023","01","26","11:00","-29.9","","-33.3","","73","","","","36","","2","","24.1","","100.39","","","","-32","","NA"
"-65.71","66.15","PANGNIRTUNG A","2403051","2023-01-26 12:00","2023","01","26","12:00","-29.4","","-33.1","","71","","","","10","","5","","19.3","","100.38","","","","-35","","NA"
"-65.71","66.15","PANGNIRTUNG A","2403051","2023-01-26 13:00","2023","01","26","13:00","-28.7","","-32.0","","74","","","","0","","1","","11.3","","100.38","","","","-30","","Snow"
"-65.71","66.15","PANGNIRTUNG A","2403051","2023-01-26 14:00","2023","01","26","14:00","-28.4","","-31.5","","75","","","","4","","5","","12.9","","100.39","","","","-34","","Snow"
"-65.71","66.15","PANGNIRTUNG A","2403051","2023-01-26 15:00","2023","01","26","15:00","-27.7","","-30.8","","76","","","","8","","4","","8.1","","100.44","","","","-32","","Snow"
"-65.71","66.15","PANGNIRTUNG A","2403051","2023-01-26 16:00","2023","01","26","16:00","-27.3","","-30.3","","76","","","","10","","7","","6.4","","100.50","","","","-34","","Snow"
"-65.71","66.15","PANGNIRTUNG A","2403051","2023-01-26 17:00","2023","01","26","17:00","-27.1","","-30.0","","77","","","","10","","8","","6.4","","100.52","","","","-35","","Snow"
"-65.71","66.15","PANGNIRTUNG A","2403051","2023-01-26 18:00","2023","01","26","18:00","-26.6","","-29.5","","77","","","","10","","7","","6.4","","100.53","","","","-33","","Snow"
"-65.71","66.15","PANGNIRTUNG A","2403051","2023-01-26 19:00","2023","01","26","19:00"
"-65.71","66.15","PANGNIRTUNG A","2403051","2023-01-26 20:00","2023","01","26","20:00","-24.8","","-29.6","","65","","","","14","","17","","19.3","","100.54","","","","-36","","Ice Crystals"
"-65.71","66.15","PANGNIRTUNG A","2403051","2023-01-26 21:00","2023","01","26","21:00","-24.8","","-29.3","","67","","","","10","","27","","24.1","","100.53","","","","-38","","Ice Crystals,Blowing Snow"
"-65.71","66.15","PANGNIRTUNG A","2403051","2023-01-26 22:00","2023","01","26","22:00","-24.6","","-29.4","","65","","","","12","","28","","24.1","","100.51","","","","-38","","Ice Crystals,Blowing Snow"
"-65.71","66.15","PANGNIRTUNG A","2403051","2023-01-26 23:00","2023","01","26","23:00","-24.0","","-29.5","","61","","","","10","","13","","24.1","","100.50","","","","-33","","Ice Crystals,Blowing Snow"
"-65.71","66.15","PANGNIRTUNG A","2403051","2023-01-27 00:00","2023","01","27","00:00"
"-65.71","66.15","PANGNIRTUNG A","2403051","2023-01-27 01:00","2023","01","27","01:00"
"-65.71","66.15","PANGNIRTUNG A","2403051","2023-01-27 02:00","2023","01","27","02:00"
"-65.71","66.15","PANGNIRTUNG A","2403051","2023-01-27 03:00","2023","01","27","03:00"
"-65.71","66.15","PANGNIRTUNG A","2403051","2023-01-27 04:00","2023","01","27","04:00"
"-65.71","66.15","PANGNIRTUNG A","2403051","2023-01-27 05:00","2023","01","27","05:00"
"-65.71","66.15","PANGNIRTUNG A","2403051","2023-01-27 06:00","2023","01","27","06:00"
"-65.71","66.15","PANGNIRTUNG A","2403051","2023-01-27 07:00","2023","01","27","07:00","-21.1","","-27.3","","58","","","","15","","11","","19.3","","100.00","","","","-29","","Snow"
"-65.71","66.15","PANGNIRTUNG A","2403051","2023-01-27 08:00","2023","01","27","08:00","-21.1","","-28.3","","53","","","","36","","4","","19.3","","99.96","","","","-25","","Snow"
"-65.71","66.15","PANGNIRTUNG A","2403051","2023-01-27 09:00","2023","01","27","09:00","-22.2","","-28.2","","59","","","","8","","9","","24.1","","99.89","","","","-29","","NA"
"-65.71","66.15","PANGNIRTUNG A","2403051","2023-01-27 10:00","2023","01","27","10:00","-22.6","","-28.6","","59","","","","8","","17","","24.1","","99.83","","","","-33","","Mainly Clear"
"-65.71","66.15","PANGNIRTUNG A","2403051","2023-01-27 11:00","2023","01","27","11:00","-24.7","","-27.9","","75","","","","23","","15","","24.1","","99.80","","","","-35","","Ice Crystals"
"-65.71","66.15","PANGNIRTUNG A","2403051","2023-01-27 12:00","2023","01","27","12:00","-26.4","","-29.3","","77","","","","25","","24","","24.1","","99.71","","","","-40","","Ice Crystals"
"-65.71","66.15","PANGNIRTUNG A","2403051","2023-01-27 13:00","2023","01","27","13:00","-27.7","","-30.6","","77","","","","24","","22","","24.1","","99.69","","","","-41","","Ice Crystals"
"-65.71","66.15","PANGNIRTUNG A","2403051","2023-01-27 14:00","2023","01","27","14:00","-28.8","","-31.9","","75","","","","24","","22","","24.1","","99.74","","","","-42","","Ice Crystals"
"-65.71","66.15","PANGNIRTUNG A","2403051","2023-01-27 15:00","2023","01","27","15:00","-29.5","","-32.6","","75","","","","24","","18","","24.1","","99.74","","","","-42","","Ice Crystals"
"-65.71","66.15","PANGNIRTUNG A","2403051","2023-01-27 16:00","2023","01","27","16:00","-30.0","","-33.3","","73","","","","24","","12","","19.3","","99.70","","","","-40","","Ice Crystals"
"-65.71","66.15","PANGNIRTUNG A","2403051","2023-01-27 17:00","2023","01","27","17:00","-31.0","","-34.4","","73","","","","24","","16","","16.1","","99.67","","","","-43","","Ice Crystals"
"-65.71","66.15","PANGNIRTUNG A","2403051","2023-01-27 18:00","2023","01","27","18:00","-31.4","","-34.8","","73","","","","25","","10","","24.1","","99.63","","","","-41","","Ice Crystals"
"-65.71","66.15","PANGNIRTUNG A","2403051","2023-01-27 19:00","2023","01","27","19:00"
"-65.71","66.15","PANGNIRTUNG A","2403051","2023-01-27 20:00","2023","01","27","20:00"
"-65.71","66.15","PANGNIRTUNG A","2403051","2023-01-27 21:00","2023","01","27","21:00"
"-65.71","66.15","PANGNIRTUNG A","2403051","2023-01-27 22:00","2023","01","27","22:00"
"-65.71","66.15","PANGNIRTUNG A","2403051","2023-01-27 23:00","2023","01","27","23:00"
"-65.71","66.15","PANGNIRTUNG A","2403051","2023-01-28 00:00","2023","01","28","00:00"
"-65.71","66.15","PANGNIRTUNG A","2403051","2023-01-28 01:00","2023","01","28","01:00"
"-65.71","66.15","PANGNIRTUNG A","2403051","2023-01-28 02:00","2023","01","28","02:00"
"-65.71","66.15","PANGNIRTUNG A","2403051","2023-01-28 03:00","2023","01","28","03:00"
"-65.71","66.15","PANGNIRTUNG A","2403051","2023-01-28 04:00","2023","01","28","04:00"
"-65.71","66.15","PANGNIRTUNG A","2403051","2023-01-28 05:00","2023","01","28","05:00"
"-65.71","66.15","PANGNIRTUNG A","2403051","2023-01-28 06:00","2023","01","28","06:00"
"-65.71","66.15","PANGNIRTUNG A","2403051","2023-01-28 07:00","2023","01","28","07:00"
"-65.71","66.15","PANGNIRTUNG A","2403051","2023-01-28 08:00","2023","01","28","08:00"
"-65.71","66.15","PANGNIRTUNG A","2403051","2023-01-28 09:00","2023","01","28","09:00"
"-65.71","66.15","PANGNIRTUNG A","2403051","2023-01-28 10:00","2023","01","28","10:00","-34.9","","-39.0","","67","","","","36","","3","","24.1","","100.09","","","","-39","","Ice Crystals"
"-65.71","66.15","PANGNIRTUNG A","2403051","2023-01-28 11:00","2023","01","28","11:00","-35.5","","-39.8","","66","","","","14","","3","","24.1","","100.14","","","","-39","","NA"
"-65.71","66.15","PANGNIRTUNG A","2403051","2023-01-28 12:00","2023","01","28","12:00","-35.2","","-39.3","","67","","","","0","","1","","24.1","","100.21","","","","-36","","NA"
"-65.71","66.15","PANGNIRTUNG A","2403051","2023-01-28 13:00","2023","01","28","13:00","-35.3","","-39.4","","67","","","","22","","4","","24.1","","100.30","","","","-40","","Mainly Clear"
"-65.71","66.15","PANGNIRTUNG A","2403051","2023-01-28 14:00","2023","01","28","14:00","-35.3","","-39.4","","67","","","","36","","2","","24.1","","100.36","","","","-38","","NA"
"-65.71","66.15","PANGNIRTUNG A","2403051","2023-01-28 15:00","2023","01","28","15:00","-35.5","","-39.6","","67","","","","36","","3","","24.1","","100.44","","","","-39","","NA"
"-65.71","66.15","PANGNIRTUNG A","2403051","2023-01-28 16:00","2023","01","28","16:00"
"-65.71","66.15","PANGNIRTUNG A","2403051","2023-01-28 17:00","2023","01","28","17:00"
"-65.71","66.15","PANGNIRTUNG A","2403051","2023-01-28 18:00","2023","01","28","18:00"
"-65.71","66.15","PANGNIRTUNG A","2403051","2023-01-28 19:00","2023","01","28","19:00"
"-65.71","66.15","PANGNIRTUNG A","2403051","2023-01-28 20:00","2023","01","28","20:00"
"-65.71","66.15","PANGNIRTUNG A","2403051","2023-01-28 21:00","2023","01","28","21:00"
"-65.71","66.15","PANGNIRTUNG A","2403051","2023-01-28 22:00","2023","01","28","22:00"
"-65.71","66.15","PANGNIRTUNG A","2403051","2023-01-28 23:00","2023","01","28","23:00"
"-65.71","66.15","PANGNIRTUNG A","2403051","2023-01-29 00:00","2023","01","29","00:00"
"-65.71","66.15","PANGNIRTUNG A","2403051","2023-01-29 01:00","2023","01","29","01:00"
"-65.71","66.15","PANGNIRTUNG A","2403051","2023-01-29 02:00","2023","01","29","02:00"
"-65.71","66.15","PANGNIRTUNG A","2403051","2023-01-29 03:00","2023","01","29","03:00","-34.5","","-38.8","","66","","","","6","","13","","24.1","","100.92","","","","-46","","NA"
"-65.71","66.15","PANGNIRTUNG A","2403051","2023-01-29 04:00","2023","01","29","04:00","-34.8","","-38.8","","68","","","","5","","13","","24.1","","100.88","","","","-46","","Clear"
"-65.71","66.15","PANGNIRTUNG A","2403051","2023-01-29 05:00","2023","01","29","05:00","-34.2","","-38.8","","64","","","","0","","1","","24.1","","100.87","","","","-35","","NA"
"-65.71","66.15","PANGNIRTUNG A","2403051","2023-01-29 06:00","2023","01","29","06:00","-34.8","","-39.2","","65","","","","36","","2","","24.1","","100.84","","","","-37","","NA"
"-65.71","66.15","PANGNIRTUNG A","2403051","2023-01-29 07:00","2023","01","29","07:00"
"-65.71","66.15","PANGNIRTUNG A","2403051","2023-01-29 08:00","2023","01","29","08:00"
"-65.71","66.15","PANGNIRTUNG A","2403051","2023-01-29 09:00","2023","01","29","09:00"
"-65.71","66.15","PANGNIRTUNG A","2403051","2023-01-29 10:00","2023","01","29","10:00"
"-65.71","66.15","PANGNIRTUNG A","2403051","2023-01-29 11:00","2023","01","29","11:00"
"-65.71","66.15","PANGNIRTUNG A","2403051","2023-01-29 12:00","2023","01","29","12:00","-34.0","","-39.6","","58","","","","31","","4","","24.1","","100.86","","","","-39","","NA"
"-65.71","66.15","PANGNIRTUNG A","2403051","2023-01-29 13:00","2023","01","29","13:00","-34.6","","-39.7","","61","","","","36","","2","","24.1","","100.84","","","","-37","","Clear"
"-65.71","66.15","PANGNIRTUNG A","2403051","2023-01-29 14:00","2023","01","29","14:00","-34.2","","-39.0","","63","","","","25","","3","","24.1","","100.83","","","","-38","","NA"
"-65.71","66.15","PANGNIRTUNG A","2403051","2023-01-29 15:00","2023","01","29","15:00","-34.5","","-39.0","","65","","","","25","","7","","24.1","","100.83","","","","-43","","NA"
"-65.71","66.15","PANGNIRTUNG A","2403051","2023-01-29 16:00","2023","01","29","16:00","-35.2","","-39.8","","64","","","","36","","1","","24.1","","100.86","","","","-36","","Mainly Clear"
"-65.71","66.15","PANGNIRTUNG A","2403051","2023-01-29 17:00","2023","01","29","17:00"
"-65.71","66.15","PANGNIRTUNG A","2403051","2023-01-29 18:00","2023","01","29","18:00"
"-65.71","66.15","PANGNIRTUNG A","2403051","2023-01-29 19:00","2023","01","29","19:00"
"-65.71","66.15","PANGNIRTUNG A","2403051","2023-01-29 20:00","2023","01","29","20:00","-35.2","","-39.3","","67","","","","36","","1","","24.1","","100.83","","","","-36","","NA"
"-65.71","66.15","PANGNIRTUNG A","2403051","2023-01-29 21:00","2023","01","29","21:00","-35.4","","-40.0","","64","","","","10","","5","","24.1","","100.79","","","","-42","","NA"
"-65.71","66.15","PANGNIRTUNG A","2403051","2023-01-29 22:00","2023","01","29","22:00","-35.6","","-40.5","","62","","","","36","","2","","24.1","","100.74","","","","-38","","Clear"
"-65.71","66.15","PANGNIRTUNG A","2403051","2023-01-29 23:00","2023","01","29","23:00"
"-65.71","66.15","PANGNIRTUNG A","2403051","2023-01-30 00:00","2023","01","30","00:00"
"-65.71","66.15","PANGNIRTUNG A","2403051","2023-01-30 01:00","2023","01","30","01:00"
"-65.71","66.15","PANGNIRTUNG A","2403051","2023-01-30 02:00","2023","01","30","02:00"
"-65.71","66.15","PANGNIRTUNG A","2403051","2023-01-30 03:00","2023","01","30","03:00"
"-65.71","66.15","PANGNIRTUNG A","2403051","2023-01-30 04:00","2023","01","30","04:00"
"-65.71","66.15","PANGNIRTUNG A","2403051","2023-01-30 05:00","2023","01","30","05:00"
"-65.71","66.15","PANGNIRTUNG A","2403051","2023-01-30 06:00","2023","01","30","06:00"
"-65.71","66.15","PANGNIRTUNG A","2403051","2023-01-30 07:00","2023","01","30","07:00","-35.3","","-39.3","","68","","","","26","","5","","24.1","","100.72","","","","-42","","Clear"
"-65.71","66.15","PANGNIRTUNG A","2403051","2023-01-30 08:00","2023","01","30","08:00","-35.0","","-39.6","","64","","","","25","","8","","24.1","","100.71","","","","-44","","NA"
"-65.71","66.15","PANGNIRTUNG A","2403051","2023-01-30 09:00","2023","01","30","09:00","-35.5","","-40.1","","64","","","","36","","1","","24.1","","100.69","","","","-37","","NA"
"-65.71","66.15","PANGNIRTUNG A","2403051","2023-01-30 10:00","2023","01","30","10:00","-35.4","","-39.7","","66","","","","9","","4","","24.1","","100.70","","","","-40","","Mostly Cloudy"
"-65.71","66.15","PANGNIRTUNG A","2403051","2023-01-30 11:00","2023","01","30","11:00","-34.9","","-39.4","","65","","","","12","","5","","24.1","","100.68","","","","-41","","NA"
"-65.71","66.15","PANGNIRTUNG A","2403051","2023-01-30 12:00","2023","01","30","12:00","-34.9","","-39.5","","64","","","","11","","4","","24.1","","100.68","","","","-40","","NA"
"-65.71","66.15","PANGNIRTUNG A","2403051","2023-01-30 13:00","2023","01","30","13:00","-34.6","","-38.7","","67","","","","36","","1","","24.1","","100.66","","","","-36","","Cloudy"
"-65.71","66.15","PANGNIRTUNG A","2403051","2023-01-30 14:00","2023","01","30","14:00","-34.4","","-38.8","","66","","","","24","","6","","24.1","","100.68","","","","-42","","NA"
"-65.71","66.15","PANGNIRTUNG A","2403051","2023-01-30 15:00","2023","01","30","15:00","-34.0","","-39.0","","62","","","","27","","4","","24.1","","100.71","","","","-39","","Snow"
"-65.71","66.15","PANGNIRTUNG A","2403051","2023-01-30 16:00","2023","01","30","16:00","-34.0","","-38.5","","65","","","","2","","3","","11.3","","100.77","","","","-38","","Snow"
"-65.71","66.15","PANGNIRTUNG A","2403051","2023-01-30 17:00","2023","01","30","17:00","-33.9","","-38.2","","66","","","","36","","1","","19.3","","100.78","","","","-35","","Snow"
"-65.71","66.15","PANGNIRTUNG A","2403051","2023-01-30 18:00","2023","01","30","18:00","-33.7","","-38.0","","66","","","","36","","2","","16.1","","100.80","","","","-36","","Snow"
"-65.71","66.15","PANGNIRTUNG A","2403051","2023-01-30 19:00","2023","01","30","19:00","-33.9","","-38.2","","66","","","","36","","1","","24.1","","100.80","","","","-35","","Ice Crystals"
"-65.71","66.15","PANGNIRTUNG A","2403051","2023-01-30 20:00","2023","01","30","20:00","-34.1","","-38.2","","67","","","","36","","2","","24.1","","100.83","","","","-37","","Ice Crystals"
"-65.71","66.15","PANGNIRTUNG A","2403051","2023-01-30 21:00","2023","01","30","21:00","-34.0","","-38.0","","68","","","","36","","2","","12.9","","100.86","","","","-36","","Ice Crystals"
"-65.71","66.15","PANGNIRTUNG A","2403051","2023-01-30 22:00","2023","01","30","22:00"
"-65.71","66.15","PANGNIRTUNG A","2403051","2023-01-30 23:00","2023","01","30","23:00"
"-65.71","66.15","PANGNIRTUNG A","2403051","2023-01-31 00:00","2023","01","31","00:00"
"-65.71","66.15","PANGNIRTUNG A","2403051","2023-01-31 01:00","2023","01","31","01:00"
"-65.71","66.15","PANGNIRTUNG A","2403051","2023-01-31 02:00","2023","01","31","02:00"
"-65.71","66.15","PANGNIRTUNG A","2403051","2023-01-31 03:00","2023","01","31","03:00"
"-65.71","66.15","PANGNIRTUNG A","2403051","2023-01-31 04:00","2023","01","31","04:00"
"-65.71","66.15","PANGNIRTUNG A","2403051","2023-01-31 05:00","2023","01","31","05:00"
"-65.71","66.15","PANGNIRTUNG A","2403051","2023-01-31 06:00","2023","01","31","06:00"
"-65.71","66.15","PANGNIRTUNG A","2403051","2023-01-31 07:00","2023","01","31","07:00","-35.1","","-40.6","","58","","","","11","","4","","24.1","","101.13","","","","-40","","Clear"
"-65.71","66.15","PANGNIRTUNG A","2403051","2023-01-31 08:00","2023","01","31","08:00","-35.7","","-40.1","","65","","","","24","","3","","24.1","","101.18","","","","-40","","NA"
"-65.71","66.15","PANGNIRTUNG A","2403051","2023-01-31 09:00","2023","01","31","09:00","-35.3","","-40.7","","59","","","","11","","17","","24.1","","101.22","","","","-49","","NA"
"-65.71","66.15","PANGNIRTUNG A","2403051","2023-01-31 10:00","2023","01","31","10:00","-34.3","","-39.9","","58","","","","25","","4","","24.1","","101.24","","","","-39","","Clear"
"-65.71","66.15","PANGNIRTUNG A","2403051","2023-01-31 11:00","2023","01","31","11:00","-34.8","","-39.4","","64","","","","6","","4","","24.1","","101.26","","","","-40","","NA"
"-65.71","66.15","PANGNIRTUNG A","2403051","2023-01-31 12:00","2023","01","31","12:00","-33.4","","-39.1","","58","","","","10","","5","","24.1","","101.23","","","","-39","","NA"
"-65.71","66.15","PANGNIRTUNG A","2403051","2023-01-31 13:00","2023","01","31","13:00","-34.6","","-39.0","","65","","","","6","","9","","24.1","","101.23","","","","-44","","Mainly Clear"
"-65.71","66.15","PANGNIRTUNG A","2403051","2023-01-31 14:00","2023","01","31","14:00","-33.3","","-39.3","","56","","","","36","","1","","24.1","","101.25","","","","-35","","NA"
"-65.71","66.15","PANGNIRTUNG A","2403051","2023-01-31 15:00","2023","01","31","15:00","-31.8","","-39.1","","50","","","","36","","3","","24.1","","101.28","","","","-35","","NA"
"-65.71","66.15","PANGNIRTUNG A","2403051","2023-01-31 16:00","2023","01","31","16:00","-32.2","","-38.6","","54","","","","7","","4","","24.1","","101.24","","","","-37","","Mainly Clear"
"-65.71","66.15","PANGNIRTUNG A","2403051","2023-01-31 17:00","2023","01","31","17:00","-31.3","","-38.8","","49","","","","12","","4","","24.1","","101.20","","","","-36","","NA"
"-65.71","66.15","PANGNIRTUNG A","2403051","2023-01-31 18:00","2023","01","31","18:00","-32.8","","-38.8","","56","","","","9","","7","","24.1","","101.15","","","","-41","","NA"
"-65.71","66.15","PANGNIRTUNG A","2403051","2023-01-31 19:00","2023","01","31","19:00"
"-65.71","66.15","PANGNIRTUNG A","2403051","2023-01-31 20:00","2023","01","31","20:00"
"-65.71","66.15","PANGNIRTUNG A","2403051","2023-01-31 21:00","2023","01","31","21:00"
"-65.71","66.15","PANGNIRTUNG A","2403051","2023-01-31 22:00","2023","01","31","22:00"
"-65.71","66.15","PANGNIRTUNG A","2403051","2023-01-31 23:00","2023","01","31","23:00"
