"Longitude (x)","Latitude (y)","Station Name","Climate ID","Date/Time (LST)","Year","Month","Day","Time (LST)","Temp (°C)","Temp Flag","Dew Point Temp (°C)","Dew Point Temp Flag","Rel Hum (%)","Rel Hum Flag","Precip. Amount (mm)","Precip. Amount Flag","Wind Dir (10s deg)","Wind Dir Flag","Wind Spd (km/h)","Wind Spd Flag","Visibility (km)","Visibility Flag","Stn Press (kPa)","Stn Press Flag","Hmdx","Hmdx Flag","Wind Chill","Wind Chill Flag","Weather"
"-68.21","48.61","MONT JOLI A","7055121","2022-04-01 00:00","2022","04","01","00:00","3.3","","0.6","","82","","","","13","","22","","24.1","","99.15","","","","","","NA"
"-68.21","48.61","MONT JOLI A","7055121","2022-04-01 01:00","2022","04","01","01:00","2.3","","2.3","","100","","","","10","","17","","24.1","","99.13","","","","","","Rain"
"-68.21","48.61","MONT JOLI A","7055121","2022-04-01 02:00","2022","04","01","02:00","2.3","","2.3","","100","","","","10","","14","","16.1","","99.04","","","","","","Rain"
"-68.21","48.61","MONT JOLI A","7055121","2022-04-01 03:00","2022","04","01","03:00","2.0","","2.0","","100","","","","9","","13","","24.1","","98.95","","","","","","Rain"
"-68.21","48.61","MONT JOLI A","7055121","2022-04-01 04:00","2022","04","01","04:00","2.1","","2.1","","100","","","","9","","10","","24.1","","98.91","","","","","","Cloudy"
"-68.21","48.61","MONT JOLI A","7055121","2022-04-01 05:00","2022","04","01","05:00","2.3","","2.3","","100","","","","12","","16","","12.9","","98.93","","","","","","Rain,Snow"
"-68.21","48.61","MONT JOLI A","7055121","2022-04-01 06:00","2022","04","01","06:00","3.0","","2.0","","93","","","","13","","21","","24.1","","98.92","","","","","","Rain"
"-68.21","48.61","MONT JOLI A","7055121","2022-04-01 07:00","2022","04","01","07:00","3.0","","1.9","","92","","","","14","","9","","24.1","","98.91","","","","","","Rain"
"-68.21","48.61","MONT JOLI A","7055121","2022-04-01 08:00","2022","04","01","08:00","1.8","","1.8","","100","","","","7","","12","","24.1","","98.92","","","","","","NA"
"-68.21","48.61","MONT JOLI A","7055121","2022-04-01 09:00","2022","04","01","09:00","1.3","","1.3","","100","","","","6","","13","","16.1","","98.90","","","","","","NA"
"-68.21","48.61","MONT JOLI A","7055121","2022-04-01 10:00","2022","04","01","10:00","1.2","","1.2","","100","","","","5","","17","","16.1","","98.85","","","","","","Drizzle"
"-68.21","48.61","MONT JOLI A","7055121","2022-04-01 11:00","2022","04","01","11:00","0.8","","0.8","","100","","","","6","","18","","3.2","","98.86","","","","","","Fog"
"-68.21","48.61","MONT JOLI A","7055121","2022-04-01 12:00","2022","04","01","12:00","0.9","","0.9","","100","","","","7","","9","","1.2","","98.87","","","","","","Fog"
"-68.21","48.61","MONT JOLI A","7055121","2022-04-01 13:00","2022","04","01","13:00","0.7","","0.7","","100","","","","4","","7","","1.0","","98.87","","","","","","Fog"
"-68.21","48.61","MONT JOLI A","7055121","2022-04-01 14:00","2022","04","01","14:00","0.4","","0.4","","100","","","","4","","13","","1.0","","98.83","","","","","","Fog"
"-68.21","48.61","MONT JOLI A","7055121","2022-04-01 15:00","2022","04","01","15:00","-0.2","","-0.2","","100","","","","5","","21","","1.0","","98.81","","","","-6","","Fog"
"-68.21","48.61","MONT JOLI A","7055121","2022-04-01 16:00","2022","04","01","16:00","-0.3","","-0.3","","100","","","","6","","25","","1.0","","98.81","","","","-6","","Fog"
"-68.21","48.61","MONT JOLI A","7055121","2022-04-01 17:00","2022","04","01","17:00","-0.3","","-0.3","","100","","","","4","","22","","1.6","","98.87","","","","-6","","Fog"
"-68.21","48.61","MONT JOLI A","7055121","2022-04-01 18:00","2022","04","01","18:00","-0.4","","-0.4","","100","","","","5","","22","","1.6","","98.86","","","","-6","","Fog"
"-68.21","48.61","MONT JOLI A","7055121","2022-04-01 19:00","2022","04","01","19:00","-0.4","","-0.4","","100","","","","5","","16","","3.2","","98.92","","","","-5","","Snow"
"-68.21","48.61","MONT JOLI A","7055121","2022-04-01 20:00","2022","04","01","20:00","-0.4","","-0.4","","100","","","","3","","15","","3.2","","98.92","","","","-5","","Snow"
"-68.21","48.61","MONT JOLI A","7055121","2022-04-01 21:00","2022","04","01","21:00","-0.5","","-0.5","","100","","","","2","","9","","4.8","","98.91","","","","-4","","Snow"
"-68.21","48.61","MONT JOLI A","7055121","2022-04-01 22:00","2022","04","01","22:00","-0.4","","-0.4","","100","","","","25","","4","","3.2","","98.92","","","","-2","","Snow"
"-68.21","48.61","MONT JOLI A","7055121","2022-04-01 23:00","2022","04","01","23:00","-0.5","","-0.5","","100","","","","26","","11","","2.4","","98.90","","","","-4","","Snow"
"-68.21","48.61","MONT JOLI A","7055121","2022-04-02 00:00","2022","04","02","00:00","-0.1","","-0.1","","100","","","","27","","21","","2.4","","98.88","","","","-6","","Snow"
"-68.21","48.61","MONT JOLI A","7055121","2022-04-02 01:00","2022","04","02","01:00","0.6","","-0.9","","90","","","","30","","33","","4.8","","98.93","","","","","","Snow"
"-68.21","48.61","MONT JOLI A","7055121","2022-04-02 02:00","2022","04","02","02:00","-0.4","","-2.8","","84","","","","29","","36","","4.8","","99.03","","","","-8","","Snow"
"-68.21","48.61","MONT JOLI A","7055121","2022-04-02 03:00","2022","04","02","03:00","-1.1","","-4.6","","78","","","","29","","37","","16.1","","99.15","","","","-9","","Snow"
"-68.21","48.61","MONT JOLI A","7055121","2022-04-02 04:00","2022","04","02","04:00","-1.8","","-5.9","","74","","","","29","","34","","24.1","","99.26","","","","-9","","Snow"
"-68.21","48.61","MONT JOLI A","7055121","2022-04-02 05:00","2022","04","02","05:00","-2.2","","-6.4","","73","","","","29","","36","","12.9","","99.36","","","","-10","","Snow"
"-68.21","48.61","MONT JOLI A","7055121","2022-04-02 06:00","2022","04","02","06:00","-2.5","","-7.0","","71","","","","29","","32","","48.3","","99.49","","","","-10","","Snow,Blowing Snow"
"-68.21","48.61","MONT JOLI A","7055121","2022-04-02 07:00","2022","04","02","07:00","-2.4","","-7.4","","69","","","","29","","39","","48.3","","99.57","","","","-11","","Snow,Blowing Snow"
"-68.21","48.61","MONT JOLI A","7055121","2022-04-02 08:00","2022","04","02","08:00","-2.4","","-7.4","","69","","","","29","","37","","48.3","","99.61","","","","-10","","Blowing Snow"
"-68.21","48.61","MONT JOLI A","7055121","2022-04-02 09:00","2022","04","02","09:00","-1.6","","-7.3","","65","","","","29","","32","","48.3","","99.71","","","","-9","","Blowing Snow"
"-68.21","48.61","MONT JOLI A","7055121","2022-04-02 10:00","2022","04","02","10:00","-0.8","","-6.8","","64","","","","29","","31","","48.3","","99.75","","","","-8","","Mostly Cloudy"
"-68.21","48.61","MONT JOLI A","7055121","2022-04-02 11:00","2022","04","02","11:00","0.1","","-5.8","","64","","","","28","","26","","48.3","","99.81","","","","","","NA"
"-68.21","48.61","MONT JOLI A","7055121","2022-04-02 12:00","2022","04","02","12:00","0.9","","-5.3","","63","","","","29","","24","","48.3","","99.85","","","","","","NA"
"-68.21","48.61","MONT JOLI A","7055121","2022-04-02 13:00","2022","04","02","13:00","1.2","","-4.7","","65","","","","30","","20","","48.3","","99.89","","","","","","Mostly Cloudy"
"-68.21","48.61","MONT JOLI A","7055121","2022-04-02 14:00","2022","04","02","14:00","2.0","","-5.7","","57","","","","28","","22","","48.3","","99.91","","","","","","NA"
"-68.21","48.61","MONT JOLI A","7055121","2022-04-02 15:00","2022","04","02","15:00","2.3","","-4.3","","61","","","","29","","22","","48.3","","99.93","","","","","","NA"
"-68.21","48.61","MONT JOLI A","7055121","2022-04-02 16:00","2022","04","02","16:00","2.7","","-5.1","","56","","","","30","","26","","48.3","","99.97","","","","","","Clear"
"-68.21","48.61","MONT JOLI A","7055121","2022-04-02 17:00","2022","04","02","17:00","2.4","","-5.6","","55","","","","30","","30","","48.3","","100.05","","","","","","NA"
"-68.21","48.61","MONT JOLI A","7055121","2022-04-02 18:00","2022","04","02","18:00","1.9","","-6.0","","56","","","","31","","35","","24.1","","100.11","","","","","","NA"
"-68.21","48.61","MONT JOLI A","7055121","2022-04-02 19:00","2022","04","02","19:00","1.6","","-6.2","","57","","","","31","","37","","24.1","","100.21","","","","","","Clear"
"-68.21","48.61","MONT JOLI A","7055121","2022-04-02 20:00","2022","04","02","20:00","1.1","","-6.1","","59","","","","30","","32","","24.1","","100.26","","","","","","NA"
"-68.21","48.61","MONT JOLI A","7055121","2022-04-02 21:00","2022","04","02","21:00","0.3","","-5.5","","65","","","","31","","19","","24.1","","100.37","","","","","","NA"
"-68.21","48.61","MONT JOLI A","7055121","2022-04-02 22:00","2022","04","02","22:00","-0.3","","-6.3","","64","","","","33","","28","","24.1","","100.39","","","","-7","","Clear"
"-68.21","48.61","MONT JOLI A","7055121","2022-04-02 23:00","2022","04","02","23:00","-0.9","","-7.2","","63","","","","32","","27","","24.1","","100.39","","","","-7","","NA"
"-68.21","48.61","MONT JOLI A","7055121","2022-04-03 00:00","2022","04","03","00:00","-1.3","","-7.5","","63","","","","31","","22","","24.1","","100.46","","","","-7","","NA"
"-68.21","48.61","MONT JOLI A","7055121","2022-04-03 01:00","2022","04","03","01:00","-1.8","","-7.8","","64","","","","31","","21","","24.1","","100.49","","","","-8","","Clear"
"-68.21","48.61","MONT JOLI A","7055121","2022-04-03 02:00","2022","04","03","02:00","-2.1","","-8.1","","64","","","","30","","22","","24.1","","100.53","","","","-8","","NA"
"-68.21","48.61","MONT JOLI A","7055121","2022-04-03 03:00","2022","04","03","03:00","-2.5","","-8.4","","64","","","","30","","23","","24.1","","100.55","","","","-9","","NA"
"-68.21","48.61","MONT JOLI A","7055121","2022-04-03 04:00","2022","04","03","04:00","-2.9","","-8.8","","64","","","","31","","23","","24.1","","100.59","","","","-9","","Mainly Clear"
"-68.21","48.61","MONT JOLI A","7055121","2022-04-03 05:00","2022","04","03","05:00","-2.9","","-8.6","","65","","","","32","","25","","24.1","","100.56","","","","-10","","NA"
"-68.21","48.61","MONT JOLI A","7055121","2022-04-03 06:00","2022","04","03","06:00","-2.8","","-8.7","","64","","","","31","","18","","48.3","","100.61","","","","-8","","NA"
"-68.21","48.61","MONT JOLI A","7055121","2022-04-03 07:00","2022","04","03","07:00","-2.9","","-8.4","","66","","","","32","","18","","48.3","","100.61","","","","-9","","Mainly Clear"
"-68.21","48.61","MONT JOLI A","7055121","2022-04-03 08:00","2022","04","03","08:00","-2.4","","-8.4","","64","","","","31","","18","","48.3","","100.63","","","","-8","","NA"
"-68.21","48.61","MONT JOLI A","7055121","2022-04-03 09:00","2022","04","03","09:00","-2.0","","-8.6","","61","","","","30","","18","","48.3","","100.64","","","","-7","","NA"
"-68.21","48.61","MONT JOLI A","7055121","2022-04-03 10:00","2022","04","03","10:00","-1.3","","-7.7","","62","","","","27","","14","","48.3","","100.65","","","","-6","","Mostly Cloudy"
"-68.21","48.61","MONT JOLI A","7055121","2022-04-03 11:00","2022","04","03","11:00","-0.6","","-9.1","","53","","","","26","","13","","48.3","","100.59","","","","-5","","NA"
"-68.21","48.61","MONT JOLI A","7055121","2022-04-03 12:00","2022","04","03","12:00","0.4","","-9.2","","49","","","","27","","10","","48.3","","100.52","","","","","","NA"
"-68.21","48.61","MONT JOLI A","7055121","2022-04-03 13:00","2022","04","03","13:00","1.2","","-7.7","","52","","","","27","","10","","48.3","","100.45","","","","","","Mainly Clear"
"-68.21","48.61","MONT JOLI A","7055121","2022-04-03 14:00","2022","04","03","14:00","2.1","","-9.2","","43","","","","25","","6","","48.3","","100.41","","","","","","NA"
"-68.21","48.61","MONT JOLI A","7055121","2022-04-03 15:00","2022","04","03","15:00","2.7","","-8.2","","45","","","","27","","5","","48.3","","100.37","","","","","","NA"
"-68.21","48.61","MONT JOLI A","7055121","2022-04-03 16:00","2022","04","03","16:00","2.6","","-7.8","","46","","","","25","","7","","48.3","","100.35","","","","","","Mostly Cloudy"
"-68.21","48.61","MONT JOLI A","7055121","2022-04-03 17:00","2022","04","03","17:00","2.1","","-6.7","","52","","","","28","","7","","48.3","","100.35","","","","","","NA"
"-68.21","48.61","MONT JOLI A","7055121","2022-04-03 18:00","2022","04","03","18:00","2.1","","-8.4","","46","","","","22","","8","","48.3","","100.38","","","","","","NA"
"-68.21","48.61","MONT JOLI A","7055121","2022-04-03 19:00","2022","04","03","19:00","1.0","","-7.9","","52","","","","26","","5","","48.3","","100.41","","","","","","Mainly Clear"
"-68.21","48.61","MONT JOLI A","7055121","2022-04-03 20:00","2022","04","03","20:00","0.1","","-6.2","","63","","","","20","","8","","48.3","","100.41","","","","","","NA"
"-68.21","48.61","MONT JOLI A","7055121","2022-04-03 21:00","2022","04","03","21:00","-0.6","","-7.5","","60","","","","21","","8","","48.3","","100.40","","","","-3","","NA"
"-68.21","48.61","MONT JOLI A","7055121","2022-04-03 22:00","2022","04","03","22:00","-0.1","","-8.7","","52","","","","21","","11","","48.3","","100.40","","","","-4","","Clear"
"-68.21","48.61","MONT JOLI A","7055121","2022-04-03 23:00","2022","04","03","23:00","-0.2","","-9.2","","51","","","","21","","8","","48.3","","100.36","","","","-3","","NA"
"-68.21","48.61","MONT JOLI A","7055121","2022-04-04 00:00","2022","04","04","00:00","-3.4","","-8.4","","68","","","","17","","3","","48.3","","100.38","","","","-5","","NA"
"-68.21","48.61","MONT JOLI A","7055121","2022-04-04 01:00","2022","04","04","01:00","-3.9","","-8.0","","73","","","","36","","1","","48.3","","100.37","","","","-4","","Mainly Clear"
"-68.21","48.61","MONT JOLI A","7055121","2022-04-04 02:00","2022","04","04","02:00","-3.4","","-6.4","","80","","","","36","","1","","48.3","","100.38","","","","-4","","NA"
"-68.21","48.61","MONT JOLI A","7055121","2022-04-04 03:00","2022","04","04","03:00","-0.9","","-4.8","","75","","","","4","","11","","48.3","","100.39","","","","-5","","NA"
"-68.21","48.61","MONT JOLI A","7055121","2022-04-04 04:00","2022","04","04","04:00","-0.9","","-5.2","","73","","","","36","","21","","48.3","","100.41","","","","-7","","Mostly Cloudy"
"-68.21","48.61","MONT JOLI A","7055121","2022-04-04 05:00","2022","04","04","05:00","-1.3","","-6.9","","66","","","","36","","26","","48.3","","100.43","","","","-8","","NA"
"-68.21","48.61","MONT JOLI A","7055121","2022-04-04 06:00","2022","04","04","06:00","-1.0","","-7.3","","62","","","","1","","24","","48.3","","100.48","","","","-7","","NA"
"-68.21","48.61","MONT JOLI A","7055121","2022-04-04 07:00","2022","04","04","07:00","-0.5","","-6.5","","64","","","","36","","22","","48.3","","100.50","","","","-6","","Mostly Cloudy"
"-68.21","48.61","MONT JOLI A","7055121","2022-04-04 08:00","2022","04","04","08:00","-0.8","","-7.2","","62","","","","36","","16","","48.3","","100.56","","","","-6","","NA"
"-68.21","48.61","MONT JOLI A","7055121","2022-04-04 09:00","2022","04","04","09:00","-0.2","","-7.3","","59","","","","1","","19","","48.3","","100.55","","","","-5","","NA"
"-68.21","48.61","MONT JOLI A","7055121","2022-04-04 10:00","2022","04","04","10:00","0.0","","-6.5","","62","","","","36","","16","","48.3","","100.53","","","","-5","","Mainly Clear"
"-68.21","48.61","MONT JOLI A","7055121","2022-04-04 11:00","2022","04","04","11:00","0.1","","-8.9","","51","","","","35","","11","","48.3","","100.50","","","","","","NA"
"-68.21","48.61","MONT JOLI A","7055121","2022-04-04 12:00","2022","04","04","12:00","0.4","","-9.0","","49","","","","36","","8","","48.3","","100.46","","","","","","NA"
"-68.21","48.61","MONT JOLI A","7055121","2022-04-04 13:00","2022","04","04","13:00","1.1","","-9.3","","46","","","","36","","3","","48.3","","100.39","","","","","","Clear"
"-68.21","48.61","MONT JOLI A","7055121","2022-04-04 14:00","2022","04","04","14:00","2.4","","-8.3","","45","","","","25","","10","","48.3","","100.34","","","","","","NA"
"-68.21","48.61","MONT JOLI A","7055121","2022-04-04 15:00","2022","04","04","15:00","3.7","","-8.5","","41","","","","25","","8","","48.3","","100.30","","","","","","NA"
"-68.21","48.61","MONT JOLI A","7055121","2022-04-04 16:00","2022","04","04","16:00","3.7","","-7.9","","43","","","","26","","9","","48.3","","100.31","","","","","","Mainly Clear"
"-68.21","48.61","MONT JOLI A","7055121","2022-04-04 17:00","2022","04","04","17:00","3.3","","-7.5","","45","","","","27","","8","","48.3","","100.29","","","","","","NA"
"-68.21","48.61","MONT JOLI A","7055121","2022-04-04 18:00","2022","04","04","18:00","1.2","","-5.5","","61","","","","26","","9","","48.3","","100.30","","","","","","NA"
"-68.21","48.61","MONT JOLI A","7055121","2022-04-04 19:00","2022","04","04","19:00","0.7","","-8.2","","51","","","","22","","8","","48.3","","100.33","","","","","","Clear"
"-68.21","48.61","MONT JOLI A","7055121","2022-04-04 20:00","2022","04","04","20:00","0.0","","-6.1","","63","","","","21","","9","","48.3","","100.36","","","","-3","","NA"
"-68.21","48.61","MONT JOLI A","7055121","2022-04-04 21:00","2022","04","04","21:00","-0.3","","-5.8","","66","","","","22","","8","","48.3","","100.37","","","","-3","","NA"
"-68.21","48.61","MONT JOLI A","7055121","2022-04-04 22:00","2022","04","04","22:00","0.2","","-6.0","","63","","","","27","","4","","48.3","","100.41","","","","","","Clear"
"-68.21","48.61","MONT JOLI A","7055121","2022-04-04 23:00","2022","04","04","23:00","0.1","","-8.0","","55","","","","36","","31","","48.3","","100.44","","","","","","NA"
"-68.21","48.61","MONT JOLI A","7055121","2022-04-05 00:00","2022","04","05","00:00","-0.8","","-10.3","","49","","","","35","","32","","48.3","","100.49","","","","-8","","NA"
"-68.21","48.61","MONT JOLI A","7055121","2022-04-05 01:00","2022","04","05","01:00","-1.5","","-10.8","","49","","","","35","","32","","48.3","","100.54","","","","-9","","Clear"
"-68.21","48.61","MONT JOLI A","7055121","2022-04-05 02:00","2022","04","05","02:00","-2.0","","-11.9","","47","","","","35","","33","","48.3","","100.59","","","","-9","","NA"
"-68.21","48.61","MONT JOLI A","7055121","2022-04-05 03:00","2022","04","05","03:00","-2.5","","-12.8","","45","","","","34","","26","","48.3","","100.63","","","","-9","","NA"
"-68.21","48.61","MONT JOLI A","7055121","2022-04-05 04:00","2022","04","05","04:00","-3.1","","-12.8","","47","","","","34","","26","","48.3","","100.68","","","","-10","","Clear"
"-68.21","48.61","MONT JOLI A","7055121","2022-04-05 05:00","2022","04","05","05:00","-3.6","","-13.1","","48","","","","34","","24","","48.3","","100.72","","","","-10","","NA"
"-68.21","48.61","MONT JOLI A","7055121","2022-04-05 06:00","2022","04","05","06:00","-3.7","","-12.7","","50","","","","35","","22","","48.3","","100.79","","","","-10","","NA"
"-68.21","48.61","MONT JOLI A","7055121","2022-04-05 07:00","2022","04","05","07:00","-3.5","","-12.1","","52","","","","32","","18","","48.3","","100.86","","","","-9","","Mainly Clear"
"-68.21","48.61","MONT JOLI A","7055121","2022-04-05 08:00","2022","04","05","08:00","-3.0","","-11.8","","51","","","","35","","16","","48.3","","100.92","","","","-8","","NA"
"-68.21","48.61","MONT JOLI A","7055121","2022-04-05 09:00","2022","04","05","09:00","-2.6","","-12.8","","46","","","","31","","15","","48.3","","100.94","","","","-8","","NA"
"-68.21","48.61","MONT JOLI A","7055121","2022-04-05 10:00","2022","04","05","10:00","-2.1","","-12.5","","45","","","","30","","15","","48.3","","100.94","","","","-7","","Clear"
"-68.21","48.61","MONT JOLI A","7055121","2022-04-05 11:00","2022","04","05","11:00","-1.2","","-11.7","","45","","","","27","","14","","48.3","","100.94","","","","-6","","NA"
"-68.21","48.61","MONT JOLI A","7055121","2022-04-05 12:00","2022","04","05","12:00","-0.1","","-11.0","","44","","","","26","","14","","48.3","","100.91","","","","-4","","NA"
"-68.21","48.61","MONT JOLI A","7055121","2022-04-05 13:00","2022","04","05","13:00","1.2","","-10.7","","41","","","","25","","14","","48.3","","100.88","","","","","","Clear"
"-68.21","48.61","MONT JOLI A","7055121","2022-04-05 14:00","2022","04","05","14:00","2.3","","-10.9","","37","","","","26","","17","","48.3","","100.88","","","","","","NA"
"-68.21","48.61","MONT JOLI A","7055121","2022-04-05 15:00","2022","04","05","15:00","2.7","","-9.7","","40","","","","25","","13","","48.3","","100.88","","","","","","NA"
"-68.21","48.61","MONT JOLI A","7055121","2022-04-05 16:00","2022","04","05","16:00","3.0","","-11.6","","33","","","","24","","12","","48.3","","100.86","","","","","","Clear"
"-68.21","48.61","MONT JOLI A","7055121","2022-04-05 17:00","2022","04","05","17:00","2.2","","-9.8","","41","","","","25","","10","","48.3","","100.89","","","","","","NA"
"-68.21","48.61","MONT JOLI A","7055121","2022-04-05 18:00","2022","04","05","18:00","1.4","","-10.3","","42","","","","22","","7","","48.3","","100.94","","","","","","NA"
"-68.21","48.61","MONT JOLI A","7055121","2022-04-05 19:00","2022","04","05","19:00","0.6","","-12.3","","37","","","","22","","10","","48.3","","100.98","","","","","","Mainly Clear"
"-68.21","48.61","MONT JOLI A","7055121","2022-04-05 20:00","2022","04","05","20:00","-0.2","","-12.4","","39","","","","21","","11","","48.3","","101.05","","","","-4","","NA"
"-68.21","48.61","MONT JOLI A","7055121","2022-04-05 21:00","2022","04","05","21:00","-0.3","","-11.7","","42","","","","22","","12","","48.3","","101.05","","","","-4","","NA"
"-68.21","48.61","MONT JOLI A","7055121","2022-04-05 22:00","2022","04","05","22:00","0.1","","-9.4","","49","","","","23","","13","","48.3","","101.08","","","","","","Clear"
"-68.21","48.61","MONT JOLI A","7055121","2022-04-05 23:00","2022","04","05","23:00","-0.6","","-10.1","","49","","","","24","","8","","48.3","","101.09","","","","-3","","NA"
"-68.21","48.61","MONT JOLI A","7055121","2022-04-06 00:00","2022","04","06","00:00","-2.3","","-10.5","","54","","","","26","","5","","48.3","","101.10","","","","-4","","NA"
"-68.21","48.61","MONT JOLI A","7055121","2022-04-06 01:00","2022","04","06","01:00","-1.3","","-10.5","","50","","","","25","","5","","48.3","","101.14","","","","-3","","Clear"
"-68.21","48.61","MONT JOLI A","7055121","2022-04-06 02:00","2022","04","06","02:00","-5.1","","-10.6","","65","","","","20","","8","","48.3","","101.13","","","","-9","","NA"
"-68.21","48.61","MONT JOLI A","7055121","2022-04-06 03:00","2022","04","06","03:00","-6.5","","-10.8","","72","","","","20","","7","","48.3","","101.16","","","","-10","","NA"
"-68.21","48.61","MONT JOLI A","7055121","2022-04-06 04:00","2022","04","06","04:00","-7.1","","-11.4","","71","","","","36","","1","","48.3","","101.26","","","","-8","","Clear"
"-68.21","48.61","MONT JOLI A","7055121","2022-04-06 05:00","2022","04","06","05:00","-8.1","","-11.5","","77","","","","17","","3","","48.3","","101.30","","","","-10","","NA"
"-68.21","48.61","MONT JOLI A","7055121","2022-04-06 06:00","2022","04","06","06:00","-6.7","","-10.5","","75","","","","20","","5","","48.3","","101.34","","","","-9","","NA"
"-68.21","48.61","MONT JOLI A","7055121","2022-04-06 07:00","2022","04","06","07:00","-2.0","","-8.2","","63","","","","33","","15","","48.3","","101.38","","","","-7","","Clear"
"-68.21","48.61","MONT JOLI A","7055121","2022-04-06 08:00","2022","04","06","08:00","-1.6","","-8.2","","61","","","","34","","11","","48.3","","101.39","","","","-5","","NA"
"-68.21","48.61","MONT JOLI A","7055121","2022-04-06 09:00","2022","04","06","09:00","-1.3","","-8.2","","59","","","","30","","6","","48.3","","101.42","","","","-4","","NA"
"-68.21","48.61","MONT JOLI A","7055121","2022-04-06 10:00","2022","04","06","10:00","-1.0","","-8.6","","56","","","","31","","6","","48.3","","101.38","","","","-3","","Clear"
"-68.21","48.61","MONT JOLI A","7055121","2022-04-06 11:00","2022","04","06","11:00","-0.4","","-9.0","","53","","","","27","","9","","48.3","","101.34","","","","-4","","NA"
"-68.21","48.61","MONT JOLI A","7055121","2022-04-06 12:00","2022","04","06","12:00","0.4","","-10.5","","44","","","","25","","9","","48.3","","101.34","","","","","","NA"
"-68.21","48.61","MONT JOLI A","7055121","2022-04-06 13:00","2022","04","06","13:00","1.3","","-8.8","","47","","","","19","","12","","48.3","","101.29","","","","","","Clear"
"-68.21","48.61","MONT JOLI A","7055121","2022-04-06 14:00","2022","04","06","14:00","2.5","","-9.8","","40","","","","20","","10","","48.3","","101.27","","","","","","NA"
"-68.21","48.61","MONT JOLI A","7055121","2022-04-06 15:00","2022","04","06","15:00","2.9","","-10.9","","36","","","","11","","4","","48.3","","101.19","","","","","","NA"
"-68.21","48.61","MONT JOLI A","7055121","2022-04-06 16:00","2022","04","06","16:00","2.8","","-9.2","","41","","","","10","","3","","48.3","","101.19","","","","","","Clear"
"-68.21","48.61","MONT JOLI A","7055121","2022-04-06 17:00","2022","04","06","17:00","2.7","","-8.6","","43","","","","36","","1","","48.3","","101.19","","","","","","NA"
"-68.21","48.61","MONT JOLI A","7055121","2022-04-06 18:00","2022","04","06","18:00","3.2","","-9.1","","40","","","","21","","3","","48.3","","101.21","","","","","","NA"
"-68.21","48.61","MONT JOLI A","7055121","2022-04-06 19:00","2022","04","06","19:00","-1.5","","-8.4","","59","","","","15","","5","","48.3","","101.19","","","","-3","","Clear"
"-68.21","48.61","MONT JOLI A","7055121","2022-04-06 20:00","2022","04","06","20:00","-2.1","","-7.5","","67","","","","7","","4","","48.3","","101.25","","","","-4","","NA"
"-68.21","48.61","MONT JOLI A","7055121","2022-04-06 21:00","2022","04","06","21:00","-1.7","","-7.4","","65","","","","24","","5","","48.3","","101.29","","","","-4","","NA"
"-68.21","48.61","MONT JOLI A","7055121","2022-04-06 22:00","2022","04","06","22:00","-2.6","","-6.4","","75","","","","19","","5","","48.3","","101.29","","","","-5","","Clear"
"-68.21","48.61","MONT JOLI A","7055121","2022-04-06 23:00","2022","04","06","23:00","-3.0","","-7.5","","71","","","","18","","7","","48.3","","101.30","","","","-6","","NA"
"-68.21","48.61","MONT JOLI A","7055121","2022-04-07 00:00","2022","04","07","00:00","-3.5","","-8.1","","71","","","","15","","9","","48.3","","101.28","","","","-7","","NA"
"-68.21","48.61","MONT JOLI A","7055121","2022-04-07 01:00","2022","04","07","01:00","-4.9","","-8.7","","75","","","","14","","14","","48.3","","101.24","","","","-10","","Clear"
"-68.21","48.61","MONT JOLI A","7055121","2022-04-07 02:00","2022","04","07","02:00","-5.2","","-9.1","","75","","","","14","","13","","48.3","","101.21","","","","-10","","NA"
"-68.21","48.61","MONT JOLI A","7055121","2022-04-07 03:00","2022","04","07","03:00","-5.3","","-9.2","","74","","","","15","","13","","48.3","","101.27","","","","-10","","NA"
"-68.21","48.61","MONT JOLI A","7055121","2022-04-07 04:00","2022","04","07","04:00","-5.2","","-9.3","","73","","","","11","","11","","48.3","","101.30","","","","-10","","Clear"
"-68.21","48.61","MONT JOLI A","7055121","2022-04-07 05:00","2022","04","07","05:00","-3.6","","-9.2","","66","","","","14","","5","","48.3","","101.36","","","","-6","","NA"
"-68.21","48.61","MONT JOLI A","7055121","2022-04-07 06:00","2022","04","07","06:00","-4.8","","-9.6","","69","","","","13","","7","","48.3","","101.42","","","","-8","","NA"
"-68.21","48.61","MONT JOLI A","7055121","2022-04-07 07:00","2022","04","07","07:00","0.0","","-8.2","","54","","","","10","","5","","48.3","","101.49","","","","-2","","Mainly Clear"
"-68.21","48.61","MONT JOLI A","7055121","2022-04-07 08:00","2022","04","07","08:00","0.4","","-6.2","","61","","","","8","","7","","48.3","","101.50","","","","","","NA"
"-68.21","48.61","MONT JOLI A","7055121","2022-04-07 09:00","2022","04","07","09:00","1.7","","-4.5","","64","","","","6","","14","","48.3","","101.49","","","","","","NA"
"-68.21","48.61","MONT JOLI A","7055121","2022-04-07 10:00","2022","04","07","10:00","1.6","","-2.7","","73","","","","6","","31","","48.3","","101.46","","","","","","Mainly Clear"
"-68.21","48.61","MONT JOLI A","7055121","2022-04-07 11:00","2022","04","07","11:00","1.8","","-1.3","","79","","","","5","","32","","48.3","","101.42","","","","","","NA"
"-68.21","48.61","MONT JOLI A","7055121","2022-04-07 12:00","2022","04","07","12:00","2.6","","-1.4","","75","","","","6","","36","","48.3","","101.37","","","","","","NA"
"-68.21","48.61","MONT JOLI A","7055121","2022-04-07 13:00","2022","04","07","13:00","2.7","","-1.5","","74","","","","6","","40","","48.3","","101.35","","","","","","Mainly Clear"
"-68.21","48.61","MONT JOLI A","7055121","2022-04-07 14:00","2022","04","07","14:00","2.7","","-1.5","","73","","","","6","","41","","48.3","","101.34","","","","","","NA"
"-68.21","48.61","MONT JOLI A","7055121","2022-04-07 15:00","2022","04","07","15:00","3.0","","-2.0","","70","","","","6","","46","","48.3","","101.32","","","","","","NA"
"-68.21","48.61","MONT JOLI A","7055121","2022-04-07 16:00","2022","04","07","16:00","2.6","","-1.7","","73","","","","6","","35","","48.3","","101.31","","","","","","Mostly Cloudy"
"-68.21","48.61","MONT JOLI A","7055121","2022-04-07 17:00","2022","04","07","17:00","1.9","","-1.1","","81","","","","6","","31","","48.3","","101.27","","","","","","NA"
"-68.21","48.61","MONT JOLI A","7055121","2022-04-07 18:00","2022","04","07","18:00","1.2","","-0.2","","90","","","","6","","26","","48.3","","101.27","","","","","","NA"
"-68.21","48.61","MONT JOLI A","7055121","2022-04-07 19:00","2022","04","07","19:00","1.3","","0.0","","91","","","","7","","23","","48.3","","101.28","","","","","","Mostly Cloudy"
"-68.21","48.61","MONT JOLI A","7055121","2022-04-07 20:00","2022","04","07","20:00","5.2","","-2.6","","57","","","","14","","27","","48.3","","101.31","","","","","","NA"
"-68.21","48.61","MONT JOLI A","7055121","2022-04-07 21:00","2022","04","07","21:00","4.8","","-2.4","","60","","","","15","","35","","48.3","","101.34","","","","","","NA"
"-68.21","48.61","MONT JOLI A","7055121","2022-04-07 22:00","2022","04","07","22:00","4.2","","-2.1","","63","","","","14","","39","","48.3","","101.34","","","","","","Cloudy"
"-68.21","48.61","MONT JOLI A","7055121","2022-04-07 23:00","2022","04","07","23:00","3.9","","-2.2","","65","","","","15","","34","","48.3","","101.28","","","","","","NA"
"-68.21","48.61","MONT JOLI A","7055121","2022-04-08 00:00","2022","04","08","00:00","3.6","","-2.2","","66","","","","15","","39","","48.3","","101.22","","","","","","NA"
"-68.21","48.61","MONT JOLI A","7055121","2022-04-08 01:00","2022","04","08","01:00","2.9","","-2.0","","70","","","","14","","39","","48.3","","101.13","","","","","","Cloudy"
"-68.21","48.61","MONT JOLI A","7055121","2022-04-08 02:00","2022","04","08","02:00","2.5","","-2.1","","72","","","","14","","38","","48.3","","101.14","","","","","","NA"
"-68.21","48.61","MONT JOLI A","7055121","2022-04-08 03:00","2022","04","08","03:00","2.2","","-1.9","","74","","","","15","","48","","48.3","","101.08","","","","","","NA"
"-68.21","48.61","MONT JOLI A","7055121","2022-04-08 04:00","2022","04","08","04:00","1.3","","-0.6","","87","","","","13","","28","","24.1","","101.07","","","","","","Snow"
"-68.21","48.61","MONT JOLI A","7055121","2022-04-08 05:00","2022","04","08","05:00","1.0","","-0.6","","89","","","","11","","21","","3.2","","101.10","","","","","","Snow"
"-68.21","48.61","MONT JOLI A","7055121","2022-04-08 06:00","2022","04","08","06:00","0.8","","-0.7","","89","","","","6","","14","","3.2","","101.03","","","","","","Snow"
"-68.21","48.61","MONT JOLI A","7055121","2022-04-08 07:00","2022","04","08","07:00","1.6","","-1.7","","79","","","","9","","28","","24.1","","100.89","","","","","","Cloudy"
"-68.21","48.61","MONT JOLI A","7055121","2022-04-08 08:00","2022","04","08","08:00","2.3","","-2.6","","70","","","","9","","27","","24.1","","100.85","","","","","","NA"
"-68.21","48.61","MONT JOLI A","7055121","2022-04-08 09:00","2022","04","08","09:00","2.5","","-2.6","","69","","","","9","","21","","24.1","","100.91","","","","","","NA"
"-68.21","48.61","MONT JOLI A","7055121","2022-04-08 10:00","2022","04","08","10:00","1.6","","-1.4","","81","","","","7","","20","","4.0","","100.76","","","","","","Snow"
"-68.21","48.61","MONT JOLI A","7055121","2022-04-08 11:00","2022","04","08","11:00","2.0","","-1.2","","80","","","","7","","29","","24.1","","100.53","","","","","","NA"
"-68.21","48.61","MONT JOLI A","7055121","2022-04-08 12:00","2022","04","08","12:00","1.6","","-0.1","","88","","","","5","","24","","24.1","","100.39","","","","","","Rain"
"-68.21","48.61","MONT JOLI A","7055121","2022-04-08 13:00","2022","04","08","13:00","1.8","","0.7","","92","","","","6","","23","","16.1","","100.28","","","","","","Rain"
"-68.21","48.61","MONT JOLI A","7055121","2022-04-08 14:00","2022","04","08","14:00","1.7","","1.7","","100","","","","6","","28","","16.1","","100.15","","","","","","Rain"
"-68.21","48.61","MONT JOLI A","7055121","2022-04-08 15:00","2022","04","08","15:00","1.5","","1.5","","100","","","","6","","18","","16.1","","100.09","","","","","","Rain"
"-68.21","48.61","MONT JOLI A","7055121","2022-04-08 16:00","2022","04","08","16:00","1.4","","1.4","","100","","","","6","","18","","3.2","","100.07","","","","","","Rain,Fog"
"-68.21","48.61","MONT JOLI A","7055121","2022-04-08 17:00","2022","04","08","17:00","1.4","","1.4","","100","","","","6","","21","","8.1","","100.00","","","","","","Rain,Fog"
"-68.21","48.61","MONT JOLI A","7055121","2022-04-08 18:00","2022","04","08","18:00","1.4","","1.4","","100","","","","5","","17","","9.7","","99.91","","","","","","Rain,Fog"
"-68.21","48.61","MONT JOLI A","7055121","2022-04-08 19:00","2022","04","08","19:00","1.9","","1.9","","100","","","","5","","19","","16.1","","99.86","","","","","","Rain"
"-68.21","48.61","MONT JOLI A","7055121","2022-04-08 20:00","2022","04","08","20:00","2.5","","2.4","","99","","","","6","","9","","16.1","","99.83","","","","","","Rain"
"-68.21","48.61","MONT JOLI A","7055121","2022-04-08 21:00","2022","04","08","21:00","3.4","","0.7","","82","","","","13","","11","","16.1","","99.78","","","","","","NA"
"-68.21","48.61","MONT JOLI A","7055121","2022-04-08 22:00","2022","04","08","22:00","2.8","","0.7","","86","","","","11","","9","","24.1","","99.77","","","","","","Cloudy"
"-68.21","48.61","MONT JOLI A","7055121","2022-04-08 23:00","2022","04","08","23:00","2.7","","0.8","","87","","","","14","","12","","24.1","","99.73","","","","","","NA"
"-68.21","48.61","MONT JOLI A","7055121","2022-04-09 00:00","2022","04","09","00:00","2.7","","1.2","","90","","","","15","","9","","24.1","","99.70","","","","","","NA"
"-68.21","48.61","MONT JOLI A","7055121","2022-04-09 01:00","2022","04","09","01:00","3.0","","1.4","","89","","","","21","","10","","24.1","","99.70","","","","","","Cloudy"
"-68.21","48.61","MONT JOLI A","7055121","2022-04-09 02:00","2022","04","09","02:00","2.8","","1.5","","91","","","","19","","10","","24.1","","99.70","","","","","","NA"
"-68.21","48.61","MONT JOLI A","7055121","2022-04-09 03:00","2022","04","09","03:00","2.8","","2.1","","95","","","","18","","10","","16.1","","99.72","","","","","","Rain"
"-68.21","48.61","MONT JOLI A","7055121","2022-04-09 04:00","2022","04","09","04:00","3.0","","3.0","","100","","","","21","","12","","16.1","","99.78","","","","","","Cloudy"
"-68.21","48.61","MONT JOLI A","7055121","2022-04-09 05:00","2022","04","09","05:00","2.2","","2.2","","100","","","","22","","9","","16.1","","99.80","","","","","","NA"
"-68.21","48.61","MONT JOLI A","7055121","2022-04-09 06:00","2022","04","09","06:00","1.4","","1.4","","100","","","","25","","17","","24.1","","99.88","","","","","","NA"
"-68.21","48.61","MONT JOLI A","7055121","2022-04-09 07:00","2022","04","09","07:00","1.6","","1.6","","100","","","","24","","9","","24.1","","99.92","","","","","","Cloudy"
"-68.21","48.61","MONT JOLI A","7055121","2022-04-09 08:00","2022","04","09","08:00","2.0","","2.0","","100","","","","26","","9","","16.1","","99.94","","","","","","NA"
"-68.21","48.61","MONT JOLI A","7055121","2022-04-09 09:00","2022","04","09","09:00","2.2","","2.2","","100","","","","27","","9","","16.1","","99.99","","","","","","NA"
"-68.21","48.61","MONT JOLI A","7055121","2022-04-09 10:00","2022","04","09","10:00","2.7","","2.3","","97","","","","31","","7","","24.1","","99.97","","","","","","Mostly Cloudy"
"-68.21","48.61","MONT JOLI A","7055121","2022-04-09 11:00","2022","04","09","11:00","2.6","","2.3","","98","","","","34","","11","","48.3","","99.89","","","","","","NA"
"-68.21","48.61","MONT JOLI A","7055121","2022-04-09 12:00","2022","04","09","12:00","2.6","","2.2","","98","","","","2","","12","","24.1","","99.84","","","","","","NA"
"-68.21","48.61","MONT JOLI A","7055121","2022-04-09 13:00","2022","04","09","13:00","3.1","","2.2","","94","","","","2","","11","","24.1","","99.83","","","","","","Mainly Clear"
"-68.21","48.61","MONT JOLI A","7055121","2022-04-09 14:00","2022","04","09","14:00","2.7","","1.7","","93","","","","7","","16","","24.1","","99.76","","","","","","NA"
"-68.21","48.61","MONT JOLI A","7055121","2022-04-09 15:00","2022","04","09","15:00","3.1","","1.6","","89","","","","6","","15","","24.1","","99.72","","","","","","NA"
"-68.21","48.61","MONT JOLI A","7055121","2022-04-09 16:00","2022","04","09","16:00","2.8","","1.5","","91","","","","5","","10","","48.3","","99.70","","","","","","Mostly Cloudy"
"-68.21","48.61","MONT JOLI A","7055121","2022-04-09 17:00","2022","04","09","17:00","1.5","","1.5","","100","","","","7","","16","","24.1","","99.68","","","","","","NA"
"-68.21","48.61","MONT JOLI A","7055121","2022-04-09 18:00","2022","04","09","18:00","1.6","","1.6","","100","","","","8","","10","","24.1","","99.67","","","","","","NA"
"-68.21","48.61","MONT JOLI A","7055121","2022-04-09 19:00","2022","04","09","19:00","2.1","","2.0","","99","","","","8","","14","","24.1","","99.63","","","","","","Cloudy"
"-68.21","48.61","MONT JOLI A","7055121","2022-04-09 20:00","2022","04","09","20:00","1.3","","1.3","","100","","","","8","","9","","24.1","","99.65","","","","","","NA"
"-68.21","48.61","MONT JOLI A","7055121","2022-04-09 21:00","2022","04","09","21:00","1.0","","1.0","","100","","","","7","","13","","24.1","","99.62","","","","","","NA"
"-68.21","48.61","MONT JOLI A","7055121","2022-04-09 22:00","2022","04","09","22:00","0.2","","0.2","","100","","","","6","","12","","1.2","","99.61","","","","","","Fog"
"-68.21","48.61","MONT JOLI A","7055121","2022-04-09 23:00","2022","04","09","23:00","0.1","","0.1","","100","","","","6","","24","","1.2","","99.57","","","","","","Fog"
"-68.21","48.61","MONT JOLI A","7055121","2022-04-10 00:00","2022","04","10","00:00","0.0","","0.0","","100","","","","6","","21","","1.2","","99.54","","","","-5","","Fog"
"-68.21","48.61","MONT JOLI A","7055121","2022-04-10 01:00","2022","04","10","01:00","0.1","","0.1","","100","","","","6","","27","","1.2","","99.48","","","","","","Fog"
"-68.21","48.61","MONT JOLI A","7055121","2022-04-10 02:00","2022","04","10","02:00","0.0","","0.0","","100","","","","6","","32","","1.2","","99.45","","","","-7","","Fog"
"-68.21","48.61","MONT JOLI A","7055121","2022-04-10 03:00","2022","04","10","03:00","0.0","","0.0","","100","","","","6","","27","","4.0","","99.37","","","","-6","","Rain,Fog"
"-68.21","48.61","MONT JOLI A","7055121","2022-04-10 04:00","2022","04","10","04:00","0.2","","0.2","","100","","","","7","","18","","4.8","","99.40","","","","","","Rain,Fog"
"-68.21","48.61","MONT JOLI A","7055121","2022-04-10 05:00","2022","04","10","05:00","0.2","","0.2","","100","","","","6","","23","","4.8","","99.41","","","","","","Rain,Fog"
"-68.21","48.61","MONT JOLI A","7055121","2022-04-10 06:00","2022","04","10","06:00","0.2","","0.2","","100","","","","6","","26","","4.8","","99.42","","","","","","Rain,Fog"
"-68.21","48.61","MONT JOLI A","7055121","2022-04-10 07:00","2022","04","10","07:00","0.4","","0.4","","100","","","","6","","30","","3.2","","99.40","","","","","","Rain,Fog"
"-68.21","48.61","MONT JOLI A","7055121","2022-04-10 08:00","2022","04","10","08:00","0.2","","0.2","","100","","","","6","","28","","4.8","","99.42","","","","","","Rain,Fog"
"-68.21","48.61","MONT JOLI A","7055121","2022-04-10 09:00","2022","04","10","09:00","0.2","","0.2","","100","","","","6","","29","","4.0","","99.44","","","","","","Rain,Snow"
"-68.21","48.61","MONT JOLI A","7055121","2022-04-10 10:00","2022","04","10","10:00","0.1","","0.1","","100","","","","6","","31","","4.0","","99.44","","","","","","Rain,Snow"
"-68.21","48.61","MONT JOLI A","7055121","2022-04-10 11:00","2022","04","10","11:00","0.0","","0.0","","100","","","","6","","34","","4.0","","99.43","","","","-7","","Rain,Snow"
"-68.21","48.61","MONT JOLI A","7055121","2022-04-10 12:00","2022","04","10","12:00","0.2","","0.2","","100","","","","6","","34","","4.8","","99.43","","","","","","Rain,Fog"
"-68.21","48.61","MONT JOLI A","7055121","2022-04-10 13:00","2022","04","10","13:00","0.3","","0.3","","100","","","","5","","31","","4.8","","99.43","","","","","","Rain,Fog"
"-68.21","48.61","MONT JOLI A","7055121","2022-04-10 14:00","2022","04","10","14:00","0.2","","0.2","","100","","","","6","","31","","4.8","","99.47","","","","","","Fog"
"-68.21","48.61","MONT JOLI A","7055121","2022-04-10 15:00","2022","04","10","15:00","0.3","","0.3","","100","","","","6","","27","","2.8","","99.50","","","","","","Rain,Snow,Fog"
"-68.21","48.61","MONT JOLI A","7055121","2022-04-10 16:00","2022","04","10","16:00","0.4","","0.4","","100","","","","5","","18","","8.1","","99.55","","","","","","Rain,Fog"
"-68.21","48.61","MONT JOLI A","7055121","2022-04-10 17:00","2022","04","10","17:00","0.3","","0.3","","100","","","","7","","13","","9.7","","99.62","","","","","","Rain,Fog"
"-68.21","48.61","MONT JOLI A","7055121","2022-04-10 18:00","2022","04","10","18:00","1.0","","1.0","","100","","","","9","","5","","16.1","","99.65","","","","","","Rain"
"-68.21","48.61","MONT JOLI A","7055121","2022-04-10 19:00","2022","04","10","19:00","0.2","","0.2","","100","","","","32","","5","","16.1","","99.76","","","","","","Rain"
"-68.21","48.61","MONT JOLI A","7055121","2022-04-10 20:00","2022","04","10","20:00","0.3","","0.3","","100","","","","24","","6","","16.1","","99.84","","","","","","NA"
"-68.21","48.61","MONT JOLI A","7055121","2022-04-10 21:00","2022","04","10","21:00","0.2","","0.2","","100","","","","22","","11","","9.7","","99.88","","","","","","Fog"
"-68.21","48.61","MONT JOLI A","7055121","2022-04-10 22:00","2022","04","10","22:00","0.0","","0.0","","100","","","","23","","17","","0.8","","99.90","","","","-5","","Fog"
"-68.21","48.61","MONT JOLI A","7055121","2022-04-10 23:00","2022","04","10","23:00","0.3","","0.3","","100","","","","23","","14","","4.8","","99.91","","","","","","Fog"
"-68.21","48.61","MONT JOLI A","7055121","2022-04-11 00:00","2022","04","11","00:00","1.8","","1.8","","100","","","","23","","21","","9.7","","99.97","","","","","","Fog"
"-68.21","48.61","MONT JOLI A","7055121","2022-04-11 01:00","2022","04","11","01:00","2.5","","2.5","","100","","","","23","","14","","16.1","","100.01","","","","","","Cloudy"
"-68.21","48.61","MONT JOLI A","7055121","2022-04-11 02:00","2022","04","11","02:00","2.4","","2.4","","100","","","","23","","13","","16.1","","100.09","","","","","","NA"
"-68.21","48.61","MONT JOLI A","7055121","2022-04-11 03:00","2022","04","11","03:00","2.9","","2.0","","94","","","","23","","12","","24.1","","100.15","","","","","","NA"
"-68.21","48.61","MONT JOLI A","7055121","2022-04-11 04:00","2022","04","11","04:00","4.0","","0.0","","75","","","","8","","5","","24.1","","100.22","","","","","","Mostly Cloudy"
"-68.21","48.61","MONT JOLI A","7055121","2022-04-11 05:00","2022","04","11","05:00","3.5","","-0.2","","76","","","","32","","16","","24.1","","100.31","","","","","","NA"
"-68.21","48.61","MONT JOLI A","7055121","2022-04-11 06:00","2022","04","11","06:00","2.8","","-0.7","","78","","","","30","","18","","48.3","","100.41","","","","","","NA"
"-68.21","48.61","MONT JOLI A","7055121","2022-04-11 07:00","2022","04","11","07:00","2.8","","-0.2","","81","","","","25","","13","","48.3","","100.52","","","","","","Clear"
"-68.21","48.61","MONT JOLI A","7055121","2022-04-11 08:00","2022","04","11","08:00","3.0","","-0.5","","78","","","","29","","16","","48.3","","100.59","","","","","","NA"
"-68.21","48.61","MONT JOLI A","7055121","2022-04-11 09:00","2022","04","11","09:00","3.7","","0.0","","76","","","","28","","16","","48.3","","100.61","","","","","","NA"
"-68.21","48.61","MONT JOLI A","7055121","2022-04-11 10:00","2022","04","11","10:00","3.9","","-0.2","","74","","","","27","","19","","48.3","","100.59","","","","","","Clear"
"-68.21","48.61","MONT JOLI A","7055121","2022-04-11 11:00","2022","04","11","11:00","5.2","","-1.6","","62","","","","28","","15","","48.3","","100.57","","","","","","NA"
"-68.21","48.61","MONT JOLI A","7055121","2022-04-11 12:00","2022","04","11","12:00","5.6","","-1.5","","60","","","","25","","17","","48.3","","100.57","","","","","","NA"
"-68.21","48.61","MONT JOLI A","7055121","2022-04-11 13:00","2022","04","11","13:00","6.0","","-2.0","","56","","","","25","","17","","48.3","","100.53","","","","","","Mainly Clear"
"-68.21","48.61","MONT JOLI A","7055121","2022-04-11 14:00","2022","04","11","14:00","7.0","","-3.4","","48","","","","26","","18","","48.3","","100.51","","","","","","NA"
"-68.21","48.61","MONT JOLI A","7055121","2022-04-11 15:00","2022","04","11","15:00","6.5","","-2.2","","54","","","","25","","18","","48.3","","100.56","","","","","","NA"
"-68.21","48.61","MONT JOLI A","7055121","2022-04-11 16:00","2022","04","11","16:00","6.7","","-2.5","","52","","","","25","","14","","48.3","","100.56","","","","","","Mainly Clear"
"-68.21","48.61","MONT JOLI A","7055121","2022-04-11 17:00","2022","04","11","17:00","6.6","","-1.9","","55","","","","23","","7","","48.3","","100.58","","","","","","NA"
"-68.21","48.61","MONT JOLI A","7055121","2022-04-11 18:00","2022","04","11","18:00","5.6","","-1.9","","58","","","","24","","9","","48.3","","100.55","","","","","","NA"
"-68.21","48.61","MONT JOLI A","7055121","2022-04-11 19:00","2022","04","11","19:00","5.0","","-2.4","","59","","","","21","","11","","48.3","","100.59","","","","","","Mainly Clear"
"-68.21","48.61","MONT JOLI A","7055121","2022-04-11 20:00","2022","04","11","20:00","3.0","","-2.6","","67","","","","17","","11","","24.1","","100.55","","","","","","NA"
"-68.21","48.61","MONT JOLI A","7055121","2022-04-11 21:00","2022","04","11","21:00","2.7","","-2.6","","68","","","","17","","9","","24.1","","100.58","","","","","","NA"
"-68.21","48.61","MONT JOLI A","7055121","2022-04-11 22:00","2022","04","11","22:00","2.4","","-3.0","","68","","","","16","","14","","24.1","","100.59","","","","","","Mainly Clear"
"-68.21","48.61","MONT JOLI A","7055121","2022-04-11 23:00","2022","04","11","23:00","3.3","","-2.8","","65","","","","17","","15","","24.1","","100.52","","","","","","NA"
"-68.21","48.61","MONT JOLI A","7055121","2022-04-12 00:00","2022","04","12","00:00","2.7","","-2.9","","67","","","","15","","17","","24.1","","100.48","","","","","","NA"
"-68.21","48.61","MONT JOLI A","7055121","2022-04-12 01:00","2022","04","12","01:00","2.9","","-2.8","","66","","","","16","","14","","24.1","","100.44","","","","","","Mostly Cloudy"
"-68.21","48.61","MONT JOLI A","7055121","2022-04-12 02:00","2022","04","12","02:00","3.0","","-2.5","","67","","","","15","","15","","24.1","","100.38","","","","","","NA"
"-68.21","48.61","MONT JOLI A","7055121","2022-04-12 03:00","2022","04","12","03:00","2.8","","-2.8","","66","","","","15","","17","","24.1","","100.35","","","","","","NA"
"-68.21","48.61","MONT JOLI A","7055121","2022-04-12 04:00","2022","04","12","04:00","2.9","","-2.9","","66","","","","15","","21","","24.1","","100.30","","","","","","Mostly Cloudy"
"-68.21","48.61","MONT JOLI A","7055121","2022-04-12 05:00","2022","04","12","05:00","3.8","","-2.8","","62","","","","18","","10","","48.3","","100.34","","","","","","NA"
"-68.21","48.61","MONT JOLI A","7055121","2022-04-12 06:00","2022","04","12","06:00","3.7","","-2.5","","64","","","","17","","11","","48.3","","100.32","","","","","","NA"
"-68.21","48.61","MONT JOLI A","7055121","2022-04-12 07:00","2022","04","12","07:00","3.4","","-2.3","","66","","","","32","","4","","48.3","","100.36","","","","","","Mostly Cloudy"
"-68.21","48.61","MONT JOLI A","7055121","2022-04-12 08:00","2022","04","12","08:00","4.5","","-2.4","","61","","","","24","","14","","24.1","","100.36","","","","","","NA"
"-68.21","48.61","MONT JOLI A","7055121","2022-04-12 09:00","2022","04","12","09:00","2.5","","0.4","","86","","","","23","","14","","8.1","","100.41","","","","","","Rain,Fog"
"-68.21","48.61","MONT JOLI A","7055121","2022-04-12 10:00","2022","04","12","10:00","2.0","","2.0","","100","","","","20","","11","","8.1","","100.37","","","","","","Rain,Fog"
"-68.21","48.61","MONT JOLI A","7055121","2022-04-12 11:00","2022","04","12","11:00","2.4","","2.4","","100","","","","20","","12","","24.1","","100.32","","","","","","Rain"
"-68.21","48.61","MONT JOLI A","7055121","2022-04-12 12:00","2022","04","12","12:00","3.6","","3.6","","100","","","","24","","9","","48.3","","100.29","","","","","","NA"
"-68.21","48.61","MONT JOLI A","7055121","2022-04-12 13:00","2022","04","12","13:00","4.2","","3.1","","93","","","","27","","10","","48.3","","100.29","","","","","","Cloudy"
"-68.21","48.61","MONT JOLI A","7055121","2022-04-12 14:00","2022","04","12","14:00","4.3","","2.6","","89","","","","36","","3","","48.3","","100.25","","","","","","NA"
"-68.21","48.61","MONT JOLI A","7055121","2022-04-12 15:00","2022","04","12","15:00","4.4","","2.2","","85","","","","35","","9","","48.3","","100.22","","","","","","NA"
"-68.21","48.61","MONT JOLI A","7055121","2022-04-12 16:00","2022","04","12","16:00","3.4","","2.0","","91","","","","4","","13","","48.3","","100.24","","","","","","Mainly Clear"
"-68.21","48.61","MONT JOLI A","7055121","2022-04-12 17:00","2022","04","12","17:00","3.3","","1.3","","87","","","","8","","12","","48.3","","100.29","","","","","","NA"
"-68.21","48.61","MONT JOLI A","7055121","2022-04-12 18:00","2022","04","12","18:00","3.1","","1.4","","88","","","","2","","8","","48.3","","100.35","","","","","","NA"
"-68.21","48.61","MONT JOLI A","7055121","2022-04-12 19:00","2022","04","12","19:00","1.6","","1.6","","100","","","","8","","7","","24.1","","100.46","","","","","","Mainly Clear"
"-68.21","48.61","MONT JOLI A","7055121","2022-04-12 20:00","2022","04","12","20:00","1.1","","1.1","","100","","","","3","","3","","24.1","","100.54","","","","","","NA"
"-68.21","48.61","MONT JOLI A","7055121","2022-04-12 21:00","2022","04","12","21:00","0.6","","0.6","","100","","","","11","","9","","0.2","","100.52","","","","","","Fog"
"-68.21","48.61","MONT JOLI A","7055121","2022-04-12 22:00","2022","04","12","22:00","-0.9","","-0.9","","100","","","","9","","7","","24.1","","100.51","","","","-3","","Mainly Clear"
"-68.21","48.61","MONT JOLI A","7055121","2022-04-12 23:00","2022","04","12","23:00","-0.3","","-0.3","","100","","","","14","","8","","0.2","","100.60","","","","-3","","Freezing Fog"
"-68.21","48.61","MONT JOLI A","7055121","2022-04-13 00:00","2022","04","13","00:00","-0.3","","-0.3","","100","","","","16","","4","","24.1","","100.59","","","","-2","","NA"
"-68.21","48.61","MONT JOLI A","7055121","2022-04-13 01:00","2022","04","13","01:00","1.4","","1.3","","99","","","","22","","13","","24.1","","100.65","","","","","","Clear"
"-68.21","48.61","MONT JOLI A","7055121","2022-04-13 02:00","2022","04","13","02:00","2.3","","-1.8","","74","","","","23","","14","","48.3","","100.68","","","","","","NA"
"-68.21","48.61","MONT JOLI A","7055121","2022-04-13 03:00","2022","04","13","03:00","2.9","","-1.3","","74","","","","24","","15","","24.1","","100.77","","","","","","NA"
"-68.21","48.61","MONT JOLI A","7055121","2022-04-13 04:00","2022","04","13","04:00","3.4","","-1.4","","71","","","","24","","15","","24.1","","100.85","","","","","","Mostly Cloudy"
"-68.21","48.61","MONT JOLI A","7055121","2022-04-13 05:00","2022","04","13","05:00","3.1","","-1.4","","72","","","","23","","15","","48.3","","100.91","","","","","","NA"
"-68.21","48.61","MONT JOLI A","7055121","2022-04-13 06:00","2022","04","13","06:00","3.0","","-1.6","","72","","","","24","","18","","48.3","","101.03","","","","","","NA"
"-68.21","48.61","MONT JOLI A","7055121","2022-04-13 07:00","2022","04","13","07:00","3.8","","-1.4","","69","","","","24","","12","","48.3","","101.06","","","","","","Mainly Clear"
"-68.21","48.61","MONT JOLI A","7055121","2022-04-13 08:00","2022","04","13","08:00","4.8","","-1.7","","63","","","","25","","13","","48.3","","101.03","","","","","","NA"
"-68.21","48.61","MONT JOLI A","7055121","2022-04-13 09:00","2022","04","13","09:00","5.4","","-1.6","","60","","","","25","","10","","48.3","","101.00","","","","","","NA"
"-68.21","48.61","MONT JOLI A","7055121","2022-04-13 10:00","2022","04","13","10:00","5.6","","-2.0","","58","","","","26","","10","","48.3","","100.97","","","","","","Mainly Clear"
"-68.21","48.61","MONT JOLI A","7055121","2022-04-13 11:00","2022","04","13","11:00","6.2","","-2.5","","54","","","","25","","11","","48.3","","101.00","","","","","","NA"
"-68.21","48.61","MONT JOLI A","7055121","2022-04-13 12:00","2022","04","13","12:00","6.8","","-2.9","","50","","","","25","","8","","48.3","","100.97","","","","","","NA"
"-68.21","48.61","MONT JOLI A","7055121","2022-04-13 13:00","2022","04","13","13:00","7.6","","-4.3","","43","","","","25","","9","","48.3","","100.97","","","","","","Mainly Clear"
"-68.21","48.61","MONT JOLI A","7055121","2022-04-13 14:00","2022","04","13","14:00","8.4","","-5.0","","38","","","","18","","8","","48.3","","100.96","","","","","","NA"
"-68.21","48.61","MONT JOLI A","7055121","2022-04-13 15:00","2022","04","13","15:00","8.5","","-4.2","","40","","","","18","","7","","48.3","","100.91","","","","","","NA"
"-68.21","48.61","MONT JOLI A","7055121","2022-04-13 16:00","2022","04","13","16:00","9.1","","-4.9","","37","","","","36","","2","","48.3","","100.87","","","","","","Mainly Clear"
"-68.21","48.61","MONT JOLI A","7055121","2022-04-13 17:00","2022","04","13","17:00","7.3","","-2.6","","49","","","","7","","10","","48.3","","100.91","","","","","","NA"
"-68.21","48.61","MONT JOLI A","7055121","2022-04-13 18:00","2022","04","13","18:00","5.0","","-2.5","","58","","","","7","","16","","24.1","","100.93","","","","","","NA"
"-68.21","48.61","MONT JOLI A","7055121","2022-04-13 19:00","2022","04","13","19:00","3.8","","-3.8","","58","","","","10","","12","","24.1","","100.96","","","","","","Mainly Clear"
"-68.21","48.61","MONT JOLI A","7055121","2022-04-13 20:00","2022","04","13","20:00","3.0","","-4.3","","59","","","","12","","14","","24.1","","100.97","","","","","","NA"
"-68.21","48.61","MONT JOLI A","7055121","2022-04-13 21:00","2022","04","13","21:00","3.3","","-4.7","","56","","","","11","","14","","24.1","","100.95","","","","","","NA"
"-68.21","48.61","MONT JOLI A","7055121","2022-04-13 22:00","2022","04","13","22:00","3.4","","-4.6","","56","","","","15","","16","","24.1","","100.98","","","","","","Clear"
"-68.21","48.61","MONT JOLI A","7055121","2022-04-13 23:00","2022","04","13","23:00","2.8","","-4.6","","59","","","","14","","13","","24.1","","101.01","","","","","","NA"
"-68.21","48.61","MONT JOLI A","7055121","2022-04-14 00:00","2022","04","14","00:00","3.4","","-5.1","","54","","","","14","","17","","24.1","","101.04","","","","","","NA"
"-68.21","48.61","MONT JOLI A","7055121","2022-04-14 01:00","2022","04","14","01:00","2.1","","-5.0","","60","","","","15","","14","","24.1","","101.03","","","","","","Clear"
"-68.21","48.61","MONT JOLI A","7055121","2022-04-14 02:00","2022","04","14","02:00","1.6","","-5.3","","60","","","","15","","15","","24.1","","100.99","","","","","","NA"
"-68.21","48.61","MONT JOLI A","7055121","2022-04-14 03:00","2022","04","14","03:00","1.2","","-5.4","","61","","","","15","","16","","24.1","","100.99","","","","","","NA"
"-68.21","48.61","MONT JOLI A","7055121","2022-04-14 04:00","2022","04","14","04:00","1.0","","-5.5","","62","","","","14","","14","","24.1","","100.99","","","","","","Mainly Clear"
"-68.21","48.61","MONT JOLI A","7055121","2022-04-14 05:00","2022","04","14","05:00","1.6","","-5.4","","60","","","","16","","18","","24.1","","101.01","","","","","","NA"
"-68.21","48.61","MONT JOLI A","7055121","2022-04-14 06:00","2022","04","14","06:00","3.4","","-5.0","","54","","","","15","","16","","48.3","","101.01","","","","","","NA"
"-68.21","48.61","MONT JOLI A","7055121","2022-04-14 07:00","2022","04","14","07:00","3.5","","-4.0","","58","","","","7","","12","","48.3","","101.03","","","","","","Mainly Clear"
"-68.21","48.61","MONT JOLI A","7055121","2022-04-14 08:00","2022","04","14","08:00","5.3","","-3.8","","52","","","","6","","11","","48.3","","101.02","","","","","","NA"
"-68.21","48.61","MONT JOLI A","7055121","2022-04-14 09:00","2022","04","14","09:00","5.1","","-2.4","","59","","","","6","","15","","48.3","","100.99","","","","","","NA"
"-68.21","48.61","MONT JOLI A","7055121","2022-04-14 10:00","2022","04","14","10:00","5.8","","-2.4","","56","","","","6","","25","","48.3","","100.94","","","","","","Mainly Clear"
"-68.21","48.61","MONT JOLI A","7055121","2022-04-14 11:00","2022","04","14","11:00","6.2","","-2.5","","54","","","","6","","30","","48.3","","100.88","","","","","","NA"
"-68.21","48.61","MONT JOLI A","7055121","2022-04-14 12:00","2022","04","14","12:00","6.5","","-2.7","","52","","","","6","","34","","48.3","","100.82","","","","","","NA"
"-68.21","48.61","MONT JOLI A","7055121","2022-04-14 13:00","2022","04","14","13:00","5.9","","-2.0","","57","","","","6","","35","","48.3","","100.79","","","","","","Mostly Cloudy"
"-68.21","48.61","MONT JOLI A","7055121","2022-04-14 14:00","2022","04","14","14:00","5.4","","-2.4","","57","","","","6","","35","","48.3","","100.76","","","","","","NA"
"-68.21","48.61","MONT JOLI A","7055121","2022-04-14 15:00","2022","04","14","15:00","4.9","","-1.4","","64","","","","6","","27","","48.3","","100.72","","","","","","NA"
"-68.21","48.61","MONT JOLI A","7055121","2022-04-14 16:00","2022","04","14","16:00","5.3","","-1.4","","62","","","","10","","11","","48.3","","100.69","","","","","","Cloudy"
"-68.21","48.61","MONT JOLI A","7055121","2022-04-14 17:00","2022","04","14","17:00","5.7","","-1.4","","60","","","","30","","6","","48.3","","100.73","","","","","","NA"
"-68.21","48.61","MONT JOLI A","7055121","2022-04-14 18:00","2022","04","14","18:00","5.0","","1.7","","79","","","","24","","9","","16.1","","100.78","","","","","","Rain"
"-68.21","48.61","MONT JOLI A","7055121","2022-04-14 19:00","2022","04","14","19:00","4.0","","2.1","","88","","","","11","","5","","16.1","","100.81","","","","","","Rain"
"-68.21","48.61","MONT JOLI A","7055121","2022-04-14 20:00","2022","04","14","20:00","3.5","","3.3","","99","","","","11","","10","","16.1","","100.76","","","","","","Rain"
"-68.21","48.61","MONT JOLI A","7055121","2022-04-14 21:00","2022","04","14","21:00","3.7","","1.9","","88","","","","12","","15","","16.1","","100.76","","","","","","Rain"
"-68.21","48.61","MONT JOLI A","7055121","2022-04-14 22:00","2022","04","14","22:00","3.6","","1.7","","87","","","","12","","15","","16.1","","100.74","","","","","","Rain"
"-68.21","48.61","MONT JOLI A","7055121","2022-04-14 23:00","2022","04","14","23:00","3.7","","1.8","","88","","","","11","","13","","16.1","","100.75","","","","","","NA"
"-68.21","48.61","MONT JOLI A","7055121","2022-04-15 00:00","2022","04","15","00:00","4.1","","2.6","","90","","","","10","","9","","16.1","","100.66","","","","","","Rain"
"-68.21","48.61","MONT JOLI A","7055121","2022-04-15 01:00","2022","04","15","01:00","4.4","","2.4","","87","","","","16","","3","","16.1","","100.62","","","","","","Rain"
"-68.21","48.61","MONT JOLI A","7055121","2022-04-15 02:00","2022","04","15","02:00"
"-68.21","48.61","MONT JOLI A","7055121","2022-04-15 03:00","2022","04","15","03:00","4.1","","2.7","","90","","","","15","","27","","16.1","","100.54","","","","","","Rain"
"-68.21","48.61","MONT JOLI A","7055121","2022-04-15 04:00","2022","04","15","04:00","4.2","","2.7","","89","","","","16","","27","","16.1","","100.54","","","","","","Rain"
"-68.21","48.61","MONT JOLI A","7055121","2022-04-15 05:00","2022","04","15","05:00","4.0","","2.8","","92","","","","18","","13","","6.4","","100.58","","","","","","Rain,Fog"
"-68.21","48.61","MONT JOLI A","7055121","2022-04-15 06:00","2022","04","15","06:00","3.8","","3.8","","100","","","","29","","8","","48.3","","100.65","","","","","","Rain"
"-68.21","48.61","MONT JOLI A","7055121","2022-04-15 07:00","2022","04","15","07:00","5.1","","4.0","","93","","","","19","","10","","48.3","","100.64","","","","","","Rain"
"-68.21","48.61","MONT JOLI A","7055121","2022-04-15 08:00","2022","04","15","08:00","4.8","","4.8","","100","","","","22","","7","","48.3","","100.69","","","","","","NA"
"-68.21","48.61","MONT JOLI A","7055121","2022-04-15 09:00","2022","04","15","09:00","4.8","","4.8","","100","","","","26","","7","","24.1","","100.65","","","","","","NA"
"-68.21","48.61","MONT JOLI A","7055121","2022-04-15 10:00","2022","04","15","10:00","4.3","","4.3","","100","","","","28","","7","","1.6","","100.63","","","","","","Fog"
"-68.21","48.61","MONT JOLI A","7055121","2022-04-15 11:00","2022","04","15","11:00","3.5","","3.5","","100","","","","27","","7","","0.2","","100.57","","","","","","Fog"
"-68.21","48.61","MONT JOLI A","7055121","2022-04-15 12:00","2022","04","15","12:00","2.9","","2.9","","100","","","","28","","14","","0.2","","100.55","","","","","","Fog"
"-68.21","48.61","MONT JOLI A","7055121","2022-04-15 13:00","2022","04","15","13:00","3.8","","3.8","","100","","","","32","","4","","1.6","","100.46","","","","","","Fog"
"-68.21","48.61","MONT JOLI A","7055121","2022-04-15 14:00","2022","04","15","14:00","6.2","","4.5","","89","","","","13","","11","","24.1","","100.37","","","","","","NA"
"-68.21","48.61","MONT JOLI A","7055121","2022-04-15 15:00","2022","04","15","15:00","6.6","","5.0","","89","","","","7","","14","","16.1","","100.35","","","","","","NA"
"-68.21","48.61","MONT JOLI A","7055121","2022-04-15 16:00","2022","04","15","16:00","5.3","","5.3","","100","","","","6","","14","","16.1","","100.31","","","","","","Mainly Clear"
"-68.21","48.61","MONT JOLI A","7055121","2022-04-15 17:00","2022","04","15","17:00","4.3","","4.3","","100","","","","6","","8","","16.1","","100.32","","","","","","NA"
"-68.21","48.61","MONT JOLI A","7055121","2022-04-15 18:00","2022","04","15","18:00","3.6","","3.2","","97","","","","12","","13","","16.1","","100.30","","","","","","NA"
"-68.21","48.61","MONT JOLI A","7055121","2022-04-15 19:00","2022","04","15","19:00","3.0","","2.9","","99","","","","14","","5","","24.1","","100.29","","","","","","Mainly Clear"
"-68.21","48.61","MONT JOLI A","7055121","2022-04-15 20:00","2022","04","15","20:00","3.0","","1.5","","90","","","","13","","12","","24.1","","100.25","","","","","","NA"
"-68.21","48.61","MONT JOLI A","7055121","2022-04-15 21:00","2022","04","15","21:00","3.7","","0.5","","80","","","","10","","14","","24.1","","100.15","","","","","","NA"
"-68.21","48.61","MONT JOLI A","7055121","2022-04-15 22:00","2022","04","15","22:00","3.6","","-1.9","","67","","","","15","","16","","24.1","","100.07","","","","","","Mainly Clear"
"-68.21","48.61","MONT JOLI A","7055121","2022-04-15 23:00","2022","04","15","23:00","5.6","","-1.0","","62","","","","13","","14","","24.1","","100.01","","","","","","Rain"
"-68.21","48.61","MONT JOLI A","7055121","2022-04-16 00:00","2022","04","16","00:00","5.7","","0.5","","69","","","","19","","11","","24.1","","100.01","","","","","","Rain"
"-68.21","48.61","MONT JOLI A","7055121","2022-04-16 01:00","2022","04","16","01:00","6.3","","-0.2","","63","","","","19","","16","","24.1","","99.87","","","","","","Cloudy"
"-68.21","48.61","MONT JOLI A","7055121","2022-04-16 02:00","2022","04","16","02:00","7.2","","0.8","","64","","","","20","","21","","24.1","","99.80","","","","","","NA"
"-68.21","48.61","MONT JOLI A","7055121","2022-04-16 03:00","2022","04","16","03:00","6.7","","0.9","","66","","","","20","","32","","24.1","","99.79","","","","","","NA"
"-68.21","48.61","MONT JOLI A","7055121","2022-04-16 04:00","2022","04","16","04:00","6.4","","0.9","","68","","","","20","","32","","24.1","","99.78","","","","","","Cloudy"
"-68.21","48.61","MONT JOLI A","7055121","2022-04-16 05:00","2022","04","16","05:00","5.5","","-0.6","","65","","","","20","","26","","24.1","","99.76","","","","","","NA"
"-68.21","48.61","MONT JOLI A","7055121","2022-04-16 06:00","2022","04","16","06:00","5.3","","-0.7","","65","","","","21","","32","","24.1","","99.76","","","","","","NA"
"-68.21","48.61","MONT JOLI A","7055121","2022-04-16 07:00","2022","04","16","07:00","5.9","","-2.0","","57","","","","23","","31","","24.1","","99.83","","","","","","Mainly Clear"
"-68.21","48.61","MONT JOLI A","7055121","2022-04-16 08:00","2022","04","16","08:00","5.8","","-3.3","","52","","","","24","","37","","24.1","","99.91","","","","","","NA"
"-68.21","48.61","MONT JOLI A","7055121","2022-04-16 09:00","2022","04","16","09:00","4.7","","-1.4","","64","","","","25","","42","","24.1","","100.01","","","","","","NA"
"-68.21","48.61","MONT JOLI A","7055121","2022-04-16 10:00","2022","04","16","10:00","4.3","","-3.2","","58","","","","24","","31","","48.3","","100.12","","","","","","Mostly Cloudy"
"-68.21","48.61","MONT JOLI A","7055121","2022-04-16 11:00","2022","04","16","11:00","5.5","","-3.2","","54","","","","24","","28","","48.3","","100.16","","","","","","NA"
"-68.21","48.61","MONT JOLI A","7055121","2022-04-16 12:00","2022","04","16","12:00","5.0","","-3.1","","56","","","","25","","31","","24.1","","100.17","","","","","","NA"
"-68.21","48.61","MONT JOLI A","7055121","2022-04-16 13:00","2022","04","16","13:00","6.3","","-3.6","","49","","","","25","","31","","48.3","","100.16","","","","","","Mainly Clear"
"-68.21","48.61","MONT JOLI A","7055121","2022-04-16 14:00","2022","04","16","14:00","6.7","","-5.0","","43","","","","24","","27","","48.3","","100.19","","","","","","NA"
"-68.21","48.61","MONT JOLI A","7055121","2022-04-16 15:00","2022","04","16","15:00","6.5","","-5.1","","43","","","","24","","23","","48.3","","100.25","","","","","","NA"
"-68.21","48.61","MONT JOLI A","7055121","2022-04-16 16:00","2022","04","16","16:00","6.7","","-5.2","","43","","","","24","","21","","48.3","","100.28","","","","","","Mostly Cloudy"
"-68.21","48.61","MONT JOLI A","7055121","2022-04-16 17:00","2022","04","16","17:00","5.5","","-6.1","","43","","","","23","","20","","48.3","","100.36","","","","","","NA"
"-68.21","48.61","MONT JOLI A","7055121","2022-04-16 18:00","2022","04","16","18:00","4.6","","-4.7","","51","","","","22","","14","","24.1","","100.41","","","","","","NA"
"-68.21","48.61","MONT JOLI A","7055121","2022-04-16 19:00","2022","04","16","19:00","3.6","","-4.8","","54","","","","21","","9","","24.1","","100.46","","","","","","Mostly Cloudy"
"-68.21","48.61","MONT JOLI A","7055121","2022-04-16 20:00","2022","04","16","20:00","3.5","","-5.5","","52","","","","22","","6","","24.1","","100.49","","","","","","NA"
"-68.21","48.61","MONT JOLI A","7055121","2022-04-16 21:00","2022","04","16","21:00","3.4","","-5.8","","51","","","","22","","9","","24.1","","100.43","","","","","","NA"
"-68.21","48.61","MONT JOLI A","7055121","2022-04-16 22:00","2022","04","16","22:00","2.4","","-4.9","","59","","","","22","","8","","24.1","","100.44","","","","","","Mostly Cloudy"
"-68.21","48.61","MONT JOLI A","7055121","2022-04-16 23:00","2022","04","16","23:00","1.9","","-4.8","","61","","","","21","","10","","24.1","","100.43","","","","","","NA"
"-68.21","48.61","MONT JOLI A","7055121","2022-04-17 00:00","2022","04","17","00:00","1.8","","-4.9","","61","","","","22","","8","","24.1","","100.40","","","","","","NA"
"-68.21","48.61","MONT JOLI A","7055121","2022-04-17 01:00","2022","04","17","01:00","1.8","","-4.9","","61","","","","21","","9","","24.1","","100.40","","","","","","Mostly Cloudy"
"-68.21","48.61","MONT JOLI A","7055121","2022-04-17 02:00","2022","04","17","02:00","1.5","","-4.8","","63","","","","23","","4","","24.1","","100.34","","","","","","NA"
"-68.21","48.61","MONT JOLI A","7055121","2022-04-17 03:00","2022","04","17","03:00","1.1","","-4.6","","65","","","","21","","8","","24.1","","100.30","","","","","","NA"
"-68.21","48.61","MONT JOLI A","7055121","2022-04-17 04:00","2022","04","17","04:00","1.2","","-4.0","","68","","","","21","","4","","24.1","","100.27","","","","","","Mostly Cloudy"
"-68.21","48.61","MONT JOLI A","7055121","2022-04-17 05:00","2022","04","17","05:00","0.8","","-3.9","","71","","","","24","","4","","24.1","","100.27","","","","","","NA"
"-68.21","48.61","MONT JOLI A","7055121","2022-04-17 06:00","2022","04","17","06:00","0.9","","-3.0","","75","","","","24","","9","","48.3","","100.26","","","","","","NA"
"-68.21","48.61","MONT JOLI A","7055121","2022-04-17 07:00","2022","04","17","07:00","1.4","","-2.1","","78","","","","25","","9","","48.3","","100.24","","","","","","Mostly Cloudy"
"-68.21","48.61","MONT JOLI A","7055121","2022-04-17 08:00","2022","04","17","08:00","2.1","","-3.8","","65","","","","31","","17","","48.3","","100.22","","","","","","NA"
"-68.21","48.61","MONT JOLI A","7055121","2022-04-17 09:00","2022","04","17","09:00","2.1","","-3.4","","67","","","","28","","13","","48.3","","100.24","","","","","","NA"
"-68.21","48.61","MONT JOLI A","7055121","2022-04-17 10:00","2022","04","17","10:00","2.6","","-3.4","","64","","","","27","","23","","48.3","","100.21","","","","","","Cloudy"
"-68.21","48.61","MONT JOLI A","7055121","2022-04-17 11:00","2022","04","17","11:00","3.6","","-3.5","","60","","","","25","","20","","24.1","","100.17","","","","","","NA"
"-68.21","48.61","MONT JOLI A","7055121","2022-04-17 12:00","2022","04","17","12:00","3.3","","-3.1","","63","","","","26","","24","","48.3","","100.18","","","","","","NA"
"-68.21","48.61","MONT JOLI A","7055121","2022-04-17 13:00","2022","04","17","13:00","2.9","","-1.1","","75","","","","26","","26","","48.3","","100.22","","","","","","Cloudy"
"-68.21","48.61","MONT JOLI A","7055121","2022-04-17 14:00","2022","04","17","14:00","3.1","","-0.1","","80","","","","23","","13","","24.1","","100.22","","","","","","NA"
"-68.21","48.61","MONT JOLI A","7055121","2022-04-17 15:00","2022","04","17","15:00","3.2","","0.2","","81","","","","26","","25","","24.1","","100.25","","","","","","NA"
"-68.21","48.61","MONT JOLI A","7055121","2022-04-17 16:00","2022","04","17","16:00","3.8","","0.1","","77","","","","24","","17","","24.1","","100.30","","","","","","Mostly Cloudy"
"-68.21","48.61","MONT JOLI A","7055121","2022-04-17 17:00","2022","04","17","17:00","3.4","","0.0","","79","","","","23","","19","","24.1","","100.34","","","","","","NA"
"-68.21","48.61","MONT JOLI A","7055121","2022-04-17 18:00","2022","04","17","18:00","3.0","","0.8","","86","","","","24","","18","","24.1","","100.43","","","","","","Rain"
"-68.21","48.61","MONT JOLI A","7055121","2022-04-17 19:00","2022","04","17","19:00","3.5","","1.5","","87","","","","34","","27","","24.1","","100.57","","","","","","Mostly Cloudy"
"-68.21","48.61","MONT JOLI A","7055121","2022-04-17 20:00","2022","04","17","20:00","3.2","","1.1","","86","","","","30","","15","","24.1","","100.62","","","","","","NA"
"-68.21","48.61","MONT JOLI A","7055121","2022-04-17 21:00","2022","04","17","21:00","3.0","","0.8","","86","","","","27","","15","","24.1","","100.71","","","","","","NA"
"-68.21","48.61","MONT JOLI A","7055121","2022-04-17 22:00","2022","04","17","22:00","2.7","","0.4","","84","","","","25","","12","","24.1","","100.78","","","","","","Mostly Cloudy"
"-68.21","48.61","MONT JOLI A","7055121","2022-04-17 23:00","2022","04","17","23:00","3.0","","-1.6","","72","","","","28","","21","","24.1","","100.90","","","","","","NA"
"-68.21","48.61","MONT JOLI A","7055121","2022-04-18 00:00","2022","04","18","00:00","2.2","","-1.6","","76","","","","28","","15","","24.1","","100.99","","","","","","NA"
"-68.21","48.61","MONT JOLI A","7055121","2022-04-18 01:00","2022","04","18","01:00","2.3","","-2.6","","70","","","","29","","24","","24.1","","101.09","","","","","","Mainly Clear"
"-68.21","48.61","MONT JOLI A","7055121","2022-04-18 02:00","2022","04","18","02:00","2.2","","-4.0","","63","","","","30","","26","","24.1","","101.23","","","","","","NA"
"-68.21","48.61","MONT JOLI A","7055121","2022-04-18 03:00","2022","04","18","03:00","1.6","","-4.4","","64","","","","30","","17","","24.1","","101.38","","","","","","NA"
"-68.21","48.61","MONT JOLI A","7055121","2022-04-18 04:00","2022","04","18","04:00","1.5","","-3.5","","69","","","","31","","12","","24.1","","101.48","","","","","","Mainly Clear"
"-68.21","48.61","MONT JOLI A","7055121","2022-04-18 05:00","2022","04","18","05:00","1.0","","-8.0","","51","","","","34","","30","","24.1","","101.66","","","","","","NA"
"-68.21","48.61","MONT JOLI A","7055121","2022-04-18 06:00","2022","04","18","06:00","1.3","","-7.3","","53","","","","35","","24","","48.3","","101.80","","","","","","NA"
"-68.21","48.61","MONT JOLI A","7055121","2022-04-18 07:00","2022","04","18","07:00","1.7","","-8.3","","47","","","","35","","24","","48.3","","101.90","","","","","","Clear"
"-68.21","48.61","MONT JOLI A","7055121","2022-04-18 08:00","2022","04","18","08:00","2.1","","-8.7","","45","","","","35","","14","","48.3","","102.00","","","","","","NA"
"-68.21","48.61","MONT JOLI A","7055121","2022-04-18 09:00","2022","04","18","09:00","2.2","","-8.1","","47","","","","34","","12","","48.3","","102.06","","","","","","NA"
"-68.21","48.61","MONT JOLI A","7055121","2022-04-18 10:00","2022","04","18","10:00","2.1","","-8.7","","45","","","","31","","11","","48.3","","102.14","","","","","","Clear"
"-68.21","48.61","MONT JOLI A","7055121","2022-04-18 11:00","2022","04","18","11:00","2.4","","-9.7","","41","","","","28","","11","","48.3","","102.18","","","","","","NA"
"-68.21","48.61","MONT JOLI A","7055121","2022-04-18 12:00","2022","04","18","12:00","3.6","","-11.1","","33","","","","32","","7","","48.3","","102.17","","","","","","NA"
"-68.21","48.61","MONT JOLI A","7055121","2022-04-18 13:00","2022","04","18","13:00","4.7","","-11.4","","30","","","","32","","5","","48.3","","102.13","","","","","","Clear"
"-68.21","48.61","MONT JOLI A","7055121","2022-04-18 14:00","2022","04","18","14:00","5.1","","-12.8","","26","","","","1","","3","","48.3","","102.12","","","","","","NA"
"-68.21","48.61","MONT JOLI A","7055121","2022-04-18 15:00","2022","04","18","15:00","6.4","","-10.1","","30","","","","6","","8","","48.3","","102.04","","","","","","NA"
"-68.21","48.61","MONT JOLI A","7055121","2022-04-18 16:00","2022","04","18","16:00","6.0","","-11.7","","27","","","","5","","16","","48.3","","102.00","","","","","","Mainly Clear"
"-68.21","48.61","MONT JOLI A","7055121","2022-04-18 17:00","2022","04","18","17:00","6.0","","-16.4","","19","","","","8","","5","","48.3","","102.18","","","","","","NA"
"-68.21","48.61","MONT JOLI A","7055121","2022-04-18 18:00","2022","04","18","18:00","5.2","","-13.4","","25","","","","12","","4","","48.3","","102.27","","","","","","NA"
"-68.21","48.61","MONT JOLI A","7055121","2022-04-18 19:00","2022","04","18","19:00","1.6","","-10.0","","42","","","","8","","13","","48.3","","102.22","","","","","","Mainly Clear"
"-68.21","48.61","MONT JOLI A","7055121","2022-04-18 20:00","2022","04","18","20:00","0.0","","-9.1","","50","","","","13","","12","","48.3","","102.27","","","","-4","","NA"
"-68.21","48.61","MONT JOLI A","7055121","2022-04-18 21:00","2022","04","18","21:00","1.0","","-11.2","","40","","","","10","","14","","48.3","","102.20","","","","","","NA"
"-68.21","48.61","MONT JOLI A","7055121","2022-04-18 22:00","2022","04","18","22:00","2.5","","-12.6","","32","","","","12","","21","","48.3","","102.10","","","","","","Mainly Clear"
"-68.21","48.61","MONT JOLI A","7055121","2022-04-18 23:00","2022","04","18","23:00","0.8","","-11.4","","40","","","","8","","7","","48.3","","102.04","","","","","","NA"
"-68.21","48.61","MONT JOLI A","7055121","2022-04-19 00:00","2022","04","19","00:00","0.3","","-11.2","","42","","","","12","","11","","48.3","","102.01","","","","","","NA"
"-68.21","48.61","MONT JOLI A","7055121","2022-04-19 01:00","2022","04","19","01:00","2.1","","-6.6","","53","","","","14","","9","","48.3","","102.07","","","","","","Mainly Clear"
"-68.21","48.61","MONT JOLI A","7055121","2022-04-19 02:00","2022","04","19","02:00","1.5","","-4.8","","63","","","","16","","26","","48.3","","102.02","","","","","","NA"
"-68.21","48.61","MONT JOLI A","7055121","2022-04-19 03:00","2022","04","19","03:00","1.4","","-4.3","","66","","","","15","","29","","48.3","","101.99","","","","","","NA"
"-68.21","48.61","MONT JOLI A","7055121","2022-04-19 04:00","2022","04","19","04:00","1.3","","-4.6","","65","","","","13","","10","","48.3","","101.97","","","","","","Mostly Cloudy"
"-68.21","48.61","MONT JOLI A","7055121","2022-04-19 05:00","2022","04","19","05:00","0.2","","-4.5","","71","","","","5","","8","","48.3","","101.92","","","","","","NA"
"-68.21","48.61","MONT JOLI A","7055121","2022-04-19 06:00","2022","04","19","06:00","1.1","","-4.2","","68","","","","4","","10","","24.1","","101.82","","","","","","NA"
"-68.21","48.61","MONT JOLI A","7055121","2022-04-19 07:00","2022","04","19","07:00","1.4","","-3.9","","68","","","","8","","9","","48.3","","101.86","","","","","","Mostly Cloudy"
"-68.21","48.61","MONT JOLI A","7055121","2022-04-19 08:00","2022","04","19","08:00","2.3","","-3.9","","64","","","","14","","32","","48.3","","101.79","","","","","","NA"
"-68.21","48.61","MONT JOLI A","7055121","2022-04-19 09:00","2022","04","19","09:00","2.3","","-3.5","","66","","","","11","","35","","24.1","","101.57","","","","","","NA"
"-68.21","48.61","MONT JOLI A","7055121","2022-04-19 10:00","2022","04","19","10:00","2.6","","-3.7","","63","","","","9","","34","","48.3","","101.41","","","","","","Cloudy"
"-68.21","48.61","MONT JOLI A","7055121","2022-04-19 11:00","2022","04","19","11:00","2.8","","-4.0","","61","","","","8","","34","","24.1","","101.26","","","","","","NA"
"-68.21","48.61","MONT JOLI A","7055121","2022-04-19 12:00","2022","04","19","12:00","3.0","","-4.2","","59","","","","9","","31","","24.1","","101.10","","","","","","NA"
"-68.21","48.61","MONT JOLI A","7055121","2022-04-19 13:00","2022","04","19","13:00","1.8","","-1.7","","78","","","","8","","32","","24.1","","100.78","","","","","","Cloudy"
"-68.21","48.61","MONT JOLI A","7055121","2022-04-19 14:00","2022","04","19","14:00","2.7","","-2.6","","68","","","","9","","31","","24.1","","100.58","","","","","","NA"
"-68.21","48.61","MONT JOLI A","7055121","2022-04-19 15:00","2022","04","19","15:00","2.9","","-2.2","","69","","","","8","","32","","24.1","","100.35","","","","","","NA"
"-68.21","48.61","MONT JOLI A","7055121","2022-04-19 16:00","2022","04","19","16:00","2.6","","-1.7","","74","","","","10","","27","","16.1","","100.09","","","","","","Rain"
"-68.21","48.61","MONT JOLI A","7055121","2022-04-19 17:00","2022","04","19","17:00","3.0","","-1.7","","71","","","","10","","22","","24.1","","99.91","","","","","","Rain"
"-68.21","48.61","MONT JOLI A","7055121","2022-04-19 18:00","2022","04","19","18:00","2.8","","-1.6","","73","","","","7","","27","","24.1","","99.74","","","","","","NA"
"-68.21","48.61","MONT JOLI A","7055121","2022-04-19 19:00","2022","04","19","19:00","3.1","","-1.2","","73","","","","7","","15","","24.1","","99.62","","","","","","Cloudy"
"-68.21","48.61","MONT JOLI A","7055121","2022-04-19 20:00","2022","04","19","20:00","4.0","","-0.9","","70","","","","12","","19","","24.1","","99.54","","","","","","NA"
"-68.21","48.61","MONT JOLI A","7055121","2022-04-19 21:00","2022","04","19","21:00","3.1","","-0.1","","80","","","","10","","24","","24.1","","99.38","","","","","","Rain"
"-68.21","48.61","MONT JOLI A","7055121","2022-04-19 22:00","2022","04","19","22:00","3.6","","0.2","","79","","","","14","","28","","24.1","","99.25","","","","","","Mainly Clear"
"-68.21","48.61","MONT JOLI A","7055121","2022-04-19 23:00","2022","04","19","23:00","3.5","","1.2","","85","","","","14","","32","","24.1","","99.18","","","","","","Rain"
"-68.21","48.61","MONT JOLI A","7055121","2022-04-20 00:00","2022","04","20","00:00","3.0","","2.4","","96","","","","23","","16","","24.1","","99.29","","","","","","Rain"
"-68.21","48.61","MONT JOLI A","7055121","2022-04-20 01:00","2022","04","20","01:00","3.0","","-0.4","","78","","","","18","","23","","24.1","","99.29","","","","","","Mainly Clear"
"-68.21","48.61","MONT JOLI A","7055121","2022-04-20 02:00","2022","04","20","02:00","3.4","","-0.9","","73","","","","20","","29","","24.1","","99.29","","","","","","NA"
"-68.21","48.61","MONT JOLI A","7055121","2022-04-20 03:00","2022","04","20","03:00","3.2","","-1.5","","71","","","","19","","29","","24.1","","99.29","","","","","","NA"
"-68.21","48.61","MONT JOLI A","7055121","2022-04-20 04:00","2022","04","20","04:00","3.4","","-1.6","","69","","","","19","","27","","24.1","","99.28","","","","","","Mainly Clear"
"-68.21","48.61","MONT JOLI A","7055121","2022-04-20 05:00","2022","04","20","05:00","3.5","","-1.5","","70","","","","20","","23","","24.1","","99.30","","","","","","NA"
"-68.21","48.61","MONT JOLI A","7055121","2022-04-20 06:00","2022","04","20","06:00","4.0","","-1.3","","69","","","","20","","36","","24.1","","99.35","","","","","","NA"
"-68.21","48.61","MONT JOLI A","7055121","2022-04-20 07:00","2022","04","20","07:00","4.2","","-0.5","","71","","","","21","","28","","24.1","","99.44","","","","","","Mostly Cloudy"
"-68.21","48.61","MONT JOLI A","7055121","2022-04-20 08:00","2022","04","20","08:00","4.5","","-1.0","","67","","","","23","","31","","24.1","","99.55","","","","","","NA"
"-68.21","48.61","MONT JOLI A","7055121","2022-04-20 09:00","2022","04","20","09:00","4.1","","-2.1","","64","","","","24","","38","","24.1","","99.68","","","","","","NA"
"-68.21","48.61","MONT JOLI A","7055121","2022-04-20 10:00","2022","04","20","10:00","4.0","","-1.9","","65","","","","25","","42","","24.1","","99.84","","","","","","Mostly Cloudy"
"-68.21","48.61","MONT JOLI A","7055121","2022-04-20 11:00","2022","04","20","11:00","3.2","","-1.9","","69","","","","25","","40","","48.3","","100.02","","","","","","NA"
"-68.21","48.61","MONT JOLI A","7055121","2022-04-20 12:00","2022","04","20","12:00","3.0","","-1.3","","73","","","","25","","37","","48.3","","100.18","","","","","","NA"
"-68.21","48.61","MONT JOLI A","7055121","2022-04-20 13:00","2022","04","20","13:00","2.7","","-1.6","","73","","","","25","","43","","48.3","","100.35","","","","","","Cloudy"
"-68.21","48.61","MONT JOLI A","7055121","2022-04-20 14:00","2022","04","20","14:00","2.1","","-0.7","","82","","","","24","","34","","48.3","","100.51","","","","","","NA"
"-68.21","48.61","MONT JOLI A","7055121","2022-04-20 15:00","2022","04","20","15:00","3.1","","-1.7","","71","","","","25","","34","","24.1","","100.65","","","","","","NA"
"-68.21","48.61","MONT JOLI A","7055121","2022-04-20 16:00","2022","04","20","16:00","3.7","","-2.0","","66","","","","26","","34","","48.3","","100.85","","","","","","Mostly Cloudy"
"-68.21","48.61","MONT JOLI A","7055121","2022-04-20 17:00","2022","04","20","17:00","4.0","","-2.3","","63","","","","27","","37","","48.3","","101.08","","","","","","NA"
"-68.21","48.61","MONT JOLI A","7055121","2022-04-20 18:00","2022","04","20","18:00","3.3","","-2.3","","67","","","","27","","34","","48.3","","101.30","","","","","","NA"
"-68.21","48.61","MONT JOLI A","7055121","2022-04-20 19:00","2022","04","20","19:00","2.0","","-1.9","","76","","","","25","","31","","48.3","","101.53","","","","","","Mainly Clear"
"-68.21","48.61","MONT JOLI A","7055121","2022-04-20 20:00","2022","04","20","20:00","1.6","","-2.5","","75","","","","25","","28","","24.1","","101.69","","","","","","NA"
"-68.21","48.61","MONT JOLI A","7055121","2022-04-20 21:00","2022","04","20","21:00","1.9","","-3.3","","68","","","","25","","31","","24.1","","101.81","","","","","","NA"
"-68.21","48.61","MONT JOLI A","7055121","2022-04-20 22:00","2022","04","20","22:00","1.7","","-3.3","","70","","","","25","","28","","24.1","","101.96","","","","","","Clear"
"-68.21","48.61","MONT JOLI A","7055121","2022-04-20 23:00","2022","04","20","23:00","1.8","","-3.5","","68","","","","25","","26","","24.1","","102.10","","","","","","NA"
"-68.21","48.61","MONT JOLI A","7055121","2022-04-21 00:00","2022","04","21","00:00","1.4","","-3.4","","70","","","","25","","23","","24.1","","102.22","","","","","","NA"
"-68.21","48.61","MONT JOLI A","7055121","2022-04-21 01:00","2022","04","21","01:00","1.0","","-3.1","","74","","","","25","","17","","24.1","","102.27","","","","","","Clear"
"-68.21","48.61","MONT JOLI A","7055121","2022-04-21 02:00","2022","04","21","02:00","0.0","","-3.6","","77","","","","23","","12","","24.1","","102.38","","","","-4","","NA"
"-68.21","48.61","MONT JOLI A","7055121","2022-04-21 03:00","2022","04","21","03:00","-0.2","","-3.8","","76","","","","21","","15","","24.1","","102.44","","","","-5","","NA"
"-68.21","48.61","MONT JOLI A","7055121","2022-04-21 04:00","2022","04","21","04:00","-0.1","","-5.8","","66","","","","21","","14","","24.1","","102.47","","","","-4","","Clear"
"-68.21","48.61","MONT JOLI A","7055121","2022-04-21 05:00","2022","04","21","05:00","-0.2","","-5.8","","66","","","","21","","12","","48.3","","102.57","","","","-4","","NA"
"-68.21","48.61","MONT JOLI A","7055121","2022-04-21 06:00","2022","04","21","06:00","1.4","","-5.8","","59","","","","23","","11","","48.3","","102.66","","","","","","NA"
"-68.21","48.61","MONT JOLI A","7055121","2022-04-21 07:00","2022","04","21","07:00","2.8","","-5.2","","56","","","","22","","11","","48.3","","102.65","","","","","","Clear"
"-68.21","48.61","MONT JOLI A","7055121","2022-04-21 08:00","2022","04","21","08:00","4.5","","-4.8","","51","","","","22","","9","","48.3","","102.57","","","","","","NA"
"-68.21","48.61","MONT JOLI A","7055121","2022-04-21 09:00","2022","04","21","09:00","4.3","","-2.7","","60","","","","33","","12","","48.3","","102.55","","","","","","NA"
"-68.21","48.61","MONT JOLI A","7055121","2022-04-21 10:00","2022","04","21","10:00","4.0","","-2.7","","62","","","","31","","14","","48.3","","102.44","","","","","","Mainly Clear"
"-68.21","48.61","MONT JOLI A","7055121","2022-04-21 11:00","2022","04","21","11:00","4.6","","-0.8","","68","","","","35","","15","","48.3","","102.29","","","","","","NA"
"-68.21","48.61","MONT JOLI A","7055121","2022-04-21 12:00","2022","04","21","12:00","5.4","","-2.2","","58","","","","3","","15","","48.3","","102.10","","","","","","NA"
"-68.21","48.61","MONT JOLI A","7055121","2022-04-21 13:00","2022","04","21","13:00","5.5","","-0.8","","64","","","","2","","20","","48.3","","101.99","","","","","","Mostly Cloudy"
"-68.21","48.61","MONT JOLI A","7055121","2022-04-21 14:00","2022","04","21","14:00","4.0","","-2.1","","64","","","","4","","21","","48.3","","101.85","","","","","","NA"
"-68.21","48.61","MONT JOLI A","7055121","2022-04-21 15:00","2022","04","21","15:00","5.0","","-1.4","","63","","","","3","","9","","48.3","","101.69","","","","","","NA"
"-68.21","48.61","MONT JOLI A","7055121","2022-04-21 16:00","2022","04","21","16:00","8.8","","-6.4","","34","","","","18","","19","","48.3","","101.60","","","","","","Cloudy"
"-68.21","48.61","MONT JOLI A","7055121","2022-04-21 17:00","2022","04","21","17:00","8.4","","-5.5","","37","","","","17","","28","","48.3","","101.45","","","","","","NA"
"-68.21","48.61","MONT JOLI A","7055121","2022-04-21 18:00","2022","04","21","18:00","8.2","","-4.0","","42","","","","18","","36","","48.3","","101.38","","","","","","Rain"
"-68.21","48.61","MONT JOLI A","7055121","2022-04-21 19:00","2022","04","21","19:00","6.8","","-0.7","","59","","","","18","","28","","24.1","","101.34","","","","","","Rain"
"-68.21","48.61","MONT JOLI A","7055121","2022-04-21 20:00","2022","04","21","20:00","5.8","","0.7","","70","","","","17","","32","","24.1","","101.21","","","","","","Rain"
"-68.21","48.61","MONT JOLI A","7055121","2022-04-21 21:00","2022","04","21","21:00","5.0","","1.5","","78","","","","17","","32","","24.1","","101.06","","","","","","Rain"
"-68.21","48.61","MONT JOLI A","7055121","2022-04-21 22:00","2022","04","21","22:00","4.5","","1.9","","83","","","","17","","36","","24.1","","100.93","","","","","","Rain"
"-68.21","48.61","MONT JOLI A","7055121","2022-04-21 23:00","2022","04","21","23:00","4.4","","1.8","","83","","","","17","","27","","24.1","","100.81","","","","","","Rain"
"-68.21","48.61","MONT JOLI A","7055121","2022-04-22 00:00","2022","04","22","00:00","5.5","","2.0","","78","","","","19","","25","","24.1","","100.75","","","","","","Rain"
"-68.21","48.61","MONT JOLI A","7055121","2022-04-22 01:00","2022","04","22","01:00","6.2","","2.6","","78","","","","19","","33","","24.1","","100.70","","","","","","Cloudy"
"-68.21","48.61","MONT JOLI A","7055121","2022-04-22 02:00","2022","04","22","02:00","6.0","","2.7","","79","","","","21","","25","","24.1","","100.68","","","","","","NA"
"-68.21","48.61","MONT JOLI A","7055121","2022-04-22 03:00","2022","04","22","03:00","5.8","","2.6","","80","","","","21","","22","","24.1","","100.72","","","","","","NA"
"-68.21","48.61","MONT JOLI A","7055121","2022-04-22 04:00","2022","04","22","04:00","5.0","","2.5","","84","","","","21","","17","","24.1","","100.78","","","","","","Mainly Clear"
"-68.21","48.61","MONT JOLI A","7055121","2022-04-22 05:00","2022","04","22","05:00","5.2","","1.9","","79","","","","23","","20","","48.3","","100.87","","","","","","NA"
"-68.21","48.61","MONT JOLI A","7055121","2022-04-22 06:00","2022","04","22","06:00","5.5","","1.4","","75","","","","25","","27","","48.3","","100.96","","","","","","NA"
"-68.21","48.61","MONT JOLI A","7055121","2022-04-22 07:00","2022","04","22","07:00","5.4","","1.4","","75","","","","25","","25","","24.1","","101.06","","","","","","Mostly Cloudy"
"-68.21","48.61","MONT JOLI A","7055121","2022-04-22 08:00","2022","04","22","08:00","5.1","","0.9","","74","","","","25","","27","","48.3","","101.11","","","","","","NA"
"-68.21","48.61","MONT JOLI A","7055121","2022-04-22 09:00","2022","04","22","09:00","5.2","","1.1","","75","","","","25","","27","","48.3","","101.15","","","","","","NA"
"-68.21","48.61","MONT JOLI A","7055121","2022-04-22 10:00","2022","04","22","10:00","6.7","","1.0","","67","","","","26","","29","","48.3","","101.18","","","","","","Mostly Cloudy"
"-68.21","48.61","MONT JOLI A","7055121","2022-04-22 11:00","2022","04","22","11:00","6.9","","0.1","","62","","","","26","","39","","48.3","","101.17","","","","","","NA"
"-68.21","48.61","MONT JOLI A","7055121","2022-04-22 12:00","2022","04","22","12:00","6.8","","-0.4","","60","","","","26","","27","","48.3","","101.23","","","","","","NA"
"-68.21","48.61","MONT JOLI A","7055121","2022-04-22 13:00","2022","04","22","13:00","6.7","","-0.5","","60","","","","25","","27","","48.3","","101.26","","","","","","Mostly Cloudy"
"-68.21","48.61","MONT JOLI A","7055121","2022-04-22 14:00","2022","04","22","14:00","7.1","","-0.7","","58","","","","26","","22","","48.3","","101.29","","","","","","NA"
"-68.21","48.61","MONT JOLI A","7055121","2022-04-22 15:00","2022","04","22","15:00","6.5","","-0.5","","61","","","","26","","28","","48.3","","101.33","","","","","","NA"
"-68.21","48.61","MONT JOLI A","7055121","2022-04-22 16:00","2022","04","22","16:00","6.2","","-1.6","","57","","","","30","","34","","48.3","","101.38","","","","","","Mainly Clear"
"-68.21","48.61","MONT JOLI A","7055121","2022-04-22 17:00","2022","04","22","17:00","4.7","","-2.0","","62","","","","30","","40","","48.3","","101.50","","","","","","NA"
"-68.21","48.61","MONT JOLI A","7055121","2022-04-22 18:00","2022","04","22","18:00","3.6","","-3.1","","61","","","","29","","33","","48.3","","101.63","","","","","","NA"
"-68.21","48.61","MONT JOLI A","7055121","2022-04-22 19:00","2022","04","22","19:00","2.9","","-3.5","","63","","","","30","","32","","48.3","","101.75","","","","","","Mostly Cloudy"
"-68.21","48.61","MONT JOLI A","7055121","2022-04-22 20:00","2022","04","22","20:00","2.6","","-4.2","","61","","","","29","","34","","48.3","","101.86","","","","","","NA"
"-68.21","48.61","MONT JOLI A","7055121","2022-04-22 21:00","2022","04","22","21:00","2.1","","-5.3","","58","","","","30","","35","","48.3","","101.92","","","","","","NA"
"-68.21","48.61","MONT JOLI A","7055121","2022-04-22 22:00","2022","04","22","22:00","1.4","","-5.9","","58","","","","32","","38","","48.3","","101.95","","","","","","Mostly Cloudy"
"-68.21","48.61","MONT JOLI A","7055121","2022-04-22 23:00","2022","04","22","23:00","0.6","","-7.4","","55","","","","31","","31","","48.3","","101.99","","","","","","NA"
"-68.21","48.61","MONT JOLI A","7055121","2022-04-23 00:00","2022","04","23","00:00","0.1","","-8.1","","54","","","","31","","35","","48.3","","102.00","","","","","","NA"
"-68.21","48.61","MONT JOLI A","7055121","2022-04-23 01:00","2022","04","23","01:00","-0.7","","-8.6","","55","","","","32","","36","","48.3","","102.01","","","","-8","","Mainly Clear"
"-68.21","48.61","MONT JOLI A","7055121","2022-04-23 02:00","2022","04","23","02:00","-1.5","","-8.9","","57","","","","32","","31","","48.3","","102.06","","","","-9","","NA"
"-68.21","48.61","MONT JOLI A","7055121","2022-04-23 03:00","2022","04","23","03:00","-2.2","","-9.9","","55","","","","32","","31","","48.3","","102.12","","","","-9","","NA"
"-68.21","48.61","MONT JOLI A","7055121","2022-04-23 04:00","2022","04","23","04:00","-3.1","","-10.7","","56","","","","34","","26","","48.3","","102.16","","","","-10","","Mainly Clear"
"-68.21","48.61","MONT JOLI A","7055121","2022-04-23 05:00","2022","04","23","05:00","-3.3","","-10.8","","56","","","","32","","29","","48.3","","102.18","","","","-11","","NA"
"-68.21","48.61","MONT JOLI A","7055121","2022-04-23 06:00","2022","04","23","06:00","-3.2","","-11.5","","53","","","","33","","34","","48.3","","102.22","","","","-11","","NA"
"-68.21","48.61","MONT JOLI A","7055121","2022-04-23 07:00","2022","04","23","07:00","-3.0","","-11.2","","53","","","","32","","31","","48.3","","102.23","","","","-11","","Mostly Cloudy"
"-68.21","48.61","MONT JOLI A","7055121","2022-04-23 08:00","2022","04","23","08:00","-3.0","","-11.9","","51","","","","33","","29","","48.3","","102.22","","","","-10","","NA"
"-68.21","48.61","MONT JOLI A","7055121","2022-04-23 09:00","2022","04","23","09:00","-2.3","","-11.8","","48","","","","32","","26","","48.3","","102.18","","","","-9","","NA"
"-68.21","48.61","MONT JOLI A","7055121","2022-04-23 10:00","2022","04","23","10:00","-2.0","","-11.2","","50","","","","30","","23","","48.3","","102.20","","","","-8","","Mainly Clear"
"-68.21","48.61","MONT JOLI A","7055121","2022-04-23 11:00","2022","04","23","11:00","-1.7","","-10.9","","49","","","","30","","22","","48.3","","102.14","","","","-8","","NA"
"-68.21","48.61","MONT JOLI A","7055121","2022-04-23 12:00","2022","04","23","12:00","-0.3","","-10.7","","46","","","","29","","25","","48.3","","102.09","","","","-6","","NA"
"-68.21","48.61","MONT JOLI A","7055121","2022-04-23 13:00","2022","04","23","13:00","0.8","","-10.0","","44","","","","27","","20","","48.3","","102.05","","","","","","Mainly Clear"
"-68.21","48.61","MONT JOLI A","7055121","2022-04-23 14:00","2022","04","23","14:00","2.1","","-9.0","","44","","","","30","","22","","48.3","","101.99","","","","","","NA"
"-68.21","48.61","MONT JOLI A","7055121","2022-04-23 15:00","2022","04","23","15:00","2.9","","-8.5","","43","","","","32","","17","","48.3","","102.00","","","","","","NA"
"-68.21","48.61","MONT JOLI A","7055121","2022-04-23 16:00","2022","04","23","16:00","4.0","","-7.7","","42","","","","1","","21","","48.3","","101.98","","","","","","Mainly Clear"
"-68.21","48.61","MONT JOLI A","7055121","2022-04-23 17:00","2022","04","23","17:00","3.5","","-9.3","","39","","","","36","","22","","48.3","","102.00","","","","","","NA"
"-68.21","48.61","MONT JOLI A","7055121","2022-04-23 18:00","2022","04","23","18:00","2.5","","-7.7","","47","","","","34","","17","","48.3","","102.03","","","","","","NA"
"-68.21","48.61","MONT JOLI A","7055121","2022-04-23 19:00","2022","04","23","19:00","0.2","","-5.7","","64","","","","3","","9","","48.3","","102.12","","","","","","Clear"
"-68.21","48.61","MONT JOLI A","7055121","2022-04-23 20:00","2022","04","23","20:00","1.5","","-5.8","","59","","","","36","","22","","48.3","","102.16","","","","","","NA"
"-68.21","48.61","MONT JOLI A","7055121","2022-04-23 21:00","2022","04","23","21:00","1.5","","-6.9","","54","","","","36","","29","","48.3","","102.16","","","","","","NA"
"-68.21","48.61","MONT JOLI A","7055121","2022-04-23 22:00","2022","04","23","22:00","1.1","","-6.7","","56","","","","35","","30","","48.3","","102.14","","","","","","Clear"
"-68.21","48.61","MONT JOLI A","7055121","2022-04-23 23:00","2022","04","23","23:00","0.7","","-6.6","","58","","","","35","","23","","48.3","","102.14","","","","","","NA"
"-68.21","48.61","MONT JOLI A","7055121","2022-04-24 00:00","2022","04","24","00:00","0.5","","-6.2","","61","","","","35","","27","","48.3","","102.14","","","","","","NA"
"-68.21","48.61","MONT JOLI A","7055121","2022-04-24 01:00","2022","04","24","01:00","0.4","","-6.2","","61","","","","34","","24","","48.3","","102.15","","","","","","Clear"
"-68.21","48.61","MONT JOLI A","7055121","2022-04-24 02:00","2022","04","24","02:00","0.2","","-6.6","","60","","","","36","","29","","48.3","","102.16","","","","","","NA"
"-68.21","48.61","MONT JOLI A","7055121","2022-04-24 03:00","2022","04","24","03:00","-0.2","","-6.3","","64","","","","35","","23","","48.3","","102.16","","","","-6","","NA"
"-68.21","48.61","MONT JOLI A","7055121","2022-04-24 04:00","2022","04","24","04:00","-0.3","","-6.0","","66","","","","36","","25","","48.3","","102.20","","","","-6","","Clear"
"-68.21","48.61","MONT JOLI A","7055121","2022-04-24 05:00","2022","04","24","05:00","-0.2","","-6.4","","63","","","","36","","26","","48.3","","102.25","","","","-6","","NA"
"-68.21","48.61","MONT JOLI A","7055121","2022-04-24 06:00","2022","04","24","06:00","0.9","","-5.8","","61","","","","1","","26","","48.3","","102.28","","","","","","NA"
"-68.21","48.61","MONT JOLI A","7055121","2022-04-24 07:00","2022","04","24","07:00","1.8","","-5.9","","57","","","","1","","27","","48.3","","102.33","","","","","","Mainly Clear"
"-68.21","48.61","MONT JOLI A","7055121","2022-04-24 08:00","2022","04","24","08:00","2.2","","-5.5","","57","","","","35","","27","","48.3","","102.32","","","","","","NA"
"-68.21","48.61","MONT JOLI A","7055121","2022-04-24 09:00","2022","04","24","09:00","2.6","","-5.2","","56","","","","36","","25","","48.3","","102.30","","","","","","NA"
"-68.21","48.61","MONT JOLI A","7055121","2022-04-24 10:00","2022","04","24","10:00","2.7","","-5.2","","56","","","","35","","23","","48.3","","102.31","","","","","","Mainly Clear"
"-68.21","48.61","MONT JOLI A","7055121","2022-04-24 11:00","2022","04","24","11:00","3.1","","-5.8","","52","","","","35","","10","","48.3","","102.28","","","","","","NA"
"-68.21","48.61","MONT JOLI A","7055121","2022-04-24 12:00","2022","04","24","12:00","4.2","","-6.0","","47","","","","1","","14","","48.3","","102.24","","","","","","NA"
"-68.21","48.61","MONT JOLI A","7055121","2022-04-24 13:00","2022","04","24","13:00","5.3","","-5.5","","45","","","","4","","16","","48.3","","102.18","","","","","","Clear"
"-68.21","48.61","MONT JOLI A","7055121","2022-04-24 14:00","2022","04","24","14:00","6.0","","-5.3","","44","","","","6","","19","","48.3","","102.15","","","","","","NA"
"-68.21","48.61","MONT JOLI A","7055121","2022-04-24 15:00","2022","04","24","15:00","6.2","","-5.7","","42","","","","5","","18","","48.3","","102.15","","","","","","NA"
"-68.21","48.61","MONT JOLI A","7055121","2022-04-24 16:00","2022","04","24","16:00","6.3","","-4.7","","45","","","","6","","14","","48.3","","102.15","","","","","","Mainly Clear"
"-68.21","48.61","MONT JOLI A","7055121","2022-04-24 17:00","2022","04","24","17:00","4.9","","-4.5","","51","","","","6","","11","","48.3","","102.12","","","","","","NA"
"-68.21","48.61","MONT JOLI A","7055121","2022-04-24 18:00","2022","04","24","18:00","3.0","","-3.5","","63","","","","3","","14","","48.3","","102.09","","","","","","NA"
"-68.21","48.61","MONT JOLI A","7055121","2022-04-24 19:00","2022","04","24","19:00","1.6","","-3.9","","67","","","","6","","12","","48.3","","102.11","","","","","","Mostly Cloudy"
"-68.21","48.61","MONT JOLI A","7055121","2022-04-24 20:00","2022","04","24","20:00","0.3","","-3.6","","75","","","","8","","7","","48.3","","102.12","","","","","","NA"
"-68.21","48.61","MONT JOLI A","7055121","2022-04-24 21:00","2022","04","24","21:00","0.0","","-2.9","","81","","","","8","","15","","48.3","","102.09","","","","-4","","NA"
"-68.21","48.61","MONT JOLI A","7055121","2022-04-24 22:00","2022","04","24","22:00","0.4","","-3.2","","77","","","","9","","12","","48.3","","102.06","","","","","","Clear"
"-68.21","48.61","MONT JOLI A","7055121","2022-04-24 23:00","2022","04","24","23:00","0.1","","-3.9","","75","","","","18","","4","","48.3","","102.04","","","","","","NA"
"-68.21","48.61","MONT JOLI A","7055121","2022-04-25 00:00","2022","04","25","00:00","0.7","","-4.2","","70","","","","21","","8","","48.3","","102.07","","","","","","NA"
"-68.21","48.61","MONT JOLI A","7055121","2022-04-25 01:00","2022","04","25","01:00","-1.9","","-4.7","","82","","","","19","","7","","48.3","","102.09","","","","-5","","Clear"
"-68.21","48.61","MONT JOLI A","7055121","2022-04-25 02:00","2022","04","25","02:00","-2.0","","-4.8","","81","","","","17","","5","","48.3","","102.08","","","","-4","","NA"
"-68.21","48.61","MONT JOLI A","7055121","2022-04-25 03:00","2022","04","25","03:00","-2.9","","-5.2","","84","","","","15","","11","","48.3","","102.09","","","","-7","","NA"
"-68.21","48.61","MONT JOLI A","7055121","2022-04-25 04:00","2022","04","25","04:00","-1.8","","-5.0","","79","","","","15","","9","","48.3","","102.09","","","","-5","","Mainly Clear"
"-68.21","48.61","MONT JOLI A","7055121","2022-04-25 05:00","2022","04","25","05:00","-1.4","","-4.7","","78","","","","15","","9","","48.3","","102.05","","","","-5","","NA"
"-68.21","48.61","MONT JOLI A","7055121","2022-04-25 06:00","2022","04","25","06:00","3.1","","-3.8","","61","","","","10","","11","","48.3","","101.99","","","","","","NA"
"-68.21","48.61","MONT JOLI A","7055121","2022-04-25 07:00","2022","04","25","07:00","3.9","","-2.8","","62","","","","35","","10","","48.3","","102.06","","","","","","Mainly Clear"
"-68.21","48.61","MONT JOLI A","7055121","2022-04-25 08:00","2022","04","25","08:00","7.0","","-2.0","","53","","","","7","","14","","48.3","","102.05","","","","","","NA"
"-68.21","48.61","MONT JOLI A","7055121","2022-04-25 09:00","2022","04","25","09:00","9.7","","-0.7","","48","","","","17","","14","","48.3","","102.00","","","","","","NA"
"-68.21","48.61","MONT JOLI A","7055121","2022-04-25 10:00","2022","04","25","10:00","6.6","","0.0","","63","","","","6","","23","","48.3","","101.96","","","","","","Mostly Cloudy"
"-68.21","48.61","MONT JOLI A","7055121","2022-04-25 11:00","2022","04","25","11:00","5.5","","-0.2","","67","","","","4","","21","","48.3","","101.93","","","","","","NA"
"-68.21","48.61","MONT JOLI A","7055121","2022-04-25 12:00","2022","04","25","12:00","6.6","","0.6","","66","","","","2","","14","","48.3","","101.86","","","","","","NA"
"-68.21","48.61","MONT JOLI A","7055121","2022-04-25 13:00","2022","04","25","13:00","6.6","","1.0","","67","","","","4","","13","","48.3","","101.77","","","","","","Cloudy"
"-68.21","48.61","MONT JOLI A","7055121","2022-04-25 14:00","2022","04","25","14:00","7.4","","2.0","","68","","","","7","","10","","24.1","","101.68","","","","","","NA"
"-68.21","48.61","MONT JOLI A","7055121","2022-04-25 15:00","2022","04","25","15:00","12.5","","1.6","","47","","","","15","","20","","48.3","","101.56","","","","","","NA"
"-68.21","48.61","MONT JOLI A","7055121","2022-04-25 16:00","2022","04","25","16:00","12.1","","1.6","","48","","","","15","","16","","48.3","","101.53","","","","","","Cloudy"
"-68.21","48.61","MONT JOLI A","7055121","2022-04-25 17:00","2022","04","25","17:00","11.5","","1.6","","50","","","","13","","13","","48.3","","101.49","","","","","","NA"
"-68.21","48.61","MONT JOLI A","7055121","2022-04-25 18:00","2022","04","25","18:00","10.2","","1.9","","56","","","","13","","12","","24.1","","101.46","","","","","","NA"
"-68.21","48.61","MONT JOLI A","7055121","2022-04-25 19:00","2022","04","25","19:00","9.7","","1.8","","58","","","","12","","15","","24.1","","101.40","","","","","","Cloudy"
"-68.21","48.61","MONT JOLI A","7055121","2022-04-25 20:00","2022","04","25","20:00","9.0","","1.8","","61","","","","14","","20","","24.1","","101.40","","","","","","NA"
"-68.21","48.61","MONT JOLI A","7055121","2022-04-25 21:00","2022","04","25","21:00","8.2","","1.6","","63","","","","12","","15","","24.1","","101.38","","","","","","NA"
"-68.21","48.61","MONT JOLI A","7055121","2022-04-25 22:00","2022","04","25","22:00","7.5","","2.0","","68","","","","13","","15","","24.1","","101.27","","","","","","Rain"
"-68.21","48.61","MONT JOLI A","7055121","2022-04-25 23:00","2022","04","25","23:00","7.1","","2.3","","72","","","","13","","11","","16.1","","101.18","","","","","","Rain"
"-68.21","48.61","MONT JOLI A","7055121","2022-04-26 00:00","2022","04","26","00:00","6.5","","3.0","","79","","","","13","","16","","16.1","","101.09","","","","","","Rain"
"-68.21","48.61","MONT JOLI A","7055121","2022-04-26 01:00","2022","04","26","01:00","6.7","","3.4","","79","","","","15","","28","","16.1","","101.01","","","","","","Rain"
"-68.21","48.61","MONT JOLI A","7055121","2022-04-26 02:00","2022","04","26","02:00","5.9","","3.8","","86","","","","27","","5","","16.1","","101.02","","","","","","Rain"
"-68.21","48.61","MONT JOLI A","7055121","2022-04-26 03:00","2022","04","26","03:00","5.9","","5.3","","96","","","","15","","25","","8.1","","100.92","","","","","","Rain,Fog"
"-68.21","48.61","MONT JOLI A","7055121","2022-04-26 04:00","2022","04","26","04:00","6.3","","3.3","","81","","","","15","","30","","16.1","","100.70","","","","","","Rain"
"-68.21","48.61","MONT JOLI A","7055121","2022-04-26 05:00","2022","04","26","05:00","6.5","","2.5","","75","","","","16","","33","","24.1","","100.70","","","","","","NA"
"-68.21","48.61","MONT JOLI A","7055121","2022-04-26 06:00","2022","04","26","06:00","6.7","","2.1","","73","","","","17","","21","","24.1","","100.72","","","","","","Rain"
"-68.21","48.61","MONT JOLI A","7055121","2022-04-26 07:00","2022","04","26","07:00","5.7","","3.2","","84","","","","17","","20","","16.1","","100.68","","","","","","Rain"
"-68.21","48.61","MONT JOLI A","7055121","2022-04-26 08:00","2022","04","26","08:00","6.2","","3.6","","83","","","","19","","13","","24.1","","100.67","","","","","","Rain"
"-68.21","48.61","MONT JOLI A","7055121","2022-04-26 09:00","2022","04","26","09:00","6.9","","4.0","","82","","","","17","","16","","24.1","","100.61","","","","","","Rain"
"-68.21","48.61","MONT JOLI A","7055121","2022-04-26 10:00","2022","04","26","10:00","9.3","","5.2","","76","","","","20","","18","","24.1","","100.59","","","","","","Cloudy"
"-68.21","48.61","MONT JOLI A","7055121","2022-04-26 11:00","2022","04","26","11:00","11.0","","6.5","","73","","","","21","","25","","48.3","","100.49","","","","","","NA"
"-68.21","48.61","MONT JOLI A","7055121","2022-04-26 12:00","2022","04","26","12:00","11.6","","6.4","","70","","","","21","","24","","48.3","","100.47","","","","","","NA"
"-68.21","48.61","MONT JOLI A","7055121","2022-04-26 13:00","2022","04","26","13:00","6.6","","4.0","","83","","","","28","","14","","48.3","","100.45","","","","","","Mostly Cloudy"
"-68.21","48.61","MONT JOLI A","7055121","2022-04-26 14:00","2022","04","26","14:00","9.4","","6.5","","82","","","","26","","9","","48.3","","100.43","","","","","","NA"
"-68.21","48.61","MONT JOLI A","7055121","2022-04-26 15:00","2022","04","26","15:00","11.5","","6.5","","72","","","","21","","23","","48.3","","100.43","","","","","","NA"
"-68.21","48.61","MONT JOLI A","7055121","2022-04-26 16:00","2022","04","26","16:00","11.7","","6.6","","70","","","","22","","21","","48.3","","100.45","","","","","","Mostly Cloudy"
"-68.21","48.61","MONT JOLI A","7055121","2022-04-26 17:00","2022","04","26","17:00","11.3","","6.0","","70","","","","24","","21","","48.3","","100.49","","","","","","NA"
"-68.21","48.61","MONT JOLI A","7055121","2022-04-26 18:00","2022","04","26","18:00","10.7","","5.0","","68","","","","25","","21","","48.3","","100.53","","","","","","NA"
"-68.21","48.61","MONT JOLI A","7055121","2022-04-26 19:00","2022","04","26","19:00","9.0","","4.2","","72","","","","24","","16","","48.3","","100.56","","","","","","Mostly Cloudy"
"-68.21","48.61","MONT JOLI A","7055121","2022-04-26 20:00","2022","04","26","20:00","8.4","","3.5","","71","","","","24","","13","","24.1","","100.62","","","","","","NA"
"-68.21","48.61","MONT JOLI A","7055121","2022-04-26 21:00","2022","04","26","21:00","7.5","","2.9","","72","","","","26","","13","","24.1","","100.60","","","","","","NA"
"-68.21","48.61","MONT JOLI A","7055121","2022-04-26 22:00","2022","04","26","22:00","6.9","","2.5","","74","","","","22","","12","","24.1","","100.59","","","","","","Mostly Cloudy"
"-68.21","48.61","MONT JOLI A","7055121","2022-04-26 23:00","2022","04","26","23:00","6.8","","2.7","","75","","","","23","","7","","24.1","","100.54","","","","","","NA"
"-68.21","48.61","MONT JOLI A","7055121","2022-04-27 00:00","2022","04","27","00:00","6.4","","2.5","","76","","","","22","","5","","24.1","","100.50","","","","","","NA"
"-68.21","48.61","MONT JOLI A","7055121","2022-04-27 01:00","2022","04","27","01:00","6.2","","2.2","","76","","","","21","","8","","24.1","","100.48","","","","","","Cloudy"
"-68.21","48.61","MONT JOLI A","7055121","2022-04-27 02:00","2022","04","27","02:00","4.7","","2.3","","84","","","","17","","5","","24.1","","100.45","","","","","","NA"
"-68.21","48.61","MONT JOLI A","7055121","2022-04-27 03:00","2022","04","27","03:00","4.4","","2.1","","85","","","","36","","2","","24.1","","100.40","","","","","","NA"
"-68.21","48.61","MONT JOLI A","7055121","2022-04-27 04:00","2022","04","27","04:00","4.7","","2.4","","85","","","","20","","4","","24.1","","100.44","","","","","","Cloudy"
"-68.21","48.61","MONT JOLI A","7055121","2022-04-27 05:00","2022","04","27","05:00","4.8","","2.3","","83","","","","31","","7","","24.1","","100.42","","","","","","NA"
"-68.21","48.61","MONT JOLI A","7055121","2022-04-27 06:00","2022","04","27","06:00","5.5","","2.4","","80","","","","36","","1","","48.3","","100.41","","","","","","NA"
"-68.21","48.61","MONT JOLI A","7055121","2022-04-27 07:00","2022","04","27","07:00","5.7","","1.6","","75","","","","35","","4","","48.3","","100.40","","","","","","Mostly Cloudy"
"-68.21","48.61","MONT JOLI A","7055121","2022-04-27 08:00","2022","04","27","08:00","6.3","","0.9","","68","","","","1","","13","","48.3","","100.36","","","","","","NA"
"-68.21","48.61","MONT JOLI A","7055121","2022-04-27 09:00","2022","04","27","09:00","6.7","","1.0","","67","","","","1","","11","","48.3","","100.33","","","","","","NA"
"-68.21","48.61","MONT JOLI A","7055121","2022-04-27 10:00","2022","04","27","10:00","6.3","","1.0","","69","","","","2","","13","","48.3","","100.31","","","","","","Mostly Cloudy"
"-68.21","48.61","MONT JOLI A","7055121","2022-04-27 11:00","2022","04","27","11:00","6.7","","1.3","","69","","","","1","","15","","48.3","","100.21","","","","","","NA"
"-68.21","48.61","MONT JOLI A","7055121","2022-04-27 12:00","2022","04","27","12:00","8.0","","1.6","","64","","","","2","","13","","48.3","","100.17","","","","","","NA"
"-68.21","48.61","MONT JOLI A","7055121","2022-04-27 13:00","2022","04","27","13:00","8.8","","0.7","","57","","","","3","","9","","48.3","","100.12","","","","","","Mostly Cloudy"
"-68.21","48.61","MONT JOLI A","7055121","2022-04-27 14:00","2022","04","27","14:00","9.6","","0.6","","53","","","","4","","13","","48.3","","100.07","","","","","","NA"
"-68.21","48.61","MONT JOLI A","7055121","2022-04-27 15:00","2022","04","27","15:00","10.5","","0.2","","49","","","","6","","16","","48.3","","100.05","","","","","","NA"
"-68.21","48.61","MONT JOLI A","7055121","2022-04-27 16:00","2022","04","27","16:00","10.6","","0.5","","49","","","","6","","13","","48.3","","100.03","","","","","","Mostly Cloudy"
"-68.21","48.61","MONT JOLI A","7055121","2022-04-27 17:00","2022","04","27","17:00","6.8","","2.1","","72","","","","34","","14","","48.3","","100.04","","","","","","NA"
"-68.21","48.61","MONT JOLI A","7055121","2022-04-27 18:00","2022","04","27","18:00","5.7","","1.7","","75","","","","1","","6","","48.3","","100.09","","","","","","NA"
"-68.21","48.61","MONT JOLI A","7055121","2022-04-27 19:00","2022","04","27","19:00","5.3","","1.9","","79","","","","34","","5","","48.3","","100.14","","","","","","Mostly Cloudy"
"-68.21","48.61","MONT JOLI A","7055121","2022-04-27 20:00","2022","04","27","20:00","5.3","","1.8","","79","","","","2","","5","","24.1","","100.18","","","","","","NA"
"-68.21","48.61","MONT JOLI A","7055121","2022-04-27 21:00","2022","04","27","21:00","4.0","","0.9","","80","","","","36","","30","","16.1","","100.23","","","","","","Rain"
"-68.21","48.61","MONT JOLI A","7055121","2022-04-27 22:00","2022","04","27","22:00","3.1","","-0.7","","76","","","","1","","35","","24.1","","100.26","","","","","","Rain"
"-68.21","48.61","MONT JOLI A","7055121","2022-04-27 23:00","2022","04","27","23:00","2.7","","-1.4","","75","","","","1","","30","","24.1","","100.31","","","","","","NA"
"-68.21","48.61","MONT JOLI A","7055121","2022-04-28 00:00","2022","04","28","00:00","2.2","","-1.9","","74","","","","1","","30","","24.1","","100.35","","","","","","NA"
"-68.21","48.61","MONT JOLI A","7055121","2022-04-28 01:00","2022","04","28","01:00","1.7","","-2.7","","73","","","","36","","30","","24.1","","100.34","","","","","","Cloudy"
"-68.21","48.61","MONT JOLI A","7055121","2022-04-28 02:00","2022","04","28","02:00","1.3","","-3.7","","70","","","","35","","35","","24.1","","100.34","","","","","","NA"
"-68.21","48.61","MONT JOLI A","7055121","2022-04-28 03:00","2022","04","28","03:00","0.8","","-4.2","","70","","","","34","","34","","24.1","","100.35","","","","","","NA"
"-68.21","48.61","MONT JOLI A","7055121","2022-04-28 04:00","2022","04","28","04:00","0.2","","-4.7","","70","","","","35","","32","","24.1","","100.35","","","","","","Snow"
"-68.21","48.61","MONT JOLI A","7055121","2022-04-28 05:00","2022","04","28","05:00","0.3","","-5.0","","67","","","","35","","31","","48.3","","100.37","","","","","","NA"
"-68.21","48.61","MONT JOLI A","7055121","2022-04-28 06:00","2022","04","28","06:00","0.3","","-5.2","","67","","","","36","","35","","48.3","","100.39","","","","","","Snow"
"-68.21","48.61","MONT JOLI A","7055121","2022-04-28 07:00","2022","04","28","07:00","0.6","","-4.8","","67","","","","36","","30","","48.3","","100.39","","","","","","Mostly Cloudy"
"-68.21","48.61","MONT JOLI A","7055121","2022-04-28 08:00","2022","04","28","08:00","1.0","","-4.0","","69","","","","36","","29","","48.3","","100.42","","","","","","Snow"
"-68.21","48.61","MONT JOLI A","7055121","2022-04-28 09:00","2022","04","28","09:00","1.1","","-3.7","","71","","","","1","","26","","16.1","","100.45","","","","","","Snow"
"-68.21","48.61","MONT JOLI A","7055121","2022-04-28 10:00","2022","04","28","10:00","1.7","","-3.0","","71","","","","36","","24","","16.1","","100.46","","","","","","Snow"
"-68.21","48.61","MONT JOLI A","7055121","2022-04-28 11:00","2022","04","28","11:00","2.6","","-3.8","","63","","","","36","","29","","48.3","","100.47","","","","","","NA"
"-68.21","48.61","MONT JOLI A","7055121","2022-04-28 12:00","2022","04","28","12:00","3.7","","-3.8","","58","","","","36","","29","","48.3","","100.44","","","","","","NA"
"-68.21","48.61","MONT JOLI A","7055121","2022-04-28 13:00","2022","04","28","13:00","3.7","","-2.4","","64","","","","5","","16","","48.3","","100.42","","","","","","Mostly Cloudy"
"-68.21","48.61","MONT JOLI A","7055121","2022-04-28 14:00","2022","04","28","14:00","2.6","","-1.5","","74","","","","5","","18","","12.9","","100.41","","","","","","NA"
"-68.21","48.61","MONT JOLI A","7055121","2022-04-28 15:00","2022","04","28","15:00","4.2","","-2.3","","63","","","","6","","21","","48.3","","100.40","","","","","","NA"
"-68.21","48.61","MONT JOLI A","7055121","2022-04-28 16:00","2022","04","28","16:00","2.8","","-1.9","","71","","","","5","","30","","48.3","","100.46","","","","","","Cloudy"
"-68.21","48.61","MONT JOLI A","7055121","2022-04-28 17:00","2022","04","28","17:00","1.7","","-0.4","","86","","","","7","","36","","16.1","","100.52","","","","","","NA"
"-68.21","48.61","MONT JOLI A","7055121","2022-04-28 18:00","2022","04","28","18:00","0.6","","0.6","","100","","","","7","","23","","3.2","","100.60","","","","","","Snow"
"-68.21","48.61","MONT JOLI A","7055121","2022-04-28 19:00","2022","04","28","19:00","0.4","","0.4","","100","","","","6","","25","","3.2","","100.65","","","","","","Snow"
"-68.21","48.61","MONT JOLI A","7055121","2022-04-28 20:00","2022","04","28","20:00","0.2","","0.2","","100","","","","4","","19","","3.2","","100.70","","","","","","Snow"
"-68.21","48.61","MONT JOLI A","7055121","2022-04-28 21:00","2022","04","28","21:00","0.1","","0.1","","100","","","","4","","16","","3.2","","100.72","","","","","","Snow"
"-68.21","48.61","MONT JOLI A","7055121","2022-04-28 22:00","2022","04","28","22:00","0.2","","0.2","","100","","","","2","","19","","3.2","","100.74","","","","","","Snow"
"-68.21","48.61","MONT JOLI A","7055121","2022-04-28 23:00","2022","04","28","23:00","0.3","","0.3","","100","","","","1","","29","","4.0","","100.74","","","","","","Snow"
"-68.21","48.61","MONT JOLI A","7055121","2022-04-29 00:00","2022","04","29","00:00","0.7","","0.7","","100","","","","1","","32","","4.8","","100.72","","","","","","Snow"
"-68.21","48.61","MONT JOLI A","7055121","2022-04-29 01:00","2022","04","29","01:00","0.7","","0.3","","97","","","","2","","37","","4.0","","100.71","","","","","","Snow"
"-68.21","48.61","MONT JOLI A","7055121","2022-04-29 02:00","2022","04","29","02:00","0.6","","-0.3","","94","","","","2","","39","","4.0","","100.73","","","","","","Snow"
"-68.21","48.61","MONT JOLI A","7055121","2022-04-29 03:00","2022","04","29","03:00","0.2","","0.2","","100","","","","2","","35","","3.2","","100.75","","","","","","Snow"
"-68.21","48.61","MONT JOLI A","7055121","2022-04-29 04:00","2022","04","29","04:00","0.4","","-0.6","","93","","","","3","","34","","4.0","","100.79","","","","","","Snow"
"-68.21","48.61","MONT JOLI A","7055121","2022-04-29 05:00","2022","04","29","05:00","0.1","","-0.1","","98","","","","2","","34","","3.2","","100.85","","","","","","Snow"
"-68.21","48.61","MONT JOLI A","7055121","2022-04-29 06:00","2022","04","29","06:00","0.4","","-0.9","","91","","","","1","","34","","2.4","","100.91","","","","","","Snow"
"-68.21","48.61","MONT JOLI A","7055121","2022-04-29 07:00","2022","04","29","07:00","0.5","","-1.2","","88","","","","2","","35","","4.0","","100.98","","","","","","Snow"
"-68.21","48.61","MONT JOLI A","7055121","2022-04-29 08:00","2022","04","29","08:00","1.0","","-0.6","","89","","","","3","","32","","24.1","","101.03","","","","","","NA"
"-68.21","48.61","MONT JOLI A","7055121","2022-04-29 09:00","2022","04","29","09:00","1.1","","-0.4","","90","","","","3","","30","","24.1","","101.08","","","","","","NA"
"-68.21","48.61","MONT JOLI A","7055121","2022-04-29 10:00","2022","04","29","10:00","1.2","","1.2","","100","","","","2","","30","","3.2","","101.11","","","","","","Snow"
"-68.21","48.61","MONT JOLI A","7055121","2022-04-29 11:00","2022","04","29","11:00","1.1","","1.1","","100","","","","2","","32","","4.0","","101.15","","","","","","Snow"
"-68.21","48.61","MONT JOLI A","7055121","2022-04-29 12:00","2022","04","29","12:00","1.2","","1.2","","100","","","","36","","28","","2.4","","101.18","","","","","","Snow"
"-68.21","48.61","MONT JOLI A","7055121","2022-04-29 13:00","2022","04","29","13:00","1.0","","1.0","","100","","","","36","","27","","2.0","","101.20","","","","","","Snow"
"-68.21","48.61","MONT JOLI A","7055121","2022-04-29 14:00","2022","04","29","14:00","1.3","","1.3","","100","","","","1","","26","","2.0","","101.21","","","","","","Snow"
"-68.21","48.61","MONT JOLI A","7055121","2022-04-29 15:00","2022","04","29","15:00","2.3","","2.3","","100","","","","1","","17","","4.8","","101.23","","","","","","Snow"
"-68.21","48.61","MONT JOLI A","7055121","2022-04-29 16:00","2022","04","29","16:00","2.7","","2.7","","100","","","","3","","23","","16.1","","101.28","","","","","","Cloudy"
"-68.21","48.61","MONT JOLI A","7055121","2022-04-29 17:00","2022","04","29","17:00","2.1","","2.1","","100","","","","6","","22","","16.1","","101.29","","","","","","NA"
"-68.21","48.61","MONT JOLI A","7055121","2022-04-29 18:00","2022","04","29","18:00","1.9","","1.9","","100","","","","6","","22","","9.7","","101.36","","","","","","Rain,Snow"
"-68.21","48.61","MONT JOLI A","7055121","2022-04-29 19:00","2022","04","29","19:00","0.8","","0.8","","100","","","","5","","23","","3.2","","101.41","","","","","","Rain,Snow"
"-68.21","48.61","MONT JOLI A","7055121","2022-04-29 20:00","2022","04","29","20:00","1.3","","1.3","","100","","","","5","","22","","4.0","","101.44","","","","","","Rain,Snow"
"-68.21","48.61","MONT JOLI A","7055121","2022-04-29 21:00","2022","04","29","21:00","1.2","","1.2","","100","","","","4","","13","","4.8","","101.46","","","","","","Rain,Snow"
"-68.21","48.61","MONT JOLI A","7055121","2022-04-29 22:00","2022","04","29","22:00","1.7","","1.6","","99","","","","4","","23","","9.7","","101.44","","","","","","Rain,Snow"
"-68.21","48.61","MONT JOLI A","7055121","2022-04-29 23:00","2022","04","29","23:00","1.3","","1.3","","100","","","","4","","19","","6.4","","101.45","","","","","","Rain,Snow"
"-68.21","48.61","MONT JOLI A","7055121","2022-04-30 00:00","2022","04","30","00:00","1.5","","0.6","","94","","","","4","","20","","6.4","","101.43","","","","","","Rain,Snow"
"-68.21","48.61","MONT JOLI A","7055121","2022-04-30 01:00","2022","04","30","01:00","1.6","","0.2","","91","","","","5","","17","","9.7","","101.42","","","","","","Rain,Snow"
"-68.21","48.61","MONT JOLI A","7055121","2022-04-30 02:00","2022","04","30","02:00","1.7","","-0.2","","87","","","","4","","25","","16.1","","101.42","","","","","","Rain,Snow"
"-68.21","48.61","MONT JOLI A","7055121","2022-04-30 03:00","2022","04","30","03:00","1.6","","-0.2","","88","","","","4","","26","","16.1","","101.40","","","","","","NA"
"-68.21","48.61","MONT JOLI A","7055121","2022-04-30 04:00","2022","04","30","04:00","1.5","","-0.2","","88","","","","4","","23","","16.1","","101.41","","","","","","Cloudy"
"-68.21","48.61","MONT JOLI A","7055121","2022-04-30 05:00","2022","04","30","05:00","1.5","","0.0","","90","","","","4","","26","","24.1","","101.45","","","","","","NA"
"-68.21","48.61","MONT JOLI A","7055121","2022-04-30 06:00","2022","04","30","06:00","1.7","","0.4","","91","","","","4","","23","","48.3","","101.48","","","","","","NA"
"-68.21","48.61","MONT JOLI A","7055121","2022-04-30 07:00","2022","04","30","07:00","2.6","","1.2","","90","","","","3","","20","","48.3","","101.49","","","","","","Cloudy"
"-68.21","48.61","MONT JOLI A","7055121","2022-04-30 08:00","2022","04","30","08:00","2.8","","0.2","","83","","","","1","","21","","48.3","","101.46","","","","","","NA"
"-68.21","48.61","MONT JOLI A","7055121","2022-04-30 09:00","2022","04","30","09:00","3.9","","0.0","","76","","","","36","","19","","48.3","","101.47","","","","","","NA"
"-68.21","48.61","MONT JOLI A","7055121","2022-04-30 10:00","2022","04","30","10:00","4.0","","-1.6","","67","","","","35","","17","","48.3","","101.46","","","","","","Mostly Cloudy"
"-68.21","48.61","MONT JOLI A","7055121","2022-04-30 11:00","2022","04","30","11:00","4.6","","-1.3","","65","","","","33","","13","","48.3","","101.43","","","","","","NA"
"-68.21","48.61","MONT JOLI A","7055121","2022-04-30 12:00","2022","04","30","12:00","5.3","","-1.9","","60","","","","30","","13","","48.3","","101.37","","","","","","NA"
"-68.21","48.61","MONT JOLI A","7055121","2022-04-30 13:00","2022","04","30","13:00","5.6","","-1.0","","63","","","","29","","12","","48.3","","101.30","","","","","","Mainly Clear"
"-68.21","48.61","MONT JOLI A","7055121","2022-04-30 14:00","2022","04","30","14:00","7.5","","-1.9","","52","","","","30","","7","","48.3","","101.21","","","","","","NA"
"-68.21","48.61","MONT JOLI A","7055121","2022-04-30 15:00","2022","04","30","15:00","7.4","","-0.9","","56","","","","27","","14","","48.3","","101.14","","","","","","NA"
"-68.21","48.61","MONT JOLI A","7055121","2022-04-30 16:00","2022","04","30","16:00","6.7","","-0.5","","60","","","","28","","9","","48.3","","101.14","","","","","","Mostly Cloudy"
"-68.21","48.61","MONT JOLI A","7055121","2022-04-30 17:00","2022","04","30","17:00","6.2","","-1.2","","59","","","","35","","4","","48.3","","101.18","","","","","","NA"
"-68.21","48.61","MONT JOLI A","7055121","2022-04-30 18:00","2022","04","30","18:00","5.2","","-0.3","","67","","","","33","","5","","24.1","","101.20","","","","","","NA"
"-68.21","48.61","MONT JOLI A","7055121","2022-04-30 19:00","2022","04","30","19:00","5.0","","-0.7","","67","","","","5","","8","","24.1","","101.26","","","","","","Mostly Cloudy"
"-68.21","48.61","MONT JOLI A","7055121","2022-04-30 20:00","2022","04","30","20:00","3.7","","1.0","","83","","","","6","","19","","16.1","","101.33","","","","","","Rain"
"-68.21","48.61","MONT JOLI A","7055121","2022-04-30 21:00","2022","04","30","21:00","3.4","","1.1","","85","","","","6","","16","","24.1","","101.33","","","","","","NA"
"-68.21","48.61","MONT JOLI A","7055121","2022-04-30 22:00","2022","04","30","22:00","3.5","","0.2","","79","","","","7","","21","","16.1","","101.33","","","","","","Cloudy"
"-68.21","48.61","MONT JOLI A","7055121","2022-04-30 23:00","2022","04","30","23:00","3.0","","0.1","","81","","","","8","","15","","24.1","","101.33","","","","","","NA"
