"Longitude (x)","Latitude (y)","Station Name","Climate ID","Date/Time (LST)","Year","Month","Day","Time (LST)","Temp (°C)","Temp Flag","Dew Point Temp (°C)","Dew Point Temp Flag","Rel Hum (%)","Rel Hum Flag","Precip. Amount (mm)","Precip. Amount Flag","Wind Dir (10s deg)","Wind Dir Flag","Wind Spd (km/h)","Wind Spd Flag","Visibility (km)","Visibility Flag","Stn Press (kPa)","Stn Press Flag","Hmdx","Hmdx Flag","Wind Chill","Wind Chill Flag","Weather"
"-94.71","56.36","GILLAM A","5061022","2019-12-01 00:00","2019","12","01","00:00","-17.7","","-19.7","","85","","","","23","","14","","24.1","","100.29","","","","-26","","Clear"
"-94.71","56.36","GILLAM A","5061022","2019-12-01 01:00","2019","12","01","01:00","-18.3","","-20.4","","84","","","","23","","9","","24.1","","100.23","","","","-25","","NA"
"-94.71","56.36","GILLAM A","5061022","2019-12-01 02:00","2019","12","01","02:00","-18.5","","-20.6","","84","","","","23","","9","","24.1","","100.18","","","","-25","","NA"
"-94.71","56.36","GILLAM A","5061022","2019-12-01 03:00","2019","12","01","03:00","-18.6","","-20.7","","84","","","","25","","9","","24.1","","100.12","","","","-25","","Clear"
"-94.71","56.36","GILLAM A","5061022","2019-12-01 04:00","2019","12","01","04:00","-18.2","","-20.2","","84","","","","23","","12","","24.1","","100.07","","","","-26","","NA"
"-94.71","56.36","GILLAM A","5061022","2019-12-01 05:00","2019","12","01","05:00","-16.2","","-18.1","","86","","","","24","","13","","24.1","","100.05","","","","-24","","NA"
"-94.71","56.36","GILLAM A","5061022","2019-12-01 06:00","2019","12","01","06:00","-15.2","","-16.9","","86","","","","23","","10","","24.1","","99.98","","","","-21","","Clear"
"-94.71","56.36","GILLAM A","5061022","2019-12-01 07:00","2019","12","01","07:00","-13.0","","-14.5","","88","","","","24","","14","","24.1","","99.91","","","","-20","","NA"
"-94.71","56.36","GILLAM A","5061022","2019-12-01 08:00","2019","12","01","08:00","-11.9","","-13.4","","89","","","","24","","14","","24.1","","99.81","","","","-19","","NA"
"-94.71","56.36","GILLAM A","5061022","2019-12-01 09:00","2019","12","01","09:00","-12.3","","-13.8","","89","","","","23","","15","","24.1","","99.80","","","","-20","","Mostly Cloudy"
"-94.71","56.36","GILLAM A","5061022","2019-12-01 10:00","2019","12","01","10:00","-11.9","","-13.3","","89","","","","24","","22","","24.1","","99.73","","","","-21","","NA"
"-94.71","56.36","GILLAM A","5061022","2019-12-01 11:00","2019","12","01","11:00","-11.4","","-12.8","","89","","","","24","","21","","24.1","","99.67","","","","-20","","NA"
"-94.71","56.36","GILLAM A","5061022","2019-12-01 12:00","2019","12","01","12:00","-11.4","","-12.9","","89","","","","24","","28","","24.1","","99.63","","","","-21","","Cloudy"
"-94.71","56.36","GILLAM A","5061022","2019-12-01 13:00","2019","12","01","13:00","-13.0","","-14.6","","88","","","","26","","28","","14.5","","99.59","","","","-23","","Snow"
"-94.71","56.36","GILLAM A","5061022","2019-12-01 14:00","2019","12","01","14:00","-12.8","","-14.4","","88","","","","25","","23","","4.8","","99.55","","","","-22","","Snow"
"-94.71","56.36","GILLAM A","5061022","2019-12-01 15:00","2019","12","01","15:00","-12.0","","-13.4","","89","","","","24","","21","","19.3","","99.50","","","","-21","","Snow"
"-94.71","56.36","GILLAM A","5061022","2019-12-01 16:00","2019","12","01","16:00","-11.5","","-12.9","","89","","","","25","","18","","20.9","","99.48","","","","-19","","Snow"
"-94.71","56.36","GILLAM A","5061022","2019-12-01 17:00","2019","12","01","17:00","-10.7","","-12.1","","89","","","","25","","27","","8.1","","99.46","","","","-20","","Snow"
"-94.71","56.36","GILLAM A","5061022","2019-12-01 18:00","2019","12","01","18:00","-10.8","","-12.5","","87","","","","25","","25","","6.4","","99.45","","","","-20","","Snow"
"-94.71","56.36","GILLAM A","5061022","2019-12-01 19:00","2019","12","01","19:00","-10.6","","-12.8","","84","","","","25","","22","","4.8","","99.37","","","","-19","","Snow"
"-94.71","56.36","GILLAM A","5061022","2019-12-01 20:00","2019","12","01","20:00","-10.4","","-12.7","","83","","","","25","","24","","9.7","","99.34","","","","-19","","Snow"
"-94.71","56.36","GILLAM A","5061022","2019-12-01 21:00","2019","12","01","21:00","-10.3","","-12.6","","84","","","","25","","22","","8.1","","99.31","","","","-19","","Snow"
"-94.71","56.36","GILLAM A","5061022","2019-12-01 22:00","2019","12","01","22:00","-10.4","","-12.6","","84","","","","25","","16","","8.1","","99.26","","","","-17","","Snow"
"-94.71","56.36","GILLAM A","5061022","2019-12-01 23:00","2019","12","01","23:00","-10.4","","-12.5","","84","","","","25","","20","","11.3","","99.23","","","","-18","","Snow"
"-94.71","56.36","GILLAM A","5061022","2019-12-02 00:00","2019","12","02","00:00","-10.4","","-12.5","","85","","","","25","","14","","12.9","","99.19","","","","-17","","Snow"
"-94.71","56.36","GILLAM A","5061022","2019-12-02 01:00","2019","12","02","01:00","-10.4","","-12.5","","85","","","","25","","16","","8.1","","99.14","","","","-17","","Snow"
"-94.71","56.36","GILLAM A","5061022","2019-12-02 02:00","2019","12","02","02:00","-10.6","","-12.7","","85","","","","26","","15","","8.1","","99.12","","","","-17","","Snow"
"-94.71","56.36","GILLAM A","5061022","2019-12-02 03:00","2019","12","02","03:00","-11.3","","-14.2","","80","","","","26","","20","","16.1","","99.06","","","","-20","","Snow"
"-94.71","56.36","GILLAM A","5061022","2019-12-02 04:00","2019","12","02","04:00","-11.6","","-14.1","","82","","","","25","","10","","16.1","","99.00","","","","-17","","Snow"
"-94.71","56.36","GILLAM A","5061022","2019-12-02 05:00","2019","12","02","05:00","-11.6","","-13.9","","83","","","","25","","10","","16.1","","98.94","","","","-17","","Snow"
"-94.71","56.36","GILLAM A","5061022","2019-12-02 06:00","2019","12","02","06:00","-11.5","","-13.6","","85","","","","28","","7","","24.1","","98.87","","","","-16","","Snow"
"-94.71","56.36","GILLAM A","5061022","2019-12-02 07:00","2019","12","02","07:00","-11.6","","-13.2","","88","","","","19","","3","","16.1","","98.77","","","","-13","","Snow"
"-94.71","56.36","GILLAM A","5061022","2019-12-02 08:00","2019","12","02","08:00","-11.6","","-13.1","","89","","","","16","","5","","3.6","","98.68","","","","-15","","Snow"
"-94.71","56.36","GILLAM A","5061022","2019-12-02 09:00","2019","12","02","09:00","-11.5","","-13.0","","89","","","","13","","4","","2.0","","98.60","","","","-14","","Snow"
"-94.71","56.36","GILLAM A","5061022","2019-12-02 10:00","2019","12","02","10:00","-10.9","","-12.4","","89","","","","14","","4","","2.0","","98.53","","","","-13","","Snow"
"-94.71","56.36","GILLAM A","5061022","2019-12-02 11:00","2019","12","02","11:00","-10.1","","-11.6","","88","","","","36","","1","","2.0","","98.44","","","","-11","","Snow"
"-94.71","56.36","GILLAM A","5061022","2019-12-02 12:00","2019","12","02","12:00","-9.5","","-11.3","","87","","","","36","","3","","2.4","","98.37","","","","-11","","Snow"
"-94.71","56.36","GILLAM A","5061022","2019-12-02 13:00","2019","12","02","13:00","-9.2","","-11.1","","87","","","","36","","1","","3.2","","98.27","","","","-10","","Snow"
"-94.71","56.36","GILLAM A","5061022","2019-12-02 14:00","2019","12","02","14:00","-10.2","","-11.7","","89","","","","1","","6","","2.8","","98.19","","","","-14","","Snow"
"-94.71","56.36","GILLAM A","5061022","2019-12-02 15:00","2019","12","02","15:00","-10.5","","-12.2","","88","","","","34","","7","","4.8","","98.13","","","","-15","","Snow"
"-94.71","56.36","GILLAM A","5061022","2019-12-02 16:00","2019","12","02","16:00","-10.3","","-11.8","","89","","","","35","","4","","8.1","","98.14","","","","-13","","Snow"
"-94.71","56.36","GILLAM A","5061022","2019-12-02 17:00","2019","12","02","17:00","-10.6","","-11.9","","90","","","","","","0","","4.8","","98.10","","","","","","Snow"
"-94.71","56.36","GILLAM A","5061022","2019-12-02 18:00","2019","12","02","18:00","-10.5","","-11.9","","89","","","","1","","7","","9.7","","98.09","","","","-15","","Snow"
"-94.71","56.36","GILLAM A","5061022","2019-12-02 19:00","2019","12","02","19:00","-10.7","","-12.1","","89","","","","3","","3","","12.9","","98.06","","","","-13","","Snow"
"-94.71","56.36","GILLAM A","5061022","2019-12-02 20:00","2019","12","02","20:00","-10.9","","-12.4","","89","","","","6","","4","","16.1","","98.00","","","","-13","","Snow"
"-94.71","56.36","GILLAM A","5061022","2019-12-02 21:00","2019","12","02","21:00","-11.2","","-12.6","","90","","","","6","","4","","12.9","","97.95","","","","-14","","Snow"
"-94.71","56.36","GILLAM A","5061022","2019-12-02 22:00","2019","12","02","22:00","-11.4","","-12.9","","89","","","","5","","4","","12.9","","97.90","","","","-14","","Snow"
"-94.71","56.36","GILLAM A","5061022","2019-12-02 23:00","2019","12","02","23:00","-11.6","","-13.1","","89","","","","35","","10","","12.9","","97.91","","","","-17","","Snow"
"-94.71","56.36","GILLAM A","5061022","2019-12-03 00:00","2019","12","03","00:00","-11.9","","-13.4","","89","","","","36","","3","","19.3","","97.89","","","","-14","","Snow"
"-94.71","56.36","GILLAM A","5061022","2019-12-03 01:00","2019","12","03","01:00","-12.0","","-13.5","","89","","","","36","","9","","19.3","","97.89","","","","-17","","Snow"
"-94.71","56.36","GILLAM A","5061022","2019-12-03 02:00","2019","12","03","02:00","-11.8","","-13.4","","88","","","","34","","9","","12.9","","97.89","","","","-17","","Snow"
"-94.71","56.36","GILLAM A","5061022","2019-12-03 03:00","2019","12","03","03:00","-11.8","","-13.5","","87","","","","33","","11","","16.1","","97.87","","","","-18","","Snow"
"-94.71","56.36","GILLAM A","5061022","2019-12-03 04:00","2019","12","03","04:00","-11.8","","-13.7","","86","","","","31","","10","","9.7","","97.89","","","","-17","","Snow"
"-94.71","56.36","GILLAM A","5061022","2019-12-03 05:00","2019","12","03","05:00","-11.7","","-13.5","","86","","","","30","","12","","16.1","","97.86","","","","-18","","Snow"
"-94.71","56.36","GILLAM A","5061022","2019-12-03 06:00","2019","12","03","06:00","-11.6","","-13.4","","87","","","","30","","14","","12.9","","97.84","","","","-18","","Snow"
"-94.71","56.36","GILLAM A","5061022","2019-12-03 07:00","2019","12","03","07:00","-11.6","","-13.5","","86","","","","31","","9","","24.1","","97.83","","","","-17","","Snow"
"-94.71","56.36","GILLAM A","5061022","2019-12-03 08:00","2019","12","03","08:00","-11.7","","-13.6","","86","","","","32","","12","","17.7","","97.83","","","","-18","","Snow"
"-94.71","56.36","GILLAM A","5061022","2019-12-03 09:00","2019","12","03","09:00","-11.7","","-13.5","","86","","","","31","","11","","16.1","","97.85","","","","-18","","Snow"
"-94.71","56.36","GILLAM A","5061022","2019-12-03 10:00","2019","12","03","10:00","-11.4","","-13.2","","87","","","","30","","13","","4.8","","97.86","","","","-18","","Snow"
"-94.71","56.36","GILLAM A","5061022","2019-12-03 11:00","2019","12","03","11:00","-10.6","","-12.5","","86","","","","33","","17","","3.6","","97.86","","","","-18","","Snow"
"-94.71","56.36","GILLAM A","5061022","2019-12-03 12:00","2019","12","03","12:00","-10.0","","-12.1","","85","","","","35","","19","","4.0","","97.88","","","","-18","","Snow"
"-94.71","56.36","GILLAM A","5061022","2019-12-03 13:00","2019","12","03","13:00","-10.1","","-12.2","","85","","","","35","","22","","2.4","","97.91","","","","-18","","Snow,Blowing Snow"
"-94.71","56.36","GILLAM A","5061022","2019-12-03 14:00","2019","12","03","14:00","-10.5","","-13.1","","81","","","","35","","19","","14.5","","97.97","","","","-18","","Snow,Blowing Snow"
"-94.71","56.36","GILLAM A","5061022","2019-12-03 15:00","2019","12","03","15:00","-10.6","","-12.8","","84","","","","36","","21","","4.8","","98.04","","","","-19","","Snow,Blowing Snow"
"-94.71","56.36","GILLAM A","5061022","2019-12-03 16:00","2019","12","03","16:00","-10.8","","-12.9","","85","","","","35","","22","","4.8","","98.14","","","","-19","","Snow,Blowing Snow"
"-94.71","56.36","GILLAM A","5061022","2019-12-03 17:00","2019","12","03","17:00","-11.1","","-13.1","","86","","","","36","","18","","6.4","","98.22","","","","-19","","Snow,Blowing Snow"
"-94.71","56.36","GILLAM A","5061022","2019-12-03 18:00","2019","12","03","18:00","-11.2","","-13.2","","85","","","","1","","17","","8.1","","98.25","","","","-19","","Snow,Blowing Snow"
"-94.71","56.36","GILLAM A","5061022","2019-12-03 19:00","2019","12","03","19:00","-11.7","","-13.9","","83","","","","1","","16","","16.1","","98.27","","","","-19","","Snow"
"-94.71","56.36","GILLAM A","5061022","2019-12-03 20:00","2019","12","03","20:00","-11.9","","-14.3","","82","","","","36","","17","","24.1","","98.29","","","","-20","","Snow"
"-94.71","56.36","GILLAM A","5061022","2019-12-03 21:00","2019","12","03","21:00","-12.7","","-15.0","","83","","","","1","","23","","24.1","","98.35","","","","-22","","Snow"
"-94.71","56.36","GILLAM A","5061022","2019-12-03 22:00","2019","12","03","22:00","-13.6","","-16.1","","81","","","","36","","19","","24.1","","98.42","","","","-22","","Snow"
"-94.71","56.36","GILLAM A","5061022","2019-12-03 23:00","2019","12","03","23:00","-14.6","","-17.6","","79","","","","36","","14","","24.1","","98.48","","","","-22","","Snow"
"-94.71","56.36","GILLAM A","5061022","2019-12-04 00:00","2019","12","04","00:00","-16.5","","-19.6","","77","","","","35","","14","","24.1","","98.52","","","","-24","","Snow"
"-94.71","56.36","GILLAM A","5061022","2019-12-04 01:00","2019","12","04","01:00","-19.3","","-21.8","","81","","","","34","","14","","24.1","","98.57","","","","-28","","Snow"
"-94.71","56.36","GILLAM A","5061022","2019-12-04 02:00","2019","12","04","02:00","-18.2","","-21.0","","79","","","","1","","14","","24.1","","98.61","","","","-27","","Snow"
"-94.71","56.36","GILLAM A","5061022","2019-12-04 03:00","2019","12","04","03:00","-18.1","","-20.7","","80","","","","3","","12","","24.1","","98.69","","","","-26","","Mainly Clear"
"-94.71","56.36","GILLAM A","5061022","2019-12-04 04:00","2019","12","04","04:00","-17.9","","-20.7","","79","","","","2","","12","","24.1","","98.74","","","","-25","","NA"
"-94.71","56.36","GILLAM A","5061022","2019-12-04 05:00","2019","12","04","05:00","-18.2","","-20.9","","79","","","","4","","11","","24.1","","98.75","","","","-25","","NA"
"-94.71","56.36","GILLAM A","5061022","2019-12-04 06:00","2019","12","04","06:00","-18.6","","-21.1","","81","","","","2","","8","","24.1","","98.83","","","","-25","","Clear"
"-94.71","56.36","GILLAM A","5061022","2019-12-04 07:00","2019","12","04","07:00","-20.9","","-23.1","","83","","","","1","","5","","24.1","","98.83","","","","-25","","NA"
"-94.71","56.36","GILLAM A","5061022","2019-12-04 08:00","2019","12","04","08:00","-20.7","","-22.7","","84","","","","5","","5","","24.1","","98.86","","","","-25","","NA"
"-94.71","56.36","GILLAM A","5061022","2019-12-04 09:00","2019","12","04","09:00","-19.7","","-21.9","","83","","","","36","","2","","16.1","","98.91","","","","-21","","Snow"
"-94.71","56.36","GILLAM A","5061022","2019-12-04 10:00","2019","12","04","10:00","-19.2","","-21.4","","83","","","","29","","7","","17.7","","98.94","","","","-25","","Snow"
"-94.71","56.36","GILLAM A","5061022","2019-12-04 11:00","2019","12","04","11:00","-18.5","","-20.9","","82","","","","33","","5","","11.3","","98.96","","","","-23","","Snow"
"-94.71","56.36","GILLAM A","5061022","2019-12-04 12:00","2019","12","04","12:00","-18.2","","-20.9","","80","","","","36","","3","","20.9","","98.99","","","","-21","","Snow"
"-94.71","56.36","GILLAM A","5061022","2019-12-04 13:00","2019","12","04","13:00","-17.7","","-20.6","","78","","","","32","","3","","17.7","","99.00","","","","-20","","Snow"
"-94.71","56.36","GILLAM A","5061022","2019-12-04 14:00","2019","12","04","14:00","-17.4","","-20.6","","77","","","","36","","1","","11.3","","99.03","","","","-18","","Snow"
"-94.71","56.36","GILLAM A","5061022","2019-12-04 15:00","2019","12","04","15:00","-17.5","","-20.1","","80","","","","36","","2","","14.5","","99.06","","","","-19","","Snow"
"-94.71","56.36","GILLAM A","5061022","2019-12-04 16:00","2019","12","04","16:00","-19.2","","-21.3","","84","","","","13","","3","","19.3","","99.06","","","","-22","","Snow"
"-94.71","56.36","GILLAM A","5061022","2019-12-04 17:00","2019","12","04","17:00","-18.6","","-21.0","","81","","","","36","","3","","17.7","","99.09","","","","-21","","Snow"
"-94.71","56.36","GILLAM A","5061022","2019-12-04 18:00","2019","12","04","18:00","-18.3","","-20.7","","82","","","","15","","3","","17.7","","99.12","","","","-21","","Snow"
"-94.71","56.36","GILLAM A","5061022","2019-12-04 19:00","2019","12","04","19:00","-17.8","","-20.0","","83","","","","36","","3","","17.7","","99.15","","","","-20","","Snow"
"-94.71","56.36","GILLAM A","5061022","2019-12-04 20:00","2019","12","04","20:00","-17.5","","-19.7","","83","","","","14","","5","","19.3","","99.14","","","","-21","","Snow"
"-94.71","56.36","GILLAM A","5061022","2019-12-04 21:00","2019","12","04","21:00","-17.2","","-19.4","","83","","","","13","","5","","19.3","","99.14","","","","-21","","Snow"
"-94.71","56.36","GILLAM A","5061022","2019-12-04 22:00","2019","12","04","22:00","-17.0","","-19.3","","83","","","","4","","7","","19.3","","99.19","","","","-22","","Snow"
"-94.71","56.36","GILLAM A","5061022","2019-12-04 23:00","2019","12","04","23:00","-16.8","","-19.0","","83","","","","3","","9","","24.1","","99.24","","","","-23","","Snow"
"-94.71","56.36","GILLAM A","5061022","2019-12-05 00:00","2019","12","05","00:00","-16.8","","-19.1","","82","","","","4","","7","","24.1","","99.27","","","","-22","","Snow"
"-94.71","56.36","GILLAM A","5061022","2019-12-05 01:00","2019","12","05","01:00","-16.7","","-19.0","","82","","","","2","","8","","24.1","","99.31","","","","-22","","Snow"
"-94.71","56.36","GILLAM A","5061022","2019-12-05 02:00","2019","12","05","02:00","-18.4","","-20.5","","84","","","","35","","7","","24.1","","99.38","","","","-24","","Snow"
"-94.71","56.36","GILLAM A","5061022","2019-12-05 03:00","2019","12","05","03:00","-17.7","","-19.7","","84","","","","29","","6","","24.1","","99.46","","","","-22","","Snow"
"-94.71","56.36","GILLAM A","5061022","2019-12-05 04:00","2019","12","05","04:00","-17.4","","-19.5","","84","","","","31","","10","","24.1","","99.52","","","","-24","","Snow"
"-94.71","56.36","GILLAM A","5061022","2019-12-05 05:00","2019","12","05","05:00","-16.8","","-19.0","","83","","","","35","","14","","24.1","","99.57","","","","-25","","Snow"
"-94.71","56.36","GILLAM A","5061022","2019-12-05 06:00","2019","12","05","06:00","-17.3","","-19.9","","81","","","","36","","20","","24.1","","99.67","","","","-27","","Snow"
"-94.71","56.36","GILLAM A","5061022","2019-12-05 07:00","2019","12","05","07:00","-20.0","","-23.0","","78","","","","35","","23","","19.3","","99.75","","","","-31","","Snow"
"-94.71","56.36","GILLAM A","5061022","2019-12-05 08:00","2019","12","05","08:00","-21.3","","-24.2","","77","","","","35","","20","","16.1","","99.84","","","","-32","","Snow"
"-94.71","56.36","GILLAM A","5061022","2019-12-05 09:00","2019","12","05","09:00","-22.4","","-25.5","","76","","","","33","","19","","19.3","","99.91","","","","-33","","Snow"
"-94.71","56.36","GILLAM A","5061022","2019-12-05 10:00","2019","12","05","10:00","-24.0","","-27.3","","75","","","","33","","14","","17.7","","100.05","","","","-34","","Snow"
"-94.71","56.36","GILLAM A","5061022","2019-12-05 11:00","2019","12","05","11:00","-24.0","","-27.4","","74","","","","30","","14","","20.9","","100.09","","","","-34","","Snow"
"-94.71","56.36","GILLAM A","5061022","2019-12-05 12:00","2019","12","05","12:00","-24.1","","-27.7","","73","","","","29","","13","","24.1","","100.12","","","","-33","","Mostly Cloudy"
"-94.71","56.36","GILLAM A","5061022","2019-12-05 13:00","2019","12","05","13:00","-24.0","","-27.4","","74","","","","29","","13","","24.1","","100.12","","","","-33","","NA"
"-94.71","56.36","GILLAM A","5061022","2019-12-05 14:00","2019","12","05","14:00","-23.5","","-27.1","","73","","","","28","","15","","24.1","","100.13","","","","-33","","NA"
"-94.71","56.36","GILLAM A","5061022","2019-12-05 15:00","2019","12","05","15:00","-23.8","","-27.3","","73","","","","28","","14","","24.1","","100.19","","","","-33","","Mainly Clear"
"-94.71","56.36","GILLAM A","5061022","2019-12-05 16:00","2019","12","05","16:00","-24.3","","-27.5","","75","","","","28","","10","","24.1","","100.24","","","","-32","","NA"
"-94.71","56.36","GILLAM A","5061022","2019-12-05 17:00","2019","12","05","17:00","-24.9","","-27.8","","77","","","","26","","11","","24.1","","100.29","","","","-34","","NA"
"-94.71","56.36","GILLAM A","5061022","2019-12-05 18:00","2019","12","05","18:00","-25.7","","-28.5","","78","","","","27","","10","","24.1","","100.33","","","","-34","","Mostly Cloudy"
"-94.71","56.36","GILLAM A","5061022","2019-12-05 19:00","2019","12","05","19:00","-25.9","","-28.8","","77","","","","26","","11","","24.1","","100.34","","","","-35","","NA"
"-94.71","56.36","GILLAM A","5061022","2019-12-05 20:00","2019","12","05","20:00","-26.2","","-29.2","","76","","","","28","","11","","24.1","","100.33","","","","-35","","NA"
"-94.71","56.36","GILLAM A","5061022","2019-12-05 21:00","2019","12","05","21:00","-26.2","","-29.2","","77","","","","26","","13","","24.1","","100.34","","","","-36","","Clear"
"-94.71","56.36","GILLAM A","5061022","2019-12-05 22:00","2019","12","05","22:00","-26.5","","-29.4","","77","","","","26","","10","","24.1","","100.35","","","","-35","","NA"
"-94.71","56.36","GILLAM A","5061022","2019-12-05 23:00","2019","12","05","23:00","-28.6","","-31.3","","78","","","","23","","9","","24.1","","100.36","","","","-37","","NA"
"-94.71","56.36","GILLAM A","5061022","2019-12-06 00:00","2019","12","06","00:00","-28.7","","-31.4","","78","","","","23","","10","","24.1","","100.35","","","","-38","","Mainly Clear"
"-94.71","56.36","GILLAM A","5061022","2019-12-06 01:00","2019","12","06","01:00","-28.0","","-30.8","","78","","","","23","","14","","24.1","","100.30","","","","-39","","NA"
"-94.71","56.36","GILLAM A","5061022","2019-12-06 02:00","2019","12","06","02:00","-28.4","","-31.3","","77","","","","22","","12","","24.1","","100.28","","","","-38","","NA"
"-94.71","56.36","GILLAM A","5061022","2019-12-06 03:00","2019","12","06","03:00","-28.4","","-31.2","","77","","","","22","","13","","24.1","","100.22","","","","-39","","Clear"
"-94.71","56.36","GILLAM A","5061022","2019-12-06 04:00","2019","12","06","04:00","-28.8","","-31.6","","77","","","","22","","10","","24.1","","100.18","","","","-38","","NA"
"-94.71","56.36","GILLAM A","5061022","2019-12-06 05:00","2019","12","06","05:00","-27.6","","-30.3","","78","","","","20","","13","","24.1","","100.08","","","","-38","","NA"
"-94.71","56.36","GILLAM A","5061022","2019-12-06 06:00","2019","12","06","06:00","-26.8","","-29.5","","78","","","","21","","10","","24.1","","100.03","","","","-35","","Clear"
"-94.71","56.36","GILLAM A","5061022","2019-12-06 07:00","2019","12","06","07:00","-25.0","","-27.6","","79","","","","20","","17","","24.1","","99.94","","","","-36","","NA"
"-94.71","56.36","GILLAM A","5061022","2019-12-06 08:00","2019","12","06","08:00","-22.8","","-25.3","","80","","","","19","","16","","24.1","","99.81","","","","-33","","NA"
"-94.71","56.36","GILLAM A","5061022","2019-12-06 09:00","2019","12","06","09:00","-21.1","","-23.6","","81","","","","21","","17","","19.3","","99.76","","","","-31","","Snow"
"-94.71","56.36","GILLAM A","5061022","2019-12-06 10:00","2019","12","06","10:00","-20.3","","-22.7","","82","","","","20","","15","","17.7","","99.69","","","","-29","","Snow"
"-94.71","56.36","GILLAM A","5061022","2019-12-06 11:00","2019","12","06","11:00","-18.9","","-21.2","","82","","","","21","","14","","3.2","","99.60","","","","-27","","Snow"
"-94.71","56.36","GILLAM A","5061022","2019-12-06 12:00","2019","12","06","12:00","-17.4","","-20.0","","81","","","","22","","18","","1.2","","99.53","","","","-27","","Snow"
"-94.71","56.36","GILLAM A","5061022","2019-12-06 13:00","2019","12","06","13:00","-16.1","","-18.5","","82","","","","23","","19","","0.4","","99.45","","","","-25","","Snow"
"-94.71","56.36","GILLAM A","5061022","2019-12-06 14:00","2019","12","06","14:00","-14.9","","-17.3","","82","","","","25","","19","","2.0","","99.42","","","","-24","","Snow"
"-94.71","56.36","GILLAM A","5061022","2019-12-06 15:00","2019","12","06","15:00","-14.6","","-17.2","","81","","","","25","","21","","16.1","","99.42","","","","-24","","Snow"
"-94.71","56.36","GILLAM A","5061022","2019-12-06 16:00","2019","12","06","16:00","-14.6","","-16.9","","83","","","","27","","13","","24.1","","99.47","","","","-22","","Snow"
"-94.71","56.36","GILLAM A","5061022","2019-12-06 17:00","2019","12","06","17:00","-14.2","","-16.8","","81","","","","28","","19","","24.1","","99.52","","","","-23","","Snow"
"-94.71","56.36","GILLAM A","5061022","2019-12-06 18:00","2019","12","06","18:00","-15.4","","-18.2","","80","","","","31","","21","","24.1","","99.59","","","","-25","","Snow"
"-94.71","56.36","GILLAM A","5061022","2019-12-06 19:00","2019","12","06","19:00","-18.7","","-21.2","","81","","","","30","","14","","24.1","","99.63","","","","-27","","Snow"
"-94.71","56.36","GILLAM A","5061022","2019-12-06 20:00","2019","12","06","20:00","-20.4","","-22.4","","84","","","","29","","9","","24.1","","99.63","","","","-27","","NA"
"-94.71","56.36","GILLAM A","5061022","2019-12-06 21:00","2019","12","06","21:00","-20.3","","-22.6","","82","","","","28","","8","","24.1","","99.64","","","","-27","","Clear"
"-94.71","56.36","GILLAM A","5061022","2019-12-06 22:00","2019","12","06","22:00","-22.6","","-24.4","","86","","","","27","","7","","24.1","","99.64","","","","-29","","NA"
"-94.71","56.36","GILLAM A","5061022","2019-12-06 23:00","2019","12","06","23:00","-25.0","","-27.5","","80","","","","22","","9","","24.1","","99.61","","","","-33","","NA"
"-94.71","56.36","GILLAM A","5061022","2019-12-07 00:00","2019","12","07","00:00","-23.5","","-25.6","","83","","","","23","","10","","24.1","","99.59","","","","-31","","Clear"
"-94.71","56.36","GILLAM A","5061022","2019-12-07 01:00","2019","12","07","01:00","-23.5","","-25.8","","82","","","","23","","8","","24.1","","99.55","","","","-30","","NA"
"-94.71","56.36","GILLAM A","5061022","2019-12-07 02:00","2019","12","07","02:00","-23.4","","-25.8","","81","","","","22","","5","","24.1","","99.50","","","","-28","","NA"
"-94.71","56.36","GILLAM A","5061022","2019-12-07 03:00","2019","12","07","03:00","-22.2","","-24.6","","81","","","","19","","3","","16.1","","99.40","","","","-25","","Snow"
"-94.71","56.36","GILLAM A","5061022","2019-12-07 04:00","2019","12","07","04:00","-21.2","","-23.6","","82","","","","12","","5","","8.1","","99.28","","","","-26","","Snow"
"-94.71","56.36","GILLAM A","5061022","2019-12-07 05:00","2019","12","07","05:00","-20.9","","-23.2","","82","","","","12","","7","","6.4","","99.14","","","","-27","","Snow"
"-94.71","56.36","GILLAM A","5061022","2019-12-07 06:00","2019","12","07","06:00","-19.9","","-22.2","","82","","","","12","","9","","4.8","","98.93","","","","-27","","Snow"
"-94.71","56.36","GILLAM A","5061022","2019-12-07 07:00","2019","12","07","07:00","-19.2","","-21.4","","83","","","","11","","7","","4.8","","98.75","","","","-25","","Snow"
"-94.71","56.36","GILLAM A","5061022","2019-12-07 08:00","2019","12","07","08:00","-18.0","","-20.1","","84","","","","11","","5","","2.4","","98.61","","","","-22","","Snow"
"-94.71","56.36","GILLAM A","5061022","2019-12-07 09:00","2019","12","07","09:00","-17.2","","-19.2","","84","","","","10","","5","","1.2","","98.46","","","","-21","","Snow"
"-94.71","56.36","GILLAM A","5061022","2019-12-07 10:00","2019","12","07","10:00","-16.3","","-18.2","","85","","","","10","","3","","1.6","","98.38","","","","-19","","Snow"
"-94.71","56.36","GILLAM A","5061022","2019-12-07 11:00","2019","12","07","11:00","-16.2","","-18.2","","85","","","","36","","10","","3.6","","98.33","","","","-23","","Snow"
"-94.71","56.36","GILLAM A","5061022","2019-12-07 12:00","2019","12","07","12:00","-17.3","","-19.5","","83","","","","31","","14","","19.3","","98.41","","","","-25","","Snow"
"-94.71","56.36","GILLAM A","5061022","2019-12-07 13:00","2019","12","07","13:00","-18.1","","-20.5","","81","","","","30","","23","","24.1","","98.47","","","","-29","","Snow"
"-94.71","56.36","GILLAM A","5061022","2019-12-07 14:00","2019","12","07","14:00","-18.9","","-21.9","","78","","","","30","","23","","24.1","","98.55","","","","-30","","NA"
"-94.71","56.36","GILLAM A","5061022","2019-12-07 15:00","2019","12","07","15:00","-19.7","","-22.6","","78","","","","30","","23","","24.1","","98.66","","","","-31","","Mainly Clear"
"-94.71","56.36","GILLAM A","5061022","2019-12-07 16:00","2019","12","07","16:00","-21.8","","-24.6","","79","","","","31","","15","","24.1","","98.78","","","","-31","","NA"
"-94.71","56.36","GILLAM A","5061022","2019-12-07 17:00","2019","12","07","17:00","-23.3","","-25.8","","80","","","","29","","18","","24.1","","98.87","","","","-34","","NA"
"-94.71","56.36","GILLAM A","5061022","2019-12-07 18:00","2019","12","07","18:00","-22.2","","-25.3","","76","","","","32","","26","","24.1","","98.98","","","","-35","","Clear"
"-94.71","56.36","GILLAM A","5061022","2019-12-07 19:00","2019","12","07","19:00","-23.3","","-27.4","","70","","","","33","","27","","24.1","","99.07","","","","-36","","NA"
"-94.71","56.36","GILLAM A","5061022","2019-12-07 20:00","2019","12","07","20:00","-24.6","","-28.3","","72","","","","32","","20","","24.1","","99.13","","","","-36","","NA"
"-94.71","56.36","GILLAM A","5061022","2019-12-07 21:00","2019","12","07","21:00","-25.4","","-29.0","","73","","","","32","","22","","24.1","","99.22","","","","-38","","Mainly Clear"
"-94.71","56.36","GILLAM A","5061022","2019-12-07 22:00","2019","12","07","22:00","-26.8","","-30.3","","73","","","","31","","16","","24.1","","99.30","","","","-38","","NA"
"-94.71","56.36","GILLAM A","5061022","2019-12-07 23:00","2019","12","07","23:00","-27.8","","-31.3","","72","","","","30","","20","","24.1","","99.37","","","","-40","","NA"
"-94.71","56.36","GILLAM A","5061022","2019-12-08 00:00","2019","12","08","00:00","-28.1","","-31.8","","71","","","","32","","21","","24.1","","99.45","","","","-41","","Clear"
"-94.71","56.36","GILLAM A","5061022","2019-12-08 01:00","2019","12","08","01:00","-28.9","","-32.6","","71","","","","31","","15","","24.1","","99.54","","","","-40","","NA"
"-94.71","56.36","GILLAM A","5061022","2019-12-08 02:00","2019","12","08","02:00","-29.6","","-33.5","","70","","","","31","","18","","24.1","","99.62","","","","-42","","NA"
"-94.71","56.36","GILLAM A","5061022","2019-12-08 03:00","2019","12","08","03:00","-30.1","","-34.1","","70","","","","31","","23","","24.1","","99.69","","","","-44","","Clear"
"-94.71","56.36","GILLAM A","5061022","2019-12-08 04:00","2019","12","08","04:00","-30.8","","-34.6","","70","","","","30","","21","","24.1","","99.77","","","","-44","","NA"
"-94.71","56.36","GILLAM A","5061022","2019-12-08 05:00","2019","12","08","05:00","-31.1","","-34.9","","70","","","","30","","21","","24.1","","99.81","","","","-45","","NA"
"-94.71","56.36","GILLAM A","5061022","2019-12-08 06:00","2019","12","08","06:00","-31.7","","-35.4","","71","","","","29","","18","","24.1","","99.86","","","","-45","","Clear"
"-94.71","56.36","GILLAM A","5061022","2019-12-08 07:00","2019","12","08","07:00","-31.8","","-35.4","","71","","","","28","","19","","24.1","","99.90","","","","-45","","NA"
"-94.71","56.36","GILLAM A","5061022","2019-12-08 08:00","2019","12","08","08:00","-32.3","","-35.8","","72","","","","26","","15","","24.1","","99.91","","","","-44","","NA"
"-94.71","56.36","GILLAM A","5061022","2019-12-08 09:00","2019","12","08","09:00","-31.7","","-35.2","","72","","","","27","","22","","24.1","","99.93","","","","-46","","Clear"
"-94.71","56.36","GILLAM A","5061022","2019-12-08 10:00","2019","12","08","10:00","-31.6","","-35.2","","71","","","","27","","21","","24.1","","99.96","","","","-45","","NA"
"-94.71","56.36","GILLAM A","5061022","2019-12-08 11:00","2019","12","08","11:00","-30.7","","-34.5","","70","","","","27","","21","","24.1","","99.95","","","","-44","","NA"
"-94.71","56.36","GILLAM A","5061022","2019-12-08 12:00","2019","12","08","12:00","-29.4","","-33.2","","70","","","","26","","20","","24.1","","99.90","","","","-42","","Clear"
"-94.71","56.36","GILLAM A","5061022","2019-12-08 13:00","2019","12","08","13:00","-27.8","","-31.7","","70","","","","25","","21","","24.1","","99.86","","","","-41","","NA"
"-94.71","56.36","GILLAM A","5061022","2019-12-08 14:00","2019","12","08","14:00","-27.1","","-31.2","","69","","","","26","","23","","24.1","","99.83","","","","-40","","NA"
"-94.71","56.36","GILLAM A","5061022","2019-12-08 15:00","2019","12","08","15:00","-26.9","","-30.8","","70","","","","26","","22","","24.1","","99.83","","","","-40","","Clear"
"-94.71","56.36","GILLAM A","5061022","2019-12-08 16:00","2019","12","08","16:00","-27.5","","-31.1","","72","","","","26","","18","","24.1","","99.84","","","","-39","","NA"
"-94.71","56.36","GILLAM A","5061022","2019-12-08 17:00","2019","12","08","17:00","-27.2","","-30.6","","73","","","","27","","17","","24.1","","99.85","","","","-39","","NA"
"-94.71","56.36","GILLAM A","5061022","2019-12-08 18:00","2019","12","08","18:00","-26.9","","-30.2","","74","","","","26","","15","","24.1","","99.84","","","","-38","","Mostly Cloudy"
"-94.71","56.36","GILLAM A","5061022","2019-12-08 19:00","2019","12","08","19:00","-27.1","","-30.4","","74","","","","26","","15","","24.1","","99.84","","","","-38","","NA"
"-94.71","56.36","GILLAM A","5061022","2019-12-08 20:00","2019","12","08","20:00","-27.9","","-31.0","","75","","","","23","","10","","24.1","","99.78","","","","-37","","NA"
"-94.71","56.36","GILLAM A","5061022","2019-12-08 21:00","2019","12","08","21:00","-27.8","","-31.1","","74","","","","24","","16","","24.1","","99.77","","","","-39","","Mainly Clear"
"-94.71","56.36","GILLAM A","5061022","2019-12-08 22:00","2019","12","08","22:00","-28.0","","-31.3","","74","","","","25","","19","","24.1","","99.76","","","","-40","","NA"
"-94.71","56.36","GILLAM A","5061022","2019-12-08 23:00","2019","12","08","23:00","-28.8","","-31.9","","75","","","","24","","10","","24.1","","99.76","","","","-38","","NA"
"-94.71","56.36","GILLAM A","5061022","2019-12-09 00:00","2019","12","09","00:00","-29.7","","-32.8","","75","","","","23","","10","","24.1","","99.76","","","","-39","","Mainly Clear"
"-94.71","56.36","GILLAM A","5061022","2019-12-09 01:00","2019","12","09","01:00","-30.1","","-33.2","","75","","","","23","","9","","24.1","","99.72","","","","-39","","NA"
"-94.71","56.36","GILLAM A","5061022","2019-12-09 02:00","2019","12","09","02:00","-30.9","","-34.0","","75","","","","26","","10","","24.1","","99.71","","","","-40","","NA"
"-94.71","56.36","GILLAM A","5061022","2019-12-09 03:00","2019","12","09","03:00","-31.6","","-34.7","","75","","","","26","","9","","24.1","","99.70","","","","-40","","Clear"
"-94.71","56.36","GILLAM A","5061022","2019-12-09 04:00","2019","12","09","04:00","-32.6","","-35.7","","75","","","","24","","7","","24.1","","99.66","","","","-40","","NA"
"-94.71","56.36","GILLAM A","5061022","2019-12-09 05:00","2019","12","09","05:00","-32.8","","-36.0","","74","","","","27","","8","","24.1","","99.67","","","","-41","","NA"
"-94.71","56.36","GILLAM A","5061022","2019-12-09 06:00","2019","12","09","06:00","-33.2","","-36.3","","74","","","","25","","10","","24.1","","99.68","","","","-43","","Clear"
"-94.71","56.36","GILLAM A","5061022","2019-12-09 07:00","2019","12","09","07:00","-33.5","","-36.8","","74","","","","27","","10","","24.1","","99.67","","","","-43","","NA"
"-94.71","56.36","GILLAM A","5061022","2019-12-09 08:00","2019","12","09","08:00","-33.4","","-36.7","","73","","","","28","","13","","24.1","","99.67","","","","-45","","NA"
"-94.71","56.36","GILLAM A","5061022","2019-12-09 09:00","2019","12","09","09:00","-33.7","","-37.0","","73","","","","29","","11","","24.1","","99.72","","","","-44","","Clear"
"-94.71","56.36","GILLAM A","5061022","2019-12-09 10:00","2019","12","09","10:00","-33.5","","-36.8","","73","","","","29","","13","","24.1","","99.71","","","","-45","","NA"
"-94.71","56.36","GILLAM A","5061022","2019-12-09 11:00","2019","12","09","11:00","-32.4","","-35.8","","73","","","","29","","13","","24.1","","99.73","","","","-44","","NA"
"-94.71","56.36","GILLAM A","5061022","2019-12-09 12:00","2019","12","09","12:00","-31.1","","-34.6","","72","","","","30","","18","","24.1","","99.76","","","","-44","","Mainly Clear"
"-94.71","56.36","GILLAM A","5061022","2019-12-09 13:00","2019","12","09","13:00","-30.6","","-34.3","","71","","","","28","","14","","24.1","","99.77","","","","-42","","NA"
"-94.71","56.36","GILLAM A","5061022","2019-12-09 14:00","2019","12","09","14:00","-30.1","","-33.8","","71","","","","28","","18","","24.1","","99.74","","","","-43","","NA"
"-94.71","56.36","GILLAM A","5061022","2019-12-09 15:00","2019","12","09","15:00","-29.9","","-33.5","","71","","","","29","","18","","24.1","","99.76","","","","-42","","Mainly Clear"
"-94.71","56.36","GILLAM A","5061022","2019-12-09 16:00","2019","12","09","16:00","-30.5","","-33.9","","73","","","","28","","16","","24.1","","99.79","","","","-42","","NA"
"-94.71","56.36","GILLAM A","5061022","2019-12-09 17:00","2019","12","09","17:00","-30.6","","-34.0","","73","","","","28","","15","","24.1","","99.81","","","","-42","","NA"
"-94.71","56.36","GILLAM A","5061022","2019-12-09 18:00","2019","12","09","18:00","-30.9","","-34.3","","73","","","","28","","19","","24.1","","99.80","","","","-44","","Mostly Cloudy"
"-94.71","56.36","GILLAM A","5061022","2019-12-09 19:00","2019","12","09","19:00","-31.4","","-34.8","","73","","","","28","","17","","24.1","","99.79","","","","-44","","NA"
"-94.71","56.36","GILLAM A","5061022","2019-12-09 20:00","2019","12","09","20:00","-31.3","","-34.8","","72","","","","28","","18","","24.1","","99.75","","","","-44","","NA"
"-94.71","56.36","GILLAM A","5061022","2019-12-09 21:00","2019","12","09","21:00","-31.5","","-35.0","","72","","","","28","","20","","24.1","","99.68","","","","-45","","Mainly Clear"
"-94.71","56.36","GILLAM A","5061022","2019-12-09 22:00","2019","12","09","22:00","-31.7","","-35.1","","73","","","","28","","20","","24.1","","99.63","","","","-45","","NA"
"-94.71","56.36","GILLAM A","5061022","2019-12-09 23:00","2019","12","09","23:00","-31.6","","-35.1","","72","","","","27","","19","","24.1","","99.62","","","","-45","","NA"
"-94.71","56.36","GILLAM A","5061022","2019-12-10 00:00","2019","12","10","00:00","-31.6","","-35.0","","72","","","","27","","18","","24.1","","99.58","","","","-44","","Clear"
"-94.71","56.36","GILLAM A","5061022","2019-12-10 01:00","2019","12","10","01:00","-31.3","","-34.8","","72","","","","27","","19","","24.1","","99.52","","","","-44","","NA"
"-94.71","56.36","GILLAM A","5061022","2019-12-10 02:00","2019","12","10","02:00","-30.9","","-34.4","","72","","","","27","","19","","24.1","","99.48","","","","-44","","NA"
"-94.71","56.36","GILLAM A","5061022","2019-12-10 03:00","2019","12","10","03:00","-30.7","","-34.3","","72","","","","26","","15","","24.1","","99.45","","","","-42","","Mainly Clear"
"-94.71","56.36","GILLAM A","5061022","2019-12-10 04:00","2019","12","10","04:00","-31.0","","-34.5","","72","","","","27","","16","","24.1","","99.40","","","","-43","","NA"
"-94.71","56.36","GILLAM A","5061022","2019-12-10 05:00","2019","12","10","05:00","-31.2","","-34.7","","72","","","","25","","13","","24.1","","99.33","","","","-42","","NA"
"-94.71","56.36","GILLAM A","5061022","2019-12-10 06:00","2019","12","10","06:00","-30.6","","-34.2","","71","","","","26","","18","","24.1","","99.28","","","","-43","","Mostly Cloudy"
"-94.71","56.36","GILLAM A","5061022","2019-12-10 07:00","2019","12","10","07:00","-30.5","","-34.0","","72","","","","25","","18","","24.1","","99.21","","","","-43","","NA"
"-94.71","56.36","GILLAM A","5061022","2019-12-10 08:00","2019","12","10","08:00","-29.9","","-33.6","","71","","","","26","","25","","24.1","","99.12","","","","-44","","NA"
"-94.71","56.36","GILLAM A","5061022","2019-12-10 09:00","2019","12","10","09:00","-30.1","","-33.8","","71","","","","27","","23","","24.1","","99.09","","","","-44","","Mainly Clear"
"-94.71","56.36","GILLAM A","5061022","2019-12-10 10:00","2019","12","10","10:00","-30.2","","-34.1","","70","","","","28","","23","","24.1","","99.09","","","","-44","","NA"
"-94.71","56.36","GILLAM A","5061022","2019-12-10 11:00","2019","12","10","11:00","-30.2","","-34.0","","70","","","","28","","21","","24.1","","99.05","","","","-44","","NA"
"-94.71","56.36","GILLAM A","5061022","2019-12-10 12:00","2019","12","10","12:00","-29.0","","-32.6","","71","","","","29","","23","","2.8","","99.06","","","","-43","","Snow Grains"
"-94.71","56.36","GILLAM A","5061022","2019-12-10 13:00","2019","12","10","13:00","-28.1","","-32.0","","70","","","","28","","23","","12.9","","99.06","","","","-42","","Snow Grains"
"-94.71","56.36","GILLAM A","5061022","2019-12-10 14:00","2019","12","10","14:00","-27.6","","-31.4","","71","","","","28","","23","","4.8","","99.08","","","","-41","","Snow Grains"
"-94.71","56.36","GILLAM A","5061022","2019-12-10 15:00","2019","12","10","15:00","-26.9","","-30.6","","71","","","","28","","22","","14.5","","99.11","","","","-40","","Blowing Snow"
"-94.71","56.36","GILLAM A","5061022","2019-12-10 16:00","2019","12","10","16:00","-26.6","","-30.3","","72","","","","27","","19","","16.1","","99.15","","","","-39","","Blowing Snow"
"-94.71","56.36","GILLAM A","5061022","2019-12-10 17:00","2019","12","10","17:00","-25.9","","-29.4","","73","","","","27","","24","","14.5","","99.15","","","","-39","","Blowing Snow"
"-94.71","56.36","GILLAM A","5061022","2019-12-10 18:00","2019","12","10","18:00","-25.1","","-28.4","","75","","","","27","","22","","4.0","","99.11","","","","-37","","Snow,Blowing Snow"
"-94.71","56.36","GILLAM A","5061022","2019-12-10 19:00","2019","12","10","19:00","-24.1","","-27.5","","75","","","","27","","25","","4.0","","99.12","","","","-37","","Snow,Blowing Snow"
"-94.71","56.36","GILLAM A","5061022","2019-12-10 20:00","2019","12","10","20:00","-23.7","","-27.0","","75","","","","28","","20","","4.0","","99.13","","","","-35","","Snow,Blowing Snow"
"-94.71","56.36","GILLAM A","5061022","2019-12-10 21:00","2019","12","10","21:00","-22.0","","-25.2","","76","","","","31","","22","","4.0","","99.13","","","","-34","","Snow,Blowing Snow"
"-94.71","56.36","GILLAM A","5061022","2019-12-10 22:00","2019","12","10","22:00","-21.7","","-25.3","","73","","","","32","","22","","4.0","","99.19","","","","-33","","Snow,Blowing Snow"
"-94.71","56.36","GILLAM A","5061022","2019-12-10 23:00","2019","12","10","23:00","-22.6","","-26.5","","72","","","","33","","32","","4.0","","99.25","","","","-36","","Snow,Blowing Snow"
"-94.71","56.36","GILLAM A","5061022","2019-12-11 00:00","2019","12","11","00:00","-23.3","","-27.3","","70","","","","32","","27","","4.0","","99.33","","","","-36","","Snow,Blowing Snow"
"-94.71","56.36","GILLAM A","5061022","2019-12-11 01:00","2019","12","11","01:00","-23.9","","-27.8","","71","","","","31","","22","","4.0","","99.38","","","","-36","","Snow,Blowing Snow"
"-94.71","56.36","GILLAM A","5061022","2019-12-11 02:00","2019","12","11","02:00","-24.1","","-28.0","","71","","","","32","","27","","4.0","","99.43","","","","-37","","Snow,Blowing Snow"
"-94.71","56.36","GILLAM A","5061022","2019-12-11 03:00","2019","12","11","03:00","-24.3","","-28.2","","71","","","","32","","31","","4.0","","99.47","","","","-38","","Snow,Blowing Snow"
"-94.71","56.36","GILLAM A","5061022","2019-12-11 04:00","2019","12","11","04:00","-24.6","","-28.7","","70","","","","32","","29","","4.0","","99.52","","","","-38","","Snow,Blowing Snow"
"-94.71","56.36","GILLAM A","5061022","2019-12-11 05:00","2019","12","11","05:00","-24.9","","-28.9","","70","","","","32","","27","","4.0","","99.59","","","","-38","","Snow,Blowing Snow"
"-94.71","56.36","GILLAM A","5061022","2019-12-11 06:00","2019","12","11","06:00","-25.5","","-29.4","","70","","","","32","","27","","4.0","","99.65","","","","-39","","Snow"
"-94.71","56.36","GILLAM A","5061022","2019-12-11 07:00","2019","12","11","07:00","-26.6","","-30.3","","72","","","","31","","18","","24.1","","99.70","","","","-38","","NA"
"-94.71","56.36","GILLAM A","5061022","2019-12-11 08:00","2019","12","11","08:00","-27.4","","-30.8","","73","","","","29","","15","","24.1","","99.76","","","","-38","","NA"
"-94.71","56.36","GILLAM A","5061022","2019-12-11 09:00","2019","12","11","09:00","-27.8","","-31.1","","74","","","","30","","16","","24.1","","99.79","","","","-39","","Clear"
"-94.71","56.36","GILLAM A","5061022","2019-12-11 10:00","2019","12","11","10:00","-27.4","","-30.9","","73","","","","29","","14","","24.1","","99.85","","","","-38","","NA"
"-94.71","56.36","GILLAM A","5061022","2019-12-11 11:00","2019","12","11","11:00","-26.6","","-30.2","","72","","","","29","","17","","24.1","","99.89","","","","-38","","NA"
"-94.71","56.36","GILLAM A","5061022","2019-12-11 12:00","2019","12","11","12:00","-25.9","","-29.8","","70","","","","30","","22","","24.1","","99.90","","","","-38","","Ice Crystals"
"-94.71","56.36","GILLAM A","5061022","2019-12-11 13:00","2019","12","11","13:00","-25.6","","-29.5","","71","","","","28","","18","","24.1","","99.96","","","","-37","","Ice Crystals"
"-94.71","56.36","GILLAM A","5061022","2019-12-11 14:00","2019","12","11","14:00","-25.6","","-29.6","","70","","","","28","","21","","24.1","","99.98","","","","-38","","Ice Crystals"
"-94.71","56.36","GILLAM A","5061022","2019-12-11 15:00","2019","12","11","15:00","-25.9","","-29.9","","70","","","","27","","17","","24.1","","100.00","","","","-37","","Ice Crystals"
"-94.71","56.36","GILLAM A","5061022","2019-12-11 16:00","2019","12","11","16:00","-26.7","","-30.5","","71","","","","28","","19","","24.1","","100.07","","","","-39","","Ice Crystals"
"-94.71","56.36","GILLAM A","5061022","2019-12-11 17:00","2019","12","11","17:00","-27.5","","-31.2","","72","","","","27","","20","","24.1","","100.14","","","","-40","","Ice Crystals"
"-94.71","56.36","GILLAM A","5061022","2019-12-11 18:00","2019","12","11","18:00","-28.5","","-32.1","","72","","","","28","","18","","24.1","","100.14","","","","-41","","Ice Crystals"
"-94.71","56.36","GILLAM A","5061022","2019-12-11 19:00","2019","12","11","19:00","-29.2","","-32.8","","71","","","","28","","18","","24.1","","100.17","","","","-41","","NA"
"-94.71","56.36","GILLAM A","5061022","2019-12-11 20:00","2019","12","11","20:00","-29.6","","-33.3","","71","","","","28","","17","","24.1","","100.17","","","","-42","","NA"
"-94.71","56.36","GILLAM A","5061022","2019-12-11 21:00","2019","12","11","21:00","-30.1","","-33.8","","71","","","","27","","16","","24.1","","100.16","","","","-42","","Mostly Cloudy"
"-94.71","56.36","GILLAM A","5061022","2019-12-11 22:00","2019","12","11","22:00","-30.2","","-33.8","","72","","","","27","","16","","24.1","","100.15","","","","-42","","NA"
"-94.71","56.36","GILLAM A","5061022","2019-12-11 23:00","2019","12","11","23:00","-30.3","","-33.8","","72","","","","28","","14","","24.1","","100.16","","","","-41","","NA"
"-94.71","56.36","GILLAM A","5061022","2019-12-12 00:00","2019","12","12","00:00","-30.0","","-33.5","","72","","","","28","","17","","24.1","","100.19","","","","-42","","Cloudy"
"-94.71","56.36","GILLAM A","5061022","2019-12-12 01:00","2019","12","12","01:00","-30.3","","-33.7","","73","","","","25","","13","","24.1","","100.20","","","","-41","","NA"
"-94.71","56.36","GILLAM A","5061022","2019-12-12 02:00","2019","12","12","02:00","-32.0","","-35.2","","74","","","","23","","10","","24.1","","100.20","","","","-42","","NA"
"-94.71","56.36","GILLAM A","5061022","2019-12-12 03:00","2019","12","12","03:00","-32.0","","-35.2","","74","","","","23","","13","","24.1","","100.26","","","","-43","","Mostly Cloudy"
"-94.71","56.36","GILLAM A","5061022","2019-12-12 04:00","2019","12","12","04:00","-32.0","","-35.2","","74","","","","25","","12","","24.1","","100.27","","","","-43","","NA"
"-94.71","56.36","GILLAM A","5061022","2019-12-12 05:00","2019","12","12","05:00","-31.9","","-35.1","","74","","","","24","","14","","24.1","","100.25","","","","-43","","NA"
"-94.71","56.36","GILLAM A","5061022","2019-12-12 06:00","2019","12","12","06:00","-31.8","","-35.0","","74","","","","25","","14","","24.1","","100.24","","","","-43","","Cloudy"
"-94.71","56.36","GILLAM A","5061022","2019-12-12 07:00","2019","12","12","07:00","-31.9","","-35.2","","74","","","","25","","12","","24.1","","100.27","","","","-42","","NA"
"-94.71","56.36","GILLAM A","5061022","2019-12-12 08:00","2019","12","12","08:00","-31.6","","-34.8","","74","","","","25","","13","","24.1","","100.27","","","","-43","","NA"
"-94.71","56.36","GILLAM A","5061022","2019-12-12 09:00","2019","12","12","09:00","-31.6","","-34.9","","73","","","","25","","11","","24.1","","100.29","","","","-42","","Mainly Clear"
"-94.71","56.36","GILLAM A","5061022","2019-12-12 10:00","2019","12","12","10:00","-30.6","","-34.0","","73","","","","26","","13","","24.1","","100.31","","","","-41","","NA"
"-94.71","56.36","GILLAM A","5061022","2019-12-12 11:00","2019","12","12","11:00","-29.3","","-33.0","","71","","","","28","","18","","24.1","","100.33","","","","-42","","NA"
"-94.71","56.36","GILLAM A","5061022","2019-12-12 12:00","2019","12","12","12:00","-28.8","","-32.9","","68","","","","27","","16","","24.1","","100.32","","","","-40","","Clear"
"-94.71","56.36","GILLAM A","5061022","2019-12-12 13:00","2019","12","12","13:00","-27.9","","-32.1","","68","","","","28","","12","","24.1","","100.31","","","","-38","","NA"
"-94.71","56.36","GILLAM A","5061022","2019-12-12 14:00","2019","12","12","14:00","-26.9","","-30.9","","70","","","","26","","16","","24.1","","100.30","","","","-38","","NA"
"-94.71","56.36","GILLAM A","5061022","2019-12-12 15:00","2019","12","12","15:00","-27.0","","-30.7","","71","","","","26","","10","","24.1","","100.29","","","","-36","","Clear"
"-94.71","56.36","GILLAM A","5061022","2019-12-12 16:00","2019","12","12","16:00","-28.1","","-31.6","","73","","","","24","","9","","24.1","","100.29","","","","-36","","NA"
"-94.71","56.36","GILLAM A","5061022","2019-12-12 17:00","2019","12","12","17:00","-29.0","","-32.4","","73","","","","23","","10","","24.1","","100.31","","","","-38","","NA"
"-94.71","56.36","GILLAM A","5061022","2019-12-12 18:00","2019","12","12","18:00","-29.4","","-32.7","","74","","","","23","","8","","24.1","","100.32","","","","-37","","Mainly Clear"
"-94.71","56.36","GILLAM A","5061022","2019-12-12 19:00","2019","12","12","19:00","-30.1","","-33.3","","75","","","","23","","6","","24.1","","100.32","","","","-37","","NA"
"-94.71","56.36","GILLAM A","5061022","2019-12-12 20:00","2019","12","12","20:00","-30.7","","-33.7","","76","","","","22","","8","","24.1","","100.29","","","","-39","","NA"
"-94.71","56.36","GILLAM A","5061022","2019-12-12 21:00","2019","12","12","21:00","-31.6","","-34.7","","75","","","","23","","5","","24.1","","100.25","","","","-37","","Clear"
"-94.71","56.36","GILLAM A","5061022","2019-12-12 22:00","2019","12","12","22:00","-31.4","","-34.4","","75","","","","23","","8","","24.1","","100.26","","","","-40","","NA"
"-94.71","56.36","GILLAM A","5061022","2019-12-12 23:00","2019","12","12","23:00","-32.2","","-35.2","","75","","","","23","","9","","24.1","","100.24","","","","-41","","NA"
"-94.71","56.36","GILLAM A","5061022","2019-12-13 00:00","2019","12","13","00:00","-32.4","","-35.4","","75","","","","22","","9","","24.1","","100.24","","","","-41","","Clear"
"-94.71","56.36","GILLAM A","5061022","2019-12-13 01:00","2019","12","13","01:00","-32.7","","-35.8","","75","","","","22","","9","","24.1","","100.21","","","","-42","","NA"
"-94.71","56.36","GILLAM A","5061022","2019-12-13 02:00","2019","12","13","02:00","-33.1","","-36.3","","74","","","","24","","7","","24.1","","100.21","","","","-41","","NA"
"-94.71","56.36","GILLAM A","5061022","2019-12-13 03:00","2019","12","13","03:00","-33.8","","-36.9","","74","","","","23","","7","","24.1","","100.23","","","","-42","","Clear"
"-94.71","56.36","GILLAM A","5061022","2019-12-13 04:00","2019","12","13","04:00","-34.0","","-37.2","","74","","","","23","","7","","24.1","","100.22","","","","-42","","NA"
"-94.71","56.36","GILLAM A","5061022","2019-12-13 05:00","2019","12","13","05:00","-33.5","","-36.7","","74","","","","27","","7","","24.1","","100.21","","","","-41","","NA"
"-94.71","56.36","GILLAM A","5061022","2019-12-13 06:00","2019","12","13","06:00","-33.0","","-36.2","","74","","","","27","","10","","24.1","","100.22","","","","-43","","Clear"
"-94.71","56.36","GILLAM A","5061022","2019-12-13 07:00","2019","12","13","07:00","-33.1","","-36.3","","73","","","","30","","10","","24.1","","100.20","","","","-43","","NA"
"-94.71","56.36","GILLAM A","5061022","2019-12-13 08:00","2019","12","13","08:00","-33.1","","-36.4","","73","","","","29","","11","","24.1","","100.21","","","","-43","","NA"
"-94.71","56.36","GILLAM A","5061022","2019-12-13 09:00","2019","12","13","09:00","-33.3","","-36.6","","73","","","","28","","9","","24.1","","100.25","","","","-43","","Mainly Clear"
"-94.71","56.36","GILLAM A","5061022","2019-12-13 10:00","2019","12","13","10:00","-32.9","","-36.3","","73","","","","28","","12","","24.1","","100.28","","","","-44","","NA"
"-94.71","56.36","GILLAM A","5061022","2019-12-13 11:00","2019","12","13","11:00","-32.2","","-35.6","","73","","","","28","","10","","24.1","","100.30","","","","-42","","NA"
"-94.71","56.36","GILLAM A","5061022","2019-12-13 12:00","2019","12","13","12:00","-31.6","","-34.9","","73","","","","27","","12","","24.1","","100.29","","","","-42","","Clear"
"-94.71","56.36","GILLAM A","5061022","2019-12-13 13:00","2019","12","13","13:00","-30.9","","-34.3","","73","","","","29","","13","","24.1","","100.30","","","","-42","","NA"
"-94.71","56.36","GILLAM A","5061022","2019-12-13 14:00","2019","12","13","14:00","-30.2","","-33.5","","73","","","","27","","13","","24.1","","100.27","","","","-41","","NA"
"-94.71","56.36","GILLAM A","5061022","2019-12-13 15:00","2019","12","13","15:00","-29.8","","-33.1","","73","","","","27","","9","","24.1","","100.26","","","","-38","","Clear"
"-94.71","56.36","GILLAM A","5061022","2019-12-13 16:00","2019","12","13","16:00","-30.2","","-33.3","","75","","","","26","","9","","24.1","","100.28","","","","-39","","NA"
"-94.71","56.36","GILLAM A","5061022","2019-12-13 17:00","2019","12","13","17:00","-30.5","","-33.6","","74","","","","26","","11","","24.1","","100.30","","","","-40","","NA"
"-94.71","56.36","GILLAM A","5061022","2019-12-13 18:00","2019","12","13","18:00","-30.6","","-33.9","","74","","","","27","","13","","24.1","","100.32","","","","-41","","Clear"
"-94.71","56.36","GILLAM A","5061022","2019-12-13 19:00","2019","12","13","19:00","-30.6","","-34.0","","73","","","","27","","15","","24.1","","100.29","","","","-42","","NA"
"-94.71","56.36","GILLAM A","5061022","2019-12-13 20:00","2019","12","13","20:00","-31.0","","-34.4","","73","","","","28","","13","","24.1","","100.26","","","","-42","","NA"
"-94.71","56.36","GILLAM A","5061022","2019-12-13 21:00","2019","12","13","21:00","-31.5","","-34.9","","72","","","","28","","14","","24.1","","100.25","","","","-43","","Clear"
"-94.71","56.36","GILLAM A","5061022","2019-12-13 22:00","2019","12","13","22:00","-32.0","","-35.5","","72","","","","27","","11","","24.1","","100.22","","","","-42","","NA"
"-94.71","56.36","GILLAM A","5061022","2019-12-13 23:00","2019","12","13","23:00","-32.5","","-35.9","","72","","","","27","","11","","24.1","","100.20","","","","-43","","NA"
"-94.71","56.36","GILLAM A","5061022","2019-12-14 00:00","2019","12","14","00:00","-33.0","","-36.4","","72","","","","26","","11","","24.1","","100.19","","","","-43","","Clear"
"-94.71","56.36","GILLAM A","5061022","2019-12-14 01:00","2019","12","14","01:00","-33.5","","-36.9","","72","","","","26","","11","","24.1","","100.15","","","","-44","","NA"
"-94.71","56.36","GILLAM A","5061022","2019-12-14 02:00","2019","12","14","02:00","-33.9","","-37.3","","72","","","","25","","9","","24.1","","100.15","","","","-43","","NA"
"-94.71","56.36","GILLAM A","5061022","2019-12-14 03:00","2019","12","14","03:00","-34.0","","-37.4","","73","","","","25","","11","","24.1","","100.11","","","","-44","","Clear"
"-94.71","56.36","GILLAM A","5061022","2019-12-14 04:00","2019","12","14","04:00","-34.6","","-37.9","","73","","","","26","","9","","24.1","","100.05","","","","-44","","NA"
"-94.71","56.36","GILLAM A","5061022","2019-12-14 05:00","2019","12","14","05:00","-34.7","","-38.0","","72","","","","25","","11","","24.1","","100.01","","","","-45","","NA"
"-94.71","56.36","GILLAM A","5061022","2019-12-14 06:00","2019","12","14","06:00","-34.4","","-37.8","","72","","","","24","","8","","24.1","","99.97","","","","-43","","Clear"
"-94.71","56.36","GILLAM A","5061022","2019-12-14 07:00","2019","12","14","07:00","-34.6","","-38.0","","72","","","","25","","10","","24.1","","99.94","","","","-45","","NA"
"-94.71","56.36","GILLAM A","5061022","2019-12-14 08:00","2019","12","14","08:00","-34.5","","-37.9","","72","","","","24","","11","","24.1","","99.90","","","","-45","","NA"
"-94.71","56.36","GILLAM A","5061022","2019-12-14 09:00","2019","12","14","09:00","-34.2","","-37.5","","73","","","","25","","13","","24.1","","99.86","","","","-46","","Mainly Clear"
"-94.71","56.36","GILLAM A","5061022","2019-12-14 10:00","2019","12","14","10:00","-33.3","","-36.6","","73","","","","24","","14","","24.1","","99.83","","","","-45","","NA"
"-94.71","56.36","GILLAM A","5061022","2019-12-14 11:00","2019","12","14","11:00","-32.0","","-35.4","","73","","","","26","","17","","24.1","","99.81","","","","-45","","NA"
"-94.71","56.36","GILLAM A","5061022","2019-12-14 12:00","2019","12","14","12:00","-30.5","","-33.6","","75","","","","26","","17","","24.1","","99.75","","","","-43","","Mostly Cloudy"
"-94.71","56.36","GILLAM A","5061022","2019-12-14 13:00","2019","12","14","13:00","-29.5","","-32.5","","76","","","","26","","14","","24.1","","99.69","","","","-40","","NA"
"-94.71","56.36","GILLAM A","5061022","2019-12-14 14:00","2019","12","14","14:00","-28.7","","-31.8","","76","","","","25","","14","","24.1","","99.67","","","","-39","","NA"
"-94.71","56.36","GILLAM A","5061022","2019-12-14 15:00","2019","12","14","15:00","-28.0","","-31.0","","76","","","","25","","16","","24.1","","99.65","","","","-39","","Cloudy"
"-94.71","56.36","GILLAM A","5061022","2019-12-14 16:00","2019","12","14","16:00","-28.2","","-31.2","","76","","","","24","","15","","16.1","","99.64","","","","-39","","Snow"
"-94.71","56.36","GILLAM A","5061022","2019-12-14 17:00","2019","12","14","17:00","-28.6","","-31.6","","76","","","","24","","13","","17.7","","99.64","","","","-39","","Snow"
"-94.71","56.36","GILLAM A","5061022","2019-12-14 18:00","2019","12","14","18:00","-28.1","","-31.2","","75","","","","25","","15","","16.1","","99.62","","","","-39","","Snow"
"-94.71","56.36","GILLAM A","5061022","2019-12-14 19:00","2019","12","14","19:00","-27.5","","-30.7","","74","","","","25","","12","","14.5","","99.58","","","","-37","","Snow"
"-94.71","56.36","GILLAM A","5061022","2019-12-14 20:00","2019","12","14","20:00","-27.8","","-31.0","","74","","","","26","","16","","24.1","","99.53","","","","-39","","Snow"
"-94.71","56.36","GILLAM A","5061022","2019-12-14 21:00","2019","12","14","21:00","-27.8","","-30.9","","75","","","","25","","13","","24.1","","99.47","","","","-38","","Snow"
"-94.71","56.36","GILLAM A","5061022","2019-12-14 22:00","2019","12","14","22:00","-27.6","","-30.8","","75","","","","27","","13","","19.3","","99.43","","","","-38","","Snow"
"-94.71","56.36","GILLAM A","5061022","2019-12-14 23:00","2019","12","14","23:00","-30.2","","-33.2","","75","","","","23","","11","","24.1","","99.40","","","","-40","","Snow"
"-94.71","56.36","GILLAM A","5061022","2019-12-15 00:00","2019","12","15","00:00","-31.4","","-34.5","","75","","","","23","","13","","24.1","","99.35","","","","-42","","Snow"
"-94.71","56.36","GILLAM A","5061022","2019-12-15 01:00","2019","12","15","01:00","-31.5","","-34.5","","75","","","","23","","13","","24.1","","99.30","","","","-42","","Snow"
"-94.71","56.36","GILLAM A","5061022","2019-12-15 02:00","2019","12","15","02:00","-31.5","","-34.6","","75","","","","23","","14","","24.1","","99.29","","","","-43","","NA"
"-94.71","56.36","GILLAM A","5061022","2019-12-15 03:00","2019","12","15","03:00","-31.1","","-34.2","","75","","","","22","","10","","24.1","","99.26","","","","-40","","Mostly Cloudy"
"-94.71","56.36","GILLAM A","5061022","2019-12-15 04:00","2019","12","15","04:00","-30.2","","-33.3","","75","","","","25","","8","","24.1","","99.25","","","","-38","","NA"
"-94.71","56.36","GILLAM A","5061022","2019-12-15 05:00","2019","12","15","05:00","-30.0","","-33.0","","76","","","","21","","7","","24.1","","99.20","","","","-37","","NA"
"-94.71","56.36","GILLAM A","5061022","2019-12-15 06:00","2019","12","15","06:00","-30.6","","-33.7","","75","","","","23","","11","","24.1","","99.19","","","","-40","","Mostly Cloudy"
"-94.71","56.36","GILLAM A","5061022","2019-12-15 07:00","2019","12","15","07:00","-31.0","","-34.2","","74","","","","22","","9","","24.1","","99.14","","","","-40","","NA"
"-94.71","56.36","GILLAM A","5061022","2019-12-15 08:00","2019","12","15","08:00","-31.0","","-34.2","","74","","","","22","","7","","24.1","","99.12","","","","-38","","NA"
"-94.71","56.36","GILLAM A","5061022","2019-12-15 09:00","2019","12","15","09:00","-30.6","","-33.8","","75","","","","22","","10","","24.1","","99.10","","","","-40","","Mostly Cloudy"
"-94.71","56.36","GILLAM A","5061022","2019-12-15 10:00","2019","12","15","10:00","-30.4","","-33.6","","75","","","","22","","9","","24.1","","99.10","","","","-39","","NA"
"-94.71","56.36","GILLAM A","5061022","2019-12-15 11:00","2019","12","15","11:00","-29.4","","-32.5","","75","","","","36","","3","","24.1","","99.07","","","","-33","","NA"
"-94.71","56.36","GILLAM A","5061022","2019-12-15 12:00","2019","12","15","12:00","-28.1","","-31.2","","75","","","","27","","5","","24.1","","99.02","","","","-33","","Mainly Clear"
"-94.71","56.36","GILLAM A","5061022","2019-12-15 13:00","2019","12","15","13:00","-27.0","","-30.0","","76","","","","36","","3","","24.1","","98.99","","","","-30","","NA"
"-94.71","56.36","GILLAM A","5061022","2019-12-15 14:00","2019","12","15","14:00","-27.0","","-30.0","","76","","","","30","","4","","24.1","","98.97","","","","-31","","NA"
"-94.71","56.36","GILLAM A","5061022","2019-12-15 15:00","2019","12","15","15:00","-26.8","","-29.9","","76","","","","35","","3","","24.1","","98.97","","","","-30","","Mostly Cloudy"
"-94.71","56.36","GILLAM A","5061022","2019-12-15 16:00","2019","12","15","16:00","-27.8","","-30.7","","77","","","","22","","3","","24.1","","98.96","","","","-31","","NA"
"-94.71","56.36","GILLAM A","5061022","2019-12-15 17:00","2019","12","15","17:00","-28.6","","-31.6","","76","","","","36","","2","","24.1","","99.00","","","","-31","","NA"
"-94.71","56.36","GILLAM A","5061022","2019-12-15 18:00","2019","12","15","18:00","-27.5","","-30.4","","77","","","","27","","3","","24.1","","99.02","","","","-31","","Mostly Cloudy"
"-94.71","56.36","GILLAM A","5061022","2019-12-15 19:00","2019","12","15","19:00","-27.6","","-30.5","","77","","","","26","","5","","24.1","","99.03","","","","-33","","NA"
"-94.71","56.36","GILLAM A","5061022","2019-12-15 20:00","2019","12","15","20:00","-28.8","","-31.6","","77","","","","22","","6","","24.1","","99.03","","","","-35","","NA"
"-94.71","56.36","GILLAM A","5061022","2019-12-15 21:00","2019","12","15","21:00","-29.4","","-32.3","","77","","","","21","","6","","24.1","","98.99","","","","-36","","Mainly Clear"
"-94.71","56.36","GILLAM A","5061022","2019-12-15 22:00","2019","12","15","22:00","-29.0","","-31.6","","79","","","","24","","9","","24.1","","98.97","","","","-37","","NA"
"-94.71","56.36","GILLAM A","5061022","2019-12-15 23:00","2019","12","15","23:00","-28.8","","-31.6","","77","","","","27","","5","","24.1","","99.02","","","","-34","","NA"
"-94.71","56.36","GILLAM A","5061022","2019-12-16 00:00","2019","12","16","00:00","-30.0","","-33.0","","76","","","","27","","8","","24.1","","99.04","","","","-38","","Mainly Clear"
"-94.71","56.36","GILLAM A","5061022","2019-12-16 01:00","2019","12","16","01:00","-31.3","","-34.5","","74","","","","23","","4","","24.1","","99.06","","","","-36","","NA"
"-94.71","56.36","GILLAM A","5061022","2019-12-16 02:00","2019","12","16","02:00","-29.5","","-32.4","","76","","","","29","","12","","24.1","","99.10","","","","-40","","NA"
"-94.71","56.36","GILLAM A","5061022","2019-12-16 03:00","2019","12","16","03:00","-29.6","","-32.6","","76","","","","29","","14","","24.1","","99.13","","","","-41","","Mainly Clear"
"-94.71","56.36","GILLAM A","5061022","2019-12-16 04:00","2019","12","16","04:00","-29.9","","-33.0","","75","","","","25","","7","","24.1","","99.17","","","","-37","","NA"
"-94.71","56.36","GILLAM A","5061022","2019-12-16 05:00","2019","12","16","05:00","-32.1","","-35.3","","74","","","","22","","7","","24.1","","99.17","","","","-40","","NA"
"-94.71","56.36","GILLAM A","5061022","2019-12-16 06:00","2019","12","16","06:00","-31.5","","-34.6","","75","","","","26","","10","","24.1","","99.20","","","","-41","","Mainly Clear"
"-94.71","56.36","GILLAM A","5061022","2019-12-16 07:00","2019","12","16","07:00","-32.7","","-36.0","","73","","","","22","","5","","24.1","","99.23","","","","-39","","NA"
"-94.71","56.36","GILLAM A","5061022","2019-12-16 08:00","2019","12","16","08:00","-33.1","","-36.3","","73","","","","24","","9","","24.1","","99.23","","","","-42","","NA"
"-94.71","56.36","GILLAM A","5061022","2019-12-16 09:00","2019","12","16","09:00","-33.6","","-36.9","","73","","","","23","","7","","24.1","","99.27","","","","-41","","Mostly Cloudy"
"-94.71","56.36","GILLAM A","5061022","2019-12-16 10:00","2019","12","16","10:00","-32.4","","-35.6","","74","","","","23","","9","","24.1","","99.30","","","","-41","","NA"
"-94.71","56.36","GILLAM A","5061022","2019-12-16 11:00","2019","12","16","11:00","-30.4","","-33.5","","75","","","","26","","10","","24.1","","99.32","","","","-40","","NA"
"-94.71","56.36","GILLAM A","5061022","2019-12-16 12:00","2019","12","16","12:00","-29.1","","-32.2","","75","","","","28","","11","","24.1","","99.27","","","","-39","","Mostly Cloudy"
"-94.71","56.36","GILLAM A","5061022","2019-12-16 13:00","2019","12","16","13:00","-28.4","","-31.4","","76","","","","29","","13","","24.1","","99.26","","","","-39","","NA"
"-94.71","56.36","GILLAM A","5061022","2019-12-16 14:00","2019","12","16","14:00","-28.5","","-31.6","","75","","","","28","","13","","24.1","","99.28","","","","-39","","NA"
"-94.71","56.36","GILLAM A","5061022","2019-12-16 15:00","2019","12","16","15:00","-28.7","","-31.8","","75","","","","28","","11","","24.1","","99.33","","","","-38","","Mostly Cloudy"
"-94.71","56.36","GILLAM A","5061022","2019-12-16 16:00","2019","12","16","16:00","-29.5","","-32.7","","75","","","","29","","9","","24.1","","99.38","","","","-38","","NA"
"-94.71","56.36","GILLAM A","5061022","2019-12-16 17:00","2019","12","16","17:00","-30.1","","-33.3","","75","","","","30","","10","","24.1","","99.47","","","","-39","","NA"
"-94.71","56.36","GILLAM A","5061022","2019-12-16 18:00","2019","12","16","18:00","-30.9","","-34.1","","74","","","","30","","13","","24.1","","99.50","","","","-42","","Mostly Cloudy"
"-94.71","56.36","GILLAM A","5061022","2019-12-16 19:00","2019","12","16","19:00","-31.6","","-34.8","","74","","","","29","","13","","24.1","","99.53","","","","-43","","NA"
"-94.71","56.36","GILLAM A","5061022","2019-12-16 20:00","2019","12","16","20:00","-31.1","","-34.3","","74","","","","30","","15","","24.1","","99.57","","","","-43","","NA"
"-94.71","56.36","GILLAM A","5061022","2019-12-16 21:00","2019","12","16","21:00","-31.5","","-34.8","","73","","","","30","","17","","24.1","","99.59","","","","-44","","Clear"
"-94.71","56.36","GILLAM A","5061022","2019-12-16 22:00","2019","12","16","22:00","-31.7","","-35.1","","73","","","","30","","19","","19.3","","99.65","","","","-45","","Snow"
"-94.71","56.36","GILLAM A","5061022","2019-12-16 23:00","2019","12","16","23:00","-31.9","","-35.3","","73","","","","30","","18","","24.1","","99.73","","","","-45","","Snow"
"-94.71","56.36","GILLAM A","5061022","2019-12-17 00:00","2019","12","17","00:00","-31.8","","-35.2","","72","","","","30","","20","","24.1","","99.78","","","","-45","","Snow"
"-94.71","56.36","GILLAM A","5061022","2019-12-17 01:00","2019","12","17","01:00","-32.0","","-35.5","","72","","","","30","","18","","24.1","","99.84","","","","-45","","Snow"
"-94.71","56.36","GILLAM A","5061022","2019-12-17 02:00","2019","12","17","02:00","-32.4","","-35.9","","72","","","","30","","21","","24.1","","99.91","","","","-46","","Snow"
"-94.71","56.36","GILLAM A","5061022","2019-12-17 03:00","2019","12","17","03:00","-32.6","","-36.1","","72","","","","30","","22","","24.1","","99.99","","","","-47","","Snow"
"-94.71","56.36","GILLAM A","5061022","2019-12-17 04:00","2019","12","17","04:00","-33.0","","-36.6","","71","","","","30","","21","","24.1","","100.03","","","","-47","","Snow"
"-94.71","56.36","GILLAM A","5061022","2019-12-17 05:00","2019","12","17","05:00","-33.5","","-37.1","","71","","","","30","","18","","24.1","","100.08","","","","-47","","Snow"
"-94.71","56.36","GILLAM A","5061022","2019-12-17 06:00","2019","12","17","06:00","-33.9","","-37.5","","71","","","","30","","19","","24.1","","100.13","","","","-48","","Snow"
"-94.71","56.36","GILLAM A","5061022","2019-12-17 07:00","2019","12","17","07:00","-34.1","","-37.7","","71","","","","30","","18","","24.1","","100.21","","","","-48","","Snow"
"-94.71","56.36","GILLAM A","5061022","2019-12-17 08:00","2019","12","17","08:00","-34.4","","-38.0","","71","","","","29","","15","","24.1","","100.23","","","","-47","","NA"
"-94.71","56.36","GILLAM A","5061022","2019-12-17 09:00","2019","12","17","09:00","-34.5","","-38.0","","71","","","","29","","13","","24.1","","100.28","","","","-46","","Mainly Clear"
"-94.71","56.36","GILLAM A","5061022","2019-12-17 10:00","2019","12","17","10:00","-34.0","","-37.6","","71","","","","29","","18","","24.1","","100.30","","","","-47","","NA"
"-94.71","56.36","GILLAM A","5061022","2019-12-17 11:00","2019","12","17","11:00","-33.2","","-36.8","","71","","","","29","","17","","24.1","","100.32","","","","-46","","NA"
"-94.71","56.36","GILLAM A","5061022","2019-12-17 12:00","2019","12","17","12:00","-32.3","","-36.0","","70","","","","28","","20","","24.1","","100.35","","","","-46","","Mostly Cloudy"
"-94.71","56.36","GILLAM A","5061022","2019-12-17 13:00","2019","12","17","13:00","-31.3","","-35.0","","70","","","","28","","17","","24.1","","100.36","","","","-44","","NA"
"-94.71","56.36","GILLAM A","5061022","2019-12-17 14:00","2019","12","17","14:00","-30.4","","-34.2","","70","","","","28","","16","","24.1","","100.37","","","","-42","","NA"
"-94.71","56.36","GILLAM A","5061022","2019-12-17 15:00","2019","12","17","15:00","-30.1","","-34.0","","70","","","","27","","15","","24.1","","100.43","","","","-42","","Mainly Clear"
"-94.71","56.36","GILLAM A","5061022","2019-12-17 16:00","2019","12","17","16:00","-30.7","","-34.2","","72","","","","25","","8","","24.1","","100.46","","","","-39","","NA"
"-94.71","56.36","GILLAM A","5061022","2019-12-17 17:00","2019","12","17","17:00","-31.2","","-34.7","","72","","","","25","","8","","24.1","","100.45","","","","-39","","NA"
"-94.71","56.36","GILLAM A","5061022","2019-12-17 18:00","2019","12","17","18:00","-31.4","","-34.6","","74","","","","26","","12","","24.1","","100.48","","","","-42","","Clear"
"-94.71","56.36","GILLAM A","5061022","2019-12-17 19:00","2019","12","17","19:00","-33.2","","-36.4","","74","","","","24","","9","","24.1","","100.43","","","","-42","","NA"
"-94.71","56.36","GILLAM A","5061022","2019-12-17 20:00","2019","12","17","20:00","-33.0","","-36.1","","74","","","","24","","9","","24.1","","100.36","","","","-42","","NA"
"-94.71","56.36","GILLAM A","5061022","2019-12-17 21:00","2019","12","17","21:00","-33.7","","-37.0","","73","","","","23","","7","","24.1","","100.29","","","","-42","","Clear"
"-94.71","56.36","GILLAM A","5061022","2019-12-17 22:00","2019","12","17","22:00","-32.3","","-35.4","","74","","","","23","","10","","24.1","","100.28","","","","-42","","NA"
"-94.71","56.36","GILLAM A","5061022","2019-12-17 23:00","2019","12","17","23:00","-30.9","","-34.0","","74","","","","22","","9","","24.1","","100.24","","","","-40","","NA"
"-94.71","56.36","GILLAM A","5061022","2019-12-18 00:00","2019","12","18","00:00","-29.6","","-32.8","","75","","","","21","","9","","24.1","","100.19","","","","-38","","Clear"
"-94.71","56.36","GILLAM A","5061022","2019-12-18 01:00","2019","12","18","01:00","-28.8","","-31.8","","75","","","","20","","7","","24.1","","100.17","","","","-36","","NA"
"-94.71","56.36","GILLAM A","5061022","2019-12-18 02:00","2019","12","18","02:00","-28.1","","-31.1","","76","","","","18","","10","","24.1","","100.11","","","","-37","","NA"
"-94.71","56.36","GILLAM A","5061022","2019-12-18 03:00","2019","12","18","03:00","-26.8","","-29.8","","76","","","","16","","8","","24.1","","100.05","","","","-34","","Mostly Cloudy"
"-94.71","56.36","GILLAM A","5061022","2019-12-18 04:00","2019","12","18","04:00","-25.6","","-28.6","","76","","","","19","","11","","24.1","","100.00","","","","-34","","NA"
"-94.71","56.36","GILLAM A","5061022","2019-12-18 05:00","2019","12","18","05:00","-25.2","","-28.5","","74","","","","17","","12","","24.1","","99.87","","","","-34","","NA"
"-94.71","56.36","GILLAM A","5061022","2019-12-18 06:00","2019","12","18","06:00","-26.1","","-29.6","","73","","","","17","","10","","24.1","","99.80","","","","-34","","Mostly Cloudy"
"-94.71","56.36","GILLAM A","5061022","2019-12-18 07:00","2019","12","18","07:00","-25.6","","-29.0","","74","","","","17","","14","","24.1","","99.72","","","","-36","","NA"
"-94.71","56.36","GILLAM A","5061022","2019-12-18 08:00","2019","12","18","08:00","-25.0","","-28.5","","73","","","","17","","13","","24.1","","99.63","","","","-34","","NA"
"-94.71","56.36","GILLAM A","5061022","2019-12-18 09:00","2019","12","18","09:00","-24.3","","-28.0","","72","","","","13","","11","","24.1","","99.55","","","","-33","","Mostly Cloudy"
"-94.71","56.36","GILLAM A","5061022","2019-12-18 10:00","2019","12","18","10:00","-23.1","","-27.1","","70","","","","16","","11","","24.1","","99.51","","","","-31","","NA"
"-94.71","56.36","GILLAM A","5061022","2019-12-18 11:00","2019","12","18","11:00","-21.8","","-25.8","","71","","","","15","","17","","24.1","","99.45","","","","-32","","NA"
"-94.71","56.36","GILLAM A","5061022","2019-12-18 12:00","2019","12","18","12:00","-20.3","","-23.4","","77","","","","14","","17","","2.4","","99.33","","","","-30","","Snow"
"-94.71","56.36","GILLAM A","5061022","2019-12-18 13:00","2019","12","18","13:00","-19.6","","-22.5","","78","","","","14","","17","","1.2","","99.25","","","","-29","","Snow"
"-94.71","56.36","GILLAM A","5061022","2019-12-18 14:00","2019","12","18","14:00","-19.2","","-22.2","","78","","","","15","","16","","1.6","","99.22","","","","-28","","Snow"
"-94.71","56.36","GILLAM A","5061022","2019-12-18 15:00","2019","12","18","15:00","-19.1","","-22.0","","78","","","","14","","15","","1.6","","99.21","","","","-28","","Snow"
"-94.71","56.36","GILLAM A","5061022","2019-12-18 16:00","2019","12","18","16:00","-18.8","","-21.6","","79","","","","14","","13","","1.6","","99.29","","","","-27","","Snow"
"-94.71","56.36","GILLAM A","5061022","2019-12-18 17:00","2019","12","18","17:00","-18.7","","-21.6","","79","","","","14","","13","","1.6","","99.34","","","","-27","","Snow"
"-94.71","56.36","GILLAM A","5061022","2019-12-18 18:00","2019","12","18","18:00","-19.0","","-21.7","","80","","","","13","","10","","4.8","","99.38","","","","-26","","Snow"
"-94.71","56.36","GILLAM A","5061022","2019-12-18 19:00","2019","12","18","19:00","-19.0","","-21.6","","80","","","","13","","8","","4.8","","99.42","","","","-25","","Snow"
"-94.71","56.36","GILLAM A","5061022","2019-12-18 20:00","2019","12","18","20:00","-19.4","","-22.0","","81","","","","10","","4","","4.8","","99.48","","","","-23","","Snow"
"-94.71","56.36","GILLAM A","5061022","2019-12-18 21:00","2019","12","18","21:00","-19.6","","-22.2","","80","","","","12","","5","","4.8","","99.54","","","","-24","","Snow"
"-94.71","56.36","GILLAM A","5061022","2019-12-18 22:00","2019","12","18","22:00","-21.0","","-23.4","","82","","","","8","","4","","4.8","","99.61","","","","-25","","Snow"
"-94.71","56.36","GILLAM A","5061022","2019-12-18 23:00","2019","12","18","23:00","-22.6","","-25.0","","81","","","","7","","7","","16.1","","99.69","","","","-29","","Snow"
"-94.71","56.36","GILLAM A","5061022","2019-12-19 00:00","2019","12","19","00:00","-23.6","","-26.1","","81","","","","5","","8","","16.1","","99.82","","","","-30","","Snow"
"-94.71","56.36","GILLAM A","5061022","2019-12-19 01:00","2019","12","19","01:00","-22.2","","-24.7","","81","","","","8","","3","","19.3","","99.90","","","","-25","","Snow"
"-94.71","56.36","GILLAM A","5061022","2019-12-19 02:00","2019","12","19","02:00","-22.4","","-24.9","","81","","","","5","","4","","24.1","","100.04","","","","-26","","Snow"
"-94.71","56.36","GILLAM A","5061022","2019-12-19 03:00","2019","12","19","03:00","-21.5","","-23.9","","81","","","","6","","5","","24.1","","100.16","","","","-26","","Snow"
"-94.71","56.36","GILLAM A","5061022","2019-12-19 04:00","2019","12","19","04:00","-21.8","","-24.3","","81","","","","3","","11","","24.1","","100.29","","","","-30","","Snow"
"-94.71","56.36","GILLAM A","5061022","2019-12-19 05:00","2019","12","19","05:00","-22.0","","-24.5","","81","","","","3","","9","","24.1","","100.38","","","","-29","","Snow"
"-94.71","56.36","GILLAM A","5061022","2019-12-19 06:00","2019","12","19","06:00","-25.0","","-27.5","","80","","","","2","","12","","24.1","","100.51","","","","-34","","Cloudy"
"-94.71","56.36","GILLAM A","5061022","2019-12-19 07:00","2019","12","19","07:00","-25.9","","-28.5","","80","","","","3","","11","","24.1","","100.60","","","","-35","","NA"
"-94.71","56.36","GILLAM A","5061022","2019-12-19 08:00","2019","12","19","08:00","-24.8","","-27.2","","80","","","","5","","9","","24.1","","100.69","","","","-32","","NA"
"-94.71","56.36","GILLAM A","5061022","2019-12-19 09:00","2019","12","19","09:00","-26.0","","-28.6","","79","","","","6","","5","","24.1","","100.79","","","","-31","","Clear"
"-94.71","56.36","GILLAM A","5061022","2019-12-19 10:00","2019","12","19","10:00","-25.6","","-28.0","","80","","","","5","","8","","24.1","","100.90","","","","-33","","NA"
"-94.71","56.36","GILLAM A","5061022","2019-12-19 11:00","2019","12","19","11:00","-22.6","","-25.0","","81","","","","8","","7","","24.1","","101.01","","","","-29","","NA"
"-94.71","56.36","GILLAM A","5061022","2019-12-19 12:00","2019","12","19","12:00","-21.9","","-24.2","","82","","","","13","","6","","24.1","","101.09","","","","-27","","Mainly Clear"
"-94.71","56.36","GILLAM A","5061022","2019-12-19 13:00","2019","12","19","13:00","-22.0","","-24.7","","79","","","","4","","6","","24.1","","101.12","","","","-27","","NA"
"-94.71","56.36","GILLAM A","5061022","2019-12-19 14:00","2019","12","19","14:00","-21.6","","-24.1","","80","","","","6","","7","","19.3","","101.21","","","","-28","","Ice Crystals"
"-94.71","56.36","GILLAM A","5061022","2019-12-19 15:00","2019","12","19","15:00","-21.5","","-24.1","","80","","","","12","","5","","22.5","","101.27","","","","-26","","Ice Crystals"
"-94.71","56.36","GILLAM A","5061022","2019-12-19 16:00","2019","12","19","16:00","-22.8","","-25.3","","81","","","","8","","3","","24.1","","101.35","","","","-26","","Ice Crystals"
"-94.71","56.36","GILLAM A","5061022","2019-12-19 17:00","2019","12","19","17:00","-23.2","","-25.7","","80","","","","9","","5","","24.1","","101.39","","","","-28","","NA"
"-94.71","56.36","GILLAM A","5061022","2019-12-19 18:00","2019","12","19","18:00","-23.8","","-26.3","","81","","","","11","","6","","24.1","","101.42","","","","-29","","Mainly Clear"
"-94.71","56.36","GILLAM A","5061022","2019-12-19 19:00","2019","12","19","19:00","-24.6","","-27.0","","81","","","","11","","6","","24.1","","101.44","","","","-30","","NA"
"-94.71","56.36","GILLAM A","5061022","2019-12-19 20:00","2019","12","19","20:00"
"-94.71","56.36","GILLAM A","5061022","2019-12-19 21:00","2019","12","19","21:00"
"-94.71","56.36","GILLAM A","5061022","2019-12-19 22:00","2019","12","19","22:00"
"-94.71","56.36","GILLAM A","5061022","2019-12-19 23:00","2019","12","19","23:00"
"-94.71","56.36","GILLAM A","5061022","2019-12-20 00:00","2019","12","20","00:00"
"-94.71","56.36","GILLAM A","5061022","2019-12-20 01:00","2019","12","20","01:00"
"-94.71","56.36","GILLAM A","5061022","2019-12-20 02:00","2019","12","20","02:00"
"-94.71","56.36","GILLAM A","5061022","2019-12-20 03:00","2019","12","20","03:00"
"-94.71","56.36","GILLAM A","5061022","2019-12-20 04:00","2019","12","20","04:00"
"-94.71","56.36","GILLAM A","5061022","2019-12-20 05:00","2019","12","20","05:00"
"-94.71","56.36","GILLAM A","5061022","2019-12-20 06:00","2019","12","20","06:00"
"-94.71","56.36","GILLAM A","5061022","2019-12-20 07:00","2019","12","20","07:00"
"-94.71","56.36","GILLAM A","5061022","2019-12-20 08:00","2019","12","20","08:00","-24.8","","-27.4","","79","","","","13","","8","","24.1","","100.78","","","","-32","","NA"
"-94.71","56.36","GILLAM A","5061022","2019-12-20 09:00","2019","12","20","09:00","-23.4","","-25.9","","80","","","","13","","11","","24.1","","100.70","","","","-32","","Mostly Cloudy"
"-94.71","56.36","GILLAM A","5061022","2019-12-20 10:00","2019","12","20","10:00","-22.4","","-24.9","","80","","","","14","","11","","24.1","","100.66","","","","-31","","NA"
"-94.71","56.36","GILLAM A","5061022","2019-12-20 11:00","2019","12","20","11:00","-20.5","","-22.9","","82","","","","16","","11","","24.1","","100.57","","","","-28","","NA"
"-94.71","56.36","GILLAM A","5061022","2019-12-20 12:00","2019","12","20","12:00","-19.3","","-21.6","","82","","","","15","","11","","24.1","","100.43","","","","-27","","Mostly Cloudy"
"-94.71","56.36","GILLAM A","5061022","2019-12-20 13:00","2019","12","20","13:00","-18.3","","-20.6","","83","","","","13","","15","","24.1","","100.31","","","","-27","","NA"
"-94.71","56.36","GILLAM A","5061022","2019-12-20 14:00","2019","12","20","14:00","-17.9","","-20.1","","83","","","","13","","13","","24.1","","100.17","","","","-26","","NA"
"-94.71","56.36","GILLAM A","5061022","2019-12-20 15:00","2019","12","20","15:00","-16.9","","-19.1","","83","","","","14","","8","","24.1","","100.13","","","","-23","","Cloudy"
"-94.71","56.36","GILLAM A","5061022","2019-12-20 16:00","2019","12","20","16:00","-16.5","","-18.8","","83","","","","15","","10","","24.1","","100.09","","","","-23","","NA"
"-94.71","56.36","GILLAM A","5061022","2019-12-20 17:00","2019","12","20","17:00","-16.4","","-18.7","","83","","","","16","","10","","24.1","","100.00","","","","-23","","NA"
"-94.71","56.36","GILLAM A","5061022","2019-12-20 18:00","2019","12","20","18:00","-16.8","","-19.0","","84","","","","16","","9","","24.1","","99.97","","","","-23","","Cloudy"
"-94.71","56.36","GILLAM A","5061022","2019-12-20 19:00","2019","12","20","19:00","-17.4","","-19.4","","85","","","","16","","5","","24.1","","99.89","","","","-21","","NA"
"-94.71","56.36","GILLAM A","5061022","2019-12-20 20:00","2019","12","20","20:00"
"-94.71","56.36","GILLAM A","5061022","2019-12-20 21:00","2019","12","20","21:00"
"-94.71","56.36","GILLAM A","5061022","2019-12-20 22:00","2019","12","20","22:00"
"-94.71","56.36","GILLAM A","5061022","2019-12-20 23:00","2019","12","20","23:00"
"-94.71","56.36","GILLAM A","5061022","2019-12-21 00:00","2019","12","21","00:00"
"-94.71","56.36","GILLAM A","5061022","2019-12-21 01:00","2019","12","21","01:00"
"-94.71","56.36","GILLAM A","5061022","2019-12-21 02:00","2019","12","21","02:00"
"-94.71","56.36","GILLAM A","5061022","2019-12-21 03:00","2019","12","21","03:00"
"-94.71","56.36","GILLAM A","5061022","2019-12-21 04:00","2019","12","21","04:00"
"-94.71","56.36","GILLAM A","5061022","2019-12-21 05:00","2019","12","21","05:00"
"-94.71","56.36","GILLAM A","5061022","2019-12-21 06:00","2019","12","21","06:00"
"-94.71","56.36","GILLAM A","5061022","2019-12-21 07:00","2019","12","21","07:00"
"-94.71","56.36","GILLAM A","5061022","2019-12-21 08:00","2019","12","21","08:00","-14.3","","-16.0","","87","","","","1","","15","","3.2","","99.31","","","","-22","","Snow"
"-94.71","56.36","GILLAM A","5061022","2019-12-21 09:00","2019","12","21","09:00","-14.3","","-16.0","","87","","","","1","","11","","2.0","","99.32","","","","-21","","Snow"
"-94.71","56.36","GILLAM A","5061022","2019-12-21 10:00","2019","12","21","10:00","-14.3","","-16.1","","87","","","","34","","7","","3.6","","99.36","","","","-19","","Snow"
"-94.71","56.36","GILLAM A","5061022","2019-12-21 11:00","2019","12","21","11:00","-14.3","","-16.2","","86","","","","34","","14","","4.0","","99.39","","","","-22","","Snow"
"-94.71","56.36","GILLAM A","5061022","2019-12-21 12:00","2019","12","21","12:00","-14.4","","-16.3","","86","","","","34","","9","","6.4","","99.37","","","","-20","","Snow"
"-94.71","56.36","GILLAM A","5061022","2019-12-21 13:00","2019","12","21","13:00","-14.2","","-16.4","","84","","","","35","","17","","4.8","","99.38","","","","-22","","Snow"
"-94.71","56.36","GILLAM A","5061022","2019-12-21 14:00","2019","12","21","14:00","-14.2","","-16.6","","83","","","","33","","14","","9.7","","99.49","","","","-22","","Snow"
"-94.71","56.36","GILLAM A","5061022","2019-12-21 15:00","2019","12","21","15:00","-14.2","","-16.5","","83","","","","33","","15","","3.2","","99.57","","","","-22","","Snow"
"-94.71","56.36","GILLAM A","5061022","2019-12-21 16:00","2019","12","21","16:00","-14.2","","-16.6","","82","","","","35","","12","","12.9","","99.64","","","","-21","","Snow"
"-94.71","56.36","GILLAM A","5061022","2019-12-21 17:00","2019","12","21","17:00","-14.2","","-16.4","","84","","","","31","","8","","16.1","","99.70","","","","-19","","Snow"
"-94.71","56.36","GILLAM A","5061022","2019-12-21 18:00","2019","12","21","18:00","-14.1","","-16.4","","83","","","","30","","8","","16.1","","99.72","","","","-19","","Snow"
"-94.71","56.36","GILLAM A","5061022","2019-12-21 19:00","2019","12","21","19:00","-14.1","","-16.4","","83","","","","31","","7","","17.7","","99.74","","","","-19","","Snow"
"-94.71","56.36","GILLAM A","5061022","2019-12-21 20:00","2019","12","21","20:00"
"-94.71","56.36","GILLAM A","5061022","2019-12-21 21:00","2019","12","21","21:00"
"-94.71","56.36","GILLAM A","5061022","2019-12-21 22:00","2019","12","21","22:00"
"-94.71","56.36","GILLAM A","5061022","2019-12-21 23:00","2019","12","21","23:00"
"-94.71","56.36","GILLAM A","5061022","2019-12-22 00:00","2019","12","22","00:00"
"-94.71","56.36","GILLAM A","5061022","2019-12-22 01:00","2019","12","22","01:00"
"-94.71","56.36","GILLAM A","5061022","2019-12-22 02:00","2019","12","22","02:00"
"-94.71","56.36","GILLAM A","5061022","2019-12-22 03:00","2019","12","22","03:00"
"-94.71","56.36","GILLAM A","5061022","2019-12-22 04:00","2019","12","22","04:00"
"-94.71","56.36","GILLAM A","5061022","2019-12-22 05:00","2019","12","22","05:00"
"-94.71","56.36","GILLAM A","5061022","2019-12-22 06:00","2019","12","22","06:00"
"-94.71","56.36","GILLAM A","5061022","2019-12-22 07:00","2019","12","22","07:00"
"-94.71","56.36","GILLAM A","5061022","2019-12-22 08:00","2019","12","22","08:00","-16.7","","-18.6","","85","","","","8","","6","","24.1","","99.46","","","","-21","","NA"
"-94.71","56.36","GILLAM A","5061022","2019-12-22 09:00","2019","12","22","09:00","-16.4","","-18.3","","86","","","","8","","5","","24.1","","99.42","","","","-20","","Mostly Cloudy"
"-94.71","56.36","GILLAM A","5061022","2019-12-22 10:00","2019","12","22","10:00","-15.8","","-17.6","","86","","","","8","","6","","24.1","","99.35","","","","-20","","NA"
"-94.71","56.36","GILLAM A","5061022","2019-12-22 11:00","2019","12","22","11:00","-15.5","","-17.3","","86","","","","7","","8","","24.1","","99.33","","","","-21","","NA"
"-94.71","56.36","GILLAM A","5061022","2019-12-22 12:00","2019","12","22","12:00","-15.2","","-17.0","","86","","","","6","","7","","24.1","","99.24","","","","-20","","Snow"
"-94.71","56.36","GILLAM A","5061022","2019-12-22 13:00","2019","12","22","13:00","-15.1","","-16.9","","86","","","","6","","10","","24.1","","99.17","","","","-21","","Snow"
"-94.71","56.36","GILLAM A","5061022","2019-12-22 14:00","2019","12","22","14:00","-14.9","","-16.8","","86","","","","4","","15","","24.1","","99.14","","","","-23","","Snow"
"-94.71","56.36","GILLAM A","5061022","2019-12-22 15:00","2019","12","22","15:00","-14.8","","-16.7","","86","","","","3","","19","","24.1","","99.18","","","","-24","","Snow"
"-94.71","56.36","GILLAM A","5061022","2019-12-22 16:00","2019","12","22","16:00","-14.6","","-16.6","","85","","","","2","","14","","24.1","","99.22","","","","-22","","Snow"
"-94.71","56.36","GILLAM A","5061022","2019-12-22 17:00","2019","12","22","17:00","-14.5","","-16.6","","85","","","","3","","16","","24.1","","99.29","","","","-23","","Snow"
"-94.71","56.36","GILLAM A","5061022","2019-12-22 18:00","2019","12","22","18:00","-14.5","","-16.6","","84","","","","2","","13","","24.1","","99.36","","","","-22","","Snow"
"-94.71","56.36","GILLAM A","5061022","2019-12-22 19:00","2019","12","22","19:00","-14.6","","-16.7","","84","","","","1","","7","","24.1","","99.41","","","","-19","","Snow"
"-94.71","56.36","GILLAM A","5061022","2019-12-22 20:00","2019","12","22","20:00"
"-94.71","56.36","GILLAM A","5061022","2019-12-22 21:00","2019","12","22","21:00"
"-94.71","56.36","GILLAM A","5061022","2019-12-22 22:00","2019","12","22","22:00"
"-94.71","56.36","GILLAM A","5061022","2019-12-22 23:00","2019","12","22","23:00"
"-94.71","56.36","GILLAM A","5061022","2019-12-23 00:00","2019","12","23","00:00"
"-94.71","56.36","GILLAM A","5061022","2019-12-23 01:00","2019","12","23","01:00"
"-94.71","56.36","GILLAM A","5061022","2019-12-23 02:00","2019","12","23","02:00"
"-94.71","56.36","GILLAM A","5061022","2019-12-23 03:00","2019","12","23","03:00"
"-94.71","56.36","GILLAM A","5061022","2019-12-23 04:00","2019","12","23","04:00"
"-94.71","56.36","GILLAM A","5061022","2019-12-23 05:00","2019","12","23","05:00"
"-94.71","56.36","GILLAM A","5061022","2019-12-23 06:00","2019","12","23","06:00"
"-94.71","56.36","GILLAM A","5061022","2019-12-23 07:00","2019","12","23","07:00"
"-94.71","56.36","GILLAM A","5061022","2019-12-23 08:00","2019","12","23","08:00","-12.4","","-14.3","","86","","","","25","","15","","24.1","","99.98","","","","-20","","Snow"
"-94.71","56.36","GILLAM A","5061022","2019-12-23 09:00","2019","12","23","09:00","-12.3","","-14.1","","87","","","","26","","12","","24.1","","100.04","","","","-19","","Cloudy"
"-94.71","56.36","GILLAM A","5061022","2019-12-23 10:00","2019","12","23","10:00","-12.0","","-13.9","","86","","","","25","","11","","24.1","","100.07","","","","-18","","NA"
"-94.71","56.36","GILLAM A","5061022","2019-12-23 11:00","2019","12","23","11:00","-11.7","","-13.6","","86","","","","25","","14","","24.1","","100.10","","","","-19","","NA"
"-94.71","56.36","GILLAM A","5061022","2019-12-23 12:00","2019","12","23","12:00","-11.3","","-13.3","","85","","","","26","","11","","24.1","","100.13","","","","-17","","Snow"
"-94.71","56.36","GILLAM A","5061022","2019-12-23 13:00","2019","12","23","13:00","-10.9","","-12.9","","85","","","","24","","8","","22.5","","100.11","","","","-16","","Snow"
"-94.71","56.36","GILLAM A","5061022","2019-12-23 14:00","2019","12","23","14:00","-11.1","","-13.0","","86","","","","24","","11","","16.1","","100.11","","","","-17","","Snow"
"-94.71","56.36","GILLAM A","5061022","2019-12-23 15:00","2019","12","23","15:00","-10.8","","-12.7","","86","","","","23","","13","","19.3","","100.13","","","","-17","","Snow"
"-94.71","56.36","GILLAM A","5061022","2019-12-23 16:00","2019","12","23","16:00","-10.7","","-12.4","","87","","","","22","","7","","22.5","","100.14","","","","-15","","Snow"
"-94.71","56.36","GILLAM A","5061022","2019-12-23 17:00","2019","12","23","17:00","-10.6","","-12.4","","87","","","","21","","9","","24.1","","100.17","","","","-16","","Snow"
"-94.71","56.36","GILLAM A","5061022","2019-12-23 18:00","2019","12","23","18:00","-10.6","","-12.2","","87","","","","20","","8","","19.3","","100.15","","","","-15","","Snow"
"-94.71","56.36","GILLAM A","5061022","2019-12-23 19:00","2019","12","23","19:00","-10.5","","-12.2","","88","","","","20","","8","","24.1","","100.16","","","","-15","","Snow"
"-94.71","56.36","GILLAM A","5061022","2019-12-23 20:00","2019","12","23","20:00"
"-94.71","56.36","GILLAM A","5061022","2019-12-23 21:00","2019","12","23","21:00"
"-94.71","56.36","GILLAM A","5061022","2019-12-23 22:00","2019","12","23","22:00"
"-94.71","56.36","GILLAM A","5061022","2019-12-23 23:00","2019","12","23","23:00"
"-94.71","56.36","GILLAM A","5061022","2019-12-24 00:00","2019","12","24","00:00"
"-94.71","56.36","GILLAM A","5061022","2019-12-24 01:00","2019","12","24","01:00"
"-94.71","56.36","GILLAM A","5061022","2019-12-24 02:00","2019","12","24","02:00"
"-94.71","56.36","GILLAM A","5061022","2019-12-24 03:00","2019","12","24","03:00"
"-94.71","56.36","GILLAM A","5061022","2019-12-24 04:00","2019","12","24","04:00"
"-94.71","56.36","GILLAM A","5061022","2019-12-24 05:00","2019","12","24","05:00"
"-94.71","56.36","GILLAM A","5061022","2019-12-24 06:00","2019","12","24","06:00"
"-94.71","56.36","GILLAM A","5061022","2019-12-24 07:00","2019","12","24","07:00"
"-94.71","56.36","GILLAM A","5061022","2019-12-24 08:00","2019","12","24","08:00","-10.1","","-11.5","","89","","","","36","","1","","24.1","","99.77","","","","-11","","Snow"
"-94.71","56.36","GILLAM A","5061022","2019-12-24 09:00","2019","12","24","09:00","-9.8","","-11.2","","89","","","","36","","2","","24.1","","99.80","","","","-11","","Mostly Cloudy"
"-94.71","56.36","GILLAM A","5061022","2019-12-24 10:00","2019","12","24","10:00","-10.5","","-11.8","","90","","","","15","","7","","24.1","","99.82","","","","-15","","NA"
"-94.71","56.36","GILLAM A","5061022","2019-12-24 11:00","2019","12","24","11:00","-9.7","","-11.3","","88","","","","18","","7","","24.1","","99.81","","","","-14","","NA"
"-94.71","56.36","GILLAM A","5061022","2019-12-24 12:00","2019","12","24","12:00","-11.9","","-14.0","","84","","","","36","","2","","24.1","","99.80","","","","-13","","Mainly Clear"
"-94.71","56.36","GILLAM A","5061022","2019-12-24 13:00","2019","12","24","13:00","-10.5","","-11.8","","90","","","","2","","6","","24.1","","99.78","","","","-14","","NA"
"-94.71","56.36","GILLAM A","5061022","2019-12-24 14:00","2019","12","24","14:00","-11.9","","-13.3","","89","","","","34","","7","","24.1","","99.79","","","","-16","","NA"
"-94.71","56.36","GILLAM A","5061022","2019-12-24 15:00","2019","12","24","15:00","-11.3","","-12.2","","93","","","","36","","3","","24.1","","99.81","","","","-13","","Mainly Clear"
"-94.71","56.36","GILLAM A","5061022","2019-12-24 16:00","2019","12","24","16:00","-13.0","","-14.4","","89","","","","29","","4","","24.1","","99.87","","","","-16","","NA"
"-94.71","56.36","GILLAM A","5061022","2019-12-24 17:00","2019","12","24","17:00","-12.9","","-14.4","","89","","","","32","","4","","24.1","","99.92","","","","-16","","NA"
"-94.71","56.36","GILLAM A","5061022","2019-12-24 18:00","2019","12","24","18:00","-11.8","","-13.2","","90","","","","31","","3","","1.2","","99.99","","","","-14","","Snow"
"-94.71","56.36","GILLAM A","5061022","2019-12-24 19:00","2019","12","24","19:00","-11.1","","-12.4","","90","","","","31","","3","","1.0","","99.97","","","","-13","","Fog"
"-94.71","56.36","GILLAM A","5061022","2019-12-24 20:00","2019","12","24","20:00","-10.4","","-11.7","","90","","","","28","","10","","1.2","","100.02","","","","-16","","Fog"
"-94.71","56.36","GILLAM A","5061022","2019-12-24 21:00","2019","12","24","21:00","-9.8","","-11.0","","91","","","","24","","3","","1.0","","100.02","","","","-12","","Fog"
"-94.71","56.36","GILLAM A","5061022","2019-12-24 22:00","2019","12","24","22:00","-9.3","","-10.5","","91","","","","16","","4","","0.8","","100.01","","","","-12","","Freezing Fog"
"-94.71","56.36","GILLAM A","5061022","2019-12-24 23:00","2019","12","24","23:00","-8.9","","-10.1","","91","","","","22","","5","","1.2","","100.01","","","","-12","","Fog"
"-94.71","56.36","GILLAM A","5061022","2019-12-25 00:00","2019","12","25","00:00","-8.9","","-10.0","","92","","","","26","","4","","1.0","","100.04","","","","-11","","Fog"
"-94.71","56.36","GILLAM A","5061022","2019-12-25 01:00","2019","12","25","01:00","-9.2","","-10.3","","91","","","","30","","4","","1.0","","100.08","","","","-11","","Fog"
"-94.71","56.36","GILLAM A","5061022","2019-12-25 02:00","2019","12","25","02:00","-8.9","","-10.1","","92","","","","24","","4","","1.0","","100.09","","","","-11","","Fog"
"-94.71","56.36","GILLAM A","5061022","2019-12-25 03:00","2019","12","25","03:00","-10.2","","-11.5","","90","","","","24","","5","","1.0","","100.15","","","","-13","","Fog"
"-94.71","56.36","GILLAM A","5061022","2019-12-25 04:00","2019","12","25","04:00","-9.8","","-11.1","","91","","","","20","","9","","1.2","","100.14","","","","-15","","Fog"
"-94.71","56.36","GILLAM A","5061022","2019-12-25 05:00","2019","12","25","05:00","-10.3","","-11.6","","90","","","","20","","6","","4.8","","100.16","","","","-14","","Fog"
"-94.71","56.36","GILLAM A","5061022","2019-12-25 06:00","2019","12","25","06:00","-10.4","","-11.7","","90","","","","20","","4","","0.4","","100.16","","","","-13","","Freezing Fog"
"-94.71","56.36","GILLAM A","5061022","2019-12-25 07:00","2019","12","25","07:00","-10.7","","-12.0","","90","","","","20","","5","","1.0","","100.16","","","","-14","","Fog"
"-94.71","56.36","GILLAM A","5061022","2019-12-25 08:00","2019","12","25","08:00","-11.2","","-12.6","","89","","","","18","","5","","0.6","","100.17","","","","-14","","Freezing Fog"
"-94.71","56.36","GILLAM A","5061022","2019-12-25 09:00","2019","12","25","09:00","-12.4","","-13.9","","89","","","","19","","8","","24.1","","100.19","","","","-17","","Mostly Cloudy"
"-94.71","56.36","GILLAM A","5061022","2019-12-25 10:00","2019","12","25","10:00","-13.8","","-15.4","","88","","","","18","","8","","24.1","","100.18","","","","-19","","NA"
"-94.71","56.36","GILLAM A","5061022","2019-12-25 11:00","2019","12","25","11:00","-13.6","","-15.2","","88","","","","20","","8","","24.1","","100.19","","","","-19","","NA"
"-94.71","56.36","GILLAM A","5061022","2019-12-25 12:00","2019","12","25","12:00","-12.7","","-14.2","","88","","","","22","","11","","24.1","","100.20","","","","-19","","Mostly Cloudy"
"-94.71","56.36","GILLAM A","5061022","2019-12-25 13:00","2019","12","25","13:00","-12.2","","-13.8","","89","","","","22","","13","","24.1","","100.20","","","","-19","","NA"
"-94.71","56.36","GILLAM A","5061022","2019-12-25 14:00","2019","12","25","14:00","-10.7","","-12.0","","90","","","","25","","11","","16.1","","100.16","","","","-16","","Snow"
"-94.71","56.36","GILLAM A","5061022","2019-12-25 15:00","2019","12","25","15:00","-10.3","","-11.6","","90","","","","19","","7","","22.5","","100.13","","","","-14","","Snow"
"-94.71","56.36","GILLAM A","5061022","2019-12-25 16:00","2019","12","25","16:00","-10.1","","-11.4","","91","","","","17","","7","","24.1","","100.12","","","","-14","","Snow"
"-94.71","56.36","GILLAM A","5061022","2019-12-25 17:00","2019","12","25","17:00","-10.2","","-11.4","","91","","","","15","","3","","24.1","","100.08","","","","-12","","Snow"
"-94.71","56.36","GILLAM A","5061022","2019-12-25 18:00","2019","12","25","18:00","-10.0","","-11.3","","91","","","","12","","6","","24.1","","100.04","","","","-14","","Snow"
"-94.71","56.36","GILLAM A","5061022","2019-12-25 19:00","2019","12","25","19:00","-9.7","","-10.9","","91","","","","14","","9","","24.1","","99.99","","","","-15","","Snow"
"-94.71","56.36","GILLAM A","5061022","2019-12-25 20:00","2019","12","25","20:00","-9.3","","-10.5","","91","","","","14","","8","","24.1","","99.93","","","","-14","","Snow"
"-94.71","56.36","GILLAM A","5061022","2019-12-25 21:00","2019","12","25","21:00","-9.4","","-10.6","","91","","","","14","","7","","24.1","","99.87","","","","-13","","Snow"
"-94.71","56.36","GILLAM A","5061022","2019-12-25 22:00","2019","12","25","22:00","-9.4","","-10.6","","91","","","","15","","10","","24.1","","99.83","","","","-15","","Snow"
"-94.71","56.36","GILLAM A","5061022","2019-12-25 23:00","2019","12","25","23:00","-9.3","","-10.4","","91","","","","19","","6","","24.1","","99.80","","","","-13","","Snow"
"-94.71","56.36","GILLAM A","5061022","2019-12-26 00:00","2019","12","26","00:00","-9.1","","-10.3","","91","","","","15","","5","","24.1","","99.76","","","","-12","","Snow"
"-94.71","56.36","GILLAM A","5061022","2019-12-26 01:00","2019","12","26","01:00","-9.0","","-10.2","","91","","","","36","","1","","19.3","","99.70","","","","-10","","Snow"
"-94.71","56.36","GILLAM A","5061022","2019-12-26 02:00","2019","12","26","02:00","-8.8","","-10.0","","92","","","","36","","1","","20.9","","99.64","","","","-9","","Snow"
"-94.71","56.36","GILLAM A","5061022","2019-12-26 03:00","2019","12","26","03:00","-8.5","","-9.6","","92","","","","36","","1","","19.3","","99.58","","","","-9","","Snow"
"-94.71","56.36","GILLAM A","5061022","2019-12-26 04:00","2019","12","26","04:00","-8.4","","-9.4","","92","","","","36","","1","","20.9","","99.51","","","","-9","","Snow"
"-94.71","56.36","GILLAM A","5061022","2019-12-26 05:00","2019","12","26","05:00","-8.1","","-9.2","","92","","","","13","","5","","19.3","","99.43","","","","-11","","Snow"
"-94.71","56.36","GILLAM A","5061022","2019-12-26 06:00","2019","12","26","06:00","-7.5","","-8.5","","93","","","","14","","7","","19.3","","99.38","","","","-11","","Snow"
"-94.71","56.36","GILLAM A","5061022","2019-12-26 07:00","2019","12","26","07:00","-7.4","","-8.3","","93","","","","15","","7","","20.9","","99.34","","","","-11","","Snow"
"-94.71","56.36","GILLAM A","5061022","2019-12-26 08:00","2019","12","26","08:00","-7.2","","-8.1","","93","","","","17","","6","","24.1","","99.30","","","","-10","","Snow"
"-94.71","56.36","GILLAM A","5061022","2019-12-26 09:00","2019","12","26","09:00","-7.1","","-8.0","","93","","","","18","","5","","24.1","","99.27","","","","-10","","Cloudy"
"-94.71","56.36","GILLAM A","5061022","2019-12-26 10:00","2019","12","26","10:00","-6.9","","-7.8","","93","","","","17","","5","","24.1","","99.27","","","","-9","","NA"
"-94.71","56.36","GILLAM A","5061022","2019-12-26 11:00","2019","12","26","11:00","-6.7","","-7.5","","93","","","","15","","7","","24.1","","99.20","","","","-10","","NA"
"-94.71","56.36","GILLAM A","5061022","2019-12-26 12:00","2019","12","26","12:00","-6.3","","-7.2","","94","","","","16","","6","","24.1","","99.12","","","","-9","","Cloudy"
"-94.71","56.36","GILLAM A","5061022","2019-12-26 13:00","2019","12","26","13:00","-6.0","","-6.8","","94","","","","16","","5","","24.1","","99.03","","","","-8","","NA"
"-94.71","56.36","GILLAM A","5061022","2019-12-26 14:00","2019","12","26","14:00","-5.9","","-6.7","","94","","","","14","","5","","24.1","","98.97","","","","-8","","NA"
"-94.71","56.36","GILLAM A","5061022","2019-12-26 15:00","2019","12","26","15:00","-5.9","","-6.7","","94","","","","22","","7","","24.1","","98.94","","","","-9","","Cloudy"
"-94.71","56.36","GILLAM A","5061022","2019-12-26 16:00","2019","12","26","16:00","-5.8","","-6.6","","94","","","","24","","7","","3.2","","98.93","","","","-9","","Snow Grains"
"-94.71","56.36","GILLAM A","5061022","2019-12-26 17:00","2019","12","26","17:00","-6.5","","-7.3","","94","","","","26","","5","","22.5","","98.92","","","","-9","","Snow Grains"
"-94.71","56.36","GILLAM A","5061022","2019-12-26 18:00","2019","12","26","18:00","-6.6","","-7.5","","93","","","","30","","11","","24.1","","98.89","","","","-12","","Snow Grains"
"-94.71","56.36","GILLAM A","5061022","2019-12-26 19:00","2019","12","26","19:00","-7.5","","-8.5","","93","","","","27","","12","","24.1","","98.88","","","","-13","","Snow Grains"
"-94.71","56.36","GILLAM A","5061022","2019-12-26 20:00","2019","12","26","20:00","-7.9","","-8.9","","92","","","","28","","12","","24.1","","98.85","","","","-13","","NA"
"-94.71","56.36","GILLAM A","5061022","2019-12-26 21:00","2019","12","26","21:00","-8.2","","-9.2","","92","","","","27","","14","","24.1","","98.82","","","","-14","","Cloudy"
"-94.71","56.36","GILLAM A","5061022","2019-12-26 22:00","2019","12","26","22:00","-8.7","","-9.8","","92","","","","27","","14","","22.5","","98.79","","","","-15","","Snow"
"-94.71","56.36","GILLAM A","5061022","2019-12-26 23:00","2019","12","26","23:00","-8.8","","-9.9","","92","","","","26","","9","","24.1","","98.77","","","","-13","","Snow"
"-94.71","56.36","GILLAM A","5061022","2019-12-27 00:00","2019","12","27","00:00","-8.9","","-10.0","","92","","","","25","","8","","19.3","","98.72","","","","-13","","Snow"
"-94.71","56.36","GILLAM A","5061022","2019-12-27 01:00","2019","12","27","01:00","-8.7","","-9.8","","92","","","","24","","7","","16.1","","98.67","","","","-13","","Snow"
"-94.71","56.36","GILLAM A","5061022","2019-12-27 02:00","2019","12","27","02:00","-8.5","","-9.6","","92","","","","24","","8","","19.3","","98.63","","","","-13","","Snow"
"-94.71","56.36","GILLAM A","5061022","2019-12-27 03:00","2019","12","27","03:00","-8.5","","-9.6","","92","","","","23","","5","","19.3","","98.62","","","","-11","","Snow"
"-94.71","56.36","GILLAM A","5061022","2019-12-27 04:00","2019","12","27","04:00","-8.7","","-9.8","","92","","","","24","","6","","12.9","","98.62","","","","-12","","Snow"
"-94.71","56.36","GILLAM A","5061022","2019-12-27 05:00","2019","12","27","05:00","-8.8","","-9.9","","92","","","","21","","4","","17.7","","98.58","","","","-11","","Snow"
"-94.71","56.36","GILLAM A","5061022","2019-12-27 06:00","2019","12","27","06:00","-8.8","","-9.9","","92","","","","18","","6","","20.9","","98.56","","","","-12","","Snow"
"-94.71","56.36","GILLAM A","5061022","2019-12-27 07:00","2019","12","27","07:00","-8.8","","-9.8","","92","","","","21","","6","","20.9","","98.55","","","","-12","","Snow"
"-94.71","56.36","GILLAM A","5061022","2019-12-27 08:00","2019","12","27","08:00","-8.5","","-9.6","","92","","","","20","","4","","24.1","","98.54","","","","-11","","Snow"
"-94.71","56.36","GILLAM A","5061022","2019-12-27 09:00","2019","12","27","09:00","-8.4","","-9.5","","92","","","","19","","4","","24.1","","98.54","","","","-11","","Snow"
"-94.71","56.36","GILLAM A","5061022","2019-12-27 10:00","2019","12","27","10:00","-8.2","","-9.3","","92","","","","18","","4","","24.1","","98.53","","","","-10","","Snow"
"-94.71","56.36","GILLAM A","5061022","2019-12-27 11:00","2019","12","27","11:00","-8.0","","-9.0","","92","","","","19","","3","","19.3","","98.52","","","","-10","","Snow"
"-94.71","56.36","GILLAM A","5061022","2019-12-27 12:00","2019","12","27","12:00","-7.5","","-8.5","","92","","","","24","","3","","1.6","","98.46","","","","-9","","Snow"
"-94.71","56.36","GILLAM A","5061022","2019-12-27 13:00","2019","12","27","13:00","-7.8","","-8.8","","93","","","","36","","2","","4.0","","98.44","","","","-9","","Snow"
"-94.71","56.36","GILLAM A","5061022","2019-12-27 14:00","2019","12","27","14:00","-7.8","","-8.8","","92","","","","36","","2","","20.9","","98.47","","","","-9","","Snow"
"-94.71","56.36","GILLAM A","5061022","2019-12-27 15:00","2019","12","27","15:00","-8.0","","-9.1","","92","","","","29","","5","","16.1","","98.52","","","","-11","","Snow"
"-94.71","56.36","GILLAM A","5061022","2019-12-27 16:00","2019","12","27","16:00","-8.6","","-9.7","","92","","","","31","","7","","16.1","","98.59","","","","-12","","Snow"
"-94.71","56.36","GILLAM A","5061022","2019-12-27 17:00","2019","12","27","17:00","-8.6","","-9.7","","92","","","","30","","7","","3.2","","98.68","","","","-12","","Snow"
"-94.71","56.36","GILLAM A","5061022","2019-12-27 18:00","2019","12","27","18:00","-9.6","","-10.8","","91","","","","30","","7","","4.0","","98.74","","","","-14","","Snow"
"-94.71","56.36","GILLAM A","5061022","2019-12-27 19:00","2019","12","27","19:00","-9.3","","-10.4","","92","","","","30","","10","","4.0","","98.79","","","","-14","","Snow"
"-94.71","56.36","GILLAM A","5061022","2019-12-27 20:00","2019","12","27","20:00","-9.7","","-10.9","","91","","","","28","","9","","12.9","","98.84","","","","-15","","Snow"
"-94.71","56.36","GILLAM A","5061022","2019-12-27 21:00","2019","12","27","21:00","-9.9","","-11.2","","91","","","","29","","11","","14.5","","98.93","","","","-15","","Snow"
"-94.71","56.36","GILLAM A","5061022","2019-12-27 22:00","2019","12","27","22:00","-10.3","","-11.6","","90","","","","28","","9","","14.5","","98.99","","","","-15","","Snow"
"-94.71","56.36","GILLAM A","5061022","2019-12-27 23:00","2019","12","27","23:00","-10.5","","-11.8","","90","","","","28","","10","","19.3","","99.10","","","","-16","","Snow"
"-94.71","56.36","GILLAM A","5061022","2019-12-28 00:00","2019","12","28","00:00","-10.8","","-12.2","","90","","","","28","","10","","22.5","","99.13","","","","-16","","Snow"
"-94.71","56.36","GILLAM A","5061022","2019-12-28 01:00","2019","12","28","01:00","-12.2","","-13.7","","89","","","","28","","9","","22.5","","99.23","","","","-17","","Snow"
"-94.71","56.36","GILLAM A","5061022","2019-12-28 02:00","2019","12","28","02:00","-12.5","","-14.0","","89","","","","28","","11","","22.5","","99.34","","","","-19","","Snow"
"-94.71","56.36","GILLAM A","5061022","2019-12-28 03:00","2019","12","28","03:00","-12.7","","-14.2","","89","","","","27","","14","","24.1","","99.47","","","","-20","","Snow"
"-94.71","56.36","GILLAM A","5061022","2019-12-28 04:00","2019","12","28","04:00","-12.3","","-13.8","","89","","","","28","","11","","24.1","","99.58","","","","-18","","Snow"
"-94.71","56.36","GILLAM A","5061022","2019-12-28 05:00","2019","12","28","05:00","-12.4","","-13.9","","89","","","","28","","9","","22.5","","99.68","","","","-18","","Snow"
"-94.71","56.36","GILLAM A","5061022","2019-12-28 06:00","2019","12","28","06:00","-12.8","","-14.3","","89","","","","26","","11","","24.1","","99.77","","","","-19","","Snow"
"-94.71","56.36","GILLAM A","5061022","2019-12-28 07:00","2019","12","28","07:00","-14.3","","-16.0","","87","","","","26","","5","","24.1","","99.81","","","","-18","","Snow"
"-94.71","56.36","GILLAM A","5061022","2019-12-28 08:00","2019","12","28","08:00","-16.2","","-18.0","","87","","","","25","","11","","24.1","","99.88","","","","-23","","NA"
"-94.71","56.36","GILLAM A","5061022","2019-12-28 09:00","2019","12","28","09:00","-16.1","","-17.9","","86","","","","28","","17","","24.1","","100.00","","","","-25","","Clear"
"-94.71","56.36","GILLAM A","5061022","2019-12-28 10:00","2019","12","28","10:00","-18.2","","-20.2","","84","","","","28","","14","","24.1","","100.11","","","","-27","","NA"
"-94.71","56.36","GILLAM A","5061022","2019-12-28 11:00","2019","12","28","11:00","-17.7","","-19.8","","84","","","","29","","12","","24.1","","100.14","","","","-25","","NA"
"-94.71","56.36","GILLAM A","5061022","2019-12-28 12:00","2019","12","28","12:00","-16.9","","-18.8","","85","","","","27","","13","","24.1","","100.23","","","","-25","","Mainly Clear"
"-94.71","56.36","GILLAM A","5061022","2019-12-28 13:00","2019","12","28","13:00","-17.6","","-19.7","","84","","","","29","","11","","24.1","","100.32","","","","-25","","NA"
"-94.71","56.36","GILLAM A","5061022","2019-12-28 14:00","2019","12","28","14:00","-17.6","","-19.6","","84","","","","29","","9","","24.1","","100.35","","","","-24","","NA"
"-94.71","56.36","GILLAM A","5061022","2019-12-28 15:00","2019","12","28","15:00","-16.8","","-18.7","","85","","","","27","","7","","24.1","","100.37","","","","-22","","Mainly Clear"
"-94.71","56.36","GILLAM A","5061022","2019-12-28 16:00","2019","12","28","16:00","-17.5","","-19.5","","85","","","","25","","4","","24.1","","100.41","","","","-21","","NA"
"-94.71","56.36","GILLAM A","5061022","2019-12-28 17:00","2019","12","28","17:00","-18.6","","-20.6","","85","","","","24","","6","","24.1","","100.51","","","","-23","","NA"
"-94.71","56.36","GILLAM A","5061022","2019-12-28 18:00","2019","12","28","18:00","-18.5","","-20.6","","84","","","","27","","7","","24.1","","100.57","","","","-24","","Mainly Clear"
"-94.71","56.36","GILLAM A","5061022","2019-12-28 19:00","2019","12","28","19:00","-18.9","","-21.0","","83","","","","25","","8","","24.1","","100.61","","","","-25","","NA"
"-94.71","56.36","GILLAM A","5061022","2019-12-28 20:00","2019","12","28","20:00","-19.7","","-21.9","","83","","","","23","","9","","24.1","","100.62","","","","-26","","NA"
"-94.71","56.36","GILLAM A","5061022","2019-12-28 21:00","2019","12","28","21:00","-20.6","","-22.8","","83","","","","25","","4","","24.1","","100.62","","","","-24","","Clear"
"-94.71","56.36","GILLAM A","5061022","2019-12-28 22:00","2019","12","28","22:00","-20.8","","-23.0","","83","","","","22","","10","","24.1","","100.65","","","","-28","","NA"
"-94.71","56.36","GILLAM A","5061022","2019-12-28 23:00","2019","12","28","23:00","-20.9","","-23.2","","82","","","","23","","9","","24.1","","100.67","","","","-28","","NA"
"-94.71","56.36","GILLAM A","5061022","2019-12-29 00:00","2019","12","29","00:00","-21.6","","-24.0","","81","","","","31","","8","","24.1","","100.70","","","","-28","","Cloudy"
"-94.71","56.36","GILLAM A","5061022","2019-12-29 01:00","2019","12","29","01:00","-20.1","","-22.3","","83","","","","29","","7","","0.2","","100.72","","","","-26","","Freezing Fog"
"-94.71","56.36","GILLAM A","5061022","2019-12-29 02:00","2019","12","29","02:00","-18.9","","-21.0","","84","","","","26","","3","","0.4","","100.70","","","","-21","","Freezing Fog"
"-94.71","56.36","GILLAM A","5061022","2019-12-29 03:00","2019","12","29","03:00","-18.4","","-20.5","","84","","","","36","","3","","0.6","","100.71","","","","-21","","Freezing Fog"
"-94.71","56.36","GILLAM A","5061022","2019-12-29 04:00","2019","12","29","04:00","-17.3","","-19.3","","85","","","","34","","3","","0.4","","100.74","","","","-20","","Freezing Fog"
"-94.71","56.36","GILLAM A","5061022","2019-12-29 05:00","2019","12","29","05:00","-17.6","","-19.6","","85","","","","16","","5","","8.1","","100.70","","","","-22","","Fog"
"-94.71","56.36","GILLAM A","5061022","2019-12-29 06:00","2019","12","29","06:00","-16.7","","-18.6","","85","","","","36","","2","","24.1","","100.68","","","","-18","","Cloudy"
"-94.71","56.36","GILLAM A","5061022","2019-12-29 07:00","2019","12","29","07:00","-14.9","","-16.6","","87","","","","20","","10","","24.1","","100.63","","","","-21","","NA"
"-94.71","56.36","GILLAM A","5061022","2019-12-29 08:00","2019","12","29","08:00","-14.5","","-16.3","","87","","","","20","","14","","22.5","","100.57","","","","-22","","Snow"
"-94.71","56.36","GILLAM A","5061022","2019-12-29 09:00","2019","12","29","09:00","-14.5","","-16.2","","87","","","","23","","8","","17.7","","100.55","","","","-20","","Snow"
"-94.71","56.36","GILLAM A","5061022","2019-12-29 10:00","2019","12","29","10:00","-14.3","","-16.0","","87","","","","22","","12","","14.5","","100.54","","","","-21","","Snow"
"-94.71","56.36","GILLAM A","5061022","2019-12-29 11:00","2019","12","29","11:00","-13.7","","-15.3","","88","","","","23","","14","","17.7","","100.54","","","","-21","","Snow"
"-94.71","56.36","GILLAM A","5061022","2019-12-29 12:00","2019","12","29","12:00","-13.4","","-15.1","","88","","","","21","","17","","24.1","","100.45","","","","-21","","Snow"
"-94.71","56.36","GILLAM A","5061022","2019-12-29 13:00","2019","12","29","13:00","-13.4","","-15.0","","88","","","","22","","10","","16.1","","100.39","","","","-19","","Snow"
"-94.71","56.36","GILLAM A","5061022","2019-12-29 14:00","2019","12","29","14:00","-13.1","","-14.7","","88","","","","22","","15","","19.3","","100.32","","","","-21","","Snow"
"-94.71","56.36","GILLAM A","5061022","2019-12-29 15:00","2019","12","29","15:00","-13.2","","-14.8","","88","","","","21","","9","","24.1","","100.30","","","","-19","","Snow"
"-94.71","56.36","GILLAM A","5061022","2019-12-29 16:00","2019","12","29","16:00","-13.1","","-14.7","","88","","","","23","","11","","20.9","","100.33","","","","-19","","Snow"
"-94.71","56.36","GILLAM A","5061022","2019-12-29 17:00","2019","12","29","17:00","-13.4","","-15.0","","88","","","","23","","12","","17.7","","100.28","","","","-20","","Snow"
"-94.71","56.36","GILLAM A","5061022","2019-12-29 18:00","2019","12","29","18:00","-13.5","","-15.1","","88","","","","21","","11","","22.5","","100.28","","","","-20","","Snow"
"-94.71","56.36","GILLAM A","5061022","2019-12-29 19:00","2019","12","29","19:00","-13.5","","-15.1","","88","","","","21","","12","","24.1","","100.21","","","","-20","","Snow"
"-94.71","56.36","GILLAM A","5061022","2019-12-29 20:00","2019","12","29","20:00","-13.4","","-15.0","","88","","","","22","","10","","19.3","","100.17","","","","-19","","Snow"
"-94.71","56.36","GILLAM A","5061022","2019-12-29 21:00","2019","12","29","21:00","-13.9","","-15.5","","87","","","","22","","12","","16.1","","100.12","","","","-21","","Snow"
"-94.71","56.36","GILLAM A","5061022","2019-12-29 22:00","2019","12","29","22:00","-14.4","","-16.1","","87","","","","20","","7","","22.5","","100.05","","","","-19","","Snow"
"-94.71","56.36","GILLAM A","5061022","2019-12-29 23:00","2019","12","29","23:00","-14.6","","-16.2","","87","","","","25","","12","","22.5","","100.08","","","","-21","","Snow"
"-94.71","56.36","GILLAM A","5061022","2019-12-30 00:00","2019","12","30","00:00","-14.9","","-16.7","","87","","","","26","","10","","24.1","","100.07","","","","-21","","Snow"
"-94.71","56.36","GILLAM A","5061022","2019-12-30 01:00","2019","12","30","01:00","-15.6","","-17.4","","86","","","","23","","9","","22.5","","100.03","","","","-22","","Snow"
"-94.71","56.36","GILLAM A","5061022","2019-12-30 02:00","2019","12","30","02:00","-16.3","","-18.2","","85","","","","21","","5","","20.9","","100.05","","","","-20","","Snow"
"-94.71","56.36","GILLAM A","5061022","2019-12-30 03:00","2019","12","30","03:00","-17.3","","-19.4","","84","","","","28","","7","","22.5","","100.06","","","","-23","","Snow"
"-94.71","56.36","GILLAM A","5061022","2019-12-30 04:00","2019","12","30","04:00","-16.9","","-18.9","","85","","","","24","","6","","22.5","","100.09","","","","-21","","Snow"
"-94.71","56.36","GILLAM A","5061022","2019-12-30 05:00","2019","12","30","05:00","-16.4","","-18.2","","86","","","","22","","6","","24.1","","100.07","","","","-21","","Snow"
"-94.71","56.36","GILLAM A","5061022","2019-12-30 06:00","2019","12","30","06:00","-15.4","","-17.2","","86","","","","32","","7","","24.1","","100.08","","","","-20","","Snow"
"-94.71","56.36","GILLAM A","5061022","2019-12-30 07:00","2019","12","30","07:00","-14.7","","-16.4","","87","","","","35","","6","","24.1","","100.07","","","","-19","","Snow"
"-94.71","56.36","GILLAM A","5061022","2019-12-30 08:00","2019","12","30","08:00","-13.4","","-15.0","","88","","","","35","","9","","24.1","","100.09","","","","-19","","Snow"
"-94.71","56.36","GILLAM A","5061022","2019-12-30 09:00","2019","12","30","09:00","-12.2","","-13.7","","89","","","","4","","13","","24.1","","100.07","","","","-19","","Snow"
"-94.71","56.36","GILLAM A","5061022","2019-12-30 10:00","2019","12","30","10:00","-11.5","","-12.9","","89","","","","3","","16","","24.1","","100.14","","","","-19","","Snow"
"-94.71","56.36","GILLAM A","5061022","2019-12-30 11:00","2019","12","30","11:00","-12.3","","-13.8","","89","","","","3","","23","","3.6","","100.27","","","","-21","","Snow"
"-94.71","56.36","GILLAM A","5061022","2019-12-30 12:00","2019","12","30","12:00","-13.7","","-15.3","","87","","","","3","","26","","9.7","","100.28","","","","-24","","Snow"
"-94.71","56.36","GILLAM A","5061022","2019-12-30 13:00","2019","12","30","13:00","-14.5","","-16.2","","87","","","","3","","17","","9.7","","100.24","","","","-23","","Snow"
"-94.71","56.36","GILLAM A","5061022","2019-12-30 14:00","2019","12","30","14:00","-14.6","","-16.4","","87","","","","2","","21","","11.3","","100.23","","","","-24","","Snow"
"-94.71","56.36","GILLAM A","5061022","2019-12-30 15:00","2019","12","30","15:00","-15.0","","-16.7","","87","","","","2","","17","","9.7","","100.23","","","","-23","","Snow"
"-94.71","56.36","GILLAM A","5061022","2019-12-30 16:00","2019","12","30","16:00","-15.3","","-17.1","","86","","","","3","","13","","16.1","","100.24","","","","-23","","Snow"
"-94.71","56.36","GILLAM A","5061022","2019-12-30 17:00","2019","12","30","17:00","-15.9","","-17.8","","86","","","","3","","16","","16.1","","100.25","","","","-24","","Snow"
"-94.71","56.36","GILLAM A","5061022","2019-12-30 18:00","2019","12","30","18:00","-16.3","","-18.2","","86","","","","1","","18","","19.3","","100.24","","","","-25","","Snow"
"-94.71","56.36","GILLAM A","5061022","2019-12-30 19:00","2019","12","30","19:00","-16.6","","-18.4","","86","","","","2","","14","","24.1","","100.18","","","","-25","","Snow"
"-94.71","56.36","GILLAM A","5061022","2019-12-30 20:00","2019","12","30","20:00"
"-94.71","56.36","GILLAM A","5061022","2019-12-30 21:00","2019","12","30","21:00"
"-94.71","56.36","GILLAM A","5061022","2019-12-30 22:00","2019","12","30","22:00"
"-94.71","56.36","GILLAM A","5061022","2019-12-30 23:00","2019","12","30","23:00"
"-94.71","56.36","GILLAM A","5061022","2019-12-31 00:00","2019","12","31","00:00"
"-94.71","56.36","GILLAM A","5061022","2019-12-31 01:00","2019","12","31","01:00"
"-94.71","56.36","GILLAM A","5061022","2019-12-31 02:00","2019","12","31","02:00"
"-94.71","56.36","GILLAM A","5061022","2019-12-31 03:00","2019","12","31","03:00"
"-94.71","56.36","GILLAM A","5061022","2019-12-31 04:00","2019","12","31","04:00"
"-94.71","56.36","GILLAM A","5061022","2019-12-31 05:00","2019","12","31","05:00"
"-94.71","56.36","GILLAM A","5061022","2019-12-31 06:00","2019","12","31","06:00"
"-94.71","56.36","GILLAM A","5061022","2019-12-31 07:00","2019","12","31","07:00"
"-94.71","56.36","GILLAM A","5061022","2019-12-31 08:00","2019","12","31","08:00","-16.8","","-18.8","","85","","","","12","","3","","8.1","","99.31","","","","-19","","Snow,Fog"
"-94.71","56.36","GILLAM A","5061022","2019-12-31 09:00","2019","12","31","09:00","-16.7","","-18.6","","85","","","","16","","4","","17.7","","99.24","","","","-20","","Snow"
"-94.71","56.36","GILLAM A","5061022","2019-12-31 10:00","2019","12","31","10:00","-16.2","","-18.1","","86","","","","14","","9","","16.1","","99.16","","","","-22","","Snow"
"-94.71","56.36","GILLAM A","5061022","2019-12-31 11:00","2019","12","31","11:00","-15.6","","-17.4","","86","","","","15","","5","","22.5","","99.07","","","","-19","","Snow"
"-94.71","56.36","GILLAM A","5061022","2019-12-31 12:00","2019","12","31","12:00","-15.0","","-16.8","","86","","","","19","","5","","24.1","","98.95","","","","-19","","Snow"
"-94.71","56.36","GILLAM A","5061022","2019-12-31 13:00","2019","12","31","13:00","-14.3","","-16.0","","87","","","","19","","9","","24.1","","98.86","","","","-20","","Snow"
"-94.71","56.36","GILLAM A","5061022","2019-12-31 14:00","2019","12","31","14:00","-13.6","","-15.3","","88","","","","14","","10","","24.1","","98.76","","","","-20","","Snow"
"-94.71","56.36","GILLAM A","5061022","2019-12-31 15:00","2019","12","31","15:00","-13.6","","-15.2","","88","","","","15","","5","","16.1","","98.70","","","","-17","","Snow"
"-94.71","56.36","GILLAM A","5061022","2019-12-31 16:00","2019","12","31","16:00","-13.5","","-15.1","","88","","","","14","","8","","19.3","","98.66","","","","-19","","Snow"
"-94.71","56.36","GILLAM A","5061022","2019-12-31 17:00","2019","12","31","17:00","-13.6","","-15.2","","88","","","","14","","10","","16.1","","98.59","","","","-20","","Snow"
"-94.71","56.36","GILLAM A","5061022","2019-12-31 18:00","2019","12","31","18:00","-13.6","","-15.2","","88","","","","17","","6","","17.7","","98.50","","","","-18","","Snow"
"-94.71","56.36","GILLAM A","5061022","2019-12-31 19:00","2019","12","31","19:00","-13.5","","-15.1","","88","","","","16","","8","","17.7","","98.37","","","","-19","","Snow"
"-94.71","56.36","GILLAM A","5061022","2019-12-31 20:00","2019","12","31","20:00"
"-94.71","56.36","GILLAM A","5061022","2019-12-31 21:00","2019","12","31","21:00"
"-94.71","56.36","GILLAM A","5061022","2019-12-31 22:00","2019","12","31","22:00"
"-94.71","56.36","GILLAM A","5061022","2019-12-31 23:00","2019","12","31","23:00"
