"Longitude (x)","Latitude (y)","Station Name","Climate ID","Date/Time (LST)","Year","Month","Day","Time (LST)","Temp (°C)","Temp Flag","Dew Point Temp (°C)","Dew Point Temp Flag","Rel Hum (%)","Rel Hum Flag","Precip. Amount (mm)","Precip. Amount Flag","Wind Dir (10s deg)","Wind Dir Flag","Wind Spd (km/h)","Wind Spd Flag","Visibility (km)","Visibility Flag","Stn Press (kPa)","Stn Press Flag","Hmdx","Hmdx Flag","Wind Chill","Wind Chill Flag","Weather"
"-94.71","56.36","GILLAM A","5061022","2019-05-01 00:00","2019","05","01","00:00","1.1","","-3.9","","69","","","","16","","14","","24.1","","100.74","","","","","","Clear"
"-94.71","56.36","GILLAM A","5061022","2019-05-01 01:00","2019","05","01","01:00","0.9","","-3.8","","71","","","","17","","12","","24.1","","100.72","","","","","","NA"
"-94.71","56.36","GILLAM A","5061022","2019-05-01 02:00","2019","05","01","02:00","-0.3","","-4.0","","76","","","","14","","10","","24.1","","100.72","","","","-4","","NA"
"-94.71","56.36","GILLAM A","5061022","2019-05-01 03:00","2019","05","01","03:00","-0.8","","-3.9","","79","","","","16","","10","","24.1","","100.73","","","","-4","","Clear"
"-94.71","56.36","GILLAM A","5061022","2019-05-01 04:00","2019","05","01","04:00","-1.0","","-3.8","","81","","","","15","","10","","24.1","","100.74","","","","-5","","NA"
"-94.71","56.36","GILLAM A","5061022","2019-05-01 05:00","2019","05","01","05:00","-1.1","","-3.6","","83","","","","16","","12","","24.1","","100.74","","","","-5","","NA"
"-94.71","56.36","GILLAM A","5061022","2019-05-01 06:00","2019","05","01","06:00","0.2","","-3.0","","79","","","","17","","11","","24.1","","100.74","","","","","","Mainly Clear"
"-94.71","56.36","GILLAM A","5061022","2019-05-01 07:00","2019","05","01","07:00","2.6","","-2.2","","70","","","","16","","11","","24.1","","100.73","","","","","","NA"
"-94.71","56.36","GILLAM A","5061022","2019-05-01 08:00","2019","05","01","08:00","5.1","","-2.2","","59","","","","13","","14","","24.1","","100.70","","","","","","NA"
"-94.71","56.36","GILLAM A","5061022","2019-05-01 09:00","2019","05","01","09:00","7.0","","-2.6","","50","","","","16","","19","","24.1","","100.67","","","","","","Clear"
"-94.71","56.36","GILLAM A","5061022","2019-05-01 10:00","2019","05","01","10:00","8.8","","-2.3","","46","","","","16","","16","","24.1","","100.63","","","","","","NA"
"-94.71","56.36","GILLAM A","5061022","2019-05-01 11:00","2019","05","01","11:00","8.8","","-3.1","","43","","","","17","","19","","24.1","","100.60","","","","","","NA"
"-94.71","56.36","GILLAM A","5061022","2019-05-01 12:00","2019","05","01","12:00","9.2","","-3.5","","41","","","","16","","21","","24.1","","100.54","","","","","","Mostly Cloudy"
"-94.71","56.36","GILLAM A","5061022","2019-05-01 13:00","2019","05","01","13:00","9.2","","-1.8","","46","","","","15","","16","","24.1","","100.52","","","","","","NA"
"-94.71","56.36","GILLAM A","5061022","2019-05-01 14:00","2019","05","01","14:00","9.3","","-2.7","","43","","","","15","","18","","24.1","","100.47","","","","","","NA"
"-94.71","56.36","GILLAM A","5061022","2019-05-01 15:00","2019","05","01","15:00","8.3","","-1.0","","52","","","","15","","20","","24.1","","100.45","","","","","","Mostly Cloudy"
"-94.71","56.36","GILLAM A","5061022","2019-05-01 16:00","2019","05","01","16:00","9.2","","-2.9","","42","","","","15","","23","","24.1","","100.43","","","","","","NA"
"-94.71","56.36","GILLAM A","5061022","2019-05-01 17:00","2019","05","01","17:00","8.7","","-2.5","","45","","","","16","","16","","24.1","","100.46","","","","","","NA"
"-94.71","56.36","GILLAM A","5061022","2019-05-01 18:00","2019","05","01","18:00","8.2","","-2.7","","46","","","","17","","22","","24.1","","100.45","","","","","","Mostly Cloudy"
"-94.71","56.36","GILLAM A","5061022","2019-05-01 19:00","2019","05","01","19:00","7.7","","-3.3","","46","","","","16","","22","","24.1","","100.45","","","","","","NA"
"-94.71","56.36","GILLAM A","5061022","2019-05-01 20:00","2019","05","01","20:00","6.9","","-2.2","","52","","","","15","","13","","24.1","","100.48","","","","","","NA"
"-94.71","56.36","GILLAM A","5061022","2019-05-01 21:00","2019","05","01","21:00","6.5","","-2.6","","52","","","","14","","9","","24.1","","100.49","","","","","","Mostly Cloudy"
"-94.71","56.36","GILLAM A","5061022","2019-05-01 22:00","2019","05","01","22:00","5.4","","-3.1","","54","","","","13","","9","","24.1","","100.48","","","","","","NA"
"-94.71","56.36","GILLAM A","5061022","2019-05-01 23:00","2019","05","01","23:00","5.5","","-4.0","","50","","","","17","","9","","24.1","","100.48","","","","","","NA"
"-94.71","56.36","GILLAM A","5061022","2019-05-02 00:00","2019","05","02","00:00","3.6","","-4.7","","55","","","","14","","8","","24.1","","100.48","","","","","","Mostly Cloudy"
"-94.71","56.36","GILLAM A","5061022","2019-05-02 01:00","2019","05","02","01:00","2.9","","-5.0","","56","","","","13","","9","","24.1","","100.47","","","","","","NA"
"-94.71","56.36","GILLAM A","5061022","2019-05-02 02:00","2019","05","02","02:00","2.3","","-4.9","","59","","","","14","","7","","24.1","","100.46","","","","","","NA"
"-94.71","56.36","GILLAM A","5061022","2019-05-02 03:00","2019","05","02","03:00","0.5","","-5.0","","67","","","","13","","10","","24.1","","100.47","","","","","","Mainly Clear"
"-94.71","56.36","GILLAM A","5061022","2019-05-02 04:00","2019","05","02","04:00","-0.3","","-4.5","","73","","","","14","","9","","24.1","","100.46","","","","-3","","NA"
"-94.71","56.36","GILLAM A","5061022","2019-05-02 05:00","2019","05","02","05:00","0.5","","-3.0","","77","","","","13","","9","","24.1","","100.50","","","","","","NA"
"-94.71","56.36","GILLAM A","5061022","2019-05-02 06:00","2019","05","02","06:00","1.4","","-1.1","","83","","","","12","","8","","24.1","","100.52","","","","","","Mostly Cloudy"
"-94.71","56.36","GILLAM A","5061022","2019-05-02 07:00","2019","05","02","07:00","1.6","","-0.5","","86","","","","13","","9","","24.1","","100.54","","","","","","NA"
"-94.71","56.36","GILLAM A","5061022","2019-05-02 08:00","2019","05","02","08:00","2.2","","-0.8","","81","","","","15","","13","","24.1","","100.50","","","","","","NA"
"-94.71","56.36","GILLAM A","5061022","2019-05-02 09:00","2019","05","02","09:00","3.6","","-1.7","","68","","","","15","","16","","24.1","","100.46","","","","","","Mostly Cloudy"
"-94.71","56.36","GILLAM A","5061022","2019-05-02 10:00","2019","05","02","10:00","4.8","","-1.2","","65","","","","13","","16","","24.1","","100.41","","","","","","NA"
"-94.71","56.36","GILLAM A","5061022","2019-05-02 11:00","2019","05","02","11:00","6.2","","-0.9","","60","","","","15","","18","","24.1","","100.37","","","","","","NA"
"-94.71","56.36","GILLAM A","5061022","2019-05-02 12:00","2019","05","02","12:00","5.2","","-1.0","","64","","","","15","","18","","24.1","","100.37","","","","","","Mostly Cloudy"
"-94.71","56.36","GILLAM A","5061022","2019-05-02 13:00","2019","05","02","13:00","5.4","","-1.0","","63","","","","13","","14","","32.2","","100.37","","","","","","NA"
"-94.71","56.36","GILLAM A","5061022","2019-05-02 14:00","2019","05","02","14:00"
"-94.71","56.36","GILLAM A","5061022","2019-05-02 15:00","2019","05","02","15:00","5.0","","-1.4","","63","","","","14","","18","","24.1","","100.36","","","","","","Mostly Cloudy"
"-94.71","56.36","GILLAM A","5061022","2019-05-02 16:00","2019","05","02","16:00","5.8","","-1.4","","60","","","","12","","9","","24.1","","100.31","","","","","","NA"
"-94.71","56.36","GILLAM A","5061022","2019-05-02 17:00","2019","05","02","17:00","5.3","","-1.9","","59","","","","15","","14","","24.1","","100.31","","","","","","NA"
"-94.71","56.36","GILLAM A","5061022","2019-05-02 18:00","2019","05","02","18:00","4.9","","-1.4","","64","","","","12","","13","","24.1","","100.32","","","","","","Cloudy"
"-94.71","56.36","GILLAM A","5061022","2019-05-02 19:00","2019","05","02","19:00","4.4","","-2.0","","63","","","","13","","11","","24.1","","100.33","","","","","","NA"
"-94.71","56.36","GILLAM A","5061022","2019-05-02 20:00","2019","05","02","20:00","4.0","","-2.2","","64","","","","12","","13","","24.1","","100.34","","","","","","NA"
"-94.71","56.36","GILLAM A","5061022","2019-05-02 21:00","2019","05","02","21:00","3.4","","-2.4","","66","","","","12","","7","","24.1","","100.35","","","","","","Mostly Cloudy"
"-94.71","56.36","GILLAM A","5061022","2019-05-02 22:00","2019","05","02","22:00","2.9","","-2.6","","67","","","","12","","8","","24.1","","100.34","","","","","","NA"
"-94.71","56.36","GILLAM A","5061022","2019-05-02 23:00","2019","05","02","23:00","2.3","","-3.2","","67","","","","13","","10","","24.1","","100.37","","","","","","NA"
"-94.71","56.36","GILLAM A","5061022","2019-05-03 00:00","2019","05","03","00:00","0.8","","-3.9","","70","","","","13","","13","","24.1","","100.39","","","","","","Mainly Clear"
"-94.71","56.36","GILLAM A","5061022","2019-05-03 01:00","2019","05","03","01:00","-0.8","","-4.1","","78","","","","12","","11","","24.1","","100.40","","","","-5","","NA"
"-94.71","56.36","GILLAM A","5061022","2019-05-03 02:00","2019","05","03","02:00","-1.0","","-3.7","","81","","","","12","","10","","24.1","","100.36","","","","-5","","NA"
"-94.71","56.36","GILLAM A","5061022","2019-05-03 03:00","2019","05","03","03:00","-1.9","","-4.1","","85","","","","11","","7","","24.1","","100.35","","","","-5","","Mainly Clear"
"-94.71","56.36","GILLAM A","5061022","2019-05-03 04:00","2019","05","03","04:00","-2.4","","-4.5","","86","","","","12","","11","","24.1","","100.35","","","","-6","","NA"
"-94.71","56.36","GILLAM A","5061022","2019-05-03 05:00","2019","05","03","05:00","-2.5","","-4.8","","84","","","","12","","14","","24.1","","100.34","","","","-7","","NA"
"-94.71","56.36","GILLAM A","5061022","2019-05-03 06:00","2019","05","03","06:00","-2.3","","-4.7","","84","","","","11","","12","","24.1","","100.29","","","","-7","","Mostly Cloudy"
"-94.71","56.36","GILLAM A","5061022","2019-05-03 07:00","2019","05","03","07:00","-1.1","","-5.0","","75","","","","11","","16","","24.1","","100.30","","","","-6","","NA"
"-94.71","56.36","GILLAM A","5061022","2019-05-03 08:00","2019","05","03","08:00","0.6","","-5.5","","64","","","","13","","23","","24.1","","100.26","","","","","","NA"
"-94.71","56.36","GILLAM A","5061022","2019-05-03 09:00","2019","05","03","09:00","2.4","","-5.8","","55","","","","12","","17","","24.1","","100.19","","","","","","Mainly Clear"
"-94.71","56.36","GILLAM A","5061022","2019-05-03 10:00","2019","05","03","10:00","3.8","","-6.8","","46","","","","10","","16","","24.1","","100.13","","","","","","NA"
"-94.71","56.36","GILLAM A","5061022","2019-05-03 11:00","2019","05","03","11:00","4.3","","-7.2","","43","","","","12","","23","","24.1","","100.07","","","","","","NA"
"-94.71","56.36","GILLAM A","5061022","2019-05-03 12:00","2019","05","03","12:00","5.4","","-8.0","","37","","","","13","","25","","24.1","","99.98","","","","","","Mainly Clear"
"-94.71","56.36","GILLAM A","5061022","2019-05-03 13:00","2019","05","03","13:00","6.1","","-7.7","","37","","","","12","","25","","24.1","","99.91","","","","","","NA"
"-94.71","56.36","GILLAM A","5061022","2019-05-03 14:00","2019","05","03","14:00","7.0","","-7.0","","36","","","","12","","26","","24.1","","99.84","","","","","","NA"
"-94.71","56.36","GILLAM A","5061022","2019-05-03 15:00","2019","05","03","15:00","8.0","","-7.0","","34","","","","11","","21","","24.1","","99.79","","","","","","Mostly Cloudy"
"-94.71","56.36","GILLAM A","5061022","2019-05-03 16:00","2019","05","03","16:00","6.9","","-8.1","","33","","","","11","","27","","24.1","","99.75","","","","","","NA"
"-94.71","56.36","GILLAM A","5061022","2019-05-03 17:00","2019","05","03","17:00","6.6","","-7.7","","35","","","","12","","22","","24.1","","99.71","","","","","","NA"
"-94.71","56.36","GILLAM A","5061022","2019-05-03 18:00","2019","05","03","18:00","5.9","","-7.8","","37","","","","11","","23","","24.1","","99.69","","","","","","Mostly Cloudy"
"-94.71","56.36","GILLAM A","5061022","2019-05-03 19:00","2019","05","03","19:00","5.4","","-7.3","","39","","","","11","","17","","24.1","","99.69","","","","","","NA"
"-94.71","56.36","GILLAM A","5061022","2019-05-03 20:00","2019","05","03","20:00","4.8","","-7.5","","41","","","","11","","13","","24.1","","99.71","","","","","","NA"
"-94.71","56.36","GILLAM A","5061022","2019-05-03 21:00","2019","05","03","21:00","4.2","","-6.9","","44","","","","10","","10","","24.1","","99.73","","","","","","Mostly Cloudy"
"-94.71","56.36","GILLAM A","5061022","2019-05-03 22:00","2019","05","03","22:00","1.8","","-5.5","","59","","","","8","","18","","24.1","","99.70","","","","","","NA"
"-94.71","56.36","GILLAM A","5061022","2019-05-03 23:00","2019","05","03","23:00","0.9","","-6.1","","59","","","","9","","16","","24.1","","99.71","","","","","","NA"
"-94.71","56.36","GILLAM A","5061022","2019-05-04 00:00","2019","05","04","00:00","0.2","","-6.4","","61","","","","9","","14","","24.1","","99.70","","","","","","Cloudy"
"-94.71","56.36","GILLAM A","5061022","2019-05-04 01:00","2019","05","04","01:00","-0.6","","-6.1","","67","","","","8","","21","","16.1","","99.63","","","","-6","","Snow"
"-94.71","56.36","GILLAM A","5061022","2019-05-04 02:00","2019","05","04","02:00","-1.5","","-5.8","","72","","","","7","","21","","19.3","","99.54","","","","-7","","Snow"
"-94.71","56.36","GILLAM A","5061022","2019-05-04 03:00","2019","05","04","03:00","-1.9","","-6.7","","70","","","","7","","23","","19.3","","99.50","","","","-8","","Snow"
"-94.71","56.36","GILLAM A","5061022","2019-05-04 04:00","2019","05","04","04:00","-2.3","","-6.1","","76","","","","7","","22","","24.1","","99.46","","","","-8","","NA"
"-94.71","56.36","GILLAM A","5061022","2019-05-04 05:00","2019","05","04","05:00","-2.5","","-6.2","","76","","","","7","","17","","24.1","","99.41","","","","-8","","NA"
"-94.71","56.36","GILLAM A","5061022","2019-05-04 06:00","2019","05","04","06:00","-2.7","","-6.5","","75","","","","7","","26","","24.1","","99.36","","","","-10","","Mostly Cloudy"
"-94.71","56.36","GILLAM A","5061022","2019-05-04 07:00","2019","05","04","07:00","-2.5","","-7.6","","68","","","","7","","26","","24.1","","99.37","","","","-9","","NA"
"-94.71","56.36","GILLAM A","5061022","2019-05-04 08:00","2019","05","04","08:00","-2.0","","-8.6","","60","","","","6","","22","","24.1","","99.31","","","","-8","","NA"
"-94.71","56.36","GILLAM A","5061022","2019-05-04 09:00","2019","05","04","09:00","-0.8","","-9.4","","52","","","","7","","29","","24.1","","99.29","","","","-7","","Cloudy"
"-94.71","56.36","GILLAM A","5061022","2019-05-04 10:00","2019","05","04","10:00","0.0","","-8.2","","54","","","","6","","29","","24.1","","99.22","","","","-6","","NA"
"-94.71","56.36","GILLAM A","5061022","2019-05-04 11:00","2019","05","04","11:00","0.4","","-8.7","","51","","","","5","","35","","24.1","","99.14","","","","","","NA"
"-94.71","56.36","GILLAM A","5061022","2019-05-04 12:00","2019","05","04","12:00","2.2","","-8.5","","45","","","","6","","34","","24.1","","99.09","","","","","","Mostly Cloudy"
"-94.71","56.36","GILLAM A","5061022","2019-05-04 13:00","2019","05","04","13:00","1.4","","-6.7","","55","","","","6","","29","","24.1","","99.06","","","","","","NA"
"-94.71","56.36","GILLAM A","5061022","2019-05-04 14:00","2019","05","04","14:00","0.7","","-6.6","","58","","","","5","","36","","24.1","","99.08","","","","","","NA"
"-94.71","56.36","GILLAM A","5061022","2019-05-04 15:00","2019","05","04","15:00","-0.2","","-6.3","","63","","","","4","","43","","24.1","","99.13","","","","-8","","Mostly Cloudy"
"-94.71","56.36","GILLAM A","5061022","2019-05-04 16:00","2019","05","04","16:00","-1.4","","-5.5","","74","","","","4","","34","","24.1","","99.23","","","","-9","","NA"
"-94.71","56.36","GILLAM A","5061022","2019-05-04 17:00","2019","05","04","17:00","-2.6","","-5.5","","80","","","","4","","29","","24.1","","99.36","","","","-10","","NA"
"-94.71","56.36","GILLAM A","5061022","2019-05-04 18:00","2019","05","04","18:00","-3.2","","-5.9","","82","","","","4","","32","","24.1","","99.44","","","","-11","","Cloudy"
"-94.71","56.36","GILLAM A","5061022","2019-05-04 19:00","2019","05","04","19:00","-3.6","","-5.9","","84","","","","4","","35","","24.1","","99.46","","","","-12","","NA"
"-94.71","56.36","GILLAM A","5061022","2019-05-04 20:00","2019","05","04","20:00","-3.6","","-5.7","","85","","","","4","","31","","24.1","","99.49","","","","-11","","NA"
"-94.71","56.36","GILLAM A","5061022","2019-05-04 21:00","2019","05","04","21:00","-4.0","","-6.5","","83","","","","4","","33","","24.1","","99.55","","","","-12","","Cloudy"
"-94.71","56.36","GILLAM A","5061022","2019-05-04 22:00","2019","05","04","22:00","-4.0","","-6.4","","84","","","","3","","32","","16.1","","99.58","","","","-12","","Snow"
"-94.71","56.36","GILLAM A","5061022","2019-05-04 23:00","2019","05","04","23:00","-4.3","","-6.5","","85","","","","3","","40","","19.3","","99.62","","","","-13","","Snow"
"-94.71","56.36","GILLAM A","5061022","2019-05-05 00:00","2019","05","05","00:00","-4.7","","-6.1","","90","","","","3","","34","","12.9","","99.64","","","","-13","","Freezing Rain,Snow"
"-94.71","56.36","GILLAM A","5061022","2019-05-05 01:00","2019","05","05","01:00","-4.9","","-6.3","","90","","","","2","","34","","12.9","","99.66","","","","-13","","Freezing Rain,Snow"
"-94.71","56.36","GILLAM A","5061022","2019-05-05 02:00","2019","05","05","02:00","-4.8","","-6.7","","87","","","","2","","27","","16.1","","99.69","","","","-12","","Snow"
"-94.71","56.36","GILLAM A","5061022","2019-05-05 03:00","2019","05","05","03:00","-5.0","","-6.7","","88","","","","2","","32","","8.1","","99.73","","","","-13","","Snow,Blowing Snow"
"-94.71","56.36","GILLAM A","5061022","2019-05-05 04:00","2019","05","05","04:00","-5.5","","-6.8","","90","","","","1","","37","","6.4","","99.77","","","","-14","","Snow,Blowing Snow"
"-94.71","56.36","GILLAM A","5061022","2019-05-05 05:00","2019","05","05","05:00","-5.4","","-7.2","","87","","","","1","","28","","12.9","","99.81","","","","-13","","Snow,Blowing Snow"
"-94.71","56.36","GILLAM A","5061022","2019-05-05 06:00","2019","05","05","06:00","-5.6","","-7.2","","89","","","","2","","31","","12.9","","99.87","","","","-14","","Snow,Blowing Snow"
"-94.71","56.36","GILLAM A","5061022","2019-05-05 07:00","2019","05","05","07:00","-5.8","","-7.4","","88","","","","1","","30","","16.1","","99.91","","","","-14","","Snow,Blowing Snow"
"-94.71","56.36","GILLAM A","5061022","2019-05-05 08:00","2019","05","05","08:00","-5.9","","-7.9","","86","","","","1","","26","","14.5","","99.96","","","","-14","","Snow,Blowing Snow"
"-94.71","56.36","GILLAM A","5061022","2019-05-05 09:00","2019","05","05","09:00","-5.3","","-8.0","","82","","","","2","","26","","12.9","","99.99","","","","-13","","Snow,Blowing Snow"
"-94.71","56.36","GILLAM A","5061022","2019-05-05 10:00","2019","05","05","10:00","-4.8","","-7.5","","81","","","","1","","22","","6.4","","100.00","","","","-12","","Snow"
"-94.71","56.36","GILLAM A","5061022","2019-05-05 11:00","2019","05","05","11:00","-4.8","","-7.9","","79","","","","36","","28","","4.8","","100.04","","","","-12","","Snow"
"-94.71","56.36","GILLAM A","5061022","2019-05-05 12:00","2019","05","05","12:00","-3.9","","-8.2","","72","","","","2","","25","","8.1","","100.07","","","","-11","","Snow"
"-94.71","56.36","GILLAM A","5061022","2019-05-05 13:00","2019","05","05","13:00","-3.5","","-8.4","","69","","","","2","","25","","9.7","","100.08","","","","-10","","Snow"
"-94.71","56.36","GILLAM A","5061022","2019-05-05 14:00","2019","05","05","14:00","-3.4","","-8.3","","69","","","","1","","23","","9.7","","100.12","","","","-10","","Snow"
"-94.71","56.36","GILLAM A","5061022","2019-05-05 15:00","2019","05","05","15:00","-3.3","","-8.4","","68","","","","36","","21","","16.1","","100.17","","","","-10","","Snow"
"-94.71","56.36","GILLAM A","5061022","2019-05-05 16:00","2019","05","05","16:00","-3.5","","-8.8","","66","","","","36","","26","","16.1","","100.20","","","","-11","","Snow"
"-94.71","56.36","GILLAM A","5061022","2019-05-05 17:00","2019","05","05","17:00","-3.6","","-8.3","","70","","","","36","","25","","24.1","","100.24","","","","-11","","Snow"
"-94.71","56.36","GILLAM A","5061022","2019-05-05 18:00","2019","05","05","18:00","-4.0","","-9.8","","64","","","","2","","23","","19.3","","100.30","","","","-11","","Snow"
"-94.71","56.36","GILLAM A","5061022","2019-05-05 19:00","2019","05","05","19:00","-3.8","","-9.5","","65","","","","36","","19","","24.1","","100.31","","","","-10","","NA"
"-94.71","56.36","GILLAM A","5061022","2019-05-05 20:00","2019","05","05","20:00","-4.4","","-9.6","","67","","","","3","","18","","24.1","","100.33","","","","-10","","NA"
"-94.71","56.36","GILLAM A","5061022","2019-05-05 21:00","2019","05","05","21:00","-4.9","","-9.8","","69","","","","3","","9","","24.1","","100.35","","","","-9","","Mostly Cloudy"
"-94.71","56.36","GILLAM A","5061022","2019-05-05 22:00","2019","05","05","22:00","-5.3","","-9.9","","70","","","","4","","11","","24.1","","100.37","","","","-10","","NA"
"-94.71","56.36","GILLAM A","5061022","2019-05-05 23:00","2019","05","05","23:00","-5.8","","-9.8","","73","","","","3","","13","","24.1","","100.38","","","","-11","","NA"
"-94.71","56.36","GILLAM A","5061022","2019-05-06 00:00","2019","05","06","00:00","-6.5","","-10.1","","76","","","","4","","9","","24.1","","100.41","","","","-11","","Mostly Cloudy"
"-94.71","56.36","GILLAM A","5061022","2019-05-06 01:00","2019","05","06","01:00","-6.5","","-10.3","","75","","","","35","","17","","24.1","","100.42","","","","-13","","NA"
"-94.71","56.36","GILLAM A","5061022","2019-05-06 02:00","2019","05","06","02:00","-6.9","","-10.7","","74","","","","36","","21","","16.1","","100.45","","","","-14","","Snow"
"-94.71","56.36","GILLAM A","5061022","2019-05-06 03:00","2019","05","06","03:00","-6.8","","-10.1","","77","","","","36","","14","","16.1","","100.45","","","","-13","","Snow"
"-94.71","56.36","GILLAM A","5061022","2019-05-06 04:00","2019","05","06","04:00","-7.4","","-10.8","","77","","","","1","","13","","16.1","","100.48","","","","-13","","Snow"
"-94.71","56.36","GILLAM A","5061022","2019-05-06 05:00","2019","05","06","05:00","-7.1","","-10.3","","78","","","","33","","15","","16.1","","100.50","","","","-13","","Snow"
"-94.71","56.36","GILLAM A","5061022","2019-05-06 06:00","2019","05","06","06:00","-7.3","","-10.6","","78","","","","33","","13","","16.1","","100.55","","","","-13","","Snow"
"-94.71","56.36","GILLAM A","5061022","2019-05-06 07:00","2019","05","06","07:00","-6.9","","-10.1","","78","","","","1","","13","","16.1","","100.57","","","","-12","","Snow"
"-94.71","56.36","GILLAM A","5061022","2019-05-06 08:00","2019","05","06","08:00","-7.0","","-10.1","","79","","","","33","","17","","16.1","","100.60","","","","-13","","Snow"
"-94.71","56.36","GILLAM A","5061022","2019-05-06 09:00","2019","05","06","09:00","-6.3","","-10.2","","74","","","","32","","13","","14.5","","100.62","","","","-12","","Snow"
"-94.71","56.36","GILLAM A","5061022","2019-05-06 10:00","2019","05","06","10:00","-5.7","","-10.2","","71","","","","34","","12","","16.1","","100.64","","","","-11","","Snow"
"-94.71","56.36","GILLAM A","5061022","2019-05-06 11:00","2019","05","06","11:00","-4.8","","-10.0","","67","","","","29","","7","","19.3","","100.64","","","","-8","","NA"
"-94.71","56.36","GILLAM A","5061022","2019-05-06 12:00","2019","05","06","12:00","-2.4","","-9.1","","60","","","","28","","14","","24.1","","100.62","","","","-7","","Mostly Cloudy"
"-94.71","56.36","GILLAM A","5061022","2019-05-06 13:00","2019","05","06","13:00","-1.6","","-8.8","","58","","","","27","","13","","24.1","","100.57","","","","-6","","NA"
"-94.71","56.36","GILLAM A","5061022","2019-05-06 14:00","2019","05","06","14:00","0.0","","-8.2","","54","","","","27","","9","","24.1","","100.55","","","","-3","","NA"
"-94.71","56.36","GILLAM A","5061022","2019-05-06 15:00","2019","05","06","15:00","1.0","","-8.6","","49","","","","28","","8","","24.1","","100.54","","","","","","Mostly Cloudy"
"-94.71","56.36","GILLAM A","5061022","2019-05-06 16:00","2019","05","06","16:00","1.9","","-7.1","","51","","","","33","","13","","24.1","","100.52","","","","","","NA"
"-94.71","56.36","GILLAM A","5061022","2019-05-06 17:00","2019","05","06","17:00","2.0","","-7.5","","50","","","","36","","8","","24.1","","100.54","","","","","","NA"
"-94.71","56.36","GILLAM A","5061022","2019-05-06 18:00","2019","05","06","18:00","1.8","","-7.6","","50","","","","35","","17","","24.1","","100.56","","","","","","Mostly Cloudy"
"-94.71","56.36","GILLAM A","5061022","2019-05-06 19:00","2019","05","06","19:00","1.7","","-7.9","","49","","","","1","","20","","24.1","","100.57","","","","","","NA"
"-94.71","56.36","GILLAM A","5061022","2019-05-06 20:00","2019","05","06","20:00","-0.1","","-7.1","","59","","","","36","","14","","24.1","","100.60","","","","-4","","NA"
"-94.71","56.36","GILLAM A","5061022","2019-05-06 21:00","2019","05","06","21:00","-1.5","","-6.7","","68","","","","33","","10","","24.1","","100.63","","","","-5","","Mainly Clear"
"-94.71","56.36","GILLAM A","5061022","2019-05-06 22:00","2019","05","06","22:00","-2.5","","-7.1","","71","","","","32","","4","","24.1","","100.63","","","","-4","","NA"
"-94.71","56.36","GILLAM A","5061022","2019-05-06 23:00","2019","05","06","23:00","-3.7","","-7.7","","73","","","","35","","4","","24.1","","100.65","","","","-5","","NA"
"-94.71","56.36","GILLAM A","5061022","2019-05-07 00:00","2019","05","07","00:00","-3.8","","-7.8","","74","","","","33","","3","","24.1","","100.67","","","","-5","","Clear"
"-94.71","56.36","GILLAM A","5061022","2019-05-07 01:00","2019","05","07","01:00","-4.8","","-8.3","","76","","","","34","","4","","24.1","","100.68","","","","-7","","NA"
"-94.71","56.36","GILLAM A","5061022","2019-05-07 02:00","2019","05","07","02:00","-5.8","","-8.3","","82","","","","36","","3","","24.1","","100.69","","","","-7","","NA"
"-94.71","56.36","GILLAM A","5061022","2019-05-07 03:00","2019","05","07","03:00","-5.8","","-8.3","","82","","","","27","","4","","24.1","","100.70","","","","-8","","Clear"
"-94.71","56.36","GILLAM A","5061022","2019-05-07 04:00","2019","05","07","04:00","-6.0","","-8.9","","80","","","","25","","5","","24.1","","100.71","","","","-8","","NA"
"-94.71","56.36","GILLAM A","5061022","2019-05-07 05:00","2019","05","07","05:00","-7.5","","-9.3","","87","","","","23","","4","","24.1","","100.74","","","","-10","","NA"
"-94.71","56.36","GILLAM A","5061022","2019-05-07 06:00","2019","05","07","06:00","-3.5","","-7.7","","72","","","","26","","5","","24.1","","100.75","","","","-6","","Clear"
"-94.71","56.36","GILLAM A","5061022","2019-05-07 07:00","2019","05","07","07:00","-1.8","","-8.0","","63","","","","29","","13","","24.1","","100.77","","","","-6","","NA"
"-94.71","56.36","GILLAM A","5061022","2019-05-07 08:00","2019","05","07","08:00","0.1","","-7.8","","56","","","","29","","14","","24.1","","100.78","","","","","","NA"
"-94.71","56.36","GILLAM A","5061022","2019-05-07 09:00","2019","05","07","09:00","2.0","","-7.8","","48","","","","28","","13","","24.1","","100.77","","","","","","Clear"
"-94.71","56.36","GILLAM A","5061022","2019-05-07 10:00","2019","05","07","10:00","3.8","","-8.2","","41","","","","28","","14","","24.1","","100.75","","","","","","NA"
"-94.71","56.36","GILLAM A","5061022","2019-05-07 11:00","2019","05","07","11:00","5.1","","-8.0","","38","","","","28","","13","","24.1","","100.73","","","","","","NA"
"-94.71","56.36","GILLAM A","5061022","2019-05-07 12:00","2019","05","07","12:00","6.1","","-7.8","","36","","","","29","","12","","24.1","","100.71","","","","","","Mainly Clear"
"-94.71","56.36","GILLAM A","5061022","2019-05-07 13:00","2019","05","07","13:00","6.5","","-9.5","","31","","","","29","","10","","24.1","","100.70","","","","","","NA"
"-94.71","56.36","GILLAM A","5061022","2019-05-07 14:00","2019","05","07","14:00","6.9","","-8.6","","32","","","","31","","12","","24.1","","100.67","","","","","","NA"
"-94.71","56.36","GILLAM A","5061022","2019-05-07 15:00","2019","05","07","15:00","7.2","","-9.0","","31","","","","30","","14","","24.1","","100.66","","","","","","Mainly Clear"
"-94.71","56.36","GILLAM A","5061022","2019-05-07 16:00","2019","05","07","16:00","7.4","","-10.0","","28","","","","33","","4","","24.1","","100.61","","","","","","NA"
"-94.71","56.36","GILLAM A","5061022","2019-05-07 17:00","2019","05","07","17:00","7.1","","-11.4","","26","","","","33","","7","","24.1","","100.60","","","","","","NA"
"-94.71","56.36","GILLAM A","5061022","2019-05-07 18:00","2019","05","07","18:00","6.8","","-10.9","","27","","","","33","","6","","24.1","","100.57","","","","","","Mainly Clear"
"-94.71","56.36","GILLAM A","5061022","2019-05-07 19:00","2019","05","07","19:00","5.5","","-8.3","","37","","","","2","","9","","24.1","","100.55","","","","","","NA"
"-94.71","56.36","GILLAM A","5061022","2019-05-07 20:00","2019","05","07","20:00","4.5","","-9.5","","35","","","","6","","7","","24.1","","100.55","","","","","","NA"
"-94.71","56.36","GILLAM A","5061022","2019-05-07 21:00","2019","05","07","21:00","3.3","","-9.6","","38","","","","7","","8","","24.1","","100.57","","","","","","Mainly Clear"
"-94.71","56.36","GILLAM A","5061022","2019-05-07 22:00","2019","05","07","22:00","3.0","","-10.0","","38","","","","6","","7","","24.1","","100.56","","","","","","NA"
"-94.71","56.36","GILLAM A","5061022","2019-05-07 23:00","2019","05","07","23:00","-0.8","","-9.8","","51","","","","14","","9","","24.1","","100.58","","","","-4","","NA"
"-94.71","56.36","GILLAM A","5061022","2019-05-08 00:00","2019","05","08","00:00","0.6","","-9.6","","46","","","","12","","5","","24.1","","100.58","","","","","","Clear"
"-94.71","56.36","GILLAM A","5061022","2019-05-08 01:00","2019","05","08","01:00","-1.4","","-9.3","","55","","","","13","","6","","24.1","","100.55","","","","-4","","NA"
"-94.71","56.36","GILLAM A","5061022","2019-05-08 02:00","2019","05","08","02:00","-3.3","","-7.0","","76","","","","4","","5","","24.1","","100.54","","","","-5","","NA"
"-94.71","56.36","GILLAM A","5061022","2019-05-08 03:00","2019","05","08","03:00","-3.5","","-7.1","","76","","","","4","","15","","24.1","","100.56","","","","-9","","Clear"
"-94.71","56.36","GILLAM A","5061022","2019-05-08 04:00","2019","05","08","04:00","-3.7","","-6.0","","84","","","","6","","14","","24.1","","100.59","","","","-9","","NA"
"-94.71","56.36","GILLAM A","5061022","2019-05-08 05:00","2019","05","08","05:00","-3.6","","-6.5","","80","","","","6","","13","","24.1","","100.59","","","","-8","","NA"
"-94.71","56.36","GILLAM A","5061022","2019-05-08 06:00","2019","05","08","06:00","-2.6","","-6.6","","74","","","","6","","12","","24.1","","100.62","","","","-7","","Mainly Clear"
"-94.71","56.36","GILLAM A","5061022","2019-05-08 07:00","2019","05","08","07:00","-0.6","","-6.8","","63","","","","6","","13","","24.1","","100.65","","","","-5","","NA"
"-94.71","56.36","GILLAM A","5061022","2019-05-08 08:00","2019","05","08","08:00","1.2","","-6.7","","55","","","","5","","13","","24.1","","100.65","","","","","","NA"
"-94.71","56.36","GILLAM A","5061022","2019-05-08 09:00","2019","05","08","09:00","2.9","","-5.5","","54","","","","4","","13","","24.1","","100.65","","","","","","Clear"
"-94.71","56.36","GILLAM A","5061022","2019-05-08 10:00","2019","05","08","10:00","4.1","","-5.9","","48","","","","3","","16","","24.1","","100.64","","","","","","NA"
"-94.71","56.36","GILLAM A","5061022","2019-05-08 11:00","2019","05","08","11:00","5.0","","-4.5","","50","","","","3","","13","","24.1","","100.64","","","","","","NA"
"-94.71","56.36","GILLAM A","5061022","2019-05-08 12:00","2019","05","08","12:00","6.6","","-4.8","","44","","","","33","","12","","24.1","","100.63","","","","","","Mostly Cloudy"
"-94.71","56.36","GILLAM A","5061022","2019-05-08 13:00","2019","05","08","13:00","6.3","","-4.0","","48","","","","33","","13","","24.1","","100.62","","","","","","NA"
"-94.71","56.36","GILLAM A","5061022","2019-05-08 14:00","2019","05","08","14:00","5.5","","-5.7","","44","","","","33","","9","","24.1","","100.64","","","","","","NA"
"-94.71","56.36","GILLAM A","5061022","2019-05-08 15:00","2019","05","08","15:00","6.9","","-6.6","","38","","","","29","","15","","24.1","","100.65","","","","","","Mainly Clear"
"-94.71","56.36","GILLAM A","5061022","2019-05-08 16:00","2019","05","08","16:00","7.8","","-7.2","","34","","","","29","","13","","24.1","","100.65","","","","","","NA"
"-94.71","56.36","GILLAM A","5061022","2019-05-08 17:00","2019","05","08","17:00","7.5","","-7.3","","34","","","","30","","8","","24.1","","100.65","","","","","","NA"
"-94.71","56.36","GILLAM A","5061022","2019-05-08 18:00","2019","05","08","18:00","5.5","","-5.6","","45","","","","36","","7","","24.1","","100.66","","","","","","Mostly Cloudy"
"-94.71","56.36","GILLAM A","5061022","2019-05-08 19:00","2019","05","08","19:00","6.6","","-6.9","","38","","","","1","","4","","24.1","","100.65","","","","","","NA"
"-94.71","56.36","GILLAM A","5061022","2019-05-08 20:00","2019","05","08","20:00","4.6","","-5.3","","49","","","","31","","4","","24.1","","100.65","","","","","","NA"
"-94.71","56.36","GILLAM A","5061022","2019-05-08 21:00","2019","05","08","21:00","3.4","","-7.3","","46","","","","8","","7","","24.1","","100.66","","","","","","Mainly Clear"
"-94.71","56.36","GILLAM A","5061022","2019-05-08 22:00","2019","05","08","22:00","1.1","","-5.6","","61","","","","11","","8","","24.1","","100.70","","","","","","NA"
"-94.71","56.36","GILLAM A","5061022","2019-05-08 23:00","2019","05","08","23:00","0.1","","-5.0","","69","","","","11","","7","","24.1","","100.73","","","","","","NA"
"-94.71","56.36","GILLAM A","5061022","2019-05-09 00:00","2019","05","09","00:00","-1.4","","-4.5","","79","","","","9","","10","","24.1","","100.73","","","","-5","","Clear"
"-94.71","56.36","GILLAM A","5061022","2019-05-09 01:00","2019","05","09","01:00","-2.3","","-4.6","","84","","","","9","","10","","24.1","","100.72","","","","-6","","NA"
"-94.71","56.36","GILLAM A","5061022","2019-05-09 02:00","2019","05","09","02:00","-3.0","","-4.7","","88","","","","8","","9","","19.3","","100.72","","","","-7","","NA"
"-94.71","56.36","GILLAM A","5061022","2019-05-09 03:00","2019","05","09","03:00","-4.0","","-5.0","","92","","","","10","","11","","19.3","","100.70","","","","-8","","Clear"
"-94.71","56.36","GILLAM A","5061022","2019-05-09 04:00","2019","05","09","04:00","-4.5","","-5.4","","94","","","","6","","9","","24.1","","100.73","","","","-8","","NA"
"-94.71","56.36","GILLAM A","5061022","2019-05-09 05:00","2019","05","09","05:00","-4.6","","-5.5","","93","","","","10","","9","","24.1","","100.74","","","","-8","","NA"
"-94.71","56.36","GILLAM A","5061022","2019-05-09 06:00","2019","05","09","06:00","-3.5","","-6.0","","83","","","","11","","9","","24.1","","100.73","","","","-7","","Mainly Clear"
"-94.71","56.36","GILLAM A","5061022","2019-05-09 07:00","2019","05","09","07:00","-0.9","","-5.7","","70","","","","11","","10","","24.1","","100.73","","","","-4","","NA"
"-94.71","56.36","GILLAM A","5061022","2019-05-09 08:00","2019","05","09","08:00","0.8","","-5.5","","63","","","","12","","8","","24.1","","100.67","","","","","","NA"
"-94.71","56.36","GILLAM A","5061022","2019-05-09 09:00","2019","05","09","09:00","1.7","","-4.4","","64","","","","2","","9","","24.1","","100.61","","","","","","Clear"
"-94.71","56.36","GILLAM A","5061022","2019-05-09 10:00","2019","05","09","10:00","2.8","","-4.4","","59","","","","2","","14","","24.1","","100.55","","","","","","NA"
"-94.71","56.36","GILLAM A","5061022","2019-05-09 11:00","2019","05","09","11:00","4.3","","-3.8","","56","","","","1","","10","","24.1","","100.50","","","","","","NA"
"-94.71","56.36","GILLAM A","5061022","2019-05-09 12:00","2019","05","09","12:00","5.2","","-4.9","","48","","","","33","","7","","24.1","","100.43","","","","","","Mainly Clear"
"-94.71","56.36","GILLAM A","5061022","2019-05-09 13:00","2019","05","09","13:00","6.3","","-4.9","","44","","","","30","","11","","24.1","","100.37","","","","","","NA"
"-94.71","56.36","GILLAM A","5061022","2019-05-09 14:00","2019","05","09","14:00","6.8","","-3.9","","46","","","","30","","17","","24.1","","100.32","","","","","","NA"
"-94.71","56.36","GILLAM A","5061022","2019-05-09 15:00","2019","05","09","15:00","7.6","","-4.1","","43","","","","30","","11","","24.1","","100.27","","","","","","Mainly Clear"
"-94.71","56.36","GILLAM A","5061022","2019-05-09 16:00","2019","05","09","16:00","8.5","","-5.2","","37","","","","31","","7","","24.1","","100.20","","","","","","NA"
"-94.71","56.36","GILLAM A","5061022","2019-05-09 17:00","2019","05","09","17:00","9.0","","-6.1","","34","","","","35","","5","","24.1","","100.13","","","","","","NA"
"-94.71","56.36","GILLAM A","5061022","2019-05-09 18:00","2019","05","09","18:00","9.2","","-6.2","","33","","","","34","","5","","24.1","","100.07","","","","","","Mainly Clear"
"-94.71","56.36","GILLAM A","5061022","2019-05-09 19:00","2019","05","09","19:00","8.7","","-6.2","","34","","","","5","","7","","24.1","","100.01","","","","","","NA"
"-94.71","56.36","GILLAM A","5061022","2019-05-09 20:00","2019","05","09","20:00","6.2","","-4.5","","47","","","","8","","10","","24.1","","99.99","","","","","","NA"
"-94.71","56.36","GILLAM A","5061022","2019-05-09 21:00","2019","05","09","21:00","3.2","","-3.7","","61","","","","9","","7","","24.1","","99.98","","","","","","Mainly Clear"
"-94.71","56.36","GILLAM A","5061022","2019-05-09 22:00","2019","05","09","22:00","2.3","","-3.7","","65","","","","11","","7","","24.1","","99.97","","","","","","NA"
"-94.71","56.36","GILLAM A","5061022","2019-05-09 23:00","2019","05","09","23:00","1.2","","-3.6","","71","","","","13","","9","","24.1","","99.92","","","","","","NA"
"-94.71","56.36","GILLAM A","5061022","2019-05-10 00:00","2019","05","10","00:00","0.7","","-3.5","","73","","","","13","","9","","24.1","","99.88","","","","","","Mainly Clear"
"-94.71","56.36","GILLAM A","5061022","2019-05-10 01:00","2019","05","10","01:00","-0.5","","-3.8","","78","","","","12","","8","","24.1","","99.83","","","","-3","","NA"
"-94.71","56.36","GILLAM A","5061022","2019-05-10 02:00","2019","05","10","02:00","-1.0","","-3.8","","81","","","","14","","10","","24.1","","99.78","","","","-5","","NA"
"-94.71","56.36","GILLAM A","5061022","2019-05-10 03:00","2019","05","10","03:00","-1.6","","-3.9","","84","","","","13","","9","","24.1","","99.73","","","","-5","","Mainly Clear"
"-94.71","56.36","GILLAM A","5061022","2019-05-10 04:00","2019","05","10","04:00","-2.0","","-4.1","","85","","","","13","","10","","24.1","","99.65","","","","-6","","NA"
"-94.71","56.36","GILLAM A","5061022","2019-05-10 05:00","2019","05","10","05:00","-2.4","","-4.3","","87","","","","15","","10","","24.1","","99.61","","","","-6","","NA"
"-94.71","56.36","GILLAM A","5061022","2019-05-10 06:00","2019","05","10","06:00","-0.7","","-3.8","","80","","","","17","","5","","24.1","","99.57","","","","-2","","Mainly Clear"
"-94.71","56.36","GILLAM A","5061022","2019-05-10 07:00","2019","05","10","07:00","2.9","","-3.4","","63","","","","20","","6","","24.1","","99.53","","","","","","NA"
"-94.71","56.36","GILLAM A","5061022","2019-05-10 08:00","2019","05","10","08:00","3.6","","-2.1","","66","","","","34","","5","","24.1","","99.51","","","","","","NA"
"-94.71","56.36","GILLAM A","5061022","2019-05-10 09:00","2019","05","10","09:00","5.7","","-3.2","","53","","","","32","","8","","24.1","","99.45","","","","","","Mostly Cloudy"
"-94.71","56.36","GILLAM A","5061022","2019-05-10 10:00","2019","05","10","10:00","8.3","","-2.9","","45","","","","33","","9","","24.1","","99.40","","","","","","NA"
"-94.71","56.36","GILLAM A","5061022","2019-05-10 11:00","2019","05","10","11:00","10.8","","-3.5","","36","","","","35","","8","","24.1","","99.35","","","","","","NA"
"-94.71","56.36","GILLAM A","5061022","2019-05-10 12:00","2019","05","10","12:00","11.3","","-4.4","","33","","","","36","","7","","24.1","","99.29","","","","","","Cloudy"
"-94.71","56.36","GILLAM A","5061022","2019-05-10 13:00","2019","05","10","13:00","12.8","","-4.9","","29","","","","34","","7","","24.1","","99.24","","","","","","NA"
"-94.71","56.36","GILLAM A","5061022","2019-05-10 14:00","2019","05","10","14:00","12.2","","-3.5","","33","","","","36","","6","","24.1","","99.20","","","","","","NA"
"-94.71","56.36","GILLAM A","5061022","2019-05-10 15:00","2019","05","10","15:00","14.1","","-4.4","","27","","","","33","","10","","24.1","","99.15","","","","","","Mostly Cloudy"
"-94.71","56.36","GILLAM A","5061022","2019-05-10 16:00","2019","05","10","16:00","15.0","","-4.2","","26","","","","28","","15","","24.1","","99.10","","","","","","NA"
"-94.71","56.36","GILLAM A","5061022","2019-05-10 17:00","2019","05","10","17:00","13.0","","-3.4","","32","","","","29","","12","","24.1","","99.11","","","","","","NA"
"-94.71","56.36","GILLAM A","5061022","2019-05-10 18:00","2019","05","10","18:00","12.6","","-1.3","","38","","","","1","","6","","24.1","","99.12","","","","","","Rain Showers"
"-94.71","56.36","GILLAM A","5061022","2019-05-10 19:00","2019","05","10","19:00","12.9","","-1.4","","37","","","","20","","8","","24.1","","99.08","","","","","","NA"
"-94.71","56.36","GILLAM A","5061022","2019-05-10 20:00","2019","05","10","20:00","11.6","","-1.3","","41","","","","20","","8","","24.1","","99.03","","","","","","NA"
"-94.71","56.36","GILLAM A","5061022","2019-05-10 21:00","2019","05","10","21:00","9.8","","0.2","","51","","","","26","","6","","24.1","","99.03","","","","","","Mostly Cloudy"
"-94.71","56.36","GILLAM A","5061022","2019-05-10 22:00","2019","05","10","22:00","10.3","","-2.0","","42","","","","22","","10","","24.1","","98.98","","","","","","NA"
"-94.71","56.36","GILLAM A","5061022","2019-05-10 23:00","2019","05","10","23:00","9.2","","-1.6","","47","","","","24","","13","","24.1","","98.96","","","","","","NA"
"-94.71","56.36","GILLAM A","5061022","2019-05-11 00:00","2019","05","11","00:00","8.4","","-2.0","","48","","","","25","","18","","24.1","","98.97","","","","","","Mainly Clear"
"-94.71","56.36","GILLAM A","5061022","2019-05-11 01:00","2019","05","11","01:00","6.7","","-1.8","","55","","","","27","","14","","24.1","","99.00","","","","","","NA"
"-94.71","56.36","GILLAM A","5061022","2019-05-11 02:00","2019","05","11","02:00","3.2","","-1.4","","72","","","","28","","10","","24.1","","99.03","","","","","","NA"
"-94.71","56.36","GILLAM A","5061022","2019-05-11 03:00","2019","05","11","03:00","3.2","","-1.1","","74","","","","29","","14","","24.1","","99.08","","","","","","Mainly Clear"
"-94.71","56.36","GILLAM A","5061022","2019-05-11 04:00","2019","05","11","04:00","2.5","","-1.5","","75","","","","31","","14","","24.1","","99.13","","","","","","NA"
"-94.71","56.36","GILLAM A","5061022","2019-05-11 05:00","2019","05","11","05:00","1.2","","-1.4","","83","","","","1","","26","","24.1","","99.22","","","","","","NA"
"-94.71","56.36","GILLAM A","5061022","2019-05-11 06:00","2019","05","11","06:00","0.2","","-1.7","","87","","","","1","","22","","24.1","","99.35","","","","","","Mostly Cloudy"
"-94.71","56.36","GILLAM A","5061022","2019-05-11 07:00","2019","05","11","07:00","0.5","","-1.2","","88","","","","2","","10","","24.1","","99.42","","","","","","NA"
"-94.71","56.36","GILLAM A","5061022","2019-05-11 08:00","2019","05","11","08:00","0.9","","-1.4","","85","","","","2","","16","","24.1","","99.47","","","","","","NA"
"-94.71","56.36","GILLAM A","5061022","2019-05-11 09:00","2019","05","11","09:00","2.6","","-2.5","","69","","","","5","","12","","24.1","","99.51","","","","","","Cloudy"
"-94.71","56.36","GILLAM A","5061022","2019-05-11 10:00","2019","05","11","10:00","3.4","","-2.5","","65","","","","4","","10","","24.1","","99.53","","","","","","NA"
"-94.71","56.36","GILLAM A","5061022","2019-05-11 11:00","2019","05","11","11:00","4.2","","-2.8","","60","","","","3","","10","","24.1","","99.52","","","","","","NA"
"-94.71","56.36","GILLAM A","5061022","2019-05-11 12:00","2019","05","11","12:00","5.2","","-3.2","","55","","","","3","","13","","24.1","","99.52","","","","","","Cloudy"
"-94.71","56.36","GILLAM A","5061022","2019-05-11 13:00","2019","05","11","13:00","5.7","","-3.2","","53","","","","4","","10","","24.1","","99.51","","","","","","NA"
"-94.71","56.36","GILLAM A","5061022","2019-05-11 14:00","2019","05","11","14:00","7.0","","-3.4","","48","","","","4","","8","","24.1","","99.48","","","","","","NA"
"-94.71","56.36","GILLAM A","5061022","2019-05-11 15:00","2019","05","11","15:00","8.0","","-2.9","","46","","","","4","","10","","24.1","","99.46","","","","","","Cloudy"
"-94.71","56.36","GILLAM A","5061022","2019-05-11 16:00","2019","05","11","16:00","8.1","","-3.4","","44","","","","11","","5","","24.1","","99.45","","","","","","NA"
"-94.71","56.36","GILLAM A","5061022","2019-05-11 17:00","2019","05","11","17:00","8.1","","-3.6","","44","","","","8","","8","","24.1","","99.41","","","","","","NA"
"-94.71","56.36","GILLAM A","5061022","2019-05-11 18:00","2019","05","11","18:00","7.8","","-3.6","","44","","","","12","","9","","24.1","","99.41","","","","","","Cloudy"
"-94.71","56.36","GILLAM A","5061022","2019-05-11 19:00","2019","05","11","19:00","6.5","","-3.1","","50","","","","7","","9","","24.1","","99.38","","","","","","NA"
"-94.71","56.36","GILLAM A","5061022","2019-05-11 20:00","2019","05","11","20:00","4.9","","-3.1","","56","","","","10","","5","","24.1","","99.39","","","","","","NA"
"-94.71","56.36","GILLAM A","5061022","2019-05-11 21:00","2019","05","11","21:00","3.8","","-3.4","","59","","","","9","","7","","20.9","","99.37","","","","","","Mostly Cloudy"
"-94.71","56.36","GILLAM A","5061022","2019-05-11 22:00","2019","05","11","22:00","2.0","","-2.4","","73","","","","9","","11","","19.3","","99.35","","","","","","NA"
"-94.71","56.36","GILLAM A","5061022","2019-05-11 23:00","2019","05","11","23:00","1.8","","-2.7","","72","","","","10","","11","","24.1","","99.32","","","","","","NA"
"-94.71","56.36","GILLAM A","5061022","2019-05-12 00:00","2019","05","12","00:00","1.4","","-3.1","","72","","","","11","","5","","24.1","","99.30","","","","","","Mostly Cloudy"
"-94.71","56.36","GILLAM A","5061022","2019-05-12 01:00","2019","05","12","01:00","0.7","","-3.4","","74","","","","9","","11","","24.1","","99.32","","","","","","NA"
"-94.71","56.36","GILLAM A","5061022","2019-05-12 02:00","2019","05","12","02:00","0.2","","-3.2","","78","","","","8","","13","","24.1","","99.30","","","","","","NA"
"-94.71","56.36","GILLAM A","5061022","2019-05-12 03:00","2019","05","12","03:00","-0.4","","-3.2","","81","","","","8","","12","","24.1","","99.25","","","","-4","","Mostly Cloudy"
"-94.71","56.36","GILLAM A","5061022","2019-05-12 04:00","2019","05","12","04:00","-0.9","","-3.0","","86","","","","8","","12","","6.4","","99.26","","","","-5","","Snow"
"-94.71","56.36","GILLAM A","5061022","2019-05-12 05:00","2019","05","12","05:00","-1.5","","-2.4","","94","","","","8","","11","","4.8","","99.23","","","","-5","","Snow"
"-94.71","56.36","GILLAM A","5061022","2019-05-12 06:00","2019","05","12","06:00","-1.4","","-2.5","","92","","","","11","","16","","24.1","","99.20","","","","-6","","Snow"
"-94.71","56.36","GILLAM A","5061022","2019-05-12 07:00","2019","05","12","07:00","-0.6","","-1.9","","91","","","","11","","11","","16.1","","99.19","","","","-4","","NA"
"-94.71","56.36","GILLAM A","5061022","2019-05-12 08:00","2019","05","12","08:00","0.1","","-1.4","","90","","","","11","","10","","12.9","","99.16","","","","","","Rain Showers"
"-94.71","56.36","GILLAM A","5061022","2019-05-12 09:00","2019","05","12","09:00","0.2","","-0.8","","93","","","","9","","8","","8.1","","99.15","","","","","","Rain Showers,Fog"
"-94.71","56.36","GILLAM A","5061022","2019-05-12 10:00","2019","05","12","10:00","1.0","","-0.1","","92","","","","10","","9","","11.3","","99.10","","","","","","Rain"
"-94.71","56.36","GILLAM A","5061022","2019-05-12 11:00","2019","05","12","11:00","1.8","","-0.2","","87","","","","6","","12","","16.1","","99.09","","","","","","NA"
"-94.71","56.36","GILLAM A","5061022","2019-05-12 12:00","2019","05","12","12:00","2.5","","0.2","","85","","","","4","","14","","14.5","","99.09","","","","","","Cloudy"
"-94.71","56.36","GILLAM A","5061022","2019-05-12 13:00","2019","05","12","13:00","5.1","","0.6","","72","","","","4","","14","","24.1","","99.06","","","","","","NA"
"-94.71","56.36","GILLAM A","5061022","2019-05-12 14:00","2019","05","12","14:00","4.1","","0.6","","78","","","","4","","17","","24.1","","99.02","","","","","","NA"
"-94.71","56.36","GILLAM A","5061022","2019-05-12 15:00","2019","05","12","15:00","3.9","","0.6","","79","","","","5","","11","","24.1","","99.04","","","","","","Mostly Cloudy"
"-94.71","56.36","GILLAM A","5061022","2019-05-12 16:00","2019","05","12","16:00","4.1","","0.8","","79","","","","5","","12","","24.1","","99.01","","","","","","NA"
"-94.71","56.36","GILLAM A","5061022","2019-05-12 17:00","2019","05","12","17:00","4.0","","0.6","","78","","","","5","","14","","24.1","","99.02","","","","","","Rain Showers"
"-94.71","56.36","GILLAM A","5061022","2019-05-12 18:00","2019","05","12","18:00","3.3","","0.2","","80","","","","6","","13","","24.1","","99.06","","","","","","Mostly Cloudy"
"-94.71","56.36","GILLAM A","5061022","2019-05-12 19:00","2019","05","12","19:00","2.5","","0.1","","84","","","","6","","15","","24.1","","99.05","","","","","","NA"
"-94.71","56.36","GILLAM A","5061022","2019-05-12 20:00","2019","05","12","20:00","2.0","","-0.1","","86","","","","8","","8","","24.1","","99.09","","","","","","NA"
"-94.71","56.36","GILLAM A","5061022","2019-05-12 21:00","2019","05","12","21:00","1.0","","-0.3","","91","","","","6","","11","","24.1","","99.09","","","","","","Cloudy"
"-94.71","56.36","GILLAM A","5061022","2019-05-12 22:00","2019","05","12","22:00","0.4","","-0.9","","91","","","","8","","11","","24.1","","99.07","","","","","","NA"
"-94.71","56.36","GILLAM A","5061022","2019-05-12 23:00","2019","05","12","23:00","0.3","","-0.7","","93","","","","7","","7","","24.1","","99.07","","","","","","NA"
"-94.71","56.36","GILLAM A","5061022","2019-05-13 00:00","2019","05","13","00:00","-0.1","","-0.8","","95","","","","6","","12","","24.1","","99.09","","","","-4","","Cloudy"
"-94.71","56.36","GILLAM A","5061022","2019-05-13 01:00","2019","05","13","01:00","-0.2","","-0.6","","97","","","","8","","10","","2.4","","99.02","","","","-4","","Fog"
"-94.71","56.36","GILLAM A","5061022","2019-05-13 02:00","2019","05","13","02:00","-0.3","","-0.8","","97","","","","7","","13","","3.6","","98.99","","","","-4","","Fog"
"-94.71","56.36","GILLAM A","5061022","2019-05-13 03:00","2019","05","13","03:00","-0.6","","-0.9","","97","","","","7","","7","","8.1","","98.95","","","","-3","","Snow,Fog"
"-94.71","56.36","GILLAM A","5061022","2019-05-13 04:00","2019","05","13","04:00","-1.0","","-1.2","","98","","","","7","","9","","0.8","","98.90","","","","-4","","Freezing Fog"
"-94.71","56.36","GILLAM A","5061022","2019-05-13 05:00","2019","05","13","05:00","-0.8","","-1.1","","98","","","","9","","15","","3.2","","98.83","","","","-5","","Freezing Rain,Fog"
"-94.71","56.36","GILLAM A","5061022","2019-05-13 06:00","2019","05","13","06:00","-0.8","","-1.0","","98","","","","11","","11","","12.9","","98.76","","","","-5","","Freezing Rain"
"-94.71","56.36","GILLAM A","5061022","2019-05-13 07:00","2019","05","13","07:00","-0.5","","-0.8","","97","","","","10","","12","","9.7","","98.72","","","","-4","","Fog"
"-94.71","56.36","GILLAM A","5061022","2019-05-13 08:00","2019","05","13","08:00","0.2","","-0.2","","97","","","","10","","15","","6.4","","98.58","","","","","","Fog"
"-94.71","56.36","GILLAM A","5061022","2019-05-13 09:00","2019","05","13","09:00","1.2","","0.7","","97","","","","11","","17","","2.8","","98.36","","","","","","Fog"
"-94.71","56.36","GILLAM A","5061022","2019-05-13 10:00","2019","05","13","10:00","2.4","","1.6","","94","","","","12","","11","","8.1","","98.31","","","","","","Rain Showers,Fog"
"-94.71","56.36","GILLAM A","5061022","2019-05-13 11:00","2019","05","13","11:00","2.0","","1.5","","97","","","","7","","12","","9.7","","98.25","","","","","","Rain Showers,Fog"
"-94.71","56.36","GILLAM A","5061022","2019-05-13 12:00","2019","05","13","12:00","3.1","","2.8","","98","","","","8","","9","","6.4","","98.15","","","","","","Rain Showers,Fog"
"-94.71","56.36","GILLAM A","5061022","2019-05-13 13:00","2019","05","13","13:00","3.7","","3.1","","96","","","","8","","7","","9.7","","98.09","","","","","","Fog"
"-94.71","56.36","GILLAM A","5061022","2019-05-13 14:00","2019","05","13","14:00","3.5","","3.0","","97","","","","2","","10","","9.7","","98.10","","","","","","Fog"
"-94.71","56.36","GILLAM A","5061022","2019-05-13 15:00","2019","05","13","15:00","3.6","","3.0","","96","","","","28","","13","","9.7","","98.22","","","","","","Fog"
"-94.71","56.36","GILLAM A","5061022","2019-05-13 16:00","2019","05","13","16:00","4.0","","3.1","","94","","","","30","","10","","9.7","","98.28","","","","","","Fog"
"-94.71","56.36","GILLAM A","5061022","2019-05-13 17:00","2019","05","13","17:00","3.4","","2.0","","91","","","","30","","19","","14.5","","98.36","","","","","","NA"
"-94.71","56.36","GILLAM A","5061022","2019-05-13 18:00","2019","05","13","18:00","3.0","","1.1","","87","","","","32","","24","","19.3","","98.45","","","","","","Mostly Cloudy"
"-94.71","56.36","GILLAM A","5061022","2019-05-13 19:00","2019","05","13","19:00","2.3","","0.2","","85","","","","32","","23","","24.1","","98.55","","","","","","NA"
"-94.71","56.36","GILLAM A","5061022","2019-05-13 20:00","2019","05","13","20:00","0.1","","-1.4","","89","","","","34","","32","","14.5","","98.68","","","","","","Snow"
"-94.71","56.36","GILLAM A","5061022","2019-05-13 21:00","2019","05","13","21:00","-1.2","","-3.2","","86","","","","34","","30","","22.5","","98.79","","","","-8","","Mostly Cloudy"
"-94.71","56.36","GILLAM A","5061022","2019-05-13 22:00","2019","05","13","22:00","-2.0","","-4.3","","85","","","","32","","27","","24.1","","98.89","","","","-9","","NA"
"-94.71","56.36","GILLAM A","5061022","2019-05-13 23:00","2019","05","13","23:00","-2.6","","-4.8","","85","","","","32","","25","","17.7","","98.98","","","","-9","","NA"
"-94.71","56.36","GILLAM A","5061022","2019-05-14 00:00","2019","05","14","00:00","-2.9","","-6.1","","79","","","","33","","39","","20.9","","99.04","","","","-11","","Snow"
"-94.71","56.36","GILLAM A","5061022","2019-05-14 01:00","2019","05","14","01:00","-2.9","","-5.9","","80","","","","33","","32","","24.1","","99.13","","","","-10","","Snow"
"-94.71","56.36","GILLAM A","5061022","2019-05-14 02:00","2019","05","14","02:00","-3.1","","-6.1","","80","","","","32","","35","","24.1","","99.20","","","","-11","","NA"
"-94.71","56.36","GILLAM A","5061022","2019-05-14 03:00","2019","05","14","03:00","-2.9","","-5.3","","84","","","","32","","23","","24.1","","99.27","","","","-9","","Snow"
"-94.71","56.36","GILLAM A","5061022","2019-05-14 04:00","2019","05","14","04:00","-2.4","","-5.5","","79","","","","33","","23","","24.1","","99.32","","","","-9","","Snow"
"-94.71","56.36","GILLAM A","5061022","2019-05-14 05:00","2019","05","14","05:00","-2.3","","-5.5","","79","","","","31","","17","","24.1","","99.38","","","","-8","","NA"
"-94.71","56.36","GILLAM A","5061022","2019-05-14 06:00","2019","05","14","06:00","-2.0","","-4.9","","81","","","","29","","22","","24.1","","99.44","","","","-8","","Mainly Clear"
"-94.71","56.36","GILLAM A","5061022","2019-05-14 07:00","2019","05","14","07:00","-1.6","","-4.7","","79","","","","29","","17","","24.1","","99.50","","","","-7","","NA"
"-94.71","56.36","GILLAM A","5061022","2019-05-14 08:00","2019","05","14","08:00","-0.4","","-4.5","","73","","","","28","","18","","24.1","","99.52","","","","-5","","NA"
"-94.71","56.36","GILLAM A","5061022","2019-05-14 09:00","2019","05","14","09:00","1.5","","-4.7","","63","","","","28","","22","","24.1","","99.52","","","","","","Clear"
"-94.71","56.36","GILLAM A","5061022","2019-05-14 10:00","2019","05","14","10:00","3.4","","-3.8","","59","","","","28","","15","","24.1","","99.52","","","","","","NA"
"-94.71","56.36","GILLAM A","5061022","2019-05-14 11:00","2019","05","14","11:00","5.4","","-3.8","","51","","","","28","","25","","24.1","","99.51","","","","","","NA"
"-94.71","56.36","GILLAM A","5061022","2019-05-14 12:00","2019","05","14","12:00","5.7","","-3.2","","53","","","","29","","19","","24.1","","99.50","","","","","","Mostly Cloudy"
"-94.71","56.36","GILLAM A","5061022","2019-05-14 13:00","2019","05","14","13:00","6.6","","-2.9","","51","","","","28","","16","","24.1","","99.49","","","","","","NA"
"-94.71","56.36","GILLAM A","5061022","2019-05-14 14:00","2019","05","14","14:00","7.8","","-2.9","","47","","","","28","","17","","24.1","","99.51","","","","","","NA"
"-94.71","56.36","GILLAM A","5061022","2019-05-14 15:00","2019","05","14","15:00","6.0","","-1.4","","59","","","","30","","10","","24.1","","99.51","","","","","","Mostly Cloudy"
"-94.71","56.36","GILLAM A","5061022","2019-05-14 16:00","2019","05","14","16:00","7.8","","-3.2","","46","","","","28","","12","","24.1","","99.53","","","","","","NA"
"-94.71","56.36","GILLAM A","5061022","2019-05-14 17:00","2019","05","14","17:00","7.1","","-3.3","","47","","","","28","","13","","24.1","","99.53","","","","","","NA"
"-94.71","56.36","GILLAM A","5061022","2019-05-14 18:00","2019","05","14","18:00","7.6","","-3.4","","46","","","","27","","12","","24.1","","99.53","","","","","","Mostly Cloudy"
"-94.71","56.36","GILLAM A","5061022","2019-05-14 19:00","2019","05","14","19:00","5.8","","-1.0","","61","","","","35","","20","","24.1","","99.55","","","","","","NA"
"-94.71","56.36","GILLAM A","5061022","2019-05-14 20:00","2019","05","14","20:00","4.9","","-1.2","","65","","","","34","","15","","24.1","","99.58","","","","","","NA"
"-94.71","56.36","GILLAM A","5061022","2019-05-14 21:00","2019","05","14","21:00","2.0","","-1.9","","75","","","","1","","13","","24.1","","99.64","","","","","","Mainly Clear"
"-94.71","56.36","GILLAM A","5061022","2019-05-14 22:00","2019","05","14","22:00","0.6","","-2.7","","79","","","","35","","9","","24.1","","99.69","","","","","","NA"
"-94.71","56.36","GILLAM A","5061022","2019-05-14 23:00","2019","05","14","23:00","-0.2","","-3.1","","81","","","","29","","6","","24.1","","99.70","","","","-2","","NA"
"-94.71","56.36","GILLAM A","5061022","2019-05-15 00:00","2019","05","15","00:00","-1.3","","-3.6","","84","","","","27","","7","","24.1","","99.69","","","","-4","","Mostly Cloudy"
"-94.71","56.36","GILLAM A","5061022","2019-05-15 01:00","2019","05","15","01:00","-1.4","","-4.3","","81","","","","28","","5","","24.1","","99.67","","","","-3","","NA"
"-94.71","56.36","GILLAM A","5061022","2019-05-15 02:00","2019","05","15","02:00","-2.6","","-4.6","","86","","","","22","","6","","24.1","","99.68","","","","-5","","NA"
"-94.71","56.36","GILLAM A","5061022","2019-05-15 03:00","2019","05","15","03:00","-3.1","","-4.6","","90","","","","22","","5","","24.1","","99.67","","","","-5","","Clear"
"-94.71","56.36","GILLAM A","5061022","2019-05-15 04:00","2019","05","15","04:00","-3.8","","-4.9","","92","","","","22","","6","","24.1","","99.67","","","","-6","","NA"
"-94.71","56.36","GILLAM A","5061022","2019-05-15 05:00","2019","05","15","05:00","-3.4","","-4.7","","90","","","","21","","5","","24.1","","99.64","","","","-5","","NA"
"-94.71","56.36","GILLAM A","5061022","2019-05-15 06:00","2019","05","15","06:00","-0.4","","-3.4","","80","","","","23","","7","","24.1","","99.62","","","","-3","","Mainly Clear"
"-94.71","56.36","GILLAM A","5061022","2019-05-15 07:00","2019","05","15","07:00","2.8","","-3.2","","65","","","","22","","7","","24.1","","99.61","","","","","","NA"
"-94.71","56.36","GILLAM A","5061022","2019-05-15 08:00","2019","05","15","08:00","4.8","","-4.6","","51","","","","25","","10","","24.1","","99.55","","","","","","NA"
"-94.71","56.36","GILLAM A","5061022","2019-05-15 09:00","2019","05","15","09:00","6.4","","-5.1","","44","","","","31","","4","","24.1","","99.50","","","","","","Mainly Clear"
"-94.71","56.36","GILLAM A","5061022","2019-05-15 10:00","2019","05","15","10:00","6.4","","-4.4","","46","","","","33","","9","","24.1","","99.44","","","","","","NA"
"-94.71","56.36","GILLAM A","5061022","2019-05-15 11:00","2019","05","15","11:00","7.0","","-3.5","","47","","","","33","","11","","24.1","","99.36","","","","","","NA"
"-94.71","56.36","GILLAM A","5061022","2019-05-15 12:00","2019","05","15","12:00","8.6","","-3.3","","43","","","","31","","10","","24.1","","99.24","","","","","","Mainly Clear"
"-94.71","56.36","GILLAM A","5061022","2019-05-15 13:00","2019","05","15","13:00","8.9","","-4.2","","40","","","","32","","10","","24.1","","99.16","","","","","","NA"
"-94.71","56.36","GILLAM A","5061022","2019-05-15 14:00","2019","05","15","14:00","8.4","","-3.1","","44","","","","33","","8","","24.1","","99.09","","","","","","NA"
"-94.71","56.36","GILLAM A","5061022","2019-05-15 15:00","2019","05","15","15:00","7.9","","-2.5","","48","","","","33","","15","","24.1","","99.03","","","","","","Cloudy"
"-94.71","56.36","GILLAM A","5061022","2019-05-15 16:00","2019","05","15","16:00","6.5","","-2.3","","53","","","","35","","26","","24.1","","99.05","","","","","","NA"
"-94.71","56.36","GILLAM A","5061022","2019-05-15 17:00","2019","05","15","17:00","3.4","","-1.6","","70","","","","35","","37","","24.1","","99.15","","","","","","NA"
"-94.71","56.36","GILLAM A","5061022","2019-05-15 18:00","2019","05","15","18:00","1.4","","-0.8","","86","","","","35","","24","","4.8","","99.21","","","","","","Snow Showers"
"-94.71","56.36","GILLAM A","5061022","2019-05-15 19:00","2019","05","15","19:00","0.5","","-0.3","","95","","","","13","","6","","3.2","","99.19","","","","","","Snow Showers"
"-94.71","56.36","GILLAM A","5061022","2019-05-15 20:00","2019","05","15","20:00","0.7","","-0.8","","90","","","","32","","7","","24.1","","99.22","","","","","","NA"
"-94.71","56.36","GILLAM A","5061022","2019-05-15 21:00","2019","05","15","21:00","-0.2","","-5.4","","68","","","","34","","21","","24.1","","99.24","","","","-6","","Mainly Clear"
"-94.71","56.36","GILLAM A","5061022","2019-05-15 22:00","2019","05","15","22:00","-1.3","","-6.0","","71","","","","33","","11","","24.1","","99.23","","","","-5","","NA"
"-94.71","56.36","GILLAM A","5061022","2019-05-15 23:00","2019","05","15","23:00","-1.0","","-5.0","","75","","","","29","","8","","24.1","","99.21","","","","-4","","NA"
"-94.71","56.36","GILLAM A","5061022","2019-05-16 00:00","2019","05","16","00:00","-1.2","","-5.4","","73","","","","30","","12","","24.1","","99.18","","","","-5","","Mostly Cloudy"
"-94.71","56.36","GILLAM A","5061022","2019-05-16 01:00","2019","05","16","01:00","-1.5","","-4.7","","79","","","","29","","11","","24.1","","99.17","","","","-5","","NA"
"-94.71","56.36","GILLAM A","5061022","2019-05-16 02:00","2019","05","16","02:00","-0.6","","-3.6","","80","","","","31","","17","","24.1","","99.16","","","","-6","","NA"
"-94.71","56.36","GILLAM A","5061022","2019-05-16 03:00","2019","05","16","03:00","-0.5","","-2.8","","84","","","","32","","19","","24.1","","99.19","","","","-6","","Mostly Cloudy"
"-94.71","56.36","GILLAM A","5061022","2019-05-16 04:00","2019","05","16","04:00","-0.6","","-3.3","","82","","","","31","","18","","24.1","","99.21","","","","-6","","NA"
"-94.71","56.36","GILLAM A","5061022","2019-05-16 05:00","2019","05","16","05:00","-0.4","","-3.2","","81","","","","30","","21","","24.1","","99.22","","","","-6","","NA"
"-94.71","56.36","GILLAM A","5061022","2019-05-16 06:00","2019","05","16","06:00","-0.2","","-2.4","","85","","","","30","","22","","20.9","","99.21","","","","-6","","Snow"
"-94.71","56.36","GILLAM A","5061022","2019-05-16 07:00","2019","05","16","07:00","0.2","","-1.5","","89","","","","29","","20","","6.4","","99.20","","","","","","Snow Showers"
"-94.71","56.36","GILLAM A","5061022","2019-05-16 08:00","2019","05","16","08:00","0.9","","-0.9","","88","","","","30","","22","","12.9","","99.21","","","","","","Snow Showers"
"-94.71","56.36","GILLAM A","5061022","2019-05-16 09:00","2019","05","16","09:00","1.3","","-1.5","","81","","","","33","","27","","4.8","","99.23","","","","","","Snow Showers"
"-94.71","56.36","GILLAM A","5061022","2019-05-16 10:00","2019","05","16","10:00","2.3","","-2.8","","69","","","","33","","30","","19.3","","99.29","","","","","","NA"
"-94.71","56.36","GILLAM A","5061022","2019-05-16 11:00","2019","05","16","11:00","1.3","","-0.6","","87","","","","34","","31","","6.4","","99.34","","","","","","Snow Showers"
"-94.71","56.36","GILLAM A","5061022","2019-05-16 12:00","2019","05","16","12:00","2.2","","-2.9","","69","","","","33","","28","","19.3","","99.37","","","","","","Cloudy"
"-94.71","56.36","GILLAM A","5061022","2019-05-16 13:00","2019","05","16","13:00","1.5","","-3.0","","72","","","","32","","32","","24.1","","99.42","","","","","","NA"
"-94.71","56.36","GILLAM A","5061022","2019-05-16 14:00","2019","05","16","14:00","1.9","","-3.0","","70","","","","30","","31","","24.1","","99.46","","","","","","NA"
"-94.71","56.36","GILLAM A","5061022","2019-05-16 15:00","2019","05","16","15:00","2.2","","-4.0","","64","","","","31","","31","","24.1","","99.49","","","","","","Cloudy"
"-94.71","56.36","GILLAM A","5061022","2019-05-16 16:00","2019","05","16","16:00","1.8","","-4.2","","64","","","","31","","33","","24.1","","99.54","","","","","","NA"
"-94.71","56.36","GILLAM A","5061022","2019-05-16 17:00","2019","05","16","17:00","1.9","","-4.5","","63","","","","31","","26","","24.1","","99.57","","","","","","NA"
"-94.71","56.36","GILLAM A","5061022","2019-05-16 18:00","2019","05","16","18:00","1.7","","-3.9","","67","","","","32","","27","","24.1","","99.61","","","","","","Snow"
"-94.71","56.36","GILLAM A","5061022","2019-05-16 19:00","2019","05","16","19:00","1.7","","-4.0","","66","","","","32","","35","","24.1","","99.64","","","","","","Snow"
"-94.71","56.36","GILLAM A","5061022","2019-05-16 20:00","2019","05","16","20:00","0.9","","-2.6","","78","","","","32","","24","","17.7","","99.69","","","","","","Snow"
"-94.71","56.36","GILLAM A","5061022","2019-05-16 21:00","2019","05","16","21:00","0.1","","-2.0","","86","","","","32","","28","","3.6","","99.72","","","","","","Snow"
"-94.71","56.36","GILLAM A","5061022","2019-05-16 22:00","2019","05","16","22:00","-0.1","","-2.8","","82","","","","32","","33","","16.1","","99.71","","","","-7","","Snow"
"-94.71","56.36","GILLAM A","5061022","2019-05-16 23:00","2019","05","16","23:00","-0.2","","-3.4","","79","","","","31","","30","","19.3","","99.70","","","","-7","","Snow"
"-94.71","56.36","GILLAM A","5061022","2019-05-17 00:00","2019","05","17","00:00","-0.6","","-3.7","","79","","","","32","","30","","20.9","","99.68","","","","-7","","Snow"
"-94.71","56.36","GILLAM A","5061022","2019-05-17 01:00","2019","05","17","01:00","-0.7","","-3.9","","79","","","","32","","27","","22.5","","99.67","","","","-7","","Snow"
"-94.71","56.36","GILLAM A","5061022","2019-05-17 02:00","2019","05","17","02:00","-1.0","","-3.7","","82","","","","32","","32","","14.5","","99.70","","","","-8","","Snow"
"-94.71","56.36","GILLAM A","5061022","2019-05-17 03:00","2019","05","17","03:00","-1.1","","-3.5","","84","","","","32","","33","","11.3","","99.74","","","","-8","","Snow"
"-94.71","56.36","GILLAM A","5061022","2019-05-17 04:00","2019","05","17","04:00","-1.4","","-3.0","","89","","","","31","","21","","4.0","","99.77","","","","-7","","Snow"
"-94.71","56.36","GILLAM A","5061022","2019-05-17 05:00","2019","05","17","05:00","-1.2","","-2.9","","88","","","","32","","25","","14.5","","99.84","","","","-7","","Snow"
"-94.71","56.36","GILLAM A","5061022","2019-05-17 06:00","2019","05","17","06:00","-0.7","","-3.1","","84","","","","32","","23","","24.1","","99.90","","","","-7","","Snow"
"-94.71","56.36","GILLAM A","5061022","2019-05-17 07:00","2019","05","17","07:00","-0.3","","-4.0","","76","","","","35","","27","","24.1","","99.95","","","","-7","","NA"
"-94.71","56.36","GILLAM A","5061022","2019-05-17 08:00","2019","05","17","08:00","-0.1","","-3.7","","77","","","","35","","28","","19.3","","99.99","","","","-6","","Snow"
"-94.71","56.36","GILLAM A","5061022","2019-05-17 09:00","2019","05","17","09:00","0.6","","-3.7","","73","","","","35","","28","","19.3","","100.05","","","","","","Ice Pellet Showers"
"-94.71","56.36","GILLAM A","5061022","2019-05-17 10:00","2019","05","17","10:00","1.6","","-4.0","","66","","","","1","","30","","24.1","","100.10","","","","","","NA"
"-94.71","56.36","GILLAM A","5061022","2019-05-17 11:00","2019","05","17","11:00","1.8","","-3.0","","70","","","","36","","24","","24.1","","100.16","","","","","","NA"
"-94.71","56.36","GILLAM A","5061022","2019-05-17 12:00","2019","05","17","12:00","2.1","","-2.9","","69","","","","35","","34","","24.1","","100.20","","","","","","Mostly Cloudy"
"-94.71","56.36","GILLAM A","5061022","2019-05-17 13:00","2019","05","17","13:00","3.8","","-2.7","","62","","","","36","","26","","24.1","","100.26","","","","","","NA"
"-94.71","56.36","GILLAM A","5061022","2019-05-17 14:00","2019","05","17","14:00","3.7","","-2.0","","66","","","","1","","31","","24.1","","100.31","","","","","","NA"
"-94.71","56.36","GILLAM A","5061022","2019-05-17 15:00","2019","05","17","15:00","4.3","","-1.4","","67","","","","2","","29","","19.3","","100.40","","","","","","Snow Showers"
"-94.71","56.36","GILLAM A","5061022","2019-05-17 16:00","2019","05","17","16:00","2.8","","-0.4","","79","","","","2","","23","","19.3","","100.47","","","","","","NA"
"-94.71","56.36","GILLAM A","5061022","2019-05-17 17:00","2019","05","17","17:00","3.3","","-1.1","","73","","","","2","","24","","19.3","","100.52","","","","","","NA"
"-94.71","56.36","GILLAM A","5061022","2019-05-17 18:00","2019","05","17","18:00","2.8","","-0.3","","80","","","","2","","14","","14.5","","100.54","","","","","","Rain"
"-94.71","56.36","GILLAM A","5061022","2019-05-17 19:00","2019","05","17","19:00","2.4","","0.8","","89","","","","36","","19","","17.7","","100.55","","","","","","Rain"
"-94.71","56.36","GILLAM A","5061022","2019-05-17 20:00","2019","05","17","20:00","2.3","","0.7","","89","","","","35","","28","","19.3","","100.56","","","","","","Rain"
"-94.71","56.36","GILLAM A","5061022","2019-05-17 21:00","2019","05","17","21:00","1.6","","0.5","","92","","","","36","","18","","24.1","","100.59","","","","","","Rain"
"-94.71","56.36","GILLAM A","5061022","2019-05-17 22:00","2019","05","17","22:00","1.3","","0.3","","93","","","","2","","18","","24.1","","100.62","","","","","","Rain"
"-94.71","56.36","GILLAM A","5061022","2019-05-17 23:00","2019","05","17","23:00","0.8","","-0.4","","91","","","","1","","23","","24.1","","100.65","","","","","","Rain"
"-94.71","56.36","GILLAM A","5061022","2019-05-18 00:00","2019","05","18","00:00","0.0","","-1.2","","92","","","","2","","18","","24.1","","100.70","","","","-5","","Rain"
"-94.71","56.36","GILLAM A","5061022","2019-05-18 01:00","2019","05","18","01:00","-0.7","","-2.9","","85","","","","2","","26","","20.9","","100.76","","","","-7","","Snow"
"-94.71","56.36","GILLAM A","5061022","2019-05-18 02:00","2019","05","18","02:00","-1.2","","-3.9","","82","","","","1","","30","","24.1","","100.80","","","","-8","","Snow"
"-94.71","56.36","GILLAM A","5061022","2019-05-18 03:00","2019","05","18","03:00","-1.5","","-4.2","","82","","","","1","","30","","24.1","","100.84","","","","-8","","Mostly Cloudy"
"-94.71","56.36","GILLAM A","5061022","2019-05-18 04:00","2019","05","18","04:00","-1.3","","-3.6","","84","","","","35","","18","","20.9","","100.83","","","","-7","","Snow"
"-94.71","56.36","GILLAM A","5061022","2019-05-18 05:00","2019","05","18","05:00","-1.0","","-2.8","","88","","","","35","","14","","22.5","","100.87","","","","-5","","Snow"
"-94.71","56.36","GILLAM A","5061022","2019-05-18 06:00","2019","05","18","06:00","-0.7","","-2.6","","87","","","","1","","26","","4.8","","100.91","","","","-7","","Snow"
"-94.71","56.36","GILLAM A","5061022","2019-05-18 07:00","2019","05","18","07:00","-0.8","","-2.5","","88","","","","1","","27","","4.0","","100.95","","","","-7","","Snow"
"-94.71","56.36","GILLAM A","5061022","2019-05-18 08:00","2019","05","18","08:00","0.0","","-2.8","","81","","","","2","","24","","9.7","","100.99","","","","-6","","Snow"
"-94.71","56.36","GILLAM A","5061022","2019-05-18 09:00","2019","05","18","09:00","1.1","","-2.6","","76","","","","2","","19","","24.1","","101.00","","","","","","Mostly Cloudy"
"-94.71","56.36","GILLAM A","5061022","2019-05-18 10:00","2019","05","18","10:00","2.3","","-2.2","","72","","","","35","","17","","24.1","","101.01","","","","","","NA"
"-94.71","56.36","GILLAM A","5061022","2019-05-18 11:00","2019","05","18","11:00","3.7","","-3.1","","61","","","","2","","9","","24.1","","101.02","","","","","","NA"
"-94.71","56.36","GILLAM A","5061022","2019-05-18 12:00","2019","05","18","12:00","5.3","","-1.9","","60","","","","36","","13","","24.1","","100.99","","","","","","Mostly Cloudy"
"-94.71","56.36","GILLAM A","5061022","2019-05-18 13:00","2019","05","18","13:00","6.2","","-2.2","","55","","","","36","","12","","24.1","","100.98","","","","","","NA"
"-94.71","56.36","GILLAM A","5061022","2019-05-18 14:00","2019","05","18","14:00","6.8","","-1.1","","57","","","","2","","18","","24.1","","100.95","","","","","","NA"
"-94.71","56.36","GILLAM A","5061022","2019-05-18 15:00","2019","05","18","15:00","8.1","","-1.3","","51","","","","35","","18","","24.1","","100.94","","","","","","Mostly Cloudy"
"-94.71","56.36","GILLAM A","5061022","2019-05-18 16:00","2019","05","18","16:00","8.3","","-1.0","","52","","","","1","","19","","24.1","","100.93","","","","","","NA"
"-94.71","56.36","GILLAM A","5061022","2019-05-18 17:00","2019","05","18","17:00","8.1","","-0.4","","55","","","","1","","19","","24.1","","100.92","","","","","","NA"
"-94.71","56.36","GILLAM A","5061022","2019-05-18 18:00","2019","05","18","18:00","7.8","","-1.3","","52","","","","3","","19","","24.1","","100.93","","","","","","Mainly Clear"
"-94.71","56.36","GILLAM A","5061022","2019-05-18 19:00","2019","05","18","19:00","6.3","","-1.2","","59","","","","1","","22","","24.1","","100.94","","","","","","NA"
"-94.71","56.36","GILLAM A","5061022","2019-05-18 20:00","2019","05","18","20:00","4.7","","-0.6","","69","","","","3","","15","","24.1","","100.96","","","","","","NA"
"-94.71","56.36","GILLAM A","5061022","2019-05-18 21:00","2019","05","18","21:00","2.2","","-0.7","","81","","","","1","","8","","24.1","","100.98","","","","","","Clear"
"-94.71","56.36","GILLAM A","5061022","2019-05-18 22:00","2019","05","18","22:00","0.7","","-1.2","","88","","","","1","","9","","24.1","","101.00","","","","","","NA"
"-94.71","56.36","GILLAM A","5061022","2019-05-18 23:00","2019","05","18","23:00","0.0","","-1.4","","90","","","","36","","10","","24.1","","101.00","","","","-3","","NA"
"-94.71","56.36","GILLAM A","5061022","2019-05-19 00:00","2019","05","19","00:00","-0.3","","-2.3","","86","","","","2","","11","","24.1","","101.01","","","","-4","","Mainly Clear"
"-94.71","56.36","GILLAM A","5061022","2019-05-19 01:00","2019","05","19","01:00","-0.3","","-3.1","","81","","","","35","","12","","24.1","","101.01","","","","-4","","NA"
"-94.71","56.36","GILLAM A","5061022","2019-05-19 02:00","2019","05","19","02:00","-0.8","","-3.0","","85","","","","34","","11","","24.1","","100.99","","","","-5","","NA"
"-94.71","56.36","GILLAM A","5061022","2019-05-19 03:00","2019","05","19","03:00","-1.4","","-2.9","","90","","","","34","","8","","24.1","","100.98","","","","-4","","Clear"
"-94.71","56.36","GILLAM A","5061022","2019-05-19 04:00","2019","05","19","04:00","-1.9","","-3.2","","90","","","","35","","12","","24.1","","101.00","","","","-6","","NA"
"-94.71","56.36","GILLAM A","5061022","2019-05-19 05:00","2019","05","19","05:00","-1.9","","-3.0","","92","","","","1","","13","","24.1","","101.03","","","","-6","","NA"
"-94.71","56.36","GILLAM A","5061022","2019-05-19 06:00","2019","05","19","06:00","-2.0","","-3.0","","93","","","","3","","11","","24.1","","101.06","","","","-6","","Cloudy"
"-94.71","56.36","GILLAM A","5061022","2019-05-19 07:00","2019","05","19","07:00","-1.0","","-2.5","","89","","","","2","","11","","24.1","","101.10","","","","-5","","NA"
"-94.71","56.36","GILLAM A","5061022","2019-05-19 08:00","2019","05","19","08:00","0.6","","-2.7","","79","","","","2","","8","","24.1","","101.08","","","","","","NA"
"-94.71","56.36","GILLAM A","5061022","2019-05-19 09:00","2019","05","19","09:00","3.1","","-1.9","","70","","","","36","","9","","24.1","","101.03","","","","","","Clear"
"-94.71","56.36","GILLAM A","5061022","2019-05-19 10:00","2019","05","19","10:00","5.8","","-1.6","","59","","","","3","","17","","24.1","","100.98","","","","","","NA"
"-94.71","56.36","GILLAM A","5061022","2019-05-19 11:00","2019","05","19","11:00","7.2","","-0.6","","58","","","","3","","19","","24.1","","100.93","","","","","","NA"
"-94.71","56.36","GILLAM A","5061022","2019-05-19 12:00","2019","05","19","12:00","8.6","","-0.1","","54","","","","4","","15","","24.1","","100.91","","","","","","Clear"
"-94.71","56.36","GILLAM A","5061022","2019-05-19 13:00","2019","05","19","13:00","8.8","","0.2","","55","","","","4","","13","","24.1","","100.89","","","","","","NA"
"-94.71","56.36","GILLAM A","5061022","2019-05-19 14:00","2019","05","19","14:00","9.7","","0.6","","53","","","","4","","16","","24.1","","100.86","","","","","","NA"
"-94.71","56.36","GILLAM A","5061022","2019-05-19 15:00","2019","05","19","15:00","10.1","","0.2","","50","","","","5","","21","","24.1","","100.82","","","","","","Clear"
"-94.71","56.36","GILLAM A","5061022","2019-05-19 16:00","2019","05","19","16:00","10.2","","0.6","","51","","","","4","","19","","24.1","","100.76","","","","","","NA"
"-94.71","56.36","GILLAM A","5061022","2019-05-19 17:00","2019","05","19","17:00","10.2","","0.1","","49","","","","5","","12","","24.1","","100.74","","","","","","NA"
"-94.71","56.36","GILLAM A","5061022","2019-05-19 18:00","2019","05","19","18:00","8.9","","-0.4","","52","","","","4","","15","","24.1","","100.72","","","","","","Clear"
"-94.71","56.36","GILLAM A","5061022","2019-05-19 19:00","2019","05","19","19:00","7.4","","-0.9","","56","","","","5","","11","","24.1","","100.73","","","","","","NA"
"-94.71","56.36","GILLAM A","5061022","2019-05-19 20:00","2019","05","19","20:00","5.5","","-1.4","","61","","","","6","","11","","24.1","","100.75","","","","","","NA"
"-94.71","56.36","GILLAM A","5061022","2019-05-19 21:00","2019","05","19","21:00","3.3","","-1.6","","70","","","","5","","10","","24.1","","100.75","","","","","","Mainly Clear"
"-94.71","56.36","GILLAM A","5061022","2019-05-19 22:00","2019","05","19","22:00","2.8","","-2.8","","67","","","","5","","10","","24.1","","100.78","","","","","","NA"
"-94.71","56.36","GILLAM A","5061022","2019-05-19 23:00","2019","05","19","23:00","1.0","","-2.9","","75","","","","4","","8","","24.1","","100.80","","","","","","NA"
"-94.71","56.36","GILLAM A","5061022","2019-05-20 00:00","2019","05","20","00:00","0.6","","-1.8","","84","","","","5","","10","","24.1","","100.80","","","","","","Mainly Clear"
"-94.71","56.36","GILLAM A","5061022","2019-05-20 01:00","2019","05","20","01:00","-0.1","","-1.7","","89","","","","5","","9","","24.1","","100.78","","","","-3","","NA"
"-94.71","56.36","GILLAM A","5061022","2019-05-20 02:00","2019","05","20","02:00","-1.1","","-1.8","","95","","","","3","","7","","24.1","","100.77","","","","-4","","NA"
"-94.71","56.36","GILLAM A","5061022","2019-05-20 03:00","2019","05","20","03:00","-1.4","","-1.9","","96","","","","4","","6","","24.1","","100.75","","","","-4","","Mostly Cloudy"
"-94.71","56.36","GILLAM A","5061022","2019-05-20 04:00","2019","05","20","04:00","-2.3","","-2.6","","97","","","","5","","5","","12.9","","100.75","","","","-4","","NA"
"-94.71","56.36","GILLAM A","5061022","2019-05-20 05:00","2019","05","20","05:00","-2.6","","-2.9","","98","","","","6","","5","","0.2","","100.77","","","","-5","","Freezing Fog"
"-94.71","56.36","GILLAM A","5061022","2019-05-20 06:00","2019","05","20","06:00","-2.4","","-2.7","","98","","","","4","","4","","0.8","","100.80","","","","-4","","Freezing Fog"
"-94.71","56.36","GILLAM A","5061022","2019-05-20 07:00","2019","05","20","07:00","-2.0","","-2.3","","98","","","","1","","5","","0.8","","100.81","","","","-4","","Freezing Fog"
"-94.71","56.36","GILLAM A","5061022","2019-05-20 08:00","2019","05","20","08:00","1.2","","-0.8","","86","","","","35","","7","","24.1","","100.82","","","","","","NA"
"-94.71","56.36","GILLAM A","5061022","2019-05-20 09:00","2019","05","20","09:00","4.1","","-1.5","","67","","","","34","","6","","24.1","","100.79","","","","","","Cloudy"
"-94.71","56.36","GILLAM A","5061022","2019-05-20 10:00","2019","05","20","10:00","6.6","","-3.1","","50","","","","36","","6","","24.1","","100.75","","","","","","NA"
"-94.71","56.36","GILLAM A","5061022","2019-05-20 11:00","2019","05","20","11:00","8.9","","-2.4","","45","","","","33","","7","","24.1","","100.70","","","","","","NA"
"-94.71","56.36","GILLAM A","5061022","2019-05-20 12:00","2019","05","20","12:00","9.7","","-2.6","","42","","","","32","","4","","24.1","","100.65","","","","","","Mostly Cloudy"
"-94.71","56.36","GILLAM A","5061022","2019-05-20 13:00","2019","05","20","13:00","11.3","","-3.6","","35","","","","35","","6","","24.1","","100.61","","","","","","NA"
"-94.71","56.36","GILLAM A","5061022","2019-05-20 14:00","2019","05","20","14:00","9.2","","-2.1","","45","","","","31","","11","","24.1","","100.57","","","","","","NA"
"-94.71","56.36","GILLAM A","5061022","2019-05-20 15:00","2019","05","20","15:00","9.8","","-2.1","","43","","","","31","","13","","24.1","","100.52","","","","","","Cloudy"
"-94.71","56.36","GILLAM A","5061022","2019-05-20 16:00","2019","05","20","16:00","10.2","","-2.9","","40","","","","31","","10","","24.1","","100.48","","","","","","NA"
"-94.71","56.36","GILLAM A","5061022","2019-05-20 17:00","2019","05","20","17:00","11.9","","-4.9","","30","","","","29","","9","","24.1","","100.43","","","","","","NA"
"-94.71","56.36","GILLAM A","5061022","2019-05-20 18:00","2019","05","20","18:00","11.9","","-3.0","","35","","","","29","","5","","24.1","","100.41","","","","","","Mostly Cloudy"
"-94.71","56.36","GILLAM A","5061022","2019-05-20 19:00","2019","05","20","19:00","11.5","","-2.2","","38","","","","36","","2","","24.1","","100.33","","","","","","NA"
"-94.71","56.36","GILLAM A","5061022","2019-05-20 20:00","2019","05","20","20:00","10.8","","-2.1","","41","","","","36","","3","","24.1","","100.31","","","","","","NA"
"-94.71","56.36","GILLAM A","5061022","2019-05-20 21:00","2019","05","20","21:00","7.6","","-1.7","","52","","","","17","","8","","24.1","","100.30","","","","","","Mostly Cloudy"
"-94.71","56.36","GILLAM A","5061022","2019-05-20 22:00","2019","05","20","22:00","7.1","","-2.9","","49","","","","19","","9","","24.1","","100.28","","","","","","NA"
"-94.71","56.36","GILLAM A","5061022","2019-05-20 23:00","2019","05","20","23:00","5.8","","-2.9","","54","","","","18","","9","","24.1","","100.29","","","","","","NA"
"-94.71","56.36","GILLAM A","5061022","2019-05-21 00:00","2019","05","21","00:00","5.4","","-2.4","","57","","","","19","","11","","24.1","","100.22","","","","","","Mainly Clear"
"-94.71","56.36","GILLAM A","5061022","2019-05-21 01:00","2019","05","21","01:00","4.6","","-1.8","","63","","","","19","","11","","24.1","","100.17","","","","","","NA"
"-94.71","56.36","GILLAM A","5061022","2019-05-21 02:00","2019","05","21","02:00","4.8","","-0.8","","67","","","","21","","14","","24.1","","100.16","","","","","","NA"
"-94.71","56.36","GILLAM A","5061022","2019-05-21 03:00","2019","05","21","03:00","4.3","","-0.6","","70","","","","21","","13","","24.1","","100.13","","","","","","Mostly Cloudy"
"-94.71","56.36","GILLAM A","5061022","2019-05-21 04:00","2019","05","21","04:00","3.7","","-0.5","","74","","","","21","","15","","24.1","","100.10","","","","","","NA"
"-94.71","56.36","GILLAM A","5061022","2019-05-21 05:00","2019","05","21","05:00","4.8","","-0.2","","70","","","","22","","16","","24.1","","100.08","","","","","","NA"
"-94.71","56.36","GILLAM A","5061022","2019-05-21 06:00","2019","05","21","06:00","7.6","","0.2","","59","","","","22","","15","","24.1","","100.09","","","","","","Mainly Clear"
"-94.71","56.36","GILLAM A","5061022","2019-05-21 07:00","2019","05","21","07:00","11.3","","1.1","","49","","","","21","","13","","24.1","","100.10","","","","","","NA"
"-94.71","56.36","GILLAM A","5061022","2019-05-21 08:00","2019","05","21","08:00","14.7","","1.5","","41","","","","23","","17","","24.1","","100.06","","","","","","NA"
"-94.71","56.36","GILLAM A","5061022","2019-05-21 09:00","2019","05","21","09:00","17.6","","0.5","","31","","","","26","","25","","24.1","","100.04","","","","","","Mainly Clear"
"-94.71","56.36","GILLAM A","5061022","2019-05-21 10:00","2019","05","21","10:00","13.5","","2.4","","47","","","","31","","15","","24.1","","100.01","","","","","","NA"
"-94.71","56.36","GILLAM A","5061022","2019-05-21 11:00","2019","05","21","11:00","18.0","","0.7","","31","","","","29","","15","","24.1","","99.95","","","","","","NA"
"-94.71","56.36","GILLAM A","5061022","2019-05-21 12:00","2019","05","21","12:00","20.0","","-0.5","","25","","","","28","","18","","24.1","","99.92","","","","","","Mostly Cloudy"
"-94.71","56.36","GILLAM A","5061022","2019-05-21 13:00","2019","05","21","13:00","21.6","","0.7","","25","","","","28","","14","","24.1","","99.89","","","","","","NA"
"-94.71","56.36","GILLAM A","5061022","2019-05-21 14:00","2019","05","21","14:00","20.1","","0.8","","27","","","","30","","16","","24.1","","99.86","","","","","","NA"
"-94.71","56.36","GILLAM A","5061022","2019-05-21 15:00","2019","05","21","15:00","20.8","","0.2","","25","","","","30","","13","","24.1","","99.87","","","","","","Mostly Cloudy"
"-94.71","56.36","GILLAM A","5061022","2019-05-21 16:00","2019","05","21","16:00","14.6","","4.1","","49","","","","4","","36","","24.1","","99.89","","","","","","NA"
"-94.71","56.36","GILLAM A","5061022","2019-05-21 17:00","2019","05","21","17:00","11.3","","3.0","","57","","","","4","","26","","24.1","","100.05","","","","","","NA"
"-94.71","56.36","GILLAM A","5061022","2019-05-21 18:00","2019","05","21","18:00","8.3","","1.8","","63","","","","5","","16","","24.1","","100.15","","","","","","Cloudy"
"-94.71","56.36","GILLAM A","5061022","2019-05-21 19:00","2019","05","21","19:00","6.1","","1.2","","71","","","","4","","17","","24.1","","100.25","","","","","","NA"
"-94.71","56.36","GILLAM A","5061022","2019-05-21 20:00","2019","05","21","20:00","5.0","","0.2","","71","","","","5","","19","","24.1","","100.33","","","","","","NA"
"-94.71","56.36","GILLAM A","5061022","2019-05-21 21:00","2019","05","21","21:00","3.3","","0.2","","80","","","","4","","18","","24.1","","100.40","","","","","","Mostly Cloudy"
"-94.71","56.36","GILLAM A","5061022","2019-05-21 22:00","2019","05","21","22:00","2.0","","-0.4","","84","","","","4","","20","","24.1","","100.47","","","","","","NA"
"-94.71","56.36","GILLAM A","5061022","2019-05-21 23:00","2019","05","21","23:00","1.1","","-0.9","","87","","","","5","","11","","24.1","","100.52","","","","","","NA"
"-94.71","56.36","GILLAM A","5061022","2019-05-22 00:00","2019","05","22","00:00","0.5","","-1.3","","87","","","","5","","13","","24.1","","100.54","","","","","","Cloudy"
"-94.71","56.36","GILLAM A","5061022","2019-05-22 01:00","2019","05","22","01:00","0.2","","-1.6","","88","","","","5","","13","","24.1","","100.59","","","","","","NA"
"-94.71","56.36","GILLAM A","5061022","2019-05-22 02:00","2019","05","22","02:00","-0.2","","-1.8","","89","","","","4","","17","","24.1","","100.66","","","","-5","","NA"
"-94.71","56.36","GILLAM A","5061022","2019-05-22 03:00","2019","05","22","03:00","-0.8","","-2.0","","91","","","","5","","16","","24.1","","100.68","","","","-6","","Cloudy"
"-94.71","56.36","GILLAM A","5061022","2019-05-22 04:00","2019","05","22","04:00","-0.9","","-1.9","","93","","","","4","","20","","24.1","","100.68","","","","-6","","NA"
"-94.71","56.36","GILLAM A","5061022","2019-05-22 05:00","2019","05","22","05:00","-0.8","","-2.3","","89","","","","4","","19","","24.1","","100.69","","","","-6","","NA"
"-94.71","56.36","GILLAM A","5061022","2019-05-22 06:00","2019","05","22","06:00","-0.4","","-2.8","","84","","","","5","","17","","24.1","","100.75","","","","-5","","Cloudy"
"-94.71","56.36","GILLAM A","5061022","2019-05-22 07:00","2019","05","22","07:00","-0.3","","-3.0","","82","","","","5","","20","","24.1","","100.78","","","","-6","","NA"
"-94.71","56.36","GILLAM A","5061022","2019-05-22 08:00","2019","05","22","08:00","-0.1","","-3.7","","77","","","","6","","19","","24.1","","100.80","","","","-5","","NA"
"-94.71","56.36","GILLAM A","5061022","2019-05-22 09:00","2019","05","22","09:00","0.8","","-3.7","","72","","","","4","","18","","24.1","","100.82","","","","","","Mostly Cloudy"
"-94.71","56.36","GILLAM A","5061022","2019-05-22 10:00","2019","05","22","10:00","2.7","","-4.1","","61","","","","5","","16","","24.1","","100.77","","","","","","NA"
"-94.71","56.36","GILLAM A","5061022","2019-05-22 11:00","2019","05","22","11:00","3.8","","-4.1","","56","","","","4","","17","","24.1","","100.76","","","","","","NA"
"-94.71","56.36","GILLAM A","5061022","2019-05-22 12:00","2019","05","22","12:00","3.9","","-5.1","","52","","","","4","","17","","24.1","","100.72","","","","","","Mostly Cloudy"
"-94.71","56.36","GILLAM A","5061022","2019-05-22 13:00","2019","05","22","13:00","4.7","","-5.3","","48","","","","5","","17","","24.1","","100.71","","","","","","NA"
"-94.71","56.36","GILLAM A","5061022","2019-05-22 14:00","2019","05","22","14:00","5.0","","-4.5","","50","","","","5","","18","","24.1","","100.68","","","","","","NA"
"-94.71","56.36","GILLAM A","5061022","2019-05-22 15:00","2019","05","22","15:00","5.5","","-4.4","","49","","","","5","","14","","24.1","","100.63","","","","","","Mostly Cloudy"
"-94.71","56.36","GILLAM A","5061022","2019-05-22 16:00","2019","05","22","16:00","6.2","","-4.9","","45","","","","5","","15","","24.1","","100.60","","","","","","NA"
"-94.71","56.36","GILLAM A","5061022","2019-05-22 17:00","2019","05","22","17:00","6.0","","-4.0","","49","","","","6","","13","","24.1","","100.59","","","","","","NA"
"-94.71","56.36","GILLAM A","5061022","2019-05-22 18:00","2019","05","22","18:00","5.0","","-4.7","","50","","","","6","","14","","24.1","","100.59","","","","","","Mainly Clear"
"-94.71","56.36","GILLAM A","5061022","2019-05-22 19:00","2019","05","22","19:00","3.8","","-5.4","","51","","","","6","","16","","24.1","","100.59","","","","","","NA"
"-94.71","56.36","GILLAM A","5061022","2019-05-22 20:00","2019","05","22","20:00","2.3","","-5.9","","55","","","","7","","11","","24.1","","100.61","","","","","","NA"
"-94.71","56.36","GILLAM A","5061022","2019-05-22 21:00","2019","05","22","21:00","0.3","","-6.0","","63","","","","6","","12","","24.1","","100.64","","","","","","Mainly Clear"
"-94.71","56.36","GILLAM A","5061022","2019-05-22 22:00","2019","05","22","22:00","-1.3","","-6.3","","69","","","","8","","9","","24.1","","100.65","","","","-5","","NA"
"-94.71","56.36","GILLAM A","5061022","2019-05-22 23:00","2019","05","22","23:00","-2.4","","-6.5","","73","","","","7","","9","","24.1","","100.66","","","","-6","","NA"
"-94.71","56.36","GILLAM A","5061022","2019-05-23 00:00","2019","05","23","00:00","-3.5","","-5.9","","83","","","","12","","7","","24.1","","100.65","","","","-6","","Mainly Clear"
"-94.71","56.36","GILLAM A","5061022","2019-05-23 01:00","2019","05","23","01:00","-4.6","","-6.4","","87","","","","11","","7","","24.1","","100.64","","","","-8","","NA"
"-94.71","56.36","GILLAM A","5061022","2019-05-23 02:00","2019","05","23","02:00","-5.5","","-6.9","","90","","","","11","","4","","24.1","","100.65","","","","-7","","NA"
"-94.71","56.36","GILLAM A","5061022","2019-05-23 03:00","2019","05","23","03:00","-6.1","","-7.2","","92","","","","9","","6","","24.1","","100.67","","","","-9","","Mainly Clear"
"-94.71","56.36","GILLAM A","5061022","2019-05-23 04:00","2019","05","23","04:00","-5.7","","-7.0","","90","","","","9","","9","","24.1","","100.69","","","","-10","","NA"
"-94.71","56.36","GILLAM A","5061022","2019-05-23 05:00","2019","05","23","05:00","-5.6","","-6.9","","91","","","","13","","5","","24.1","","100.72","","","","-8","","NA"
"-94.71","56.36","GILLAM A","5061022","2019-05-23 06:00","2019","05","23","06:00","-4.6","","-6.6","","86","","","","5","","4","","24.1","","100.75","","","","-6","","Mostly Cloudy"
"-94.71","56.36","GILLAM A","5061022","2019-05-23 07:00","2019","05","23","07:00","-3.8","","-6.0","","85","","","","33","","5","","24.1","","100.80","","","","-6","","NA"
"-94.71","56.36","GILLAM A","5061022","2019-05-23 08:00","2019","05","23","08:00","-2.7","","-6.2","","77","","","","32","","6","","24.1","","100.80","","","","-5","","NA"
"-94.71","56.36","GILLAM A","5061022","2019-05-23 09:00","2019","05","23","09:00","-1.3","","-6.7","","67","","","","5","","8","","24.1","","100.78","","","","-4","","Mostly Cloudy"
"-94.71","56.36","GILLAM A","5061022","2019-05-23 10:00","2019","05","23","10:00","0.3","","-6.3","","61","","","","36","","6","","24.1","","100.75","","","","","","NA"
"-94.71","56.36","GILLAM A","5061022","2019-05-23 11:00","2019","05","23","11:00","1.9","","-5.7","","57","","","","35","","7","","24.1","","100.69","","","","","","NA"
"-94.71","56.36","GILLAM A","5061022","2019-05-23 12:00","2019","05","23","12:00","2.8","","-5.9","","53","","","","30","","6","","24.1","","100.65","","","","","","Mainly Clear"
"-94.71","56.36","GILLAM A","5061022","2019-05-23 13:00","2019","05","23","13:00","4.2","","-4.8","","52","","","","30","","11","","24.1","","100.59","","","","","","NA"
"-94.71","56.36","GILLAM A","5061022","2019-05-23 14:00","2019","05","23","14:00","5.1","","-5.2","","48","","","","30","","10","","24.1","","100.56","","","","","","NA"
"-94.71","56.36","GILLAM A","5061022","2019-05-23 15:00","2019","05","23","15:00","5.9","","-6.0","","42","","","","33","","7","","24.1","","100.52","","","","","","Mainly Clear"
"-94.71","56.36","GILLAM A","5061022","2019-05-23 16:00","2019","05","23","16:00","6.9","","-5.3","","41","","","","33","","8","","24.1","","100.48","","","","","","NA"
"-94.71","56.36","GILLAM A","5061022","2019-05-23 17:00","2019","05","23","17:00","6.6","","-5.5","","42","","","","4","","8","","24.1","","100.41","","","","","","NA"
"-94.71","56.36","GILLAM A","5061022","2019-05-23 18:00","2019","05","23","18:00","7.4","","-4.4","","43","","","","3","","4","","24.1","","100.33","","","","","","Mostly Cloudy"
"-94.71","56.36","GILLAM A","5061022","2019-05-23 19:00","2019","05","23","19:00","7.8","","-4.9","","40","","","","19","","11","","24.1","","100.31","","","","","","NA"
"-94.71","56.36","GILLAM A","5061022","2019-05-23 20:00","2019","05","23","20:00","6.8","","-4.9","","43","","","","16","","8","","24.1","","100.28","","","","","","NA"
"-94.71","56.36","GILLAM A","5061022","2019-05-23 21:00","2019","05","23","21:00","5.3","","-4.5","","49","","","","16","","7","","24.1","","100.29","","","","","","Cloudy"
"-94.71","56.36","GILLAM A","5061022","2019-05-23 22:00","2019","05","23","22:00","4.5","","-4.5","","52","","","","16","","10","","24.1","","100.27","","","","","","NA"
"-94.71","56.36","GILLAM A","5061022","2019-05-23 23:00","2019","05","23","23:00","4.7","","-4.4","","52","","","","16","","13","","24.1","","100.27","","","","","","NA"
"-94.71","56.36","GILLAM A","5061022","2019-05-24 00:00","2019","05","24","00:00","4.6","","-4.2","","53","","","","18","","12","","24.1","","100.26","","","","","","Cloudy"
"-94.71","56.36","GILLAM A","5061022","2019-05-24 01:00","2019","05","24","01:00","4.5","","-3.7","","55","","","","18","","10","","24.1","","100.24","","","","","","NA"
"-94.71","56.36","GILLAM A","5061022","2019-05-24 02:00","2019","05","24","02:00","4.3","","-3.4","","57","","","","19","","10","","24.1","","100.23","","","","","","NA"
"-94.71","56.36","GILLAM A","5061022","2019-05-24 03:00","2019","05","24","03:00","3.9","","-2.4","","64","","","","16","","6","","24.1","","100.18","","","","","","Cloudy"
"-94.71","56.36","GILLAM A","5061022","2019-05-24 04:00","2019","05","24","04:00","3.4","","-0.3","","77","","","","16","","8","","24.1","","100.11","","","","","","Rain"
"-94.71","56.36","GILLAM A","5061022","2019-05-24 05:00","2019","05","24","05:00","3.4","","0.1","","79","","","","14","","8","","24.1","","100.11","","","","","","NA"
"-94.71","56.36","GILLAM A","5061022","2019-05-24 06:00","2019","05","24","06:00","4.0","","0.9","","81","","","","10","","4","","24.1","","100.07","","","","","","Cloudy"
"-94.71","56.36","GILLAM A","5061022","2019-05-24 07:00","2019","05","24","07:00","4.4","","0.7","","77","","","","9","","6","","24.1","","100.04","","","","","","NA"
"-94.71","56.36","GILLAM A","5061022","2019-05-24 08:00","2019","05","24","08:00","4.5","","0.6","","76","","","","7","","4","","24.1","","100.05","","","","","","Rain"
"-94.71","56.36","GILLAM A","5061022","2019-05-24 09:00","2019","05","24","09:00","3.8","","0.9","","81","","","","5","","10","","24.1","","100.02","","","","","","Rain"
"-94.71","56.36","GILLAM A","5061022","2019-05-24 10:00","2019","05","24","10:00","5.6","","1.9","","77","","","","9","","8","","19.3","","99.99","","","","","","Rain"
"-94.71","56.36","GILLAM A","5061022","2019-05-24 11:00","2019","05","24","11:00","6.7","","1.7","","70","","","","10","","15","","19.3","","99.92","","","","","","Rain"
"-94.71","56.36","GILLAM A","5061022","2019-05-24 12:00","2019","05","24","12:00","7.4","","1.5","","66","","","","9","","14","","24.1","","99.88","","","","","","Cloudy"
"-94.71","56.36","GILLAM A","5061022","2019-05-24 13:00","2019","05","24","13:00","7.5","","1.6","","66","","","","5","","14","","24.1","","99.86","","","","","","NA"
"-94.71","56.36","GILLAM A","5061022","2019-05-24 14:00","2019","05","24","14:00","7.5","","1.6","","66","","","","8","","11","","24.1","","99.84","","","","","","NA"
"-94.71","56.36","GILLAM A","5061022","2019-05-24 15:00","2019","05","24","15:00","7.8","","1.6","","65","","","","9","","12","","24.1","","99.77","","","","","","Cloudy"
"-94.71","56.36","GILLAM A","5061022","2019-05-24 16:00","2019","05","24","16:00","8.1","","1.3","","62","","","","7","","13","","24.1","","99.73","","","","","","NA"
"-94.71","56.36","GILLAM A","5061022","2019-05-24 17:00","2019","05","24","17:00","6.9","","0.5","","63","","","","5","","17","","24.1","","99.69","","","","","","NA"
"-94.71","56.36","GILLAM A","5061022","2019-05-24 18:00","2019","05","24","18:00","6.8","","-0.2","","61","","","","7","","12","","24.1","","99.71","","","","","","Cloudy"
"-94.71","56.36","GILLAM A","5061022","2019-05-24 19:00","2019","05","24","19:00","5.6","","-0.5","","65","","","","5","","23","","24.1","","99.68","","","","","","NA"
"-94.71","56.36","GILLAM A","5061022","2019-05-24 20:00","2019","05","24","20:00","3.8","","-1.6","","68","","","","4","","24","","24.1","","99.69","","","","","","NA"
"-94.71","56.36","GILLAM A","5061022","2019-05-24 21:00","2019","05","24","21:00","2.3","","-3.1","","67","","","","5","","23","","24.1","","99.70","","","","","","Cloudy"
"-94.71","56.36","GILLAM A","5061022","2019-05-24 22:00","2019","05","24","22:00","1.2","","-4.0","","68","","","","5","","18","","24.1","","99.71","","","","","","NA"
"-94.71","56.36","GILLAM A","5061022","2019-05-24 23:00","2019","05","24","23:00","0.4","","-4.4","","70","","","","5","","20","","24.1","","99.71","","","","","","NA"
"-94.71","56.36","GILLAM A","5061022","2019-05-25 00:00","2019","05","25","00:00","-0.5","","-5.0","","72","","","","5","","22","","24.1","","99.67","","","","-6","","Cloudy"
"-94.71","56.36","GILLAM A","5061022","2019-05-25 01:00","2019","05","25","01:00","-0.8","","-5.2","","72","","","","3","","28","","24.1","","99.63","","","","-7","","NA"
"-94.71","56.36","GILLAM A","5061022","2019-05-25 02:00","2019","05","25","02:00","-1.1","","-5.3","","73","","","","3","","26","","24.1","","99.62","","","","-7","","NA"
"-94.71","56.36","GILLAM A","5061022","2019-05-25 03:00","2019","05","25","03:00","-1.5","","-5.8","","73","","","","3","","26","","24.1","","99.61","","","","-8","","Cloudy"
"-94.71","56.36","GILLAM A","5061022","2019-05-25 04:00","2019","05","25","04:00","-1.7","","-5.3","","76","","","","3","","28","","24.1","","99.61","","","","-8","","NA"
"-94.71","56.36","GILLAM A","5061022","2019-05-25 05:00","2019","05","25","05:00","-1.5","","-4.2","","82","","","","4","","22","","24.1","","99.64","","","","-7","","NA"
"-94.71","56.36","GILLAM A","5061022","2019-05-25 06:00","2019","05","25","06:00","-1.4","","-3.8","","84","","","","4","","25","","24.1","","99.65","","","","-8","","Cloudy"
"-94.71","56.36","GILLAM A","5061022","2019-05-25 07:00","2019","05","25","07:00","-0.7","","-3.7","","80","","","","3","","34","","24.1","","99.66","","","","-8","","NA"
"-94.71","56.36","GILLAM A","5061022","2019-05-25 08:00","2019","05","25","08:00","0.1","","-3.2","","78","","","","2","","28","","24.1","","99.68","","","","","","NA"
"-94.71","56.36","GILLAM A","5061022","2019-05-25 09:00","2019","05","25","09:00","0.4","","-4.2","","72","","","","2","","30","","24.1","","99.72","","","","","","Cloudy"
"-94.71","56.36","GILLAM A","5061022","2019-05-25 10:00","2019","05","25","10:00","1.3","","-3.8","","69","","","","1","","33","","24.1","","99.76","","","","","","NA"
"-94.71","56.36","GILLAM A","5061022","2019-05-25 11:00","2019","05","25","11:00","1.6","","-4.0","","66","","","","36","","32","","24.1","","99.81","","","","","","NA"
"-94.71","56.36","GILLAM A","5061022","2019-05-25 12:00","2019","05","25","12:00","2.5","","-4.4","","60","","","","2","","26","","24.1","","99.84","","","","","","Mostly Cloudy"
"-94.71","56.36","GILLAM A","5061022","2019-05-25 13:00","2019","05","25","13:00","4.2","","-4.0","","55","","","","1","","22","","24.1","","99.88","","","","","","NA"
"-94.71","56.36","GILLAM A","5061022","2019-05-25 14:00","2019","05","25","14:00","3.7","","-2.7","","63","","","","2","","31","","24.1","","99.92","","","","","","NA"
"-94.71","56.36","GILLAM A","5061022","2019-05-25 15:00","2019","05","25","15:00","4.5","","-2.1","","62","","","","1","","28","","24.1","","99.96","","","","","","Mostly Cloudy"
"-94.71","56.36","GILLAM A","5061022","2019-05-25 16:00","2019","05","25","16:00","4.6","","-2.4","","60","","","","1","","26","","24.1","","100.00","","","","","","NA"
"-94.71","56.36","GILLAM A","5061022","2019-05-25 17:00","2019","05","25","17:00","4.2","","-3.1","","59","","","","2","","27","","24.1","","100.06","","","","","","NA"
"-94.71","56.36","GILLAM A","5061022","2019-05-25 18:00","2019","05","25","18:00","3.8","","-3.3","","60","","","","2","","26","","24.1","","100.13","","","","","","Mostly Cloudy"
"-94.71","56.36","GILLAM A","5061022","2019-05-25 19:00","2019","05","25","19:00","3.4","","-4.0","","58","","","","3","","23","","24.1","","100.18","","","","","","NA"
"-94.71","56.36","GILLAM A","5061022","2019-05-25 20:00","2019","05","25","20:00","2.0","","-4.7","","61","","","","3","","18","","24.1","","100.26","","","","","","NA"
"-94.71","56.36","GILLAM A","5061022","2019-05-25 21:00","2019","05","25","21:00","1.0","","-5.5","","62","","","","4","","19","","24.1","","100.34","","","","","","Mainly Clear"
"-94.71","56.36","GILLAM A","5061022","2019-05-25 22:00","2019","05","25","22:00","0.4","","-6.3","","61","","","","5","","14","","24.1","","100.40","","","","","","NA"
"-94.71","56.36","GILLAM A","5061022","2019-05-25 23:00","2019","05","25","23:00","-0.4","","-7.5","","59","","","","8","","4","","24.1","","100.43","","","","-2","","NA"
"-94.71","56.36","GILLAM A","5061022","2019-05-26 00:00","2019","05","26","00:00","-1.3","","-7.7","","62","","","","8","","4","","24.1","","100.46","","","","-3","","Mainly Clear"
"-94.71","56.36","GILLAM A","5061022","2019-05-26 01:00","2019","05","26","01:00","-2.7","","-6.4","","76","","","","36","","2","","24.1","","100.49","","","","-3","","NA"
"-94.71","56.36","GILLAM A","5061022","2019-05-26 02:00","2019","05","26","02:00","-3.8","","-7.0","","78","","","","23","","4","","24.1","","100.52","","","","-5","","NA"
"-94.71","56.36","GILLAM A","5061022","2019-05-26 03:00","2019","05","26","03:00","-4.1","","-7.4","","78","","","","23","","8","","24.1","","100.53","","","","-8","","Mainly Clear"
"-94.71","56.36","GILLAM A","5061022","2019-05-26 04:00","2019","05","26","04:00","-3.2","","-6.2","","80","","","","24","","9","","24.1","","100.56","","","","-7","","NA"
"-94.71","56.36","GILLAM A","5061022","2019-05-26 05:00","2019","05","26","05:00","-2.4","","-5.4","","80","","","","25","","12","","24.1","","100.60","","","","-7","","NA"
"-94.71","56.36","GILLAM A","5061022","2019-05-26 06:00","2019","05","26","06:00","0.1","","-4.9","","69","","","","26","","15","","24.1","","100.62","","","","","","Mainly Clear"
"-94.71","56.36","GILLAM A","5061022","2019-05-26 07:00","2019","05","26","07:00","2.6","","-4.6","","59","","","","27","","16","","24.1","","100.66","","","","","","NA"
"-94.71","56.36","GILLAM A","5061022","2019-05-26 08:00","2019","05","26","08:00","3.8","","-5.0","","53","","","","28","","18","","24.1","","100.66","","","","","","NA"
"-94.71","56.36","GILLAM A","5061022","2019-05-26 09:00","2019","05","26","09:00","4.8","","-6.3","","44","","","","28","","20","","24.1","","100.64","","","","","","Mainly Clear"
"-94.71","56.36","GILLAM A","5061022","2019-05-26 10:00","2019","05","26","10:00","6.2","","-5.9","","42","","","","28","","21","","24.1","","100.61","","","","","","NA"
"-94.71","56.36","GILLAM A","5061022","2019-05-26 11:00","2019","05","26","11:00","7.9","","-5.8","","37","","","","27","","15","","24.1","","100.57","","","","","","NA"
"-94.71","56.36","GILLAM A","5061022","2019-05-26 12:00","2019","05","26","12:00","8.3","","-6.4","","35","","","","29","","18","","24.1","","100.53","","","","","","Mainly Clear"
"-94.71","56.36","GILLAM A","5061022","2019-05-26 13:00","2019","05","26","13:00","9.5","","-5.2","","35","","","","29","","18","","24.1","","100.48","","","","","","NA"
"-94.71","56.36","GILLAM A","5061022","2019-05-26 14:00","2019","05","26","14:00","11.4","","-6.2","","29","","","","27","","15","","24.1","","100.41","","","","","","NA"
"-94.71","56.36","GILLAM A","5061022","2019-05-26 15:00","2019","05","26","15:00","11.6","","-5.0","","31","","","","29","","12","","24.1","","100.35","","","","","","Mostly Cloudy"
"-94.71","56.36","GILLAM A","5061022","2019-05-26 16:00","2019","05","26","16:00","12.5","","-6.3","","26","","","","28","","14","","24.1","","100.25","","","","","","NA"
"-94.71","56.36","GILLAM A","5061022","2019-05-26 17:00","2019","05","26","17:00","13.3","","-4.6","","28","","","","29","","15","","24.1","","100.17","","","","","","NA"
"-94.71","56.36","GILLAM A","5061022","2019-05-26 18:00","2019","05","26","18:00","14.4","","-4.2","","27","","","","25","","18","","24.1","","100.08","","","","","","Mostly Cloudy"
"-94.71","56.36","GILLAM A","5061022","2019-05-26 19:00","2019","05","26","19:00","13.9","","-3.4","","30","","","","25","","17","","24.1","","100.00","","","","","","NA"
"-94.71","56.36","GILLAM A","5061022","2019-05-26 20:00","2019","05","26","20:00","12.9","","-3.0","","33","","","","23","","13","","24.1","","99.95","","","","","","NA"
"-94.71","56.36","GILLAM A","5061022","2019-05-26 21:00","2019","05","26","21:00","10.3","","-2.2","","41","","","","21","","11","","24.1","","99.91","","","","","","Mainly Clear"
"-94.71","56.36","GILLAM A","5061022","2019-05-26 22:00","2019","05","26","22:00","8.7","","-1.4","","49","","","","21","","15","","24.1","","99.85","","","","","","NA"
"-94.71","56.36","GILLAM A","5061022","2019-05-26 23:00","2019","05","26","23:00","8.4","","-0.7","","53","","","","22","","19","","24.1","","99.82","","","","","","NA"
"-94.71","56.36","GILLAM A","5061022","2019-05-27 00:00","2019","05","27","00:00","7.9","","0.4","","59","","","","22","","19","","24.1","","99.79","","","","","","Mainly Clear"
"-94.71","56.36","GILLAM A","5061022","2019-05-27 01:00","2019","05","27","01:00","7.8","","1.2","","63","","","","22","","20","","24.1","","99.71","","","","","","NA"
"-94.71","56.36","GILLAM A","5061022","2019-05-27 02:00","2019","05","27","02:00","7.2","","1.0","","64","","","","22","","19","","24.1","","99.61","","","","","","NA"
"-94.71","56.36","GILLAM A","5061022","2019-05-27 03:00","2019","05","27","03:00","7.6","","0.9","","63","","","","22","","21","","24.1","","99.54","","","","","","Mostly Cloudy"
"-94.71","56.36","GILLAM A","5061022","2019-05-27 04:00","2019","05","27","04:00","6.8","","0.9","","66","","","","22","","19","","24.1","","99.45","","","","","","NA"
"-94.71","56.36","GILLAM A","5061022","2019-05-27 05:00","2019","05","27","05:00","7.7","","0.9","","62","","","","22","","25","","24.1","","99.37","","","","","","NA"
"-94.71","56.36","GILLAM A","5061022","2019-05-27 06:00","2019","05","27","06:00","9.4","","0.9","","55","","","","23","","30","","24.1","","99.27","","","","","","Mostly Cloudy"
"-94.71","56.36","GILLAM A","5061022","2019-05-27 07:00","2019","05","27","07:00","11.8","","1.1","","48","","","","24","","39","","24.1","","99.17","","","","","","NA"
"-94.71","56.36","GILLAM A","5061022","2019-05-27 08:00","2019","05","27","08:00","12.7","","1.1","","45","","","","23","","33","","24.1","","99.07","","","","","","NA"
"-94.71","56.36","GILLAM A","5061022","2019-05-27 09:00","2019","05","27","09:00","13.8","","1.4","","42","","","","25","","33","","24.1","","99.04","","","","","","Cloudy"
"-94.71","56.36","GILLAM A","5061022","2019-05-27 10:00","2019","05","27","10:00","13.4","","1.6","","44","","","","28","","26","","24.1","","99.02","","","","","","NA"
"-94.71","56.36","GILLAM A","5061022","2019-05-27 11:00","2019","05","27","11:00","12.6","","2.5","","50","","","","28","","19","","24.1","","98.98","","","","","","NA"
"-94.71","56.36","GILLAM A","5061022","2019-05-27 12:00","2019","05","27","12:00","9.6","","4.9","","72","","","","29","","12","","11.3","","99.03","","","","","","Rain Showers"
"-94.71","56.36","GILLAM A","5061022","2019-05-27 13:00","2019","05","27","13:00","8.4","","5.9","","84","","","","35","","9","","11.3","","98.96","","","","","","Rain Showers"
"-94.71","56.36","GILLAM A","5061022","2019-05-27 14:00","2019","05","27","14:00","8.0","","6.5","","90","","","","33","","15","","9.7","","99.00","","","","","","Rain Showers,Fog"
"-94.71","56.36","GILLAM A","5061022","2019-05-27 15:00","2019","05","27","15:00","9.1","","6.7","","85","","","","27","","12","","19.3","","98.95","","","","","","Mostly Cloudy"
"-94.71","56.36","GILLAM A","5061022","2019-05-27 16:00","2019","05","27","16:00","12.2","","6.3","","67","","","","28","","17","","24.1","","98.90","","","","","","NA"
"-94.71","56.36","GILLAM A","5061022","2019-05-27 17:00","2019","05","27","17:00","13.9","","4.9","","54","","","","28","","14","","24.1","","98.85","","","","","","NA"
"-94.71","56.36","GILLAM A","5061022","2019-05-27 18:00","2019","05","27","18:00","13.3","","4.8","","56","","","","28","","14","","24.1","","98.84","","","","","","Mainly Clear"
"-94.71","56.36","GILLAM A","5061022","2019-05-27 19:00","2019","05","27","19:00","12.2","","3.9","","57","","","","4","","10","","24.1","","98.89","","","","","","NA"
"-94.71","56.36","GILLAM A","5061022","2019-05-27 20:00","2019","05","27","20:00","11.3","","3.5","","58","","","","9","","8","","24.1","","98.92","","","","","","NA"
"-94.71","56.36","GILLAM A","5061022","2019-05-27 21:00","2019","05","27","21:00","9.1","","3.0","","66","","","","7","","14","","24.1","","99.03","","","","","","Mostly Cloudy"
"-94.71","56.36","GILLAM A","5061022","2019-05-27 22:00","2019","05","27","22:00","6.8","","3.0","","77","","","","8","","7","","24.1","","99.06","","","","","","NA"
"-94.71","56.36","GILLAM A","5061022","2019-05-27 23:00","2019","05","27","23:00","5.3","","3.3","","87","","","","6","","6","","24.1","","99.10","","","","","","NA"
"-94.71","56.36","GILLAM A","5061022","2019-05-28 00:00","2019","05","28","00:00","4.7","","2.6","","86","","","","6","","8","","24.1","","99.11","","","","","","Mainly Clear"
"-94.71","56.36","GILLAM A","5061022","2019-05-28 01:00","2019","05","28","01:00","3.6","","1.5","","86","","","","36","","3","","24.1","","99.07","","","","","","NA"
"-94.71","56.36","GILLAM A","5061022","2019-05-28 02:00","2019","05","28","02:00","2.0","","1.4","","95","","","","33","","6","","24.1","","99.06","","","","","","NA"
"-94.71","56.36","GILLAM A","5061022","2019-05-28 03:00","2019","05","28","03:00","2.7","","-0.8","","77","","","","36","","18","","24.1","","99.08","","","","","","Mostly Cloudy"
"-94.71","56.36","GILLAM A","5061022","2019-05-28 04:00","2019","05","28","04:00","1.8","","-1.4","","80","","","","35","","17","","24.1","","99.12","","","","","","NA"
"-94.71","56.36","GILLAM A","5061022","2019-05-28 05:00","2019","05","28","05:00","1.8","","-1.6","","79","","","","34","","18","","24.1","","99.15","","","","","","NA"
"-94.71","56.36","GILLAM A","5061022","2019-05-28 06:00","2019","05","28","06:00","2.4","","-1.4","","76","","","","34","","13","","24.1","","99.16","","","","","","Clear"
"-94.71","56.36","GILLAM A","5061022","2019-05-28 07:00","2019","05","28","07:00","2.5","","-2.0","","73","","","","36","","16","","24.1","","99.17","","","","","","NA"
"-94.71","56.36","GILLAM A","5061022","2019-05-28 08:00","2019","05","28","08:00","3.7","","-1.7","","67","","","","35","","19","","24.1","","99.17","","","","","","NA"
"-94.71","56.36","GILLAM A","5061022","2019-05-28 09:00","2019","05","28","09:00","3.8","","-1.9","","66","","","","33","","17","","24.1","","99.17","","","","","","Mostly Cloudy"
"-94.71","56.36","GILLAM A","5061022","2019-05-28 10:00","2019","05","28","10:00","5.6","","-2.1","","58","","","","33","","16","","24.1","","99.14","","","","","","NA"
"-94.71","56.36","GILLAM A","5061022","2019-05-28 11:00","2019","05","28","11:00","5.9","","-1.7","","58","","","","28","","17","","24.1","","99.12","","","","","","NA"
"-94.71","56.36","GILLAM A","5061022","2019-05-28 12:00","2019","05","28","12:00","7.8","","-1.9","","50","","","","28","","18","","24.1","","99.10","","","","","","Mainly Clear"
"-94.71","56.36","GILLAM A","5061022","2019-05-28 13:00","2019","05","28","13:00","8.5","","-2.4","","46","","","","28","","17","","24.1","","99.07","","","","","","NA"
"-94.71","56.36","GILLAM A","5061022","2019-05-28 14:00","2019","05","28","14:00","10.1","","-1.2","","45","","","","30","","14","","24.1","","99.05","","","","","","NA"
"-94.71","56.36","GILLAM A","5061022","2019-05-28 15:00","2019","05","28","15:00","10.2","","-2.3","","41","","","","33","","15","","24.1","","99.04","","","","","","Mostly Cloudy"
"-94.71","56.36","GILLAM A","5061022","2019-05-28 16:00","2019","05","28","16:00","10.7","","-3.6","","36","","","","28","","9","","24.1","","99.02","","","","","","NA"
"-94.71","56.36","GILLAM A","5061022","2019-05-28 17:00","2019","05","28","17:00","10.3","","-2.7","","40","","","","32","","3","","24.1","","98.99","","","","","","NA"
"-94.71","56.36","GILLAM A","5061022","2019-05-28 18:00","2019","05","28","18:00","10.4","","-1.1","","45","","","","2","","18","","24.1","","98.99","","","","","","Mostly Cloudy"
"-94.71","56.36","GILLAM A","5061022","2019-05-28 19:00","2019","05","28","19:00","9.1","","-1.0","","49","","","","6","","7","","24.1","","98.97","","","","","","NA"
"-94.71","56.36","GILLAM A","5061022","2019-05-28 20:00","2019","05","28","20:00","8.7","","-1.8","","47","","","","7","","4","","24.1","","98.95","","","","","","NA"
"-94.71","56.36","GILLAM A","5061022","2019-05-28 21:00","2019","05","28","21:00","7.7","","-0.1","","58","","","","3","","8","","24.1","","98.95","","","","","","Mostly Cloudy"
"-94.71","56.36","GILLAM A","5061022","2019-05-28 22:00","2019","05","28","22:00","5.5","","-1.4","","61","","","","6","","14","","24.1","","98.99","","","","","","NA"
"-94.71","56.36","GILLAM A","5061022","2019-05-28 23:00","2019","05","28","23:00","2.8","","-2.3","","69","","","","7","","14","","24.1","","99.04","","","","","","NA"
"-94.71","56.36","GILLAM A","5061022","2019-05-29 00:00","2019","05","29","00:00","1.6","","-3.0","","72","","","","8","","12","","24.1","","99.11","","","","","","Mainly Clear"
"-94.71","56.36","GILLAM A","5061022","2019-05-29 01:00","2019","05","29","01:00","0.2","","-3.6","","76","","","","7","","10","","24.1","","99.14","","","","","","NA"
"-94.71","56.36","GILLAM A","5061022","2019-05-29 02:00","2019","05","29","02:00","0.7","","-3.1","","76","","","","5","","10","","24.1","","99.16","","","","","","NA"
"-94.71","56.36","GILLAM A","5061022","2019-05-29 03:00","2019","05","29","03:00","0.5","","-3.8","","73","","","","5","","16","","24.1","","99.23","","","","","","Mostly Cloudy"
"-94.71","56.36","GILLAM A","5061022","2019-05-29 04:00","2019","05","29","04:00","0.2","","-3.6","","75","","","","3","","14","","24.1","","99.22","","","","","","NA"
"-94.71","56.36","GILLAM A","5061022","2019-05-29 05:00","2019","05","29","05:00","0.5","","-3.6","","74","","","","1","","13","","24.1","","99.25","","","","","","NA"
"-94.71","56.36","GILLAM A","5061022","2019-05-29 06:00","2019","05","29","06:00","1.1","","-4.2","","68","","","","36","","19","","24.1","","99.28","","","","","","Mostly Cloudy"
"-94.71","56.36","GILLAM A","5061022","2019-05-29 07:00","2019","05","29","07:00","1.0","","-4.8","","65","","","","1","","18","","24.1","","99.31","","","","","","NA"
"-94.71","56.36","GILLAM A","5061022","2019-05-29 08:00","2019","05","29","08:00","1.6","","-4.1","","66","","","","36","","18","","24.1","","99.34","","","","","","NA"
"-94.71","56.36","GILLAM A","5061022","2019-05-29 09:00","2019","05","29","09:00","2.0","","-4.5","","62","","","","36","","25","","24.1","","99.35","","","","","","Mostly Cloudy"
"-94.71","56.36","GILLAM A","5061022","2019-05-29 10:00","2019","05","29","10:00","2.4","","-5.1","","58","","","","33","","21","","24.1","","99.35","","","","","","NA"
"-94.71","56.36","GILLAM A","5061022","2019-05-29 11:00","2019","05","29","11:00","4.2","","-4.5","","53","","","","34","","21","","24.1","","99.32","","","","","","NA"
"-94.71","56.36","GILLAM A","5061022","2019-05-29 12:00","2019","05","29","12:00","5.5","","-4.3","","49","","","","33","","21","","24.1","","99.29","","","","","","Mostly Cloudy"
"-94.71","56.36","GILLAM A","5061022","2019-05-29 13:00","2019","05","29","13:00","6.6","","-4.3","","46","","","","34","","25","","24.1","","99.30","","","","","","NA"
"-94.71","56.36","GILLAM A","5061022","2019-05-29 14:00","2019","05","29","14:00","6.9","","-3.5","","48","","","","1","","24","","24.1","","99.32","","","","","","NA"
"-94.71","56.36","GILLAM A","5061022","2019-05-29 15:00","2019","05","29","15:00","8.2","","-3.3","","44","","","","35","","16","","24.1","","99.33","","","","","","Mainly Clear"
"-94.71","56.36","GILLAM A","5061022","2019-05-29 16:00","2019","05","29","16:00","8.7","","-3.7","","41","","","","1","","22","","24.1","","99.33","","","","","","NA"
"-94.71","56.36","GILLAM A","5061022","2019-05-29 17:00","2019","05","29","17:00","8.4","","-2.8","","45","","","","1","","17","","24.1","","99.34","","","","","","NA"
"-94.71","56.36","GILLAM A","5061022","2019-05-29 18:00","2019","05","29","18:00","7.6","","-3.0","","47","","","","2","","26","","24.1","","99.38","","","","","","Mostly Cloudy"
"-94.71","56.36","GILLAM A","5061022","2019-05-29 19:00","2019","05","29","19:00","6.9","","-3.4","","48","","","","3","","21","","24.1","","99.41","","","","","","NA"
"-94.71","56.36","GILLAM A","5061022","2019-05-29 20:00","2019","05","29","20:00","5.7","","-3.2","","53","","","","3","","20","","24.1","","99.44","","","","","","NA"
"-94.71","56.36","GILLAM A","5061022","2019-05-29 21:00","2019","05","29","21:00","4.2","","-3.1","","59","","","","5","","10","","24.1","","99.47","","","","","","Mainly Clear"
"-94.71","56.36","GILLAM A","5061022","2019-05-29 22:00","2019","05","29","22:00","3.1","","-2.2","","68","","","","7","","10","","24.1","","99.50","","","","","","NA"
"-94.71","56.36","GILLAM A","5061022","2019-05-29 23:00","2019","05","29","23:00","1.5","","-2.3","","76","","","","8","","7","","24.1","","99.50","","","","","","NA"
"-94.71","56.36","GILLAM A","5061022","2019-05-30 00:00","2019","05","30","00:00","0.5","","-2.8","","78","","","","9","","3","","24.1","","99.54","","","","","","Clear"
"-94.71","56.36","GILLAM A","5061022","2019-05-30 01:00","2019","05","30","01:00","-1.1","","-3.1","","87","","","","36","","1","","24.1","","99.56","","","","-1","","NA"
"-94.71","56.36","GILLAM A","5061022","2019-05-30 02:00","2019","05","30","02:00","1.5","","-1.7","","80","","","","36","","9","","24.1","","99.58","","","","","","NA"
"-94.71","56.36","GILLAM A","5061022","2019-05-30 03:00","2019","05","30","03:00","1.1","","-1.8","","81","","","","1","","17","","24.1","","99.60","","","","","","Mainly Clear"
"-94.71","56.36","GILLAM A","5061022","2019-05-30 04:00","2019","05","30","04:00","1.0","","-1.8","","82","","","","2","","17","","24.1","","99.59","","","","","","NA"
"-94.71","56.36","GILLAM A","5061022","2019-05-30 05:00","2019","05","30","05:00","1.1","","-2.3","","78","","","","2","","16","","24.1","","99.62","","","","","","NA"
"-94.71","56.36","GILLAM A","5061022","2019-05-30 06:00","2019","05","30","06:00","1.1","","-1.7","","82","","","","3","","12","","24.1","","99.68","","","","","","Mostly Cloudy"
"-94.71","56.36","GILLAM A","5061022","2019-05-30 07:00","2019","05","30","07:00","1.3","","-2.0","","79","","","","2","","14","","24.1","","99.68","","","","","","NA"
"-94.71","56.36","GILLAM A","5061022","2019-05-30 08:00","2019","05","30","08:00","1.9","","-1.9","","76","","","","35","","14","","24.1","","99.74","","","","","","NA"
"-94.71","56.36","GILLAM A","5061022","2019-05-30 09:00","2019","05","30","09:00","2.1","","-2.0","","74","","","","30","","12","","24.1","","99.78","","","","","","Cloudy"
"-94.71","56.36","GILLAM A","5061022","2019-05-30 10:00","2019","05","30","10:00","3.6","","-2.5","","64","","","","36","","15","","24.1","","99.70","","","","","","NA"
"-94.71","56.36","GILLAM A","5061022","2019-05-30 11:00","2019","05","30","11:00","4.0","","-2.8","","61","","","","32","","10","","24.1","","99.69","","","","","","NA"
"-94.71","56.36","GILLAM A","5061022","2019-05-30 12:00","2019","05","30","12:00","4.6","","-2.0","","62","","","","34","","21","","24.1","","99.69","","","","","","Cloudy"
"-94.71","56.36","GILLAM A","5061022","2019-05-30 13:00","2019","05","30","13:00","3.9","","-2.3","","64","","","","34","","19","","24.1","","99.72","","","","","","NA"
"-94.71","56.36","GILLAM A","5061022","2019-05-30 14:00","2019","05","30","14:00","3.7","","-1.7","","68","","","","36","","21","","24.1","","99.78","","","","","","NA"
"-94.71","56.36","GILLAM A","5061022","2019-05-30 15:00","2019","05","30","15:00","3.9","","-1.7","","67","","","","36","","16","","24.1","","99.78","","","","","","Mostly Cloudy"
"-94.71","56.36","GILLAM A","5061022","2019-05-30 16:00","2019","05","30","16:00","3.9","","-2.2","","65","","","","1","","10","","24.1","","99.74","","","","","","NA"
"-94.71","56.36","GILLAM A","5061022","2019-05-30 17:00","2019","05","30","17:00","4.7","","-1.7","","63","","","","36","","13","","24.1","","99.74","","","","","","NA"
"-94.71","56.36","GILLAM A","5061022","2019-05-30 18:00","2019","05","30","18:00","5.1","","-1.9","","60","","","","36","","17","","24.1","","99.77","","","","","","Cloudy"
"-94.71","56.36","GILLAM A","5061022","2019-05-30 19:00","2019","05","30","19:00","5.1","","-1.9","","60","","","","1","","13","","24.1","","99.78","","","","","","NA"
"-94.71","56.36","GILLAM A","5061022","2019-05-30 20:00","2019","05","30","20:00","5.0","","-1.8","","61","","","","36","","10","","24.1","","99.78","","","","","","NA"
"-94.71","56.36","GILLAM A","5061022","2019-05-30 21:00","2019","05","30","21:00","4.8","","-1.7","","63","","","","3","","11","","24.1","","99.78","","","","","","Cloudy"
"-94.71","56.36","GILLAM A","5061022","2019-05-30 22:00","2019","05","30","22:00","3.9","","-1.4","","69","","","","6","","11","","24.1","","99.82","","","","","","NA"
"-94.71","56.36","GILLAM A","5061022","2019-05-30 23:00","2019","05","30","23:00","3.0","","-1.5","","72","","","","8","","5","","24.1","","99.82","","","","","","NA"
"-94.71","56.36","GILLAM A","5061022","2019-05-31 00:00","2019","05","31","00:00","2.9","","-1.5","","73","","","","8","","5","","24.1","","99.83","","","","","","Cloudy"
"-94.71","56.36","GILLAM A","5061022","2019-05-31 01:00","2019","05","31","01:00","2.6","","-1.3","","75","","","","7","","6","","24.1","","99.85","","","","","","NA"
"-94.71","56.36","GILLAM A","5061022","2019-05-31 02:00","2019","05","31","02:00","2.0","","-0.9","","81","","","","8","","5","","24.1","","99.88","","","","","","NA"
"-94.71","56.36","GILLAM A","5061022","2019-05-31 03:00","2019","05","31","03:00","1.3","","-1.2","","83","","","","9","","4","","24.1","","99.90","","","","","","Cloudy"
"-94.71","56.36","GILLAM A","5061022","2019-05-31 04:00","2019","05","31","04:00","1.3","","-1.2","","83","","","","8","","4","","24.1","","99.94","","","","","","NA"
"-94.71","56.36","GILLAM A","5061022","2019-05-31 05:00","2019","05","31","05:00","2.0","","-1.0","","81","","","","36","","9","","24.1","","99.96","","","","","","NA"
"-94.71","56.36","GILLAM A","5061022","2019-05-31 06:00","2019","05","31","06:00","2.8","","-1.7","","72","","","","33","","17","","24.1","","99.98","","","","","","Mainly Clear"
"-94.71","56.36","GILLAM A","5061022","2019-05-31 07:00","2019","05","31","07:00","2.9","","-4.7","","57","","","","33","","18","","24.1","","99.96","","","","","","NA"
"-94.71","56.36","GILLAM A","5061022","2019-05-31 08:00","2019","05","31","08:00","3.9","","-5.6","","50","","","","35","","18","","24.1","","99.94","","","","","","NA"
"-94.71","56.36","GILLAM A","5061022","2019-05-31 09:00","2019","05","31","09:00","4.9","","-5.1","","48","","","","30","","19","","24.1","","99.87","","","","","","Mainly Clear"
"-94.71","56.36","GILLAM A","5061022","2019-05-31 10:00","2019","05","31","10:00","5.3","","-5.4","","46","","","","28","","15","","24.1","","99.83","","","","","","NA"
"-94.71","56.36","GILLAM A","5061022","2019-05-31 11:00","2019","05","31","11:00","6.6","","-5.1","","43","","","","29","","16","","24.1","","99.77","","","","","","NA"
"-94.71","56.36","GILLAM A","5061022","2019-05-31 12:00","2019","05","31","12:00","7.3","","-4.1","","44","","","","30","","16","","24.1","","99.70","","","","","","Mostly Cloudy"
"-94.71","56.36","GILLAM A","5061022","2019-05-31 13:00","2019","05","31","13:00","7.7","","-3.1","","46","","","","30","","21","","24.1","","99.64","","","","","","NA"
"-94.71","56.36","GILLAM A","5061022","2019-05-31 14:00","2019","05","31","14:00","7.4","","-2.4","","50","","","","31","","28","","24.1","","99.61","","","","","","NA"
"-94.71","56.36","GILLAM A","5061022","2019-05-31 15:00","2019","05","31","15:00","5.3","","0.0","","69","","","","31","","26","","12.9","","99.66","","","","","","Rain"
"-94.71","56.36","GILLAM A","5061022","2019-05-31 16:00","2019","05","31","16:00","4.2","","0.5","","77","","","","32","","20","","11.3","","99.68","","","","","","Rain"
"-94.71","56.36","GILLAM A","5061022","2019-05-31 17:00","2019","05","31","17:00","4.3","","1.2","","80","","","","34","","9","","19.3","","99.62","","","","","","NA"
"-94.71","56.36","GILLAM A","5061022","2019-05-31 18:00","2019","05","31","18:00","4.4","","0.7","","77","","","","30","","11","","24.1","","99.58","","","","","","Mostly Cloudy"
"-94.71","56.36","GILLAM A","5061022","2019-05-31 19:00","2019","05","31","19:00","3.9","","0.3","","77","","","","28","","14","","24.1","","99.55","","","","","","NA"
"-94.71","56.36","GILLAM A","5061022","2019-05-31 20:00","2019","05","31","20:00","2.2","","0.9","","91","","","","32","","11","","24.1","","99.58","","","","","","NA"
"-94.71","56.36","GILLAM A","5061022","2019-05-31 21:00","2019","05","31","21:00","1.9","","0.6","","91","","","","35","","16","","24.1","","99.60","","","","","","Mostly Cloudy"
"-94.71","56.36","GILLAM A","5061022","2019-05-31 22:00","2019","05","31","22:00","1.5","","0.6","","94","","","","34","","18","","24.1","","99.64","","","","","","NA"
"-94.71","56.36","GILLAM A","5061022","2019-05-31 23:00","2019","05","31","23:00","1.4","","0.6","","94","","","","36","","20","","24.1","","99.66","","","","","","NA"
