"Longitude (x)","Latitude (y)","Station Name","Climate ID","Date/Time (LST)","Year","Month","Day","Time (LST)","Temp (°C)","Temp Flag","Dew Point Temp (°C)","Dew Point Temp Flag","Rel Hum (%)","Rel Hum Flag","Precip. Amount (mm)","Precip. Amount Flag","Wind Dir (10s deg)","Wind Dir Flag","Wind Spd (km/h)","Wind Spd Flag","Visibility (km)","Visibility Flag","Stn Press (kPa)","Stn Press Flag","Hmdx","Hmdx Flag","Wind Chill","Wind Chill Flag","Weather"
"-63.51","44.88","HALIFAX STANFIELD INT'L A","8202251","2023-02-01 00:00","2023","02","01","00:00","-9.4","","-12.5","","78","","","","33","","19","","24.1","","100.24","","","","-17","","NA"
"-63.51","44.88","HALIFAX STANFIELD INT'L A","8202251","2023-02-01 01:00","2023","02","01","01:00","-10.1","","-13.2","","78","","","","33","","19","","24.1","","100.28","","","","-18","","NA"
"-63.51","44.88","HALIFAX STANFIELD INT'L A","8202251","2023-02-01 02:00","2023","02","01","02:00","-10.6","","-14.0","","77","","","","33","","16","","24.1","","100.31","","","","-18","","Mostly Cloudy"
"-63.51","44.88","HALIFAX STANFIELD INT'L A","8202251","2023-02-01 03:00","2023","02","01","03:00","-11.2","","-13.9","","80","","","","31","","18","","24.1","","100.32","","","","-19","","NA"
"-63.51","44.88","HALIFAX STANFIELD INT'L A","8202251","2023-02-01 04:00","2023","02","01","04:00","-11.5","","-14.6","","78","","","","32","","15","","24.1","","100.41","","","","-19","","NA"
"-63.51","44.88","HALIFAX STANFIELD INT'L A","8202251","2023-02-01 05:00","2023","02","01","05:00","-12.2","","-15.4","","77","","","","33","","15","","24.1","","100.43","","","","-19","","Cloudy"
"-63.51","44.88","HALIFAX STANFIELD INT'L A","8202251","2023-02-01 06:00","2023","02","01","06:00","-13.0","","-15.8","","80","","","","33","","16","","24.1","","100.40","","","","-21","","NA"
"-63.51","44.88","HALIFAX STANFIELD INT'L A","8202251","2023-02-01 07:00","2023","02","01","07:00","-14.0","","-16.4","","83","","","","33","","13","","24.1","","100.43","","","","-21","","NA"
"-63.51","44.88","HALIFAX STANFIELD INT'L A","8202251","2023-02-01 08:00","2023","02","01","08:00","-14.7","","-17.0","","83","","","","34","","18","","24.1","","100.48","","","","-23","","Mainly Clear"
"-63.51","44.88","HALIFAX STANFIELD INT'L A","8202251","2023-02-01 09:00","2023","02","01","09:00","-14.0","","-16.8","","79","","","","33","","16","","24.1","","100.55","","","","-22","","NA"
"-63.51","44.88","HALIFAX STANFIELD INT'L A","8202251","2023-02-01 10:00","2023","02","01","10:00","-13.0","","-16.2","","77","","","","34","","18","","24.1","","100.55","","","","-21","","NA"
"-63.51","44.88","HALIFAX STANFIELD INT'L A","8202251","2023-02-01 11:00","2023","02","01","11:00","-11.8","","-15.9","","71","","","","33","","15","","24.1","","100.53","","","","-19","","Mainly Clear"
"-63.51","44.88","HALIFAX STANFIELD INT'L A","8202251","2023-02-01 12:00","2023","02","01","12:00","-10.8","","-15.0","","71","","","","33","","14","","24.1","","100.47","","","","-17","","NA"
"-63.51","44.88","HALIFAX STANFIELD INT'L A","8202251","2023-02-01 13:00","2023","02","01","13:00","-9.7","","-15.3","","64","","","","31","","12","","24.1","","100.35","","","","-16","","NA"
"-63.51","44.88","HALIFAX STANFIELD INT'L A","8202251","2023-02-01 14:00","2023","02","01","14:00","-9.2","","-16.3","","56","","","","1","","15","","24.1","","100.27","","","","-16","","Clear"
"-63.51","44.88","HALIFAX STANFIELD INT'L A","8202251","2023-02-01 15:00","2023","02","01","15:00","-8.9","","-16.1","","56","","","","3","","13","","24.1","","100.23","","","","-15","","NA"
"-63.51","44.88","HALIFAX STANFIELD INT'L A","8202251","2023-02-01 16:00","2023","02","01","16:00","-9.1","","-16.4","","56","","","","2","","14","","24.1","","100.21","","","","-15","","NA"
"-63.51","44.88","HALIFAX STANFIELD INT'L A","8202251","2023-02-01 17:00","2023","02","01","17:00","-9.9","","-16.8","","57","","","","36","","16","","24.1","","100.20","","","","-17","","Mainly Clear"
"-63.51","44.88","HALIFAX STANFIELD INT'L A","8202251","2023-02-01 18:00","2023","02","01","18:00","-11.1","","-15.7","","69","","","","34","","12","","24.1","","100.23","","","","-17","","NA"
"-63.51","44.88","HALIFAX STANFIELD INT'L A","8202251","2023-02-01 19:00","2023","02","01","19:00","-11.9","","-15.9","","72","","","","34","","8","","24.1","","100.26","","","","-17","","NA"
"-63.51","44.88","HALIFAX STANFIELD INT'L A","8202251","2023-02-01 20:00","2023","02","01","20:00","-13.0","","-15.9","","79","","","","1","","10","","24.1","","100.27","","","","-19","","Clear"
"-63.51","44.88","HALIFAX STANFIELD INT'L A","8202251","2023-02-01 21:00","2023","02","01","21:00","-13.3","","-16.1","","79","","","","36","","9","","24.1","","100.29","","","","-19","","NA"
"-63.51","44.88","HALIFAX STANFIELD INT'L A","8202251","2023-02-01 22:00","2023","02","01","22:00","-13.7","","-15.7","","85","","","","34","","7","","24.1","","100.29","","","","-18","","NA"
"-63.51","44.88","HALIFAX STANFIELD INT'L A","8202251","2023-02-01 23:00","2023","02","01","23:00","-13.8","","-15.7","","86","","","","2","","7","","24.1","","100.32","","","","-18","","Mainly Clear"
"-63.51","44.88","HALIFAX STANFIELD INT'L A","8202251","2023-02-02 00:00","2023","02","02","00:00","-14.6","","-16.2","","87","","","","35","","5","","24.1","","100.33","","","","-18","","NA"
"-63.51","44.88","HALIFAX STANFIELD INT'L A","8202251","2023-02-02 01:00","2023","02","02","01:00","-13.5","","-16.0","","82","","","","7","","5","","24.1","","100.28","","","","-17","","NA"
"-63.51","44.88","HALIFAX STANFIELD INT'L A","8202251","2023-02-02 02:00","2023","02","02","02:00","-16.1","","-18.1","","85","","","","21","","8","","24.1","","100.27","","","","-22","","Clear"
"-63.51","44.88","HALIFAX STANFIELD INT'L A","8202251","2023-02-02 03:00","2023","02","02","03:00","-15.5","","-17.3","","86","","","","22","","9","","24.1","","100.30","","","","-21","","NA"
"-63.51","44.88","HALIFAX STANFIELD INT'L A","8202251","2023-02-02 04:00","2023","02","02","04:00","-14.0","","-16.2","","83","","","","22","","9","","24.1","","100.29","","","","-20","","NA"
"-63.51","44.88","HALIFAX STANFIELD INT'L A","8202251","2023-02-02 05:00","2023","02","02","05:00","-14.3","","-17.1","","80","","","","22","","12","","24.1","","100.27","","","","-21","","Clear"
"-63.51","44.88","HALIFAX STANFIELD INT'L A","8202251","2023-02-02 06:00","2023","02","02","06:00","-14.8","","-17.1","","83","","","","21","","14","","24.1","","100.26","","","","-22","","NA"
"-63.51","44.88","HALIFAX STANFIELD INT'L A","8202251","2023-02-02 07:00","2023","02","02","07:00","-13.7","","-17.1","","76","","","","20","","14","","24.1","","100.26","","","","-21","","NA"
"-63.51","44.88","HALIFAX STANFIELD INT'L A","8202251","2023-02-02 08:00","2023","02","02","08:00","-12.9","","-15.8","","79","","","","21","","16","","24.1","","100.30","","","","-21","","Clear"
"-63.51","44.88","HALIFAX STANFIELD INT'L A","8202251","2023-02-02 09:00","2023","02","02","09:00","-11.2","","-14.3","","78","","","","22","","16","","24.1","","100.29","","","","-18","","NA"
"-63.51","44.88","HALIFAX STANFIELD INT'L A","8202251","2023-02-02 10:00","2023","02","02","10:00","-9.2","","-13.0","","74","","","","23","","17","","24.1","","100.30","","","","-16","","NA"
"-63.51","44.88","HALIFAX STANFIELD INT'L A","8202251","2023-02-02 11:00","2023","02","02","11:00","-6.6","","-12.2","","65","","","","23","","15","","24.1","","100.25","","","","-13","","Mainly Clear"
"-63.51","44.88","HALIFAX STANFIELD INT'L A","8202251","2023-02-02 12:00","2023","02","02","12:00","-5.3","","-12.2","","59","","","","22","","19","","24.1","","100.18","","","","-12","","NA"
"-63.51","44.88","HALIFAX STANFIELD INT'L A","8202251","2023-02-02 13:00","2023","02","02","13:00","-4.7","","-11.5","","59","","","","24","","23","","24.1","","100.05","","","","-12","","NA"
"-63.51","44.88","HALIFAX STANFIELD INT'L A","8202251","2023-02-02 14:00","2023","02","02","14:00","-4.4","","-11.2","","59","","","","24","","26","","24.1","","99.96","","","","-12","","Mostly Cloudy"
"-63.51","44.88","HALIFAX STANFIELD INT'L A","8202251","2023-02-02 15:00","2023","02","02","15:00","-4.8","","-10.8","","63","","","","21","","24","","24.1","","99.91","","","","-12","","NA"
"-63.51","44.88","HALIFAX STANFIELD INT'L A","8202251","2023-02-02 16:00","2023","02","02","16:00","-4.2","","-10.2","","63","","","","22","","14","","24.1","","99.87","","","","-9","","NA"
"-63.51","44.88","HALIFAX STANFIELD INT'L A","8202251","2023-02-02 17:00","2023","02","02","17:00","-4.8","","-9.9","","67","","","","17","","13","","24.1","","99.79","","","","-10","","Mainly Clear"
"-63.51","44.88","HALIFAX STANFIELD INT'L A","8202251","2023-02-02 18:00","2023","02","02","18:00","-6.2","","-10.0","","75","","","","17","","9","","24.1","","99.70","","","","-10","","NA"
"-63.51","44.88","HALIFAX STANFIELD INT'L A","8202251","2023-02-02 19:00","2023","02","02","19:00","-6.7","","-9.4","","81","","","","17","","13","","24.1","","99.62","","","","-12","","NA"
"-63.51","44.88","HALIFAX STANFIELD INT'L A","8202251","2023-02-02 20:00","2023","02","02","20:00","-5.8","","-8.1","","84","","","","17","","10","","24.1","","99.52","","","","-10","","Cloudy"
"-63.51","44.88","HALIFAX STANFIELD INT'L A","8202251","2023-02-02 21:00","2023","02","02","21:00","-4.6","","-6.0","","90","","","","17","","12","","24.1","","99.40","","","","-9","","NA"
"-63.51","44.88","HALIFAX STANFIELD INT'L A","8202251","2023-02-02 22:00","2023","02","02","22:00","-4.2","","-5.4","","91","","","","16","","13","","24.1","","99.26","","","","-9","","NA"
"-63.51","44.88","HALIFAX STANFIELD INT'L A","8202251","2023-02-02 23:00","2023","02","02","23:00","-3.8","","-5.0","","91","","","","16","","15","","24.1","","99.09","","","","-9","","Cloudy"
"-63.51","44.88","HALIFAX STANFIELD INT'L A","8202251","2023-02-03 00:00","2023","02","03","00:00","-3.0","","-4.2","","92","","","","18","","12","","12.9","","98.93","","","","-7","","Snow"
"-63.51","44.88","HALIFAX STANFIELD INT'L A","8202251","2023-02-03 01:00","2023","02","03","01:00","-1.2","","-3.7","","83","","","","20","","17","","24.1","","98.76","","","","-6","","NA"
"-63.51","44.88","HALIFAX STANFIELD INT'L A","8202251","2023-02-03 02:00","2023","02","03","02:00","-0.7","","-3.0","","85","","","","20","","20","","12.9","","98.58","","","","-6","","Snow"
"-63.51","44.88","HALIFAX STANFIELD INT'L A","8202251","2023-02-03 03:00","2023","02","03","03:00","-0.3","","-1.2","","93","","","","19","","27","","24.1","","98.42","","","","-7","","Snow"
"-63.51","44.88","HALIFAX STANFIELD INT'L A","8202251","2023-02-03 04:00","2023","02","03","04:00","0.0","","-0.6","","95","","","","20","","23","","4.0","","98.29","","","","-6","","Snow"
"-63.51","44.88","HALIFAX STANFIELD INT'L A","8202251","2023-02-03 05:00","2023","02","03","05:00","0.4","","-0.6","","93","","","","20","","27","","24.1","","98.14","","","","","","Cloudy"
"-63.51","44.88","HALIFAX STANFIELD INT'L A","8202251","2023-02-03 06:00","2023","02","03","06:00","0.6","","-0.6","","91","","","","21","","22","","24.1","","97.99","","","","","","Snow"
"-63.51","44.88","HALIFAX STANFIELD INT'L A","8202251","2023-02-03 07:00","2023","02","03","07:00","0.6","","-2.6","","79","","","","20","","19","","24.1","","97.82","","","","","","NA"
"-63.51","44.88","HALIFAX STANFIELD INT'L A","8202251","2023-02-03 08:00","2023","02","03","08:00","0.8","","-2.7","","77","","","","21","","21","","24.1","","97.69","","","","","","Mostly Cloudy"
"-63.51","44.88","HALIFAX STANFIELD INT'L A","8202251","2023-02-03 09:00","2023","02","03","09:00","1.0","","-2.1","","80","","","","23","","22","","24.1","","97.57","","","","","","NA"
"-63.51","44.88","HALIFAX STANFIELD INT'L A","8202251","2023-02-03 10:00","2023","02","03","10:00","0.8","","-2.2","","81","","","","25","","34","","12.9","","97.50","","","","","","Snow Showers"
"-63.51","44.88","HALIFAX STANFIELD INT'L A","8202251","2023-02-03 11:00","2023","02","03","11:00","-1.8","","-2.6","","94","","","","29","","31","","1.0","","97.47","","","","-9","","Snow Showers,Fog"
"-63.51","44.88","HALIFAX STANFIELD INT'L A","8202251","2023-02-03 12:00","2023","02","03","12:00","-3.1","","-6.0","","80","","","","31","","32","","6.4","","97.49","","","","-11","","Fog,Blowing Snow"
"-63.51","44.88","HALIFAX STANFIELD INT'L A","8202251","2023-02-03 13:00","2023","02","03","13:00","-4.7","","-9.2","","71","","","","30","","39","","24.1","","97.49","","","","-14","","NA"
"-63.51","44.88","HALIFAX STANFIELD INT'L A","8202251","2023-02-03 14:00","2023","02","03","14:00","-8.2","","-14.1","","63","","","","31","","43","","24.1","","97.53","","","","-19","","Mainly Clear"
"-63.51","44.88","HALIFAX STANFIELD INT'L A","8202251","2023-02-03 15:00","2023","02","03","15:00","-9.9","","-15.7","","63","","","","30","","44","","24.1","","97.59","","","","-21","","NA"
"-63.51","44.88","HALIFAX STANFIELD INT'L A","8202251","2023-02-03 16:00","2023","02","03","16:00","-12.3","","-16.5","","71","","","","31","","36","","4.0","","97.70","","","","-23","","Snow Showers,Fog"
"-63.51","44.88","HALIFAX STANFIELD INT'L A","8202251","2023-02-03 17:00","2023","02","03","17:00","-14.4","","-18.7","","70","","","","29","","40","","4.0","","97.83","","","","-27","","Snow Showers,Fog,Blowing Snow"
"-63.51","44.88","HALIFAX STANFIELD INT'L A","8202251","2023-02-03 18:00","2023","02","03","18:00","-16.2","","-21.1","","66","","","","29","","40","","4.0","","97.96","","","","-29","","Snow Showers,Fog,Blowing Snow"
"-63.51","44.88","HALIFAX STANFIELD INT'L A","8202251","2023-02-03 19:00","2023","02","03","19:00","-17.2","","-22.3","","65","","","","30","","30","","16.1","","98.07","","","","-29","","NA"
"-63.51","44.88","HALIFAX STANFIELD INT'L A","8202251","2023-02-03 20:00","2023","02","03","20:00","-18.3","","-21.4","","77","","","","30","","43","","2.8","","98.15","","","","-32","","Snow,Blowing Snow"
"-63.51","44.88","HALIFAX STANFIELD INT'L A","8202251","2023-02-03 21:00","2023","02","03","21:00","-20.1","","-23.9","","72","","","","30","","36","","6.4","","98.24","","","","-34","","Snow,Blowing Snow"
"-63.51","44.88","HALIFAX STANFIELD INT'L A","8202251","2023-02-03 22:00","2023","02","03","22:00","-21.7","","-25.0","","75","","","","29","","37","","3.6","","98.35","","","","-36","","Snow,Blowing Snow"
"-63.51","44.88","HALIFAX STANFIELD INT'L A","8202251","2023-02-03 23:00","2023","02","03","23:00","-22.9","","-26.4","","74","","","","29","","45","","1.0","","98.40","","","","-39","","Snow,Blowing Snow"
"-63.51","44.88","HALIFAX STANFIELD INT'L A","8202251","2023-02-04 00:00","2023","02","04","00:00","-24.0","","-28.1","","70","","","","28","","37","","4.8","","98.49","","","","-39","","Blowing Snow"
"-63.51","44.88","HALIFAX STANFIELD INT'L A","8202251","2023-02-04 01:00","2023","02","04","01:00","-24.9","","-29.8","","65","","","","29","","36","","9.7","","98.52","","","","-40","","Blowing Snow"
"-63.51","44.88","HALIFAX STANFIELD INT'L A","8202251","2023-02-04 02:00","2023","02","04","02:00","-25.6","","-30.7","","63","","","","28","","32","","9.7","","98.55","","","","-40","","Blowing Snow"
"-63.51","44.88","HALIFAX STANFIELD INT'L A","8202251","2023-02-04 03:00","2023","02","04","03:00","-25.7","","-30.5","","64","","","","28","","43","","9.7","","98.58","","","","-42","","Blowing Snow"
"-63.51","44.88","HALIFAX STANFIELD INT'L A","8202251","2023-02-04 04:00","2023","02","04","04:00","-25.9","","-31.4","","61","","","","28","","48","","19.3","","98.61","","","","-43","","NA"
"-63.51","44.88","HALIFAX STANFIELD INT'L A","8202251","2023-02-04 05:00","2023","02","04","05:00","-25.9","","-30.9","","64","","","","27","","38","","19.3","","98.65","","","","-42","","Mostly Cloudy"
"-63.51","44.88","HALIFAX STANFIELD INT'L A","8202251","2023-02-04 06:00","2023","02","04","06:00","-25.6","","-30.2","","66","","","","28","","40","","19.3","","98.68","","","","-42","","Blowing Snow"
"-63.51","44.88","HALIFAX STANFIELD INT'L A","8202251","2023-02-04 07:00","2023","02","04","07:00","-25.3","","-30.4","","64","","","","29","","42","","9.7","","98.72","","","","-42","","Blowing Snow"
"-63.51","44.88","HALIFAX STANFIELD INT'L A","8202251","2023-02-04 08:00","2023","02","04","08:00","-25.1","","-30.1","","64","","","","28","","45","","4.8","","98.77","","","","-42","","Blowing Snow"
"-63.51","44.88","HALIFAX STANFIELD INT'L A","8202251","2023-02-04 09:00","2023","02","04","09:00","-24.9","","-29.5","","67","","","","30","","45","","3.6","","98.82","","","","-41","","Blowing Snow"
"-63.51","44.88","HALIFAX STANFIELD INT'L A","8202251","2023-02-04 10:00","2023","02","04","10:00","-24.6","","-29.3","","66","","","","30","","58","","2.4","","98.86","","","","-43","","Blowing Snow,Blowing Sand"
"-63.51","44.88","HALIFAX STANFIELD INT'L A","8202251","2023-02-04 11:00","2023","02","04","11:00","-23.8","","-28.6","","65","","","","29","","40","","3.2","","98.87","","","","-39","","Blowing Snow"
"-63.51","44.88","HALIFAX STANFIELD INT'L A","8202251","2023-02-04 12:00","2023","02","04","12:00","-22.5","","-27.2","","66","","","","29","","45","","3.2","","98.81","","","","-38","","Blowing Snow"
"-63.51","44.88","HALIFAX STANFIELD INT'L A","8202251","2023-02-04 13:00","2023","02","04","13:00","-20.8","","-25.3","","68","","","","29","","40","","3.2","","98.83","","","","-35","","Blowing Snow"
"-63.51","44.88","HALIFAX STANFIELD INT'L A","8202251","2023-02-04 14:00","2023","02","04","14:00","-19.3","","-23.8","","68","","","","29","","48","","3.2","","98.88","","","","-34","","Blowing Snow"
"-63.51","44.88","HALIFAX STANFIELD INT'L A","8202251","2023-02-04 15:00","2023","02","04","15:00","-18.1","","-23.1","","65","","","","29","","39","","8.1","","99.01","","","","-31","","Blowing Snow"
"-63.51","44.88","HALIFAX STANFIELD INT'L A","8202251","2023-02-04 16:00","2023","02","04","16:00","-16.8","","-21.4","","68","","","","28","","31","","8.1","","99.17","","","","-29","","Blowing Snow"
"-63.51","44.88","HALIFAX STANFIELD INT'L A","8202251","2023-02-04 17:00","2023","02","04","17:00","-16.2","","-21.6","","64","","","","29","","28","","24.1","","99.36","","","","-27","","Mainly Clear"
"-63.51","44.88","HALIFAX STANFIELD INT'L A","8202251","2023-02-04 18:00","2023","02","04","18:00","-16.5","","-21.7","","65","","","","28","","45","","24.1","","99.50","","","","-30","","NA"
"-63.51","44.88","HALIFAX STANFIELD INT'L A","8202251","2023-02-04 19:00","2023","02","04","19:00","-16.1","","-22.1","","61","","","","29","","41","","24.1","","99.72","","","","-29","","NA"
"-63.51","44.88","HALIFAX STANFIELD INT'L A","8202251","2023-02-04 20:00","2023","02","04","20:00","-15.9","","-22.4","","58","","","","29","","40","","24.1","","99.87","","","","-29","","Clear"
"-63.51","44.88","HALIFAX STANFIELD INT'L A","8202251","2023-02-04 21:00","2023","02","04","21:00","-15.7","","-21.7","","60","","","","29","","62","","24.1","","99.94","","","","-31","","NA"
"-63.51","44.88","HALIFAX STANFIELD INT'L A","8202251","2023-02-04 22:00","2023","02","04","22:00","-15.6","","-21.3","","62","","","","29","","53","","24.1","","100.11","","","","-30","","NA"
"-63.51","44.88","HALIFAX STANFIELD INT'L A","8202251","2023-02-04 23:00","2023","02","04","23:00","-15.7","","-20.9","","65","","","","30","","55","","24.1","","100.26","","","","-30","","Clear"
"-63.51","44.88","HALIFAX STANFIELD INT'L A","8202251","2023-02-05 00:00","2023","02","05","00:00","-15.7","","-20.6","","66","","","","30","","39","","24.1","","100.40","","","","-28","","NA"
"-63.51","44.88","HALIFAX STANFIELD INT'L A","8202251","2023-02-05 01:00","2023","02","05","01:00","-15.7","","-20.2","","69","","","","29","","41","","24.1","","100.53","","","","-29","","NA"
"-63.51","44.88","HALIFAX STANFIELD INT'L A","8202251","2023-02-05 02:00","2023","02","05","02:00","-16.0","","-19.8","","73","","","","28","","32","","24.1","","100.61","","","","-28","","Clear"
"-63.51","44.88","HALIFAX STANFIELD INT'L A","8202251","2023-02-05 03:00","2023","02","05","03:00","-15.7","","-19.3","","74","","","","29","","29","","24.1","","100.73","","","","-27","","NA"
"-63.51","44.88","HALIFAX STANFIELD INT'L A","8202251","2023-02-05 04:00","2023","02","05","04:00","-15.9","","-19.2","","76","","","","27","","13","","24.1","","100.81","","","","-23","","NA"
"-63.51","44.88","HALIFAX STANFIELD INT'L A","8202251","2023-02-05 05:00","2023","02","05","05:00","-14.8","","-18.1","","76","","","","27","","19","","24.1","","100.86","","","","-24","","Mostly Cloudy"
"-63.51","44.88","HALIFAX STANFIELD INT'L A","8202251","2023-02-05 06:00","2023","02","05","06:00","-13.7","","-16.9","","77","","","","25","","18","","24.1","","100.94","","","","-22","","NA"
"-63.51","44.88","HALIFAX STANFIELD INT'L A","8202251","2023-02-05 07:00","2023","02","05","07:00","-13.6","","-16.5","","79","","","","21","","9","","24.1","","100.94","","","","-19","","NA"
"-63.51","44.88","HALIFAX STANFIELD INT'L A","8202251","2023-02-05 08:00","2023","02","05","08:00","-13.2","","-16.0","","80","","","","15","","12","","24.1","","100.89","","","","-20","","Cloudy"
"-63.51","44.88","HALIFAX STANFIELD INT'L A","8202251","2023-02-05 09:00","2023","02","05","09:00","-12.0","","-15.2","","77","","","","15","","12","","24.1","","100.89","","","","-18","","NA"
"-63.51","44.88","HALIFAX STANFIELD INT'L A","8202251","2023-02-05 10:00","2023","02","05","10:00","-9.4","","-13.2","","74","","","","16","","14","","24.1","","100.81","","","","-16","","NA"
"-63.51","44.88","HALIFAX STANFIELD INT'L A","8202251","2023-02-05 11:00","2023","02","05","11:00","-5.8","","-9.1","","77","","","","16","","18","","24.1","","100.70","","","","-12","","Mostly Cloudy"
"-63.51","44.88","HALIFAX STANFIELD INT'L A","8202251","2023-02-05 12:00","2023","02","05","12:00","-3.1","","-5.3","","85","","","","17","","17","","2.8","","100.55","","","","-9","","Snow"
"-63.51","44.88","HALIFAX STANFIELD INT'L A","8202251","2023-02-05 13:00","2023","02","05","13:00","-1.8","","-3.4","","89","","","","19","","25","","19.3","","100.38","","","","-8","","Snow"
"-63.51","44.88","HALIFAX STANFIELD INT'L A","8202251","2023-02-05 14:00","2023","02","05","14:00","-0.4","","-2.4","","87","","","","21","","29","","8.1","","100.24","","","","-7","","Snow"
"-63.51","44.88","HALIFAX STANFIELD INT'L A","8202251","2023-02-05 15:00","2023","02","05","15:00","0.3","","-0.5","","95","","","","20","","25","","2.0","","100.13","","","","","","Snow"
"-63.51","44.88","HALIFAX STANFIELD INT'L A","8202251","2023-02-05 16:00","2023","02","05","16:00","0.8","","0.3","","97","","","","20","","28","","19.3","","100.06","","","","","","NA"
"-63.51","44.88","HALIFAX STANFIELD INT'L A","8202251","2023-02-05 17:00","2023","02","05","17:00","1.5","","1.0","","96","","","","20","","23","","16.1","","100.01","","","","","","Cloudy"
"-63.51","44.88","HALIFAX STANFIELD INT'L A","8202251","2023-02-05 18:00","2023","02","05","18:00","2.1","","1.7","","97","","","","21","","21","","4.8","","99.98","","","","","","Rain,Fog"
"-63.51","44.88","HALIFAX STANFIELD INT'L A","8202251","2023-02-05 19:00","2023","02","05","19:00","2.8","","2.2","","96","","","","21","","26","","12.9","","99.95","","","","","","NA"
"-63.51","44.88","HALIFAX STANFIELD INT'L A","8202251","2023-02-05 20:00","2023","02","05","20:00","3.1","","2.5","","96","","","","22","","21","","12.9","","99.92","","","","","","Cloudy"
"-63.51","44.88","HALIFAX STANFIELD INT'L A","8202251","2023-02-05 21:00","2023","02","05","21:00","3.2","","2.5","","95","","","","20","","21","","16.1","","99.89","","","","","","Drizzle"
"-63.51","44.88","HALIFAX STANFIELD INT'L A","8202251","2023-02-05 22:00","2023","02","05","22:00","3.3","","2.7","","96","","","","21","","18","","16.1","","99.87","","","","","","NA"
"-63.51","44.88","HALIFAX STANFIELD INT'L A","8202251","2023-02-05 23:00","2023","02","05","23:00","3.2","","2.6","","96","","","","21","","21","","19.3","","99.87","","","","","","Cloudy"
"-63.51","44.88","HALIFAX STANFIELD INT'L A","8202251","2023-02-06 00:00","2023","02","06","00:00","3.0","","2.5","","97","","","","21","","15","","16.1","","99.86","","","","","","NA"
"-63.51","44.88","HALIFAX STANFIELD INT'L A","8202251","2023-02-06 01:00","2023","02","06","01:00","3.1","","2.8","","98","","","","20","","14","","12.9","","99.83","","","","","","NA"
"-63.51","44.88","HALIFAX STANFIELD INT'L A","8202251","2023-02-06 02:00","2023","02","06","02:00","3.1","","2.9","","99","","","","20","","13","","9.7","","99.80","","","","","","Fog"
"-63.51","44.88","HALIFAX STANFIELD INT'L A","8202251","2023-02-06 03:00","2023","02","06","03:00","3.5","","3.4","","99","","","","21","","13","","4.8","","99.76","","","","","","Fog"
"-63.51","44.88","HALIFAX STANFIELD INT'L A","8202251","2023-02-06 04:00","2023","02","06","04:00","3.5","","3.5","","100","","","","20","","13","","2.0","","99.70","","","","","","Fog"
"-63.51","44.88","HALIFAX STANFIELD INT'L A","8202251","2023-02-06 05:00","2023","02","06","05:00","3.2","","3.2","","100","","","","21","","13","","1.2","","99.69","","","","","","Fog"
"-63.51","44.88","HALIFAX STANFIELD INT'L A","8202251","2023-02-06 06:00","2023","02","06","06:00","3.2","","3.2","","100","","","","21","","9","","0.6","","99.69","","","","","","Fog"
"-63.51","44.88","HALIFAX STANFIELD INT'L A","8202251","2023-02-06 07:00","2023","02","06","07:00","3.5","","3.5","","100","","","","20","","13","","0.8","","99.73","","","","","","Fog"
"-63.51","44.88","HALIFAX STANFIELD INT'L A","8202251","2023-02-06 08:00","2023","02","06","08:00","3.2","","3.2","","100","","","","22","","10","","0.4","","99.78","","","","","","Fog"
"-63.51","44.88","HALIFAX STANFIELD INT'L A","8202251","2023-02-06 09:00","2023","02","06","09:00","3.3","","3.3","","100","","","","21","","9","","0.4","","99.79","","","","","","Fog"
"-63.51","44.88","HALIFAX STANFIELD INT'L A","8202251","2023-02-06 10:00","2023","02","06","10:00","3.4","","3.4","","100","","","","23","","8","","0.4","","99.81","","","","","","Fog"
"-63.51","44.88","HALIFAX STANFIELD INT'L A","8202251","2023-02-06 11:00","2023","02","06","11:00","3.6","","3.6","","100","","","","29","","9","","2.0","","99.80","","","","","","Fog"
"-63.51","44.88","HALIFAX STANFIELD INT'L A","8202251","2023-02-06 12:00","2023","02","06","12:00","3.7","","3.7","","100","","","","27","","8","","4.8","","99.78","","","","","","Fog"
"-63.51","44.88","HALIFAX STANFIELD INT'L A","8202251","2023-02-06 13:00","2023","02","06","13:00","3.9","","3.8","","99","","","","34","","13","","8.1","","99.74","","","","","","Fog"
"-63.51","44.88","HALIFAX STANFIELD INT'L A","8202251","2023-02-06 14:00","2023","02","06","14:00","4.0","","2.8","","92","","","","35","","13","","12.9","","99.79","","","","","","Cloudy"
"-63.51","44.88","HALIFAX STANFIELD INT'L A","8202251","2023-02-06 15:00","2023","02","06","15:00","3.9","","1.5","","84","","","","34","","15","","19.3","","99.86","","","","","","NA"
"-63.51","44.88","HALIFAX STANFIELD INT'L A","8202251","2023-02-06 16:00","2023","02","06","16:00","3.6","","1.2","","84","","","","36","","16","","24.1","","99.91","","","","","","NA"
"-63.51","44.88","HALIFAX STANFIELD INT'L A","8202251","2023-02-06 17:00","2023","02","06","17:00","2.4","","0.4","","87","","","","36","","20","","24.1","","99.96","","","","","","Mostly Cloudy"
"-63.51","44.88","HALIFAX STANFIELD INT'L A","8202251","2023-02-06 18:00","2023","02","06","18:00","0.8","","-1.3","","86","","","","36","","29","","24.1","","99.97","","","","","","NA"
"-63.51","44.88","HALIFAX STANFIELD INT'L A","8202251","2023-02-06 19:00","2023","02","06","19:00","-2.3","","-3.9","","89","","","","36","","35","","24.1","","100.03","","","","-10","","NA"
"-63.51","44.88","HALIFAX STANFIELD INT'L A","8202251","2023-02-06 20:00","2023","02","06","20:00","-3.1","","-4.7","","89","","","","1","","43","","24.1","","100.03","","","","-12","","Cloudy"
"-63.51","44.88","HALIFAX STANFIELD INT'L A","8202251","2023-02-06 21:00","2023","02","06","21:00","-3.3","","-5.1","","87","","","","2","","45","","24.1","","100.10","","","","-12","","Snow Showers"
"-63.51","44.88","HALIFAX STANFIELD INT'L A","8202251","2023-02-06 22:00","2023","02","06","22:00","-3.6","","-6.5","","80","","","","2","","41","","24.1","","100.06","","","","-12","","NA"
"-63.51","44.88","HALIFAX STANFIELD INT'L A","8202251","2023-02-06 23:00","2023","02","06","23:00","-3.5","","-6.0","","83","","","","2","","37","","24.1","","100.01","","","","-12","","Cloudy"
"-63.51","44.88","HALIFAX STANFIELD INT'L A","8202251","2023-02-07 00:00","2023","02","07","00:00","-3.1","","-5.8","","82","","","","3","","36","","24.1","","100.01","","","","-11","","Snow Showers"
"-63.51","44.88","HALIFAX STANFIELD INT'L A","8202251","2023-02-07 01:00","2023","02","07","01:00","-4.0","","-7.0","","80","","","","3","","48","","24.1","","100.03","","","","-13","","Snow"
"-63.51","44.88","HALIFAX STANFIELD INT'L A","8202251","2023-02-07 02:00","2023","02","07","02:00","-5.0","","-8.0","","79","","","","3","","46","","24.1","","100.01","","","","-15","","Snow"
"-63.51","44.88","HALIFAX STANFIELD INT'L A","8202251","2023-02-07 03:00","2023","02","07","03:00","-5.5","","-8.8","","78","","","","3","","49","","24.1","","99.96","","","","-16","","Snow"
"-63.51","44.88","HALIFAX STANFIELD INT'L A","8202251","2023-02-07 04:00","2023","02","07","04:00","-6.2","","-9.8","","76","","","","2","","48","","24.1","","100.03","","","","-16","","Snow"
"-63.51","44.88","HALIFAX STANFIELD INT'L A","8202251","2023-02-07 05:00","2023","02","07","05:00","-6.3","","-9.6","","78","","","","1","","31","","24.1","","100.23","","","","-15","","Snow"
"-63.51","44.88","HALIFAX STANFIELD INT'L A","8202251","2023-02-07 06:00","2023","02","07","06:00","-6.4","","-9.5","","78","","","","1","","36","","24.1","","100.29","","","","-16","","Snow"
"-63.51","44.88","HALIFAX STANFIELD INT'L A","8202251","2023-02-07 07:00","2023","02","07","07:00","-6.2","","-9.7","","77","","","","1","","37","","24.1","","100.40","","","","-15","","Snow"
"-63.51","44.88","HALIFAX STANFIELD INT'L A","8202251","2023-02-07 08:00","2023","02","07","08:00","-6.1","","-9.4","","78","","","","1","","37","","24.1","","100.47","","","","-15","","Mostly Cloudy"
"-63.51","44.88","HALIFAX STANFIELD INT'L A","8202251","2023-02-07 09:00","2023","02","07","09:00","-5.1","","-8.9","","75","","","","2","","31","","24.1","","100.51","","","","-13","","NA"
"-63.51","44.88","HALIFAX STANFIELD INT'L A","8202251","2023-02-07 10:00","2023","02","07","10:00","-4.1","","-9.6","","66","","","","3","","41","","24.1","","100.54","","","","-13","","NA"
"-63.51","44.88","HALIFAX STANFIELD INT'L A","8202251","2023-02-07 11:00","2023","02","07","11:00","-3.1","","-9.6","","61","","","","3","","40","","24.1","","100.60","","","","-12","","Mainly Clear"
"-63.51","44.88","HALIFAX STANFIELD INT'L A","8202251","2023-02-07 12:00","2023","02","07","12:00","-2.6","","-9.4","","60","","","","2","","37","","24.1","","100.57","","","","-11","","NA"
"-63.51","44.88","HALIFAX STANFIELD INT'L A","8202251","2023-02-07 13:00","2023","02","07","13:00","-1.6","","-9.5","","55","","","","3","","34","","24.1","","100.54","","","","-9","","NA"
"-63.51","44.88","HALIFAX STANFIELD INT'L A","8202251","2023-02-07 14:00","2023","02","07","14:00","-1.8","","-9.2","","57","","","","3","","33","","24.1","","100.50","","","","-9","","Mainly Clear"
"-63.51","44.88","HALIFAX STANFIELD INT'L A","8202251","2023-02-07 15:00","2023","02","07","15:00","-1.8","","-9.6","","56","","","","2","","30","","24.1","","100.47","","","","-9","","NA"
"-63.51","44.88","HALIFAX STANFIELD INT'L A","8202251","2023-02-07 16:00","2023","02","07","16:00","-2.5","","-9.2","","60","","","","1","","23","","24.1","","100.51","","","","-9","","NA"
"-63.51","44.88","HALIFAX STANFIELD INT'L A","8202251","2023-02-07 17:00","2023","02","07","17:00","-3.5","","-9.2","","65","","","","1","","21","","24.1","","100.43","","","","-10","","Mainly Clear"
"-63.51","44.88","HALIFAX STANFIELD INT'L A","8202251","2023-02-07 18:00","2023","02","07","18:00","-4.8","","-9.5","","70","","","","3","","19","","24.1","","100.43","","","","-11","","NA"
"-63.51","44.88","HALIFAX STANFIELD INT'L A","8202251","2023-02-07 19:00","2023","02","07","19:00","-5.5","","-9.2","","75","","","","36","","14","","24.1","","100.54","","","","-11","","NA"
"-63.51","44.88","HALIFAX STANFIELD INT'L A","8202251","2023-02-07 20:00","2023","02","07","20:00","-6.6","","-9.4","","81","","","","2","","12","","24.1","","100.38","","","","-12","","Clear"
"-63.51","44.88","HALIFAX STANFIELD INT'L A","8202251","2023-02-07 21:00","2023","02","07","21:00","-7.5","","-9.4","","86","","","","35","","8","","24.1","","100.31","","","","-12","","NA"
"-63.51","44.88","HALIFAX STANFIELD INT'L A","8202251","2023-02-07 22:00","2023","02","07","22:00","-8.1","","-9.6","","89","","","","4","","5","","24.1","","100.17","","","","-11","","NA"
"-63.51","44.88","HALIFAX STANFIELD INT'L A","8202251","2023-02-07 23:00","2023","02","07","23:00","-7.8","","-10.0","","85","","","","8","","7","","24.1","","100.12","","","","-11","","Clear"
"-63.51","44.88","HALIFAX STANFIELD INT'L A","8202251","2023-02-08 00:00","2023","02","08","00:00","-8.5","","-10.4","","86","","","","9","","9","","24.1","","100.06","","","","-13","","NA"
"-63.51","44.88","HALIFAX STANFIELD INT'L A","8202251","2023-02-08 01:00","2023","02","08","01:00","-8.7","","-10.6","","86","","","","12","","10","","24.1","","100.00","","","","-14","","NA"
"-63.51","44.88","HALIFAX STANFIELD INT'L A","8202251","2023-02-08 02:00","2023","02","08","02:00","-8.0","","-9.7","","88","","","","22","","9","","24.1","","99.97","","","","-13","","Mostly Cloudy"
"-63.51","44.88","HALIFAX STANFIELD INT'L A","8202251","2023-02-08 03:00","2023","02","08","03:00","-7.3","","-8.8","","89","","","","21","","11","","24.1","","99.96","","","","-12","","NA"
"-63.51","44.88","HALIFAX STANFIELD INT'L A","8202251","2023-02-08 04:00","2023","02","08","04:00","-6.7","","-8.1","","90","","","","15","","14","","24.1","","99.77","","","","-12","","NA"
"-63.51","44.88","HALIFAX STANFIELD INT'L A","8202251","2023-02-08 05:00","2023","02","08","05:00","-5.5","","-7.0","","89","","","","17","","11","","24.1","","99.69","","","","-10","","Cloudy"
"-63.51","44.88","HALIFAX STANFIELD INT'L A","8202251","2023-02-08 06:00","2023","02","08","06:00","-4.8","","-6.5","","88","","","","18","","14","","24.1","","99.62","","","","-10","","NA"
"-63.51","44.88","HALIFAX STANFIELD INT'L A","8202251","2023-02-08 07:00","2023","02","08","07:00","-4.1","","-5.5","","90","","","","19","","13","","24.1","","99.59","","","","-9","","NA"
"-63.51","44.88","HALIFAX STANFIELD INT'L A","8202251","2023-02-08 08:00","2023","02","08","08:00","-3.1","","-4.5","","90","","","","18","","12","","8.1","","99.53","","","","-8","","Snow,Fog"
"-63.51","44.88","HALIFAX STANFIELD INT'L A","8202251","2023-02-08 09:00","2023","02","08","09:00","-2.4","","-3.4","","93","","","","17","","15","","4.0","","99.46","","","","-7","","Snow,Fog"
"-63.51","44.88","HALIFAX STANFIELD INT'L A","8202251","2023-02-08 10:00","2023","02","08","10:00","-0.9","","-1.9","","93","","","","19","","18","","12.9","","99.40","","","","-6","","Snow"
"-63.51","44.88","HALIFAX STANFIELD INT'L A","8202251","2023-02-08 11:00","2023","02","08","11:00","-0.4","","-1.0","","96","","","","21","","16","","4.0","","99.38","","","","-5","","Snow"
"-63.51","44.88","HALIFAX STANFIELD INT'L A","8202251","2023-02-08 12:00","2023","02","08","12:00","0.2","","-0.4","","96","","","","24","","14","","9.7","","99.28","","","","","","Fog"
"-63.51","44.88","HALIFAX STANFIELD INT'L A","8202251","2023-02-08 13:00","2023","02","08","13:00","0.6","","-1.0","","89","","","","28","","16","","19.3","","99.20","","","","","","NA"
"-63.51","44.88","HALIFAX STANFIELD INT'L A","8202251","2023-02-08 14:00","2023","02","08","14:00","2.8","","-1.7","","73","","","","30","","27","","24.1","","99.12","","","","","","Mostly Cloudy"
"-63.51","44.88","HALIFAX STANFIELD INT'L A","8202251","2023-02-08 15:00","2023","02","08","15:00","2.4","","-3.2","","67","","","","29","","28","","24.1","","99.11","","","","","","NA"
"-63.51","44.88","HALIFAX STANFIELD INT'L A","8202251","2023-02-08 16:00","2023","02","08","16:00","2.0","","-3.1","","69","","","","29","","23","","24.1","","99.17","","","","","","NA"
"-63.51","44.88","HALIFAX STANFIELD INT'L A","8202251","2023-02-08 17:00","2023","02","08","17:00","1.5","","-2.8","","73","","","","29","","21","","24.1","","99.23","","","","","","Mostly Cloudy"
"-63.51","44.88","HALIFAX STANFIELD INT'L A","8202251","2023-02-08 18:00","2023","02","08","18:00","1.4","","-2.6","","75","","","","28","","18","","24.1","","99.29","","","","","","NA"
"-63.51","44.88","HALIFAX STANFIELD INT'L A","8202251","2023-02-08 19:00","2023","02","08","19:00","1.2","","-3.1","","73","","","","30","","18","","24.1","","99.34","","","","","","NA"
"-63.51","44.88","HALIFAX STANFIELD INT'L A","8202251","2023-02-08 20:00","2023","02","08","20:00","1.0","","-3.7","","71","","","","29","","17","","24.1","","99.42","","","","","","Mostly Cloudy"
"-63.51","44.88","HALIFAX STANFIELD INT'L A","8202251","2023-02-08 21:00","2023","02","08","21:00","0.0","","-4.2","","73","","","","27","","15","","24.1","","99.46","","","","-4","","NA"
"-63.51","44.88","HALIFAX STANFIELD INT'L A","8202251","2023-02-08 22:00","2023","02","08","22:00","0.4","","-4.9","","67","","","","32","","27","","24.1","","99.50","","","","","","NA"
"-63.51","44.88","HALIFAX STANFIELD INT'L A","8202251","2023-02-08 23:00","2023","02","08","23:00","-0.8","","-7.2","","62","","","","34","","18","","24.1","","99.57","","","","-6","","Mainly Clear"
"-63.51","44.88","HALIFAX STANFIELD INT'L A","8202251","2023-02-09 00:00","2023","02","09","00:00","-1.4","","-10.4","","50","","","","33","","23","","24.1","","99.65","","","","-7","","NA"
"-63.51","44.88","HALIFAX STANFIELD INT'L A","8202251","2023-02-09 01:00","2023","02","09","01:00","-2.0","","-11.0","","50","","","","32","","15","","24.1","","99.76","","","","-7","","NA"
"-63.51","44.88","HALIFAX STANFIELD INT'L A","8202251","2023-02-09 02:00","2023","02","09","02:00","-2.6","","-9.9","","57","","","","32","","26","","24.1","","99.83","","","","-9","","Clear"
"-63.51","44.88","HALIFAX STANFIELD INT'L A","8202251","2023-02-09 03:00","2023","02","09","03:00","-3.5","","-11.5","","54","","","","31","","30","","24.1","","99.91","","","","-11","","NA"
"-63.51","44.88","HALIFAX STANFIELD INT'L A","8202251","2023-02-09 04:00","2023","02","09","04:00","-4.9","","-12.9","","54","","","","33","","26","","24.1","","100.03","","","","-12","","NA"
"-63.51","44.88","HALIFAX STANFIELD INT'L A","8202251","2023-02-09 05:00","2023","02","09","05:00","-6.2","","-13.2","","58","","","","33","","22","","24.1","","100.15","","","","-13","","Clear"
"-63.51","44.88","HALIFAX STANFIELD INT'L A","8202251","2023-02-09 06:00","2023","02","09","06:00","-6.9","","-12.8","","63","","","","34","","19","","24.1","","100.15","","","","-14","","NA"
"-63.51","44.88","HALIFAX STANFIELD INT'L A","8202251","2023-02-09 07:00","2023","02","09","07:00","-7.3","","-13.7","","60","","","","32","","28","","24.1","","100.23","","","","-16","","NA"
"-63.51","44.88","HALIFAX STANFIELD INT'L A","8202251","2023-02-09 08:00","2023","02","09","08:00","-7.7","","-14.1","","60","","","","32","","24","","24.1","","100.41","","","","-16","","Clear"
"-63.51","44.88","HALIFAX STANFIELD INT'L A","8202251","2023-02-09 09:00","2023","02","09","09:00","-6.6","","-14.5","","54","","","","31","","34","","24.1","","100.51","","","","-16","","NA"
"-63.51","44.88","HALIFAX STANFIELD INT'L A","8202251","2023-02-09 10:00","2023","02","09","10:00","-5.5","","-15.5","","46","","","","32","","39","","24.1","","100.53","","","","-15","","NA"
"-63.51","44.88","HALIFAX STANFIELD INT'L A","8202251","2023-02-09 11:00","2023","02","09","11:00","-4.7","","-16.1","","41","","","","32","","33","","24.1","","100.58","","","","-13","","Clear"
"-63.51","44.88","HALIFAX STANFIELD INT'L A","8202251","2023-02-09 12:00","2023","02","09","12:00","-3.5","","-16.1","","38","","","","33","","23","","24.1","","100.55","","","","-10","","NA"
"-63.51","44.88","HALIFAX STANFIELD INT'L A","8202251","2023-02-09 13:00","2023","02","09","13:00","-2.5","","-16.0","","35","","","","31","","33","","24.1","","100.47","","","","-10","","NA"
"-63.51","44.88","HALIFAX STANFIELD INT'L A","8202251","2023-02-09 14:00","2023","02","09","14:00","-1.9","","-17.1","","31","","","","31","","29","","24.1","","100.43","","","","-9","","Mainly Clear"
"-63.51","44.88","HALIFAX STANFIELD INT'L A","8202251","2023-02-09 15:00","2023","02","09","15:00","-1.7","","-16.4","","32","","","","32","","23","","24.1","","100.49","","","","-8","","NA"
"-63.51","44.88","HALIFAX STANFIELD INT'L A","8202251","2023-02-09 16:00","2023","02","09","16:00","-2.3","","-14.5","","39","","","","30","","18","","24.1","","100.56","","","","-8","","NA"
"-63.51","44.88","HALIFAX STANFIELD INT'L A","8202251","2023-02-09 17:00","2023","02","09","17:00","-3.1","","-14.8","","40","","","","31","","21","","24.1","","100.60","","","","-9","","Mostly Cloudy"
"-63.51","44.88","HALIFAX STANFIELD INT'L A","8202251","2023-02-09 18:00","2023","02","09","18:00","-3.6","","-14.5","","43","","","","29","","16","","24.1","","100.68","","","","-9","","NA"
"-63.51","44.88","HALIFAX STANFIELD INT'L A","8202251","2023-02-09 19:00","2023","02","09","19:00","-3.8","","-13.7","","46","","","","30","","14","","24.1","","100.70","","","","-9","","NA"
"-63.51","44.88","HALIFAX STANFIELD INT'L A","8202251","2023-02-09 20:00","2023","02","09","20:00","-3.7","","-13.4","","47","","","","25","","6","","24.1","","100.71","","","","-6","","Cloudy"
"-63.51","44.88","HALIFAX STANFIELD INT'L A","8202251","2023-02-09 21:00","2023","02","09","21:00","-3.4","","-13.0","","48","","","","26","","10","","24.1","","100.71","","","","-7","","NA"
"-63.51","44.88","HALIFAX STANFIELD INT'L A","8202251","2023-02-09 22:00","2023","02","09","22:00","-3.3","","-12.4","","50","","","","25","","9","","24.1","","100.66","","","","-7","","NA"
"-63.51","44.88","HALIFAX STANFIELD INT'L A","8202251","2023-02-09 23:00","2023","02","09","23:00","-3.4","","-11.4","","54","","","","20","","5","","24.1","","100.60","","","","-5","","Cloudy"
"-63.51","44.88","HALIFAX STANFIELD INT'L A","8202251","2023-02-10 00:00","2023","02","10","00:00","-3.8","","-11.3","","56","","","","14","","8","","24.1","","100.47","","","","-7","","NA"
"-63.51","44.88","HALIFAX STANFIELD INT'L A","8202251","2023-02-10 01:00","2023","02","10","01:00","-3.7","","-10.8","","58","","","","13","","9","","19.3","","100.42","","","","-7","","NA"
"-63.51","44.88","HALIFAX STANFIELD INT'L A","8202251","2023-02-10 02:00","2023","02","10","02:00","-4.0","","-9.9","","64","","","","15","","14","","4.0","","100.41","","","","-9","","Snow"
"-63.51","44.88","HALIFAX STANFIELD INT'L A","8202251","2023-02-10 03:00","2023","02","10","03:00","-5.0","","-6.7","","88","","","","13","","16","","2.8","","100.22","","","","-11","","Snow"
"-63.51","44.88","HALIFAX STANFIELD INT'L A","8202251","2023-02-10 04:00","2023","02","10","04:00","-4.1","","-5.0","","94","","","","15","","22","","2.4","","100.11","","","","-11","","Snow"
"-63.51","44.88","HALIFAX STANFIELD INT'L A","8202251","2023-02-10 05:00","2023","02","10","05:00","-3.8","","-4.5","","95","","","","12","","29","","2.4","","99.85","","","","-11","","Snow"
"-63.51","44.88","HALIFAX STANFIELD INT'L A","8202251","2023-02-10 06:00","2023","02","10","06:00","-2.7","","-3.2","","97","","","","13","","29","","3.2","","99.64","","","","-10","","Snow,Ice Pellets"
"-63.51","44.88","HALIFAX STANFIELD INT'L A","8202251","2023-02-10 07:00","2023","02","10","07:00","-0.9","","-1.2","","98","","","","13","","32","","4.8","","99.48","","","","-8","","Freezing Rain,Fog"
"-63.51","44.88","HALIFAX STANFIELD INT'L A","8202251","2023-02-10 08:00","2023","02","10","08:00","0.0","","-0.2","","99","","","","14","","25","","4.0","","99.37","","","","-6","","Freezing Rain,Fog"
"-63.51","44.88","HALIFAX STANFIELD INT'L A","8202251","2023-02-10 09:00","2023","02","10","09:00","0.4","","0.2","","99","","","","13","","31","","3.2","","99.16","","","","","","Rain,Fog"
"-63.51","44.88","HALIFAX STANFIELD INT'L A","8202251","2023-02-10 10:00","2023","02","10","10:00","1.0","","1.0","","99","","","","13","","35","","2.8","","98.93","","","","","","Drizzle,Fog"
"-63.51","44.88","HALIFAX STANFIELD INT'L A","8202251","2023-02-10 11:00","2023","02","10","11:00","2.2","","2.2","","100","","","","14","","28","","1.2","","98.72","","","","","","Drizzle,Fog"
"-63.51","44.88","HALIFAX STANFIELD INT'L A","8202251","2023-02-10 12:00","2023","02","10","12:00","3.1","","3.1","","100","","","","15","","19","","0.6","","98.49","","","","","","Drizzle,Fog"
"-63.51","44.88","HALIFAX STANFIELD INT'L A","8202251","2023-02-10 13:00","2023","02","10","13:00","4.9","","4.9","","100","","","","15","","18","","0.4","","98.31","","","","","","Drizzle,Fog"
"-63.51","44.88","HALIFAX STANFIELD INT'L A","8202251","2023-02-10 14:00","2023","02","10","14:00","6.9","","6.9","","100","","","","20","","18","","0.6","","98.25","","","","","","Drizzle,Fog"
"-63.51","44.88","HALIFAX STANFIELD INT'L A","8202251","2023-02-10 15:00","2023","02","10","15:00","6.9","","6.9","","100","","","","23","","17","","0.6","","98.22","","","","","","Drizzle,Fog"
"-63.51","44.88","HALIFAX STANFIELD INT'L A","8202251","2023-02-10 16:00","2023","02","10","16:00","7.0","","7.0","","100","","","","25","","23","","2.8","","98.20","","","","","","Fog"
"-63.51","44.88","HALIFAX STANFIELD INT'L A","8202251","2023-02-10 17:00","2023","02","10","17:00","6.7","","6.7","","100","","","","26","","20","","16.1","","98.23","","","","","","Cloudy"
"-63.51","44.88","HALIFAX STANFIELD INT'L A","8202251","2023-02-10 18:00","2023","02","10","18:00","6.5","","6.3","","98","","","","26","","19","","19.3","","98.31","","","","","","NA"
"-63.51","44.88","HALIFAX STANFIELD INT'L A","8202251","2023-02-10 19:00","2023","02","10","19:00","5.7","","5.2","","97","","","","26","","19","","24.1","","98.33","","","","","","NA"
"-63.51","44.88","HALIFAX STANFIELD INT'L A","8202251","2023-02-10 20:00","2023","02","10","20:00","4.5","","4.1","","98","","","","26","","18","","24.1","","98.38","","","","","","Mainly Clear"
"-63.51","44.88","HALIFAX STANFIELD INT'L A","8202251","2023-02-10 21:00","2023","02","10","21:00","3.9","","3.4","","96","","","","25","","20","","24.1","","98.43","","","","","","NA"
"-63.51","44.88","HALIFAX STANFIELD INT'L A","8202251","2023-02-10 22:00","2023","02","10","22:00","4.0","","3.4","","96","","","","25","","18","","24.1","","98.45","","","","","","NA"
"-63.51","44.88","HALIFAX STANFIELD INT'L A","8202251","2023-02-10 23:00","2023","02","10","23:00","4.0","","3.2","","95","","","","25","","21","","12.9","","98.42","","","","","","Cloudy"
"-63.51","44.88","HALIFAX STANFIELD INT'L A","8202251","2023-02-11 00:00","2023","02","11","00:00","2.9","","1.9","","93","","","","28","","21","","24.1","","98.41","","","","","","NA"
"-63.51","44.88","HALIFAX STANFIELD INT'L A","8202251","2023-02-11 01:00","2023","02","11","01:00","2.7","","1.3","","90","","","","28","","22","","24.1","","98.41","","","","","","NA"
"-63.51","44.88","HALIFAX STANFIELD INT'L A","8202251","2023-02-11 02:00","2023","02","11","02:00","2.4","","0.2","","85","","","","28","","31","","24.1","","98.45","","","","","","Cloudy"
"-63.51","44.88","HALIFAX STANFIELD INT'L A","8202251","2023-02-11 03:00","2023","02","11","03:00","0.8","","-0.5","","91","","","","29","","28","","24.1","","98.52","","","","","","NA"
"-63.51","44.88","HALIFAX STANFIELD INT'L A","8202251","2023-02-11 04:00","2023","02","11","04:00","0.0","","-2.3","","84","","","","30","","39","","24.1","","98.48","","","","-7","","NA"
"-63.51","44.88","HALIFAX STANFIELD INT'L A","8202251","2023-02-11 05:00","2023","02","11","05:00","-1.4","","-4.5","","80","","","","32","","39","","24.1","","98.50","","","","-9","","Cloudy"
"-63.51","44.88","HALIFAX STANFIELD INT'L A","8202251","2023-02-11 06:00","2023","02","11","06:00","-2.3","","-5.5","","79","","","","32","","36","","24.1","","98.58","","","","-10","","NA"
"-63.51","44.88","HALIFAX STANFIELD INT'L A","8202251","2023-02-11 07:00","2023","02","11","07:00","-2.8","","-6.5","","76","","","","31","","32","","24.1","","98.67","","","","-10","","NA"
"-63.51","44.88","HALIFAX STANFIELD INT'L A","8202251","2023-02-11 08:00","2023","02","11","08:00","-3.3","","-6.5","","79","","","","32","","32","","19.3","","98.80","","","","-11","","Snow"
"-63.51","44.88","HALIFAX STANFIELD INT'L A","8202251","2023-02-11 09:00","2023","02","11","09:00","-3.6","","-6.5","","81","","","","32","","26","","19.3","","98.93","","","","-11","","Snow"
"-63.51","44.88","HALIFAX STANFIELD INT'L A","8202251","2023-02-11 10:00","2023","02","11","10:00","-3.5","","-6.1","","83","","","","31","","28","","19.3","","98.98","","","","-11","","Snow"
"-63.51","44.88","HALIFAX STANFIELD INT'L A","8202251","2023-02-11 11:00","2023","02","11","11:00","-3.3","","-5.5","","85","","","","33","","28","","9.7","","99.08","","","","-11","","Snow"
"-63.51","44.88","HALIFAX STANFIELD INT'L A","8202251","2023-02-11 12:00","2023","02","11","12:00","-3.4","","-6.8","","77","","","","32","","29","","24.1","","99.15","","","","-11","","Snow"
"-63.51","44.88","HALIFAX STANFIELD INT'L A","8202251","2023-02-11 13:00","2023","02","11","13:00","-3.7","","-8.0","","73","","","","33","","33","","24.1","","99.20","","","","-12","","Snow"
"-63.51","44.88","HALIFAX STANFIELD INT'L A","8202251","2023-02-11 14:00","2023","02","11","14:00","-4.3","","-8.4","","73","","","","32","","34","","19.3","","99.30","","","","-13","","Snow"
"-63.51","44.88","HALIFAX STANFIELD INT'L A","8202251","2023-02-11 15:00","2023","02","11","15:00","-4.3","","-9.7","","66","","","","32","","39","","19.3","","99.45","","","","-13","","Snow"
"-63.51","44.88","HALIFAX STANFIELD INT'L A","8202251","2023-02-11 16:00","2023","02","11","16:00","-4.5","","-9.5","","68","","","","33","","26","","19.3","","99.62","","","","-12","","Snow"
"-63.51","44.88","HALIFAX STANFIELD INT'L A","8202251","2023-02-11 17:00","2023","02","11","17:00","-5.1","","-10.4","","67","","","","33","","35","","19.3","","99.73","","","","-14","","Snow"
"-63.51","44.88","HALIFAX STANFIELD INT'L A","8202251","2023-02-11 18:00","2023","02","11","18:00","-5.5","","-10.8","","67","","","","34","","30","","24.1","","99.85","","","","-14","","Snow Showers"
"-63.51","44.88","HALIFAX STANFIELD INT'L A","8202251","2023-02-11 19:00","2023","02","11","19:00","-5.7","","-10.4","","69","","","","32","","23","","24.1","","99.96","","","","-13","","Snow Showers"
"-63.51","44.88","HALIFAX STANFIELD INT'L A","8202251","2023-02-11 20:00","2023","02","11","20:00","-5.7","","-10.5","","69","","","","31","","17","","24.1","","100.08","","","","-12","","Snow Showers"
"-63.51","44.88","HALIFAX STANFIELD INT'L A","8202251","2023-02-11 21:00","2023","02","11","21:00","-5.8","","-10.1","","72","","","","31","","16","","24.1","","100.18","","","","-12","","Snow Showers"
"-63.51","44.88","HALIFAX STANFIELD INT'L A","8202251","2023-02-11 22:00","2023","02","11","22:00","-6.5","","-10.3","","74","","","","32","","13","","24.1","","100.18","","","","-12","","NA"
"-63.51","44.88","HALIFAX STANFIELD INT'L A","8202251","2023-02-11 23:00","2023","02","11","23:00","-7.1","","-10.5","","77","","","","31","","13","","24.1","","100.16","","","","-13","","Clear"
"-63.51","44.88","HALIFAX STANFIELD INT'L A","8202251","2023-02-12 00:00","2023","02","12","00:00","-7.7","","-11.2","","76","","","","28","","8","","24.1","","100.17","","","","-12","","NA"
"-63.51","44.88","HALIFAX STANFIELD INT'L A","8202251","2023-02-12 01:00","2023","02","12","01:00","-7.0","","-10.7","","75","","","","25","","14","","24.1","","100.25","","","","-13","","NA"
"-63.51","44.88","HALIFAX STANFIELD INT'L A","8202251","2023-02-12 02:00","2023","02","12","02:00","-7.0","","-10.5","","76","","","","24","","12","","24.1","","100.26","","","","-12","","Mostly Cloudy"
"-63.51","44.88","HALIFAX STANFIELD INT'L A","8202251","2023-02-12 03:00","2023","02","12","03:00","-7.2","","-10.3","","79","","","","21","","8","","24.1","","100.18","","","","-11","","NA"
"-63.51","44.88","HALIFAX STANFIELD INT'L A","8202251","2023-02-12 04:00","2023","02","12","04:00","-8.0","","-10.4","","83","","","","21","","13","","24.1","","100.08","","","","-14","","NA"
"-63.51","44.88","HALIFAX STANFIELD INT'L A","8202251","2023-02-12 05:00","2023","02","12","05:00","-7.7","","-10.5","","80","","","","19","","14","","24.1","","100.02","","","","-14","","Clear"
"-63.51","44.88","HALIFAX STANFIELD INT'L A","8202251","2023-02-12 06:00","2023","02","12","06:00","-7.7","","-10.0","","84","","","","19","","18","","24.1","","99.94","","","","-15","","NA"
"-63.51","44.88","HALIFAX STANFIELD INT'L A","8202251","2023-02-12 07:00","2023","02","12","07:00","-7.2","","-9.3","","85","","","","19","","15","","24.1","","99.92","","","","-13","","NA"
"-63.51","44.88","HALIFAX STANFIELD INT'L A","8202251","2023-02-12 08:00","2023","02","12","08:00","-4.5","","-7.3","","81","","","","20","","19","","24.1","","99.91","","","","-11","","Mainly Clear"
"-63.51","44.88","HALIFAX STANFIELD INT'L A","8202251","2023-02-12 09:00","2023","02","12","09:00","-1.0","","-4.3","","78","","","","21","","25","","24.1","","99.87","","","","-7","","NA"
"-63.51","44.88","HALIFAX STANFIELD INT'L A","8202251","2023-02-12 10:00","2023","02","12","10:00","1.2","","-3.2","","73","","","","22","","25","","24.1","","99.78","","","","","","NA"
"-63.51","44.88","HALIFAX STANFIELD INT'L A","8202251","2023-02-12 11:00","2023","02","12","11:00","2.6","","-3.2","","65","","","","24","","32","","24.1","","99.74","","","","","","Mostly Cloudy"
"-63.51","44.88","HALIFAX STANFIELD INT'L A","8202251","2023-02-12 12:00","2023","02","12","12:00","3.1","","-2.8","","65","","","","26","","35","","24.1","","99.64","","","","","","NA"
"-63.51","44.88","HALIFAX STANFIELD INT'L A","8202251","2023-02-12 13:00","2023","02","12","13:00","4.6","","-2.8","","59","","","","27","","30","","24.1","","99.56","","","","","","NA"
"-63.51","44.88","HALIFAX STANFIELD INT'L A","8202251","2023-02-12 14:00","2023","02","12","14:00","4.3","","-3.8","","55","","","","30","","19","","24.1","","99.52","","","","","","Cloudy"
"-63.51","44.88","HALIFAX STANFIELD INT'L A","8202251","2023-02-12 15:00","2023","02","12","15:00","3.4","","-4.3","","57","","","","31","","17","","24.1","","99.55","","","","","","NA"
"-63.51","44.88","HALIFAX STANFIELD INT'L A","8202251","2023-02-12 16:00","2023","02","12","16:00","3.1","","-4.0","","59","","","","28","","17","","24.1","","99.57","","","","","","NA"
"-63.51","44.88","HALIFAX STANFIELD INT'L A","8202251","2023-02-12 17:00","2023","02","12","17:00","3.4","","-5.7","","51","","","","28","","16","","24.1","","99.60","","","","","","Mainly Clear"
"-63.51","44.88","HALIFAX STANFIELD INT'L A","8202251","2023-02-12 18:00","2023","02","12","18:00","1.2","","-6.0","","59","","","","30","","9","","24.1","","99.61","","","","","","NA"
"-63.51","44.88","HALIFAX STANFIELD INT'L A","8202251","2023-02-12 19:00","2023","02","12","19:00","0.4","","-5.7","","64","","","","28","","10","","24.1","","99.68","","","","","","NA"
"-63.51","44.88","HALIFAX STANFIELD INT'L A","8202251","2023-02-12 20:00","2023","02","12","20:00","-0.2","","-5.9","","66","","","","27","","7","","24.1","","99.69","","","","-3","","Clear"
"-63.51","44.88","HALIFAX STANFIELD INT'L A","8202251","2023-02-12 21:00","2023","02","12","21:00","-0.6","","-5.6","","69","","","","26","","7","","24.1","","99.71","","","","-3","","NA"
"-63.51","44.88","HALIFAX STANFIELD INT'L A","8202251","2023-02-12 22:00","2023","02","12","22:00","-1.1","","-5.6","","72","","","","27","","10","","24.1","","99.68","","","","-5","","NA"
"-63.51","44.88","HALIFAX STANFIELD INT'L A","8202251","2023-02-12 23:00","2023","02","12","23:00","-1.2","","-5.5","","72","","","","26","","9","","24.1","","99.70","","","","-4","","Clear"
"-63.51","44.88","HALIFAX STANFIELD INT'L A","8202251","2023-02-13 00:00","2023","02","13","00:00","-2.2","","-5.7","","77","","","","30","","8","","24.1","","99.68","","","","-5","","NA"
"-63.51","44.88","HALIFAX STANFIELD INT'L A","8202251","2023-02-13 01:00","2023","02","13","01:00","-1.5","","-5.1","","76","","","","25","","3","","24.1","","99.67","","","","-3","","NA"
"-63.51","44.88","HALIFAX STANFIELD INT'L A","8202251","2023-02-13 02:00","2023","02","13","02:00","-0.8","","-5.2","","72","","","","36","","2","","24.1","","99.63","","","","-1","","Clear"
"-63.51","44.88","HALIFAX STANFIELD INT'L A","8202251","2023-02-13 03:00","2023","02","13","03:00","-0.4","","-5.3","","70","","","","36","","1","","24.1","","99.58","","","","-1","","NA"
"-63.51","44.88","HALIFAX STANFIELD INT'L A","8202251","2023-02-13 04:00","2023","02","13","04:00","-0.8","","-5.7","","70","","","","4","","3","","24.1","","99.53","","","","-2","","NA"
"-63.51","44.88","HALIFAX STANFIELD INT'L A","8202251","2023-02-13 05:00","2023","02","13","05:00","-2.8","","-5.4","","82","","","","5","","5","","24.1","","99.48","","","","-5","","Cloudy"
"-63.51","44.88","HALIFAX STANFIELD INT'L A","8202251","2023-02-13 06:00","2023","02","13","06:00","-3.4","","-5.4","","86","","","","5","","8","","24.1","","99.43","","","","-7","","NA"
"-63.51","44.88","HALIFAX STANFIELD INT'L A","8202251","2023-02-13 07:00","2023","02","13","07:00","-4.6","","-5.8","","91","","","","2","","10","","24.1","","99.38","","","","-9","","NA"
"-63.51","44.88","HALIFAX STANFIELD INT'L A","8202251","2023-02-13 08:00","2023","02","13","08:00","-4.0","","-5.2","","92","","","","5","","9","","24.1","","99.35","","","","-8","","Cloudy"
"-63.51","44.88","HALIFAX STANFIELD INT'L A","8202251","2023-02-13 09:00","2023","02","13","09:00","-1.8","","-4.3","","83","","","","7","","9","","24.1","","99.33","","","","-5","","NA"
"-63.51","44.88","HALIFAX STANFIELD INT'L A","8202251","2023-02-13 10:00","2023","02","13","10:00","-0.8","","-3.6","","82","","","","6","","10","","24.1","","99.16","","","","-4","","NA"
"-63.51","44.88","HALIFAX STANFIELD INT'L A","8202251","2023-02-13 11:00","2023","02","13","11:00","-0.8","","-4.2","","78","","","","4","","16","","24.1","","99.06","","","","-6","","Cloudy"
"-63.51","44.88","HALIFAX STANFIELD INT'L A","8202251","2023-02-13 12:00","2023","02","13","12:00","-0.6","","-4.2","","76","","","","6","","16","","24.1","","98.89","","","","-5","","NA"
"-63.51","44.88","HALIFAX STANFIELD INT'L A","8202251","2023-02-13 13:00","2023","02","13","13:00","-0.4","","-4.2","","76","","","","5","","15","","24.1","","98.75","","","","-5","","NA"
"-63.51","44.88","HALIFAX STANFIELD INT'L A","8202251","2023-02-13 14:00","2023","02","13","14:00","0.0","","-4.0","","74","","","","4","","18","","24.1","","98.68","","","","-5","","Cloudy"
"-63.51","44.88","HALIFAX STANFIELD INT'L A","8202251","2023-02-13 15:00","2023","02","13","15:00","0.1","","-3.5","","77","","","","6","","21","","19.3","","98.41","","","","","","NA"
"-63.51","44.88","HALIFAX STANFIELD INT'L A","8202251","2023-02-13 16:00","2023","02","13","16:00","-0.2","","-2.8","","83","","","","5","","25","","6.4","","98.36","","","","-6","","Snow"
"-63.51","44.88","HALIFAX STANFIELD INT'L A","8202251","2023-02-13 17:00","2023","02","13","17:00","-1.1","","-1.6","","96","","","","5","","25","","0.8","","98.25","","","","-7","","Moderate Snow"
"-63.51","44.88","HALIFAX STANFIELD INT'L A","8202251","2023-02-13 18:00","2023","02","13","18:00","-1.4","","-2.1","","96","","","","5","","29","","1.2","","98.19","","","","-8","","Snow"
"-63.51","44.88","HALIFAX STANFIELD INT'L A","8202251","2023-02-13 19:00","2023","02","13","19:00","-2.1","","-2.7","","95","","","","5","","26","","1.6","","98.06","","","","-9","","Snow"
"-63.51","44.88","HALIFAX STANFIELD INT'L A","8202251","2023-02-13 20:00","2023","02","13","20:00","-2.1","","-2.9","","95","","","","2","","31","","3.2","","97.90","","","","-9","","Snow,Blowing Snow"
"-63.51","44.88","HALIFAX STANFIELD INT'L A","8202251","2023-02-13 21:00","2023","02","13","21:00","-2.4","","-2.9","","96","","","","2","","28","","2.0","","97.83","","","","-9","","Snow,Blowing Snow"
"-63.51","44.88","HALIFAX STANFIELD INT'L A","8202251","2023-02-13 22:00","2023","02","13","22:00","-2.5","","-3.0","","96","","","","1","","31","","3.6","","97.77","","","","-10","","Snow,Blowing Snow"
"-63.51","44.88","HALIFAX STANFIELD INT'L A","8202251","2023-02-13 23:00","2023","02","13","23:00","-2.7","","-3.3","","95","","","","36","","31","","3.6","","97.72","","","","-10","","Snow,Blowing Snow"
"-63.51","44.88","HALIFAX STANFIELD INT'L A","8202251","2023-02-14 00:00","2023","02","14","00:00","-2.8","","-3.4","","96","","","","36","","33","","2.4","","97.76","","","","-10","","Snow,Blowing Snow"
"-63.51","44.88","HALIFAX STANFIELD INT'L A","8202251","2023-02-14 01:00","2023","02","14","01:00","-3.1","","-3.7","","96","","","","35","","30","","2.8","","97.78","","","","-11","","Snow,Blowing Snow"
"-63.51","44.88","HALIFAX STANFIELD INT'L A","8202251","2023-02-14 02:00","2023","02","14","02:00","-3.1","","-3.7","","96","","","","35","","28","","3.6","","97.85","","","","-10","","Snow,Blowing Snow"
"-63.51","44.88","HALIFAX STANFIELD INT'L A","8202251","2023-02-14 03:00","2023","02","14","03:00","-3.2","","-3.9","","95","","","","35","","29","","4.0","","97.87","","","","-11","","Snow,Blowing Snow"
"-63.51","44.88","HALIFAX STANFIELD INT'L A","8202251","2023-02-14 04:00","2023","02","14","04:00","-3.2","","-4.2","","93","","","","34","","34","","19.3","","97.95","","","","-11","","Snow,Blowing Snow"
"-63.51","44.88","HALIFAX STANFIELD INT'L A","8202251","2023-02-14 05:00","2023","02","14","05:00","-3.6","","-4.8","","91","","","","35","","35","","24.1","","98.04","","","","-12","","Blowing Snow"
"-63.51","44.88","HALIFAX STANFIELD INT'L A","8202251","2023-02-14 06:00","2023","02","14","06:00","-4.2","","-5.5","","90","","","","35","","31","","24.1","","98.15","","","","-12","","Blowing Snow"
"-63.51","44.88","HALIFAX STANFIELD INT'L A","8202251","2023-02-14 07:00","2023","02","14","07:00","-4.3","","-5.7","","90","","","","34","","30","","24.1","","98.25","","","","-12","","NA"
"-63.51","44.88","HALIFAX STANFIELD INT'L A","8202251","2023-02-14 08:00","2023","02","14","08:00","-4.3","","-5.9","","89","","","","34","","32","","19.3","","98.40","","","","-12","","Cloudy"
"-63.51","44.88","HALIFAX STANFIELD INT'L A","8202251","2023-02-14 09:00","2023","02","14","09:00","-4.2","","-5.9","","88","","","","35","","31","","24.1","","98.49","","","","-12","","NA"
"-63.51","44.88","HALIFAX STANFIELD INT'L A","8202251","2023-02-14 10:00","2023","02","14","10:00","-3.8","","-5.6","","87","","","","35","","30","","2.4","","98.56","","","","-11","","Snow Showers"
"-63.51","44.88","HALIFAX STANFIELD INT'L A","8202251","2023-02-14 11:00","2023","02","14","11:00","-3.2","","-5.7","","83","","","","36","","30","","24.1","","98.68","","","","-11","","Cloudy"
"-63.51","44.88","HALIFAX STANFIELD INT'L A","8202251","2023-02-14 12:00","2023","02","14","12:00","-2.7","","-5.7","","80","","","","36","","26","","24.1","","98.74","","","","-10","","NA"
"-63.51","44.88","HALIFAX STANFIELD INT'L A","8202251","2023-02-14 13:00","2023","02","14","13:00","-2.4","","-6.1","","76","","","","35","","37","","24.1","","98.80","","","","-10","","NA"
"-63.51","44.88","HALIFAX STANFIELD INT'L A","8202251","2023-02-14 14:00","2023","02","14","14:00","-2.3","","-6.5","","73","","","","35","","39","","24.1","","98.85","","","","-10","","Cloudy"
"-63.51","44.88","HALIFAX STANFIELD INT'L A","8202251","2023-02-14 15:00","2023","02","14","15:00","-2.6","","-6.1","","77","","","","35","","24","","24.1","","98.96","","","","-9","","NA"
"-63.51","44.88","HALIFAX STANFIELD INT'L A","8202251","2023-02-14 16:00","2023","02","14","16:00","-3.6","","-6.5","","80","","","","35","","33","","24.1","","99.09","","","","-12","","NA"
"-63.51","44.88","HALIFAX STANFIELD INT'L A","8202251","2023-02-14 17:00","2023","02","14","17:00","-4.0","","-7.0","","80","","","","35","","34","","24.1","","99.23","","","","-12","","Cloudy"
"-63.51","44.88","HALIFAX STANFIELD INT'L A","8202251","2023-02-14 18:00","2023","02","14","18:00","-4.6","","-7.6","","80","","","","35","","33","","24.1","","99.40","","","","-13","","NA"
"-63.51","44.88","HALIFAX STANFIELD INT'L A","8202251","2023-02-14 19:00","2023","02","14","19:00","-5.1","","-8.1","","80","","","","35","","31","","24.1","","99.55","","","","-13","","NA"
"-63.51","44.88","HALIFAX STANFIELD INT'L A","8202251","2023-02-14 20:00","2023","02","14","20:00","-5.7","","-8.4","","81","","","","33","","36","","24.1","","99.69","","","","-15","","Cloudy"
"-63.51","44.88","HALIFAX STANFIELD INT'L A","8202251","2023-02-14 21:00","2023","02","14","21:00","-6.5","","-9.1","","82","","","","34","","28","","24.1","","99.81","","","","-15","","NA"
"-63.51","44.88","HALIFAX STANFIELD INT'L A","8202251","2023-02-14 22:00","2023","02","14","22:00","-7.8","","-10.2","","83","","","","33","","25","","24.1","","99.92","","","","-16","","NA"
"-63.51","44.88","HALIFAX STANFIELD INT'L A","8202251","2023-02-14 23:00","2023","02","14","23:00","-8.5","","-10.9","","83","","","","33","","19","","24.1","","99.96","","","","-16","","Clear"
"-63.51","44.88","HALIFAX STANFIELD INT'L A","8202251","2023-02-15 00:00","2023","02","15","00:00","-8.9","","-11.4","","82","","","","33","","26","","24.1","","100.03","","","","-18","","NA"
"-63.51","44.88","HALIFAX STANFIELD INT'L A","8202251","2023-02-15 01:00","2023","02","15","01:00","-9.8","","-11.8","","85","","","","33","","18","","24.1","","100.07","","","","-17","","NA"
"-63.51","44.88","HALIFAX STANFIELD INT'L A","8202251","2023-02-15 02:00","2023","02","15","02:00","-9.5","","-11.8","","84","","","","33","","17","","24.1","","100.11","","","","-17","","Clear"
"-63.51","44.88","HALIFAX STANFIELD INT'L A","8202251","2023-02-15 03:00","2023","02","15","03:00","-10.3","","-12.2","","86","","","","34","","12","","24.1","","100.12","","","","-16","","NA"
"-63.51","44.88","HALIFAX STANFIELD INT'L A","8202251","2023-02-15 04:00","2023","02","15","04:00","-9.6","","-12.2","","82","","","","31","","13","","24.1","","100.20","","","","-16","","NA"
"-63.51","44.88","HALIFAX STANFIELD INT'L A","8202251","2023-02-15 05:00","2023","02","15","05:00","-9.6","","-11.5","","86","","","","29","","11","","24.1","","100.27","","","","-15","","Clear"
"-63.51","44.88","HALIFAX STANFIELD INT'L A","8202251","2023-02-15 06:00","2023","02","15","06:00","-8.8","","-10.7","","86","","","","30","","13","","24.1","","100.31","","","","-15","","NA"
"-63.51","44.88","HALIFAX STANFIELD INT'L A","8202251","2023-02-15 07:00","2023","02","15","07:00","-9.8","","-11.2","","90","","","","28","","11","","24.1","","100.40","","","","-15","","NA"
"-63.51","44.88","HALIFAX STANFIELD INT'L A","8202251","2023-02-15 08:00","2023","02","15","08:00","-8.1","","-10.2","","85","","","","27","","8","","24.1","","100.49","","","","-12","","Clear"
"-63.51","44.88","HALIFAX STANFIELD INT'L A","8202251","2023-02-15 09:00","2023","02","15","09:00","-6.1","","-9.4","","77","","","","22","","7","","24.1","","100.51","","","","-9","","NA"
"-63.51","44.88","HALIFAX STANFIELD INT'L A","8202251","2023-02-15 10:00","2023","02","15","10:00","-3.2","","-7.7","","71","","","","23","","11","","24.1","","100.49","","","","-7","","NA"
"-63.51","44.88","HALIFAX STANFIELD INT'L A","8202251","2023-02-15 11:00","2023","02","15","11:00","-1.2","","-6.6","","67","","","","23","","15","","24.1","","100.47","","","","-6","","Mostly Cloudy"
"-63.51","44.88","HALIFAX STANFIELD INT'L A","8202251","2023-02-15 12:00","2023","02","15","12:00","0.3","","-5.4","","66","","","","23","","15","","24.1","","100.43","","","","","","NA"
"-63.51","44.88","HALIFAX STANFIELD INT'L A","8202251","2023-02-15 13:00","2023","02","15","13:00","1.2","","-5.2","","62","","","","23","","16","","24.1","","100.37","","","","","","NA"
"-63.51","44.88","HALIFAX STANFIELD INT'L A","8202251","2023-02-15 14:00","2023","02","15","14:00","2.0","","-3.5","","67","","","","20","","13","","24.1","","100.27","","","","","","Mostly Cloudy"
"-63.51","44.88","HALIFAX STANFIELD INT'L A","8202251","2023-02-15 15:00","2023","02","15","15:00","1.5","","-3.3","","70","","","","20","","14","","24.1","","100.23","","","","","","NA"
"-63.51","44.88","HALIFAX STANFIELD INT'L A","8202251","2023-02-15 16:00","2023","02","15","16:00","1.3","","-3.2","","72","","","","21","","17","","24.1","","100.17","","","","","","NA"
"-63.51","44.88","HALIFAX STANFIELD INT'L A","8202251","2023-02-15 17:00","2023","02","15","17:00","0.7","","-2.2","","81","","","","20","","15","","24.1","","100.13","","","","","","Mostly Cloudy"
"-63.51","44.88","HALIFAX STANFIELD INT'L A","8202251","2023-02-15 18:00","2023","02","15","18:00","0.4","","-1.2","","89","","","","19","","18","","24.1","","100.10","","","","","","NA"
"-63.51","44.88","HALIFAX STANFIELD INT'L A","8202251","2023-02-15 19:00","2023","02","15","19:00","0.8","","-0.1","","94","","","","18","","19","","24.1","","100.04","","","","","","NA"
"-63.51","44.88","HALIFAX STANFIELD INT'L A","8202251","2023-02-15 20:00","2023","02","15","20:00","1.0","","0.2","","94","","","","18","","21","","24.1","","99.94","","","","","","Cloudy"
"-63.51","44.88","HALIFAX STANFIELD INT'L A","8202251","2023-02-15 21:00","2023","02","15","21:00","1.4","","0.4","","94","","","","19","","23","","24.1","","99.89","","","","","","NA"
"-63.51","44.88","HALIFAX STANFIELD INT'L A","8202251","2023-02-15 22:00","2023","02","15","22:00","1.7","","0.7","","93","","","","19","","26","","24.1","","99.79","","","","","","NA"
"-63.51","44.88","HALIFAX STANFIELD INT'L A","8202251","2023-02-15 23:00","2023","02","15","23:00","2.2","","0.9","","91","","","","17","","24","","24.1","","99.67","","","","","","Cloudy"
"-63.51","44.88","HALIFAX STANFIELD INT'L A","8202251","2023-02-16 00:00","2023","02","16","00:00","2.8","","1.7","","92","","","","17","","26","","24.1","","99.46","","","","","","NA"
"-63.51","44.88","HALIFAX STANFIELD INT'L A","8202251","2023-02-16 01:00","2023","02","16","01:00","2.8","","2.6","","98","","","","17","","24","","6.4","","99.34","","","","","","Rain Showers,Fog"
"-63.51","44.88","HALIFAX STANFIELD INT'L A","8202251","2023-02-16 02:00","2023","02","16","02:00","4.4","","4.3","","99","","","","19","","22","","4.8","","99.19","","","","","","Rain Showers,Fog"
"-63.51","44.88","HALIFAX STANFIELD INT'L A","8202251","2023-02-16 03:00","2023","02","16","03:00","5.1","","5.0","","99","","","","21","","22","","4.8","","99.08","","","","","","Drizzle,Fog"
"-63.51","44.88","HALIFAX STANFIELD INT'L A","8202251","2023-02-16 04:00","2023","02","16","04:00","4.9","","4.9","","100","","","","19","","16","","0.6","","98.99","","","","","","Fog"
"-63.51","44.88","HALIFAX STANFIELD INT'L A","8202251","2023-02-16 05:00","2023","02","16","05:00","5.1","","5.1","","100","","","","18","","15","","0.6","","98.88","","","","","","Fog"
"-63.51","44.88","HALIFAX STANFIELD INT'L A","8202251","2023-02-16 06:00","2023","02","16","06:00","5.2","","5.2","","100","","","","19","","21","","0.6","","98.76","","","","","","Fog"
"-63.51","44.88","HALIFAX STANFIELD INT'L A","8202251","2023-02-16 07:00","2023","02","16","07:00","5.3","","5.3","","100","","","","21","","23","","0.6","","98.78","","","","","","Fog"
"-63.51","44.88","HALIFAX STANFIELD INT'L A","8202251","2023-02-16 08:00","2023","02","16","08:00","5.3","","5.3","","100","","","","23","","27","","6.4","","98.80","","","","","","Fog"
"-63.51","44.88","HALIFAX STANFIELD INT'L A","8202251","2023-02-16 09:00","2023","02","16","09:00","6.7","","6.3","","98","","","","24","","25","","16.1","","98.81","","","","","","NA"
"-63.51","44.88","HALIFAX STANFIELD INT'L A","8202251","2023-02-16 10:00","2023","02","16","10:00","8.6","","6.1","","84","","","","26","","26","","19.3","","98.84","","","","","","NA"
"-63.51","44.88","HALIFAX STANFIELD INT'L A","8202251","2023-02-16 11:00","2023","02","16","11:00","10.1","","4.6","","68","","","","27","","29","","24.1","","98.88","","","","","","Clear"
"-63.51","44.88","HALIFAX STANFIELD INT'L A","8202251","2023-02-16 12:00","2023","02","16","12:00","10.7","","2.4","","56","","","","29","","33","","24.1","","98.95","","","","","","NA"
"-63.51","44.88","HALIFAX STANFIELD INT'L A","8202251","2023-02-16 13:00","2023","02","16","13:00","11.2","","2.2","","54","","","","28","","22","","24.1","","99.02","","","","","","NA"
"-63.51","44.88","HALIFAX STANFIELD INT'L A","8202251","2023-02-16 14:00","2023","02","16","14:00","11.6","","2.9","","55","","","","31","","25","","24.1","","99.01","","","","","","Clear"
"-63.51","44.88","HALIFAX STANFIELD INT'L A","8202251","2023-02-16 15:00","2023","02","16","15:00","11.3","","2.3","","54","","","","31","","23","","24.1","","99.04","","","","","","NA"
"-63.51","44.88","HALIFAX STANFIELD INT'L A","8202251","2023-02-16 16:00","2023","02","16","16:00","10.8","","2.4","","56","","","","32","","24","","24.1","","99.15","","","","","","NA"
"-63.51","44.88","HALIFAX STANFIELD INT'L A","8202251","2023-02-16 17:00","2023","02","16","17:00","9.2","","1.6","","59","","","","30","","17","","24.1","","99.28","","","","","","Mostly Cloudy"
"-63.51","44.88","HALIFAX STANFIELD INT'L A","8202251","2023-02-16 18:00","2023","02","16","18:00","8.3","","1.3","","61","","","","29","","19","","24.1","","99.32","","","","","","NA"
"-63.51","44.88","HALIFAX STANFIELD INT'L A","8202251","2023-02-16 19:00","2023","02","16","19:00","6.6","","1.0","","67","","","","26","","17","","24.1","","99.42","","","","","","NA"
"-63.51","44.88","HALIFAX STANFIELD INT'L A","8202251","2023-02-16 20:00","2023","02","16","20:00","6.2","","0.7","","68","","","","27","","14","","24.1","","99.48","","","","","","Mainly Clear"
"-63.51","44.88","HALIFAX STANFIELD INT'L A","8202251","2023-02-16 21:00","2023","02","16","21:00","5.7","","0.7","","70","","","","26","","16","","24.1","","99.51","","","","","","NA"
"-63.51","44.88","HALIFAX STANFIELD INT'L A","8202251","2023-02-16 22:00","2023","02","16","22:00","4.7","","0.5","","74","","","","27","","14","","24.1","","99.61","","","","","","NA"
"-63.51","44.88","HALIFAX STANFIELD INT'L A","8202251","2023-02-16 23:00","2023","02","16","23:00","4.7","","0.5","","74","","","","31","","7","","24.1","","99.64","","","","","","Cloudy"
"-63.51","44.88","HALIFAX STANFIELD INT'L A","8202251","2023-02-17 00:00","2023","02","17","00:00","4.2","","0.3","","76","","","","35","","8","","24.1","","99.57","","","","","","NA"
"-63.51","44.88","HALIFAX STANFIELD INT'L A","8202251","2023-02-17 01:00","2023","02","17","01:00","4.4","","0.2","","74","","","","3","","5","","24.1","","99.51","","","","","","NA"
"-63.51","44.88","HALIFAX STANFIELD INT'L A","8202251","2023-02-17 02:00","2023","02","17","02:00","3.2","","0.3","","81","","","","2","","8","","24.1","","99.51","","","","","","Cloudy"
"-63.51","44.88","HALIFAX STANFIELD INT'L A","8202251","2023-02-17 03:00","2023","02","17","03:00","3.4","","0.1","","79","","","","6","","8","","24.1","","99.45","","","","","","NA"
"-63.51","44.88","HALIFAX STANFIELD INT'L A","8202251","2023-02-17 04:00","2023","02","17","04:00","3.0","","-0.9","","76","","","","9","","10","","24.1","","99.36","","","","","","NA"
"-63.51","44.88","HALIFAX STANFIELD INT'L A","8202251","2023-02-17 05:00","2023","02","17","05:00","2.2","","-1.2","","78","","","","13","","18","","24.1","","99.33","","","","","","Cloudy"
"-63.51","44.88","HALIFAX STANFIELD INT'L A","8202251","2023-02-17 06:00","2023","02","17","06:00","2.2","","-0.9","","80","","","","9","","11","","24.1","","99.27","","","","","","NA"
"-63.51","44.88","HALIFAX STANFIELD INT'L A","8202251","2023-02-17 07:00","2023","02","17","07:00","2.1","","-1.5","","77","","","","9","","17","","24.1","","99.10","","","","","","NA"
"-63.51","44.88","HALIFAX STANFIELD INT'L A","8202251","2023-02-17 08:00","2023","02","17","08:00","1.8","","-1.5","","78","","","","12","","18","","24.1","","99.06","","","","","","Cloudy"
"-63.51","44.88","HALIFAX STANFIELD INT'L A","8202251","2023-02-17 09:00","2023","02","17","09:00","2.3","","-1.9","","74","","","","12","","16","","24.1","","98.99","","","","","","NA"
"-63.51","44.88","HALIFAX STANFIELD INT'L A","8202251","2023-02-17 10:00","2023","02","17","10:00","2.6","","-1.5","","74","","","","12","","21","","24.1","","98.85","","","","","","NA"
"-63.51","44.88","HALIFAX STANFIELD INT'L A","8202251","2023-02-17 11:00","2023","02","17","11:00","3.0","","-2.5","","67","","","","13","","27","","24.1","","98.72","","","","","","Cloudy"
"-63.51","44.88","HALIFAX STANFIELD INT'L A","8202251","2023-02-17 12:00","2023","02","17","12:00","2.5","","0.1","","85","","","","12","","23","","6.4","","98.51","","","","","","Fog"
"-63.51","44.88","HALIFAX STANFIELD INT'L A","8202251","2023-02-17 13:00","2023","02","17","13:00","2.3","","1.7","","96","","","","14","","17","","2.4","","98.35","","","","","","Fog"
"-63.51","44.88","HALIFAX STANFIELD INT'L A","8202251","2023-02-17 14:00","2023","02","17","14:00","2.2","","2.0","","99","","","","14","","17","","0.6","","98.17","","","","","","Drizzle,Fog"
"-63.51","44.88","HALIFAX STANFIELD INT'L A","8202251","2023-02-17 15:00","2023","02","17","15:00","2.2","","2.2","","100","","","","13","","17","","0.4","","98.01","","","","","","Drizzle,Fog"
"-63.51","44.88","HALIFAX STANFIELD INT'L A","8202251","2023-02-17 16:00","2023","02","17","16:00","2.4","","2.4","","100","","","","35","","10","","0.4","","97.99","","","","","","Rain,Fog"
"-63.51","44.88","HALIFAX STANFIELD INT'L A","8202251","2023-02-17 17:00","2023","02","17","17:00","1.7","","1.7","","100","","","","3","","11","","0.6","","97.96","","","","","","Rain,Fog"
"-63.51","44.88","HALIFAX STANFIELD INT'L A","8202251","2023-02-17 18:00","2023","02","17","18:00","-0.3","","-0.3","","100","","","","1","","17","","0.6","","97.96","","","","-5","","Moderate Rain,Freezing Fog"
"-63.51","44.88","HALIFAX STANFIELD INT'L A","8202251","2023-02-17 19:00","2023","02","17","19:00","-0.6","","-0.6","","100","","","","35","","21","","0.6","","97.98","","","","-6","","Freezing Fog"
"-63.51","44.88","HALIFAX STANFIELD INT'L A","8202251","2023-02-17 20:00","2023","02","17","20:00","-0.8","","-0.8","","100","","","","1","","19","","3.2","","98.08","","","","-6","","Freezing Rain,Fog"
"-63.51","44.88","HALIFAX STANFIELD INT'L A","8202251","2023-02-17 21:00","2023","02","17","21:00","-1.3","","-1.4","","100","","","","36","","25","","3.2","","98.09","","","","-8","","Freezing Rain,Fog"
"-63.51","44.88","HALIFAX STANFIELD INT'L A","8202251","2023-02-17 22:00","2023","02","17","22:00","-2.1","","-2.5","","97","","","","35","","32","","12.9","","98.18","","","","-9","","Snow"
"-63.51","44.88","HALIFAX STANFIELD INT'L A","8202251","2023-02-17 23:00","2023","02","17","23:00","-2.2","","-2.8","","96","","","","35","","27","","4.8","","98.23","","","","-9","","Snow,Ice Pellets,Fog"
"-63.51","44.88","HALIFAX STANFIELD INT'L A","8202251","2023-02-18 00:00","2023","02","18","00:00","-3.0","","-3.8","","94","","","","1","","32","","9.7","","98.12","","","","-11","","Snow,Ice Pellets,Fog"
"-63.51","44.88","HALIFAX STANFIELD INT'L A","8202251","2023-02-18 01:00","2023","02","18","01:00","-3.6","","-4.2","","96","","","","36","","33","","0.6","","98.36","","","","-12","","Moderate Snow"
"-63.51","44.88","HALIFAX STANFIELD INT'L A","8202251","2023-02-18 02:00","2023","02","18","02:00","-4.2","","-4.9","","95","","","","2","","32","","2.0","","98.29","","","","-12","","Snow"
"-63.51","44.88","HALIFAX STANFIELD INT'L A","8202251","2023-02-18 03:00","2023","02","18","03:00","-5.3","","-6.3","","93","","","","1","","35","","2.0","","98.43","","","","-14","","Snow,Blowing Snow"
"-63.51","44.88","HALIFAX STANFIELD INT'L A","8202251","2023-02-18 04:00","2023","02","18","04:00","-5.9","","-6.7","","94","","","","36","","32","","2.0","","98.47","","","","-14","","Snow,Blowing Snow"
"-63.51","44.88","HALIFAX STANFIELD INT'L A","8202251","2023-02-18 05:00","2023","02","18","05:00","-6.1","","-7.6","","89","","","","35","","32","","9.7","","98.80","","","","-15","","Snow,Blowing Snow"
"-63.51","44.88","HALIFAX STANFIELD INT'L A","8202251","2023-02-18 06:00","2023","02","18","06:00","-6.8","","-7.9","","92","","","","36","","27","","2.4","","98.92","","","","-15","","Snow"
"-63.51","44.88","HALIFAX STANFIELD INT'L A","8202251","2023-02-18 07:00","2023","02","18","07:00","-7.3","","-9.0","","88","","","","35","","28","","9.7","","99.12","","","","-16","","Snow"
"-63.51","44.88","HALIFAX STANFIELD INT'L A","8202251","2023-02-18 08:00","2023","02","18","08:00","-7.8","","-10.4","","82","","","","36","","42","","11.3","","99.32","","","","-18","","Snow"
"-63.51","44.88","HALIFAX STANFIELD INT'L A","8202251","2023-02-18 09:00","2023","02","18","09:00","-7.7","","-10.2","","82","","","","34","","31","","8.1","","99.48","","","","-17","","Snow"
"-63.51","44.88","HALIFAX STANFIELD INT'L A","8202251","2023-02-18 10:00","2023","02","18","10:00","-7.6","","-9.5","","86","","","","34","","26","","4.8","","99.62","","","","-16","","Snow"
"-63.51","44.88","HALIFAX STANFIELD INT'L A","8202251","2023-02-18 11:00","2023","02","18","11:00","-7.7","","-10.5","","80","","","","34","","28","","6.4","","99.74","","","","-16","","Snow"
"-63.51","44.88","HALIFAX STANFIELD INT'L A","8202251","2023-02-18 12:00","2023","02","18","12:00","-7.7","","-11.0","","77","","","","33","","31","","19.3","","99.85","","","","-17","","NA"
"-63.51","44.88","HALIFAX STANFIELD INT'L A","8202251","2023-02-18 13:00","2023","02","18","13:00","-7.3","","-11.1","","74","","","","35","","18","","24.1","","99.90","","","","-14","","NA"
"-63.51","44.88","HALIFAX STANFIELD INT'L A","8202251","2023-02-18 14:00","2023","02","18","14:00","-6.2","","-10.1","","74","","","","30","","20","","24.1","","99.90","","","","-13","","Mostly Cloudy"
"-63.51","44.88","HALIFAX STANFIELD INT'L A","8202251","2023-02-18 15:00","2023","02","18","15:00","-6.4","","-10.3","","74","","","","33","","19","","24.1","","99.98","","","","-13","","NA"
"-63.51","44.88","HALIFAX STANFIELD INT'L A","8202251","2023-02-18 16:00","2023","02","18","16:00","-6.1","","-10.0","","74","","","","32","","15","","24.1","","100.07","","","","-12","","NA"
"-63.51","44.88","HALIFAX STANFIELD INT'L A","8202251","2023-02-18 17:00","2023","02","18","17:00","-6.7","","-10.7","","73","","","","29","","13","","24.1","","100.14","","","","-12","","Mainly Clear"
"-63.51","44.88","HALIFAX STANFIELD INT'L A","8202251","2023-02-18 18:00","2023","02","18","18:00","-7.7","","-10.8","","79","","","","30","","10","","24.1","","100.22","","","","-13","","NA"
"-63.51","44.88","HALIFAX STANFIELD INT'L A","8202251","2023-02-18 19:00","2023","02","18","19:00","-7.9","","-10.3","","83","","","","32","","5","","24.1","","100.31","","","","-11","","NA"
"-63.51","44.88","HALIFAX STANFIELD INT'L A","8202251","2023-02-18 20:00","2023","02","18","20:00","-8.2","","-10.4","","84","","","","26","","10","","24.1","","100.35","","","","-13","","Mostly Cloudy"
"-63.51","44.88","HALIFAX STANFIELD INT'L A","8202251","2023-02-18 21:00","2023","02","18","21:00","-7.7","","-10.8","","79","","","","24","","18","","24.1","","100.42","","","","-15","","NA"
"-63.51","44.88","HALIFAX STANFIELD INT'L A","8202251","2023-02-18 22:00","2023","02","18","22:00","-8.0","","-10.8","","80","","","","25","","19","","24.1","","100.44","","","","-15","","NA"
"-63.51","44.88","HALIFAX STANFIELD INT'L A","8202251","2023-02-18 23:00","2023","02","18","23:00","-8.9","","-11.2","","84","","","","23","","14","","24.1","","100.48","","","","-15","","Mainly Clear"
"-63.51","44.88","HALIFAX STANFIELD INT'L A","8202251","2023-02-19 00:00","2023","02","19","00:00","-9.0","","-11.0","","86","","","","20","","15","","24.1","","100.49","","","","-16","","NA"
"-63.51","44.88","HALIFAX STANFIELD INT'L A","8202251","2023-02-19 01:00","2023","02","19","01:00","-9.6","","-11.2","","88","","","","20","","16","","24.1","","100.51","","","","-16","","NA"
"-63.51","44.88","HALIFAX STANFIELD INT'L A","8202251","2023-02-19 02:00","2023","02","19","02:00","-9.2","","-10.7","","89","","","","22","","11","","24.1","","100.56","","","","-15","","Mainly Clear"
"-63.51","44.88","HALIFAX STANFIELD INT'L A","8202251","2023-02-19 03:00","2023","02","19","03:00","-8.1","","-9.7","","89","","","","21","","18","","24.1","","100.59","","","","-15","","NA"
"-63.51","44.88","HALIFAX STANFIELD INT'L A","8202251","2023-02-19 04:00","2023","02","19","04:00","-8.1","","-9.7","","88","","","","23","","14","","24.1","","100.60","","","","-14","","NA"
"-63.51","44.88","HALIFAX STANFIELD INT'L A","8202251","2023-02-19 05:00","2023","02","19","05:00","-8.0","","-9.8","","87","","","","23","","17","","24.1","","100.65","","","","-15","","Mostly Cloudy"
"-63.51","44.88","HALIFAX STANFIELD INT'L A","8202251","2023-02-19 06:00","2023","02","19","06:00","-6.9","","-9.1","","84","","","","24","","16","","24.1","","100.70","","","","-13","","NA"
"-63.51","44.88","HALIFAX STANFIELD INT'L A","8202251","2023-02-19 07:00","2023","02","19","07:00","-6.6","","-9.3","","81","","","","24","","16","","24.1","","100.74","","","","-13","","NA"
"-63.51","44.88","HALIFAX STANFIELD INT'L A","8202251","2023-02-19 08:00","2023","02","19","08:00","-4.1","","-8.0","","74","","","","26","","17","","24.1","","100.84","","","","-10","","Mainly Clear"
"-63.51","44.88","HALIFAX STANFIELD INT'L A","8202251","2023-02-19 09:00","2023","02","19","09:00","-3.1","","-6.9","","75","","","","25","","15","","24.1","","100.94","","","","-8","","NA"
"-63.51","44.88","HALIFAX STANFIELD INT'L A","8202251","2023-02-19 10:00","2023","02","19","10:00","-1.2","","-5.4","","73","","","","28","","13","","24.1","","100.99","","","","-5","","NA"
"-63.51","44.88","HALIFAX STANFIELD INT'L A","8202251","2023-02-19 11:00","2023","02","19","11:00","-0.4","","-5.0","","71","","","","31","","17","","24.1","","100.97","","","","-5","","Mostly Cloudy"
"-63.51","44.88","HALIFAX STANFIELD INT'L A","8202251","2023-02-19 12:00","2023","02","19","12:00","-0.2","","-5.3","","68","","","","29","","18","","24.1","","100.99","","","","-5","","NA"
"-63.51","44.88","HALIFAX STANFIELD INT'L A","8202251","2023-02-19 13:00","2023","02","19","13:00","0.4","","-5.7","","64","","","","28","","17","","24.1","","100.97","","","","","","NA"
"-63.51","44.88","HALIFAX STANFIELD INT'L A","8202251","2023-02-19 14:00","2023","02","19","14:00","0.4","","-5.2","","66","","","","26","","13","","24.1","","100.96","","","","","","Mostly Cloudy"
"-63.51","44.88","HALIFAX STANFIELD INT'L A","8202251","2023-02-19 15:00","2023","02","19","15:00","0.9","","-5.3","","63","","","","0","","1","","24.1","","100.92","","","","","","NA"
"-63.51","44.88","HALIFAX STANFIELD INT'L A","8202251","2023-02-19 16:00","2023","02","19","16:00","1.2","","-4.3","","67","","","","23","","12","","24.1","","100.91","","","","","","NA"
"-63.51","44.88","HALIFAX STANFIELD INT'L A","8202251","2023-02-19 17:00","2023","02","19","17:00","0.7","","-3.9","","71","","","","18","","10","","24.1","","100.90","","","","","","Mostly Cloudy"
"-63.51","44.88","HALIFAX STANFIELD INT'L A","8202251","2023-02-19 18:00","2023","02","19","18:00","-0.6","","-3.5","","81","","","","17","","12","","24.1","","100.91","","","","-5","","NA"
"-63.51","44.88","HALIFAX STANFIELD INT'L A","8202251","2023-02-19 19:00","2023","02","19","19:00","-1.1","","-3.8","","82","","","","18","","11","","24.1","","100.93","","","","-5","","NA"
"-63.51","44.88","HALIFAX STANFIELD INT'L A","8202251","2023-02-19 20:00","2023","02","19","20:00","-1.2","","-3.7","","83","","","","17","","14","","24.1","","100.87","","","","-6","","Mostly Cloudy"
"-63.51","44.88","HALIFAX STANFIELD INT'L A","8202251","2023-02-19 21:00","2023","02","19","21:00","-0.6","","-2.7","","86","","","","16","","15","","24.1","","100.80","","","","-5","","NA"
"-63.51","44.88","HALIFAX STANFIELD INT'L A","8202251","2023-02-19 22:00","2023","02","19","22:00","0.1","","-2.3","","84","","","","17","","12","","24.1","","100.78","","","","","","NA"
"-63.51","44.88","HALIFAX STANFIELD INT'L A","8202251","2023-02-19 23:00","2023","02","19","23:00","0.6","","-2.4","","80","","","","17","","22","","24.1","","100.67","","","","","","Cloudy"
"-63.51","44.88","HALIFAX STANFIELD INT'L A","8202251","2023-02-20 00:00","2023","02","20","00:00","0.9","","-1.8","","82","","","","18","","20","","24.1","","100.64","","","","","","NA"
"-63.51","44.88","HALIFAX STANFIELD INT'L A","8202251","2023-02-20 01:00","2023","02","20","01:00","1.4","","-0.9","","85","","","","17","","22","","24.1","","100.51","","","","","","NA"
"-63.51","44.88","HALIFAX STANFIELD INT'L A","8202251","2023-02-20 02:00","2023","02","20","02:00","1.6","","-0.6","","85","","","","17","","25","","24.1","","100.39","","","","","","Mostly Cloudy"
"-63.51","44.88","HALIFAX STANFIELD INT'L A","8202251","2023-02-20 03:00","2023","02","20","03:00","1.9","","-0.3","","85","","","","17","","27","","24.1","","100.27","","","","","","NA"
"-63.51","44.88","HALIFAX STANFIELD INT'L A","8202251","2023-02-20 04:00","2023","02","20","04:00","2.4","","1.0","","91","","","","17","","28","","24.1","","100.14","","","","","","NA"
"-63.51","44.88","HALIFAX STANFIELD INT'L A","8202251","2023-02-20 05:00","2023","02","20","05:00","2.7","","1.6","","92","","","","16","","27","","24.1","","99.97","","","","","","Mostly Cloudy"
"-63.51","44.88","HALIFAX STANFIELD INT'L A","8202251","2023-02-20 06:00","2023","02","20","06:00","3.1","","2.2","","94","","","","16","","29","","16.1","","99.85","","","","","","Rain"
"-63.51","44.88","HALIFAX STANFIELD INT'L A","8202251","2023-02-20 07:00","2023","02","20","07:00","3.6","","3.1","","97","","","","17","","26","","9.7","","99.76","","","","","","Rain,Fog"
"-63.51","44.88","HALIFAX STANFIELD INT'L A","8202251","2023-02-20 08:00","2023","02","20","08:00","4.4","","4.2","","98","","","","17","","23","","4.0","","99.62","","","","","","Rain,Fog"
"-63.51","44.88","HALIFAX STANFIELD INT'L A","8202251","2023-02-20 09:00","2023","02","20","09:00","5.1","","4.8","","98","","","","18","","28","","4.0","","99.48","","","","","","Moderate Rain,Fog"
"-63.51","44.88","HALIFAX STANFIELD INT'L A","8202251","2023-02-20 10:00","2023","02","20","10:00","6.1","","5.8","","98","","","","18","","37","","6.4","","99.35","","","","","","Rain,Fog"
"-63.51","44.88","HALIFAX STANFIELD INT'L A","8202251","2023-02-20 11:00","2023","02","20","11:00","6.4","","6.2","","99","","","","17","","28","","4.8","","99.20","","","","","","Rain,Fog"
"-63.51","44.88","HALIFAX STANFIELD INT'L A","8202251","2023-02-20 12:00","2023","02","20","12:00","7.2","","7.1","","99","","","","17","","31","","3.2","","98.99","","","","","","Moderate Rain,Fog"
"-63.51","44.88","HALIFAX STANFIELD INT'L A","8202251","2023-02-20 13:00","2023","02","20","13:00","7.5","","7.4","","99","","","","17","","37","","3.2","","98.76","","","","","","Moderate Rain,Fog"
"-63.51","44.88","HALIFAX STANFIELD INT'L A","8202251","2023-02-20 14:00","2023","02","20","14:00","7.7","","7.4","","99","","","","20","","29","","2.4","","98.63","","","","","","Moderate Rain,Fog"
"-63.51","44.88","HALIFAX STANFIELD INT'L A","8202251","2023-02-20 15:00","2023","02","20","15:00","7.3","","7.0","","98","","","","20","","23","","4.0","","98.48","","","","","","Moderate Rain,Fog"
"-63.51","44.88","HALIFAX STANFIELD INT'L A","8202251","2023-02-20 16:00","2023","02","20","16:00","7.5","","7.2","","98","","","","19","","23","","1.6","","98.35","","","","","","Rain,Fog"
"-63.51","44.88","HALIFAX STANFIELD INT'L A","8202251","2023-02-20 17:00","2023","02","20","17:00","7.6","","7.4","","99","","","","20","","26","","1.0","","98.25","","","","","","Drizzle,Fog"
"-63.51","44.88","HALIFAX STANFIELD INT'L A","8202251","2023-02-20 18:00","2023","02","20","18:00","7.5","","7.4","","99","","","","22","","27","","0.8","","98.16","","","","","","Drizzle,Fog"
"-63.51","44.88","HALIFAX STANFIELD INT'L A","8202251","2023-02-20 19:00","2023","02","20","19:00","7.1","","7.1","","100","","","","22","","21","","0.4","","98.15","","","","","","Fog"
"-63.51","44.88","HALIFAX STANFIELD INT'L A","8202251","2023-02-20 20:00","2023","02","20","20:00","7.0","","7.0","","100","","","","25","","21","","12.9","","98.15","","","","","","Cloudy"
"-63.51","44.88","HALIFAX STANFIELD INT'L A","8202251","2023-02-20 21:00","2023","02","20","21:00","5.8","","5.8","","100","","","","23","","15","","0.6","","98.17","","","","","","Fog"
"-63.51","44.88","HALIFAX STANFIELD INT'L A","8202251","2023-02-20 22:00","2023","02","20","22:00","5.6","","5.5","","99","","","","27","","14","","24.1","","98.11","","","","","","NA"
"-63.51","44.88","HALIFAX STANFIELD INT'L A","8202251","2023-02-20 23:00","2023","02","20","23:00","4.6","","4.5","","99","","","","29","","14","","12.9","","98.12","","","","","","Mainly Clear"
"-63.51","44.88","HALIFAX STANFIELD INT'L A","8202251","2023-02-21 00:00","2023","02","21","00:00","3.7","","3.6","","99","","","","30","","14","","19.3","","98.17","","","","","","NA"
"-63.51","44.88","HALIFAX STANFIELD INT'L A","8202251","2023-02-21 01:00","2023","02","21","01:00","3.6","","3.2","","97","","","","30","","17","","24.1","","98.18","","","","","","NA"
"-63.51","44.88","HALIFAX STANFIELD INT'L A","8202251","2023-02-21 02:00","2023","02","21","02:00","2.6","","2.4","","98","","","","26","","8","","24.1","","98.22","","","","","","Clear"
"-63.51","44.88","HALIFAX STANFIELD INT'L A","8202251","2023-02-21 03:00","2023","02","21","03:00","2.2","","1.8","","97","","","","29","","15","","24.1","","98.24","","","","","","NA"
"-63.51","44.88","HALIFAX STANFIELD INT'L A","8202251","2023-02-21 04:00","2023","02","21","04:00","1.5","","0.6","","94","","","","27","","13","","24.1","","98.28","","","","","","NA"
"-63.51","44.88","HALIFAX STANFIELD INT'L A","8202251","2023-02-21 05:00","2023","02","21","05:00","0.8","","0.0","","94","","","","26","","16","","24.1","","98.39","","","","","","Mainly Clear"
"-63.51","44.88","HALIFAX STANFIELD INT'L A","8202251","2023-02-21 06:00","2023","02","21","06:00","0.3","","-0.8","","92","","","","27","","17","","24.1","","98.46","","","","","","NA"
"-63.51","44.88","HALIFAX STANFIELD INT'L A","8202251","2023-02-21 07:00","2023","02","21","07:00","-0.4","","-1.7","","91","","","","31","","16","","24.1","","98.45","","","","-5","","NA"
"-63.51","44.88","HALIFAX STANFIELD INT'L A","8202251","2023-02-21 08:00","2023","02","21","08:00","0.0","","-1.1","","92","","","","31","","18","","24.1","","98.55","","","","-5","","Clear"
"-63.51","44.88","HALIFAX STANFIELD INT'L A","8202251","2023-02-21 09:00","2023","02","21","09:00","0.3","","-1.1","","90","","","","32","","22","","24.1","","98.57","","","","","","NA"
"-63.51","44.88","HALIFAX STANFIELD INT'L A","8202251","2023-02-21 10:00","2023","02","21","10:00","0.5","","-1.4","","87","","","","33","","16","","24.1","","98.64","","","","","","NA"
"-63.51","44.88","HALIFAX STANFIELD INT'L A","8202251","2023-02-21 11:00","2023","02","21","11:00","1.0","","-2.3","","78","","","","31","","18","","24.1","","98.68","","","","","","Mainly Clear"
"-63.51","44.88","HALIFAX STANFIELD INT'L A","8202251","2023-02-21 12:00","2023","02","21","12:00","1.1","","-3.4","","72","","","","34","","15","","24.1","","98.69","","","","","","NA"
"-63.51","44.88","HALIFAX STANFIELD INT'L A","8202251","2023-02-21 13:00","2023","02","21","13:00","2.3","","-3.2","","67","","","","27","","11","","24.1","","98.65","","","","","","NA"
"-63.51","44.88","HALIFAX STANFIELD INT'L A","8202251","2023-02-21 14:00","2023","02","21","14:00","1.5","","-3.9","","67","","","","33","","16","","24.1","","98.64","","","","","","Cloudy"
"-63.51","44.88","HALIFAX STANFIELD INT'L A","8202251","2023-02-21 15:00","2023","02","21","15:00","0.5","","-4.6","","68","","","","35","","12","","24.1","","98.71","","","","","","NA"
"-63.51","44.88","HALIFAX STANFIELD INT'L A","8202251","2023-02-21 16:00","2023","02","21","16:00","0.3","","-4.4","","71","","","","35","","12","","24.1","","98.71","","","","","","NA"
"-63.51","44.88","HALIFAX STANFIELD INT'L A","8202251","2023-02-21 17:00","2023","02","21","17:00","-0.6","","-6.4","","65","","","","36","","17","","24.1","","98.64","","","","-6","","Cloudy"
"-63.51","44.88","HALIFAX STANFIELD INT'L A","8202251","2023-02-21 18:00","2023","02","21","18:00","-1.0","","-5.8","","70","","","","36","","13","","24.1","","98.66","","","","-5","","NA"
"-63.51","44.88","HALIFAX STANFIELD INT'L A","8202251","2023-02-21 19:00","2023","02","21","19:00","-1.7","","-4.5","","81","","","","3","","18","","24.1","","98.68","","","","-7","","NA"
"-63.51","44.88","HALIFAX STANFIELD INT'L A","8202251","2023-02-21 20:00","2023","02","21","20:00","-2.7","","-5.7","","80","","","","3","","18","","24.1","","98.63","","","","-8","","Cloudy"
"-63.51","44.88","HALIFAX STANFIELD INT'L A","8202251","2023-02-21 21:00","2023","02","21","21:00","-3.1","","-6.6","","77","","","","3","","18","","24.1","","98.61","","","","-9","","NA"
"-63.51","44.88","HALIFAX STANFIELD INT'L A","8202251","2023-02-21 22:00","2023","02","21","22:00","-3.2","","-6.9","","76","","","","3","","14","","24.1","","98.73","","","","-8","","NA"
"-63.51","44.88","HALIFAX STANFIELD INT'L A","8202251","2023-02-21 23:00","2023","02","21","23:00","-3.4","","-6.3","","81","","","","2","","15","","24.1","","98.81","","","","-9","","Cloudy"
"-63.51","44.88","HALIFAX STANFIELD INT'L A","8202251","2023-02-22 00:00","2023","02","22","00:00","-4.1","","-7.0","","80","","","","36","","17","","24.1","","98.83","","","","-10","","NA"
"-63.51","44.88","HALIFAX STANFIELD INT'L A","8202251","2023-02-22 01:00","2023","02","22","01:00","-4.9","","-7.7","","81","","","","35","","23","","24.1","","98.88","","","","-12","","NA"
"-63.51","44.88","HALIFAX STANFIELD INT'L A","8202251","2023-02-22 02:00","2023","02","22","02:00","-6.2","","-8.1","","86","","","","35","","15","","24.1","","98.96","","","","-12","","Mostly Cloudy"
"-63.51","44.88","HALIFAX STANFIELD INT'L A","8202251","2023-02-22 03:00","2023","02","22","03:00","-7.1","","-8.5","","90","","","","33","","8","","24.1","","98.99","","","","-11","","NA"
"-63.51","44.88","HALIFAX STANFIELD INT'L A","8202251","2023-02-22 04:00","2023","02","22","04:00","-7.5","","-8.5","","93","","","","34","","9","","24.1","","99.02","","","","-12","","NA"
"-63.51","44.88","HALIFAX STANFIELD INT'L A","8202251","2023-02-22 05:00","2023","02","22","05:00","-7.8","","-8.9","","92","","","","34","","8","","24.1","","99.13","","","","-12","","Clear"
"-63.51","44.88","HALIFAX STANFIELD INT'L A","8202251","2023-02-22 06:00","2023","02","22","06:00","-8.3","","-9.2","","93","","","","34","","6","","24.1","","99.18","","","","-12","","NA"
"-63.51","44.88","HALIFAX STANFIELD INT'L A","8202251","2023-02-22 07:00","2023","02","22","07:00","-8.4","","-9.3","","93","","","","35","","6","","24.1","","99.26","","","","-12","","NA"
"-63.51","44.88","HALIFAX STANFIELD INT'L A","8202251","2023-02-22 08:00","2023","02","22","08:00","-7.3","","-8.8","","90","","","","31","","10","","24.1","","99.41","","","","-12","","Clear"
"-63.51","44.88","HALIFAX STANFIELD INT'L A","8202251","2023-02-22 09:00","2023","02","22","09:00","-5.3","","-7.7","","83","","","","30","","11","","24.1","","99.46","","","","-10","","NA"
"-63.51","44.88","HALIFAX STANFIELD INT'L A","8202251","2023-02-22 10:00","2023","02","22","10:00","-2.6","","-6.7","","74","","","","32","","13","","24.1","","99.46","","","","-7","","NA"
"-63.51","44.88","HALIFAX STANFIELD INT'L A","8202251","2023-02-22 11:00","2023","02","22","11:00","0.4","","-4.9","","68","","","","30","","26","","24.1","","99.42","","","","","","Clear"
"-63.51","44.88","HALIFAX STANFIELD INT'L A","8202251","2023-02-22 12:00","2023","02","22","12:00","2.1","","-4.0","","64","","","","30","","22","","24.1","","99.44","","","","","","NA"
"-63.51","44.88","HALIFAX STANFIELD INT'L A","8202251","2023-02-22 13:00","2023","02","22","13:00","2.9","","-4.8","","57","","","","30","","33","","24.1","","99.38","","","","","","NA"
"-63.51","44.88","HALIFAX STANFIELD INT'L A","8202251","2023-02-22 14:00","2023","02","22","14:00","3.6","","-5.5","","52","","","","30","","28","","24.1","","99.40","","","","","","Mainly Clear"
"-63.51","44.88","HALIFAX STANFIELD INT'L A","8202251","2023-02-22 15:00","2023","02","22","15:00","3.5","","-7.3","","45","","","","29","","35","","24.1","","99.42","","","","","","NA"
"-63.51","44.88","HALIFAX STANFIELD INT'L A","8202251","2023-02-22 16:00","2023","02","22","16:00","3.0","","-9.4","","40","","","","29","","30","","24.1","","99.45","","","","","","NA"
"-63.51","44.88","HALIFAX STANFIELD INT'L A","8202251","2023-02-22 17:00","2023","02","22","17:00","1.8","","-8.6","","46","","","","30","","27","","24.1","","99.61","","","","","","Mainly Clear"
"-63.51","44.88","HALIFAX STANFIELD INT'L A","8202251","2023-02-22 18:00","2023","02","22","18:00","0.4","","-9.3","","48","","","","30","","30","","24.1","","99.70","","","","","","NA"
"-63.51","44.88","HALIFAX STANFIELD INT'L A","8202251","2023-02-22 19:00","2023","02","22","19:00","-0.8","","-9.5","","52","","","","33","","23","","24.1","","99.73","","","","-7","","NA"
"-63.51","44.88","HALIFAX STANFIELD INT'L A","8202251","2023-02-22 20:00","2023","02","22","20:00","-1.8","","-10.8","","51","","","","31","","26","","24.1","","99.81","","","","-8","","Clear"
"-63.51","44.88","HALIFAX STANFIELD INT'L A","8202251","2023-02-22 21:00","2023","02","22","21:00","-2.5","","-11.1","","52","","","","32","","24","","24.1","","99.88","","","","-9","","NA"
"-63.51","44.88","HALIFAX STANFIELD INT'L A","8202251","2023-02-22 22:00","2023","02","22","22:00","-3.3","","-11.8","","52","","","","34","","20","","24.1","","99.95","","","","-9","","NA"
"-63.51","44.88","HALIFAX STANFIELD INT'L A","8202251","2023-02-22 23:00","2023","02","22","23:00","-4.3","","-12.6","","53","","","","33","","22","","24.1","","100.02","","","","-11","","Clear"
"-63.51","44.88","HALIFAX STANFIELD INT'L A","8202251","2023-02-23 00:00","2023","02","23","00:00","-5.3","","-14.9","","47","","","","34","","25","","24.1","","100.07","","","","-13","","NA"
"-63.51","44.88","HALIFAX STANFIELD INT'L A","8202251","2023-02-23 01:00","2023","02","23","01:00","-6.3","","-18.0","","39","","","","34","","26","","24.1","","100.07","","","","-14","","NA"
"-63.51","44.88","HALIFAX STANFIELD INT'L A","8202251","2023-02-23 02:00","2023","02","23","02:00","-7.2","","-20.0","","36","","","","34","","19","","24.1","","100.22","","","","-14","","Mostly Cloudy"
"-63.51","44.88","HALIFAX STANFIELD INT'L A","8202251","2023-02-23 03:00","2023","02","23","03:00","-8.2","","-18.5","","44","","","","35","","26","","24.1","","100.14","","","","-17","","NA"
"-63.51","44.88","HALIFAX STANFIELD INT'L A","8202251","2023-02-23 04:00","2023","02","23","04:00","-8.8","","-17.0","","52","","","","35","","18","","24.1","","100.12","","","","-16","","NA"
"-63.51","44.88","HALIFAX STANFIELD INT'L A","8202251","2023-02-23 05:00","2023","02","23","05:00","-9.4","","-16.8","","55","","","","35","","21","","24.1","","100.13","","","","-17","","Cloudy"
"-63.51","44.88","HALIFAX STANFIELD INT'L A","8202251","2023-02-23 06:00","2023","02","23","06:00","-9.7","","-16.3","","59","","","","35","","15","","24.1","","100.18","","","","-16","","NA"
"-63.51","44.88","HALIFAX STANFIELD INT'L A","8202251","2023-02-23 07:00","2023","02","23","07:00","-9.9","","-16.3","","60","","","","35","","21","","24.1","","100.21","","","","-18","","NA"
"-63.51","44.88","HALIFAX STANFIELD INT'L A","8202251","2023-02-23 08:00","2023","02","23","08:00","-10.1","","-15.8","","63","","","","1","","21","","24.1","","100.19","","","","-18","","Cloudy"
"-63.51","44.88","HALIFAX STANFIELD INT'L A","8202251","2023-02-23 09:00","2023","02","23","09:00","-10.0","","-15.2","","66","","","","1","","21","","24.1","","100.12","","","","-18","","NA"
"-63.51","44.88","HALIFAX STANFIELD INT'L A","8202251","2023-02-23 10:00","2023","02","23","10:00","-10.0","","-15.3","","65","","","","35","","19","","24.1","","100.12","","","","-18","","NA"
"-63.51","44.88","HALIFAX STANFIELD INT'L A","8202251","2023-02-23 11:00","2023","02","23","11:00","-9.6","","-15.1","","65","","","","1","","21","","24.1","","100.10","","","","-18","","Cloudy"
"-63.51","44.88","HALIFAX STANFIELD INT'L A","8202251","2023-02-23 12:00","2023","02","23","12:00","-9.1","","-14.1","","67","","","","2","","19","","24.1","","100.00","","","","-17","","NA"
"-63.51","44.88","HALIFAX STANFIELD INT'L A","8202251","2023-02-23 13:00","2023","02","23","13:00","-8.4","","-14.5","","62","","","","1","","23","","24.1","","99.92","","","","-16","","NA"
"-63.51","44.88","HALIFAX STANFIELD INT'L A","8202251","2023-02-23 14:00","2023","02","23","14:00","-7.9","","-14.4","","60","","","","5","","14","","24.1","","99.84","","","","-14","","Cloudy"
"-63.51","44.88","HALIFAX STANFIELD INT'L A","8202251","2023-02-23 15:00","2023","02","23","15:00","-7.8","","-15.0","","56","","","","36","","22","","24.1","","99.83","","","","-15","","NA"
"-63.51","44.88","HALIFAX STANFIELD INT'L A","8202251","2023-02-23 16:00","2023","02","23","16:00","-7.7","","-14.9","","56","","","","2","","19","","24.1","","99.83","","","","-15","","NA"
"-63.51","44.88","HALIFAX STANFIELD INT'L A","8202251","2023-02-23 17:00","2023","02","23","17:00","-7.8","","-14.8","","57","","","","4","","19","","24.1","","99.86","","","","-15","","Cloudy"
"-63.51","44.88","HALIFAX STANFIELD INT'L A","8202251","2023-02-23 18:00","2023","02","23","18:00","-8.6","","-14.7","","62","","","","2","","17","","24.1","","99.91","","","","-15","","NA"
"-63.51","44.88","HALIFAX STANFIELD INT'L A","8202251","2023-02-23 19:00","2023","02","23","19:00","-9.3","","-14.5","","66","","","","2","","18","","24.1","","99.92","","","","-17","","NA"
"-63.51","44.88","HALIFAX STANFIELD INT'L A","8202251","2023-02-23 20:00","2023","02","23","20:00","-9.8","","-14.9","","67","","","","3","","17","","24.1","","99.87","","","","-17","","Cloudy"
"-63.51","44.88","HALIFAX STANFIELD INT'L A","8202251","2023-02-23 21:00","2023","02","23","21:00","-10.1","","-14.7","","69","","","","3","","17","","24.1","","99.85","","","","-17","","NA"
"-63.51","44.88","HALIFAX STANFIELD INT'L A","8202251","2023-02-23 22:00","2023","02","23","22:00","-10.0","","-14.5","","70","","","","2","","11","","24.1","","99.91","","","","-16","","NA"
"-63.51","44.88","HALIFAX STANFIELD INT'L A","8202251","2023-02-23 23:00","2023","02","23","23:00","-10.2","","-14.8","","69","","","","5","","10","","24.1","","99.86","","","","-15","","Cloudy"
"-63.51","44.88","HALIFAX STANFIELD INT'L A","8202251","2023-02-24 00:00","2023","02","24","00:00","-10.2","","-14.6","","70","","","","4","","13","","24.1","","99.84","","","","-16","","NA"
"-63.51","44.88","HALIFAX STANFIELD INT'L A","8202251","2023-02-24 01:00","2023","02","24","01:00","-10.4","","-14.0","","75","","","","3","","10","","6.4","","99.91","","","","-16","","Snow"
"-63.51","44.88","HALIFAX STANFIELD INT'L A","8202251","2023-02-24 02:00","2023","02","24","02:00","-10.7","","-13.7","","78","","","","5","","13","","3.2","","99.83","","","","-17","","Snow"
"-63.51","44.88","HALIFAX STANFIELD INT'L A","8202251","2023-02-24 03:00","2023","02","24","03:00","-10.9","","-12.9","","85","","","","6","","13","","6.4","","99.72","","","","-17","","Snow"
"-63.51","44.88","HALIFAX STANFIELD INT'L A","8202251","2023-02-24 04:00","2023","02","24","04:00","-10.7","","-12.5","","86","","","","6","","8","","4.0","","99.71","","","","-15","","Snow"
"-63.51","44.88","HALIFAX STANFIELD INT'L A","8202251","2023-02-24 05:00","2023","02","24","05:00","-10.7","","-12.4","","87","","","","9","","11","","4.8","","99.58","","","","-16","","Snow"
"-63.51","44.88","HALIFAX STANFIELD INT'L A","8202251","2023-02-24 06:00","2023","02","24","06:00","-10.6","","-12.3","","87","","","","7","","12","","3.6","","99.54","","","","-17","","Snow"
"-63.51","44.88","HALIFAX STANFIELD INT'L A","8202251","2023-02-24 07:00","2023","02","24","07:00","-10.5","","-12.2","","88","","","","7","","13","","3.6","","99.43","","","","-17","","Snow"
"-63.51","44.88","HALIFAX STANFIELD INT'L A","8202251","2023-02-24 08:00","2023","02","24","08:00","-10.3","","-12.1","","87","","","","6","","17","","4.8","","99.37","","","","-18","","Snow"
"-63.51","44.88","HALIFAX STANFIELD INT'L A","8202251","2023-02-24 09:00","2023","02","24","09:00","-10.0","","-11.8","","87","","","","5","","21","","2.0","","99.32","","","","-18","","Snow"
"-63.51","44.88","HALIFAX STANFIELD INT'L A","8202251","2023-02-24 10:00","2023","02","24","10:00","-9.7","","-11.8","","85","","","","5","","22","","4.0","","99.27","","","","-18","","Snow"
"-63.51","44.88","HALIFAX STANFIELD INT'L A","8202251","2023-02-24 11:00","2023","02","24","11:00","-9.2","","-11.2","","85","","","","5","","26","","1.2","","99.20","","","","-18","","Snow,Blowing Snow"
"-63.51","44.88","HALIFAX STANFIELD INT'L A","8202251","2023-02-24 12:00","2023","02","24","12:00","-8.8","","-10.8","","86","","","","4","","27","","1.2","","99.14","","","","-18","","Snow,Blowing Snow"
"-63.51","44.88","HALIFAX STANFIELD INT'L A","8202251","2023-02-24 13:00","2023","02","24","13:00","-8.2","","-9.9","","88","","","","2","","29","","1.0","","99.09","","","","-17","","Snow,Blowing Snow"
"-63.51","44.88","HALIFAX STANFIELD INT'L A","8202251","2023-02-24 14:00","2023","02","24","14:00","-7.9","","-9.8","","87","","","","3","","28","","1.0","","99.06","","","","-17","","Snow,Blowing Snow"
"-63.51","44.88","HALIFAX STANFIELD INT'L A","8202251","2023-02-24 15:00","2023","02","24","15:00","-8.1","","-10.0","","86","","","","1","","33","","2.4","","99.12","","","","-17","","Snow,Blowing Snow"
"-63.51","44.88","HALIFAX STANFIELD INT'L A","8202251","2023-02-24 16:00","2023","02","24","16:00","-8.7","","-11.5","","80","","","","2","","37","","4.0","","99.27","","","","-19","","Snow,Blowing Snow"
"-63.51","44.88","HALIFAX STANFIELD INT'L A","8202251","2023-02-24 17:00","2023","02","24","17:00","-9.1","","-12.0","","79","","","","1","","34","","4.0","","99.47","","","","-19","","Snow,Blowing Snow"
"-63.51","44.88","HALIFAX STANFIELD INT'L A","8202251","2023-02-24 18:00","2023","02","24","18:00","-9.7","","-12.5","","80","","","","36","","21","","4.8","","99.66","","","","-18","","Snow,Blowing Snow"
"-63.51","44.88","HALIFAX STANFIELD INT'L A","8202251","2023-02-24 19:00","2023","02","24","19:00","-10.4","","-13.6","","78","","","","1","","28","","12.9","","99.90","","","","-20","","Snow"
"-63.51","44.88","HALIFAX STANFIELD INT'L A","8202251","2023-02-24 20:00","2023","02","24","20:00","-11.0","","-13.0","","85","","","","35","","32","","3.2","","100.06","","","","-21","","Snow"
"-63.51","44.88","HALIFAX STANFIELD INT'L A","8202251","2023-02-24 21:00","2023","02","24","21:00","-11.5","","-14.8","","77","","","","35","","34","","12.9","","100.22","","","","-22","","NA"
"-63.51","44.88","HALIFAX STANFIELD INT'L A","8202251","2023-02-24 22:00","2023","02","24","22:00","-12.2","","-14.2","","85","","","","34","","23","","3.2","","100.34","","","","-21","","Snow"
"-63.51","44.88","HALIFAX STANFIELD INT'L A","8202251","2023-02-24 23:00","2023","02","24","23:00","-13.1","","-16.0","","79","","","","35","","20","","19.3","","100.43","","","","-22","","Cloudy"
"-63.51","44.88","HALIFAX STANFIELD INT'L A","8202251","2023-02-25 00:00","2023","02","25","00:00","-13.7","","-16.1","","82","","","","33","","23","","24.1","","100.50","","","","-23","","NA"
"-63.51","44.88","HALIFAX STANFIELD INT'L A","8202251","2023-02-25 01:00","2023","02","25","01:00","-14.4","","-17.6","","77","","","","33","","21","","24.1","","100.53","","","","-24","","NA"
"-63.51","44.88","HALIFAX STANFIELD INT'L A","8202251","2023-02-25 02:00","2023","02","25","02:00","-15.0","","-18.1","","78","","","","32","","18","","24.1","","100.55","","","","-24","","Mostly Cloudy"
"-63.51","44.88","HALIFAX STANFIELD INT'L A","8202251","2023-02-25 03:00","2023","02","25","03:00","-16.1","","-18.6","","81","","","","33","","11","","24.1","","100.58","","","","-23","","NA"
"-63.51","44.88","HALIFAX STANFIELD INT'L A","8202251","2023-02-25 04:00","2023","02","25","04:00","-16.6","","-19.0","","82","","","","32","","13","","24.1","","100.61","","","","-24","","NA"
"-63.51","44.88","HALIFAX STANFIELD INT'L A","8202251","2023-02-25 05:00","2023","02","25","05:00","-16.8","","-20.4","","74","","","","31","","14","","24.1","","100.64","","","","-25","","Clear"
"-63.51","44.88","HALIFAX STANFIELD INT'L A","8202251","2023-02-25 06:00","2023","02","25","06:00","-17.6","","-21.4","","73","","","","32","","15","","24.1","","100.68","","","","-26","","NA"
"-63.51","44.88","HALIFAX STANFIELD INT'L A","8202251","2023-02-25 07:00","2023","02","25","07:00","-17.6","","-21.4","","73","","","","31","","15","","24.1","","100.71","","","","-26","","NA"
"-63.51","44.88","HALIFAX STANFIELD INT'L A","8202251","2023-02-25 08:00","2023","02","25","08:00","-16.6","","-21.5","","66","","","","33","","20","","24.1","","100.78","","","","-26","","Mainly Clear"
"-63.51","44.88","HALIFAX STANFIELD INT'L A","8202251","2023-02-25 09:00","2023","02","25","09:00","-15.5","","-20.6","","66","","","","33","","21","","24.1","","100.83","","","","-25","","NA"
"-63.51","44.88","HALIFAX STANFIELD INT'L A","8202251","2023-02-25 10:00","2023","02","25","10:00","-14.7","","-20.4","","62","","","","32","","23","","24.1","","100.83","","","","-24","","NA"
"-63.51","44.88","HALIFAX STANFIELD INT'L A","8202251","2023-02-25 11:00","2023","02","25","11:00","-14.1","","-19.7","","63","","","","33","","30","","24.1","","100.74","","","","-25","","Mainly Clear"
"-63.51","44.88","HALIFAX STANFIELD INT'L A","8202251","2023-02-25 12:00","2023","02","25","12:00","-13.2","","-18.7","","64","","","","32","","23","","24.1","","100.67","","","","-23","","NA"
"-63.51","44.88","HALIFAX STANFIELD INT'L A","8202251","2023-02-25 13:00","2023","02","25","13:00","-12.8","","-19.8","","56","","","","34","","19","","24.1","","100.51","","","","-21","","NA"
"-63.51","44.88","HALIFAX STANFIELD INT'L A","8202251","2023-02-25 14:00","2023","02","25","14:00","-12.2","","-20.9","","49","","","","31","","29","","24.1","","100.49","","","","-22","","Mainly Clear"
"-63.51","44.88","HALIFAX STANFIELD INT'L A","8202251","2023-02-25 15:00","2023","02","25","15:00","-12.0","","-19.9","","53","","","","31","","23","","24.1","","100.45","","","","-21","","NA"
"-63.51","44.88","HALIFAX STANFIELD INT'L A","8202251","2023-02-25 16:00","2023","02","25","16:00","-12.0","","-19.6","","54","","","","31","","25","","24.1","","100.46","","","","-21","","NA"
"-63.51","44.88","HALIFAX STANFIELD INT'L A","8202251","2023-02-25 17:00","2023","02","25","17:00","-12.8","","-19.6","","57","","","","32","","20","","24.1","","100.47","","","","-21","","Mostly Cloudy"
"-63.51","44.88","HALIFAX STANFIELD INT'L A","8202251","2023-02-25 18:00","2023","02","25","18:00","-13.3","","-19.3","","61","","","","31","","16","","24.1","","100.49","","","","-21","","NA"
"-63.51","44.88","HALIFAX STANFIELD INT'L A","8202251","2023-02-25 19:00","2023","02","25","19:00","-13.9","","-19.0","","66","","","","29","","11","","24.1","","100.50","","","","-20","","NA"
"-63.51","44.88","HALIFAX STANFIELD INT'L A","8202251","2023-02-25 20:00","2023","02","25","20:00","-14.0","","-18.8","","68","","","","30","","14","","24.1","","100.43","","","","-21","","Mostly Cloudy"
"-63.51","44.88","HALIFAX STANFIELD INT'L A","8202251","2023-02-25 21:00","2023","02","25","21:00","-14.9","","-18.5","","74","","","","32","","7","","24.1","","100.44","","","","-20","","NA"
"-63.51","44.88","HALIFAX STANFIELD INT'L A","8202251","2023-02-25 22:00","2023","02","25","22:00","-14.7","","-18.6","","73","","","","33","","5","","24.1","","100.42","","","","-18","","NA"
"-63.51","44.88","HALIFAX STANFIELD INT'L A","8202251","2023-02-25 23:00","2023","02","25","23:00","-14.7","","-18.8","","72","","","","36","","2","","24.1","","100.38","","","","-16","","Mostly Cloudy"
"-63.51","44.88","HALIFAX STANFIELD INT'L A","8202251","2023-02-26 00:00","2023","02","26","00:00","-14.9","","-20.2","","65","","","","8","","3","","24.1","","100.30","","","","-17","","NA"
"-63.51","44.88","HALIFAX STANFIELD INT'L A","8202251","2023-02-26 01:00","2023","02","26","01:00","-15.5","","-19.9","","70","","","","17","","8","","24.1","","100.28","","","","-21","","NA"
"-63.51","44.88","HALIFAX STANFIELD INT'L A","8202251","2023-02-26 02:00","2023","02","26","02:00","-15.9","","-21.2","","65","","","","17","","7","","24.1","","100.22","","","","-21","","Mostly Cloudy"
"-63.51","44.88","HALIFAX STANFIELD INT'L A","8202251","2023-02-26 03:00","2023","02","26","03:00","-16.3","","-20.2","","72","","","","36","","1","","24.1","","100.19","","","","-17","","NA"
"-63.51","44.88","HALIFAX STANFIELD INT'L A","8202251","2023-02-26 04:00","2023","02","26","04:00","-15.8","","-19.5","","74","","","","22","","5","","24.1","","100.18","","","","-20","","NA"
"-63.51","44.88","HALIFAX STANFIELD INT'L A","8202251","2023-02-26 05:00","2023","02","26","05:00","-15.5","","-19.0","","75","","","","36","","3","","24.1","","100.13","","","","-18","","Mainly Clear"
"-63.51","44.88","HALIFAX STANFIELD INT'L A","8202251","2023-02-26 06:00","2023","02","26","06:00","-15.9","","-19.1","","77","","","","36","","2","","24.1","","100.09","","","","-17","","NA"
"-63.51","44.88","HALIFAX STANFIELD INT'L A","8202251","2023-02-26 07:00","2023","02","26","07:00","-15.6","","-18.8","","77","","","","36","","2","","24.1","","100.02","","","","-17","","NA"
"-63.51","44.88","HALIFAX STANFIELD INT'L A","8202251","2023-02-26 08:00","2023","02","26","08:00","-15.2","","-18.7","","75","","","","36","","2","","24.1","","100.04","","","","-17","","Clear"
"-63.51","44.88","HALIFAX STANFIELD INT'L A","8202251","2023-02-26 09:00","2023","02","26","09:00","-14.1","","-18.3","","71","","","","1","","4","","24.1","","99.97","","","","-17","","NA"
"-63.51","44.88","HALIFAX STANFIELD INT'L A","8202251","2023-02-26 10:00","2023","02","26","10:00","-12.6","","-22.0","","46","","","","34","","6","","24.1","","99.92","","","","-17","","NA"
"-63.51","44.88","HALIFAX STANFIELD INT'L A","8202251","2023-02-26 11:00","2023","02","26","11:00","-11.9","","-20.9","","48","","","","33","","7","","24.1","","99.83","","","","-16","","Mostly Cloudy"
"-63.51","44.88","HALIFAX STANFIELD INT'L A","8202251","2023-02-26 12:00","2023","02","26","12:00","-11.1","","-20.9","","45","","","","36","","2","","24.1","","99.66","","","","-12","","NA"
"-63.51","44.88","HALIFAX STANFIELD INT'L A","8202251","2023-02-26 13:00","2023","02","26","13:00","-10.4","","-21.1","","42","","","","29","","3","","24.1","","99.54","","","","-12","","NA"
"-63.51","44.88","HALIFAX STANFIELD INT'L A","8202251","2023-02-26 14:00","2023","02","26","14:00","-9.6","","-20.4","","42","","","","36","","2","","24.1","","99.45","","","","-11","","Mostly Cloudy"
"-63.51","44.88","HALIFAX STANFIELD INT'L A","8202251","2023-02-26 15:00","2023","02","26","15:00","-8.5","","-18.9","","43","","","","11","","7","","24.1","","99.38","","","","-12","","NA"
"-63.51","44.88","HALIFAX STANFIELD INT'L A","8202251","2023-02-26 16:00","2023","02","26","16:00","-8.5","","-18.1","","46","","","","2","","3","","24.1","","99.27","","","","-10","","NA"
"-63.51","44.88","HALIFAX STANFIELD INT'L A","8202251","2023-02-26 17:00","2023","02","26","17:00","-8.5","","-17.4","","49","","","","35","","8","","24.1","","99.20","","","","-13","","Mostly Cloudy"
"-63.51","44.88","HALIFAX STANFIELD INT'L A","8202251","2023-02-26 18:00","2023","02","26","18:00","-8.9","","-17.4","","51","","","","8","","4","","24.1","","99.16","","","","-11","","NA"
"-63.51","44.88","HALIFAX STANFIELD INT'L A","8202251","2023-02-26 19:00","2023","02","26","19:00","-10.3","","-14.8","","70","","","","14","","7","","24.1","","99.13","","","","-14","","NA"
"-63.51","44.88","HALIFAX STANFIELD INT'L A","8202251","2023-02-26 20:00","2023","02","26","20:00","-10.9","","-15.1","","71","","","","12","","7","","24.1","","99.07","","","","-15","","Mainly Clear"
"-63.51","44.88","HALIFAX STANFIELD INT'L A","8202251","2023-02-26 21:00","2023","02","26","21:00","-10.8","","-14.9","","72","","","","11","","4","","24.1","","99.05","","","","-13","","NA"
"-63.51","44.88","HALIFAX STANFIELD INT'L A","8202251","2023-02-26 22:00","2023","02","26","22:00","-11.9","","-15.2","","77","","","","5","","7","","24.1","","99.04","","","","-16","","NA"
"-63.51","44.88","HALIFAX STANFIELD INT'L A","8202251","2023-02-26 23:00","2023","02","26","23:00","-12.2","","-18.7","","59","","","","7","","13","","24.1","","99.02","","","","-19","","Mostly Cloudy"
"-63.51","44.88","HALIFAX STANFIELD INT'L A","8202251","2023-02-27 00:00","2023","02","27","00:00","-12.1","","-19.2","","56","","","","6","","12","","24.1","","99.01","","","","-18","","NA"
"-63.51","44.88","HALIFAX STANFIELD INT'L A","8202251","2023-02-27 01:00","2023","02","27","01:00","-13.4","","-18.1","","68","","","","1","","7","","24.1","","99.05","","","","-18","","NA"
"-63.51","44.88","HALIFAX STANFIELD INT'L A","8202251","2023-02-27 02:00","2023","02","27","02:00","-14.4","","-17.8","","76","","","","35","","7","","24.1","","99.07","","","","-19","","Cloudy"
"-63.51","44.88","HALIFAX STANFIELD INT'L A","8202251","2023-02-27 03:00","2023","02","27","03:00","-15.2","","-18.2","","78","","","","1","","7","","24.1","","99.07","","","","-20","","NA"
"-63.51","44.88","HALIFAX STANFIELD INT'L A","8202251","2023-02-27 04:00","2023","02","27","04:00","-16.3","","-18.4","","84","","","","2","","11","","24.1","","99.08","","","","-23","","NA"
"-63.51","44.88","HALIFAX STANFIELD INT'L A","8202251","2023-02-27 05:00","2023","02","27","05:00","-16.2","","-18.1","","86","","","","36","","7","","24.1","","99.14","","","","-21","","Clear"
"-63.51","44.88","HALIFAX STANFIELD INT'L A","8202251","2023-02-27 06:00","2023","02","27","06:00","-17.4","","-19.2","","86","","","","2","","13","","24.1","","99.21","","","","-25","","NA"
"-63.51","44.88","HALIFAX STANFIELD INT'L A","8202251","2023-02-27 07:00","2023","02","27","07:00","-17.1","","-19.0","","85","","","","2","","13","","24.1","","99.30","","","","-25","","NA"
"-63.51","44.88","HALIFAX STANFIELD INT'L A","8202251","2023-02-27 08:00","2023","02","27","08:00","-15.6","","-17.8","","84","","","","1","","10","","24.1","","99.38","","","","-22","","Clear"
"-63.51","44.88","HALIFAX STANFIELD INT'L A","8202251","2023-02-27 09:00","2023","02","27","09:00","-13.1","","-17.1","","72","","","","36","","21","","24.1","","99.48","","","","-22","","NA"
"-63.51","44.88","HALIFAX STANFIELD INT'L A","8202251","2023-02-27 10:00","2023","02","27","10:00","-11.1","","-16.3","","66","","","","2","","23","","24.1","","99.53","","","","-20","","NA"
"-63.51","44.88","HALIFAX STANFIELD INT'L A","8202251","2023-02-27 11:00","2023","02","27","11:00","-9.4","","-16.5","","57","","","","1","","21","","24.1","","99.55","","","","-17","","Clear"
"-63.51","44.88","HALIFAX STANFIELD INT'L A","8202251","2023-02-27 12:00","2023","02","27","12:00","-8.6","","-15.3","","59","","","","2","","19","","24.1","","99.55","","","","-16","","NA"
"-63.51","44.88","HALIFAX STANFIELD INT'L A","8202251","2023-02-27 13:00","2023","02","27","13:00","-7.5","","-16.4","","49","","","","33","","32","","24.1","","99.53","","","","-17","","NA"
"-63.51","44.88","HALIFAX STANFIELD INT'L A","8202251","2023-02-27 14:00","2023","02","27","14:00","-7.2","","-16.6","","47","","","","35","","15","","24.1","","99.55","","","","-13","","Mainly Clear"
"-63.51","44.88","HALIFAX STANFIELD INT'L A","8202251","2023-02-27 15:00","2023","02","27","15:00","-7.1","","-17.6","","43","","","","34","","24","","24.1","","99.59","","","","-15","","NA"
"-63.51","44.88","HALIFAX STANFIELD INT'L A","8202251","2023-02-27 16:00","2023","02","27","16:00","-7.1","","-18.3","","41","","","","35","","23","","24.1","","99.67","","","","-15","","NA"
"-63.51","44.88","HALIFAX STANFIELD INT'L A","8202251","2023-02-27 17:00","2023","02","27","17:00","-7.7","","-17.8","","45","","","","1","","24","","24.1","","99.73","","","","-16","","Clear"
"-63.51","44.88","HALIFAX STANFIELD INT'L A","8202251","2023-02-27 18:00","2023","02","27","18:00","-9.4","","-17.6","","52","","","","2","","14","","24.1","","99.78","","","","-16","","NA"
"-63.51","44.88","HALIFAX STANFIELD INT'L A","8202251","2023-02-27 19:00","2023","02","27","19:00","-10.5","","-17.8","","56","","","","2","","9","","24.1","","99.92","","","","-15","","NA"
"-63.51","44.88","HALIFAX STANFIELD INT'L A","8202251","2023-02-27 20:00","2023","02","27","20:00","-12.0","","-18.1","","61","","","","7","","9","","24.1","","99.91","","","","-17","","Clear"
"-63.51","44.88","HALIFAX STANFIELD INT'L A","8202251","2023-02-27 21:00","2023","02","27","21:00","-12.2","","-17.7","","64","","","","4","","6","","24.1","","99.98","","","","-16","","NA"
"-63.51","44.88","HALIFAX STANFIELD INT'L A","8202251","2023-02-27 22:00","2023","02","27","22:00","-11.8","","-17.3","","64","","","","36","","3","","24.1","","99.99","","","","-14","","NA"
"-63.51","44.88","HALIFAX STANFIELD INT'L A","8202251","2023-02-27 23:00","2023","02","27","23:00","-12.1","","-17.0","","67","","","","4","","8","","24.1","","99.99","","","","-17","","Mainly Clear"
"-63.51","44.88","HALIFAX STANFIELD INT'L A","8202251","2023-02-28 00:00","2023","02","28","00:00","-13.1","","-17.1","","72","","","","2","","5","","24.1","","100.00","","","","-16","","NA"
"-63.51","44.88","HALIFAX STANFIELD INT'L A","8202251","2023-02-28 01:00","2023","02","28","01:00","-13.9","","-18.7","","67","","","","","","0","","24.1","","100.06","","","","","","NA"
"-63.51","44.88","HALIFAX STANFIELD INT'L A","8202251","2023-02-28 02:00","2023","02","28","02:00","-13.0","","-16.9","","73","","","","36","","2","","24.1","","100.10","","","","-14","","Mainly Clear"
"-63.51","44.88","HALIFAX STANFIELD INT'L A","8202251","2023-02-28 03:00","2023","02","28","03:00","-13.2","","-16.9","","74","","","","10","","4","","24.1","","100.11","","","","-16","","NA"
"-63.51","44.88","HALIFAX STANFIELD INT'L A","8202251","2023-02-28 04:00","2023","02","28","04:00","-13.4","","-17.0","","74","","","","6","","5","","24.1","","100.12","","","","-17","","NA"
"-63.51","44.88","HALIFAX STANFIELD INT'L A","8202251","2023-02-28 05:00","2023","02","28","05:00","-14.0","","-17.2","","77","","","","5","","9","","24.1","","100.12","","","","-20","","Mostly Cloudy"
"-63.51","44.88","HALIFAX STANFIELD INT'L A","8202251","2023-02-28 06:00","2023","02","28","06:00","-15.0","","-17.6","","81","","","","4","","5","","24.1","","100.16","","","","-19","","NA"
"-63.51","44.88","HALIFAX STANFIELD INT'L A","8202251","2023-02-28 07:00","2023","02","28","07:00","-14.4","","-17.8","","76","","","","9","","11","","24.1","","100.15","","","","-21","","NA"
"-63.51","44.88","HALIFAX STANFIELD INT'L A","8202251","2023-02-28 08:00","2023","02","28","08:00","-12.6","","-16.8","","72","","","","10","","13","","24.1","","100.16","","","","-19","","Mostly Cloudy"
"-63.51","44.88","HALIFAX STANFIELD INT'L A","8202251","2023-02-28 09:00","2023","02","28","09:00","-10.1","","-15.1","","67","","","","9","","16","","24.1","","100.16","","","","-17","","NA"
"-63.51","44.88","HALIFAX STANFIELD INT'L A","8202251","2023-02-28 10:00","2023","02","28","10:00","-9.0","","-16.4","","55","","","","10","","25","","24.1","","100.17","","","","-17","","NA"
"-63.51","44.88","HALIFAX STANFIELD INT'L A","8202251","2023-02-28 11:00","2023","02","28","11:00","-7.4","","-17.3","","46","","","","11","","14","","24.1","","100.19","","","","-13","","Mostly Cloudy"
"-63.51","44.88","HALIFAX STANFIELD INT'L A","8202251","2023-02-28 12:00","2023","02","28","12:00","-6.4","","-16.8","","44","","","","8","","18","","24.1","","100.15","","","","-13","","NA"
"-63.51","44.88","HALIFAX STANFIELD INT'L A","8202251","2023-02-28 13:00","2023","02","28","13:00","-5.5","","-17.1","","40","","","","14","","15","","24.1","","100.11","","","","-11","","NA"
"-63.51","44.88","HALIFAX STANFIELD INT'L A","8202251","2023-02-28 14:00","2023","02","28","14:00","-5.4","","-15.8","","44","","","","13","","20","","24.1","","100.06","","","","-12","","Mostly Cloudy"
"-63.51","44.88","HALIFAX STANFIELD INT'L A","8202251","2023-02-28 15:00","2023","02","28","15:00","-5.3","","-15.2","","46","","","","14","","17","","24.1","","100.02","","","","-11","","NA"
"-63.51","44.88","HALIFAX STANFIELD INT'L A","8202251","2023-02-28 16:00","2023","02","28","16:00","-5.2","","-14.1","","50","","","","14","","16","","24.1","","100.06","","","","-11","","NA"
"-63.51","44.88","HALIFAX STANFIELD INT'L A","8202251","2023-02-28 17:00","2023","02","28","17:00","-5.6","","-13.5","","54","","","","13","","20","","24.1","","100.07","","","","-12","","Mostly Cloudy"
"-63.51","44.88","HALIFAX STANFIELD INT'L A","8202251","2023-02-28 18:00","2023","02","28","18:00","-6.5","","-13.1","","60","","","","12","","22","","24.1","","100.11","","","","-14","","NA"
"-63.51","44.88","HALIFAX STANFIELD INT'L A","8202251","2023-02-28 19:00","2023","02","28","19:00","-7.2","","-12.5","","66","","","","10","","18","","24.1","","100.06","","","","-14","","NA"
"-63.51","44.88","HALIFAX STANFIELD INT'L A","8202251","2023-02-28 20:00","2023","02","28","20:00","-7.0","","-12.1","","67","","","","10","","17","","24.1","","100.05","","","","-13","","Cloudy"
"-63.51","44.88","HALIFAX STANFIELD INT'L A","8202251","2023-02-28 21:00","2023","02","28","21:00","-7.0","","-12.2","","67","","","","9","","18","","24.1","","100.08","","","","-14","","NA"
"-63.51","44.88","HALIFAX STANFIELD INT'L A","8202251","2023-02-28 22:00","2023","02","28","22:00","-6.9","","-12.0","","67","","","","9","","20","","24.1","","100.07","","","","-14","","NA"
"-63.51","44.88","HALIFAX STANFIELD INT'L A","8202251","2023-02-28 23:00","2023","02","28","23:00","-7.0","","-11.7","","69","","","","10","","17","","24.1","","100.00","","","","-13","","Cloudy"
