"Longitude (x)","Latitude (y)","Station Name","Climate ID","Date/Time (LST)","Year","Month","Day","Time (LST)","Temp (°C)","Temp Flag","Dew Point Temp (°C)","Dew Point Temp Flag","Rel Hum (%)","Rel Hum Flag","Precip. Amount (mm)","Precip. Amount Flag","Wind Dir (10s deg)","Wind Dir Flag","Wind Spd (km/h)","Wind Spd Flag","Visibility (km)","Visibility Flag","Stn Press (kPa)","Stn Press Flag","Hmdx","Hmdx Flag","Wind Chill","Wind Chill Flag","Weather"
"-127.94","50.11","SOLANDER ISLAND (AUT)","1037553","2022-12-01 00:00","2022","12","01","00:00","-0.8","","","M","","M","","","5","","24","","","","99.17","","","","-7","","NA"
"-127.94","50.11","SOLANDER ISLAND (AUT)","1037553","2022-12-01 01:00","2022","12","01","01:00","-0.7","","","M","","M","","","4","","23","","","","99.21","","","","-7","","NA"
"-127.94","50.11","SOLANDER ISLAND (AUT)","1037553","2022-12-01 02:00","2022","12","01","02:00","-0.6","","","M","","M","","","1","","33","","","","99.24","","","","-8","","NA"
"-127.94","50.11","SOLANDER ISLAND (AUT)","1037553","2022-12-01 03:00","2022","12","01","03:00","-0.9","","","M","","M","","","36","","38","","","","99.27","","","","-8","","NA"
"-127.94","50.11","SOLANDER ISLAND (AUT)","1037553","2022-12-01 04:00","2022","12","01","04:00","-1.1","","","M","","M","","","2","","26","","","","99.32","","","","-7","","NA"
"-127.94","50.11","SOLANDER ISLAND (AUT)","1037553","2022-12-01 05:00","2022","12","01","05:00","-1.4","","","M","","M","","","3","","22","","","","99.36","","","","-7","","NA"
"-127.94","50.11","SOLANDER ISLAND (AUT)","1037553","2022-12-01 06:00","2022","12","01","06:00","-1.2","","","M","","M","","","36","","36","","","","99.41","","","","-9","","NA"
"-127.94","50.11","SOLANDER ISLAND (AUT)","1037553","2022-12-01 07:00","2022","12","01","07:00","-1.5","","","M","","M","","","1","","43","","","","99.42","","","","-10","","NA"
"-127.94","50.11","SOLANDER ISLAND (AUT)","1037553","2022-12-01 08:00","2022","12","01","08:00","-1.5","","","M","","M","","","1","","45","","","","99.43","","","","-10","","NA"
"-127.94","50.11","SOLANDER ISLAND (AUT)","1037553","2022-12-01 09:00","2022","12","01","09:00","-1.9","","","M","","M","","","1","","38","","","","99.52","","","","-10","","NA"
"-127.94","50.11","SOLANDER ISLAND (AUT)","1037553","2022-12-01 10:00","2022","12","01","10:00","-1.6","","","M","","M","","","36","","35","","","","99.53","","","","-9","","NA"
"-127.94","50.11","SOLANDER ISLAND (AUT)","1037553","2022-12-01 11:00","2022","12","01","11:00","-1.0","","","M","","M","","","1","","26","","","","99.57","","","","-7","","NA"
"-127.94","50.11","SOLANDER ISLAND (AUT)","1037553","2022-12-01 12:00","2022","12","01","12:00","-1.3","","","M","","M","","","36","","28","","","","99.58","","","","-8","","NA"
"-127.94","50.11","SOLANDER ISLAND (AUT)","1037553","2022-12-01 13:00","2022","12","01","13:00","-1.1","","","M","","M","","","35","","26","","","","99.60","","","","-7","","NA"
"-127.94","50.11","SOLANDER ISLAND (AUT)","1037553","2022-12-01 14:00","2022","12","01","14:00","-0.5","","","M","","M","","","34","","23","","","","99.60","","","","-6","","NA"
"-127.94","50.11","SOLANDER ISLAND (AUT)","1037553","2022-12-01 15:00","2022","12","01","15:00","-0.2","","","M","","M","","","32","","21","","","","99.60","","","","-6","","NA"
"-127.94","50.11","SOLANDER ISLAND (AUT)","1037553","2022-12-01 16:00","2022","12","01","16:00","-1.0","","","M","","M","","","33","","19","","","","99.63","","","","-6","","NA"
"-127.94","50.11","SOLANDER ISLAND (AUT)","1037553","2022-12-01 17:00","2022","12","01","17:00","-0.9","","","M","","M","","","34","","14","","","","99.63","","","","-5","","NA"
"-127.94","50.11","SOLANDER ISLAND (AUT)","1037553","2022-12-01 18:00","2022","12","01","18:00","-0.6","","","M","","M","","","30","","8","","","","99.66","","","","-3","","NA"
"-127.94","50.11","SOLANDER ISLAND (AUT)","1037553","2022-12-01 19:00","2022","12","01","19:00","-0.3","","","M","","M","","","27","","7","","","","99.69","","","","-3","","NA"
"-127.94","50.11","SOLANDER ISLAND (AUT)","1037553","2022-12-01 20:00","2022","12","01","20:00","0.1","","","M","","M","","","19","","10","","","","99.69","","","","","","NA"
"-127.94","50.11","SOLANDER ISLAND (AUT)","1037553","2022-12-01 21:00","2022","12","01","21:00","0.5","","","M","","M","0.0","","16","","26","","","","99.65","","","","","","NA"
"-127.94","50.11","SOLANDER ISLAND (AUT)","1037553","2022-12-01 22:00","2022","12","01","22:00","0.9","","","M","","M","0.0","","12","","27","","","","99.66","","","","","","NA"
"-127.94","50.11","SOLANDER ISLAND (AUT)","1037553","2022-12-01 23:00","2022","12","01","23:00","1.9","","","M","","M","0.0","","13","","32","","","","99.60","","","","","","NA"
"-127.94","50.11","SOLANDER ISLAND (AUT)","1037553","2022-12-02 00:00","2022","12","02","00:00","2.4","","","M","","M","0.0","","14","","37","","","","99.67","","","","","","NA"
"-127.94","50.11","SOLANDER ISLAND (AUT)","1037553","2022-12-02 01:00","2022","12","02","01:00","2.9","","","M","","M","0.0","","14","","37","","","","99.67","","","","","","NA"
"-127.94","50.11","SOLANDER ISLAND (AUT)","1037553","2022-12-02 02:00","2022","12","02","02:00","2.4","","","M","","M","0.0","","11","","46","","","","99.65","","","","","","NA"
"-127.94","50.11","SOLANDER ISLAND (AUT)","1037553","2022-12-02 03:00","2022","12","02","03:00","3.8","","","M","","M","0.0","","15","","47","","","","99.66","","","","","","NA"
"-127.94","50.11","SOLANDER ISLAND (AUT)","1037553","2022-12-02 04:00","2022","12","02","04:00","2.9","","","M","","M","0.0","","11","","60","","","","99.57","","","","","","NA"
"-127.94","50.11","SOLANDER ISLAND (AUT)","1037553","2022-12-02 05:00","2022","12","02","05:00","2.9","","","M","","M","0.0","","11","","71","","","","99.51","","","","","","NA"
"-127.94","50.11","SOLANDER ISLAND (AUT)","1037553","2022-12-02 06:00","2022","12","02","06:00","2.6","","","M","","M","0.0","","11","","65","","","","99.53","","","","","","NA"
"-127.94","50.11","SOLANDER ISLAND (AUT)","1037553","2022-12-02 07:00","2022","12","02","07:00","3.4","","","M","","M","0.0","","11","","67","","","","99.46","","","","","","NA"
"-127.94","50.11","SOLANDER ISLAND (AUT)","1037553","2022-12-02 08:00","2022","12","02","08:00","3.0","","","M","","M","0.0","","11","","66","","","","99.49","","","","","","NA"
"-127.94","50.11","SOLANDER ISLAND (AUT)","1037553","2022-12-02 09:00","2022","12","02","09:00","3.9","","","M","","M","0.0","","11","","68","","","","99.51","","","","","","NA"
"-127.94","50.11","SOLANDER ISLAND (AUT)","1037553","2022-12-02 10:00","2022","12","02","10:00","4.1","","","M","","M","0.0","","11","","61","","","","99.56","","","","","","NA"
"-127.94","50.11","SOLANDER ISLAND (AUT)","1037553","2022-12-02 11:00","2022","12","02","11:00","4.6","","","M","","M","0.0","","11","","58","","","","99.62","","","","","","NA"
"-127.94","50.11","SOLANDER ISLAND (AUT)","1037553","2022-12-02 12:00","2022","12","02","12:00","5.0","","","M","","M","0.0","","11","","57","","","","99.60","","","","","","NA"
"-127.94","50.11","SOLANDER ISLAND (AUT)","1037553","2022-12-02 13:00","2022","12","02","13:00","5.3","","","M","","M","0.0","","11","","53","","","","99.59","","","","","","NA"
"-127.94","50.11","SOLANDER ISLAND (AUT)","1037553","2022-12-02 14:00","2022","12","02","14:00","5.7","","","M","","M","0.0","","10","","48","","","","99.58","","","","","","NA"
"-127.94","50.11","SOLANDER ISLAND (AUT)","1037553","2022-12-02 15:00","2022","12","02","15:00","5.7","","","M","","M","0.0","","10","","39","","","","99.60","","","","","","NA"
"-127.94","50.11","SOLANDER ISLAND (AUT)","1037553","2022-12-02 16:00","2022","12","02","16:00","5.7","","","M","","M","0.0","","9","","20","","","","99.61","","","","","","NA"
"-127.94","50.11","SOLANDER ISLAND (AUT)","1037553","2022-12-02 17:00","2022","12","02","17:00","4.8","","","M","","M","0.6","","9","","15","","","","99.65","","","","","","NA"
"-127.94","50.11","SOLANDER ISLAND (AUT)","1037553","2022-12-02 18:00","2022","12","02","18:00","5.6","","","M","","M","0.4","","6","","25","","","","99.62","","","","","","NA"
"-127.94","50.11","SOLANDER ISLAND (AUT)","1037553","2022-12-02 19:00","2022","12","02","19:00","5.8","","","M","","M","0.0","","9","","29","","","","99.70","","","","","","NA"
"-127.94","50.11","SOLANDER ISLAND (AUT)","1037553","2022-12-02 20:00","2022","12","02","20:00","6.0","","","M","","M","0.0","","8","","23","","","","99.79","","","","","","NA"
"-127.94","50.11","SOLANDER ISLAND (AUT)","1037553","2022-12-02 21:00","2022","12","02","21:00","6.0","","","M","","M","0.0","","7","","17","","","","99.86","","","","","","NA"
"-127.94","50.11","SOLANDER ISLAND (AUT)","1037553","2022-12-02 22:00","2022","12","02","22:00","5.7","","","M","","M","0.0","","6","","8","","","","99.95","","","","","","NA"
"-127.94","50.11","SOLANDER ISLAND (AUT)","1037553","2022-12-02 23:00","2022","12","02","23:00","5.9","","","M","","M","0.0","","6","","17","","","","100.00","","","","","","NA"
"-127.94","50.11","SOLANDER ISLAND (AUT)","1037553","2022-12-03 00:00","2022","12","03","00:00","5.2","","","M","","M","0.0","","4","","16","","","","100.07","","","","","","NA"
"-127.94","50.11","SOLANDER ISLAND (AUT)","1037553","2022-12-03 01:00","2022","12","03","01:00","5.7","","","M","","M","0.0","","4","","11","","","","100.12","","","","","","NA"
"-127.94","50.11","SOLANDER ISLAND (AUT)","1037553","2022-12-03 02:00","2022","12","03","02:00","4.5","","","M","","M","0.0","","2","","14","","","","100.21","","","","","","NA"
"-127.94","50.11","SOLANDER ISLAND (AUT)","1037553","2022-12-03 03:00","2022","12","03","03:00","5.5","","","M","","M","0.0","","2","","13","","","","100.25","","","","","","NA"
"-127.94","50.11","SOLANDER ISLAND (AUT)","1037553","2022-12-03 04:00","2022","12","03","04:00","4.6","","","M","","M","0.0","","2","","21","","","","100.27","","","","","","NA"
"-127.94","50.11","SOLANDER ISLAND (AUT)","1037553","2022-12-03 05:00","2022","12","03","05:00","5.0","","","M","","M","0.0","","3","","17","","","","100.31","","","","","","NA"
"-127.94","50.11","SOLANDER ISLAND (AUT)","1037553","2022-12-03 06:00","2022","12","03","06:00","5.1","","","M","","M","0.0","","3","","20","","","","100.36","","","","","","NA"
"-127.94","50.11","SOLANDER ISLAND (AUT)","1037553","2022-12-03 07:00","2022","12","03","07:00","5.4","","","M","","M","0.0","","2","","11","","","","100.43","","","","","","NA"
"-127.94","50.11","SOLANDER ISLAND (AUT)","1037553","2022-12-03 08:00","2022","12","03","08:00","6.0","","","M","","M","0.0","","19","","5","","","","100.49","","","","","","NA"
"-127.94","50.11","SOLANDER ISLAND (AUT)","1037553","2022-12-03 09:00","2022","12","03","09:00","7.5","","","M","","M","0.0","","0","","1","","","","100.59","","","","","","NA"
"-127.94","50.11","SOLANDER ISLAND (AUT)","1037553","2022-12-03 10:00","2022","12","03","10:00","6.4","","","M","","M","0.0","","19","","4","","","","100.71","","","","","","NA"
"-127.94","50.11","SOLANDER ISLAND (AUT)","1037553","2022-12-03 11:00","2022","12","03","11:00","6.5","","","M","","M","0.0","","36","","11","","","","100.79","","","","","","NA"
"-127.94","50.11","SOLANDER ISLAND (AUT)","1037553","2022-12-03 12:00","2022","12","03","12:00","8.3","","","M","","M","0.0","","9","","1","","","","100.78","","","","","","NA"
"-127.94","50.11","SOLANDER ISLAND (AUT)","1037553","2022-12-03 13:00","2022","12","03","13:00","6.4","","","M","","M","0.0","","1","","14","","","","100.82","","","","","","NA"
"-127.94","50.11","SOLANDER ISLAND (AUT)","1037553","2022-12-03 14:00","2022","12","03","14:00","7.5","","","M","","M","0.0","","3","","17","","","","100.81","","","","","","NA"
"-127.94","50.11","SOLANDER ISLAND (AUT)","1037553","2022-12-03 15:00","2022","12","03","15:00","7.2","","","M","","M","0.0","","1","","19","","","","100.83","","","","","","NA"
"-127.94","50.11","SOLANDER ISLAND (AUT)","1037553","2022-12-03 16:00","2022","12","03","16:00","7.1","","","M","","M","0.0","","2","","15","","","","100.85","","","","","","NA"
"-127.94","50.11","SOLANDER ISLAND (AUT)","1037553","2022-12-03 17:00","2022","12","03","17:00","8.5","","","M","","M","0.0","","1","","14","","","","100.82","","","","","","NA"
"-127.94","50.11","SOLANDER ISLAND (AUT)","1037553","2022-12-03 18:00","2022","12","03","18:00","6.3","","","M","","M","0.0","","36","","17","","","","100.83","","","","","","NA"
"-127.94","50.11","SOLANDER ISLAND (AUT)","1037553","2022-12-03 19:00","2022","12","03","19:00","5.1","","","M","","M","0.0","","2","","27","","","","100.78","","","","","","NA"
"-127.94","50.11","SOLANDER ISLAND (AUT)","1037553","2022-12-03 20:00","2022","12","03","20:00","5.7","","","M","","M","0.0","","1","","18","","","","100.76","","","","","","NA"
"-127.94","50.11","SOLANDER ISLAND (AUT)","1037553","2022-12-03 21:00","2022","12","03","21:00","5.1","","","M","","M","0.0","","1","","24","","","","100.71","","","","","","NA"
"-127.94","50.11","SOLANDER ISLAND (AUT)","1037553","2022-12-03 22:00","2022","12","03","22:00","5.0","","","M","","M","0.0","","2","","23","","","","100.66","","","","","","NA"
"-127.94","50.11","SOLANDER ISLAND (AUT)","1037553","2022-12-03 23:00","2022","12","03","23:00","6.2","","","M","","M","0.0","","12","","12","","","","100.67","","","","","","NA"
"-127.94","50.11","SOLANDER ISLAND (AUT)","1037553","2022-12-04 00:00","2022","12","04","00:00","6.4","","","M","","M","0.0","","20","","6","","","","100.63","","","","","","NA"
"-127.94","50.11","SOLANDER ISLAND (AUT)","1037553","2022-12-04 01:00","2022","12","04","01:00","6.1","","","M","","M","0.0","","12","","9","","","","100.58","","","","","","NA"
"-127.94","50.11","SOLANDER ISLAND (AUT)","1037553","2022-12-04 02:00","2022","12","04","02:00","6.0","","","M","","M","0.0","","15","","16","","","","100.55","","","","","","NA"
"-127.94","50.11","SOLANDER ISLAND (AUT)","1037553","2022-12-04 03:00","2022","12","04","03:00","6.2","","","M","","M","0.0","","17","","12","","","","100.54","","","","","","NA"
"-127.94","50.11","SOLANDER ISLAND (AUT)","1037553","2022-12-04 04:00","2022","12","04","04:00","6.1","","","M","","M","0.0","","16","","9","","","","100.49","","","","","","NA"
"-127.94","50.11","SOLANDER ISLAND (AUT)","1037553","2022-12-04 05:00","2022","12","04","05:00","5.9","","","M","","M","0.0","","10","","9","","","","100.41","","","","","","NA"
"-127.94","50.11","SOLANDER ISLAND (AUT)","1037553","2022-12-04 06:00","2022","12","04","06:00","4.9","","","M","","M","0.0","","2","","13","","","","100.35","","","","","","NA"
"-127.94","50.11","SOLANDER ISLAND (AUT)","1037553","2022-12-04 07:00","2022","12","04","07:00","5.2","","","M","","M","0.0","","36","","15","","","","100.30","","","","","","NA"
"-127.94","50.11","SOLANDER ISLAND (AUT)","1037553","2022-12-04 08:00","2022","12","04","08:00","5.0","","","M","","M","0.0","","36","","19","","","","100.26","","","","","","NA"
"-127.94","50.11","SOLANDER ISLAND (AUT)","1037553","2022-12-04 09:00","2022","12","04","09:00","4.4","","","M","","M","0.0","","4","","15","","","","100.25","","","","","","NA"
"-127.94","50.11","SOLANDER ISLAND (AUT)","1037553","2022-12-04 10:00","2022","12","04","10:00","4.9","","","M","","M","0.0","","32","","4","","","","100.24","","","","","","NA"
"-127.94","50.11","SOLANDER ISLAND (AUT)","1037553","2022-12-04 11:00","2022","12","04","11:00","5.2","","","M","","M","0.0","","33","","8","","","","100.21","","","","","","NA"
"-127.94","50.11","SOLANDER ISLAND (AUT)","1037553","2022-12-04 12:00","2022","12","04","12:00","6.8","","","M","","M","0.0","","17","","3","","","","100.15","","","","","","NA"
"-127.94","50.11","SOLANDER ISLAND (AUT)","1037553","2022-12-04 13:00","2022","12","04","13:00","7.1","","","M","","M","0.2","","18","","13","","","","100.15","","","","","","NA"
"-127.94","50.11","SOLANDER ISLAND (AUT)","1037553","2022-12-04 14:00","2022","12","04","14:00","6.5","","","M","","M","0.0","","16","","11","","","","100.14","","","","","","NA"
"-127.94","50.11","SOLANDER ISLAND (AUT)","1037553","2022-12-04 15:00","2022","12","04","15:00","6.3","","","M","","M","0.0","","12","","24","","","","100.11","","","","","","NA"
"-127.94","50.11","SOLANDER ISLAND (AUT)","1037553","2022-12-04 16:00","2022","12","04","16:00","5.7","","","M","","M","0.0","","11","","37","","","","100.14","","","","","","NA"
"-127.94","50.11","SOLANDER ISLAND (AUT)","1037553","2022-12-04 17:00","2022","12","04","17:00","5.7","","","M","","M","0.0","","11","","37","","","","100.15","","","","","","NA"
"-127.94","50.11","SOLANDER ISLAND (AUT)","1037553","2022-12-04 18:00","2022","12","04","18:00","5.8","","","M","","M","0.0","","11","","33","","","","100.16","","","","","","NA"
"-127.94","50.11","SOLANDER ISLAND (AUT)","1037553","2022-12-04 19:00","2022","12","04","19:00","6.1","","","M","","M","0.0","","10","","37","","","","100.22","","","","","","NA"
"-127.94","50.11","SOLANDER ISLAND (AUT)","1037553","2022-12-04 20:00","2022","12","04","20:00","6.2","","","M","","M","0.0","","11","","33","","","","100.26","","","","","","NA"
"-127.94","50.11","SOLANDER ISLAND (AUT)","1037553","2022-12-04 21:00","2022","12","04","21:00","6.0","","","M","","M","0.0","","10","","29","","","","100.28","","","","","","NA"
"-127.94","50.11","SOLANDER ISLAND (AUT)","1037553","2022-12-04 22:00","2022","12","04","22:00","6.2","","","M","","M","0.0","","10","","21","","","","100.33","","","","","","NA"
"-127.94","50.11","SOLANDER ISLAND (AUT)","1037553","2022-12-04 23:00","2022","12","04","23:00","6.4","","","M","","M","0.0","","11","","23","","","","100.34","","","","","","NA"
"-127.94","50.11","SOLANDER ISLAND (AUT)","1037553","2022-12-05 00:00","2022","12","05","00:00","6.4","","","M","","M","0.0","","11","","23","","","","100.35","","","","","","NA"
"-127.94","50.11","SOLANDER ISLAND (AUT)","1037553","2022-12-05 01:00","2022","12","05","01:00","6.3","","","M","","M","0.0","","11","","26","","","","100.33","","","","","","NA"
"-127.94","50.11","SOLANDER ISLAND (AUT)","1037553","2022-12-05 02:00","2022","12","05","02:00","6.1","","","M","","M","0.0","","11","","27","","","","100.30","","","","","","NA"
"-127.94","50.11","SOLANDER ISLAND (AUT)","1037553","2022-12-05 03:00","2022","12","05","03:00","6.1","","","M","","M","0.0","","11","","25","","","","100.35","","","","","","NA"
"-127.94","50.11","SOLANDER ISLAND (AUT)","1037553","2022-12-05 04:00","2022","12","05","04:00","6.2","","","M","","M","0.0","","11","","22","","","","100.34","","","","","","NA"
"-127.94","50.11","SOLANDER ISLAND (AUT)","1037553","2022-12-05 05:00","2022","12","05","05:00","6.0","","","M","","M","0.0","","10","","22","","","","100.34","","","","","","NA"
"-127.94","50.11","SOLANDER ISLAND (AUT)","1037553","2022-12-05 06:00","2022","12","05","06:00","5.9","","","M","","M","0.0","","11","","20","","","","100.37","","","","","","NA"
"-127.94","50.11","SOLANDER ISLAND (AUT)","1037553","2022-12-05 07:00","2022","12","05","07:00","5.7","","","M","","M","0.0","","11","","20","","","","100.36","","","","","","NA"
"-127.94","50.11","SOLANDER ISLAND (AUT)","1037553","2022-12-05 08:00","2022","12","05","08:00","5.6","","","M","","M","0.0","","11","","18","","","","100.38","","","","","","NA"
"-127.94","50.11","SOLANDER ISLAND (AUT)","1037553","2022-12-05 09:00","2022","12","05","09:00","5.7","","","M","","M","0.0","","10","","18","","","","100.42","","","","","","NA"
"-127.94","50.11","SOLANDER ISLAND (AUT)","1037553","2022-12-05 10:00","2022","12","05","10:00","5.6","","","M","","M","0.0","","11","","18","","","","100.44","","","","","","NA"
"-127.94","50.11","SOLANDER ISLAND (AUT)","1037553","2022-12-05 11:00","2022","12","05","11:00","5.6","","","M","","M","0.0","","11","","15","","","","100.47","","","","","","NA"
"-127.94","50.11","SOLANDER ISLAND (AUT)","1037553","2022-12-05 12:00","2022","12","05","12:00","5.8","","","M","","M","0.0","","10","","15","","","","100.44","","","","","","NA"
"-127.94","50.11","SOLANDER ISLAND (AUT)","1037553","2022-12-05 13:00","2022","12","05","13:00","5.8","","","M","","M","0.0","","10","","10","","","","100.44","","","","","","NA"
"-127.94","50.11","SOLANDER ISLAND (AUT)","1037553","2022-12-05 14:00","2022","12","05","14:00","5.8","","","M","","M","0.0","","11","","10","","","","100.41","","","","","","NA"
"-127.94","50.11","SOLANDER ISLAND (AUT)","1037553","2022-12-05 15:00","2022","12","05","15:00","5.8","","","M","","M","0.0","","11","","16","","","","100.39","","","","","","NA"
"-127.94","50.11","SOLANDER ISLAND (AUT)","1037553","2022-12-05 16:00","2022","12","05","16:00","5.7","","","M","","M","0.0","","11","","15","","","","100.43","","","","","","NA"
"-127.94","50.11","SOLANDER ISLAND (AUT)","1037553","2022-12-05 17:00","2022","12","05","17:00","5.7","","","M","","M","0.0","","12","","6","","","","100.44","","","","","","NA"
"-127.94","50.11","SOLANDER ISLAND (AUT)","1037553","2022-12-05 18:00","2022","12","05","18:00","5.4","","","M","","M","0.0","","10","","8","","","","100.47","","","","","","NA"
"-127.94","50.11","SOLANDER ISLAND (AUT)","1037553","2022-12-05 19:00","2022","12","05","19:00","6.0","","","M","","M","0.0","","33","","6","","","","100.50","","","","","","NA"
"-127.94","50.11","SOLANDER ISLAND (AUT)","1037553","2022-12-05 20:00","2022","12","05","20:00","5.8","","","M","","M","0.0","","3","","5","","","","100.50","","","","","","NA"
"-127.94","50.11","SOLANDER ISLAND (AUT)","1037553","2022-12-05 21:00","2022","12","05","21:00","5.7","","","M","","M","0.0","","13","","7","","","","100.51","","","","","","NA"
"-127.94","50.11","SOLANDER ISLAND (AUT)","1037553","2022-12-05 22:00","2022","12","05","22:00","5.6","","","M","","M","0.0","","13","","8","","","","100.55","","","","","","NA"
"-127.94","50.11","SOLANDER ISLAND (AUT)","1037553","2022-12-05 23:00","2022","12","05","23:00","5.7","","","M","","M","0.0","","13","","9","","","","100.55","","","","","","NA"
"-127.94","50.11","SOLANDER ISLAND (AUT)","1037553","2022-12-06 00:00","2022","12","06","00:00","5.5","","","M","","M","0.0","","12","","9","","","","100.58","","","","","","NA"
"-127.94","50.11","SOLANDER ISLAND (AUT)","1037553","2022-12-06 01:00","2022","12","06","01:00","5.0","","","M","","M","0.0","","3","","7","","","","100.60","","","","","","NA"
"-127.94","50.11","SOLANDER ISLAND (AUT)","1037553","2022-12-06 02:00","2022","12","06","02:00","4.8","","","M","","M","0.0","","15","","4","","","","100.59","","","","","","NA"
"-127.94","50.11","SOLANDER ISLAND (AUT)","1037553","2022-12-06 03:00","2022","12","06","03:00","4.7","","","M","","M","0.0","","10","","8","","","","100.60","","","","","","NA"
"-127.94","50.11","SOLANDER ISLAND (AUT)","1037553","2022-12-06 04:00","2022","12","06","04:00","4.7","","","M","","M","0.0","","12","","7","","","","100.58","","","","","","NA"
"-127.94","50.11","SOLANDER ISLAND (AUT)","1037553","2022-12-06 05:00","2022","12","06","05:00","4.8","","","M","","M","0.0","","30","","10","","","","100.59","","","","","","NA"
"-127.94","50.11","SOLANDER ISLAND (AUT)","1037553","2022-12-06 06:00","2022","12","06","06:00","5.1","","","M","","M","0.0","","32","","10","","","","100.62","","","","","","NA"
"-127.94","50.11","SOLANDER ISLAND (AUT)","1037553","2022-12-06 07:00","2022","12","06","07:00","4.7","","","M","","M","0.0","","7","","4","","","","100.62","","","","","","NA"
"-127.94","50.11","SOLANDER ISLAND (AUT)","1037553","2022-12-06 08:00","2022","12","06","08:00","4.3","","","M","","M","0.0","","11","","9","","","","100.63","","","","","","NA"
"-127.94","50.11","SOLANDER ISLAND (AUT)","1037553","2022-12-06 09:00","2022","12","06","09:00","4.3","","","M","","M","0.2","","11","","12","","","","100.66","","","","","","NA"
"-127.94","50.11","SOLANDER ISLAND (AUT)","1037553","2022-12-06 10:00","2022","12","06","10:00","4.5","","","M","","M","0.0","","12","","12","","","","100.68","","","","","","NA"
"-127.94","50.11","SOLANDER ISLAND (AUT)","1037553","2022-12-06 11:00","2022","12","06","11:00","4.9","","","M","","M","0.0","","12","","9","","","","100.71","","","","","","NA"
"-127.94","50.11","SOLANDER ISLAND (AUT)","1037553","2022-12-06 12:00","2022","12","06","12:00","5.1","","","M","","M","0.0","","11","","10","","","","100.69","","","","","","NA"
"-127.94","50.11","SOLANDER ISLAND (AUT)","1037553","2022-12-06 13:00","2022","12","06","13:00","5.0","","","M","","M","0.2","","13","","5","","","","100.71","","","","","","NA"
"-127.94","50.11","SOLANDER ISLAND (AUT)","1037553","2022-12-06 14:00","2022","12","06","14:00","5.0","","","M","","M","0.0","","11","","9","","","","100.67","","","","","","NA"
"-127.94","50.11","SOLANDER ISLAND (AUT)","1037553","2022-12-06 15:00","2022","12","06","15:00","5.6","","","M","","M","0.0","","11","","10","","","","100.64","","","","","","NA"
"-127.94","50.11","SOLANDER ISLAND (AUT)","1037553","2022-12-06 16:00","2022","12","06","16:00","4.8","","","M","","M","0.0","","12","","15","","","","100.65","","","","","","NA"
"-127.94","50.11","SOLANDER ISLAND (AUT)","1037553","2022-12-06 17:00","2022","12","06","17:00","5.1","","","M","","M","0.0","","13","","10","","","","100.66","","","","","","NA"
"-127.94","50.11","SOLANDER ISLAND (AUT)","1037553","2022-12-06 18:00","2022","12","06","18:00","4.8","","","M","","M","0.0","","12","","15","","","","100.67","","","","","","NA"
"-127.94","50.11","SOLANDER ISLAND (AUT)","1037553","2022-12-06 19:00","2022","12","06","19:00","4.8","","","M","","M","0.0","","11","","23","","","","100.66","","","","","","NA"
"-127.94","50.11","SOLANDER ISLAND (AUT)","1037553","2022-12-06 20:00","2022","12","06","20:00","5.0","","","M","","M","0.0","","11","","26","","","","100.66","","","","","","NA"
"-127.94","50.11","SOLANDER ISLAND (AUT)","1037553","2022-12-06 21:00","2022","12","06","21:00","5.0","","","M","","M","0.2","","11","","24","","","","100.64","","","","","","NA"
"-127.94","50.11","SOLANDER ISLAND (AUT)","1037553","2022-12-06 22:00","2022","12","06","22:00","4.9","","","M","","M","0.0","","13","","23","","","","100.64","","","","","","NA"
"-127.94","50.11","SOLANDER ISLAND (AUT)","1037553","2022-12-06 23:00","2022","12","06","23:00","5.3","","","M","","M","0.2","","16","","37","","","","100.62","","","","","","NA"
"-127.94","50.11","SOLANDER ISLAND (AUT)","1037553","2022-12-07 00:00","2022","12","07","00:00","4.6","","","M","","M","0.0","","11","","42","","","","100.57","","","","","","NA"
"-127.94","50.11","SOLANDER ISLAND (AUT)","1037553","2022-12-07 01:00","2022","12","07","01:00","5.2","","","M","","M","0.0","","12","","52","","","","100.47","","","","","","NA"
"-127.94","50.11","SOLANDER ISLAND (AUT)","1037553","2022-12-07 02:00","2022","12","07","02:00","5.6","","","M","","M","0.2","","12","","51","","","","100.45","","","","","","NA"
"-127.94","50.11","SOLANDER ISLAND (AUT)","1037553","2022-12-07 03:00","2022","12","07","03:00","5.1","","","M","","M","0.0","","12","","51","","","","100.40","","","","","","NA"
"-127.94","50.11","SOLANDER ISLAND (AUT)","1037553","2022-12-07 04:00","2022","12","07","04:00","4.9","","","M","","M","0.0","","11","","51","","","","100.30","","","","","","NA"
"-127.94","50.11","SOLANDER ISLAND (AUT)","1037553","2022-12-07 05:00","2022","12","07","05:00","4.7","","","M","","M","0.4","","11","","53","","","","100.27","","","","","","NA"
"-127.94","50.11","SOLANDER ISLAND (AUT)","1037553","2022-12-07 06:00","2022","12","07","06:00","5.1","","","M","","M","0.2","","12","","59","","","","100.14","","","","","","NA"
"-127.94","50.11","SOLANDER ISLAND (AUT)","1037553","2022-12-07 07:00","2022","12","07","07:00","5.3","","","M","","M","0.0","","12","","72","","","","100.03","","","","","","NA"
"-127.94","50.11","SOLANDER ISLAND (AUT)","1037553","2022-12-07 08:00","2022","12","07","08:00","5.6","","","M","","M","0.0","","12","","70","","","","99.98","","","","","","NA"
"-127.94","50.11","SOLANDER ISLAND (AUT)","1037553","2022-12-07 09:00","2022","12","07","09:00","5.3","","","M","","M","0.2","","12","","76","","","","99.89","","","","","","NA"
"-127.94","50.11","SOLANDER ISLAND (AUT)","1037553","2022-12-07 10:00","2022","12","07","10:00","5.8","","","M","","M","0.2","","12","","85","","","","99.87","","","","","","NA"
"-127.94","50.11","SOLANDER ISLAND (AUT)","1037553","2022-12-07 11:00","2022","12","07","11:00","5.5","","","M","","M","0.4","","12","","86","","","","99.78","","","","","","NA"
"-127.94","50.11","SOLANDER ISLAND (AUT)","1037553","2022-12-07 12:00","2022","12","07","12:00","5.8","","","M","","M","0.0","","12","","81","","","","99.71","","","","","","NA"
"-127.94","50.11","SOLANDER ISLAND (AUT)","1037553","2022-12-07 13:00","2022","12","07","13:00","5.7","","","M","","M","0.2","","12","","84","","","","99.53","","","","","","NA"
"-127.94","50.11","SOLANDER ISLAND (AUT)","1037553","2022-12-07 14:00","2022","12","07","14:00","5.9","","","M","","M","0.2","","12","","84","","","","99.37","","","","","","NA"
"-127.94","50.11","SOLANDER ISLAND (AUT)","1037553","2022-12-07 15:00","2022","12","07","15:00","6.4","","","M","","M","0.2","","12","","87","","","","99.23","","","","","","NA"
"-127.94","50.11","SOLANDER ISLAND (AUT)","1037553","2022-12-07 16:00","2022","12","07","16:00","6.9","","","M","","M","0.0","","12","","91","","","","99.07","","","","","","NA"
"-127.94","50.11","SOLANDER ISLAND (AUT)","1037553","2022-12-07 17:00","2022","12","07","17:00","6.9","","","M","","M","0.4","","12","","89","","","","98.95","","","","","","NA"
"-127.94","50.11","SOLANDER ISLAND (AUT)","1037553","2022-12-07 18:00","2022","12","07","18:00","7.3","","","M","","M","0.4","","13","","61","","","","98.83","","","","","","NA"
"-127.94","50.11","SOLANDER ISLAND (AUT)","1037553","2022-12-07 19:00","2022","12","07","19:00","7.2","","","M","","M","3.6","","15","","61","","","","98.88","","","","","","NA"
"-127.94","50.11","SOLANDER ISLAND (AUT)","1037553","2022-12-07 20:00","2022","12","07","20:00","6.4","","","M","","M","3.2","","16","","85","","","","98.70","","","","","","NA"
"-127.94","50.11","SOLANDER ISLAND (AUT)","1037553","2022-12-07 21:00","2022","12","07","21:00","6.2","","","M","","M","1.4","","19","","40","","","","99.00","","","","","","NA"
"-127.94","50.11","SOLANDER ISLAND (AUT)","1037553","2022-12-07 22:00","2022","12","07","22:00","6.1","","","M","","M","0.6","","18","","23","","","","99.09","","","","","","NA"
"-127.94","50.11","SOLANDER ISLAND (AUT)","1037553","2022-12-07 23:00","2022","12","07","23:00","6.2","","","M","","M","0.4","","21","","31","","","","99.13","","","","","","NA"
"-127.94","50.11","SOLANDER ISLAND (AUT)","1037553","2022-12-08 00:00","2022","12","08","00:00","6.6","","","M","","M","0.2","","19","","23","","","","99.20","","","","","","NA"
"-127.94","50.11","SOLANDER ISLAND (AUT)","1037553","2022-12-08 01:00","2022","12","08","01:00","6.9","","","M","","M","0.0","","24","","21","","","","99.24","","","","","","NA"
"-127.94","50.11","SOLANDER ISLAND (AUT)","1037553","2022-12-08 02:00","2022","12","08","02:00","6.0","","","M","","M","0.0","","25","","13","","","","99.29","","","","","","NA"
"-127.94","50.11","SOLANDER ISLAND (AUT)","1037553","2022-12-08 03:00","2022","12","08","03:00","4.5","","","M","","M","1.0","","28","","29","","","","99.38","","","","","","NA"
"-127.94","50.11","SOLANDER ISLAND (AUT)","1037553","2022-12-08 04:00","2022","12","08","04:00","5.4","","","M","","M","0.6","","28","","31","","","","99.44","","","","","","NA"
"-127.94","50.11","SOLANDER ISLAND (AUT)","1037553","2022-12-08 05:00","2022","12","08","05:00","5.8","","","M","","M","0.0","","26","","18","","","","99.52","","","","","","NA"
"-127.94","50.11","SOLANDER ISLAND (AUT)","1037553","2022-12-08 06:00","2022","12","08","06:00","4.7","","","M","","M","0.4","","27","","26","","","","99.61","","","","","","NA"
"-127.94","50.11","SOLANDER ISLAND (AUT)","1037553","2022-12-08 07:00","2022","12","08","07:00","4.0","","","M","","M","0.0","","29","","10","","","","99.71","","","","","","NA"
"-127.94","50.11","SOLANDER ISLAND (AUT)","1037553","2022-12-08 08:00","2022","12","08","08:00","4.8","","","M","","M","0.0","","27","","10","","","","99.75","","","","","","NA"
"-127.94","50.11","SOLANDER ISLAND (AUT)","1037553","2022-12-08 09:00","2022","12","08","09:00","4.2","","","M","","M","0.0","","28","","18","","","","99.79","","","","","","NA"
"-127.94","50.11","SOLANDER ISLAND (AUT)","1037553","2022-12-08 10:00","2022","12","08","10:00","4.0","","","M","","M","0.0","","20","","20","","","","99.84","","","","","","NA"
"-127.94","50.11","SOLANDER ISLAND (AUT)","1037553","2022-12-08 11:00","2022","12","08","11:00","3.8","","","M","","M","0.2","","28","","22","","","","99.91","","","","","","NA"
"-127.94","50.11","SOLANDER ISLAND (AUT)","1037553","2022-12-08 12:00","2022","12","08","12:00","5.2","","","M","","M","0.0","","20","","17","","","","99.90","","","","","","NA"
"-127.94","50.11","SOLANDER ISLAND (AUT)","1037553","2022-12-08 13:00","2022","12","08","13:00","4.9","","","M","","M","0.0","","19","","20","","","","99.87","","","","","","NA"
"-127.94","50.11","SOLANDER ISLAND (AUT)","1037553","2022-12-08 14:00","2022","12","08","14:00","5.0","","","M","","M","0.0","","23","","15","","","","99.89","","","","","","NA"
"-127.94","50.11","SOLANDER ISLAND (AUT)","1037553","2022-12-08 15:00","2022","12","08","15:00","4.5","","","M","","M","0.0","","26","","7","","","","99.86","","","","","","NA"
"-127.94","50.11","SOLANDER ISLAND (AUT)","1037553","2022-12-08 16:00","2022","12","08","16:00","4.6","","","M","","M","0.0","","19","","10","","","","99.84","","","","","","NA"
"-127.94","50.11","SOLANDER ISLAND (AUT)","1037553","2022-12-08 17:00","2022","12","08","17:00","3.8","","","M","","M","0.4","","11","","17","","","","99.83","","","","","","NA"
"-127.94","50.11","SOLANDER ISLAND (AUT)","1037553","2022-12-08 18:00","2022","12","08","18:00","3.8","","","M","","M","0.0","","12","","14","","","","99.84","","","","","","NA"
"-127.94","50.11","SOLANDER ISLAND (AUT)","1037553","2022-12-08 19:00","2022","12","08","19:00","5.0","","","M","","M","0.0","","22","","12","","","","99.83","","","","","","NA"
"-127.94","50.11","SOLANDER ISLAND (AUT)","1037553","2022-12-08 20:00","2022","12","08","20:00","3.7","","","M","","M","0.0","","12","","15","","","","99.83","","","","","","NA"
"-127.94","50.11","SOLANDER ISLAND (AUT)","1037553","2022-12-08 21:00","2022","12","08","21:00","3.6","","","M","","M","0.0","","12","","17","","","","99.83","","","","","","NA"
"-127.94","50.11","SOLANDER ISLAND (AUT)","1037553","2022-12-08 22:00","2022","12","08","22:00","3.6","","","M","","M","0.2","","11","","22","","","","99.79","","","","","","NA"
"-127.94","50.11","SOLANDER ISLAND (AUT)","1037553","2022-12-08 23:00","2022","12","08","23:00","3.8","","","M","","M","0.0","","13","","21","","","","99.73","","","","","","NA"
"-127.94","50.11","SOLANDER ISLAND (AUT)","1037553","2022-12-09 00:00","2022","12","09","00:00","3.9","","","M","","M","0.0","","13","","20","","","","99.70","","","","","","NA"
"-127.94","50.11","SOLANDER ISLAND (AUT)","1037553","2022-12-09 01:00","2022","12","09","01:00","5.1","","","M","","M","0.0","","16","","40","","","","99.61","","","","","","NA"
"-127.94","50.11","SOLANDER ISLAND (AUT)","1037553","2022-12-09 02:00","2022","12","09","02:00","5.2","","","M","","M","0.0","","18","","44","","","","99.56","","","","","","NA"
"-127.94","50.11","SOLANDER ISLAND (AUT)","1037553","2022-12-09 03:00","2022","12","09","03:00","5.3","","","M","","M","0.0","","17","","48","","","","99.49","","","","","","NA"
"-127.94","50.11","SOLANDER ISLAND (AUT)","1037553","2022-12-09 04:00","2022","12","09","04:00","5.5","","","M","","M","0.0","","16","","49","","","","99.42","","","","","","NA"
"-127.94","50.11","SOLANDER ISLAND (AUT)","1037553","2022-12-09 05:00","2022","12","09","05:00","3.1","","","M","","M","0.2","","18","","54","","","","99.33","","","","","","NA"
"-127.94","50.11","SOLANDER ISLAND (AUT)","1037553","2022-12-09 06:00","2022","12","09","06:00","4.0","","","M","","M","0.8","","12","","60","","","","99.16","","","","","","NA"
"-127.94","50.11","SOLANDER ISLAND (AUT)","1037553","2022-12-09 07:00","2022","12","09","07:00","4.0","","","M","","M","0.0","","11","","55","","","","99.08","","","","","","NA"
"-127.94","50.11","SOLANDER ISLAND (AUT)","1037553","2022-12-09 08:00","2022","12","09","08:00","4.1","","","M","","M","0.0","","12","","63","","","","98.98","","","","","","NA"
"-127.94","50.11","SOLANDER ISLAND (AUT)","1037553","2022-12-09 09:00","2022","12","09","09:00","3.5","","","M","","M","0.0","","11","","65","","","","98.94","","","","","","NA"
"-127.94","50.11","SOLANDER ISLAND (AUT)","1037553","2022-12-09 10:00","2022","12","09","10:00","3.9","","","M","","M","0.0","","11","","65","","","","98.83","","","","","","NA"
"-127.94","50.11","SOLANDER ISLAND (AUT)","1037553","2022-12-09 11:00","2022","12","09","11:00","4.7","","","M","","M","0.2","","11","","81","","","","98.58","","","","","","NA"
"-127.94","50.11","SOLANDER ISLAND (AUT)","1037553","2022-12-09 12:00","2022","12","09","12:00","5.0","","","M","","M","0.0","","11","","81","","","","98.34","","","","","","NA"
"-127.94","50.11","SOLANDER ISLAND (AUT)","1037553","2022-12-09 13:00","2022","12","09","13:00","4.1","","","M","","M","0.0","","11","","75","","","","98.20","","","","","","NA"
"-127.94","50.11","SOLANDER ISLAND (AUT)","1037553","2022-12-09 14:00","2022","12","09","14:00","4.1","","","M","","M","0.0","","11","","67","","","","98.11","","","","","","NA"
"-127.94","50.11","SOLANDER ISLAND (AUT)","1037553","2022-12-09 15:00","2022","12","09","15:00","4.9","","","M","","M","0.0","","11","","63","","","","97.90","","","","","","NA"
"-127.94","50.11","SOLANDER ISLAND (AUT)","1037553","2022-12-09 16:00","2022","12","09","16:00","5.3","","","M","","M","0.0","","11","","63","","","","97.66","","","","","","NA"
"-127.94","50.11","SOLANDER ISLAND (AUT)","1037553","2022-12-09 17:00","2022","12","09","17:00","4.8","","","M","","M","0.0","","11","","73","","","","97.52","","","","","","NA"
"-127.94","50.11","SOLANDER ISLAND (AUT)","1037553","2022-12-09 18:00","2022","12","09","18:00","4.5","","","M","","M","0.0","","11","","64","","","","97.42","","","","","","NA"
"-127.94","50.11","SOLANDER ISLAND (AUT)","1037553","2022-12-09 19:00","2022","12","09","19:00","4.8","","","M","","M","0.2","","11","","65","","","","97.32","","","","","","NA"
"-127.94","50.11","SOLANDER ISLAND (AUT)","1037553","2022-12-09 20:00","2022","12","09","20:00","4.9","","","M","","M","0.0","","11","","64","","","","97.21","","","","","","NA"
"-127.94","50.11","SOLANDER ISLAND (AUT)","1037553","2022-12-09 21:00","2022","12","09","21:00","5.2","","","M","","M","0.2","","12","","75","","","","97.12","","","","","","NA"
"-127.94","50.11","SOLANDER ISLAND (AUT)","1037553","2022-12-09 22:00","2022","12","09","22:00","5.6","","","M","","M","0.0","","12","","80","","","","97.07","","","","","","NA"
"-127.94","50.11","SOLANDER ISLAND (AUT)","1037553","2022-12-09 23:00","2022","12","09","23:00","6.1","","","M","","M","0.0","","11","","65","","","","97.08","","","","","","NA"
"-127.94","50.11","SOLANDER ISLAND (AUT)","1037553","2022-12-10 00:00","2022","12","10","00:00","6.2","","","M","","M","0.0","","11","","62","","","","97.12","","","","","","NA"
"-127.94","50.11","SOLANDER ISLAND (AUT)","1037553","2022-12-10 01:00","2022","12","10","01:00","6.0","","","M","","M","0.0","","11","","55","","","","97.08","","","","","","NA"
"-127.94","50.11","SOLANDER ISLAND (AUT)","1037553","2022-12-10 02:00","2022","12","10","02:00","5.4","","","M","","M","0.0","","11","","54","","","","97.07","","","","","","NA"
"-127.94","50.11","SOLANDER ISLAND (AUT)","1037553","2022-12-10 03:00","2022","12","10","03:00","6.2","","","M","","M","0.2","","11","","57","","","","97.06","","","","","","NA"
"-127.94","50.11","SOLANDER ISLAND (AUT)","1037553","2022-12-10 04:00","2022","12","10","04:00","6.0","","","M","","M","0.0","","11","","45","","","","97.12","","","","","","NA"
"-127.94","50.11","SOLANDER ISLAND (AUT)","1037553","2022-12-10 05:00","2022","12","10","05:00","6.7","","","M","","M","0.0","","11","","47","","","","97.13","","","","","","NA"
"-127.94","50.11","SOLANDER ISLAND (AUT)","1037553","2022-12-10 06:00","2022","12","10","06:00","6.1","","","M","","M","0.4","","11","","51","","","","97.17","","","","","","NA"
"-127.94","50.11","SOLANDER ISLAND (AUT)","1037553","2022-12-10 07:00","2022","12","10","07:00","6.1","","","M","","M","0.0","","11","","47","","","","97.26","","","","","","NA"
"-127.94","50.11","SOLANDER ISLAND (AUT)","1037553","2022-12-10 08:00","2022","12","10","08:00","6.4","","","M","","M","0.0","","11","","52","","","","97.31","","","","","","NA"
"-127.94","50.11","SOLANDER ISLAND (AUT)","1037553","2022-12-10 09:00","2022","12","10","09:00","6.8","","","M","","M","0.0","","11","","48","","","","97.40","","","","","","NA"
"-127.94","50.11","SOLANDER ISLAND (AUT)","1037553","2022-12-10 10:00","2022","12","10","10:00","7.0","","","M","","M","0.0","","10","","33","","","","97.57","","","","","","NA"
"-127.94","50.11","SOLANDER ISLAND (AUT)","1037553","2022-12-10 11:00","2022","12","10","11:00","7.3","","","M","","M","0.0","","10","","28","","","","97.69","","","","","","NA"
"-127.94","50.11","SOLANDER ISLAND (AUT)","1037553","2022-12-10 12:00","2022","12","10","12:00","8.1","","","M","","M","0.0","","9","","21","","","","97.76","","","","","","NA"
"-127.94","50.11","SOLANDER ISLAND (AUT)","1037553","2022-12-10 13:00","2022","12","10","13:00","8.9","","","M","","M","0.0","","9","","23","","","","97.82","","","","","","NA"
"-127.94","50.11","SOLANDER ISLAND (AUT)","1037553","2022-12-10 14:00","2022","12","10","14:00","7.8","","","M","","M","0.0","","3","","17","","","","97.91","","","","","","NA"
"-127.94","50.11","SOLANDER ISLAND (AUT)","1037553","2022-12-10 15:00","2022","12","10","15:00","7.4","","","M","","M","0.0","","2","","16","","","","97.99","","","","","","NA"
"-127.94","50.11","SOLANDER ISLAND (AUT)","1037553","2022-12-10 16:00","2022","12","10","16:00","7.4","","","M","","M","0.0","","1","","19","","","","98.10","","","","","","NA"
"-127.94","50.11","SOLANDER ISLAND (AUT)","1037553","2022-12-10 17:00","2022","12","10","17:00","7.7","","","M","","M","0.0","","1","","16","","","","98.23","","","","","","NA"
"-127.94","50.11","SOLANDER ISLAND (AUT)","1037553","2022-12-10 18:00","2022","12","10","18:00","6.9","","","M","","M","0.0","","11","","16","","","","98.35","","","","","","NA"
"-127.94","50.11","SOLANDER ISLAND (AUT)","1037553","2022-12-10 19:00","2022","12","10","19:00","7.3","","","M","","M","0.0","","15","","5","","","","98.47","","","","","","NA"
"-127.94","50.11","SOLANDER ISLAND (AUT)","1037553","2022-12-10 20:00","2022","12","10","20:00","6.7","","","M","","M","0.2","","2","","2","","","","98.59","","","","","","NA"
"-127.94","50.11","SOLANDER ISLAND (AUT)","1037553","2022-12-10 21:00","2022","12","10","21:00","6.2","","","M","","M","1.4","","34","","4","","","","98.71","","","","","","NA"
"-127.94","50.11","SOLANDER ISLAND (AUT)","1037553","2022-12-10 22:00","2022","12","10","22:00","5.9","","","M","","M","1.8","","33","","12","","","","98.84","","","","","","NA"
"-127.94","50.11","SOLANDER ISLAND (AUT)","1037553","2022-12-10 23:00","2022","12","10","23:00","5.3","","","M","","M","1.8","","36","","23","","","","98.95","","","","","","NA"
"-127.94","50.11","SOLANDER ISLAND (AUT)","1037553","2022-12-11 00:00","2022","12","11","00:00","5.5","","","M","","M","1.2","","1","","27","","","","99.05","","","","","","NA"
"-127.94","50.11","SOLANDER ISLAND (AUT)","1037553","2022-12-11 01:00","2022","12","11","01:00","5.4","","","M","","M","0.4","","1","","31","","","","99.10","","","","","","NA"
"-127.94","50.11","SOLANDER ISLAND (AUT)","1037553","2022-12-11 02:00","2022","12","11","02:00","5.0","","","M","","M","0.6","","36","","35","","","","99.18","","","","","","NA"
"-127.94","50.11","SOLANDER ISLAND (AUT)","1037553","2022-12-11 03:00","2022","12","11","03:00","5.1","","","M","","M","0.0","","35","","37","","","","99.29","","","","","","NA"
"-127.94","50.11","SOLANDER ISLAND (AUT)","1037553","2022-12-11 04:00","2022","12","11","04:00","4.9","","","M","","M","0.0","","1","","36","","","","99.32","","","","","","NA"
"-127.94","50.11","SOLANDER ISLAND (AUT)","1037553","2022-12-11 05:00","2022","12","11","05:00","5.2","","","M","","M","0.0","","34","","40","","","","99.42","","","","","","NA"
"-127.94","50.11","SOLANDER ISLAND (AUT)","1037553","2022-12-11 06:00","2022","12","11","06:00","5.1","","","M","","M","0.0","","35","","40","","","","99.51","","","","","","NA"
"-127.94","50.11","SOLANDER ISLAND (AUT)","1037553","2022-12-11 07:00","2022","12","11","07:00","4.8","","","M","","M","0.0","","35","","44","","","","99.56","","","","","","NA"
"-127.94","50.11","SOLANDER ISLAND (AUT)","1037553","2022-12-11 08:00","2022","12","11","08:00","4.6","","","M","","M","0.0","","35","","43","","","","99.63","","","","","","NA"
"-127.94","50.11","SOLANDER ISLAND (AUT)","1037553","2022-12-11 09:00","2022","12","11","09:00","4.7","","","M","","M","0.0","","35","","42","","","","99.71","","","","","","NA"
"-127.94","50.11","SOLANDER ISLAND (AUT)","1037553","2022-12-11 10:00","2022","12","11","10:00"
"-127.94","50.11","SOLANDER ISLAND (AUT)","1037553","2022-12-11 11:00","2022","12","11","11:00","4.9","","","M","","M","0.0","","36","","39","","","","99.85","","","","","","NA"
"-127.94","50.11","SOLANDER ISLAND (AUT)","1037553","2022-12-11 12:00","2022","12","11","12:00","4.8","","","M","","M","0.0","","36","","40","","","","99.86","","","","","","NA"
"-127.94","50.11","SOLANDER ISLAND (AUT)","1037553","2022-12-11 13:00","2022","12","11","13:00","4.9","","","M","","M","0.0","","35","","42","","","","99.88","","","","","","NA"
"-127.94","50.11","SOLANDER ISLAND (AUT)","1037553","2022-12-11 14:00","2022","12","11","14:00","5.2","","","M","","M","0.0","","35","","37","","","","99.92","","","","","","NA"
"-127.94","50.11","SOLANDER ISLAND (AUT)","1037553","2022-12-11 15:00","2022","12","11","15:00","4.8","","","M","","M","0.0","","35","","39","","","","99.95","","","","","","NA"
"-127.94","50.11","SOLANDER ISLAND (AUT)","1037553","2022-12-11 16:00","2022","12","11","16:00","4.9","","","M","","M","0.0","","34","","38","","","","99.99","","","","","","NA"
"-127.94","50.11","SOLANDER ISLAND (AUT)","1037553","2022-12-11 17:00","2022","12","11","17:00","4.6","","","M","","M","0.0","","36","","44","","","","100.06","","","","","","NA"
"-127.94","50.11","SOLANDER ISLAND (AUT)","1037553","2022-12-11 18:00","2022","12","11","18:00","4.1","","","M","","M","0.0","","35","","46","","","","100.11","","","","","","NA"
"-127.94","50.11","SOLANDER ISLAND (AUT)","1037553","2022-12-11 19:00","2022","12","11","19:00","4.0","","","M","","M","0.0","","1","","43","","","","100.15","","","","","","NA"
"-127.94","50.11","SOLANDER ISLAND (AUT)","1037553","2022-12-11 20:00","2022","12","11","20:00","3.9","","","M","","M","0.0","","36","","42","","","","100.20","","","","","","NA"
"-127.94","50.11","SOLANDER ISLAND (AUT)","1037553","2022-12-11 21:00","2022","12","11","21:00","3.4","","","M","","M","0.0","","2","","40","","","","100.21","","","","","","NA"
"-127.94","50.11","SOLANDER ISLAND (AUT)","1037553","2022-12-11 22:00","2022","12","11","22:00","3.6","","","M","","M","0.0","","1","","37","","","","100.25","","","","","","NA"
"-127.94","50.11","SOLANDER ISLAND (AUT)","1037553","2022-12-11 23:00","2022","12","11","23:00","3.5","","","M","","M","0.0","","36","","35","","","","100.31","","","","","","NA"
"-127.94","50.11","SOLANDER ISLAND (AUT)","1037553","2022-12-12 00:00","2022","12","12","00:00","3.5","","","M","","M","0.0","","35","","35","","","","100.33","","","","","","NA"
"-127.94","50.11","SOLANDER ISLAND (AUT)","1037553","2022-12-12 01:00","2022","12","12","01:00","3.4","","","M","","M","0.0","","35","","30","","","","100.39","","","","","","NA"
"-127.94","50.11","SOLANDER ISLAND (AUT)","1037553","2022-12-12 02:00","2022","12","12","02:00","3.3","","","M","","M","0.0","","1","","32","","","","100.40","","","","","","NA"
"-127.94","50.11","SOLANDER ISLAND (AUT)","1037553","2022-12-12 03:00","2022","12","12","03:00","3.2","","","M","","M","0.0","","1","","27","","","","100.47","","","","","","NA"
"-127.94","50.11","SOLANDER ISLAND (AUT)","1037553","2022-12-12 04:00","2022","12","12","04:00","3.3","","","M","","M","0.0","","36","","29","","","","100.51","","","","","","NA"
"-127.94","50.11","SOLANDER ISLAND (AUT)","1037553","2022-12-12 05:00","2022","12","12","05:00","3.0","","","M","","M","0.0","","1","","28","","","","100.54","","","","","","NA"
"-127.94","50.11","SOLANDER ISLAND (AUT)","1037553","2022-12-12 06:00","2022","12","12","06:00","3.0","","","M","","M","0.0","","1","","28","","","","100.54","","","","","","NA"
"-127.94","50.11","SOLANDER ISLAND (AUT)","1037553","2022-12-12 07:00","2022","12","12","07:00","2.5","","","M","","M","0.0","","3","","15","","","","100.62","","","","","","NA"
"-127.94","50.11","SOLANDER ISLAND (AUT)","1037553","2022-12-12 08:00","2022","12","12","08:00","2.9","","","M","","M","0.0","","32","","9","","","","100.63","","","","","","NA"
"-127.94","50.11","SOLANDER ISLAND (AUT)","1037553","2022-12-12 09:00","2022","12","12","09:00","3.6","","","M","","M","0.0","","29","","6","","","","100.70","","","","","","NA"
"-127.94","50.11","SOLANDER ISLAND (AUT)","1037553","2022-12-12 10:00","2022","12","12","10:00","4.5","","","M","","M","0.0","","2","","5","","","","100.72","","","","","","NA"
"-127.94","50.11","SOLANDER ISLAND (AUT)","1037553","2022-12-12 11:00","2022","12","12","11:00","5.9","","","M","","M","0.0","","21","","2","","","","100.76","","","","","","NA"
"-127.94","50.11","SOLANDER ISLAND (AUT)","1037553","2022-12-12 12:00","2022","12","12","12:00","5.9","","","M","","M","0.0","","18","","4","","","","100.79","","","","","","NA"
"-127.94","50.11","SOLANDER ISLAND (AUT)","1037553","2022-12-12 13:00","2022","12","12","13:00","5.7","","","M","","M","0.0","","19","","3","","","","100.79","","","","","","NA"
"-127.94","50.11","SOLANDER ISLAND (AUT)","1037553","2022-12-12 14:00","2022","12","12","14:00","5.0","","","M","","M","0.0","","21","","2","","","","100.79","","","","","","NA"
"-127.94","50.11","SOLANDER ISLAND (AUT)","1037553","2022-12-12 15:00","2022","12","12","15:00","4.6","","","M","","M","0.0","","15","","2","","","","100.82","","","","","","NA"
"-127.94","50.11","SOLANDER ISLAND (AUT)","1037553","2022-12-12 16:00","2022","12","12","16:00","4.5","","","M","","M","0.0","","14","","3","","","","100.84","","","","","","NA"
"-127.94","50.11","SOLANDER ISLAND (AUT)","1037553","2022-12-12 17:00","2022","12","12","17:00","4.6","","","M","","M","0.0","","16","","6","","","","100.88","","","","","","NA"
"-127.94","50.11","SOLANDER ISLAND (AUT)","1037553","2022-12-12 18:00","2022","12","12","18:00","4.6","","","M","","M","0.0","","7","","2","","","","100.90","","","","","","NA"
"-127.94","50.11","SOLANDER ISLAND (AUT)","1037553","2022-12-12 19:00","2022","12","12","19:00","4.7","","","M","","M","0.0","","9","","3","","","","100.89","","","","","","NA"
"-127.94","50.11","SOLANDER ISLAND (AUT)","1037553","2022-12-12 20:00","2022","12","12","20:00","4.6","","","M","","M","0.0","","12","","10","","","","100.88","","","","","","NA"
"-127.94","50.11","SOLANDER ISLAND (AUT)","1037553","2022-12-12 21:00","2022","12","12","21:00","4.7","","","M","","M","0.0","","14","","6","","","","100.95","","","","","","NA"
"-127.94","50.11","SOLANDER ISLAND (AUT)","1037553","2022-12-12 22:00","2022","12","12","22:00","4.8","","","M","","M","0.0","","12","","8","","","","100.95","","","","","","NA"
"-127.94","50.11","SOLANDER ISLAND (AUT)","1037553","2022-12-12 23:00","2022","12","12","23:00","4.9","","","M","","M","0.0","","10","","7","","","","100.98","","","","","","NA"
"-127.94","50.11","SOLANDER ISLAND (AUT)","1037553","2022-12-13 00:00","2022","12","13","00:00","5.1","","","M","","M","0.0","","14","","6","","","","101.01","","","","","","NA"
"-127.94","50.11","SOLANDER ISLAND (AUT)","1037553","2022-12-13 01:00","2022","12","13","01:00","5.0","","","M","","M","0.0","","12","","6","","","","101.03","","","","","","NA"
"-127.94","50.11","SOLANDER ISLAND (AUT)","1037553","2022-12-13 02:00","2022","12","13","02:00","5.0","","","M","","M","0.0","","12","","6","","","","101.06","","","","","","NA"
"-127.94","50.11","SOLANDER ISLAND (AUT)","1037553","2022-12-13 03:00","2022","12","13","03:00","5.0","","","M","","M","0.0","","11","","11","","","","101.05","","","","","","NA"
"-127.94","50.11","SOLANDER ISLAND (AUT)","1037553","2022-12-13 04:00","2022","12","13","04:00","5.2","","","M","","M","0.0","","11","","9","","","","101.09","","","","","","NA"
"-127.94","50.11","SOLANDER ISLAND (AUT)","1037553","2022-12-13 05:00","2022","12","13","05:00","5.4","","","M","","M","0.0","","19","","5","","","","101.10","","","","","","NA"
"-127.94","50.11","SOLANDER ISLAND (AUT)","1037553","2022-12-13 06:00","2022","12","13","06:00","5.4","","","M","","M","0.0","","14","","3","","","","101.12","","","","","","NA"
"-127.94","50.11","SOLANDER ISLAND (AUT)","1037553","2022-12-13 07:00","2022","12","13","07:00","5.5","","","M","","M","0.0","","15","","8","","","","101.14","","","","","","NA"
"-127.94","50.11","SOLANDER ISLAND (AUT)","1037553","2022-12-13 08:00","2022","12","13","08:00","5.1","","","M","","M","0.0","","13","","7","","","","101.16","","","","","","NA"
"-127.94","50.11","SOLANDER ISLAND (AUT)","1037553","2022-12-13 09:00","2022","12","13","09:00","5.0","","","M","","M","0.0","","11","","11","","","","101.19","","","","","","NA"
"-127.94","50.11","SOLANDER ISLAND (AUT)","1037553","2022-12-13 10:00","2022","12","13","10:00","5.1","","","M","","M","0.0","","12","","9","","","","101.24","","","","","","NA"
"-127.94","50.11","SOLANDER ISLAND (AUT)","1037553","2022-12-13 11:00","2022","12","13","11:00","4.8","","","M","","M","0.0","","11","","14","","","","101.26","","","","","","NA"
"-127.94","50.11","SOLANDER ISLAND (AUT)","1037553","2022-12-13 12:00","2022","12","13","12:00","5.5","","","M","","M","0.0","","12","","14","","","","101.24","","","","","","NA"
"-127.94","50.11","SOLANDER ISLAND (AUT)","1037553","2022-12-13 13:00","2022","12","13","13:00","5.6","","","M","","M","0.0","","9","","5","","","","101.28","","","","","","NA"
"-127.94","50.11","SOLANDER ISLAND (AUT)","1037553","2022-12-13 14:00","2022","12","13","14:00","5.1","","","M","","M","0.0","","35","","29","","","","101.26","","","","","","NA"
"-127.94","50.11","SOLANDER ISLAND (AUT)","1037553","2022-12-13 15:00","2022","12","13","15:00","6.0","","","M","","M","0.0","","34","","40","","","","101.27","","","","","","NA"
"-127.94","50.11","SOLANDER ISLAND (AUT)","1037553","2022-12-13 16:00","2022","12","13","16:00","5.9","","","M","","M","0.0","","34","","33","","","","101.28","","","","","","NA"
"-127.94","50.11","SOLANDER ISLAND (AUT)","1037553","2022-12-13 17:00","2022","12","13","17:00","5.8","","","M","","M","0.0","","35","","31","","","","101.31","","","","","","NA"
"-127.94","50.11","SOLANDER ISLAND (AUT)","1037553","2022-12-13 18:00","2022","12","13","18:00","6.0","","","M","","M","0.0","","35","","25","","","","101.33","","","","","","NA"
"-127.94","50.11","SOLANDER ISLAND (AUT)","1037553","2022-12-13 19:00","2022","12","13","19:00","5.8","","","M","","M","0.0","","34","","35","","","","101.34","","","","","","NA"
"-127.94","50.11","SOLANDER ISLAND (AUT)","1037553","2022-12-13 20:00","2022","12","13","20:00","5.5","","","M","","M","0.0","","35","","47","","","","101.34","","","","","","NA"
"-127.94","50.11","SOLANDER ISLAND (AUT)","1037553","2022-12-13 21:00","2022","12","13","21:00","5.1","","","M","","M","0.0","","34","","49","","","","101.38","","","","","","NA"
"-127.94","50.11","SOLANDER ISLAND (AUT)","1037553","2022-12-13 22:00","2022","12","13","22:00","5.1","","","M","","M","0.0","","35","","47","","","","101.43","","","","","","NA"
"-127.94","50.11","SOLANDER ISLAND (AUT)","1037553","2022-12-13 23:00","2022","12","13","23:00","5.1","","","M","","M","0.0","","35","","42","","","","101.49","","","","","","NA"
"-127.94","50.11","SOLANDER ISLAND (AUT)","1037553","2022-12-14 00:00","2022","12","14","00:00","4.9","","","M","","M","0.0","","1","","42","","","","101.51","","","","","","NA"
"-127.94","50.11","SOLANDER ISLAND (AUT)","1037553","2022-12-14 01:00","2022","12","14","01:00","4.9","","","M","","M","0.0","","36","","46","","","","101.53","","","","","","NA"
"-127.94","50.11","SOLANDER ISLAND (AUT)","1037553","2022-12-14 02:00","2022","12","14","02:00","4.7","","","M","","M","0.0","","1","","49","","","","101.59","","","","","","NA"
"-127.94","50.11","SOLANDER ISLAND (AUT)","1037553","2022-12-14 03:00","2022","12","14","03:00","4.5","","","M","","M","0.0","","1","","45","","","","101.63","","","","","","NA"
"-127.94","50.11","SOLANDER ISLAND (AUT)","1037553","2022-12-14 04:00","2022","12","14","04:00","4.5","","","M","","M","0.0","","36","","44","","","","101.67","","","","","","NA"
"-127.94","50.11","SOLANDER ISLAND (AUT)","1037553","2022-12-14 05:00","2022","12","14","05:00","4.5","","","M","","M","0.0","","36","","40","","","","101.70","","","","","","NA"
"-127.94","50.11","SOLANDER ISLAND (AUT)","1037553","2022-12-14 06:00","2022","12","14","06:00","4.5","","","M","","M","0.0","","36","","39","","","","101.72","","","","","","NA"
"-127.94","50.11","SOLANDER ISLAND (AUT)","1037553","2022-12-14 07:00","2022","12","14","07:00","4.2","","","M","","M","0.0","","35","","35","","","","101.74","","","","","","NA"
"-127.94","50.11","SOLANDER ISLAND (AUT)","1037553","2022-12-14 08:00","2022","12","14","08:00","4.3","","","M","","M","0.0","","35","","29","","","","101.81","","","","","","NA"
"-127.94","50.11","SOLANDER ISLAND (AUT)","1037553","2022-12-14 09:00","2022","12","14","09:00","4.3","","","M","","M","0.0","","35","","32","","","","101.86","","","","","","NA"
"-127.94","50.11","SOLANDER ISLAND (AUT)","1037553","2022-12-14 10:00","2022","12","14","10:00","4.4","","","M","","M","0.0","","36","","25","","","","101.90","","","","","","NA"
"-127.94","50.11","SOLANDER ISLAND (AUT)","1037553","2022-12-14 11:00","2022","12","14","11:00","4.4","","","M","","M","0.0","","35","","33","","","","101.93","","","","","","NA"
"-127.94","50.11","SOLANDER ISLAND (AUT)","1037553","2022-12-14 12:00","2022","12","14","12:00","4.7","","","M","","M","0.0","","36","","32","","","","101.92","","","","","","NA"
"-127.94","50.11","SOLANDER ISLAND (AUT)","1037553","2022-12-14 13:00","2022","12","14","13:00","5.0","","","M","","M","0.0","","34","","32","","","","101.89","","","","","","NA"
"-127.94","50.11","SOLANDER ISLAND (AUT)","1037553","2022-12-14 14:00","2022","12","14","14:00","5.1","","","M","","M","0.0","","34","","37","","","","101.90","","","","","","NA"
"-127.94","50.11","SOLANDER ISLAND (AUT)","1037553","2022-12-14 15:00","2022","12","14","15:00","5.7","","","M","","M","0.0","","34","","34","","","","101.89","","","","","","NA"
"-127.94","50.11","SOLANDER ISLAND (AUT)","1037553","2022-12-14 16:00","2022","12","14","16:00","5.9","","","M","","M","0.0","","36","","40","","","","101.91","","","","","","NA"
"-127.94","50.11","SOLANDER ISLAND (AUT)","1037553","2022-12-14 17:00","2022","12","14","17:00","5.9","","","M","","M","0.0","","35","","37","","","","101.94","","","","","","NA"
"-127.94","50.11","SOLANDER ISLAND (AUT)","1037553","2022-12-14 18:00","2022","12","14","18:00","5.8","","","M","","M","0.0","","36","","35","","","","101.98","","","","","","NA"
"-127.94","50.11","SOLANDER ISLAND (AUT)","1037553","2022-12-14 19:00","2022","12","14","19:00"
"-127.94","50.11","SOLANDER ISLAND (AUT)","1037553","2022-12-14 20:00","2022","12","14","20:00","6.0","","","M","","M","0.0","","35","","33","","","","102.05","","","","","","NA"
"-127.94","50.11","SOLANDER ISLAND (AUT)","1037553","2022-12-14 21:00","2022","12","14","21:00","5.9","","","M","","M","0.0","","35","","30","","","","102.09","","","","","","NA"
"-127.94","50.11","SOLANDER ISLAND (AUT)","1037553","2022-12-14 22:00","2022","12","14","22:00","6.1","","","M","","M","0.0","","36","","31","","","","102.09","","","","","","NA"
"-127.94","50.11","SOLANDER ISLAND (AUT)","1037553","2022-12-14 23:00","2022","12","14","23:00","5.7","","","M","","M","0.0","","36","","36","","","","102.10","","","","","","NA"
"-127.94","50.11","SOLANDER ISLAND (AUT)","1037553","2022-12-15 00:00","2022","12","15","00:00","5.3","","","M","","M","0.0","","8","","9","","","","102.19","","","","","","NA"
"-127.94","50.11","SOLANDER ISLAND (AUT)","1037553","2022-12-15 01:00","2022","12","15","01:00","5.0","","","M","","M","0.0","","12","","13","","","","102.17","","","","","","NA"
"-127.94","50.11","SOLANDER ISLAND (AUT)","1037553","2022-12-15 02:00","2022","12","15","02:00","5.4","","","M","","M","0.0","","31","","9","","","","102.18","","","","","","NA"
"-127.94","50.11","SOLANDER ISLAND (AUT)","1037553","2022-12-15 03:00","2022","12","15","03:00","5.6","","","M","","M","0.0","","1","","24","","","","102.17","","","","","","NA"
"-127.94","50.11","SOLANDER ISLAND (AUT)","1037553","2022-12-15 04:00","2022","12","15","04:00","5.1","","","M","","M","0.0","","36","","22","","","","102.19","","","","","","NA"
"-127.94","50.11","SOLANDER ISLAND (AUT)","1037553","2022-12-15 05:00","2022","12","15","05:00","5.5","","","M","","M","0.0","","1","","30","","","","102.17","","","","","","NA"
"-127.94","50.11","SOLANDER ISLAND (AUT)","1037553","2022-12-15 06:00","2022","12","15","06:00","6.4","","","M","","M","0.0","","2","","27","","","","102.15","","","","","","NA"
"-127.94","50.11","SOLANDER ISLAND (AUT)","1037553","2022-12-15 07:00","2022","12","15","07:00","7.0","","","M","","M","0.0","","2","","21","","","","102.16","","","","","","NA"
"-127.94","50.11","SOLANDER ISLAND (AUT)","1037553","2022-12-15 08:00","2022","12","15","08:00","5.1","","","M","","M","0.0","","10","","6","","","","102.17","","","","","","NA"
"-127.94","50.11","SOLANDER ISLAND (AUT)","1037553","2022-12-15 09:00","2022","12","15","09:00"
"-127.94","50.11","SOLANDER ISLAND (AUT)","1037553","2022-12-15 10:00","2022","12","15","10:00","8.0","","","M","","M","0.0","","2","","26","","","","102.16","","","","","","NA"
"-127.94","50.11","SOLANDER ISLAND (AUT)","1037553","2022-12-15 11:00","2022","12","15","11:00","9.7","","","M","","M","0.0","","2","","30","","","","102.16","","","","","","NA"
"-127.94","50.11","SOLANDER ISLAND (AUT)","1037553","2022-12-15 12:00","2022","12","15","12:00","8.0","","","M","","M","0.0","","4","","8","","","","102.16","","","","","","NA"
"-127.94","50.11","SOLANDER ISLAND (AUT)","1037553","2022-12-15 13:00","2022","12","15","13:00","8.3","","","M","","M","0.0","","11","","7","","","","102.15","","","","","","NA"
"-127.94","50.11","SOLANDER ISLAND (AUT)","1037553","2022-12-15 14:00","2022","12","15","14:00","9.6","","","M","","M","0.0","","36","","5","","","","102.12","","","","","","NA"
"-127.94","50.11","SOLANDER ISLAND (AUT)","1037553","2022-12-15 15:00","2022","12","15","15:00","9.5","","","M","","M","0.0","","1","","26","","","","102.09","","","","","","NA"
"-127.94","50.11","SOLANDER ISLAND (AUT)","1037553","2022-12-15 16:00","2022","12","15","16:00","8.7","","","M","","M","0.0","","1","","28","","","","102.08","","","","","","NA"
"-127.94","50.11","SOLANDER ISLAND (AUT)","1037553","2022-12-15 17:00","2022","12","15","17:00","8.2","","","M","","M","0.0","","36","","38","","","","102.03","","","","","","NA"
"-127.94","50.11","SOLANDER ISLAND (AUT)","1037553","2022-12-15 18:00","2022","12","15","18:00","7.0","","","M","","M","0.0","","1","","38","","","","102.05","","","","","","NA"
"-127.94","50.11","SOLANDER ISLAND (AUT)","1037553","2022-12-15 19:00","2022","12","15","19:00","7.0","","","M","","M","0.0","","36","","39","","","","102.03","","","","","","NA"
"-127.94","50.11","SOLANDER ISLAND (AUT)","1037553","2022-12-15 20:00","2022","12","15","20:00","6.4","","","M","","M","0.0","","1","","37","","","","102.03","","","","","","NA"
"-127.94","50.11","SOLANDER ISLAND (AUT)","1037553","2022-12-15 21:00","2022","12","15","21:00","6.4","","","M","","M","0.0","","2","","34","","","","102.01","","","","","","NA"
"-127.94","50.11","SOLANDER ISLAND (AUT)","1037553","2022-12-15 22:00","2022","12","15","22:00","6.7","","","M","","M","0.0","","1","","31","","","","102.03","","","","","","NA"
"-127.94","50.11","SOLANDER ISLAND (AUT)","1037553","2022-12-15 23:00","2022","12","15","23:00","7.2","","","M","","M","0.0","","35","","45","","","","102.04","","","","","","NA"
"-127.94","50.11","SOLANDER ISLAND (AUT)","1037553","2022-12-16 00:00","2022","12","16","00:00","6.6","","","M","","M","0.0","","35","","35","","","","102.03","","","","","","NA"
"-127.94","50.11","SOLANDER ISLAND (AUT)","1037553","2022-12-16 01:00","2022","12","16","01:00","6.4","","","M","","M","0.0","","34","","37","","","","102.00","","","","","","NA"
"-127.94","50.11","SOLANDER ISLAND (AUT)","1037553","2022-12-16 02:00","2022","12","16","02:00","6.4","","","M","","M","0.0","","35","","33","","","","101.98","","","","","","NA"
"-127.94","50.11","SOLANDER ISLAND (AUT)","1037553","2022-12-16 03:00","2022","12","16","03:00","6.9","","","M","","M","0.0","","35","","32","","","","101.98","","","","","","NA"
"-127.94","50.11","SOLANDER ISLAND (AUT)","1037553","2022-12-16 04:00","2022","12","16","04:00","5.8","","","M","","M","0.0","","33","","41","","","","101.94","","","","","","NA"
"-127.94","50.11","SOLANDER ISLAND (AUT)","1037553","2022-12-16 05:00","2022","12","16","05:00","6.1","","","M","","M","0.0","","35","","35","","","","101.88","","","","","","NA"
"-127.94","50.11","SOLANDER ISLAND (AUT)","1037553","2022-12-16 06:00","2022","12","16","06:00","5.5","","","M","","M","0.0","","35","","33","","","","101.86","","","","","","NA"
"-127.94","50.11","SOLANDER ISLAND (AUT)","1037553","2022-12-16 07:00","2022","12","16","07:00","5.8","","","M","","M","0.0","","1","","30","","","","101.83","","","","","","NA"
"-127.94","50.11","SOLANDER ISLAND (AUT)","1037553","2022-12-16 08:00","2022","12","16","08:00","5.6","","","M","","M","0.0","","36","","34","","","","101.79","","","","","","NA"
"-127.94","50.11","SOLANDER ISLAND (AUT)","1037553","2022-12-16 09:00","2022","12","16","09:00","5.8","","","M","","M","0.0","","36","","28","","","","101.78","","","","","","NA"
"-127.94","50.11","SOLANDER ISLAND (AUT)","1037553","2022-12-16 10:00","2022","12","16","10:00","6.0","","","M","","M","0.0","","36","","38","","","","101.77","","","","","","NA"
"-127.94","50.11","SOLANDER ISLAND (AUT)","1037553","2022-12-16 11:00","2022","12","16","11:00","5.6","","","M","","M","0.0","","36","","32","","","","101.76","","","","","","NA"
"-127.94","50.11","SOLANDER ISLAND (AUT)","1037553","2022-12-16 12:00","2022","12","16","12:00","5.6","","","M","","M","0.0","","36","","33","","","","101.71","","","","","","NA"
"-127.94","50.11","SOLANDER ISLAND (AUT)","1037553","2022-12-16 13:00","2022","12","16","13:00","5.7","","","M","","M","0.0","","1","","33","","","","101.66","","","","","","NA"
"-127.94","50.11","SOLANDER ISLAND (AUT)","1037553","2022-12-16 14:00","2022","12","16","14:00","6.0","","","M","","M","0.0","","1","","32","","","","101.57","","","","","","NA"
"-127.94","50.11","SOLANDER ISLAND (AUT)","1037553","2022-12-16 15:00","2022","12","16","15:00","6.5","","","M","","M","0.0","","35","","39","","","","101.50","","","","","","NA"
"-127.94","50.11","SOLANDER ISLAND (AUT)","1037553","2022-12-16 16:00","2022","12","16","16:00","6.6","","","M","","M","0.0","","34","","35","","","","101.45","","","","","","NA"
"-127.94","50.11","SOLANDER ISLAND (AUT)","1037553","2022-12-16 17:00","2022","12","16","17:00","5.8","","","M","","M","0.0","","33","","41","","","","101.40","","","","","","NA"
"-127.94","50.11","SOLANDER ISLAND (AUT)","1037553","2022-12-16 18:00","2022","12","16","18:00","5.4","","","M","","M","0.0","","34","","39","","","","101.34","","","","","","NA"
"-127.94","50.11","SOLANDER ISLAND (AUT)","1037553","2022-12-16 19:00","2022","12","16","19:00","4.9","","","M","","M","0.0","","34","","41","","","","101.29","","","","","","NA"
"-127.94","50.11","SOLANDER ISLAND (AUT)","1037553","2022-12-16 20:00","2022","12","16","20:00","4.6","","","M","","M","0.0","","33","","48","","","","101.22","","","","","","NA"
"-127.94","50.11","SOLANDER ISLAND (AUT)","1037553","2022-12-16 21:00","2022","12","16","21:00","4.6","","","M","","M","0.0","","34","","46","","","","101.24","","","","","","NA"
"-127.94","50.11","SOLANDER ISLAND (AUT)","1037553","2022-12-16 22:00","2022","12","16","22:00","4.4","","","M","","M","0.0","","34","","40","","","","101.17","","","","","","NA"
"-127.94","50.11","SOLANDER ISLAND (AUT)","1037553","2022-12-16 23:00","2022","12","16","23:00","4.4","","","M","","M","0.0","","34","","41","","","","101.16","","","","","","NA"
"-127.94","50.11","SOLANDER ISLAND (AUT)","1037553","2022-12-17 00:00","2022","12","17","00:00","4.5","","","M","","M","0.0","","34","","43","","","","101.10","","","","","","NA"
"-127.94","50.11","SOLANDER ISLAND (AUT)","1037553","2022-12-17 01:00","2022","12","17","01:00","4.6","","","M","","M","0.0","","1","","41","","","","101.07","","","","","","NA"
"-127.94","50.11","SOLANDER ISLAND (AUT)","1037553","2022-12-17 02:00","2022","12","17","02:00","4.8","","","M","","M","0.0","","36","","39","","","","101.02","","","","","","NA"
"-127.94","50.11","SOLANDER ISLAND (AUT)","1037553","2022-12-17 03:00","2022","12","17","03:00","5.1","","","M","","M","0.0","","1","","41","","","","100.95","","","","","","NA"
"-127.94","50.11","SOLANDER ISLAND (AUT)","1037553","2022-12-17 04:00","2022","12","17","04:00","5.4","","","M","","M","0.0","","34","","32","","","","100.92","","","","","","NA"
"-127.94","50.11","SOLANDER ISLAND (AUT)","1037553","2022-12-17 05:00","2022","12","17","05:00","5.3","","","M","","M","0.0","","35","","27","","","","100.86","","","","","","NA"
"-127.94","50.11","SOLANDER ISLAND (AUT)","1037553","2022-12-17 06:00","2022","12","17","06:00","4.7","","","M","","M","0.4","","34","","36","","","","100.77","","","","","","NA"
"-127.94","50.11","SOLANDER ISLAND (AUT)","1037553","2022-12-17 07:00","2022","12","17","07:00","5.0","","","M","","M","0.0","","34","","36","","","","100.72","","","","","","NA"
"-127.94","50.11","SOLANDER ISLAND (AUT)","1037553","2022-12-17 08:00","2022","12","17","08:00","4.9","","","M","","M","0.0","","36","","32","","","","100.67","","","","","","NA"
"-127.94","50.11","SOLANDER ISLAND (AUT)","1037553","2022-12-17 09:00","2022","12","17","09:00","4.8","","","M","","M","0.0","","36","","27","","","","100.66","","","","","","NA"
"-127.94","50.11","SOLANDER ISLAND (AUT)","1037553","2022-12-17 10:00","2022","12","17","10:00","5.0","","","M","","M","0.0","","36","","30","","","","100.66","","","","","","NA"
"-127.94","50.11","SOLANDER ISLAND (AUT)","1037553","2022-12-17 11:00","2022","12","17","11:00","5.0","","","M","","M","0.0","","35","","32","","","","100.64","","","","","","NA"
"-127.94","50.11","SOLANDER ISLAND (AUT)","1037553","2022-12-17 12:00","2022","12","17","12:00","5.1","","","M","","M","0.0","","35","","31","","","","100.62","","","","","","NA"
"-127.94","50.11","SOLANDER ISLAND (AUT)","1037553","2022-12-17 13:00","2022","12","17","13:00","4.7","","","M","","M","0.2","","34","","41","","","","100.51","","","","","","NA"
"-127.94","50.11","SOLANDER ISLAND (AUT)","1037553","2022-12-17 14:00","2022","12","17","14:00","4.9","","","M","","M","0.0","","33","","42","","","","100.50","","","","","","NA"
"-127.94","50.11","SOLANDER ISLAND (AUT)","1037553","2022-12-17 15:00","2022","12","17","15:00","4.5","","","M","","M","0.0","","34","","44","","","","100.46","","","","","","NA"
"-127.94","50.11","SOLANDER ISLAND (AUT)","1037553","2022-12-17 16:00","2022","12","17","16:00","4.0","","","M","","M","0.0","","33","","50","","","","100.40","","","","","","NA"
"-127.94","50.11","SOLANDER ISLAND (AUT)","1037553","2022-12-17 17:00","2022","12","17","17:00","3.6","","","M","","M","0.0","","34","","48","","","","100.42","","","","","","NA"
"-127.94","50.11","SOLANDER ISLAND (AUT)","1037553","2022-12-17 18:00","2022","12","17","18:00","3.3","","","M","","M","0.0","","35","","43","","","","100.41","","","","","","NA"
"-127.94","50.11","SOLANDER ISLAND (AUT)","1037553","2022-12-17 19:00","2022","12","17","19:00","3.4","","","M","","M","0.0","","33","","39","","","","100.42","","","","","","NA"
"-127.94","50.11","SOLANDER ISLAND (AUT)","1037553","2022-12-17 20:00","2022","12","17","20:00","3.0","","","M","","M","0.0","","32","","42","","","","100.39","","","","","","NA"
"-127.94","50.11","SOLANDER ISLAND (AUT)","1037553","2022-12-17 21:00","2022","12","17","21:00","3.2","","","M","","M","0.0","","32","","37","","","","100.38","","","","","","NA"
"-127.94","50.11","SOLANDER ISLAND (AUT)","1037553","2022-12-17 22:00","2022","12","17","22:00","2.9","","","M","","M","0.0","","32","","43","","","","100.35","","","","","","NA"
"-127.94","50.11","SOLANDER ISLAND (AUT)","1037553","2022-12-17 23:00","2022","12","17","23:00","2.0","","","M","","M","0.0","","30","","34","","","","100.39","","","","","","NA"
"-127.94","50.11","SOLANDER ISLAND (AUT)","1037553","2022-12-18 00:00","2022","12","18","00:00","2.3","","","M","","M","0.0","","35","","33","","","","100.41","","","","","","NA"
"-127.94","50.11","SOLANDER ISLAND (AUT)","1037553","2022-12-18 01:00","2022","12","18","01:00","1.8","","","M","","M","0.0","","36","","43","","","","100.36","","","","","","NA"
"-127.94","50.11","SOLANDER ISLAND (AUT)","1037553","2022-12-18 02:00","2022","12","18","02:00","1.3","","","M","","M","0.0","","36","","45","","","","100.36","","","","","","NA"
"-127.94","50.11","SOLANDER ISLAND (AUT)","1037553","2022-12-18 03:00","2022","12","18","03:00","0.9","","","M","","M","0.0","","35","","37","","","","100.40","","","","","","NA"
"-127.94","50.11","SOLANDER ISLAND (AUT)","1037553","2022-12-18 04:00","2022","12","18","04:00","0.2","","","M","","M","","","35","","37","","","","100.40","","","","","","NA"
"-127.94","50.11","SOLANDER ISLAND (AUT)","1037553","2022-12-18 05:00","2022","12","18","05:00","-0.2","","","M","","M","","","34","","38","","","","100.36","","","","-7","","NA"
"-127.94","50.11","SOLANDER ISLAND (AUT)","1037553","2022-12-18 06:00","2022","12","18","06:00","-0.6","","","M","","M","","","34","","39","","","","100.31","","","","-8","","NA"
"-127.94","50.11","SOLANDER ISLAND (AUT)","1037553","2022-12-18 07:00","2022","12","18","07:00","-0.9","","","M","","M","","","35","","35","","","","100.31","","","","-8","","NA"
"-127.94","50.11","SOLANDER ISLAND (AUT)","1037553","2022-12-18 08:00","2022","12","18","08:00","-2.3","","","M","","M","","","36","","43","","","","100.32","","","","-11","","NA"
"-127.94","50.11","SOLANDER ISLAND (AUT)","1037553","2022-12-18 09:00","2022","12","18","09:00","-3.1","","","M","","M","","","36","","50","","","","100.32","","","","-12","","NA"
"-127.94","50.11","SOLANDER ISLAND (AUT)","1037553","2022-12-18 10:00","2022","12","18","10:00","-3.2","","","M","","M","","","35","","46","","","","100.35","","","","-12","","NA"
"-127.94","50.11","SOLANDER ISLAND (AUT)","1037553","2022-12-18 11:00","2022","12","18","11:00","-3.4","","","M","","M","","","33","","44","","","","100.35","","","","-12","","NA"
"-127.94","50.11","SOLANDER ISLAND (AUT)","1037553","2022-12-18 12:00","2022","12","18","12:00","-2.6","","","M","","M","","","33","","37","","","","100.35","","","","-11","","NA"
"-127.94","50.11","SOLANDER ISLAND (AUT)","1037553","2022-12-18 13:00","2022","12","18","13:00","-2.5","","","M","","M","","","33","","38","","","","100.34","","","","-11","","NA"
"-127.94","50.11","SOLANDER ISLAND (AUT)","1037553","2022-12-18 14:00","2022","12","18","14:00","-2.0","","","M","","M","","","33","","33","","","","100.38","","","","-9","","NA"
"-127.94","50.11","SOLANDER ISLAND (AUT)","1037553","2022-12-18 15:00","2022","12","18","15:00","-2.7","","","M","","M","","","34","","39","","","","100.38","","","","-11","","NA"
"-127.94","50.11","SOLANDER ISLAND (AUT)","1037553","2022-12-18 16:00","2022","12","18","16:00","-2.8","","","M","","M","","","33","","41","","","","100.45","","","","-11","","NA"
"-127.94","50.11","SOLANDER ISLAND (AUT)","1037553","2022-12-18 17:00","2022","12","18","17:00","-3.0","","","M","","M","","","35","","31","","","","100.49","","","","-11","","NA"
"-127.94","50.11","SOLANDER ISLAND (AUT)","1037553","2022-12-18 18:00","2022","12","18","18:00","-3.3","","","M","","M","","","34","","33","","","","100.53","","","","-11","","NA"
"-127.94","50.11","SOLANDER ISLAND (AUT)","1037553","2022-12-18 19:00","2022","12","18","19:00","-3.4","","","M","","M","","","36","","29","","","","100.55","","","","-11","","NA"
"-127.94","50.11","SOLANDER ISLAND (AUT)","1037553","2022-12-18 20:00","2022","12","18","20:00","-3.4","","","M","","M","","","1","","24","","","","100.62","","","","-10","","NA"
"-127.94","50.11","SOLANDER ISLAND (AUT)","1037553","2022-12-18 21:00","2022","12","18","21:00","-3.5","","","M","","M","","","36","","23","","","","100.66","","","","-10","","NA"
"-127.94","50.11","SOLANDER ISLAND (AUT)","1037553","2022-12-18 22:00","2022","12","18","22:00","-3.4","","","M","","M","","","1","","22","","","","100.73","","","","-10","","NA"
"-127.94","50.11","SOLANDER ISLAND (AUT)","1037553","2022-12-18 23:00","2022","12","18","23:00","-3.6","","","M","","M","","","36","","21","","","","100.81","","","","-10","","NA"
"-127.94","50.11","SOLANDER ISLAND (AUT)","1037553","2022-12-19 00:00","2022","12","19","00:00","-3.6","","","M","","M","","","36","","21","","","","100.86","","","","-10","","NA"
"-127.94","50.11","SOLANDER ISLAND (AUT)","1037553","2022-12-19 01:00","2022","12","19","01:00","-3.5","","","M","","M","","","35","","25","","","","100.86","","","","-10","","NA"
"-127.94","50.11","SOLANDER ISLAND (AUT)","1037553","2022-12-19 02:00","2022","12","19","02:00","-3.6","","","M","","M","","","36","","22","","","","100.91","","","","-10","","NA"
"-127.94","50.11","SOLANDER ISLAND (AUT)","1037553","2022-12-19 03:00","2022","12","19","03:00","-3.8","","","M","","M","","","1","","33","","","","100.93","","","","-12","","NA"
"-127.94","50.11","SOLANDER ISLAND (AUT)","1037553","2022-12-19 04:00","2022","12","19","04:00","-3.9","","","M","","M","","","36","","27","","","","100.96","","","","-11","","NA"
"-127.94","50.11","SOLANDER ISLAND (AUT)","1037553","2022-12-19 05:00","2022","12","19","05:00","-4.1","","","M","","M","","","35","","27","","","","101.00","","","","-11","","NA"
"-127.94","50.11","SOLANDER ISLAND (AUT)","1037553","2022-12-19 06:00","2022","12","19","06:00","-4.1","","","M","","M","","","36","","20","","","","101.02","","","","-10","","NA"
"-127.94","50.11","SOLANDER ISLAND (AUT)","1037553","2022-12-19 07:00","2022","12","19","07:00","-4.2","","","M","","M","","","36","","15","","","","100.99","","","","-10","","NA"
"-127.94","50.11","SOLANDER ISLAND (AUT)","1037553","2022-12-19 08:00","2022","12","19","08:00","-3.6","","","M","","M","","","18","","9","","","","101.03","","","","-7","","NA"
"-127.94","50.11","SOLANDER ISLAND (AUT)","1037553","2022-12-19 09:00","2022","12","19","09:00","-3.3","","","M","","M","","","13","","4","","","","101.07","","","","-5","","NA"
"-127.94","50.11","SOLANDER ISLAND (AUT)","1037553","2022-12-19 10:00","2022","12","19","10:00","-2.8","","","M","","M","","","18","","11","","","","101.11","","","","-7","","NA"
"-127.94","50.11","SOLANDER ISLAND (AUT)","1037553","2022-12-19 11:00","2022","12","19","11:00","-2.3","","","M","","M","","","19","","12","","","","101.16","","","","-7","","NA"
"-127.94","50.11","SOLANDER ISLAND (AUT)","1037553","2022-12-19 12:00","2022","12","19","12:00","-2.1","","","M","","M","","","16","","13","","","","101.12","","","","-7","","NA"
"-127.94","50.11","SOLANDER ISLAND (AUT)","1037553","2022-12-19 13:00","2022","12","19","13:00","-1.7","","","M","","M","","","16","","10","","","","101.11","","","","-5","","NA"
"-127.94","50.11","SOLANDER ISLAND (AUT)","1037553","2022-12-19 14:00","2022","12","19","14:00","-1.5","","","M","","M","","","15","","7","","","","101.08","","","","-4","","NA"
"-127.94","50.11","SOLANDER ISLAND (AUT)","1037553","2022-12-19 15:00","2022","12","19","15:00","-1.3","","","M","","M","","","15","","12","","","","101.05","","","","-5","","NA"
"-127.94","50.11","SOLANDER ISLAND (AUT)","1037553","2022-12-19 16:00","2022","12","19","16:00","-1.1","","","M","","M","","","16","","9","","","","101.02","","","","-4","","NA"
"-127.94","50.11","SOLANDER ISLAND (AUT)","1037553","2022-12-19 17:00","2022","12","19","17:00","-0.7","","","M","","M","","","13","","8","","","","101.01","","","","-4","","NA"
"-127.94","50.11","SOLANDER ISLAND (AUT)","1037553","2022-12-19 18:00","2022","12","19","18:00","-0.2","","","M","","M","","","17","","21","","","","100.98","","","","-6","","NA"
"-127.94","50.11","SOLANDER ISLAND (AUT)","1037553","2022-12-19 19:00","2022","12","19","19:00","-0.3","","","M","","M","","","20","","16","","","","100.95","","","","-5","","NA"
"-127.94","50.11","SOLANDER ISLAND (AUT)","1037553","2022-12-19 20:00","2022","12","19","20:00","-0.1","","","M","","M","","","24","","6","","","","100.93","","","","-2","","NA"
"-127.94","50.11","SOLANDER ISLAND (AUT)","1037553","2022-12-19 21:00","2022","12","19","21:00","0.0","","","M","","M","","","5","","6","","","","100.90","","","","-2","","NA"
"-127.94","50.11","SOLANDER ISLAND (AUT)","1037553","2022-12-19 22:00","2022","12","19","22:00","0.1","","","M","","M","","","7","","5","","","","100.87","","","","","","NA"
"-127.94","50.11","SOLANDER ISLAND (AUT)","1037553","2022-12-19 23:00","2022","12","19","23:00","0.3","","","M","","M","","","31","","9","","","","100.83","","","","","","NA"
"-127.94","50.11","SOLANDER ISLAND (AUT)","1037553","2022-12-20 00:00","2022","12","20","00:00","0.2","","","M","","M","","","1","","8","","","","100.81","","","","","","NA"
"-127.94","50.11","SOLANDER ISLAND (AUT)","1037553","2022-12-20 01:00","2022","12","20","01:00","0.3","","","M","","M","","","2","","16","","","","100.76","","","","","","NA"
"-127.94","50.11","SOLANDER ISLAND (AUT)","1037553","2022-12-20 02:00","2022","12","20","02:00","0.3","","","M","","M","","","1","","20","","","","100.73","","","","","","NA"
"-127.94","50.11","SOLANDER ISLAND (AUT)","1037553","2022-12-20 03:00","2022","12","20","03:00","0.2","","","M","","M","","","1","","31","","","","100.71","","","","","","NA"
"-127.94","50.11","SOLANDER ISLAND (AUT)","1037553","2022-12-20 04:00","2022","12","20","04:00","0.1","","","M","","M","","","34","","20","","","","100.70","","","","","","NA"
"-127.94","50.11","SOLANDER ISLAND (AUT)","1037553","2022-12-20 05:00","2022","12","20","05:00","-0.6","","","M","","M","","","34","","31","","","","100.67","","","","-7","","NA"
"-127.94","50.11","SOLANDER ISLAND (AUT)","1037553","2022-12-20 06:00","2022","12","20","06:00","-0.6","","","M","","M","","","36","","29","","","","100.64","","","","-7","","NA"
"-127.94","50.11","SOLANDER ISLAND (AUT)","1037553","2022-12-20 07:00","2022","12","20","07:00","-1.2","","","M","","M","","","34","","33","","","","100.66","","","","-8","","NA"
"-127.94","50.11","SOLANDER ISLAND (AUT)","1037553","2022-12-20 08:00","2022","12","20","08:00","-1.7","","","M","","M","","","36","","39","","","","100.67","","","","-10","","NA"
"-127.94","50.11","SOLANDER ISLAND (AUT)","1037553","2022-12-20 09:00","2022","12","20","09:00","-2.4","","","M","","M","","","1","","45","","","","100.74","","","","-11","","NA"
"-127.94","50.11","SOLANDER ISLAND (AUT)","1037553","2022-12-20 10:00","2022","12","20","10:00","-2.0","","","M","","M","","","36","","43","","","","100.84","","","","-10","","NA"
"-127.94","50.11","SOLANDER ISLAND (AUT)","1037553","2022-12-20 11:00","2022","12","20","11:00","-1.5","","","M","","M","","","36","","35","","","","100.92","","","","-9","","NA"
"-127.94","50.11","SOLANDER ISLAND (AUT)","1037553","2022-12-20 12:00","2022","12","20","12:00","-2.3","","","M","","M","","","34","","46","","","","100.93","","","","-11","","NA"
"-127.94","50.11","SOLANDER ISLAND (AUT)","1037553","2022-12-20 13:00","2022","12","20","13:00","-3.0","","","M","","M","","","34","","53","","","","100.93","","","","-12","","NA"
"-127.94","50.11","SOLANDER ISLAND (AUT)","1037553","2022-12-20 14:00","2022","12","20","14:00","-3.4","","","M","","M","","","33","","44","","","","100.99","","","","-12","","NA"
"-127.94","50.11","SOLANDER ISLAND (AUT)","1037553","2022-12-20 15:00","2022","12","20","15:00","-3.9","","","M","","M","","","34","","47","","","","101.06","","","","-13","","NA"
"-127.94","50.11","SOLANDER ISLAND (AUT)","1037553","2022-12-20 16:00","2022","12","20","16:00","-4.6","","","M","","M","","","33","","47","","","","101.11","","","","-14","","NA"
"-127.94","50.11","SOLANDER ISLAND (AUT)","1037553","2022-12-20 17:00","2022","12","20","17:00","-4.9","","","M","","M","","","34","","43","","","","101.18","","","","-14","","NA"
"-127.94","50.11","SOLANDER ISLAND (AUT)","1037553","2022-12-20 18:00","2022","12","20","18:00","-5.0","","","M","","M","","","35","","44","","","","101.23","","","","-14","","NA"
"-127.94","50.11","SOLANDER ISLAND (AUT)","1037553","2022-12-20 19:00","2022","12","20","19:00","-5.0","","","M","","M","","","34","","45","","","","101.25","","","","-15","","NA"
"-127.94","50.11","SOLANDER ISLAND (AUT)","1037553","2022-12-20 20:00","2022","12","20","20:00","-5.0","","","M","","M","","","34","","42","","","","101.37","","","","-14","","NA"
"-127.94","50.11","SOLANDER ISLAND (AUT)","1037553","2022-12-20 21:00","2022","12","20","21:00","-4.7","","","M","","M","","","36","","46","","","","101.44","","","","-14","","NA"
"-127.94","50.11","SOLANDER ISLAND (AUT)","1037553","2022-12-20 22:00","2022","12","20","22:00","-5.1","","","M","","M","","","35","","42","","","","101.53","","","","-14","","NA"
"-127.94","50.11","SOLANDER ISLAND (AUT)","1037553","2022-12-20 23:00","2022","12","20","23:00","-5.3","","","M","","M","","","36","","47","","","","101.52","","","","-15","","NA"
"-127.94","50.11","SOLANDER ISLAND (AUT)","1037553","2022-12-21 00:00","2022","12","21","00:00","-5.5","","","M","","M","","","35","","44","","","","101.60","","","","-15","","NA"
"-127.94","50.11","SOLANDER ISLAND (AUT)","1037553","2022-12-21 01:00","2022","12","21","01:00","-5.3","","","M","","M","","","1","","38","","","","101.60","","","","-14","","NA"
"-127.94","50.11","SOLANDER ISLAND (AUT)","1037553","2022-12-21 02:00","2022","12","21","02:00","-5.6","","","M","","M","","","36","","41","","","","101.60","","","","-15","","NA"
"-127.94","50.11","SOLANDER ISLAND (AUT)","1037553","2022-12-21 03:00","2022","12","21","03:00","-5.5","","","M","","M","","","36","","34","","","","101.70","","","","-14","","NA"
"-127.94","50.11","SOLANDER ISLAND (AUT)","1037553","2022-12-21 04:00","2022","12","21","04:00","-5.3","","","M","","M","","","36","","28","","","","101.70","","","","-13","","NA"
"-127.94","50.11","SOLANDER ISLAND (AUT)","1037553","2022-12-21 05:00","2022","12","21","05:00","-5.1","","","M","","M","","","36","","28","","","","101.75","","","","-13","","NA"
"-127.94","50.11","SOLANDER ISLAND (AUT)","1037553","2022-12-21 06:00","2022","12","21","06:00","-4.9","","","M","","M","","","36","","31","","","","101.75","","","","-13","","NA"
"-127.94","50.11","SOLANDER ISLAND (AUT)","1037553","2022-12-21 07:00","2022","12","21","07:00","-4.5","","","M","","M","","","1","","35","","","","101.76","","","","-13","","NA"
"-127.94","50.11","SOLANDER ISLAND (AUT)","1037553","2022-12-21 08:00","2022","12","21","08:00","-4.7","","","M","","M","","","4","","19","","","","101.77","","","","-11","","NA"
"-127.94","50.11","SOLANDER ISLAND (AUT)","1037553","2022-12-21 09:00","2022","12","21","09:00","-4.2","","","M","","M","","","3","","19","","","","101.85","","","","-10","","NA"
"-127.94","50.11","SOLANDER ISLAND (AUT)","1037553","2022-12-21 10:00","2022","12","21","10:00","-2.5","","","M","","M","","","8","","7","","","","101.93","","","","-5","","NA"
"-127.94","50.11","SOLANDER ISLAND (AUT)","1037553","2022-12-21 11:00","2022","12","21","11:00","-1.3","","","M","","M","","","10","","10","","","","102.00","","","","-5","","NA"
"-127.94","50.11","SOLANDER ISLAND (AUT)","1037553","2022-12-21 12:00","2022","12","21","12:00","-0.3","","","M","","M","","","12","","9","","","","101.95","","","","-3","","NA"
"-127.94","50.11","SOLANDER ISLAND (AUT)","1037553","2022-12-21 13:00","2022","12","21","13:00","-1.4","","","M","","M","","","12","","19","","","","101.93","","","","-7","","NA"
"-127.94","50.11","SOLANDER ISLAND (AUT)","1037553","2022-12-21 14:00","2022","12","21","14:00","-1.4","","","M","","M","","","13","","18","","","","101.93","","","","-7","","NA"
"-127.94","50.11","SOLANDER ISLAND (AUT)","1037553","2022-12-21 15:00","2022","12","21","15:00","-0.5","","","M","","M","","","11","","17","","","","101.97","","","","-5","","NA"
"-127.94","50.11","SOLANDER ISLAND (AUT)","1037553","2022-12-21 16:00","2022","12","21","16:00","-1.2","","","M","","M","","","9","","11","","","","102.01","","","","-5","","NA"
"-127.94","50.11","SOLANDER ISLAND (AUT)","1037553","2022-12-21 17:00","2022","12","21","17:00","-1.2","","","M","","M","","","9","","10","","","","101.93","","","","-5","","NA"
"-127.94","50.11","SOLANDER ISLAND (AUT)","1037553","2022-12-21 18:00","2022","12","21","18:00","-0.4","","","M","","M","","","11","","13","","","","101.93","","","","-5","","NA"
"-127.94","50.11","SOLANDER ISLAND (AUT)","1037553","2022-12-21 19:00","2022","12","21","19:00","-0.2","","","M","","M","","","10","","18","","","","101.91","","","","-5","","NA"
"-127.94","50.11","SOLANDER ISLAND (AUT)","1037553","2022-12-21 20:00","2022","12","21","20:00","0.0","","","M","","M","","","10","","27","","","","101.88","","","","-6","","NA"
"-127.94","50.11","SOLANDER ISLAND (AUT)","1037553","2022-12-21 21:00","2022","12","21","21:00","0.3","","","M","","M","","","11","","35","","","","101.85","","","","","","NA"
"-127.94","50.11","SOLANDER ISLAND (AUT)","1037553","2022-12-21 22:00","2022","12","21","22:00","0.5","","","M","","M","","","11","","31","","","","101.92","","","","","","NA"
"-127.94","50.11","SOLANDER ISLAND (AUT)","1037553","2022-12-21 23:00","2022","12","21","23:00","0.2","","","M","","M","","","11","","32","","","","101.90","","","","","","NA"
"-127.94","50.11","SOLANDER ISLAND (AUT)","1037553","2022-12-22 00:00","2022","12","22","00:00","0.2","","","M","","M","","","11","","31","","","","101.87","","","","","","NA"
"-127.94","50.11","SOLANDER ISLAND (AUT)","1037553","2022-12-22 01:00","2022","12","22","01:00","-0.1","","","M","","M","","","10","","25","","","","101.82","","","","-6","","NA"
"-127.94","50.11","SOLANDER ISLAND (AUT)","1037553","2022-12-22 02:00","2022","12","22","02:00","0.0","","","M","","M","","","11","","24","","","","101.76","","","","-6","","NA"
"-127.94","50.11","SOLANDER ISLAND (AUT)","1037553","2022-12-22 03:00","2022","12","22","03:00","0.2","","","M","","M","","","10","","23","","","","101.72","","","","","","NA"
"-127.94","50.11","SOLANDER ISLAND (AUT)","1037553","2022-12-22 04:00","2022","12","22","04:00","0.3","","","M","","M","","","10","","26","","","","101.61","","","","","","NA"
"-127.94","50.11","SOLANDER ISLAND (AUT)","1037553","2022-12-22 05:00","2022","12","22","05:00","0.4","","","M","","M","","","11","","26","","","","101.49","","","","","","NA"
"-127.94","50.11","SOLANDER ISLAND (AUT)","1037553","2022-12-22 06:00","2022","12","22","06:00","0.5","","","M","","M","","","11","","21","","","","101.37","","","","","","NA"
"-127.94","50.11","SOLANDER ISLAND (AUT)","1037553","2022-12-22 07:00","2022","12","22","07:00","0.9","","","M","","M","0.0","","11","","34","","","","101.22","","","","","","NA"
"-127.94","50.11","SOLANDER ISLAND (AUT)","1037553","2022-12-22 08:00","2022","12","22","08:00","1.1","","","M","","M","0.0","","12","","42","","","","101.13","","","","","","NA"
"-127.94","50.11","SOLANDER ISLAND (AUT)","1037553","2022-12-22 09:00","2022","12","22","09:00","1.2","","","M","","M","0.0","","11","","35","","","","101.12","","","","","","NA"
"-127.94","50.11","SOLANDER ISLAND (AUT)","1037553","2022-12-22 10:00","2022","12","22","10:00","0.9","","","M","","M","0.0","","13","","36","","","","101.00","","","","","","NA"
"-127.94","50.11","SOLANDER ISLAND (AUT)","1037553","2022-12-22 11:00","2022","12","22","11:00","-0.1","","","M","","M","","","10","","49","","","","100.99","","","","-8","","NA"
"-127.94","50.11","SOLANDER ISLAND (AUT)","1037553","2022-12-22 12:00","2022","12","22","12:00","0.5","","","M","","M","","","10","","39","","","","100.83","","","","","","NA"
"-127.94","50.11","SOLANDER ISLAND (AUT)","1037553","2022-12-22 13:00","2022","12","22","13:00","1.3","","","M","","M","0.0","","11","","45","","","","100.64","","","","","","NA"
"-127.94","50.11","SOLANDER ISLAND (AUT)","1037553","2022-12-22 14:00","2022","12","22","14:00","1.8","","","M","","M","0.0","","11","","48","","","","100.50","","","","","","NA"
"-127.94","50.11","SOLANDER ISLAND (AUT)","1037553","2022-12-22 15:00","2022","12","22","15:00","1.8","","","M","","M","0.0","","11","","43","","","","100.38","","","","","","NA"
"-127.94","50.11","SOLANDER ISLAND (AUT)","1037553","2022-12-22 16:00","2022","12","22","16:00","2.1","","","M","","M","0.0","","12","","58","","","","100.22","","","","","","NA"
"-127.94","50.11","SOLANDER ISLAND (AUT)","1037553","2022-12-22 17:00","2022","12","22","17:00","1.9","","","M","","M","0.0","","12","","74","","","","99.96","","","","","","NA"
"-127.94","50.11","SOLANDER ISLAND (AUT)","1037553","2022-12-22 18:00","2022","12","22","18:00","1.2","","","M","","M","0.0","","12","","74","","","","99.78","","","","","","NA"
"-127.94","50.11","SOLANDER ISLAND (AUT)","1037553","2022-12-22 19:00","2022","12","22","19:00","1.3","","","M","","M","0.0","","12","","79","","","","99.63","","","","","","NA"
"-127.94","50.11","SOLANDER ISLAND (AUT)","1037553","2022-12-22 20:00","2022","12","22","20:00","1.7","","","M","","M","0.2","","12","","97","","","","99.27","","","","","","NA"
"-127.94","50.11","SOLANDER ISLAND (AUT)","1037553","2022-12-22 21:00","2022","12","22","21:00","2.0","","","M","","M","0.8","","12","","88","","","","99.34","","","","","","NA"
"-127.94","50.11","SOLANDER ISLAND (AUT)","1037553","2022-12-22 22:00","2022","12","22","22:00","2.1","","","M","","M","1.0","","12","","103","","","","99.15","","","","","","NA"
"-127.94","50.11","SOLANDER ISLAND (AUT)","1037553","2022-12-22 23:00","2022","12","22","23:00","2.5","","","M","","M","1.8","","12","","104","","","","99.12","","","","","","NA"
"-127.94","50.11","SOLANDER ISLAND (AUT)","1037553","2022-12-23 00:00","2022","12","23","00:00","2.6","","","M","","M","2.2","","12","","107","","","","99.04","","","","","","NA"
"-127.94","50.11","SOLANDER ISLAND (AUT)","1037553","2022-12-23 01:00","2022","12","23","01:00","3.0","","","M","","M","2.4","","12","","96","","","","98.95","","","","","","NA"
"-127.94","50.11","SOLANDER ISLAND (AUT)","1037553","2022-12-23 02:00","2022","12","23","02:00","3.5","","","M","","M","2.6","","12","","93","","","","98.92","","","","","","NA"
"-127.94","50.11","SOLANDER ISLAND (AUT)","1037553","2022-12-23 03:00","2022","12","23","03:00","4.0","","","M","","M","3.0","","13","","79","","","","98.88","","","","","","NA"
"-127.94","50.11","SOLANDER ISLAND (AUT)","1037553","2022-12-23 04:00","2022","12","23","04:00","3.9","","","M","","M","1.8","","13","","92","","","","98.81","","","","","","NA"
"-127.94","50.11","SOLANDER ISLAND (AUT)","1037553","2022-12-23 05:00","2022","12","23","05:00","4.1","","","M","","M","1.6","","12","","98","","","","98.83","","","","","","NA"
"-127.94","50.11","SOLANDER ISLAND (AUT)","1037553","2022-12-23 06:00","2022","12","23","06:00","4.5","","","M","","M","1.0","","12","","94","","","","98.85","","","","","","NA"
"-127.94","50.11","SOLANDER ISLAND (AUT)","1037553","2022-12-23 07:00","2022","12","23","07:00","4.6","","","M","","M","0.6","","12","","86","","","","98.88","","","","","","NA"
"-127.94","50.11","SOLANDER ISLAND (AUT)","1037553","2022-12-23 08:00","2022","12","23","08:00","4.7","","","M","","M","0.2","","11","","79","","","","98.99","","","","","","NA"
"-127.94","50.11","SOLANDER ISLAND (AUT)","1037553","2022-12-23 09:00","2022","12","23","09:00","5.0","","","M","","M","0.4","","11","","75","","","","99.07","","","","","","NA"
"-127.94","50.11","SOLANDER ISLAND (AUT)","1037553","2022-12-23 10:00","2022","12","23","10:00","5.2","","","M","","M","0.2","","11","","70","","","","99.17","","","","","","NA"
"-127.94","50.11","SOLANDER ISLAND (AUT)","1037553","2022-12-23 11:00","2022","12","23","11:00","5.5","","","M","","M","0.2","","11","","70","","","","99.27","","","","","","NA"
"-127.94","50.11","SOLANDER ISLAND (AUT)","1037553","2022-12-23 12:00","2022","12","23","12:00","6.1","","","M","","M","0.2","","12","","73","","","","99.35","","","","","","NA"
"-127.94","50.11","SOLANDER ISLAND (AUT)","1037553","2022-12-23 13:00","2022","12","23","13:00","6.2","","","M","","M","0.0","","12","","75","","","","99.28","","","","","","NA"
"-127.94","50.11","SOLANDER ISLAND (AUT)","1037553","2022-12-23 14:00","2022","12","23","14:00","6.3","","","M","","M","0.2","","12","","77","","","","99.30","","","","","","NA"
"-127.94","50.11","SOLANDER ISLAND (AUT)","1037553","2022-12-23 15:00","2022","12","23","15:00","6.3","","","M","","M","0.2","","12","","82","","","","99.18","","","","","","NA"
"-127.94","50.11","SOLANDER ISLAND (AUT)","1037553","2022-12-23 16:00","2022","12","23","16:00","6.2","","","M","","M","0.4","","12","","87","","","","99.13","","","","","","NA"
"-127.94","50.11","SOLANDER ISLAND (AUT)","1037553","2022-12-23 17:00","2022","12","23","17:00","6.6","","","M","","M","0.6","","11","","80","","","","99.09","","","","","","NA"
"-127.94","50.11","SOLANDER ISLAND (AUT)","1037553","2022-12-23 18:00","2022","12","23","18:00","7.3","","","M","","M","0.8","","12","","81","","","","99.17","","","","","","NA"
"-127.94","50.11","SOLANDER ISLAND (AUT)","1037553","2022-12-23 19:00","2022","12","23","19:00","7.4","","","M","","M","0.4","","12","","79","","","","99.35","","","","","","NA"
"-127.94","50.11","SOLANDER ISLAND (AUT)","1037553","2022-12-23 20:00","2022","12","23","20:00","7.9","","","M","","M","0.4","","12","","65","","","","99.44","","","","","","NA"
"-127.94","50.11","SOLANDER ISLAND (AUT)","1037553","2022-12-23 21:00","2022","12","23","21:00","7.5","","","M","","M","0.4","","12","","71","","","","99.44","","","","","","NA"
"-127.94","50.11","SOLANDER ISLAND (AUT)","1037553","2022-12-23 22:00","2022","12","23","22:00","7.5","","","M","","M","0.2","","11","","64","","","","99.45","","","","","","NA"
"-127.94","50.11","SOLANDER ISLAND (AUT)","1037553","2022-12-23 23:00","2022","12","23","23:00","7.5","","","M","","M","0.0","","12","","63","","","","99.43","","","","","","NA"
"-127.94","50.11","SOLANDER ISLAND (AUT)","1037553","2022-12-24 00:00","2022","12","24","00:00","7.5","","","M","","M","0.2","","11","","63","","","","99.37","","","","","","NA"
"-127.94","50.11","SOLANDER ISLAND (AUT)","1037553","2022-12-24 01:00","2022","12","24","01:00","7.7","","","M","","M","0.2","","12","","81","","","","99.19","","","","","","NA"
"-127.94","50.11","SOLANDER ISLAND (AUT)","1037553","2022-12-24 02:00","2022","12","24","02:00","7.8","","","M","","M","1.0","","12","","88","","","","99.04","","","","","","NA"
"-127.94","50.11","SOLANDER ISLAND (AUT)","1037553","2022-12-24 03:00","2022","12","24","03:00","7.9","","","M","","M","1.2","","12","","88","","","","98.96","","","","","","NA"
"-127.94","50.11","SOLANDER ISLAND (AUT)","1037553","2022-12-24 04:00","2022","12","24","04:00","8.0","","","M","","M","0.6","","12","","83","","","","98.83","","","","","","NA"
"-127.94","50.11","SOLANDER ISLAND (AUT)","1037553","2022-12-24 05:00","2022","12","24","05:00","8.5","","","M","","M","0.8","","11","","73","","","","98.85","","","","","","NA"
"-127.94","50.11","SOLANDER ISLAND (AUT)","1037553","2022-12-24 06:00","2022","12","24","06:00","8.7","","","M","","M","1.0","","13","","52","","","","98.86","","","","","","NA"
"-127.94","50.11","SOLANDER ISLAND (AUT)","1037553","2022-12-24 07:00","2022","12","24","07:00","8.8","","","M","","M","0.8","","14","","39","","","","98.89","","","","","","NA"
"-127.94","50.11","SOLANDER ISLAND (AUT)","1037553","2022-12-24 08:00","2022","12","24","08:00","9.1","","","M","","M","0.0","","17","","55","","","","99.00","","","","","","NA"
"-127.94","50.11","SOLANDER ISLAND (AUT)","1037553","2022-12-24 09:00","2022","12","24","09:00","9.2","","","M","","M","0.0","","18","","46","","","","99.10","","","","","","NA"
"-127.94","50.11","SOLANDER ISLAND (AUT)","1037553","2022-12-24 10:00","2022","12","24","10:00","9.2","","","M","","M","0.0","","17","","40","","","","99.24","","","","","","NA"
"-127.94","50.11","SOLANDER ISLAND (AUT)","1037553","2022-12-24 11:00","2022","12","24","11:00","8.8","","","M","","M","0.0","","13","","26","","","","99.33","","","","","","NA"
"-127.94","50.11","SOLANDER ISLAND (AUT)","1037553","2022-12-24 12:00","2022","12","24","12:00","9.2","","","M","","M","0.0","","17","","39","","","","99.44","","","","","","NA"
"-127.94","50.11","SOLANDER ISLAND (AUT)","1037553","2022-12-24 13:00","2022","12","24","13:00","8.8","","","M","","M","0.0","","12","","34","","","","99.56","","","","","","NA"
"-127.94","50.11","SOLANDER ISLAND (AUT)","1037553","2022-12-24 14:00","2022","12","24","14:00","8.9","","","M","","M","0.0","","12","","34","","","","99.66","","","","","","NA"
"-127.94","50.11","SOLANDER ISLAND (AUT)","1037553","2022-12-24 15:00","2022","12","24","15:00","9.0","","","M","","M","0.0","","11","","37","","","","99.78","","","","","","NA"
"-127.94","50.11","SOLANDER ISLAND (AUT)","1037553","2022-12-24 16:00","2022","12","24","16:00","8.8","","","M","","M","0.0","","11","","37","","","","99.89","","","","","","NA"
"-127.94","50.11","SOLANDER ISLAND (AUT)","1037553","2022-12-24 17:00","2022","12","24","17:00","8.8","","","M","","M","0.0","","11","","37","","","","100.02","","","","","","NA"
"-127.94","50.11","SOLANDER ISLAND (AUT)","1037553","2022-12-24 18:00","2022","12","24","18:00","8.6","","","M","","M","0.0","","12","","37","","","","100.11","","","","","","NA"
"-127.94","50.11","SOLANDER ISLAND (AUT)","1037553","2022-12-24 19:00","2022","12","24","19:00","8.5","","","M","","M","0.0","","11","","34","","","","100.24","","","","","","NA"
"-127.94","50.11","SOLANDER ISLAND (AUT)","1037553","2022-12-24 20:00","2022","12","24","20:00","8.4","","","M","","M","0.0","","12","","36","","","","100.31","","","","","","NA"
"-127.94","50.11","SOLANDER ISLAND (AUT)","1037553","2022-12-24 21:00","2022","12","24","21:00","8.3","","","M","","M","0.2","","14","","29","","","","100.36","","","","","","NA"
"-127.94","50.11","SOLANDER ISLAND (AUT)","1037553","2022-12-24 22:00","2022","12","24","22:00","8.5","","","M","","M","0.0","","16","","52","","","","100.42","","","","","","NA"
"-127.94","50.11","SOLANDER ISLAND (AUT)","1037553","2022-12-24 23:00","2022","12","24","23:00","8.7","","","M","","M","0.0","","16","","53","","","","100.52","","","","","","NA"
"-127.94","50.11","SOLANDER ISLAND (AUT)","1037553","2022-12-25 00:00","2022","12","25","00:00","8.3","","","M","","M","0.0","","13","","27","","","","100.60","","","","","","NA"
"-127.94","50.11","SOLANDER ISLAND (AUT)","1037553","2022-12-25 01:00","2022","12","25","01:00","8.3","","","M","","M","0.0","","13","","48","","","","100.51","","","","","","NA"
"-127.94","50.11","SOLANDER ISLAND (AUT)","1037553","2022-12-25 02:00","2022","12","25","02:00","8.4","","","M","","M","0.0","","11","","67","","","","100.34","","","","","","NA"
"-127.94","50.11","SOLANDER ISLAND (AUT)","1037553","2022-12-25 03:00","2022","12","25","03:00","7.9","","","M","","M","0.0","","12","","67","","","","100.32","","","","","","NA"
"-127.94","50.11","SOLANDER ISLAND (AUT)","1037553","2022-12-25 04:00","2022","12","25","04:00","9.4","","","M","","M","0.0","","11","","63","","","","100.29","","","","","","NA"
"-127.94","50.11","SOLANDER ISLAND (AUT)","1037553","2022-12-25 05:00","2022","12","25","05:00","8.3","","","M","","M","0.0","","12","","76","","","","100.26","","","","","","NA"
"-127.94","50.11","SOLANDER ISLAND (AUT)","1037553","2022-12-25 06:00","2022","12","25","06:00","8.1","","","M","","M","0.2","","11","","80","","","","99.99","","","","","","NA"
"-127.94","50.11","SOLANDER ISLAND (AUT)","1037553","2022-12-25 07:00","2022","12","25","07:00","8.5","","","M","","M","0.4","","12","","97","","","","99.80","","","","","","NA"
"-127.94","50.11","SOLANDER ISLAND (AUT)","1037553","2022-12-25 08:00","2022","12","25","08:00","8.8","","","M","","M","0.0","","12","","96","","","","99.58","","","","","","NA"
"-127.94","50.11","SOLANDER ISLAND (AUT)","1037553","2022-12-25 09:00","2022","12","25","09:00","8.0","","","M","","M","0.4","","11","","85","","","","99.59","","","","","","NA"
"-127.94","50.11","SOLANDER ISLAND (AUT)","1037553","2022-12-25 10:00","2022","12","25","10:00","8.6","","","M","","M","1.2","","12","","95","","","","99.46","","","","","","NA"
"-127.94","50.11","SOLANDER ISLAND (AUT)","1037553","2022-12-25 11:00","2022","12","25","11:00","8.8","","","M","","M","1.6","","12","","96","","","","99.34","","","","","","NA"
"-127.94","50.11","SOLANDER ISLAND (AUT)","1037553","2022-12-25 12:00","2022","12","25","12:00","8.9","","","M","","M","2.0","","12","","106","","","","99.18","","","","","","NA"
"-127.94","50.11","SOLANDER ISLAND (AUT)","1037553","2022-12-25 13:00","2022","12","25","13:00","8.8","","","M","","M","2.4","","12","","105","","","","99.09","","","","","","NA"
"-127.94","50.11","SOLANDER ISLAND (AUT)","1037553","2022-12-25 14:00","2022","12","25","14:00","8.7","","","M","","M","3.0","","12","","109","","","","98.95","","","","","","NA"
"-127.94","50.11","SOLANDER ISLAND (AUT)","1037553","2022-12-25 15:00","2022","12","25","15:00","8.9","","","M","","M","4.8","","12","","103","","","","98.92","","","","","","NA"
"-127.94","50.11","SOLANDER ISLAND (AUT)","1037553","2022-12-25 16:00","2022","12","25","16:00","9.1","","","M","","M","6.4","","13","","58","","","","99.14","","","","","","NA"
"-127.94","50.11","SOLANDER ISLAND (AUT)","1037553","2022-12-25 17:00","2022","12","25","17:00","9.1","","","M","","M","3.2","","14","","40","","","","99.34","","","","","","NA"
"-127.94","50.11","SOLANDER ISLAND (AUT)","1037553","2022-12-25 18:00","2022","12","25","18:00","8.5","","","M","","M","0.2","","12","","48","","","","99.34","","","","","","NA"
"-127.94","50.11","SOLANDER ISLAND (AUT)","1037553","2022-12-25 19:00","2022","12","25","19:00","8.5","","","M","","M","0.0","","12","","45","","","","99.43","","","","","","NA"
"-127.94","50.11","SOLANDER ISLAND (AUT)","1037553","2022-12-25 20:00","2022","12","25","20:00","8.4","","","M","","M","0.0","","12","","51","","","","99.30","","","","","","NA"
"-127.94","50.11","SOLANDER ISLAND (AUT)","1037553","2022-12-25 21:00","2022","12","25","21:00","8.1","","","M","","M","0.0","","12","","54","","","","99.22","","","","","","NA"
"-127.94","50.11","SOLANDER ISLAND (AUT)","1037553","2022-12-25 22:00","2022","12","25","22:00","8.1","","","M","","M","0.2","","11","","62","","","","99.04","","","","","","NA"
"-127.94","50.11","SOLANDER ISLAND (AUT)","1037553","2022-12-25 23:00","2022","12","25","23:00","8.1","","","M","","M","0.0","","11","","68","","","","98.83","","","","","","NA"
"-127.94","50.11","SOLANDER ISLAND (AUT)","1037553","2022-12-26 00:00","2022","12","26","00:00","8.4","","","M","","M","0.0","","11","","74","","","","98.48","","","","","","NA"
"-127.94","50.11","SOLANDER ISLAND (AUT)","1037553","2022-12-26 01:00","2022","12","26","01:00","8.8","","","M","","M","0.0","","11","","85","","","","98.05","","","","","","NA"
"-127.94","50.11","SOLANDER ISLAND (AUT)","1037553","2022-12-26 02:00","2022","12","26","02:00","8.8","","","M","","M","2.0","","11","","93","","","","97.56","","","","","","NA"
"-127.94","50.11","SOLANDER ISLAND (AUT)","1037553","2022-12-26 03:00","2022","12","26","03:00","8.8","","","M","","M","3.0","","13","","89","","","","97.57","","","","","","NA"
"-127.94","50.11","SOLANDER ISLAND (AUT)","1037553","2022-12-26 04:00","2022","12","26","04:00","9.6","","","M","","M","3.8","","15","","67","","","","97.58","","","","","","NA"
"-127.94","50.11","SOLANDER ISLAND (AUT)","1037553","2022-12-26 05:00","2022","12","26","05:00","9.6","","","M","","M","0.2","","16","","75","","","","97.76","","","","","","NA"
"-127.94","50.11","SOLANDER ISLAND (AUT)","1037553","2022-12-26 06:00","2022","12","26","06:00","8.9","","","M","","M","0.0","","19","","75","","","","97.94","","","","","","NA"
"-127.94","50.11","SOLANDER ISLAND (AUT)","1037553","2022-12-26 07:00","2022","12","26","07:00","7.9","","","M","","M","0.0","","18","","68","","","","98.11","","","","","","NA"
"-127.94","50.11","SOLANDER ISLAND (AUT)","1037553","2022-12-26 08:00","2022","12","26","08:00","8.8","","","M","","M","0.0","","19","","63","","","","98.36","","","","","","NA"
"-127.94","50.11","SOLANDER ISLAND (AUT)","1037553","2022-12-26 09:00","2022","12","26","09:00","8.7","","","M","","M","0.0","","19","","46","","","","98.59","","","","","","NA"
"-127.94","50.11","SOLANDER ISLAND (AUT)","1037553","2022-12-26 10:00","2022","12","26","10:00","8.5","","","M","","M","0.0","","17","","44","","","","98.72","","","","","","NA"
"-127.94","50.11","SOLANDER ISLAND (AUT)","1037553","2022-12-26 11:00","2022","12","26","11:00","8.4","","","M","","M","0.0","","17","","43","","","","98.84","","","","","","NA"
"-127.94","50.11","SOLANDER ISLAND (AUT)","1037553","2022-12-26 12:00","2022","12","26","12:00","8.2","","","M","","M","0.0","","14","","22","","","","98.85","","","","","","NA"
"-127.94","50.11","SOLANDER ISLAND (AUT)","1037553","2022-12-26 13:00","2022","12","26","13:00","8.2","","","M","","M","0.2","","16","","48","","","","98.81","","","","","","NA"
"-127.94","50.11","SOLANDER ISLAND (AUT)","1037553","2022-12-26 14:00","2022","12","26","14:00","8.0","","","M","","M","0.0","","15","","50","","","","98.69","","","","","","NA"
"-127.94","50.11","SOLANDER ISLAND (AUT)","1037553","2022-12-26 15:00","2022","12","26","15:00","7.9","","","M","","M","0.0","","15","","45","","","","98.58","","","","","","NA"
"-127.94","50.11","SOLANDER ISLAND (AUT)","1037553","2022-12-26 16:00","2022","12","26","16:00","7.7","","","M","","M","0.0","","12","","50","","","","98.40","","","","","","NA"
"-127.94","50.11","SOLANDER ISLAND (AUT)","1037553","2022-12-26 17:00","2022","12","26","17:00","7.6","","","M","","M","0.0","","11","","48","","","","98.15","","","","","","NA"
"-127.94","50.11","SOLANDER ISLAND (AUT)","1037553","2022-12-26 18:00","2022","12","26","18:00","7.7","","","M","","M","0.0","","11","","55","","","","97.93","","","","","","NA"
"-127.94","50.11","SOLANDER ISLAND (AUT)","1037553","2022-12-26 19:00","2022","12","26","19:00","7.8","","","M","","M","0.0","","11","","30","","","","97.82","","","","","","NA"
"-127.94","50.11","SOLANDER ISLAND (AUT)","1037553","2022-12-26 20:00","2022","12","26","20:00","7.7","","","M","","M","0.0","","5","","8","","","","97.53","","","","","","NA"
"-127.94","50.11","SOLANDER ISLAND (AUT)","1037553","2022-12-26 21:00","2022","12","26","21:00","7.1","","","M","","M","0.0","","1","","11","","","","97.21","","","","","","NA"
"-127.94","50.11","SOLANDER ISLAND (AUT)","1037553","2022-12-26 22:00","2022","12","26","22:00","6.7","","","M","","M","0.2","","2","","20","","","","96.90","","","","","","NA"
"-127.94","50.11","SOLANDER ISLAND (AUT)","1037553","2022-12-26 23:00","2022","12","26","23:00","6.3","","","M","","M","0.2","","2","","23","","","","96.65","","","","","","NA"
"-127.94","50.11","SOLANDER ISLAND (AUT)","1037553","2022-12-27 00:00","2022","12","27","00:00","6.8","","","M","","M","1.0","","2","","37","","","","96.44","","","","","","NA"
"-127.94","50.11","SOLANDER ISLAND (AUT)","1037553","2022-12-27 01:00","2022","12","27","01:00","6.8","","","M","","M","2.0","","2","","32","","","","96.30","","","","","","NA"
"-127.94","50.11","SOLANDER ISLAND (AUT)","1037553","2022-12-27 02:00","2022","12","27","02:00","8.2","","","M","","M","3.0","","5","","23","","","","96.24","","","","","","NA"
"-127.94","50.11","SOLANDER ISLAND (AUT)","1037553","2022-12-27 03:00","2022","12","27","03:00","6.4","","","M","","M","1.0","","4","","41","","","","96.16","","","","","","NA"
"-127.94","50.11","SOLANDER ISLAND (AUT)","1037553","2022-12-27 04:00","2022","12","27","04:00","6.0","","","M","","M","0.8","","3","","31","","","","96.19","","","","","","NA"
"-127.94","50.11","SOLANDER ISLAND (AUT)","1037553","2022-12-27 05:00","2022","12","27","05:00","5.3","","","M","","M","0.0","","1","","45","","","","96.20","","","","","","NA"
"-127.94","50.11","SOLANDER ISLAND (AUT)","1037553","2022-12-27 06:00","2022","12","27","06:00","5.4","","","M","","M","0.4","","2","","44","","","","96.25","","","","","","NA"
"-127.94","50.11","SOLANDER ISLAND (AUT)","1037553","2022-12-27 07:00","2022","12","27","07:00","5.0","","","M","","M","0.6","","36","","46","","","","96.35","","","","","","NA"
"-127.94","50.11","SOLANDER ISLAND (AUT)","1037553","2022-12-27 08:00","2022","12","27","08:00","5.1","","","M","","M","1.4","","1","","51","","","","96.46","","","","","","NA"
"-127.94","50.11","SOLANDER ISLAND (AUT)","1037553","2022-12-27 09:00","2022","12","27","09:00","5.2","","","M","","M","0.0","","1","","48","","","","96.61","","","","","","NA"
"-127.94","50.11","SOLANDER ISLAND (AUT)","1037553","2022-12-27 10:00","2022","12","27","10:00","5.9","","","M","","M","0.2","","35","","41","","","","96.80","","","","","","NA"
"-127.94","50.11","SOLANDER ISLAND (AUT)","1037553","2022-12-27 11:00","2022","12","27","11:00","6.3","","","M","","M","0.0","","34","","46","","","","96.93","","","","","","NA"
"-127.94","50.11","SOLANDER ISLAND (AUT)","1037553","2022-12-27 12:00","2022","12","27","12:00","7.0","","","M","","M","0.0","","33","","60","","","","96.99","","","","","","NA"
"-127.94","50.11","SOLANDER ISLAND (AUT)","1037553","2022-12-27 13:00","2022","12","27","13:00","6.8","","","M","","M","0.0","","32","","67","","","","97.11","","","","","","NA"
"-127.94","50.11","SOLANDER ISLAND (AUT)","1037553","2022-12-27 14:00","2022","12","27","14:00","6.2","","","M","","M","0.0","","31","","66","","","","97.26","","","","","","NA"
"-127.94","50.11","SOLANDER ISLAND (AUT)","1037553","2022-12-27 15:00","2022","12","27","15:00","5.8","","","M","","M","0.0","","32","","58","","","","97.42","","","","","","NA"
"-127.94","50.11","SOLANDER ISLAND (AUT)","1037553","2022-12-27 16:00","2022","12","27","16:00","6.2","","","M","","M","0.0","","32","","65","","","","97.60","","","","","","NA"
"-127.94","50.11","SOLANDER ISLAND (AUT)","1037553","2022-12-27 17:00","2022","12","27","17:00","6.0","","","M","","M","0.4","","31","","54","","","","97.79","","","","","","NA"
"-127.94","50.11","SOLANDER ISLAND (AUT)","1037553","2022-12-27 18:00","2022","12","27","18:00","6.1","","","M","","M","0.0","","30","","54","","","","97.88","","","","","","NA"
"-127.94","50.11","SOLANDER ISLAND (AUT)","1037553","2022-12-27 19:00","2022","12","27","19:00","6.1","","","M","","M","0.0","","30","","57","","","","98.02","","","","","","NA"
"-127.94","50.11","SOLANDER ISLAND (AUT)","1037553","2022-12-27 20:00","2022","12","27","20:00","6.3","","","M","","M","0.0","","30","","52","","","","98.13","","","","","","NA"
"-127.94","50.11","SOLANDER ISLAND (AUT)","1037553","2022-12-27 21:00","2022","12","27","21:00","6.2","","","M","","M","","","","","","","","","","","","","","","NA"
"-127.94","50.11","SOLANDER ISLAND (AUT)","1037553","2022-12-27 22:00","2022","12","27","22:00","6.3","","","M","","M","0.0","","30","","43","","","","98.43","","","","","","NA"
"-127.94","50.11","SOLANDER ISLAND (AUT)","1037553","2022-12-27 23:00","2022","12","27","23:00","5.8","","","M","","M","0.0","","31","","44","","","","98.57","","","","","","NA"
"-127.94","50.11","SOLANDER ISLAND (AUT)","1037553","2022-12-28 00:00","2022","12","28","00:00","5.9","","","M","","M","0.0","","31","","31","","","","98.70","","","","","","NA"
"-127.94","50.11","SOLANDER ISLAND (AUT)","1037553","2022-12-28 01:00","2022","12","28","01:00","5.8","","","M","","M","0.0","","29","","32","","","","98.78","","","","","","NA"
"-127.94","50.11","SOLANDER ISLAND (AUT)","1037553","2022-12-28 02:00","2022","12","28","02:00","5.5","","","M","","M","0.0","","29","","35","","","","98.87","","","","","","NA"
"-127.94","50.11","SOLANDER ISLAND (AUT)","1037553","2022-12-28 03:00","2022","12","28","03:00","4.8","","","M","","M","0.0","","31","","39","","","","98.97","","","","","","NA"
"-127.94","50.11","SOLANDER ISLAND (AUT)","1037553","2022-12-28 04:00","2022","12","28","04:00","5.1","","","M","","M","0.0","","32","","24","","","","99.08","","","","","","NA"
"-127.94","50.11","SOLANDER ISLAND (AUT)","1037553","2022-12-28 05:00","2022","12","28","05:00","5.3","","","M","","M","0.0","","29","","22","","","","99.13","","","","","","NA"
"-127.94","50.11","SOLANDER ISLAND (AUT)","1037553","2022-12-28 06:00","2022","12","28","06:00","5.3","","","M","","M","0.0","","28","","16","","","","99.19","","","","","","NA"
"-127.94","50.11","SOLANDER ISLAND (AUT)","1037553","2022-12-28 07:00","2022","12","28","07:00","5.2","","","M","","M","0.0","","28","","11","","","","99.26","","","","","","NA"
"-127.94","50.11","SOLANDER ISLAND (AUT)","1037553","2022-12-28 08:00","2022","12","28","08:00","5.0","","","M","","M","0.0","","20","","2","","","","99.30","","","","","","NA"
"-127.94","50.11","SOLANDER ISLAND (AUT)","1037553","2022-12-28 09:00","2022","12","28","09:00","4.3","","","M","","M","0.0","","11","","15","","","","99.36","","","","","","NA"
"-127.94","50.11","SOLANDER ISLAND (AUT)","1037553","2022-12-28 10:00","2022","12","28","10:00","5.3","","","M","","M","0.2","","12","","17","","","","99.43","","","","","","NA"
"-127.94","50.11","SOLANDER ISLAND (AUT)","1037553","2022-12-28 11:00","2022","12","28","11:00","5.9","","","M","","M","0.0","","11","","22","","","","99.41","","","","","","NA"
"-127.94","50.11","SOLANDER ISLAND (AUT)","1037553","2022-12-28 12:00","2022","12","28","12:00","5.9","","","M","","M","0.0","","11","","25","","","","99.37","","","","","","NA"
"-127.94","50.11","SOLANDER ISLAND (AUT)","1037553","2022-12-28 13:00","2022","12","28","13:00","6.0","","","M","","M","0.0","","11","","32","","","","99.33","","","","","","NA"
"-127.94","50.11","SOLANDER ISLAND (AUT)","1037553","2022-12-28 14:00","2022","12","28","14:00","6.0","","","M","","M","0.0","","14","","31","","","","99.29","","","","","","NA"
"-127.94","50.11","SOLANDER ISLAND (AUT)","1037553","2022-12-28 15:00","2022","12","28","15:00","6.1","","","M","","M","0.0","","13","","38","","","","99.24","","","","","","NA"
"-127.94","50.11","SOLANDER ISLAND (AUT)","1037553","2022-12-28 16:00","2022","12","28","16:00","5.7","","","M","","M","0.0","","12","","55","","","","99.10","","","","","","NA"
"-127.94","50.11","SOLANDER ISLAND (AUT)","1037553","2022-12-28 17:00","2022","12","28","17:00","5.6","","","M","","M","0.0","","12","","61","","","","99.07","","","","","","NA"
"-127.94","50.11","SOLANDER ISLAND (AUT)","1037553","2022-12-28 18:00","2022","12","28","18:00","6.0","","","M","","M","0.0","","12","","66","","","","98.96","","","","","","NA"
"-127.94","50.11","SOLANDER ISLAND (AUT)","1037553","2022-12-28 19:00","2022","12","28","19:00","5.5","","","M","","M","0.2","","12","","79","","","","98.83","","","","","","NA"
"-127.94","50.11","SOLANDER ISLAND (AUT)","1037553","2022-12-28 20:00","2022","12","28","20:00","6.0","","","M","","M","0.0","","12","","73","","","","98.77","","","","","","NA"
"-127.94","50.11","SOLANDER ISLAND (AUT)","1037553","2022-12-28 21:00","2022","12","28","21:00","6.0","","","M","","M","0.0","","11","","71","","","","98.74","","","","","","NA"
"-127.94","50.11","SOLANDER ISLAND (AUT)","1037553","2022-12-28 22:00","2022","12","28","22:00","6.3","","","M","","M","0.0","","12","","73","","","","98.62","","","","","","NA"
"-127.94","50.11","SOLANDER ISLAND (AUT)","1037553","2022-12-28 23:00","2022","12","28","23:00","5.6","","","M","","M","0.0","","12","","78","","","","98.55","","","","","","NA"
"-127.94","50.11","SOLANDER ISLAND (AUT)","1037553","2022-12-29 00:00","2022","12","29","00:00","6.2","","","M","","M","0.0","","12","","79","","","","98.49","","","","","","NA"
"-127.94","50.11","SOLANDER ISLAND (AUT)","1037553","2022-12-29 01:00","2022","12","29","01:00","6.7","","","M","","M","0.0","","11","","84","","","","98.30","","","","","","NA"
"-127.94","50.11","SOLANDER ISLAND (AUT)","1037553","2022-12-29 02:00","2022","12","29","02:00","6.8","","","M","","M","0.0","","12","","92","","","","98.21","","","","","","NA"
"-127.94","50.11","SOLANDER ISLAND (AUT)","1037553","2022-12-29 03:00","2022","12","29","03:00","6.7","","","M","","M","0.6","","12","","91","","","","98.11","","","","","","NA"
"-127.94","50.11","SOLANDER ISLAND (AUT)","1037553","2022-12-29 04:00","2022","12","29","04:00","6.8","","","M","","M","0.6","","12","","93","","","","98.10","","","","","","NA"
"-127.94","50.11","SOLANDER ISLAND (AUT)","1037553","2022-12-29 05:00","2022","12","29","05:00","6.4","","","M","","M","1.4","","12","","95","","","","98.04","","","","","","NA"
"-127.94","50.11","SOLANDER ISLAND (AUT)","1037553","2022-12-29 06:00","2022","12","29","06:00","6.4","","","M","","M","0.6","","12","","87","","","","98.08","","","","","","NA"
"-127.94","50.11","SOLANDER ISLAND (AUT)","1037553","2022-12-29 07:00","2022","12","29","07:00","6.5","","","M","","M","1.8","","12","","78","","","","98.13","","","","","","NA"
"-127.94","50.11","SOLANDER ISLAND (AUT)","1037553","2022-12-29 08:00","2022","12","29","08:00","6.1","","","M","","M","0.4","","12","","80","","","","98.14","","","","","","NA"
"-127.94","50.11","SOLANDER ISLAND (AUT)","1037553","2022-12-29 09:00","2022","12","29","09:00","6.5","","","M","","M","0.4","","12","","83","","","","98.13","","","","","","NA"
"-127.94","50.11","SOLANDER ISLAND (AUT)","1037553","2022-12-29 10:00","2022","12","29","10:00","6.3","","","M","","M","0.0","","12","","82","","","","98.09","","","","","","NA"
"-127.94","50.11","SOLANDER ISLAND (AUT)","1037553","2022-12-29 11:00","2022","12","29","11:00","6.4","","","M","","M","0.8","","12","","82","","","","98.06","","","","","","NA"
"-127.94","50.11","SOLANDER ISLAND (AUT)","1037553","2022-12-29 12:00","2022","12","29","12:00","6.0","","","M","","M","0.6","","12","","85","","","","98.14","","","","","","NA"
"-127.94","50.11","SOLANDER ISLAND (AUT)","1037553","2022-12-29 13:00","2022","12","29","13:00","6.3","","","M","","M","0.2","","12","","77","","","","98.13","","","","","","NA"
"-127.94","50.11","SOLANDER ISLAND (AUT)","1037553","2022-12-29 14:00","2022","12","29","14:00","6.7","","","M","","M","0.0","","12","","76","","","","98.12","","","","","","NA"
"-127.94","50.11","SOLANDER ISLAND (AUT)","1037553","2022-12-29 15:00","2022","12","29","15:00","6.6","","","M","","M","0.0","","12","","76","","","","98.06","","","","","","NA"
"-127.94","50.11","SOLANDER ISLAND (AUT)","1037553","2022-12-29 16:00","2022","12","29","16:00","6.6","","","M","","M","0.2","","12","","75","","","","98.04","","","","","","NA"
"-127.94","50.11","SOLANDER ISLAND (AUT)","1037553","2022-12-29 17:00","2022","12","29","17:00","6.8","","","M","","M","0.0","","12","","71","","","","98.04","","","","","","NA"
"-127.94","50.11","SOLANDER ISLAND (AUT)","1037553","2022-12-29 18:00","2022","12","29","18:00","6.9","","","M","","M","0.0","","11","","70","","","","97.91","","","","","","NA"
"-127.94","50.11","SOLANDER ISLAND (AUT)","1037553","2022-12-29 19:00","2022","12","29","19:00","6.7","","","M","","M","0.0","","12","","73","","","","97.90","","","","","","NA"
"-127.94","50.11","SOLANDER ISLAND (AUT)","1037553","2022-12-29 20:00","2022","12","29","20:00","7.0","","","M","","M","0.0","","11","","67","","","","97.82","","","","","","NA"
"-127.94","50.11","SOLANDER ISLAND (AUT)","1037553","2022-12-29 21:00","2022","12","29","21:00","7.3","","","M","","M","0.2","","12","","70","","","","97.69","","","","","","NA"
"-127.94","50.11","SOLANDER ISLAND (AUT)","1037553","2022-12-29 22:00","2022","12","29","22:00","7.3","","","M","","M","0.2","","12","","69","","","","97.55","","","","","","NA"
"-127.94","50.11","SOLANDER ISLAND (AUT)","1037553","2022-12-29 23:00","2022","12","29","23:00","7.2","","","M","","M","0.4","","12","","75","","","","97.51","","","","","","NA"
"-127.94","50.11","SOLANDER ISLAND (AUT)","1037553","2022-12-30 00:00","2022","12","30","00:00","7.2","","","M","","M","2.0","","13","","63","","","","97.50","","","","","","NA"
"-127.94","50.11","SOLANDER ISLAND (AUT)","1037553","2022-12-30 01:00","2022","12","30","01:00","7.2","","","M","","M","0.6","","12","","76","","","","97.47","","","","","","NA"
"-127.94","50.11","SOLANDER ISLAND (AUT)","1037553","2022-12-30 02:00","2022","12","30","02:00","7.2","","","M","","M","2.0","","13","","60","","","","97.51","","","","","","NA"
"-127.94","50.11","SOLANDER ISLAND (AUT)","1037553","2022-12-30 03:00","2022","12","30","03:00","7.2","","","M","","M","0.6","","12","","57","","","","97.55","","","","","","NA"
"-127.94","50.11","SOLANDER ISLAND (AUT)","1037553","2022-12-30 04:00","2022","12","30","04:00","6.8","","","M","","M","1.8","","12","","60","","","","97.61","","","","","","NA"
"-127.94","50.11","SOLANDER ISLAND (AUT)","1037553","2022-12-30 05:00","2022","12","30","05:00","6.9","","","M","","M","1.6","","12","","46","","","","97.64","","","","","","NA"
"-127.94","50.11","SOLANDER ISLAND (AUT)","1037553","2022-12-30 06:00","2022","12","30","06:00","7.4","","","M","","M","0.2","","14","","29","","","","97.66","","","","","","NA"
"-127.94","50.11","SOLANDER ISLAND (AUT)","1037553","2022-12-30 07:00","2022","12","30","07:00","7.6","","","M","","M","0.0","","16","","46","","","","97.61","","","","","","NA"
"-127.94","50.11","SOLANDER ISLAND (AUT)","1037553","2022-12-30 08:00","2022","12","30","08:00","7.6","","","M","","M","0.4","","16","","53","","","","97.60","","","","","","NA"
"-127.94","50.11","SOLANDER ISLAND (AUT)","1037553","2022-12-30 09:00","2022","12","30","09:00","7.8","","","M","","M","0.2","","17","","49","","","","97.67","","","","","","NA"
"-127.94","50.11","SOLANDER ISLAND (AUT)","1037553","2022-12-30 10:00","2022","12","30","10:00","7.8","","","M","","M","0.0","","16","","54","","","","97.66","","","","","","NA"
"-127.94","50.11","SOLANDER ISLAND (AUT)","1037553","2022-12-30 11:00","2022","12","30","11:00","7.4","","","M","","M","0.8","","16","","55","","","","97.65","","","","","","NA"
"-127.94","50.11","SOLANDER ISLAND (AUT)","1037553","2022-12-30 12:00","2022","12","30","12:00","7.2","","","M","","M","0.6","","17","","53","","","","97.64","","","","","","NA"
"-127.94","50.11","SOLANDER ISLAND (AUT)","1037553","2022-12-30 13:00","2022","12","30","13:00","7.3","","","M","","M","0.2","","18","","47","","","","97.67","","","","","","NA"
"-127.94","50.11","SOLANDER ISLAND (AUT)","1037553","2022-12-30 14:00","2022","12","30","14:00","7.4","","","M","","M","0.6","","19","","41","","","","97.73","","","","","","NA"
"-127.94","50.11","SOLANDER ISLAND (AUT)","1037553","2022-12-30 15:00","2022","12","30","15:00","7.0","","","M","","M","1.0","","20","","40","","","","97.79","","","","","","NA"
"-127.94","50.11","SOLANDER ISLAND (AUT)","1037553","2022-12-30 16:00","2022","12","30","16:00","6.8","","","M","","M","0.8","","22","","44","","","","97.86","","","","","","NA"
"-127.94","50.11","SOLANDER ISLAND (AUT)","1037553","2022-12-30 17:00","2022","12","30","17:00","6.8","","","M","","M","0.4","","22","","34","","","","97.93","","","","","","NA"
"-127.94","50.11","SOLANDER ISLAND (AUT)","1037553","2022-12-30 18:00","2022","12","30","18:00","7.0","","","M","","M","1.0","","25","","27","","","","98.06","","","","","","NA"
"-127.94","50.11","SOLANDER ISLAND (AUT)","1037553","2022-12-30 19:00","2022","12","30","19:00","7.1","","","M","","M","0.2","","26","","32","","","","98.11","","","","","","NA"
"-127.94","50.11","SOLANDER ISLAND (AUT)","1037553","2022-12-30 20:00","2022","12","30","20:00","7.3","","","M","","M","0.0","","22","","36","","","","98.21","","","","","","NA"
"-127.94","50.11","SOLANDER ISLAND (AUT)","1037553","2022-12-30 21:00","2022","12","30","21:00","7.2","","","M","","M","0.2","","22","","35","","","","98.29","","","","","","NA"
"-127.94","50.11","SOLANDER ISLAND (AUT)","1037553","2022-12-30 22:00","2022","12","30","22:00","7.0","","","M","","M","0.0","","25","","30","","","","98.35","","","","","","NA"
"-127.94","50.11","SOLANDER ISLAND (AUT)","1037553","2022-12-30 23:00","2022","12","30","23:00","6.8","","","M","","M","0.0","","26","","37","","","","98.41","","","","","","NA"
"-127.94","50.11","SOLANDER ISLAND (AUT)","1037553","2022-12-31 00:00","2022","12","31","00:00","6.4","","","M","","M","0.4","","26","","44","","","","98.50","","","","","","NA"
"-127.94","50.11","SOLANDER ISLAND (AUT)","1037553","2022-12-31 01:00","2022","12","31","01:00","6.6","","","M","","M","0.4","","26","","43","","","","98.59","","","","","","NA"
"-127.94","50.11","SOLANDER ISLAND (AUT)","1037553","2022-12-31 02:00","2022","12","31","02:00","6.6","","","M","","M","0.4","","26","","40","","","","98.69","","","","","","NA"
"-127.94","50.11","SOLANDER ISLAND (AUT)","1037553","2022-12-31 03:00","2022","12","31","03:00","6.7","","","M","","M","0.2","","27","","32","","","","98.85","","","","","","NA"
"-127.94","50.11","SOLANDER ISLAND (AUT)","1037553","2022-12-31 04:00","2022","12","31","04:00","6.6","","","M","","M","0.8","","27","","32","","","","98.94","","","","","","NA"
"-127.94","50.11","SOLANDER ISLAND (AUT)","1037553","2022-12-31 05:00","2022","12","31","05:00","6.6","","","M","","M","1.0","","28","","31","","","","99.04","","","","","","NA"
"-127.94","50.11","SOLANDER ISLAND (AUT)","1037553","2022-12-31 06:00","2022","12","31","06:00","6.5","","","M","","M","0.8","","28","","31","","","","99.13","","","","","","NA"
"-127.94","50.11","SOLANDER ISLAND (AUT)","1037553","2022-12-31 07:00","2022","12","31","07:00","6.6","","","M","","M","1.2","","28","","32","","","","99.25","","","","","","NA"
"-127.94","50.11","SOLANDER ISLAND (AUT)","1037553","2022-12-31 08:00","2022","12","31","08:00","6.4","","","M","","M","1.8","","28","","32","","","","99.35","","","","","","NA"
"-127.94","50.11","SOLANDER ISLAND (AUT)","1037553","2022-12-31 09:00","2022","12","31","09:00","6.6","","","M","","M","0.0","","29","","35","","","","99.47","","","","","","NA"
"-127.94","50.11","SOLANDER ISLAND (AUT)","1037553","2022-12-31 10:00","2022","12","31","10:00","6.5","","","M","","M","0.0","","29","","30","","","","99.62","","","","","","NA"
"-127.94","50.11","SOLANDER ISLAND (AUT)","1037553","2022-12-31 11:00","2022","12","31","11:00","6.8","","","M","","M","0.0","","30","","25","","","","99.75","","","","","","NA"
"-127.94","50.11","SOLANDER ISLAND (AUT)","1037553","2022-12-31 12:00","2022","12","31","12:00","6.5","","","M","","M","0.0","","29","","23","","","","99.81","","","","","","NA"
"-127.94","50.11","SOLANDER ISLAND (AUT)","1037553","2022-12-31 13:00","2022","12","31","13:00","6.8","","","M","","M","0.0","","29","","23","","","","99.90","","","","","","NA"
"-127.94","50.11","SOLANDER ISLAND (AUT)","1037553","2022-12-31 14:00","2022","12","31","14:00","7.2","","","M","","M","0.0","","30","","25","","","","99.97","","","","","","NA"
"-127.94","50.11","SOLANDER ISLAND (AUT)","1037553","2022-12-31 15:00","2022","12","31","15:00","6.4","","","M","","M","0.0","","30","","20","","","","100.04","","","","","","NA"
"-127.94","50.11","SOLANDER ISLAND (AUT)","1037553","2022-12-31 16:00","2022","12","31","16:00","6.5","","","M","","M","0.0","","31","","19","","","","100.12","","","","","","NA"
"-127.94","50.11","SOLANDER ISLAND (AUT)","1037553","2022-12-31 17:00","2022","12","31","17:00","6.2","","","M","","M","0.0","","30","","16","","","","100.16","","","","","","NA"
"-127.94","50.11","SOLANDER ISLAND (AUT)","1037553","2022-12-31 18:00","2022","12","31","18:00","6.2","","","M","","M","0.0","","29","","13","","","","100.25","","","","","","NA"
"-127.94","50.11","SOLANDER ISLAND (AUT)","1037553","2022-12-31 19:00","2022","12","31","19:00","6.3","","","M","","M","0.0","","31","","12","","","","100.31","","","","","","NA"
"-127.94","50.11","SOLANDER ISLAND (AUT)","1037553","2022-12-31 20:00","2022","12","31","20:00","6.2","","","M","","M","0.0","","30","","9","","","","100.39","","","","","","NA"
"-127.94","50.11","SOLANDER ISLAND (AUT)","1037553","2022-12-31 21:00","2022","12","31","21:00","5.9","","","M","","M","0.0","","5","","4","","","","100.38","","","","","","NA"
"-127.94","50.11","SOLANDER ISLAND (AUT)","1037553","2022-12-31 22:00","2022","12","31","22:00","5.5","","","M","","M","0.0","","11","","5","","","","100.41","","","","","","NA"
"-127.94","50.11","SOLANDER ISLAND (AUT)","1037553","2022-12-31 23:00","2022","12","31","23:00","5.9","","","M","","M","0.0","","17","","7","","","","100.44","","","","","","NA"
