"Longitude (x)","Latitude (y)","Station Name","Climate ID","Date/Time (LST)","Year","Month","Day","Time (LST)","Temp (°C)","Temp Flag","Dew Point Temp (°C)","Dew Point Temp Flag","Rel Hum (%)","Rel Hum Flag","Precip. Amount (mm)","Precip. Amount Flag","Wind Dir (10s deg)","Wind Dir Flag","Wind Spd (km/h)","Wind Spd Flag","Visibility (km)","Visibility Flag","Stn Press (kPa)","Stn Press Flag","Hmdx","Hmdx Flag","Wind Chill","Wind Chill Flag","Weather"
"-127.94","50.11","SOLANDER ISLAND (AUT)","1037553","2022-06-01 00:00","2022","06","01","00:00","9.2","","","M","","M","0.0","","36","","16","","","","100.72","","","","","","NA"
"-127.94","50.11","SOLANDER ISLAND (AUT)","1037553","2022-06-01 01:00","2022","06","01","01:00","9.1","","","M","","M","0.0","","36","","12","","","","100.70","","","","","","NA"
"-127.94","50.11","SOLANDER ISLAND (AUT)","1037553","2022-06-01 02:00","2022","06","01","02:00","9.1","","","M","","M","0.0","","1","","13","","","","100.66","","","","","","NA"
"-127.94","50.11","SOLANDER ISLAND (AUT)","1037553","2022-06-01 03:00","2022","06","01","03:00","9.4","","","M","","M","0.0","","19","","2","","","","100.64","","","","","","NA"
"-127.94","50.11","SOLANDER ISLAND (AUT)","1037553","2022-06-01 04:00","2022","06","01","04:00","9.5","","","M","","M","0.0","","24","","3","","","","100.61","","","","","","NA"
"-127.94","50.11","SOLANDER ISLAND (AUT)","1037553","2022-06-01 05:00","2022","06","01","05:00","9.6","","","M","","M","0.0","","","","0","","","","100.62","","","","","","NA"
"-127.94","50.11","SOLANDER ISLAND (AUT)","1037553","2022-06-01 06:00","2022","06","01","06:00","9.7","","","M","","M","0.0","","32","","3","","","","100.62","","","","","","NA"
"-127.94","50.11","SOLANDER ISLAND (AUT)","1037553","2022-06-01 07:00","2022","06","01","07:00","10.4","","","M","","M","0.0","","31","","4","","","","100.62","","","","","","NA"
"-127.94","50.11","SOLANDER ISLAND (AUT)","1037553","2022-06-01 08:00","2022","06","01","08:00","10.2","","","M","","M","0.0","","26","","7","","","","100.63","","","","","","NA"
"-127.94","50.11","SOLANDER ISLAND (AUT)","1037553","2022-06-01 09:00","2022","06","01","09:00","10.5","","","M","","M","0.0","","29","","6","","","","100.61","","","","","","NA"
"-127.94","50.11","SOLANDER ISLAND (AUT)","1037553","2022-06-01 10:00","2022","06","01","10:00","10.6","","","M","","M","0.0","","35","","12","","","","100.60","","","","","","NA"
"-127.94","50.11","SOLANDER ISLAND (AUT)","1037553","2022-06-01 11:00","2022","06","01","11:00","10.8","","","M","","M","0.0","","3","","6","","","","100.60","","","","","","NA"
"-127.94","50.11","SOLANDER ISLAND (AUT)","1037553","2022-06-01 12:00","2022","06","01","12:00","11.7","","","M","","M","0.0","","10","","11","","","","100.57","","","","","","NA"
"-127.94","50.11","SOLANDER ISLAND (AUT)","1037553","2022-06-01 13:00","2022","06","01","13:00","11.4","","","M","","M","0.0","","11","","27","","","","100.55","","","","","","NA"
"-127.94","50.11","SOLANDER ISLAND (AUT)","1037553","2022-06-01 14:00","2022","06","01","14:00","13.3","","","M","","M","0.0","","11","","25","","","","100.57","","","","","","NA"
"-127.94","50.11","SOLANDER ISLAND (AUT)","1037553","2022-06-01 15:00","2022","06","01","15:00","11.5","","","M","","M","0.0","","18","","17","","","","100.60","","","","","","NA"
"-127.94","50.11","SOLANDER ISLAND (AUT)","1037553","2022-06-01 16:00","2022","06","01","16:00","12.3","","","M","","M","0.0","","19","","5","","","","100.58","","","","","","NA"
"-127.94","50.11","SOLANDER ISLAND (AUT)","1037553","2022-06-01 17:00","2022","06","01","17:00","13.1","","","M","","M","0.0","","18","","6","","","","100.54","","","","","","NA"
"-127.94","50.11","SOLANDER ISLAND (AUT)","1037553","2022-06-01 18:00","2022","06","01","18:00","13.2","","","M","","M","0.0","","1","","8","","","","100.50","","","","","","NA"
"-127.94","50.11","SOLANDER ISLAND (AUT)","1037553","2022-06-01 19:00","2022","06","01","19:00","12.2","","","M","","M","0.0","","2","","2","","","","100.46","","","","","","NA"
"-127.94","50.11","SOLANDER ISLAND (AUT)","1037553","2022-06-01 20:00","2022","06","01","20:00","11.7","","","M","","M","0.0","","23","","2","","","","100.45","","","","","","NA"
"-127.94","50.11","SOLANDER ISLAND (AUT)","1037553","2022-06-01 21:00","2022","06","01","21:00","10.8","","","M","","M","0.0","","8","","4","","","","100.41","","","","","","NA"
"-127.94","50.11","SOLANDER ISLAND (AUT)","1037553","2022-06-01 22:00","2022","06","01","22:00","11.9","","","M","","M","0.0","","8","","9","","","","100.41","","","","","","NA"
"-127.94","50.11","SOLANDER ISLAND (AUT)","1037553","2022-06-01 23:00","2022","06","01","23:00","11.1","","","M","","M","0.0","","20","","3","","","","100.41","","","","","","NA"
"-127.94","50.11","SOLANDER ISLAND (AUT)","1037553","2022-06-02 00:00","2022","06","02","00:00","11.2","","","M","","M","0.0","","18","","4","","","","100.38","","","","","","NA"
"-127.94","50.11","SOLANDER ISLAND (AUT)","1037553","2022-06-02 01:00","2022","06","02","01:00","11.0","","","M","","M","0.0","","21","","7","","","","100.35","","","","","","NA"
"-127.94","50.11","SOLANDER ISLAND (AUT)","1037553","2022-06-02 02:00","2022","06","02","02:00","10.9","","","M","","M","0.0","","24","","3","","","","100.32","","","","","","NA"
"-127.94","50.11","SOLANDER ISLAND (AUT)","1037553","2022-06-02 03:00","2022","06","02","03:00","10.4","","","M","","M","0.0","","36","","11","","","","100.28","","","","","","NA"
"-127.94","50.11","SOLANDER ISLAND (AUT)","1037553","2022-06-02 04:00","2022","06","02","04:00","10.7","","","M","","M","0.0","","2","","6","","","","100.23","","","","","","NA"
"-127.94","50.11","SOLANDER ISLAND (AUT)","1037553","2022-06-02 05:00","2022","06","02","05:00","10.9","","","M","","M","0.0","","13","","5","","","","100.21","","","","","","NA"
"-127.94","50.11","SOLANDER ISLAND (AUT)","1037553","2022-06-02 06:00","2022","06","02","06:00","10.8","","","M","","M","0.0","","11","","9","","","","100.14","","","","","","NA"
"-127.94","50.11","SOLANDER ISLAND (AUT)","1037553","2022-06-02 07:00","2022","06","02","07:00","10.9","","","M","","M","0.0","","15","","8","","","","100.13","","","","","","NA"
"-127.94","50.11","SOLANDER ISLAND (AUT)","1037553","2022-06-02 08:00","2022","06","02","08:00","11.1","","","M","","M","0.0","","12","","20","","","","100.09","","","","","","NA"
"-127.94","50.11","SOLANDER ISLAND (AUT)","1037553","2022-06-02 09:00","2022","06","02","09:00","11.7","","","M","","M","0.0","","12","","28","","","","100.06","","","","","","NA"
"-127.94","50.11","SOLANDER ISLAND (AUT)","1037553","2022-06-02 10:00","2022","06","02","10:00","12.6","","","M","","M","0.0","","11","","32","","","","100.00","","","","","","NA"
"-127.94","50.11","SOLANDER ISLAND (AUT)","1037553","2022-06-02 11:00","2022","06","02","11:00","12.8","","","M","","M","0.0","","11","","36","","","","99.97","","","","","","NA"
"-127.94","50.11","SOLANDER ISLAND (AUT)","1037553","2022-06-02 12:00","2022","06","02","12:00","13.6","","","M","","M","0.0","","11","","31","","","","99.97","","","","","","NA"
"-127.94","50.11","SOLANDER ISLAND (AUT)","1037553","2022-06-02 13:00","2022","06","02","13:00","12.7","","","M","","M","0.0","","13","","21","","","","99.96","","","","","","NA"
"-127.94","50.11","SOLANDER ISLAND (AUT)","1037553","2022-06-02 14:00","2022","06","02","14:00","12.6","","","M","","M","0.0","","13","","22","","","","99.88","","","","","","NA"
"-127.94","50.11","SOLANDER ISLAND (AUT)","1037553","2022-06-02 15:00","2022","06","02","15:00","12.6","","","M","","M","0.0","","13","","22","","","","99.83","","","","","","NA"
"-127.94","50.11","SOLANDER ISLAND (AUT)","1037553","2022-06-02 16:00","2022","06","02","16:00","12.4","","","M","","M","0.2","","11","","33","","","","99.77","","","","","","NA"
"-127.94","50.11","SOLANDER ISLAND (AUT)","1037553","2022-06-02 17:00","2022","06","02","17:00","12.7","","","M","","M","0.0","","12","","32","","","","99.72","","","","","","NA"
"-127.94","50.11","SOLANDER ISLAND (AUT)","1037553","2022-06-02 18:00","2022","06","02","18:00","12.8","","","M","","M","0.0","","11","","36","","","","99.64","","","","","","NA"
"-127.94","50.11","SOLANDER ISLAND (AUT)","1037553","2022-06-02 19:00","2022","06","02","19:00","12.6","","","M","","M","0.0","","12","","36","","","","99.64","","","","","","NA"
"-127.94","50.11","SOLANDER ISLAND (AUT)","1037553","2022-06-02 20:00","2022","06","02","20:00","11.8","","","M","","M","0.0","","11","","39","","","","99.59","","","","","","NA"
"-127.94","50.11","SOLANDER ISLAND (AUT)","1037553","2022-06-02 21:00","2022","06","02","21:00","11.4","","","M","","M","0.0","","12","","34","","","","99.59","","","","","","NA"
"-127.94","50.11","SOLANDER ISLAND (AUT)","1037553","2022-06-02 22:00","2022","06","02","22:00"
"-127.94","50.11","SOLANDER ISLAND (AUT)","1037553","2022-06-02 23:00","2022","06","02","23:00","10.7","","","M","","M","0.0","","11","","40","","","","99.46","","","","","","NA"
"-127.94","50.11","SOLANDER ISLAND (AUT)","1037553","2022-06-03 00:00","2022","06","03","00:00","11.0","","","M","","M","1.0","","11","","38","","","","99.47","","","","","","NA"
"-127.94","50.11","SOLANDER ISLAND (AUT)","1037553","2022-06-03 01:00","2022","06","03","01:00","11.0","","","M","","M","0.4","","11","","35","","","","99.44","","","","","","NA"
"-127.94","50.11","SOLANDER ISLAND (AUT)","1037553","2022-06-03 02:00","2022","06","03","02:00","11.1","","","M","","M","1.0","","11","","39","","","","99.40","","","","","","NA"
"-127.94","50.11","SOLANDER ISLAND (AUT)","1037553","2022-06-03 03:00","2022","06","03","03:00","11.1","","","M","","M","2.0","","11","","37","","","","99.37","","","","","","NA"
"-127.94","50.11","SOLANDER ISLAND (AUT)","1037553","2022-06-03 04:00","2022","06","03","04:00","11.0","","","M","","M","2.2","","12","","21","","","","99.33","","","","","","NA"
"-127.94","50.11","SOLANDER ISLAND (AUT)","1037553","2022-06-03 05:00","2022","06","03","05:00","9.9","","","M","","M","2.8","","18","","20","","","","99.32","","","","","","NA"
"-127.94","50.11","SOLANDER ISLAND (AUT)","1037553","2022-06-03 06:00","2022","06","03","06:00","9.7","","","M","","M","2.2","","19","","19","","","","99.28","","","","","","NA"
"-127.94","50.11","SOLANDER ISLAND (AUT)","1037553","2022-06-03 07:00","2022","06","03","07:00","9.6","","","M","","M","0.8","","18","","13","","","","99.28","","","","","","NA"
"-127.94","50.11","SOLANDER ISLAND (AUT)","1037553","2022-06-03 08:00","2022","06","03","08:00","9.3","","","M","","M","0.0","","18","","14","","","","99.29","","","","","","NA"
"-127.94","50.11","SOLANDER ISLAND (AUT)","1037553","2022-06-03 09:00","2022","06","03","09:00","9.4","","","M","","M","0.0","","17","","18","","","","99.28","","","","","","NA"
"-127.94","50.11","SOLANDER ISLAND (AUT)","1037553","2022-06-03 10:00","2022","06","03","10:00","10.0","","","M","","M","0.0","","12","","20","","","","99.27","","","","","","NA"
"-127.94","50.11","SOLANDER ISLAND (AUT)","1037553","2022-06-03 11:00","2022","06","03","11:00","11.0","","","M","","M","0.0","","11","","25","","","","99.27","","","","","","NA"
"-127.94","50.11","SOLANDER ISLAND (AUT)","1037553","2022-06-03 12:00","2022","06","03","12:00","11.0","","","M","","M","0.0","","12","","27","","","","99.29","","","","","","NA"
"-127.94","50.11","SOLANDER ISLAND (AUT)","1037553","2022-06-03 13:00","2022","06","03","13:00","10.6","","","M","","M","0.2","","13","","28","","","","99.33","","","","","","NA"
"-127.94","50.11","SOLANDER ISLAND (AUT)","1037553","2022-06-03 14:00","2022","06","03","14:00","10.4","","","M","","M","0.0","","11","","53","","","","99.30","","","","","","NA"
"-127.94","50.11","SOLANDER ISLAND (AUT)","1037553","2022-06-03 15:00","2022","06","03","15:00","11.0","","","M","","M","0.0","","11","","54","","","","99.28","","","","","","NA"
"-127.94","50.11","SOLANDER ISLAND (AUT)","1037553","2022-06-03 16:00","2022","06","03","16:00","11.2","","","M","","M","0.0","","11","","58","","","","99.22","","","","","","NA"
"-127.94","50.11","SOLANDER ISLAND (AUT)","1037553","2022-06-03 17:00","2022","06","03","17:00","10.6","","","M","","M","0.0","","12","","61","","","","99.19","","","","","","NA"
"-127.94","50.11","SOLANDER ISLAND (AUT)","1037553","2022-06-03 18:00","2022","06","03","18:00","10.4","","","M","","M","0.4","","11","","64","","","","99.13","","","","","","NA"
"-127.94","50.11","SOLANDER ISLAND (AUT)","1037553","2022-06-03 19:00","2022","06","03","19:00","10.5","","","M","","M","0.0","","11","","63","","","","99.16","","","","","","NA"
"-127.94","50.11","SOLANDER ISLAND (AUT)","1037553","2022-06-03 20:00","2022","06","03","20:00","10.5","","","M","","M","0.0","","12","","44","","","","99.23","","","","","","NA"
"-127.94","50.11","SOLANDER ISLAND (AUT)","1037553","2022-06-03 21:00","2022","06","03","21:00","10.5","","","M","","M","0.0","","11","","42","","","","99.27","","","","","","NA"
"-127.94","50.11","SOLANDER ISLAND (AUT)","1037553","2022-06-03 22:00","2022","06","03","22:00","10.6","","","M","","M","0.0","","12","","43","","","","99.25","","","","","","NA"
"-127.94","50.11","SOLANDER ISLAND (AUT)","1037553","2022-06-03 23:00","2022","06","03","23:00","10.3","","","M","","M","0.6","","12","","44","","","","99.22","","","","","","NA"
"-127.94","50.11","SOLANDER ISLAND (AUT)","1037553","2022-06-04 00:00","2022","06","04","00:00","9.8","","","M","","M","4.4","","15","","39","","","","99.29","","","","","","NA"
"-127.94","50.11","SOLANDER ISLAND (AUT)","1037553","2022-06-04 01:00","2022","06","04","01:00","10.1","","","M","","M","0.0","","15","","32","","","","99.29","","","","","","NA"
"-127.94","50.11","SOLANDER ISLAND (AUT)","1037553","2022-06-04 02:00","2022","06","04","02:00","10.2","","","M","","M","0.0","","13","","21","","","","99.31","","","","","","NA"
"-127.94","50.11","SOLANDER ISLAND (AUT)","1037553","2022-06-04 03:00","2022","06","04","03:00","10.4","","","M","","M","0.0","","13","","24","","","","99.29","","","","","","NA"
"-127.94","50.11","SOLANDER ISLAND (AUT)","1037553","2022-06-04 04:00","2022","06","04","04:00","10.3","","","M","","M","0.0","","13","","28","","","","99.29","","","","","","NA"
"-127.94","50.11","SOLANDER ISLAND (AUT)","1037553","2022-06-04 05:00","2022","06","04","05:00","10.1","","","M","","M","0.6","","13","","24","","","","99.30","","","","","","NA"
"-127.94","50.11","SOLANDER ISLAND (AUT)","1037553","2022-06-04 06:00","2022","06","04","06:00","10.1","","","M","","M","0.0","","11","","31","","","","99.30","","","","","","NA"
"-127.94","50.11","SOLANDER ISLAND (AUT)","1037553","2022-06-04 07:00","2022","06","04","07:00","10.4","","","M","","M","0.0","","11","","30","","","","99.29","","","","","","NA"
"-127.94","50.11","SOLANDER ISLAND (AUT)","1037553","2022-06-04 08:00","2022","06","04","08:00","10.7","","","M","","M","0.0","","11","","29","","","","99.26","","","","","","NA"
"-127.94","50.11","SOLANDER ISLAND (AUT)","1037553","2022-06-04 09:00","2022","06","04","09:00","10.7","","","M","","M","0.2","","13","","19","","","","99.25","","","","","","NA"
"-127.94","50.11","SOLANDER ISLAND (AUT)","1037553","2022-06-04 10:00","2022","06","04","10:00","10.7","","","M","","M","0.0","","13","","21","","","","99.21","","","","","","NA"
"-127.94","50.11","SOLANDER ISLAND (AUT)","1037553","2022-06-04 11:00","2022","06","04","11:00","10.0","","","M","","M","0.0","","11","","26","","","","99.21","","","","","","NA"
"-127.94","50.11","SOLANDER ISLAND (AUT)","1037553","2022-06-04 12:00","2022","06","04","12:00","10.6","","","M","","M","0.0","","11","","34","","","","99.22","","","","","","NA"
"-127.94","50.11","SOLANDER ISLAND (AUT)","1037553","2022-06-04 13:00","2022","06","04","13:00","10.8","","","M","","M","0.0","","11","","24","","","","99.22","","","","","","NA"
"-127.94","50.11","SOLANDER ISLAND (AUT)","1037553","2022-06-04 14:00","2022","06","04","14:00","11.0","","","M","","M","0.0","","11","","18","","","","99.20","","","","","","NA"
"-127.94","50.11","SOLANDER ISLAND (AUT)","1037553","2022-06-04 15:00","2022","06","04","15:00","11.2","","","M","","M","0.8","","11","","29","","","","99.12","","","","","","NA"
"-127.94","50.11","SOLANDER ISLAND (AUT)","1037553","2022-06-04 16:00","2022","06","04","16:00","11.1","","","M","","M","0.6","","11","","36","","","","99.06","","","","","","NA"
"-127.94","50.11","SOLANDER ISLAND (AUT)","1037553","2022-06-04 17:00","2022","06","04","17:00","11.4","","","M","","M","0.8","","11","","35","","","","98.96","","","","","","NA"
"-127.94","50.11","SOLANDER ISLAND (AUT)","1037553","2022-06-04 18:00","2022","06","04","18:00","11.1","","","M","","M","2.0","","2","","19","","","","98.88","","","","","","NA"
"-127.94","50.11","SOLANDER ISLAND (AUT)","1037553","2022-06-04 19:00","2022","06","04","19:00","11.2","","","M","","M","3.2","","3","","7","","","","98.83","","","","","","NA"
"-127.94","50.11","SOLANDER ISLAND (AUT)","1037553","2022-06-04 20:00","2022","06","04","20:00","12.0","","","M","","M","1.4","","10","","34","","","","98.74","","","","","","NA"
"-127.94","50.11","SOLANDER ISLAND (AUT)","1037553","2022-06-04 21:00","2022","06","04","21:00","11.8","","","M","","M","1.4","","11","","19","","","","98.72","","","","","","NA"
"-127.94","50.11","SOLANDER ISLAND (AUT)","1037553","2022-06-04 22:00","2022","06","04","22:00","11.4","","","M","","M","2.6","","10","","31","","","","98.70","","","","","","NA"
"-127.94","50.11","SOLANDER ISLAND (AUT)","1037553","2022-06-04 23:00","2022","06","04","23:00","11.4","","","M","","M","2.4","","12","","49","","","","98.49","","","","","","NA"
"-127.94","50.11","SOLANDER ISLAND (AUT)","1037553","2022-06-05 00:00","2022","06","05","00:00","11.4","","","M","","M","1.0","","12","","77","","","","98.46","","","","","","NA"
"-127.94","50.11","SOLANDER ISLAND (AUT)","1037553","2022-06-05 01:00","2022","06","05","01:00","11.4","","","M","","M","1.2","","11","","74","","","","98.43","","","","","","NA"
"-127.94","50.11","SOLANDER ISLAND (AUT)","1037553","2022-06-05 02:00","2022","06","05","02:00","11.3","","","M","","M","1.4","","12","","63","","","","98.49","","","","","","NA"
"-127.94","50.11","SOLANDER ISLAND (AUT)","1037553","2022-06-05 03:00","2022","06","05","03:00","11.2","","","M","","M","0.8","","12","","68","","","","98.45","","","","","","NA"
"-127.94","50.11","SOLANDER ISLAND (AUT)","1037553","2022-06-05 04:00","2022","06","05","04:00","11.1","","","M","","M","1.0","","12","","59","","","","98.51","","","","","","NA"
"-127.94","50.11","SOLANDER ISLAND (AUT)","1037553","2022-06-05 05:00","2022","06","05","05:00","11.0","","","M","","M","1.8","","12","","32","","","","98.59","","","","","","NA"
"-127.94","50.11","SOLANDER ISLAND (AUT)","1037553","2022-06-05 06:00","2022","06","05","06:00","10.8","","","M","","M","3.8","","14","","28","","","","98.66","","","","","","NA"
"-127.94","50.11","SOLANDER ISLAND (AUT)","1037553","2022-06-05 07:00","2022","06","05","07:00","10.1","","","M","","M","1.0","","24","","15","","","","98.74","","","","","","NA"
"-127.94","50.11","SOLANDER ISLAND (AUT)","1037553","2022-06-05 08:00","2022","06","05","08:00","9.8","","","M","","M","1.4","","27","","22","","","","98.87","","","","","","NA"
"-127.94","50.11","SOLANDER ISLAND (AUT)","1037553","2022-06-05 09:00","2022","06","05","09:00","9.7","","","M","","M","0.2","","26","","24","","","","99.03","","","","","","NA"
"-127.94","50.11","SOLANDER ISLAND (AUT)","1037553","2022-06-05 10:00","2022","06","05","10:00","10.3","","","M","","M","0.0","","26","","21","","","","99.17","","","","","","NA"
"-127.94","50.11","SOLANDER ISLAND (AUT)","1037553","2022-06-05 11:00","2022","06","05","11:00","11.1","","","M","","M","0.0","","25","","17","","","","99.31","","","","","","NA"
"-127.94","50.11","SOLANDER ISLAND (AUT)","1037553","2022-06-05 12:00","2022","06","05","12:00","10.9","","","M","","M","0.0","","21","","17","","","","99.41","","","","","","NA"
"-127.94","50.11","SOLANDER ISLAND (AUT)","1037553","2022-06-05 13:00","2022","06","05","13:00","11.0","","","M","","M","0.0","","20","","18","","","","99.52","","","","","","NA"
"-127.94","50.11","SOLANDER ISLAND (AUT)","1037553","2022-06-05 14:00","2022","06","05","14:00","11.0","","","M","","M","0.0","","18","","21","","","","99.61","","","","","","NA"
"-127.94","50.11","SOLANDER ISLAND (AUT)","1037553","2022-06-05 15:00","2022","06","05","15:00","10.8","","","M","","M","0.0","","17","","23","","","","99.69","","","","","","NA"
"-127.94","50.11","SOLANDER ISLAND (AUT)","1037553","2022-06-05 16:00","2022","06","05","16:00","10.5","","","M","","M","0.0","","16","","28","","","","99.76","","","","","","NA"
"-127.94","50.11","SOLANDER ISLAND (AUT)","1037553","2022-06-05 17:00","2022","06","05","17:00","10.4","","","M","","M","0.0","","15","","30","","","","99.78","","","","","","NA"
"-127.94","50.11","SOLANDER ISLAND (AUT)","1037553","2022-06-05 18:00","2022","06","05","18:00","10.5","","","M","","M","0.0","","14","","24","","","","99.80","","","","","","NA"
"-127.94","50.11","SOLANDER ISLAND (AUT)","1037553","2022-06-05 19:00","2022","06","05","19:00","10.6","","","M","","M","0.0","","13","","23","","","","99.84","","","","","","NA"
"-127.94","50.11","SOLANDER ISLAND (AUT)","1037553","2022-06-05 20:00","2022","06","05","20:00","10.6","","","M","","M","0.0","","11","","38","","","","99.85","","","","","","NA"
"-127.94","50.11","SOLANDER ISLAND (AUT)","1037553","2022-06-05 21:00","2022","06","05","21:00","10.6","","","M","","M","0.0","","11","","44","","","","99.89","","","","","","NA"
"-127.94","50.11","SOLANDER ISLAND (AUT)","1037553","2022-06-05 22:00","2022","06","05","22:00","10.5","","","M","","M","0.0","","12","","48","","","","99.91","","","","","","NA"
"-127.94","50.11","SOLANDER ISLAND (AUT)","1037553","2022-06-05 23:00","2022","06","05","23:00","10.5","","","M","","M","0.0","","11","","52","","","","99.94","","","","","","NA"
"-127.94","50.11","SOLANDER ISLAND (AUT)","1037553","2022-06-06 00:00","2022","06","06","00:00","10.4","","","M","","M","0.2","","12","","44","","","","99.99","","","","","","NA"
"-127.94","50.11","SOLANDER ISLAND (AUT)","1037553","2022-06-06 01:00","2022","06","06","01:00","9.5","","","M","","M","1.0","","13","","37","","","","100.06","","","","","","NA"
"-127.94","50.11","SOLANDER ISLAND (AUT)","1037553","2022-06-06 02:00","2022","06","06","02:00","9.6","","","M","","M","1.0","","14","","36","","","","100.08","","","","","","NA"
"-127.94","50.11","SOLANDER ISLAND (AUT)","1037553","2022-06-06 03:00","2022","06","06","03:00","9.7","","","M","","M","0.8","","12","","39","","","","100.13","","","","","","NA"
"-127.94","50.11","SOLANDER ISLAND (AUT)","1037553","2022-06-06 04:00","2022","06","06","04:00","10.1","","","M","","M","0.4","","15","","41","","","","100.17","","","","","","NA"
"-127.94","50.11","SOLANDER ISLAND (AUT)","1037553","2022-06-06 05:00","2022","06","06","05:00","10.1","","","M","","M","0.6","","14","","36","","","","100.22","","","","","","NA"
"-127.94","50.11","SOLANDER ISLAND (AUT)","1037553","2022-06-06 06:00","2022","06","06","06:00","9.8","","","M","","M","1.2","","16","","48","","","","100.29","","","","","","NA"
"-127.94","50.11","SOLANDER ISLAND (AUT)","1037553","2022-06-06 07:00","2022","06","06","07:00","10.1","","","M","","M","1.6","","16","","41","","","","100.39","","","","","","NA"
"-127.94","50.11","SOLANDER ISLAND (AUT)","1037553","2022-06-06 08:00","2022","06","06","08:00","10.2","","","M","","M","0.6","","15","","38","","","","100.46","","","","","","NA"
"-127.94","50.11","SOLANDER ISLAND (AUT)","1037553","2022-06-06 09:00","2022","06","06","09:00","10.2","","","M","","M","0.0","","16","","38","","","","100.56","","","","","","NA"
"-127.94","50.11","SOLANDER ISLAND (AUT)","1037553","2022-06-06 10:00","2022","06","06","10:00","10.3","","","M","","M","0.0","","15","","35","","","","100.62","","","","","","NA"
"-127.94","50.11","SOLANDER ISLAND (AUT)","1037553","2022-06-06 11:00","2022","06","06","11:00","10.5","","","M","","M","0.0","","15","","35","","","","100.70","","","","","","NA"
"-127.94","50.11","SOLANDER ISLAND (AUT)","1037553","2022-06-06 12:00","2022","06","06","12:00","10.5","","","M","","M","0.0","","15","","35","","","","100.77","","","","","","NA"
"-127.94","50.11","SOLANDER ISLAND (AUT)","1037553","2022-06-06 13:00","2022","06","06","13:00","10.2","","","M","","M","0.2","","15","","36","","","","100.85","","","","","","NA"
"-127.94","50.11","SOLANDER ISLAND (AUT)","1037553","2022-06-06 14:00","2022","06","06","14:00","10.2","","","M","","M","0.6","","15","","32","","","","100.91","","","","","","NA"
"-127.94","50.11","SOLANDER ISLAND (AUT)","1037553","2022-06-06 15:00","2022","06","06","15:00","10.2","","","M","","M","0.2","","16","","35","","","","100.94","","","","","","NA"
"-127.94","50.11","SOLANDER ISLAND (AUT)","1037553","2022-06-06 16:00","2022","06","06","16:00","10.7","","","M","","M","0.0","","15","","28","","","","100.97","","","","","","NA"
"-127.94","50.11","SOLANDER ISLAND (AUT)","1037553","2022-06-06 17:00","2022","06","06","17:00","10.9","","","M","","M","0.0","","13","","19","","","","100.96","","","","","","NA"
"-127.94","50.11","SOLANDER ISLAND (AUT)","1037553","2022-06-06 18:00","2022","06","06","18:00","10.7","","","M","","M","0.0","","12","","29","","","","100.97","","","","","","NA"
"-127.94","50.11","SOLANDER ISLAND (AUT)","1037553","2022-06-06 19:00","2022","06","06","19:00","10.7","","","M","","M","0.0","","11","","38","","","","100.93","","","","","","NA"
"-127.94","50.11","SOLANDER ISLAND (AUT)","1037553","2022-06-06 20:00","2022","06","06","20:00","10.7","","","M","","M","0.0","","12","","30","","","","101.02","","","","","","NA"
"-127.94","50.11","SOLANDER ISLAND (AUT)","1037553","2022-06-06 21:00","2022","06","06","21:00","10.7","","","M","","M","0.0","","12","","26","","","","100.96","","","","","","NA"
"-127.94","50.11","SOLANDER ISLAND (AUT)","1037553","2022-06-06 22:00","2022","06","06","22:00","10.6","","","M","","M","0.0","","12","","22","","","","100.99","","","","","","NA"
"-127.94","50.11","SOLANDER ISLAND (AUT)","1037553","2022-06-06 23:00","2022","06","06","23:00","10.5","","","M","","M","0.0","","11","","30","","","","100.92","","","","","","NA"
"-127.94","50.11","SOLANDER ISLAND (AUT)","1037553","2022-06-07 00:00","2022","06","07","00:00","10.6","","","M","","M","0.0","","11","","30","","","","100.89","","","","","","NA"
"-127.94","50.11","SOLANDER ISLAND (AUT)","1037553","2022-06-07 01:00","2022","06","07","01:00","10.3","","","M","","M","0.0","","11","","31","","","","100.79","","","","","","NA"
"-127.94","50.11","SOLANDER ISLAND (AUT)","1037553","2022-06-07 02:00","2022","06","07","02:00","10.2","","","M","","M","0.0","","10","","26","","","","100.75","","","","","","NA"
"-127.94","50.11","SOLANDER ISLAND (AUT)","1037553","2022-06-07 03:00","2022","06","07","03:00","10.3","","","M","","M","0.0","","10","","25","","","","100.68","","","","","","NA"
"-127.94","50.11","SOLANDER ISLAND (AUT)","1037553","2022-06-07 04:00","2022","06","07","04:00","10.2","","","M","","M","0.0","","12","","21","","","","100.60","","","","","","NA"
"-127.94","50.11","SOLANDER ISLAND (AUT)","1037553","2022-06-07 05:00","2022","06","07","05:00","10.4","","","M","","M","0.0","","12","","25","","","","100.55","","","","","","NA"
"-127.94","50.11","SOLANDER ISLAND (AUT)","1037553","2022-06-07 06:00","2022","06","07","06:00","10.5","","","M","","M","0.0","","11","","31","","","","100.50","","","","","","NA"
"-127.94","50.11","SOLANDER ISLAND (AUT)","1037553","2022-06-07 07:00","2022","06","07","07:00","10.3","","","M","","M","0.0","","11","","32","","","","100.43","","","","","","NA"
"-127.94","50.11","SOLANDER ISLAND (AUT)","1037553","2022-06-07 08:00","2022","06","07","08:00","10.4","","","M","","M","0.0","","11","","32","","","","100.41","","","","","","NA"
"-127.94","50.11","SOLANDER ISLAND (AUT)","1037553","2022-06-07 09:00","2022","06","07","09:00","10.7","","","M","","M","0.0","","11","","45","","","","100.26","","","","","","NA"
"-127.94","50.11","SOLANDER ISLAND (AUT)","1037553","2022-06-07 10:00","2022","06","07","10:00","10.9","","","M","","M","0.0","","11","","45","","","","100.22","","","","","","NA"
"-127.94","50.11","SOLANDER ISLAND (AUT)","1037553","2022-06-07 11:00","2022","06","07","11:00","10.8","","","M","","M","0.2","","11","","43","","","","100.13","","","","","","NA"
"-127.94","50.11","SOLANDER ISLAND (AUT)","1037553","2022-06-07 12:00","2022","06","07","12:00","10.5","","","M","","M","0.0","","13","","22","","","","100.14","","","","","","NA"
"-127.94","50.11","SOLANDER ISLAND (AUT)","1037553","2022-06-07 13:00","2022","06","07","13:00","12.2","","","M","","M","0.0","","11","","41","","","","100.05","","","","","","NA"
"-127.94","50.11","SOLANDER ISLAND (AUT)","1037553","2022-06-07 14:00","2022","06","07","14:00","12.7","","","M","","M","0.0","","11","","39","","","","99.98","","","","","","NA"
"-127.94","50.11","SOLANDER ISLAND (AUT)","1037553","2022-06-07 15:00","2022","06","07","15:00","12.6","","","M","","M","0.0","","11","","40","","","","99.92","","","","","","NA"
"-127.94","50.11","SOLANDER ISLAND (AUT)","1037553","2022-06-07 16:00","2022","06","07","16:00","12.1","","","M","","M","0.0","","10","","47","","","","99.91","","","","","","NA"
"-127.94","50.11","SOLANDER ISLAND (AUT)","1037553","2022-06-07 17:00","2022","06","07","17:00","11.2","","","M","","M","0.0","","11","","43","","","","99.87","","","","","","NA"
"-127.94","50.11","SOLANDER ISLAND (AUT)","1037553","2022-06-07 18:00","2022","06","07","18:00","11.2","","","M","","M","0.2","","11","","58","","","","99.79","","","","","","NA"
"-127.94","50.11","SOLANDER ISLAND (AUT)","1037553","2022-06-07 19:00","2022","06","07","19:00","11.3","","","M","","M","0.0","","11","","68","","","","99.66","","","","","","NA"
"-127.94","50.11","SOLANDER ISLAND (AUT)","1037553","2022-06-07 20:00","2022","06","07","20:00","11.2","","","M","","M","0.0","","12","","65","","","","99.69","","","","","","NA"
"-127.94","50.11","SOLANDER ISLAND (AUT)","1037553","2022-06-07 21:00","2022","06","07","21:00","11.1","","","M","","M","0.0","","12","","45","","","","99.73","","","","","","NA"
"-127.94","50.11","SOLANDER ISLAND (AUT)","1037553","2022-06-07 22:00","2022","06","07","22:00","11.3","","","M","","M","0.0","","12","","62","","","","99.71","","","","","","NA"
"-127.94","50.11","SOLANDER ISLAND (AUT)","1037553","2022-06-07 23:00","2022","06","07","23:00","11.3","","","M","","M","0.0","","12","","54","","","","99.74","","","","","","NA"
"-127.94","50.11","SOLANDER ISLAND (AUT)","1037553","2022-06-08 00:00","2022","06","08","00:00","11.0","","","M","","M","0.0","","12","","60","","","","99.75","","","","","","NA"
"-127.94","50.11","SOLANDER ISLAND (AUT)","1037553","2022-06-08 01:00","2022","06","08","01:00","10.4","","","M","","M","0.0","","13","","38","","","","99.80","","","","","","NA"
"-127.94","50.11","SOLANDER ISLAND (AUT)","1037553","2022-06-08 02:00","2022","06","08","02:00","10.6","","","M","","M","0.6","","13","","37","","","","99.77","","","","","","NA"
"-127.94","50.11","SOLANDER ISLAND (AUT)","1037553","2022-06-08 03:00","2022","06","08","03:00","10.7","","","M","","M","1.4","","14","","37","","","","99.81","","","","","","NA"
"-127.94","50.11","SOLANDER ISLAND (AUT)","1037553","2022-06-08 04:00","2022","06","08","04:00","10.5","","","M","","M","0.0","","16","","50","","","","99.86","","","","","","NA"
"-127.94","50.11","SOLANDER ISLAND (AUT)","1037553","2022-06-08 05:00","2022","06","08","05:00","10.4","","","M","","M","0.0","","14","","37","","","","99.91","","","","","","NA"
"-127.94","50.11","SOLANDER ISLAND (AUT)","1037553","2022-06-08 06:00","2022","06","08","06:00","10.4","","","M","","M","0.0","","12","","31","","","","99.94","","","","","","NA"
"-127.94","50.11","SOLANDER ISLAND (AUT)","1037553","2022-06-08 07:00","2022","06","08","07:00","10.3","","","M","","M","0.0","","15","","43","","","","99.99","","","","","","NA"
"-127.94","50.11","SOLANDER ISLAND (AUT)","1037553","2022-06-08 08:00","2022","06","08","08:00","10.6","","","M","","M","0.0","","11","","42","","","","100.01","","","","","","NA"
"-127.94","50.11","SOLANDER ISLAND (AUT)","1037553","2022-06-08 09:00","2022","06","08","09:00","10.7","","","M","","M","0.0","","13","","31","","","","100.10","","","","","","NA"
"-127.94","50.11","SOLANDER ISLAND (AUT)","1037553","2022-06-08 10:00","2022","06","08","10:00","10.9","","","M","","M","0.0","","13","","34","","","","100.09","","","","","","NA"
"-127.94","50.11","SOLANDER ISLAND (AUT)","1037553","2022-06-08 11:00","2022","06","08","11:00","11.0","","","M","","M","0.0","","12","","40","","","","100.15","","","","","","NA"
"-127.94","50.11","SOLANDER ISLAND (AUT)","1037553","2022-06-08 12:00","2022","06","08","12:00","11.3","","","M","","M","0.0","","14","","38","","","","100.22","","","","","","NA"
"-127.94","50.11","SOLANDER ISLAND (AUT)","1037553","2022-06-08 13:00","2022","06","08","13:00","11.2","","","M","","M","0.0","","14","","45","","","","100.26","","","","","","NA"
"-127.94","50.11","SOLANDER ISLAND (AUT)","1037553","2022-06-08 14:00","2022","06","08","14:00","11.5","","","M","","M","0.0","","13","","33","","","","100.28","","","","","","NA"
"-127.94","50.11","SOLANDER ISLAND (AUT)","1037553","2022-06-08 15:00","2022","06","08","15:00","11.6","","","M","","M","0.0","","12","","36","","","","100.28","","","","","","NA"
"-127.94","50.11","SOLANDER ISLAND (AUT)","1037553","2022-06-08 16:00","2022","06","08","16:00","11.3","","","M","","M","0.0","","12","","50","","","","100.24","","","","","","NA"
"-127.94","50.11","SOLANDER ISLAND (AUT)","1037553","2022-06-08 17:00","2022","06","08","17:00","11.2","","","M","","M","0.0","","13","","34","","","","100.25","","","","","","NA"
"-127.94","50.11","SOLANDER ISLAND (AUT)","1037553","2022-06-08 18:00","2022","06","08","18:00","11.2","","","M","","M","0.0","","13","","33","","","","100.22","","","","","","NA"
"-127.94","50.11","SOLANDER ISLAND (AUT)","1037553","2022-06-08 19:00","2022","06","08","19:00","11.1","","","M","","M","0.0","","12","","52","","","","100.13","","","","","","NA"
"-127.94","50.11","SOLANDER ISLAND (AUT)","1037553","2022-06-08 20:00","2022","06","08","20:00","11.1","","","M","","M","0.0","","12","","54","","","","100.10","","","","","","NA"
"-127.94","50.11","SOLANDER ISLAND (AUT)","1037553","2022-06-08 21:00","2022","06","08","21:00","11.1","","","M","","M","0.0","","12","","53","","","","100.06","","","","","","NA"
"-127.94","50.11","SOLANDER ISLAND (AUT)","1037553","2022-06-08 22:00","2022","06","08","22:00","11.0","","","M","","M","0.2","","11","","59","","","","100.05","","","","","","NA"
"-127.94","50.11","SOLANDER ISLAND (AUT)","1037553","2022-06-08 23:00","2022","06","08","23:00","11.0","","","M","","M","0.0","","11","","58","","","","99.99","","","","","","NA"
"-127.94","50.11","SOLANDER ISLAND (AUT)","1037553","2022-06-09 00:00","2022","06","09","00:00","11.0","","","M","","M","0.0","","11","","57","","","","99.90","","","","","","NA"
"-127.94","50.11","SOLANDER ISLAND (AUT)","1037553","2022-06-09 01:00","2022","06","09","01:00","11.2","","","M","","M","0.0","","13","","46","","","","99.83","","","","","","NA"
"-127.94","50.11","SOLANDER ISLAND (AUT)","1037553","2022-06-09 02:00","2022","06","09","02:00","11.2","","","M","","M","0.0","","12","","58","","","","99.74","","","","","","NA"
"-127.94","50.11","SOLANDER ISLAND (AUT)","1037553","2022-06-09 03:00","2022","06","09","03:00","11.0","","","M","","M","0.0","","11","","76","","","","99.60","","","","","","NA"
"-127.94","50.11","SOLANDER ISLAND (AUT)","1037553","2022-06-09 04:00","2022","06","09","04:00","11.0","","","M","","M","0.0","","11","","77","","","","99.50","","","","","","NA"
"-127.94","50.11","SOLANDER ISLAND (AUT)","1037553","2022-06-09 05:00","2022","06","09","05:00","11.0","","","M","","M","0.0","","11","","84","","","","99.36","","","","","","NA"
"-127.94","50.11","SOLANDER ISLAND (AUT)","1037553","2022-06-09 06:00","2022","06","09","06:00","10.8","","","M","","M","0.0","","11","","91","","","","99.21","","","","","","NA"
"-127.94","50.11","SOLANDER ISLAND (AUT)","1037553","2022-06-09 07:00","2022","06","09","07:00","11.1","","","M","","M","0.0","","11","","96","","","","99.12","","","","","","NA"
"-127.94","50.11","SOLANDER ISLAND (AUT)","1037553","2022-06-09 08:00","2022","06","09","08:00","10.5","","","M","","M","0.0","","12","","103","","","","98.97","","","","","","NA"
"-127.94","50.11","SOLANDER ISLAND (AUT)","1037553","2022-06-09 09:00","2022","06","09","09:00","10.3","","","M","","M","0.0","","11","","105","","","","98.99","","","","","","NA"
"-127.94","50.11","SOLANDER ISLAND (AUT)","1037553","2022-06-09 10:00","2022","06","09","10:00","10.0","","","M","","M","0.0","","11","","100","","","","99.03","","","","","","NA"
"-127.94","50.11","SOLANDER ISLAND (AUT)","1037553","2022-06-09 11:00","2022","06","09","11:00","9.9","","","M","","M","0.4","","11","","94","","","","98.93","","","","","","NA"
"-127.94","50.11","SOLANDER ISLAND (AUT)","1037553","2022-06-09 12:00","2022","06","09","12:00","10.4","","","M","","M","0.2","","11","","103","","","","98.92","","","","","","NA"
"-127.94","50.11","SOLANDER ISLAND (AUT)","1037553","2022-06-09 13:00","2022","06","09","13:00","10.6","","","M","","M","0.0","","11","","97","","","","98.85","","","","","","NA"
"-127.94","50.11","SOLANDER ISLAND (AUT)","1037553","2022-06-09 14:00","2022","06","09","14:00","10.8","","","M","","M","0.0","","11","","87","","","","98.84","","","","","","NA"
"-127.94","50.11","SOLANDER ISLAND (AUT)","1037553","2022-06-09 15:00","2022","06","09","15:00","10.2","","","M","","M","0.2","","11","","86","","","","98.86","","","","","","NA"
"-127.94","50.11","SOLANDER ISLAND (AUT)","1037553","2022-06-09 16:00","2022","06","09","16:00","10.2","","","M","","M","0.8","","11","","80","","","","98.81","","","","","","NA"
"-127.94","50.11","SOLANDER ISLAND (AUT)","1037553","2022-06-09 17:00","2022","06","09","17:00","10.4","","","M","","M","2.2","","12","","69","","","","98.98","","","","","","NA"
"-127.94","50.11","SOLANDER ISLAND (AUT)","1037553","2022-06-09 18:00","2022","06","09","18:00","10.7","","","M","","M","1.0","","11","","66","","","","98.89","","","","","","NA"
"-127.94","50.11","SOLANDER ISLAND (AUT)","1037553","2022-06-09 19:00","2022","06","09","19:00","10.9","","","M","","M","0.2","","11","","58","","","","99.02","","","","","","NA"
"-127.94","50.11","SOLANDER ISLAND (AUT)","1037553","2022-06-09 20:00","2022","06","09","20:00","10.8","","","M","","M","0.0","","12","","46","","","","99.12","","","","","","NA"
"-127.94","50.11","SOLANDER ISLAND (AUT)","1037553","2022-06-09 21:00","2022","06","09","21:00","10.7","","","M","","M","0.0","","15","","32","","","","99.23","","","","","","NA"
"-127.94","50.11","SOLANDER ISLAND (AUT)","1037553","2022-06-09 22:00","2022","06","09","22:00","10.1","","","M","","M","0.0","","16","","22","","","","99.38","","","","","","NA"
"-127.94","50.11","SOLANDER ISLAND (AUT)","1037553","2022-06-09 23:00","2022","06","09","23:00","10.3","","","M","","M","0.0","","12","","17","","","","99.49","","","","","","NA"
"-127.94","50.11","SOLANDER ISLAND (AUT)","1037553","2022-06-10 00:00","2022","06","10","00:00","9.4","","","M","","M","0.0","","17","","25","","","","99.59","","","","","","NA"
"-127.94","50.11","SOLANDER ISLAND (AUT)","1037553","2022-06-10 01:00","2022","06","10","01:00","9.7","","","M","","M","0.0","","18","","24","","","","99.68","","","","","","NA"
"-127.94","50.11","SOLANDER ISLAND (AUT)","1037553","2022-06-10 02:00","2022","06","10","02:00","9.5","","","M","","M","0.0","","14","","25","","","","99.72","","","","","","NA"
"-127.94","50.11","SOLANDER ISLAND (AUT)","1037553","2022-06-10 03:00","2022","06","10","03:00","9.8","","","M","","M","0.2","","15","","35","","","","99.75","","","","","","NA"
"-127.94","50.11","SOLANDER ISLAND (AUT)","1037553","2022-06-10 04:00","2022","06","10","04:00","9.9","","","M","","M","0.0","","12","","24","","","","99.78","","","","","","NA"
"-127.94","50.11","SOLANDER ISLAND (AUT)","1037553","2022-06-10 05:00","2022","06","10","05:00","10.0","","","M","","M","0.2","","13","","27","","","","99.82","","","","","","NA"
"-127.94","50.11","SOLANDER ISLAND (AUT)","1037553","2022-06-10 06:00","2022","06","10","06:00","10.1","","","M","","M","0.0","","12","","36","","","","99.84","","","","","","NA"
"-127.94","50.11","SOLANDER ISLAND (AUT)","1037553","2022-06-10 07:00","2022","06","10","07:00","10.2","","","M","","M","0.2","","13","","33","","","","99.87","","","","","","NA"
"-127.94","50.11","SOLANDER ISLAND (AUT)","1037553","2022-06-10 08:00","2022","06","10","08:00","10.2","","","M","","M","1.6","","14","","39","","","","99.91","","","","","","NA"
"-127.94","50.11","SOLANDER ISLAND (AUT)","1037553","2022-06-10 09:00","2022","06","10","09:00","10.3","","","M","","M","0.0","","12","","48","","","","99.90","","","","","","NA"
"-127.94","50.11","SOLANDER ISLAND (AUT)","1037553","2022-06-10 10:00","2022","06","10","10:00","10.3","","","M","","M","0.0","","13","","35","","","","99.92","","","","","","NA"
"-127.94","50.11","SOLANDER ISLAND (AUT)","1037553","2022-06-10 11:00","2022","06","10","11:00","10.2","","","M","","M","0.0","","13","","35","","","","99.91","","","","","","NA"
"-127.94","50.11","SOLANDER ISLAND (AUT)","1037553","2022-06-10 12:00","2022","06","10","12:00","10.3","","","M","","M","0.0","","13","","36","","","","99.95","","","","","","NA"
"-127.94","50.11","SOLANDER ISLAND (AUT)","1037553","2022-06-10 13:00","2022","06","10","13:00","10.2","","","M","","M","0.0","","13","","35","","","","99.93","","","","","","NA"
"-127.94","50.11","SOLANDER ISLAND (AUT)","1037553","2022-06-10 14:00","2022","06","10","14:00","10.2","","","M","","M","1.0","","13","","37","","","","99.93","","","","","","NA"
"-127.94","50.11","SOLANDER ISLAND (AUT)","1037553","2022-06-10 15:00","2022","06","10","15:00","10.4","","","M","","M","0.2","","13","","40","","","","99.90","","","","","","NA"
"-127.94","50.11","SOLANDER ISLAND (AUT)","1037553","2022-06-10 16:00","2022","06","10","16:00","10.4","","","M","","M","0.0","","13","","35","","","","99.87","","","","","","NA"
"-127.94","50.11","SOLANDER ISLAND (AUT)","1037553","2022-06-10 17:00","2022","06","10","17:00","10.2","","","M","","M","0.2","","14","","42","","","","99.81","","","","","","NA"
"-127.94","50.11","SOLANDER ISLAND (AUT)","1037553","2022-06-10 18:00","2022","06","10","18:00","10.2","","","M","","M","0.6","","13","","34","","","","99.76","","","","","","NA"
"-127.94","50.11","SOLANDER ISLAND (AUT)","1037553","2022-06-10 19:00","2022","06","10","19:00","10.2","","","M","","M","1.2","","14","","38","","","","99.73","","","","","","NA"
"-127.94","50.11","SOLANDER ISLAND (AUT)","1037553","2022-06-10 20:00","2022","06","10","20:00","10.3","","","M","","M","2.0","","12","","39","","","","99.69","","","","","","NA"
"-127.94","50.11","SOLANDER ISLAND (AUT)","1037553","2022-06-10 21:00","2022","06","10","21:00","10.3","","","M","","M","1.0","","12","","52","","","","99.67","","","","","","NA"
"-127.94","50.11","SOLANDER ISLAND (AUT)","1037553","2022-06-10 22:00","2022","06","10","22:00","10.3","","","M","","M","1.2","","11","","59","","","","99.67","","","","","","NA"
"-127.94","50.11","SOLANDER ISLAND (AUT)","1037553","2022-06-10 23:00","2022","06","10","23:00","10.3","","","M","","M","2.2","","12","","51","","","","99.65","","","","","","NA"
"-127.94","50.11","SOLANDER ISLAND (AUT)","1037553","2022-06-11 00:00","2022","06","11","00:00","10.3","","","M","","M","1.0","","12","","37","","","","99.69","","","","","","NA"
"-127.94","50.11","SOLANDER ISLAND (AUT)","1037553","2022-06-11 01:00","2022","06","11","01:00","10.4","","","M","","M","0.6","","13","","36","","","","99.71","","","","","","NA"
"-127.94","50.11","SOLANDER ISLAND (AUT)","1037553","2022-06-11 02:00","2022","06","11","02:00","10.2","","","M","","M","2.2","","21","","24","","","","99.81","","","","","","NA"
"-127.94","50.11","SOLANDER ISLAND (AUT)","1037553","2022-06-11 03:00","2022","06","11","03:00","9.7","","","M","","M","0.2","","24","","11","","","","99.87","","","","","","NA"
"-127.94","50.11","SOLANDER ISLAND (AUT)","1037553","2022-06-11 04:00","2022","06","11","04:00","9.8","","","M","","M","0.0","","19","","12","","","","99.92","","","","","","NA"
"-127.94","50.11","SOLANDER ISLAND (AUT)","1037553","2022-06-11 05:00","2022","06","11","05:00","9.9","","","M","","M","0.0","","20","","16","","","","99.95","","","","","","NA"
"-127.94","50.11","SOLANDER ISLAND (AUT)","1037553","2022-06-11 06:00","2022","06","11","06:00","9.8","","","M","","M","0.0","","25","","14","","","","99.98","","","","","","NA"
"-127.94","50.11","SOLANDER ISLAND (AUT)","1037553","2022-06-11 07:00","2022","06","11","07:00","9.5","","","M","","M","0.0","","25","","14","","","","100.05","","","","","","NA"
"-127.94","50.11","SOLANDER ISLAND (AUT)","1037553","2022-06-11 08:00","2022","06","11","08:00","9.8","","","M","","M","0.0","","20","","17","","","","100.09","","","","","","NA"
"-127.94","50.11","SOLANDER ISLAND (AUT)","1037553","2022-06-11 09:00","2022","06","11","09:00","10.5","","","M","","M","0.0","","19","","17","","","","100.13","","","","","","NA"
"-127.94","50.11","SOLANDER ISLAND (AUT)","1037553","2022-06-11 10:00","2022","06","11","10:00","10.4","","","M","","M","0.0","","18","","13","","","","100.17","","","","","","NA"
"-127.94","50.11","SOLANDER ISLAND (AUT)","1037553","2022-06-11 11:00","2022","06","11","11:00","11.6","","","M","","M","0.0","","18","","12","","","","100.21","","","","","","NA"
"-127.94","50.11","SOLANDER ISLAND (AUT)","1037553","2022-06-11 12:00","2022","06","11","12:00","12.6","","","M","","M","0.0","","19","","16","","","","100.23","","","","","","NA"
"-127.94","50.11","SOLANDER ISLAND (AUT)","1037553","2022-06-11 13:00","2022","06","11","13:00","11.4","","","M","","M","0.0","","21","","15","","","","100.26","","","","","","NA"
"-127.94","50.11","SOLANDER ISLAND (AUT)","1037553","2022-06-11 14:00","2022","06","11","14:00","13.6","","","M","","M","0.0","","19","","11","","","","100.30","","","","","","NA"
"-127.94","50.11","SOLANDER ISLAND (AUT)","1037553","2022-06-11 15:00","2022","06","11","15:00","13.6","","","M","","M","0.0","","19","","11","","","","100.31","","","","","","NA"
"-127.94","50.11","SOLANDER ISLAND (AUT)","1037553","2022-06-11 16:00","2022","06","11","16:00","12.7","","","M","","M","0.0","","19","","11","","","","100.30","","","","","","NA"
"-127.94","50.11","SOLANDER ISLAND (AUT)","1037553","2022-06-11 17:00","2022","06","11","17:00","11.5","","","M","","M","0.0","","20","","10","","","","100.31","","","","","","NA"
"-127.94","50.11","SOLANDER ISLAND (AUT)","1037553","2022-06-11 18:00","2022","06","11","18:00","11.3","","","M","","M","0.0","","25","","4","","","","100.32","","","","","","NA"
"-127.94","50.11","SOLANDER ISLAND (AUT)","1037553","2022-06-11 19:00","2022","06","11","19:00","10.6","","","M","","M","0.0","","20","","10","","","","100.31","","","","","","NA"
"-127.94","50.11","SOLANDER ISLAND (AUT)","1037553","2022-06-11 20:00","2022","06","11","20:00","10.3","","","M","","M","0.0","","21","","9","","","","100.30","","","","","","NA"
"-127.94","50.11","SOLANDER ISLAND (AUT)","1037553","2022-06-11 21:00","2022","06","11","21:00","10.1","","","M","","M","0.0","","26","","4","","","","100.30","","","","","","NA"
"-127.94","50.11","SOLANDER ISLAND (AUT)","1037553","2022-06-11 22:00","2022","06","11","22:00","10.1","","","M","","M","0.0","","26","","5","","","","100.30","","","","","","NA"
"-127.94","50.11","SOLANDER ISLAND (AUT)","1037553","2022-06-11 23:00","2022","06","11","23:00","10.0","","","M","","M","0.2","","28","","6","","","","100.28","","","","","","NA"
"-127.94","50.11","SOLANDER ISLAND (AUT)","1037553","2022-06-12 00:00","2022","06","12","00:00","9.6","","","M","","M","0.0","","27","","11","","","","100.24","","","","","","NA"
"-127.94","50.11","SOLANDER ISLAND (AUT)","1037553","2022-06-12 01:00","2022","06","12","01:00","9.7","","","M","","M","0.0","","29","","9","","","","100.22","","","","","","NA"
"-127.94","50.11","SOLANDER ISLAND (AUT)","1037553","2022-06-12 02:00","2022","06","12","02:00","9.4","","","M","","M","0.0","","2","","15","","","","100.19","","","","","","NA"
"-127.94","50.11","SOLANDER ISLAND (AUT)","1037553","2022-06-12 03:00","2022","06","12","03:00","9.3","","","M","","M","0.0","","2","","13","","","","100.16","","","","","","NA"
"-127.94","50.11","SOLANDER ISLAND (AUT)","1037553","2022-06-12 04:00","2022","06","12","04:00","9.4","","","M","","M","0.2","","35","","13","","","","100.15","","","","","","NA"
"-127.94","50.11","SOLANDER ISLAND (AUT)","1037553","2022-06-12 05:00","2022","06","12","05:00","8.5","","","M","","M","0.0","","3","","15","","","","100.14","","","","","","NA"
"-127.94","50.11","SOLANDER ISLAND (AUT)","1037553","2022-06-12 06:00","2022","06","12","06:00","8.8","","","M","","M","0.0","","3","","16","","","","100.14","","","","","","NA"
"-127.94","50.11","SOLANDER ISLAND (AUT)","1037553","2022-06-12 07:00","2022","06","12","07:00","9.1","","","M","","M","0.0","","2","","25","","","","100.14","","","","","","NA"
"-127.94","50.11","SOLANDER ISLAND (AUT)","1037553","2022-06-12 08:00","2022","06","12","08:00","11.6","","","M","","M","0.0","","2","","16","","","","100.13","","","","","","NA"
"-127.94","50.11","SOLANDER ISLAND (AUT)","1037553","2022-06-12 09:00","2022","06","12","09:00","10.7","","","M","","M","0.0","","35","","12","","","","100.14","","","","","","NA"
"-127.94","50.11","SOLANDER ISLAND (AUT)","1037553","2022-06-12 10:00","2022","06","12","10:00","10.5","","","M","","M","0.0","","32","","14","","","","100.12","","","","","","NA"
"-127.94","50.11","SOLANDER ISLAND (AUT)","1037553","2022-06-12 11:00","2022","06","12","11:00","10.4","","","M","","M","0.0","","30","","15","","","","100.12","","","","","","NA"
"-127.94","50.11","SOLANDER ISLAND (AUT)","1037553","2022-06-12 12:00","2022","06","12","12:00","11.0","","","M","","M","0.0","","30","","24","","","","100.12","","","","","","NA"
"-127.94","50.11","SOLANDER ISLAND (AUT)","1037553","2022-06-12 13:00","2022","06","12","13:00","10.7","","","M","","M","0.0","","31","","30","","","","100.12","","","","","","NA"
"-127.94","50.11","SOLANDER ISLAND (AUT)","1037553","2022-06-12 14:00","2022","06","12","14:00","11.0","","","M","","M","0.0","","30","","35","","","","100.12","","","","","","NA"
"-127.94","50.11","SOLANDER ISLAND (AUT)","1037553","2022-06-12 15:00","2022","06","12","15:00","10.6","","","M","","M","0.0","","30","","38","","","","100.13","","","","","","NA"
"-127.94","50.11","SOLANDER ISLAND (AUT)","1037553","2022-06-12 16:00","2022","06","12","16:00","11.0","","","M","","M","0.0","","30","","40","","","","100.12","","","","","","NA"
"-127.94","50.11","SOLANDER ISLAND (AUT)","1037553","2022-06-12 17:00","2022","06","12","17:00","10.6","","","M","","M","0.2","","30","","43","","","","100.13","","","","","","NA"
"-127.94","50.11","SOLANDER ISLAND (AUT)","1037553","2022-06-12 18:00","2022","06","12","18:00","10.6","","","M","","M","0.0","","30","","42","","","","100.13","","","","","","NA"
"-127.94","50.11","SOLANDER ISLAND (AUT)","1037553","2022-06-12 19:00","2022","06","12","19:00","10.1","","","M","","M","0.0","","30","","41","","","","100.16","","","","","","NA"
"-127.94","50.11","SOLANDER ISLAND (AUT)","1037553","2022-06-12 20:00","2022","06","12","20:00","9.9","","","M","","M","0.0","","30","","45","","","","100.15","","","","","","NA"
"-127.94","50.11","SOLANDER ISLAND (AUT)","1037553","2022-06-12 21:00","2022","06","12","21:00","9.8","","","M","","M","0.0","","30","","43","","","","100.22","","","","","","NA"
"-127.94","50.11","SOLANDER ISLAND (AUT)","1037553","2022-06-12 22:00","2022","06","12","22:00","9.7","","","M","","M","0.0","","30","","38","","","","100.28","","","","","","NA"
"-127.94","50.11","SOLANDER ISLAND (AUT)","1037553","2022-06-12 23:00","2022","06","12","23:00","9.6","","","M","","M","0.0","","30","","34","","","","100.26","","","","","","NA"
"-127.94","50.11","SOLANDER ISLAND (AUT)","1037553","2022-06-13 00:00","2022","06","13","00:00","9.7","","","M","","M","0.0","","30","","31","","","","100.30","","","","","","NA"
"-127.94","50.11","SOLANDER ISLAND (AUT)","1037553","2022-06-13 01:00","2022","06","13","01:00","9.5","","","M","","M","0.0","","31","","27","","","","100.31","","","","","","NA"
"-127.94","50.11","SOLANDER ISLAND (AUT)","1037553","2022-06-13 02:00","2022","06","13","02:00","9.8","","","M","","M","0.0","","28","","29","","","","100.34","","","","","","NA"
"-127.94","50.11","SOLANDER ISLAND (AUT)","1037553","2022-06-13 03:00","2022","06","13","03:00","8.7","","","M","","M","0.0","","28","","25","","","","100.40","","","","","","NA"
"-127.94","50.11","SOLANDER ISLAND (AUT)","1037553","2022-06-13 04:00","2022","06","13","04:00","9.0","","","M","","M","0.0","","33","","15","","","","100.41","","","","","","NA"
"-127.94","50.11","SOLANDER ISLAND (AUT)","1037553","2022-06-13 05:00","2022","06","13","05:00","8.8","","","M","","M","0.0","","32","","14","","","","100.44","","","","","","NA"
"-127.94","50.11","SOLANDER ISLAND (AUT)","1037553","2022-06-13 06:00","2022","06","13","06:00","8.7","","","M","","M","0.0","","28","","16","","","","100.46","","","","","","NA"
"-127.94","50.11","SOLANDER ISLAND (AUT)","1037553","2022-06-13 07:00","2022","06","13","07:00","9.1","","","M","","M","0.0","","24","","7","","","","100.49","","","","","","NA"
"-127.94","50.11","SOLANDER ISLAND (AUT)","1037553","2022-06-13 08:00","2022","06","13","08:00","10.0","","","M","","M","0.0","","20","","4","","","","100.50","","","","","","NA"
"-127.94","50.11","SOLANDER ISLAND (AUT)","1037553","2022-06-13 09:00","2022","06","13","09:00","9.6","","","M","","M","0.0","","26","","20","","","","100.52","","","","","","NA"
"-127.94","50.11","SOLANDER ISLAND (AUT)","1037553","2022-06-13 10:00","2022","06","13","10:00","9.7","","","M","","M","0.0","","26","","12","","","","100.57","","","","","","NA"
"-127.94","50.11","SOLANDER ISLAND (AUT)","1037553","2022-06-13 11:00","2022","06","13","11:00","9.3","","","M","","M","0.2","","22","","13","","","","100.61","","","","","","NA"
"-127.94","50.11","SOLANDER ISLAND (AUT)","1037553","2022-06-13 12:00","2022","06","13","12:00","8.9","","","M","","M","0.0","","26","","18","","","","100.67","","","","","","NA"
"-127.94","50.11","SOLANDER ISLAND (AUT)","1037553","2022-06-13 13:00","2022","06","13","13:00","9.3","","","M","","M","0.0","","26","","11","","","","100.70","","","","","","NA"
"-127.94","50.11","SOLANDER ISLAND (AUT)","1037553","2022-06-13 14:00","2022","06","13","14:00","10.1","","","M","","M","0.2","","27","","9","","","","100.73","","","","","","NA"
"-127.94","50.11","SOLANDER ISLAND (AUT)","1037553","2022-06-13 15:00","2022","06","13","15:00","11.0","","","M","","M","0.0","","27","","8","","","","100.77","","","","","","NA"
"-127.94","50.11","SOLANDER ISLAND (AUT)","1037553","2022-06-13 16:00","2022","06","13","16:00","11.4","","","M","","M","0.2","","26","","8","","","","100.81","","","","","","NA"
"-127.94","50.11","SOLANDER ISLAND (AUT)","1037553","2022-06-13 17:00","2022","06","13","17:00","12.7","","","M","","M","0.0","","27","","4","","","","100.84","","","","","","NA"
"-127.94","50.11","SOLANDER ISLAND (AUT)","1037553","2022-06-13 18:00","2022","06","13","18:00","11.1","","","M","","M","0.0","","27","","7","","","","100.86","","","","","","NA"
"-127.94","50.11","SOLANDER ISLAND (AUT)","1037553","2022-06-13 19:00","2022","06","13","19:00","11.5","","","M","","M","0.0","","29","","14","","","","100.89","","","","","","NA"
"-127.94","50.11","SOLANDER ISLAND (AUT)","1037553","2022-06-13 20:00","2022","06","13","20:00","10.1","","","M","","M","0.0","","29","","14","","","","100.93","","","","","","NA"
"-127.94","50.11","SOLANDER ISLAND (AUT)","1037553","2022-06-13 21:00","2022","06","13","21:00","9.8","","","M","","M","0.0","","29","","15","","","","100.98","","","","","","NA"
"-127.94","50.11","SOLANDER ISLAND (AUT)","1037553","2022-06-13 22:00","2022","06","13","22:00","9.9","","","M","","M","0.0","","31","","17","","","","101.02","","","","","","NA"
"-127.94","50.11","SOLANDER ISLAND (AUT)","1037553","2022-06-13 23:00","2022","06","13","23:00","9.8","","","M","","M","0.0","","34","","14","","","","101.04","","","","","","NA"
"-127.94","50.11","SOLANDER ISLAND (AUT)","1037553","2022-06-14 00:00","2022","06","14","00:00","9.9","","","M","","M","0.0","","30","","17","","","","101.04","","","","","","NA"
"-127.94","50.11","SOLANDER ISLAND (AUT)","1037553","2022-06-14 01:00","2022","06","14","01:00","9.9","","","M","","M","0.0","","30","","15","","","","101.06","","","","","","NA"
"-127.94","50.11","SOLANDER ISLAND (AUT)","1037553","2022-06-14 02:00","2022","06","14","02:00","9.8","","","M","","M","0.0","","29","","23","","","","101.07","","","","","","NA"
"-127.94","50.11","SOLANDER ISLAND (AUT)","1037553","2022-06-14 03:00","2022","06","14","03:00","9.9","","","M","","M","0.0","","31","","20","","","","101.10","","","","","","NA"
"-127.94","50.11","SOLANDER ISLAND (AUT)","1037553","2022-06-14 04:00","2022","06","14","04:00","9.6","","","M","","M","0.0","","34","","13","","","","101.12","","","","","","NA"
"-127.94","50.11","SOLANDER ISLAND (AUT)","1037553","2022-06-14 05:00","2022","06","14","05:00","9.4","","","M","","M","0.0","","35","","19","","","","101.14","","","","","","NA"
"-127.94","50.11","SOLANDER ISLAND (AUT)","1037553","2022-06-14 06:00","2022","06","14","06:00","10.4","","","M","","M","0.0","","36","","18","","","","101.13","","","","","","NA"
"-127.94","50.11","SOLANDER ISLAND (AUT)","1037553","2022-06-14 07:00","2022","06","14","07:00","10.5","","","M","","M","0.0","","36","","21","","","","101.14","","","","","","NA"
"-127.94","50.11","SOLANDER ISLAND (AUT)","1037553","2022-06-14 08:00","2022","06","14","08:00","11.0","","","M","","M","0.0","","1","","21","","","","101.16","","","","","","NA"
"-127.94","50.11","SOLANDER ISLAND (AUT)","1037553","2022-06-14 09:00","2022","06","14","09:00","12.2","","","M","","M","0.0","","1","","22","","","","101.17","","","","","","NA"
"-127.94","50.11","SOLANDER ISLAND (AUT)","1037553","2022-06-14 10:00","2022","06","14","10:00","11.0","","","M","","M","0.0","","34","","25","","","","101.19","","","","","","NA"
"-127.94","50.11","SOLANDER ISLAND (AUT)","1037553","2022-06-14 11:00","2022","06","14","11:00","11.0","","","M","","M","0.0","","32","","23","","","","101.19","","","","","","NA"
"-127.94","50.11","SOLANDER ISLAND (AUT)","1037553","2022-06-14 12:00","2022","06","14","12:00","10.9","","","M","","M","0.0","","31","","26","","","","101.18","","","","","","NA"
"-127.94","50.11","SOLANDER ISLAND (AUT)","1037553","2022-06-14 13:00","2022","06","14","13:00","11.1","","","M","","M","0.0","","31","","27","","","","101.20","","","","","","NA"
"-127.94","50.11","SOLANDER ISLAND (AUT)","1037553","2022-06-14 14:00","2022","06","14","14:00","11.5","","","M","","M","0.0","","31","","29","","","","101.19","","","","","","NA"
"-127.94","50.11","SOLANDER ISLAND (AUT)","1037553","2022-06-14 15:00","2022","06","14","15:00","11.5","","","M","","M","0.0","","30","","28","","","","101.19","","","","","","NA"
"-127.94","50.11","SOLANDER ISLAND (AUT)","1037553","2022-06-14 16:00","2022","06","14","16:00","11.6","","","M","","M","0.0","","30","","28","","","","101.21","","","","","","NA"
"-127.94","50.11","SOLANDER ISLAND (AUT)","1037553","2022-06-14 17:00","2022","06","14","17:00","11.5","","","M","","M","0.0","","32","","28","","","","101.15","","","","","","NA"
"-127.94","50.11","SOLANDER ISLAND (AUT)","1037553","2022-06-14 18:00","2022","06","14","18:00","10.8","","","M","","M","0.0","","31","","26","","","","101.10","","","","","","NA"
"-127.94","50.11","SOLANDER ISLAND (AUT)","1037553","2022-06-14 19:00","2022","06","14","19:00","10.7","","","M","","M","0.0","","31","","23","","","","101.11","","","","","","NA"
"-127.94","50.11","SOLANDER ISLAND (AUT)","1037553","2022-06-14 20:00","2022","06","14","20:00","10.3","","","M","","M","0.0","","31","","19","","","","101.09","","","","","","NA"
"-127.94","50.11","SOLANDER ISLAND (AUT)","1037553","2022-06-14 21:00","2022","06","14","21:00","10.3","","","M","","M","0.0","","29","","13","","","","101.08","","","","","","NA"
"-127.94","50.11","SOLANDER ISLAND (AUT)","1037553","2022-06-14 22:00","2022","06","14","22:00","10.3","","","M","","M","0.0","","29","","9","","","","101.06","","","","","","NA"
"-127.94","50.11","SOLANDER ISLAND (AUT)","1037553","2022-06-14 23:00","2022","06","14","23:00","10.2","","","M","","M","0.0","","27","","5","","","","101.02","","","","","","NA"
"-127.94","50.11","SOLANDER ISLAND (AUT)","1037553","2022-06-15 00:00","2022","06","15","00:00","10.3","","","M","","M","0.0","","18","","2","","","","100.95","","","","","","NA"
"-127.94","50.11","SOLANDER ISLAND (AUT)","1037553","2022-06-15 01:00","2022","06","15","01:00","10.3","","","M","","M","0.0","","15","","9","","","","100.91","","","","","","NA"
"-127.94","50.11","SOLANDER ISLAND (AUT)","1037553","2022-06-15 02:00","2022","06","15","02:00","10.1","","","M","","M","0.0","","17","","12","","","","100.84","","","","","","NA"
"-127.94","50.11","SOLANDER ISLAND (AUT)","1037553","2022-06-15 03:00","2022","06","15","03:00","10.1","","","M","","M","0.0","","15","","11","","","","100.81","","","","","","NA"
"-127.94","50.11","SOLANDER ISLAND (AUT)","1037553","2022-06-15 04:00","2022","06","15","04:00","9.8","","","M","","M","0.0","","11","","8","","","","100.73","","","","","","NA"
"-127.94","50.11","SOLANDER ISLAND (AUT)","1037553","2022-06-15 05:00","2022","06","15","05:00","9.7","","","M","","M","0.0","","8","","8","","","","100.66","","","","","","NA"
"-127.94","50.11","SOLANDER ISLAND (AUT)","1037553","2022-06-15 06:00","2022","06","15","06:00","10.1","","","M","","M","0.0","","12","","4","","","","100.64","","","","","","NA"
"-127.94","50.11","SOLANDER ISLAND (AUT)","1037553","2022-06-15 07:00","2022","06","15","07:00","10.5","","","M","","M","0.0","","7","","3","","","","100.58","","","","","","NA"
"-127.94","50.11","SOLANDER ISLAND (AUT)","1037553","2022-06-15 08:00","2022","06","15","08:00","11.3","","","M","","M","0.0","","36","","1","","","","100.53","","","","","","NA"
"-127.94","50.11","SOLANDER ISLAND (AUT)","1037553","2022-06-15 09:00","2022","06","15","09:00","11.4","","","M","","M","0.0","","36","","2","","","","100.49","","","","","","NA"
"-127.94","50.11","SOLANDER ISLAND (AUT)","1037553","2022-06-15 10:00","2022","06","15","10:00"
"-127.94","50.11","SOLANDER ISLAND (AUT)","1037553","2022-06-15 11:00","2022","06","15","11:00","11.4","","","M","","M","0.0","","29","","7","","","","100.39","","","","","","NA"
"-127.94","50.11","SOLANDER ISLAND (AUT)","1037553","2022-06-15 12:00","2022","06","15","12:00","12.0","","","M","","M","0.0","","28","","4","","","","100.42","","","","","","NA"
"-127.94","50.11","SOLANDER ISLAND (AUT)","1037553","2022-06-15 13:00","2022","06","15","13:00","12.1","","","M","","M","0.0","","26","","2","","","","100.38","","","","","","NA"
"-127.94","50.11","SOLANDER ISLAND (AUT)","1037553","2022-06-15 14:00","2022","06","15","14:00","11.4","","","M","","M","0.0","","17","","2","","","","100.32","","","","","","NA"
"-127.94","50.11","SOLANDER ISLAND (AUT)","1037553","2022-06-15 15:00","2022","06","15","15:00","12.2","","","M","","M","0.0","","35","","3","","","","100.29","","","","","","NA"
"-127.94","50.11","SOLANDER ISLAND (AUT)","1037553","2022-06-15 16:00","2022","06","15","16:00","11.2","","","M","","M","0.0","","34","","7","","","","100.25","","","","","","NA"
"-127.94","50.11","SOLANDER ISLAND (AUT)","1037553","2022-06-15 17:00","2022","06","15","17:00","10.8","","","M","","M","0.0","","2","","20","","","","100.20","","","","","","NA"
"-127.94","50.11","SOLANDER ISLAND (AUT)","1037553","2022-06-15 18:00","2022","06","15","18:00","10.8","","","M","","M","0.0","","3","","7","","","","100.21","","","","","","NA"
"-127.94","50.11","SOLANDER ISLAND (AUT)","1037553","2022-06-15 19:00","2022","06","15","19:00","10.8","","","M","","M","0.0","","34","","8","","","","100.16","","","","","","NA"
"-127.94","50.11","SOLANDER ISLAND (AUT)","1037553","2022-06-15 20:00","2022","06","15","20:00","10.3","","","M","","M","0.0","","1","","15","","","","100.14","","","","","","NA"
"-127.94","50.11","SOLANDER ISLAND (AUT)","1037553","2022-06-15 21:00","2022","06","15","21:00","10.3","","","M","","M","0.0","","2","","9","","","","100.12","","","","","","NA"
"-127.94","50.11","SOLANDER ISLAND (AUT)","1037553","2022-06-15 22:00","2022","06","15","22:00","11.1","","","M","","M","0.0","","17","","3","","","","100.11","","","","","","NA"
"-127.94","50.11","SOLANDER ISLAND (AUT)","1037553","2022-06-15 23:00","2022","06","15","23:00","10.8","","","M","","M","0.0","","11","","9","","","","100.11","","","","","","NA"
"-127.94","50.11","SOLANDER ISLAND (AUT)","1037553","2022-06-16 00:00","2022","06","16","00:00","10.6","","","M","","M","0.0","","16","","16","","","","100.10","","","","","","NA"
"-127.94","50.11","SOLANDER ISLAND (AUT)","1037553","2022-06-16 01:00","2022","06","16","01:00","10.6","","","M","","M","0.0","","16","","12","","","","100.08","","","","","","NA"
"-127.94","50.11","SOLANDER ISLAND (AUT)","1037553","2022-06-16 02:00","2022","06","16","02:00","10.5","","","M","","M","0.0","","16","","10","","","","100.06","","","","","","NA"
"-127.94","50.11","SOLANDER ISLAND (AUT)","1037553","2022-06-16 03:00","2022","06","16","03:00","10.3","","","M","","M","0.0","","12","","4","","","","100.06","","","","","","NA"
"-127.94","50.11","SOLANDER ISLAND (AUT)","1037553","2022-06-16 04:00","2022","06","16","04:00","10.4","","","M","","M","0.0","","14","","4","","","","100.06","","","","","","NA"
"-127.94","50.11","SOLANDER ISLAND (AUT)","1037553","2022-06-16 05:00","2022","06","16","05:00","10.3","","","M","","M","0.0","","13","","5","","","","100.05","","","","","","NA"
"-127.94","50.11","SOLANDER ISLAND (AUT)","1037553","2022-06-16 06:00","2022","06","16","06:00","10.5","","","M","","M","0.0","","11","","12","","","","100.08","","","","","","NA"
"-127.94","50.11","SOLANDER ISLAND (AUT)","1037553","2022-06-16 07:00","2022","06","16","07:00","10.8","","","M","","M","0.0","","11","","15","","","","100.09","","","","","","NA"
"-127.94","50.11","SOLANDER ISLAND (AUT)","1037553","2022-06-16 08:00","2022","06","16","08:00","11.5","","","M","","M","0.0","","10","","13","","","","100.12","","","","","","NA"
"-127.94","50.11","SOLANDER ISLAND (AUT)","1037553","2022-06-16 09:00","2022","06","16","09:00"
"-127.94","50.11","SOLANDER ISLAND (AUT)","1037553","2022-06-16 10:00","2022","06","16","10:00","11.3","","","M","","M","0.0","","13","","9","","","","100.18","","","","","","NA"
"-127.94","50.11","SOLANDER ISLAND (AUT)","1037553","2022-06-16 11:00","2022","06","16","11:00","11.2","","","M","","M","0.0","","18","","13","","","","100.20","","","","","","NA"
"-127.94","50.11","SOLANDER ISLAND (AUT)","1037553","2022-06-16 12:00","2022","06","16","12:00","12.2","","","M","","M","0.0","","19","","12","","","","100.22","","","","","","NA"
"-127.94","50.11","SOLANDER ISLAND (AUT)","1037553","2022-06-16 13:00","2022","06","16","13:00","11.3","","","M","","M","0.0","","20","","10","","","","100.26","","","","","","NA"
"-127.94","50.11","SOLANDER ISLAND (AUT)","1037553","2022-06-16 14:00","2022","06","16","14:00","11.5","","","M","","M","0.0","","26","","6","","","","100.30","","","","","","NA"
"-127.94","50.11","SOLANDER ISLAND (AUT)","1037553","2022-06-16 15:00","2022","06","16","15:00","11.2","","","M","","M","0.6","","29","","7","","","","100.33","","","","","","NA"
"-127.94","50.11","SOLANDER ISLAND (AUT)","1037553","2022-06-16 16:00","2022","06","16","16:00","10.7","","","M","","M","0.4","","35","","7","","","","100.34","","","","","","NA"
"-127.94","50.11","SOLANDER ISLAND (AUT)","1037553","2022-06-16 17:00","2022","06","16","17:00","10.7","","","M","","M","0.2","","1","","11","","","","100.34","","","","","","NA"
"-127.94","50.11","SOLANDER ISLAND (AUT)","1037553","2022-06-16 18:00","2022","06","16","18:00","10.2","","","M","","M","0.6","","1","","16","","","","100.34","","","","","","NA"
"-127.94","50.11","SOLANDER ISLAND (AUT)","1037553","2022-06-16 19:00","2022","06","16","19:00","9.9","","","M","","M","0.6","","36","","15","","","","100.35","","","","","","NA"
"-127.94","50.11","SOLANDER ISLAND (AUT)","1037553","2022-06-16 20:00","2022","06","16","20:00","9.8","","","M","","M","0.4","","1","","14","","","","100.32","","","","","","NA"
"-127.94","50.11","SOLANDER ISLAND (AUT)","1037553","2022-06-16 21:00","2022","06","16","21:00","9.5","","","M","","M","0.0","","1","","15","","","","100.32","","","","","","NA"
"-127.94","50.11","SOLANDER ISLAND (AUT)","1037553","2022-06-16 22:00","2022","06","16","22:00","9.9","","","M","","M","0.0","","1","","15","","","","100.31","","","","","","NA"
"-127.94","50.11","SOLANDER ISLAND (AUT)","1037553","2022-06-16 23:00","2022","06","16","23:00","10.0","","","M","","M","0.0","","2","","15","","","","100.30","","","","","","NA"
"-127.94","50.11","SOLANDER ISLAND (AUT)","1037553","2022-06-17 00:00","2022","06","17","00:00","10.0","","","M","","M","0.0","","1","","16","","","","100.27","","","","","","NA"
"-127.94","50.11","SOLANDER ISLAND (AUT)","1037553","2022-06-17 01:00","2022","06","17","01:00","9.8","","","M","","M","0.0","","1","","12","","","","100.23","","","","","","NA"
"-127.94","50.11","SOLANDER ISLAND (AUT)","1037553","2022-06-17 02:00","2022","06","17","02:00","10.0","","","M","","M","0.0","","36","","11","","","","100.22","","","","","","NA"
"-127.94","50.11","SOLANDER ISLAND (AUT)","1037553","2022-06-17 03:00","2022","06","17","03:00","10.1","","","M","","M","0.0","","36","","14","","","","100.19","","","","","","NA"
"-127.94","50.11","SOLANDER ISLAND (AUT)","1037553","2022-06-17 04:00","2022","06","17","04:00","9.8","","","M","","M","0.0","","1","","19","","","","100.15","","","","","","NA"
"-127.94","50.11","SOLANDER ISLAND (AUT)","1037553","2022-06-17 05:00","2022","06","17","05:00","9.8","","","M","","M","0.0","","1","","25","","","","100.10","","","","","","NA"
"-127.94","50.11","SOLANDER ISLAND (AUT)","1037553","2022-06-17 06:00","2022","06","17","06:00","10.6","","","M","","M","0.0","","1","","21","","","","100.05","","","","","","NA"
"-127.94","50.11","SOLANDER ISLAND (AUT)","1037553","2022-06-17 07:00","2022","06","17","07:00","11.2","","","M","","M","0.0","","2","","27","","","","100.02","","","","","","NA"
"-127.94","50.11","SOLANDER ISLAND (AUT)","1037553","2022-06-17 08:00","2022","06","17","08:00","11.3","","","M","","M","0.0","","1","","26","","","","100.00","","","","","","NA"
"-127.94","50.11","SOLANDER ISLAND (AUT)","1037553","2022-06-17 09:00","2022","06","17","09:00","12.1","","","M","","M","0.0","","1","","26","","","","99.94","","","","","","NA"
"-127.94","50.11","SOLANDER ISLAND (AUT)","1037553","2022-06-17 10:00","2022","06","17","10:00","12.9","","","M","","M","0.0","","36","","29","","","","99.93","","","","","","NA"
"-127.94","50.11","SOLANDER ISLAND (AUT)","1037553","2022-06-17 11:00","2022","06","17","11:00","11.6","","","M","","M","0.0","","30","","43","","","","99.91","","","","","","NA"
"-127.94","50.11","SOLANDER ISLAND (AUT)","1037553","2022-06-17 12:00","2022","06","17","12:00","11.8","","","M","","M","0.0","","30","","45","","","","99.86","","","","","","NA"
"-127.94","50.11","SOLANDER ISLAND (AUT)","1037553","2022-06-17 13:00","2022","06","17","13:00","11.6","","","M","","M","0.0","","31","","58","","","","99.80","","","","","","NA"
"-127.94","50.11","SOLANDER ISLAND (AUT)","1037553","2022-06-17 14:00","2022","06","17","14:00","12.1","","","M","","M","0.0","","31","","63","","","","99.78","","","","","","NA"
"-127.94","50.11","SOLANDER ISLAND (AUT)","1037553","2022-06-17 15:00","2022","06","17","15:00","11.9","","","M","","M","0.0","","30","","61","","","","99.74","","","","","","NA"
"-127.94","50.11","SOLANDER ISLAND (AUT)","1037553","2022-06-17 16:00","2022","06","17","16:00","11.9","","","M","","M","0.0","","30","","65","","","","99.76","","","","","","NA"
"-127.94","50.11","SOLANDER ISLAND (AUT)","1037553","2022-06-17 17:00","2022","06","17","17:00","11.2","","","M","","M","0.0","","30","","63","","","","99.79","","","","","","NA"
"-127.94","50.11","SOLANDER ISLAND (AUT)","1037553","2022-06-17 18:00","2022","06","17","18:00","10.8","","","M","","M","0.0","","30","","61","","","","99.82","","","","","","NA"
"-127.94","50.11","SOLANDER ISLAND (AUT)","1037553","2022-06-17 19:00","2022","06","17","19:00","10.7","","","M","","M","0.2","","30","","60","","","","99.85","","","","","","NA"
"-127.94","50.11","SOLANDER ISLAND (AUT)","1037553","2022-06-17 20:00","2022","06","17","20:00","10.7","","","M","","M","0.0","","30","","56","","","","99.91","","","","","","NA"
"-127.94","50.11","SOLANDER ISLAND (AUT)","1037553","2022-06-17 21:00","2022","06","17","21:00","10.8","","","M","","M","0.0","","31","","49","","","","99.95","","","","","","NA"
"-127.94","50.11","SOLANDER ISLAND (AUT)","1037553","2022-06-17 22:00","2022","06","17","22:00","10.9","","","M","","M","0.0","","30","","45","","","","99.97","","","","","","NA"
"-127.94","50.11","SOLANDER ISLAND (AUT)","1037553","2022-06-17 23:00","2022","06","17","23:00","10.8","","","M","","M","0.0","","30","","42","","","","99.94","","","","","","NA"
"-127.94","50.11","SOLANDER ISLAND (AUT)","1037553","2022-06-18 00:00","2022","06","18","00:00","10.8","","","M","","M","0.0","","30","","32","","","","100.01","","","","","","NA"
"-127.94","50.11","SOLANDER ISLAND (AUT)","1037553","2022-06-18 01:00","2022","06","18","01:00","11.0","","","M","","M","0.0","","30","","32","","","","100.03","","","","","","NA"
"-127.94","50.11","SOLANDER ISLAND (AUT)","1037553","2022-06-18 02:00","2022","06","18","02:00","10.8","","","M","","M","0.0","","31","","38","","","","100.01","","","","","","NA"
"-127.94","50.11","SOLANDER ISLAND (AUT)","1037553","2022-06-18 03:00","2022","06","18","03:00","10.7","","","M","","M","0.0","","32","","34","","","","100.03","","","","","","NA"
"-127.94","50.11","SOLANDER ISLAND (AUT)","1037553","2022-06-18 04:00","2022","06","18","04:00","10.5","","","M","","M","0.0","","33","","32","","","","100.09","","","","","","NA"
"-127.94","50.11","SOLANDER ISLAND (AUT)","1037553","2022-06-18 05:00","2022","06","18","05:00","10.5","","","M","","M","0.0","","33","","25","","","","100.15","","","","","","NA"
"-127.94","50.11","SOLANDER ISLAND (AUT)","1037553","2022-06-18 06:00","2022","06","18","06:00","10.4","","","M","","M","0.0","","35","","25","","","","100.18","","","","","","NA"
"-127.94","50.11","SOLANDER ISLAND (AUT)","1037553","2022-06-18 07:00","2022","06","18","07:00","11.0","","","M","","M","0.0","","35","","22","","","","100.20","","","","","","NA"
"-127.94","50.11","SOLANDER ISLAND (AUT)","1037553","2022-06-18 08:00","2022","06","18","08:00","11.0","","","M","","M","0.0","","33","","23","","","","100.24","","","","","","NA"
"-127.94","50.11","SOLANDER ISLAND (AUT)","1037553","2022-06-18 09:00","2022","06","18","09:00","11.4","","","M","","M","0.0","","33","","21","","","","100.27","","","","","","NA"
"-127.94","50.11","SOLANDER ISLAND (AUT)","1037553","2022-06-18 10:00","2022","06","18","10:00","12.1","","","M","","M","0.0","","32","","18","","","","100.31","","","","","","NA"
"-127.94","50.11","SOLANDER ISLAND (AUT)","1037553","2022-06-18 11:00","2022","06","18","11:00","12.2","","","M","","M","0.0","","31","","16","","","","100.36","","","","","","NA"
"-127.94","50.11","SOLANDER ISLAND (AUT)","1037553","2022-06-18 12:00","2022","06","18","12:00","12.7","","","M","","M","0.0","","31","","15","","","","100.41","","","","","","NA"
"-127.94","50.11","SOLANDER ISLAND (AUT)","1037553","2022-06-18 13:00","2022","06","18","13:00","12.0","","","M","","M","0.0","","31","","15","","","","100.47","","","","","","NA"
"-127.94","50.11","SOLANDER ISLAND (AUT)","1037553","2022-06-18 14:00","2022","06","18","14:00","11.7","","","M","","M","0.0","","29","","21","","","","100.52","","","","","","NA"
"-127.94","50.11","SOLANDER ISLAND (AUT)","1037553","2022-06-18 15:00","2022","06","18","15:00","11.2","","","M","","M","0.0","","29","","21","","","","100.57","","","","","","NA"
"-127.94","50.11","SOLANDER ISLAND (AUT)","1037553","2022-06-18 16:00","2022","06","18","16:00","10.9","","","M","","M","0.0","","30","","22","","","","100.60","","","","","","NA"
"-127.94","50.11","SOLANDER ISLAND (AUT)","1037553","2022-06-18 17:00","2022","06","18","17:00","10.9","","","M","","M","0.0","","29","","21","","","","100.65","","","","","","NA"
"-127.94","50.11","SOLANDER ISLAND (AUT)","1037553","2022-06-18 18:00","2022","06","18","18:00","11.0","","","M","","M","0.0","","32","","18","","","","100.65","","","","","","NA"
"-127.94","50.11","SOLANDER ISLAND (AUT)","1037553","2022-06-18 19:00","2022","06","18","19:00","11.0","","","M","","M","0.0","","34","","16","","","","100.70","","","","","","NA"
"-127.94","50.11","SOLANDER ISLAND (AUT)","1037553","2022-06-18 20:00","2022","06","18","20:00","10.9","","","M","","M","0.0","","34","","17","","","","100.73","","","","","","NA"
"-127.94","50.11","SOLANDER ISLAND (AUT)","1037553","2022-06-18 21:00","2022","06","18","21:00","10.8","","","M","","M","0.0","","33","","21","","","","100.75","","","","","","NA"
"-127.94","50.11","SOLANDER ISLAND (AUT)","1037553","2022-06-18 22:00","2022","06","18","22:00","10.6","","","M","","M","0.0","","32","","26","","","","100.80","","","","","","NA"
"-127.94","50.11","SOLANDER ISLAND (AUT)","1037553","2022-06-18 23:00","2022","06","18","23:00","9.9","","","M","","M","0.0","","31","","38","","","","100.82","","","","","","NA"
"-127.94","50.11","SOLANDER ISLAND (AUT)","1037553","2022-06-19 00:00","2022","06","19","00:00","9.9","","","M","","M","0.0","","31","","37","","","","100.86","","","","","","NA"
"-127.94","50.11","SOLANDER ISLAND (AUT)","1037553","2022-06-19 01:00","2022","06","19","01:00","10.1","","","M","","M","0.0","","31","","28","","","","100.91","","","","","","NA"
"-127.94","50.11","SOLANDER ISLAND (AUT)","1037553","2022-06-19 02:00","2022","06","19","02:00","10.2","","","M","","M","0.0","","32","","26","","","","100.95","","","","","","NA"
"-127.94","50.11","SOLANDER ISLAND (AUT)","1037553","2022-06-19 03:00","2022","06","19","03:00","9.9","","","M","","M","0.0","","32","","27","","","","100.99","","","","","","NA"
"-127.94","50.11","SOLANDER ISLAND (AUT)","1037553","2022-06-19 04:00","2022","06","19","04:00","9.8","","","M","","M","0.0","","31","","28","","","","101.02","","","","","","NA"
"-127.94","50.11","SOLANDER ISLAND (AUT)","1037553","2022-06-19 05:00","2022","06","19","05:00","9.9","","","M","","M","0.0","","31","","23","","","","101.05","","","","","","NA"
"-127.94","50.11","SOLANDER ISLAND (AUT)","1037553","2022-06-19 06:00","2022","06","19","06:00","10.0","","","M","","M","0.0","","31","","23","","","","101.08","","","","","","NA"
"-127.94","50.11","SOLANDER ISLAND (AUT)","1037553","2022-06-19 07:00","2022","06","19","07:00","10.0","","","M","","M","0.0","","32","","21","","","","101.11","","","","","","NA"
"-127.94","50.11","SOLANDER ISLAND (AUT)","1037553","2022-06-19 08:00","2022","06","19","08:00","10.3","","","M","","M","0.0","","32","","27","","","","101.14","","","","","","NA"
"-127.94","50.11","SOLANDER ISLAND (AUT)","1037553","2022-06-19 09:00","2022","06","19","09:00","10.0","","","M","","M","0.0","","30","","27","","","","101.17","","","","","","NA"
"-127.94","50.11","SOLANDER ISLAND (AUT)","1037553","2022-06-19 10:00","2022","06","19","10:00","9.5","","","M","","M","0.0","","30","","33","","","","101.15","","","","","","NA"
"-127.94","50.11","SOLANDER ISLAND (AUT)","1037553","2022-06-19 11:00","2022","06","19","11:00","10.1","","","M","","M","0.0","","32","","32","","","","101.17","","","","","","NA"
"-127.94","50.11","SOLANDER ISLAND (AUT)","1037553","2022-06-19 12:00","2022","06","19","12:00","11.1","","","M","","M","0.0","","32","","22","","","","101.23","","","","","","NA"
"-127.94","50.11","SOLANDER ISLAND (AUT)","1037553","2022-06-19 13:00","2022","06","19","13:00","12.2","","","M","","M","0.0","","35","","21","","","","101.26","","","","","","NA"
"-127.94","50.11","SOLANDER ISLAND (AUT)","1037553","2022-06-19 14:00","2022","06","19","14:00","12.0","","","M","","M","0.0","","30","","31","","","","101.28","","","","","","NA"
"-127.94","50.11","SOLANDER ISLAND (AUT)","1037553","2022-06-19 15:00","2022","06","19","15:00","12.6","","","M","","M","0.0","","29","","25","","","","101.33","","","","","","NA"
"-127.94","50.11","SOLANDER ISLAND (AUT)","1037553","2022-06-19 16:00","2022","06","19","16:00","12.1","","","M","","M","0.0","","29","","28","","","","101.31","","","","","","NA"
"-127.94","50.11","SOLANDER ISLAND (AUT)","1037553","2022-06-19 17:00","2022","06","19","17:00","11.9","","","M","","M","0.0","","29","","26","","","","101.32","","","","","","NA"
"-127.94","50.11","SOLANDER ISLAND (AUT)","1037553","2022-06-19 18:00","2022","06","19","18:00","11.0","","","M","","M","0.0","","29","","24","","","","101.30","","","","","","NA"
"-127.94","50.11","SOLANDER ISLAND (AUT)","1037553","2022-06-19 19:00","2022","06","19","19:00","11.1","","","M","","M","0.0","","31","","21","","","","101.31","","","","","","NA"
"-127.94","50.11","SOLANDER ISLAND (AUT)","1037553","2022-06-19 20:00","2022","06","19","20:00","11.1","","","M","","M","0.0","","32","","16","","","","101.31","","","","","","NA"
"-127.94","50.11","SOLANDER ISLAND (AUT)","1037553","2022-06-19 21:00","2022","06","19","21:00","11.0","","","M","","M","0.0","","31","","12","","","","101.34","","","","","","NA"
"-127.94","50.11","SOLANDER ISLAND (AUT)","1037553","2022-06-19 22:00","2022","06","19","22:00"
"-127.94","50.11","SOLANDER ISLAND (AUT)","1037553","2022-06-19 23:00","2022","06","19","23:00","10.7","","","M","","M","0.0","","34","","5","","","","101.37","","","","","","NA"
"-127.94","50.11","SOLANDER ISLAND (AUT)","1037553","2022-06-20 00:00","2022","06","20","00:00","10.4","","","M","","M","0.2","","1","","4","","","","101.35","","","","","","NA"
"-127.94","50.11","SOLANDER ISLAND (AUT)","1037553","2022-06-20 01:00","2022","06","20","01:00","10.7","","","M","","M","0.0","","28","","2","","","","101.36","","","","","","NA"
"-127.94","50.11","SOLANDER ISLAND (AUT)","1037553","2022-06-20 02:00","2022","06","20","02:00","10.7","","","M","","M","0.4","","17","","6","","","","101.36","","","","","","NA"
"-127.94","50.11","SOLANDER ISLAND (AUT)","1037553","2022-06-20 03:00","2022","06","20","03:00","10.9","","","M","","M","0.2","","17","","10","","","","101.38","","","","","","NA"
"-127.94","50.11","SOLANDER ISLAND (AUT)","1037553","2022-06-20 04:00","2022","06","20","04:00","11.0","","","M","","M","0.0","","19","","12","","","","101.40","","","","","","NA"
"-127.94","50.11","SOLANDER ISLAND (AUT)","1037553","2022-06-20 05:00","2022","06","20","05:00","10.9","","","M","","M","0.0","","17","","8","","","","101.43","","","","","","NA"
"-127.94","50.11","SOLANDER ISLAND (AUT)","1037553","2022-06-20 06:00","2022","06","20","06:00","11.1","","","M","","M","0.0","","16","","7","","","","101.46","","","","","","NA"
"-127.94","50.11","SOLANDER ISLAND (AUT)","1037553","2022-06-20 07:00","2022","06","20","07:00","11.2","","","M","","M","0.0","","16","","14","","","","101.47","","","","","","NA"
"-127.94","50.11","SOLANDER ISLAND (AUT)","1037553","2022-06-20 08:00","2022","06","20","08:00","11.8","","","M","","M","0.0","","17","","9","","","","101.51","","","","","","NA"
"-127.94","50.11","SOLANDER ISLAND (AUT)","1037553","2022-06-20 09:00","2022","06","20","09:00","13.0","","","M","","M","0.0","","18","","7","","","","101.54","","","","","","NA"
"-127.94","50.11","SOLANDER ISLAND (AUT)","1037553","2022-06-20 10:00","2022","06","20","10:00","13.9","","","M","","M","0.0","","22","","4","","","","101.57","","","","","","NA"
"-127.94","50.11","SOLANDER ISLAND (AUT)","1037553","2022-06-20 11:00","2022","06","20","11:00","14.1","","","M","","M","0.0","","33","","2","","","","101.56","","","","","","NA"
"-127.94","50.11","SOLANDER ISLAND (AUT)","1037553","2022-06-20 12:00","2022","06","20","12:00","13.8","","","M","","M","0.0","","28","","11","","","","101.62","","","","","","NA"
"-127.94","50.11","SOLANDER ISLAND (AUT)","1037553","2022-06-20 13:00","2022","06","20","13:00","13.6","","","M","","M","0.0","","28","","16","","","","101.65","","","","","","NA"
"-127.94","50.11","SOLANDER ISLAND (AUT)","1037553","2022-06-20 14:00","2022","06","20","14:00","13.3","","","M","","M","0.0","","31","","13","","","","101.62","","","","","","NA"
"-127.94","50.11","SOLANDER ISLAND (AUT)","1037553","2022-06-20 15:00","2022","06","20","15:00","13.7","","","M","","M","0.0","","28","","14","","","","101.67","","","","","","NA"
"-127.94","50.11","SOLANDER ISLAND (AUT)","1037553","2022-06-20 16:00","2022","06","20","16:00","13.4","","","M","","M","0.0","","30","","11","","","","101.64","","","","","","NA"
"-127.94","50.11","SOLANDER ISLAND (AUT)","1037553","2022-06-20 17:00","2022","06","20","17:00","12.0","","","M","","M","0.0","","29","","12","","","","101.63","","","","","","NA"
"-127.94","50.11","SOLANDER ISLAND (AUT)","1037553","2022-06-20 18:00","2022","06","20","18:00","11.9","","","M","","M","0.0","","29","","12","","","","101.59","","","","","","NA"
"-127.94","50.11","SOLANDER ISLAND (AUT)","1037553","2022-06-20 19:00","2022","06","20","19:00","11.8","","","M","","M","0.2","","29","","6","","","","101.58","","","","","","NA"
"-127.94","50.11","SOLANDER ISLAND (AUT)","1037553","2022-06-20 20:00","2022","06","20","20:00","11.5","","","M","","M","0.6","","20","","10","","","","101.57","","","","","","NA"
"-127.94","50.11","SOLANDER ISLAND (AUT)","1037553","2022-06-20 21:00","2022","06","20","21:00","11.5","","","M","","M","0.6","","15","","15","","","","101.55","","","","","","NA"
"-127.94","50.11","SOLANDER ISLAND (AUT)","1037553","2022-06-20 22:00","2022","06","20","22:00","11.4","","","M","","M","0.2","","11","","28","","","","101.48","","","","","","NA"
"-127.94","50.11","SOLANDER ISLAND (AUT)","1037553","2022-06-20 23:00","2022","06","20","23:00","11.4","","","M","","M","0.4","","14","","27","","","","101.46","","","","","","NA"
"-127.94","50.11","SOLANDER ISLAND (AUT)","1037553","2022-06-21 00:00","2022","06","21","00:00","11.4","","","M","","M","1.2","","11","","41","","","","101.40","","","","","","NA"
"-127.94","50.11","SOLANDER ISLAND (AUT)","1037553","2022-06-21 01:00","2022","06","21","01:00","11.4","","","M","","M","1.2","","11","","41","","","","101.38","","","","","","NA"
"-127.94","50.11","SOLANDER ISLAND (AUT)","1037553","2022-06-21 02:00","2022","06","21","02:00","11.5","","","M","","M","1.8","","11","","46","","","","101.33","","","","","","NA"
"-127.94","50.11","SOLANDER ISLAND (AUT)","1037553","2022-06-21 03:00","2022","06","21","03:00","11.7","","","M","","M","2.0","","11","","44","","","","101.27","","","","","","NA"
"-127.94","50.11","SOLANDER ISLAND (AUT)","1037553","2022-06-21 04:00","2022","06","21","04:00","11.8","","","M","","M","1.4","","11","","48","","","","101.26","","","","","","NA"
"-127.94","50.11","SOLANDER ISLAND (AUT)","1037553","2022-06-21 05:00","2022","06","21","05:00","12.1","","","M","","M","2.0","","14","","26","","","","101.32","","","","","","NA"
"-127.94","50.11","SOLANDER ISLAND (AUT)","1037553","2022-06-21 06:00","2022","06","21","06:00","11.7","","","M","","M","1.8","","18","","25","","","","101.31","","","","","","NA"
"-127.94","50.11","SOLANDER ISLAND (AUT)","1037553","2022-06-21 07:00","2022","06","21","07:00","11.6","","","M","","M","0.8","","18","","27","","","","101.29","","","","","","NA"
"-127.94","50.11","SOLANDER ISLAND (AUT)","1037553","2022-06-21 08:00","2022","06","21","08:00","11.6","","","M","","M","2.0","","19","","23","","","","101.28","","","","","","NA"
"-127.94","50.11","SOLANDER ISLAND (AUT)","1037553","2022-06-21 09:00","2022","06","21","09:00","11.6","","","M","","M","1.8","","18","","21","","","","101.30","","","","","","NA"
"-127.94","50.11","SOLANDER ISLAND (AUT)","1037553","2022-06-21 10:00","2022","06","21","10:00","11.5","","","M","","M","1.4","","19","","18","","","","101.31","","","","","","NA"
"-127.94","50.11","SOLANDER ISLAND (AUT)","1037553","2022-06-21 11:00","2022","06","21","11:00","11.4","","","M","","M","0.6","","18","","19","","","","101.31","","","","","","NA"
"-127.94","50.11","SOLANDER ISLAND (AUT)","1037553","2022-06-21 12:00","2022","06","21","12:00","11.5","","","M","","M","0.8","","18","","14","","","","101.30","","","","","","NA"
"-127.94","50.11","SOLANDER ISLAND (AUT)","1037553","2022-06-21 13:00","2022","06","21","13:00","11.7","","","M","","M","0.0","","18","","14","","","","101.31","","","","","","NA"
"-127.94","50.11","SOLANDER ISLAND (AUT)","1037553","2022-06-21 14:00","2022","06","21","14:00","11.5","","","M","","M","0.2","","18","","13","","","","101.32","","","","","","NA"
"-127.94","50.11","SOLANDER ISLAND (AUT)","1037553","2022-06-21 15:00","2022","06","21","15:00","11.8","","","M","","M","0.2","","20","","11","","","","101.34","","","","","","NA"
"-127.94","50.11","SOLANDER ISLAND (AUT)","1037553","2022-06-21 16:00","2022","06","21","16:00","11.6","","","M","","M","0.4","","21","","9","","","","101.31","","","","","","NA"
"-127.94","50.11","SOLANDER ISLAND (AUT)","1037553","2022-06-21 17:00","2022","06","21","17:00","11.7","","","M","","M","0.0","","26","","7","","","","101.29","","","","","","NA"
"-127.94","50.11","SOLANDER ISLAND (AUT)","1037553","2022-06-21 18:00","2022","06","21","18:00","11.8","","","M","","M","0.0","","28","","5","","","","101.28","","","","","","NA"
"-127.94","50.11","SOLANDER ISLAND (AUT)","1037553","2022-06-21 19:00","2022","06","21","19:00","11.4","","","M","","M","0.0","","30","","15","","","","101.24","","","","","","NA"
"-127.94","50.11","SOLANDER ISLAND (AUT)","1037553","2022-06-21 20:00","2022","06","21","20:00","11.0","","","M","","M","0.2","","30","","22","","","","101.25","","","","","","NA"
"-127.94","50.11","SOLANDER ISLAND (AUT)","1037553","2022-06-21 21:00","2022","06","21","21:00","10.9","","","M","","M","0.0","","29","","25","","","","101.24","","","","","","NA"
"-127.94","50.11","SOLANDER ISLAND (AUT)","1037553","2022-06-21 22:00","2022","06","21","22:00","10.6","","","M","","M","0.0","","31","","29","","","","101.25","","","","","","NA"
"-127.94","50.11","SOLANDER ISLAND (AUT)","1037553","2022-06-21 23:00","2022","06","21","23:00","10.2","","","M","","M","0.2","","31","","30","","","","101.24","","","","","","NA"
"-127.94","50.11","SOLANDER ISLAND (AUT)","1037553","2022-06-22 00:00","2022","06","22","00:00","10.6","","","M","","M","0.0","","31","","39","","","","101.24","","","","","","NA"
"-127.94","50.11","SOLANDER ISLAND (AUT)","1037553","2022-06-22 01:00","2022","06","22","01:00","10.6","","","M","","M","0.0","","31","","43","","","","101.23","","","","","","NA"
"-127.94","50.11","SOLANDER ISLAND (AUT)","1037553","2022-06-22 02:00","2022","06","22","02:00","10.6","","","M","","M","0.0","","33","","43","","","","101.24","","","","","","NA"
"-127.94","50.11","SOLANDER ISLAND (AUT)","1037553","2022-06-22 03:00","2022","06","22","03:00","10.4","","","M","","M","0.0","","31","","43","","","","101.25","","","","","","NA"
"-127.94","50.11","SOLANDER ISLAND (AUT)","1037553","2022-06-22 04:00","2022","06","22","04:00","10.3","","","M","","M","0.0","","31","","48","","","","101.21","","","","","","NA"
"-127.94","50.11","SOLANDER ISLAND (AUT)","1037553","2022-06-22 05:00","2022","06","22","05:00","10.3","","","M","","M","0.0","","32","","42","","","","101.25","","","","","","NA"
"-127.94","50.11","SOLANDER ISLAND (AUT)","1037553","2022-06-22 06:00","2022","06","22","06:00","10.3","","","M","","M","0.0","","33","","33","","","","101.30","","","","","","NA"
"-127.94","50.11","SOLANDER ISLAND (AUT)","1037553","2022-06-22 07:00","2022","06","22","07:00","10.2","","","M","","M","0.0","","34","","35","","","","101.32","","","","","","NA"
"-127.94","50.11","SOLANDER ISLAND (AUT)","1037553","2022-06-22 08:00","2022","06","22","08:00","10.2","","","M","","M","0.0","","32","","37","","","","101.32","","","","","","NA"
"-127.94","50.11","SOLANDER ISLAND (AUT)","1037553","2022-06-22 09:00","2022","06","22","09:00","10.4","","","M","","M","0.0","","32","","31","","","","101.33","","","","","","NA"
"-127.94","50.11","SOLANDER ISLAND (AUT)","1037553","2022-06-22 10:00","2022","06","22","10:00","10.7","","","M","","M","0.0","","33","","35","","","","101.34","","","","","","NA"
"-127.94","50.11","SOLANDER ISLAND (AUT)","1037553","2022-06-22 11:00","2022","06","22","11:00","10.8","","","M","","M","0.0","","31","","41","","","","101.33","","","","","","NA"
"-127.94","50.11","SOLANDER ISLAND (AUT)","1037553","2022-06-22 12:00","2022","06","22","12:00","11.1","","","M","","M","0.0","","31","","40","","","","101.36","","","","","","NA"
"-127.94","50.11","SOLANDER ISLAND (AUT)","1037553","2022-06-22 13:00","2022","06","22","13:00","10.9","","","M","","M","0.0","","30","","38","","","","101.33","","","","","","NA"
"-127.94","50.11","SOLANDER ISLAND (AUT)","1037553","2022-06-22 14:00","2022","06","22","14:00","11.3","","","M","","M","0.0","","30","","39","","","","101.31","","","","","","NA"
"-127.94","50.11","SOLANDER ISLAND (AUT)","1037553","2022-06-22 15:00","2022","06","22","15:00","11.1","","","M","","M","0.2","","30","","39","","","","101.30","","","","","","NA"
"-127.94","50.11","SOLANDER ISLAND (AUT)","1037553","2022-06-22 16:00","2022","06","22","16:00","11.5","","","M","","M","0.0","","30","","41","","","","101.27","","","","","","NA"
"-127.94","50.11","SOLANDER ISLAND (AUT)","1037553","2022-06-22 17:00","2022","06","22","17:00","11.5","","","M","","M","0.0","","31","","48","","","","101.22","","","","","","NA"
"-127.94","50.11","SOLANDER ISLAND (AUT)","1037553","2022-06-22 18:00","2022","06","22","18:00","11.3","","","M","","M","0.0","","31","","53","","","","101.17","","","","","","NA"
"-127.94","50.11","SOLANDER ISLAND (AUT)","1037553","2022-06-22 19:00","2022","06","22","19:00","11.1","","","M","","M","0.0","","32","","54","","","","101.16","","","","","","NA"
"-127.94","50.11","SOLANDER ISLAND (AUT)","1037553","2022-06-22 20:00","2022","06","22","20:00","10.8","","","M","","M","0.0","","31","","51","","","","101.18","","","","","","NA"
"-127.94","50.11","SOLANDER ISLAND (AUT)","1037553","2022-06-22 21:00","2022","06","22","21:00","10.6","","","M","","M","0.0","","31","","49","","","","101.20","","","","","","NA"
"-127.94","50.11","SOLANDER ISLAND (AUT)","1037553","2022-06-22 22:00","2022","06","22","22:00","10.5","","","M","","M","0.0","","33","","43","","","","101.25","","","","","","NA"
"-127.94","50.11","SOLANDER ISLAND (AUT)","1037553","2022-06-22 23:00","2022","06","22","23:00","10.4","","","M","","M","0.0","","32","","40","","","","101.24","","","","","","NA"
"-127.94","50.11","SOLANDER ISLAND (AUT)","1037553","2022-06-23 00:00","2022","06","23","00:00","10.2","","","M","","M","0.0","","34","","34","","","","101.22","","","","","","NA"
"-127.94","50.11","SOLANDER ISLAND (AUT)","1037553","2022-06-23 01:00","2022","06","23","01:00","10.1","","","M","","M","0.0","","35","","31","","","","101.21","","","","","","NA"
"-127.94","50.11","SOLANDER ISLAND (AUT)","1037553","2022-06-23 02:00","2022","06","23","02:00","9.8","","","M","","M","0.0","","36","","30","","","","101.20","","","","","","NA"
"-127.94","50.11","SOLANDER ISLAND (AUT)","1037553","2022-06-23 03:00","2022","06","23","03:00","9.8","","","M","","M","0.0","","34","","28","","","","101.18","","","","","","NA"
"-127.94","50.11","SOLANDER ISLAND (AUT)","1037553","2022-06-23 04:00","2022","06","23","04:00","9.6","","","M","","M","0.0","","34","","23","","","","101.18","","","","","","NA"
"-127.94","50.11","SOLANDER ISLAND (AUT)","1037553","2022-06-23 05:00","2022","06","23","05:00","9.6","","","M","","M","0.0","","35","","25","","","","101.17","","","","","","NA"
"-127.94","50.11","SOLANDER ISLAND (AUT)","1037553","2022-06-23 06:00","2022","06","23","06:00","9.9","","","M","","M","0.0","","34","","25","","","","101.19","","","","","","NA"
"-127.94","50.11","SOLANDER ISLAND (AUT)","1037553","2022-06-23 07:00","2022","06","23","07:00","10.6","","","M","","M","0.0","","36","","28","","","","101.19","","","","","","NA"
"-127.94","50.11","SOLANDER ISLAND (AUT)","1037553","2022-06-23 08:00","2022","06","23","08:00","10.8","","","M","","M","0.0","","36","","27","","","","101.20","","","","","","NA"
"-127.94","50.11","SOLANDER ISLAND (AUT)","1037553","2022-06-23 09:00","2022","06","23","09:00","10.6","","","M","","M","0.0","","31","","28","","","","101.21","","","","","","NA"
"-127.94","50.11","SOLANDER ISLAND (AUT)","1037553","2022-06-23 10:00","2022","06","23","10:00","10.9","","","M","","M","0.0","","30","","32","","","","101.18","","","","","","NA"
"-127.94","50.11","SOLANDER ISLAND (AUT)","1037553","2022-06-23 11:00","2022","06","23","11:00","11.0","","","M","","M","0.0","","30","","40","","","","101.15","","","","","","NA"
"-127.94","50.11","SOLANDER ISLAND (AUT)","1037553","2022-06-23 12:00","2022","06","23","12:00","11.3","","","M","","M","0.0","","31","","42","","","","101.16","","","","","","NA"
"-127.94","50.11","SOLANDER ISLAND (AUT)","1037553","2022-06-23 13:00","2022","06","23","13:00","11.5","","","M","","M","0.0","","30","","40","","","","101.15","","","","","","NA"
"-127.94","50.11","SOLANDER ISLAND (AUT)","1037553","2022-06-23 14:00","2022","06","23","14:00","12.3","","","M","","M","0.0","","31","","45","","","","101.12","","","","","","NA"
"-127.94","50.11","SOLANDER ISLAND (AUT)","1037553","2022-06-23 15:00","2022","06","23","15:00","12.3","","","M","","M","0.0","","30","","49","","","","101.07","","","","","","NA"
"-127.94","50.11","SOLANDER ISLAND (AUT)","1037553","2022-06-23 16:00","2022","06","23","16:00","12.4","","","M","","M","0.0","","30","","50","","","","101.04","","","","","","NA"
"-127.94","50.11","SOLANDER ISLAND (AUT)","1037553","2022-06-23 17:00","2022","06","23","17:00","12.2","","","M","","M","0.0","","30","","53","","","","101.04","","","","","","NA"
"-127.94","50.11","SOLANDER ISLAND (AUT)","1037553","2022-06-23 18:00","2022","06","23","18:00","12.1","","","M","","M","0.0","","30","","56","","","","101.03","","","","","","NA"
"-127.94","50.11","SOLANDER ISLAND (AUT)","1037553","2022-06-23 19:00","2022","06","23","19:00","11.9","","","M","","M","0.0","","32","","57","","","","101.04","","","","","","NA"
"-127.94","50.11","SOLANDER ISLAND (AUT)","1037553","2022-06-23 20:00","2022","06","23","20:00","11.3","","","M","","M","0.0","","1","","29","","","","101.16","","","","","","NA"
"-127.94","50.11","SOLANDER ISLAND (AUT)","1037553","2022-06-23 21:00","2022","06","23","21:00","11.3","","","M","","M","0.0","","2","","30","","","","101.13","","","","","","NA"
"-127.94","50.11","SOLANDER ISLAND (AUT)","1037553","2022-06-23 22:00","2022","06","23","22:00","11.9","","","M","","M","0.0","","36","","37","","","","101.12","","","","","","NA"
"-127.94","50.11","SOLANDER ISLAND (AUT)","1037553","2022-06-23 23:00","2022","06","23","23:00","11.1","","","M","","M","0.0","","36","","25","","","","101.14","","","","","","NA"
"-127.94","50.11","SOLANDER ISLAND (AUT)","1037553","2022-06-24 00:00","2022","06","24","00:00","11.2","","","M","","M","0.0","","1","","30","","","","101.12","","","","","","NA"
"-127.94","50.11","SOLANDER ISLAND (AUT)","1037553","2022-06-24 01:00","2022","06","24","01:00","10.9","","","M","","M","0.0","","35","","21","","","","101.14","","","","","","NA"
"-127.94","50.11","SOLANDER ISLAND (AUT)","1037553","2022-06-24 02:00","2022","06","24","02:00","11.7","","","M","","M","0.0","","36","","25","","","","101.16","","","","","","NA"
"-127.94","50.11","SOLANDER ISLAND (AUT)","1037553","2022-06-24 03:00","2022","06","24","03:00","10.3","","","M","","M","0.0","","1","","19","","","","101.16","","","","","","NA"
"-127.94","50.11","SOLANDER ISLAND (AUT)","1037553","2022-06-24 04:00","2022","06","24","04:00","11.3","","","M","","M","0.0","","35","","16","","","","101.17","","","","","","NA"
"-127.94","50.11","SOLANDER ISLAND (AUT)","1037553","2022-06-24 05:00","2022","06","24","05:00","11.0","","","M","","M","0.0","","34","","6","","","","101.21","","","","","","NA"
"-127.94","50.11","SOLANDER ISLAND (AUT)","1037553","2022-06-24 06:00","2022","06","24","06:00","12.0","","","M","","M","0.0","","27","","4","","","","101.23","","","","","","NA"
"-127.94","50.11","SOLANDER ISLAND (AUT)","1037553","2022-06-24 07:00","2022","06","24","07:00","12.2","","","M","","M","0.0","","34","","7","","","","101.24","","","","","","NA"
"-127.94","50.11","SOLANDER ISLAND (AUT)","1037553","2022-06-24 08:00","2022","06","24","08:00","16.0","","","M","","M","0.0","","0","","1","","","","101.25","","","","","","NA"
"-127.94","50.11","SOLANDER ISLAND (AUT)","1037553","2022-06-24 09:00","2022","06","24","09:00","16.2","","","M","","M","0.0","","0","","1","","","","101.26","","","","","","NA"
"-127.94","50.11","SOLANDER ISLAND (AUT)","1037553","2022-06-24 10:00","2022","06","24","10:00","16.2","","","M","","M","0.0","","21","","2","","","","101.30","","","","","","NA"
"-127.94","50.11","SOLANDER ISLAND (AUT)","1037553","2022-06-24 11:00","2022","06","24","11:00","13.4","","","M","","M","0.0","","33","","9","","","","101.31","","","","","","NA"
"-127.94","50.11","SOLANDER ISLAND (AUT)","1037553","2022-06-24 12:00","2022","06","24","12:00","13.8","","","M","","M","0.0","","35","","14","","","","101.34","","","","","","NA"
"-127.94","50.11","SOLANDER ISLAND (AUT)","1037553","2022-06-24 13:00","2022","06","24","13:00","12.7","","","M","","M","0.0","","31","","15","","","","101.37","","","","","","NA"
"-127.94","50.11","SOLANDER ISLAND (AUT)","1037553","2022-06-24 14:00","2022","06","24","14:00","13.1","","","M","","M","0.0","","32","","19","","","","101.37","","","","","","NA"
"-127.94","50.11","SOLANDER ISLAND (AUT)","1037553","2022-06-24 15:00","2022","06","24","15:00","12.0","","","M","","M","0.0","","32","","24","","","","101.35","","","","","","NA"
"-127.94","50.11","SOLANDER ISLAND (AUT)","1037553","2022-06-24 16:00","2022","06","24","16:00","11.7","","","M","","M","0.0","","34","","23","","","","101.32","","","","","","NA"
"-127.94","50.11","SOLANDER ISLAND (AUT)","1037553","2022-06-24 17:00","2022","06","24","17:00","11.2","","","M","","M","0.0","","34","","26","","","","101.29","","","","","","NA"
"-127.94","50.11","SOLANDER ISLAND (AUT)","1037553","2022-06-24 18:00","2022","06","24","18:00","11.1","","","M","","M","0.0","","34","","21","","","","101.29","","","","","","NA"
"-127.94","50.11","SOLANDER ISLAND (AUT)","1037553","2022-06-24 19:00","2022","06","24","19:00","11.7","","","M","","M","0.0","","36","","28","","","","101.27","","","","","","NA"
"-127.94","50.11","SOLANDER ISLAND (AUT)","1037553","2022-06-24 20:00","2022","06","24","20:00","11.8","","","M","","M","0.0","","36","","26","","","","101.22","","","","","","NA"
"-127.94","50.11","SOLANDER ISLAND (AUT)","1037553","2022-06-24 21:00","2022","06","24","21:00","11.9","","","M","","M","0.0","","36","","24","","","","101.22","","","","","","NA"
"-127.94","50.11","SOLANDER ISLAND (AUT)","1037553","2022-06-24 22:00","2022","06","24","22:00","11.5","","","M","","M","0.0","","30","","27","","","","101.22","","","","","","NA"
"-127.94","50.11","SOLANDER ISLAND (AUT)","1037553","2022-06-24 23:00","2022","06","24","23:00","11.7","","","M","","M","0.0","","36","","29","","","","101.20","","","","","","NA"
"-127.94","50.11","SOLANDER ISLAND (AUT)","1037553","2022-06-25 00:00","2022","06","25","00:00","11.7","","","M","","M","0.0","","36","","28","","","","101.19","","","","","","NA"
"-127.94","50.11","SOLANDER ISLAND (AUT)","1037553","2022-06-25 01:00","2022","06","25","01:00","11.0","","","M","","M","0.0","","32","","21","","","","101.22","","","","","","NA"
"-127.94","50.11","SOLANDER ISLAND (AUT)","1037553","2022-06-25 02:00","2022","06","25","02:00","11.1","","","M","","M","0.0","","35","","29","","","","101.20","","","","","","NA"
"-127.94","50.11","SOLANDER ISLAND (AUT)","1037553","2022-06-25 03:00","2022","06","25","03:00","10.9","","","M","","M","0.0","","36","","32","","","","101.17","","","","","","NA"
"-127.94","50.11","SOLANDER ISLAND (AUT)","1037553","2022-06-25 04:00","2022","06","25","04:00","10.7","","","M","","M","0.0","","33","","32","","","","101.15","","","","","","NA"
"-127.94","50.11","SOLANDER ISLAND (AUT)","1037553","2022-06-25 05:00","2022","06","25","05:00","10.9","","","M","","M","0.0","","36","","32","","","","101.13","","","","","","NA"
"-127.94","50.11","SOLANDER ISLAND (AUT)","1037553","2022-06-25 06:00","2022","06","25","06:00","11.7","","","M","","M","0.0","","33","","23","","","","101.13","","","","","","NA"
"-127.94","50.11","SOLANDER ISLAND (AUT)","1037553","2022-06-25 07:00","2022","06","25","07:00","12.6","","","M","","M","0.0","","34","","19","","","","101.17","","","","","","NA"
"-127.94","50.11","SOLANDER ISLAND (AUT)","1037553","2022-06-25 08:00","2022","06","25","08:00","12.4","","","M","","M","0.0","","34","","21","","","","101.17","","","","","","NA"
"-127.94","50.11","SOLANDER ISLAND (AUT)","1037553","2022-06-25 09:00","2022","06","25","09:00","14.4","","","M","","M","0.0","","33","","13","","","","101.18","","","","","","NA"
"-127.94","50.11","SOLANDER ISLAND (AUT)","1037553","2022-06-25 10:00","2022","06","25","10:00","13.7","","","M","","M","0.0","","35","","19","","","","101.17","","","","","","NA"
"-127.94","50.11","SOLANDER ISLAND (AUT)","1037553","2022-06-25 11:00","2022","06","25","11:00","14.0","","","M","","M","0.0","","35","","15","","","","101.18","","","","","","NA"
"-127.94","50.11","SOLANDER ISLAND (AUT)","1037553","2022-06-25 12:00","2022","06","25","12:00","14.3","","","M","","M","0.0","","35","","23","","","","101.18","","","","","","NA"
"-127.94","50.11","SOLANDER ISLAND (AUT)","1037553","2022-06-25 13:00","2022","06","25","13:00","13.9","","","M","","M","0.0","","32","","23","","","","101.17","","","","","","NA"
"-127.94","50.11","SOLANDER ISLAND (AUT)","1037553","2022-06-25 14:00","2022","06","25","14:00","13.0","","","M","","M","0.0","","33","","24","","","","101.18","","","","","","NA"
"-127.94","50.11","SOLANDER ISLAND (AUT)","1037553","2022-06-25 15:00","2022","06","25","15:00","12.8","","","M","","M","0.0","","35","","28","","","","101.17","","","","","","NA"
"-127.94","50.11","SOLANDER ISLAND (AUT)","1037553","2022-06-25 16:00","2022","06","25","16:00","13.2","","","M","","M","0.0","","34","","27","","","","101.13","","","","","","NA"
"-127.94","50.11","SOLANDER ISLAND (AUT)","1037553","2022-06-25 17:00","2022","06","25","17:00","13.4","","","M","","M","0.0","","34","","30","","","","101.09","","","","","","NA"
"-127.94","50.11","SOLANDER ISLAND (AUT)","1037553","2022-06-25 18:00","2022","06","25","18:00","13.4","","","M","","M","0.0","","34","","31","","","","101.06","","","","","","NA"
"-127.94","50.11","SOLANDER ISLAND (AUT)","1037553","2022-06-25 19:00","2022","06","25","19:00","13.4","","","M","","M","0.0","","34","","32","","","","101.02","","","","","","NA"
"-127.94","50.11","SOLANDER ISLAND (AUT)","1037553","2022-06-25 20:00","2022","06","25","20:00","12.9","","","M","","M","0.0","","33","","34","","","","101.00","","","","","","NA"
"-127.94","50.11","SOLANDER ISLAND (AUT)","1037553","2022-06-25 21:00","2022","06","25","21:00","13.0","","","M","","M","0.0","","34","","35","","","","100.98","","","","","","NA"
"-127.94","50.11","SOLANDER ISLAND (AUT)","1037553","2022-06-25 22:00","2022","06","25","22:00","13.2","","","M","","M","0.0","","34","","29","","","","100.98","","","","","","NA"
"-127.94","50.11","SOLANDER ISLAND (AUT)","1037553","2022-06-25 23:00","2022","06","25","23:00","13.5","","","M","","M","0.0","","35","","33","","","","100.94","","","","","","NA"
"-127.94","50.11","SOLANDER ISLAND (AUT)","1037553","2022-06-26 00:00","2022","06","26","00:00","14.2","","","M","","M","0.0","","36","","33","","","","100.92","","","","","","NA"
"-127.94","50.11","SOLANDER ISLAND (AUT)","1037553","2022-06-26 01:00","2022","06","26","01:00","13.8","","","M","","M","0.0","","35","","36","","","","100.91","","","","","","NA"
"-127.94","50.11","SOLANDER ISLAND (AUT)","1037553","2022-06-26 02:00","2022","06","26","02:00","13.0","","","M","","M","0.0","","35","","36","","","","100.89","","","","","","NA"
"-127.94","50.11","SOLANDER ISLAND (AUT)","1037553","2022-06-26 03:00","2022","06","26","03:00","13.0","","","M","","M","0.0","","35","","37","","","","100.88","","","","","","NA"
"-127.94","50.11","SOLANDER ISLAND (AUT)","1037553","2022-06-26 04:00","2022","06","26","04:00","12.3","","","M","","M","0.0","","36","","36","","","","100.86","","","","","","NA"
"-127.94","50.11","SOLANDER ISLAND (AUT)","1037553","2022-06-26 05:00","2022","06","26","05:00","11.7","","","M","","M","0.0","","35","","38","","","","100.85","","","","","","NA"
"-127.94","50.11","SOLANDER ISLAND (AUT)","1037553","2022-06-26 06:00","2022","06","26","06:00","12.2","","","M","","M","0.0","","34","","37","","","","100.86","","","","","","NA"
"-127.94","50.11","SOLANDER ISLAND (AUT)","1037553","2022-06-26 07:00","2022","06","26","07:00","12.9","","","M","","M","0.0","","35","","36","","","","100.85","","","","","","NA"
"-127.94","50.11","SOLANDER ISLAND (AUT)","1037553","2022-06-26 08:00","2022","06","26","08:00","13.3","","","M","","M","0.0","","34","","35","","","","100.86","","","","","","NA"
"-127.94","50.11","SOLANDER ISLAND (AUT)","1037553","2022-06-26 09:00","2022","06","26","09:00","13.4","","","M","","M","0.0","","34","","32","","","","100.86","","","","","","NA"
"-127.94","50.11","SOLANDER ISLAND (AUT)","1037553","2022-06-26 10:00","2022","06","26","10:00","13.1","","","M","","M","0.0","","34","","30","","","","100.87","","","","","","NA"
"-127.94","50.11","SOLANDER ISLAND (AUT)","1037553","2022-06-26 11:00","2022","06","26","11:00","12.9","","","M","","M","0.0","","35","","35","","","","100.85","","","","","","NA"
"-127.94","50.11","SOLANDER ISLAND (AUT)","1037553","2022-06-26 12:00","2022","06","26","12:00","12.7","","","M","","M","0.0","","35","","35","","","","100.84","","","","","","NA"
"-127.94","50.11","SOLANDER ISLAND (AUT)","1037553","2022-06-26 13:00","2022","06","26","13:00","12.4","","","M","","M","0.0","","35","","34","","","","100.81","","","","","","NA"
"-127.94","50.11","SOLANDER ISLAND (AUT)","1037553","2022-06-26 14:00","2022","06","26","14:00","12.5","","","M","","M","0.0","","35","","32","","","","100.79","","","","","","NA"
"-127.94","50.11","SOLANDER ISLAND (AUT)","1037553","2022-06-26 15:00","2022","06","26","15:00","12.6","","","M","","M","0.0","","36","","36","","","","100.76","","","","","","NA"
"-127.94","50.11","SOLANDER ISLAND (AUT)","1037553","2022-06-26 16:00","2022","06","26","16:00","12.8","","","M","","M","0.0","","36","","32","","","","100.72","","","","","","NA"
"-127.94","50.11","SOLANDER ISLAND (AUT)","1037553","2022-06-26 17:00","2022","06","26","17:00","12.8","","","M","","M","0.0","","35","","31","","","","100.68","","","","","","NA"
"-127.94","50.11","SOLANDER ISLAND (AUT)","1037553","2022-06-26 18:00","2022","06","26","18:00","12.7","","","M","","M","0.0","","35","","34","","","","100.63","","","","","","NA"
"-127.94","50.11","SOLANDER ISLAND (AUT)","1037553","2022-06-26 19:00","2022","06","26","19:00","12.8","","","M","","M","0.0","","35","","33","","","","100.60","","","","","","NA"
"-127.94","50.11","SOLANDER ISLAND (AUT)","1037553","2022-06-26 20:00","2022","06","26","20:00","12.7","","","M","","M","0.0","","34","","43","","","","100.54","","","","","","NA"
"-127.94","50.11","SOLANDER ISLAND (AUT)","1037553","2022-06-26 21:00","2022","06","26","21:00","12.5","","","M","","M","0.0","","35","","39","","","","100.53","","","","","","NA"
"-127.94","50.11","SOLANDER ISLAND (AUT)","1037553","2022-06-26 22:00","2022","06","26","22:00","12.8","","","M","","M","0.0","","36","","41","","","","100.49","","","","","","NA"
"-127.94","50.11","SOLANDER ISLAND (AUT)","1037553","2022-06-26 23:00","2022","06","26","23:00","12.8","","","M","","M","0.0","","35","","40","","","","100.46","","","","","","NA"
"-127.94","50.11","SOLANDER ISLAND (AUT)","1037553","2022-06-27 00:00","2022","06","27","00:00","12.2","","","M","","M","0.0","","36","","42","","","","100.42","","","","","","NA"
"-127.94","50.11","SOLANDER ISLAND (AUT)","1037553","2022-06-27 01:00","2022","06","27","01:00","12.1","","","M","","M","0.0","","36","","38","","","","100.40","","","","","","NA"
"-127.94","50.11","SOLANDER ISLAND (AUT)","1037553","2022-06-27 02:00","2022","06","27","02:00","12.3","","","M","","M","0.0","","36","","36","","","","100.36","","","","","","NA"
"-127.94","50.11","SOLANDER ISLAND (AUT)","1037553","2022-06-27 03:00","2022","06","27","03:00","12.3","","","M","","M","0.0","","36","","38","","","","100.32","","","","","","NA"
"-127.94","50.11","SOLANDER ISLAND (AUT)","1037553","2022-06-27 04:00","2022","06","27","04:00","12.3","","","M","","M","0.0","","36","","35","","","","100.28","","","","","","NA"
"-127.94","50.11","SOLANDER ISLAND (AUT)","1037553","2022-06-27 05:00","2022","06","27","05:00","11.8","","","M","","M","0.0","","34","","34","","","","100.25","","","","","","NA"
"-127.94","50.11","SOLANDER ISLAND (AUT)","1037553","2022-06-27 06:00","2022","06","27","06:00","12.9","","","M","","M","0.0","","34","","30","","","","100.23","","","","","","NA"
"-127.94","50.11","SOLANDER ISLAND (AUT)","1037553","2022-06-27 07:00","2022","06","27","07:00"
"-127.94","50.11","SOLANDER ISLAND (AUT)","1037553","2022-06-27 08:00","2022","06","27","08:00","16.7","","","M","","M","0.0","","15","","3","","","","100.24","","","","","","NA"
"-127.94","50.11","SOLANDER ISLAND (AUT)","1037553","2022-06-27 09:00","2022","06","27","09:00","15.9","","","M","","M","0.0","","17","","6","","","","100.23","","","","","","NA"
"-127.94","50.11","SOLANDER ISLAND (AUT)","1037553","2022-06-27 10:00","2022","06","27","10:00","17.3","","","M","","M","0.0","","17","","2","","","","100.22","","","","","","NA"
"-127.94","50.11","SOLANDER ISLAND (AUT)","1037553","2022-06-27 11:00","2022","06","27","11:00","17.4","","","M","","M","0.0","","13","","3","","","","100.21","","","","","","NA"
"-127.94","50.11","SOLANDER ISLAND (AUT)","1037553","2022-06-27 12:00","2022","06","27","12:00","17.5","","","M","","M","0.0","","11","","14","","","","100.22","","","","","","NA"
"-127.94","50.11","SOLANDER ISLAND (AUT)","1037553","2022-06-27 13:00","2022","06","27","13:00","18.3","","","M","","M","0.0","","11","","22","","","","100.16","","","","","","NA"
"-127.94","50.11","SOLANDER ISLAND (AUT)","1037553","2022-06-27 14:00","2022","06","27","14:00","18.8","","","M","","M","0.0","","11","","44","","","","100.08","","","","","","NA"
"-127.94","50.11","SOLANDER ISLAND (AUT)","1037553","2022-06-27 15:00","2022","06","27","15:00","15.0","","","M","","M","0.0","","12","","54","","","","100.03","","","","","","NA"
"-127.94","50.11","SOLANDER ISLAND (AUT)","1037553","2022-06-27 16:00","2022","06","27","16:00","13.3","","","M","","M","0.0","","12","","65","","","","99.99","","","","","","NA"
"-127.94","50.11","SOLANDER ISLAND (AUT)","1037553","2022-06-27 17:00","2022","06","27","17:00","14.3","","","M","","M","0.0","","11","","64","","","","99.92","","","","","","NA"
"-127.94","50.11","SOLANDER ISLAND (AUT)","1037553","2022-06-27 18:00","2022","06","27","18:00","13.7","","","M","","M","0.0","","11","","65","","","","99.97","","","","","","NA"
"-127.94","50.11","SOLANDER ISLAND (AUT)","1037553","2022-06-27 19:00","2022","06","27","19:00","14.0","","","M","","M","0.0","","11","","69","","","","99.87","","","","","","NA"
"-127.94","50.11","SOLANDER ISLAND (AUT)","1037553","2022-06-27 20:00","2022","06","27","20:00","13.8","","","M","","M","0.0","","11","","49","","","","100.07","","","","","","NA"
"-127.94","50.11","SOLANDER ISLAND (AUT)","1037553","2022-06-27 21:00","2022","06","27","21:00","13.6","","","M","","M","0.0","","11","","56","","","","100.01","","","","","","NA"
"-127.94","50.11","SOLANDER ISLAND (AUT)","1037553","2022-06-27 22:00","2022","06","27","22:00","14.0","","","M","","M","0.0","","11","","61","","","","99.96","","","","","","NA"
"-127.94","50.11","SOLANDER ISLAND (AUT)","1037553","2022-06-27 23:00","2022","06","27","23:00","13.6","","","M","","M","0.0","","11","","76","","","","100.05","","","","","","NA"
"-127.94","50.11","SOLANDER ISLAND (AUT)","1037553","2022-06-28 00:00","2022","06","28","00:00","13.3","","","M","","M","0.0","","11","","44","","","","100.08","","","","","","NA"
"-127.94","50.11","SOLANDER ISLAND (AUT)","1037553","2022-06-28 01:00","2022","06","28","01:00","13.1","","","M","","M","0.0","","11","","39","","","","100.12","","","","","","NA"
"-127.94","50.11","SOLANDER ISLAND (AUT)","1037553","2022-06-28 02:00","2022","06","28","02:00","12.6","","","M","","M","0.0","","11","","51","","","","100.00","","","","","","NA"
"-127.94","50.11","SOLANDER ISLAND (AUT)","1037553","2022-06-28 03:00","2022","06","28","03:00","13.3","","","M","","M","0.0","","13","","41","","","","99.94","","","","","","NA"
"-127.94","50.11","SOLANDER ISLAND (AUT)","1037553","2022-06-28 04:00","2022","06","28","04:00","12.8","","","M","","M","0.0","","13","","45","","","","99.99","","","","","","NA"
"-127.94","50.11","SOLANDER ISLAND (AUT)","1037553","2022-06-28 05:00","2022","06","28","05:00","12.3","","","M","","M","0.0","","12","","61","","","","100.04","","","","","","NA"
"-127.94","50.11","SOLANDER ISLAND (AUT)","1037553","2022-06-28 06:00","2022","06","28","06:00","12.4","","","M","","M","0.0","","11","","48","","","","100.05","","","","","","NA"
"-127.94","50.11","SOLANDER ISLAND (AUT)","1037553","2022-06-28 07:00","2022","06","28","07:00","12.2","","","M","","M","0.0","","12","","47","","","","100.11","","","","","","NA"
"-127.94","50.11","SOLANDER ISLAND (AUT)","1037553","2022-06-28 08:00","2022","06","28","08:00","12.3","","","M","","M","0.0","","11","","39","","","","100.17","","","","","","NA"
"-127.94","50.11","SOLANDER ISLAND (AUT)","1037553","2022-06-28 09:00","2022","06","28","09:00","12.7","","","M","","M","0.0","","10","","52","","","","100.13","","","","","","NA"
"-127.94","50.11","SOLANDER ISLAND (AUT)","1037553","2022-06-28 10:00","2022","06","28","10:00","12.5","","","M","","M","0.0","","11","","58","","","","100.12","","","","","","NA"
"-127.94","50.11","SOLANDER ISLAND (AUT)","1037553","2022-06-28 11:00","2022","06","28","11:00","12.9","","","M","","M","0.0","","14","","49","","","","100.17","","","","","","NA"
"-127.94","50.11","SOLANDER ISLAND (AUT)","1037553","2022-06-28 12:00","2022","06","28","12:00","12.8","","","M","","M","0.0","","11","","38","","","","100.37","","","","","","NA"
"-127.94","50.11","SOLANDER ISLAND (AUT)","1037553","2022-06-28 13:00","2022","06","28","13:00","13.1","","","M","","M","0.0","","11","","43","","","","100.37","","","","","","NA"
"-127.94","50.11","SOLANDER ISLAND (AUT)","1037553","2022-06-28 14:00","2022","06","28","14:00","13.0","","","M","","M","0.0","","12","","38","","","","100.38","","","","","","NA"
"-127.94","50.11","SOLANDER ISLAND (AUT)","1037553","2022-06-28 15:00","2022","06","28","15:00","13.0","","","M","","M","0.0","","11","","45","","","","100.41","","","","","","NA"
"-127.94","50.11","SOLANDER ISLAND (AUT)","1037553","2022-06-28 16:00","2022","06","28","16:00","12.7","","","M","","M","0.0","","11","","42","","","","100.49","","","","","","NA"
"-127.94","50.11","SOLANDER ISLAND (AUT)","1037553","2022-06-28 17:00","2022","06","28","17:00","12.9","","","M","","M","0.0","","11","","35","","","","100.52","","","","","","NA"
"-127.94","50.11","SOLANDER ISLAND (AUT)","1037553","2022-06-28 18:00","2022","06","28","18:00","13.0","","","M","","M","0.0","","11","","28","","","","100.55","","","","","","NA"
"-127.94","50.11","SOLANDER ISLAND (AUT)","1037553","2022-06-28 19:00","2022","06","28","19:00","12.8","","","M","","M","0.0","","12","","27","","","","100.55","","","","","","NA"
"-127.94","50.11","SOLANDER ISLAND (AUT)","1037553","2022-06-28 20:00","2022","06","28","20:00","12.7","","","M","","M","0.0","","12","","25","","","","100.58","","","","","","NA"
"-127.94","50.11","SOLANDER ISLAND (AUT)","1037553","2022-06-28 21:00","2022","06","28","21:00","12.5","","","M","","M","0.0","","10","","18","","","","100.68","","","","","","NA"
"-127.94","50.11","SOLANDER ISLAND (AUT)","1037553","2022-06-28 22:00","2022","06","28","22:00","12.4","","","M","","M","0.0","","11","","22","","","","100.68","","","","","","NA"
"-127.94","50.11","SOLANDER ISLAND (AUT)","1037553","2022-06-28 23:00","2022","06","28","23:00","12.1","","","M","","M","0.0","","11","","27","","","","100.65","","","","","","NA"
"-127.94","50.11","SOLANDER ISLAND (AUT)","1037553","2022-06-29 00:00","2022","06","29","00:00","12.1","","","M","","M","0.0","","11","","26","","","","100.67","","","","","","NA"
"-127.94","50.11","SOLANDER ISLAND (AUT)","1037553","2022-06-29 01:00","2022","06","29","01:00","12.2","","","M","","M","0.0","","11","","22","","","","100.68","","","","","","NA"
"-127.94","50.11","SOLANDER ISLAND (AUT)","1037553","2022-06-29 02:00","2022","06","29","02:00","12.1","","","M","","M","0.0","","11","","22","","","","100.71","","","","","","NA"
"-127.94","50.11","SOLANDER ISLAND (AUT)","1037553","2022-06-29 03:00","2022","06","29","03:00","12.2","","","M","","M","0.2","","11","","15","","","","100.75","","","","","","NA"
"-127.94","50.11","SOLANDER ISLAND (AUT)","1037553","2022-06-29 04:00","2022","06","29","04:00","12.2","","","M","","M","0.2","","19","","9","","","","100.76","","","","","","NA"
"-127.94","50.11","SOLANDER ISLAND (AUT)","1037553","2022-06-29 05:00","2022","06","29","05:00","11.2","","","M","","M","0.2","","33","","16","","","","100.79","","","","","","NA"
"-127.94","50.11","SOLANDER ISLAND (AUT)","1037553","2022-06-29 06:00","2022","06","29","06:00","11.2","","","M","","M","0.2","","1","","15","","","","100.83","","","","","","NA"
"-127.94","50.11","SOLANDER ISLAND (AUT)","1037553","2022-06-29 07:00","2022","06","29","07:00","11.3","","","M","","M","0.0","","1","","17","","","","100.87","","","","","","NA"
"-127.94","50.11","SOLANDER ISLAND (AUT)","1037553","2022-06-29 08:00","2022","06","29","08:00","11.6","","","M","","M","0.0","","1","","14","","","","100.91","","","","","","NA"
"-127.94","50.11","SOLANDER ISLAND (AUT)","1037553","2022-06-29 09:00","2022","06","29","09:00","12.2","","","M","","M","0.0","","36","","15","","","","100.95","","","","","","NA"
"-127.94","50.11","SOLANDER ISLAND (AUT)","1037553","2022-06-29 10:00","2022","06","29","10:00","12.6","","","M","","M","0.0","","33","","12","","","","100.97","","","","","","NA"
"-127.94","50.11","SOLANDER ISLAND (AUT)","1037553","2022-06-29 11:00","2022","06","29","11:00","13.0","","","M","","M","0.0","","34","","10","","","","101.04","","","","","","NA"
"-127.94","50.11","SOLANDER ISLAND (AUT)","1037553","2022-06-29 12:00","2022","06","29","12:00","12.9","","","M","","M","0.0","","31","","14","","","","101.06","","","","","","NA"
"-127.94","50.11","SOLANDER ISLAND (AUT)","1037553","2022-06-29 13:00","2022","06","29","13:00","13.4","","","M","","M","0.0","","32","","11","","","","101.11","","","","","","NA"
"-127.94","50.11","SOLANDER ISLAND (AUT)","1037553","2022-06-29 14:00","2022","06","29","14:00","14.8","","","M","","M","0.0","","29","","11","","","","101.14","","","","","","NA"
"-127.94","50.11","SOLANDER ISLAND (AUT)","1037553","2022-06-29 15:00","2022","06","29","15:00","14.5","","","M","","M","0.0","","28","","11","","","","101.15","","","","","","NA"
"-127.94","50.11","SOLANDER ISLAND (AUT)","1037553","2022-06-29 16:00","2022","06","29","16:00","13.8","","","M","","M","0.0","","30","","13","","","","101.15","","","","","","NA"
"-127.94","50.11","SOLANDER ISLAND (AUT)","1037553","2022-06-29 17:00","2022","06","29","17:00","12.9","","","M","","M","0.0","","31","","15","","","","101.15","","","","","","NA"
"-127.94","50.11","SOLANDER ISLAND (AUT)","1037553","2022-06-29 18:00","2022","06","29","18:00","12.5","","","M","","M","0.0","","33","","11","","","","101.16","","","","","","NA"
"-127.94","50.11","SOLANDER ISLAND (AUT)","1037553","2022-06-29 19:00","2022","06","29","19:00","12.0","","","M","","M","0.0","","35","","13","","","","101.15","","","","","","NA"
"-127.94","50.11","SOLANDER ISLAND (AUT)","1037553","2022-06-29 20:00","2022","06","29","20:00","11.6","","","M","","M","0.0","","35","","15","","","","101.15","","","","","","NA"
"-127.94","50.11","SOLANDER ISLAND (AUT)","1037553","2022-06-29 21:00","2022","06","29","21:00","11.6","","","M","","M","0.0","","34","","16","","","","101.17","","","","","","NA"
"-127.94","50.11","SOLANDER ISLAND (AUT)","1037553","2022-06-29 22:00","2022","06","29","22:00","11.6","","","M","","M","0.0","","36","","16","","","","101.17","","","","","","NA"
"-127.94","50.11","SOLANDER ISLAND (AUT)","1037553","2022-06-29 23:00","2022","06","29","23:00","11.6","","","M","","M","0.0","","1","","16","","","","101.17","","","","","","NA"
"-127.94","50.11","SOLANDER ISLAND (AUT)","1037553","2022-06-30 00:00","2022","06","30","00:00","11.5","","","M","","M","0.0","","1","","16","","","","101.16","","","","","","NA"
"-127.94","50.11","SOLANDER ISLAND (AUT)","1037553","2022-06-30 01:00","2022","06","30","01:00","11.5","","","M","","M","0.0","","1","","21","","","","101.15","","","","","","NA"
"-127.94","50.11","SOLANDER ISLAND (AUT)","1037553","2022-06-30 02:00","2022","06","30","02:00","11.6","","","M","","M","0.0","","36","","21","","","","101.13","","","","","","NA"
"-127.94","50.11","SOLANDER ISLAND (AUT)","1037553","2022-06-30 03:00","2022","06","30","03:00","11.6","","","M","","M","0.0","","35","","18","","","","101.10","","","","","","NA"
"-127.94","50.11","SOLANDER ISLAND (AUT)","1037553","2022-06-30 04:00","2022","06","30","04:00","11.3","","","M","","M","0.0","","36","","20","","","","101.07","","","","","","NA"
"-127.94","50.11","SOLANDER ISLAND (AUT)","1037553","2022-06-30 05:00","2022","06","30","05:00","11.3","","","M","","M","0.2","","36","","23","","","","101.06","","","","","","NA"
"-127.94","50.11","SOLANDER ISLAND (AUT)","1037553","2022-06-30 06:00","2022","06","30","06:00","11.5","","","M","","M","0.4","","36","","21","","","","101.05","","","","","","NA"
"-127.94","50.11","SOLANDER ISLAND (AUT)","1037553","2022-06-30 07:00","2022","06","30","07:00","11.6","","","M","","M","0.0","","35","","23","","","","101.04","","","","","","NA"
"-127.94","50.11","SOLANDER ISLAND (AUT)","1037553","2022-06-30 08:00","2022","06","30","08:00","11.7","","","M","","M","0.0","","36","","24","","","","101.03","","","","","","NA"
"-127.94","50.11","SOLANDER ISLAND (AUT)","1037553","2022-06-30 09:00","2022","06","30","09:00","12.0","","","M","","M","0.0","","36","","23","","","","101.04","","","","","","NA"
"-127.94","50.11","SOLANDER ISLAND (AUT)","1037553","2022-06-30 10:00","2022","06","30","10:00","12.3","","","M","","M","0.0","","36","","25","","","","101.05","","","","","","NA"
"-127.94","50.11","SOLANDER ISLAND (AUT)","1037553","2022-06-30 11:00","2022","06","30","11:00","12.7","","","M","","M","0.0","","1","","24","","","","101.05","","","","","","NA"
"-127.94","50.11","SOLANDER ISLAND (AUT)","1037553","2022-06-30 12:00","2022","06","30","12:00","13.1","","","M","","M","0.0","","35","","19","","","","101.06","","","","","","NA"
"-127.94","50.11","SOLANDER ISLAND (AUT)","1037553","2022-06-30 13:00","2022","06","30","13:00","13.3","","","M","","M","0.0","","35","","17","","","","101.05","","","","","","NA"
"-127.94","50.11","SOLANDER ISLAND (AUT)","1037553","2022-06-30 14:00","2022","06","30","14:00","14.5","","","M","","M","0.0","","35","","16","","","","101.04","","","","","","NA"
"-127.94","50.11","SOLANDER ISLAND (AUT)","1037553","2022-06-30 15:00","2022","06","30","15:00","15.2","","","M","","M","0.0","","32","","11","","","","101.03","","","","","","NA"
"-127.94","50.11","SOLANDER ISLAND (AUT)","1037553","2022-06-30 16:00","2022","06","30","16:00","14.6","","","M","","M","0.0","","33","","10","","","","101.01","","","","","","NA"
"-127.94","50.11","SOLANDER ISLAND (AUT)","1037553","2022-06-30 17:00","2022","06","30","17:00","13.7","","","M","","M","0.0","","34","","16","","","","100.97","","","","","","NA"
"-127.94","50.11","SOLANDER ISLAND (AUT)","1037553","2022-06-30 18:00","2022","06","30","18:00","13.5","","","M","","M","0.0","","34","","21","","","","100.95","","","","","","NA"
"-127.94","50.11","SOLANDER ISLAND (AUT)","1037553","2022-06-30 19:00","2022","06","30","19:00","11.9","","","M","","M","0.0","","34","","23","","","","100.93","","","","","","NA"
"-127.94","50.11","SOLANDER ISLAND (AUT)","1037553","2022-06-30 20:00","2022","06","30","20:00","11.8","","","M","","M","0.0","","36","","29","","","","100.87","","","","","","NA"
"-127.94","50.11","SOLANDER ISLAND (AUT)","1037553","2022-06-30 21:00","2022","06","30","21:00","12.0","","","M","","M","0.0","","32","","22","","","","100.86","","","","","","NA"
"-127.94","50.11","SOLANDER ISLAND (AUT)","1037553","2022-06-30 22:00","2022","06","30","22:00","11.7","","","M","","M","0.0","","35","","19","","","","100.83","","","","","","NA"
"-127.94","50.11","SOLANDER ISLAND (AUT)","1037553","2022-06-30 23:00","2022","06","30","23:00","11.8","","","M","","M","0.0","","36","","18","","","","100.82","","","","","","NA"
