"Longitude (x)","Latitude (y)","Station Name","Climate ID","Date/Time (LST)","Year","Month","Day","Time (LST)","Temp (°C)","Temp Flag","Dew Point Temp (°C)","Dew Point Temp Flag","Rel Hum (%)","Rel Hum Flag","Precip. Amount (mm)","Precip. Amount Flag","Wind Dir (10s deg)","Wind Dir Flag","Wind Spd (km/h)","Wind Spd Flag","Visibility (km)","Visibility Flag","Stn Press (kPa)","Stn Press Flag","Hmdx","Hmdx Flag","Wind Chill","Wind Chill Flag","Weather"
"-62.33","44.82","BEAVER ISLAND (AUT)","8200558","2023-01-01 00:00","2023","01","01","00:00","7.5","","7.4","","100","","","","24","","18","","","","100.82","","","","","","NA"
"-62.33","44.82","BEAVER ISLAND (AUT)","8200558","2023-01-01 01:00","2023","01","01","01:00","7.7","","7.7","","100","","","","23","","24","","","","100.78","","","","","","NA"
"-62.33","44.82","BEAVER ISLAND (AUT)","8200558","2023-01-01 02:00","2023","01","01","02:00","7.6","","7.6","","100","","","","22","","21","","","","100.69","","","","","","NA"
"-62.33","44.82","BEAVER ISLAND (AUT)","8200558","2023-01-01 03:00","2023","01","01","03:00","7.2","","7.2","","100","","","","20","","19","","","","100.60","","","","","","NA"
"-62.33","44.82","BEAVER ISLAND (AUT)","8200558","2023-01-01 04:00","2023","01","01","04:00","7.5","","7.5","","100","","","","21","","22","","","","100.55","","","","","","NA"
"-62.33","44.82","BEAVER ISLAND (AUT)","8200558","2023-01-01 05:00","2023","01","01","05:00","7.3","","7.3","","100","","","","19","","7","","","","100.40","","","","","","NA"
"-62.33","44.82","BEAVER ISLAND (AUT)","8200558","2023-01-01 06:00","2023","01","01","06:00","8.2","","8.1","","100","","","","10","","12","","","","100.32","","","","","","NA"
"-62.33","44.82","BEAVER ISLAND (AUT)","8200558","2023-01-01 07:00","2023","01","01","07:00","8.7","","8.7","","100","","","","20","","25","","","","100.22","","","","","","NA"
"-62.33","44.82","BEAVER ISLAND (AUT)","8200558","2023-01-01 08:00","2023","01","01","08:00","8.0","","8.0","","100","","","","25","","20","","","","99.87","","","","","","NA"
"-62.33","44.82","BEAVER ISLAND (AUT)","8200558","2023-01-01 09:00","2023","01","01","09:00","7.6","","7.5","","100","","","","23","","36","","","","99.67","","","","","","NA"
"-62.33","44.82","BEAVER ISLAND (AUT)","8200558","2023-01-01 10:00","2023","01","01","10:00","7.2","","7.2","","100","","","","23","","23","","","","99.53","","","","","","NA"
"-62.33","44.82","BEAVER ISLAND (AUT)","8200558","2023-01-01 11:00","2023","01","01","11:00","7.0","","7.0","","100","","","","23","","20","","","","99.45","","","","","","NA"
"-62.33","44.82","BEAVER ISLAND (AUT)","8200558","2023-01-01 12:00","2023","01","01","12:00","7.4","","7.4","","100","","","","22","","17","","","","99.43","","","","","","NA"
"-62.33","44.82","BEAVER ISLAND (AUT)","8200558","2023-01-01 13:00","2023","01","01","13:00","8.2","","8.2","","100","","","","23","","39","","","","99.46","","","","","","NA"
"-62.33","44.82","BEAVER ISLAND (AUT)","8200558","2023-01-01 14:00","2023","01","01","14:00","7.7","","7.6","","100","","","","25","","43","","","","99.24","","","","","","NA"
"-62.33","44.82","BEAVER ISLAND (AUT)","8200558","2023-01-01 15:00","2023","01","01","15:00","7.6","","7.6","","100","","","","25","","37","","","","99.19","","","","","","NA"
"-62.33","44.82","BEAVER ISLAND (AUT)","8200558","2023-01-01 16:00","2023","01","01","16:00","7.8","","7.8","","100","","","","25","","35","","","","99.16","","","","","","NA"
"-62.33","44.82","BEAVER ISLAND (AUT)","8200558","2023-01-01 17:00","2023","01","01","17:00","7.8","","7.8","","100","","","","25","","39","","","","99.11","","","","","","NA"
"-62.33","44.82","BEAVER ISLAND (AUT)","8200558","2023-01-01 18:00","2023","01","01","18:00","9.1","","8.6","","97","","","","30","","33","","","","99.44","","","","","","NA"
"-62.33","44.82","BEAVER ISLAND (AUT)","8200558","2023-01-01 19:00","2023","01","01","19:00","5.4","","4.3","","93","","","","33","","46","","","","99.12","","","","","","NA"
"-62.33","44.82","BEAVER ISLAND (AUT)","8200558","2023-01-01 20:00","2023","01","01","20:00","4.2","","2.6","","90","","","","33","","41","","","","99.24","","","","","","NA"
"-62.33","44.82","BEAVER ISLAND (AUT)","8200558","2023-01-01 21:00","2023","01","01","21:00","3.1","","1.8","","91","","","","33","","37","","","","99.42","","","","","","NA"
"-62.33","44.82","BEAVER ISLAND (AUT)","8200558","2023-01-01 22:00","2023","01","01","22:00","3.1","","1.6","","90","","","","34","","46","","","","99.78","","","","","","NA"
"-62.33","44.82","BEAVER ISLAND (AUT)","8200558","2023-01-01 23:00","2023","01","01","23:00","2.9","","1.3","","89","","","","33","","32","","","","99.99","","","","","","NA"
"-62.33","44.82","BEAVER ISLAND (AUT)","8200558","2023-01-02 00:00","2023","01","02","00:00","2.5","","0.0","","84","","","","33","","32","","","","100.09","","","","","","NA"
"-62.33","44.82","BEAVER ISLAND (AUT)","8200558","2023-01-02 01:00","2023","01","02","01:00","1.9","","0.2","","88","","","","31","","25","","","","100.15","","","","","","NA"
"-62.33","44.82","BEAVER ISLAND (AUT)","8200558","2023-01-02 02:00","2023","01","02","02:00","1.7","","0.3","","91","","","","31","","27","","","","100.26","","","","","","NA"
"-62.33","44.82","BEAVER ISLAND (AUT)","8200558","2023-01-02 03:00","2023","01","02","03:00","1.6","","0.3","","91","","","","30","","21","","","","100.53","","","","","","NA"
"-62.33","44.82","BEAVER ISLAND (AUT)","8200558","2023-01-02 04:00","2023","01","02","04:00","1.4","","0.2","","92","","","","30","","15","","","","100.80","","","","","","NA"
"-62.33","44.82","BEAVER ISLAND (AUT)","8200558","2023-01-02 05:00","2023","01","02","05:00","1.6","","-0.1","","88","","","","30","","19","","","","100.86","","","","","","NA"
"-62.33","44.82","BEAVER ISLAND (AUT)","8200558","2023-01-02 06:00","2023","01","02","06:00","1.8","","-0.4","","86","","","","29","","18","","","","100.94","","","","","","NA"
"-62.33","44.82","BEAVER ISLAND (AUT)","8200558","2023-01-02 07:00","2023","01","02","07:00","2.0","","-1.1","","80","","","","31","","24","","","","101.00","","","","","","NA"
"-62.33","44.82","BEAVER ISLAND (AUT)","8200558","2023-01-02 08:00","2023","01","02","08:00","1.8","","-0.1","","87","","","","28","","17","","","","101.08","","","","","","NA"
"-62.33","44.82","BEAVER ISLAND (AUT)","8200558","2023-01-02 09:00","2023","01","02","09:00","1.7","","-0.5","","85","","","","30","","18","","","","101.16","","","","","","NA"
"-62.33","44.82","BEAVER ISLAND (AUT)","8200558","2023-01-02 10:00","2023","01","02","10:00","2.0","","-1.4","","78","","","","33","","20","","","","101.18","","","","","","NA"
"-62.33","44.82","BEAVER ISLAND (AUT)","8200558","2023-01-02 11:00","2023","01","02","11:00","2.3","","-1.4","","76","","","","30","","12","","","","101.18","","","","","","NA"
"-62.33","44.82","BEAVER ISLAND (AUT)","8200558","2023-01-02 12:00","2023","01","02","12:00","2.6","","-2.0","","72","","","","32","","16","","","","101.14","","","","","","NA"
"-62.33","44.82","BEAVER ISLAND (AUT)","8200558","2023-01-02 13:00","2023","01","02","13:00","2.8","","-1.4","","74","","","","30","","14","","","","101.11","","","","","","NA"
"-62.33","44.82","BEAVER ISLAND (AUT)","8200558","2023-01-02 14:00","2023","01","02","14:00","4.0","","0.1","","76","","","","30","","13","","","","101.11","","","","","","NA"
"-62.33","44.82","BEAVER ISLAND (AUT)","8200558","2023-01-02 15:00","2023","01","02","15:00","2.7","","0.0","","82","","","","29","","17","","","","101.17","","","","","","NA"
"-62.33","44.82","BEAVER ISLAND (AUT)","8200558","2023-01-02 16:00","2023","01","02","16:00","2.0","","0.3","","88","","","","32","","25","","","","101.23","","","","","","NA"
"-62.33","44.82","BEAVER ISLAND (AUT)","8200558","2023-01-02 17:00","2023","01","02","17:00","1.9","","-0.5","","84","","","","31","","19","","","","101.26","","","","","","NA"
"-62.33","44.82","BEAVER ISLAND (AUT)","8200558","2023-01-02 18:00","2023","01","02","18:00","1.8","","-1.8","","77","","","","31","","20","","","","101.34","","","","","","NA"
"-62.33","44.82","BEAVER ISLAND (AUT)","8200558","2023-01-02 19:00","2023","01","02","19:00","1.5","","-1.8","","79","","","","31","","19","","","","101.39","","","","","","NA"
"-62.33","44.82","BEAVER ISLAND (AUT)","8200558","2023-01-02 20:00","2023","01","02","20:00","1.3","","-1.5","","81","","","","33","","13","","","","101.44","","","","","","NA"
"-62.33","44.82","BEAVER ISLAND (AUT)","8200558","2023-01-02 21:00","2023","01","02","21:00","0.8","","-1.7","","84","","","","34","","18","","","","101.52","","","","","","NA"
"-62.33","44.82","BEAVER ISLAND (AUT)","8200558","2023-01-02 22:00","2023","01","02","22:00","0.4","","-2.8","","79","","","","33","","22","","","","101.58","","","","","","NA"
"-62.33","44.82","BEAVER ISLAND (AUT)","8200558","2023-01-02 23:00","2023","01","02","23:00","0.1","","-2.8","","81","","","","32","","20","","","","101.62","","","","","","NA"
"-62.33","44.82","BEAVER ISLAND (AUT)","8200558","2023-01-03 00:00","2023","01","03","00:00","-0.5","","-3.5","","80","","","","33","","19","","","","101.63","","","","-6","","NA"
"-62.33","44.82","BEAVER ISLAND (AUT)","8200558","2023-01-03 01:00","2023","01","03","01:00","-0.4","","-3.3","","81","","","","32","","19","","","","101.68","","","","-6","","NA"
"-62.33","44.82","BEAVER ISLAND (AUT)","8200558","2023-01-03 02:00","2023","01","03","02:00","-0.3","","-3.3","","80","","","","33","","21","","","","101.69","","","","-6","","NA"
"-62.33","44.82","BEAVER ISLAND (AUT)","8200558","2023-01-03 03:00","2023","01","03","03:00","-0.4","","-3.1","","82","","","","31","","25","","","","101.76","","","","-6","","NA"
"-62.33","44.82","BEAVER ISLAND (AUT)","8200558","2023-01-03 04:00","2023","01","03","04:00","-0.8","","-3.7","","81","","","","31","","15","","","","101.79","","","","-5","","NA"
"-62.33","44.82","BEAVER ISLAND (AUT)","8200558","2023-01-03 05:00","2023","01","03","05:00","-0.5","","-3.2","","82","","","","31","","18","","","","101.80","","","","-6","","NA"
"-62.33","44.82","BEAVER ISLAND (AUT)","8200558","2023-01-03 06:00","2023","01","03","06:00","-0.3","","-3.3","","80","","","","31","","20","","","","101.82","","","","-6","","NA"
"-62.33","44.82","BEAVER ISLAND (AUT)","8200558","2023-01-03 07:00","2023","01","03","07:00","0.2","","-2.9","","80","","","","30","","18","","","","101.87","","","","","","NA"
"-62.33","44.82","BEAVER ISLAND (AUT)","8200558","2023-01-03 08:00","2023","01","03","08:00","0.1","","-2.9","","80","","","","32","","18","","","","101.88","","","","","","NA"
"-62.33","44.82","BEAVER ISLAND (AUT)","8200558","2023-01-03 09:00","2023","01","03","09:00","0.4","","-2.4","","81","","","","30","","14","","","","101.93","","","","","","NA"
"-62.33","44.82","BEAVER ISLAND (AUT)","8200558","2023-01-03 10:00","2023","01","03","10:00","0.9","","-2.4","","79","","","","29","","11","","","","101.92","","","","","","NA"
"-62.33","44.82","BEAVER ISLAND (AUT)","8200558","2023-01-03 11:00","2023","01","03","11:00","2.9","","-1.7","","72","","","","25","","10","","","","101.93","","","","","","NA"
"-62.33","44.82","BEAVER ISLAND (AUT)","8200558","2023-01-03 12:00","2023","01","03","12:00","3.2","","-1.0","","74","","","","26","","10","","","","101.85","","","","","","NA"
"-62.33","44.82","BEAVER ISLAND (AUT)","8200558","2023-01-03 13:00","2023","01","03","13:00","3.0","","-0.3","","78","","","","25","","21","","","","101.80","","","","","","NA"
"-62.33","44.82","BEAVER ISLAND (AUT)","8200558","2023-01-03 14:00","2023","01","03","14:00","4.1","","1.3","","82","","","","24","","23","","","","101.70","","","","","","NA"
"-62.33","44.82","BEAVER ISLAND (AUT)","8200558","2023-01-03 15:00","2023","01","03","15:00","4.7","","1.7","","81","","","","23","","26","","","","101.64","","","","","","NA"
"-62.33","44.82","BEAVER ISLAND (AUT)","8200558","2023-01-03 16:00","2023","01","03","16:00","5.0","","3.2","","88","","","","22","","25","","","","101.67","","","","","","NA"
"-62.33","44.82","BEAVER ISLAND (AUT)","8200558","2023-01-03 17:00","2023","01","03","17:00","5.7","","4.3","","91","","","","22","","26","","","","101.62","","","","","","NA"
"-62.33","44.82","BEAVER ISLAND (AUT)","8200558","2023-01-03 18:00","2023","01","03","18:00","6.0","","4.6","","90","","","","22","","28","","","","101.57","","","","","","NA"
"-62.33","44.82","BEAVER ISLAND (AUT)","8200558","2023-01-03 19:00","2023","01","03","19:00","6.2","","4.5","","89","","","","22","","36","","","","101.50","","","","","","NA"
"-62.33","44.82","BEAVER ISLAND (AUT)","8200558","2023-01-03 20:00","2023","01","03","20:00","6.3","","4.5","","88","","","","21","","40","","","","101.43","","","","","","NA"
"-62.33","44.82","BEAVER ISLAND (AUT)","8200558","2023-01-03 21:00","2023","01","03","21:00","6.4","","4.7","","89","","","","22","","40","","","","101.38","","","","","","NA"
"-62.33","44.82","BEAVER ISLAND (AUT)","8200558","2023-01-03 22:00","2023","01","03","22:00","6.4","","4.5","","87","","","","21","","38","","","","101.31","","","","","","NA"
"-62.33","44.82","BEAVER ISLAND (AUT)","8200558","2023-01-03 23:00","2023","01","03","23:00","6.5","","5.0","","90","","","","21","","33","","","","101.27","","","","","","NA"
"-62.33","44.82","BEAVER ISLAND (AUT)","8200558","2023-01-04 00:00","2023","01","04","00:00","6.4","","5.3","","93","","","","22","","35","","","","101.15","","","","","","NA"
"-62.33","44.82","BEAVER ISLAND (AUT)","8200558","2023-01-04 01:00","2023","01","04","01:00","6.0","","5.2","","95","","","","22","","27","","","","101.05","","","","","","NA"
"-62.33","44.82","BEAVER ISLAND (AUT)","8200558","2023-01-04 02:00","2023","01","04","02:00","6.0","","5.6","","97","","","","20","","21","","","","101.01","","","","","","NA"
"-62.33","44.82","BEAVER ISLAND (AUT)","8200558","2023-01-04 03:00","2023","01","04","03:00","6.0","","5.7","","98","","","","18","","21","","","","100.97","","","","","","NA"
"-62.33","44.82","BEAVER ISLAND (AUT)","8200558","2023-01-04 04:00","2023","01","04","04:00","6.0","","5.7","","98","","","","17","","25","","","","100.82","","","","","","NA"
"-62.33","44.82","BEAVER ISLAND (AUT)","8200558","2023-01-04 05:00","2023","01","04","05:00","5.9","","5.7","","98","","","","15","","31","","","","100.67","","","","","","NA"
"-62.33","44.82","BEAVER ISLAND (AUT)","8200558","2023-01-04 06:00","2023","01","04","06:00","5.9","","5.7","","99","","","","14","","27","","","","100.61","","","","","","NA"
"-62.33","44.82","BEAVER ISLAND (AUT)","8200558","2023-01-04 07:00","2023","01","04","07:00","5.8","","5.5","","98","","","","12","","27","","","","100.53","","","","","","NA"
"-62.33","44.82","BEAVER ISLAND (AUT)","8200558","2023-01-04 08:00","2023","01","04","08:00","5.7","","5.5","","99","","","","11","","22","","","","100.58","","","","","","NA"
"-62.33","44.82","BEAVER ISLAND (AUT)","8200558","2023-01-04 09:00","2023","01","04","09:00","5.8","","5.6","","99","","","","6","","20","","","","100.63","","","","","","NA"
"-62.33","44.82","BEAVER ISLAND (AUT)","8200558","2023-01-04 10:00","2023","01","04","10:00","5.8","","5.6","","99","","","","7","","21","","","","100.62","","","","","","NA"
"-62.33","44.82","BEAVER ISLAND (AUT)","8200558","2023-01-04 11:00","2023","01","04","11:00","5.9","","5.7","","99","","","","6","","22","","","","100.56","","","","","","NA"
"-62.33","44.82","BEAVER ISLAND (AUT)","8200558","2023-01-04 12:00","2023","01","04","12:00","5.8","","5.6","","99","","","","6","","20","","","","100.51","","","","","","NA"
"-62.33","44.82","BEAVER ISLAND (AUT)","8200558","2023-01-04 13:00","2023","01","04","13:00","5.9","","5.8","","99","","","","5","","19","","","","100.47","","","","","","NA"
"-62.33","44.82","BEAVER ISLAND (AUT)","8200558","2023-01-04 14:00","2023","01","04","14:00","5.9","","5.8","","99","","","","6","","10","","","","100.61","","","","","","NA"
"-62.33","44.82","BEAVER ISLAND (AUT)","8200558","2023-01-04 15:00","2023","01","04","15:00","5.7","","5.7","","99","","","","11","","7","","","","100.67","","","","","","NA"
"-62.33","44.82","BEAVER ISLAND (AUT)","8200558","2023-01-04 16:00","2023","01","04","16:00","5.7","","5.6","","100","","","","7","","2","","","","100.75","","","","","","NA"
"-62.33","44.82","BEAVER ISLAND (AUT)","8200558","2023-01-04 17:00","2023","01","04","17:00","5.7","","5.7","","100","","","","32","","6","","","","100.87","","","","","","NA"
"-62.33","44.82","BEAVER ISLAND (AUT)","8200558","2023-01-04 18:00","2023","01","04","18:00","4.6","","3.9","","96","","","","36","","31","","","","100.97","","","","","","NA"
"-62.33","44.82","BEAVER ISLAND (AUT)","8200558","2023-01-04 19:00","2023","01","04","19:00","3.7","","2.4","","91","","","","35","","40","","","","101.17","","","","","","NA"
"-62.33","44.82","BEAVER ISLAND (AUT)","8200558","2023-01-04 20:00","2023","01","04","20:00","3.2","","0.9","","85","","","","36","","25","","","","101.28","","","","","","NA"
"-62.33","44.82","BEAVER ISLAND (AUT)","8200558","2023-01-04 21:00","2023","01","04","21:00","2.7","","0.6","","86","","","","36","","31","","","","101.40","","","","","","NA"
"-62.33","44.82","BEAVER ISLAND (AUT)","8200558","2023-01-04 22:00","2023","01","04","22:00","2.0","","-0.4","","84","","","","36","","27","","","","101.48","","","","","","NA"
"-62.33","44.82","BEAVER ISLAND (AUT)","8200558","2023-01-04 23:00","2023","01","04","23:00","1.8","","-0.5","","85","","","","35","","18","","","","101.57","","","","","","NA"
"-62.33","44.82","BEAVER ISLAND (AUT)","8200558","2023-01-05 00:00","2023","01","05","00:00","1.8","","-0.4","","85","","","","35","","19","","","","101.58","","","","","","NA"
"-62.33","44.82","BEAVER ISLAND (AUT)","8200558","2023-01-05 01:00","2023","01","05","01:00","1.8","","-0.7","","84","","","","36","","22","","","","101.73","","","","","","NA"
"-62.33","44.82","BEAVER ISLAND (AUT)","8200558","2023-01-05 02:00","2023","01","05","02:00","1.2","","-1.6","","82","","","","2","","30","","","","101.79","","","","","","NA"
"-62.33","44.82","BEAVER ISLAND (AUT)","8200558","2023-01-05 03:00","2023","01","05","03:00","0.7","","-2.1","","82","","","","5","","32","","","","101.77","","","","","","NA"
"-62.33","44.82","BEAVER ISLAND (AUT)","8200558","2023-01-05 04:00","2023","01","05","04:00","0.2","","-2.8","","81","","","","4","","37","","","","101.88","","","","","","NA"
"-62.33","44.82","BEAVER ISLAND (AUT)","8200558","2023-01-05 05:00","2023","01","05","05:00","-0.4","","-4.5","","74","","","","3","","36","","","","101.91","","","","-8","","NA"
"-62.33","44.82","BEAVER ISLAND (AUT)","8200558","2023-01-05 06:00","2023","01","05","06:00","-0.5","","-4.2","","76","","","","3","","27","","","","102.01","","","","-7","","NA"
"-62.33","44.82","BEAVER ISLAND (AUT)","8200558","2023-01-05 07:00","2023","01","05","07:00","-0.8","","-4.7","","75","","","","4","","25","","","","102.11","","","","-7","","NA"
"-62.33","44.82","BEAVER ISLAND (AUT)","8200558","2023-01-05 08:00","2023","01","05","08:00","-1.1","","-4.9","","75","","","","4","","31","","","","102.11","","","","-8","","NA"
"-62.33","44.82","BEAVER ISLAND (AUT)","8200558","2023-01-05 09:00","2023","01","05","09:00","-1.2","","-5.1","","75","","","","5","","30","","","","102.14","","","","-8","","NA"
"-62.33","44.82","BEAVER ISLAND (AUT)","8200558","2023-01-05 10:00","2023","01","05","10:00","-1.2","","-5.1","","75","","","","5","","30","","","","102.16","","","","-8","","NA"
"-62.33","44.82","BEAVER ISLAND (AUT)","8200558","2023-01-05 11:00","2023","01","05","11:00","-1.1","","-4.9","","76","","","","5","","27","","","","102.14","","","","-8","","NA"
"-62.33","44.82","BEAVER ISLAND (AUT)","8200558","2023-01-05 12:00","2023","01","05","12:00","-0.6","","-4.4","","75","","","","6","","27","","","","102.02","","","","-7","","NA"
"-62.33","44.82","BEAVER ISLAND (AUT)","8200558","2023-01-05 13:00","2023","01","05","13:00","-0.3","","-3.6","","78","","","","6","","30","","","","102.01","","","","-7","","NA"
"-62.33","44.82","BEAVER ISLAND (AUT)","8200558","2023-01-05 14:00","2023","01","05","14:00","0.4","","-2.6","","80","","","","7","","33","","","","101.93","","","","","","NA"
"-62.33","44.82","BEAVER ISLAND (AUT)","8200558","2023-01-05 15:00","2023","01","05","15:00","0.4","","-2.5","","81","","","","5","","34","","","","101.90","","","","","","NA"
"-62.33","44.82","BEAVER ISLAND (AUT)","8200558","2023-01-05 16:00","2023","01","05","16:00","1.0","","-1.8","","82","","","","7","","37","","","","101.92","","","","","","NA"
"-62.33","44.82","BEAVER ISLAND (AUT)","8200558","2023-01-05 17:00","2023","01","05","17:00","0.9","","-1.9","","82","","","","7","","40","","","","101.95","","","","","","NA"
"-62.33","44.82","BEAVER ISLAND (AUT)","8200558","2023-01-05 18:00","2023","01","05","18:00","0.2","","-2.6","","81","","","","4","","39","","","","101.95","","","","","","NA"
"-62.33","44.82","BEAVER ISLAND (AUT)","8200558","2023-01-05 19:00","2023","01","05","19:00","0.0","","-2.5","","83","","","","5","","39","","","","102.00","","","","-7","","NA"
"-62.33","44.82","BEAVER ISLAND (AUT)","8200558","2023-01-05 20:00","2023","01","05","20:00","0.7","","-1.6","","85","","","","6","","45","","","","101.93","","","","","","NA"
"-62.33","44.82","BEAVER ISLAND (AUT)","8200558","2023-01-05 21:00","2023","01","05","21:00","1.2","","-1.3","","83","","","","7","","47","","","","101.88","","","","","","NA"
"-62.33","44.82","BEAVER ISLAND (AUT)","8200558","2023-01-05 22:00","2023","01","05","22:00","1.1","","-0.8","","87","","","","8","","45","","","","101.85","","","","","","NA"
"-62.33","44.82","BEAVER ISLAND (AUT)","8200558","2023-01-05 23:00","2023","01","05","23:00","1.3","","-0.4","","89","","","","8","","46","","","","101.77","","","","","","NA"
"-62.33","44.82","BEAVER ISLAND (AUT)","8200558","2023-01-06 00:00","2023","01","06","00:00","1.5","","0.3","","91","","","","7","","49","","","","101.64","","","","","","NA"
"-62.33","44.82","BEAVER ISLAND (AUT)","8200558","2023-01-06 01:00","2023","01","06","01:00","1.5","","0.0","","90","","","","8","","44","","","","101.58","","","","","","NA"
"-62.33","44.82","BEAVER ISLAND (AUT)","8200558","2023-01-06 02:00","2023","01","06","02:00","1.9","","0.9","","93","","","","8","","44","","","","101.56","","","","","","NA"
"-62.33","44.82","BEAVER ISLAND (AUT)","8200558","2023-01-06 03:00","2023","01","06","03:00","2.1","","1.0","","92","","","","7","","42","","","","101.51","","","","","","NA"
"-62.33","44.82","BEAVER ISLAND (AUT)","8200558","2023-01-06 04:00","2023","01","06","04:00","2.2","","1.2","","93","","","","8","","46","","","","101.28","","","","","","NA"
"-62.33","44.82","BEAVER ISLAND (AUT)","8200558","2023-01-06 05:00","2023","01","06","05:00","2.5","","1.3","","92","","","","9","","44","","","","101.24","","","","","","NA"
"-62.33","44.82","BEAVER ISLAND (AUT)","8200558","2023-01-06 06:00","2023","01","06","06:00","2.8","","1.2","","90","","","","7","","38","","","","101.34","","","","","","NA"
"-62.33","44.82","BEAVER ISLAND (AUT)","8200558","2023-01-06 07:00","2023","01","06","07:00","0.8","","0.4","","97","","","","3","","39","","","","101.28","","","","","","NA"
"-62.33","44.82","BEAVER ISLAND (AUT)","8200558","2023-01-06 08:00","2023","01","06","08:00","0.5","","0.0","","97","","","","3","","40","","","","101.33","","","","","","NA"
"-62.33","44.82","BEAVER ISLAND (AUT)","8200558","2023-01-06 09:00","2023","01","06","09:00","0.4","","-0.4","","94","","","","3","","42","","","","101.38","","","","","","NA"
"-62.33","44.82","BEAVER ISLAND (AUT)","8200558","2023-01-06 10:00","2023","01","06","10:00","0.9","","-0.1","","93","","","","3","","43","","","","101.36","","","","","","NA"
"-62.33","44.82","BEAVER ISLAND (AUT)","8200558","2023-01-06 11:00","2023","01","06","11:00","1.1","","-0.2","","91","","","","5","","38","","","","101.36","","","","","","NA"
"-62.33","44.82","BEAVER ISLAND (AUT)","8200558","2023-01-06 12:00","2023","01","06","12:00","1.6","","0.6","","93","","","","5","","37","","","","101.28","","","","","","NA"
"-62.33","44.82","BEAVER ISLAND (AUT)","8200558","2023-01-06 13:00","2023","01","06","13:00","1.3","","0.6","","95","","","","4","","36","","","","101.22","","","","","","NA"
"-62.33","44.82","BEAVER ISLAND (AUT)","8200558","2023-01-06 14:00","2023","01","06","14:00","1.6","","0.8","","94","","","","5","","34","","","","101.12","","","","","","NA"
"-62.33","44.82","BEAVER ISLAND (AUT)","8200558","2023-01-06 15:00","2023","01","06","15:00","2.0","","0.3","","88","","","","5","","34","","","","101.12","","","","","","NA"
"-62.33","44.82","BEAVER ISLAND (AUT)","8200558","2023-01-06 16:00","2023","01","06","16:00","1.9","","0.2","","89","","","","4","","26","","","","101.21","","","","","","NA"
"-62.33","44.82","BEAVER ISLAND (AUT)","8200558","2023-01-06 17:00","2023","01","06","17:00","1.4","","0.3","","93","","","","2","","25","","","","101.25","","","","","","NA"
"-62.33","44.82","BEAVER ISLAND (AUT)","8200558","2023-01-06 18:00","2023","01","06","18:00","0.9","","0.4","","96","","","","2","","29","","","","101.25","","","","","","NA"
"-62.33","44.82","BEAVER ISLAND (AUT)","8200558","2023-01-06 19:00","2023","01","06","19:00","1.2","","0.4","","94","","","","3","","28","","","","101.23","","","","","","NA"
"-62.33","44.82","BEAVER ISLAND (AUT)","8200558","2023-01-06 20:00","2023","01","06","20:00","1.1","","0.0","","92","","","","3","","27","","","","101.24","","","","","","NA"
"-62.33","44.82","BEAVER ISLAND (AUT)","8200558","2023-01-06 21:00","2023","01","06","21:00","0.8","","-0.4","","92","","","","1","","27","","","","101.25","","","","","","NA"
"-62.33","44.82","BEAVER ISLAND (AUT)","8200558","2023-01-06 22:00","2023","01","06","22:00","1.0","","-0.5","","90","","","","2","","24","","","","101.22","","","","","","NA"
"-62.33","44.82","BEAVER ISLAND (AUT)","8200558","2023-01-06 23:00","2023","01","06","23:00","1.1","","-0.5","","89","","","","3","","29","","","","101.16","","","","","","NA"
"-62.33","44.82","BEAVER ISLAND (AUT)","8200558","2023-01-07 00:00","2023","01","07","00:00","1.2","","-0.3","","90","","","","4","","33","","","","101.10","","","","","","NA"
"-62.33","44.82","BEAVER ISLAND (AUT)","8200558","2023-01-07 01:00","2023","01","07","01:00","1.1","","-0.3","","90","","","","2","","26","","","","101.09","","","","","","NA"
"-62.33","44.82","BEAVER ISLAND (AUT)","8200558","2023-01-07 02:00","2023","01","07","02:00","0.7","","-0.2","","94","","","","1","","26","","","","101.09","","","","","","NA"
"-62.33","44.82","BEAVER ISLAND (AUT)","8200558","2023-01-07 03:00","2023","01","07","03:00","0.3","","-0.2","","97","","","","1","","27","","","","101.11","","","","","","NA"
"-62.33","44.82","BEAVER ISLAND (AUT)","8200558","2023-01-07 04:00","2023","01","07","04:00","0.3","","0.2","","99","","","","1","","28","","","","101.07","","","","","","NA"
"-62.33","44.82","BEAVER ISLAND (AUT)","8200558","2023-01-07 05:00","2023","01","07","05:00","0.5","","0.3","","99","","","","1","","23","","","","101.09","","","","","","NA"
"-62.33","44.82","BEAVER ISLAND (AUT)","8200558","2023-01-07 06:00","2023","01","07","06:00","0.3","","0.1","","99","","","","36","","21","","","","101.11","","","","","","NA"
"-62.33","44.82","BEAVER ISLAND (AUT)","8200558","2023-01-07 07:00","2023","01","07","07:00","0.3","","0.1","","99","","","","1","","22","","","","101.13","","","","","","NA"
"-62.33","44.82","BEAVER ISLAND (AUT)","8200558","2023-01-07 08:00","2023","01","07","08:00","0.1","","-0.2","","98","","","","36","","24","","","","101.12","","","","","","NA"
"-62.33","44.82","BEAVER ISLAND (AUT)","8200558","2023-01-07 09:00","2023","01","07","09:00","0.2","","-0.9","","92","","","","36","","24","","","","101.15","","","","","","NA"
"-62.33","44.82","BEAVER ISLAND (AUT)","8200558","2023-01-07 10:00","2023","01","07","10:00","0.8","","-0.5","","91","","","","36","","23","","","","101.16","","","","","","NA"
"-62.33","44.82","BEAVER ISLAND (AUT)","8200558","2023-01-07 11:00","2023","01","07","11:00","1.3","","-0.4","","88","","","","35","","19","","","","101.14","","","","","","NA"
"-62.33","44.82","BEAVER ISLAND (AUT)","8200558","2023-01-07 12:00","2023","01","07","12:00","1.4","","-0.1","","89","","","","34","","17","","","","101.07","","","","","","NA"
"-62.33","44.82","BEAVER ISLAND (AUT)","8200558","2023-01-07 13:00","2023","01","07","13:00","1.2","","0.0","","92","","","","33","","18","","","","101.01","","","","","","NA"
"-62.33","44.82","BEAVER ISLAND (AUT)","8200558","2023-01-07 14:00","2023","01","07","14:00","0.8","","-0.6","","90","","","","34","","14","","","","100.99","","","","","","NA"
"-62.33","44.82","BEAVER ISLAND (AUT)","8200558","2023-01-07 15:00","2023","01","07","15:00","0.9","","-0.9","","88","","","","36","","12","","","","101.02","","","","","","NA"
"-62.33","44.82","BEAVER ISLAND (AUT)","8200558","2023-01-07 16:00","2023","01","07","16:00","0.7","","-1.2","","87","","","","35","","15","","","","101.06","","","","","","NA"
"-62.33","44.82","BEAVER ISLAND (AUT)","8200558","2023-01-07 17:00","2023","01","07","17:00","0.3","","-0.9","","92","","","","32","","17","","","","101.11","","","","","","NA"
"-62.33","44.82","BEAVER ISLAND (AUT)","8200558","2023-01-07 18:00","2023","01","07","18:00","0.1","","-1.9","","86","","","","1","","9","","","","101.13","","","","","","NA"
"-62.33","44.82","BEAVER ISLAND (AUT)","8200558","2023-01-07 19:00","2023","01","07","19:00","0.2","","-2.3","","83","","","","4","","4","","","","101.11","","","","","","NA"
"-62.33","44.82","BEAVER ISLAND (AUT)","8200558","2023-01-07 20:00","2023","01","07","20:00","0.3","","-2.0","","84","","","","33","","4","","","","101.11","","","","","","NA"
"-62.33","44.82","BEAVER ISLAND (AUT)","8200558","2023-01-07 21:00","2023","01","07","21:00","0.4","","-1.7","","86","","","","31","","9","","","","101.07","","","","","","NA"
"-62.33","44.82","BEAVER ISLAND (AUT)","8200558","2023-01-07 22:00","2023","01","07","22:00","0.7","","-1.2","","87","","","","25","","8","","","","101.03","","","","","","NA"
"-62.33","44.82","BEAVER ISLAND (AUT)","8200558","2023-01-07 23:00","2023","01","07","23:00","1.2","","-1.2","","84","","","","26","","16","","","","100.99","","","","","","NA"
"-62.33","44.82","BEAVER ISLAND (AUT)","8200558","2023-01-08 00:00","2023","01","08","00:00","1.7","","-0.3","","87","","","","26","","15","","","","100.93","","","","","","NA"
"-62.33","44.82","BEAVER ISLAND (AUT)","8200558","2023-01-08 01:00","2023","01","08","01:00","1.5","","0.5","","93","","","","27","","23","","","","100.87","","","","","","NA"
"-62.33","44.82","BEAVER ISLAND (AUT)","8200558","2023-01-08 02:00","2023","01","08","02:00","1.3","","0.6","","95","","","","30","","21","","","","100.87","","","","","","NA"
"-62.33","44.82","BEAVER ISLAND (AUT)","8200558","2023-01-08 03:00","2023","01","08","03:00","1.0","","0.0","","93","","","","32","","20","","","","100.89","","","","","","NA"
"-62.33","44.82","BEAVER ISLAND (AUT)","8200558","2023-01-08 04:00","2023","01","08","04:00","0.8","","-0.7","","89","","","","33","","31","","","","100.90","","","","","","NA"
"-62.33","44.82","BEAVER ISLAND (AUT)","8200558","2023-01-08 05:00","2023","01","08","05:00","-0.5","","-2.8","","84","","","","35","","40","","","","100.96","","","","-8","","NA"
"-62.33","44.82","BEAVER ISLAND (AUT)","8200558","2023-01-08 06:00","2023","01","08","06:00","-2.4","","-5.0","","82","","","","34","","51","","","","101.07","","","","-11","","NA"
"-62.33","44.82","BEAVER ISLAND (AUT)","8200558","2023-01-08 07:00","2023","01","08","07:00","-3.5","","-6.4","","80","","","","34","","41","","","","101.16","","","","-12","","NA"
"-62.33","44.82","BEAVER ISLAND (AUT)","8200558","2023-01-08 08:00","2023","01","08","08:00","-4.3","","-7.3","","80","","","","34","","39","","","","101.26","","","","-13","","NA"
"-62.33","44.82","BEAVER ISLAND (AUT)","8200558","2023-01-08 09:00","2023","01","08","09:00","-4.1","","-6.9","","81","","","","33","","46","","","","101.29","","","","-13","","NA"
"-62.33","44.82","BEAVER ISLAND (AUT)","8200558","2023-01-08 10:00","2023","01","08","10:00","-4.4","","-8.7","","72","","","","34","","41","","","","101.41","","","","-13","","NA"
"-62.33","44.82","BEAVER ISLAND (AUT)","8200558","2023-01-08 11:00","2023","01","08","11:00","-4.4","","-8.9","","71","","","","34","","42","","","","101.44","","","","-13","","NA"
"-62.33","44.82","BEAVER ISLAND (AUT)","8200558","2023-01-08 12:00","2023","01","08","12:00","-4.3","","-9.5","","67","","","","34","","47","","","","101.42","","","","-14","","NA"
"-62.33","44.82","BEAVER ISLAND (AUT)","8200558","2023-01-08 13:00","2023","01","08","13:00","-4.2","","-9.7","","66","","","","33","","39","","","","101.43","","","","-13","","NA"
"-62.33","44.82","BEAVER ISLAND (AUT)","8200558","2023-01-08 14:00","2023","01","08","14:00","-4.6","","-9.5","","69","","","","34","","35","","","","101.45","","","","-13","","NA"
"-62.33","44.82","BEAVER ISLAND (AUT)","8200558","2023-01-08 15:00","2023","01","08","15:00","-5.1","","-9.7","","70","","","","32","","35","","","","101.50","","","","-14","","NA"
"-62.33","44.82","BEAVER ISLAND (AUT)","8200558","2023-01-08 16:00","2023","01","08","16:00","-5.1","","-9.1","","73","","","","33","","39","","","","101.55","","","","-14","","NA"
"-62.33","44.82","BEAVER ISLAND (AUT)","8200558","2023-01-08 17:00","2023","01","08","17:00","-5.8","","-9.8","","73","","","","34","","34","","","","101.63","","","","-15","","NA"
"-62.33","44.82","BEAVER ISLAND (AUT)","8200558","2023-01-08 18:00","2023","01","08","18:00","-6.7","","-10.8","","73","","","","32","","28","","","","101.68","","","","-15","","NA"
"-62.33","44.82","BEAVER ISLAND (AUT)","8200558","2023-01-08 19:00","2023","01","08","19:00","-7.4","","-11.8","","71","","","","32","","15","","","","101.74","","","","-14","","NA"
"-62.33","44.82","BEAVER ISLAND (AUT)","8200558","2023-01-08 20:00","2023","01","08","20:00","-7.4","","-11.7","","71","","","","32","","13","","","","101.77","","","","-13","","NA"
"-62.33","44.82","BEAVER ISLAND (AUT)","8200558","2023-01-08 21:00","2023","01","08","21:00","-7.0","","-11.6","","70","","","","27","","13","","","","101.73","","","","-13","","NA"
"-62.33","44.82","BEAVER ISLAND (AUT)","8200558","2023-01-08 22:00","2023","01","08","22:00","-5.6","","-9.8","","73","","","","27","","23","","","","101.64","","","","-13","","NA"
"-62.33","44.82","BEAVER ISLAND (AUT)","8200558","2023-01-08 23:00","2023","01","08","23:00","-4.4","","-8.6","","72","","","","27","","26","","","","101.57","","","","-12","","NA"
"-62.33","44.82","BEAVER ISLAND (AUT)","8200558","2023-01-09 00:00","2023","01","09","00:00","-3.4","","-7.4","","73","","","","26","","29","","","","101.46","","","","-11","","NA"
"-62.33","44.82","BEAVER ISLAND (AUT)","8200558","2023-01-09 01:00","2023","01","09","01:00","-2.3","","-6.5","","73","","","","26","","34","","","","101.43","","","","-10","","NA"
"-62.33","44.82","BEAVER ISLAND (AUT)","8200558","2023-01-09 02:00","2023","01","09","02:00","-1.7","","-4.8","","79","","","","26","","32","","","","101.43","","","","-9","","NA"
"-62.33","44.82","BEAVER ISLAND (AUT)","8200558","2023-01-09 03:00","2023","01","09","03:00","-0.2","","-3.4","","79","","","","26","","39","","","","101.36","","","","-8","","NA"
"-62.33","44.82","BEAVER ISLAND (AUT)","8200558","2023-01-09 04:00","2023","01","09","04:00","0.7","","-2.2","","81","","","","25","","44","","","","101.24","","","","","","NA"
"-62.33","44.82","BEAVER ISLAND (AUT)","8200558","2023-01-09 05:00","2023","01","09","05:00","1.3","","-1.4","","82","","","","26","","41","","","","101.23","","","","","","NA"
"-62.33","44.82","BEAVER ISLAND (AUT)","8200558","2023-01-09 06:00","2023","01","09","06:00","2.0","","-0.5","","83","","","","25","","39","","","","101.20","","","","","","NA"
"-62.33","44.82","BEAVER ISLAND (AUT)","8200558","2023-01-09 07:00","2023","01","09","07:00","3.2","","0.2","","80","","","","25","","48","","","","101.16","","","","","","NA"
"-62.33","44.82","BEAVER ISLAND (AUT)","8200558","2023-01-09 08:00","2023","01","09","08:00","3.5","","0.3","","80","","","","26","","43","","","","101.15","","","","","","NA"
"-62.33","44.82","BEAVER ISLAND (AUT)","8200558","2023-01-09 09:00","2023","01","09","09:00","4.1","","0.1","","76","","","","25","","45","","","","101.14","","","","","","NA"
"-62.33","44.82","BEAVER ISLAND (AUT)","8200558","2023-01-09 10:00","2023","01","09","10:00","4.9","","0.4","","73","","","","25","","43","","","","101.14","","","","","","NA"
"-62.33","44.82","BEAVER ISLAND (AUT)","8200558","2023-01-09 11:00","2023","01","09","11:00","5.4","","-0.5","","66","","","","25","","45","","","","101.13","","","","","","NA"
"-62.33","44.82","BEAVER ISLAND (AUT)","8200558","2023-01-09 12:00","2023","01","09","12:00","5.5","","-0.9","","63","","","","25","","45","","","","101.01","","","","","","NA"
"-62.33","44.82","BEAVER ISLAND (AUT)","8200558","2023-01-09 13:00","2023","01","09","13:00","4.9","","-0.8","","67","","","","25","","40","","","","100.89","","","","","","NA"
"-62.33","44.82","BEAVER ISLAND (AUT)","8200558","2023-01-09 14:00","2023","01","09","14:00","4.9","","-0.2","","69","","","","25","","33","","","","100.89","","","","","","NA"
"-62.33","44.82","BEAVER ISLAND (AUT)","8200558","2023-01-09 15:00","2023","01","09","15:00","4.5","","1.6","","82","","","","23","","33","","","","100.88","","","","","","NA"
"-62.33","44.82","BEAVER ISLAND (AUT)","8200558","2023-01-09 16:00","2023","01","09","16:00","3.9","","1.9","","87","","","","25","","28","","","","100.87","","","","","","NA"
"-62.33","44.82","BEAVER ISLAND (AUT)","8200558","2023-01-09 17:00","2023","01","09","17:00","3.9","","2.5","","91","","","","24","","20","","","","100.84","","","","","","NA"
"-62.33","44.82","BEAVER ISLAND (AUT)","8200558","2023-01-09 18:00","2023","01","09","18:00","4.3","","2.3","","87","","","","23","","14","","","","100.74","","","","","","NA"
"-62.33","44.82","BEAVER ISLAND (AUT)","8200558","2023-01-09 19:00","2023","01","09","19:00","5.0","","2.2","","82","","","","21","","17","","","","100.65","","","","","","NA"
"-62.33","44.82","BEAVER ISLAND (AUT)","8200558","2023-01-09 20:00","2023","01","09","20:00","4.9","","2.6","","85","","","","22","","10","","","","100.58","","","","","","NA"
"-62.33","44.82","BEAVER ISLAND (AUT)","8200558","2023-01-09 21:00","2023","01","09","21:00","4.7","","3.1","","89","","","","17","","11","","","","100.51","","","","","","NA"
"-62.33","44.82","BEAVER ISLAND (AUT)","8200558","2023-01-09 22:00","2023","01","09","22:00","4.9","","3.4","","90","","","","13","","10","","","","100.40","","","","","","NA"
"-62.33","44.82","BEAVER ISLAND (AUT)","8200558","2023-01-09 23:00","2023","01","09","23:00","4.5","","3.3","","92","","","","9","","13","","","","100.28","","","","","","NA"
"-62.33","44.82","BEAVER ISLAND (AUT)","8200558","2023-01-10 00:00","2023","01","10","00:00","4.6","","3.3","","91","","","","9","","18","","","","100.19","","","","","","NA"
"-62.33","44.82","BEAVER ISLAND (AUT)","8200558","2023-01-10 01:00","2023","01","10","01:00","4.6","","3.4","","92","","","","13","","15","","","","100.06","","","","","","NA"
"-62.33","44.82","BEAVER ISLAND (AUT)","8200558","2023-01-10 02:00","2023","01","10","02:00","4.4","","3.5","","94","","","","12","","14","","","","99.95","","","","","","NA"
"-62.33","44.82","BEAVER ISLAND (AUT)","8200558","2023-01-10 03:00","2023","01","10","03:00","4.0","","3.1","","94","","","","7","","10","","","","99.90","","","","","","NA"
"-62.33","44.82","BEAVER ISLAND (AUT)","8200558","2023-01-10 04:00","2023","01","10","04:00","3.7","","2.7","","93","","","","6","","5","","","","99.85","","","","","","NA"
"-62.33","44.82","BEAVER ISLAND (AUT)","8200558","2023-01-10 05:00","2023","01","10","05:00","3.4","","2.7","","95","","","","4","","5","","","","99.81","","","","","","NA"
"-62.33","44.82","BEAVER ISLAND (AUT)","8200558","2023-01-10 06:00","2023","01","10","06:00","3.1","","2.7","","97","","","","1","","8","","","","99.80","","","","","","NA"
"-62.33","44.82","BEAVER ISLAND (AUT)","8200558","2023-01-10 07:00","2023","01","10","07:00","2.7","","2.4","","98","","","","24","","2","","","","99.76","","","","","","NA"
"-62.33","44.82","BEAVER ISLAND (AUT)","8200558","2023-01-10 08:00","2023","01","10","08:00","3.2","","2.7","","97","","","","23","","19","","","","99.75","","","","","","NA"
"-62.33","44.82","BEAVER ISLAND (AUT)","8200558","2023-01-10 09:00","2023","01","10","09:00","2.3","","1.8","","97","","","","29","","27","","","","99.81","","","","","","NA"
"-62.33","44.82","BEAVER ISLAND (AUT)","8200558","2023-01-10 10:00","2023","01","10","10:00","1.5","","0.2","","92","","","","29","","33","","","","99.86","","","","","","NA"
"-62.33","44.82","BEAVER ISLAND (AUT)","8200558","2023-01-10 11:00","2023","01","10","11:00","0.8","","-1.1","","88","","","","30","","42","","","","99.92","","","","","","NA"
"-62.33","44.82","BEAVER ISLAND (AUT)","8200558","2023-01-10 12:00","2023","01","10","12:00","0.5","","-1.7","","86","","","","30","","40","","","","99.95","","","","","","NA"
"-62.33","44.82","BEAVER ISLAND (AUT)","8200558","2023-01-10 13:00","2023","01","10","13:00","0.1","","-2.3","","84","","","","30","","44","","","","100.00","","","","","","NA"
"-62.33","44.82","BEAVER ISLAND (AUT)","8200558","2023-01-10 14:00","2023","01","10","14:00","0.0","","-2.4","","84","","","","29","","43","","","","100.10","","","","-8","","NA"
"-62.33","44.82","BEAVER ISLAND (AUT)","8200558","2023-01-10 15:00","2023","01","10","15:00","0.4","","-1.9","","84","","","","30","","39","","","","100.22","","","","","","NA"
"-62.33","44.82","BEAVER ISLAND (AUT)","8200558","2023-01-10 16:00","2023","01","10","16:00","0.4","","-2.3","","83","","","","34","","38","","","","100.40","","","","","","NA"
"-62.33","44.82","BEAVER ISLAND (AUT)","8200558","2023-01-10 17:00","2023","01","10","17:00","-0.1","","-3.5","","78","","","","34","","43","","","","100.58","","","","-8","","NA"
"-62.33","44.82","BEAVER ISLAND (AUT)","8200558","2023-01-10 18:00","2023","01","10","18:00","-0.7","","-4.3","","76","","","","34","","42","","","","100.73","","","","-8","","NA"
"-62.33","44.82","BEAVER ISLAND (AUT)","8200558","2023-01-10 19:00","2023","01","10","19:00","-1.3","","-4.7","","77","","","","34","","42","","","","100.89","","","","-9","","NA"
"-62.33","44.82","BEAVER ISLAND (AUT)","8200558","2023-01-10 20:00","2023","01","10","20:00","-1.9","","-5.4","","77","","","","34","","32","","","","101.06","","","","-9","","NA"
"-62.33","44.82","BEAVER ISLAND (AUT)","8200558","2023-01-10 21:00","2023","01","10","21:00","-2.6","","-6.0","","77","","","","32","","30","","","","101.16","","","","-10","","NA"
"-62.33","44.82","BEAVER ISLAND (AUT)","8200558","2023-01-10 22:00","2023","01","10","22:00","-3.5","","-6.3","","81","","","","32","","32","","","","101.25","","","","-11","","NA"
"-62.33","44.82","BEAVER ISLAND (AUT)","8200558","2023-01-10 23:00","2023","01","10","23:00","-3.9","","-6.7","","80","","","","32","","34","","","","101.34","","","","-12","","NA"
"-62.33","44.82","BEAVER ISLAND (AUT)","8200558","2023-01-11 00:00","2023","01","11","00:00","-4.3","","-7.2","","80","","","","31","","27","","","","101.44","","","","-12","","NA"
"-62.33","44.82","BEAVER ISLAND (AUT)","8200558","2023-01-11 01:00","2023","01","11","01:00","-4.7","","-7.8","","79","","","","31","","24","","","","101.47","","","","-12","","NA"
"-62.33","44.82","BEAVER ISLAND (AUT)","8200558","2023-01-11 02:00","2023","01","11","02:00","-4.9","","-7.2","","84","","","","31","","24","","","","101.56","","","","-12","","NA"
"-62.33","44.82","BEAVER ISLAND (AUT)","8200558","2023-01-11 03:00","2023","01","11","03:00","-4.9","","-7.1","","85","","","","31","","26","","","","101.66","","","","-12","","NA"
"-62.33","44.82","BEAVER ISLAND (AUT)","8200558","2023-01-11 04:00","2023","01","11","04:00","-5.4","","-7.4","","85","","","","31","","26","","","","101.71","","","","-13","","NA"
"-62.33","44.82","BEAVER ISLAND (AUT)","8200558","2023-01-11 05:00","2023","01","11","05:00","-5.5","","-7.6","","85","","","","32","","24","","","","101.78","","","","-13","","NA"
"-62.33","44.82","BEAVER ISLAND (AUT)","8200558","2023-01-11 06:00","2023","01","11","06:00","-5.8","","-7.5","","88","","","","33","","23","","","","101.85","","","","-13","","NA"
"-62.33","44.82","BEAVER ISLAND (AUT)","8200558","2023-01-11 07:00","2023","01","11","07:00","-6.5","","-8.3","","87","","","","32","","21","","","","101.93","","","","-14","","NA"
"-62.33","44.82","BEAVER ISLAND (AUT)","8200558","2023-01-11 08:00","2023","01","11","08:00","-6.6","","-8.3","","88","","","","33","","19","","","","102.01","","","","-13","","NA"
"-62.33","44.82","BEAVER ISLAND (AUT)","8200558","2023-01-11 09:00","2023","01","11","09:00","-5.8","","-8.0","","84","","","","33","","19","","","","102.10","","","","-12","","NA"
"-62.33","44.82","BEAVER ISLAND (AUT)","8200558","2023-01-11 10:00","2023","01","11","10:00","-4.8","","-7.4","","82","","","","33","","19","","","","102.14","","","","-11","","NA"
"-62.33","44.82","BEAVER ISLAND (AUT)","8200558","2023-01-11 11:00","2023","01","11","11:00","-4.0","","-8.2","","73","","","","33","","18","","","","102.12","","","","-10","","NA"
"-62.33","44.82","BEAVER ISLAND (AUT)","8200558","2023-01-11 12:00","2023","01","11","12:00","-3.5","","-8.5","","68","","","","33","","18","","","","102.07","","","","-9","","NA"
"-62.33","44.82","BEAVER ISLAND (AUT)","8200558","2023-01-11 13:00","2023","01","11","13:00","-3.3","","-10.1","","59","","","","32","","16","","","","102.06","","","","-9","","NA"
"-62.33","44.82","BEAVER ISLAND (AUT)","8200558","2023-01-11 14:00","2023","01","11","14:00","-2.5","","-10.7","","53","","","","32","","18","","","","102.08","","","","-8","","NA"
"-62.33","44.82","BEAVER ISLAND (AUT)","8200558","2023-01-11 15:00","2023","01","11","15:00","-2.4","","-9.9","","56","","","","32","","18","","","","102.14","","","","-8","","NA"
"-62.33","44.82","BEAVER ISLAND (AUT)","8200558","2023-01-11 16:00","2023","01","11","16:00","-2.7","","-11.0","","53","","","","33","","19","","","","102.22","","","","-8","","NA"
"-62.33","44.82","BEAVER ISLAND (AUT)","8200558","2023-01-11 17:00","2023","01","11","17:00","-3.6","","-9.9","","62","","","","32","","22","","","","102.30","","","","-10","","NA"
"-62.33","44.82","BEAVER ISLAND (AUT)","8200558","2023-01-11 18:00","2023","01","11","18:00","-4.7","","-10.8","","62","","","","32","","23","","","","102.37","","","","-12","","NA"
"-62.33","44.82","BEAVER ISLAND (AUT)","8200558","2023-01-11 19:00","2023","01","11","19:00","-5.4","","-11.2","","64","","","","32","","24","","","","102.43","","","","-13","","NA"
"-62.33","44.82","BEAVER ISLAND (AUT)","8200558","2023-01-11 20:00","2023","01","11","20:00","-5.5","","-10.3","","69","","","","32","","21","","","","102.48","","","","-12","","NA"
"-62.33","44.82","BEAVER ISLAND (AUT)","8200558","2023-01-11 21:00","2023","01","11","21:00","-5.7","","-11.0","","66","","","","34","","25","","","","102.50","","","","-13","","NA"
"-62.33","44.82","BEAVER ISLAND (AUT)","8200558","2023-01-11 22:00","2023","01","11","22:00","-6.0","","-12.1","","62","","","","34","","25","","","","102.49","","","","-14","","NA"
"-62.33","44.82","BEAVER ISLAND (AUT)","8200558","2023-01-11 23:00","2023","01","11","23:00","-6.0","","-11.8","","63","","","","35","","26","","","","102.50","","","","-14","","NA"
"-62.33","44.82","BEAVER ISLAND (AUT)","8200558","2023-01-12 00:00","2023","01","12","00:00","-6.3","","-11.8","","65","","","","35","","23","","","","102.52","","","","-14","","NA"
"-62.33","44.82","BEAVER ISLAND (AUT)","8200558","2023-01-12 01:00","2023","01","12","01:00","-6.3","","-12.0","","64","","","","34","","22","","","","102.52","","","","-14","","NA"
"-62.33","44.82","BEAVER ISLAND (AUT)","8200558","2023-01-12 02:00","2023","01","12","02:00","-6.4","","-12.1","","64","","","","34","","19","","","","102.54","","","","-13","","NA"
"-62.33","44.82","BEAVER ISLAND (AUT)","8200558","2023-01-12 03:00","2023","01","12","03:00","-6.2","","-10.9","","69","","","","33","","21","","","","102.60","","","","-13","","NA"
"-62.33","44.82","BEAVER ISLAND (AUT)","8200558","2023-01-12 04:00","2023","01","12","04:00","-6.6","","-10.5","","74","","","","34","","19","","","","102.60","","","","-13","","NA"
"-62.33","44.82","BEAVER ISLAND (AUT)","8200558","2023-01-12 05:00","2023","01","12","05:00","-6.5","","-9.8","","77","","","","35","","16","","","","102.59","","","","-13","","NA"
"-62.33","44.82","BEAVER ISLAND (AUT)","8200558","2023-01-12 06:00","2023","01","12","06:00","-6.7","","-9.5","","80","","","","34","","15","","","","102.66","","","","-13","","NA"
"-62.33","44.82","BEAVER ISLAND (AUT)","8200558","2023-01-12 07:00","2023","01","12","07:00","-6.7","","-9.2","","82","","","","34","","15","","","","102.71","","","","-13","","NA"
"-62.33","44.82","BEAVER ISLAND (AUT)","8200558","2023-01-12 08:00","2023","01","12","08:00","-6.8","","-8.8","","86","","","","35","","16","","","","102.75","","","","-13","","NA"
"-62.33","44.82","BEAVER ISLAND (AUT)","8200558","2023-01-12 09:00","2023","01","12","09:00","-6.1","","-8.7","","82","","","","36","","14","","","","102.83","","","","-12","","NA"
"-62.33","44.82","BEAVER ISLAND (AUT)","8200558","2023-01-12 10:00","2023","01","12","10:00","-4.9","","-7.9","","79","","","","36","","11","","","","102.85","","","","-9","","NA"
"-62.33","44.82","BEAVER ISLAND (AUT)","8200558","2023-01-12 11:00","2023","01","12","11:00","-4.0","","-9.7","","65","","","","35","","8","","","","102.84","","","","-7","","NA"
"-62.33","44.82","BEAVER ISLAND (AUT)","8200558","2023-01-12 12:00","2023","01","12","12:00","-3.2","","-9.8","","60","","","","34","","6","","","","102.81","","","","-6","","NA"
"-62.33","44.82","BEAVER ISLAND (AUT)","8200558","2023-01-12 13:00","2023","01","12","13:00","-2.7","","-9.6","","59","","","","33","","2","","","","102.71","","","","-3","","NA"
"-62.33","44.82","BEAVER ISLAND (AUT)","8200558","2023-01-12 14:00","2023","01","12","14:00","-1.8","","-9.6","","55","","","","27","","3","","","","102.69","","","","-3","","NA"
"-62.33","44.82","BEAVER ISLAND (AUT)","8200558","2023-01-12 15:00","2023","01","12","15:00","-1.3","","-10.5","","50","","","","22","","7","","","","102.75","","","","-4","","NA"
"-62.33","44.82","BEAVER ISLAND (AUT)","8200558","2023-01-12 16:00","2023","01","12","16:00","-1.5","","-11.5","","47","","","","22","","6","","","","102.77","","","","-4","","NA"
"-62.33","44.82","BEAVER ISLAND (AUT)","8200558","2023-01-12 17:00","2023","01","12","17:00","-2.8","","-12.2","","48","","","","24","","5","","","","102.80","","","","-5","","NA"
"-62.33","44.82","BEAVER ISLAND (AUT)","8200558","2023-01-12 18:00","2023","01","12","18:00","-3.2","","-11.6","","52","","","","20","","3","","","","102.76","","","","-4","","NA"
"-62.33","44.82","BEAVER ISLAND (AUT)","8200558","2023-01-12 19:00","2023","01","12","19:00","-2.7","","-12.1","","48","","","","13","","2","","","","102.74","","","","-3","","NA"
"-62.33","44.82","BEAVER ISLAND (AUT)","8200558","2023-01-12 20:00","2023","01","12","20:00","-2.9","","-11.4","","52","","","","18","","5","","","","102.78","","","","-5","","NA"
"-62.33","44.82","BEAVER ISLAND (AUT)","8200558","2023-01-12 21:00","2023","01","12","21:00","-2.6","","-10.5","","55","","","","16","","12","","","","102.80","","","","-7","","NA"
"-62.33","44.82","BEAVER ISLAND (AUT)","8200558","2023-01-12 22:00","2023","01","12","22:00","-2.1","","-10.2","","54","","","","17","","16","","","","102.80","","","","-7","","NA"
"-62.33","44.82","BEAVER ISLAND (AUT)","8200558","2023-01-12 23:00","2023","01","12","23:00","-1.6","","-8.1","","61","","","","15","","17","","","","102.73","","","","-7","","NA"
"-62.33","44.82","BEAVER ISLAND (AUT)","8200558","2023-01-13 00:00","2023","01","13","00:00","-0.9","","-6.4","","66","","","","16","","22","","","","102.58","","","","-7","","NA"
"-62.33","44.82","BEAVER ISLAND (AUT)","8200558","2023-01-13 01:00","2023","01","13","01:00","-0.2","","-5.0","","70","","","","16","","28","","","","102.47","","","","-7","","NA"
"-62.33","44.82","BEAVER ISLAND (AUT)","8200558","2023-01-13 02:00","2023","01","13","02:00","0.6","","-4.2","","70","","","","17","","30","","","","102.41","","","","","","NA"
"-62.33","44.82","BEAVER ISLAND (AUT)","8200558","2023-01-13 03:00","2023","01","13","03:00","1.2","","-3.2","","72","","","","17","","34","","","","102.39","","","","","","NA"
"-62.33","44.82","BEAVER ISLAND (AUT)","8200558","2023-01-13 04:00","2023","01","13","04:00","1.6","","-2.7","","73","","","","16","","35","","","","102.30","","","","","","NA"
"-62.33","44.82","BEAVER ISLAND (AUT)","8200558","2023-01-13 05:00","2023","01","13","05:00","2.0","","-2.4","","73","","","","15","","37","","","","102.17","","","","","","NA"
"-62.33","44.82","BEAVER ISLAND (AUT)","8200558","2023-01-13 06:00","2023","01","13","06:00","2.7","","0.1","","83","","","","16","","40","","","","102.14","","","","","","NA"
"-62.33","44.82","BEAVER ISLAND (AUT)","8200558","2023-01-13 07:00","2023","01","13","07:00","3.4","","1.2","","85","","","","15","","38","","","","102.02","","","","","","NA"
"-62.33","44.82","BEAVER ISLAND (AUT)","8200558","2023-01-13 08:00","2023","01","13","08:00","4.1","","2.1","","87","","","","14","","42","","","","101.90","","","","","","NA"
"-62.33","44.82","BEAVER ISLAND (AUT)","8200558","2023-01-13 09:00","2023","01","13","09:00","4.4","","3.1","","91","","","","13","","40","","","","101.75","","","","","","NA"
"-62.33","44.82","BEAVER ISLAND (AUT)","8200558","2023-01-13 10:00","2023","01","13","10:00","4.8","","3.8","","93","","","","14","","48","","","","101.54","","","","","","NA"
"-62.33","44.82","BEAVER ISLAND (AUT)","8200558","2023-01-13 11:00","2023","01","13","11:00","5.3","","4.7","","96","","","","15","","58","","","","101.30","","","","","","NA"
"-62.33","44.82","BEAVER ISLAND (AUT)","8200558","2023-01-13 12:00","2023","01","13","12:00","6.3","","5.2","","93","","","","17","","68","","","","100.99","","","","","","NA"
"-62.33","44.82","BEAVER ISLAND (AUT)","8200558","2023-01-13 13:00","2023","01","13","13:00","6.7","","6.4","","98","","","","17","","69","","","","100.84","","","","","","NA"
"-62.33","44.82","BEAVER ISLAND (AUT)","8200558","2023-01-13 14:00","2023","01","13","14:00","7.3","","7.0","","98","","","","18","","69","","","","100.71","","","","","","NA"
"-62.33","44.82","BEAVER ISLAND (AUT)","8200558","2023-01-13 15:00","2023","01","13","15:00","7.8","","7.0","","95","","","","18","","67","","","","100.64","","","","","","NA"
"-62.33","44.82","BEAVER ISLAND (AUT)","8200558","2023-01-13 16:00","2023","01","13","16:00","7.7","","7.2","","97","","","","18","","62","","","","100.68","","","","","","NA"
"-62.33","44.82","BEAVER ISLAND (AUT)","8200558","2023-01-13 17:00","2023","01","13","17:00","7.7","","7.4","","98","","","","18","","57","","","","100.66","","","","","","NA"
"-62.33","44.82","BEAVER ISLAND (AUT)","8200558","2023-01-13 18:00","2023","01","13","18:00","8.0","","7.7","","97","","","","18","","62","","","","100.55","","","","","","NA"
"-62.33","44.82","BEAVER ISLAND (AUT)","8200558","2023-01-13 19:00","2023","01","13","19:00","8.0","","7.8","","99","","","","18","","61","","","","100.54","","","","","","NA"
"-62.33","44.82","BEAVER ISLAND (AUT)","8200558","2023-01-13 20:00","2023","01","13","20:00","8.0","","7.9","","99","","","","19","","60","","","","100.52","","","","","","NA"
"-62.33","44.82","BEAVER ISLAND (AUT)","8200558","2023-01-13 21:00","2023","01","13","21:00","8.1","","7.8","","98","","","","18","","59","","","","100.43","","","","","","NA"
"-62.33","44.82","BEAVER ISLAND (AUT)","8200558","2023-01-13 22:00","2023","01","13","22:00","8.1","","7.6","","97","","","","19","","56","","","","100.47","","","","","","NA"
"-62.33","44.82","BEAVER ISLAND (AUT)","8200558","2023-01-13 23:00","2023","01","13","23:00","8.2","","7.7","","97","","","","20","","49","","","","100.53","","","","","","NA"
"-62.33","44.82","BEAVER ISLAND (AUT)","8200558","2023-01-14 00:00","2023","01","14","00:00","8.0","","7.6","","97","","","","20","","47","","","","100.53","","","","","","NA"
"-62.33","44.82","BEAVER ISLAND (AUT)","8200558","2023-01-14 01:00","2023","01","14","01:00","7.9","","7.6","","98","","","","20","","41","","","","100.51","","","","","","NA"
"-62.33","44.82","BEAVER ISLAND (AUT)","8200558","2023-01-14 02:00","2023","01","14","02:00","7.5","","7.2","","98","","","","21","","18","","","","100.59","","","","","","NA"
"-62.33","44.82","BEAVER ISLAND (AUT)","8200558","2023-01-14 03:00","2023","01","14","03:00","7.3","","7.1","","99","","","","20","","34","","","","100.65","","","","","","NA"
"-62.33","44.82","BEAVER ISLAND (AUT)","8200558","2023-01-14 04:00","2023","01","14","04:00","7.0","","6.9","","99","","","","19","","34","","","","100.63","","","","","","NA"
"-62.33","44.82","BEAVER ISLAND (AUT)","8200558","2023-01-14 05:00","2023","01","14","05:00","7.1","","7.0","","99","","","","19","","29","","","","100.58","","","","","","NA"
"-62.33","44.82","BEAVER ISLAND (AUT)","8200558","2023-01-14 06:00","2023","01","14","06:00","7.1","","7.0","","100","","","","17","","34","","","","100.54","","","","","","NA"
"-62.33","44.82","BEAVER ISLAND (AUT)","8200558","2023-01-14 07:00","2023","01","14","07:00","7.3","","7.2","","99","","","","17","","41","","","","100.46","","","","","","NA"
"-62.33","44.82","BEAVER ISLAND (AUT)","8200558","2023-01-14 08:00","2023","01","14","08:00","8.1","","7.9","","99","","","","17","","48","","","","100.39","","","","","","NA"
"-62.33","44.82","BEAVER ISLAND (AUT)","8200558","2023-01-14 09:00","2023","01","14","09:00","8.1","","8.0","","99","","","","17","","50","","","","100.34","","","","","","NA"
"-62.33","44.82","BEAVER ISLAND (AUT)","8200558","2023-01-14 10:00","2023","01","14","10:00","7.9","","7.8","","99","","","","17","","46","","","","100.28","","","","","","NA"
"-62.33","44.82","BEAVER ISLAND (AUT)","8200558","2023-01-14 11:00","2023","01","14","11:00","8.7","","8.3","","97","","","","18","","56","","","","100.22","","","","","","NA"
"-62.33","44.82","BEAVER ISLAND (AUT)","8200558","2023-01-14 12:00","2023","01","14","12:00","8.4","","8.1","","98","","","","19","","51","","","","100.21","","","","","","NA"
"-62.33","44.82","BEAVER ISLAND (AUT)","8200558","2023-01-14 13:00","2023","01","14","13:00","8.4","","8.2","","99","","","","19","","51","","","","100.10","","","","","","NA"
"-62.33","44.82","BEAVER ISLAND (AUT)","8200558","2023-01-14 14:00","2023","01","14","14:00","8.6","","8.5","","100","","","","18","","53","","","","100.04","","","","","","NA"
"-62.33","44.82","BEAVER ISLAND (AUT)","8200558","2023-01-14 15:00","2023","01","14","15:00","8.3","","8.3","","100","","","","19","","40","","","","100.05","","","","","","NA"
"-62.33","44.82","BEAVER ISLAND (AUT)","8200558","2023-01-14 16:00","2023","01","14","16:00","9.0","","8.9","","100","","","","19","","52","","","","100.16","","","","","","NA"
"-62.33","44.82","BEAVER ISLAND (AUT)","8200558","2023-01-14 17:00","2023","01","14","17:00","7.8","","7.8","","100","","","","20","","31","","","","100.05","","","","","","NA"
"-62.33","44.82","BEAVER ISLAND (AUT)","8200558","2023-01-14 18:00","2023","01","14","18:00","7.2","","7.1","","100","","","","23","","15","","","","100.07","","","","","","NA"
"-62.33","44.82","BEAVER ISLAND (AUT)","8200558","2023-01-14 19:00","2023","01","14","19:00","4.2","","4.2","","100","","","","1","","31","","","","100.12","","","","","","NA"
"-62.33","44.82","BEAVER ISLAND (AUT)","8200558","2023-01-14 20:00","2023","01","14","20:00","3.1","","3.0","","99","","","","1","","30","","","","99.96","","","","","","NA"
"-62.33","44.82","BEAVER ISLAND (AUT)","8200558","2023-01-14 21:00","2023","01","14","21:00","2.7","","2.2","","97","","","","1","","39","","","","100.13","","","","","","NA"
"-62.33","44.82","BEAVER ISLAND (AUT)","8200558","2023-01-14 22:00","2023","01","14","22:00","2.7","","1.9","","95","","","","2","","35","","","","100.37","","","","","","NA"
"-62.33","44.82","BEAVER ISLAND (AUT)","8200558","2023-01-14 23:00","2023","01","14","23:00","2.1","","1.7","","97","","","","2","","34","","","","100.43","","","","","","NA"
"-62.33","44.82","BEAVER ISLAND (AUT)","8200558","2023-01-15 00:00","2023","01","15","00:00","1.8","","1.3","","97","","","","2","","40","","","","100.50","","","","","","NA"
"-62.33","44.82","BEAVER ISLAND (AUT)","8200558","2023-01-15 01:00","2023","01","15","01:00","1.8","","0.9","","94","","","","1","","43","","","","100.59","","","","","","NA"
"-62.33","44.82","BEAVER ISLAND (AUT)","8200558","2023-01-15 02:00","2023","01","15","02:00","1.7","","1.2","","97","","","","2","","44","","","","100.59","","","","","","NA"
"-62.33","44.82","BEAVER ISLAND (AUT)","8200558","2023-01-15 03:00","2023","01","15","03:00","2.0","","1.1","","94","","","","2","","45","","","","100.69","","","","","","NA"
"-62.33","44.82","BEAVER ISLAND (AUT)","8200558","2023-01-15 04:00","2023","01","15","04:00","1.6","","0.7","","94","","","","2","","51","","","","100.61","","","","","","NA"
"-62.33","44.82","BEAVER ISLAND (AUT)","8200558","2023-01-15 05:00","2023","01","15","05:00","1.5","","0.5","","93","","","","2","","52","","","","100.61","","","","","","NA"
"-62.33","44.82","BEAVER ISLAND (AUT)","8200558","2023-01-15 06:00","2023","01","15","06:00","1.6","","0.5","","92","","","","2","","51","","","","100.68","","","","","","NA"
"-62.33","44.82","BEAVER ISLAND (AUT)","8200558","2023-01-15 07:00","2023","01","15","07:00","1.8","","0.9","","94","","","","2","","42","","","","100.96","","","","","","NA"
"-62.33","44.82","BEAVER ISLAND (AUT)","8200558","2023-01-15 08:00","2023","01","15","08:00","1.4","","0.5","","94","","","","2","","45","","","","101.03","","","","","","NA"
"-62.33","44.82","BEAVER ISLAND (AUT)","8200558","2023-01-15 09:00","2023","01","15","09:00","1.5","","0.6","","94","","","","2","","52","","","","101.05","","","","","","NA"
"-62.33","44.82","BEAVER ISLAND (AUT)","8200558","2023-01-15 10:00","2023","01","15","10:00","1.2","","0.5","","95","","","","2","","50","","","","101.17","","","","","","NA"
"-62.33","44.82","BEAVER ISLAND (AUT)","8200558","2023-01-15 11:00","2023","01","15","11:00","1.6","","0.4","","92","","","","2","","55","","","","101.13","","","","","","NA"
"-62.33","44.82","BEAVER ISLAND (AUT)","8200558","2023-01-15 12:00","2023","01","15","12:00","1.8","","0.4","","91","","","","2","","57","","","","101.05","","","","","","NA"
"-62.33","44.82","BEAVER ISLAND (AUT)","8200558","2023-01-15 13:00","2023","01","15","13:00","1.9","","1.2","","95","","","","2","","53","","","","101.02","","","","","","NA"
"-62.33","44.82","BEAVER ISLAND (AUT)","8200558","2023-01-15 14:00","2023","01","15","14:00","2.0","","1.3","","95","","","","3","","54","","","","101.01","","","","","","NA"
"-62.33","44.82","BEAVER ISLAND (AUT)","8200558","2023-01-15 15:00","2023","01","15","15:00","2.2","","1.6","","95","","","","3","","53","","","","101.06","","","","","","NA"
"-62.33","44.82","BEAVER ISLAND (AUT)","8200558","2023-01-15 16:00","2023","01","15","16:00","2.4","","1.6","","95","","","","3","","50","","","","101.09","","","","","","NA"
"-62.33","44.82","BEAVER ISLAND (AUT)","8200558","2023-01-15 17:00","2023","01","15","17:00","2.5","","1.7","","95","","","","3","","51","","","","101.12","","","","","","NA"
"-62.33","44.82","BEAVER ISLAND (AUT)","8200558","2023-01-15 18:00","2023","01","15","18:00","2.5","","2.0","","96","","","","3","","48","","","","101.13","","","","","","NA"
"-62.33","44.82","BEAVER ISLAND (AUT)","8200558","2023-01-15 19:00","2023","01","15","19:00","2.9","","2.3","","96","","","","4","","44","","","","101.15","","","","","","NA"
"-62.33","44.82","BEAVER ISLAND (AUT)","8200558","2023-01-15 20:00","2023","01","15","20:00","3.1","","2.6","","97","","","","4","","43","","","","101.14","","","","","","NA"
"-62.33","44.82","BEAVER ISLAND (AUT)","8200558","2023-01-15 21:00","2023","01","15","21:00","3.5","","3.1","","97","","","","4","","39","","","","101.12","","","","","","NA"
"-62.33","44.82","BEAVER ISLAND (AUT)","8200558","2023-01-15 22:00","2023","01","15","22:00","3.9","","3.3","","96","","","","5","","41","","","","101.06","","","","","","NA"
"-62.33","44.82","BEAVER ISLAND (AUT)","8200558","2023-01-15 23:00","2023","01","15","23:00","3.9","","3.6","","97","","","","5","","44","","","","101.02","","","","","","NA"
"-62.33","44.82","BEAVER ISLAND (AUT)","8200558","2023-01-16 00:00","2023","01","16","00:00","4.0","","3.5","","96","","","","5","","49","","","","100.92","","","","","","NA"
"-62.33","44.82","BEAVER ISLAND (AUT)","8200558","2023-01-16 01:00","2023","01","16","01:00","4.0","","3.3","","95","","","","6","","53","","","","100.92","","","","","","NA"
"-62.33","44.82","BEAVER ISLAND (AUT)","8200558","2023-01-16 02:00","2023","01","16","02:00","4.0","","3.3","","95","","","","6","","47","","","","100.84","","","","","","NA"
"-62.33","44.82","BEAVER ISLAND (AUT)","8200558","2023-01-16 03:00","2023","01","16","03:00","4.2","","3.3","","94","","","","6","","54","","","","100.79","","","","","","NA"
"-62.33","44.82","BEAVER ISLAND (AUT)","8200558","2023-01-16 04:00","2023","01","16","04:00","4.2","","3.5","","95","","","","6","","57","","","","100.73","","","","","","NA"
"-62.33","44.82","BEAVER ISLAND (AUT)","8200558","2023-01-16 05:00","2023","01","16","05:00","4.2","","3.5","","95","","","","6","","56","","","","100.66","","","","","","NA"
"-62.33","44.82","BEAVER ISLAND (AUT)","8200558","2023-01-16 06:00","2023","01","16","06:00","4.4","","3.6","","95","","","","5","","50","","","","100.52","","","","","","NA"
"-62.33","44.82","BEAVER ISLAND (AUT)","8200558","2023-01-16 07:00","2023","01","16","07:00","4.6","","3.9","","95","","","","5","","47","","","","100.48","","","","","","NA"
"-62.33","44.82","BEAVER ISLAND (AUT)","8200558","2023-01-16 08:00","2023","01","16","08:00","4.8","","4.4","","97","","","","5","","45","","","","100.44","","","","","","NA"
"-62.33","44.82","BEAVER ISLAND (AUT)","8200558","2023-01-16 09:00","2023","01","16","09:00","5.3","","5.0","","98","","","","5","","47","","","","100.33","","","","","","NA"
"-62.33","44.82","BEAVER ISLAND (AUT)","8200558","2023-01-16 10:00","2023","01","16","10:00","5.9","","5.7","","98","","","","5","","44","","","","100.19","","","","","","NA"
"-62.33","44.82","BEAVER ISLAND (AUT)","8200558","2023-01-16 11:00","2023","01","16","11:00","6.5","","6.3","","99","","","","5","","46","","","","99.97","","","","","","NA"
"-62.33","44.82","BEAVER ISLAND (AUT)","8200558","2023-01-16 12:00","2023","01","16","12:00","6.1","","5.9","","98","","","","6","","46","","","","99.88","","","","","","NA"
"-62.33","44.82","BEAVER ISLAND (AUT)","8200558","2023-01-16 13:00","2023","01","16","13:00","6.1","","5.9","","98","","","","6","","44","","","","99.81","","","","","","NA"
"-62.33","44.82","BEAVER ISLAND (AUT)","8200558","2023-01-16 14:00","2023","01","16","14:00","6.1","","5.9","","99","","","","6","","40","","","","99.68","","","","","","NA"
"-62.33","44.82","BEAVER ISLAND (AUT)","8200558","2023-01-16 15:00","2023","01","16","15:00","6.1","","6.1","","99","","","","7","","36","","","","99.59","","","","","","NA"
"-62.33","44.82","BEAVER ISLAND (AUT)","8200558","2023-01-16 16:00","2023","01","16","16:00","6.4","","6.3","","100","","","","7","","37","","","","99.37","","","","","","NA"
"-62.33","44.82","BEAVER ISLAND (AUT)","8200558","2023-01-16 17:00","2023","01","16","17:00","6.3","","6.2","","100","","","","8","","32","","","","99.34","","","","","","NA"
"-62.33","44.82","BEAVER ISLAND (AUT)","8200558","2023-01-16 18:00","2023","01","16","18:00","6.0","","6.0","","100","","","","9","","27","","","","99.30","","","","","","NA"
"-62.33","44.82","BEAVER ISLAND (AUT)","8200558","2023-01-16 19:00","2023","01","16","19:00","6.6","","6.6","","100","","","","14","","23","","","","99.27","","","","","","NA"
"-62.33","44.82","BEAVER ISLAND (AUT)","8200558","2023-01-16 20:00","2023","01","16","20:00","6.4","","6.4","","100","","","","13","","28","","","","99.27","","","","","","NA"
"-62.33","44.82","BEAVER ISLAND (AUT)","8200558","2023-01-16 21:00","2023","01","16","21:00","6.8","","6.8","","100","","","","15","","33","","","","99.27","","","","","","NA"
"-62.33","44.82","BEAVER ISLAND (AUT)","8200558","2023-01-16 22:00","2023","01","16","22:00","6.6","","6.6","","100","","","","15","","30","","","","99.24","","","","","","NA"
"-62.33","44.82","BEAVER ISLAND (AUT)","8200558","2023-01-16 23:00","2023","01","16","23:00","6.4","","6.4","","100","","","","15","","33","","","","99.20","","","","","","NA"
"-62.33","44.82","BEAVER ISLAND (AUT)","8200558","2023-01-17 00:00","2023","01","17","00:00","6.6","","6.6","","100","","","","14","","27","","","","99.16","","","","","","NA"
"-62.33","44.82","BEAVER ISLAND (AUT)","8200558","2023-01-17 01:00","2023","01","17","01:00","6.0","","6.0","","100","","","","12","","24","","","","99.10","","","","","","NA"
"-62.33","44.82","BEAVER ISLAND (AUT)","8200558","2023-01-17 02:00","2023","01","17","02:00","6.3","","6.3","","100","","","","11","","14","","","","99.20","","","","","","NA"
"-62.33","44.82","BEAVER ISLAND (AUT)","8200558","2023-01-17 03:00","2023","01","17","03:00","6.8","","6.8","","100","","","","8","","9","","","","99.27","","","","","","NA"
"-62.33","44.82","BEAVER ISLAND (AUT)","8200558","2023-01-17 04:00","2023","01","17","04:00","5.7","","5.7","","100","","","","4","","16","","","","99.00","","","","","","NA"
"-62.33","44.82","BEAVER ISLAND (AUT)","8200558","2023-01-17 05:00","2023","01","17","05:00","6.2","","6.2","","100","","","","3","","10","","","","99.02","","","","","","NA"
"-62.33","44.82","BEAVER ISLAND (AUT)","8200558","2023-01-17 06:00","2023","01","17","06:00","6.7","","6.7","","100","","","","31","","8","","","","99.07","","","","","","NA"
"-62.33","44.82","BEAVER ISLAND (AUT)","8200558","2023-01-17 07:00","2023","01","17","07:00","6.9","","6.9","","100","","","","33","","12","","","","99.05","","","","","","NA"
"-62.33","44.82","BEAVER ISLAND (AUT)","8200558","2023-01-17 08:00","2023","01","17","08:00","5.8","","5.8","","100","","","","23","","28","","","","98.87","","","","","","NA"
"-62.33","44.82","BEAVER ISLAND (AUT)","8200558","2023-01-17 09:00","2023","01","17","09:00","5.1","","5.1","","100","","","","22","","34","","","","98.85","","","","","","NA"
"-62.33","44.82","BEAVER ISLAND (AUT)","8200558","2023-01-17 10:00","2023","01","17","10:00","4.9","","4.9","","100","","","","22","","39","","","","98.96","","","","","","NA"
"-62.33","44.82","BEAVER ISLAND (AUT)","8200558","2023-01-17 11:00","2023","01","17","11:00","4.7","","4.7","","100","","","","22","","35","","","","99.07","","","","","","NA"
"-62.33","44.82","BEAVER ISLAND (AUT)","8200558","2023-01-17 12:00","2023","01","17","12:00","4.6","","4.5","","100","","","","22","","39","","","","99.14","","","","","","NA"
"-62.33","44.82","BEAVER ISLAND (AUT)","8200558","2023-01-17 13:00","2023","01","17","13:00","4.9","","4.7","","99","","","","22","","35","","","","99.26","","","","","","NA"
"-62.33","44.82","BEAVER ISLAND (AUT)","8200558","2023-01-17 14:00","2023","01","17","14:00","4.8","","4.5","","98","","","","22","","37","","","","99.22","","","","","","NA"
"-62.33","44.82","BEAVER ISLAND (AUT)","8200558","2023-01-17 15:00","2023","01","17","15:00","4.6","","4.2","","97","","","","22","","35","","","","99.17","","","","","","NA"
"-62.33","44.82","BEAVER ISLAND (AUT)","8200558","2023-01-17 16:00","2023","01","17","16:00","4.6","","4.0","","96","","","","23","","33","","","","99.18","","","","","","NA"
"-62.33","44.82","BEAVER ISLAND (AUT)","8200558","2023-01-17 17:00","2023","01","17","17:00","4.5","","3.9","","96","","","","22","","34","","","","99.19","","","","","","NA"
"-62.33","44.82","BEAVER ISLAND (AUT)","8200558","2023-01-17 18:00","2023","01","17","18:00","4.4","","3.8","","95","","","","22","","32","","","","99.26","","","","","","NA"
"-62.33","44.82","BEAVER ISLAND (AUT)","8200558","2023-01-17 19:00","2023","01","17","19:00","4.4","","3.9","","97","","","","23","","31","","","","99.33","","","","","","NA"
"-62.33","44.82","BEAVER ISLAND (AUT)","8200558","2023-01-17 20:00","2023","01","17","20:00","4.4","","4.2","","99","","","","23","","34","","","","99.38","","","","","","NA"
"-62.33","44.82","BEAVER ISLAND (AUT)","8200558","2023-01-17 21:00","2023","01","17","21:00","4.0","","3.9","","99","","","","27","","15","","","","99.37","","","","","","NA"
"-62.33","44.82","BEAVER ISLAND (AUT)","8200558","2023-01-17 22:00","2023","01","17","22:00","3.9","","3.5","","98","","","","27","","16","","","","99.38","","","","","","NA"
"-62.33","44.82","BEAVER ISLAND (AUT)","8200558","2023-01-17 23:00","2023","01","17","23:00","3.3","","2.8","","97","","","","28","","22","","","","99.30","","","","","","NA"
"-62.33","44.82","BEAVER ISLAND (AUT)","8200558","2023-01-18 00:00","2023","01","18","00:00","3.4","","2.7","","95","","","","26","","24","","","","99.40","","","","","","NA"
"-62.33","44.82","BEAVER ISLAND (AUT)","8200558","2023-01-18 01:00","2023","01","18","01:00","3.2","","2.3","","94","","","","25","","29","","","","99.45","","","","","","NA"
"-62.33","44.82","BEAVER ISLAND (AUT)","8200558","2023-01-18 02:00","2023","01","18","02:00","2.8","","1.4","","91","","","","26","","36","","","","99.46","","","","","","NA"
"-62.33","44.82","BEAVER ISLAND (AUT)","8200558","2023-01-18 03:00","2023","01","18","03:00","2.7","","1.2","","90","","","","26","","31","","","","99.46","","","","","","NA"
"-62.33","44.82","BEAVER ISLAND (AUT)","8200558","2023-01-18 04:00","2023","01","18","04:00","2.4","","0.3","","86","","","","26","","32","","","","99.55","","","","","","NA"
"-62.33","44.82","BEAVER ISLAND (AUT)","8200558","2023-01-18 05:00","2023","01","18","05:00","2.3","","0.3","","86","","","","26","","27","","","","99.74","","","","","","NA"
"-62.33","44.82","BEAVER ISLAND (AUT)","8200558","2023-01-18 06:00","2023","01","18","06:00","2.2","","0.3","","87","","","","26","","35","","","","99.78","","","","","","NA"
"-62.33","44.82","BEAVER ISLAND (AUT)","8200558","2023-01-18 07:00","2023","01","18","07:00","2.4","","0.9","","89","","","","26","","23","","","","99.80","","","","","","NA"
"-62.33","44.82","BEAVER ISLAND (AUT)","8200558","2023-01-18 08:00","2023","01","18","08:00","2.9","","0.9","","86","","","","26","","27","","","","99.85","","","","","","NA"
"-62.33","44.82","BEAVER ISLAND (AUT)","8200558","2023-01-18 09:00","2023","01","18","09:00","4.0","","2.4","","89","","","","26","","17","","","","99.86","","","","","","NA"
"-62.33","44.82","BEAVER ISLAND (AUT)","8200558","2023-01-18 10:00","2023","01","18","10:00","5.4","","3.4","","87","","","","26","","16","","","","99.88","","","","","","NA"
"-62.33","44.82","BEAVER ISLAND (AUT)","8200558","2023-01-18 11:00","2023","01","18","11:00","5.0","","3.6","","90","","","","24","","17","","","","99.85","","","","","","NA"
"-62.33","44.82","BEAVER ISLAND (AUT)","8200558","2023-01-18 12:00","2023","01","18","12:00","5.1","","3.8","","91","","","","23","","18","","","","99.77","","","","","","NA"
"-62.33","44.82","BEAVER ISLAND (AUT)","8200558","2023-01-18 13:00","2023","01","18","13:00","5.3","","4.2","","92","","","","22","","21","","","","99.67","","","","","","NA"
"-62.33","44.82","BEAVER ISLAND (AUT)","8200558","2023-01-18 14:00","2023","01","18","14:00","5.4","","4.5","","94","","","","22","","14","","","","99.60","","","","","","NA"
"-62.33","44.82","BEAVER ISLAND (AUT)","8200558","2023-01-18 15:00","2023","01","18","15:00","5.6","","4.8","","94","","","","20","","15","","","","99.56","","","","","","NA"
"-62.33","44.82","BEAVER ISLAND (AUT)","8200558","2023-01-18 16:00","2023","01","18","16:00","5.4","","4.7","","96","","","","19","","17","","","","99.57","","","","","","NA"
"-62.33","44.82","BEAVER ISLAND (AUT)","8200558","2023-01-18 17:00","2023","01","18","17:00","5.2","","4.7","","97","","","","20","","19","","","","99.56","","","","","","NA"
"-62.33","44.82","BEAVER ISLAND (AUT)","8200558","2023-01-18 18:00","2023","01","18","18:00","5.1","","4.7","","97","","","","20","","17","","","","99.56","","","","","","NA"
"-62.33","44.82","BEAVER ISLAND (AUT)","8200558","2023-01-18 19:00","2023","01","18","19:00","4.8","","4.5","","98","","","","24","","16","","","","99.57","","","","","","NA"
"-62.33","44.82","BEAVER ISLAND (AUT)","8200558","2023-01-18 20:00","2023","01","18","20:00","4.6","","4.4","","99","","","","27","","12","","","","99.58","","","","","","NA"
"-62.33","44.82","BEAVER ISLAND (AUT)","8200558","2023-01-18 21:00","2023","01","18","21:00","4.3","","4.2","","99","","","","25","","17","","","","99.56","","","","","","NA"
"-62.33","44.82","BEAVER ISLAND (AUT)","8200558","2023-01-18 22:00","2023","01","18","22:00","3.8","","3.7","","99","","","","29","","14","","","","99.59","","","","","","NA"
"-62.33","44.82","BEAVER ISLAND (AUT)","8200558","2023-01-18 23:00","2023","01","18","23:00","2.9","","2.2","","95","","","","31","","21","","","","99.62","","","","","","NA"
"-62.33","44.82","BEAVER ISLAND (AUT)","8200558","2023-01-19 00:00","2023","01","19","00:00","2.3","","0.5","","88","","","","29","","19","","","","99.62","","","","","","NA"
"-62.33","44.82","BEAVER ISLAND (AUT)","8200558","2023-01-19 01:00","2023","01","19","01:00","1.9","","0.4","","90","","","","30","","21","","","","99.62","","","","","","NA"
"-62.33","44.82","BEAVER ISLAND (AUT)","8200558","2023-01-19 02:00","2023","01","19","02:00","1.4","","-0.2","","89","","","","30","","26","","","","99.66","","","","","","NA"
"-62.33","44.82","BEAVER ISLAND (AUT)","8200558","2023-01-19 03:00","2023","01","19","03:00","1.2","","-0.2","","90","","","","31","","22","","","","99.73","","","","","","NA"
"-62.33","44.82","BEAVER ISLAND (AUT)","8200558","2023-01-19 04:00","2023","01","19","04:00","1.3","","0.0","","91","","","","29","","22","","","","99.81","","","","","","NA"
"-62.33","44.82","BEAVER ISLAND (AUT)","8200558","2023-01-19 05:00","2023","01","19","05:00","1.3","","-0.2","","90","","","","31","","23","","","","99.84","","","","","","NA"
"-62.33","44.82","BEAVER ISLAND (AUT)","8200558","2023-01-19 06:00","2023","01","19","06:00","1.5","","-0.6","","86","","","","30","","24","","","","99.95","","","","","","NA"
"-62.33","44.82","BEAVER ISLAND (AUT)","8200558","2023-01-19 07:00","2023","01","19","07:00","1.5","","-0.6","","86","","","","31","","20","","","","100.03","","","","","","NA"
"-62.33","44.82","BEAVER ISLAND (AUT)","8200558","2023-01-19 08:00","2023","01","19","08:00","1.6","","-0.5","","86","","","","30","","27","","","","100.15","","","","","","NA"
"-62.33","44.82","BEAVER ISLAND (AUT)","8200558","2023-01-19 09:00","2023","01","19","09:00","1.8","","-0.3","","86","","","","31","","25","","","","100.21","","","","","","NA"
"-62.33","44.82","BEAVER ISLAND (AUT)","8200558","2023-01-19 10:00","2023","01","19","10:00","2.4","","0.0","","84","","","","30","","27","","","","100.31","","","","","","NA"
"-62.33","44.82","BEAVER ISLAND (AUT)","8200558","2023-01-19 11:00","2023","01","19","11:00","2.7","","0.0","","82","","","","31","","30","","","","100.38","","","","","","NA"
"-62.33","44.82","BEAVER ISLAND (AUT)","8200558","2023-01-19 12:00","2023","01","19","12:00","3.0","","-0.3","","79","","","","32","","30","","","","100.36","","","","","","NA"
"-62.33","44.82","BEAVER ISLAND (AUT)","8200558","2023-01-19 13:00","2023","01","19","13:00","2.8","","-0.4","","79","","","","32","","32","","","","100.35","","","","","","NA"
"-62.33","44.82","BEAVER ISLAND (AUT)","8200558","2023-01-19 14:00","2023","01","19","14:00","3.0","","-0.3","","79","","","","32","","36","","","","100.44","","","","","","NA"
"-62.33","44.82","BEAVER ISLAND (AUT)","8200558","2023-01-19 15:00","2023","01","19","15:00","2.8","","-0.9","","77","","","","31","","31","","","","100.52","","","","","","NA"
"-62.33","44.82","BEAVER ISLAND (AUT)","8200558","2023-01-19 16:00","2023","01","19","16:00","1.9","","-0.8","","82","","","","32","","30","","","","100.65","","","","","","NA"
"-62.33","44.82","BEAVER ISLAND (AUT)","8200558","2023-01-19 17:00","2023","01","19","17:00","1.5","","-1.6","","80","","","","32","","28","","","","100.72","","","","","","NA"
"-62.33","44.82","BEAVER ISLAND (AUT)","8200558","2023-01-19 18:00","2023","01","19","18:00","1.5","","-2.7","","73","","","","32","","35","","","","100.81","","","","","","NA"
"-62.33","44.82","BEAVER ISLAND (AUT)","8200558","2023-01-19 19:00","2023","01","19","19:00","1.6","","-2.3","","75","","","","32","","31","","","","100.90","","","","","","NA"
"-62.33","44.82","BEAVER ISLAND (AUT)","8200558","2023-01-19 20:00","2023","01","19","20:00","1.3","","-2.6","","75","","","","32","","27","","","","100.90","","","","","","NA"
"-62.33","44.82","BEAVER ISLAND (AUT)","8200558","2023-01-19 21:00","2023","01","19","21:00","1.1","","-2.1","","80","","","","32","","25","","","","100.91","","","","","","NA"
"-62.33","44.82","BEAVER ISLAND (AUT)","8200558","2023-01-19 22:00","2023","01","19","22:00","0.7","","-2.0","","82","","","","31","","20","","","","100.98","","","","","","NA"
"-62.33","44.82","BEAVER ISLAND (AUT)","8200558","2023-01-19 23:00","2023","01","19","23:00","0.4","","-2.2","","83","","","","32","","18","","","","100.95","","","","","","NA"
"-62.33","44.82","BEAVER ISLAND (AUT)","8200558","2023-01-20 00:00","2023","01","20","00:00","0.1","","-1.8","","87","","","","32","","22","","","","100.94","","","","","","NA"
"-62.33","44.82","BEAVER ISLAND (AUT)","8200558","2023-01-20 01:00","2023","01","20","01:00","0.1","","-1.5","","89","","","","34","","23","","","","100.91","","","","","","NA"
"-62.33","44.82","BEAVER ISLAND (AUT)","8200558","2023-01-20 02:00","2023","01","20","02:00","-0.1","","-1.7","","89","","","","33","","15","","","","100.94","","","","-5","","NA"
"-62.33","44.82","BEAVER ISLAND (AUT)","8200558","2023-01-20 03:00","2023","01","20","03:00","-0.1","","-1.8","","88","","","","2","","19","","","","100.87","","","","-5","","NA"
"-62.33","44.82","BEAVER ISLAND (AUT)","8200558","2023-01-20 04:00","2023","01","20","04:00","0.1","","-1.9","","86","","","","3","","17","","","","100.84","","","","","","NA"
"-62.33","44.82","BEAVER ISLAND (AUT)","8200558","2023-01-20 05:00","2023","01","20","05:00","0.3","","-1.5","","87","","","","4","","22","","","","100.72","","","","","","NA"
"-62.33","44.82","BEAVER ISLAND (AUT)","8200558","2023-01-20 06:00","2023","01","20","06:00","0.4","","-1.4","","88","","","","5","","25","","","","100.73","","","","","","NA"
"-62.33","44.82","BEAVER ISLAND (AUT)","8200558","2023-01-20 07:00","2023","01","20","07:00","0.7","","-1.0","","88","","","","5","","31","","","","100.60","","","","","","NA"
"-62.33","44.82","BEAVER ISLAND (AUT)","8200558","2023-01-20 08:00","2023","01","20","08:00","0.7","","-1.3","","87","","","","5","","31","","","","100.59","","","","","","NA"
"-62.33","44.82","BEAVER ISLAND (AUT)","8200558","2023-01-20 09:00","2023","01","20","09:00","0.4","","-0.5","","93","","","","6","","35","","","","100.39","","","","","","NA"
"-62.33","44.82","BEAVER ISLAND (AUT)","8200558","2023-01-20 10:00","2023","01","20","10:00","1.6","","0.8","","95","","","","7","","46","","","","100.08","","","","","","NA"
"-62.33","44.82","BEAVER ISLAND (AUT)","8200558","2023-01-20 11:00","2023","01","20","11:00","1.8","","1.1","","95","","","","8","","47","","","","99.93","","","","","","NA"
"-62.33","44.82","BEAVER ISLAND (AUT)","8200558","2023-01-20 12:00","2023","01","20","12:00","1.7","","1.1","","95","","","","6","","43","","","","99.85","","","","","","NA"
"-62.33","44.82","BEAVER ISLAND (AUT)","8200558","2023-01-20 13:00","2023","01","20","13:00","0.2","","0.1","","99","","","","2","","28","","","","99.66","","","","","","NA"
"-62.33","44.82","BEAVER ISLAND (AUT)","8200558","2023-01-20 14:00","2023","01","20","14:00","0.4","","0.4","","99","","","","4","","39","","","","99.67","","","","","","NA"
"-62.33","44.82","BEAVER ISLAND (AUT)","8200558","2023-01-20 15:00","2023","01","20","15:00","1.4","","1.3","","99","","","","5","","49","","","","99.69","","","","","","NA"
"-62.33","44.82","BEAVER ISLAND (AUT)","8200558","2023-01-20 16:00","2023","01","20","16:00","1.6","","0.6","","93","","","","5","","54","","","","99.68","","","","","","NA"
"-62.33","44.82","BEAVER ISLAND (AUT)","8200558","2023-01-20 17:00","2023","01","20","17:00","0.9","","0.3","","96","","","","4","","48","","","","99.51","","","","","","NA"
"-62.33","44.82","BEAVER ISLAND (AUT)","8200558","2023-01-20 18:00","2023","01","20","18:00","1.0","","0.5","","97","","","","3","","45","","","","99.49","","","","","","NA"
"-62.33","44.82","BEAVER ISLAND (AUT)","8200558","2023-01-20 19:00","2023","01","20","19:00","0.9","","0.3","","95","","","","3","","47","","","","99.48","","","","","","NA"
"-62.33","44.82","BEAVER ISLAND (AUT)","8200558","2023-01-20 20:00","2023","01","20","20:00","1.1","","0.3","","95","","","","2","","43","","","","99.50","","","","","","NA"
"-62.33","44.82","BEAVER ISLAND (AUT)","8200558","2023-01-20 21:00","2023","01","20","21:00","0.8","","0.0","","95","","","","1","","42","","","","99.52","","","","","","NA"
"-62.33","44.82","BEAVER ISLAND (AUT)","8200558","2023-01-20 22:00","2023","01","20","22:00","0.6","","0.0","","96","","","","36","","42","","","","99.55","","","","","","NA"
"-62.33","44.82","BEAVER ISLAND (AUT)","8200558","2023-01-20 23:00","2023","01","20","23:00","0.7","","0.1","","96","","","","36","","46","","","","99.57","","","","","","NA"
"-62.33","44.82","BEAVER ISLAND (AUT)","8200558","2023-01-21 00:00","2023","01","21","00:00","0.8","","0.1","","95","","","","36","","46","","","","99.59","","","","","","NA"
"-62.33","44.82","BEAVER ISLAND (AUT)","8200558","2023-01-21 01:00","2023","01","21","01:00","1.0","","0.1","","94","","","","36","","46","","","","99.61","","","","","","NA"
"-62.33","44.82","BEAVER ISLAND (AUT)","8200558","2023-01-21 02:00","2023","01","21","02:00","0.9","","-0.1","","93","","","","36","","45","","","","99.68","","","","","","NA"
"-62.33","44.82","BEAVER ISLAND (AUT)","8200558","2023-01-21 03:00","2023","01","21","03:00","0.9","","-0.4","","92","","","","36","","43","","","","99.81","","","","","","NA"
"-62.33","44.82","BEAVER ISLAND (AUT)","8200558","2023-01-21 04:00","2023","01","21","04:00","0.8","","-0.7","","90","","","","36","","41","","","","99.88","","","","","","NA"
"-62.33","44.82","BEAVER ISLAND (AUT)","8200558","2023-01-21 05:00","2023","01","21","05:00","0.7","","-1.0","","89","","","","36","","36","","","","99.98","","","","","","NA"
"-62.33","44.82","BEAVER ISLAND (AUT)","8200558","2023-01-21 06:00","2023","01","21","06:00","0.6","","-1.2","","87","","","","36","","35","","","","100.09","","","","","","NA"
"-62.33","44.82","BEAVER ISLAND (AUT)","8200558","2023-01-21 07:00","2023","01","21","07:00","0.4","","-1.5","","87","","","","35","","37","","","","100.21","","","","","","NA"
"-62.33","44.82","BEAVER ISLAND (AUT)","8200558","2023-01-21 08:00","2023","01","21","08:00","0.3","","-1.9","","85","","","","36","","38","","","","100.37","","","","","","NA"
"-62.33","44.82","BEAVER ISLAND (AUT)","8200558","2023-01-21 09:00","2023","01","21","09:00","0.3","","-2.0","","84","","","","36","","40","","","","100.47","","","","","","NA"
"-62.33","44.82","BEAVER ISLAND (AUT)","8200558","2023-01-21 10:00","2023","01","21","10:00","0.7","","-2.2","","81","","","","35","","44","","","","100.55","","","","","","NA"
"-62.33","44.82","BEAVER ISLAND (AUT)","8200558","2023-01-21 11:00","2023","01","21","11:00","0.7","","-1.3","","86","","","","35","","38","","","","100.59","","","","","","NA"
"-62.33","44.82","BEAVER ISLAND (AUT)","8200558","2023-01-21 12:00","2023","01","21","12:00","1.1","","-1.7","","82","","","","35","","42","","","","100.60","","","","","","NA"
"-62.33","44.82","BEAVER ISLAND (AUT)","8200558","2023-01-21 13:00","2023","01","21","13:00","0.6","","-2.3","","81","","","","36","","45","","","","100.63","","","","","","NA"
"-62.33","44.82","BEAVER ISLAND (AUT)","8200558","2023-01-21 14:00","2023","01","21","14:00","0.0","","-4.0","","74","","","","36","","46","","","","100.70","","","","-8","","NA"
"-62.33","44.82","BEAVER ISLAND (AUT)","8200558","2023-01-21 15:00","2023","01","21","15:00","-0.2","","-3.9","","76","","","","35","","42","","","","100.80","","","","-8","","NA"
"-62.33","44.82","BEAVER ISLAND (AUT)","8200558","2023-01-21 16:00","2023","01","21","16:00","-0.4","","-4.4","","74","","","","35","","38","","","","100.92","","","","-8","","NA"
"-62.33","44.82","BEAVER ISLAND (AUT)","8200558","2023-01-21 17:00","2023","01","21","17:00","-1.0","","-3.8","","81","","","","35","","37","","","","101.01","","","","-8","","NA"
"-62.33","44.82","BEAVER ISLAND (AUT)","8200558","2023-01-21 18:00","2023","01","21","18:00","-1.4","","-4.2","","82","","","","34","","37","","","","101.07","","","","-9","","NA"
"-62.33","44.82","BEAVER ISLAND (AUT)","8200558","2023-01-21 19:00","2023","01","21","19:00","-1.8","","-4.9","","79","","","","34","","37","","","","101.16","","","","-10","","NA"
"-62.33","44.82","BEAVER ISLAND (AUT)","8200558","2023-01-21 20:00","2023","01","21","20:00","-2.3","","-5.8","","76","","","","33","","34","","","","101.23","","","","-10","","NA"
"-62.33","44.82","BEAVER ISLAND (AUT)","8200558","2023-01-21 21:00","2023","01","21","21:00","-2.6","","-6.2","","76","","","","35","","31","","","","101.28","","","","-10","","NA"
"-62.33","44.82","BEAVER ISLAND (AUT)","8200558","2023-01-21 22:00","2023","01","21","22:00","-2.9","","-6.2","","78","","","","35","","28","","","","101.31","","","","-10","","NA"
"-62.33","44.82","BEAVER ISLAND (AUT)","8200558","2023-01-21 23:00","2023","01","21","23:00","-3.2","","-6.1","","81","","","","34","","22","","","","101.34","","","","-10","","NA"
"-62.33","44.82","BEAVER ISLAND (AUT)","8200558","2023-01-22 00:00","2023","01","22","00:00","-3.4","","-5.9","","83","","","","32","","17","","","","101.35","","","","-9","","NA"
"-62.33","44.82","BEAVER ISLAND (AUT)","8200558","2023-01-22 01:00","2023","01","22","01:00","-3.4","","-5.6","","84","","","","32","","21","","","","101.39","","","","-10","","NA"
"-62.33","44.82","BEAVER ISLAND (AUT)","8200558","2023-01-22 02:00","2023","01","22","02:00","-3.3","","-5.6","","84","","","","32","","25","","","","101.47","","","","-10","","NA"
"-62.33","44.82","BEAVER ISLAND (AUT)","8200558","2023-01-22 03:00","2023","01","22","03:00","-3.7","","-6.0","","84","","","","30","","21","","","","101.55","","","","-10","","NA"
"-62.33","44.82","BEAVER ISLAND (AUT)","8200558","2023-01-22 04:00","2023","01","22","04:00","-3.7","","-5.8","","85","","","","32","","29","","","","101.58","","","","-11","","NA"
"-62.33","44.82","BEAVER ISLAND (AUT)","8200558","2023-01-22 05:00","2023","01","22","05:00","-4.2","","-6.6","","83","","","","32","","27","","","","101.62","","","","-12","","NA"
"-62.33","44.82","BEAVER ISLAND (AUT)","8200558","2023-01-22 06:00","2023","01","22","06:00","-4.5","","-7.1","","82","","","","31","","26","","","","101.69","","","","-12","","NA"
"-62.33","44.82","BEAVER ISLAND (AUT)","8200558","2023-01-22 07:00","2023","01","22","07:00","-5.2","","-7.2","","86","","","","32","","17","","","","101.78","","","","-11","","NA"
"-62.33","44.82","BEAVER ISLAND (AUT)","8200558","2023-01-22 08:00","2023","01","22","08:00","-5.7","","-7.3","","88","","","","31","","14","","","","101.82","","","","-11","","NA"
"-62.33","44.82","BEAVER ISLAND (AUT)","8200558","2023-01-22 09:00","2023","01","22","09:00","-5.1","","-7.0","","87","","","","32","","18","","","","101.91","","","","-11","","NA"
"-62.33","44.82","BEAVER ISLAND (AUT)","8200558","2023-01-22 10:00","2023","01","22","10:00","-4.1","","-7.3","","78","","","","30","","21","","","","101.98","","","","-11","","NA"
"-62.33","44.82","BEAVER ISLAND (AUT)","8200558","2023-01-22 11:00","2023","01","22","11:00","-2.7","","-5.7","","80","","","","30","","20","","","","101.97","","","","-9","","NA"
"-62.33","44.82","BEAVER ISLAND (AUT)","8200558","2023-01-22 12:00","2023","01","22","12:00","-0.5","","-4.7","","74","","","","28","","11","","","","101.88","","","","-4","","NA"
"-62.33","44.82","BEAVER ISLAND (AUT)","8200558","2023-01-22 13:00","2023","01","22","13:00","0.9","","-3.6","","72","","","","25","","12","","","","101.83","","","","","","NA"
"-62.33","44.82","BEAVER ISLAND (AUT)","8200558","2023-01-22 14:00","2023","01","22","14:00","0.5","","-3.3","","75","","","","24","","21","","","","101.85","","","","","","NA"
"-62.33","44.82","BEAVER ISLAND (AUT)","8200558","2023-01-22 15:00","2023","01","22","15:00","0.4","","-3.3","","76","","","","24","","20","","","","101.85","","","","","","NA"
"-62.33","44.82","BEAVER ISLAND (AUT)","8200558","2023-01-22 16:00","2023","01","22","16:00","0.4","","-2.8","","79","","","","24","","24","","","","101.93","","","","","","NA"
"-62.33","44.82","BEAVER ISLAND (AUT)","8200558","2023-01-22 17:00","2023","01","22","17:00","0.5","","-1.7","","85","","","","24","","30","","","","101.97","","","","","","NA"
"-62.33","44.82","BEAVER ISLAND (AUT)","8200558","2023-01-22 18:00","2023","01","22","18:00","0.4","","-2.6","","81","","","","24","","41","","","","102.00","","","","","","NA"
"-62.33","44.82","BEAVER ISLAND (AUT)","8200558","2023-01-22 19:00","2023","01","22","19:00","0.4","","-2.4","","81","","","","25","","27","","","","101.97","","","","","","NA"
"-62.33","44.82","BEAVER ISLAND (AUT)","8200558","2023-01-22 20:00","2023","01","22","20:00","0.5","","-2.3","","81","","","","24","","27","","","","101.98","","","","","","NA"
"-62.33","44.82","BEAVER ISLAND (AUT)","8200558","2023-01-22 21:00","2023","01","22","21:00","1.1","","-1.0","","85","","","","23","","33","","","","101.89","","","","","","NA"
"-62.33","44.82","BEAVER ISLAND (AUT)","8200558","2023-01-22 22:00","2023","01","22","22:00","1.7","","-1.1","","82","","","","25","","36","","","","101.95","","","","","","NA"
"-62.33","44.82","BEAVER ISLAND (AUT)","8200558","2023-01-22 23:00","2023","01","22","23:00","1.8","","-1.4","","79","","","","24","","30","","","","101.82","","","","","","NA"
"-62.33","44.82","BEAVER ISLAND (AUT)","8200558","2023-01-23 00:00","2023","01","23","00:00","2.5","","-0.2","","82","","","","23","","26","","","","101.80","","","","","","NA"
"-62.33","44.82","BEAVER ISLAND (AUT)","8200558","2023-01-23 01:00","2023","01","23","01:00","2.8","","0.3","","84","","","","22","","23","","","","101.77","","","","","","NA"
"-62.33","44.82","BEAVER ISLAND (AUT)","8200558","2023-01-23 02:00","2023","01","23","02:00","3.2","","1.2","","87","","","","21","","20","","","","101.75","","","","","","NA"
"-62.33","44.82","BEAVER ISLAND (AUT)","8200558","2023-01-23 03:00","2023","01","23","03:00","2.9","","1.9","","93","","","","23","","29","","","","101.67","","","","","","NA"
"-62.33","44.82","BEAVER ISLAND (AUT)","8200558","2023-01-23 04:00","2023","01","23","04:00","2.9","","2.2","","95","","","","24","","9","","","","101.60","","","","","","NA"
"-62.33","44.82","BEAVER ISLAND (AUT)","8200558","2023-01-23 05:00","2023","01","23","05:00","2.9","","2.4","","96","","","","15","","11","","","","101.48","","","","","","NA"
"-62.33","44.82","BEAVER ISLAND (AUT)","8200558","2023-01-23 06:00","2023","01","23","06:00","3.1","","2.8","","98","","","","12","","20","","","","101.39","","","","","","NA"
"-62.33","44.82","BEAVER ISLAND (AUT)","8200558","2023-01-23 07:00","2023","01","23","07:00","4.2","","3.9","","98","","","","15","","29","","","","101.19","","","","","","NA"
"-62.33","44.82","BEAVER ISLAND (AUT)","8200558","2023-01-23 08:00","2023","01","23","08:00","4.3","","4.0","","98","","","","13","","33","","","","100.98","","","","","","NA"
"-62.33","44.82","BEAVER ISLAND (AUT)","8200558","2023-01-23 09:00","2023","01","23","09:00","4.5","","4.2","","98","","","","13","","36","","","","100.75","","","","","","NA"
"-62.33","44.82","BEAVER ISLAND (AUT)","8200558","2023-01-23 10:00","2023","01","23","10:00","5.3","","5.0","","98","","","","15","","45","","","","100.51","","","","","","NA"
"-62.33","44.82","BEAVER ISLAND (AUT)","8200558","2023-01-23 11:00","2023","01","23","11:00","5.8","","5.5","","98","","","","14","","46","","","","100.13","","","","","","NA"
"-62.33","44.82","BEAVER ISLAND (AUT)","8200558","2023-01-23 12:00","2023","01","23","12:00","6.4","","6.2","","99","","","","16","","55","","","","99.75","","","","","","NA"
"-62.33","44.82","BEAVER ISLAND (AUT)","8200558","2023-01-23 13:00","2023","01","23","13:00","6.9","","6.8","","100","","","","16","","68","","","","99.39","","","","","","NA"
"-62.33","44.82","BEAVER ISLAND (AUT)","8200558","2023-01-23 14:00","2023","01","23","14:00","7.2","","7.2","","100","","","","17","","66","","","","99.31","","","","","","NA"
"-62.33","44.82","BEAVER ISLAND (AUT)","8200558","2023-01-23 15:00","2023","01","23","15:00","7.8","","7.7","","100","","","","17","","65","","","","99.15","","","","","","NA"
"-62.33","44.82","BEAVER ISLAND (AUT)","8200558","2023-01-23 16:00","2023","01","23","16:00","7.4","","7.4","","100","","","","17","","46","","","","98.87","","","","","","NA"
"-62.33","44.82","BEAVER ISLAND (AUT)","8200558","2023-01-23 17:00","2023","01","23","17:00","7.0","","7.0","","100","","","","20","","43","","","","98.70","","","","","","NA"
"-62.33","44.82","BEAVER ISLAND (AUT)","8200558","2023-01-23 18:00","2023","01","23","18:00","6.5","","6.5","","100","","","","23","","36","","","","98.59","","","","","","NA"
"-62.33","44.82","BEAVER ISLAND (AUT)","8200558","2023-01-23 19:00","2023","01","23","19:00","5.4","","5.3","","100","","","","22","","30","","","","98.34","","","","","","NA"
"-62.33","44.82","BEAVER ISLAND (AUT)","8200558","2023-01-23 20:00","2023","01","23","20:00","5.2","","5.2","","100","","","","22","","18","","","","98.32","","","","","","NA"
"-62.33","44.82","BEAVER ISLAND (AUT)","8200558","2023-01-23 21:00","2023","01","23","21:00","5.9","","5.9","","100","","","","21","","34","","","","98.48","","","","","","NA"
"-62.33","44.82","BEAVER ISLAND (AUT)","8200558","2023-01-23 22:00","2023","01","23","22:00","6.0","","6.0","","100","","","","21","","39","","","","98.46","","","","","","NA"
"-62.33","44.82","BEAVER ISLAND (AUT)","8200558","2023-01-23 23:00","2023","01","23","23:00","6.0","","6.0","","100","","","","21","","40","","","","98.34","","","","","","NA"
"-62.33","44.82","BEAVER ISLAND (AUT)","8200558","2023-01-24 00:00","2023","01","24","00:00","5.9","","5.9","","100","","","","21","","47","","","","98.25","","","","","","NA"
"-62.33","44.82","BEAVER ISLAND (AUT)","8200558","2023-01-24 01:00","2023","01","24","01:00","5.7","","5.6","","100","","","","21","","48","","","","98.10","","","","","","NA"
"-62.33","44.82","BEAVER ISLAND (AUT)","8200558","2023-01-24 02:00","2023","01","24","02:00","3.1","","3.0","","99","","","","30","","25","","","","97.69","","","","","","NA"
"-62.33","44.82","BEAVER ISLAND (AUT)","8200558","2023-01-24 03:00","2023","01","24","03:00","1.9","","1.4","","97","","","","32","","37","","","","97.66","","","","","","NA"
"-62.33","44.82","BEAVER ISLAND (AUT)","8200558","2023-01-24 04:00","2023","01","24","04:00","0.7","","-0.4","","92","","","","32","","47","","","","97.78","","","","","","NA"
"-62.33","44.82","BEAVER ISLAND (AUT)","8200558","2023-01-24 05:00","2023","01","24","05:00","0.1","","-2.1","","85","","","","31","","48","","","","98.02","","","","","","NA"
"-62.33","44.82","BEAVER ISLAND (AUT)","8200558","2023-01-24 06:00","2023","01","24","06:00","-0.2","","-2.7","","83","","","","31","","52","","","","98.32","","","","-9","","NA"
"-62.33","44.82","BEAVER ISLAND (AUT)","8200558","2023-01-24 07:00","2023","01","24","07:00","-0.7","","-3.0","","85","","","","30","","48","","","","98.60","","","","-9","","NA"
"-62.33","44.82","BEAVER ISLAND (AUT)","8200558","2023-01-24 08:00","2023","01","24","08:00","-1.4","","-3.8","","84","","","","30","","49","","","","99.48","","","","-10","","NA"
"-62.33","44.82","BEAVER ISLAND (AUT)","8200558","2023-01-24 09:00","2023","01","24","09:00","-1.3","","-4.0","","82","","","","30","","41","","","","99.73","","","","-9","","NA"
"-62.33","44.82","BEAVER ISLAND (AUT)","8200558","2023-01-24 10:00","2023","01","24","10:00","-1.1","","-5.0","","75","","","","30","","40","","","","99.94","","","","-9","","NA"
"-62.33","44.82","BEAVER ISLAND (AUT)","8200558","2023-01-24 11:00","2023","01","24","11:00","-0.3","","-4.7","","72","","","","30","","32","","","","100.04","","","","-7","","NA"
"-62.33","44.82","BEAVER ISLAND (AUT)","8200558","2023-01-24 12:00","2023","01","24","12:00","0.0","","-4.8","","70","","","","29","","37","","","","100.06","","","","-7","","NA"
"-62.33","44.82","BEAVER ISLAND (AUT)","8200558","2023-01-24 13:00","2023","01","24","13:00","0.6","","-4.2","","70","","","","28","","35","","","","100.16","","","","","","NA"
"-62.33","44.82","BEAVER ISLAND (AUT)","8200558","2023-01-24 14:00","2023","01","24","14:00","0.8","","-3.9","","71","","","","28","","32","","","","100.22","","","","","","NA"
"-62.33","44.82","BEAVER ISLAND (AUT)","8200558","2023-01-24 15:00","2023","01","24","15:00","0.3","","-4.3","","71","","","","28","","33","","","","100.30","","","","","","NA"
"-62.33","44.82","BEAVER ISLAND (AUT)","8200558","2023-01-24 16:00","2023","01","24","16:00","-0.5","","-4.4","","75","","","","28","","39","","","","100.48","","","","-8","","NA"
"-62.33","44.82","BEAVER ISLAND (AUT)","8200558","2023-01-24 17:00","2023","01","24","17:00","-0.2","","-4.1","","75","","","","27","","31","","","","100.55","","","","-7","","NA"
"-62.33","44.82","BEAVER ISLAND (AUT)","8200558","2023-01-24 18:00","2023","01","24","18:00","0.0","","-4.2","","73","","","","28","","34","","","","100.65","","","","-7","","NA"
"-62.33","44.82","BEAVER ISLAND (AUT)","8200558","2023-01-24 19:00","2023","01","24","19:00","0.2","","-4.1","","73","","","","28","","31","","","","100.73","","","","","","NA"
"-62.33","44.82","BEAVER ISLAND (AUT)","8200558","2023-01-24 20:00","2023","01","24","20:00","0.3","","-3.4","","76","","","","27","","29","","","","100.86","","","","","","NA"
"-62.33","44.82","BEAVER ISLAND (AUT)","8200558","2023-01-24 21:00","2023","01","24","21:00","0.5","","-3.3","","76","","","","27","","31","","","","100.94","","","","","","NA"
"-62.33","44.82","BEAVER ISLAND (AUT)","8200558","2023-01-24 22:00","2023","01","24","22:00","0.4","","-2.7","","80","","","","27","","26","","","","100.99","","","","","","NA"
"-62.33","44.82","BEAVER ISLAND (AUT)","8200558","2023-01-24 23:00","2023","01","24","23:00","0.5","","-2.2","","82","","","","28","","29","","","","101.08","","","","","","NA"
"-62.33","44.82","BEAVER ISLAND (AUT)","8200558","2023-01-25 00:00","2023","01","25","00:00","0.8","","-2.1","","81","","","","27","","25","","","","101.17","","","","","","NA"
"-62.33","44.82","BEAVER ISLAND (AUT)","8200558","2023-01-25 01:00","2023","01","25","01:00","0.6","","-2.3","","81","","","","28","","27","","","","101.24","","","","","","NA"
"-62.33","44.82","BEAVER ISLAND (AUT)","8200558","2023-01-25 02:00","2023","01","25","02:00","0.2","","-2.6","","82","","","","28","","25","","","","101.42","","","","","","NA"
"-62.33","44.82","BEAVER ISLAND (AUT)","8200558","2023-01-25 03:00","2023","01","25","03:00","0.4","","-2.7","","80","","","","28","","26","","","","101.51","","","","","","NA"
"-62.33","44.82","BEAVER ISLAND (AUT)","8200558","2023-01-25 04:00","2023","01","25","04:00","0.3","","-2.9","","79","","","","29","","24","","","","101.56","","","","","","NA"
"-62.33","44.82","BEAVER ISLAND (AUT)","8200558","2023-01-25 05:00","2023","01","25","05:00","0.0","","-2.7","","82","","","","28","","21","","","","101.67","","","","-5","","NA"
"-62.33","44.82","BEAVER ISLAND (AUT)","8200558","2023-01-25 06:00","2023","01","25","06:00","-0.5","","-4.3","","76","","","","30","","29","","","","101.84","","","","-7","","NA"
"-62.33","44.82","BEAVER ISLAND (AUT)","8200558","2023-01-25 07:00","2023","01","25","07:00","-1.3","","-4.4","","80","","","","31","","21","","","","101.95","","","","-7","","NA"
"-62.33","44.82","BEAVER ISLAND (AUT)","8200558","2023-01-25 08:00","2023","01","25","08:00","-2.1","","-4.8","","82","","","","33","","20","","","","102.08","","","","-8","","NA"
"-62.33","44.82","BEAVER ISLAND (AUT)","8200558","2023-01-25 09:00","2023","01","25","09:00","-2.5","","-7.0","","71","","","","32","","20","","","","102.24","","","","-8","","NA"
"-62.33","44.82","BEAVER ISLAND (AUT)","8200558","2023-01-25 10:00","2023","01","25","10:00","-2.3","","-6.5","","73","","","","33","","16","","","","102.28","","","","-7","","NA"
"-62.33","44.82","BEAVER ISLAND (AUT)","8200558","2023-01-25 11:00","2023","01","25","11:00","-2.2","","-8.0","","65","","","","31","","21","","","","102.36","","","","-8","","NA"
"-62.33","44.82","BEAVER ISLAND (AUT)","8200558","2023-01-25 12:00","2023","01","25","12:00","-1.2","","-8.9","","56","","","","29","","13","","","","102.34","","","","-5","","NA"
"-62.33","44.82","BEAVER ISLAND (AUT)","8200558","2023-01-25 13:00","2023","01","25","13:00","-0.9","","-8.8","","55","","","","31","","14","","","","102.30","","","","-5","","NA"
"-62.33","44.82","BEAVER ISLAND (AUT)","8200558","2023-01-25 14:00","2023","01","25","14:00","0.3","","-9.2","","49","","","","29","","10","","","","102.38","","","","","","NA"
"-62.33","44.82","BEAVER ISLAND (AUT)","8200558","2023-01-25 15:00","2023","01","25","15:00","0.0","","-9.5","","49","","","","31","","11","","","","102.47","","","","-4","","NA"
"-62.33","44.82","BEAVER ISLAND (AUT)","8200558","2023-01-25 16:00","2023","01","25","16:00","-0.7","","-9.8","","50","","","","32","","9","","","","102.54","","","","-4","","NA"
"-62.33","44.82","BEAVER ISLAND (AUT)","8200558","2023-01-25 17:00","2023","01","25","17:00","-1.5","","-9.7","","54","","","","35","","9","","","","102.60","","","","-5","","NA"
"-62.33","44.82","BEAVER ISLAND (AUT)","8200558","2023-01-25 18:00","2023","01","25","18:00","-1.8","","-9.5","","56","","","","33","","8","","","","102.64","","","","-5","","NA"
"-62.33","44.82","BEAVER ISLAND (AUT)","8200558","2023-01-25 19:00","2023","01","25","19:00","-2.8","","-7.3","","71","","","","4","","18","","","","102.72","","","","-8","","NA"
"-62.33","44.82","BEAVER ISLAND (AUT)","8200558","2023-01-25 20:00","2023","01","25","20:00","-3.1","","-7.8","","70","","","","4","","14","","","","102.82","","","","-8","","NA"
"-62.33","44.82","BEAVER ISLAND (AUT)","8200558","2023-01-25 21:00","2023","01","25","21:00","-3.9","","-7.1","","78","","","","5","","21","","","","102.79","","","","-10","","NA"
"-62.33","44.82","BEAVER ISLAND (AUT)","8200558","2023-01-25 22:00","2023","01","25","22:00","-3.4","","-6.5","","79","","","","7","","19","","","","102.72","","","","-9","","NA"
"-62.33","44.82","BEAVER ISLAND (AUT)","8200558","2023-01-25 23:00","2023","01","25","23:00","-3.3","","-5.4","","85","","","","7","","24","","","","102.57","","","","-10","","NA"
"-62.33","44.82","BEAVER ISLAND (AUT)","8200558","2023-01-26 00:00","2023","01","26","00:00","-0.9","","-3.4","","83","","","","10","","27","","","","102.49","","","","-7","","NA"
"-62.33","44.82","BEAVER ISLAND (AUT)","8200558","2023-01-26 01:00","2023","01","26","01:00","0.2","","-5.3","","66","","","","13","","23","","","","102.41","","","","","","NA"
"-62.33","44.82","BEAVER ISLAND (AUT)","8200558","2023-01-26 02:00","2023","01","26","02:00","0.9","","-4.2","","69","","","","14","","27","","","","102.47","","","","","","NA"
"-62.33","44.82","BEAVER ISLAND (AUT)","8200558","2023-01-26 03:00","2023","01","26","03:00","1.9","","-1.4","","79","","","","14","","31","","","","102.41","","","","","","NA"
"-62.33","44.82","BEAVER ISLAND (AUT)","8200558","2023-01-26 04:00","2023","01","26","04:00","2.7","","-0.5","","80","","","","14","","37","","","","102.20","","","","","","NA"
"-62.33","44.82","BEAVER ISLAND (AUT)","8200558","2023-01-26 05:00","2023","01","26","05:00","3.4","","1.1","","85","","","","14","","38","","","","102.05","","","","","","NA"
"-62.33","44.82","BEAVER ISLAND (AUT)","8200558","2023-01-26 06:00","2023","01","26","06:00","3.6","","2.1","","90","","","","14","","46","","","","101.89","","","","","","NA"
"-62.33","44.82","BEAVER ISLAND (AUT)","8200558","2023-01-26 07:00","2023","01","26","07:00","4.3","","2.2","","86","","","","13","","52","","","","101.59","","","","","","NA"
"-62.33","44.82","BEAVER ISLAND (AUT)","8200558","2023-01-26 08:00","2023","01","26","08:00","4.9","","2.9","","87","","","","13","","50","","","","101.35","","","","","","NA"
"-62.33","44.82","BEAVER ISLAND (AUT)","8200558","2023-01-26 09:00","2023","01","26","09:00","5.3","","3.8","","90","","","","15","","55","","","","101.24","","","","","","NA"
"-62.33","44.82","BEAVER ISLAND (AUT)","8200558","2023-01-26 10:00","2023","01","26","10:00","5.3","","4.4","","94","","","","14","","57","","","","101.01","","","","","","NA"
"-62.33","44.82","BEAVER ISLAND (AUT)","8200558","2023-01-26 11:00","2023","01","26","11:00","6.2","","5.8","","97","","","","15","","58","","","","100.64","","","","","","NA"
"-62.33","44.82","BEAVER ISLAND (AUT)","8200558","2023-01-26 12:00","2023","01","26","12:00","6.8","","6.5","","98","","","","16","","69","","","","100.53","","","","","","NA"
"-62.33","44.82","BEAVER ISLAND (AUT)","8200558","2023-01-26 13:00","2023","01","26","13:00","7.1","","7.0","","99","","","","16","","77","","","","100.24","","","","","","NA"
"-62.33","44.82","BEAVER ISLAND (AUT)","8200558","2023-01-26 14:00","2023","01","26","14:00","7.7","","7.7","","100","","","","17","","83","","","","99.83","","","","","","NA"
"-62.33","44.82","BEAVER ISLAND (AUT)","8200558","2023-01-26 15:00","2023","01","26","15:00","8.2","","8.2","","100","","","","18","","84","","","","99.48","","","","","","NA"
"-62.33","44.82","BEAVER ISLAND (AUT)","8200558","2023-01-26 16:00","2023","01","26","16:00","9.1","","8.8","","98","","","","18","","83","","","","99.27","","","","","","NA"
"-62.33","44.82","BEAVER ISLAND (AUT)","8200558","2023-01-26 17:00","2023","01","26","17:00","8.9","","8.2","","96","","","","20","","72","","","","99.23","","","","","","NA"
"-62.33","44.82","BEAVER ISLAND (AUT)","8200558","2023-01-26 18:00","2023","01","26","18:00","8.4","","7.6","","95","","","","20","","66","","","","99.16","","","","","","NA"
"-62.33","44.82","BEAVER ISLAND (AUT)","8200558","2023-01-26 19:00","2023","01","26","19:00","7.5","","6.9","","96","","","","22","","57","","","","99.05","","","","","","NA"
"-62.33","44.82","BEAVER ISLAND (AUT)","8200558","2023-01-26 20:00","2023","01","26","20:00","6.6","","5.6","","93","","","","22","","57","","","","99.38","","","","","","NA"
"-62.33","44.82","BEAVER ISLAND (AUT)","8200558","2023-01-26 21:00","2023","01","26","21:00","5.9","","4.8","","92","","","","22","","57","","","","99.46","","","","","","NA"
"-62.33","44.82","BEAVER ISLAND (AUT)","8200558","2023-01-26 22:00","2023","01","26","22:00","5.9","","4.5","","91","","","","22","","59","","","","99.51","","","","","","NA"
"-62.33","44.82","BEAVER ISLAND (AUT)","8200558","2023-01-26 23:00","2023","01","26","23:00","5.6","","4.2","","90","","","","23","","60","","","","99.57","","","","","","NA"
"-62.33","44.82","BEAVER ISLAND (AUT)","8200558","2023-01-27 00:00","2023","01","27","00:00","5.4","","4.1","","91","","","","22","","54","","","","99.64","","","","","","NA"
"-62.33","44.82","BEAVER ISLAND (AUT)","8200558","2023-01-27 01:00","2023","01","27","01:00","5.3","","3.5","","88","","","","23","","53","","","","99.70","","","","","","NA"
"-62.33","44.82","BEAVER ISLAND (AUT)","8200558","2023-01-27 02:00","2023","01","27","02:00","5.1","","3.5","","89","","","","23","","46","","","","99.82","","","","","","NA"
"-62.33","44.82","BEAVER ISLAND (AUT)","8200558","2023-01-27 03:00","2023","01","27","03:00","5.4","","2.5","","82","","","","23","","54","","","","99.85","","","","","","NA"
"-62.33","44.82","BEAVER ISLAND (AUT)","8200558","2023-01-27 04:00","2023","01","27","04:00","5.1","","2.4","","83","","","","23","","47","","","","99.94","","","","","","NA"
"-62.33","44.82","BEAVER ISLAND (AUT)","8200558","2023-01-27 05:00","2023","01","27","05:00","4.4","","1.6","","82","","","","25","","51","","","","100.10","","","","","","NA"
"-62.33","44.82","BEAVER ISLAND (AUT)","8200558","2023-01-27 06:00","2023","01","27","06:00","2.7","","0.8","","88","","","","28","","27","","","","100.30","","","","","","NA"
"-62.33","44.82","BEAVER ISLAND (AUT)","8200558","2023-01-27 07:00","2023","01","27","07:00","","M","","M","85","","","","26","","29","","","","100.42","","","","","","NA"
"-62.33","44.82","BEAVER ISLAND (AUT)","8200558","2023-01-27 08:00","2023","01","27","08:00","","M","","M","82","","","","27","","33","","","","100.57","","","","","","NA"
"-62.33","44.82","BEAVER ISLAND (AUT)","8200558","2023-01-27 09:00","2023","01","27","09:00","","M","","M","72","","","","27","","34","","","","100.73","","","","","","NA"
"-62.33","44.82","BEAVER ISLAND (AUT)","8200558","2023-01-27 10:00","2023","01","27","10:00","","M","","M","72","","","","29","","33","","","","100.88","","","","","","NA"
"-62.33","44.82","BEAVER ISLAND (AUT)","8200558","2023-01-27 11:00","2023","01","27","11:00"
"-62.33","44.82","BEAVER ISLAND (AUT)","8200558","2023-01-27 12:00","2023","01","27","12:00","1.0","","-4.7","","65","","","","29","","30","","","","101.03","","","","","","NA"
"-62.33","44.82","BEAVER ISLAND (AUT)","8200558","2023-01-27 13:00","2023","01","27","13:00","1.1","","-6.4","","57","","","","29","","26","","","","101.04","","","","","","NA"
"-62.33","44.82","BEAVER ISLAND (AUT)","8200558","2023-01-27 14:00","2023","01","27","14:00","1.5","","-5.8","","58","","","","29","","25","","","","101.14","","","","","","NA"
"-62.33","44.82","BEAVER ISLAND (AUT)","8200558","2023-01-27 15:00","2023","01","27","15:00","1.8","","-6.7","","53","","","","28","","23","","","","101.26","","","","","","NA"
"-62.33","44.82","BEAVER ISLAND (AUT)","8200558","2023-01-27 16:00","2023","01","27","16:00","1.5","","-7.5","","51","","","","29","","21","","","","101.40","","","","","","NA"
"-62.33","44.82","BEAVER ISLAND (AUT)","8200558","2023-01-27 17:00","2023","01","27","17:00","0.8","","-7.2","","55","","","","29","","20","","","","101.54","","","","","","NA"
"-62.33","44.82","BEAVER ISLAND (AUT)","8200558","2023-01-27 18:00","2023","01","27","18:00","0.2","","-8.2","","53","","","","30","","21","","","","101.67","","","","","","NA"
"-62.33","44.82","BEAVER ISLAND (AUT)","8200558","2023-01-27 19:00","2023","01","27","19:00","-0.4","","-8.1","","56","","","","29","","21","","","","101.84","","","","-6","","NA"
"-62.33","44.82","BEAVER ISLAND (AUT)","8200558","2023-01-27 20:00","2023","01","27","20:00","-1.0","","-7.8","","60","","","","29","","20","","","","101.93","","","","-7","","NA"
"-62.33","44.82","BEAVER ISLAND (AUT)","8200558","2023-01-27 21:00","2023","01","27","21:00","-1.2","","-7.7","","61","","","","30","","19","","","","102.02","","","","-7","","NA"
"-62.33","44.82","BEAVER ISLAND (AUT)","8200558","2023-01-27 22:00","2023","01","27","22:00","-1.3","","-7.8","","61","","","","30","","19","","","","102.08","","","","-7","","NA"
"-62.33","44.82","BEAVER ISLAND (AUT)","8200558","2023-01-27 23:00","2023","01","27","23:00","-1.4","","-8.1","","60","","","","30","","19","","","","102.16","","","","-7","","NA"
"-62.33","44.82","BEAVER ISLAND (AUT)","8200558","2023-01-28 00:00","2023","01","28","00:00","-1.9","","-7.4","","66","","","","32","","16","","","","102.18","","","","-7","","NA"
"-62.33","44.82","BEAVER ISLAND (AUT)","8200558","2023-01-28 01:00","2023","01","28","01:00","-2.3","","-6.7","","72","","","","36","","19","","","","102.20","","","","-8","","NA"
"-62.33","44.82","BEAVER ISLAND (AUT)","8200558","2023-01-28 02:00","2023","01","28","02:00","-2.7","","-9.0","","62","","","","2","","16","","","","102.25","","","","-8","","NA"
"-62.33","44.82","BEAVER ISLAND (AUT)","8200558","2023-01-28 03:00","2023","01","28","03:00","-2.4","","-8.5","","63","","","","4","","16","","","","102.33","","","","-8","","NA"
"-62.33","44.82","BEAVER ISLAND (AUT)","8200558","2023-01-28 04:00","2023","01","28","04:00","-2.4","","-10.2","","55","","","","6","","14","","","","102.34","","","","-7","","NA"
"-62.33","44.82","BEAVER ISLAND (AUT)","8200558","2023-01-28 05:00","2023","01","28","05:00","-1.9","","-7.3","","67","","","","7","","15","","","","102.36","","","","-7","","NA"
"-62.33","44.82","BEAVER ISLAND (AUT)","8200558","2023-01-28 06:00","2023","01","28","06:00","-1.7","","-6.4","","70","","","","5","","13","","","","102.41","","","","-6","","NA"
"-62.33","44.82","BEAVER ISLAND (AUT)","8200558","2023-01-28 07:00","2023","01","28","07:00","-2.0","","-5.7","","76","","","","5","","20","","","","102.42","","","","-8","","NA"
"-62.33","44.82","BEAVER ISLAND (AUT)","8200558","2023-01-28 08:00","2023","01","28","08:00","-0.5","","-5.9","","67","","","","10","","16","","","","102.42","","","","-5","","NA"
"-62.33","44.82","BEAVER ISLAND (AUT)","8200558","2023-01-28 09:00","2023","01","28","09:00","0.6","","-5.3","","64","","","","11","","21","","","","102.44","","","","","","NA"
"-62.33","44.82","BEAVER ISLAND (AUT)","8200558","2023-01-28 10:00","2023","01","28","10:00","1.5","","-4.1","","66","","","","11","","22","","","","102.44","","","","","","NA"
"-62.33","44.82","BEAVER ISLAND (AUT)","8200558","2023-01-28 11:00","2023","01","28","11:00","1.4","","-3.1","","72","","","","11","","22","","","","102.40","","","","","","NA"
"-62.33","44.82","BEAVER ISLAND (AUT)","8200558","2023-01-28 12:00","2023","01","28","12:00","2.9","","-2.7","","67","","","","12","","21","","","","102.30","","","","","","NA"
"-62.33","44.82","BEAVER ISLAND (AUT)","8200558","2023-01-28 13:00","2023","01","28","13:00","3.3","","-1.6","","70","","","","12","","23","","","","102.18","","","","","","NA"
"-62.33","44.82","BEAVER ISLAND (AUT)","8200558","2023-01-28 14:00","2023","01","28","14:00","3.8","","-0.6","","73","","","","11","","23","","","","102.13","","","","","","NA"
"-62.33","44.82","BEAVER ISLAND (AUT)","8200558","2023-01-28 15:00","2023","01","28","15:00","3.6","","-0.2","","76","","","","9","","17","","","","102.07","","","","","","NA"
"-62.33","44.82","BEAVER ISLAND (AUT)","8200558","2023-01-28 16:00","2023","01","28","16:00","3.3","","-0.3","","77","","","","22","","26","","","","102.08","","","","","","NA"
"-62.33","44.82","BEAVER ISLAND (AUT)","8200558","2023-01-28 17:00","2023","01","28","17:00","3.0","","-1.3","","73","","","","22","","25","","","","102.11","","","","","","NA"
"-62.33","44.82","BEAVER ISLAND (AUT)","8200558","2023-01-28 18:00","2023","01","28","18:00","3.1","","-1.3","","72","","","","21","","25","","","","102.11","","","","","","NA"
"-62.33","44.82","BEAVER ISLAND (AUT)","8200558","2023-01-28 19:00","2023","01","28","19:00","3.3","","-0.3","","77","","","","20","","24","","","","102.10","","","","","","NA"
"-62.33","44.82","BEAVER ISLAND (AUT)","8200558","2023-01-28 20:00","2023","01","28","20:00","3.6","","1.3","","85","","","","20","","26","","","","102.12","","","","","","NA"
"-62.33","44.82","BEAVER ISLAND (AUT)","8200558","2023-01-28 21:00","2023","01","28","21:00","3.8","","1.4","","84","","","","20","","31","","","","102.08","","","","","","NA"
"-62.33","44.82","BEAVER ISLAND (AUT)","8200558","2023-01-28 22:00","2023","01","28","22:00","4.0","","1.8","","86","","","","21","","34","","","","102.09","","","","","","NA"
"-62.33","44.82","BEAVER ISLAND (AUT)","8200558","2023-01-28 23:00","2023","01","28","23:00","4.2","","2.2","","86","","","","22","","40","","","","102.04","","","","","","NA"
"-62.33","44.82","BEAVER ISLAND (AUT)","8200558","2023-01-29 00:00","2023","01","29","00:00","4.3","","2.4","","87","","","","23","","40","","","","102.06","","","","","","NA"
"-62.33","44.82","BEAVER ISLAND (AUT)","8200558","2023-01-29 01:00","2023","01","29","01:00","4.0","","2.6","","90","","","","24","","32","","","","102.11","","","","","","NA"
"-62.33","44.82","BEAVER ISLAND (AUT)","8200558","2023-01-29 02:00","2023","01","29","02:00","3.6","","1.2","","85","","","","25","","24","","","","102.20","","","","","","NA"
"-62.33","44.82","BEAVER ISLAND (AUT)","8200558","2023-01-29 03:00","2023","01","29","03:00","3.1","","1.1","","86","","","","26","","20","","","","102.28","","","","","","NA"
"-62.33","44.82","BEAVER ISLAND (AUT)","8200558","2023-01-29 04:00","2023","01","29","04:00","2.8","","0.8","","87","","","","28","","24","","","","102.40","","","","","","NA"
"-62.33","44.82","BEAVER ISLAND (AUT)","8200558","2023-01-29 05:00","2023","01","29","05:00","1.8","","-0.6","","84","","","","31","","17","","","","102.44","","","","","","NA"
"-62.33","44.82","BEAVER ISLAND (AUT)","8200558","2023-01-29 06:00","2023","01","29","06:00","1.0","","-1.2","","85","","","","29","","12","","","","102.52","","","","","","NA"
"-62.33","44.82","BEAVER ISLAND (AUT)","8200558","2023-01-29 07:00","2023","01","29","07:00","0.8","","-3.0","","76","","","","29","","15","","","","102.65","","","","","","NA"
"-62.33","44.82","BEAVER ISLAND (AUT)","8200558","2023-01-29 08:00","2023","01","29","08:00","0.5","","-4.6","","68","","","","30","","18","","","","102.72","","","","","","NA"
"-62.33","44.82","BEAVER ISLAND (AUT)","8200558","2023-01-29 09:00","2023","01","29","09:00","0.6","","-4.4","","69","","","","32","","21","","","","102.78","","","","","","NA"
"-62.33","44.82","BEAVER ISLAND (AUT)","8200558","2023-01-29 10:00","2023","01","29","10:00","1.2","","-7.0","","54","","","","35","","22","","","","102.84","","","","","","NA"
"-62.33","44.82","BEAVER ISLAND (AUT)","8200558","2023-01-29 11:00","2023","01","29","11:00","1.8","","-7.4","","50","","","","33","","14","","","","102.86","","","","","","NA"
"-62.33","44.82","BEAVER ISLAND (AUT)","8200558","2023-01-29 12:00","2023","01","29","12:00","2.7","","-7.4","","47","","","","33","","8","","","","102.81","","","","","","NA"
"-62.33","44.82","BEAVER ISLAND (AUT)","8200558","2023-01-29 13:00","2023","01","29","13:00","2.8","","-6.3","","51","","","","22","","8","","","","102.74","","","","","","NA"
"-62.33","44.82","BEAVER ISLAND (AUT)","8200558","2023-01-29 14:00","2023","01","29","14:00","2.6","","-5.8","","54","","","","21","","9","","","","102.69","","","","","","NA"
"-62.33","44.82","BEAVER ISLAND (AUT)","8200558","2023-01-29 15:00","2023","01","29","15:00","2.5","","-4.9","","58","","","","17","","13","","","","102.68","","","","","","NA"
"-62.33","44.82","BEAVER ISLAND (AUT)","8200558","2023-01-29 16:00","2023","01","29","16:00","1.9","","-5.2","","59","","","","18","","12","","","","102.70","","","","","","NA"
"-62.33","44.82","BEAVER ISLAND (AUT)","8200558","2023-01-29 17:00","2023","01","29","17:00","1.6","","-4.3","","65","","","","16","","21","","","","102.69","","","","","","NA"
"-62.33","44.82","BEAVER ISLAND (AUT)","8200558","2023-01-29 18:00","2023","01","29","18:00","1.8","","-2.7","","72","","","","15","","23","","","","102.66","","","","","","NA"
"-62.33","44.82","BEAVER ISLAND (AUT)","8200558","2023-01-29 19:00","2023","01","29","19:00","2.3","","-1.2","","77","","","","15","","30","","","","102.62","","","","","","NA"
"-62.33","44.82","BEAVER ISLAND (AUT)","8200558","2023-01-29 20:00","2023","01","29","20:00","2.8","","-0.5","","79","","","","15","","29","","","","102.47","","","","","","NA"
"-62.33","44.82","BEAVER ISLAND (AUT)","8200558","2023-01-29 21:00","2023","01","29","21:00","3.3","","1.3","","87","","","","15","","35","","","","102.31","","","","","","NA"
"-62.33","44.82","BEAVER ISLAND (AUT)","8200558","2023-01-29 22:00","2023","01","29","22:00","3.8","","2.4","","91","","","","15","","35","","","","102.18","","","","","","NA"
"-62.33","44.82","BEAVER ISLAND (AUT)","8200558","2023-01-29 23:00","2023","01","29","23:00","4.3","","3.3","","93","","","","17","","40","","","","101.99","","","","","","NA"
"-62.33","44.82","BEAVER ISLAND (AUT)","8200558","2023-01-30 00:00","2023","01","30","00:00","4.2","","3.5","","95","","","","16","","38","","","","101.85","","","","","","NA"
"-62.33","44.82","BEAVER ISLAND (AUT)","8200558","2023-01-30 01:00","2023","01","30","01:00","4.8","","4.2","","96","","","","18","","47","","","","101.62","","","","","","NA"
"-62.33","44.82","BEAVER ISLAND (AUT)","8200558","2023-01-30 02:00","2023","01","30","02:00","5.3","","4.9","","97","","","","20","","43","","","","101.54","","","","","","NA"
"-62.33","44.82","BEAVER ISLAND (AUT)","8200558","2023-01-30 03:00","2023","01","30","03:00","5.4","","5.0","","97","","","","20","","39","","","","101.50","","","","","","NA"
"-62.33","44.82","BEAVER ISLAND (AUT)","8200558","2023-01-30 04:00","2023","01","30","04:00","5.4","","5.0","","98","","","","21","","37","","","","101.42","","","","","","NA"
"-62.33","44.82","BEAVER ISLAND (AUT)","8200558","2023-01-30 05:00","2023","01","30","05:00","5.6","","5.4","","98","","","","23","","27","","","","101.43","","","","","","NA"
"-62.33","44.82","BEAVER ISLAND (AUT)","8200558","2023-01-30 06:00","2023","01","30","06:00","5.0","","4.9","","99","","","","25","","21","","","","101.44","","","","","","NA"
"-62.33","44.82","BEAVER ISLAND (AUT)","8200558","2023-01-30 07:00","2023","01","30","07:00","4.5","","4.4","","99","","","","23","","15","","","","101.37","","","","","","NA"
"-62.33","44.82","BEAVER ISLAND (AUT)","8200558","2023-01-30 08:00","2023","01","30","08:00","4.2","","4.1","","99","","","","24","","16","","","","101.29","","","","","","NA"
"-62.33","44.82","BEAVER ISLAND (AUT)","8200558","2023-01-30 09:00","2023","01","30","09:00","4.9","","4.6","","98","","","","24","","19","","","","","M","","","","","NA"
"-62.33","44.82","BEAVER ISLAND (AUT)","8200558","2023-01-30 10:00","2023","01","30","10:00","5.8","","5.3","","96","","","","27","","16","","","","","M","","","","","NA"
"-62.33","44.82","BEAVER ISLAND (AUT)","8200558","2023-01-30 11:00","2023","01","30","11:00","7.3","","6.4","","94","","","","26","","7","","","","","M","","","","","NA"
"-62.33","44.82","BEAVER ISLAND (AUT)","8200558","2023-01-30 12:00","2023","01","30","12:00","4.4","","3.3","","92","","","","1","","22","","","","","M","","","","","NA"
"-62.33","44.82","BEAVER ISLAND (AUT)","8200558","2023-01-30 13:00","2023","01","30","13:00","5.3","","3.4","","87","","","","36","","11","","","","","M","","","","","NA"
"-62.33","44.82","BEAVER ISLAND (AUT)","8200558","2023-01-30 14:00","2023","01","30","14:00","4.4","","2.4","","86","","","","2","","18","","","","","M","","","","","NA"
"-62.33","44.82","BEAVER ISLAND (AUT)","8200558","2023-01-30 15:00","2023","01","30","15:00","4.2","","1.9","","85","","","","36","","15","","","","","M","","","","","NA"
"-62.33","44.82","BEAVER ISLAND (AUT)","8200558","2023-01-30 16:00","2023","01","30","16:00","3.2","","1.2","","87","","","","36","","17","","","","","M","","","","","NA"
"-62.33","44.82","BEAVER ISLAND (AUT)","8200558","2023-01-30 17:00","2023","01","30","17:00","3.0","","0.8","","86","","","","2","","19","","","","","M","","","","","NA"
"-62.33","44.82","BEAVER ISLAND (AUT)","8200558","2023-01-30 18:00","2023","01","30","18:00","1.0","","-1.1","","86","","","","4","","24","","","","101.71","","","","","","NA"
"-62.33","44.82","BEAVER ISLAND (AUT)","8200558","2023-01-30 19:00","2023","01","30","19:00","0.8","","-1.1","","87","","","","5","","19","","","","101.68","","","","","","NA"
"-62.33","44.82","BEAVER ISLAND (AUT)","8200558","2023-01-30 20:00","2023","01","30","20:00","0.6","","-1.6","","85","","","","6","","21","","","","101.67","","","","","","NA"
"-62.33","44.82","BEAVER ISLAND (AUT)","8200558","2023-01-30 21:00","2023","01","30","21:00","0.8","","-1.3","","86","","","","6","","20","","","","101.68","","","","","","NA"
"-62.33","44.82","BEAVER ISLAND (AUT)","8200558","2023-01-30 22:00","2023","01","30","22:00","0.9","","-1.2","","86","","","","8","","18","","","","101.67","","","","","","NA"
"-62.33","44.82","BEAVER ISLAND (AUT)","8200558","2023-01-30 23:00","2023","01","30","23:00","1.3","","-0.2","","90","","","","10","","18","","","","101.63","","","","","","NA"
"-62.33","44.82","BEAVER ISLAND (AUT)","8200558","2023-01-31 00:00","2023","01","31","00:00","1.3","","-0.1","","90","","","","9","","14","","","","101.60","","","","","","NA"
"-62.33","44.82","BEAVER ISLAND (AUT)","8200558","2023-01-31 01:00","2023","01","31","01:00","1.2","","0.1","","93","","","","9","","13","","","","101.54","","","","","","NA"
"-62.33","44.82","BEAVER ISLAND (AUT)","8200558","2023-01-31 02:00","2023","01","31","02:00","1.3","","0.4","","94","","","","7","","9","","","","101.46","","","","","","NA"
"-62.33","44.82","BEAVER ISLAND (AUT)","8200558","2023-01-31 03:00","2023","01","31","03:00","0.2","","-0.7","","93","","","","36","","21","","","","101.57","","","","","","NA"
"-62.33","44.82","BEAVER ISLAND (AUT)","8200558","2023-01-31 04:00","2023","01","31","04:00","0.2","","-0.7","","94","","","","3","","20","","","","101.49","","","","","","NA"
"-62.33","44.82","BEAVER ISLAND (AUT)","8200558","2023-01-31 05:00","2023","01","31","05:00","0.0","","-1.2","","92","","","","3","","17","","","","101.47","","","","-5","","NA"
"-62.33","44.82","BEAVER ISLAND (AUT)","8200558","2023-01-31 06:00","2023","01","31","06:00","-0.1","","-1.3","","92","","","","3","","13","","","","101.49","","","","-4","","NA"
"-62.33","44.82","BEAVER ISLAND (AUT)","8200558","2023-01-31 07:00","2023","01","31","07:00","-0.2","","-1.0","","94","","","","4","","15","","","","101.46","","","","-5","","NA"
"-62.33","44.82","BEAVER ISLAND (AUT)","8200558","2023-01-31 08:00","2023","01","31","08:00","-0.3","","-1.2","","94","","","","5","","10","","","","101.49","","","","-4","","NA"
"-62.33","44.82","BEAVER ISLAND (AUT)","8200558","2023-01-31 09:00","2023","01","31","09:00","0.0","","-0.6","","95","","","","6","","18","","","","101.43","","","","-5","","NA"
"-62.33","44.82","BEAVER ISLAND (AUT)","8200558","2023-01-31 10:00","2023","01","31","10:00","0.0","","-0.5","","96","","","","6","","19","","","","101.34","","","","-5","","NA"
"-62.33","44.82","BEAVER ISLAND (AUT)","8200558","2023-01-31 11:00","2023","01","31","11:00","-0.2","","-0.6","","97","","","","3","","15","","","","101.31","","","","-5","","NA"
"-62.33","44.82","BEAVER ISLAND (AUT)","8200558","2023-01-31 12:00","2023","01","31","12:00","-0.7","","-0.9","","98","","","","1","","24","","","","101.23","","","","-7","","NA"
"-62.33","44.82","BEAVER ISLAND (AUT)","8200558","2023-01-31 13:00","2023","01","31","13:00","-1.0","","-1.1","","99","","","","2","","34","","","","101.05","","","","-8","","NA"
"-62.33","44.82","BEAVER ISLAND (AUT)","8200558","2023-01-31 14:00","2023","01","31","14:00","-1.8","","-2.0","","99","","","","1","","36","","","","101.03","","","","-9","","NA"
"-62.33","44.82","BEAVER ISLAND (AUT)","8200558","2023-01-31 15:00","2023","01","31","15:00","-1.8","","-2.0","","99","","","","1","","25","","","","101.04","","","","-8","","NA"
"-62.33","44.82","BEAVER ISLAND (AUT)","8200558","2023-01-31 16:00","2023","01","31","16:00","-1.8","","-2.0","","99","","","","34","","24","","","","101.14","","","","-8","","NA"
"-62.33","44.82","BEAVER ISLAND (AUT)","8200558","2023-01-31 17:00","2023","01","31","17:00","-2.3","","-2.7","","97","","","","32","","27","","","","101.28","","","","-9","","NA"
"-62.33","44.82","BEAVER ISLAND (AUT)","8200558","2023-01-31 18:00","2023","01","31","18:00","-2.8","","-3.8","","93","","","","31","","33","","","","101.35","","","","-10","","NA"
"-62.33","44.82","BEAVER ISLAND (AUT)","8200558","2023-01-31 19:00","2023","01","31","19:00","-3.1","","-4.3","","92","","","","34","","32","","","","101.46","","","","-11","","NA"
"-62.33","44.82","BEAVER ISLAND (AUT)","8200558","2023-01-31 20:00","2023","01","31","20:00","-3.8","","-5.6","","88","","","","33","","32","","","","101.54","","","","-12","","NA"
"-62.33","44.82","BEAVER ISLAND (AUT)","8200558","2023-01-31 21:00","2023","01","31","21:00","-4.8","","-6.9","","85","","","","33","","23","","","","101.62","","","","-12","","NA"
"-62.33","44.82","BEAVER ISLAND (AUT)","8200558","2023-01-31 22:00","2023","01","31","22:00","-5.4","","-7.7","","84","","","","32","","22","","","","101.67","","","","-12","","NA"
"-62.33","44.82","BEAVER ISLAND (AUT)","8200558","2023-01-31 23:00","2023","01","31","23:00","-6.2","","-8.9","","81","","","","31","","32","","","","101.72","","","","-15","","NA"
