"Longitude (x)","Latitude (y)","Station Name","Climate ID","Date/Time (LST)","Year","Month","Day","Time (LST)","Temp (°C)","Temp Flag","Dew Point Temp (°C)","Dew Point Temp Flag","Rel Hum (%)","Rel Hum Flag","Precip. Amount (mm)","Precip. Amount Flag","Wind Dir (10s deg)","Wind Dir Flag","Wind Spd (km/h)","Wind Spd Flag","Visibility (km)","Visibility Flag","Stn Press (kPa)","Stn Press Flag","Hmdx","Hmdx Flag","Wind Chill","Wind Chill Flag","Weather"
"-76.60","44.23","KINGSTON A","6104149","2021-02-01 00:00","2021","02","01","00:00"
"-76.60","44.23","KINGSTON A","6104149","2021-02-01 01:00","2021","02","01","01:00"
"-76.60","44.23","KINGSTON A","6104149","2021-02-01 02:00","2021","02","01","02:00"
"-76.60","44.23","KINGSTON A","6104149","2021-02-01 03:00","2021","02","01","03:00"
"-76.60","44.23","KINGSTON A","6104149","2021-02-01 04:00","2021","02","01","04:00"
"-76.60","44.23","KINGSTON A","6104149","2021-02-01 05:00","2021","02","01","05:00"
"-76.60","44.23","KINGSTON A","6104149","2021-02-01 06:00","2021","02","01","06:00","-16.9","","-20.7","","73","","","","3","","19","","24.1","","101.13","","","","-26","","NA"
"-76.60","44.23","KINGSTON A","6104149","2021-02-01 07:00","2021","02","01","07:00","-17.0","","-20.6","","74","","","","3","","15","","24.1","","101.16","","","","-25","","Mostly Cloudy"
"-76.60","44.23","KINGSTON A","6104149","2021-02-01 08:00","2021","02","01","08:00","-16.8","","-20.5","","73","","","","4","","17","","24.1","","101.18","","","","-26","","NA"
"-76.60","44.23","KINGSTON A","6104149","2021-02-01 09:00","2021","02","01","09:00","-16.2","","-20.3","","71","","","","3","","19","","24.1","","101.17","","","","-25","","NA"
"-76.60","44.23","KINGSTON A","6104149","2021-02-01 10:00","2021","02","01","10:00","-15.1","","-19.8","","67","","","","4","","20","","24.1","","101.11","","","","-24","","Mostly Cloudy"
"-76.60","44.23","KINGSTON A","6104149","2021-02-01 11:00","2021","02","01","11:00","-13.1","","-19.0","","62","","","","1","","21","","24.1","","101.07","","","","-22","","NA"
"-76.60","44.23","KINGSTON A","6104149","2021-02-01 12:00","2021","02","01","12:00","-10.9","","-18.3","","55","","","","3","","16","","24.1","","100.97","","","","-18","","NA"
"-76.60","44.23","KINGSTON A","6104149","2021-02-01 13:00","2021","02","01","13:00","-8.7","","-17.3","","50","","","","3","","18","","24.1","","100.85","","","","-16","","Mostly Cloudy"
"-76.60","44.23","KINGSTON A","6104149","2021-02-01 14:00","2021","02","01","14:00","-7.8","","-17.0","","48","","","","1","","26","","24.1","","100.77","","","","-16","","NA"
"-76.60","44.23","KINGSTON A","6104149","2021-02-01 15:00","2021","02","01","15:00","-6.6","","-16.8","","44","","","","1","","25","","24.1","","100.72","","","","-14","","NA"
"-76.60","44.23","KINGSTON A","6104149","2021-02-01 16:00","2021","02","01","16:00","-6.6","","-16.6","","45","","","","3","","26","","24.1","","100.73","","","","-15","","Blowing Snow"
"-76.60","44.23","KINGSTON A","6104149","2021-02-01 17:00","2021","02","01","17:00","-7.0","","-16.3","","48","","","","2","","23","","24.1","","100.76","","","","-15","","NA"
"-76.60","44.23","KINGSTON A","6104149","2021-02-01 18:00","2021","02","01","18:00","-7.5","","-15.9","","52","","","","2","","22","","24.1","","100.73","","","","-15","","Blowing Snow"
"-76.60","44.23","KINGSTON A","6104149","2021-02-01 19:00","2021","02","01","19:00","-7.7","","-15.5","","54","","","","3","","19","","24.1","","100.73","","","","-15","","Blowing Snow"
"-76.60","44.23","KINGSTON A","6104149","2021-02-01 20:00","2021","02","01","20:00","-7.9","","-15.2","","56","","","","3","","27","","24.1","","100.68","","","","-16","","Blowing Snow"
"-76.60","44.23","KINGSTON A","6104149","2021-02-01 21:00","2021","02","01","21:00","-8.1","","-14.9","","58","","","","2","","23","","24.1","","100.67","","","","-16","","NA"
"-76.60","44.23","KINGSTON A","6104149","2021-02-01 22:00","2021","02","01","22:00","-8.3","","-14.0","","64","","","","3","","24","","24.1","","100.65","","","","-16","","Blowing Snow"
"-76.60","44.23","KINGSTON A","6104149","2021-02-01 23:00","2021","02","01","23:00","-8.2","","-12.8","","70","","","","3","","27","","24.1","","100.59","","","","-17","","Blowing Snow"
"-76.60","44.23","KINGSTON A","6104149","2021-02-02 00:00","2021","02","02","00:00"
"-76.60","44.23","KINGSTON A","6104149","2021-02-02 01:00","2021","02","02","01:00"
"-76.60","44.23","KINGSTON A","6104149","2021-02-02 02:00","2021","02","02","02:00"
"-76.60","44.23","KINGSTON A","6104149","2021-02-02 03:00","2021","02","02","03:00"
"-76.60","44.23","KINGSTON A","6104149","2021-02-02 04:00","2021","02","02","04:00"
"-76.60","44.23","KINGSTON A","6104149","2021-02-02 05:00","2021","02","02","05:00"
"-76.60","44.23","KINGSTON A","6104149","2021-02-02 06:00","2021","02","02","06:00","-6.3","","-9.4","","79","","","","3","","33","","24.1","","100.13","","","","-15","","Blowing Snow"
"-76.60","44.23","KINGSTON A","6104149","2021-02-02 07:00","2021","02","02","07:00","-6.2","","-9.4","","78","","","","2","","26","","24.1","","100.12","","","","-14","","Blowing Snow"
"-76.60","44.23","KINGSTON A","6104149","2021-02-02 08:00","2021","02","02","08:00","-5.7","","-9.2","","76","","","","2","","25","","24.1","","100.07","","","","-13","","Blowing Snow"
"-76.60","44.23","KINGSTON A","6104149","2021-02-02 09:00","2021","02","02","09:00","-5.4","","-8.8","","77","","","","2","","32","","3.2","","99.97","","","","-14","","Snow,Blowing Snow"
"-76.60","44.23","KINGSTON A","6104149","2021-02-02 10:00","2021","02","02","10:00","-5.0","","-8.1","","79","","","","2","","28","","3.2","","99.87","","","","-13","","Snow,Blowing Snow"
"-76.60","44.23","KINGSTON A","6104149","2021-02-02 11:00","2021","02","02","11:00","-5.0","","-7.2","","85","","","","2","","34","","2.4","","99.79","","","","-13","","Snow,Blowing Snow"
"-76.60","44.23","KINGSTON A","6104149","2021-02-02 12:00","2021","02","02","12:00","-4.2","","-6.8","","82","","","","2","","28","","6.4","","99.65","","","","-12","","Snow,Blowing Snow"
"-76.60","44.23","KINGSTON A","6104149","2021-02-02 13:00","2021","02","02","13:00","-3.6","","-6.8","","78","","","","2","","27","","3.2","","99.58","","","","-11","","Snow,Blowing Snow"
"-76.60","44.23","KINGSTON A","6104149","2021-02-02 14:00","2021","02","02","14:00","-3.3","","-5.8","","83","","","","2","","27","","3.2","","99.54","","","","-10","","Snow,Blowing Snow"
"-76.60","44.23","KINGSTON A","6104149","2021-02-02 15:00","2021","02","02","15:00","-2.7","","-5.4","","81","","","","1","","30","","4.8","","99.51","","","","-10","","Snow,Blowing Snow"
"-76.60","44.23","KINGSTON A","6104149","2021-02-02 16:00","2021","02","02","16:00","-2.5","","-4.8","","85","","","","1","","29","","4.8","","99.49","","","","-10","","Snow,Blowing Snow"
"-76.60","44.23","KINGSTON A","6104149","2021-02-02 17:00","2021","02","02","17:00","-2.0","","-4.5","","83","","","","1","","33","","16.1","","99.46","","","","-9","","Snow,Blowing Snow"
"-76.60","44.23","KINGSTON A","6104149","2021-02-02 18:00","2021","02","02","18:00","-1.7","","-4.5","","81","","","","36","","28","","16.1","","99.47","","","","-8","","Snow,Blowing Snow"
"-76.60","44.23","KINGSTON A","6104149","2021-02-02 19:00","2021","02","02","19:00","-1.9","","-4.3","","84","","","","36","","27","","16.1","","99.46","","","","-9","","Snow,Blowing Snow"
"-76.60","44.23","KINGSTON A","6104149","2021-02-02 20:00","2021","02","02","20:00","-0.8","","-6.8","","64","","","","36","","23","","16.1","","99.40","","","","-7","","Snow"
"-76.60","44.23","KINGSTON A","6104149","2021-02-02 21:00","2021","02","02","21:00","0.1","","-8.1","","54","","","","36","","25","","24.1","","99.37","","","","","","Snow"
"-76.60","44.23","KINGSTON A","6104149","2021-02-02 22:00","2021","02","02","22:00","-0.7","","-5.7","","69","","","","36","","29","","16.1","","99.36","","","","-7","","Snow,Blowing Snow"
"-76.60","44.23","KINGSTON A","6104149","2021-02-02 23:00","2021","02","02","23:00","-0.7","","-6.0","","67","","","","36","","26","","16.1","","99.34","","","","-7","","Snow,Blowing Snow"
"-76.60","44.23","KINGSTON A","6104149","2021-02-03 00:00","2021","02","03","00:00"
"-76.60","44.23","KINGSTON A","6104149","2021-02-03 01:00","2021","02","03","01:00"
"-76.60","44.23","KINGSTON A","6104149","2021-02-03 02:00","2021","02","03","02:00"
"-76.60","44.23","KINGSTON A","6104149","2021-02-03 03:00","2021","02","03","03:00"
"-76.60","44.23","KINGSTON A","6104149","2021-02-03 04:00","2021","02","03","04:00"
"-76.60","44.23","KINGSTON A","6104149","2021-02-03 05:00","2021","02","03","05:00"
"-76.60","44.23","KINGSTON A","6104149","2021-02-03 06:00","2021","02","03","06:00","-3.4","","-8.0","","71","","","","34","","23","","16.1","","99.33","","","","-10","","Snow,Blowing Snow"
"-76.60","44.23","KINGSTON A","6104149","2021-02-03 07:00","2021","02","03","07:00","-4.0","","-9.0","","68","","","","34","","34","","24.1","","99.37","","","","-12","","Snow,Blowing Snow"
"-76.60","44.23","KINGSTON A","6104149","2021-02-03 08:00","2021","02","03","08:00","-4.6","","-9.6","","68","","","","35","","31","","24.1","","99.43","","","","-13","","Snow,Blowing Snow"
"-76.60","44.23","KINGSTON A","6104149","2021-02-03 09:00","2021","02","03","09:00","-4.7","","-9.8","","68","","","","35","","31","","24.1","","99.46","","","","-13","","NA"
"-76.60","44.23","KINGSTON A","6104149","2021-02-03 10:00","2021","02","03","10:00","-4.4","","-9.9","","66","","","","35","","29","","24.1","","99.46","","","","-12","","Blowing Snow"
"-76.60","44.23","KINGSTON A","6104149","2021-02-03 11:00","2021","02","03","11:00","-4.0","","-9.9","","64","","","","35","","30","","24.1","","99.46","","","","-12","","Blowing Snow"
"-76.60","44.23","KINGSTON A","6104149","2021-02-03 12:00","2021","02","03","12:00","-2.9","","-9.4","","61","","","","35","","18","","24.1","","99.44","","","","-9","","Blowing Snow"
"-76.60","44.23","KINGSTON A","6104149","2021-02-03 13:00","2021","02","03","13:00","-1.2","","-9.1","","55","","","","34","","17","","24.1","","99.41","","","","-6","","Mostly Cloudy"
"-76.60","44.23","KINGSTON A","6104149","2021-02-03 14:00","2021","02","03","14:00","0.2","","-7.9","","55","","","","35","","20","","24.1","","99.39","","","","","","NA"
"-76.60","44.23","KINGSTON A","6104149","2021-02-03 15:00","2021","02","03","15:00","1.6","","-7.2","","52","","","","34","","26","","24.1","","99.39","","","","","","NA"
"-76.60","44.23","KINGSTON A","6104149","2021-02-03 16:00","2021","02","03","16:00","2.0","","-7.1","","51","","","","35","","31","","24.1","","99.42","","","","","","Mostly Cloudy"
"-76.60","44.23","KINGSTON A","6104149","2021-02-03 17:00","2021","02","03","17:00","1.9","","-9.0","","45","","","","32","","19","","24.1","","99.48","","","","","","NA"
"-76.60","44.23","KINGSTON A","6104149","2021-02-03 18:00","2021","02","03","18:00","0.8","","-11.3","","40","","","","32","","19","","24.1","","99.51","","","","","","NA"
"-76.60","44.23","KINGSTON A","6104149","2021-02-03 19:00","2021","02","03","19:00","0.1","","-13.0","","37","","","","31","","19","","24.1","","99.55","","","","","","Mainly Clear"
"-76.60","44.23","KINGSTON A","6104149","2021-02-03 20:00","2021","02","03","20:00","-1.0","","-13.3","","39","","","","31","","17","","24.1","","99.56","","","","-6","","NA"
"-76.60","44.23","KINGSTON A","6104149","2021-02-03 21:00","2021","02","03","21:00","-1.7","","-12.8","","43","","","","32","","17","","24.1","","99.59","","","","-7","","NA"
"-76.60","44.23","KINGSTON A","6104149","2021-02-03 22:00","2021","02","03","22:00","-2.4","","-12.4","","47","","","","32","","17","","24.1","","99.63","","","","-8","","Mainly Clear"
"-76.60","44.23","KINGSTON A","6104149","2021-02-03 23:00","2021","02","03","23:00","-2.3","","-12.0","","47","","","","32","","19","","24.1","","99.70","","","","-8","","NA"
"-76.60","44.23","KINGSTON A","6104149","2021-02-04 00:00","2021","02","04","00:00"
"-76.60","44.23","KINGSTON A","6104149","2021-02-04 01:00","2021","02","04","01:00"
"-76.60","44.23","KINGSTON A","6104149","2021-02-04 02:00","2021","02","04","02:00"
"-76.60","44.23","KINGSTON A","6104149","2021-02-04 03:00","2021","02","04","03:00"
"-76.60","44.23","KINGSTON A","6104149","2021-02-04 04:00","2021","02","04","04:00"
"-76.60","44.23","KINGSTON A","6104149","2021-02-04 05:00","2021","02","04","05:00"
"-76.60","44.23","KINGSTON A","6104149","2021-02-04 06:00","2021","02","04","06:00","-6.4","","-11.1","","70","","","","30","","13","","24.1","","100.10","","","","-12","","NA"
"-76.60","44.23","KINGSTON A","6104149","2021-02-04 07:00","2021","02","04","07:00","-6.7","","-11.1","","71","","","","32","","9","","24.1","","100.18","","","","-11","","Clear"
"-76.60","44.23","KINGSTON A","6104149","2021-02-04 08:00","2021","02","04","08:00","-6.7","","-10.9","","72","","","","25","","5","","24.1","","100.23","","","","-9","","NA"
"-76.60","44.23","KINGSTON A","6104149","2021-02-04 09:00","2021","02","04","09:00","-5.1","","-10.6","","66","","","","27","","5","","24.1","","100.26","","","","-7","","NA"
"-76.60","44.23","KINGSTON A","6104149","2021-02-04 10:00","2021","02","04","10:00","-4.1","","-9.0","","69","","","","23","","9","","24.1","","100.31","","","","-8","","Clear"
"-76.60","44.23","KINGSTON A","6104149","2021-02-04 11:00","2021","02","04","11:00","-3.0","","-8.6","","65","","","","23","","12","","24.1","","100.31","","","","-7","","NA"
"-76.60","44.23","KINGSTON A","6104149","2021-02-04 12:00","2021","02","04","12:00","-1.9","","-8.1","","63","","","","22","","12","","24.1","","100.25","","","","-6","","NA"
"-76.60","44.23","KINGSTON A","6104149","2021-02-04 13:00","2021","02","04","13:00","-0.2","","-8.1","","55","","","","23","","13","","24.1","","100.19","","","","-4","","Clear"
"-76.60","44.23","KINGSTON A","6104149","2021-02-04 14:00","2021","02","04","14:00","0.2","","-7.8","","55","","","","21","","10","","24.1","","100.12","","","","","","NA"
"-76.60","44.23","KINGSTON A","6104149","2021-02-04 15:00","2021","02","04","15:00","0.2","","-5.9","","64","","","","18","","15","","24.1","","100.09","","","","","","NA"
"-76.60","44.23","KINGSTON A","6104149","2021-02-04 16:00","2021","02","04","16:00","-0.4","","-5.2","","70","","","","19","","17","","24.1","","100.13","","","","-5","","Clear"
"-76.60","44.23","KINGSTON A","6104149","2021-02-04 17:00","2021","02","04","17:00","-0.8","","-4.3","","78","","","","17","","11","","24.1","","100.06","","","","-5","","NA"
"-76.60","44.23","KINGSTON A","6104149","2021-02-04 18:00","2021","02","04","18:00","-1.1","","-3.7","","82","","","","16","","13","","24.1","","100.00","","","","-5","","NA"
"-76.60","44.23","KINGSTON A","6104149","2021-02-04 19:00","2021","02","04","19:00","-2.9","","-4.2","","91","","","","11","","6","","24.1","","99.96","","","","-5","","Mainly Clear"
"-76.60","44.23","KINGSTON A","6104149","2021-02-04 20:00","2021","02","04","20:00","-3.1","","-4.2","","92","","","","10","","9","","24.1","","99.86","","","","-7","","NA"
"-76.60","44.23","KINGSTON A","6104149","2021-02-04 21:00","2021","02","04","21:00","-3.6","","-4.5","","93","","","","13","","8","","24.1","","99.82","","","","-7","","NA"
"-76.60","44.23","KINGSTON A","6104149","2021-02-04 22:00","2021","02","04","22:00","-1.1","","-1.2","","99","","","","15","","13","","24.1","","99.70","","","","-5","","Mostly Cloudy"
"-76.60","44.23","KINGSTON A","6104149","2021-02-04 23:00","2021","02","04","23:00","-3.5","","-3.9","","98","","","","12","","11","","24.1","","99.54","","","","-8","","NA"
"-76.60","44.23","KINGSTON A","6104149","2021-02-05 00:00","2021","02","05","00:00"
"-76.60","44.23","KINGSTON A","6104149","2021-02-05 01:00","2021","02","05","01:00"
"-76.60","44.23","KINGSTON A","6104149","2021-02-05 02:00","2021","02","05","02:00"
"-76.60","44.23","KINGSTON A","6104149","2021-02-05 03:00","2021","02","05","03:00"
"-76.60","44.23","KINGSTON A","6104149","2021-02-05 04:00","2021","02","05","04:00"
"-76.60","44.23","KINGSTON A","6104149","2021-02-05 05:00","2021","02","05","05:00"
"-76.60","44.23","KINGSTON A","6104149","2021-02-05 06:00","2021","02","05","06:00","0.4","","-0.1","","97","","","","16","","37","","1.6","","98.62","","","","","","Snow"
"-76.60","44.23","KINGSTON A","6104149","2021-02-05 07:00","2021","02","05","07:00","0.3","","-0.2","","97","","","","16","","42","","1.0","","98.52","","","","","","Snow"
"-76.60","44.23","KINGSTON A","6104149","2021-02-05 08:00","2021","02","05","08:00","0.4","","0.1","","98","","","","17","","34","","1.2","","98.50","","","","","","Rain,Snow"
"-76.60","44.23","KINGSTON A","6104149","2021-02-05 09:00","2021","02","05","09:00","0.7","","0.3","","97","","","","17","","34","","22.5","","98.50","","","","","","Rain"
"-76.60","44.23","KINGSTON A","6104149","2021-02-05 10:00","2021","02","05","10:00","1.7","","-2.0","","77","","","","23","","33","","16.1","","98.61","","","","","","Rain"
"-76.60","44.23","KINGSTON A","6104149","2021-02-05 11:00","2021","02","05","11:00","2.0","","-2.8","","70","","","","24","","42","","24.1","","98.70","","","","","","NA"
"-76.60","44.23","KINGSTON A","6104149","2021-02-05 12:00","2021","02","05","12:00","0.9","","-3.5","","73","","","","24","","43","","24.1","","98.72","","","","","","NA"
"-76.60","44.23","KINGSTON A","6104149","2021-02-05 13:00","2021","02","05","13:00","0.1","","-3.7","","76","","","","24","","31","","24.1","","98.75","","","","","","Cloudy"
"-76.60","44.23","KINGSTON A","6104149","2021-02-05 14:00","2021","02","05","14:00","-0.4","","-4.7","","73","","","","24","","41","","12.9","","98.84","","","","-8","","Snow"
"-76.60","44.23","KINGSTON A","6104149","2021-02-05 15:00","2021","02","05","15:00","0.0","","-5.5","","66","","","","25","","38","","24.1","","98.88","","","","-7","","NA"
"-76.60","44.23","KINGSTON A","6104149","2021-02-05 16:00","2021","02","05","16:00","-1.1","","-6.1","","69","","","","25","","32","","24.1","","98.99","","","","-8","","Mostly Cloudy"
"-76.60","44.23","KINGSTON A","6104149","2021-02-05 17:00","2021","02","05","17:00","-2.2","","-6.8","","71","","","","26","","31","","24.1","","99.06","","","","-9","","NA"
"-76.60","44.23","KINGSTON A","6104149","2021-02-05 18:00","2021","02","05","18:00","-3.0","","-7.6","","70","","","","27","","38","","24.1","","99.08","","","","-11","","NA"
"-76.60","44.23","KINGSTON A","6104149","2021-02-05 19:00","2021","02","05","19:00","-2.8","","-7.8","","68","","","","26","","37","","24.1","","99.15","","","","-11","","Mainly Clear"
"-76.60","44.23","KINGSTON A","6104149","2021-02-05 20:00","2021","02","05","20:00","-2.6","","-7.7","","68","","","","24","","42","","24.1","","99.23","","","","-11","","NA"
"-76.60","44.23","KINGSTON A","6104149","2021-02-05 21:00","2021","02","05","21:00","-3.5","","-8.2","","70","","","","25","","24","","24.1","","99.32","","","","-10","","Snow Showers"
"-76.60","44.23","KINGSTON A","6104149","2021-02-05 22:00","2021","02","05","22:00","-5.8","","-7.5","","88","","","","26","","24","","4.0","","99.42","","","","-13","","Snow Showers"
"-76.60","44.23","KINGSTON A","6104149","2021-02-05 23:00","2021","02","05","23:00","-6.2","","-8.5","","84","","","","27","","17","","4.8","","99.45","","","","-12","","Snow Showers"
"-76.60","44.23","KINGSTON A","6104149","2021-02-06 00:00","2021","02","06","00:00"
"-76.60","44.23","KINGSTON A","6104149","2021-02-06 01:00","2021","02","06","01:00"
"-76.60","44.23","KINGSTON A","6104149","2021-02-06 02:00","2021","02","06","02:00"
"-76.60","44.23","KINGSTON A","6104149","2021-02-06 03:00","2021","02","06","03:00"
"-76.60","44.23","KINGSTON A","6104149","2021-02-06 04:00","2021","02","06","04:00"
"-76.60","44.23","KINGSTON A","6104149","2021-02-06 05:00","2021","02","06","05:00"
"-76.60","44.23","KINGSTON A","6104149","2021-02-06 06:00","2021","02","06","06:00","-6.6","","-9.6","","80","","","","26","","18","","4.8","","99.65","","","","-13","","Snow"
"-76.60","44.23","KINGSTON A","6104149","2021-02-06 07:00","2021","02","06","07:00","-6.8","","-8.8","","86","","","","25","","19","","4.0","","99.75","","","","-14","","Snow"
"-76.60","44.23","KINGSTON A","6104149","2021-02-06 08:00","2021","02","06","08:00","-6.2","","-11.5","","66","","","","26","","20","","12.9","","99.85","","","","-13","","Snow"
"-76.60","44.23","KINGSTON A","6104149","2021-02-06 09:00","2021","02","06","09:00","-7.2","","-9.3","","86","","","","26","","16","","1.6","","99.94","","","","-14","","Snow"
"-76.60","44.23","KINGSTON A","6104149","2021-02-06 10:00","2021","02","06","10:00","-6.8","","-9.6","","81","","","","26","","27","","1.2","","100.03","","","","-15","","Snow"
"-76.60","44.23","KINGSTON A","6104149","2021-02-06 11:00","2021","02","06","11:00","-5.7","","-10.4","","70","","","","25","","28","","16.1","","100.09","","","","-14","","Snow"
"-76.60","44.23","KINGSTON A","6104149","2021-02-06 12:00","2021","02","06","12:00","-5.3","","-11.8","","61","","","","25","","28","","11.3","","100.17","","","","-13","","Snow"
"-76.60","44.23","KINGSTON A","6104149","2021-02-06 13:00","2021","02","06","13:00","-6.4","","-9.8","","77","","","","25","","34","","2.4","","100.21","","","","-15","","Snow"
"-76.60","44.23","KINGSTON A","6104149","2021-02-06 14:00","2021","02","06","14:00","-6.1","","-10.9","","69","","","","25","","33","","16.1","","100.32","","","","-15","","Snow"
"-76.60","44.23","KINGSTON A","6104149","2021-02-06 15:00","2021","02","06","15:00","-5.5","","-11.2","","65","","","","24","","36","","16.1","","100.42","","","","-14","","Snow Showers,Blowing Snow"
"-76.60","44.23","KINGSTON A","6104149","2021-02-06 16:00","2021","02","06","16:00","-6.5","","-9.1","","82","","","","25","","22","","2.4","","100.53","","","","-14","","Snow Showers,Blowing Snow"
"-76.60","44.23","KINGSTON A","6104149","2021-02-06 17:00","2021","02","06","17:00","-6.2","","-9.8","","76","","","","25","","21","","16.1","","100.61","","","","-13","","Snow Showers,Blowing Snow"
"-76.60","44.23","KINGSTON A","6104149","2021-02-06 18:00","2021","02","06","18:00","-5.9","","-11.0","","68","","","","25","","21","","24.1","","100.68","","","","-13","","Snow Showers"
"-76.60","44.23","KINGSTON A","6104149","2021-02-06 19:00","2021","02","06","19:00","-6.3","","-12.0","","64","","","","26","","13","","24.1","","100.69","","","","-12","","Snow Showers"
"-76.60","44.23","KINGSTON A","6104149","2021-02-06 20:00","2021","02","06","20:00","-6.2","","-13.1","","58","","","","26","","14","","24.1","","100.75","","","","-12","","Snow Showers"
"-76.60","44.23","KINGSTON A","6104149","2021-02-06 21:00","2021","02","06","21:00","-6.9","","-13.7","","59","","","","27","","10","","24.1","","100.81","","","","-12","","NA"
"-76.60","44.23","KINGSTON A","6104149","2021-02-06 22:00","2021","02","06","22:00","-6.3","","-13.5","","57","","","","26","","10","","19.3","","100.84","","","","-11","","Snow"
"-76.60","44.23","KINGSTON A","6104149","2021-02-06 23:00","2021","02","06","23:00","-6.6","","-12.5","","63","","","","27","","6","","12.9","","100.79","","","","-10","","Snow"
"-76.60","44.23","KINGSTON A","6104149","2021-02-07 00:00","2021","02","07","00:00"
"-76.60","44.23","KINGSTON A","6104149","2021-02-07 01:00","2021","02","07","01:00"
"-76.60","44.23","KINGSTON A","6104149","2021-02-07 02:00","2021","02","07","02:00"
"-76.60","44.23","KINGSTON A","6104149","2021-02-07 03:00","2021","02","07","03:00"
"-76.60","44.23","KINGSTON A","6104149","2021-02-07 04:00","2021","02","07","04:00"
"-76.60","44.23","KINGSTON A","6104149","2021-02-07 05:00","2021","02","07","05:00"
"-76.60","44.23","KINGSTON A","6104149","2021-02-07 06:00","2021","02","07","06:00","-5.6","","-8.1","","82","","","","15","","16","","24.1","","100.32","","","","-12","","NA"
"-76.60","44.23","KINGSTON A","6104149","2021-02-07 07:00","2021","02","07","07:00","-2.7","","-7.1","","72","","","","18","","26","","24.1","","100.27","","","","-10","","Cloudy"
"-76.60","44.23","KINGSTON A","6104149","2021-02-07 08:00","2021","02","07","08:00","-2.4","","-7.1","","70","","","","19","","29","","24.1","","100.21","","","","-9","","NA"
"-76.60","44.23","KINGSTON A","6104149","2021-02-07 09:00","2021","02","07","09:00","-1.8","","-8.6","","60","","","","23","","21","","24.1","","100.19","","","","-8","","NA"
"-76.60","44.23","KINGSTON A","6104149","2021-02-07 10:00","2021","02","07","10:00","-3.0","","-6.4","","78","","","","22","","18","","4.8","","100.20","","","","-9","","Snow"
"-76.60","44.23","KINGSTON A","6104149","2021-02-07 11:00","2021","02","07","11:00","-3.2","","-4.4","","92","","","","22","","15","","1.6","","100.18","","","","-8","","Snow"
"-76.60","44.23","KINGSTON A","6104149","2021-02-07 12:00","2021","02","07","12:00","-4.6","","-7.1","","82","","","","26","","18","","2.4","","100.19","","","","-11","","Snow"
"-76.60","44.23","KINGSTON A","6104149","2021-02-07 13:00","2021","02","07","13:00","-5.0","","-8.3","","78","","","","27","","17","","12.9","","100.19","","","","-11","","Snow"
"-76.60","44.23","KINGSTON A","6104149","2021-02-07 14:00","2021","02","07","14:00","-4.3","","-10.5","","62","","","","25","","24","","24.1","","100.18","","","","-11","","NA"
"-76.60","44.23","KINGSTON A","6104149","2021-02-07 15:00","2021","02","07","15:00","-3.8","","-11.8","","54","","","","25","","17","","24.1","","100.18","","","","-10","","NA"
"-76.60","44.23","KINGSTON A","6104149","2021-02-07 16:00","2021","02","07","16:00","-4.3","","-12.7","","52","","","","26","","22","","24.1","","100.23","","","","-11","","Mostly Cloudy"
"-76.60","44.23","KINGSTON A","6104149","2021-02-07 17:00","2021","02","07","17:00","-5.0","","-12.3","","57","","","","27","","16","","24.1","","100.34","","","","-11","","Blowing Snow"
"-76.60","44.23","KINGSTON A","6104149","2021-02-07 18:00","2021","02","07","18:00","-6.5","","-13.5","","58","","","","27","","16","","24.1","","100.45","","","","-13","","Snow,Blowing Snow"
"-76.60","44.23","KINGSTON A","6104149","2021-02-07 19:00","2021","02","07","19:00","-7.7","","-15.8","","52","","","","27","","21","","24.1","","100.58","","","","-15","","Blowing Snow"
"-76.60","44.23","KINGSTON A","6104149","2021-02-07 20:00","2021","02","07","20:00","-8.8","","-16.4","","55","","","","27","","18","","24.1","","100.71","","","","-16","","Blowing Snow"
"-76.60","44.23","KINGSTON A","6104149","2021-02-07 21:00","2021","02","07","21:00","-9.6","","-16.1","","60","","","","27","","26","","24.1","","100.81","","","","-18","","Blowing Snow"
"-76.60","44.23","KINGSTON A","6104149","2021-02-07 22:00","2021","02","07","22:00","-10.4","","-17.3","","57","","","","27","","18","","24.1","","100.92","","","","-18","","Blowing Snow"
"-76.60","44.23","KINGSTON A","6104149","2021-02-07 23:00","2021","02","07","23:00","-11.5","","-17.6","","61","","","","28","","18","","24.1","","101.01","","","","-19","","NA"
"-76.60","44.23","KINGSTON A","6104149","2021-02-08 00:00","2021","02","08","00:00"
"-76.60","44.23","KINGSTON A","6104149","2021-02-08 01:00","2021","02","08","01:00"
"-76.60","44.23","KINGSTON A","6104149","2021-02-08 02:00","2021","02","08","02:00"
"-76.60","44.23","KINGSTON A","6104149","2021-02-08 03:00","2021","02","08","03:00"
"-76.60","44.23","KINGSTON A","6104149","2021-02-08 04:00","2021","02","08","04:00"
"-76.60","44.23","KINGSTON A","6104149","2021-02-08 05:00","2021","02","08","05:00"
"-76.60","44.23","KINGSTON A","6104149","2021-02-08 06:00","2021","02","08","06:00","-15.1","","-18.4","","76","","","","26","","11","","24.1","","101.52","","","","-22","","NA"
"-76.60","44.23","KINGSTON A","6104149","2021-02-08 07:00","2021","02","08","07:00","-15.7","","-18.9","","77","","","","29","","10","","24.1","","101.55","","","","-22","","Mainly Clear"
"-76.60","44.23","KINGSTON A","6104149","2021-02-08 08:00","2021","02","08","08:00","-16.9","","-19.9","","78","","","","32","","12","","24.1","","101.58","","","","-24","","NA"
"-76.60","44.23","KINGSTON A","6104149","2021-02-08 09:00","2021","02","08","09:00","-12.9","","-17.2","","70","","","","29","","7","","24.1","","101.69","","","","-17","","NA"
"-76.60","44.23","KINGSTON A","6104149","2021-02-08 10:00","2021","02","08","10:00","-10.8","","-16.4","","64","","","","27","","7","","24.1","","101.76","","","","-15","","Mostly Cloudy"
"-76.60","44.23","KINGSTON A","6104149","2021-02-08 11:00","2021","02","08","11:00","-9.7","","-15.6","","63","","","","10","","6","","24.1","","101.76","","","","-13","","NA"
"-76.60","44.23","KINGSTON A","6104149","2021-02-08 12:00","2021","02","08","12:00","-8.8","","-13.8","","67","","","","16","","9","","24.1","","101.73","","","","-13","","NA"
"-76.60","44.23","KINGSTON A","6104149","2021-02-08 13:00","2021","02","08","13:00","-7.8","","-13.7","","63","","","","20","","10","","24.1","","101.66","","","","-13","","Mostly Cloudy"
"-76.60","44.23","KINGSTON A","6104149","2021-02-08 14:00","2021","02","08","14:00","-7.3","","-13.9","","60","","","","20","","15","","24.1","","101.64","","","","-13","","NA"
"-76.60","44.23","KINGSTON A","6104149","2021-02-08 15:00","2021","02","08","15:00","-7.9","","-11.4","","76","","","","21","","11","","19.3","","101.64","","","","-13","","Snow Showers"
"-76.60","44.23","KINGSTON A","6104149","2021-02-08 16:00","2021","02","08","16:00","-7.2","","-10.6","","77","","","","21","","10","","24.1","","101.64","","","","-12","","Mainly Clear"
"-76.60","44.23","KINGSTON A","6104149","2021-02-08 17:00","2021","02","08","17:00","-7.0","","-11.3","","72","","","","21","","18","","24.1","","101.62","","","","-14","","NA"
"-76.60","44.23","KINGSTON A","6104149","2021-02-08 18:00","2021","02","08","18:00","-7.2","","-9.3","","84","","","","23","","16","","6.4","","101.66","","","","-14","","Snow"
"-76.60","44.23","KINGSTON A","6104149","2021-02-08 19:00","2021","02","08","19:00","-6.8","","-9.3","","83","","","","26","","12","","19.3","","101.63","","","","-12","","Snow"
"-76.60","44.23","KINGSTON A","6104149","2021-02-08 20:00","2021","02","08","20:00","-7.2","","-9.6","","83","","","","30","","8","","24.1","","101.68","","","","-11","","Snow"
"-76.60","44.23","KINGSTON A","6104149","2021-02-08 21:00","2021","02","08","21:00","-7.6","","-9.7","","85","","","","32","","7","","24.1","","101.65","","","","-11","","Snow"
"-76.60","44.23","KINGSTON A","6104149","2021-02-08 22:00","2021","02","08","22:00","-7.4","","-9.5","","85","","","","36","","3","","24.1","","101.62","","","","-9","","Cloudy"
"-76.60","44.23","KINGSTON A","6104149","2021-02-08 23:00","2021","02","08","23:00","-7.8","","-9.6","","87","","","","35","","8","","24.1","","101.59","","","","-12","","Snow"
"-76.60","44.23","KINGSTON A","6104149","2021-02-09 00:00","2021","02","09","00:00"
"-76.60","44.23","KINGSTON A","6104149","2021-02-09 01:00","2021","02","09","01:00"
"-76.60","44.23","KINGSTON A","6104149","2021-02-09 02:00","2021","02","09","02:00"
"-76.60","44.23","KINGSTON A","6104149","2021-02-09 03:00","2021","02","09","03:00"
"-76.60","44.23","KINGSTON A","6104149","2021-02-09 04:00","2021","02","09","04:00"
"-76.60","44.23","KINGSTON A","6104149","2021-02-09 05:00","2021","02","09","05:00"
"-76.60","44.23","KINGSTON A","6104149","2021-02-09 06:00","2021","02","09","06:00","-8.4","","-10.2","","87","","","","4","","10","","1.6","","101.31","","","","-13","","Snow"
"-76.60","44.23","KINGSTON A","6104149","2021-02-09 07:00","2021","02","09","07:00","-8.7","","-10.3","","88","","","","2","","11","","1.6","","101.31","","","","-14","","Snow"
"-76.60","44.23","KINGSTON A","6104149","2021-02-09 08:00","2021","02","09","08:00","-8.7","","-10.2","","89","","","","2","","9","","1.2","","101.31","","","","-13","","Snow"
"-76.60","44.23","KINGSTON A","6104149","2021-02-09 09:00","2021","02","09","09:00","-8.5","","-10.2","","88","","","","1","","11","","1.6","","101.31","","","","-14","","Snow"
"-76.60","44.23","KINGSTON A","6104149","2021-02-09 10:00","2021","02","09","10:00","-7.7","","-9.7","","85","","","","1","","9","","2.4","","101.30","","","","-12","","Snow"
"-76.60","44.23","KINGSTON A","6104149","2021-02-09 11:00","2021","02","09","11:00","-7.0","","-9.1","","85","","","","35","","9","","4.0","","101.31","","","","-11","","Snow"
"-76.60","44.23","KINGSTON A","6104149","2021-02-09 12:00","2021","02","09","12:00","-5.6","","-9.1","","77","","","","33","","7","","24.1","","101.24","","","","-9","","NA"
"-76.60","44.23","KINGSTON A","6104149","2021-02-09 13:00","2021","02","09","13:00","-4.5","","-9.1","","71","","","","35","","11","","24.1","","101.20","","","","-9","","Mainly Clear"
"-76.60","44.23","KINGSTON A","6104149","2021-02-09 14:00","2021","02","09","14:00","-4.0","","-8.6","","71","","","","21","","9","","24.1","","101.14","","","","-8","","NA"
"-76.60","44.23","KINGSTON A","6104149","2021-02-09 15:00","2021","02","09","15:00","-3.3","","-9.7","","61","","","","23","","14","","24.1","","101.13","","","","-8","","NA"
"-76.60","44.23","KINGSTON A","6104149","2021-02-09 16:00","2021","02","09","16:00","-4.3","","-9.8","","65","","","","23","","12","","24.1","","101.15","","","","-9","","Mainly Clear"
"-76.60","44.23","KINGSTON A","6104149","2021-02-09 17:00","2021","02","09","17:00","-5.3","","-11.4","","63","","","","23","","13","","24.1","","101.16","","","","-10","","NA"
"-76.60","44.23","KINGSTON A","6104149","2021-02-09 18:00","2021","02","09","18:00","-6.6","","-12.1","","66","","","","24","","9","","24.1","","101.19","","","","-11","","NA"
"-76.60","44.23","KINGSTON A","6104149","2021-02-09 19:00","2021","02","09","19:00","-7.2","","-11.9","","69","","","","25","","8","","24.1","","101.23","","","","-11","","Mainly Clear"
"-76.60","44.23","KINGSTON A","6104149","2021-02-09 20:00","2021","02","09","20:00","-6.6","","-12.7","","62","","","","25","","9","","24.1","","101.26","","","","-11","","NA"
"-76.60","44.23","KINGSTON A","6104149","2021-02-09 21:00","2021","02","09","21:00","-6.5","","-13.3","","59","","","","27","","14","","24.1","","101.30","","","","-12","","NA"
"-76.60","44.23","KINGSTON A","6104149","2021-02-09 22:00","2021","02","09","22:00","-7.2","","-13.2","","62","","","","27","","10","","24.1","","101.32","","","","-12","","Mostly Cloudy"
"-76.60","44.23","KINGSTON A","6104149","2021-02-09 23:00","2021","02","09","23:00","-7.1","","-12.9","","64","","","","31","","12","","24.1","","101.32","","","","-12","","NA"
"-76.60","44.23","KINGSTON A","6104149","2021-02-10 00:00","2021","02","10","00:00"
"-76.60","44.23","KINGSTON A","6104149","2021-02-10 01:00","2021","02","10","01:00"
"-76.60","44.23","KINGSTON A","6104149","2021-02-10 02:00","2021","02","10","02:00"
"-76.60","44.23","KINGSTON A","6104149","2021-02-10 03:00","2021","02","10","03:00"
"-76.60","44.23","KINGSTON A","6104149","2021-02-10 04:00","2021","02","10","04:00"
"-76.60","44.23","KINGSTON A","6104149","2021-02-10 05:00","2021","02","10","05:00"
"-76.60","44.23","KINGSTON A","6104149","2021-02-10 06:00","2021","02","10","06:00","-11.8","","-13.3","","88","","","","30","","8","","24.1","","101.58","","","","-17","","NA"
"-76.60","44.23","KINGSTON A","6104149","2021-02-10 07:00","2021","02","10","07:00","-11.2","","-13.1","","86","","","","1","","7","","19.3","","101.63","","","","-15","","Snow"
"-76.60","44.23","KINGSTON A","6104149","2021-02-10 08:00","2021","02","10","08:00","-11.5","","-13.3","","86","","","","35","","4","","24.1","","101.69","","","","-14","","NA"
"-76.60","44.23","KINGSTON A","6104149","2021-02-10 09:00","2021","02","10","09:00","-9.3","","-12.6","","77","","","","32","","3","","24.1","","101.69","","","","-11","","NA"
"-76.60","44.23","KINGSTON A","6104149","2021-02-10 10:00","2021","02","10","10:00","-7.3","","-13.2","","63","","","","36","","1","","24.1","","101.68","","","","-8","","Mainly Clear"
"-76.60","44.23","KINGSTON A","6104149","2021-02-10 11:00","2021","02","10","11:00","-7.2","","-11.8","","70","","","","16","","7","","24.1","","101.70","","","","-11","","NA"
"-76.60","44.23","KINGSTON A","6104149","2021-02-10 12:00","2021","02","10","12:00","-6.7","","-10.6","","74","","","","20","","12","","24.1","","101.65","","","","-12","","NA"
"-76.60","44.23","KINGSTON A","6104149","2021-02-10 13:00","2021","02","10","13:00","-6.2","","-11.6","","65","","","","20","","15","","24.1","","101.57","","","","-12","","Mainly Clear"
"-76.60","44.23","KINGSTON A","6104149","2021-02-10 14:00","2021","02","10","14:00","-5.8","","-12.3","","60","","","","23","","15","","24.1","","101.54","","","","-12","","NA"
"-76.60","44.23","KINGSTON A","6104149","2021-02-10 15:00","2021","02","10","15:00","-5.4","","-14.1","","51","","","","22","","14","","24.1","","101.50","","","","-11","","NA"
"-76.60","44.23","KINGSTON A","6104149","2021-02-10 16:00","2021","02","10","16:00","-5.5","","-14.0","","51","","","","23","","15","","24.1","","101.50","","","","-11","","Mostly Cloudy"
"-76.60","44.23","KINGSTON A","6104149","2021-02-10 17:00","2021","02","10","17:00","-6.1","","-13.7","","55","","","","24","","10","","24.1","","101.47","","","","-11","","NA"
"-76.60","44.23","KINGSTON A","6104149","2021-02-10 18:00","2021","02","10","18:00","-6.2","","-15.0","","50","","","","25","","7","","24.1","","101.47","","","","-10","","NA"
"-76.60","44.23","KINGSTON A","6104149","2021-02-10 19:00","2021","02","10","19:00","-7.0","","-13.3","","61","","","","24","","7","","24.1","","101.49","","","","-11","","Mostly Cloudy"
"-76.60","44.23","KINGSTON A","6104149","2021-02-10 20:00","2021","02","10","20:00","-7.3","","-14.3","","58","","","","26","","7","","24.1","","101.48","","","","-11","","NA"
"-76.60","44.23","KINGSTON A","6104149","2021-02-10 21:00","2021","02","10","21:00","-7.5","","-15.1","","55","","","","24","","7","","24.1","","101.47","","","","-11","","NA"
"-76.60","44.23","KINGSTON A","6104149","2021-02-10 22:00","2021","02","10","22:00","-7.7","","-14.8","","57","","","","24","","8","","24.1","","101.46","","","","-12","","Mostly Cloudy"
"-76.60","44.23","KINGSTON A","6104149","2021-02-10 23:00","2021","02","10","23:00","-8.5","","-14.8","","61","","","","27","","8","","24.1","","101.45","","","","-13","","NA"
"-76.60","44.23","KINGSTON A","6104149","2021-02-11 00:00","2021","02","11","00:00"
"-76.60","44.23","KINGSTON A","6104149","2021-02-11 01:00","2021","02","11","01:00"
"-76.60","44.23","KINGSTON A","6104149","2021-02-11 02:00","2021","02","11","02:00"
"-76.60","44.23","KINGSTON A","6104149","2021-02-11 03:00","2021","02","11","03:00"
"-76.60","44.23","KINGSTON A","6104149","2021-02-11 04:00","2021","02","11","04:00"
"-76.60","44.23","KINGSTON A","6104149","2021-02-11 05:00","2021","02","11","05:00"
"-76.60","44.23","KINGSTON A","6104149","2021-02-11 06:00","2021","02","11","06:00","-9.2","","-13.1","","74","","","","36","","8","","24.1","","101.47","","","","-14","","NA"
"-76.60","44.23","KINGSTON A","6104149","2021-02-11 07:00","2021","02","11","07:00","-8.8","","-14.5","","63","","","","3","","7","","24.1","","101.50","","","","-13","","Snow"
"-76.60","44.23","KINGSTON A","6104149","2021-02-11 08:00","2021","02","11","08:00","-9.1","","-15.0","","62","","","","2","","13","","24.1","","101.58","","","","-15","","Snow"
"-76.60","44.23","KINGSTON A","6104149","2021-02-11 09:00","2021","02","11","09:00","-9.0","","-14.4","","65","","","","2","","11","","24.1","","101.63","","","","-14","","Snow"
"-76.60","44.23","KINGSTON A","6104149","2021-02-11 10:00","2021","02","11","10:00","-8.4","","-14.2","","64","","","","1","","12","","24.1","","101.68","","","","-14","","Mostly Cloudy"
"-76.60","44.23","KINGSTON A","6104149","2021-02-11 11:00","2021","02","11","11:00","-7.7","","-13.9","","61","","","","34","","8","","24.1","","101.72","","","","-12","","NA"
"-76.60","44.23","KINGSTON A","6104149","2021-02-11 12:00","2021","02","11","12:00","-7.1","","-13.4","","61","","","","35","","10","","24.1","","101.72","","","","-12","","NA"
"-76.60","44.23","KINGSTON A","6104149","2021-02-11 13:00","2021","02","11","13:00","-6.7","","-13.8","","57","","","","33","","7","","24.1","","101.68","","","","-10","","Mostly Cloudy"
"-76.60","44.23","KINGSTON A","6104149","2021-02-11 14:00","2021","02","11","14:00","-6.5","","-14.3","","54","","","","36","","14","","24.1","","101.66","","","","-12","","NA"
"-76.60","44.23","KINGSTON A","6104149","2021-02-11 15:00","2021","02","11","15:00","-5.9","","-15.4","","48","","","","32","","17","","24.1","","101.67","","","","-12","","NA"
"-76.60","44.23","KINGSTON A","6104149","2021-02-11 16:00","2021","02","11","16:00","-6.6","","-16.9","","44","","","","36","","6","","24.1","","101.70","","","","-10","","Mainly Clear"
"-76.60","44.23","KINGSTON A","6104149","2021-02-11 17:00","2021","02","11","17:00","-7.9","","-17.8","","45","","","","35","","12","","24.1","","101.74","","","","-13","","NA"
"-76.60","44.23","KINGSTON A","6104149","2021-02-11 18:00","2021","02","11","18:00","-7.7","","-17.7","","45","","","","1","","7","","24.1","","101.79","","","","-11","","NA"
"-76.60","44.23","KINGSTON A","6104149","2021-02-11 19:00","2021","02","11","19:00","-8.9","","-18.5","","46","","","","2","","9","","24.1","","101.82","","","","-14","","Clear"
"-76.60","44.23","KINGSTON A","6104149","2021-02-11 20:00","2021","02","11","20:00","-10.7","","-19.5","","49","","","","3","","11","","24.1","","101.85","","","","-16","","NA"
"-76.60","44.23","KINGSTON A","6104149","2021-02-11 21:00","2021","02","11","21:00","-11.7","","-19.9","","51","","","","2","","11","","24.1","","101.90","","","","-18","","NA"
"-76.60","44.23","KINGSTON A","6104149","2021-02-11 22:00","2021","02","11","22:00","-12.9","","-20.8","","52","","","","2","","14","","24.1","","101.91","","","","-20","","Clear"
"-76.60","44.23","KINGSTON A","6104149","2021-02-11 23:00","2021","02","11","23:00","-13.7","","-22.9","","47","","","","2","","18","","24.1","","101.97","","","","-22","","NA"
"-76.60","44.23","KINGSTON A","6104149","2021-02-12 00:00","2021","02","12","00:00"
"-76.60","44.23","KINGSTON A","6104149","2021-02-12 01:00","2021","02","12","01:00"
"-76.60","44.23","KINGSTON A","6104149","2021-02-12 02:00","2021","02","12","02:00"
"-76.60","44.23","KINGSTON A","6104149","2021-02-12 03:00","2021","02","12","03:00"
"-76.60","44.23","KINGSTON A","6104149","2021-02-12 04:00","2021","02","12","04:00"
"-76.60","44.23","KINGSTON A","6104149","2021-02-12 05:00","2021","02","12","05:00"
"-76.60","44.23","KINGSTON A","6104149","2021-02-12 06:00","2021","02","12","06:00","-18.0","","-25.5","","53","","","","3","","12","","24.1","","102.07","","","","-26","","NA"
"-76.60","44.23","KINGSTON A","6104149","2021-02-12 07:00","2021","02","12","07:00","-18.1","","-25.6","","53","","","","1","","14","","24.1","","102.12","","","","-26","","Mostly Cloudy"
"-76.60","44.23","KINGSTON A","6104149","2021-02-12 08:00","2021","02","12","08:00","-18.0","","-25.3","","53","","","","2","","12","","24.1","","102.13","","","","-26","","NA"
"-76.60","44.23","KINGSTON A","6104149","2021-02-12 09:00","2021","02","12","09:00","-17.6","","-25.2","","52","","","","3","","12","","24.1","","102.16","","","","-25","","NA"
"-76.60","44.23","KINGSTON A","6104149","2021-02-12 10:00","2021","02","12","10:00","-16.7","","-24.8","","50","","","","36","","12","","24.1","","102.07","","","","-24","","Cloudy"
"-76.60","44.23","KINGSTON A","6104149","2021-02-12 11:00","2021","02","12","11:00","-15.7","","-23.8","","51","","","","35","","12","","24.1","","102.04","","","","-23","","NA"
"-76.60","44.23","KINGSTON A","6104149","2021-02-12 12:00","2021","02","12","12:00","-14.4","","-24.0","","45","","","","4","","7","","24.1","","102.00","","","","-19","","NA"
"-76.60","44.23","KINGSTON A","6104149","2021-02-12 13:00","2021","02","12","13:00","-13.4","","-23.4","","44","","","","2","","12","","24.1","","101.93","","","","-20","","Cloudy"
"-76.60","44.23","KINGSTON A","6104149","2021-02-12 14:00","2021","02","12","14:00","-12.6","","-23.4","","41","","","","3","","10","","24.1","","101.86","","","","-18","","NA"
"-76.60","44.23","KINGSTON A","6104149","2021-02-12 15:00","2021","02","12","15:00","-12.4","","-22.5","","43","","","","5","","13","","24.1","","101.80","","","","-19","","NA"
"-76.60","44.23","KINGSTON A","6104149","2021-02-12 16:00","2021","02","12","16:00","-12.4","","-22.8","","42","","","","9","","9","","24.1","","101.86","","","","-18","","Cloudy"
"-76.60","44.23","KINGSTON A","6104149","2021-02-12 17:00","2021","02","12","17:00","-12.1","","-22.3","","43","","","","4","","12","","24.1","","101.78","","","","-18","","NA"
"-76.60","44.23","KINGSTON A","6104149","2021-02-12 18:00","2021","02","12","18:00","-13.3","","-22.8","","45","","","","7","","8","","24.1","","101.84","","","","-18","","NA"
"-76.60","44.23","KINGSTON A","6104149","2021-02-12 19:00","2021","02","12","19:00","-13.7","","-22.8","","47","","","","7","","5","","24.1","","101.88","","","","-17","","Mainly Clear"
"-76.60","44.23","KINGSTON A","6104149","2021-02-12 20:00","2021","02","12","20:00","-14.8","","-23.1","","50","","","","7","","4","","24.1","","101.90","","","","-18","","NA"
"-76.60","44.23","KINGSTON A","6104149","2021-02-12 21:00","2021","02","12","21:00","-15.7","","-21.2","","63","","","","35","","5","","24.1","","101.96","","","","-19","","NA"
"-76.60","44.23","KINGSTON A","6104149","2021-02-12 22:00","2021","02","12","22:00","-16.6","","-21.7","","65","","","","34","","9","","24.1","","102.00","","","","-23","","Mostly Cloudy"
"-76.60","44.23","KINGSTON A","6104149","2021-02-12 23:00","2021","02","12","23:00","-17.1","","-22.6","","63","","","","34","","7","","24.1","","102.01","","","","-22","","NA"
"-76.60","44.23","KINGSTON A","6104149","2021-02-13 00:00","2021","02","13","00:00"
"-76.60","44.23","KINGSTON A","6104149","2021-02-13 01:00","2021","02","13","01:00"
"-76.60","44.23","KINGSTON A","6104149","2021-02-13 02:00","2021","02","13","02:00"
"-76.60","44.23","KINGSTON A","6104149","2021-02-13 03:00","2021","02","13","03:00"
"-76.60","44.23","KINGSTON A","6104149","2021-02-13 04:00","2021","02","13","04:00"
"-76.60","44.23","KINGSTON A","6104149","2021-02-13 05:00","2021","02","13","05:00"
"-76.60","44.23","KINGSTON A","6104149","2021-02-13 06:00","2021","02","13","06:00","-16.9","","-23.5","","57","","","","2","","15","","24.1","","102.04","","","","-25","","NA"
"-76.60","44.23","KINGSTON A","6104149","2021-02-13 07:00","2021","02","13","07:00","-17.3","","-23.5","","59","","","","1","","13","","24.1","","102.09","","","","-25","","Mostly Cloudy"
"-76.60","44.23","KINGSTON A","6104149","2021-02-13 08:00","2021","02","13","08:00","-17.4","","-23.3","","60","","","","1","","11","","24.1","","102.12","","","","-25","","NA"
"-76.60","44.23","KINGSTON A","6104149","2021-02-13 09:00","2021","02","13","09:00","-16.3","","-23.1","","57","","","","4","","11","","24.1","","102.14","","","","-23","","NA"
"-76.60","44.23","KINGSTON A","6104149","2021-02-13 10:00","2021","02","13","10:00","-15.6","","-22.7","","55","","","","3","","10","","24.1","","102.11","","","","-22","","Mostly Cloudy"
"-76.60","44.23","KINGSTON A","6104149","2021-02-13 11:00","2021","02","13","11:00","-15.2","","-22.7","","53","","","","4","","13","","24.1","","102.10","","","","-23","","NA"
"-76.60","44.23","KINGSTON A","6104149","2021-02-13 12:00","2021","02","13","12:00","-13.9","","-21.7","","52","","","","3","","12","","24.1","","102.01","","","","-21","","NA"
"-76.60","44.23","KINGSTON A","6104149","2021-02-13 13:00","2021","02","13","13:00","-13.3","","-21.6","","50","","","","1","","16","","24.1","","101.90","","","","-21","","Cloudy"
"-76.60","44.23","KINGSTON A","6104149","2021-02-13 14:00","2021","02","13","14:00","-12.4","","-21.2","","48","","","","1","","17","","24.1","","101.77","","","","-20","","NA"
"-76.60","44.23","KINGSTON A","6104149","2021-02-13 15:00","2021","02","13","15:00","-12.0","","-21.0","","48","","","","3","","15","","24.1","","101.65","","","","-19","","NA"
"-76.60","44.23","KINGSTON A","6104149","2021-02-13 16:00","2021","02","13","16:00","-12.0","","-20.4","","50","","","","3","","20","","24.1","","101.59","","","","-20","","Cloudy"
"-76.60","44.23","KINGSTON A","6104149","2021-02-13 17:00","2021","02","13","17:00","-12.3","","-20.5","","51","","","","3","","22","","24.1","","101.56","","","","-21","","NA"
"-76.60","44.23","KINGSTON A","6104149","2021-02-13 18:00","2021","02","13","18:00","-12.2","","-19.9","","53","","","","4","","20","","24.1","","101.53","","","","-21","","NA"
"-76.60","44.23","KINGSTON A","6104149","2021-02-13 19:00","2021","02","13","19:00","-12.2","","-18.7","","59","","","","3","","25","","8.1","","101.46","","","","-22","","Snow,Blowing Snow"
"-76.60","44.23","KINGSTON A","6104149","2021-02-13 20:00","2021","02","13","20:00","-12.9","","-16.7","","74","","","","4","","20","","8.1","","101.45","","","","-22","","Snow,Blowing Snow"
"-76.60","44.23","KINGSTON A","6104149","2021-02-13 21:00","2021","02","13","21:00","-13.4","","-16.4","","78","","","","5","","19","","9.7","","101.32","","","","-22","","Snow,Blowing Snow"
"-76.60","44.23","KINGSTON A","6104149","2021-02-13 22:00","2021","02","13","22:00","-13.6","","-16.7","","78","","","","4","","17","","24.1","","101.25","","","","-22","","Snow,Blowing Snow"
"-76.60","44.23","KINGSTON A","6104149","2021-02-13 23:00","2021","02","13","23:00","-13.4","","-16.4","","78","","","","5","","17","","24.1","","101.17","","","","-21","","Snow"
"-76.60","44.23","KINGSTON A","6104149","2021-02-14 00:00","2021","02","14","00:00"
"-76.60","44.23","KINGSTON A","6104149","2021-02-14 01:00","2021","02","14","01:00"
"-76.60","44.23","KINGSTON A","6104149","2021-02-14 02:00","2021","02","14","02:00"
"-76.60","44.23","KINGSTON A","6104149","2021-02-14 03:00","2021","02","14","03:00"
"-76.60","44.23","KINGSTON A","6104149","2021-02-14 04:00","2021","02","14","04:00"
"-76.60","44.23","KINGSTON A","6104149","2021-02-14 05:00","2021","02","14","05:00"
"-76.60","44.23","KINGSTON A","6104149","2021-02-14 06:00","2021","02","14","06:00","-12.5","","-14.3","","86","","","","36","","10","","16.1","","101.21","","","","-18","","Snow"
"-76.60","44.23","KINGSTON A","6104149","2021-02-14 07:00","2021","02","14","07:00","-12.2","","-14.4","","84","","","","35","","10","","19.3","","101.29","","","","-18","","Snow"
"-76.60","44.23","KINGSTON A","6104149","2021-02-14 08:00","2021","02","14","08:00","-12.0","","-14.4","","83","","","","33","","7","","24.1","","101.36","","","","-16","","Snow"
"-76.60","44.23","KINGSTON A","6104149","2021-02-14 09:00","2021","02","14","09:00","-11.4","","-14.1","","81","","","","31","","9","","24.1","","101.45","","","","-17","","NA"
"-76.60","44.23","KINGSTON A","6104149","2021-02-14 10:00","2021","02","14","10:00","-9.7","","-13.5","","74","","","","25","","9","","24.1","","101.47","","","","-15","","Mainly Clear"
"-76.60","44.23","KINGSTON A","6104149","2021-02-14 11:00","2021","02","14","11:00","-9.1","","-12.9","","75","","","","22","","14","","24.1","","101.50","","","","-15","","NA"
"-76.60","44.23","KINGSTON A","6104149","2021-02-14 12:00","2021","02","14","12:00","-6.7","","-12.9","","62","","","","25","","10","","24.1","","101.51","","","","-11","","NA"
"-76.60","44.23","KINGSTON A","6104149","2021-02-14 13:00","2021","02","14","13:00","-6.5","","-12.2","","64","","","","22","","16","","24.1","","101.48","","","","-13","","Mainly Clear"
"-76.60","44.23","KINGSTON A","6104149","2021-02-14 14:00","2021","02","14","14:00","-6.0","","-12.1","","62","","","","22","","16","","24.1","","101.50","","","","-12","","NA"
"-76.60","44.23","KINGSTON A","6104149","2021-02-14 15:00","2021","02","14","15:00","-5.5","","-12.1","","60","","","","21","","14","","24.1","","101.54","","","","-11","","NA"
"-76.60","44.23","KINGSTON A","6104149","2021-02-14 16:00","2021","02","14","16:00","-5.4","","-12.6","","57","","","","21","","11","","24.1","","101.52","","","","-10","","Mainly Clear"
"-76.60","44.23","KINGSTON A","6104149","2021-02-14 17:00","2021","02","14","17:00","-5.7","","-12.7","","58","","","","20","","8","","24.1","","101.53","","","","-9","","NA"
"-76.60","44.23","KINGSTON A","6104149","2021-02-14 18:00","2021","02","14","18:00","-6.0","","-12.1","","62","","","","23","","8","","24.1","","101.60","","","","-10","","NA"
"-76.60","44.23","KINGSTON A","6104149","2021-02-14 19:00","2021","02","14","19:00","-6.1","","-12.0","","64","","","","24","","10","","24.1","","101.62","","","","-11","","Mostly Cloudy"
"-76.60","44.23","KINGSTON A","6104149","2021-02-14 20:00","2021","02","14","20:00","-6.9","","-11.0","","72","","","","24","","8","","24.1","","101.65","","","","-11","","NA"
"-76.60","44.23","KINGSTON A","6104149","2021-02-14 21:00","2021","02","14","21:00","-8.1","","-11.3","","78","","","","27","","5","","24.1","","101.61","","","","-11","","NA"
"-76.60","44.23","KINGSTON A","6104149","2021-02-14 22:00","2021","02","14","22:00","-7.9","","-12.0","","73","","","","32","","4","","24.1","","101.59","","","","-10","","Mostly Cloudy"
"-76.60","44.23","KINGSTON A","6104149","2021-02-14 23:00","2021","02","14","23:00","-9.6","","-12.9","","77","","","","34","","9","","24.1","","101.56","","","","-14","","NA"
"-76.60","44.23","KINGSTON A","6104149","2021-02-15 00:00","2021","02","15","00:00"
"-76.60","44.23","KINGSTON A","6104149","2021-02-15 01:00","2021","02","15","01:00"
"-76.60","44.23","KINGSTON A","6104149","2021-02-15 02:00","2021","02","15","02:00"
"-76.60","44.23","KINGSTON A","6104149","2021-02-15 03:00","2021","02","15","03:00"
"-76.60","44.23","KINGSTON A","6104149","2021-02-15 04:00","2021","02","15","04:00"
"-76.60","44.23","KINGSTON A","6104149","2021-02-15 05:00","2021","02","15","05:00"
"-76.60","44.23","KINGSTON A","6104149","2021-02-15 06:00","2021","02","15","06:00","-8.1","","-10.5","","83","","","","2","","5","","24.1","","101.39","","","","-11","","NA"
"-76.60","44.23","KINGSTON A","6104149","2021-02-15 07:00","2021","02","15","07:00","-7.9","","-10.3","","83","","","","34","","6","","24.1","","101.42","","","","-11","","Cloudy"
"-76.60","44.23","KINGSTON A","6104149","2021-02-15 08:00","2021","02","15","08:00","-7.6","","-10.0","","83","","","","34","","8","","24.1","","101.46","","","","-12","","NA"
"-76.60","44.23","KINGSTON A","6104149","2021-02-15 09:00","2021","02","15","09:00","-6.9","","-9.7","","81","","","","34","","7","","24.1","","101.47","","","","-10","","NA"
"-76.60","44.23","KINGSTON A","6104149","2021-02-15 10:00","2021","02","15","10:00","-5.2","","-9.5","","72","","","","1","","3","","24.1","","101.40","","","","-7","","Cloudy"
"-76.60","44.23","KINGSTON A","6104149","2021-02-15 11:00","2021","02","15","11:00","-4.9","","-10.7","","64","","","","9","","5","","24.1","","101.38","","","","-7","","NA"
"-76.60","44.23","KINGSTON A","6104149","2021-02-15 12:00","2021","02","15","12:00","-5.2","","-8.7","","77","","","","36","","2","","4.8","","101.47","","","","-6","","Snow"
"-76.60","44.23","KINGSTON A","6104149","2021-02-15 13:00","2021","02","15","13:00","-4.6","","-7.7","","79","","","","36","","1","","6.4","","101.29","","","","-5","","Snow"
"-76.60","44.23","KINGSTON A","6104149","2021-02-15 14:00","2021","02","15","14:00","-4.8","","-7.5","","81","","","","16","","10","","24.1","","101.21","","","","-9","","NA"
"-76.60","44.23","KINGSTON A","6104149","2021-02-15 15:00","2021","02","15","15:00","-4.3","","-8.0","","76","","","","16","","10","","24.1","","101.26","","","","-8","","NA"
"-76.60","44.23","KINGSTON A","6104149","2021-02-15 16:00","2021","02","15","16:00","-4.3","","-8.5","","73","","","","13","","8","","24.1","","101.26","","","","-8","","Cloudy"
"-76.60","44.23","KINGSTON A","6104149","2021-02-15 17:00","2021","02","15","17:00","-4.2","","-8.9","","70","","","","13","","9","","24.1","","101.23","","","","-8","","NA"
"-76.60","44.23","KINGSTON A","6104149","2021-02-15 18:00","2021","02","15","18:00","-4.2","","-8.6","","71","","","","13","","8","","24.1","","101.22","","","","-8","","NA"
"-76.60","44.23","KINGSTON A","6104149","2021-02-15 19:00","2021","02","15","19:00","-4.2","","-8.9","","70","","","","9","","8","","24.1","","101.16","","","","-8","","Cloudy"
"-76.60","44.23","KINGSTON A","6104149","2021-02-15 20:00","2021","02","15","20:00","-4.4","","-8.7","","72","","","","6","","10","","24.1","","101.02","","","","-9","","NA"
"-76.60","44.23","KINGSTON A","6104149","2021-02-15 21:00","2021","02","15","21:00","-4.5","","-8.9","","72","","","","5","","12","","24.1","","100.89","","","","-9","","NA"
"-76.60","44.23","KINGSTON A","6104149","2021-02-15 22:00","2021","02","15","22:00","-4.9","","-8.7","","75","","","","5","","13","","9.7","","100.83","","","","-10","","Snow"
"-76.60","44.23","KINGSTON A","6104149","2021-02-15 23:00","2021","02","15","23:00","-5.7","","-8.0","","84","","","","5","","16","","2.4","","100.73","","","","-12","","Snow"
"-76.60","44.23","KINGSTON A","6104149","2021-02-16 00:00","2021","02","16","00:00"
"-76.60","44.23","KINGSTON A","6104149","2021-02-16 01:00","2021","02","16","01:00"
"-76.60","44.23","KINGSTON A","6104149","2021-02-16 02:00","2021","02","16","02:00"
"-76.60","44.23","KINGSTON A","6104149","2021-02-16 03:00","2021","02","16","03:00"
"-76.60","44.23","KINGSTON A","6104149","2021-02-16 04:00","2021","02","16","04:00"
"-76.60","44.23","KINGSTON A","6104149","2021-02-16 05:00","2021","02","16","05:00"
"-76.60","44.23","KINGSTON A","6104149","2021-02-16 06:00","2021","02","16","06:00","-7.5","","-9.1","","89","","","","5","","25","","1.2","","99.41","","","","-16","","Snow,Blowing Snow"
"-76.60","44.23","KINGSTON A","6104149","2021-02-16 07:00","2021","02","16","07:00","-7.6","","-9.3","","87","","","","3","","26","","1.2","","99.26","","","","-16","","Snow,Blowing Snow"
"-76.60","44.23","KINGSTON A","6104149","2021-02-16 08:00","2021","02","16","08:00","-7.5","","-9.5","","86","","","","3","","21","","1.6","","99.20","","","","-15","","Snow,Blowing Snow"
"-76.60","44.23","KINGSTON A","6104149","2021-02-16 09:00","2021","02","16","09:00","-7.4","","-9.2","","87","","","","2","","28","","1.2","","99.08","","","","-16","","Snow,Blowing Snow"
"-76.60","44.23","KINGSTON A","6104149","2021-02-16 10:00","2021","02","16","10:00","-7.1","","-9.2","","85","","","","2","","24","","1.6","","99.07","","","","-15","","Snow,Blowing Snow"
"-76.60","44.23","KINGSTON A","6104149","2021-02-16 11:00","2021","02","16","11:00","-7.9","","-10.5","","81","","","","36","","27","","2.0","","99.06","","","","-16","","Snow,Blowing Snow"
"-76.60","44.23","KINGSTON A","6104149","2021-02-16 12:00","2021","02","16","12:00","-7.9","","-11.6","","75","","","","1","","23","","16.1","","99.11","","","","-16","","NA"
"-76.60","44.23","KINGSTON A","6104149","2021-02-16 13:00","2021","02","16","13:00","-8.5","","-11.8","","77","","","","33","","26","","16.1","","99.19","","","","-17","","Cloudy"
"-76.60","44.23","KINGSTON A","6104149","2021-02-16 14:00","2021","02","16","14:00","-9.1","","-13.4","","71","","","","32","","22","","16.1","","99.34","","","","-17","","NA"
"-76.60","44.23","KINGSTON A","6104149","2021-02-16 15:00","2021","02","16","15:00","-9.3","","-14.2","","68","","","","31","","19","","24.1","","99.45","","","","-17","","NA"
"-76.60","44.23","KINGSTON A","6104149","2021-02-16 16:00","2021","02","16","16:00","-9.3","","-14.2","","68","","","","29","","19","","16.1","","99.65","","","","-17","","Snow"
"-76.60","44.23","KINGSTON A","6104149","2021-02-16 17:00","2021","02","16","17:00","-9.6","","-13.5","","73","","","","30","","17","","6.4","","99.85","","","","-17","","Snow"
"-76.60","44.23","KINGSTON A","6104149","2021-02-16 18:00","2021","02","16","18:00","-10.2","","-14.0","","74","","","","29","","11","","16.1","","100.02","","","","-16","","Snow"
"-76.60","44.23","KINGSTON A","6104149","2021-02-16 19:00","2021","02","16","19:00","-11.1","","-14.3","","78","","","","27","","6","","24.1","","100.16","","","","-15","","Mainly Clear"
"-76.60","44.23","KINGSTON A","6104149","2021-02-16 20:00","2021","02","16","20:00","-11.2","","-13.6","","82","","","","25","","7","","24.1","","100.27","","","","-15","","NA"
"-76.60","44.23","KINGSTON A","6104149","2021-02-16 21:00","2021","02","16","21:00","-11.6","","-13.9","","83","","","","25","","11","","24.1","","100.43","","","","-18","","NA"
"-76.60","44.23","KINGSTON A","6104149","2021-02-16 22:00","2021","02","16","22:00","-12.6","","-14.8","","84","","","","28","","10","","24.1","","100.53","","","","-18","","Mainly Clear"
"-76.60","44.23","KINGSTON A","6104149","2021-02-16 23:00","2021","02","16","23:00","-13.3","","-16.2","","79","","","","29","","9","","24.1","","100.70","","","","-19","","NA"
"-76.60","44.23","KINGSTON A","6104149","2021-02-17 00:00","2021","02","17","00:00"
"-76.60","44.23","KINGSTON A","6104149","2021-02-17 01:00","2021","02","17","01:00"
"-76.60","44.23","KINGSTON A","6104149","2021-02-17 02:00","2021","02","17","02:00"
"-76.60","44.23","KINGSTON A","6104149","2021-02-17 03:00","2021","02","17","03:00"
"-76.60","44.23","KINGSTON A","6104149","2021-02-17 04:00","2021","02","17","04:00"
"-76.60","44.23","KINGSTON A","6104149","2021-02-17 05:00","2021","02","17","05:00"
"-76.60","44.23","KINGSTON A","6104149","2021-02-17 06:00","2021","02","17","06:00","-17.7","","-20.9","","77","","","","29","","12","","24.1","","101.61","","","","-25","","NA"
"-76.60","44.23","KINGSTON A","6104149","2021-02-17 07:00","2021","02","17","07:00","-18.5","","-21.2","","80","","","","27","","10","","24.1","","101.76","","","","-25","","Clear"
"-76.60","44.23","KINGSTON A","6104149","2021-02-17 08:00","2021","02","17","08:00","-17.2","","-20.8","","74","","","","28","","10","","24.1","","101.87","","","","-24","","NA"
"-76.60","44.23","KINGSTON A","6104149","2021-02-17 09:00","2021","02","17","09:00","-15.9","","-21.0","","65","","","","33","","6","","24.1","","101.93","","","","-20","","NA"
"-76.60","44.23","KINGSTON A","6104149","2021-02-17 10:00","2021","02","17","10:00","-12.6","","-19.0","","59","","","","21","","5","","24.1","","101.99","","","","-16","","Mainly Clear"
"-76.60","44.23","KINGSTON A","6104149","2021-02-17 11:00","2021","02","17","11:00","-10.6","","-19.0","","51","","","","15","","5","","24.1","","101.91","","","","-14","","NA"
"-76.60","44.23","KINGSTON A","6104149","2021-02-17 12:00","2021","02","17","12:00","-9.6","","-15.5","","63","","","","16","","11","","24.1","","101.94","","","","-15","","NA"
"-76.60","44.23","KINGSTON A","6104149","2021-02-17 13:00","2021","02","17","13:00","-8.5","","-14.1","","64","","","","13","","8","","24.1","","101.88","","","","-13","","Mostly Cloudy"
"-76.60","44.23","KINGSTON A","6104149","2021-02-17 14:00","2021","02","17","14:00","-6.8","","-13.0","","62","","","","18","","18","","24.1","","101.85","","","","-13","","NA"
"-76.60","44.23","KINGSTON A","6104149","2021-02-17 15:00","2021","02","17","15:00","-6.0","","-12.1","","62","","","","20","","22","","24.1","","101.86","","","","-13","","NA"
"-76.60","44.23","KINGSTON A","6104149","2021-02-17 16:00","2021","02","17","16:00","-5.7","","-11.3","","65","","","","22","","19","","24.1","","101.93","","","","-12","","Mostly Cloudy"
"-76.60","44.23","KINGSTON A","6104149","2021-02-17 17:00","2021","02","17","17:00","-5.6","","-10.4","","70","","","","22","","14","","24.1","","101.90","","","","-11","","NA"
"-76.60","44.23","KINGSTON A","6104149","2021-02-17 18:00","2021","02","17","18:00","-5.8","","-11.1","","66","","","","23","","11","","24.1","","101.91","","","","-11","","NA"
"-76.60","44.23","KINGSTON A","6104149","2021-02-17 19:00","2021","02","17","19:00","-5.8","","-11.3","","65","","","","25","","6","","24.1","","101.91","","","","-9","","Cloudy"
"-76.60","44.23","KINGSTON A","6104149","2021-02-17 20:00","2021","02","17","20:00","-6.4","","-10.6","","72","","","","23","","7","","24.1","","101.98","","","","-10","","NA"
"-76.60","44.23","KINGSTON A","6104149","2021-02-17 21:00","2021","02","17","21:00","-7.1","","-11.0","","74","","","","24","","7","","24.1","","102.01","","","","-11","","NA"
"-76.60","44.23","KINGSTON A","6104149","2021-02-17 22:00","2021","02","17","22:00","-6.8","","-11.0","","72","","","","25","","8","","24.1","","102.04","","","","-11","","Cloudy"
"-76.60","44.23","KINGSTON A","6104149","2021-02-17 23:00","2021","02","17","23:00","-7.0","","-11.2","","72","","","","26","","5","","24.1","","102.06","","","","-10","","NA"
"-76.60","44.23","KINGSTON A","6104149","2021-02-18 00:00","2021","02","18","00:00"
"-76.60","44.23","KINGSTON A","6104149","2021-02-18 01:00","2021","02","18","01:00"
"-76.60","44.23","KINGSTON A","6104149","2021-02-18 02:00","2021","02","18","02:00"
"-76.60","44.23","KINGSTON A","6104149","2021-02-18 03:00","2021","02","18","03:00"
"-76.60","44.23","KINGSTON A","6104149","2021-02-18 04:00","2021","02","18","04:00"
"-76.60","44.23","KINGSTON A","6104149","2021-02-18 05:00","2021","02","18","05:00"
"-76.60","44.23","KINGSTON A","6104149","2021-02-18 06:00","2021","02","18","06:00","-13.1","","-15.0","","86","","","","35","","8","","24.1","","102.12","","","","-18","","NA"
"-76.60","44.23","KINGSTON A","6104149","2021-02-18 07:00","2021","02","18","07:00","-13.1","","-15.3","","84","","","","36","","9","","24.1","","102.09","","","","-19","","Mostly Cloudy"
"-76.60","44.23","KINGSTON A","6104149","2021-02-18 08:00","2021","02","18","08:00","-11.8","","-14.6","","80","","","","2","","5","","24.1","","102.12","","","","-15","","NA"
"-76.60","44.23","KINGSTON A","6104149","2021-02-18 09:00","2021","02","18","09:00","-7.8","","-12.2","","71","","","","2","","9","","24.1","","102.08","","","","-12","","NA"
"-76.60","44.23","KINGSTON A","6104149","2021-02-18 10:00","2021","02","18","10:00","-6.2","","-11.4","","67","","","","6","","12","","24.1","","101.97","","","","-11","","Cloudy"
"-76.60","44.23","KINGSTON A","6104149","2021-02-18 11:00","2021","02","18","11:00","-5.6","","-11.8","","62","","","","7","","11","","24.1","","101.95","","","","-10","","NA"
"-76.60","44.23","KINGSTON A","6104149","2021-02-18 12:00","2021","02","18","12:00","-4.8","","-12.1","","57","","","","8","","10","","24.1","","101.88","","","","-9","","NA"
"-76.60","44.23","KINGSTON A","6104149","2021-02-18 13:00","2021","02","18","13:00","-4.5","","-12.4","","55","","","","5","","12","","24.1","","101.84","","","","-9","","Cloudy"
"-76.60","44.23","KINGSTON A","6104149","2021-02-18 14:00","2021","02","18","14:00","-4.4","","-13.0","","51","","","","6","","12","","24.1","","101.87","","","","-9","","NA"
"-76.60","44.23","KINGSTON A","6104149","2021-02-18 15:00","2021","02","18","15:00","-4.2","","-12.4","","53","","","","7","","14","","24.1","","101.81","","","","-9","","NA"
"-76.60","44.23","KINGSTON A","6104149","2021-02-18 16:00","2021","02","18","16:00","-4.1","","-12.3","","53","","","","4","","15","","24.1","","101.76","","","","-9","","Cloudy"
"-76.60","44.23","KINGSTON A","6104149","2021-02-18 17:00","2021","02","18","17:00","-4.5","","-12.4","","54","","","","6","","14","","24.1","","101.74","","","","-10","","NA"
"-76.60","44.23","KINGSTON A","6104149","2021-02-18 18:00","2021","02","18","18:00","-4.7","","-12.0","","57","","","","5","","12","","24.1","","101.72","","","","-9","","NA"
"-76.60","44.23","KINGSTON A","6104149","2021-02-18 19:00","2021","02","18","19:00","-4.8","","-12.3","","56","","","","6","","12","","24.1","","101.70","","","","-10","","Snow"
"-76.60","44.23","KINGSTON A","6104149","2021-02-18 20:00","2021","02","18","20:00","-5.0","","-12.3","","57","","","","4","","14","","24.1","","101.65","","","","-10","","Snow"
"-76.60","44.23","KINGSTON A","6104149","2021-02-18 21:00","2021","02","18","21:00","-5.5","","-12.1","","60","","","","5","","13","","24.1","","101.61","","","","-11","","Snow"
"-76.60","44.23","KINGSTON A","6104149","2021-02-18 22:00","2021","02","18","22:00","-5.8","","-12.1","","61","","","","5","","14","","24.1","","101.56","","","","-11","","Snow"
"-76.60","44.23","KINGSTON A","6104149","2021-02-18 23:00","2021","02","18","23:00","-6.1","","-11.6","","65","","","","5","","18","","24.1","","101.50","","","","-13","","Snow"
"-76.60","44.23","KINGSTON A","6104149","2021-02-19 00:00","2021","02","19","00:00"
"-76.60","44.23","KINGSTON A","6104149","2021-02-19 01:00","2021","02","19","01:00"
"-76.60","44.23","KINGSTON A","6104149","2021-02-19 02:00","2021","02","19","02:00"
"-76.60","44.23","KINGSTON A","6104149","2021-02-19 03:00","2021","02","19","03:00"
"-76.60","44.23","KINGSTON A","6104149","2021-02-19 04:00","2021","02","19","04:00"
"-76.60","44.23","KINGSTON A","6104149","2021-02-19 05:00","2021","02","19","05:00"
"-76.60","44.23","KINGSTON A","6104149","2021-02-19 06:00","2021","02","19","06:00","-7.5","","-9.5","","85","","","","4","","11","","12.9","","101.19","","","","-13","","Snow"
"-76.60","44.23","KINGSTON A","6104149","2021-02-19 07:00","2021","02","19","07:00","-7.5","","-9.5","","86","","","","4","","17","","19.3","","101.11","","","","-14","","Snow"
"-76.60","44.23","KINGSTON A","6104149","2021-02-19 08:00","2021","02","19","08:00","-7.5","","-9.6","","85","","","","3","","13","","9.7","","101.15","","","","-13","","Snow"
"-76.60","44.23","KINGSTON A","6104149","2021-02-19 09:00","2021","02","19","09:00","-7.3","","-9.5","","84","","","","4","","13","","8.1","","101.08","","","","-13","","Snow"
"-76.60","44.23","KINGSTON A","6104149","2021-02-19 10:00","2021","02","19","10:00","-6.8","","-9.3","","82","","","","3","","14","","8.1","","101.05","","","","-13","","Snow"
"-76.60","44.23","KINGSTON A","6104149","2021-02-19 11:00","2021","02","19","11:00","-6.0","","-8.7","","81","","","","3","","12","","9.7","","100.99","","","","-11","","Snow"
"-76.60","44.23","KINGSTON A","6104149","2021-02-19 12:00","2021","02","19","12:00","-5.4","","-8.5","","79","","","","5","","11","","12.9","","100.94","","","","-10","","Snow"
"-76.60","44.23","KINGSTON A","6104149","2021-02-19 13:00","2021","02","19","13:00","-5.2","","-8.1","","80","","","","1","","9","","9.7","","100.87","","","","-9","","Snow"
"-76.60","44.23","KINGSTON A","6104149","2021-02-19 14:00","2021","02","19","14:00","-5.1","","-7.8","","81","","","","3","","11","","4.8","","100.81","","","","-10","","Snow"
"-76.60","44.23","KINGSTON A","6104149","2021-02-19 15:00","2021","02","19","15:00","-5.0","","-7.6","","82","","","","2","","12","","4.8","","100.81","","","","-10","","Snow"
"-76.60","44.23","KINGSTON A","6104149","2021-02-19 16:00","2021","02","19","16:00","-5.0","","-7.5","","83","","","","1","","12","","4.8","","100.83","","","","-10","","Snow"
"-76.60","44.23","KINGSTON A","6104149","2021-02-19 17:00","2021","02","19","17:00","-5.4","","-7.6","","84","","","","36","","10","","6.4","","100.82","","","","-10","","Snow"
"-76.60","44.23","KINGSTON A","6104149","2021-02-19 18:00","2021","02","19","18:00","-6.2","","-7.8","","89","","","","33","","5","","8.1","","100.86","","","","-9","","Snow"
"-76.60","44.23","KINGSTON A","6104149","2021-02-19 19:00","2021","02","19","19:00","-7.0","","-8.3","","90","","","","31","","7","","12.9","","100.93","","","","-11","","Snow"
"-76.60","44.23","KINGSTON A","6104149","2021-02-19 20:00","2021","02","19","20:00","-8.5","","-9.5","","93","","","","5","","8","","24.1","","100.86","","","","-13","","NA"
"-76.60","44.23","KINGSTON A","6104149","2021-02-19 21:00","2021","02","19","21:00","-10.4","","-11.6","","91","","","","31","","6","","24.1","","100.90","","","","-14","","NA"
"-76.60","44.23","KINGSTON A","6104149","2021-02-19 22:00","2021","02","19","22:00","-10.0","","-11.2","","91","","","","36","","2","","8.1","","100.93","","","","-11","","Snow"
"-76.60","44.23","KINGSTON A","6104149","2021-02-19 23:00","2021","02","19","23:00","-8.9","","-10.0","","92","","","","36","","2","","6.4","","100.90","","","","-10","","Snow"
"-76.60","44.23","KINGSTON A","6104149","2021-02-20 00:00","2021","02","20","00:00"
"-76.60","44.23","KINGSTON A","6104149","2021-02-20 01:00","2021","02","20","01:00"
"-76.60","44.23","KINGSTON A","6104149","2021-02-20 02:00","2021","02","20","02:00"
"-76.60","44.23","KINGSTON A","6104149","2021-02-20 03:00","2021","02","20","03:00"
"-76.60","44.23","KINGSTON A","6104149","2021-02-20 04:00","2021","02","20","04:00"
"-76.60","44.23","KINGSTON A","6104149","2021-02-20 05:00","2021","02","20","05:00"
"-76.60","44.23","KINGSTON A","6104149","2021-02-20 06:00","2021","02","20","06:00","-11.9","","-13.4","","89","","","","31","","9","","24.1","","100.86","","","","-17","","NA"
"-76.60","44.23","KINGSTON A","6104149","2021-02-20 07:00","2021","02","20","07:00","-12.9","","-14.4","","88","","","","34","","9","","12.9","","100.86","","","","-18","","Mainly Clear"
"-76.60","44.23","KINGSTON A","6104149","2021-02-20 08:00","2021","02","20","08:00","-12.1","","-13.6","","89","","","","32","","5","","12.9","","100.92","","","","-15","","NA"
"-76.60","44.23","KINGSTON A","6104149","2021-02-20 09:00","2021","02","20","09:00","-13.4","","-15.0","","88","","","","31","","4","","16.1","","100.95","","","","-16","","NA"
"-76.60","44.23","KINGSTON A","6104149","2021-02-20 10:00","2021","02","20","10:00","-9.7","","-10.9","","91","","","","36","","2","","24.1","","100.96","","","","-11","","Mainly Clear"
"-76.60","44.23","KINGSTON A","6104149","2021-02-20 11:00","2021","02","20","11:00","-6.5","","-7.7","","91","","","","36","","7","","24.1","","100.97","","","","-10","","NA"
"-76.60","44.23","KINGSTON A","6104149","2021-02-20 12:00","2021","02","20","12:00","-4.3","","-11.2","","59","","","","33","","14","","24.1","","100.98","","","","-9","","NA"
"-76.60","44.23","KINGSTON A","6104149","2021-02-20 13:00","2021","02","20","13:00","-3.0","","-10.8","","55","","","","29","","15","","19.3","","100.96","","","","-8","","Mostly Cloudy"
"-76.60","44.23","KINGSTON A","6104149","2021-02-20 14:00","2021","02","20","14:00","-3.0","","-10.6","","56","","","","33","","17","","24.1","","100.96","","","","-9","","Snow Showers"
"-76.60","44.23","KINGSTON A","6104149","2021-02-20 15:00","2021","02","20","15:00","-3.3","","-11.1","","55","","","","30","","17","","24.1","","101.00","","","","-9","","NA"
"-76.60","44.23","KINGSTON A","6104149","2021-02-20 16:00","2021","02","20","16:00","-3.4","","-10.4","","59","","","","33","","11","","24.1","","101.07","","","","-8","","Snow Showers"
"-76.60","44.23","KINGSTON A","6104149","2021-02-20 17:00","2021","02","20","17:00","-3.4","","-10.0","","61","","","","29","","15","","24.1","","101.12","","","","-9","","NA"
"-76.60","44.23","KINGSTON A","6104149","2021-02-20 18:00","2021","02","20","18:00","-4.3","","-10.9","","60","","","","30","","9","","24.1","","101.21","","","","-8","","NA"
"-76.60","44.23","KINGSTON A","6104149","2021-02-20 19:00","2021","02","20","19:00","-5.2","","-10.4","","67","","","","28","","8","","24.1","","101.32","","","","-9","","Mainly Clear"
"-76.60","44.23","KINGSTON A","6104149","2021-02-20 20:00","2021","02","20","20:00","-6.7","","-10.9","","72","","","","30","","8","","24.1","","101.39","","","","-11","","NA"
"-76.60","44.23","KINGSTON A","6104149","2021-02-20 21:00","2021","02","20","21:00","-7.6","","-11.8","","72","","","","31","","9","","24.1","","101.45","","","","-12","","NA"
"-76.60","44.23","KINGSTON A","6104149","2021-02-20 22:00","2021","02","20","22:00","-9.3","","-12.6","","77","","","","32","","9","","24.1","","101.54","","","","-14","","Mainly Clear"
"-76.60","44.23","KINGSTON A","6104149","2021-02-20 23:00","2021","02","20","23:00","-9.5","","-12.7","","78","","","","33","","9","","24.1","","101.61","","","","-14","","NA"
"-76.60","44.23","KINGSTON A","6104149","2021-02-21 00:00","2021","02","21","00:00"
"-76.60","44.23","KINGSTON A","6104149","2021-02-21 01:00","2021","02","21","01:00"
"-76.60","44.23","KINGSTON A","6104149","2021-02-21 02:00","2021","02","21","02:00"
"-76.60","44.23","KINGSTON A","6104149","2021-02-21 03:00","2021","02","21","03:00"
"-76.60","44.23","KINGSTON A","6104149","2021-02-21 04:00","2021","02","21","04:00"
"-76.60","44.23","KINGSTON A","6104149","2021-02-21 05:00","2021","02","21","05:00"
"-76.60","44.23","KINGSTON A","6104149","2021-02-21 06:00","2021","02","21","06:00","-14.2","","-16.0","","86","","","","32","","11","","24.1","","102.11","","","","-21","","NA"
"-76.60","44.23","KINGSTON A","6104149","2021-02-21 07:00","2021","02","21","07:00","-14.7","","-15.9","","91","","","","34","","3","","24.1","","102.16","","","","-17","","Mainly Clear"
"-76.60","44.23","KINGSTON A","6104149","2021-02-21 08:00","2021","02","21","08:00","-14.0","","-15.6","","88","","","","33","","7","","24.1","","102.21","","","","-19","","NA"
"-76.60","44.23","KINGSTON A","6104149","2021-02-21 09:00","2021","02","21","09:00","-11.9","","-14.2","","83","","","","34","","3","","24.1","","102.28","","","","-14","","NA"
"-76.60","44.23","KINGSTON A","6104149","2021-02-21 10:00","2021","02","21","10:00","-9.8","","-12.7","","79","","","","17","","5","","24.1","","102.28","","","","-13","","Mostly Cloudy"
"-76.60","44.23","KINGSTON A","6104149","2021-02-21 11:00","2021","02","21","11:00","-6.6","","-9.5","","80","","","","17","","7","","24.1","","102.28","","","","-10","","NA"
"-76.60","44.23","KINGSTON A","6104149","2021-02-21 12:00","2021","02","21","12:00","-4.8","","-7.8","","80","","","","18","","10","","24.1","","102.26","","","","-9","","NA"
"-76.60","44.23","KINGSTON A","6104149","2021-02-21 13:00","2021","02","21","13:00","-3.5","","-7.3","","75","","","","19","","16","","22.5","","102.22","","","","-9","","Mostly Cloudy"
"-76.60","44.23","KINGSTON A","6104149","2021-02-21 14:00","2021","02","21","14:00","-2.4","","-8.0","","66","","","","19","","17","","24.1","","102.14","","","","-8","","NA"
"-76.60","44.23","KINGSTON A","6104149","2021-02-21 15:00","2021","02","21","15:00","-2.1","","-7.3","","67","","","","19","","18","","24.1","","102.04","","","","-8","","NA"
"-76.60","44.23","KINGSTON A","6104149","2021-02-21 16:00","2021","02","21","16:00","-2.2","","-4.7","","83","","","","19","","19","","24.1","","101.99","","","","-8","","Mostly Cloudy"
"-76.60","44.23","KINGSTON A","6104149","2021-02-21 17:00","2021","02","21","17:00","-2.5","","-5.1","","82","","","","20","","18","","24.1","","101.97","","","","-8","","NA"
"-76.60","44.23","KINGSTON A","6104149","2021-02-21 18:00","2021","02","21","18:00","-4.1","","-7.8","","75","","","","21","","9","","24.1","","101.94","","","","-8","","NA"
"-76.60","44.23","KINGSTON A","6104149","2021-02-21 19:00","2021","02","21","19:00","-7.0","","-8.9","","87","","","","36","","3","","24.1","","101.88","","","","-9","","Mainly Clear"
"-76.60","44.23","KINGSTON A","6104149","2021-02-21 20:00","2021","02","21","20:00","-6.3","","-7.4","","92","","","","13","","7","","24.1","","101.74","","","","-10","","NA"
"-76.60","44.23","KINGSTON A","6104149","2021-02-21 21:00","2021","02","21","21:00","-4.8","","-7.8","","80","","","","15","","12","","24.1","","101.62","","","","-10","","NA"
"-76.60","44.23","KINGSTON A","6104149","2021-02-21 22:00","2021","02","21","22:00","-5.0","","-8.1","","79","","","","13","","15","","24.1","","101.52","","","","-11","","Mostly Cloudy"
"-76.60","44.23","KINGSTON A","6104149","2021-02-21 23:00","2021","02","21","23:00","-3.8","","-7.6","","75","","","","12","","13","","24.1","","101.38","","","","-9","","NA"
"-76.60","44.23","KINGSTON A","6104149","2021-02-22 00:00","2021","02","22","00:00"
"-76.60","44.23","KINGSTON A","6104149","2021-02-22 01:00","2021","02","22","01:00"
"-76.60","44.23","KINGSTON A","6104149","2021-02-22 02:00","2021","02","22","02:00"
"-76.60","44.23","KINGSTON A","6104149","2021-02-22 03:00","2021","02","22","03:00"
"-76.60","44.23","KINGSTON A","6104149","2021-02-22 04:00","2021","02","22","04:00"
"-76.60","44.23","KINGSTON A","6104149","2021-02-22 05:00","2021","02","22","05:00"
"-76.60","44.23","KINGSTON A","6104149","2021-02-22 06:00","2021","02","22","06:00","-1.6","","-5.9","","72","","","","16","","29","","24.1","","100.45","","","","-8","","NA"
"-76.60","44.23","KINGSTON A","6104149","2021-02-22 07:00","2021","02","22","07:00","-2.1","","-3.1","","93","","","","16","","38","","6.4","","100.28","","","","-10","","Snow,Blowing Snow"
"-76.60","44.23","KINGSTON A","6104149","2021-02-22 08:00","2021","02","22","08:00","-1.7","","-4.8","","80","","","","16","","38","","4.8","","100.13","","","","-9","","Snow,Blowing Snow"
"-76.60","44.23","KINGSTON A","6104149","2021-02-22 09:00","2021","02","22","09:00","-2.4","","-3.7","","90","","","","16","","44","","4.0","","99.93","","","","-11","","Snow,Blowing Snow"
"-76.60","44.23","KINGSTON A","6104149","2021-02-22 10:00","2021","02","22","10:00","-2.6","","-3.3","","95","","","","16","","36","","1.0","","99.78","","","","-10","","Snow,Blowing Snow"
"-76.60","44.23","KINGSTON A","6104149","2021-02-22 11:00","2021","02","22","11:00","-2.1","","-2.9","","94","","","","16","","34","","1.2","","99.66","","","","-10","","Snow,Blowing Snow"
"-76.60","44.23","KINGSTON A","6104149","2021-02-22 12:00","2021","02","22","12:00","-1.5","","-2.2","","95","","","","17","","28","","1.2","","99.55","","","","-8","","Snow,Blowing Snow"
"-76.60","44.23","KINGSTON A","6104149","2021-02-22 13:00","2021","02","22","13:00","-1.1","","-1.9","","95","","","","17","","36","","1.0","","99.31","","","","-9","","Snow,Blowing Snow"
"-76.60","44.23","KINGSTON A","6104149","2021-02-22 14:00","2021","02","22","14:00","-0.6","","-1.3","","95","","","","17","","29","","1.0","","99.18","","","","-7","","Snow,Blowing Snow"
"-76.60","44.23","KINGSTON A","6104149","2021-02-22 15:00","2021","02","22","15:00","-0.1","","-1.2","","93","","","","18","","32","","1.0","","99.11","","","","-7","","Snow,Blowing Snow"
"-76.60","44.23","KINGSTON A","6104149","2021-02-22 16:00","2021","02","22","16:00","0.3","","-1.1","","91","","","","18","","35","","6.4","","99.05","","","","","","Snow,Blowing Snow"
"-76.60","44.23","KINGSTON A","6104149","2021-02-22 17:00","2021","02","22","17:00","0.4","","-0.3","","95","","","","20","","34","","3.2","","99.02","","","","","","Snow,Blowing Snow"
"-76.60","44.23","KINGSTON A","6104149","2021-02-22 18:00","2021","02","22","18:00","0.8","","0.4","","97","","","","21","","25","","3.2","","99.03","","","","","","Rain,Snow"
"-76.60","44.23","KINGSTON A","6104149","2021-02-22 19:00","2021","02","22","19:00","1.5","","0.4","","92","","","","23","","26","","9.7","","99.08","","","","","","Rain,Snow"
"-76.60","44.23","KINGSTON A","6104149","2021-02-22 20:00","2021","02","22","20:00","1.4","","0.3","","92","","","","24","","24","","9.7","","99.08","","","","","","Rain,Snow"
"-76.60","44.23","KINGSTON A","6104149","2021-02-22 21:00","2021","02","22","21:00","1.8","","0.2","","90","","","","26","","21","","16.1","","99.11","","","","","","Rain,Snow"
"-76.60","44.23","KINGSTON A","6104149","2021-02-22 22:00","2021","02","22","22:00","1.6","","-0.4","","87","","","","26","","19","","16.1","","99.18","","","","","","Cloudy"
"-76.60","44.23","KINGSTON A","6104149","2021-02-22 23:00","2021","02","22","23:00","1.2","","-1.0","","85","","","","26","","17","","24.1","","99.20","","","","","","NA"
"-76.60","44.23","KINGSTON A","6104149","2021-02-23 00:00","2021","02","23","00:00"
"-76.60","44.23","KINGSTON A","6104149","2021-02-23 01:00","2021","02","23","01:00"
"-76.60","44.23","KINGSTON A","6104149","2021-02-23 02:00","2021","02","23","02:00"
"-76.60","44.23","KINGSTON A","6104149","2021-02-23 03:00","2021","02","23","03:00"
"-76.60","44.23","KINGSTON A","6104149","2021-02-23 04:00","2021","02","23","04:00"
"-76.60","44.23","KINGSTON A","6104149","2021-02-23 05:00","2021","02","23","05:00"
"-76.60","44.23","KINGSTON A","6104149","2021-02-23 06:00","2021","02","23","06:00","0.8","","-1.8","","83","","","","22","","18","","19.3","","98.95","","","","","","NA"
"-76.60","44.23","KINGSTON A","6104149","2021-02-23 07:00","2021","02","23","07:00","0.9","","-1.5","","84","","","","21","","18","","16.1","","98.87","","","","","","Cloudy"
"-76.60","44.23","KINGSTON A","6104149","2021-02-23 08:00","2021","02","23","08:00","1.0","","-1.4","","84","","","","19","","26","","19.3","","98.86","","","","","","NA"
"-76.60","44.23","KINGSTON A","6104149","2021-02-23 09:00","2021","02","23","09:00","0.5","","-2.0","","84","","","","17","","23","","19.3","","98.82","","","","","","NA"
"-76.60","44.23","KINGSTON A","6104149","2021-02-23 10:00","2021","02","23","10:00","0.3","","-0.9","","92","","","","19","","28","","1.6","","98.78","","","","","","Snow"
"-76.60","44.23","KINGSTON A","6104149","2021-02-23 11:00","2021","02","23","11:00","0.2","","-0.2","","97","","","","19","","22","","1.0","","98.75","","","","","","Snow"
"-76.60","44.23","KINGSTON A","6104149","2021-02-23 12:00","2021","02","23","12:00","0.2","","-0.1","","98","","","","19","","21","","1.0","","98.70","","","","","","Snow"
"-76.60","44.23","KINGSTON A","6104149","2021-02-23 13:00","2021","02","23","13:00","0.3","","0.1","","98","","","","20","","21","","1.0","","98.67","","","","","","Snow"
"-76.60","44.23","KINGSTON A","6104149","2021-02-23 14:00","2021","02","23","14:00","0.9","","0.6","","98","","","","23","","17","","1.6","","98.71","","","","","","Snow"
"-76.60","44.23","KINGSTON A","6104149","2021-02-23 15:00","2021","02","23","15:00","1.8","","1.0","","94","","","","26","","17","","8.1","","98.81","","","","","","Snow,Fog"
"-76.60","44.23","KINGSTON A","6104149","2021-02-23 16:00","2021","02","23","16:00","2.0","","1.0","","94","","","","25","","16","","8.1","","98.95","","","","","","Snow,Fog"
"-76.60","44.23","KINGSTON A","6104149","2021-02-23 17:00","2021","02","23","17:00","1.6","","0.5","","92","","","","24","","14","","16.1","","99.04","","","","","","NA"
"-76.60","44.23","KINGSTON A","6104149","2021-02-23 18:00","2021","02","23","18:00","1.7","","0.5","","91","","","","24","","17","","12.9","","99.18","","","","","","NA"
"-76.60","44.23","KINGSTON A","6104149","2021-02-23 19:00","2021","02","23","19:00","2.3","","0.6","","88","","","","26","","16","","16.1","","99.31","","","","","","Cloudy"
"-76.60","44.23","KINGSTON A","6104149","2021-02-23 20:00","2021","02","23","20:00","2.7","","0.4","","85","","","","27","","18","","24.1","","99.43","","","","","","NA"
"-76.60","44.23","KINGSTON A","6104149","2021-02-23 21:00","2021","02","23","21:00","2.8","","0.3","","84","","","","26","","17","","24.1","","99.63","","","","","","NA"
"-76.60","44.23","KINGSTON A","6104149","2021-02-23 22:00","2021","02","23","22:00","2.3","","-0.1","","84","","","","24","","17","","24.1","","99.74","","","","","","Mainly Clear"
"-76.60","44.23","KINGSTON A","6104149","2021-02-23 23:00","2021","02","23","23:00","2.8","","-0.9","","77","","","","26","","17","","24.1","","99.79","","","","","","NA"
"-76.60","44.23","KINGSTON A","6104149","2021-02-24 00:00","2021","02","24","00:00"
"-76.60","44.23","KINGSTON A","6104149","2021-02-24 01:00","2021","02","24","01:00"
"-76.60","44.23","KINGSTON A","6104149","2021-02-24 02:00","2021","02","24","02:00"
"-76.60","44.23","KINGSTON A","6104149","2021-02-24 03:00","2021","02","24","03:00"
"-76.60","44.23","KINGSTON A","6104149","2021-02-24 04:00","2021","02","24","04:00"
"-76.60","44.23","KINGSTON A","6104149","2021-02-24 05:00","2021","02","24","05:00"
"-76.60","44.23","KINGSTON A","6104149","2021-02-24 06:00","2021","02","24","06:00","-0.8","","-2.5","","88","","","","26","","7","","24.1","","100.25","","","","-3","","NA"
"-76.60","44.23","KINGSTON A","6104149","2021-02-24 07:00","2021","02","24","07:00","-0.8","","-2.7","","87","","","","24","","10","","24.1","","100.25","","","","-4","","Mostly Cloudy"
"-76.60","44.23","KINGSTON A","6104149","2021-02-24 08:00","2021","02","24","08:00","-0.5","","-2.4","","88","","","","20","","5","","24.1","","100.28","","","","-2","","NA"
"-76.60","44.23","KINGSTON A","6104149","2021-02-24 09:00","2021","02","24","09:00","0.1","","-0.8","","93","","","","20","","15","","19.3","","100.23","","","","","","NA"
"-76.60","44.23","KINGSTON A","6104149","2021-02-24 10:00","2021","02","24","10:00","1.2","","0.2","","94","","","","15","","13","","9.7","","100.07","","","","","","Fog"
"-76.60","44.23","KINGSTON A","6104149","2021-02-24 11:00","2021","02","24","11:00","1.2","","0.4","","94","","","","14","","17","","8.1","","99.98","","","","","","Fog"
"-76.60","44.23","KINGSTON A","6104149","2021-02-24 12:00","2021","02","24","12:00","2.0","","-0.4","","84","","","","14","","16","","24.1","","99.75","","","","","","NA"
"-76.60","44.23","KINGSTON A","6104149","2021-02-24 13:00","2021","02","24","13:00","3.1","","-0.7","","76","","","","13","","18","","24.1","","99.47","","","","","","Cloudy"
"-76.60","44.23","KINGSTON A","6104149","2021-02-24 14:00","2021","02","24","14:00","4.7","","-0.9","","67","","","","11","","15","","24.1","","99.26","","","","","","NA"
"-76.60","44.23","KINGSTON A","6104149","2021-02-24 15:00","2021","02","24","15:00","5.1","","-1.1","","64","","","","11","","9","","24.1","","99.11","","","","","","NA"
"-76.60","44.23","KINGSTON A","6104149","2021-02-24 16:00","2021","02","24","16:00","4.6","","-0.7","","69","","","","18","","15","","12.9","","99.05","","","","","","Rain Showers"
"-76.60","44.23","KINGSTON A","6104149","2021-02-24 17:00","2021","02","24","17:00","3.4","","-0.6","","75","","","","17","","11","","24.1","","98.90","","","","","","NA"
"-76.60","44.23","KINGSTON A","6104149","2021-02-24 18:00","2021","02","24","18:00","6.1","","0.5","","67","","","","23","","31","","24.1","","98.89","","","","","","NA"
"-76.60","44.23","KINGSTON A","6104149","2021-02-24 19:00","2021","02","24","19:00","4.5","","0.4","","74","","","","24","","25","","24.1","","98.97","","","","","","Cloudy"
"-76.60","44.23","KINGSTON A","6104149","2021-02-24 20:00","2021","02","24","20:00","4.0","","0.6","","78","","","","24","","30","","24.1","","99.03","","","","","","NA"
"-76.60","44.23","KINGSTON A","6104149","2021-02-24 21:00","2021","02","24","21:00","3.6","","0.5","","80","","","","24","","25","","24.1","","99.09","","","","","","NA"
"-76.60","44.23","KINGSTON A","6104149","2021-02-24 22:00","2021","02","24","22:00","4.1","","0.2","","76","","","","27","","22","","24.1","","99.20","","","","","","Cloudy"
"-76.60","44.23","KINGSTON A","6104149","2021-02-24 23:00","2021","02","24","23:00","3.4","","-0.1","","78","","","","27","","26","","24.1","","99.39","","","","","","NA"
"-76.60","44.23","KINGSTON A","6104149","2021-02-25 00:00","2021","02","25","00:00"
"-76.60","44.23","KINGSTON A","6104149","2021-02-25 01:00","2021","02","25","01:00"
"-76.60","44.23","KINGSTON A","6104149","2021-02-25 02:00","2021","02","25","02:00"
"-76.60","44.23","KINGSTON A","6104149","2021-02-25 03:00","2021","02","25","03:00"
"-76.60","44.23","KINGSTON A","6104149","2021-02-25 04:00","2021","02","25","04:00"
"-76.60","44.23","KINGSTON A","6104149","2021-02-25 05:00","2021","02","25","05:00"
"-76.60","44.23","KINGSTON A","6104149","2021-02-25 06:00","2021","02","25","06:00","-2.3","","-6.3","","74","","","","26","","8","","24.1","","100.65","","","","-5","","NA"
"-76.60","44.23","KINGSTON A","6104149","2021-02-25 07:00","2021","02","25","07:00","-2.1","","-5.8","","76","","","","24","","18","","24.1","","100.67","","","","-8","","Mostly Cloudy"
"-76.60","44.23","KINGSTON A","6104149","2021-02-25 08:00","2021","02","25","08:00","-1.4","","-5.3","","75","","","","27","","16","","24.1","","100.77","","","","-6","","NA"
"-76.60","44.23","KINGSTON A","6104149","2021-02-25 09:00","2021","02","25","09:00","-0.3","","-5.5","","68","","","","27","","16","","24.1","","100.83","","","","-5","","NA"
"-76.60","44.23","KINGSTON A","6104149","2021-02-25 10:00","2021","02","25","10:00","-0.3","","-7.4","","59","","","","29","","22","","24.1","","100.88","","","","-6","","Mostly Cloudy"
"-76.60","44.23","KINGSTON A","6104149","2021-02-25 11:00","2021","02","25","11:00","-0.4","","-9.0","","52","","","","30","","23","","24.1","","100.94","","","","-6","","NA"
"-76.60","44.23","KINGSTON A","6104149","2021-02-25 12:00","2021","02","25","12:00","0.2","","-9.4","","49","","","","29","","18","","24.1","","100.98","","","","","","NA"
"-76.60","44.23","KINGSTON A","6104149","2021-02-25 13:00","2021","02","25","13:00","0.2","","-7.2","","58","","","","24","","24","","24.1","","100.97","","","","","","Mainly Clear"
"-76.60","44.23","KINGSTON A","6104149","2021-02-25 14:00","2021","02","25","14:00","0.4","","-10.3","","44","","","","26","","18","","24.1","","101.01","","","","","","NA"
"-76.60","44.23","KINGSTON A","6104149","2021-02-25 15:00","2021","02","25","15:00","0.1","","-12.1","","40","","","","26","","20","","24.1","","101.07","","","","","","NA"
"-76.60","44.23","KINGSTON A","6104149","2021-02-25 16:00","2021","02","25","16:00","-0.4","","-11.4","","43","","","","25","","23","","24.1","","101.10","","","","-6","","Mainly Clear"
"-76.60","44.23","KINGSTON A","6104149","2021-02-25 17:00","2021","02","25","17:00","-1.1","","-11.4","","46","","","","25","","20","","24.1","","101.14","","","","-7","","NA"
"-76.60","44.23","KINGSTON A","6104149","2021-02-25 18:00","2021","02","25","18:00","-2.5","","-10.5","","54","","","","25","","15","","24.1","","101.19","","","","-7","","NA"
"-76.60","44.23","KINGSTON A","6104149","2021-02-25 19:00","2021","02","25","19:00","-3.5","","-12.5","","50","","","","25","","16","","24.1","","101.27","","","","-9","","Mainly Clear"
"-76.60","44.23","KINGSTON A","6104149","2021-02-25 20:00","2021","02","25","20:00","-3.6","","-13.4","","47","","","","28","","17","","24.1","","101.32","","","","-9","","NA"
"-76.60","44.23","KINGSTON A","6104149","2021-02-25 21:00","2021","02","25","21:00","-3.6","","-12.5","","51","","","","33","","14","","24.1","","101.31","","","","-9","","NA"
"-76.60","44.23","KINGSTON A","6104149","2021-02-25 22:00","2021","02","25","22:00","-3.6","","-10.4","","60","","","","32","","26","","24.1","","101.39","","","","-11","","Snow"
"-76.60","44.23","KINGSTON A","6104149","2021-02-25 23:00","2021","02","25","23:00","-4.3","","-8.3","","74","","","","34","","9","","24.1","","101.41","","","","-8","","Snow"
"-76.60","44.23","KINGSTON A","6104149","2021-02-26 00:00","2021","02","26","00:00"
"-76.60","44.23","KINGSTON A","6104149","2021-02-26 01:00","2021","02","26","01:00"
"-76.60","44.23","KINGSTON A","6104149","2021-02-26 02:00","2021","02","26","02:00"
"-76.60","44.23","KINGSTON A","6104149","2021-02-26 03:00","2021","02","26","03:00"
"-76.60","44.23","KINGSTON A","6104149","2021-02-26 04:00","2021","02","26","04:00"
"-76.60","44.23","KINGSTON A","6104149","2021-02-26 05:00","2021","02","26","05:00"
"-76.60","44.23","KINGSTON A","6104149","2021-02-26 06:00","2021","02","26","06:00","-5.3","","-7.4","","85","","","","6","","7","","24.1","","101.72","","","","-9","","NA"
"-76.60","44.23","KINGSTON A","6104149","2021-02-26 07:00","2021","02","26","07:00","-5.4","","-7.6","","84","","","","3","","4","","24.1","","101.84","","","","-7","","Mostly Cloudy"
"-76.60","44.23","KINGSTON A","6104149","2021-02-26 08:00","2021","02","26","08:00","-5.5","","-8.4","","80","","","","3","","4","","24.1","","101.93","","","","-7","","NA"
"-76.60","44.23","KINGSTON A","6104149","2021-02-26 09:00","2021","02","26","09:00","-3.9","","-7.2","","78","","","","11","","9","","24.1","","101.91","","","","-8","","NA"
"-76.60","44.23","KINGSTON A","6104149","2021-02-26 10:00","2021","02","26","10:00","-3.3","","-6.3","","80","","","","12","","13","","24.1","","101.91","","","","-8","","Mainly Clear"
"-76.60","44.23","KINGSTON A","6104149","2021-02-26 11:00","2021","02","26","11:00","-2.3","","-6.8","","71","","","","16","","18","","24.1","","101.82","","","","-8","","NA"
"-76.60","44.23","KINGSTON A","6104149","2021-02-26 12:00","2021","02","26","12:00","-1.6","","-5.4","","75","","","","17","","12","","24.1","","101.80","","","","-6","","NA"
"-76.60","44.23","KINGSTON A","6104149","2021-02-26 13:00","2021","02","26","13:00","-1.0","","-5.0","","75","","","","21","","17","","24.1","","101.87","","","","-6","","Mainly Clear"
"-76.60","44.23","KINGSTON A","6104149","2021-02-26 14:00","2021","02","26","14:00","-0.4","","-3.7","","78","","","","19","","19","","24.1","","101.95","","","","-6","","NA"
"-76.60","44.23","KINGSTON A","6104149","2021-02-26 15:00","2021","02","26","15:00","0.6","","-5.5","","64","","","","23","","12","","24.1","","101.93","","","","","","NA"
"-76.60","44.23","KINGSTON A","6104149","2021-02-26 16:00","2021","02","26","16:00","0.3","","-4.0","","73","","","","19","","11","","24.1","","101.90","","","","","","Mainly Clear"
"-76.60","44.23","KINGSTON A","6104149","2021-02-26 17:00","2021","02","26","17:00","-0.4","","-5.1","","71","","","","14","","10","","24.1","","101.75","","","","-4","","NA"
"-76.60","44.23","KINGSTON A","6104149","2021-02-26 18:00","2021","02","26","18:00","-1.4","","-5.6","","73","","","","12","","9","","24.1","","101.59","","","","-5","","NA"
"-76.60","44.23","KINGSTON A","6104149","2021-02-26 19:00","2021","02","26","19:00","-1.8","","-4.9","","80","","","","13","","10","","24.1","","101.66","","","","-5","","Mainly Clear"
"-76.60","44.23","KINGSTON A","6104149","2021-02-26 20:00","2021","02","26","20:00","-2.3","","-5.3","","80","","","","12","","12","","24.1","","101.55","","","","-7","","NA"
"-76.60","44.23","KINGSTON A","6104149","2021-02-26 21:00","2021","02","26","21:00","-4.1","","-6.4","","84","","","","9","","9","","24.1","","101.49","","","","-8","","NA"
"-76.60","44.23","KINGSTON A","6104149","2021-02-26 22:00","2021","02","26","22:00","-4.5","","-7.0","","83","","","","8","","7","","24.1","","101.45","","","","-8","","Clear"
"-76.60","44.23","KINGSTON A","6104149","2021-02-26 23:00","2021","02","26","23:00","-2.1","","-7.0","","69","","","","12","","17","","24.1","","101.29","","","","-7","","NA"
"-76.60","44.23","KINGSTON A","6104149","2021-02-27 00:00","2021","02","27","00:00"
"-76.60","44.23","KINGSTON A","6104149","2021-02-27 01:00","2021","02","27","01:00"
"-76.60","44.23","KINGSTON A","6104149","2021-02-27 02:00","2021","02","27","02:00"
"-76.60","44.23","KINGSTON A","6104149","2021-02-27 03:00","2021","02","27","03:00"
"-76.60","44.23","KINGSTON A","6104149","2021-02-27 04:00","2021","02","27","04:00"
"-76.60","44.23","KINGSTON A","6104149","2021-02-27 05:00","2021","02","27","05:00"
"-76.60","44.23","KINGSTON A","6104149","2021-02-27 06:00","2021","02","27","06:00","0.8","","-2.7","","78","","","","16","","38","","24.1","","100.50","","","","","","NA"
"-76.60","44.23","KINGSTON A","6104149","2021-02-27 07:00","2021","02","27","07:00","0.7","","-1.4","","86","","","","16","","39","","24.1","","100.43","","","","","","Cloudy"
"-76.60","44.23","KINGSTON A","6104149","2021-02-27 08:00","2021","02","27","08:00","0.9","","-1.0","","87","","","","16","","39","","16.1","","100.32","","","","","","Snow"
"-76.60","44.23","KINGSTON A","6104149","2021-02-27 09:00","2021","02","27","09:00","0.6","","-0.3","","94","","","","16","","28","","6.4","","100.26","","","","","","Rain,Fog"
"-76.60","44.23","KINGSTON A","6104149","2021-02-27 10:00","2021","02","27","10:00","0.7","","-0.1","","95","","","","18","","20","","8.1","","100.23","","","","","","Rain,Snow,Fog"
"-76.60","44.23","KINGSTON A","6104149","2021-02-27 11:00","2021","02","27","11:00","2.0","","1.0","","93","","","","18","","34","","12.9","","100.10","","","","","","Rain"
"-76.60","44.23","KINGSTON A","6104149","2021-02-27 12:00","2021","02","27","12:00","2.2","","1.4","","94","","","","18","","35","","16.1","","100.03","","","","","","Rain"
"-76.60","44.23","KINGSTON A","6104149","2021-02-27 13:00","2021","02","27","13:00","2.4","","1.9","","97","","","","20","","36","","6.4","","100.05","","","","","","Rain,Fog"
"-76.60","44.23","KINGSTON A","6104149","2021-02-27 14:00","2021","02","27","14:00","3.3","","2.8","","96","","","","24","","36","","16.1","","100.09","","","","","","NA"
"-76.60","44.23","KINGSTON A","6104149","2021-02-27 15:00","2021","02","27","15:00","3.3","","1.5","","88","","","","24","","25","","24.1","","100.19","","","","","","NA"
"-76.60","44.23","KINGSTON A","6104149","2021-02-27 16:00","2021","02","27","16:00","4.6","","1.0","","77","","","","27","","22","","24.1","","100.39","","","","","","Mostly Cloudy"
"-76.60","44.23","KINGSTON A","6104149","2021-02-27 17:00","2021","02","27","17:00","3.9","","-0.4","","74","","","","29","","25","","24.1","","100.58","","","","","","NA"
"-76.60","44.23","KINGSTON A","6104149","2021-02-27 18:00","2021","02","27","18:00","3.0","","-0.7","","76","","","","28","","16","","24.1","","100.78","","","","","","NA"
"-76.60","44.23","KINGSTON A","6104149","2021-02-27 19:00","2021","02","27","19:00","2.4","","-1.0","","79","","","","24","","10","","24.1","","100.96","","","","","","Clear"
"-76.60","44.23","KINGSTON A","6104149","2021-02-27 20:00","2021","02","27","20:00","2.3","","-1.1","","78","","","","24","","9","","24.1","","101.07","","","","","","NA"
"-76.60","44.23","KINGSTON A","6104149","2021-02-27 21:00","2021","02","27","21:00","1.4","","-1.2","","83","","","","25","","12","","24.1","","101.15","","","","","","NA"
"-76.60","44.23","KINGSTON A","6104149","2021-02-27 22:00","2021","02","27","22:00","-0.1","","-0.9","","94","","","","17","","9","","24.1","","101.24","","","","-3","","Mainly Clear"
"-76.60","44.23","KINGSTON A","6104149","2021-02-27 23:00","2021","02","27","23:00","-0.8","","-1.0","","98","","","","22","","11","","24.1","","101.35","","","","-5","","NA"
"-76.60","44.23","KINGSTON A","6104149","2021-02-28 00:00","2021","02","28","00:00"
"-76.60","44.23","KINGSTON A","6104149","2021-02-28 01:00","2021","02","28","01:00"
"-76.60","44.23","KINGSTON A","6104149","2021-02-28 02:00","2021","02","28","02:00"
"-76.60","44.23","KINGSTON A","6104149","2021-02-28 03:00","2021","02","28","03:00"
"-76.60","44.23","KINGSTON A","6104149","2021-02-28 04:00","2021","02","28","04:00"
"-76.60","44.23","KINGSTON A","6104149","2021-02-28 05:00","2021","02","28","05:00"
"-76.60","44.23","KINGSTON A","6104149","2021-02-28 06:00","2021","02","28","06:00","-4.2","","-4.7","","97","","","","36","","7","","0.4","","101.37","","","","-7","","Freezing Fog"
"-76.60","44.23","KINGSTON A","6104149","2021-02-28 07:00","2021","02","28","07:00","-3.7","","-4.1","","97","","","","4","","4","","0.4","","101.31","","","","-5","","Freezing Fog"
"-76.60","44.23","KINGSTON A","6104149","2021-02-28 08:00","2021","02","28","08:00","-2.6","","-2.9","","98","","","","3","","4","","0.4","","101.30","","","","-4","","Freezing Fog"
"-76.60","44.23","KINGSTON A","6104149","2021-02-28 09:00","2021","02","28","09:00","-1.5","","-1.6","","99","","","","9","","3","","1.2","","101.32","","","","-3","","Fog"
"-76.60","44.23","KINGSTON A","6104149","2021-02-28 10:00","2021","02","28","10:00","0.4","","0.3","","99","","","","14","","14","","4.8","","101.28","","","","","","Fog"
"-76.60","44.23","KINGSTON A","6104149","2021-02-28 11:00","2021","02","28","11:00","1.0","","0.9","","99","","","","15","","12","","6.4","","101.21","","","","","","Fog"
"-76.60","44.23","KINGSTON A","6104149","2021-02-28 12:00","2021","02","28","12:00","2.0","","0.2","","88","","","","13","","15","","9.7","","101.00","","","","","","Fog"
"-76.60","44.23","KINGSTON A","6104149","2021-02-28 13:00","2021","02","28","13:00","2.9","","-0.2","","80","","","","9","","16","","12.9","","100.77","","","","","","Mostly Cloudy"
"-76.60","44.23","KINGSTON A","6104149","2021-02-28 14:00","2021","02","28","14:00","3.7","","-0.4","","75","","","","7","","18","","24.1","","100.50","","","","","","NA"
"-76.60","44.23","KINGSTON A","6104149","2021-02-28 15:00","2021","02","28","15:00","3.1","","-0.6","","77","","","","9","","16","","24.1","","100.39","","","","","","NA"
"-76.60","44.23","KINGSTON A","6104149","2021-02-28 16:00","2021","02","28","16:00","4.0","","-0.6","","72","","","","13","","17","","24.1","","100.32","","","","","","Rain"
"-76.60","44.23","KINGSTON A","6104149","2021-02-28 17:00","2021","02","28","17:00","3.3","","0.4","","82","","","","13","","22","","16.1","","100.17","","","","","","Rain"
"-76.60","44.23","KINGSTON A","6104149","2021-02-28 18:00","2021","02","28","18:00","2.9","","-0.1","","81","","","","13","","17","","24.1","","100.05","","","","","","Rain"
"-76.60","44.23","KINGSTON A","6104149","2021-02-28 19:00","2021","02","28","19:00","3.0","","-0.5","","78","","","","16","","40","","24.1","","99.87","","","","","","Cloudy"
"-76.60","44.23","KINGSTON A","6104149","2021-02-28 20:00","2021","02","28","20:00","2.5","","-0.1","","83","","","","16","","30","","24.1","","99.85","","","","","","NA"
"-76.60","44.23","KINGSTON A","6104149","2021-02-28 21:00","2021","02","28","21:00","2.5","","0.0","","84","","","","16","","24","","24.1","","99.72","","","","","","NA"
"-76.60","44.23","KINGSTON A","6104149","2021-02-28 22:00","2021","02","28","22:00","2.6","","0.3","","85","","","","17","","19","","24.1","","99.62","","","","","","Cloudy"
"-76.60","44.23","KINGSTON A","6104149","2021-02-28 23:00","2021","02","28","23:00","2.4","","0.7","","89","","","","17","","20","","24.1","","99.42","","","","","","NA"
