"Longitude (x)","Latitude (y)","Station Name","Climate ID","Date/Time (LST)","Year","Month","Day","Time (LST)","Temp (°C)","Temp Flag","Dew Point Temp (°C)","Dew Point Temp Flag","Rel Hum (%)","Rel Hum Flag","Precip. Amount (mm)","Precip. Amount Flag","Wind Dir (10s deg)","Wind Dir Flag","Wind Spd (km/h)","Wind Spd Flag","Visibility (km)","Visibility Flag","Stn Press (kPa)","Stn Press Flag","Hmdx","Hmdx Flag","Wind Chill","Wind Chill Flag","Weather"
"-76.60","44.23","KINGSTON A","6104149","2021-03-01 00:00","2021","03","01","00:00"
"-76.60","44.23","KINGSTON A","6104149","2021-03-01 01:00","2021","03","01","01:00"
"-76.60","44.23","KINGSTON A","6104149","2021-03-01 02:00","2021","03","01","02:00"
"-76.60","44.23","KINGSTON A","6104149","2021-03-01 03:00","2021","03","01","03:00"
"-76.60","44.23","KINGSTON A","6104149","2021-03-01 04:00","2021","03","01","04:00"
"-76.60","44.23","KINGSTON A","6104149","2021-03-01 05:00","2021","03","01","05:00"
"-76.60","44.23","KINGSTON A","6104149","2021-03-01 06:00","2021","03","01","06:00","3.8","","2.1","","89","","","","25","","15","","24.1","","99.13","","","","","","NA"
"-76.60","44.23","KINGSTON A","6104149","2021-03-01 07:00","2021","03","01","07:00","2.7","","-1.2","","76","","","","27","","25","","24.1","","99.19","","","","","","Cloudy"
"-76.60","44.23","KINGSTON A","6104149","2021-03-01 08:00","2021","03","01","08:00","1.8","","-2.4","","74","","","","28","","30","","24.1","","99.31","","","","","","NA"
"-76.60","44.23","KINGSTON A","6104149","2021-03-01 09:00","2021","03","01","09:00","1.6","","-2.9","","72","","","","26","","25","","24.1","","99.41","","","","","","NA"
"-76.60","44.23","KINGSTON A","6104149","2021-03-01 10:00","2021","03","01","10:00","1.1","","-3.6","","71","","","","27","","20","","24.1","","99.46","","","","","","Cloudy"
"-76.60","44.23","KINGSTON A","6104149","2021-03-01 11:00","2021","03","01","11:00","0.6","","-5.8","","62","","","","26","","34","","24.1","","99.51","","","","","","NA"
"-76.60","44.23","KINGSTON A","6104149","2021-03-01 12:00","2021","03","01","12:00","0.1","","-6.1","","63","","","","27","","30","","24.1","","99.54","","","","","","NA"
"-76.60","44.23","KINGSTON A","6104149","2021-03-01 13:00","2021","03","01","13:00","-0.4","","-6.4","","64","","","","26","","29","","24.1","","99.53","","","","-7","","Cloudy"
"-76.60","44.23","KINGSTON A","6104149","2021-03-01 14:00","2021","03","01","14:00","0.1","","-7.8","","55","","","","28","","32","","24.1","","99.50","","","","","","Snow Showers"
"-76.60","44.23","KINGSTON A","6104149","2021-03-01 15:00","2021","03","01","15:00","-0.5","","-10.5","","47","","","","29","","31","","24.1","","99.60","","","","-7","","NA"
"-76.60","44.23","KINGSTON A","6104149","2021-03-01 16:00","2021","03","01","16:00","-0.5","","-11.4","","44","","","","28","","34","","24.1","","99.61","","","","-8","","Mostly Cloudy"
"-76.60","44.23","KINGSTON A","6104149","2021-03-01 17:00","2021","03","01","17:00","-2.9","","-12.5","","48","","","","26","","37","","24.1","","99.71","","","","-11","","NA"
"-76.60","44.23","KINGSTON A","6104149","2021-03-01 18:00","2021","03","01","18:00","-5.3","","-17.7","","38","","","","28","","49","","24.1","","99.93","","","","-15","","NA"
"-76.60","44.23","KINGSTON A","6104149","2021-03-01 19:00","2021","03","01","19:00","-7.9","","-12.2","","71","","","","30","","31","","24.1","","100.19","","","","-17","","Cloudy"
"-76.60","44.23","KINGSTON A","6104149","2021-03-01 20:00","2021","03","01","20:00","-9.4","","-12.8","","77","","","","30","","35","","0.2","","100.35","","","","-19","","Snow Showers,Blowing Snow"
"-76.60","44.23","KINGSTON A","6104149","2021-03-01 21:00","2021","03","01","21:00","-10.1","","-17.5","","55","","","","30","","32","","24.1","","100.54","","","","-20","","NA"
"-76.60","44.23","KINGSTON A","6104149","2021-03-01 22:00","2021","03","01","22:00","-11.4","","-21.8","","42","","","","32","","39","","24.1","","100.63","","","","-23","","Mainly Clear"
"-76.60","44.23","KINGSTON A","6104149","2021-03-01 23:00","2021","03","01","23:00","-12.4","","-23.5","","40","","","","31","","29","","24.1","","100.76","","","","-23","","NA"
"-76.60","44.23","KINGSTON A","6104149","2021-03-02 00:00","2021","03","02","00:00"
"-76.60","44.23","KINGSTON A","6104149","2021-03-02 01:00","2021","03","02","01:00"
"-76.60","44.23","KINGSTON A","6104149","2021-03-02 02:00","2021","03","02","02:00"
"-76.60","44.23","KINGSTON A","6104149","2021-03-02 03:00","2021","03","02","03:00"
"-76.60","44.23","KINGSTON A","6104149","2021-03-02 04:00","2021","03","02","04:00"
"-76.60","44.23","KINGSTON A","6104149","2021-03-02 05:00","2021","03","02","05:00"
"-76.60","44.23","KINGSTON A","6104149","2021-03-02 06:00","2021","03","02","06:00","-16.6","","-23.4","","56","","","","27","","14","","24.1","","101.44","","","","-25","","NA"
"-76.60","44.23","KINGSTON A","6104149","2021-03-02 07:00","2021","03","02","07:00","-16.7","","-23.2","","57","","","","27","","11","","24.1","","101.50","","","","-24","","Clear"
"-76.60","44.23","KINGSTON A","6104149","2021-03-02 08:00","2021","03","02","08:00","-15.7","","-23.1","","54","","","","27","","16","","24.1","","101.56","","","","-24","","NA"
"-76.60","44.23","KINGSTON A","6104149","2021-03-02 09:00","2021","03","02","09:00","-14.6","","-22.6","","52","","","","29","","12","","24.1","","101.59","","","","-21","","NA"
"-76.60","44.23","KINGSTON A","6104149","2021-03-02 10:00","2021","03","02","10:00","-13.4","","-21.9","","50","","","","27","","18","","24.1","","101.52","","","","-22","","Clear"
"-76.60","44.23","KINGSTON A","6104149","2021-03-02 11:00","2021","03","02","11:00","-12.1","","-20.3","","51","","","","23","","20","","24.1","","101.50","","","","-21","","NA"
"-76.60","44.23","KINGSTON A","6104149","2021-03-02 12:00","2021","03","02","12:00","-10.6","","-20.0","","47","","","","26","","26","","24.1","","101.44","","","","-20","","NA"
"-76.60","44.23","KINGSTON A","6104149","2021-03-02 13:00","2021","03","02","13:00","-9.1","","-18.9","","46","","","","26","","13","","24.1","","101.28","","","","-15","","Clear"
"-76.60","44.23","KINGSTON A","6104149","2021-03-02 14:00","2021","03","02","14:00","-8.4","","-18.1","","46","","","","23","","19","","24.1","","101.14","","","","-16","","NA"
"-76.60","44.23","KINGSTON A","6104149","2021-03-02 15:00","2021","03","02","15:00","-7.0","","-16.8","","46","","","","25","","21","","24.1","","101.07","","","","-14","","NA"
"-76.60","44.23","KINGSTON A","6104149","2021-03-02 16:00","2021","03","02","16:00","-5.6","","-14.1","","52","","","","25","","24","","24.1","","100.95","","","","-13","","Mainly Clear"
"-76.60","44.23","KINGSTON A","6104149","2021-03-02 17:00","2021","03","02","17:00","-5.9","","-12.0","","62","","","","22","","27","","24.1","","100.90","","","","-14","","NA"
"-76.60","44.23","KINGSTON A","6104149","2021-03-02 18:00","2021","03","02","18:00","-5.7","","-10.4","","69","","","","24","","20","","24.1","","100.80","","","","-12","","NA"
"-76.60","44.23","KINGSTON A","6104149","2021-03-02 19:00","2021","03","02","19:00","-5.3","","-9.3","","74","","","","21","","17","","24.1","","100.69","","","","-11","","Mostly Cloudy"
"-76.60","44.23","KINGSTON A","6104149","2021-03-02 20:00","2021","03","02","20:00","-3.8","","-8.8","","69","","","","22","","22","","24.1","","100.60","","","","-10","","NA"
"-76.60","44.23","KINGSTON A","6104149","2021-03-02 21:00","2021","03","02","21:00","-2.9","","-8.9","","64","","","","21","","24","","24.1","","100.40","","","","-10","","NA"
"-76.60","44.23","KINGSTON A","6104149","2021-03-02 22:00","2021","03","02","22:00","-1.7","","-8.2","","61","","","","21","","27","","24.1","","100.29","","","","-8","","Cloudy"
"-76.60","44.23","KINGSTON A","6104149","2021-03-02 23:00","2021","03","02","23:00","-1.1","","-6.9","","65","","","","21","","29","","24.1","","100.13","","","","-8","","NA"
"-76.60","44.23","KINGSTON A","6104149","2021-03-03 00:00","2021","03","03","00:00"
"-76.60","44.23","KINGSTON A","6104149","2021-03-03 01:00","2021","03","03","01:00"
"-76.60","44.23","KINGSTON A","6104149","2021-03-03 02:00","2021","03","03","02:00"
"-76.60","44.23","KINGSTON A","6104149","2021-03-03 03:00","2021","03","03","03:00"
"-76.60","44.23","KINGSTON A","6104149","2021-03-03 04:00","2021","03","03","04:00"
"-76.60","44.23","KINGSTON A","6104149","2021-03-03 05:00","2021","03","03","05:00"
"-76.60","44.23","KINGSTON A","6104149","2021-03-03 06:00","2021","03","03","06:00","0.1","","-3.6","","76","","","","23","","14","","24.1","","99.90","","","","","","NA"
"-76.60","44.23","KINGSTON A","6104149","2021-03-03 07:00","2021","03","03","07:00","0.0","","-4.1","","74","","","","25","","13","","24.1","","99.92","","","","-4","","Mostly Cloudy"
"-76.60","44.23","KINGSTON A","6104149","2021-03-03 08:00","2021","03","03","08:00","0.1","","-4.7","","71","","","","26","","16","","24.1","","99.94","","","","","","NA"
"-76.60","44.23","KINGSTON A","6104149","2021-03-03 09:00","2021","03","03","09:00","1.7","","-4.8","","62","","","","27","","18","","24.1","","99.94","","","","","","NA"
"-76.60","44.23","KINGSTON A","6104149","2021-03-03 10:00","2021","03","03","10:00","2.2","","-4.6","","61","","","","29","","14","","24.1","","99.91","","","","","","Mostly Cloudy"
"-76.60","44.23","KINGSTON A","6104149","2021-03-03 11:00","2021","03","03","11:00","3.1","","-4.0","","60","","","","28","","17","","24.1","","99.89","","","","","","NA"
"-76.60","44.23","KINGSTON A","6104149","2021-03-03 12:00","2021","03","03","12:00","3.4","","-3.7","","60","","","","28","","12","","24.1","","99.91","","","","","","NA"
"-76.60","44.23","KINGSTON A","6104149","2021-03-03 13:00","2021","03","03","13:00","3.0","","-2.9","","65","","","","22","","11","","24.1","","99.88","","","","","","Cloudy"
"-76.60","44.23","KINGSTON A","6104149","2021-03-03 14:00","2021","03","03","14:00","3.0","","-3.0","","64","","","","22","","10","","24.1","","99.86","","","","","","NA"
"-76.60","44.23","KINGSTON A","6104149","2021-03-03 15:00","2021","03","03","15:00","1.5","","-1.0","","84","","","","18","","6","","24.1","","99.89","","","","","","NA"
"-76.60","44.23","KINGSTON A","6104149","2021-03-03 16:00","2021","03","03","16:00","1.2","","-0.9","","86","","","","36","","3","","24.1","","99.92","","","","","","Cloudy"
"-76.60","44.23","KINGSTON A","6104149","2021-03-03 17:00","2021","03","03","17:00","1.8","","-1.2","","80","","","","22","","7","","24.1","","99.96","","","","","","NA"
"-76.60","44.23","KINGSTON A","6104149","2021-03-03 18:00","2021","03","03","18:00","1.5","","-1.3","","82","","","","25","","6","","19.3","","100.01","","","","","","NA"
"-76.60","44.23","KINGSTON A","6104149","2021-03-03 19:00","2021","03","03","19:00","1.5","","-2.1","","77","","","","7","","9","","24.1","","100.02","","","","","","Snow"
"-76.60","44.23","KINGSTON A","6104149","2021-03-03 20:00","2021","03","03","20:00","1.0","","-3.0","","75","","","","4","","16","","24.1","","100.09","","","","","","Snow"
"-76.60","44.23","KINGSTON A","6104149","2021-03-03 21:00","2021","03","03","21:00","0.0","","-3.1","","80","","","","1","","21","","19.3","","100.15","","","","-5","","Snow"
"-76.60","44.23","KINGSTON A","6104149","2021-03-03 22:00","2021","03","03","22:00","-0.3","","-3.6","","78","","","","1","","14","","24.1","","100.15","","","","-5","","Snow"
"-76.60","44.23","KINGSTON A","6104149","2021-03-03 23:00","2021","03","03","23:00","-0.5","","-3.5","","81","","","","36","","11","","16.1","","100.17","","","","-4","","Snow"
"-76.60","44.23","KINGSTON A","6104149","2021-03-04 00:00","2021","03","04","00:00"
"-76.60","44.23","KINGSTON A","6104149","2021-03-04 01:00","2021","03","04","01:00"
"-76.60","44.23","KINGSTON A","6104149","2021-03-04 02:00","2021","03","04","02:00"
"-76.60","44.23","KINGSTON A","6104149","2021-03-04 03:00","2021","03","04","03:00"
"-76.60","44.23","KINGSTON A","6104149","2021-03-04 04:00","2021","03","04","04:00"
"-76.60","44.23","KINGSTON A","6104149","2021-03-04 05:00","2021","03","04","05:00"
"-76.60","44.23","KINGSTON A","6104149","2021-03-04 06:00","2021","03","04","06:00","-5.8","","-11.0","","67","","","","33","","20","","24.1","","100.45","","","","-13","","NA"
"-76.60","44.23","KINGSTON A","6104149","2021-03-04 07:00","2021","03","04","07:00","-6.6","","-11.9","","66","","","","35","","22","","24.1","","100.50","","","","-14","","Mostly Cloudy"
"-76.60","44.23","KINGSTON A","6104149","2021-03-04 08:00","2021","03","04","08:00","-6.7","","-13.0","","61","","","","35","","33","","24.1","","100.55","","","","-16","","NA"
"-76.60","44.23","KINGSTON A","6104149","2021-03-04 09:00","2021","03","04","09:00","-6.5","","-13.6","","57","","","","33","","31","","24.1","","100.60","","","","-15","","NA"
"-76.60","44.23","KINGSTON A","6104149","2021-03-04 10:00","2021","03","04","10:00","-6.2","","-14.8","","51","","","","36","","29","","24.1","","100.62","","","","-14","","Mainly Clear"
"-76.60","44.23","KINGSTON A","6104149","2021-03-04 11:00","2021","03","04","11:00","-5.9","","-14.4","","52","","","","30","","19","","24.1","","100.61","","","","-13","","NA"
"-76.60","44.23","KINGSTON A","6104149","2021-03-04 12:00","2021","03","04","12:00","-5.7","","-16.6","","42","","","","33","","21","","24.1","","100.58","","","","-13","","NA"
"-76.60","44.23","KINGSTON A","6104149","2021-03-04 13:00","2021","03","04","13:00","-5.0","","-17.4","","38","","","","30","","20","","24.1","","100.56","","","","-12","","Clear"
"-76.60","44.23","KINGSTON A","6104149","2021-03-04 14:00","2021","03","04","14:00","-4.4","","-17.6","","35","","","","32","","16","","24.1","","100.54","","","","-10","","NA"
"-76.60","44.23","KINGSTON A","6104149","2021-03-04 15:00","2021","03","04","15:00","-3.9","","-17.2","","35","","","","32","","16","","24.1","","100.56","","","","-9","","NA"
"-76.60","44.23","KINGSTON A","6104149","2021-03-04 16:00","2021","03","04","16:00","-3.6","","-19.7","","28","","","","32","","21","","24.1","","100.53","","","","-10","","Clear"
"-76.60","44.23","KINGSTON A","6104149","2021-03-04 17:00","2021","03","04","17:00","-3.6","","-19.6","","28","","","","31","","18","","24.1","","100.52","","","","-9","","NA"
"-76.60","44.23","KINGSTON A","6104149","2021-03-04 18:00","2021","03","04","18:00","-4.3","","-21.2","","26","","","","32","","21","","24.1","","100.53","","","","-11","","NA"
"-76.60","44.23","KINGSTON A","6104149","2021-03-04 19:00","2021","03","04","19:00","-4.9","","-21.5","","26","","","","32","","23","","24.1","","100.58","","","","-12","","Mostly Cloudy"
"-76.60","44.23","KINGSTON A","6104149","2021-03-04 20:00","2021","03","04","20:00","-5.6","","-21.2","","29","","","","32","","23","","24.1","","100.63","","","","-13","","NA"
"-76.60","44.23","KINGSTON A","6104149","2021-03-04 21:00","2021","03","04","21:00","-6.2","","-21.4","","29","","","","32","","20","","24.1","","100.64","","","","-13","","NA"
"-76.60","44.23","KINGSTON A","6104149","2021-03-04 22:00","2021","03","04","22:00","-7.1","","-23.1","","27","","","","33","","33","","24.1","","100.63","","","","-16","","Cloudy"
"-76.60","44.23","KINGSTON A","6104149","2021-03-04 23:00","2021","03","04","23:00","-7.9","","-21.1","","34","","","","30","","16","","24.1","","100.62","","","","-14","","NA"
"-76.60","44.23","KINGSTON A","6104149","2021-03-05 00:00","2021","03","05","00:00"
"-76.60","44.23","KINGSTON A","6104149","2021-03-05 01:00","2021","03","05","01:00"
"-76.60","44.23","KINGSTON A","6104149","2021-03-05 02:00","2021","03","05","02:00"
"-76.60","44.23","KINGSTON A","6104149","2021-03-05 03:00","2021","03","05","03:00"
"-76.60","44.23","KINGSTON A","6104149","2021-03-05 04:00","2021","03","05","04:00"
"-76.60","44.23","KINGSTON A","6104149","2021-03-05 05:00","2021","03","05","05:00"
"-76.60","44.23","KINGSTON A","6104149","2021-03-05 06:00","2021","03","05","06:00","-13.5","","-21.2","","53","","","","29","","11","","24.1","","100.51","","","","-20","","NA"
"-76.60","44.23","KINGSTON A","6104149","2021-03-05 07:00","2021","03","05","07:00","-13.8","","-21.2","","54","","","","27","","14","","24.1","","100.54","","","","-21","","Mainly Clear"
"-76.60","44.23","KINGSTON A","6104149","2021-03-05 08:00","2021","03","05","08:00","-12.4","","-20.5","","51","","","","28","","18","","24.1","","100.54","","","","-20","","NA"
"-76.60","44.23","KINGSTON A","6104149","2021-03-05 09:00","2021","03","05","09:00","-10.9","","-20.2","","47","","","","27","","21","","24.1","","100.49","","","","-19","","NA"
"-76.60","44.23","KINGSTON A","6104149","2021-03-05 10:00","2021","03","05","10:00","-8.7","","-19.4","","42","","","","27","","17","","24.1","","100.43","","","","-16","","Mainly Clear"
"-76.60","44.23","KINGSTON A","6104149","2021-03-05 11:00","2021","03","05","11:00","-7.9","","-16.9","","49","","","","24","","21","","24.1","","100.32","","","","-15","","NA"
"-76.60","44.23","KINGSTON A","6104149","2021-03-05 12:00","2021","03","05","12:00","-6.2","","-16.5","","44","","","","26","","21","","24.1","","100.20","","","","-13","","NA"
"-76.60","44.23","KINGSTON A","6104149","2021-03-05 13:00","2021","03","05","13:00","-5.1","","-18.1","","36","","","","27","","30","","24.1","","100.07","","","","-13","","Mostly Cloudy"
"-76.60","44.23","KINGSTON A","6104149","2021-03-05 14:00","2021","03","05","14:00","-4.0","","-16.9","","36","","","","26","","27","","24.1","","99.98","","","","-11","","NA"
"-76.60","44.23","KINGSTON A","6104149","2021-03-05 15:00","2021","03","05","15:00","-2.2","","-15.3","","36","","","","27","","22","","24.1","","99.96","","","","-8","","NA"
"-76.60","44.23","KINGSTON A","6104149","2021-03-05 16:00","2021","03","05","16:00","-1.6","","-16.2","","32","","","","29","","21","","24.1","","99.99","","","","-7","","Mostly Cloudy"
"-76.60","44.23","KINGSTON A","6104149","2021-03-05 17:00","2021","03","05","17:00","-2.0","","-14.8","","37","","","","31","","25","","24.1","","100.06","","","","-8","","NA"
"-76.60","44.23","KINGSTON A","6104149","2021-03-05 18:00","2021","03","05","18:00","-2.4","","-12.8","","45","","","","33","","21","","24.1","","100.15","","","","-8","","NA"
"-76.60","44.23","KINGSTON A","6104149","2021-03-05 19:00","2021","03","05","19:00","-3.6","","-12.5","","50","","","","33","","19","","24.1","","100.27","","","","-10","","Mostly Cloudy"
"-76.60","44.23","KINGSTON A","6104149","2021-03-05 20:00","2021","03","05","20:00","-4.4","","-13.1","","51","","","","35","","17","","24.1","","100.34","","","","-10","","NA"
"-76.60","44.23","KINGSTON A","6104149","2021-03-05 21:00","2021","03","05","21:00","-5.9","","-12.8","","58","","","","35","","30","","24.1","","100.46","","","","-14","","NA"
"-76.60","44.23","KINGSTON A","6104149","2021-03-05 22:00","2021","03","05","22:00","-7.9","","-15.4","","55","","","","36","","28","","24.1","","100.52","","","","-17","","Mostly Cloudy"
"-76.60","44.23","KINGSTON A","6104149","2021-03-05 23:00","2021","03","05","23:00","-9.3","","-15.7","","60","","","","36","","14","","24.1","","100.56","","","","-16","","NA"
"-76.60","44.23","KINGSTON A","6104149","2021-03-06 00:00","2021","03","06","00:00"
"-76.60","44.23","KINGSTON A","6104149","2021-03-06 01:00","2021","03","06","01:00"
"-76.60","44.23","KINGSTON A","6104149","2021-03-06 02:00","2021","03","06","02:00"
"-76.60","44.23","KINGSTON A","6104149","2021-03-06 03:00","2021","03","06","03:00"
"-76.60","44.23","KINGSTON A","6104149","2021-03-06 04:00","2021","03","06","04:00"
"-76.60","44.23","KINGSTON A","6104149","2021-03-06 05:00","2021","03","06","05:00"
"-76.60","44.23","KINGSTON A","6104149","2021-03-06 06:00","2021","03","06","06:00","-9.0","","-15.4","","60","","","","30","","15","","24.1","","100.75","","","","-16","","Snow"
"-76.60","44.23","KINGSTON A","6104149","2021-03-06 07:00","2021","03","06","07:00","-8.9","","-15.3","","60","","","","31","","17","","24.1","","100.78","","","","-16","","Cloudy"
"-76.60","44.23","KINGSTON A","6104149","2021-03-06 08:00","2021","03","06","08:00","-8.8","","-16.1","","56","","","","33","","22","","24.1","","100.86","","","","-17","","NA"
"-76.60","44.23","KINGSTON A","6104149","2021-03-06 09:00","2021","03","06","09:00","-8.5","","-16.3","","54","","","","33","","20","","24.1","","100.88","","","","-16","","NA"
"-76.60","44.23","KINGSTON A","6104149","2021-03-06 10:00","2021","03","06","10:00","-8.0","","-15.6","","55","","","","32","","16","","24.1","","100.89","","","","-15","","Cloudy"
"-76.60","44.23","KINGSTON A","6104149","2021-03-06 11:00","2021","03","06","11:00","-7.1","","-14.8","","55","","","","31","","16","","24.1","","100.91","","","","-13","","NA"
"-76.60","44.23","KINGSTON A","6104149","2021-03-06 12:00","2021","03","06","12:00","-6.9","","-15.7","","50","","","","29","","18","","24.1","","100.92","","","","-14","","NA"
"-76.60","44.23","KINGSTON A","6104149","2021-03-06 13:00","2021","03","06","13:00","-6.0","","-14.8","","50","","","","25","","12","","24.1","","100.87","","","","-11","","Cloudy"
"-76.60","44.23","KINGSTON A","6104149","2021-03-06 14:00","2021","03","06","14:00","-5.6","","-14.3","","51","","","","25","","17","","24.1","","100.84","","","","-12","","NA"
"-76.60","44.23","KINGSTON A","6104149","2021-03-06 15:00","2021","03","06","15:00","-4.9","","-13.5","","51","","","","27","","8","","24.1","","100.85","","","","-8","","NA"
"-76.60","44.23","KINGSTON A","6104149","2021-03-06 16:00","2021","03","06","16:00","-4.5","","-12.2","","56","","","","28","","11","","24.1","","100.89","","","","-9","","Cloudy"
"-76.60","44.23","KINGSTON A","6104149","2021-03-06 17:00","2021","03","06","17:00","-4.8","","-11.5","","60","","","","26","","8","","24.1","","100.92","","","","-8","","NA"
"-76.60","44.23","KINGSTON A","6104149","2021-03-06 18:00","2021","03","06","18:00","-4.9","","-11.3","","61","","","","2","","5","","24.1","","100.98","","","","-7","","NA"
"-76.60","44.23","KINGSTON A","6104149","2021-03-06 19:00","2021","03","06","19:00","-4.9","","-10.9","","63","","","","36","","2","","24.1","","101.06","","","","-6","","Mostly Cloudy"
"-76.60","44.23","KINGSTON A","6104149","2021-03-06 20:00","2021","03","06","20:00","-5.0","","-11.1","","63","","","","31","","9","","24.1","","101.14","","","","-9","","NA"
"-76.60","44.23","KINGSTON A","6104149","2021-03-06 21:00","2021","03","06","21:00","-5.1","","-13.7","","51","","","","34","","15","","24.1","","101.21","","","","-11","","NA"
"-76.60","44.23","KINGSTON A","6104149","2021-03-06 22:00","2021","03","06","22:00","-6.5","","-14.7","","53","","","","2","","8","","24.1","","101.22","","","","-10","","Mainly Clear"
"-76.60","44.23","KINGSTON A","6104149","2021-03-06 23:00","2021","03","06","23:00","-8.0","","-14.2","","61","","","","2","","10","","24.1","","101.28","","","","-13","","NA"
"-76.60","44.23","KINGSTON A","6104149","2021-03-07 00:00","2021","03","07","00:00"
"-76.60","44.23","KINGSTON A","6104149","2021-03-07 01:00","2021","03","07","01:00"
"-76.60","44.23","KINGSTON A","6104149","2021-03-07 02:00","2021","03","07","02:00"
"-76.60","44.23","KINGSTON A","6104149","2021-03-07 03:00","2021","03","07","03:00"
"-76.60","44.23","KINGSTON A","6104149","2021-03-07 04:00","2021","03","07","04:00"
"-76.60","44.23","KINGSTON A","6104149","2021-03-07 05:00","2021","03","07","05:00"
"-76.60","44.23","KINGSTON A","6104149","2021-03-07 06:00","2021","03","07","06:00","-12.6","","-17.5","","67","","","","27","","7","","24.1","","101.60","","","","-17","","NA"
"-76.60","44.23","KINGSTON A","6104149","2021-03-07 07:00","2021","03","07","07:00","-12.8","","-17.4","","69","","","","31","","9","","24.1","","101.76","","","","-18","","Mainly Clear"
"-76.60","44.23","KINGSTON A","6104149","2021-03-07 08:00","2021","03","07","08:00","-10.8","","-17.6","","58","","","","33","","12","","24.1","","101.81","","","","-17","","NA"
"-76.60","44.23","KINGSTON A","6104149","2021-03-07 09:00","2021","03","07","09:00","-9.5","","-17.3","","53","","","","35","","11","","24.1","","101.87","","","","-15","","NA"
"-76.60","44.23","KINGSTON A","6104149","2021-03-07 10:00","2021","03","07","10:00","-8.7","","-17.8","","48","","","","34","","9","","24.1","","101.93","","","","-13","","Clear"
"-76.60","44.23","KINGSTON A","6104149","2021-03-07 11:00","2021","03","07","11:00","-6.9","","-16.6","","46","","","","35","","12","","24.1","","101.92","","","","-12","","NA"
"-76.60","44.23","KINGSTON A","6104149","2021-03-07 12:00","2021","03","07","12:00","-5.5","","-16.2","","43","","","","28","","5","","24.1","","101.92","","","","-8","","NA"
"-76.60","44.23","KINGSTON A","6104149","2021-03-07 13:00","2021","03","07","13:00","-4.8","","-14.4","","48","","","","22","","11","","24.1","","101.86","","","","-9","","Clear"
"-76.60","44.23","KINGSTON A","6104149","2021-03-07 14:00","2021","03","07","14:00","-4.0","","-14.5","","44","","","","24","","18","","24.1","","101.83","","","","-10","","NA"
"-76.60","44.23","KINGSTON A","6104149","2021-03-07 15:00","2021","03","07","15:00","-3.8","","-14.3","","44","","","","24","","14","","24.1","","101.86","","","","-9","","NA"
"-76.60","44.23","KINGSTON A","6104149","2021-03-07 16:00","2021","03","07","16:00","-3.6","","-14.5","","43","","","","23","","16","","24.1","","101.87","","","","-9","","Clear"
"-76.60","44.23","KINGSTON A","6104149","2021-03-07 17:00","2021","03","07","17:00","-3.4","","-14.4","","43","","","","24","","14","","24.1","","101.86","","","","-8","","NA"
"-76.60","44.23","KINGSTON A","6104149","2021-03-07 18:00","2021","03","07","18:00","-4.3","","-15.5","","42","","","","26","","11","","24.1","","101.88","","","","-9","","NA"
"-76.60","44.23","KINGSTON A","6104149","2021-03-07 19:00","2021","03","07","19:00","-4.7","","-14.6","","46","","","","25","","8","","24.1","","101.93","","","","-8","","Clear"
"-76.60","44.23","KINGSTON A","6104149","2021-03-07 20:00","2021","03","07","20:00","-5.5","","-14.3","","50","","","","25","","9","","24.1","","101.95","","","","-10","","NA"
"-76.60","44.23","KINGSTON A","6104149","2021-03-07 21:00","2021","03","07","21:00","-6.0","","-13.9","","54","","","","25","","10","","24.1","","101.96","","","","-10","","NA"
"-76.60","44.23","KINGSTON A","6104149","2021-03-07 22:00","2021","03","07","22:00","-6.8","","-14.0","","57","","","","24","","8","","24.1","","101.96","","","","-11","","Clear"
"-76.60","44.23","KINGSTON A","6104149","2021-03-07 23:00","2021","03","07","23:00","-7.6","","-15.4","","54","","","","28","","10","","24.1","","101.93","","","","-12","","NA"
"-76.60","44.23","KINGSTON A","6104149","2021-03-08 00:00","2021","03","08","00:00"
"-76.60","44.23","KINGSTON A","6104149","2021-03-08 01:00","2021","03","08","01:00"
"-76.60","44.23","KINGSTON A","6104149","2021-03-08 02:00","2021","03","08","02:00"
"-76.60","44.23","KINGSTON A","6104149","2021-03-08 03:00","2021","03","08","03:00"
"-76.60","44.23","KINGSTON A","6104149","2021-03-08 04:00","2021","03","08","04:00"
"-76.60","44.23","KINGSTON A","6104149","2021-03-08 05:00","2021","03","08","05:00"
"-76.60","44.23","KINGSTON A","6104149","2021-03-08 06:00","2021","03","08","06:00","-14.3","","-17.4","","77","","","","34","","9","","24.1","","102.00","","","","-20","","NA"
"-76.60","44.23","KINGSTON A","6104149","2021-03-08 07:00","2021","03","08","07:00","-13.6","","-17.2","","75","","","","32","","5","","24.1","","102.03","","","","-17","","Mainly Clear"
"-76.60","44.23","KINGSTON A","6104149","2021-03-08 08:00","2021","03","08","08:00","-11.6","","-15.8","","71","","","","32","","4","","24.1","","102.01","","","","-14","","NA"
"-76.60","44.23","KINGSTON A","6104149","2021-03-08 09:00","2021","03","08","09:00","-8.8","","-15.1","","61","","","","23","","7","","24.1","","102.00","","","","-13","","NA"
"-76.60","44.23","KINGSTON A","6104149","2021-03-08 10:00","2021","03","08","10:00","-6.6","","-15.9","","48","","","","22","","8","","24.1","","102.00","","","","-10","","Mainly Clear"
"-76.60","44.23","KINGSTON A","6104149","2021-03-08 11:00","2021","03","08","11:00","-6.2","","-11.9","","64","","","","16","","8","","24.1","","101.94","","","","-10","","NA"
"-76.60","44.23","KINGSTON A","6104149","2021-03-08 12:00","2021","03","08","12:00","-4.4","","-10.3","","64","","","","17","","12","","24.1","","101.89","","","","-9","","NA"
"-76.60","44.23","KINGSTON A","6104149","2021-03-08 13:00","2021","03","08","13:00","-3.2","","-9.8","","61","","","","18","","13","","24.1","","101.81","","","","-8","","Cloudy"
"-76.60","44.23","KINGSTON A","6104149","2021-03-08 14:00","2021","03","08","14:00","-2.0","","-6.2","","73","","","","15","","17","","24.1","","101.67","","","","-7","","NA"
"-76.60","44.23","KINGSTON A","6104149","2021-03-08 15:00","2021","03","08","15:00","-1.1","","-6.5","","67","","","","18","","21","","24.1","","101.57","","","","-7","","NA"
"-76.60","44.23","KINGSTON A","6104149","2021-03-08 16:00","2021","03","08","16:00","-0.8","","-4.8","","74","","","","16","","23","","24.1","","101.48","","","","-7","","Mostly Cloudy"
"-76.60","44.23","KINGSTON A","6104149","2021-03-08 17:00","2021","03","08","17:00","-0.7","","-5.8","","69","","","","17","","19","","24.1","","101.39","","","","-6","","NA"
"-76.60","44.23","KINGSTON A","6104149","2021-03-08 18:00","2021","03","08","18:00","-0.4","","-5.2","","70","","","","16","","18","","24.1","","101.36","","","","-5","","NA"
"-76.60","44.23","KINGSTON A","6104149","2021-03-08 19:00","2021","03","08","19:00","-0.4","","-4.7","","72","","","","17","","13","","24.1","","101.28","","","","-5","","Mostly Cloudy"
"-76.60","44.23","KINGSTON A","6104149","2021-03-08 20:00","2021","03","08","20:00","-0.6","","-4.8","","73","","","","18","","12","","24.1","","101.24","","","","-5","","NA"
"-76.60","44.23","KINGSTON A","6104149","2021-03-08 21:00","2021","03","08","21:00","0.0","","-3.7","","76","","","","18","","9","","24.1","","101.17","","","","-3","","NA"
"-76.60","44.23","KINGSTON A","6104149","2021-03-08 22:00","2021","03","08","22:00","0.5","","-3.5","","75","","","","19","","10","","24.1","","101.15","","","","","","Cloudy"
"-76.60","44.23","KINGSTON A","6104149","2021-03-08 23:00","2021","03","08","23:00","0.5","","-2.7","","79","","","","18","","9","","24.1","","101.09","","","","","","NA"
"-76.60","44.23","KINGSTON A","6104149","2021-03-09 00:00","2021","03","09","00:00"
"-76.60","44.23","KINGSTON A","6104149","2021-03-09 01:00","2021","03","09","01:00"
"-76.60","44.23","KINGSTON A","6104149","2021-03-09 02:00","2021","03","09","02:00"
"-76.60","44.23","KINGSTON A","6104149","2021-03-09 03:00","2021","03","09","03:00"
"-76.60","44.23","KINGSTON A","6104149","2021-03-09 04:00","2021","03","09","04:00"
"-76.60","44.23","KINGSTON A","6104149","2021-03-09 05:00","2021","03","09","05:00"
"-76.60","44.23","KINGSTON A","6104149","2021-03-09 06:00","2021","03","09","06:00","-3.1","","-5.5","","83","","","","30","","5","","24.1","","101.35","","","","-5","","NA"
"-76.60","44.23","KINGSTON A","6104149","2021-03-09 07:00","2021","03","09","07:00","-3.7","","-5.6","","87","","","","25","","8","","19.3","","101.46","","","","-7","","Mainly Clear"
"-76.60","44.23","KINGSTON A","6104149","2021-03-09 08:00","2021","03","09","08:00","-2.0","","-3.9","","87","","","","26","","7","","19.3","","101.56","","","","-5","","NA"
"-76.60","44.23","KINGSTON A","6104149","2021-03-09 09:00","2021","03","09","09:00","0.9","","-2.2","","80","","","","32","","10","","19.3","","101.64","","","","","","NA"
"-76.60","44.23","KINGSTON A","6104149","2021-03-09 10:00","2021","03","09","10:00","2.6","","-2.1","","71","","","","34","","9","","24.1","","101.70","","","","","","Mostly Cloudy"
"-76.60","44.23","KINGSTON A","6104149","2021-03-09 11:00","2021","03","09","11:00","5.2","","-2.7","","57","","","","35","","14","","24.1","","101.73","","","","","","NA"
"-76.60","44.23","KINGSTON A","6104149","2021-03-09 12:00","2021","03","09","12:00","4.7","","-1.4","","65","","","","19","","12","","24.1","","101.75","","","","","","NA"
"-76.60","44.23","KINGSTON A","6104149","2021-03-09 13:00","2021","03","09","13:00","2.5","","-0.9","","78","","","","18","","19","","24.1","","101.77","","","","","","Mainly Clear"
"-76.60","44.23","KINGSTON A","6104149","2021-03-09 14:00","2021","03","09","14:00","2.5","","-0.4","","81","","","","18","","18","","24.1","","101.77","","","","","","NA"
"-76.60","44.23","KINGSTON A","6104149","2021-03-09 15:00","2021","03","09","15:00","2.3","","0.0","","85","","","","17","","12","","24.1","","101.78","","","","","","NA"
"-76.60","44.23","KINGSTON A","6104149","2021-03-09 16:00","2021","03","09","16:00","3.3","","-0.1","","78","","","","20","","18","","24.1","","101.80","","","","","","Mainly Clear"
"-76.60","44.23","KINGSTON A","6104149","2021-03-09 17:00","2021","03","09","17:00","1.6","","0.0","","89","","","","17","","13","","24.1","","101.82","","","","","","NA"
"-76.60","44.23","KINGSTON A","6104149","2021-03-09 18:00","2021","03","09","18:00","0.8","","-0.3","","92","","","","20","","14","","24.1","","101.87","","","","","","NA"
"-76.60","44.23","KINGSTON A","6104149","2021-03-09 19:00","2021","03","09","19:00","0.4","","-0.7","","92","","","","18","","12","","24.1","","101.93","","","","","","Mainly Clear"
"-76.60","44.23","KINGSTON A","6104149","2021-03-09 20:00","2021","03","09","20:00","-0.1","","-0.7","","96","","","","17","","10","","24.1","","101.96","","","","-3","","NA"
"-76.60","44.23","KINGSTON A","6104149","2021-03-09 21:00","2021","03","09","21:00","-0.8","","-1.0","","98","","","","10","","5","","24.1","","102.00","","","","-2","","NA"
"-76.60","44.23","KINGSTON A","6104149","2021-03-09 22:00","2021","03","09","22:00","-1.4","","-1.5","","99","","","","10","","5","","24.1","","101.99","","","","-3","","Clear"
"-76.60","44.23","KINGSTON A","6104149","2021-03-09 23:00","2021","03","09","23:00","-1.7","","-1.9","","99","","","","7","","5","","24.1","","101.96","","","","-4","","NA"
"-76.60","44.23","KINGSTON A","6104149","2021-03-10 00:00","2021","03","10","00:00"
"-76.60","44.23","KINGSTON A","6104149","2021-03-10 01:00","2021","03","10","01:00"
"-76.60","44.23","KINGSTON A","6104149","2021-03-10 02:00","2021","03","10","02:00"
"-76.60","44.23","KINGSTON A","6104149","2021-03-10 03:00","2021","03","10","03:00"
"-76.60","44.23","KINGSTON A","6104149","2021-03-10 04:00","2021","03","10","04:00"
"-76.60","44.23","KINGSTON A","6104149","2021-03-10 05:00","2021","03","10","05:00"
"-76.60","44.23","KINGSTON A","6104149","2021-03-10 06:00","2021","03","10","06:00","-4.4","","-5.3","","94","","","","5","","4","","24.1","","101.84","","","","-6","","NA"
"-76.60","44.23","KINGSTON A","6104149","2021-03-10 07:00","2021","03","10","07:00","-3.2","","-4.2","","93","","","","9","","4","","24.1","","101.77","","","","-5","","Mostly Cloudy"
"-76.60","44.23","KINGSTON A","6104149","2021-03-10 08:00","2021","03","10","08:00","-0.4","","-1.6","","91","","","","36","","3","","24.1","","101.76","","","","-1","","NA"
"-76.60","44.23","KINGSTON A","6104149","2021-03-10 09:00","2021","03","10","09:00","2.1","","-2.3","","72","","","","15","","8","","24.1","","101.71","","","","","","NA"
"-76.60","44.23","KINGSTON A","6104149","2021-03-10 10:00","2021","03","10","10:00","3.6","","-1.9","","67","","","","18","","9","","24.1","","101.68","","","","","","Mainly Clear"
"-76.60","44.23","KINGSTON A","6104149","2021-03-10 11:00","2021","03","10","11:00","4.1","","-1.6","","66","","","","18","","12","","24.1","","101.58","","","","","","NA"
"-76.60","44.23","KINGSTON A","6104149","2021-03-10 12:00","2021","03","10","12:00","5.8","","-0.6","","63","","","","20","","11","","24.1","","101.51","","","","","","NA"
"-76.60","44.23","KINGSTON A","6104149","2021-03-10 13:00","2021","03","10","13:00","7.0","","","M","","M","","","18","","9","","24.1","","","M","","","","","Mainly Clear"
"-76.60","44.23","KINGSTON A","6104149","2021-03-10 14:00","2021","03","10","14:00","8.0","","-0.1","","57","","","","19","","12","","24.1","","101.27","","","","","","NA"
"-76.60","44.23","KINGSTON A","6104149","2021-03-10 15:00","2021","03","10","15:00","8.6","","0.2","","56","","","","21","","10","","24.1","","101.18","","","","","","NA"
"-76.60","44.23","KINGSTON A","6104149","2021-03-10 16:00","2021","03","10","16:00","6.6","","0.5","","65","","","","17","","14","","24.1","","101.08","","","","","","Mostly Cloudy"
"-76.60","44.23","KINGSTON A","6104149","2021-03-10 17:00","2021","03","10","17:00","5.5","","0.0","","68","","","","17","","17","","24.1","","101.02","","","","","","NA"
"-76.60","44.23","KINGSTON A","6104149","2021-03-10 18:00","2021","03","10","18:00","5.1","","-0.3","","68","","","","17","","18","","24.1","","100.98","","","","","","NA"
"-76.60","44.23","KINGSTON A","6104149","2021-03-10 19:00","2021","03","10","19:00","6.0","","-0.5","","63","","","","17","","22","","24.1","","100.98","","","","","","Mostly Cloudy"
"-76.60","44.23","KINGSTON A","6104149","2021-03-10 20:00","2021","03","10","20:00","6.1","","-0.6","","62","","","","17","","28","","24.1","","100.94","","","","","","NA"
"-76.60","44.23","KINGSTON A","6104149","2021-03-10 21:00","2021","03","10","21:00","5.0","","-0.5","","68","","","","17","","25","","24.1","","100.92","","","","","","NA"
"-76.60","44.23","KINGSTON A","6104149","2021-03-10 22:00","2021","03","10","22:00","4.7","","-0.2","","70","","","","17","","21","","24.1","","100.90","","","","","","Mostly Cloudy"
"-76.60","44.23","KINGSTON A","6104149","2021-03-10 23:00","2021","03","10","23:00","5.0","","0.0","","70","","","","18","","26","","24.1","","100.84","","","","","","NA"
"-76.60","44.23","KINGSTON A","6104149","2021-03-11 00:00","2021","03","11","00:00"
"-76.60","44.23","KINGSTON A","6104149","2021-03-11 01:00","2021","03","11","01:00"
"-76.60","44.23","KINGSTON A","6104149","2021-03-11 02:00","2021","03","11","02:00"
"-76.60","44.23","KINGSTON A","6104149","2021-03-11 03:00","2021","03","11","03:00"
"-76.60","44.23","KINGSTON A","6104149","2021-03-11 04:00","2021","03","11","04:00"
"-76.60","44.23","KINGSTON A","6104149","2021-03-11 05:00","2021","03","11","05:00"
"-76.60","44.23","KINGSTON A","6104149","2021-03-11 06:00","2021","03","11","06:00","5.1","","0.5","","72","","","","19","","12","","24.1","","100.57","","","","","","NA"
"-76.60","44.23","KINGSTON A","6104149","2021-03-11 07:00","2021","03","11","07:00","5.2","","0.8","","73","","","","18","","16","","24.1","","100.52","","","","","","Mostly Cloudy"
"-76.60","44.23","KINGSTON A","6104149","2021-03-11 08:00","2021","03","11","08:00","5.5","","0.9","","72","","","","18","","32","","24.1","","100.53","","","","","","NA"
"-76.60","44.23","KINGSTON A","6104149","2021-03-11 09:00","2021","03","11","09:00","4.8","","0.8","","75","","","","18","","25","","24.1","","100.45","","","","","","NA"
"-76.60","44.23","KINGSTON A","6104149","2021-03-11 10:00","2021","03","11","10:00","5.3","","0.6","","72","","","","18","","23","","24.1","","100.42","","","","","","Cloudy"
"-76.60","44.23","KINGSTON A","6104149","2021-03-11 11:00","2021","03","11","11:00","6.8","","1.4","","69","","","","22","","10","","24.1","","100.33","","","","","","NA"
"-76.60","44.23","KINGSTON A","6104149","2021-03-11 12:00","2021","03","11","12:00","8.4","","2.4","","66","","","","20","","21","","24.1","","100.27","","","","","","NA"
"-76.60","44.23","KINGSTON A","6104149","2021-03-11 13:00","2021","03","11","13:00","7.1","","2.3","","71","","","","19","","13","","24.1","","100.18","","","","","","Mostly Cloudy"
"-76.60","44.23","KINGSTON A","6104149","2021-03-11 14:00","2021","03","11","14:00","6.5","","2.9","","78","","","","20","","17","","24.1","","100.02","","","","","","NA"
"-76.60","44.23","KINGSTON A","6104149","2021-03-11 15:00","2021","03","11","15:00","9.5","","5.2","","75","","","","28","","17","","24.1","","100.07","","","","","","NA"
"-76.60","44.23","KINGSTON A","6104149","2021-03-11 16:00","2021","03","11","16:00","12.8","","7.4","","70","","","","24","","20","","24.1","","99.94","","","","","","Mostly Cloudy"
"-76.60","44.23","KINGSTON A","6104149","2021-03-11 17:00","2021","03","11","17:00","7.9","","4.8","","81","","","","19","","11","","24.1","","99.88","","","","","","NA"
"-76.60","44.23","KINGSTON A","6104149","2021-03-11 18:00","2021","03","11","18:00","6.3","","3.4","","82","","","","20","","7","","24.1","","99.82","","","","","","NA"
"-76.60","44.23","KINGSTON A","6104149","2021-03-11 19:00","2021","03","11","19:00","6.5","","3.8","","83","","","","22","","10","","24.1","","99.78","","","","","","Mostly Cloudy"
"-76.60","44.23","KINGSTON A","6104149","2021-03-11 20:00","2021","03","11","20:00","12.1","","7.0","","71","","","","23","","36","","24.1","","99.80","","","","","","NA"
"-76.60","44.23","KINGSTON A","6104149","2021-03-11 21:00","2021","03","11","21:00","9.4","","5.6","","77","","","","24","","27","","24.1","","99.96","","","","","","Rain Showers"
"-76.60","44.23","KINGSTON A","6104149","2021-03-11 22:00","2021","03","11","22:00","10.4","","-0.2","","48","","","","27","","36","","24.1","","100.09","","","","","","Mainly Clear"
"-76.60","44.23","KINGSTON A","6104149","2021-03-11 23:00","2021","03","11","23:00","7.9","","-0.9","","54","","","","27","","32","","24.1","","100.23","","","","","","NA"
"-76.60","44.23","KINGSTON A","6104149","2021-03-12 00:00","2021","03","12","00:00"
"-76.60","44.23","KINGSTON A","6104149","2021-03-12 01:00","2021","03","12","01:00"
"-76.60","44.23","KINGSTON A","6104149","2021-03-12 02:00","2021","03","12","02:00"
"-76.60","44.23","KINGSTON A","6104149","2021-03-12 03:00","2021","03","12","03:00"
"-76.60","44.23","KINGSTON A","6104149","2021-03-12 04:00","2021","03","12","04:00"
"-76.60","44.23","KINGSTON A","6104149","2021-03-12 05:00","2021","03","12","05:00"
"-76.60","44.23","KINGSTON A","6104149","2021-03-12 06:00","2021","03","12","06:00","1.8","","-2.1","","75","","","","26","","15","","24.1","","100.80","","","","","","NA"
"-76.60","44.23","KINGSTON A","6104149","2021-03-12 07:00","2021","03","12","07:00","1.5","","-2.2","","76","","","","24","","9","","24.1","","100.86","","","","","","Clear"
"-76.60","44.23","KINGSTON A","6104149","2021-03-12 08:00","2021","03","12","08:00","2.7","","-2.1","","71","","","","25","","10","","24.1","","100.92","","","","","","NA"
"-76.60","44.23","KINGSTON A","6104149","2021-03-12 09:00","2021","03","12","09:00","3.6","","-2.4","","65","","","","26","","15","","24.1","","100.96","","","","","","NA"
"-76.60","44.23","KINGSTON A","6104149","2021-03-12 10:00","2021","03","12","10:00","4.5","","-0.9","","68","","","","23","","18","","24.1","","100.90","","","","","","Clear"
"-76.60","44.23","KINGSTON A","6104149","2021-03-12 11:00","2021","03","12","11:00","5.1","","-1.7","","61","","","","24","","23","","24.1","","100.86","","","","","","NA"
"-76.60","44.23","KINGSTON A","6104149","2021-03-12 12:00","2021","03","12","12:00","6.1","","-1.7","","57","","","","24","","24","","24.1","","100.72","","","","","","NA"
"-76.60","44.23","KINGSTON A","6104149","2021-03-12 13:00","2021","03","12","13:00","6.7","","-0.6","","59","","","","23","","28","","24.1","","100.65","","","","","","Clear"
"-76.60","44.23","KINGSTON A","6104149","2021-03-12 14:00","2021","03","12","14:00","6.5","","-0.6","","60","","","","24","","32","","24.1","","100.56","","","","","","NA"
"-76.60","44.23","KINGSTON A","6104149","2021-03-12 15:00","2021","03","12","15:00","5.6","","-1.8","","59","","","","25","","27","","24.1","","100.50","","","","","","NA"
"-76.60","44.23","KINGSTON A","6104149","2021-03-12 16:00","2021","03","12","16:00","7.1","","-3.0","","48","","","","28","","43","","24.1","","100.49","","","","","","Mostly Cloudy"
"-76.60","44.23","KINGSTON A","6104149","2021-03-12 17:00","2021","03","12","17:00","5.1","","-6.6","","42","","","","28","","39","","24.1","","100.56","","","","","","NA"
"-76.60","44.23","KINGSTON A","6104149","2021-03-12 18:00","2021","03","12","18:00","2.7","","-7.9","","46","","","","27","","37","","24.1","","100.64","","","","","","NA"
"-76.60","44.23","KINGSTON A","6104149","2021-03-12 19:00","2021","03","12","19:00","0.4","","-10.0","","45","","","","28","","28","","24.1","","100.80","","","","","","Mainly Clear"
"-76.60","44.23","KINGSTON A","6104149","2021-03-12 20:00","2021","03","12","20:00","-0.6","","-10.8","","46","","","","28","","30","","24.1","","100.94","","","","-7","","NA"
"-76.60","44.23","KINGSTON A","6104149","2021-03-12 21:00","2021","03","12","21:00","-1.3","","-10.7","","49","","","","27","","26","","24.1","","101.05","","","","-8","","NA"
"-76.60","44.23","KINGSTON A","6104149","2021-03-12 22:00","2021","03","12","22:00","-1.9","","-11.2","","49","","","","28","","22","","24.1","","101.19","","","","-8","","Clear"
"-76.60","44.23","KINGSTON A","6104149","2021-03-12 23:00","2021","03","12","23:00","-2.1","","-15.1","","37","","","","31","","28","","24.1","","101.35","","","","-9","","NA"
"-76.60","44.23","KINGSTON A","6104149","2021-03-13 00:00","2021","03","13","00:00"
"-76.60","44.23","KINGSTON A","6104149","2021-03-13 01:00","2021","03","13","01:00"
"-76.60","44.23","KINGSTON A","6104149","2021-03-13 02:00","2021","03","13","02:00"
"-76.60","44.23","KINGSTON A","6104149","2021-03-13 03:00","2021","03","13","03:00"
"-76.60","44.23","KINGSTON A","6104149","2021-03-13 04:00","2021","03","13","04:00"
"-76.60","44.23","KINGSTON A","6104149","2021-03-13 05:00","2021","03","13","05:00"
"-76.60","44.23","KINGSTON A","6104149","2021-03-13 06:00","2021","03","13","06:00","-8.0","","-14.5","","60","","","","32","","10","","24.1","","101.80","","","","-13","","NA"
"-76.60","44.23","KINGSTON A","6104149","2021-03-13 07:00","2021","03","13","07:00","-7.6","","-14.2","","59","","","","31","","10","","24.1","","101.83","","","","-12","","Clear"
"-76.60","44.23","KINGSTON A","6104149","2021-03-13 08:00","2021","03","13","08:00","-6.8","","-15.1","","52","","","","32","","12","","24.1","","101.81","","","","-12","","NA"
"-76.60","44.23","KINGSTON A","6104149","2021-03-13 09:00","2021","03","13","09:00","-5.5","","-14.7","","49","","","","34","","11","","24.1","","101.89","","","","-10","","NA"
"-76.60","44.23","KINGSTON A","6104149","2021-03-13 10:00","2021","03","13","10:00","-4.7","","-13.7","","50","","","","23","","15","","24.1","","101.76","","","","-10","","Clear"
"-76.60","44.23","KINGSTON A","6104149","2021-03-13 11:00","2021","03","13","11:00","-3.5","","-12.7","","49","","","","22","","17","","24.1","","101.71","","","","-9","","NA"
"-76.60","44.23","KINGSTON A","6104149","2021-03-13 12:00","2021","03","13","12:00","-2.2","","-12.5","","45","","","","22","","27","","24.1","","101.58","","","","-9","","NA"
"-76.60","44.23","KINGSTON A","6104149","2021-03-13 13:00","2021","03","13","13:00","-1.4","","-11.8","","45","","","","22","","22","","24.1","","101.43","","","","-7","","Mostly Cloudy"
"-76.60","44.23","KINGSTON A","6104149","2021-03-13 14:00","2021","03","13","14:00","-0.2","","-10.4","","46","","","","23","","26","","24.1","","101.29","","","","-6","","NA"
"-76.60","44.23","KINGSTON A","6104149","2021-03-13 15:00","2021","03","13","15:00","-0.4","","-9.2","","52","","","","24","","23","","24.1","","101.18","","","","-6","","NA"
"-76.60","44.23","KINGSTON A","6104149","2021-03-13 16:00","2021","03","13","16:00","-0.3","","-8.1","","56","","","","24","","26","","24.1","","101.11","","","","-6","","Mostly Cloudy"
"-76.60","44.23","KINGSTON A","6104149","2021-03-13 17:00","2021","03","13","17:00","-0.5","","-7.0","","62","","","","23","","24","","24.1","","101.01","","","","-6","","NA"
"-76.60","44.23","KINGSTON A","6104149","2021-03-13 18:00","2021","03","13","18:00","0.0","","-5.6","","66","","","","24","","23","","24.1","","100.90","","","","-6","","NA"
"-76.60","44.23","KINGSTON A","6104149","2021-03-13 19:00","2021","03","13","19:00","0.8","","-4.6","","67","","","","24","","14","","24.1","","100.83","","","","","","Cloudy"
"-76.60","44.23","KINGSTON A","6104149","2021-03-13 20:00","2021","03","13","20:00","1.6","","-4.1","","66","","","","24","","22","","24.1","","100.72","","","","","","NA"
"-76.60","44.23","KINGSTON A","6104149","2021-03-13 21:00","2021","03","13","21:00","1.2","","-2.8","","75","","","","24","","17","","24.1","","100.67","","","","","","NA"
"-76.60","44.23","KINGSTON A","6104149","2021-03-13 22:00","2021","03","13","22:00","0.9","","-2.4","","79","","","","24","","22","","24.1","","100.64","","","","","","Cloudy"
"-76.60","44.23","KINGSTON A","6104149","2021-03-13 23:00","2021","03","13","23:00","0.9","","-2.1","","80","","","","25","","17","","24.1","","100.55","","","","","","NA"
"-76.60","44.23","KINGSTON A","6104149","2021-03-14 00:00","2021","03","14","00:00"
"-76.60","44.23","KINGSTON A","6104149","2021-03-14 01:00","2021","03","14","01:00"
"-76.60","44.23","KINGSTON A","6104149","2021-03-14 02:00","2021","03","14","02:00"
"-76.60","44.23","KINGSTON A","6104149","2021-03-14 03:00","2021","03","14","03:00"
"-76.60","44.23","KINGSTON A","6104149","2021-03-14 04:00","2021","03","14","04:00"
"-76.60","44.23","KINGSTON A","6104149","2021-03-14 05:00","2021","03","14","05:00","-1.4","","-4.6","","79","","","","28","","12","","24.1","","100.45","","","","-5","","NA"
"-76.60","44.23","KINGSTON A","6104149","2021-03-14 06:00","2021","03","14","06:00","-1.6","","-4.6","","80","","","","30","","15","","24.1","","100.49","","","","-6","","NA"
"-76.60","44.23","KINGSTON A","6104149","2021-03-14 07:00","2021","03","14","07:00","-1.1","","-5.1","","75","","","","35","","18","","24.1","","100.53","","","","-6","","Mostly Cloudy"
"-76.60","44.23","KINGSTON A","6104149","2021-03-14 08:00","2021","03","14","08:00","0.2","","-6.7","","60","","","","31","","28","","24.1","","100.62","","","","","","NA"
"-76.60","44.23","KINGSTON A","6104149","2021-03-14 09:00","2021","03","14","09:00","0.9","","-11.0","","41","","","","33","","29","","24.1","","100.66","","","","","","NA"
"-76.60","44.23","KINGSTON A","6104149","2021-03-14 10:00","2021","03","14","10:00","0.4","","-12.5","","38","","","","33","","38","","24.1","","100.74","","","","","","Mostly Cloudy"
"-76.60","44.23","KINGSTON A","6104149","2021-03-14 11:00","2021","03","14","11:00","0.4","","-11.4","","41","","","","33","","36","","24.1","","100.88","","","","","","NA"
"-76.60","44.23","KINGSTON A","6104149","2021-03-14 12:00","2021","03","14","12:00","-1.6","","-10.4","","51","","","","34","","37","","24.1","","101.05","","","","-9","","NA"
"-76.60","44.23","KINGSTON A","6104149","2021-03-14 13:00","2021","03","14","13:00","-1.4","","-14.0","","38","","","","35","","27","","24.1","","101.09","","","","-8","","Mostly Cloudy"
"-76.60","44.23","KINGSTON A","6104149","2021-03-14 14:00","2021","03","14","14:00","-0.8","","-11.8","","44","","","","34","","37","","24.1","","101.10","","","","-8","","NA"
"-76.60","44.23","KINGSTON A","6104149","2021-03-14 15:00","2021","03","14","15:00","-1.0","","-15.1","","34","","","","32","","38","","24.1","","101.12","","","","-9","","NA"
"-76.60","44.23","KINGSTON A","6104149","2021-03-14 16:00","2021","03","14","16:00","-1.6","","-17.2","","30","","","","33","","32","","24.1","","101.15","","","","-9","","Mainly Clear"
"-76.60","44.23","KINGSTON A","6104149","2021-03-14 17:00","2021","03","14","17:00","-2.1","","-16.7","","32","","","","34","","32","","24.1","","101.21","","","","-9","","NA"
"-76.60","44.23","KINGSTON A","6104149","2021-03-14 18:00","2021","03","14","18:00","-3.4","","-16.8","","35","","","","35","","30","","24.1","","101.30","","","","-11","","NA"
"-76.60","44.23","KINGSTON A","6104149","2021-03-14 19:00","2021","03","14","19:00","-4.7","","-17.9","","35","","","","34","","30","","24.1","","101.48","","","","-13","","Clear"
"-76.60","44.23","KINGSTON A","6104149","2021-03-14 20:00","2021","03","14","20:00","-5.7","","-18.8","","35","","","","33","","32","","24.1","","101.61","","","","-14","","NA"
"-76.60","44.23","KINGSTON A","6104149","2021-03-14 21:00","2021","03","14","21:00","-6.8","","-18.8","","39","","","","35","","38","","24.1","","101.69","","","","-16","","NA"
"-76.60","44.23","KINGSTON A","6104149","2021-03-14 22:00","2021","03","14","22:00","-7.6","","-18.6","","41","","","","33","","24","","24.1","","101.82","","","","-16","","Clear"
"-76.60","44.23","KINGSTON A","6104149","2021-03-14 23:00","2021","03","14","23:00"
"-76.60","44.23","KINGSTON A","6104149","2021-03-15 00:00","2021","03","15","00:00"
"-76.60","44.23","KINGSTON A","6104149","2021-03-15 01:00","2021","03","15","01:00"
"-76.60","44.23","KINGSTON A","6104149","2021-03-15 02:00","2021","03","15","02:00"
"-76.60","44.23","KINGSTON A","6104149","2021-03-15 03:00","2021","03","15","03:00"
"-76.60","44.23","KINGSTON A","6104149","2021-03-15 04:00","2021","03","15","04:00"
"-76.60","44.23","KINGSTON A","6104149","2021-03-15 05:00","2021","03","15","05:00","-11.6","","-19.8","","51","","","","34","","19","","24.1","","102.09","","","","-20","","NA"
"-76.60","44.23","KINGSTON A","6104149","2021-03-15 06:00","2021","03","15","06:00","-11.9","","-19.6","","53","","","","32","","20","","24.1","","102.16","","","","-20","","NA"
"-76.60","44.23","KINGSTON A","6104149","2021-03-15 07:00","2021","03","15","07:00","-11.4","","-19.6","","51","","","","33","","13","","24.1","","102.23","","","","-18","","Clear"
"-76.60","44.23","KINGSTON A","6104149","2021-03-15 08:00","2021","03","15","08:00","-10.4","","-21.1","","42","","","","1","","26","","24.1","","102.27","","","","-19","","NA"
"-76.60","44.23","KINGSTON A","6104149","2021-03-15 09:00","2021","03","15","09:00","-9.7","","-20.8","","40","","","","32","","25","","24.1","","102.35","","","","-18","","NA"
"-76.60","44.23","KINGSTON A","6104149","2021-03-15 10:00","2021","03","15","10:00","-8.5","","-21.3","","35","","","","36","","19","","24.1","","102.34","","","","-16","","Clear"
"-76.60","44.23","KINGSTON A","6104149","2021-03-15 11:00","2021","03","15","11:00","-7.2","","-21.5","","31","","","","35","","19","","24.1","","102.29","","","","-14","","NA"
"-76.60","44.23","KINGSTON A","6104149","2021-03-15 12:00","2021","03","15","12:00","-6.2","","-21.3","","30","","","","34","","10","","24.1","","102.21","","","","-11","","NA"
"-76.60","44.23","KINGSTON A","6104149","2021-03-15 13:00","2021","03","15","13:00","-5.1","","-21.9","","26","","","","34","","19","","24.1","","102.11","","","","-12","","Clear"
"-76.60","44.23","KINGSTON A","6104149","2021-03-15 14:00","2021","03","15","14:00","-3.6","","-22.9","","21","","","","34","","21","","24.1","","102.03","","","","-10","","NA"
"-76.60","44.23","KINGSTON A","6104149","2021-03-15 15:00","2021","03","15","15:00","-3.1","","-22.4","","21","","","","32","","10","","24.1","","101.95","","","","-7","","NA"
"-76.60","44.23","KINGSTON A","6104149","2021-03-15 16:00","2021","03","15","16:00","-3.1","","-23.0","","20","","","","2","","4","","24.1","","101.90","","","","-5","","Mainly Clear"
"-76.60","44.23","KINGSTON A","6104149","2021-03-15 17:00","2021","03","15","17:00","-4.2","","-14.9","","43","","","","19","","15","","24.1","","101.89","","","","-10","","NA"
"-76.60","44.23","KINGSTON A","6104149","2021-03-15 18:00","2021","03","15","18:00","-5.2","","-14.7","","48","","","","21","","14","","24.1","","101.88","","","","-11","","NA"
"-76.60","44.23","KINGSTON A","6104149","2021-03-15 19:00","2021","03","15","19:00","-5.7","","-13.6","","54","","","","23","","16","","24.1","","101.88","","","","-12","","Mainly Clear"
"-76.60","44.23","KINGSTON A","6104149","2021-03-15 20:00","2021","03","15","20:00","-6.0","","-13.0","","58","","","","23","","13","","24.1","","101.86","","","","-11","","NA"
"-76.60","44.23","KINGSTON A","6104149","2021-03-15 21:00","2021","03","15","21:00","-6.9","","-13.3","","61","","","","36","","2","","24.1","","101.70","","","","-8","","NA"
"-76.60","44.23","KINGSTON A","6104149","2021-03-15 22:00","2021","03","15","22:00","-6.1","","-12.5","","61","","","","22","","9","","24.1","","101.67","","","","-10","","Clear"
"-76.60","44.23","KINGSTON A","6104149","2021-03-15 23:00","2021","03","15","23:00"
"-76.60","44.23","KINGSTON A","6104149","2021-03-16 00:00","2021","03","16","00:00"
"-76.60","44.23","KINGSTON A","6104149","2021-03-16 01:00","2021","03","16","01:00"
"-76.60","44.23","KINGSTON A","6104149","2021-03-16 02:00","2021","03","16","02:00"
"-76.60","44.23","KINGSTON A","6104149","2021-03-16 03:00","2021","03","16","03:00"
"-76.60","44.23","KINGSTON A","6104149","2021-03-16 04:00","2021","03","16","04:00"
"-76.60","44.23","KINGSTON A","6104149","2021-03-16 05:00","2021","03","16","05:00","-5.7","","-13.5","","54","","","","12","","15","","24.1","","101.44","","","","-11","","NA"
"-76.60","44.23","KINGSTON A","6104149","2021-03-16 06:00","2021","03","16","06:00","-6.2","","-12.7","","60","","","","12","","11","","24.1","","101.41","","","","-11","","NA"
"-76.60","44.23","KINGSTON A","6104149","2021-03-16 07:00","2021","03","16","07:00","-5.8","","-12.9","","58","","","","7","","13","","24.1","","101.34","","","","-11","","Mostly Cloudy"
"-76.60","44.23","KINGSTON A","6104149","2021-03-16 08:00","2021","03","16","08:00","-5.1","","-12.5","","56","","","","6","","9","","24.1","","101.31","","","","-9","","NA"
"-76.60","44.23","KINGSTON A","6104149","2021-03-16 09:00","2021","03","16","09:00","-3.7","","-14.6","","43","","","","6","","14","","24.1","","101.19","","","","-9","","NA"
"-76.60","44.23","KINGSTON A","6104149","2021-03-16 10:00","2021","03","16","10:00","-2.9","","-14.1","","42","","","","8","","18","","24.1","","101.14","","","","-9","","Cloudy"
"-76.60","44.23","KINGSTON A","6104149","2021-03-16 11:00","2021","03","16","11:00","-0.4","","-15.0","","32","","","","9","","11","","24.1","","101.07","","","","-4","","NA"
"-76.60","44.23","KINGSTON A","6104149","2021-03-16 12:00","2021","03","16","12:00","0.2","","-17.6","","25","","","","11","","14","","24.1","","101.06","","","","","","NA"
"-76.60","44.23","KINGSTON A","6104149","2021-03-16 13:00","2021","03","16","13:00","1.1","","-16.2","","26","","","","7","","14","","24.1","","100.97","","","","","","Cloudy"
"-76.60","44.23","KINGSTON A","6104149","2021-03-16 14:00","2021","03","16","14:00","2.3","","-15.3","","26","","","","9","","12","","24.1","","100.90","","","","","","NA"
"-76.60","44.23","KINGSTON A","6104149","2021-03-16 15:00","2021","03","16","15:00","2.3","","-16.9","","23","","","","13","","10","","24.1","","100.89","","","","","","NA"
"-76.60","44.23","KINGSTON A","6104149","2021-03-16 16:00","2021","03","16","16:00","1.8","","-16.1","","25","","","","15","","9","","24.1","","100.86","","","","","","Cloudy"
"-76.60","44.23","KINGSTON A","6104149","2021-03-16 17:00","2021","03","16","17:00","0.4","","-5.6","","64","","","","19","","13","","24.1","","100.85","","","","","","NA"
"-76.60","44.23","KINGSTON A","6104149","2021-03-16 18:00","2021","03","16","18:00","0.1","","-5.4","","66","","","","18","","7","","24.1","","100.84","","","","","","NA"
"-76.60","44.23","KINGSTON A","6104149","2021-03-16 19:00","2021","03","16","19:00","0.2","","-5.3","","67","","","","17","","4","","24.1","","100.84","","","","","","Mostly Cloudy"
"-76.60","44.23","KINGSTON A","6104149","2021-03-16 20:00","2021","03","16","20:00","-0.1","","-3.2","","80","","","","17","","11","","24.1","","100.86","","","","-4","","NA"
"-76.60","44.23","KINGSTON A","6104149","2021-03-16 21:00","2021","03","16","21:00","0.1","","-4.1","","74","","","","17","","16","","24.1","","100.88","","","","","","NA"
"-76.60","44.23","KINGSTON A","6104149","2021-03-16 22:00","2021","03","16","22:00","-0.1","","-4.0","","75","","","","14","","12","","24.1","","100.89","","","","-4","","Mainly Clear"
"-76.60","44.23","KINGSTON A","6104149","2021-03-16 23:00","2021","03","16","23:00"
"-76.60","44.23","KINGSTON A","6104149","2021-03-17 00:00","2021","03","17","00:00"
"-76.60","44.23","KINGSTON A","6104149","2021-03-17 01:00","2021","03","17","01:00"
"-76.60","44.23","KINGSTON A","6104149","2021-03-17 02:00","2021","03","17","02:00"
"-76.60","44.23","KINGSTON A","6104149","2021-03-17 03:00","2021","03","17","03:00"
"-76.60","44.23","KINGSTON A","6104149","2021-03-17 04:00","2021","03","17","04:00"
"-76.60","44.23","KINGSTON A","6104149","2021-03-17 05:00","2021","03","17","05:00","-1.2","","-4.7","","77","","","","6","","5","","24.1","","100.91","","","","-3","","NA"
"-76.60","44.23","KINGSTON A","6104149","2021-03-17 06:00","2021","03","17","06:00","-1.1","","-4.7","","77","","","","6","","6","","24.1","","100.94","","","","-3","","NA"
"-76.60","44.23","KINGSTON A","6104149","2021-03-17 07:00","2021","03","17","07:00","-0.6","","-4.5","","75","","","","36","","2","","24.1","","100.98","","","","-1","","Mostly Cloudy"
"-76.60","44.23","KINGSTON A","6104149","2021-03-17 08:00","2021","03","17","08:00","0.4","","-3.9","","73","","","","5","","4","","24.1","","100.97","","","","","","NA"
"-76.60","44.23","KINGSTON A","6104149","2021-03-17 09:00","2021","03","17","09:00","1.6","","-3.8","","67","","","","10","","6","","24.1","","100.95","","","","","","NA"
"-76.60","44.23","KINGSTON A","6104149","2021-03-17 10:00","2021","03","17","10:00","1.9","","-3.3","","68","","","","15","","10","","24.1","","100.91","","","","","","Cloudy"
"-76.60","44.23","KINGSTON A","6104149","2021-03-17 11:00","2021","03","17","11:00","1.9","","-3.5","","68","","","","16","","10","","17.7","","100.90","","","","","","NA"
"-76.60","44.23","KINGSTON A","6104149","2021-03-17 12:00","2021","03","17","12:00","3.3","","-3.0","","64","","","","16","","12","","16.1","","100.81","","","","","","NA"
"-76.60","44.23","KINGSTON A","6104149","2021-03-17 13:00","2021","03","17","13:00","2.9","","-3.4","","63","","","","17","","12","","16.1","","100.72","","","","","","Cloudy"
"-76.60","44.23","KINGSTON A","6104149","2021-03-17 14:00","2021","03","17","14:00","4.0","","-3.2","","60","","","","18","","8","","19.3","","100.65","","","","","","NA"
"-76.60","44.23","KINGSTON A","6104149","2021-03-17 15:00","2021","03","17","15:00","3.8","","-3.2","","60","","","","19","","9","","16.1","","100.64","","","","","","NA"
"-76.60","44.23","KINGSTON A","6104149","2021-03-17 16:00","2021","03","17","16:00","4.1","","-2.8","","61","","","","20","","8","","19.3","","100.67","","","","","","Cloudy"
"-76.60","44.23","KINGSTON A","6104149","2021-03-17 17:00","2021","03","17","17:00","3.8","","-3.1","","61","","","","36","","3","","19.3","","100.61","","","","","","NA"
"-76.60","44.23","KINGSTON A","6104149","2021-03-17 18:00","2021","03","17","18:00","1.6","","-2.3","","76","","","","16","","5","","19.3","","100.57","","","","","","NA"
"-76.60","44.23","KINGSTON A","6104149","2021-03-17 19:00","2021","03","17","19:00","0.8","","-3.2","","75","","","","30","","5","","24.1","","100.70","","","","","","Cloudy"
"-76.60","44.23","KINGSTON A","6104149","2021-03-17 20:00","2021","03","17","20:00","1.6","","-3.1","","71","","","","36","","1","","24.1","","100.67","","","","","","NA"
"-76.60","44.23","KINGSTON A","6104149","2021-03-17 21:00","2021","03","17","21:00","2.1","","-3.0","","69","","","","36","","3","","24.1","","100.68","","","","","","NA"
"-76.60","44.23","KINGSTON A","6104149","2021-03-17 22:00","2021","03","17","22:00","1.8","","-2.0","","76","","","","36","","2","","19.3","","100.52","","","","","","Cloudy"
"-76.60","44.23","KINGSTON A","6104149","2021-03-17 23:00","2021","03","17","23:00"
"-76.60","44.23","KINGSTON A","6104149","2021-03-18 00:00","2021","03","18","00:00"
"-76.60","44.23","KINGSTON A","6104149","2021-03-18 01:00","2021","03","18","01:00"
"-76.60","44.23","KINGSTON A","6104149","2021-03-18 02:00","2021","03","18","02:00"
"-76.60","44.23","KINGSTON A","6104149","2021-03-18 03:00","2021","03","18","03:00"
"-76.60","44.23","KINGSTON A","6104149","2021-03-18 04:00","2021","03","18","04:00"
"-76.60","44.23","KINGSTON A","6104149","2021-03-18 05:00","2021","03","18","05:00","1.3","","0.6","","96","","","","34","","13","","12.9","","100.54","","","","","","Rain"
"-76.60","44.23","KINGSTON A","6104149","2021-03-18 06:00","2021","03","18","06:00","1.7","","1.3","","97","","","","1","","7","","8.1","","100.54","","","","","","Rain,Fog"
"-76.60","44.23","KINGSTON A","6104149","2021-03-18 07:00","2021","03","18","07:00","2.3","","1.5","","94","","","","1","","10","","8.1","","100.56","","","","","","Rain,Fog"
"-76.60","44.23","KINGSTON A","6104149","2021-03-18 08:00","2021","03","18","08:00","2.5","","1.7","","94","","","","4","","5","","9.7","","100.57","","","","","","Fog"
"-76.60","44.23","KINGSTON A","6104149","2021-03-18 09:00","2021","03","18","09:00","3.6","","1.7","","88","","","","2","","10","","14.5","","100.60","","","","","","NA"
"-76.60","44.23","KINGSTON A","6104149","2021-03-18 10:00","2021","03","18","10:00","4.0","","0.5","","78","","","","4","","23","","24.1","","100.62","","","","","","Cloudy"
"-76.60","44.23","KINGSTON A","6104149","2021-03-18 11:00","2021","03","18","11:00","3.9","","-0.2","","74","","","","2","","25","","24.1","","100.64","","","","","","NA"
"-76.60","44.23","KINGSTON A","6104149","2021-03-18 12:00","2021","03","18","12:00","4.2","","-0.8","","70","","","","2","","25","","24.1","","100.68","","","","","","NA"
"-76.60","44.23","KINGSTON A","6104149","2021-03-18 13:00","2021","03","18","13:00","4.5","","-0.6","","69","","","","2","","20","","24.1","","100.65","","","","","","Cloudy"
"-76.60","44.23","KINGSTON A","6104149","2021-03-18 14:00","2021","03","18","14:00","5.4","","-1.6","","60","","","","2","","23","","24.1","","100.59","","","","","","NA"
"-76.60","44.23","KINGSTON A","6104149","2021-03-18 15:00","2021","03","18","15:00","5.2","","-2.8","","56","","","","1","","19","","24.1","","100.60","","","","","","NA"
"-76.60","44.23","KINGSTON A","6104149","2021-03-18 16:00","2021","03","18","16:00","4.7","","-6.7","","43","","","","2","","19","","24.1","","100.62","","","","","","Cloudy"
"-76.60","44.23","KINGSTON A","6104149","2021-03-18 17:00","2021","03","18","17:00","3.9","","-11.6","","31","","","","2","","32","","24.1","","100.78","","","","","","NA"
"-76.60","44.23","KINGSTON A","6104149","2021-03-18 18:00","2021","03","18","18:00","2.6","","-13.8","","29","","","","3","","28","","24.1","","100.86","","","","","","NA"
"-76.60","44.23","KINGSTON A","6104149","2021-03-18 19:00","2021","03","18","19:00","1.7","","-14.0","","30","","","","2","","23","","24.1","","100.94","","","","","","Cloudy"
"-76.60","44.23","KINGSTON A","6104149","2021-03-18 20:00","2021","03","18","20:00","0.7","","-17.0","","25","","","","2","","33","","24.1","","101.03","","","","","","NA"
"-76.60","44.23","KINGSTON A","6104149","2021-03-18 21:00","2021","03","18","21:00","-0.4","","-15.3","","32","","","","1","","24","","24.1","","101.06","","","","-6","","NA"
"-76.60","44.23","KINGSTON A","6104149","2021-03-18 22:00","2021","03","18","22:00","-1.4","","-15.0","","35","","","","1","","23","","24.1","","101.12","","","","-7","","Cloudy"
"-76.60","44.23","KINGSTON A","6104149","2021-03-18 23:00","2021","03","18","23:00"
"-76.60","44.23","KINGSTON A","6104149","2021-03-19 00:00","2021","03","19","00:00"
"-76.60","44.23","KINGSTON A","6104149","2021-03-19 01:00","2021","03","19","01:00"
"-76.60","44.23","KINGSTON A","6104149","2021-03-19 02:00","2021","03","19","02:00"
"-76.60","44.23","KINGSTON A","6104149","2021-03-19 03:00","2021","03","19","03:00"
"-76.60","44.23","KINGSTON A","6104149","2021-03-19 04:00","2021","03","19","04:00"
"-76.60","44.23","KINGSTON A","6104149","2021-03-19 05:00","2021","03","19","05:00","-6.9","","-16.8","","46","","","","36","","23","","24.1","","101.76","","","","-14","","NA"
"-76.60","44.23","KINGSTON A","6104149","2021-03-19 06:00","2021","03","19","06:00","-7.5","","-16.3","","50","","","","36","","16","","24.1","","101.89","","","","-14","","NA"
"-76.60","44.23","KINGSTON A","6104149","2021-03-19 07:00","2021","03","19","07:00","-7.0","","-16.8","","46","","","","35","","25","","24.1","","102.02","","","","-15","","Clear"
"-76.60","44.23","KINGSTON A","6104149","2021-03-19 08:00","2021","03","19","08:00","-5.9","","-16.7","","42","","","","36","","24","","24.1","","102.13","","","","-13","","NA"
"-76.60","44.23","KINGSTON A","6104149","2021-03-19 09:00","2021","03","19","09:00","-4.6","","-17.1","","37","","","","35","","29","","24.1","","102.17","","","","-12","","NA"
"-76.60","44.23","KINGSTON A","6104149","2021-03-19 10:00","2021","03","19","10:00","-2.7","","-17.4","","32","","","","35","","28","","24.1","","102.21","","","","-10","","Clear"
"-76.60","44.23","KINGSTON A","6104149","2021-03-19 11:00","2021","03","19","11:00","-2.0","","-17.5","","30","","","","2","","21","","24.1","","102.21","","","","-8","","NA"
"-76.60","44.23","KINGSTON A","6104149","2021-03-19 12:00","2021","03","19","12:00","-0.8","","-17.8","","27","","","","1","","19","","24.1","","102.19","","","","-6","","NA"
"-76.60","44.23","KINGSTON A","6104149","2021-03-19 13:00","2021","03","19","13:00","0.6","","-17.2","","25","","","","1","","16","","24.1","","102.12","","","","","","Clear"
"-76.60","44.23","KINGSTON A","6104149","2021-03-19 14:00","2021","03","19","14:00","1.7","","-16.5","","25","","","","30","","7","","24.1","","102.06","","","","","","NA"
"-76.60","44.23","KINGSTON A","6104149","2021-03-19 15:00","2021","03","19","15:00","-0.3","","-11.0","","44","","","","19","","24","","24.1","","102.04","","","","-6","","NA"
"-76.60","44.23","KINGSTON A","6104149","2021-03-19 16:00","2021","03","19","16:00","0.0","","-8.9","","51","","","","19","","24","","24.1","","102.01","","","","-6","","Clear"
"-76.60","44.23","KINGSTON A","6104149","2021-03-19 17:00","2021","03","19","17:00","-0.7","","-9.0","","54","","","","20","","21","","24.1","","102.02","","","","-6","","NA"
"-76.60","44.23","KINGSTON A","6104149","2021-03-19 18:00","2021","03","19","18:00","-1.3","","-7.6","","62","","","","22","","17","","24.1","","102.02","","","","-6","","NA"
"-76.60","44.23","KINGSTON A","6104149","2021-03-19 19:00","2021","03","19","19:00","-1.2","","-8.2","","59","","","","23","","20","","24.1","","102.04","","","","-7","","Clear"
"-76.60","44.23","KINGSTON A","6104149","2021-03-19 20:00","2021","03","19","20:00","-1.6","","-7.3","","65","","","","24","","14","","24.1","","102.07","","","","-6","","NA"
"-76.60","44.23","KINGSTON A","6104149","2021-03-19 21:00","2021","03","19","21:00","-1.7","","-6.3","","71","","","","24","","12","","24.1","","102.11","","","","-6","","NA"
"-76.60","44.23","KINGSTON A","6104149","2021-03-19 22:00","2021","03","19","22:00","-2.2","","-6.4","","73","","","","22","","12","","24.1","","102.11","","","","-6","","Clear"
"-76.60","44.23","KINGSTON A","6104149","2021-03-19 23:00","2021","03","19","23:00"
"-76.60","44.23","KINGSTON A","6104149","2021-03-20 00:00","2021","03","20","00:00"
"-76.60","44.23","KINGSTON A","6104149","2021-03-20 01:00","2021","03","20","01:00"
"-76.60","44.23","KINGSTON A","6104149","2021-03-20 02:00","2021","03","20","02:00"
"-76.60","44.23","KINGSTON A","6104149","2021-03-20 03:00","2021","03","20","03:00"
"-76.60","44.23","KINGSTON A","6104149","2021-03-20 04:00","2021","03","20","04:00"
"-76.60","44.23","KINGSTON A","6104149","2021-03-20 05:00","2021","03","20","05:00","-1.6","","-3.7","","85","","","","23","","10","","24.1","","102.19","","","","-5","","NA"
"-76.60","44.23","KINGSTON A","6104149","2021-03-20 06:00","2021","03","20","06:00","-1.5","","-3.8","","84","","","","25","","10","","24.1","","102.21","","","","-5","","NA"
"-76.60","44.23","KINGSTON A","6104149","2021-03-20 07:00","2021","03","20","07:00","-0.9","","-3.8","","81","","","","24","","8","","24.1","","102.25","","","","-4","","Mainly Clear"
"-76.60","44.23","KINGSTON A","6104149","2021-03-20 08:00","2021","03","20","08:00","1.0","","-4.4","","67","","","","25","","9","","24.1","","102.26","","","","","","NA"
"-76.60","44.23","KINGSTON A","6104149","2021-03-20 09:00","2021","03","20","09:00","4.8","","-5.0","","49","","","","27","","16","","24.1","","102.27","","","","","","NA"
"-76.60","44.23","KINGSTON A","6104149","2021-03-20 10:00","2021","03","20","10:00","7.0","","-5.6","","40","","","","28","","12","","24.1","","102.26","","","","","","Mainly Clear"
"-76.60","44.23","KINGSTON A","6104149","2021-03-20 11:00","2021","03","20","11:00","9.1","","-5.7","","35","","","","27","","16","","24.1","","102.23","","","","","","NA"
"-76.60","44.23","KINGSTON A","6104149","2021-03-20 12:00","2021","03","20","12:00","9.9","","-5.2","","34","","","","23","","18","","24.1","","102.20","","","","","","NA"
"-76.60","44.23","KINGSTON A","6104149","2021-03-20 13:00","2021","03","20","13:00","6.2","","0.2","","65","","","","19","","22","","24.1","","102.16","","","","","","Mostly Cloudy"
"-76.60","44.23","KINGSTON A","6104149","2021-03-20 14:00","2021","03","20","14:00","9.7","","0.5","","53","","","","20","","22","","24.1","","102.11","","","","","","NA"
"-76.60","44.23","KINGSTON A","6104149","2021-03-20 15:00","2021","03","20","15:00","11.3","","-1.1","","42","","","","23","","24","","24.1","","102.07","","","","","","NA"
"-76.60","44.23","KINGSTON A","6104149","2021-03-20 16:00","2021","03","20","16:00","10.6","","-1.4","","43","","","","22","","17","","24.1","","102.05","","","","","","Mainly Clear"
"-76.60","44.23","KINGSTON A","6104149","2021-03-20 17:00","2021","03","20","17:00","9.6","","-2.2","","44","","","","23","","22","","24.1","","102.08","","","","","","NA"
"-76.60","44.23","KINGSTON A","6104149","2021-03-20 18:00","2021","03","20","18:00","6.7","","-2.4","","52","","","","23","","18","","24.1","","102.11","","","","","","NA"
"-76.60","44.23","KINGSTON A","6104149","2021-03-20 19:00","2021","03","20","19:00","4.1","","-3.1","","59","","","","23","","15","","24.1","","102.15","","","","","","Clear"
"-76.60","44.23","KINGSTON A","6104149","2021-03-20 20:00","2021","03","20","20:00","4.4","","-4.0","","54","","","","25","","13","","24.1","","102.18","","","","","","NA"
"-76.60","44.23","KINGSTON A","6104149","2021-03-20 21:00","2021","03","20","21:00","3.3","","-3.8","","59","","","","25","","11","","24.1","","102.19","","","","","","NA"
"-76.60","44.23","KINGSTON A","6104149","2021-03-20 22:00","2021","03","20","22:00","3.5","","-6.3","","49","","","","25","","10","","24.1","","102.18","","","","","","Clear"
"-76.60","44.23","KINGSTON A","6104149","2021-03-20 23:00","2021","03","20","23:00"
"-76.60","44.23","KINGSTON A","6104149","2021-03-21 00:00","2021","03","21","00:00"
"-76.60","44.23","KINGSTON A","6104149","2021-03-21 01:00","2021","03","21","01:00"
"-76.60","44.23","KINGSTON A","6104149","2021-03-21 02:00","2021","03","21","02:00"
"-76.60","44.23","KINGSTON A","6104149","2021-03-21 03:00","2021","03","21","03:00"
"-76.60","44.23","KINGSTON A","6104149","2021-03-21 04:00","2021","03","21","04:00"
"-76.60","44.23","KINGSTON A","6104149","2021-03-21 05:00","2021","03","21","05:00","-1.1","","-1.5","","97","","","","17","","5","","24.1","","102.29","","","","-3","","NA"
"-76.60","44.23","KINGSTON A","6104149","2021-03-21 06:00","2021","03","21","06:00","-2.5","","-2.8","","98","","","","15","","3","","24.1","","102.33","","","","-4","","NA"
"-76.60","44.23","KINGSTON A","6104149","2021-03-21 07:00","2021","03","21","07:00","-2.1","","-2.6","","96","","","","16","","7","","24.1","","102.37","","","","-5","","Clear"
"-76.60","44.23","KINGSTON A","6104149","2021-03-21 08:00","2021","03","21","08:00","2.5","","-0.9","","78","","","","17","","14","","24.1","","102.39","","","","","","NA"
"-76.60","44.23","KINGSTON A","6104149","2021-03-21 09:00","2021","03","21","09:00","3.9","","-1.4","","69","","","","19","","13","","24.1","","102.42","","","","","","NA"
"-76.60","44.23","KINGSTON A","6104149","2021-03-21 10:00","2021","03","21","10:00","4.8","","-3.3","","55","","","","18","","12","","24.1","","102.43","","","","","","Clear"
"-76.60","44.23","KINGSTON A","6104149","2021-03-21 11:00","2021","03","21","11:00","5.4","","-2.0","","59","","","","18","","10","","24.1","","102.40","","","","","","NA"
"-76.60","44.23","KINGSTON A","6104149","2021-03-21 12:00","2021","03","21","12:00","5.8","","-2.8","","54","","","","18","","10","","24.1","","102.31","","","","","","NA"
"-76.60","44.23","KINGSTON A","6104149","2021-03-21 13:00","2021","03","21","13:00","7.1","","-2.9","","49","","","","16","","10","","24.1","","102.24","","","","","","Clear"
"-76.60","44.23","KINGSTON A","6104149","2021-03-21 14:00","2021","03","21","14:00","9.4","","-4.1","","38","","","","19","","10","","24.1","","102.18","","","","","","NA"
"-76.60","44.23","KINGSTON A","6104149","2021-03-21 15:00","2021","03","21","15:00","10.0","","-4.5","","36","","","","18","","11","","24.1","","102.12","","","","","","NA"
"-76.60","44.23","KINGSTON A","6104149","2021-03-21 16:00","2021","03","21","16:00","10.3","","-6.0","","31","","","","18","","8","","24.1","","102.05","","","","","","Clear"
"-76.60","44.23","KINGSTON A","6104149","2021-03-21 17:00","2021","03","21","17:00","10.0","","-4.7","","35","","","","16","","5","","24.1","","102.01","","","","","","NA"
"-76.60","44.23","KINGSTON A","6104149","2021-03-21 18:00","2021","03","21","18:00","8.6","","-6.0","","35","","","","36","","2","","24.1","","101.96","","","","","","NA"
"-76.60","44.23","KINGSTON A","6104149","2021-03-21 19:00","2021","03","21","19:00","6.4","","-6.0","","41","","","","6","","6","","24.1","","101.91","","","","","","Clear"
"-76.60","44.23","KINGSTON A","6104149","2021-03-21 20:00","2021","03","21","20:00","4.1","","-5.6","","49","","","","6","","5","","24.1","","101.89","","","","","","NA"
"-76.60","44.23","KINGSTON A","6104149","2021-03-21 21:00","2021","03","21","21:00","2.6","","-5.3","","56","","","","5","","7","","24.1","","101.85","","","","","","NA"
"-76.60","44.23","KINGSTON A","6104149","2021-03-21 22:00","2021","03","21","22:00","-0.1","","-5.4","","68","","","","4","","7","","24.1","","101.80","","","","-3","","Clear"
"-76.60","44.23","KINGSTON A","6104149","2021-03-21 23:00","2021","03","21","23:00"
"-76.60","44.23","KINGSTON A","6104149","2021-03-22 00:00","2021","03","22","00:00"
"-76.60","44.23","KINGSTON A","6104149","2021-03-22 01:00","2021","03","22","01:00"
"-76.60","44.23","KINGSTON A","6104149","2021-03-22 02:00","2021","03","22","02:00"
"-76.60","44.23","KINGSTON A","6104149","2021-03-22 03:00","2021","03","22","03:00"
"-76.60","44.23","KINGSTON A","6104149","2021-03-22 04:00","2021","03","22","04:00"
"-76.60","44.23","KINGSTON A","6104149","2021-03-22 05:00","2021","03","22","05:00","1.8","","-4.8","","62","","","","23","","5","","24.1","","101.68","","","","","","NA"
"-76.60","44.23","KINGSTON A","6104149","2021-03-22 06:00","2021","03","22","06:00","1.7","","-3.8","","67","","","","18","","7","","24.1","","101.71","","","","","","NA"
"-76.60","44.23","KINGSTON A","6104149","2021-03-22 07:00","2021","03","22","07:00","3.3","","-2.3","","67","","","","20","","6","","24.1","","101.73","","","","","","Clear"
"-76.60","44.23","KINGSTON A","6104149","2021-03-22 08:00","2021","03","22","08:00","5.5","","-3.0","","54","","","","20","","11","","24.1","","101.73","","","","","","NA"
"-76.60","44.23","KINGSTON A","6104149","2021-03-22 09:00","2021","03","22","09:00","5.8","","-2.4","","56","","","","19","","14","","24.1","","101.71","","","","","","NA"
"-76.60","44.23","KINGSTON A","6104149","2021-03-22 10:00","2021","03","22","10:00","6.0","","-1.6","","58","","","","18","","17","","24.1","","101.67","","","","","","Mainly Clear"
"-76.60","44.23","KINGSTON A","6104149","2021-03-22 11:00","2021","03","22","11:00","7.6","","-1.4","","53","","","","17","","18","","24.1","","101.58","","","","","","NA"
"-76.60","44.23","KINGSTON A","6104149","2021-03-22 12:00","2021","03","22","12:00","9.4","","-2.4","","43","","","","17","","18","","24.1","","101.51","","","","","","NA"
"-76.60","44.23","KINGSTON A","6104149","2021-03-22 13:00","2021","03","22","13:00","11.1","","-2.8","","38","","","","18","","14","","24.1","","101.43","","","","","","Mainly Clear"
"-76.60","44.23","KINGSTON A","6104149","2021-03-22 14:00","2021","03","22","14:00","10.7","","-2.5","","39","","","","16","","13","","24.1","","101.37","","","","","","NA"
"-76.60","44.23","KINGSTON A","6104149","2021-03-22 15:00","2021","03","22","15:00","11.4","","-2.5","","38","","","","18","","11","","24.1","","101.31","","","","","","NA"
"-76.60","44.23","KINGSTON A","6104149","2021-03-22 16:00","2021","03","22","16:00","12.2","","-4.4","","31","","","","19","","11","","24.1","","101.24","","","","","","Mainly Clear"
"-76.60","44.23","KINGSTON A","6104149","2021-03-22 17:00","2021","03","22","17:00","10.4","","-3.9","","36","","","","16","","6","","24.1","","101.21","","","","","","NA"
"-76.60","44.23","KINGSTON A","6104149","2021-03-22 18:00","2021","03","22","18:00","10.2","","-5.7","","32","","","","36","","3","","24.1","","101.17","","","","","","NA"
"-76.60","44.23","KINGSTON A","6104149","2021-03-22 19:00","2021","03","22","19:00","7.2","","-6.3","","38","","","","10","","4","","24.1","","101.14","","","","","","Mainly Clear"
"-76.60","44.23","KINGSTON A","6104149","2021-03-22 20:00","2021","03","22","20:00","6.4","","-4.3","","46","","","","5","","3","","24.1","","101.16","","","","","","NA"
"-76.60","44.23","KINGSTON A","6104149","2021-03-22 21:00","2021","03","22","21:00","4.4","","-4.1","","54","","","","36","","7","","24.1","","101.15","","","","","","NA"
"-76.60","44.23","KINGSTON A","6104149","2021-03-22 22:00","2021","03","22","22:00","3.0","","-5.0","","56","","","","1","","5","","24.1","","101.17","","","","","","Clear"
"-76.60","44.23","KINGSTON A","6104149","2021-03-22 23:00","2021","03","22","23:00"
"-76.60","44.23","KINGSTON A","6104149","2021-03-23 00:00","2021","03","23","00:00"
"-76.60","44.23","KINGSTON A","6104149","2021-03-23 01:00","2021","03","23","01:00"
"-76.60","44.23","KINGSTON A","6104149","2021-03-23 02:00","2021","03","23","02:00"
"-76.60","44.23","KINGSTON A","6104149","2021-03-23 03:00","2021","03","23","03:00"
"-76.60","44.23","KINGSTON A","6104149","2021-03-23 04:00","2021","03","23","04:00"
"-76.60","44.23","KINGSTON A","6104149","2021-03-23 05:00","2021","03","23","05:00","4.7","","-2.5","","60","","","","18","","9","","24.1","","101.20","","","","","","NA"
"-76.60","44.23","KINGSTON A","6104149","2021-03-23 06:00","2021","03","23","06:00","4.5","","-2.1","","62","","","","18","","14","","24.1","","101.23","","","","","","NA"
"-76.60","44.23","KINGSTON A","6104149","2021-03-23 07:00","2021","03","23","07:00","4.9","","-1.6","","63","","","","17","","17","","24.1","","101.27","","","","","","Mainly Clear"
"-76.60","44.23","KINGSTON A","6104149","2021-03-23 08:00","2021","03","23","08:00","5.9","","-1.0","","61","","","","19","","16","","24.1","","101.32","","","","","","NA"
"-76.60","44.23","KINGSTON A","6104149","2021-03-23 09:00","2021","03","23","09:00","6.2","","-1.3","","59","","","","18","","19","","24.1","","101.33","","","","","","NA"
"-76.60","44.23","KINGSTON A","6104149","2021-03-23 10:00","2021","03","23","10:00","7.4","","-0.6","","57","","","","19","","15","","24.1","","101.37","","","","","","Mainly Clear"
"-76.60","44.23","KINGSTON A","6104149","2021-03-23 11:00","2021","03","23","11:00","9.3","","-1.7","","46","","","","20","","15","","24.1","","101.32","","","","","","NA"
"-76.60","44.23","KINGSTON A","6104149","2021-03-23 12:00","2021","03","23","12:00","9.8","","-1.9","","44","","","","19","","12","","24.1","","101.28","","","","","","NA"
"-76.60","44.23","KINGSTON A","6104149","2021-03-23 13:00","2021","03","23","13:00","12.4","","-2.6","","35","","","","19","","13","","24.1","","101.22","","","","","","Mostly Cloudy"
"-76.60","44.23","KINGSTON A","6104149","2021-03-23 14:00","2021","03","23","14:00","13.7","","-3.1","","31","","","","19","","7","","24.1","","101.14","","","","","","NA"
"-76.60","44.23","KINGSTON A","6104149","2021-03-23 15:00","2021","03","23","15:00","15.4","","-3.6","","27","","","","21","","5","","24.1","","101.05","","","","","","NA"
"-76.60","44.23","KINGSTON A","6104149","2021-03-23 16:00","2021","03","23","16:00","16.0","","-4.3","","24","","","","19","","5","","24.1","","100.96","","","","","","Cloudy"
"-76.60","44.23","KINGSTON A","6104149","2021-03-23 17:00","2021","03","23","17:00","15.0","","-4.0","","27","","","","12","","4","","24.1","","100.91","","","","","","NA"
"-76.60","44.23","KINGSTON A","6104149","2021-03-23 18:00","2021","03","23","18:00","14.0","","-3.7","","29","","","","8","","7","","24.1","","100.90","","","","","","NA"
"-76.60","44.23","KINGSTON A","6104149","2021-03-23 19:00","2021","03","23","19:00","11.9","","-4.0","","33","","","","6","","8","","24.1","","100.86","","","","","","Mostly Cloudy"
"-76.60","44.23","KINGSTON A","6104149","2021-03-23 20:00","2021","03","23","20:00","10.9","","-4.3","","34","","","","5","","6","","24.1","","100.91","","","","","","NA"
"-76.60","44.23","KINGSTON A","6104149","2021-03-23 21:00","2021","03","23","21:00","7.9","","-3.8","","43","","","","6","","9","","24.1","","100.84","","","","","","NA"
"-76.60","44.23","KINGSTON A","6104149","2021-03-23 22:00","2021","03","23","22:00","7.7","","-4.0","","43","","","","10","","8","","24.1","","100.80","","","","","","Mostly Cloudy"
"-76.60","44.23","KINGSTON A","6104149","2021-03-23 23:00","2021","03","23","23:00"
"-76.60","44.23","KINGSTON A","6104149","2021-03-24 00:00","2021","03","24","00:00"
"-76.60","44.23","KINGSTON A","6104149","2021-03-24 01:00","2021","03","24","01:00"
"-76.60","44.23","KINGSTON A","6104149","2021-03-24 02:00","2021","03","24","02:00"
"-76.60","44.23","KINGSTON A","6104149","2021-03-24 03:00","2021","03","24","03:00"
"-76.60","44.23","KINGSTON A","6104149","2021-03-24 04:00","2021","03","24","04:00"
"-76.60","44.23","KINGSTON A","6104149","2021-03-24 05:00","2021","03","24","05:00","7.0","","1.6","","68","","","","15","","16","","24.1","","100.73","","","","","","NA"
"-76.60","44.23","KINGSTON A","6104149","2021-03-24 06:00","2021","03","24","06:00","6.2","","1.7","","73","","","","16","","15","","24.1","","100.73","","","","","","NA"
"-76.60","44.23","KINGSTON A","6104149","2021-03-24 07:00","2021","03","24","07:00","6.0","","1.7","","74","","","","16","","16","","24.1","","100.74","","","","","","Cloudy"
"-76.60","44.23","KINGSTON A","6104149","2021-03-24 08:00","2021","03","24","08:00","6.1","","2.3","","77","","","","15","","18","","24.1","","100.77","","","","","","NA"
"-76.60","44.23","KINGSTON A","6104149","2021-03-24 09:00","2021","03","24","09:00","5.2","","3.3","","88","","","","17","","15","","4.8","","100.78","","","","","","Rain,Fog"
"-76.60","44.23","KINGSTON A","6104149","2021-03-24 10:00","2021","03","24","10:00","6.2","","5.4","","94","","","","15","","13","","6.4","","100.73","","","","","","Rain,Fog"
"-76.60","44.23","KINGSTON A","6104149","2021-03-24 11:00","2021","03","24","11:00","7.8","","7.0","","95","","","","12","","9","","6.4","","100.63","","","","","","Rain,Fog"
"-76.60","44.23","KINGSTON A","6104149","2021-03-24 12:00","2021","03","24","12:00","7.8","","7.6","","98","","","","15","","13","","4.8","","100.58","","","","","","Rain,Fog"
"-76.60","44.23","KINGSTON A","6104149","2021-03-24 13:00","2021","03","24","13:00","9.1","","8.8","","98","","","","14","","18","","16.1","","100.48","","","","","","Cloudy"
"-76.60","44.23","KINGSTON A","6104149","2021-03-24 14:00","2021","03","24","14:00","10.3","","9.4","","94","","","","14","","14","","24.1","","100.38","","","","","","NA"
"-76.60","44.23","KINGSTON A","6104149","2021-03-24 15:00","2021","03","24","15:00","9.7","","8.5","","92","","","","16","","18","","24.1","","100.30","","","","","","NA"
"-76.60","44.23","KINGSTON A","6104149","2021-03-24 16:00","2021","03","24","16:00","9.4","","8.2","","92","","","","15","","21","","24.1","","100.22","","","","","","Mainly Clear"
"-76.60","44.23","KINGSTON A","6104149","2021-03-24 17:00","2021","03","24","17:00","7.6","","6.2","","91","","","","15","","14","","24.1","","100.21","","","","","","NA"
"-76.60","44.23","KINGSTON A","6104149","2021-03-24 18:00","2021","03","24","18:00","8.2","","6.8","","91","","","","15","","11","","24.1","","100.18","","","","","","NA"
"-76.60","44.23","KINGSTON A","6104149","2021-03-24 19:00","2021","03","24","19:00","8.7","","7.1","","90","","","","15","","26","","24.1","","100.11","","","","","","Mostly Cloudy"
"-76.60","44.23","KINGSTON A","6104149","2021-03-24 20:00","2021","03","24","20:00","8.8","","7.1","","89","","","","14","","23","","24.1","","100.15","","","","","","NA"
"-76.60","44.23","KINGSTON A","6104149","2021-03-24 21:00","2021","03","24","21:00","8.1","","6.7","","91","","","","15","","17","","24.1","","100.14","","","","","","NA"
"-76.60","44.23","KINGSTON A","6104149","2021-03-24 22:00","2021","03","24","22:00","7.8","","6.6","","92","","","","17","","12","","24.1","","100.16","","","","","","Mostly Cloudy"
"-76.60","44.23","KINGSTON A","6104149","2021-03-24 23:00","2021","03","24","23:00"
"-76.60","44.23","KINGSTON A","6104149","2021-03-25 00:00","2021","03","25","00:00"
"-76.60","44.23","KINGSTON A","6104149","2021-03-25 01:00","2021","03","25","01:00"
"-76.60","44.23","KINGSTON A","6104149","2021-03-25 02:00","2021","03","25","02:00"
"-76.60","44.23","KINGSTON A","6104149","2021-03-25 03:00","2021","03","25","03:00"
"-76.60","44.23","KINGSTON A","6104149","2021-03-25 04:00","2021","03","25","04:00"
"-76.60","44.23","KINGSTON A","6104149","2021-03-25 05:00","2021","03","25","05:00","7.3","","7.2","","99","","","","20","","21","","1.2","","100.13","","","","","","Fog"
"-76.60","44.23","KINGSTON A","6104149","2021-03-25 06:00","2021","03","25","06:00","6.7","","6.7","","100","","","","22","","18","","0.8","","100.21","","","","","","Fog"
"-76.60","44.23","KINGSTON A","6104149","2021-03-25 07:00","2021","03","25","07:00","5.9","","5.9","","100","","","","19","","18","","1.6","","100.24","","","","","","Fog"
"-76.60","44.23","KINGSTON A","6104149","2021-03-25 08:00","2021","03","25","08:00","7.2","","7.1","","99","","","","19","","13","","24.1","","100.28","","","","","","NA"
"-76.60","44.23","KINGSTON A","6104149","2021-03-25 09:00","2021","03","25","09:00","8.3","","7.5","","95","","","","20","","14","","24.1","","100.31","","","","","","NA"
"-76.60","44.23","KINGSTON A","6104149","2021-03-25 10:00","2021","03","25","10:00","13.6","","10.4","","81","","","","22","","15","","24.1","","100.38","","","","","","Mainly Clear"
"-76.60","44.23","KINGSTON A","6104149","2021-03-25 11:00","2021","03","25","11:00","11.9","","8.0","","77","","","","21","","17","","24.1","","100.38","","","","","","NA"
"-76.60","44.23","KINGSTON A","6104149","2021-03-25 12:00","2021","03","25","12:00","14.3","","7.4","","63","","","","24","","25","","24.1","","100.45","","","","","","NA"
"-76.60","44.23","KINGSTON A","6104149","2021-03-25 13:00","2021","03","25","13:00","14.8","","7.5","","61","","","","24","","23","","24.1","","100.43","","","","","","Mostly Cloudy"
"-76.60","44.23","KINGSTON A","6104149","2021-03-25 14:00","2021","03","25","14:00","15.7","","7.3","","57","","","","23","","15","","24.1","","100.35","","","","","","NA"
"-76.60","44.23","KINGSTON A","6104149","2021-03-25 15:00","2021","03","25","15:00","10.9","","5.8","","70","","","","17","","15","","24.1","","100.30","","","","","","NA"
"-76.60","44.23","KINGSTON A","6104149","2021-03-25 16:00","2021","03","25","16:00","9.5","","4.9","","73","","","","17","","10","","24.1","","100.23","","","","","","Cloudy"
"-76.60","44.23","KINGSTON A","6104149","2021-03-25 17:00","2021","03","25","17:00","8.9","","5.1","","77","","","","16","","3","","24.1","","100.19","","","","","","NA"
"-76.60","44.23","KINGSTON A","6104149","2021-03-25 18:00","2021","03","25","18:00","8.3","","4.7","","78","","","","17","","6","","24.1","","100.19","","","","","","NA"
"-76.60","44.23","KINGSTON A","6104149","2021-03-25 19:00","2021","03","25","19:00","7.1","","4.5","","83","","","","14","","5","","24.1","","100.14","","","","","","Cloudy"
"-76.60","44.23","KINGSTON A","6104149","2021-03-25 20:00","2021","03","25","20:00","7.8","","4.5","","80","","","","2","","6","","24.1","","100.08","","","","","","NA"
"-76.60","44.23","KINGSTON A","6104149","2021-03-25 21:00","2021","03","25","21:00","8.1","","5.6","","84","","","","2","","4","","24.1","","99.95","","","","","","NA"
"-76.60","44.23","KINGSTON A","6104149","2021-03-25 22:00","2021","03","25","22:00","10.4","","6.4","","76","","","","6","","9","","24.1","","99.86","","","","","","Cloudy"
"-76.60","44.23","KINGSTON A","6104149","2021-03-25 23:00","2021","03","25","23:00"
"-76.60","44.23","KINGSTON A","6104149","2021-03-26 00:00","2021","03","26","00:00"
"-76.60","44.23","KINGSTON A","6104149","2021-03-26 01:00","2021","03","26","01:00"
"-76.60","44.23","KINGSTON A","6104149","2021-03-26 02:00","2021","03","26","02:00"
"-76.60","44.23","KINGSTON A","6104149","2021-03-26 03:00","2021","03","26","03:00"
"-76.60","44.23","KINGSTON A","6104149","2021-03-26 04:00","2021","03","26","04:00"
"-76.60","44.23","KINGSTON A","6104149","2021-03-26 05:00","2021","03","26","05:00","8.0","","7.5","","97","","","","5","","23","","9.7","","99.14","","","","","","Rain,Fog"
"-76.60","44.23","KINGSTON A","6104149","2021-03-26 06:00","2021","03","26","06:00","8.2","","7.9","","98","","","","5","","21","","3.2","","98.94","","","","","","Moderate Rain,Fog"
"-76.60","44.23","KINGSTON A","6104149","2021-03-26 07:00","2021","03","26","07:00","8.7","","8.4","","98","","","","4","","26","","3.2","","98.75","","","","","","Thunderstorms,Moderate Rain Showers,Fog"
"-76.60","44.23","KINGSTON A","6104149","2021-03-26 08:00","2021","03","26","08:00","9.4","","9.1","","98","","","","3","","13","","9.7","","98.56","","","","","","Rain Showers,Fog"
"-76.60","44.23","KINGSTON A","6104149","2021-03-26 09:00","2021","03","26","09:00","11.1","","10.6","","97","","","","1","","17","","16.1","","98.45","","","","","","Thunderstorms,Rain Showers"
"-76.60","44.23","KINGSTON A","6104149","2021-03-26 10:00","2021","03","26","10:00","10.7","","10.0","","96","","","","17","","15","","12.9","","98.56","","","","","","Rain Showers"
"-76.60","44.23","KINGSTON A","6104149","2021-03-26 11:00","2021","03","26","11:00","10.4","","9.9","","97","","","","25","","33","","12.9","","98.66","","","","","","Rain Showers"
"-76.60","44.23","KINGSTON A","6104149","2021-03-26 12:00","2021","03","26","12:00","9.8","","8.2","","89","","","","24","","30","","12.9","","98.69","","","","","","Rain Showers"
"-76.60","44.23","KINGSTON A","6104149","2021-03-26 13:00","2021","03","26","13:00","6.8","","5.8","","94","","","","24","","35","","12.9","","98.81","","","","","","Rain Showers"
"-76.60","44.23","KINGSTON A","6104149","2021-03-26 14:00","2021","03","26","14:00","6.1","","5.9","","98","","","","25","","12","","3.2","","98.96","","","","","","Rain Showers,Fog"
"-76.60","44.23","KINGSTON A","6104149","2021-03-26 15:00","2021","03","26","15:00","6.2","","4.6","","90","","","","32","","34","","12.9","","99.26","","","","","","Rain Showers"
"-76.60","44.23","KINGSTON A","6104149","2021-03-26 16:00","2021","03","26","16:00","5.8","","3.7","","87","","","","32","","30","","12.9","","99.60","","","","","","Cloudy"
"-76.60","44.23","KINGSTON A","6104149","2021-03-26 17:00","2021","03","26","17:00","5.5","","4.0","","90","","","","30","","21","","12.9","","99.84","","","","","","Rain Showers"
"-76.60","44.23","KINGSTON A","6104149","2021-03-26 18:00","2021","03","26","18:00","5.0","","3.6","","91","","","","31","","15","","24.1","","100.08","","","","","","Rain"
"-76.60","44.23","KINGSTON A","6104149","2021-03-26 19:00","2021","03","26","19:00","4.8","","3.4","","91","","","","29","","20","","24.1","","100.30","","","","","","Rain"
"-76.60","44.23","KINGSTON A","6104149","2021-03-26 20:00","2021","03","26","20:00","4.5","","3.3","","92","","","","30","","13","","24.1","","100.42","","","","","","Rain"
"-76.60","44.23","KINGSTON A","6104149","2021-03-26 21:00","2021","03","26","21:00","4.4","","3.6","","95","","","","27","","8","","24.1","","100.52","","","","","","Rain"
"-76.60","44.23","KINGSTON A","6104149","2021-03-26 22:00","2021","03","26","22:00","4.3","","2.4","","87","","","","28","","21","","24.1","","100.65","","","","","","Cloudy"
"-76.60","44.23","KINGSTON A","6104149","2021-03-26 23:00","2021","03","26","23:00"
"-76.60","44.23","KINGSTON A","6104149","2021-03-27 00:00","2021","03","27","00:00"
"-76.60","44.23","KINGSTON A","6104149","2021-03-27 01:00","2021","03","27","01:00"
"-76.60","44.23","KINGSTON A","6104149","2021-03-27 02:00","2021","03","27","02:00"
"-76.60","44.23","KINGSTON A","6104149","2021-03-27 03:00","2021","03","27","03:00"
"-76.60","44.23","KINGSTON A","6104149","2021-03-27 04:00","2021","03","27","04:00"
"-76.60","44.23","KINGSTON A","6104149","2021-03-27 05:00","2021","03","27","05:00","0.5","","-1.8","","84","","","","27","","13","","24.1","","100.90","","","","","","NA"
"-76.60","44.23","KINGSTON A","6104149","2021-03-27 06:00","2021","03","27","06:00","0.7","","-1.9","","83","","","","27","","12","","24.1","","101.02","","","","","","NA"
"-76.60","44.23","KINGSTON A","6104149","2021-03-27 07:00","2021","03","27","07:00","0.9","","-1.6","","84","","","","27","","8","","24.1","","101.09","","","","","","Mostly Cloudy"
"-76.60","44.23","KINGSTON A","6104149","2021-03-27 08:00","2021","03","27","08:00","2.1","","-0.7","","82","","","","26","","8","","24.1","","101.14","","","","","","NA"
"-76.60","44.23","KINGSTON A","6104149","2021-03-27 09:00","2021","03","27","09:00","2.6","","0.5","","86","","","","16","","9","","24.1","","101.14","","","","","","NA"
"-76.60","44.23","KINGSTON A","6104149","2021-03-27 10:00","2021","03","27","10:00","2.9","","0.7","","86","","","","18","","15","","24.1","","101.11","","","","","","Cloudy"
"-76.60","44.23","KINGSTON A","6104149","2021-03-27 11:00","2021","03","27","11:00","3.1","","1.6","","90","","","","17","","14","","24.1","","101.07","","","","","","NA"
"-76.60","44.23","KINGSTON A","6104149","2021-03-27 12:00","2021","03","27","12:00","3.2","","0.9","","85","","","","18","","21","","24.1","","101.03","","","","","","NA"
"-76.60","44.23","KINGSTON A","6104149","2021-03-27 13:00","2021","03","27","13:00","3.6","","1.1","","84","","","","19","","19","","24.1","","101.03","","","","","","Mostly Cloudy"
"-76.60","44.23","KINGSTON A","6104149","2021-03-27 14:00","2021","03","27","14:00","3.9","","1.7","","86","","","","19","","21","","24.1","","101.05","","","","","","NA"
"-76.60","44.23","KINGSTON A","6104149","2021-03-27 15:00","2021","03","27","15:00","3.7","","0.4","","79","","","","16","","15","","24.1","","100.95","","","","","","NA"
"-76.60","44.23","KINGSTON A","6104149","2021-03-27 16:00","2021","03","27","16:00","4.3","","-0.3","","72","","","","16","","16","","24.1","","100.93","","","","","","Mostly Cloudy"
"-76.60","44.23","KINGSTON A","6104149","2021-03-27 17:00","2021","03","27","17:00","4.2","","-0.5","","71","","","","15","","9","","24.1","","100.88","","","","","","NA"
"-76.60","44.23","KINGSTON A","6104149","2021-03-27 18:00","2021","03","27","18:00","4.5","","-0.8","","68","","","","13","","4","","24.1","","100.90","","","","","","NA"
"-76.60","44.23","KINGSTON A","6104149","2021-03-27 19:00","2021","03","27","19:00","4.1","","-1.0","","69","","","","6","","7","","24.1","","100.80","","","","","","Mostly Cloudy"
"-76.60","44.23","KINGSTON A","6104149","2021-03-27 20:00","2021","03","27","20:00","3.6","","-0.8","","73","","","","10","","7","","24.1","","100.77","","","","","","NA"
"-76.60","44.23","KINGSTON A","6104149","2021-03-27 21:00","2021","03","27","21:00","3.4","","-0.7","","75","","","","4","","8","","24.1","","100.72","","","","","","NA"
"-76.60","44.23","KINGSTON A","6104149","2021-03-27 22:00","2021","03","27","22:00","1.8","","-0.8","","83","","","","7","","12","","24.1","","100.56","","","","","","Mainly Clear"
"-76.60","44.23","KINGSTON A","6104149","2021-03-27 23:00","2021","03","27","23:00"
"-76.60","44.23","KINGSTON A","6104149","2021-03-28 00:00","2021","03","28","00:00"
"-76.60","44.23","KINGSTON A","6104149","2021-03-28 01:00","2021","03","28","01:00"
"-76.60","44.23","KINGSTON A","6104149","2021-03-28 02:00","2021","03","28","02:00"
"-76.60","44.23","KINGSTON A","6104149","2021-03-28 03:00","2021","03","28","03:00"
"-76.60","44.23","KINGSTON A","6104149","2021-03-28 04:00","2021","03","28","04:00"
"-76.60","44.23","KINGSTON A","6104149","2021-03-28 05:00","2021","03","28","05:00","3.5","","1.6","","88","","","","6","","13","","24.1","","99.64","","","","","","NA"
"-76.60","44.23","KINGSTON A","6104149","2021-03-28 06:00","2021","03","28","06:00","3.7","","1.9","","88","","","","3","","11","","24.1","","99.56","","","","","","NA"
"-76.60","44.23","KINGSTON A","6104149","2021-03-28 07:00","2021","03","28","07:00","4.2","","2.2","","87","","","","4","","10","","24.1","","99.41","","","","","","Cloudy"
"-76.60","44.23","KINGSTON A","6104149","2021-03-28 08:00","2021","03","28","08:00","4.8","","3.0","","88","","","","7","","13","","24.1","","99.24","","","","","","NA"
"-76.60","44.23","KINGSTON A","6104149","2021-03-28 09:00","2021","03","28","09:00","8.7","","5.9","","83","","","","12","","19","","24.1","","98.99","","","","","","NA"
"-76.60","44.23","KINGSTON A","6104149","2021-03-28 10:00","2021","03","28","10:00","6.8","","5.9","","94","","","","16","","34","","4.8","","98.85","","","","","","Moderate Rain,Fog"
"-76.60","44.23","KINGSTON A","6104149","2021-03-28 11:00","2021","03","28","11:00","6.7","","6.2","","96","","","","15","","30","","16.1","","98.60","","","","","","Rain"
"-76.60","44.23","KINGSTON A","6104149","2021-03-28 12:00","2021","03","28","12:00","6.9","","5.9","","94","","","","15","","33","","6.4","","98.39","","","","","","Rain,Fog"
"-76.60","44.23","KINGSTON A","6104149","2021-03-28 13:00","2021","03","28","13:00","6.8","","5.9","","94","","","","16","","25","","24.1","","98.16","","","","","","Cloudy"
"-76.60","44.23","KINGSTON A","6104149","2021-03-28 14:00","2021","03","28","14:00","7.4","","7.1","","98","","","","21","","35","","4.0","","98.18","","","","","","Rain,Fog"
"-76.60","44.23","KINGSTON A","6104149","2021-03-28 15:00","2021","03","28","15:00","8.8","","8.4","","97","","","","24","","19","","6.4","","98.27","","","","","","Rain,Fog"
"-76.60","44.23","KINGSTON A","6104149","2021-03-28 16:00","2021","03","28","16:00","7.9","","7.1","","95","","","","23","","30","","16.1","","98.34","","","","","","Mostly Cloudy"
"-76.60","44.23","KINGSTON A","6104149","2021-03-28 17:00","2021","03","28","17:00","6.7","","5.7","","94","","","","23","","29","","19.3","","98.42","","","","","","NA"
"-76.60","44.23","KINGSTON A","6104149","2021-03-28 18:00","2021","03","28","18:00","6.7","","4.0","","83","","","","24","","32","","24.1","","98.56","","","","","","NA"
"-76.60","44.23","KINGSTON A","6104149","2021-03-28 19:00","2021","03","28","19:00","7.3","","4.0","","80","","","","27","","21","","24.1","","98.64","","","","","","Mostly Cloudy"
"-76.60","44.23","KINGSTON A","6104149","2021-03-28 20:00","2021","03","28","20:00","5.5","","2.7","","82","","","","25","","15","","24.1","","98.72","","","","","","NA"
"-76.60","44.23","KINGSTON A","6104149","2021-03-28 21:00","2021","03","28","21:00","4.8","","-0.8","","67","","","","27","","32","","24.1","","98.79","","","","","","NA"
"-76.60","44.23","KINGSTON A","6104149","2021-03-28 22:00","2021","03","28","22:00","4.0","","-1.3","","69","","","","26","","27","","24.1","","98.78","","","","","","Mostly Cloudy"
"-76.60","44.23","KINGSTON A","6104149","2021-03-28 23:00","2021","03","28","23:00"
"-76.60","44.23","KINGSTON A","6104149","2021-03-29 00:00","2021","03","29","00:00"
"-76.60","44.23","KINGSTON A","6104149","2021-03-29 01:00","2021","03","29","01:00"
"-76.60","44.23","KINGSTON A","6104149","2021-03-29 02:00","2021","03","29","02:00"
"-76.60","44.23","KINGSTON A","6104149","2021-03-29 03:00","2021","03","29","03:00"
"-76.60","44.23","KINGSTON A","6104149","2021-03-29 04:00","2021","03","29","04:00"
"-76.60","44.23","KINGSTON A","6104149","2021-03-29 05:00","2021","03","29","05:00","1.2","","-5.2","","63","","","","31","","34","","24.1","","99.90","","","","","","NA"
"-76.60","44.23","KINGSTON A","6104149","2021-03-29 06:00","2021","03","29","06:00","0.5","","-5.2","","65","","","","29","","15","","24.1","","100.13","","","","","","NA"
"-76.60","44.23","KINGSTON A","6104149","2021-03-29 07:00","2021","03","29","07:00","0.2","","-5.8","","64","","","","29","","32","","24.1","","100.31","","","","","","Cloudy"
"-76.60","44.23","KINGSTON A","6104149","2021-03-29 08:00","2021","03","29","08:00","0.9","","-6.7","","57","","","","29","","24","","24.1","","100.50","","","","","","NA"
"-76.60","44.23","KINGSTON A","6104149","2021-03-29 09:00","2021","03","29","09:00","0.1","","-8.6","","52","","","","28","","30","","24.1","","100.70","","","","","","NA"
"-76.60","44.23","KINGSTON A","6104149","2021-03-29 10:00","2021","03","29","10:00","1.3","","-7.5","","52","","","","29","","17","","24.1","","100.84","","","","","","Mainly Clear"
"-76.60","44.23","KINGSTON A","6104149","2021-03-29 11:00","2021","03","29","11:00","2.4","","-8.7","","44","","","","28","","24","","24.1","","100.91","","","","","","NA"
"-76.60","44.23","KINGSTON A","6104149","2021-03-29 12:00","2021","03","29","12:00","3.8","","-7.3","","44","","","","31","","18","","24.1","","100.93","","","","","","NA"
"-76.60","44.23","KINGSTON A","6104149","2021-03-29 13:00","2021","03","29","13:00","4.4","","-8.1","","40","","","","27","","16","","24.1","","100.96","","","","","","Mainly Clear"
"-76.60","44.23","KINGSTON A","6104149","2021-03-29 14:00","2021","03","29","14:00","4.3","","-6.5","","45","","","","24","","24","","24.1","","101.01","","","","","","NA"
"-76.60","44.23","KINGSTON A","6104149","2021-03-29 15:00","2021","03","29","15:00","5.4","","-6.2","","43","","","","26","","18","","24.1","","101.03","","","","","","NA"
"-76.60","44.23","KINGSTON A","6104149","2021-03-29 16:00","2021","03","29","16:00","5.5","","-6.7","","41","","","","25","","16","","24.1","","101.01","","","","","","Clear"
"-76.60","44.23","KINGSTON A","6104149","2021-03-29 17:00","2021","03","29","17:00","5.4","","-6.9","","41","","","","28","","18","","24.1","","101.07","","","","","","NA"
"-76.60","44.23","KINGSTON A","6104149","2021-03-29 18:00","2021","03","29","18:00","4.2","","-6.7","","45","","","","26","","16","","24.1","","101.13","","","","","","NA"
"-76.60","44.23","KINGSTON A","6104149","2021-03-29 19:00","2021","03","29","19:00","2.4","","-2.8","","69","","","","24","","16","","24.1","","101.16","","","","","","Clear"
"-76.60","44.23","KINGSTON A","6104149","2021-03-29 20:00","2021","03","29","20:00","1.7","","-2.7","","73","","","","23","","12","","24.1","","101.26","","","","","","NA"
"-76.60","44.23","KINGSTON A","6104149","2021-03-29 21:00","2021","03","29","21:00","1.4","","-3.0","","73","","","","19","","9","","24.1","","101.23","","","","","","NA"
"-76.60","44.23","KINGSTON A","6104149","2021-03-29 22:00","2021","03","29","22:00","1.2","","-1.5","","82","","","","19","","6","","24.1","","101.20","","","","","","Clear"
"-76.60","44.23","KINGSTON A","6104149","2021-03-29 23:00","2021","03","29","23:00"
"-76.60","44.23","KINGSTON A","6104149","2021-03-30 00:00","2021","03","30","00:00"
"-76.60","44.23","KINGSTON A","6104149","2021-03-30 01:00","2021","03","30","01:00"
"-76.60","44.23","KINGSTON A","6104149","2021-03-30 02:00","2021","03","30","02:00"
"-76.60","44.23","KINGSTON A","6104149","2021-03-30 03:00","2021","03","30","03:00"
"-76.60","44.23","KINGSTON A","6104149","2021-03-30 04:00","2021","03","30","04:00"
"-76.60","44.23","KINGSTON A","6104149","2021-03-30 05:00","2021","03","30","05:00","2.1","","-1.5","","78","","","","17","","26","","24.1","","101.13","","","","","","NA"
"-76.60","44.23","KINGSTON A","6104149","2021-03-30 06:00","2021","03","30","06:00","2.3","","-1.3","","77","","","","17","","28","","24.1","","101.13","","","","","","NA"
"-76.60","44.23","KINGSTON A","6104149","2021-03-30 07:00","2021","03","30","07:00","2.8","","-0.9","","76","","","","17","","26","","24.1","","101.13","","","","","","Clear"
"-76.60","44.23","KINGSTON A","6104149","2021-03-30 08:00","2021","03","30","08:00","3.7","","-0.6","","74","","","","17","","25","","24.1","","101.10","","","","","","NA"
"-76.60","44.23","KINGSTON A","6104149","2021-03-30 09:00","2021","03","30","09:00","4.6","","0.1","","72","","","","17","","24","","24.1","","101.04","","","","","","NA"
"-76.60","44.23","KINGSTON A","6104149","2021-03-30 10:00","2021","03","30","10:00","5.4","","0.5","","71","","","","17","","23","","24.1","","101.01","","","","","","Mainly Clear"
"-76.60","44.23","KINGSTON A","6104149","2021-03-30 11:00","2021","03","30","11:00","7.0","","0.8","","64","","","","17","","19","","24.1","","100.93","","","","","","NA"
"-76.60","44.23","KINGSTON A","6104149","2021-03-30 12:00","2021","03","30","12:00","7.4","","1.3","","65","","","","18","","21","","24.1","","100.80","","","","","","NA"
"-76.60","44.23","KINGSTON A","6104149","2021-03-30 13:00","2021","03","30","13:00","8.2","","1.6","","63","","","","17","","19","","24.1","","100.68","","","","","","Mostly Cloudy"
"-76.60","44.23","KINGSTON A","6104149","2021-03-30 14:00","2021","03","30","14:00","9.3","","2.4","","62","","","","18","","16","","24.1","","100.54","","","","","","NA"
"-76.60","44.23","KINGSTON A","6104149","2021-03-30 15:00","2021","03","30","15:00","10.2","","2.5","","58","","","","16","","16","","24.1","","100.43","","","","","","NA"
"-76.60","44.23","KINGSTON A","6104149","2021-03-30 16:00","2021","03","30","16:00","9.5","","1.6","","57","","","","18","","21","","24.1","","100.34","","","","","","Mostly Cloudy"
"-76.60","44.23","KINGSTON A","6104149","2021-03-30 17:00","2021","03","30","17:00","8.7","","1.7","","61","","","","17","","21","","24.1","","100.26","","","","","","NA"
"-76.60","44.23","KINGSTON A","6104149","2021-03-30 18:00","2021","03","30","18:00","8.6","","1.6","","61","","","","17","","23","","24.1","","100.24","","","","","","NA"
"-76.60","44.23","KINGSTON A","6104149","2021-03-30 19:00","2021","03","30","19:00","8.7","","1.6","","61","","","","18","","29","","24.1","","100.21","","","","","","Mostly Cloudy"
"-76.60","44.23","KINGSTON A","6104149","2021-03-30 20:00","2021","03","30","20:00","9.1","","1.7","","60","","","","17","","29","","24.1","","100.19","","","","","","NA"
"-76.60","44.23","KINGSTON A","6104149","2021-03-30 21:00","2021","03","30","21:00","9.0","","1.9","","61","","","","17","","33","","24.1","","100.18","","","","","","NA"
"-76.60","44.23","KINGSTON A","6104149","2021-03-30 22:00","2021","03","30","22:00","8.1","","2.2","","66","","","","17","","28","","24.1","","100.16","","","","","","Mostly Cloudy"
"-76.60","44.23","KINGSTON A","6104149","2021-03-30 23:00","2021","03","30","23:00"
"-76.60","44.23","KINGSTON A","6104149","2021-03-31 00:00","2021","03","31","00:00"
"-76.60","44.23","KINGSTON A","6104149","2021-03-31 01:00","2021","03","31","01:00"
"-76.60","44.23","KINGSTON A","6104149","2021-03-31 02:00","2021","03","31","02:00"
"-76.60","44.23","KINGSTON A","6104149","2021-03-31 03:00","2021","03","31","03:00"
"-76.60","44.23","KINGSTON A","6104149","2021-03-31 04:00","2021","03","31","04:00"
"-76.60","44.23","KINGSTON A","6104149","2021-03-31 05:00","2021","03","31","05:00","7.6","","3.1","","73","","","","21","","9","","24.1","","100.10","","","","","","Rain Showers"
"-76.60","44.23","KINGSTON A","6104149","2021-03-31 06:00","2021","03","31","06:00","7.6","","3.1","","73","","","","18","","8","","24.1","","100.06","","","","","","NA"
"-76.60","44.23","KINGSTON A","6104149","2021-03-31 07:00","2021","03","31","07:00","8.0","","4.0","","76","","","","21","","10","","24.1","","100.10","","","","","","Cloudy"
"-76.60","44.23","KINGSTON A","6104149","2021-03-31 08:00","2021","03","31","08:00","6.0","","3.8","","85","","","","18","","15","","24.1","","99.94","","","","","","NA"
"-76.60","44.23","KINGSTON A","6104149","2021-03-31 09:00","2021","03","31","09:00","6.7","","4.3","","85","","","","18","","27","","24.1","","100.00","","","","","","NA"
"-76.60","44.23","KINGSTON A","6104149","2021-03-31 10:00","2021","03","31","10:00","6.2","","5.3","","94","","","","19","","26","","24.1","","100.04","","","","","","Rain Showers"
"-76.60","44.23","KINGSTON A","6104149","2021-03-31 11:00","2021","03","31","11:00","6.1","","5.5","","96","","","","18","","23","","24.1","","100.00","","","","","","Rain Showers"
"-76.60","44.23","KINGSTON A","6104149","2021-03-31 12:00","2021","03","31","12:00","6.3","","5.8","","97","","","","24","","14","","24.1","","100.00","","","","","","NA"
"-76.60","44.23","KINGSTON A","6104149","2021-03-31 13:00","2021","03","31","13:00","7.1","","6.7","","97","","","","26","","22","","3.2","","100.03","","","","","","Rain Showers,Fog"
"-76.60","44.23","KINGSTON A","6104149","2021-03-31 14:00","2021","03","31","14:00","6.7","","5.3","","91","","","","30","","30","","6.4","","100.14","","","","","","Rain Showers,Fog"
"-76.60","44.23","KINGSTON A","6104149","2021-03-31 15:00","2021","03","31","15:00","5.3","","3.8","","90","","","","29","","17","","8.1","","100.25","","","","","","Rain Showers,Fog"
"-76.60","44.23","KINGSTON A","6104149","2021-03-31 16:00","2021","03","31","16:00","5.7","","3.9","","88","","","","27","","8","","16.1","","100.29","","","","","","Cloudy"
"-76.60","44.23","KINGSTON A","6104149","2021-03-31 17:00","2021","03","31","17:00","5.1","","3.0","","86","","","","23","","11","","24.1","","100.36","","","","","","NA"
"-76.60","44.23","KINGSTON A","6104149","2021-03-31 18:00","2021","03","31","18:00","3.9","","3.0","","94","","","","21","","8","","24.1","","100.44","","","","","","NA"
"-76.60","44.23","KINGSTON A","6104149","2021-03-31 19:00","2021","03","31","19:00","3.4","","2.7","","95","","","","21","","9","","24.1","","100.47","","","","","","Cloudy"
"-76.60","44.23","KINGSTON A","6104149","2021-03-31 20:00","2021","03","31","20:00","3.6","","2.2","","91","","","","21","","10","","24.1","","100.53","","","","","","NA"
"-76.60","44.23","KINGSTON A","6104149","2021-03-31 21:00","2021","03","31","21:00","3.6","","1.4","","85","","","","24","","10","","24.1","","100.55","","","","","","NA"
"-76.60","44.23","KINGSTON A","6104149","2021-03-31 22:00","2021","03","31","22:00","4.0","","-1.6","","67","","","","31","","16","","24.1","","100.53","","","","","","Cloudy"
"-76.60","44.23","KINGSTON A","6104149","2021-03-31 23:00","2021","03","31","23:00"
