"Longitude (x)","Latitude (y)","Station Name","Climate ID","Date/Time (LST)","Year","Month","Day","Time (LST)","Temp (°C)","Temp Flag","Dew Point Temp (°C)","Dew Point Temp Flag","Rel Hum (%)","Rel Hum Flag","Precip. Amount (mm)","Precip. Amount Flag","Wind Dir (10s deg)","Wind Dir Flag","Wind Spd (km/h)","Wind Spd Flag","Visibility (km)","Visibility Flag","Stn Press (kPa)","Stn Press Flag","Hmdx","Hmdx Flag","Wind Chill","Wind Chill Flag","Weather"
"-105.67","53.21","PRINCE ALBERT A","4056241","2019-11-01 00:00","2019","11","01","00:00","0.6","","-1.1","","88","","","","30","","23","","24.1","","96.56","","","","","","Cloudy"
"-105.67","53.21","PRINCE ALBERT A","4056241","2019-11-01 01:00","2019","11","01","01:00","0.6","","-0.7","","90","","","","32","","17","","19.3","","96.61","","","","","","Snow"
"-105.67","53.21","PRINCE ALBERT A","4056241","2019-11-01 02:00","2019","11","01","02:00","0.6","","-1.4","","87","","","","31","","15","","24.1","","96.66","","","","","","NA"
"-105.67","53.21","PRINCE ALBERT A","4056241","2019-11-01 03:00","2019","11","01","03:00","0.1","","-1.5","","89","","","","33","","12","","19.3","","96.71","","","","","","Cloudy"
"-105.67","53.21","PRINCE ALBERT A","4056241","2019-11-01 04:00","2019","11","01","04:00","-0.1","","-2.8","","82","","","","33","","21","","24.1","","96.76","","","","-6","","NA"
"-105.67","53.21","PRINCE ALBERT A","4056241","2019-11-01 05:00","2019","11","01","05:00","-0.6","","-2.8","","85","","","","33","","13","","24.1","","96.83","","","","-5","","NA"
"-105.67","53.21","PRINCE ALBERT A","4056241","2019-11-01 06:00","2019","11","01","06:00","-0.2","","-3.2","","81","","","","33","","13","","24.1","","96.86","","","","-4","","Snow"
"-105.67","53.21","PRINCE ALBERT A","4056241","2019-11-01 07:00","2019","11","01","07:00","-0.3","","-2.7","","84","","","","33","","9","","16.1","","96.89","","","","-3","","Snow"
"-105.67","53.21","PRINCE ALBERT A","4056241","2019-11-01 08:00","2019","11","01","08:00","-0.4","","-2.2","","88","","","","32","","3","","19.3","","96.94","","","","-1","","Snow"
"-105.67","53.21","PRINCE ALBERT A","4056241","2019-11-01 09:00","2019","11","01","09:00","0.0","","-2.0","","86","","","","35","","6","","16.1","","96.99","","","","-2","","Snow"
"-105.67","53.21","PRINCE ALBERT A","4056241","2019-11-01 10:00","2019","11","01","10:00","0.7","","-1.4","","86","","","","31","","9","","19.3","","97.03","","","","","","Snow"
"-105.67","53.21","PRINCE ALBERT A","4056241","2019-11-01 11:00","2019","11","01","11:00","1.8","","-2.2","","75","","","","33","","21","","24.1","","97.04","","","","","","NA"
"-105.67","53.21","PRINCE ALBERT A","4056241","2019-11-01 12:00","2019","11","01","12:00","2.2","","-1.9","","74","","","","32","","21","","24.1","","97.06","","","","","","Cloudy"
"-105.67","53.21","PRINCE ALBERT A","4056241","2019-11-01 13:00","2019","11","01","13:00","2.8","","-1.4","","74","","","","32","","17","","24.1","","97.03","","","","","","NA"
"-105.67","53.21","PRINCE ALBERT A","4056241","2019-11-01 14:00","2019","11","01","14:00","2.7","","-1.7","","72","","","","30","","26","","24.1","","97.04","","","","","","NA"
"-105.67","53.21","PRINCE ALBERT A","4056241","2019-11-01 15:00","2019","11","01","15:00","2.6","","-1.5","","74","","","","32","","27","","24.1","","97.03","","","","","","Mostly Cloudy"
"-105.67","53.21","PRINCE ALBERT A","4056241","2019-11-01 16:00","2019","11","01","16:00","2.6","","-1.3","","75","","","","31","","12","","24.1","","97.01","","","","","","NA"
"-105.67","53.21","PRINCE ALBERT A","4056241","2019-11-01 17:00","2019","11","01","17:00","2.4","","-1.3","","76","","","","32","","16","","24.1","","97.00","","","","","","NA"
"-105.67","53.21","PRINCE ALBERT A","4056241","2019-11-01 18:00","2019","11","01","18:00","1.9","","-1.5","","78","","","","30","","19","","24.1","","96.99","","","","","","Mostly Cloudy"
"-105.67","53.21","PRINCE ALBERT A","4056241","2019-11-01 19:00","2019","11","01","19:00","-0.2","","-2.7","","83","","","","30","","7","","24.1","","96.96","","","","-3","","NA"
"-105.67","53.21","PRINCE ALBERT A","4056241","2019-11-01 20:00","2019","11","01","20:00","-2.0","","-2.9","","94","","","","26","","3","","24.1","","96.96","","","","-3","","NA"
"-105.67","53.21","PRINCE ALBERT A","4056241","2019-11-01 21:00","2019","11","01","21:00","-3.2","","-4.0","","94","","","","36","","3","","24.1","","96.90","","","","-4","","Mostly Cloudy"
"-105.67","53.21","PRINCE ALBERT A","4056241","2019-11-01 22:00","2019","11","01","22:00","-3.9","","-4.7","","94","","","","36","","1","","24.1","","96.85","","","","-4","","NA"
"-105.67","53.21","PRINCE ALBERT A","4056241","2019-11-01 23:00","2019","11","01","23:00","-4.1","","-4.7","","95","","","","36","","2","","24.1","","96.81","","","","-5","","NA"
"-105.67","53.21","PRINCE ALBERT A","4056241","2019-11-02 00:00","2019","11","02","00:00","-5.0","","-5.7","","95","","","","0","","1","","24.1","","96.76","","","","-5","","Mostly Cloudy"
"-105.67","53.21","PRINCE ALBERT A","4056241","2019-11-02 01:00","2019","11","02","01:00","-6.2","","-7.0","","94","","","","36","","2","","24.1","","96.73","","","","-7","","NA"
"-105.67","53.21","PRINCE ALBERT A","4056241","2019-11-02 02:00","2019","11","02","02:00","-5.9","","-6.4","","96","","","","24","","3","","6.4","","96.69","","","","-7","","Fog"
"-105.67","53.21","PRINCE ALBERT A","4056241","2019-11-02 03:00","2019","11","02","03:00","-6.7","","-7.4","","95","","","","36","","3","","24.1","","96.66","","","","-8","","Mostly Cloudy"
"-105.67","53.21","PRINCE ALBERT A","4056241","2019-11-02 04:00","2019","11","02","04:00","-6.8","","-7.8","","93","","","","25","","5","","24.1","","96.62","","","","-9","","NA"
"-105.67","53.21","PRINCE ALBERT A","4056241","2019-11-02 05:00","2019","11","02","05:00","-6.8","","-7.4","","95","","","","23","","7","","24.1","","96.60","","","","-10","","NA"
"-105.67","53.21","PRINCE ALBERT A","4056241","2019-11-02 06:00","2019","11","02","06:00","-7.5","","-8.5","","92","","","","27","","4","","24.1","","96.58","","","","-10","","Mostly Cloudy"
"-105.67","53.21","PRINCE ALBERT A","4056241","2019-11-02 07:00","2019","11","02","07:00","-7.0","","-8.0","","92","","","","36","","2","","24.1","","96.52","","","","-8","","NA"
"-105.67","53.21","PRINCE ALBERT A","4056241","2019-11-02 08:00","2019","11","02","08:00","-6.4","","-7.2","","94","","","","22","","4","","24.1","","96.47","","","","-8","","NA"
"-105.67","53.21","PRINCE ALBERT A","4056241","2019-11-02 09:00","2019","11","02","09:00","-5.5","","-6.3","","94","","","","29","","4","","24.1","","96.48","","","","-7","","Mostly Cloudy"
"-105.67","53.21","PRINCE ALBERT A","4056241","2019-11-02 10:00","2019","11","02","10:00","-3.7","","-4.6","","94","","","","27","","6","","24.1","","96.47","","","","-6","","NA"
"-105.67","53.21","PRINCE ALBERT A","4056241","2019-11-02 11:00","2019","11","02","11:00","-2.5","","-3.4","","93","","","","24","","5","","24.1","","96.48","","","","-4","","NA"
"-105.67","53.21","PRINCE ALBERT A","4056241","2019-11-02 12:00","2019","11","02","12:00","0.4","","-2.0","","84","","","","28","","7","","24.1","","96.45","","","","","","Mostly Cloudy"
"-105.67","53.21","PRINCE ALBERT A","4056241","2019-11-02 13:00","2019","11","02","13:00","1.6","","-1.9","","78","","","","29","","7","","24.1","","96.39","","","","","","NA"
"-105.67","53.21","PRINCE ALBERT A","4056241","2019-11-02 14:00","2019","11","02","14:00","2.4","","-1.1","","77","","","","34","","12","","24.1","","96.37","","","","","","NA"
"-105.67","53.21","PRINCE ALBERT A","4056241","2019-11-02 15:00","2019","11","02","15:00","2.8","","-1.9","","71","","","","33","","8","","24.1","","96.33","","","","","","Mainly Clear"
"-105.67","53.21","PRINCE ALBERT A","4056241","2019-11-02 16:00","2019","11","02","16:00","2.4","","-2.2","","72","","","","32","","15","","24.1","","96.33","","","","","","NA"
"-105.67","53.21","PRINCE ALBERT A","4056241","2019-11-02 17:00","2019","11","02","17:00","2.4","","-1.8","","74","","","","32","","9","","24.1","","96.32","","","","","","NA"
"-105.67","53.21","PRINCE ALBERT A","4056241","2019-11-02 18:00","2019","11","02","18:00","0.7","","-2.2","","81","","","","30","","10","","24.1","","96.33","","","","","","Mostly Cloudy"
"-105.67","53.21","PRINCE ALBERT A","4056241","2019-11-02 19:00","2019","11","02","19:00","0.1","","-2.0","","86","","","","1","","5","","24.1","","96.34","","","","","","NA"
"-105.67","53.21","PRINCE ALBERT A","4056241","2019-11-02 20:00","2019","11","02","20:00","-0.4","","-2.2","","88","","","","7","","8","","24.1","","96.29","","","","-3","","NA"
"-105.67","53.21","PRINCE ALBERT A","4056241","2019-11-02 21:00","2019","11","02","21:00","-1.9","","-2.8","","94","","","","36","","1","","24.1","","96.25","","","","-2","","Mostly Cloudy"
"-105.67","53.21","PRINCE ALBERT A","4056241","2019-11-02 22:00","2019","11","02","22:00","-2.1","","-2.7","","96","","","","23","","4","","24.1","","96.23","","","","-4","","NA"
"-105.67","53.21","PRINCE ALBERT A","4056241","2019-11-02 23:00","2019","11","02","23:00","-2.9","","-3.7","","94","","","","29","","6","","24.1","","96.21","","","","-5","","NA"
"-105.67","53.21","PRINCE ALBERT A","4056241","2019-11-03 00:00","2019","11","03","00:00","-3.0","","-3.5","","96","","","","36","","3","","24.1","","96.20","","","","-4","","Mostly Cloudy"
"-105.67","53.21","PRINCE ALBERT A","4056241","2019-11-03 01:00","2019","11","03","01:00","-3.3","","-4.0","","95","","","","36","","2","","24.1","","96.18","","","","-4","","NA"
"-105.67","53.21","PRINCE ALBERT A","4056241","2019-11-03 02:00","2019","11","03","02:00","-2.8","","-3.4","","96","","","","36","","2","","24.1","","96.17","","","","-4","","NA"
"-105.67","53.21","PRINCE ALBERT A","4056241","2019-11-03 03:00","2019","11","03","03:00","-3.2","","-3.8","","96","","","","28","","7","","19.3","","96.17","","","","-6","","Snow"
"-105.67","53.21","PRINCE ALBERT A","4056241","2019-11-03 04:00","2019","11","03","04:00","-3.6","","-4.0","","97","","","","27","","4","","24.1","","96.16","","","","-5","","Snow"
"-105.67","53.21","PRINCE ALBERT A","4056241","2019-11-03 05:00","2019","11","03","05:00","-3.6","","-4.1","","96","","","","28","","6","","16.1","","96.16","","","","-6","","Snow"
"-105.67","53.21","PRINCE ALBERT A","4056241","2019-11-03 06:00","2019","11","03","06:00","-3.2","","-3.8","","96","","","","26","","5","","12.9","","96.19","","","","-5","","Snow"
"-105.67","53.21","PRINCE ALBERT A","4056241","2019-11-03 07:00","2019","11","03","07:00","-3.0","","-3.6","","96","","","","25","","4","","12.9","","96.20","","","","-5","","Snow"
"-105.67","53.21","PRINCE ALBERT A","4056241","2019-11-03 08:00","2019","11","03","08:00","-3.0","","-3.6","","96","","","","36","","2","","4.8","","96.21","","","","-4","","Snow"
"-105.67","53.21","PRINCE ALBERT A","4056241","2019-11-03 09:00","2019","11","03","09:00","-2.5","","-3.0","","96","","","","28","","6","","6.4","","96.29","","","","-5","","Snow"
"-105.67","53.21","PRINCE ALBERT A","4056241","2019-11-03 10:00","2019","11","03","10:00","-2.0","","-2.6","","96","","","","27","","6","","9.7","","96.32","","","","-4","","Snow"
"-105.67","53.21","PRINCE ALBERT A","4056241","2019-11-03 11:00","2019","11","03","11:00","-0.5","","-1.6","","92","","","","32","","10","","16.1","","96.35","","","","-4","","Snow"
"-105.67","53.21","PRINCE ALBERT A","4056241","2019-11-03 12:00","2019","11","03","12:00","0.0","","-2.0","","86","","","","35","","16","","24.1","","96.38","","","","-5","","Cloudy"
"-105.67","53.21","PRINCE ALBERT A","4056241","2019-11-03 13:00","2019","11","03","13:00","0.1","","-1.8","","88","","","","33","","13","","16.1","","96.40","","","","","","Snow"
"-105.67","53.21","PRINCE ALBERT A","4056241","2019-11-03 14:00","2019","11","03","14:00","-0.4","","-3.0","","82","","","","32","","19","","16.1","","96.44","","","","-6","","Snow"
"-105.67","53.21","PRINCE ALBERT A","4056241","2019-11-03 15:00","2019","11","03","15:00","-0.8","","-4.0","","79","","","","33","","27","","12.9","","96.48","","","","-7","","Snow"
"-105.67","53.21","PRINCE ALBERT A","4056241","2019-11-03 16:00","2019","11","03","16:00","-1.2","","-6.3","","68","","","","36","","26","","19.3","","96.53","","","","-8","","Snow"
"-105.67","53.21","PRINCE ALBERT A","4056241","2019-11-03 17:00","2019","11","03","17:00","-2.2","","-7.2","","69","","","","34","","19","","24.1","","96.63","","","","-8","","NA"
"-105.67","53.21","PRINCE ALBERT A","4056241","2019-11-03 18:00","2019","11","03","18:00","-3.1","","-8.0","","69","","","","35","","32","","24.1","","96.72","","","","-11","","Snow"
"-105.67","53.21","PRINCE ALBERT A","4056241","2019-11-03 19:00","2019","11","03","19:00","-4.3","","-8.6","","72","","","","35","","19","","16.1","","96.80","","","","-10","","Snow"
"-105.67","53.21","PRINCE ALBERT A","4056241","2019-11-03 20:00","2019","11","03","20:00","-5.0","","-11.1","","63","","","","1","","15","","24.1","","96.86","","","","-11","","Snow"
"-105.67","53.21","PRINCE ALBERT A","4056241","2019-11-03 21:00","2019","11","03","21:00","-5.8","","-11.4","","65","","","","36","","13","","24.1","","96.92","","","","-11","","Mainly Clear"
"-105.67","53.21","PRINCE ALBERT A","4056241","2019-11-03 22:00","2019","11","03","22:00","-8.4","","-13.4","","67","","","","30","","12","","24.1","","96.96","","","","-14","","NA"
"-105.67","53.21","PRINCE ALBERT A","4056241","2019-11-03 23:00","2019","11","03","23:00","-10.2","","-13.4","","77","","","","29","","14","","24.1","","96.97","","","","-17","","NA"
"-105.67","53.21","PRINCE ALBERT A","4056241","2019-11-04 00:00","2019","11","04","00:00","-10.4","","-12.8","","83","","","","28","","16","","24.1","","97.00","","","","-17","","Clear"
"-105.67","53.21","PRINCE ALBERT A","4056241","2019-11-04 01:00","2019","11","04","01:00","-9.3","","-12.0","","81","","","","28","","11","","24.1","","97.01","","","","-15","","NA"
"-105.67","53.21","PRINCE ALBERT A","4056241","2019-11-04 02:00","2019","11","04","02:00","-9.3","","-13.1","","74","","","","29","","14","","24.1","","97.03","","","","-16","","NA"
"-105.67","53.21","PRINCE ALBERT A","4056241","2019-11-04 03:00","2019","11","04","03:00","-8.4","","-12.6","","72","","","","28","","10","","24.1","","97.04","","","","-13","","Cloudy"
"-105.67","53.21","PRINCE ALBERT A","4056241","2019-11-04 04:00","2019","11","04","04:00","-7.5","","-12.6","","68","","","","29","","17","","24.1","","97.06","","","","-14","","NA"
"-105.67","53.21","PRINCE ALBERT A","4056241","2019-11-04 05:00","2019","11","04","05:00","-7.6","","-12.3","","69","","","","29","","12","","24.1","","97.04","","","","-13","","NA"
"-105.67","53.21","PRINCE ALBERT A","4056241","2019-11-04 06:00","2019","11","04","06:00","-7.2","","-12.5","","66","","","","31","","14","","24.1","","97.06","","","","-13","","Snow"
"-105.67","53.21","PRINCE ALBERT A","4056241","2019-11-04 07:00","2019","11","04","07:00","-7.1","","-12.2","","67","","","","30","","14","","24.1","","97.09","","","","-13","","Snow"
"-105.67","53.21","PRINCE ALBERT A","4056241","2019-11-04 08:00","2019","11","04","08:00","-7.0","","-11.4","","71","","","","33","","16","","19.3","","97.13","","","","-13","","Snow"
"-105.67","53.21","PRINCE ALBERT A","4056241","2019-11-04 09:00","2019","11","04","09:00","-6.9","","-10.7","","75","","","","34","","8","","24.1","","97.18","","","","-11","","Snow"
"-105.67","53.21","PRINCE ALBERT A","4056241","2019-11-04 10:00","2019","11","04","10:00","-6.4","","-11.8","","66","","","","34","","21","","24.1","","97.20","","","","-13","","NA"
"-105.67","53.21","PRINCE ALBERT A","4056241","2019-11-04 11:00","2019","11","04","11:00","-6.7","","-12.4","","64","","","","36","","22","","24.1","","97.24","","","","-14","","Snow"
"-105.67","53.21","PRINCE ALBERT A","4056241","2019-11-04 12:00","2019","11","04","12:00","-5.9","","-12.2","","62","","","","1","","13","","24.1","","97.25","","","","-11","","Mostly Cloudy"
"-105.67","53.21","PRINCE ALBERT A","4056241","2019-11-04 13:00","2019","11","04","13:00","-6.1","","-12.7","","60","","","","34","","14","","24.1","","97.26","","","","-12","","NA"
"-105.67","53.21","PRINCE ALBERT A","4056241","2019-11-04 14:00","2019","11","04","14:00","-5.7","","-11.9","","62","","","","36","","16","","24.1","","97.24","","","","-12","","NA"
"-105.67","53.21","PRINCE ALBERT A","4056241","2019-11-04 15:00","2019","11","04","15:00","-5.7","","-13.0","","57","","","","31","","15","","24.1","","97.24","","","","-11","","Mostly Cloudy"
"-105.67","53.21","PRINCE ALBERT A","4056241","2019-11-04 16:00","2019","11","04","16:00","-6.0","","-12.5","","60","","","","34","","12","","24.1","","97.22","","","","-11","","NA"
"-105.67","53.21","PRINCE ALBERT A","4056241","2019-11-04 17:00","2019","11","04","17:00","-6.5","","-12.6","","62","","","","28","","17","","24.1","","97.21","","","","-13","","NA"
"-105.67","53.21","PRINCE ALBERT A","4056241","2019-11-04 18:00","2019","11","04","18:00","-7.7","","-13.0","","66","","","","30","","7","","24.1","","97.20","","","","-11","","Mostly Cloudy"
"-105.67","53.21","PRINCE ALBERT A","4056241","2019-11-04 19:00","2019","11","04","19:00","-9.4","","-13.5","","72","","","","28","","9","","24.1","","97.22","","","","-14","","NA"
"-105.67","53.21","PRINCE ALBERT A","4056241","2019-11-04 20:00","2019","11","04","20:00","-10.4","","-14.1","","75","","","","28","","4","","24.1","","97.22","","","","-13","","NA"
"-105.67","53.21","PRINCE ALBERT A","4056241","2019-11-04 21:00","2019","11","04","21:00","-11.7","","-14.0","","83","","","","27","","5","","24.1","","97.22","","","","-15","","Mainly Clear"
"-105.67","53.21","PRINCE ALBERT A","4056241","2019-11-04 22:00","2019","11","04","22:00","-14.3","","-16.4","","84","","","","27","","3","","24.1","","97.21","","","","-16","","NA"
"-105.67","53.21","PRINCE ALBERT A","4056241","2019-11-04 23:00","2019","11","04","23:00","-15.5","","-17.7","","84","","","","28","","4","","24.1","","97.21","","","","-18","","NA"
"-105.67","53.21","PRINCE ALBERT A","4056241","2019-11-05 00:00","2019","11","05","00:00","-16.4","","-18.6","","83","","","","36","","2","","24.1","","97.19","","","","-18","","Clear"
"-105.67","53.21","PRINCE ALBERT A","4056241","2019-11-05 01:00","2019","11","05","01:00","-16.0","","-18.1","","84","","","","30","","7","","24.1","","97.20","","","","-21","","NA"
"-105.67","53.21","PRINCE ALBERT A","4056241","2019-11-05 02:00","2019","11","05","02:00","-12.6","","-14.6","","85","","","","28","","3","","24.1","","97.17","","","","-15","","Snow"
"-105.67","53.21","PRINCE ALBERT A","4056241","2019-11-05 03:00","2019","11","05","03:00","-12.2","","-14.0","","87","","","","36","","3","","24.1","","97.16","","","","-14","","Snow"
"-105.67","53.21","PRINCE ALBERT A","4056241","2019-11-05 04:00","2019","11","05","04:00","-11.6","","-13.6","","86","","","","36","","3","","24.1","","97.16","","","","-13","","Snow"
"-105.67","53.21","PRINCE ALBERT A","4056241","2019-11-05 05:00","2019","11","05","05:00","-11.5","","-13.4","","86","","","","30","","4","","24.1","","97.17","","","","-14","","NA"
"-105.67","53.21","PRINCE ALBERT A","4056241","2019-11-05 06:00","2019","11","05","06:00","-11.6","","-13.2","","88","","","","36","","1","","24.1","","97.14","","","","-12","","Mainly Clear"
"-105.67","53.21","PRINCE ALBERT A","4056241","2019-11-05 07:00","2019","11","05","07:00","-11.4","","-13.0","","88","","","","22","","7","","24.1","","97.14","","","","-16","","NA"
"-105.67","53.21","PRINCE ALBERT A","4056241","2019-11-05 08:00","2019","11","05","08:00","-11.7","","-13.8","","84","","","","22","","7","","24.1","","97.10","","","","-16","","NA"
"-105.67","53.21","PRINCE ALBERT A","4056241","2019-11-05 09:00","2019","11","05","09:00","-10.3","","-12.3","","85","","","","27","","8","","24.1","","97.22","","","","-15","","Cloudy"
"-105.67","53.21","PRINCE ALBERT A","4056241","2019-11-05 10:00","2019","11","05","10:00","-9.2","","-11.4","","84","","","","30","","12","","4.8","","97.22","","","","-15","","Snow"
"-105.67","53.21","PRINCE ALBERT A","4056241","2019-11-05 11:00","2019","11","05","11:00","-8.1","","-9.9","","87","","","","30","","10","","4.8","","97.26","","","","-13","","Snow"
"-105.67","53.21","PRINCE ALBERT A","4056241","2019-11-05 12:00","2019","11","05","12:00","-7.2","","-10.2","","79","","","","34","","21","","16.1","","97.31","","","","-15","","Snow"
"-105.67","53.21","PRINCE ALBERT A","4056241","2019-11-05 13:00","2019","11","05","13:00","-6.2","","-10.9","","69","","","","34","","17","","24.1","","97.38","","","","-12","","Blowing Snow"
"-105.67","53.21","PRINCE ALBERT A","4056241","2019-11-05 14:00","2019","11","05","14:00","-6.5","","-13.1","","60","","","","36","","18","","24.1","","97.42","","","","-13","","Blowing Snow"
"-105.67","53.21","PRINCE ALBERT A","4056241","2019-11-05 15:00","2019","11","05","15:00","-6.5","","-10.9","","71","","","","35","","16","","16.1","","97.45","","","","-13","","Snow,Blowing Snow"
"-105.67","53.21","PRINCE ALBERT A","4056241","2019-11-05 16:00","2019","11","05","16:00","-6.9","","-12.2","","66","","","","36","","18","","24.1","","97.52","","","","-14","","Snow,Blowing Snow"
"-105.67","53.21","PRINCE ALBERT A","4056241","2019-11-05 17:00","2019","11","05","17:00","-7.3","","-14.6","","56","","","","34","","21","","24.1","","97.63","","","","-15","","Blowing Snow"
"-105.67","53.21","PRINCE ALBERT A","4056241","2019-11-05 18:00","2019","11","05","18:00","-8.3","","-12.8","","71","","","","32","","17","","24.1","","97.71","","","","-15","","Blowing Snow"
"-105.67","53.21","PRINCE ALBERT A","4056241","2019-11-05 19:00","2019","11","05","19:00","-9.9","","-13.1","","78","","","","29","","18","","24.1","","97.75","","","","-17","","NA"
"-105.67","53.21","PRINCE ALBERT A","4056241","2019-11-05 20:00","2019","11","05","20:00","-10.8","","-14.0","","77","","","","29","","17","","24.1","","97.80","","","","-18","","NA"
"-105.67","53.21","PRINCE ALBERT A","4056241","2019-11-05 21:00","2019","11","05","21:00","-10.2","","-13.9","","74","","","","31","","18","","24.1","","97.85","","","","-18","","Mainly Clear"
"-105.67","53.21","PRINCE ALBERT A","4056241","2019-11-05 22:00","2019","11","05","22:00","-9.7","","-12.9","","78","","","","35","","16","","6.4","","97.97","","","","-17","","Snow"
"-105.67","53.21","PRINCE ALBERT A","4056241","2019-11-05 23:00","2019","11","05","23:00","-10.4","","-15.7","","66","","","","36","","23","","24.1","","98.05","","","","-19","","Snow"
"-105.67","53.21","PRINCE ALBERT A","4056241","2019-11-06 00:00","2019","11","06","00:00","-11.2","","-16.4","","65","","","","35","","19","","24.1","","98.15","","","","-19","","Mainly Clear"
"-105.67","53.21","PRINCE ALBERT A","4056241","2019-11-06 01:00","2019","11","06","01:00","-12.2","","-16.5","","71","","","","31","","14","","24.1","","98.20","","","","-19","","NA"
"-105.67","53.21","PRINCE ALBERT A","4056241","2019-11-06 02:00","2019","11","06","02:00","-12.6","","-17.7","","66","","","","32","","14","","24.1","","98.24","","","","-20","","NA"
"-105.67","53.21","PRINCE ALBERT A","4056241","2019-11-06 03:00","2019","11","06","03:00","-14.6","","-18.0","","76","","","","28","","14","","24.1","","98.28","","","","-22","","Clear"
"-105.67","53.21","PRINCE ALBERT A","4056241","2019-11-06 04:00","2019","11","06","04:00","-15.1","","-18.4","","76","","","","28","","14","","24.1","","98.30","","","","-23","","NA"
"-105.67","53.21","PRINCE ALBERT A","4056241","2019-11-06 05:00","2019","11","06","05:00","-15.2","","-17.3","","84","","","","28","","13","","24.1","","98.32","","","","-23","","NA"
"-105.67","53.21","PRINCE ALBERT A","4056241","2019-11-06 06:00","2019","11","06","06:00","-15.0","","-17.4","","82","","","","27","","11","","24.1","","98.34","","","","-22","","Clear"
"-105.67","53.21","PRINCE ALBERT A","4056241","2019-11-06 07:00","2019","11","06","07:00","-15.5","","-17.4","","85","","","","28","","13","","24.1","","98.36","","","","-23","","NA"
"-105.67","53.21","PRINCE ALBERT A","4056241","2019-11-06 08:00","2019","11","06","08:00","-15.7","","-17.5","","86","","","","28","","14","","24.1","","98.40","","","","-23","","NA"
"-105.67","53.21","PRINCE ALBERT A","4056241","2019-11-06 09:00","2019","11","06","09:00","-13.8","","-16.0","","84","","","","28","","13","","24.1","","98.42","","","","-21","","Mainly Clear"
"-105.67","53.21","PRINCE ALBERT A","4056241","2019-11-06 10:00","2019","11","06","10:00","-12.2","","-15.1","","79","","","","30","","15","","24.1","","98.41","","","","-19","","NA"
"-105.67","53.21","PRINCE ALBERT A","4056241","2019-11-06 11:00","2019","11","06","11:00","-10.3","","-14.2","","73","","","","30","","12","","24.1","","98.40","","","","-16","","NA"
"-105.67","53.21","PRINCE ALBERT A","4056241","2019-11-06 12:00","2019","11","06","12:00","-8.9","","-14.2","","66","","","","29","","17","","24.1","","98.36","","","","-16","","Mostly Cloudy"
"-105.67","53.21","PRINCE ALBERT A","4056241","2019-11-06 13:00","2019","11","06","13:00","-8.6","","-14.6","","62","","","","29","","17","","24.1","","98.30","","","","-15","","NA"
"-105.67","53.21","PRINCE ALBERT A","4056241","2019-11-06 14:00","2019","11","06","14:00","-7.7","","-14.2","","60","","","","32","","14","","24.1","","98.24","","","","-14","","NA"
"-105.67","53.21","PRINCE ALBERT A","4056241","2019-11-06 15:00","2019","11","06","15:00","-8.3","","-14.9","","60","","","","28","","14","","24.1","","98.16","","","","-14","","Mostly Cloudy"
"-105.67","53.21","PRINCE ALBERT A","4056241","2019-11-06 16:00","2019","11","06","16:00","-8.1","","-14.9","","58","","","","24","","14","","24.1","","98.08","","","","-14","","NA"
"-105.67","53.21","PRINCE ALBERT A","4056241","2019-11-06 17:00","2019","11","06","17:00","-8.2","","-14.2","","62","","","","25","","19","","24.1","","98.03","","","","-15","","Snow Showers"
"-105.67","53.21","PRINCE ALBERT A","4056241","2019-11-06 18:00","2019","11","06","18:00","-10.2","","-15.6","","65","","","","29","","16","","24.1","","97.99","","","","-17","","Mostly Cloudy"
"-105.67","53.21","PRINCE ALBERT A","4056241","2019-11-06 19:00","2019","11","06","19:00","-11.1","","-15.6","","70","","","","23","","7","","24.1","","97.95","","","","-15","","NA"
"-105.67","53.21","PRINCE ALBERT A","4056241","2019-11-06 20:00","2019","11","06","20:00","-12.0","","-15.1","","78","","","","24","","8","","24.1","","97.89","","","","-17","","NA"
"-105.67","53.21","PRINCE ALBERT A","4056241","2019-11-06 21:00","2019","11","06","21:00","-13.0","","-15.7","","81","","","","23","","9","","24.1","","97.81","","","","-18","","Mainly Clear"
"-105.67","53.21","PRINCE ALBERT A","4056241","2019-11-06 22:00","2019","11","06","22:00","-13.8","","-16.4","","81","","","","23","","8","","24.1","","97.75","","","","-19","","NA"
"-105.67","53.21","PRINCE ALBERT A","4056241","2019-11-06 23:00","2019","11","06","23:00","-13.9","","-16.6","","80","","","","23","","7","","24.1","","97.72","","","","-19","","NA"
"-105.67","53.21","PRINCE ALBERT A","4056241","2019-11-07 00:00","2019","11","07","00:00","-15.0","","-16.5","","88","","","","19","","4","","24.1","","97.69","","","","-18","","Mostly Cloudy"
"-105.67","53.21","PRINCE ALBERT A","4056241","2019-11-07 01:00","2019","11","07","01:00","-14.0","","-16.2","","84","","","","22","","4","","24.1","","97.65","","","","-17","","NA"
"-105.67","53.21","PRINCE ALBERT A","4056241","2019-11-07 02:00","2019","11","07","02:00","-12.8","","-15.1","","83","","","","23","","5","","19.3","","97.63","","","","-16","","Snow"
"-105.67","53.21","PRINCE ALBERT A","4056241","2019-11-07 03:00","2019","11","07","03:00","-13.1","","-15.4","","83","","","","24","","7","","24.1","","97.60","","","","-18","","Snow"
"-105.67","53.21","PRINCE ALBERT A","4056241","2019-11-07 04:00","2019","11","07","04:00","-16.7","","-18.6","","85","","","","36","","3","","24.1","","97.59","","","","-19","","NA"
"-105.67","53.21","PRINCE ALBERT A","4056241","2019-11-07 05:00","2019","11","07","05:00","-17.8","","-20.0","","83","","","","4","","3","","24.1","","97.60","","","","-20","","NA"
"-105.67","53.21","PRINCE ALBERT A","4056241","2019-11-07 06:00","2019","11","07","06:00","-19.5","","-22.1","","80","","","","33","","4","","19.3","","97.62","","","","-23","","Clear"
"-105.67","53.21","PRINCE ALBERT A","4056241","2019-11-07 07:00","2019","11","07","07:00","-20.1","","-22.5","","82","","","","34","","3","","0.4","","97.64","","","","-23","","Ice Crystals"
"-105.67","53.21","PRINCE ALBERT A","4056241","2019-11-07 08:00","2019","11","07","08:00","-20.4","","-22.8","","82","","","","36","","3","","0.4","","97.66","","","","-23","","Ice Crystals"
"-105.67","53.21","PRINCE ALBERT A","4056241","2019-11-07 09:00","2019","11","07","09:00","-19.5","","-21.8","","82","","","","0","","1","","8.1","","97.66","","","","-20","","Ice Crystals,Fog"
"-105.67","53.21","PRINCE ALBERT A","4056241","2019-11-07 10:00","2019","11","07","10:00","-15.0","","-16.9","","86","","","","28","","3","","24.1","","97.71","","","","-17","","Ice Crystals"
"-105.67","53.21","PRINCE ALBERT A","4056241","2019-11-07 11:00","2019","11","07","11:00","-12.3","","-14.8","","82","","","","19","","4","","24.1","","97.68","","","","-15","","Ice Crystals"
"-105.67","53.21","PRINCE ALBERT A","4056241","2019-11-07 12:00","2019","11","07","12:00","-10.9","","-14.1","","77","","","","14","","7","","24.1","","97.62","","","","-15","","Mostly Cloudy"
"-105.67","53.21","PRINCE ALBERT A","4056241","2019-11-07 13:00","2019","11","07","13:00","-9.2","","-13.2","","73","","","","20","","9","","24.1","","97.56","","","","-14","","NA"
"-105.67","53.21","PRINCE ALBERT A","4056241","2019-11-07 14:00","2019","11","07","14:00","-8.6","","-13.1","","70","","","","15","","12","","24.1","","97.47","","","","-14","","NA"
"-105.67","53.21","PRINCE ALBERT A","4056241","2019-11-07 15:00","2019","11","07","15:00","-8.8","","-13.0","","72","","","","17","","13","","24.1","","97.39","","","","-15","","Mostly Cloudy"
"-105.67","53.21","PRINCE ALBERT A","4056241","2019-11-07 16:00","2019","11","07","16:00","-8.5","","-12.4","","74","","","","19","","12","","24.1","","97.31","","","","-14","","NA"
"-105.67","53.21","PRINCE ALBERT A","4056241","2019-11-07 17:00","2019","11","07","17:00","-9.0","","-12.8","","74","","","","17","","15","","24.1","","97.24","","","","-16","","NA"
"-105.67","53.21","PRINCE ALBERT A","4056241","2019-11-07 18:00","2019","11","07","18:00","-9.1","","-12.8","","75","","","","16","","14","","24.1","","97.18","","","","-15","","Mostly Cloudy"
"-105.67","53.21","PRINCE ALBERT A","4056241","2019-11-07 19:00","2019","11","07","19:00","-9.1","","-13.0","","73","","","","19","","15","","24.1","","97.10","","","","-16","","NA"
"-105.67","53.21","PRINCE ALBERT A","4056241","2019-11-07 20:00","2019","11","07","20:00","-8.8","","-12.5","","75","","","","17","","12","","24.1","","96.99","","","","-14","","NA"
"-105.67","53.21","PRINCE ALBERT A","4056241","2019-11-07 21:00","2019","11","07","21:00","-8.5","","-12.1","","75","","","","18","","10","","24.1","","96.89","","","","-13","","Cloudy"
"-105.67","53.21","PRINCE ALBERT A","4056241","2019-11-07 22:00","2019","11","07","22:00","-8.3","","-11.9","","75","","","","17","","13","","24.1","","96.80","","","","-14","","NA"
"-105.67","53.21","PRINCE ALBERT A","4056241","2019-11-07 23:00","2019","11","07","23:00","-8.8","","-11.8","","79","","","","17","","9","","24.1","","96.71","","","","-13","","NA"
"-105.67","53.21","PRINCE ALBERT A","4056241","2019-11-08 00:00","2019","11","08","00:00","-9.0","","-11.6","","82","","","","13","","5","","24.1","","96.61","","","","-12","","Mostly Cloudy"
"-105.67","53.21","PRINCE ALBERT A","4056241","2019-11-08 01:00","2019","11","08","01:00","-9.1","","-11.4","","83","","","","12","","7","","24.1","","96.50","","","","-13","","NA"
"-105.67","53.21","PRINCE ALBERT A","4056241","2019-11-08 02:00","2019","11","08","02:00","-9.3","","-11.5","","84","","","","10","","4","","24.1","","96.40","","","","-12","","NA"
"-105.67","53.21","PRINCE ALBERT A","4056241","2019-11-08 03:00","2019","11","08","03:00","-10.1","","-11.9","","87","","","","8","","10","","24.1","","96.32","","","","-15","","Mostly Cloudy"
"-105.67","53.21","PRINCE ALBERT A","4056241","2019-11-08 04:00","2019","11","08","04:00","-9.1","","-11.2","","85","","","","8","","8","","24.1","","96.27","","","","-13","","NA"
"-105.67","53.21","PRINCE ALBERT A","4056241","2019-11-08 05:00","2019","11","08","05:00","-8.5","","-10.6","","85","","","","9","","4","","24.1","","96.19","","","","-11","","NA"
"-105.67","53.21","PRINCE ALBERT A","4056241","2019-11-08 06:00","2019","11","08","06:00","-7.7","","-10.2","","82","","","","6","","3","","24.1","","96.17","","","","-9","","Cloudy"
"-105.67","53.21","PRINCE ALBERT A","4056241","2019-11-08 07:00","2019","11","08","07:00","-7.5","","-9.9","","83","","","","7","","7","","24.1","","96.14","","","","-11","","Snow"
"-105.67","53.21","PRINCE ALBERT A","4056241","2019-11-08 08:00","2019","11","08","08:00","-7.8","","-9.7","","86","","","","8","","8","","9.7","","96.12","","","","-12","","Snow"
"-105.67","53.21","PRINCE ALBERT A","4056241","2019-11-08 09:00","2019","11","08","09:00","-7.4","","-9.4","","86","","","","9","","9","","12.9","","96.09","","","","-12","","Snow"
"-105.67","53.21","PRINCE ALBERT A","4056241","2019-11-08 10:00","2019","11","08","10:00","-7.0","","-8.9","","86","","","","12","","3","","4.8","","96.04","","","","-9","","Snow"
"-105.67","53.21","PRINCE ALBERT A","4056241","2019-11-08 11:00","2019","11","08","11:00","-6.6","","-8.3","","88","","","","36","","1","","3.2","","96.08","","","","-7","","Snow"
"-105.67","53.21","PRINCE ALBERT A","4056241","2019-11-08 12:00","2019","11","08","12:00","-6.0","","-7.7","","88","","","","0","","1","","3.2","","96.09","","","","-6","","Snow"
"-105.67","53.21","PRINCE ALBERT A","4056241","2019-11-08 13:00","2019","11","08","13:00","-4.9","","-7.0","","85","","","","36","","2","","6.4","","96.05","","","","-6","","Snow"
"-105.67","53.21","PRINCE ALBERT A","4056241","2019-11-08 14:00","2019","11","08","14:00","-4.0","","-6.2","","85","","","","24","","5","","8.1","","96.05","","","","-6","","Snow"
"-105.67","53.21","PRINCE ALBERT A","4056241","2019-11-08 15:00","2019","11","08","15:00","-3.6","","-5.9","","85","","","","25","","7","","9.7","","96.08","","","","-7","","Snow"
"-105.67","53.21","PRINCE ALBERT A","4056241","2019-11-08 16:00","2019","11","08","16:00","-3.3","","-5.3","","86","","","","32","","5","","12.9","","96.13","","","","-5","","Snow"
"-105.67","53.21","PRINCE ALBERT A","4056241","2019-11-08 17:00","2019","11","08","17:00","-3.2","","-5.3","","85","","","","32","","8","","12.9","","96.15","","","","-6","","Snow"
"-105.67","53.21","PRINCE ALBERT A","4056241","2019-11-08 18:00","2019","11","08","18:00","-4.2","","-5.8","","89","","","","31","","8","","12.9","","96.21","","","","-8","","Snow"
"-105.67","53.21","PRINCE ALBERT A","4056241","2019-11-08 19:00","2019","11","08","19:00","-3.9","","-5.6","","88","","","","33","","5","","12.9","","96.26","","","","-6","","Snow"
"-105.67","53.21","PRINCE ALBERT A","4056241","2019-11-08 20:00","2019","11","08","20:00","-4.1","","-5.6","","89","","","","29","","7","","24.1","","96.32","","","","-7","","NA"
"-105.67","53.21","PRINCE ALBERT A","4056241","2019-11-08 21:00","2019","11","08","21:00","-3.4","","-5.4","","86","","","","30","","10","","24.1","","96.33","","","","-7","","Cloudy"
"-105.67","53.21","PRINCE ALBERT A","4056241","2019-11-08 22:00","2019","11","08","22:00","-3.5","","-5.3","","88","","","","29","","7","","24.1","","96.35","","","","-6","","NA"
"-105.67","53.21","PRINCE ALBERT A","4056241","2019-11-08 23:00","2019","11","08","23:00","-3.1","","-5.3","","85","","","","31","","9","","24.1","","96.37","","","","-7","","NA"
"-105.67","53.21","PRINCE ALBERT A","4056241","2019-11-09 00:00","2019","11","09","00:00","-3.1","","-5.6","","83","","","","1","","14","","24.1","","96.37","","","","-8","","Snow"
"-105.67","53.21","PRINCE ALBERT A","4056241","2019-11-09 01:00","2019","11","09","01:00","-4.0","","-6.1","","85","","","","1","","12","","16.1","","96.41","","","","-9","","Snow"
"-105.67","53.21","PRINCE ALBERT A","4056241","2019-11-09 02:00","2019","11","09","02:00","-5.1","","-7.1","","86","","","","2","","14","","6.4","","96.45","","","","-10","","Snow"
"-105.67","53.21","PRINCE ALBERT A","4056241","2019-11-09 03:00","2019","11","09","03:00","-5.8","","-7.3","","89","","","","3","","9","","4.8","","96.48","","","","-10","","Snow"
"-105.67","53.21","PRINCE ALBERT A","4056241","2019-11-09 04:00","2019","11","09","04:00","-6.0","","-7.5","","89","","","","36","","7","","6.4","","96.54","","","","-9","","Snow"
"-105.67","53.21","PRINCE ALBERT A","4056241","2019-11-09 05:00","2019","11","09","05:00","-6.2","","-8.7","","83","","","","36","","15","","8.1","","96.55","","","","-12","","Snow"
"-105.67","53.21","PRINCE ALBERT A","4056241","2019-11-09 06:00","2019","11","09","06:00","-6.6","","-8.5","","86","","","","35","","9","","12.9","","96.62","","","","-11","","Snow"
"-105.67","53.21","PRINCE ALBERT A","4056241","2019-11-09 07:00","2019","11","09","07:00","-7.9","","-11.3","","77","","","","36","","22","","16.1","","96.70","","","","-16","","Snow,Blowing Snow"
"-105.67","53.21","PRINCE ALBERT A","4056241","2019-11-09 08:00","2019","11","09","08:00","-8.4","","-12.3","","74","","","","35","","20","","12.9","","96.82","","","","-16","","Snow,Blowing Snow"
"-105.67","53.21","PRINCE ALBERT A","4056241","2019-11-09 09:00","2019","11","09","09:00","-8.8","","-13.1","","71","","","","36","","26","","12.9","","96.91","","","","-17","","Snow,Blowing Snow"
"-105.67","53.21","PRINCE ALBERT A","4056241","2019-11-09 10:00","2019","11","09","10:00","-8.8","","-12.4","","75","","","","1","","18","","19.3","","97.00","","","","-16","","Snow,Blowing Snow"
"-105.67","53.21","PRINCE ALBERT A","4056241","2019-11-09 11:00","2019","11","09","11:00","-8.8","","-13.9","","67","","","","35","","25","","19.3","","97.11","","","","-17","","Snow,Blowing Snow"
"-105.67","53.21","PRINCE ALBERT A","4056241","2019-11-09 12:00","2019","11","09","12:00","-8.9","","-15.7","","58","","","","36","","22","","24.1","","97.17","","","","-17","","Snow,Blowing Snow"
"-105.67","53.21","PRINCE ALBERT A","4056241","2019-11-09 13:00","2019","11","09","13:00","-8.3","","-16.1","","54","","","","35","","29","","24.1","","97.30","","","","-17","","Blowing Snow"
"-105.67","53.21","PRINCE ALBERT A","4056241","2019-11-09 14:00","2019","11","09","14:00","-8.7","","-16.3","","55","","","","1","","24","","24.1","","97.32","","","","-17","","Blowing Snow"
"-105.67","53.21","PRINCE ALBERT A","4056241","2019-11-09 15:00","2019","11","09","15:00","-9.2","","-16.6","","55","","","","36","","20","","24.1","","97.41","","","","-17","","Blowing Snow"
"-105.67","53.21","PRINCE ALBERT A","4056241","2019-11-09 16:00","2019","11","09","16:00","-9.0","","-16.8","","54","","","","36","","26","","24.1","","97.45","","","","-18","","NA"
"-105.67","53.21","PRINCE ALBERT A","4056241","2019-11-09 17:00","2019","11","09","17:00","-10.0","","-16.9","","57","","","","35","","13","","24.1","","97.53","","","","-16","","NA"
"-105.67","53.21","PRINCE ALBERT A","4056241","2019-11-09 18:00","2019","11","09","18:00","-11.2","","-19.2","","52","","","","36","","17","","24.1","","97.61","","","","-19","","Mainly Clear"
"-105.67","53.21","PRINCE ALBERT A","4056241","2019-11-09 19:00","2019","11","09","19:00","-12.8","","-20.0","","55","","","","35","","12","","24.1","","97.67","","","","-19","","NA"
"-105.67","53.21","PRINCE ALBERT A","4056241","2019-11-09 20:00","2019","11","09","20:00","-12.7","","-19.6","","57","","","","29","","8","","24.1","","97.71","","","","-18","","NA"
"-105.67","53.21","PRINCE ALBERT A","4056241","2019-11-09 21:00","2019","11","09","21:00","-12.3","","-18.0","","63","","","","30","","9","","24.1","","97.75","","","","-18","","Cloudy"
"-105.67","53.21","PRINCE ALBERT A","4056241","2019-11-09 22:00","2019","11","09","22:00","-12.1","","-17.5","","65","","","","33","","8","","19.3","","97.77","","","","-17","","Snow"
"-105.67","53.21","PRINCE ALBERT A","4056241","2019-11-09 23:00","2019","11","09","23:00","-12.1","","-14.8","","80","","","","33","","7","","12.9","","97.81","","","","-16","","Snow"
"-105.67","53.21","PRINCE ALBERT A","4056241","2019-11-10 00:00","2019","11","10","00:00","-11.8","","-17.9","","61","","","","1","","18","","19.3","","97.85","","","","-20","","Snow"
"-105.67","53.21","PRINCE ALBERT A","4056241","2019-11-10 01:00","2019","11","10","01:00","-12.9","","-18.1","","65","","","","1","","14","","19.3","","97.88","","","","-20","","Snow"
"-105.67","53.21","PRINCE ALBERT A","4056241","2019-11-10 02:00","2019","11","10","02:00","-13.3","","-18.6","","65","","","","36","","10","","19.3","","97.97","","","","-19","","Snow"
"-105.67","53.21","PRINCE ALBERT A","4056241","2019-11-10 03:00","2019","11","10","03:00","-13.4","","-18.9","","64","","","","2","","15","","19.3","","98.01","","","","-21","","Snow"
"-105.67","53.21","PRINCE ALBERT A","4056241","2019-11-10 04:00","2019","11","10","04:00","-13.4","","-18.6","","65","","","","1","","12","","19.3","","98.05","","","","-20","","Snow"
"-105.67","53.21","PRINCE ALBERT A","4056241","2019-11-10 05:00","2019","11","10","05:00","-13.4","","-18.6","","65","","","","1","","12","","24.1","","98.13","","","","-20","","Snow"
"-105.67","53.21","PRINCE ALBERT A","4056241","2019-11-10 06:00","2019","11","10","06:00","-13.7","","-18.5","","67","","","","32","","12","","19.3","","98.17","","","","-20","","Snow"
"-105.67","53.21","PRINCE ALBERT A","4056241","2019-11-10 07:00","2019","11","10","07:00","-13.8","","-18.7","","67","","","","34","","18","","12.9","","98.23","","","","-22","","Snow"
"-105.67","53.21","PRINCE ALBERT A","4056241","2019-11-10 08:00","2019","11","10","08:00","-14.2","","-19.0","","67","","","","34","","14","","19.3","","98.29","","","","-22","","Snow"
"-105.67","53.21","PRINCE ALBERT A","4056241","2019-11-10 09:00","2019","11","10","09:00","-15.4","","-20.4","","66","","","","36","","24","","24.1","","98.40","","","","-26","","Snow"
"-105.67","53.21","PRINCE ALBERT A","4056241","2019-11-10 10:00","2019","11","10","10:00","-16.9","","-22.2","","64","","","","2","","28","","24.1","","98.49","","","","-28","","NA"
"-105.67","53.21","PRINCE ALBERT A","4056241","2019-11-10 11:00","2019","11","10","11:00","-16.2","","-22.0","","62","","","","34","","18","","24.1","","98.56","","","","-25","","NA"
"-105.67","53.21","PRINCE ALBERT A","4056241","2019-11-10 12:00","2019","11","10","12:00","-15.4","","-21.4","","61","","","","36","","15","","24.1","","98.59","","","","-23","","Mainly Clear"
"-105.67","53.21","PRINCE ALBERT A","4056241","2019-11-10 13:00","2019","11","10","13:00","-15.2","","-21.2","","61","","","","34","","17","","24.1","","98.55","","","","-24","","Snow"
"-105.67","53.21","PRINCE ALBERT A","4056241","2019-11-10 14:00","2019","11","10","14:00","-14.8","","-20.4","","63","","","","35","","12","","16.1","","98.51","","","","-22","","Snow"
"-105.67","53.21","PRINCE ALBERT A","4056241","2019-11-10 15:00","2019","11","10","15:00","-14.1","","-20.6","","59","","","","30","","24","","19.3","","98.49","","","","-24","","Snow"
"-105.67","53.21","PRINCE ALBERT A","4056241","2019-11-10 16:00","2019","11","10","16:00","-14.7","","-20.8","","60","","","","30","","23","","24.1","","98.50","","","","-24","","Snow"
"-105.67","53.21","PRINCE ALBERT A","4056241","2019-11-10 17:00","2019","11","10","17:00","-15.7","","-21.5","","62","","","","31","","20","","24.1","","98.52","","","","-25","","NA"
"-105.67","53.21","PRINCE ALBERT A","4056241","2019-11-10 18:00","2019","11","10","18:00","-16.0","","-21.5","","63","","","","30","","17","","24.1","","98.55","","","","-25","","Mostly Cloudy"
"-105.67","53.21","PRINCE ALBERT A","4056241","2019-11-10 19:00","2019","11","10","19:00","-16.9","","-22.0","","66","","","","30","","14","","24.1","","98.60","","","","-25","","NA"
"-105.67","53.21","PRINCE ALBERT A","4056241","2019-11-10 20:00","2019","11","10","20:00","-19.2","","-22.9","","73","","","","29","","13","","24.1","","98.61","","","","-27","","NA"
"-105.67","53.21","PRINCE ALBERT A","4056241","2019-11-10 21:00","2019","11","10","21:00","-19.1","","-22.7","","74","","","","27","","13","","24.1","","98.61","","","","-27","","Mainly Clear"
"-105.67","53.21","PRINCE ALBERT A","4056241","2019-11-10 22:00","2019","11","10","22:00","-19.9","","-23.1","","76","","","","28","","13","","24.1","","98.62","","","","-28","","NA"
"-105.67","53.21","PRINCE ALBERT A","4056241","2019-11-10 23:00","2019","11","10","23:00","-20.8","","-23.5","","80","","","","27","","10","","24.1","","98.62","","","","-28","","NA"
"-105.67","53.21","PRINCE ALBERT A","4056241","2019-11-11 00:00","2019","11","11","00:00","-19.8","","-22.7","","78","","","","26","","9","","24.1","","98.61","","","","-27","","Mostly Cloudy"
"-105.67","53.21","PRINCE ALBERT A","4056241","2019-11-11 01:00","2019","11","11","01:00","-19.3","","-22.3","","78","","","","25","","12","","24.1","","98.62","","","","-27","","NA"
"-105.67","53.21","PRINCE ALBERT A","4056241","2019-11-11 02:00","2019","11","11","02:00","-20.0","","-22.8","","79","","","","25","","13","","24.1","","98.58","","","","-28","","NA"
"-105.67","53.21","PRINCE ALBERT A","4056241","2019-11-11 03:00","2019","11","11","03:00","-20.4","","-23.2","","79","","","","25","","9","","24.1","","98.54","","","","-27","","Clear"
"-105.67","53.21","PRINCE ALBERT A","4056241","2019-11-11 04:00","2019","11","11","04:00","-20.8","","-23.4","","80","","","","25","","9","","24.1","","98.53","","","","-28","","NA"
"-105.67","53.21","PRINCE ALBERT A","4056241","2019-11-11 05:00","2019","11","11","05:00","-22.1","","-24.6","","81","","","","28","","7","","24.1","","98.48","","","","-28","","NA"
"-105.67","53.21","PRINCE ALBERT A","4056241","2019-11-11 06:00","2019","11","11","06:00","-22.4","","-24.9","","80","","","","21","","11","","24.1","","98.46","","","","-31","","Mainly Clear"
"-105.67","53.21","PRINCE ALBERT A","4056241","2019-11-11 07:00","2019","11","11","07:00","-23.1","","-25.6","","80","","","","21","","11","","24.1","","98.43","","","","-31","","NA"
"-105.67","53.21","PRINCE ALBERT A","4056241","2019-11-11 08:00","2019","11","11","08:00","-22.5","","-25.1","","80","","","","22","","8","","24.1","","98.39","","","","-29","","NA"
"-105.67","53.21","PRINCE ALBERT A","4056241","2019-11-11 09:00","2019","11","11","09:00","-21.6","","-24.2","","80","","","","23","","10","","24.1","","98.36","","","","-29","","Clear"
"-105.67","53.21","PRINCE ALBERT A","4056241","2019-11-11 10:00","2019","11","11","10:00","-19.4","","-22.3","","78","","","","23","","11","","24.1","","98.28","","","","-27","","NA"
"-105.67","53.21","PRINCE ALBERT A","4056241","2019-11-11 11:00","2019","11","11","11:00","-17.7","","-21.1","","75","","","","22","","14","","24.1","","98.20","","","","-26","","NA"
"-105.67","53.21","PRINCE ALBERT A","4056241","2019-11-11 12:00","2019","11","11","12:00","-15.7","","-19.4","","73","","","","22","","17","","24.1","","98.07","","","","-24","","Clear"
"-105.67","53.21","PRINCE ALBERT A","4056241","2019-11-11 13:00","2019","11","11","13:00","-13.5","","-18.0","","69","","","","23","","16","","24.1","","97.98","","","","-21","","NA"
"-105.67","53.21","PRINCE ALBERT A","4056241","2019-11-11 14:00","2019","11","11","14:00","-14.0","","-18.4","","69","","","","18","","16","","24.1","","97.86","","","","-22","","NA"
"-105.67","53.21","PRINCE ALBERT A","4056241","2019-11-11 15:00","2019","11","11","15:00","-12.4","","-17.3","","67","","","","21","","17","","24.1","","97.76","","","","-20","","Mainly Clear"
"-105.67","53.21","PRINCE ALBERT A","4056241","2019-11-11 16:00","2019","11","11","16:00","-11.8","","-16.6","","68","","","","20","","19","","24.1","","97.61","","","","-20","","NA"
"-105.67","53.21","PRINCE ALBERT A","4056241","2019-11-11 17:00","2019","11","11","17:00","-12.3","","-16.4","","72","","","","21","","17","","24.1","","97.47","","","","-20","","NA"
"-105.67","53.21","PRINCE ALBERT A","4056241","2019-11-11 18:00","2019","11","11","18:00","-13.5","","-16.8","","76","","","","18","","11","","24.1","","97.31","","","","-20","","Mainly Clear"
"-105.67","53.21","PRINCE ALBERT A","4056241","2019-11-11 19:00","2019","11","11","19:00","-13.5","","-17.0","","75","","","","19","","16","","24.1","","97.14","","","","-21","","NA"
"-105.67","53.21","PRINCE ALBERT A","4056241","2019-11-11 20:00","2019","11","11","20:00","-13.4","","-16.8","","76","","","","20","","17","","24.1","","96.99","","","","-21","","NA"
"-105.67","53.21","PRINCE ALBERT A","4056241","2019-11-11 21:00","2019","11","11","21:00","-13.2","","-16.3","","78","","","","21","","17","","24.1","","96.81","","","","-21","","Mostly Cloudy"
"-105.67","53.21","PRINCE ALBERT A","4056241","2019-11-11 22:00","2019","11","11","22:00","-12.8","","-15.8","","79","","","","22","","18","","24.1","","96.70","","","","-21","","NA"
"-105.67","53.21","PRINCE ALBERT A","4056241","2019-11-11 23:00","2019","11","11","23:00","-13.4","","-16.1","","80","","","","21","","12","","24.1","","96.51","","","","-20","","NA"
"-105.67","53.21","PRINCE ALBERT A","4056241","2019-11-12 00:00","2019","11","12","00:00","-12.7","","-16.0","","77","","","","23","","15","","24.1","","96.38","","","","-20","","Mainly Clear"
"-105.67","53.21","PRINCE ALBERT A","4056241","2019-11-12 01:00","2019","11","12","01:00","-12.8","","-16.0","","77","","","","24","","11","","24.1","","96.29","","","","-19","","NA"
"-105.67","53.21","PRINCE ALBERT A","4056241","2019-11-12 02:00","2019","11","12","02:00","-13.0","","-16.1","","78","","","","23","","11","","24.1","","96.13","","","","-19","","NA"
"-105.67","53.21","PRINCE ALBERT A","4056241","2019-11-12 03:00","2019","11","12","03:00","-12.6","","-15.9","","76","","","","24","","15","","24.1","","96.10","","","","-20","","Mainly Clear"
"-105.67","53.21","PRINCE ALBERT A","4056241","2019-11-12 04:00","2019","11","12","04:00","-13.3","","-16.4","","78","","","","24","","14","","24.1","","96.00","","","","-21","","NA"
"-105.67","53.21","PRINCE ALBERT A","4056241","2019-11-12 05:00","2019","11","12","05:00","-14.0","","-16.9","","79","","","","25","","10","","24.1","","95.91","","","","-20","","NA"
"-105.67","53.21","PRINCE ALBERT A","4056241","2019-11-12 06:00","2019","11","12","06:00","-14.0","","-16.6","","81","","","","24","","8","","24.1","","95.89","","","","-19","","Mostly Cloudy"
"-105.67","53.21","PRINCE ALBERT A","4056241","2019-11-12 07:00","2019","11","12","07:00","-12.9","","-15.5","","81","","","","26","","9","","24.1","","95.87","","","","-18","","NA"
"-105.67","53.21","PRINCE ALBERT A","4056241","2019-11-12 08:00","2019","11","12","08:00","-11.8","","-14.8","","79","","","","28","","14","","24.1","","95.87","","","","-19","","NA"
"-105.67","53.21","PRINCE ALBERT A","4056241","2019-11-12 09:00","2019","11","12","09:00","-11.1","","-14.2","","78","","","","29","","14","","24.1","","95.87","","","","-18","","Cloudy"
"-105.67","53.21","PRINCE ALBERT A","4056241","2019-11-12 10:00","2019","11","12","10:00","-9.6","","-12.7","","78","","","","29","","14","","24.1","","95.88","","","","-16","","NA"
"-105.67","53.21","PRINCE ALBERT A","4056241","2019-11-12 11:00","2019","11","12","11:00","-8.5","","-12.1","","76","","","","29","","17","","24.1","","95.85","","","","-15","","NA"
"-105.67","53.21","PRINCE ALBERT A","4056241","2019-11-12 12:00","2019","11","12","12:00","-7.6","","-11.4","","74","","","","28","","22","","24.1","","95.86","","","","-15","","Cloudy"
"-105.67","53.21","PRINCE ALBERT A","4056241","2019-11-12 13:00","2019","11","12","13:00","-6.6","","-10.7","","73","","","","29","","19","","24.1","","95.80","","","","-13","","NA"
"-105.67","53.21","PRINCE ALBERT A","4056241","2019-11-12 14:00","2019","11","12","14:00","-6.1","","-11.3","","67","","","","30","","23","","24.1","","95.78","","","","-13","","NA"
"-105.67","53.21","PRINCE ALBERT A","4056241","2019-11-12 15:00","2019","11","12","15:00","-5.7","","-10.6","","69","","","","31","","21","","24.1","","95.75","","","","-13","","Mostly Cloudy"
"-105.67","53.21","PRINCE ALBERT A","4056241","2019-11-12 16:00","2019","11","12","16:00","-5.0","","-10.2","","67","","","","30","","21","","24.1","","95.80","","","","-12","","NA"
"-105.67","53.21","PRINCE ALBERT A","4056241","2019-11-12 17:00","2019","11","12","17:00","-6.4","","-11.5","","67","","","","30","","17","","24.1","","95.85","","","","-13","","NA"
"-105.67","53.21","PRINCE ALBERT A","4056241","2019-11-12 18:00","2019","11","12","18:00","-8.7","","-13.4","","69","","","","29","","17","","24.1","","95.88","","","","-16","","Mainly Clear"
"-105.67","53.21","PRINCE ALBERT A","4056241","2019-11-12 19:00","2019","11","12","19:00","-10.1","","-14.3","","72","","","","29","","15","","24.1","","95.91","","","","-17","","NA"
"-105.67","53.21","PRINCE ALBERT A","4056241","2019-11-12 20:00","2019","11","12","20:00","-11.4","","-14.6","","77","","","","29","","12","","24.1","","95.93","","","","-18","","NA"
"-105.67","53.21","PRINCE ALBERT A","4056241","2019-11-12 21:00","2019","11","12","21:00","-12.4","","-15.1","","81","","","","29","","12","","24.1","","96.00","","","","-19","","Mainly Clear"
"-105.67","53.21","PRINCE ALBERT A","4056241","2019-11-12 22:00","2019","11","12","22:00","-13.1","","-15.8","","80","","","","28","","14","","24.1","","96.07","","","","-20","","NA"
"-105.67","53.21","PRINCE ALBERT A","4056241","2019-11-12 23:00","2019","11","12","23:00","-14.8","","-17.4","","81","","","","31","","10","","24.1","","96.12","","","","-21","","NA"
"-105.67","53.21","PRINCE ALBERT A","4056241","2019-11-13 00:00","2019","11","13","00:00","-15.4","","-17.6","","84","","","","1","","5","","24.1","","96.20","","","","-19","","Clear"
"-105.67","53.21","PRINCE ALBERT A","4056241","2019-11-13 01:00","2019","11","13","01:00","-17.8","","-19.9","","84","","","","32","","7","","24.1","","96.27","","","","-23","","NA"
"-105.67","53.21","PRINCE ALBERT A","4056241","2019-11-13 02:00","2019","11","13","02:00","-14.5","","-16.6","","84","","","","31","","6","","24.1","","96.32","","","","-19","","NA"
"-105.67","53.21","PRINCE ALBERT A","4056241","2019-11-13 03:00","2019","11","13","03:00","-16.2","","-17.9","","87","","","","27","","5","","24.1","","96.41","","","","-20","","Mostly Cloudy"
"-105.67","53.21","PRINCE ALBERT A","4056241","2019-11-13 04:00","2019","11","13","04:00","-16.8","","-19.1","","82","","","","31","","4","","24.1","","96.47","","","","-20","","NA"
"-105.67","53.21","PRINCE ALBERT A","4056241","2019-11-13 05:00","2019","11","13","05:00","-16.5","","-18.5","","85","","","","27","","9","","24.1","","96.54","","","","-23","","NA"
"-105.67","53.21","PRINCE ALBERT A","4056241","2019-11-13 06:00","2019","11","13","06:00","-15.2","","-17.0","","86","","","","28","","6","","24.1","","96.61","","","","-19","","Cloudy"
"-105.67","53.21","PRINCE ALBERT A","4056241","2019-11-13 07:00","2019","11","13","07:00","-14.5","","-16.5","","85","","","","29","","5","","12.9","","96.65","","","","-18","","Snow"
"-105.67","53.21","PRINCE ALBERT A","4056241","2019-11-13 08:00","2019","11","13","08:00","-13.9","","-15.8","","86","","","","30","","4","","16.1","","96.69","","","","-17","","Snow"
"-105.67","53.21","PRINCE ALBERT A","4056241","2019-11-13 09:00","2019","11","13","09:00","-13.8","","-15.7","","86","","","","28","","4","","16.1","","96.77","","","","-17","","Snow"
"-105.67","53.21","PRINCE ALBERT A","4056241","2019-11-13 10:00","2019","11","13","10:00","-13.1","","-14.9","","86","","","","26","","6","","12.9","","96.80","","","","-17","","Snow"
"-105.67","53.21","PRINCE ALBERT A","4056241","2019-11-13 11:00","2019","11","13","11:00","-12.2","","-14.4","","84","","","","24","","3","","19.3","","96.81","","","","-14","","Snow"
"-105.67","53.21","PRINCE ALBERT A","4056241","2019-11-13 12:00","2019","11","13","12:00","-11.3","","-15.0","","74","","","","25","","4","","24.1","","96.83","","","","-14","","Snow"
"-105.67","53.21","PRINCE ALBERT A","4056241","2019-11-13 13:00","2019","11","13","13:00","-10.6","","-14.1","","76","","","","26","","8","","19.3","","96.82","","","","-15","","Snow"
"-105.67","53.21","PRINCE ALBERT A","4056241","2019-11-13 14:00","2019","11","13","14:00","-10.3","","-13.9","","75","","","","21","","9","","24.1","","96.77","","","","-15","","NA"
"-105.67","53.21","PRINCE ALBERT A","4056241","2019-11-13 15:00","2019","11","13","15:00","-9.5","","-13.2","","75","","","","24","","7","","24.1","","96.71","","","","-13","","Mostly Cloudy"
"-105.67","53.21","PRINCE ALBERT A","4056241","2019-11-13 16:00","2019","11","13","16:00","-9.1","","-13.0","","74","","","","22","","12","","24.1","","96.66","","","","-15","","NA"
"-105.67","53.21","PRINCE ALBERT A","4056241","2019-11-13 17:00","2019","11","13","17:00","-10.3","","-13.3","","79","","","","18","","9","","24.1","","96.67","","","","-15","","NA"
"-105.67","53.21","PRINCE ALBERT A","4056241","2019-11-13 18:00","2019","11","13","18:00","-9.8","","-12.7","","80","","","","13","","3","","24.1","","96.63","","","","-12","","Cloudy"
"-105.67","53.21","PRINCE ALBERT A","4056241","2019-11-13 19:00","2019","11","13","19:00","-8.9","","-11.7","","80","","","","17","","8","","24.1","","96.57","","","","-13","","NA"
"-105.67","53.21","PRINCE ALBERT A","4056241","2019-11-13 20:00","2019","11","13","20:00","-8.0","","-10.8","","81","","","","20","","5","","24.1","","96.45","","","","-11","","NA"
"-105.67","53.21","PRINCE ALBERT A","4056241","2019-11-13 21:00","2019","11","13","21:00","-6.6","","-9.6","","80","","","","23","","12","","24.1","","96.38","","","","-12","","Cloudy"
"-105.67","53.21","PRINCE ALBERT A","4056241","2019-11-13 22:00","2019","11","13","22:00","-5.8","","-8.9","","79","","","","25","","7","","24.1","","96.40","","","","-9","","NA"
"-105.67","53.21","PRINCE ALBERT A","4056241","2019-11-13 23:00","2019","11","13","23:00","-5.2","","-7.8","","82","","","","22","","9","","24.1","","96.32","","","","-9","","NA"
"-105.67","53.21","PRINCE ALBERT A","4056241","2019-11-14 00:00","2019","11","14","00:00","-4.5","","-6.8","","84","","","","22","","11","","19.3","","96.27","","","","-9","","Cloudy"
"-105.67","53.21","PRINCE ALBERT A","4056241","2019-11-14 01:00","2019","11","14","01:00","-5.2","","-6.9","","88","","","","25","","9","","19.3","","96.29","","","","-9","","NA"
"-105.67","53.21","PRINCE ALBERT A","4056241","2019-11-14 02:00","2019","11","14","02:00","-4.9","","-6.4","","89","","","","27","","12","","16.1","","96.36","","","","-10","","NA"
"-105.67","53.21","PRINCE ALBERT A","4056241","2019-11-14 03:00","2019","11","14","03:00","-4.6","","-6.1","","90","","","","25","","10","","19.3","","96.37","","","","-9","","Cloudy"
"-105.67","53.21","PRINCE ALBERT A","4056241","2019-11-14 04:00","2019","11","14","04:00","-2.5","","-4.6","","85","","","","30","","16","","19.3","","96.47","","","","-8","","NA"
"-105.67","53.21","PRINCE ALBERT A","4056241","2019-11-14 05:00","2019","11","14","05:00","-2.1","","-5.2","","79","","","","33","","18","","24.1","","96.57","","","","-8","","NA"
"-105.67","53.21","PRINCE ALBERT A","4056241","2019-11-14 06:00","2019","11","14","06:00","-3.5","","-7.7","","73","","","","36","","23","","24.1","","96.70","","","","-10","","Mostly Cloudy"
"-105.67","53.21","PRINCE ALBERT A","4056241","2019-11-14 07:00","2019","11","14","07:00","-4.5","","-8.6","","73","","","","36","","17","","24.1","","96.81","","","","-10","","NA"
"-105.67","53.21","PRINCE ALBERT A","4056241","2019-11-14 08:00","2019","11","14","08:00","-5.8","","-10.3","","71","","","","36","","16","","24.1","","96.91","","","","-12","","NA"
"-105.67","53.21","PRINCE ALBERT A","4056241","2019-11-14 09:00","2019","11","14","09:00","-7.0","","-10.8","","75","","","","34","","7","","24.1","","97.00","","","","-11","","Mostly Cloudy"
"-105.67","53.21","PRINCE ALBERT A","4056241","2019-11-14 10:00","2019","11","14","10:00","-5.9","","-11.2","","66","","","","36","","8","","24.1","","97.00","","","","-10","","NA"
"-105.67","53.21","PRINCE ALBERT A","4056241","2019-11-14 11:00","2019","11","14","11:00","-5.5","","-11.5","","63","","","","33","","10","","24.1","","97.06","","","","-10","","NA"
"-105.67","53.21","PRINCE ALBERT A","4056241","2019-11-14 12:00","2019","11","14","12:00","-5.0","","-12.1","","58","","","","31","","12","","24.1","","97.09","","","","-10","","Mainly Clear"
"-105.67","53.21","PRINCE ALBERT A","4056241","2019-11-14 13:00","2019","11","14","13:00","-4.4","","-11.3","","59","","","","33","","11","","24.1","","97.06","","","","-9","","NA"
"-105.67","53.21","PRINCE ALBERT A","4056241","2019-11-14 14:00","2019","11","14","14:00","-4.1","","-11.3","","57","","","","32","","12","","24.1","","97.05","","","","-9","","NA"
"-105.67","53.21","PRINCE ALBERT A","4056241","2019-11-14 15:00","2019","11","14","15:00","-4.2","","-11.6","","57","","","","32","","14","","24.1","","97.04","","","","-9","","Mainly Clear"
"-105.67","53.21","PRINCE ALBERT A","4056241","2019-11-14 16:00","2019","11","14","16:00","-4.7","","-11.0","","61","","","","33","","8","","24.1","","96.99","","","","-8","","NA"
"-105.67","53.21","PRINCE ALBERT A","4056241","2019-11-14 17:00","2019","11","14","17:00","-6.0","","-11.0","","68","","","","35","","7","","24.1","","97.00","","","","-9","","NA"
"-105.67","53.21","PRINCE ALBERT A","4056241","2019-11-14 18:00","2019","11","14","18:00","-5.9","","-10.9","","68","","","","36","","2","","24.1","","97.00","","","","-7","","Mostly Cloudy"
"-105.67","53.21","PRINCE ALBERT A","4056241","2019-11-14 19:00","2019","11","14","19:00","-7.2","","-10.4","","78","","","","36","","2","","24.1","","97.02","","","","-8","","NA"
"-105.67","53.21","PRINCE ALBERT A","4056241","2019-11-14 20:00","2019","11","14","20:00","-6.6","","-9.5","","80","","","","36","","2","","24.1","","97.06","","","","-8","","NA"
"-105.67","53.21","PRINCE ALBERT A","4056241","2019-11-14 21:00","2019","11","14","21:00","-6.0","","-10.4","","71","","","","15","","4","","24.1","","97.05","","","","-8","","Cloudy"
"-105.67","53.21","PRINCE ALBERT A","4056241","2019-11-14 22:00","2019","11","14","22:00","-6.0","","-10.2","","72","","","","15","","7","","24.1","","97.01","","","","-9","","NA"
"-105.67","53.21","PRINCE ALBERT A","4056241","2019-11-14 23:00","2019","11","14","23:00","-6.4","","-9.6","","78","","","","18","","5","","24.1","","97.05","","","","-9","","NA"
"-105.67","53.21","PRINCE ALBERT A","4056241","2019-11-15 00:00","2019","11","15","00:00","-6.5","","-9.7","","78","","","","9","","7","","24.1","","97.02","","","","-10","","Cloudy"
"-105.67","53.21","PRINCE ALBERT A","4056241","2019-11-15 01:00","2019","11","15","01:00","-6.1","","-9.4","","78","","","","12","","11","","24.1","","96.98","","","","-11","","NA"
"-105.67","53.21","PRINCE ALBERT A","4056241","2019-11-15 02:00","2019","11","15","02:00","-6.2","","-9.6","","77","","","","12","","14","","24.1","","96.95","","","","-12","","NA"
"-105.67","53.21","PRINCE ALBERT A","4056241","2019-11-15 03:00","2019","11","15","03:00","-7.2","","-10.1","","80","","","","11","","12","","24.1","","96.94","","","","-13","","Mostly Cloudy"
"-105.67","53.21","PRINCE ALBERT A","4056241","2019-11-15 04:00","2019","11","15","04:00","-8.5","","-11.3","","80","","","","10","","11","","24.1","","96.88","","","","-14","","NA"
"-105.67","53.21","PRINCE ALBERT A","4056241","2019-11-15 05:00","2019","11","15","05:00","-8.4","","-11.2","","81","","","","11","","16","","24.1","","96.84","","","","-15","","NA"
"-105.67","53.21","PRINCE ALBERT A","4056241","2019-11-15 06:00","2019","11","15","06:00","-7.9","","-10.8","","80","","","","11","","18","","24.1","","96.80","","","","-15","","Cloudy"
"-105.67","53.21","PRINCE ALBERT A","4056241","2019-11-15 07:00","2019","11","15","07:00","-7.7","","-11.2","","76","","","","12","","19","","24.1","","96.71","","","","-15","","NA"
"-105.67","53.21","PRINCE ALBERT A","4056241","2019-11-15 08:00","2019","11","15","08:00","-7.7","","-11.6","","74","","","","11","","17","","24.1","","96.65","","","","-14","","NA"
"-105.67","53.21","PRINCE ALBERT A","4056241","2019-11-15 09:00","2019","11","15","09:00","-7.5","","-11.7","","72","","","","13","","21","","24.1","","96.58","","","","-15","","Mostly Cloudy"
"-105.67","53.21","PRINCE ALBERT A","4056241","2019-11-15 10:00","2019","11","15","10:00","-7.0","","-11.6","","70","","","","13","","18","","24.1","","96.51","","","","-14","","NA"
"-105.67","53.21","PRINCE ALBERT A","4056241","2019-11-15 11:00","2019","11","15","11:00","-6.2","","-10.5","","72","","","","14","","14","","24.1","","96.44","","","","-12","","NA"
"-105.67","53.21","PRINCE ALBERT A","4056241","2019-11-15 12:00","2019","11","15","12:00","-6.1","","-9.2","","79","","","","16","","18","","24.1","","96.40","","","","-13","","Cloudy"
"-105.67","53.21","PRINCE ALBERT A","4056241","2019-11-15 13:00","2019","11","15","13:00","-6.3","","-8.7","","84","","","","15","","17","","19.3","","96.28","","","","-13","","NA"
"-105.67","53.21","PRINCE ALBERT A","4056241","2019-11-15 14:00","2019","11","15","14:00","-5.5","","-7.4","","87","","","","13","","14","","12.9","","96.16","","","","-11","","NA"
"-105.67","53.21","PRINCE ALBERT A","4056241","2019-11-15 15:00","2019","11","15","15:00","-5.0","","-6.6","","89","","","","12","","16","","9.7","","96.02","","","","-11","","Fog"
"-105.67","53.21","PRINCE ALBERT A","4056241","2019-11-15 16:00","2019","11","15","16:00","-4.5","","-5.6","","92","","","","13","","23","","8.1","","95.87","","","","-11","","Fog"
"-105.67","53.21","PRINCE ALBERT A","4056241","2019-11-15 17:00","2019","11","15","17:00","-4.3","","-5.5","","91","","","","11","","13","","9.7","","95.83","","","","-9","","Fog"
"-105.67","53.21","PRINCE ALBERT A","4056241","2019-11-15 18:00","2019","11","15","18:00","-4.2","","-5.5","","91","","","","11","","17","","16.1","","95.71","","","","-10","","Cloudy"
"-105.67","53.21","PRINCE ALBERT A","4056241","2019-11-15 19:00","2019","11","15","19:00","-3.7","","-5.1","","90","","","","10","","13","","24.1","","95.63","","","","-9","","NA"
"-105.67","53.21","PRINCE ALBERT A","4056241","2019-11-15 20:00","2019","11","15","20:00","-3.1","","-4.4","","91","","","","10","","11","","24.1","","95.56","","","","-7","","NA"
"-105.67","53.21","PRINCE ALBERT A","4056241","2019-11-15 21:00","2019","11","15","21:00","-2.8","","-4.0","","92","","","","8","","13","","16.1","","95.50","","","","-7","","Cloudy"
"-105.67","53.21","PRINCE ALBERT A","4056241","2019-11-15 22:00","2019","11","15","22:00","-3.2","","-4.4","","92","","","","5","","9","","8.1","","95.48","","","","-7","","Fog"
"-105.67","53.21","PRINCE ALBERT A","4056241","2019-11-15 23:00","2019","11","15","23:00","-3.2","","-3.9","","95","","","","4","","8","","8.1","","95.44","","","","-6","","Fog"
"-105.67","53.21","PRINCE ALBERT A","4056241","2019-11-16 00:00","2019","11","16","00:00","-3.2","","-3.5","","98","","","","1","","8","","1.6","","95.43","","","","-6","","Fog"
"-105.67","53.21","PRINCE ALBERT A","4056241","2019-11-16 01:00","2019","11","16","01:00","-3.3","","-3.7","","97","","","","36","","10","","1.2","","95.40","","","","-7","","Fog"
"-105.67","53.21","PRINCE ALBERT A","4056241","2019-11-16 02:00","2019","11","16","02:00"
"-105.67","53.21","PRINCE ALBERT A","4056241","2019-11-16 03:00","2019","11","16","03:00","-2.6","","-3.0","","97","","","","34","","11","","6.4","","95.48","","","","-7","","Freezing Rain,Fog"
"-105.67","53.21","PRINCE ALBERT A","4056241","2019-11-16 04:00","2019","11","16","04:00","-2.8","","-3.4","","95","","","","33","","15","","8.1","","95.59","","","","-8","","Freezing Rain,Fog"
"-105.67","53.21","PRINCE ALBERT A","4056241","2019-11-16 05:00","2019","11","16","05:00","-3.3","","-4.4","","92","","","","33","","12","","9.7","","95.64","","","","-8","","Snow,Fog"
"-105.67","53.21","PRINCE ALBERT A","4056241","2019-11-16 06:00","2019","11","16","06:00","-3.4","","-4.5","","92","","","","33","","9","","9.7","","95.69","","","","-7","","Snow,Fog"
"-105.67","53.21","PRINCE ALBERT A","4056241","2019-11-16 07:00","2019","11","16","07:00","-3.3","","-4.2","","94","","","","31","","10","","4.8","","95.76","","","","-7","","Snow"
"-105.67","53.21","PRINCE ALBERT A","4056241","2019-11-16 08:00","2019","11","16","08:00","-3.1","","-3.9","","94","","","","31","","11","","3.2","","95.85","","","","-7","","Snow"
"-105.67","53.21","PRINCE ALBERT A","4056241","2019-11-16 09:00","2019","11","16","09:00","-2.9","","-3.6","","95","","","","30","","10","","1.6","","95.97","","","","-7","","Snow,Fog"
"-105.67","53.21","PRINCE ALBERT A","4056241","2019-11-16 10:00","2019","11","16","10:00","-2.4","","-3.2","","94","","","","31","","10","","2.4","","96.07","","","","-6","","Snow,Fog"
"-105.67","53.21","PRINCE ALBERT A","4056241","2019-11-16 11:00","2019","11","16","11:00","-1.6","","-3.0","","91","","","","33","","13","","12.9","","96.16","","","","-6","","Snow"
"-105.67","53.21","PRINCE ALBERT A","4056241","2019-11-16 12:00","2019","11","16","12:00","-1.3","","-2.8","","90","","","","34","","18","","16.1","","96.22","","","","-7","","Snow"
"-105.67","53.21","PRINCE ALBERT A","4056241","2019-11-16 13:00","2019","11","16","13:00","-1.0","","-2.6","","88","","","","34","","21","","19.3","","96.30","","","","-7","","NA"
"-105.67","53.21","PRINCE ALBERT A","4056241","2019-11-16 14:00","2019","11","16","14:00","-0.8","","-2.5","","88","","","","33","","19","","32.2","","96.35","","","","-6","","Snow"
"-105.67","53.21","PRINCE ALBERT A","4056241","2019-11-16 15:00","2019","11","16","15:00","-0.6","","-2.1","","90","","","","33","","9","","24.1","","96.39","","","","-4","","Cloudy"
"-105.67","53.21","PRINCE ALBERT A","4056241","2019-11-16 16:00","2019","11","16","16:00","-0.5","","-2.3","","87","","","","33","","15","","24.1","","96.41","","","","-5","","NA"
"-105.67","53.21","PRINCE ALBERT A","4056241","2019-11-16 17:00","2019","11","16","17:00","-0.6","","-2.1","","90","","","","28","","11","","24.1","","96.48","","","","-4","","NA"
"-105.67","53.21","PRINCE ALBERT A","4056241","2019-11-16 18:00","2019","11","16","18:00","-0.7","","-2.1","","90","","","","29","","10","","24.1","","96.54","","","","-4","","Cloudy"
"-105.67","53.21","PRINCE ALBERT A","4056241","2019-11-16 19:00","2019","11","16","19:00","-0.6","","-1.9","","91","","","","30","","12","","24.1","","96.56","","","","-5","","NA"
"-105.67","53.21","PRINCE ALBERT A","4056241","2019-11-16 20:00","2019","11","16","20:00","-0.4","","-1.5","","92","","","","32","","9","","24.1","","96.55","","","","-4","","NA"
"-105.67","53.21","PRINCE ALBERT A","4056241","2019-11-16 21:00","2019","11","16","21:00","-0.6","","-1.6","","93","","","","30","","4","","24.1","","96.51","","","","-2","","Cloudy"
"-105.67","53.21","PRINCE ALBERT A","4056241","2019-11-16 22:00","2019","11","16","22:00","-0.5","","-1.5","","93","","","","28","","7","","24.1","","96.54","","","","-3","","NA"
"-105.67","53.21","PRINCE ALBERT A","4056241","2019-11-16 23:00","2019","11","16","23:00","-0.1","","-1.4","","91","","","","28","","10","","24.1","","96.45","","","","-3","","NA"
"-105.67","53.21","PRINCE ALBERT A","4056241","2019-11-17 00:00","2019","11","17","00:00","-0.3","","-1.4","","92","","","","24","","10","","24.1","","96.43","","","","-4","","Cloudy"
"-105.67","53.21","PRINCE ALBERT A","4056241","2019-11-17 01:00","2019","11","17","01:00","-0.4","","-1.3","","94","","","","24","","11","","16.1","","96.37","","","","-4","","NA"
"-105.67","53.21","PRINCE ALBERT A","4056241","2019-11-17 02:00","2019","11","17","02:00","-0.8","","-1.5","","95","","","","22","","14","","8.1","","96.27","","","","-5","","Fog"
"-105.67","53.21","PRINCE ALBERT A","4056241","2019-11-17 03:00","2019","11","17","03:00","-1.5","","-1.8","","98","","","","22","","19","","1.2","","96.24","","","","-7","","Fog"
"-105.67","53.21","PRINCE ALBERT A","4056241","2019-11-17 04:00","2019","11","17","04:00","-1.7","","-1.9","","99","","","","19","","18","","1.2","","96.13","","","","-7","","Fog"
"-105.67","53.21","PRINCE ALBERT A","4056241","2019-11-17 05:00","2019","11","17","05:00","-1.8","","-2.0","","99","","","","21","","13","","1.2","","96.04","","","","-6","","Fog"
"-105.67","53.21","PRINCE ALBERT A","4056241","2019-11-17 06:00","2019","11","17","06:00","-2.1","","-2.3","","99","","","","19","","16","","1.2","","95.97","","","","-7","","Fog"
"-105.67","53.21","PRINCE ALBERT A","4056241","2019-11-17 07:00","2019","11","17","07:00","-2.4","","-2.6","","98","","","","19","","13","","1.0","","95.85","","","","-7","","Freezing Drizzle,Fog"
"-105.67","53.21","PRINCE ALBERT A","4056241","2019-11-17 08:00","2019","11","17","08:00","-2.5","","-2.8","","98","","","","17","","10","","2.4","","95.72","","","","-6","","Freezing Drizzle,Fog"
"-105.67","53.21","PRINCE ALBERT A","4056241","2019-11-17 09:00","2019","11","17","09:00","-2.6","","-2.9","","98","","","","18","","8","","4.8","","95.70","","","","-6","","Fog"
"-105.67","53.21","PRINCE ALBERT A","4056241","2019-11-17 10:00","2019","11","17","10:00","-2.5","","-2.9","","97","","","","13","","8","","6.4","","95.61","","","","-6","","Fog"
"-105.67","53.21","PRINCE ALBERT A","4056241","2019-11-17 11:00","2019","11","17","11:00","-2.0","","-2.6","","95","","","","11","","8","","12.9","","95.51","","","","-5","","NA"
"-105.67","53.21","PRINCE ALBERT A","4056241","2019-11-17 12:00","2019","11","17","12:00","-1.1","","-2.2","","92","","","","12","","8","","19.3","","95.38","","","","-4","","Cloudy"
"-105.67","53.21","PRINCE ALBERT A","4056241","2019-11-17 13:00","2019","11","17","13:00","0.2","","-1.1","","91","","","","15","","9","","19.3","","95.22","","","","","","NA"
"-105.67","53.21","PRINCE ALBERT A","4056241","2019-11-17 14:00","2019","11","17","14:00","1.0","","-0.7","","88","","","","17","","11","","24.1","","95.10","","","","","","NA"
"-105.67","53.21","PRINCE ALBERT A","4056241","2019-11-17 15:00","2019","11","17","15:00","1.5","","-0.4","","87","","","","20","","10","","24.1","","95.01","","","","","","Mostly Cloudy"
"-105.67","53.21","PRINCE ALBERT A","4056241","2019-11-17 16:00","2019","11","17","16:00","1.6","","-0.3","","87","","","","17","","8","","24.1","","94.94","","","","","","NA"
"-105.67","53.21","PRINCE ALBERT A","4056241","2019-11-17 17:00","2019","11","17","17:00","1.2","","-0.5","","88","","","","19","","7","","24.1","","94.88","","","","","","NA"
"-105.67","53.21","PRINCE ALBERT A","4056241","2019-11-17 18:00","2019","11","17","18:00","1.1","","-0.3","","91","","","","21","","5","","24.1","","94.83","","","","","","Cloudy"
"-105.67","53.21","PRINCE ALBERT A","4056241","2019-11-17 19:00","2019","11","17","19:00","0.7","","-0.5","","92","","","","20","","8","","24.1","","94.77","","","","","","NA"
"-105.67","53.21","PRINCE ALBERT A","4056241","2019-11-17 20:00","2019","11","17","20:00","1.1","","-0.2","","91","","","","24","","8","","24.1","","94.74","","","","","","NA"
"-105.67","53.21","PRINCE ALBERT A","4056241","2019-11-17 21:00","2019","11","17","21:00","1.5","","0.1","","91","","","","25","","10","","24.1","","94.70","","","","","","Cloudy"
"-105.67","53.21","PRINCE ALBERT A","4056241","2019-11-17 22:00","2019","11","17","22:00","0.7","","-0.4","","92","","","","23","","10","","24.1","","94.67","","","","","","NA"
"-105.67","53.21","PRINCE ALBERT A","4056241","2019-11-17 23:00","2019","11","17","23:00","-0.5","","-1.6","","93","","","","25","","9","","24.1","","94.66","","","","-4","","NA"
"-105.67","53.21","PRINCE ALBERT A","4056241","2019-11-18 00:00","2019","11","18","00:00","-0.1","","-1.4","","91","","","","28","","12","","24.1","","94.67","","","","-4","","Mainly Clear"
"-105.67","53.21","PRINCE ALBERT A","4056241","2019-11-18 01:00","2019","11","18","01:00","-1.5","","-2.8","","91","","","","27","","12","","24.1","","94.69","","","","-6","","NA"
"-105.67","53.21","PRINCE ALBERT A","4056241","2019-11-18 02:00","2019","11","18","02:00","-1.4","","-2.5","","92","","","","28","","11","","24.1","","94.72","","","","-5","","NA"
"-105.67","53.21","PRINCE ALBERT A","4056241","2019-11-18 03:00","2019","11","18","03:00","-2.9","","-3.6","","95","","","","26","","11","","24.1","","94.80","","","","-7","","Mainly Clear"
"-105.67","53.21","PRINCE ALBERT A","4056241","2019-11-18 04:00","2019","11","18","04:00","-1.2","","-1.9","","95","","","","24","","6","","24.1","","94.78","","","","-3","","NA"
"-105.67","53.21","PRINCE ALBERT A","4056241","2019-11-18 05:00","2019","11","18","05:00","-3.1","","-3.9","","94","","","","26","","11","","24.1","","94.78","","","","-7","","NA"
"-105.67","53.21","PRINCE ALBERT A","4056241","2019-11-18 06:00","2019","11","18","06:00","0.6","","-0.8","","91","","","","26","","14","","24.1","","94.79","","","","","","Mostly Cloudy"
"-105.67","53.21","PRINCE ALBERT A","4056241","2019-11-18 07:00","2019","11","18","07:00","0.5","","-0.5","","93","","","","27","","11","","24.1","","94.81","","","","","","NA"
"-105.67","53.21","PRINCE ALBERT A","4056241","2019-11-18 08:00","2019","11","18","08:00","2.1","","0.4","","89","","","","27","","13","","24.1","","94.83","","","","","","Rain"
"-105.67","53.21","PRINCE ALBERT A","4056241","2019-11-18 09:00","2019","11","18","09:00","3.3","","1.8","","90","","","","27","","17","","24.1","","94.84","","","","","","Rain"
"-105.67","53.21","PRINCE ALBERT A","4056241","2019-11-18 10:00","2019","11","18","10:00","3.9","","1.9","","87","","","","27","","16","","24.1","","94.88","","","","","","Rain"
"-105.67","53.21","PRINCE ALBERT A","4056241","2019-11-18 11:00","2019","11","18","11:00","4.2","","1.9","","85","","","","29","","22","","24.1","","94.97","","","","","","NA"
"-105.67","53.21","PRINCE ALBERT A","4056241","2019-11-18 12:00","2019","11","18","12:00","4.9","","1.7","","80","","","","29","","24","","24.1","","95.03","","","","","","Cloudy"
"-105.67","53.21","PRINCE ALBERT A","4056241","2019-11-18 13:00","2019","11","18","13:00","4.8","","1.5","","79","","","","30","","28","","24.1","","95.05","","","","","","NA"
"-105.67","53.21","PRINCE ALBERT A","4056241","2019-11-18 14:00","2019","11","18","14:00","4.6","","1.7","","82","","","","30","","28","","24.1","","95.09","","","","","","NA"
"-105.67","53.21","PRINCE ALBERT A","4056241","2019-11-18 15:00","2019","11","18","15:00","4.3","","1.8","","83","","","","30","","27","","24.1","","95.18","","","","","","Mostly Cloudy"
"-105.67","53.21","PRINCE ALBERT A","4056241","2019-11-18 16:00","2019","11","18","16:00","3.8","","1.4","","84","","","","30","","27","","24.1","","95.27","","","","","","NA"
"-105.67","53.21","PRINCE ALBERT A","4056241","2019-11-18 17:00","2019","11","18","17:00","2.8","","1.7","","92","","","","31","","9","","19.3","","95.38","","","","","","Rain"
"-105.67","53.21","PRINCE ALBERT A","4056241","2019-11-18 18:00","2019","11","18","18:00","2.3","","0.8","","90","","","","31","","17","","19.3","","95.44","","","","","","Rain"
"-105.67","53.21","PRINCE ALBERT A","4056241","2019-11-18 19:00","2019","11","18","19:00","2.1","","0.2","","87","","","","30","","22","","24.1","","95.50","","","","","","NA"
"-105.67","53.21","PRINCE ALBERT A","4056241","2019-11-18 20:00","2019","11","18","20:00","2.0","","-0.8","","81","","","","32","","25","","24.1","","95.55","","","","","","NA"
"-105.67","53.21","PRINCE ALBERT A","4056241","2019-11-18 21:00","2019","11","18","21:00","1.6","","-1.7","","79","","","","32","","19","","24.1","","95.58","","","","","","Mostly Cloudy"
"-105.67","53.21","PRINCE ALBERT A","4056241","2019-11-18 22:00","2019","11","18","22:00","1.3","","-1.5","","82","","","","31","","14","","24.1","","95.60","","","","","","NA"
"-105.67","53.21","PRINCE ALBERT A","4056241","2019-11-18 23:00","2019","11","18","23:00","1.1","","-1.8","","81","","","","33","","13","","24.1","","95.61","","","","","","NA"
"-105.67","53.21","PRINCE ALBERT A","4056241","2019-11-19 00:00","2019","11","19","00:00","1.1","","-2.0","","80","","","","33","","14","","24.1","","95.64","","","","","","Cloudy"
"-105.67","53.21","PRINCE ALBERT A","4056241","2019-11-19 01:00","2019","11","19","01:00","0.6","","-2.0","","83","","","","36","","12","","24.1","","95.67","","","","","","NA"
"-105.67","53.21","PRINCE ALBERT A","4056241","2019-11-19 02:00","2019","11","19","02:00","-0.2","","-2.8","","83","","","","36","","13","","24.1","","95.71","","","","-4","","NA"
"-105.67","53.21","PRINCE ALBERT A","4056241","2019-11-19 03:00","2019","11","19","03:00","-1.2","","-3.9","","82","","","","1","","14","","24.1","","95.74","","","","-6","","Cloudy"
"-105.67","53.21","PRINCE ALBERT A","4056241","2019-11-19 04:00","2019","11","19","04:00","-1.5","","-4.0","","83","","","","1","","14","","24.1","","95.79","","","","-6","","NA"
"-105.67","53.21","PRINCE ALBERT A","4056241","2019-11-19 05:00","2019","11","19","05:00","-1.9","","-4.9","","80","","","","36","","18","","24.1","","95.81","","","","-7","","NA"
"-105.67","53.21","PRINCE ALBERT A","4056241","2019-11-19 06:00","2019","11","19","06:00","-3.0","","-5.8","","81","","","","36","","21","","24.1","","95.90","","","","-9","","Cloudy"
"-105.67","53.21","PRINCE ALBERT A","4056241","2019-11-19 07:00","2019","11","19","07:00","-3.5","","-5.9","","83","","","","1","","14","","24.1","","95.91","","","","-9","","NA"
"-105.67","53.21","PRINCE ALBERT A","4056241","2019-11-19 08:00","2019","11","19","08:00","-3.8","","-6.4","","82","","","","36","","16","","24.1","","95.98","","","","-9","","NA"
"-105.67","53.21","PRINCE ALBERT A","4056241","2019-11-19 09:00","2019","11","19","09:00","-4.1","","-6.8","","82","","","","1","","10","","24.1","","96.05","","","","-8","","Cloudy"
"-105.67","53.21","PRINCE ALBERT A","4056241","2019-11-19 10:00","2019","11","19","10:00","-4.2","","-6.9","","81","","","","1","","9","","24.1","","96.09","","","","-8","","NA"
"-105.67","53.21","PRINCE ALBERT A","4056241","2019-11-19 11:00","2019","11","19","11:00","-4.4","","-7.0","","82","","","","2","","10","","24.1","","96.14","","","","-9","","NA"
"-105.67","53.21","PRINCE ALBERT A","4056241","2019-11-19 12:00","2019","11","19","12:00","-4.0","","-7.0","","80","","","","1","","11","","24.1","","96.16","","","","-8","","Cloudy"
"-105.67","53.21","PRINCE ALBERT A","4056241","2019-11-19 13:00","2019","11","19","13:00","-3.8","","-6.8","","80","","","","1","","13","","24.1","","96.17","","","","-9","","NA"
"-105.67","53.21","PRINCE ALBERT A","4056241","2019-11-19 14:00","2019","11","19","14:00","-4.0","","-7.8","","75","","","","31","","11","","24.1","","96.20","","","","-8","","Snow"
"-105.67","53.21","PRINCE ALBERT A","4056241","2019-11-19 15:00","2019","11","19","15:00","-3.7","","-7.3","","76","","","","33","","7","","24.1","","96.23","","","","-7","","Snow"
"-105.67","53.21","PRINCE ALBERT A","4056241","2019-11-19 16:00","2019","11","19","16:00","-3.8","","-7.5","","75","","","","1","","13","","24.1","","96.27","","","","-9","","NA"
"-105.67","53.21","PRINCE ALBERT A","4056241","2019-11-19 17:00","2019","11","19","17:00","-4.1","","-7.4","","78","","","","1","","9","","24.1","","96.33","","","","-8","","NA"
"-105.67","53.21","PRINCE ALBERT A","4056241","2019-11-19 18:00","2019","11","19","18:00","-4.5","","-7.5","","79","","","","35","","9","","24.1","","96.38","","","","-8","","Cloudy"
"-105.67","53.21","PRINCE ALBERT A","4056241","2019-11-19 19:00","2019","11","19","19:00","-5.2","","-8.2","","80","","","","2","","17","","24.1","","96.47","","","","-11","","Snow"
"-105.67","53.21","PRINCE ALBERT A","4056241","2019-11-19 20:00","2019","11","19","20:00","-6.1","","-9.0","","80","","","","36","","19","","24.1","","96.57","","","","-13","","Snow"
"-105.67","53.21","PRINCE ALBERT A","4056241","2019-11-19 21:00","2019","11","19","21:00","-6.7","","-9.3","","81","","","","32","","12","","24.1","","96.62","","","","-12","","Snow"
"-105.67","53.21","PRINCE ALBERT A","4056241","2019-11-19 22:00","2019","11","19","22:00","-7.0","","-10.0","","79","","","","33","","17","","24.1","","96.68","","","","-13","","Snow"
"-105.67","53.21","PRINCE ALBERT A","4056241","2019-11-19 23:00","2019","11","19","23:00","-6.8","","-10.3","","77","","","","34","","11","","24.1","","96.73","","","","-12","","Snow"
"-105.67","53.21","PRINCE ALBERT A","4056241","2019-11-20 00:00","2019","11","20","00:00","-7.3","","-10.9","","76","","","","2","","13","","24.1","","96.76","","","","-13","","Snow"
"-105.67","53.21","PRINCE ALBERT A","4056241","2019-11-20 01:00","2019","11","20","01:00","-7.5","","-11.4","","74","","","","31","","17","","24.1","","96.84","","","","-14","","Snow"
"-105.67","53.21","PRINCE ALBERT A","4056241","2019-11-20 02:00","2019","11","20","02:00","-8.6","","-12.4","","74","","","","33","","13","","24.1","","96.88","","","","-15","","Snow"
"-105.67","53.21","PRINCE ALBERT A","4056241","2019-11-20 03:00","2019","11","20","03:00","-9.1","","-12.6","","76","","","","33","","9","","24.1","","96.94","","","","-14","","Snow"
"-105.67","53.21","PRINCE ALBERT A","4056241","2019-11-20 04:00","2019","11","20","04:00","-10.5","","-13.1","","82","","","","30","","9","","24.1","","97.00","","","","-15","","Snow"
"-105.67","53.21","PRINCE ALBERT A","4056241","2019-11-20 05:00","2019","11","20","05:00","-11.2","","-13.5","","83","","","","31","","12","","24.1","","97.01","","","","-17","","Snow"
"-105.67","53.21","PRINCE ALBERT A","4056241","2019-11-20 06:00","2019","11","20","06:00","-12.1","","-14.5","","83","","","","31","","12","","24.1","","97.05","","","","-18","","Mainly Clear"
"-105.67","53.21","PRINCE ALBERT A","4056241","2019-11-20 07:00","2019","11","20","07:00","-12.8","","-14.9","","84","","","","30","","8","","24.1","","97.09","","","","-18","","NA"
"-105.67","53.21","PRINCE ALBERT A","4056241","2019-11-20 08:00","2019","11","20","08:00","-13.5","","-15.5","","85","","","","29","","10","","24.1","","97.12","","","","-19","","NA"
"-105.67","53.21","PRINCE ALBERT A","4056241","2019-11-20 09:00","2019","11","20","09:00","-13.5","","-15.5","","86","","","","29","","10","","24.1","","97.15","","","","-19","","Mainly Clear"
"-105.67","53.21","PRINCE ALBERT A","4056241","2019-11-20 10:00","2019","11","20","10:00","-12.0","","-14.6","","81","","","","32","","7","","24.1","","97.19","","","","-16","","NA"
"-105.67","53.21","PRINCE ALBERT A","4056241","2019-11-20 11:00","2019","11","20","11:00","-10.9","","-13.5","","81","","","","32","","11","","24.1","","97.21","","","","-17","","NA"
"-105.67","53.21","PRINCE ALBERT A","4056241","2019-11-20 12:00","2019","11","20","12:00","-10.1","","-13.4","","77","","","","31","","16","","24.1","","97.19","","","","-17","","Mainly Clear"
"-105.67","53.21","PRINCE ALBERT A","4056241","2019-11-20 13:00","2019","11","20","13:00","-8.7","","-12.8","","73","","","","35","","12","","24.1","","97.16","","","","-14","","NA"
"-105.67","53.21","PRINCE ALBERT A","4056241","2019-11-20 14:00","2019","11","20","14:00","-8.0","","-12.4","","71","","","","32","","10","","24.1","","97.16","","","","-13","","NA"
"-105.67","53.21","PRINCE ALBERT A","4056241","2019-11-20 15:00","2019","11","20","15:00","-6.9","","-11.5","","70","","","","32","","11","","24.1","","97.13","","","","-12","","Mainly Clear"
"-105.67","53.21","PRINCE ALBERT A","4056241","2019-11-20 16:00","2019","11","20","16:00","-6.9","","-11.7","","69","","","","36","","6","","24.1","","97.16","","","","-10","","NA"
"-105.67","53.21","PRINCE ALBERT A","4056241","2019-11-20 17:00","2019","11","20","17:00","-7.7","","-12.1","","71","","","","34","","4","","24.1","","97.13","","","","-10","","NA"
"-105.67","53.21","PRINCE ALBERT A","4056241","2019-11-20 18:00","2019","11","20","18:00","-10.5","","-12.9","","83","","","","6","","3","","24.1","","97.13","","","","-12","","Mainly Clear"
"-105.67","53.21","PRINCE ALBERT A","4056241","2019-11-20 19:00","2019","11","20","19:00","-11.8","","-13.7","","86","","","","9","","6","","24.1","","97.15","","","","-16","","NA"
"-105.67","53.21","PRINCE ALBERT A","4056241","2019-11-20 20:00","2019","11","20","20:00","-11.1","","-13.0","","86","","","","7","","5","","24.1","","97.12","","","","-14","","NA"
"-105.67","53.21","PRINCE ALBERT A","4056241","2019-11-20 21:00","2019","11","20","21:00","-12.8","","-14.7","","86","","","","7","","6","","24.1","","97.09","","","","-17","","Mainly Clear"
"-105.67","53.21","PRINCE ALBERT A","4056241","2019-11-20 22:00","2019","11","20","22:00","-11.1","","-12.5","","89","","","","6","","7","","24.1","","97.11","","","","-15","","NA"
"-105.67","53.21","PRINCE ALBERT A","4056241","2019-11-20 23:00","2019","11","20","23:00","-10.3","","-11.8","","89","","","","8","","5","","24.1","","97.08","","","","-13","","NA"
"-105.67","53.21","PRINCE ALBERT A","4056241","2019-11-21 00:00","2019","11","21","00:00","-8.9","","-10.4","","89","","","","5","","5","","24.1","","97.05","","","","-12","","Cloudy"
"-105.67","53.21","PRINCE ALBERT A","4056241","2019-11-21 01:00","2019","11","21","01:00","-8.4","","-9.9","","89","","","","6","","5","","24.1","","97.00","","","","-11","","NA"
"-105.67","53.21","PRINCE ALBERT A","4056241","2019-11-21 02:00","2019","11","21","02:00","-7.8","","-9.2","","89","","","","7","","5","","24.1","","96.95","","","","-10","","NA"
"-105.67","53.21","PRINCE ALBERT A","4056241","2019-11-21 03:00","2019","11","21","03:00","-7.4","","-8.8","","89","","","","36","","2","","24.1","","96.88","","","","-8","","Cloudy"
"-105.67","53.21","PRINCE ALBERT A","4056241","2019-11-21 04:00","2019","11","21","04:00","-7.0","","-8.4","","90","","","","8","","8","","24.1","","96.88","","","","-11","","NA"
"-105.67","53.21","PRINCE ALBERT A","4056241","2019-11-21 05:00","2019","11","21","05:00","-7.5","","-8.8","","90","","","","6","","5","","24.1","","96.89","","","","-10","","NA"
"-105.67","53.21","PRINCE ALBERT A","4056241","2019-11-21 06:00","2019","11","21","06:00","-5.5","","-6.7","","91","","","","23","","9","","24.1","","96.76","","","","-10","","Mainly Clear"
"-105.67","53.21","PRINCE ALBERT A","4056241","2019-11-21 07:00","2019","11","21","07:00","-4.7","","-5.7","","93","","","","24","","5","","24.1","","96.68","","","","-7","","NA"
"-105.67","53.21","PRINCE ALBERT A","4056241","2019-11-21 08:00","2019","11","21","08:00","-4.2","","-5.4","","91","","","","23","","11","","24.1","","96.67","","","","-9","","NA"
"-105.67","53.21","PRINCE ALBERT A","4056241","2019-11-21 09:00","2019","11","21","09:00","-3.8","","-5.1","","91","","","","24","","12","","24.1","","96.66","","","","-8","","Mostly Cloudy"
"-105.67","53.21","PRINCE ALBERT A","4056241","2019-11-21 10:00","2019","11","21","10:00","-2.8","","-4.5","","89","","","","22","","16","","24.1","","96.57","","","","-8","","NA"
"-105.67","53.21","PRINCE ALBERT A","4056241","2019-11-21 11:00","2019","11","21","11:00","-1.1","","-3.5","","84","","","","22","","17","","24.1","","96.51","","","","-6","","NA"
"-105.67","53.21","PRINCE ALBERT A","4056241","2019-11-21 12:00","2019","11","21","12:00","0.1","","-3.0","","80","","","","22","","19","","24.1","","96.41","","","","","","Mostly Cloudy"
"-105.67","53.21","PRINCE ALBERT A","4056241","2019-11-21 13:00","2019","11","21","13:00","1.4","","-2.4","","76","","","","22","","16","","24.1","","96.36","","","","","","NA"
"-105.67","53.21","PRINCE ALBERT A","4056241","2019-11-21 14:00","2019","11","21","14:00","1.9","","-2.7","","72","","","","22","","19","","24.1","","96.27","","","","","","NA"
"-105.67","53.21","PRINCE ALBERT A","4056241","2019-11-21 15:00","2019","11","21","15:00","1.8","","-3.4","","68","","","","23","","23","","24.1","","96.21","","","","","","Mostly Cloudy"
"-105.67","53.21","PRINCE ALBERT A","4056241","2019-11-21 16:00","2019","11","21","16:00","1.7","","-3.5","","68","","","","23","","18","","24.1","","96.15","","","","","","NA"
"-105.67","53.21","PRINCE ALBERT A","4056241","2019-11-21 17:00","2019","11","21","17:00","1.4","","-3.5","","70","","","","23","","16","","24.1","","96.09","","","","","","NA"
"-105.67","53.21","PRINCE ALBERT A","4056241","2019-11-21 18:00","2019","11","21","18:00","0.1","","-3.5","","77","","","","23","","14","","24.1","","96.07","","","","","","Mostly Cloudy"
"-105.67","53.21","PRINCE ALBERT A","4056241","2019-11-21 19:00","2019","11","21","19:00","-0.1","","-3.7","","77","","","","23","","13","","24.1","","96.05","","","","-4","","NA"
"-105.67","53.21","PRINCE ALBERT A","4056241","2019-11-21 20:00","2019","11","21","20:00","-0.4","","-3.9","","77","","","","24","","14","","24.1","","95.96","","","","-5","","NA"
"-105.67","53.21","PRINCE ALBERT A","4056241","2019-11-21 21:00","2019","11","21","21:00","-1.0","","-4.1","","79","","","","23","","14","","24.1","","95.93","","","","-5","","Mainly Clear"
"-105.67","53.21","PRINCE ALBERT A","4056241","2019-11-21 22:00","2019","11","21","22:00","-1.2","","-4.2","","80","","","","23","","14","","24.1","","95.87","","","","-6","","NA"
"-105.67","53.21","PRINCE ALBERT A","4056241","2019-11-21 23:00","2019","11","21","23:00","-1.4","","-4.3","","81","","","","24","","17","","24.1","","95.83","","","","-7","","NA"
"-105.67","53.21","PRINCE ALBERT A","4056241","2019-11-22 00:00","2019","11","22","00:00","-1.3","","-4.4","","80","","","","24","","17","","24.1","","95.80","","","","-6","","Mainly Clear"
"-105.67","53.21","PRINCE ALBERT A","4056241","2019-11-22 01:00","2019","11","22","01:00","-1.9","","-4.7","","82","","","","23","","13","","24.1","","95.74","","","","-6","","NA"
"-105.67","53.21","PRINCE ALBERT A","4056241","2019-11-22 02:00","2019","11","22","02:00","-2.9","","-5.1","","85","","","","22","","13","","24.1","","95.71","","","","-8","","NA"
"-105.67","53.21","PRINCE ALBERT A","4056241","2019-11-22 03:00","2019","11","22","03:00","-3.0","","-5.3","","84","","","","23","","13","","24.1","","95.67","","","","-8","","Mainly Clear"
"-105.67","53.21","PRINCE ALBERT A","4056241","2019-11-22 04:00","2019","11","22","04:00","-2.8","","-5.5","","81","","","","24","","14","","24.1","","95.62","","","","-8","","NA"
"-105.67","53.21","PRINCE ALBERT A","4056241","2019-11-22 05:00","2019","11","22","05:00","-3.0","","-5.7","","82","","","","24","","13","","24.1","","95.58","","","","-8","","NA"
"-105.67","53.21","PRINCE ALBERT A","4056241","2019-11-22 06:00","2019","11","22","06:00","-3.2","","-5.8","","83","","","","23","","14","","24.1","","95.48","","","","-8","","Mainly Clear"
"-105.67","53.21","PRINCE ALBERT A","4056241","2019-11-22 07:00","2019","11","22","07:00","-4.0","","-6.3","","84","","","","23","","10","","24.1","","95.44","","","","-8","","NA"
"-105.67","53.21","PRINCE ALBERT A","4056241","2019-11-22 08:00","2019","11","22","08:00","-4.2","","-6.5","","84","","","","23","","13","","24.1","","95.39","","","","-9","","NA"
"-105.67","53.21","PRINCE ALBERT A","4056241","2019-11-22 09:00","2019","11","22","09:00","-4.7","","-6.8","","85","","","","23","","13","","24.1","","95.41","","","","-10","","Mostly Cloudy"
"-105.67","53.21","PRINCE ALBERT A","4056241","2019-11-22 10:00","2019","11","22","10:00","-2.8","","-6.1","","78","","","","24","","15","","24.1","","95.41","","","","-8","","NA"
"-105.67","53.21","PRINCE ALBERT A","4056241","2019-11-22 11:00","2019","11","22","11:00","-1.0","","-5.3","","73","","","","23","","14","","24.1","","95.42","","","","-5","","NA"
"-105.67","53.21","PRINCE ALBERT A","4056241","2019-11-22 12:00","2019","11","22","12:00","1.6","","-4.3","","65","","","","26","","10","","24.1","","95.39","","","","","","Mostly Cloudy"
"-105.67","53.21","PRINCE ALBERT A","4056241","2019-11-22 13:00","2019","11","22","13:00","3.2","","-3.1","","63","","","","27","","14","","24.1","","95.32","","","","","","NA"
"-105.67","53.21","PRINCE ALBERT A","4056241","2019-11-22 14:00","2019","11","22","14:00","4.5","","-2.6","","60","","","","25","","11","","24.1","","95.19","","","","","","NA"
"-105.67","53.21","PRINCE ALBERT A","4056241","2019-11-22 15:00","2019","11","22","15:00","5.3","","-2.1","","59","","","","28","","13","","24.1","","95.20","","","","","","Mostly Cloudy"
"-105.67","53.21","PRINCE ALBERT A","4056241","2019-11-22 16:00","2019","11","22","16:00","5.9","","-1.5","","59","","","","27","","18","","24.1","","95.22","","","","","","NA"
"-105.67","53.21","PRINCE ALBERT A","4056241","2019-11-22 17:00","2019","11","22","17:00","4.3","","-1.4","","66","","","","28","","21","","24.1","","95.27","","","","","","NA"
"-105.67","53.21","PRINCE ALBERT A","4056241","2019-11-22 18:00","2019","11","22","18:00","3.0","","-1.7","","71","","","","28","","17","","24.1","","95.32","","","","","","Mainly Clear"
"-105.67","53.21","PRINCE ALBERT A","4056241","2019-11-22 19:00","2019","11","22","19:00","1.9","","-1.9","","76","","","","27","","16","","24.1","","95.34","","","","","","NA"
"-105.67","53.21","PRINCE ALBERT A","4056241","2019-11-22 20:00","2019","11","22","20:00","1.7","","-1.8","","77","","","","27","","15","","24.1","","95.40","","","","","","NA"
"-105.67","53.21","PRINCE ALBERT A","4056241","2019-11-22 21:00","2019","11","22","21:00","0.7","","-2.3","","80","","","","27","","10","","24.1","","95.43","","","","","","Mostly Cloudy"
"-105.67","53.21","PRINCE ALBERT A","4056241","2019-11-22 22:00","2019","11","22","22:00","1.1","","-1.7","","82","","","","27","","14","","24.1","","95.41","","","","","","NA"
"-105.67","53.21","PRINCE ALBERT A","4056241","2019-11-22 23:00","2019","11","22","23:00","1.4","","-1.7","","80","","","","26","","11","","24.1","","95.35","","","","","","NA"
"-105.67","53.21","PRINCE ALBERT A","4056241","2019-11-23 00:00","2019","11","23","00:00","0.9","","-1.7","","83","","","","27","","13","","24.1","","95.34","","","","","","Mostly Cloudy"
"-105.67","53.21","PRINCE ALBERT A","4056241","2019-11-23 01:00","2019","11","23","01:00","0.9","","-2.0","","81","","","","26","","8","","24.1","","95.29","","","","","","NA"
"-105.67","53.21","PRINCE ALBERT A","4056241","2019-11-23 02:00","2019","11","23","02:00","-0.9","","-3.0","","86","","","","22","","8","","24.1","","95.23","","","","-4","","NA"
"-105.67","53.21","PRINCE ALBERT A","4056241","2019-11-23 03:00","2019","11","23","03:00","-0.3","","-2.5","","85","","","","23","","11","","24.1","","95.13","","","","-4","","Mostly Cloudy"
"-105.67","53.21","PRINCE ALBERT A","4056241","2019-11-23 04:00","2019","11","23","04:00","1.2","","-2.2","","78","","","","24","","14","","24.1","","95.04","","","","","","NA"
"-105.67","53.21","PRINCE ALBERT A","4056241","2019-11-23 05:00","2019","11","23","05:00","2.5","","-2.2","","71","","","","25","","13","","24.1","","94.97","","","","","","NA"
"-105.67","53.21","PRINCE ALBERT A","4056241","2019-11-23 06:00","2019","11","23","06:00","2.1","","-2.5","","72","","","","26","","19","","24.1","","94.93","","","","","","Mostly Cloudy"
"-105.67","53.21","PRINCE ALBERT A","4056241","2019-11-23 07:00","2019","11","23","07:00","1.5","","-2.7","","74","","","","25","","13","","24.1","","94.87","","","","","","NA"
"-105.67","53.21","PRINCE ALBERT A","4056241","2019-11-23 08:00","2019","11","23","08:00","2.4","","-2.4","","71","","","","26","","16","","24.1","","94.85","","","","","","NA"
"-105.67","53.21","PRINCE ALBERT A","4056241","2019-11-23 09:00","2019","11","23","09:00","3.8","","-1.9","","66","","","","26","","17","","24.1","","94.83","","","","","","Mostly Cloudy"
"-105.67","53.21","PRINCE ALBERT A","4056241","2019-11-23 10:00","2019","11","23","10:00","4.6","","-1.4","","65","","","","24","","11","","24.1","","94.80","","","","","","NA"
"-105.67","53.21","PRINCE ALBERT A","4056241","2019-11-23 11:00","2019","11","23","11:00","5.8","","-1.0","","62","","","","25","","15","","24.1","","94.81","","","","","","NA"
"-105.67","53.21","PRINCE ALBERT A","4056241","2019-11-23 12:00","2019","11","23","12:00","8.2","","-0.5","","54","","","","27","","28","","24.1","","94.78","","","","","","Mostly Cloudy"
"-105.67","53.21","PRINCE ALBERT A","4056241","2019-11-23 13:00","2019","11","23","13:00","8.9","","-0.4","","52","","","","29","","37","","24.1","","94.79","","","","","","NA"
"-105.67","53.21","PRINCE ALBERT A","4056241","2019-11-23 14:00","2019","11","23","14:00","8.7","","-0.1","","54","","","","30","","26","","24.1","","94.82","","","","","","NA"
"-105.67","53.21","PRINCE ALBERT A","4056241","2019-11-23 15:00","2019","11","23","15:00","8.8","","-0.1","","54","","","","29","","26","","24.1","","94.85","","","","","","Mainly Clear"
"-105.67","53.21","PRINCE ALBERT A","4056241","2019-11-23 16:00","2019","11","23","16:00","8.0","","-0.6","","54","","","","30","","19","","24.1","","94.91","","","","","","NA"
"-105.67","53.21","PRINCE ALBERT A","4056241","2019-11-23 17:00","2019","11","23","17:00","5.5","","-1.2","","62","","","","27","","13","","24.1","","94.97","","","","","","NA"
"-105.67","53.21","PRINCE ALBERT A","4056241","2019-11-23 18:00","2019","11","23","18:00","4.6","","-1.7","","64","","","","27","","15","","24.1","","94.98","","","","","","Mainly Clear"
"-105.67","53.21","PRINCE ALBERT A","4056241","2019-11-23 19:00","2019","11","23","19:00","3.0","","-2.3","","68","","","","27","","9","","24.1","","95.00","","","","","","NA"
"-105.67","53.21","PRINCE ALBERT A","4056241","2019-11-23 20:00","2019","11","23","20:00","1.7","","-2.3","","75","","","","27","","13","","24.1","","94.98","","","","","","NA"
"-105.67","53.21","PRINCE ALBERT A","4056241","2019-11-23 21:00","2019","11","23","21:00","1.9","","-2.4","","73","","","","26","","13","","24.1","","94.93","","","","","","Clear"
"-105.67","53.21","PRINCE ALBERT A","4056241","2019-11-23 22:00","2019","11","23","22:00","-0.3","","-3.2","","81","","","","25","","4","","24.1","","94.94","","","","-2","","NA"
"-105.67","53.21","PRINCE ALBERT A","4056241","2019-11-23 23:00","2019","11","23","23:00","-0.4","","-3.2","","81","","","","24","","8","","24.1","","94.93","","","","-3","","NA"
"-105.67","53.21","PRINCE ALBERT A","4056241","2019-11-24 00:00","2019","11","24","00:00","-2.9","","-5.2","","85","","","","26","","7","","24.1","","94.91","","","","-6","","Mainly Clear"
"-105.67","53.21","PRINCE ALBERT A","4056241","2019-11-24 01:00","2019","11","24","01:00","-3.7","","-5.3","","89","","","","36","","1","","24.1","","94.84","","","","-4","","NA"
"-105.67","53.21","PRINCE ALBERT A","4056241","2019-11-24 02:00","2019","11","24","02:00","-3.7","","-4.5","","95","","","","25","","7","","24.1","","94.79","","","","-7","","NA"
"-105.67","53.21","PRINCE ALBERT A","4056241","2019-11-24 03:00","2019","11","24","03:00","-2.9","","-4.6","","88","","","","26","","5","","24.1","","94.76","","","","-5","","Mostly Cloudy"
"-105.67","53.21","PRINCE ALBERT A","4056241","2019-11-24 04:00","2019","11","24","04:00","-2.1","","-4.2","","86","","","","36","","3","","24.1","","94.73","","","","-3","","NA"
"-105.67","53.21","PRINCE ALBERT A","4056241","2019-11-24 05:00","2019","11","24","05:00","-1.8","","-4.2","","84","","","","36","","3","","24.1","","94.67","","","","-3","","NA"
"-105.67","53.21","PRINCE ALBERT A","4056241","2019-11-24 06:00","2019","11","24","06:00","-2.5","","-3.7","","91","","","","20","","4","","24.1","","94.61","","","","-4","","Mostly Cloudy"
"-105.67","53.21","PRINCE ALBERT A","4056241","2019-11-24 07:00","2019","11","24","07:00","-2.1","","-3.3","","91","","","","36","","3","","24.1","","94.54","","","","-3","","NA"
"-105.67","53.21","PRINCE ALBERT A","4056241","2019-11-24 08:00","2019","11","24","08:00","-2.2","","-3.0","","94","","","","4","","9","","24.1","","94.50","","","","-6","","NA"
"-105.67","53.21","PRINCE ALBERT A","4056241","2019-11-24 09:00","2019","11","24","09:00","-2.0","","-3.5","","89","","","","6","","6","","24.1","","94.46","","","","-4","","Cloudy"
"-105.67","53.21","PRINCE ALBERT A","4056241","2019-11-24 10:00","2019","11","24","10:00","-1.0","","-1.8","","94","","","","36","","3","","24.1","","94.48","","","","-2","","Freezing Rain"
"-105.67","53.21","PRINCE ALBERT A","4056241","2019-11-24 11:00","2019","11","24","11:00","-0.3","","-1.0","","95","","","","5","","5","","12.9","","94.49","","","","-2","","Freezing Rain"
"-105.67","53.21","PRINCE ALBERT A","4056241","2019-11-24 12:00","2019","11","24","12:00","1.4","","0.7","","95","","","","32","","9","","11.3","","94.46","","","","","","Rain"
"-105.67","53.21","PRINCE ALBERT A","4056241","2019-11-24 13:00","2019","11","24","13:00","2.3","","1.5","","95","","","","29","","4","","16.1","","94.42","","","","","","Rain"
"-105.67","53.21","PRINCE ALBERT A","4056241","2019-11-24 14:00","2019","11","24","14:00","2.3","","1.7","","95","","","","28","","9","","24.1","","94.41","","","","","","NA"
"-105.67","53.21","PRINCE ALBERT A","4056241","2019-11-24 15:00","2019","11","24","15:00","1.8","","1.2","","96","","","","28","","10","","24.1","","94.47","","","","","","Mostly Cloudy"
"-105.67","53.21","PRINCE ALBERT A","4056241","2019-11-24 16:00","2019","11","24","16:00","1.6","","1.1","","96","","","","29","","10","","24.1","","94.54","","","","","","NA"
"-105.67","53.21","PRINCE ALBERT A","4056241","2019-11-24 17:00","2019","11","24","17:00","0.6","","-0.1","","96","","","","29","","11","","24.1","","94.62","","","","","","NA"
"-105.67","53.21","PRINCE ALBERT A","4056241","2019-11-24 18:00","2019","11","24","18:00","-1.2","","-1.8","","96","","","","28","","11","","24.1","","94.71","","","","-5","","Mostly Cloudy"
"-105.67","53.21","PRINCE ALBERT A","4056241","2019-11-24 19:00","2019","11","24","19:00","-0.4","","-2.0","","89","","","","31","","16","","24.1","","94.76","","","","-5","","NA"
"-105.67","53.21","PRINCE ALBERT A","4056241","2019-11-24 20:00","2019","11","24","20:00","-0.8","","-2.3","","90","","","","29","","16","","24.1","","94.81","","","","-6","","NA"
"-105.67","53.21","PRINCE ALBERT A","4056241","2019-11-24 21:00","2019","11","24","21:00","-2.8","","-3.5","","95","","","","28","","11","","24.1","","94.84","","","","-7","","Mainly Clear"
"-105.67","53.21","PRINCE ALBERT A","4056241","2019-11-24 22:00","2019","11","24","22:00","-2.1","","-3.4","","90","","","","30","","13","","24.1","","94.91","","","","-7","","NA"
"-105.67","53.21","PRINCE ALBERT A","4056241","2019-11-24 23:00","2019","11","24","23:00","-3.1","","-4.2","","92","","","","27","","11","","24.1","","94.96","","","","-7","","NA"
"-105.67","53.21","PRINCE ALBERT A","4056241","2019-11-25 00:00","2019","11","25","00:00","-2.2","","-3.4","","92","","","","26","","10","","24.1","","94.99","","","","-6","","Cloudy"
"-105.67","53.21","PRINCE ALBERT A","4056241","2019-11-25 01:00","2019","11","25","01:00","-2.8","","-4.2","","90","","","","28","","10","","24.1","","95.02","","","","-7","","NA"
"-105.67","53.21","PRINCE ALBERT A","4056241","2019-11-25 02:00","2019","11","25","02:00","-2.1","","-3.8","","88","","","","28","","15","","24.1","","95.05","","","","-7","","NA"
"-105.67","53.21","PRINCE ALBERT A","4056241","2019-11-25 03:00","2019","11","25","03:00","-3.3","","-4.7","","90","","","","26","","10","","24.1","","95.09","","","","-7","","Mainly Clear"
"-105.67","53.21","PRINCE ALBERT A","4056241","2019-11-25 04:00","2019","11","25","04:00","-3.5","","-6.0","","83","","","","27","","7","","24.1","","95.13","","","","-6","","NA"
"-105.67","53.21","PRINCE ALBERT A","4056241","2019-11-25 05:00","2019","11","25","05:00","-6.2","","-7.2","","93","","","","28","","10","","24.1","","95.15","","","","-11","","NA"
"-105.67","53.21","PRINCE ALBERT A","4056241","2019-11-25 06:00","2019","11","25","06:00","-4.3","","-6.0","","88","","","","28","","8","","24.1","","95.23","","","","-8","","Mostly Cloudy"
"-105.67","53.21","PRINCE ALBERT A","4056241","2019-11-25 07:00","2019","11","25","07:00","-3.6","","-5.9","","84","","","","30","","7","","24.1","","95.25","","","","-7","","NA"
"-105.67","53.21","PRINCE ALBERT A","4056241","2019-11-25 08:00","2019","11","25","08:00","-3.1","","-6.3","","78","","","","32","","6","","24.1","","95.29","","","","-6","","NA"
"-105.67","53.21","PRINCE ALBERT A","4056241","2019-11-25 09:00","2019","11","25","09:00","-3.2","","-6.3","","79","","","","33","","7","","24.1","","95.37","","","","-6","","Mostly Cloudy"
"-105.67","53.21","PRINCE ALBERT A","4056241","2019-11-25 10:00","2019","11","25","10:00","-3.6","","-7.4","","75","","","","34","","19","","24.1","","95.44","","","","-10","","NA"
"-105.67","53.21","PRINCE ALBERT A","4056241","2019-11-25 11:00","2019","11","25","11:00","-3.7","","-7.4","","76","","","","35","","17","","24.1","","95.49","","","","-9","","NA"
"-105.67","53.21","PRINCE ALBERT A","4056241","2019-11-25 12:00","2019","11","25","12:00","-4.2","","-8.4","","73","","","","35","","18","","24.1","","95.56","","","","-10","","Cloudy"
"-105.67","53.21","PRINCE ALBERT A","4056241","2019-11-25 13:00","2019","11","25","13:00","-4.4","","-8.5","","73","","","","33","","17","","24.1","","95.58","","","","-10","","NA"
"-105.67","53.21","PRINCE ALBERT A","4056241","2019-11-25 14:00","2019","11","25","14:00","-4.1","","-8.2","","73","","","","34","","15","","24.1","","95.60","","","","-9","","NA"
"-105.67","53.21","PRINCE ALBERT A","4056241","2019-11-25 15:00","2019","11","25","15:00","-3.9","","-8.4","","71","","","","34","","11","","24.1","","95.62","","","","-8","","Cloudy"
"-105.67","53.21","PRINCE ALBERT A","4056241","2019-11-25 16:00","2019","11","25","16:00","-3.8","","-8.3","","71","","","","34","","12","","24.1","","95.65","","","","-8","","NA"
"-105.67","53.21","PRINCE ALBERT A","4056241","2019-11-25 17:00","2019","11","25","17:00","-4.1","","-7.9","","75","","","","30","","9","","24.1","","95.73","","","","-8","","NA"
"-105.67","53.21","PRINCE ALBERT A","4056241","2019-11-25 18:00","2019","11","25","18:00","-4.1","","-8.6","","71","","","","31","","11","","24.1","","95.78","","","","-9","","Cloudy"
"-105.67","53.21","PRINCE ALBERT A","4056241","2019-11-25 19:00","2019","11","25","19:00","-4.3","","-9.4","","67","","","","35","","14","","24.1","","95.80","","","","-9","","NA"
"-105.67","53.21","PRINCE ALBERT A","4056241","2019-11-25 20:00","2019","11","25","20:00","-4.7","","-8.9","","72","","","","5","","6","","24.1","","95.82","","","","-7","","NA"
"-105.67","53.21","PRINCE ALBERT A","4056241","2019-11-25 21:00","2019","11","25","21:00","-4.6","","-8.9","","72","","","","36","","1","","24.1","","95.87","","","","-5","","Cloudy"
"-105.67","53.21","PRINCE ALBERT A","4056241","2019-11-25 22:00","2019","11","25","22:00","-4.6","","-9.0","","72","","","","36","","1","","24.1","","95.90","","","","-5","","NA"
"-105.67","53.21","PRINCE ALBERT A","4056241","2019-11-25 23:00","2019","11","25","23:00","-5.1","","-7.7","","82","","","","36","","1","","24.1","","95.94","","","","-6","","NA"
"-105.67","53.21","PRINCE ALBERT A","4056241","2019-11-26 00:00","2019","11","26","00:00","-5.1","","-8.0","","80","","","","6","","4","","24.1","","95.97","","","","-7","","Cloudy"
"-105.67","53.21","PRINCE ALBERT A","4056241","2019-11-26 01:00","2019","11","26","01:00","-5.1","","-8.6","","77","","","","7","","5","","24.1","","96.01","","","","-7","","NA"
"-105.67","53.21","PRINCE ALBERT A","4056241","2019-11-26 02:00","2019","11","26","02:00","-5.4","","-8.3","","81","","","","11","","3","","24.1","","96.01","","","","-7","","Snow"
"-105.67","53.21","PRINCE ALBERT A","4056241","2019-11-26 03:00","2019","11","26","03:00","-5.1","","-8.7","","76","","","","16","","3","","24.1","","96.07","","","","-6","","Cloudy"
"-105.67","53.21","PRINCE ALBERT A","4056241","2019-11-26 04:00","2019","11","26","04:00","-5.1","","-8.7","","76","","","","10","","8","","24.1","","96.10","","","","-9","","NA"
"-105.67","53.21","PRINCE ALBERT A","4056241","2019-11-26 05:00","2019","11","26","05:00","-5.4","","-8.5","","79","","","","8","","7","","24.1","","96.11","","","","-9","","Snow"
"-105.67","53.21","PRINCE ALBERT A","4056241","2019-11-26 06:00","2019","11","26","06:00","-5.5","","-8.9","","77","","","","8","","8","","24.1","","96.14","","","","-9","","Snow"
"-105.67","53.21","PRINCE ALBERT A","4056241","2019-11-26 07:00","2019","11","26","07:00","-5.4","","-9.0","","76","","","","10","","7","","24.1","","96.17","","","","-9","","Snow"
"-105.67","53.21","PRINCE ALBERT A","4056241","2019-11-26 08:00","2019","11","26","08:00","-5.4","","-9.0","","76","","","","10","","10","","24.1","","96.20","","","","-10","","Snow"
"-105.67","53.21","PRINCE ALBERT A","4056241","2019-11-26 09:00","2019","11","26","09:00","-5.6","","-8.8","","78","","","","10","","9","","24.1","","96.26","","","","-10","","Snow"
"-105.67","53.21","PRINCE ALBERT A","4056241","2019-11-26 10:00","2019","11","26","10:00","-5.5","","-9.1","","76","","","","8","","8","","24.1","","96.33","","","","-9","","Snow"
"-105.67","53.21","PRINCE ALBERT A","4056241","2019-11-26 11:00","2019","11","26","11:00","-5.2","","-9.1","","74","","","","8","","9","","24.1","","96.37","","","","-9","","Snow"
"-105.67","53.21","PRINCE ALBERT A","4056241","2019-11-26 12:00","2019","11","26","12:00","-4.7","","-8.3","","76","","","","12","","8","","24.1","","96.41","","","","-8","","Snow"
"-105.67","53.21","PRINCE ALBERT A","4056241","2019-11-26 13:00","2019","11","26","13:00","-4.6","","-8.4","","74","","","","11","","9","","19.3","","96.41","","","","-8","","Snow"
"-105.67","53.21","PRINCE ALBERT A","4056241","2019-11-26 14:00","2019","11","26","14:00","-4.8","","-7.4","","82","","","","11","","7","","8.1","","96.44","","","","-8","","Snow"
"-105.67","53.21","PRINCE ALBERT A","4056241","2019-11-26 15:00","2019","11","26","15:00","-4.8","","-7.7","","80","","","","7","","5","","16.1","","96.48","","","","-7","","Snow"
"-105.67","53.21","PRINCE ALBERT A","4056241","2019-11-26 16:00","2019","11","26","16:00","-4.7","","-7.5","","81","","","","6","","8","","12.9","","96.55","","","","-8","","Snow"
"-105.67","53.21","PRINCE ALBERT A","4056241","2019-11-26 17:00","2019","11","26","17:00","-5.1","","-7.3","","85","","","","5","","9","","6.4","","96.62","","","","-9","","Snow"
"-105.67","53.21","PRINCE ALBERT A","4056241","2019-11-26 18:00","2019","11","26","18:00","-5.3","","-7.2","","86","","","","3","","7","","12.9","","96.71","","","","-9","","Snow"
"-105.67","53.21","PRINCE ALBERT A","4056241","2019-11-26 19:00","2019","11","26","19:00","-5.7","","-7.3","","88","","","","3","","7","","16.1","","96.76","","","","-9","","Snow"
"-105.67","53.21","PRINCE ALBERT A","4056241","2019-11-26 20:00","2019","11","26","20:00","-5.8","","-7.4","","88","","","","5","","3","","16.1","","96.80","","","","-7","","Snow"
"-105.67","53.21","PRINCE ALBERT A","4056241","2019-11-26 21:00","2019","11","26","21:00","-6.0","","-7.9","","87","","","","3","","8","","19.3","","96.83","","","","-10","","Snow"
"-105.67","53.21","PRINCE ALBERT A","4056241","2019-11-26 22:00","2019","11","26","22:00","-6.2","","-8.0","","87","","","","6","","7","","19.3","","96.87","","","","-10","","Snow"
"-105.67","53.21","PRINCE ALBERT A","4056241","2019-11-26 23:00","2019","11","26","23:00","-6.2","","-7.8","","88","","","","3","","7","","24.1","","96.91","","","","-10","","Snow"
"-105.67","53.21","PRINCE ALBERT A","4056241","2019-11-27 00:00","2019","11","27","00:00","-6.0","","-7.9","","87","","","","5","","9","","24.1","","96.98","","","","-10","","Cloudy"
"-105.67","53.21","PRINCE ALBERT A","4056241","2019-11-27 01:00","2019","11","27","01:00","-6.0","","-7.8","","88","","","","5","","7","","24.1","","97.07","","","","-9","","Snow"
"-105.67","53.21","PRINCE ALBERT A","4056241","2019-11-27 02:00","2019","11","27","02:00","-5.9","","-7.5","","89","","","","7","","7","","24.1","","97.12","","","","-9","","Snow"
"-105.67","53.21","PRINCE ALBERT A","4056241","2019-11-27 03:00","2019","11","27","03:00","-6.0","","-7.4","","90","","","","7","","8","","8.1","","97.19","","","","-10","","Snow"
"-105.67","53.21","PRINCE ALBERT A","4056241","2019-11-27 04:00","2019","11","27","04:00","-6.1","","-7.3","","92","","","","6","","8","","6.4","","97.22","","","","-10","","Snow"
"-105.67","53.21","PRINCE ALBERT A","4056241","2019-11-27 05:00","2019","11","27","05:00","-6.5","","-7.7","","91","","","","4","","6","","9.7","","97.27","","","","-9","","Snow"
"-105.67","53.21","PRINCE ALBERT A","4056241","2019-11-27 06:00","2019","11","27","06:00","-6.9","","-8.0","","92","","","","2","","5","","12.9","","97.32","","","","-9","","Snow"
"-105.67","53.21","PRINCE ALBERT A","4056241","2019-11-27 07:00","2019","11","27","07:00","-6.8","","-8.1","","91","","","","5","","9","","12.9","","97.36","","","","-11","","Snow"
"-105.67","53.21","PRINCE ALBERT A","4056241","2019-11-27 08:00","2019","11","27","08:00","-6.7","","-8.2","","89","","","","6","","9","","12.9","","97.42","","","","-11","","Snow"
"-105.67","53.21","PRINCE ALBERT A","4056241","2019-11-27 09:00","2019","11","27","09:00","-6.9","","-8.3","","90","","","","7","","8","","16.1","","97.51","","","","-11","","Snow"
"-105.67","53.21","PRINCE ALBERT A","4056241","2019-11-27 10:00","2019","11","27","10:00","-6.8","","-8.3","","89","","","","7","","10","","12.9","","97.60","","","","-11","","Snow"
"-105.67","53.21","PRINCE ALBERT A","4056241","2019-11-27 11:00","2019","11","27","11:00","-6.7","","-8.2","","89","","","","7","","10","","6.4","","97.66","","","","-11","","Snow"
"-105.67","53.21","PRINCE ALBERT A","4056241","2019-11-27 12:00","2019","11","27","12:00","-6.4","","-8.1","","88","","","","5","","5","","8.1","","97.69","","","","-9","","Snow"
"-105.67","53.21","PRINCE ALBERT A","4056241","2019-11-27 13:00","2019","11","27","13:00","-6.3","","-8.0","","88","","","","8","","9","","4.8","","97.69","","","","-11","","Snow"
"-105.67","53.21","PRINCE ALBERT A","4056241","2019-11-27 14:00","2019","11","27","14:00","-6.2","","-8.0","","87","","","","9","","7","","12.9","","97.76","","","","-10","","Snow"
"-105.67","53.21","PRINCE ALBERT A","4056241","2019-11-27 15:00","2019","11","27","15:00","-6.1","","-7.7","","88","","","","8","","5","","6.4","","97.79","","","","-9","","Snow"
"-105.67","53.21","PRINCE ALBERT A","4056241","2019-11-27 16:00","2019","11","27","16:00","-6.1","","-7.8","","88","","","","8","","10","","8.1","","97.83","","","","-11","","Snow"
"-105.67","53.21","PRINCE ALBERT A","4056241","2019-11-27 17:00","2019","11","27","17:00","-6.7","","-8.0","","90","","","","6","","7","","12.9","","97.88","","","","-10","","Snow"
"-105.67","53.21","PRINCE ALBERT A","4056241","2019-11-27 18:00","2019","11","27","18:00","-7.4","","-8.7","","91","","","","5","","12","","19.3","","97.89","","","","-13","","Snow"
"-105.67","53.21","PRINCE ALBERT A","4056241","2019-11-27 19:00","2019","11","27","19:00","-7.8","","-8.8","","92","","","","8","","5","","19.3","","97.98","","","","-10","","Snow"
"-105.67","53.21","PRINCE ALBERT A","4056241","2019-11-27 20:00","2019","11","27","20:00","-6.6","","-7.9","","91","","","","9","","8","","19.3","","97.99","","","","-10","","Snow"
"-105.67","53.21","PRINCE ALBERT A","4056241","2019-11-27 21:00","2019","11","27","21:00","-6.0","","-7.8","","88","","","","10","","12","","24.1","","98.03","","","","-11","","Snow"
"-105.67","53.21","PRINCE ALBERT A","4056241","2019-11-27 22:00","2019","11","27","22:00","-6.0","","-7.5","","89","","","","10","","12","","24.1","","98.08","","","","-11","","Snow"
"-105.67","53.21","PRINCE ALBERT A","4056241","2019-11-27 23:00","2019","11","27","23:00","-5.9","","-7.4","","89","","","","10","","10","","19.3","","98.13","","","","-10","","Snow"
"-105.67","53.21","PRINCE ALBERT A","4056241","2019-11-28 00:00","2019","11","28","00:00","-5.7","","-7.1","","90","","","","12","","10","","19.3","","98.20","","","","-10","","Cloudy"
"-105.67","53.21","PRINCE ALBERT A","4056241","2019-11-28 01:00","2019","11","28","01:00","-5.9","","-7.2","","91","","","","11","","14","","19.3","","98.19","","","","-11","","Snow"
"-105.67","53.21","PRINCE ALBERT A","4056241","2019-11-28 02:00","2019","11","28","02:00","-5.9","","-7.3","","90","","","","10","","17","","19.3","","98.15","","","","-12","","Snow"
"-105.67","53.21","PRINCE ALBERT A","4056241","2019-11-28 03:00","2019","11","28","03:00","-6.1","","-7.6","","89","","","","10","","15","","24.1","","98.13","","","","-12","","Snow"
"-105.67","53.21","PRINCE ALBERT A","4056241","2019-11-28 04:00","2019","11","28","04:00","-6.3","","-7.8","","89","","","","11","","13","","24.1","","98.13","","","","-12","","NA"
"-105.67","53.21","PRINCE ALBERT A","4056241","2019-11-28 05:00","2019","11","28","05:00","-7.2","","-8.6","","90","","","","13","","18","","24.1","","98.16","","","","-14","","NA"
"-105.67","53.21","PRINCE ALBERT A","4056241","2019-11-28 06:00","2019","11","28","06:00","-7.9","","-8.9","","93","","","","11","","14","","24.1","","98.17","","","","-14","","Cloudy"
"-105.67","53.21","PRINCE ALBERT A","4056241","2019-11-28 07:00","2019","11","28","07:00","-8.2","","-9.2","","93","","","","10","","15","","16.1","","98.16","","","","-15","","Snow"
"-105.67","53.21","PRINCE ALBERT A","4056241","2019-11-28 08:00","2019","11","28","08:00","-9.5","","-10.7","","91","","","","12","","14","","16.1","","98.17","","","","-16","","Snow"
"-105.67","53.21","PRINCE ALBERT A","4056241","2019-11-28 09:00","2019","11","28","09:00","-9.9","","-10.8","","93","","","","11","","10","","12.9","","98.20","","","","-15","","Snow"
"-105.67","53.21","PRINCE ALBERT A","4056241","2019-11-28 10:00","2019","11","28","10:00","-8.8","","-9.9","","92","","","","12","","10","","16.1","","98.19","","","","-14","","NA"
"-105.67","53.21","PRINCE ALBERT A","4056241","2019-11-28 11:00","2019","11","28","11:00","-7.8","","-9.5","","87","","","","10","","15","","19.3","","98.16","","","","-14","","NA"
"-105.67","53.21","PRINCE ALBERT A","4056241","2019-11-28 12:00","2019","11","28","12:00","-7.4","","-9.6","","85","","","","11","","14","","24.1","","98.11","","","","-13","","Cloudy"
"-105.67","53.21","PRINCE ALBERT A","4056241","2019-11-28 13:00","2019","11","28","13:00","-6.7","","-9.5","","81","","","","12","","21","","19.3","","98.05","","","","-14","","Snow"
"-105.67","53.21","PRINCE ALBERT A","4056241","2019-11-28 14:00","2019","11","28","14:00","-6.9","","-9.7","","81","","","","14","","20","","24.1","","98.00","","","","-14","","Snow"
"-105.67","53.21","PRINCE ALBERT A","4056241","2019-11-28 15:00","2019","11","28","15:00","-6.9","","-9.5","","82","","","","12","","18","","24.1","","97.91","","","","-14","","Snow"
"-105.67","53.21","PRINCE ALBERT A","4056241","2019-11-28 16:00","2019","11","28","16:00","-6.8","","-9.4","","82","","","","11","","17","","24.1","","97.87","","","","-13","","Snow"
"-105.67","53.21","PRINCE ALBERT A","4056241","2019-11-28 17:00","2019","11","28","17:00","-7.5","","-9.8","","84","","","","10","","11","","24.1","","97.85","","","","-13","","Snow"
"-105.67","53.21","PRINCE ALBERT A","4056241","2019-11-28 18:00","2019","11","28","18:00","-8.2","","-10.2","","86","","","","9","","17","","24.1","","97.81","","","","-15","","Mostly Cloudy"
"-105.67","53.21","PRINCE ALBERT A","4056241","2019-11-28 19:00","2019","11","28","19:00","-8.0","","-10.1","","85","","","","8","","18","","24.1","","97.80","","","","-15","","NA"
"-105.67","53.21","PRINCE ALBERT A","4056241","2019-11-28 20:00","2019","11","28","20:00","-7.5","","-9.8","","84","","","","8","","19","","19.3","","97.71","","","","-15","","Snow"
"-105.67","53.21","PRINCE ALBERT A","4056241","2019-11-28 21:00","2019","11","28","21:00","-7.4","","-10.0","","82","","","","9","","22","","9.7","","97.69","","","","-15","","Snow"
"-105.67","53.21","PRINCE ALBERT A","4056241","2019-11-28 22:00","2019","11","28","22:00","-7.5","","-9.8","","84","","","","8","","15","","9.7","","97.66","","","","-14","","Snow"
"-105.67","53.21","PRINCE ALBERT A","4056241","2019-11-28 23:00","2019","11","28","23:00","-7.4","","-9.8","","83","","","","9","","24","","19.3","","97.60","","","","-15","","Snow"
"-105.67","53.21","PRINCE ALBERT A","4056241","2019-11-29 00:00","2019","11","29","00:00","-7.5","","-9.7","","84","","","","9","","26","","6.4","","97.56","","","","-16","","Snow,Blowing Snow"
"-105.67","53.21","PRINCE ALBERT A","4056241","2019-11-29 01:00","2019","11","29","01:00","-7.6","","-9.6","","86","","","","8","","23","","8.1","","97.47","","","","-15","","Snow,Blowing Snow"
"-105.67","53.21","PRINCE ALBERT A","4056241","2019-11-29 02:00","2019","11","29","02:00","-7.8","","-9.2","","89","","","","9","","19","","2.4","","97.39","","","","-15","","Snow,Blowing Snow"
"-105.67","53.21","PRINCE ALBERT A","4056241","2019-11-29 03:00","2019","11","29","03:00","-7.8","","-9.3","","89","","","","9","","21","","4.0","","97.32","","","","-15","","Snow,Blowing Snow"
"-105.67","53.21","PRINCE ALBERT A","4056241","2019-11-29 04:00","2019","11","29","04:00","-7.8","","-9.4","","89","","","","11","","15","","2.4","","97.31","","","","-14","","Snow,Blowing Snow"
"-105.67","53.21","PRINCE ALBERT A","4056241","2019-11-29 05:00","2019","11","29","05:00","-8.1","","-9.9","","87","","","","11","","16","","4.8","","97.24","","","","-15","","Snow"
"-105.67","53.21","PRINCE ALBERT A","4056241","2019-11-29 06:00","2019","11","29","06:00","-8.9","","-10.5","","88","","","","10","","10","","4.8","","97.21","","","","-14","","Snow"
"-105.67","53.21","PRINCE ALBERT A","4056241","2019-11-29 07:00","2019","11","29","07:00","-9.1","","-10.9","","87","","","","10","","11","","4.8","","97.25","","","","-15","","Snow"
"-105.67","53.21","PRINCE ALBERT A","4056241","2019-11-29 08:00","2019","11","29","08:00","-9.2","","-10.8","","88","","","","8","","13","","8.1","","97.25","","","","-15","","Snow"
"-105.67","53.21","PRINCE ALBERT A","4056241","2019-11-29 09:00","2019","11","29","09:00","-8.9","","-10.8","","86","","","","9","","10","","12.9","","97.25","","","","-14","","Snow"
"-105.67","53.21","PRINCE ALBERT A","4056241","2019-11-29 10:00","2019","11","29","10:00","-9.2","","-10.8","","88","","","","8","","15","","8.1","","97.22","","","","-16","","Snow"
"-105.67","53.21","PRINCE ALBERT A","4056241","2019-11-29 11:00","2019","11","29","11:00","-9.1","","-11.0","","86","","","","8","","15","","11.3","","97.23","","","","-16","","Snow"
"-105.67","53.21","PRINCE ALBERT A","4056241","2019-11-29 12:00","2019","11","29","12:00","-8.8","","-10.7","","86","","","","8","","16","","16.1","","97.20","","","","-16","","Snow"
"-105.67","53.21","PRINCE ALBERT A","4056241","2019-11-29 13:00","2019","11","29","13:00","-8.4","","-10.4","","86","","","","8","","12","","9.7","","97.19","","","","-14","","Snow"
"-105.67","53.21","PRINCE ALBERT A","4056241","2019-11-29 14:00","2019","11","29","14:00","-8.1","","-10.5","","83","","","","12","","8","","12.9","","97.19","","","","-12","","Snow"
"-105.67","53.21","PRINCE ALBERT A","4056241","2019-11-29 15:00","2019","11","29","15:00","-8.1","","-10.5","","83","","","","11","","12","","12.9","","97.15","","","","-14","","Snow"
"-105.67","53.21","PRINCE ALBERT A","4056241","2019-11-29 16:00","2019","11","29","16:00","-8.0","","-10.3","","84","","","","10","","9","","16.1","","97.17","","","","-13","","Snow"
"-105.67","53.21","PRINCE ALBERT A","4056241","2019-11-29 17:00","2019","11","29","17:00","-8.1","","-10.2","","85","","","","8","","10","","19.3","","97.14","","","","-13","","Snow"
"-105.67","53.21","PRINCE ALBERT A","4056241","2019-11-29 18:00","2019","11","29","18:00","-8.2","","-10.1","","87","","","","9","","7","","19.3","","97.18","","","","-12","","Snow"
"-105.67","53.21","PRINCE ALBERT A","4056241","2019-11-29 19:00","2019","11","29","19:00","-8.4","","-10.5","","85","","","","8","","12","","19.3","","97.18","","","","-14","","Snow"
"-105.67","53.21","PRINCE ALBERT A","4056241","2019-11-29 20:00","2019","11","29","20:00","-8.7","","-10.7","","85","","","","10","","11","","19.3","","97.22","","","","-14","","Snow"
"-105.67","53.21","PRINCE ALBERT A","4056241","2019-11-29 21:00","2019","11","29","21:00","-8.7","","-10.6","","87","","","","9","","10","","19.3","","97.26","","","","-14","","Snow"
"-105.67","53.21","PRINCE ALBERT A","4056241","2019-11-29 22:00","2019","11","29","22:00","-8.8","","-10.7","","87","","","","8","","11","","19.3","","97.31","","","","-14","","Snow"
"-105.67","53.21","PRINCE ALBERT A","4056241","2019-11-29 23:00","2019","11","29","23:00","-9.3","","-11.1","","87","","","","6","","10","","16.1","","97.31","","","","-14","","Snow"
"-105.67","53.21","PRINCE ALBERT A","4056241","2019-11-30 00:00","2019","11","30","00:00","-9.5","","-11.1","","88","","","","6","","9","","19.3","","97.30","","","","-14","","Snow"
"-105.67","53.21","PRINCE ALBERT A","4056241","2019-11-30 01:00","2019","11","30","01:00","-9.3","","-11.1","","87","","","","7","","12","","19.3","","97.30","","","","-15","","Snow"
"-105.67","53.21","PRINCE ALBERT A","4056241","2019-11-30 02:00","2019","11","30","02:00","-9.2","","-10.9","","88","","","","7","","9","","19.3","","97.31","","","","-14","","Snow"
"-105.67","53.21","PRINCE ALBERT A","4056241","2019-11-30 03:00","2019","11","30","03:00","-9.2","","-10.7","","89","","","","7","","10","","24.1","","97.30","","","","-14","","Snow"
"-105.67","53.21","PRINCE ALBERT A","4056241","2019-11-30 04:00","2019","11","30","04:00","-9.3","","-10.8","","89","","","","9","","6","","24.1","","97.29","","","","-13","","Snow"
"-105.67","53.21","PRINCE ALBERT A","4056241","2019-11-30 05:00","2019","11","30","05:00","-9.5","","-10.9","","89","","","","8","","8","","24.1","","97.28","","","","-14","","Snow"
"-105.67","53.21","PRINCE ALBERT A","4056241","2019-11-30 06:00","2019","11","30","06:00","-9.6","","-11.0","","90","","","","7","","7","","24.1","","97.29","","","","-14","","Snow"
"-105.67","53.21","PRINCE ALBERT A","4056241","2019-11-30 07:00","2019","11","30","07:00","-9.7","","-11.1","","90","","","","7","","3","","24.1","","97.30","","","","-11","","Snow"
"-105.67","53.21","PRINCE ALBERT A","4056241","2019-11-30 08:00","2019","11","30","08:00","-9.7","","-11.0","","90","","","","4","","6","","24.1","","97.33","","","","-13","","Snow"
"-105.67","53.21","PRINCE ALBERT A","4056241","2019-11-30 09:00","2019","11","30","09:00","-9.6","","-11.1","","89","","","","6","","6","","24.1","","97.37","","","","-13","","Snow"
"-105.67","53.21","PRINCE ALBERT A","4056241","2019-11-30 10:00","2019","11","30","10:00","-9.7","","-11.2","","89","","","","9","","5","","19.3","","97.38","","","","-13","","Snow"
"-105.67","53.21","PRINCE ALBERT A","4056241","2019-11-30 11:00","2019","11","30","11:00","-9.4","","-11.1","","88","","","","9","","5","","8.1","","97.39","","","","-12","","Snow"
"-105.67","53.21","PRINCE ALBERT A","4056241","2019-11-30 12:00","2019","11","30","12:00","-9.2","","-11.2","","85","","","","10","","3","","8.1","","97.36","","","","-11","","Snow"
"-105.67","53.21","PRINCE ALBERT A","4056241","2019-11-30 13:00","2019","11","30","13:00","-8.9","","-11.2","","84","","","","8","","3","","9.7","","97.33","","","","-11","","Snow"
"-105.67","53.21","PRINCE ALBERT A","4056241","2019-11-30 14:00","2019","11","30","14:00","-8.9","","-11.1","","84","","","","36","","2","","6.4","","97.32","","","","-10","","Snow"
"-105.67","53.21","PRINCE ALBERT A","4056241","2019-11-30 15:00","2019","11","30","15:00","-8.9","","-11.4","","83","","","","13","","4","","6.4","","97.28","","","","-11","","Snow"
"-105.67","53.21","PRINCE ALBERT A","4056241","2019-11-30 16:00","2019","11","30","16:00","-9.2","","-11.7","","82","","","","15","","9","","9.7","","97.28","","","","-14","","Snow"
"-105.67","53.21","PRINCE ALBERT A","4056241","2019-11-30 17:00","2019","11","30","17:00","-9.2","","-11.2","","86","","","","17","","7","","9.7","","97.26","","","","-13","","Snow"
"-105.67","53.21","PRINCE ALBERT A","4056241","2019-11-30 18:00","2019","11","30","18:00","-9.7","","-11.4","","87","","","","17","","10","","9.7","","97.22","","","","-15","","Snow"
"-105.67","53.21","PRINCE ALBERT A","4056241","2019-11-30 19:00","2019","11","30","19:00","-9.7","","-11.4","","87","","","","18","","8","","19.3","","97.18","","","","-14","","Snow"
"-105.67","53.21","PRINCE ALBERT A","4056241","2019-11-30 20:00","2019","11","30","20:00","-9.8","","-11.8","","86","","","","16","","4","","19.3","","97.15","","","","-12","","Snow"
"-105.67","53.21","PRINCE ALBERT A","4056241","2019-11-30 21:00","2019","11","30","21:00","-9.8","","-11.9","","85","","","","19","","9","","24.1","","97.12","","","","-15","","Snow"
"-105.67","53.21","PRINCE ALBERT A","4056241","2019-11-30 22:00","2019","11","30","22:00","-10.0","","-12.1","","84","","","","21","","15","","24.1","","97.10","","","","-17","","Snow"
"-105.67","53.21","PRINCE ALBERT A","4056241","2019-11-30 23:00","2019","11","30","23:00","-10.2","","-12.2","","85","","","","20","","14","","24.1","","97.07","","","","-17","","Snow"
