"Longitude (x)","Latitude (y)","Station Name","Climate ID","Date/Time (LST)","Year","Month","Day","Time (LST)","Temp (°C)","Temp Flag","Dew Point Temp (°C)","Dew Point Temp Flag","Rel Hum (%)","Rel Hum Flag","Precip. Amount (mm)","Precip. Amount Flag","Wind Dir (10s deg)","Wind Dir Flag","Wind Spd (km/h)","Wind Spd Flag","Visibility (km)","Visibility Flag","Stn Press (kPa)","Stn Press Flag","Hmdx","Hmdx Flag","Wind Chill","Wind Chill Flag","Weather"
"-81.82","69.36","IGLOOLIK A","2402546","2022-02-01 00:00","2022","02","01","00:00","-31.2","","-34.5","","73","","","M","4","","11","","","M","100.33","","","","-41","","NA"
"-81.82","69.36","IGLOOLIK A","2402546","2022-02-01 01:00","2022","02","01","01:00","-31.4","","-34.7","","73","","","M","4","","14","","","M","100.35","","","","-43","","NA"
"-81.82","69.36","IGLOOLIK A","2402546","2022-02-01 02:00","2022","02","01","02:00","-32.0","","-35.4","","73","","","M","3","","15","","","M","100.42","","","","-44","","NA"
"-81.82","69.36","IGLOOLIK A","2402546","2022-02-01 03:00","2022","02","01","03:00","-31.8","","-35.2","","73","","","M","2","","15","","","M","100.47","","","","-44","","NA"
"-81.82","69.36","IGLOOLIK A","2402546","2022-02-01 04:00","2022","02","01","04:00","-30.8","","-34.1","","74","","","M","3","","12","","","M","100.51","","","","-41","","NA"
"-81.82","69.36","IGLOOLIK A","2402546","2022-02-01 05:00","2022","02","01","05:00","-30.8","","-34.1","","74","","","M","2","","10","","","M","100.53","","","","-40","","NA"
"-81.82","69.36","IGLOOLIK A","2402546","2022-02-01 06:00","2022","02","01","06:00","-30.6","","-33.9","","74","","","M","36","","9","","","M","100.55","","","","-39","","NA"
"-81.82","69.36","IGLOOLIK A","2402546","2022-02-01 07:00","2022","02","01","07:00","-30.9","","-34.2","","73","","","M","35","","4","","","M","100.57","","","","-35","","NA"
"-81.82","69.36","IGLOOLIK A","2402546","2022-02-01 08:00","2022","02","01","08:00","-29.8","","-33.0","","74","","","M","19","","3","","","M","100.60","","","","-33","","NA"
"-81.82","69.36","IGLOOLIK A","2402546","2022-02-01 09:00","2022","02","01","09:00","-27.0","","-30.0","","76","","","M","20","","5","","","M","100.63","","","","-32","","NA"
"-81.82","69.36","IGLOOLIK A","2402546","2022-02-01 10:00","2022","02","01","10:00","-27.5","","-30.5","","76","","","M","18","","6","","","M","100.64","","","","-34","","NA"
"-81.82","69.36","IGLOOLIK A","2402546","2022-02-01 11:00","2022","02","01","11:00","-27.8","","-30.8","","76","","","M","18","","6","","","M","100.68","","","","-34","","NA"
"-81.82","69.36","IGLOOLIK A","2402546","2022-02-01 12:00","2022","02","01","12:00","-27.6","","-30.6","","76","","","M","20","","5","","","M","100.69","","","","-33","","NA"
"-81.82","69.36","IGLOOLIK A","2402546","2022-02-01 13:00","2022","02","01","13:00","-28.4","","-31.5","","75","","","M","3","","9","","","M","100.72","","","","-37","","NA"
"-81.82","69.36","IGLOOLIK A","2402546","2022-02-01 14:00","2022","02","01","14:00","-27.5","","-30.6","","76","","","M","4","","8","","","M","100.72","","","","-35","","NA"
"-81.82","69.36","IGLOOLIK A","2402546","2022-02-01 15:00","2022","02","01","15:00","-27.4","","-30.5","","76","","","M","6","","8","","","M","100.73","","","","-35","","NA"
"-81.82","69.36","IGLOOLIK A","2402546","2022-02-01 16:00","2022","02","01","16:00","-30.1","","-33.3","","74","","","M","4","","10","","","M","100.72","","","","-39","","NA"
"-81.82","69.36","IGLOOLIK A","2402546","2022-02-01 17:00","2022","02","01","17:00","-30.6","","-33.8","","74","","","M","5","","13","","","M","100.73","","","","-41","","NA"
"-81.82","69.36","IGLOOLIK A","2402546","2022-02-01 18:00","2022","02","01","18:00","-28.1","","-31.2","","75","","","M","6","","8","","","M","100.71","","","","-36","","NA"
"-81.82","69.36","IGLOOLIK A","2402546","2022-02-01 19:00","2022","02","01","19:00","-28.7","","-31.8","","75","","","M","10","","10","","","M","100.72","","","","-38","","NA"
"-81.82","69.36","IGLOOLIK A","2402546","2022-02-01 20:00","2022","02","01","20:00","-29.2","","-32.3","","75","","","M","10","","9","","","M","100.69","","","","-38","","NA"
"-81.82","69.36","IGLOOLIK A","2402546","2022-02-01 21:00","2022","02","01","21:00","-30.1","","-33.2","","74","","","M","10","","10","","","M","100.69","","","","-39","","NA"
"-81.82","69.36","IGLOOLIK A","2402546","2022-02-01 22:00","2022","02","01","22:00","-29.3","","-32.4","","75","","","M","9","","17","","","M","100.65","","","","-41","","NA"
"-81.82","69.36","IGLOOLIK A","2402546","2022-02-01 23:00","2022","02","01","23:00","-28.8","","-31.9","","75","","","M","9","","19","","","M","100.62","","","","-41","","NA"
"-81.82","69.36","IGLOOLIK A","2402546","2022-02-02 00:00","2022","02","02","00:00","-32.9","","-36.3","","73","","","M","6","","15","","","M","100.60","","","","-45","","NA"
"-81.82","69.36","IGLOOLIK A","2402546","2022-02-02 01:00","2022","02","02","01:00","-31.3","","-34.5","","74","","","M","7","","18","","","M","100.56","","","","-44","","NA"
"-81.82","69.36","IGLOOLIK A","2402546","2022-02-02 02:00","2022","02","02","02:00","-33.3","","-36.7","","72","","","M","5","","18","","","M","100.51","","","","-47","","NA"
"-81.82","69.36","IGLOOLIK A","2402546","2022-02-02 03:00","2022","02","02","03:00","-34.2","","-37.6","","72","","","M","4","","22","","","M","100.48","","","","-49","","NA"
"-81.82","69.36","IGLOOLIK A","2402546","2022-02-02 04:00","2022","02","02","04:00","-34.1","","-37.5","","72","","","M","5","","21","","","M","100.45","","","","-49","","NA"
"-81.82","69.36","IGLOOLIK A","2402546","2022-02-02 05:00","2022","02","02","05:00","-34.0","","-37.5","","72","","","M","4","","26","","","M","100.41","","","","-50","","NA"
"-81.82","69.36","IGLOOLIK A","2402546","2022-02-02 06:00","2022","02","02","06:00","-33.5","","-36.9","","72","","","M","5","","25","","","M","100.37","","","","-49","","NA"
"-81.82","69.36","IGLOOLIK A","2402546","2022-02-02 07:00","2022","02","02","07:00","-33.4","","-36.8","","72","","","M","5","","27","","","M","100.31","","","","-49","","NA"
"-81.82","69.36","IGLOOLIK A","2402546","2022-02-02 08:00","2022","02","02","08:00","-33.5","","-36.9","","72","","","M","5","","27","","","M","100.27","","","","-49","","NA"
"-81.82","69.36","IGLOOLIK A","2402546","2022-02-02 09:00","2022","02","02","09:00","-33.1","","-36.5","","72","","","M","5","","27","","","M","100.24","","","","-49","","NA"
"-81.82","69.36","IGLOOLIK A","2402546","2022-02-02 10:00","2022","02","02","10:00","-33.0","","-36.4","","72","","","M","5","","26","","","M","100.20","","","","-49","","NA"
"-81.82","69.36","IGLOOLIK A","2402546","2022-02-02 11:00","2022","02","02","11:00","-32.2","","-35.6","","73","","","M","6","","24","","","M","100.17","","","","-47","","NA"
"-81.82","69.36","IGLOOLIK A","2402546","2022-02-02 12:00","2022","02","02","12:00","-32.2","","-35.6","","73","","","M","5","","26","","","M","100.11","","","","-48","","NA"
"-81.82","69.36","IGLOOLIK A","2402546","2022-02-02 13:00","2022","02","02","13:00","-32.5","","-35.9","","72","","","M","4","","23","","","M","100.06","","","","-47","","NA"
"-81.82","69.36","IGLOOLIK A","2402546","2022-02-02 14:00","2022","02","02","14:00","-34.7","","-38.2","","71","","","M","3","","19","","","M","100.00","","","","-49","","NA"
"-81.82","69.36","IGLOOLIK A","2402546","2022-02-02 15:00","2022","02","02","15:00","-35.2","","-38.8","","71","","","M","2","","23","","","M","99.95","","","","-51","","NA"
"-81.82","69.36","IGLOOLIK A","2402546","2022-02-02 16:00","2022","02","02","16:00","-35.7","","-39.3","","71","","","M","2","","25","","","M","99.91","","","","-52","","NA"
"-81.82","69.36","IGLOOLIK A","2402546","2022-02-02 17:00","2022","02","02","17:00","-36.0","","-39.6","","70","","","M","1","","21","","","M","99.86","","","","-51","","NA"
"-81.82","69.36","IGLOOLIK A","2402546","2022-02-02 18:00","2022","02","02","18:00","-35.5","","-39.0","","71","","","M","1","","25","","","M","99.80","","","","-52","","NA"
"-81.82","69.36","IGLOOLIK A","2402546","2022-02-02 19:00","2022","02","02","19:00","-35.4","","-39.0","","71","","","M","36","","27","","","M","99.73","","","","-52","","NA"
"-81.82","69.36","IGLOOLIK A","2402546","2022-02-02 20:00","2022","02","02","20:00","-35.2","","-38.8","","71","","","M","1","","28","","","M","99.64","","","","-52","","NA"
"-81.82","69.36","IGLOOLIK A","2402546","2022-02-02 21:00","2022","02","02","21:00","-35.1","","-38.6","","71","","","M","36","","27","","","M","99.58","","","","-52","","NA"
"-81.82","69.36","IGLOOLIK A","2402546","2022-02-02 22:00","2022","02","02","22:00","-35.6","","-39.2","","71","","","M","36","","27","","","M","99.48","","","","-52","","NA"
"-81.82","69.36","IGLOOLIK A","2402546","2022-02-02 23:00","2022","02","02","23:00","-35.5","","-39.0","","71","","","M","36","","28","","","M","99.41","","","","-52","","NA"
"-81.82","69.36","IGLOOLIK A","2402546","2022-02-03 00:00","2022","02","03","00:00","-35.0","","-38.6","","71","","","M","36","","28","","","M","99.32","","","","-52","","NA"
"-81.82","69.36","IGLOOLIK A","2402546","2022-02-03 01:00","2022","02","03","01:00","-34.3","","-37.8","","71","","","M","36","","34","","","M","99.25","","","","-52","","NA"
"-81.82","69.36","IGLOOLIK A","2402546","2022-02-03 02:00","2022","02","03","02:00","-35.4","","-39.0","","71","","","M","36","","30","","","M","99.22","","","","-53","","NA"
"-81.82","69.36","IGLOOLIK A","2402546","2022-02-03 03:00","2022","02","03","03:00","-34.6","","-38.1","","71","","","M","35","","30","","","M","99.14","","","","-52","","NA"
"-81.82","69.36","IGLOOLIK A","2402546","2022-02-03 04:00","2022","02","03","04:00","-35.4","","-38.9","","71","","","M","34","","28","","","M","99.06","","","","-52","","NA"
"-81.82","69.36","IGLOOLIK A","2402546","2022-02-03 05:00","2022","02","03","05:00","-34.5","","-38.1","","71","","","M","34","","30","","","M","98.98","","","","-51","","NA"
"-81.82","69.36","IGLOOLIK A","2402546","2022-02-03 06:00","2022","02","03","06:00","-34.0","","-37.5","","71","","","M","35","","33","","","M","98.93","","","","-51","","NA"
"-81.82","69.36","IGLOOLIK A","2402546","2022-02-03 07:00","2022","02","03","07:00","-34.5","","-38.0","","71","","","M","35","","27","","","M","98.91","","","","-51","","NA"
"-81.82","69.36","IGLOOLIK A","2402546","2022-02-03 08:00","2022","02","03","08:00","-34.4","","-37.9","","71","","","M","34","","28","","","M","98.85","","","","-51","","NA"
"-81.82","69.36","IGLOOLIK A","2402546","2022-02-03 09:00","2022","02","03","09:00","-34.1","","-37.6","","71","","","M","34","","38","","","M","98.79","","","","-53","","NA"
"-81.82","69.36","IGLOOLIK A","2402546","2022-02-03 10:00","2022","02","03","10:00","-34.0","","-37.5","","71","","","M","35","","35","","","M","98.74","","","","-52","","NA"
"-81.82","69.36","IGLOOLIK A","2402546","2022-02-03 11:00","2022","02","03","11:00","-33.3","","-36.7","","72","","","M","34","","39","","","M","98.68","","","","-52","","NA"
"-81.82","69.36","IGLOOLIK A","2402546","2022-02-03 12:00","2022","02","03","12:00","-32.7","","-36.2","","72","","","M","34","","36","","","M","98.65","","","","-50","","NA"
"-81.82","69.36","IGLOOLIK A","2402546","2022-02-03 13:00","2022","02","03","13:00","-32.8","","-36.2","","72","","","M","33","","31","","","M","98.62","","","","-49","","NA"
"-81.82","69.36","IGLOOLIK A","2402546","2022-02-03 14:00","2022","02","03","14:00","-33.3","","-36.8","","72","","","M","33","","35","","","M","98.60","","","","-51","","NA"
"-81.82","69.36","IGLOOLIK A","2402546","2022-02-03 15:00","2022","02","03","15:00","-33.5","","-36.9","","72","","","M","33","","34","","","M","98.59","","","","-51","","NA"
"-81.82","69.36","IGLOOLIK A","2402546","2022-02-03 16:00","2022","02","03","16:00","-33.6","","-37.1","","72","","","M","33","","29","","","M","98.60","","","","-50","","NA"
"-81.82","69.36","IGLOOLIK A","2402546","2022-02-03 17:00","2022","02","03","17:00","-33.6","","-37.1","","72","","","M","33","","35","","","M","98.59","","","","-51","","NA"
"-81.82","69.36","IGLOOLIK A","2402546","2022-02-03 18:00","2022","02","03","18:00","-33.9","","-37.3","","72","","","M","31","","22","","","M","98.55","","","","-49","","NA"
"-81.82","69.36","IGLOOLIK A","2402546","2022-02-03 19:00","2022","02","03","19:00","-33.1","","-36.6","","72","","","M","32","","27","","","M","98.53","","","","-49","","NA"
"-81.82","69.36","IGLOOLIK A","2402546","2022-02-03 20:00","2022","02","03","20:00","-32.2","","-35.5","","73","","","M","32","","30","","","M","98.50","","","","-48","","NA"
"-81.82","69.36","IGLOOLIK A","2402546","2022-02-03 21:00","2022","02","03","21:00","-31.3","","-34.6","","73","","","M","33","","37","","","M","98.46","","","","-49","","NA"
"-81.82","69.36","IGLOOLIK A","2402546","2022-02-03 22:00","2022","02","03","22:00","-30.6","","-33.9","","74","","","M","33","","36","","","M","98.43","","","","-48","","NA"
"-81.82","69.36","IGLOOLIK A","2402546","2022-02-03 23:00","2022","02","03","23:00","-31.1","","-34.5","","73","","","M","32","","36","","","M","98.39","","","","-48","","NA"
"-81.82","69.36","IGLOOLIK A","2402546","2022-02-04 00:00","2022","02","04","00:00","-30.9","","-34.2","","73","","","M","32","","32","","","M","98.37","","","","-47","","NA"
"-81.82","69.36","IGLOOLIK A","2402546","2022-02-04 01:00","2022","02","04","01:00","-30.7","","-34.0","","74","","","M","32","","28","","","M","98.37","","","","-46","","NA"
"-81.82","69.36","IGLOOLIK A","2402546","2022-02-04 02:00","2022","02","04","02:00","-30.3","","-33.5","","74","","","M","32","","27","","","M","98.33","","","","-45","","NA"
"-81.82","69.36","IGLOOLIK A","2402546","2022-02-04 03:00","2022","02","04","03:00","-30.6","","-33.8","","74","","","M","34","","38","","","M","98.33","","","","-48","","NA"
"-81.82","69.36","IGLOOLIK A","2402546","2022-02-04 04:00","2022","02","04","04:00","-30.2","","-33.5","","74","","","M","32","","37","","","M","98.29","","","","-47","","NA"
"-81.82","69.36","IGLOOLIK A","2402546","2022-02-04 05:00","2022","02","04","05:00","-30.1","","-33.4","","74","","","M","32","","28","","","M","98.27","","","","-45","","NA"
"-81.82","69.36","IGLOOLIK A","2402546","2022-02-04 06:00","2022","02","04","06:00","-29.8","","-33.0","","74","","","M","32","","31","","","M","98.23","","","","-46","","NA"
"-81.82","69.36","IGLOOLIK A","2402546","2022-02-04 07:00","2022","02","04","07:00","-29.7","","-32.9","","74","","","M","32","","31","","","M","98.18","","","","-45","","NA"
"-81.82","69.36","IGLOOLIK A","2402546","2022-02-04 08:00","2022","02","04","08:00","-29.3","","-32.5","","75","","","M","32","","29","","","M","98.19","","","","-44","","NA"
"-81.82","69.36","IGLOOLIK A","2402546","2022-02-04 09:00","2022","02","04","09:00","-28.5","","-31.6","","75","","","M","33","","34","","","M","98.19","","","","-44","","NA"
"-81.82","69.36","IGLOOLIK A","2402546","2022-02-04 10:00","2022","02","04","10:00","-28.8","","-32.0","","75","","","M","33","","32","","","M","98.18","","","","-44","","NA"
"-81.82","69.36","IGLOOLIK A","2402546","2022-02-04 11:00","2022","02","04","11:00","-28.8","","-31.9","","75","","","M","33","","28","","","M","98.17","","","","-44","","NA"
"-81.82","69.36","IGLOOLIK A","2402546","2022-02-04 12:00","2022","02","04","12:00","-28.0","","-31.1","","75","","","M","33","","32","","","M","98.16","","","","-43","","NA"
"-81.82","69.36","IGLOOLIK A","2402546","2022-02-04 13:00","2022","02","04","13:00","-27.0","","-30.0","","76","","","M","33","","36","","","M","98.16","","","","-43","","NA"
"-81.82","69.36","IGLOOLIK A","2402546","2022-02-04 14:00","2022","02","04","14:00","-27.3","","-30.4","","76","","","M","33","","30","","","M","98.19","","","","-42","","NA"
"-81.82","69.36","IGLOOLIK A","2402546","2022-02-04 15:00","2022","02","04","15:00","-27.6","","-30.6","","76","","","M","34","","33","","","M","98.24","","","","-43","","NA"
"-81.82","69.36","IGLOOLIK A","2402546","2022-02-04 16:00","2022","02","04","16:00","-27.8","","-30.8","","76","","","M","34","","32","","","M","98.29","","","","-43","","NA"
"-81.82","69.36","IGLOOLIK A","2402546","2022-02-04 17:00","2022","02","04","17:00","-27.5","","-30.5","","76","","","M","34","","32","","","M","98.33","","","","-43","","NA"
"-81.82","69.36","IGLOOLIK A","2402546","2022-02-04 18:00","2022","02","04","18:00","-27.5","","-30.5","","76","","","M","35","","34","","","M","98.39","","","","-43","","NA"
"-81.82","69.36","IGLOOLIK A","2402546","2022-02-04 19:00","2022","02","04","19:00","-28.1","","-31.2","","76","","","M","35","","32","","","M","98.46","","","","-44","","NA"
"-81.82","69.36","IGLOOLIK A","2402546","2022-02-04 20:00","2022","02","04","20:00","-28.0","","-31.1","","76","","","M","35","","30","","","M","98.52","","","","-43","","NA"
"-81.82","69.36","IGLOOLIK A","2402546","2022-02-04 21:00","2022","02","04","21:00","-27.5","","-30.5","","76","","","M","34","","25","","","M","98.58","","","","-41","","NA"
"-81.82","69.36","IGLOOLIK A","2402546","2022-02-04 22:00","2022","02","04","22:00","-26.4","","-29.3","","77","","","M","34","","20","","","M","98.61","","","","-39","","NA"
"-81.82","69.36","IGLOOLIK A","2402546","2022-02-04 23:00","2022","02","04","23:00","-26.4","","-29.3","","77","","","M","1","","31","","","M","98.64","","","","-41","","NA"
"-81.82","69.36","IGLOOLIK A","2402546","2022-02-05 00:00","2022","02","05","00:00","-27.4","","-30.4","","76","","","M","1","","30","","","M","98.70","","","","-42","","NA"
"-81.82","69.36","IGLOOLIK A","2402546","2022-02-05 01:00","2022","02","05","01:00","-28.2","","-31.3","","76","","","M","2","","25","","","M","98.78","","","","-42","","NA"
"-81.82","69.36","IGLOOLIK A","2402546","2022-02-05 02:00","2022","02","05","02:00","-28.3","","-31.4","","76","","","M","1","","22","","","M","98.85","","","","-42","","NA"
"-81.82","69.36","IGLOOLIK A","2402546","2022-02-05 03:00","2022","02","05","03:00","-27.5","","-30.6","","76","","","M","4","","24","","","M","98.92","","","","-41","","NA"
"-81.82","69.36","IGLOOLIK A","2402546","2022-02-05 04:00","2022","02","05","04:00","-27.2","","-30.2","","76","","","M","4","","25","","","M","98.99","","","","-41","","NA"
"-81.82","69.36","IGLOOLIK A","2402546","2022-02-05 05:00","2022","02","05","05:00","-29.0","","-32.1","","75","","","M","3","","21","","","M","99.08","","","","-42","","NA"
"-81.82","69.36","IGLOOLIK A","2402546","2022-02-05 06:00","2022","02","05","06:00","-29.4","","-32.5","","75","","","M","1","","23","","","M","99.13","","","","-43","","NA"
"-81.82","69.36","IGLOOLIK A","2402546","2022-02-05 07:00","2022","02","05","07:00","-31.0","","-34.3","","74","","","M","2","","18","","","M","99.21","","","","-44","","NA"
"-81.82","69.36","IGLOOLIK A","2402546","2022-02-05 08:00","2022","02","05","08:00","-28.1","","-31.1","","76","","","M","8","","16","","","M","99.28","","","","-39","","NA"
"-81.82","69.36","IGLOOLIK A","2402546","2022-02-05 09:00","2022","02","05","09:00","-26.2","","-29.1","","77","","","M","10","","16","","","M","99.40","","","","-37","","NA"
"-81.82","69.36","IGLOOLIK A","2402546","2022-02-05 10:00","2022","02","05","10:00","-26.4","","-29.4","","77","","","M","9","","16","","","M","99.46","","","","-37","","NA"
"-81.82","69.36","IGLOOLIK A","2402546","2022-02-05 11:00","2022","02","05","11:00","-29.1","","-32.2","","75","","","M","5","","16","","","M","99.56","","","","-41","","NA"
"-81.82","69.36","IGLOOLIK A","2402546","2022-02-05 12:00","2022","02","05","12:00","-29.4","","-32.5","","75","","","M","5","","20","","","M","99.68","","","","-42","","NA"
"-81.82","69.36","IGLOOLIK A","2402546","2022-02-05 13:00","2022","02","05","13:00","-30.8","","-34.0","","74","","","M","3","","25","","","M","99.72","","","","-45","","NA"
"-81.82","69.36","IGLOOLIK A","2402546","2022-02-05 14:00","2022","02","05","14:00","-30.9","","-34.1","","74","","","M","5","","23","","","M","99.77","","","","-45","","NA"
"-81.82","69.36","IGLOOLIK A","2402546","2022-02-05 15:00","2022","02","05","15:00","-29.6","","-32.7","","75","","","M","6","","18","","","M","99.84","","","","-42","","NA"
"-81.82","69.36","IGLOOLIK A","2402546","2022-02-05 16:00","2022","02","05","16:00","-31.8","","-35.1","","73","","","M","2","","16","","","M","99.95","","","","-44","","NA"
"-81.82","69.36","IGLOOLIK A","2402546","2022-02-05 17:00","2022","02","05","17:00","-30.9","","-34.2","","74","","","M","2","","18","","","M","100.02","","","","-44","","NA"
"-81.82","69.36","IGLOOLIK A","2402546","2022-02-05 18:00","2022","02","05","18:00","-30.8","","-34.1","","74","","","M","1","","22","","","M","100.08","","","","-45","","NA"
"-81.82","69.36","IGLOOLIK A","2402546","2022-02-05 19:00","2022","02","05","19:00","-29.9","","-33.1","","74","","","M","2","","17","","","M","100.11","","","","-42","","NA"
"-81.82","69.36","IGLOOLIK A","2402546","2022-02-05 20:00","2022","02","05","20:00","-30.1","","-33.3","","74","","","M","34","","12","","","M","100.14","","","","-40","","NA"
"-81.82","69.36","IGLOOLIK A","2402546","2022-02-05 21:00","2022","02","05","21:00","-30.4","","-33.7","","74","","","M","33","","11","","","M","100.13","","","","-40","","NA"
"-81.82","69.36","IGLOOLIK A","2402546","2022-02-05 22:00","2022","02","05","22:00","-29.2","","-32.3","","75","","","M","3","","1","","","M","100.10","","","","-30","","NA"
"-81.82","69.36","IGLOOLIK A","2402546","2022-02-05 23:00","2022","02","05","23:00","-31.4","","-34.6","","74","","","M","26","","12","","","M","100.13","","","","-42","","NA"
"-81.82","69.36","IGLOOLIK A","2402546","2022-02-06 00:00","2022","02","06","00:00","-31.3","","-34.6","","74","","","M","26","","14","","","M","100.12","","","","-43","","NA"
"-81.82","69.36","IGLOOLIK A","2402546","2022-02-06 01:00","2022","02","06","01:00","-30.8","","-34.1","","74","","","M","27","","14","","","M","100.09","","","","-42","","NA"
"-81.82","69.36","IGLOOLIK A","2402546","2022-02-06 02:00","2022","02","06","02:00","-30.5","","-33.8","","74","","","M","29","","16","","","M","100.10","","","","-42","","NA"
"-81.82","69.36","IGLOOLIK A","2402546","2022-02-06 03:00","2022","02","06","03:00","-29.8","","-33.0","","74","","","M","28","","18","","","M","100.08","","","","-42","","NA"
"-81.82","69.36","IGLOOLIK A","2402546","2022-02-06 04:00","2022","02","06","04:00","-29.8","","-32.9","","75","","","M","28","","26","","","M","100.05","","","","-44","","NA"
"-81.82","69.36","IGLOOLIK A","2402546","2022-02-06 05:00","2022","02","06","05:00","-30.5","","-33.7","","74","","","M","30","","24","","","M","100.04","","","","-45","","NA"
"-81.82","69.36","IGLOOLIK A","2402546","2022-02-06 06:00","2022","02","06","06:00","-30.8","","-34.1","","74","","","M","28","","18","","","M","100.00","","","","-43","","NA"
"-81.82","69.36","IGLOOLIK A","2402546","2022-02-06 07:00","2022","02","06","07:00","-29.8","","-33.0","","75","","","M","28","","14","","","M","99.98","","","","-41","","NA"
"-81.82","69.36","IGLOOLIK A","2402546","2022-02-06 08:00","2022","02","06","08:00","-29.7","","-32.9","","75","","","M","31","","18","","","M","99.96","","","","-42","","NA"
"-81.82","69.36","IGLOOLIK A","2402546","2022-02-06 09:00","2022","02","06","09:00","-30.0","","-33.2","","74","","","M","31","","24","","","M","99.93","","","","-44","","NA"
"-81.82","69.36","IGLOOLIK A","2402546","2022-02-06 10:00","2022","02","06","10:00","-30.4","","-33.6","","74","","","M","31","","22","","","M","99.90","","","","-44","","NA"
"-81.82","69.36","IGLOOLIK A","2402546","2022-02-06 11:00","2022","02","06","11:00","-30.3","","-33.5","","74","","","M","31","","22","","","M","99.88","","","","-44","","NA"
"-81.82","69.36","IGLOOLIK A","2402546","2022-02-06 12:00","2022","02","06","12:00","-30.6","","-33.8","","74","","","M","30","","22","","","M","99.85","","","","-44","","NA"
"-81.82","69.36","IGLOOLIK A","2402546","2022-02-06 13:00","2022","02","06","13:00","-30.9","","-34.2","","74","","","M","30","","22","","","M","99.79","","","","-45","","NA"
"-81.82","69.36","IGLOOLIK A","2402546","2022-02-06 14:00","2022","02","06","14:00","-31.3","","-34.6","","73","","","M","29","","23","","","M","99.77","","","","-46","","NA"
"-81.82","69.36","IGLOOLIK A","2402546","2022-02-06 15:00","2022","02","06","15:00","-31.5","","-34.9","","73","","","M","29","","22","","","M","99.73","","","","-46","","NA"
"-81.82","69.36","IGLOOLIK A","2402546","2022-02-06 16:00","2022","02","06","16:00","-32.2","","-35.5","","73","","","M","30","","25","","","M","99.70","","","","-47","","NA"
"-81.82","69.36","IGLOOLIK A","2402546","2022-02-06 17:00","2022","02","06","17:00","-32.1","","-35.4","","73","","","M","30","","21","","","M","99.70","","","","-46","","NA"
"-81.82","69.36","IGLOOLIK A","2402546","2022-02-06 18:00","2022","02","06","18:00","-32.5","","-35.9","","73","","","M","30","","21","","","M","99.64","","","","-47","","NA"
"-81.82","69.36","IGLOOLIK A","2402546","2022-02-06 19:00","2022","02","06","19:00","-32.4","","-35.8","","73","","","M","32","","10","","","M","99.60","","","","-42","","NA"
"-81.82","69.36","IGLOOLIK A","2402546","2022-02-06 20:00","2022","02","06","20:00","-33.5","","-37.0","","72","","","M","26","","13","","","M","99.57","","","","-45","","NA"
"-81.82","69.36","IGLOOLIK A","2402546","2022-02-06 21:00","2022","02","06","21:00","-34.3","","-37.8","","72","","","M","25","","12","","","M","99.52","","","","-45","","NA"
"-81.82","69.36","IGLOOLIK A","2402546","2022-02-06 22:00","2022","02","06","22:00","-34.6","","-38.1","","71","","","M","26","","5","","","M","99.47","","","","-41","","NA"
"-81.82","69.36","IGLOOLIK A","2402546","2022-02-06 23:00","2022","02","06","23:00","-33.9","","-37.3","","72","","","M","33","","9","","","M","99.39","","","","-43","","NA"
"-81.82","69.36","IGLOOLIK A","2402546","2022-02-07 00:00","2022","02","07","00:00","-34.6","","-38.1","","71","","","M","31","","10","","","M","99.36","","","","-45","","NA"
"-81.82","69.36","IGLOOLIK A","2402546","2022-02-07 01:00","2022","02","07","01:00","-35.8","","-39.3","","71","","","M","27","","11","","","M","99.35","","","","-47","","NA"
"-81.82","69.36","IGLOOLIK A","2402546","2022-02-07 02:00","2022","02","07","02:00","-35.1","","-38.7","","71","","","M","30","","8","","","M","99.33","","","","-44","","NA"
"-81.82","69.36","IGLOOLIK A","2402546","2022-02-07 03:00","2022","02","07","03:00","-35.4","","-39.0","","71","","","M","30","","9","","","M","99.29","","","","-45","","NA"
"-81.82","69.36","IGLOOLIK A","2402546","2022-02-07 04:00","2022","02","07","04:00","-35.2","","-38.7","","71","","","M","32","","7","","","M","99.30","","","","-43","","NA"
"-81.82","69.36","IGLOOLIK A","2402546","2022-02-07 05:00","2022","02","07","05:00","-34.9","","-38.5","","71","","","M","36","","9","","","M","99.27","","","","-44","","NA"
"-81.82","69.36","IGLOOLIK A","2402546","2022-02-07 06:00","2022","02","07","06:00","-35.2","","-38.7","","71","","","M","2","","10","","","M","99.20","","","","-45","","NA"
"-81.82","69.36","IGLOOLIK A","2402546","2022-02-07 07:00","2022","02","07","07:00","-34.9","","-38.4","","71","","","M","3","","12","","","M","99.17","","","","-46","","NA"
"-81.82","69.36","IGLOOLIK A","2402546","2022-02-07 08:00","2022","02","07","08:00","-34.7","","-38.2","","71","","","M","2","","13","","","M","99.17","","","","-46","","NA"
"-81.82","69.36","IGLOOLIK A","2402546","2022-02-07 09:00","2022","02","07","09:00","-35.7","","-39.3","","71","","","M","2","","15","","","M","99.13","","","","-48","","NA"
"-81.82","69.36","IGLOOLIK A","2402546","2022-02-07 10:00","2022","02","07","10:00","-37.0","","-40.6","","70","","","M","2","","18","","","M","99.11","","","","-51","","NA"
"-81.82","69.36","IGLOOLIK A","2402546","2022-02-07 11:00","2022","02","07","11:00","-35.9","","-39.5","","70","","","M","2","","20","","","M","99.11","","","","-51","","NA"
"-81.82","69.36","IGLOOLIK A","2402546","2022-02-07 12:00","2022","02","07","12:00","-36.1","","-39.7","","70","","","M","2","","20","","","M","99.10","","","","-51","","NA"
"-81.82","69.36","IGLOOLIK A","2402546","2022-02-07 13:00","2022","02","07","13:00","-36.3","","-39.9","","70","","","M","2","","20","","","M","99.11","","","","-51","","NA"
"-81.82","69.36","IGLOOLIK A","2402546","2022-02-07 14:00","2022","02","07","14:00","-36.2","","-39.8","","70","","","M","3","","21","","","M","99.13","","","","-51","","NA"
"-81.82","69.36","IGLOOLIK A","2402546","2022-02-07 15:00","2022","02","07","15:00","-35.9","","-39.5","","70","","","M","2","","22","","","M","99.11","","","","-51","","NA"
"-81.82","69.36","IGLOOLIK A","2402546","2022-02-07 16:00","2022","02","07","16:00","-37.7","","-41.4","","69","","","M","2","","16","","","M","99.16","","","","-51","","NA"
"-81.82","69.36","IGLOOLIK A","2402546","2022-02-07 17:00","2022","02","07","17:00","-36.7","","-40.4","","70","","","M","4","","21","","","M","99.23","","","","-52","","NA"
"-81.82","69.36","IGLOOLIK A","2402546","2022-02-07 18:00","2022","02","07","18:00","-36.8","","-40.4","","70","","","M","4","","22","","","M","99.27","","","","-52","","NA"
"-81.82","69.36","IGLOOLIK A","2402546","2022-02-07 19:00","2022","02","07","19:00","-36.2","","-39.9","","70","","","M","5","","22","","","M","99.33","","","","-52","","NA"
"-81.82","69.36","IGLOOLIK A","2402546","2022-02-07 20:00","2022","02","07","20:00","-38.3","","-42.1","","69","","","M","3","","25","","","M","99.36","","","","-55","","NA"
"-81.82","69.36","IGLOOLIK A","2402546","2022-02-07 21:00","2022","02","07","21:00","-39.1","","-42.9","","68","","","M","2","","23","","","M","99.42","","","","-56","","NA"
"-81.82","69.36","IGLOOLIK A","2402546","2022-02-07 22:00","2022","02","07","22:00","-37.6","","-41.4","","69","","","M","2","","19","","","M","99.47","","","","-52","","NA"
"-81.82","69.36","IGLOOLIK A","2402546","2022-02-07 23:00","2022","02","07","23:00","-38.0","","-41.7","","69","","","M","2","","16","","","M","99.52","","","","-52","","NA"
"-81.82","69.36","IGLOOLIK A","2402546","2022-02-08 00:00","2022","02","08","00:00","-38.5","","-42.3","","69","","","M","1","","17","","","M","99.58","","","","-53","","NA"
"-81.82","69.36","IGLOOLIK A","2402546","2022-02-08 01:00","2022","02","08","01:00","-38.3","","-42.1","","69","","","M","1","","21","","","M","99.64","","","","-54","","NA"
"-81.82","69.36","IGLOOLIK A","2402546","2022-02-08 02:00","2022","02","08","02:00","-38.1","","-41.9","","69","","","M","36","","17","","","M","99.69","","","","-52","","NA"
"-81.82","69.36","IGLOOLIK A","2402546","2022-02-08 03:00","2022","02","08","03:00","-38.1","","-41.8","","69","","","M","36","","16","","","M","99.74","","","","-52","","NA"
"-81.82","69.36","IGLOOLIK A","2402546","2022-02-08 04:00","2022","02","08","04:00","-38.1","","-41.9","","69","","","M","36","","24","","","M","99.75","","","","-55","","NA"
"-81.82","69.36","IGLOOLIK A","2402546","2022-02-08 05:00","2022","02","08","05:00","-37.9","","-41.7","","69","","","M","32","","14","","","M","99.79","","","","-51","","NA"
"-81.82","69.36","IGLOOLIK A","2402546","2022-02-08 06:00","2022","02","08","06:00","-38.9","","-42.6","","69","","","M","30","","12","","","M","99.81","","","","-51","","NA"
"-81.82","69.36","IGLOOLIK A","2402546","2022-02-08 07:00","2022","02","08","07:00","-39.0","","-42.8","","68","","","M","31","","14","","","M","99.84","","","","-52","","NA"
"-81.82","69.36","IGLOOLIK A","2402546","2022-02-08 08:00","2022","02","08","08:00","-38.0","","-41.7","","69","","","M","32","","14","","","M","99.86","","","","-51","","NA"
"-81.82","69.36","IGLOOLIK A","2402546","2022-02-08 09:00","2022","02","08","09:00","-36.8","","-40.5","","69","","","M","32","","14","","","M","99.87","","","","-49","","NA"
"-81.82","69.36","IGLOOLIK A","2402546","2022-02-08 10:00","2022","02","08","10:00","-37.0","","-40.6","","69","","","M","32","","12","","","M","99.89","","","","-49","","NA"
"-81.82","69.36","IGLOOLIK A","2402546","2022-02-08 11:00","2022","02","08","11:00","-36.7","","-40.4","","69","","","M","31","","13","","","M","99.91","","","","-49","","NA"
"-81.82","69.36","IGLOOLIK A","2402546","2022-02-08 12:00","2022","02","08","12:00","-36.5","","-40.2","","70","","","M","29","","9","","","M","99.91","","","","-46","","NA"
"-81.82","69.36","IGLOOLIK A","2402546","2022-02-08 13:00","2022","02","08","13:00","-36.0","","-39.8","","70","","","M","28","","12","","","M","99.91","","","","-47","","NA"
"-81.82","69.36","IGLOOLIK A","2402546","2022-02-08 14:00","2022","02","08","14:00","-35.6","","-39.2","","70","","","M","28","","9","","","M","99.93","","","","-45","","NA"
"-81.82","69.36","IGLOOLIK A","2402546","2022-02-08 15:00","2022","02","08","15:00","-36.2","","-39.9","","70","","","M","29","","14","","","M","99.94","","","","-49","","NA"
"-81.82","69.36","IGLOOLIK A","2402546","2022-02-08 16:00","2022","02","08","16:00","-35.5","","-39.2","","70","","","M","29","","14","","","M","99.97","","","","-48","","NA"
"-81.82","69.36","IGLOOLIK A","2402546","2022-02-08 17:00","2022","02","08","17:00","-35.4","","-39.0","","70","","","M","30","","13","","","M","100.00","","","","-47","","NA"
"-81.82","69.36","IGLOOLIK A","2402546","2022-02-08 18:00","2022","02","08","18:00","-34.6","","-38.2","","71","","","M","31","","10","","","M","100.04","","","","-45","","NA"
"-81.82","69.36","IGLOOLIK A","2402546","2022-02-08 19:00","2022","02","08","19:00","-34.3","","-37.9","","71","","","M","29","","8","","","M","100.05","","","","-43","","NA"
"-81.82","69.36","IGLOOLIK A","2402546","2022-02-08 20:00","2022","02","08","20:00","-34.0","","-37.6","","71","","","M","30","","7","","","M","100.01","","","","-42","","NA"
"-81.82","69.36","IGLOOLIK A","2402546","2022-02-08 21:00","2022","02","08","21:00","-33.9","","-37.4","","71","","","M","23","","11","","","M","100.02","","","","-44","","NA"
"-81.82","69.36","IGLOOLIK A","2402546","2022-02-08 22:00","2022","02","08","22:00","-32.6","","-36.0","","72","","","M","23","","12","","","M","99.98","","","","-43","","NA"
"-81.82","69.36","IGLOOLIK A","2402546","2022-02-08 23:00","2022","02","08","23:00","-31.6","","-34.9","","73","","","M","26","","13","","","M","99.96","","","","-43","","NA"
"-81.82","69.36","IGLOOLIK A","2402546","2022-02-09 00:00","2022","02","09","00:00","-31.0","","-34.3","","73","","","M","29","","19","","","M","99.95","","","","-44","","NA"
"-81.82","69.36","IGLOOLIK A","2402546","2022-02-09 01:00","2022","02","09","01:00","-30.5","","-33.8","","74","","","M","29","","23","","","M","99.96","","","","-45","","NA"
"-81.82","69.36","IGLOOLIK A","2402546","2022-02-09 02:00","2022","02","09","02:00","-30.9","","-34.2","","73","","","M","28","","26","","","M","99.93","","","","-46","","NA"
"-81.82","69.36","IGLOOLIK A","2402546","2022-02-09 03:00","2022","02","09","03:00","-30.6","","-33.9","","74","","","M","30","","19","","","M","99.95","","","","-44","","NA"
"-81.82","69.36","IGLOOLIK A","2402546","2022-02-09 04:00","2022","02","09","04:00","-30.5","","-33.8","","74","","","M","30","","18","","","M","99.97","","","","-43","","NA"
"-81.82","69.36","IGLOOLIK A","2402546","2022-02-09 05:00","2022","02","09","05:00","-30.8","","-34.1","","73","","","M","29","","16","","","M","99.97","","","","-43","","NA"
"-81.82","69.36","IGLOOLIK A","2402546","2022-02-09 06:00","2022","02","09","06:00","-31.7","","-35.0","","73","","","M","27","","14","","","M","99.97","","","","-43","","NA"
"-81.82","69.36","IGLOOLIK A","2402546","2022-02-09 07:00","2022","02","09","07:00","-31.6","","-34.9","","73","","","M","28","","17","","","M","99.98","","","","-44","","NA"
"-81.82","69.36","IGLOOLIK A","2402546","2022-02-09 08:00","2022","02","09","08:00","-31.3","","-34.6","","73","","","M","29","","21","","","M","99.95","","","","-45","","NA"
"-81.82","69.36","IGLOOLIK A","2402546","2022-02-09 09:00","2022","02","09","09:00","-31.2","","-34.5","","73","","","M","31","","19","","","M","99.98","","","","-44","","NA"
"-81.82","69.36","IGLOOLIK A","2402546","2022-02-09 10:00","2022","02","09","10:00","-31.6","","-34.9","","73","","","M","31","","17","","","M","100.01","","","","-44","","NA"
"-81.82","69.36","IGLOOLIK A","2402546","2022-02-09 11:00","2022","02","09","11:00","-32.6","","-36.0","","72","","","M","31","","14","","","M","100.03","","","","-44","","NA"
"-81.82","69.36","IGLOOLIK A","2402546","2022-02-09 12:00","2022","02","09","12:00","-33.9","","-37.4","","71","","","M","31","","16","","","M","100.03","","","","-47","","NA"
"-81.82","69.36","IGLOOLIK A","2402546","2022-02-09 13:00","2022","02","09","13:00","-34.3","","-37.8","","71","","","M","31","","17","","","M","100.04","","","","-47","","NA"
"-81.82","69.36","IGLOOLIK A","2402546","2022-02-09 14:00","2022","02","09","14:00","-34.2","","-37.7","","71","","","M","29","","18","","","M","100.06","","","","-48","","NA"
"-81.82","69.36","IGLOOLIK A","2402546","2022-02-09 15:00","2022","02","09","15:00","-34.2","","-37.8","","71","","","M","31","","16","","","M","100.06","","","","-47","","NA"
"-81.82","69.36","IGLOOLIK A","2402546","2022-02-09 16:00","2022","02","09","16:00","-34.9","","-38.4","","71","","","M","31","","17","","","M","100.08","","","","-48","","NA"
"-81.82","69.36","IGLOOLIK A","2402546","2022-02-09 17:00","2022","02","09","17:00","-35.3","","-38.9","","71","","","M","32","","17","","","M","100.10","","","","-49","","NA"
"-81.82","69.36","IGLOOLIK A","2402546","2022-02-09 18:00","2022","02","09","18:00","-35.5","","-39.1","","71","","","M","33","","13","","","M","100.13","","","","-47","","NA"
"-81.82","69.36","IGLOOLIK A","2402546","2022-02-09 19:00","2022","02","09","19:00","-35.4","","-39.0","","71","","","M","33","","15","","","M","100.16","","","","-48","","NA"
"-81.82","69.36","IGLOOLIK A","2402546","2022-02-09 20:00","2022","02","09","20:00","-35.9","","-39.5","","70","","","M","34","","16","","","M","100.18","","","","-49","","NA"
"-81.82","69.36","IGLOOLIK A","2402546","2022-02-09 21:00","2022","02","09","21:00","-36.6","","-40.3","","70","","","M","34","","14","","","M","100.19","","","","-49","","NA"
"-81.82","69.36","IGLOOLIK A","2402546","2022-02-09 22:00","2022","02","09","22:00","-36.8","","-40.5","","70","","","M","35","","15","","","M","100.18","","","","-50","","NA"
"-81.82","69.36","IGLOOLIK A","2402546","2022-02-09 23:00","2022","02","09","23:00","-37.1","","-40.8","","70","","","M","35","","20","","","M","100.19","","","","-52","","NA"
"-81.82","69.36","IGLOOLIK A","2402546","2022-02-10 00:00","2022","02","10","00:00","-37.5","","-41.2","","69","","","M","35","","20","","","M","100.19","","","","-53","","NA"
"-81.82","69.36","IGLOOLIK A","2402546","2022-02-10 01:00","2022","02","10","01:00","-37.2","","-40.9","","69","","","M","36","","19","","","M","100.20","","","","-52","","NA"
"-81.82","69.36","IGLOOLIK A","2402546","2022-02-10 02:00","2022","02","10","02:00","-37.3","","-41.0","","69","","","M","36","","18","","","M","100.20","","","","-52","","NA"
"-81.82","69.36","IGLOOLIK A","2402546","2022-02-10 03:00","2022","02","10","03:00","-37.8","","-41.5","","69","","","M","1","","23","","","M","100.21","","","","-54","","NA"
"-81.82","69.36","IGLOOLIK A","2402546","2022-02-10 04:00","2022","02","10","04:00","-37.9","","-41.6","","69","","","M","1","","21","","","M","100.26","","","","-53","","NA"
"-81.82","69.36","IGLOOLIK A","2402546","2022-02-10 05:00","2022","02","10","05:00","-37.2","","-41.0","","69","","","M","1","","22","","","M","100.30","","","","-53","","NA"
"-81.82","69.36","IGLOOLIK A","2402546","2022-02-10 06:00","2022","02","10","06:00","-37.7","","-41.5","","69","","","M","36","","21","","","M","100.35","","","","-53","","NA"
"-81.82","69.36","IGLOOLIK A","2402546","2022-02-10 07:00","2022","02","10","07:00","-36.5","","-40.1","","70","","","M","2","","27","","","M","100.39","","","","-53","","NA"
"-81.82","69.36","IGLOOLIK A","2402546","2022-02-10 08:00","2022","02","10","08:00","-36.6","","-40.3","","70","","","M","3","","26","","","M","100.41","","","","-53","","NA"
"-81.82","69.36","IGLOOLIK A","2402546","2022-02-10 09:00","2022","02","10","09:00","-36.2","","-39.9","","70","","","M","2","","28","","","M","100.45","","","","-53","","NA"
"-81.82","69.36","IGLOOLIK A","2402546","2022-02-10 10:00","2022","02","10","10:00","-36.2","","-39.9","","70","","","M","2","","27","","","M","100.49","","","","-53","","NA"
"-81.82","69.36","IGLOOLIK A","2402546","2022-02-10 11:00","2022","02","10","11:00","-35.6","","-39.3","","70","","","M","3","","27","","","M","100.50","","","","-52","","NA"
"-81.82","69.36","IGLOOLIK A","2402546","2022-02-10 12:00","2022","02","10","12:00","-35.3","","-38.9","","70","","","M","2","","27","","","M","100.52","","","","-52","","NA"
"-81.82","69.36","IGLOOLIK A","2402546","2022-02-10 13:00","2022","02","10","13:00","-34.6","","-38.2","","71","","","M","2","","26","","","M","100.54","","","","-51","","NA"
"-81.82","69.36","IGLOOLIK A","2402546","2022-02-10 14:00","2022","02","10","14:00","-34.7","","-38.3","","71","","","M","2","","25","","","M","100.58","","","","-51","","NA"
"-81.82","69.36","IGLOOLIK A","2402546","2022-02-10 15:00","2022","02","10","15:00","-35.0","","-38.6","","71","","","M","2","","27","","","M","100.61","","","","-51","","NA"
"-81.82","69.36","IGLOOLIK A","2402546","2022-02-10 16:00","2022","02","10","16:00","-35.5","","-39.1","","70","","","M","1","","22","","","M","100.68","","","","-51","","NA"
"-81.82","69.36","IGLOOLIK A","2402546","2022-02-10 17:00","2022","02","10","17:00","-35.0","","-38.6","","71","","","M","2","","26","","","M","100.67","","","","-51","","NA"
"-81.82","69.36","IGLOOLIK A","2402546","2022-02-10 18:00","2022","02","10","18:00","-34.9","","-38.5","","71","","","M","1","","27","","","M","100.69","","","","-51","","NA"
"-81.82","69.36","IGLOOLIK A","2402546","2022-02-10 19:00","2022","02","10","19:00","-35.8","","-39.4","","70","","","M","36","","30","","","M","100.66","","","","-53","","NA"
"-81.82","69.36","IGLOOLIK A","2402546","2022-02-10 20:00","2022","02","10","20:00","-35.5","","-39.1","","70","","","M","36","","31","","","M","100.64","","","","-53","","NA"
"-81.82","69.36","IGLOOLIK A","2402546","2022-02-10 21:00","2022","02","10","21:00","-35.2","","-38.8","","71","","","M","35","","25","","","M","100.64","","","","-51","","NA"
"-81.82","69.36","IGLOOLIK A","2402546","2022-02-10 22:00","2022","02","10","22:00","-35.6","","-39.2","","70","","","M","36","","29","","","M","100.59","","","","-53","","NA"
"-81.82","69.36","IGLOOLIK A","2402546","2022-02-10 23:00","2022","02","10","23:00","-35.6","","-39.2","","70","","","M","35","","26","","","M","100.54","","","","-52","","NA"
"-81.82","69.36","IGLOOLIK A","2402546","2022-02-11 00:00","2022","02","11","00:00","-35.7","","-39.3","","70","","","M","35","","27","","","M","100.52","","","","-52","","NA"
"-81.82","69.36","IGLOOLIK A","2402546","2022-02-11 01:00","2022","02","11","01:00","-34.9","","-38.5","","71","","","M","35","","26","","","M","100.43","","","","-51","","NA"
"-81.82","69.36","IGLOOLIK A","2402546","2022-02-11 02:00","2022","02","11","02:00","-34.5","","-38.0","","71","","","M","35","","29","","","M","100.37","","","","-51","","NA"
"-81.82","69.36","IGLOOLIK A","2402546","2022-02-11 03:00","2022","02","11","03:00","-34.1","","-37.7","","71","","","M","35","","30","","","M","100.32","","","","-51","","NA"
"-81.82","69.36","IGLOOLIK A","2402546","2022-02-11 04:00","2022","02","11","04:00","-34.4","","-38.0","","71","","","M","36","","33","","","M","100.25","","","","-52","","NA"
"-81.82","69.36","IGLOOLIK A","2402546","2022-02-11 05:00","2022","02","11","05:00","-34.7","","-38.2","","71","","","M","36","","32","","","M","100.23","","","","-52","","NA"
"-81.82","69.36","IGLOOLIK A","2402546","2022-02-11 06:00","2022","02","11","06:00","-34.3","","-37.8","","71","","","M","35","","35","","","M","100.17","","","","-52","","NA"
"-81.82","69.36","IGLOOLIK A","2402546","2022-02-11 07:00","2022","02","11","07:00","-34.0","","-37.6","","71","","","M","35","","31","","","M","100.15","","","","-51","","NA"
"-81.82","69.36","IGLOOLIK A","2402546","2022-02-11 08:00","2022","02","11","08:00","-34.5","","-38.1","","71","","","M","35","","34","","","M","100.10","","","","-52","","NA"
"-81.82","69.36","IGLOOLIK A","2402546","2022-02-11 09:00","2022","02","11","09:00","-34.3","","-37.8","","71","","","M","35","","30","","","M","100.08","","","","-51","","NA"
"-81.82","69.36","IGLOOLIK A","2402546","2022-02-11 10:00","2022","02","11","10:00","-34.5","","-38.1","","71","","","M","35","","32","","","M","100.05","","","","-52","","NA"
"-81.82","69.36","IGLOOLIK A","2402546","2022-02-11 11:00","2022","02","11","11:00","-33.7","","-37.2","","71","","","M","35","","30","","","M","100.04","","","","-50","","NA"
"-81.82","69.36","IGLOOLIK A","2402546","2022-02-11 12:00","2022","02","11","12:00","-32.7","","-36.2","","72","","","M","35","","29","","","M","100.01","","","","-49","","NA"
"-81.82","69.36","IGLOOLIK A","2402546","2022-02-11 13:00","2022","02","11","13:00","-33.0","","-36.5","","72","","","M","35","","28","","","M","99.98","","","","-49","","NA"
"-81.82","69.36","IGLOOLIK A","2402546","2022-02-11 14:00","2022","02","11","14:00","-32.4","","-35.9","","72","","","M","35","","30","","","M","99.98","","","","-49","","NA"
"-81.82","69.36","IGLOOLIK A","2402546","2022-02-11 15:00","2022","02","11","15:00","-32.2","","-35.6","","72","","","M","35","","32","","","M","99.97","","","","-49","","NA"
"-81.82","69.36","IGLOOLIK A","2402546","2022-02-11 16:00","2022","02","11","16:00","-32.2","","-35.6","","72","","","M","35","","29","","","M","99.99","","","","-48","","NA"
"-81.82","69.36","IGLOOLIK A","2402546","2022-02-11 17:00","2022","02","11","17:00","-33.1","","-36.6","","72","","","M","35","","27","","","M","100.02","","","","-49","","NA"
"-81.82","69.36","IGLOOLIK A","2402546","2022-02-11 18:00","2022","02","11","18:00","-33.2","","-36.7","","72","","","M","35","","29","","","M","100.00","","","","-50","","NA"
"-81.82","69.36","IGLOOLIK A","2402546","2022-02-11 19:00","2022","02","11","19:00","-33.1","","-36.6","","72","","","M","36","","25","","","M","100.01","","","","-48","","NA"
"-81.82","69.36","IGLOOLIK A","2402546","2022-02-11 20:00","2022","02","11","20:00","-33.1","","-36.6","","72","","","M","35","","31","","","M","100.01","","","","-50","","NA"
"-81.82","69.36","IGLOOLIK A","2402546","2022-02-11 21:00","2022","02","11","21:00","-32.9","","-36.4","","72","","","M","35","","39","","","M","99.94","","","","-51","","NA"
"-81.82","69.36","IGLOOLIK A","2402546","2022-02-11 22:00","2022","02","11","22:00","-32.4","","-35.8","","72","","","M","35","","38","","","M","99.94","","","","-50","","NA"
"-81.82","69.36","IGLOOLIK A","2402546","2022-02-11 23:00","2022","02","11","23:00","-32.8","","-36.3","","72","","","M","35","","35","","","M","99.92","","","","-50","","NA"
"-81.82","69.36","IGLOOLIK A","2402546","2022-02-12 00:00","2022","02","12","00:00","-32.9","","-36.4","","72","","","M","34","","32","","","M","99.92","","","","-50","","NA"
"-81.82","69.36","IGLOOLIK A","2402546","2022-02-12 01:00","2022","02","12","01:00","-32.5","","-36.0","","72","","","M","35","","34","","","M","99.88","","","","-50","","NA"
"-81.82","69.36","IGLOOLIK A","2402546","2022-02-12 02:00","2022","02","12","02:00","-32.4","","-35.8","","72","","","M","35","","37","","","M","99.86","","","","-50","","NA"
"-81.82","69.36","IGLOOLIK A","2402546","2022-02-12 03:00","2022","02","12","03:00","-32.4","","-35.8","","72","","","M","35","","35","","","M","99.86","","","","-50","","NA"
"-81.82","69.36","IGLOOLIK A","2402546","2022-02-12 04:00","2022","02","12","04:00","-32.4","","-35.9","","72","","","M","35","","39","","","M","99.84","","","","-51","","NA"
"-81.82","69.36","IGLOOLIK A","2402546","2022-02-12 05:00","2022","02","12","05:00","-32.5","","-36.0","","72","","","M","34","","28","","","M","99.85","","","","-48","","NA"
"-81.82","69.36","IGLOOLIK A","2402546","2022-02-12 06:00","2022","02","12","06:00","-32.0","","-35.4","","73","","","M","34","","35","","","M","99.80","","","","-49","","NA"
"-81.82","69.36","IGLOOLIK A","2402546","2022-02-12 07:00","2022","02","12","07:00","-31.6","","-35.0","","73","","","M","35","","33","","","M","99.78","","","","-48","","NA"
"-81.82","69.36","IGLOOLIK A","2402546","2022-02-12 08:00","2022","02","12","08:00","-31.6","","-35.0","","73","","","M","35","","31","","","M","99.76","","","","-48","","NA"
"-81.82","69.36","IGLOOLIK A","2402546","2022-02-12 09:00","2022","02","12","09:00","-31.6","","-35.0","","73","","","M","35","","39","","","M","99.72","","","","-49","","NA"
"-81.82","69.36","IGLOOLIK A","2402546","2022-02-12 10:00","2022","02","12","10:00","-31.2","","-34.6","","73","","","M","35","","38","","","M","99.67","","","","-49","","NA"
"-81.82","69.36","IGLOOLIK A","2402546","2022-02-12 11:00","2022","02","12","11:00","-31.4","","-34.8","","73","","","M","34","","31","","","M","99.63","","","","-48","","NA"
"-81.82","69.36","IGLOOLIK A","2402546","2022-02-12 12:00","2022","02","12","12:00","-31.3","","-34.6","","73","","","M","35","","35","","","M","99.57","","","","-48","","NA"
"-81.82","69.36","IGLOOLIK A","2402546","2022-02-12 13:00","2022","02","12","13:00","-31.5","","-34.9","","73","","","M","34","","35","","","M","99.56","","","","-49","","NA"
"-81.82","69.36","IGLOOLIK A","2402546","2022-02-12 14:00","2022","02","12","14:00","-31.6","","-35.0","","73","","","M","33","","34","","","M","99.53","","","","-49","","NA"
"-81.82","69.36","IGLOOLIK A","2402546","2022-02-12 15:00","2022","02","12","15:00","-32.3","","-35.7","","72","","","M","33","","34","","","M","99.47","","","","-49","","NA"
"-81.82","69.36","IGLOOLIK A","2402546","2022-02-12 16:00","2022","02","12","16:00","-32.0","","-35.4","","73","","","M","34","","37","","","M","99.48","","","","-50","","NA"
"-81.82","69.36","IGLOOLIK A","2402546","2022-02-12 17:00","2022","02","12","17:00","-32.4","","-35.8","","72","","","M","34","","41","","","M","99.49","","","","-51","","NA"
"-81.82","69.36","IGLOOLIK A","2402546","2022-02-12 18:00","2022","02","12","18:00","-32.6","","-36.0","","72","","","M","34","","43","","","M","99.48","","","","-51","","NA"
"-81.82","69.36","IGLOOLIK A","2402546","2022-02-12 19:00","2022","02","12","19:00","-32.9","","-36.4","","72","","","M","33","","36","","","M","99.50","","","","-51","","NA"
"-81.82","69.36","IGLOOLIK A","2402546","2022-02-12 20:00","2022","02","12","20:00","-32.8","","-36.2","","72","","","M","34","","39","","","M","99.48","","","","-51","","NA"
"-81.82","69.36","IGLOOLIK A","2402546","2022-02-12 21:00","2022","02","12","21:00","-33.5","","-37.0","","72","","","M","33","","27","","","M","99.44","","","","-49","","NA"
"-81.82","69.36","IGLOOLIK A","2402546","2022-02-12 22:00","2022","02","12","22:00","-34.1","","-37.6","","71","","","M","34","","30","","","M","99.39","","","","-51","","NA"
"-81.82","69.36","IGLOOLIK A","2402546","2022-02-12 23:00","2022","02","12","23:00","-34.0","","-37.5","","71","","","M","33","","33","","","M","99.35","","","","-51","","NA"
"-81.82","69.36","IGLOOLIK A","2402546","2022-02-13 00:00","2022","02","13","00:00","-34.3","","-37.8","","71","","","M","33","","33","","","M","99.32","","","","-52","","NA"
"-81.82","69.36","IGLOOLIK A","2402546","2022-02-13 01:00","2022","02","13","01:00","-34.5","","-38.1","","71","","","M","33","","35","","","M","99.30","","","","-53","","NA"
"-81.82","69.36","IGLOOLIK A","2402546","2022-02-13 02:00","2022","02","13","02:00","-34.8","","-38.3","","71","","","M","33","","34","","","M","99.27","","","","-53","","NA"
"-81.82","69.36","IGLOOLIK A","2402546","2022-02-13 03:00","2022","02","13","03:00","-34.8","","-38.3","","71","","","M","34","","37","","","M","99.23","","","","-53","","NA"
"-81.82","69.36","IGLOOLIK A","2402546","2022-02-13 04:00","2022","02","13","04:00","-34.8","","-38.3","","71","","","M","33","","34","","","M","99.17","","","","-53","","NA"
"-81.82","69.36","IGLOOLIK A","2402546","2022-02-13 05:00","2022","02","13","05:00","-33.9","","-37.4","","71","","","M","35","","31","","","M","99.18","","","","-51","","NA"
"-81.82","69.36","IGLOOLIK A","2402546","2022-02-13 06:00","2022","02","13","06:00","-34.2","","-37.8","","71","","","M","34","","29","","","M","99.17","","","","-51","","NA"
"-81.82","69.36","IGLOOLIK A","2402546","2022-02-13 07:00","2022","02","13","07:00","-33.9","","-37.4","","71","","","M","34","","30","","","M","99.11","","","","-51","","NA"
"-81.82","69.36","IGLOOLIK A","2402546","2022-02-13 08:00","2022","02","13","08:00","-33.8","","-37.3","","71","","","M","34","","29","","","M","99.08","","","","-50","","NA"
"-81.82","69.36","IGLOOLIK A","2402546","2022-02-13 09:00","2022","02","13","09:00","-33.6","","-37.1","","72","","","M","33","","28","","","M","99.04","","","","-50","","NA"
"-81.82","69.36","IGLOOLIK A","2402546","2022-02-13 10:00","2022","02","13","10:00","-33.7","","-37.2","","71","","","M","32","","21","","","M","99.01","","","","-48","","NA"
"-81.82","69.36","IGLOOLIK A","2402546","2022-02-13 11:00","2022","02","13","11:00","-33.7","","-37.2","","71","","","M","33","","26","","","M","98.96","","","","-49","","NA"
"-81.82","69.36","IGLOOLIK A","2402546","2022-02-13 12:00","2022","02","13","12:00","-33.0","","-36.5","","72","","","M","34","","29","","","M","98.97","","","","-49","","NA"
"-81.82","69.36","IGLOOLIK A","2402546","2022-02-13 13:00","2022","02","13","13:00","-34.2","","-37.8","","71","","","M","33","","27","","","M","98.96","","","","-50","","NA"
"-81.82","69.36","IGLOOLIK A","2402546","2022-02-13 14:00","2022","02","13","14:00","-34.8","","-38.3","","71","","","M","33","","23","","","M","98.94","","","","-50","","NA"
"-81.82","69.36","IGLOOLIK A","2402546","2022-02-13 15:00","2022","02","13","15:00","-35.4","","-39.0","","70","","","M","31","","20","","","M","98.93","","","","-50","","NA"
"-81.82","69.36","IGLOOLIK A","2402546","2022-02-13 16:00","2022","02","13","16:00","-35.7","","-39.3","","70","","","M","32","","22","","","M","98.91","","","","-51","","NA"
"-81.82","69.36","IGLOOLIK A","2402546","2022-02-13 17:00","2022","02","13","17:00","-36.1","","-39.7","","70","","","M","30","","19","","","M","98.93","","","","-50","","NA"
"-81.82","69.36","IGLOOLIK A","2402546","2022-02-13 18:00","2022","02","13","18:00","-36.3","","-40.0","","70","","","M","30","","12","","","M","98.94","","","","-48","","NA"
"-81.82","69.36","IGLOOLIK A","2402546","2022-02-13 19:00","2022","02","13","19:00","-36.2","","-39.9","","70","","","M","31","","14","","","M","98.95","","","","-49","","NA"
"-81.82","69.36","IGLOOLIK A","2402546","2022-02-13 20:00","2022","02","13","20:00","-37.2","","-40.9","","70","","","M","31","","17","","","M","98.92","","","","-51","","NA"
"-81.82","69.36","IGLOOLIK A","2402546","2022-02-13 21:00","2022","02","13","21:00","-36.5","","-40.2","","70","","","M","30","","13","","","M","98.90","","","","-49","","NA"
"-81.82","69.36","IGLOOLIK A","2402546","2022-02-13 22:00","2022","02","13","22:00","-37.6","","-41.3","","69","","","M","29","","13","","","M","98.89","","","","-50","","NA"
"-81.82","69.36","IGLOOLIK A","2402546","2022-02-13 23:00","2022","02","13","23:00","-37.2","","-40.9","","69","","","M","28","","10","","","M","98.85","","","","-48","","NA"
"-81.82","69.36","IGLOOLIK A","2402546","2022-02-14 00:00","2022","02","14","00:00","-36.4","","-40.1","","70","","","M","32","","18","","","M","98.87","","","","-50","","NA"
"-81.82","69.36","IGLOOLIK A","2402546","2022-02-14 01:00","2022","02","14","01:00","-35.4","","-39.0","","70","","","M","29","","8","","","M","98.89","","","","-44","","NA"
"-81.82","69.36","IGLOOLIK A","2402546","2022-02-14 02:00","2022","02","14","02:00","-34.5","","-38.0","","71","","","M","32","","9","","","M","98.91","","","","-44","","NA"
"-81.82","69.36","IGLOOLIK A","2402546","2022-02-14 03:00","2022","02","14","03:00","-34.5","","-38.1","","71","","","M","33","","16","","","M","98.93","","","","-47","","NA"
"-81.82","69.36","IGLOOLIK A","2402546","2022-02-14 04:00","2022","02","14","04:00","-35.7","","-39.3","","70","","","M","33","","21","","","M","98.95","","","","-51","","NA"
"-81.82","69.36","IGLOOLIK A","2402546","2022-02-14 05:00","2022","02","14","05:00","-35.7","","-39.3","","70","","","M","35","","21","","","M","98.98","","","","-51","","NA"
"-81.82","69.36","IGLOOLIK A","2402546","2022-02-14 06:00","2022","02","14","06:00","-36.2","","-39.9","","70","","","M","35","","20","","","M","99.01","","","","-51","","NA"
"-81.82","69.36","IGLOOLIK A","2402546","2022-02-14 07:00","2022","02","14","07:00","-36.2","","-39.9","","70","","","M","33","","14","","","M","99.03","","","","-49","","NA"
"-81.82","69.36","IGLOOLIK A","2402546","2022-02-14 08:00","2022","02","14","08:00","-36.3","","-40.0","","70","","","M","33","","18","","","M","99.03","","","","-50","","NA"
"-81.82","69.36","IGLOOLIK A","2402546","2022-02-14 09:00","2022","02","14","09:00","-36.7","","-40.4","","70","","","M","34","","21","","","M","99.08","","","","-52","","NA"
"-81.82","69.36","IGLOOLIK A","2402546","2022-02-14 10:00","2022","02","14","10:00","-36.6","","-40.3","","69","","","M","33","","21","","","M","99.07","","","","-52","","NA"
"-81.82","69.36","IGLOOLIK A","2402546","2022-02-14 11:00","2022","02","14","11:00","-35.9","","-39.6","","70","","","M","31","","19","","","M","99.10","","","","-50","","NA"
"-81.82","69.36","IGLOOLIK A","2402546","2022-02-14 12:00","2022","02","14","12:00","-34.5","","-38.2","","70","","","M","33","","18","","","M","99.11","","","","-48","","NA"
"-81.82","69.36","IGLOOLIK A","2402546","2022-02-14 13:00","2022","02","14","13:00","-34.1","","-37.8","","71","","","M","32","","10","","","M","99.16","","","","-44","","NA"
"-81.82","69.36","IGLOOLIK A","2402546","2022-02-14 14:00","2022","02","14","14:00","-34.3","","-37.9","","71","","","M","29","","13","","","M","99.18","","","","-46","","NA"
"-81.82","69.36","IGLOOLIK A","2402546","2022-02-14 15:00","2022","02","14","15:00","-35.4","","-39.0","","70","","","M","30","","13","","","M","99.18","","","","-47","","NA"
"-81.82","69.36","IGLOOLIK A","2402546","2022-02-14 16:00","2022","02","14","16:00","-35.6","","-39.3","","70","","","M","25","","13","","","M","99.19","","","","-47","","NA"
"-81.82","69.36","IGLOOLIK A","2402546","2022-02-14 17:00","2022","02","14","17:00","-36.7","","-40.4","","70","","","M","26","","13","","","M","99.20","","","","-49","","NA"
"-81.82","69.36","IGLOOLIK A","2402546","2022-02-14 18:00","2022","02","14","18:00","-35.3","","-38.9","","71","","","M","29","","13","","","M","99.19","","","","-47","","NA"
"-81.82","69.36","IGLOOLIK A","2402546","2022-02-14 19:00","2022","02","14","19:00","-37.2","","-40.9","","69","","","M","28","","22","","","M","99.16","","","","-53","","NA"
"-81.82","69.36","IGLOOLIK A","2402546","2022-02-14 20:00","2022","02","14","20:00","-37.1","","-40.8","","70","","","M","28","","22","","","M","99.14","","","","-53","","NA"
"-81.82","69.36","IGLOOLIK A","2402546","2022-02-14 21:00","2022","02","14","21:00","-36.5","","-40.2","","70","","","M","29","","21","","","M","99.12","","","","-52","","NA"
"-81.82","69.36","IGLOOLIK A","2402546","2022-02-14 22:00","2022","02","14","22:00","-36.8","","-40.4","","70","","","M","28","","17","","","M","99.10","","","","-51","","NA"
"-81.82","69.36","IGLOOLIK A","2402546","2022-02-14 23:00","2022","02","14","23:00","-36.3","","-40.0","","70","","","M","27","","16","","","M","99.09","","","","-50","","NA"
"-81.82","69.36","IGLOOLIK A","2402546","2022-02-15 00:00","2022","02","15","00:00","-35.2","","-38.9","","70","","","M","29","","19","","","M","99.05","","","","-49","","NA"
"-81.82","69.36","IGLOOLIK A","2402546","2022-02-15 01:00","2022","02","15","01:00","-34.4","","-38.0","","71","","","M","29","","20","","","M","99.00","","","","-49","","NA"
"-81.82","69.36","IGLOOLIK A","2402546","2022-02-15 02:00","2022","02","15","02:00","-35.2","","-38.8","","70","","","M","31","","22","","","M","98.97","","","","-50","","NA"
"-81.82","69.36","IGLOOLIK A","2402546","2022-02-15 03:00","2022","02","15","03:00","-35.2","","-38.8","","70","","","M","30","","17","","","M","98.96","","","","-49","","NA"
"-81.82","69.36","IGLOOLIK A","2402546","2022-02-15 04:00","2022","02","15","04:00","-34.6","","-38.1","","71","","","M","30","","19","","","M","98.94","","","","-49","","NA"
"-81.82","69.36","IGLOOLIK A","2402546","2022-02-15 05:00","2022","02","15","05:00","-34.6","","-38.2","","71","","","M","30","","17","","","M","98.90","","","","-48","","NA"
"-81.82","69.36","IGLOOLIK A","2402546","2022-02-15 06:00","2022","02","15","06:00","-33.4","","-36.8","","72","","","M","29","","14","","","M","98.93","","","","-45","","NA"
"-81.82","69.36","IGLOOLIK A","2402546","2022-02-15 07:00","2022","02","15","07:00","-33.5","","-37.0","","72","","","M","27","","14","","","M","98.92","","","","-45","","NA"
"-81.82","69.36","IGLOOLIK A","2402546","2022-02-15 08:00","2022","02","15","08:00","-32.6","","-36.1","","72","","","M","30","","15","","","M","98.90","","","","-45","","NA"
"-81.82","69.36","IGLOOLIK A","2402546","2022-02-15 09:00","2022","02","15","09:00","-32.0","","-35.4","","73","","","M","29","","14","","","M","98.91","","","","-43","","NA"
"-81.82","69.36","IGLOOLIK A","2402546","2022-02-15 10:00","2022","02","15","10:00","-31.3","","-34.6","","73","","","M","29","","12","","","M","98.91","","","","-42","","NA"
"-81.82","69.36","IGLOOLIK A","2402546","2022-02-15 11:00","2022","02","15","11:00","-31.4","","-34.8","","73","","","M","29","","13","","","M","98.94","","","","-42","","NA"
"-81.82","69.36","IGLOOLIK A","2402546","2022-02-15 12:00","2022","02","15","12:00","-31.2","","-34.6","","73","","","M","31","","21","","","M","98.94","","","","-45","","NA"
"-81.82","69.36","IGLOOLIK A","2402546","2022-02-15 13:00","2022","02","15","13:00","-31.5","","-34.9","","73","","","M","31","","25","","","M","98.93","","","","-46","","NA"
"-81.82","69.36","IGLOOLIK A","2402546","2022-02-15 14:00","2022","02","15","14:00","-31.4","","-34.8","","73","","","M","31","","21","","","M","98.96","","","","-45","","NA"
"-81.82","69.36","IGLOOLIK A","2402546","2022-02-15 15:00","2022","02","15","15:00","-31.8","","-35.1","","73","","","M","31","","25","","","M","98.99","","","","-47","","NA"
"-81.82","69.36","IGLOOLIK A","2402546","2022-02-15 16:00","2022","02","15","16:00","-32.5","","-35.9","","72","","","M","31","","26","","","M","99.03","","","","-48","","NA"
"-81.82","69.36","IGLOOLIK A","2402546","2022-02-15 17:00","2022","02","15","17:00","-31.9","","-35.2","","73","","","M","30","","19","","","M","99.07","","","","-45","","NA"
"-81.82","69.36","IGLOOLIK A","2402546","2022-02-15 18:00","2022","02","15","18:00","-31.1","","-34.4","","73","","","M","30","","21","","","M","99.10","","","","-45","","NA"
"-81.82","69.36","IGLOOLIK A","2402546","2022-02-15 19:00","2022","02","15","19:00","-30.5","","-33.8","","74","","","M","31","","23","","","M","99.13","","","","-45","","NA"
"-81.82","69.36","IGLOOLIK A","2402546","2022-02-15 20:00","2022","02","15","20:00","-30.6","","-33.9","","74","","","M","31","","19","","","M","99.16","","","","-44","","NA"
"-81.82","69.36","IGLOOLIK A","2402546","2022-02-15 21:00","2022","02","15","21:00","-31.6","","-34.9","","73","","","M","30","","13","","","M","99.19","","","","-43","","NA"
"-81.82","69.36","IGLOOLIK A","2402546","2022-02-15 22:00","2022","02","15","22:00","-31.7","","-35.0","","73","","","M","29","","17","","","M","99.19","","","","-44","","NA"
"-81.82","69.36","IGLOOLIK A","2402546","2022-02-15 23:00","2022","02","15","23:00","-31.9","","-35.2","","73","","","M","30","","21","","","M","99.18","","","","-46","","NA"
"-81.82","69.36","IGLOOLIK A","2402546","2022-02-16 00:00","2022","02","16","00:00","-32.1","","-35.4","","73","","","M","29","","19","","","M","99.23","","","","-45","","NA"
"-81.82","69.36","IGLOOLIK A","2402546","2022-02-16 01:00","2022","02","16","01:00","-32.0","","-35.4","","73","","","M","29","","23","","","M","99.22","","","","-46","","NA"
"-81.82","69.36","IGLOOLIK A","2402546","2022-02-16 02:00","2022","02","16","02:00","-32.4","","-35.8","","72","","","M","29","","16","","","M","99.27","","","","-45","","NA"
"-81.82","69.36","IGLOOLIK A","2402546","2022-02-16 03:00","2022","02","16","03:00","-32.7","","-36.1","","72","","","M","29","","17","","","M","99.30","","","","-45","","NA"
"-81.82","69.36","IGLOOLIK A","2402546","2022-02-16 04:00","2022","02","16","04:00","-33.2","","-36.7","","72","","","M","30","","15","","","M","99.35","","","","-45","","NA"
"-81.82","69.36","IGLOOLIK A","2402546","2022-02-16 05:00","2022","02","16","05:00","-32.9","","-36.3","","72","","","M","29","","23","","","M","99.35","","","","-48","","NA"
"-81.82","69.36","IGLOOLIK A","2402546","2022-02-16 06:00","2022","02","16","06:00","-33.0","","-36.5","","72","","","M","27","","21","","","M","99.36","","","","-47","","NA"
"-81.82","69.36","IGLOOLIK A","2402546","2022-02-16 07:00","2022","02","16","07:00","-33.5","","-37.0","","72","","","M","27","","21","","","M","99.37","","","","-48","","NA"
"-81.82","69.36","IGLOOLIK A","2402546","2022-02-16 08:00","2022","02","16","08:00","-33.8","","-37.3","","71","","","M","28","","17","","","M","99.37","","","","-47","","NA"
"-81.82","69.36","IGLOOLIK A","2402546","2022-02-16 09:00","2022","02","16","09:00","-33.8","","-37.3","","72","","","M","26","","13","","","M","99.38","","","","-45","","NA"
"-81.82","69.36","IGLOOLIK A","2402546","2022-02-16 10:00","2022","02","16","10:00","-33.1","","-36.6","","72","","","M","26","","13","","","M","99.40","","","","-44","","NA"
"-81.82","69.36","IGLOOLIK A","2402546","2022-02-16 11:00","2022","02","16","11:00","-33.9","","-37.4","","71","","","M","26","","17","","","M","99.40","","","","-47","","NA"
"-81.82","69.36","IGLOOLIK A","2402546","2022-02-16 12:00","2022","02","16","12:00","-33.6","","-37.2","","71","","","M","27","","14","","","M","99.42","","","","-45","","NA"
"-81.82","69.36","IGLOOLIK A","2402546","2022-02-16 13:00","2022","02","16","13:00","-33.9","","-37.5","","71","","","M","26","","19","","","M","99.41","","","","-48","","NA"
"-81.82","69.36","IGLOOLIK A","2402546","2022-02-16 14:00","2022","02","16","14:00","-34.3","","-37.9","","71","","","M","26","","18","","","M","99.39","","","","-48","","NA"
"-81.82","69.36","IGLOOLIK A","2402546","2022-02-16 15:00","2022","02","16","15:00","-35.4","","-39.0","","70","","","M","26","","18","","","M","99.40","","","","-49","","NA"
"-81.82","69.36","IGLOOLIK A","2402546","2022-02-16 16:00","2022","02","16","16:00","-35.9","","-39.6","","70","","","M","27","","22","","","M","99.44","","","","-51","","NA"
"-81.82","69.36","IGLOOLIK A","2402546","2022-02-16 17:00","2022","02","16","17:00","-36.7","","-40.3","","70","","","M","26","","26","","","M","99.45","","","","-53","","NA"
"-81.82","69.36","IGLOOLIK A","2402546","2022-02-16 18:00","2022","02","16","18:00","-36.6","","-40.3","","70","","","M","26","","23","","","M","99.46","","","","-52","","NA"
"-81.82","69.36","IGLOOLIK A","2402546","2022-02-16 19:00","2022","02","16","19:00","-36.8","","-40.4","","70","","","M","26","","21","","","M","99.46","","","","-52","","NA"
"-81.82","69.36","IGLOOLIK A","2402546","2022-02-16 20:00","2022","02","16","20:00","-36.3","","-39.9","","70","","","M","25","","19","","","M","99.45","","","","-51","","NA"
"-81.82","69.36","IGLOOLIK A","2402546","2022-02-16 21:00","2022","02","16","21:00","-35.5","","-39.1","","70","","","M","26","","20","","","M","99.45","","","","-50","","NA"
"-81.82","69.36","IGLOOLIK A","2402546","2022-02-16 22:00","2022","02","16","22:00","-35.6","","-39.2","","70","","","M","26","","21","","","M","99.43","","","","-50","","NA"
"-81.82","69.36","IGLOOLIK A","2402546","2022-02-16 23:00","2022","02","16","23:00","-35.8","","-39.5","","70","","","M","22","","16","","","M","99.43","","","","-49","","NA"
"-81.82","69.36","IGLOOLIK A","2402546","2022-02-17 00:00","2022","02","17","00:00","-35.8","","-39.4","","70","","","M","21","","12","","","M","99.42","","","","-47","","NA"
"-81.82","69.36","IGLOOLIK A","2402546","2022-02-17 01:00","2022","02","17","01:00","-34.8","","-38.4","","71","","","M","23","","19","","","M","99.41","","","","-49","","NA"
"-81.82","69.36","IGLOOLIK A","2402546","2022-02-17 02:00","2022","02","17","02:00","-35.8","","-39.4","","70","","","M","23","","22","","","M","99.40","","","","-51","","NA"
"-81.82","69.36","IGLOOLIK A","2402546","2022-02-17 03:00","2022","02","17","03:00","-36.6","","-40.2","","70","","","M","21","","19","","","M","99.44","","","","-51","","NA"
"-81.82","69.36","IGLOOLIK A","2402546","2022-02-17 04:00","2022","02","17","04:00","-35.6","","-39.2","","70","","","M","23","","13","","","M","99.42","","","","-47","","NA"
"-81.82","69.36","IGLOOLIK A","2402546","2022-02-17 05:00","2022","02","17","05:00","-35.0","","-38.6","","71","","","M","23","","14","","","M","99.43","","","","-47","","NA"
"-81.82","69.36","IGLOOLIK A","2402546","2022-02-17 06:00","2022","02","17","06:00","-36.2","","-39.8","","70","","","M","24","","17","","","M","99.42","","","","-50","","NA"
"-81.82","69.36","IGLOOLIK A","2402546","2022-02-17 07:00","2022","02","17","07:00","-36.1","","-39.8","","70","","","M","23","","20","","","M","99.44","","","","-51","","NA"
"-81.82","69.36","IGLOOLIK A","2402546","2022-02-17 08:00","2022","02","17","08:00","-36.2","","-39.8","","70","","","M","23","","21","","","M","99.44","","","","-51","","NA"
"-81.82","69.36","IGLOOLIK A","2402546","2022-02-17 09:00","2022","02","17","09:00","-37.2","","-40.9","","69","","","M","24","","21","","","M","99.45","","","","-53","","NA"
"-81.82","69.36","IGLOOLIK A","2402546","2022-02-17 10:00","2022","02","17","10:00","-37.1","","-40.8","","69","","","M","25","","22","","","M","99.45","","","","-53","","NA"
"-81.82","69.36","IGLOOLIK A","2402546","2022-02-17 11:00","2022","02","17","11:00","-36.5","","-40.2","","70","","","M","24","","21","","","M","99.46","","","","-52","","NA"
"-81.82","69.36","IGLOOLIK A","2402546","2022-02-17 12:00","2022","02","17","12:00","-36.3","","-40.0","","70","","","M","24","","19","","","M","99.46","","","","-51","","NA"
"-81.82","69.36","IGLOOLIK A","2402546","2022-02-17 13:00","2022","02","17","13:00","-35.5","","-39.1","","70","","","M","24","","19","","","M","99.48","","","","-50","","NA"
"-81.82","69.36","IGLOOLIK A","2402546","2022-02-17 14:00","2022","02","17","14:00","-34.8","","-38.4","","70","","","M","24","","15","","","M","99.49","","","","-47","","NA"
"-81.82","69.36","IGLOOLIK A","2402546","2022-02-17 15:00","2022","02","17","15:00","-33.7","","-37.2","","71","","","M","24","","8","","","M","99.54","","","","-42","","NA"
"-81.82","69.36","IGLOOLIK A","2402546","2022-02-17 16:00","2022","02","17","16:00","-35.4","","-39.0","","70","","","M","15","","10","","","M","99.55","","","","-46","","NA"
"-81.82","69.36","IGLOOLIK A","2402546","2022-02-17 17:00","2022","02","17","17:00","-34.0","","-37.5","","71","","","M","17","","9","","","M","99.55","","","","-43","","NA"
"-81.82","69.36","IGLOOLIK A","2402546","2022-02-17 18:00","2022","02","17","18:00","-33.8","","-37.4","","71","","","M","21","","7","","","M","99.57","","","","-42","","NA"
"-81.82","69.36","IGLOOLIK A","2402546","2022-02-17 19:00","2022","02","17","19:00","-32.9","","-36.3","","72","","","M","22","","7","","","M","99.54","","","","-41","","NA"
"-81.82","69.36","IGLOOLIK A","2402546","2022-02-17 20:00","2022","02","17","20:00","-33.5","","-37.0","","72","","","M","29","","7","","","M","99.54","","","","-41","","NA"
"-81.82","69.36","IGLOOLIK A","2402546","2022-02-17 21:00","2022","02","17","21:00","-34.4","","-38.0","","71","","","M","35","","8","","","M","99.52","","","","-43","","NA"
"-81.82","69.36","IGLOOLIK A","2402546","2022-02-17 22:00","2022","02","17","22:00","-33.4","","-36.9","","72","","","M","5","","8","","","M","99.51","","","","-42","","NA"
"-81.82","69.36","IGLOOLIK A","2402546","2022-02-17 23:00","2022","02","17","23:00","-31.9","","-35.3","","73","","","M","7","","10","","","M","99.50","","","","-41","","NA"
"-81.82","69.36","IGLOOLIK A","2402546","2022-02-18 00:00","2022","02","18","00:00","-31.0","","-34.4","","73","","","M","10","","7","","","M","99.48","","","","-38","","NA"
"-81.82","69.36","IGLOOLIK A","2402546","2022-02-18 01:00","2022","02","18","01:00","-33.8","","-37.2","","72","","","M","30","","9","","","M","99.50","","","","-43","","NA"
"-81.82","69.36","IGLOOLIK A","2402546","2022-02-18 02:00","2022","02","18","02:00","-31.2","","-34.5","","73","","","M","13","","5","","","M","99.50","","","","-37","","NA"
"-81.82","69.36","IGLOOLIK A","2402546","2022-02-18 03:00","2022","02","18","03:00","-30.8","","-34.1","","73","","","M","12","","5","","","M","99.53","","","","-37","","NA"
"-81.82","69.36","IGLOOLIK A","2402546","2022-02-18 04:00","2022","02","18","04:00","-32.1","","-35.5","","73","","","M","","","0","","","M","99.56","","","","","","NA"
"-81.82","69.36","IGLOOLIK A","2402546","2022-02-18 05:00","2022","02","18","05:00","-29.9","","-33.2","","74","","","M","13","","6","","","M","99.58","","","","-36","","NA"
"-81.82","69.36","IGLOOLIK A","2402546","2022-02-18 06:00","2022","02","18","06:00","-30.3","","-33.5","","74","","","M","15","","5","","","M","99.58","","","","-36","","NA"
"-81.82","69.36","IGLOOLIK A","2402546","2022-02-18 07:00","2022","02","18","07:00","-30.7","","-34.0","","74","","","M","11","","6","","","M","99.62","","","","-37","","NA"
"-81.82","69.36","IGLOOLIK A","2402546","2022-02-18 08:00","2022","02","18","08:00","-30.5","","-33.8","","74","","","M","13","","7","","","M","99.65","","","","-38","","NA"
"-81.82","69.36","IGLOOLIK A","2402546","2022-02-18 09:00","2022","02","18","09:00","-29.4","","-32.6","","74","","","M","17","","2","","","M","99.67","","","","-32","","NA"
"-81.82","69.36","IGLOOLIK A","2402546","2022-02-18 10:00","2022","02","18","10:00","-30.0","","-33.2","","74","","","M","9","","7","","","M","99.71","","","","-37","","NA"
"-81.82","69.36","IGLOOLIK A","2402546","2022-02-18 11:00","2022","02","18","11:00","-29.3","","-32.5","","74","","","M","9","","8","","","M","99.73","","","","-37","","NA"
"-81.82","69.36","IGLOOLIK A","2402546","2022-02-18 12:00","2022","02","18","12:00","-28.7","","-31.9","","74","","","M","13","","5","","","M","99.75","","","","-34","","NA"
"-81.82","69.36","IGLOOLIK A","2402546","2022-02-18 13:00","2022","02","18","13:00","-29.1","","-32.3","","74","","","M","11","","7","","","M","99.74","","","","-36","","NA"
"-81.82","69.36","IGLOOLIK A","2402546","2022-02-18 14:00","2022","02","18","14:00","-27.8","","-30.9","","75","","","M","18","","6","","","M","99.79","","","","-34","","NA"
"-81.82","69.36","IGLOOLIK A","2402546","2022-02-18 15:00","2022","02","18","15:00","-28.1","","-31.2","","75","","","M","7","","4","","","M","99.81","","","","-32","","NA"
"-81.82","69.36","IGLOOLIK A","2402546","2022-02-18 16:00","2022","02","18","16:00","-27.7","","-30.8","","75","","","M","5","","5","","","M","99.84","","","","-33","","NA"
"-81.82","69.36","IGLOOLIK A","2402546","2022-02-18 17:00","2022","02","18","17:00","-27.1","","-30.1","","76","","","M","0","","1","","","M","99.84","","","","-28","","NA"
"-81.82","69.36","IGLOOLIK A","2402546","2022-02-18 18:00","2022","02","18","18:00","-29.4","","-32.5","","75","","","M","3","","11","","","M","99.89","","","","-39","","NA"
"-81.82","69.36","IGLOOLIK A","2402546","2022-02-18 19:00","2022","02","18","19:00","-33.0","","-36.4","","72","","","M","3","","10","","","M","99.89","","","","-43","","NA"
"-81.82","69.36","IGLOOLIK A","2402546","2022-02-18 20:00","2022","02","18","20:00","-30.5","","-33.8","","74","","","M","7","","15","","","M","99.89","","","","-42","","NA"
"-81.82","69.36","IGLOOLIK A","2402546","2022-02-18 21:00","2022","02","18","21:00","-30.3","","-33.5","","74","","","M","9","","12","","","M","99.89","","","","-41","","NA"
"-81.82","69.36","IGLOOLIK A","2402546","2022-02-18 22:00","2022","02","18","22:00","-30.4","","-33.7","","74","","","M","7","","14","","","M","99.89","","","","-42","","NA"
"-81.82","69.36","IGLOOLIK A","2402546","2022-02-18 23:00","2022","02","18","23:00","-32.2","","-35.5","","73","","","M","8","","17","","","M","99.89","","","","-45","","NA"
"-81.82","69.36","IGLOOLIK A","2402546","2022-02-19 00:00","2022","02","19","00:00","-31.9","","-35.3","","73","","","M","6","","17","","","M","99.88","","","","-44","","NA"
"-81.82","69.36","IGLOOLIK A","2402546","2022-02-19 01:00","2022","02","19","01:00","-34.6","","-38.2","","71","","","M","3","","16","","","M","99.87","","","","-47","","NA"
"-81.82","69.36","IGLOOLIK A","2402546","2022-02-19 02:00","2022","02","19","02:00","-34.1","","-37.6","","72","","","M","5","","21","","","M","99.89","","","","-49","","NA"
"-81.82","69.36","IGLOOLIK A","2402546","2022-02-19 03:00","2022","02","19","03:00","-36.3","","-40.0","","70","","","M","3","","20","","","M","99.89","","","","-51","","NA"
"-81.82","69.36","IGLOOLIK A","2402546","2022-02-19 04:00","2022","02","19","04:00","-36.1","","-39.7","","70","","","M","3","","21","","","M","99.89","","","","-51","","NA"
"-81.82","69.36","IGLOOLIK A","2402546","2022-02-19 05:00","2022","02","19","05:00","-35.7","","-39.3","","70","","","M","2","","19","","","M","99.86","","","","-50","","NA"
"-81.82","69.36","IGLOOLIK A","2402546","2022-02-19 06:00","2022","02","19","06:00","-35.4","","-39.0","","71","","","M","1","","16","","","M","99.89","","","","-48","","NA"
"-81.82","69.36","IGLOOLIK A","2402546","2022-02-19 07:00","2022","02","19","07:00","-35.1","","-38.7","","71","","","M","1","","16","","","M","99.87","","","","-48","","NA"
"-81.82","69.36","IGLOOLIK A","2402546","2022-02-19 08:00","2022","02","19","08:00","-36.1","","-39.8","","70","","","M","30","","10","","","M","99.87","","","","-46","","NA"
"-81.82","69.36","IGLOOLIK A","2402546","2022-02-19 09:00","2022","02","19","09:00","-36.6","","-40.2","","70","","","M","31","","12","","","M","99.87","","","","-48","","NA"
"-81.82","69.36","IGLOOLIK A","2402546","2022-02-19 10:00","2022","02","19","10:00","-36.2","","-39.9","","70","","","M","33","","14","","","M","99.83","","","","-49","","NA"
"-81.82","69.36","IGLOOLIK A","2402546","2022-02-19 11:00","2022","02","19","11:00","-34.9","","-38.6","","70","","","M","33","","14","","","M","99.81","","","","-47","","NA"
"-81.82","69.36","IGLOOLIK A","2402546","2022-02-19 12:00","2022","02","19","12:00","-34.4","","-38.1","","70","","","M","31","","14","","","M","99.78","","","","-46","","NA"
"-81.82","69.36","IGLOOLIK A","2402546","2022-02-19 13:00","2022","02","19","13:00","-35.0","","-38.7","","70","","","M","31","","16","","","M","99.77","","","","-48","","NA"
"-81.82","69.36","IGLOOLIK A","2402546","2022-02-19 14:00","2022","02","19","14:00","-34.3","","-37.9","","71","","","M","31","","14","","","M","99.76","","","","-46","","NA"
"-81.82","69.36","IGLOOLIK A","2402546","2022-02-19 15:00","2022","02","19","15:00","-34.2","","-37.7","","71","","","M","31","","13","","","M","99.77","","","","-46","","NA"
"-81.82","69.36","IGLOOLIK A","2402546","2022-02-19 16:00","2022","02","19","16:00","-33.5","","-37.0","","71","","","M","30","","13","","","M","99.79","","","","-45","","NA"
"-81.82","69.36","IGLOOLIK A","2402546","2022-02-19 17:00","2022","02","19","17:00","-33.6","","-37.1","","72","","","M","31","","14","","","M","99.78","","","","-45","","NA"
"-81.82","69.36","IGLOOLIK A","2402546","2022-02-19 18:00","2022","02","19","18:00","-33.9","","-37.4","","71","","","M","31","","15","","","M","99.75","","","","-46","","NA"
"-81.82","69.36","IGLOOLIK A","2402546","2022-02-19 19:00","2022","02","19","19:00","-33.5","","-37.0","","72","","","M","32","","15","","","M","99.76","","","","-46","","NA"
"-81.82","69.36","IGLOOLIK A","2402546","2022-02-19 20:00","2022","02","19","20:00","-34.9","","-38.5","","71","","","M","29","","17","","","M","99.77","","","","-48","","NA"
"-81.82","69.36","IGLOOLIK A","2402546","2022-02-19 21:00","2022","02","19","21:00","-34.4","","-37.9","","71","","","M","29","","14","","","M","99.77","","","","-46","","NA"
"-81.82","69.36","IGLOOLIK A","2402546","2022-02-19 22:00","2022","02","19","22:00","-33.8","","-37.3","","72","","","M","31","","13","","","M","99.71","","","","-45","","NA"
"-81.82","69.36","IGLOOLIK A","2402546","2022-02-19 23:00","2022","02","19","23:00","-33.4","","-36.8","","72","","","M","29","","15","","","M","99.69","","","","-46","","NA"
"-81.82","69.36","IGLOOLIK A","2402546","2022-02-20 00:00","2022","02","20","00:00","-33.0","","-36.5","","72","","","M","32","","9","","","M","99.73","","","","-42","","NA"
"-81.82","69.36","IGLOOLIK A","2402546","2022-02-20 01:00","2022","02","20","01:00","-33.1","","-36.5","","72","","","M","30","","11","","","M","99.71","","","","-43","","NA"
"-81.82","69.36","IGLOOLIK A","2402546","2022-02-20 02:00","2022","02","20","02:00","-32.1","","-35.5","","73","","","M","33","","14","","","M","99.74","","","","-44","","NA"
"-81.82","69.36","IGLOOLIK A","2402546","2022-02-20 03:00","2022","02","20","03:00","-31.9","","-35.2","","73","","","M","33","","21","","","M","99.73","","","","-46","","NA"
"-81.82","69.36","IGLOOLIK A","2402546","2022-02-20 04:00","2022","02","20","04:00","-31.9","","-35.3","","73","","","M","29","","12","","","M","99.72","","","","-42","","NA"
"-81.82","69.36","IGLOOLIK A","2402546","2022-02-20 05:00","2022","02","20","05:00","-30.9","","-34.2","","73","","","M","1","","7","","","M","99.74","","","","-38","","NA"
"-81.82","69.36","IGLOOLIK A","2402546","2022-02-20 06:00","2022","02","20","06:00","-31.2","","-34.6","","73","","","M","32","","14","","","M","99.76","","","","-42","","NA"
"-81.82","69.36","IGLOOLIK A","2402546","2022-02-20 07:00","2022","02","20","07:00","-31.9","","-35.3","","73","","","M","34","","22","","","M","99.73","","","","-46","","NA"
"-81.82","69.36","IGLOOLIK A","2402546","2022-02-20 08:00","2022","02","20","08:00","-32.0","","-35.4","","73","","","M","31","","15","","","M","99.73","","","","-44","","NA"
"-81.82","69.36","IGLOOLIK A","2402546","2022-02-20 09:00","2022","02","20","09:00","-31.1","","-34.4","","73","","","M","34","","10","","","M","99.78","","","","-40","","NA"
"-81.82","69.36","IGLOOLIK A","2402546","2022-02-20 10:00","2022","02","20","10:00","-30.2","","-33.5","","74","","","M","32","","16","","","M","99.77","","","","-42","","NA"
"-81.82","69.36","IGLOOLIK A","2402546","2022-02-20 11:00","2022","02","20","11:00","-29.6","","-32.9","","74","","","M","30","","14","","","M","99.74","","","","-41","","NA"
"-81.82","69.36","IGLOOLIK A","2402546","2022-02-20 12:00","2022","02","20","12:00","-29.1","","-32.3","","74","","","M","32","","26","","","M","99.72","","","","-44","","NA"
"-81.82","69.36","IGLOOLIK A","2402546","2022-02-20 13:00","2022","02","20","13:00","-29.2","","-32.4","","74","","","M","33","","16","","","M","99.74","","","","-41","","NA"
"-81.82","69.36","IGLOOLIK A","2402546","2022-02-20 14:00","2022","02","20","14:00","-29.3","","-32.5","","74","","","M","34","","13","","","M","99.77","","","","-40","","NA"
"-81.82","69.36","IGLOOLIK A","2402546","2022-02-20 15:00","2022","02","20","15:00","-29.1","","-32.3","","74","","","M","31","","10","","","M","99.78","","","","-38","","NA"
"-81.82","69.36","IGLOOLIK A","2402546","2022-02-20 16:00","2022","02","20","16:00","-28.9","","-32.0","","75","","","M","34","","21","","","M","99.80","","","","-42","","NA"
"-81.82","69.36","IGLOOLIK A","2402546","2022-02-20 17:00","2022","02","20","17:00","-29.0","","-32.1","","75","","","M","33","","23","","","M","99.83","","","","-43","","NA"
"-81.82","69.36","IGLOOLIK A","2402546","2022-02-20 18:00","2022","02","20","18:00","-28.8","","-31.9","","75","","","M","33","","19","","","M","99.83","","","","-41","","NA"
"-81.82","69.36","IGLOOLIK A","2402546","2022-02-20 19:00","2022","02","20","19:00","-28.6","","-31.7","","75","","","M","33","","15","","","M","99.84","","","","-40","","NA"
"-81.82","69.36","IGLOOLIK A","2402546","2022-02-20 20:00","2022","02","20","20:00","-28.6","","-31.8","","75","","","M","35","","12","","","M","99.86","","","","-38","","NA"
"-81.82","69.36","IGLOOLIK A","2402546","2022-02-20 21:00","2022","02","20","21:00","-28.8","","-31.9","","75","","","M","33","","12","","","M","99.87","","","","-39","","NA"
"-81.82","69.36","IGLOOLIK A","2402546","2022-02-20 22:00","2022","02","20","22:00","-28.8","","-32.0","","75","","","M","32","","12","","","M","99.86","","","","-39","","NA"
"-81.82","69.36","IGLOOLIK A","2402546","2022-02-20 23:00","2022","02","20","23:00","-28.9","","-32.0","","75","","","M","34","","7","","","M","99.88","","","","-36","","NA"
"-81.82","69.36","IGLOOLIK A","2402546","2022-02-21 00:00","2022","02","21","00:00","-29.4","","-32.6","","75","","","M","35","","9","","","M","99.85","","","","-38","","NA"
"-81.82","69.36","IGLOOLIK A","2402546","2022-02-21 01:00","2022","02","21","01:00","-29.4","","-32.6","","75","","","M","4","","5","","","M","99.88","","","","-35","","NA"
"-81.82","69.36","IGLOOLIK A","2402546","2022-02-21 02:00","2022","02","21","02:00","-29.6","","-32.7","","75","","","M","2","","7","","","M","99.90","","","","-37","","NA"
"-81.82","69.36","IGLOOLIK A","2402546","2022-02-21 03:00","2022","02","21","03:00","-30.6","","-33.9","","74","","","M","1","","9","","","M","99.94","","","","-39","","NA"
"-81.82","69.36","IGLOOLIK A","2402546","2022-02-21 04:00","2022","02","21","04:00","-30.8","","-34.1","","74","","","M","36","","12","","","M","99.94","","","","-41","","NA"
"-81.82","69.36","IGLOOLIK A","2402546","2022-02-21 05:00","2022","02","21","05:00","-32.1","","-35.5","","73","","","M","2","","15","","","M","99.96","","","","-44","","NA"
"-81.82","69.36","IGLOOLIK A","2402546","2022-02-21 06:00","2022","02","21","06:00","-32.5","","-35.9","","73","","","M","1","","12","","","M","99.97","","","","-43","","NA"
"-81.82","69.36","IGLOOLIK A","2402546","2022-02-21 07:00","2022","02","21","07:00","-33.4","","-36.9","","72","","","M","1","","13","","","M","100.02","","","","-45","","NA"
"-81.82","69.36","IGLOOLIK A","2402546","2022-02-21 08:00","2022","02","21","08:00","-34.0","","-37.4","","72","","","M","33","","10","","","M","100.04","","","","-44","","NA"
"-81.82","69.36","IGLOOLIK A","2402546","2022-02-21 09:00","2022","02","21","09:00","-33.5","","-37.0","","72","","","M","32","","9","","","M","100.08","","","","-43","","NA"
"-81.82","69.36","IGLOOLIK A","2402546","2022-02-21 10:00","2022","02","21","10:00","-34.1","","-37.6","","71","","","M","34","","12","","","M","100.14","","","","-45","","NA"
"-81.82","69.36","IGLOOLIK A","2402546","2022-02-21 11:00","2022","02","21","11:00","-34.0","","-37.6","","71","","","M","34","","11","","","M","100.15","","","","-44","","NA"
"-81.82","69.36","IGLOOLIK A","2402546","2022-02-21 12:00","2022","02","21","12:00","-33.8","","-37.3","","71","","","M","35","","13","","","M","100.17","","","","-45","","NA"
"-81.82","69.36","IGLOOLIK A","2402546","2022-02-21 13:00","2022","02","21","13:00","-33.9","","-37.4","","71","","","M","36","","14","","","M","100.21","","","","-46","","NA"
"-81.82","69.36","IGLOOLIK A","2402546","2022-02-21 14:00","2022","02","21","14:00","-33.0","","-36.5","","71","","","M","1","","13","","","M","100.25","","","","-44","","NA"
"-81.82","69.36","IGLOOLIK A","2402546","2022-02-21 15:00","2022","02","21","15:00","-32.8","","-36.3","","72","","","M","2","","17","","","M","100.34","","","","-46","","NA"
"-81.82","69.36","IGLOOLIK A","2402546","2022-02-21 16:00","2022","02","21","16:00","-33.2","","-36.6","","72","","","M","2","","20","","","M","100.40","","","","-47","","NA"
"-81.82","69.36","IGLOOLIK A","2402546","2022-02-21 17:00","2022","02","21","17:00","-33.3","","-36.7","","72","","","M","2","","25","","","M","100.47","","","","-49","","NA"
"-81.82","69.36","IGLOOLIK A","2402546","2022-02-21 18:00","2022","02","21","18:00","-34.3","","-37.8","","71","","","M","2","","21","","","M","100.47","","","","-49","","NA"
"-81.82","69.36","IGLOOLIK A","2402546","2022-02-21 19:00","2022","02","21","19:00","-33.5","","-37.0","","72","","","M","1","","24","","","M","100.57","","","","-49","","NA"
"-81.82","69.36","IGLOOLIK A","2402546","2022-02-21 20:00","2022","02","21","20:00","-34.4","","-37.9","","71","","","M","35","","14","","","M","100.61","","","","-46","","NA"
"-81.82","69.36","IGLOOLIK A","2402546","2022-02-21 21:00","2022","02","21","21:00","-35.1","","-38.6","","71","","","M","35","","19","","","M","100.63","","","","-49","","NA"
"-81.82","69.36","IGLOOLIK A","2402546","2022-02-21 22:00","2022","02","21","22:00","-34.3","","-37.8","","71","","","M","33","","14","","","M","100.66","","","","-46","","NA"
"-81.82","69.36","IGLOOLIK A","2402546","2022-02-21 23:00","2022","02","21","23:00","-35.3","","-38.9","","71","","","M","32","","16","","","M","100.66","","","","-48","","NA"
"-81.82","69.36","IGLOOLIK A","2402546","2022-02-22 00:00","2022","02","22","00:00","-35.6","","-39.2","","71","","","M","32","","14","","","M","100.69","","","","-48","","NA"
"-81.82","69.36","IGLOOLIK A","2402546","2022-02-22 01:00","2022","02","22","01:00","-36.4","","-40.0","","70","","","M","29","","15","","","M","100.68","","","","-49","","NA"
"-81.82","69.36","IGLOOLIK A","2402546","2022-02-22 02:00","2022","02","22","02:00","-35.5","","-39.1","","71","","","M","31","","14","","","M","100.71","","","","-48","","NA"
"-81.82","69.36","IGLOOLIK A","2402546","2022-02-22 03:00","2022","02","22","03:00","-35.8","","-39.4","","70","","","M","29","","13","","","M","100.73","","","","-48","","NA"
"-81.82","69.36","IGLOOLIK A","2402546","2022-02-22 04:00","2022","02","22","04:00","-36.3","","-39.9","","70","","","M","29","","15","","","M","100.75","","","","-49","","NA"
"-81.82","69.36","IGLOOLIK A","2402546","2022-02-22 05:00","2022","02","22","05:00","-36.0","","-39.6","","70","","","M","29","","16","","","M","100.76","","","","-49","","NA"
"-81.82","69.36","IGLOOLIK A","2402546","2022-02-22 06:00","2022","02","22","06:00","-34.3","","-37.8","","71","","","M","30","","17","","","M","100.75","","","","-47","","NA"
"-81.82","69.36","IGLOOLIK A","2402546","2022-02-22 07:00","2022","02","22","07:00","-34.5","","-38.0","","71","","","M","31","","16","","","M","100.76","","","","-47","","NA"
"-81.82","69.36","IGLOOLIK A","2402546","2022-02-22 08:00","2022","02","22","08:00","-34.7","","-38.3","","71","","","M","29","","17","","","M","100.79","","","","-48","","NA"
"-81.82","69.36","IGLOOLIK A","2402546","2022-02-22 09:00","2022","02","22","09:00","-35.3","","-38.9","","70","","","M","29","","23","","","M","100.76","","","","-51","","NA"
"-81.82","69.36","IGLOOLIK A","2402546","2022-02-22 10:00","2022","02","22","10:00","-35.1","","-38.7","","70","","","M","30","","17","","","M","100.72","","","","-48","","NA"
"-81.82","69.36","IGLOOLIK A","2402546","2022-02-22 11:00","2022","02","22","11:00","-34.7","","-38.3","","71","","","M","29","","13","","","M","100.70","","","","-46","","NA"
"-81.82","69.36","IGLOOLIK A","2402546","2022-02-22 12:00","2022","02","22","12:00","-34.0","","-37.6","","71","","","M","28","","15","","","M","100.69","","","","-46","","NA"
"-81.82","69.36","IGLOOLIK A","2402546","2022-02-22 13:00","2022","02","22","13:00","-33.2","","-36.8","","71","","","M","29","","9","","","M","100.70","","","","-42","","NA"
"-81.82","69.36","IGLOOLIK A","2402546","2022-02-22 14:00","2022","02","22","14:00","-32.4","","-35.9","","72","","","M","35","","8","","","M","100.72","","","","-41","","NA"
"-81.82","69.36","IGLOOLIK A","2402546","2022-02-22 15:00","2022","02","22","15:00","-32.8","","-36.3","","72","","","M","28","","6","","","M","100.73","","","","-40","","NA"
"-81.82","69.36","IGLOOLIK A","2402546","2022-02-22 16:00","2022","02","22","16:00","-32.8","","-36.2","","72","","","M","33","","14","","","M","100.75","","","","-44","","NA"
"-81.82","69.36","IGLOOLIK A","2402546","2022-02-22 17:00","2022","02","22","17:00","-33.0","","-36.5","","72","","","M","34","","14","","","M","100.80","","","","-45","","NA"
"-81.82","69.36","IGLOOLIK A","2402546","2022-02-22 18:00","2022","02","22","18:00","-33.3","","-36.8","","72","","","M","32","","18","","","M","100.80","","","","-47","","NA"
"-81.82","69.36","IGLOOLIK A","2402546","2022-02-22 19:00","2022","02","22","19:00","-32.5","","-35.9","","73","","","M","32","","25","","","M","100.80","","","","-48","","NA"
"-81.82","69.36","IGLOOLIK A","2402546","2022-02-22 20:00","2022","02","22","20:00","-33.2","","-36.7","","72","","","M","34","","21","","","M","100.82","","","","-47","","NA"
"-81.82","69.36","IGLOOLIK A","2402546","2022-02-22 21:00","2022","02","22","21:00","-34.0","","-37.6","","71","","","M","30","","21","","","M","100.81","","","","-48","","NA"
"-81.82","69.36","IGLOOLIK A","2402546","2022-02-22 22:00","2022","02","22","22:00","-33.9","","-37.4","","72","","","M","32","","20","","","M","100.82","","","","-48","","NA"
"-81.82","69.36","IGLOOLIK A","2402546","2022-02-22 23:00","2022","02","22","23:00","-34.1","","-37.6","","72","","","M","34","","16","","","M","100.80","","","","-47","","NA"
"-81.82","69.36","IGLOOLIK A","2402546","2022-02-23 00:00","2022","02","23","00:00","-33.2","","-36.7","","72","","","M","33","","14","","","M","100.83","","","","-45","","NA"
"-81.82","69.36","IGLOOLIK A","2402546","2022-02-23 01:00","2022","02","23","01:00","-34.4","","-37.9","","71","","","M","24","","6","","","M","100.87","","","","-42","","NA"
"-81.82","69.36","IGLOOLIK A","2402546","2022-02-23 02:00","2022","02","23","02:00","-34.4","","-37.9","","71","","","M","32","","17","","","M","100.89","","","","-48","","NA"
"-81.82","69.36","IGLOOLIK A","2402546","2022-02-23 03:00","2022","02","23","03:00","-34.6","","-38.1","","71","","","M","32","","16","","","M","100.90","","","","-47","","NA"
"-81.82","69.36","IGLOOLIK A","2402546","2022-02-23 04:00","2022","02","23","04:00","-34.2","","-37.7","","72","","","M","33","","16","","","M","100.93","","","","-47","","NA"
"-81.82","69.36","IGLOOLIK A","2402546","2022-02-23 05:00","2022","02","23","05:00","-34.8","","-38.3","","71","","","M","28","","15","","","M","100.97","","","","-47","","NA"
"-81.82","69.36","IGLOOLIK A","2402546","2022-02-23 06:00","2022","02","23","06:00","-34.5","","-38.0","","71","","","M","32","","17","","","M","100.97","","","","-48","","NA"
"-81.82","69.36","IGLOOLIK A","2402546","2022-02-23 07:00","2022","02","23","07:00","-34.5","","-38.0","","71","","","M","32","","13","","","M","100.96","","","","-46","","NA"
"-81.82","69.36","IGLOOLIK A","2402546","2022-02-23 08:00","2022","02","23","08:00","-34.6","","-38.2","","71","","","M","32","","16","","","M","100.96","","","","-47","","NA"
"-81.82","69.36","IGLOOLIK A","2402546","2022-02-23 09:00","2022","02","23","09:00","-35.2","","-38.9","","71","","","M","30","","14","","","M","101.01","","","","-47","","NA"
"-81.82","69.36","IGLOOLIK A","2402546","2022-02-23 10:00","2022","02","23","10:00","-35.5","","-39.2","","70","","","M","30","","13","","","M","101.01","","","","-47","","NA"
"-81.82","69.36","IGLOOLIK A","2402546","2022-02-23 11:00","2022","02","23","11:00","-34.7","","-38.3","","70","","","M","31","","13","","","M","101.05","","","","-46","","NA"
"-81.82","69.36","IGLOOLIK A","2402546","2022-02-23 12:00","2022","02","23","12:00","-34.6","","-38.3","","70","","","M","33","","13","","","M","101.06","","","","-46","","NA"
"-81.82","69.36","IGLOOLIK A","2402546","2022-02-23 13:00","2022","02","23","13:00","-34.3","","-37.9","","70","","","M","34","","11","","","M","101.07","","","","-45","","NA"
"-81.82","69.36","IGLOOLIK A","2402546","2022-02-23 14:00","2022","02","23","14:00","-33.6","","-37.2","","71","","","M","35","","12","","","M","101.10","","","","-45","","NA"
"-81.82","69.36","IGLOOLIK A","2402546","2022-02-23 15:00","2022","02","23","15:00","-35.5","","-39.1","","70","","","M","29","","9","","","M","101.13","","","","-45","","NA"
"-81.82","69.36","IGLOOLIK A","2402546","2022-02-23 16:00","2022","02","23","16:00","-34.2","","-37.8","","71","","","M","34","","9","","","M","101.17","","","","-44","","NA"
"-81.82","69.36","IGLOOLIK A","2402546","2022-02-23 17:00","2022","02","23","17:00","-34.2","","-37.8","","71","","","M","1","","10","","","M","101.22","","","","-44","","NA"
"-81.82","69.36","IGLOOLIK A","2402546","2022-02-23 18:00","2022","02","23","18:00","-34.6","","-38.2","","71","","","M","34","","8","","","M","101.24","","","","-43","","NA"
"-81.82","69.36","IGLOOLIK A","2402546","2022-02-23 19:00","2022","02","23","19:00","-35.6","","-39.2","","70","","","M","32","","11","","","M","101.26","","","","-46","","NA"
"-81.82","69.36","IGLOOLIK A","2402546","2022-02-23 20:00","2022","02","23","20:00","-36.8","","-40.4","","70","","","M","29","","10","","","M","101.25","","","","-47","","NA"
"-81.82","69.36","IGLOOLIK A","2402546","2022-02-23 21:00","2022","02","23","21:00","-35.1","","-38.6","","71","","","M","36","","11","","","M","101.25","","","","-46","","NA"
"-81.82","69.36","IGLOOLIK A","2402546","2022-02-23 22:00","2022","02","23","22:00","-35.4","","-39.0","","70","","","M","33","","10","","","M","101.23","","","","-46","","NA"
"-81.82","69.36","IGLOOLIK A","2402546","2022-02-23 23:00","2022","02","23","23:00","-36.9","","-40.6","","70","","","M","35","","8","","","M","101.23","","","","-46","","NA"
"-81.82","69.36","IGLOOLIK A","2402546","2022-02-24 00:00","2022","02","24","00:00","-35.3","","-38.9","","71","","","M","36","","10","","","M","101.20","","","","-45","","NA"
"-81.82","69.36","IGLOOLIK A","2402546","2022-02-24 01:00","2022","02","24","01:00","-36.6","","-40.3","","70","","","M","35","","9","","","M","101.19","","","","-46","","NA"
"-81.82","69.36","IGLOOLIK A","2402546","2022-02-24 02:00","2022","02","24","02:00","-38.3","","-42.0","","69","","","M","32","","5","","","M","101.20","","","","-45","","NA"
"-81.82","69.36","IGLOOLIK A","2402546","2022-02-24 03:00","2022","02","24","03:00","-35.9","","-39.5","","70","","","M","36","","7","","","M","101.17","","","","-44","","NA"
"-81.82","69.36","IGLOOLIK A","2402546","2022-02-24 04:00","2022","02","24","04:00","-36.0","","-39.7","","70","","","M","5","","7","","","M","101.17","","","","-44","","NA"
"-81.82","69.36","IGLOOLIK A","2402546","2022-02-24 05:00","2022","02","24","05:00","-38.0","","-41.7","","69","","","M","30","","5","","","M","101.17","","","","-45","","NA"
"-81.82","69.36","IGLOOLIK A","2402546","2022-02-24 06:00","2022","02","24","06:00","-36.8","","-40.5","","70","","","M","30","","4","","","M","101.13","","","","-42","","NA"
"-81.82","69.36","IGLOOLIK A","2402546","2022-02-24 07:00","2022","02","24","07:00","-38.0","","-41.8","","69","","","M","29","","7","","","M","101.10","","","","-47","","NA"
"-81.82","69.36","IGLOOLIK A","2402546","2022-02-24 08:00","2022","02","24","08:00","-36.6","","-40.3","","70","","","M","28","","11","","","M","101.05","","","","-48","","NA"
"-81.82","69.36","IGLOOLIK A","2402546","2022-02-24 09:00","2022","02","24","09:00","-37.0","","-40.7","","69","","","M","28","","7","","","M","100.98","","","","-45","","NA"
"-81.82","69.36","IGLOOLIK A","2402546","2022-02-24 10:00","2022","02","24","10:00","-35.2","","-38.9","","70","","","M","29","","6","","","M","100.94","","","","-42","","NA"
"-81.82","69.36","IGLOOLIK A","2402546","2022-02-24 11:00","2022","02","24","11:00","-36.2","","-40.0","","69","","","M","29","","8","","","M","100.88","","","","-45","","NA"
"-81.82","69.36","IGLOOLIK A","2402546","2022-02-24 12:00","2022","02","24","12:00","-35.6","","-39.3","","69","","","M","28","","7","","","M","100.81","","","","-44","","NA"
"-81.82","69.36","IGLOOLIK A","2402546","2022-02-24 13:00","2022","02","24","13:00","-34.6","","-38.3","","70","","","M","29","","7","","","M","100.78","","","","-43","","NA"
"-81.82","69.36","IGLOOLIK A","2402546","2022-02-24 14:00","2022","02","24","14:00","-35.4","","-39.2","","69","","","M","15","","5","","","M","100.75","","","","-42","","NA"
"-81.82","69.36","IGLOOLIK A","2402546","2022-02-24 15:00","2022","02","24","15:00","-35.2","","-38.9","","70","","","M","15","","6","","","M","100.71","","","","-42","","NA"
"-81.82","69.36","IGLOOLIK A","2402546","2022-02-24 16:00","2022","02","24","16:00","-34.2","","-37.8","","70","","","M","20","","4","","","M","100.65","","","","-39","","NA"
"-81.82","69.36","IGLOOLIK A","2402546","2022-02-24 17:00","2022","02","24","17:00","-36.9","","-40.7","","69","","","M","27","","12","","","M","100.63","","","","-49","","NA"
"-81.82","69.36","IGLOOLIK A","2402546","2022-02-24 18:00","2022","02","24","18:00","-35.2","","-38.9","","70","","","M","25","","7","","","M","100.57","","","","-43","","NA"
"-81.82","69.36","IGLOOLIK A","2402546","2022-02-24 19:00","2022","02","24","19:00","-35.2","","-38.8","","70","","","M","18","","5","","","M","100.49","","","","-42","","NA"
"-81.82","69.36","IGLOOLIK A","2402546","2022-02-24 20:00","2022","02","24","20:00","-35.6","","-39.2","","70","","","M","26","","7","","","M","100.41","","","","-44","","NA"
"-81.82","69.36","IGLOOLIK A","2402546","2022-02-24 21:00","2022","02","24","21:00","-35.3","","-38.9","","71","","","M","17","","3","","","M","100.35","","","","-39","","NA"
"-81.82","69.36","IGLOOLIK A","2402546","2022-02-24 22:00","2022","02","24","22:00","-35.4","","-39.0","","71","","","M","29","","6","","","M","100.29","","","","-43","","NA"
"-81.82","69.36","IGLOOLIK A","2402546","2022-02-24 23:00","2022","02","24","23:00","-36.2","","-39.9","","70","","","M","30","","8","","","M","100.21","","","","-45","","NA"
"-81.82","69.36","IGLOOLIK A","2402546","2022-02-25 00:00","2022","02","25","00:00","-35.6","","-39.2","","70","","","M","33","","5","","","M","100.13","","","","-42","","NA"
"-81.82","69.36","IGLOOLIK A","2402546","2022-02-25 01:00","2022","02","25","01:00","-36.4","","-40.1","","70","","","M","1","","5","","","M","100.06","","","","-43","","NA"
"-81.82","69.36","IGLOOLIK A","2402546","2022-02-25 02:00","2022","02","25","02:00","-35.3","","-38.9","","71","","","M","11","","9","","","M","100.02","","","","-45","","NA"
"-81.82","69.36","IGLOOLIK A","2402546","2022-02-25 03:00","2022","02","25","03:00","-37.9","","-41.6","","69","","","M","32","","3","","","M","99.99","","","","-42","","NA"
"-81.82","69.36","IGLOOLIK A","2402546","2022-02-25 04:00","2022","02","25","04:00","-37.1","","-40.8","","69","","","M","34","","2","","","M","99.97","","","","-40","","NA"
"-81.82","69.36","IGLOOLIK A","2402546","2022-02-25 05:00","2022","02","25","05:00","-37.1","","-40.8","","69","","","M","33","","7","","","M","99.91","","","","-46","","NA"
"-81.82","69.36","IGLOOLIK A","2402546","2022-02-25 06:00","2022","02","25","06:00","-37.0","","-40.7","","69","","","M","3","","10","","","M","99.87","","","","-48","","NA"
"-81.82","69.36","IGLOOLIK A","2402546","2022-02-25 07:00","2022","02","25","07:00","-36.1","","-39.8","","70","","","M","4","","7","","","M","99.84","","","","-44","","NA"
"-81.82","69.36","IGLOOLIK A","2402546","2022-02-25 08:00","2022","02","25","08:00","-37.2","","-40.9","","69","","","M","1","","10","","","M","99.80","","","","-48","","NA"
"-81.82","69.36","IGLOOLIK A","2402546","2022-02-25 09:00","2022","02","25","09:00","-38.2","","-42.0","","68","","","M","32","","10","","","M","99.76","","","","-49","","NA"
"-81.82","69.36","IGLOOLIK A","2402546","2022-02-25 10:00","2022","02","25","10:00","-37.2","","-41.0","","69","","","M","34","","10","","","M","99.72","","","","-48","","NA"
"-81.82","69.36","IGLOOLIK A","2402546","2022-02-25 11:00","2022","02","25","11:00","-35.8","","-39.5","","69","","","M","36","","11","","","M","99.67","","","","-47","","NA"
"-81.82","69.36","IGLOOLIK A","2402546","2022-02-25 12:00","2022","02","25","12:00","-36.1","","-39.9","","69","","","M","34","","10","","","M","99.63","","","","-46","","NA"
"-81.82","69.36","IGLOOLIK A","2402546","2022-02-25 13:00","2022","02","25","13:00","-36.9","","-40.7","","69","","","M","34","","9","","","M","99.60","","","","-47","","NA"
"-81.82","69.36","IGLOOLIK A","2402546","2022-02-25 14:00","2022","02","25","14:00","-35.7","","-39.5","","69","","","M","34","","8","","","M","99.60","","","","-45","","NA"
"-81.82","69.36","IGLOOLIK A","2402546","2022-02-25 15:00","2022","02","25","15:00","-37.0","","-40.8","","69","","","M","29","","14","","","M","99.56","","","","-50","","NA"
"-81.82","69.36","IGLOOLIK A","2402546","2022-02-25 16:00","2022","02","25","16:00","-36.3","","-40.0","","69","","","M","32","","12","","","M","99.56","","","","-48","","NA"
"-81.82","69.36","IGLOOLIK A","2402546","2022-02-25 17:00","2022","02","25","17:00","-35.1","","-38.7","","70","","","M","32","","13","","","M","99.54","","","","-47","","NA"
"-81.82","69.36","IGLOOLIK A","2402546","2022-02-25 18:00","2022","02","25","18:00","-35.0","","-38.6","","70","","","M","31","","10","","","M","99.52","","","","-45","","NA"
"-81.82","69.36","IGLOOLIK A","2402546","2022-02-25 19:00","2022","02","25","19:00","-34.2","","-37.8","","71","","","M","31","","11","","","M","99.50","","","","-45","","NA"
"-81.82","69.36","IGLOOLIK A","2402546","2022-02-25 20:00","2022","02","25","20:00","-35.0","","-38.6","","70","","","M","33","","21","","","M","99.46","","","","-50","","NA"
"-81.82","69.36","IGLOOLIK A","2402546","2022-02-25 21:00","2022","02","25","21:00","-35.9","","-39.5","","70","","","M","31","","17","","","M","99.43","","","","-49","","NA"
"-81.82","69.36","IGLOOLIK A","2402546","2022-02-25 22:00","2022","02","25","22:00","-34.1","","-37.6","","71","","","M","33","","17","","","M","99.37","","","","-47","","NA"
"-81.82","69.36","IGLOOLIK A","2402546","2022-02-25 23:00","2022","02","25","23:00","-33.4","","-36.9","","72","","","M","31","","18","","","M","99.29","","","","-47","","NA"
"-81.82","69.36","IGLOOLIK A","2402546","2022-02-26 00:00","2022","02","26","00:00","-32.3","","-35.8","","72","","","M","33","","21","","","M","99.24","","","","-46","","NA"
"-81.82","69.36","IGLOOLIK A","2402546","2022-02-26 01:00","2022","02","26","01:00","-30.9","","-34.2","","73","","","M","32","","15","","","M","99.21","","","","-43","","NA"
"-81.82","69.36","IGLOOLIK A","2402546","2022-02-26 02:00","2022","02","26","02:00","-30.8","","-34.2","","73","","","M","33","","23","","","M","99.15","","","","-45","","NA"
"-81.82","69.36","IGLOOLIK A","2402546","2022-02-26 03:00","2022","02","26","03:00","-30.9","","-34.2","","73","","","M","33","","24","","","M","99.11","","","","-45","","NA"
"-81.82","69.36","IGLOOLIK A","2402546","2022-02-26 04:00","2022","02","26","04:00","-30.1","","-33.3","","74","","","M","32","","22","","","M","99.11","","","","-44","","NA"
"-81.82","69.36","IGLOOLIK A","2402546","2022-02-26 05:00","2022","02","26","05:00","-30.4","","-33.7","","73","","","M","34","","25","","","M","99.08","","","","-45","","NA"
"-81.82","69.36","IGLOOLIK A","2402546","2022-02-26 06:00","2022","02","26","06:00","-31.2","","-34.6","","73","","","M","34","","25","","","M","99.04","","","","-46","","NA"
"-81.82","69.36","IGLOOLIK A","2402546","2022-02-26 07:00","2022","02","26","07:00","-30.0","","-33.3","","74","","","M","31","","23","","","M","99.05","","","","-44","","NA"
"-81.82","69.36","IGLOOLIK A","2402546","2022-02-26 08:00","2022","02","26","08:00","-29.1","","-32.2","","75","","","M","32","","23","","","M","99.02","","","","-43","","NA"
"-81.82","69.36","IGLOOLIK A","2402546","2022-02-26 09:00","2022","02","26","09:00","-29.5","","-32.7","","74","","","M","32","","22","","","M","98.98","","","","-43","","NA"
"-81.82","69.36","IGLOOLIK A","2402546","2022-02-26 10:00","2022","02","26","10:00","-29.7","","-33.0","","74","","","M","33","","32","","","M","98.92","","","","-46","","NA"
"-81.82","69.36","IGLOOLIK A","2402546","2022-02-26 11:00","2022","02","26","11:00","-29.7","","-33.0","","74","","","M","31","","20","","","M","98.93","","","","-43","","NA"
"-81.82","69.36","IGLOOLIK A","2402546","2022-02-26 12:00","2022","02","26","12:00","-29.6","","-32.9","","74","","","M","33","","26","","","M","98.89","","","","-44","","NA"
"-81.82","69.36","IGLOOLIK A","2402546","2022-02-26 13:00","2022","02","26","13:00","-29.2","","-32.5","","74","","","M","33","","24","","","M","98.90","","","","-43","","NA"
"-81.82","69.36","IGLOOLIK A","2402546","2022-02-26 14:00","2022","02","26","14:00","-29.5","","-32.8","","74","","","M","32","","17","","","M","98.92","","","","-42","","NA"
"-81.82","69.36","IGLOOLIK A","2402546","2022-02-26 15:00","2022","02","26","15:00","-29.2","","-32.4","","74","","","M","31","","15","","","M","98.91","","","","-40","","NA"
"-81.82","69.36","IGLOOLIK A","2402546","2022-02-26 16:00","2022","02","26","16:00","-28.9","","-32.2","","74","","","M","33","","26","","","M","98.90","","","","-43","","NA"
"-81.82","69.36","IGLOOLIK A","2402546","2022-02-26 17:00","2022","02","26","17:00","-28.9","","-32.1","","75","","","M","33","","22","","","M","98.91","","","","-42","","NA"
"-81.82","69.36","IGLOOLIK A","2402546","2022-02-26 18:00","2022","02","26","18:00","-28.9","","-32.0","","75","","","M","30","","16","","","M","98.93","","","","-40","","NA"
"-81.82","69.36","IGLOOLIK A","2402546","2022-02-26 19:00","2022","02","26","19:00","-29.9","","-33.2","","74","","","M","33","","12","","","M","98.95","","","","-40","","NA"
"-81.82","69.36","IGLOOLIK A","2402546","2022-02-26 20:00","2022","02","26","20:00","-30.2","","-33.5","","74","","","M","32","","12","","","M","98.95","","","","-40","","NA"
"-81.82","69.36","IGLOOLIK A","2402546","2022-02-26 21:00","2022","02","26","21:00","-29.3","","-32.4","","75","","","M","34","","34","","","M","98.91","","","","-46","","NA"
"-81.82","69.36","IGLOOLIK A","2402546","2022-02-26 22:00","2022","02","26","22:00","-30.3","","-33.6","","74","","","M","27","","12","","","M","98.93","","","","-41","","NA"
"-81.82","69.36","IGLOOLIK A","2402546","2022-02-26 23:00","2022","02","26","23:00","-30.4","","-33.7","","74","","","M","30","","14","","","M","98.91","","","","-42","","NA"
"-81.82","69.36","IGLOOLIK A","2402546","2022-02-27 00:00","2022","02","27","00:00","-30.5","","-33.8","","74","","","M","31","","19","","","M","98.91","","","","-43","","NA"
"-81.82","69.36","IGLOOLIK A","2402546","2022-02-27 01:00","2022","02","27","01:00","-29.6","","-32.8","","75","","","M","31","","26","","","M","98.92","","","","-44","","NA"
"-81.82","69.36","IGLOOLIK A","2402546","2022-02-27 02:00","2022","02","27","02:00","-31.7","","-35.0","","73","","","M","31","","21","","","M","98.90","","","","-46","","NA"
"-81.82","69.36","IGLOOLIK A","2402546","2022-02-27 03:00","2022","02","27","03:00","-30.6","","-33.8","","74","","","M","32","","22","","","M","98.92","","","","-44","","NA"
"-81.82","69.36","IGLOOLIK A","2402546","2022-02-27 04:00","2022","02","27","04:00","-30.6","","-33.8","","74","","","M","31","","11","","","M","98.97","","","","-40","","NA"
"-81.82","69.36","IGLOOLIK A","2402546","2022-02-27 05:00","2022","02","27","05:00","-32.2","","-35.6","","73","","","M","31","","16","","","M","99.00","","","","-45","","NA"
"-81.82","69.36","IGLOOLIK A","2402546","2022-02-27 06:00","2022","02","27","06:00","-32.9","","-36.3","","72","","","M","31","","24","","","M","99.00","","","","-48","","NA"
"-81.82","69.36","IGLOOLIK A","2402546","2022-02-27 07:00","2022","02","27","07:00","-32.0","","-35.3","","73","","","M","31","","25","","","M","98.99","","","","-47","","NA"
"-81.82","69.36","IGLOOLIK A","2402546","2022-02-27 08:00","2022","02","27","08:00","-32.9","","-36.3","","72","","","M","33","","16","","","M","99.04","","","","-45","","NA"
"-81.82","69.36","IGLOOLIK A","2402546","2022-02-27 09:00","2022","02","27","09:00","-32.4","","-35.8","","72","","","M","33","","22","","","M","99.05","","","","-47","","NA"
"-81.82","69.36","IGLOOLIK A","2402546","2022-02-27 10:00","2022","02","27","10:00","-31.0","","-34.4","","73","","","M","33","","12","","","M","99.11","","","","-41","","NA"
"-81.82","69.36","IGLOOLIK A","2402546","2022-02-27 11:00","2022","02","27","11:00","-32.6","","-36.1","","72","","","M","31","","10","","","M","99.16","","","","-42","","NA"
"-81.82","69.36","IGLOOLIK A","2402546","2022-02-27 12:00","2022","02","27","12:00","-31.7","","-35.1","","72","","","M","32","","13","","","M","99.19","","","","-43","","NA"
"-81.82","69.36","IGLOOLIK A","2402546","2022-02-27 13:00","2022","02","27","13:00","-31.9","","-35.4","","72","","","M","32","","17","","","M","99.24","","","","-44","","NA"
"-81.82","69.36","IGLOOLIK A","2402546","2022-02-27 14:00","2022","02","27","14:00","-31.6","","-35.0","","72","","","M","33","","27","","","M","99.27","","","","-47","","NA"
"-81.82","69.36","IGLOOLIK A","2402546","2022-02-27 15:00","2022","02","27","15:00","-32.0","","-35.4","","73","","","M","32","","18","","","M","99.32","","","","-45","","NA"
"-81.82","69.36","IGLOOLIK A","2402546","2022-02-27 16:00","2022","02","27","16:00","-32.7","","-36.2","","72","","","M","30","","18","","","M","99.39","","","","-46","","NA"
"-81.82","69.36","IGLOOLIK A","2402546","2022-02-27 17:00","2022","02","27","17:00","-32.5","","-35.9","","72","","","M","30","","19","","","M","99.48","","","","-46","","NA"
"-81.82","69.36","IGLOOLIK A","2402546","2022-02-27 18:00","2022","02","27","18:00","-34.0","","-37.5","","71","","","M","32","","12","","","M","99.53","","","","-45","","NA"
"-81.82","69.36","IGLOOLIK A","2402546","2022-02-27 19:00","2022","02","27","19:00","-34.0","","-37.5","","71","","","M","32","","19","","","M","99.56","","","","-48","","NA"
"-81.82","69.36","IGLOOLIK A","2402546","2022-02-27 20:00","2022","02","27","20:00","-34.2","","-37.7","","71","","","M","31","","16","","","M","99.59","","","","-47","","NA"
"-81.82","69.36","IGLOOLIK A","2402546","2022-02-27 21:00","2022","02","27","21:00","-34.1","","-37.6","","71","","","M","31","","13","","","M","99.62","","","","-46","","NA"
"-81.82","69.36","IGLOOLIK A","2402546","2022-02-27 22:00","2022","02","27","22:00","-34.5","","-38.0","","71","","","M","31","","19","","","M","99.63","","","","-48","","NA"
"-81.82","69.36","IGLOOLIK A","2402546","2022-02-27 23:00","2022","02","27","23:00","-35.4","","-38.9","","71","","","M","31","","18","","","M","99.66","","","","-49","","NA"
"-81.82","69.36","IGLOOLIK A","2402546","2022-02-28 00:00","2022","02","28","00:00","-35.4","","-38.9","","71","","","M","32","","16","","","M","99.74","","","","-48","","NA"
"-81.82","69.36","IGLOOLIK A","2402546","2022-02-28 01:00","2022","02","28","01:00","-34.6","","-38.2","","71","","","M","30","","15","","","M","99.77","","","","-47","","NA"
"-81.82","69.36","IGLOOLIK A","2402546","2022-02-28 02:00","2022","02","28","02:00","-35.5","","-39.1","","70","","","M","32","","14","","","M","99.82","","","","-48","","NA"
"-81.82","69.36","IGLOOLIK A","2402546","2022-02-28 03:00","2022","02","28","03:00","-34.3","","-37.9","","71","","","M","33","","14","","","M","99.86","","","","-46","","NA"
"-81.82","69.36","IGLOOLIK A","2402546","2022-02-28 04:00","2022","02","28","04:00","-34.8","","-38.4","","71","","","M","33","","13","","","M","99.93","","","","-46","","NA"
"-81.82","69.36","IGLOOLIK A","2402546","2022-02-28 05:00","2022","02","28","05:00","-35.0","","-38.6","","71","","","M","30","","20","","","M","99.91","","","","-49","","NA"
"-81.82","69.36","IGLOOLIK A","2402546","2022-02-28 06:00","2022","02","28","06:00","-35.0","","-38.6","","71","","","M","33","","18","","","M","99.98","","","","-49","","NA"
"-81.82","69.36","IGLOOLIK A","2402546","2022-02-28 07:00","2022","02","28","07:00","-34.5","","-38.0","","71","","","M","34","","17","","","M","100.03","","","","-48","","NA"
"-81.82","69.36","IGLOOLIK A","2402546","2022-02-28 08:00","2022","02","28","08:00","-35.3","","-38.9","","71","","","M","33","","20","","","M","100.08","","","","-50","","NA"
"-81.82","69.36","IGLOOLIK A","2402546","2022-02-28 09:00","2022","02","28","09:00","-35.3","","-39.0","","70","","","M","34","","19","","","M","100.13","","","","-49","","NA"
"-81.82","69.36","IGLOOLIK A","2402546","2022-02-28 10:00","2022","02","28","10:00","-35.2","","-38.8","","70","","","M","34","","20","","","M","100.18","","","","-50","","NA"
"-81.82","69.36","IGLOOLIK A","2402546","2022-02-28 11:00","2022","02","28","11:00","-34.1","","-37.7","","71","","","M","33","","18","","","M","100.20","","","","-48","","NA"
"-81.82","69.36","IGLOOLIK A","2402546","2022-02-28 12:00","2022","02","28","12:00","-32.8","","-36.3","","71","","","M","35","","19","","","M","100.21","","","","-46","","NA"
"-81.82","69.36","IGLOOLIK A","2402546","2022-02-28 13:00","2022","02","28","13:00","-31.9","","-35.3","","72","","","M","34","","21","","","M","100.23","","","","-46","","NA"
"-81.82","69.36","IGLOOLIK A","2402546","2022-02-28 14:00","2022","02","28","14:00","-31.3","","-34.8","","72","","","M","35","","24","","","M","100.26","","","","-46","","NA"
"-81.82","69.36","IGLOOLIK A","2402546","2022-02-28 15:00","2022","02","28","15:00","-31.3","","-34.7","","73","","","M","34","","26","","","M","100.29","","","","-46","","NA"
"-81.82","69.36","IGLOOLIK A","2402546","2022-02-28 16:00","2022","02","28","16:00","-31.3","","-34.7","","73","","","M","34","","26","","","M","100.32","","","","-46","","NA"
"-81.82","69.36","IGLOOLIK A","2402546","2022-02-28 17:00","2022","02","28","17:00","-31.8","","-35.2","","73","","","M","34","","22","","","M","100.35","","","","-46","","NA"
"-81.82","69.36","IGLOOLIK A","2402546","2022-02-28 18:00","2022","02","28","18:00","-31.7","","-35.0","","73","","","M","33","","23","","","M","100.36","","","","-46","","NA"
"-81.82","69.36","IGLOOLIK A","2402546","2022-02-28 19:00","2022","02","28","19:00","-31.3","","-34.6","","73","","","M","33","","21","","","M","100.37","","","","-45","","NA"
"-81.82","69.36","IGLOOLIK A","2402546","2022-02-28 20:00","2022","02","28","20:00","-31.1","","-34.4","","73","","","M","33","","21","","","M","100.40","","","","-45","","NA"
"-81.82","69.36","IGLOOLIK A","2402546","2022-02-28 21:00","2022","02","28","21:00","-31.0","","-34.3","","73","","","M","32","","16","","","M","100.39","","","","-43","","NA"
"-81.82","69.36","IGLOOLIK A","2402546","2022-02-28 22:00","2022","02","28","22:00","-30.7","","-34.0","","74","","","M","35","","25","","","M","100.40","","","","-45","","NA"
"-81.82","69.36","IGLOOLIK A","2402546","2022-02-28 23:00","2022","02","28","23:00","-31.0","","-34.4","","73","","","M","33","","26","","","M","100.38","","","","-46","","NA"
