"Longitude (x)","Latitude (y)","Station Name","Climate ID","Date/Time (LST)","Year","Month","Day","Time (LST)","Temp (°C)","Temp Flag","Dew Point Temp (°C)","Dew Point Temp Flag","Rel Hum (%)","Rel Hum Flag","Precip. Amount (mm)","Precip. Amount Flag","Wind Dir (10s deg)","Wind Dir Flag","Wind Spd (km/h)","Wind Spd Flag","Visibility (km)","Visibility Flag","Stn Press (kPa)","Stn Press Flag","Hmdx","Hmdx Flag","Wind Chill","Wind Chill Flag","Weather"
"-112.16","74.46","CAPE PROVIDENCE","2501419","2018-05-01 00:00","2018","05","01","00:00","-20.3","","-22.0","","86","","","M","35","","2","","","","101.04","","","","-22","","NA"
"-112.16","74.46","CAPE PROVIDENCE","2501419","2018-05-01 01:00","2018","05","01","01:00","-20.7","","-22.6","","85","","","M","0","","1","","","","101.03","","","","-22","","NA"
"-112.16","74.46","CAPE PROVIDENCE","2501419","2018-05-01 02:00","2018","05","01","02:00","-20.8","","-22.3","","87","","","M","29","","5","","","","101.01","","","","-25","","NA"
"-112.16","74.46","CAPE PROVIDENCE","2501419","2018-05-01 03:00","2018","05","01","03:00","-20.2","","-21.8","","87","","","M","25","","4","","","","101.01","","","","-24","","NA"
"-112.16","74.46","CAPE PROVIDENCE","2501419","2018-05-01 04:00","2018","05","01","04:00","-20.5","","-22.2","","86","","","M","14","","1","","","","100.98","","","","-21","","NA"
"-112.16","74.46","CAPE PROVIDENCE","2501419","2018-05-01 05:00","2018","05","01","05:00","-19.9","","-21.5","","87","","","M","23","","4","","","","100.97","","","","-23","","NA"
"-112.16","74.46","CAPE PROVIDENCE","2501419","2018-05-01 06:00","2018","05","01","06:00","-19.8","","-21.4","","87","","","M","15","","6","","","","100.94","","","","-25","","NA"
"-112.16","74.46","CAPE PROVIDENCE","2501419","2018-05-01 07:00","2018","05","01","07:00","-19.5","","-21.1","","87","","","M","18","","2","","","","100.93","","","","-21","","NA"
"-112.16","74.46","CAPE PROVIDENCE","2501419","2018-05-01 08:00","2018","05","01","08:00","-19.6","","-21.2","","87","","","M","15","","4","","","","100.90","","","","-23","","NA"
"-112.16","74.46","CAPE PROVIDENCE","2501419","2018-05-01 09:00","2018","05","01","09:00","-18.8","","-20.3","","89","","","M","16","","2","","","","100.87","","","","-20","","NA"
"-112.16","74.46","CAPE PROVIDENCE","2501419","2018-05-01 10:00","2018","05","01","10:00","-18.1","","-19.2","","91","","","M","18","","3","","","","100.85","","","","-21","","NA"
"-112.16","74.46","CAPE PROVIDENCE","2501419","2018-05-01 11:00","2018","05","01","11:00","-18.8","","-20.4","","87","","","M","10","","3","","","","100.83","","","","-21","","NA"
"-112.16","74.46","CAPE PROVIDENCE","2501419","2018-05-01 12:00","2018","05","01","12:00","-18.4","","-19.9","","88","","","M","12","","5","","","","100.82","","","","-22","","NA"
"-112.16","74.46","CAPE PROVIDENCE","2501419","2018-05-01 13:00","2018","05","01","13:00","-18.1","","-19.8","","87","","","M","13","","4","","","","100.81","","","","-21","","NA"
"-112.16","74.46","CAPE PROVIDENCE","2501419","2018-05-01 14:00","2018","05","01","14:00","-17.9","","-19.4","","88","","","M","13","","5","","","","100.79","","","","-22","","NA"
"-112.16","74.46","CAPE PROVIDENCE","2501419","2018-05-01 15:00","2018","05","01","15:00","-17.2","","-18.5","","89","","","M","10","","3","","","","100.77","","","","-20","","NA"
"-112.16","74.46","CAPE PROVIDENCE","2501419","2018-05-01 16:00","2018","05","01","16:00","-17.8","","-19.4","","87","","","M","12","","6","","","","100.75","","","","-22","","NA"
"-112.16","74.46","CAPE PROVIDENCE","2501419","2018-05-01 17:00","2018","05","01","17:00","-17.6","","-19.2","","88","","","M","12","","4","","","","100.73","","","","-21","","NA"
"-112.16","74.46","CAPE PROVIDENCE","2501419","2018-05-01 18:00","2018","05","01","18:00","-18.1","","-19.7","","87","","","M","11","","8","","","","100.73","","","","-24","","NA"
"-112.16","74.46","CAPE PROVIDENCE","2501419","2018-05-01 19:00","2018","05","01","19:00","-17.6","","-19.1","","88","","","M","25","","1","","","","100.72","","","","-18","","NA"
"-112.16","74.46","CAPE PROVIDENCE","2501419","2018-05-01 20:00","2018","05","01","20:00","-18.2","","-19.7","","88","","","M","11","","4","","","","100.70","","","","-21","","NA"
"-112.16","74.46","CAPE PROVIDENCE","2501419","2018-05-01 21:00","2018","05","01","21:00","-18.3","","-19.7","","88","","","M","12","","5","","","","100.69","","","","-22","","NA"
"-112.16","74.46","CAPE PROVIDENCE","2501419","2018-05-01 22:00","2018","05","01","22:00","-18.3","","-19.7","","88","","","M","12","","4","","","","100.69","","","","-22","","NA"
"-112.16","74.46","CAPE PROVIDENCE","2501419","2018-05-01 23:00","2018","05","01","23:00","-18.8","","-20.4","","88","","","M","2","","8","","","","100.70","","","","-25","","NA"
"-112.16","74.46","CAPE PROVIDENCE","2501419","2018-05-02 00:00","2018","05","02","00:00","-19.5","","-21.1","","87","","","M","33","","11","","","","100.68","","","","-27","","NA"
"-112.16","74.46","CAPE PROVIDENCE","2501419","2018-05-02 01:00","2018","05","02","01:00","-19.7","","-21.2","","87","","","M","33","","11","","","","100.66","","","","-27","","NA"
"-112.16","74.46","CAPE PROVIDENCE","2501419","2018-05-02 02:00","2018","05","02","02:00","-20.1","","-21.8","","86","","","M","33","","11","","","","100.66","","","","-28","","NA"
"-112.16","74.46","CAPE PROVIDENCE","2501419","2018-05-02 03:00","2018","05","02","03:00","-19.8","","-21.5","","87","","","M","36","","6","","","","100.66","","","","-25","","NA"
"-112.16","74.46","CAPE PROVIDENCE","2501419","2018-05-02 04:00","2018","05","02","04:00","-21.0","","-22.8","","85","","","M","30","","11","","","","100.68","","","","-29","","NA"
"-112.16","74.46","CAPE PROVIDENCE","2501419","2018-05-02 05:00","2018","05","02","05:00","-21.4","","-23.2","","85","","","M","30","","9","","","","100.68","","","","-28","","NA"
"-112.16","74.46","CAPE PROVIDENCE","2501419","2018-05-02 06:00","2018","05","02","06:00","-20.5","","-22.2","","86","","","M","30","","6","","","","100.69","","","","-26","","NA"
"-112.16","74.46","CAPE PROVIDENCE","2501419","2018-05-02 07:00","2018","05","02","07:00","-20.2","","-22.0","","86","","","M","29","","12","","","","100.68","","","","-28","","NA"
"-112.16","74.46","CAPE PROVIDENCE","2501419","2018-05-02 08:00","2018","05","02","08:00","-19.6","","-21.3","","86","","","M","29","","10","","","","100.67","","","","-27","","NA"
"-112.16","74.46","CAPE PROVIDENCE","2501419","2018-05-02 09:00","2018","05","02","09:00","-19.3","","-21.1","","86","","","M","29","","11","","","","100.67","","","","-27","","NA"
"-112.16","74.46","CAPE PROVIDENCE","2501419","2018-05-02 10:00","2018","05","02","10:00","-18.0","","-19.7","","87","","","M","25","","7","","","","100.67","","","","-23","","NA"
"-112.16","74.46","CAPE PROVIDENCE","2501419","2018-05-02 11:00","2018","05","02","11:00","-17.6","","-19.4","","86","","","M","21","","12","","","","100.63","","","","-25","","NA"
"-112.16","74.46","CAPE PROVIDENCE","2501419","2018-05-02 12:00","2018","05","02","12:00","-17.2","","-18.8","","87","","","M","23","","15","","","","100.64","","","","-26","","NA"
"-112.16","74.46","CAPE PROVIDENCE","2501419","2018-05-02 13:00","2018","05","02","13:00","-16.9","","-18.8","","85","","","M","28","","13","","","","100.65","","","","-25","","NA"
"-112.16","74.46","CAPE PROVIDENCE","2501419","2018-05-02 14:00","2018","05","02","14:00","-16.7","","-18.8","","84","","","M","29","","10","","","","100.68","","","","-23","","NA"
"-112.16","74.46","CAPE PROVIDENCE","2501419","2018-05-02 15:00","2018","05","02","15:00","-16.8","","-19.1","","82","","","M","29","","14","","","","100.68","","","","-25","","NA"
"-112.16","74.46","CAPE PROVIDENCE","2501419","2018-05-02 16:00","2018","05","02","16:00","-17.4","","-19.7","","82","","","M","29","","15","","","","100.70","","","","-26","","NA"
"-112.16","74.46","CAPE PROVIDENCE","2501419","2018-05-02 17:00","2018","05","02","17:00","-17.3","","-19.6","","82","","","M","27","","13","","","","100.69","","","","-25","","NA"
"-112.16","74.46","CAPE PROVIDENCE","2501419","2018-05-02 18:00","2018","05","02","18:00","-17.0","","-19.7","","80","","","M","25","","11","","","","100.69","","","","-24","","NA"
"-112.16","74.46","CAPE PROVIDENCE","2501419","2018-05-02 19:00","2018","05","02","19:00","-16.7","","-19.9","","76","","","M","25","","8","","","","100.67","","","","-22","","NA"
"-112.16","74.46","CAPE PROVIDENCE","2501419","2018-05-02 20:00","2018","05","02","20:00","-17.2","","-20.4","","76","","","M","26","","12","","","","100.66","","","","-25","","NA"
"-112.16","74.46","CAPE PROVIDENCE","2501419","2018-05-02 21:00","2018","05","02","21:00","-17.9","","-21.3","","75","","","M","29","","10","","","","100.66","","","","-25","","NA"
"-112.16","74.46","CAPE PROVIDENCE","2501419","2018-05-02 22:00","2018","05","02","22:00","-18.8","","-21.9","","77","","","M","27","","13","","","","100.64","","","","-27","","NA"
"-112.16","74.46","CAPE PROVIDENCE","2501419","2018-05-02 23:00","2018","05","02","23:00","-19.8","","-22.6","","79","","","M","29","","30","","","","100.59","","","","-32","","NA"
"-112.16","74.46","CAPE PROVIDENCE","2501419","2018-05-03 00:00","2018","05","03","00:00","-19.6","","-22.6","","77","","","M","29","","22","","","","100.58","","","","-30","","NA"
"-112.16","74.46","CAPE PROVIDENCE","2501419","2018-05-03 01:00","2018","05","03","01:00","-19.8","","-23.1","","74","","","M","30","","18","","","","100.61","","","","-30","","NA"
"-112.16","74.46","CAPE PROVIDENCE","2501419","2018-05-03 02:00","2018","05","03","02:00","-18.5","","-22.0","","73","","","M","29","","20","","","","100.59","","","","-29","","NA"
"-112.16","74.46","CAPE PROVIDENCE","2501419","2018-05-03 03:00","2018","05","03","03:00","-18.6","","-22.1","","74","","","M","26","","14","","","","100.59","","","","-27","","NA"
"-112.16","74.46","CAPE PROVIDENCE","2501419","2018-05-03 04:00","2018","05","03","04:00","-18.4","","-21.9","","74","","","M","15","","4","","","","100.58","","","","-22","","NA"
"-112.16","74.46","CAPE PROVIDENCE","2501419","2018-05-03 05:00","2018","05","03","05:00","-16.7","","-20.6","","72","","","M","29","","34","","","","100.53","","","","-29","","NA"
"-112.16","74.46","CAPE PROVIDENCE","2501419","2018-05-03 06:00","2018","05","03","06:00","-15.7","","-19.5","","73","","","M","30","","19","","","","100.53","","","","-25","","NA"
"-112.16","74.46","CAPE PROVIDENCE","2501419","2018-05-03 07:00","2018","05","03","07:00","-15.4","","-19.4","","71","","","M","26","","10","","","","100.49","","","","-22","","NA"
"-112.16","74.46","CAPE PROVIDENCE","2501419","2018-05-03 08:00","2018","05","03","08:00","-14.6","","-18.0","","75","","","M","23","","10","","","","100.50","","","","-21","","NA"
"-112.16","74.46","CAPE PROVIDENCE","2501419","2018-05-03 09:00","2018","05","03","09:00","-14.5","","-17.4","","78","","","M","29","","47","","","","100.43","","","","-28","","NA"
"-112.16","74.46","CAPE PROVIDENCE","2501419","2018-05-03 10:00","2018","05","03","10:00","-13.5","","-16.6","","77","","","M","28","","40","","","","100.48","","","","-25","","NA"
"-112.16","74.46","CAPE PROVIDENCE","2501419","2018-05-03 11:00","2018","05","03","11:00","-13.1","","-16.6","","75","","","M","27","","34","","","","100.54","","","","-24","","NA"
"-112.16","74.46","CAPE PROVIDENCE","2501419","2018-05-03 12:00","2018","05","03","12:00","-12.9","","-16.3","","75","","","M","28","","37","","","","100.47","","","","-24","","NA"
"-112.16","74.46","CAPE PROVIDENCE","2501419","2018-05-03 13:00","2018","05","03","13:00","-12.8","","-16.4","","74","","","M","28","","36","","","","100.45","","","","-24","","NA"
"-112.16","74.46","CAPE PROVIDENCE","2501419","2018-05-03 14:00","2018","05","03","14:00","-12.2","","-15.4","","77","","","M","25","","33","","","","100.45","","","","-23","","NA"
"-112.16","74.46","CAPE PROVIDENCE","2501419","2018-05-03 15:00","2018","05","03","15:00","-12.3","","-15.5","","77","","","M","25","","31","","","","100.45","","","","-23","","NA"
"-112.16","74.46","CAPE PROVIDENCE","2501419","2018-05-03 16:00","2018","05","03","16:00","-11.5","","-13.9","","82","","","M","26","","30","","","","100.45","","","","-21","","NA"
"-112.16","74.46","CAPE PROVIDENCE","2501419","2018-05-03 17:00","2018","05","03","17:00","-11.9","","-15.1","","77","","","M","26","","31","","","","100.44","","","","-22","","NA"
"-112.16","74.46","CAPE PROVIDENCE","2501419","2018-05-03 18:00","2018","05","03","18:00","-11.8","","-14.9","","77","","","M","28","","33","","","","100.37","","","","-22","","NA"
"-112.16","74.46","CAPE PROVIDENCE","2501419","2018-05-03 19:00","2018","05","03","19:00","-11.6","","-14.6","","78","","","M","28","","36","","","","100.38","","","","-22","","NA"
"-112.16","74.46","CAPE PROVIDENCE","2501419","2018-05-03 20:00","2018","05","03","20:00","-11.3","","-14.2","","79","","","M","26","","22","","","","100.38","","","","-20","","NA"
"-112.16","74.46","CAPE PROVIDENCE","2501419","2018-05-03 21:00","2018","05","03","21:00","-11.0","","-13.7","","81","","","M","28","","38","","","","100.31","","","","-22","","NA"
"-112.16","74.46","CAPE PROVIDENCE","2501419","2018-05-03 22:00","2018","05","03","22:00","-11.2","","-13.7","","82","","","M","28","","44","","","","100.28","","","","-23","","NA"
"-112.16","74.46","CAPE PROVIDENCE","2501419","2018-05-03 23:00","2018","05","03","23:00","-11.2","","-14.1","","79","","","M","28","","42","","","","100.30","","","","-23","","NA"
"-112.16","74.46","CAPE PROVIDENCE","2501419","2018-05-04 00:00","2018","05","04","00:00","-11.5","","-14.2","","81","","","M","28","","53","","","","100.25","","","","-24","","NA"
"-112.16","74.46","CAPE PROVIDENCE","2501419","2018-05-04 01:00","2018","05","04","01:00","-11.8","","-14.3","","81","","","M","28","","45","","","","100.26","","","","-24","","NA"
"-112.16","74.46","CAPE PROVIDENCE","2501419","2018-05-04 02:00","2018","05","04","02:00","-12.0","","-14.6","","81","","","M","27","","42","","","","100.28","","","","-24","","NA"
"-112.16","74.46","CAPE PROVIDENCE","2501419","2018-05-04 03:00","2018","05","04","03:00","-12.3","","-15.2","","79","","","M","28","","43","","","","100.29","","","","-24","","NA"
"-112.16","74.46","CAPE PROVIDENCE","2501419","2018-05-04 04:00","2018","05","04","04:00","-12.8","","-15.7","","79","","","M","28","","44","","","","100.31","","","","-25","","NA"
"-112.16","74.46","CAPE PROVIDENCE","2501419","2018-05-04 05:00","2018","05","04","05:00","-12.8","","-15.9","","77","","","M","25","","13","","","","100.39","","","","-20","","NA"
"-112.16","74.46","CAPE PROVIDENCE","2501419","2018-05-04 06:00","2018","05","04","06:00","-12.8","","-16.2","","76","","","M","29","","26","","","","100.35","","","","-23","","NA"
"-112.16","74.46","CAPE PROVIDENCE","2501419","2018-05-04 07:00","2018","05","04","07:00","-12.7","","-16.0","","76","","","M","30","","30","","","","100.33","","","","-23","","NA"
"-112.16","74.46","CAPE PROVIDENCE","2501419","2018-05-04 08:00","2018","05","04","08:00","-12.5","","-16.1","","74","","","M","27","","24","","","","100.32","","","","-22","","NA"
"-112.16","74.46","CAPE PROVIDENCE","2501419","2018-05-04 09:00","2018","05","04","09:00","-12.7","","-16.2","","75","","","M","27","","22","","","","100.33","","","","-22","","NA"
"-112.16","74.46","CAPE PROVIDENCE","2501419","2018-05-04 10:00","2018","05","04","10:00","-12.6","","-16.0","","76","","","M","27","","30","","","","100.32","","","","-23","","NA"
"-112.16","74.46","CAPE PROVIDENCE","2501419","2018-05-04 11:00","2018","05","04","11:00","-12.4","","-16.3","","73","","","M","26","","30","","","","100.32","","","","-23","","NA"
"-112.16","74.46","CAPE PROVIDENCE","2501419","2018-05-04 12:00","2018","05","04","12:00","-11.7","","-15.8","","72","","","M","25","","31","","","","100.31","","","","-22","","NA"
"-112.16","74.46","CAPE PROVIDENCE","2501419","2018-05-04 13:00","2018","05","04","13:00","-12.1","","-15.7","","75","","","M","29","","36","","","","100.29","","","","-23","","NA"
"-112.16","74.46","CAPE PROVIDENCE","2501419","2018-05-04 14:00","2018","05","04","14:00","-11.7","","-15.2","","75","","","M","28","","37","","","","100.31","","","","-23","","NA"
"-112.16","74.46","CAPE PROVIDENCE","2501419","2018-05-04 15:00","2018","05","04","15:00","-11.5","","-15.1","","75","","","M","29","","35","","","","100.34","","","","-22","","NA"
"-112.16","74.46","CAPE PROVIDENCE","2501419","2018-05-04 16:00","2018","05","04","16:00","-11.3","","-15.1","","74","","","M","27","","27","","","","100.38","","","","-21","","NA"
"-112.16","74.46","CAPE PROVIDENCE","2501419","2018-05-04 17:00","2018","05","04","17:00","-12.0","","-15.8","","73","","","M","29","","31","","","","100.39","","","","-22","","NA"
"-112.16","74.46","CAPE PROVIDENCE","2501419","2018-05-04 18:00","2018","05","04","18:00","-12.4","","-16.1","","74","","","M","30","","26","","","","100.43","","","","-22","","NA"
"-112.16","74.46","CAPE PROVIDENCE","2501419","2018-05-04 19:00","2018","05","04","19:00","-12.5","","-16.2","","74","","","M","28","","18","","","","100.44","","","","-21","","NA"
"-112.16","74.46","CAPE PROVIDENCE","2501419","2018-05-04 20:00","2018","05","04","20:00","-12.8","","-16.1","","76","","","M","26","","20","","","","100.46","","","","-21","","NA"
"-112.16","74.46","CAPE PROVIDENCE","2501419","2018-05-04 21:00","2018","05","04","21:00","-12.8","","-15.8","","78","","","M","26","","17","","","","100.44","","","","-21","","NA"
"-112.16","74.46","CAPE PROVIDENCE","2501419","2018-05-04 22:00","2018","05","04","22:00","-13.2","","-16.1","","79","","","M","27","","15","","","","100.46","","","","-21","","NA"
"-112.16","74.46","CAPE PROVIDENCE","2501419","2018-05-04 23:00","2018","05","04","23:00","-13.5","","-16.4","","79","","","M","26","","15","","","","100.48","","","","-21","","NA"
"-112.16","74.46","CAPE PROVIDENCE","2501419","2018-05-05 00:00","2018","05","05","00:00","-13.9","","-16.7","","79","","","M","27","","14","","","","100.47","","","","-21","","NA"
"-112.16","74.46","CAPE PROVIDENCE","2501419","2018-05-05 01:00","2018","05","05","01:00","-16.1","","-18.9","","79","","","M","29","","15","","","","100.48","","","","-24","","NA"
"-112.16","74.46","CAPE PROVIDENCE","2501419","2018-05-05 02:00","2018","05","05","02:00","-17.3","","-20.4","","77","","","M","31","","22","","","","100.49","","","","-28","","NA"
"-112.16","74.46","CAPE PROVIDENCE","2501419","2018-05-05 03:00","2018","05","05","03:00","-17.3","","-21.4","","70","","","M","23","","3","","","","100.53","","","","-20","","NA"
"-112.16","74.46","CAPE PROVIDENCE","2501419","2018-05-05 04:00","2018","05","05","04:00","-17.0","","-21.9","","66","","","M","33","","6","","","","100.54","","","","-22","","NA"
"-112.16","74.46","CAPE PROVIDENCE","2501419","2018-05-05 05:00","2018","05","05","05:00","-18.5","","-22.2","","72","","","M","8","","7","","","","100.55","","","","-24","","NA"
"-112.16","74.46","CAPE PROVIDENCE","2501419","2018-05-05 06:00","2018","05","05","06:00","-18.2","","-22.1","","71","","","M","33","","12","","","","100.55","","","","-26","","NA"
"-112.16","74.46","CAPE PROVIDENCE","2501419","2018-05-05 07:00","2018","05","05","07:00","-17.6","","-21.3","","73","","","M","34","","13","","","","100.54","","","","-25","","NA"
"-112.16","74.46","CAPE PROVIDENCE","2501419","2018-05-05 08:00","2018","05","05","08:00","-17.1","","-21.0","","71","","","M","34","","10","","","","100.53","","","","-24","","NA"
"-112.16","74.46","CAPE PROVIDENCE","2501419","2018-05-05 09:00","2018","05","05","09:00","-16.8","","-20.3","","74","","","M","35","","12","","","","100.52","","","","-24","","NA"
"-112.16","74.46","CAPE PROVIDENCE","2501419","2018-05-05 10:00","2018","05","05","10:00","-16.2","","-19.4","","76","","","M","1","","15","","","","100.52","","","","-24","","NA"
"-112.16","74.46","CAPE PROVIDENCE","2501419","2018-05-05 11:00","2018","05","05","11:00","-16.1","","-19.7","","73","","","M","4","","10","","","","100.52","","","","-23","","NA"
"-112.16","74.46","CAPE PROVIDENCE","2501419","2018-05-05 12:00","2018","05","05","12:00","-16.2","","-19.7","","75","","","M","5","","13","","","","100.55","","","","-24","","NA"
"-112.16","74.46","CAPE PROVIDENCE","2501419","2018-05-05 13:00","2018","05","05","13:00","-15.5","","-19.5","","72","","","M","3","","7","","","","100.56","","","","-20","","NA"
"-112.16","74.46","CAPE PROVIDENCE","2501419","2018-05-05 14:00","2018","05","05","14:00","-15.4","","-19.4","","71","","","M","7","","6","","","","100.56","","","","-20","","NA"
"-112.16","74.46","CAPE PROVIDENCE","2501419","2018-05-05 15:00","2018","05","05","15:00","-14.2","","-19.1","","66","","","M","5","","2","","","","100.59","","","","-16","","NA"
"-112.16","74.46","CAPE PROVIDENCE","2501419","2018-05-05 16:00","2018","05","05","16:00","-15.5","","-18.6","","77","","","M","20","","6","","","","100.59","","","","-20","","NA"
"-112.16","74.46","CAPE PROVIDENCE","2501419","2018-05-05 17:00","2018","05","05","17:00","-15.5","","-18.6","","77","","","M","18","","5","","","","100.59","","","","-19","","NA"
"-112.16","74.46","CAPE PROVIDENCE","2501419","2018-05-05 18:00","2018","05","05","18:00","-15.2","","-18.6","","76","","","M","17","","3","","","","100.59","","","","-17","","NA"
"-112.16","74.46","CAPE PROVIDENCE","2501419","2018-05-05 19:00","2018","05","05","19:00","-15.1","","-19.0","","72","","","M","3","","6","","","","100.59","","","","-19","","NA"
"-112.16","74.46","CAPE PROVIDENCE","2501419","2018-05-05 20:00","2018","05","05","20:00","-15.5","","-18.3","","79","","","M","9","","5","","","","100.61","","","","-19","","NA"
"-112.16","74.46","CAPE PROVIDENCE","2501419","2018-05-05 21:00","2018","05","05","21:00","-15.3","","-18.5","","76","","","M","12","","1","","","","100.62","","","","-16","","NA"
"-112.16","74.46","CAPE PROVIDENCE","2501419","2018-05-05 22:00","2018","05","05","22:00","-17.4","","-20.7","","76","","","M","33","","10","","","","100.64","","","","-24","","NA"
"-112.16","74.46","CAPE PROVIDENCE","2501419","2018-05-05 23:00","2018","05","05","23:00","-18.3","","-21.5","","77","","","M","30","","16","","","","100.67","","","","-27","","NA"
"-112.16","74.46","CAPE PROVIDENCE","2501419","2018-05-06 00:00","2018","05","06","00:00","-19.0","","-21.9","","77","","","M","29","","19","","","","100.69","","","","-29","","NA"
"-112.16","74.46","CAPE PROVIDENCE","2501419","2018-05-06 01:00","2018","05","06","01:00","-19.6","","-22.7","","76","","","M","28","","17","","","","100.74","","","","-29","","NA"
"-112.16","74.46","CAPE PROVIDENCE","2501419","2018-05-06 02:00","2018","05","06","02:00","-19.9","","-23.1","","76","","","M","28","","8","","","","100.75","","","","-26","","NA"
"-112.16","74.46","CAPE PROVIDENCE","2501419","2018-05-06 03:00","2018","05","06","03:00","-18.7","","-22.5","","72","","","M","29","","15","","","","100.76","","","","-27","","NA"
"-112.16","74.46","CAPE PROVIDENCE","2501419","2018-05-06 04:00","2018","05","06","04:00","-18.3","","-21.9","","73","","","M","27","","9","","","","100.79","","","","-25","","NA"
"-112.16","74.46","CAPE PROVIDENCE","2501419","2018-05-06 05:00","2018","05","06","05:00","-18.7","","-21.6","","78","","","M","28","","19","","","","100.80","","","","-29","","NA"
"-112.16","74.46","CAPE PROVIDENCE","2501419","2018-05-06 06:00","2018","05","06","06:00","-17.9","","-21.5","","73","","","M","21","","3","","","","100.81","","","","-20","","NA"
"-112.16","74.46","CAPE PROVIDENCE","2501419","2018-05-06 07:00","2018","05","06","07:00","-18.4","","-21.2","","79","","","M","20","","6","","","","100.82","","","","-23","","NA"
"-112.16","74.46","CAPE PROVIDENCE","2501419","2018-05-06 08:00","2018","05","06","08:00","-15.4","","-18.8","","75","","","M","25","","2","","","","100.84","","","","-17","","NA"
"-112.16","74.46","CAPE PROVIDENCE","2501419","2018-05-06 09:00","2018","05","06","09:00","-15.5","","-19.1","","74","","","M","29","","14","","","","100.83","","","","-23","","NA"
"-112.16","74.46","CAPE PROVIDENCE","2501419","2018-05-06 10:00","2018","05","06","10:00","-15.9","","-18.5","","80","","","M","22","","16","","","","100.85","","","","-24","","NA"
"-112.16","74.46","CAPE PROVIDENCE","2501419","2018-05-06 11:00","2018","05","06","11:00","-14.0","","-18.0","","72","","","M","29","","14","","","","100.84","","","","-21","","NA"
"-112.16","74.46","CAPE PROVIDENCE","2501419","2018-05-06 12:00","2018","05","06","12:00","-13.2","","-16.9","","74","","","M","31","","19","","","","100.85","","","","-22","","NA"
"-112.16","74.46","CAPE PROVIDENCE","2501419","2018-05-06 13:00","2018","05","06","13:00","-12.8","","-16.5","","73","","","M","31","","24","","","","100.86","","","","-22","","NA"
"-112.16","74.46","CAPE PROVIDENCE","2501419","2018-05-06 14:00","2018","05","06","14:00","-12.4","","-16.0","","74","","","M","32","","21","","","","100.90","","","","-21","","NA"
"-112.16","74.46","CAPE PROVIDENCE","2501419","2018-05-06 15:00","2018","05","06","15:00","-12.4","","-16.2","","74","","","M","31","","24","","","","100.94","","","","-22","","NA"
"-112.16","74.46","CAPE PROVIDENCE","2501419","2018-05-06 16:00","2018","05","06","16:00","-12.0","","-15.4","","76","","","M","30","","23","","","","100.97","","","","-21","","NA"
"-112.16","74.46","CAPE PROVIDENCE","2501419","2018-05-06 17:00","2018","05","06","17:00","-12.3","","-16.0","","74","","","M","32","","23","","","","101.00","","","","-21","","NA"
"-112.16","74.46","CAPE PROVIDENCE","2501419","2018-05-06 18:00","2018","05","06","18:00","-12.5","","-15.7","","77","","","M","31","","26","","","","101.02","","","","-22","","NA"
"-112.16","74.46","CAPE PROVIDENCE","2501419","2018-05-06 19:00","2018","05","06","19:00","-12.7","","-16.0","","76","","","M","31","","26","","","","101.02","","","","-22","","NA"
"-112.16","74.46","CAPE PROVIDENCE","2501419","2018-05-06 20:00","2018","05","06","20:00","-12.8","","-15.6","","79","","","M","32","","24","","","","101.03","","","","-22","","NA"
"-112.16","74.46","CAPE PROVIDENCE","2501419","2018-05-06 21:00","2018","05","06","21:00","-12.9","","-15.8","","79","","","M","32","","28","","","","101.02","","","","-23","","NA"
"-112.16","74.46","CAPE PROVIDENCE","2501419","2018-05-06 22:00","2018","05","06","22:00","-13.1","","-15.7","","81","","","M","32","","24","","","","101.05","","","","-23","","NA"
"-112.16","74.46","CAPE PROVIDENCE","2501419","2018-05-06 23:00","2018","05","06","23:00","-13.5","","-16.2","","80","","","M","32","","28","","","","101.07","","","","-24","","NA"
"-112.16","74.46","CAPE PROVIDENCE","2501419","2018-05-07 00:00","2018","05","07","00:00","-15.5","","-18.0","","81","","","M","29","","26","","","","101.10","","","","-26","","NA"
"-112.16","74.46","CAPE PROVIDENCE","2501419","2018-05-07 01:00","2018","05","07","01:00","-16.7","","-19.2","","81","","","M","30","","30","","","","101.12","","","","-28","","NA"
"-112.16","74.46","CAPE PROVIDENCE","2501419","2018-05-07 02:00","2018","05","07","02:00","-16.3","","-18.5","","83","","","M","31","","29","","","","101.13","","","","-28","","NA"
"-112.16","74.46","CAPE PROVIDENCE","2501419","2018-05-07 03:00","2018","05","07","03:00","-14.7","","-16.9","","83","","","M","32","","27","","","","101.15","","","","-25","","NA"
"-112.16","74.46","CAPE PROVIDENCE","2501419","2018-05-07 04:00","2018","05","07","04:00","-14.9","","-17.6","","80","","","M","31","","30","","","","101.17","","","","-26","","NA"
"-112.16","74.46","CAPE PROVIDENCE","2501419","2018-05-07 05:00","2018","05","07","05:00","-14.9","","-17.8","","79","","","M","31","","32","","","","101.20","","","","-26","","NA"
"-112.16","74.46","CAPE PROVIDENCE","2501419","2018-05-07 06:00","2018","05","07","06:00","-14.4","","-17.2","","79","","","M","30","","30","","","","101.20","","","","-25","","NA"
"-112.16","74.46","CAPE PROVIDENCE","2501419","2018-05-07 07:00","2018","05","07","07:00","-13.6","","-16.5","","79","","","M","30","","26","","","","101.17","","","","-24","","NA"
"-112.16","74.46","CAPE PROVIDENCE","2501419","2018-05-07 08:00","2018","05","07","08:00","-13.3","","-16.5","","77","","","M","29","","26","","","","101.18","","","","-23","","NA"
"-112.16","74.46","CAPE PROVIDENCE","2501419","2018-05-07 09:00","2018","05","07","09:00","-12.5","","-15.8","","77","","","M","30","","30","","","","101.15","","","","-23","","NA"
"-112.16","74.46","CAPE PROVIDENCE","2501419","2018-05-07 10:00","2018","05","07","10:00","-11.1","","-14.1","","78","","","M","30","","34","","","","101.11","","","","-22","","NA"
"-112.16","74.46","CAPE PROVIDENCE","2501419","2018-05-07 11:00","2018","05","07","11:00","-10.3","","-13.1","","80","","","M","30","","37","","","","101.09","","","","-21","","NA"
"-112.16","74.46","CAPE PROVIDENCE","2501419","2018-05-07 12:00","2018","05","07","12:00","-9.9","","-12.4","","81","","","M","30","","38","","","","101.10","","","","-20","","NA"
"-112.16","74.46","CAPE PROVIDENCE","2501419","2018-05-07 13:00","2018","05","07","13:00","-9.6","","-12.7","","78","","","M","30","","31","","","","101.11","","","","-19","","NA"
"-112.16","74.46","CAPE PROVIDENCE","2501419","2018-05-07 14:00","2018","05","07","14:00","-8.9","","-12.0","","78","","","M","24","","15","","","","101.16","","","","-15","","NA"
"-112.16","74.46","CAPE PROVIDENCE","2501419","2018-05-07 15:00","2018","05","07","15:00","-9.4","","-11.8","","82","","","M","30","","49","","","","101.03","","","","-21","","NA"
"-112.16","74.46","CAPE PROVIDENCE","2501419","2018-05-07 16:00","2018","05","07","16:00","-8.8","","-11.4","","82","","","M","30","","54","","","","101.00","","","","-20","","NA"
"-112.16","74.46","CAPE PROVIDENCE","2501419","2018-05-07 17:00","2018","05","07","17:00","-8.9","","-11.6","","81","","","M","30","","55","","","","101.03","","","","-21","","NA"
"-112.16","74.46","CAPE PROVIDENCE","2501419","2018-05-07 18:00","2018","05","07","18:00","-8.5","","-11.2","","81","","","M","30","","48","","","","101.00","","","","-20","","NA"
"-112.16","74.46","CAPE PROVIDENCE","2501419","2018-05-07 19:00","2018","05","07","19:00","-8.7","","-11.4","","81","","","M","29","","52","","","","100.97","","","","-20","","NA"
"-112.16","74.46","CAPE PROVIDENCE","2501419","2018-05-07 20:00","2018","05","07","20:00","-8.7","","-11.3","","81","","","M","29","","52","","","","100.94","","","","-20","","NA"
"-112.16","74.46","CAPE PROVIDENCE","2501419","2018-05-07 21:00","2018","05","07","21:00","-8.9","","-11.4","","82","","","M","30","","46","","","","100.93","","","","-20","","NA"
"-112.16","74.46","CAPE PROVIDENCE","2501419","2018-05-07 22:00","2018","05","07","22:00","-9.2","","-11.8","","82","","","M","29","","37","","","","101.02","","","","-19","","NA"
"-112.16","74.46","CAPE PROVIDENCE","2501419","2018-05-07 23:00","2018","05","07","23:00","-9.7","","-12.3","","81","","","M","29","","31","","","","101.03","","","","-19","","NA"
"-112.16","74.46","CAPE PROVIDENCE","2501419","2018-05-08 00:00","2018","05","08","00:00","-9.0","","-11.4","","82","","","M","28","","35","","","","101.02","","","","-19","","NA"
"-112.16","74.46","CAPE PROVIDENCE","2501419","2018-05-08 01:00","2018","05","08","01:00","-9.1","","-11.3","","84","","","M","28","","32","","","","101.01","","","","-19","","NA"
"-112.16","74.46","CAPE PROVIDENCE","2501419","2018-05-08 02:00","2018","05","08","02:00","-9.3","","-11.2","","86","","","M","30","","35","","","","100.95","","","","-19","","NA"
"-112.16","74.46","CAPE PROVIDENCE","2501419","2018-05-08 03:00","2018","05","08","03:00","-7.8","","-10.1","","83","","","M","30","","49","","","","100.83","","","","-19","","NA"
"-112.16","74.46","CAPE PROVIDENCE","2501419","2018-05-08 04:00","2018","05","08","04:00","-7.9","","-10.1","","84","","","M","30","","48","","","","100.85","","","","-19","","NA"
"-112.16","74.46","CAPE PROVIDENCE","2501419","2018-05-08 05:00","2018","05","08","05:00","-6.8","","-9.2","","84","","","M","31","","54","","","","100.81","","","","-18","","NA"
"-112.16","74.46","CAPE PROVIDENCE","2501419","2018-05-08 06:00","2018","05","08","06:00","-6.5","","-9.1","","82","","","M","31","","42","","","","100.90","","","","-16","","NA"
"-112.16","74.46","CAPE PROVIDENCE","2501419","2018-05-08 07:00","2018","05","08","07:00","-5.9","","-8.4","","82","","","M","30","","37","","","","100.94","","","","-15","","NA"
"-112.16","74.46","CAPE PROVIDENCE","2501419","2018-05-08 08:00","2018","05","08","08:00","-5.2","","-7.8","","82","","","M","30","","34","","","","100.99","","","","-14","","NA"
"-112.16","74.46","CAPE PROVIDENCE","2501419","2018-05-08 09:00","2018","05","08","09:00","-4.0","","-7.2","","79","","","M","31","","31","","","","101.02","","","","-12","","NA"
"-112.16","74.46","CAPE PROVIDENCE","2501419","2018-05-08 10:00","2018","05","08","10:00","-3.9","","-6.7","","81","","","M","29","","27","","","","101.09","","","","-11","","NA"
"-112.16","74.46","CAPE PROVIDENCE","2501419","2018-05-08 11:00","2018","05","08","11:00","-3.1","","-5.9","","81","","","M","29","","24","","","","101.15","","","","-10","","NA"
"-112.16","74.46","CAPE PROVIDENCE","2501419","2018-05-08 12:00","2018","05","08","12:00","-2.7","","-5.9","","79","","","M","29","","24","","","","101.21","","","","-9","","NA"
"-112.16","74.46","CAPE PROVIDENCE","2501419","2018-05-08 13:00","2018","05","08","13:00","-2.3","","-5.7","","78","","","M","31","","25","","","","101.26","","","","-9","","NA"
"-112.16","74.46","CAPE PROVIDENCE","2501419","2018-05-08 14:00","2018","05","08","14:00","-2.8","","-6.9","","73","","","M","1","","16","","","","101.31","","","","-8","","NA"
"-112.16","74.46","CAPE PROVIDENCE","2501419","2018-05-08 15:00","2018","05","08","15:00","-3.1","","-7.3","","73","","","M","1","","24","","","","101.37","","","","-10","","NA"
"-112.16","74.46","CAPE PROVIDENCE","2501419","2018-05-08 16:00","2018","05","08","16:00","-3.7","","-7.8","","73","","","M","3","","13","","","","101.46","","","","-9","","NA"
"-112.16","74.46","CAPE PROVIDENCE","2501419","2018-05-08 17:00","2018","05","08","17:00","-4.3","","-8.2","","74","","","M","1","","13","","","","101.52","","","","-9","","NA"
"-112.16","74.46","CAPE PROVIDENCE","2501419","2018-05-08 18:00","2018","05","08","18:00","-4.9","","-8.6","","76","","","M","3","","11","","","","101.53","","","","-9","","NA"
"-112.16","74.46","CAPE PROVIDENCE","2501419","2018-05-08 19:00","2018","05","08","19:00","-3.8","","-8.3","","71","","","M","31","","2","","","","101.54","","","","-5","","NA"
"-112.16","74.46","CAPE PROVIDENCE","2501419","2018-05-08 20:00","2018","05","08","20:00","-6.1","","-8.1","","86","","","M","23","","10","","","","101.53","","","","-11","","NA"
"-112.16","74.46","CAPE PROVIDENCE","2501419","2018-05-08 21:00","2018","05","08","21:00","-6.7","","-8.7","","85","","","M","24","","18","","","","101.55","","","","-13","","NA"
"-112.16","74.46","CAPE PROVIDENCE","2501419","2018-05-08 22:00","2018","05","08","22:00","-6.2","","-8.6","","83","","","M","29","","12","","","","101.53","","","","-11","","NA"
"-112.16","74.46","CAPE PROVIDENCE","2501419","2018-05-08 23:00","2018","05","08","23:00","-6.9","","-9.4","","82","","","M","32","","19","","","","101.55","","","","-14","","NA"
"-112.16","74.46","CAPE PROVIDENCE","2501419","2018-05-09 00:00","2018","05","09","00:00","-6.2","","-9.3","","79","","","M","31","","38","","","","101.52","","","","-15","","NA"
"-112.16","74.46","CAPE PROVIDENCE","2501419","2018-05-09 01:00","2018","05","09","01:00","-5.3","","-7.4","","85","","","M","27","","13","","","","101.57","","","","-10","","NA"
"-112.16","74.46","CAPE PROVIDENCE","2501419","2018-05-09 02:00","2018","05","09","02:00","-4.6","","-6.7","","86","","","M","30","","35","","","","101.51","","","","-13","","NA"
"-112.16","74.46","CAPE PROVIDENCE","2501419","2018-05-09 03:00","2018","05","09","03:00","-5.0","","-7.0","","86","","","M","30","","31","","","","101.53","","","","-13","","NA"
"-112.16","74.46","CAPE PROVIDENCE","2501419","2018-05-09 04:00","2018","05","09","04:00","-4.9","","-7.5","","82","","","M","31","","32","","","","101.51","","","","-13","","NA"
"-112.16","74.46","CAPE PROVIDENCE","2501419","2018-05-09 05:00","2018","05","09","05:00","-4.7","","-6.6","","87","","","M","30","","36","","","","101.50","","","","-13","","NA"
"-112.16","74.46","CAPE PROVIDENCE","2501419","2018-05-09 06:00","2018","05","09","06:00","-4.3","","-6.2","","86","","","M","30","","36","","","","101.49","","","","-13","","NA"
"-112.16","74.46","CAPE PROVIDENCE","2501419","2018-05-09 07:00","2018","05","09","07:00","-3.9","","-6.1","","84","","","M","31","","36","","","","101.45","","","","-12","","NA"
"-112.16","74.46","CAPE PROVIDENCE","2501419","2018-05-09 08:00","2018","05","09","08:00","-3.5","","-5.6","","86","","","M","30","","42","","","","101.38","","","","-12","","NA"
"-112.16","74.46","CAPE PROVIDENCE","2501419","2018-05-09 09:00","2018","05","09","09:00","-2.7","","-5.2","","83","","","M","31","","49","","","","101.36","","","","-12","","NA"
"-112.16","74.46","CAPE PROVIDENCE","2501419","2018-05-09 10:00","2018","05","09","10:00","-2.6","","-4.8","","85","","","M","30","","37","","","","101.45","","","","-11","","NA"
"-112.16","74.46","CAPE PROVIDENCE","2501419","2018-05-09 11:00","2018","05","09","11:00","-2.2","","-5.0","","81","","","M","24","","9","","","","101.49","","","","-6","","NA"
"-112.16","74.46","CAPE PROVIDENCE","2501419","2018-05-09 12:00","2018","05","09","12:00","-2.3","","-5.4","","80","","","M","29","","31","","","","101.41","","","","-10","","NA"
"-112.16","74.46","CAPE PROVIDENCE","2501419","2018-05-09 13:00","2018","05","09","13:00","-2.4","","-5.4","","80","","","M","31","","44","","","","101.37","","","","-11","","NA"
"-112.16","74.46","CAPE PROVIDENCE","2501419","2018-05-09 14:00","2018","05","09","14:00","-2.4","","-5.4","","80","","","M","31","","40","","","","101.35","","","","-11","","NA"
"-112.16","74.46","CAPE PROVIDENCE","2501419","2018-05-09 15:00","2018","05","09","15:00","-2.6","","-5.3","","82","","","M","30","","34","","","","101.43","","","","-10","","NA"
"-112.16","74.46","CAPE PROVIDENCE","2501419","2018-05-09 16:00","2018","05","09","16:00","-2.8","","-5.5","","82","","","M","30","","34","","","","101.46","","","","-11","","NA"
"-112.16","74.46","CAPE PROVIDENCE","2501419","2018-05-09 17:00","2018","05","09","17:00","-2.9","","-5.6","","82","","","M","30","","38","","","","101.44","","","","-11","","NA"
"-112.16","74.46","CAPE PROVIDENCE","2501419","2018-05-09 18:00","2018","05","09","18:00","-3.5","","-6.2","","82","","","M","30","","33","","","","101.47","","","","-11","","NA"
"-112.16","74.46","CAPE PROVIDENCE","2501419","2018-05-09 19:00","2018","05","09","19:00","-3.7","","-6.2","","83","","","M","29","","29","","","","101.47","","","","-11","","NA"
"-112.16","74.46","CAPE PROVIDENCE","2501419","2018-05-09 20:00","2018","05","09","20:00","-3.8","","-6.3","","82","","","M","31","","30","","","","101.45","","","","-11","","NA"
"-112.16","74.46","CAPE PROVIDENCE","2501419","2018-05-09 21:00","2018","05","09","21:00","-6.0","","-8.3","","84","","","M","32","","20","","","","101.52","","","","-13","","NA"
"-112.16","74.46","CAPE PROVIDENCE","2501419","2018-05-09 22:00","2018","05","09","22:00","-5.8","","-8.2","","83","","","M","31","","18","","","","101.56","","","","-12","","NA"
"-112.16","74.46","CAPE PROVIDENCE","2501419","2018-05-09 23:00","2018","05","09","23:00","-5.9","","-8.3","","83","","","M","32","","12","","","","101.58","","","","-11","","NA"
"-112.16","74.46","CAPE PROVIDENCE","2501419","2018-05-10 00:00","2018","05","10","00:00","-6.2","","-8.6","","83","","","M","31","","19","","","","101.61","","","","-13","","NA"
"-112.16","74.46","CAPE PROVIDENCE","2501419","2018-05-10 01:00","2018","05","10","01:00","-6.5","","-8.7","","84","","","M","30","","15","","","","101.65","","","","-12","","NA"
"-112.16","74.46","CAPE PROVIDENCE","2501419","2018-05-10 02:00","2018","05","10","02:00","-6.1","","-8.7","","82","","","M","31","","12","","","","101.67","","","","-11","","NA"
"-112.16","74.46","CAPE PROVIDENCE","2501419","2018-05-10 03:00","2018","05","10","03:00","-7.1","","-9.7","","82","","","M","32","","17","","","","101.68","","","","-14","","NA"
"-112.16","74.46","CAPE PROVIDENCE","2501419","2018-05-10 04:00","2018","05","10","04:00","-9.3","","-11.5","","84","","","M","2","","27","","","","101.77","","","","-18","","NA"
"-112.16","74.46","CAPE PROVIDENCE","2501419","2018-05-10 05:00","2018","05","10","05:00","-10.3","","-12.7","","83","","","M","1","","19","","","","101.85","","","","-18","","NA"
"-112.16","74.46","CAPE PROVIDENCE","2501419","2018-05-10 06:00","2018","05","10","06:00","-9.6","","-12.1","","82","","","M","1","","22","","","","101.86","","","","-18","","NA"
"-112.16","74.46","CAPE PROVIDENCE","2501419","2018-05-10 07:00","2018","05","10","07:00","-9.6","","-12.3","","81","","","M","2","","30","","","","101.92","","","","-19","","NA"
"-112.16","74.46","CAPE PROVIDENCE","2501419","2018-05-10 08:00","2018","05","10","08:00","-9.6","","-12.5","","79","","","M","2","","35","","","","101.91","","","","-20","","NA"
"-112.16","74.46","CAPE PROVIDENCE","2501419","2018-05-10 09:00","2018","05","10","09:00","-9.6","","-13.0","","76","","","M","2","","31","","","","101.93","","","","-19","","NA"
"-112.16","74.46","CAPE PROVIDENCE","2501419","2018-05-10 10:00","2018","05","10","10:00","-9.5","","-12.9","","76","","","M","36","","29","","","","101.95","","","","-19","","NA"
"-112.16","74.46","CAPE PROVIDENCE","2501419","2018-05-10 11:00","2018","05","10","11:00","-9.1","","-12.8","","75","","","M","1","","28","","","","102.00","","","","-18","","NA"
"-112.16","74.46","CAPE PROVIDENCE","2501419","2018-05-10 12:00","2018","05","10","12:00","-8.8","","-12.7","","73","","","M","36","","21","","","","102.07","","","","-17","","NA"
"-112.16","74.46","CAPE PROVIDENCE","2501419","2018-05-10 13:00","2018","05","10","13:00","-8.6","","-13.1","","70","","","M","34","","17","","","","102.11","","","","-15","","NA"
"-112.16","74.46","CAPE PROVIDENCE","2501419","2018-05-10 14:00","2018","05","10","14:00","-8.0","","-12.4","","71","","","M","36","","16","","","","102.14","","","","-15","","NA"
"-112.16","74.46","CAPE PROVIDENCE","2501419","2018-05-10 15:00","2018","05","10","15:00","-8.2","","-11.9","","74","","","M","1","","12","","","","102.15","","","","-14","","NA"
"-112.16","74.46","CAPE PROVIDENCE","2501419","2018-05-10 16:00","2018","05","10","16:00","-7.7","","-11.9","","72","","","M","35","","8","","","","102.16","","","","-12","","NA"
"-112.16","74.46","CAPE PROVIDENCE","2501419","2018-05-10 17:00","2018","05","10","17:00","-7.0","","-12.0","","67","","","M","29","","3","","","","102.18","","","","-9","","NA"
"-112.16","74.46","CAPE PROVIDENCE","2501419","2018-05-10 18:00","2018","05","10","18:00","-7.5","","-12.4","","68","","","M","26","","11","","","","102.17","","","","-13","","NA"
"-112.16","74.46","CAPE PROVIDENCE","2501419","2018-05-10 19:00","2018","05","10","19:00","-9.3","","-11.7","","83","","","M","20","","11","","","","102.16","","","","-15","","NA"
"-112.16","74.46","CAPE PROVIDENCE","2501419","2018-05-10 20:00","2018","05","10","20:00","-9.8","","-11.9","","85","","","M","20","","8","","","","102.13","","","","-14","","NA"
"-112.16","74.46","CAPE PROVIDENCE","2501419","2018-05-10 21:00","2018","05","10","21:00","-10.5","","-12.4","","86","","","M","21","","6","","","","102.10","","","","-14","","NA"
"-112.16","74.46","CAPE PROVIDENCE","2501419","2018-05-10 22:00","2018","05","10","22:00","-10.9","","-12.8","","86","","","M","16","","3","","","","102.09","","","","-13","","NA"
"-112.16","74.46","CAPE PROVIDENCE","2501419","2018-05-10 23:00","2018","05","10","23:00","-11.3","","-12.5","","91","","","M","22","","11","","","","102.06","","","","-17","","NA"
"-112.16","74.46","CAPE PROVIDENCE","2501419","2018-05-11 00:00","2018","05","11","00:00","-11.2","","-12.6","","89","","","M","22","","5","","","","102.01","","","","-14","","NA"
"-112.16","74.46","CAPE PROVIDENCE","2501419","2018-05-11 01:00","2018","05","11","01:00","-13.3","","-15.2","","86","","","M","29","","14","","","","101.96","","","","-21","","NA"
"-112.16","74.46","CAPE PROVIDENCE","2501419","2018-05-11 02:00","2018","05","11","02:00","-13.7","","-15.9","","84","","","M","29","","9","","","","101.94","","","","-19","","NA"
"-112.16","74.46","CAPE PROVIDENCE","2501419","2018-05-11 03:00","2018","05","11","03:00","-13.3","","-15.0","","87","","","M","35","","2","","","","101.89","","","","-15","","NA"
"-112.16","74.46","CAPE PROVIDENCE","2501419","2018-05-11 04:00","2018","05","11","04:00","-14.3","","-16.4","","84","","","M","11","","1","","","","101.89","","","","-15","","NA"
"-112.16","74.46","CAPE PROVIDENCE","2501419","2018-05-11 05:00","2018","05","11","05:00","-13.5","","-14.7","","91","","","M","1","","1","","","","101.89","","","","-14","","NA"
"-112.16","74.46","CAPE PROVIDENCE","2501419","2018-05-11 06:00","2018","05","11","06:00","-13.2","","-15.0","","87","","","M","16","","3","","","","101.87","","","","-15","","NA"
"-112.16","74.46","CAPE PROVIDENCE","2501419","2018-05-11 07:00","2018","05","11","07:00","-13.5","","-16.0","","81","","","M","18","","2","","","","101.84","","","","-15","","NA"
"-112.16","74.46","CAPE PROVIDENCE","2501419","2018-05-11 08:00","2018","05","11","08:00","-12.5","","-14.5","","85","","","M","19","","9","","","","101.81","","","","-18","","NA"
"-112.16","74.46","CAPE PROVIDENCE","2501419","2018-05-11 09:00","2018","05","11","09:00","-8.9","","-12.5","","75","","","M","1","","16","","","","101.77","","","","-16","","NA"
"-112.16","74.46","CAPE PROVIDENCE","2501419","2018-05-11 10:00","2018","05","11","10:00","-8.5","","-12.9","","70","","","M","36","","18","","","","101.71","","","","-16","","NA"
"-112.16","74.46","CAPE PROVIDENCE","2501419","2018-05-11 11:00","2018","05","11","11:00","-7.6","","-12.4","","68","","","M","34","","15","","","","101.67","","","","-14","","NA"
"-112.16","74.46","CAPE PROVIDENCE","2501419","2018-05-11 12:00","2018","05","11","12:00","-7.4","","-12.7","","66","","","M","29","","14","","","","101.63","","","","-13","","NA"
"-112.16","74.46","CAPE PROVIDENCE","2501419","2018-05-11 13:00","2018","05","11","13:00","-7.1","","-12.1","","67","","","M","32","","20","","","","101.58","","","","-14","","NA"
"-112.16","74.46","CAPE PROVIDENCE","2501419","2018-05-11 14:00","2018","05","11","14:00","-7.3","","-12.1","","68","","","M","33","","21","","","","101.55","","","","-15","","NA"
"-112.16","74.46","CAPE PROVIDENCE","2501419","2018-05-11 15:00","2018","05","11","15:00","-6.8","","-11.9","","67","","","M","31","","23","","","","101.49","","","","-14","","NA"
"-112.16","74.46","CAPE PROVIDENCE","2501419","2018-05-11 16:00","2018","05","11","16:00","-7.0","","-11.8","","69","","","M","31","","29","","","","101.44","","","","-15","","NA"
"-112.16","74.46","CAPE PROVIDENCE","2501419","2018-05-11 17:00","2018","05","11","17:00","-7.3","","-11.9","","70","","","M","30","","26","","","","101.40","","","","-15","","NA"
"-112.16","74.46","CAPE PROVIDENCE","2501419","2018-05-11 18:00","2018","05","11","18:00","-7.4","","-11.7","","71","","","M","30","","31","","","","101.36","","","","-16","","NA"
"-112.16","74.46","CAPE PROVIDENCE","2501419","2018-05-11 19:00","2018","05","11","19:00","-7.2","","-11.2","","73","","","M","29","","21","","","","101.34","","","","-15","","NA"
"-112.16","74.46","CAPE PROVIDENCE","2501419","2018-05-11 20:00","2018","05","11","20:00","-8.0","","-11.2","","77","","","M","30","","27","","","","101.27","","","","-16","","NA"
"-112.16","74.46","CAPE PROVIDENCE","2501419","2018-05-11 21:00","2018","05","11","21:00","-8.5","","-11.6","","78","","","M","30","","25","","","","101.21","","","","-17","","NA"
"-112.16","74.46","CAPE PROVIDENCE","2501419","2018-05-11 22:00","2018","05","11","22:00","-8.5","","-11.5","","79","","","M","28","","28","","","","101.15","","","","-17","","NA"
"-112.16","74.46","CAPE PROVIDENCE","2501419","2018-05-11 23:00","2018","05","11","23:00","-9.0","","-11.9","","80","","","M","28","","25","","","","101.11","","","","-17","","NA"
"-112.16","74.46","CAPE PROVIDENCE","2501419","2018-05-12 00:00","2018","05","12","00:00","-9.0","","-11.7","","81","","","M","29","","22","","","","101.06","","","","-17","","NA"
"-112.16","74.46","CAPE PROVIDENCE","2501419","2018-05-12 01:00","2018","05","12","01:00","-8.7","","-12.2","","76","","","M","34","","18","","","","101.04","","","","-16","","NA"
"-112.16","74.46","CAPE PROVIDENCE","2501419","2018-05-12 02:00","2018","05","12","02:00","-9.5","","-12.9","","76","","","M","35","","18","","","","101.03","","","","-17","","NA"
"-112.16","74.46","CAPE PROVIDENCE","2501419","2018-05-12 03:00","2018","05","12","03:00","-11.2","","-13.8","","81","","","M","32","","23","","","","100.99","","","","-20","","NA"
"-112.16","74.46","CAPE PROVIDENCE","2501419","2018-05-12 04:00","2018","05","12","04:00","-10.4","","-13.1","","81","","","M","33","","25","","","","100.97","","","","-19","","NA"
"-112.16","74.46","CAPE PROVIDENCE","2501419","2018-05-12 05:00","2018","05","12","05:00","-10.1","","-13.3","","77","","","M","33","","26","","","","100.97","","","","-19","","NA"
"-112.16","74.46","CAPE PROVIDENCE","2501419","2018-05-12 06:00","2018","05","12","06:00","-9.9","","-13.7","","74","","","M","34","","33","","","","100.95","","","","-20","","NA"
"-112.16","74.46","CAPE PROVIDENCE","2501419","2018-05-12 07:00","2018","05","12","07:00","-9.5","","-13.0","","76","","","M","34","","39","","","","100.92","","","","-20","","NA"
"-112.16","74.46","CAPE PROVIDENCE","2501419","2018-05-12 08:00","2018","05","12","08:00","-9.2","","-12.4","","78","","","M","35","","27","","","","100.98","","","","-18","","NA"
"-112.16","74.46","CAPE PROVIDENCE","2501419","2018-05-12 09:00","2018","05","12","09:00","-9.5","","-12.3","","80","","","M","1","","37","","","","100.99","","","","-20","","NA"
"-112.16","74.46","CAPE PROVIDENCE","2501419","2018-05-12 10:00","2018","05","12","10:00","-9.4","","-13.4","","72","","","M","1","","34","","","","101.04","","","","-19","","NA"
"-112.16","74.46","CAPE PROVIDENCE","2501419","2018-05-12 11:00","2018","05","12","11:00","-9.7","","-13.5","","74","","","M","2","","32","","","","101.06","","","","-19","","NA"
"-112.16","74.46","CAPE PROVIDENCE","2501419","2018-05-12 12:00","2018","05","12","12:00","-11.8","","-15.3","","75","","","M","1","","48","","","","101.10","","","","-24","","NA"
"-112.16","74.46","CAPE PROVIDENCE","2501419","2018-05-12 13:00","2018","05","12","13:00","-10.8","","-14.1","","77","","","M","1","","39","","","","101.18","","","","-22","","NA"
"-112.16","74.46","CAPE PROVIDENCE","2501419","2018-05-12 14:00","2018","05","12","14:00","-10.9","","-14.3","","76","","","M","1","","40","","","","101.24","","","","-22","","NA"
"-112.16","74.46","CAPE PROVIDENCE","2501419","2018-05-12 15:00","2018","05","12","15:00","-11.0","","-15.5","","69","","","M","1","","37","","","","101.35","","","","-22","","NA"
"-112.16","74.46","CAPE PROVIDENCE","2501419","2018-05-12 16:00","2018","05","12","16:00","-12.1","","-16.5","","70","","","M","2","","42","","","","101.38","","","","-24","","NA"
"-112.16","74.46","CAPE PROVIDENCE","2501419","2018-05-12 17:00","2018","05","12","17:00","-12.8","","-16.4","","74","","","M","2","","39","","","","101.51","","","","-24","","NA"
"-112.16","74.46","CAPE PROVIDENCE","2501419","2018-05-12 18:00","2018","05","12","18:00","-13.4","","-16.4","","78","","","M","1","","40","","","","101.60","","","","-25","","NA"
"-112.16","74.46","CAPE PROVIDENCE","2501419","2018-05-12 19:00","2018","05","12","19:00","-13.8","","-16.8","","78","","","M","1","","29","","","","101.69","","","","-24","","NA"
"-112.16","74.46","CAPE PROVIDENCE","2501419","2018-05-12 20:00","2018","05","12","20:00","-14.1","","-17.2","","77","","","M","36","","33","","","","101.69","","","","-25","","NA"
"-112.16","74.46","CAPE PROVIDENCE","2501419","2018-05-12 21:00","2018","05","12","21:00","-14.4","","-17.4","","78","","","M","36","","35","","","","101.75","","","","-26","","NA"
"-112.16","74.46","CAPE PROVIDENCE","2501419","2018-05-12 22:00","2018","05","12","22:00","-15.0","","-18.0","","78","","","M","35","","32","","","","101.78","","","","-26","","NA"
"-112.16","74.46","CAPE PROVIDENCE","2501419","2018-05-12 23:00","2018","05","12","23:00","-14.8","","-18.1","","76","","","M","34","","27","","","","101.85","","","","-25","","NA"
"-112.16","74.46","CAPE PROVIDENCE","2501419","2018-05-13 00:00","2018","05","13","00:00","-14.7","","-16.9","","83","","","M","34","","33","","","","101.85","","","","-26","","NA"
"-112.16","74.46","CAPE PROVIDENCE","2501419","2018-05-13 01:00","2018","05","13","01:00","-14.2","","-16.6","","82","","","M","36","","30","","","","101.85","","","","-25","","NA"
"-112.16","74.46","CAPE PROVIDENCE","2501419","2018-05-13 02:00","2018","05","13","02:00","-15.0","","-17.5","","81","","","M","32","","26","","","","101.85","","","","-25","","NA"
"-112.16","74.46","CAPE PROVIDENCE","2501419","2018-05-13 03:00","2018","05","13","03:00","-14.4","","-17.6","","77","","","M","30","","8","","","","101.93","","","","-20","","NA"
"-112.16","74.46","CAPE PROVIDENCE","2501419","2018-05-13 04:00","2018","05","13","04:00","-15.8","","-18.6","","79","","","M","30","","30","","","","101.91","","","","-27","","NA"
"-112.16","74.46","CAPE PROVIDENCE","2501419","2018-05-13 05:00","2018","05","13","05:00","-14.2","","-17.7","","75","","","M","32","","24","","","","101.94","","","","-24","","NA"
"-112.16","74.46","CAPE PROVIDENCE","2501419","2018-05-13 06:00","2018","05","13","06:00","-13.1","","-17.3","","71","","","M","34","","27","","","","102.00","","","","-23","","NA"
"-112.16","74.46","CAPE PROVIDENCE","2501419","2018-05-13 07:00","2018","05","13","07:00","-12.4","","-16.2","","73","","","M","32","","24","","","","101.97","","","","-22","","NA"
"-112.16","74.46","CAPE PROVIDENCE","2501419","2018-05-13 08:00","2018","05","13","08:00","-10.2","","-14.2","","73","","","M","36","","30","","","","101.95","","","","-20","","NA"
"-112.16","74.46","CAPE PROVIDENCE","2501419","2018-05-13 09:00","2018","05","13","09:00","-9.7","","-13.4","","75","","","M","33","","27","","","","101.89","","","","-19","","NA"
"-112.16","74.46","CAPE PROVIDENCE","2501419","2018-05-13 10:00","2018","05","13","10:00","-9.2","","-12.9","","75","","","M","32","","30","","","","101.87","","","","-18","","NA"
"-112.16","74.46","CAPE PROVIDENCE","2501419","2018-05-13 11:00","2018","05","13","11:00","-8.6","","-12.0","","77","","","M","32","","29","","","","101.84","","","","-18","","NA"
"-112.16","74.46","CAPE PROVIDENCE","2501419","2018-05-13 12:00","2018","05","13","12:00","-8.5","","-11.6","","78","","","M","32","","28","","","","101.88","","","","-17","","NA"
"-112.16","74.46","CAPE PROVIDENCE","2501419","2018-05-13 13:00","2018","05","13","13:00","-7.8","","-11.0","","78","","","M","32","","29","","","","101.89","","","","-17","","NA"
"-112.16","74.46","CAPE PROVIDENCE","2501419","2018-05-13 14:00","2018","05","13","14:00","-6.8","","-11.2","","71","","","M","35","","33","","","","101.90","","","","-16","","NA"
"-112.16","74.46","CAPE PROVIDENCE","2501419","2018-05-13 15:00","2018","05","13","15:00","-6.7","","-11.3","","69","","","M","35","","33","","","","101.89","","","","-16","","NA"
"-112.16","74.46","CAPE PROVIDENCE","2501419","2018-05-13 16:00","2018","05","13","16:00","-6.5","","-11.2","","70","","","M","35","","32","","","","101.91","","","","-15","","NA"
"-112.16","74.46","CAPE PROVIDENCE","2501419","2018-05-13 17:00","2018","05","13","17:00","-7.5","","-10.3","","80","","","M","2","","19","","","","101.95","","","","-15","","NA"
"-112.16","74.46","CAPE PROVIDENCE","2501419","2018-05-13 18:00","2018","05","13","18:00","-7.7","","-10.7","","79","","","M","36","","27","","","","101.94","","","","-16","","NA"
"-112.16","74.46","CAPE PROVIDENCE","2501419","2018-05-13 19:00","2018","05","13","19:00","-7.9","","-11.9","","73","","","M","33","","25","","","","101.94","","","","-16","","NA"
"-112.16","74.46","CAPE PROVIDENCE","2501419","2018-05-13 20:00","2018","05","13","20:00","-8.2","","-11.8","","75","","","M","33","","33","","","","101.88","","","","-18","","NA"
"-112.16","74.46","CAPE PROVIDENCE","2501419","2018-05-13 21:00","2018","05","13","21:00","-8.3","","-11.9","","75","","","M","31","","26","","","","101.90","","","","-17","","NA"
"-112.16","74.46","CAPE PROVIDENCE","2501419","2018-05-13 22:00","2018","05","13","22:00","-8.2","","-11.5","","78","","","M","32","","20","","","","101.87","","","","-16","","NA"
"-112.16","74.46","CAPE PROVIDENCE","2501419","2018-05-13 23:00","2018","05","13","23:00","-8.4","","-11.4","","79","","","M","32","","20","","","","101.87","","","","-16","","NA"
"-112.16","74.46","CAPE PROVIDENCE","2501419","2018-05-14 00:00","2018","05","14","00:00","-8.2","","-11.4","","78","","","M","33","","23","","","","101.87","","","","-16","","NA"
"-112.16","74.46","CAPE PROVIDENCE","2501419","2018-05-14 01:00","2018","05","14","01:00","-8.2","","-11.7","","76","","","M","31","","21","","","","101.86","","","","-16","","NA"
"-112.16","74.46","CAPE PROVIDENCE","2501419","2018-05-14 02:00","2018","05","14","02:00","-8.1","","-11.8","","74","","","M","32","","28","","","","101.84","","","","-17","","NA"
"-112.16","74.46","CAPE PROVIDENCE","2501419","2018-05-14 03:00","2018","05","14","03:00","-8.9","","-12.6","","74","","","M","29","","24","","","","101.88","","","","-17","","NA"
"-112.16","74.46","CAPE PROVIDENCE","2501419","2018-05-14 04:00","2018","05","14","04:00","-8.8","","-12.9","","72","","","M","31","","25","","","","101.89","","","","-17","","NA"
"-112.16","74.46","CAPE PROVIDENCE","2501419","2018-05-14 05:00","2018","05","14","05:00","-8.5","","-12.9","","70","","","M","31","","23","","","","101.90","","","","-17","","NA"
"-112.16","74.46","CAPE PROVIDENCE","2501419","2018-05-14 06:00","2018","05","14","06:00","-8.4","","-12.6","","72","","","M","32","","23","","","","101.88","","","","-16","","NA"
"-112.16","74.46","CAPE PROVIDENCE","2501419","2018-05-14 07:00","2018","05","14","07:00","-8.2","","-12.5","","71","","","M","32","","18","","","","101.88","","","","-15","","NA"
"-112.16","74.46","CAPE PROVIDENCE","2501419","2018-05-14 08:00","2018","05","14","08:00","-8.2","","-12.4","","72","","","M","32","","17","","","","101.87","","","","-15","","NA"
"-112.16","74.46","CAPE PROVIDENCE","2501419","2018-05-14 09:00","2018","05","14","09:00","-7.9","","-12.3","","70","","","M","34","","20","","","","101.84","","","","-15","","NA"
"-112.16","74.46","CAPE PROVIDENCE","2501419","2018-05-14 10:00","2018","05","14","10:00","-7.1","","-12.1","","67","","","M","35","","17","","","","101.81","","","","-14","","NA"
"-112.16","74.46","CAPE PROVIDENCE","2501419","2018-05-14 11:00","2018","05","14","11:00","-7.0","","-13.7","","59","","","M","34","","17","","","","101.83","","","","-13","","NA"
"-112.16","74.46","CAPE PROVIDENCE","2501419","2018-05-14 12:00","2018","05","14","12:00","-6.9","","-12.7","","63","","","M","32","","17","","","","101.86","","","","-13","","NA"
"-112.16","74.46","CAPE PROVIDENCE","2501419","2018-05-14 13:00","2018","05","14","13:00","-6.7","","-13.0","","61","","","M","30","","14","","","","101.86","","","","-12","","NA"
"-112.16","74.46","CAPE PROVIDENCE","2501419","2018-05-14 14:00","2018","05","14","14:00","-6.7","","-11.7","","67","","","M","34","","11","","","","101.90","","","","-12","","NA"
"-112.16","74.46","CAPE PROVIDENCE","2501419","2018-05-14 15:00","2018","05","14","15:00","-7.3","","-11.5","","72","","","M","1","","16","","","","101.92","","","","-14","","NA"
"-112.16","74.46","CAPE PROVIDENCE","2501419","2018-05-14 16:00","2018","05","14","16:00","-7.1","","-11.4","","71","","","M","35","","13","","","","101.93","","","","-13","","NA"
"-112.16","74.46","CAPE PROVIDENCE","2501419","2018-05-14 17:00","2018","05","14","17:00","-6.5","","-11.2","","69","","","M","2","","4","","","","101.94","","","","-8","","NA"
"-112.16","74.46","CAPE PROVIDENCE","2501419","2018-05-14 18:00","2018","05","14","18:00","-7.0","","-11.0","","73","","","M","33","","9","","","","101.93","","","","-11","","NA"
"-112.16","74.46","CAPE PROVIDENCE","2501419","2018-05-14 19:00","2018","05","14","19:00","-7.1","","-11.4","","71","","","M","35","","10","","","","101.93","","","","-12","","NA"
"-112.16","74.46","CAPE PROVIDENCE","2501419","2018-05-14 20:00","2018","05","14","20:00","-7.3","","-11.3","","73","","","M","34","","12","","","","101.94","","","","-13","","NA"
"-112.16","74.46","CAPE PROVIDENCE","2501419","2018-05-14 21:00","2018","05","14","21:00","-7.3","","-11.2","","74","","","M","2","","9","","","","101.96","","","","-12","","NA"
"-112.16","74.46","CAPE PROVIDENCE","2501419","2018-05-14 22:00","2018","05","14","22:00","-7.6","","-10.9","","77","","","M","36","","6","","","","101.97","","","","-11","","NA"
"-112.16","74.46","CAPE PROVIDENCE","2501419","2018-05-14 23:00","2018","05","14","23:00","-7.9","","-10.7","","81","","","M","6","","5","","","","101.98","","","","-11","","NA"
"-112.16","74.46","CAPE PROVIDENCE","2501419","2018-05-15 00:00","2018","05","15","00:00","-7.9","","-11.0","","78","","","M","1","","3","","","","102.02","","","","-9","","NA"
"-112.16","74.46","CAPE PROVIDENCE","2501419","2018-05-15 01:00","2018","05","15","01:00","-8.7","","-10.2","","89","","","M","23","","7","","","","102.04","","","","-13","","NA"
"-112.16","74.46","CAPE PROVIDENCE","2501419","2018-05-15 02:00","2018","05","15","02:00","-8.4","","-10.7","","83","","","M","27","","4","","","","102.07","","","","-11","","NA"
"-112.16","74.46","CAPE PROVIDENCE","2501419","2018-05-15 03:00","2018","05","15","03:00","-8.2","","-11.4","","78","","","M","33","","2","","","","102.08","","","","-9","","NA"
"-112.16","74.46","CAPE PROVIDENCE","2501419","2018-05-15 04:00","2018","05","15","04:00","-8.1","","-12.2","","73","","","M","32","","11","","","","102.10","","","","-13","","NA"
"-112.16","74.46","CAPE PROVIDENCE","2501419","2018-05-15 05:00","2018","05","15","05:00","-8.0","","-12.3","","71","","","M","31","","11","","","","102.13","","","","-13","","NA"
"-112.16","74.46","CAPE PROVIDENCE","2501419","2018-05-15 06:00","2018","05","15","06:00","-7.8","","-12.5","","69","","","M","31","","7","","","","102.13","","","","-11","","NA"
"-112.16","74.46","CAPE PROVIDENCE","2501419","2018-05-15 07:00","2018","05","15","07:00","-7.8","","-13.2","","65","","","M","28","","9","","","","102.14","","","","-12","","NA"
"-112.16","74.46","CAPE PROVIDENCE","2501419","2018-05-15 08:00","2018","05","15","08:00","-7.8","","-12.3","","70","","","M","33","","12","","","","102.15","","","","-13","","NA"
"-112.16","74.46","CAPE PROVIDENCE","2501419","2018-05-15 09:00","2018","05","15","09:00","-7.9","","-12.8","","68","","","M","32","","12","","","","102.16","","","","-13","","NA"
"-112.16","74.46","CAPE PROVIDENCE","2501419","2018-05-15 10:00","2018","05","15","10:00","-7.8","","-12.8","","67","","","M","32","","11","","","","102.17","","","","-13","","NA"
"-112.16","74.46","CAPE PROVIDENCE","2501419","2018-05-15 11:00","2018","05","15","11:00","-7.8","","-13.4","","64","","","M","30","","9","","","","102.19","","","","-12","","NA"
"-112.16","74.46","CAPE PROVIDENCE","2501419","2018-05-15 12:00","2018","05","15","12:00","-7.5","","-12.7","","66","","","M","30","","14","","","","102.21","","","","-13","","NA"
"-112.16","74.46","CAPE PROVIDENCE","2501419","2018-05-15 13:00","2018","05","15","13:00","-7.5","","-12.8","","66","","","M","29","","16","","","","102.24","","","","-14","","NA"
"-112.16","74.46","CAPE PROVIDENCE","2501419","2018-05-15 14:00","2018","05","15","14:00","-7.5","","-12.6","","67","","","M","30","","15","","","","102.25","","","","-14","","NA"
"-112.16","74.46","CAPE PROVIDENCE","2501419","2018-05-15 15:00","2018","05","15","15:00","-7.5","","-12.5","","67","","","M","28","","12","","","","102.27","","","","-13","","NA"
"-112.16","74.46","CAPE PROVIDENCE","2501419","2018-05-15 16:00","2018","05","15","16:00","-7.6","","-12.5","","67","","","M","30","","20","","","","102.28","","","","-15","","NA"
"-112.16","74.46","CAPE PROVIDENCE","2501419","2018-05-15 17:00","2018","05","15","17:00","-7.7","","-12.1","","70","","","M","30","","15","","","","102.28","","","","-14","","NA"
"-112.16","74.46","CAPE PROVIDENCE","2501419","2018-05-15 18:00","2018","05","15","18:00","-7.8","","-11.4","","76","","","M","30","","16","","","","102.28","","","","-14","","NA"
"-112.16","74.46","CAPE PROVIDENCE","2501419","2018-05-15 19:00","2018","05","15","19:00","-7.9","","-12.2","","72","","","M","31","","15","","","","102.26","","","","-14","","NA"
"-112.16","74.46","CAPE PROVIDENCE","2501419","2018-05-15 20:00","2018","05","15","20:00","-8.3","","-12.1","","74","","","M","30","","18","","","","102.26","","","","-15","","NA"
"-112.16","74.46","CAPE PROVIDENCE","2501419","2018-05-15 21:00","2018","05","15","21:00","-8.6","","-12.1","","76","","","M","30","","16","","","","102.26","","","","-15","","NA"
"-112.16","74.46","CAPE PROVIDENCE","2501419","2018-05-15 22:00","2018","05","15","22:00","-8.9","","-12.3","","77","","","M","29","","18","","","","102.27","","","","-16","","NA"
"-112.16","74.46","CAPE PROVIDENCE","2501419","2018-05-15 23:00","2018","05","15","23:00","-9.4","","-12.7","","77","","","M","28","","22","","","","102.25","","","","-17","","NA"
"-112.16","74.46","CAPE PROVIDENCE","2501419","2018-05-16 00:00","2018","05","16","00:00","-9.3","","-12.3","","79","","","M","29","","21","","","","102.26","","","","-17","","NA"
"-112.16","74.46","CAPE PROVIDENCE","2501419","2018-05-16 01:00","2018","05","16","01:00","-9.3","","-12.2","","79","","","M","28","","16","","","","102.30","","","","-16","","NA"
"-112.16","74.46","CAPE PROVIDENCE","2501419","2018-05-16 02:00","2018","05","16","02:00","-9.2","","-12.3","","78","","","M","28","","18","","","","102.29","","","","-16","","NA"
"-112.16","74.46","CAPE PROVIDENCE","2501419","2018-05-16 03:00","2018","05","16","03:00","-9.1","","-12.2","","78","","","M","28","","17","","","","102.28","","","","-16","","NA"
"-112.16","74.46","CAPE PROVIDENCE","2501419","2018-05-16 04:00","2018","05","16","04:00","-9.1","","-11.8","","81","","","M","29","","19","","","","102.26","","","","-17","","NA"
"-112.16","74.46","CAPE PROVIDENCE","2501419","2018-05-16 05:00","2018","05","16","05:00","-9.0","","-11.7","","81","","","M","29","","20","","","","102.28","","","","-17","","NA"
"-112.16","74.46","CAPE PROVIDENCE","2501419","2018-05-16 06:00","2018","05","16","06:00","-8.7","","-11.3","","82","","","M","29","","15","","","","102.29","","","","-15","","NA"
"-112.16","74.46","CAPE PROVIDENCE","2501419","2018-05-16 07:00","2018","05","16","07:00","-8.5","","-11.5","","79","","","M","30","","23","","","","102.26","","","","-17","","NA"
"-112.16","74.46","CAPE PROVIDENCE","2501419","2018-05-16 08:00","2018","05","16","08:00","-8.2","","-11.5","","78","","","M","30","","19","","","","102.24","","","","-15","","NA"
"-112.16","74.46","CAPE PROVIDENCE","2501419","2018-05-16 09:00","2018","05","16","09:00","-7.8","","-11.4","","76","","","M","30","","19","","","","102.22","","","","-15","","NA"
"-112.16","74.46","CAPE PROVIDENCE","2501419","2018-05-16 10:00","2018","05","16","10:00","-7.6","","-11.5","","74","","","M","29","","23","","","","102.20","","","","-15","","NA"
"-112.16","74.46","CAPE PROVIDENCE","2501419","2018-05-16 11:00","2018","05","16","11:00","-7.4","","-11.4","","73","","","M","30","","29","","","","102.20","","","","-16","","NA"
"-112.16","74.46","CAPE PROVIDENCE","2501419","2018-05-16 12:00","2018","05","16","12:00","-7.4","","-11.7","","72","","","M","29","","28","","","","102.19","","","","-16","","NA"
"-112.16","74.46","CAPE PROVIDENCE","2501419","2018-05-16 13:00","2018","05","16","13:00","-7.1","","-11.4","","71","","","M","29","","31","","","","102.19","","","","-16","","NA"
"-112.16","74.46","CAPE PROVIDENCE","2501419","2018-05-16 14:00","2018","05","16","14:00","-7.1","","-11.3","","72","","","M","29","","32","","","","102.18","","","","-16","","NA"
"-112.16","74.46","CAPE PROVIDENCE","2501419","2018-05-16 15:00","2018","05","16","15:00","-7.3","","-11.5","","72","","","M","28","","30","","","","102.18","","","","-16","","NA"
"-112.16","74.46","CAPE PROVIDENCE","2501419","2018-05-16 16:00","2018","05","16","16:00","-7.2","","-11.9","","69","","","M","29","","34","","","","102.13","","","","-16","","NA"
"-112.16","74.46","CAPE PROVIDENCE","2501419","2018-05-16 17:00","2018","05","16","17:00","-7.9","","-11.9","","73","","","M","29","","29","","","","102.11","","","","-17","","NA"
"-112.16","74.46","CAPE PROVIDENCE","2501419","2018-05-16 18:00","2018","05","16","18:00","-7.9","","-12.0","","72","","","M","29","","27","","","","102.10","","","","-16","","NA"
"-112.16","74.46","CAPE PROVIDENCE","2501419","2018-05-16 19:00","2018","05","16","19:00","-9.1","","-13.2","","72","","","M","29","","30","","","","102.06","","","","-18","","NA"
"-112.16","74.46","CAPE PROVIDENCE","2501419","2018-05-16 20:00","2018","05","16","20:00","-10.0","","-13.7","","75","","","M","29","","30","","","","101.99","","","","-20","","NA"
"-112.16","74.46","CAPE PROVIDENCE","2501419","2018-05-16 21:00","2018","05","16","21:00","-10.2","","-13.8","","74","","","M","27","","19","","","","101.99","","","","-18","","NA"
"-112.16","74.46","CAPE PROVIDENCE","2501419","2018-05-16 22:00","2018","05","16","22:00","-10.5","","-13.9","","76","","","M","27","","12","","","","101.96","","","","-17","","NA"
"-112.16","74.46","CAPE PROVIDENCE","2501419","2018-05-16 23:00","2018","05","16","23:00","-11.0","","-13.8","","80","","","M","30","","30","","","","101.91","","","","-21","","NA"
"-112.16","74.46","CAPE PROVIDENCE","2501419","2018-05-17 00:00","2018","05","17","00:00","-10.9","","-13.7","","80","","","M","29","","25","","","","101.89","","","","-20","","NA"
"-112.16","74.46","CAPE PROVIDENCE","2501419","2018-05-17 01:00","2018","05","17","01:00","-10.7","","-13.5","","80","","","M","28","","24","","","","101.88","","","","-19","","NA"
"-112.16","74.46","CAPE PROVIDENCE","2501419","2018-05-17 02:00","2018","05","17","02:00","-10.9","","-13.5","","81","","","M","29","","37","","","","101.77","","","","-22","","NA"
"-112.16","74.46","CAPE PROVIDENCE","2501419","2018-05-17 03:00","2018","05","17","03:00","-9.8","","-12.6","","80","","","M","30","","41","","","","101.72","","","","-21","","NA"
"-112.16","74.46","CAPE PROVIDENCE","2501419","2018-05-17 04:00","2018","05","17","04:00","-8.6","","-11.4","","80","","","M","29","","40","","","","101.71","","","","-19","","NA"
"-112.16","74.46","CAPE PROVIDENCE","2501419","2018-05-17 05:00","2018","05","17","05:00","-7.8","","-10.7","","79","","","M","30","","43","","","","101.66","","","","-18","","NA"
"-112.16","74.46","CAPE PROVIDENCE","2501419","2018-05-17 06:00","2018","05","17","06:00","-8.3","","-11.5","","78","","","M","30","","41","","","","101.70","","","","-19","","NA"
"-112.16","74.46","CAPE PROVIDENCE","2501419","2018-05-17 07:00","2018","05","17","07:00","-8.0","","-11.4","","76","","","M","30","","37","","","","101.71","","","","-18","","NA"
"-112.16","74.46","CAPE PROVIDENCE","2501419","2018-05-17 08:00","2018","05","17","08:00","-6.8","","-10.9","","73","","","M","30","","32","","","","101.70","","","","-16","","NA"
"-112.16","74.46","CAPE PROVIDENCE","2501419","2018-05-17 09:00","2018","05","17","09:00","-6.4","","-10.5","","72","","","M","31","","35","","","","101.67","","","","-15","","NA"
"-112.16","74.46","CAPE PROVIDENCE","2501419","2018-05-17 10:00","2018","05","17","10:00","-5.2","","-9.8","","70","","","M","27","","18","","","","101.70","","","","-11","","NA"
"-112.16","74.46","CAPE PROVIDENCE","2501419","2018-05-17 11:00","2018","05","17","11:00","-5.4","","-9.3","","74","","","M","30","","36","","","","101.64","","","","-14","","NA"
"-112.16","74.46","CAPE PROVIDENCE","2501419","2018-05-17 12:00","2018","05","17","12:00","-5.7","","-9.6","","74","","","M","30","","42","","","","101.65","","","","-15","","NA"
"-112.16","74.46","CAPE PROVIDENCE","2501419","2018-05-17 13:00","2018","05","17","13:00","-5.7","","-10.1","","71","","","M","31","","46","","","","101.62","","","","-16","","NA"
"-112.16","74.46","CAPE PROVIDENCE","2501419","2018-05-17 14:00","2018","05","17","14:00","-5.9","","-9.8","","74","","","M","31","","45","","","","101.63","","","","-16","","NA"
"-112.16","74.46","CAPE PROVIDENCE","2501419","2018-05-17 15:00","2018","05","17","15:00","-6.5","","-10.6","","73","","","M","30","","41","","","","101.66","","","","-16","","NA"
"-112.16","74.46","CAPE PROVIDENCE","2501419","2018-05-17 16:00","2018","05","17","16:00","-7.0","","-11.2","","72","","","M","30","","34","","","","101.66","","","","-16","","NA"
"-112.16","74.46","CAPE PROVIDENCE","2501419","2018-05-17 17:00","2018","05","17","17:00","-7.4","","-11.6","","72","","","M","31","","32","","","","101.66","","","","-16","","NA"
"-112.16","74.46","CAPE PROVIDENCE","2501419","2018-05-17 18:00","2018","05","17","18:00","-7.7","","-11.4","","74","","","M","30","","30","","","","101.67","","","","-17","","NA"
"-112.16","74.46","CAPE PROVIDENCE","2501419","2018-05-17 19:00","2018","05","17","19:00","-7.8","","-11.7","","73","","","M","31","","30","","","","101.64","","","","-17","","NA"
"-112.16","74.46","CAPE PROVIDENCE","2501419","2018-05-17 20:00","2018","05","17","20:00","-8.6","","-12.5","","73","","","M","30","","31","","","","101.62","","","","-18","","NA"
"-112.16","74.46","CAPE PROVIDENCE","2501419","2018-05-17 21:00","2018","05","17","21:00","-9.6","","-13.3","","74","","","M","31","","26","","","","101.64","","","","-18","","NA"
"-112.16","74.46","CAPE PROVIDENCE","2501419","2018-05-17 22:00","2018","05","17","22:00","-10.4","","-14.0","","75","","","M","36","","14","","","","101.64","","","","-17","","NA"
"-112.16","74.46","CAPE PROVIDENCE","2501419","2018-05-17 23:00","2018","05","17","23:00","-10.9","","-14.1","","77","","","M","36","","7","","","","101.65","","","","-15","","NA"
"-112.16","74.46","CAPE PROVIDENCE","2501419","2018-05-18 00:00","2018","05","18","00:00","-12.7","","-15.6","","79","","","M","29","","16","","","","101.66","","","","-20","","NA"
"-112.16","74.46","CAPE PROVIDENCE","2501419","2018-05-18 01:00","2018","05","18","01:00","-12.5","","-15.4","","79","","","M","28","","18","","","","101.66","","","","-21","","NA"
"-112.16","74.46","CAPE PROVIDENCE","2501419","2018-05-18 02:00","2018","05","18","02:00","-12.0","","-14.7","","80","","","M","28","","11","","","","101.66","","","","-18","","NA"
"-112.16","74.46","CAPE PROVIDENCE","2501419","2018-05-18 03:00","2018","05","18","03:00","-12.3","","-15.2","","79","","","M","29","","15","","","","101.66","","","","-20","","NA"
"-112.16","74.46","CAPE PROVIDENCE","2501419","2018-05-18 04:00","2018","05","18","04:00","-12.0","","-15.1","","78","","","M","30","","14","","","","101.63","","","","-19","","NA"
"-112.16","74.46","CAPE PROVIDENCE","2501419","2018-05-18 05:00","2018","05","18","05:00","-11.6","","-14.9","","77","","","M","29","","16","","","","101.62","","","","-19","","NA"
"-112.16","74.46","CAPE PROVIDENCE","2501419","2018-05-18 06:00","2018","05","18","06:00","-10.8","","-14.9","","72","","","M","27","","13","","","","101.60","","","","-17","","NA"
"-112.16","74.46","CAPE PROVIDENCE","2501419","2018-05-18 07:00","2018","05","18","07:00","-9.5","","-14.2","","69","","","M","30","","19","","","","101.55","","","","-17","","NA"
"-112.16","74.46","CAPE PROVIDENCE","2501419","2018-05-18 08:00","2018","05","18","08:00","-8.1","","-13.4","","65","","","M","31","","14","","","","101.53","","","","-14","","NA"
"-112.16","74.46","CAPE PROVIDENCE","2501419","2018-05-18 09:00","2018","05","18","09:00","-7.1","","-13.4","","60","","","M","31","","9","","","","101.49","","","","-11","","NA"
"-112.16","74.46","CAPE PROVIDENCE","2501419","2018-05-18 10:00","2018","05","18","10:00","-6.9","","-13.2","","61","","","M","29","","9","","","","101.49","","","","-11","","NA"
"-112.16","74.46","CAPE PROVIDENCE","2501419","2018-05-18 11:00","2018","05","18","11:00","-6.9","","-13.6","","59","","","M","33","","12","","","","101.47","","","","-12","","NA"
"-112.16","74.46","CAPE PROVIDENCE","2501419","2018-05-18 12:00","2018","05","18","12:00","-7.5","","-13.2","","64","","","M","34","","23","","","","101.47","","","","-15","","NA"
"-112.16","74.46","CAPE PROVIDENCE","2501419","2018-05-18 13:00","2018","05","18","13:00","-7.4","","-12.6","","66","","","M","34","","25","","","","101.46","","","","-15","","NA"
"-112.16","74.46","CAPE PROVIDENCE","2501419","2018-05-18 14:00","2018","05","18","14:00","-7.8","","-14.1","","61","","","M","35","","27","","","","101.48","","","","-16","","NA"
"-112.16","74.46","CAPE PROVIDENCE","2501419","2018-05-18 15:00","2018","05","18","15:00","-7.7","","-14.1","","60","","","M","32","","14","","","","101.51","","","","-14","","NA"
"-112.16","74.46","CAPE PROVIDENCE","2501419","2018-05-18 16:00","2018","05","18","16:00","-6.9","","-12.7","","63","","","M","30","","15","","","","101.47","","","","-13","","NA"
"-112.16","74.46","CAPE PROVIDENCE","2501419","2018-05-18 17:00","2018","05","18","17:00","-7.1","","-13.2","","62","","","M","30","","20","","","","101.47","","","","-14","","NA"
"-112.16","74.46","CAPE PROVIDENCE","2501419","2018-05-18 18:00","2018","05","18","18:00","-7.2","","-12.3","","67","","","M","28","","19","","","","101.46","","","","-14","","NA"
"-112.16","74.46","CAPE PROVIDENCE","2501419","2018-05-18 19:00","2018","05","18","19:00","-7.4","","-12.4","","67","","","M","29","","19","","","","101.43","","","","-14","","NA"
"-112.16","74.46","CAPE PROVIDENCE","2501419","2018-05-18 20:00","2018","05","18","20:00","-7.4","","-12.3","","68","","","M","27","","14","","","","101.43","","","","-13","","NA"
"-112.16","74.46","CAPE PROVIDENCE","2501419","2018-05-18 21:00","2018","05","18","21:00","-7.7","","-11.0","","77","","","M","30","","29","","","","101.40","","","","-16","","NA"
"-112.16","74.46","CAPE PROVIDENCE","2501419","2018-05-18 22:00","2018","05","18","22:00","-8.2","","-11.2","","79","","","M","30","","34","","","","101.37","","","","-18","","NA"
"-112.16","74.46","CAPE PROVIDENCE","2501419","2018-05-18 23:00","2018","05","18","23:00","-8.5","","-11.1","","82","","","M","30","","32","","","","101.36","","","","-18","","NA"
"-112.16","74.46","CAPE PROVIDENCE","2501419","2018-05-19 00:00","2018","05","19","00:00","-8.4","","-11.2","","80","","","M","30","","29","","","","101.36","","","","-17","","NA"
"-112.16","74.46","CAPE PROVIDENCE","2501419","2018-05-19 01:00","2018","05","19","01:00","-8.7","","-11.3","","81","","","M","30","","32","","","","101.37","","","","-18","","NA"
"-112.16","74.46","CAPE PROVIDENCE","2501419","2018-05-19 02:00","2018","05","19","02:00","-9.4","","-11.6","","84","","","M","30","","28","","","","101.38","","","","-18","","NA"
"-112.16","74.46","CAPE PROVIDENCE","2501419","2018-05-19 03:00","2018","05","19","03:00","-9.5","","-12.2","","81","","","M","29","","35","","","","101.38","","","","-20","","NA"
"-112.16","74.46","CAPE PROVIDENCE","2501419","2018-05-19 04:00","2018","05","19","04:00","-9.7","","-12.7","","78","","","M","30","","36","","","","101.34","","","","-20","","NA"
"-112.16","74.46","CAPE PROVIDENCE","2501419","2018-05-19 05:00","2018","05","19","05:00","-9.2","","-12.5","","77","","","M","29","","36","","","","101.33","","","","-19","","NA"
"-112.16","74.46","CAPE PROVIDENCE","2501419","2018-05-19 06:00","2018","05","19","06:00","-8.7","","-11.9","","78","","","M","30","","36","","","","101.33","","","","-19","","NA"
"-112.16","74.46","CAPE PROVIDENCE","2501419","2018-05-19 07:00","2018","05","19","07:00","-8.9","","-11.5","","82","","","M","32","","34","","","","101.30","","","","-19","","NA"
"-112.16","74.46","CAPE PROVIDENCE","2501419","2018-05-19 08:00","2018","05","19","08:00","-8.5","","-11.2","","81","","","M","31","","27","","","","101.30","","","","-17","","NA"
"-112.16","74.46","CAPE PROVIDENCE","2501419","2018-05-19 09:00","2018","05","19","09:00","-7.9","","-10.7","","80","","","M","30","","25","","","","101.31","","","","-16","","NA"
"-112.16","74.46","CAPE PROVIDENCE","2501419","2018-05-19 10:00","2018","05","19","10:00","-7.2","","-10.5","","78","","","M","30","","28","","","","101.30","","","","-16","","NA"
"-112.16","74.46","CAPE PROVIDENCE","2501419","2018-05-19 11:00","2018","05","19","11:00","-7.2","","-11.1","","74","","","M","31","","33","","","","101.31","","","","-16","","NA"
"-112.16","74.46","CAPE PROVIDENCE","2501419","2018-05-19 12:00","2018","05","19","12:00","-7.2","","-11.3","","73","","","M","32","","28","","","","101.33","","","","-16","","NA"
"-112.16","74.46","CAPE PROVIDENCE","2501419","2018-05-19 13:00","2018","05","19","13:00","-7.3","","-11.2","","74","","","M","33","","21","","","","101.33","","","","-15","","NA"
"-112.16","74.46","CAPE PROVIDENCE","2501419","2018-05-19 14:00","2018","05","19","14:00","-7.4","","-11.7","","71","","","M","32","","25","","","","101.31","","","","-15","","NA"
"-112.16","74.46","CAPE PROVIDENCE","2501419","2018-05-19 15:00","2018","05","19","15:00","-7.6","","-11.1","","76","","","M","32","","32","","","","101.30","","","","-17","","NA"
"-112.16","74.46","CAPE PROVIDENCE","2501419","2018-05-19 16:00","2018","05","19","16:00","-7.5","","-11.1","","75","","","M","32","","30","","","","101.29","","","","-16","","NA"
"-112.16","74.46","CAPE PROVIDENCE","2501419","2018-05-19 17:00","2018","05","19","17:00","-7.2","","-11.2","","73","","","M","32","","27","","","","101.29","","","","-15","","NA"
"-112.16","74.46","CAPE PROVIDENCE","2501419","2018-05-19 18:00","2018","05","19","18:00","-7.2","","-10.7","","76","","","M","31","","31","","","","101.27","","","","-16","","NA"
"-112.16","74.46","CAPE PROVIDENCE","2501419","2018-05-19 19:00","2018","05","19","19:00","-6.9","","-10.0","","79","","","M","30","","28","","","","101.27","","","","-15","","NA"
"-112.16","74.46","CAPE PROVIDENCE","2501419","2018-05-19 20:00","2018","05","19","20:00","-6.3","","-9.6","","77","","","M","29","","26","","","","101.27","","","","-14","","NA"
"-112.16","74.46","CAPE PROVIDENCE","2501419","2018-05-19 21:00","2018","05","19","21:00","-6.2","","-8.8","","81","","","M","30","","24","","","","101.25","","","","-14","","NA"
"-112.16","74.46","CAPE PROVIDENCE","2501419","2018-05-19 22:00","2018","05","19","22:00","-5.8","","-8.7","","80","","","M","30","","24","","","","101.28","","","","-13","","NA"
"-112.16","74.46","CAPE PROVIDENCE","2501419","2018-05-19 23:00","2018","05","19","23:00","-6.1","","-9.0","","80","","","M","33","","17","","","","101.29","","","","-12","","NA"
"-112.16","74.46","CAPE PROVIDENCE","2501419","2018-05-20 00:00","2018","05","20","00:00","-6.0","","-10.1","","72","","","M","35","","21","","","","101.32","","","","-13","","NA"
"-112.16","74.46","CAPE PROVIDENCE","2501419","2018-05-20 01:00","2018","05","20","01:00","-6.5","","-9.9","","77","","","M","33","","18","","","","101.35","","","","-13","","NA"
"-112.16","74.46","CAPE PROVIDENCE","2501419","2018-05-20 02:00","2018","05","20","02:00","-6.5","","-9.7","","78","","","M","33","","17","","","","101.38","","","","-13","","NA"
"-112.16","74.46","CAPE PROVIDENCE","2501419","2018-05-20 03:00","2018","05","20","03:00","-6.5","","-9.5","","80","","","M","36","","16","","","","101.42","","","","-13","","NA"
"-112.16","74.46","CAPE PROVIDENCE","2501419","2018-05-20 04:00","2018","05","20","04:00","-6.6","","-9.4","","80","","","M","36","","12","","","","101.44","","","","-12","","NA"
"-112.16","74.46","CAPE PROVIDENCE","2501419","2018-05-20 05:00","2018","05","20","05:00","-6.6","","-9.5","","80","","","M","36","","11","","","","101.47","","","","-12","","NA"
"-112.16","74.46","CAPE PROVIDENCE","2501419","2018-05-20 06:00","2018","05","20","06:00","-6.4","","-9.2","","81","","","M","36","","10","","","","101.51","","","","-11","","NA"
"-112.16","74.46","CAPE PROVIDENCE","2501419","2018-05-20 07:00","2018","05","20","07:00","-6.1","","-9.7","","76","","","M","36","","24","","","","101.52","","","","-14","","NA"
"-112.16","74.46","CAPE PROVIDENCE","2501419","2018-05-20 08:00","2018","05","20","08:00","-6.1","","-10.1","","73","","","M","1","","21","","","","101.57","","","","-13","","NA"
"-112.16","74.46","CAPE PROVIDENCE","2501419","2018-05-20 09:00","2018","05","20","09:00","-5.9","","-10.3","","71","","","M","36","","15","","","","101.56","","","","-12","","NA"
"-112.16","74.46","CAPE PROVIDENCE","2501419","2018-05-20 10:00","2018","05","20","10:00","-5.3","","-9.6","","72","","","M","36","","13","","","","101.59","","","","-10","","NA"
"-112.16","74.46","CAPE PROVIDENCE","2501419","2018-05-20 11:00","2018","05","20","11:00","-5.5","","-9.1","","76","","","M","2","","22","","","","101.62","","","","-13","","NA"
"-112.16","74.46","CAPE PROVIDENCE","2501419","2018-05-20 12:00","2018","05","20","12:00","-4.5","","-8.8","","72","","","M","36","","13","","","","101.65","","","","-10","","NA"
"-112.16","74.46","CAPE PROVIDENCE","2501419","2018-05-20 13:00","2018","05","20","13:00","-3.4","","-8.7","","67","","","M","31","","9","","","","101.64","","","","-7","","NA"
"-112.16","74.46","CAPE PROVIDENCE","2501419","2018-05-20 14:00","2018","05","20","14:00","-3.0","","-8.5","","66","","","M","35","","7","","","","101.68","","","","-6","","NA"
"-112.16","74.46","CAPE PROVIDENCE","2501419","2018-05-20 15:00","2018","05","20","15:00","-4.4","","-7.8","","77","","","M","15","","11","","","","101.69","","","","-9","","NA"
"-112.16","74.46","CAPE PROVIDENCE","2501419","2018-05-20 16:00","2018","05","20","16:00","-5.2","","-8.0","","81","","","M","11","","13","","","","101.72","","","","-10","","NA"
"-112.16","74.46","CAPE PROVIDENCE","2501419","2018-05-20 17:00","2018","05","20","17:00","-5.7","","-8.0","","84","","","M","10","","14","","","","101.75","","","","-11","","NA"
"-112.16","74.46","CAPE PROVIDENCE","2501419","2018-05-20 18:00","2018","05","20","18:00","-5.9","","-8.4","","83","","","M","11","","11","","","","101.78","","","","-11","","NA"
"-112.16","74.46","CAPE PROVIDENCE","2501419","2018-05-20 19:00","2018","05","20","19:00","-6.3","","-8.8","","83","","","M","12","","9","","","","101.80","","","","-11","","NA"
"-112.16","74.46","CAPE PROVIDENCE","2501419","2018-05-20 20:00","2018","05","20","20:00","-6.7","","-8.9","","84","","","M","16","","7","","","","101.79","","","","-10","","NA"
"-112.16","74.46","CAPE PROVIDENCE","2501419","2018-05-20 21:00","2018","05","20","21:00","-7.7","","-9.2","","89","","","M","20","","9","","","","101.81","","","","-12","","NA"
"-112.16","74.46","CAPE PROVIDENCE","2501419","2018-05-20 22:00","2018","05","20","22:00","-8.1","","-9.6","","89","","","M","20","","10","","","","101.83","","","","-13","","NA"
"-112.16","74.46","CAPE PROVIDENCE","2501419","2018-05-20 23:00","2018","05","20","23:00","-8.5","","-9.8","","91","","","M","22","","14","","","","101.87","","","","-15","","NA"
"-112.16","74.46","CAPE PROVIDENCE","2501419","2018-05-21 00:00","2018","05","21","00:00","-8.9","","-10.1","","90","","","M","24","","11","","","","101.89","","","","-14","","NA"
"-112.16","74.46","CAPE PROVIDENCE","2501419","2018-05-21 01:00","2018","05","21","01:00","-9.3","","-10.5","","91","","","M","22","","15","","","","101.94","","","","-16","","NA"
"-112.16","74.46","CAPE PROVIDENCE","2501419","2018-05-21 02:00","2018","05","21","02:00","-8.9","","-11.2","","84","","","M","23","","13","","","","101.94","","","","-15","","NA"
"-112.16","74.46","CAPE PROVIDENCE","2501419","2018-05-21 03:00","2018","05","21","03:00","-9.8","","-10.8","","93","","","M","21","","7","","","","101.95","","","","-14","","NA"
"-112.16","74.46","CAPE PROVIDENCE","2501419","2018-05-21 04:00","2018","05","21","04:00","-10.4","","-11.4","","93","","","M","23","","6","","","","101.98","","","","-14","","NA"
"-112.16","74.46","CAPE PROVIDENCE","2501419","2018-05-21 05:00","2018","05","21","05:00","-9.5","","-11.4","","86","","","M","19","","5","","","","102.00","","","","-12","","NA"
"-112.16","74.46","CAPE PROVIDENCE","2501419","2018-05-21 06:00","2018","05","21","06:00","-10.1","","-11.1","","93","","","M","22","","11","","","","102.02","","","","-16","","NA"
"-112.16","74.46","CAPE PROVIDENCE","2501419","2018-05-21 07:00","2018","05","21","07:00","-8.9","","-10.5","","88","","","M","19","","6","","","","102.02","","","","-12","","NA"
"-112.16","74.46","CAPE PROVIDENCE","2501419","2018-05-21 08:00","2018","05","21","08:00","-7.7","","-10.6","","80","","","M","17","","3","","","","102.04","","","","-9","","NA"
"-112.16","74.46","CAPE PROVIDENCE","2501419","2018-05-21 09:00","2018","05","21","09:00","-6.7","","-10.4","","75","","","M","15","","4","","","","102.03","","","","-9","","NA"
"-112.16","74.46","CAPE PROVIDENCE","2501419","2018-05-21 10:00","2018","05","21","10:00","-7.0","","-10.4","","77","","","M","18","","5","","","","102.04","","","","-10","","NA"
"-112.16","74.46","CAPE PROVIDENCE","2501419","2018-05-21 11:00","2018","05","21","11:00","-6.7","","-10.4","","75","","","M","18","","6","","","","102.04","","","","-10","","NA"
"-112.16","74.46","CAPE PROVIDENCE","2501419","2018-05-21 12:00","2018","05","21","12:00","-5.3","","-9.1","","75","","","M","21","","13","","","","102.05","","","","-10","","NA"
"-112.16","74.46","CAPE PROVIDENCE","2501419","2018-05-21 13:00","2018","05","21","13:00","-2.5","","-7.1","","71","","","M","19","","8","","","","102.04","","","","-6","","NA"
"-112.16","74.46","CAPE PROVIDENCE","2501419","2018-05-21 14:00","2018","05","21","14:00","-1.5","","-10.2","","52","","","M","36","","13","","","","102.05","","","","-6","","NA"
"-112.16","74.46","CAPE PROVIDENCE","2501419","2018-05-21 15:00","2018","05","21","15:00","-0.6","","-9.6","","50","","","M","35","","10","","","","102.06","","","","-4","","NA"
"-112.16","74.46","CAPE PROVIDENCE","2501419","2018-05-21 16:00","2018","05","21","16:00","-0.7","","-9.2","","53","","","M","33","","7","","","","102.07","","","","-3","","NA"
"-112.16","74.46","CAPE PROVIDENCE","2501419","2018-05-21 17:00","2018","05","21","17:00","-3.8","","-6.6","","81","","","M","10","","15","","","","102.09","","","","-9","","NA"
"-112.16","74.46","CAPE PROVIDENCE","2501419","2018-05-21 18:00","2018","05","21","18:00","-4.5","","-7.5","","79","","","M","10","","7","","","","102.11","","","","-8","","NA"
"-112.16","74.46","CAPE PROVIDENCE","2501419","2018-05-21 19:00","2018","05","21","19:00","-5.1","","-7.7","","82","","","M","12","","7","","","","102.11","","","","-8","","NA"
"-112.16","74.46","CAPE PROVIDENCE","2501419","2018-05-21 20:00","2018","05","21","20:00","-5.6","","-8.7","","79","","","M","12","","4","","","","102.11","","","","-7","","NA"
"-112.16","74.46","CAPE PROVIDENCE","2501419","2018-05-21 21:00","2018","05","21","21:00","-6.5","","-8.6","","85","","","M","17","","5","","","","102.11","","","","-9","","NA"
"-112.16","74.46","CAPE PROVIDENCE","2501419","2018-05-21 22:00","2018","05","21","22:00","-6.1","","-8.5","","83","","","M","36","","4","","","","102.11","","","","-8","","NA"
"-112.16","74.46","CAPE PROVIDENCE","2501419","2018-05-21 23:00","2018","05","21","23:00","-6.3","","-10.9","","70","","","M","15","","4","","","","102.13","","","","-8","","NA"
"-112.16","74.46","CAPE PROVIDENCE","2501419","2018-05-22 00:00","2018","05","22","00:00","-6.5","","-10.4","","74","","","M","1","","28","","","","102.10","","","","-15","","NA"
"-112.16","74.46","CAPE PROVIDENCE","2501419","2018-05-22 01:00","2018","05","22","01:00","-6.9","","-10.8","","74","","","M","34","","27","","","","102.11","","","","-15","","NA"
"-112.16","74.46","CAPE PROVIDENCE","2501419","2018-05-22 02:00","2018","05","22","02:00","-7.2","","-11.1","","74","","","M","36","","27","","","","102.09","","","","-15","","NA"
"-112.16","74.46","CAPE PROVIDENCE","2501419","2018-05-22 03:00","2018","05","22","03:00","-6.5","","-10.8","","72","","","M","35","","26","","","","102.11","","","","-14","","NA"
"-112.16","74.46","CAPE PROVIDENCE","2501419","2018-05-22 04:00","2018","05","22","04:00","-7.0","","-10.8","","74","","","M","35","","27","","","","102.09","","","","-15","","NA"
"-112.16","74.46","CAPE PROVIDENCE","2501419","2018-05-22 05:00","2018","05","22","05:00","-6.7","","-10.6","","74","","","M","35","","23","","","","102.10","","","","-14","","NA"
"-112.16","74.46","CAPE PROVIDENCE","2501419","2018-05-22 06:00","2018","05","22","06:00","-5.9","","-10.0","","72","","","M","35","","21","","","","102.08","","","","-13","","NA"
"-112.16","74.46","CAPE PROVIDENCE","2501419","2018-05-22 07:00","2018","05","22","07:00","-4.8","","-9.2","","71","","","M","34","","14","","","","102.07","","","","-10","","NA"
"-112.16","74.46","CAPE PROVIDENCE","2501419","2018-05-22 08:00","2018","05","22","08:00","-6.2","","-8.9","","81","","","M","21","","10","","","","102.05","","","","-11","","NA"
"-112.16","74.46","CAPE PROVIDENCE","2501419","2018-05-22 09:00","2018","05","22","09:00","-6.8","","-9.1","","84","","","M","20","","12","","","","102.02","","","","-12","","NA"
"-112.16","74.46","CAPE PROVIDENCE","2501419","2018-05-22 10:00","2018","05","22","10:00","-4.1","","-7.9","","75","","","M","36","","28","","","","101.95","","","","-12","","NA"
"-112.16","74.46","CAPE PROVIDENCE","2501419","2018-05-22 11:00","2018","05","22","11:00","-5.0","","-8.2","","78","","","M","36","","30","","","","101.94","","","","-13","","NA"
"-112.16","74.46","CAPE PROVIDENCE","2501419","2018-05-22 12:00","2018","05","22","12:00","-4.0","","-7.4","","77","","","M","2","","25","","","","101.94","","","","-11","","NA"
"-112.16","74.46","CAPE PROVIDENCE","2501419","2018-05-22 13:00","2018","05","22","13:00","-4.1","","-7.3","","78","","","M","3","","22","","","","101.92","","","","-11","","NA"
"-112.16","74.46","CAPE PROVIDENCE","2501419","2018-05-22 14:00","2018","05","22","14:00","-4.2","","-7.1","","80","","","M","6","","19","","","","101.89","","","","-10","","NA"
"-112.16","74.46","CAPE PROVIDENCE","2501419","2018-05-22 15:00","2018","05","22","15:00","-4.4","","-7.3","","81","","","M","5","","19","","","","101.86","","","","-11","","NA"
"-112.16","74.46","CAPE PROVIDENCE","2501419","2018-05-22 16:00","2018","05","22","16:00","-4.4","","-7.5","","79","","","M","5","","18","","","","101.85","","","","-10","","NA"
"-112.16","74.46","CAPE PROVIDENCE","2501419","2018-05-22 17:00","2018","05","22","17:00","-4.2","","-7.2","","80","","","M","4","","19","","","","101.84","","","","-10","","NA"
"-112.16","74.46","CAPE PROVIDENCE","2501419","2018-05-22 18:00","2018","05","22","18:00","-4.1","","-7.1","","79","","","M","4","","19","","","","101.83","","","","-10","","NA"
"-112.16","74.46","CAPE PROVIDENCE","2501419","2018-05-22 19:00","2018","05","22","19:00","-4.0","","-7.0","","79","","","M","4","","21","","","","101.80","","","","-10","","NA"
"-112.16","74.46","CAPE PROVIDENCE","2501419","2018-05-22 20:00","2018","05","22","20:00","-4.5","","-6.9","","83","","","M","2","","23","","","","101.76","","","","-11","","NA"
"-112.16","74.46","CAPE PROVIDENCE","2501419","2018-05-22 21:00","2018","05","22","21:00","-4.8","","-8.8","","74","","","M","2","","24","","","","101.74","","","","-12","","NA"
"-112.16","74.46","CAPE PROVIDENCE","2501419","2018-05-22 22:00","2018","05","22","22:00","-6.4","","-9.6","","78","","","M","36","","24","","","","101.72","","","","-14","","NA"
"-112.16","74.46","CAPE PROVIDENCE","2501419","2018-05-22 23:00","2018","05","22","23:00","","M","","M","","M","","M","","M","","M","","","","M","","","","","NA"
"-112.16","74.46","CAPE PROVIDENCE","2501419","2018-05-23 00:00","2018","05","23","00:00","-8.0","","-11.3","","77","","","M","36","","35","","","","101.68","","","","-18","","NA"
"-112.16","74.46","CAPE PROVIDENCE","2501419","2018-05-23 01:00","2018","05","23","01:00","-8.8","","-14.0","","66","","","M","36","","35","","","","101.67","","","","-19","","NA"
"-112.16","74.46","CAPE PROVIDENCE","2501419","2018-05-23 02:00","2018","05","23","02:00","-9.2","","-14.3","","67","","","M","35","","35","","","","101.67","","","","-19","","NA"
"-112.16","74.46","CAPE PROVIDENCE","2501419","2018-05-23 03:00","2018","05","23","03:00","-10.2","","-11.8","","88","","","M","35","","43","","","","101.64","","","","-21","","NA"
"-112.16","74.46","CAPE PROVIDENCE","2501419","2018-05-23 04:00","2018","05","23","04:00","-8.8","","-10.1","","90","","","M","36","","42","","","","101.64","","","","-19","","NA"
"-112.16","74.46","CAPE PROVIDENCE","2501419","2018-05-23 05:00","2018","05","23","05:00","-8.5","","-10.3","","87","","","M","36","","38","","","","101.65","","","","-19","","NA"
"-112.16","74.46","CAPE PROVIDENCE","2501419","2018-05-23 06:00","2018","05","23","06:00","-8.1","","-10.6","","82","","","M","36","","38","","","","101.64","","","","-18","","NA"
"-112.16","74.46","CAPE PROVIDENCE","2501419","2018-05-23 07:00","2018","05","23","07:00","-7.9","","-10.6","","81","","","M","36","","34","","","","101.66","","","","-17","","NA"
"-112.16","74.46","CAPE PROVIDENCE","2501419","2018-05-23 08:00","2018","05","23","08:00","-6.7","","-9.2","","83","","","M","36","","34","","","","101.66","","","","-16","","NA"
"-112.16","74.46","CAPE PROVIDENCE","2501419","2018-05-23 09:00","2018","05","23","09:00","-5.2","","-8.0","","81","","","M","1","","30","","","","101.64","","","","-13","","NA"
"-112.16","74.46","CAPE PROVIDENCE","2501419","2018-05-23 10:00","2018","05","23","10:00","-4.8","","-7.6","","81","","","M","3","","22","","","","101.68","","","","-12","","NA"
"-112.16","74.46","CAPE PROVIDENCE","2501419","2018-05-23 11:00","2018","05","23","11:00","-3.6","","-6.4","","81","","","M","36","","38","","","","101.61","","","","-12","","NA"
"-112.16","74.46","CAPE PROVIDENCE","2501419","2018-05-23 12:00","2018","05","23","12:00","-3.1","","-6.3","","79","","","M","1","","39","","","","101.63","","","","-11","","NA"
"-112.16","74.46","CAPE PROVIDENCE","2501419","2018-05-23 13:00","2018","05","23","13:00","-2.2","","-5.7","","77","","","M","1","","37","","","","101.66","","","","-10","","NA"
"-112.16","74.46","CAPE PROVIDENCE","2501419","2018-05-23 14:00","2018","05","23","14:00","-2.2","","-5.8","","76","","","M","36","","34","","","","101.70","","","","-10","","NA"
"-112.16","74.46","CAPE PROVIDENCE","2501419","2018-05-23 15:00","2018","05","23","15:00","-1.9","","-5.4","","77","","","M","35","","28","","","","101.73","","","","-9","","NA"
"-112.16","74.46","CAPE PROVIDENCE","2501419","2018-05-23 16:00","2018","05","23","16:00","-1.9","","-5.5","","76","","","M","1","","25","","","","101.76","","","","-8","","NA"
"-112.16","74.46","CAPE PROVIDENCE","2501419","2018-05-23 17:00","2018","05","23","17:00","-2.4","","-5.3","","80","","","M","1","","29","","","","101.79","","","","-9","","NA"
"-112.16","74.46","CAPE PROVIDENCE","2501419","2018-05-23 18:00","2018","05","23","18:00","-2.7","","-6.8","","73","","","M","35","","34","","","","101.79","","","","-10","","NA"
"-112.16","74.46","CAPE PROVIDENCE","2501419","2018-05-23 19:00","2018","05","23","19:00","-3.3","","-6.6","","78","","","M","35","","31","","","","101.84","","","","-11","","NA"
"-112.16","74.46","CAPE PROVIDENCE","2501419","2018-05-23 20:00","2018","05","23","20:00","-3.7","","-6.7","","80","","","M","34","","32","","","","101.86","","","","-12","","NA"
"-112.16","74.46","CAPE PROVIDENCE","2501419","2018-05-23 21:00","2018","05","23","21:00","-3.3","","-6.3","","79","","","M","33","","27","","","","101.87","","","","-10","","NA"
"-112.16","74.46","CAPE PROVIDENCE","2501419","2018-05-23 22:00","2018","05","23","22:00","-3.5","","-6.7","","79","","","M","33","","27","","","","101.90","","","","-11","","NA"
"-112.16","74.46","CAPE PROVIDENCE","2501419","2018-05-23 23:00","2018","05","23","23:00","-4.0","","-7.2","","78","","","M","33","","28","","","","101.93","","","","-11","","NA"
"-112.16","74.46","CAPE PROVIDENCE","2501419","2018-05-24 00:00","2018","05","24","00:00","-5.8","","-8.7","","80","","","M","33","","24","","","","101.99","","","","-13","","NA"
"-112.16","74.46","CAPE PROVIDENCE","2501419","2018-05-24 01:00","2018","05","24","01:00","-6.2","","-9.0","","80","","","M","32","","26","","","","102.03","","","","-14","","NA"
"-112.16","74.46","CAPE PROVIDENCE","2501419","2018-05-24 02:00","2018","05","24","02:00","-4.0","","-8.0","","74","","","M","32","","24","","","","102.07","","","","-11","","NA"
"-112.16","74.46","CAPE PROVIDENCE","2501419","2018-05-24 03:00","2018","05","24","03:00","-3.1","","-7.6","","71","","","M","36","","10","","","","102.09","","","","-7","","NA"
"-112.16","74.46","CAPE PROVIDENCE","2501419","2018-05-24 04:00","2018","05","24","04:00","-3.5","","-7.3","","75","","","M","32","","11","","","","102.11","","","","-8","","NA"
"-112.16","74.46","CAPE PROVIDENCE","2501419","2018-05-24 05:00","2018","05","24","05:00","-3.9","","-7.6","","75","","","M","30","","15","","","","102.16","","","","-9","","NA"
"-112.16","74.46","CAPE PROVIDENCE","2501419","2018-05-24 06:00","2018","05","24","06:00","-3.7","","-7.9","","73","","","M","30","","16","","","","102.17","","","","-9","","NA"
"-112.16","74.46","CAPE PROVIDENCE","2501419","2018-05-24 07:00","2018","05","24","07:00","-3.2","","-7.3","","73","","","M","30","","20","","","","102.16","","","","-9","","NA"
"-112.16","74.46","CAPE PROVIDENCE","2501419","2018-05-24 08:00","2018","05","24","08:00","-1.9","","-6.5","","71","","","M","31","","16","","","","102.14","","","","-7","","NA"
"-112.16","74.46","CAPE PROVIDENCE","2501419","2018-05-24 09:00","2018","05","24","09:00","-0.2","","-7.0","","60","","","M","33","","7","","","","102.14","","","","-3","","NA"
"-112.16","74.46","CAPE PROVIDENCE","2501419","2018-05-24 10:00","2018","05","24","10:00","-1.0","","-6.9","","64","","","M","29","","12","","","","102.14","","","","-5","","NA"
"-112.16","74.46","CAPE PROVIDENCE","2501419","2018-05-24 11:00","2018","05","24","11:00","-1.2","","-7.2","","64","","","M","30","","23","","","","102.15","","","","-7","","NA"
"-112.16","74.46","CAPE PROVIDENCE","2501419","2018-05-24 12:00","2018","05","24","12:00","-1.3","","-6.4","","68","","","M","30","","34","","","","102.12","","","","-9","","NA"
"-112.16","74.46","CAPE PROVIDENCE","2501419","2018-05-24 13:00","2018","05","24","13:00","-0.9","","-5.8","","69","","","M","30","","33","","","","102.12","","","","-8","","NA"
"-112.16","74.46","CAPE PROVIDENCE","2501419","2018-05-24 14:00","2018","05","24","14:00","-1.0","","-5.9","","69","","","M","30","","36","","","","102.10","","","","-8","","NA"
"-112.16","74.46","CAPE PROVIDENCE","2501419","2018-05-24 15:00","2018","05","24","15:00","-0.8","","-5.7","","69","","","M","30","","33","","","","102.11","","","","-8","","NA"
"-112.16","74.46","CAPE PROVIDENCE","2501419","2018-05-24 16:00","2018","05","24","16:00","-1.5","","-6.1","","70","","","M","30","","39","","","","102.10","","","","-9","","NA"
"-112.16","74.46","CAPE PROVIDENCE","2501419","2018-05-24 17:00","2018","05","24","17:00","-1.3","","-6.1","","70","","","M","30","","38","","","","102.10","","","","-9","","NA"
"-112.16","74.46","CAPE PROVIDENCE","2501419","2018-05-24 18:00","2018","05","24","18:00","-1.5","","-6.0","","71","","","M","30","","33","","","","102.08","","","","-9","","NA"
"-112.16","74.46","CAPE PROVIDENCE","2501419","2018-05-24 19:00","2018","05","24","19:00","-2.2","","-7.0","","69","","","M","30","","36","","","","102.05","","","","-10","","NA"
"-112.16","74.46","CAPE PROVIDENCE","2501419","2018-05-24 20:00","2018","05","24","20:00","-2.7","","-7.1","","72","","","M","29","","35","","","","102.03","","","","-11","","NA"
"-112.16","74.46","CAPE PROVIDENCE","2501419","2018-05-24 21:00","2018","05","24","21:00","-3.1","","-7.8","","70","","","M","30","","34","","","","101.98","","","","-11","","NA"
"-112.16","74.46","CAPE PROVIDENCE","2501419","2018-05-24 22:00","2018","05","24","22:00","-2.9","","-8.4","","66","","","M","10","","6","","","","102.06","","","","-5","","NA"
"-112.16","74.46","CAPE PROVIDENCE","2501419","2018-05-24 23:00","2018","05","24","23:00","-5.3","","-7.7","","83","","","M","3","","3","","","","102.09","","","","-7","","NA"
"-112.16","74.46","CAPE PROVIDENCE","2501419","2018-05-25 00:00","2018","05","25","00:00","-5.6","","-7.6","","86","","","M","16","","4","","","","102.09","","","","-7","","NA"
"-112.16","74.46","CAPE PROVIDENCE","2501419","2018-05-25 01:00","2018","05","25","01:00","-9.7","","-10.3","","95","","","M","12","","5","","","","102.12","","","","-13","","NA"
"-112.16","74.46","CAPE PROVIDENCE","2501419","2018-05-25 02:00","2018","05","25","02:00","-9.2","","-9.7","","96","","","M","26","","6","","","","102.10","","","","-13","","NA"
"-112.16","74.46","CAPE PROVIDENCE","2501419","2018-05-25 03:00","2018","05","25","03:00","-9.1","","-9.6","","96","","","M","24","","7","","","","102.08","","","","-13","","NA"
"-112.16","74.46","CAPE PROVIDENCE","2501419","2018-05-25 04:00","2018","05","25","04:00","-8.8","","-9.4","","96","","","M","14","","2","","","","102.06","","","","-10","","NA"
"-112.16","74.46","CAPE PROVIDENCE","2501419","2018-05-25 05:00","2018","05","25","05:00","-8.9","","-9.7","","93","","","M","6","","6","","","","102.02","","","","-12","","NA"
"-112.16","74.46","CAPE PROVIDENCE","2501419","2018-05-25 06:00","2018","05","25","06:00","-9.0","","-10.0","","92","","","M","5","","9","","","","101.98","","","","-14","","NA"
"-112.16","74.46","CAPE PROVIDENCE","2501419","2018-05-25 07:00","2018","05","25","07:00","-9.3","","-10.0","","95","","","M","7","","8","","","","101.95","","","","-14","","NA"
"-112.16","74.46","CAPE PROVIDENCE","2501419","2018-05-25 08:00","2018","05","25","08:00","-9.0","","-9.7","","95","","","M","6","","10","","","","101.92","","","","-14","","NA"
"-112.16","74.46","CAPE PROVIDENCE","2501419","2018-05-25 09:00","2018","05","25","09:00","-7.8","","-8.3","","97","","","M","6","","7","","","","101.86","","","","-11","","NA"
"-112.16","74.46","CAPE PROVIDENCE","2501419","2018-05-25 10:00","2018","05","25","10:00","-7.7","","-8.2","","96","","","M","10","","10","","","","101.85","","","","-13","","NA"
"-112.16","74.46","CAPE PROVIDENCE","2501419","2018-05-25 11:00","2018","05","25","11:00","-7.4","","-8.0","","96","","","M","12","","10","","","","101.82","","","","-12","","NA"
"-112.16","74.46","CAPE PROVIDENCE","2501419","2018-05-25 12:00","2018","05","25","12:00","-7.3","","-8.2","","94","","","M","11","","10","","","","101.79","","","","-12","","NA"
"-112.16","74.46","CAPE PROVIDENCE","2501419","2018-05-25 13:00","2018","05","25","13:00","-6.9","","-7.6","","94","","","M","13","","8","","","","101.76","","","","-11","","NA"
"-112.16","74.46","CAPE PROVIDENCE","2501419","2018-05-25 14:00","2018","05","25","14:00","-6.6","","-7.5","","93","","","M","9","","8","","","","101.74","","","","-10","","NA"
"-112.16","74.46","CAPE PROVIDENCE","2501419","2018-05-25 15:00","2018","05","25","15:00","-6.5","","-7.5","","93","","","M","10","","12","","","","101.69","","","","-12","","NA"
"-112.16","74.46","CAPE PROVIDENCE","2501419","2018-05-25 16:00","2018","05","25","16:00","-6.1","","-7.3","","91","","","M","10","","14","","","","101.68","","","","-12","","NA"
"-112.16","74.46","CAPE PROVIDENCE","2501419","2018-05-25 17:00","2018","05","25","17:00","-6.0","","-7.4","","90","","","M","9","","13","","","","101.65","","","","-11","","NA"
"-112.16","74.46","CAPE PROVIDENCE","2501419","2018-05-25 18:00","2018","05","25","18:00","-6.1","","-7.6","","89","","","M","10","","11","","","","101.64","","","","-11","","NA"
"-112.16","74.46","CAPE PROVIDENCE","2501419","2018-05-25 19:00","2018","05","25","19:00","-6.2","","-7.7","","90","","","M","8","","14","","","","101.61","","","","-12","","NA"
"-112.16","74.46","CAPE PROVIDENCE","2501419","2018-05-25 20:00","2018","05","25","20:00","-6.4","","-7.4","","92","","","M","6","","17","","","","101.58","","","","-13","","NA"
"-112.16","74.46","CAPE PROVIDENCE","2501419","2018-05-25 21:00","2018","05","25","21:00","-6.8","","-7.8","","93","","","M","4","","16","","","","101.56","","","","-13","","NA"
"-112.16","74.46","CAPE PROVIDENCE","2501419","2018-05-25 22:00","2018","05","25","22:00","-7.4","","-8.2","","94","","","M","5","","19","","","","101.55","","","","-14","","NA"
"-112.16","74.46","CAPE PROVIDENCE","2501419","2018-05-25 23:00","2018","05","25","23:00","-7.0","","-8.1","","92","","","M","5","","18","","","","101.53","","","","-14","","NA"
"-112.16","74.46","CAPE PROVIDENCE","2501419","2018-05-26 00:00","2018","05","26","00:00","-6.4","","-8.4","","86","","","M","7","","18","","","","101.53","","","","-13","","NA"
"-112.16","74.46","CAPE PROVIDENCE","2501419","2018-05-26 01:00","2018","05","26","01:00","-6.4","","-8.2","","87","","","M","7","","13","","","","101.52","","","","-12","","NA"
"-112.16","74.46","CAPE PROVIDENCE","2501419","2018-05-26 02:00","2018","05","26","02:00","-6.3","","-7.7","","90","","","M","3","","15","","","","101.50","","","","-12","","NA"
"-112.16","74.46","CAPE PROVIDENCE","2501419","2018-05-26 03:00","2018","05","26","03:00","-6.3","","-7.7","","89","","","M","2","","19","","","","101.49","","","","-13","","NA"
"-112.16","74.46","CAPE PROVIDENCE","2501419","2018-05-26 04:00","2018","05","26","04:00","-6.1","","-8.1","","86","","","M","3","","20","","","","101.49","","","","-13","","NA"
"-112.16","74.46","CAPE PROVIDENCE","2501419","2018-05-26 05:00","2018","05","26","05:00","-5.9","","-7.7","","87","","","M","4","","23","","","","101.47","","","","-13","","NA"
"-112.16","74.46","CAPE PROVIDENCE","2501419","2018-05-26 06:00","2018","05","26","06:00","-6.0","","-7.1","","91","","","M","3","","24","","","","101.46","","","","-13","","NA"
"-112.16","74.46","CAPE PROVIDENCE","2501419","2018-05-26 07:00","2018","05","26","07:00","-5.7","","-7.3","","88","","","M","3","","23","","","","101.43","","","","-13","","NA"
"-112.16","74.46","CAPE PROVIDENCE","2501419","2018-05-26 08:00","2018","05","26","08:00","-5.0","","-8.3","","78","","","M","2","","26","","","","101.41","","","","-12","","NA"
"-112.16","74.46","CAPE PROVIDENCE","2501419","2018-05-26 09:00","2018","05","26","09:00","-5.5","","-7.6","","85","","","M","2","","23","","","","101.43","","","","-13","","NA"
"-112.16","74.46","CAPE PROVIDENCE","2501419","2018-05-26 10:00","2018","05","26","10:00","-4.8","","-8.2","","77","","","M","2","","21","","","","101.44","","","","-11","","NA"
"-112.16","74.46","CAPE PROVIDENCE","2501419","2018-05-26 11:00","2018","05","26","11:00","-4.9","","-8.7","","75","","","M","2","","18","","","","101.43","","","","-11","","NA"
"-112.16","74.46","CAPE PROVIDENCE","2501419","2018-05-26 12:00","2018","05","26","12:00","-4.7","","-7.7","","80","","","M","3","","17","","","","101.44","","","","-11","","NA"
"-112.16","74.46","CAPE PROVIDENCE","2501419","2018-05-26 13:00","2018","05","26","13:00","-4.1","","-8.1","","73","","","M","4","","16","","","","101.42","","","","-10","","NA"
"-112.16","74.46","CAPE PROVIDENCE","2501419","2018-05-26 14:00","2018","05","26","14:00","-3.8","","-7.1","","78","","","M","2","","17","","","","101.41","","","","-10","","NA"
"-112.16","74.46","CAPE PROVIDENCE","2501419","2018-05-26 15:00","2018","05","26","15:00","-3.9","","-7.7","","75","","","M","1","","15","","","","101.41","","","","-9","","NA"
"-112.16","74.46","CAPE PROVIDENCE","2501419","2018-05-26 16:00","2018","05","26","16:00","-3.4","","-7.4","","74","","","M","35","","15","","","","101.41","","","","-9","","NA"
"-112.16","74.46","CAPE PROVIDENCE","2501419","2018-05-26 17:00","2018","05","26","17:00","-3.9","","-6.0","","86","","","M","2","","15","","","","101.40","","","","-9","","NA"
"-112.16","74.46","CAPE PROVIDENCE","2501419","2018-05-26 18:00","2018","05","26","18:00","-3.9","","-6.8","","80","","","M","2","","12","","","","101.39","","","","-9","","NA"
"-112.16","74.46","CAPE PROVIDENCE","2501419","2018-05-26 19:00","2018","05","26","19:00","-4.2","","-6.8","","82","","","M","4","","10","","","","101.38","","","","-8","","NA"
"-112.16","74.46","CAPE PROVIDENCE","2501419","2018-05-26 20:00","2018","05","26","20:00","-4.8","","-6.9","","85","","","M","6","","8","","","","101.37","","","","-8","","NA"
"-112.16","74.46","CAPE PROVIDENCE","2501419","2018-05-26 21:00","2018","05","26","21:00","-5.2","","-6.9","","88","","","M","16","","9","","","","101.38","","","","-9","","NA"
"-112.16","74.46","CAPE PROVIDENCE","2501419","2018-05-26 22:00","2018","05","26","22:00","-5.9","","-7.5","","88","","","M","15","","7","","","","101.37","","","","-9","","NA"
"-112.16","74.46","CAPE PROVIDENCE","2501419","2018-05-26 23:00","2018","05","26","23:00","-6.1","","-7.4","","91","","","M","17","","7","","","","101.38","","","","-9","","NA"
"-112.16","74.46","CAPE PROVIDENCE","2501419","2018-05-27 00:00","2018","05","27","00:00","-6.1","","-7.3","","91","","","M","19","","3","","","","101.37","","","","-8","","NA"
"-112.16","74.46","CAPE PROVIDENCE","2501419","2018-05-27 01:00","2018","05","27","01:00","-4.2","","-7.3","","79","","","M","28","","18","","","","101.34","","","","-10","","NA"
"-112.16","74.46","CAPE PROVIDENCE","2501419","2018-05-27 02:00","2018","05","27","02:00","-4.7","","-7.9","","79","","","M","29","","21","","","","101.33","","","","-11","","NA"
"-112.16","74.46","CAPE PROVIDENCE","2501419","2018-05-27 03:00","2018","05","27","03:00","-4.6","","-8.0","","77","","","M","29","","16","","","","101.32","","","","-10","","NA"
"-112.16","74.46","CAPE PROVIDENCE","2501419","2018-05-27 04:00","2018","05","27","04:00","-4.7","","-7.9","","78","","","M","26","","15","","","","101.29","","","","-10","","NA"
"-112.16","74.46","CAPE PROVIDENCE","2501419","2018-05-27 05:00","2018","05","27","05:00","-4.8","","-7.6","","81","","","M","31","","27","","","","101.24","","","","-12","","NA"
"-112.16","74.46","CAPE PROVIDENCE","2501419","2018-05-27 06:00","2018","05","27","06:00","-4.0","","-7.2","","78","","","M","29","","22","","","","101.21","","","","-11","","NA"
"-112.16","74.46","CAPE PROVIDENCE","2501419","2018-05-27 07:00","2018","05","27","07:00","-3.6","","-6.7","","79","","","M","30","","39","","","","101.10","","","","-12","","NA"
"-112.16","74.46","CAPE PROVIDENCE","2501419","2018-05-27 08:00","2018","05","27","08:00","-3.8","","-6.9","","79","","","M","30","","47","","","","101.03","","","","-13","","NA"
"-112.16","74.46","CAPE PROVIDENCE","2501419","2018-05-27 09:00","2018","05","27","09:00","-3.2","","-6.3","","79","","","M","29","","52","","","","100.94","","","","-13","","NA"
"-112.16","74.46","CAPE PROVIDENCE","2501419","2018-05-27 10:00","2018","05","27","10:00","-2.5","","-5.7","","78","","","M","29","","41","","","","100.94","","","","-11","","NA"
"-112.16","74.46","CAPE PROVIDENCE","2501419","2018-05-27 11:00","2018","05","27","11:00","-1.0","","-5.0","","74","","","M","25","","30","","","","100.93","","","","-8","","NA"
"-112.16","74.46","CAPE PROVIDENCE","2501419","2018-05-27 12:00","2018","05","27","12:00","-2.2","","-6.3","","74","","","M","29","","62","","","","100.75","","","","-12","","NA"
"-112.16","74.46","CAPE PROVIDENCE","2501419","2018-05-27 13:00","2018","05","27","13:00","-2.1","","-5.6","","77","","","M","30","","57","","","","100.76","","","","-11","","NA"
"-112.16","74.46","CAPE PROVIDENCE","2501419","2018-05-27 14:00","2018","05","27","14:00","-1.3","","-5.2","","75","","","M","28","","55","","","","100.72","","","","-10","","NA"
"-112.16","74.46","CAPE PROVIDENCE","2501419","2018-05-27 15:00","2018","05","27","15:00","-2.1","","-5.8","","76","","","M","27","","46","","","","100.71","","","","-11","","NA"
"-112.16","74.46","CAPE PROVIDENCE","2501419","2018-05-27 16:00","2018","05","27","16:00","-2.3","","-5.6","","78","","","M","29","","46","","","","100.64","","","","-11","","NA"
"-112.16","74.46","CAPE PROVIDENCE","2501419","2018-05-27 17:00","2018","05","27","17:00","-2.6","","-5.7","","79","","","M","29","","42","","","","100.67","","","","-11","","NA"
"-112.16","74.46","CAPE PROVIDENCE","2501419","2018-05-27 18:00","2018","05","27","18:00","-2.4","","-5.2","","81","","","M","30","","47","","","","100.63","","","","-11","","NA"
"-112.16","74.46","CAPE PROVIDENCE","2501419","2018-05-27 19:00","2018","05","27","19:00","-3.0","","-5.6","","82","","","M","30","","45","","","","100.60","","","","-12","","NA"
"-112.16","74.46","CAPE PROVIDENCE","2501419","2018-05-27 20:00","2018","05","27","20:00","-3.2","","-5.9","","81","","","M","31","","40","","","","100.60","","","","-12","","NA"
"-112.16","74.46","CAPE PROVIDENCE","2501419","2018-05-27 21:00","2018","05","27","21:00","-2.9","","-5.8","","81","","","M","32","","30","","","","100.62","","","","-10","","NA"
"-112.16","74.46","CAPE PROVIDENCE","2501419","2018-05-27 22:00","2018","05","27","22:00","-2.7","","-5.7","","80","","","M","32","","23","","","","100.61","","","","-9","","NA"
"-112.16","74.46","CAPE PROVIDENCE","2501419","2018-05-27 23:00","2018","05","27","23:00","-2.2","","-5.4","","79","","","M","32","","22","","","","100.61","","","","-8","","NA"
"-112.16","74.46","CAPE PROVIDENCE","2501419","2018-05-28 00:00","2018","05","28","00:00","-2.2","","-5.0","","81","","","M","31","","26","","","","100.57","","","","-9","","NA"
"-112.16","74.46","CAPE PROVIDENCE","2501419","2018-05-28 01:00","2018","05","28","01:00","-2.1","","-4.9","","81","","","M","32","","30","","","","100.56","","","","-9","","NA"
"-112.16","74.46","CAPE PROVIDENCE","2501419","2018-05-28 02:00","2018","05","28","02:00","-2.1","","-5.1","","80","","","M","31","","30","","","","100.55","","","","-9","","NA"
"-112.16","74.46","CAPE PROVIDENCE","2501419","2018-05-28 03:00","2018","05","28","03:00","-1.6","","-4.9","","78","","","M","31","","30","","","","100.52","","","","-9","","NA"
"-112.16","74.46","CAPE PROVIDENCE","2501419","2018-05-28 04:00","2018","05","28","04:00","-2.3","","-4.5","","85","","","M","30","","34","","","","100.48","","","","-10","","NA"
"-112.16","74.46","CAPE PROVIDENCE","2501419","2018-05-28 05:00","2018","05","28","05:00","-1.2","","-4.4","","79","","","M","32","","29","","","","100.45","","","","-8","","NA"
"-112.16","74.46","CAPE PROVIDENCE","2501419","2018-05-28 06:00","2018","05","28","06:00","-1.9","","-4.3","","84","","","M","30","","32","","","","100.40","","","","-9","","NA"
"-112.16","74.46","CAPE PROVIDENCE","2501419","2018-05-28 07:00","2018","05","28","07:00","-1.8","","-4.2","","84","","","M","31","","36","","","","100.33","","","","-9","","NA"
"-112.16","74.46","CAPE PROVIDENCE","2501419","2018-05-28 08:00","2018","05","28","08:00","-2.0","","-4.8","","81","","","M","31","","40","","","","100.27","","","","-10","","NA"
"-112.16","74.46","CAPE PROVIDENCE","2501419","2018-05-28 09:00","2018","05","28","09:00","-1.2","","-4.3","","79","","","M","31","","36","","","","100.24","","","","-9","","NA"
"-112.16","74.46","CAPE PROVIDENCE","2501419","2018-05-28 10:00","2018","05","28","10:00","-0.8","","-4.3","","77","","","M","31","","27","","","","100.25","","","","-7","","NA"
"-112.16","74.46","CAPE PROVIDENCE","2501419","2018-05-28 11:00","2018","05","28","11:00","-0.5","","-3.8","","79","","","M","30","","28","","","","100.23","","","","-7","","NA"
"-112.16","74.46","CAPE PROVIDENCE","2501419","2018-05-28 12:00","2018","05","28","12:00","-0.1","","-3.4","","79","","","M","30","","33","","","","100.18","","","","-7","","NA"
"-112.16","74.46","CAPE PROVIDENCE","2501419","2018-05-28 13:00","2018","05","28","13:00","-0.8","","-4.2","","78","","","M","35","","27","","","","100.19","","","","-7","","NA"
"-112.16","74.46","CAPE PROVIDENCE","2501419","2018-05-28 14:00","2018","05","28","14:00","-0.1","","-4.9","","70","","","M","34","","25","","","","100.18","","","","-6","","NA"
"-112.16","74.46","CAPE PROVIDENCE","2501419","2018-05-28 15:00","2018","05","28","15:00","0.0","","-4.4","","72","","","M","34","","25","","","","100.18","","","","-6","","NA"
"-112.16","74.46","CAPE PROVIDENCE","2501419","2018-05-28 16:00","2018","05","28","16:00","0.3","","-4.7","","69","","","M","33","","25","","","","100.16","","","","","","NA"
"-112.16","74.46","CAPE PROVIDENCE","2501419","2018-05-28 17:00","2018","05","28","17:00","0.3","","-4.1","","72","","","M","33","","22","","","","100.16","","","","","","NA"
"-112.16","74.46","CAPE PROVIDENCE","2501419","2018-05-28 18:00","2018","05","28","18:00","0.2","","-3.4","","77","","","M","32","","24","","","","100.16","","","","","","NA"
"-112.16","74.46","CAPE PROVIDENCE","2501419","2018-05-28 19:00","2018","05","28","19:00","-0.7","","-4.7","","75","","","M","33","","23","","","","100.16","","","","-7","","NA"
"-112.16","74.46","CAPE PROVIDENCE","2501419","2018-05-28 20:00","2018","05","28","20:00","-1.2","","-4.0","","81","","","M","35","","24","","","","100.18","","","","-7","","NA"
"-112.16","74.46","CAPE PROVIDENCE","2501419","2018-05-28 21:00","2018","05","28","21:00","-4.1","","-6.4","","84","","","M","1","","41","","","","100.23","","","","-13","","NA"
"-112.16","74.46","CAPE PROVIDENCE","2501419","2018-05-28 22:00","2018","05","28","22:00","-5.5","","-7.9","","83","","","M","1","","45","","","","100.25","","","","-15","","NA"
"-112.16","74.46","CAPE PROVIDENCE","2501419","2018-05-28 23:00","2018","05","28","23:00","-5.9","","-8.4","","83","","","M","1","","46","","","","100.28","","","","-16","","NA"
"-112.16","74.46","CAPE PROVIDENCE","2501419","2018-05-29 00:00","2018","05","29","00:00","-6.7","","-8.9","","84","","","M","36","","46","","","","100.32","","","","-17","","NA"
"-112.16","74.46","CAPE PROVIDENCE","2501419","2018-05-29 01:00","2018","05","29","01:00","-7.3","","-9.7","","83","","","M","36","","50","","","","100.34","","","","-18","","NA"
"-112.16","74.46","CAPE PROVIDENCE","2501419","2018-05-29 02:00","2018","05","29","02:00","-7.7","","-9.8","","85","","","M","1","","44","","","","100.48","","","","-18","","NA"
"-112.16","74.46","CAPE PROVIDENCE","2501419","2018-05-29 03:00","2018","05","29","03:00","-8.1","","-10.5","","83","","","M","36","","56","","","","100.44","","","","-20","","NA"
"-112.16","74.46","CAPE PROVIDENCE","2501419","2018-05-29 04:00","2018","05","29","04:00","-8.3","","-10.6","","83","","","M","36","","53","","","","100.45","","","","-20","","NA"
"-112.16","74.46","CAPE PROVIDENCE","2501419","2018-05-29 05:00","2018","05","29","05:00","-7.7","","-9.7","","85","","","M","1","","62","","","","100.45","","","","-20","","NA"
"-112.16","74.46","CAPE PROVIDENCE","2501419","2018-05-29 06:00","2018","05","29","06:00","-7.1","","-9.1","","85","","","M","1","","60","","","","100.51","","","","-19","","NA"
"-112.16","74.46","CAPE PROVIDENCE","2501419","2018-05-29 07:00","2018","05","29","07:00","-6.3","","-8.8","","82","","","M","1","","53","","","","100.59","","","","-17","","NA"
"-112.16","74.46","CAPE PROVIDENCE","2501419","2018-05-29 08:00","2018","05","29","08:00","-6.3","","-8.4","","85","","","M","1","","56","","","","100.68","","","","-17","","NA"
"-112.16","74.46","CAPE PROVIDENCE","2501419","2018-05-29 09:00","2018","05","29","09:00","-5.7","","-8.6","","80","","","M","1","","51","","","","100.75","","","","-16","","NA"
"-112.16","74.46","CAPE PROVIDENCE","2501419","2018-05-29 10:00","2018","05","29","10:00","-5.1","","-7.8","","81","","","M","1","","54","","","","100.79","","","","-15","","NA"
"-112.16","74.46","CAPE PROVIDENCE","2501419","2018-05-29 11:00","2018","05","29","11:00","-4.6","","-7.5","","80","","","M","1","","55","","","","100.88","","","","-15","","NA"
"-112.16","74.46","CAPE PROVIDENCE","2501419","2018-05-29 12:00","2018","05","29","12:00","-4.0","","-6.9","","80","","","M","1","","50","","","","100.97","","","","-14","","NA"
"-112.16","74.46","CAPE PROVIDENCE","2501419","2018-05-29 13:00","2018","05","29","13:00","-4.3","","-7.0","","82","","","M","1","","54","","","","101.02","","","","-14","","NA"
"-112.16","74.46","CAPE PROVIDENCE","2501419","2018-05-29 14:00","2018","05","29","14:00","-3.8","","-6.8","","80","","","M","2","","51","","","","101.11","","","","-13","","NA"
"-112.16","74.46","CAPE PROVIDENCE","2501419","2018-05-29 15:00","2018","05","29","15:00","-4.5","","-7.5","","80","","","M","1","","54","","","","101.19","","","","-15","","NA"
"-112.16","74.46","CAPE PROVIDENCE","2501419","2018-05-29 16:00","2018","05","29","16:00","-4.2","","-6.6","","83","","","M","1","","48","","","","101.29","","","","-14","","NA"
"-112.16","74.46","CAPE PROVIDENCE","2501419","2018-05-29 17:00","2018","05","29","17:00","-4.6","","-7.5","","80","","","M","1","","50","","","","101.32","","","","-14","","NA"
"-112.16","74.46","CAPE PROVIDENCE","2501419","2018-05-29 18:00","2018","05","29","18:00","-4.6","","-7.4","","81","","","M","1","","47","","","","101.39","","","","-14","","NA"
"-112.16","74.46","CAPE PROVIDENCE","2501419","2018-05-29 19:00","2018","05","29","19:00","-5.2","","-7.9","","81","","","M","36","","46","","","","101.44","","","","-15","","NA"
"-112.16","74.46","CAPE PROVIDENCE","2501419","2018-05-29 20:00","2018","05","29","20:00","-5.4","","-8.0","","82","","","M","36","","43","","","","101.47","","","","-15","","NA"
"-112.16","74.46","CAPE PROVIDENCE","2501419","2018-05-29 21:00","2018","05","29","21:00","-5.6","","-8.2","","82","","","M","36","","38","","","","101.53","","","","-15","","NA"
"-112.16","74.46","CAPE PROVIDENCE","2501419","2018-05-29 22:00","2018","05","29","22:00","-6.2","","-8.8","","82","","","M","36","","46","","","","101.56","","","","-16","","NA"
"-112.16","74.46","CAPE PROVIDENCE","2501419","2018-05-29 23:00","2018","05","29","23:00","-6.7","","-9.5","","81","","","M","36","","42","","","","101.58","","","","-17","","NA"
"-112.16","74.46","CAPE PROVIDENCE","2501419","2018-05-30 00:00","2018","05","30","00:00","-7.5","","-10.3","","80","","","M","35","","40","","","","101.61","","","","-17","","NA"
"-112.16","74.46","CAPE PROVIDENCE","2501419","2018-05-30 01:00","2018","05","30","01:00","-7.7","","-10.6","","80","","","M","35","","38","","","","101.65","","","","-17","","NA"
"-112.16","74.46","CAPE PROVIDENCE","2501419","2018-05-30 02:00","2018","05","30","02:00","-8.5","","-11.3","","80","","","M","35","","38","","","","101.70","","","","-19","","NA"
"-112.16","74.46","CAPE PROVIDENCE","2501419","2018-05-30 03:00","2018","05","30","03:00","-8.8","","-12.1","","77","","","M","35","","40","","","","101.73","","","","-19","","NA"
"-112.16","74.46","CAPE PROVIDENCE","2501419","2018-05-30 04:00","2018","05","30","04:00","-8.9","","-11.8","","79","","","M","35","","43","","","","101.72","","","","-20","","NA"
"-112.16","74.46","CAPE PROVIDENCE","2501419","2018-05-30 05:00","2018","05","30","05:00","-8.4","","-11.8","","77","","","M","35","","37","","","","101.76","","","","-18","","NA"
"-112.16","74.46","CAPE PROVIDENCE","2501419","2018-05-30 06:00","2018","05","30","06:00","-8.2","","-11.7","","76","","","M","35","","38","","","","101.78","","","","-18","","NA"
"-112.16","74.46","CAPE PROVIDENCE","2501419","2018-05-30 07:00","2018","05","30","07:00","-7.3","","-11.0","","75","","","M","34","","33","","","","101.82","","","","-16","","NA"
"-112.16","74.46","CAPE PROVIDENCE","2501419","2018-05-30 08:00","2018","05","30","08:00","-6.5","","-11.2","","69","","","M","36","","25","","","","101.86","","","","-14","","NA"
"-112.16","74.46","CAPE PROVIDENCE","2501419","2018-05-30 09:00","2018","05","30","09:00","-5.7","","-11.2","","65","","","M","35","","13","","","","101.90","","","","-11","","NA"
"-112.16","74.46","CAPE PROVIDENCE","2501419","2018-05-30 10:00","2018","05","30","10:00","-5.7","","-11.1","","65","","","M","36","","16","","","","101.90","","","","-12","","NA"
"-112.16","74.46","CAPE PROVIDENCE","2501419","2018-05-30 11:00","2018","05","30","11:00","-4.8","","-10.7","","63","","","M","33","","8","","","","101.88","","","","-8","","NA"
"-112.16","74.46","CAPE PROVIDENCE","2501419","2018-05-30 12:00","2018","05","30","12:00","-4.2","","-10.9","","60","","","M","36","","8","","","","101.90","","","","-8","","NA"
"-112.16","74.46","CAPE PROVIDENCE","2501419","2018-05-30 13:00","2018","05","30","13:00","-4.3","","-9.8","","65","","","M","23","","18","","","","101.89","","","","-10","","NA"
"-112.16","74.46","CAPE PROVIDENCE","2501419","2018-05-30 14:00","2018","05","30","14:00","-4.5","","-8.8","","72","","","M","23","","21","","","","101.88","","","","-11","","NA"
"-112.16","74.46","CAPE PROVIDENCE","2501419","2018-05-30 15:00","2018","05","30","15:00","-3.7","","-9.5","","64","","","M","26","","16","","","","101.88","","","","-9","","NA"
"-112.16","74.46","CAPE PROVIDENCE","2501419","2018-05-30 16:00","2018","05","30","16:00","-3.6","","-10.0","","61","","","M","29","","16","","","","101.87","","","","-9","","NA"
"-112.16","74.46","CAPE PROVIDENCE","2501419","2018-05-30 17:00","2018","05","30","17:00","-4.0","","-9.6","","65","","","M","28","","18","","","","101.87","","","","-10","","NA"
"-112.16","74.46","CAPE PROVIDENCE","2501419","2018-05-30 18:00","2018","05","30","18:00","-4.4","","-9.0","","70","","","M","29","","21","","","","101.83","","","","-11","","NA"
"-112.16","74.46","CAPE PROVIDENCE","2501419","2018-05-30 19:00","2018","05","30","19:00","-4.6","","-9.9","","66","","","M","28","","21","","","","101.83","","","","-11","","NA"
"-112.16","74.46","CAPE PROVIDENCE","2501419","2018-05-30 20:00","2018","05","30","20:00","-5.0","","-10.0","","68","","","M","29","","23","","","","101.81","","","","-12","","NA"
"-112.16","74.46","CAPE PROVIDENCE","2501419","2018-05-30 21:00","2018","05","30","21:00","-5.3","","-8.9","","76","","","M","30","","30","","","","101.76","","","","-13","","NA"
"-112.16","74.46","CAPE PROVIDENCE","2501419","2018-05-30 22:00","2018","05","30","22:00","-5.6","","-9.0","","77","","","M","30","","30","","","","101.77","","","","-14","","NA"
"-112.16","74.46","CAPE PROVIDENCE","2501419","2018-05-30 23:00","2018","05","30","23:00","-6.0","","-9.1","","79","","","M","32","","26","","","","101.77","","","","-14","","NA"
"-112.16","74.46","CAPE PROVIDENCE","2501419","2018-05-31 00:00","2018","05","31","00:00","-6.3","","-10.1","","74","","","M","34","","22","","","","101.77","","","","-14","","NA"
"-112.16","74.46","CAPE PROVIDENCE","2501419","2018-05-31 01:00","2018","05","31","01:00","-7.0","","-10.5","","76","","","M","32","","18","","","","101.81","","","","-14","","NA"
"-112.16","74.46","CAPE PROVIDENCE","2501419","2018-05-31 02:00","2018","05","31","02:00","-6.7","","-10.6","","74","","","M","32","","20","","","","101.80","","","","-14","","NA"
"-112.16","74.46","CAPE PROVIDENCE","2501419","2018-05-31 03:00","2018","05","31","03:00","-6.2","","-10.2","","73","","","M","32","","16","","","","101.82","","","","-12","","NA"
"-112.16","74.46","CAPE PROVIDENCE","2501419","2018-05-31 04:00","2018","05","31","04:00","-6.2","","-9.6","","77","","","M","29","","14","","","","101.84","","","","-12","","NA"
"-112.16","74.46","CAPE PROVIDENCE","2501419","2018-05-31 05:00","2018","05","31","05:00","-5.7","","-10.8","","67","","","M","32","","17","","","","101.83","","","","-12","","NA"
"-112.16","74.46","CAPE PROVIDENCE","2501419","2018-05-31 06:00","2018","05","31","06:00","-6.0","","-9.7","","76","","","M","36","","19","","","","101.85","","","","-13","","NA"
"-112.16","74.46","CAPE PROVIDENCE","2501419","2018-05-31 07:00","2018","05","31","07:00","-5.9","","-9.1","","78","","","M","2","","16","","","","101.87","","","","-12","","NA"
"-112.16","74.46","CAPE PROVIDENCE","2501419","2018-05-31 08:00","2018","05","31","08:00","-6.5","","-10.9","","71","","","M","3","","16","","","","101.90","","","","-13","","NA"
"-112.16","74.46","CAPE PROVIDENCE","2501419","2018-05-31 09:00","2018","05","31","09:00","-7.3","","-11.3","","73","","","M","3","","19","","","","101.94","","","","-14","","NA"
"-112.16","74.46","CAPE PROVIDENCE","2501419","2018-05-31 10:00","2018","05","31","10:00","-7.0","","-12.2","","67","","","M","2","","17","","","","101.95","","","","-13","","NA"
"-112.16","74.46","CAPE PROVIDENCE","2501419","2018-05-31 11:00","2018","05","31","11:00","-6.7","","-11.9","","67","","","M","2","","21","","","","101.95","","","","-14","","NA"
"-112.16","74.46","CAPE PROVIDENCE","2501419","2018-05-31 12:00","2018","05","31","12:00","-6.4","","-12.3","","63","","","M","1","","15","","","","102.00","","","","-12","","NA"
"-112.16","74.46","CAPE PROVIDENCE","2501419","2018-05-31 13:00","2018","05","31","13:00","-6.5","","-11.9","","66","","","M","36","","15","","","","102.02","","","","-12","","NA"
"-112.16","74.46","CAPE PROVIDENCE","2501419","2018-05-31 14:00","2018","05","31","14:00","-6.3","","-12.0","","64","","","M","35","","13","","","","102.04","","","","-12","","NA"
"-112.16","74.46","CAPE PROVIDENCE","2501419","2018-05-31 15:00","2018","05","31","15:00","-6.0","","-11.4","","66","","","M","2","","15","","","","102.06","","","","-12","","NA"
"-112.16","74.46","CAPE PROVIDENCE","2501419","2018-05-31 16:00","2018","05","31","16:00","-5.9","","-10.9","","68","","","M","36","","15","","","","102.11","","","","-12","","NA"
"-112.16","74.46","CAPE PROVIDENCE","2501419","2018-05-31 17:00","2018","05","31","17:00","-5.7","","-10.2","","70","","","M","1","","9","","","","102.13","","","","-10","","NA"
"-112.16","74.46","CAPE PROVIDENCE","2501419","2018-05-31 18:00","2018","05","31","18:00","-6.0","","-9.9","","73","","","M","2","","15","","","","102.15","","","","-12","","NA"
"-112.16","74.46","CAPE PROVIDENCE","2501419","2018-05-31 19:00","2018","05","31","19:00","-6.6","","-10.1","","76","","","M","3","","17","","","","102.18","","","","-13","","NA"
"-112.16","74.46","CAPE PROVIDENCE","2501419","2018-05-31 20:00","2018","05","31","20:00","-7.0","","-10.7","","75","","","M","4","","16","","","","102.20","","","","-13","","NA"
"-112.16","74.46","CAPE PROVIDENCE","2501419","2018-05-31 21:00","2018","05","31","21:00","-7.0","","-10.6","","75","","","M","36","","14","","","","102.24","","","","-13","","NA"
"-112.16","74.46","CAPE PROVIDENCE","2501419","2018-05-31 22:00","2018","05","31","22:00","-7.6","","-10.9","","77","","","M","3","","15","","","","102.27","","","","-14","","NA"
"-112.16","74.46","CAPE PROVIDENCE","2501419","2018-05-31 23:00","2018","05","31","23:00","-7.8","","-10.8","","79","","","M","3","","11","","","","102.32","","","","-13","","NA"
