"Longitude (x)","Latitude (y)","Station Name","Climate ID","Date/Time (LST)","Year","Month","Day","Time (LST)","Temp (°C)","Temp Flag","Dew Point Temp (°C)","Dew Point Temp Flag","Rel Hum (%)","Rel Hum Flag","Precip. Amount (mm)","Precip. Amount Flag","Wind Dir (10s deg)","Wind Dir Flag","Wind Spd (km/h)","Wind Spd Flag","Visibility (km)","Visibility Flag","Stn Press (kPa)","Stn Press Flag","Hmdx","Hmdx Flag","Wind Chill","Wind Chill Flag","Weather"
"-93.58","69.55","TALOYOAK A","2403855","2022-03-01 00:00","2022","03","01","00:00","-33.2","","-36.9","","71","","","","16","","12","","24.1","","101.54","","","","-44","","NA"
"-93.58","69.55","TALOYOAK A","2403855","2022-03-01 01:00","2022","03","01","01:00","-34.4","","-38.1","","70","","","","15","","16","","24.1","","101.55","","","","-47","","NA"
"-93.58","69.55","TALOYOAK A","2403855","2022-03-01 02:00","2022","03","01","02:00","-34.2","","-37.9","","70","","","","15","","16","","24.1","","101.52","","","","-47","","Clear"
"-93.58","69.55","TALOYOAK A","2403855","2022-03-01 03:00","2022","03","01","03:00","-33.9","","-37.5","","70","","","","16","","14","","24.1","","101.50","","","","-46","","NA"
"-93.58","69.55","TALOYOAK A","2403855","2022-03-01 04:00","2022","03","01","04:00","-34.2","","-37.9","","70","","","","15","","15","","24.1","","101.48","","","","-47","","NA"
"-93.58","69.55","TALOYOAK A","2403855","2022-03-01 05:00","2022","03","01","05:00","-34.8","","-38.4","","70","","","","16","","16","","24.1","","101.44","","","","-48","","Clear"
"-93.58","69.55","TALOYOAK A","2403855","2022-03-01 06:00","2022","03","01","06:00","-34.9","","-38.5","","71","","","","15","","19","","24.1","","101.39","","","","-49","","NA"
"-93.58","69.55","TALOYOAK A","2403855","2022-03-01 07:00","2022","03","01","07:00","-34.6","","-38.2","","71","","","","16","","17","","24.1","","101.34","","","","-48","","NA"
"-93.58","69.55","TALOYOAK A","2403855","2022-03-01 08:00","2022","03","01","08:00","-34.8","","-38.4","","70","","","","14","","21","","24.1","","101.31","","","","-49","","Clear"
"-93.58","69.55","TALOYOAK A","2403855","2022-03-01 09:00","2022","03","01","09:00","-34.9","","-38.6","","70","","","","15","","16","","24.1","","101.34","","","","-48","","NA"
"-93.58","69.55","TALOYOAK A","2403855","2022-03-01 10:00","2022","03","01","10:00","-33.9","","-37.6","","70","","","","17","","15","","24.1","","101.29","","","","-46","","NA"
"-93.58","69.55","TALOYOAK A","2403855","2022-03-01 11:00","2022","03","01","11:00","-33.5","","-37.3","","69","","","","15","","12","","24.1","","101.32","","","","-44","","Mainly Clear"
"-93.58","69.55","TALOYOAK A","2403855","2022-03-01 12:00","2022","03","01","12:00","-33.2","","-37.1","","69","","","","15","","13","","24.1","","101.36","","","","-44","","NA"
"-93.58","69.55","TALOYOAK A","2403855","2022-03-01 13:00","2022","03","01","13:00","-32.8","","-36.7","","69","","","","16","","14","","24.1","","101.38","","","","-44","","NA"
"-93.58","69.55","TALOYOAK A","2403855","2022-03-01 14:00","2022","03","01","14:00","-32.7","","-36.6","","69","","","","17","","13","","24.1","","101.41","","","","-44","","Mostly Cloudy"
"-93.58","69.55","TALOYOAK A","2403855","2022-03-01 15:00","2022","03","01","15:00","-32.6","","-36.5","","69","","","","17","","12","","24.1","","101.46","","","","-43","","NA"
"-93.58","69.55","TALOYOAK A","2403855","2022-03-01 16:00","2022","03","01","16:00","-32.8","","-36.5","","70","","","","17","","16","","24.1","","101.45","","","","-45","","NA"
"-93.58","69.55","TALOYOAK A","2403855","2022-03-01 17:00","2022","03","01","17:00","-32.6","","-36.1","","71","","","","18","","17","","24.1","","101.47","","","","-45","","Clear"
"-93.58","69.55","TALOYOAK A","2403855","2022-03-01 18:00","2022","03","01","18:00","-32.7","","-36.3","","71","","","","17","","15","","24.1","","101.48","","","","-45","","NA"
"-93.58","69.55","TALOYOAK A","2403855","2022-03-01 19:00","2022","03","01","19:00","-32.4","","-35.9","","71","","","","16","","17","","24.1","","101.46","","","","-45","","NA"
"-93.58","69.55","TALOYOAK A","2403855","2022-03-01 20:00","2022","03","01","20:00","-32.6","","-36.1","","71","","","","17","","17","","24.1","","101.43","","","","-45","","Clear"
"-93.58","69.55","TALOYOAK A","2403855","2022-03-01 21:00","2022","03","01","21:00","-32.6","","-36.0","","72","","","","16","","18","","24.1","","101.43","","","","-46","","NA"
"-93.58","69.55","TALOYOAK A","2403855","2022-03-01 22:00","2022","03","01","22:00","-32.4","","-35.9","","72","","","","16","","17","","24.1","","101.43","","","","-45","","NA"
"-93.58","69.55","TALOYOAK A","2403855","2022-03-01 23:00","2022","03","01","23:00","-32.7","","-36.2","","72","","","","17","","17","","24.1","","101.42","","","","-45","","Mainly Clear"
"-93.58","69.55","TALOYOAK A","2403855","2022-03-02 00:00","2022","03","02","00:00","-33.2","","-36.7","","71","","","","16","","16","","24.1","","101.44","","","","-46","","NA"
"-93.58","69.55","TALOYOAK A","2403855","2022-03-02 01:00","2022","03","02","01:00","-33.6","","-37.2","","71","","","","17","","14","","24.1","","101.46","","","","-45","","NA"
"-93.58","69.55","TALOYOAK A","2403855","2022-03-02 02:00","2022","03","02","02:00"
"-93.58","69.55","TALOYOAK A","2403855","2022-03-02 03:00","2022","03","02","03:00","-33.8","","-37.3","","71","","","","18","","13","","24.1","","101.48","","","","-45","","NA"
"-93.58","69.55","TALOYOAK A","2403855","2022-03-02 04:00","2022","03","02","04:00","-33.7","","-37.2","","71","","","","17","","8","","24.1","","101.50","","","","-42","","NA"
"-93.58","69.55","TALOYOAK A","2403855","2022-03-02 05:00","2022","03","02","05:00","-34.5","","-38.1","","71","","","","18","","10","","24.1","","101.49","","","","-45","","Clear"
"-93.58","69.55","TALOYOAK A","2403855","2022-03-02 06:00","2022","03","02","06:00","-34.1","","-37.7","","71","","","","17","","14","","24.1","","101.52","","","","-46","","NA"
"-93.58","69.55","TALOYOAK A","2403855","2022-03-02 07:00","2022","03","02","07:00","-34.1","","-37.6","","71","","","","16","","10","","24.1","","101.49","","","","-44","","NA"
"-93.58","69.55","TALOYOAK A","2403855","2022-03-02 08:00","2022","03","02","08:00","-33.9","","-37.5","","71","","","","19","","9","","24.1","","101.50","","","","-43","","Clear"
"-93.58","69.55","TALOYOAK A","2403855","2022-03-02 09:00","2022","03","02","09:00","-33.2","","-37.0","","70","","","","19","","11","","24.1","","101.48","","","","-44","","NA"
"-93.58","69.55","TALOYOAK A","2403855","2022-03-02 10:00","2022","03","02","10:00","-32.6","","-36.4","","69","","","","18","","12","","24.1","","101.47","","","","-43","","NA"
"-93.58","69.55","TALOYOAK A","2403855","2022-03-02 11:00","2022","03","02","11:00","-32.2","","-36.1","","69","","","","17","","14","","24.1","","101.43","","","","-44","","Clear"
"-93.58","69.55","TALOYOAK A","2403855","2022-03-02 12:00","2022","03","02","12:00","-31.9","","-35.9","","69","","","","16","","16","","24.1","","101.43","","","","-44","","NA"
"-93.58","69.55","TALOYOAK A","2403855","2022-03-02 13:00","2022","03","02","13:00","-31.7","","-35.6","","69","","","","17","","17","","24.1","","101.42","","","","-44","","NA"
"-93.58","69.55","TALOYOAK A","2403855","2022-03-02 14:00","2022","03","02","14:00","-31.7","","-35.6","","69","","","","17","","14","","24.1","","101.39","","","","-43","","Clear"
"-93.58","69.55","TALOYOAK A","2403855","2022-03-02 15:00","2022","03","02","15:00","-31.6","","-35.4","","70","","","","15","","15","","24.1","","101.34","","","","-43","","NA"
"-93.58","69.55","TALOYOAK A","2403855","2022-03-02 16:00","2022","03","02","16:00","-32.0","","-35.7","","70","","","","16","","12","","24.1","","101.29","","","","-43","","NA"
"-93.58","69.55","TALOYOAK A","2403855","2022-03-02 17:00","2022","03","02","17:00","-32.0","","-35.6","","71","","","","16","","13","","24.1","","101.24","","","","-43","","Mainly Clear"
"-93.58","69.55","TALOYOAK A","2403855","2022-03-02 18:00","2022","03","02","18:00","-32.3","","-35.9","","71","","","","19","","9","","24.1","","101.18","","","","-41","","NA"
"-93.58","69.55","TALOYOAK A","2403855","2022-03-02 19:00","2022","03","02","19:00","-32.0","","-35.6","","71","","","","20","","8","","24.1","","101.14","","","","-40","","NA"
"-93.58","69.55","TALOYOAK A","2403855","2022-03-02 20:00","2022","03","02","20:00","-31.1","","-34.7","","72","","","","17","","8","","24.1","","101.08","","","","-39","","Mainly Clear"
"-93.58","69.55","TALOYOAK A","2403855","2022-03-02 21:00","2022","03","02","21:00","-32.0","","-35.5","","72","","","","21","","7","","24.1","","101.04","","","","-40","","NA"
"-93.58","69.55","TALOYOAK A","2403855","2022-03-02 22:00","2022","03","02","22:00","-32.3","","-35.8","","72","","","","21","","8","","24.1","","101.02","","","","-41","","NA"
"-93.58","69.55","TALOYOAK A","2403855","2022-03-02 23:00","2022","03","02","23:00","-29.6","","-32.6","","76","","","","36","","9","","24.1","","100.98","","","","-38","","Mainly Clear"
"-93.58","69.55","TALOYOAK A","2403855","2022-03-03 00:00","2022","03","03","00:00","-31.4","","-34.9","","72","","","","20","","17","","24.1","","101.03","","","","-44","","NA"
"-93.58","69.55","TALOYOAK A","2403855","2022-03-03 01:00","2022","03","03","01:00","-31.9","","-35.4","","72","","","","14","","4","","24.1","","101.05","","","","-37","","NA"
"-93.58","69.55","TALOYOAK A","2403855","2022-03-03 02:00","2022","03","03","02:00","-31.2","","-34.4","","74","","","","13","","7","","24.1","","101.09","","","","-39","","Clear"
"-93.58","69.55","TALOYOAK A","2403855","2022-03-03 03:00","2022","03","03","03:00","-31.2","","-34.5","","74","","","","15","","9","","24.1","","101.12","","","","-40","","NA"
"-93.58","69.55","TALOYOAK A","2403855","2022-03-03 04:00","2022","03","03","04:00","-30.5","","-33.7","","74","","","","16","","8","","24.1","","101.14","","","","-39","","NA"
"-93.58","69.55","TALOYOAK A","2403855","2022-03-03 05:00","2022","03","03","05:00","-30.1","","-33.2","","75","","","","17","","8","","24.1","","101.16","","","","-38","","Clear"
"-93.58","69.55","TALOYOAK A","2403855","2022-03-03 06:00","2022","03","03","06:00","-30.4","","-33.6","","74","","","","20","","8","","24.1","","101.16","","","","-38","","NA"
"-93.58","69.55","TALOYOAK A","2403855","2022-03-03 07:00","2022","03","03","07:00","-31.2","","-34.6","","73","","","","19","","7","","24.1","","101.16","","","","-39","","NA"
"-93.58","69.55","TALOYOAK A","2403855","2022-03-03 08:00","2022","03","03","08:00","-30.8","","-34.1","","73","","","","22","","10","","24.1","","101.17","","","","-40","","Clear"
"-93.58","69.55","TALOYOAK A","2403855","2022-03-03 09:00","2022","03","03","09:00","-27.9","","-31.0","","76","","","","15","","7","","24.1","","101.12","","","","-35","","NA"
"-93.58","69.55","TALOYOAK A","2403855","2022-03-03 10:00","2022","03","03","10:00","-26.6","","-29.6","","76","","","","20","","8","","24.1","","101.15","","","","-34","","NA"
"-93.58","69.55","TALOYOAK A","2403855","2022-03-03 11:00","2022","03","03","11:00","-27.9","","-31.2","","75","","","","15","","8","","24.1","","101.16","","","","-36","","Ice Crystals"
"-93.58","69.55","TALOYOAK A","2403855","2022-03-03 12:00","2022","03","03","12:00","-26.9","","-30.1","","75","","","","17","","8","","24.1","","101.19","","","","-34","","Ice Crystals"
"-93.58","69.55","TALOYOAK A","2403855","2022-03-03 13:00","2022","03","03","13:00","-24.5","","-27.4","","77","","","","17","","7","","24.1","","101.22","","","","-31","","Ice Crystals"
"-93.58","69.55","TALOYOAK A","2403855","2022-03-03 14:00","2022","03","03","14:00","-22.7","","-25.9","","75","","","","22","","8","","24.1","","101.24","","","","-29","","Ice Crystals"
"-93.58","69.55","TALOYOAK A","2403855","2022-03-03 15:00","2022","03","03","15:00","-25.1","","-28.1","","77","","","","16","","9","","24.1","","101.27","","","","-33","","Ice Crystals"
"-93.58","69.55","TALOYOAK A","2403855","2022-03-03 16:00","2022","03","03","16:00","-18.0","","-21.5","","75","","","","32","","35","","24.1","","101.23","","","","-31","","Ice Crystals,Blowing Snow"
"-93.58","69.55","TALOYOAK A","2403855","2022-03-03 17:00","2022","03","03","17:00","-18.3","","-22.4","","71","","","","33","","18","","24.1","","101.27","","","","-28","","Blowing Snow"
"-93.58","69.55","TALOYOAK A","2403855","2022-03-03 18:00","2022","03","03","18:00","-17.6","","-20.9","","76","","","","33","","23","","24.1","","101.25","","","","-28","","Blowing Snow"
"-93.58","69.55","TALOYOAK A","2403855","2022-03-03 19:00","2022","03","03","19:00","-18.5","","-21.9","","75","","","","31","","39","","9.7","","101.19","","","","-32","","Blowing Snow"
"-93.58","69.55","TALOYOAK A","2403855","2022-03-03 20:00","2022","03","03","20:00","-20.1","","-23.1","","78","","","","31","","36","","9.7","","101.21","","","","-34","","Blowing Snow"
"-93.58","69.55","TALOYOAK A","2403855","2022-03-03 21:00","2022","03","03","21:00","-20.8","","-24.0","","76","","","","31","","36","","9.7","","101.23","","","","-35","","Blowing Snow"
"-93.58","69.55","TALOYOAK A","2403855","2022-03-03 22:00","2022","03","03","22:00","-20.4","","-23.5","","77","","","","31","","32","","16.1","","101.22","","","","-33","","Blowing Snow"
"-93.58","69.55","TALOYOAK A","2403855","2022-03-03 23:00","2022","03","03","23:00","-18.2","","-21.6","","75","","","","33","","26","","24.1","","101.25","","","","-29","","Blowing Snow"
"-93.58","69.55","TALOYOAK A","2403855","2022-03-04 00:00","2022","03","04","00:00","-18.8","","-21.9","","77","","","","33","","39","","16.1","","101.22","","","","-32","","Blowing Snow"
"-93.58","69.55","TALOYOAK A","2403855","2022-03-04 01:00","2022","03","04","01:00","-20.0","","-23.1","","77","","","","32","","32","","24.1","","101.25","","","","-33","","Blowing Snow"
"-93.58","69.55","TALOYOAK A","2403855","2022-03-04 02:00","2022","03","04","02:00","-18.9","","-22.0","","77","","","","31","","36","","19.3","","101.23","","","","-32","","Blowing Snow"
"-93.58","69.55","TALOYOAK A","2403855","2022-03-04 03:00","2022","03","04","03:00","-19.7","","-23.4","","73","","","","32","","23","","19.3","","101.25","","","","-31","","Blowing Snow"
"-93.58","69.55","TALOYOAK A","2403855","2022-03-04 04:00","2022","03","04","04:00","-17.4","","-22.7","","64","","","","31","","21","","24.1","","101.27","","","","-27","","Blowing Snow"
"-93.58","69.55","TALOYOAK A","2403855","2022-03-04 05:00","2022","03","04","05:00","-18.7","","-23.1","","69","","","","30","","27","","24.1","","101.18","","","","-30","","Clear"
"-93.58","69.55","TALOYOAK A","2403855","2022-03-04 06:00","2022","03","04","06:00","-17.9","","-22.4","","69","","","","32","","29","","24.1","","101.13","","","","-30","","Blowing Snow"
"-93.58","69.55","TALOYOAK A","2403855","2022-03-04 07:00","2022","03","04","07:00","-18.7","","-22.9","","70","","","","33","","31","","24.1","","101.09","","","","-31","","Blowing Snow"
"-93.58","69.55","TALOYOAK A","2403855","2022-03-04 08:00","2022","03","04","08:00","-24.7","","-28.2","","74","","","","14","","14","","24.1","","101.15","","","","-35","","Clear"
"-93.58","69.55","TALOYOAK A","2403855","2022-03-04 09:00","2022","03","04","09:00","-25.1","","-28.5","","73","","","","15","","13","","24.1","","101.12","","","","-35","","NA"
"-93.58","69.55","TALOYOAK A","2403855","2022-03-04 10:00","2022","03","04","10:00","-25.8","","-29.2","","74","","","","15","","16","","24.1","","101.10","","","","-37","","NA"
"-93.58","69.55","TALOYOAK A","2403855","2022-03-04 11:00","2022","03","04","11:00","-25.5","","-29.0","","73","","","","15","","19","","24.1","","101.07","","","","-37","","Mainly Clear"
"-93.58","69.55","TALOYOAK A","2403855","2022-03-04 12:00","2022","03","04","12:00","-25.3","","-28.6","","74","","","","16","","18","","24.1","","101.05","","","","-37","","NA"
"-93.58","69.55","TALOYOAK A","2403855","2022-03-04 13:00","2022","03","04","13:00","-25.9","","-29.2","","75","","","","15","","19","","24.1","","101.02","","","","-38","","NA"
"-93.58","69.55","TALOYOAK A","2403855","2022-03-04 14:00","2022","03","04","14:00","-24.8","","-28.2","","74","","","","15","","20","","24.1","","101.01","","","","-37","","Mostly Cloudy"
"-93.58","69.55","TALOYOAK A","2403855","2022-03-04 15:00","2022","03","04","15:00","-23.6","","-27.1","","74","","","","16","","21","","24.1","","100.98","","","","-35","","NA"
"-93.58","69.55","TALOYOAK A","2403855","2022-03-04 16:00","2022","03","04","16:00","-24.6","","-28.0","","74","","","","14","","18","","24.1","","100.96","","","","-36","","NA"
"-93.58","69.55","TALOYOAK A","2403855","2022-03-04 17:00","2022","03","04","17:00","-25.1","","-28.5","","74","","","","15","","21","","24.1","","100.95","","","","-37","","Clear"
"-93.58","69.55","TALOYOAK A","2403855","2022-03-04 18:00","2022","03","04","18:00","-25.7","","-29.1","","74","","","","16","","15","","24.1","","100.91","","","","-36","","NA"
"-93.58","69.55","TALOYOAK A","2403855","2022-03-04 19:00","2022","03","04","19:00","-25.8","","-29.0","","76","","","","16","","17","","24.1","","100.88","","","","-37","","NA"
"-93.58","69.55","TALOYOAK A","2403855","2022-03-04 20:00","2022","03","04","20:00","-26.1","","-29.2","","76","","","","15","","16","","24.1","","100.86","","","","-37","","Clear"
"-93.58","69.55","TALOYOAK A","2403855","2022-03-04 21:00","2022","03","04","21:00","-26.9","","-29.9","","76","","","","16","","14","","24.1","","100.85","","","","-37","","NA"
"-93.58","69.55","TALOYOAK A","2403855","2022-03-04 22:00","2022","03","04","22:00","-27.2","","-30.1","","77","","","","16","","16","","24.1","","100.81","","","","-38","","NA"
"-93.58","69.55","TALOYOAK A","2403855","2022-03-04 23:00","2022","03","04","23:00","-27.3","","-30.2","","77","","","","17","","13","","24.1","","100.81","","","","-37","","Clear"
"-93.58","69.55","TALOYOAK A","2403855","2022-03-05 00:00","2022","03","05","00:00","-28.2","","-31.1","","77","","","","16","","12","","24.1","","100.81","","","","-38","","NA"
"-93.58","69.55","TALOYOAK A","2403855","2022-03-05 01:00","2022","03","05","01:00","-27.9","","-30.7","","78","","","","16","","7","","24.1","","100.82","","","","-35","","Ice Crystals"
"-93.58","69.55","TALOYOAK A","2403855","2022-03-05 02:00","2022","03","05","02:00","-30.0","","-33.0","","76","","","","36","","1","","24.1","","100.83","","","","-31","","Clear"
"-93.58","69.55","TALOYOAK A","2403855","2022-03-05 03:00","2022","03","05","03:00","-30.8","","-33.8","","76","","","","2","","9","","24.1","","100.83","","","","-40","","NA"
"-93.58","69.55","TALOYOAK A","2403855","2022-03-05 04:00","2022","03","05","04:00","-30.3","","-33.3","","76","","","","2","","8","","24.1","","100.79","","","","-38","","NA"
"-93.58","69.55","TALOYOAK A","2403855","2022-03-05 05:00","2022","03","05","05:00","-30.6","","-33.5","","76","","","","36","","3","","24.1","","100.80","","","","-34","","Clear"
"-93.58","69.55","TALOYOAK A","2403855","2022-03-05 06:00","2022","03","05","06:00","-32.5","","-35.5","","75","","","","1","","7","","24.1","","100.77","","","","-40","","NA"
"-93.58","69.55","TALOYOAK A","2403855","2022-03-05 07:00","2022","03","05","07:00","-31.4","","-34.1","","77","","","","2","","10","","24.1","","100.74","","","","-41","","NA"
"-93.58","69.55","TALOYOAK A","2403855","2022-03-05 08:00","2022","03","05","08:00","-30.3","","-33.2","","77","","","","6","","5","","24.1","","100.72","","","","-36","","Clear"
"-93.58","69.55","TALOYOAK A","2403855","2022-03-05 09:00","2022","03","05","09:00","-30.1","","-33.1","","76","","","","2","","5","","24.1","","100.72","","","","-36","","NA"
"-93.58","69.55","TALOYOAK A","2403855","2022-03-05 10:00","2022","03","05","10:00","-29.8","","-32.9","","75","","","","11","","4","","24.1","","100.75","","","","-34","","NA"
"-93.58","69.55","TALOYOAK A","2403855","2022-03-05 11:00","2022","03","05","11:00","-29.1","","-32.2","","75","","","","3","","4","","24.1","","100.71","","","","-34","","Clear"
"-93.58","69.55","TALOYOAK A","2403855","2022-03-05 12:00","2022","03","05","12:00","-28.5","","-31.8","","74","","","","5","","4","","24.1","","100.71","","","","-33","","NA"
"-93.58","69.55","TALOYOAK A","2403855","2022-03-05 13:00","2022","03","05","13:00","-28.4","","-31.6","","75","","","","16","","4","","24.1","","100.73","","","","-33","","NA"
"-93.58","69.55","TALOYOAK A","2403855","2022-03-05 14:00","2022","03","05","14:00","-28.5","","-31.7","","75","","","","18","","8","","24.1","","100.74","","","","-36","","Ice Crystals"
"-93.58","69.55","TALOYOAK A","2403855","2022-03-05 15:00","2022","03","05","15:00","-28.3","","-31.4","","76","","","","13","","7","","24.1","","100.73","","","","-35","","Ice Crystals"
"-93.58","69.55","TALOYOAK A","2403855","2022-03-05 16:00","2022","03","05","16:00","-28.6","","-31.3","","78","","","","36","","1","","24.1","","100.74","","","","-30","","Ice Crystals"
"-93.58","69.55","TALOYOAK A","2403855","2022-03-05 17:00","2022","03","05","17:00","-29.5","","-32.3","","77","","","","16","","5","","24.1","","100.74","","","","-35","","Ice Crystals"
"-93.58","69.55","TALOYOAK A","2403855","2022-03-05 18:00","2022","03","05","18:00","-29.8","","-32.8","","76","","","","17","","7","","24.1","","100.69","","","","-37","","NA"
"-93.58","69.55","TALOYOAK A","2403855","2022-03-05 19:00","2022","03","05","19:00","-30.4","","-33.5","","75","","","","18","","7","","24.1","","100.71","","","","-38","","Ice Crystals"
"-93.58","69.55","TALOYOAK A","2403855","2022-03-05 20:00","2022","03","05","20:00","-31.1","","-34.4","","74","","","","16","","8","","24.1","","100.70","","","","-39","","Ice Crystals"
"-93.58","69.55","TALOYOAK A","2403855","2022-03-05 21:00","2022","03","05","21:00","-31.4","","-34.7","","73","","","","15","","9","","24.1","","100.66","","","","-40","","Ice Crystals"
"-93.58","69.55","TALOYOAK A","2403855","2022-03-05 22:00","2022","03","05","22:00","-31.7","","-35.1","","73","","","","18","","4","","24.1","","100.68","","","","-36","","Ice Crystals"
"-93.58","69.55","TALOYOAK A","2403855","2022-03-05 23:00","2022","03","05","23:00","-32.8","","-36.3","","72","","","","19","","10","","6.4","","100.67","","","","-42","","Ice Crystals,Fog"
"-93.58","69.55","TALOYOAK A","2403855","2022-03-06 00:00","2022","03","06","00:00","-33.5","","-37.0","","71","","","","1","","6","","16.1","","100.71","","","","-41","","Ice Crystals"
"-93.58","69.55","TALOYOAK A","2403855","2022-03-06 01:00","2022","03","06","01:00","-33.2","","-36.7","","72","","","","36","","12","","16.1","","100.72","","","","-44","","Ice Crystals"
"-93.58","69.55","TALOYOAK A","2403855","2022-03-06 02:00","2022","03","06","02:00","-33.3","","-36.9","","72","","","","33","","8","","16.1","","100.73","","","","-42","","Ice Crystals"
"-93.58","69.55","TALOYOAK A","2403855","2022-03-06 03:00","2022","03","06","03:00","-33.5","","-37.1","","71","","","","33","","8","","16.1","","100.77","","","","-42","","Ice Crystals"
"-93.58","69.55","TALOYOAK A","2403855","2022-03-06 04:00","2022","03","06","04:00","-33.5","","-37.1","","71","","","","35","","10","","19.3","","100.79","","","","-43","","Ice Crystals"
"-93.58","69.55","TALOYOAK A","2403855","2022-03-06 05:00","2022","03","06","05:00","-33.0","","-36.6","","72","","","","36","","2","","19.3","","100.78","","","","-35","","Ice Crystals"
"-93.58","69.55","TALOYOAK A","2403855","2022-03-06 06:00","2022","03","06","06:00","-33.1","","-36.6","","71","","","","17","","4","","24.1","","100.79","","","","-38","","Ice Crystals"
"-93.58","69.55","TALOYOAK A","2403855","2022-03-06 07:00","2022","03","06","07:00","-33.1","","-36.6","","71","","","","18","","7","","24.1","","100.80","","","","-41","","Ice Crystals"
"-93.58","69.55","TALOYOAK A","2403855","2022-03-06 08:00","2022","03","06","08:00","-32.2","","-35.6","","72","","","","17","","17","","24.1","","100.78","","","","-45","","Mostly Cloudy"
"-93.58","69.55","TALOYOAK A","2403855","2022-03-06 09:00","2022","03","06","09:00","-31.4","","-34.8","","73","","","","17","","14","","24.1","","100.77","","","","-43","","Snow Grains"
"-93.58","69.55","TALOYOAK A","2403855","2022-03-06 10:00","2022","03","06","10:00","-30.4","","-33.7","","73","","","","17","","16","","24.1","","100.74","","","","-42","","Snow Grains"
"-93.58","69.55","TALOYOAK A","2403855","2022-03-06 11:00","2022","03","06","11:00","-29.6","","-32.9","","74","","","","16","","19","","24.1","","100.76","","","","-42","","Mostly Cloudy"
"-93.58","69.55","TALOYOAK A","2403855","2022-03-06 12:00","2022","03","06","12:00","-28.7","","-31.9","","74","","","","17","","23","","24.1","","100.76","","","","-42","","NA"
"-93.58","69.55","TALOYOAK A","2403855","2022-03-06 13:00","2022","03","06","13:00","-28.4","","-31.6","","74","","","","17","","21","","24.1","","100.74","","","","-41","","NA"
"-93.58","69.55","TALOYOAK A","2403855","2022-03-06 14:00","2022","03","06","14:00","-28.4","","-31.6","","74","","","","16","","16","","24.1","","100.76","","","","-40","","Mostly Cloudy"
"-93.58","69.55","TALOYOAK A","2403855","2022-03-06 15:00","2022","03","06","15:00","-28.5","","-31.7","","74","","","","16","","19","","24.1","","100.74","","","","-41","","NA"
"-93.58","69.55","TALOYOAK A","2403855","2022-03-06 16:00","2022","03","06","16:00","-28.7","","-31.9","","74","","","","16","","23","","24.1","","100.77","","","","-42","","NA"
"-93.58","69.55","TALOYOAK A","2403855","2022-03-06 17:00","2022","03","06","17:00","-28.6","","-31.8","","75","","","","15","","21","","24.1","","100.75","","","","-42","","Mostly Cloudy"
"-93.58","69.55","TALOYOAK A","2403855","2022-03-06 18:00","2022","03","06","18:00","-28.6","","-31.8","","75","","","","16","","22","","24.1","","100.73","","","","-42","","NA"
"-93.58","69.55","TALOYOAK A","2403855","2022-03-06 19:00","2022","03","06","19:00","-28.5","","-31.6","","75","","","","17","","21","","6.4","","100.73","","","","-41","","Snow,Fog"
"-93.58","69.55","TALOYOAK A","2403855","2022-03-06 20:00","2022","03","06","20:00","-28.0","","-31.1","","75","","","","16","","21","","4.0","","100.71","","","","-41","","Snow,Fog"
"-93.58","69.55","TALOYOAK A","2403855","2022-03-06 21:00","2022","03","06","21:00","-27.3","","-30.4","","76","","","","16","","22","","1.0","","100.66","","","","-40","","Fog"
"-93.58","69.55","TALOYOAK A","2403855","2022-03-06 22:00","2022","03","06","22:00","-26.8","","-29.9","","76","","","","16","","21","","0.6","","100.66","","","","-39","","Snow,Freezing Fog"
"-93.58","69.55","TALOYOAK A","2403855","2022-03-06 23:00","2022","03","06","23:00","-26.3","","-29.3","","76","","","","18","","20","","1.6","","100.64","","","","-38","","Snow,Fog"
"-93.58","69.55","TALOYOAK A","2403855","2022-03-07 00:00","2022","03","07","00:00","-25.6","","-28.5","","77","","","","17","","24","","1.6","","100.62","","","","-39","","Snow,Fog"
"-93.58","69.55","TALOYOAK A","2403855","2022-03-07 01:00","2022","03","07","01:00","-25.6","","-28.5","","77","","","","15","","22","","2.4","","100.61","","","","-38","","Snow,Fog,Blowing Snow"
"-93.58","69.55","TALOYOAK A","2403855","2022-03-07 02:00","2022","03","07","02:00","-25.2","","-28.1","","77","","","","15","","18","","4.8","","100.61","","","","-36","","Snow,Fog"
"-93.58","69.55","TALOYOAK A","2403855","2022-03-07 03:00","2022","03","07","03:00","-24.8","","-27.7","","77","","","","14","","10","","4.8","","100.60","","","","-33","","Snow"
"-93.58","69.55","TALOYOAK A","2403855","2022-03-07 04:00","2022","03","07","04:00","-24.3","","-27.1","","78","","","","14","","9","","4.0","","100.61","","","","-32","","Snow"
"-93.58","69.55","TALOYOAK A","2403855","2022-03-07 05:00","2022","03","07","05:00","-24.2","","-27.1","","78","","","","15","","4","","4.8","","100.58","","","","-28","","Snow"
"-93.58","69.55","TALOYOAK A","2403855","2022-03-07 06:00","2022","03","07","06:00","-21.3","","-23.7","","81","","","","27","","17","","4.8","","100.57","","","","-31","","Snow"
"-93.58","69.55","TALOYOAK A","2403855","2022-03-07 07:00","2022","03","07","07:00","-21.4","","-24.0","","80","","","","26","","5","","4.8","","100.57","","","","-26","","Snow"
"-93.58","69.55","TALOYOAK A","2403855","2022-03-07 08:00","2022","03","07","08:00","-20.8","","-23.3","","81","","","","28","","18","","1.6","","100.54","","","","-31","","Snow,Fog"
"-93.58","69.55","TALOYOAK A","2403855","2022-03-07 09:00","2022","03","07","09:00","-21.4","","-23.9","","80","","","","30","","26","","1.6","","100.54","","","","-34","","Snow Showers"
"-93.58","69.55","TALOYOAK A","2403855","2022-03-07 10:00","2022","03","07","10:00","-21.4","","-23.9","","80","","","","34","","18","","6.4","","100.54","","","","-32","","Snow"
"-93.58","69.55","TALOYOAK A","2403855","2022-03-07 11:00","2022","03","07","11:00","-21.1","","-23.6","","80","","","","29","","14","","8.1","","100.52","","","","-30","","Snow Showers"
"-93.58","69.55","TALOYOAK A","2403855","2022-03-07 12:00","2022","03","07","12:00","-22.1","","-24.7","","80","","","","22","","12","","16.1","","100.51","","","","-31","","Snow Showers"
"-93.58","69.55","TALOYOAK A","2403855","2022-03-07 13:00","2022","03","07","13:00","-21.6","","-24.2","","80","","","","27","","20","","16.1","","100.51","","","","-32","","Snow"
"-93.58","69.55","TALOYOAK A","2403855","2022-03-07 14:00","2022","03","07","14:00","-22.7","","-25.4","","79","","","","29","","15","","24.1","","100.53","","","","-32","","Ice Crystals"
"-93.58","69.55","TALOYOAK A","2403855","2022-03-07 15:00","2022","03","07","15:00","-23.2","","-25.9","","79","","","","31","","25","","24.1","","100.50","","","","-36","","Ice Crystals,Blowing Snow"
"-93.58","69.55","TALOYOAK A","2403855","2022-03-07 16:00","2022","03","07","16:00","-23.4","","-26.1","","79","","","","30","","26","","24.1","","100.51","","","","-36","","Ice Crystals,Blowing Snow"
"-93.58","69.55","TALOYOAK A","2403855","2022-03-07 17:00","2022","03","07","17:00","-25.7","","-28.7","","77","","","","32","","25","","24.1","","100.51","","","","-39","","Ice Crystals,Blowing Snow"
"-93.58","69.55","TALOYOAK A","2403855","2022-03-07 18:00","2022","03","07","18:00","-27.1","","-30.2","","76","","","","31","","32","","24.1","","100.47","","","","-42","","Ice Crystals,Blowing Snow"
"-93.58","69.55","TALOYOAK A","2403855","2022-03-07 19:00","2022","03","07","19:00","-27.4","","-30.5","","76","","","","31","","37","","24.1","","100.47","","","","-44","","Ice Crystals,Blowing Snow"
"-93.58","69.55","TALOYOAK A","2403855","2022-03-07 20:00","2022","03","07","20:00","-28.1","","-31.2","","75","","","","31","","36","","6.4","","100.48","","","","-44","","Ice Crystals,Blowing Snow"
"-93.58","69.55","TALOYOAK A","2403855","2022-03-07 21:00","2022","03","07","21:00","-27.0","","-30.0","","76","","","","31","","40","","4.8","","100.45","","","","-43","","Ice Crystals,Blowing Snow"
"-93.58","69.55","TALOYOAK A","2403855","2022-03-07 22:00","2022","03","07","22:00","-27.7","","-30.8","","75","","","","31","","35","","4.0","","100.50","","","","-44","","Ice Crystals,Blowing Snow"
"-93.58","69.55","TALOYOAK A","2403855","2022-03-07 23:00","2022","03","07","23:00","-29.0","","-32.2","","74","","","","32","","28","","12.9","","100.53","","","","-44","","Ice Crystals,Blowing Snow"
"-93.58","69.55","TALOYOAK A","2403855","2022-03-08 00:00","2022","03","08","00:00","-29.2","","-32.5","","74","","","","34","","32","","16.1","","100.51","","","","-45","","Ice Crystals,Blowing Snow"
"-93.58","69.55","TALOYOAK A","2403855","2022-03-08 01:00","2022","03","08","01:00","-29.3","","-32.6","","73","","","","34","","21","","24.1","","100.57","","","","-43","","Ice Crystals,Blowing Snow"
"-93.58","69.55","TALOYOAK A","2403855","2022-03-08 02:00","2022","03","08","02:00","-28.9","","-32.2","","74","","","","35","","14","","24.1","","100.55","","","","-40","","Ice Crystals"
"-93.58","69.55","TALOYOAK A","2403855","2022-03-08 03:00","2022","03","08","03:00","-28.8","","-32.0","","74","","","","34","","13","","24.1","","100.55","","","","-39","","NA"
"-93.58","69.55","TALOYOAK A","2403855","2022-03-08 04:00","2022","03","08","04:00","-27.8","","-31.0","","75","","","","33","","14","","24.1","","100.57","","","","-38","","NA"
"-93.58","69.55","TALOYOAK A","2403855","2022-03-08 05:00","2022","03","08","05:00","-26.2","","-29.4","","75","","","","32","","20","","24.1","","100.56","","","","-38","","Ice Crystals,Blowing Snow"
"-93.58","69.55","TALOYOAK A","2403855","2022-03-08 06:00","2022","03","08","06:00","-25.9","","-29.1","","75","","","","32","","22","","16.1","","100.56","","","","-38","","Ice Crystals,Blowing Snow"
"-93.58","69.55","TALOYOAK A","2403855","2022-03-08 07:00","2022","03","08","07:00","-26.4","","-29.8","","74","","","","33","","20","","19.3","","100.56","","","","-39","","Ice Crystals"
"-93.58","69.55","TALOYOAK A","2403855","2022-03-08 08:00","2022","03","08","08:00","-26.8","","-30.4","","72","","","","36","","14","","24.1","","100.60","","","","-37","","Ice Crystals"
"-93.58","69.55","TALOYOAK A","2403855","2022-03-08 09:00","2022","03","08","09:00","-26.6","","-30.5","","70","","","","1","","8","","24.1","","100.61","","","","-34","","Ice Crystals"
"-93.58","69.55","TALOYOAK A","2403855","2022-03-08 10:00","2022","03","08","10:00","-25.8","","-30.0","","69","","","","35","","6","","24.1","","100.64","","","","-32","","NA"
"-93.58","69.55","TALOYOAK A","2403855","2022-03-08 11:00","2022","03","08","11:00","-24.9","","-29.4","","67","","","","2","","9","","24.1","","100.66","","","","-33","","Mostly Cloudy"
"-93.58","69.55","TALOYOAK A","2403855","2022-03-08 12:00","2022","03","08","12:00","-23.8","","-28.0","","69","","","","33","","14","","24.1","","100.69","","","","-33","","NA"
"-93.58","69.55","TALOYOAK A","2403855","2022-03-08 13:00","2022","03","08","13:00","-24.1","","-28.1","","70","","","","30","","10","","24.1","","100.71","","","","-32","","NA"
"-93.58","69.55","TALOYOAK A","2403855","2022-03-08 14:00","2022","03","08","14:00","-23.4","","-27.4","","71","","","","30","","9","","16.1","","100.72","","","","-31","","Mostly Cloudy"
"-93.58","69.55","TALOYOAK A","2403855","2022-03-08 15:00","2022","03","08","15:00","-22.1","","-25.8","","72","","","","34","","23","","16.1","","100.67","","","","-34","","Snow"
"-93.58","69.55","TALOYOAK A","2403855","2022-03-08 16:00","2022","03","08","16:00","-22.7","","-25.9","","76","","","","31","","17","","19.3","","100.66","","","","-33","","Snow"
"-93.58","69.55","TALOYOAK A","2403855","2022-03-08 17:00","2022","03","08","17:00","-23.2","","-26.4","","76","","","","36","","11","","16.1","","100.65","","","","-31","","Snow"
"-93.58","69.55","TALOYOAK A","2403855","2022-03-08 18:00","2022","03","08","18:00","-25.2","","-28.2","","77","","","","35","","12","","24.1","","100.63","","","","-34","","Snow"
"-93.58","69.55","TALOYOAK A","2403855","2022-03-08 19:00","2022","03","08","19:00","-24.0","","-26.9","","77","","","","34","","7","","24.1","","100.62","","","","-30","","Snow"
"-93.58","69.55","TALOYOAK A","2403855","2022-03-08 20:00","2022","03","08","20:00","-24.1","","-27.0","","77","","","","34","","6","","19.3","","100.57","","","","-30","","Snow"
"-93.58","69.55","TALOYOAK A","2403855","2022-03-08 21:00","2022","03","08","21:00","-24.6","","-27.9","","75","","","","32","","19","","12.9","","100.54","","","","-36","","Snow"
"-93.58","69.55","TALOYOAK A","2403855","2022-03-08 22:00","2022","03","08","22:00","-24.4","","-27.8","","74","","","","35","","16","","16.1","","100.52","","","","-35","","Snow"
"-93.58","69.55","TALOYOAK A","2403855","2022-03-08 23:00","2022","03","08","23:00","-24.9","","-28.2","","75","","","","1","","8","","16.1","","100.46","","","","-32","","Snow"
"-93.58","69.55","TALOYOAK A","2403855","2022-03-09 00:00","2022","03","09","00:00","-26.1","","-29.6","","73","","","","35","","5","","19.3","","100.42","","","","-31","","Snow"
"-93.58","69.55","TALOYOAK A","2403855","2022-03-09 01:00","2022","03","09","01:00","-26.2","","-29.4","","76","","","","1","","8","","16.1","","100.39","","","","-34","","Snow"
"-93.58","69.55","TALOYOAK A","2403855","2022-03-09 02:00","2022","03","09","02:00","-27.0","","-30.1","","75","","","","31","","12","","16.1","","100.38","","","","-37","","Snow"
"-93.58","69.55","TALOYOAK A","2403855","2022-03-09 03:00","2022","03","09","03:00","-26.9","","-30.1","","75","","","","33","","13","","19.3","","100.30","","","","-37","","Snow"
"-93.58","69.55","TALOYOAK A","2403855","2022-03-09 04:00","2022","03","09","04:00","-28.1","","-31.3","","74","","","","33","","8","","19.3","","100.26","","","","-36","","Snow"
"-93.58","69.55","TALOYOAK A","2403855","2022-03-09 05:00","2022","03","09","05:00","-28.1","","-31.3","","75","","","","7","","4","","19.3","","100.21","","","","-32","","Snow"
"-93.58","69.55","TALOYOAK A","2403855","2022-03-09 06:00","2022","03","09","06:00","-29.7","","-33.0","","74","","","","35","","13","","24.1","","100.13","","","","-40","","Snow"
"-93.58","69.55","TALOYOAK A","2403855","2022-03-09 07:00","2022","03","09","07:00","-28.6","","-32.3","","72","","","","32","","15","","12.9","","100.11","","","","-40","","NA"
"-93.58","69.55","TALOYOAK A","2403855","2022-03-09 08:00","2022","03","09","08:00","-28.2","","-31.8","","72","","","","35","","11","","11.3","","100.08","","","","-38","","Snow"
"-93.58","69.55","TALOYOAK A","2403855","2022-03-09 09:00","2022","03","09","09:00","-28.0","","-31.6","","72","","","","23","","3","","9.7","","100.04","","","","-31","","Snow"
"-93.58","69.55","TALOYOAK A","2403855","2022-03-09 10:00","2022","03","09","10:00","-27.7","","-31.4","","71","","","","4","","4","","19.3","","100.00","","","","-32","","Ice Crystals"
"-93.58","69.55","TALOYOAK A","2403855","2022-03-09 11:00","2022","03","09","11:00","-27.8","","-31.5","","71","","","","36","","7","","24.1","","100.00","","","","-35","","Ice Crystals"
"-93.58","69.55","TALOYOAK A","2403855","2022-03-09 12:00","2022","03","09","12:00","-28.4","","-32.0","","72","","","","16","","4","","24.1","","99.99","","","","-33","","Ice Crystals"
"-93.58","69.55","TALOYOAK A","2403855","2022-03-09 13:00","2022","03","09","13:00","-28.5","","-31.9","","73","","","","36","","2","","24.1","","99.99","","","","-31","","Ice Crystals"
"-93.58","69.55","TALOYOAK A","2403855","2022-03-09 14:00","2022","03","09","14:00","-28.8","","-32.0","","74","","","","36","","2","","24.1","","100.00","","","","-31","","Ice Crystals"
"-93.58","69.55","TALOYOAK A","2403855","2022-03-09 15:00","2022","03","09","15:00","-29.0","","-32.2","","74","","","","19","","3","","19.3","","99.97","","","","-32","","Snow"
"-93.58","69.55","TALOYOAK A","2403855","2022-03-09 16:00","2022","03","09","16:00","-29.0","","-32.1","","75","","","","19","","5","","19.3","","100.00","","","","-34","","Snow"
"-93.58","69.55","TALOYOAK A","2403855","2022-03-09 17:00","2022","03","09","17:00","-29.4","","-32.4","","75","","","","17","","4","","24.1","","99.98","","","","-34","","Snow"
"-93.58","69.55","TALOYOAK A","2403855","2022-03-09 18:00","2022","03","09","18:00","-29.4","","-32.5","","75","","","","17","","4","","19.3","","99.96","","","","-34","","Snow"
"-93.58","69.55","TALOYOAK A","2403855","2022-03-09 19:00","2022","03","09","19:00","-28.5","","-31.6","","76","","","","17","","7","","19.3","","99.95","","","","-36","","Snow"
"-93.58","69.55","TALOYOAK A","2403855","2022-03-09 20:00","2022","03","09","20:00","-28.8","","-31.9","","76","","","","16","","6","","24.1","","99.91","","","","-35","","Snow"
"-93.58","69.55","TALOYOAK A","2403855","2022-03-09 21:00","2022","03","09","21:00","-29.2","","-32.2","","76","","","","17","","7","","24.1","","99.85","","","","-36","","Snow"
"-93.58","69.55","TALOYOAK A","2403855","2022-03-09 22:00","2022","03","09","22:00","-28.8","","-31.8","","76","","","","17","","8","","19.3","","99.79","","","","-37","","Snow"
"-93.58","69.55","TALOYOAK A","2403855","2022-03-09 23:00","2022","03","09","23:00","-29.8","","-32.8","","76","","","","17","","4","","24.1","","99.75","","","","-34","","Snow"
"-93.58","69.55","TALOYOAK A","2403855","2022-03-10 00:00","2022","03","10","00:00","-26.9","","-30.2","","74","","","","29","","8","","24.1","","99.69","","","","-34","","Snow"
"-93.58","69.55","TALOYOAK A","2403855","2022-03-10 01:00","2022","03","10","01:00","-29.2","","-32.6","","73","","","","34","","17","","19.3","","99.63","","","","-41","","Snow"
"-93.58","69.55","TALOYOAK A","2403855","2022-03-10 02:00","2022","03","10","02:00","-30.3","","-33.8","","72","","","","33","","23","","16.1","","99.61","","","","-44","","Snow,Blowing Snow"
"-93.58","69.55","TALOYOAK A","2403855","2022-03-10 03:00","2022","03","10","03:00","-31.0","","-34.6","","71","","","","1","","4","","24.1","","99.63","","","","-36","","Snow"
"-93.58","69.55","TALOYOAK A","2403855","2022-03-10 04:00","2022","03","10","04:00","-31.0","","-34.6","","71","","","","34","","4","","24.1","","99.57","","","","-36","","Snow"
"-93.58","69.55","TALOYOAK A","2403855","2022-03-10 05:00","2022","03","10","05:00","-31.0","","-34.5","","72","","","","36","","3","","24.1","","99.54","","","","-34","","Mainly Clear"
"-93.58","69.55","TALOYOAK A","2403855","2022-03-10 06:00","2022","03","10","06:00","-32.1","","-35.3","","74","","","","13","","7","","24.1","","99.56","","","","-40","","NA"
"-93.58","69.55","TALOYOAK A","2403855","2022-03-10 07:00","2022","03","10","07:00","-32.8","","-35.9","","75","","","","17","","4","","24.1","","99.52","","","","-38","","NA"
"-93.58","69.55","TALOYOAK A","2403855","2022-03-10 08:00","2022","03","10","08:00","-34.4","","-37.8","","72","","","","34","","5","","16.1","","99.52","","","","-41","","Mainly Clear"
"-93.58","69.55","TALOYOAK A","2403855","2022-03-10 09:00","2022","03","10","09:00","-33.1","","-36.6","","71","","","","15","","9","","24.1","","99.50","","","","-42","","Ice Crystals"
"-93.58","69.55","TALOYOAK A","2403855","2022-03-10 10:00","2022","03","10","10:00","-32.8","","-36.7","","69","","","","3","","3","","24.1","","99.50","","","","-36","","Ice Crystals"
"-93.58","69.55","TALOYOAK A","2403855","2022-03-10 11:00","2022","03","10","11:00","-31.5","","-35.1","","71","","","","15","","15","","24.1","","99.53","","","","-43","","Ice Crystals"
"-93.58","69.55","TALOYOAK A","2403855","2022-03-10 12:00","2022","03","10","12:00","-31.1","","-34.7","","71","","","","15","","13","","24.1","","99.56","","","","-42","","Ice Crystals"
"-93.58","69.55","TALOYOAK A","2403855","2022-03-10 13:00","2022","03","10","13:00","-30.7","","-34.4","","71","","","","13","","9","","24.1","","99.59","","","","-39","","Ice Crystals"
"-93.58","69.55","TALOYOAK A","2403855","2022-03-10 14:00","2022","03","10","14:00","-31.1","","-34.8","","70","","","","6","","7","","24.1","","99.63","","","","-39","","Ice Crystals"
"-93.58","69.55","TALOYOAK A","2403855","2022-03-10 15:00","2022","03","10","15:00","-31.5","","-35.2","","70","","","","8","","9","","24.1","","99.68","","","","-40","","Ice Crystals"
"-93.58","69.55","TALOYOAK A","2403855","2022-03-10 16:00","2022","03","10","16:00","-32.1","","-35.8","","70","","","","7","","13","","24.1","","99.70","","","","-43","","Ice Crystals"
"-93.58","69.55","TALOYOAK A","2403855","2022-03-10 17:00","2022","03","10","17:00","-34.0","","-37.6","","70","","","","3","","12","","24.1","","99.75","","","","-45","","Ice Crystals"
"-93.58","69.55","TALOYOAK A","2403855","2022-03-10 18:00","2022","03","10","18:00","-34.0","","-37.5","","71","","","","5","","9","","24.1","","99.76","","","","-43","","Ice Crystals"
"-93.58","69.55","TALOYOAK A","2403855","2022-03-10 19:00","2022","03","10","19:00","-35.0","","-38.6","","71","","","","36","","10","","24.1","","99.76","","","","-45","","Ice Crystals"
"-93.58","69.55","TALOYOAK A","2403855","2022-03-10 20:00","2022","03","10","20:00","-35.3","","-38.7","","72","","","","1","","14","","24.1","","99.81","","","","-48","","Ice Crystals"
"-93.58","69.55","TALOYOAK A","2403855","2022-03-10 21:00","2022","03","10","21:00","-34.6","","-37.9","","72","","","","1","","11","","24.1","","99.78","","","","-45","","Ice Crystals"
"-93.58","69.55","TALOYOAK A","2403855","2022-03-10 22:00","2022","03","10","22:00","-35.5","","-38.9","","72","","","","33","","13","","24.1","","99.77","","","","-47","","Ice Crystals"
"-93.58","69.55","TALOYOAK A","2403855","2022-03-10 23:00","2022","03","10","23:00","-35.1","","-38.4","","72","","","","36","","10","","24.1","","99.75","","","","-45","","Ice Crystals"
"-93.58","69.55","TALOYOAK A","2403855","2022-03-11 00:00","2022","03","11","00:00","-34.0","","-37.2","","74","","","","0","","1","","24.1","","99.73","","","","-35","","Ice Crystals"
"-93.58","69.55","TALOYOAK A","2403855","2022-03-11 01:00","2022","03","11","01:00"
"-93.58","69.55","TALOYOAK A","2403855","2022-03-11 02:00","2022","03","11","02:00","-35.0","","-38.5","","72","","","","15","","12","","24.1","","99.70","","","","-46","","Ice Crystals"
"-93.58","69.55","TALOYOAK A","2403855","2022-03-11 03:00","2022","03","11","03:00","-33.5","","-36.9","","72","","","","15","","15","","16.1","","99.63","","","","-46","","Ice Crystals"
"-93.58","69.55","TALOYOAK A","2403855","2022-03-11 04:00","2022","03","11","04:00","-32.3","","-35.7","","72","","","","15","","20","","16.1","","99.60","","","","-46","","Ice Crystals"
"-93.58","69.55","TALOYOAK A","2403855","2022-03-11 05:00","2022","03","11","05:00","-30.5","","-33.8","","73","","","","19","","21","","24.1","","99.55","","","","-44","","Snow,Blowing Snow"
"-93.58","69.55","TALOYOAK A","2403855","2022-03-11 06:00","2022","03","11","06:00","-29.6","","-32.9","","74","","","","21","","18","","24.1","","99.50","","","","-42","","Snow"
"-93.58","69.55","TALOYOAK A","2403855","2022-03-11 07:00","2022","03","11","07:00","-28.6","","-31.9","","74","","","","23","","7","","9.7","","99.46","","","","-36","","Snow"
"-93.58","69.55","TALOYOAK A","2403855","2022-03-11 08:00","2022","03","11","08:00","-28.6","","-32.1","","73","","","","33","","14","","12.9","","99.43","","","","-39","","Snow"
"-93.58","69.55","TALOYOAK A","2403855","2022-03-11 09:00","2022","03","11","09:00","-28.6","","-32.2","","72","","","","32","","17","","16.1","","99.39","","","","-40","","Snow"
"-93.58","69.55","TALOYOAK A","2403855","2022-03-11 10:00","2022","03","11","10:00","-28.3","","-32.3","","69","","","","36","","2","","17.7","","99.35","","","","-30","","Snow"
"-93.58","69.55","TALOYOAK A","2403855","2022-03-11 11:00","2022","03","11","11:00","-28.7","","-32.3","","72","","","","15","","10","","19.3","","99.35","","","","-38","","Snow"
"-93.58","69.55","TALOYOAK A","2403855","2022-03-11 12:00","2022","03","11","12:00","-28.4","","-31.9","","72","","","","16","","4","","8.1","","99.33","","","","-33","","Snow"
"-93.58","69.55","TALOYOAK A","2403855","2022-03-11 13:00","2022","03","11","13:00","-28.2","","-32.3","","69","","","","33","","8","","12.9","","99.31","","","","-36","","Snow"
"-93.58","69.55","TALOYOAK A","2403855","2022-03-11 14:00","2022","03","11","14:00","-28.1","","-32.3","","68","","","","33","","8","","11.3","","99.31","","","","-36","","Snow"
"-93.58","69.55","TALOYOAK A","2403855","2022-03-11 15:00","2022","03","11","15:00","-27.7","","-32.0","","67","","","","4","","4","","12.9","","99.32","","","","-32","","Snow"
"-93.58","69.55","TALOYOAK A","2403855","2022-03-11 16:00","2022","03","11","16:00","-28.2","","-32.0","","71","","","","17","","3","","11.3","","99.32","","","","-31","","Snow"
"-93.58","69.55","TALOYOAK A","2403855","2022-03-11 17:00","2022","03","11","17:00","-28.4","","-32.4","","70","","","","7","","11","","12.9","","99.32","","","","-38","","Snow"
"-93.58","69.55","TALOYOAK A","2403855","2022-03-11 18:00","2022","03","11","18:00","-29.6","","-33.4","","70","","","","6","","12","","8.1","","99.29","","","","-40","","Snow"
"-93.58","69.55","TALOYOAK A","2403855","2022-03-11 19:00","2022","03","11","19:00","-30.1","","-34.0","","70","","","","5","","10","","8.1","","99.30","","","","-39","","Snow"
"-93.58","69.55","TALOYOAK A","2403855","2022-03-11 20:00","2022","03","11","20:00","-30.1","","-33.8","","70","","","","3","","9","","12.9","","99.28","","","","-39","","Snow"
"-93.58","69.55","TALOYOAK A","2403855","2022-03-11 21:00","2022","03","11","21:00","-29.8","","-33.5","","71","","","","4","","8","","12.9","","99.28","","","","-38","","Snow"
"-93.58","69.55","TALOYOAK A","2403855","2022-03-11 22:00","2022","03","11","22:00","-29.5","","-33.1","","72","","","","2","","10","","12.9","","99.27","","","","-39","","Snow"
"-93.58","69.55","TALOYOAK A","2403855","2022-03-11 23:00","2022","03","11","23:00","-29.7","","-33.2","","72","","","","3","","15","","12.9","","99.27","","","","-41","","Snow"
"-93.58","69.55","TALOYOAK A","2403855","2022-03-12 00:00","2022","03","12","00:00","-29.9","","-33.5","","71","","","","4","","15","","16.1","","99.31","","","","-41","","Snow"
"-93.58","69.55","TALOYOAK A","2403855","2022-03-12 01:00","2022","03","12","01:00","-30.8","","-34.6","","70","","","","5","","16","","16.1","","99.33","","","","-43","","Snow"
"-93.58","69.55","TALOYOAK A","2403855","2022-03-12 02:00","2022","03","12","02:00","-32.8","","-36.5","","70","","","","2","","12","","16.1","","99.35","","","","-44","","Snow"
"-93.58","69.55","TALOYOAK A","2403855","2022-03-12 03:00","2022","03","12","03:00","-34.5","","-38.0","","71","","","","1","","13","","16.1","","99.38","","","","-46","","Snow"
"-93.58","69.55","TALOYOAK A","2403855","2022-03-12 04:00","2022","03","12","04:00","-32.9","","-36.5","","71","","","","1","","10","","19.3","","99.42","","","","-43","","Snow"
"-93.58","69.55","TALOYOAK A","2403855","2022-03-12 05:00","2022","03","12","05:00","-33.1","","-36.8","","71","","","","1","","10","","16.1","","99.43","","","","-43","","Snow"
"-93.58","69.55","TALOYOAK A","2403855","2022-03-12 06:00","2022","03","12","06:00","-33.8","","-37.4","","71","","","","2","","12","","16.1","","99.43","","","","-45","","Snow"
"-93.58","69.55","TALOYOAK A","2403855","2022-03-12 07:00","2022","03","12","07:00","-34.2","","-38.0","","70","","","","3","","11","","24.1","","99.44","","","","-45","","Snow"
"-93.58","69.55","TALOYOAK A","2403855","2022-03-12 08:00","2022","03","12","08:00","-34.1","","-37.8","","70","","","","1","","12","","24.1","","99.46","","","","-45","","Snow"
"-93.58","69.55","TALOYOAK A","2403855","2022-03-12 09:00","2022","03","12","09:00","-32.2","","-36.2","","68","","","","2","","13","","24.1","","99.48","","","","-43","","Ice Crystals"
"-93.58","69.55","TALOYOAK A","2403855","2022-03-12 10:00","2022","03","12","10:00","-33.1","","-37.2","","67","","","","1","","14","","19.3","","99.52","","","","-45","","Snow"
"-93.58","69.55","TALOYOAK A","2403855","2022-03-12 11:00","2022","03","12","11:00","-32.2","","-36.6","","66","","","","1","","11","","19.3","","99.55","","","","-42","","Snow"
"-93.58","69.55","TALOYOAK A","2403855","2022-03-12 12:00","2022","03","12","12:00","-32.4","","-36.5","","68","","","","36","","13","","24.1","","99.58","","","","-44","","Ice Crystals"
"-93.58","69.55","TALOYOAK A","2403855","2022-03-12 13:00","2022","03","12","13:00","-32.2","","-36.4","","67","","","","36","","13","","24.1","","99.62","","","","-43","","Ice Crystals"
"-93.58","69.55","TALOYOAK A","2403855","2022-03-12 14:00","2022","03","12","14:00","-32.2","","-36.4","","67","","","","1","","11","","24.1","","99.63","","","","-42","","Ice Crystals"
"-93.58","69.55","TALOYOAK A","2403855","2022-03-12 15:00","2022","03","12","15:00","-32.8","","-37.0","","67","","","","2","","12","","24.1","","99.68","","","","-44","","Ice Crystals"
"-93.58","69.55","TALOYOAK A","2403855","2022-03-12 16:00","2022","03","12","16:00","-33.9","","-37.8","","69","","","","1","","11","","24.1","","99.70","","","","-44","","NA"
"-93.58","69.55","TALOYOAK A","2403855","2022-03-12 17:00","2022","03","12","17:00","-34.8","","-38.3","","71","","","","3","","12","","24.1","","99.72","","","","-46","","Mainly Clear"
"-93.58","69.55","TALOYOAK A","2403855","2022-03-12 18:00","2022","03","12","18:00","-35.5","","-39.0","","71","","","","5","","13","","24.1","","99.74","","","","-47","","NA"
"-93.58","69.55","TALOYOAK A","2403855","2022-03-12 19:00","2022","03","12","19:00","-35.5","","-39.3","","69","","","","3","","8","","24.1","","99.73","","","","-44","","Snow"
"-93.58","69.55","TALOYOAK A","2403855","2022-03-12 20:00","2022","03","12","20:00","-35.8","","-39.3","","72","","","","6","","8","","24.1","","99.72","","","","-45","","Snow"
"-93.58","69.55","TALOYOAK A","2403855","2022-03-12 21:00","2022","03","12","21:00","-35.6","","-39.0","","72","","","","4","","9","","24.1","","99.71","","","","-45","","Snow"
"-93.58","69.55","TALOYOAK A","2403855","2022-03-12 22:00","2022","03","12","22:00","-36.4","","-39.9","","71","","","","3","","9","","24.1","","99.70","","","","-46","","Snow"
"-93.58","69.55","TALOYOAK A","2403855","2022-03-12 23:00","2022","03","12","23:00","-35.1","","-38.7","","71","","","","7","","10","","24.1","","99.71","","","","-45","","Snow"
"-93.58","69.55","TALOYOAK A","2403855","2022-03-13 00:00","2022","03","13","00:00","-35.2","","-38.6","","72","","","","7","","8","","24.1","","99.71","","","","-44","","Snow"
"-93.58","69.55","TALOYOAK A","2403855","2022-03-13 01:00","2022","03","13","01:00","-34.6","","-38.0","","72","","","","6","","9","","24.1","","99.70","","","","-44","","Snow"
"-93.58","69.55","TALOYOAK A","2403855","2022-03-13 02:00","2022","03","13","02:00","-37.5","","-41.1","","70","","","","36","","9","","24.1","","99.70","","","","-47","","Ice Crystals"
"-93.58","69.55","TALOYOAK A","2403855","2022-03-13 03:00","2022","03","13","03:00","-37.9","","-41.4","","71","","","","36","","11","","24.1","","99.67","","","","-49","","Ice Crystals"
"-93.58","69.55","TALOYOAK A","2403855","2022-03-13 04:00","2022","03","13","04:00","-36.8","","-40.4","","71","","","","2","","14","","19.3","","99.67","","","","-49","","Snow"
"-93.58","69.55","TALOYOAK A","2403855","2022-03-13 05:00","2022","03","13","05:00","-37.6","","-41.2","","70","","","","1","","11","","19.3","","99.67","","","","-49","","Snow"
"-93.58","69.55","TALOYOAK A","2403855","2022-03-13 06:00","2022","03","13","06:00","-37.2","","-40.8","","70","","","","2","","14","","24.1","","99.64","","","","-50","","Snow"
"-93.58","69.55","TALOYOAK A","2403855","2022-03-13 07:00","2022","03","13","07:00","-37.2","","-40.8","","70","","","","2","","14","","24.1","","99.60","","","","-50","","Ice Crystals"
"-93.58","69.55","TALOYOAK A","2403855","2022-03-13 08:00","2022","03","13","08:00","-36.9","","-40.6","","69","","","","36","","13","","24.1","","99.60","","","","-49","","Ice Crystals"
"-93.58","69.55","TALOYOAK A","2403855","2022-03-13 09:00","2022","03","13","09:00","-36.9","","-40.6","","69","","","","35","","9","","24.1","","99.56","","","","-47","","Ice Crystals"
"-93.58","69.55","TALOYOAK A","2403855","2022-03-13 10:00","2022","03","13","10:00","-35.2","","-39.0","","69","","","","33","","8","","19.3","","99.58","","","","-44","","Ice Crystals"
"-93.58","69.55","TALOYOAK A","2403855","2022-03-13 11:00","2022","03","13","11:00","-34.4","","-38.3","","69","","","","36","","14","","12.9","","99.57","","","","-46","","Snow"
"-93.58","69.55","TALOYOAK A","2403855","2022-03-13 12:00","2022","03","13","12:00","-34.0","","-37.8","","69","","","","36","","12","","12.9","","99.56","","","","-45","","Snow,Ice Crystals"
"-93.58","69.55","TALOYOAK A","2403855","2022-03-13 13:00","2022","03","13","13:00","-33.4","","-37.3","","69","","","","36","","13","","12.9","","99.56","","","","-45","","Snow,Ice Crystals"
"-93.58","69.55","TALOYOAK A","2403855","2022-03-13 14:00","2022","03","13","14:00","-33.7","","-37.6","","69","","","","35","","11","","24.1","","99.55","","","","-44","","Ice Crystals"
"-93.58","69.55","TALOYOAK A","2403855","2022-03-13 15:00","2022","03","13","15:00","-34.1","","-38.0","","69","","","","36","","9","","24.1","","99.56","","","","-43","","Ice Crystals"
"-93.58","69.55","TALOYOAK A","2403855","2022-03-13 16:00","2022","03","13","16:00","-34.3","","-38.1","","69","","","","1","","8","","24.1","","99.56","","","","-43","","Ice Crystals"
"-93.58","69.55","TALOYOAK A","2403855","2022-03-13 17:00","2022","03","13","17:00","-34.6","","-38.3","","70","","","","36","","7","","24.1","","99.54","","","","-43","","Ice Crystals"
"-93.58","69.55","TALOYOAK A","2403855","2022-03-13 18:00","2022","03","13","18:00","-34.8","","-38.3","","71","","","","36","","8","","24.1","","99.54","","","","-44","","Ice Crystals"
"-93.58","69.55","TALOYOAK A","2403855","2022-03-13 19:00","2022","03","13","19:00","-34.4","","-37.7","","73","","","","29","","4","","24.1","","99.47","","","","-39","","Snow"
"-93.58","69.55","TALOYOAK A","2403855","2022-03-13 20:00","2022","03","13","20:00","-35.8","","-39.3","","71","","","","19","","5","","24.1","","99.44","","","","-42","","Snow"
"-93.58","69.55","TALOYOAK A","2403855","2022-03-13 21:00","2022","03","13","21:00","-35.4","","-38.7","","72","","","","17","","5","","24.1","","99.38","","","","-42","","Snow"
"-93.58","69.55","TALOYOAK A","2403855","2022-03-13 22:00","2022","03","13","22:00","-35.8","","-39.1","","72","","","","15","","7","","24.1","","99.32","","","","-44","","Snow"
"-93.58","69.55","TALOYOAK A","2403855","2022-03-13 23:00","2022","03","13","23:00","-35.5","","-39.0","","71","","","","17","","5","","24.1","","99.26","","","","-42","","Snow"
"-93.58","69.55","TALOYOAK A","2403855","2022-03-14 00:00","2022","03","14","00:00","-35.2","","-38.8","","71","","","","36","","2","","24.1","","99.23","","","","-38","","Snow"
"-93.58","69.55","TALOYOAK A","2403855","2022-03-14 01:00","2022","03","14","01:00","-33.9","","-37.6","","70","","","","27","","7","","24.1","","99.19","","","","-42","","NA"
"-93.58","69.55","TALOYOAK A","2403855","2022-03-14 02:00","2022","03","14","02:00","-31.9","","-35.7","","70","","","","30","","12","","24.1","","99.14","","","","-42","","Snow,Blowing Snow"
"-93.58","69.55","TALOYOAK A","2403855","2022-03-14 03:00","2022","03","14","03:00","-32.0","","-35.9","","69","","","","31","","34","","24.1","","99.10","","","","-49","","Ice Crystals,Blowing Snow"
"-93.58","69.55","TALOYOAK A","2403855","2022-03-14 04:00","2022","03","14","04:00","-32.1","","-36.1","","69","","","","31","","24","","24.1","","99.11","","","","-47","","Ice Crystals,Blowing Snow"
"-93.58","69.55","TALOYOAK A","2403855","2022-03-14 05:00","2022","03","14","05:00","-32.8","","-36.9","","68","","","","28","","18","","24.1","","99.09","","","","-46","","Ice Crystals,Blowing Snow"
"-93.58","69.55","TALOYOAK A","2403855","2022-03-14 06:00","2022","03","14","06:00","-32.4","","-36.4","","68","","","","30","","26","","24.1","","99.05","","","","-48","","Ice Crystals,Blowing Snow"
"-93.58","69.55","TALOYOAK A","2403855","2022-03-14 07:00","2022","03","14","07:00","-33.1","","-37.2","","68","","","","27","","10","","24.1","","99.01","","","","-43","","Ice Crystals"
"-93.58","69.55","TALOYOAK A","2403855","2022-03-14 08:00","2022","03","14","08:00","-32.1","","-36.0","","69","","","","29","","7","","24.1","","98.98","","","","-40","","Ice Crystals"
"-93.58","69.55","TALOYOAK A","2403855","2022-03-14 09:00","2022","03","14","09:00","-30.9","","-34.9","","68","","","","28","","15","","9.7","","98.93","","","","-43","","Ice Crystals,Fog"
"-93.58","69.55","TALOYOAK A","2403855","2022-03-14 10:00","2022","03","14","10:00","-30.6","","-34.3","","70","","","","29","","20","","4.8","","98.88","","","","-44","","Ice Crystals,Fog"
"-93.58","69.55","TALOYOAK A","2403855","2022-03-14 11:00","2022","03","14","11:00","-31.8","","-35.8","","69","","","","26","","16","","4.8","","98.86","","","","-44","","Ice Crystals,Fog"
"-93.58","69.55","TALOYOAK A","2403855","2022-03-14 12:00","2022","03","14","12:00","-31.5","","-35.5","","69","","","","26","","19","","3.2","","98.86","","","","-45","","Ice Crystals,Fog"
"-93.58","69.55","TALOYOAK A","2403855","2022-03-14 13:00","2022","03","14","13:00","-31.1","","-35.0","","69","","","","26","","21","","3.2","","98.82","","","","-45","","Ice Crystals,Fog"
"-93.58","69.55","TALOYOAK A","2403855","2022-03-14 14:00","2022","03","14","14:00","-31.9","","-36.0","","68","","","","24","","21","","8.1","","98.83","","","","-46","","Ice Crystals,Blowing Snow"
"-93.58","69.55","TALOYOAK A","2403855","2022-03-14 15:00","2022","03","14","15:00","-30.5","","-34.2","","71","","","","27","","16","","6.4","","98.80","","","","-42","","Ice Crystals,Blowing Snow"
"-93.58","69.55","TALOYOAK A","2403855","2022-03-14 16:00","2022","03","14","16:00","-30.6","","-34.4","","70","","","","28","","28","","3.6","","98.81","","","","-46","","Blowing Snow"
"-93.58","69.55","TALOYOAK A","2403855","2022-03-14 17:00","2022","03","14","17:00","-31.1","","-34.9","","70","","","","29","","19","","3.6","","98.81","","","","-44","","Snow,Blowing Snow"
"-93.58","69.55","TALOYOAK A","2403855","2022-03-14 18:00","2022","03","14","18:00","-32.0","","-35.7","","71","","","","29","","14","","3.6","","98.80","","","","-43","","Snow,Blowing Snow"
"-93.58","69.55","TALOYOAK A","2403855","2022-03-14 19:00","2022","03","14","19:00","-31.8","","-35.4","","71","","","","27","","7","","4.8","","98.78","","","","-39","","Ice Crystals,Fog"
"-93.58","69.55","TALOYOAK A","2403855","2022-03-14 20:00","2022","03","14","20:00","-32.0","","-35.6","","71","","","","29","","33","","4.8","","98.72","","","","-49","","Ice Crystals,Blowing Snow"
"-93.58","69.55","TALOYOAK A","2403855","2022-03-14 21:00","2022","03","14","21:00","-31.6","","-35.3","","71","","","","28","","27","","4.8","","98.73","","","","-47","","Ice Crystals,Fog,Blowing Snow"
"-93.58","69.55","TALOYOAK A","2403855","2022-03-14 22:00","2022","03","14","22:00","-32.1","","-35.8","","71","","","","30","","26","","4.8","","98.70","","","","-47","","Ice Crystals,Fog,Blowing Snow"
"-93.58","69.55","TALOYOAK A","2403855","2022-03-14 23:00","2022","03","14","23:00","-30.7","","-34.4","","71","","","","29","","31","","6.4","","98.64","","","","-47","","Ice Crystals,Fog,Blowing Snow"
"-93.58","69.55","TALOYOAK A","2403855","2022-03-15 00:00","2022","03","15","00:00","-32.1","","-35.9","","70","","","","25","","31","","6.4","","98.63","","","","-49","","Ice Crystals,Fog,Blowing Snow"
"-93.58","69.55","TALOYOAK A","2403855","2022-03-15 01:00","2022","03","15","01:00","-31.9","","-35.5","","71","","","","24","","20","","4.8","","98.66","","","","-45","","Ice Crystals,Fog,Blowing Snow"
"-93.58","69.55","TALOYOAK A","2403855","2022-03-15 02:00","2022","03","15","02:00","-29.8","","-33.4","","72","","","","26","","27","","6.4","","98.63","","","","-45","","Ice Crystals,Fog,Blowing Snow"
"-93.58","69.55","TALOYOAK A","2403855","2022-03-15 03:00","2022","03","15","03:00","-30.2","","-33.7","","72","","","","25","","24","","9.7","","98.56","","","","-44","","Ice Crystals,Fog,Blowing Snow"
"-93.58","69.55","TALOYOAK A","2403855","2022-03-15 04:00","2022","03","15","04:00","-29.9","","-33.5","","71","","","","25","","27","","9.7","","98.55","","","","-45","","Ice Crystals,Fog,Blowing Snow"
"-93.58","69.55","TALOYOAK A","2403855","2022-03-15 05:00","2022","03","15","05:00"
"-93.58","69.55","TALOYOAK A","2403855","2022-03-15 06:00","2022","03","15","06:00","-29.0","","-32.5","","72","","","","25","","24","","4.8","","98.47","","","","-43","","Ice Crystals,Fog"
"-93.58","69.55","TALOYOAK A","2403855","2022-03-15 07:00","2022","03","15","07:00","-28.7","","-32.3","","72","","","","24","","28","","3.2","","98.41","","","","-43","","Ice Crystals,Blowing Snow"
"-93.58","69.55","TALOYOAK A","2403855","2022-03-15 08:00","2022","03","15","08:00","-28.3","","-31.7","","73","","","","25","","27","","3.2","","98.32","","","","-43","","Snow,Ice Crystals,Blowing Snow"
"-93.58","69.55","TALOYOAK A","2403855","2022-03-15 09:00","2022","03","15","09:00","-28.4","","-31.9","","73","","","","25","","46","","1.0","","98.21","","","","-46","","Ice Crystals,Blowing Snow"
"-93.58","69.55","TALOYOAK A","2403855","2022-03-15 10:00","2022","03","15","10:00","-29.0","","-32.6","","72","","","","24","","38","","1.2","","98.18","","","","-46","","Ice Crystals,Blowing Snow"
"-93.58","69.55","TALOYOAK A","2403855","2022-03-15 11:00","2022","03","15","11:00","-28.7","","-32.4","","71","","","","25","","27","","1.2","","98.21","","","","-43","","Ice Crystals,Blowing Snow"
"-93.58","69.55","TALOYOAK A","2403855","2022-03-15 12:00","2022","03","15","12:00","-28.3","","-31.9","","72","","","","25","","38","","1.6","","98.21","","","","-45","","Ice Crystals,Blowing Snow"
"-93.58","69.55","TALOYOAK A","2403855","2022-03-15 13:00","2022","03","15","13:00","-27.6","","-31.1","","73","","","","27","","31","","1.2","","98.16","","","","-43","","Snow,Blowing Snow"
"-93.58","69.55","TALOYOAK A","2403855","2022-03-15 14:00","2022","03","15","14:00","-26.7","","-30.2","","73","","","","25","","26","","2.0","","98.12","","","","-40","","Snow,Blowing Snow"
"-93.58","69.55","TALOYOAK A","2403855","2022-03-15 15:00","2022","03","15","15:00","-26.3","","-29.6","","74","","","","25","","34","","1.0","","98.07","","","","-42","","Snow,Blowing Snow"
"-93.58","69.55","TALOYOAK A","2403855","2022-03-15 16:00","2022","03","15","16:00","-26.1","","-29.3","","75","","","","24","","28","","1.2","","98.05","","","","-40","","Snow,Blowing Snow"
"-93.58","69.55","TALOYOAK A","2403855","2022-03-15 17:00","2022","03","15","17:00","-25.5","","-28.6","","76","","","","24","","26","","1.2","","98.03","","","","-39","","Snow,Blowing Snow"
"-93.58","69.55","TALOYOAK A","2403855","2022-03-15 18:00","2022","03","15","18:00","-25.4","","-28.5","","76","","","","25","","26","","1.2","","97.99","","","","-39","","Snow,Blowing Snow"
"-93.58","69.55","TALOYOAK A","2403855","2022-03-15 19:00","2022","03","15","19:00","-24.9","","-28.0","","76","","","","26","","39","","3.2","","97.91","","","","-41","","Snow,Blowing Snow"
"-93.58","69.55","TALOYOAK A","2403855","2022-03-15 20:00","2022","03","15","20:00","-24.6","","-27.6","","77","","","","25","","38","","3.2","","97.81","","","","-40","","Snow,Blowing Snow"
"-93.58","69.55","TALOYOAK A","2403855","2022-03-15 21:00","2022","03","15","21:00","-23.9","","-26.8","","77","","","","27","","34","","2.8","","97.82","","","","-38","","Snow,Blowing Snow"
"-93.58","69.55","TALOYOAK A","2403855","2022-03-15 22:00","2022","03","15","22:00","-23.5","","-26.4","","77","","","","27","","29","","2.4","","97.77","","","","-37","","Snow,Blowing Snow"
"-93.58","69.55","TALOYOAK A","2403855","2022-03-15 23:00","2022","03","15","23:00","-22.8","","-25.6","","79","","","","27","","32","","2.4","","97.73","","","","-37","","Snow,Blowing Snow"
"-93.58","69.55","TALOYOAK A","2403855","2022-03-16 00:00","2022","03","16","00:00","-22.2","","-25.1","","78","","","","28","","39","","3.2","","97.69","","","","-37","","Snow,Blowing Snow"
"-93.58","69.55","TALOYOAK A","2403855","2022-03-16 01:00","2022","03","16","01:00","-21.4","","-24.2","","78","","","","25","","11","","1.6","","97.75","","","","-29","","Snow,Blowing Snow"
"-93.58","69.55","TALOYOAK A","2403855","2022-03-16 02:00","2022","03","16","02:00","-20.9","","-23.6","","79","","","","29","","30","","3.2","","97.68","","","","-34","","Snow,Blowing Snow"
"-93.58","69.55","TALOYOAK A","2403855","2022-03-16 03:00","2022","03","16","03:00","-20.6","","-23.3","","80","","","","27","","36","","3.2","","97.69","","","","-34","","Snow,Blowing Snow"
"-93.58","69.55","TALOYOAK A","2403855","2022-03-16 04:00","2022","03","16","04:00","-21.1","","-23.9","","78","","","","27","","14","","4.8","","97.75","","","","-30","","Snow,Blowing Snow"
"-93.58","69.55","TALOYOAK A","2403855","2022-03-16 05:00","2022","03","16","05:00","-20.8","","-23.7","","78","","","","28","","32","","4.8","","97.67","","","","-34","","Snow,Fog,Blowing Snow"
"-93.58","69.55","TALOYOAK A","2403855","2022-03-16 06:00","2022","03","16","06:00","-20.3","","-22.9","","80","","","","29","","25","","4.8","","97.66","","","","-32","","Snow,Fog,Blowing Snow"
"-93.58","69.55","TALOYOAK A","2403855","2022-03-16 07:00","2022","03","16","07:00","-19.9","","-22.4","","81","","","","27","","7","","1.6","","97.68","","","","-26","","Snow Showers"
"-93.58","69.55","TALOYOAK A","2403855","2022-03-16 08:00","2022","03","16","08:00","-19.1","","-21.9","","79","","","","28","","14","","4.8","","97.70","","","","-28","","Snow Showers"
"-93.58","69.55","TALOYOAK A","2403855","2022-03-16 09:00","2022","03","16","09:00","-18.7","","-21.5","","79","","","","31","","18","","4.8","","97.70","","","","-28","","Snow Showers"
"-93.58","69.55","TALOYOAK A","2403855","2022-03-16 10:00","2022","03","16","10:00","-18.4","","-21.3","","78","","","","35","","15","","4.8","","97.76","","","","-27","","Snow Showers"
"-93.58","69.55","TALOYOAK A","2403855","2022-03-16 11:00","2022","03","16","11:00","-18.0","","-20.9","","78","","","","35","","14","","4.8","","97.83","","","","-26","","Snow Showers"
"-93.58","69.55","TALOYOAK A","2403855","2022-03-16 12:00","2022","03","16","12:00","-17.5","","-20.2","","79","","","","32","","28","","4.8","","97.91","","","","-29","","Snow"
"-93.58","69.55","TALOYOAK A","2403855","2022-03-16 13:00","2022","03","16","13:00","-17.6","","-20.4","","79","","","","31","","29","","4.8","","98.00","","","","-29","","Snow,Blowing Snow"
"-93.58","69.55","TALOYOAK A","2403855","2022-03-16 14:00","2022","03","16","14:00","-17.5","","-20.4","","78","","","","30","","27","","8.1","","98.08","","","","-29","","Snow,Blowing Snow"
"-93.58","69.55","TALOYOAK A","2403855","2022-03-16 15:00","2022","03","16","15:00","-18.0","","-20.7","","79","","","","31","","30","","4.8","","98.15","","","","-30","","Snow,Blowing Snow"
"-93.58","69.55","TALOYOAK A","2403855","2022-03-16 16:00","2022","03","16","16:00","-18.4","","-21.2","","79","","","","32","","30","","4.8","","98.24","","","","-30","","Snow,Blowing Snow"
"-93.58","69.55","TALOYOAK A","2403855","2022-03-16 17:00","2022","03","16","17:00","-20.0","","-23.2","","76","","","","7","","18","","6.4","","98.34","","","","-30","","Snow,Blowing Snow"
"-93.58","69.55","TALOYOAK A","2403855","2022-03-16 18:00","2022","03","16","18:00","-20.9","","-24.3","","75","","","","2","","14","","8.1","","98.52","","","","-30","","Snow"
"-93.58","69.55","TALOYOAK A","2403855","2022-03-16 19:00","2022","03","16","19:00","-21.6","","-24.8","","76","","","","1","","10","","8.1","","98.63","","","","-29","","Snow"
"-93.58","69.55","TALOYOAK A","2403855","2022-03-16 20:00","2022","03","16","20:00","-22.7","","-25.7","","77","","","","33","","3","","12.9","","98.68","","","","-25","","Snow"
"-93.58","69.55","TALOYOAK A","2403855","2022-03-16 21:00","2022","03","16","21:00","-22.8","","-25.8","","77","","","","17","","3","","9.7","","98.71","","","","-26","","Snow"
"-93.58","69.55","TALOYOAK A","2403855","2022-03-16 22:00","2022","03","16","22:00","-22.0","","-24.8","","79","","","","16","","9","","12.9","","98.74","","","","-29","","Snow"
"-93.58","69.55","TALOYOAK A","2403855","2022-03-16 23:00","2022","03","16","23:00","-21.9","","-24.5","","79","","","","17","","13","","4.8","","98.76","","","","-31","","Snow Showers"
"-93.58","69.55","TALOYOAK A","2403855","2022-03-17 00:00","2022","03","17","00:00","-21.1","","-24.1","","77","","","","20","","8","","12.9","","98.78","","","","-28","","Snow Showers"
"-93.58","69.55","TALOYOAK A","2403855","2022-03-17 01:00","2022","03","17","01:00","-21.0","","-23.5","","81","","","","18","","14","","6.4","","98.78","","","","-30","","Snow Showers"
"-93.58","69.55","TALOYOAK A","2403855","2022-03-17 02:00","2022","03","17","02:00","-19.6","","-22.2","","81","","","","24","","11","","4.8","","98.77","","","","-27","","Snow"
"-93.58","69.55","TALOYOAK A","2403855","2022-03-17 03:00","2022","03","17","03:00","-19.4","","-22.1","","80","","","","27","","24","","4.8","","98.76","","","","-31","","Snow Showers,Blowing Snow"
"-93.58","69.55","TALOYOAK A","2403855","2022-03-17 04:00","2022","03","17","04:00","-19.9","","-22.8","","78","","","","29","","16","","12.9","","98.79","","","","-29","","Snow Showers"
"-93.58","69.55","TALOYOAK A","2403855","2022-03-17 05:00","2022","03","17","05:00","-20.2","","-22.9","","79","","","","26","","11","","4.8","","98.77","","","","-28","","Snow"
"-93.58","69.55","TALOYOAK A","2403855","2022-03-17 06:00","2022","03","17","06:00","-20.0","","-22.9","","78","","","","20","","10","","4.8","","98.81","","","","-27","","Snow"
"-93.58","69.55","TALOYOAK A","2403855","2022-03-17 07:00","2022","03","17","07:00","-20.2","","-23.0","","79","","","","25","","7","","3.2","","98.84","","","","-26","","Snow Showers"
"-93.58","69.55","TALOYOAK A","2403855","2022-03-17 08:00","2022","03","17","08:00","-19.6","","-22.5","","78","","","","30","","14","","4.8","","98.87","","","","-28","","Snow Showers"
"-93.58","69.55","TALOYOAK A","2403855","2022-03-17 09:00","2022","03","17","09:00","-20.0","","-23.2","","76","","","","32","","5","","8.1","","98.93","","","","-24","","Snow Showers"
"-93.58","69.55","TALOYOAK A","2403855","2022-03-17 10:00","2022","03","17","10:00","-20.6","","-24.1","","75","","","","30","","15","","11.3","","99.00","","","","-30","","Snow Showers"
"-93.58","69.55","TALOYOAK A","2403855","2022-03-17 11:00","2022","03","17","11:00","-21.1","","-24.4","","75","","","","30","","21","","12.9","","99.07","","","","-32","","Mainly Clear"
"-93.58","69.55","TALOYOAK A","2403855","2022-03-17 12:00","2022","03","17","12:00","-20.6","","-23.8","","76","","","","30","","12","","16.1","","99.13","","","","-29","","NA"
"-93.58","69.55","TALOYOAK A","2403855","2022-03-17 13:00","2022","03","17","13:00","-19.4","","-22.5","","77","","","","26","","5","","16.1","","99.22","","","","-24","","NA"
"-93.58","69.55","TALOYOAK A","2403855","2022-03-17 14:00","2022","03","17","14:00","-20.9","","-23.8","","78","","","","17","","4","","12.9","","99.30","","","","-24","","Mostly Cloudy"
"-93.58","69.55","TALOYOAK A","2403855","2022-03-17 15:00","2022","03","17","15:00","-19.7","","-22.6","","78","","","","16","","3","","12.9","","99.37","","","","-22","","Snow"
"-93.58","69.55","TALOYOAK A","2403855","2022-03-17 16:00","2022","03","17","16:00","-22.1","","-24.6","","80","","","","30","","18","","12.9","","99.42","","","","-33","","Snow"
"-93.58","69.55","TALOYOAK A","2403855","2022-03-17 17:00","2022","03","17","17:00","-21.4","","-23.8","","81","","","","28","","7","","9.7","","99.49","","","","-27","","Snow"
"-93.58","69.55","TALOYOAK A","2403855","2022-03-17 18:00","2022","03","17","18:00","-21.3","","-23.9","","80","","","","24","","3","","3.6","","99.53","","","","-24","","Snow,Fog"
"-93.58","69.55","TALOYOAK A","2403855","2022-03-17 19:00","2022","03","17","19:00","-21.3","","-24.1","","78","","","","30","","9","","9.7","","99.56","","","","-28","","Snow"
"-93.58","69.55","TALOYOAK A","2403855","2022-03-17 20:00","2022","03","17","20:00","-21.5","","-24.3","","79","","","","30","","16","","6.4","","99.61","","","","-31","","Snow"
"-93.58","69.55","TALOYOAK A","2403855","2022-03-17 21:00","2022","03","17","21:00","-19.9","","-22.6","","80","","","","28","","16","","9.7","","99.65","","","","-29","","Snow"
"-93.58","69.55","TALOYOAK A","2403855","2022-03-17 22:00","2022","03","17","22:00","-21.4","","-24.0","","80","","","","27","","16","","9.7","","99.68","","","","-31","","Snow"
"-93.58","69.55","TALOYOAK A","2403855","2022-03-17 23:00","2022","03","17","23:00","-21.0","","-23.7","","79","","","","26","","14","","12.9","","99.69","","","","-30","","Snow"
"-93.58","69.55","TALOYOAK A","2403855","2022-03-18 00:00","2022","03","18","00:00","-22.2","","-24.6","","81","","","","25","","5","","16.1","","99.77","","","","-27","","Ice Crystals"
"-93.58","69.55","TALOYOAK A","2403855","2022-03-18 01:00","2022","03","18","01:00","-25.2","","-27.8","","79","","","","14","","7","","6.4","","99.80","","","","-32","","Ice Crystals,Fog"
"-93.58","69.55","TALOYOAK A","2403855","2022-03-18 02:00","2022","03","18","02:00","-26.0","","-28.8","","78","","","","14","","10","","4.8","","99.84","","","","-34","","Ice Crystals,Fog"
"-93.58","69.55","TALOYOAK A","2403855","2022-03-18 03:00","2022","03","18","03:00","-26.4","","-29.3","","77","","","","15","","8","","4.8","","99.89","","","","-34","","Ice Crystals,Fog"
"-93.58","69.55","TALOYOAK A","2403855","2022-03-18 04:00","2022","03","18","04:00","-26.5","","-29.5","","76","","","","18","","5","","2.4","","99.93","","","","-32","","Ice Crystals,Fog"
"-93.58","69.55","TALOYOAK A","2403855","2022-03-18 05:00","2022","03","18","05:00","-25.1","","-27.8","","78","","","","26","","4","","2.4","","100.00","","","","-29","","Snow,Fog"
"-93.58","69.55","TALOYOAK A","2403855","2022-03-18 06:00","2022","03","18","06:00","-24.4","","-27.2","","78","","","","27","","18","","4.8","","100.01","","","","-35","","Snow,Ice Crystals,Fog"
"-93.58","69.55","TALOYOAK A","2403855","2022-03-18 07:00","2022","03","18","07:00","-24.0","","-26.9","","78","","","","26","","8","","12.9","","100.07","","","","-31","","NA"
"-93.58","69.55","TALOYOAK A","2403855","2022-03-18 08:00","2022","03","18","08:00","-24.1","","-27.2","","76","","","","28","","23","","16.1","","100.05","","","","-36","","Blowing Snow"
"-93.58","69.55","TALOYOAK A","2403855","2022-03-18 09:00","2022","03","18","09:00","-23.6","","-27.1","","73","","","","27","","15","","16.1","","100.11","","","","-34","","Ice Crystals"
"-93.58","69.55","TALOYOAK A","2403855","2022-03-18 10:00","2022","03","18","10:00","-23.3","","-26.9","","73","","","","31","","19","","16.1","","100.18","","","","-34","","Ice Crystals"
"-93.58","69.55","TALOYOAK A","2403855","2022-03-18 11:00","2022","03","18","11:00","-22.5","","-26.1","","73","","","","31","","26","","16.1","","100.23","","","","-35","","Ice Crystals,Blowing Snow"
"-93.58","69.55","TALOYOAK A","2403855","2022-03-18 12:00","2022","03","18","12:00","-22.2","","-25.9","","73","","","","33","","23","","16.1","","100.30","","","","-34","","Ice Crystals,Blowing Snow"
"-93.58","69.55","TALOYOAK A","2403855","2022-03-18 13:00","2022","03","18","13:00","-22.1","","-25.8","","72","","","","32","","27","","24.1","","100.40","","","","-35","","Blowing Snow"
"-93.58","69.55","TALOYOAK A","2403855","2022-03-18 14:00","2022","03","18","14:00","-22.1","","-25.8","","73","","","","35","","24","","24.1","","100.47","","","","-34","","Blowing Snow"
"-93.58","69.55","TALOYOAK A","2403855","2022-03-18 15:00","2022","03","18","15:00","-22.1","","-25.8","","72","","","","22","","4","","24.1","","100.58","","","","-26","","NA"
"-93.58","69.55","TALOYOAK A","2403855","2022-03-18 16:00","2022","03","18","16:00","-22.7","","-26.4","","72","","","","31","","5","","24.1","","100.64","","","","-27","","NA"
"-93.58","69.55","TALOYOAK A","2403855","2022-03-18 17:00","2022","03","18","17:00","-23.1","","-26.6","","74","","","","26","","5","","24.1","","100.69","","","","-28","","Mainly Clear"
"-93.58","69.55","TALOYOAK A","2403855","2022-03-18 18:00","2022","03","18","18:00","-23.9","","-27.4","","74","","","","34","","7","","24.1","","100.71","","","","-30","","NA"
"-93.58","69.55","TALOYOAK A","2403855","2022-03-18 19:00","2022","03","18","19:00","-26.7","","-29.8","","76","","","","36","","2","","24.1","","100.75","","","","-29","","NA"
"-93.58","69.55","TALOYOAK A","2403855","2022-03-18 20:00","2022","03","18","20:00","-24.8","","-28.2","","74","","","","31","","16","","24.1","","100.79","","","","-35","","Clear"
"-93.58","69.55","TALOYOAK A","2403855","2022-03-18 21:00","2022","03","18","21:00","-25.2","","-28.5","","75","","","","28","","12","","24.1","","100.84","","","","-34","","NA"
"-93.58","69.55","TALOYOAK A","2403855","2022-03-18 22:00","2022","03","18","22:00","-28.0","","-30.9","","77","","","","21","","6","","24.1","","100.89","","","","-34","","Ice Crystals"
"-93.58","69.55","TALOYOAK A","2403855","2022-03-18 23:00","2022","03","18","23:00","-28.9","","-31.9","","76","","","","16","","9","","24.1","","100.95","","","","-37","","Ice Crystals"
"-93.58","69.55","TALOYOAK A","2403855","2022-03-19 00:00","2022","03","19","00:00","-29.9","","-33.0","","75","","","","17","","8","","24.1","","101.01","","","","-38","","Ice Crystals"
"-93.58","69.55","TALOYOAK A","2403855","2022-03-19 01:00","2022","03","19","01:00","-28.8","","-31.8","","76","","","","17","","10","","19.3","","101.07","","","","-38","","Ice Crystals"
"-93.58","69.55","TALOYOAK A","2403855","2022-03-19 02:00","2022","03","19","02:00","-29.0","","-32.0","","76","","","","16","","12","","16.1","","101.12","","","","-39","","Ice Crystals"
"-93.58","69.55","TALOYOAK A","2403855","2022-03-19 03:00","2022","03","19","03:00","-29.8","","-33.0","","75","","","","14","","16","","2.4","","101.17","","","","-42","","Ice Crystals,Fog"
"-93.58","69.55","TALOYOAK A","2403855","2022-03-19 04:00","2022","03","19","04:00","-29.2","","-32.4","","75","","","","16","","16","","9.7","","101.20","","","","-41","","Ice Crystals,Fog"
"-93.58","69.55","TALOYOAK A","2403855","2022-03-19 05:00","2022","03","19","05:00","-29.7","","-32.8","","75","","","","16","","19","","11.3","","101.22","","","","-42","","Ice Crystals"
"-93.58","69.55","TALOYOAK A","2403855","2022-03-19 06:00","2022","03","19","06:00","-30.3","","-33.5","","74","","","","16","","20","","16.1","","101.27","","","","-43","","Ice Crystals"
"-93.58","69.55","TALOYOAK A","2403855","2022-03-19 07:00","2022","03","19","07:00","-30.3","","-33.6","","74","","","","16","","22","","6.4","","101.30","","","","-44","","Ice Crystals,Fog"
"-93.58","69.55","TALOYOAK A","2403855","2022-03-19 08:00","2022","03","19","08:00","-29.9","","-33.2","","74","","","","17","","23","","6.4","","101.34","","","","-44","","Ice Crystals,Fog"
"-93.58","69.55","TALOYOAK A","2403855","2022-03-19 09:00","2022","03","19","09:00","-29.4","","-32.7","","74","","","","17","","20","","12.9","","101.33","","","","-42","","Ice Crystals,Fog"
"-93.58","69.55","TALOYOAK A","2403855","2022-03-19 10:00","2022","03","19","10:00","-28.3","","-31.5","","75","","","","17","","22","","12.9","","101.34","","","","-42","","Ice Crystals,Fog,Blowing Snow"
"-93.58","69.55","TALOYOAK A","2403855","2022-03-19 11:00","2022","03","19","11:00","-27.5","","-30.7","","75","","","","17","","22","","9.7","","101.34","","","","-40","","Ice Crystals,Fog,Blowing Snow"
"-93.58","69.55","TALOYOAK A","2403855","2022-03-19 12:00","2022","03","19","12:00","-27.5","","-30.8","","74","","","","17","","22","","12.9","","101.37","","","","-40","","Ice Crystals,Blowing Snow"
"-93.58","69.55","TALOYOAK A","2403855","2022-03-19 13:00","2022","03","19","13:00","-26.4","","-29.8","","74","","","","17","","22","","16.1","","101.40","","","","-39","","Ice Crystals,Blowing Snow"
"-93.58","69.55","TALOYOAK A","2403855","2022-03-19 14:00","2022","03","19","14:00","-25.9","","-29.2","","74","","","","19","","24","","16.1","","101.39","","","","-39","","Ice Crystals,Blowing Snow"
"-93.58","69.55","TALOYOAK A","2403855","2022-03-19 15:00","2022","03","19","15:00","-25.8","","-28.9","","76","","","","19","","21","","12.9","","101.43","","","","-38","","Ice Crystals"
"-93.58","69.55","TALOYOAK A","2403855","2022-03-19 16:00","2022","03","19","16:00","-25.5","","-28.4","","78","","","","19","","18","","9.7","","101.42","","","","-37","","Ice Crystals,Fog"
"-93.58","69.55","TALOYOAK A","2403855","2022-03-19 17:00","2022","03","19","17:00","-26.5","","-29.4","","77","","","","19","","12","","12.9","","101.42","","","","-36","","Ice Crystals"
"-93.58","69.55","TALOYOAK A","2403855","2022-03-19 18:00","2022","03","19","18:00","-27.4","","-30.2","","77","","","","16","","13","","19.3","","101.41","","","","-37","","Ice Crystals"
"-93.58","69.55","TALOYOAK A","2403855","2022-03-19 19:00","2022","03","19","19:00","-27.7","","-30.6","","77","","","","18","","8","","19.3","","101.40","","","","-35","","Ice Crystals"
"-93.58","69.55","TALOYOAK A","2403855","2022-03-19 20:00","2022","03","19","20:00","-26.1","","-28.9","","78","","","","19","","7","","19.3","","101.38","","","","-33","","Snow"
"-93.58","69.55","TALOYOAK A","2403855","2022-03-19 21:00","2022","03","19","21:00","-24.3","","-27.0","","79","","","","19","","11","","24.1","","101.39","","","","-33","","Snow"
"-93.58","69.55","TALOYOAK A","2403855","2022-03-19 22:00","2022","03","19","22:00","-23.3","","-26.0","","79","","","","18","","13","","19.3","","101.36","","","","-32","","Snow"
"-93.58","69.55","TALOYOAK A","2403855","2022-03-19 23:00","2022","03","19","23:00","-23.4","","-26.1","","79","","","","18","","13","","9.7","","101.35","","","","-33","","Snow"
"-93.58","69.55","TALOYOAK A","2403855","2022-03-20 00:00","2022","03","20","00:00","-24.1","","-26.8","","78","","","","19","","16","","16.1","","101.36","","","","-34","","Snow"
"-93.58","69.55","TALOYOAK A","2403855","2022-03-20 01:00","2022","03","20","01:00","-24.2","","-27.0","","78","","","","19","","11","","16.1","","101.33","","","","-33","","Snow"
"-93.58","69.55","TALOYOAK A","2403855","2022-03-20 02:00","2022","03","20","02:00","-24.1","","-26.8","","79","","","","18","","10","","9.7","","101.34","","","","-32","","Snow,Ice Crystals"
"-93.58","69.55","TALOYOAK A","2403855","2022-03-20 03:00","2022","03","20","03:00","-23.6","","-26.3","","79","","","","16","","5","","12.9","","101.35","","","","-28","","Snow,Ice Crystals"
"-93.58","69.55","TALOYOAK A","2403855","2022-03-20 04:00","2022","03","20","04:00","-25.3","","-28.1","","78","","","","15","","10","","9.7","","101.32","","","","-34","","Snow,Ice Crystals"
"-93.58","69.55","TALOYOAK A","2403855","2022-03-20 05:00","2022","03","20","05:00","-23.9","","-26.7","","78","","","","17","","17","","4.8","","101.27","","","","-35","","Snow,Ice Crystals,Fog"
"-93.58","69.55","TALOYOAK A","2403855","2022-03-20 06:00","2022","03","20","06:00","-23.3","","-25.9","","79","","","","17","","22","","4.0","","101.24","","","","-35","","Snow,Ice Crystals,Fog"
"-93.58","69.55","TALOYOAK A","2403855","2022-03-20 07:00","2022","03","20","07:00","-22.7","","-25.4","","79","","","","18","","23","","2.0","","101.21","","","","-35","","Snow,Fog"
"-93.58","69.55","TALOYOAK A","2403855","2022-03-20 08:00","2022","03","20","08:00","-22.8","","-25.6","","79","","","","19","","27","","1.2","","101.16","","","","-36","","Snow,Fog"
"-93.58","69.55","TALOYOAK A","2403855","2022-03-20 09:00","2022","03","20","09:00","-22.7","","-25.5","","78","","","","18","","26","","1.6","","101.12","","","","-35","","Snow Grains,Fog,Blowing Snow"
"-93.58","69.55","TALOYOAK A","2403855","2022-03-20 10:00","2022","03","20","10:00","-22.5","","-25.5","","77","","","","19","","18","","6.4","","101.17","","","","-33","","Snow Grains,Fog"
"-93.58","69.55","TALOYOAK A","2403855","2022-03-20 11:00","2022","03","20","11:00","-22.1","","-25.2","","76","","","","20","","19","","9.7","","101.18","","","","-33","","Snow Grains,Fog"
"-93.58","69.55","TALOYOAK A","2403855","2022-03-20 12:00","2022","03","20","12:00","-21.2","","-24.6","","74","","","","28","","4","","24.1","","101.22","","","","-25","","Snow Grains"
"-93.58","69.55","TALOYOAK A","2403855","2022-03-20 13:00","2022","03","20","13:00","-21.8","","-25.6","","72","","","","35","","15","","19.3","","101.30","","","","-31","","Snow"
"-93.58","69.55","TALOYOAK A","2403855","2022-03-20 14:00","2022","03","20","14:00","-21.9","","-25.8","","71","","","","30","","18","","24.1","","101.39","","","","-32","","Mainly Clear"
"-93.58","69.55","TALOYOAK A","2403855","2022-03-20 15:00","2022","03","20","15:00","-22.6","","-26.1","","74","","","","31","","28","","24.1","","101.45","","","","-36","","Blowing Snow"
"-93.58","69.55","TALOYOAK A","2403855","2022-03-20 16:00","2022","03","20","16:00","-23.3","","-26.9","","73","","","","31","","32","","19.3","","101.48","","","","-37","","Blowing Snow"
"-93.58","69.55","TALOYOAK A","2403855","2022-03-20 17:00","2022","03","20","17:00","-24.3","","-27.7","","74","","","","32","","21","","19.3","","101.61","","","","-36","","Ice Crystals,Blowing Snow"
"-93.58","69.55","TALOYOAK A","2403855","2022-03-20 18:00","2022","03","20","18:00","-25.5","","-28.8","","74","","","","30","","16","","24.1","","101.69","","","","-36","","Ice Crystals"
"-93.58","69.55","TALOYOAK A","2403855","2022-03-20 19:00","2022","03","20","19:00"
"-93.58","69.55","TALOYOAK A","2403855","2022-03-20 20:00","2022","03","20","20:00"
"-93.58","69.55","TALOYOAK A","2403855","2022-03-20 21:00","2022","03","20","21:00"
"-93.58","69.55","TALOYOAK A","2403855","2022-03-20 22:00","2022","03","20","22:00"
"-93.58","69.55","TALOYOAK A","2403855","2022-03-20 23:00","2022","03","20","23:00"
"-93.58","69.55","TALOYOAK A","2403855","2022-03-21 00:00","2022","03","21","00:00"
"-93.58","69.55","TALOYOAK A","2403855","2022-03-21 01:00","2022","03","21","01:00"
"-93.58","69.55","TALOYOAK A","2403855","2022-03-21 02:00","2022","03","21","02:00"
"-93.58","69.55","TALOYOAK A","2403855","2022-03-21 03:00","2022","03","21","03:00"
"-93.58","69.55","TALOYOAK A","2403855","2022-03-21 04:00","2022","03","21","04:00"
"-93.58","69.55","TALOYOAK A","2403855","2022-03-21 05:00","2022","03","21","05:00"
"-93.58","69.55","TALOYOAK A","2403855","2022-03-21 06:00","2022","03","21","06:00"
"-93.58","69.55","TALOYOAK A","2403855","2022-03-21 07:00","2022","03","21","07:00"
"-93.58","69.55","TALOYOAK A","2403855","2022-03-21 08:00","2022","03","21","08:00"
"-93.58","69.55","TALOYOAK A","2403855","2022-03-21 09:00","2022","03","21","09:00"
"-93.58","69.55","TALOYOAK A","2403855","2022-03-21 10:00","2022","03","21","10:00"
"-93.58","69.55","TALOYOAK A","2403855","2022-03-21 11:00","2022","03","21","11:00"
"-93.58","69.55","TALOYOAK A","2403855","2022-03-21 12:00","2022","03","21","12:00"
"-93.58","69.55","TALOYOAK A","2403855","2022-03-21 13:00","2022","03","21","13:00"
"-93.58","69.55","TALOYOAK A","2403855","2022-03-21 14:00","2022","03","21","14:00"
"-93.58","69.55","TALOYOAK A","2403855","2022-03-21 15:00","2022","03","21","15:00"
"-93.58","69.55","TALOYOAK A","2403855","2022-03-21 16:00","2022","03","21","16:00"
"-93.58","69.55","TALOYOAK A","2403855","2022-03-21 17:00","2022","03","21","17:00"
"-93.58","69.55","TALOYOAK A","2403855","2022-03-21 18:00","2022","03","21","18:00"
"-93.58","69.55","TALOYOAK A","2403855","2022-03-21 19:00","2022","03","21","19:00"
"-93.58","69.55","TALOYOAK A","2403855","2022-03-21 20:00","2022","03","21","20:00"
"-93.58","69.55","TALOYOAK A","2403855","2022-03-21 21:00","2022","03","21","21:00"
"-93.58","69.55","TALOYOAK A","2403855","2022-03-21 22:00","2022","03","21","22:00"
"-93.58","69.55","TALOYOAK A","2403855","2022-03-21 23:00","2022","03","21","23:00"
"-93.58","69.55","TALOYOAK A","2403855","2022-03-22 00:00","2022","03","22","00:00"
"-93.58","69.55","TALOYOAK A","2403855","2022-03-22 01:00","2022","03","22","01:00"
"-93.58","69.55","TALOYOAK A","2403855","2022-03-22 02:00","2022","03","22","02:00"
"-93.58","69.55","TALOYOAK A","2403855","2022-03-22 03:00","2022","03","22","03:00"
"-93.58","69.55","TALOYOAK A","2403855","2022-03-22 04:00","2022","03","22","04:00"
"-93.58","69.55","TALOYOAK A","2403855","2022-03-22 05:00","2022","03","22","05:00"
"-93.58","69.55","TALOYOAK A","2403855","2022-03-22 06:00","2022","03","22","06:00"
"-93.58","69.55","TALOYOAK A","2403855","2022-03-22 07:00","2022","03","22","07:00"
"-93.58","69.55","TALOYOAK A","2403855","2022-03-22 08:00","2022","03","22","08:00","-25.9","","-29.2","","74","","","","4","","36","","3.2","","102.12","","","","-41","","Blowing Snow"
"-93.58","69.55","TALOYOAK A","2403855","2022-03-22 09:00","2022","03","22","09:00","-24.9","","-28.3","","73","","","","4","","36","","2.0","","102.12","","","","-40","","Blowing Snow"
"-93.58","69.55","TALOYOAK A","2403855","2022-03-22 10:00","2022","03","22","10:00","-24.3","","-27.8","","74","","","","5","","39","","1.2","","102.08","","","","-40","","Blowing Snow"
"-93.58","69.55","TALOYOAK A","2403855","2022-03-22 11:00","2022","03","22","11:00","-24.1","","-27.5","","73","","","","4","","35","","2.4","","102.06","","","","-39","","Ice Crystals,Blowing Snow"
"-93.58","69.55","TALOYOAK A","2403855","2022-03-22 12:00","2022","03","22","12:00","-23.8","","-27.1","","74","","","","5","","43","","1.0","","101.98","","","","-40","","Ice Crystals,Blowing Snow"
"-93.58","69.55","TALOYOAK A","2403855","2022-03-22 13:00","2022","03","22","13:00","-23.7","","-27.0","","75","","","","5","","38","","0.8","","101.96","","","","-39","","Ice Crystals,Blowing Snow"
"-93.58","69.55","TALOYOAK A","2403855","2022-03-22 14:00","2022","03","22","14:00","-23.6","","-26.9","","75","","","","5","","48","","0.6","","101.94","","","","-40","","Ice Crystals,Blowing Snow"
"-93.58","69.55","TALOYOAK A","2403855","2022-03-22 15:00","2022","03","22","15:00","-23.4","","-26.6","","76","","","","5","","33","","1.0","","101.97","","","","-38","","Ice Crystals,Blowing Snow"
"-93.58","69.55","TALOYOAK A","2403855","2022-03-22 16:00","2022","03","22","16:00","-23.4","","-26.4","","76","","","","7","","40","","1.0","","101.89","","","","-39","","Ice Crystals,Blowing Snow"
"-93.58","69.55","TALOYOAK A","2403855","2022-03-22 17:00","2022","03","22","17:00","-23.3","","-26.3","","77","","","","6","","33","","1.0","","101.88","","","","-37","","Ice Crystals,Blowing Snow"
"-93.58","69.55","TALOYOAK A","2403855","2022-03-22 18:00","2022","03","22","18:00","-23.4","","-26.3","","77","","","","5","","37","","1.0","","101.87","","","","-38","","Ice Crystals,Blowing Snow"
"-93.58","69.55","TALOYOAK A","2403855","2022-03-22 19:00","2022","03","22","19:00","-23.2","","-26.1","","77","","","","5","","41","","1.6","","101.80","","","","-39","","Ice Crystals,Blowing Snow"
"-93.58","69.55","TALOYOAK A","2403855","2022-03-22 20:00","2022","03","22","20:00"
"-93.58","69.55","TALOYOAK A","2403855","2022-03-22 21:00","2022","03","22","21:00"
"-93.58","69.55","TALOYOAK A","2403855","2022-03-22 22:00","2022","03","22","22:00"
"-93.58","69.55","TALOYOAK A","2403855","2022-03-22 23:00","2022","03","22","23:00"
"-93.58","69.55","TALOYOAK A","2403855","2022-03-23 00:00","2022","03","23","00:00"
"-93.58","69.55","TALOYOAK A","2403855","2022-03-23 01:00","2022","03","23","01:00"
"-93.58","69.55","TALOYOAK A","2403855","2022-03-23 02:00","2022","03","23","02:00"
"-93.58","69.55","TALOYOAK A","2403855","2022-03-23 03:00","2022","03","23","03:00"
"-93.58","69.55","TALOYOAK A","2403855","2022-03-23 04:00","2022","03","23","04:00"
"-93.58","69.55","TALOYOAK A","2403855","2022-03-23 05:00","2022","03","23","05:00"
"-93.58","69.55","TALOYOAK A","2403855","2022-03-23 06:00","2022","03","23","06:00"
"-93.58","69.55","TALOYOAK A","2403855","2022-03-23 07:00","2022","03","23","07:00"
"-93.58","69.55","TALOYOAK A","2403855","2022-03-23 08:00","2022","03","23","08:00","-25.6","","-29.0","","73","","","","1","","18","","24.1","","101.51","","","","-37","","Ice Crystals"
"-93.58","69.55","TALOYOAK A","2403855","2022-03-23 09:00","2022","03","23","09:00","-24.4","","-28.0","","72","","","","1","","21","","24.1","","101.50","","","","-36","","Ice Crystals"
"-93.58","69.55","TALOYOAK A","2403855","2022-03-23 10:00","2022","03","23","10:00","-23.9","","-27.6","","72","","","","36","","18","","24.1","","101.49","","","","-35","","Ice Crystals"
"-93.58","69.55","TALOYOAK A","2403855","2022-03-23 11:00","2022","03","23","11:00","-23.2","","-27.0","","71","","","","2","","18","","24.1","","101.48","","","","-34","","Ice Crystals"
"-93.58","69.55","TALOYOAK A","2403855","2022-03-23 12:00","2022","03","23","12:00","-22.9","","-26.6","","72","","","","2","","13","","24.1","","101.49","","","","-32","","Ice Crystals"
"-93.58","69.55","TALOYOAK A","2403855","2022-03-23 13:00","2022","03","23","13:00","-22.6","","-26.4","","72","","","","2","","26","","24.1","","101.45","","","","-35","","Ice Crystals"
"-93.58","69.55","TALOYOAK A","2403855","2022-03-23 14:00","2022","03","23","14:00","-22.6","","-26.4","","72","","","","1","","21","","24.1","","101.49","","","","-34","","Ice Crystals"
"-93.58","69.55","TALOYOAK A","2403855","2022-03-23 15:00","2022","03","23","15:00","-22.8","","-26.6","","72","","","","1","","23","","24.1","","101.44","","","","-35","","Ice Crystals"
"-93.58","69.55","TALOYOAK A","2403855","2022-03-23 16:00","2022","03","23","16:00","-23.6","","-27.3","","72","","","","36","","19","","24.1","","101.42","","","","-35","","Ice Crystals"
"-93.58","69.55","TALOYOAK A","2403855","2022-03-23 17:00","2022","03","23","17:00","-23.6","","-27.2","","73","","","","1","","25","","24.1","","101.40","","","","-36","","Ice Crystals"
"-93.58","69.55","TALOYOAK A","2403855","2022-03-23 18:00","2022","03","23","18:00","-24.6","","-28.1","","73","","","","36","","25","","24.1","","101.37","","","","-38","","Ice Crystals"
"-93.58","69.55","TALOYOAK A","2403855","2022-03-23 19:00","2022","03","23","19:00","-25.2","","-28.3","","76","","","","1","","18","","24.1","","101.39","","","","-36","","Ice Crystals"
"-93.58","69.55","TALOYOAK A","2403855","2022-03-23 20:00","2022","03","23","20:00","-27.6","","-30.6","","76","","","","35","","20","","24.1","","101.37","","","","-40","","Ice Crystals"
"-93.58","69.55","TALOYOAK A","2403855","2022-03-23 21:00","2022","03","23","21:00","-28.0","","-31.0","","76","","","","35","","17","","24.1","","101.39","","","","-40","","Ice Crystals"
"-93.58","69.55","TALOYOAK A","2403855","2022-03-23 22:00","2022","03","23","22:00","-27.9","","-31.0","","75","","","","34","","22","","24.1","","101.37","","","","-41","","Ice Crystals"
"-93.58","69.55","TALOYOAK A","2403855","2022-03-23 23:00","2022","03","23","23:00","-28.6","","-31.9","","74","","","","35","","18","","24.1","","101.37","","","","-41","","Ice Crystals"
"-93.58","69.55","TALOYOAK A","2403855","2022-03-24 00:00","2022","03","24","00:00","-28.9","","-32.2","","74","","","","35","","13","","24.1","","101.40","","","","-39","","Ice Crystals"
"-93.58","69.55","TALOYOAK A","2403855","2022-03-24 01:00","2022","03","24","01:00","-28.7","","-31.9","","74","","","","35","","13","","24.1","","101.40","","","","-39","","Ice Crystals"
"-93.58","69.55","TALOYOAK A","2403855","2022-03-24 02:00","2022","03","24","02:00","-28.9","","-32.2","","74","","","","34","","16","","24.1","","101.39","","","","-40","","Ice Crystals"
"-93.58","69.55","TALOYOAK A","2403855","2022-03-24 03:00","2022","03","24","03:00","-28.3","","-31.6","","74","","","","33","","22","","24.1","","101.39","","","","-42","","Ice Crystals"
"-93.58","69.55","TALOYOAK A","2403855","2022-03-24 04:00","2022","03","24","04:00","-28.6","","-31.6","","75","","","","36","","10","","24.1","","101.42","","","","-37","","Ice Crystals"
"-93.58","69.55","TALOYOAK A","2403855","2022-03-24 05:00","2022","03","24","05:00","-28.0","","-31.2","","74","","","","35","","12","","24.1","","101.43","","","","-38","","Ice Crystals"
"-93.58","69.55","TALOYOAK A","2403855","2022-03-24 06:00","2022","03","24","06:00","-27.1","","-30.6","","73","","","","1","","7","","24.1","","101.48","","","","-34","","Ice Crystals"
"-93.58","69.55","TALOYOAK A","2403855","2022-03-24 07:00","2022","03","24","07:00","-26.8","","-30.3","","73","","","","35","","5","","24.1","","101.47","","","","-32","","Ice Crystals"
"-93.58","69.55","TALOYOAK A","2403855","2022-03-24 08:00","2022","03","24","08:00","-27.3","","-30.8","","73","","","","18","","5","","24.1","","101.45","","","","-33","","Ice Crystals"
"-93.58","69.55","TALOYOAK A","2403855","2022-03-24 09:00","2022","03","24","09:00","-27.2","","-30.7","","73","","","","16","","6","","24.1","","101.45","","","","-33","","Ice Crystals"
"-93.58","69.55","TALOYOAK A","2403855","2022-03-24 10:00","2022","03","24","10:00","-26.8","","-30.4","","72","","","","16","","9","","24.1","","101.43","","","","-35","","Ice Crystals"
"-93.58","69.55","TALOYOAK A","2403855","2022-03-24 11:00","2022","03","24","11:00","-26.1","","-29.7","","73","","","","17","","13","","24.1","","101.41","","","","-36","","Ice Crystals"
"-93.58","69.55","TALOYOAK A","2403855","2022-03-24 12:00","2022","03","24","12:00","-25.8","","-29.3","","73","","","","16","","14","","24.1","","101.41","","","","-36","","Ice Crystals"
"-93.58","69.55","TALOYOAK A","2403855","2022-03-24 13:00","2022","03","24","13:00","-25.6","","-29.1","","73","","","","15","","8","","24.1","","101.41","","","","-33","","Ice Crystals"
"-93.58","69.55","TALOYOAK A","2403855","2022-03-24 14:00","2022","03","24","14:00","-25.1","","-28.6","","73","","","","36","","2","","24.1","","101.41","","","","-27","","Ice Crystals"
"-93.58","69.55","TALOYOAK A","2403855","2022-03-24 15:00","2022","03","24","15:00","-24.9","","-28.4","","73","","","","36","","10","","24.1","","101.43","","","","-33","","Ice Crystals"
"-93.58","69.55","TALOYOAK A","2403855","2022-03-24 16:00","2022","03","24","16:00","-25.9","","-29.4","","73","","","","1","","7","","24.1","","101.45","","","","-33","","Ice Crystals"
"-93.58","69.55","TALOYOAK A","2403855","2022-03-24 17:00","2022","03","24","17:00","-27.0","","-29.9","","77","","","","35","","12","","24.1","","101.47","","","","-37","","Ice Crystals"
"-93.58","69.55","TALOYOAK A","2403855","2022-03-24 18:00","2022","03","24","18:00","-28.9","","-32.7","","70","","","","33","","12","","24.1","","101.48","","","","-39","","Ice Crystals"
"-93.58","69.55","TALOYOAK A","2403855","2022-03-24 19:00","2022","03","24","19:00","-28.4","","-32.2","","70","","","","35","","10","","24.1","","101.51","","","","-37","","Ice Crystals"
"-93.58","69.55","TALOYOAK A","2403855","2022-03-24 20:00","2022","03","24","20:00"
"-93.58","69.55","TALOYOAK A","2403855","2022-03-24 21:00","2022","03","24","21:00"
"-93.58","69.55","TALOYOAK A","2403855","2022-03-24 22:00","2022","03","24","22:00"
"-93.58","69.55","TALOYOAK A","2403855","2022-03-24 23:00","2022","03","24","23:00"
"-93.58","69.55","TALOYOAK A","2403855","2022-03-25 00:00","2022","03","25","00:00"
"-93.58","69.55","TALOYOAK A","2403855","2022-03-25 01:00","2022","03","25","01:00"
"-93.58","69.55","TALOYOAK A","2403855","2022-03-25 02:00","2022","03","25","02:00"
"-93.58","69.55","TALOYOAK A","2403855","2022-03-25 03:00","2022","03","25","03:00"
"-93.58","69.55","TALOYOAK A","2403855","2022-03-25 04:00","2022","03","25","04:00"
"-93.58","69.55","TALOYOAK A","2403855","2022-03-25 05:00","2022","03","25","05:00"
"-93.58","69.55","TALOYOAK A","2403855","2022-03-25 06:00","2022","03","25","06:00"
"-93.58","69.55","TALOYOAK A","2403855","2022-03-25 07:00","2022","03","25","07:00"
"-93.58","69.55","TALOYOAK A","2403855","2022-03-25 08:00","2022","03","25","08:00","-30.8","","-34.5","","71","","","","15","","4","","19.3","","101.66","","","","-35","","Snow"
"-93.58","69.55","TALOYOAK A","2403855","2022-03-25 09:00","2022","03","25","09:00","-30.1","","-33.9","","71","","","","17","","7","","19.3","","101.68","","","","-37","","Ice Crystals"
"-93.58","69.55","TALOYOAK A","2403855","2022-03-25 10:00","2022","03","25","10:00","-29.8","","-33.6","","70","","","","18","","6","","19.3","","101.69","","","","-36","","Ice Crystals"
"-93.58","69.55","TALOYOAK A","2403855","2022-03-25 11:00","2022","03","25","11:00","-28.9","","-32.7","","70","","","","36","","2","","24.1","","101.69","","","","-31","","Ice Crystals"
"-93.58","69.55","TALOYOAK A","2403855","2022-03-25 12:00","2022","03","25","12:00","-28.1","","-31.9","","70","","","","17","","3","","24.1","","101.70","","","","-31","","Ice Crystals"
"-93.58","69.55","TALOYOAK A","2403855","2022-03-25 13:00","2022","03","25","13:00","-27.3","","-31.0","","71","","","","36","","2","","24.1","","101.72","","","","-29","","Ice Crystals"
"-93.58","69.55","TALOYOAK A","2403855","2022-03-25 14:00","2022","03","25","14:00","-23.8","","-28.0","","69","","","","36","","2","","24.1","","101.74","","","","-26","","Ice Crystals"
"-93.58","69.55","TALOYOAK A","2403855","2022-03-25 15:00","2022","03","25","15:00","-25.8","","-29.7","","70","","","","15","","5","","24.1","","101.77","","","","-31","","Ice Crystals"
"-93.58","69.55","TALOYOAK A","2403855","2022-03-25 16:00","2022","03","25","16:00","-27.1","","-30.8","","72","","","","14","","5","","24.1","","101.79","","","","-32","","NA"
"-93.58","69.55","TALOYOAK A","2403855","2022-03-25 17:00","2022","03","25","17:00","-26.1","","-29.5","","74","","","","36","","4","","24.1","","101.81","","","","-30","","Mainly Clear"
"-93.58","69.55","TALOYOAK A","2403855","2022-03-25 18:00","2022","03","25","18:00","-27.6","","-30.8","","75","","","","36","","15","","24.1","","101.84","","","","-38","","NA"
"-93.58","69.55","TALOYOAK A","2403855","2022-03-25 19:00","2022","03","25","19:00","-28.0","","-31.4","","74","","","","34","","17","","24.1","","101.82","","","","-40","","NA"
"-93.58","69.55","TALOYOAK A","2403855","2022-03-25 20:00","2022","03","25","20:00","-28.5","","-32.0","","73","","","","36","","13","","24.1","","101.83","","","","-39","","Ice Crystals"
"-93.58","69.55","TALOYOAK A","2403855","2022-03-25 21:00","2022","03","25","21:00","-28.5","","-32.3","","71","","","","34","","18","","24.1","","101.80","","","","-41","","Ice Crystals"
"-93.58","69.55","TALOYOAK A","2403855","2022-03-25 22:00","2022","03","25","22:00"
"-93.58","69.55","TALOYOAK A","2403855","2022-03-25 23:00","2022","03","25","23:00"
"-93.58","69.55","TALOYOAK A","2403855","2022-03-26 00:00","2022","03","26","00:00","-30.1","","-34.2","","69","","","","36","","2","","24.1","","101.77","","","","-32","","Ice Crystals"
"-93.58","69.55","TALOYOAK A","2403855","2022-03-26 01:00","2022","03","26","01:00","-30.9","","-34.6","","71","","","","36","","1","","24.1","","101.78","","","","-32","","Ice Crystals"
"-93.58","69.55","TALOYOAK A","2403855","2022-03-26 02:00","2022","03","26","02:00","-31.0","","-35.5","","66","","","","36","","2","","24.1","","101.76","","","","-33","","Ice Crystals"
"-93.58","69.55","TALOYOAK A","2403855","2022-03-26 03:00","2022","03","26","03:00","-31.0","","-35.4","","66","","","","36","","2","","24.1","","101.78","","","","-33","","Ice Crystals"
"-93.58","69.55","TALOYOAK A","2403855","2022-03-26 04:00","2022","03","26","04:00","-31.8","","-35.7","","69","","","","35","","5","","24.1","","101.79","","","","-38","","Ice Crystals"
"-93.58","69.55","TALOYOAK A","2403855","2022-03-26 05:00","2022","03","26","05:00","-33.1","","-37.3","","67","","","","36","","3","","24.1","","101.78","","","","-37","","Ice Crystals"
"-93.58","69.55","TALOYOAK A","2403855","2022-03-26 06:00","2022","03","26","06:00","-32.9","","-36.4","","72","","","","31","","3","","24.1","","101.78","","","","-37","","Ice Crystals"
"-93.58","69.55","TALOYOAK A","2403855","2022-03-26 07:00","2022","03","26","07:00","-33.9","","-37.4","","71","","","","19","","6","","24.1","","101.78","","","","-41","","NA"
"-93.58","69.55","TALOYOAK A","2403855","2022-03-26 08:00","2022","03","26","08:00","-33.1","","-36.8","","70","","","","16","","9","","24.1","","101.78","","","","-42","","Clear"
"-93.58","69.55","TALOYOAK A","2403855","2022-03-26 09:00","2022","03","26","09:00","-32.3","","-36.1","","70","","","","17","","6","","24.1","","101.75","","","","-39","","NA"
"-93.58","69.55","TALOYOAK A","2403855","2022-03-26 10:00","2022","03","26","10:00","-31.6","","-35.5","","69","","","","17","","10","","24.1","","101.73","","","","-41","","NA"
"-93.58","69.55","TALOYOAK A","2403855","2022-03-26 11:00","2022","03","26","11:00","-31.0","","-35.0","","69","","","","17","","12","","24.1","","101.71","","","","-41","","Clear"
"-93.58","69.55","TALOYOAK A","2403855","2022-03-26 12:00","2022","03","26","12:00","-30.5","","-34.5","","68","","","","16","","13","","24.1","","101.70","","","","-41","","NA"
"-93.58","69.55","TALOYOAK A","2403855","2022-03-26 13:00","2022","03","26","13:00","-30.3","","-34.5","","68","","","","16","","12","","24.1","","101.71","","","","-41","","NA"
"-93.58","69.55","TALOYOAK A","2403855","2022-03-26 14:00","2022","03","26","14:00","-30.5","","-34.4","","69","","","","17","","16","","24.1","","101.69","","","","-42","","Clear"
"-93.58","69.55","TALOYOAK A","2403855","2022-03-26 15:00","2022","03","26","15:00","-30.4","","-34.3","","69","","","","16","","12","","24.1","","101.70","","","","-41","","NA"
"-93.58","69.55","TALOYOAK A","2403855","2022-03-26 16:00","2022","03","26","16:00","-30.4","","-34.1","","71","","","","15","","17","","24.1","","101.72","","","","-43","","NA"
"-93.58","69.55","TALOYOAK A","2403855","2022-03-26 17:00","2022","03","26","17:00","-31.1","","-34.7","","72","","","","15","","16","","24.1","","101.72","","","","-43","","Clear"
"-93.58","69.55","TALOYOAK A","2403855","2022-03-26 18:00","2022","03","26","18:00","-31.5","","-34.8","","73","","","","15","","15","","24.1","","101.70","","","","-43","","NA"
"-93.58","69.55","TALOYOAK A","2403855","2022-03-26 19:00","2022","03","26","19:00","-31.6","","-34.8","","74","","","","15","","14","","24.1","","101.69","","","","-43","","NA"
"-93.58","69.55","TALOYOAK A","2403855","2022-03-26 20:00","2022","03","26","20:00","-32.1","","-35.3","","74","","","","15","","9","","24.1","","101.67","","","","-41","","Ice Crystals"
"-93.58","69.55","TALOYOAK A","2403855","2022-03-26 21:00","2022","03","26","21:00","-32.6","","-35.8","","74","","","","16","","7","","24.1","","101.64","","","","-40","","Ice Crystals"
"-93.58","69.55","TALOYOAK A","2403855","2022-03-26 22:00","2022","03","26","22:00","-33.4","","-36.7","","73","","","","17","","8","","24.1","","101.64","","","","-42","","NA"
"-93.58","69.55","TALOYOAK A","2403855","2022-03-26 23:00","2022","03","26","23:00","-34.3","","-37.6","","73","","","","36","","3","","24.1","","101.62","","","","-38","","Ice Crystals"
"-93.58","69.55","TALOYOAK A","2403855","2022-03-27 00:00","2022","03","27","00:00","-34.7","","-38.0","","73","","","","36","","5","","24.1","","101.64","","","","-41","","Ice Crystals"
"-93.58","69.55","TALOYOAK A","2403855","2022-03-27 01:00","2022","03","27","01:00","-34.5","","-37.9","","72","","","","36","","1","","24.1","","101.66","","","","-36","","Ice Crystals"
"-93.58","69.55","TALOYOAK A","2403855","2022-03-27 02:00","2022","03","27","02:00","-36.2","","-39.6","","71","","","","33","","5","","24.1","","101.71","","","","-43","","Ice Crystals"
"-93.58","69.55","TALOYOAK A","2403855","2022-03-27 03:00","2022","03","27","03:00"
"-93.58","69.55","TALOYOAK A","2403855","2022-03-27 04:00","2022","03","27","04:00"
"-93.58","69.55","TALOYOAK A","2403855","2022-03-27 05:00","2022","03","27","05:00"
"-93.58","69.55","TALOYOAK A","2403855","2022-03-27 06:00","2022","03","27","06:00"
"-93.58","69.55","TALOYOAK A","2403855","2022-03-27 07:00","2022","03","27","07:00"
"-93.58","69.55","TALOYOAK A","2403855","2022-03-27 08:00","2022","03","27","08:00"
"-93.58","69.55","TALOYOAK A","2403855","2022-03-27 09:00","2022","03","27","09:00","-33.0","","-36.6","","71","","","","16","","12","","24.1","","101.90","","","","-44","","Ice Crystals"
"-93.58","69.55","TALOYOAK A","2403855","2022-03-27 10:00","2022","03","27","10:00","-31.9","","-35.5","","71","","","","16","","12","","24.1","","101.89","","","","-42","","Ice Crystals"
"-93.58","69.55","TALOYOAK A","2403855","2022-03-27 11:00","2022","03","27","11:00","-30.8","","-34.4","","72","","","","15","","16","","24.1","","101.94","","","","-43","","Ice Crystals"
"-93.58","69.55","TALOYOAK A","2403855","2022-03-27 12:00","2022","03","27","12:00","-29.7","","-33.2","","72","","","","14","","16","","24.1","","101.95","","","","-41","","Ice Crystals"
"-93.58","69.55","TALOYOAK A","2403855","2022-03-27 13:00","2022","03","27","13:00","-28.1","","-31.6","","73","","","","17","","10","","8.1","","101.98","","","","-37","","Ice Crystals,Fog"
"-93.58","69.55","TALOYOAK A","2403855","2022-03-27 14:00","2022","03","27","14:00","-28.1","","-31.6","","73","","","","36","","2","","12.9","","102.02","","","","-30","","Ice Crystals"
"-93.58","69.55","TALOYOAK A","2403855","2022-03-27 15:00","2022","03","27","15:00","-28.1","","-31.6","","73","","","","16","","5","","16.1","","102.09","","","","-33","","Ice Crystals"
"-93.58","69.55","TALOYOAK A","2403855","2022-03-27 16:00","2022","03","27","16:00","-28.2","","-31.5","","74","","","","19","","4","","24.1","","102.12","","","","-33","","Ice Crystals"
"-93.58","69.55","TALOYOAK A","2403855","2022-03-27 17:00","2022","03","27","17:00","-29.6","","-32.9","","74","","","","16","","6","","24.1","","102.14","","","","-36","","Ice Crystals"
"-93.58","69.55","TALOYOAK A","2403855","2022-03-27 18:00","2022","03","27","18:00","-30.2","","-33.4","","74","","","","14","","7","","9.7","","102.17","","","","-38","","Ice Crystals,Fog"
"-93.58","69.55","TALOYOAK A","2403855","2022-03-27 19:00","2022","03","27","19:00","-30.4","","-33.5","","74","","","","13","","9","","16.1","","102.19","","","","-39","","Ice Crystals"
"-93.58","69.55","TALOYOAK A","2403855","2022-03-27 20:00","2022","03","27","20:00"
"-93.58","69.55","TALOYOAK A","2403855","2022-03-27 21:00","2022","03","27","21:00"
"-93.58","69.55","TALOYOAK A","2403855","2022-03-27 22:00","2022","03","27","22:00"
"-93.58","69.55","TALOYOAK A","2403855","2022-03-27 23:00","2022","03","27","23:00"
"-93.58","69.55","TALOYOAK A","2403855","2022-03-28 00:00","2022","03","28","00:00"
"-93.58","69.55","TALOYOAK A","2403855","2022-03-28 01:00","2022","03","28","01:00"
"-93.58","69.55","TALOYOAK A","2403855","2022-03-28 02:00","2022","03","28","02:00"
"-93.58","69.55","TALOYOAK A","2403855","2022-03-28 03:00","2022","03","28","03:00"
"-93.58","69.55","TALOYOAK A","2403855","2022-03-28 04:00","2022","03","28","04:00"
"-93.58","69.55","TALOYOAK A","2403855","2022-03-28 05:00","2022","03","28","05:00"
"-93.58","69.55","TALOYOAK A","2403855","2022-03-28 06:00","2022","03","28","06:00"
"-93.58","69.55","TALOYOAK A","2403855","2022-03-28 07:00","2022","03","28","07:00"
"-93.58","69.55","TALOYOAK A","2403855","2022-03-28 08:00","2022","03","28","08:00","-33.9","","-37.5","","71","","","","36","","1","","16.1","","102.41","","","","-35","","Ice Crystals"
"-93.58","69.55","TALOYOAK A","2403855","2022-03-28 09:00","2022","03","28","09:00","-32.7","","-36.2","","71","","","","19","","8","","19.3","","102.41","","","","-41","","Ice Crystals"
"-93.58","69.55","TALOYOAK A","2403855","2022-03-28 10:00","2022","03","28","10:00","-32.2","","-35.7","","72","","","","18","","8","","24.1","","102.41","","","","-41","","Ice Crystals"
"-93.58","69.55","TALOYOAK A","2403855","2022-03-28 11:00","2022","03","28","11:00","-31.5","","-35.0","","72","","","","18","","5","","24.1","","102.39","","","","-37","","Ice Crystals"
"-93.58","69.55","TALOYOAK A","2403855","2022-03-28 12:00","2022","03","28","12:00","-31.0","","-34.5","","72","","","","36","","3","","24.1","","102.39","","","","-34","","Ice Crystals"
"-93.58","69.55","TALOYOAK A","2403855","2022-03-28 13:00","2022","03","28","13:00","-30.9","","-34.4","","72","","","","23","","3","","24.1","","102.40","","","","-34","","Ice Crystals"
"-93.58","69.55","TALOYOAK A","2403855","2022-03-28 14:00","2022","03","28","14:00","-30.5","","-34.0","","72","","","","36","","2","","24.1","","102.42","","","","-33","","Ice Crystals"
"-93.58","69.55","TALOYOAK A","2403855","2022-03-28 15:00","2022","03","28","15:00","-30.1","","-33.5","","73","","","","19","","5","","24.1","","102.45","","","","-36","","Ice Crystals"
"-93.58","69.55","TALOYOAK A","2403855","2022-03-28 16:00","2022","03","28","16:00","-30.2","","-33.6","","73","","","","36","","1","","24.1","","102.45","","","","-31","","Ice Crystals"
"-93.58","69.55","TALOYOAK A","2403855","2022-03-28 17:00","2022","03","28","17:00","-30.4","","-33.8","","73","","","","16","","3","","24.1","","102.43","","","","-34","","Ice Crystals"
"-93.58","69.55","TALOYOAK A","2403855","2022-03-28 18:00","2022","03","28","18:00","-31.2","","-34.6","","73","","","","36","","3","","24.1","","102.42","","","","-35","","Ice Crystals"
"-93.58","69.55","TALOYOAK A","2403855","2022-03-28 19:00","2022","03","28","19:00","-31.4","","-34.8","","73","","","","36","","3","","24.1","","102.41","","","","-35","","Ice Crystals"
"-93.58","69.55","TALOYOAK A","2403855","2022-03-28 20:00","2022","03","28","20:00","-32.0","","-35.4","","72","","","","2","","3","","24.1","","102.42","","","","-36","","Ice Crystals"
"-93.58","69.55","TALOYOAK A","2403855","2022-03-28 21:00","2022","03","28","21:00","-33.0","","-36.5","","72","","","","36","","4","","24.1","","102.39","","","","-38","","Ice Crystals"
"-93.58","69.55","TALOYOAK A","2403855","2022-03-28 22:00","2022","03","28","22:00","-32.7","","-36.1","","72","","","","3","","7","","24.1","","102.36","","","","-40","","Ice Crystals"
"-93.58","69.55","TALOYOAK A","2403855","2022-03-28 23:00","2022","03","28","23:00","-34.6","","-38.3","","70","","","","1","","9","","24.1","","102.37","","","","-44","","Ice Crystals"
"-93.58","69.55","TALOYOAK A","2403855","2022-03-29 00:00","2022","03","29","00:00","-33.2","","-36.7","","71","","","","2","","14","","24.1","","102.38","","","","-45","","Ice Crystals"
"-93.58","69.55","TALOYOAK A","2403855","2022-03-29 01:00","2022","03","29","01:00","-34.1","","-37.6","","71","","","","1","","14","","24.1","","102.38","","","","-46","","Ice Crystals"
"-93.58","69.55","TALOYOAK A","2403855","2022-03-29 02:00","2022","03","29","02:00","-34.5","","-38.1","","70","","","","2","","14","","24.1","","102.39","","","","-47","","Ice Crystals"
"-93.58","69.55","TALOYOAK A","2403855","2022-03-29 03:00","2022","03","29","03:00","-33.6","","-37.1","","71","","","","2","","15","","24.1","","102.39","","","","-46","","Ice Crystals"
"-93.58","69.55","TALOYOAK A","2403855","2022-03-29 04:00","2022","03","29","04:00","-34.6","","-38.2","","71","","","","3","","13","","24.1","","102.35","","","","-46","","Ice Crystals"
"-93.58","69.55","TALOYOAK A","2403855","2022-03-29 05:00","2022","03","29","05:00","-35.0","","-38.7","","70","","","","1","","15","","24.1","","102.33","","","","-48","","Ice Crystals"
"-93.58","69.55","TALOYOAK A","2403855","2022-03-29 06:00","2022","03","29","06:00","-34.3","","-38.0","","70","","","","2","","18","","24.1","","102.33","","","","-48","","Ice Crystals"
"-93.58","69.55","TALOYOAK A","2403855","2022-03-29 07:00","2022","03","29","07:00","-33.0","","-36.6","","71","","","","3","","15","","24.1","","102.31","","","","-45","","Ice Crystals"
"-93.58","69.55","TALOYOAK A","2403855","2022-03-29 08:00","2022","03","29","08:00","-32.2","","-35.7","","72","","","","2","","19","","24.1","","102.30","","","","-46","","Ice Crystals"
"-93.58","69.55","TALOYOAK A","2403855","2022-03-29 09:00","2022","03","29","09:00","-31.1","","-34.6","","72","","","","2","","16","","24.1","","102.26","","","","-43","","Ice Crystals"
"-93.58","69.55","TALOYOAK A","2403855","2022-03-29 10:00","2022","03","29","10:00","-30.2","","-33.6","","73","","","","3","","13","","24.1","","102.24","","","","-41","","Ice Crystals"
"-93.58","69.55","TALOYOAK A","2403855","2022-03-29 11:00","2022","03","29","11:00","-29.1","","-32.5","","73","","","","2","","14","","24.1","","102.21","","","","-40","","Ice Crystals"
"-93.58","69.55","TALOYOAK A","2403855","2022-03-29 12:00","2022","03","29","12:00","-27.6","","-30.9","","74","","","","1","","7","","24.1","","102.18","","","","-34","","Ice Crystals"
"-93.58","69.55","TALOYOAK A","2403855","2022-03-29 13:00","2022","03","29","13:00","-27.4","","-30.6","","74","","","","1","","11","","24.1","","102.17","","","","-37","","Ice Crystals"
"-93.58","69.55","TALOYOAK A","2403855","2022-03-29 14:00","2022","03","29","14:00","-26.6","","-29.8","","75","","","","1","","15","","24.1","","102.17","","","","-37","","Ice Crystals"
"-93.58","69.55","TALOYOAK A","2403855","2022-03-29 15:00","2022","03","29","15:00","-26.1","","-29.2","","76","","","","1","","12","","24.1","","102.14","","","","-35","","Ice Crystals"
"-93.58","69.55","TALOYOAK A","2403855","2022-03-29 16:00","2022","03","29","16:00","-27.1","","-30.2","","75","","","","1","","14","","24.1","","102.09","","","","-37","","Ice Crystals"
"-93.58","69.55","TALOYOAK A","2403855","2022-03-29 17:00","2022","03","29","17:00","-27.9","","-31.1","","75","","","","2","","15","","24.1","","102.05","","","","-39","","Ice Crystals"
"-93.58","69.55","TALOYOAK A","2403855","2022-03-29 18:00","2022","03","29","18:00","-29.7","","-33.0","","74","","","","2","","15","","24.1","","102.04","","","","-41","","Ice Crystals"
"-93.58","69.55","TALOYOAK A","2403855","2022-03-29 19:00","2022","03","29","19:00","-29.8","","-33.1","","74","","","","2","","16","","24.1","","102.00","","","","-42","","NA"
"-93.58","69.55","TALOYOAK A","2403855","2022-03-29 20:00","2022","03","29","20:00","-30.4","","-33.8","","73","","","","2","","15","","24.1","","101.94","","","","-42","","Clear"
"-93.58","69.55","TALOYOAK A","2403855","2022-03-29 21:00","2022","03","29","21:00","-30.6","","-34.0","","73","","","","2","","18","","24.1","","101.88","","","","-43","","NA"
"-93.58","69.55","TALOYOAK A","2403855","2022-03-29 22:00","2022","03","29","22:00","-31.3","","-34.7","","73","","","","1","","12","","24.1","","101.83","","","","-42","","NA"
"-93.58","69.55","TALOYOAK A","2403855","2022-03-29 23:00","2022","03","29","23:00","-30.3","","-33.7","","73","","","","36","","16","","24.1","","101.78","","","","-42","","Ice Crystals"
"-93.58","69.55","TALOYOAK A","2403855","2022-03-30 00:00","2022","03","30","00:00","-29.5","","-32.8","","74","","","","35","","13","","24.1","","101.75","","","","-40","","Ice Crystals"
"-93.58","69.55","TALOYOAK A","2403855","2022-03-30 01:00","2022","03","30","01:00","-27.3","","-30.4","","75","","","","36","","13","","24.1","","101.73","","","","-37","","Ice Crystals"
"-93.58","69.55","TALOYOAK A","2403855","2022-03-30 02:00","2022","03","30","02:00","-26.5","","-29.6","","76","","","","35","","15","","16.1","","101.68","","","","-37","","Snow Showers"
"-93.58","69.55","TALOYOAK A","2403855","2022-03-30 03:00","2022","03","30","03:00","-25.6","","-28.5","","77","","","","35","","17","","16.1","","101.61","","","","-37","","Snow Showers"
"-93.58","69.55","TALOYOAK A","2403855","2022-03-30 04:00","2022","03","30","04:00","-24.7","","-27.6","","77","","","","35","","18","","16.1","","101.57","","","","-36","","Snow"
"-93.58","69.55","TALOYOAK A","2403855","2022-03-30 05:00","2022","03","30","05:00","-23.9","","-26.7","","78","","","","35","","21","","16.1","","101.51","","","","-36","","Snow"
"-93.58","69.55","TALOYOAK A","2403855","2022-03-30 06:00","2022","03","30","06:00","-23.1","","-25.8","","79","","","","34","","14","","8.1","","101.46","","","","-33","","Snow Showers"
"-93.58","69.55","TALOYOAK A","2403855","2022-03-30 07:00","2022","03","30","07:00","-21.9","","-24.6","","79","","","","35","","18","","9.7","","101.41","","","","-32","","Snow Showers"
"-93.58","69.55","TALOYOAK A","2403855","2022-03-30 08:00","2022","03","30","08:00","-21.1","","-23.8","","80","","","","34","","17","","6.4","","101.36","","","","-31","","Snow Showers"
"-93.58","69.55","TALOYOAK A","2403855","2022-03-30 09:00","2022","03","30","09:00","-20.2","","-22.8","","80","","","","33","","14","","4.8","","101.30","","","","-29","","Snow"
"-93.58","69.55","TALOYOAK A","2403855","2022-03-30 10:00","2022","03","30","10:00","-19.5","","-22.0","","81","","","","33","","13","","4.8","","101.25","","","","-28","","Snow"
"-93.58","69.55","TALOYOAK A","2403855","2022-03-30 11:00","2022","03","30","11:00","-18.4","","-20.9","","81","","","","34","","13","","4.8","","101.20","","","","-26","","Snow"
"-93.58","69.55","TALOYOAK A","2403855","2022-03-30 12:00","2022","03","30","12:00","-17.8","","-20.3","","81","","","","32","","13","","6.4","","101.19","","","","-26","","Snow"
"-93.58","69.55","TALOYOAK A","2403855","2022-03-30 13:00","2022","03","30","13:00","-17.4","","-19.9","","81","","","","31","","15","","2.4","","101.16","","","","-26","","Snow Showers"
"-93.58","69.55","TALOYOAK A","2403855","2022-03-30 14:00","2022","03","30","14:00","-17.3","","-19.9","","80","","","","32","","15","","4.8","","101.13","","","","-26","","Snow"
"-93.58","69.55","TALOYOAK A","2403855","2022-03-30 15:00","2022","03","30","15:00","-17.0","","-19.7","","80","","","","31","","11","","19.3","","101.09","","","","-24","","Snow"
"-93.58","69.55","TALOYOAK A","2403855","2022-03-30 16:00","2022","03","30","16:00","-17.7","","-20.4","","80","","","","31","","13","","6.4","","101.05","","","","-26","","Snow"
"-93.58","69.55","TALOYOAK A","2403855","2022-03-30 17:00","2022","03","30","17:00","-18.2","","-20.8","","80","","","","33","","9","","12.9","","101.03","","","","-25","","Snow"
"-93.58","69.55","TALOYOAK A","2403855","2022-03-30 18:00","2022","03","30","18:00","-19.7","","-21.9","","83","","","","15","","5","","14.5","","101.02","","","","-24","","Snow"
"-93.58","69.55","TALOYOAK A","2403855","2022-03-30 19:00","2022","03","30","19:00","-20.6","","-22.7","","83","","","","15","","5","","19.3","","100.99","","","","-25","","Snow"
"-93.58","69.55","TALOYOAK A","2403855","2022-03-30 20:00","2022","03","30","20:00","-21.5","","-23.9","","82","","","","15","","6","","24.1","","100.96","","","","-27","","Snow"
"-93.58","69.55","TALOYOAK A","2403855","2022-03-30 21:00","2022","03","30","21:00","-21.7","","-24.2","","81","","","","16","","8","","19.3","","100.92","","","","-28","","Snow"
"-93.58","69.55","TALOYOAK A","2403855","2022-03-30 22:00","2022","03","30","22:00","-22.5","","-25.0","","81","","","","14","","10","","24.1","","100.91","","","","-30","","Snow"
"-93.58","69.55","TALOYOAK A","2403855","2022-03-30 23:00","2022","03","30","23:00","-23.0","","-25.6","","80","","","","14","","12","","24.1","","100.88","","","","-32","","Snow"
"-93.58","69.55","TALOYOAK A","2403855","2022-03-31 00:00","2022","03","31","00:00","-22.7","","-25.3","","80","","","","16","","13","","24.1","","100.90","","","","-32","","Snow"
"-93.58","69.55","TALOYOAK A","2403855","2022-03-31 01:00","2022","03","31","01:00","-23.2","","-25.8","","79","","","","16","","16","","24.1","","100.88","","","","-33","","Snow"
"-93.58","69.55","TALOYOAK A","2403855","2022-03-31 02:00","2022","03","31","02:00","-24.0","","-26.7","","79","","","","15","","17","","24.1","","100.86","","","","-35","","Snow"
"-93.58","69.55","TALOYOAK A","2403855","2022-03-31 03:00","2022","03","31","03:00","-24.4","","-27.2","","78","","","","15","","21","","16.1","","100.83","","","","-36","","Snow"
"-93.58","69.55","TALOYOAK A","2403855","2022-03-31 04:00","2022","03","31","04:00","-24.0","","-26.7","","79","","","","15","","18","","14.5","","100.81","","","","-35","","Snow"
"-93.58","69.55","TALOYOAK A","2403855","2022-03-31 05:00","2022","03","31","05:00","-24.1","","-26.9","","79","","","","15","","16","","16.1","","100.82","","","","-34","","Snow"
"-93.58","69.55","TALOYOAK A","2403855","2022-03-31 06:00","2022","03","31","06:00","-25.2","","-28.0","","78","","","","15","","17","","24.1","","100.84","","","","-36","","Snow"
"-93.58","69.55","TALOYOAK A","2403855","2022-03-31 07:00","2022","03","31","07:00","-24.5","","-27.3","","78","","","","16","","23","","24.1","","100.85","","","","-37","","Snow"
"-93.58","69.55","TALOYOAK A","2403855","2022-03-31 08:00","2022","03","31","08:00","-24.0","","-26.9","","78","","","","16","","19","","24.1","","100.86","","","","-35","","Snow,Blowing Snow"
"-93.58","69.55","TALOYOAK A","2403855","2022-03-31 09:00","2022","03","31","09:00","-23.5","","-26.6","","77","","","","15","","18","","24.1","","100.88","","","","-34","","Blowing Snow"
"-93.58","69.55","TALOYOAK A","2403855","2022-03-31 10:00","2022","03","31","10:00","-21.9","","-25.1","","76","","","","12","","7","","24.1","","100.88","","","","-28","","NA"
"-93.58","69.55","TALOYOAK A","2403855","2022-03-31 11:00","2022","03","31","11:00","-21.7","","-25.0","","75","","","","18","","17","","14.5","","100.92","","","","-32","","Clear"
"-93.58","69.55","TALOYOAK A","2403855","2022-03-31 12:00","2022","03","31","12:00","-22.6","","-25.8","","76","","","","20","","20","","14.5","","100.97","","","","-34","","NA"
"-93.58","69.55","TALOYOAK A","2403855","2022-03-31 13:00","2022","03","31","13:00","-22.6","","-25.9","","75","","","","21","","17","","9.7","","101.03","","","","-33","","Ice Crystals"
"-93.58","69.55","TALOYOAK A","2403855","2022-03-31 14:00","2022","03","31","14:00","-22.3","","-25.4","","76","","","","18","","7","","16.1","","101.04","","","","-28","","Ice Crystals"
"-93.58","69.55","TALOYOAK A","2403855","2022-03-31 15:00","2022","03","31","15:00","-23.6","","-27.2","","73","","","","24","","13","","24.1","","101.09","","","","-33","","Ice Crystals"
"-93.58","69.55","TALOYOAK A","2403855","2022-03-31 16:00","2022","03","31","16:00","-24.7","","-28.2","","74","","","","23","","12","","24.1","","101.10","","","","-34","","Ice Crystals"
"-93.58","69.55","TALOYOAK A","2403855","2022-03-31 17:00","2022","03","31","17:00","-25.2","","-28.4","","75","","","","21","","8","","24.1","","101.16","","","","-32","","Clear"
"-93.58","69.55","TALOYOAK A","2403855","2022-03-31 18:00","2022","03","31","18:00","-26.3","","-29.3","","77","","","","20","","11","","24.1","","101.19","","","","-35","","Ice Crystals"
"-93.58","69.55","TALOYOAK A","2403855","2022-03-31 19:00","2022","03","31","19:00","-27.6","","-30.6","","77","","","","14","","9","","24.1","","101.19","","","","-36","","Ice Crystals"
"-93.58","69.55","TALOYOAK A","2403855","2022-03-31 20:00","2022","03","31","20:00","-28.2","","-31.2","","76","","","","16","","17","","24.1","","101.24","","","","-40","","Ice Crystals"
"-93.58","69.55","TALOYOAK A","2403855","2022-03-31 21:00","2022","03","31","21:00","-28.8","","-31.8","","75","","","","14","","13","","16.1","","101.26","","","","-39","","Ice Crystals"
"-93.58","69.55","TALOYOAK A","2403855","2022-03-31 22:00","2022","03","31","22:00","-29.0","","-32.1","","76","","","","16","","15","","24.1","","101.28","","","","-40","","Ice Crystals"
"-93.58","69.55","TALOYOAK A","2403855","2022-03-31 23:00","2022","03","31","23:00","-29.5","","-32.6","","75","","","","17","","17","","19.3","","101.29","","","","-42","","Ice Crystals"
