"Longitude (x)","Latitude (y)","Station Name","Climate ID","Date/Time (LST)","Year","Month","Day","Time (LST)","Temp (°C)","Temp Flag","Dew Point Temp (°C)","Dew Point Temp Flag","Rel Hum (%)","Rel Hum Flag","Precip. Amount (mm)","Precip. Amount Flag","Wind Dir (10s deg)","Wind Dir Flag","Wind Spd (km/h)","Wind Spd Flag","Visibility (km)","Visibility Flag","Stn Press (kPa)","Stn Press Flag","Hmdx","Hmdx Flag","Wind Chill","Wind Chill Flag","Weather"
"-94.07","58.74","CHURCHILL A","5060605","2022-12-01 00:00","2022","12","01","00:00","-26.8","","-30.1","","74","","","","30","","24","","12.9","","101.84","","","","-40","","Ice Crystals,Blowing Snow"
"-94.07","58.74","CHURCHILL A","5060605","2022-12-01 01:00","2022","12","01","01:00","-27.8","","-31.2","","73","","","","30","","20","","12.9","","101.87","","","","-40","","Ice Crystals,Blowing Snow"
"-94.07","58.74","CHURCHILL A","5060605","2022-12-01 02:00","2022","12","01","02:00","-29.2","","-32.8","","72","","","","30","","26","","19.3","","101.85","","","","-44","","Ice Crystals,Blowing Snow"
"-94.07","58.74","CHURCHILL A","5060605","2022-12-01 03:00","2022","12","01","03:00","-28.7","","-32.3","","72","","","","30","","23","","19.3","","101.84","","","","-42","","Ice Crystals,Blowing Snow"
"-94.07","58.74","CHURCHILL A","5060605","2022-12-01 04:00","2022","12","01","04:00","-29.2","","-32.8","","72","","","","29","","21","","19.3","","101.83","","","","-42","","Ice Crystals,Blowing Snow"
"-94.07","58.74","CHURCHILL A","5060605","2022-12-01 05:00","2022","12","01","05:00","-30.0","","-33.7","","71","","","","29","","23","","12.9","","101.87","","","","-44","","Ice Crystals,Blowing Snow"
"-94.07","58.74","CHURCHILL A","5060605","2022-12-01 06:00","2022","12","01","06:00","-30.1","","-33.8","","71","","","","29","","18","","9.7","","101.80","","","","-43","","Ice Crystals"
"-94.07","58.74","CHURCHILL A","5060605","2022-12-01 07:00","2022","12","01","07:00","-30.0","","-33.5","","72","","","","28","","19","","12.9","","101.83","","","","-43","","Ice Crystals"
"-94.07","58.74","CHURCHILL A","5060605","2022-12-01 08:00","2022","12","01","08:00","-30.9","","-34.6","","71","","","","28","","16","","19.3","","101.78","","","","-43","","Ice Crystals"
"-94.07","58.74","CHURCHILL A","5060605","2022-12-01 09:00","2022","12","01","09:00","-30.0","","-33.7","","71","","","","29","","18","","24.1","","101.74","","","","-42","","Ice Crystals"
"-94.07","58.74","CHURCHILL A","5060605","2022-12-01 10:00","2022","12","01","10:00","-30.4","","-34.1","","71","","","","29","","19","","24.1","","101.73","","","","-43","","NA"
"-94.07","58.74","CHURCHILL A","5060605","2022-12-01 11:00","2022","12","01","11:00","-30.4","","-34.1","","71","","","","28","","17","","24.1","","101.71","","","","-43","","NA"
"-94.07","58.74","CHURCHILL A","5060605","2022-12-01 12:00","2022","12","01","12:00","-29.3","","-33.0","","71","","","","29","","17","","24.1","","101.65","","","","-41","","Mostly Cloudy"
"-94.07","58.74","CHURCHILL A","5060605","2022-12-01 13:00","2022","12","01","13:00","-28.8","","-32.5","","71","","","","29","","20","","24.1","","101.67","","","","-42","","NA"
"-94.07","58.74","CHURCHILL A","5060605","2022-12-01 14:00","2022","12","01","14:00","-28.4","","-32.0","","72","","","","28","","16","","24.1","","101.63","","","","-40","","NA"
"-94.07","58.74","CHURCHILL A","5060605","2022-12-01 15:00","2022","12","01","15:00","-28.3","","-31.9","","72","","","","29","","16","","24.1","","101.64","","","","-40","","Mostly Cloudy"
"-94.07","58.74","CHURCHILL A","5060605","2022-12-01 16:00","2022","12","01","16:00","-28.2","","-31.8","","72","","","","29","","17","","24.1","","101.64","","","","-40","","NA"
"-94.07","58.74","CHURCHILL A","5060605","2022-12-01 17:00","2022","12","01","17:00","-27.7","","-31.3","","72","","","","29","","17","","24.1","","101.62","","","","-39","","NA"
"-94.07","58.74","CHURCHILL A","5060605","2022-12-01 18:00","2022","12","01","18:00","-27.7","","-31.3","","72","","","","30","","17","","24.1","","101.57","","","","-39","","Mainly Clear"
"-94.07","58.74","CHURCHILL A","5060605","2022-12-01 19:00","2022","12","01","19:00","-27.9","","-31.5","","72","","","","29","","15","","24.1","","101.54","","","","-39","","NA"
"-94.07","58.74","CHURCHILL A","5060605","2022-12-01 20:00","2022","12","01","20:00","-28.0","","-31.6","","72","","","","29","","15","","24.1","","101.48","","","","-39","","NA"
"-94.07","58.74","CHURCHILL A","5060605","2022-12-01 21:00","2022","12","01","21:00","-28.3","","-31.9","","72","","","","28","","16","","24.1","","101.48","","","","-40","","Clear"
"-94.07","58.74","CHURCHILL A","5060605","2022-12-01 22:00","2022","12","01","22:00","-29.1","","-32.8","","71","","","","29","","22","","24.1","","101.46","","","","-43","","NA"
"-94.07","58.74","CHURCHILL A","5060605","2022-12-01 23:00","2022","12","01","23:00","-29.7","","-33.4","","71","","","","29","","19","","24.1","","101.47","","","","-42","","NA"
"-94.07","58.74","CHURCHILL A","5060605","2022-12-02 00:00","2022","12","02","00:00","-30.1","","-33.8","","71","","","","29","","17","","24.1","","101.42","","","","-42","","Clear"
"-94.07","58.74","CHURCHILL A","5060605","2022-12-02 01:00","2022","12","02","01:00","-31.1","","-34.9","","70","","","","28","","16","","24.1","","101.44","","","","-43","","NA"
"-94.07","58.74","CHURCHILL A","5060605","2022-12-02 02:00","2022","12","02","02:00","-31.3","","-35.1","","70","","","","29","","19","","24.1","","101.44","","","","-44","","NA"
"-94.07","58.74","CHURCHILL A","5060605","2022-12-02 03:00","2022","12","02","03:00","-31.7","","-35.5","","70","","","","29","","21","","24.1","","101.39","","","","-46","","Clear"
"-94.07","58.74","CHURCHILL A","5060605","2022-12-02 04:00","2022","12","02","04:00","-31.8","","-35.7","","69","","","","28","","18","","24.1","","101.35","","","","-45","","NA"
"-94.07","58.74","CHURCHILL A","5060605","2022-12-02 05:00","2022","12","02","05:00","-31.4","","-35.2","","70","","","","29","","16","","24.1","","101.30","","","","-44","","NA"
"-94.07","58.74","CHURCHILL A","5060605","2022-12-02 06:00","2022","12","02","06:00","-31.3","","-35.1","","70","","","","29","","19","","24.1","","101.24","","","","-44","","Clear"
"-94.07","58.74","CHURCHILL A","5060605","2022-12-02 07:00","2022","12","02","07:00","-30.7","","-34.5","","70","","","","29","","14","","24.1","","101.22","","","","-42","","NA"
"-94.07","58.74","CHURCHILL A","5060605","2022-12-02 08:00","2022","12","02","08:00","-31.1","","-34.9","","70","","","","27","","15","","24.1","","101.23","","","","-43","","NA"
"-94.07","58.74","CHURCHILL A","5060605","2022-12-02 09:00","2022","12","02","09:00","-32.3","","-36.2","","69","","","","28","","15","","24.1","","101.18","","","","-44","","Mainly Clear"
"-94.07","58.74","CHURCHILL A","5060605","2022-12-02 10:00","2022","12","02","10:00","-31.4","","-35.2","","70","","","","28","","13","","24.1","","101.16","","","","-42","","NA"
"-94.07","58.74","CHURCHILL A","5060605","2022-12-02 11:00","2022","12","02","11:00","-30.9","","-34.7","","70","","","","27","","13","","24.1","","101.10","","","","-42","","NA"
"-94.07","58.74","CHURCHILL A","5060605","2022-12-02 12:00","2022","12","02","12:00","-29.9","","-33.7","","70","","","","26","","12","","24.1","","101.05","","","","-40","","Clear"
"-94.07","58.74","CHURCHILL A","5060605","2022-12-02 13:00","2022","12","02","13:00","-28.5","","-32.2","","71","","","","26","","11","","24.1","","101.00","","","","-38","","NA"
"-94.07","58.74","CHURCHILL A","5060605","2022-12-02 14:00","2022","12","02","14:00","-27.6","","-31.2","","72","","","","25","","9","","24.1","","100.96","","","","-36","","NA"
"-94.07","58.74","CHURCHILL A","5060605","2022-12-02 15:00","2022","12","02","15:00","-27.9","","-31.5","","72","","","","25","","9","","24.1","","100.92","","","","-36","","Clear"
"-94.07","58.74","CHURCHILL A","5060605","2022-12-02 16:00","2022","12","02","16:00","-29.8","","-33.5","","71","","","","22","","11","","24.1","","100.86","","","","-39","","NA"
"-94.07","58.74","CHURCHILL A","5060605","2022-12-02 17:00","2022","12","02","17:00","-30.4","","-34.2","","70","","","","20","","9","","24.1","","100.79","","","","-39","","NA"
"-94.07","58.74","CHURCHILL A","5060605","2022-12-02 18:00","2022","12","02","18:00","-30.4","","-34.2","","70","","","","20","","13","","24.1","","100.71","","","","-41","","Mainly Clear"
"-94.07","58.74","CHURCHILL A","5060605","2022-12-02 19:00","2022","12","02","19:00","-30.3","","-34.1","","70","","","","21","","16","","24.1","","100.65","","","","-42","","NA"
"-94.07","58.74","CHURCHILL A","5060605","2022-12-02 20:00","2022","12","02","20:00","-28.6","","-32.3","","71","","","","22","","14","","24.1","","100.59","","","","-39","","NA"
"-94.07","58.74","CHURCHILL A","5060605","2022-12-02 21:00","2022","12","02","21:00","-27.3","","-30.9","","72","","","","23","","12","","16.1","","100.54","","","","-37","","Ice Crystals"
"-94.07","58.74","CHURCHILL A","5060605","2022-12-02 22:00","2022","12","02","22:00","-27.2","","-30.8","","72","","","","22","","13","","12.9","","100.50","","","","-37","","Ice Crystals"
"-94.07","58.74","CHURCHILL A","5060605","2022-12-02 23:00","2022","12","02","23:00","-25.9","","-29.4","","73","","","","24","","16","","12.9","","100.44","","","","-37","","Ice Crystals"
"-94.07","58.74","CHURCHILL A","5060605","2022-12-03 00:00","2022","12","03","00:00","-26.6","","-30.1","","73","","","","23","","13","","16.1","","100.41","","","","-36","","Ice Crystals"
"-94.07","58.74","CHURCHILL A","5060605","2022-12-03 01:00","2022","12","03","01:00","-26.8","","-30.3","","73","","","","23","","14","","19.3","","100.37","","","","-37","","Ice Crystals"
"-94.07","58.74","CHURCHILL A","5060605","2022-12-03 02:00","2022","12","03","02:00","-27.5","","-31.1","","72","","","","24","","11","","24.1","","100.35","","","","-37","","Ice Crystals"
"-94.07","58.74","CHURCHILL A","5060605","2022-12-03 03:00","2022","12","03","03:00","-28.5","","-32.1","","72","","","","23","","14","","24.1","","100.32","","","","-39","","Clear"
"-94.07","58.74","CHURCHILL A","5060605","2022-12-03 04:00","2022","12","03","04:00","-28.8","","-32.5","","71","","","","24","","12","","24.1","","100.29","","","","-39","","NA"
"-94.07","58.74","CHURCHILL A","5060605","2022-12-03 05:00","2022","12","03","05:00","-28.7","","-32.4","","71","","","","25","","13","","24.1","","100.29","","","","-39","","NA"
"-94.07","58.74","CHURCHILL A","5060605","2022-12-03 06:00","2022","12","03","06:00","-28.6","","-32.3","","71","","","","26","","17","","24.1","","100.27","","","","-40","","Clear"
"-94.07","58.74","CHURCHILL A","5060605","2022-12-03 07:00","2022","12","03","07:00","-29.3","","-33.0","","71","","","","25","","14","","24.1","","100.26","","","","-40","","NA"
"-94.07","58.74","CHURCHILL A","5060605","2022-12-03 08:00","2022","12","03","08:00","-30.1","","-33.9","","70","","","","26","","19","","24.1","","100.23","","","","-43","","NA"
"-94.07","58.74","CHURCHILL A","5060605","2022-12-03 09:00","2022","12","03","09:00","-30.3","","-34.1","","70","","","","26","","18","","24.1","","100.22","","","","-43","","Clear"
"-94.07","58.74","CHURCHILL A","5060605","2022-12-03 10:00","2022","12","03","10:00","-30.4","","-34.2","","70","","","","26","","19","","24.1","","100.20","","","","-43","","NA"
"-94.07","58.74","CHURCHILL A","5060605","2022-12-03 11:00","2022","12","03","11:00","-29.9","","-33.7","","70","","","","27","","18","","24.1","","100.23","","","","-42","","NA"
"-94.07","58.74","CHURCHILL A","5060605","2022-12-03 12:00","2022","12","03","12:00","-29.0","","-32.7","","71","","","","29","","19","","24.1","","100.21","","","","-42","","Clear"
"-94.07","58.74","CHURCHILL A","5060605","2022-12-03 13:00","2022","12","03","13:00","-28.9","","-32.6","","71","","","","29","","22","","24.1","","100.19","","","","-42","","NA"
"-94.07","58.74","CHURCHILL A","5060605","2022-12-03 14:00","2022","12","03","14:00","-28.8","","-32.5","","71","","","","29","","23","","24.1","","100.22","","","","-42","","NA"
"-94.07","58.74","CHURCHILL A","5060605","2022-12-03 15:00","2022","12","03","15:00","-29.2","","-32.9","","71","","","","30","","30","","9.7","","100.26","","","","-45","","Fog,Blowing Snow"
"-94.07","58.74","CHURCHILL A","5060605","2022-12-03 16:00","2022","12","03","16:00","-30.0","","-33.8","","70","","","","31","","27","","12.9","","100.30","","","","-45","","Fog,Blowing Snow"
"-94.07","58.74","CHURCHILL A","5060605","2022-12-03 17:00","2022","12","03","17:00","-30.6","","-34.4","","70","","","","29","","25","","24.1","","100.35","","","","-45","","Ice Crystals,Blowing Snow"
"-94.07","58.74","CHURCHILL A","5060605","2022-12-03 18:00","2022","12","03","18:00","-31.0","","-35.0","","69","","","","30","","28","","24.1","","100.32","","","","-46","","Ice Crystals,Blowing Snow"
"-94.07","58.74","CHURCHILL A","5060605","2022-12-03 19:00","2022","12","03","19:00","-31.4","","-35.3","","69","","","","30","","22","","16.1","","100.30","","","","-45","","Ice Crystals,Blowing Snow"
"-94.07","58.74","CHURCHILL A","5060605","2022-12-03 20:00","2022","12","03","20:00","-31.3","","-35.2","","69","","","","30","","27","","16.1","","100.26","","","","-47","","Ice Crystals,Blowing Snow"
"-94.07","58.74","CHURCHILL A","5060605","2022-12-03 21:00","2022","12","03","21:00","-31.5","","-35.4","","69","","","","30","","28","","24.1","","100.22","","","","-47","","Ice Crystals,Blowing Snow"
"-94.07","58.74","CHURCHILL A","5060605","2022-12-03 22:00","2022","12","03","22:00","-32.1","","-36.0","","69","","","","28","","21","","24.1","","100.23","","","","-46","","Ice Crystals,Blowing Snow"
"-94.07","58.74","CHURCHILL A","5060605","2022-12-03 23:00","2022","12","03","23:00","-32.8","","-36.9","","68","","","","28","","23","","24.1","","100.18","","","","-48","","Ice Crystals,Blowing Snow"
"-94.07","58.74","CHURCHILL A","5060605","2022-12-04 00:00","2022","12","04","00:00","-33.3","","-37.3","","68","","","","28","","20","","24.1","","100.17","","","","-47","","Ice Crystals,Blowing Snow"
"-94.07","58.74","CHURCHILL A","5060605","2022-12-04 01:00","2022","12","04","01:00","-33.8","","-37.8","","68","","","","28","","25","","24.1","","100.14","","","","-49","","Ice Crystals,Blowing Snow"
"-94.07","58.74","CHURCHILL A","5060605","2022-12-04 02:00","2022","12","04","02:00","-33.7","","-37.7","","68","","","","29","","20","","24.1","","100.10","","","","-48","","Ice Crystals,Blowing Snow"
"-94.07","58.74","CHURCHILL A","5060605","2022-12-04 03:00","2022","12","04","03:00","-34.3","","-38.5","","67","","","","28","","16","","24.1","","100.11","","","","-47","","Ice Crystals"
"-94.07","58.74","CHURCHILL A","5060605","2022-12-04 04:00","2022","12","04","04:00","-34.3","","-38.5","","67","","","","29","","16","","24.1","","100.09","","","","-47","","Ice Crystals"
"-94.07","58.74","CHURCHILL A","5060605","2022-12-04 05:00","2022","12","04","05:00","-34.5","","-38.6","","67","","","","29","","18","","24.1","","100.05","","","","-48","","Ice Crystals"
"-94.07","58.74","CHURCHILL A","5060605","2022-12-04 06:00","2022","12","04","06:00","-34.4","","-38.5","","67","","","","29","","15","","24.1","","99.99","","","","-47","","Ice Crystals"
"-94.07","58.74","CHURCHILL A","5060605","2022-12-04 07:00","2022","12","04","07:00","-34.8","","-38.9","","67","","","","27","","13","","24.1","","99.98","","","","-46","","Ice Crystals"
"-94.07","58.74","CHURCHILL A","5060605","2022-12-04 08:00","2022","12","04","08:00","-34.8","","-38.9","","67","","","","27","","16","","24.1","","99.94","","","","-48","","Ice Crystals"
"-94.07","58.74","CHURCHILL A","5060605","2022-12-04 09:00","2022","12","04","09:00","-35.6","","-39.7","","67","","","","26","","12","","24.1","","99.97","","","","-47","","Clear"
"-94.07","58.74","CHURCHILL A","5060605","2022-12-04 10:00","2022","12","04","10:00","-34.5","","-38.6","","67","","","","26","","13","","24.1","","99.98","","","","-46","","NA"
"-94.07","58.74","CHURCHILL A","5060605","2022-12-04 11:00","2022","12","04","11:00","-32.8","","-36.9","","68","","","","29","","18","","8.1","","99.98","","","","-46","","Fog"
"-94.07","58.74","CHURCHILL A","5060605","2022-12-04 12:00","2022","12","04","12:00","-32.1","","-36.0","","69","","","","29","","18","","8.1","","99.98","","","","-45","","Fog"
"-94.07","58.74","CHURCHILL A","5060605","2022-12-04 13:00","2022","12","04","13:00","-31.5","","-35.4","","69","","","","29","","21","","16.1","","99.97","","","","-45","","NA"
"-94.07","58.74","CHURCHILL A","5060605","2022-12-04 14:00","2022","12","04","14:00","-30.1","","-33.9","","70","","","","31","","23","","19.3","","99.99","","","","-44","","Blowing Snow"
"-94.07","58.74","CHURCHILL A","5060605","2022-12-04 15:00","2022","12","04","15:00","-29.4","","-33.2","","70","","","","32","","23","","16.1","","100.02","","","","-43","","Blowing Snow"
"-94.07","58.74","CHURCHILL A","5060605","2022-12-04 16:00","2022","12","04","16:00","-30.3","","-34.1","","70","","","","31","","22","","24.1","","100.05","","","","-44","","Blowing Snow"
"-94.07","58.74","CHURCHILL A","5060605","2022-12-04 17:00","2022","12","04","17:00","-31.3","","-35.2","","69","","","","28","","19","","19.3","","100.05","","","","-44","","Ice Crystals,Blowing Snow"
"-94.07","58.74","CHURCHILL A","5060605","2022-12-04 18:00","2022","12","04","18:00","-30.4","","-34.2","","70","","","","29","","23","","9.7","","100.05","","","","-44","","Ice Crystals,Blowing Snow"
"-94.07","58.74","CHURCHILL A","5060605","2022-12-04 19:00","2022","12","04","19:00","-28.4","","-32.1","","71","","","","29","","23","","9.7","","100.00","","","","-42","","Snow,Blowing Snow"
"-94.07","58.74","CHURCHILL A","5060605","2022-12-04 20:00","2022","12","04","20:00","-27.1","","-30.7","","72","","","","28","","23","","6.4","","99.94","","","","-40","","Snow,Blowing Snow"
"-94.07","58.74","CHURCHILL A","5060605","2022-12-04 21:00","2022","12","04","21:00","-23.6","","-26.7","","76","","","","30","","23","","4.8","","99.88","","","","-36","","Ice Crystals,Blowing Snow"
"-94.07","58.74","CHURCHILL A","5060605","2022-12-04 22:00","2022","12","04","22:00","-17.3","","-20.0","","80","","","","36","","22","","4.8","","99.87","","","","-28","","Ice Crystals,Blowing Snow"
"-94.07","58.74","CHURCHILL A","5060605","2022-12-04 23:00","2022","12","04","23:00","-17.4","","-20.1","","80","","","","35","","36","","1.6","","99.92","","","","-30","","Snow,Blowing Snow"
"-94.07","58.74","CHURCHILL A","5060605","2022-12-05 00:00","2022","12","05","00:00","-18.9","","-21.7","","79","","","","35","","39","","4.8","","99.99","","","","-33","","Snow,Blowing Snow"
"-94.07","58.74","CHURCHILL A","5060605","2022-12-05 01:00","2022","12","05","01:00","-20.5","","-23.4","","78","","","","34","","40","","4.8","","100.05","","","","-35","","Snow,Blowing Snow"
"-94.07","58.74","CHURCHILL A","5060605","2022-12-05 02:00","2022","12","05","02:00","-21.3","","-24.4","","76","","","","33","","37","","4.8","","100.09","","","","-35","","Snow,Blowing Snow"
"-94.07","58.74","CHURCHILL A","5060605","2022-12-05 03:00","2022","12","05","03:00","-22.1","","-25.3","","76","","","","32","","34","","4.8","","100.11","","","","-36","","Snow,Blowing Snow"
"-94.07","58.74","CHURCHILL A","5060605","2022-12-05 04:00","2022","12","05","04:00","-21.6","","-24.8","","76","","","","34","","36","","4.8","","100.10","","","","-36","","Snow,Blowing Snow"
"-94.07","58.74","CHURCHILL A","5060605","2022-12-05 05:00","2022","12","05","05:00","-23.0","","-26.4","","74","","","","33","","37","","4.8","","100.12","","","","-38","","Snow,Blowing Snow"
"-94.07","58.74","CHURCHILL A","5060605","2022-12-05 06:00","2022","12","05","06:00","-24.0","","-27.6","","73","","","","33","","39","","4.8","","100.11","","","","-39","","Snow,Blowing Snow"
"-94.07","58.74","CHURCHILL A","5060605","2022-12-05 07:00","2022","12","05","07:00","-24.2","","-27.9","","72","","","","33","","35","","4.8","","100.12","","","","-39","","Snow,Blowing Snow"
"-94.07","58.74","CHURCHILL A","5060605","2022-12-05 08:00","2022","12","05","08:00","-24.1","","-27.8","","72","","","","33","","38","","4.8","","100.11","","","","-39","","Snow,Blowing Snow"
"-94.07","58.74","CHURCHILL A","5060605","2022-12-05 09:00","2022","12","05","09:00","-24.5","","-28.2","","72","","","","33","","37","","2.4","","100.14","","","","-40","","Blowing Snow"
"-94.07","58.74","CHURCHILL A","5060605","2022-12-05 10:00","2022","12","05","10:00","-24.7","","-28.6","","71","","","","33","","37","","2.4","","100.16","","","","-40","","Ice Crystals,Blowing Snow"
"-94.07","58.74","CHURCHILL A","5060605","2022-12-05 11:00","2022","12","05","11:00","-24.8","","-28.8","","70","","","","32","","39","","1.6","","100.20","","","","-40","","Ice Crystals,Blowing Snow"
"-94.07","58.74","CHURCHILL A","5060605","2022-12-05 12:00","2022","12","05","12:00","-24.8","","-28.6","","71","","","","32","","40","","2.0","","100.20","","","","-41","","Ice Crystals,Blowing Snow"
"-94.07","58.74","CHURCHILL A","5060605","2022-12-05 13:00","2022","12","05","13:00","-24.9","","-28.7","","72","","","","32","","33","","1.6","","100.22","","","","-40","","Ice Crystals,Blowing Snow"
"-94.07","58.74","CHURCHILL A","5060605","2022-12-05 14:00","2022","12","05","14:00","-25.3","","-29.3","","70","","","","30","","34","","1.6","","100.24","","","","-40","","Ice Crystals,Blowing Snow"
"-94.07","58.74","CHURCHILL A","5060605","2022-12-05 15:00","2022","12","05","15:00","-25.4","","-29.5","","69","","","","31","","38","","3.2","","100.29","","","","-41","","Ice Crystals,Blowing Snow"
"-94.07","58.74","CHURCHILL A","5060605","2022-12-05 16:00","2022","12","05","16:00","-25.8","","-30.2","","67","","","","31","","35","","11.3","","100.29","","","","-41","","Ice Crystals,Blowing Snow"
"-94.07","58.74","CHURCHILL A","5060605","2022-12-05 17:00","2022","12","05","17:00","-25.9","","-30.3","","67","","","","30","","29","","12.9","","100.33","","","","-40","","Ice Crystals,Blowing Snow"
"-94.07","58.74","CHURCHILL A","5060605","2022-12-05 18:00","2022","12","05","18:00","-26.5","","-30.9","","67","","","","30","","35","","8.1","","100.31","","","","-42","","Ice Crystals,Blowing Snow"
"-94.07","58.74","CHURCHILL A","5060605","2022-12-05 19:00","2022","12","05","19:00","-27.2","","-31.6","","67","","","","30","","27","","16.1","","100.34","","","","-41","","Ice Crystals,Blowing Snow"
"-94.07","58.74","CHURCHILL A","5060605","2022-12-05 20:00","2022","12","05","20:00","-27.2","","-31.3","","69","","","","29","","27","","6.4","","100.38","","","","-41","","Ice Crystals,Blowing Snow"
"-94.07","58.74","CHURCHILL A","5060605","2022-12-05 21:00","2022","12","05","21:00","-27.4","","-31.8","","67","","","","30","","28","","6.4","","100.36","","","","-42","","Ice Crystals,Blowing Snow"
"-94.07","58.74","CHURCHILL A","5060605","2022-12-05 22:00","2022","12","05","22:00","-27.7","","-32.4","","65","","","","30","","32","","9.7","","100.37","","","","-43","","Ice Crystals,Blowing Snow"
"-94.07","58.74","CHURCHILL A","5060605","2022-12-05 23:00","2022","12","05","23:00","-28.0","","-32.5","","66","","","","28","","27","","9.7","","100.39","","","","-42","","Ice Crystals,Blowing Snow"
"-94.07","58.74","CHURCHILL A","5060605","2022-12-06 00:00","2022","12","06","00:00","-28.2","","-32.7","","66","","","","28","","26","","12.9","","100.40","","","","-42","","Ice Crystals,Blowing Snow"
"-94.07","58.74","CHURCHILL A","5060605","2022-12-06 01:00","2022","12","06","01:00","-28.6","","-32.8","","68","","","","27","","26","","12.9","","100.43","","","","-43","","Ice Crystals,Blowing Snow"
"-94.07","58.74","CHURCHILL A","5060605","2022-12-06 02:00","2022","12","06","02:00","-28.8","","-33.3","","66","","","","27","","24","","16.1","","100.44","","","","-43","","Ice Crystals,Blowing Snow"
"-94.07","58.74","CHURCHILL A","5060605","2022-12-06 03:00","2022","12","06","03:00","-32.0","","-39.9","","46","","","","27","","18","","19.3","","100.37","","","","-45","","Ice Crystals,Blowing Snow"
"-94.07","58.74","CHURCHILL A","5060605","2022-12-06 04:00","2022","12","06","04:00","-29.7","","-34.3","","65","","","","26","","25","","24.1","","100.45","","","","-44","","NA"
"-94.07","58.74","CHURCHILL A","5060605","2022-12-06 05:00","2022","12","06","05:00","-29.4","","-34.2","","64","","","","26","","26","","24.1","","100.50","","","","-44","","NA"
"-94.07","58.74","CHURCHILL A","5060605","2022-12-06 06:00","2022","12","06","06:00","-29.3","","-34.1","","64","","","","26","","23","","19.3","","100.56","","","","-43","","Ice Crystals"
"-94.07","58.74","CHURCHILL A","5060605","2022-12-06 07:00","2022","12","06","07:00","-29.6","","-34.1","","66","","","","25","","19","","24.1","","100.59","","","","-42","","Ice Crystals"
"-94.07","58.74","CHURCHILL A","5060605","2022-12-06 08:00","2022","12","06","08:00","-29.6","","-33.9","","67","","","","26","","26","","24.1","","100.57","","","","-44","","Ice Crystals"
"-94.07","58.74","CHURCHILL A","5060605","2022-12-06 09:00","2022","12","06","09:00","-29.7","","-34.3","","65","","","","27","","28","","19.3","","100.52","","","","-45","","Ice Crystals"
"-94.07","58.74","CHURCHILL A","5060605","2022-12-06 10:00","2022","12","06","10:00","-29.6","","-34.4","","64","","","","26","","26","","24.1","","100.63","","","","-44","","Ice Crystals"
"-94.07","58.74","CHURCHILL A","5060605","2022-12-06 11:00","2022","12","06","11:00","-29.1","","-34.1","","63","","","","26","","21","","24.1","","100.67","","","","-42","","NA"
"-94.07","58.74","CHURCHILL A","5060605","2022-12-06 12:00","2022","12","06","12:00","-28.4","","-33.8","","61","","","","26","","25","","24.1","","100.67","","","","-42","","Mostly Cloudy"
"-94.07","58.74","CHURCHILL A","5060605","2022-12-06 13:00","2022","12","06","13:00","-28.1","","-33.3","","62","","","","25","","22","","24.1","","100.72","","","","-41","","NA"
"-94.07","58.74","CHURCHILL A","5060605","2022-12-06 14:00","2022","12","06","14:00","-28.7","","-33.7","","63","","","","24","","23","","24.1","","100.76","","","","-42","","NA"
"-94.07","58.74","CHURCHILL A","5060605","2022-12-06 15:00","2022","12","06","15:00","-29.5","","-34.3","","64","","","","24","","23","","24.1","","100.80","","","","-43","","Mostly Cloudy"
"-94.07","58.74","CHURCHILL A","5060605","2022-12-06 16:00","2022","12","06","16:00","-29.5","","-34.3","","64","","","","23","","19","","24.1","","100.86","","","","-42","","NA"
"-94.07","58.74","CHURCHILL A","5060605","2022-12-06 17:00","2022","12","06","17:00","-29.1","","-33.9","","64","","","","23","","23","","19.3","","100.91","","","","-43","","Ice Crystals"
"-94.07","58.74","CHURCHILL A","5060605","2022-12-06 18:00","2022","12","06","18:00","-29.1","","-33.8","","65","","","","23","","24","","16.1","","100.91","","","","-43","","Ice Crystals"
"-94.07","58.74","CHURCHILL A","5060605","2022-12-06 19:00","2022","12","06","19:00","-29.1","","-33.6","","66","","","","22","","18","","19.3","","100.96","","","","-41","","Ice Crystals"
"-94.07","58.74","CHURCHILL A","5060605","2022-12-06 20:00","2022","12","06","20:00","-28.6","","-33.6","","63","","","","24","","21","","24.1","","100.99","","","","-42","","Ice Crystals"
"-94.07","58.74","CHURCHILL A","5060605","2022-12-06 21:00","2022","12","06","21:00","-28.9","","-33.9","","63","","","","24","","25","","24.1","","100.97","","","","-43","","Ice Crystals"
"-94.07","58.74","CHURCHILL A","5060605","2022-12-06 22:00","2022","12","06","22:00","-28.6","","-33.9","","61","","","","24","","25","","24.1","","100.97","","","","-43","","Ice Crystals"
"-94.07","58.74","CHURCHILL A","5060605","2022-12-06 23:00","2022","12","06","23:00","-28.3","","-33.8","","60","","","","24","","24","","24.1","","101.00","","","","-42","","Ice Crystals"
"-94.07","58.74","CHURCHILL A","5060605","2022-12-07 00:00","2022","12","07","00:00","-28.6","","-33.6","","63","","","","23","","18","","24.1","","101.03","","","","-41","","Ice Crystals"
"-94.07","58.74","CHURCHILL A","5060605","2022-12-07 01:00","2022","12","07","01:00","-28.9","","-33.6","","65","","","","23","","22","","24.1","","101.03","","","","-42","","Ice Crystals"
"-94.07","58.74","CHURCHILL A","5060605","2022-12-07 02:00","2022","12","07","02:00","-29.4","","-34.0","","65","","","","22","","21","","24.1","","101.09","","","","-43","","Ice Crystals"
"-94.07","58.74","CHURCHILL A","5060605","2022-12-07 03:00","2022","12","07","03:00","-29.8","","-34.3","","66","","","","23","","17","","24.1","","101.09","","","","-42","","Ice Crystals"
"-94.07","58.74","CHURCHILL A","5060605","2022-12-07 04:00","2022","12","07","04:00","-30.0","","-34.5","","66","","","","23","","19","","24.1","","101.09","","","","-43","","Ice Crystals"
"-94.07","58.74","CHURCHILL A","5060605","2022-12-07 05:00","2022","12","07","05:00","-29.3","","-33.8","","66","","","","24","","23","","24.1","","101.07","","","","-43","","Ice Crystals"
"-94.07","58.74","CHURCHILL A","5060605","2022-12-07 06:00","2022","12","07","06:00","-28.8","","-33.6","","64","","","","25","","22","","24.1","","101.09","","","","-42","","Ice Crystals"
"-94.07","58.74","CHURCHILL A","5060605","2022-12-07 07:00","2022","12","07","07:00","-28.2","","-33.0","","64","","","","25","","21","","24.1","","101.13","","","","-41","","Ice Crystals"
"-94.07","58.74","CHURCHILL A","5060605","2022-12-07 08:00","2022","12","07","08:00","-28.5","","-33.3","","64","","","","24","","22","","24.1","","101.18","","","","-42","","Ice Crystals"
"-94.07","58.74","CHURCHILL A","5060605","2022-12-07 09:00","2022","12","07","09:00","-28.4","","-33.2","","64","","","","24","","21","","24.1","","101.21","","","","-41","","Mainly Clear"
"-94.07","58.74","CHURCHILL A","5060605","2022-12-07 10:00","2022","12","07","10:00","-27.9","","-32.8","","64","","","","24","","18","","24.1","","101.23","","","","-40","","NA"
"-94.07","58.74","CHURCHILL A","5060605","2022-12-07 11:00","2022","12","07","11:00","-26.4","","-31.7","","62","","","","25","","24","","24.1","","101.23","","","","-40","","NA"
"-94.07","58.74","CHURCHILL A","5060605","2022-12-07 12:00","2022","12","07","12:00","-25.9","","-31.4","","61","","","","25","","23","","24.1","","101.26","","","","-39","","Mainly Clear"
"-94.07","58.74","CHURCHILL A","5060605","2022-12-07 13:00","2022","12","07","13:00","-25.7","","-31.0","","62","","","","26","","22","","24.1","","101.30","","","","-38","","NA"
"-94.07","58.74","CHURCHILL A","5060605","2022-12-07 14:00","2022","12","07","14:00","-25.8","","-30.9","","63","","","","24","","20","","24.1","","101.34","","","","-38","","NA"
"-94.07","58.74","CHURCHILL A","5060605","2022-12-07 15:00","2022","12","07","15:00","-25.1","","-30.0","","65","","","","24","","23","","24.1","","101.32","","","","-38","","Mostly Cloudy"
"-94.07","58.74","CHURCHILL A","5060605","2022-12-07 16:00","2022","12","07","16:00","-25.3","","-29.8","","67","","","","24","","18","","24.1","","101.34","","","","-37","","NA"
"-94.07","58.74","CHURCHILL A","5060605","2022-12-07 17:00","2022","12","07","17:00","-24.6","","-28.8","","69","","","","22","","16","","24.1","","101.36","","","","-35","","Ice Crystals"
"-94.07","58.74","CHURCHILL A","5060605","2022-12-07 18:00","2022","12","07","18:00","-24.4","","-28.4","","70","","","","22","","15","","9.7","","101.37","","","","-35","","Ice Crystals"
"-94.07","58.74","CHURCHILL A","5060605","2022-12-07 19:00","2022","12","07","19:00","-25.6","","-29.9","","68","","","","23","","17","","24.1","","101.36","","","","-37","","NA"
"-94.07","58.74","CHURCHILL A","5060605","2022-12-07 20:00","2022","12","07","20:00","-26.0","","-30.4","","67","","","","23","","14","","24.1","","101.31","","","","-36","","NA"
"-94.07","58.74","CHURCHILL A","5060605","2022-12-07 21:00","2022","12","07","21:00","-26.9","","-31.0","","69","","","","23","","13","","24.1","","101.30","","","","-37","","Mostly Cloudy"
"-94.07","58.74","CHURCHILL A","5060605","2022-12-07 22:00","2022","12","07","22:00","-27.6","","-31.5","","70","","","","23","","13","","24.1","","101.31","","","","-38","","NA"
"-94.07","58.74","CHURCHILL A","5060605","2022-12-07 23:00","2022","12","07","23:00","-27.1","","-31.3","","68","","","","24","","16","","24.1","","101.32","","","","-38","","NA"
"-94.07","58.74","CHURCHILL A","5060605","2022-12-08 00:00","2022","12","08","00:00","-28.0","","-32.0","","69","","","","23","","13","","24.1","","101.34","","","","-38","","Mainly Clear"
"-94.07","58.74","CHURCHILL A","5060605","2022-12-08 01:00","2022","12","08","01:00","-28.4","","-32.4","","69","","","","25","","10","","24.1","","101.31","","","","-37","","NA"
"-94.07","58.74","CHURCHILL A","5060605","2022-12-08 02:00","2022","12","08","02:00","-27.8","","-31.9","","69","","","","26","","12","","24.1","","101.35","","","","-37","","NA"
"-94.07","58.74","CHURCHILL A","5060605","2022-12-08 03:00","2022","12","08","03:00","-28.3","","-32.3","","69","","","","27","","13","","24.1","","101.35","","","","-39","","Clear"
"-94.07","58.74","CHURCHILL A","5060605","2022-12-08 04:00","2022","12","08","04:00","-28.6","","-32.5","","70","","","","27","","15","","24.1","","101.42","","","","-40","","NA"
"-94.07","58.74","CHURCHILL A","5060605","2022-12-08 05:00","2022","12","08","05:00","-28.6","","-32.6","","69","","","","29","","16","","24.1","","101.44","","","","-40","","NA"
"-94.07","58.74","CHURCHILL A","5060605","2022-12-08 06:00","2022","12","08","06:00","-29.2","","-33.2","","69","","","","27","","17","","24.1","","101.51","","","","-41","","Clear"
"-94.07","58.74","CHURCHILL A","5060605","2022-12-08 07:00","2022","12","08","07:00","-29.4","","-33.6","","68","","","","28","","22","","24.1","","101.59","","","","-43","","NA"
"-94.07","58.74","CHURCHILL A","5060605","2022-12-08 08:00","2022","12","08","08:00","-28.9","","-32.8","","70","","","","30","","21","","8.1","","101.65","","","","-42","","Ice Crystals"
"-94.07","58.74","CHURCHILL A","5060605","2022-12-08 09:00","2022","12","08","09:00","-28.7","","-32.4","","71","","","","29","","19","","6.4","","101.75","","","","-41","","Ice Crystals"
"-94.07","58.74","CHURCHILL A","5060605","2022-12-08 10:00","2022","12","08","10:00","-29.1","","-33.0","","70","","","","29","","22","","9.7","","101.89","","","","-43","","Ice Crystals"
"-94.07","58.74","CHURCHILL A","5060605","2022-12-08 11:00","2022","12","08","11:00","-29.3","","-33.3","","69","","","","28","","19","","6.4","","101.96","","","","-42","","Ice Crystals"
"-94.07","58.74","CHURCHILL A","5060605","2022-12-08 12:00","2022","12","08","12:00","-28.9","","-33.2","","67","","","","28","","22","","16.1","","102.06","","","","-42","","Ice Crystals"
"-94.07","58.74","CHURCHILL A","5060605","2022-12-08 13:00","2022","12","08","13:00","-28.5","","-32.9","","67","","","","28","","17","","16.1","","102.12","","","","-40","","Ice Crystals"
"-94.07","58.74","CHURCHILL A","5060605","2022-12-08 14:00","2022","12","08","14:00","-28.5","","-33.1","","66","","","","27","","23","","19.3","","102.24","","","","-42","","Ice Crystals"
"-94.07","58.74","CHURCHILL A","5060605","2022-12-08 15:00","2022","12","08","15:00","-28.8","","-33.5","","65","","","","27","","14","","24.1","","102.35","","","","-40","","Ice Crystals"
"-94.07","58.74","CHURCHILL A","5060605","2022-12-08 16:00","2022","12","08","16:00","-29.4","","-33.9","","66","","","","26","","13","","24.1","","102.41","","","","-40","","Ice Crystals"
"-94.07","58.74","CHURCHILL A","5060605","2022-12-08 17:00","2022","12","08","17:00","-30.1","","-34.4","","67","","","","26","","13","","24.1","","102.45","","","","-41","","Ice Crystals"
"-94.07","58.74","CHURCHILL A","5060605","2022-12-08 18:00","2022","12","08","18:00","-30.1","","-34.4","","67","","","","26","","16","","24.1","","102.52","","","","-42","","Ice Crystals"
"-94.07","58.74","CHURCHILL A","5060605","2022-12-08 19:00","2022","12","08","19:00","-29.9","","-33.9","","69","","","","27","","16","","24.1","","102.59","","","","-42","","NA"
"-94.07","58.74","CHURCHILL A","5060605","2022-12-08 20:00","2022","12","08","20:00","-30.0","","-33.8","","70","","","","28","","10","","24.1","","102.62","","","","-39","","NA"
"-94.07","58.74","CHURCHILL A","5060605","2022-12-08 21:00","2022","12","08","21:00","-30.3","","-34.4","","68","","","","26","","9","","24.1","","102.62","","","","-39","","Clear"
"-94.07","58.74","CHURCHILL A","5060605","2022-12-08 22:00","2022","12","08","22:00","-30.7","","-34.8","","68","","","","25","","14","","24.1","","102.58","","","","-42","","NA"
"-94.07","58.74","CHURCHILL A","5060605","2022-12-08 23:00","2022","12","08","23:00","-31.7","","-35.6","","69","","","","22","","13","","24.1","","102.66","","","","-43","","NA"
"-94.07","58.74","CHURCHILL A","5060605","2022-12-09 00:00","2022","12","09","00:00","-32.0","","-35.9","","69","","","","22","","10","","24.1","","102.66","","","","-42","","Clear"
"-94.07","58.74","CHURCHILL A","5060605","2022-12-09 01:00","2022","12","09","01:00","-32.5","","-36.4","","69","","","","20","","10","","24.1","","102.65","","","","-42","","NA"
"-94.07","58.74","CHURCHILL A","5060605","2022-12-09 02:00","2022","12","09","02:00","-31.6","","-35.5","","69","","","","20","","10","","24.1","","102.67","","","","-41","","NA"
"-94.07","58.74","CHURCHILL A","5060605","2022-12-09 03:00","2022","12","09","03:00","-30.2","","-34.2","","69","","","","17","","9","","24.1","","102.62","","","","-39","","Mostly Cloudy"
"-94.07","58.74","CHURCHILL A","5060605","2022-12-09 04:00","2022","12","09","04:00","-28.2","","-32.1","","70","","","","18","","14","","24.1","","102.57","","","","-39","","NA"
"-94.07","58.74","CHURCHILL A","5060605","2022-12-09 05:00","2022","12","09","05:00","-26.8","","-30.7","","70","","","","16","","16","","24.1","","102.50","","","","-38","","Ice Crystals"
"-94.07","58.74","CHURCHILL A","5060605","2022-12-09 06:00","2022","12","09","06:00","-25.1","","-29.1","","70","","","","17","","18","","24.1","","102.42","","","","-36","","Ice Crystals"
"-94.07","58.74","CHURCHILL A","5060605","2022-12-09 07:00","2022","12","09","07:00","-23.8","","-28.3","","67","","","","15","","23","","24.1","","102.34","","","","-36","","Ice Crystals"
"-94.07","58.74","CHURCHILL A","5060605","2022-12-09 08:00","2022","12","09","08:00","-22.8","","-28.0","","63","","","","16","","28","","24.1","","102.27","","","","-36","","Ice Crystals"
"-94.07","58.74","CHURCHILL A","5060605","2022-12-09 09:00","2022","12","09","09:00","-22.1","","-27.7","","61","","","","17","","30","","24.1","","102.21","","","","-35","","Cloudy"
"-94.07","58.74","CHURCHILL A","5060605","2022-12-09 10:00","2022","12","09","10:00","-21.1","","-26.1","","65","","","","17","","32","","24.1","","102.13","","","","-34","","Blowing Snow"
"-94.07","58.74","CHURCHILL A","5060605","2022-12-09 11:00","2022","12","09","11:00","-19.9","","-24.4","","68","","","","16","","34","","24.1","","101.99","","","","-33","","Blowing Snow"
"-94.07","58.74","CHURCHILL A","5060605","2022-12-09 12:00","2022","12","09","12:00","-19.1","","-23.3","","70","","","","16","","39","","24.1","","101.81","","","","-33","","Blowing Snow"
"-94.07","58.74","CHURCHILL A","5060605","2022-12-09 13:00","2022","12","09","13:00","-18.0","","-22.1","","71","","","","17","","39","","19.3","","101.69","","","","-31","","Blowing Snow"
"-94.07","58.74","CHURCHILL A","5060605","2022-12-09 14:00","2022","12","09","14:00","-17.4","","-21.1","","73","","","","17","","29","","24.1","","101.65","","","","-29","","Blowing Snow"
"-94.07","58.74","CHURCHILL A","5060605","2022-12-09 15:00","2022","12","09","15:00","-17.4","","-21.0","","74","","","","17","","34","","24.1","","101.58","","","","-30","","Blowing Snow"
"-94.07","58.74","CHURCHILL A","5060605","2022-12-09 16:00","2022","12","09","16:00","-16.8","","-20.2","","75","","","","18","","28","","24.1","","101.52","","","","-28","","Blowing Snow"
"-94.07","58.74","CHURCHILL A","5060605","2022-12-09 17:00","2022","12","09","17:00","-16.1","","-19.9","","73","","","","18","","28","","24.1","","101.53","","","","-27","","Blowing Snow"
"-94.07","58.74","CHURCHILL A","5060605","2022-12-09 18:00","2022","12","09","18:00","-16.1","","-19.7","","74","","","","18","","23","","24.1","","101.52","","","","-26","","Blowing Snow"
"-94.07","58.74","CHURCHILL A","5060605","2022-12-09 19:00","2022","12","09","19:00","-16.1","","-19.6","","75","","","","17","","22","","24.1","","101.50","","","","-26","","NA"
"-94.07","58.74","CHURCHILL A","5060605","2022-12-09 20:00","2022","12","09","20:00","-16.2","","-19.4","","77","","","","16","","17","","24.1","","101.51","","","","-25","","NA"
"-94.07","58.74","CHURCHILL A","5060605","2022-12-09 21:00","2022","12","09","21:00","-15.5","","-18.5","","78","","","","17","","16","","24.1","","101.50","","","","-24","","Mainly Clear"
"-94.07","58.74","CHURCHILL A","5060605","2022-12-09 22:00","2022","12","09","22:00","-15.1","","-18.1","","78","","","","17","","17","","24.1","","101.49","","","","-24","","NA"
"-94.07","58.74","CHURCHILL A","5060605","2022-12-09 23:00","2022","12","09","23:00","-14.7","","-17.7","","78","","","","16","","18","","24.1","","101.51","","","","-23","","NA"
"-94.07","58.74","CHURCHILL A","5060605","2022-12-10 00:00","2022","12","10","00:00","-14.4","","-17.3","","79","","","","17","","18","","24.1","","101.52","","","","-23","","Cloudy"
"-94.07","58.74","CHURCHILL A","5060605","2022-12-10 01:00","2022","12","10","01:00","-14.3","","-17.2","","79","","","","16","","21","","24.1","","101.54","","","","-24","","NA"
"-94.07","58.74","CHURCHILL A","5060605","2022-12-10 02:00","2022","12","10","02:00","-14.7","","-17.6","","79","","","","16","","25","","24.1","","101.54","","","","-25","","NA"
"-94.07","58.74","CHURCHILL A","5060605","2022-12-10 03:00","2022","12","10","03:00","-15.3","","-18.0","","80","","","","17","","24","","24.1","","101.51","","","","-25","","Mostly Cloudy"
"-94.07","58.74","CHURCHILL A","5060605","2022-12-10 04:00","2022","12","10","04:00","-15.2","","-17.6","","82","","","","17","","21","","24.1","","101.51","","","","-25","","NA"
"-94.07","58.74","CHURCHILL A","5060605","2022-12-10 05:00","2022","12","10","05:00","-14.2","","-16.3","","84","","","","18","","23","","24.1","","101.47","","","","-24","","NA"
"-94.07","58.74","CHURCHILL A","5060605","2022-12-10 06:00","2022","12","10","06:00","-12.4","","-14.1","","87","","","","17","","18","","12.9","","101.47","","","","-20","","Cloudy"
"-94.07","58.74","CHURCHILL A","5060605","2022-12-10 07:00","2022","12","10","07:00","-11.1","","-12.7","","88","","","","16","","17","","12.9","","101.47","","","","-19","","NA"
"-94.07","58.74","CHURCHILL A","5060605","2022-12-10 08:00","2022","12","10","08:00","-10.2","","-11.8","","88","","","","17","","19","","12.9","","101.47","","","","-18","","Snow"
"-94.07","58.74","CHURCHILL A","5060605","2022-12-10 09:00","2022","12","10","09:00","-9.6","","-11.1","","89","","","","17","","19","","12.9","","101.45","","","","-17","","Snow"
"-94.07","58.74","CHURCHILL A","5060605","2022-12-10 10:00","2022","12","10","10:00","-9.1","","-10.6","","89","","","","17","","20","","12.9","","101.46","","","","-17","","Snow"
"-94.07","58.74","CHURCHILL A","5060605","2022-12-10 11:00","2022","12","10","11:00","-8.6","","-10.0","","90","","","","17","","14","","8.1","","101.47","","","","-15","","Snow"
"-94.07","58.74","CHURCHILL A","5060605","2022-12-10 12:00","2022","12","10","12:00","-7.8","","-9.2","","90","","","","18","","20","","12.9","","101.44","","","","-15","","Snow"
"-94.07","58.74","CHURCHILL A","5060605","2022-12-10 13:00","2022","12","10","13:00","-7.3","","-8.7","","90","","","","19","","21","","12.9","","101.44","","","","-15","","Snow"
"-94.07","58.74","CHURCHILL A","5060605","2022-12-10 14:00","2022","12","10","14:00","-7.0","","-8.2","","91","","","","19","","13","","9.7","","101.43","","","","-13","","Snow"
"-94.07","58.74","CHURCHILL A","5060605","2022-12-10 15:00","2022","12","10","15:00","-6.7","","-7.8","","92","","","","20","","10","","8.1","","101.49","","","","-11","","Snow"
"-94.07","58.74","CHURCHILL A","5060605","2022-12-10 16:00","2022","12","10","16:00","-6.6","","-7.7","","92","","","","20","","9","","3.2","","101.54","","","","-11","","Snow"
"-94.07","58.74","CHURCHILL A","5060605","2022-12-10 17:00","2022","12","10","17:00","-6.8","","-7.9","","92","","","","21","","8","","6.4","","101.58","","","","-11","","Snow"
"-94.07","58.74","CHURCHILL A","5060605","2022-12-10 18:00","2022","12","10","18:00","-6.6","","-7.8","","91","","","","24","","11","","4.0","","101.66","","","","-12","","Snow"
"-94.07","58.74","CHURCHILL A","5060605","2022-12-10 19:00","2022","12","10","19:00","-6.8","","-8.0","","91","","","","25","","10","","4.0","","101.71","","","","-11","","Snow"
"-94.07","58.74","CHURCHILL A","5060605","2022-12-10 20:00","2022","12","10","20:00","-7.6","","-8.8","","91","","","","25","","10","","12.9","","101.76","","","","-12","","Snow"
"-94.07","58.74","CHURCHILL A","5060605","2022-12-10 21:00","2022","12","10","21:00","-8.7","","-10.1","","90","","","","23","","10","","24.1","","101.81","","","","-14","","Mostly Cloudy"
"-94.07","58.74","CHURCHILL A","5060605","2022-12-10 22:00","2022","12","10","22:00","-9.9","","-11.4","","89","","","","25","","11","","24.1","","101.87","","","","-15","","NA"
"-94.07","58.74","CHURCHILL A","5060605","2022-12-10 23:00","2022","12","10","23:00","-12.3","","-14.2","","86","","","","29","","11","","24.1","","101.97","","","","-18","","NA"
"-94.07","58.74","CHURCHILL A","5060605","2022-12-11 00:00","2022","12","11","00:00","-14.5","","-16.6","","84","","","","27","","10","","24.1","","102.04","","","","-21","","Mainly Clear"
"-94.07","58.74","CHURCHILL A","5060605","2022-12-11 01:00","2022","12","11","01:00","-15.6","","-17.9","","83","","","","27","","10","","24.1","","102.12","","","","-22","","NA"
"-94.07","58.74","CHURCHILL A","5060605","2022-12-11 02:00","2022","12","11","02:00","-16.7","","-19.1","","82","","","","28","","10","","24.1","","102.20","","","","-23","","NA"
"-94.07","58.74","CHURCHILL A","5060605","2022-12-11 03:00","2022","12","11","03:00","-17.6","","-20.1","","81","","","","28","","11","","24.1","","102.28","","","","-25","","Clear"
"-94.07","58.74","CHURCHILL A","5060605","2022-12-11 04:00","2022","12","11","04:00","-18.4","","-20.9","","81","","","","28","","9","","24.1","","102.35","","","","-25","","NA"
"-94.07","58.74","CHURCHILL A","5060605","2022-12-11 05:00","2022","12","11","05:00","-19.2","","-21.8","","80","","","","28","","10","","24.1","","102.39","","","","-26","","NA"
"-94.07","58.74","CHURCHILL A","5060605","2022-12-11 06:00","2022","12","11","06:00","-19.5","","-22.1","","80","","","","28","","12","","24.1","","102.44","","","","-27","","Clear"
"-94.07","58.74","CHURCHILL A","5060605","2022-12-11 07:00","2022","12","11","07:00","-19.6","","-22.2","","80","","","","29","","12","","24.1","","102.50","","","","-28","","NA"
"-94.07","58.74","CHURCHILL A","5060605","2022-12-11 08:00","2022","12","11","08:00","-19.9","","-22.7","","79","","","","26","","10","","24.1","","102.58","","","","-27","","NA"
"-94.07","58.74","CHURCHILL A","5060605","2022-12-11 09:00","2022","12","11","09:00","-21.3","","-24.2","","78","","","","25","","13","","24.1","","102.63","","","","-30","","Mainly Clear"
"-94.07","58.74","CHURCHILL A","5060605","2022-12-11 10:00","2022","12","11","10:00","-21.6","","-24.5","","78","","","","25","","12","","24.1","","102.62","","","","-30","","NA"
"-94.07","58.74","CHURCHILL A","5060605","2022-12-11 11:00","2022","12","11","11:00","-20.4","","-23.1","","79","","","","26","","9","","24.1","","102.66","","","","-27","","NA"
"-94.07","58.74","CHURCHILL A","5060605","2022-12-11 12:00","2022","12","11","12:00","-19.8","","-22.6","","79","","","","26","","9","","24.1","","102.74","","","","-27","","Clear"
"-94.07","58.74","CHURCHILL A","5060605","2022-12-11 13:00","2022","12","11","13:00","-19.9","","-22.7","","79","","","","28","","12","","24.1","","102.74","","","","-28","","NA"
"-94.07","58.74","CHURCHILL A","5060605","2022-12-11 14:00","2022","12","11","14:00","-19.9","","-22.7","","79","","","","31","","11","","24.1","","102.73","","","","-28","","NA"
"-94.07","58.74","CHURCHILL A","5060605","2022-12-11 15:00","2022","12","11","15:00","-19.6","","-22.4","","79","","","","28","","10","","24.1","","102.76","","","","-27","","Mostly Cloudy"
"-94.07","58.74","CHURCHILL A","5060605","2022-12-11 16:00","2022","12","11","16:00","-17.9","","-20.4","","81","","","","31","","10","","24.1","","102.77","","","","-25","","NA"
"-94.07","58.74","CHURCHILL A","5060605","2022-12-11 17:00","2022","12","11","17:00","-16.6","","-19.0","","82","","","","36","","6","","24.1","","102.74","","","","-21","","NA"
"-94.07","58.74","CHURCHILL A","5060605","2022-12-11 18:00","2022","12","11","18:00","-18.1","","-20.8","","80","","","","23","","8","","24.1","","102.77","","","","-24","","Cloudy"
"-94.07","58.74","CHURCHILL A","5060605","2022-12-11 19:00","2022","12","11","19:00","-17.3","","-19.8","","81","","","","27","","5","","24.1","","102.79","","","","-21","","NA"
"-94.07","58.74","CHURCHILL A","5060605","2022-12-11 20:00","2022","12","11","20:00","-14.8","","-17.1","","83","","","","7","","3","","24.1","","102.76","","","","-17","","NA"
"-94.07","58.74","CHURCHILL A","5060605","2022-12-11 21:00","2022","12","11","21:00","-14.8","","-17.1","","83","","","","29","","4","","24.1","","102.75","","","","-18","","Cloudy"
"-94.07","58.74","CHURCHILL A","5060605","2022-12-11 22:00","2022","12","11","22:00","-13.5","","-15.7","","84","","","","36","","3","","24.1","","102.72","","","","-16","","Snow"
"-94.07","58.74","CHURCHILL A","5060605","2022-12-11 23:00","2022","12","11","23:00","-12.2","","-14.1","","86","","","","6","","9","","24.1","","102.69","","","","-17","","Snow"
"-94.07","58.74","CHURCHILL A","5060605","2022-12-12 00:00","2022","12","12","00:00","-11.5","","-13.4","","86","","","","7","","6","","16.1","","102.68","","","","-15","","Snow"
"-94.07","58.74","CHURCHILL A","5060605","2022-12-12 01:00","2022","12","12","01:00","-10.8","","-12.7","","86","","","","7","","9","","24.1","","102.64","","","","-16","","Snow"
"-94.07","58.74","CHURCHILL A","5060605","2022-12-12 02:00","2022","12","12","02:00","-10.0","","-11.8","","87","","","","8","","12","","24.1","","102.62","","","","-16","","NA"
"-94.07","58.74","CHURCHILL A","5060605","2022-12-12 03:00","2022","12","12","03:00","-9.3","","-11.1","","87","","","","8","","15","","16.1","","102.58","","","","-16","","Snow"
"-94.07","58.74","CHURCHILL A","5060605","2022-12-12 04:00","2022","12","12","04:00","-8.9","","-10.4","","89","","","","8","","16","","12.9","","102.54","","","","-16","","Snow"
"-94.07","58.74","CHURCHILL A","5060605","2022-12-12 05:00","2022","12","12","05:00","-8.3","","-9.5","","91","","","","8","","14","","16.1","","102.48","","","","-14","","Snow"
"-94.07","58.74","CHURCHILL A","5060605","2022-12-12 06:00","2022","12","12","06:00","-7.2","","-8.3","","92","","","","9","","12","","24.1","","102.44","","","","-13","","Snow"
"-94.07","58.74","CHURCHILL A","5060605","2022-12-12 07:00","2022","12","12","07:00","-6.7","","-7.8","","92","","","","10","","10","","8.1","","102.42","","","","-11","","Snow"
"-94.07","58.74","CHURCHILL A","5060605","2022-12-12 08:00","2022","12","12","08:00","-6.3","","-7.2","","93","","","","14","","11","","9.7","","102.39","","","","-11","","Snow"
"-94.07","58.74","CHURCHILL A","5060605","2022-12-12 09:00","2022","12","12","09:00","-5.8","","-6.8","","93","","","","15","","11","","6.4","","102.37","","","","-11","","Snow"
"-94.07","58.74","CHURCHILL A","5060605","2022-12-12 10:00","2022","12","12","10:00","-5.1","","-6.1","","93","","","","15","","12","","6.4","","102.34","","","","-10","","Snow"
"-94.07","58.74","CHURCHILL A","5060605","2022-12-12 11:00","2022","12","12","11:00","-4.4","","-5.2","","94","","","","16","","10","","19.3","","102.26","","","","-9","","Snow"
"-94.07","58.74","CHURCHILL A","5060605","2022-12-12 12:00","2022","12","12","12:00","-4.5","","-5.3","","94","","","","16","","11","","19.3","","102.22","","","","-9","","Snow"
"-94.07","58.74","CHURCHILL A","5060605","2022-12-12 13:00","2022","12","12","13:00","-4.2","","-5.0","","94","","","","15","","13","","19.3","","102.15","","","","-9","","Snow"
"-94.07","58.74","CHURCHILL A","5060605","2022-12-12 14:00","2022","12","12","14:00","-4.3","","-5.3","","93","","","","15","","13","","24.1","","102.09","","","","-9","","NA"
"-94.07","58.74","CHURCHILL A","5060605","2022-12-12 15:00","2022","12","12","15:00","-4.7","","-5.8","","92","","","","15","","18","","24.1","","102.06","","","","-11","","Cloudy"
"-94.07","58.74","CHURCHILL A","5060605","2022-12-12 16:00","2022","12","12","16:00","-4.7","","-6.1","","90","","","","15","","20","","24.1","","102.03","","","","-11","","NA"
"-94.07","58.74","CHURCHILL A","5060605","2022-12-12 17:00","2022","12","12","17:00","-5.2","","-6.2","","93","","","","15","","16","","24.1","","101.99","","","","-11","","NA"
"-94.07","58.74","CHURCHILL A","5060605","2022-12-12 18:00","2022","12","12","18:00","-5.7","","-6.7","","93","","","","13","","16","","24.1","","101.96","","","","-12","","Cloudy"
"-94.07","58.74","CHURCHILL A","5060605","2022-12-12 19:00","2022","12","12","19:00","-5.8","","-6.6","","94","","","","16","","13","","24.1","","101.87","","","","-11","","NA"
"-94.07","58.74","CHURCHILL A","5060605","2022-12-12 20:00","2022","12","12","20:00","-6.5","","-7.5","","93","","","","18","","10","","1.2","","101.81","","","","-11","","Fog"
"-94.07","58.74","CHURCHILL A","5060605","2022-12-12 21:00","2022","12","12","21:00","-7.1","","-8.2","","92","","","","18","","10","","24.1","","101.73","","","","-12","","Cloudy"
"-94.07","58.74","CHURCHILL A","5060605","2022-12-12 22:00","2022","12","12","22:00","-7.4","","-8.5","","92","","","","19","","15","","8.1","","101.72","","","","-14","","Fog"
"-94.07","58.74","CHURCHILL A","5060605","2022-12-12 23:00","2022","12","12","23:00","-7.7","","-8.8","","92","","","","19","","9","","4.8","","101.65","","","","-12","","Fog"
"-94.07","58.74","CHURCHILL A","5060605","2022-12-13 00:00","2022","12","13","00:00","-7.5","","-8.6","","92","","","","19","","13","","0.8","","101.66","","","","-13","","Freezing Fog"
"-94.07","58.74","CHURCHILL A","5060605","2022-12-13 01:00","2022","12","13","01:00","-7.2","","-8.3","","92","","","","19","","10","","0.8","","101.58","","","","-12","","Freezing Fog"
"-94.07","58.74","CHURCHILL A","5060605","2022-12-13 02:00","2022","12","13","02:00","-6.8","","-7.9","","92","","","","20","","10","","0.8","","101.59","","","","-11","","Freezing Fog"
"-94.07","58.74","CHURCHILL A","5060605","2022-12-13 03:00","2022","12","13","03:00","-6.8","","-7.9","","92","","","","22","","6","","0.4","","101.58","","","","-10","","Freezing Fog"
"-94.07","58.74","CHURCHILL A","5060605","2022-12-13 04:00","2022","12","13","04:00","-7.0","","-8.1","","92","","","","16","","10","","0.8","","101.56","","","","-12","","Freezing Fog"
"-94.07","58.74","CHURCHILL A","5060605","2022-12-13 05:00","2022","12","13","05:00","-6.9","","-8.0","","92","","","","18","","13","","24.1","","101.56","","","","-12","","NA"
"-94.07","58.74","CHURCHILL A","5060605","2022-12-13 06:00","2022","12","13","06:00","-6.7","","-7.8","","92","","","","23","","9","","24.1","","101.56","","","","-11","","Cloudy"
"-94.07","58.74","CHURCHILL A","5060605","2022-12-13 07:00","2022","12","13","07:00","-6.4","","-7.5","","92","","","","22","","9","","24.1","","101.55","","","","-11","","NA"
"-94.07","58.74","CHURCHILL A","5060605","2022-12-13 08:00","2022","12","13","08:00","-6.4","","-7.5","","92","","","","23","","10","","24.1","","101.55","","","","-11","","NA"
"-94.07","58.74","CHURCHILL A","5060605","2022-12-13 09:00","2022","12","13","09:00","-6.1","","-7.2","","92","","","","25","","10","","24.1","","101.58","","","","-11","","Cloudy"
"-94.07","58.74","CHURCHILL A","5060605","2022-12-13 10:00","2022","12","13","10:00","-5.5","","-6.5","","93","","","","26","","7","","24.1","","101.62","","","","-9","","NA"
"-94.07","58.74","CHURCHILL A","5060605","2022-12-13 11:00","2022","12","13","11:00","-5.6","","-6.6","","93","","","","30","","17","","24.1","","101.65","","","","-12","","NA"
"-94.07","58.74","CHURCHILL A","5060605","2022-12-13 12:00","2022","12","13","12:00","-5.6","","-6.6","","93","","","","30","","12","","24.1","","101.68","","","","-11","","Cloudy"
"-94.07","58.74","CHURCHILL A","5060605","2022-12-13 13:00","2022","12","13","13:00","-6.2","","-7.3","","92","","","","30","","14","","24.1","","101.74","","","","-12","","NA"
"-94.07","58.74","CHURCHILL A","5060605","2022-12-13 14:00","2022","12","13","14:00","-6.6","","-7.8","","91","","","","31","","12","","24.1","","101.82","","","","-12","","NA"
"-94.07","58.74","CHURCHILL A","5060605","2022-12-13 15:00","2022","12","13","15:00","-6.9","","-8.3","","90","","","","29","","8","","24.1","","101.86","","","","-11","","Cloudy"
"-94.07","58.74","CHURCHILL A","5060605","2022-12-13 16:00","2022","12","13","16:00","-7.5","","-9.0","","89","","","","28","","3","","24.1","","101.91","","","","-9","","NA"
"-94.07","58.74","CHURCHILL A","5060605","2022-12-13 17:00","2022","12","13","17:00","-8.8","","-10.3","","89","","","","22","","7","","24.1","","101.97","","","","-13","","NA"
"-94.07","58.74","CHURCHILL A","5060605","2022-12-13 18:00","2022","12","13","18:00","-9.2","","-10.8","","88","","","","22","","7","","24.1","","102.01","","","","-13","","Mostly Cloudy"
"-94.07","58.74","CHURCHILL A","5060605","2022-12-13 19:00","2022","12","13","19:00","-9.0","","-10.6","","88","","","","23","","7","","24.1","","102.02","","","","-13","","NA"
"-94.07","58.74","CHURCHILL A","5060605","2022-12-13 20:00","2022","12","13","20:00","-8.1","","-9.8","","88","","","","25","","7","","24.1","","102.01","","","","-12","","NA"
"-94.07","58.74","CHURCHILL A","5060605","2022-12-13 21:00","2022","12","13","21:00","-9.0","","-11.7","","81","","","","28","","10","","24.1","","102.04","","","","-14","","Cloudy"
"-94.07","58.74","CHURCHILL A","5060605","2022-12-13 22:00","2022","12","13","22:00","-9.3","","-12.0","","81","","","","23","","4","","24.1","","102.01","","","","-12","","NA"
"-94.07","58.74","CHURCHILL A","5060605","2022-12-13 23:00","2022","12","13","23:00","-9.2","","-11.6","","83","","","","14","","7","","24.1","","101.98","","","","-13","","NA"
"-94.07","58.74","CHURCHILL A","5060605","2022-12-14 00:00","2022","12","14","00:00","-8.7","","-10.8","","85","","","","12","","5","","24.1","","101.96","","","","-11","","Cloudy"
"-94.07","58.74","CHURCHILL A","5060605","2022-12-14 01:00","2022","12","14","01:00","-7.9","","-9.8","","86","","","","15","","9","","24.1","","101.95","","","","-12","","NA"
"-94.07","58.74","CHURCHILL A","5060605","2022-12-14 02:00","2022","12","14","02:00","-7.3","","-8.8","","89","","","","15","","15","","24.1","","101.96","","","","-13","","NA"
"-94.07","58.74","CHURCHILL A","5060605","2022-12-14 03:00","2022","12","14","03:00","-7.1","","-8.6","","89","","","","14","","15","","24.1","","101.94","","","","-13","","Cloudy"
"-94.07","58.74","CHURCHILL A","5060605","2022-12-14 04:00","2022","12","14","04:00","-6.5","","-8.3","","87","","","","16","","18","","24.1","","101.95","","","","-13","","NA"
"-94.07","58.74","CHURCHILL A","5060605","2022-12-14 05:00","2022","12","14","05:00","-6.1","","-7.8","","88","","","","17","","15","","24.1","","101.94","","","","-12","","NA"
"-94.07","58.74","CHURCHILL A","5060605","2022-12-14 06:00","2022","12","14","06:00","-5.7","","-6.8","","92","","","","17","","16","","24.1","","101.89","","","","-12","","Cloudy"
"-94.07","58.74","CHURCHILL A","5060605","2022-12-14 07:00","2022","12","14","07:00","-5.4","","-6.5","","92","","","","17","","13","","24.1","","101.87","","","","-11","","NA"
"-94.07","58.74","CHURCHILL A","5060605","2022-12-14 08:00","2022","12","14","08:00","-5.2","","-6.3","","92","","","","17","","15","","24.1","","101.84","","","","-11","","NA"
"-94.07","58.74","CHURCHILL A","5060605","2022-12-14 09:00","2022","12","14","09:00","-4.8","","-5.9","","92","","","","18","","15","","24.1","","101.86","","","","-10","","Cloudy"
"-94.07","58.74","CHURCHILL A","5060605","2022-12-14 10:00","2022","12","14","10:00","-4.6","","-5.7","","92","","","","18","","15","","24.1","","101.90","","","","-10","","NA"
"-94.07","58.74","CHURCHILL A","5060605","2022-12-14 11:00","2022","12","14","11:00","-4.4","","-5.5","","92","","","","19","","11","","24.1","","101.90","","","","-9","","NA"
"-94.07","58.74","CHURCHILL A","5060605","2022-12-14 12:00","2022","12","14","12:00","-4.0","","-5.3","","91","","","","18","","13","","24.1","","101.91","","","","-9","","Cloudy"
"-94.07","58.74","CHURCHILL A","5060605","2022-12-14 13:00","2022","12","14","13:00","-3.8","","-5.1","","91","","","","21","","10","","24.1","","101.90","","","","-8","","NA"
"-94.07","58.74","CHURCHILL A","5060605","2022-12-14 14:00","2022","12","14","14:00","-3.6","","-4.9","","91","","","","20","","7","","24.1","","101.95","","","","-7","","NA"
"-94.07","58.74","CHURCHILL A","5060605","2022-12-14 15:00","2022","12","14","15:00","-3.8","","-4.9","","92","","","","21","","5","","24.1","","101.98","","","","-6","","Cloudy"
"-94.07","58.74","CHURCHILL A","5060605","2022-12-14 16:00","2022","12","14","16:00","-3.8","","-4.8","","93","","","","36","","2","","24.1","","102.03","","","","-5","","NA"
"-94.07","58.74","CHURCHILL A","5060605","2022-12-14 17:00","2022","12","14","17:00","-3.9","","-4.7","","94","","","","36","","3","","24.1","","102.10","","","","-5","","NA"
"-94.07","58.74","CHURCHILL A","5060605","2022-12-14 18:00","2022","12","14","18:00","-4.0","","-4.8","","94","","","","32","","7","","24.1","","102.15","","","","-7","","Cloudy"
"-94.07","58.74","CHURCHILL A","5060605","2022-12-14 19:00","2022","12","14","19:00","-4.5","","-6.2","","88","","","","1","","20","","24.1","","102.20","","","","-11","","NA"
"-94.07","58.74","CHURCHILL A","5060605","2022-12-14 20:00","2022","12","14","20:00","-5.0","","-7.0","","86","","","","1","","22","","24.1","","102.20","","","","-12","","NA"
"-94.07","58.74","CHURCHILL A","5060605","2022-12-14 21:00","2022","12","14","21:00","-5.0","","-6.8","","87","","","","2","","21","","24.1","","102.25","","","","-12","","Cloudy"
"-94.07","58.74","CHURCHILL A","5060605","2022-12-14 22:00","2022","12","14","22:00","-5.0","","-7.1","","85","","","","2","","21","","24.1","","102.24","","","","-12","","NA"
"-94.07","58.74","CHURCHILL A","5060605","2022-12-14 23:00","2022","12","14","23:00","-5.0","","-6.7","","88","","","","3","","21","","24.1","","102.26","","","","-12","","NA"
"-94.07","58.74","CHURCHILL A","5060605","2022-12-15 00:00","2022","12","15","00:00","-4.7","","-6.4","","88","","","","4","","19","","24.1","","102.26","","","","-11","","Cloudy"
"-94.07","58.74","CHURCHILL A","5060605","2022-12-15 01:00","2022","12","15","01:00","-4.8","","-6.2","","90","","","","4","","23","","24.1","","102.23","","","","-12","","NA"
"-94.07","58.74","CHURCHILL A","5060605","2022-12-15 02:00","2022","12","15","02:00","-5.1","","-5.9","","94","","","","4","","29","","6.4","","102.23","","","","-13","","Snow"
"-94.07","58.74","CHURCHILL A","5060605","2022-12-15 03:00","2022","12","15","03:00","-5.0","","-5.8","","94","","","","4","","31","","6.4","","102.13","","","","-13","","Snow"
"-94.07","58.74","CHURCHILL A","5060605","2022-12-15 04:00","2022","12","15","04:00","-4.8","","-5.5","","95","","","","5","","32","","4.8","","102.11","","","","-13","","Snow"
"-94.07","58.74","CHURCHILL A","5060605","2022-12-15 05:00","2022","12","15","05:00","-4.5","","-5.2","","95","","","","5","","27","","1.0","","102.12","","","","-12","","Fog"
"-94.07","58.74","CHURCHILL A","5060605","2022-12-15 06:00","2022","12","15","06:00","-4.3","","-5.0","","95","","","","6","","30","","0.6","","102.06","","","","-12","","Freezing Fog"
"-94.07","58.74","CHURCHILL A","5060605","2022-12-15 07:00","2022","12","15","07:00","-4.2","","-5.0","","94","","","","7","","18","","4.8","","102.08","","","","-10","","Fog"
"-94.07","58.74","CHURCHILL A","5060605","2022-12-15 08:00","2022","12","15","08:00","-4.6","","-5.6","","93","","","","8","","32","","6.4","","101.96","","","","-13","","Fog"
"-94.07","58.74","CHURCHILL A","5060605","2022-12-15 09:00","2022","12","15","09:00","-5.1","","-6.2","","92","","","","7","","22","","12.9","","101.92","","","","-12","","Cloudy"
"-94.07","58.74","CHURCHILL A","5060605","2022-12-15 10:00","2022","12","15","10:00","-5.2","","-6.3","","92","","","","7","","21","","16.1","","101.84","","","","-12","","NA"
"-94.07","58.74","CHURCHILL A","5060605","2022-12-15 11:00","2022","12","15","11:00","-5.0","","-6.2","","91","","","","7","","20","","19.3","","101.76","","","","-12","","NA"
"-94.07","58.74","CHURCHILL A","5060605","2022-12-15 12:00","2022","12","15","12:00","-4.7","","-6.1","","90","","","","5","","13","","24.1","","101.84","","","","-10","","Cloudy"
"-94.07","58.74","CHURCHILL A","5060605","2022-12-15 13:00","2022","12","15","13:00","-4.9","","-6.3","","90","","","","5","","13","","24.1","","101.67","","","","-10","","NA"
"-94.07","58.74","CHURCHILL A","5060605","2022-12-15 14:00","2022","12","15","14:00","-5.1","","-6.3","","91","","","","7","","10","","24.1","","101.59","","","","-9","","NA"
"-94.07","58.74","CHURCHILL A","5060605","2022-12-15 15:00","2022","12","15","15:00","-5.5","","-6.8","","90","","","","11","","13","","24.1","","101.58","","","","-11","","Cloudy"
"-94.07","58.74","CHURCHILL A","5060605","2022-12-15 16:00","2022","12","15","16:00","-6.4","","-7.5","","92","","","","12","","7","","24.1","","101.60","","","","-10","","NA"
"-94.07","58.74","CHURCHILL A","5060605","2022-12-15 17:00","2022","12","15","17:00","-7.0","","-8.2","","91","","","","11","","7","","24.1","","101.58","","","","-11","","NA"
"-94.07","58.74","CHURCHILL A","5060605","2022-12-15 18:00","2022","12","15","18:00","-6.7","","-7.7","","93","","","","36","","2","","24.1","","101.51","","","","-8","","Mostly Cloudy"
"-94.07","58.74","CHURCHILL A","5060605","2022-12-15 19:00","2022","12","15","19:00","-7.1","","-8.1","","93","","","","32","","7","","24.1","","101.47","","","","-11","","NA"
"-94.07","58.74","CHURCHILL A","5060605","2022-12-15 20:00","2022","12","15","20:00","-6.6","","-7.7","","92","","","","33","","5","","24.1","","101.42","","","","-9","","NA"
"-94.07","58.74","CHURCHILL A","5060605","2022-12-15 21:00","2022","12","15","21:00","-7.9","","-9.0","","92","","","","29","","7","","24.1","","101.39","","","","-12","","Mainly Clear"
"-94.07","58.74","CHURCHILL A","5060605","2022-12-15 22:00","2022","12","15","22:00","-8.2","","-9.4","","91","","","","31","","12","","24.1","","101.38","","","","-14","","NA"
"-94.07","58.74","CHURCHILL A","5060605","2022-12-15 23:00","2022","12","15","23:00","-6.0","","-7.0","","93","","","","34","","25","","12.9","","101.37","","","","-14","","NA"
"-94.07","58.74","CHURCHILL A","5060605","2022-12-16 00:00","2022","12","16","00:00","-6.4","","-7.3","","93","","","","34","","22","","3.2","","101.38","","","","-14","","Fog"
"-94.07","58.74","CHURCHILL A","5060605","2022-12-16 01:00","2022","12","16","01:00","-7.3","","-8.5","","91","","","","33","","34","","2.4","","101.35","","","","-16","","Fog"
"-94.07","58.74","CHURCHILL A","5060605","2022-12-16 02:00","2022","12","16","02:00","-9.1","","-10.6","","89","","","","34","","35","","4.8","","101.41","","","","-19","","Fog"
"-94.07","58.74","CHURCHILL A","5060605","2022-12-16 03:00","2022","12","16","03:00","-9.5","","-11.0","","89","","","","35","","43","","4.8","","101.38","","","","-20","","Snow,Blowing Snow"
"-94.07","58.74","CHURCHILL A","5060605","2022-12-16 04:00","2022","12","16","04:00","-10.3","","-11.9","","88","","","","36","","45","","4.8","","101.41","","","","-22","","Snow,Blowing Snow"
"-94.07","58.74","CHURCHILL A","5060605","2022-12-16 05:00","2022","12","16","05:00","-10.7","","-12.3","","88","","","","36","","48","","6.4","","101.44","","","","-23","","Snow,Blowing Snow"
"-94.07","58.74","CHURCHILL A","5060605","2022-12-16 06:00","2022","12","16","06:00","-11.0","","-12.8","","87","","","","36","","49","","6.4","","101.48","","","","-23","","Snow,Blowing Snow"
"-94.07","58.74","CHURCHILL A","5060605","2022-12-16 07:00","2022","12","16","07:00","-11.2","","-12.9","","87","","","","36","","43","","8.1","","101.48","","","","-23","","Snow,Blowing Snow"
"-94.07","58.74","CHURCHILL A","5060605","2022-12-16 08:00","2022","12","16","08:00","-11.2","","-12.9","","87","","","","1","","44","","8.1","","101.51","","","","-23","","Snow,Blowing Snow"
"-94.07","58.74","CHURCHILL A","5060605","2022-12-16 09:00","2022","12","16","09:00","-11.4","","-13.3","","86","","","","36","","45","","12.9","","101.54","","","","-23","","Snow"
"-94.07","58.74","CHURCHILL A","5060605","2022-12-16 10:00","2022","12","16","10:00","-11.5","","-13.5","","85","","","","36","","40","","12.9","","101.53","","","","-23","","Blowing Snow"
"-94.07","58.74","CHURCHILL A","5060605","2022-12-16 11:00","2022","12","16","11:00","-11.9","","-14.1","","84","","","","35","","41","","8.1","","101.54","","","","-23","","Snow,Blowing Snow"
"-94.07","58.74","CHURCHILL A","5060605","2022-12-16 12:00","2022","12","16","12:00","-12.9","","-15.3","","83","","","","35","","46","","8.1","","101.56","","","","-25","","Snow,Blowing Snow"
"-94.07","58.74","CHURCHILL A","5060605","2022-12-16 13:00","2022","12","16","13:00","-13.8","","-16.4","","81","","","","36","","48","","9.7","","101.56","","","","-27","","Snow,Blowing Snow"
"-94.07","58.74","CHURCHILL A","5060605","2022-12-16 14:00","2022","12","16","14:00","-16.1","","-18.9","","79","","","","35","","45","","9.7","","101.63","","","","-30","","Blowing Snow"
"-94.07","58.74","CHURCHILL A","5060605","2022-12-16 15:00","2022","12","16","15:00","-17.1","","-20.1","","78","","","","36","","45","","9.7","","101.71","","","","-31","","Ice Crystals,Blowing Snow"
"-94.07","58.74","CHURCHILL A","5060605","2022-12-16 16:00","2022","12","16","16:00","-17.5","","-20.5","","78","","","","36","","46","","9.7","","101.77","","","","-32","","Ice Crystals,Blowing Snow"
"-94.07","58.74","CHURCHILL A","5060605","2022-12-16 17:00","2022","12","16","17:00","-18.1","","-21.2","","77","","","","35","","45","","9.7","","101.79","","","","-32","","Ice Crystals,Blowing Snow"
"-94.07","58.74","CHURCHILL A","5060605","2022-12-16 18:00","2022","12","16","18:00","-19.4","","-22.5","","77","","","","35","","48","","9.7","","101.82","","","","-34","","Ice Crystals,Blowing Snow"
"-94.07","58.74","CHURCHILL A","5060605","2022-12-16 19:00","2022","12","16","19:00","-20.4","","-23.6","","76","","","","34","","47","","9.7","","101.89","","","","-36","","Ice Crystals,Blowing Snow"
"-94.07","58.74","CHURCHILL A","5060605","2022-12-16 20:00","2022","12","16","20:00","-20.9","","-24.2","","75","","","","34","","40","","6.4","","101.88","","","","-35","","Ice Crystals,Blowing Snow"
"-94.07","58.74","CHURCHILL A","5060605","2022-12-16 21:00","2022","12","16","21:00","-20.3","","-23.5","","76","","","","35","","44","","8.1","","101.88","","","","-35","","Ice Crystals,Blowing Snow"
"-94.07","58.74","CHURCHILL A","5060605","2022-12-16 22:00","2022","12","16","22:00","-19.9","","-23.1","","76","","","","35","","43","","6.4","","101.92","","","","-34","","Ice Crystals,Blowing Snow"
"-94.07","58.74","CHURCHILL A","5060605","2022-12-16 23:00","2022","12","16","23:00","-19.6","","-22.8","","76","","","","35","","42","","6.4","","101.95","","","","-34","","Ice Crystals,Blowing Snow"
"-94.07","58.74","CHURCHILL A","5060605","2022-12-17 00:00","2022","12","17","00:00","-19.8","","-23.2","","75","","","","36","","49","","9.7","","101.99","","","","-35","","Ice Crystals,Blowing Snow"
"-94.07","58.74","CHURCHILL A","5060605","2022-12-17 01:00","2022","12","17","01:00","-19.9","","-23.3","","75","","","","35","","44","","6.4","","102.06","","","","-35","","Ice Crystals,Blowing Snow"
"-94.07","58.74","CHURCHILL A","5060605","2022-12-17 02:00","2022","12","17","02:00","-19.7","","-23.0","","76","","","","35","","42","","8.1","","102.12","","","","-34","","Ice Crystals,Blowing Snow"
"-94.07","58.74","CHURCHILL A","5060605","2022-12-17 03:00","2022","12","17","03:00","-19.4","","-22.6","","76","","","","35","","52","","9.7","","102.14","","","","-35","","Ice Crystals,Blowing Snow"
"-94.07","58.74","CHURCHILL A","5060605","2022-12-17 04:00","2022","12","17","04:00","-19.6","","-23.0","","75","","","","35","","47","","8.1","","102.18","","","","-35","","Ice Crystals,Blowing Snow"
"-94.07","58.74","CHURCHILL A","5060605","2022-12-17 05:00","2022","12","17","05:00","-19.9","","-23.1","","76","","","","34","","34","","9.7","","102.24","","","","-33","","Ice Crystals,Blowing Snow"
"-94.07","58.74","CHURCHILL A","5060605","2022-12-17 06:00","2022","12","17","06:00","-20.3","","-23.5","","76","","","","34","","40","","12.9","","102.30","","","","-35","","Ice Crystals,Blowing Snow"
"-94.07","58.74","CHURCHILL A","5060605","2022-12-17 07:00","2022","12","17","07:00","-20.3","","-23.5","","76","","","","35","","35","","19.3","","102.33","","","","-34","","Ice Crystals,Blowing Snow"
"-94.07","58.74","CHURCHILL A","5060605","2022-12-17 08:00","2022","12","17","08:00","-20.5","","-23.7","","76","","","","35","","37","","16.1","","102.36","","","","-34","","Ice Crystals,Blowing Snow"
"-94.07","58.74","CHURCHILL A","5060605","2022-12-17 09:00","2022","12","17","09:00","-20.7","","-23.9","","76","","","","34","","34","","24.1","","102.41","","","","-34","","Ice Crystals"
"-94.07","58.74","CHURCHILL A","5060605","2022-12-17 10:00","2022","12","17","10:00","-21.0","","-24.0","","77","","","","34","","33","","24.1","","102.45","","","","-34","","Ice Crystals"
"-94.07","58.74","CHURCHILL A","5060605","2022-12-17 11:00","2022","12","17","11:00","-21.1","","-24.1","","77","","","","34","","35","","24.1","","102.47","","","","-35","","Ice Crystals"
"-94.07","58.74","CHURCHILL A","5060605","2022-12-17 12:00","2022","12","17","12:00","-21.8","","-24.8","","77","","","","34","","36","","24.1","","102.51","","","","-36","","Ice Crystals,Blowing Snow"
"-94.07","58.74","CHURCHILL A","5060605","2022-12-17 13:00","2022","12","17","13:00","-22.2","","-25.4","","76","","","","34","","35","","24.1","","102.53","","","","-36","","Ice Crystals,Blowing Snow"
"-94.07","58.74","CHURCHILL A","5060605","2022-12-17 14:00","2022","12","17","14:00","-22.6","","-25.6","","77","","","","34","","32","","24.1","","102.60","","","","-36","","Ice Crystals,Blowing Snow"
"-94.07","58.74","CHURCHILL A","5060605","2022-12-17 15:00","2022","12","17","15:00","-23.0","","-26.0","","77","","","","33","","29","","24.1","","102.68","","","","-36","","Ice Crystals,Blowing Snow"
"-94.07","58.74","CHURCHILL A","5060605","2022-12-17 16:00","2022","12","17","16:00","-23.3","","-26.4","","76","","","","34","","29","","24.1","","102.74","","","","-37","","Ice Crystals,Blowing Snow"
"-94.07","58.74","CHURCHILL A","5060605","2022-12-17 17:00","2022","12","17","17:00","-23.4","","-26.5","","76","","","","33","","32","","24.1","","102.79","","","","-37","","Ice Crystals,Blowing Snow"
"-94.07","58.74","CHURCHILL A","5060605","2022-12-17 18:00","2022","12","17","18:00","-23.5","","-26.6","","76","","","","34","","30","","24.1","","102.85","","","","-37","","Mainly Clear"
"-94.07","58.74","CHURCHILL A","5060605","2022-12-17 19:00","2022","12","17","19:00","-23.5","","-26.6","","76","","","","34","","31","","24.1","","102.86","","","","-37","","Ice Crystals"
"-94.07","58.74","CHURCHILL A","5060605","2022-12-17 20:00","2022","12","17","20:00","-23.8","","-27.1","","75","","","","34","","35","","24.1","","102.89","","","","-38","","Ice Crystals"
"-94.07","58.74","CHURCHILL A","5060605","2022-12-17 21:00","2022","12","17","21:00","-24.4","","-27.6","","75","","","","34","","30","","24.1","","102.90","","","","-38","","Ice Crystals"
"-94.07","58.74","CHURCHILL A","5060605","2022-12-17 22:00","2022","12","17","22:00","-24.3","","-27.6","","75","","","","34","","27","","24.1","","102.96","","","","-38","","Ice Crystals"
"-94.07","58.74","CHURCHILL A","5060605","2022-12-17 23:00","2022","12","17","23:00","-24.8","","-28.0","","75","","","","33","","27","","24.1","","103.01","","","","-38","","Ice Crystals"
"-94.07","58.74","CHURCHILL A","5060605","2022-12-18 00:00","2022","12","18","00:00","-25.1","","-28.5","","74","","","","33","","31","","24.1","","103.07","","","","-39","","Ice Crystals"
"-94.07","58.74","CHURCHILL A","5060605","2022-12-18 01:00","2022","12","18","01:00","-25.2","","-28.6","","74","","","","34","","29","","24.1","","103.11","","","","-39","","Ice Crystals"
"-94.07","58.74","CHURCHILL A","5060605","2022-12-18 02:00","2022","12","18","02:00","-25.4","","-28.8","","74","","","","34","","25","","24.1","","103.20","","","","-39","","Ice Crystals"
"-94.07","58.74","CHURCHILL A","5060605","2022-12-18 03:00","2022","12","18","03:00","-25.6","","-29.0","","74","","","","34","","22","","24.1","","103.28","","","","-38","","Ice Crystals"
"-94.07","58.74","CHURCHILL A","5060605","2022-12-18 04:00","2022","12","18","04:00","-25.7","","-29.1","","74","","","","34","","23","","24.1","","103.31","","","","-38","","Ice Crystals"
"-94.07","58.74","CHURCHILL A","5060605","2022-12-18 05:00","2022","12","18","05:00","-26.0","","-29.4","","74","","","","34","","21","","24.1","","103.36","","","","-38","","Ice Crystals"
"-94.07","58.74","CHURCHILL A","5060605","2022-12-18 06:00","2022","12","18","06:00","-26.0","","-29.5","","73","","","","34","","26","","24.1","","103.42","","","","-40","","Ice Crystals"
"-94.07","58.74","CHURCHILL A","5060605","2022-12-18 07:00","2022","12","18","07:00","-26.3","","-29.8","","73","","","","34","","20","","24.1","","103.48","","","","-38","","Ice Crystals"
"-94.07","58.74","CHURCHILL A","5060605","2022-12-18 08:00","2022","12","18","08:00","-26.6","","-30.1","","73","","","","34","","22","","24.1","","103.51","","","","-39","","Ice Crystals"
"-94.07","58.74","CHURCHILL A","5060605","2022-12-18 09:00","2022","12","18","09:00","-26.7","","-30.2","","73","","","","34","","18","","19.3","","103.56","","","","-38","","Ice Crystals"
"-94.07","58.74","CHURCHILL A","5060605","2022-12-18 10:00","2022","12","18","10:00","-26.5","","-29.8","","74","","","","33","","20","","19.3","","103.63","","","","-39","","Ice Crystals"
"-94.07","58.74","CHURCHILL A","5060605","2022-12-18 11:00","2022","12","18","11:00","-26.8","","-30.1","","74","","","","33","","21","","19.3","","103.67","","","","-39","","NA"
"-94.07","58.74","CHURCHILL A","5060605","2022-12-18 12:00","2022","12","18","12:00","-26.7","","-30.2","","73","","","","33","","17","","24.1","","103.71","","","","-38","","Mostly Cloudy"
"-94.07","58.74","CHURCHILL A","5060605","2022-12-18 13:00","2022","12","18","13:00","-27.0","","-30.5","","73","","","","31","","16","","24.1","","103.73","","","","-38","","NA"
"-94.07","58.74","CHURCHILL A","5060605","2022-12-18 14:00","2022","12","18","14:00","-26.8","","-30.4","","72","","","","32","","18","","24.1","","103.81","","","","-38","","Ice Crystals"
"-94.07","58.74","CHURCHILL A","5060605","2022-12-18 15:00","2022","12","18","15:00","-27.9","","-31.5","","72","","","","30","","16","","24.1","","103.88","","","","-39","","Ice Crystals"
"-94.07","58.74","CHURCHILL A","5060605","2022-12-18 16:00","2022","12","18","16:00","-28.3","","-32.0","","71","","","","31","","17","","24.1","","103.95","","","","-40","","Ice Crystals"
"-94.07","58.74","CHURCHILL A","5060605","2022-12-18 17:00","2022","12","18","17:00","-28.1","","-31.8","","71","","","","31","","13","","24.1","","103.96","","","","-38","","Ice Crystals"
"-94.07","58.74","CHURCHILL A","5060605","2022-12-18 18:00","2022","12","18","18:00","-28.0","","-31.6","","72","","","","31","","14","","24.1","","103.99","","","","-39","","Ice Crystals"
"-94.07","58.74","CHURCHILL A","5060605","2022-12-18 19:00","2022","12","18","19:00","-27.9","","-31.4","","73","","","","31","","13","","24.1","","104.02","","","","-38","","Ice Crystals"
"-94.07","58.74","CHURCHILL A","5060605","2022-12-18 20:00","2022","12","18","20:00","-27.5","","-31.1","","72","","","","34","","19","","24.1","","104.03","","","","-40","","Ice Crystals"
"-94.07","58.74","CHURCHILL A","5060605","2022-12-18 21:00","2022","12","18","21:00","-27.4","","-31.0","","72","","","","33","","16","","24.1","","104.06","","","","-39","","Ice Crystals"
"-94.07","58.74","CHURCHILL A","5060605","2022-12-18 22:00","2022","12","18","22:00","-27.4","","-31.0","","72","","","","33","","15","","24.1","","104.10","","","","-38","","Ice Crystals"
"-94.07","58.74","CHURCHILL A","5060605","2022-12-18 23:00","2022","12","18","23:00","-27.6","","-31.4","","71","","","","33","","16","","24.1","","104.13","","","","-39","","Ice Crystals"
"-94.07","58.74","CHURCHILL A","5060605","2022-12-19 00:00","2022","12","19","00:00","-27.5","","-31.1","","72","","","","33","","19","","24.1","","104.14","","","","-40","","Ice Crystals"
"-94.07","58.74","CHURCHILL A","5060605","2022-12-19 01:00","2022","12","19","01:00","-27.1","","-30.6","","73","","","","33","","16","","24.1","","104.18","","","","-38","","Ice Crystals"
"-94.07","58.74","CHURCHILL A","5060605","2022-12-19 02:00","2022","12","19","02:00","-26.9","","-30.4","","73","","","","34","","14","","24.1","","104.22","","","","-37","","Ice Crystals"
"-94.07","58.74","CHURCHILL A","5060605","2022-12-19 03:00","2022","12","19","03:00","-26.9","","-30.2","","74","","","","33","","13","","24.1","","104.24","","","","-37","","Ice Crystals"
"-94.07","58.74","CHURCHILL A","5060605","2022-12-19 04:00","2022","12","19","04:00","-26.8","","-30.1","","74","","","","33","","17","","24.1","","104.26","","","","-38","","Ice Crystals"
"-94.07","58.74","CHURCHILL A","5060605","2022-12-19 05:00","2022","12","19","05:00","-26.6","","-29.8","","75","","","","33","","13","","24.1","","104.30","","","","-36","","Ice Crystals"
"-94.07","58.74","CHURCHILL A","5060605","2022-12-19 06:00","2022","12","19","06:00","-26.7","","-30.0","","74","","","","32","","18","","24.1","","104.32","","","","-38","","Ice Crystals"
"-94.07","58.74","CHURCHILL A","5060605","2022-12-19 07:00","2022","12","19","07:00","-26.8","","-30.1","","74","","","","33","","15","","24.1","","104.33","","","","-37","","Ice Crystals"
"-94.07","58.74","CHURCHILL A","5060605","2022-12-19 08:00","2022","12","19","08:00","-26.7","","-30.0","","74","","","","34","","21","","24.1","","104.34","","","","-39","","Ice Crystals"
"-94.07","58.74","CHURCHILL A","5060605","2022-12-19 09:00","2022","12","19","09:00","-26.8","","-30.1","","74","","","","34","","25","","24.1","","104.31","","","","-40","","Ice Crystals"
"-94.07","58.74","CHURCHILL A","5060605","2022-12-19 10:00","2022","12","19","10:00","-26.1","","-29.3","","75","","","","34","","20","","24.1","","104.33","","","","-38","","Ice Crystals"
"-94.07","58.74","CHURCHILL A","5060605","2022-12-19 11:00","2022","12","19","11:00","-25.4","","-28.6","","75","","","","34","","21","","24.1","","104.34","","","","-38","","Ice Crystals"
"-94.07","58.74","CHURCHILL A","5060605","2022-12-19 12:00","2022","12","19","12:00","-24.7","","-27.9","","75","","","","35","","24","","24.1","","104.32","","","","-37","","Mostly Cloudy"
"-94.07","58.74","CHURCHILL A","5060605","2022-12-19 13:00","2022","12","19","13:00","-24.5","","-27.7","","75","","","","35","","24","","24.1","","104.31","","","","-37","","NA"
"-94.07","58.74","CHURCHILL A","5060605","2022-12-19 14:00","2022","12","19","14:00","-24.1","","-27.4","","75","","","","36","","27","","24.1","","104.28","","","","-37","","NA"
"-94.07","58.74","CHURCHILL A","5060605","2022-12-19 15:00","2022","12","19","15:00","-23.8","","-26.9","","76","","","","36","","21","","24.1","","104.30","","","","-36","","Mostly Cloudy"
"-94.07","58.74","CHURCHILL A","5060605","2022-12-19 16:00","2022","12","19","16:00","-23.3","","-26.4","","76","","","","36","","22","","24.1","","104.32","","","","-35","","Ice Crystals"
"-94.07","58.74","CHURCHILL A","5060605","2022-12-19 17:00","2022","12","19","17:00","-22.6","","-25.7","","76","","","","36","","23","","24.1","","104.32","","","","-35","","Ice Crystals"
"-94.07","58.74","CHURCHILL A","5060605","2022-12-19 18:00","2022","12","19","18:00","-22.2","","-25.5","","75","","","","1","","23","","24.1","","104.30","","","","-34","","Ice Crystals"
"-94.07","58.74","CHURCHILL A","5060605","2022-12-19 19:00","2022","12","19","19:00","-22.1","","-25.6","","74","","","","1","","26","","24.1","","104.24","","","","-35","","Ice Crystals"
"-94.07","58.74","CHURCHILL A","5060605","2022-12-19 20:00","2022","12","19","20:00","-22.0","","-25.5","","74","","","","1","","26","","24.1","","104.18","","","","-34","","Ice Crystals"
"-94.07","58.74","CHURCHILL A","5060605","2022-12-19 21:00","2022","12","19","21:00","-21.8","","-25.4","","73","","","","1","","26","","24.1","","104.15","","","","-34","","Ice Crystals"
"-94.07","58.74","CHURCHILL A","5060605","2022-12-19 22:00","2022","12","19","22:00","-21.6","","-25.2","","73","","","","1","","27","","24.1","","104.12","","","","-34","","Ice Crystals"
"-94.07","58.74","CHURCHILL A","5060605","2022-12-19 23:00","2022","12","19","23:00","-21.3","","-24.8","","74","","","","1","","32","","24.1","","104.09","","","","-35","","Ice Crystals"
"-94.07","58.74","CHURCHILL A","5060605","2022-12-20 00:00","2022","12","20","00:00","-21.1","","-24.6","","74","","","","2","","29","","24.1","","104.08","","","","-34","","Ice Crystals"
"-94.07","58.74","CHURCHILL A","5060605","2022-12-20 01:00","2022","12","20","01:00","-20.9","","-24.6","","73","","","","1","","32","","24.1","","104.04","","","","-34","","Ice Crystals"
"-94.07","58.74","CHURCHILL A","5060605","2022-12-20 02:00","2022","12","20","02:00","-20.7","","-24.2","","74","","","","1","","36","","24.1","","103.97","","","","-34","","Ice Crystals"
"-94.07","58.74","CHURCHILL A","5060605","2022-12-20 03:00","2022","12","20","03:00","-20.5","","-24.2","","73","","","","2","","35","","24.1","","103.95","","","","-34","","Mostly Cloudy"
"-94.07","58.74","CHURCHILL A","5060605","2022-12-20 04:00","2022","12","20","04:00","-20.6","","-24.1","","74","","","","1","","30","","24.1","","103.91","","","","-33","","NA"
"-94.07","58.74","CHURCHILL A","5060605","2022-12-20 05:00","2022","12","20","05:00","-20.8","","-24.3","","74","","","","1","","40","","24.1","","103.89","","","","-35","","NA"
"-94.07","58.74","CHURCHILL A","5060605","2022-12-20 06:00","2022","12","20","06:00","-20.6","","-24.3","","73","","","","1","","36","","24.1","","103.83","","","","-34","","Mostly Cloudy"
"-94.07","58.74","CHURCHILL A","5060605","2022-12-20 07:00","2022","12","20","07:00","-20.3","","-24.3","","71","","","","1","","36","","24.1","","103.77","","","","-34","","NA"
"-94.07","58.74","CHURCHILL A","5060605","2022-12-20 08:00","2022","12","20","08:00","-20.2","","-24.2","","71","","","","1","","40","","24.1","","103.71","","","","-34","","Ice Crystals"
"-94.07","58.74","CHURCHILL A","5060605","2022-12-20 09:00","2022","12","20","09:00","-20.0","","-24.0","","71","","","","1","","39","","24.1","","103.68","","","","-34","","Ice Crystals"
"-94.07","58.74","CHURCHILL A","5060605","2022-12-20 10:00","2022","12","20","10:00","-19.8","","-23.6","","72","","","","1","","38","","24.1","","103.64","","","","-34","","Ice Crystals"
"-94.07","58.74","CHURCHILL A","5060605","2022-12-20 11:00","2022","12","20","11:00","-19.3","","-23.3","","71","","","","1","","44","","24.1","","103.60","","","","-34","","Ice Crystals"
"-94.07","58.74","CHURCHILL A","5060605","2022-12-20 12:00","2022","12","20","12:00","-19.2","","-23.1","","72","","","","2","","38","","24.1","","103.52","","","","-33","","Ice Crystals"
"-94.07","58.74","CHURCHILL A","5060605","2022-12-20 13:00","2022","12","20","13:00","-19.2","","-22.9","","73","","","","1","","37","","24.1","","103.48","","","","-33","","Ice Crystals"
"-94.07","58.74","CHURCHILL A","5060605","2022-12-20 14:00","2022","12","20","14:00","-19.1","","-23.0","","72","","","","1","","45","","24.1","","103.42","","","","-34","","Ice Crystals"
"-94.07","58.74","CHURCHILL A","5060605","2022-12-20 15:00","2022","12","20","15:00","-19.0","","-22.9","","72","","","","1","","39","","24.1","","103.40","","","","-33","","Ice Crystals"
"-94.07","58.74","CHURCHILL A","5060605","2022-12-20 16:00","2022","12","20","16:00","-19.0","","-22.9","","72","","","","1","","49","","24.1","","103.38","","","","-34","","Ice Crystals"
"-94.07","58.74","CHURCHILL A","5060605","2022-12-20 17:00","2022","12","20","17:00","-19.2","","-23.1","","72","","","","1","","48","","24.1","","103.34","","","","-34","","Ice Crystals"
"-94.07","58.74","CHURCHILL A","5060605","2022-12-20 18:00","2022","12","20","18:00","-20.4","","-23.8","","75","","","","36","","40","","24.1","","103.30","","","","-35","","Ice Crystals,Blowing Snow"
"-94.07","58.74","CHURCHILL A","5060605","2022-12-20 19:00","2022","12","20","19:00","-20.4","","-24.2","","72","","","","36","","46","","24.1","","103.22","","","","-35","","Ice Crystals,Blowing Snow"
"-94.07","58.74","CHURCHILL A","5060605","2022-12-20 20:00","2022","12","20","20:00","-21.5","","-25.1","","73","","","","35","","48","","24.1","","103.18","","","","-37","","Ice Crystals,Blowing Snow"
"-94.07","58.74","CHURCHILL A","5060605","2022-12-20 21:00","2022","12","20","21:00","-22.0","","-25.6","","73","","","","36","","47","","24.1","","103.12","","","","-38","","Ice Crystals,Blowing Snow"
"-94.07","58.74","CHURCHILL A","5060605","2022-12-20 22:00","2022","12","20","22:00","-22.0","","-25.6","","73","","","","35","","43","","24.1","","103.05","","","","-37","","Ice Crystals,Blowing Snow"
"-94.07","58.74","CHURCHILL A","5060605","2022-12-20 23:00","2022","12","20","23:00","-22.1","","-25.9","","72","","","","35","","45","","24.1","","102.99","","","","-38","","Ice Crystals,Blowing Snow"
"-94.07","58.74","CHURCHILL A","5060605","2022-12-21 00:00","2022","12","21","00:00","-22.4","","-26.0","","73","","","","35","","45","","24.1","","102.92","","","","-38","","Ice Crystals,Blowing Snow"
"-94.07","58.74","CHURCHILL A","5060605","2022-12-21 01:00","2022","12","21","01:00","-22.5","","-26.3","","72","","","","36","","46","","12.9","","102.88","","","","-38","","Ice Crystals,Blowing Snow"
"-94.07","58.74","CHURCHILL A","5060605","2022-12-21 02:00","2022","12","21","02:00","-22.5","","-26.3","","72","","","","36","","44","","24.1","","102.84","","","","-38","","Ice Crystals,Blowing Snow"
"-94.07","58.74","CHURCHILL A","5060605","2022-12-21 03:00","2022","12","21","03:00","-22.5","","-25.9","","74","","","","35","","48","","3.2","","102.81","","","","-39","","Snow,Blowing Snow"
"-94.07","58.74","CHURCHILL A","5060605","2022-12-21 04:00","2022","12","21","04:00","-21.9","","-25.2","","75","","","","35","","49","","2.4","","102.75","","","","-38","","Snow,Blowing Snow"
"-94.07","58.74","CHURCHILL A","5060605","2022-12-21 05:00","2022","12","21","05:00","-21.7","","-25.0","","75","","","","35","","50","","2.4","","102.72","","","","-38","","Snow,Blowing Snow"
"-94.07","58.74","CHURCHILL A","5060605","2022-12-21 06:00","2022","12","21","06:00","-21.3","","-24.5","","76","","","","35","","46","","2.4","","102.69","","","","-37","","Snow,Blowing Snow"
"-94.07","58.74","CHURCHILL A","5060605","2022-12-21 07:00","2022","12","21","07:00","-20.6","","-23.8","","76","","","","35","","55","","2.4","","102.65","","","","-37","","Snow,Blowing Snow"
"-94.07","58.74","CHURCHILL A","5060605","2022-12-21 08:00","2022","12","21","08:00","-20.8","","-24.0","","76","","","","35","","49","","1.6","","102.66","","","","-36","","Snow,Blowing Snow"
"-94.07","58.74","CHURCHILL A","5060605","2022-12-21 09:00","2022","12","21","09:00","-20.5","","-23.7","","76","","","","36","","52","","1.6","","102.67","","","","-36","","Snow,Blowing Snow"
"-94.07","58.74","CHURCHILL A","5060605","2022-12-21 10:00","2022","12","21","10:00","-20.2","","-23.2","","77","","","","35","","43","","1.6","","102.70","","","","-35","","Snow,Blowing Snow"
"-94.07","58.74","CHURCHILL A","5060605","2022-12-21 11:00","2022","12","21","11:00","-19.9","","-23.1","","76","","","","36","","46","","1.6","","102.66","","","","-35","","Snow,Blowing Snow"
"-94.07","58.74","CHURCHILL A","5060605","2022-12-21 12:00","2022","12","21","12:00","-19.8","","-23.0","","76","","","","35","","46","","1.2","","102.67","","","","-35","","Snow,Blowing Snow"
"-94.07","58.74","CHURCHILL A","5060605","2022-12-21 13:00","2022","12","21","13:00","-19.6","","-22.7","","77","","","","36","","41","","1.2","","102.65","","","","-34","","Snow,Blowing Snow"
"-94.07","58.74","CHURCHILL A","5060605","2022-12-21 14:00","2022","12","21","14:00","-19.9","","-23.1","","76","","","","36","","51","","1.2","","102.65","","","","-35","","Snow,Blowing Snow"
"-94.07","58.74","CHURCHILL A","5060605","2022-12-21 15:00","2022","12","21","15:00","-19.9","","-23.0","","77","","","","35","","43","","1.6","","102.66","","","","-34","","Snow,Blowing Snow"
"-94.07","58.74","CHURCHILL A","5060605","2022-12-21 16:00","2022","12","21","16:00","-20.0","","-23.1","","77","","","","36","","45","","1.6","","102.71","","","","-35","","Snow,Blowing Snow"
"-94.07","58.74","CHURCHILL A","5060605","2022-12-21 17:00","2022","12","21","17:00","-20.3","","-23.5","","76","","","","35","","48","","1.6","","102.72","","","","-36","","Snow,Blowing Snow"
"-94.07","58.74","CHURCHILL A","5060605","2022-12-21 18:00","2022","12","21","18:00","-20.8","","-24.0","","76","","","","36","","46","","2.4","","102.76","","","","-36","","Snow,Blowing Snow"
"-94.07","58.74","CHURCHILL A","5060605","2022-12-21 19:00","2022","12","21","19:00","-20.8","","-24.0","","76","","","","36","","44","","2.4","","102.74","","","","-36","","Snow,Blowing Snow"
"-94.07","58.74","CHURCHILL A","5060605","2022-12-21 20:00","2022","12","21","20:00","-20.7","","-23.9","","76","","","","35","","42","","2.4","","102.74","","","","-35","","Snow,Blowing Snow"
"-94.07","58.74","CHURCHILL A","5060605","2022-12-21 21:00","2022","12","21","21:00","-20.8","","-24.0","","76","","","","35","","45","","2.4","","102.73","","","","-36","","Snow,Blowing Snow"
"-94.07","58.74","CHURCHILL A","5060605","2022-12-21 22:00","2022","12","21","22:00","-20.8","","-24.0","","76","","","","35","","44","","2.4","","102.72","","","","-36","","Snow,Blowing Snow"
"-94.07","58.74","CHURCHILL A","5060605","2022-12-21 23:00","2022","12","21","23:00","-20.6","","-23.8","","76","","","","35","","38","","2.4","","102.74","","","","-35","","Snow,Blowing Snow"
"-94.07","58.74","CHURCHILL A","5060605","2022-12-22 00:00","2022","12","22","00:00","-20.4","","-23.6","","76","","","","35","","44","","2.4","","102.75","","","","-35","","Snow,Blowing Snow"
"-94.07","58.74","CHURCHILL A","5060605","2022-12-22 01:00","2022","12","22","01:00","-20.6","","-23.8","","76","","","","35","","40","","2.4","","102.73","","","","-35","","Snow,Blowing Snow"
"-94.07","58.74","CHURCHILL A","5060605","2022-12-22 02:00","2022","12","22","02:00","-21.2","","-24.5","","75","","","","35","","43","","3.2","","102.76","","","","-36","","Snow,Blowing Snow"
"-94.07","58.74","CHURCHILL A","5060605","2022-12-22 03:00","2022","12","22","03:00","-21.2","","-24.5","","75","","","","35","","43","","3.2","","102.74","","","","-36","","Snow,Blowing Snow"
"-94.07","58.74","CHURCHILL A","5060605","2022-12-22 04:00","2022","12","22","04:00","-21.4","","-24.7","","75","","","","35","","41","","6.4","","102.73","","","","-36","","Snow,Blowing Snow"
"-94.07","58.74","CHURCHILL A","5060605","2022-12-22 05:00","2022","12","22","05:00","-20.9","","-24.2","","75","","","","35","","43","","6.4","","102.73","","","","-36","","Snow,Blowing Snow"
"-94.07","58.74","CHURCHILL A","5060605","2022-12-22 06:00","2022","12","22","06:00","-20.7","","-24.0","","75","","","","35","","39","","4.8","","102.72","","","","-35","","Snow,Blowing Snow"
"-94.07","58.74","CHURCHILL A","5060605","2022-12-22 07:00","2022","12","22","07:00","-20.7","","-23.9","","76","","","","35","","41","","4.8","","102.72","","","","-35","","Snow,Blowing Snow"
"-94.07","58.74","CHURCHILL A","5060605","2022-12-22 08:00","2022","12","22","08:00","-20.8","","-24.1","","75","","","","35","","40","","4.8","","102.71","","","","-35","","Snow,Blowing Snow"
"-94.07","58.74","CHURCHILL A","5060605","2022-12-22 09:00","2022","12","22","09:00","-20.9","","-24.2","","75","","","","35","","40","","4.8","","102.71","","","","-35","","Snow,Blowing Snow"
"-94.07","58.74","CHURCHILL A","5060605","2022-12-22 10:00","2022","12","22","10:00","-21.0","","-24.3","","75","","","","35","","42","","4.8","","102.70","","","","-36","","Snow,Blowing Snow"
"-94.07","58.74","CHURCHILL A","5060605","2022-12-22 11:00","2022","12","22","11:00","-20.8","","-24.1","","75","","","","35","","37","","4.0","","102.71","","","","-35","","Snow,Blowing Snow"
"-94.07","58.74","CHURCHILL A","5060605","2022-12-22 12:00","2022","12","22","12:00","-20.9","","-24.4","","74","","","","35","","39","","4.0","","102.66","","","","-35","","Snow,Blowing Snow"
"-94.07","58.74","CHURCHILL A","5060605","2022-12-22 13:00","2022","12","22","13:00","-21.1","","-24.6","","74","","","","35","","40","","4.0","","102.65","","","","-36","","Snow,Blowing Snow"
"-94.07","58.74","CHURCHILL A","5060605","2022-12-22 14:00","2022","12","22","14:00","-21.7","","-25.0","","75","","","","34","","37","","4.0","","102.64","","","","-36","","Ice Crystals,Blowing Snow"
"-94.07","58.74","CHURCHILL A","5060605","2022-12-22 15:00","2022","12","22","15:00","-22.0","","-25.3","","75","","","","34","","37","","3.2","","102.63","","","","-36","","Ice Crystals,Blowing Snow"
"-94.07","58.74","CHURCHILL A","5060605","2022-12-22 16:00","2022","12","22","16:00","-22.2","","-25.7","","74","","","","34","","39","","4.8","","102.63","","","","-37","","Ice Crystals,Blowing Snow"
"-94.07","58.74","CHURCHILL A","5060605","2022-12-22 17:00","2022","12","22","17:00","-22.4","","-25.9","","74","","","","34","","41","","6.4","","102.66","","","","-37","","Ice Crystals,Blowing Snow"
"-94.07","58.74","CHURCHILL A","5060605","2022-12-22 18:00","2022","12","22","18:00","-22.6","","-26.0","","74","","","","34","","34","","4.8","","102.65","","","","-37","","Ice Crystals,Blowing Snow"
"-94.07","58.74","CHURCHILL A","5060605","2022-12-22 19:00","2022","12","22","19:00","-22.6","","-26.0","","74","","","","34","","34","","4.8","","102.67","","","","-37","","Ice Crystals,Blowing Snow"
"-94.07","58.74","CHURCHILL A","5060605","2022-12-22 20:00","2022","12","22","20:00","-22.9","","-26.5","","73","","","","34","","38","","6.4","","102.66","","","","-38","","Ice Crystals,Blowing Snow"
"-94.07","58.74","CHURCHILL A","5060605","2022-12-22 21:00","2022","12","22","21:00","-23.3","","-26.9","","73","","","","34","","38","","6.4","","102.68","","","","-38","","Ice Crystals,Blowing Snow"
"-94.07","58.74","CHURCHILL A","5060605","2022-12-22 22:00","2022","12","22","22:00","-23.4","","-26.8","","74","","","","33","","34","","4.8","","102.66","","","","-38","","Ice Crystals,Blowing Snow"
"-94.07","58.74","CHURCHILL A","5060605","2022-12-22 23:00","2022","12","22","23:00","-23.8","","-27.2","","74","","","","33","","35","","6.4","","102.65","","","","-38","","Ice Crystals,Blowing Snow"
"-94.07","58.74","CHURCHILL A","5060605","2022-12-23 00:00","2022","12","23","00:00","-24.1","","-27.7","","73","","","","33","","37","","6.4","","102.68","","","","-39","","Ice Crystals,Blowing Snow"
"-94.07","58.74","CHURCHILL A","5060605","2022-12-23 01:00","2022","12","23","01:00","-24.3","","-28.0","","72","","","","32","","28","","6.4","","102.72","","","","-38","","Ice Crystals,Blowing Snow"
"-94.07","58.74","CHURCHILL A","5060605","2022-12-23 02:00","2022","12","23","02:00","-24.6","","-28.1","","73","","","","32","","33","","8.1","","102.71","","","","-39","","Ice Crystals,Blowing Snow"
"-94.07","58.74","CHURCHILL A","5060605","2022-12-23 03:00","2022","12","23","03:00","-24.8","","-28.5","","72","","","","33","","37","","9.7","","102.73","","","","-40","","Ice Crystals,Blowing Snow"
"-94.07","58.74","CHURCHILL A","5060605","2022-12-23 04:00","2022","12","23","04:00","-24.9","","-28.6","","72","","","","33","","31","","9.7","","102.78","","","","-39","","Ice Crystals,Blowing Snow"
"-94.07","58.74","CHURCHILL A","5060605","2022-12-23 05:00","2022","12","23","05:00","-24.9","","-28.6","","72","","","","33","","35","","16.1","","102.79","","","","-40","","Snow,Blowing Snow"
"-94.07","58.74","CHURCHILL A","5060605","2022-12-23 06:00","2022","12","23","06:00","-25.0","","-28.7","","72","","","","32","","34","","16.1","","102.81","","","","-40","","Snow,Blowing Snow"
"-94.07","58.74","CHURCHILL A","5060605","2022-12-23 07:00","2022","12","23","07:00","-25.4","","-29.2","","71","","","","32","","32","","16.1","","102.86","","","","-40","","Ice Crystals,Blowing Snow"
"-94.07","58.74","CHURCHILL A","5060605","2022-12-23 08:00","2022","12","23","08:00","-25.5","","-29.5","","70","","","","32","","35","","12.9","","102.88","","","","-41","","Ice Crystals,Blowing Snow"
"-94.07","58.74","CHURCHILL A","5060605","2022-12-23 09:00","2022","12","23","09:00","-26.0","","-29.8","","71","","","","32","","31","","12.9","","102.93","","","","-41","","Ice Crystals,Blowing Snow"
"-94.07","58.74","CHURCHILL A","5060605","2022-12-23 10:00","2022","12","23","10:00","-26.3","","-30.2","","70","","","","31","","28","","16.1","","102.96","","","","-40","","Ice Crystals,Blowing Snow"
"-94.07","58.74","CHURCHILL A","5060605","2022-12-23 11:00","2022","12","23","11:00","-26.2","","-30.1","","70","","","","31","","27","","19.3","","102.97","","","","-40","","Ice Crystals,Blowing Snow"
"-94.07","58.74","CHURCHILL A","5060605","2022-12-23 12:00","2022","12","23","12:00","-25.9","","-29.9","","70","","","","31","","29","","19.3","","102.97","","","","-40","","Ice Crystals,Blowing Snow"
"-94.07","58.74","CHURCHILL A","5060605","2022-12-23 13:00","2022","12","23","13:00","-25.9","","-29.9","","70","","","","31","","29","","24.1","","102.96","","","","-40","","Ice Crystals,Blowing Snow"
"-94.07","58.74","CHURCHILL A","5060605","2022-12-23 14:00","2022","12","23","14:00","-25.9","","-29.7","","71","","","","31","","27","","19.3","","102.98","","","","-40","","Ice Crystals,Blowing Snow"
"-94.07","58.74","CHURCHILL A","5060605","2022-12-23 15:00","2022","12","23","15:00","-26.1","","-30.1","","70","","","","31","","29","","19.3","","103.01","","","","-40","","Ice Crystals,Blowing Snow"
"-94.07","58.74","CHURCHILL A","5060605","2022-12-23 16:00","2022","12","23","16:00","-26.4","","-30.4","","70","","","","31","","28","","19.3","","102.99","","","","-41","","Ice Crystals"
"-94.07","58.74","CHURCHILL A","5060605","2022-12-23 17:00","2022","12","23","17:00","-26.5","","-30.4","","70","","","","31","","32","","24.1","","103.05","","","","-41","","Ice Crystals,Blowing Snow"
"-94.07","58.74","CHURCHILL A","5060605","2022-12-23 18:00","2022","12","23","18:00","-26.6","","-30.5","","70","","","","31","","28","","24.1","","103.05","","","","-41","","Ice Crystals,Blowing Snow"
"-94.07","58.74","CHURCHILL A","5060605","2022-12-23 19:00","2022","12","23","19:00","-26.7","","-30.5","","71","","","","32","","28","","19.3","","103.00","","","","-41","","Ice Crystals,Blowing Snow"
"-94.07","58.74","CHURCHILL A","5060605","2022-12-23 20:00","2022","12","23","20:00","-26.6","","-30.4","","71","","","","31","","25","","16.1","","103.00","","","","-40","","Ice Crystals,Blowing Snow"
"-94.07","58.74","CHURCHILL A","5060605","2022-12-23 21:00","2022","12","23","21:00","-26.4","","-30.2","","71","","","","32","","33","","16.1","","102.95","","","","-41","","Ice Crystals,Blowing Snow"
"-94.07","58.74","CHURCHILL A","5060605","2022-12-23 22:00","2022","12","23","22:00","-26.4","","-30.2","","71","","","","32","","30","","16.1","","102.98","","","","-41","","Ice Crystals"
"-94.07","58.74","CHURCHILL A","5060605","2022-12-23 23:00","2022","12","23","23:00","-26.1","","-29.8","","72","","","","31","","28","","12.9","","102.94","","","","-40","","Ice Crystals"
"-94.07","58.74","CHURCHILL A","5060605","2022-12-24 00:00","2022","12","24","00:00","-25.6","","-29.4","","71","","","","33","","38","","9.7","","102.91","","","","-41","","Ice Crystals"
"-94.07","58.74","CHURCHILL A","5060605","2022-12-24 01:00","2022","12","24","01:00","-26.1","","-29.6","","73","","","","33","","35","","6.4","","102.92","","","","-41","","Ice Crystals,Blowing Snow"
"-94.07","58.74","CHURCHILL A","5060605","2022-12-24 02:00","2022","12","24","02:00","-25.6","","-29.4","","71","","","","33","","36","","9.7","","102.91","","","","-41","","Ice Crystals,Blowing Snow"
"-94.07","58.74","CHURCHILL A","5060605","2022-12-24 03:00","2022","12","24","03:00","-25.7","","-29.5","","71","","","","34","","36","","9.7","","102.96","","","","-41","","Ice Crystals,Blowing Snow"
"-94.07","58.74","CHURCHILL A","5060605","2022-12-24 04:00","2022","12","24","04:00","-25.8","","-29.6","","71","","","","33","","32","","9.7","","102.94","","","","-41","","Ice Crystals,Blowing Snow"
"-94.07","58.74","CHURCHILL A","5060605","2022-12-24 05:00","2022","12","24","05:00","-25.9","","-29.7","","71","","","","33","","33","","9.7","","102.88","","","","-41","","Ice Crystals,Blowing Snow"
"-94.07","58.74","CHURCHILL A","5060605","2022-12-24 06:00","2022","12","24","06:00","-26.3","","-30.1","","71","","","","32","","33","","9.7","","102.85","","","","-41","","Ice Crystals,Blowing Snow"
"-94.07","58.74","CHURCHILL A","5060605","2022-12-24 07:00","2022","12","24","07:00","-24.4","","-36.8","","31","","","","32","","35","","9.7","","102.81","","","","-39","","Ice Crystals,Blowing Snow"
"-94.07","58.74","CHURCHILL A","5060605","2022-12-24 08:00","2022","12","24","08:00","-26.3","","-29.9","","72","","","","33","","32","","16.1","","102.84","","","","-41","","Ice Crystals,Blowing Snow"
"-94.07","58.74","CHURCHILL A","5060605","2022-12-24 09:00","2022","12","24","09:00","-26.7","","-30.5","","71","","","","34","","36","","12.9","","102.87","","","","-42","","Ice Crystals,Blowing Snow"
"-94.07","58.74","CHURCHILL A","5060605","2022-12-24 10:00","2022","12","24","10:00","-26.3","","-30.1","","71","","","","32","","34","","9.7","","102.86","","","","-42","","Ice Crystals,Blowing Snow"
"-94.07","58.74","CHURCHILL A","5060605","2022-12-24 11:00","2022","12","24","11:00","-26.4","","-30.2","","71","","","","33","","39","","9.7","","102.84","","","","-43","","Ice Crystals,Blowing Snow"
"-94.07","58.74","CHURCHILL A","5060605","2022-12-24 12:00","2022","12","24","12:00","-26.6","","-30.2","","72","","","","32","","37","","12.9","","102.70","","","","-42","","Ice Crystals,Blowing Snow"
"-94.07","58.74","CHURCHILL A","5060605","2022-12-24 13:00","2022","12","24","13:00","-26.8","","-30.6","","71","","","","32","","37","","19.3","","102.62","","","","-43","","Ice Crystals,Blowing Snow"
"-94.07","58.74","CHURCHILL A","5060605","2022-12-24 14:00","2022","12","24","14:00","-26.5","","-30.3","","71","","","","32","","37","","19.3","","102.56","","","","-42","","Ice Crystals,Blowing Snow"
"-94.07","58.74","CHURCHILL A","5060605","2022-12-24 15:00","2022","12","24","15:00","-26.9","","-30.5","","72","","","","34","","30","","19.3","","102.63","","","","-42","","Ice Crystals,Blowing Snow"
"-94.07","58.74","CHURCHILL A","5060605","2022-12-24 16:00","2022","12","24","16:00","-27.3","","-30.9","","72","","","","33","","35","","24.1","","102.64","","","","-43","","Ice Crystals,Blowing Snow"
"-94.07","58.74","CHURCHILL A","5060605","2022-12-24 17:00","2022","12","24","17:00","-27.1","","-30.6","","73","","","","32","","30","","24.1","","102.55","","","","-42","","Ice Crystals,Blowing Snow"
"-94.07","58.74","CHURCHILL A","5060605","2022-12-24 18:00","2022","12","24","18:00","-27.5","","-31.1","","72","","","","32","","28","","24.1","","102.50","","","","-42","","Ice Crystals,Blowing Snow"
"-94.07","58.74","CHURCHILL A","5060605","2022-12-24 19:00","2022","12","24","19:00","-27.6","","-31.2","","72","","","","33","","32","","24.1","","102.46","","","","-43","","Ice Crystals,Blowing Snow"
"-94.07","58.74","CHURCHILL A","5060605","2022-12-24 20:00","2022","12","24","20:00","-27.8","","-31.4","","72","","","","33","","27","","24.1","","102.39","","","","-42","","Ice Crystals,Blowing Snow"
"-94.07","58.74","CHURCHILL A","5060605","2022-12-24 21:00","2022","12","24","21:00","-27.8","","-31.4","","72","","","","32","","31","","24.1","","102.28","","","","-43","","Ice Crystals,Blowing Snow"
"-94.07","58.74","CHURCHILL A","5060605","2022-12-24 22:00","2022","12","24","22:00","-28.0","","-31.6","","72","","","","32","","28","","24.1","","102.25","","","","-43","","Ice Crystals,Blowing Snow"
"-94.07","58.74","CHURCHILL A","5060605","2022-12-24 23:00","2022","12","24","23:00","-28.0","","-31.6","","72","","","","33","","30","","24.1","","102.16","","","","-43","","Ice Crystals,Blowing Snow"
"-94.07","58.74","CHURCHILL A","5060605","2022-12-25 00:00","2022","12","25","00:00","-27.5","","-31.0","","73","","","","33","","27","","12.9","","102.06","","","","-42","","Ice Crystals,Blowing Snow"
"-94.07","58.74","CHURCHILL A","5060605","2022-12-25 01:00","2022","12","25","01:00","-27.2","","-30.5","","74","","","","33","","29","","6.4","","101.99","","","","-42","","Ice Crystals,Blowing Snow"
"-94.07","58.74","CHURCHILL A","5060605","2022-12-25 02:00","2022","12","25","02:00","-27.2","","-30.7","","73","","","","32","","27","","6.4","","101.93","","","","-41","","Ice Crystals"
"-94.07","58.74","CHURCHILL A","5060605","2022-12-25 03:00","2022","12","25","03:00","-27.6","","-31.2","","72","","","","31","","23","","8.1","","101.85","","","","-41","","Ice Crystals"
"-94.07","58.74","CHURCHILL A","5060605","2022-12-25 04:00","2022","12","25","04:00","-28.0","","-31.6","","72","","","","32","","32","","9.7","","101.81","","","","-43","","Ice Crystals"
"-94.07","58.74","CHURCHILL A","5060605","2022-12-25 05:00","2022","12","25","05:00","-28.2","","-31.8","","72","","","","33","","30","","16.1","","101.78","","","","-43","","Ice Crystals"
"-94.07","58.74","CHURCHILL A","5060605","2022-12-25 06:00","2022","12","25","06:00","-28.4","","-32.0","","72","","","","33","","29","","16.1","","101.76","","","","-43","","Ice Crystals"
"-94.07","58.74","CHURCHILL A","5060605","2022-12-25 07:00","2022","12","25","07:00","-28.4","","-32.0","","72","","","","32","","29","","16.1","","101.76","","","","-43","","Ice Crystals,Blowing Snow"
"-94.07","58.74","CHURCHILL A","5060605","2022-12-25 08:00","2022","12","25","08:00","-28.1","","-31.7","","72","","","","32","","28","","9.7","","101.71","","","","-43","","Ice Crystals,Blowing Snow"
"-94.07","58.74","CHURCHILL A","5060605","2022-12-25 09:00","2022","12","25","09:00","-27.6","","-31.1","","73","","","","32","","28","","8.1","","101.65","","","","-42","","Ice Crystals,Blowing Snow"
"-94.07","58.74","CHURCHILL A","5060605","2022-12-25 10:00","2022","12","25","10:00","-26.7","","-30.2","","73","","","","31","","30","","9.7","","101.63","","","","-41","","Ice Crystals,Blowing Snow"
"-94.07","58.74","CHURCHILL A","5060605","2022-12-25 11:00","2022","12","25","11:00","-26.4","","-29.9","","73","","","","31","","36","","8.1","","101.65","","","","-42","","Ice Crystals,Blowing Snow"
"-94.07","58.74","CHURCHILL A","5060605","2022-12-25 12:00","2022","12","25","12:00","-25.9","","-29.3","","74","","","","32","","28","","6.4","","101.61","","","","-40","","Ice Crystals,Blowing Snow"
"-94.07","58.74","CHURCHILL A","5060605","2022-12-25 13:00","2022","12","25","13:00","-26.4","","-29.9","","73","","","","32","","36","","3.2","","101.61","","","","-42","","Ice Crystals,Blowing Snow"
"-94.07","58.74","CHURCHILL A","5060605","2022-12-25 14:00","2022","12","25","14:00","-27.4","","-31.0","","72","","","","31","","36","","19.3","","101.60","","","","-43","","Ice Crystals,Blowing Snow"
"-94.07","58.74","CHURCHILL A","5060605","2022-12-25 15:00","2022","12","25","15:00","-28.1","","-31.7","","72","","","","32","","34","","12.9","","101.65","","","","-44","","Ice Crystals,Blowing Snow"
"-94.07","58.74","CHURCHILL A","5060605","2022-12-25 16:00","2022","12","25","16:00","-28.8","","-32.5","","71","","","","32","","35","","4.8","","101.63","","","","-45","","Ice Crystals,Blowing Snow"
"-94.07","58.74","CHURCHILL A","5060605","2022-12-25 17:00","2022","12","25","17:00","-29.6","","-33.5","","70","","","","32","","33","","19.3","","101.61","","","","-46","","Ice Crystals,Blowing Snow"
"-94.07","58.74","CHURCHILL A","5060605","2022-12-25 18:00","2022","12","25","18:00","-29.8","","-33.6","","70","","","","32","","39","","19.3","","101.59","","","","-47","","Ice Crystals,Blowing Snow"
"-94.07","58.74","CHURCHILL A","5060605","2022-12-25 19:00","2022","12","25","19:00","-30.1","","-34.1","","69","","","","31","","38","","12.9","","101.56","","","","-47","","Ice Crystals,Blowing Snow"
"-94.07","58.74","CHURCHILL A","5060605","2022-12-25 20:00","2022","12","25","20:00","-30.3","","-34.4","","68","","","","32","","37","","12.9","","101.55","","","","-47","","Ice Crystals,Blowing Snow"
"-94.07","58.74","CHURCHILL A","5060605","2022-12-25 21:00","2022","12","25","21:00","-30.2","","-34.3","","68","","","","32","","38","","16.1","","101.44","","","","-47","","Ice Crystals,Blowing Snow"
"-94.07","58.74","CHURCHILL A","5060605","2022-12-25 22:00","2022","12","25","22:00","-30.1","","-34.2","","68","","","","32","","35","","6.4","","101.41","","","","-47","","Ice Crystals,Blowing Snow"
"-94.07","58.74","CHURCHILL A","5060605","2022-12-25 23:00","2022","12","25","23:00","-29.8","","-33.8","","69","","","","31","","37","","4.8","","101.37","","","","-47","","Ice Crystals,Blowing Snow"
"-94.07","58.74","CHURCHILL A","5060605","2022-12-26 00:00","2022","12","26","00:00","-29.9","","-34.0","","69","","","","31","","39","","4.0","","101.35","","","","-47","","Snow,Ice Crystals,Blowing Snow"
"-94.07","58.74","CHURCHILL A","5060605","2022-12-26 01:00","2022","12","26","01:00","-29.8","","-33.8","","69","","","","31","","41","","4.0","","101.31","","","","-47","","Snow,Ice Crystals,Blowing Snow"
"-94.07","58.74","CHURCHILL A","5060605","2022-12-26 02:00","2022","12","26","02:00","-29.5","","-33.7","","68","","","","31","","34","","4.0","","101.30","","","","-46","","Snow,Ice Crystals,Blowing Snow"
"-94.07","58.74","CHURCHILL A","5060605","2022-12-26 03:00","2022","12","26","03:00","-29.5","","-33.5","","69","","","","31","","40","","4.8","","101.22","","","","-47","","Snow,Ice Crystals,Blowing Snow"
"-94.07","58.74","CHURCHILL A","5060605","2022-12-26 04:00","2022","12","26","04:00"
"-94.07","58.74","CHURCHILL A","5060605","2022-12-26 05:00","2022","12","26","05:00"
"-94.07","58.74","CHURCHILL A","5060605","2022-12-26 06:00","2022","12","26","06:00","-29.7","","-33.9","","68","","","","31","","36","","6.4","","101.24","","","","-46","","Snow,Ice Crystals,Blowing Snow"
"-94.07","58.74","CHURCHILL A","5060605","2022-12-26 07:00","2022","12","26","07:00","-29.5","","-33.7","","68","","","","31","","37","","6.4","","101.16","","","","-46","","Ice Crystals,Blowing Snow"
"-94.07","58.74","CHURCHILL A","5060605","2022-12-26 08:00","2022","12","26","08:00","-29.3","","-33.3","","69","","","","32","","36","","4.0","","101.11","","","","-46","","Ice Crystals,Blowing Snow"
"-94.07","58.74","CHURCHILL A","5060605","2022-12-26 09:00","2022","12","26","09:00","-29.3","","-33.5","","68","","","","31","","33","","1.6","","101.05","","","","-45","","Ice Crystals,Blowing Snow"
"-94.07","58.74","CHURCHILL A","5060605","2022-12-26 10:00","2022","12","26","10:00","-29.0","","-33.2","","68","","","","31","","35","","4.0","","101.02","","","","-45","","Ice Crystals,Blowing Snow"
"-94.07","58.74","CHURCHILL A","5060605","2022-12-26 11:00","2022","12","26","11:00","-28.4","","-32.4","","69","","","","31","","37","","3.2","","101.00","","","","-45","","Ice Crystals,Blowing Snow"
"-94.07","58.74","CHURCHILL A","5060605","2022-12-26 12:00","2022","12","26","12:00","-28.0","","-32.0","","69","","","","31","","32","","3.2","","100.99","","","","-43","","Ice Crystals,Blowing Snow"
"-94.07","58.74","CHURCHILL A","5060605","2022-12-26 13:00","2022","12","26","13:00","-27.5","","-31.6","","69","","","","31","","32","","3.2","","100.99","","","","-43","","Ice Crystals,Blowing Snow"
"-94.07","58.74","CHURCHILL A","5060605","2022-12-26 14:00","2022","12","26","14:00","-27.3","","-31.1","","71","","","","30","","31","","1.6","","101.02","","","","-42","","Ice Crystals,Blowing Snow"
"-94.07","58.74","CHURCHILL A","5060605","2022-12-26 15:00","2022","12","26","15:00","-26.5","","-30.3","","71","","","","31","","33","","1.6","","100.95","","","","-42","","Ice Crystals,Blowing Snow"
"-94.07","58.74","CHURCHILL A","5060605","2022-12-26 16:00","2022","12","26","16:00","-25.9","","-29.7","","71","","","","31","","32","","2.4","","101.02","","","","-41","","Ice Crystals,Blowing Snow"
"-94.07","58.74","CHURCHILL A","5060605","2022-12-26 17:00","2022","12","26","17:00","-26.1","","-29.9","","71","","","","31","","31","","8.1","","101.00","","","","-41","","Ice Crystals,Blowing Snow"
"-94.07","58.74","CHURCHILL A","5060605","2022-12-26 18:00","2022","12","26","18:00","-26.2","","-30.1","","70","","","","31","","31","","9.7","","100.99","","","","-41","","Ice Crystals,Blowing Snow"
"-94.07","58.74","CHURCHILL A","5060605","2022-12-26 19:00","2022","12","26","19:00","-25.4","","-29.2","","71","","","","33","","30","","16.1","","100.93","","","","-40","","Ice Crystals,Blowing Snow"
"-94.07","58.74","CHURCHILL A","5060605","2022-12-26 20:00","2022","12","26","20:00","-24.8","","-28.8","","70","","","","32","","24","","16.1","","100.88","","","","-38","","Ice Crystals,Blowing Snow"
"-94.07","58.74","CHURCHILL A","5060605","2022-12-26 21:00","2022","12","26","21:00","-25.9","","-29.7","","71","","","","30","","28","","12.9","","100.92","","","","-40","","Ice Crystals,Blowing Snow"
"-94.07","58.74","CHURCHILL A","5060605","2022-12-26 22:00","2022","12","26","22:00","-26.2","","-30.1","","70","","","","31","","28","","16.1","","100.96","","","","-40","","Ice Crystals,Blowing Snow"
"-94.07","58.74","CHURCHILL A","5060605","2022-12-26 23:00","2022","12","26","23:00","-26.4","","-30.5","","69","","","","31","","23","","16.1","","100.96","","","","-39","","Ice Crystals,Blowing Snow"
"-94.07","58.74","CHURCHILL A","5060605","2022-12-27 00:00","2022","12","27","00:00","-26.3","","-30.2","","70","","","","30","","26","","12.9","","100.92","","","","-40","","Ice Crystals,Blowing Snow"
"-94.07","58.74","CHURCHILL A","5060605","2022-12-27 01:00","2022","12","27","01:00","-25.6","","-29.4","","71","","","","31","","25","","12.9","","100.89","","","","-39","","Ice Crystals,Blowing Snow"
"-94.07","58.74","CHURCHILL A","5060605","2022-12-27 02:00","2022","12","27","02:00","-25.5","","-29.3","","71","","","","31","","24","","9.7","","100.86","","","","-38","","Ice Crystals,Blowing Snow"
"-94.07","58.74","CHURCHILL A","5060605","2022-12-27 03:00","2022","12","27","03:00","-26.2","","-29.9","","72","","","","32","","25","","8.1","","100.85","","","","-40","","Ice Crystals,Blowing Snow"
"-94.07","58.74","CHURCHILL A","5060605","2022-12-27 04:00","2022","12","27","04:00","-26.2","","-29.7","","73","","","","33","","16","","9.7","","100.84","","","","-37","","Ice Crystals"
"-94.07","58.74","CHURCHILL A","5060605","2022-12-27 05:00","2022","12","27","05:00","-26.2","","-29.7","","73","","","","32","","14","","12.9","","100.87","","","","-36","","Ice Crystals"
"-94.07","58.74","CHURCHILL A","5060605","2022-12-27 06:00","2022","12","27","06:00","-26.8","","-30.3","","73","","","","30","","17","","9.7","","100.83","","","","-38","","Ice Crystals"
"-94.07","58.74","CHURCHILL A","5060605","2022-12-27 07:00","2022","12","27","07:00","-27.2","","-30.7","","73","","","","31","","16","","12.9","","100.87","","","","-38","","Ice Crystals"
"-94.07","58.74","CHURCHILL A","5060605","2022-12-27 08:00","2022","12","27","08:00","-27.4","","-31.0","","72","","","","31","","18","","24.1","","100.88","","","","-39","","Ice Crystals"
"-94.07","58.74","CHURCHILL A","5060605","2022-12-27 09:00","2022","12","27","09:00","-27.6","","-31.1","","73","","","","30","","13","","19.3","","100.86","","","","-38","","Ice Crystals"
"-94.07","58.74","CHURCHILL A","5060605","2022-12-27 10:00","2022","12","27","10:00","-27.8","","-31.4","","72","","","","30","","19","","19.3","","100.89","","","","-40","","Ice Crystals"
"-94.07","58.74","CHURCHILL A","5060605","2022-12-27 11:00","2022","12","27","11:00","-27.7","","-31.4","","71","","","","31","","20","","24.1","","100.92","","","","-40","","Ice Crystals"
"-94.07","58.74","CHURCHILL A","5060605","2022-12-27 12:00","2022","12","27","12:00","-27.1","","-30.9","","71","","","","30","","14","","24.1","","100.91","","","","-37","","Ice Crystals"
"-94.07","58.74","CHURCHILL A","5060605","2022-12-27 13:00","2022","12","27","13:00","-26.8","","-30.4","","72","","","","29","","15","","16.1","","100.91","","","","-37","","Ice Crystals"
"-94.07","58.74","CHURCHILL A","5060605","2022-12-27 14:00","2022","12","27","14:00","-26.9","","-30.5","","72","","","","29","","19","","12.9","","100.91","","","","-39","","Ice Crystals"
"-94.07","58.74","CHURCHILL A","5060605","2022-12-27 15:00","2022","12","27","15:00","-26.2","","-29.5","","74","","","","30","","18","","16.1","","100.94","","","","-38","","Ice Crystals"
"-94.07","58.74","CHURCHILL A","5060605","2022-12-27 16:00","2022","12","27","16:00","-25.9","","-29.1","","75","","","","31","","18","","19.3","","100.98","","","","-37","","Ice Crystals"
"-94.07","58.74","CHURCHILL A","5060605","2022-12-27 17:00","2022","12","27","17:00","-26.0","","-29.2","","75","","","","31","","14","","24.1","","101.02","","","","-36","","Ice Crystals"
"-94.07","58.74","CHURCHILL A","5060605","2022-12-27 18:00","2022","12","27","18:00","-26.3","","-29.5","","75","","","","31","","12","","19.3","","101.06","","","","-36","","Ice Crystals"
"-94.07","58.74","CHURCHILL A","5060605","2022-12-27 19:00","2022","12","27","19:00","-26.5","","-29.8","","74","","","","30","","12","","19.3","","101.08","","","","-36","","Ice Crystals"
"-94.07","58.74","CHURCHILL A","5060605","2022-12-27 20:00","2022","12","27","20:00","-27.1","","-30.4","","74","","","","28","","12","","19.3","","101.08","","","","-37","","Ice Crystals"
"-94.07","58.74","CHURCHILL A","5060605","2022-12-27 21:00","2022","12","27","21:00","-27.3","","-30.8","","73","","","","29","","10","","24.1","","101.06","","","","-36","","Ice Crystals"
"-94.07","58.74","CHURCHILL A","5060605","2022-12-27 22:00","2022","12","27","22:00","-27.6","","-31.1","","73","","","","30","","14","","24.1","","101.08","","","","-38","","Ice Crystals"
"-94.07","58.74","CHURCHILL A","5060605","2022-12-27 23:00","2022","12","27","23:00","-27.7","","-31.1","","73","","","","30","","17","","24.1","","101.08","","","","-39","","Ice Crystals"
"-94.07","58.74","CHURCHILL A","5060605","2022-12-28 00:00","2022","12","28","00:00","-27.7","","-31.1","","73","","","","30","","13","","24.1","","101.21","","","","-38","","Ice Crystals"
"-94.07","58.74","CHURCHILL A","5060605","2022-12-28 01:00","2022","12","28","01:00","-27.7","","-31.1","","73","","","","30","","15","","19.3","","101.27","","","","-39","","Ice Crystals"
"-94.07","58.74","CHURCHILL A","5060605","2022-12-28 02:00","2022","12","28","02:00","-28.7","","-32.3","","72","","","","30","","15","","19.3","","101.27","","","","-40","","Ice Crystals"
"-94.07","58.74","CHURCHILL A","5060605","2022-12-28 03:00","2022","12","28","03:00","-28.8","","-32.4","","72","","","","29","","17","","19.3","","101.30","","","","-41","","Ice Crystals"
"-94.07","58.74","CHURCHILL A","5060605","2022-12-28 04:00","2022","12","28","04:00","-29.2","","-32.8","","72","","","","30","","15","","16.1","","101.34","","","","-40","","Ice Crystals"
"-94.07","58.74","CHURCHILL A","5060605","2022-12-28 05:00","2022","12","28","05:00","-28.7","","-32.3","","72","","","","29","","13","","19.3","","101.31","","","","-39","","Ice Crystals"
"-94.07","58.74","CHURCHILL A","5060605","2022-12-28 06:00","2022","12","28","06:00","-28.3","","-31.9","","72","","","","30","","10","","16.1","","101.37","","","","-37","","Ice Crystals"
"-94.07","58.74","CHURCHILL A","5060605","2022-12-28 07:00","2022","12","28","07:00","-28.8","","-32.4","","72","","","","29","","12","","19.3","","101.38","","","","-39","","Ice Crystals"
"-94.07","58.74","CHURCHILL A","5060605","2022-12-28 08:00","2022","12","28","08:00","-28.5","","-32.1","","72","","","","27","","7","","24.1","","101.42","","","","-36","","Ice Crystals"
"-94.07","58.74","CHURCHILL A","5060605","2022-12-28 09:00","2022","12","28","09:00","-29.9","","-33.6","","71","","","","24","","10","","24.1","","101.49","","","","-39","","Ice Crystals"
"-94.07","58.74","CHURCHILL A","5060605","2022-12-28 10:00","2022","12","28","10:00","-29.6","","-33.3","","71","","","","30","","9","","24.1","","101.51","","","","-38","","Ice Crystals"
"-94.07","58.74","CHURCHILL A","5060605","2022-12-28 11:00","2022","12","28","11:00","-28.2","","-31.8","","72","","","","29","","13","","24.1","","101.54","","","","-38","","NA"
"-94.07","58.74","CHURCHILL A","5060605","2022-12-28 12:00","2022","12","28","12:00","-26.8","","-30.3","","73","","","","30","","14","","24.1","","101.52","","","","-37","","Cloudy"
"-94.07","58.74","CHURCHILL A","5060605","2022-12-28 13:00","2022","12","28","13:00","-25.9","","-29.3","","74","","","","30","","13","","24.1","","101.52","","","","-36","","NA"
"-94.07","58.74","CHURCHILL A","5060605","2022-12-28 14:00","2022","12","28","14:00","-25.5","","-28.9","","74","","","","31","","11","","24.1","","101.50","","","","-34","","NA"
"-94.07","58.74","CHURCHILL A","5060605","2022-12-28 15:00","2022","12","28","15:00","-25.3","","-28.7","","74","","","","28","","8","","24.1","","101.54","","","","-32","","Cloudy"
"-94.07","58.74","CHURCHILL A","5060605","2022-12-28 16:00","2022","12","28","16:00","-23.9","","-27.0","","76","","","","30","","10","","24.1","","101.55","","","","-32","","NA"
"-94.07","58.74","CHURCHILL A","5060605","2022-12-28 17:00","2022","12","28","17:00","-23.7","","-26.8","","76","","","","29","","7","","24.1","","101.59","","","","-30","","NA"
"-94.07","58.74","CHURCHILL A","5060605","2022-12-28 18:00","2022","12","28","18:00","-22.7","","-25.7","","77","","","","34","","7","","24.1","","101.58","","","","-29","","Cloudy"
"-94.07","58.74","CHURCHILL A","5060605","2022-12-28 19:00","2022","12","28","19:00","-21.8","","-24.8","","77","","","","35","","3","","24.1","","101.58","","","","-25","","NA"
"-94.07","58.74","CHURCHILL A","5060605","2022-12-28 20:00","2022","12","28","20:00","-20.6","","-23.5","","78","","","","34","","3","","19.3","","101.57","","","","-23","","Ice Crystals"
"-94.07","58.74","CHURCHILL A","5060605","2022-12-28 21:00","2022","12","28","21:00","-20.6","","-23.5","","78","","","","30","","7","","19.3","","101.56","","","","-26","","Ice Crystals"
"-94.07","58.74","CHURCHILL A","5060605","2022-12-28 22:00","2022","12","28","22:00","-19.1","","-21.7","","80","","","","3","","5","","19.3","","101.53","","","","-23","","Ice Crystals"
"-94.07","58.74","CHURCHILL A","5060605","2022-12-28 23:00","2022","12","28","23:00","-17.7","","-20.2","","81","","","","7","","9","","24.1","","101.54","","","","-24","","Ice Crystals"
"-94.07","58.74","CHURCHILL A","5060605","2022-12-29 00:00","2022","12","29","00:00","-17.1","","-19.5","","82","","","","8","","10","","24.1","","101.51","","","","-24","","Ice Crystals"
"-94.07","58.74","CHURCHILL A","5060605","2022-12-29 01:00","2022","12","29","01:00","-16.7","","-19.1","","82","","","","7","","10","","24.1","","101.49","","","","-23","","Ice Crystals"
"-94.07","58.74","CHURCHILL A","5060605","2022-12-29 02:00","2022","12","29","02:00","-16.0","","-18.4","","82","","","","7","","17","","24.1","","101.44","","","","-25","","Ice Crystals"
"-94.07","58.74","CHURCHILL A","5060605","2022-12-29 03:00","2022","12","29","03:00","-15.6","","-17.9","","83","","","","7","","15","","24.1","","101.46","","","","-24","","Ice Crystals"
"-94.07","58.74","CHURCHILL A","5060605","2022-12-29 04:00","2022","12","29","04:00","-15.1","","-17.4","","83","","","","7","","16","","24.1","","101.43","","","","-23","","Ice Crystals"
"-94.07","58.74","CHURCHILL A","5060605","2022-12-29 05:00","2022","12","29","05:00","-14.5","","-16.6","","84","","","","8","","19","","24.1","","101.40","","","","-23","","Ice Crystals"
"-94.07","58.74","CHURCHILL A","5060605","2022-12-29 06:00","2022","12","29","06:00","-14.3","","-16.4","","84","","","","7","","19","","24.1","","101.41","","","","-23","","Ice Crystals"
"-94.07","58.74","CHURCHILL A","5060605","2022-12-29 07:00","2022","12","29","07:00","-13.9","","-16.1","","84","","","","9","","18","","24.1","","101.39","","","","-22","","Snow"
"-94.07","58.74","CHURCHILL A","5060605","2022-12-29 08:00","2022","12","29","08:00","-13.7","","-15.7","","85","","","","9","","18","","24.1","","101.39","","","","-22","","Snow"
"-94.07","58.74","CHURCHILL A","5060605","2022-12-29 09:00","2022","12","29","09:00","-13.4","","-15.4","","85","","","","8","","18","","24.1","","101.36","","","","-22","","Snow"
"-94.07","58.74","CHURCHILL A","5060605","2022-12-29 10:00","2022","12","29","10:00","-13.0","","-14.9","","86","","","","8","","17","","24.1","","101.35","","","","-21","","Snow"
"-94.07","58.74","CHURCHILL A","5060605","2022-12-29 11:00","2022","12","29","11:00","-12.6","","-14.5","","86","","","","8","","16","","24.1","","101.34","","","","-20","","Snow"
"-94.07","58.74","CHURCHILL A","5060605","2022-12-29 12:00","2022","12","29","12:00","-12.5","","-14.4","","86","","","","9","","21","","24.1","","101.30","","","","-21","","Cloudy"
"-94.07","58.74","CHURCHILL A","5060605","2022-12-29 13:00","2022","12","29","13:00","-12.5","","-14.4","","86","","","","8","","21","","24.1","","101.24","","","","-21","","NA"
"-94.07","58.74","CHURCHILL A","5060605","2022-12-29 14:00","2022","12","29","14:00","-12.4","","-14.3","","86","","","","9","","22","","24.1","","101.21","","","","-21","","NA"
"-94.07","58.74","CHURCHILL A","5060605","2022-12-29 15:00","2022","12","29","15:00","-12.3","","-14.2","","86","","","","8","","21","","24.1","","101.21","","","","-21","","Cloudy"
"-94.07","58.74","CHURCHILL A","5060605","2022-12-29 16:00","2022","12","29","16:00","-12.4","","-14.3","","86","","","","7","","19","","24.1","","101.21","","","","-21","","NA"
"-94.07","58.74","CHURCHILL A","5060605","2022-12-29 17:00","2022","12","29","17:00","-12.3","","-14.2","","86","","","","8","","23","","19.3","","101.19","","","","-21","","Snow"
"-94.07","58.74","CHURCHILL A","5060605","2022-12-29 18:00","2022","12","29","18:00","-12.7","","-14.7","","85","","","","12","","27","","19.3","","101.20","","","","-23","","Snow"
"-94.07","58.74","CHURCHILL A","5060605","2022-12-29 19:00","2022","12","29","19:00","-13.1","","-15.1","","85","","","","11","","13","","19.3","","101.22","","","","-20","","Snow"
"-94.07","58.74","CHURCHILL A","5060605","2022-12-29 20:00","2022","12","29","20:00","-12.7","","-14.6","","86","","","","8","","18","","19.3","","101.18","","","","-21","","Snow"
"-94.07","58.74","CHURCHILL A","5060605","2022-12-29 21:00","2022","12","29","21:00","-12.8","","-14.7","","86","","","","9","","21","","16.1","","101.14","","","","-22","","Snow"
"-94.07","58.74","CHURCHILL A","5060605","2022-12-29 22:00","2022","12","29","22:00","-13.3","","-15.3","","85","","","","8","","16","","19.3","","101.12","","","","-21","","Snow"
"-94.07","58.74","CHURCHILL A","5060605","2022-12-29 23:00","2022","12","29","23:00","-13.2","","-15.2","","85","","","","8","","18","","19.3","","101.09","","","","-21","","Snow"
"-94.07","58.74","CHURCHILL A","5060605","2022-12-30 00:00","2022","12","30","00:00","-13.5","","-15.5","","85","","","","9","","14","","19.3","","101.05","","","","-21","","Snow"
"-94.07","58.74","CHURCHILL A","5060605","2022-12-30 01:00","2022","12","30","01:00","-13.3","","-15.3","","85","","","","9","","14","","19.3","","101.01","","","","-21","","Snow"
"-94.07","58.74","CHURCHILL A","5060605","2022-12-30 02:00","2022","12","30","02:00","-13.1","","-15.1","","85","","","","10","","15","","19.3","","101.01","","","","-21","","Snow"
"-94.07","58.74","CHURCHILL A","5060605","2022-12-30 03:00","2022","12","30","03:00","-13.6","","-15.6","","85","","","","11","","17","","19.3","","100.99","","","","-22","","Snow"
"-94.07","58.74","CHURCHILL A","5060605","2022-12-30 04:00","2022","12","30","04:00","-13.7","","-15.7","","85","","","","8","","14","","24.1","","100.95","","","","-21","","Snow"
"-94.07","58.74","CHURCHILL A","5060605","2022-12-30 05:00","2022","12","30","05:00","-13.6","","-15.6","","85","","","","7","","10","","24.1","","100.91","","","","-20","","Snow"
"-94.07","58.74","CHURCHILL A","5060605","2022-12-30 06:00","2022","12","30","06:00","-13.3","","-15.3","","85","","","","7","","12","","24.1","","100.88","","","","-20","","Snow"
"-94.07","58.74","CHURCHILL A","5060605","2022-12-30 07:00","2022","12","30","07:00","-13.8","","-15.8","","85","","","","9","","19","","24.1","","100.84","","","","-22","","Snow"
"-94.07","58.74","CHURCHILL A","5060605","2022-12-30 08:00","2022","12","30","08:00","-13.9","","-15.9","","85","","","","7","","11","","24.1","","100.82","","","","-20","","Snow"
"-94.07","58.74","CHURCHILL A","5060605","2022-12-30 09:00","2022","12","30","09:00","-13.6","","-15.6","","85","","","","9","","10","","19.3","","100.81","","","","-20","","Snow"
"-94.07","58.74","CHURCHILL A","5060605","2022-12-30 10:00","2022","12","30","10:00","-13.5","","-15.5","","85","","","","4","","7","","4.8","","100.79","","","","-18","","Snow"
"-94.07","58.74","CHURCHILL A","5060605","2022-12-30 11:00","2022","12","30","11:00","-13.1","","-15.1","","85","","","","3","","9","","4.8","","100.76","","","","-19","","Snow"
"-94.07","58.74","CHURCHILL A","5060605","2022-12-30 12:00","2022","12","30","12:00","-12.7","","-14.6","","86","","","","7","","10","","6.4","","100.74","","","","-18","","Snow"
"-94.07","58.74","CHURCHILL A","5060605","2022-12-30 13:00","2022","12","30","13:00","-12.4","","-14.3","","86","","","","4","","13","","8.1","","100.71","","","","-19","","Snow"
"-94.07","58.74","CHURCHILL A","5060605","2022-12-30 14:00","2022","12","30","14:00","-12.2","","-14.1","","86","","","","3","","13","","9.7","","100.70","","","","-19","","Snow"
"-94.07","58.74","CHURCHILL A","5060605","2022-12-30 15:00","2022","12","30","15:00","-12.3","","-14.2","","86","","","","3","","11","","12.9","","100.71","","","","-18","","Snow"
"-94.07","58.74","CHURCHILL A","5060605","2022-12-30 16:00","2022","12","30","16:00","-12.1","","-14.0","","86","","","","5","","13","","19.3","","100.75","","","","-19","","Snow"
"-94.07","58.74","CHURCHILL A","5060605","2022-12-30 17:00","2022","12","30","17:00","-12.3","","-14.2","","86","","","","7","","6","","24.1","","100.75","","","","-16","","Snow"
"-94.07","58.74","CHURCHILL A","5060605","2022-12-30 18:00","2022","12","30","18:00","-12.2","","-14.1","","86","","","","6","","10","","24.1","","100.73","","","","-18","","Snow"
"-94.07","58.74","CHURCHILL A","5060605","2022-12-30 19:00","2022","12","30","19:00","-12.2","","-14.1","","86","","","","8","","14","","24.1","","100.70","","","","-19","","Snow"
"-94.07","58.74","CHURCHILL A","5060605","2022-12-30 20:00","2022","12","30","20:00","-12.4","","-14.3","","86","","","","8","","10","","24.1","","100.71","","","","-18","","Snow"
"-94.07","58.74","CHURCHILL A","5060605","2022-12-30 21:00","2022","12","30","21:00","-12.6","","-14.5","","86","","","","13","","6","","24.1","","100.71","","","","-17","","Snow"
"-94.07","58.74","CHURCHILL A","5060605","2022-12-30 22:00","2022","12","30","22:00","-12.7","","-14.6","","86","","","","36","","3","","24.1","","100.75","","","","-15","","Snow"
"-94.07","58.74","CHURCHILL A","5060605","2022-12-30 23:00","2022","12","30","23:00","-12.5","","-14.4","","86","","","","23","","3","","24.1","","100.75","","","","-14","","Snow"
"-94.07","58.74","CHURCHILL A","5060605","2022-12-31 00:00","2022","12","31","00:00","-12.7","","-14.6","","86","","","","36","","1","","24.1","","100.76","","","","-13","","Snow"
"-94.07","58.74","CHURCHILL A","5060605","2022-12-31 01:00","2022","12","31","01:00","-12.9","","-14.8","","86","","","","10","","5","","24.1","","100.77","","","","-16","","Snow"
"-94.07","58.74","CHURCHILL A","5060605","2022-12-31 02:00","2022","12","31","02:00","-12.9","","-14.8","","86","","","","13","","7","","19.3","","100.78","","","","-17","","Snow"
"-94.07","58.74","CHURCHILL A","5060605","2022-12-31 03:00","2022","12","31","03:00","-12.9","","-14.8","","86","","","","12","","7","","9.7","","100.78","","","","-17","","Snow"
"-94.07","58.74","CHURCHILL A","5060605","2022-12-31 04:00","2022","12","31","04:00","-13.4","","-15.4","","85","","","","14","","10","","9.7","","100.79","","","","-19","","Snow"
"-94.07","58.74","CHURCHILL A","5060605","2022-12-31 05:00","2022","12","31","05:00","-13.9","","-15.9","","85","","","","15","","8","","12.9","","100.76","","","","-19","","Snow"
"-94.07","58.74","CHURCHILL A","5060605","2022-12-31 06:00","2022","12","31","06:00","-14.1","","-16.2","","84","","","","17","","7","","19.3","","100.74","","","","-19","","Snow"
"-94.07","58.74","CHURCHILL A","5060605","2022-12-31 07:00","2022","12","31","07:00","-14.5","","-16.6","","84","","","","17","","8","","16.1","","100.71","","","","-20","","Snow"
"-94.07","58.74","CHURCHILL A","5060605","2022-12-31 08:00","2022","12","31","08:00","-14.9","","-17.0","","84","","","","17","","10","","19.3","","100.72","","","","-21","","Snow"
"-94.07","58.74","CHURCHILL A","5060605","2022-12-31 09:00","2022","12","31","09:00","-15.9","","-18.2","","83","","","","16","","15","","24.1","","100.72","","","","-24","","Ice Crystals"
"-94.07","58.74","CHURCHILL A","5060605","2022-12-31 10:00","2022","12","31","10:00","-14.2","","-16.3","","84","","","","16","","16","","24.1","","100.70","","","","-22","","Ice Crystals"
"-94.07","58.74","CHURCHILL A","5060605","2022-12-31 11:00","2022","12","31","11:00","-14.0","","-16.1","","84","","","","16","","16","","24.1","","100.69","","","","-22","","Ice Crystals"
"-94.07","58.74","CHURCHILL A","5060605","2022-12-31 12:00","2022","12","31","12:00","-13.2","","-15.2","","85","","","","16","","15","","16.1","","100.62","","","","-21","","Ice Crystals"
"-94.07","58.74","CHURCHILL A","5060605","2022-12-31 13:00","2022","12","31","13:00","-12.6","","-14.5","","86","","","","16","","18","","12.9","","100.60","","","","-21","","Snow"
"-94.07","58.74","CHURCHILL A","5060605","2022-12-31 14:00","2022","12","31","14:00","-12.3","","-14.2","","86","","","","16","","20","","6.4","","100.56","","","","-21","","Snow"
"-94.07","58.74","CHURCHILL A","5060605","2022-12-31 15:00","2022","12","31","15:00","-12.2","","-14.1","","86","","","","16","","18","","6.4","","100.53","","","","-20","","Snow"
"-94.07","58.74","CHURCHILL A","5060605","2022-12-31 16:00","2022","12","31","16:00","-12.2","","-14.1","","86","","","","16","","18","","4.8","","100.53","","","","-20","","Snow"
"-94.07","58.74","CHURCHILL A","5060605","2022-12-31 17:00","2022","12","31","17:00","-12.1","","-14.0","","86","","","","17","","18","","3.2","","100.48","","","","-20","","Snow"
"-94.07","58.74","CHURCHILL A","5060605","2022-12-31 18:00","2022","12","31","18:00","-12.3","","-14.2","","86","","","","18","","19","","3.2","","100.45","","","","-21","","Snow"
"-94.07","58.74","CHURCHILL A","5060605","2022-12-31 19:00","2022","12","31","19:00","-12.5","","-14.4","","86","","","","19","","16","","9.7","","100.41","","","","-20","","Snow"
"-94.07","58.74","CHURCHILL A","5060605","2022-12-31 20:00","2022","12","31","20:00","-12.6","","-14.5","","86","","","","20","","16","","24.1","","100.38","","","","-20","","Snow"
"-94.07","58.74","CHURCHILL A","5060605","2022-12-31 21:00","2022","12","31","21:00","-12.6","","-14.5","","86","","","","21","","14","","19.3","","100.36","","","","-20","","Snow"
"-94.07","58.74","CHURCHILL A","5060605","2022-12-31 22:00","2022","12","31","22:00","-12.6","","-14.5","","86","","","","23","","13","","12.9","","100.34","","","","-19","","Snow"
"-94.07","58.74","CHURCHILL A","5060605","2022-12-31 23:00","2022","12","31","23:00","-12.8","","-14.8","","85","","","","24","","14","","19.3","","100.35","","","","-20","","Snow"
