"Longitude (x)","Latitude (y)","Station Name","Climate ID","Date/Time (LST)","Year","Month","Day","Time (LST)","Temp (°C)","Temp Flag","Dew Point Temp (°C)","Dew Point Temp Flag","Rel Hum (%)","Rel Hum Flag","Precip. Amount (mm)","Precip. Amount Flag","Wind Dir (10s deg)","Wind Dir Flag","Wind Spd (km/h)","Wind Spd Flag","Visibility (km)","Visibility Flag","Stn Press (kPa)","Stn Press Flag","Hmdx","Hmdx Flag","Wind Chill","Wind Chill Flag","Weather"
"-94.07","58.74","CHURCHILL A","5060605","2022-04-01 00:00","2022","04","01","00:00","-16.5","","-18.5","","85","","","","30","","17","","4.8","","100.80","","","","-25","","Snow"
"-94.07","58.74","CHURCHILL A","5060605","2022-04-01 01:00","2022","04","01","01:00","-16.3","","-18.1","","86","","","","30","","16","","8.1","","100.79","","","","-25","","Snow"
"-94.07","58.74","CHURCHILL A","5060605","2022-04-01 02:00","2022","04","01","02:00","-16.0","","-17.8","","86","","","","30","","16","","8.1","","100.80","","","","-24","","Snow"
"-94.07","58.74","CHURCHILL A","5060605","2022-04-01 03:00","2022","04","01","03:00","-16.1","","-17.9","","86","","","","30","","13","","9.7","","100.77","","","","-24","","Snow"
"-94.07","58.74","CHURCHILL A","5060605","2022-04-01 04:00","2022","04","01","04:00","-16.5","","-18.3","","86","","","","31","","14","","9.7","","100.76","","","","-24","","Snow"
"-94.07","58.74","CHURCHILL A","5060605","2022-04-01 05:00","2022","04","01","05:00","-16.4","","-18.2","","86","","","","27","","8","","19.3","","100.77","","","","-22","","Snow"
"-94.07","58.74","CHURCHILL A","5060605","2022-04-01 06:00","2022","04","01","06:00","-14.6","","-16.2","","88","","","","4","","4","","16.1","","100.83","","","","-17","","Snow"
"-94.07","58.74","CHURCHILL A","5060605","2022-04-01 07:00","2022","04","01","07:00","-13.9","","-15.5","","88","","","","3","","10","","8.1","","100.85","","","","-20","","Snow"
"-94.07","58.74","CHURCHILL A","5060605","2022-04-01 08:00","2022","04","01","08:00","-13.6","","-15.3","","87","","","","4","","9","","8.1","","100.88","","","","-19","","Snow"
"-94.07","58.74","CHURCHILL A","5060605","2022-04-01 09:00","2022","04","01","09:00","-12.2","","-13.9","","87","","","","8","","12","","8.1","","100.89","","","","-19","","Snow"
"-94.07","58.74","CHURCHILL A","5060605","2022-04-01 10:00","2022","04","01","10:00","-11.5","","-14.0","","82","","","","9","","12","","12.9","","100.89","","","","-18","","Snow"
"-94.07","58.74","CHURCHILL A","5060605","2022-04-01 11:00","2022","04","01","11:00","-11.2","","-13.8","","81","","","","9","","15","","9.7","","100.88","","","","-18","","Snow"
"-94.07","58.74","CHURCHILL A","5060605","2022-04-01 12:00","2022","04","01","12:00","-11.2","","-14.0","","80","","","","8","","17","","9.7","","100.90","","","","-19","","Snow"
"-94.07","58.74","CHURCHILL A","5060605","2022-04-01 13:00","2022","04","01","13:00","-10.8","","-14.0","","77","","","","9","","17","","16.1","","100.90","","","","-18","","Snow"
"-94.07","58.74","CHURCHILL A","5060605","2022-04-01 14:00","2022","04","01","14:00","-10.2","","-13.0","","80","","","","8","","15","","16.1","","100.94","","","","-17","","Snow"
"-94.07","58.74","CHURCHILL A","5060605","2022-04-01 15:00","2022","04","01","15:00","-10.2","","-12.7","","82","","","","6","","14","","19.3","","100.95","","","","-17","","Snow"
"-94.07","58.74","CHURCHILL A","5060605","2022-04-01 16:00","2022","04","01","16:00","-10.4","","-12.6","","84","","","","6","","15","","24.1","","100.96","","","","-17","","Snow"
"-94.07","58.74","CHURCHILL A","5060605","2022-04-01 17:00","2022","04","01","17:00","-11.0","","-12.9","","86","","","","9","","13","","19.3","","100.99","","","","-17","","Snow"
"-94.07","58.74","CHURCHILL A","5060605","2022-04-01 18:00","2022","04","01","18:00","-12.2","","-14.1","","86","","","","9","","12","","24.1","","101.03","","","","-19","","Snow"
"-94.07","58.74","CHURCHILL A","5060605","2022-04-01 19:00","2022","04","01","19:00","-13.5","","-15.4","","86","","","","8","","9","","24.1","","101.05","","","","-19","","Snow"
"-94.07","58.74","CHURCHILL A","5060605","2022-04-01 20:00","2022","04","01","20:00","-14.1","","-16.1","","85","","","","8","","12","","24.1","","101.08","","","","-21","","NA"
"-94.07","58.74","CHURCHILL A","5060605","2022-04-01 21:00","2022","04","01","21:00","-14.3","","-17.0","","80","","","","9","","8","","24.1","","101.11","","","","-20","","Clear"
"-94.07","58.74","CHURCHILL A","5060605","2022-04-01 22:00","2022","04","01","22:00","-14.9","","-17.2","","83","","","","8","","10","","24.1","","101.12","","","","-21","","NA"
"-94.07","58.74","CHURCHILL A","5060605","2022-04-01 23:00","2022","04","01","23:00","-15.8","","-17.1","","90","","","","6","","12","","24.1","","101.14","","","","-23","","NA"
"-94.07","58.74","CHURCHILL A","5060605","2022-04-02 00:00","2022","04","02","00:00","-16.3","","-17.7","","89","","","","5","","12","","24.1","","101.12","","","","-24","","Clear"
"-94.07","58.74","CHURCHILL A","5060605","2022-04-02 01:00","2022","04","02","01:00","-16.3","","-17.7","","89","","","","5","","9","","24.1","","101.12","","","","-22","","NA"
"-94.07","58.74","CHURCHILL A","5060605","2022-04-02 02:00","2022","04","02","02:00","-18.0","","-19.9","","85","","","","33","","6","","4.8","","101.14","","","","-23","","Fog"
"-94.07","58.74","CHURCHILL A","5060605","2022-04-02 03:00","2022","04","02","03:00","-17.5","","-19.4","","85","","","","1","","12","","24.1","","101.16","","","","-25","","Clear"
"-94.07","58.74","CHURCHILL A","5060605","2022-04-02 04:00","2022","04","02","04:00","-21.6","","-24.0","","81","","","","29","","12","","24.1","","101.20","","","","-30","","NA"
"-94.07","58.74","CHURCHILL A","5060605","2022-04-02 05:00","2022","04","02","05:00","-21.6","","-24.0","","81","","","","31","","13","","1.0","","101.25","","","","-30","","Fog"
"-94.07","58.74","CHURCHILL A","5060605","2022-04-02 06:00","2022","04","02","06:00","-21.0","","-23.3","","82","","","","29","","13","","9.7","","101.29","","","","-30","","Fog"
"-94.07","58.74","CHURCHILL A","5060605","2022-04-02 07:00","2022","04","02","07:00","-20.5","","-22.8","","82","","","","29","","10","","9.7","","101.30","","","","-28","","Fog"
"-94.07","58.74","CHURCHILL A","5060605","2022-04-02 08:00","2022","04","02","08:00","-19.0","","-21.2","","83","","","","28","","10","","9.7","","101.35","","","","-26","","Fog"
"-94.07","58.74","CHURCHILL A","5060605","2022-04-02 09:00","2022","04","02","09:00","-17.0","","-19.0","","85","","","","31","","10","","9.7","","101.38","","","","-24","","Fog"
"-94.07","58.74","CHURCHILL A","5060605","2022-04-02 10:00","2022","04","02","10:00","-14.4","","-16.1","","87","","","","30","","9","","24.1","","101.35","","","","-20","","NA"
"-94.07","58.74","CHURCHILL A","5060605","2022-04-02 11:00","2022","04","02","11:00","-13.9","","-15.6","","87","","","","29","","11","","24.1","","101.37","","","","-20","","NA"
"-94.07","58.74","CHURCHILL A","5060605","2022-04-02 12:00","2022","04","02","12:00","-12.4","","-14.0","","88","","","","31","","18","","19.3","","101.39","","","","-20","","Cloudy"
"-94.07","58.74","CHURCHILL A","5060605","2022-04-02 13:00","2022","04","02","13:00","-11.7","","-13.3","","88","","","","30","","14","","24.1","","101.41","","","","-19","","Snow"
"-94.07","58.74","CHURCHILL A","5060605","2022-04-02 14:00","2022","04","02","14:00","-10.7","","-13.8","","78","","","","31","","16","","24.1","","101.42","","","","-18","","Snow"
"-94.07","58.74","CHURCHILL A","5060605","2022-04-02 15:00","2022","04","02","15:00","-10.4","","-13.9","","76","","","","32","","14","","24.1","","101.46","","","","-17","","Mostly Cloudy"
"-94.07","58.74","CHURCHILL A","5060605","2022-04-02 16:00","2022","04","02","16:00","-10.4","","-13.7","","77","","","","34","","18","","24.1","","101.50","","","","-18","","NA"
"-94.07","58.74","CHURCHILL A","5060605","2022-04-02 17:00","2022","04","02","17:00","-11.8","","-14.1","","83","","","","36","","18","","24.1","","101.55","","","","-20","","NA"
"-94.07","58.74","CHURCHILL A","5060605","2022-04-02 18:00","2022","04","02","18:00","-13.3","","-15.6","","83","","","","35","","17","","24.1","","101.59","","","","-21","","Mainly Clear"
"-94.07","58.74","CHURCHILL A","5060605","2022-04-02 19:00","2022","04","02","19:00","-15.2","","-17.8","","81","","","","35","","15","","24.1","","101.65","","","","-23","","NA"
"-94.07","58.74","CHURCHILL A","5060605","2022-04-02 20:00","2022","04","02","20:00","-16.1","","-18.2","","84","","","","35","","16","","24.1","","101.69","","","","-25","","NA"
"-94.07","58.74","CHURCHILL A","5060605","2022-04-02 21:00","2022","04","02","21:00","-16.7","","-18.9","","83","","","","35","","16","","24.1","","101.72","","","","-25","","Clear"
"-94.07","58.74","CHURCHILL A","5060605","2022-04-02 22:00","2022","04","02","22:00","-17.5","","-19.2","","87","","","","35","","12","","24.1","","101.74","","","","-25","","NA"
"-94.07","58.74","CHURCHILL A","5060605","2022-04-02 23:00","2022","04","02","23:00","-18.8","","-20.7","","85","","","","32","","12","","24.1","","101.77","","","","-27","","NA"
"-94.07","58.74","CHURCHILL A","5060605","2022-04-03 00:00","2022","04","03","00:00","-21.0","","-23.0","","84","","","","31","","9","","24.1","","101.79","","","","-28","","Clear"
"-94.07","58.74","CHURCHILL A","5060605","2022-04-03 01:00","2022","04","03","01:00","-21.9","","-24.1","","83","","","","30","","9","","24.1","","101.81","","","","-29","","NA"
"-94.07","58.74","CHURCHILL A","5060605","2022-04-03 02:00","2022","04","03","02:00","-21.2","","-23.5","","82","","","","34","","9","","24.1","","101.84","","","","-28","","NA"
"-94.07","58.74","CHURCHILL A","5060605","2022-04-03 03:00","2022","04","03","03:00","-21.2","","-23.6","","81","","","","29","","3","","24.1","","101.84","","","","-24","","Cloudy"
"-94.07","58.74","CHURCHILL A","5060605","2022-04-03 04:00","2022","04","03","04:00","-19.9","","-22.2","","82","","","","32","","5","","24.1","","101.85","","","","-24","","NA"
"-94.07","58.74","CHURCHILL A","5060605","2022-04-03 05:00","2022","04","03","05:00","-20.1","","-22.3","","83","","","","36","","2","","19.3","","101.81","","","","-22","","Snow"
"-94.07","58.74","CHURCHILL A","5060605","2022-04-03 06:00","2022","04","03","06:00","-19.8","","-22.0","","83","","","","27","","5","","9.7","","101.85","","","","-24","","Snow"
"-94.07","58.74","CHURCHILL A","5060605","2022-04-03 07:00","2022","04","03","07:00","-19.4","","-21.6","","83","","","","20","","4","","16.1","","101.84","","","","-23","","Snow"
"-94.07","58.74","CHURCHILL A","5060605","2022-04-03 08:00","2022","04","03","08:00","-18.5","","-20.7","","83","","","","12","","10","","9.7","","101.80","","","","-25","","Snow"
"-94.07","58.74","CHURCHILL A","5060605","2022-04-03 09:00","2022","04","03","09:00","-16.0","","-18.8","","80","","","","12","","14","","12.9","","101.75","","","","-24","","Snow"
"-94.07","58.74","CHURCHILL A","5060605","2022-04-03 10:00","2022","04","03","10:00","-14.7","","-17.7","","78","","","","12","","17","","12.9","","101.67","","","","-23","","Snow"
"-94.07","58.74","CHURCHILL A","5060605","2022-04-03 11:00","2022","04","03","11:00","-12.1","","-16.1","","72","","","","14","","21","","24.1","","101.59","","","","-21","","Snow"
"-94.07","58.74","CHURCHILL A","5060605","2022-04-03 12:00","2022","04","03","12:00","-11.0","","-14.8","","74","","","","15","","26","","24.1","","101.52","","","","-20","","Snow"
"-94.07","58.74","CHURCHILL A","5060605","2022-04-03 13:00","2022","04","03","13:00","-9.8","","-13.6","","74","","","","15","","28","","24.1","","101.39","","","","-19","","NA"
"-94.07","58.74","CHURCHILL A","5060605","2022-04-03 14:00","2022","04","03","14:00","-8.9","","-12.8","","74","","","","15","","34","","24.1","","101.29","","","","-19","","NA"
"-94.07","58.74","CHURCHILL A","5060605","2022-04-03 15:00","2022","04","03","15:00","-8.1","","-11.7","","76","","","","16","","29","","24.1","","101.22","","","","-17","","Cloudy"
"-94.07","58.74","CHURCHILL A","5060605","2022-04-03 16:00","2022","04","03","16:00","-6.9","","-10.6","","75","","","","16","","37","","24.1","","101.15","","","","-16","","NA"
"-94.07","58.74","CHURCHILL A","5060605","2022-04-03 17:00","2022","04","03","17:00","-6.1","","-10.4","","72","","","","16","","29","","24.1","","101.08","","","","-14","","NA"
"-94.07","58.74","CHURCHILL A","5060605","2022-04-03 18:00","2022","04","03","18:00","-5.8","","-10.1","","72","","","","16","","30","","24.1","","101.01","","","","-14","","Mostly Cloudy"
"-94.07","58.74","CHURCHILL A","5060605","2022-04-03 19:00","2022","04","03","19:00","-5.4","","-9.3","","74","","","","16","","28","","24.1","","100.97","","","","-13","","NA"
"-94.07","58.74","CHURCHILL A","5060605","2022-04-03 20:00","2022","04","03","20:00","-4.8","","-8.9","","73","","","","16","","29","","24.1","","100.95","","","","-13","","Snow"
"-94.07","58.74","CHURCHILL A","5060605","2022-04-03 21:00","2022","04","03","21:00","-4.7","","-8.5","","75","","","","16","","30","","24.1","","100.91","","","","-13","","Snow,Blowing Snow"
"-94.07","58.74","CHURCHILL A","5060605","2022-04-03 22:00","2022","04","03","22:00","-3.9","","-7.9","","74","","","","16","","25","","24.1","","100.87","","","","-11","","NA"
"-94.07","58.74","CHURCHILL A","5060605","2022-04-03 23:00","2022","04","03","23:00","-3.4","","-7.4","","74","","","","17","","23","","24.1","","100.81","","","","-10","","NA"
"-94.07","58.74","CHURCHILL A","5060605","2022-04-04 00:00","2022","04","04","00:00","-2.8","","-6.6","","75","","","","18","","22","","24.1","","100.77","","","","-9","","Cloudy"
"-94.07","58.74","CHURCHILL A","5060605","2022-04-04 01:00","2022","04","04","01:00","-2.5","","-6.2","","76","","","","18","","20","","24.1","","100.74","","","","-8","","NA"
"-94.07","58.74","CHURCHILL A","5060605","2022-04-04 02:00","2022","04","04","02:00","-2.5","","-5.9","","78","","","","19","","16","","24.1","","100.72","","","","-8","","NA"
"-94.07","58.74","CHURCHILL A","5060605","2022-04-04 03:00","2022","04","04","03:00","-2.5","","-5.5","","80","","","","19","","14","","24.1","","100.71","","","","-7","","Cloudy"
"-94.07","58.74","CHURCHILL A","5060605","2022-04-04 04:00","2022","04","04","04:00","-1.7","","-5.0","","78","","","","22","","13","","24.1","","100.70","","","","-6","","NA"
"-94.07","58.74","CHURCHILL A","5060605","2022-04-04 05:00","2022","04","04","05:00","-7.1","","-8.3","","91","","","","31","","16","","24.1","","100.74","","","","-13","","NA"
"-94.07","58.74","CHURCHILL A","5060605","2022-04-04 06:00","2022","04","04","06:00","-8.9","","-10.1","","91","","","","31","","17","","24.1","","100.78","","","","-16","","Mostly Cloudy"
"-94.07","58.74","CHURCHILL A","5060605","2022-04-04 07:00","2022","04","04","07:00","-9.1","","-10.3","","91","","","","31","","16","","24.1","","100.80","","","","-16","","NA"
"-94.07","58.74","CHURCHILL A","5060605","2022-04-04 08:00","2022","04","04","08:00","-7.3","","-8.7","","90","","","","34","","14","","19.3","","100.80","","","","-13","","NA"
"-94.07","58.74","CHURCHILL A","5060605","2022-04-04 09:00","2022","04","04","09:00","-7.7","","-9.3","","88","","","","34","","14","","16.1","","100.80","","","","-14","","Snow"
"-94.07","58.74","CHURCHILL A","5060605","2022-04-04 10:00","2022","04","04","10:00","-9.0","","-10.5","","89","","","","31","","13","","19.3","","100.81","","","","-15","","Snow"
"-94.07","58.74","CHURCHILL A","5060605","2022-04-04 11:00","2022","04","04","11:00","-7.5","","-9.9","","83","","","","35","","17","","24.1","","100.81","","","","-14","","NA"
"-94.07","58.74","CHURCHILL A","5060605","2022-04-04 12:00","2022","04","04","12:00","-7.9","","-10.0","","85","","","","35","","17","","12.9","","100.82","","","","-15","","Mostly Cloudy"
"-94.07","58.74","CHURCHILL A","5060605","2022-04-04 13:00","2022","04","04","13:00","-8.3","","-10.4","","85","","","","35","","13","","8.1","","100.84","","","","-14","","Snow"
"-94.07","58.74","CHURCHILL A","5060605","2022-04-04 14:00","2022","04","04","14:00","-8.1","","-9.9","","87","","","","36","","14","","4.8","","100.83","","","","-14","","Snow"
"-94.07","58.74","CHURCHILL A","5060605","2022-04-04 15:00","2022","04","04","15:00","-7.6","","-9.3","","88","","","","2","","15","","9.7","","100.81","","","","-14","","Snow"
"-94.07","58.74","CHURCHILL A","5060605","2022-04-04 16:00","2022","04","04","16:00","-8.1","","-9.8","","88","","","","2","","14","","24.1","","100.84","","","","-14","","NA"
"-94.07","58.74","CHURCHILL A","5060605","2022-04-04 17:00","2022","04","04","17:00","-8.2","","-9.6","","90","","","","3","","14","","2.4","","100.86","","","","-14","","Snow Showers"
"-94.07","58.74","CHURCHILL A","5060605","2022-04-04 18:00","2022","04","04","18:00","-8.2","","-9.6","","90","","","","5","","16","","6.4","","100.84","","","","-15","","Snow Showers"
"-94.07","58.74","CHURCHILL A","5060605","2022-04-04 19:00","2022","04","04","19:00","-8.1","","-9.5","","90","","","","5","","17","","16.1","","100.86","","","","-15","","Snow Showers"
"-94.07","58.74","CHURCHILL A","5060605","2022-04-04 20:00","2022","04","04","20:00","-8.1","","-9.3","","91","","","","5","","16","","2.4","","100.89","","","","-15","","Snow Showers"
"-94.07","58.74","CHURCHILL A","5060605","2022-04-04 21:00","2022","04","04","21:00","-8.1","","-9.3","","91","","","","5","","12","","4.8","","100.89","","","","-14","","Snow Showers"
"-94.07","58.74","CHURCHILL A","5060605","2022-04-04 22:00","2022","04","04","22:00","-8.5","","-9.7","","91","","","","5","","12","","24.1","","100.92","","","","-14","","NA"
"-94.07","58.74","CHURCHILL A","5060605","2022-04-04 23:00","2022","04","04","23:00","-8.4","","-9.5","","92","","","","6","","14","","24.1","","100.92","","","","-15","","NA"
"-94.07","58.74","CHURCHILL A","5060605","2022-04-05 00:00","2022","04","05","00:00","-8.0","","-9.1","","92","","","","6","","14","","24.1","","100.91","","","","-14","","Mostly Cloudy"
"-94.07","58.74","CHURCHILL A","5060605","2022-04-05 01:00","2022","04","05","01:00","-7.8","","-8.9","","92","","","","7","","12","","24.1","","100.93","","","","-13","","NA"
"-94.07","58.74","CHURCHILL A","5060605","2022-04-05 02:00","2022","04","05","02:00","-7.4","","-8.3","","93","","","","5","","14","","24.1","","100.94","","","","-13","","NA"
"-94.07","58.74","CHURCHILL A","5060605","2022-04-05 03:00","2022","04","05","03:00","-7.0","","-8.0","","93","","","","7","","17","","24.1","","100.96","","","","-13","","Cloudy"
"-94.07","58.74","CHURCHILL A","5060605","2022-04-05 04:00","2022","04","05","04:00","-6.8","","-7.8","","93","","","","7","","15","","24.1","","101.00","","","","-13","","NA"
"-94.07","58.74","CHURCHILL A","5060605","2022-04-05 05:00","2022","04","05","05:00","-6.8","","-7.6","","94","","","","3","","14","","24.1","","101.06","","","","-13","","NA"
"-94.07","58.74","CHURCHILL A","5060605","2022-04-05 06:00","2022","04","05","06:00","-5.7","","-6.5","","94","","","","3","","16","","24.1","","101.14","","","","-12","","Mostly Cloudy"
"-94.07","58.74","CHURCHILL A","5060605","2022-04-05 07:00","2022","04","05","07:00","-5.5","","-6.5","","93","","","","5","","20","","24.1","","101.16","","","","-12","","NA"
"-94.07","58.74","CHURCHILL A","5060605","2022-04-05 08:00","2022","04","05","08:00","-5.2","","-6.2","","93","","","","7","","18","","24.1","","101.21","","","","-11","","NA"
"-94.07","58.74","CHURCHILL A","5060605","2022-04-05 09:00","2022","04","05","09:00","-4.1","","-5.8","","88","","","","8","","17","","24.1","","101.28","","","","-10","","Mostly Cloudy"
"-94.07","58.74","CHURCHILL A","5060605","2022-04-05 10:00","2022","04","05","10:00","-4.0","","-6.0","","86","","","","8","","18","","24.1","","101.33","","","","-10","","NA"
"-94.07","58.74","CHURCHILL A","5060605","2022-04-05 11:00","2022","04","05","11:00","-4.6","","-6.9","","84","","","","8","","15","","24.1","","101.37","","","","-10","","NA"
"-94.07","58.74","CHURCHILL A","5060605","2022-04-05 12:00","2022","04","05","12:00","-4.5","","-6.8","","84","","","","9","","19","","24.1","","101.40","","","","-11","","Mainly Clear"
"-94.07","58.74","CHURCHILL A","5060605","2022-04-05 13:00","2022","04","05","13:00","-3.5","","-6.3","","81","","","","9","","14","","24.1","","101.46","","","","-9","","NA"
"-94.07","58.74","CHURCHILL A","5060605","2022-04-05 14:00","2022","04","05","14:00","-3.4","","-5.7","","84","","","","8","","16","","24.1","","101.49","","","","-9","","NA"
"-94.07","58.74","CHURCHILL A","5060605","2022-04-05 15:00","2022","04","05","15:00","-3.5","","-5.8","","84","","","","8","","18","","24.1","","101.55","","","","-9","","Mainly Clear"
"-94.07","58.74","CHURCHILL A","5060605","2022-04-05 16:00","2022","04","05","16:00","-4.0","","-6.5","","83","","","","8","","20","","24.1","","101.61","","","","-10","","NA"
"-94.07","58.74","CHURCHILL A","5060605","2022-04-05 17:00","2022","04","05","17:00","-5.1","","-7.2","","85","","","","9","","20","","24.1","","101.65","","","","-12","","NA"
"-94.07","58.74","CHURCHILL A","5060605","2022-04-05 18:00","2022","04","05","18:00","-6.2","","-7.9","","88","","","","8","","19","","24.1","","101.69","","","","-13","","Mainly Clear"
"-94.07","58.74","CHURCHILL A","5060605","2022-04-05 19:00","2022","04","05","19:00","-7.6","","-8.8","","91","","","","7","","19","","24.1","","101.77","","","","-15","","NA"
"-94.07","58.74","CHURCHILL A","5060605","2022-04-05 20:00","2022","04","05","20:00","-8.5","","-9.7","","91","","","","8","","19","","24.1","","101.84","","","","-16","","NA"
"-94.07","58.74","CHURCHILL A","5060605","2022-04-05 21:00","2022","04","05","21:00","-8.8","","-10.0","","91","","","","8","","19","","24.1","","101.88","","","","-16","","Clear"
"-94.07","58.74","CHURCHILL A","5060605","2022-04-05 22:00","2022","04","05","22:00","-9.2","","-10.6","","90","","","","8","","21","","24.1","","101.92","","","","-17","","NA"
"-94.07","58.74","CHURCHILL A","5060605","2022-04-05 23:00","2022","04","05","23:00","-9.1","","-10.4","","90","","","","8","","19","","24.1","","101.97","","","","-17","","NA"
"-94.07","58.74","CHURCHILL A","5060605","2022-04-06 00:00","2022","04","06","00:00","-10.9","","-12.2","","90","","","","8","","17","","24.1","","102.03","","","","-18","","Clear"
"-94.07","58.74","CHURCHILL A","5060605","2022-04-06 01:00","2022","04","06","01:00","-9.8","","-11.3","","89","","","","9","","17","","24.1","","102.06","","","","-17","","NA"
"-94.07","58.74","CHURCHILL A","5060605","2022-04-06 02:00","2022","04","06","02:00","-9.0","","-10.5","","89","","","","8","","14","","24.1","","102.09","","","","-15","","NA"
"-94.07","58.74","CHURCHILL A","5060605","2022-04-06 03:00","2022","04","06","03:00","-10.2","","-11.5","","90","","","","7","","13","","24.1","","102.16","","","","-16","","Mainly Clear"
"-94.07","58.74","CHURCHILL A","5060605","2022-04-06 04:00","2022","04","06","04:00","-11.6","","-12.9","","90","","","","6","","15","","24.1","","102.22","","","","-19","","NA"
"-94.07","58.74","CHURCHILL A","5060605","2022-04-06 05:00","2022","04","06","05:00","-12.2","","-13.8","","88","","","","7","","16","","24.1","","102.28","","","","-20","","NA"
"-94.07","58.74","CHURCHILL A","5060605","2022-04-06 06:00","2022","04","06","06:00","-12.2","","-13.8","","88","","","","7","","14","","24.1","","102.34","","","","-19","","Mainly Clear"
"-94.07","58.74","CHURCHILL A","5060605","2022-04-06 07:00","2022","04","06","07:00","-12.4","","-14.0","","88","","","","5","","14","","24.1","","102.41","","","","-19","","NA"
"-94.07","58.74","CHURCHILL A","5060605","2022-04-06 08:00","2022","04","06","08:00","-10.9","","-12.9","","85","","","","7","","17","","24.1","","102.46","","","","-18","","NA"
"-94.07","58.74","CHURCHILL A","5060605","2022-04-06 09:00","2022","04","06","09:00","-9.9","","-12.7","","80","","","","8","","20","","24.1","","102.52","","","","-18","","Clear"
"-94.07","58.74","CHURCHILL A","5060605","2022-04-06 10:00","2022","04","06","10:00","-9.0","","-12.0","","79","","","","8","","21","","24.1","","102.58","","","","-17","","NA"
"-94.07","58.74","CHURCHILL A","5060605","2022-04-06 11:00","2022","04","06","11:00","-8.5","","-11.8","","77","","","","8","","23","","24.1","","102.61","","","","-17","","NA"
"-94.07","58.74","CHURCHILL A","5060605","2022-04-06 12:00","2022","04","06","12:00","-7.7","","-10.8","","78","","","","9","","21","","24.1","","102.65","","","","-15","","Clear"
"-94.07","58.74","CHURCHILL A","5060605","2022-04-06 13:00","2022","04","06","13:00","-7.0","","-10.1","","79","","","","9","","20","","24.1","","102.67","","","","-14","","NA"
"-94.07","58.74","CHURCHILL A","5060605","2022-04-06 14:00","2022","04","06","14:00","-6.3","","-9.2","","80","","","","8","","21","","24.1","","102.69","","","","-13","","NA"
"-94.07","58.74","CHURCHILL A","5060605","2022-04-06 15:00","2022","04","06","15:00","-5.9","","-8.8","","80","","","","8","","20","","24.1","","102.72","","","","-13","","Clear"
"-94.07","58.74","CHURCHILL A","5060605","2022-04-06 16:00","2022","04","06","16:00","-5.9","","-8.8","","80","","","","8","","19","","24.1","","102.76","","","","-13","","NA"
"-94.07","58.74","CHURCHILL A","5060605","2022-04-06 17:00","2022","04","06","17:00","-6.6","","-9.2","","82","","","","8","","16","","24.1","","102.82","","","","-13","","NA"
"-94.07","58.74","CHURCHILL A","5060605","2022-04-06 18:00","2022","04","06","18:00","-8.2","","-10.6","","83","","","","8","","16","","24.1","","102.86","","","","-15","","Clear"
"-94.07","58.74","CHURCHILL A","5060605","2022-04-06 19:00","2022","04","06","19:00","-10.4","","-12.3","","86","","","","8","","18","","24.1","","102.88","","","","-18","","NA"
"-94.07","58.74","CHURCHILL A","5060605","2022-04-06 20:00","2022","04","06","20:00","-12.5","","-13.7","","91","","","","8","","17","","24.1","","102.94","","","","-20","","NA"
"-94.07","58.74","CHURCHILL A","5060605","2022-04-06 21:00","2022","04","06","21:00","-11.9","","-13.2","","90","","","","8","","18","","24.1","","102.96","","","","-20","","Clear"
"-94.07","58.74","CHURCHILL A","5060605","2022-04-06 22:00","2022","04","06","22:00","-12.2","","-13.9","","87","","","","8","","17","","24.1","","103.00","","","","-20","","NA"
"-94.07","58.74","CHURCHILL A","5060605","2022-04-06 23:00","2022","04","06","23:00","-13.6","","-14.9","","90","","","","8","","18","","24.1","","103.04","","","","-22","","NA"
"-94.07","58.74","CHURCHILL A","5060605","2022-04-07 00:00","2022","04","07","00:00","-13.9","","-15.1","","91","","","","8","","17","","24.1","","103.06","","","","-22","","Clear"
"-94.07","58.74","CHURCHILL A","5060605","2022-04-07 01:00","2022","04","07","01:00","-13.9","","-15.2","","90","","","","8","","17","","24.1","","103.08","","","","-22","","NA"
"-94.07","58.74","CHURCHILL A","5060605","2022-04-07 02:00","2022","04","07","02:00","-14.4","","-15.8","","89","","","","10","","16","","24.1","","103.10","","","","-22","","NA"
"-94.07","58.74","CHURCHILL A","5060605","2022-04-07 03:00","2022","04","07","03:00","-14.6","","-16.0","","89","","","","12","","15","","24.1","","103.12","","","","-22","","Clear"
"-94.07","58.74","CHURCHILL A","5060605","2022-04-07 04:00","2022","04","07","04:00","-13.7","","-15.1","","89","","","","12","","14","","24.1","","103.14","","","","-21","","NA"
"-94.07","58.74","CHURCHILL A","5060605","2022-04-07 05:00","2022","04","07","05:00","-13.9","","-15.5","","88","","","","17","","11","","24.1","","103.17","","","","-20","","NA"
"-94.07","58.74","CHURCHILL A","5060605","2022-04-07 06:00","2022","04","07","06:00","-16.5","","-18.3","","86","","","","32","","9","","24.1","","103.21","","","","-23","","Mostly Cloudy"
"-94.07","58.74","CHURCHILL A","5060605","2022-04-07 07:00","2022","04","07","07:00","-14.0","","-15.7","","87","","","","35","","8","","24.1","","103.24","","","","-19","","NA"
"-94.07","58.74","CHURCHILL A","5060605","2022-04-07 08:00","2022","04","07","08:00","-11.9","","-13.4","","89","","","","31","","7","","24.1","","103.26","","","","-16","","NA"
"-94.07","58.74","CHURCHILL A","5060605","2022-04-07 09:00","2022","04","07","09:00","-10.6","","-11.9","","90","","","","10","","5","","24.1","","103.27","","","","-14","","Mostly Cloudy"
"-94.07","58.74","CHURCHILL A","5060605","2022-04-07 10:00","2022","04","07","10:00","-9.5","","-10.8","","90","","","","36","","2","","24.1","","103.30","","","","-11","","NA"
"-94.07","58.74","CHURCHILL A","5060605","2022-04-07 11:00","2022","04","07","11:00","-8.2","","-10.0","","87","","","","4","","4","","24.1","","103.29","","","","-10","","NA"
"-94.07","58.74","CHURCHILL A","5060605","2022-04-07 12:00","2022","04","07","12:00","-6.9","","-10.7","","75","","","","3","","5","","24.1","","103.26","","","","-9","","Mostly Cloudy"
"-94.07","58.74","CHURCHILL A","5060605","2022-04-07 13:00","2022","04","07","13:00","-6.0","","-10.1","","73","","","","6","","5","","24.1","","103.25","","","","-8","","NA"
"-94.07","58.74","CHURCHILL A","5060605","2022-04-07 14:00","2022","04","07","14:00","-4.9","","-9.7","","69","","","","7","","5","","24.1","","103.22","","","","-7","","NA"
"-94.07","58.74","CHURCHILL A","5060605","2022-04-07 15:00","2022","04","07","15:00","-5.3","","-9.0","","76","","","","8","","12","","24.1","","103.17","","","","-10","","Cloudy"
"-94.07","58.74","CHURCHILL A","5060605","2022-04-07 16:00","2022","04","07","16:00","-3.8","","-8.3","","71","","","","9","","9","","24.1","","103.13","","","","-8","","NA"
"-94.07","58.74","CHURCHILL A","5060605","2022-04-07 17:00","2022","04","07","17:00","-0.9","","-9.6","","52","","","","18","","13","","24.1","","103.08","","","","-5","","NA"
"-94.07","58.74","CHURCHILL A","5060605","2022-04-07 18:00","2022","04","07","18:00","-2.0","","-9.0","","59","","","","19","","16","","24.1","","103.05","","","","-7","","Mainly Clear"
"-94.07","58.74","CHURCHILL A","5060605","2022-04-07 19:00","2022","04","07","19:00","-3.8","","-8.9","","68","","","","18","","13","","24.1","","102.99","","","","-9","","NA"
"-94.07","58.74","CHURCHILL A","5060605","2022-04-07 20:00","2022","04","07","20:00","-6.2","","-10.2","","74","","","","17","","15","","24.1","","102.94","","","","-12","","NA"
"-94.07","58.74","CHURCHILL A","5060605","2022-04-07 21:00","2022","04","07","21:00","-7.5","","-11.2","","75","","","","17","","17","","24.1","","102.87","","","","-14","","Mainly Clear"
"-94.07","58.74","CHURCHILL A","5060605","2022-04-07 22:00","2022","04","07","22:00","-7.9","","-10.5","","82","","","","18","","17","","24.1","","102.81","","","","-15","","NA"
"-94.07","58.74","CHURCHILL A","5060605","2022-04-07 23:00","2022","04","07","23:00","-8.8","","-10.7","","86","","","","18","","18","","24.1","","102.77","","","","-16","","NA"
"-94.07","58.74","CHURCHILL A","5060605","2022-04-08 00:00","2022","04","08","00:00","-9.3","","-10.8","","89","","","","18","","18","","24.1","","102.71","","","","-17","","Clear"
"-94.07","58.74","CHURCHILL A","5060605","2022-04-08 01:00","2022","04","08","01:00","-10.0","","-11.3","","90","","","","18","","16","","24.1","","102.64","","","","-17","","NA"
"-94.07","58.74","CHURCHILL A","5060605","2022-04-08 02:00","2022","04","08","02:00","-10.4","","-11.9","","89","","","","19","","17","","24.1","","102.61","","","","-18","","NA"
"-94.07","58.74","CHURCHILL A","5060605","2022-04-08 03:00","2022","04","08","03:00","-10.9","","-12.2","","90","","","","18","","16","","24.1","","102.58","","","","-18","","Clear"
"-94.07","58.74","CHURCHILL A","5060605","2022-04-08 04:00","2022","04","08","04:00","-11.2","","-12.4","","91","","","","19","","17","","24.1","","102.53","","","","-19","","NA"
"-94.07","58.74","CHURCHILL A","5060605","2022-04-08 05:00","2022","04","08","05:00","-11.6","","-12.8","","91","","","","19","","16","","24.1","","102.44","","","","-19","","NA"
"-94.07","58.74","CHURCHILL A","5060605","2022-04-08 06:00","2022","04","08","06:00","-11.4","","-12.9","","89","","","","19","","17","","24.1","","102.38","","","","-19","","Clear"
"-94.07","58.74","CHURCHILL A","5060605","2022-04-08 07:00","2022","04","08","07:00","-9.9","","-11.8","","86","","","","18","","15","","24.1","","102.34","","","","-17","","NA"
"-94.07","58.74","CHURCHILL A","5060605","2022-04-08 08:00","2022","04","08","08:00","-6.6","","-9.8","","78","","","","18","","14","","24.1","","102.24","","","","-12","","NA"
"-94.07","58.74","CHURCHILL A","5060605","2022-04-08 09:00","2022","04","08","09:00","-3.7","","-8.6","","69","","","","19","","17","","24.1","","102.15","","","","-9","","Clear"
"-94.07","58.74","CHURCHILL A","5060605","2022-04-08 10:00","2022","04","08","10:00","-1.0","","-7.2","","63","","","","19","","12","","24.1","","102.07","","","","-5","","NA"
"-94.07","58.74","CHURCHILL A","5060605","2022-04-08 11:00","2022","04","08","11:00","0.8","","-6.3","","59","","","","18","","14","","24.1","","102.01","","","","","","NA"
"-94.07","58.74","CHURCHILL A","5060605","2022-04-08 12:00","2022","04","08","12:00","1.6","","-5.6","","59","","","","17","","15","","24.1","","101.92","","","","","","Clear"
"-94.07","58.74","CHURCHILL A","5060605","2022-04-08 13:00","2022","04","08","13:00","3.1","","-5.8","","52","","","","18","","17","","24.1","","101.84","","","","","","NA"
"-94.07","58.74","CHURCHILL A","5060605","2022-04-08 14:00","2022","04","08","14:00","2.9","","-4.5","","59","","","","18","","19","","24.1","","101.75","","","","","","NA"
"-94.07","58.74","CHURCHILL A","5060605","2022-04-08 15:00","2022","04","08","15:00","2.9","","-4.2","","59","","","","18","","19","","24.1","","101.65","","","","","","Mostly Cloudy"
"-94.07","58.74","CHURCHILL A","5060605","2022-04-08 16:00","2022","04","08","16:00","2.7","","-4.3","","60","","","","18","","20","","24.1","","101.57","","","","","","NA"
"-94.07","58.74","CHURCHILL A","5060605","2022-04-08 17:00","2022","04","08","17:00","2.6","","-4.2","","61","","","","18","","19","","24.1","","101.49","","","","","","NA"
"-94.07","58.74","CHURCHILL A","5060605","2022-04-08 18:00","2022","04","08","18:00","1.4","","-4.5","","65","","","","18","","18","","24.1","","101.39","","","","","","Clear"
"-94.07","58.74","CHURCHILL A","5060605","2022-04-08 19:00","2022","04","08","19:00","-0.1","","-5.3","","68","","","","17","","22","","24.1","","101.32","","","","-6","","NA"
"-94.07","58.74","CHURCHILL A","5060605","2022-04-08 20:00","2022","04","08","20:00","-1.6","","-5.5","","75","","","","18","","17","","24.1","","101.26","","","","-7","","NA"
"-94.07","58.74","CHURCHILL A","5060605","2022-04-08 21:00","2022","04","08","21:00","-3.2","","-6.7","","77","","","","18","","17","","24.1","","101.21","","","","-9","","Clear"
"-94.07","58.74","CHURCHILL A","5060605","2022-04-08 22:00","2022","04","08","22:00","-3.8","","-7.4","","76","","","","17","","21","","24.1","","101.11","","","","-10","","NA"
"-94.07","58.74","CHURCHILL A","5060605","2022-04-08 23:00","2022","04","08","23:00","-4.5","","-8.3","","75","","","","17","","19","","24.1","","101.05","","","","-11","","NA"
"-94.07","58.74","CHURCHILL A","5060605","2022-04-09 00:00","2022","04","09","00:00","-5.6","","-9.0","","77","","","","17","","17","","24.1","","101.01","","","","-12","","Clear"
"-94.07","58.74","CHURCHILL A","5060605","2022-04-09 01:00","2022","04","09","01:00","-6.8","","-9.8","","79","","","","17","","16","","24.1","","100.97","","","","-13","","NA"
"-94.07","58.74","CHURCHILL A","5060605","2022-04-09 02:00","2022","04","09","02:00","-7.1","","-10.2","","79","","","","18","","15","","24.1","","100.88","","","","-13","","NA"
"-94.07","58.74","CHURCHILL A","5060605","2022-04-09 03:00","2022","04","09","03:00","-7.0","","-10.2","","78","","","","17","","17","","24.1","","100.82","","","","-13","","Clear"
"-94.07","58.74","CHURCHILL A","5060605","2022-04-09 04:00","2022","04","09","04:00","-6.7","","-10.2","","76","","","","17","","17","","24.1","","100.78","","","","-13","","NA"
"-94.07","58.74","CHURCHILL A","5060605","2022-04-09 05:00","2022","04","09","05:00","-6.8","","-10.7","","74","","","","17","","17","","24.1","","100.73","","","","-13","","NA"
"-94.07","58.74","CHURCHILL A","5060605","2022-04-09 06:00","2022","04","09","06:00","-6.8","","-11.0","","72","","","","16","","21","","24.1","","100.67","","","","-14","","Mostly Cloudy"
"-94.07","58.74","CHURCHILL A","5060605","2022-04-09 07:00","2022","04","09","07:00","-5.2","","-10.1","","69","","","","17","","19","","24.1","","100.60","","","","-12","","NA"
"-94.07","58.74","CHURCHILL A","5060605","2022-04-09 08:00","2022","04","09","08:00","-3.6","","-9.3","","65","","","","16","","19","","24.1","","100.54","","","","-10","","NA"
"-94.07","58.74","CHURCHILL A","5060605","2022-04-09 09:00","2022","04","09","09:00","-1.7","","-8.5","","60","","","","16","","21","","24.1","","100.47","","","","-8","","Mostly Cloudy"
"-94.07","58.74","CHURCHILL A","5060605","2022-04-09 10:00","2022","04","09","10:00","0.0","","-8.0","","55","","","","16","","26","","24.1","","100.41","","","","-6","","NA"
"-94.07","58.74","CHURCHILL A","5060605","2022-04-09 11:00","2022","04","09","11:00","1.4","","-7.2","","53","","","","17","","30","","24.1","","100.35","","","","","","NA"
"-94.07","58.74","CHURCHILL A","5060605","2022-04-09 12:00","2022","04","09","12:00","1.2","","-7.1","","54","","","","16","","23","","24.1","","100.32","","","","","","Mostly Cloudy"
"-94.07","58.74","CHURCHILL A","5060605","2022-04-09 13:00","2022","04","09","13:00","1.3","","-7.2","","53","","","","15","","31","","24.1","","100.26","","","","","","NA"
"-94.07","58.74","CHURCHILL A","5060605","2022-04-09 14:00","2022","04","09","14:00","0.8","","-5.6","","62","","","","13","","28","","24.1","","100.20","","","","","","NA"
"-94.07","58.74","CHURCHILL A","5060605","2022-04-09 15:00","2022","04","09","15:00","-0.2","","-5.5","","68","","","","13","","35","","24.1","","100.16","","","","-7","","Cloudy"
"-94.07","58.74","CHURCHILL A","5060605","2022-04-09 16:00","2022","04","09","16:00","-0.4","","-5.4","","69","","","","14","","30","","24.1","","100.12","","","","-7","","NA"
"-94.07","58.74","CHURCHILL A","5060605","2022-04-09 17:00","2022","04","09","17:00","-0.9","","-5.9","","69","","","","13","","35","","24.1","","100.03","","","","-8","","NA"
"-94.07","58.74","CHURCHILL A","5060605","2022-04-09 18:00","2022","04","09","18:00","-1.0","","-5.4","","72","","","","14","","31","","24.1","","100.04","","","","-8","","Cloudy"
"-94.07","58.74","CHURCHILL A","5060605","2022-04-09 19:00","2022","04","09","19:00","-1.4","","-5.8","","72","","","","13","","42","","24.1","","99.96","","","","-9","","NA"
"-94.07","58.74","CHURCHILL A","5060605","2022-04-09 20:00","2022","04","09","20:00","-1.4","","-5.6","","73","","","","14","","35","","24.1","","100.01","","","","-9","","NA"
"-94.07","58.74","CHURCHILL A","5060605","2022-04-09 21:00","2022","04","09","21:00","-1.2","","-5.4","","73","","","","14","","39","","24.1","","99.96","","","","-9","","Cloudy"
"-94.07","58.74","CHURCHILL A","5060605","2022-04-09 22:00","2022","04","09","22:00","-1.2","","-5.0","","75","","","","14","","33","","24.1","","99.94","","","","-8","","NA"
"-94.07","58.74","CHURCHILL A","5060605","2022-04-09 23:00","2022","04","09","23:00","-0.8","","-5.0","","73","","","","14","","37","","24.1","","99.89","","","","-8","","NA"
"-94.07","58.74","CHURCHILL A","5060605","2022-04-10 00:00","2022","04","10","00:00","-0.6","","-5.0","","72","","","","15","","29","","24.1","","99.85","","","","-7","","Cloudy"
"-94.07","58.74","CHURCHILL A","5060605","2022-04-10 01:00","2022","04","10","01:00","-0.8","","-5.0","","73","","","","14","","34","","24.1","","99.81","","","","-8","","NA"
"-94.07","58.74","CHURCHILL A","5060605","2022-04-10 02:00","2022","04","10","02:00","-1.1","","-4.9","","76","","","","14","","32","","24.1","","99.76","","","","-8","","NA"
"-94.07","58.74","CHURCHILL A","5060605","2022-04-10 03:00","2022","04","10","03:00","-1.4","","-4.9","","77","","","","13","","32","","24.1","","99.72","","","","-9","","Cloudy"
"-94.07","58.74","CHURCHILL A","5060605","2022-04-10 04:00","2022","04","10","04:00","-1.5","","-4.8","","78","","","","14","","28","","24.1","","99.67","","","","-8","","NA"
"-94.07","58.74","CHURCHILL A","5060605","2022-04-10 05:00","2022","04","10","05:00","-1.7","","-4.8","","80","","","","14","","31","","12.9","","99.65","","","","-9","","Snow"
"-94.07","58.74","CHURCHILL A","5060605","2022-04-10 06:00","2022","04","10","06:00","-2.1","","-4.6","","83","","","","13","","30","","12.9","","99.59","","","","-9","","Snow,Blowing Snow"
"-94.07","58.74","CHURCHILL A","5060605","2022-04-10 07:00","2022","04","10","07:00","-2.3","","-5.5","","79","","","","12","","37","","24.1","","99.51","","","","-10","","Snow,Blowing Snow"
"-94.07","58.74","CHURCHILL A","5060605","2022-04-10 08:00","2022","04","10","08:00","-2.2","","-6.0","","75","","","","13","","38","","24.1","","99.46","","","","-10","","Blowing Snow"
"-94.07","58.74","CHURCHILL A","5060605","2022-04-10 09:00","2022","04","10","09:00","-2.2","","-5.9","","76","","","","13","","34","","24.1","","99.43","","","","-10","","Blowing Snow"
"-94.07","58.74","CHURCHILL A","5060605","2022-04-10 10:00","2022","04","10","10:00","-1.6","","-5.6","","74","","","","13","","40","","24.1","","99.37","","","","-10","","Blowing Snow"
"-94.07","58.74","CHURCHILL A","5060605","2022-04-10 11:00","2022","04","10","11:00","-1.3","","-5.0","","76","","","","13","","39","","24.1","","99.32","","","","-9","","Blowing Snow"
"-94.07","58.74","CHURCHILL A","5060605","2022-04-10 12:00","2022","04","10","12:00","-2.0","","-3.1","","92","","","","13","","41","","1.6","","99.30","","","","-10","","Snow,Blowing Snow"
"-94.07","58.74","CHURCHILL A","5060605","2022-04-10 13:00","2022","04","10","13:00","-1.7","","-3.1","","90","","","","13","","39","","4.8","","99.30","","","","-10","","Snow,Blowing Snow"
"-94.07","58.74","CHURCHILL A","5060605","2022-04-10 14:00","2022","04","10","14:00","-1.1","","-2.7","","89","","","","14","","37","","19.3","","99.31","","","","-9","","Snow,Blowing Snow"
"-94.07","58.74","CHURCHILL A","5060605","2022-04-10 15:00","2022","04","10","15:00","-0.7","","-2.6","","87","","","","14","","33","","4.8","","99.32","","","","-8","","Snow,Blowing Snow"
"-94.07","58.74","CHURCHILL A","5060605","2022-04-10 16:00","2022","04","10","16:00","-0.5","","-2.6","","86","","","","13","","35","","19.3","","99.31","","","","-8","","Snow,Blowing Snow"
"-94.07","58.74","CHURCHILL A","5060605","2022-04-10 17:00","2022","04","10","17:00","-0.2","","-2.9","","82","","","","13","","28","","24.1","","99.34","","","","-7","","Snow"
"-94.07","58.74","CHURCHILL A","5060605","2022-04-10 18:00","2022","04","10","18:00","0.0","","-2.5","","83","","","","14","","25","","24.1","","99.37","","","","-6","","Cloudy"
"-94.07","58.74","CHURCHILL A","5060605","2022-04-10 19:00","2022","04","10","19:00","0.3","","-2.1","","84","","","","14","","16","","24.1","","99.41","","","","","","NA"
"-94.07","58.74","CHURCHILL A","5060605","2022-04-10 20:00","2022","04","10","20:00","0.6","","-1.6","","85","","","","15","","18","","24.1","","99.47","","","","","","NA"
"-94.07","58.74","CHURCHILL A","5060605","2022-04-10 21:00","2022","04","10","21:00","0.4","","-1.5","","87","","","","15","","16","","24.1","","99.49","","","","","","Cloudy"
"-94.07","58.74","CHURCHILL A","5060605","2022-04-10 22:00","2022","04","10","22:00","-1.3","","-2.7","","90","","","","15","","18","","24.1","","99.47","","","","-7","","NA"
"-94.07","58.74","CHURCHILL A","5060605","2022-04-10 23:00","2022","04","10","23:00","-1.5","","-2.9","","90","","","","15","","16","","24.1","","99.48","","","","-6","","NA"
"-94.07","58.74","CHURCHILL A","5060605","2022-04-11 00:00","2022","04","11","00:00","-1.1","","-2.5","","90","","","","15","","14","","24.1","","99.49","","","","-6","","Cloudy"
"-94.07","58.74","CHURCHILL A","5060605","2022-04-11 01:00","2022","04","11","01:00","-1.2","","-2.6","","90","","","","16","","16","","24.1","","99.54","","","","-6","","NA"
"-94.07","58.74","CHURCHILL A","5060605","2022-04-11 02:00","2022","04","11","02:00","-1.0","","-2.0","","93","","","","18","","13","","24.1","","99.56","","","","-5","","NA"
"-94.07","58.74","CHURCHILL A","5060605","2022-04-11 03:00","2022","04","11","03:00","-0.7","","-1.7","","93","","","","17","","14","","24.1","","99.59","","","","-5","","Mostly Cloudy"
"-94.07","58.74","CHURCHILL A","5060605","2022-04-11 04:00","2022","04","11","04:00","-1.5","","-2.3","","94","","","","17","","14","","24.1","","99.60","","","","-6","","NA"
"-94.07","58.74","CHURCHILL A","5060605","2022-04-11 05:00","2022","04","11","05:00","-2.9","","-3.7","","94","","","","19","","13","","24.1","","99.64","","","","-8","","NA"
"-94.07","58.74","CHURCHILL A","5060605","2022-04-11 06:00","2022","04","11","06:00","-3.4","","-4.1","","95","","","","19","","10","","24.1","","99.67","","","","-7","","Mainly Clear"
"-94.07","58.74","CHURCHILL A","5060605","2022-04-11 07:00","2022","04","11","07:00","-3.8","","-4.8","","93","","","","18","","9","","24.1","","99.71","","","","-8","","NA"
"-94.07","58.74","CHURCHILL A","5060605","2022-04-11 08:00","2022","04","11","08:00","-2.5","","-5.1","","82","","","","14","","4","","24.1","","99.73","","","","-4","","NA"
"-94.07","58.74","CHURCHILL A","5060605","2022-04-11 09:00","2022","04","11","09:00","1.0","","-3.9","","70","","","","33","","4","","24.1","","99.75","","","","","","Mainly Clear"
"-94.07","58.74","CHURCHILL A","5060605","2022-04-11 10:00","2022","04","11","10:00","-0.8","","-3.6","","81","","","","6","","8","","24.1","","99.79","","","","-4","","NA"
"-94.07","58.74","CHURCHILL A","5060605","2022-04-11 11:00","2022","04","11","11:00","0.3","","-2.6","","81","","","","7","","10","","24.1","","99.81","","","","","","NA"
"-94.07","58.74","CHURCHILL A","5060605","2022-04-11 12:00","2022","04","11","12:00","1.0","","-2.6","","77","","","","7","","16","","24.1","","99.85","","","","","","Mainly Clear"
"-94.07","58.74","CHURCHILL A","5060605","2022-04-11 13:00","2022","04","11","13:00","0.8","","-2.5","","79","","","","7","","16","","24.1","","99.88","","","","","","NA"
"-94.07","58.74","CHURCHILL A","5060605","2022-04-11 14:00","2022","04","11","14:00","0.3","","-1.9","","85","","","","6","","15","","24.1","","99.90","","","","","","NA"
"-94.07","58.74","CHURCHILL A","5060605","2022-04-11 15:00","2022","04","11","15:00","-0.5","","-2.0","","89","","","","5","","13","","24.1","","99.87","","","","-5","","Mostly Cloudy"
"-94.07","58.74","CHURCHILL A","5060605","2022-04-11 16:00","2022","04","11","16:00","-1.6","","-2.7","","92","","","","5","","21","","24.1","","99.91","","","","-7","","NA"
"-94.07","58.74","CHURCHILL A","5060605","2022-04-11 17:00","2022","04","11","17:00","-2.3","","-3.4","","92","","","","5","","21","","24.1","","99.94","","","","-8","","NA"
"-94.07","58.74","CHURCHILL A","5060605","2022-04-11 18:00","2022","04","11","18:00","-2.9","","-4.0","","92","","","","4","","23","","24.1","","100.00","","","","-9","","Cloudy"
"-94.07","58.74","CHURCHILL A","5060605","2022-04-11 19:00","2022","04","11","19:00","-3.4","","-4.4","","93","","","","5","","22","","24.1","","100.06","","","","-10","","NA"
"-94.07","58.74","CHURCHILL A","5060605","2022-04-11 20:00","2022","04","11","20:00","-4.0","","-4.5","","96","","","","3","","23","","24.1","","100.10","","","","-11","","NA"
"-94.07","58.74","CHURCHILL A","5060605","2022-04-11 21:00","2022","04","11","21:00","-4.2","","-4.7","","96","","","","1","","26","","3.2","","100.11","","","","-11","","Snow,Fog"
"-94.07","58.74","CHURCHILL A","5060605","2022-04-11 22:00","2022","04","11","22:00","-4.0","","-4.7","","95","","","","36","","27","","3.2","","100.11","","","","-11","","Snow,Fog"
"-94.07","58.74","CHURCHILL A","5060605","2022-04-11 23:00","2022","04","11","23:00","-3.9","","-4.6","","95","","","","1","","27","","3.2","","100.13","","","","-11","","Snow,Fog"
"-94.07","58.74","CHURCHILL A","5060605","2022-04-12 00:00","2022","04","12","00:00","-3.9","","-4.6","","95","","","","1","","25","","3.2","","100.13","","","","-11","","Snow,Fog"
"-94.07","58.74","CHURCHILL A","5060605","2022-04-12 01:00","2022","04","12","01:00","-3.7","","-4.4","","95","","","","2","","23","","4.8","","100.16","","","","-10","","Snow"
"-94.07","58.74","CHURCHILL A","5060605","2022-04-12 02:00","2022","04","12","02:00","-3.4","","-4.0","","96","","","","3","","23","","3.2","","100.22","","","","-10","","Snow"
"-94.07","58.74","CHURCHILL A","5060605","2022-04-12 03:00","2022","04","12","03:00","-3.1","","-3.6","","96","","","","5","","21","","12.9","","100.30","","","","-9","","Snow"
"-94.07","58.74","CHURCHILL A","5060605","2022-04-12 04:00","2022","04","12","04:00","-2.9","","-3.5","","96","","","","6","","22","","4.8","","100.40","","","","-9","","Snow"
"-94.07","58.74","CHURCHILL A","5060605","2022-04-12 05:00","2022","04","12","05:00","-3.0","","-3.5","","96","","","","6","","23","","4.0","","100.52","","","","-9","","Snow"
"-94.07","58.74","CHURCHILL A","5060605","2022-04-12 06:00","2022","04","12","06:00","-3.3","","-4.0","","95","","","","7","","26","","4.0","","100.65","","","","-10","","Snow"
"-94.07","58.74","CHURCHILL A","5060605","2022-04-12 07:00","2022","04","12","07:00","-3.6","","-4.6","","93","","","","6","","27","","9.7","","100.77","","","","-11","","Snow"
"-94.07","58.74","CHURCHILL A","5060605","2022-04-12 08:00","2022","04","12","08:00","-4.2","","-5.3","","92","","","","5","","26","","19.3","","100.89","","","","-11","","Snow"
"-94.07","58.74","CHURCHILL A","5060605","2022-04-12 09:00","2022","04","12","09:00","-5.1","","-6.2","","92","","","","6","","31","","19.3","","101.03","","","","-13","","Snow"
"-94.07","58.74","CHURCHILL A","5060605","2022-04-12 10:00","2022","04","12","10:00","-5.4","","-6.8","","90","","","","4","","35","","24.1","","101.17","","","","-14","","Snow"
"-94.07","58.74","CHURCHILL A","5060605","2022-04-12 11:00","2022","04","12","11:00","-5.2","","-7.0","","87","","","","5","","28","","24.1","","101.29","","","","-13","","Snow"
"-94.07","58.74","CHURCHILL A","5060605","2022-04-12 12:00","2022","04","12","12:00","-4.7","","-7.0","","84","","","","4","","32","","24.1","","101.45","","","","-13","","Cloudy"
"-94.07","58.74","CHURCHILL A","5060605","2022-04-12 13:00","2022","04","12","13:00","-4.7","","-7.0","","84","","","","4","","28","","24.1","","101.58","","","","-12","","NA"
"-94.07","58.74","CHURCHILL A","5060605","2022-04-12 14:00","2022","04","12","14:00","-4.6","","-6.6","","86","","","","3","","27","","24.1","","101.72","","","","-12","","NA"
"-94.07","58.74","CHURCHILL A","5060605","2022-04-12 15:00","2022","04","12","15:00","-4.6","","-6.8","","85","","","","4","","34","","24.1","","101.83","","","","-13","","Cloudy"
"-94.07","58.74","CHURCHILL A","5060605","2022-04-12 16:00","2022","04","12","16:00","-4.5","","-6.8","","84","","","","4","","31","","24.1","","101.94","","","","-12","","NA"
"-94.07","58.74","CHURCHILL A","5060605","2022-04-12 17:00","2022","04","12","17:00","-4.9","","-6.8","","86","","","","4","","31","","24.1","","102.03","","","","-13","","NA"
"-94.07","58.74","CHURCHILL A","5060605","2022-04-12 18:00","2022","04","12","18:00","-5.2","","-7.0","","87","","","","4","","27","","24.1","","102.14","","","","-13","","Cloudy"
"-94.07","58.74","CHURCHILL A","5060605","2022-04-12 19:00","2022","04","12","19:00","-5.7","","-7.4","","88","","","","4","","32","","24.1","","102.24","","","","-14","","NA"
"-94.07","58.74","CHURCHILL A","5060605","2022-04-12 20:00","2022","04","12","20:00","-6.2","","-7.6","","90","","","","4","","33","","19.3","","102.35","","","","-15","","Blowing Snow"
"-94.07","58.74","CHURCHILL A","5060605","2022-04-12 21:00","2022","04","12","21:00","-7.5","","-8.7","","91","","","","3","","34","","16.1","","102.48","","","","-17","","Blowing Snow"
"-94.07","58.74","CHURCHILL A","5060605","2022-04-12 22:00","2022","04","12","22:00","-8.1","","-9.3","","91","","","","3","","30","","24.1","","102.58","","","","-17","","Blowing Snow"
"-94.07","58.74","CHURCHILL A","5060605","2022-04-12 23:00","2022","04","12","23:00","-8.6","","-10.1","","89","","","","4","","26","","24.1","","102.70","","","","-17","","Blowing Snow"
"-94.07","58.74","CHURCHILL A","5060605","2022-04-13 00:00","2022","04","13","00:00","-9.1","","-10.4","","90","","","","3","","26","","24.1","","102.75","","","","-18","","Blowing Snow"
"-94.07","58.74","CHURCHILL A","5060605","2022-04-13 01:00","2022","04","13","01:00","-9.8","","-11.4","","88","","","","4","","28","","24.1","","102.81","","","","-19","","Blowing Snow"
"-94.07","58.74","CHURCHILL A","5060605","2022-04-13 02:00","2022","04","13","02:00","-10.6","","-12.2","","88","","","","3","","28","","24.1","","102.84","","","","-20","","NA"
"-94.07","58.74","CHURCHILL A","5060605","2022-04-13 03:00","2022","04","13","03:00","-11.8","","-13.6","","87","","","","3","","32","","19.3","","102.81","","","","-22","","Snow"
"-94.07","58.74","CHURCHILL A","5060605","2022-04-13 04:00","2022","04","13","04:00","-12.1","","-14.0","","86","","","","3","","32","","19.3","","102.83","","","","-23","","Snow"
"-94.07","58.74","CHURCHILL A","5060605","2022-04-13 05:00","2022","04","13","05:00","-13.2","","-15.2","","85","","","","1","","31","","12.9","","102.92","","","","-24","","Snow"
"-94.07","58.74","CHURCHILL A","5060605","2022-04-13 06:00","2022","04","13","06:00","-14.3","","-16.2","","85","","","","36","","27","","19.3","","103.03","","","","-25","","Snow"
"-94.07","58.74","CHURCHILL A","5060605","2022-04-13 07:00","2022","04","13","07:00","-15.4","","-17.5","","84","","","","36","","23","","24.1","","103.19","","","","-25","","NA"
"-94.07","58.74","CHURCHILL A","5060605","2022-04-13 08:00","2022","04","13","08:00","-15.6","","-17.9","","83","","","","36","","25","","24.1","","103.25","","","","-26","","NA"
"-94.07","58.74","CHURCHILL A","5060605","2022-04-13 09:00","2022","04","13","09:00","-15.9","","-18.3","","82","","","","36","","26","","24.1","","103.22","","","","-27","","Cloudy"
"-94.07","58.74","CHURCHILL A","5060605","2022-04-13 10:00","2022","04","13","10:00","-15.9","","-18.4","","81","","","","36","","25","","24.1","","103.23","","","","-26","","NA"
"-94.07","58.74","CHURCHILL A","5060605","2022-04-13 11:00","2022","04","13","11:00","-15.9","","-18.4","","81","","","","36","","27","","24.1","","103.23","","","","-27","","NA"
"-94.07","58.74","CHURCHILL A","5060605","2022-04-13 12:00","2022","04","13","12:00","-15.6","","-18.5","","79","","","","1","","25","","24.1","","103.26","","","","-26","","Mostly Cloudy"
"-94.07","58.74","CHURCHILL A","5060605","2022-04-13 13:00","2022","04","13","13:00","-15.5","","-18.2","","80","","","","1","","27","","24.1","","103.27","","","","-26","","NA"
"-94.07","58.74","CHURCHILL A","5060605","2022-04-13 14:00","2022","04","13","14:00","-15.1","","-18.0","","79","","","","36","","23","","24.1","","103.26","","","","-25","","NA"
"-94.07","58.74","CHURCHILL A","5060605","2022-04-13 15:00","2022","04","13","15:00","-15.1","","-18.0","","79","","","","36","","25","","24.1","","103.23","","","","-25","","Mostly Cloudy"
"-94.07","58.74","CHURCHILL A","5060605","2022-04-13 16:00","2022","04","13","16:00","-15.4","","-18.4","","78","","","","1","","30","","24.1","","103.18","","","","-27","","NA"
"-94.07","58.74","CHURCHILL A","5060605","2022-04-13 17:00","2022","04","13","17:00","-15.6","","-18.6","","78","","","","1","","23","","24.1","","103.19","","","","-26","","NA"
"-94.07","58.74","CHURCHILL A","5060605","2022-04-13 18:00","2022","04","13","18:00","-15.9","","-18.9","","78","","","","2","","21","","24.1","","103.28","","","","-26","","Mainly Clear"
"-94.07","58.74","CHURCHILL A","5060605","2022-04-13 19:00","2022","04","13","19:00","-16.5","","-19.0","","81","","","","2","","20","","24.1","","103.23","","","","-26","","NA"
"-94.07","58.74","CHURCHILL A","5060605","2022-04-13 20:00","2022","04","13","20:00","-16.8","","-19.2","","82","","","","2","","23","","24.1","","103.23","","","","-27","","NA"
"-94.07","58.74","CHURCHILL A","5060605","2022-04-13 21:00","2022","04","13","21:00","-16.9","","-19.1","","83","","","","2","","24","","24.1","","103.18","","","","-27","","Mainly Clear"
"-94.07","58.74","CHURCHILL A","5060605","2022-04-13 22:00","2022","04","13","22:00","-17.2","","-19.4","","83","","","","4","","23","","16.1","","103.16","","","","-28","","Ice Crystals"
"-94.07","58.74","CHURCHILL A","5060605","2022-04-13 23:00","2022","04","13","23:00","-17.9","","-20.1","","84","","","","4","","18","","24.1","","103.10","","","","-27","","Ice Crystals"
"-94.07","58.74","CHURCHILL A","5060605","2022-04-14 00:00","2022","04","14","00:00","-18.1","","-20.2","","84","","","","3","","22","","24.1","","103.01","","","","-29","","Ice Crystals"
"-94.07","58.74","CHURCHILL A","5060605","2022-04-14 01:00","2022","04","14","01:00","-17.6","","-19.8","","83","","","","4","","20","","24.1","","103.00","","","","-27","","Ice Crystals"
"-94.07","58.74","CHURCHILL A","5060605","2022-04-14 02:00","2022","04","14","02:00","-17.9","","-20.1","","83","","","","4","","19","","24.1","","102.98","","","","-28","","Ice Crystals"
"-94.07","58.74","CHURCHILL A","5060605","2022-04-14 03:00","2022","04","14","03:00","-17.6","","-19.8","","83","","","","2","","18","","22.5","","102.95","","","","-27","","Ice Crystals"
"-94.07","58.74","CHURCHILL A","5060605","2022-04-14 04:00","2022","04","14","04:00","-16.7","","-18.8","","84","","","","3","","24","","24.1","","102.84","","","","-27","","Ice Crystals"
"-94.07","58.74","CHURCHILL A","5060605","2022-04-14 05:00","2022","04","14","05:00","-16.3","","-18.4","","84","","","","3","","30","","9.7","","102.79","","","","-28","","Ice Crystals"
"-94.07","58.74","CHURCHILL A","5060605","2022-04-14 06:00","2022","04","14","06:00","-15.8","","-17.9","","84","","","","4","","30","","9.7","","102.74","","","","-27","","Ice Crystals"
"-94.07","58.74","CHURCHILL A","5060605","2022-04-14 07:00","2022","04","14","07:00","-15.4","","-17.7","","83","","","","4","","35","","12.9","","102.66","","","","-27","","Snow"
"-94.07","58.74","CHURCHILL A","5060605","2022-04-14 08:00","2022","04","14","08:00","-15.6","","-18.2","","81","","","","4","","27","","19.3","","102.67","","","","-26","","Snow"
"-94.07","58.74","CHURCHILL A","5060605","2022-04-14 09:00","2022","04","14","09:00","-14.9","","-17.6","","80","","","","4","","32","","19.3","","102.63","","","","-26","","Snow"
"-94.07","58.74","CHURCHILL A","5060605","2022-04-14 10:00","2022","04","14","10:00"
"-94.07","58.74","CHURCHILL A","5060605","2022-04-14 11:00","2022","04","14","11:00","-13.8","","-17.0","","77","","","","5","","33","","19.3","","102.57","","","","-25","","Snow,Blowing Snow"
"-94.07","58.74","CHURCHILL A","5060605","2022-04-14 12:00","2022","04","14","12:00","-13.5","","-16.4","","79","","","","3","","32","","19.3","","102.54","","","","-24","","Snow,Blowing Snow"
"-94.07","58.74","CHURCHILL A","5060605","2022-04-14 13:00","2022","04","14","13:00","-12.8","","-15.7","","79","","","","4","","30","","24.1","","102.49","","","","-23","","Blowing Snow"
"-94.07","58.74","CHURCHILL A","5060605","2022-04-14 14:00","2022","04","14","14:00","-12.4","","-15.6","","77","","","","3","","30","","24.1","","102.43","","","","-23","","NA"
"-94.07","58.74","CHURCHILL A","5060605","2022-04-14 15:00","2022","04","14","15:00","-12.1","","-15.3","","78","","","","3","","29","","24.1","","102.37","","","","-22","","Mainly Clear"
"-94.07","58.74","CHURCHILL A","5060605","2022-04-14 16:00","2022","04","14","16:00","-12.5","","-15.6","","78","","","","3","","34","","24.1","","102.34","","","","-23","","NA"
"-94.07","58.74","CHURCHILL A","5060605","2022-04-14 17:00","2022","04","14","17:00","-13.1","","-16.3","","77","","","","2","","35","","24.1","","102.29","","","","-24","","NA"
"-94.07","58.74","CHURCHILL A","5060605","2022-04-14 18:00","2022","04","14","18:00","-13.3","","-16.2","","79","","","","2","","32","","24.1","","102.26","","","","-24","","Blowing Snow"
"-94.07","58.74","CHURCHILL A","5060605","2022-04-14 19:00","2022","04","14","19:00","-13.9","","-16.6","","80","","","","2","","28","","24.1","","102.27","","","","-24","","Blowing Snow"
"-94.07","58.74","CHURCHILL A","5060605","2022-04-14 20:00","2022","04","14","20:00","-14.2","","-16.6","","82","","","","2","","26","","24.1","","102.27","","","","-24","","NA"
"-94.07","58.74","CHURCHILL A","5060605","2022-04-14 21:00","2022","04","14","21:00","-14.5","","-16.6","","84","","","","2","","28","","24.1","","102.24","","","","-25","","Mostly Cloudy"
"-94.07","58.74","CHURCHILL A","5060605","2022-04-14 22:00","2022","04","14","22:00","-14.7","","-16.8","","84","","","","2","","32","","24.1","","102.15","","","","-26","","NA"
"-94.07","58.74","CHURCHILL A","5060605","2022-04-14 23:00","2022","04","14","23:00","-15.1","","-17.2","","84","","","","2","","32","","24.1","","102.11","","","","-26","","NA"
"-94.07","58.74","CHURCHILL A","5060605","2022-04-15 00:00","2022","04","15","00:00","-15.2","","-17.2","","85","","","","2","","31","","24.1","","102.04","","","","-26","","Clear"
"-94.07","58.74","CHURCHILL A","5060605","2022-04-15 01:00","2022","04","15","01:00","-15.4","","-17.4","","85","","","","2","","27","","24.1","","101.97","","","","-26","","NA"
"-94.07","58.74","CHURCHILL A","5060605","2022-04-15 02:00","2022","04","15","02:00","-15.6","","-17.6","","85","","","","1","","28","","24.1","","101.95","","","","-26","","NA"
"-94.07","58.74","CHURCHILL A","5060605","2022-04-15 03:00","2022","04","15","03:00","-15.6","","-17.6","","85","","","","1","","29","","24.1","","101.91","","","","-27","","Clear"
"-94.07","58.74","CHURCHILL A","5060605","2022-04-15 04:00","2022","04","15","04:00","-15.6","","-17.7","","84","","","","1","","29","","24.1","","101.88","","","","-27","","NA"
"-94.07","58.74","CHURCHILL A","5060605","2022-04-15 05:00","2022","04","15","05:00","-15.7","","-17.9","","83","","","","1","","27","","24.1","","101.85","","","","-26","","NA"
"-94.07","58.74","CHURCHILL A","5060605","2022-04-15 06:00","2022","04","15","06:00","-15.7","","-17.8","","84","","","","1","","28","","24.1","","101.85","","","","-27","","Mostly Cloudy"
"-94.07","58.74","CHURCHILL A","5060605","2022-04-15 07:00","2022","04","15","07:00","-15.4","","-17.7","","83","","","","36","","28","","24.1","","101.83","","","","-26","","NA"
"-94.07","58.74","CHURCHILL A","5060605","2022-04-15 08:00","2022","04","15","08:00","-14.7","","-17.7","","78","","","","36","","27","","24.1","","101.86","","","","-25","","NA"
"-94.07","58.74","CHURCHILL A","5060605","2022-04-15 09:00","2022","04","15","09:00","-13.9","","-17.1","","77","","","","36","","28","","24.1","","101.87","","","","-24","","Mostly Cloudy"
"-94.07","58.74","CHURCHILL A","5060605","2022-04-15 10:00","2022","04","15","10:00","-13.3","","-16.6","","77","","","","36","","29","","24.1","","101.89","","","","-24","","NA"
"-94.07","58.74","CHURCHILL A","5060605","2022-04-15 11:00","2022","04","15","11:00","-12.9","","-16.2","","76","","","","36","","30","","24.1","","101.90","","","","-23","","NA"
"-94.07","58.74","CHURCHILL A","5060605","2022-04-15 12:00","2022","04","15","12:00","-12.4","","-16.0","","75","","","","35","","27","","24.1","","101.91","","","","-22","","Mostly Cloudy"
"-94.07","58.74","CHURCHILL A","5060605","2022-04-15 13:00","2022","04","15","13:00","-12.1","","-15.2","","78","","","","35","","30","","24.1","","101.91","","","","-22","","NA"
"-94.07","58.74","CHURCHILL A","5060605","2022-04-15 14:00","2022","04","15","14:00","-12.2","","-15.0","","80","","","","35","","29","","24.1","","101.92","","","","-22","","NA"
"-94.07","58.74","CHURCHILL A","5060605","2022-04-15 15:00","2022","04","15","15:00","-12.1","","-14.9","","80","","","","34","","34","","24.1","","101.93","","","","-23","","Mainly Clear"
"-94.07","58.74","CHURCHILL A","5060605","2022-04-15 16:00","2022","04","15","16:00","-12.4","","-15.3","","79","","","","35","","29","","24.1","","101.96","","","","-23","","NA"
"-94.07","58.74","CHURCHILL A","5060605","2022-04-15 17:00","2022","04","15","17:00","-12.9","","-15.8","","79","","","","34","","31","","24.1","","102.00","","","","-23","","NA"
"-94.07","58.74","CHURCHILL A","5060605","2022-04-15 18:00","2022","04","15","18:00","-13.4","","-16.3","","79","","","","34","","26","","24.1","","102.03","","","","-23","","Mostly Cloudy"
"-94.07","58.74","CHURCHILL A","5060605","2022-04-15 19:00","2022","04","15","19:00","-14.3","","-16.7","","82","","","","34","","24","","24.1","","102.06","","","","-24","","NA"
"-94.07","58.74","CHURCHILL A","5060605","2022-04-15 20:00","2022","04","15","20:00","-15.1","","-17.5","","82","","","","34","","22","","24.1","","102.07","","","","-25","","NA"
"-94.07","58.74","CHURCHILL A","5060605","2022-04-15 21:00","2022","04","15","21:00","-15.9","","-18.0","","84","","","","34","","22","","24.1","","102.08","","","","-26","","Mainly Clear"
"-94.07","58.74","CHURCHILL A","5060605","2022-04-15 22:00","2022","04","15","22:00","-16.2","","-18.3","","84","","","","35","","23","","24.1","","102.10","","","","-26","","NA"
"-94.07","58.74","CHURCHILL A","5060605","2022-04-15 23:00","2022","04","15","23:00","-16.4","","-18.5","","84","","","","35","","24","","24.1","","102.12","","","","-27","","NA"
"-94.07","58.74","CHURCHILL A","5060605","2022-04-16 00:00","2022","04","16","00:00","-16.6","","-18.6","","85","","","","35","","25","","24.1","","102.13","","","","-27","","Clear"
"-94.07","58.74","CHURCHILL A","5060605","2022-04-16 01:00","2022","04","16","01:00","-17.0","","-19.0","","85","","","","35","","22","","24.1","","102.15","","","","-27","","NA"
"-94.07","58.74","CHURCHILL A","5060605","2022-04-16 02:00","2022","04","16","02:00","-17.8","","-19.7","","85","","","","34","","18","","24.1","","102.20","","","","-27","","NA"
"-94.07","58.74","CHURCHILL A","5060605","2022-04-16 03:00","2022","04","16","03:00","-18.1","","-20.0","","85","","","","34","","18","","24.1","","102.23","","","","-28","","Clear"
"-94.07","58.74","CHURCHILL A","5060605","2022-04-16 04:00","2022","04","16","04:00","-18.7","","-20.9","","83","","","","31","","10","","24.1","","102.27","","","","-26","","NA"
"-94.07","58.74","CHURCHILL A","5060605","2022-04-16 05:00","2022","04","16","05:00","-20.3","","-22.3","","84","","","","32","","15","","24.1","","102.33","","","","-29","","NA"
"-94.07","58.74","CHURCHILL A","5060605","2022-04-16 06:00","2022","04","16","06:00","-21.5","","-23.9","","81","","","","29","","10","","24.1","","102.37","","","","-29","","Clear"
"-94.07","58.74","CHURCHILL A","5060605","2022-04-16 07:00","2022","04","16","07:00","-19.9","","-22.2","","82","","","","31","","12","","24.1","","102.41","","","","-28","","NA"
"-94.07","58.74","CHURCHILL A","5060605","2022-04-16 08:00","2022","04","16","08:00","-18.8","","-21.3","","81","","","","34","","19","","24.1","","102.48","","","","-29","","NA"
"-94.07","58.74","CHURCHILL A","5060605","2022-04-16 09:00","2022","04","16","09:00","-18.0","","-20.8","","79","","","","34","","22","","24.1","","102.52","","","","-28","","Clear"
"-94.07","58.74","CHURCHILL A","5060605","2022-04-16 10:00","2022","04","16","10:00","-17.5","","-20.3","","79","","","","31","","19","","24.1","","102.56","","","","-27","","NA"
"-94.07","58.74","CHURCHILL A","5060605","2022-04-16 11:00","2022","04","16","11:00","-16.9","","-19.8","","78","","","","32","","20","","24.1","","102.57","","","","-27","","NA"
"-94.07","58.74","CHURCHILL A","5060605","2022-04-16 12:00","2022","04","16","12:00","-16.0","","-18.9","","79","","","","32","","23","","24.1","","102.61","","","","-26","","Clear"
"-94.07","58.74","CHURCHILL A","5060605","2022-04-16 13:00","2022","04","16","13:00","-15.6","","-19.2","","74","","","","33","","23","","24.1","","102.62","","","","-26","","NA"
"-94.07","58.74","CHURCHILL A","5060605","2022-04-16 14:00","2022","04","16","14:00","-15.6","","-19.3","","74","","","","33","","21","","24.1","","102.65","","","","-25","","NA"
"-94.07","58.74","CHURCHILL A","5060605","2022-04-16 15:00","2022","04","16","15:00","-15.6","","-19.7","","71","","","","33","","19","","24.1","","102.66","","","","-25","","Mainly Clear"
"-94.07","58.74","CHURCHILL A","5060605","2022-04-16 16:00","2022","04","16","16:00","-15.3","","-20.3","","66","","","","33","","16","","24.1","","102.67","","","","-24","","NA"
"-94.07","58.74","CHURCHILL A","5060605","2022-04-16 17:00","2022","04","16","17:00","-15.3","","-20.4","","65","","","","35","","14","","24.1","","102.70","","","","-23","","NA"
"-94.07","58.74","CHURCHILL A","5060605","2022-04-16 18:00","2022","04","16","18:00","-15.6","","-19.4","","73","","","","1","","8","","24.1","","102.69","","","","-21","","Mainly Clear"
"-94.07","58.74","CHURCHILL A","5060605","2022-04-16 19:00","2022","04","16","19:00","-16.3","","-20.2","","72","","","","1","","7","","24.1","","102.68","","","","-21","","NA"
"-94.07","58.74","CHURCHILL A","5060605","2022-04-16 20:00","2022","04","16","20:00","-16.9","","-20.2","","76","","","","5","","4","","24.1","","102.69","","","","-20","","NA"
"-94.07","58.74","CHURCHILL A","5060605","2022-04-16 21:00","2022","04","16","21:00","-17.3","","-20.3","","78","","","","8","","6","","24.1","","102.70","","","","-22","","Clear"
"-94.07","58.74","CHURCHILL A","5060605","2022-04-16 22:00","2022","04","16","22:00","-17.7","","-20.1","","82","","","","9","","5","","24.1","","102.73","","","","-22","","NA"
"-94.07","58.74","CHURCHILL A","5060605","2022-04-16 23:00","2022","04","16","23:00","-17.6","","-20.0","","82","","","","11","","5","","24.1","","102.74","","","","-22","","NA"
"-94.07","58.74","CHURCHILL A","5060605","2022-04-17 00:00","2022","04","17","00:00","-18.5","","-20.4","","85","","","","17","","6","","24.1","","102.77","","","","-23","","Clear"
"-94.07","58.74","CHURCHILL A","5060605","2022-04-17 01:00","2022","04","17","01:00","-18.3","","-20.4","","84","","","","12","","6","","24.1","","102.80","","","","-23","","NA"
"-94.07","58.74","CHURCHILL A","5060605","2022-04-17 02:00","2022","04","17","02:00","-18.5","","-20.4","","85","","","","14","","8","","24.1","","102.82","","","","-24","","NA"
"-94.07","58.74","CHURCHILL A","5060605","2022-04-17 03:00","2022","04","17","03:00","-19.5","","-21.0","","88","","","","17","","12","","24.1","","102.82","","","","-27","","Mainly Clear"
"-94.07","58.74","CHURCHILL A","5060605","2022-04-17 04:00","2022","04","17","04:00","-19.6","","-21.8","","83","","","","14","","12","","24.1","","102.78","","","","-28","","NA"
"-94.07","58.74","CHURCHILL A","5060605","2022-04-17 05:00","2022","04","17","05:00","-19.6","","-21.8","","83","","","","13","","13","","24.1","","102.76","","","","-28","","NA"
"-94.07","58.74","CHURCHILL A","5060605","2022-04-17 06:00","2022","04","17","06:00","-19.0","","-21.1","","84","","","","12","","12","","24.1","","102.76","","","","-27","","Cloudy"
"-94.07","58.74","CHURCHILL A","5060605","2022-04-17 07:00","2022","04","17","07:00","-17.9","","-20.1","","83","","","","11","","12","","24.1","","102.72","","","","-25","","NA"
"-94.07","58.74","CHURCHILL A","5060605","2022-04-17 08:00","2022","04","17","08:00","-15.5","","-18.6","","78","","","","14","","15","","24.1","","102.70","","","","-24","","NA"
"-94.07","58.74","CHURCHILL A","5060605","2022-04-17 09:00","2022","04","17","09:00","-12.9","","-17.8","","67","","","","16","","15","","24.1","","102.65","","","","-20","","Mostly Cloudy"
"-94.07","58.74","CHURCHILL A","5060605","2022-04-17 10:00","2022","04","17","10:00","-10.4","","-16.4","","62","","","","18","","15","","24.1","","102.63","","","","-17","","NA"
"-94.07","58.74","CHURCHILL A","5060605","2022-04-17 11:00","2022","04","17","11:00","-8.5","","-15.6","","57","","","","19","","10","","24.1","","102.60","","","","-13","","NA"
"-94.07","58.74","CHURCHILL A","5060605","2022-04-17 12:00","2022","04","17","12:00","-7.2","","-14.6","","56","","","","20","","9","","24.1","","102.57","","","","-12","","Mostly Cloudy"
"-94.07","58.74","CHURCHILL A","5060605","2022-04-17 13:00","2022","04","17","13:00","-5.8","","-12.6","","59","","","","20","","12","","24.1","","102.52","","","","-11","","NA"
"-94.07","58.74","CHURCHILL A","5060605","2022-04-17 14:00","2022","04","17","14:00","-4.8","","-11.5","","60","","","","17","","14","","24.1","","102.45","","","","-10","","NA"
"-94.07","58.74","CHURCHILL A","5060605","2022-04-17 15:00","2022","04","17","15:00","-3.3","","-12.1","","51","","","","23","","16","","24.1","","102.39","","","","-9","","Mainly Clear"
"-94.07","58.74","CHURCHILL A","5060605","2022-04-17 16:00","2022","04","17","16:00","-5.3","","-10.2","","69","","","","33","","14","","24.1","","102.39","","","","-11","","NA"
"-94.07","58.74","CHURCHILL A","5060605","2022-04-17 17:00","2022","04","17","17:00","-7.6","","-10.0","","83","","","","34","","13","","24.1","","102.37","","","","-13","","NA"
"-94.07","58.74","CHURCHILL A","5060605","2022-04-17 18:00","2022","04","17","18:00","-9.0","","-10.9","","86","","","","34","","15","","24.1","","102.36","","","","-16","","Mainly Clear"
"-94.07","58.74","CHURCHILL A","5060605","2022-04-17 19:00","2022","04","17","19:00","-11.1","","-12.7","","88","","","","35","","19","","24.1","","102.36","","","","-19","","NA"
"-94.07","58.74","CHURCHILL A","5060605","2022-04-17 20:00","2022","04","17","20:00","-12.9","","-14.5","","88","","","","36","","18","","24.1","","102.39","","","","-21","","NA"
"-94.07","58.74","CHURCHILL A","5060605","2022-04-17 21:00","2022","04","17","21:00","-13.9","","-15.5","","88","","","","36","","18","","24.1","","102.40","","","","-22","","Mostly Cloudy"
"-94.07","58.74","CHURCHILL A","5060605","2022-04-17 22:00","2022","04","17","22:00","-13.8","","-15.7","","86","","","","36","","23","","24.1","","102.40","","","","-23","","NA"
"-94.07","58.74","CHURCHILL A","5060605","2022-04-17 23:00","2022","04","17","23:00","-14.1","","-16.1","","85","","","","36","","17","","24.1","","102.41","","","","-22","","NA"
"-94.07","58.74","CHURCHILL A","5060605","2022-04-18 00:00","2022","04","18","00:00","-13.9","","-16.1","","84","","","","1","","19","","9.7","","102.42","","","","-23","","Snow"
"-94.07","58.74","CHURCHILL A","5060605","2022-04-18 01:00","2022","04","18","01:00","-14.4","","-16.5","","84","","","","36","","21","","4.8","","102.40","","","","-24","","Snow"
"-94.07","58.74","CHURCHILL A","5060605","2022-04-18 02:00","2022","04","18","02:00","-14.6","","-16.7","","84","","","","36","","18","","9.7","","102.41","","","","-23","","Snow"
"-94.07","58.74","CHURCHILL A","5060605","2022-04-18 03:00","2022","04","18","03:00","-15.2","","-18.2","","78","","","","36","","16","","12.9","","102.41","","","","-23","","Snow"
"-94.07","58.74","CHURCHILL A","5060605","2022-04-18 04:00","2022","04","18","04:00","-15.8","","-19.0","","77","","","","36","","13","","24.1","","102.40","","","","-23","","NA"
"-94.07","58.74","CHURCHILL A","5060605","2022-04-18 05:00","2022","04","18","05:00","-19.8","","-21.9","","84","","","","29","","9","","24.1","","102.42","","","","-27","","NA"
"-94.07","58.74","CHURCHILL A","5060605","2022-04-18 06:00","2022","04","18","06:00","-21.4","","-23.8","","81","","","","29","","10","","24.1","","102.43","","","","-29","","Mainly Clear"
"-94.07","58.74","CHURCHILL A","5060605","2022-04-18 07:00","2022","04","18","07:00","-21.4","","-24.3","","78","","","","29","","13","","24.1","","102.45","","","","-30","","NA"
"-94.07","58.74","CHURCHILL A","5060605","2022-04-18 08:00","2022","04","18","08:00","-21.1","","-24.4","","75","","","","29","","13","","24.1","","102.44","","","","-30","","NA"
"-94.07","58.74","CHURCHILL A","5060605","2022-04-18 09:00","2022","04","18","09:00","-19.7","","-23.4","","73","","","","29","","13","","24.1","","102.44","","","","-28","","Mainly Clear"
"-94.07","58.74","CHURCHILL A","5060605","2022-04-18 10:00","2022","04","18","10:00","-17.3","","-21.5","","70","","","","30","","10","","24.1","","102.43","","","","-24","","NA"
"-94.07","58.74","CHURCHILL A","5060605","2022-04-18 11:00","2022","04","18","11:00","-14.9","","-20.1","","65","","","","29","","9","","24.1","","102.41","","","","-21","","NA"
"-94.07","58.74","CHURCHILL A","5060605","2022-04-18 12:00","2022","04","18","12:00","-13.4","","-19.4","","61","","","","30","","9","","24.1","","102.36","","","","-19","","Mainly Clear"
"-94.07","58.74","CHURCHILL A","5060605","2022-04-18 13:00","2022","04","18","13:00","-12.3","","-18.8","","59","","","","32","","7","","24.1","","102.32","","","","-17","","NA"
"-94.07","58.74","CHURCHILL A","5060605","2022-04-18 14:00","2022","04","18","14:00","-10.9","","-17.7","","58","","","","35","","10","","24.1","","102.28","","","","-16","","NA"
"-94.07","58.74","CHURCHILL A","5060605","2022-04-18 15:00","2022","04","18","15:00","-10.1","","-17.6","","55","","","","35","","8","","24.1","","102.23","","","","-15","","Mainly Clear"
"-94.07","58.74","CHURCHILL A","5060605","2022-04-18 16:00","2022","04","18","16:00","-10.2","","-17.0","","58","","","","10","","4","","24.1","","102.20","","","","-13","","NA"
"-94.07","58.74","CHURCHILL A","5060605","2022-04-18 17:00","2022","04","18","17:00","-10.1","","-17.3","","56","","","","8","","7","","24.1","","102.15","","","","-14","","NA"
"-94.07","58.74","CHURCHILL A","5060605","2022-04-18 18:00","2022","04","18","18:00","-11.1","","-16.6","","64","","","","11","","12","","24.1","","102.09","","","","-17","","Mostly Cloudy"
"-94.07","58.74","CHURCHILL A","5060605","2022-04-18 19:00","2022","04","18","19:00","-10.9","","-16.1","","66","","","","14","","13","","24.1","","102.07","","","","-17","","NA"
"-94.07","58.74","CHURCHILL A","5060605","2022-04-18 20:00","2022","04","18","20:00","-11.3","","-15.7","","70","","","","14","","14","","24.1","","102.05","","","","-18","","NA"
"-94.07","58.74","CHURCHILL A","5060605","2022-04-18 21:00","2022","04","18","21:00","-11.1","","-15.9","","68","","","","18","","12","","24.1","","102.00","","","","-17","","Mostly Cloudy"
"-94.07","58.74","CHURCHILL A","5060605","2022-04-18 22:00","2022","04","18","22:00","-11.7","","-15.6","","73","","","","18","","12","","24.1","","101.98","","","","-18","","NA"
"-94.07","58.74","CHURCHILL A","5060605","2022-04-18 23:00","2022","04","18","23:00","-11.4","","-15.3","","73","","","","19","","13","","24.1","","101.93","","","","-18","","NA"
"-94.07","58.74","CHURCHILL A","5060605","2022-04-19 00:00","2022","04","19","00:00","-11.3","","-14.9","","75","","","","19","","12","","24.1","","101.89","","","","-17","","Cloudy"
"-94.07","58.74","CHURCHILL A","5060605","2022-04-19 01:00","2022","04","19","01:00","-11.3","","-14.4","","78","","","","20","","10","","24.1","","101.84","","","","-17","","NA"
"-94.07","58.74","CHURCHILL A","5060605","2022-04-19 02:00","2022","04","19","02:00","-11.5","","-14.0","","82","","","","22","","11","","24.1","","101.80","","","","-17","","NA"
"-94.07","58.74","CHURCHILL A","5060605","2022-04-19 03:00","2022","04","19","03:00","-11.7","","-13.5","","86","","","","21","","11","","24.1","","101.77","","","","-18","","Mostly Cloudy"
"-94.07","58.74","CHURCHILL A","5060605","2022-04-19 04:00","2022","04","19","04:00","-11.8","","-13.4","","88","","","","23","","11","","19.3","","101.77","","","","-18","","Snow"
"-94.07","58.74","CHURCHILL A","5060605","2022-04-19 05:00","2022","04","19","05:00","-13.1","","-14.4","","90","","","","27","","10","","24.1","","101.77","","","","-19","","NA"
"-94.07","58.74","CHURCHILL A","5060605","2022-04-19 06:00","2022","04","19","06:00","-13.6","","-14.8","","91","","","","31","","10","","24.1","","101.79","","","","-20","","Clear"
"-94.07","58.74","CHURCHILL A","5060605","2022-04-19 07:00","2022","04","19","07:00","-12.2","","-14.1","","86","","","","2","","14","","24.1","","101.79","","","","-19","","NA"
"-94.07","58.74","CHURCHILL A","5060605","2022-04-19 08:00","2022","04","19","08:00","-11.8","","-14.1","","83","","","","2","","13","","24.1","","101.83","","","","-18","","NA"
"-94.07","58.74","CHURCHILL A","5060605","2022-04-19 09:00","2022","04","19","09:00","-11.9","","-14.1","","84","","","","2","","14","","24.1","","101.86","","","","-19","","Mainly Clear"
"-94.07","58.74","CHURCHILL A","5060605","2022-04-19 10:00","2022","04","19","10:00","-11.7","","-14.2","","82","","","","1","","9","","24.1","","101.91","","","","-17","","NA"
"-94.07","58.74","CHURCHILL A","5060605","2022-04-19 11:00","2022","04","19","11:00","-11.6","","-14.9","","77","","","","4","","5","","24.1","","101.90","","","","-15","","NA"
"-94.07","58.74","CHURCHILL A","5060605","2022-04-19 12:00","2022","04","19","12:00","-11.4","","-15.1","","74","","","","35","","7","","24.1","","101.91","","","","-16","","Mainly Clear"
"-94.07","58.74","CHURCHILL A","5060605","2022-04-19 13:00","2022","04","19","13:00","-11.0","","-14.5","","76","","","","36","","10","","24.1","","101.91","","","","-16","","NA"
"-94.07","58.74","CHURCHILL A","5060605","2022-04-19 14:00","2022","04","19","14:00","-10.9","","-15.2","","71","","","","7","","4","","24.1","","101.92","","","","-13","","NA"
"-94.07","58.74","CHURCHILL A","5060605","2022-04-19 15:00","2022","04","19","15:00","-10.2","","-15.0","","68","","","","5","","6","","24.1","","101.90","","","","-14","","Mainly Clear"
"-94.07","58.74","CHURCHILL A","5060605","2022-04-19 16:00","2022","04","19","16:00","-10.2","","-14.7","","70","","","","7","","5","","24.1","","101.88","","","","-13","","NA"
"-94.07","58.74","CHURCHILL A","5060605","2022-04-19 17:00","2022","04","19","17:00","-10.4","","-14.5","","72","","","","7","","6","","24.1","","101.86","","","","-14","","NA"
"-94.07","58.74","CHURCHILL A","5060605","2022-04-19 18:00","2022","04","19","18:00","-10.8","","-14.7","","73","","","","9","","9","","24.1","","101.83","","","","-16","","Clear"
"-94.07","58.74","CHURCHILL A","5060605","2022-04-19 19:00","2022","04","19","19:00","-11.5","","-15.8","","71","","","","13","","10","","24.1","","101.82","","","","-17","","NA"
"-94.07","58.74","CHURCHILL A","5060605","2022-04-19 20:00","2022","04","19","20:00","-12.4","","-16.5","","72","","","","17","","14","","24.1","","101.83","","","","-19","","NA"
"-94.07","58.74","CHURCHILL A","5060605","2022-04-19 21:00","2022","04","19","21:00","-14.0","","-17.4","","76","","","","18","","14","","24.1","","101.82","","","","-21","","Clear"
"-94.07","58.74","CHURCHILL A","5060605","2022-04-19 22:00","2022","04","19","22:00","-14.9","","-17.6","","80","","","","18","","16","","24.1","","101.79","","","","-23","","NA"
"-94.07","58.74","CHURCHILL A","5060605","2022-04-19 23:00","2022","04","19","23:00","-15.9","","-18.3","","82","","","","18","","16","","24.1","","101.77","","","","-24","","NA"
"-94.07","58.74","CHURCHILL A","5060605","2022-04-20 00:00","2022","04","20","00:00","-16.7","","-18.4","","87","","","","19","","17","","24.1","","101.75","","","","-26","","Clear"
"-94.07","58.74","CHURCHILL A","5060605","2022-04-20 01:00","2022","04","20","01:00","-16.0","","-17.4","","89","","","","20","","14","","24.1","","101.71","","","","-24","","NA"
"-94.07","58.74","CHURCHILL A","5060605","2022-04-20 02:00","2022","04","20","02:00","-14.7","","-16.1","","89","","","","20","","16","","24.1","","101.67","","","","-23","","NA"
"-94.07","58.74","CHURCHILL A","5060605","2022-04-20 03:00","2022","04","20","03:00","-16.0","","-17.7","","87","","","","20","","15","","24.1","","101.64","","","","-24","","Clear"
"-94.07","58.74","CHURCHILL A","5060605","2022-04-20 04:00","2022","04","20","04:00","-16.4","","-18.2","","86","","","","20","","16","","24.1","","101.61","","","","-25","","NA"
"-94.07","58.74","CHURCHILL A","5060605","2022-04-20 05:00","2022","04","20","05:00","-17.1","","-19.0","","85","","","","21","","14","","24.1","","101.59","","","","-25","","NA"
"-94.07","58.74","CHURCHILL A","5060605","2022-04-20 06:00","2022","04","20","06:00","-15.0","","-16.8","","87","","","","22","","14","","24.1","","101.58","","","","-23","","Clear"
"-94.07","58.74","CHURCHILL A","5060605","2022-04-20 07:00","2022","04","20","07:00","-13.1","","-14.8","","87","","","","22","","15","","24.1","","101.55","","","","-21","","NA"
"-94.07","58.74","CHURCHILL A","5060605","2022-04-20 08:00","2022","04","20","08:00","-11.0","","-14.1","","78","","","","22","","16","","24.1","","101.51","","","","-18","","NA"
"-94.07","58.74","CHURCHILL A","5060605","2022-04-20 09:00","2022","04","20","09:00","-8.1","","-14.2","","62","","","","22","","16","","24.1","","101.48","","","","-15","","Mainly Clear"
"-94.07","58.74","CHURCHILL A","5060605","2022-04-20 10:00","2022","04","20","10:00","-5.1","","-13.9","","50","","","","23","","11","","24.1","","101.43","","","","-10","","NA"
"-94.07","58.74","CHURCHILL A","5060605","2022-04-20 11:00","2022","04","20","11:00","-3.5","","-13.3","","47","","","","22","","14","","24.1","","101.37","","","","-9","","NA"
"-94.07","58.74","CHURCHILL A","5060605","2022-04-20 12:00","2022","04","20","12:00","-2.6","","-12.2","","48","","","","21","","17","","24.1","","101.32","","","","-8","","Clear"
"-94.07","58.74","CHURCHILL A","5060605","2022-04-20 13:00","2022","04","20","13:00","-1.7","","-12.2","","45","","","","22","","16","","24.1","","101.27","","","","-7","","NA"
"-94.07","58.74","CHURCHILL A","5060605","2022-04-20 14:00","2022","04","20","14:00","-1.6","","-12.1","","45","","","","22","","16","","24.1","","101.23","","","","-7","","NA"
"-94.07","58.74","CHURCHILL A","5060605","2022-04-20 15:00","2022","04","20","15:00","-1.6","","-12.0","","45","","","","20","","17","","24.1","","101.18","","","","-7","","Mainly Clear"
"-94.07","58.74","CHURCHILL A","5060605","2022-04-20 16:00","2022","04","20","16:00","-1.4","","-11.9","","45","","","","24","","14","","24.1","","101.15","","","","-6","","NA"
"-94.07","58.74","CHURCHILL A","5060605","2022-04-20 17:00","2022","04","20","17:00","-2.7","","-10.9","","53","","","","18","","18","","24.1","","101.14","","","","-8","","NA"
"-94.07","58.74","CHURCHILL A","5060605","2022-04-20 18:00","2022","04","20","18:00","-3.7","","-11.7","","54","","","","18","","16","","24.1","","101.12","","","","-9","","Mainly Clear"
"-94.07","58.74","CHURCHILL A","5060605","2022-04-20 19:00","2022","04","20","19:00","-5.4","","-11.8","","61","","","","19","","16","","24.1","","101.11","","","","-11","","NA"
"-94.07","58.74","CHURCHILL A","5060605","2022-04-20 20:00","2022","04","20","20:00","-7.5","","-12.2","","69","","","","21","","12","","24.1","","101.12","","","","-13","","NA"
"-94.07","58.74","CHURCHILL A","5060605","2022-04-20 21:00","2022","04","20","21:00","-8.1","","-12.5","","71","","","","22","","14","","24.1","","101.11","","","","-14","","Clear"
"-94.07","58.74","CHURCHILL A","5060605","2022-04-20 22:00","2022","04","20","22:00","-8.5","","-14.1","","65","","","","35","","20","","24.1","","101.15","","","","-16","","NA"
"-94.07","58.74","CHURCHILL A","5060605","2022-04-20 23:00","2022","04","20","23:00","-10.4","","-14.3","","73","","","","35","","21","","24.1","","101.18","","","","-19","","NA"
"-94.07","58.74","CHURCHILL A","5060605","2022-04-21 00:00","2022","04","21","00:00","-11.4","","-14.5","","78","","","","35","","20","","24.1","","101.20","","","","-20","","Clear"
"-94.07","58.74","CHURCHILL A","5060605","2022-04-21 01:00","2022","04","21","01:00","-12.6","","-15.1","","82","","","","36","","23","","24.1","","101.22","","","","-22","","NA"
"-94.07","58.74","CHURCHILL A","5060605","2022-04-21 02:00","2022","04","21","02:00","-14.6","","-17.3","","80","","","","34","","28","","24.1","","101.27","","","","-25","","NA"
"-94.07","58.74","CHURCHILL A","5060605","2022-04-21 03:00","2022","04","21","03:00","-15.4","","-18.1","","80","","","","35","","27","","24.1","","101.33","","","","-26","","Mostly Cloudy"
"-94.07","58.74","CHURCHILL A","5060605","2022-04-21 04:00","2022","04","21","04:00","-17.3","","-19.5","","83","","","","31","","23","","8.1","","101.36","","","","-28","","Snow"
"-94.07","58.74","CHURCHILL A","5060605","2022-04-21 05:00","2022","04","21","05:00","-16.5","","-18.8","","83","","","","34","","27","","24.1","","101.42","","","","-27","","NA"
"-94.07","58.74","CHURCHILL A","5060605","2022-04-21 06:00","2022","04","21","06:00","-17.4","","-19.7","","82","","","","31","","26","","1.6","","101.48","","","","-28","","Snow,Blowing Snow"
"-94.07","58.74","CHURCHILL A","5060605","2022-04-21 07:00","2022","04","21","07:00","-17.0","","-19.4","","82","","","","33","","27","","3.2","","101.57","","","","-28","","Snow,Ice Crystals,Blowing Snow"
"-94.07","58.74","CHURCHILL A","5060605","2022-04-21 08:00","2022","04","21","08:00","-17.7","","-20.2","","81","","","","31","","27","","4.8","","101.64","","","","-29","","Ice Crystals,Blowing Snow"
"-94.07","58.74","CHURCHILL A","5060605","2022-04-21 09:00","2022","04","21","09:00","-17.2","","-19.9","","80","","","","31","","24","","4.8","","101.72","","","","-28","","Ice Crystals,Blowing Snow"
"-94.07","58.74","CHURCHILL A","5060605","2022-04-21 10:00","2022","04","21","10:00","-17.2","","-20.0","","79","","","","31","","25","","8.1","","101.81","","","","-28","","Ice Crystals,Blowing Snow"
"-94.07","58.74","CHURCHILL A","5060605","2022-04-21 11:00","2022","04","21","11:00","-16.8","","-19.8","","78","","","","31","","28","","16.1","","101.86","","","","-28","","Ice Crystals"
"-94.07","58.74","CHURCHILL A","5060605","2022-04-21 12:00","2022","04","21","12:00","-15.7","","-18.7","","78","","","","32","","26","","24.1","","101.94","","","","-26","","Mainly Clear"
"-94.07","58.74","CHURCHILL A","5060605","2022-04-21 13:00","2022","04","21","13:00","-14.8","","-18.1","","76","","","","31","","18","","24.1","","102.00","","","","-23","","NA"
"-94.07","58.74","CHURCHILL A","5060605","2022-04-21 14:00","2022","04","21","14:00","-14.0","","-17.2","","77","","","","31","","16","","24.1","","102.05","","","","-22","","NA"
"-94.07","58.74","CHURCHILL A","5060605","2022-04-21 15:00","2022","04","21","15:00","-12.9","","-16.9","","72","","","","32","","14","","24.1","","102.09","","","","-20","","Clear"
"-94.07","58.74","CHURCHILL A","5060605","2022-04-21 16:00","2022","04","21","16:00","-12.2","","-16.8","","69","","","","29","","8","","24.1","","102.13","","","","-17","","NA"
"-94.07","58.74","CHURCHILL A","5060605","2022-04-21 17:00","2022","04","21","17:00","-12.1","","-17.6","","64","","","","32","","7","","24.1","","102.15","","","","-16","","NA"
"-94.07","58.74","CHURCHILL A","5060605","2022-04-21 18:00","2022","04","21","18:00","-12.3","","-16.7","","70","","","","10","","9","","24.1","","102.12","","","","-18","","Clear"
"-94.07","58.74","CHURCHILL A","5060605","2022-04-21 19:00","2022","04","21","19:00","-13.4","","-17.0","","74","","","","12","","10","","24.1","","102.10","","","","-19","","NA"
"-94.07","58.74","CHURCHILL A","5060605","2022-04-21 20:00","2022","04","21","20:00","-14.4","","-18.1","","74","","","","13","","16","","24.1","","102.10","","","","-22","","NA"
"-94.07","58.74","CHURCHILL A","5060605","2022-04-21 21:00","2022","04","21","21:00","-14.7","","-18.9","","71","","","","17","","18","","24.1","","102.10","","","","-23","","Clear"
"-94.07","58.74","CHURCHILL A","5060605","2022-04-21 22:00","2022","04","21","22:00","-15.4","","-19.4","","72","","","","18","","17","","24.1","","102.10","","","","-24","","NA"
"-94.07","58.74","CHURCHILL A","5060605","2022-04-21 23:00","2022","04","21","23:00","-15.2","","-18.9","","74","","","","17","","19","","24.1","","102.09","","","","-24","","NA"
"-94.07","58.74","CHURCHILL A","5060605","2022-04-22 00:00","2022","04","22","00:00","-15.4","","-18.9","","75","","","","19","","19","","24.1","","102.07","","","","-24","","Clear"
"-94.07","58.74","CHURCHILL A","5060605","2022-04-22 01:00","2022","04","22","01:00","-15.5","","-19.0","","75","","","","18","","21","","24.1","","102.03","","","","-25","","NA"
"-94.07","58.74","CHURCHILL A","5060605","2022-04-22 02:00","2022","04","22","02:00","-15.4","","-18.9","","75","","","","19","","20","","24.1","","102.03","","","","-25","","NA"
"-94.07","58.74","CHURCHILL A","5060605","2022-04-22 03:00","2022","04","22","03:00","-14.4","","-18.6","","71","","","","18","","20","","24.1","","101.99","","","","-23","","Clear"
"-94.07","58.74","CHURCHILL A","5060605","2022-04-22 04:00","2022","04","22","04:00","-13.5","","-17.8","","71","","","","20","","22","","24.1","","101.96","","","","-23","","NA"
"-94.07","58.74","CHURCHILL A","5060605","2022-04-22 05:00","2022","04","22","05:00","-13.1","","-17.7","","69","","","","20","","17","","24.1","","101.94","","","","-21","","NA"
"-94.07","58.74","CHURCHILL A","5060605","2022-04-22 06:00","2022","04","22","06:00","-10.5","","-15.9","","65","","","","21","","18","","24.1","","101.91","","","","-18","","Clear"
"-94.07","58.74","CHURCHILL A","5060605","2022-04-22 07:00","2022","04","22","07:00","-6.6","","-14.0","","56","","","","22","","26","","24.1","","101.90","","","","-15","","NA"
"-94.07","58.74","CHURCHILL A","5060605","2022-04-22 08:00","2022","04","22","08:00","-3.8","","-12.5","","51","","","","22","","24","","24.1","","101.86","","","","-11","","NA"
"-94.07","58.74","CHURCHILL A","5060605","2022-04-22 09:00","2022","04","22","09:00","-1.3","","-11.0","","48","","","","22","","24","","24.1","","101.86","","","","-7","","Clear"
"-94.07","58.74","CHURCHILL A","5060605","2022-04-22 10:00","2022","04","22","10:00","1.7","","-9.1","","45","","","","22","","25","","24.1","","101.86","","","","","","NA"
"-94.07","58.74","CHURCHILL A","5060605","2022-04-22 11:00","2022","04","22","11:00","3.6","","-7.1","","46","","","","21","","24","","24.1","","101.87","","","","","","NA"
"-94.07","58.74","CHURCHILL A","5060605","2022-04-22 12:00","2022","04","22","12:00","4.6","","-5.9","","46","","","","22","","28","","24.1","","101.86","","","","","","Mainly Clear"
"-94.07","58.74","CHURCHILL A","5060605","2022-04-22 13:00","2022","04","22","13:00","5.0","","-5.4","","47","","","","22","","30","","24.1","","101.84","","","","","","NA"
"-94.07","58.74","CHURCHILL A","5060605","2022-04-22 14:00","2022","04","22","14:00","5.7","","-5.0","","46","","","","22","","31","","24.1","","101.84","","","","","","NA"
"-94.07","58.74","CHURCHILL A","5060605","2022-04-22 15:00","2022","04","22","15:00","6.0","","-4.6","","46","","","","22","","28","","24.1","","101.83","","","","","","Clear"
"-94.07","58.74","CHURCHILL A","5060605","2022-04-22 16:00","2022","04","22","16:00","6.2","","-4.3","","47","","","","22","","25","","24.1","","101.84","","","","","","NA"
"-94.07","58.74","CHURCHILL A","5060605","2022-04-22 17:00","2022","04","22","17:00","6.5","","-4.2","","46","","","","22","","24","","24.1","","101.84","","","","","","NA"
"-94.07","58.74","CHURCHILL A","5060605","2022-04-22 18:00","2022","04","22","18:00","5.6","","-3.2","","53","","","","20","","20","","24.1","","101.87","","","","","","Mostly Cloudy"
"-94.07","58.74","CHURCHILL A","5060605","2022-04-22 19:00","2022","04","22","19:00","4.6","","-3.6","","55","","","","20","","21","","24.1","","101.90","","","","","","NA"
"-94.07","58.74","CHURCHILL A","5060605","2022-04-22 20:00","2022","04","22","20:00","3.8","","-3.7","","58","","","","21","","19","","24.1","","101.95","","","","","","NA"
"-94.07","58.74","CHURCHILL A","5060605","2022-04-22 21:00","2022","04","22","21:00","2.9","","-4.6","","58","","","","21","","18","","24.1","","101.96","","","","","","Clear"
"-94.07","58.74","CHURCHILL A","5060605","2022-04-22 22:00","2022","04","22","22:00","0.7","","-4.7","","67","","","","20","","14","","24.1","","101.99","","","","","","NA"
"-94.07","58.74","CHURCHILL A","5060605","2022-04-22 23:00","2022","04","22","23:00","-0.1","","-5.5","","67","","","","21","","16","","24.1","","102.03","","","","-5","","NA"
"-94.07","58.74","CHURCHILL A","5060605","2022-04-23 00:00","2022","04","23","00:00","-1.0","","-6.4","","67","","","","20","","16","","24.1","","102.05","","","","-6","","Clear"
"-94.07","58.74","CHURCHILL A","5060605","2022-04-23 01:00","2022","04","23","01:00","-1.3","","-7.1","","65","","","","21","","14","","24.1","","102.03","","","","-6","","NA"
"-94.07","58.74","CHURCHILL A","5060605","2022-04-23 02:00","2022","04","23","02:00","-3.8","","-8.0","","73","","","","19","","15","","24.1","","102.04","","","","-9","","NA"
"-94.07","58.74","CHURCHILL A","5060605","2022-04-23 03:00","2022","04","23","03:00","-4.3","","-8.6","","72","","","","19","","14","","24.1","","102.00","","","","-9","","Clear"
"-94.07","58.74","CHURCHILL A","5060605","2022-04-23 04:00","2022","04","23","04:00","-5.0","","-9.6","","71","","","","18","","14","","24.1","","101.98","","","","-10","","NA"
"-94.07","58.74","CHURCHILL A","5060605","2022-04-23 05:00","2022","04","23","05:00","-5.5","","-10.1","","70","","","","19","","15","","24.1","","102.04","","","","-11","","NA"
"-94.07","58.74","CHURCHILL A","5060605","2022-04-23 06:00","2022","04","23","06:00","-3.4","","-9.9","","61","","","","22","","11","","24.1","","102.09","","","","-8","","Clear"
"-94.07","58.74","CHURCHILL A","5060605","2022-04-23 07:00","2022","04","23","07:00","-3.4","","-9.5","","63","","","","26","","9","","24.1","","102.16","","","","-7","","NA"
"-94.07","58.74","CHURCHILL A","5060605","2022-04-23 08:00","2022","04","23","08:00","-5.7","","-8.8","","79","","","","30","","15","","24.1","","102.14","","","","-11","","NA"
"-94.07","58.74","CHURCHILL A","5060605","2022-04-23 09:00","2022","04","23","09:00","-7.3","","-8.0","","95","","","","32","","20","","24.1","","102.16","","","","-14","","Mainly Clear"
"-94.07","58.74","CHURCHILL A","5060605","2022-04-23 10:00","2022","04","23","10:00","-5.5","","-7.0","","89","","","","35","","23","","24.1","","102.20","","","","-13","","NA"
"-94.07","58.74","CHURCHILL A","5060605","2022-04-23 11:00","2022","04","23","11:00","-5.6","","-7.0","","90","","","","36","","27","","24.1","","102.32","","","","-13","","NA"
"-94.07","58.74","CHURCHILL A","5060605","2022-04-23 12:00","2022","04","23","12:00","-6.1","","-7.5","","90","","","","2","","27","","24.1","","102.38","","","","-14","","Mostly Cloudy"
"-94.07","58.74","CHURCHILL A","5060605","2022-04-23 13:00","2022","04","23","13:00","-6.1","","-7.9","","87","","","","2","","37","","24.1","","102.42","","","","-15","","NA"
"-94.07","58.74","CHURCHILL A","5060605","2022-04-23 14:00","2022","04","23","14:00","-6.4","","-8.1","","88","","","","2","","33","","24.1","","102.48","","","","-15","","NA"
"-94.07","58.74","CHURCHILL A","5060605","2022-04-23 15:00","2022","04","23","15:00","-7.0","","-8.8","","87","","","","2","","40","","24.1","","102.54","","","","-17","","Cloudy"
"-94.07","58.74","CHURCHILL A","5060605","2022-04-23 16:00","2022","04","23","16:00","-7.3","","-9.0","","88","","","","3","","34","","24.1","","102.63","","","","-16","","NA"
"-94.07","58.74","CHURCHILL A","5060605","2022-04-23 17:00","2022","04","23","17:00","-7.8","","-9.6","","87","","","","4","","38","","24.1","","102.68","","","","-18","","NA"
"-94.07","58.74","CHURCHILL A","5060605","2022-04-23 18:00","2022","04","23","18:00","-8.7","","-10.8","","85","","","","4","","39","","19.3","","102.80","","","","-19","","Cloudy"
"-94.07","58.74","CHURCHILL A","5060605","2022-04-23 19:00","2022","04","23","19:00","-9.6","","-11.8","","84","","","","3","","42","","12.9","","102.84","","","","-20","","Snow"
"-94.07","58.74","CHURCHILL A","5060605","2022-04-23 20:00","2022","04","23","20:00","-10.3","","-12.5","","84","","","","4","","44","","9.7","","102.90","","","","-22","","Snow"
"-94.07","58.74","CHURCHILL A","5060605","2022-04-23 21:00","2022","04","23","21:00","-11.1","","-13.4","","83","","","","4","","43","","9.7","","102.99","","","","-23","","Snow"
"-94.07","58.74","CHURCHILL A","5060605","2022-04-23 22:00","2022","04","23","22:00","-12.2","","-14.5","","83","","","","4","","38","","16.1","","103.04","","","","-23","","Snow"
"-94.07","58.74","CHURCHILL A","5060605","2022-04-23 23:00","2022","04","23","23:00","-13.6","","-16.1","","82","","","","3","","35","","24.1","","103.11","","","","-25","","Snow"
"-94.07","58.74","CHURCHILL A","5060605","2022-04-24 00:00","2022","04","24","00:00","-14.4","","-17.0","","81","","","","3","","33","","24.1","","103.15","","","","-26","","Clear"
"-94.07","58.74","CHURCHILL A","5060605","2022-04-24 01:00","2022","04","24","01:00","-14.9","","-18.2","","76","","","","3","","41","","24.1","","103.21","","","","-27","","NA"
"-94.07","58.74","CHURCHILL A","5060605","2022-04-24 02:00","2022","04","24","02:00","-15.6","","-18.8","","77","","","","3","","31","","24.1","","103.22","","","","-27","","NA"
"-94.07","58.74","CHURCHILL A","5060605","2022-04-24 03:00","2022","04","24","03:00","-16.3","","-18.8","","81","","","","3","","36","","24.1","","103.23","","","","-29","","Clear"
"-94.07","58.74","CHURCHILL A","5060605","2022-04-24 04:00","2022","04","24","04:00","-17.0","","-19.5","","81","","","","3","","34","","24.1","","103.26","","","","-29","","NA"
"-94.07","58.74","CHURCHILL A","5060605","2022-04-24 05:00","2022","04","24","05:00","-17.4","","-19.9","","81","","","","3","","29","","24.1","","103.33","","","","-29","","NA"
"-94.07","58.74","CHURCHILL A","5060605","2022-04-24 06:00","2022","04","24","06:00","-17.4","","-20.1","","80","","","","3","","31","","24.1","","103.36","","","","-29","","Mainly Clear"
"-94.07","58.74","CHURCHILL A","5060605","2022-04-24 07:00","2022","04","24","07:00","-17.0","","-20.1","","77","","","","3","","31","","24.1","","103.41","","","","-29","","NA"
"-94.07","58.74","CHURCHILL A","5060605","2022-04-24 08:00","2022","04","24","08:00","-16.5","","-19.6","","77","","","","3","","32","","24.1","","103.41","","","","-28","","NA"
"-94.07","58.74","CHURCHILL A","5060605","2022-04-24 09:00","2022","04","24","09:00","-16.0","","-19.5","","75","","","","2","","38","","24.1","","103.37","","","","-29","","Mainly Clear"
"-94.07","58.74","CHURCHILL A","5060605","2022-04-24 10:00","2022","04","24","10:00","-15.3","","-19.1","","73","","","","3","","37","","24.1","","103.39","","","","-27","","NA"
"-94.07","58.74","CHURCHILL A","5060605","2022-04-24 11:00","2022","04","24","11:00","-14.9","","-18.7","","73","","","","3","","35","","24.1","","103.46","","","","-27","","NA"
"-94.07","58.74","CHURCHILL A","5060605","2022-04-24 12:00","2022","04","24","12:00","-14.6","","-18.7","","72","","","","3","","36","","24.1","","103.51","","","","-26","","Mainly Clear"
"-94.07","58.74","CHURCHILL A","5060605","2022-04-24 13:00","2022","04","24","13:00","-14.3","","-18.3","","72","","","","2","","37","","24.1","","103.49","","","","-26","","NA"
"-94.07","58.74","CHURCHILL A","5060605","2022-04-24 14:00","2022","04","24","14:00","-13.9","","-18.3","","70","","","","2","","34","","24.1","","103.53","","","","-25","","NA"
"-94.07","58.74","CHURCHILL A","5060605","2022-04-24 15:00","2022","04","24","15:00","-13.5","","-18.2","","68","","","","2","","31","","24.1","","103.57","","","","-24","","Clear"
"-94.07","58.74","CHURCHILL A","5060605","2022-04-24 16:00","2022","04","24","16:00","-13.7","","-18.6","","67","","","","2","","33","","24.1","","103.53","","","","-25","","NA"
"-94.07","58.74","CHURCHILL A","5060605","2022-04-24 17:00","2022","04","24","17:00","-13.5","","-18.0","","69","","","","1","","33","","24.1","","103.55","","","","-25","","NA"
"-94.07","58.74","CHURCHILL A","5060605","2022-04-24 18:00","2022","04","24","18:00","-13.8","","-17.6","","73","","","","1","","29","","24.1","","103.57","","","","-24","","Clear"
"-94.07","58.74","CHURCHILL A","5060605","2022-04-24 19:00","2022","04","24","19:00","-14.3","","-18.0","","74","","","","1","","25","","24.1","","103.59","","","","-24","","NA"
"-94.07","58.74","CHURCHILL A","5060605","2022-04-24 20:00","2022","04","24","20:00","-15.1","","-18.3","","77","","","","1","","27","","24.1","","103.61","","","","-26","","NA"
"-94.07","58.74","CHURCHILL A","5060605","2022-04-24 21:00","2022","04","24","21:00","-15.9","","-18.4","","81","","","","36","","25","","24.1","","103.59","","","","-26","","Clear"
"-94.07","58.74","CHURCHILL A","5060605","2022-04-24 22:00","2022","04","24","22:00","-16.6","","-18.9","","83","","","","36","","26","","24.1","","103.56","","","","-27","","NA"
"-94.07","58.74","CHURCHILL A","5060605","2022-04-24 23:00","2022","04","24","23:00","-17.0","","-19.2","","83","","","","1","","17","","24.1","","103.57","","","","-26","","NA"
"-94.07","58.74","CHURCHILL A","5060605","2022-04-25 00:00","2022","04","25","00:00","-17.6","","-19.7","","84","","","","36","","16","","24.1","","103.58","","","","-26","","Clear"
"-94.07","58.74","CHURCHILL A","5060605","2022-04-25 01:00","2022","04","25","01:00","-18.3","","-20.2","","85","","","","35","","12","","24.1","","103.59","","","","-26","","NA"
"-94.07","58.74","CHURCHILL A","5060605","2022-04-25 02:00","2022","04","25","02:00","-18.9","","-20.7","","86","","","","33","","13","","24.1","","103.59","","","","-27","","NA"
"-94.07","58.74","CHURCHILL A","5060605","2022-04-25 03:00","2022","04","25","03:00","-21.0","","-23.2","","83","","","","31","","12","","24.1","","103.60","","","","-29","","Clear"
"-94.07","58.74","CHURCHILL A","5060605","2022-04-25 04:00","2022","04","25","04:00","-21.7","","-23.9","","83","","","","33","","13","","24.1","","103.59","","","","-30","","NA"
"-94.07","58.74","CHURCHILL A","5060605","2022-04-25 05:00","2022","04","25","05:00","-21.1","","-23.1","","85","","","","32","","11","","24.1","","103.61","","","","-29","","NA"
"-94.07","58.74","CHURCHILL A","5060605","2022-04-25 06:00","2022","04","25","06:00","-21.8","","-24.0","","83","","","","29","","9","","24.1","","103.65","","","","-29","","Clear"
"-94.07","58.74","CHURCHILL A","5060605","2022-04-25 07:00","2022","04","25","07:00","-20.0","","-22.3","","82","","","","31","","11","","24.1","","103.66","","","","-28","","NA"
"-94.07","58.74","CHURCHILL A","5060605","2022-04-25 08:00","2022","04","25","08:00","-19.3","","-21.8","","81","","","","27","","9","","24.1","","103.68","","","","-26","","NA"
"-94.07","58.74","CHURCHILL A","5060605","2022-04-25 09:00","2022","04","25","09:00","-18.3","","-21.0","","80","","","","29","","13","","24.1","","103.68","","","","-26","","Mainly Clear"
"-94.07","58.74","CHURCHILL A","5060605","2022-04-25 10:00","2022","04","25","10:00","-16.4","","-19.2","","79","","","","32","","14","","24.1","","103.62","","","","-24","","NA"
"-94.07","58.74","CHURCHILL A","5060605","2022-04-25 11:00","2022","04","25","11:00","-15.0","","-19.5","","69","","","","32","","13","","24.1","","103.60","","","","-22","","NA"
"-94.07","58.74","CHURCHILL A","5060605","2022-04-25 12:00","2022","04","25","12:00","-14.1","","-18.6","","69","","","","30","","11","","24.1","","103.55","","","","-21","","Clear"
"-94.07","58.74","CHURCHILL A","5060605","2022-04-25 13:00","2022","04","25","13:00","-13.2","","-18.4","","66","","","","30","","8","","24.1","","103.52","","","","-18","","NA"
"-94.07","58.74","CHURCHILL A","5060605","2022-04-25 14:00","2022","04","25","14:00","-12.4","","-19.7","","55","","","","33","","6","","24.1","","103.43","","","","-16","","NA"
"-94.07","58.74","CHURCHILL A","5060605","2022-04-25 15:00","2022","04","25","15:00","-10.7","","-19.1","","51","","","","32","","4","","24.1","","103.34","","","","-13","","Clear"
"-94.07","58.74","CHURCHILL A","5060605","2022-04-25 16:00","2022","04","25","16:00","-10.1","","-17.8","","54","","","","32","","8","","24.1","","103.27","","","","-15","","NA"
"-94.07","58.74","CHURCHILL A","5060605","2022-04-25 17:00","2022","04","25","17:00","-8.8","","-17.7","","49","","","","30","","11","","24.1","","103.22","","","","-14","","NA"
"-94.07","58.74","CHURCHILL A","5060605","2022-04-25 18:00","2022","04","25","18:00","-8.8","","-17.5","","50","","","","28","","6","","24.1","","103.18","","","","-12","","Clear"
"-94.07","58.74","CHURCHILL A","5060605","2022-04-25 19:00","2022","04","25","19:00","-8.3","","-19.1","","42","","","","21","","10","","24.1","","103.10","","","","-13","","NA"
"-94.07","58.74","CHURCHILL A","5060605","2022-04-25 20:00","2022","04","25","20:00","-9.6","","-19.0","","47","","","","21","","12","","24.1","","103.04","","","","-15","","NA"
"-94.07","58.74","CHURCHILL A","5060605","2022-04-25 21:00","2022","04","25","21:00","-11.1","","-18.5","","55","","","","20","","13","","24.1","","102.98","","","","-18","","Clear"
"-94.07","58.74","CHURCHILL A","5060605","2022-04-25 22:00","2022","04","25","22:00","-11.5","","-18.2","","58","","","","21","","14","","24.1","","102.93","","","","-18","","NA"
"-94.07","58.74","CHURCHILL A","5060605","2022-04-25 23:00","2022","04","25","23:00","-12.6","","-18.7","","61","","","","21","","15","","24.1","","102.87","","","","-20","","NA"
"-94.07","58.74","CHURCHILL A","5060605","2022-04-26 00:00","2022","04","26","00:00","-12.7","","-18.9","","60","","","","22","","17","","24.1","","102.82","","","","-21","","Clear"
"-94.07","58.74","CHURCHILL A","5060605","2022-04-26 01:00","2022","04","26","01:00","-13.4","","-19.6","","60","","","","23","","13","","24.1","","102.81","","","","-20","","NA"
"-94.07","58.74","CHURCHILL A","5060605","2022-04-26 02:00","2022","04","26","02:00","-12.9","","-19.5","","58","","","","25","","14","","24.1","","102.80","","","","-20","","NA"
"-94.07","58.74","CHURCHILL A","5060605","2022-04-26 03:00","2022","04","26","03:00","-12.9","","-19.5","","58","","","","24","","14","","24.1","","102.78","","","","-20","","Clear"
"-94.07","58.74","CHURCHILL A","5060605","2022-04-26 04:00","2022","04","26","04:00","-13.3","","-19.5","","60","","","","24","","13","","24.1","","102.79","","","","-20","","NA"
"-94.07","58.74","CHURCHILL A","5060605","2022-04-26 05:00","2022","04","26","05:00","-14.2","","-20.0","","62","","","","24","","13","","24.1","","102.78","","","","-21","","NA"
"-94.07","58.74","CHURCHILL A","5060605","2022-04-26 06:00","2022","04","26","06:00","-12.6","","-19.5","","57","","","","24","","9","","24.1","","102.75","","","","-18","","Clear"
"-94.07","58.74","CHURCHILL A","5060605","2022-04-26 07:00","2022","04","26","07:00","-10.0","","-18.1","","52","","","","27","","19","","24.1","","102.73","","","","-18","","NA"
"-94.07","58.74","CHURCHILL A","5060605","2022-04-26 08:00","2022","04","26","08:00","-8.0","","-16.9","","49","","","","27","","13","","24.1","","102.71","","","","-14","","NA"
"-94.07","58.74","CHURCHILL A","5060605","2022-04-26 09:00","2022","04","26","09:00","-5.9","","-15.7","","46","","","","26","","14","","24.1","","102.65","","","","-11","","Clear"
"-94.07","58.74","CHURCHILL A","5060605","2022-04-26 10:00","2022","04","26","10:00","-4.0","","-13.8","","47","","","","26","","14","","24.1","","102.61","","","","-9","","NA"
"-94.07","58.74","CHURCHILL A","5060605","2022-04-26 11:00","2022","04","26","11:00","-2.1","","-12.3","","46","","","","26","","16","","24.1","","102.57","","","","-7","","NA"
"-94.07","58.74","CHURCHILL A","5060605","2022-04-26 12:00","2022","04","26","12:00","-0.6","","-11.9","","42","","","","27","","15","","24.1","","102.55","","","","-5","","Mainly Clear"
"-94.07","58.74","CHURCHILL A","5060605","2022-04-26 13:00","2022","04","26","13:00","0.7","","-9.7","","46","","","","29","","13","","24.1","","102.54","","","","","","NA"
"-94.07","58.74","CHURCHILL A","5060605","2022-04-26 14:00","2022","04","26","14:00","1.6","","-10.4","","41","","","","27","","13","","24.1","","102.51","","","","","","NA"
"-94.07","58.74","CHURCHILL A","5060605","2022-04-26 15:00","2022","04","26","15:00","1.8","","-7.9","","49","","","","29","","9","","24.1","","102.48","","","","","","Mainly Clear"
"-94.07","58.74","CHURCHILL A","5060605","2022-04-26 16:00","2022","04","26","16:00","1.5","","-7.2","","52","","","","34","","4","","24.1","","102.45","","","","","","NA"
"-94.07","58.74","CHURCHILL A","5060605","2022-04-26 17:00","2022","04","26","17:00","0.5","","-9.9","","46","","","","4","","7","","24.1","","102.44","","","","","","NA"
"-94.07","58.74","CHURCHILL A","5060605","2022-04-26 18:00","2022","04","26","18:00","-1.3","","-6.5","","68","","","","9","","12","","24.1","","102.41","","","","-5","","Mainly Clear"
"-94.07","58.74","CHURCHILL A","5060605","2022-04-26 19:00","2022","04","26","19:00","-2.0","","-7.3","","67","","","","10","","10","","24.1","","102.39","","","","-6","","NA"
"-94.07","58.74","CHURCHILL A","5060605","2022-04-26 20:00","2022","04","26","20:00","-4.0","","-8.3","","72","","","","9","","14","","24.1","","102.38","","","","-9","","NA"
"-94.07","58.74","CHURCHILL A","5060605","2022-04-26 21:00","2022","04","26","21:00","-6.7","","-8.5","","87","","","","9","","17","","24.1","","102.39","","","","-13","","Mainly Clear"
"-94.07","58.74","CHURCHILL A","5060605","2022-04-26 22:00","2022","04","26","22:00","-7.4","","-9.5","","85","","","","10","","14","","24.1","","102.36","","","","-13","","NA"
"-94.07","58.74","CHURCHILL A","5060605","2022-04-26 23:00","2022","04","26","23:00","-7.7","","-9.8","","85","","","","11","","15","","24.1","","102.34","","","","-14","","NA"
"-94.07","58.74","CHURCHILL A","5060605","2022-04-27 00:00","2022","04","27","00:00","-7.8","","-10.5","","81","","","","11","","13","","24.1","","102.31","","","","-14","","Mainly Clear"
"-94.07","58.74","CHURCHILL A","5060605","2022-04-27 01:00","2022","04","27","01:00","-7.9","","-10.3","","83","","","","13","","11","","24.1","","102.28","","","","-13","","NA"
"-94.07","58.74","CHURCHILL A","5060605","2022-04-27 02:00","2022","04","27","02:00","-7.1","","-9.8","","81","","","","14","","11","","24.1","","102.27","","","","-12","","NA"
"-94.07","58.74","CHURCHILL A","5060605","2022-04-27 03:00","2022","04","27","03:00","-7.1","","-9.8","","81","","","","16","","10","","24.1","","102.26","","","","-12","","Mainly Clear"
"-94.07","58.74","CHURCHILL A","5060605","2022-04-27 04:00","2022","04","27","04:00","-7.3","","-10.0","","81","","","","20","","8","","24.1","","102.25","","","","-11","","NA"
"-94.07","58.74","CHURCHILL A","5060605","2022-04-27 05:00","2022","04","27","05:00","-7.2","","-10.6","","77","","","","36","","2","","24.1","","102.24","","","","-8","","NA"
"-94.07","58.74","CHURCHILL A","5060605","2022-04-27 06:00","2022","04","27","06:00","-7.6","","-10.5","","80","","","","21","","5","","24.1","","102.22","","","","-10","","Mostly Cloudy"
"-94.07","58.74","CHURCHILL A","5060605","2022-04-27 07:00","2022","04","27","07:00","-5.2","","-9.9","","70","","","","25","","8","","24.1","","102.18","","","","-9","","NA"
"-94.07","58.74","CHURCHILL A","5060605","2022-04-27 08:00","2022","04","27","08:00","-3.0","","-10.2","","58","","","","28","","5","","24.1","","102.12","","","","-5","","NA"
"-94.07","58.74","CHURCHILL A","5060605","2022-04-27 09:00","2022","04","27","09:00","-2.2","","-8.5","","62","","","","36","","2","","24.1","","102.06","","","","-3","","Mostly Cloudy"
"-94.07","58.74","CHURCHILL A","5060605","2022-04-27 10:00","2022","04","27","10:00","-0.6","","-8.8","","54","","","","33","","4","","24.1","","102.01","","","","-2","","NA"
"-94.07","58.74","CHURCHILL A","5060605","2022-04-27 11:00","2022","04","27","11:00","0.5","","-7.2","","56","","","","35","","7","","24.1","","101.97","","","","","","NA"
"-94.07","58.74","CHURCHILL A","5060605","2022-04-27 12:00","2022","04","27","12:00","0.1","","-6.3","","62","","","","1","","5","","24.1","","101.96","","","","","","Mostly Cloudy"
"-94.07","58.74","CHURCHILL A","5060605","2022-04-27 13:00","2022","04","27","13:00","-0.6","","-4.5","","75","","","","5","","11","","24.1","","101.94","","","","-4","","NA"
"-94.07","58.74","CHURCHILL A","5060605","2022-04-27 14:00","2022","04","27","14:00","-0.3","","-4.9","","71","","","","6","","8","","24.1","","101.91","","","","-3","","NA"
"-94.07","58.74","CHURCHILL A","5060605","2022-04-27 15:00","2022","04","27","15:00","-0.1","","-4.4","","73","","","","7","","10","","24.1","","101.88","","","","-3","","Mainly Clear"
"-94.07","58.74","CHURCHILL A","5060605","2022-04-27 16:00","2022","04","27","16:00","0.1","","-4.5","","71","","","","7","","13","","24.1","","101.86","","","","","","NA"
"-94.07","58.74","CHURCHILL A","5060605","2022-04-27 17:00","2022","04","27","17:00","0.1","","-5.3","","67","","","","9","","12","","24.1","","101.83","","","","","","NA"
"-94.07","58.74","CHURCHILL A","5060605","2022-04-27 18:00","2022","04","27","18:00","-0.3","","-5.5","","68","","","","9","","14","","24.1","","101.81","","","","-5","","Clear"
"-94.07","58.74","CHURCHILL A","5060605","2022-04-27 19:00","2022","04","27","19:00","-1.4","","-5.5","","74","","","","9","","18","","24.1","","101.81","","","","-7","","NA"
"-94.07","58.74","CHURCHILL A","5060605","2022-04-27 20:00","2022","04","27","20:00","-1.8","","-7.1","","67","","","","11","","14","","24.1","","101.81","","","","-6","","NA"
"-94.07","58.74","CHURCHILL A","5060605","2022-04-27 21:00","2022","04","27","21:00","-2.5","","-7.6","","68","","","","11","","16","","24.1","","101.81","","","","-8","","Clear"
"-94.07","58.74","CHURCHILL A","5060605","2022-04-27 22:00","2022","04","27","22:00","-4.1","","-7.4","","78","","","","11","","16","","24.1","","101.78","","","","-10","","NA"
"-94.07","58.74","CHURCHILL A","5060605","2022-04-27 23:00","2022","04","27","23:00","-3.5","","-6.1","","82","","","","14","","14","","24.1","","101.76","","","","-9","","NA"
"-94.07","58.74","CHURCHILL A","5060605","2022-04-28 00:00","2022","04","28","00:00","-4.8","","-6.9","","85","","","","11","","13","","24.1","","101.75","","","","-10","","Clear"
"-94.07","58.74","CHURCHILL A","5060605","2022-04-28 01:00","2022","04","28","01:00","-5.5","","-6.9","","90","","","","13","","13","","24.1","","101.75","","","","-11","","NA"
"-94.07","58.74","CHURCHILL A","5060605","2022-04-28 02:00","2022","04","28","02:00","-6.0","","-7.1","","92","","","","14","","14","","24.1","","101.74","","","","-12","","NA"
"-94.07","58.74","CHURCHILL A","5060605","2022-04-28 03:00","2022","04","28","03:00","-6.1","","-7.5","","90","","","","12","","13","","24.1","","101.73","","","","-11","","Clear"
"-94.07","58.74","CHURCHILL A","5060605","2022-04-28 04:00","2022","04","28","04:00","-6.3","","-7.8","","89","","","","12","","14","","24.1","","101.69","","","","-12","","NA"
"-94.07","58.74","CHURCHILL A","5060605","2022-04-28 05:00","2022","04","28","05:00","-8.4","","-9.8","","90","","","","11","","15","","32.2","","101.66","","","","-15","","NA"
"-94.07","58.74","CHURCHILL A","5060605","2022-04-28 06:00","2022","04","28","06:00","-7.8","","-9.8","","86","","","","11","","13","","24.1","","101.64","","","","-14","","Clear"
"-94.07","58.74","CHURCHILL A","5060605","2022-04-28 07:00","2022","04","28","07:00","-5.5","","-8.2","","81","","","","13","","9","","24.1","","101.61","","","","-10","","NA"
"-94.07","58.74","CHURCHILL A","5060605","2022-04-28 08:00","2022","04","28","08:00","-1.8","","-6.6","","70","","","","14","","8","","24.1","","101.58","","","","-5","","NA"
"-94.07","58.74","CHURCHILL A","5060605","2022-04-28 09:00","2022","04","28","09:00","0.4","","-4.9","","68","","","","10","","6","","24.1","","101.55","","","","","","Mainly Clear"
"-94.07","58.74","CHURCHILL A","5060605","2022-04-28 10:00","2022","04","28","10:00","0.2","","-3.8","","75","","","","8","","12","","24.1","","101.51","","","","","","NA"
"-94.07","58.74","CHURCHILL A","5060605","2022-04-28 11:00","2022","04","28","11:00","1.2","","-2.9","","74","","","","9","","18","","24.1","","101.47","","","","","","NA"
"-94.07","58.74","CHURCHILL A","5060605","2022-04-28 12:00","2022","04","28","12:00","4.9","","-4.0","","53","","","","15","","10","","24.1","","101.44","","","","","","Mainly Clear"
"-94.07","58.74","CHURCHILL A","5060605","2022-04-28 13:00","2022","04","28","13:00","6.0","","-2.9","","53","","","","17","","15","","24.1","","101.39","","","","","","NA"
"-94.07","58.74","CHURCHILL A","5060605","2022-04-28 14:00","2022","04","28","14:00","7.1","","-3.8","","46","","","","19","","9","","24.1","","101.36","","","","","","NA"
"-94.07","58.74","CHURCHILL A","5060605","2022-04-28 15:00","2022","04","28","15:00","8.1","","-4.8","","40","","","","21","","11","","24.1","","101.31","","","","","","Mostly Cloudy"
"-94.07","58.74","CHURCHILL A","5060605","2022-04-28 16:00","2022","04","28","16:00","8.1","","-4.0","","42","","","","18","","6","","24.1","","101.27","","","","","","NA"
"-94.07","58.74","CHURCHILL A","5060605","2022-04-28 17:00","2022","04","28","17:00","6.8","","-3.7","","47","","","","17","","11","","24.1","","101.24","","","","","","NA"
"-94.07","58.74","CHURCHILL A","5060605","2022-04-28 18:00","2022","04","28","18:00","4.4","","-1.2","","67","","","","10","","9","","24.1","","101.22","","","","","","Mostly Cloudy"
"-94.07","58.74","CHURCHILL A","5060605","2022-04-28 19:00","2022","04","28","19:00","3.1","","-1.1","","74","","","","11","","13","","24.1","","101.22","","","","","","NA"
"-94.07","58.74","CHURCHILL A","5060605","2022-04-28 20:00","2022","04","28","20:00","2.1","","-1.7","","76","","","","11","","12","","24.1","","101.21","","","","","","NA"
"-94.07","58.74","CHURCHILL A","5060605","2022-04-28 21:00","2022","04","28","21:00","0.8","","-2.1","","81","","","","14","","14","","24.1","","101.20","","","","","","Mainly Clear"
"-94.07","58.74","CHURCHILL A","5060605","2022-04-28 22:00","2022","04","28","22:00","0.1","","-2.6","","82","","","","14","","12","","24.1","","101.16","","","","","","NA"
"-94.07","58.74","CHURCHILL A","5060605","2022-04-28 23:00","2022","04","28","23:00","-0.4","","-3.3","","81","","","","16","","12","","24.1","","101.16","","","","-4","","NA"
"-94.07","58.74","CHURCHILL A","5060605","2022-04-29 00:00","2022","04","29","00:00","-0.9","","-3.6","","82","","","","16","","13","","24.1","","101.13","","","","-5","","Clear"
"-94.07","58.74","CHURCHILL A","5060605","2022-04-29 01:00","2022","04","29","01:00","-0.7","","-3.4","","82","","","","18","","12","","24.1","","101.12","","","","-5","","NA"
"-94.07","58.74","CHURCHILL A","5060605","2022-04-29 02:00","2022","04","29","02:00","-0.2","","-3.0","","81","","","","18","","11","","24.1","","101.13","","","","-4","","NA"
"-94.07","58.74","CHURCHILL A","5060605","2022-04-29 03:00","2022","04","29","03:00","0.0","","-2.7","","82","","","","20","","7","","24.1","","101.15","","","","-2","","Cloudy"
"-94.07","58.74","CHURCHILL A","5060605","2022-04-29 04:00","2022","04","29","04:00","0.9","","-2.6","","78","","","","33","","10","","24.1","","101.14","","","","","","NA"
"-94.07","58.74","CHURCHILL A","5060605","2022-04-29 05:00","2022","04","29","05:00","-1.8","","-2.9","","92","","","","33","","14","","24.1","","101.17","","","","-6","","NA"
"-94.07","58.74","CHURCHILL A","5060605","2022-04-29 06:00","2022","04","29","06:00","-2.2","","-3.0","","94","","","","33","","8","","24.1","","101.20","","","","-5","","Mostly Cloudy"
"-94.07","58.74","CHURCHILL A","5060605","2022-04-29 07:00","2022","04","29","07:00","-3.5","","-4.6","","92","","","","30","","5","","24.1","","101.25","","","","-6","","NA"
"-94.07","58.74","CHURCHILL A","5060605","2022-04-29 08:00","2022","04","29","08:00","-5.0","","-6.2","","91","","","","32","","15","","24.1","","101.26","","","","-11","","NA"
"-94.07","58.74","CHURCHILL A","5060605","2022-04-29 09:00","2022","04","29","09:00","-4.7","","-5.7","","93","","","","32","","13","","24.1","","101.30","","","","-10","","Mostly Cloudy"
"-94.07","58.74","CHURCHILL A","5060605","2022-04-29 10:00","2022","04","29","10:00","-4.0","","-5.4","","90","","","","32","","14","","24.1","","101.37","","","","-9","","NA"
"-94.07","58.74","CHURCHILL A","5060605","2022-04-29 11:00","2022","04","29","11:00","-3.4","","-5.0","","89","","","","33","","17","","24.1","","101.42","","","","-9","","NA"
"-94.07","58.74","CHURCHILL A","5060605","2022-04-29 12:00","2022","04","29","12:00","-2.9","","-4.2","","91","","","","33","","18","","24.1","","101.47","","","","-9","","Mainly Clear"
"-94.07","58.74","CHURCHILL A","5060605","2022-04-29 13:00","2022","04","29","13:00","-2.4","","-4.0","","89","","","","34","","19","","24.1","","101.54","","","","-8","","NA"
"-94.07","58.74","CHURCHILL A","5060605","2022-04-29 14:00","2022","04","29","14:00","-1.8","","-3.4","","89","","","","34","","21","","24.1","","101.61","","","","-8","","NA"
"-94.07","58.74","CHURCHILL A","5060605","2022-04-29 15:00","2022","04","29","15:00","-1.7","","-3.4","","89","","","","36","","23","","24.1","","101.71","","","","-8","","Mostly Cloudy"
"-94.07","58.74","CHURCHILL A","5060605","2022-04-29 16:00","2022","04","29","16:00","-2.0","","-3.5","","90","","","","36","","22","","24.1","","101.79","","","","-8","","NA"
"-94.07","58.74","CHURCHILL A","5060605","2022-04-29 17:00","2022","04","29","17:00","-2.3","","-4.0","","88","","","","36","","23","","24.1","","101.87","","","","-9","","NA"
"-94.07","58.74","CHURCHILL A","5060605","2022-04-29 18:00","2022","04","29","18:00","-2.4","","-4.0","","89","","","","36","","22","","24.1","","101.97","","","","-9","","Cloudy"
"-94.07","58.74","CHURCHILL A","5060605","2022-04-29 19:00","2022","04","29","19:00","-3.4","","-4.5","","92","","","","36","","27","","24.1","","102.06","","","","-11","","NA"
"-94.07","58.74","CHURCHILL A","5060605","2022-04-29 20:00","2022","04","29","20:00","-4.1","","-5.2","","92","","","","36","","28","","24.1","","102.13","","","","-12","","NA"
"-94.07","58.74","CHURCHILL A","5060605","2022-04-29 21:00","2022","04","29","21:00","-4.8","","-5.9","","92","","","","2","","27","","24.1","","102.21","","","","-12","","Cloudy"
"-94.07","58.74","CHURCHILL A","5060605","2022-04-29 22:00","2022","04","29","22:00","-5.6","","-6.6","","93","","","","1","","27","","24.1","","102.28","","","","-13","","NA"
"-94.07","58.74","CHURCHILL A","5060605","2022-04-29 23:00","2022","04","29","23:00","-6.4","","-7.3","","93","","","","2","","20","","24.1","","102.35","","","","-13","","NA"
"-94.07","58.74","CHURCHILL A","5060605","2022-04-30 00:00","2022","04","30","00:00","-6.8","","-7.5","","95","","","","36","","25","","24.1","","102.40","","","","-15","","Cloudy"
"-94.07","58.74","CHURCHILL A","5060605","2022-04-30 01:00","2022","04","30","01:00","-7.2","","-8.0","","94","","","","1","","20","","24.1","","102.46","","","","-14","","NA"
"-94.07","58.74","CHURCHILL A","5060605","2022-04-30 02:00","2022","04","30","02:00","-7.2","","-7.9","","95","","","","36","","20","","24.1","","102.51","","","","-14","","NA"
"-94.07","58.74","CHURCHILL A","5060605","2022-04-30 03:00","2022","04","30","03:00","-7.2","","-7.9","","95","","","","1","","20","","12.9","","102.55","","","","-14","","Fog"
"-94.07","58.74","CHURCHILL A","5060605","2022-04-30 04:00","2022","04","30","04:00","-7.1","","-7.7","","96","","","","35","","19","","9.7","","102.62","","","","-14","","Fog"
"-94.07","58.74","CHURCHILL A","5060605","2022-04-30 05:00","2022","04","30","05:00","-7.0","","-7.7","","95","","","","1","","23","","9.7","","102.67","","","","-15","","Fog"
"-94.07","58.74","CHURCHILL A","5060605","2022-04-30 06:00","2022","04","30","06:00","-6.7","","-7.4","","95","","","","1","","21","","4.8","","102.69","","","","-14","","Fog"
"-94.07","58.74","CHURCHILL A","5060605","2022-04-30 07:00","2022","04","30","07:00","-6.6","","-7.1","","96","","","","2","","21","","1.2","","102.71","","","","-14","","Fog"
"-94.07","58.74","CHURCHILL A","5060605","2022-04-30 08:00","2022","04","30","08:00","-6.8","","-7.5","","95","","","","35","","20","","6.4","","102.77","","","","-14","","Fog"
"-94.07","58.74","CHURCHILL A","5060605","2022-04-30 09:00","2022","04","30","09:00","-7.1","","-7.9","","94","","","","1","","22","","9.7","","102.75","","","","-15","","Fog"
"-94.07","58.74","CHURCHILL A","5060605","2022-04-30 10:00","2022","04","30","10:00","-6.9","","-7.8","","94","","","","1","","20","","9.7","","102.82","","","","-14","","Fog"
"-94.07","58.74","CHURCHILL A","5060605","2022-04-30 11:00","2022","04","30","11:00","-7.2","","-8.0","","94","","","","2","","21","","4.8","","102.80","","","","-15","","Fog"
"-94.07","58.74","CHURCHILL A","5060605","2022-04-30 12:00","2022","04","30","12:00","-7.1","","-7.9","","94","","","","1","","22","","4.8","","102.86","","","","-15","","Fog"
"-94.07","58.74","CHURCHILL A","5060605","2022-04-30 13:00","2022","04","30","13:00","-6.9","","-8.0","","92","","","","36","","21","","19.3","","102.86","","","","-14","","Snow"
"-94.07","58.74","CHURCHILL A","5060605","2022-04-30 14:00","2022","04","30","14:00","-7.5","","-8.6","","92","","","","36","","25","","19.3","","102.86","","","","-16","","Snow"
"-94.07","58.74","CHURCHILL A","5060605","2022-04-30 15:00","2022","04","30","15:00","-8.2","","-9.4","","91","","","","36","","23","","19.3","","102.88","","","","-16","","Snow"
"-94.07","58.74","CHURCHILL A","5060605","2022-04-30 16:00","2022","04","30","16:00","-8.6","","-10.1","","89","","","","1","","22","","24.1","","102.90","","","","-16","","NA"
"-94.07","58.74","CHURCHILL A","5060605","2022-04-30 17:00","2022","04","30","17:00","-8.9","","-11.1","","84","","","","1","","26","","24.1","","102.88","","","","-18","","NA"
"-94.07","58.74","CHURCHILL A","5060605","2022-04-30 18:00","2022","04","30","18:00","-8.9","","-11.0","","85","","","","1","","23","","24.1","","102.89","","","","-17","","Cloudy"
"-94.07","58.74","CHURCHILL A","5060605","2022-04-30 19:00","2022","04","30","19:00","-9.1","","-11.3","","84","","","","2","","22","","24.1","","102.88","","","","-17","","NA"
"-94.07","58.74","CHURCHILL A","5060605","2022-04-30 20:00","2022","04","30","20:00","-9.3","","-11.5","","84","","","","3","","23","","24.1","","102.91","","","","-18","","NA"
"-94.07","58.74","CHURCHILL A","5060605","2022-04-30 21:00","2022","04","30","21:00","-9.4","","-11.5","","85","","","","2","","21","","24.1","","102.90","","","","-17","","Cloudy"
"-94.07","58.74","CHURCHILL A","5060605","2022-04-30 22:00","2022","04","30","22:00","-9.5","","-11.4","","86","","","","3","","22","","24.1","","102.92","","","","-18","","NA"
"-94.07","58.74","CHURCHILL A","5060605","2022-04-30 23:00","2022","04","30","23:00","-9.7","","-11.6","","86","","","","2","","22","","24.1","","102.93","","","","-18","","NA"
